<stationlist xmlns:esm="https://esm-db.eu/esmws/shakemap/1/" created="1783994412">
	<station code="ATEI" name="ATEI" netid="HC" source="Seismological Network of Crete (HC)" insttype="" lat="35.5193" lon="24.0432" esm:processing="manual (Paolucci et al 2011)" esm:quality="good">
		<comp name="--.HNE" depth="0.0">
			<acc value="0.00791485215552536" flag="0"/>
			<vel value="0.00683098032278171" flag="0"/>
			<psa03 value="0.023209618252469" flag="0"/>
			<psa10 value="0.0151212492085488" flag="0"/>
			<psa30 value="0.00101893385353379" flag="0"/>
		</comp>
		<comp name="--.HNN" depth="0.0">
			<acc value="0.012129503779717" flag="0"/>
			<vel value="0.00936781932395734" flag="0"/>
			<psa03 value="0.0247322451606957" flag="0"/>
			<psa10 value="0.0138950351653864" flag="0"/>
			<psa30 value="0.000986634943056157" flag="0"/>
		</comp>
		<comp name="--.HNZ" depth="0.0">
			<acc value="0.00716382845891163" flag="0"/>
			<vel value="0.0040464148945482" flag="0"/>
			<psa03 value="0.015926377961044" flag="0"/>
			<psa10 value="0.00961540259823218" flag="0"/>
			<psa30 value="0.00092677795699126" flag="0"/>
		</comp>
	</station>
	<station code="DEYA" name="DEYA" netid="HC" source="Seismological Network of Crete (HC)" insttype="" lat="35.4825" lon="24.014" esm:processing="automatic (Paolucci et al 2011)" esm:quality="best">
		<comp name="--.HNE" depth="0.0">
			<acc value="0.0257755790084243" flag="0"/>
			<vel value="0.0220821037050144" flag="0"/>
			<psa03 value="0.0789046541295834" flag="0"/>
			<psa10 value="0.03519943428978" flag="0"/>
			<psa30 value="0.00188851968849619" flag="0"/>
		</comp>
		<comp name="--.HNN" depth="0.0">
			<acc value="0.0219271737722093" flag="0"/>
			<vel value="0.0133468103325066" flag="0"/>
			<psa03 value="0.0457853820151144" flag="0"/>
			<psa10 value="0.02925198842569" flag="0"/>
			<psa30 value="0.00131897925090008" flag="0"/>
		</comp>
		<comp name="--.HNZ" depth="0.0">
			<acc value="0.0189162776043017" flag="0"/>
			<vel value="0.0114349166083" flag="0"/>
			<psa03 value="0.0405401986100435" flag="0"/>
			<psa10 value="0.0189922050153618" flag="0"/>
			<psa30 value="0.00190142679352466" flag="0"/>
		</comp>
	</station>
	<station code="NERO" name="NERO" netid="HC" source="Seismological Network of Crete (HC)" insttype="" lat="35.474" lon="24.0423" esm:processing="automatic (Paolucci et al 2011)" esm:quality="best">
		<comp name="--.HNE" depth="0.0">
			<acc value="0.0131124444646279" flag="0"/>
			<vel value="0.0126516475094507" flag="0"/>
			<psa03 value="0.0263854145708838" flag="0"/>
			<psa10 value="0.0180464504887583" flag="0"/>
			<psa30 value="0.00101377684524047" flag="0"/>
		</comp>
		<comp name="--.HNN" depth="0.0">
			<acc value="0.018439742090564" flag="0"/>
			<vel value="0.0136274665390169" flag="0"/>
			<psa03 value="0.0410994960774166" flag="0"/>
			<psa10 value="0.0170896533556805" flag="0"/>
			<psa30 value="0.00123841089281072" flag="0"/>
		</comp>
		<comp name="--.HNZ" depth="0.0">
			<acc value="0.0127472123116411" flag="0"/>
			<vel value="0.0122993330201219" flag="0"/>
			<psa03 value="0.030313898772016" flag="0"/>
			<psa10 value="0.0313151894776099" flag="0"/>
			<psa30 value="0.00203150374382102" flag="0"/>
		</comp>
	</station>
	<station code="PASK" name="PASK" netid="HC" source="Seismological Network of Crete (HC)" insttype="" lat="35.4996" lon="24.0121" esm:processing="manual (Paolucci et al 2011)" esm:quality="good">
		<comp name="--.HNE" depth="0.0">
			<acc value="0.0189123323445063" flag="0"/>
			<vel value="0.0134946303668014" flag="0"/>
			<psa03 value="0.0677155431140673" flag="0"/>
			<psa10 value="0.0224506691216471" flag="0"/>
			<psa30 value="0.00160963038011303" flag="0"/>
		</comp>
		<comp name="--.HNN" depth="0.0">
			<acc value="0.0169163020234919" flag="0"/>
			<vel value="0.0139078516405519" flag="0"/>
			<psa03 value="0.0438702707734679" flag="0"/>
			<psa10 value="0.0201233905758652" flag="0"/>
			<psa30 value="0.00162787231771853" flag="0"/>
		</comp>
		<comp name="--.HNZ" depth="0.0">
			<acc value="0.00983370394704721" flag="0"/>
			<vel value="0.00833110492106318" flag="0"/>
			<psa03 value="0.0287909072563073" flag="0"/>
			<psa10 value="0.0181161113534679" flag="0"/>
			<psa30 value="0.000907156865523579" flag="0"/>
		</comp>
	</station>
	<station code="POLY" name="POLY" netid="HC" source="Seismological Network of Crete (HC)" insttype="" lat="35.5226" lon="24.0602" esm:processing="automatic (Paolucci et al 2011)" esm:quality="good">
		<comp name="--.HNE" depth="0.0">
			<acc value="0.00992563845918976" flag="0"/>
			<vel value="0.00957208309138144" flag="0"/>
			<psa03 value="0.0194182863661534" flag="0"/>
			<psa10 value="0.0214673014783558" flag="0"/>
			<psa30 value="0.00113364593181194" flag="0"/>
		</comp>
		<comp name="--.HNN" depth="0.0">
			<acc value="0.0121181336084858" flag="0"/>
			<vel value="0.0104189378368711" flag="0"/>
			<psa03 value="0.0382206230745422" flag="0"/>
			<psa10 value="0.0156824251337107" flag="0"/>
			<psa30 value="0.00154664131156174" flag="0"/>
		</comp>
		<comp name="--.HNZ" depth="0.0">
			<acc value="0.00752890981082285" flag="0"/>
			<vel value="0.00725756973601067" flag="0"/>
			<psa03 value="0.0208981135641269" flag="0"/>
			<psa10 value="0.0148307680906051" flag="0"/>
			<psa30 value="0.000821095278949182" flag="0"/>
		</comp>
	</station>
	<station code="ARK1" name="ARK1" netid="HI" source="ITSAK Strong Motion Network" insttype="" lat="35.148777" lon="25.264194" esm:processing="automatic (Paolucci et al 2011)" esm:quality="good">
		<comp name="--.HNE" depth="0.0">
			<acc value="0.00254958989705316" flag="0"/>
			<vel value="0.00227192831302165" flag="0"/>
			<psa03 value="0.010026448708228" flag="0"/>
			<psa10 value="0.00394898488211783" flag="0"/>
			<psa30 value="0.000692835532370425" flag="0"/>
		</comp>
		<comp name="--.HNN" depth="0.0">
			<acc value="0.0023012478407617" flag="0"/>
			<vel value="0.00298592158334323" flag="0"/>
			<psa03 value="0.00648056081576577" flag="0"/>
			<psa10 value="0.00327955662953148" flag="0"/>
			<psa30 value="0.000470387150423508" flag="0"/>
		</comp>
		<comp name="--.HNZ" depth="0.0">
			<acc value="0.0013324521673407" flag="0"/>
			<vel value="0.00146003567294115" flag="0"/>
			<psa03 value="0.00354766763275712" flag="0"/>
			<psa10 value="0.0028681677364113" flag="0"/>
			<psa30 value="0.000273321387450527" flag="0"/>
		</comp>
	</station>
	<station code="CH02" name="CH02" netid="HI" source="ITSAK Strong Motion Network" insttype="" lat="35.5145" lon="24.0315" esm:processing="automatic (Paolucci et al 2011)" esm:quality="good">
		<comp name="--.HNE" depth="0.0">
			<acc value="0.00908393017302566" flag="0"/>
			<vel value="0.008999447077562" flag="0"/>
			<psa03 value="0.0246846899270615" flag="0"/>
			<psa10 value="0.0121685726707192" flag="0"/>
			<psa30 value="0.000840970866442631" flag="0"/>
		</comp>
		<comp name="--.HNN" depth="0.0">
			<acc value="0.00841257267671029" flag="0"/>
			<vel value="0.00837050595659001" flag="0"/>
			<psa03 value="0.0404302642440847" flag="0"/>
			<psa10 value="0.0161683223220038" flag="0"/>
			<psa30 value="0.0010189908364753" flag="0"/>
		</comp>
		<comp name="--.HNZ" depth="0.0">
			<acc value="0.00613128048494412" flag="0"/>
			<vel value="0.00702332111873727" flag="0"/>
			<psa03 value="0.0183320946196326" flag="0"/>
			<psa10 value="0.0141408133219831" flag="0"/>
			<psa30 value="0.000663048663303203" flag="0"/>
		</comp>
	</station>
	<station code="CH03" name="CH03" netid="HI" source="ITSAK Strong Motion Network" insttype="" lat="35.53303" lon="24.0705" esm:processing="automatic (Paolucci et al 2011)" esm:quality="good">
		<comp name="--.HNE" depth="0.0">
			<acc value="0.0070046048990964" flag="0"/>
			<vel value="0.00670670110544115" flag="0"/>
			<psa03 value="0.0309220510382904" flag="0"/>
			<psa10 value="0.0117642152590251" flag="0"/>
			<psa30 value="0.000676279123089565" flag="0"/>
		</comp>
		<comp name="--.HNN" depth="0.0">
			<acc value="0.0107038182024578" flag="0"/>
			<vel value="0.0118050221596688" flag="0"/>
			<psa03 value="0.0318056694695082" flag="0"/>
			<psa10 value="0.0159367276049904" flag="0"/>
			<psa30 value="0.00124343716327626" flag="0"/>
		</comp>
		<comp name="--.HNZ" depth="0.0">
			<acc value="0.00737618994392951" flag="0"/>
			<vel value="0.00365667388619799" flag="0"/>
			<psa03 value="0.0123296475078033" flag="0"/>
			<psa10 value="0.00799217881762309" flag="0"/>
			<psa30 value="0.000542220554867346" flag="0"/>
		</comp>
	</station>
	<station code="GOR1" name="GOR1" netid="HI" source="ITSAK Strong Motion Network" insttype="" lat="35.0582" lon="24.9628" esm:processing="automatic (Paolucci et al 2011)" esm:quality="good">
		<comp name="--.HNE" depth="0.0">
			<acc value="0.00425262594558638" flag="0"/>
			<vel value="0.00379738462142627" flag="0"/>
			<psa03 value="0.0144751880768362" flag="0"/>
			<psa10 value="0.00859478092455525" flag="0"/>
			<psa30 value="0.000473582830871654" flag="0"/>
		</comp>
		<comp name="--.HNN" depth="0.0">
			<acc value="0.00395550449591997" flag="0"/>
			<vel value="0.00320265438628743" flag="0"/>
			<psa03 value="0.012319599967203" flag="0"/>
			<psa10 value="0.00584672778577155" flag="0"/>
			<psa30 value="0.0007367237522496" flag="0"/>
		</comp>
		<comp name="--.HNZ" depth="0.0">
			<acc value="0.0029029712975258" flag="0"/>
			<vel value="0.00246610127796324" flag="0"/>
			<psa03 value="0.0125304407572873" flag="0"/>
			<psa10 value="0.00472208031464608" flag="0"/>
			<psa30 value="0.000384992170508519" flag="0"/>
		</comp>
	</station>
	<station code="HER1" name="HER1" netid="HI" source="ITSAK Strong Motion Network" insttype="" lat="35.317672" lon="25.10217" esm:processing="automatic (Paolucci et al 2011)" esm:quality="good">
		<comp name="--.HNE" depth="0.0">
			<acc value="0.00587618484272792" flag="0"/>
			<vel value="0.0089545352184941" flag="0"/>
			<psa03 value="0.0150308746279264" flag="0"/>
			<psa10 value="0.0215953762126895" flag="0"/>
			<psa30 value="0.00104972308066899" flag="0"/>
		</comp>
		<comp name="--.HNN" depth="0.0">
			<acc value="0.00672684288490624" flag="0"/>
			<vel value="0.00875075826309345" flag="0"/>
			<psa03 value="0.014033640597316" flag="0"/>
			<psa10 value="0.0236875891865309" flag="0"/>
			<psa30 value="0.00099846603930822" flag="0"/>
		</comp>
		<comp name="--.HNZ" depth="0.0">
			<acc value="0.0075164159658933" flag="0"/>
			<vel value="0.00650280277105279" flag="0"/>
			<psa03 value="0.0151211683698603" flag="0"/>
			<psa10 value="0.0147005388385515" flag="0"/>
			<psa30 value="0.000442354147541313" flag="0"/>
		</comp>
	</station>
	<station code="KIS1" name="KIS1" netid="HI" source="ITSAK Strong Motion Network" insttype="" lat="35.493933" lon="23.658993" esm:processing="automatic (Paolucci et al 2011)" esm:quality="good">
		<comp name="--.HNE" depth="0.0">
			<acc value="0.0199325805067039" flag="0"/>
			<vel value="0.0163180592530763" flag="0"/>
			<psa03 value="0.0653151549334642" flag="0"/>
			<psa10 value="0.0300727171699233" flag="0"/>
			<psa30 value="0.00197429328724095" flag="0"/>
		</comp>
		<comp name="--.HNN" depth="0.0">
			<acc value="0.0272495679280911" flag="0"/>
			<vel value="0.0222848850939658" flag="0"/>
			<psa03 value="0.0646978848756856" flag="0"/>
			<psa10 value="0.031864458363984" flag="0"/>
			<psa30 value="0.001597553746762" flag="0"/>
		</comp>
		<comp name="--.HNZ" depth="0.0">
			<acc value="0.0179737227279697" flag="0"/>
			<vel value="0.0155297754557969" flag="0"/>
			<psa03 value="0.0364320306307301" flag="0"/>
			<psa10 value="0.0166608124470576" flag="0"/>
			<psa30 value="0.00122374919237814" flag="0"/>
		</comp>
	</station>
	<station code="SFK2" name="SFK2" netid="HI" source="ITSAK Strong Motion Network" insttype="" lat="35.211556" lon="24.188889" esm:processing="automatic (Paolucci et al 2011)" esm:quality="best">
		<comp name="--.HNE" depth="0.0">
			<acc value="0.0184890160714693" flag="0"/>
			<vel value="0.0107665816951083" flag="0"/>
			<psa03 value="0.062268828129264" flag="0"/>
			<psa10 value="0.00751946328378894" flag="0"/>
			<psa30 value="0.000598761071232402" flag="0"/>
		</comp>
		<comp name="--.HNN" depth="0.0">
			<acc value="0.016860388559543" flag="0"/>
			<vel value="0.00977854822263578" flag="0"/>
			<psa03 value="0.0486516031382715" flag="0"/>
			<psa10 value="0.0120394741185737" flag="0"/>
			<psa30 value="0.000740013136821851" flag="0"/>
		</comp>
		<comp name="--.HNZ" depth="0.0">
			<acc value="0.0112448912768928" flag="0"/>
			<vel value="0.00511355004848409" flag="0"/>
			<psa03 value="0.0270480574260595" flag="0"/>
			<psa10 value="0.0034747636235368" flag="0"/>
			<psa30 value="0.000466651069593156" flag="0"/>
		</comp>
	</station>
	<station code="IMMV" name="IMMV" netid="HL" source="National Observatory of Athens Seismic Network" insttype="" lat="35.4606" lon="23.9811" esm:processing="manual (Paolucci et al 2011)" esm:quality="best">
		<comp name="--.HNE" depth="0.0">
			<acc value="0.0116063984136978" flag="0"/>
			<vel value="0.00825796111283" flag="0"/>
			<psa03 value="0.0472516093538884" flag="0"/>
			<psa10 value="0.0128968296641546" flag="0"/>
			<psa30 value="0.000633106940228792" flag="0"/>
		</comp>
		<comp name="--.HNN" depth="0.0">
			<acc value="0.0187376305859419" flag="0"/>
			<vel value="0.0119785922915262" flag="0"/>
			<psa03 value="0.049411564940503" flag="0"/>
			<psa10 value="0.0117172462100642" flag="0"/>
			<psa30 value="0.000814545990922481" flag="0"/>
		</comp>
		<comp name="--.HNZ" depth="0.0">
			<acc value="0.0129041730794991" flag="0"/>
			<vel value="0.00739397808478691" flag="0"/>
			<psa03 value="0.041356085991913" flag="0"/>
			<psa10 value="0.00789691875710364" flag="0"/>
			<psa30 value="0.000803234147821576" flag="0"/>
		</comp>
	</station>
	<station code="KTHA" name="KTHA" netid="GE" source="GEOFON" insttype="" lat="36.2566" lon="23.0621" esm:processing="automatic (Paolucci et al 2011)" esm:quality="bad">
		<comp name="--.HNE" depth="0.0">
			<acc value="0" flag="1"/>
			<vel value="0" flag="1"/>
			<psa03 value="0" flag="1"/>
			<psa10 value="0" flag="1"/>
			<psa30 value="0" flag="1"/>
		</comp>
		<comp name="--.HNN" depth="0.0">
			<acc value="0" flag="1"/>
			<vel value="0" flag="1"/>
			<psa03 value="0" flag="1"/>
			<psa10 value="0" flag="1"/>
			<psa30 value="0" flag="1"/>
		</comp>
		<comp name="--.HNZ" depth="0.0">
			<acc value="0" flag="1"/>
			<vel value="0" flag="1"/>
			<psa03 value="0" flag="1"/>
			<psa10 value="0" flag="1"/>
			<psa30 value="0" flag="1"/>
		</comp>
	</station>
	<station code="ABEA" name="ABEA" netid="HC" source="Seismological Network of Crete (HC)" insttype="" lat="35.5163" lon="24.0113" esm:processing="automatic (Paolucci et al 2011)" esm:quality="bad">
		<comp name="--.HNE" depth="0.0">
			<acc value="0" flag="1"/>
			<vel value="0" flag="1"/>
			<psa03 value="0" flag="1"/>
			<psa10 value="0" flag="1"/>
			<psa30 value="0" flag="1"/>
		</comp>
		<comp name="--.HNN" depth="0.0">
			<acc value="0" flag="1"/>
			<vel value="0" flag="1"/>
			<psa03 value="0" flag="1"/>
			<psa10 value="0" flag="1"/>
			<psa30 value="0" flag="1"/>
		</comp>
		<comp name="--.HNZ" depth="0.0">
			<acc value="0" flag="1"/>
			<vel value="0" flag="1"/>
			<psa03 value="0" flag="1"/>
			<psa10 value="0" flag="1"/>
			<psa30 value="0" flag="1"/>
		</comp>
	</station>
	<station code="G0LD" name="G0LD" netid="HC" source="Seismological Network of Crete (HC)" insttype="" lat="35.4955" lon="24.0306" esm:processing="automatic (Paolucci et al 2011)" esm:quality="bad">
		<comp name="--.HNE" depth="0.0">
			<acc value="0" flag="1"/>
			<vel value="0" flag="1"/>
			<psa03 value="0" flag="1"/>
			<psa10 value="0" flag="1"/>
			<psa30 value="0" flag="1"/>
		</comp>
		<comp name="--.HNN" depth="0.0">
			<acc value="0" flag="1"/>
			<vel value="0" flag="1"/>
			<psa03 value="0" flag="1"/>
			<psa10 value="0" flag="1"/>
			<psa30 value="0" flag="1"/>
		</comp>
		<comp name="--.HNZ" depth="0.0">
			<acc value="0" flag="1"/>
			<vel value="0" flag="1"/>
			<psa03 value="0" flag="1"/>
			<psa10 value="0" flag="1"/>
			<psa30 value="0" flag="1"/>
		</comp>
	</station>
	<station code="LENT" name="LENT" netid="HC" source="Seismological Network of Crete (HC)" insttype="" lat="35.5074" lon="24.0402" esm:processing="automatic (Paolucci et al 2011)" esm:quality="bad">
		<comp name="--.HNE" depth="0.0">
			<acc value="0" flag="1"/>
			<vel value="0" flag="1"/>
			<psa03 value="0" flag="1"/>
			<psa10 value="0" flag="1"/>
			<psa30 value="0" flag="1"/>
		</comp>
		<comp name="--.HNN" depth="0.0">
			<acc value="0" flag="1"/>
			<vel value="0" flag="1"/>
			<psa03 value="0" flag="1"/>
			<psa10 value="0" flag="1"/>
			<psa30 value="0" flag="1"/>
		</comp>
		<comp name="--.HNZ" depth="0.0">
			<acc value="0" flag="1"/>
			<vel value="0" flag="1"/>
			<psa03 value="0" flag="1"/>
			<psa10 value="0" flag="1"/>
			<psa30 value="0" flag="1"/>
		</comp>
	</station>
	<station code="MULT" name="MULT" netid="HC" source="Seismological Network of Crete (HC)" insttype="" lat="35.5091" lon="24.0118" esm:processing="automatic (Paolucci et al 2011)" esm:quality="bad">
		<comp name="--.HNE" depth="0.0">
			<acc value="0" flag="1"/>
			<vel value="0" flag="1"/>
			<psa03 value="0" flag="1"/>
			<psa10 value="0" flag="1"/>
			<psa30 value="0" flag="1"/>
		</comp>
		<comp name="--.HNN" depth="0.0">
			<acc value="0" flag="1"/>
			<vel value="0" flag="1"/>
			<psa03 value="0" flag="1"/>
			<psa10 value="0" flag="1"/>
			<psa30 value="0" flag="1"/>
		</comp>
		<comp name="--.HNZ" depth="0.0">
			<acc value="0" flag="1"/>
			<vel value="0" flag="1"/>
			<psa03 value="0" flag="1"/>
			<psa10 value="0" flag="1"/>
			<psa30 value="0" flag="1"/>
		</comp>
	</station>
	<station code="SOUD" name="SOUD" netid="HC" source="Seismological Network of Crete (HC)" insttype="" lat="35.4878" lon="24.0678" esm:processing="automatic (Paolucci et al 2011)" esm:quality="bad">
		<comp name="--.HNE" depth="0.0">
			<acc value="0" flag="1"/>
			<vel value="0" flag="1"/>
			<psa03 value="0" flag="1"/>
			<psa10 value="0" flag="1"/>
			<psa30 value="0" flag="1"/>
		</comp>
		<comp name="--.HNN" depth="0.0">
			<acc value="0" flag="1"/>
			<vel value="0" flag="1"/>
			<psa03 value="0" flag="1"/>
			<psa10 value="0" flag="1"/>
			<psa30 value="0" flag="1"/>
		</comp>
		<comp name="--.HNZ" depth="0.0">
			<acc value="0" flag="1"/>
			<vel value="0" flag="1"/>
			<psa03 value="0" flag="1"/>
			<psa10 value="0" flag="1"/>
			<psa30 value="0" flag="1"/>
		</comp>
	</station>
	<station code="CH01" name="CH01" netid="HI" source="ITSAK Strong Motion Network" insttype="" lat="35.517" lon="24.0208" esm:processing="discarded" esm:quality="good">
		<comp name="--.HNE" depth="0.0">
			<acc value="0" flag="1"/>
			<vel value="0" flag="1"/>
			<psa03 value="0" flag="1"/>
			<psa10 value="0" flag="1"/>
			<psa30 value="0" flag="1"/>
		</comp>
		<comp name="--.HNN" depth="0.0">
			<acc value="0" flag="1"/>
			<vel value="0" flag="1"/>
			<psa03 value="0" flag="1"/>
			<psa10 value="0" flag="1"/>
			<psa30 value="0" flag="1"/>
		</comp>
		<comp name="--.HNZ" depth="0.0">
			<acc value="0" flag="1"/>
			<vel value="0" flag="1"/>
			<psa03 value="0" flag="1"/>
			<psa10 value="0" flag="1"/>
			<psa30 value="0" flag="1"/>
		</comp>
	</station>
	<station code="HER2" name="HER2" netid="HI" source="ITSAK Strong Motion Network" insttype="" lat="35.337866" lon="25.135624" esm:processing="automatic (Paolucci et al 2011)" esm:quality="bad">
		<comp name="--.HNE" depth="0.0">
			<acc value="0" flag="1"/>
			<vel value="0" flag="1"/>
			<psa03 value="0" flag="1"/>
			<psa10 value="0" flag="1"/>
			<psa30 value="0" flag="1"/>
		</comp>
		<comp name="--.HNN" depth="0.0">
			<acc value="0" flag="1"/>
			<vel value="0" flag="1"/>
			<psa03 value="0" flag="1"/>
			<psa10 value="0" flag="1"/>
			<psa30 value="0" flag="1"/>
		</comp>
		<comp name="--.HNZ" depth="0.0">
			<acc value="0" flag="1"/>
