<stationlist xmlns:esm="https://esm-db.eu/esmws/shakemap/1/" created="1780538077">
	<station code="KRL1" name="KRL1" netid="HI" source="ITSAK Strong Motion Network" insttype="" lat="37.7951" lon="26.7065" esm:processing="manual (Paolucci et al 2011)" esm:quality="good">
		<comp name="--.HNE" depth="0.0">
			<acc value="0.0262741257482193" flag="0"/>
			<vel value="0.0158947301317951" flag="0"/>
			<psa03 value="0.067337020960499" flag="0"/>
			<psa10 value="0.0228722160232605" flag="0"/>
			<psa30 value="0.00174986770084061" flag="0"/>
		</comp>
		<comp name="--.HNN" depth="0.0">
			<acc value="0.0114526951250237" flag="0"/>
			<vel value="0.0117168795215809" flag="0"/>
			<psa03 value="0.02666635514449" flag="0"/>
			<psa10 value="0.0157286753145873" flag="0"/>
			<psa30 value="0.000744957740194225" flag="0"/>
		</comp>
		<comp name="--.HNZ" depth="0.0">
			<acc value="0.00726459775964743" flag="0"/>
			<vel value="0.00860954326755887" flag="0"/>
			<psa03 value="0.0238475961275388" flag="0"/>
			<psa10 value="0.00895560007671327" flag="0"/>
			<psa30 value="0.000725718591348368" flag="0"/>
		</comp>
	</station>
	<station code="RDI1" name="RDI1" netid="HI" source="ITSAK Strong Motion Network" insttype="" lat="36.4514" lon="28.224" esm:processing="manual (Paolucci et al 2011)" esm:quality="bad">
		<comp name="--.HNE" depth="0.0">
			<acc value="0.0144215239066154" flag="0"/>
			<vel value="0.00911367416164448" flag="0"/>
			<psa03 value="0.0501586977675916" flag="0"/>
			<psa10 value="0.014975887704078" flag="0"/>
			<psa30 value="0.00204969432385609" flag="0"/>
		</comp>
		<comp name="--.HNN" depth="0.0">
			<acc value="0.0121007432498304" flag="0"/>
			<vel value="0.0106428244650773" flag="0"/>
			<psa03 value="0.0459178803759645" flag="0"/>
			<psa10 value="0.0105885883169966" flag="0"/>
			<psa30 value="0.00433446547039726" flag="0"/>
		</comp>
		<comp name="--.HNZ" depth="0.0">
			<acc value="0.00815777104380579" flag="0"/>
			<vel value="0.00517220395815229" flag="0"/>
			<psa03 value="0.0319174789596716" flag="0"/>
			<psa10 value="0.00859882462991702" flag="0"/>
			<psa30 value="0.00105509635328865" flag="0"/>
		</comp>
	</station>
	<station code="RGE1" name="RGE1" netid="HI" source="ITSAK Strong Motion Network" insttype="" lat="36.0269" lon="27.9306" esm:processing="manual (Paolucci et al 2011)" esm:quality="good">
		<comp name="--.HNE" depth="0.0">
			<acc value="0.0172629002381455" flag="0"/>
			<vel value="0.0106539079471807" flag="0"/>
			<psa03 value="0.0418453137133371" flag="0"/>
			<psa10 value="0.0179163768720517" flag="0"/>
			<psa30 value="0.00107879198550914" flag="0"/>
		</comp>
		<comp name="--.HNN" depth="0.0">
			<acc value="0.0186067792978427" flag="0"/>
			<vel value="0.0140736790113754" flag="0"/>
			<psa03 value="0.0691161567310567" flag="0"/>
			<psa10 value="0.0163539446185784" flag="0"/>
			<psa30 value="0.00144210615745325" flag="0"/>
		</comp>
		<comp name="--.HNZ" depth="0.0">
			<acc value="0.00795953783128516" flag="0"/>
			<vel value="0.00534716592985783" flag="0"/>
			<psa03 value="0.0236187599394213" flag="0"/>
			<psa10 value="0.00756653358946006" flag="0"/>
			<psa30 value="0.000762309822199302" flag="0"/>
		</comp>
	</station>
	<station code="RPN1" name="RPN1" netid="HI" source="ITSAK Strong Motion Network" insttype="" lat="36.448678" lon="28.218047" esm:processing="manual (Paolucci et al 2011)" esm:quality="good">
		<comp name="--.HNE" depth="0.0">
			<acc value="0.0134959452821909" flag="0"/>
			<vel value="0.0104376053442348" flag="0"/>
			<psa03 value="0.0352399230136177" flag="0"/>
			<psa10 value="0.0136850128149364" flag="0"/>
			<psa30 value="0.00187507004752161" flag="0"/>
		</comp>
		<comp name="--.HNN" depth="0.0">
			<acc value="0.0160577348061458" flag="0"/>
			<vel value="0.00959936527563684" flag="0"/>
			<psa03 value="0.0438180798160732" flag="0"/>
			<psa10 value="0.0119789160443985" flag="0"/>
			<psa30 value="0.00415166919437546" flag="0"/>
		</comp>
		<comp name="--.HNZ" depth="0.0">
			<acc value="0.00974191816787305" flag="0"/>
			<vel value="0.00632552671836657" flag="0"/>
			<psa03 value="0.0340320304966665" flag="0"/>
			<psa10 value="0.0104593303793059" flag="0"/>
			<psa30 value="0.000869038454949287" flag="0"/>
		</comp>
	</station>
	<station code="NISR" name="NISR" netid="HL" source="National Observatory of Athens Seismic Network" insttype="" lat="36.6106" lon="27.131" esm:processing="manual (Paolucci et al 2011)" esm:quality="good">
		<comp name="00.HNE" depth="0.0">
			<acc value="0.152648189126509" flag="0"/>
			<vel value="0.0628197360272435" flag="0"/>
			<psa03 value="0.481291916592749" flag="0"/>
			<psa10 value="0.023693682936772" flag="0"/>
			<psa30 value="0.00222681962339138" flag="0"/>
		</comp>
		<comp name="00.HNN" depth="0.0">
			<acc value="0.0891762034234882" flag="0"/>
			<vel value="0.0225710505248765" flag="0"/>
			<psa03 value="0.115076955422195" flag="0"/>
			<psa10 value="0.01087235620824" flag="0"/>
			<psa30 value="0.00157089887436752" flag="0"/>
		</comp>
		<comp name="00.HNZ" depth="0.0">
			<acc value="0.0494269278844003" flag="0"/>
			<vel value="0.0184718348108952" flag="0"/>
			<psa03 value="0.0926611099064408" flag="0"/>
			<psa10 value="0.0140857414875643" flag="0"/>
			<psa30 value="0.00066352692414897" flag="0"/>
		</comp>
	</station>
</stationlist>
