<stationlist created="1778138459">
	<station code="ABEA" name="ABEA" netid="HC" source="Seismological Network of Crete (HC)" insttype="" lat="35.5163" lon="24.0113">
		<comp name="--.HNE" depth="0.0">
			<acc value="0.00968278872837439" flag="0"/>
			<vel value="0.00924976600430019" flag="0"/>
			<psa03 value="0.0236662188125132" flag="0"/>
			<psa10 value="0.019486416504466" flag="0"/>
			<psa30 value="0.00300875598198259" flag="0"/>
		</comp>
		<comp name="--.HNN" depth="0.0">
			<acc value="0.0106499772318053" flag="0"/>
			<vel value="0.00794404276690244" flag="0"/>
			<psa03 value="0.027264717612052" flag="0"/>
			<psa10 value="0.0199542243694459" flag="0"/>
			<psa30 value="0.00128723318954973" flag="0"/>
		</comp>
		<comp name="--.HNZ" depth="0.0">
			<acc value="0.00850368954225799" flag="0"/>
			<vel value="0.00556235279111272" flag="0"/>
			<psa03 value="0.010902700114964" flag="0"/>
			<psa10 value="0.0160348753567936" flag="0"/>
			<psa30 value="0.00128315229420798" flag="0"/>
		</comp>
	</station>
	<station code="ATEI" name="ATEI" netid="HC" source="Seismological Network of Crete (HC)" insttype="" lat="35.5193" lon="24.0432">
		<comp name="--.HNE" depth="0.0">
			<acc value="0.00886319268699031" flag="0"/>
			<vel value="0.00468354302359721" flag="0"/>
			<psa03 value="0.0121857108893711" flag="0"/>
			<psa10 value="0.0101599677355108" flag="0"/>
			<psa30 value="0.00159828639946299" flag="0"/>
		</comp>
		<comp name="--.HNN" depth="0.0">
			<acc value="0.00717492100459084" flag="0"/>
			<vel value="0.00566033763467522" flag="0"/>
			<psa03 value="0.0142110976654975" flag="0"/>
			<psa10 value="0.0091183924862657" flag="0"/>
			<psa30 value="0.00112147064609103" flag="0"/>
		</comp>
		<comp name="--.HNZ" depth="0.0">
			<acc value="0.00602077795643171" flag="0"/>
			<vel value="0.00342061230882474" flag="0"/>
			<psa03 value="0.0107362144767088" flag="0"/>
			<psa10 value="0.00742511828390719" flag="0"/>
			<psa30 value="0.00141160434519147" flag="0"/>
		</comp>
	</station>
	<station code="DEYA" name="DEYA" netid="HC" source="Seismological Network of Crete (HC)" insttype="" lat="35.4825" lon="24.014">
		<comp name="--.HNE" depth="0.0">
			<acc value="0.0154292360838131" flag="0"/>
			<vel value="0.0166766215346179" flag="0"/>
			<psa03 value="0.0346820996022333" flag="0"/>
			<psa10 value="0.0281729481945351" flag="0"/>
			<psa30 value="0.00209988494040426" flag="0"/>
		</comp>
		<comp name="--.HNN" depth="0.0">
			<acc value="0.0151910091998009" flag="0"/>
			<vel value="0.0119563226025551" flag="0"/>
			<psa03 value="0.0328245051915575" flag="0"/>
			<psa10 value="0.025583551659759" flag="0"/>
			<psa30 value="0.00179356985686625" flag="0"/>
		</comp>
		<comp name="--.HNZ" depth="0.0">
			<acc value="0.00822336833950169" flag="0"/>
			<vel value="0.00698725702481755" flag="0"/>
			<psa03 value="0.0155942752317029" flag="0"/>
			<psa10 value="0.00997147181106469" flag="0"/>
			<psa30 value="0.00123510234030312" flag="0"/>
		</comp>
	</station>
	<station code="G0LD" name="G0LD" netid="HC" source="Seismological Network of Crete (HC)" insttype="" lat="35.4955" lon="24.0306">
		<comp name="--.HNE" depth="0.0">
			<acc value="0.0220703478908921" flag="0"/>
			<vel value="0.0226237727486342" flag="0"/>
			<psa03 value="0.0625446120234229" flag="0"/>
			<psa10 value="0.0521690009401517" flag="0"/>
			<psa30 value="0.00354758667687352" flag="0"/>
		</comp>
		<comp name="--.HNN" depth="0.0">
			<acc value="0.0203566522824862" flag="0"/>
			<vel value="0.024414989918366" flag="0"/>
			<psa03 value="0.0420902570229522" flag="0"/>
			<psa10 value="0.0586684964998149" flag="0"/>
			<psa30 value="0.00325490645491362" flag="0"/>
		</comp>
		<comp name="--.HNZ" depth="0.0">
			<acc value="0.0142560393771296" flag="0"/>
			<vel value="0.0112923978430881" flag="0"/>
			<psa03 value="0.0289564520769842" flag="0"/>
			<psa10 value="0.0233725758184449" flag="0"/>
			<psa30 value="0.00145843546835958" flag="0"/>
		</comp>
	</station>
	<station code="MULT" name="MULT" netid="HC" source="Seismological Network of Crete (HC)" insttype="" lat="35.5091" lon="24.0118">
		<comp name="--.HNE" depth="0.0">
			<acc value="0.0219432112211951" flag="0"/>
			<vel value="0.00889843120820012" flag="0"/>
			<psa03 value="0.0279032729340544" flag="0"/>
			<psa10 value="0.0128051717172852" flag="0"/>
			<psa30 value="0.0021007929172199" flag="0"/>
		</comp>
		<comp name="--.HNN" depth="0.0">
			<acc value="0.0215700502892135" flag="0"/>
			<vel value="0.00961631972998325" flag="0"/>
			<psa03 value="0.0195658182748682" flag="0"/>
			<psa10 value="0.01451312861103" flag="0"/>
			<psa30 value="0.00245206868751737" flag="0"/>
		</comp>
		<comp name="--.HNZ" depth="0.0">
			<acc value="0.0188618343473904" flag="0"/>
			<vel value="0.00766779497359416" flag="0"/>
			<psa03 value="0.0149618856827265" flag="0"/>
			<psa10 value="0.0144560526425422" flag="0"/>
			<psa30 value="0.00347740869459169" flag="0"/>
		</comp>
	</station>
	<station code="NERO" name="NERO" netid="HC" source="Seismological Network of Crete (HC)" insttype="" lat="35.474" lon="24.0423">
		<comp name="--.HNE" depth="0.0">
			<acc value="0.0121799271109338" flag="0"/>
			<vel value="0.00612308388511292" flag="0"/>
			<psa03 value="0.0211119037683281" flag="0"/>
			<psa10 value="0.010207752463494" flag="0"/>
			<psa30 value="0.0012903860025747" flag="0"/>
		</comp>
		<comp name="--.HNN" depth="0.0">
			<acc value="0.00927824633020323" flag="0"/>
			<vel value="0.00618521285237203" flag="0"/>
			<psa03 value="0.0183804884504719" flag="0"/>
			<psa10 value="0.0126211264001883" flag="0"/>
			<psa30 value="0.00132818423568759" flag="0"/>
		</comp>
		<comp name="--.HNZ" depth="0.0">
			<acc value="0.00808693998108089" flag="0"/>
			<vel value="0.00448271228475484" flag="0"/>
			<psa03 value="0.0138308550283355" flag="0"/>
			<psa10 value="0.00661948522717954" flag="0"/>
			<psa30 value="0.0011995800912952" flag="0"/>
		</comp>
	</station>
	<station code="PASK" name="PASK" netid="HC" source="Seismological Network of Crete (HC)" insttype="" lat="35.4996" lon="24.0121">
		<comp name="--.HNE" depth="0.0">
			<acc value="0.0144032657222674" flag="0"/>
			<vel value="0.0093442014285363" flag="0"/>
			<psa03 value="0.024633439136098" flag="0"/>
			<psa10 value="0.0150505992158456" flag="0"/>
			<psa30 value="0.00195515806129183" flag="0"/>
		</comp>
		<comp name="--.HNN" depth="0.0">
			<acc value="0.0141796408885219" flag="0"/>
			<vel value="0.011586227308274" flag="0"/>
			<psa03 value="0.0250685252501056" flag="0"/>
			<psa10 value="0.0190451416471458" flag="0"/>
			<psa30 value="0.00205880201052746" flag="0"/>
		</comp>
		<comp name="--.HNZ" depth="0.0">
			<acc value="0.0159302373355674" flag="0"/>
			<vel value="0.0070148329623381" flag="0"/>
			<psa03 value="0.0214353470698824" flag="0"/>
			<psa10 value="0.0103834750417652" flag="0"/>
			<psa30 value="0.00155170883476004" flag="0"/>
		</comp>
	</station>
	<station code="POLY" name="POLY" netid="HC" source="Seismological Network of Crete (HC)" insttype="" lat="35.5226" lon="24.0602">
		<comp name="--.HNE" depth="0.0">
			<acc value="0.00728194606771312" flag="0"/>
			<vel value="0.00652823611029555" flag="0"/>
			<psa03 value="0.0197518423167731" flag="0"/>
			<psa10 value="0.00714602995190211" flag="0"/>
			<psa30 value="0.00198776438797045" flag="0"/>
		</comp>
		<comp name="--.HNN" depth="0.0">
			<acc value="0.00890874844446687" flag="0"/>
			<vel value="0.00631097716044585" flag="0"/>
			<psa03 value="0.0225752585209287" flag="0"/>
			<psa10 value="0.0126625450814538" flag="0"/>
			<psa30 value="0.00128315229420798" flag="0"/>
		</comp>
		<comp name="--.HNZ" depth="0.0">
			<acc value="0.00906443831252524" flag="0"/>
			<vel value="0.00349663367759487" flag="0"/>
			<psa03 value="0.00881902367017048" flag="0"/>
			<psa10 value="0.0059064336159825" flag="0"/>
			<psa30 value="0.00114554515757664" flag="0"/>
		</comp>
	</station>
	<station code="SOUD" name="SOUD" netid="HC" source="Seismological Network of Crete (HC)" insttype="" lat="35.4878" lon="24.0678">
		<comp name="--.HNE" depth="0.0">
			<acc value="0.0219306317746631" flag="0"/>
			<vel value="0.00924804296963261" flag="0"/>
			<psa03 value="0.0450702096383705" flag="0"/>
			<psa10 value="0.016384904794519" flag="0"/>
			<psa30 value="0.00181686410833056" flag="0"/>
		</comp>
		<comp name="--.HNN" depth="0.0">
			<acc value="0.023545140934932" flag="0"/>
			<vel value="0.0115997911365711" flag="0"/>
			<psa03 value="0.047728031539451" flag="0"/>
			<psa10 value="0.0139526061666654" flag="0"/>
			<psa30 value="0.00145548110597823" flag="0"/>
		</comp>
		<comp name="--.HNZ" depth="0.0">
			<acc value="0.00597219611168967" flag="0"/>
			<vel value="0.00440554069653911" flag="0"/>
			<psa03 value="0.00588500378491212" flag="0"/>
			<psa10 value="0.00391634037583073" flag="0"/>
			<psa30 value="0.0018870506328437" flag="0"/>
		</comp>
	</station>
	<station code="CH01" name="CH01" netid="HI" source="ITSAK Strong Motion Network" insttype="" lat="35.517" lon="24.0208">
		<comp name="--.HNE" depth="0.0">
			<acc value="0.014592859398032" flag="0"/>
			<vel value="0.00831983345459698" flag="0"/>
			<psa03 value="0.0168902686369945" flag="0"/>
			<psa10 value="0.0120433312490838" flag="0"/>
			<psa30 value="0.0029253064955333" flag="0"/>
		</comp>
		<comp name="--.HNN" depth="0.0">
			<acc value="0.0112357001232584" flag="0"/>
			<vel value="0.00699403373434137" flag="0"/>
			<psa03 value="0.0194875826233756" flag="0"/>
			<psa10 value="0.0142682383257575" flag="0"/>
			<psa30 value="0.00114663835499806" flag="0"/>
		</comp>
		<comp name="--.HNZ" depth="0.0">
			<acc value="0.00672457554681062" flag="0"/>
			<vel value="0.00510995864926485" flag="0"/>
			<psa03 value="0.0081075195052493" flag="0"/>
			<psa10 value="0.0151426462510019" flag="0"/>
			<psa30 value="0.00121622056864248" flag="0"/>
		</comp>
	</station>
	<station code="KSS1" name="KSS1" netid="HI" source="ITSAK Strong Motion Network" insttype="" lat="35.4189" lon="26.9207">
		<comp name="--.HNE" depth="0.0">
			<acc value="0.00339373921848743" flag="0"/>
			<vel value="0.00171268340702928" flag="0"/>
			<psa03 value="0.0097836559316853" flag="0"/>
			<psa10 value="0.00178002319123858" flag="0"/>
			<psa30 value="0.000269104727909094" flag="0"/>
		</comp>
		<comp name="--.HNN" depth="0.0">
			<acc value="0.00350072713360762" flag="0"/>
			<vel value="0.00194569989764473" flag="0"/>
			<psa03 value="0.0124914147344926" flag="0"/>
			<psa10 value="0.00231638805871527" flag="0"/>
			<psa30 value="0.000407631456708517" flag="0"/>
		</comp>
		<comp name="--.HNZ" depth="0.0">
			<acc value="0.00179777834976267" flag="0"/>
			<vel value="0.00147070763091125" flag="0"/>
			<psa03 value="0.00347322552685187" flag="0"/>
			<psa10 value="0.00213269901521745" flag="0"/>
			<psa30 value="0.000312492862576802" flag="0"/>
		</comp>
	</station>
	<station code="IACM" name="IACM" netid="HL" source="National Observatory of Athens Seismic Network" insttype="" lat="35.3058" lon="25.0709">
		<comp name="--.HNE" depth="0.0">
			<acc value="0.273999214798521" flag="0"/>
			<vel value="0.177043061206232" flag="0"/>
			<psa03 value="0.695924601587225" flag="0"/>
			<psa10 value="0.253728098241475" flag="0"/>
			<psa30 value="0.0176957405893089" flag="0"/>
		</comp>
		<comp name="--.HNN" depth="0.0">
			<acc value="0.292761478727199" flag="0"/>
			<vel value="0.112501505512179" flag="0"/>
			<psa03 value="0.480318693756334" flag="0"/>
			<psa10 value="0.195976477479645" flag="0"/>
			<psa30 value="0.0153063239688562" flag="0"/>
		</comp>
		<comp name="--.HNZ" depth="0.0">
			<acc value="0.208589171004074" flag="0"/>
			<vel value="0.0965910062705635" flag="0"/>
			<psa03 value="0.317292935766625" flag="0"/>
			<psa10 value="0.0805906937380464" flag="0"/>
			<psa30 value="0.00955695893495313" flag="0"/>
		</comp>
	</station>
	<station code="IMMV" name="IMMV" netid="HL" source="National Observatory of Athens Seismic Network" insttype="" lat="35.4606" lon="23.9811">
		<comp name="--.HNE" depth="0.0">
			<acc value="0.0134362398684996" flag="0"/>
			<vel value="0.00849794192112761" flag="0"/>
			<psa03 value="0.0263155714024669" flag="0"/>
			<psa10 value="0.0151764444274528" flag="0"/>
			<psa30 value="0.000879096881688431" flag="0"/>
		</comp>
		<comp name="--.HNN" depth="0.0">
			<acc value="0.0113784835721719" flag="0"/>
			<vel value="0.0060261600977015" flag="0"/>
			<psa03 value="0.0341890825672692" flag="0"/>
			<psa10 value="0.0115739698437157" flag="0"/>
			<psa30 value="0.000932129665682557" flag="0"/>
		</comp>
		<comp name="--.HNZ" depth="0.0">
			<acc value="0.00971321624536425" flag="0"/>
			<vel value="0.00591923865700395" flag="0"/>
			<psa03 value="0.0178685261500744" flag="0"/>
			<psa10 value="0.0069211899011098" flag="0"/>
			<psa30 value="0.000789958372531766" flag="0"/>
		</comp>
	</station>
	<station code="SIVA" name="SIVA" netid="HL" source="National Observatory of Athens Seismic Network" insttype="" lat="35.01777" lon="24.81204">
		<comp name="00.HNE" depth="0.0">
			<acc value="0.124193198612127" flag="0"/>
			<vel value="0.0340481456433681" flag="0"/>
			<psa03 value="0.212325253005881" flag="0"/>
			<psa10 value="0.0389094913128364" flag="0"/>
			<psa30 value="0.00301752489621336" flag="0"/>
		</comp>
		<comp name="00.HNN" depth="0.0">
			<acc value="0.129706783683011" flag="0"/>
			<vel value="0.0496084331210942" flag="0"/>
			<psa03 value="0.119447329465861" flag="0"/>
			<psa10 value="0.0532008330439163" flag="0"/>
			<psa30 value="0.00283969290738566" flag="0"/>
		</comp>
		<comp name="00.HNZ" depth="0.0">
			<acc value="0.0595998210718543" flag="0"/>
			<vel value="0.017127202820561" flag="0"/>
			<psa03 value="0.0772864375556426" flag="0"/>
			<psa10 value="0.0161329256021278" flag="0"/>
			<psa30 value="0.00259544089355606" flag="0"/>
		</comp>
	</station>
</stationlist>
