<?xml version="1.0" encoding="UTF-8" standalone="yes"?>
<!DOCTYPE earthquake SYSTEM "stationlist.dtd">
<stationlist created="" xmlns="ch.ethz.sed.shakemap.usgs.xml">
  <station code="GVD" name="GVD" netid="GE" insttype="STS-2/N" lat="34.8391" lon="24.0874">
    <comp name="--.HHE">
      <acc value="0.0108110727" flag="0"/>
      <vel value="0.0047336828" flag="0"/>
      <psa03 value="0.0230428490" flag="0"/>
      <psa10 value="0.0043111670" flag="0"/>
      <psa30 value="0.0003942771" flag="0"/>
    </comp>
    <comp name="--.HHN">
      <acc value="0.0097016919" flag="0"/>
      <vel value="0.0037150500" flag="0"/>
      <psa03 value="0.0226274038" flag="0"/>
      <psa10 value="0.0037729079" flag="0"/>
      <psa30 value="0.0003686027" flag="0"/>
    </comp>
    <comp name="--.HHZ">
      <acc value="0.0073798170" flag="0"/>
      <vel value="0.0023928422" flag="0"/>
      <psa03 value="0.0129313027" flag="0"/>
      <psa10 value="0.0024228943" flag="0"/>
      <psa30 value="0.0003369778" flag="0"/>
    </comp>
  </station>
  <station code="IMMV" name="IMMV" netid="GE" insttype="STS-2/N" lat="35.4606" lon="23.9811">
    <comp name="--.HHE">
      <acc value="0.0141946960" flag="0"/>
      <vel value="0.0088529079" flag="0"/>
      <psa03 value="0.0278365292" flag="0"/>
      <psa10 value="0.0157789658" flag="0"/>
      <psa30 value="0.0008501425" flag="0"/>
    </comp>
    <comp name="--.HHZ">
      <acc value="0.0102940555" flag="0"/>
      <vel value="0.0059298438" flag="0"/>
      <psa03 value="0.0181838426" flag="0"/>
      <psa10 value="0.0069393027" flag="0"/>
      <psa30 value="0.0007399890" flag="0"/>
    </comp>
    <comp name="--.HHN">
      <acc value="0.0120871170" flag="0"/>
      <vel value="0.0063524194" flag="0"/>
      <psa03 value="0.0357791591" flag="0"/>
      <psa10 value="0.0118571752" flag="0"/>
      <psa30 value="0.0008449464" flag="0"/>
    </comp>
  </station>
  <station code="ZKR" name="ZKR" netid="GE" insttype="STS-2/N" lat="35.1147" lon="26.2169">
    <comp name="--.HHE">
      <acc value="0.0149784400" flag="0"/>
      <vel value="0.0093629336" flag="0"/>
      <psa03 value="0.0336429106" flag="0"/>
      <psa10 value="0.0118491010" flag="0"/>
      <psa30 value="0.0019132110" flag="0"/>
    </comp>
    <comp name="--.HHN">
      <acc value="0.0071605907" flag="0"/>
      <vel value="0.0038999216" flag="0"/>
      <psa03 value="0.0193937515" flag="0"/>
      <psa10 value="0.0042340100" flag="0"/>
      <psa30 value="0.0007546370" flag="0"/>
    </comp>
    <comp name="--.HHZ">
      <acc value="0.0062216162" flag="0"/>
      <vel value="0.0046425375" flag="0"/>
      <psa03 value="0.0168669611" flag="0"/>
      <psa10 value="0.0042854286" flag="0"/>
      <psa30 value="0.0015563255" flag="0"/>
    </comp>
  </station>
  <station code="IMOD" name="IMOD" netid="HC" insttype="120" lat="34.9731" lon="24.7995">
    <comp name="--.HHE">
      <acc value="0.0358306208" flag="0"/>
      <vel value="0.0184428410" flag="0"/>
      <psa03 value="0.0871335331" flag="0"/>
      <psa10 value="0.0217252223" flag="0"/>
      <psa30 value="0.0017484384" flag="0"/>
    </comp>
    <comp name="--.HHN">
      <acc value="0.0524216074" flag="0"/>
      <vel value="0.0271526874" flag="0"/>
      <psa03 value="0.1298257081" flag="0"/>
      <psa10 value="0.0500738252" flag="0"/>
      <psa30 value="0.0021341401" flag="0"/>
    </comp>
    <comp name="--.HHZ">
      <acc value="0.0439390754" flag="0"/>
      <vel value="0.0108239504" flag="0"/>
      <psa03 value="0.0526939778" flag="0"/>
      <psa10 value="0.0113093870" flag="0"/>
      <psa30 value="0.0016207102" flag="0"/>
    </comp>
  </station>
  <station code="KNSS" name="KNSS" netid="HC" insttype="60" lat="35.3042" lon="25.1802">
    <comp name="--.HHN">
      <acc value="0.0000000000" flag="0"/>
      <vel value="-100.0000000000" flag="0"/>
      <psa03 value="0.0000000000" flag="0"/>
      <psa10 value="0.0000000000" flag="0"/>
      <psa30 value="0.0000000000" flag="0"/>
    </comp>
    <comp name="--.HHZ">
      <acc value="0.1779882291" flag="0"/>
      <vel value="0.0447352349" flag="0"/>
      <psa03 value="0.2879289792" flag="0"/>
      <psa10 value="0.0360962336" flag="0"/>
      <psa30 value="0.0098892195" flag="0"/>
    </comp>
    <comp name="--.HHE">
      <acc value="0.1596198025" flag="0"/>
      <vel value="0.0708084399" flag="0"/>
      <psa03 value="0.5077265900" flag="0"/>
      <psa10 value="0.0667510215" flag="0"/>
      <psa30 value="0.0043973690" flag="0"/>
    </comp>
  </station>
  <station code="PFKS" name="PFKS" netid="HC" insttype="120" lat="35.0429" lon="25.4733">
    <comp name="--.HHN">
      <acc value="0.5537777439" flag="0"/>
      <vel value="0.1763320028" flag="0"/>
      <psa03 value="0.7719550163" flag="0"/>
      <psa10 value="0.0536835827" flag="0"/>
      <psa30 value="0.0045181513" flag="0"/>
    </comp>
    <comp name="--.HHZ">
      <acc value="0.2717642961" flag="0"/>
      <vel value="0.0701891621" flag="0"/>
      <psa03 value="0.2528120244" flag="0"/>
      <psa10 value="0.0465187568" flag="0"/>
      <psa30 value="0.0070308549" flag="0"/>
    </comp>
    <comp name="--.HHE">
      <acc value="0.4047980432" flag="0"/>
      <vel value="0.1357713147" flag="0"/>
      <psa03 value="0.7549705430" flag="0"/>
      <psa10 value="0.0806923875" flag="0"/>
      <psa30 value="0.0053674998" flag="0"/>
    </comp>
  </station>
  <station code="STIA" name="STIA" netid="HC" insttype="120" lat="35.2021" lon="26.0909">
    <comp name="--.HHE">
      <acc value="0.0255706426" flag="0"/>
      <vel value="0.0114401105" flag="0"/>
      <psa03 value="0.0688780538" flag="0"/>
      <psa10 value="0.0157790891" flag="0"/>
      <psa30 value="0.0014662352" flag="0"/>
    </comp>
    <comp name="--.HHZ">
      <acc value="0.0182448332" flag="0"/>
      <vel value="0.0091096037" flag="0"/>
      <psa03 value="0.0375319295" flag="0"/>
      <psa10 value="0.0060079996" flag="0"/>
      <psa30 value="0.0013716001" flag="0"/>
    </comp>
    <comp name="--.HHN">
      <acc value="0.0227521184" flag="0"/>
      <vel value="0.0103552300" flag="0"/>
      <psa03 value="0.0450794681" flag="0"/>
      <psa10 value="0.0132798690" flag="0"/>
      <psa30 value="0.0010101159" flag="0"/>
    </comp>
  </station>
  <station code="GVD" name="GVD" netid="HL" insttype="120" lat="34.8391" lon="24.0874">
    <comp name="--.HHE">
      <acc value="0.0104169975" flag="0"/>
      <vel value="0.0046571562" flag="0"/>
      <psa03 value="0.0223447773" flag="0"/>
      <psa10 value="0.0042744557" flag="0"/>
      <psa30 value="0.0003936400" flag="0"/>
    </comp>
    <comp name="--.HHN">
      <acc value="0.0094962622" flag="0"/>
      <vel value="0.0036419055" flag="0"/>
      <psa03 value="0.0219713548" flag="0"/>
      <psa10 value="0.0037396913" flag="0"/>
      <psa30 value="0.0003679033" flag="0"/>
    </comp>
    <comp name="--.HHZ">
      <acc value="0.0072567828" flag="0"/>
      <vel value="0.0023314053" flag="0"/>
      <psa03 value="0.0125698736" flag="0"/>
      <psa10 value="0.0024071648" flag="0"/>
      <psa30 value="0.0003368885" flag="0"/>
    </comp>
  </station>
  <station code="IACM" name="IACM" netid="HL" insttype="120" lat="35.3058" lon="25.0709">
    <comp name="--.HHZ">
      <acc value="0.2001245960" flag="0"/>
      <vel value="0.0949620283" flag="0"/>
      <psa03 value="0.3063348449" flag="0"/>
      <psa10 value="0.0809600299" flag="0"/>
      <psa30 value="0.0088291750" flag="0"/>
    </comp>
    <comp name="--.HHN">
      <acc value="0.2769801537" flag="0"/>
      <vel value="0.1063297104" flag="0"/>
      <psa03 value="0.4985530381" flag="0"/>
      <psa10 value="0.1900649475" flag="0"/>
      <psa30 value="0.0128340625" flag="0"/>
    </comp>
    <comp name="--.HHE">
      <acc value="0.2694007786" flag="0"/>
      <vel value="0.1729086377" flag="0"/>
      <psa03 value="0.6961742379" flag="0"/>
      <psa10 value="0.2543098495" flag="0"/>
      <psa30 value="0.0174761942" flag="0"/>
    </comp>
  </station>
  <station code="IDI" name="IDI" netid="HL" insttype="120" lat="35.288" lon="24.89">
    <comp name="--.HHE">
      <acc value="0.0513239462" flag="0"/>
      <vel value="0.0141027912" flag="0"/>
      <psa03 value="0.0275745999" flag="0"/>
      <psa10 value="0.0086490700" flag="0"/>
      <psa30 value="0.0016658868" flag="0"/>
    </comp>
    <comp name="--.HHZ">
      <acc value="0.0478356323" flag="0"/>
      <vel value="0.0114809389" flag="0"/>
      <psa03 value="0.0391154480" flag="0"/>
      <psa10 value="0.0112278368" flag="0"/>
      <psa30 value="0.0020308191" flag="0"/>
    </comp>
    <comp name="--.HHN">
      <acc value="0.0627257468" flag="0"/>
      <vel value="0.0159973475" flag="0"/>
      <psa03 value="0.0396440435" flag="0"/>
      <psa10 value="0.0061547479" flag="0"/>
      <psa30 value="0.0012741549" flag="0"/>
    </comp>
  </station>
  <station code="IMMV" name="IMMV" netid="HL" insttype="120" lat="35.4606" lon="23.9811">
    <comp name="--.HHZ">
      <acc value="0.0099584343" flag="0"/>
      <vel value="0.0058507913" flag="0"/>
      <psa03 value="0.0177231886" flag="0"/>
      <psa10 value="0.0069006603" flag="0"/>
      <psa30 value="0.0007394524" flag="0"/>
    </comp>
    <comp name="--.HHN">
      <acc value="0.0117376169" flag="0"/>
      <vel value="0.0062266802" flag="0"/>
      <psa03 value="0.0347071092" flag="0"/>
      <psa10 value="0.0117971835" flag="0"/>
      <psa30 value="0.0008446525" flag="0"/>
    </comp>
    <comp name="--.HHE">
      <acc value="0.0138089915" flag="0"/>
      <vel value="0.0087825277" flag="0"/>
      <psa03 value="0.0270242436" flag="0"/>
      <psa10 value="0.0156658803" flag="0"/>
      <psa30 value="0.0008494783" flag="0"/>
    </comp>
  </station>
  <station code="NPS" name="NPS" netid="HL" insttype="CMG3ESPC-120s" lat="35.2613" lon="25.6104">
    <comp name="--.HHE">
      <acc value="0.0249133289" flag="0"/>
      <vel value="0.0098578770" flag="0"/>
      <psa03 value="0.0453332517" flag="0"/>
      <psa10 value="0.0158710120" flag="0"/>
      <psa30 value="0.0008404131" flag="0"/>
    </comp>
    <comp name="--.HHN">
      <acc value="0.1124861479" flag="0"/>
      <vel value="0.0281919750" flag="0"/>
      <psa03 value="0.1149124629" flag="0"/>
      <psa10 value="0.0153922199" flag="0"/>
      <psa30 value="0.0020923663" flag="0"/>
    </comp>
    <comp name="--.HHZ">
      <acc value="0.0794533085" flag="0"/>
      <vel value="0.0297019407" flag="0"/>
      <psa03 value="0.0639213166" flag="0"/>
      <psa10 value="0.0417709316" flag="0"/>
      <psa30 value="0.0040428563" flag="0"/>
    </comp>
  </station>
  <station code="SIVA" name="SIVA" netid="HL" insttype="60" lat="35.0178" lon="24.812">
    <comp name="--.HHN">
      <acc value="0.1377479505" flag="0"/>
      <vel value="0.0443988027" flag="0"/>
      <psa03 value="0.1138272412" flag="0"/>
      <psa10 value="0.0449994593" flag="0"/>
      <psa30 value="0.0025188906" flag="0"/>
    </comp>
    <comp name="--.HHE">
      <acc value="0.1352835190" flag="0"/>
      <vel value="0.0369064099" flag="0"/>
      <psa03 value="0.2224409290" flag="0"/>
      <psa10 value="0.0413574872" flag="0"/>
      <psa30 value="0.0029357743" flag="0"/>
    </comp>
    <comp name="--.HHZ">
      <acc value="0.0610651471" flag="0"/>
      <vel value="0.0177946611" flag="0"/>
      <psa03 value="0.0777103372" flag="0"/>
      <psa10 value="0.0168188701" flag="0"/>
      <psa30 value="0.0022464986" flag="0"/>
    </comp>
  </station>
  <station code="VAM" name="VAM" netid="HL" insttype="CMG3ESPC-120s" lat="35.407" lon="24.1997">
    <comp name="--.HHZ">
      <acc value="0.0141542342" flag="0"/>
      <vel value="0.0051598281" flag="0"/>
      <psa03 value="0.0268674361" flag="0"/>
      <psa10 value="0.0058481618" flag="0"/>
      <psa30 value="0.0012869559" flag="0"/>
    </comp>
    <comp name="--.HHN">
      <acc value="0.0257157952" flag="0"/>
      <vel value="0.0100770034" flag="0"/>
      <psa03 value="0.0505761220" flag="0"/>
      <psa10 value="0.0096533988" flag="0"/>
      <psa30 value="0.0006496247" flag="0"/>
    </comp>
    <comp name="--.HHE">
      <acc value="0.0260866368" flag="0"/>
      <vel value="0.0093668344" flag="0"/>
      <psa03 value="0.0322349020" flag="0"/>
      <psa10 value="0.0053537030" flag="0"/>
      <psa30 value="0.0012521615" flag="0"/>
    </comp>
  </station>
  <station code="ZKR" name="ZKR" netid="HL" insttype="120" lat="35.1147" lon="26.2169">
    <comp name="--.HHE">
      <acc value="0.0146485094" flag="0"/>
      <vel value="0.0092617495" flag="0"/>
      <psa03 value="0.0329210042" flag="0"/>
      <psa10 value="0.0117742702" flag="0"/>
      <psa30 value="0.0019138652" flag="0"/>
    </comp>
    <comp name="--.HHZ">
      <acc value="0.0062440646" flag="0"/>
      <vel value="0.0045743684" flag="0"/>
      <psa03 value="0.0163773158" flag="0"/>
      <psa10 value="0.0042556574" flag="0"/>
      <psa30 value="0.0015561653" flag="0"/>
    </comp>
    <comp name="--.HHN">
      <acc value="0.0070084480" flag="0"/>
      <vel value="0.0037979517" flag="0"/>
      <psa03 value="0.0188226865" flag="0"/>
      <psa10 value="0.0042052566" flag="0"/>
      <psa30 value="0.0007541119" flag="0"/>
    </comp>
  </station>
  <station code="IDI" name="IDI" netid="MN" insttype="" lat="35.288" lon="24.89">
    <comp name="--.HHN">
      <acc value="0.0674807642" flag="0"/>
      <vel value="0.0162052294" flag="0"/>
      <psa03 value="0.0404851323" flag="0"/>
      <psa10 value="0.0061372745" flag="0"/>
      <psa30 value="0.0012620472" flag="0"/>
    </comp>
    <comp name="--.HHZ">
      <acc value="0.0489217330" flag="0"/>
      <vel value="0.0123518683" flag="0"/>
      <psa03 value="0.0396127792" flag="0"/>
      <psa10 value="0.0111617476" flag="0"/>
      <psa30 value="0.0020074919" flag="0"/>
    </comp>
    <comp name="--.HHE">
      <acc value="0.0546743381" flag="0"/>
      <vel value="0.0147900369" flag="0"/>
      <psa03 value="0.0281520454" flag="0"/>
      <psa10 value="0.0086189222" flag="0"/>
      <psa30 value="0.0016474888" flag="0"/>
    </comp>
  </station>
</stationlist>
