<?xml version="1.0" encoding="UTF-8" standalone="yes"?>
<!DOCTYPE earthquake SYSTEM "stationlist.dtd">
<stationlist created="" xmlns="ch.ethz.sed.shakemap.usgs.xml">
  <station code="CHAN" name="CHAN" netid="HC" insttype="120" lat="35.5193" lon="24.0428">
    <comp name="--.HHZ">
      <acc value="0.0567467980" flag="0"/>
      <vel value="0.0610430133" flag="0"/>
      <psa03 value="0.2074446057" flag="0"/>
      <psa10 value="0.0914348003" flag="0"/>
      <psa30 value="0.0146952519" flag="0"/>
    </comp>
    <comp name="--.HHE">
      <acc value="0.0803217418" flag="0"/>
      <vel value="0.0944294792" flag="0"/>
      <psa03 value="0.2325909484" flag="0"/>
      <psa10 value="0.2149676105" flag="0"/>
      <psa30 value="0.0293652009" flag="0"/>
    </comp>
    <comp name="--.HHN">
      <acc value="0.1034837410" flag="0"/>
      <vel value="0.1005541875" flag="0"/>
      <psa03 value="0.3372980129" flag="0"/>
      <psa10 value="0.2060785823" flag="0"/>
      <psa30 value="0.0225182553" flag="0"/>
    </comp>
  </station>
  <station code="IPPL" name="IPPL" netid="HC" insttype="60" lat="35.3486" lon="24.4632">
    <comp name="--.HHE">
      <acc value="0.0000000000" flag="0"/>
      <vel value="-100.0000000000" flag="0"/>
      <psa03 value="0.0000000000" flag="0"/>
      <psa10 value="0.0000000000" flag="0"/>
      <psa30 value="0.0000000000" flag="0"/>
    </comp>
    <comp name="--.HHN">
      <acc value="0.0000000000" flag="0"/>
      <vel value="-100.0000000000" flag="0"/>
      <psa03 value="0.0000000000" flag="0"/>
      <psa10 value="0.0000000000" flag="0"/>
      <psa30 value="0.0000000000" flag="0"/>
    </comp>
    <comp name="--.HHZ">
      <acc value="0.1023250247" flag="0"/>
      <vel value="0.0486291982" flag="0"/>
      <psa03 value="0.3825704547" flag="0"/>
      <psa10 value="0.0532076944" flag="0"/>
      <psa30 value="0.0079295458" flag="0"/>
    </comp>
  </station>
  <station code="KNDR" name="KNDR" netid="HC" insttype="120" lat="35.2348" lon="23.6248">
    <comp name="--.HHN">
      <acc value="0.0595632790" flag="0"/>
      <vel value="0.0472553939" flag="0"/>
      <psa03 value="0.1842641328" flag="0"/>
      <psa10 value="0.0797220633" flag="0"/>
      <psa30 value="0.0076928317" flag="0"/>
    </comp>
    <comp name="--.HHE">
      <acc value="0.0772408047" flag="0"/>
      <vel value="0.0310856466" flag="0"/>
      <psa03 value="0.3490103154" flag="0"/>
      <psa10 value="0.0594433496" flag="0"/>
      <psa30 value="0.0044739191" flag="0"/>
    </comp>
    <comp name="--.HHZ">
      <acc value="0.0545452680" flag="0"/>
      <vel value="0.0234651636" flag="0"/>
      <psa03 value="0.1295188767" flag="0"/>
      <psa10 value="0.0331745631" flag="0"/>
      <psa30 value="0.0039038383" flag="0"/>
    </comp>
  </station>
  <station code="KNSS" name="KNSS" netid="HC" insttype="60" lat="35.3042" lon="25.1802">
    <comp name="--.HHE">
      <acc value="0.2228943830" flag="0"/>
      <vel value="0.1106807000" flag="0"/>
      <psa03 value="0.7820766920" flag="0"/>
      <psa10 value="0.1169081093" flag="0"/>
      <psa30 value="0.0201422869" flag="0"/>
    </comp>
    <comp name="--.HHN">
      <acc value="0.2754205617" flag="0"/>
      <vel value="0.1388611057" flag="0"/>
      <psa03 value="1.2569601304" flag="0"/>
      <psa10 value="0.0849374988" flag="0"/>
      <psa30 value="0.0280568755" flag="0"/>
    </comp>
    <comp name="--.HHZ">
      <acc value="0.2438691397" flag="0"/>
      <vel value="0.0640675997" flag="0"/>
      <psa03 value="0.5822389181" flag="0"/>
      <psa10 value="0.0418244608" flag="0"/>
      <psa30 value="0.0145860953" flag="0"/>
    </comp>
  </station>
  <station code="PASK" name="PASK" netid="HC" insttype="DC" lat="35.4996" lon="24.0121">
    <comp name="--.HNE">
      <acc value="0.1109601044" flag="0"/>
      <vel value="0.0859407761" flag="0"/>
      <psa03 value="0.2727385429" flag="0"/>
      <psa10 value="0.1578972465" flag="0"/>
      <psa30 value="0.0138545384" flag="0"/>
    </comp>
    <comp name="--.HNZ">
      <acc value="0.0599692110" flag="0"/>
      <vel value="0.0442786253" flag="0"/>
      <psa03 value="0.2035684623" flag="0"/>
      <psa10 value="0.0698380261" flag="0"/>
      <psa30 value="0.0081376181" flag="0"/>
    </comp>
    <comp name="--.HNN">
      <acc value="0.1005295861" flag="0"/>
      <vel value="0.0783282352" flag="0"/>
      <psa03 value="0.2117502987" flag="0"/>
      <psa10 value="0.0992524560" flag="0"/>
      <psa30 value="0.0265956379" flag="0"/>
    </comp>
  </station>
  <station code="PFKS" name="PFKS" netid="HC" insttype="120" lat="35.0429" lon="25.4733">
    <comp name="--.HHN">
      <acc value="0.2720417353" flag="0"/>
      <vel value="0.1164623432" flag="0"/>
      <psa03 value="0.9932292666" flag="0"/>
      <psa10 value="0.1314978076" flag="0"/>
      <psa30 value="0.0115399743" flag="0"/>
    </comp>
    <comp name="--.HHE">
      <acc value="0.2573918257" flag="0"/>
      <vel value="0.1096497516" flag="0"/>
      <psa03 value="0.4516818679" flag="0"/>
      <psa10 value="0.1228318172" flag="0"/>
      <psa30 value="0.0123380141" flag="0"/>
    </comp>
    <comp name="--.HHZ">
      <acc value="0.1579769032" flag="0"/>
      <vel value="0.0594031521" flag="0"/>
      <psa03 value="0.2534187019" flag="0"/>
      <psa10 value="0.0743588173" flag="0"/>
      <psa30 value="0.0179338268" flag="0"/>
    </comp>
  </station>
  <station code="STIA" name="STIA" netid="HC" insttype="120" lat="35.2021" lon="26.0909">
    <comp name="--.HHZ">
      <acc value="0.0437712925" flag="0"/>
      <vel value="0.0355389355" flag="0"/>
      <psa03 value="0.0955135712" flag="0"/>
      <psa10 value="0.0387770252" flag="0"/>
      <psa30 value="0.0067346330" flag="0"/>
    </comp>
    <comp name="--.HHE">
      <acc value="0.0463520697" flag="0"/>
      <vel value="0.0539526924" flag="0"/>
      <psa03 value="0.1264956056" flag="0"/>
      <psa10 value="0.0869501905" flag="0"/>
      <psa30 value="0.0089811184" flag="0"/>
    </comp>
    <comp name="--.HHN">
      <acc value="0.0000000000" flag="0"/>
      <vel value="-100.0000000000" flag="0"/>
      <psa03 value="0.0000000000" flag="0"/>
      <psa10 value="0.0000000000" flag="0"/>
      <psa30 value="0.0000000000" flag="0"/>
    </comp>
  </station>
  <station code="IACM" name="IACM" netid="HL" insttype="120" lat="35.3058" lon="25.0709">
    <comp name="--.HHN">
      <acc value="0.5785963127" flag="0"/>
      <vel value="0.4231600992" flag="0"/>
      <psa03 value="1.4572215977" flag="0"/>
      <psa10 value="0.5314964499" flag="0"/>
      <psa30 value="0.0668356155" flag="0"/>
    </comp>
    <comp name="--.HHE">
      <acc value="0.5916279733" flag="0"/>
      <vel value="0.4589353897" flag="0"/>
      <psa03 value="1.8272833861" flag="0"/>
      <psa10 value="0.7203382916" flag="0"/>
      <psa30 value="0.0504970349" flag="0"/>
    </comp>
    <comp name="--.HHZ">
      <acc value="0.4664104205" flag="0"/>
      <vel value="0.1973499201" flag="0"/>
      <psa03 value="1.0879765224" flag="0"/>
      <psa10 value="0.2160302428" flag="0"/>
      <psa30 value="0.0161530290" flag="0"/>
    </comp>
  </station>
  <station code="IMMV" name="IMMV" netid="HL" insttype="120" lat="35.4606" lon="23.9811">
    <comp name="--.HHE">
      <acc value="0.0817618903" flag="0"/>
      <vel value="0.0707139315" flag="0"/>
      <psa03 value="0.3252298541" flag="0"/>
      <psa10 value="0.0903699394" flag="0"/>
      <psa30 value="0.0145464300" flag="0"/>
    </comp>
    <comp name="--.HHN">
      <acc value="0.0867842227" flag="0"/>
      <vel value="0.0403724054" flag="0"/>
      <psa03 value="0.2122524329" flag="0"/>
      <psa10 value="0.0565762408" flag="0"/>
      <psa30 value="0.0134034421" flag="0"/>
    </comp>
    <comp name="--.HHZ">
      <acc value="0.0661338524" flag="0"/>
      <vel value="0.0282391825" flag="0"/>
      <psa03 value="0.2161969064" flag="0"/>
      <psa10 value="0.0411398848" flag="0"/>
      <psa30 value="0.0059163284" flag="0"/>
    </comp>
  </station>
  <station code="SIVA" name="SIVA" netid="HL" insttype="GMG5TD" lat="35.0178" lon="24.812">
    <comp name="00.HNN">
      <acc value="1.8625806660" flag="0"/>
      <vel value="0.9296154337" flag="0"/>
      <psa03 value="3.2246294517" flag="0"/>
      <psa10 value="1.2379628817" flag="0"/>
      <psa30 value="0.0451109569" flag="0"/>
    </comp>
    <comp name="00.HNZ">
      <acc value="0.9989388206" flag="0"/>
      <vel value="0.6199741946" flag="0"/>
      <psa03 value="1.4237651211" flag="0"/>
      <psa10 value="0.7003166517" flag="0"/>
      <psa30 value="0.0382267274" flag="0"/>
    </comp>
    <comp name="00.HNE">
      <acc value="1.4639995036" flag="0"/>
      <vel value="0.9020244556" flag="0"/>
      <psa03 value="2.9102949453" flag="0"/>
      <psa10 value="1.1305074430" flag="0"/>
      <psa30 value="0.0651429719" flag="0"/>
    </comp>
  </station>
  <station code="VAM" name="VAM" netid="HL" insttype="CMG3ESPC-120s" lat="35.407" lon="24.1997">
    <comp name="--.HHE">
      <acc value="0.1235824360" flag="0"/>
      <vel value="0.0497453497" flag="0"/>
      <psa03 value="0.2352746885" flag="0"/>
      <psa10 value="0.0587445926" flag="0"/>
      <psa30 value="0.0107584792" flag="0"/>
    </comp>
    <comp name="--.HHN">
      <acc value="0.1483834901" flag="0"/>
      <vel value="0.0844525881" flag="0"/>
      <psa03 value="0.3822539804" flag="0"/>
      <psa10 value="0.0704530896" flag="0"/>
      <psa30 value="0.0089773746" flag="0"/>
    </comp>
    <comp name="--.HHZ">
      <acc value="0.0799915322" flag="0"/>
      <vel value="0.0321909879" flag="0"/>
      <psa03 value="0.1655256866" flag="0"/>
      <psa10 value="0.0270431279" flag="0"/>
      <psa30 value="0.0076759233" flag="0"/>
    </comp>
  </station>
</stationlist>
