<?xml version="1.0" encoding="UTF-8" standalone="yes"?>
<!DOCTYPE earthquake SYSTEM "stationlist.dtd">
<stationlist created="" xmlns="ch.ethz.sed.shakemap.usgs.xml">
  <station code="AMPE" name="AMPE" netid="HA" insttype="1s-100Hz," lat="38.3015" lon="23.2688">
    <comp name="--.HHE">
      <acc value="0.0382734163" flag="0"/>
      <vel value="0.0197821124" flag="0"/>
      <psa03 value="0.0802448430" flag="0"/>
      <psa10 value="0.0224532373" flag="0"/>
      <psa30 value="0.0015216423" flag="0"/>
    </comp>
    <comp name="--.HHN">
      <acc value="0.0293541282" flag="0"/>
      <vel value="0.0148924973" flag="0"/>
      <psa03 value="0.0622319518" flag="0"/>
      <psa10 value="0.0118854711" flag="0"/>
      <psa30 value="0.0011726146" flag="0"/>
    </comp>
    <comp name="--.HHZ">
      <acc value="0.0194890037" flag="0"/>
      <vel value="0.0090720516" flag="0"/>
      <psa03 value="0.0388364319" flag="0"/>
      <psa10 value="0.0074303506" flag="0"/>
      <psa30 value="0.0007402685" flag="0"/>
    </comp>
  </station>
  <station code="ATAL" name="ATAL" netid="HA" insttype="120" lat="38.6926" lon="23.0213">
    <comp name="--.HHZ">
      <acc value="0.0128752249" flag="0"/>
      <vel value="0.0118502314" flag="0"/>
      <psa03 value="0.0275841266" flag="0"/>
      <psa10 value="0.0086395388" flag="0"/>
      <psa30 value="0.0004890109" flag="0"/>
    </comp>
    <comp name="--.HHN">
      <acc value="0.0174483496" flag="0"/>
      <vel value="0.0092401433" flag="0"/>
      <psa03 value="0.0414562120" flag="0"/>
      <psa10 value="0.0150862666" flag="0"/>
      <psa30 value="0.0010165490" flag="0"/>
    </comp>
    <comp name="--.HHE">
      <acc value="0.0153756047" flag="0"/>
      <vel value="0.0086575758" flag="0"/>
      <psa03 value="0.0365226597" flag="0"/>
      <psa10 value="0.0079610125" flag="0"/>
      <psa30 value="0.0007080376" flag="0"/>
    </comp>
  </station>
  <station code="DOMV" name="DOMV" netid="HA" insttype="60" lat="38.2569" lon="22.9795">
    <comp name="--.HHE">
      <acc value="0.0533322390" flag="0"/>
      <vel value="0.0117063911" flag="0"/>
      <psa03 value="0.0661688174" flag="0"/>
      <psa10 value="0.0034252862" flag="0"/>
      <psa30 value="0.0002730461" flag="0"/>
    </comp>
    <comp name="--.HHZ">
      <acc value="0.0271036789" flag="0"/>
      <vel value="0.0063969551" flag="0"/>
      <psa03 value="0.0296964622" flag="0"/>
      <psa10 value="0.0038061369" flag="0"/>
      <psa30 value="0.0002779069" flag="0"/>
    </comp>
    <comp name="--.HHN">
      <acc value="0.0480704660" flag="0"/>
      <vel value="0.0089176901" flag="0"/>
      <psa03 value="0.0526580951" flag="0"/>
      <psa10 value="0.0052818638" flag="0"/>
      <psa30 value="0.0003964713" flag="0"/>
    </comp>
  </station>
  <station code="ERTR" name="ERTR" netid="HA" insttype="Horizon,120s,1200" lat="38.4066" lon="23.7865">
    <comp name="--.HHE">
      <acc value="0.0837315967" flag="0"/>
      <vel value="0.0195573485" flag="0"/>
      <psa03 value="0.1061443181" flag="0"/>
      <psa10 value="0.0127063201" flag="0"/>
      <psa30 value="0.0011178243" flag="0"/>
    </comp>
    <comp name="--.HHZ">
      <acc value="0.0547883486" flag="0"/>
      <vel value="0.0145404501" flag="0"/>
      <psa03 value="0.0662461847" flag="0"/>
      <psa10 value="0.0094744059" flag="0"/>
      <psa30 value="0.0005447914" flag="0"/>
    </comp>
    <comp name="--.HHN">
      <acc value="0.0756291378" flag="0"/>
      <vel value="0.0314581468" flag="0"/>
      <psa03 value="0.1125968062" flag="0"/>
      <psa10 value="0.0372645826" flag="0"/>
      <psa30 value="0.0023324263" flag="0"/>
    </comp>
  </station>
  <station code="KARY" name="KARY" netid="HA" insttype="60" lat="38.0321" lon="24.437">
    <comp name="--.HHN">
      <acc value="2.2595286711" flag="0"/>
      <vel value="0.4976879598" flag="0"/>
      <psa03 value="0.6466282869" flag="0"/>
      <psa10 value="0.0709242539" flag="0"/>
      <psa30 value="0.0071824663" flag="0"/>
    </comp>
    <comp name="--.HHE">
      <acc value="3.2420011445" flag="0"/>
      <vel value="0.4652919952" flag="0"/>
      <psa03 value="0.6570894630" flag="0"/>
      <psa10 value="0.0475512478" flag="0"/>
      <psa30 value="0.0057441160" flag="0"/>
    </comp>
    <comp name="--.HHZ">
      <acc value="2.0087933775" flag="0"/>
      <vel value="0.3092982018" flag="0"/>
      <psa03 value="0.2906782279" flag="0"/>
      <psa10 value="0.0436060596" flag="0"/>
      <psa30 value="0.0039579689" flag="0"/>
    </comp>
  </station>
  <station code="LOUT" name="LOUT" netid="HA" insttype="30" lat="37.9879" lon="22.9743">
    <comp name="--.HHE">
      <acc value="0.0880229142" flag="0"/>
      <vel value="0.0460647306" flag="0"/>
      <psa03 value="0.2515876380" flag="0"/>
      <psa10 value="0.0428019681" flag="0"/>
      <psa30 value="0.0023930655" flag="0"/>
    </comp>
    <comp name="--.HHN">
      <acc value="0.0860656766" flag="0"/>
      <vel value="0.0313218885" flag="0"/>
      <psa03 value="0.1993099010" flag="0"/>
      <psa10 value="0.0263712281" flag="0"/>
      <psa30 value="0.0015647003" flag="0"/>
    </comp>
    <comp name="--.HHZ">
      <acc value="0.0619219884" flag="0"/>
      <vel value="0.0238319713" flag="0"/>
      <psa03 value="0.1709884559" flag="0"/>
      <psa10 value="0.0235583526" flag="0"/>
      <psa30 value="0.0009426154" flag="0"/>
    </comp>
  </station>
  <station code="MDRA" name="MDRA" netid="HA" insttype="60" lat="38.0606" lon="23.4662">
    <comp name="--.HHZ">
      <acc value="0.0322565099" flag="0"/>
      <vel value="0.0121943152" flag="0"/>
      <psa03 value="0.0463353952" flag="0"/>
      <psa10 value="0.0053224428" flag="0"/>
      <psa30 value="0.0004137494" flag="0"/>
    </comp>
    <comp name="--.HHE">
      <acc value="0.0271227172" flag="0"/>
      <vel value="0.0070997228" flag="0"/>
      <psa03 value="0.0345514259" flag="0"/>
      <psa10 value="0.0040228712" flag="0"/>
      <psa30 value="0.0002799657" flag="0"/>
    </comp>
    <comp name="--.HHN">
      <acc value="0.0288747592" flag="0"/>
      <vel value="0.0105032649" flag="0"/>
      <psa03 value="0.0496386271" flag="0"/>
      <psa10 value="0.0102136786" flag="0"/>
      <psa30 value="0.0006075609" flag="0"/>
    </comp>
  </station>
  <station code="MRKA" name="MRKA" netid="HA" insttype="Horizon,120s,1200" lat="38.7047" lon="23.5863">
    <comp name="--.HHE">
      <acc value="0.1212145152" flag="0"/>
      <vel value="0.0332264892" flag="0"/>
      <psa03 value="0.1946000094" flag="0"/>
      <psa10 value="0.0267008656" flag="0"/>
      <psa30 value="0.0015861481" flag="0"/>
    </comp>
    <comp name="--.HHN">
      <acc value="0.1172757751" flag="0"/>
      <vel value="0.0392639739" flag="0"/>
      <psa03 value="0.2494007044" flag="0"/>
      <psa10 value="0.0411155375" flag="0"/>
      <psa30 value="0.0026144627" flag="0"/>
    </comp>
    <comp name="--.HHZ">
      <acc value="0.0525444830" flag="0"/>
      <vel value="0.0210050587" flag="0"/>
      <psa03 value="0.0984893134" flag="0"/>
      <psa10 value="0.0171224151" flag="0"/>
      <psa30 value="0.0009571844" flag="0"/>
    </comp>
  </station>
  <station code="MRTH" name="MRTH" netid="HA" insttype="S100," lat="38.1225" lon="23.9409">
    <comp name="--.HHZ">
      <acc value="0.4511597680" flag="0"/>
      <vel value="0.1079730918" flag="0"/>
      <psa03 value="0.7339309464" flag="0"/>
      <psa10 value="0.0475917119" flag="0"/>
      <psa30 value="0.0024978766" flag="0"/>
    </comp>
    <comp name="--.HHN">
      <acc value="0.5328331709" flag="0"/>
      <vel value="0.1394677188" flag="0"/>
      <psa03 value="0.7044471349" flag="0"/>
      <psa10 value="0.0790205257" flag="0"/>
      <psa30 value="0.0060704021" flag="0"/>
    </comp>
    <comp name="--.HHE">
      <acc value="0.3670764989" flag="0"/>
      <vel value="0.1243073450" flag="0"/>
      <psa03 value="0.4366737743" flag="0"/>
      <psa10 value="0.0690987034" flag="0"/>
      <psa30 value="0.0058565011" flag="0"/>
    </comp>
  </station>
  <station code="SERI" name="SERI" netid="HA" insttype="30" lat="37.1609" lon="24.4853">
    <comp name="--.HHZ">
      <acc value="0.0725172200" flag="0"/>
      <vel value="0.0123277974" flag="0"/>
      <psa03 value="0.0390604689" flag="0"/>
      <psa10 value="0.0097710094" flag="0"/>
      <psa30 value="0.0004725193" flag="0"/>
    </comp>
    <comp name="--.HHN">
      <acc value="0.0813537297" flag="0"/>
      <vel value="0.0150782646" flag="0"/>
      <psa03 value="0.0487262121" flag="0"/>
      <psa10 value="0.0045688918" flag="0"/>
      <psa30 value="0.0005559686" flag="0"/>
    </comp>
    <comp name="--.HHE">
      <acc value="0.0634237645" flag="0"/>
      <vel value="0.0155793457" flag="0"/>
      <psa03 value="0.0624897073" flag="0"/>
      <psa10 value="0.0154417345" flag="0"/>
      <psa30 value="0.0013918934" flag="0"/>
    </comp>
  </station>
  <station code="STFN" name="STFN" netid="HA" insttype="1s-100Hz," lat="38.1766" lon="23.544">
    <comp name="--.HHE">
      <acc value="0.0931535629" flag="0"/>
      <vel value="0.0323357060" flag="0"/>
      <psa03 value="0.1369563388" flag="0"/>
      <psa10 value="0.0215471424" flag="0"/>
      <psa30 value="0.0014141069" flag="0"/>
    </comp>
    <comp name="--.HHN">
      <acc value="0.1117247485" flag="0"/>
      <vel value="0.0353073283" flag="0"/>
      <psa03 value="0.1323706471" flag="0"/>
      <psa10 value="0.0160092263" flag="0"/>
      <psa30 value="0.0011993282" flag="0"/>
    </comp>
    <comp name="--.HHZ">
      <acc value="0.0585984792" flag="0"/>
      <vel value="0.0138070276" flag="0"/>
      <psa03 value="0.0782660457" flag="0"/>
      <psa10 value="0.0127441568" flag="0"/>
      <psa30 value="0.0010679903" flag="0"/>
    </comp>
  </station>
  <station code="THIV" name="THIV" netid="HA" insttype="25" lat="38.299" lon="23.332">
    <comp name="--.HHE">
      <acc value="0.0220431667" flag="0"/>
      <vel value="0.0079185905" flag="0"/>
      <psa03 value="0.0475236601" flag="0"/>
      <psa10 value="0.0050030816" flag="0"/>
      <psa30 value="0.0002609427" flag="0"/>
    </comp>
    <comp name="--.HHN">
      <acc value="0.0235585496" flag="0"/>
      <vel value="0.0084288531" flag="0"/>
      <psa03 value="0.0561955300" flag="0"/>
      <psa10 value="0.0069927835" flag="0"/>
      <psa30 value="0.0005179149" flag="0"/>
    </comp>
    <comp name="--.HHZ">
      <acc value="0.0203533133" flag="0"/>
      <vel value="0.0075079857" flag="0"/>
      <psa03 value="0.0339378036" flag="0"/>
      <psa10 value="0.0030641526" flag="0"/>
      <psa30 value="0.0003137209" flag="0"/>
    </comp>
  </station>
  <station code="VILL" name="VILL" netid="HA" insttype="Horizon,120s,1200" lat="38.1642" lon="23.3122">
    <comp name="--.HHE">
      <acc value="0.0407697635" flag="0"/>
      <vel value="0.0183610212" flag="0"/>
      <psa03 value="0.0968953428" flag="0"/>
      <psa10 value="0.0245454368" flag="0"/>
      <psa30 value="0.0010656971" flag="0"/>
    </comp>
    <comp name="--.HHZ">
      <acc value="0.0340716358" flag="0"/>
      <vel value="0.0168875768" flag="0"/>
      <psa03 value="0.0622330171" flag="0"/>
      <psa10 value="0.0110972646" flag="0"/>
      <psa30 value="0.0006479115" flag="0"/>
    </comp>
    <comp name="--.HHN">
      <acc value="0.0394403898" flag="0"/>
      <vel value="0.0235555732" flag="0"/>
      <psa03 value="0.0613949681" flag="0"/>
      <psa10 value="0.0134910182" flag="0"/>
      <psa30 value="0.0016969255" flag="0"/>
    </comp>
  </station>
  <station code="THNO" name="THNO" netid="HC" insttype="60" lat="37.6541" lon="25.0221">
    <comp name="--.HHE">
      <acc value="0.0000000000" flag="0"/>
      <vel value="-100.0000000000" flag="0"/>
      <psa03 value="0.0000000000" flag="0"/>
      <psa10 value="0.0000000000" flag="0"/>
      <psa30 value="0.0000000000" flag="0"/>
    </comp>
    <comp name="--.HHN">
      <acc value="0.0000000000" flag="0"/>
      <vel value="-100.0000000000" flag="0"/>
      <psa03 value="0.0000000000" flag="0"/>
      <psa10 value="0.0000000000" flag="0"/>
      <psa30 value="0.0000000000" flag="0"/>
    </comp>
    <comp name="--.HHZ">
      <acc value="0.1677686501" flag="0"/>
      <vel value="0.0479500128" flag="0"/>
      <psa03 value="0.2144302279" flag="0"/>
      <psa10 value="0.0228593312" flag="0"/>
      <psa30 value="0.0011888652" flag="0"/>
    </comp>
  </station>
  <station code="ATH5" name="ATH5" netid="HI" insttype="CMG-5TD,ACCELEROMETER,GURALP" lat="37.9754" lon="23.7371">
    <comp name="--.HNE">
      <acc value="0.1718659250" flag="0"/>
      <vel value="0.0561209215" flag="0"/>
      <psa03 value="0.4184629565" flag="0"/>
      <psa10 value="0.0350205475" flag="0"/>
      <psa30 value="0.0026213691" flag="0"/>
    </comp>
    <comp name="--.HNZ">
      <acc value="0.0840741651" flag="0"/>
      <vel value="0.0241762797" flag="0"/>
      <psa03 value="0.1429911368" flag="0"/>
      <psa10 value="0.0182204192" flag="0"/>
      <psa30 value="0.0010359905" flag="0"/>
    </comp>
    <comp name="--.HNN">
      <acc value="0.0861722367" flag="0"/>
      <vel value="0.0376658076" flag="0"/>
      <psa03 value="0.1590179593" flag="0"/>
      <psa10 value="0.0308230226" flag="0"/>
      <psa30 value="0.0023164028" flag="0"/>
    </comp>
  </station>
  <station code="ATH" name="ATH" netid="HL" insttype="DR24" lat="37.9738" lon="23.7177">
    <comp name="--.HHN">
      <acc value="0.1582478390" flag="0"/>
      <vel value="0.0634175923" flag="0"/>
      <psa03 value="0.4010615199" flag="0"/>
      <psa10 value="0.0506582259" flag="0"/>
      <psa30 value="0.0036027616" flag="0"/>
    </comp>
    <comp name="--.HHZ">
      <acc value="0.1459433690" flag="0"/>
      <vel value="0.0311053170" flag="0"/>
      <psa03 value="0.1389885111" flag="0"/>
      <psa10 value="0.0251855414" flag="0"/>
      <psa30 value="0.0012926513" flag="0"/>
    </comp>
    <comp name="--.HHE">
      <acc value="0.1961393474" flag="0"/>
      <vel value="0.0642680726" flag="0"/>
      <psa03 value="0.2516279305" flag="0"/>
      <psa10 value="0.0350640533" flag="0"/>
      <psa30 value="0.0020009022" flag="0"/>
    </comp>
  </station>
  <station code="ATHP" name="ATHP" netid="HL" insttype="CMG-5" lat="38.0008" lon="23.7735">
    <comp name="00.HNZ">
      <acc value="0.1294012366" flag="0"/>
      <vel value="0.0437035165" flag="0"/>
      <psa03 value="0.2561266637" flag="0"/>
      <psa10 value="0.0289192698" flag="0"/>
      <psa30 value="0.0014095821" flag="0"/>
    </comp>
    <comp name="00.HNE">
      <acc value="0.1631379797" flag="0"/>
      <vel value="0.0572770684" flag="0"/>
      <psa03 value="0.3255161654" flag="0"/>
      <psa10 value="0.0477331251" flag="0"/>
      <psa30 value="0.0035421341" flag="0"/>
    </comp>
    <comp name="00.HNN">
      <acc value="0.1448491727" flag="0"/>
      <vel value="0.0667610146" flag="0"/>
      <psa03 value="0.2640264538" flag="0"/>
      <psa10 value="0.0581663906" flag="0"/>
      <psa30 value="0.0033851666" flag="0"/>
    </comp>
  </station>
  <station code="LKR" name="LKR" netid="HL" insttype="65535" lat="38.6496" lon="22.9988">
    <comp name="--.HHE">
      <acc value="0.0454606145" flag="0"/>
      <vel value="0.0110082664" flag="0"/>
      <psa03 value="0.0723333381" flag="0"/>
      <psa10 value="0.0053575661" flag="0"/>
      <psa30 value="0.0005640453" flag="0"/>
    </comp>
    <comp name="--.HHN">
      <acc value="0.0574864490" flag="0"/>
      <vel value="0.0157558337" flag="0"/>
      <psa03 value="0.0794717905" flag="0"/>
      <psa10 value="0.0067714285" flag="0"/>
      <psa30 value="0.0006654324" flag="0"/>
    </comp>
    <comp name="--.HHZ">
      <acc value="0.0208212517" flag="0"/>
      <vel value="0.0077302108" flag="0"/>
      <psa03 value="0.0420338473" flag="0"/>
      <psa10 value="0.0052330902" flag="0"/>
      <psa30 value="0.0004293696" flag="0"/>
    </comp>
  </station>
  <station code="NOAC" name="NOAC" netid="HL" insttype="CMG-5" lat="37.9738" lon="23.7177">
    <comp name="00.HNZ">
      <acc value="0.1508462812" flag="0"/>
      <vel value="0.0318369597" flag="0"/>
      <psa03 value="0.1444772141" flag="0"/>
      <psa10 value="0.0251475664" flag="0"/>
      <psa30 value="0.0013302993" flag="0"/>
    </comp>
    <comp name="00.HNE">
      <acc value="0.2015467278" flag="0"/>
      <vel value="0.0655079753" flag="0"/>
      <psa03 value="0.2613168539" flag="0"/>
      <psa10 value="0.0374965057" flag="0"/>
      <psa30 value="0.0020489657" flag="0"/>
    </comp>
    <comp name="00.HNN">
      <acc value="0.1511784865" flag="0"/>
      <vel value="0.0628100999" flag="0"/>
      <psa03 value="0.4102924998" flag="0"/>
      <psa10 value="0.0501600476" flag="0"/>
      <psa30 value="0.0036187640" flag="0"/>
    </comp>
  </station>
  <station code="PTL" name="PTL" netid="HL" insttype="120" lat="38.0473" lon="23.8638">
    <comp name="--.HHE">
      <acc value="0.2041222450" flag="0"/>
      <vel value="0.0647687194" flag="0"/>
      <psa03 value="0.3040940929" flag="0"/>
      <psa10 value="0.0529850545" flag="0"/>
      <psa30 value="0.0032217338" flag="0"/>
    </comp>
    <comp name="--.HHN">
      <acc value="0.0594953031" flag="0"/>
      <vel value="0.0171293296" flag="0"/>
      <psa03 value="0.0198404477" flag="0"/>
      <psa10 value="0.0153421049" flag="0"/>
      <psa30 value="0.0073999661" flag="0"/>
    </comp>
    <comp name="--.HHZ">
      <acc value="0.1062316989" flag="0"/>
      <vel value="0.0405254328" flag="0"/>
      <psa03 value="0.2946690132" flag="0"/>
      <psa10 value="0.0243675495" flag="0"/>
      <psa30 value="0.0015242278" flag="0"/>
    </comp>
  </station>
  <station code="SKY" name="SKY" netid="HL" insttype="120" lat="38.8831" lon="24.5482">
    <comp name="--.HHN">
      <acc value="0.2705294824" flag="0"/>
      <vel value="0.0713662659" flag="0"/>
      <psa03 value="0.2854129962" flag="0"/>
      <psa10 value="0.0217115571" flag="0"/>
      <psa30 value="0.0014748267" flag="0"/>
    </comp>
    <comp name="--.HHE">
      <acc value="0.0000217302" flag="0"/>
      <vel value="0.0000101019" flag="0"/>
      <psa03 value="0.0000220865" flag="0"/>
      <psa10 value="0.0000085297" flag="0"/>
      <psa30 value="0.0000076878" flag="0"/>
    </comp>
    <comp name="--.HHZ">
      <acc value="0.1304364353" flag="0"/>
      <vel value="0.0342720204" flag="0"/>
      <psa03 value="0.1211186564" flag="0"/>
      <psa10 value="0.0244609432" flag="0"/>
      <psa30 value="0.0009708644" flag="0"/>
    </comp>
  </station>
  <station code="THI1" name="THI1" netid="HL" insttype="LE3D20_SMART24" lat="38.3878" lon="23.3945">
    <comp name="--.HHN">
      <acc value="0.3123779282" flag="0"/>
      <vel value="0.0768390725" flag="0"/>
      <psa03 value="0.4882237147" flag="0"/>
      <psa10 value="0.0204124511" flag="0"/>
      <psa30 value="0.0031948760" flag="0"/>
    </comp>
    <comp name="--.HHE">
      <acc value="0.2171421465" flag="0"/>
      <vel value="0.0605550685" flag="0"/>
      <psa03 value="0.3582545317" flag="0"/>
      <psa10 value="0.0211500450" flag="0"/>
      <psa30 value="0.0012815999" flag="0"/>
    </comp>
    <comp name="--.HHZ">
      <acc value="0.2347765328" flag="0"/>
      <vel value="0.0567497774" flag="0"/>
      <psa03 value="0.2842417651" flag="0"/>
      <psa10 value="0.0154100918" flag="0"/>
      <psa30 value="0.0009820311" flag="0"/>
    </comp>
  </station>
  <station code="THI2" name="THI2" netid="HL" insttype="LE3D20_SMART24" lat="38.3727" lon="23.211">
    <comp name="--.HHE">
      <acc value="0.1490715939" flag="0"/>
      <vel value="0.0433656359" flag="0"/>
      <psa03 value="0.1931006785" flag="0"/>
      <psa10 value="0.0183786811" flag="0"/>
      <psa30 value="0.0010704164" flag="0"/>
    </comp>
    <comp name="--.HHZ">
      <acc value="0.0769490727" flag="0"/>
