<?xml version="1.0" encoding="UTF-8" standalone="yes"?>
<!DOCTYPE earthquake SYSTEM "stationlist.dtd">
<stationlist created="" xmlns="ch.ethz.sed.shakemap.usgs.xml">
  <station code="ARR" name="ARR" netid="RO" insttype="w/attenuator" lat="45.3657" lon="24.6332">
    <comp name="--.HHE">
      <acc value="0.0193010812" flag="0"/>
      <vel value="0.0068478197" flag="0"/>
      <psa03 value="0.0313109584" flag="0"/>
      <psa10 value="0.0029326219" flag="0"/>
      <psa30 value="0.0002602306" flag="0"/>
    </comp>
    <comp name="--.HHZ">
      <acc value="0.0233173089" flag="0"/>
      <vel value="0.0083697661" flag="0"/>
      <psa03 value="0.0300269596" flag="0"/>
      <psa10 value="0.0017067707" flag="0"/>
      <psa30 value="0.0001665060" flag="0"/>
    </comp>
    <comp name="--.HHN">
      <acc value="0.0207383344" flag="0"/>
      <vel value="0.0078124933" flag="0"/>
      <psa03 value="0.0476418989" flag="0"/>
      <psa10 value="0.0029224640" flag="0"/>
      <psa30 value="0.0001779611" flag="0"/>
    </comp>
  </station>
  <station code="BOSR" name="BOSR" netid="RO" insttype="Seismometer/Basalt" lat="46.0749" lon="25.6611">
    <comp name="--.HHE">
      <acc value="0.0202165397" flag="0"/>
      <vel value="0.0082569196" flag="0"/>
      <psa03 value="0.0814302171" flag="0"/>
      <psa10 value="0.0047781384" flag="0"/>
      <psa30 value="0.0003739770" flag="0"/>
    </comp>
    <comp name="--.HHN">
      <acc value="0.0349847648" flag="0"/>
      <vel value="0.0163783865" flag="0"/>
      <psa03 value="0.0909042479" flag="0"/>
      <psa10 value="0.0072717079" flag="0"/>
      <psa30 value="0.0005700833" flag="0"/>
    </comp>
    <comp name="--.HHZ">
      <acc value="0.0153550030" flag="0"/>
      <vel value="0.0058568318" flag="0"/>
      <psa03 value="0.0344214597" flag="0"/>
      <psa10 value="0.0033287385" flag="0"/>
      <psa30 value="0.0002263754" flag="0"/>
    </comp>
  </station>
  <station code="BTMR" name="BTMR" netid="RO" insttype="2.5V" lat="44.437" lon="26.1067">
    <comp name="--.HNE">
      <acc value="0.2472188258" flag="0"/>
      <vel value="0.0796558228" flag="0"/>
      <psa03 value="0.3505771133" flag="0"/>
      <psa10 value="0.0213785679" flag="0"/>
      <psa30 value="0.0027735486" flag="0"/>
    </comp>
    <comp name="--.HNN">
      <acc value="0.2797322717" flag="0"/>
      <vel value="0.0782076275" flag="0"/>
      <psa03 value="0.4535464718" flag="0"/>
      <psa10 value="0.0177430341" flag="0"/>
      <psa30 value="0.0016737904" flag="0"/>
    </comp>
    <comp name="--.HNZ">
      <acc value="0.1028284276" flag="0"/>
      <vel value="0.0243162047" flag="0"/>
      <psa03 value="0.1319364498" flag="0"/>
      <psa10 value="0.0063341882" flag="0"/>
      <psa30 value="0.0006303166" flag="0"/>
    </comp>
  </station>
  <station code="BUC" name="BUC" netid="RO" insttype="200" lat="44.4107" lon="26.0938">
    <comp name="--.HNE">
      <acc value="0.3096865678" flag="0"/>
      <vel value="0.1172746797" flag="0"/>
      <psa03 value="0.4678624337" flag="0"/>
      <psa10 value="0.0532822289" flag="0"/>
      <psa30 value="0.0035617499" flag="0"/>
    </comp>
    <comp name="--.HNN">
      <acc value="0.2128063367" flag="0"/>
      <vel value="0.0940134512" flag="0"/>
      <psa03 value="0.4466137120" flag="0"/>
      <psa10 value="0.0213479916" flag="0"/>
      <psa30 value="0.0023702685" flag="0"/>
    </comp>
    <comp name="--.HNZ">
      <acc value="0.1030941188" flag="0"/>
      <vel value="0.0250898924" flag="0"/>
      <psa03 value="0.0860826396" flag="0"/>
      <psa10 value="0.0076145266" flag="0"/>
      <psa30 value="0.0005871533" flag="0"/>
    </comp>
  </station>
  <station code="COPA" name="COPA" netid="RO" insttype="Seismometer/Basalt" lat="44.1343" lon="25.2172">
    <comp name="--.HHE">
      <acc value="0.1746116784" flag="0"/>
      <vel value="0.0487596277" flag="0"/>
      <psa03 value="0.2112616081" flag="0"/>
      <psa10 value="0.0093564534" flag="0"/>
      <psa30 value="0.0010587580" flag="0"/>
    </comp>
    <comp name="--.HHN">
      <acc value="0.1031489259" flag="0"/>
      <vel value="0.0256412555" flag="0"/>
      <psa03 value="0.1215771162" flag="0"/>
      <psa10 value="0.0087657688" flag="0"/>
      <psa30 value="0.0007252324" flag="0"/>
    </comp>
  </station>
  <station code="DOPR" name="DOPR" netid="RO" insttype="330" lat="45.9675" lon="25.3886">
    <comp name="--.HHE">
      <acc value="0.0242130922" flag="0"/>
      <vel value="0.0090458990" flag="0"/>
      <psa03 value="0.0392721341" flag="0"/>
      <psa10 value="0.0052985190" flag="0"/>
      <psa30 value="0.0003545518" flag="0"/>
    </comp>
    <comp name="--.HHZ">
      <acc value="0.0131196298" flag="0"/>
      <vel value="0.0032131846" flag="0"/>
      <psa03 value="0.0178586779" flag="0"/>
      <psa10 value="0.0032617787" flag="0"/>
      <psa30 value="0.0001728233" flag="0"/>
    </comp>
    <comp name="--.HHN">
      <acc value="0.0220307914" flag="0"/>
      <vel value="0.0076524268" flag="0"/>
      <psa03 value="0.0639763040" flag="0"/>
      <psa10 value="0.0032177063" flag="0"/>
      <psa30 value="0.0002346595" flag="0"/>
    </comp>
  </station>
  <station code="GRER" name="GRER" netid="RO" insttype="MBB2/Quanterra" lat="45.3801" lon="26.9747">
    <comp name="--.HHN">
      <acc value="0.0112727249" flag="0"/>
      <vel value="0.0063269776" flag="0"/>
      <psa03 value="0.0343166589" flag="0"/>
      <psa10 value="0.0039002097" flag="0"/>
      <psa30 value="0.0005062946" flag="0"/>
    </comp>
    <comp name="--.HHZ">
      <acc value="0.0170160263" flag="0"/>
      <vel value="0.0053476065" flag="0"/>
      <psa03 value="0.0198569230" flag="0"/>
      <psa10 value="0.0021537535" flag="0"/>
      <psa30 value="0.0002585133" flag="0"/>
    </comp>
    <comp name="--.HHE">
      <acc value="0.0119230022" flag="0"/>
      <vel value="0.0062708622" flag="0"/>
      <psa03 value="0.0256623180" flag="0"/>
      <psa10 value="0.0049822993" flag="0"/>
      <psa30 value="0.0005434809" flag="0"/>
    </comp>
  </station>
  <station code="HUMR" name="HUMR" netid="RO" insttype="Seismometer/Quanterra" lat="44.5281" lon="24.9804">
    <comp name="--.HHE">
      <acc value="0.6829106747" flag="0"/>
      <vel value="0.1019606868" flag="0"/>
      <psa03 value="0.3484324292" flag="0"/>
      <psa10 value="0.0442613314" flag="0"/>
      <psa30 value="0.0068271142" flag="0"/>
    </comp>
    <comp name="--.HHN">
      <acc value="0.3046586326" flag="0"/>
      <vel value="0.0930350303" flag="0"/>
      <psa03 value="0.3899205157" flag="0"/>
      <psa10 value="0.0241708908" flag="0"/>
      <psa30 value="0.0021931788" flag="0"/>
    </comp>
    <comp name="--.HHZ">
      <acc value="0.1958425162" flag="0"/>
      <vel value="0.0406362087" flag="0"/>
      <psa03 value="0.1094134197" flag="0"/>
      <psa10 value="0.0065835253" flag="0"/>
      <psa30 value="0.0006344517" flag="0"/>
    </comp>
  </station>
  <station code="INCR" name="INCR" netid="RO" insttype="200" lat="44.441" lon="26.1611">
    <comp name="--.HNE">
      <acc value="0.0557396988" flag="0"/>
      <vel value="0.0234167627" flag="0"/>
      <psa03 value="0.1279477855" flag="0"/>
      <psa10 value="0.0210810400" flag="0"/>
      <psa30 value="0.0015255520" flag="0"/>
    </comp>
    <comp name="--.HNZ">
      <acc value="0.0648531393" flag="0"/>
      <vel value="0.0137968329" flag="0"/>
      <psa03 value="0.0584874950" flag="0"/>
      <psa10 value="0.0050174826" flag="0"/>
      <psa30 value="0.0003754014" flag="0"/>
    </comp>
    <comp name="--.HNN">
      <acc value="0.0701062611" flag="0"/>
      <vel value="0.0265258642" flag="0"/>
      <psa03 value="0.1034202928" flag="0"/>
      <psa10 value="0.0167478546" flag="0"/>
      <psa30 value="0.0013637593" flag="0"/>
    </comp>
  </station>
  <station code="ISR" name="ISR" netid="RO" insttype="CMG3ESP/Quanterra" lat="45.1187" lon="26.5432">
    <comp name="--.HHN">
      <acc value="0.0383813092" flag="0"/>
      <vel value="0.0138295067" flag="0"/>
      <psa03 value="0.1010132702" flag="0"/>
      <psa10 value="0.0122168499" flag="0"/>
      <psa30 value="0.0006081473" flag="0"/>
    </comp>
    <comp name="--.HHZ">
      <acc value="0.0199772559" flag="0"/>
      <vel value="0.0077452409" flag="0"/>
      <psa03 value="0.0474416094" flag="0"/>
      <psa10 value="0.0049888499" flag="0"/>
      <psa30 value="0.0003579164" flag="0"/>
    </comp>
    <comp name="--.HHE">
      <acc value="0.0410727639" flag="0"/>
      <vel value="0.0150006470" flag="0"/>
      <psa03 value="0.0994936019" flag="0"/>
      <psa10 value="0.0089837385" flag="0"/>
      <psa30 value="0.0005380774" flag="0"/>
    </comp>
  </station>
  <station code="MLR" name="MLR" netid="RO" insttype="330HR" lat="45.4909" lon="25.945">
    <comp name="--.HHE">
      <acc value="0.0092810012" flag="0"/>
      <vel value="0.0061164523" flag="0"/>
      <psa03 value="0.0184028300" flag="0"/>
      <psa10 value="0.0092320952" flag="0"/>
      <psa30 value="0.0007471025" flag="0"/>
    </comp>
    <comp name="--.HHN">
      <acc value="0.0073305082" flag="0"/>
      <vel value="0.0050025300" flag="0"/>
      <psa03 value="0.0228176923" flag="0"/>
      <psa10 value="0.0046989951" flag="0"/>
      <psa30 value="0.0003484332" flag="0"/>
    </comp>
    <comp name="--.HHZ">
      <acc value="0.0061494442" flag="0"/>
      <vel value="0.0048538845" flag="0"/>
      <psa03 value="0.0229025772" flag="0"/>
      <psa10 value="0.0035413361" flag="0"/>
      <psa30 value="0.0003054565" flag="0"/>
    </comp>
  </station>
  <station code="MTUR" name="MTUR" netid="RO" insttype="200" lat="45.2349" lon="25.0739">
    <comp name="--.HNE">
      <acc value="0.1622482578" flag="0"/>
      <vel value="0.0446016130" flag="0"/>
      <psa03 value="0.3016536422" flag="0"/>
      <psa10 value="0.0239926062" flag="0"/>
      <psa30 value="0.0021167152" flag="0"/>
    </comp>
    <comp name="--.HNN">
      <acc value="0.1532255611" flag="0"/>
      <vel value="0.0411298306" flag="0"/>
      <psa03 value="0.2711804277" flag="0"/>
      <psa10 value="0.0215788549" flag="0"/>
      <psa30 value="0.0010258260" flag="0"/>
    </comp>
    <comp name="--.HNZ">
      <acc value="0.1461872219" flag="0"/>
      <vel value="0.0299039147" flag="0"/>
      <psa03 value="0.1283474586" flag="0"/>
      <psa10 value="0.0145307132" flag="0"/>
      <psa30 value="0.0008485992" flag="0"/>
    </comp>
  </station>
  <station code="NEHR" name="NEHR" netid="RO" insttype="Seismometer/Basalt" lat="45.4272" lon="26.2952">
    <comp name="--.HHE">
      <acc value="0.0335052973" flag="0"/>
      <vel value="0.0190260188" flag="0"/>
      <psa03 value="0.1740641152" flag="0"/>
      <psa10 value="0.0121429417" flag="0"/>
      <psa30 value="0.0006194272" flag="0"/>
    </comp>
    <comp name="--.HHZ">
      <acc value="0.0176326325" flag="0"/>
      <vel value="0.0063586178" flag="0"/>
      <psa03 value="0.0509614125" flag="0"/>
      <psa10 value="0.0081194447" flag="0"/>
      <psa30 value="0.0003419691" flag="0"/>
    </comp>
    <comp name="--.HHN">
      <acc value="0.0354540605" flag="0"/>
      <vel value="0.0126076872" flag="0"/>
      <psa03 value="0.0865368406" flag="0"/>
      <psa10 value="0.0103324205" flag="0"/>
      <psa30 value="0.0006595590" flag="0"/>
    </comp>
  </station>
  <station code="OTISU" name="OTISU" netid="RO" insttype="200" lat="44.4278" lon="24.3755">
    <comp name="--.HNE">
      <acc value="0.2417878540" flag="0"/>
      <vel value="0.0529126603" flag="0"/>
      <psa03 value="0.3038562100" flag="0"/>
      <psa10 value="0.0130968676" flag="0"/>
      <psa30 value="0.0014014588" flag="0"/>
    </comp>
    <comp name="--.HNN">
      <acc value="0.1770939416" flag="0"/>
      <vel value="0.0517854390" flag="0"/>
      <psa03 value="0.2213837680" flag="0"/>
      <psa10 value="0.0108037456" flag="0"/>
      <psa30 value="0.0008833239" flag="0"/>
    </comp>
    <comp name="--.HNZ">
      <acc value="0.2271033463" flag="0"/>
      <vel value="0.0399162892" flag="0"/>
      <psa03 value="0.0944958315" flag="0"/>
      <psa10 value="0.0068276372" flag="0"/>
      <psa30 value="0.0005466768" flag="0"/>
    </comp>
  </station>
  <station code="PGOR" name="PGOR" netid="RO" insttype="CMG40T.1to100/Quanterra" lat="44.9199" lon="26.9768">
    <comp name="--.HHZ">
      <acc value="0.0235762805" flag="0"/>
      <vel value="0.0057297851" flag="0"/>
      <psa03 value="0.0251171665" flag="0"/>
      <psa10 value="0.0016824043" flag="0"/>
      <psa30 value="0.0001306703" flag="0"/>
    </comp>
    <comp name="--.HHN">
      <acc value="0.0249902149" flag="0"/>
      <vel value="0.0093397201" flag="0"/>
      <psa03 value="0.0458786325" flag="0"/>
      <psa10 value="0.0039428906" flag="0"/>
      <psa30 value="0.0004267383" flag="0"/>
    </comp>
    <comp name="--.HHE">
      <acc value="0.0235733531" flag="0"/>
      <vel value="0.0084326428" flag="0"/>
      <psa03 value="0.0357922339" flag="0"/>
      <psa10 value="0.0034056020" flag="0"/>
      <psa30 value="0.0002662623" flag="0"/>
    </comp>
  </station>
  <station code="PLAR" name="PLAR" netid="RO" insttype="200" lat="44.9142" lon="26.0274">
    <comp name="--.HNE">
      <acc value="0.0317483637" flag="0"/>
      <vel value="0.0171363993" flag="0"/>
      <psa03 value="0.0804951160" flag="0"/>
      <psa10 value="0.0086116207" flag="0"/>
      <psa30 value="0.0008549516" flag="0"/>
    </comp>
    <comp name="--.HNN">
      <acc value="0.0347568284" flag="0"/>
      <vel value="0.0197763187" flag="0"/>
      <psa03 value="0.0918283299" flag="0"/>
      <psa10 value="0.0130834717" flag="0"/>
      <psa30 value="0.0009539260" flag="0"/>
    </comp>
    <comp name="--.HNZ">
      <acc value="0.0370224636" flag="0"/>
      <vel value="0.0099765544" flag="0"/>
      <psa03 value="0.0308897587" flag="0"/>
      <psa10 value="0.0058679315" flag="0"/>
      <psa30 value="0.0006675302" flag="0"/>
    </comp>
  </station>
  <station code="RMVG" name="RMVG" netid="RO" insttype="2.5V" lat="45.0363" lon="24.2848">
    <comp name="--.HNE">
      <acc value="0.0490183717" flag="0"/>
      <vel value="0.0147168250" flag="0"/>
      <psa03 value="0.1267973619" flag="0"/>
      <psa10 value="0.0117204117" flag="0"/>
      <psa30 value="0.0009085259" flag="0"/>
    </comp>
    <comp name="--.HNN">
      <acc value="0.0422250617" flag="0"/>
      <vel value="0.0151866262" flag="0"/>
      <psa03 value="0.1000795301" flag="0"/>
      <psa10 value="0.0154267707" flag="0"/>
      <psa30 value="0.0017903104" flag="0"/>
    </comp>
    <comp name="--.HNZ">
      <acc value="0.0755824555" flag="0"/>
      <vel value="0.0139945378" flag="0"/>
      <psa03 value="0.0350122540" flag="0"/>
      <psa10 value="0.0057597360" flag="0"/>
      <psa30 value="0.0005384712" flag="0"/>
    </comp>
  </station>
  <station code="SAHR" name="SAHR" netid="RO" insttype="Seismometer/Basalt" lat="45.7266" lon="26.6855">
    <comp name="--.HHE">
      <acc value="0.0000322943" flag="0"/>
      <vel value="0.0000149361" flag="0"/>
      <psa03 value="0.0000721953" flag="0"/>
      <psa10 value="0.0000082413" flag="0"/>
      <psa30 value="0.0000080008" flag="0"/>
    </comp>
    <comp name="--.HHN">
      <acc value="0.0196438954" flag="0"/>
      <vel value="0.0127014931" flag="0"/>
      <psa03 value="0.0624706979" flag="0"/>
      <psa10 value="0.0062961299" flag="0"/>
      <psa30 value="0.0006556408" flag="0"/>
    </comp>
    <comp name="--.HHZ">
      <acc value="0.0110611118" flag="0"/>
      <vel value="0.0049515993" flag="0"/>
      <psa03 value="0.0280119201" flag="0"/>
      <psa10 value="0.0033801031" flag="0"/>
      <psa30 value="0.0002739774" flag="0"/>
    </comp>
  </station>
  <station code="STFAR" name="STFAR" netid="RO" insttype="MBB2/Quanterra" lat="44.8629" lon="24.9609">
    <comp name="--.HHE">
      <acc value="0.1612008519" flag="0"/>
      <vel value="0.0585131010" flag="0"/>
      <psa03 value="0.2337658501" flag="0"/>
      <psa10 value="0.0343446125" flag="0"/>
      <psa30 value="0.0014577336" flag="0"/>
    </comp>
    <comp name="--.HHN">
      <acc value="0.3192553847" flag="0"/>
      <vel value="0.0825875198" flag="0"/>
      <psa03 value="0.1956092199" flag="0"/>
      <psa10 value="0.0208681344" flag="0"/>
      <psa30 value="0.0013796254" flag="0"/>
    </comp>
    <comp name="--.HHZ">
      <acc value="0.1516567445" flag="0"/>
      <vel value="0.0346727763" flag="0"/>
      <psa03 value="0.0871350608" flag="0"/>
      <psa10 value="0.0095015773" flag="0"/>
      <psa30 value="0.0005687131" flag="0"/>
    </comp>
  </station>
  <station code="SULR" name="SULR" netid="RO" insttype="330" lat="44.6777" lon="26.2526">
    <comp name="--.HHE">
      <acc value="0.0771978623" flag="0"/>
      <vel value="0.0239315154" flag="0"/>
      <psa03 value="0.1318932970" flag="0"/>
      <psa10 value="0.0102789535" flag="0"/>
      <psa30 value="0.0010172800" flag="0"/>
    </comp>
    <comp name="--.HHZ">
      <acc value="0.0734843988" flag="0"/>
      <vel value="0.0161306882" flag="0"/>
      <psa03 value="0.0909966299" flag="0"/>
      <psa10 value="0.0046531581" flag="0"/>
      <psa30 value="0.0003822944" flag="0"/>
    </comp>
    <comp name="--.HHN">
      <acc value="0.0987009566" flag="0"/>
      <vel value="0.0277342117" flag="0"/>
      <psa03 value="0.1155638959" flag="0"/>
      <psa10 value="0.0150022571" flag="0"/>
      <psa30 value="0.0015332668" flag="0"/>
    </comp>
  </station>
  <station code="TNR" name="TNR" netid="RO" insttype="CMG40T.1to100/Quanterra" lat="45.652" lon="24.273">
    <comp name="--.HHN">
      <acc value="0.0116105306" flag="0"/>
      <vel value="0.0044241437" flag="0"/>
      <psa03 value="0.0141115540" flag="0"/>
      <psa10 value="0.0054547831" flag="0"/>
      <psa30 value="0.0002221029" flag="0"/>
    </comp>
    <comp name="--.HHE">
      <acc value="0.0111357433" flag="0"/>
      <vel value="0.0030017680" flag="0"/>
      <psa03 value="0.0155943728" flag="0"/>
      <psa10 value="0.0049128091" flag="0"/>
      <psa30 value="0.0002152716" flag="0"/>
    </comp>
    <comp name="--.HHZ">
      <acc value="0.0137992943" flag="0"/>
      <vel value="0.0035588128" flag="0"/>
      <psa03 value="0.0146633129" flag="0"/>
      <psa10 value="0.0026860296" flag="0"/>
      <psa30 value="0.0001311817" flag="0"/>
    </comp>
  </station>
  <station code="TRISU" name="TRISU" netid="RO" insttype="200" lat="43.9719" lon="25.3296">
    <comp name="--.HNE">
      <acc value="0.0497937533" flag="0"/>
      <vel value="0.0164641334" flag="0"/>
      <psa03 value="0.0875232267" flag="0"/>
      <psa10 value="0.0041638043" flag="0"/>
      <psa30 value="0.0003410530" flag="0"/>
    </comp>
    <comp name="--.HNN">
      <acc value="0.0296157158" flag="0"/>
      <vel value="0.0122588577" flag="0"/>
      <psa03 value="0.0952275100" flag="0"/>
      <psa10 value="0.0054402322" flag="0"/>
      <psa30 value="0.0003495736" flag="0"/>
    </comp>
    <comp name="--.HNZ">
      <acc value="0.0457307560" flag="0"/>
      <vel value="0.0068802897" flag="0"/>
      <psa03 value="0.0238408920" flag="0"/>
      <psa10 value="0.0030988282" flag="0"/>
      <psa30 value="0.0001546337" flag="0"/>
    </comp>
  </station>
  <station code="VOIR" name="VOIR" netid="RO" insttype="330" lat="45.4371" lon="25.0495">
    <comp name="--.HHZ">
      <acc value="0.0264268156" flag="0"/>
      <vel value="0.0047912452" flag="0"/>
      <psa03 value="0.0188324667" flag="0"/>
      <psa10 value="0.0038931277" flag="0"/>
      <psa30 value="0.0003291233" flag="0"/>
    </comp>
    <comp name="--.HHE">
      <acc value="0.0168399292" flag="0"/>
      <vel value="0.0076813905" flag="0"/>
      <psa03 value="0.0315965268" flag="0"/>
      <psa10 value="0.0078515805" flag="0"/>
      <psa30 value="0.0004122331" flag="0"/>
    </comp>
    <comp name="--.HHN">
