<?xml version="1.0" encoding="UTF-8" standalone="yes"?>
<!DOCTYPE earthquake SYSTEM "stationlist.dtd">
<stationlist created="" xmlns="ch.ethz.sed.shakemap.usgs.xml">
  <station code="ARR" name="ARR" netid="RO" insttype="w/attenuator" lat="45.3657" lon="24.6332">
    <comp name="--.HHE">
      <acc value="0.0193010814" flag="0"/>
      <vel value="0.0068478198" flag="0"/>
      <psa03 value="0.0313109584" flag="0"/>
      <psa10 value="0.0029326219" flag="0"/>
      <psa30 value="0.0002602490" flag="0"/>
    </comp>
    <comp name="--.HHN">
      <acc value="0.0207383345" flag="0"/>
      <vel value="0.0078124889" flag="0"/>
      <psa03 value="0.0476418989" flag="0"/>
      <psa10 value="0.0029224641" flag="0"/>
      <psa30 value="0.0001779325" flag="0"/>
    </comp>
    <comp name="--.HHZ">
      <acc value="0.0233173089" flag="0"/>
      <vel value="0.0083697673" flag="0"/>
      <psa03 value="0.0300269596" flag="0"/>
      <psa10 value="0.0017067708" flag="0"/>
      <psa30 value="0.0001665310" flag="0"/>
    </comp>
  </station>
  <station code="BAPR" name="BAPR" netid="RO" insttype="2.5V" lat="44.4059" lon="26.119">
    <comp name="--.HNZ">
      <acc value="0.0651779028" flag="0"/>
      <vel value="0.0243330874" flag="0"/>
      <psa03 value="0.1488873251" flag="0"/>
      <psa10 value="0.0093575836" flag="0"/>
      <psa30 value="0.0007573708" flag="0"/>
    </comp>
  </station>
  <station code="BOSR" name="BOSR" netid="RO" insttype="Seismometer/Basalt" lat="46.0749" lon="25.6611">
    <comp name="--.HHN">
      <acc value="0.0349847648" flag="0"/>
      <vel value="0.0163783857" flag="0"/>
      <psa03 value="0.0909042479" flag="0"/>
      <psa10 value="0.0072717079" flag="0"/>
      <psa30 value="0.0005700987" flag="0"/>
    </comp>
    <comp name="--.HHE">
      <acc value="0.0202165397" flag="0"/>
      <vel value="0.0082569181" flag="0"/>
      <psa03 value="0.0814302171" flag="0"/>
      <psa10 value="0.0047781384" flag="0"/>
      <psa30 value="0.0003739628" flag="0"/>
    </comp>
    <comp name="--.HHZ">
      <acc value="0.0153550030" flag="0"/>
      <vel value="0.0058568304" flag="0"/>
      <psa03 value="0.0344214597" flag="0"/>
      <psa10 value="0.0033287385" flag="0"/>
      <psa30 value="0.0002263832" flag="0"/>
    </comp>
  </station>
  <station code="BTMR" name="BTMR" netid="RO" insttype="2.5V" lat="44.437" lon="26.1067">
    <comp name="--.HNN">
      <acc value="0.2797322712" flag="0"/>
      <vel value="0.0782076291" flag="0"/>
      <psa03 value="0.4535464718" flag="0"/>
      <psa10 value="0.0177430353" flag="0"/>
      <psa30 value="0.0016733941" flag="0"/>
    </comp>
    <comp name="--.HNE">
      <acc value="0.2472188261" flag="0"/>
      <vel value="0.0796558219" flag="0"/>
      <psa03 value="0.3505771133" flag="0"/>
      <psa10 value="0.0213785679" flag="0"/>
      <psa30 value="0.0027733355" flag="0"/>
    </comp>
    <comp name="--.HNZ">
      <acc value="0.1028284270" flag="0"/>
      <vel value="0.0243162030" flag="0"/>
      <psa03 value="0.1319364498" flag="0"/>
      <psa10 value="0.0063341913" flag="0"/>
      <psa30 value="0.0006303482" flag="0"/>
    </comp>
  </station>
  <station code="BUC" name="BUC" netid="RO" insttype="200" lat="44.4107" lon="26.0938">
    <comp name="--.HNE">
      <acc value="0.3096865676" flag="0"/>
      <vel value="0.1172746798" flag="0"/>
      <psa03 value="0.4678624337" flag="0"/>
      <psa10 value="0.0532822290" flag="0"/>
      <psa30 value="0.0035617680" flag="0"/>
    </comp>
    <comp name="--.HNN">
      <acc value="0.2128063369" flag="0"/>
      <vel value="0.0940134512" flag="0"/>
      <psa03 value="0.4466137120" flag="0"/>
      <psa10 value="0.0213479916" flag="0"/>
      <psa30 value="0.0023702271" flag="0"/>
    </comp>
    <comp name="--.HNZ">
      <acc value="0.1030941183" flag="0"/>
      <vel value="0.0250898913" flag="0"/>
      <psa03 value="0.0860826395" flag="0"/>
      <psa10 value="0.0076145266" flag="0"/>
      <psa30 value="0.0005877516" flag="0"/>
    </comp>
  </station>
  <station code="COPA" name="COPA" netid="RO" insttype="Seismometer/Basalt" lat="44.1343" lon="25.2172">
    <comp name="--.HHE">
      <acc value="0.1746116785" flag="0"/>
      <vel value="0.0487596274" flag="0"/>
      <psa03 value="0.2112616081" flag="0"/>
      <psa10 value="0.0093564534" flag="0"/>
      <psa30 value="0.0010587462" flag="0"/>
    </comp>
    <comp name="--.HHN">
      <acc value="0.1031489257" flag="0"/>
      <vel value="0.0256412567" flag="0"/>
      <psa03 value="0.1215771162" flag="0"/>
      <psa10 value="0.0087657688" flag="0"/>
      <psa30 value="0.0007252408" flag="0"/>
    </comp>
    <comp name="--.HHZ">
      <acc value="0.0430291210" flag="0"/>
      <vel value="0.0076433462" flag="0"/>
      <psa03 value="0.0392442722" flag="0"/>
      <psa10 value="0.0062859498" flag="0"/>
      <psa30 value="0.0002852434" flag="0"/>
    </comp>
  </station>
  <station code="DOPR" name="DOPR" netid="RO" insttype="330" lat="45.9675" lon="25.3886">
    <comp name="--.HHE">
      <acc value="0.0242130921" flag="0"/>
      <vel value="0.0090458990" flag="0"/>
      <psa03 value="0.0392721341" flag="0"/>
      <psa10 value="0.0052985190" flag="0"/>
      <psa30 value="0.0003545439" flag="0"/>
    </comp>
    <comp name="--.HHZ">
      <acc value="0.0131196298" flag="0"/>
      <vel value="0.0032131847" flag="0"/>
      <psa03 value="0.0178586779" flag="0"/>
      <psa10 value="0.0032617788" flag="0"/>
      <psa30 value="0.0001728191" flag="0"/>
    </comp>
    <comp name="--.HHN">
      <acc value="0.0220307914" flag="0"/>
      <vel value="0.0076524269" flag="0"/>
      <psa03 value="0.0639763040" flag="0"/>
      <psa10 value="0.0032177063" flag="0"/>
      <psa30 value="0.0002346627" flag="0"/>
    </comp>
  </station>
  <station code="GRER" name="GRER" netid="RO" insttype="MBB2/Quanterra" lat="45.3801" lon="26.9747">
    <comp name="--.HHE">
      <acc value="0.0119230023" flag="0"/>
      <vel value="0.0062708621" flag="0"/>
      <psa03 value="0.0256623180" flag="0"/>
      <psa10 value="0.0049822993" flag="0"/>
      <psa30 value="0.0005434968" flag="0"/>
    </comp>
    <comp name="--.HHN">
      <acc value="0.0112727249" flag="0"/>
      <vel value="0.0063269766" flag="0"/>
      <psa03 value="0.0343166589" flag="0"/>
      <psa10 value="0.0039002097" flag="0"/>
      <psa30 value="0.0005062953" flag="0"/>
    </comp>
    <comp name="--.HHZ">
      <acc value="0.0170160262" flag="0"/>
      <vel value="0.0053476054" flag="0"/>
      <psa03 value="0.0198569230" flag="0"/>
      <psa10 value="0.0021537548" flag="0"/>
      <psa30 value="0.0002585130" flag="0"/>
    </comp>
  </station>
  <station code="HUMR" name="HUMR" netid="RO" insttype="Seismometer/Quanterra" lat="44.5281" lon="24.9804">
    <comp name="--.HHN">
      <acc value="0.3046586326" flag="0"/>
      <vel value="0.0930350314" flag="0"/>
      <psa03 value="0.3899205157" flag="0"/>
      <psa10 value="0.0241708909" flag="0"/>
      <psa30 value="0.0021930948" flag="0"/>
    </comp>
    <comp name="--.HHZ">
      <acc value="0.1958425161" flag="0"/>
      <vel value="0.0406362071" flag="0"/>
      <psa03 value="0.1094134197" flag="0"/>
      <psa10 value="0.0065835260" flag="0"/>
      <psa30 value="0.0006343988" flag="0"/>
    </comp>
    <comp name="--.HHE">
      <acc value="0.6829106747" flag="0"/>
      <vel value="0.1019606869" flag="0"/>
      <psa03 value="0.3484324292" flag="0"/>
      <psa10 value="0.0442613314" flag="0"/>
      <psa30 value="0.0068270969" flag="0"/>
    </comp>
  </station>
  <station code="INCR" name="INCR" netid="RO" insttype="200" lat="44.441" lon="26.1611">
    <comp name="--.HNE">
      <acc value="0.0557396987" flag="0"/>
      <vel value="0.0234167629" flag="0"/>
      <psa03 value="0.1279477855" flag="0"/>
      <psa10 value="0.0210810400" flag="0"/>
      <psa30 value="0.0015255043" flag="0"/>
    </comp>
    <comp name="--.HNN">
      <acc value="0.0701062613" flag="0"/>
      <vel value="0.0265258649" flag="0"/>
      <psa03 value="0.1034202928" flag="0"/>
      <psa10 value="0.0167478547" flag="0"/>
      <psa30 value="0.0013638260" flag="0"/>
    </comp>
    <comp name="--.HNZ">
      <acc value="0.0648531396" flag="0"/>
      <vel value="0.0137968327" flag="0"/>
      <psa03 value="0.0584874950" flag="0"/>
      <psa10 value="0.0050174828" flag="0"/>
      <psa30 value="0.0003753049" flag="0"/>
    </comp>
  </station>
  <station code="ISR" name="ISR" netid="RO" insttype="CMG3ESP/Quanterra" lat="45.1187" lon="26.5432">
    <comp name="--.HHN">
      <acc value="0.0383813093" flag="0"/>
      <vel value="0.0138295035" flag="0"/>
      <psa03 value="0.1010132702" flag="0"/>
      <psa10 value="0.0122168499" flag="0"/>
      <psa30 value="0.0006081572" flag="0"/>
    </comp>
    <comp name="--.HHE">
      <acc value="0.0410727639" flag="0"/>
      <vel value="0.0150006503" flag="0"/>
      <psa03 value="0.0994936019" flag="0"/>
      <psa10 value="0.0089837385" flag="0"/>
      <psa30 value="0.0005380838" flag="0"/>
    </comp>
    <comp name="--.HHZ">
      <acc value="0.0199772558" flag="0"/>
      <vel value="0.0077452404" flag="0"/>
      <psa03 value="0.0474416094" flag="0"/>
      <psa10 value="0.0049888499" flag="0"/>
      <psa30 value="0.0003579594" flag="0"/>
    </comp>
  </station>
  <station code="MLR" name="MLR" netid="RO" insttype="330HR" lat="45.4909" lon="25.945">
    <comp name="--.HHZ">
      <acc value="0.0061494443" flag="0"/>
      <vel value="0.0048538846" flag="0"/>
      <psa03 value="0.0229025772" flag="0"/>
      <psa10 value="0.0035413361" flag="0"/>
      <psa30 value="0.0003054609" flag="0"/>
    </comp>
    <comp name="--.HHE">
      <acc value="0.0092810016" flag="0"/>
      <vel value="0.0061164528" flag="0"/>
      <psa03 value="0.0184028300" flag="0"/>
      <psa10 value="0.0092320952" flag="0"/>
      <psa30 value="0.0007471022" flag="0"/>
    </comp>
    <comp name="--.HHN">
      <acc value="0.0073305085" flag="0"/>
      <vel value="0.0050025295" flag="0"/>
      <psa03 value="0.0228176923" flag="0"/>
      <psa10 value="0.0046989951" flag="0"/>
      <psa30 value="0.0003484947" flag="0"/>
    </comp>
  </station>
  <station code="MTUR" name="MTUR" netid="RO" insttype="200" lat="45.2349" lon="25.0739">
    <comp name="--.HNZ">
      <acc value="0.1461872212" flag="0"/>
      <vel value="0.0299039145" flag="0"/>
      <psa03 value="0.1283474586" flag="0"/>
      <psa10 value="0.0145307098" flag="0"/>
      <psa30 value="0.0008492600" flag="0"/>
    </comp>
    <comp name="--.HNN">
      <acc value="0.1532255594" flag="0"/>
      <vel value="0.0411298306" flag="0"/>
      <psa03 value="0.2711804277" flag="0"/>
      <psa10 value="0.0215788547" flag="0"/>
      <psa30 value="0.0010260419" flag="0"/>
    </comp>
    <comp name="--.HNE">
      <acc value="0.1622482577" flag="0"/>
      <vel value="0.0446016132" flag="0"/>
      <psa03 value="0.3016536422" flag="0"/>
      <psa10 value="0.0239926065" flag="0"/>
      <psa30 value="0.0021168009" flag="0"/>
    </comp>
  </station>
  <station code="NEHR" name="NEHR" netid="RO" insttype="Seismometer/Basalt" lat="45.4272" lon="26.2952">
    <comp name="--.HHE">
      <acc value="0.0335052973" flag="0"/>
      <vel value="0.0190260194" flag="0"/>
      <psa03 value="0.1740641152" flag="0"/>
      <psa10 value="0.0121429417" flag="0"/>
      <psa30 value="0.0006194575" flag="0"/>
    </comp>
    <comp name="--.HHN">
      <acc value="0.0354540608" flag="0"/>
      <vel value="0.0126076866" flag="0"/>
      <psa03 value="0.0865368406" flag="0"/>
      <psa10 value="0.0103324205" flag="0"/>
      <psa30 value="0.0006595553" flag="0"/>
    </comp>
    <comp name="--.HHZ">
      <acc value="0.0176326332" flag="0"/>
      <vel value="0.0063586177" flag="0"/>
      <psa03 value="0.0509614125" flag="0"/>
      <psa10 value="0.0081194447" flag="0"/>
      <psa30 value="0.0003419626" flag="0"/>
    </comp>
  </station>
  <station code="OTISU" name="OTISU" netid="RO" insttype="200" lat="44.4278" lon="24.3755">
    <comp name="--.HNN">
      <acc value="0.1770939413" flag="0"/>
      <vel value="0.0517854391" flag="0"/>
      <psa03 value="0.2213837680" flag="0"/>
      <psa10 value="0.0108037456" flag="0"/>
      <psa30 value="0.0008832679" flag="0"/>
    </comp>
    <comp name="--.HNE">
      <acc value="0.2417878539" flag="0"/>
      <vel value="0.0529126588" flag="0"/>
      <psa03 value="0.3038562100" flag="0"/>
      <psa10 value="0.0130968677" flag="0"/>
      <psa30 value="0.0014014144" flag="0"/>
    </comp>
    <comp name="--.HNZ">
      <acc value="0.2271033472" flag="0"/>
      <vel value="0.0399162883" flag="0"/>
      <psa03 value="0.0944958315" flag="0"/>
      <psa10 value="0.0068276372" flag="0"/>
      <psa30 value="0.0005466344" flag="0"/>
    </comp>
  </station>
  <station code="PGOR" name="PGOR" netid="RO" insttype="CMG40T.1to100/Quanterra" lat="44.9199" lon="26.9768">
    <comp name="--.HHN">
      <acc value="0.0249902150" flag="0"/>
      <vel value="0.0093397144" flag="0"/>
      <psa03 value="0.0458786325" flag="0"/>
      <psa10 value="0.0039428906" flag="0"/>
      <psa30 value="0.0004267701" flag="0"/>
    </comp>
    <comp name="--.HHE">
      <acc value="0.0235733530" flag="0"/>
      <vel value="0.0084326476" flag="0"/>
      <psa03 value="0.0357922339" flag="0"/>
      <psa10 value="0.0034056020" flag="0"/>
      <psa30 value="0.0002662631" flag="0"/>
    </comp>
    <comp name="--.HHZ">
      <acc value="0.0235762804" flag="0"/>
      <vel value="0.0057297951" flag="0"/>
      <psa03 value="0.0251171664" flag="0"/>
      <psa10 value="0.0016824040" flag="0"/>
      <psa30 value="0.0001306763" flag="0"/>
    </comp>
  </station>
  <station code="PLAR" name="PLAR" netid="RO" insttype="200" lat="44.9142" lon="26.0274">
    <comp name="--.HNN">
      <acc value="0.0347568287" flag="0"/>
      <vel value="0.0197763188" flag="0"/>
      <psa03 value="0.0918283299" flag="0"/>
      <psa10 value="0.0130834715" flag="0"/>
      <psa30 value="0.0009535416" flag="0"/>
    </comp>
    <comp name="--.HNZ">
      <acc value="0.0370224641" flag="0"/>
      <vel value="0.0099765539" flag="0"/>
      <psa03 value="0.0308897587" flag="0"/>
      <psa10 value="0.0058679317" flag="0"/>
      <psa30 value="0.0006675198" flag="0"/>
    </comp>
    <comp name="--.HNE">
      <acc value="0.0317483644" flag="0"/>
      <vel value="0.0171363994" flag="0"/>
      <psa03 value="0.0804951160" flag="0"/>
      <psa10 value="0.0086116208" flag="0"/>
      <psa30 value="0.0008547482" flag="0"/>
    </comp>
  </station>
  <station code="RMVG" name="RMVG" netid="RO" insttype="2.5V" lat="45.0363" lon="24.2848">
    <comp name="--.HNZ">
      <acc value="0.0755824553" flag="0"/>
      <vel value="0.0139945378" flag="0"/>
      <psa03 value="0.0350122540" flag="0"/>
      <psa10 value="0.0057597360" flag="0"/>
      <psa30 value="0.0005378942" flag="0"/>
    </comp>
    <comp name="--.HNE">
      <acc value="0.0490183725" flag="0"/>
      <vel value="0.0147168222" flag="0"/>
      <psa03 value="0.1267973619" flag="0"/>
      <psa10 value="0.0117204121" flag="0"/>
      <psa30 value="0.0009069117" flag="0"/>
    </comp>
    <comp name="--.HNN">
      <acc value="0.0422250614" flag="0"/>
      <vel value="0.0151866297" flag="0"/>
      <psa03 value="0.1000795300" flag="0"/>
      <psa10 value="0.0154267710" flag="0"/>
      <psa30 value="0.0017908540" flag="0"/>
    </comp>
  </station>
  <station code="SAHR" name="SAHR" netid="RO" insttype="Seismometer/Basalt" lat="45.7266" lon="26.6855">
    <comp name="--.HHN">
      <acc value="0.0196438954" flag="0"/>
      <vel value="0.0127014932" flag="0"/>
      <psa03 value="0.0624706979" flag="0"/>
      <psa10 value="0.0062961299" flag="0"/>
      <psa30 value="0.0006556397" flag="0"/>
    </comp>
    <comp name="--.HHE">
      <acc value="0.0000322943" flag="0"/>
      <vel value="0.0000149362" flag="0"/>
      <psa03 value="0.0000721953" flag="0"/>
      <psa10 value="0.0000082413" flag="0"/>
      <psa30 value="0.0000080017" flag="0"/>
    </comp>
    <comp name="--.HHZ">
      <acc value="0.0110611119" flag="0"/>
      <vel value="0.0049516000" flag="0"/>
      <psa03 value="0.0280119201" flag="0"/>
      <psa10 value="0.0033801031" flag="0"/>
      <psa30 value="0.0002739783" flag="0"/>
    </comp>
  </station>
  <station code="STFAR" name="STFAR" netid="RO" insttype="MBB2/Quanterra" lat="44.8629" lon="24.9609">
    <comp name="--.HHE">
      <acc value="0.1612008517" flag="0"/>
      <vel value="0.0585131019" flag="0"/>
      <psa03 value="0.2337658501" flag="0"/>
      <psa10 value="0.0343446121" flag="0"/>
      <psa30 value="0.0014577664" flag="0"/>
    </comp>
    <comp name="--.HHZ">
      <acc value="0.1516567446" flag="0"/>
      <vel value="0.0346727761" flag="0"/>
      <psa03 value="0.0871350608" flag="0"/>
      <psa10 value="0.0095015773" flag="0"/>
      <psa30 value="0.0005687039" flag="0"/>
    </comp>
    <comp name="--.HHN">
      <acc value="0.3192553847" flag="0"/>
      <vel value="0.0825875210" flag="0"/>
      <psa03 value="0.1956092199" flag="0"/>
      <psa10 value="0.0208681358" flag="0"/>
      <psa30 value="0.0013794099" flag="0"/>
    </comp>
  </station>
  <station code="SULR" name="SULR" netid="RO" insttype="330" lat="44.6777" lon="26.2526">
    <comp name="--.HHZ">
      <acc value="0.0734843987" flag="0"/>
      <vel value="0.0161306889" flag="0"/>
      <psa03 value="0.0909966299" flag="0"/>
      <psa10 value="0.0046531580" flag="0"/>
      <psa30 value="0.0003824036" flag="0"/>
    </comp>
    <comp name="--.HHE">
      <acc value="0.0771978623" flag="0"/>
      <vel value="0.0239315148" flag="0"/>
      <psa03 value="0.1318932970" flag="0"/>
      <psa10 value="0.0102789535" flag="0"/>
      <psa30 value="0.0010173155" flag="0"/>
    </comp>
    <comp name="--.HHN">
      <acc value="0.0987009565" flag="0"/>
      <vel value="0.0277342118" flag="0"/>
      <psa03 value="0.1155638959" flag="0"/>
      <psa10 value="0.0150022568" flag="0"/>
      <psa30 value="0.0015332639" flag="0"/>
    </comp>
  </station>
  <station code="TNR" name="TNR" netid="RO" insttype="CMG40T.1to100/Quanterra" lat="45.652" lon="24.273">
    <comp name="--.HHE">
      <acc value="0.0111357432" flag="0"/>
      <vel value="0.0030017670" flag="0"/>
      <psa03 value="0.0155943728" flag="0"/>
      <psa10 value="0.0049128091" flag="0"/>
      <psa30 value="0.0002152733" flag="0"/>
    </comp>
    <comp name="--.HHN">
      <acc value="0.0116105307" flag="0"/>
      <vel value="0.0044241439" flag="0"/>
      <psa03 value="0.0141115540" flag="0"/>
      <psa10 value="0.0054547831" flag="0"/>
      <psa30 value="0.0002221028" flag="0"/>
    </comp>
    <comp name="--.HHZ">
      <acc value="0.0137992943" flag="0"/>
      <vel value="0.0035588093" flag="0"/>
      <psa03 value="0.0146633129" flag="0"/>
      <psa10 value="0.0026860297" flag="0"/>
      <psa30 value="0.0001311821" flag="0"/>
    </comp>
  </station>
  <station code="TRISU" name="TRISU" netid="RO" insttype="200" lat="43.9719" lon="25.3296">
    <comp name="--.HNE">
      <acc value="0.0497937540" flag="0"/>
      <vel value="0.0164641333" flag="0"/>
      <psa03 value="0.0875232267" flag="0"/>
      <psa10 value="0.0041638043" flag="0"/>
      <psa30 value="0.0003410938" flag="0"/>
    </comp>
    <comp name="--.HNZ">
      <acc value="0.0457307557" flag="0"/>
      <vel value="0.0068802894" flag="0"/>
      <psa03 value="0.0238408920" flag="0"/>
      <psa10 value="0.0030988282" flag="0"/>
      <psa30 value="0.0001546611" flag="0"/>
    </comp>
    <comp name="--.HNN">
      <acc value="0.0296157160" flag="0"/>
      <vel value="0.0122588579" flag="0"/>
      <psa03 value="0.0952275100" flag="0"/>
      <psa10 value="0.0054402322" flag="0"/>
      <psa30 value="0.0003495444" flag="0"/>
    </comp>
  </station>
