<?xml version="1.0" encoding="UTF-8" standalone="yes"?>
<!DOCTYPE earthquake SYSTEM "stationlist.dtd">
<stationlist created="" xmlns="ch.ethz.sed.shakemap.usgs.xml">
  <station code="BCA" name="BCA" netid="KO" insttype="CMG-3ESP" lat="41.445" lon="41.6223">
    <comp name="--.HHZ">
      <acc value="0.0269595068" flag="0"/>
      <vel value="0.0027846840" flag="0"/>
      <psa03 value="0.0070815607" flag="0"/>
      <psa10 value="0.0008948383" flag="0"/>
      <psa30 value="0.0000742296" flag="0"/>
    </comp>
    <comp name="--.HHE">
      <acc value="0.1016592685" flag="0"/>
      <vel value="0.0141799376" flag="0"/>
      <psa03 value="0.0288389065" flag="0"/>
      <psa10 value="0.0038770271" flag="0"/>
      <psa30 value="0.0001929032" flag="0"/>
    </comp>
    <comp name="--.HHN">
      <acc value="0.0939560689" flag="0"/>
      <vel value="0.0147952688" flag="0"/>
      <psa03 value="0.0300168234" flag="0"/>
      <psa10 value="0.0021857458" flag="0"/>
      <psa30 value="0.0001606280" flag="0"/>
    </comp>
  </station>
  <station code="HOPA" name="HOPA" netid="KO" insttype="CMG-5T" lat="41.3867" lon="41.4458">
    <comp name="--.HNZ">
      <acc value="0.0152950365" flag="0"/>
      <vel value="0.0033487469" flag="0"/>
      <psa03 value="0.0155435896" flag="0"/>
      <psa10 value="0.0008891256" flag="0"/>
      <psa30 value="0.0003456432" flag="0"/>
    </comp>
    <comp name="--.HNN">
      <acc value="0.0547741201" flag="0"/>
      <vel value="0.0117063840" flag="0"/>
      <psa03 value="0.0379115294" flag="0"/>
      <psa10 value="0.0024384572" flag="0"/>
      <psa30 value="0.0005464964" flag="0"/>
    </comp>
    <comp name="--.HNE">
      <acc value="0.0500202262" flag="0"/>
      <vel value="0.0118078049" flag="0"/>
      <psa03 value="0.0336433649" flag="0"/>
      <psa10 value="0.0025016636" flag="0"/>
      <psa30 value="0.0004281524" flag="0"/>
    </comp>
  </station>
</stationlist>
