<?xml version="1.0" encoding="UTF-8" standalone="yes"?>
<!DOCTYPE earthquake SYSTEM "stationlist.dtd">
<stationlist created="" xmlns="ch.ethz.sed.shakemap.usgs.xml">
  <station code="AKS" name="AKS" netid="KO" insttype="CMG-5T" commtype="DIG" lat="38.8785" lon="27.8129">
    <comp name="--.HNN">
      <acc value="0.1004210300" flag="0"/>
      <vel value="0.0330414148" flag="0"/>
      <psa03 value="0.1471999463" flag="0"/>
      <psa10 value="0.0177172857" flag="0"/>
      <psa30 value="0.0032859559" flag="0"/>
    </comp>
    <comp name="--.HNE">
      <acc value="0.1014118820" flag="0"/>
      <vel value="0.0237476425" flag="0"/>
      <psa03 value="0.1303937063" flag="0"/>
      <psa10 value="0.0168194974" flag="0"/>
      <psa30 value="0.0025000778" flag="0"/>
    </comp>
    <comp name="--.HNZ">
      <acc value="0.0811079994" flag="0"/>
      <vel value="0.0146117567" flag="0"/>
      <psa03 value="0.0468342834" flag="0"/>
      <psa10 value="0.0105587302" flag="0"/>
      <psa30 value="0.0022300530" flag="0"/>
    </comp>
  </station>
  <station code="BALB" name="BALB" netid="KO" insttype="CMG-5T" commtype="DIG" lat="39.6507" lon="27.8642">
    <comp name="--.HNZ">
      <acc value="0.0259418363" flag="0"/>
      <vel value="0.0089367238" flag="0"/>
      <psa03 value="0.0327769935" flag="0"/>
      <psa10 value="0.0075165829" flag="0"/>
      <psa30 value="0.0013429633" flag="0"/>
    </comp>
    <comp name="--.HNE">
      <acc value="0.0282732166" flag="0"/>
      <vel value="0.0147919353" flag="0"/>
      <psa03 value="0.0492260222" flag="0"/>
      <psa10 value="0.0232065512" flag="0"/>
      <psa30 value="0.0020328811" flag="0"/>
    </comp>
    <comp name="--.HNN">
      <acc value="0.0332764475" flag="0"/>
      <vel value="0.0161853279" flag="0"/>
      <psa03 value="0.0552560473" flag="0"/>
      <psa10 value="0.0174343918" flag="0"/>
      <psa30 value="0.0022306760" flag="0"/>
    </comp>
  </station>
  <station code="DST" name="DST" netid="KO" insttype="CMG-5T" commtype="DIG" lat="39.6041" lon="28.6267">
    <comp name="--.HNE">
      <acc value="0.0631524549" flag="0"/>
      <vel value="0.0191874292" flag="0"/>
      <psa03 value="0.0884305333" flag="0"/>
      <psa10 value="0.0133087807" flag="0"/>
      <psa30 value="0.0009251709" flag="0"/>
    </comp>
    <comp name="--.HNN">
      <acc value="0.0443563301" flag="0"/>
      <vel value="0.0147278007" flag="0"/>
      <psa03 value="0.0525144048" flag="0"/>
      <psa10 value="0.0100872520" flag="0"/>
      <psa30 value="0.0017494863" flag="0"/>
    </comp>
    <comp name="--.HNZ">
      <acc value="0.0535239620" flag="0"/>
      <vel value="0.0134314441" flag="0"/>
      <psa03 value="0.0520262483" flag="0"/>
      <psa10 value="0.0079324112" flag="0"/>
      <psa30 value="0.0016877804" flag="0"/>
    </comp>
  </station>
  <station code="GEDZ" name="GEDZ" netid="KO" insttype="CMG-6T" commtype="DIG" lat="39.0445" lon="29.4105">
    <comp name="--.HHE">
      <acc value="0.1213912085" flag="0"/>
      <vel value="0.0469174091" flag="0"/>
      <psa03 value="0.3011676095" flag="0"/>
      <psa10 value="0.0568115286" flag="0"/>
      <psa30 value="0.0020595651" flag="0"/>
    </comp>
    <comp name="--.HHN">
      <acc value="0.1457769689" flag="0"/>
      <vel value="0.0777287795" flag="0"/>
      <psa03 value="0.4024465250" flag="0"/>
      <psa10 value="0.0513158487" flag="0"/>
      <psa30 value="0.0045016492" flag="0"/>
    </comp>
    <comp name="--.HHZ">
      <acc value="0.0876243584" flag="0"/>
      <vel value="0.0303771870" flag="0"/>
      <psa03 value="0.0957507430" flag="0"/>
      <psa10 value="0.0153234398" flag="0"/>
      <psa30 value="0.0010522465" flag="0"/>
    </comp>
  </station>
  <station code="GOMA" name="GOMA" netid="KO" insttype="CMG-5T" commtype="DIG" lat="38.7077" lon="27.9175">
    <comp name="--.HNN">
      <acc value="0.1240620140" flag="0"/>
      <vel value="0.0482245246" flag="0"/>
      <psa03 value="0.1791657217" flag="0"/>
      <psa10 value="0.0152396396" flag="0"/>
      <psa30 value="0.0020395713" flag="0"/>
    </comp>
    <comp name="--.HNZ">
      <acc value="0.1311499011" flag="0"/>
      <vel value="0.0291364079" flag="0"/>
      <psa03 value="0.0526882608" flag="0"/>
      <psa10 value="0.0090915777" flag="0"/>
      <psa30 value="0.0020177647" flag="0"/>
    </comp>
    <comp name="--.HNE">
      <acc value="0.0945106158" flag="0"/>
      <vel value="0.0267713731" flag="0"/>
      <psa03 value="0.1140436970" flag="0"/>
      <psa10 value="0.0132582590" flag="0"/>
      <psa30 value="0.0025213155" flag="0"/>
    </comp>
  </station>
  <station code="GONE" name="GONE" netid="KO" insttype="CMG-5T" commtype="DIG" lat="40.0466" lon="27.686">
    <comp name="--.HNN">
      <acc value="0.0296758463" flag="0"/>
      <vel value="0.0127293144" flag="0"/>
      <psa03 value="0.0624689883" flag="0"/>
      <psa10 value="0.0143609286" flag="0"/>
      <psa30 value="0.0016513214" flag="0"/>
    </comp>
    <comp name="--.HNE">
      <acc value="0.0187285692" flag="0"/>
      <vel value="0.0092285725" flag="0"/>
      <psa03 value="0.0409120379" flag="0"/>
      <psa10 value="0.0126707449" flag="0"/>
      <psa30 value="0.0008934945" flag="0"/>
    </comp>
    <comp name="--.HNZ">
      <acc value="0.0131754547" flag="0"/>
      <vel value="0.0043800374" flag="0"/>
      <psa03 value="0.0264535210" flag="0"/>
      <psa10 value="0.0053028351" flag="0"/>
      <psa30 value="0.0010779126" flag="0"/>
    </comp>
  </station>
  <station code="GORD" name="GORD" netid="KO" insttype="CMG-5T" commtype="DIG" lat="38.9088" lon="28.1769">
    <comp name="--.HNZ">
      <acc value="0.1564957727" flag="0"/>
      <vel value="0.0300366580" flag="0"/>
      <psa03 value="0.1013759839" flag="0"/>
      <psa10 value="0.0564734113" flag="0"/>
      <psa30 value="0.0061685608" flag="0"/>
    </comp>
    <comp name="--.HNN">
      <acc value="0.1147931993" flag="0"/>
      <vel value="0.0775183862" flag="0"/>
      <psa03 value="0.1813007777" flag="0"/>
      <psa10 value="0.0816355443" flag="0"/>
      <psa30 value="0.0075927380" flag="0"/>
    </comp>
    <comp name="--.HNE">
      <acc value="0.1191442271" flag="0"/>
      <vel value="0.0441732147" flag="0"/>
      <psa03 value="0.1206690329" flag="0"/>
      <psa10 value="0.0620818790" flag="0"/>
      <psa30 value="0.0067590458" flag="0"/>
    </comp>
  </station>
  <station code="KULA" name="KULA" netid="KO" insttype="CMG-3T" commtype="DIG" lat="38.5145" lon="28.6607">
    <comp name="--.HHN">
      <acc value="0.1046864725" flag="0"/>
      <vel value="0.0246751761" flag="0"/>
      <psa03 value="0.1571842702" flag="0"/>
      <psa10 value="0.0094005606" flag="0"/>
      <psa30 value="0.0021707583" flag="0"/>
    </comp>
    <comp name="--.HHE">
      <acc value="0.1065045471" flag="0"/>
      <vel value="0.0240454588" flag="0"/>
      <psa03 value="0.1380630888" flag="0"/>
      <psa10 value="0.0194644499" flag="0"/>
      <psa30 value="0.0014087189" flag="0"/>
    </comp>
    <comp name="--.HHZ">
      <acc value="0.0803225672" flag="0"/>
      <vel value="0.0193662344" flag="0"/>
      <psa03 value="0.0982476997" flag="0"/>
      <psa10 value="0.0092397073" flag="0"/>
      <psa30 value="0.0022456998" flag="0"/>
    </comp>
  </station>
  <station code="ODEM" name="ODEM" netid="KO" insttype="CMG-5T" commtype="DIG" lat="38.2762" lon="28.0747">
    <comp name="--.HNE">
      <acc value="0.0306285449" flag="0"/>
      <vel value="0.0092742575" flag="0"/>
      <psa03 value="0.0261406718" flag="0"/>
      <psa10 value="0.0184237160" flag="0"/>
      <psa30 value="0.0014048370" flag="0"/>
    </comp>
    <comp name="--.HNZ">
      <acc value="0.0350128940" flag="0"/>
      <vel value="0.0092203627" flag="0"/>
      <psa03 value="0.0158834332" flag="0"/>
      <psa10 value="0.0177880838" flag="0"/>
      <psa30 value="0.0013395559" flag="0"/>
    </comp>
    <comp name="--.HNN">
      <acc value="0.0262196695" flag="0"/>
      <vel value="0.0085809916" flag="0"/>
      <psa03 value="0.0254731068" flag="0"/>
      <psa10 value="0.0128533293" flag="0"/>
      <psa30 value="0.0010560322" flag="0"/>
    </comp>
  </station>
  <station code="ORLT" name="ORLT" netid="KO" insttype="CMG-5T" commtype="DIG" lat="40.0452" lon="28.8914">
    <comp name="--.HNE">
      <acc value="0.0325183779" flag="0"/>
      <vel value="0.0162201549" flag="0"/>
      <psa03 value="0.0726816037" flag="0"/>
      <psa10 value="0.0132679354" flag="0"/>
      <psa30 value="0.0014047989" flag="0"/>
    </comp>
    <comp name="--.HNN">
      <acc value="0.0401619345" flag="0"/>
      <vel value="0.0144508749" flag="0"/>
      <psa03 value="0.1151665802" flag="0"/>
      <psa10 value="0.0181588064" flag="0"/>
      <psa30 value="0.0013014814" flag="0"/>
    </comp>
    <comp name="--.HNZ">
      <acc value="0.0183128808" flag="0"/>
      <vel value="0.0103641477" flag="0"/>
      <psa03 value="0.0278347726" flag="0"/>
      <psa10 value="0.0137248042" flag="0"/>
      <psa30 value="0.0009655207" flag="0"/>
    </comp>
  </station>
  <station code="SIMA" name="SIMA" netid="KO" insttype="CMG-6T" commtype="DIG" lat="39.0833" lon="28.9825">
    <comp name="--.HHE">
      <acc value="0.1840926110" flag="0"/>
      <vel value="0.0310436523" flag="0"/>
      <psa03 value="0.2040073155" flag="0"/>
      <psa10 value="0.0115523421" flag="0"/>
      <psa30 value="0.0022059928" flag="0"/>
    </comp>
    <comp name="--.HHZ">
      <acc value="0.1723263512" flag="0"/>
      <vel value="0.0261069445" flag="0"/>
      <psa03 value="0.1056405740" flag="0"/>
      <psa10 value="0.0070287140" flag="0"/>
      <psa30 value="0.0009872299" flag="0"/>
    </comp>
    <comp name="--.HHN">
      <acc value="0.1746292973" flag="0"/>
      <vel value="0.0424748061" flag="0"/>
      <psa03 value="0.2360195739" flag="0"/>
      <psa10 value="0.0136246475" flag="0"/>
      <psa30 value="0.0016889594" flag="0"/>
    </comp>
  </station>
  <station code="SMAA" name="SMAA" netid="KO" insttype="CMG-5T" commtype="DIG" lat="39.1005" lon="28.9805">
    <comp name="--.HNE">
      <acc value="0.1543603680" flag="0"/>
      <vel value="0.0572673128" flag="0"/>
      <psa03 value="0.3491501825" flag="0"/>
      <psa10 value="0.0571984391" flag="0"/>
      <psa30 value="0.0074423579" flag="0"/>
    </comp>
    <comp name="--.HNN">
      <acc value="0.1512418591" flag="0"/>
      <vel value="0.0698156092" flag="0"/>
      <psa03 value="0.4412169873" flag="0"/>
      <psa10 value="0.0566956116" flag="0"/>
      <psa30 value="0.0076531386" flag="0"/>
    </comp>
    <comp name="--.HNZ">
      <acc value="0.0749202439" flag="0"/>
      <vel value="0.0178772466" flag="0"/>
      <psa03 value="0.0701778988" flag="0"/>
      <psa10 value="0.0251740651" flag="0"/>
      <psa30 value="0.0023697120" flag="0"/>
    </comp>
  </station>
  <station code="SOMA" name="SOMA" netid="KO" insttype="CMG-5T" commtype="DIG" lat="39.1564" lon="27.5341">
    <comp name="--.HNZ">
      <acc value="0.0832267026" flag="0"/>
      <vel value="0.0240128902" flag="0"/>
      <psa03 value="0.0701659712" flag="0"/>
      <psa10 value="0.0097156533" flag="0"/>
      <psa30 value="0.0017443135" flag="0"/>
    </comp>
    <comp name="--.HNE">
      <acc value="0.0835879743" flag="0"/>
      <vel value="0.0342627422" flag="0"/>
      <psa03 value="0.1150404271" flag="0"/>
      <psa10 value="0.0199086862" flag="0"/>
      <psa30 value="0.0019504736" flag="0"/>
    </comp>
    <comp name="--.HNN">
      <acc value="0.1543483883" flag="0"/>
      <vel value="0.0516703261" flag="0"/>
      <psa03 value="0.2044577403" flag="0"/>
      <psa10 value="0.0159672327" flag="0"/>
      <psa30 value="0.0011632158" flag="0"/>
    </comp>
  </station>
  <station code="SUSR" name="SUSR" netid="KO" insttype="CMG-5T" commtype="DIG" lat="39.9627" lon="28.0835">
    <comp name="--.HNE">
      <acc value="0.0310935588" flag="0"/>
      <vel value="0.0095805009" flag="0"/>
      <psa03 value="0.0735995317" flag="0"/>
      <psa10 value="0.0049478842" flag="0"/>
      <psa30 value="0.0008743477" flag="0"/>
    </comp>
    <comp name="--.HNN">
      <acc value="0.0401531232" flag="0"/>
      <vel value="0.0135397171" flag="0"/>
      <psa03 value="0.0896719232" flag="0"/>
      <psa10 value="0.0041613892" flag="0"/>
      <psa30 value="0.0009076674" flag="0"/>
    </comp>
    <comp name="--.HNZ">
      <acc value="0.0298127019" flag="0"/>
      <vel value="0.0096596216" flag="0"/>
      <psa03 value="0.0499515194" flag="0"/>
      <psa10 value="0.0025663612" flag="0"/>
      <psa30 value="0.0013329004" flag="0"/>
    </comp>
  </station>
  <station code="TVSB" name="TVSB" netid="KO" insttype="CMG-3T" commtype="DIG" lat="39.4497" lon="29.4615">
    <comp name="--.HHZ">
      <acc value="0.0235016418" flag="0"/>
      <vel value="0.0073573339" flag="0"/>
      <psa03 value="0.0299786635" flag="0"/>
      <psa10 value="0.0061771717" flag="0"/>
      <psa30 value="0.0017462880" flag="0"/>
    </comp>
    <comp name="--.HHN">
      <acc value="0.0556173733" flag="0"/>
      <vel value="0.0188087245" flag="0"/>
      <psa03 value="0.0856629457" flag="0"/>
      <psa10 value="0.0091814135" flag="0"/>
      <psa30 value="0.0009005087" flag="0"/>
    </comp>
    <comp name="--.HHE">
      <acc value="0.0322876306" flag="0"/>
      <vel value="0.0148540240" flag="0"/>
      <psa03 value="0.0823048250" flag="0"/>
      <psa10 value="0.0119297972" flag="0"/>
      <psa30 value="0.0013251015" flag="0"/>
    </comp>
  </station>
  <station code="YAYO" name="YAYO" netid="KO" insttype="CMG-6T" commtype="DIG" lat="39.6113" lon="27.0726">
    <comp name="--.HHE">
      <acc value="0.0282723233" flag="0"/>
      <vel value="0.0122992748" flag="0"/>
      <psa03 value="0.0497756803" flag="0"/>
      <psa10 value="0.0072280498" flag="0"/>
      <psa30 value="0.0006772669" flag="0"/>
    </comp>
    <comp name="--.HHN">
      <acc value="0.0149298805" flag="0"/>
      <vel value="0.0078685373" flag="0"/>
      <psa03 value="0.0469022278" flag="0"/>
      <psa10 value="0.0095456597" flag="0"/>
      <psa30 value="0.0005929563" flag="0"/>
    </comp>
    <comp name="--.HHZ">
      <acc value="0.0121967300" flag="0"/>
      <vel value="0.0067961147" flag="0"/>
      <psa03 value="0.0289093980" flag="0"/>
      <psa10 value="0.0062938894" flag="0"/>
      <psa30 value="0.0005286015" flag="0"/>
    </comp>
  </station>
</stationlist>
