<?xml version="1.0" encoding="UTF-8" standalone="yes"?>
<!DOCTYPE earthquake SYSTEM "stationlist.dtd">
<stationlist created="" xmlns="ch.ethz.sed.shakemap.usgs.xml">
  <station code="ACOR" name="ACOR" netid="HA" insttype="Horizon,120s,1200" lat="37.8905" lon="22.8694">
    <comp name="--.HHZ">
      <acc value="0.0272801407" flag="0"/>
      <vel value="0.0238035985" flag="0"/>
      <psa03 value="0.0648863075" flag="0"/>
      <psa10 value="0.0345179786" flag="0"/>
      <psa30 value="0.0055266876" flag="0"/>
    </comp>
    <comp name="--.HHN">
      <acc value="0.0550494484" flag="0"/>
      <vel value="0.0796596724" flag="0"/>
      <psa03 value="0.1205515205" flag="0"/>
      <psa10 value="0.1452068812" flag="0"/>
      <psa30 value="0.0152013180" flag="0"/>
    </comp>
    <comp name="--.HHE">
      <acc value="0.0340479810" flag="0"/>
      <vel value="0.0284531502" flag="0"/>
      <psa03 value="0.0948873584" flag="0"/>
      <psa10 value="0.0614662323" flag="0"/>
      <psa30 value="0.0052167594" flag="0"/>
    </comp>
  </station>
  <station code="AMPE" name="AMPE" netid="HA" insttype="1s-100Hz," lat="38.3015" lon="23.2688">
    <comp name="--.HHE">
      <acc value="0.1414843581" flag="0"/>
      <vel value="0.0948845222" flag="0"/>
      <psa03 value="0.2843466117" flag="0"/>
      <psa10 value="0.1534479303" flag="0"/>
      <psa30 value="0.0160505674" flag="0"/>
    </comp>
    <comp name="--.HHZ">
      <acc value="0.0780630327" flag="0"/>
      <vel value="0.0445995214" flag="0"/>
      <psa03 value="0.1863337959" flag="0"/>
      <psa10 value="0.0669507984" flag="0"/>
      <psa30 value="0.0055516123" flag="0"/>
    </comp>
    <comp name="--.HHN">
      <acc value="0.1066471451" flag="0"/>
      <vel value="0.0585716556" flag="0"/>
      <psa03 value="0.2366530495" flag="0"/>
      <psa10 value="0.0904738665" flag="0"/>
      <psa30 value="0.0277127848" flag="0"/>
    </comp>
  </station>
  <station code="ATAL" name="ATAL" netid="HA" insttype="120" lat="38.6926" lon="23.0213">
    <comp name="--.HHZ">
      <acc value="0.0381997616" flag="0"/>
      <vel value="0.0247449367" flag="0"/>
      <psa03 value="0.0932630474" flag="0"/>
      <psa10 value="0.0366151554" flag="0"/>
      <psa30 value="0.0032490450" flag="0"/>
    </comp>
    <comp name="--.HHE">
      <acc value="0.0468167852" flag="0"/>
      <vel value="0.0383209365" flag="0"/>
      <psa03 value="0.1791682006" flag="0"/>
      <psa10 value="0.0526827058" flag="0"/>
      <psa30 value="0.0095732185" flag="0"/>
    </comp>
    <comp name="--.HHN">
      <acc value="0.0500670398" flag="0"/>
      <vel value="0.0432603579" flag="0"/>
      <psa03 value="0.0915531286" flag="0"/>
      <psa10 value="0.0687245808" flag="0"/>
      <psa30 value="0.0146295092" flag="0"/>
    </comp>
  </station>
  <station code="ATHU" name="ATHU" netid="HA" insttype="60" lat="37.9665" lon="23.7845">
    <comp name="--.HHE">
      <acc value="0.1101532007" flag="0"/>
      <vel value="0.0793019963" flag="0"/>
      <psa03 value="0.1280101449" flag="0"/>
      <psa10 value="0.0783720821" flag="0"/>
      <psa30 value="0.0164529879" flag="0"/>
    </comp>
    <comp name="--.HHN">
      <acc value="0.1440630203" flag="0"/>
      <vel value="0.0727357102" flag="0"/>
      <psa03 value="0.1537883287" flag="0"/>
      <psa10 value="0.1016532659" flag="0"/>
      <psa30 value="0.0143901341" flag="0"/>
    </comp>
    <comp name="--.HHZ">
      <acc value="0.1192901694" flag="0"/>
      <vel value="0.0503665622" flag="0"/>
      <psa03 value="0.1861153917" flag="0"/>
      <psa10 value="0.0484404290" flag="0"/>
      <psa30 value="0.0071220242" flag="0"/>
    </comp>
  </station>
  <station code="AXAR" name="AXAR" netid="HA" insttype="Horizon,120s,1200" lat="38.7664" lon="22.659">
    <comp name="--.HHN">
      <acc value="0.0698444744" flag="0"/>
      <vel value="0.0466461520" flag="0"/>
      <psa03 value="0.1953137782" flag="0"/>
      <psa10 value="0.0945388434" flag="0"/>
      <psa30 value="0.0177123221" flag="0"/>
    </comp>
    <comp name="--.HHE">
      <acc value="0.0905616201" flag="0"/>
      <vel value="0.0847970810" flag="0"/>
      <psa03 value="0.2271469189" flag="0"/>
      <psa10 value="0.1043363195" flag="0"/>
      <psa30 value="0.0274659177" flag="0"/>
    </comp>
    <comp name="--.HHZ">
      <acc value="0.0260652251" flag="0"/>
      <vel value="0.0149774090" flag="0"/>
      <psa03 value="0.0796386790" flag="0"/>
      <psa10 value="0.0149571556" flag="0"/>
      <psa30 value="0.0024979307" flag="0"/>
    </comp>
  </station>
  <station code="DOMV" name="DOMV" netid="HA" insttype="60" lat="38.2569" lon="22.9795">
    <comp name="--.HHN">
      <acc value="0.0918151508" flag="0"/>
      <vel value="0.0352564019" flag="0"/>
      <psa03 value="0.2281424339" flag="0"/>
      <psa10 value="0.0202907086" flag="0"/>
      <psa30 value="0.0017712484" flag="0"/>
    </comp>
    <comp name="--.HHZ">
      <acc value="0.0835604753" flag="0"/>
      <vel value="0.0317975029" flag="0"/>
      <psa03 value="0.1632717733" flag="0"/>
      <psa10 value="0.0217327482" flag="0"/>
      <psa30 value="0.0036167106" flag="0"/>
    </comp>
    <comp name="--.HHE">
      <acc value="0.1166808076" flag="0"/>
      <vel value="0.0398351786" flag="0"/>
      <psa03 value="0.1984454085" flag="0"/>
      <psa10 value="0.0268995216" flag="0"/>
      <psa30 value="0.0020721494" flag="0"/>
    </comp>
  </station>
  <station code="EPID" name="EPID" netid="HA" insttype="30" lat="37.6144" lon="23.1189">
    <comp name="--.HHE">
      <acc value="0.2172917804" flag="0"/>
      <vel value="0.1997627926" flag="0"/>
      <psa03 value="0.4468149809" flag="0"/>
      <psa10 value="0.2625800410" flag="0"/>
      <psa30 value="0.0174000984" flag="0"/>
    </comp>
    <comp name="--.HHN">
      <acc value="0.1768757040" flag="0"/>
      <vel value="0.1453155926" flag="0"/>
      <psa03 value="0.3279200984" flag="0"/>
      <psa10 value="0.1219198311" flag="0"/>
      <psa30 value="0.0152870789" flag="0"/>
    </comp>
    <comp name="--.HHZ">
      <acc value="0.1165144451" flag="0"/>
      <vel value="0.0990680901" flag="0"/>
      <psa03 value="0.2634021251" flag="0"/>
      <psa10 value="0.0665201996" flag="0"/>
      <psa30 value="0.0091726547" flag="0"/>
    </comp>
  </station>
  <station code="ERTR" name="ERTR" netid="HA" insttype="Horizon,120s,1200" lat="38.4066" lon="23.7865">
    <comp name="--.HHZ">
      <acc value="0.1285775660" flag="0"/>
      <vel value="0.0395559105" flag="0"/>
      <psa03 value="0.1641547474" flag="0"/>
      <psa10 value="0.0463022095" flag="0"/>
      <psa30 value="0.0062147761" flag="0"/>
    </comp>
    <comp name="--.HHN">
      <acc value="0.1835572043" flag="0"/>
      <vel value="0.1125157801" flag="0"/>
      <psa03 value="0.2807385803" flag="0"/>
      <psa10 value="0.1506900819" flag="0"/>
      <psa30 value="0.0286657163" flag="0"/>
    </comp>
    <comp name="--.HHE">
      <acc value="0.1746174346" flag="0"/>
      <vel value="0.0924171206" flag="0"/>
      <psa03 value="0.3092659478" flag="0"/>
      <psa10 value="0.1006340713" flag="0"/>
      <psa30 value="0.0081793513" flag="0"/>
    </comp>
  </station>
  <station code="KARY" name="KARY" netid="HA" insttype="60" lat="38.0321" lon="24.437">
    <comp name="--.HHE">
      <acc value="1.7681142908" flag="0"/>
      <vel value="0.3295831808" flag="0"/>
      <psa03 value="0.8444666094" flag="0"/>
      <psa10 value="0.3290194106" flag="0"/>
      <psa30 value="0.0246537949" flag="0"/>
    </comp>
    <comp name="--.HHN">
      <acc value="2.7504066968" flag="0"/>
      <vel value="0.6646577812" flag="0"/>
      <psa03 value="1.4219094631" flag="0"/>
      <psa10 value="0.3751221672" flag="0"/>
      <psa30 value="0.0185783720" flag="0"/>
    </comp>
    <comp name="--.HHZ">
      <acc value="1.6174687596" flag="0"/>
      <vel value="0.3008888891" flag="0"/>
      <psa03 value="0.8295875360" flag="0"/>
      <psa10 value="0.2710766703" flag="0"/>
      <psa30 value="0.0207071546" flag="0"/>
    </comp>
  </station>
  <station code="KIAS" name="KIAS" netid="HA" insttype="DC" lat="37.9875" lon="22.7543">
    <comp name="--.HNE">
      <acc value="0.1090890523" flag="0"/>
      <vel value="0.0932309206" flag="0"/>
      <psa03 value="0.2185289207" flag="0"/>
      <psa10 value="0.1315750124" flag="0"/>
      <psa30 value="0.0249952341" flag="0"/>
    </comp>
    <comp name="--.HNN">
      <acc value="0.0993359757" flag="0"/>
      <vel value="0.0834777675" flag="0"/>
      <psa03 value="0.2427988352" flag="0"/>
      <psa10 value="0.1919240549" flag="0"/>
      <psa30 value="0.0231328658" flag="0"/>
    </comp>
    <comp name="--.HNZ">
      <acc value="0.0553601129" flag="0"/>
      <vel value="0.0532117248" flag="0"/>
      <psa03 value="0.0879687242" flag="0"/>
      <psa10 value="0.1169606494" flag="0"/>
      <psa30 value="0.0183902075" flag="0"/>
    </comp>
  </station>
  <station code="LOUT" name="LOUT" netid="HA" insttype="30" lat="37.9879" lon="22.9743">
    <comp name="--.HHE">
      <acc value="0.2403392054" flag="0"/>
      <vel value="0.1519188339" flag="0"/>
      <psa03 value="0.7326688511" flag="0"/>
      <psa10 value="0.2114196519" flag="0"/>
      <psa30 value="0.0129877147" flag="0"/>
    </comp>
    <comp name="--.HHN">
      <acc value="0.2249420307" flag="0"/>
      <vel value="0.1431792101" flag="0"/>
      <psa03 value="0.6540946608" flag="0"/>
      <psa10 value="0.1531968689" flag="0"/>
      <psa30 value="0.0140735965" flag="0"/>
    </comp>
    <comp name="--.HHZ">
      <acc value="0.1247359527" flag="0"/>
      <vel value="0.0748544216" flag="0"/>
      <psa03 value="0.3384512479" flag="0"/>
      <psa10 value="0.1133886995" flag="0"/>
      <psa30 value="0.0081598123" flag="0"/>
    </comp>
  </station>
  <station code="LTRS" name="LTRS" netid="HA" insttype="DC" lat="37.9753" lon="22.9765">
    <comp name="--.HNE">
      <acc value="0.3058228643" flag="0"/>
      <vel value="0.2660076380" flag="0"/>
      <psa03 value="0.6094339099" flag="0"/>
      <psa10 value="0.5890406886" flag="0"/>
      <psa30 value="0.0272881669" flag="0"/>
    </comp>
    <comp name="--.HNN">
      <acc value="0.2618169705" flag="0"/>
      <vel value="0.1787771810" flag="0"/>
      <psa03 value="0.8908873031" flag="0"/>
      <psa10 value="0.2600654313" flag="0"/>
      <psa30 value="0.0193002485" flag="0"/>
    </comp>
    <comp name="--.HNZ">
      <acc value="0.1548788656" flag="0"/>
      <vel value="0.1391052210" flag="0"/>
      <psa03 value="0.3763522951" flag="0"/>
      <psa10 value="0.1688445247" flag="0"/>
      <psa30 value="0.0097565832" flag="0"/>
    </comp>
  </station>
  <station code="MDRA" name="MDRA" netid="HA" insttype="60" lat="38.0606" lon="23.4662">
    <comp name="--.HHE">
      <acc value="0.0884436529" flag="0"/>
      <vel value="0.0332033066" flag="0"/>
      <psa03 value="0.1966322454" flag="0"/>
      <psa10 value="0.0228325337" flag="0"/>
      <psa30 value="0.0020369353" flag="0"/>
    </comp>
    <comp name="--.HHN">
      <acc value="0.1137642380" flag="0"/>
      <vel value="0.0442813835" flag="0"/>
      <psa03 value="0.2364849422" flag="0"/>
      <psa10 value="0.0505158101" flag="0"/>
      <psa30 value="0.0060318861" flag="0"/>
    </comp>
    <comp name="--.HHZ">
      <acc value="0.0926890212" flag="0"/>
      <vel value="0.0377099689" flag="0"/>
      <psa03 value="0.2027476879" flag="0"/>
      <psa10 value="0.0239640814" flag="0"/>
      <psa30 value="0.0034628027" flag="0"/>
    </comp>
  </station>
  <station code="MRKA" name="MRKA" netid="HA" insttype="Horizon,120s,1200" lat="38.7047" lon="23.5863">
    <comp name="--.HHE">
      <acc value="0.4102492562" flag="0"/>
      <vel value="0.1652075056" flag="0"/>
      <psa03 value="0.7525616815" flag="0"/>
      <psa10 value="0.1061309121" flag="0"/>
      <psa30 value="0.0119083912" flag="0"/>
    </comp>
    <comp name="--.HHN">
      <acc value="0.3562532704" flag="0"/>
      <vel value="0.1701884236" flag="0"/>
      <psa03 value="0.6902138584" flag="0"/>
      <psa10 value="0.1703619145" flag="0"/>
      <psa30 value="0.0202466770" flag="0"/>
    </comp>
    <comp name="--.HHZ">
      <acc value="0.1702948699" flag="0"/>
      <vel value="0.0579310693" flag="0"/>
      <psa03 value="0.3046037562" flag="0"/>
      <psa10 value="0.0542595592" flag="0"/>
      <psa30 value="0.0059642129" flag="0"/>
    </comp>
  </station>
  <station code="MRTH" name="MRTH" netid="HA" insttype="S100," lat="38.1225" lon="23.9409">
    <comp name="--.HHE">
      <acc value="0.9916211424" flag="0"/>
      <vel value="0.5284267823" flag="0"/>
      <psa03 value="2.0139184334" flag="0"/>
      <psa10 value="0.2890954721" flag="0"/>
      <psa30 value="0.0406588148" flag="0"/>
    </comp>
    <comp name="--.HHN">
      <acc value="0.9438649202" flag="0"/>
      <vel value="0.4339641527" flag="0"/>
      <psa03 value="1.9747161404" flag="0"/>
      <psa10 value="0.4315862932" flag="0"/>
      <psa30 value="0.0375115239" flag="0"/>
    </comp>
    <comp name="--.HHZ">
      <acc value="0.9260727536" flag="0"/>
      <vel value="0.3250059363" flag="0"/>
      <psa03 value="1.8009085516" flag="0"/>
      <psa10 value="0.1637337678" flag="0"/>
      <psa30 value="0.0176532088" flag="0"/>
    </comp>
  </station>
  <station code="SERI" name="SERI" netid="HA" insttype="30" lat="37.1609" lon="24.4853">
    <comp name="--.HHE">
      <acc value="0.0998421150" flag="0"/>
      <vel value="0.0941325608" flag="0"/>
      <psa03 value="0.1753908625" flag="0"/>
      <psa10 value="0.1352451251" flag="0"/>
      <psa30 value="0.0138355029" flag="0"/>
    </comp>
    <comp name="--.HHZ">
      <acc value="0.0810195498" flag="0"/>
      <vel value="0.0350152343" flag="0"/>
      <psa03 value="0.1869748950" flag="0"/>
      <psa10 value="0.0452824523" flag="0"/>
      <psa30 value="0.0032675956" flag="0"/>
    </comp>
    <comp name="--.HHN">
      <acc value="0.1218752582" flag="0"/>
      <vel value="0.0426296963" flag="0"/>
      <psa03 value="0.1417013206" flag="0"/>
      <psa10 value="0.0486301166" flag="0"/>
      <psa30 value="0.0050745128" flag="0"/>
    </comp>
  </station>
  <station code="STFN" name="STFN" netid="HA" insttype="1s-100Hz," lat="38.1766" lon="23.544">
    <comp name="--.HHN">
      <acc value="0.2813519616" flag="0"/>
      <vel value="0.1355933575" flag="0"/>
      <psa03 value="0.4109212838" flag="0"/>
      <psa10 value="0.0884725765" flag="0"/>
      <psa30 value="0.0105480977" flag="0"/>
    </comp>
    <comp name="--.HHE">
      <acc value="0.2209308056" flag="0"/>
      <vel value="0.1494179462" flag="0"/>
      <psa03 value="0.4967115390" flag="0"/>
      <psa10 value="0.1540500060" flag="0"/>
      <psa30 value="0.0088514886" flag="0"/>
    </comp>
    <comp name="--.HHZ">
      <acc value="0.1240461330" flag="0"/>
      <vel value="0.0748203400" flag="0"/>
      <psa03 value="0.1983224698" flag="0"/>
      <psa10 value="0.0882992141" flag="0"/>
      <psa30 value="0.0057884036" flag="0"/>
    </comp>
  </station>
  <station code="THAL" name="THAL" netid="HA" insttype="30" lat="38.0357" lon="22.6634">
    <comp name="--.HHZ">
      <acc value="0.0524939749" flag="0"/>
      <vel value="0.0333490819" flag="0"/>
      <psa03 value="0.1445186948" flag="0"/>
      <psa10 value="0.0400370517" flag="0"/>
      <psa30 value="0.0059329192" flag="0"/>
    </comp>
    <comp name="--.HHE">
      <acc value="0.1382758990" flag="0"/>
      <vel value="0.0716558303" flag="0"/>
      <psa03 value="0.4032250812" flag="0"/>
      <psa10 value="0.0826809044" flag="0"/>
      <psa30 value="0.0121122790" flag="0"/>
    </comp>
    <comp name="--.HHN">
      <acc value="0.1441444466" flag="0"/>
      <vel value="0.0903875715" flag="0"/>
      <psa03 value="0.3659281543" flag="0"/>
      <psa10 value="0.0977467664" flag="0"/>
      <psa30 value="0.0107403389" flag="0"/>
    </comp>
  </station>
  <station code="THIV" name="THIV" netid="HA" insttype="25" lat="38.299" lon="23.332">
    <comp name="--.HHZ">
      <acc value="0.0449469578" flag="0"/>
      <vel value="0.0236560282" flag="0"/>
      <psa03 value="0.1451248296" flag="0"/>
      <psa10 value="0.0214615937" flag="0"/>
      <psa30 value="0.0033825918" flag="0"/>
    </comp>
    <comp name="--.HHE">
      <acc value="0.0680879986" flag="0"/>
      <vel value="0.0443299557" flag="0"/>
      <psa03 value="0.2772491787" flag="0"/>
      <psa10 value="0.0307165319" flag="0"/>
      <psa30 value="0.0030302378" flag="0"/>
    </comp>
    <comp name="--.HHN">
      <acc value="0.0824117966" flag="0"/>
      <vel value="0.0524052032" flag="0"/>
      <psa03 value="0.2400098361" flag="0"/>
      <psa10 value="0.0420768263" flag="0"/>
      <psa30 value="0.0032534665" flag="0"/>
    </comp>
  </station>
  <station code="VILL" name="VILL" netid="HA" insttype="Horizon,120s,1200" lat="38.1642" lon="23.3122">
    <comp name="--.HHE">
      <acc value="0.2098762374" flag="0"/>
      <vel value="0.1368160512" flag="0"/>
      <psa03 value="0.5190228777" flag="0"/>
      <psa10 value="0.1076054497" flag="0"/>
      <psa30 value="0.0092113130" flag="0"/>
    </comp>
    <comp name="--.HHZ">
      <acc value="0.1104286154" flag="0"/>
      <vel value="0.0681736526" flag="0"/>
      <psa03 value="0.2746665155" flag="0"/>
      <psa10 value="0.0514423268" flag="0"/>
      <psa30 value="0.0078841300" flag="0"/>
    </comp>
    <comp name="--.HHN">
      <acc value="0.1545329645" flag="0"/>
      <vel value="0.0981516569" flag="0"/>
      <psa03 value="0.3525563486" flag="0"/>
      <psa10 value="0.0884206242" flag="0"/>
      <psa30 value="0.0084241918" flag="0"/>
    </comp>
  </station>
  <station code="THNO" name="THNO" netid="HC" insttype="60" lat="37.6541" lon="25.0221">
    <comp name="--.HHN">
      <acc value="0.0000000000" flag="0"/>
      <vel value="-100.0000000000" flag="0"/>
      <psa03 value="0.0000000000" flag="0"/>
      <psa10 value="0.0000000000" flag="0"/>
      <psa30 value="0.0000000000" flag="0"/>
    </comp>
    <comp name="--.HHZ">
      <acc value="0.2612319007" flag="0"/>
      <vel value="0.1568106444" flag="0"/>
      <psa03 value="0.6830762124" flag="0"/>
      <psa10 value="0.1486176431" flag="0"/>
      <psa30 value="0.0068758410" flag="0"/>
    </comp>
    <comp name="--.HHE">
      <acc value="0.0000000000" flag="0"/>
      <vel value="-100.0000000000" flag="0"/>
      <psa03 value="0.0000000000" flag="0"/>
      <psa10 value="0.0000000000" flag="0"/>
      <psa30 value="0.0000000000" flag="0"/>
    </comp>
  </station>
  <station code="ATH5" name="ATH5" netid="HI" insttype="CMG-5TD,ACCELEROMETER,GURALP" lat="37.9754" lon="23.7371">
    <comp name="--.HNN">
      <acc value="0.1566984563" flag="0"/>
      <vel value="0.1113071786" flag="0"/>
      <psa03 value="0.2417851143" flag="0"/>
      <psa10 value="0.1610147369" flag="0"/>
      <psa30 value="0.0230891063" flag="0"/>
    </comp>
    <comp name="--.HNZ">
      <acc value="0.1365980313" flag="0"/>
      <vel value="0.0569625740" flag="0"/>
      <psa03 value="0.1847288144" flag="0"/>
      <psa10 value="0.1088481640" flag="0"/>
      <psa30 value="0.0081655184" flag="0"/>
    </comp>
    <comp name="--.HNE">
      <acc value="0.1848423357" flag="0"/>
      <vel value="0.1267016512" flag="0"/>
      <psa03 value="0.3819834214" flag="0"/>
      <psa10 value="0.1359419955" flag="0"/>
      <psa30 value="0.0203579157" flag="0"/>
    </comp>
  </station>
  <station code="SKY1" name="SKY1" netid="HI" insttype="CMG-5TD,ACCELEROMETER,GURALP" lat="38.9045" lon="24.5646">
    <comp name="--.HNN">
      <acc value="0.4938477686" flag="0"/>
      <vel value="0.2318785364" flag="0"/>
      <psa03 value="1.1491378194" flag="0"/>
      <psa10 value="0.0973380286" flag="0"/>
      <psa30 value="0.0107580323" flag="0"/>
    </comp>
    <comp name="--.HNZ">
      <acc value="0.2751129350" flag="0"/>
