<?xml version="1.0" encoding="UTF-8" standalone="yes"?>
<!DOCTYPE earthquake SYSTEM "stationlist.dtd">
<stationlist created="" xmlns="ch.ethz.sed.shakemap.usgs.xml">
  <station code="ACOR" name="ACOR" netid="HA" insttype="Horizon,120s,1200" lat="37.8905" lon="22.8694">
    <comp name="--.HHE">
      <acc value="0.0340479810" flag="0"/>
      <vel value="0.0284531505" flag="0"/>
      <psa03 value="0.0948873584" flag="0"/>
      <psa10 value="0.0614662323" flag="0"/>
      <psa30 value="0.0052167482" flag="0"/>
    </comp>
    <comp name="--.HHZ">
      <acc value="0.0272801406" flag="0"/>
      <vel value="0.0238035989" flag="0"/>
      <psa03 value="0.0648863075" flag="0"/>
      <psa10 value="0.0345179786" flag="0"/>
      <psa30 value="0.0055266878" flag="0"/>
    </comp>
    <comp name="--.HHN">
      <acc value="0.0550494483" flag="0"/>
      <vel value="0.0796596720" flag="0"/>
      <psa03 value="0.1205515205" flag="0"/>
      <psa10 value="0.1452068812" flag="0"/>
      <psa30 value="0.0152013022" flag="0"/>
    </comp>
  </station>
  <station code="AMPE" name="AMPE" netid="HA" insttype="1s-100Hz," lat="38.3015" lon="23.2688">
    <comp name="--.HHE">
      <acc value="0.1414843584" flag="0"/>
      <vel value="0.0948846021" flag="0"/>
      <psa03 value="0.2843466115" flag="0"/>
      <psa10 value="0.1534479305" flag="0"/>
      <psa30 value="0.0160505650" flag="0"/>
    </comp>
    <comp name="--.HHN">
      <acc value="0.1066471443" flag="0"/>
      <vel value="0.0585713517" flag="0"/>
      <psa03 value="0.2366530502" flag="0"/>
      <psa10 value="0.0904738650" flag="0"/>
      <psa30 value="0.0277127955" flag="0"/>
    </comp>
    <comp name="--.HHZ">
      <acc value="0.0780630347" flag="0"/>
      <vel value="0.0445987016" flag="0"/>
      <psa03 value="0.1863337980" flag="0"/>
      <psa10 value="0.0669507962" flag="0"/>
      <psa30 value="0.0055516204" flag="0"/>
    </comp>
  </station>
  <station code="ATAL" name="ATAL" netid="HA" insttype="120" lat="38.6926" lon="23.0213">
    <comp name="--.HHE">
      <acc value="0.0468167851" flag="0"/>
      <vel value="0.0383209356" flag="0"/>
      <psa03 value="0.1791682006" flag="0"/>
      <psa10 value="0.0526827058" flag="0"/>
      <psa30 value="0.0095732255" flag="0"/>
    </comp>
    <comp name="--.HHN">
      <acc value="0.0500670396" flag="0"/>
      <vel value="0.0432603587" flag="0"/>
      <psa03 value="0.0915531286" flag="0"/>
      <psa10 value="0.0687245808" flag="0"/>
      <psa30 value="0.0146294943" flag="0"/>
    </comp>
    <comp name="--.HHZ">
      <acc value="0.0381997613" flag="0"/>
      <vel value="0.0247449359" flag="0"/>
      <psa03 value="0.0932630474" flag="0"/>
      <psa10 value="0.0366151554" flag="0"/>
      <psa30 value="0.0032490482" flag="0"/>
    </comp>
  </station>
  <station code="ATHU" name="ATHU" netid="HA" insttype="60" lat="37.9665" lon="23.7845">
    <comp name="--.HHZ">
      <acc value="0.1192901696" flag="0"/>
      <vel value="0.0503665627" flag="0"/>
      <psa03 value="0.1861153917" flag="0"/>
      <psa10 value="0.0484404287" flag="0"/>
      <psa30 value="0.0071220188" flag="0"/>
    </comp>
    <comp name="--.HHN">
      <acc value="0.1440630203" flag="0"/>
      <vel value="0.0727357101" flag="0"/>
      <psa03 value="0.1537883287" flag="0"/>
      <psa10 value="0.1016532659" flag="0"/>
      <psa30 value="0.0143902143" flag="0"/>
    </comp>
    <comp name="--.HHE">
      <acc value="0.1101532009" flag="0"/>
      <vel value="0.0793019968" flag="0"/>
      <psa03 value="0.1280101449" flag="0"/>
      <psa10 value="0.0783720819" flag="0"/>
      <psa30 value="0.0164530501" flag="0"/>
    </comp>
  </station>
  <station code="DOMV" name="DOMV" netid="HA" insttype="60" lat="38.2569" lon="22.9795">
    <comp name="--.HHE">
      <acc value="0.1166808075" flag="0"/>
      <vel value="0.0398351782" flag="0"/>
      <psa03 value="0.1984454085" flag="0"/>
      <psa10 value="0.0268995216" flag="0"/>
      <psa30 value="0.0020721488" flag="0"/>
    </comp>
    <comp name="--.HHZ">
      <acc value="0.0835604753" flag="0"/>
      <vel value="0.0317975031" flag="0"/>
      <psa03 value="0.1632717733" flag="0"/>
      <psa10 value="0.0217327482" flag="0"/>
      <psa30 value="0.0036167087" flag="0"/>
    </comp>
    <comp name="--.HHN">
      <acc value="0.0918151507" flag="0"/>
      <vel value="0.0352564021" flag="0"/>
      <psa03 value="0.2281424339" flag="0"/>
      <psa10 value="0.0202907086" flag="0"/>
      <psa30 value="0.0017712433" flag="0"/>
    </comp>
  </station>
  <station code="EPID" name="EPID" netid="HA" insttype="30" lat="37.6144" lon="23.1189">
    <comp name="--.HHN">
      <acc value="0.1768757041" flag="0"/>
      <vel value="0.1453155920" flag="0"/>
      <psa03 value="0.3279200984" flag="0"/>
      <psa10 value="0.1219198311" flag="0"/>
      <psa30 value="0.0152870571" flag="0"/>
    </comp>
    <comp name="--.HHE">
      <acc value="0.2172917807" flag="0"/>
      <vel value="0.1997627941" flag="0"/>
      <psa03 value="0.4468149809" flag="0"/>
      <psa10 value="0.2625800410" flag="0"/>
      <psa30 value="0.0174001243" flag="0"/>
    </comp>
    <comp name="--.HHZ">
      <acc value="0.1165144450" flag="0"/>
      <vel value="0.0990680908" flag="0"/>
      <psa03 value="0.2634021251" flag="0"/>
      <psa10 value="0.0665201996" flag="0"/>
      <psa30 value="0.0091726518" flag="0"/>
    </comp>
  </station>
  <station code="ERTR" name="ERTR" netid="HA" insttype="Horizon,120s,1200" lat="38.4066" lon="23.7865">
    <comp name="--.HHE">
      <acc value="0.1746174347" flag="0"/>
      <vel value="0.0924171197" flag="0"/>
      <psa03 value="0.3092659478" flag="0"/>
      <psa10 value="0.1006340714" flag="0"/>
      <psa30 value="0.0081793828" flag="0"/>
    </comp>
    <comp name="--.HHN">
      <acc value="0.1835572043" flag="0"/>
      <vel value="0.1125157802" flag="0"/>
      <psa03 value="0.2807385803" flag="0"/>
      <psa10 value="0.1506900816" flag="0"/>
      <psa30 value="0.0286658072" flag="0"/>
    </comp>
    <comp name="--.HHZ">
      <acc value="0.1285775659" flag="0"/>
      <vel value="0.0395559092" flag="0"/>
      <psa03 value="0.1641547474" flag="0"/>
      <psa10 value="0.0463022096" flag="0"/>
      <psa30 value="0.0062148089" flag="0"/>
    </comp>
  </station>
  <station code="KARY" name="KARY" netid="HA" insttype="60" lat="38.0321" lon="24.437">
    <comp name="--.HHZ">
      <acc value="1.6174687591" flag="0"/>
      <vel value="0.3008888848" flag="0"/>
      <psa03 value="0.8295875360" flag="0"/>
      <psa10 value="0.2710766641" flag="0"/>
      <psa30 value="0.0207075816" flag="0"/>
    </comp>
    <comp name="--.HHN">
      <acc value="2.7504066950" flag="0"/>
      <vel value="0.6646577809" flag="0"/>
      <psa03 value="1.4219094631" flag="0"/>
      <psa10 value="0.3751221690" flag="0"/>
      <psa30 value="0.0185781759" flag="0"/>
    </comp>
    <comp name="--.HHE">
      <acc value="1.7681142906" flag="0"/>
      <vel value="0.3295831801" flag="0"/>
      <psa03 value="0.8444666094" flag="0"/>
      <psa10 value="0.3290194103" flag="0"/>
      <psa30 value="0.0246536290" flag="0"/>
    </comp>
  </station>
  <station code="KIAS" name="KIAS" netid="HA" insttype="DC" lat="37.9875" lon="22.7543">
    <comp name="--.HNE">
      <acc value="0.1090890516" flag="0"/>
      <vel value="0.0932309182" flag="0"/>
      <psa03 value="0.2185289207" flag="0"/>
      <psa10 value="0.1315750124" flag="0"/>
      <psa30 value="0.0249952289" flag="0"/>
    </comp>
    <comp name="--.HNZ">
      <acc value="0.0553601151" flag="0"/>
      <vel value="0.0532117320" flag="0"/>
      <psa03 value="0.0879687242" flag="0"/>
      <psa10 value="0.1169606494" flag="0"/>
      <psa30 value="0.0183902068" flag="0"/>
    </comp>
    <comp name="--.HNN">
      <acc value="0.0993359762" flag="0"/>
      <vel value="0.0834777711" flag="0"/>
      <psa03 value="0.2427988352" flag="0"/>
      <psa10 value="0.1919240549" flag="0"/>
      <psa30 value="0.0231328336" flag="0"/>
    </comp>
  </station>
  <station code="LOUT" name="LOUT" netid="HA" insttype="30" lat="37.9879" lon="22.9743">
    <comp name="--.HHE">
      <acc value="0.2403392055" flag="0"/>
      <vel value="0.1519188379" flag="0"/>
      <psa03 value="0.7326688511" flag="0"/>
      <psa10 value="0.2114196519" flag="0"/>
      <psa30 value="0.0129876985" flag="0"/>
    </comp>
    <comp name="--.HHN">
      <acc value="0.2249420309" flag="0"/>
      <vel value="0.1431792105" flag="0"/>
      <psa03 value="0.6540946608" flag="0"/>
      <psa10 value="0.1531968689" flag="0"/>
      <psa30 value="0.0140735835" flag="0"/>
    </comp>
    <comp name="--.HHZ">
      <acc value="0.1247359530" flag="0"/>
      <vel value="0.0748544219" flag="0"/>
      <psa03 value="0.3384512479" flag="0"/>
      <psa10 value="0.1133886995" flag="0"/>
      <psa30 value="0.0081598305" flag="0"/>
    </comp>
  </station>
  <station code="LTRS" name="LTRS" netid="HA" insttype="DC" lat="37.9753" lon="22.9765">
    <comp name="--.HNE">
      <acc value="0.3058228628" flag="0"/>
      <vel value="0.2660076341" flag="0"/>
      <psa03 value="0.6094339099" flag="0"/>
      <psa10 value="0.5890406910" flag="0"/>
      <psa30 value="0.0272871368" flag="0"/>
    </comp>
    <comp name="--.HNN">
      <acc value="0.2618169710" flag="0"/>
      <vel value="0.1787771754" flag="0"/>
      <psa03 value="0.8908873031" flag="0"/>
      <psa10 value="0.2600654312" flag="0"/>
      <psa30 value="0.0193011305" flag="0"/>
    </comp>
    <comp name="--.HNZ">
      <acc value="0.1548788695" flag="0"/>
      <vel value="0.1391052166" flag="0"/>
      <psa03 value="0.3763522951" flag="0"/>
      <psa10 value="0.1688445242" flag="0"/>
      <psa30 value="0.0097555263" flag="0"/>
    </comp>
  </station>
  <station code="MDRA" name="MDRA" netid="HA" insttype="60" lat="38.0606" lon="23.4662">
    <comp name="--.HHE">
      <acc value="0.0884436529" flag="0"/>
      <vel value="0.0332033067" flag="0"/>
      <psa03 value="0.1966322454" flag="0"/>
      <psa10 value="0.0228325337" flag="0"/>
      <psa30 value="0.0020369393" flag="0"/>
    </comp>
    <comp name="--.HHN">
      <acc value="0.1137642380" flag="0"/>
      <vel value="0.0442813837" flag="0"/>
      <psa03 value="0.2364849422" flag="0"/>
      <psa10 value="0.0505158101" flag="0"/>
      <psa30 value="0.0060318822" flag="0"/>
    </comp>
    <comp name="--.HHZ">
      <acc value="0.0926890212" flag="0"/>
      <vel value="0.0377099681" flag="0"/>
      <psa03 value="0.2027476879" flag="0"/>
      <psa10 value="0.0239640814" flag="0"/>
      <psa30 value="0.0034628191" flag="0"/>
    </comp>
  </station>
  <station code="MRKA" name="MRKA" netid="HA" insttype="Horizon,120s,1200" lat="38.7047" lon="23.5863">
    <comp name="--.HHN">
      <acc value="0.3562532702" flag="0"/>
      <vel value="0.1701884223" flag="0"/>
      <psa03 value="0.6902138584" flag="0"/>
      <psa10 value="0.1703619144" flag="0"/>
      <psa30 value="0.0202466467" flag="0"/>
    </comp>
    <comp name="--.HHE">
      <acc value="0.4102492561" flag="0"/>
      <vel value="0.1652075057" flag="0"/>
      <psa03 value="0.7525616815" flag="0"/>
      <psa10 value="0.1061309123" flag="0"/>
      <psa30 value="0.0119083461" flag="0"/>
    </comp>
    <comp name="--.HHZ">
      <acc value="0.1702948697" flag="0"/>
      <vel value="0.0579310654" flag="0"/>
      <psa03 value="0.3046037562" flag="0"/>
      <psa10 value="0.0542595594" flag="0"/>
      <psa30 value="0.0059638737" flag="0"/>
    </comp>
  </station>
  <station code="MRTH" name="MRTH" netid="HA" insttype="S100," lat="38.1225" lon="23.9409">
    <comp name="--.HHE">
      <acc value="0.9916211419" flag="0"/>
      <vel value="0.5284269271" flag="0"/>
      <psa03 value="2.0139184339" flag="0"/>
      <psa10 value="0.2890954723" flag="0"/>
      <psa30 value="0.0406586374" flag="0"/>
    </comp>
    <comp name="--.HHN">
      <acc value="0.9438649197" flag="0"/>
      <vel value="0.4339647217" flag="0"/>
      <psa03 value="1.9747161403" flag="0"/>
      <psa10 value="0.4315862944" flag="0"/>
      <psa30 value="0.0375113055" flag="0"/>
    </comp>
    <comp name="--.HHZ">
      <acc value="0.9260727520" flag="0"/>
      <vel value="0.3250058700" flag="0"/>
      <psa03 value="1.8009085513" flag="0"/>
      <psa10 value="0.1637337676" flag="0"/>
      <psa30 value="0.0176531486" flag="0"/>
    </comp>
  </station>
  <station code="SERI" name="SERI" netid="HA" insttype="30" lat="37.1609" lon="24.4853">
    <comp name="--.HHE">
      <acc value="0.0998421154" flag="0"/>
      <vel value="0.0941325611" flag="0"/>
      <psa03 value="0.1753908625" flag="0"/>
      <psa10 value="0.1352451251" flag="0"/>
      <psa30 value="0.0138354434" flag="0"/>
    </comp>
    <comp name="--.HHN">
      <acc value="0.1218752580" flag="0"/>
      <vel value="0.0426296944" flag="0"/>
      <psa03 value="0.1417013206" flag="0"/>
      <psa10 value="0.0486301198" flag="0"/>
      <psa30 value="0.0050751317" flag="0"/>
    </comp>
    <comp name="--.HHZ">
      <acc value="0.0810195501" flag="0"/>
      <vel value="0.0350152357" flag="0"/>
      <psa03 value="0.1869748950" flag="0"/>
      <psa10 value="0.0452824523" flag="0"/>
      <psa30 value="0.0032675918" flag="0"/>
    </comp>
  </station>
  <station code="STFN" name="STFN" netid="HA" insttype="1s-100Hz," lat="38.1766" lon="23.544">
    <comp name="--.HHE">
      <acc value="0.2209308047" flag="0"/>
      <vel value="0.1494181892" flag="0"/>
      <psa03 value="0.4967115399" flag="0"/>
      <psa10 value="0.1540500054" flag="0"/>
      <psa30 value="0.0088513767" flag="0"/>
    </comp>
    <comp name="--.HHZ">
      <acc value="0.1240461324" flag="0"/>
      <vel value="0.0748206767" flag="0"/>
      <psa03 value="0.1983224689" flag="0"/>
      <psa10 value="0.0882992133" flag="0"/>
      <psa30 value="0.0057882569" flag="0"/>
    </comp>
    <comp name="--.HHN">
      <acc value="0.2813519598" flag="0"/>
      <vel value="0.1355940073" flag="0"/>
      <psa03 value="0.4109212857" flag="0"/>
      <psa10 value="0.0884725747" flag="0"/>
      <psa30 value="0.0105480042" flag="0"/>
    </comp>
  </station>
  <station code="THAL" name="THAL" netid="HA" insttype="30" lat="38.0357" lon="22.6634">
    <comp name="--.HHZ">
      <acc value="0.0524939749" flag="0"/>
      <vel value="0.0333490815" flag="0"/>
      <psa03 value="0.1445186948" flag="0"/>
      <psa10 value="0.0400370517" flag="0"/>
      <psa30 value="0.0059329204" flag="0"/>
    </comp>
    <comp name="--.HHN">
      <acc value="0.1441444466" flag="0"/>
      <vel value="0.0903875660" flag="0"/>
      <psa03 value="0.3659281543" flag="0"/>
      <psa10 value="0.0977467664" flag="0"/>
      <psa30 value="0.0107403389" flag="0"/>
    </comp>
    <comp name="--.HHE">
      <acc value="0.1382758990" flag="0"/>
      <vel value="0.0716558297" flag="0"/>
      <psa03 value="0.4032250812" flag="0"/>
      <psa10 value="0.0826809044" flag="0"/>
      <psa30 value="0.0121122830" flag="0"/>
    </comp>
  </station>
  <station code="THIV" name="THIV" netid="HA" insttype="25" lat="38.299" lon="23.332">
    <comp name="--.HHZ">
      <acc value="0.0449469578" flag="0"/>
      <vel value="0.0236560289" flag="0"/>
      <psa03 value="0.1451248296" flag="0"/>
      <psa10 value="0.0214615937" flag="0"/>
      <psa30 value="0.0033825898" flag="0"/>
    </comp>
    <comp name="--.HHN">
      <acc value="0.0824117966" flag="0"/>
      <vel value="0.0524052001" flag="0"/>
      <psa03 value="0.2400098361" flag="0"/>
      <psa10 value="0.0420768263" flag="0"/>
      <psa30 value="0.0032534693" flag="0"/>
    </comp>
    <comp name="--.HHE">
      <acc value="0.0680879986" flag="0"/>
      <vel value="0.0443299564" flag="0"/>
      <psa03 value="0.2772491787" flag="0"/>
      <psa10 value="0.0307165319" flag="0"/>
      <psa30 value="0.0030302281" flag="0"/>
    </comp>
  </station>
  <station code="VILL" name="VILL" netid="HA" insttype="Horizon,120s,1200" lat="38.1642" lon="23.3122">
    <comp name="--.HHN">
      <acc value="0.1545329645" flag="0"/>
      <vel value="0.0981516564" flag="0"/>
      <psa03 value="0.3525563486" flag="0"/>
      <psa10 value="0.0884206242" flag="0"/>
      <psa30 value="0.0084242202" flag="0"/>
    </comp>
    <comp name="--.HHE">
      <acc value="0.2098762374" flag="0"/>
      <vel value="0.1368160519" flag="0"/>
      <psa03 value="0.5190228777" flag="0"/>
      <psa10 value="0.1076054495" flag="0"/>
      <psa30 value="0.0092112949" flag="0"/>
    </comp>
    <comp name="--.HHZ">
      <acc value="0.1104286155" flag="0"/>
      <vel value="0.0681736516" flag="0"/>
      <psa03 value="0.2746665155" flag="0"/>
      <psa10 value="0.0514423268" flag="0"/>
      <psa30 value="0.0078841160" flag="0"/>
    </comp>
  </station>
  <station code="THNO" name="THNO" netid="HC" insttype="60" lat="37.6541" lon="25.0221">
    <comp name="--.HHN">
      <acc value="0.0000000000" flag="0"/>
      <vel value="-100.0000000000" flag="0"/>
      <psa03 value="0.0000000000" flag="0"/>
      <psa10 value="0.0000000000" flag="0"/>
      <psa30 value="0.0000000000" flag="0"/>
    </comp>
    <comp name="--.HHZ">
      <acc value="0.2612319008" flag="0"/>
      <vel value="0.1568106459" flag="0"/>
      <psa03 value="0.6830762124" flag="0"/>
      <psa10 value="0.1486176432" flag="0"/>
      <psa30 value="0.0068756356" flag="0"/>
    </comp>
    <comp name="--.HHE">
      <acc value="0.0000000000" flag="0"/>
      <vel value="-100.0000000000" flag="0"/>
      <psa03 value="0.0000000000" flag="0"/>
      <psa10 value="0.0000000000" flag="0"/>
      <psa30 value="0.0000000000" flag="0"/>
    </comp>
  </station>
  <station code="ATH5" name="ATH5" netid="HI" insttype="CMG-5TD,ACCELEROMETER,GURALP" lat="37.9754" lon="23.7371">
    <comp name="--.HNN">
      <acc value="0.1566984547" flag="0"/>
      <vel value="0.1113071776" flag="0"/>
      <psa03 value="0.2417851143" flag="0"/>
      <psa10 value="0.1610147370" flag="0"/>
      <psa30 value="0.0230896160" flag="0"/>
    </comp>
    <comp name="--.HNE">
      <acc value="0.1848423365" flag="0"/>
      <vel value="0.1267016498" flag="0"/>
      <psa03 value="0.3819834214" flag="0"/>
      <psa10 value="0.1359419966" flag="0"/>
      <psa30 value="0.0203578466" flag="0"/>
    </comp>
    <comp name="--.HNZ">
      <acc value="0.1365980292" flag="0"/>
      <vel value="0.0569625740" flag="0"/>
      <psa03 value="0.1847288144" flag="0"/>
      <psa10 value="0.1088481640" flag="0"/>
      <psa30 value="0.0081654425" flag="0"/>
    </comp>
  </station>
  <station code="ATH" name="ATH" netid="HL" insttype="DR24" lat="37.9738" lon="23.7177">
    <comp name="--.HHE">
      <acc value="0.2768344137" flag="0"/>
      <vel value="0.1353936534" flag="0"/>
      <psa03 value="0.6196307122" flag="0"/>
      <psa10 value="0.1457897984" flag="0"/>
      <psa30 value="0.0189874114" flag="0"/>
    </comp>
    <comp name="--.HHZ">
      <acc value="0.1511037160" flag="0"/>
      <vel value="0.0704272169" flag="0"/>
      <psa03 value="0.1839070687" flag="0"/>
      <psa10 value="0.1320415362" flag="0"/>
      <psa30 value="0.0077597145" flag="0"/>
    </comp>
    <comp name="--.HHN">
      <acc value="0.2759522233" flag="0"/>
      <vel value="0.1838919587" flag="0"/>
      <psa03 value="0.3620726541" flag="0"/>
      <psa10 value="0.2122542259" flag="0"/>
      <psa30 value="0.0262307507" flag="0"/>
    </comp>
  </station>
  <station code="ATHP" name="ATHP" netid="HL" insttype="CMG-5" lat="38.0008" lon="23.7735">
    <comp name="00.HNN">
      <acc value="0.3249703298" flag="0"/>
      <vel value="0.1684736081" flag="0"/>
      <psa03 value="0.5096413930" flag="0"/>
      <psa10 value="0.2557416973" flag="0"/>
      <psa30 value="0.0181276471" flag="0"/>
    </comp>
    <comp name="00.HNE">
      <acc value="0.2592086736" flag="0"/>
