<?xml version="1.0" encoding="UTF-8" standalone="yes"?>
<!DOCTYPE earthquake SYSTEM "stationlist.dtd">
<stationlist created="" xmlns="ch.ethz.sed.shakemap.usgs.xml">
  <station code="ARPRA" name="ARPRA" netid="KO" insttype="CMG-5T" lat="39.0929" lon="38.3356">
    <comp name="--.HNZ">
      <acc value="0.0132174909" flag="0"/>
      <vel value="0.0047691887" flag="0"/>
      <psa03 value="0.0171546738" flag="0"/>
      <psa10 value="0.0071516702" flag="0"/>
      <psa30 value="0.0004212156" flag="0"/>
    </comp>
    <comp name="--.HNE">
      <acc value="0.0182683649" flag="0"/>
      <vel value="0.0079883685" flag="0"/>
      <psa03 value="0.0371820746" flag="0"/>
      <psa10 value="0.0079514805" flag="0"/>
      <psa30 value="0.0007142260" flag="0"/>
    </comp>
    <comp name="--.HNN">
      <acc value="0.0181614427" flag="0"/>
      <vel value="0.0117059788" flag="0"/>
      <psa03 value="0.0345584159" flag="0"/>
      <psa10 value="0.0104393202" flag="0"/>
      <psa30 value="0.0007265262" flag="0"/>
    </comp>
  </station>
  <station code="DARE" name="DARE" netid="KO" insttype="CMG-3ESP" lat="38.5712" lon="37.4832">
    <comp name="--.HHE">
      <acc value="0.0097035700" flag="0"/>
      <vel value="0.0076087923" flag="0"/>
      <psa03 value="0.0166089827" flag="0"/>
      <psa10 value="0.0078126759" flag="0"/>
      <psa30 value="0.0004235878" flag="0"/>
    </comp>
    <comp name="--.HHZ">
      <acc value="0.0092477447" flag="0"/>
      <vel value="0.0060010484" flag="0"/>
      <psa03 value="0.0247816459" flag="0"/>
      <psa10 value="0.0052837221" flag="0"/>
      <psa30 value="0.0002957460" flag="0"/>
    </comp>
    <comp name="--.HHN">
      <acc value="0.0095316837" flag="0"/>
      <vel value="0.0052948773" flag="0"/>
      <psa03 value="0.0248170353" flag="0"/>
      <psa10 value="0.0075511036" flag="0"/>
      <psa30 value="0.0004071449" flag="0"/>
    </comp>
  </station>
  <station code="SVRC" name="SVRC" netid="KO" insttype="CMG-3T" lat="38.3775" lon="39.306">
    <comp name="--.HHE">
      <acc value="0.0115230394" flag="0"/>
      <vel value="0.0065019264" flag="0"/>
      <psa03 value="0.0294484814" flag="0"/>
      <psa10 value="0.0070676518" flag="0"/>
      <psa30 value="0.0004622120" flag="0"/>
    </comp>
    <comp name="--.HHZ">
      <acc value="0.0086186836" flag="0"/>
      <vel value="0.0041088182" flag="0"/>
      <psa03 value="0.0166933438" flag="0"/>
      <psa10 value="0.0035789111" flag="0"/>
      <psa30 value="0.0003489730" flag="0"/>
    </comp>
    <comp name="--.HHN">
      <acc value="0.0098017916" flag="0"/>
      <vel value="0.0058394539" flag="0"/>
      <psa03 value="0.0264219797" flag="0"/>
      <psa10 value="0.0032570248" flag="0"/>
      <psa30 value="0.0005989106" flag="0"/>
    </comp>
  </station>
  <station code="URFA" name="URFA" netid="KO" insttype="CMG-3ESP" lat="37.4409" lon="38.8213">
    <comp name="--.HHE">
      <acc value="0.0517520335" flag="0"/>
      <vel value="0.0167081703" flag="0"/>
      <psa03 value="0.0800184716" flag="0"/>
      <psa10 value="0.0137275304" flag="0"/>
      <psa30 value="0.0017519044" flag="0"/>
    </comp>
    <comp name="--.HHN">
      <acc value="0.0596643584" flag="0"/>
      <vel value="0.0143417669" flag="0"/>
      <psa03 value="0.0397132692" flag="0"/>
      <psa10 value="0.0093620003" flag="0"/>
      <psa30 value="0.0010588895" flag="0"/>
    </comp>
    <comp name="--.HHZ">
      <acc value="0.0478631533" flag="0"/>
      <vel value="0.0075215706" flag="0"/>
      <psa03 value="0.0297993709" flag="0"/>
      <psa10 value="0.0076644429" flag="0"/>
      <psa30 value="0.0006483207" flag="0"/>
    </comp>
  </station>
</stationlist>
