<?xml version="1.0" encoding="UTF-8" standalone="yes"?>
<!DOCTYPE earthquake SYSTEM "stationlist.dtd">
<stationlist created="" xmlns="ch.ethz.sed.shakemap.usgs.xml">
  <station code="IMMV" name="IMMV" netid="GE" insttype="STS-2/N" commtype="DIG" lat="35.4606" lon="23.9811">
    <comp name="--.HHZ">
      <acc value="0.0548103017" flag="0"/>
      <vel value="0.0145803711" flag="0"/>
      <psa03 value="0.0527647290" flag="0"/>
      <psa10 value="0.0038915317" flag="0"/>
      <psa30 value="0.0003374869" flag="0"/>
    </comp>
    <comp name="--.HHN">
      <acc value="0.0748732226" flag="0"/>
      <vel value="0.0190773953" flag="0"/>
      <psa03 value="0.0690216119" flag="0"/>
      <psa10 value="0.0081233012" flag="0"/>
      <psa30 value="0.0004618961" flag="0"/>
    </comp>
    <comp name="--.HHE">
      <acc value="0.0862810283" flag="0"/>
      <vel value="0.0258971807" flag="0"/>
      <psa03 value="0.1333477480" flag="0"/>
      <psa10 value="0.0124390380" flag="0"/>
      <psa30 value="0.0007114329" flag="0"/>
    </comp>
  </station>
  <station code="CHAN" name="CHAN" netid="HC" insttype="120" commtype="DIG" lat="35.5193" lon="24.0428">
    <comp name="--.HHE">
      <acc value="0.0285535982" flag="0"/>
      <vel value="0.0162624317" flag="0"/>
      <psa03 value="0.0964858148" flag="0"/>
      <psa10 value="0.0333266586" flag="0"/>
      <psa30 value="0.0023619713" flag="0"/>
    </comp>
    <comp name="--.HHN">
      <acc value="0.0000000000" flag="0"/>
      <vel value="-100.0000000000" flag="0"/>
      <psa03 value="0.0000000000" flag="0"/>
      <psa10 value="0.0000000000" flag="0"/>
      <psa30 value="0.0000000000" flag="0"/>
    </comp>
    <comp name="--.HHZ">
      <acc value="0.0249760982" flag="0"/>
      <vel value="0.0086370178" flag="0"/>
      <psa03 value="0.0308391557" flag="0"/>
      <psa10 value="0.0116381345" flag="0"/>
      <psa30 value="0.0008709115" flag="0"/>
    </comp>
  </station>
  <station code="GVDS" name="GVDS" netid="HC" insttype="60" commtype="DIG" lat="34.8389" lon="24.0585">
    <comp name="--.HHE">
      <acc value="0.6225387832" flag="0"/>
      <vel value="0.1522147195" flag="0"/>
      <psa03 value="0.7002955016" flag="0"/>
      <psa10 value="0.0538681306" flag="0"/>
      <psa30 value="0.0031082720" flag="0"/>
    </comp>
    <comp name="--.HHZ">
      <acc value="0.2722217198" flag="0"/>
      <vel value="0.0670266462" flag="0"/>
      <psa03 value="0.2039030177" flag="0"/>
      <psa10 value="0.0116782510" flag="0"/>
      <psa30 value="0.0018048839" flag="0"/>
    </comp>
    <comp name="--.HHN">
      <acc value="0.8147024112" flag="0"/>
      <vel value="0.1681467173" flag="0"/>
      <psa03 value="0.8429217568" flag="0"/>
      <psa10 value="0.0467340456" flag="0"/>
      <psa30 value="0.0030659104" flag="0"/>
    </comp>
  </station>
  <station code="IMOD" name="IMOD" netid="HC" insttype="120" commtype="DIG" lat="34.9731" lon="24.7995">
    <comp name="--.HHE">
      <acc value="0.0112935277" flag="0"/>
      <vel value="0.0077843149" flag="0"/>
      <psa03 value="0.0311045402" flag="0"/>
      <psa10 value="0.0109429348" flag="0"/>
      <psa30 value="0.0007430343" flag="0"/>
    </comp>
    <comp name="--.HHZ">
      <acc value="0.0111543267" flag="0"/>
      <vel value="0.0039236999" flag="0"/>
      <psa03 value="0.0175112546" flag="0"/>
      <psa10 value="0.0047315317" flag="0"/>
      <psa30 value="0.0004063381" flag="0"/>
    </comp>
    <comp name="--.HHN">
      <acc value="0.0118545536" flag="0"/>
      <vel value="0.0065425939" flag="0"/>
      <psa03 value="0.0266028065" flag="0"/>
      <psa10 value="0.0096849278" flag="0"/>
      <psa30 value="0.0008390745" flag="0"/>
    </comp>
  </station>
  <station code="IPPL" name="IPPL" netid="HC" insttype="60" commtype="DIG" lat="35.3486" lon="24.4632">
    <comp name="--.HHE">
      <acc value="0.0000000000" flag="0"/>
      <vel value="-100.0000000000" flag="0"/>
      <psa03 value="0.0000000000" flag="0"/>
      <psa10 value="0.0000000000" flag="0"/>
      <psa30 value="0.0000000000" flag="0"/>
    </comp>
    <comp name="--.HHN">
      <acc value="0.0000000000" flag="0"/>
      <vel value="-100.0000000000" flag="0"/>
      <psa03 value="0.0000000000" flag="0"/>
      <psa10 value="0.0000000000" flag="0"/>
      <psa30 value="0.0000000000" flag="0"/>
    </comp>
    <comp name="--.HHZ">
      <acc value="0.0103038224" flag="0"/>
      <vel value="0.0051907930" flag="0"/>
      <psa03 value="0.0198572930" flag="0"/>
      <psa10 value="0.0048925016" flag="0"/>
      <psa30 value="0.0003829886" flag="0"/>
    </comp>
  </station>
  <station code="KNDR" name="KNDR" netid="HC" insttype="120" commtype="DIG" lat="35.2348" lon="23.6248">
    <comp name="--.HHN">
      <acc value="0.0341476107" flag="0"/>
      <vel value="0.0119780809" flag="0"/>
      <psa03 value="0.0566174494" flag="0"/>
      <psa10 value="0.0126291535" flag="0"/>
      <psa30 value="0.0021082556" flag="0"/>
    </comp>
    <comp name="--.HHE">
      <acc value="0.0301250643" flag="0"/>
      <vel value="0.0092356083" flag="0"/>
      <psa03 value="0.0493785815" flag="0"/>
      <psa10 value="0.0124415968" flag="0"/>
      <psa30 value="0.0017779259" flag="0"/>
    </comp>
    <comp name="--.HHZ">
      <acc value="0.0248168909" flag="0"/>
      <vel value="0.0060047309" flag="0"/>
      <psa03 value="0.0280673704" flag="0"/>
      <psa10 value="0.0058101861" flag="0"/>
      <psa30 value="0.0005967364" flag="0"/>
    </comp>
  </station>
  <station code="RODP" name="RODP" netid="HC" insttype="120" commtype="DIG" lat="35.5604" lon="23.7577">
    <comp name="--.HHE">
      <acc value="0.0104442879" flag="0"/>
      <vel value="0.0050691379" flag="0"/>
      <psa03 value="0.0275151852" flag="0"/>
      <psa10 value="0.0062181988" flag="0"/>
      <psa30 value="0.0009168844" flag="0"/>
    </comp>
    <comp name="--.HHN">
      <acc value="0.0085646529" flag="0"/>
      <vel value="0.0040387520" flag="0"/>
      <psa03 value="0.0151379666" flag="0"/>
      <psa10 value="0.0049925406" flag="0"/>
      <psa30 value="0.0007985842" flag="0"/>
    </comp>
    <comp name="--.HHZ">
      <acc value="0.0055521696" flag="0"/>
      <vel value="0.0021862256" flag="0"/>
      <psa03 value="0.0165717976" flag="0"/>
      <psa10 value="0.0025315099" flag="0"/>
      <psa30 value="0.0009201982" flag="0"/>
    </comp>
  </station>
  <station code="GOR1" name="GOR1" netid="HI" insttype="unknown" commtype="DIG" lat="35.0582" lon="24.9628">
    <comp name="--.HNE">
      <acc value="0.0061118901" flag="0"/>
      <vel value="0.0050679372" flag="0"/>
      <psa03 value="0.0142551967" flag="0"/>
      <psa10 value="0.0083932107" flag="0"/>
      <psa30 value="0.0007339850" flag="0"/>
    </comp>
    <comp name="--.HNZ">
      <acc value="0.0042124999" flag="0"/>
      <vel value="0.0031195109" flag="0"/>
      <psa03 value="0.0104700094" flag="0"/>
      <psa10 value="0.0045913812" flag="0"/>
      <psa30 value="0.0005908657" flag="0"/>
    </comp>
    <comp name="--.HNN">
      <acc value="0.0058458240" flag="0"/>
      <vel value="0.0064776321" flag="0"/>
      <psa03 value="0.0110983924" flag="0"/>
      <psa10 value="0.0116608015" flag="0"/>
      <psa30 value="0.0008281177" flag="0"/>
    </comp>
  </station>
  <station code="IDI" name="IDI" netid="HL" insttype="120" commtype="DIG" lat="35.288" lon="24.89">
    <comp name="--.HHZ">
      <acc value="0.0027218833" flag="0"/>
      <vel value="0.0014670998" flag="0"/>
      <psa03 value="0.0051619259" flag="0"/>
      <psa10 value="0.0018736734" flag="0"/>
      <psa30 value="0.0003438608" flag="0"/>
    </comp>
    <comp name="--.HHE">
      <acc value="0.0032729671" flag="0"/>
      <vel value="0.0022353709" flag="0"/>
      <psa03 value="0.0056343803" flag="0"/>
      <psa10 value="0.0022000274" flag="0"/>
      <psa30 value="0.0003036269" flag="0"/>
    </comp>
    <comp name="--.HHN">
      <acc value="0.0038068450" flag="0"/>
      <vel value="0.0016642128" flag="0"/>
      <psa03 value="0.0076808483" flag="0"/>
      <psa10 value="0.0026091575" flag="0"/>
      <psa30 value="0.0003299792" flag="0"/>
    </comp>
  </station>
  <station code="IMMV" name="IMMV" netid="HL" insttype="120" commtype="DIG" lat="35.4606" lon="23.9811">
    <comp name="--.HHZ">
      <acc value="0.0532403618" flag="0"/>
      <vel value="0.0141592993" flag="0"/>
      <psa03 value="0.0510019464" flag="0"/>
      <psa10 value="0.0038622583" flag="0"/>
      <psa30 value="0.0003333785" flag="0"/>
    </comp>
    <comp name="--.HHN">
      <acc value="0.0726960876" flag="0"/>
      <vel value="0.0184282870" flag="0"/>
      <psa03 value="0.0670089259" flag="0"/>
      <psa10 value="0.0080557340" flag="0"/>
      <psa30 value="0.0004603793" flag="0"/>
    </comp>
    <comp name="--.HHE">
      <acc value="0.0840730223" flag="0"/>
      <vel value="0.0252253658" flag="0"/>
      <psa03 value="0.1292908665" flag="0"/>
      <psa10 value="0.0123617179" flag="0"/>
      <psa30 value="0.0007101893" flag="0"/>
    </comp>
  </station>
  <station code="SIVA" name="SIVA" netid="HL" insttype="60" commtype="DIG" lat="35.0178" lon="24.812">
    <comp name="--.HHN">
      <acc value="0.0162706077" flag="0"/>
      <vel value="0.0070479794" flag="0"/>
      <psa03 value="0.0249165989" flag="0"/>
      <psa10 value="0.0096948634" flag="0"/>
      <psa30 value="0.0006181617" flag="0"/>
    </comp>
    <comp name="--.HHE">
      <acc value="0.0162238344" flag="0"/>
      <vel value="0.0100455797" flag="0"/>
      <psa03 value="0.0489167225" flag="0"/>
      <psa10 value="0.0166542203" flag="0"/>
      <psa30 value="0.0007370797" flag="0"/>
    </comp>
    <comp name="--.HHZ">
      <acc value="0.0092181963" flag="0"/>
      <vel value="0.0047724294" flag="0"/>
      <psa03 value="0.0232127353" flag="0"/>
      <psa10 value="0.0068379583" flag="0"/>
      <psa30 value="0.0005683032" flag="0"/>
    </comp>
  </station>
  <station code="IDI" name="IDI" netid="MN" insttype="" commtype="DIG" lat="35.288" lon="24.89">
    <comp name="--.HHN">
      <acc value="0.0035833189" flag="0"/>
      <vel value="0.0014914986" flag="0"/>
      <psa03 value="0.0069907522" flag="0"/>
      <psa10 value="0.0023282449" flag="0"/>
      <psa30 value="0.0002927761" flag="0"/>
    </comp>
    <comp name="--.HHZ">
      <acc value="0.0025590786" flag="0"/>
      <vel value="0.0013137792" flag="0"/>
      <psa03 value="0.0047222710" flag="0"/>
      <psa10 value="0.0016723397" flag="0"/>
      <psa30 value="0.0003052870" flag="0"/>
    </comp>
    <comp name="--.HHE">
      <acc value="0.0031631578" flag="0"/>
      <vel value="0.0020093551" flag="0"/>
      <psa03 value="0.0050763046" flag="0"/>
      <psa10 value="0.0019599964" flag="0"/>
      <psa30 value="0.0002692959" flag="0"/>
    </comp>
  </station>
</stationlist>
