<?xml version="1.0" encoding="UTF-8" standalone="yes"?>
<!DOCTYPE earthquake SYSTEM "stationlist.dtd">
<stationlist created="" xmlns="ch.ethz.sed.shakemap.usgs.xml">
  <station code="IMMV" name="IMMV" netid="GE" insttype="STS-2/N" lat="35.4606" lon="23.9811">
    <comp name="--.HHZ">
      <acc value="0.0056783982" flag="0"/>
      <vel value="0.0037279563" flag="0"/>
      <psa03 value="0.0223267854" flag="0"/>
      <psa10 value="0.0032754483" flag="0"/>
      <psa30 value="0.0004215029" flag="0"/>
    </comp>
    <comp name="--.HHE">
      <acc value="0.0081401317" flag="0"/>
      <vel value="0.0052470787" flag="0"/>
      <psa03 value="0.0239681056" flag="0"/>
      <psa10 value="0.0063147739" flag="0"/>
      <psa30 value="0.0007228914" flag="0"/>
    </comp>
    <comp name="--.HHN">
      <acc value="0.0115637949" flag="0"/>
      <vel value="0.0053849723" flag="0"/>
      <psa03 value="0.0349791415" flag="0"/>
      <psa10 value="0.0054841914" flag="0"/>
      <psa30 value="0.0004774766" flag="0"/>
    </comp>
  </station>
  <station code="KTHA" name="KTHA" netid="GE" insttype="STS-2/N" lat="36.2566" lon="23.0621">
    <comp name="--.HHN">
      <acc value="0.0094054993" flag="0"/>
      <vel value="0.0046403514" flag="0"/>
      <psa03 value="0.0160102246" flag="0"/>
      <psa10 value="0.0062279500" flag="0"/>
      <psa30 value="0.0003570309" flag="0"/>
    </comp>
    <comp name="--.HHE">
      <acc value="0.0194196077" flag="0"/>
      <vel value="0.0095631503" flag="0"/>
      <psa03 value="0.0260387935" flag="0"/>
      <psa10 value="0.0124234125" flag="0"/>
      <psa30 value="0.0007356245" flag="0"/>
    </comp>
    <comp name="--.HHZ">
      <acc value="0.0075123522" flag="0"/>
      <vel value="0.0030825313" flag="0"/>
      <psa03 value="0.0125901084" flag="0"/>
      <psa10 value="0.0048506899" flag="0"/>
      <psa30 value="0.0002883595" flag="0"/>
    </comp>
  </station>
  <station code="CHAN" name="CHAN" netid="HC" insttype="120" lat="35.5193" lon="24.0428">
    <comp name="--.HHN">
      <acc value="0.0150126834" flag="0"/>
      <vel value="0.0114510173" flag="0"/>
      <psa03 value="0.0361043319" flag="0"/>
      <psa10 value="0.0215049535" flag="0"/>
      <psa30 value="0.0018673269" flag="0"/>
    </comp>
    <comp name="--.HHZ">
      <acc value="0.0112395716" flag="0"/>
      <vel value="0.0072583536" flag="0"/>
      <psa03 value="0.0314533051" flag="0"/>
      <psa10 value="0.0090055006" flag="0"/>
      <psa30 value="0.0007576843" flag="0"/>
    </comp>
    <comp name="--.HHE">
      <acc value="0.0131547335" flag="0"/>
      <vel value="0.0081482919" flag="0"/>
      <psa03 value="0.0424104711" flag="0"/>
      <psa10 value="0.0176245838" flag="0"/>
      <psa30 value="0.0012242117" flag="0"/>
    </comp>
  </station>
  <station code="KNDR" name="KNDR" netid="HC" insttype="120" lat="35.2348" lon="23.6248">
    <comp name="--.HHZ">
      <acc value="0.0166873634" flag="0"/>
      <vel value="0.0078657099" flag="0"/>
      <psa03 value="0.0384285309" flag="0"/>
      <psa10 value="0.0103769246" flag="0"/>
      <psa30 value="0.0012416772" flag="0"/>
    </comp>
    <comp name="--.HHE">
      <acc value="0.0236219080" flag="0"/>
      <vel value="0.0116109221" flag="0"/>
      <psa03 value="0.0506881034" flag="0"/>
      <psa10 value="0.0305797385" flag="0"/>
      <psa30 value="0.0012313911" flag="0"/>
    </comp>
    <comp name="--.HHN">
      <acc value="0.0168739611" flag="0"/>
      <vel value="0.0146426248" flag="0"/>
      <psa03 value="0.0796098900" flag="0"/>
      <psa10 value="0.0201001977" flag="0"/>
      <psa30 value="0.0021900029" flag="0"/>
    </comp>
  </station>
  <station code="KTHR" name="KTHR" netid="HC" insttype="120s" lat="36.2447" lon="22.9939">
    <comp name="--.HHE">
      <acc value="0.0439368418" flag="0"/>
      <vel value="0.0221199189" flag="0"/>
      <psa03 value="0.1245942778" flag="0"/>
      <psa10 value="0.0099254138" flag="0"/>
      <psa30 value="0.0007067619" flag="0"/>
    </comp>
    <comp name="--.HHN">
      <acc value="0.0368309207" flag="0"/>
      <vel value="0.0213990257" flag="0"/>
      <psa03 value="0.0949300087" flag="0"/>
      <psa10 value="0.0117454645" flag="0"/>
      <psa30 value="0.0006669601" flag="0"/>
    </comp>
    <comp name="--.HHZ">
      <acc value="0.0198952670" flag="0"/>
      <vel value="0.0080357442" flag="0"/>
      <psa03 value="0.0473556885" flag="0"/>
      <psa10 value="0.0045974924" flag="0"/>
      <psa30 value="0.0003770615" flag="0"/>
    </comp>
  </station>
  <station code="ANKY" name="ANKY" netid="HL" insttype="60" lat="35.867" lon="23.3012">
    <comp name="--.HHN">
      <acc value="0.0218558149" flag="0"/>
      <vel value="0.0094266528" flag="0"/>
      <psa03 value="0.0646984275" flag="0"/>
      <psa10 value="0.0064955641" flag="0"/>
      <psa30 value="0.0005990349" flag="0"/>
    </comp>
    <comp name="--.HHZ">
      <acc value="0.0172574647" flag="0"/>
      <vel value="0.0054677408" flag="0"/>
      <psa03 value="0.0562004790" flag="0"/>
      <psa10 value="0.0043194103" flag="0"/>
      <psa30 value="0.0003225169" flag="0"/>
    </comp>
    <comp name="--.HHE">
      <acc value="0.0236512944" flag="0"/>
      <vel value="0.0097858300" flag="0"/>
      <psa03 value="0.0623728920" flag="0"/>
      <psa10 value="0.0078537860" flag="0"/>
      <psa30 value="0.0006572592" flag="0"/>
    </comp>
  </station>
  <station code="IMMV" name="IMMV" netid="HL" insttype="120" lat="35.4606" lon="23.9811">
    <comp name="--.HHE">
      <acc value="0.0079369485" flag="0"/>
      <vel value="0.0051984837" flag="0"/>
      <psa03 value="0.0233049787" flag="0"/>
      <psa10 value="0.0062740536" flag="0"/>
      <psa30 value="0.0007209467" flag="0"/>
    </comp>
    <comp name="--.HHZ">
      <acc value="0.0055414960" flag="0"/>
      <vel value="0.0036654145" flag="0"/>
      <psa03 value="0.0217056225" flag="0"/>
      <psa10 value="0.0032539889" flag="0"/>
      <psa30 value="0.0004190199" flag="0"/>
    </comp>
    <comp name="--.HHN">
      <acc value="0.0113056031" flag="0"/>
      <vel value="0.0053119849" flag="0"/>
      <psa03 value="0.0339405738" flag="0"/>
      <psa10 value="0.0054414628" flag="0"/>
      <psa30 value="0.0004764586" flag="0"/>
    </comp>
  </station>
  <station code="KTHA" name="KTHA" netid="HL" insttype="120" lat="36.2566" lon="23.0621">
    <comp name="--.HHE">
      <acc value="0.0189532949" flag="0"/>
      <vel value="0.0094775039" flag="0"/>
      <psa03 value="0.0254996228" flag="0"/>
      <psa10 value="0.0123494145" flag="0"/>
      <psa30 value="0.0007298253" flag="0"/>
    </comp>
    <comp name="--.HHZ">
      <acc value="0.0072282861" flag="0"/>
      <vel value="0.0029842264" flag="0"/>
      <psa03 value="0.0122873102" flag="0"/>
      <psa10 value="0.0048295343" flag="0"/>
      <psa30 value="0.0002874044" flag="0"/>
    </comp>
    <comp name="--.HHN">
      <acc value="0.0090193894" flag="0"/>
      <vel value="0.0045739579" flag="0"/>
      <psa03 value="0.0156839339" flag="0"/>
      <psa10 value="0.0061941078" flag="0"/>
      <psa30 value="0.0003562875" flag="0"/>
    </comp>
  </station>
</stationlist>
