<?xml version="1.0" encoding="UTF-8" standalone="yes"?>
<!DOCTYPE earthquake SYSTEM "stationlist.dtd">
<stationlist created="" xmlns="ch.ethz.sed.shakemap.usgs.xml">
  <station code="APE" name="APE" netid="GE" insttype="STS-2/N" lat="37.0727" lon="25.523">
    <comp name="--.HHN">
      <acc value="0.0952213306" flag="0"/>
      <vel value="0.0173902874" flag="0"/>
      <psa03 value="0.0584033467" flag="0"/>
      <psa10 value="0.0062736881" flag="0"/>
      <psa30 value="0.0010593978" flag="0"/>
    </comp>
    <comp name="--.HHE">
      <acc value="0.1051158058" flag="0"/>
      <vel value="0.0175181199" flag="0"/>
      <psa03 value="0.0697377098" flag="0"/>
      <psa10 value="0.0064818180" flag="0"/>
      <psa30 value="0.0014510583" flag="0"/>
    </comp>
    <comp name="--.HHZ">
      <acc value="0.0427759739" flag="0"/>
      <vel value="0.0097340958" flag="0"/>
      <psa03 value="0.0410067918" flag="0"/>
      <psa10 value="0.0050929187" flag="0"/>
      <psa30 value="0.0012058833" flag="0"/>
    </comp>
  </station>
  <station code="THERA" name="THERA" netid="GE" insttype="STS-2/N" lat="36.367" lon="25.4753">
    <comp name="--.HHN">
      <acc value="0.1724704062" flag="0"/>
      <vel value="0.0393757019" flag="0"/>
      <psa03 value="0.3248113459" flag="0"/>
      <psa10 value="0.0114901343" flag="0"/>
      <psa30 value="0.0012543821" flag="0"/>
    </comp>
    <comp name="--.HHZ">
      <acc value="0.1709350553" flag="0"/>
      <vel value="0.0485540118" flag="0"/>
      <psa03 value="0.2196652954" flag="0"/>
      <psa10 value="0.0259834808" flag="0"/>
      <psa30 value="0.0020002567" flag="0"/>
    </comp>
    <comp name="--.HHE">
      <acc value="0.2322429472" flag="0"/>
      <vel value="0.0664010081" flag="0"/>
      <psa03 value="0.5134705372" flag="0"/>
      <psa10 value="0.0161415672" flag="0"/>
      <psa30 value="0.0021211563" flag="0"/>
    </comp>
  </station>
  <station code="NAX1" name="NAX1" netid="HI" insttype="CMG-5TD,ACCELEROMETER,GURALP" lat="37.1014" lon="25.3741">
    <comp name="--.HNE">
      <acc value="0.0833694865" flag="0"/>
      <vel value="0.0168211221" flag="0"/>
      <psa03 value="0.0761419034" flag="0"/>
      <psa10 value="0.0065434714" flag="0"/>
      <psa30 value="0.0006407567" flag="0"/>
    </comp>
    <comp name="--.HNN">
      <acc value="0.0904524688" flag="0"/>
      <vel value="0.0152600060" flag="0"/>
      <psa03 value="0.0379224413" flag="0"/>
      <psa10 value="0.0042896160" flag="0"/>
      <psa30 value="0.0006460161" flag="0"/>
    </comp>
    <comp name="--.HNZ">
      <acc value="0.0633601830" flag="0"/>
      <vel value="0.0105693974" flag="0"/>
      <psa03 value="0.0392205213" flag="0"/>
      <psa10 value="0.0052086265" flag="0"/>
      <psa30 value="0.0008895040" flag="0"/>
    </comp>
  </station>
  <station code="APE" name="APE" netid="HL" insttype="120" lat="37.0727" lon="25.523">
    <comp name="--.HHN">
      <acc value="0.0902870845" flag="0"/>
      <vel value="0.0163829338" flag="0"/>
      <psa03 value="0.0567492240" flag="0"/>
      <psa10 value="0.0061552528" flag="0"/>
      <psa30 value="0.0010564804" flag="0"/>
    </comp>
    <comp name="--.HHZ">
      <acc value="0.0385058197" flag="0"/>
      <vel value="0.0094364761" flag="0"/>
      <psa03 value="0.0398771350" flag="0"/>
      <psa10 value="0.0050406908" flag="0"/>
      <psa30 value="0.0012022603" flag="0"/>
    </comp>
    <comp name="--.HHE">
      <acc value="0.0972381271" flag="0"/>
      <vel value="0.0161890192" flag="0"/>
      <psa03 value="0.0674015984" flag="0"/>
      <psa10 value="0.0064064995" flag="0"/>
      <psa30 value="0.0014488172" flag="0"/>
    </comp>
  </station>
  <station code="MHLO" name="MHLO" netid="HL" insttype="20" lat="36.6898" lon="24.4017">
    <comp name="--.HHE">
      <acc value="0.0924584537" flag="0"/>
      <vel value="0.0304687209" flag="0"/>
      <psa03 value="0.2671164391" flag="0"/>
      <psa10 value="0.0357665586" flag="0"/>
      <psa30 value="0.0024111798" flag="0"/>
    </comp>
    <comp name="--.HHZ">
      <acc value="0.0287430609" flag="0"/>
      <vel value="0.0149035997" flag="0"/>
      <psa03 value="0.0898396608" flag="0"/>
      <psa10 value="0.0188710174" flag="0"/>
      <psa30 value="0.0013801297" flag="0"/>
    </comp>
    <comp name="--.HHN">
      <acc value="0.0941501076" flag="0"/>
      <vel value="0.0427651383" flag="0"/>
      <psa03 value="0.3525569676" flag="0"/>
      <psa10 value="0.0338912669" flag="0"/>
      <psa30 value="0.0018988096" flag="0"/>
    </comp>
  </station>
  <station code="SAP3" name="SAP3" netid="HL" insttype="LE3D20_SMART24" lat="36.4356" lon="25.3454">
    <comp name="--.HHN">
      <acc value="0.5224492819" flag="0"/>
      <vel value="0.1440643245" flag="0"/>
      <psa03 value="0.5734095942" flag="0"/>
      <psa10 value="0.0653832657" flag="0"/>
      <psa30 value="0.0093282184" flag="0"/>
    </comp>
    <comp name="--.HHE">
      <acc value="0.6035613988" flag="0"/>
      <vel value="0.1561630289" flag="0"/>
      <psa03 value="0.7117549843" flag="0"/>
      <psa10 value="0.1213799728" flag="0"/>
      <psa30 value="0.0114963369" flag="0"/>
    </comp>
    <comp name="--.HHZ">
      <acc value="0.4554668343" flag="0"/>
      <vel value="0.1195555401" flag="0"/>
      <psa03 value="0.5517239028" flag="0"/>
      <psa10 value="0.0538362955" flag="0"/>
      <psa30 value="0.0037631060" flag="0"/>
    </comp>
  </station>
  <station code="THERA" name="THERA" netid="HL" insttype="120" lat="36.367" lon="25.4753">
    <comp name="--.HHZ">
      <acc value="0.1680051803" flag="0"/>
      <vel value="0.0477666332" flag="0"/>
      <psa03 value="0.2142303115" flag="0"/>
      <psa10 value="0.0256573249" flag="0"/>
      <psa30 value="0.0020004560" flag="0"/>
    </comp>
    <comp name="--.HHN">
      <acc value="0.1730497885" flag="0"/>
      <vel value="0.0384841535" flag="0"/>
      <psa03 value="0.3158141615" flag="0"/>
      <psa10 value="0.0113046208" flag="0"/>
      <psa30 value="0.0012538637" flag="0"/>
    </comp>
    <comp name="--.HHE">
      <acc value="0.2347744673" flag="0"/>
      <vel value="0.0650416312" flag="0"/>
      <psa03 value="0.4988448137" flag="0"/>
      <psa10 value="0.0156202084" flag="0"/>
      <psa30 value="0.0020981167" flag="0"/>
    </comp>
  </station>
  <station code="THRA" name="THRA" netid="HL" insttype="CMG-5" lat="36.415" lon="25.4324">
    <comp name="00.HNE">
      <acc value="0.5711742812" flag="0"/>
      <vel value="0.2108416797" flag="0"/>
      <psa03 value="1.0107952371" flag="0"/>
      <psa10 value="0.0772801161" flag="0"/>
      <psa30 value="0.0087446622" flag="0"/>
    </comp>
    <comp name="00.HNN">
      <acc value="0.5097975548" flag="0"/>
      <vel value="0.2362507302" flag="0"/>
      <psa03 value="1.0032724751" flag="0"/>
      <psa10 value="0.2373417532" flag="0"/>
      <psa30 value="0.0079663264" flag="0"/>
    </comp>
    <comp name="00.HNZ">
      <acc value="0.4124976654" flag="0"/>
      <vel value="0.1358414237" flag="0"/>
      <psa03 value="0.6332055749" flag="0"/>
      <psa10 value="0.0546557257" flag="0"/>
      <psa30 value="0.0047863188" flag="0"/>
    </comp>
  </station>
  <station code="CMBO" name="CMBO" netid="HT" insttype="120P," lat="36.4709" lon="25.4056">
    <comp name="--.HHE">
      <acc value="0.6483638467" flag="0"/>
      <vel value="0.1710713386" flag="0"/>
      <psa03 value="0.7734682941" flag="0"/>
      <psa10 value="0.1016232086" flag="0"/>
      <psa30 value="0.0089413709" flag="0"/>
    </comp>
    <comp name="--.HHN">
      <acc value="0.8856990934" flag="0"/>
      <vel value="0.1955849255" flag="0"/>
      <psa03 value="0.8564265969" flag="0"/>
      <psa10 value="0.1278329333" flag="0"/>
      <psa30 value="0.0077878794" flag="0"/>
    </comp>
    <comp name="--.HHZ">
      <acc value="0.7542378542" flag="0"/>
      <vel value="0.2023762009" flag="0"/>
      <psa03 value="0.9587788176" flag="0"/>
      <psa10 value="0.0438748117" flag="0"/>
      <psa30 value="0.0066587396" flag="0"/>
    </comp>
  </station>
</stationlist>
