<?xml version="1.0" encoding="UTF-8" standalone="yes"?>
<!DOCTYPE earthquake SYSTEM "stationlist.dtd">
<stationlist created="" xmlns="ch.ethz.sed.shakemap.usgs.xml">
  <station code="APE" name="APE" netid="GE" insttype="STS-2/N" lat="37.0727" lon="25.523">
    <comp name="--.HHN">
      <acc value="0.0952213306" flag="0"/>
      <vel value="0.0173902874" flag="0"/>
      <psa03 value="0.0584033467" flag="0"/>
      <psa10 value="0.0062736881" flag="0"/>
      <psa30 value="0.0010593978" flag="0"/>
    </comp>
    <comp name="--.HHE">
      <acc value="0.1051158058" flag="0"/>
      <vel value="0.0175181199" flag="0"/>
      <psa03 value="0.0697377098" flag="0"/>
      <psa10 value="0.0064818180" flag="0"/>
      <psa30 value="0.0014510583" flag="0"/>
    </comp>
    <comp name="--.HHZ">
      <acc value="0.0427759739" flag="0"/>
      <vel value="0.0097340958" flag="0"/>
      <psa03 value="0.0410067918" flag="0"/>
      <psa10 value="0.0050929187" flag="0"/>
      <psa30 value="0.0012058833" flag="0"/>
    </comp>
  </station>
  <station code="THERA" name="THERA" netid="GE" insttype="STS-2/N" lat="36.367" lon="25.4753">
    <comp name="--.HHN">
      <acc value="0.1724704062" flag="0"/>
      <vel value="0.0393757019" flag="0"/>
      <psa03 value="0.3248113459" flag="0"/>
      <psa10 value="0.0114901343" flag="0"/>
      <psa30 value="0.0012543821" flag="0"/>
    </comp>
    <comp name="--.HHZ">
      <acc value="0.1709350553" flag="0"/>
      <vel value="0.0485540118" flag="0"/>
      <psa03 value="0.2196652954" flag="0"/>
      <psa10 value="0.0259834808" flag="0"/>
      <psa30 value="0.0020002567" flag="0"/>
    </comp>
    <comp name="--.HHE">
      <acc value="0.2322429472" flag="0"/>
      <vel value="0.0664010081" flag="0"/>
      <psa03 value="0.5134705372" flag="0"/>
      <psa10 value="0.0161415672" flag="0"/>
      <psa30 value="0.0021211563" flag="0"/>
    </comp>
  </station>
</stationlist>
