<?xml version="1.0" encoding="UTF-8" standalone="yes"?>
<!DOCTYPE earthquake SYSTEM "stationlist.dtd">
<stationlist created="" xmlns="ch.ethz.sed.shakemap.usgs.xml">
  <station code="SMG" name="SMG" netid="HL" insttype="120" lat="37.7043" lon="26.8377">
    <comp name="--.HHZ">
      <acc value="0.0508513375" flag="0"/>
      <vel value="0.0139794228" flag="0"/>
      <psa03 value="0.0554089009" flag="0"/>
      <psa10 value="0.0029378861" flag="0"/>
      <psa30 value="0.0003569542" flag="0"/>
    </comp>
    <comp name="--.HHN">
      <acc value="0.0823279494" flag="0"/>
      <vel value="0.0305768853" flag="0"/>
      <psa03 value="0.1525850588" flag="0"/>
      <psa10 value="0.0104307981" flag="0"/>
      <psa30 value="0.0008800676" flag="0"/>
    </comp>
    <comp name="--.HHE">
      <acc value="0.0760886647" flag="0"/>
      <vel value="0.0199422999" flag="0"/>
      <psa03 value="0.1159802581" flag="0"/>
      <psa10 value="0.0065156876" flag="0"/>
      <psa30 value="0.0006784730" flag="0"/>
    </comp>
  </station>
</stationlist>
