<?xml version="1.0" encoding="UTF-8" standalone="yes"?>
<!DOCTYPE earthquake SYSTEM "stationlist.dtd">
<stationlist created="" xmlns="ch.ethz.sed.shakemap.usgs.xml">
  <station code="MAIM" name="MAIM" netid="GU" insttype="" lat="43.9142" lon="10.4915">
    <comp name="--.HHE">
      <acc value="0.0029678959" flag="0"/>
      <vel value="0.0011375831" flag="0"/>
      <psa03 value="0.0071509996" flag="0"/>
      <psa10 value="0.0022277528" flag="0"/>
      <psa30 value="0.0001991185" flag="0"/>
    </comp>
    <comp name="--.HHN">
      <acc value="0.0029020286" flag="0"/>
      <vel value="0.0015644546" flag="0"/>
      <psa03 value="0.0092493705" flag="0"/>
      <psa10 value="0.0016515601" flag="0"/>
      <psa30 value="0.0001919010" flag="0"/>
    </comp>
    <comp name="--.HHZ">
      <acc value="0.0025313054" flag="0"/>
      <vel value="0.0015429905" flag="0"/>
      <psa03 value="0.0063812258" flag="0"/>
      <psa10 value="0.0012591832" flag="0"/>
      <psa30 value="0.0001774745" flag="0"/>
    </comp>
  </station>
  <station code="POPM" name="POPM" netid="GU" insttype="" lat="44.045" lon="10.757">
    <comp name="--.HHE">
      <acc value="0.0042280339" flag="0"/>
      <vel value="0.0022030315" flag="0"/>
      <psa03 value="0.0137885196" flag="0"/>
      <psa10 value="0.0030362120" flag="0"/>
      <psa30 value="0.0002273700" flag="0"/>
    </comp>
    <comp name="--.HHN">
      <acc value="0.0074022901" flag="0"/>
      <vel value="0.0027502929" flag="0"/>
      <psa03 value="0.0125103536" flag="0"/>
      <psa10 value="0.0030508362" flag="0"/>
      <psa30 value="0.0001737645" flag="0"/>
    </comp>
    <comp name="--.HHZ">
      <acc value="0.0047770507" flag="0"/>
      <vel value="0.0012782159" flag="0"/>
      <psa03 value="0.0056671566" flag="0"/>
      <psa10 value="0.0029019217" flag="0"/>
      <psa30 value="0.0001850339" flag="0"/>
    </comp>
  </station>
  <station code="ARCI" name="ARCI" netid="IV" insttype="" lat="42.8519" lon="11.4754">
    <comp name="--.HHE">
      <acc value="0.0501543550" flag="0"/>
      <vel value="0.0174777296" flag="0"/>
      <psa03 value="0.0342121513" flag="0"/>
      <psa10 value="0.0183881730" flag="0"/>
      <psa30 value="0.0007958652" flag="0"/>
    </comp>
    <comp name="--.HHN">
      <acc value="0.0568144981" flag="0"/>
      <vel value="0.0121460522" flag="0"/>
      <psa03 value="0.0421460006" flag="0"/>
      <psa10 value="0.0081631509" flag="0"/>
      <psa30 value="0.0006397264" flag="0"/>
    </comp>
    <comp name="--.HHZ">
      <acc value="0.0280288487" flag="0"/>
      <vel value="0.0064874623" flag="0"/>
      <psa03 value="0.0235342123" flag="0"/>
      <psa10 value="0.0058493458" flag="0"/>
      <psa30 value="0.0003177553" flag="0"/>
    </comp>
  </station>
  <station code="ATMI" name="ATMI" netid="IV" insttype="" lat="43.3342" lon="12.268">
    <comp name="--.HHE">
      <acc value="0.0198399082" flag="0"/>
      <vel value="0.0100396039" flag="0"/>
      <psa03 value="0.0340034517" flag="0"/>
      <psa10 value="0.0141823924" flag="0"/>
      <psa30 value="0.0010711732" flag="0"/>
    </comp>
    <comp name="--.HHN">
      <acc value="0.0148417446" flag="0"/>
      <vel value="0.0107047308" flag="0"/>
      <psa03 value="0.0314133840" flag="0"/>
      <psa10 value="0.0183384773" flag="0"/>
      <psa30 value="0.0011318351" flag="0"/>
    </comp>
    <comp name="--.HHZ">
      <acc value="0.0090107279" flag="0"/>
      <vel value="0.0060540918" flag="0"/>
      <psa03 value="0.0165601608" flag="0"/>
      <psa10 value="0.0127690040" flag="0"/>
      <psa30 value="0.0006430846" flag="0"/>
    </comp>
  </station>
  <station code="BDI" name="BDI" netid="IV" insttype="" lat="44.0624" lon="10.597">
    <comp name="--.HHE">
      <acc value="0.0039482426" flag="0"/>
      <vel value="0.0022435966" flag="0"/>
      <psa03 value="0.0093460528" flag="0"/>
      <psa10 value="0.0030373701" flag="0"/>
      <psa30 value="0.0002269596" flag="0"/>
    </comp>
    <comp name="--.HHZ">
      <acc value="0.0030314050" flag="0"/>
      <vel value="0.0012886710" flag="0"/>
      <psa03 value="0.0059326795" flag="0"/>
      <psa10 value="0.0014552247" flag="0"/>
      <psa30 value="0.0001801625" flag="0"/>
    </comp>
    <comp name="--.HHN">
      <acc value="0.0033821597" flag="0"/>
      <vel value="0.0021770098" flag="0"/>
      <psa03 value="0.0080345285" flag="0"/>
      <psa10 value="0.0045745679" flag="0"/>
      <psa30 value="0.0002966137" flag="0"/>
    </comp>
  </station>
  <station code="BOSL" name="BOSL" netid="IV" insttype="" lat="43.931" lon="11.3743">
    <comp name="--.HHN">
      <acc value="0.0094754387" flag="0"/>
      <vel value="0.0032183221" flag="0"/>
      <psa03 value="0.0077597522" flag="0"/>
      <psa10 value="0.0023147423" flag="0"/>
      <psa30 value="0.0001625401" flag="0"/>
    </comp>
    <comp name="--.HHZ">
      <acc value="0.0055087565" flag="0"/>
      <vel value="0.0018037930" flag="0"/>
      <psa03 value="0.0077204746" flag="0"/>
      <psa10 value="0.0020715776" flag="0"/>
      <psa30 value="0.0001348419" flag="0"/>
    </comp>
    <comp name="--.HHE">
      <acc value="0.0099580583" flag="0"/>
      <vel value="0.0048688252" flag="0"/>
      <psa03 value="0.0192916329" flag="0"/>
      <psa10 value="0.0044379352" flag="0"/>
      <psa30 value="0.0003074636" flag="0"/>
    </comp>
  </station>
  <station code="CAFI" name="CAFI" netid="IV" insttype="" lat="43.3292" lon="11.9663">
    <comp name="--.HHE">
      <acc value="0.0125019576" flag="0"/>
      <vel value="0.0055256954" flag="0"/>
      <psa03 value="0.0221429552" flag="0"/>
      <psa10 value="0.0057418368" flag="0"/>
      <psa30 value="0.0005052617" flag="0"/>
    </comp>
    <comp name="--.HHN">
      <acc value="0.0180032692" flag="0"/>
      <vel value="0.0075649908" flag="0"/>
      <psa03 value="0.0128743652" flag="0"/>
      <psa10 value="0.0110005388" flag="0"/>
      <psa30 value="0.0011438837" flag="0"/>
    </comp>
    <comp name="--.HHZ">
      <acc value="0.0095577010" flag="0"/>
      <vel value="0.0048747739" flag="0"/>
      <psa03 value="0.0117389709" flag="0"/>
      <psa10 value="0.0058493310" flag="0"/>
      <psa30 value="0.0004241766" flag="0"/>
    </comp>
  </station>
  <station code="CASP" name="CASP" netid="IV" insttype="" lat="42.7908" lon="10.8652">
    <comp name="--.HHE">
      <acc value="0.0153760145" flag="0"/>
      <vel value="0.0071148070" flag="0"/>
      <psa03 value="0.0245791689" flag="0"/>
      <psa10 value="0.0055268511" flag="0"/>
      <psa30 value="0.0002580197" flag="0"/>
    </comp>
    <comp name="--.HHN">
      <acc value="0.0161438058" flag="0"/>
      <vel value="0.0061683876" flag="0"/>
      <psa03 value="0.0485567416" flag="0"/>
      <psa10 value="0.0033517106" flag="0"/>
      <psa30 value="0.0001851181" flag="0"/>
    </comp>
    <comp name="--.HHZ">
      <acc value="0.0226459165" flag="0"/>
      <vel value="0.0067950432" flag="0"/>
      <psa03 value="0.0191793559" flag="0"/>
      <psa10 value="0.0033634066" flag="0"/>
      <psa30 value="0.0002070449" flag="0"/>
    </comp>
  </station>
  <station code="CELB" name="CELB" netid="IV" insttype="" lat="42.7466" lon="10.2107">
    <comp name="--.HHN">
      <acc value="0.0167901918" flag="0"/>
      <vel value="0.0029158086" flag="0"/>
      <psa03 value="0.0100889277" flag="0"/>
      <psa10 value="0.0033855462" flag="0"/>
      <psa30 value="0.0002332612" flag="0"/>
    </comp>
    <comp name="--.HHE">
      <acc value="0.0301084325" flag="0"/>
      <vel value="0.0029484166" flag="0"/>
      <psa03 value="0.0057435479" flag="0"/>
      <psa10 value="0.0019347985" flag="0"/>
      <psa30 value="0.0001551265" flag="0"/>
    </comp>
    <comp name="--.HHZ">
      <acc value="0.0187157276" flag="0"/>
      <vel value="0.0018069521" flag="0"/>
      <psa03 value="0.0051107786" flag="0"/>
      <psa10 value="0.0016431488" flag="0"/>
      <psa30 value="0.0001094135" flag="0"/>
    </comp>
  </station>
  <station code="CRE" name="CRE" netid="IV" insttype="" lat="43.6189" lon="11.9517">
    <comp name="--.HHE">
      <acc value="0.0139877612" flag="0"/>
      <vel value="0.0094885422" flag="0"/>
      <psa03 value="0.0208522575" flag="0"/>
      <psa10 value="0.0128669897" flag="0"/>
      <psa30 value="0.0007467679" flag="0"/>
    </comp>
    <comp name="--.HHN">
      <acc value="0.0168761396" flag="0"/>
      <vel value="0.0089429321" flag="0"/>
      <psa03 value="0.0222898347" flag="0"/>
      <psa10 value="0.0244318207" flag="0"/>
      <psa30 value="0.0007650928" flag="0"/>
    </comp>
    <comp name="--.HHZ">
      <acc value="0.0103901654" flag="0"/>
      <vel value="0.0068528689" flag="0"/>
      <psa03 value="0.0157094989" flag="0"/>
      <psa10 value="0.0126467821" flag="0"/>
      <psa30 value="0.0006922698" flag="0"/>
    </comp>
  </station>
  <station code="CSNT" name="CSNT" netid="IV" insttype="" lat="43.4731" lon="11.2902">
    <comp name="--.HHE">
      <acc value="0.3786395955" flag="0"/>
      <vel value="0.0929081478" flag="0"/>
      <psa03 value="0.2723413733" flag="0"/>
      <psa10 value="0.0540515213" flag="0"/>
      <psa30 value="0.0051396276" flag="0"/>
    </comp>
    <comp name="--.HHZ">
      <acc value="0.2211964071" flag="0"/>
      <vel value="0.0472635279" flag="0"/>
      <psa03 value="0.1388637182" flag="0"/>
      <psa10 value="0.0278646761" flag="0"/>
      <psa30 value="0.0019771546" flag="0"/>
    </comp>
    <comp name="--.HHN">
      <acc value="0.3266722557" flag="0"/>
      <vel value="0.0687501985" flag="0"/>
      <psa03 value="0.2058174633" flag="0"/>
      <psa10 value="0.0316812563" flag="0"/>
      <psa30 value="0.0025290946" flag="0"/>
    </comp>
  </station>
  <station code="FNVD" name="FNVD" netid="IV" insttype="" lat="44.1678" lon="11.1229">
    <comp name="--.HHN">
      <acc value="0.0058248629" flag="0"/>
      <vel value="0.0036733689" flag="0"/>
      <psa03 value="0.0092063669" flag="0"/>
      <psa10 value="0.0054013067" flag="0"/>
      <psa30 value="0.0005158800" flag="0"/>
    </comp>
    <comp name="--.HHZ">
      <acc value="0.0027987922" flag="0"/>
      <vel value="0.0020775260" flag="0"/>
      <psa03 value="0.0064145113" flag="0"/>
      <psa10 value="0.0041649123" flag="0"/>
      <psa30 value="0.0002756577" flag="0"/>
    </comp>
    <comp name="--.HHE">
      <acc value="0.0033594667" flag="0"/>
      <vel value="0.0025504556" flag="0"/>
      <psa03 value="0.0076320891" flag="0"/>
      <psa10 value="0.0028441661" flag="0"/>
      <psa30 value="0.0003947965" flag="0"/>
    </comp>
  </station>
  <station code="LMD" name="LMD" netid="IV" insttype="" lat="44.0775" lon="11.7073">
    <comp name="--.HHE">
      <acc value="0.0068500241" flag="0"/>
      <vel value="0.0027236235" flag="0"/>
      <psa03 value="0.0080769503" flag="0"/>
      <psa10 value="0.0033680398" flag="0"/>
      <psa30 value="0.0003834874" flag="0"/>
    </comp>
    <comp name="--.HHN">
      <acc value="0.0043962526" flag="0"/>
      <vel value="0.0025108925" flag="0"/>
      <psa03 value="0.0087956180" flag="0"/>
      <psa10 value="0.0029621949" flag="0"/>
      <psa30 value="0.0002750825" flag="0"/>
    </comp>
    <comp name="--.HHZ">
      <acc value="0.0025396810" flag="0"/>
      <vel value="0.0016665282" flag="0"/>
      <psa03 value="0.0041542512" flag="0"/>
      <psa10 value="0.0021964645" flag="0"/>
      <psa30 value="0.0004649765" flag="0"/>
    </comp>
  </station>
  <station code="MGAB" name="MGAB" netid="IV" insttype="" lat="42.9126" lon="12.1121">
    <comp name="--.HHE">
      <acc value="0.0060697935" flag="0"/>
      <vel value="0.0029228565" flag="0"/>
      <psa03 value="0.0102961879" flag="0"/>
      <psa10 value="0.0034168713" flag="0"/>
      <psa30 value="0.0003227250" flag="0"/>
    </comp>
    <comp name="--.HHN">
      <acc value="0.0097245780" flag="0"/>
      <vel value="0.0031099644" flag="0"/>
      <psa03 value="0.0130463866" flag="0"/>
      <psa10 value="0.0049342532" flag="0"/>
      <psa30 value="0.0002903545" flag="0"/>
    </comp>
    <comp name="--.HHZ">
      <acc value="0.0044032966" flag="0"/>
      <vel value="0.0017164576" flag="0"/>
      <psa03 value="0.0071243320" flag="0"/>
      <psa10 value="0.0017679332" flag="0"/>
      <psa30 value="0.0002852146" flag="0"/>
    </comp>
  </station>
  <station code="OSSC" name="OSSC" netid="IV" insttype="" lat="43.5236" lon="11.2458">
    <comp name="--.HHE">
      <acc value="0.2463279993" flag="0"/>
      <vel value="0.0553242517" flag="0"/>
      <psa03 value="0.2153527326" flag="0"/>
      <psa10 value="0.0365378923" flag="0"/>
      <psa30 value="0.0034694778" flag="0"/>
    </comp>
    <comp name="--.HHN">
      <acc value="0.2148221845" flag="0"/>
      <vel value="0.0584121606" flag="0"/>
      <psa03 value="0.1703692361" flag="0"/>
      <psa10 value="0.0347652798" flag="0"/>
      <psa30 value="0.0024974955" flag="0"/>
    </comp>
    <comp name="--.HHZ">
      <acc value="0.1329128317" flag="0"/>
      <vel value="0.0444712879" flag="0"/>
      <psa03 value="0.0989598180" flag="0"/>
      <psa10 value="0.0322005264" flag="0"/>
      <psa30 value="0.0015964683" flag="0"/>
    </comp>
  </station>
  <station code="PII" name="PII" netid="IV" insttype="" lat="43.7219" lon="10.525">
    <comp name="--.HHE">
      <acc value="0.0125402425" flag="0"/>
      <vel value="0.0058086018" flag="0"/>
      <psa03 value="0.0405132597" flag="0"/>
      <psa10 value="0.0034747296" flag="0"/>
      <psa30 value="0.0002795239" flag="0"/>
    </comp>
    <comp name="--.HHN">
      <acc value="0.0124560207" flag="0"/>
      <vel value="0.0053826496" flag="0"/>
      <psa03 value="0.0527409365" flag="0"/>
      <psa10 value="0.0027967929" flag="0"/>
      <psa30 value="0.0002929617" flag="0"/>
    </comp>
    <comp name="--.HHZ">
      <acc value="0.0108267596" flag="0"/>
      <vel value="0.0037196411" flag="0"/>
      <psa03 value="0.0182754069" flag="0"/>
      <psa10 value="0.0020085105" flag="0"/>
      <psa30 value="0.0001620248" flag="0"/>
    </comp>
  </station>
  <station code="SACS" name="SACS" netid="IV" insttype="" lat="42.8491" lon="11.9097">
    <comp name="--.HHE">
      <acc value="0.0038799654" flag="0"/>
      <vel value="0.0016647965" flag="0"/>
      <psa03 value="0.0075192625" flag="0"/>
      <psa10 value="0.0028396457" flag="0"/>
      <psa30 value="0.0005504962" flag="0"/>
    </comp>
    <comp name="--.HHZ">
      <acc value="0.0053826388" flag="0"/>
      <vel value="0.0012461025" flag="0"/>
      <psa03 value="0.0037930691" flag="0"/>
      <psa10 value="0.0023969283" flag="0"/>
      <psa30 value="0.0004507546" flag="0"/>
    </comp>
    <comp name="--.HHN">
      <acc value="0.0051743844" flag="0"/>
      <vel value="0.0017765741" flag="0"/>
      <psa03 value="0.0066461972" flag="0"/>
      <psa10 value="0.0040669849" flag="0"/>
      <psa30 value="0.0005331617" flag="0"/>
    </comp>
  </station>
  <station code="SEI" name="SEI" netid="IV" insttype="" lat="44.0543" lon="11.3585">
    <comp name="--.HHE">
      <acc value="0.0143480353" flag="0"/>
      <vel value="0.0067982407" flag="0"/>
      <psa03 value="0.0328431386" flag="0"/>
      <psa10 value="0.0083901575" flag="0"/>
      <psa30 value="0.0006227156" flag="0"/>
    </comp>
    <comp name="--.HHN">
      <acc value="0.0322643527" flag="0"/>
      <vel value="0.0173767203" flag="0"/>
      <psa03 value="0.0783114700" flag="0"/>
      <psa10 value="0.0095748237" flag="0"/>
      <psa30 value="0.0009173118" flag="0"/>
    </comp>
    <comp name="--.HHZ">
      <acc value="0.0129216222" flag="0"/>
      <vel value="0.0058509340" flag="0"/>
      <psa03 value="0.0431191388" flag="0"/>
      <psa10 value="0.0057317903" flag="0"/>
      <psa30 value="0.0005711918" flag="0"/>
    </comp>
  </station>
  <station code="VMGN" name="VMGN" netid="IV" insttype="" lat="43.9545" lon="11.5327">
    <comp name="--.HHN">
      <acc value="0.0033904896" flag="0"/>
      <vel value="0.0032630014" flag="0"/>
      <psa03 value="0.0077968278" flag="0"/>
      <psa10 value="0.0082160297" flag="0"/>
      <psa30 value="0.0003961551" flag="0"/>
    </comp>
    <comp name="--.HHZ">
      <acc value="0.0028929405" flag="0"/>
      <vel value="0.0025169726" flag="0"/>
      <psa03 value="0.0053148429" flag="0"/>
      <psa10 value="0.0034806401" flag="0"/>
      <psa30 value="0.0003075796" flag="0"/>
    </comp>
    <comp name="--.HHE">
      <acc value="0.0040018370" flag="0"/>
      <vel value="0.0030295051" flag="0"/>
      <psa03 value="0.0059297083" flag="0"/>
      <psa10 value="0.0048393147" flag="0"/>
      <psa30 value="0.0006492204" flag="0"/>
    </comp>
  </station>
</stationlist>
