<?xml version="1.0" encoding="UTF-8" standalone="yes"?>
<!DOCTYPE earthquake SYSTEM "stationlist.dtd">
<stationlist created="" xmlns="ch.ethz.sed.shakemap.usgs.xml">
  <station code="AKMS" name="AKMS" netid="CQ" insttype="Trillium120P" lat="35.018" lon="32.335">
    <comp name="--.HHE">
      <acc value="0.1772431463" flag="0"/>
      <vel value="0.0653671809" flag="0"/>
      <psa03 value="0.2439973251" flag="0"/>
      <psa10 value="0.0326943516" flag="0"/>
      <psa30 value="0.0035740057" flag="0"/>
    </comp>
    <comp name="--.HHN">
      <acc value="0.1415306930" flag="0"/>
      <vel value="0.0465771976" flag="0"/>
      <psa03 value="0.1396879271" flag="0"/>
      <psa10 value="0.0421063925" flag="0"/>
      <psa30 value="0.0026849505" flag="0"/>
    </comp>
    <comp name="--.HHZ">
      <acc value="0.0946093074" flag="0"/>
      <vel value="0.0288506263" flag="0"/>
      <psa03 value="0.1352241279" flag="0"/>
      <psa10 value="0.0163035024" flag="0"/>
      <psa30 value="0.0013499017" flag="0"/>
    </comp>
  </station>
  <station code="ASGA" name="ASGA" netid="CQ" insttype="" lat="34.786" lon="33.248">
    <comp name="--.HHN">
      <acc value="0.0115335315" flag="0"/>
      <vel value="0.0061777348" flag="0"/>
      <psa03 value="0.0196047462" flag="0"/>
      <psa10 value="0.0087208210" flag="0"/>
      <psa30 value="0.0005677648" flag="0"/>
    </comp>
    <comp name="--.HHZ">
      <acc value="0.0103284953" flag="0"/>
      <vel value="0.0037060342" flag="0"/>
      <psa03 value="0.0155802963" flag="0"/>
      <psa10 value="0.0048359762" flag="0"/>
      <psa30 value="0.0005789882" flag="0"/>
    </comp>
    <comp name="--.HHE">
      <acc value="0.0136504529" flag="0"/>
      <vel value="0.0083526868" flag="0"/>
      <psa03 value="0.0213246783" flag="0"/>
      <psa10 value="0.0201474192" flag="0"/>
      <psa30 value="0.0006949862" flag="0"/>
    </comp>
  </station>
  <station code="ATHA" name="ATHA" netid="CQ" insttype="" lat="35.141" lon="33.396">
    <comp name="--.HHZ">
      <acc value="0.0054794012" flag="0"/>
      <vel value="0.0068186684" flag="0"/>
      <psa03 value="0.0080434695" flag="0"/>
      <psa10 value="0.0101773677" flag="0"/>
      <psa30 value="0.0010071362" flag="0"/>
    </comp>
    <comp name="--.HHE">
      <acc value="0.0085593485" flag="0"/>
      <vel value="0.0082533940" flag="0"/>
      <psa03 value="0.0182669874" flag="0"/>
      <psa10 value="0.0134788406" flag="0"/>
      <psa30 value="0.0015707394" flag="0"/>
    </comp>
    <comp name="--.HHN">
      <acc value="0.0083855578" flag="0"/>
      <vel value="0.0085661533" flag="0"/>
      <psa03 value="0.0150892247" flag="0"/>
      <psa10 value="0.0174779454" flag="0"/>
      <psa30 value="0.0011642468" flag="0"/>
    </comp>
  </station>
  <station code="NATA" name="NATA" netid="CQ" insttype="Trillium120P" lat="34.7789" lon="32.5699">
    <comp name="--.HHE">
      <acc value="0.0928344947" flag="0"/>
      <vel value="0.0642361367" flag="0"/>
      <psa03 value="0.2532160669" flag="0"/>
      <psa10 value="0.0699364014" flag="0"/>
      <psa30 value="0.0035775385" flag="0"/>
    </comp>
    <comp name="--.HHN">
      <acc value="0.0587301841" flag="0"/>
      <vel value="0.0386814864" flag="0"/>
      <psa03 value="0.1169491124" flag="0"/>
      <psa10 value="0.0528531336" flag="0"/>
      <psa30 value="0.0031381460" flag="0"/>
    </comp>
    <comp name="--.HHZ">
      <acc value="0.0532434345" flag="0"/>
      <vel value="0.0266542045" flag="0"/>
      <psa03 value="0.0784479202" flag="0"/>
      <psa10 value="0.0291206920" flag="0"/>
      <psa30 value="0.0023202909" flag="0"/>
    </comp>
  </station>
  <station code="XYLS" name="XYLS" netid="CQ" insttype="120QA" lat="35.014" lon="33.0493">
    <comp name="--.HHZ">
      <acc value="0.0129613457" flag="0"/>
      <vel value="0.0050438123" flag="0"/>
      <psa03 value="0.0147234014" flag="0"/>
      <psa10 value="0.0040717414" flag="0"/>
      <psa30 value="0.0006504988" flag="0"/>
    </comp>
  </station>
</stationlist>
