<?xml version="1.0" encoding="UTF-8" standalone="yes"?>
<!DOCTYPE earthquake SYSTEM "stationlist.dtd">
<stationlist created="" xmlns="ch.ethz.sed.shakemap.usgs.xml">
  <station code="AKMS" name="AKMS" netid="CQ" insttype="Trillium120P" lat="35.018" lon="32.335">
    <comp name="--.HHE">
      <acc value="0.1772431468" flag="0"/>
      <vel value="0.0653671813" flag="0"/>
      <psa03 value="0.2439973251" flag="0"/>
      <psa10 value="0.0326943524" flag="0"/>
      <psa30 value="0.0035734642" flag="0"/>
    </comp>
    <comp name="--.HHN">
      <acc value="0.1415306936" flag="0"/>
      <vel value="0.0465771976" flag="0"/>
      <psa03 value="0.1396879271" flag="0"/>
      <psa10 value="0.0421064002" flag="0"/>
      <psa30 value="0.0026847141" flag="0"/>
    </comp>
    <comp name="--.HHZ">
      <acc value="0.0946093069" flag="0"/>
      <vel value="0.0288506261" flag="0"/>
      <psa03 value="0.1352241279" flag="0"/>
      <psa10 value="0.0163035022" flag="0"/>
      <psa30 value="0.0013499381" flag="0"/>
    </comp>
  </station>
  <station code="ASGA" name="ASGA" netid="CQ" insttype="Trillium120P" lat="34.786" lon="33.248">
    <comp name="--.HHE">
      <acc value="0.0136504528" flag="0"/>
      <vel value="0.0083526870" flag="0"/>
      <psa03 value="0.0213246783" flag="0"/>
      <psa10 value="0.0201474192" flag="0"/>
      <psa30 value="0.0006949717" flag="0"/>
    </comp>
    <comp name="--.HHN">
      <acc value="0.0115335318" flag="0"/>
      <vel value="0.0061777347" flag="0"/>
      <psa03 value="0.0196047462" flag="0"/>
      <psa10 value="0.0087208210" flag="0"/>
      <psa30 value="0.0005677641" flag="0"/>
    </comp>
    <comp name="--.HHZ">
      <acc value="0.0103284952" flag="0"/>
      <vel value="0.0037060337" flag="0"/>
      <psa03 value="0.0155802963" flag="0"/>
      <psa10 value="0.0048359762" flag="0"/>
      <psa30 value="0.0005789751" flag="0"/>
    </comp>
  </station>
  <station code="NATA" name="NATA" netid="CQ" insttype="Trillium120P" lat="34.7789" lon="32.5699">
    <comp name="--.HHE">
      <acc value="0.0928344950" flag="0"/>
      <vel value="0.0642361367" flag="0"/>
      <psa03 value="0.2532160669" flag="0"/>
      <psa10 value="0.0699364015" flag="0"/>
      <psa30 value="0.0035775363" flag="0"/>
    </comp>
    <comp name="--.HHN">
      <acc value="0.0587301844" flag="0"/>
      <vel value="0.0386814855" flag="0"/>
      <psa03 value="0.1169491124" flag="0"/>
      <psa10 value="0.0528531337" flag="0"/>
      <psa30 value="0.0031381235" flag="0"/>
    </comp>
    <comp name="--.HHZ">
      <acc value="0.0532434341" flag="0"/>
      <vel value="0.0266542046" flag="0"/>
      <psa03 value="0.0784479202" flag="0"/>
      <psa10 value="0.0291206917" flag="0"/>
      <psa30 value="0.0023203451" flag="0"/>
    </comp>
  </station>
  <station code="XYLS" name="XYLS" netid="CQ" insttype="120QA" lat="35.014" lon="33.0493">
    <comp name="--.HHZ">
      <acc value="0.0129613457" flag="0"/>
      <vel value="0.0050438121" flag="0"/>
      <psa03 value="0.0147234014" flag="0"/>
      <psa10 value="0.0040717414" flag="0"/>
      <psa30 value="0.0006505122" flag="0"/>
    </comp>
  </station>
</stationlist>
