<?xml version="1.0" encoding="UTF-8" standalone="yes"?>
<!DOCTYPE earthquake SYSTEM "stationlist.dtd">
<stationlist created="" xmlns="ch.ethz.sed.shakemap.usgs.xml">
  <station code="7444" name="7444" netid="CR" insttype="" commtype="DIG" lat="43.0958" lon="17.6177">
    <comp name="--.HHE">
      <acc value="0.0864232321" flag="0"/>
      <vel value="0.0503925742" flag="0"/>
      <psa03 value="0.0706401482" flag="0"/>
      <psa10 value="0.0993095012" flag="0"/>
      <psa30 value="0.0068173423" flag="0"/>
    </comp>
    <comp name="--.HHN">
      <acc value="0.0821486447" flag="0"/>
      <vel value="0.0292390533" flag="0"/>
      <psa03 value="0.0675120348" flag="0"/>
      <psa10 value="0.0649026833" flag="0"/>
      <psa30 value="0.0029167494" flag="0"/>
    </comp>
    <comp name="--.HHZ">
      <acc value="0.0428856797" flag="0"/>
      <vel value="0.0272584129" flag="0"/>
      <psa03 value="0.0505398311" flag="0"/>
      <psa10 value="0.0733566294" flag="0"/>
      <psa30 value="0.0028578655" flag="0"/>
    </comp>
  </station>
  <station code="HVAR" name="HVAR" netid="CR" insttype="120" commtype="DIG" lat="43.1776" lon="16.4488">
    <comp name="--.HHE">
      <acc value="0.0080827346" flag="0"/>
      <vel value="0.0047365638" flag="0"/>
      <psa03 value="0.0210378727" flag="0"/>
      <psa10 value="0.0038339421" flag="0"/>
      <psa30 value="0.0005100833" flag="0"/>
    </comp>
  </station>
  <station code="MK27" name="MK27" netid="CR" insttype="Episensor-ES-T" commtype="DIG" lat="44.0343" lon="16.1934">
    <comp name="--.HNE">
      <acc value="0.0183708733" flag="0"/>
      <vel value="0.0081183047" flag="0"/>
      <psa03 value="0.0701078644" flag="0"/>
      <psa10 value="0.0039113546" flag="0"/>
      <psa30 value="0.0003703687" flag="0"/>
    </comp>
    <comp name="--.HNZ">
      <acc value="0.0095555032" flag="0"/>
      <vel value="0.0031915277" flag="0"/>
      <psa03 value="0.0126510450" flag="0"/>
      <psa10 value="0.0019711179" flag="0"/>
      <psa30 value="0.0004673712" flag="0"/>
    </comp>
    <comp name="--.HNN">
      <acc value="0.0246996183" flag="0"/>
      <vel value="0.0074015144" flag="0"/>
      <psa03 value="0.0340863856" flag="0"/>
      <psa10 value="0.0036311573" flag="0"/>
      <psa30 value="0.0008091028" flag="0"/>
    </comp>
  </station>
  <station code="MK33" name="MK33" netid="CR" insttype="Episensor-ES-T" commtype="DIG" lat="42.8369" lon="17.6968">
    <comp name="--.HNE">
      <acc value="0.0959568222" flag="0"/>
      <vel value="0.0523947942" flag="0"/>
      <psa03 value="0.2127388949" flag="0"/>
      <psa10 value="0.0296694510" flag="0"/>
      <psa30 value="0.0034950709" flag="0"/>
    </comp>
    <comp name="--.HNZ">
      <acc value="0.0349647307" flag="0"/>
      <vel value="0.0123460319" flag="0"/>
      <psa03 value="0.0480703081" flag="0"/>
      <psa10 value="0.0184916908" flag="0"/>
      <psa30 value="0.0008041699" flag="0"/>
    </comp>
    <comp name="--.HNN">
      <acc value="0.0487488808" flag="0"/>
      <vel value="0.0275119123" flag="0"/>
      <psa03 value="0.1248038395" flag="0"/>
      <psa10 value="0.0226166047" flag="0"/>
      <psa30 value="0.0015244403" flag="0"/>
    </comp>
  </station>
  <station code="MK34" name="MK34" netid="CR" insttype="Episensor-ES-T" commtype="DIG" lat="42.839" lon="17.6938">
    <comp name="--.HNE">
      <acc value="0.1057542371" flag="0"/>
      <vel value="0.0264228308" flag="0"/>
      <psa03 value="0.0825887457" flag="0"/>
      <psa10 value="0.0282968768" flag="0"/>
      <psa30 value="0.0026593151" flag="0"/>
    </comp>
    <comp name="--.HNN">
      <acc value="0.0703729002" flag="0"/>
      <vel value="0.0211580283" flag="0"/>
      <psa03 value="0.0736600159" flag="0"/>
      <psa10 value="0.0203391696" flag="0"/>
      <psa30 value="0.0011634682" flag="0"/>
    </comp>
    <comp name="--.HNZ">
      <acc value="0.0504168721" flag="0"/>
      <vel value="0.0113810585" flag="0"/>
      <psa03 value="0.0329761591" flag="0"/>
      <psa10 value="0.0213832280" flag="0"/>
      <psa30 value="0.0007495671" flag="0"/>
    </comp>
  </station>
  <station code="PM32" name="PM32" netid="CR" insttype="Episensor-ES-T" commtype="DIG" lat="43.0958" lon="17.6177">
    <comp name="--.HNE">
      <acc value="0.0812548330" flag="0"/>
      <vel value="0.0483720728" flag="0"/>
      <psa03 value="0.0691264679" flag="0"/>
      <psa10 value="0.0967149371" flag="0"/>
      <psa30 value="0.0064766539" flag="0"/>
    </comp>
    <comp name="--.HNZ">
      <acc value="0.0402507938" flag="0"/>
      <vel value="0.0266194197" flag="0"/>
      <psa03 value="0.0487775448" flag="0"/>
      <psa10 value="0.0711386922" flag="0"/>
      <psa30 value="0.0028050266" flag="0"/>
    </comp>
    <comp name="--.HNN">
      <acc value="0.0823015635" flag="0"/>
      <vel value="0.0300504717" flag="0"/>
      <psa03 value="0.0681023957" flag="0"/>
      <psa10 value="0.0631933624" flag="0"/>
      <psa30 value="0.0032243438" flag="0"/>
    </comp>
  </station>
</stationlist>
