<stationlist created="1775808370">
	<station code="MK07" name="MK07" netid="CR" source="Croatian Seismograph Network (CSN)" insttype="" lat="43.515096" lon="16.247314">
		<comp name="--.HNE" depth="0.0">
			<acc value="0.0141036921226816" flag="0"/>
			<vel value="0.00684671308285048" flag="0"/>
			<psa03 value="0.0739013487266641" flag="0"/>
			<psa10 value="0.00421800192192645" flag="0"/>
			<psa30 value="0.000685287688612819" flag="0"/>
		</comp>
		<comp name="--.HNN" depth="0.0">
			<acc value="0.0176010205891218" flag="0"/>
			<vel value="0.0090225668425821" flag="0"/>
			<psa03 value="0.10184633015287" flag="0"/>
			<psa10 value="0.00505876589966372" flag="0"/>
			<psa30 value="0.00198418248401837" flag="0"/>
		</comp>
		<comp name="--.HNZ" depth="0.0">
			<acc value="0.00968588962990956" flag="0"/>
			<vel value="0.0030357278081145" flag="0"/>
			<psa03 value="0.0179935734963529" flag="0"/>
			<psa10 value="0.00211053621891653" flag="0"/>
			<psa30 value="0.000876706931698237" flag="0"/>
		</comp>
	</station>
	<station code="MK08" name="MK08" netid="CR" source="Croatian Seismograph Network (CSN)" insttype="" lat="43.508051" lon="16.440016">
		<comp name="--.HNE" depth="0.0">
			<acc value="0.0105529509390284" flag="0"/>
			<vel value="0.00539659782246618" flag="0"/>
			<psa03 value="0.0302961814525019" flag="0"/>
			<psa10 value="0.00406658142231148" flag="0"/>
			<psa30 value="0.000531660324053881" flag="0"/>
		</comp>
		<comp name="--.HNN" depth="0.0">
			<acc value="0.00866258018080153" flag="0"/>
			<vel value="0.00548590868269204" flag="0"/>
			<psa03 value="0.0242398323324291" flag="0"/>
			<psa10 value="0.00712845113115281" flag="0"/>
			<psa30 value="0.00222863451109879" flag="0"/>
		</comp>
		<comp name="--.HNZ" depth="0.0">
			<acc value="0.00628164849451066" flag="0"/>
			<vel value="0.00389956178872588" flag="0"/>
			<psa03 value="0.0140623938041582" flag="0"/>
			<psa10 value="0.00444877720965667" flag="0"/>
			<psa30 value="0.00053338658424348" flag="0"/>
		</comp>
	</station>
	<station code="MK21" name="MK21" netid="CR" source="Croatian Seismograph Network (CSN)" insttype="" lat="43.700776" lon="16.635203">
		<comp name="--.HNE" depth="0.0">
			<acc value="0.016826894205986" flag="0"/>
			<vel value="0.00762150384678551" flag="0"/>
			<psa03 value="0.0265900114577621" flag="0"/>
			<psa10 value="0.013202745867118" flag="0"/>
			<psa30 value="0.00159295656722142" flag="0"/>
		</comp>
		<comp name="--.HNN" depth="0.0">
			<acc value="0.0120149047990638" flag="0"/>
			<vel value="0.00717915392339732" flag="0"/>
			<psa03 value="0.0236182468846104" flag="0"/>
			<psa10 value="0.00964367478362571" flag="0"/>
			<psa30 value="0.00156479626423955" flag="0"/>
		</comp>
		<comp name="--.HNZ" depth="0.0">
			<acc value="0.0143079994972225" flag="0"/>
			<vel value="0.00585127355413474" flag="0"/>
			<psa03 value="0.0146956740371157" flag="0"/>
			<psa10 value="0.0065094890342016" flag="0"/>
			<psa30 value="0.0014261912490042" flag="0"/>
		</comp>
	</station>
	<station code="MK22" name="MK22" netid="CR" source="Croatian Seismograph Network (CSN)" insttype="" lat="43.517083073" lon="16.251390509">
		<comp name="--.HNE" depth="0.0">
			<acc value="0.0155312768688802" flag="0"/>
			<vel value="0.00598602643699579" flag="0"/>
			<psa03 value="0.0644820684955762" flag="0"/>
			<psa10 value="0.00349523552657491" flag="0"/>
			<psa30 value="0.000514662427193302" flag="0"/>
		</comp>
		<comp name="--.HNN" depth="0.0">
			<acc value="0.0196375536299639" flag="0"/>
			<vel value="0.00805388887413539" flag="0"/>
			<psa03 value="0.0971815107148094" flag="0"/>
			<psa10 value="0.00478687007539975" flag="0"/>
			<psa30 value="0.00202151308198728" flag="0"/>
		</comp>
		<comp name="--.HNZ" depth="0.0">
			<acc value="0.0111125377746754" flag="0"/>
			<vel value="0.00265792569652092" flag="0"/>
			<psa03 value="0.011133220594142" flag="0"/>
			<psa10 value="0.00224105259936119" flag="0"/>
			<psa30 value="0.000842980322475897" flag="0"/>
		</comp>
	</station>
	<station code="MK33" name="MK33" netid="CR" source="Croatian Seismograph Network (CSN)" insttype="" lat="42.836909" lon="17.696755">
		<comp name="--.HNE" depth="0.0">
			<acc value="0.0959445010348423" flag="0"/>
			<vel value="0.0525298094924053" flag="0"/>
			<psa03 value="0.212659754331711" flag="0"/>
			<psa10 value="0.029688419837111" flag="0"/>
			<psa30 value="0.00368997485939164" flag="0"/>
		</comp>
		<comp name="--.HNN" depth="0.0">
			<acc value="0.0488036037098646" flag="0"/>
			<vel value="0.0273773057156381" flag="0"/>
			<psa03 value="0.124668352416507" flag="0"/>
			<psa10 value="0.0226277352264076" flag="0"/>
			<psa30 value="0.00159148542809901" flag="0"/>
		</comp>
		<comp name="--.HNZ" depth="0.0">
			<acc value="0.0348915243323043" flag="0"/>
			<vel value="0.0126256001467021" flag="0"/>
			<psa03 value="0.0483152944011349" flag="0"/>
			<psa10 value="0.0185085298492674" flag="0"/>
			<psa30 value="0.000839346331741846" flag="0"/>
		</comp>
	</station>
	<station code="MK34" name="MK34" netid="CR" source="Croatian Seismograph Network (CSN)" insttype="" lat="42.838957" lon="17.693753">
		<comp name="--.HNE" depth="0.0">
			<acc value="0.106525030528541" flag="0"/>
			<vel value="0.0260944304857745" flag="0"/>
			<psa03 value="0.0829926436886709" flag="0"/>
			<psa10 value="0.0282962451123679" flag="0"/>
			<psa30 value="0.00283162153936344" flag="0"/>
		</comp>
		<comp name="--.HNN" depth="0.0">
			<acc value="0.0706729838623344" flag="0"/>
			<vel value="0.0214434107359583" flag="0"/>
			<psa03 value="0.0742754724688593" flag="0"/>
			<psa10 value="0.0203425025909608" flag="0"/>
			<psa30 value="0.00119066762588672" flag="0"/>
		</comp>
		<comp name="--.HNZ" depth="0.0">
			<acc value="0.0495508989969289" flag="0"/>
			<vel value="0.0117374956971231" flag="0"/>
			<psa03 value="0.03316885873244" flag="0"/>
			<psa10 value="0.0213784505924317" flag="0"/>
			<psa30 value="0.000796566154015026" flag="0"/>
		</comp>
	</station>
	<station code="PM30" name="PM30" netid="CR" source="Croatian Seismograph Network (CSN)" insttype="" lat="42.641278" lon="18.110624">
		<comp name="--.HNE" depth="0.0">
			<acc value="0.00210325960784134" flag="0"/>
			<vel value="0.00100237701610472" flag="0"/>
			<psa03 value="0.00224400607626454" flag="0"/>
			<psa10 value="0.00129482495548613" flag="0"/>
			<psa30 value="0.00050849957101766" flag="0"/>
		</comp>
		<comp name="--.HNN" depth="0.0">
			<acc value="0.00121914414548154" flag="0"/>
			<vel value="0.000814856746263621" flag="0"/>
			<psa03 value="0.00206779843983174" flag="0"/>
			<psa10 value="0.000852217998228663" flag="0"/>
			<psa30 value="0.000354811290965036" flag="0"/>
		</comp>
		<comp name="--.HNZ" depth="0.0">
			<acc value="0.00104014668831778" flag="0"/>
			<vel value="0.00046220087706413" flag="0"/>
			<psa03 value="0.000826470928028289" flag="0"/>
			<psa10 value="0.000837487608350127" flag="0"/>
			<psa30 value="0.000252424925037446" flag="0"/>
		</comp>
	</station>
	<station code="PM32" name="PM32" netid="CR" source="Croatian Seismograph Network (CSN)" insttype="" lat="43.09579" lon="17.61774">
		<comp name="--.HNE" depth="0.0">
			<acc value="0.0801697914489544" flag="0"/>
			<vel value="0.0486492955058317" flag="0"/>
			<psa03 value="0.0694378499167737" flag="0"/>
			<psa10 value="0.0967146543712012" flag="0"/>
			<psa30 value="0.00685304731408488" flag="0"/>
		</comp>
		<comp name="--.HNN" depth="0.0">
			<acc value="0.0826164165599078" flag="0"/>
			<vel value="0.0301195889102695" flag="0"/>
			<psa03 value="0.068207752803877" flag="0"/>
			<psa10 value="0.063224913340217" flag="0"/>
			<psa30 value="0.00337697245785201" flag="0"/>
		</comp>
		<comp name="--.HNZ" depth="0.0">
			<acc value="0.0398175550839864" flag="0"/>
			<vel value="0.0264761612235752" flag="0"/>
			<psa03 value="0.0490010533709678" flag="0"/>
			<psa10 value="0.0711406827210899" flag="0"/>
			<psa30 value="0.00290095196549725" flag="0"/>
		</comp>
	</station>
</stationlist>
