<?xml version="1.0" encoding="UTF-8" standalone="yes"?>
<!DOCTYPE earthquake SYSTEM "stationlist.dtd">
<stationlist created="" xmlns="ch.ethz.sed.shakemap.usgs.xml">
  <station code="AOI" name="AOI" netid="IV" insttype="" lat="43.5502" lon="13.602">
    <comp name="--.HHZ">
      <acc value="0.0167553964" flag="0"/>
      <vel value="0.0052897012" flag="0"/>
      <psa03 value="0.0233552383" flag="0"/>
      <psa10 value="0.0015698793" flag="0"/>
      <psa30 value="0.0001505466" flag="0"/>
    </comp>
    <comp name="--.HHE">
      <acc value="0.0220959993" flag="0"/>
      <vel value="0.0042953617" flag="0"/>
      <psa03 value="0.0177188779" flag="0"/>
      <psa10 value="0.0019333116" flag="0"/>
      <psa30 value="0.0001427433" flag="0"/>
    </comp>
    <comp name="--.HHN">
      <acc value="0.0218556764" flag="0"/>
      <vel value="0.0046932049" flag="0"/>
      <psa03 value="0.0195762556" flag="0"/>
      <psa10 value="0.0028304724" flag="0"/>
      <psa30 value="0.0001986742" flag="0"/>
    </comp>
  </station>
  <station code="CIMA" name="CIMA" netid="IV" insttype="" lat="43.3053" lon="13.6701">
    <comp name="--.HNN">
      <acc value="0.0928544457" flag="0"/>
      <vel value="0.0269809174" flag="0"/>
      <psa03 value="0.1690443620" flag="0"/>
      <psa10 value="0.0145311770" flag="0"/>
      <psa30 value="0.0010125988" flag="0"/>
    </comp>
    <comp name="--.HNE">
      <acc value="0.1129574256" flag="0"/>
      <vel value="0.0265309086" flag="0"/>
      <psa03 value="0.0470770129" flag="0"/>
      <psa10 value="0.0050303379" flag="0"/>
      <psa30 value="0.0005371390" flag="0"/>
    </comp>
    <comp name="--.HNZ">
      <acc value="0.1323119600" flag="0"/>
      <vel value="0.0206126200" flag="0"/>
      <psa03 value="0.0434337093" flag="0"/>
      <psa10 value="0.0042873557" flag="0"/>
      <psa30 value="0.0003204952" flag="0"/>
    </comp>
  </station>
  <station code="MNTP" name="MNTP" netid="IV" insttype="" lat="43.1374" lon="13.4693">
    <comp name="--.HNE">
      <acc value="0.1574112533" flag="0"/>
      <vel value="0.0268696652" flag="0"/>
      <psa03 value="0.1280319307" flag="0"/>
      <psa10 value="0.0067020484" flag="0"/>
      <psa30 value="0.0008704550" flag="0"/>
    </comp>
    <comp name="--.HNN">
      <acc value="0.1618478754" flag="0"/>
      <vel value="0.0381954856" flag="0"/>
      <psa03 value="0.1609880296" flag="0"/>
      <psa10 value="0.0110989622" flag="0"/>
      <psa30 value="0.0010132610" flag="0"/>
    </comp>
    <comp name="--.HNZ">
      <acc value="0.0587010269" flag="0"/>
      <vel value="0.0095799047" flag="0"/>
      <psa03 value="0.0399101595" flag="0"/>
      <psa10 value="0.0053207519" flag="0"/>
      <psa30 value="0.0002472154" flag="0"/>
    </comp>
  </station>
  <station code="OFFI" name="OFFI" netid="IV" insttype="" lat="42.935" lon="13.6857">
    <comp name="--.HHE">
      <acc value="0.0463744875" flag="0"/>
      <vel value="0.0135799901" flag="0"/>
      <psa03 value="0.0611011072" flag="0"/>
      <psa10 value="0.0087914014" flag="0"/>
      <psa30 value="0.0005887103" flag="0"/>
    </comp>
    <comp name="--.HHN">
      <acc value="0.0422636821" flag="0"/>
      <vel value="0.0140085190" flag="0"/>
      <psa03 value="0.0499502556" flag="0"/>
      <psa10 value="0.0099737036" flag="0"/>
      <psa30 value="0.0004308863" flag="0"/>
    </comp>
    <comp name="--.HHZ">
      <acc value="0.0210011350" flag="0"/>
      <vel value="0.0062424583" flag="0"/>
      <psa03 value="0.0373286877" flag="0"/>
      <psa10 value="0.0057722016" flag="0"/>
      <psa30 value="0.0002519442" flag="0"/>
    </comp>
  </station>
  <station code="PP3" name="PP3" netid="IV" insttype="" lat="43.3778" lon="13.6095">
    <comp name="--.HNE">
      <acc value="0.0404564917" flag="0"/>
      <vel value="0.0090597508" flag="0"/>
      <psa03 value="0.0412140397" flag="0"/>
      <psa10 value="0.0044008380" flag="0"/>
      <psa30 value="0.0003134276" flag="0"/>
    </comp>
    <comp name="--.HNN">
      <acc value="0.0444507564" flag="0"/>
      <vel value="0.0105438092" flag="0"/>
      <psa03 value="0.0586961922" flag="0"/>
      <psa10 value="0.0034008241" flag="0"/>
      <psa30 value="0.0003179257" flag="0"/>
    </comp>
    <comp name="--.HNZ">
      <acc value="0.1298585703" flag="0"/>
      <vel value="0.0146547795" flag="0"/>
      <psa03 value="0.0325713034" flag="0"/>
      <psa10 value="0.0037837912" flag="0"/>
      <psa30 value="0.0002880764" flag="0"/>
    </comp>
  </station>
  <station code="TERO" name="TERO" netid="IV" insttype="" lat="42.6228" lon="13.6039">
    <comp name="--.HHE">
      <acc value="0.0157031186" flag="0"/>
      <vel value="0.0029800074" flag="0"/>
      <psa03 value="0.0146550419" flag="0"/>
      <psa10 value="0.0006716329" flag="0"/>
      <psa30 value="0.0000413977" flag="0"/>
    </comp>
    <comp name="--.HHN">
      <acc value="0.0149931179" flag="0"/>
      <vel value="0.0030791080" flag="0"/>
      <psa03 value="0.0099623274" flag="0"/>
      <psa10 value="0.0006263388" flag="0"/>
      <psa30 value="0.0000582073" flag="0"/>
    </comp>
    <comp name="--.HHZ">
      <acc value="0.0157060320" flag="0"/>
      <vel value="0.0026444418" flag="0"/>
      <psa03 value="0.0125050877" flag="0"/>
      <psa10 value="0.0006964736" flag="0"/>
      <psa30 value="0.0000473185" flag="0"/>
    </comp>
  </station>
  <station code="TRTR" name="TRTR" netid="IV" insttype="" lat="42.8081" lon="13.9138">
    <comp name="--.HHE">
      <acc value="0.0673797877" flag="0"/>
      <vel value="0.0139279766" flag="0"/>
      <psa03 value="0.0661913046" flag="0"/>
      <psa10 value="0.0075200605" flag="0"/>
      <psa30 value="0.0005532119" flag="0"/>
    </comp>
    <comp name="--.HHN">
      <acc value="0.0362373261" flag="0"/>
      <vel value="0.0124290115" flag="0"/>
      <psa03 value="0.0639726991" flag="0"/>
      <psa10 value="0.0091900183" flag="0"/>
      <psa30 value="0.0004022507" flag="0"/>
    </comp>
    <comp name="--.HHZ">
      <acc value="0.0767050108" flag="0"/>
      <vel value="0.0103861756" flag="0"/>
      <psa03 value="0.0593653819" flag="0"/>
      <psa10 value="0.0031581374" flag="0"/>
      <psa30 value="0.0002320786" flag="0"/>
    </comp>
  </station>
</stationlist>
