<?xml version="1.0" encoding="UTF-8" standalone="yes"?>
<!DOCTYPE earthquake SYSTEM "stationlist.dtd">
<stationlist created="" xmlns="ch.ethz.sed.shakemap.usgs.xml">
  <station code="AKS" name="AKS" netid="KO" insttype="CMG-5T" commtype="DIG" lat="38.8785" lon="27.8129">
    <comp name="--.HNE">
      <acc value="0.0892885784" flag="0"/>
      <vel value="0.0247306780" flag="0"/>
      <psa03 value="0.1252616599" flag="0"/>
      <psa10 value="0.0171440722" flag="0"/>
      <psa30 value="0.0009870124" flag="0"/>
    </comp>
    <comp name="--.HNN">
      <acc value="0.0916133749" flag="0"/>
      <vel value="0.0216655482" flag="0"/>
      <psa03 value="0.1692903731" flag="0"/>
      <psa10 value="0.0152006143" flag="0"/>
      <psa30 value="0.0009277256" flag="0"/>
    </comp>
    <comp name="--.HNZ">
      <acc value="0.0453695839" flag="0"/>
      <vel value="0.0094980506" flag="0"/>
      <psa03 value="0.0377686076" flag="0"/>
      <psa10 value="0.0053511502" flag="0"/>
      <psa30 value="0.0008146293" flag="0"/>
    </comp>
  </station>
  <station code="BALB" name="BALB" netid="KO" insttype="CMG-5T" commtype="DIG" lat="39.6507" lon="27.8642">
    <comp name="--.HNE">
      <acc value="0.0485012139" flag="0"/>
      <vel value="0.0187622264" flag="0"/>
      <psa03 value="0.1372810199" flag="0"/>
      <psa10 value="0.0089604323" flag="0"/>
      <psa30 value="0.0009850444" flag="0"/>
    </comp>
    <comp name="--.HNN">
      <acc value="0.0457995623" flag="0"/>
      <vel value="0.0177675439" flag="0"/>
      <psa03 value="0.1246594968" flag="0"/>
      <psa10 value="0.0191830610" flag="0"/>
      <psa30 value="0.0009084292" flag="0"/>
    </comp>
    <comp name="--.HNZ">
      <acc value="0.0237224627" flag="0"/>
      <vel value="0.0105164288" flag="0"/>
      <psa03 value="0.0470494086" flag="0"/>
      <psa10 value="0.0062847448" flag="0"/>
      <psa30 value="0.0005046855" flag="0"/>
    </comp>
  </station>
  <station code="DST" name="DST" netid="KO" insttype="CMG-5T" commtype="DIG" lat="39.6041" lon="28.6267">
    <comp name="--.HNE">
      <acc value="0.0244040967" flag="0"/>
      <vel value="0.0116413282" flag="0"/>
      <psa03 value="0.0614856388" flag="0"/>
      <psa10 value="0.0047416175" flag="0"/>
      <psa30 value="0.0005117141" flag="0"/>
    </comp>
    <comp name="--.HNN">
      <acc value="0.0303764148" flag="0"/>
      <vel value="0.0114548547" flag="0"/>
      <psa03 value="0.0622036946" flag="0"/>
      <psa10 value="0.0058756978" flag="0"/>
      <psa30 value="0.0010019925" flag="0"/>
    </comp>
    <comp name="--.HNZ">
      <acc value="0.0228554124" flag="0"/>
      <vel value="0.0082555632" flag="0"/>
      <psa03 value="0.0545355202" flag="0"/>
      <psa10 value="0.0034355066" flag="0"/>
      <psa30 value="0.0005426378" flag="0"/>
    </comp>
  </station>
  <station code="GEDZ" name="GEDZ" netid="KO" insttype="CMG-6T" commtype="DIG" lat="39.0445" lon="29.4105">
    <comp name="--.HHN">
      <acc value="0.0292534694" flag="0"/>
      <vel value="0.0139963346" flag="0"/>
      <psa03 value="0.0596336025" flag="0"/>
      <psa10 value="0.0186378692" flag="0"/>
      <psa30 value="0.0010587258" flag="0"/>
    </comp>
    <comp name="--.HHE">
      <acc value="0.0229085544" flag="0"/>
      <vel value="0.0102337344" flag="0"/>
      <psa03 value="0.0445260480" flag="0"/>
      <psa10 value="0.0271050635" flag="0"/>
      <psa30 value="0.0008928329" flag="0"/>
    </comp>
    <comp name="--.HHZ">
      <acc value="0.0106409485" flag="0"/>
      <vel value="0.0039160763" flag="0"/>
      <psa03 value="0.0212080691" flag="0"/>
      <psa10 value="0.0064252717" flag="0"/>
      <psa30 value="0.0004266542" flag="0"/>
    </comp>
  </station>
  <station code="GOMA" name="GOMA" netid="KO" insttype="CMG-5T" commtype="DIG" lat="38.7077" lon="27.9175">
    <comp name="--.HNE">
      <acc value="0.0341930533" flag="0"/>
      <vel value="0.0166447515" flag="0"/>
      <psa03 value="0.0830968989" flag="0"/>
      <psa10 value="0.0147189990" flag="0"/>
      <psa30 value="0.0008343051" flag="0"/>
    </comp>
    <comp name="--.HNN">
      <acc value="0.0278637509" flag="0"/>
      <vel value="0.0187429400" flag="0"/>
      <psa03 value="0.0528156782" flag="0"/>
      <psa10 value="0.0096978011" flag="0"/>
      <psa30 value="0.0008810796" flag="0"/>
    </comp>
    <comp name="--.HNZ">
      <acc value="0.0369316741" flag="0"/>
      <vel value="0.0088624603" flag="0"/>
      <psa03 value="0.0350249510" flag="0"/>
      <psa10 value="0.0040379381" flag="0"/>
      <psa30 value="0.0006650314" flag="0"/>
    </comp>
  </station>
  <station code="GONE" name="GONE" netid="KO" insttype="CMG-5T" commtype="DIG" lat="40.0466" lon="27.686">
    <comp name="--.HNZ">
      <acc value="0.0119883473" flag="0"/>
      <vel value="0.0041169729" flag="0"/>
      <psa03 value="0.0259060112" flag="0"/>
      <psa10 value="0.0040642023" flag="0"/>
      <psa30 value="0.0002013695" flag="0"/>
    </comp>
    <comp name="--.HNN">
      <acc value="0.0270814712" flag="0"/>
      <vel value="0.0128407732" flag="0"/>
      <psa03 value="0.0608803159" flag="0"/>
      <psa10 value="0.0090310193" flag="0"/>
      <psa30 value="0.0004642025" flag="0"/>
    </comp>
    <comp name="--.HNE">
      <acc value="0.0155876596" flag="0"/>
      <vel value="0.0097182707" flag="0"/>
      <psa03 value="0.0450999630" flag="0"/>
      <psa10 value="0.0133804151" flag="0"/>
      <psa30 value="0.0006077408" flag="0"/>
    </comp>
  </station>
  <station code="GORD" name="GORD" netid="KO" insttype="CMG-5T" commtype="DIG" lat="38.9088" lon="28.1769">
    <comp name="--.HNZ">
      <acc value="0.0265002503" flag="0"/>
      <vel value="0.0107443191" flag="0"/>
      <psa03 value="0.0386328027" flag="0"/>
      <psa10 value="0.0158775906" flag="0"/>
      <psa30 value="0.0013874092" flag="0"/>
    </comp>
    <comp name="--.HNE">
      <acc value="0.0301446536" flag="0"/>
      <vel value="0.0202777739" flag="0"/>
      <psa03 value="0.0393503519" flag="0"/>
      <psa10 value="0.0254729706" flag="0"/>
      <psa30 value="0.0015642506" flag="0"/>
    </comp>
    <comp name="--.HNN">
      <acc value="0.0430450389" flag="0"/>
      <vel value="0.0216972657" flag="0"/>
      <psa03 value="0.0450129182" flag="0"/>
      <psa10 value="0.0300888080" flag="0"/>
      <psa30 value="0.0013112490" flag="0"/>
    </comp>
  </station>
  <station code="KCTX" name="KCTX" netid="KO" insttype="CMG-3ESP" commtype="DIG" lat="40.2626" lon="28.3353">
    <comp name="--.HHE">
      <acc value="0.0121349912" flag="0"/>
      <vel value="0.0092065994" flag="0"/>
      <psa03 value="0.0183070698" flag="0"/>
      <psa10 value="0.0109158232" flag="0"/>
      <psa30 value="0.0005670105" flag="0"/>
    </comp>
    <comp name="--.HHZ">
      <acc value="0.0190727446" flag="0"/>
      <vel value="0.0042768728" flag="0"/>
      <psa03 value="0.0221810124" flag="0"/>
      <psa10 value="0.0030058405" flag="0"/>
      <psa30 value="0.0002395670" flag="0"/>
    </comp>
    <comp name="--.HHN">
      <acc value="0.0150193251" flag="0"/>
      <vel value="0.0049597837" flag="0"/>
      <psa03 value="0.0470303263" flag="0"/>
      <psa10 value="0.0050819729" flag="0"/>
      <psa30 value="0.0002820233" flag="0"/>
    </comp>
  </station>
  <station code="KULA" name="KULA" netid="KO" insttype="CMG-3T" commtype="DIG" lat="38.5145" lon="28.6607">
    <comp name="--.HHE">
      <acc value="0.0142305570" flag="0"/>
      <vel value="0.0037477710" flag="0"/>
      <psa03 value="0.0124733770" flag="0"/>
      <psa10 value="0.0027766685" flag="0"/>
      <psa30 value="0.0002592252" flag="0"/>
    </comp>
  </station>
  <station code="ORLT" name="ORLT" netid="KO" insttype="CMG-5T" commtype="DIG" lat="40.0452" lon="28.8914">
    <comp name="--.HNE">
      <acc value="0.0317571991" flag="0"/>
      <vel value="0.0148374735" flag="0"/>
      <psa03 value="0.1049669483" flag="0"/>
      <psa10 value="0.0140416173" flag="0"/>
      <psa30 value="0.0010237296" flag="0"/>
    </comp>
    <comp name="--.HNN">
      <acc value="0.0368587044" flag="0"/>
      <vel value="0.0249784981" flag="0"/>
      <psa03 value="0.1580821467" flag="0"/>
      <psa10 value="0.0222642879" flag="0"/>
      <psa30 value="0.0012369270" flag="0"/>
    </comp>
    <comp name="--.HNZ">
      <acc value="0.0135463419" flag="0"/>
      <vel value="0.0076234055" flag="0"/>
      <psa03 value="0.0271733696" flag="0"/>
      <psa10 value="0.0099077375" flag="0"/>
      <psa30 value="0.0006366654" flag="0"/>
    </comp>
  </station>
  <station code="SHAP" name="SHAP" netid="KO" insttype="CMG-5T" commtype="DIG" lat="39.0231" lon="29.222">
    <comp name="--.HNE">
      <acc value="0.0406108650" flag="0"/>
      <vel value="0.0103407099" flag="0"/>
      <psa03 value="0.0563093257" flag="0"/>
      <psa10 value="0.0045561989" flag="0"/>
      <psa30 value="0.0003098868" flag="0"/>
    </comp>
    <comp name="--.HNN">
      <acc value="0.0336116021" flag="0"/>
      <vel value="0.0113224032" flag="0"/>
      <psa03 value="0.0630524716" flag="0"/>
      <psa10 value="0.0068409416" flag="0"/>
      <psa30 value="0.0003469972" flag="0"/>
    </comp>
    <comp name="--.HNZ">
      <acc value="0.0194694154" flag="0"/>
      <vel value="0.0043860611" flag="0"/>
      <psa03 value="0.0203263398" flag="0"/>
      <psa10 value="0.0034415593" flag="0"/>
      <psa30 value="0.0003179517" flag="0"/>
    </comp>
  </station>
  <station code="SIMA" name="SIMA" netid="KO" insttype="CMG-6T" commtype="DIG" lat="39.0833" lon="28.9825">
    <comp name="--.HHE">
      <acc value="0.0243189393" flag="0"/>
      <vel value="0.0064066261" flag="0"/>
      <psa03 value="0.0405266935" flag="0"/>
      <psa10 value="0.0037032670" flag="0"/>
      <psa30 value="0.0004865852" flag="0"/>
    </comp>
    <comp name="--.HHN">
      <acc value="0.0188681560" flag="0"/>
      <vel value="0.0076005247" flag="0"/>
      <psa03 value="0.0633086485" flag="0"/>
      <psa10 value="0.0046872947" flag="0"/>
      <psa30 value="0.0004737586" flag="0"/>
    </comp>
    <comp name="--.HHZ">
      <acc value="0.0174734447" flag="0"/>
      <vel value="0.0039283429" flag="0"/>
      <psa03 value="0.0192344314" flag="0"/>
      <psa10 value="0.0018308038" flag="0"/>
      <psa30 value="0.0003936970" flag="0"/>
    </comp>
  </station>
  <station code="SOMA" name="SOMA" netid="KO" insttype="CMG-5T" commtype="DIG" lat="39.1564" lon="27.5341">
    <comp name="--.HNE">
      <acc value="0.0534991574" flag="0"/>
      <vel value="0.0154963183" flag="0"/>
      <psa03 value="0.1298885082" flag="0"/>
      <psa10 value="0.0107938532" flag="0"/>
      <psa30 value="0.0008487193" flag="0"/>
    </comp>
    <comp name="--.HNN">
      <acc value="0.0948614436" flag="0"/>
      <vel value="0.0380865805" flag="0"/>
      <psa03 value="0.2571511624" flag="0"/>
      <psa10 value="0.0168320024" flag="0"/>
      <psa30 value="0.0015661053" flag="0"/>
    </comp>
    <comp name="--.HNZ">
      <acc value="0.0600825018" flag="0"/>
      <vel value="0.0182781500" flag="0"/>
      <psa03 value="0.0790807721" flag="0"/>
      <psa10 value="0.0100393454" flag="0"/>
      <psa30 value="0.0006745310" flag="0"/>
    </comp>
  </station>
  <station code="SUSR" name="SUSR" netid="KO" insttype="CMG-5T" commtype="DIG" lat="39.9627" lon="28.0835">
    <comp name="--.HNE">
      <acc value="0.0208767053" flag="0"/>
      <vel value="0.0063631636" flag="0"/>
      <psa03 value="0.0466562648" flag="0"/>
      <psa10 value="0.0040253318" flag="0"/>
      <psa30 value="0.0002163991" flag="0"/>
    </comp>
    <comp name="--.HNN">
      <acc value="0.0213559179" flag="0"/>
      <vel value="0.0062678298" flag="0"/>
      <psa03 value="0.0394189105" flag="0"/>
      <psa10 value="0.0024980900" flag="0"/>
      <psa30 value="0.0002596869" flag="0"/>
    </comp>
    <comp name="--.HNZ">
      <acc value="0.0169845730" flag="0"/>
      <vel value="0.0046661165" flag="0"/>
      <psa03 value="0.0234037630" flag="0"/>
      <psa10 value="0.0036055327" flag="0"/>
      <psa30 value="0.0003130055" flag="0"/>
    </comp>
  </station>
  <station code="TVSB" name="TVSB" netid="KO" insttype="CMG-3T" commtype="DIG" lat="39.4497" lon="29.4615">
    <comp name="--.HHE">
      <acc value="0.0208393336" flag="0"/>
      <vel value="0.0131945613" flag="0"/>
      <psa03 value="0.0566401582" flag="0"/>
      <psa10 value="0.0084189842" flag="0"/>
      <psa30 value="0.0005523893" flag="0"/>
    </comp>
    <comp name="--.HHN">
      <acc value="0.0110440301" flag="0"/>
      <vel value="0.0057403270" flag="0"/>
      <psa03 value="0.0361102129" flag="0"/>
      <psa10 value="0.0023533400" flag="0"/>
      <psa30 value="0.0002595414" flag="0"/>
    </comp>
    <comp name="--.HHZ">
      <acc value="0.0057972816" flag="0"/>
      <vel value="0.0027549152" flag="0"/>
      <psa03 value="0.0130312931" flag="0"/>
      <psa10 value="0.0032130229" flag="0"/>
      <psa30 value="0.0003185703" flag="0"/>
    </comp>
  </station>
  <station code="YAYO" name="YAYO" netid="KO" insttype="CMG-6T" commtype="DIG" lat="39.6113" lon="27.0726">
    <comp name="--.HHE">
      <acc value="0.0277050051" flag="0"/>
      <vel value="0.0198665261" flag="0"/>
      <psa03 value="0.0982149491" flag="0"/>
      <psa10 value="0.0121453490" flag="0"/>
      <psa30 value="0.0008277400" flag="0"/>
    </comp>
    <comp name="--.HHZ">
      <acc value="0.0207685205" flag="0"/>
      <vel value="0.0108387980" flag="0"/>
      <psa03 value="0.0626244129" flag="0"/>
      <psa10 value="0.0081078013" flag="0"/>
      <psa30 value="0.0004156993" flag="0"/>
    </comp>
    <comp name="--.HHN">
      <acc value="0.0324702739" flag="0"/>
      <vel value="0.0167558978" flag="0"/>
      <psa03 value="0.1294871143" flag="0"/>
      <psa10 value="0.0063177410" flag="0"/>
      <psa30 value="0.0005060450" flag="0"/>
    </comp>
  </station>
  <station code="YENI" name="YENI" netid="KO" insttype="CMG-5T" commtype="DIG" lat="39.9364" lon="27.2422">
    <comp name="--.HNE">
      <acc value="0.0433483904" flag="0"/>
      <vel value="0.0125334363" flag="0"/>
      <psa03 value="0.0834471891" flag="0"/>
      <psa10 value="0.0068016734" flag="0"/>
      <psa30 value="0.0004694507" flag="0"/>
    </comp>
    <comp name="--.HNN">
      <acc value="0.0686117851" flag="0"/>
      <vel value="0.0196289044" flag="0"/>
      <psa03 value="0.0651339125" flag="0"/>
      <psa10 value="0.0097313421" flag="0"/>
      <psa30 value="0.0005531594" flag="0"/>
    </comp>
    <comp name="--.HNZ">
      <acc value="0.0190621169" flag="0"/>
      <vel value="0.0041751901" flag="0"/>
      <psa03 value="0.0234305375" flag="0"/>
      <psa10 value="0.0019976493" flag="0"/>
      <psa30 value="0.0003746173" flag="0"/>
    </comp>
  </station>
</stationlist>
