<stationlist created="1755054147">
	<station code="KRL1" name="KRL1" netid="HI" source="ITSAK Strong Motion Network" insttype="" lat="37.7951" lon="26.7065">
		<comp name=".HNE" depth="0.0">
			<acc value="0.0052701306297204" flag="0"/>
			<vel value="0.00269803532079" flag="0"/>
			<psa03 value="0.0124997889871773" flag="0"/>
			<psa10 value="0.00391271411998405" flag="0"/>
			<psa30 value="0.00028910571433464" flag="0"/>
		</comp>
		<comp name=".HNN" depth="0.0">
			<acc value="0.0042126700621374" flag="0"/>
			<vel value="0.00342892901424" flag="0"/>
			<psa03 value="0.0123400648645635" flag="0"/>
			<psa10 value="0.0064054627679735" flag="0"/>
			<psa30 value="0.000379584025787094" flag="0"/>
		</comp>
		<comp name=".HNZ" depth="0.0">
			<acc value="0.0026942911096848" flag="0"/>
			<vel value="0.00149431276204" flag="0"/>
			<psa03 value="0.00575789315092009" flag="0"/>
			<psa10 value="0.00261794764493377" flag="0"/>
			<psa30 value="0.000175551434108562" flag="0"/>
		</comp>
	</station>
	<station code="MYT1" name="MYT1" netid="HI" source="ITSAK Strong Motion Network" insttype="" lat="39.085" lon="26.5694">
		<comp name=".HNE" depth="0.0">
			<acc value="0.012325769368422" flag="0"/>
			<vel value="0.00747122719098" flag="0"/>
			<psa03 value="0.036307855738073" flag="0"/>
			<psa10 value="0.0104079191610627" flag="0"/>
			<psa30 value="0.000669295639634535" flag="0"/>
		</comp>
		<comp name=".HNN" depth="0.0">
			<acc value="0.0078982265592564" flag="0"/>
			<vel value="0.00896262521962" flag="0"/>
			<psa03 value="0.0315517333766418" flag="0"/>
			<psa10 value="0.0148999920513385" flag="0"/>
			<psa30 value="0.00100807605092565" flag="0"/>
		</comp>
		<comp name=".HNZ" depth="0.0">
			<acc value="0.006189310630521" flag="0"/>
			<vel value="0.00445206402855" flag="0"/>
			<psa03 value="0.0229858742638471" flag="0"/>
			<psa10 value="0.00698073025161356" flag="0"/>
			<psa30 value="0.000547289901102204" flag="0"/>
		</comp>
	</station>
	<station code="PLM1" name="PLM1" netid="HI" source="ITSAK Strong Motion Network" insttype="" lat="38.9751" lon="26.3688">
		<comp name=".HNE" depth="0.0">
			<acc value="0.014545272383586" flag="0"/>
			<vel value="0.00457437497033" flag="0"/>
			<psa03 value="0.0234900040141354" flag="0"/>
			<psa10 value="0.00325533588439984" flag="0"/>
			<psa30 value="0.000174322329248888" flag="0"/>
		</comp>
		<comp name=".HNN" depth="0.0">
			<acc value="0.012135475966956" flag="0"/>
			<vel value="0.00379159953463" flag="0"/>
			<psa03 value="0.0131714610863292" flag="0"/>
			<psa10 value="0.00352434190785307" flag="0"/>
			<psa30 value="0.000174008167812055" flag="0"/>
		</comp>
		<comp name=".HNZ" depth="0.0">
			<acc value="0.019363866609714" flag="0"/>
			<vel value="0.00163187695087" flag="0"/>
			<psa03 value="0.00426725306217788" flag="0"/>
			<psa10 value="0.00165779755532525" flag="0"/>
			<psa30 value="0.000315344379600776" flag="0"/>
		</comp>
	</station>
	<station code="SGR1" name="SGR1" netid="HI" source="ITSAK Strong Motion Network" insttype="" lat="39.211392" lon="25.855221">
		<comp name=".HNE" depth="0.0">
			<acc value="0.0069220357130928" flag="0"/>
			<vel value="0.00316508033014" flag="0"/>
			<psa03 value="0.021282051758564" flag="0"/>
			<psa10 value="0.00269357703000943" flag="0"/>
			<psa30 value="0.000185077533915651" flag="0"/>
		</comp>
		<comp name=".HNN" depth="0.0">
			<acc value="0.0060283464875652" flag="0"/>
			<vel value="0.00332889715341" flag="0"/>
			<psa03 value="0.0260504939465421" flag="0"/>
			<psa10 value="0.00284477837448127" flag="0"/>
			<psa30 value="0.00020279193657482" flag="0"/>
		</comp>
		<comp name=".HNZ" depth="0.0">
			<acc value="0.0027842304006948" flag="0"/>
			<vel value="0.00156606984754" flag="0"/>
			<psa03 value="0.0142929611614545" flag="0"/>
			<psa10 value="0.0015454429248846" flag="0"/>
			<psa30 value="0.000165497747267544" flag="0"/>
		</comp>
	</station>
	<station code="PRK" name="PRK" netid="HL" source="National Observatory of Athens Seismic Network" insttype="" lat="39.24565" lon="26.26499">
		<comp name=".HNE" depth="0.0">
			<acc value="0.0100225126341414" flag="0"/>
			<vel value="0.0056562676706" flag="0"/>
			<psa03 value="0.0208928788423718" flag="0"/>
			<psa10 value="0.00715891393042222" flag="0"/>
			<psa30 value="0.000333206187857832" flag="0"/>
		</comp>
		<comp name=".HNN" depth="0.0">
			<acc value="0.0068630711752746" flag="0"/>
			<vel value="0.00426436078211" flag="0"/>
			<psa03 value="0.0192248373532258" flag="0"/>
			<psa10 value="0.00645691289505612" flag="0"/>
			<psa30 value="0.000428484817307986" flag="0"/>
		</comp>
		<comp name=".HNZ" depth="0.0">
			<acc value="0.0083187886173918" flag="0"/>
			<vel value="0.00405129772462" flag="0"/>
			<psa03 value="0.0142533634861908" flag="0"/>
			<psa10 value="0.00280392387119544" flag="0"/>
			<psa30 value="0.000212221675831999" flag="0"/>
		</comp>
	</station>
	<station code="SMG" name="SMG" netid="HL" source="National Observatory of Athens Seismic Network" insttype="" lat="37.70425" lon="26.83772">
		<comp name="00.HNE" depth="0.0">
			<acc value="0.004681472088258" flag="0"/>
			<vel value="0.00227515134623" flag="0"/>
			<psa03 value="0.0183436630943203" flag="0"/>
			<psa10 value="0.00176416678926713" flag="0"/>
			<psa30 value="0.000137414923376591" flag="0"/>
		</comp>
		<comp name="00.HNN" depth="0.0">
			<acc value="0.0042997765627578" flag="0"/>
			<vel value="0.00237677716758" flag="0"/>
			<psa03 value="0.0109240023073599" flag="0"/>
			<psa10 value="0.00239353934148293" flag="0"/>
			<psa30 value="0.000180242864684349" flag="0"/>
		</comp>
		<comp name="00.HNZ" depth="0.0">
			<acc value="0.0021231324001212" flag="0"/>
			<vel value="0.00132958166469" flag="0"/>
			<psa03 value="0.00531482343514506" flag="0"/>
			<psa10 value="0.00177352729216536" flag="0"/>
			<psa30 value="0.000115437321635137" flag="0"/>
		</comp>
	</station>
	<station code="LES3" name="LES3" netid="HT" source="Aristotle University of Thessaloniki Seismological Network" insttype="" lat="39.303248" lon="26.180664">
		<comp name=".HNE" depth="0.0">
			<acc value="0.036901078605492" flag="0"/>
			<vel value="0.0167297335867" flag="0"/>
			<psa03 value="0.0374326385827677" flag="0"/>
			<psa10 value="0.0195139564538255" flag="0"/>
			<psa30 value="0.00752616107121248" flag="0"/>
		</comp>
		<comp name=".HNN" depth="0.0">
			<acc value="0.03079108628796" flag="0"/>
			<vel value="0.0180227690708" flag="0"/>
			<psa03 value="0.0387326231378543" flag="0"/>
			<psa10 value="0.020722402757499" flag="0"/>
			<psa30 value="0.00606133195015344" flag="0"/>
		</comp>
		<comp name=".HNZ" depth="0.0">
			<acc value="0.044216264366106" flag="0"/>
			<vel value="0.0296819142236" flag="0"/>
			<psa03 value="0.0668663931121674" flag="0"/>
			<psa10 value="0.0298582910902334" flag="0"/>
			<psa30 value="0.0142230238722132" flag="0"/>
		</comp>
	</station>
	<station code="AKS" name="AKS" netid="KO" source="Bogazici University Kandilli Observatory And Earthquake Research Institute (KOERI)" insttype="" lat="38.8785" lon="27.8129">
		<comp name=".HNE" depth="0.0">
			<acc value="0.087347750483574" flag="0"/>
			<vel value="0.024645948954" flag="0"/>
			<psa03 value="0.124798673549845" flag="0"/>
			<psa10 value="0.0171621119056872" flag="0"/>
			<psa30 value="0.00102318330170567" flag="0"/>
		</comp>
		<comp name=".HNN" depth="0.0">
			<acc value="0.0900208331709" flag="0"/>
			<vel value="0.0216350305379" flag="0"/>
			<psa03 value="0.171424720629585" flag="0"/>
			<psa10 value="0.0152983621914111" flag="0"/>
			<psa30 value="0.00103955824063377" flag="0"/>
		</comp>
		<comp name=".HNZ" depth="0.0">
			<acc value="0.044346983631456" flag="0"/>
			<vel value="0.00905358659717" flag="0"/>
			<psa03 value="0.0384933104095757" flag="0"/>
			<psa10 value="0.00539359933072917" flag="0"/>
			<psa30 value="0.000958154410528295" flag="0"/>
		</comp>
	</station>
	<station code="ALT" name="ALT" netid="KO" source="Bogazici University Kandilli Observatory And Earthquake Research Institute (KOERI)" insttype="" lat="39.0541" lon="30.1104">
		<comp name=".HNE" depth="0.0">
			<acc value="0.001540349155314" flag="0"/>
			<vel value="0.00078263677199" flag="0"/>
			<psa03 value="0.00304478145443165" flag="0"/>
			<psa10 value="0.000600525641253317" flag="0"/>
			<psa30 value="0.000409022564487718" flag="0"/>
		</comp>
		<comp name=".HNN" depth="0.0">
			<acc value="0.0013420798963962" flag="0"/>
			<vel value="0.000988212251346" flag="0"/>
			<psa03 value="0.0031114398415796" flag="0"/>
			<psa10 value="0.000615566305591976" flag="0"/>
			<psa30 value="0.000339676173754582" flag="0"/>
		</comp>
		<comp name=".HNZ" depth="0.0">
			<acc value="0.0010705254501714" flag="0"/>
			<vel value="0.00126089539873" flag="0"/>
			<psa03 value="0.0020250597687609" flag="0"/>
			<psa10 value="0.000937054829190913" flag="0"/>
			<psa30 value="0.000609298227602265" flag="0"/>
		</comp>
	</station>
	<station code="ARMT" name="ARMT" netid="KO" source="Bogazici University Kandilli Observatory And Earthquake Research Institute (KOERI)" insttype="" lat="40.5683" lon="28.866">
		<comp name=".HNE" depth="0.0">
			<acc value="0.0086977318370814" flag="0"/>
			<vel value="0.00359798281528" flag="0"/>
			<psa03 value="0.0229723238870672" flag="0"/>
			<psa10 value="0.00317621408047103" flag="0"/>
			<psa30 value="0.000283239726783639" flag="0"/>
		</comp>
		<comp name=".HNN" depth="0.0">
			<acc value="0.013598164734672" flag="0"/>
			<vel value="0.00478014509058" flag="0"/>
			<psa03 value="0.0331382160775015" flag="0"/>
			<psa10 value="0.00515928240212432" flag="0"/>
			<psa30 value="0.000305251809975964" flag="0"/>
		</comp>
		<comp name=".HNZ" depth="0.0">
			<acc value="0.0060651396062448" flag="0"/>
			<vel value="0.00269251791194" flag="0"/>
			<psa03 value="0.0199540926940401" flag="0"/>
			<psa10 value="0.00141709793828302" flag="0"/>
			<psa30 value="0.000228864145501419" flag="0"/>
		</comp>
	</station>
	<station code="ARMU" name="ARMU" netid="KO" source="Bogazici University Kandilli Observatory And Earthquake Research Institute (KOERI)" insttype="" lat="40.5088" lon="28.838">
		<comp name=".HNE" depth="0.0">
			<acc value="0.024173491164636" flag="0"/>
			<vel value="0.0114170187172" flag="0"/>
			<psa03 value="0.0744234874826815" flag="0"/>
			<psa10 value="0.00480240079172266" flag="0"/>
			<psa30 value="0.000442821261818461" flag="0"/>
		</comp>
		<comp name=".HNN" depth="0.0">
			<acc value="0.022514906167176" flag="0"/>
			<vel value="0.0120560458446" flag="0"/>
			<psa03 value="0.0819122856617849" flag="0"/>
			<psa10 value="0.00433471199716382" flag="0"/>
			<psa30 value="0.000572612568190036" flag="0"/>
		</comp>
		<comp name=".HNZ" depth="0.0">
			<acc value="0.015571462620072" flag="0"/>
			<vel value="0.00209086139073" flag="0"/>
			<psa03 value="0.0111919250038715" flag="0"/>
			<psa10 value="0.00102762350469957" flag="0"/>
			<psa30 value="0.000231686311622639" flag="0"/>
		</comp>
	</station>
	<station code="ASYA" name="ASYA" netid="KO" source="Bogazici University Kandilli Observatory And Earthquake Research Institute (KOERI)" insttype="" lat="40.8956" lon="27.465">
		<comp name=".HNE" depth="0.0">
			<acc value="0.04098229135938" flag="0"/>
			<vel value="0.00836815649601" flag="0"/>
			<psa03 value="0.045361984175658" flag="0"/>
			<psa10 value="0.00577534508825975" flag="0"/>
			<psa30 value="0.000586609589174903" flag="0"/>
		</comp>
		<comp name=".HNN" depth="0.0">
			<acc value="0.043736119071384" flag="0"/>
			<vel value="0.00745209687177" flag="0"/>
			<psa03 value="0.0342864067228352" flag="0"/>
			<psa10 value="0.00464480128904919" flag="0"/>
			<psa30 value="0.000543509859028818" flag="0"/>
		</comp>
		<comp name=".HNZ" depth="0.0">
			<acc value="0.084806927048622" flag="0"/>
			<vel value="0.0170775397912" flag="0"/>
			<psa03 value="0.0787990012971762" flag="0"/>
			<psa10 value="0.00261916905397104" flag="0"/>
			<psa30 value="0.000302521056160447" flag="0"/>
		</comp>
	</station>
	<station code="ATAM" name="ATAM" netid="KO" source="Bogazici University Kandilli Observatory And Earthquake Research Institute (KOERI)" insttype="" lat="40.9688" lon="28.875">
		<comp name=".HNE" depth="0.0">
			<acc value="0.0051481546723518" flag="0"/>
			<vel value="0.00468126194906" flag="0"/>
			<psa03 value="0.0173372617897538" flag="0"/>
			<psa10 value="0.00310319627465009" flag="0"/>
			<psa30 value="0.000397241497591431" flag="0"/>
		</comp>
		<comp name=".HNN" depth="0.0">
			<acc value="0.0075966756866076" flag="0"/>
			<vel value="0.00609153115868" flag="0"/>
			<psa03 value="0.0171857191987204" flag="0"/>
			<psa10 value="0.00472242486873024" flag="0"/>
			<psa30 value="0.000768559298699384" flag="0"/>
		</comp>
		<comp name=".HNZ" depth="0.0">
			<acc value="0.0027026025621714" flag="0"/>
			<vel value="0.0012392965012" flag="0"/>
			<psa03 value="0.004919783268256" flag="0"/>
			<psa10 value="0.00179344064257755" flag="0"/>
			<psa30 value="0.000286891140546714" flag="0"/>
		</comp>
	</station>
	<station code="BALB" name="BALB" netid="KO" source="Bogazici University Kandilli Observatory And Earthquake Research Institute (KOERI)" insttype="" lat="39.6507" lon="27.8642">
		<comp name=".HNE" depth="0.0">
			<acc value="0.048431932714398" flag="0"/>
			<vel value="0.0188557523964" flag="0"/>
			<psa03 value="0.138681697398442" flag="0"/>
			<psa10 value="0.00897899106407211" flag="0"/>
			<psa30 value="0.00107318630165815" flag="0"/>
		</comp>
		<comp name=".HNN" depth="0.0">
			<acc value="0.04527217399314" flag="0"/>
			<vel value="0.0179468478071" flag="0"/>
			<psa03 value="0.124741430174279" flag="0"/>
			<psa10 value="0.0191933945931823" flag="0"/>
			<psa30 value="0.000986464098403425" flag="0"/>
		</comp>
		<comp name=".HNZ" depth="0.0">
			<acc value="0.022824679586286" flag="0"/>
			<vel value="0.0106325940449" flag="0"/>
			<psa03 value="0.0482020473155418" flag="0"/>
			<psa10 value="0.00629358395030853" flag="0"/>
			<psa30 value="0.000567964604032191" flag="0"/>
		</comp>
	</station>
	<station code="BASM" name="BASM" netid="KO" source="Bogazici University Kandilli Observatory And Earthquake Research Institute (KOERI)" insttype="" lat="37.9194" lon="30.035">
		<comp name=".HNE" depth="0.0">
			<acc value="0.00089555293990782" flag="0"/>
			<vel value="0.00099375238524" flag="0"/>
			<psa03 value="0.00287305556020411" flag="0"/>
			<psa10 value="0.00231938403843504" flag="0"/>
			<psa30 value="0.000556422224823566" flag="0"/>
		</comp>
		<comp name=".HNN" depth="0.0">
			<acc value="0.0010959034971966" flag="0"/>
			<vel value="0.000989879598016" flag="0"/>
			<psa03 value="0.00199272071239621" flag="0"/>
			<psa10 value="0.00208070533651693" flag="0"/>
			<psa30 value="0.00015633023892366" flag="0"/>
		</comp>
		<comp name=".HNZ" depth="0.0">
			<acc value="0.00072791181611412" flag="0"/>
			<vel value="0.000524790512879" flag="0"/>
			<psa03 value="0.00158835636013454" flag="0"/>
			<psa10 value="0.00100817342716526" flag="0"/>
			<psa30 value="0.000128214522228601" flag="0"/>
		</comp>
	</station>
	<station code="BIGA" name="BIGA" netid="KO" source="Bogazici University Kandilli Observatory And Earthquake Research Institute (KOERI)" insttype="" lat="40.28134" lon="27.15048">
		<comp name=".HNE" depth="0.0">
			<acc value="0.0169754807895" flag="0"/>
			<vel value="0.00582031157262" flag="0"/>
			<psa03 value="0.0306772822193745" flag="0"/>
			<psa10 value="0.00486280791839585" flag="0"/>
			<psa30 value="0.000591158432177504" flag="0"/>
		</comp>
		<comp name=".HNN" depth="0.0">
			<acc value="0.01600959271209" flag="0"/>
			<vel value="0.00877352529437" flag="0"/>
			<psa03 value="0.0564285506144206" flag="0"/>
			<psa10 value="0.00676559256232178" flag="0"/>
			<psa30 value="0.000754710568787518" flag="0"/>
		</comp>
		<comp name=".HNZ" depth="0.0">
			<acc value="0.0066363294840606" flag="0"/>
			<vel value="0.00226758546797" flag="0"/>
			<psa03 value="0.0102601653626716" flag="0"/>
			<psa10 value="0.00218006582491234" flag="0"/>
			<psa30 value="0.000383366932635962" flag="0"/>
		</comp>
	</station>
	<station code="BMYO" name="BMYO" netid="KO" source="Bogazici University Kandilli Observatory And Earthquake Research Institute (KOERI)" insttype="" lat="39.8098" lon="26.6009">
		<comp name=".HNE" depth="0.0">
			<acc value="0.02909008850832" flag="0"/>
			<vel value="0.0204931723072" flag="0"/>
			<psa03 value="0.0656053772843452" flag="0"/>
			<psa10 value="0.0117349023796936" flag="0"/>
			<psa30 value="0.000914323486109864" flag="0"/>
		</comp>
		<comp name=".HNN" depth="0.0">
			<acc value="0.03020224723008" flag="0"/>
			<vel value="0.0135520442363" flag="0"/>
			<psa03 value="0.0969404218273373" flag="0"/>
			<psa10 value="0.00850044811298503" flag="0"/>
			<psa30 value="0.00079916450322535" flag="0"/>
		</comp>
		<comp name=".HNZ" depth="0.0">
			<acc value="0.008177878594425" flag="0"/>
			<vel value="0.00395186321635" flag="0"/>
			<psa03 value="0.0252010652802228" flag="0"/>
			<psa10 value="0.00892768860303623" flag="0"/>
			<psa30 value="0.000406964537528248" flag="0"/>
		</comp>
	</station>
	<station code="BOTS" name="BOTS" netid="KO" source="Bogazici University Kandilli Observatory And Earthquake Research Institute (KOERI)" insttype="" lat="40.9902" lon="27.981">
		<comp name=".HNE" depth="0.0">
			<acc value="0.0079698844618296" flag="0"/>
			<vel value="0.0042467639024" flag="0"/>
			<psa03 value="0.0196027100416534" flag="0"/>
			<psa10 value="0.00337001004350029" flag="0"/>
			<psa30 value="0.00034211031937966" flag="0"/>
		</comp>
		<comp name=".HNN" depth="0.0">
			<acc value="0.0075712711025688" flag="0"/>
			<vel value="0.00385994591008" flag="0"/>
			<psa03 value="0.0186608572839564" flag="0"/>
			<psa10 value="0.00404769798389593" flag="0"/>
			<psa30 value="0.000631317446682144" flag="0"/>
		</comp>
		<comp name=".HNZ" depth="0.0">
			<acc value="0.0021528629119332" flag="0"/>
			<vel value="0.00101326293291" flag="0"/>
			<psa03 value="0.00421533979244763" flag="0"/>
			<psa10 value="0.000898093498192659" flag="0"/>
			<psa30 value="0.000333460683883859" flag="0"/>
		</comp>
	</station>
	<station code="BRGA" name="BRGA" netid="KO" source="Bogazici University Kandilli Observatory And Earthquake Research Institute (KOERI)" insttype="" lat="40.8846" lon="29.065">
		<comp name=".HNE" depth="0.0">
			<acc value="0.0050638941214164" flag="0"/>
			<vel value="0.00342735519623" flag="0"/>
			<psa03 value="0.0143880312614736" flag="0"/>
			<psa10 value="0.003349827143982" flag="0"/>
			<psa30 value="0.000493334347646461" flag="0"/>
		</comp>
		<comp name=".HNN" depth="0.0">
			<acc value="0.0049448171514072" flag="0"/>
			<vel value="0.00344629851867" flag="0"/>
			<psa03 value="0.0109543441611324" flag="0"/>
			<psa10 value="0.00252895635907153" flag="0"/>
			<psa30 value="0.000534142780170723" flag="0"/>
		</comp>
		<comp name=".HNZ" depth="0.0">
			<acc value="0.0031235716703298" flag="0"/>
			<vel value="0.0021242609796" flag="0"/>
			<psa03 value="0.00985525637800732" flag="0"/>
			<psa10 value="0.00167777864459979" flag="0"/>
			<psa30 value="0.000479203099021617" flag="0"/>
		</comp>
	</station>
	<station code="BUYK" name="BUYK" netid="KO" source="Bogazici University Kandilli Observatory And Earthquake Research Institute (KOERI)" insttype="" lat="41.0168" lon="28.5828">
		<comp name=".HNE" depth="0.0">
			<acc value="0.0061132078445616" flag="0"/>
			<vel value="0.00605531878025" flag="0"/>
			<psa03 value="0.0227013476028726" flag="0"/>
			<psa10 value="0.0107637539833844" flag="0"/>
			<psa30 value="0.000893523983246318" flag="0"/>
		</comp>
		<comp name=".HNN" depth="0.0">
			<acc value="0.0068286035186196" flag="0"/>
			<vel value="0.0066780242097" flag="0"/>
			<psa03 value="0.0242176980536366" flag="0"/>
			<psa10 value="0.0131972723795119" flag="0"/>
			<psa30 value="0.000917391293505968" flag="0"/>
		</comp>
		<comp name=".HNZ" depth="0.0">
