<?xml version="1.0" encoding="UTF-8" standalone="yes"?>
<!DOCTYPE earthquake SYSTEM "stationlist.dtd">
<stationlist created="" xmlns="ch.ethz.sed.shakemap.usgs.xml">
  <station code="KBS" name="KBS" netid="GE" insttype="" lat="78.9154" lon="11.9385">
    <comp name="00.HH1">
      <acc value="0.0490214494" flag="0"/>
      <vel value="0.0138488958" flag="0"/>
      <psa03 value="0.0335518373" flag="0"/>
      <psa10 value="0.0076584528" flag="0"/>
      <psa30 value="0.0004641805" flag="0"/>
    </comp>
    <comp name="00.HH2">
      <acc value="0.0390055540" flag="0"/>
      <vel value="0.0106904328" flag="0"/>
      <psa03 value="0.0367899760" flag="0"/>
      <psa10 value="0.0124422870" flag="0"/>
      <psa30 value="0.0008238248" flag="0"/>
    </comp>
    <comp name="00.HHZ">
      <acc value="0.0196551263" flag="0"/>
      <vel value="0.0073372737" flag="0"/>
      <psa03 value="0.0255286459" flag="0"/>
      <psa10 value="0.0076521829" flag="0"/>
      <psa30 value="0.0004236700" flag="0"/>
    </comp>
  </station>
</stationlist>
