<?xml version="1.0" encoding="UTF-8" standalone="yes"?>
<!DOCTYPE earthquake SYSTEM "stationlist.dtd">
<stationlist created="" xmlns="ch.ethz.sed.shakemap.usgs.xml">
  <station code="BNGB" name="BNGB" netid="KO" insttype="CMG-3ESPC" lat="38.9913" lon="40.6792">
    <comp name="--.HHN">
      <acc value="0.0228243983" flag="0"/>
      <vel value="0.0103705344" flag="0"/>
      <psa03 value="0.0521589275" flag="0"/>
      <psa10 value="0.0101226103" flag="0"/>
      <psa30 value="0.0011446404" flag="0"/>
    </comp>
    <comp name="--.HHZ">
      <acc value="0.0191173713" flag="0"/>
      <vel value="0.0077417229" flag="0"/>
      <psa03 value="0.0363516072" flag="0"/>
      <psa10 value="0.0101142418" flag="0"/>
      <psa30 value="0.0010929781" flag="0"/>
    </comp>
    <comp name="--.HHE">
      <acc value="0.0300620497" flag="0"/>
      <vel value="0.0114637965" flag="0"/>
      <psa03 value="0.0574795658" flag="0"/>
      <psa10 value="0.0149796208" flag="0"/>
      <psa30 value="0.0010427406" flag="0"/>
    </comp>
  </station>
  <station code="GURO" name="GURO" netid="KO" insttype="CMG-3T" lat="38.5509" lon="42.0322">
    <comp name="--.HHE">
      <acc value="0.0080176614" flag="0"/>
      <vel value="0.0040377089" flag="0"/>
      <psa03 value="0.0232606956" flag="0"/>
      <psa10 value="0.0042358340" flag="0"/>
      <psa30 value="0.0002501746" flag="0"/>
    </comp>
    <comp name="--.HHN">
      <acc value="0.0060523910" flag="0"/>
      <vel value="0.0024536910" flag="0"/>
      <psa03 value="0.0128239574" flag="0"/>
      <psa10 value="0.0023247031" flag="0"/>
      <psa30 value="0.0002516992" flag="0"/>
    </comp>
    <comp name="--.HHZ">
      <acc value="0.0088959363" flag="0"/>
      <vel value="0.0046616610" flag="0"/>
      <psa03 value="0.0258662239" flag="0"/>
      <psa10 value="0.0043627102" flag="0"/>
      <psa30 value="0.0002650428" flag="0"/>
    </comp>
  </station>
  <station code="KOPR" name="KOPR" netid="KO" insttype="CMG-3T" lat="39.9917" lon="41.8535">
    <comp name="--.HHE">
      <acc value="0.0068809117" flag="0"/>
      <vel value="0.0070368387" flag="0"/>
      <psa03 value="0.0223555486" flag="0"/>
      <psa10 value="0.0097223059" flag="0"/>
      <psa30 value="0.0014692228" flag="0"/>
    </comp>
    <comp name="--.HHN">
      <acc value="0.0057573859" flag="0"/>
      <vel value="0.0043985774" flag="0"/>
      <psa03 value="0.0202062064" flag="0"/>
      <psa10 value="0.0066994886" flag="0"/>
      <psa30 value="0.0009822321" flag="0"/>
    </comp>
    <comp name="--.HHZ">
      <acc value="0.0051008112" flag="0"/>
      <vel value="0.0035486443" flag="0"/>
      <psa03 value="0.0156554442" flag="0"/>
      <psa10 value="0.0085494786" flag="0"/>
      <psa30 value="0.0017386243" flag="0"/>
    </comp>
  </station>
  <station code="YEDI" name="YEDI" netid="KO" insttype="CMG-3T" lat="39.4377" lon="40.5443">
    <comp name="--.HHZ">
      <acc value="0.0000346295" flag="0"/>
      <vel value="0.0000045374" flag="0"/>
      <psa03 value="0.0000108053" flag="0"/>
      <psa10 value="0.0000046505" flag="0"/>
      <psa30 value="0.0000005525" flag="0"/>
    </comp>
    <comp name="--.HHE">
      <acc value="0.1168070902" flag="0"/>
      <vel value="0.0346989480" flag="0"/>
      <psa03 value="0.1722730450" flag="0"/>
      <psa10 value="0.0322503887" flag="0"/>
      <psa30 value="0.0015961361" flag="0"/>
    </comp>
    <comp name="--.HHN">
      <acc value="0.1009051232" flag="0"/>
      <vel value="0.0316701179" flag="0"/>
      <psa03 value="0.1830770643" flag="0"/>
      <psa10 value="0.0254021784" flag="0"/>
      <psa30 value="0.0018997264" flag="0"/>
    </comp>
  </station>
</stationlist>
