<stationlist created="1778138309">
	<station code="MALA" name="MALA" netid="CL" source="Corinth Riff Laboratory (CRLNET)" insttype="" lat="38.39341" lon="21.87263">
		<comp name="01.HNE" depth="0.0">
			<acc value="0.0123570863959701" flag="0"/>
			<vel value="0.0170414463958685" flag="0"/>
			<psa03 value="0.0262583410487177" flag="0"/>
			<psa10 value="0.0198444208454698" flag="0"/>
			<psa30 value="0.00272595224762326" flag="0"/>
		</comp>
		<comp name="01.HNN" depth="0.0">
			<acc value="0.00815371932875003" flag="0"/>
			<vel value="0.00878281497308391" flag="0"/>
			<psa03 value="0.0263546885771246" flag="0"/>
			<psa10 value="0.0142999063611066" flag="0"/>
			<psa30 value="0.00139372232726536" flag="0"/>
		</comp>
		<comp name="01.HNZ" depth="0.0">
			<acc value="0.00530393427205875" flag="0"/>
			<vel value="0.00621172926539633" flag="0"/>
			<psa03 value="0.00975366110611824" flag="0"/>
			<psa10 value="0.0095343934817802" flag="0"/>
			<psa30 value="0.00150598049298192" flag="0"/>
		</comp>
	</station>
	<station code="ROD3" name="ROD3" netid="CL" source="Corinth Riff Laboratory (CRLNET)" insttype="" lat="38.30811" lon="21.89204">
		<comp name="00.HNE" depth="0.0">
			<acc value="0.00604394419964994" flag="0"/>
			<vel value="0.00448942040965468" flag="0"/>
			<psa03 value="0.0184346534969881" flag="0"/>
			<psa10 value="0.00699191911781553" flag="0"/>
			<psa30 value="0.000527277689976468" flag="0"/>
		</comp>
		<comp name="00.HNN" depth="0.0">
			<acc value="0.00480553253549139" flag="0"/>
			<vel value="0.00285824965984762" flag="0"/>
			<psa03 value="0.0148727847281423" flag="0"/>
			<psa10 value="0.0042665324805914" flag="0"/>
			<psa30 value="0.000286147289186883" flag="0"/>
		</comp>
		<comp name="00.HNZ" depth="0.0">
			<acc value="0.00243218445916091" flag="0"/>
			<vel value="0.00178174335529015" flag="0"/>
			<psa03 value="0.00511092483673027" flag="0"/>
			<psa10 value="0.00316885726499347" flag="0"/>
			<psa30 value="0.000400113614938506" flag="0"/>
		</comp>
	</station>
	<station code="AIGS" name="AIGS" netid="HA" source="Hellenic Seismological Network, University of Athens, Seismological Laboratory (HA)" insttype="" lat="38.25001" lon="22.0878">
		<comp name="--.HNE" depth="0.0">
			<acc value="0.00445743201480199" flag="0"/>
			<vel value="0.00328448785617649" flag="0"/>
			<psa03 value="0.0101344571653609" flag="0"/>
			<psa10 value="0.00613799879979423" flag="0"/>
			<psa30 value="0.000669373873982329" flag="0"/>
		</comp>
		<comp name="--.HNN" depth="0.0">
			<acc value="0.00412208044767254" flag="0"/>
			<vel value="0.00251422982664543" flag="0"/>
			<psa03 value="0.0118961604580921" flag="0"/>
			<psa10 value="0.00364448861698308" flag="0"/>
			<psa30 value="0.000719992123029217" flag="0"/>
		</comp>
		<comp name="--.HNZ" depth="0.0">
			<acc value="0.00503412813136652" flag="0"/>
			<vel value="0.00232150805370647" flag="0"/>
			<psa03 value="0.00359796621218563" flag="0"/>
			<psa10 value="0.00427976898245634" flag="0"/>
			<psa30 value="0.000839883659002853" flag="0"/>
		</comp>
	</station>
	<station code="LTRS" name="LTRS" netid="HA" source="Hellenic Seismological Network, University of Athens, Seismological Laboratory (HA)" insttype="" lat="37.97528" lon="22.9765">
		<comp name="--.HNE" depth="0.0">
			<acc value="0.00235999946745965" flag="0"/>
			<vel value="0.00216590515841977" flag="0"/>
			<psa03 value="0.00436462409586286" flag="0"/>
			<psa10 value="0.00464089962430714" flag="0"/>
			<psa30 value="0.000454307647734904" flag="0"/>
		</comp>
		<comp name="--.HNN" depth="0.0">
			<acc value="0.00229873635441457" flag="0"/>
			<vel value="0.00194286286322097" flag="0"/>
			<psa03 value="0.00534423944631065" flag="0"/>
			<psa10 value="0.00286077154332478" flag="0"/>
			<psa30 value="0.00072571453335998" flag="0"/>
		</comp>
		<comp name="--.HNZ" depth="0.0">
			<acc value="0.00695874739913414" flag="0"/>
			<vel value="0.00136140120388085" flag="0"/>
			<psa03 value="0.00285408718124651" flag="0"/>
			<psa10 value="0.00276090688090783" flag="0"/>
			<psa30 value="0.000599940420192905" flag="0"/>
		</comp>
	</station>
	<station code="XLKS" name="XLKS" netid="HA" source="Hellenic Seismological Network, University of Athens, Seismological Laboratory (HA)" insttype="" lat="38.0772" lon="22.6361">
		<comp name="--.HNE" depth="0.0">
			<acc value="0.00492504694625809" flag="0"/>
			<vel value="0.00509629141768197" flag="0"/>
			<psa03 value="0.00853502438786729" flag="0"/>
			<psa10 value="0.0166765803665913" flag="0"/>
			<psa30 value="0.000988851027359964" flag="0"/>
		</comp>
		<comp name="--.HNN" depth="0.0">
			<acc value="0.00600431520471502" flag="0"/>
			<vel value="0.00462320038962725" flag="0"/>
			<psa03 value="0.0115875358465546" flag="0"/>
			<psa10 value="0.00691878552310431" flag="0"/>
			<psa30 value="0.000987223315364065" flag="0"/>
		</comp>
		<comp name="--.HNZ" depth="0.0">
			<acc value="0.00866980639461783" flag="0"/>
			<vel value="0.00209558890654367" flag="0"/>
			<psa03 value="0.00900472086752673" flag="0"/>
			<psa10 value="0.00479280203085077" flag="0"/>
			<psa30 value="0.000863309690028362" flag="0"/>
		</comp>
	</station>
	<station code="LAM2" name="LAM2" netid="HI" source="ITSAK Strong Motion Network" insttype="" lat="38.90203" lon="22.431301">
		<comp name="--.HNE" depth="0.0">
			<acc value="0.0136080102082184" flag="0"/>
			<vel value="0.00662118518398631" flag="0"/>
			<psa03 value="0.0420826080787517" flag="0"/>
			<psa10 value="0.00600852897306751" flag="0"/>
			<psa30 value="0.00056447853976834" flag="0"/>
		</comp>
		<comp name="--.HNN" depth="0.0">
			<acc value="0.0110609068990863" flag="0"/>
			<vel value="0.00832388396092815" flag="0"/>
			<psa03 value="0.0262465798529155" flag="0"/>
			<psa10 value="0.0095043614922983" flag="0"/>
			<psa30 value="0.00102808487640861" flag="0"/>
		</comp>
		<comp name="--.HNZ" depth="0.0">
			<acc value="0.00699374730035399" flag="0"/>
			<vel value="0.00487133031493171" flag="0"/>
			<psa03 value="0.0244980551675712" flag="0"/>
			<psa10 value="0.00575527422742991" flag="0"/>
			<psa30 value="0.000749188848832605" flag="0"/>
		</comp>
	</station>
	<station code="MSL1" name="MSL1" netid="HI" source="ITSAK Strong Motion Network" insttype="" lat="38.3727" lon="21.4243">
		<comp name="--.HNE" depth="0.0">
			<acc value="0.00777728995378892" flag="0"/>
			<vel value="0.0113446241381669" flag="0"/>
			<psa03 value="0.0152235423391508" flag="0"/>
			<psa10 value="0.0156529031780155" flag="0"/>
			<psa30 value="0.00114575954678127" flag="0"/>
		</comp>
		<comp name="--.HNN" depth="0.0">
			<acc value="0.00884873496765633" flag="0"/>
			<vel value="0.00983833584612946" flag="0"/>
			<psa03 value="0.01710500942499" flag="0"/>
			<psa10 value="0.0184380476801553" flag="0"/>
			<psa30 value="0.00133999970590277" flag="0"/>
		</comp>
		<comp name="--.HNZ" depth="0.0">
			<acc value="0.0048382552910166" flag="0"/>
			<vel value="0.00285746561308762" flag="0"/>
			<psa03 value="0.00539983818153683" flag="0"/>
			<psa10 value="0.00768595696941734" flag="0"/>
			<psa30 value="0.000325390019033345" flag="0"/>
		</comp>
	</station>
	<station code="SKO1" name="SKO1" netid="HI" source="ITSAK Strong Motion Network" insttype="" lat="39.123383" lon="23.728705">
		<comp name="--.HNE" depth="0.0">
			<acc value="0.00204556882228182" flag="0"/>
			<vel value="0.00152610964394818" flag="0"/>
			<psa03 value="0.00509381172389771" flag="0"/>
			<psa10 value="0.00146349765266231" flag="0"/>
			<psa30 value="0.000166665298570684" flag="0"/>
		</comp>
		<comp name="--.HNN" depth="0.0">
			<acc value="0.00205752547579306" flag="0"/>
			<vel value="0.00124121957929152" flag="0"/>
			<psa03 value="0.00459754447361473" flag="0"/>
			<psa10 value="0.00240910849786508" flag="0"/>
			<psa30 value="0.00011441457159118" flag="0"/>
		</comp>
		<comp name="--.HNZ" depth="0.0">
			<acc value="0.00156945830589606" flag="0"/>
			<vel value="0.000965902688460221" flag="0"/>
			<psa03 value="0.00550601709034866" flag="0"/>
			<psa10 value="0.00240107007473411" flag="0"/>
			<psa30 value="0.000101629688197088" flag="0"/>
		</comp>
	</station>
	<station code="VOL2" name="VOL2" netid="HI" source="ITSAK Strong Motion Network" insttype="" lat="39.366" lon="22.9506">
		<comp name="--.HNE" depth="0.0">
			<acc value="0.013421995850298" flag="0"/>
			<vel value="0.00685889818102678" flag="0"/>
			<psa03 value="0.0308886451794928" flag="0"/>
			<psa10 value="0.0044796998831421" flag="0"/>
			<psa30 value="0.000535631941319879" flag="0"/>
		</comp>
		<comp name="--.HNN" depth="0.0">
			<acc value="0.0138512762813193" flag="0"/>
			<vel value="0.00607562281070529" flag="0"/>
			<psa03 value="0.0471635306025304" flag="0"/>
			<psa10 value="0.00620859207000758" flag="0"/>
			<psa30 value="0.000505795068941132" flag="0"/>
		</comp>
		<comp name="--.HNZ" depth="0.0">
			<acc value="0.00987261873608457" flag="0"/>
			<vel value="0.00281841739303841" flag="0"/>
			<psa03 value="0.016400181483597" flag="0"/>
			<psa10 value="0.00438131164665574" flag="0"/>
			<psa30 value="0.000398300890687406" flag="0"/>
		</comp>
	</station>
	<station code="DLFA" name="DLFA" netid="HL" source="National Observatory of Athens Seismic Network" insttype="" lat="38.47836" lon="22.49583">
		<comp name="00.HNE" depth="0.0">
			<acc value="0.00367099614804653" flag="0"/>
			<vel value="0.00440355675522652" flag="0"/>
			<psa03 value="0.00703065259519732" flag="0"/>
			<psa10 value="0.006105396952589" flag="0"/>
			<psa30 value="0.000637016730482181" flag="0"/>
		</comp>
		<comp name="00.HNN" depth="0.0">
			<acc value="0.00295321721940746" flag="0"/>
			<vel value="0.00283948666183855" flag="0"/>
			<psa03 value="0.0065648443939173" flag="0"/>
			<psa10 value="0.00599661771522413" flag="0"/>
			<psa30 value="0.000371728531440808" flag="0"/>
		</comp>
		<comp name="00.HNZ" depth="0.0">
			<acc value="0.00269929965451093" flag="0"/>
			<vel value="0.00232795547641239" flag="0"/>
			<psa03 value="0.00472444252843467" flag="0"/>
			<psa10 value="0.00524848206117512" flag="0"/>
			<psa30 value="0.000272246785013188" flag="0"/>
		</comp>
	</station>
	<station code="JAN" name="JAN" netid="HL" source="National Observatory of Athens Seismic Network" insttype="" lat="39.65616" lon="20.84874">
		<comp name="00.HNE" depth="0.0">
			<acc value="0.00280392525058519" flag="0"/>
			<vel value="0.00220456430760198" flag="0"/>
			<psa03 value="0.00807181271276415" flag="0"/>
			<psa10 value="0.00432444006666611" flag="0"/>
			<psa30 value="0.000411721909972614" flag="0"/>
		</comp>
		<comp name="00.HNN" depth="0.0">
			<acc value="0.00367958949545475" flag="0"/>
			<vel value="0.0023603087262157" flag="0"/>
			<psa03 value="0.00712722474782574" flag="0"/>
			<psa10 value="0.00399226274906485" flag="0"/>
			<psa30 value="0.000541954964356748" flag="0"/>
		</comp>
		<comp name="00.HNZ" depth="0.0">
			<acc value="0.0021464759018776" flag="0"/>
			<vel value="0.00150670884045072" flag="0"/>
			<psa03 value="0.00380863837130913" flag="0"/>
			<psa10 value="0.00264704113473378" flag="0"/>
			<psa30 value="0.000300923710760582" flag="0"/>
		</comp>
	</station>
	<station code="PATC" name="PATC" netid="HL" source="National Observatory of Athens Seismic Network" insttype="" lat="38.26933" lon="21.76001">
		<comp name="00.HNE" depth="0.0">
			<acc value="0.005044856640074" flag="0"/>
			<vel value="0.00509778576814013" flag="0"/>
			<psa03 value="0.0109842523924091" flag="0"/>
			<psa10 value="0.00852648515029119" flag="0"/>
			<psa30 value="0.00129491859450093" flag="0"/>
		</comp>
		<comp name="00.HNN" depth="0.0">
			<acc value="0.00323337164714304" flag="0"/>
			<vel value="0.00517605195203696" flag="0"/>
			<psa03 value="0.00816226662156522" flag="0"/>
			<psa10 value="0.0079872247394449" flag="0"/>
			<psa30 value="0.00104942316496899" flag="0"/>
		</comp>
		<comp name="00.HNZ" depth="0.0">
			<acc value="0.00302115613773994" flag="0"/>
			<vel value="0.00244326800002016" flag="0"/>
			<psa03 value="0.00617644431536332" flag="0"/>
			<psa10 value="0.00459075833397467" flag="0"/>
			<psa30 value="0.000559112246776219" flag="0"/>
		</comp>
	</station>
	<station code="PATG" name="PATG" netid="HL" source="National Observatory of Athens Seismic Network" insttype="" lat="38.23865" lon="21.72657">
		<comp name="00.HNE" depth="0.0">
			<acc value="0.00517131838403025" flag="0"/>
			<vel value="0.00438145367688799" flag="0"/>
			<psa03 value="0.0140134778033081" flag="0"/>
			<psa10 value="0.00835535662637811" flag="0"/>
			<psa30 value="0.00117550120451842" flag="0"/>
		</comp>
		<comp name="00.HNN" depth="0.0">
			<acc value="0.00481248987978481" flag="0"/>
			<vel value="0.00479825605180439" flag="0"/>
			<psa03 value="0.0103279380814504" flag="0"/>
			<psa10 value="0.00719812465294461" flag="0"/>
			<psa30 value="0.00131898935573953" flag="0"/>
		</comp>
		<comp name="00.HNZ" depth="0.0">
			<acc value="0.0175201355050786" flag="0"/>
			<vel value="0.00239138539433455" flag="0"/>
			<psa03 value="0.00620301117945532" flag="0"/>
			<psa10 value="0.00482161659593743" flag="0"/>
			<psa30 value="0.000647668842381931" flag="0"/>
		</comp>
	</station>
	<station code="PLG" name="PLG" netid="HL" source="National Observatory of Athens Seismic Network" insttype="" lat="40.37328" lon="23.44443">
		<comp name="--.HNE" depth="0.0">
			<acc value="2.74030905618644e-30" flag="0"/>
			<vel value="1.41174107113271e-29" flag="0"/>
			<psa03 value="0.0" flag="0"/>
			<psa10 value="0.0" flag="0"/>
			<psa30 value="0.0" flag="0"/>
		</comp>
		<comp name="--.HNN" depth="0.0">
			<acc value="5.47498492753597e-30" flag="0"/>
			<vel value="2.82389141201267e-29" flag="0"/>
			<psa03 value="0.0" flag="0"/>
			<psa10 value="0.0" flag="0"/>
			<psa30 value="0.0" flag="0"/>
		</comp>
		<comp name="--.HNZ" depth="0.0">
			<acc value="2.73749248965825e-30" flag="0"/>
			<vel value="1.41195222270984e-29" flag="0"/>
			<psa03 value="0.0" flag="0"/>
			<psa10 value="0.0" flag="0"/>
			<psa30 value="0.0" flag="0"/>
		</comp>
	</station>
	<station code="RIOA" name="RIOA" netid="HL" source="National Observatory of Athens Seismic Network" insttype="" lat="38.29585" lon="21.79118">
		<comp name="00.HNE" depth="0.0">
			<acc value="0.00343470392059846" flag="0"/>
			<vel value="0.00371411671736857" flag="0"/>
			<psa03 value="0.00563241283322911" flag="0"/>
			<psa10 value="0.00441247011697785" flag="0"/>
			<psa30 value="0.000946390610398527" flag="0"/>
		</comp>
		<comp name="00.HNN" depth="0.0">
			<acc value="0.00375599596633809" flag="0"/>
			<vel value="0.00327267472399066" flag="0"/>
			<psa03 value="0.00713111628164811" flag="0"/>
			<psa10 value="0.00589290225086423" flag="0"/>
			<psa30 value="0.000549484317305482" flag="0"/>
		</comp>
		<comp name="00.HNZ" depth="0.0">
			<acc value="0.00738309118875081" flag="0"/>
			<vel value="0.00283418039576974" flag="0"/>
			<psa03 value="0.00463736254106883" flag="0"/>
			<psa10 value="0.00299796641306224" flag="0"/>
			<psa30 value="0.000611058604634472" flag="0"/>
		</comp>
	</station>
	<station code="ANX" name="ANX" netid="HP" source="University of Patras, Seismological Laboratory (PSLNET)" insttype="" lat="38.5933" lon="21.9209">
		<comp name="--.HNE" depth="0.0">
			<acc value="0.0140777709396312" flag="0"/>
			<vel value="0.0122686894994142" flag="0"/>
			<psa03 value="0.0490713184424061" flag="0"/>
			<psa10 value="0.0196555677098812" flag="0"/>
			<psa30 value="0.000871217297202543" flag="0"/>
		</comp>
		<comp name="--.HNN" depth="0.0">
			<acc value="0.0217075987784488" flag="0"/>
			<vel value="0.0155635892061371" flag="0"/>
			<psa03 value="0.087584770811131" flag="0"/>
			<psa10 value="0.0112684061641021" flag="0"/>
			<psa30 value="0.000750925265947849" flag="0"/>
		</comp>
		<comp name="--.HNZ" depth="0.0">
			<acc value="0.00674344927638049" flag="0"/>
			<vel value="0.00469276785173602" flag="0"/>
			<psa03 value="0.024837731315284" flag="0"/>
			<psa10 value="0.00930686215892456" flag="0"/>
			<psa30 value="0.000753104681154112" flag="0"/>
		</comp>
	</station>
	<station code="FSK" name="FSK" netid="HP" source="University of Patras, Seismological Laboratory (PSLNET)" insttype="" lat="38.4593" lon="20.5623">
		<comp name="--.HNE" depth="0.0">
			<acc value="0.00165007372512445" flag="0"/>
			<vel value="0.00165947521046873" flag="0"/>
			<psa03 value="0.00404411588460186" flag="0"/>
			<psa10 value="0.00329503742068239" flag="0"/>
			<psa30 value="0.000416250334958709" flag="0"/>
		</comp>
		<comp name="--.HNN" depth="0.0">
			<acc value="0.00128418614815095" flag="0"/>
			<vel value="0.00171164741816831" flag="0"/>
			<psa03 value="0.00315710758038337" flag="0"/>
			<psa10 value="0.00257546436187301" flag="0"/>
			<psa30 value="0.000432148419378786" flag="0"/>
		</comp>
		<comp name="--.HNZ" depth="0.0">
			<acc value="0.000876362859209081" flag="0"/>
			<vel value="0.00118355710982577" flag="0"/>
			<psa03 value="0.00179495370504883" flag="0"/>
			<psa10 value="0.00148038361502232" flag="0"/>
			<psa30 value="0.000262842255759487" flag="0"/>
		</comp>
	</station>
	<station code="LTK" name="LTK" netid="HP" source="University of Patras, Seismological Laboratory (PSLNET)" insttype="" lat="38.0228" lon="22.9673">
		<comp name="--.HNE" depth="0.0">
			<acc value="0.000895857156448578" flag="0"/>
			<vel value="0.000691776681447818" flag="0"/>
			<psa03 value="0.00263942631388328" flag="0"/>
			<psa10 value="0.00151352866228176" flag="0"/>
			<psa30 value="7.33242584140481e-05" flag="0"/>
		</comp>
		<comp name="--.HNN" depth="0.0">
			<acc value="0.00106178868391974" flag="0"/>
			<vel value="0.000992022224627242" flag="0"/>
			<psa03 value="0.00256680382721908" flag="0"/>
			<psa10 value="0.00164106980657064" flag="0"/>
			<psa30 value="0.000110187820235678" flag="0"/>
		</comp>
		<comp name="--.HNZ" depth="0.0">
			<acc value="0.000659736513060893" flag="0"/>
			<vel value="0.000646970000247278" flag="0"/>
			<psa03 value="0.00194210879840731" flag="0"/>
			<psa10 value="0.001038223699098" flag="0"/>
			<psa30 value="8.30454557808913e-05" flag="0"/>
		</comp>
	</station>
	<station code="PDO" name="PDO" netid="HP" source="University of Patras, Seismological Laboratory (PSLNET)" insttype="" lat="38.5986" lon="21.1833">
		<comp name="--.HNE" depth="0.0">
			<acc value="0.00417615117537073" flag="0"/>
			<vel value="0.00360043684721902" flag="0"/>
			<psa03 value="0.00988020008768329" flag="0"/>
			<psa10 value="0.00608141973921953" flag="0"/>
			<psa30 value="0.000512596456998138" flag="0"/>
		</comp>
		<comp name="--.HNN" depth="0.0">
			<acc value="0.00521321502215922" flag="0"/>
			<vel value="0.00422918217983042" flag="0"/>
			<psa03 value="0.0154056650809492" flag="0"/>
			<psa10 value="0.00570736949146617" flag="0"/>
			<psa30 value="0.000463381373823142" flag="0"/>
		</comp>
		<comp name="--.HNZ" depth="0.0">
			<acc value="0.00326386341878897" flag="0"/>
			<vel value="0.00211760755177741" flag="0"/>
			<psa03 value="0.00598536264672619" flag="0"/>
			<psa10 value="0.00213099780877051" flag="0"/>
			<psa30 value="0.000198994119884025" flag="0"/>
		</comp>
	</station>
	<station code="SERG" name="SERG" netid="HP" source="University of Patras, Seismological Laboratory (PSLNET)" insttype="" lat="38.4133" lon="22.0566">
		<comp name="--.HNE" depth="0.0">
			<acc value="0.00871501291251725" flag="0"/>
			<vel value="0.0057696268931515" flag="0"/>
			<psa03 value="0.0157666264928888" flag="0"/>
			<psa10 value="0.00685691486195798" flag="0"/>
			<psa30 value="0.000599888385494298" flag="0"/>
		</comp>
		<comp name="--.HNN" depth="0.0">
			<acc value="0.00752341959767856" flag="0"/>
			<vel value="0.00599242474361519" flag="0"/>
			<psa03 value="0.0190289129158386" flag="0"/>
			<psa10 value="0.0124747185763954" flag="0"/>
			<psa30 value="0.000772693530903501" flag="0"/>
		</comp>
		<comp name="--.HNZ" depth="0.0">
			<acc value="0.00598830781657034" flag="0"/>
