<?xml version="1.0" encoding="UTF-8" standalone="yes"?>
<!DOCTYPE earthquake SYSTEM "stationlist.dtd">
<stationlist created="" xmlns="ch.ethz.sed.shakemap.usgs.xml">
  <station code="EVR" name="EVR" netid="HL" insttype="DR24" lat="38.9166" lon="21.8105">
    <comp name="--.HHE">
      <acc value="0.0078237238" flag="0"/>
      <vel value="0.0053465695" flag="0"/>
      <psa03 value="0.0154544047" flag="0"/>
      <psa10 value="0.0075382988" flag="0"/>
      <psa30 value="0.0007648329" flag="0"/>
    </comp>
    <comp name="--.HHZ">
      <acc value="0.0062397466" flag="0"/>
      <vel value="0.0038160376" flag="0"/>
      <psa03 value="0.0159285790" flag="0"/>
      <psa10 value="0.0070818956" flag="0"/>
      <psa30 value="0.0005621062" flag="0"/>
    </comp>
    <comp name="--.HHN">
      <acc value="0.0101127920" flag="0"/>
      <vel value="0.0054264082" flag="0"/>
      <psa03 value="0.0201739217" flag="0"/>
      <psa10 value="0.0062473596" flag="0"/>
      <psa30 value="0.0012233968" flag="0"/>
    </comp>
  </station>
  <station code="TETR" name="TETR" netid="HL" insttype="60" lat="39.3445" lon="21.2747">
    <comp name="--.HHE">
      <acc value="0.0296166389" flag="0"/>
      <vel value="0.0147442486" flag="0"/>
      <psa03 value="0.0504589045" flag="0"/>
      <psa10 value="0.0165229265" flag="0"/>
      <psa30 value="0.0007705674" flag="0"/>
    </comp>
    <comp name="--.HHN">
      <acc value="0.0203171162" flag="0"/>
      <vel value="0.0126418111" flag="0"/>
      <psa03 value="0.0552906068" flag="0"/>
      <psa10 value="0.0127071070" flag="0"/>
      <psa30 value="0.0007128540" flag="0"/>
    </comp>
    <comp name="--.HHZ">
      <acc value="0.0123374438" flag="0"/>
      <vel value="0.0054232708" flag="0"/>
      <psa03 value="0.0367995639" flag="0"/>
      <psa10 value="0.0095394108" flag="0"/>
      <psa30 value="0.0004664698" flag="0"/>
    </comp>
  </station>
  <station code="THL" name="THL" netid="HL" insttype="120" lat="39.5647" lon="22.0144">
    <comp name="--.HHE">
      <acc value="0.0965458494" flag="0"/>
      <vel value="0.0248499133" flag="0"/>
      <psa03 value="0.1011485481" flag="0"/>
      <psa10 value="0.0181110653" flag="0"/>
      <psa30 value="0.0009874899" flag="0"/>
    </comp>
    <comp name="--.HHZ">
      <acc value="0.0813725593" flag="0"/>
      <vel value="0.0259278465" flag="0"/>
      <psa03 value="0.1115754471" flag="0"/>
      <psa10 value="0.0242536497" flag="0"/>
      <psa30 value="0.0021229714" flag="0"/>
    </comp>
    <comp name="--.HHN">
      <acc value="0.0875875477" flag="0"/>
      <vel value="0.0243966754" flag="0"/>
      <psa03 value="0.1264580110" flag="0"/>
      <psa10 value="0.0249443994" flag="0"/>
      <psa30 value="0.0021419234" flag="0"/>
    </comp>
  </station>
  <station code="KANL" name="KANL" netid="HP" insttype="" lat="39.8334" lon="22.0247">
    <comp name="--.HHZ">
      <acc value="0.1099761731" flag="0"/>
      <vel value="0.0246437090" flag="0"/>
      <psa03 value="0.0534844017" flag="0"/>
      <psa10 value="0.0352778980" flag="0"/>
      <psa30 value="0.0015194369" flag="0"/>
    </comp>
    <comp name="--.HHE">
      <acc value="0.1497117463" flag="0"/>
      <vel value="0.0326335766" flag="0"/>
      <psa03 value="0.1138629813" flag="0"/>
      <psa10 value="0.0409414685" flag="0"/>
      <psa30 value="0.0022217085" flag="0"/>
    </comp>
  </station>
  <station code="PRMD" name="PRMD" netid="HP" insttype="120P," lat="39.5299" lon="21.0965">
    <comp name="--.HHE">
      <acc value="0.0090608887" flag="0"/>
      <vel value="0.0059455852" flag="0"/>
      <psa03 value="0.0169306436" flag="0"/>
      <psa10 value="0.0097550762" flag="0"/>
      <psa30 value="0.0004303498" flag="0"/>
    </comp>
    <comp name="--.HHN">
      <acc value="0.0073223111" flag="0"/>
      <vel value="0.0051422454" flag="0"/>
      <psa03 value="0.0360138222" flag="0"/>
      <psa10 value="0.0155306790" flag="0"/>
      <psa30 value="0.0006118245" flag="0"/>
    </comp>
    <comp name="--.HHZ">
      <acc value="0.0041589585" flag="0"/>
      <vel value="0.0032006511" flag="0"/>
      <psa03 value="0.0104237086" flag="0"/>
      <psa10 value="0.0050170980" flag="0"/>
      <psa30 value="0.0005118164" flag="0"/>
    </comp>
  </station>
  <station code="VRKS" name="VRKS" netid="HP" insttype="" lat="39.784" lon="21.9765">
    <comp name="--.HHN">
      <acc value="0.8128260234" flag="0"/>
      <vel value="0.1445536139" flag="0"/>
      <psa03 value="0.4080206446" flag="0"/>
      <psa10 value="0.0343350028" flag="0"/>
      <psa30 value="0.0023044866" flag="0"/>
    </comp>
    <comp name="--.HHE">
      <acc value="0.6607548181" flag="0"/>
      <vel value="0.1011327149" flag="0"/>
      <psa03 value="0.2747403349" flag="0"/>
      <psa10 value="0.0320063338" flag="0"/>
      <psa30 value="0.0017790313" flag="0"/>
    </comp>
    <comp name="--.HHZ">
      <acc value="0.6838101492" flag="0"/>
      <vel value="0.0938863865" flag="0"/>
      <psa03 value="0.1634593786" flag="0"/>
      <psa10 value="0.0291416511" flag="0"/>
      <psa30 value="0.0014356739" flag="0"/>
    </comp>
  </station>
  <station code="AGG" name="AGG" netid="HT" insttype="120P," lat="39.0211" lon="22.336">
    <comp name="--.HHE">
      <acc value="0.0200814330" flag="0"/>
      <vel value="0.0097139890" flag="0"/>
      <psa03 value="0.0552839207" flag="0"/>
      <psa10 value="0.0124487127" flag="0"/>
      <psa30 value="0.0007817749" flag="0"/>
    </comp>
    <comp name="--.HHZ">
      <acc value="0.0099524677" flag="0"/>
      <vel value="0.0065013902" flag="0"/>
      <psa03 value="0.0163074302" flag="0"/>
      <psa10 value="0.0098373564" flag="0"/>
      <psa30 value="0.0006193074" flag="0"/>
    </comp>
    <comp name="--.HHN">
      <acc value="0.0171537296" flag="0"/>
      <vel value="0.0125358484" flag="0"/>
      <psa03 value="0.0518836686" flag="0"/>
      <psa10 value="0.0094768314" flag="0"/>
      <psa30 value="0.0007541678" flag="0"/>
    </comp>
  </station>
  <station code="KPRO" name="KPRO" netid="HT" insttype="100" lat="39.9549" lon="21.3632">
    <comp name="--.HHE">
      <acc value="0.0088873721" flag="0"/>
      <vel value="0.0058624335" flag="0"/>
      <psa03 value="0.0263531231" flag="0"/>
      <psa10 value="0.0110297747" flag="0"/>
      <psa30 value="0.0006595954" flag="0"/>
    </comp>
    <comp name="--.HHN">
      <acc value="0.0065584411" flag="0"/>
      <vel value="0.0058441059" flag="0"/>
      <psa03 value="0.0201610829" flag="0"/>
      <psa10 value="0.0088332700" flag="0"/>
      <psa30 value="0.0007766928" flag="0"/>
    </comp>
    <comp name="--.HHZ">
      <acc value="0.0052416179" flag="0"/>
      <vel value="0.0036543915" flag="0"/>
      <psa03 value="0.0111754154" flag="0"/>
      <psa10 value="0.0072507330" flag="0"/>
      <psa30 value="0.0006577677" flag="0"/>
    </comp>
  </station>
  <station code="LIT" name="LIT" netid="HT" insttype="100" lat="40.1033" lon="22.4892">
    <comp name="--.HHE">
      <acc value="0.0590458652" flag="0"/>
      <vel value="0.0204980741" flag="0"/>
      <psa03 value="0.0939821972" flag="0"/>
      <psa10 value="0.0118757717" flag="0"/>
      <psa30 value="0.0007134727" flag="0"/>
    </comp>
    <comp name="--.HHZ">
      <acc value="0.0439044292" flag="0"/>
      <vel value="0.0179729389" flag="0"/>
      <psa03 value="0.1395113952" flag="0"/>
      <psa10 value="0.0130846870" flag="0"/>
      <psa30 value="0.0008950031" flag="0"/>
    </comp>
    <comp name="--.HHN">
      <acc value="0.0874772890" flag="0"/>
      <vel value="0.0320160445" flag="0"/>
      <psa03 value="0.2257705981" flag="0"/>
      <psa10 value="0.0118467960" flag="0"/>
      <psa30 value="0.0010797993" flag="0"/>
    </comp>
  </station>
  <station code="NESN" name="NESN" netid="HT" insttype="1s-100Hz," lat="39.7267" lon="22.5399">
    <comp name="--.HHZ">
      <acc value="0.0815299148" flag="0"/>
      <vel value="0.0207254543" flag="0"/>
      <psa03 value="0.1103022693" flag="0"/>
      <psa10 value="0.0142238578" flag="0"/>
      <psa30 value="0.0010923069" flag="0"/>
    </comp>
    <comp name="--.HHE">
      <acc value="0.0924583052" flag="0"/>
      <vel value="0.0305071687" flag="0"/>
      <psa03 value="0.1335310728" flag="0"/>
      <psa10 value="0.0341158182" flag="0"/>
      <psa30 value="0.0019564545" flag="0"/>
    </comp>
    <comp name="--.HHN">
      <acc value="0.0923415394" flag="0"/>
      <vel value="0.0393997380" flag="0"/>
      <psa03 value="0.1580875895" flag="0"/>
      <psa10 value="0.0345581379" flag="0"/>
      <psa30 value="0.0019106937" flag="0"/>
    </comp>
  </station>
  <station code="XOR" name="XOR" netid="HT" insttype="Compact," lat="39.366" lon="23.1918">
    <comp name="--.HHE">
      <acc value="0.0094194675" flag="0"/>
      <vel value="0.0088396509" flag="0"/>
      <psa03 value="0.0310256644" flag="0"/>
      <psa10 value="0.0124979007" flag="0"/>
      <psa30 value="0.0009705638" flag="0"/>
    </comp>
    <comp name="--.HHZ">
      <acc value="0.0093380782" flag="0"/>
      <vel value="0.0068659648" flag="0"/>
      <psa03 value="0.0313083554" flag="0"/>
      <psa10 value="0.0097461534" flag="0"/>
      <psa30 value="0.0008226783" flag="0"/>
    </comp>
    <comp name="--.HHN">
      <acc value="0.0223433673" flag="0"/>
      <vel value="0.0140417710" flag="0"/>
      <psa03 value="0.0550525078" flag="0"/>
      <psa10 value="0.0182338032" flag="0"/>
      <psa30 value="0.0012150796" flag="0"/>
    </comp>
  </station>
</stationlist>
