<?xml version="1.0" encoding="UTF-8" standalone="yes"?>
<!DOCTYPE earthquake SYSTEM "stationlist.dtd">
<stationlist created="" xmlns="ch.ethz.sed.shakemap.usgs.xml">
  <station code="ARPRA" name="ARPRA" netid="KO" insttype="CMG-5T" lat="39.0929" lon="38.3356">
    <comp name="--.HNN">
      <acc value="0.0203277860" flag="0"/>
      <vel value="0.0109569947" flag="0"/>
      <psa03 value="0.0635841370" flag="0"/>
      <psa10 value="0.0070065364" flag="0"/>
      <psa30 value="0.0007347037" flag="0"/>
    </comp>
    <comp name="--.HNE">
      <acc value="0.0260638952" flag="0"/>
      <vel value="0.0113531264" flag="0"/>
      <psa03 value="0.0762654212" flag="0"/>
      <psa10 value="0.0083685599" flag="0"/>
      <psa30 value="0.0007482310" flag="0"/>
    </comp>
    <comp name="--.HNZ">
      <acc value="0.0114975771" flag="0"/>
      <vel value="0.0046532976" flag="0"/>
      <psa03 value="0.0231065091" flag="0"/>
      <psa10 value="0.0065806471" flag="0"/>
      <psa30 value="0.0006378848" flag="0"/>
    </comp>
  </station>
</stationlist>
