<?xml version="1.0" encoding="UTF-8" standalone="yes"?>
<!DOCTYPE earthquake SYSTEM "stationlist.dtd">
<stationlist created="" xmlns="ch.ethz.sed.shakemap.usgs.xml">
  <station code="GVD" name="GVD" netid="GE" insttype="STS-2/N" lat="34.8391" lon="24.0874">
    <comp name="--.HHE">
      <acc value="0.0908376525" flag="0"/>
      <vel value="0.0121489035" flag="0"/>
      <psa03 value="0.0341146725" flag="0"/>
      <psa10 value="0.0094219606" flag="0"/>
      <psa30 value="0.0019067552" flag="0"/>
    </comp>
    <comp name="--.HHZ">
      <acc value="0.0202338596" flag="0"/>
      <vel value="0.0040561423" flag="0"/>
      <psa03 value="0.0247066316" flag="0"/>
      <psa10 value="0.0036898878" flag="0"/>
      <psa30 value="0.0002146201" flag="0"/>
    </comp>
    <comp name="--.HHN">
      <acc value="0.0165908188" flag="0"/>
      <vel value="0.0083166523" flag="0"/>
      <psa03 value="0.0430304095" flag="0"/>
      <psa10 value="0.0068387924" flag="0"/>
      <psa30 value="0.0004821788" flag="0"/>
    </comp>
  </station>
  <station code="GVDS" name="GVDS" netid="HC" insttype="60" lat="34.8389" lon="24.0585">
    <comp name="--.HHE">
      <acc value="0.0192476587" flag="0"/>
      <vel value="0.0056864147" flag="0"/>
      <psa03 value="0.0403342761" flag="0"/>
      <psa10 value="0.0048455809" flag="0"/>
      <psa30 value="0.0002641352" flag="0"/>
    </comp>
    <comp name="--.HHN">
      <acc value="0.0174913400" flag="0"/>
      <vel value="0.0067624601" flag="0"/>
      <psa03 value="0.0385580404" flag="0"/>
      <psa10 value="0.0060905172" flag="0"/>
      <psa30 value="0.0003856920" flag="0"/>
    </comp>
    <comp name="--.HHZ">
      <acc value="0.0114171107" flag="0"/>
      <vel value="0.0034015632" flag="0"/>
      <psa03 value="0.0097409163" flag="0"/>
      <psa10 value="0.0026831146" flag="0"/>
      <psa30 value="0.0001687644" flag="0"/>
    </comp>
  </station>
  <station code="IMOD" name="IMOD" netid="HC" insttype="120" lat="34.9731" lon="24.7995">
    <comp name="--.HHN">
      <acc value="0.0693297394" flag="0"/>
      <vel value="0.0446935032" flag="0"/>
      <psa03 value="0.1629262878" flag="0"/>
      <psa10 value="0.0321518301" flag="0"/>
      <psa30 value="0.0018775246" flag="0"/>
    </comp>
    <comp name="--.HHZ">
      <acc value="0.1099421802" flag="0"/>
      <vel value="0.0292381023" flag="0"/>
      <psa03 value="0.0912125911" flag="0"/>
      <psa10 value="0.0362019911" flag="0"/>
      <psa30 value="0.0016684787" flag="0"/>
    </comp>
    <comp name="--.HHE">
      <acc value="0.0595954708" flag="0"/>
      <vel value="0.0431753022" flag="0"/>
      <psa03 value="0.2153638179" flag="0"/>
      <psa10 value="0.0374435337" flag="0"/>
      <psa30 value="0.0017028394" flag="0"/>
    </comp>
  </station>
  <station code="IPPL" name="IPPL" netid="HC" insttype="60" lat="35.3486" lon="24.4632">
    <comp name="--.HHZ">
      <acc value="0.0096319923" flag="0"/>
      <vel value="0.0048833955" flag="0"/>
      <psa03 value="0.0244555283" flag="0"/>
      <psa10 value="0.0059372054" flag="0"/>
      <psa30 value="0.0002599567" flag="0"/>
    </comp>
    <comp name="--.HHE">
      <acc value="0.0117714366" flag="0"/>
      <vel value="0.0062822059" flag="0"/>
      <psa03 value="0.0353660808" flag="0"/>
      <psa10 value="0.0087234389" flag="0"/>
      <psa30 value="0.0003689185" flag="0"/>
    </comp>
    <comp name="--.HHN">
      <acc value="0.0141474779" flag="0"/>
      <vel value="0.0071178640" flag="0"/>
      <psa03 value="0.0417962821" flag="0"/>
      <psa10 value="0.0086854279" flag="0"/>
      <psa30 value="0.0004835607" flag="0"/>
    </comp>
  </station>
  <station code="KNSS" name="KNSS" netid="HC" insttype="60" lat="35.3042" lon="25.1802">
    <comp name="--.HHN">
      <acc value="0.0320671566" flag="0"/>
      <vel value="0.0137028336" flag="0"/>
      <psa03 value="0.0778087133" flag="0"/>
      <psa10 value="0.0075947528" flag="0"/>
      <psa30 value="0.0006289856" flag="0"/>
    </comp>
    <comp name="--.HHE">
      <acc value="0.0414988640" flag="0"/>
      <vel value="0.0165638915" flag="0"/>
      <psa03 value="0.1298102768" flag="0"/>
      <psa10 value="0.0078723932" flag="0"/>
      <psa30 value="0.0006836967" flag="0"/>
    </comp>
    <comp name="--.HHZ">
      <acc value="0.0328333497" flag="0"/>
      <vel value="0.0085004417" flag="0"/>
      <psa03 value="0.0841504621" flag="0"/>
      <psa10 value="0.0049121863" flag="0"/>
      <psa30 value="0.0002990077" flag="0"/>
    </comp>
  </station>
  <station code="PFKS" name="PFKS" netid="HC" insttype="120" lat="35.0429" lon="25.4733">
    <comp name="--.HHZ">
      <acc value="0.3038032897" flag="0"/>
      <vel value="0.0543075471" flag="0"/>
      <psa03 value="0.2746146697" flag="0"/>
      <psa10 value="0.0152817847" flag="0"/>
      <psa30 value="0.0011379056" flag="0"/>
    </comp>
    <comp name="--.HHN">
      <acc value="0.4535014135" flag="0"/>
      <vel value="0.2006101157" flag="0"/>
      <psa03 value="0.9463791645" flag="0"/>
      <psa10 value="0.0436782590" flag="0"/>
      <psa30 value="0.0035673844" flag="0"/>
    </comp>
    <comp name="--.HHE">
      <acc value="0.5403054504" flag="0"/>
      <vel value="0.1634925801" flag="0"/>
      <psa03 value="1.4954936069" flag="0"/>
      <psa10 value="0.0534337229" flag="0"/>
      <psa30 value="0.0042434498" flag="0"/>
    </comp>
  </station>
  <station code="STIA" name="STIA" netid="HC" insttype="120" lat="35.2021" lon="26.0909">
    <comp name="--.HHZ">
      <acc value="0.0289895252" flag="0"/>
      <vel value="0.0108284281" flag="0"/>
      <psa03 value="0.0641221298" flag="0"/>
      <psa10 value="0.0040777735" flag="0"/>
      <psa30 value="0.0003323730" flag="0"/>
    </comp>
    <comp name="--.HHN">
      <acc value="0.0350338948" flag="0"/>
      <vel value="0.0106864515" flag="0"/>
      <psa03 value="0.0660342709" flag="0"/>
      <psa10 value="0.0063015160" flag="0"/>
      <psa30 value="0.0003378328" flag="0"/>
    </comp>
    <comp name="--.HHE">
      <acc value="0.0270764253" flag="0"/>
      <vel value="0.0122598964" flag="0"/>
      <psa03 value="0.0771160277" flag="0"/>
      <psa10 value="0.0072674075" flag="0"/>
      <psa30 value="0.0004273266" flag="0"/>
    </comp>
  </station>
  <station code="GVD" name="GVD" netid="HL" insttype="120" lat="34.8391" lon="24.0874">
    <comp name="--.HHE">
      <acc value="0.0912307799" flag="0"/>
      <vel value="0.0121850933" flag="0"/>
      <psa03 value="0.0331098127" flag="0"/>
      <psa10 value="0.0093610164" flag="0"/>
      <psa30 value="0.0019071952" flag="0"/>
    </comp>
    <comp name="--.HHZ">
      <acc value="0.0198788942" flag="0"/>
      <vel value="0.0039251230" flag="0"/>
      <psa03 value="0.0240400932" flag="0"/>
      <psa10 value="0.0036713585" flag="0"/>
      <psa30 value="0.0002138463" flag="0"/>
    </comp>
    <comp name="--.HHN">
      <acc value="0.0164589976" flag="0"/>
      <vel value="0.0081338861" flag="0"/>
      <psa03 value="0.0418257313" flag="0"/>
      <psa10 value="0.0067793113" flag="0"/>
      <psa30 value="0.0004778179" flag="0"/>
    </comp>
  </station>
  <station code="IACM" name="IACM" netid="HL" insttype="120" lat="35.3058" lon="25.0709">
    <comp name="--.HHZ">
      <acc value="0.1007783409" flag="0"/>
      <vel value="0.0334380867" flag="0"/>
      <psa03 value="0.1240768337" flag="0"/>
      <psa10 value="0.0232802382" flag="0"/>
      <psa30 value="0.0006952493" flag="0"/>
    </comp>
    <comp name="--.HHN">
      <acc value="0.1039699732" flag="0"/>
      <vel value="0.0436396753" flag="0"/>
      <psa03 value="0.3515684790" flag="0"/>
      <psa10 value="0.0514041291" flag="0"/>
      <psa30 value="0.0019874019" flag="0"/>
    </comp>
    <comp name="--.HHE">
      <acc value="0.0914898208" flag="0"/>
      <vel value="0.0499742428" flag="0"/>
      <psa03 value="0.2151297631" flag="0"/>
      <psa10 value="0.0698475817" flag="0"/>
      <psa30 value="0.0021711902" flag="0"/>
    </comp>
  </station>
  <station code="KSTE" name="KSTE" netid="HL" insttype="60" lat="35.1801" lon="25.3372">
    <comp name="--.HHZ">
      <acc value="0.1512842193" flag="0"/>
      <vel value="0.0339364645" flag="0"/>
      <psa03 value="0.0794465869" flag="0"/>
      <psa10 value="0.0065421709" flag="0"/>
      <psa30 value="0.0006034442" flag="0"/>
    </comp>
    <comp name="--.HHE">
      <acc value="0.1605831152" flag="0"/>
      <vel value="0.0380611323" flag="0"/>
      <psa03 value="0.1042183343" flag="0"/>
      <psa10 value="0.0106036654" flag="0"/>
      <psa30 value="0.0012001205" flag="0"/>
    </comp>
    <comp name="--.HHN">
      <acc value="0.2485491657" flag="0"/>
      <vel value="0.0551848157" flag="0"/>
      <psa03 value="0.1271367734" flag="0"/>
      <psa10 value="0.0112899357" flag="0"/>
      <psa30 value="0.0019004617" flag="0"/>
    </comp>
  </station>
  <station code="NPS" name="NPS" netid="HL" insttype="CMG3ESPC-120s" lat="35.2613" lon="25.6104">
    <comp name="--.HHZ">
      <acc value="0.0405555585" flag="0"/>
      <vel value="0.0091093276" flag="0"/>
      <psa03 value="0.0573766390" flag="0"/>
      <psa10 value="0.0047706201" flag="0"/>
      <psa30 value="0.0002782191" flag="0"/>
    </comp>
    <comp name="--.HHE">
      <acc value="0.0240418062" flag="0"/>
      <vel value="0.0086416455" flag="0"/>
      <psa03 value="0.0722676647" flag="0"/>
      <psa10 value="0.0042659005" flag="0"/>
      <psa30 value="0.0002330608" flag="0"/>
    </comp>
    <comp name="--.HHN">
      <acc value="0.0542450727" flag="0"/>
      <vel value="0.0167417620" flag="0"/>
      <psa03 value="0.0732551173" flag="0"/>
      <psa10 value="0.0071788272" flag="0"/>
      <psa30 value="0.0004008761" flag="0"/>
    </comp>
  </station>
</stationlist>
