<?xml version="1.0" encoding="UTF-8" standalone="yes"?>
<!DOCTYPE earthquake SYSTEM "stationlist.dtd">
<stationlist created="" xmlns="ch.ethz.sed.shakemap.usgs.xml">
  <station code="GVD" name="GVD" netid="GE" insttype="STS-2/N" lat="34.8391" lon="24.0874">
    <comp name="--.HHE">
      <acc value="0.0846852229" flag="0"/>
      <vel value="0.0112587893" flag="0"/>
      <psa03 value="0.0341146725" flag="0"/>
      <psa10 value="0.0094219640" flag="0"/>
      <psa30 value="0.0019067556" flag="0"/>
    </comp>
    <comp name="--.HHN">
      <acc value="0.0165908190" flag="0"/>
      <vel value="0.0083166500" flag="0"/>
      <psa03 value="0.0430304095" flag="0"/>
      <psa10 value="0.0068387922" flag="0"/>
      <psa30 value="0.0004821813" flag="0"/>
    </comp>
    <comp name="--.HHZ">
      <acc value="0.0202338591" flag="0"/>
      <vel value="0.0040561410" flag="0"/>
      <psa03 value="0.0247066316" flag="0"/>
      <psa10 value="0.0036898878" flag="0"/>
      <psa30 value="0.0002144091" flag="0"/>
    </comp>
  </station>
  <station code="GVDS" name="GVDS" netid="HC" insttype="60" lat="34.8389" lon="24.0585">
    <comp name="--.HHZ">
      <acc value="0.0114171108" flag="0"/>
      <vel value="0.0034015597" flag="0"/>
      <psa03 value="0.0097409163" flag="0"/>
      <psa10 value="0.0026831148" flag="0"/>
      <psa30 value="0.0001686283" flag="0"/>
    </comp>
    <comp name="--.HHN">
      <acc value="0.0174913389" flag="0"/>
      <vel value="0.0067624623" flag="0"/>
      <psa03 value="0.0385580404" flag="0"/>
      <psa10 value="0.0060905172" flag="0"/>
      <psa30 value="0.0003855140" flag="0"/>
    </comp>
    <comp name="--.HHE">
      <acc value="0.0192476592" flag="0"/>
      <vel value="0.0056864166" flag="0"/>
      <psa03 value="0.0403342761" flag="0"/>
      <psa10 value="0.0048455808" flag="0"/>
      <psa30 value="0.0002637735" flag="0"/>
    </comp>
  </station>
  <station code="IMOD" name="IMOD" netid="HC" insttype="120" lat="34.9731" lon="24.7995">
    <comp name="--.HHE">
      <acc value="0.0595954712" flag="0"/>
      <vel value="0.0431753067" flag="0"/>
      <psa03 value="0.2153638179" flag="0"/>
      <psa10 value="0.0374435344" flag="0"/>
      <psa30 value="0.0017044780" flag="0"/>
    </comp>
    <comp name="--.HHN">
      <acc value="0.0693297395" flag="0"/>
      <vel value="0.0446935027" flag="0"/>
      <psa03 value="0.1629262878" flag="0"/>
      <psa10 value="0.0321518353" flag="0"/>
      <psa30 value="0.0018778541" flag="0"/>
    </comp>
    <comp name="--.HHZ">
      <acc value="0.1099421803" flag="0"/>
      <vel value="0.0292381057" flag="0"/>
      <psa03 value="0.0912125911" flag="0"/>
      <psa10 value="0.0362019875" flag="0"/>
      <psa30 value="0.0016696070" flag="0"/>
    </comp>
  </station>
  <station code="IPPL" name="IPPL" netid="HC" insttype="60" lat="35.3486" lon="24.4632">
    <comp name="--.HHE">
      <acc value="0.0117714366" flag="0"/>
      <vel value="0.0062822064" flag="0"/>
      <psa03 value="0.0353660808" flag="0"/>
      <psa10 value="0.0087234389" flag="0"/>
      <psa30 value="0.0003687784" flag="0"/>
    </comp>
    <comp name="--.HHN">
      <acc value="0.0141474779" flag="0"/>
      <vel value="0.0071178591" flag="0"/>
      <psa03 value="0.0417962821" flag="0"/>
      <psa10 value="0.0086854279" flag="0"/>
      <psa30 value="0.0004835207" flag="0"/>
    </comp>
    <comp name="--.HHZ">
      <acc value="0.0096319921" flag="0"/>
      <vel value="0.0048833960" flag="0"/>
      <psa03 value="0.0244555283" flag="0"/>
      <psa10 value="0.0059372054" flag="0"/>
      <psa30 value="0.0002598659" flag="0"/>
    </comp>
  </station>
  <station code="KNSS" name="KNSS" netid="HC" insttype="60" lat="35.3042" lon="25.1802">
    <comp name="--.HHE">
      <acc value="0.0414988640" flag="0"/>
      <vel value="0.0165638920" flag="0"/>
      <psa03 value="0.1298102768" flag="0"/>
      <psa10 value="0.0078723935" flag="0"/>
      <psa30 value="0.0006836882" flag="0"/>
    </comp>
    <comp name="--.HHN">
      <acc value="0.0320671566" flag="0"/>
      <vel value="0.0137028330" flag="0"/>
      <psa03 value="0.0778087133" flag="0"/>
      <psa10 value="0.0075947525" flag="0"/>
      <psa30 value="0.0006289301" flag="0"/>
    </comp>
    <comp name="--.HHZ">
      <acc value="0.0328333496" flag="0"/>
      <vel value="0.0085004458" flag="0"/>
      <psa03 value="0.0841504620" flag="0"/>
      <psa10 value="0.0049121871" flag="0"/>
      <psa30 value="0.0002992479" flag="0"/>
    </comp>
  </station>
  <station code="PFKS" name="PFKS" netid="HC" insttype="120" lat="35.0429" lon="25.4733">
    <comp name="--.HHN">
      <acc value="0.4535014136" flag="0"/>
      <vel value="0.2006101153" flag="0"/>
      <psa03 value="0.9463791645" flag="0"/>
      <psa10 value="0.0436782603" flag="0"/>
      <psa30 value="0.0035672369" flag="0"/>
    </comp>
    <comp name="--.HHE">
      <acc value="0.5403054504" flag="0"/>
      <vel value="0.1634925806" flag="0"/>
      <psa03 value="1.4954936069" flag="0"/>
      <psa10 value="0.0534337243" flag="0"/>
      <psa30 value="0.0042432875" flag="0"/>
    </comp>
    <comp name="--.HHZ">
      <acc value="0.3038032897" flag="0"/>
      <vel value="0.0543075480" flag="0"/>
      <psa03 value="0.2746146697" flag="0"/>
      <psa10 value="0.0152817853" flag="0"/>
      <psa30 value="0.0011381328" flag="0"/>
    </comp>
  </station>
  <station code="STIA" name="STIA" netid="HC" insttype="120" lat="35.2021" lon="26.0909">
    <comp name="--.HHE">
      <acc value="0.0270764254" flag="0"/>
      <vel value="0.0122598955" flag="0"/>
      <psa03 value="0.0771160277" flag="0"/>
      <psa10 value="0.0072674074" flag="0"/>
      <psa30 value="0.0004273294" flag="0"/>
    </comp>
    <comp name="--.HHN">
      <acc value="0.0350338948" flag="0"/>
      <vel value="0.0106864518" flag="0"/>
      <psa03 value="0.0660342709" flag="0"/>
      <psa10 value="0.0063015160" flag="0"/>
      <psa30 value="0.0003378576" flag="0"/>
    </comp>
    <comp name="--.HHZ">
      <acc value="0.0289895252" flag="0"/>
      <vel value="0.0108284273" flag="0"/>
      <psa03 value="0.0641221298" flag="0"/>
      <psa10 value="0.0040777735" flag="0"/>
      <psa30 value="0.0003324157" flag="0"/>
    </comp>
  </station>
  <station code="GVD" name="GVD" netid="HL" insttype="120" lat="34.8391" lon="24.0874">
    <comp name="--.HHN">
      <acc value="0.0164589975" flag="0"/>
      <vel value="0.0081338835" flag="0"/>
      <psa03 value="0.0418257313" flag="0"/>
      <psa10 value="0.0067793112" flag="0"/>
      <psa30 value="0.0004778141" flag="0"/>
    </comp>
    <comp name="--.HHE">
      <acc value="0.0883827490" flag="0"/>
      <vel value="0.0117507806" flag="0"/>
      <psa03 value="0.0331098127" flag="0"/>
      <psa10 value="0.0093610195" flag="0"/>
      <psa30 value="0.0019072012" flag="0"/>
    </comp>
    <comp name="--.HHZ">
      <acc value="0.0198788936" flag="0"/>
      <vel value="0.0039251238" flag="0"/>
      <psa03 value="0.0240400932" flag="0"/>
      <psa10 value="0.0036713585" flag="0"/>
      <psa30 value="0.0002136397" flag="0"/>
    </comp>
  </station>
  <station code="IACM" name="IACM" netid="HL" insttype="120" lat="35.3058" lon="25.0709">
    <comp name="--.HHZ">
      <acc value="0.1007783408" flag="0"/>
      <vel value="0.0334380936" flag="0"/>
      <psa03 value="0.1240768337" flag="0"/>
      <psa10 value="0.0232802381" flag="0"/>
      <psa30 value="0.0006952775" flag="0"/>
    </comp>
    <comp name="--.HHN">
      <acc value="0.1039699732" flag="0"/>
      <vel value="0.0436396790" flag="0"/>
      <psa03 value="0.3515684790" flag="0"/>
      <psa10 value="0.0514041293" flag="0"/>
      <psa30 value="0.0019874194" flag="0"/>
    </comp>
    <comp name="--.HHE">
      <acc value="0.0914898209" flag="0"/>
      <vel value="0.0499742423" flag="0"/>
      <psa03 value="0.2151297631" flag="0"/>
      <psa10 value="0.0698475786" flag="0"/>
      <psa30 value="0.0021717060" flag="0"/>
    </comp>
  </station>
  <station code="KSTE" name="KSTE" netid="HL" insttype="60" lat="35.1801" lon="25.3372">
    <comp name="--.HHE">
      <acc value="0.1605831153" flag="0"/>
      <vel value="0.0380611320" flag="0"/>
      <psa03 value="0.1042183343" flag="0"/>
      <psa10 value="0.0106036633" flag="0"/>
      <psa30 value="0.0011998278" flag="0"/>
    </comp>
    <comp name="--.HHN">
      <acc value="0.2485491662" flag="0"/>
      <vel value="0.0551849369" flag="0"/>
      <psa03 value="0.1271367736" flag="0"/>
      <psa10 value="0.0112899612" flag="0"/>
      <psa30 value="0.0019003766" flag="0"/>
    </comp>
    <comp name="--.HHZ">
      <acc value="0.1512842193" flag="0"/>
      <vel value="0.0339364654" flag="0"/>
      <psa03 value="0.0794465869" flag="0"/>
      <psa10 value="0.0065421712" flag="0"/>
      <psa30 value="0.0006035072" flag="0"/>
    </comp>
  </station>
  <station code="NPS" name="NPS" netid="HL" insttype="CMG3ESPC-120s" lat="35.2613" lon="25.6104">
    <comp name="--.HHE">
      <acc value="0.0240418062" flag="0"/>
      <vel value="0.0086416459" flag="0"/>
      <psa03 value="0.0722676647" flag="0"/>
      <psa10 value="0.0042659008" flag="0"/>
      <psa30 value="0.0002331451" flag="0"/>
    </comp>
    <comp name="--.HHZ">
      <acc value="0.0405555586" flag="0"/>
      <vel value="0.0091093272" flag="0"/>
      <psa03 value="0.0573766390" flag="0"/>
      <psa10 value="0.0047706202" flag="0"/>
      <psa30 value="0.0002782226" flag="0"/>
    </comp>
    <comp name="--.HHN">
      <acc value="0.0542450728" flag="0"/>
      <vel value="0.0167417628" flag="0"/>
      <psa03 value="0.0732551173" flag="0"/>
      <psa10 value="0.0071788268" flag="0"/>
      <psa30 value="0.0004009162" flag="0"/>
    </comp>
  </station>
  <station code="SIVA" name="SIVA" netid="HL" insttype="60" lat="35.0178" lon="24.812">
    <comp name="--.HHE">
      <acc value="0.1937894703" flag="0"/>
      <vel value="0.0509675815" flag="0"/>
      <psa03 value="0.3337436546" flag="0"/>
      <psa10 value="0.0159990104" flag="0"/>
      <psa30 value="0.0011787558" flag="0"/>
    </comp>
    <comp name="--.HHN">
      <acc value="0.0955936637" flag="0"/>
      <vel value="0.0356401098" flag="0"/>
      <psa03 value="0.1666323173" flag="0"/>
      <psa10 value="0.0235936865" flag="0"/>
      <psa30 value="0.0012197683" flag="0"/>
    </comp>
    <comp name="--.HHZ">
      <acc value="0.1467390995" flag="0"/>
      <vel value="0.0317022353" flag="0"/>
      <psa03 value="0.1102546028" flag="0"/>
      <psa10 value="0.0218321940" flag="0"/>
      <psa30 value="0.0010512182" flag="0"/>
    </comp>
  </station>
</stationlist>
