<?xml version="1.0" encoding="UTF-8" standalone="yes"?>
<!DOCTYPE earthquake SYSTEM "stationlist.dtd">
<stationlist created="" xmlns="ch.ethz.sed.shakemap.usgs.xml">
  <station code="GVD" name="GVD" netid="GE" insttype="STS-2/N" lat="34.8391" lon="24.0874">
    <comp name="--.HHE">
      <acc value="0.0846852229" flag="0"/>
      <vel value="0.0112587893" flag="0"/>
      <psa03 value="0.0341146725" flag="0"/>
      <psa10 value="0.0094219640" flag="0"/>
      <psa30 value="0.0019067556" flag="0"/>
    </comp>
    <comp name="--.HHN">
      <acc value="0.0165908190" flag="0"/>
      <vel value="0.0083166500" flag="0"/>
      <psa03 value="0.0430304095" flag="0"/>
      <psa10 value="0.0068387922" flag="0"/>
      <psa30 value="0.0004821813" flag="0"/>
    </comp>
    <comp name="--.HHZ">
      <acc value="0.0202338591" flag="0"/>
      <vel value="0.0040561410" flag="0"/>
      <psa03 value="0.0247066316" flag="0"/>
      <psa10 value="0.0036898878" flag="0"/>
      <psa30 value="0.0002144091" flag="0"/>
    </comp>
  </station>
</stationlist>
