<?xml version="1.0" encoding="UTF-8" standalone="yes"?>
<!DOCTYPE earthquake SYSTEM "stationlist.dtd">
<stationlist created="" xmlns="ch.ethz.sed.shakemap.usgs.xml">
  <station code="LEVAN" name="LEVAN" netid="IV" insttype="" commtype="DIG" lat="37.9913" lon="12.3456">
    <comp name="--.HHZ">
      <acc value="0.0062959624" flag="0"/>
      <vel value="0.0025576942" flag="0"/>
      <psa03 value="0.0217620011" flag="0"/>
      <psa10 value="0.0021463476" flag="0"/>
      <psa30 value="0.0001230873" flag="0"/>
    </comp>
    <comp name="--.HHE">
      <acc value="0.0042924957" flag="0"/>
      <vel value="0.0029414044" flag="0"/>
      <psa03 value="0.0113181935" flag="0"/>
      <psa10 value="0.0033178196" flag="0"/>
      <psa30 value="0.0001755595" flag="0"/>
    </comp>
    <comp name="--.HHN">
      <acc value="0.0072719579" flag="0"/>
      <vel value="0.0038495531" flag="0"/>
      <psa03 value="0.0200270282" flag="0"/>
      <psa10 value="0.0037102518" flag="0"/>
      <psa30 value="0.0002228069" flag="0"/>
    </comp>
  </station>
  <station code="USI" name="USI" netid="IV" insttype="" commtype="DIG" lat="38.7079" lon="13.1791">
    <comp name="--.HHN">
      <acc value="0.0598856160" flag="0"/>
      <vel value="0.0212784031" flag="0"/>
      <psa03 value="0.0937257101" flag="0"/>
      <psa10 value="0.0078560759" flag="0"/>
      <psa30 value="0.0007609364" flag="0"/>
    </comp>
    <comp name="--.HHE">
      <acc value="0.0903556202" flag="0"/>
      <vel value="0.0265388035" flag="0"/>
      <psa03 value="0.1415364481" flag="0"/>
      <psa10 value="0.0130398818" flag="0"/>
      <psa30 value="0.0008142057" flag="0"/>
    </comp>
    <comp name="--.HHZ">
      <acc value="0.0674794042" flag="0"/>
      <vel value="0.0116129545" flag="0"/>
      <psa03 value="0.0521425802" flag="0"/>
      <psa10 value="0.0045058146" flag="0"/>
      <psa30 value="0.0002604355" flag="0"/>
    </comp>
  </station>
</stationlist>
