<?xml version="1.0" encoding="UTF-8" standalone="yes"?>
<!DOCTYPE earthquake SYSTEM "stationlist.dtd">
<stationlist created="" xmlns="ch.ethz.sed.shakemap.usgs.xml">
  <station code="BNN" name="BNN" netid="KO" insttype="CMG-3T" lat="38.8521" lon="35.8472">
    <comp name="--.HHE">
      <acc value="0.0082507608" flag="0"/>
      <vel value="0.0057837875" flag="0"/>
      <psa03 value="0.0168541906" flag="0"/>
      <psa10 value="0.0071383307" flag="0"/>
      <psa30 value="0.0003321336" flag="0"/>
    </comp>
    <comp name="--.HHZ">
      <acc value="0.0024638835" flag="0"/>
      <vel value="0.0016977190" flag="0"/>
      <psa03 value="0.0075721464" flag="0"/>
      <psa10 value="0.0029345123" flag="0"/>
      <psa30 value="0.0002425829" flag="0"/>
    </comp>
    <comp name="--.HHN">
      <acc value="0.0061839995" flag="0"/>
      <vel value="0.0056346199" flag="0"/>
      <psa03 value="0.0162862406" flag="0"/>
      <psa10 value="0.0076250994" flag="0"/>
      <psa30 value="0.0004073987" flag="0"/>
    </comp>
  </station>
  <station code="GAZ" name="GAZ" netid="KO" insttype="CMG-3T" lat="37.1721" lon="37.2096">
    <comp name="--.HHE">
      <acc value="0.0181529656" flag="0"/>
      <vel value="0.0070676579" flag="0"/>
      <psa03 value="0.0400771221" flag="0"/>
      <psa10 value="0.0057730581" flag="0"/>
      <psa30 value="0.0004231572" flag="0"/>
    </comp>
    <comp name="--.HHZ">
      <acc value="0.0085590528" flag="0"/>
      <vel value="0.0044904269" flag="0"/>
      <psa03 value="0.0247830715" flag="0"/>
      <psa10 value="0.0023876284" flag="0"/>
      <psa30 value="0.0002026519" flag="0"/>
    </comp>
  </station>
  <station code="KMRS" name="KMRS" netid="KO" insttype="CMG-3T" lat="37.5053" lon="36.9">
    <comp name="--.HHN">
      <acc value="0.0094819322" flag="0"/>
      <vel value="0.0050189953" flag="0"/>
      <psa03 value="0.0176249790" flag="0"/>
      <psa10 value="0.0060783823" flag="0"/>
      <psa30 value="0.0007413718" flag="0"/>
    </comp>
    <comp name="--.HHZ">
      <acc value="0.0047224318" flag="0"/>
      <vel value="0.0025975850" flag="0"/>
      <psa03 value="0.0091628250" flag="0"/>
      <psa10 value="0.0036740089" flag="0"/>
      <psa30 value="0.0007266191" flag="0"/>
    </comp>
    <comp name="--.HHE">
      <acc value="0.0056060532" flag="0"/>
      <vel value="0.0041098072" flag="0"/>
      <psa03 value="0.0129195777" flag="0"/>
      <psa10 value="0.0055432450" flag="0"/>
      <psa30 value="0.0009309125" flag="0"/>
    </comp>
  </station>
  <station code="SARI" name="SARI" netid="KO" insttype="CMG-3T" lat="38.4072" lon="36.4181">
    <comp name="--.HHN">
      <acc value="0.0594511525" flag="0"/>
      <vel value="0.0198332524" flag="0"/>
      <psa03 value="0.0979652222" flag="0"/>
      <psa10 value="0.0219754692" flag="0"/>
      <psa30 value="0.0010479560" flag="0"/>
    </comp>
    <comp name="--.HHZ">
      <acc value="0.0445063879" flag="0"/>
      <vel value="0.0171777591" flag="0"/>
      <psa03 value="0.1070002255" flag="0"/>
      <psa10 value="0.0092273528" flag="0"/>
      <psa30 value="0.0007779082" flag="0"/>
    </comp>
  </station>
  <station code="ANDN" name="ANDN" netid="TU" insttype="T" lat="37.58" lon="36.3452">
    <comp name="--.HHZ">
      <acc value="0.0165957674" flag="0"/>
      <vel value="0.0142795267" flag="0"/>
      <psa03 value="0.0307581319" flag="0"/>
      <psa10 value="0.0271697643" flag="0"/>
      <psa30 value="0.0023623281" flag="0"/>
    </comp>
    <comp name="--.HHN">
      <acc value="0.0400232480" flag="0"/>
      <vel value="0.0157000740" flag="0"/>
      <psa03 value="0.0753724791" flag="0"/>
      <psa10 value="0.0267929243" flag="0"/>
      <psa30 value="0.0026471334" flag="0"/>
    </comp>
    <comp name="--.HHE">
      <acc value="0.0285735047" flag="0"/>
      <vel value="0.0165978635" flag="0"/>
      <psa03 value="0.0777830150" flag="0"/>
      <psa10 value="0.0221486897" flag="0"/>
      <psa30 value="0.0021328844" flag="0"/>
    </comp>
  </station>
</stationlist>
