<?xml version="1.0" encoding="UTF-8" standalone="yes"?>
<!DOCTYPE earthquake SYSTEM "stationlist.dtd">
<stationlist created="" xmlns="ch.ethz.sed.shakemap.usgs.xml">
  <station code="APE" name="APE" netid="GE" insttype="STS-2/N" lat="37.0727" lon="25.523">
    <comp name="--.HHE">
      <acc value="0.0237701779" flag="0"/>
      <vel value="0.0126779826" flag="0"/>
      <psa03 value="0.0358322847" flag="0"/>
      <psa10 value="0.0124478587" flag="0"/>
      <psa30 value="0.0026053855" flag="0"/>
    </comp>
    <comp name="--.HHN">
      <acc value="0.0120149746" flag="0"/>
      <vel value="0.0041227925" flag="0"/>
      <psa03 value="0.0146168177" flag="0"/>
      <psa10 value="0.0051637885" flag="0"/>
      <psa30 value="0.0007966690" flag="0"/>
    </comp>
    <comp name="--.HHZ">
      <acc value="0.0134646379" flag="0"/>
      <vel value="0.0095579301" flag="0"/>
      <psa03 value="0.0205943485" flag="0"/>
      <psa10 value="0.0145415001" flag="0"/>
      <psa30 value="0.0014789641" flag="0"/>
    </comp>
  </station>
  <station code="KRL1" name="KRL1" netid="HI" insttype="CMG-5TD,ACCELEROMETER,GURALP" lat="37.7951" lon="26.7065">
    <comp name="--.HNE">
      <acc value="2.4266108046" flag="0"/>
      <vel value="1.0362208629" flag="0"/>
      <psa03 value="5.9265316561" flag="0"/>
      <psa10 value="0.5485248317" flag="0"/>
      <psa30 value="0.0867607518" flag="0"/>
    </comp>
    <comp name="--.HNN">
      <acc value="1.8337590841" flag="0"/>
      <vel value="0.7905511281" flag="0"/>
      <psa03 value="4.0986175635" flag="0"/>
      <psa10 value="1.2188765510" flag="0"/>
      <psa30 value="0.0797860570" flag="0"/>
    </comp>
    <comp name="--.HNZ">
      <acc value="0.8087578634" flag="0"/>
      <vel value="0.4322115932" flag="0"/>
      <psa03 value="1.5215696247" flag="0"/>
      <psa10 value="0.3233955544" flag="0"/>
      <psa30 value="0.0294316590" flag="0"/>
    </comp>
  </station>
  <station code="MYT1" name="MYT1" netid="HI" insttype="CMG-5TD,ACCELEROMETER,GURALP" lat="39.085" lon="26.5694">
    <comp name="--.HNE">
      <acc value="0.0466038171" flag="0"/>
      <vel value="0.0235438958" flag="0"/>
      <psa03 value="0.1171171364" flag="0"/>
      <psa10 value="0.0313676135" flag="0"/>
      <psa30 value="0.0029041727" flag="0"/>
    </comp>
    <comp name="--.HNZ">
      <acc value="0.0225170724" flag="0"/>
      <vel value="0.0175809151" flag="0"/>
      <psa03 value="0.1035026070" flag="0"/>
      <psa10 value="0.0223809048" flag="0"/>
      <psa30 value="0.0022520037" flag="0"/>
    </comp>
    <comp name="--.HNN">
      <acc value="0.0324202401" flag="0"/>
      <vel value="0.0252793667" flag="0"/>
      <psa03 value="0.1581258387" flag="0"/>
      <psa10 value="0.0364730372" flag="0"/>
      <psa30 value="0.0020710127" flag="0"/>
    </comp>
  </station>
  <station code="APE" name="APE" netid="HL" insttype="120" lat="37.0727" lon="25.523">
    <comp name="--.HHN">
      <acc value="0.0115707072" flag="0"/>
      <vel value="0.0040631121" flag="0"/>
      <psa03 value="0.0143225639" flag="0"/>
      <psa10 value="0.0051205918" flag="0"/>
      <psa30 value="0.0007945781" flag="0"/>
    </comp>
    <comp name="--.HHZ">
      <acc value="0.0131379302" flag="0"/>
      <vel value="0.0094465808" flag="0"/>
      <psa03 value="0.0200446411" flag="0"/>
      <psa10 value="0.0144257200" flag="0"/>
      <psa30 value="0.0014748438" flag="0"/>
    </comp>
    <comp name="--.HHE">
      <acc value="0.0227202080" flag="0"/>
      <vel value="0.0124446667" flag="0"/>
      <psa03 value="0.0348378283" flag="0"/>
      <psa10 value="0.0123669837" flag="0"/>
      <psa30 value="0.0026017086" flag="0"/>
    </comp>
  </station>
  <station code="KLNA" name="KLNA" netid="HL" insttype="CMG-5" lat="36.9571" lon="26.9727">
    <comp name="00.HNZ">
      <acc value="0.0778258804" flag="0"/>
      <vel value="0.0300531009" flag="0"/>
      <psa03 value="0.0985271307" flag="0"/>
      <psa10 value="0.0362379498" flag="0"/>
      <psa30 value="0.0038703351" flag="0"/>
    </comp>
    <comp name="00.HNN">
      <acc value="0.0917614716" flag="0"/>
      <vel value="0.0618131125" flag="0"/>
      <psa03 value="0.3546898816" flag="0"/>
      <psa10 value="0.0422226543" flag="0"/>
      <psa30 value="0.0033300068" flag="0"/>
    </comp>
    <comp name="00.HNE">
      <acc value="0.1095115839" flag="0"/>
      <vel value="0.0465508223" flag="0"/>
      <psa03 value="0.3884709424" flag="0"/>
      <psa10 value="0.0258641721" flag="0"/>
      <psa30 value="0.0043539462" flag="0"/>
    </comp>
  </station>
  <station code="NISR" name="NISR" netid="HL" insttype="30" lat="36.6106" lon="27.1309">
    <comp name="--.HHN">
      <acc value="0.0098829688" flag="0"/>
      <vel value="0.0062227610" flag="0"/>
      <psa03 value="0.0283261360" flag="0"/>
      <psa10 value="0.0122436929" flag="0"/>
      <psa30 value="0.0006232310" flag="0"/>
    </comp>
    <comp name="--.HHE">
      <acc value="0.0132950479" flag="0"/>
      <vel value="0.0187753344" flag="0"/>
      <psa03 value="0.0486926229" flag="0"/>
      <psa10 value="0.0194498689" flag="0"/>
      <psa30 value="0.0050440029" flag="0"/>
    </comp>
    <comp name="--.HHZ">
      <acc value="0.0093769150" flag="0"/>
      <vel value="0.0086242628" flag="0"/>
      <psa03 value="0.0176377559" flag="0"/>
      <psa10 value="0.0110046074" flag="0"/>
      <psa30 value="0.0023423984" flag="0"/>
    </comp>
  </station>
  <station code="SMG" name="SMG" netid="HL" insttype="120" lat="37.7043" lon="26.8377">
    <comp name="--.HHN">
      <acc value="0.7182586451" flag="0"/>
      <vel value="0.2186490973" flag="0"/>
      <psa03 value="1.0481788596" flag="0"/>
      <psa10 value="0.1309253157" flag="0"/>
      <psa30 value="0.0135552813" flag="0"/>
    </comp>
    <comp name="--.HHE">
      <acc value="0.9760586364" flag="0"/>
      <vel value="0.3262956577" flag="0"/>
      <psa03 value="1.3701282468" flag="0"/>
      <psa10 value="0.2978171232" flag="0"/>
      <psa30 value="0.0267642672" flag="0"/>
    </comp>
    <comp name="--.HHZ">
      <acc value="0.4581139435" flag="0"/>
      <vel value="0.1340079516" flag="0"/>
      <psa03 value="0.4846907134" flag="0"/>
      <psa10 value="0.0863982514" flag="0"/>
      <psa30 value="0.0119502784" flag="0"/>
    </comp>
  </station>
  <station code="CHOS" name="CHOS" netid="HT" insttype="100" lat="38.3869" lon="26.0506">
    <comp name="--.HHN">
      <acc value="0.1046013408" flag="0"/>
      <vel value="0.0494971658" flag="0"/>
      <psa03 value="0.1251574266" flag="0"/>
      <psa10 value="0.0645172208" flag="0"/>
      <psa30 value="0.0022487488" flag="0"/>
    </comp>
    <comp name="--.HHE">
      <acc value="0.1581173308" flag="0"/>
      <vel value="0.0650859108" flag="0"/>
      <psa03 value="0.2800122541" flag="0"/>
      <psa10 value="0.0405829217" flag="0"/>
      <psa30 value="0.0031957959" flag="0"/>
    </comp>
    <comp name="--.HHZ">
      <acc value="0.0481066144" flag="0"/>
      <vel value="0.0221564710" flag="0"/>
      <psa03 value="0.0826870603" flag="0"/>
      <psa10 value="0.0152277115" flag="0"/>
      <psa30 value="0.0017947426" flag="0"/>
    </comp>
  </station>
  <station code="DATC" name="DATC" netid="KO" insttype="100" lat="36.7584" lon="27.6602">
    <comp name="--.HNN">
      <acc value="0.0193391228" flag="0"/>
      <vel value="0.0247535907" flag="0"/>
      <psa03 value="0.0433511945" flag="0"/>
      <psa10 value="0.0346222342" flag="0"/>
      <psa30 value="0.0046320649" flag="0"/>
    </comp>
    <comp name="--.HNE">
      <acc value="0.0219139677" flag="0"/>
      <vel value="0.0244070397" flag="0"/>
      <psa03 value="0.0404488528" flag="0"/>
      <psa10 value="0.0479861027" flag="0"/>
      <psa30 value="0.0038252642" flag="0"/>
    </comp>
    <comp name="--.HNZ">
      <acc value="0.0230158550" flag="0"/>
      <vel value="0.0114703023" flag="0"/>
      <psa03 value="0.0270092820" flag="0"/>
      <psa10 value="0.0161224130" flag="0"/>
      <psa30 value="0.0021291528" flag="0"/>
    </comp>
  </station>
  <station code="GMLD" name="GMLD" netid="KO" insttype="100" lat="38.0764" lon="26.8747">
    <comp name="--.HNE">
      <acc value="0.7501705655" flag="0"/>
      <vel value="0.2827346736" flag="0"/>
      <psa03 value="1.7289472065" flag="0"/>
      <psa10 value="0.2219247854" flag="0"/>
      <psa30 value="0.0109551351" flag="0"/>
    </comp>
    <comp name="--.HNZ">
      <acc value="0.5832077470" flag="0"/>
      <vel value="0.1440465171" flag="0"/>
      <psa03 value="0.8948840324" flag="0"/>
      <psa10 value="0.0655350740" flag="0"/>
      <psa30 value="0.0065526736" flag="0"/>
    </comp>
    <comp name="--.HNN">
      <acc value="0.8565853108" flag="0"/>
      <vel value="0.4935306195" flag="0"/>
      <psa03 value="2.6431728944" flag="0"/>
      <psa10 value="0.2454925472" flag="0"/>
      <psa30 value="0.0147907689" flag="0"/>
    </comp>
  </station>
  <station code="GOMA" name="GOMA" netid="KO" insttype="100" lat="38.7077" lon="27.9175">
    <comp name="--.HNZ">
      <acc value="0.0061575695" flag="0"/>
      <vel value="0.0036372950" flag="0"/>
      <psa03 value="0.0281431917" flag="0"/>
      <psa10 value="0.0015492802" flag="0"/>
      <psa30 value="0.0003510957" flag="0"/>
    </comp>
    <comp name="--.HNE">
      <acc value="0.0135307778" flag="0"/>
      <vel value="0.0089267729" flag="0"/>
      <psa03 value="0.0935696316" flag="0"/>
      <psa10 value="0.0036817193" flag="0"/>
      <psa30 value="0.0003622230" flag="0"/>
    </comp>
    <comp name="--.HNN">
      <acc value="0.0120343942" flag="0"/>
      <vel value="0.0067385523" flag="0"/>
      <psa03 value="0.0457853764" flag="0"/>
      <psa10 value="0.0029934715" flag="0"/>
      <psa30 value="0.0003690712" flag="0"/>
    </comp>
  </station>
  <station code="KUSD" name="KUSD" netid="KO" insttype="100" lat="37.86" lon="27.2815">
    <comp name="--.HNZ">
      <acc value="0.0336648928" flag="0"/>
      <vel value="0.0132835497" flag="0"/>
      <psa03 value="0.0721072731" flag="0"/>
      <psa10 value="0.0100170409" flag="0"/>
      <psa30 value="0.0013647792" flag="0"/>
    </comp>
    <comp name="--.HNE">
      <acc value="0.0808639342" flag="0"/>
      <vel value="0.0462588387" flag="0"/>
      <psa03 value="0.2819426762" flag="0"/>
      <psa10 value="0.0304655581" flag="0"/>
      <psa30 value="0.0023286243" flag="0"/>
    </comp>
    <comp name="--.HNN">
      <acc value="0.0657898573" flag="0"/>
      <vel value="0.0309696790" flag="0"/>
      <psa03 value="0.1819383371" flag="0"/>
      <psa10 value="0.0372517952" flag="0"/>
      <psa30 value="0.0015819027" flag="0"/>
    </comp>
  </station>
  <station code="AYDN" name="AYDN" netid="TU" source="ODC" insttype="T" lat="37.6608" lon="27.8792">
    <comp name="--.HHE">
      <acc value="0.1106009459" flag="0"/>
      <vel value="0.0451286268" flag="0"/>
      <psa03 value="0.4429201297" flag="0"/>
      <psa10 value="0.0508001002" flag="0"/>
      <psa30 value="0.0037603657" flag="0"/>
    </comp>
    <comp name="--.HHZ">
      <acc value="0.0437208175" flag="0"/>
      <vel value="0.0297858813" flag="0"/>
      <psa03 value="0.0743146351" flag="0"/>
      <psa10 value="0.0461089010" flag="0"/>
      <psa30 value="0.0050554729" flag="0"/>
    </comp>
    <comp name="--.HHN">
      <acc value="0.0658817864" flag="0"/>
      <vel value="0.0449745975" flag="0"/>
      <psa03 value="0.2486574144" flag="0"/>
      <psa10 value="0.0415449105" flag="0"/>
      <psa30 value="0.0046347601" flag="0"/>
    </comp>
  </station>
</stationlist>
