<stationlist created="1778136083">
	<station code="KRL1" name="KRL1" netid="HI" source="ITSAK Strong Motion Network" insttype="" lat="37.7951" lon="26.7065">
		<comp name="--.HNE" depth="0.0">
			<acc value="2.40576537514771" flag="0"/>
			<vel value="1.04062239468233" flag="0"/>
			<psa03 value="5.90849207525951" flag="0"/>
			<psa10 value="0.548907422421627" flag="0"/>
			<psa30 value="0.0961961391888761" flag="0"/>
		</comp>
		<comp name="--.HNN" depth="0.0">
			<acc value="1.83074043546023" flag="0"/>
			<vel value="0.82020312671969" flag="0"/>
			<psa03 value="4.12268410758743" flag="0"/>
			<psa10 value="1.2213927912794" flag="0"/>
			<psa30 value="0.0830635825548127" flag="0"/>
		</comp>
		<comp name="--.HNZ" depth="0.0">
			<acc value="0.804926148673764" flag="0"/>
			<vel value="0.44948173175653" flag="0"/>
			<psa03 value="1.53990217762758" flag="0"/>
			<psa10 value="0.326076270952731" flag="0"/>
			<psa30 value="0.0298742790243493" flag="0"/>
		</comp>
	</station>
	<station code="MYT1" name="MYT1" netid="HI" source="ITSAK Strong Motion Network" insttype="" lat="39.085" lon="26.5694">
		<comp name="--.HNE" depth="0.0">
			<acc value="0.0466505454182881" flag="0"/>
			<vel value="0.0237339083324372" flag="0"/>
			<psa03 value="0.119909113736968" flag="0"/>
			<psa10 value="0.0313365466713052" flag="0"/>
			<psa30 value="0.00374044847328752" flag="0"/>
		</comp>
		<comp name="--.HNN" depth="0.0">
			<acc value="0.0325094440560665" flag="0"/>
			<vel value="0.0253984538238102" flag="0"/>
			<psa03 value="0.158566380255155" flag="0"/>
			<psa10 value="0.0365552776512604" flag="0"/>
			<psa30 value="0.0024491883902842" flag="0"/>
		</comp>
		<comp name="--.HNZ" depth="0.0">
			<acc value="0.0226341290213755" flag="0"/>
			<vel value="0.0176566425912563" flag="0"/>
			<psa03 value="0.106083771891922" flag="0"/>
			<psa10 value="0.0222279282479574" flag="0"/>
			<psa30 value="0.00293866813068809" flag="0"/>
		</comp>
	</station>
	<station code="NAX1" name="NAX1" netid="HI" source="ITSAK Strong Motion Network" insttype="" lat="37.101394" lon="25.374103">
		<comp name="--.HNE" depth="0.0">
			<acc value="0.0151434588004133" flag="0"/>
			<vel value="0.00632145240775752" flag="0"/>
			<psa03 value="0.0273822304503823" flag="0"/>
			<psa10 value="0.00856902741153141" flag="0"/>
			<psa30 value="0.000834442153430768" flag="0"/>
		</comp>
		<comp name="--.HNN" depth="0.0">
			<acc value="0.0145700352289782" flag="0"/>
			<vel value="0.0062975941308658" flag="0"/>
			<psa03 value="0.0181653358870183" flag="0"/>
			<psa10 value="0.00750595258228127" flag="0"/>
			<psa30 value="0.00118656331951657" flag="0"/>
		</comp>
		<comp name="--.HNZ" depth="0.0">
			<acc value="0.0108507513932577" flag="0"/>
			<vel value="0.00727820004723279" flag="0"/>
			<psa03 value="0.0219236812429532" flag="0"/>
			<psa10 value="0.0067569680434914" flag="0"/>
			<psa30 value="0.00098298627940343" flag="0"/>
		</comp>
	</station>
	<station code="RDI1" name="RDI1" netid="HI" source="ITSAK Strong Motion Network" insttype="" lat="36.4514" lon="28.224">
		<comp name="--.HNE" depth="0.0">
			<acc value="0.00880149515963297" flag="0"/>
			<vel value="0.0175080954345801" flag="0"/>
			<psa03 value="0.0153913190766855" flag="0"/>
			<psa10 value="0.0234399946252464" flag="0"/>
			<psa30 value="0.00587286204071435" flag="0"/>
		</comp>
		<comp name="--.HNN" depth="0.0">
			<acc value="0.00765236063779311" flag="0"/>
			<vel value="0.0167155962636928" flag="0"/>
			<psa03 value="0.0145412171509383" flag="0"/>
			<psa10 value="0.0165863834154595" flag="0"/>
			<psa30 value="0.00578471989367635" flag="0"/>
		</comp>
		<comp name="--.HNZ" depth="0.0">
			<acc value="0.00563970473029706" flag="0"/>
			<vel value="0.00825212656618774" flag="0"/>
			<psa03 value="0.0141832794979921" flag="0"/>
			<psa10 value="0.011359598838313" flag="0"/>
			<psa30 value="0.00310197718484478" flag="0"/>
		</comp>
	</station>
	<station code="KLNA" name="KLNA" netid="HL" source="National Observatory of Athens Seismic Network" insttype="" lat="36.95708" lon="26.97274">
		<comp name="00.HNE" depth="0.0">
			<acc value="0.109553822932794" flag="0"/>
			<vel value="0.0467183143511607" flag="0"/>
			<psa03 value="0.38858606447969" flag="0"/>
			<psa10 value="0.0254292331314948" flag="0"/>
			<psa30 value="0.00516325064374856" flag="0"/>
		</comp>
		<comp name="00.HNN" depth="0.0">
			<acc value="0.0912333921033486" flag="0"/>
			<vel value="0.0625404952658699" flag="0"/>
			<psa03 value="0.355790027028497" flag="0"/>
			<psa10 value="0.0424142696079231" flag="0"/>
			<psa30 value="0.00348004883076918" flag="0"/>
		</comp>
		<comp name="00.HNZ" depth="0.0">
			<acc value="0.0781626415377173" flag="0"/>
			<vel value="0.0311509482082576" flag="0"/>
			<psa03 value="0.0984328545601979" flag="0"/>
			<psa10 value="0.0366559476161515" flag="0"/>
			<psa30 value="0.00435923319081822" flag="0"/>
		</comp>
	</station>
	<station code="NISR" name="NISR" netid="HL" source="National Observatory of Athens Seismic Network" insttype="" lat="36.6106" lon="27.131">
		<comp name="--.HNE" depth="0.0">
			<acc value="0.0126601720110354" flag="0"/>
			<vel value="0.0201999168030878" flag="0"/>
			<psa03 value="0.0451001442712179" flag="0"/>
			<psa10 value="0.017701806626453" flag="0"/>
			<psa30 value="0.00531358445798595" flag="0"/>
		</comp>
		<comp name="--.HNN" depth="0.0">
			<acc value="0.00913270287149329" flag="0"/>
			<vel value="0.0117010948752671" flag="0"/>
			<psa03 value="0.0278743947231833" flag="0"/>
			<psa10 value="0.0190105161700375" flag="0"/>
			<psa30 value="0.00449524949893776" flag="0"/>
		</comp>
		<comp name="--.HNZ" depth="0.0">
			<acc value="0.0089486239287109" flag="0"/>
			<vel value="0.00919824011958114" flag="0"/>
			<psa03 value="0.0166441008619971" flag="0"/>
			<psa10 value="0.0109206777913878" flag="0"/>
			<psa30 value="0.00252256560913816" flag="0"/>
		</comp>
	</station>
	<station code="PRK" name="PRK" netid="HL" source="National Observatory of Athens Seismic Network" insttype="" lat="39.24565" lon="26.26499">
		<comp name="--.HNE" depth="0.0">
			<acc value="0.0328931893557198" flag="0"/>
			<vel value="0.0260370231790351" flag="0"/>
			<psa03 value="0.123622716886285" flag="0"/>
			<psa10 value="0.0516155043989707" flag="0"/>
			<psa30 value="0.00187559330143795" flag="0"/>
		</comp>
		<comp name="--.HNN" depth="0.0">
			<acc value="0.0410289206094777" flag="0"/>
			<vel value="0.0344842225337284" flag="0"/>
			<psa03 value="0.115569119694996" flag="0"/>
			<psa10 value="0.0543376202496263" flag="0"/>
			<psa30 value="0.00251988107674106" flag="0"/>
		</comp>
		<comp name="--.HNZ" depth="0.0">
			<acc value="0.0232366049915965" flag="0"/>
			<vel value="0.0192998518642829" flag="0"/>
			<psa03 value="0.0562409537191676" flag="0"/>
			<psa10 value="0.0198239294863577" flag="0"/>
			<psa30 value="0.00170020385149433" flag="0"/>
		</comp>
	</station>
	<station code="SMG" name="SMG" netid="HL" source="National Observatory of Athens Seismic Network" insttype="" lat="37.70425" lon="26.83772">
		<comp name="00.HNE" depth="0.0">
			<acc value="0.821202163419396" flag="0"/>
			<vel value="0.320042307266534" flag="0"/>
			<psa03 value="1.19640660497259" flag="0"/>
			<psa10 value="0.28561277079187" flag="0"/>
			<psa30 value="0.0287119688310773" flag="0"/>
		</comp>
		<comp name="00.HNN" depth="0.0">
			<acc value="0.649051099591208" flag="0"/>
			<vel value="0.199572716794585" flag="0"/>
			<psa03 value="1.05511071647208" flag="0"/>
			<psa10 value="0.105385346046611" flag="0"/>
			<psa30 value="0.0128320648581203" flag="0"/>
		</comp>
		<comp name="00.HNZ" depth="0.0">
			<acc value="0.386685984571792" flag="0"/>
			<vel value="0.12140358082342" flag="0"/>
			<psa03 value="0.465274206623408" flag="0"/>
			<psa10 value="0.0813856264165701" flag="0"/>
			<psa30 value="0.0141832794979921" flag="0"/>
		</comp>
	</station>
	<station code="THRA" name="THRA" netid="HL" source="National Observatory of Athens Seismic Network" insttype="" lat="36.41502" lon="25.43244">
		<comp name="00.HNE" depth="0.0">
			<acc value="0.0291392619437796" flag="0"/>
			<vel value="0.02367478407692" flag="0"/>
			<psa03 value="0.0790594790944862" flag="0"/>
			<psa10 value="0.0399538956659843" flag="0"/>
			<psa30 value="0.00546660280462044" flag="0"/>
		</comp>
		<comp name="00.HNN" depth="0.0">
			<acc value="0.0271420542746518" flag="0"/>
			<vel value="0.0256817923900518" flag="0"/>
			<psa03 value="0.0775829862760832" flag="0"/>
			<psa10 value="0.0512007441436193" flag="0"/>
			<psa30 value="0.00450330309612905" flag="0"/>
		</comp>
		<comp name="00.HNZ" depth="0.0">
			<acc value="0.0228567445560065" flag="0"/>
			<vel value="0.0155512880906342" flag="0"/>
			<psa03 value="0.046755605916094" flag="0"/>
			<psa10 value="0.0173555019472276" flag="0"/>
			<psa30 value="0.00195254989682138" flag="0"/>
		</comp>
	</station>
	<station code="CESE" name="CESE" netid="KO" source="Bogazici University Kandilli Observatory And Earthquake Research Institute (KOERI)" insttype="" lat="38.3306" lon="26.2997">
		<comp name="--.HNE" depth="0.0">
			<acc value="0.0585992437629359" flag="0"/>
			<vel value="0.0261411128131434" flag="0"/>
			<psa03 value="0.0869788496659203" flag="0"/>
			<psa10 value="0.016683026581755" flag="0"/>
			<psa30 value="0.00229214324505406" flag="0"/>
		</comp>
		<comp name="--.HNN" depth="0.0">
			<acc value="0.117970285950367" flag="0"/>
			<vel value="0.0795052327762639" flag="0"/>
			<psa03 value="0.289124139167272" flag="0"/>
			<psa10 value="0.0551550603645421" flag="0"/>
			<psa30 value="0.0042482725184049" flag="0"/>
		</comp>
		<comp name="--.HNZ" depth="0.0">
			<acc value="0.0433816401679445" flag="0"/>
			<vel value="0.0166924507749654" flag="0"/>
			<psa03 value="0.142503928079196" flag="0"/>
			<psa10 value="0.018313880012991" flag="0"/>
			<psa30 value="0.00184427375680516" flag="0"/>
		</comp>
	</station>
	<station code="DATC" name="DATC" netid="KO" source="Bogazici University Kandilli Observatory And Earthquake Research Institute (KOERI)" insttype="" lat="36.7584" lon="27.6602">
		<comp name="--.HNE" depth="0.0">
			<acc value="0.137462093533493" flag="0"/>
			<vel value="0.156988973393676" flag="0"/>
			<psa03 value="0.256238617302842" flag="0"/>
			<psa10 value="0.302529351692172" flag="0"/>
			<psa30 value="0.0253263260562727" flag="0"/>
		</comp>
		<comp name="--.HNN" depth="0.0">
			<acc value="0.12102208761168" flag="0"/>
			<vel value="0.157461192283808" flag="0"/>
			<psa03 value="0.267245200130937" flag="0"/>
			<psa10 value="0.218981334429741" flag="0"/>
			<psa30 value="0.0304842076352271" flag="0"/>
		</comp>
		<comp name="--.HNZ" depth="0.0">
			<acc value="0.143128669916271" flag="0"/>
			<vel value="0.0728532352036867" flag="0"/>
			<psa03 value="0.170109869562669" flag="0"/>
			<psa10 value="0.10091157280685" flag="0"/>
			<psa30 value="0.0150168268072905" flag="0"/>
		</comp>
	</station>
	<station code="DIDI" name="DIDI" netid="KO" source="Bogazici University Kandilli Observatory And Earthquake Research Institute (KOERI)" insttype="" lat="37.3767" lon="27.2398">
		<comp name="--.HNE" depth="0.0">
			<acc value="0.176988527840628" flag="0"/>
			<vel value="0.0726148910733599" flag="0"/>
			<psa03 value="0.320488426006681" flag="0"/>
			<psa10 value="0.0925640193180791" flag="0"/>
			<psa30 value="0.0112544546527601" flag="0"/>
		</comp>
		<comp name="--.HNN" depth="0.0">
			<acc value="0.154850364124803" flag="0"/>
			<vel value="0.108450696558673" flag="0"/>
			<psa03 value="0.615115856588" flag="0"/>
			<psa10 value="0.126614628242849" flag="0"/>
			<psa30 value="0.00979585871700442" flag="0"/>
		</comp>
		<comp name="--.HNZ" depth="0.0">
			<acc value="0.203628593836533" flag="0"/>
			<vel value="0.0686947254499747" flag="0"/>
			<psa03 value="0.165501422280987" flag="0"/>
			<psa10 value="0.0622261186984938" flag="0"/>
			<psa30 value="0.00653504669866477" flag="0"/>
		</comp>
	</station>
	<station code="FOCM" name="FOCM" netid="KO" source="Bogazici University Kandilli Observatory And Earthquake Research Institute (KOERI)" insttype="" lat="38.7131" lon="26.7309">
		<comp name="--.HNE" depth="0.0">
			<acc value="0.064140554355622" flag="0"/>
			<vel value="0.040756279757612" flag="0"/>
			<psa03 value="0.22652979210831" flag="0"/>
			<psa10 value="0.0358022663138749" flag="0"/>
			<psa30 value="0.00217178670925091" flag="0"/>
		</comp>
		<comp name="--.HNN" depth="0.0">
			<acc value="0.0778409160220235" flag="0"/>
			<vel value="0.0457662059240666" flag="0"/>
			<psa03 value="0.209751464626458" flag="0"/>
			<psa10 value="0.0769279603711917" flag="0"/>
			<psa30 value="0.00449659176513631" flag="0"/>
		</comp>
		<comp name="--.HNZ" depth="0.0">
			<acc value="0.057627561906789" flag="0"/>
			<vel value="0.029676298439769" flag="0"/>
			<psa03 value="0.166441008619971" flag="0"/>
			<psa10 value="0.0209957278776902" flag="0"/>
			<psa30 value="0.00175434192150244" flag="0"/>
		</comp>
	</station>
	<station code="GMLD" name="GMLD" netid="KO" source="Bogazici University Kandilli Observatory And Earthquake Research Institute (KOERI)" insttype="" lat="38.0766" lon="26.9157">
		<comp name="--.HNE" depth="0.0">
			<acc value="4.69772844372227" flag="0"/>
			<vel value="1.77612438317778" flag="0"/>
			<psa03 value="11.0539648249036" flag="0"/>
			<psa10 value="1.39287768783061" flag="0"/>
			<psa30 value="0.0757082878187776" flag="0"/>
		</comp>
		<comp name="--.HNN" depth="0.0">
			<acc value="5.40322894263339" flag="0"/>
			<vel value="3.12496221086377" flag="0"/>
			<psa03 value="16.6207006879357" flag="0"/>
			<psa10 value="1.54472423607377" flag="0"/>
			<psa30 value="0.0877502053080193" flag="0"/>
		</comp>
		<comp name="--.HNZ" depth="0.0">
			<acc value="3.6621349222278" flag="0"/>
			<vel value="0.918316234857856" flag="0"/>
			<psa03 value="5.50570749320481" flag="0"/>
			<psa10 value="0.413652885737577" flag="0"/>
			<psa30 value="0.0541465710273663" flag="0"/>
		</comp>
	</station>
	<station code="GOMA" name="GOMA" netid="KO" source="Bogazici University Kandilli Observatory And Earthquake Research Institute (KOERI)" insttype="" lat="38.7077" lon="27.9175">
		<comp name="--.HNE" depth="0.0">
			<acc value="0.0849120982251161" flag="0"/>
			<vel value="0.0562917101020041" flag="0"/>
			<psa03 value="0.584020022988301" flag="0"/>
			<psa10 value="0.0231299311333818" flag="0"/>
			<psa30 value="0.00220400109801607" flag="0"/>
		</comp>
		<comp name="--.HNN" depth="0.0">
			<acc value="0.0755380565264607" flag="0"/>
			<vel value="0.042459271321682" flag="0"/>
			<psa03 value="0.283039199067187" flag="0"/>
			<psa10 value="0.0187930690458727" flag="0"/>
			<psa30 value="0.00218789390363349" flag="0"/>
		</comp>
		<comp name="--.HNZ" depth="0.0">
			<acc value="0.0386283754342232" flag="0"/>
			<vel value="0.0227570358696252" flag="0"/>
			<psa03 value="0.17838717778705" flag="0"/>
			<psa10 value="0.00973277220567265" flag="0"/>
			<psa30 value="0.00209125073733802" flag="0"/>
		</comp>
	</station>
	<station code="GORD" name="GORD" netid="KO" source="Bogazici University Kandilli Observatory And Earthquake Research Institute (KOERI)" insttype="" lat="38.9088" lon="28.1769">
		<comp name="--.HNE" depth="0.0">
			<acc value="0.104797235182302" flag="0"/>
			<vel value="0.102287370337708" flag="0"/>
			<psa03 value="0.451941029051163" flag="0"/>
			<psa10 value="0.187749484521923" flag="0"/>
			<psa30 value="0.0101725880967303" flag="0"/>
		</comp>
		<comp name="--.HNN" depth="0.0">
			<acc value="0.114453272476869" flag="0"/>
			<vel value="0.0702158852126127" flag="0"/>
			<psa03 value="0.264650152147077" flag="0"/>
			<psa10 value="0.114767786774463" flag="0"/>
			<psa30 value="0.0136884306927941" flag="0"/>
		</comp>
		<comp name="--.HNZ" depth="0.0">
			<acc value="0.0883426670906387" flag="0"/>
			<vel value="0.0788594645386777" flag="0"/>
			<psa03 value="0.229169582298788" flag="0"/>
			<psa10 value="0.0907922279359956" flag="0"/>
			<psa30 value="0.00711401085230521" flag="0"/>
		</comp>
	</station>
	<station code="KRBN" name="KRBN" netid="KO" source="Bogazici University Kandilli Observatory And Earthquake Research Institute (KOERI)" insttype="" lat="38.5936" lon="26.5537">
		<comp name="--.HNE" depth="0.0">
			<acc value="0.82653120585383" flag="0"/>
			<vel value="0.336334072429367" flag="0"/>
			<psa03 value="1.86020198236127" flag="0"/>
			<psa10 value="0.176289215718719" flag="0"/>
			<psa30 value="0.0178561672392861" flag="0"/>
		</comp>
		<comp name="--.HNN" depth="0.0">
			<acc value="0.604171250367803" flag="0"/>
			<vel value="0.349337336180365" flag="0"/>
			<psa03 value="1.66485750826589" flag="0"/>
			<psa10 value="0.246778325135475" flag="0"/>
			<psa30 value="0.0250032873244888" flag="0"/>
		</comp>
		<comp name="--.HNZ" depth="0.0">
			<acc value="0.280689942653585" flag="0"/>
			<vel value="0.206490753716328" flag="0"/>
			<psa03 value="0.801467147153102" flag="0"/>
			<psa10 value="0.14333792281056" flag="0"/>
			<psa30 value="0.013389552752584" flag="0"/>
		</comp>
	</station>
	<station code="KUSD" name="KUSD" netid="KO" source="Bogazici University Kandilli Observatory And Earthquake Research Institute (KOERI)" insttype="" lat="37.8606" lon="27.2868">
		<comp name="--.HNE" depth="0.0">
			<acc value="0.504128640235401" flag="0"/>
			<vel value="0.286813237671569" flag="0"/>
			<psa03 value="1.77259674180269" flag="0"/>
			<psa10 value="0.191647425562507" flag="0"/>
			<psa30 value="0.0161036150060484" flag="0"/>
		</comp>
		<comp name="--.HNN" depth="0.0">
			<acc value="0.416613146159631" flag="0"/>
			<vel value="0.19520660499446" flag="0"/>
			<psa03 value="1.13408071115333" flag="0"/>
			<psa10 value="0.233852301643456" flag="0"/>
			<psa30 value="0.0105027855815731" flag="0"/>
		</comp>
		<comp name="--.HNZ" depth="0.0">
			<acc value="0.215594093048725" flag="0"/>
			<vel value="0.0841230604782374" flag="0"/>
			<psa03 value="0.46496101117708" flag="0"/>
			<psa10 value="0.0627375221201407" flag="0"/>
			<psa30 value="0.00950011273125764" flag="0"/>
		</comp>
	</station>
	<station code="NAZL" name="NAZL" netid="KO" source="Bogazici University Kandilli Observatory And Earthquake Research Institute (KOERI)" insttype="" lat="37.9641" lon="28.2922">
		<comp name="--.HNE" depth="0.0">
			<acc value="0.353449655747996" flag="0"/>
			<vel value="0.185428814335967" flag="0"/>
			<psa03 value="1.15403573530508" flag="0"/>
			<psa10 value="0.0762595118043147" flag="0"/>
			<psa30 value="0.00676770617307978" flag="0"/>
		</comp>
		<comp name="--.HNN" depth="0.0">
			<acc value="0.256448665461116" flag="0"/>
			<vel value="0.110416185119061" flag="0"/>
			<psa03 value="1.11622857071264" flag="0"/>
			<psa10 value="0.0752205977666385" flag="0"/>
			<psa30 value="0.00586167648905978" flag="0"/>
		</comp>
		<comp name="--.HNZ" depth="0.0">
			<acc value="0.0995311054021924" flag="0"/>
			<vel value="0.0602266229109326" flag="0"/>
			<psa03 value="0.375163402494209" flag="0"/>
			<psa10 value="0.0382706938530049" flag="0"/>
			<psa30 value="0.00525005052458801" flag="0"/>
		</comp>
	</station>
	<station code="ODEM" name="ODEM" netid="KO" source="Bogazici University Kandilli Observatory And Earthquake Research Institute (KOERI)" insttype="" lat="38.2762" lon="28.0747">
		<comp name="--.HNE" depth="0.0">
			<acc value="0.0948073775395428" flag="0"/>
			<vel value="0.0419159649786276" flag="0"/>
			<psa03 value="0.313374415154375" flag="0"/>
			<psa10 value="0.0440410962405634" flag="0"/>
			<psa30 value="0.0077019234472693" flag="0"/>
		</comp>
		<comp name="--.HNN" depth="0.0">
			<acc value="0.0982091637171814" flag="0"/>
			<vel value="0.0493582714452673" flag="0"/>
			<psa03 value="0.30366535631821" flag="0"/>
			<psa10 value="0.0419350805750414" flag="0"/>
			<psa30 value="0.0074920824982296" flag="0"/>
		</comp>
		<comp name="--.HNZ" depth="0.0">
			<acc value="0.0715195267607988" flag="0"/>
