<?xml version="1.0" encoding="UTF-8" standalone="yes"?>
<!DOCTYPE earthquake SYSTEM "stationlist.dtd">
<stationlist created="" xmlns="ch.ethz.sed.shakemap.usgs.xml">
  <station code="KARP" name="KARP" netid="GE" insttype="STS-2/N" lat="35.5471" lon="27.1611">
    <comp name="--.HHE">
      <acc value="0.0242048112" flag="0"/>
      <vel value="0.0089875415" flag="0"/>
      <psa03 value="0.0288501189" flag="0"/>
      <psa10 value="0.0089538740" flag="0"/>
      <psa30 value="0.0008275462" flag="0"/>
    </comp>
    <comp name="--.HHN">
      <acc value="0.0233283311" flag="0"/>
      <vel value="0.0096576655" flag="0"/>
      <psa03 value="0.0333929486" flag="0"/>
      <psa10 value="0.0116324798" flag="0"/>
      <psa30 value="0.0004935139" flag="0"/>
    </comp>
    <comp name="--.HHZ">
      <acc value="0.0156860537" flag="0"/>
      <vel value="0.0074880732" flag="0"/>
      <psa03 value="0.0558890376" flag="0"/>
      <psa10 value="0.0061851316" flag="0"/>
      <psa30 value="0.0004487971" flag="0"/>
    </comp>
  </station>
  <station code="RDI1" name="RDI1" netid="HI" insttype="CMG-5TD,ACCELEROMETER,GURALP" lat="36.4514" lon="28.224">
    <comp name="--.HNZ">
      <acc value="0.0086406200" flag="0"/>
      <vel value="0.0066408975" flag="0"/>
      <psa03 value="0.0254449316" flag="0"/>
      <psa10 value="0.0074211787" flag="0"/>
      <psa30 value="0.0016156257" flag="0"/>
    </comp>
    <comp name="--.HNN">
      <acc value="0.0107470219" flag="0"/>
      <vel value="0.0085278476" flag="0"/>
      <psa03 value="0.0416492526" flag="0"/>
      <psa10 value="0.0102737862" flag="0"/>
      <psa30 value="0.0028269052" flag="0"/>
    </comp>
    <comp name="--.HNE">
      <acc value="0.0116090737" flag="0"/>
      <vel value="0.0112486975" flag="0"/>
      <psa03 value="0.0402971551" flag="0"/>
      <psa10 value="0.0099748249" flag="0"/>
      <psa30 value="0.0044009330" flag="0"/>
    </comp>
  </station>
  <station code="ARG" name="ARG" netid="HL" insttype="LE3D20_DR24" lat="36.2136" lon="28.1212">
    <comp name="--.HHE">
      <acc value="0.0730396770" flag="0"/>
      <vel value="0.0291005124" flag="0"/>
      <psa03 value="0.1527369332" flag="0"/>
      <psa10 value="0.0123739799" flag="0"/>
      <psa30 value="0.0021229665" flag="0"/>
    </comp>
    <comp name="--.HHN">
      <acc value="0.0281319421" flag="0"/>
      <vel value="0.0141867094" flag="0"/>
      <psa03 value="0.0849088618" flag="0"/>
      <psa10 value="0.0070788280" flag="0"/>
      <psa30 value="0.0015708719" flag="0"/>
    </comp>
    <comp name="--.HHZ">
      <acc value="0.0166240846" flag="0"/>
      <vel value="0.0064180197" flag="0"/>
      <psa03 value="0.0241712734" flag="0"/>
      <psa10 value="0.0042177376" flag="0"/>
      <psa30 value="0.0012959850" flag="0"/>
    </comp>
  </station>
  <station code="KARP" name="KARP" netid="HL" insttype="120" lat="35.5471" lon="27.1611">
    <comp name="--.HHN">
      <acc value="0.0196808603" flag="0"/>
      <vel value="0.0094435315" flag="0"/>
      <psa03 value="0.0326093448" flag="0"/>
      <psa10 value="0.0115771383" flag="0"/>
      <psa30 value="0.0004899829" flag="0"/>
    </comp>
    <comp name="--.HHE">
      <acc value="0.0225824084" flag="0"/>
      <vel value="0.0088474881" flag="0"/>
      <psa03 value="0.0280207425" flag="0"/>
      <psa10 value="0.0089046541" flag="0"/>
      <psa30 value="0.0008247195" flag="0"/>
    </comp>
    <comp name="--.HHZ">
      <acc value="0.0151903881" flag="0"/>
      <vel value="0.0073019823" flag="0"/>
      <psa03 value="0.0542927352" flag="0"/>
      <psa10 value="0.0061149328" flag="0"/>
      <psa30 value="0.0004463745" flag="0"/>
    </comp>
  </station>
  <station code="KLNA" name="KLNA" netid="HL" insttype="CMG-5" lat="36.9571" lon="26.9727">
    <comp name="00.HNZ">
      <acc value="0.0757066422" flag="0"/>
      <vel value="0.0179181388" flag="0"/>
      <psa03 value="0.0553496152" flag="0"/>
      <psa10 value="0.0034650356" flag="0"/>
      <psa30 value="0.0010126702" flag="0"/>
    </comp>
    <comp name="00.HNN">
      <acc value="0.0496805785" flag="0"/>
      <vel value="0.0145489741" flag="0"/>
      <psa03 value="0.1015900569" flag="0"/>
      <psa10 value="0.0069193865" flag="0"/>
      <psa30 value="0.0007523083" flag="0"/>
    </comp>
    <comp name="00.HNE">
      <acc value="0.0661474383" flag="0"/>
      <vel value="0.0232464531" flag="0"/>
      <psa03 value="0.1398540354" flag="0"/>
      <psa10 value="0.0107508659" flag="0"/>
      <psa30 value="0.0010776522" flag="0"/>
    </comp>
  </station>
  <station code="NISR" name="NISR" netid="HL" insttype="65535" lat="36.6106" lon="27.131">
    <comp name="--.HHN">
      <acc value="2.7497821578" flag="0"/>
      <vel value="0.5939048492" flag="0"/>
      <psa03 value="1.6717668526" flag="0"/>
      <psa10 value="0.1251344602" flag="0"/>
      <psa30 value="0.0509990857" flag="0"/>
    </comp>
    <comp name="--.HHE">
      <acc value="3.2634095270" flag="0"/>
      <vel value="1.2280849058" flag="0"/>
      <psa03 value="6.2837262989" flag="0"/>
      <psa10 value="0.2498437976" flag="0"/>
      <psa30 value="0.0232463971" flag="0"/>
    </comp>
    <comp name="--.HHZ">
      <acc value="1.0590239691" flag="0"/>
      <vel value="0.2318152764" flag="0"/>
      <psa03 value="1.2189193046" flag="0"/>
      <psa10 value="0.0603234129" flag="0"/>
      <psa30 value="0.0053534976" flag="0"/>
    </comp>
  </station>
</stationlist>
