<stationlist created="1778136562">
	<station code="KRL1" name="KRL1" netid="HI" source="ITSAK Strong Motion Network" insttype="" lat="37.7951" lon="26.7065">
		<comp name="--.HNE" depth="0.0">
			<acc value="0.011011114427235" flag="0"/>
			<vel value="0.00735598628206447" flag="0"/>
			<psa03 value="0.0207041085247643" flag="0"/>
			<psa10 value="0.00808282888523413" flag="0"/>
			<psa30 value="0.000997873604229184" flag="0"/>
		</comp>
		<comp name="--.HNN" depth="0.0">
			<acc value="0.00649004490842024" flag="0"/>
			<vel value="0.00509322634761296" flag="0"/>
			<psa03 value="0.016124871579022" flag="0"/>
			<psa10 value="0.011695822915866" flag="0"/>
			<psa30 value="0.000645309727767126" flag="0"/>
		</comp>
		<comp name="--.HNZ" depth="0.0">
			<acc value="0.00378825671614879" flag="0"/>
			<vel value="0.00264786814012078" flag="0"/>
			<psa03 value="0.0115258208207221" flag="0"/>
			<psa10 value="0.00577942160831481" flag="0"/>
			<psa30 value="0.000561322028580752" flag="0"/>
		</comp>
	</station>
	<station code="KSS1" name="KSS1" netid="HI" source="ITSAK Strong Motion Network" insttype="" lat="35.4189" lon="26.9207">
		<comp name="--.HNE" depth="0.0">
			<acc value="0.00675171163154464" flag="0"/>
			<vel value="0.00251856141489052" flag="0"/>
			<psa03 value="0.0238076448479497" flag="0"/>
			<psa10 value="0.0029946017370416" flag="0"/>
			<psa30 value="0.000191288362019358" flag="0"/>
		</comp>
		<comp name="--.HNN" depth="0.0">
			<acc value="0.00633111944384744" flag="0"/>
			<vel value="0.00271091295998501" flag="0"/>
			<psa03 value="0.0275157420537132" flag="0"/>
			<psa10 value="0.00284844471110804" flag="0"/>
			<psa30 value="0.000318761793487645" flag="0"/>
		</comp>
		<comp name="--.HNZ" depth="0.0">
			<acc value="0.00478344490988188" flag="0"/>
			<vel value="0.00193384592185311" flag="0"/>
			<psa03 value="0.00610647418538709" flag="0"/>
			<psa10 value="0.00280199835301594" flag="0"/>
			<psa30 value="0.000195105737297773" flag="0"/>
		</comp>
	</station>
	<station code="NAX1" name="NAX1" netid="HI" source="ITSAK Strong Motion Network" insttype="" lat="37.101394" lon="25.374103">
		<comp name="--.HNE" depth="0.0">
			<acc value="0.00471566006512094" flag="0"/>
			<vel value="0.00284106146045892" flag="0"/>
			<psa03 value="0.0101135534368111" flag="0"/>
			<psa10 value="0.00232777264101205" flag="0"/>
			<psa30 value="0.000235344392494405" flag="0"/>
		</comp>
		<comp name="--.HNN" depth="0.0">
			<acc value="0.00918732908525583" flag="0"/>
			<vel value="0.00359166830554382" flag="0"/>
			<psa03 value="0.0171760193374054" flag="0"/>
			<psa10 value="0.0023826090080285" flag="0"/>
			<psa30 value="0.000387644429540925" flag="0"/>
		</comp>
		<comp name="--.HNZ" depth="0.0">
			<acc value="0.00484694170688916" flag="0"/>
			<vel value="0.00264951918115146" flag="0"/>
			<psa03 value="0.0099421104389297" flag="0"/>
			<psa10 value="0.00284795577246691" flag="0"/>
			<psa30 value="0.000375716712305043" flag="0"/>
		</comp>
	</station>
	<station code="RDI1" name="RDI1" netid="HI" source="ITSAK Strong Motion Network" insttype="" lat="36.4514" lon="28.224">
		<comp name="--.HNE" depth="0.0">
			<acc value="0.0117690401262285" flag="0"/>
			<vel value="0.0118568842920321" flag="0"/>
			<psa03 value="0.0408446432571684" flag="0"/>
			<psa10 value="0.0101951731927028" flag="0"/>
			<psa30 value="0.00500352729244563" flag="0"/>
		</comp>
		<comp name="--.HNN" depth="0.0">
			<acc value="0.0108015957195007" flag="0"/>
			<vel value="0.00743753633192266" flag="0"/>
			<psa03 value="0.0416644553781994" flag="0"/>
			<psa10 value="0.0102059645325421" flag="0"/>
			<psa30 value="0.00330397324701114" flag="0"/>
		</comp>
		<comp name="--.HNZ" depth="0.0">
			<acc value="0.00859623700259881" flag="0"/>
			<vel value="0.00661399633805565" flag="0"/>
			<psa03 value="0.0250755856136652" flag="0"/>
			<psa10 value="0.00717854976242812" flag="0"/>
			<psa30 value="0.0018966427266078" flag="0"/>
		</comp>
	</station>
	<station code="SIT2" name="SIT2" netid="HI" source="ITSAK Strong Motion Network" insttype="" lat="35.2059" lon="26.107">
		<comp name="--.HNE" depth="0.0">
			<acc value="0.0129997883652271" flag="0"/>
			<vel value="0.0100705288233044" flag="0"/>
			<psa03 value="0.0476002261980489" flag="0"/>
			<psa10 value="0.00754744388738287" flag="0"/>
			<psa30 value="0.00049072094535353" flag="0"/>
		</comp>
		<comp name="--.HNN" depth="0.0">
			<acc value="0.0146193449417678" flag="0"/>
			<vel value="0.0122142044878536" flag="0"/>
			<psa03 value="0.0592190167193902" flag="0"/>
			<psa10 value="0.0106962298227265" flag="0"/>
			<psa30 value="0.000594827164795079" flag="0"/>
		</comp>
		<comp name="--.HNZ" depth="0.0">
			<acc value="0.00752326974703974" flag="0"/>
			<vel value="0.00363950349664333" flag="0"/>
			<psa03 value="0.0290607011704882" flag="0"/>
			<psa10 value="0.00291861889105354" flag="0"/>
			<psa30 value="0.000310118720926808" flag="0"/>
		</comp>
	</station>
	<station code="KLNA" name="KLNA" netid="HL" source="National Observatory of Athens Seismic Network" insttype="" lat="36.95708" lon="26.97274">
		<comp name="00.HNE" depth="0.0">
			<acc value="0.0664860098844404" flag="0"/>
			<vel value="0.0234478022398531" flag="0"/>
			<psa03 value="0.140225539253773" flag="0"/>
			<psa10 value="0.0107388598342704" flag="0"/>
			<psa30 value="0.00111605580822083" flag="0"/>
		</comp>
		<comp name="00.HNN" depth="0.0">
			<acc value="0.0491061545688998" flag="0"/>
			<vel value="0.0146239776753388" flag="0"/>
			<psa03 value="0.101636034971713" flag="0"/>
			<psa10 value="0.00693055661537708" flag="0"/>
			<psa30 value="0.000826342605724829" flag="0"/>
		</comp>
		<comp name="00.HNZ" depth="0.0">
			<acc value="0.0735096619902701" flag="0"/>
			<vel value="0.0180288855908801" flag="0"/>
			<psa03 value="0.0555361685821515" flag="0"/>
			<psa10 value="0.00348700935662974" flag="0"/>
			<psa30 value="0.00111852784697951" flag="0"/>
		</comp>
	</station>
	<station code="NISR" name="NISR" netid="HL" source="National Observatory of Athens Seismic Network" insttype="" lat="36.6106" lon="27.131">
		<comp name="--.HNE" depth="0.0">
			<acc value="2.93997888951011" flag="0"/>
			<vel value="1.12953984026901" flag="0"/>
			<psa03 value="5.81850611414614" flag="0"/>
			<psa10 value="0.240447343456592" flag="0"/>
			<psa30 value="0.0260700720143369" flag="0"/>
		</comp>
		<comp name="--.HNN" depth="0.0">
			<acc value="2.63515853357766" flag="0"/>
			<vel value="0.541640445415278" flag="0"/>
			<psa03 value="2.25301841807856" flag="0"/>
			<psa10 value="0.119312196347424" flag="0"/>
			<psa30 value="0.0137492091509548" flag="0"/>
		</comp>
		<comp name="--.HNZ" depth="0.0">
			<acc value="1.02123851415612" flag="0"/>
			<vel value="0.188549292695396" flag="0"/>
			<psa03 value="0.942373677629463" flag="0"/>
			<psa10 value="0.0565640145883215" flag="0"/>
			<psa30 value="0.00640456468763733" flag="0"/>
		</comp>
	</station>
	<station code="RODB" name="RODB" netid="HL" source="National Observatory of Athens Seismic Network" insttype="" lat="36.4471" lon="28.22116">
		<comp name="00.HNE" depth="0.0">
			<acc value="0.011061906648574" flag="0"/>
			<vel value="0.0100923261488729" flag="0"/>
			<psa03 value="0.0410105500810221" flag="0"/>
			<psa10 value="0.0108444302652689" flag="0"/>
			<psa30 value="0.00348457208579777" flag="0"/>
		</comp>
		<comp name="00.HNN" depth="0.0">
			<acc value="0.0111139649702665" flag="0"/>
			<vel value="0.00976701786448981" flag="0"/>
			<psa03 value="0.0434118862410648" flag="0"/>
			<psa10 value="0.0108369935226432" flag="0"/>
			<psa30 value="0.00359675743419498" flag="0"/>
		</comp>
		<comp name="00.HNZ" depth="0.0">
			<acc value="0.0101919663745414" flag="0"/>
			<vel value="0.00602772147654887" flag="0"/>
			<psa03 value="0.023074221262228" flag="0"/>
			<psa10 value="0.00598267007251253" flag="0"/>
			<psa30 value="0.00152891138704453" flag="0"/>
		</comp>
	</station>
	<station code="SMG" name="SMG" netid="HL" source="National Observatory of Athens Seismic Network" insttype="" lat="37.70425" lon="26.83772">
		<comp name="00.HNE" depth="0.0">
			<acc value="0.00797083118059305" flag="0"/>
			<vel value="0.00345620445520156" flag="0"/>
			<psa03 value="0.0150847531971154" flag="0"/>
			<psa10 value="0.00348018695155472" flag="0"/>
			<psa30 value="0.000811077531987636" flag="0"/>
		</comp>
		<comp name="00.HNN" depth="0.0">
			<acc value="0.00636890406799323" flag="0"/>
			<vel value="0.0038419411973776" flag="0"/>
			<psa03 value="0.0258208615470102" flag="0"/>
			<psa10 value="0.00269592421674747" flag="0"/>
			<psa30 value="0.000790708943087822" flag="0"/>
		</comp>
		<comp name="00.HNZ" depth="0.0">
			<acc value="0.00374352691020615" flag="0"/>
			<vel value="0.00207843873640084" flag="0"/>
			<psa03 value="0.0113016679508685" flag="0"/>
			<psa10 value="0.00267023313984133" flag="0"/>
			<psa30 value="0.000331528290247317" flag="0"/>
		</comp>
	</station>
	<station code="TNSA" name="TNSA" netid="HL" source="National Observatory of Athens Seismic Network" insttype="" lat="37.53942" lon="25.1631">
		<comp name="00.HNE" depth="0.0">
			<acc value="0.00351632859331525" flag="0"/>
			<vel value="0.00231636361292511" flag="0"/>
			<psa03 value="0.0121439854690313" flag="0"/>
			<psa10 value="0.00307126665946687" flag="0"/>
			<psa30 value="0.000649309003118308" flag="0"/>
		</comp>
		<comp name="00.HNN" depth="0.0">
			<acc value="0.00494447575315978" flag="0"/>
			<vel value="0.00235581698010793" flag="0"/>
			<psa03 value="0.0135027473553206" flag="0"/>
			<psa10 value="0.00181638536567994" flag="0"/>
			<psa30 value="0.000419654362542005" flag="0"/>
		</comp>
		<comp name="00.HNZ" depth="0.0">
			<acc value="0.00285027961545592" flag="0"/>
			<vel value="0.00199994665993534" flag="0"/>
			<psa03 value="0.00715858489820341" flag="0"/>
			<psa10 value="0.00137860585712369" flag="0"/>
			<psa30 value="0.000508109545182558" flag="0"/>
		</comp>
	</station>
	<station code="CESE" name="CESE" netid="KO" source="Bogazici University Kandilli Observatory And Earthquake Research Institute (KOERI)" insttype="" lat="38.3306" lon="26.2997">
		<comp name="--.HNE" depth="0.0">
			<acc value="0.00141309183869179" flag="0"/>
			<vel value="0.00104606768514107" flag="0"/>
			<psa03 value="0.0011589536467344" flag="0"/>
			<psa10 value="0.00120385025698424" flag="0"/>
			<psa30 value="0.000650706491526324" flag="0"/>
		</comp>
		<comp name="--.HNN" depth="0.0">
			<acc value="0.00191682638604034" flag="0"/>
			<vel value="0.00132506013653526" flag="0"/>
			<psa03 value="0.00213619912989658" flag="0"/>
			<psa10 value="0.00268868623726688" flag="0"/>
			<psa30 value="0.000460463315934902" flag="0"/>
		</comp>
		<comp name="--.HNZ" depth="0.0">
			<acc value="0.000641698090832184" flag="0"/>
			<vel value="0.000901143974053672" flag="0"/>
			<psa03 value="0.000763318632521542" flag="0"/>
			<psa10 value="0.00122302023783769" flag="0"/>
			<psa30 value="0.000426375224432799" flag="0"/>
		</comp>
	</station>
	<station code="DATC" name="DATC" netid="KO" source="Bogazici University Kandilli Observatory And Earthquake Research Institute (KOERI)" insttype="" lat="36.7584" lon="27.6602">
		<comp name="--.HNE" depth="0.0">
			<acc value="0.161203598046292" flag="0"/>
			<vel value="0.0418730261564033" flag="0"/>
			<psa03 value="0.31535241138301" flag="0"/>
			<psa10 value="0.0434611153354899" flag="0"/>
			<psa30 value="0.00356450363087014" flag="0"/>
		</comp>
		<comp name="--.HNN" depth="0.0">
			<acc value="0.121735546577273" flag="0"/>
			<vel value="0.0400669544960084" flag="0"/>
			<psa03 value="0.16537788255642" flag="0"/>
			<psa10 value="0.0242267361523871" flag="0"/>
			<psa30 value="0.00201696278055079" flag="0"/>
		</comp>
		<comp name="--.HNZ" depth="0.0">
			<acc value="0.153690951373341" flag="0"/>
			<vel value="0.0402666377381929" flag="0"/>
			<psa03 value="0.236739703676849" flag="0"/>
			<psa10 value="0.0226427643470134" flag="0"/>
			<psa30 value="0.00146120919377287" flag="0"/>
		</comp>
	</station>
	<station code="FETI" name="FETI" netid="KO" source="Bogazici University Kandilli Observatory And Earthquake Research Institute (KOERI)" insttype="" lat="36.6903" lon="29.096">
		<comp name="--.HNE" depth="0.0">
			<acc value="0.00592850142994768" flag="0"/>
			<vel value="0.00139509008786572" flag="0"/>
			<psa03 value="0.00564028119303181" flag="0"/>
			<psa10 value="0.00219084942989565" flag="0"/>
			<psa30 value="0.000431477307212153" flag="0"/>
		</comp>
		<comp name="--.HNN" depth="0.0">
			<acc value="0.00827414105330868" flag="0"/>
			<vel value="0.00125625112201352" flag="0"/>
			<psa03 value="0.0021556895160893" flag="0"/>
			<psa10 value="0.00105818216968779" flag="0"/>
			<psa30 value="0.00064349705560535" flag="0"/>
		</comp>
		<comp name="--.HNZ" depth="0.0">
			<acc value="0.0284907638144207" flag="0"/>
			<vel value="0.00235398246572067" flag="0"/>
			<psa03 value="0.00659283452939129" flag="0"/>
			<psa10 value="0.00224271302185681" flag="0"/>
			<psa30 value="0.000590093309537725" flag="0"/>
		</comp>
	</station>
	<station code="KUSD" name="KUSD" netid="KO" source="Bogazici University Kandilli Observatory And Earthquake Research Institute (KOERI)" insttype="" lat="37.8606" lon="27.2868">
		<comp name="--.HNE" depth="0.0">
			<acc value="0.0114814981773276" flag="0"/>
			<vel value="0.0015542207225614" flag="0"/>
			<psa03 value="0.00510031866533187" flag="0"/>
			<psa10 value="0.00148052085067816" flag="0"/>
			<psa30 value="0.000348889570555228" flag="0"/>
		</comp>
		<comp name="--.HNN" depth="0.0">
			<acc value="0.0251543700088213" flag="0"/>
			<vel value="0.00193884981899494" flag="0"/>
			<psa03 value="0.00558600220668334" flag="0"/>
			<psa10 value="0.00211757215376362" flag="0"/>
			<psa30 value="0.000461531667959773" flag="0"/>
		</comp>
		<comp name="--.HNZ" depth="0.0">
			<acc value="0.00445342570704073" flag="0"/>
			<vel value="0.0010290218628898" flag="0"/>
			<psa03 value="0.00327539796862348" flag="0"/>
			<psa10 value="0.00190766383430603" flag="0"/>
			<psa30 value="0.000502224676168018" flag="0"/>
		</comp>
	</station>
	<station code="NAZL" name="NAZL" netid="KO" source="Bogazici University Kandilli Observatory And Earthquake Research Institute (KOERI)" insttype="" lat="37.9641" lon="28.2922">
		<comp name="--.HNE" depth="0.0">
			<acc value="0.0049376573656922" flag="0"/>
			<vel value="0.00341098667360443" flag="0"/>
			<psa03 value="0.0155195411142487" flag="0"/>
			<psa10 value="0.0031336304782641" flag="0"/>
			<psa30 value="0.000624237081808144" flag="0"/>
		</comp>
		<comp name="--.HNN" depth="0.0">
			<acc value="0.00470046748270767" flag="0"/>
			<vel value="0.00268086496189612" flag="0"/>
			<psa03 value="0.0205769672897427" flag="0"/>
			<psa10 value="0.00242939851385416" flag="0"/>
			<psa30 value="0.000582770532770801" flag="0"/>
		</comp>
		<comp name="--.HNZ" depth="0.0">
			<acc value="0.00131875807139642" flag="0"/>
			<vel value="0.000948395923643974" flag="0"/>
			<psa03 value="0.00598042742397786" flag="0"/>
			<psa10 value="0.00101717542975358" flag="0"/>
			<psa30 value="0.00036046473839468" flag="0"/>
		</comp>
	</station>
	<station code="YKAV" name="YKAV" netid="KO" source="Bogazici University Kandilli Observatory And Earthquake Research Institute (KOERI)" insttype="" lat="37.1246" lon="27.2801">
		<comp name="--.HNE" depth="0.0">
			<acc value="0.0184431297520977" flag="0"/>
			<vel value="0.00718028537364453" flag="0"/>
			<psa03 value="0.0465792523136554" flag="0"/>
			<psa10 value="0.00435571713864966" flag="0"/>
			<psa30 value="0.000623206180182458" flag="0"/>
		</comp>
		<comp name="--.HNN" depth="0.0">
			<acc value="0.0149176661816149" flag="0"/>
			<vel value="0.00439431872831504" flag="0"/>
			<psa03 value="0.0256923556383114" flag="0"/>
			<psa10 value="0.00361809413410636" flag="0"/>
			<psa30 value="0.000635806233625706" flag="0"/>
		</comp>
		<comp name="--.HNZ" depth="0.0">
			<acc value="0.016821720740849" flag="0"/>
			<vel value="0.00370355885327207" flag="0"/>
			<psa03 value="0.0173199754883852" flag="0"/>
			<psa10 value="0.00475364146790347" flag="0"/>
			<psa30 value="0.000456518575449988" flag="0"/>
		</comp>
	</station>
</stationlist>
