<?xml version="1.0" encoding="UTF-8" standalone="yes"?>
<!DOCTYPE earthquake SYSTEM "stationlist.dtd">
<stationlist created="" xmlns="ch.ethz.sed.shakemap.usgs.xml">
  <station code="GVD" name="GVD" netid="GE" insttype="STS-2/N" lat="34.8391" lon="24.0874">
    <comp name="--.HHE">
      <acc value="0.0142049095" flag="0"/>
      <vel value="0.0115252923" flag="0"/>
      <psa03 value="0.0377896717" flag="0"/>
      <psa10 value="0.0109054335" flag="0"/>
      <psa30 value="0.0062718107" flag="0"/>
    </comp>
    <comp name="--.HHN">
      <acc value="0.0117742189" flag="0"/>
      <vel value="0.0135922850" flag="0"/>
      <psa03 value="0.0301824113" flag="0"/>
      <psa10 value="0.0147122640" flag="0"/>
      <psa30 value="0.0085583045" flag="0"/>
    </comp>
    <comp name="--.HHZ">
      <acc value="0.0063221978" flag="0"/>
      <vel value="0.0072717273" flag="0"/>
      <psa03 value="0.0108016714" flag="0"/>
      <psa10 value="0.0067588642" flag="0"/>
      <psa30 value="0.0022253381" flag="0"/>
    </comp>
  </station>
  <station code="ZKR" name="ZKR" netid="GE" insttype="STS-2/N" lat="35.1147" lon="26.2169">
    <comp name="--.HHE">
      <acc value="0.0203371600" flag="0"/>
      <vel value="0.0291297310" flag="0"/>
      <psa03 value="0.0606978894" flag="0"/>
      <psa10 value="0.0429457680" flag="0"/>
      <psa30 value="0.0170765651" flag="0"/>
    </comp>
    <comp name="--.HHN">
      <acc value="0.0172730599" flag="0"/>
      <vel value="0.0094243054" flag="0"/>
      <psa03 value="0.0622654804" flag="0"/>
      <psa10 value="0.0135144507" flag="0"/>
      <psa30 value="0.0037024093" flag="0"/>
    </comp>
    <comp name="--.HHZ">
      <acc value="0.0164529190" flag="0"/>
      <vel value="0.0154022974" flag="0"/>
      <psa03 value="0.0423296773" flag="0"/>
      <psa10 value="0.0352079007" flag="0"/>
      <psa30 value="0.0085300914" flag="0"/>
    </comp>
  </station>
  <station code="SIT2" name="SIT2" netid="HI" insttype="CMG-5TD,ACCELEROMETER,GURALP" lat="35.2059" lon="26.107">
    <comp name="--.HNE">
      <acc value="0.0705453154" flag="0"/>
      <vel value="0.0496501700" flag="0"/>
      <psa03 value="0.1996845661" flag="0"/>
      <psa10 value="0.0597471939" flag="0"/>
      <psa30 value="0.0078963298" flag="0"/>
    </comp>
    <comp name="--.HNN">
      <acc value="0.0751075497" flag="0"/>
      <vel value="0.0699314778" flag="0"/>
      <psa03 value="0.2547957481" flag="0"/>
      <psa10 value="0.0666817596" flag="0"/>
      <psa30 value="0.0095495779" flag="0"/>
    </comp>
    <comp name="--.HNZ">
      <acc value="0.0275056320" flag="0"/>
      <vel value="0.0162626327" flag="0"/>
      <psa03 value="0.0948944697" flag="0"/>
      <psa10 value="0.0147263431" flag="0"/>
      <psa30 value="0.0077084216" flag="0"/>
    </comp>
  </station>
  <station code="GVD" name="GVD" netid="HL" insttype="120" lat="34.8391" lon="24.0874">
    <comp name="--.HHE">
      <acc value="0.0138101237" flag="0"/>
      <vel value="0.0114473470" flag="0"/>
      <psa03 value="0.0367182569" flag="0"/>
      <psa10 value="0.0108254041" flag="0"/>
      <psa30 value="0.0062693810" flag="0"/>
    </comp>
    <comp name="--.HHN">
      <acc value="0.0114553297" flag="0"/>
      <vel value="0.0134290231" flag="0"/>
      <psa03 value="0.0294079983" flag="0"/>
      <psa10 value="0.0146291156" flag="0"/>
      <psa30 value="0.0085664863" flag="0"/>
    </comp>
    <comp name="--.HHZ">
      <acc value="0.0062043545" flag="0"/>
      <vel value="0.0072345822" flag="0"/>
      <psa03 value="0.0105616992" flag="0"/>
      <psa10 value="0.0067188806" flag="0"/>
      <psa30 value="0.0022263755" flag="0"/>
    </comp>
  </station>
  <station code="IACM" name="IACM" netid="HL" insttype="120" lat="35.3058" lon="25.0709">
    <comp name="--.HHE">
      <acc value="0.0638448733" flag="0"/>
      <vel value="0.0990831498" flag="0"/>
      <psa03 value="0.0966935969" flag="0"/>
      <psa10 value="0.2120777225" flag="0"/>
      <psa30 value="0.0104120672" flag="0"/>
    </comp>
    <comp name="--.HHN">
      <acc value="0.0339947878" flag="0"/>
      <vel value="0.0391769794" flag="0"/>
      <psa03 value="0.0796677693" flag="0"/>
      <psa10 value="0.0704664438" flag="0"/>
      <psa30 value="0.0138144067" flag="0"/>
    </comp>
    <comp name="--.HHZ">
      <acc value="0.0255511940" flag="0"/>
      <vel value="0.0227663392" flag="0"/>
      <psa03 value="0.0652229891" flag="0"/>
      <psa10 value="0.0307464565" flag="0"/>
      <psa30 value="0.0050798251" flag="0"/>
    </comp>
  </station>
  <station code="IDI" name="IDI" netid="HL" insttype="120" lat="35.288" lon="24.89">
    <comp name="--.HHN">
      <acc value="0.0058767367" flag="0"/>
      <vel value="0.0067359084" flag="0"/>
      <psa03 value="0.0136251405" flag="0"/>
      <psa10 value="0.0079060897" flag="0"/>
      <psa30 value="0.0030896280" flag="0"/>
    </comp>
    <comp name="--.HHZ">
      <acc value="0.0038179870" flag="0"/>
      <vel value="0.0077901629" flag="0"/>
      <psa03 value="0.0089388713" flag="0"/>
      <psa10 value="0.0073349109" flag="0"/>
      <psa30 value="0.0039526273" flag="0"/>
    </comp>
    <comp name="--.HHE">
      <acc value="0.0052051782" flag="0"/>
      <vel value="0.0083425414" flag="0"/>
      <psa03 value="0.0125269289" flag="0"/>
      <psa10 value="0.0097470836" flag="0"/>
      <psa30 value="0.0033079361" flag="0"/>
    </comp>
  </station>
  <station code="NPS" name="NPS" netid="HL" insttype="CMG3ESPC-120s" lat="35.2613" lon="25.6104">
    <comp name="--.HHE">
      <acc value="0.0069610688" flag="0"/>
      <vel value="0.0059627027" flag="0"/>
      <psa03 value="0.0151988610" flag="0"/>
      <psa10 value="0.0130958996" flag="0"/>
      <psa30 value="0.0019610443" flag="0"/>
    </comp>
    <comp name="--.HHN">
      <acc value="0.0132445679" flag="0"/>
      <vel value="0.0149525731" flag="0"/>
      <psa03 value="0.0462960416" flag="0"/>
      <psa10 value="0.0187515390" flag="0"/>
      <psa30 value="0.0053992450" flag="0"/>
    </comp>
    <comp name="--.HHZ">
      <acc value="0.0099276017" flag="0"/>
      <vel value="0.0126406648" flag="0"/>
      <psa03 value="0.0331367466" flag="0"/>
      <psa10 value="0.0108560112" flag="0"/>
      <psa30 value="0.0069978892" flag="0"/>
    </comp>
  </station>
  <station code="ZKR" name="ZKR" netid="HL" insttype="120" lat="35.1147" lon="26.2169">
    <comp name="--.HHE">
      <acc value="0.0199399113" flag="0"/>
      <vel value="0.0288044673" flag="0"/>
      <psa03 value="0.0591253492" flag="0"/>
      <psa10 value="0.0426576718" flag="0"/>
      <psa30 value="0.0170834656" flag="0"/>
    </comp>
    <comp name="--.HHN">
      <acc value="0.0166456977" flag="0"/>
      <vel value="0.0092800741" flag="0"/>
      <psa03 value="0.0606259724" flag="0"/>
      <psa10 value="0.0134355002" flag="0"/>
      <psa30 value="0.0037044419" flag="0"/>
    </comp>
    <comp name="--.HHZ">
      <acc value="0.0161428335" flag="0"/>
      <vel value="0.0153884181" flag="0"/>
      <psa03 value="0.0411911334" flag="0"/>
      <psa10 value="0.0349937998" flag="0"/>
      <psa30 value="0.0085373267" flag="0"/>
    </comp>
  </station>
  <station code="IDI" name="IDI" netid="MN" insttype="" lat="35.288" lon="24.89">
    <comp name="--.HHE">
      <acc value="0.0052581925" flag="0"/>
      <vel value="0.0082727459" flag="0"/>
      <psa03 value="0.0127577635" flag="0"/>
      <psa10 value="0.0096732468" flag="0"/>
      <psa30 value="0.0032671652" flag="0"/>
    </comp>
    <comp name="--.HHN">
      <acc value="0.0059740657" flag="0"/>
      <vel value="0.0066680047" flag="0"/>
      <psa03 value="0.0137527230" flag="0"/>
      <psa10 value="0.0078403822" flag="0"/>
      <psa30 value="0.0030532072" flag="0"/>
    </comp>
    <comp name="--.HHZ">
      <acc value="0.0038318950" flag="0"/>
      <vel value="0.0077125973" flag="0"/>
      <psa03 value="0.0089724023" flag="0"/>
      <psa10 value="0.0072755030" flag="0"/>
      <psa30 value="0.0039044186" flag="0"/>
    </comp>
  </station>
</stationlist>
