<stationlist created="1778069569">
	<station code="SIT2" name="SIT2" netid="HI" source="ITSAK Strong Motion Network" insttype="" lat="35.2059" lon="26.107">
		<comp name="--.HNE" depth="0.0">
			<acc value="0.0707125448004395" flag="0"/>
			<vel value="0.0497870830247956" flag="0"/>
			<psa03 value="0.197850037665998" flag="0"/>
			<psa10 value="0.0598825219158287" flag="0"/>
			<psa30 value="0.00787373352068346" flag="0"/>
		</comp>
		<comp name="--.HNN" depth="0.0">
			<acc value="0.0751419417218086" flag="0"/>
			<vel value="0.0701560962820012" flag="0"/>
			<psa03 value="0.255612226410187" flag="0"/>
			<psa10 value="0.0666435167579158" flag="0"/>
			<psa30 value="0.0097497742441876" flag="0"/>
		</comp>
		<comp name="--.HNZ" depth="0.0">
			<acc value="0.0275835772560266" flag="0"/>
			<vel value="0.0194404799919377" flag="0"/>
			<psa03 value="0.0964641974689939" flag="0"/>
			<psa10 value="0.0149031816024801" flag="0"/>
			<psa30 value="0.00778380168538074" flag="0"/>
		</comp>
	</station>
</stationlist>
