<?xml version="1.0" encoding="UTF-8" standalone="yes"?>
<!DOCTYPE earthquake SYSTEM "stationlist.dtd">
<stationlist created="" xmlns="ch.ethz.sed.shakemap.usgs.xml">
  <station code="PSAM" name="PSAM" netid="CL" insttype="CMG40-T" commtype="DIG" lat="38.3218" lon="22.1842">
    <comp name="00.HHE">
      <acc value="0.0420238168" flag="0"/>
      <vel value="0.0455041714" flag="0"/>
      <psa03 value="0.1180022879" flag="0"/>
      <psa10 value="0.0732416319" flag="0"/>
      <psa30 value="0.0093248786" flag="0"/>
    </comp>
    <comp name="00.HHN">
      <acc value="0.0336813815" flag="0"/>
      <vel value="0.0367215890" flag="0"/>
      <psa03 value="0.1150988673" flag="0"/>
      <psa10 value="0.0851838622" flag="0"/>
      <psa30 value="0.0052931261" flag="0"/>
    </comp>
    <comp name="00.HHZ">
      <acc value="0.0266201399" flag="0"/>
      <vel value="0.0202576287" flag="0"/>
      <psa03 value="0.0959299621" flag="0"/>
      <psa10 value="0.0444016748" flag="0"/>
      <psa30 value="0.0040600740" flag="0"/>
    </comp>
  </station>
  <station code="TRIZ" name="TRIZ" netid="CL" insttype="STS-2" commtype="DIG" lat="38.3654" lon="22.0727">
    <comp name="00.HH2">
      <acc value="0.0687089721" flag="0"/>
      <vel value="0.0417974570" flag="0"/>
      <psa03 value="0.3201518453" flag="0"/>
      <psa10 value="0.0362583725" flag="0"/>
      <psa30 value="0.0032709657" flag="0"/>
    </comp>
    <comp name="00.HH3">
      <acc value="0.0275341858" flag="0"/>
      <vel value="0.0243708013" flag="0"/>
      <psa03 value="0.1004027161" flag="0"/>
      <psa10 value="0.0442609058" flag="0"/>
      <psa30 value="0.0029335608" flag="0"/>
    </comp>
    <comp name="00.HHZ">
      <acc value="0.0394292517" flag="0"/>
      <vel value="0.0349021185" flag="0"/>
      <psa03 value="0.1435536032" flag="0"/>
      <psa10 value="0.0633609799" flag="0"/>
      <psa30 value="0.0041998083" flag="0"/>
    </comp>
  </station>
  <station code="ACOR" name="ACOR" netid="HA" insttype="Horizon,120s,1200" commtype="DIG" lat="37.8905" lon="22.8694">
    <comp name="--.HHZ">
      <acc value="0.0122875453" flag="0"/>
      <vel value="0.0145890189" flag="0"/>
      <psa03 value="0.0320422419" flag="0"/>
      <psa10 value="0.0187946222" flag="0"/>
      <psa30 value="0.0028612065" flag="0"/>
    </comp>
    <comp name="--.HHE">
      <acc value="0.0169137113" flag="0"/>
      <vel value="0.0235991057" flag="0"/>
      <psa03 value="0.0466707101" flag="0"/>
      <psa10 value="0.0301328421" flag="0"/>
      <psa30 value="0.0030210221" flag="0"/>
    </comp>
    <comp name="--.HHN">
      <acc value="0.0158634659" flag="0"/>
      <vel value="0.0215290672" flag="0"/>
      <psa03 value="0.0396842557" flag="0"/>
      <psa10 value="0.0395401494" flag="0"/>
      <psa30 value="0.0064071335" flag="0"/>
    </comp>
  </station>
  <station code="ALIO" name="ALIO" netid="HA" insttype="25" commtype="DIG" lat="38.0657" lon="23.6727">
    <comp name="--.HHN">
      <acc value="0.0205944173" flag="0"/>
      <vel value="0.0140901296" flag="0"/>
      <psa03 value="0.0471909739" flag="0"/>
      <psa10 value="0.0202658558" flag="0"/>
      <psa30 value="0.0024906382" flag="0"/>
    </comp>
    <comp name="--.HHE">
      <acc value="0.0261736196" flag="0"/>
      <vel value="0.0172369877" flag="0"/>
      <psa03 value="0.0601278209" flag="0"/>
      <psa10 value="0.0217279520" flag="0"/>
      <psa30 value="0.0049566083" flag="0"/>
    </comp>
    <comp name="--.HHZ">
      <acc value="0.0187103959" flag="0"/>
      <vel value="0.0116108618" flag="0"/>
      <psa03 value="0.0273378409" flag="0"/>
      <psa10 value="0.0121854522" flag="0"/>
      <psa30 value="0.0017702890" flag="0"/>
    </comp>
  </station>
  <station code="AMPE" name="AMPE" netid="HA" insttype="1s-100Hz," commtype="DIG" lat="38.3015" lon="23.2688">
    <comp name="--.HHE">
      <acc value="0.2016714518" flag="0"/>
      <vel value="0.2364107826" flag="0"/>
      <psa03 value="0.3696841545" flag="0"/>
      <psa10 value="0.5011132388" flag="0"/>
      <psa30 value="0.0288413722" flag="0"/>
    </comp>
    <comp name="--.HHN">
      <acc value="0.1850175371" flag="0"/>
      <vel value="0.1528317374" flag="0"/>
      <psa03 value="0.3629459131" flag="0"/>
      <psa10 value="0.1811064283" flag="0"/>
      <psa30 value="0.0238523862" flag="0"/>
    </comp>
    <comp name="--.HHZ">
      <acc value="0.0857783438" flag="0"/>
      <vel value="0.0759694568" flag="0"/>
      <psa03 value="0.3307941198" flag="0"/>
      <psa10 value="0.1467215850" flag="0"/>
      <psa30 value="0.0092126644" flag="0"/>
    </comp>
  </station>
  <station code="ATAL" name="ATAL" netid="HA" insttype="120s," commtype="DIG" lat="38.6926" lon="23.0213">
    <comp name="--.HHE">
      <acc value="0.1486894624" flag="0"/>
      <vel value="0.0824982528" flag="0"/>
      <psa03 value="0.4478007562" flag="0"/>
      <psa10 value="0.1031789131" flag="0"/>
      <psa30 value="0.0072839280" flag="0"/>
    </comp>
    <comp name="--.HHZ">
      <acc value="0.1659154042" flag="0"/>
      <vel value="0.0665716457" flag="0"/>
      <psa03 value="0.2559443685" flag="0"/>
      <psa10 value="0.0780810996" flag="0"/>
      <psa30 value="0.0058498233" flag="0"/>
    </comp>
    <comp name="--.HHN">
      <acc value="0.2117442717" flag="0"/>
      <vel value="0.1193410981" flag="0"/>
      <psa03 value="0.3523227116" flag="0"/>
      <psa10 value="0.1161062607" flag="0"/>
      <psa30 value="0.0090804343" flag="0"/>
    </comp>
  </station>
  <station code="ATHU" name="ATHU" netid="HA" insttype="60s," commtype="DIG" lat="37.9665" lon="23.7845">
    <comp name="--.HHN">
      <acc value="0.0203305051" flag="0"/>
      <vel value="0.0222821144" flag="0"/>
      <psa03 value="0.0689866268" flag="0"/>
      <psa10 value="0.0240501745" flag="0"/>
      <psa30 value="0.0027245257" flag="0"/>
    </comp>
    <comp name="--.HHZ">
      <acc value="0.0248104099" flag="0"/>
      <vel value="0.0179495277" flag="0"/>
      <psa03 value="0.0472036211" flag="0"/>
      <psa10 value="0.0261624671" flag="0"/>
      <psa30 value="0.0039993236" flag="0"/>
    </comp>
    <comp name="--.HHE">
      <acc value="0.0288323063" flag="0"/>
      <vel value="0.0249835411" flag="0"/>
      <psa03 value="0.0782515176" flag="0"/>
      <psa10 value="0.0334709038" flag="0"/>
      <psa30 value="0.0073009339" flag="0"/>
    </comp>
  </station>
  <station code="AXAR" name="AXAR" netid="HA" insttype="Horizon,120s,1200" commtype="DIG" lat="38.7664" lon="22.659">
    <comp name="--.HHE">
      <acc value="0.5224075832" flag="0"/>
      <vel value="0.2308508140" flag="0"/>
      <psa03 value="1.5065599538" flag="0"/>
      <psa10 value="0.1714339679" flag="0"/>
      <psa30 value="0.0254795612" flag="0"/>
    </comp>
    <comp name="--.HHN">
      <acc value="0.3910486841" flag="0"/>
      <vel value="0.2829818182" flag="0"/>
      <psa03 value="1.2166231301" flag="0"/>
      <psa10 value="0.1798043157" flag="0"/>
      <psa30 value="0.0180218179" flag="0"/>
    </comp>
    <comp name="--.HHZ">
      <acc value="0.3033557920" flag="0"/>
      <vel value="0.1466923902" flag="0"/>
      <psa03 value="1.3421908919" flag="0"/>
      <psa10 value="0.1353096619" flag="0"/>
      <psa30 value="0.0096622924" flag="0"/>
    </comp>
  </station>
  <station code="ERTR" name="ERTR" netid="HA" insttype="Horizon,120s,1200" commtype="DIG" lat="38.4066" lon="23.7865">
    <comp name="--.HHE">
      <acc value="0.0797228185" flag="0"/>
      <vel value="0.0643314228" flag="0"/>
      <psa03 value="0.0856829525" flag="0"/>
      <psa10 value="0.1220955597" flag="0"/>
      <psa30 value="0.0121017997" flag="0"/>
    </comp>
    <comp name="--.HHN">
      <acc value="0.0903737918" flag="0"/>
      <vel value="0.0949304113" flag="0"/>
      <psa03 value="0.2154595698" flag="0"/>
      <psa10 value="0.1251113478" flag="0"/>
      <psa30 value="0.0131011401" flag="0"/>
    </comp>
    <comp name="--.HHZ">
      <acc value="0.0451714072" flag="0"/>
      <vel value="0.0325477797" flag="0"/>
      <psa03 value="0.0848174869" flag="0"/>
      <psa10 value="0.0396437343" flag="0"/>
      <psa30 value="0.0049467207" flag="0"/>
    </comp>
  </station>
  <station code="KALE" name="KALE" netid="HA" insttype="40," commtype="DIG" lat="38.3911" lon="22.1398">
    <comp name="--.HHN">
      <acc value="0.0846436484" flag="0"/>
      <vel value="0.0457045213" flag="0"/>
      <psa03 value="0.1919281008" flag="0"/>
      <psa10 value="0.0505345544" flag="0"/>
      <psa30 value="0.0053181826" flag="0"/>
    </comp>
    <comp name="--.HHE">
      <acc value="0.0647790789" flag="0"/>
      <vel value="0.0464515847" flag="0"/>
      <psa03 value="0.3052916604" flag="0"/>
      <psa10 value="0.0284435849" flag="0"/>
      <psa30 value="0.0053963972" flag="0"/>
    </comp>
    <comp name="--.HHZ">
      <acc value="0.0377542808" flag="0"/>
      <vel value="0.0246335998" flag="0"/>
      <psa03 value="0.1518749029" flag="0"/>
      <psa10 value="0.0327534651" flag="0"/>
      <psa30 value="0.0033402558" flag="0"/>
    </comp>
  </station>
  <station code="LOUT" name="LOUT" netid="HA" insttype="30" commtype="DIG" lat="37.9879" lon="22.9743">
    <comp name="--.HHE">
      <acc value="0.0816347811" flag="0"/>
      <vel value="0.0567343336" flag="0"/>
      <psa03 value="0.1604373821" flag="0"/>
      <psa10 value="0.0977454729" flag="0"/>
      <psa30 value="0.0059924348" flag="0"/>
    </comp>
    <comp name="--.HHN">
      <acc value="0.0940885451" flag="0"/>
      <vel value="0.0697158428" flag="0"/>
      <psa03 value="0.2488020831" flag="0"/>
      <psa10 value="0.1518065217" flag="0"/>
      <psa30 value="0.0059171522" flag="0"/>
    </comp>
    <comp name="--.HHZ">
      <acc value="0.0384415585" flag="0"/>
      <vel value="0.0294551929" flag="0"/>
      <psa03 value="0.1057061993" flag="0"/>
      <psa10 value="0.0837290228" flag="0"/>
      <psa30 value="0.0039557085" flag="0"/>
    </comp>
  </station>
  <station code="MDRA" name="MDRA" netid="HA" insttype="60" commtype="DIG" lat="38.0606" lon="23.4662">
    <comp name="--.HHZ">
      <acc value="0.0343794565" flag="0"/>
      <vel value="0.0356577429" flag="0"/>
      <psa03 value="0.1109479297" flag="0"/>
      <psa10 value="0.0489508119" flag="0"/>
      <psa30 value="0.0046993502" flag="0"/>
    </comp>
    <comp name="--.HHN">
      <acc value="0.0744730228" flag="0"/>
      <vel value="0.0597172431" flag="0"/>
      <psa03 value="0.1988271005" flag="0"/>
      <psa10 value="0.0910284650" flag="0"/>
      <psa30 value="0.0060928811" flag="0"/>
    </comp>
    <comp name="--.HHE">
      <acc value="0.0291469893" flag="0"/>
      <vel value="0.0270927500" flag="0"/>
      <psa03 value="0.0605120816" flag="0"/>
      <psa10 value="0.0426133228" flag="0"/>
      <psa30 value="0.0059855960" flag="0"/>
    </comp>
  </station>
  <station code="MRKA" name="MRKA" netid="HA" insttype="Horizon,120s,1200" commtype="DIG" lat="38.7047" lon="23.5863">
    <comp name="--.HHZ">
      <acc value="0.2110523216" flag="0"/>
      <vel value="0.0929782393" flag="0"/>
      <psa03 value="0.4114231852" flag="0"/>
      <psa10 value="0.0866514968" flag="0"/>
      <psa30 value="0.0081247844" flag="0"/>
    </comp>
    <comp name="--.HHE">
      <acc value="0.4771203827" flag="0"/>
      <vel value="0.2963899832" flag="0"/>
      <psa03 value="0.7512954089" flag="0"/>
      <psa10 value="0.3226719164" flag="0"/>
      <psa30 value="0.0194417084" flag="0"/>
    </comp>
    <comp name="--.HHN">
      <acc value="0.2824508468" flag="0"/>
      <vel value="0.1520547021" flag="0"/>
      <psa03 value="0.7209182608" flag="0"/>
      <psa10 value="0.1863332410" flag="0"/>
      <psa30 value="0.0115577973" flag="0"/>
    </comp>
  </station>
  <station code="MRTH" name="MRTH" netid="HA" insttype="S100," commtype="DIG" lat="38.1225" lon="23.9409">
    <comp name="--.HHN">
      <acc value="0.0987854044" flag="0"/>
      <vel value="0.0633359574" flag="0"/>
      <psa03 value="0.3130385839" flag="0"/>
      <psa10 value="0.1119358749" flag="0"/>
      <psa30 value="0.0051928106" flag="0"/>
    </comp>
    <comp name="--.HHZ">
      <acc value="0.0559193933" flag="0"/>
      <vel value="0.0337919203" flag="0"/>
      <psa03 value="0.1824733600" flag="0"/>
      <psa10 value="0.0490280004" flag="0"/>
      <psa30 value="0.0034626737" flag="0"/>
    </comp>
    <comp name="--.HHE">
      <acc value="0.0808278363" flag="0"/>
      <vel value="0.0667554248" flag="0"/>
      <psa03 value="0.2718330820" flag="0"/>
      <psa10 value="0.1339611198" flag="0"/>
      <psa30 value="0.0142826834" flag="0"/>
    </comp>
  </station>
  <station code="PRDM" name="PRDM" netid="HA" insttype="25" commtype="DIG" lat="38.2804" lon="22.847">
    <comp name="--.HHN">
      <acc value="0.0283951306" flag="0"/>
      <vel value="0.0220769396" flag="0"/>
      <psa03 value="0.0885803129" flag="0"/>
      <psa10 value="0.0191800973" flag="0"/>
      <psa30 value="0.0033640694" flag="0"/>
    </comp>
    <comp name="--.HHE">
      <acc value="0.0370548033" flag="0"/>
      <vel value="0.0197830455" flag="0"/>
      <psa03 value="0.1039145637" flag="0"/>
      <psa10 value="0.0237625491" flag="0"/>
      <psa30 value="0.0016422838" flag="0"/>
    </comp>
    <comp name="--.HHZ">
      <acc value="0.0202628674" flag="0"/>
      <vel value="0.0130614870" flag="0"/>
      <psa03 value="0.0861745711" flag="0"/>
      <psa10 value="0.0184705496" flag="0"/>
      <psa30 value="0.0021521848" flag="0"/>
    </comp>
  </station>
  <station code="PSAH" name="PSAH" netid="HA" insttype="25" commtype="DIG" lat="38.5694" lon="23.6473">
    <comp name="--.HHE">
      <acc value="0.0728696798" flag="0"/>
      <vel value="0.0501306546" flag="0"/>
      <psa03 value="0.2105063575" flag="0"/>
      <psa10 value="0.1398275651" flag="0"/>
      <psa30 value="0.0065765568" flag="0"/>
    </comp>
    <comp name="--.HHN">
      <acc value="0.0618919840" flag="0"/>
      <vel value="0.0361290094" flag="0"/>
      <psa03 value="0.1367886483" flag="0"/>
      <psa10 value="0.0626595132" flag="0"/>
      <psa30 value="0.0055100049" flag="0"/>
    </comp>
    <comp name="--.HHZ">
      <acc value="0.0429409765" flag="0"/>
      <vel value="0.0319328759" flag="0"/>
      <psa03 value="0.0967585457" flag="0"/>
      <psa10 value="0.0404116194" flag="0"/>
      <psa30 value="0.0036751584" flag="0"/>
    </comp>
  </station>
  <station code="THAL" name="THAL" netid="HA" insttype="30" commtype="DIG" lat="38.0357" lon="22.6634">
    <comp name="--.HHN">
      <acc value="0.0928213327" flag="0"/>
      <vel value="0.0721958279" flag="0"/>
      <psa03 value="0.2336982742" flag="0"/>
      <psa10 value="0.0707168454" flag="0"/>
      <psa30 value="0.0089219107" flag="0"/>
    </comp>
    <comp name="--.HHE">
      <acc value="0.0873746273" flag="0"/>
      <vel value="0.0568711284" flag="0"/>
      <psa03 value="0.2650696603" flag="0"/>
      <psa10 value="0.0891651958" flag="0"/>
      <psa30 value="0.0078122066" flag="0"/>
    </comp>
    <comp name="--.HHZ">
      <acc value="0.0334917531" flag="0"/>
      <vel value="0.0268569523" flag="0"/>
      <psa03 value="0.1389436968" flag="0"/>
      <psa10 value="0.0523038991" flag="0"/>
      <psa30 value="0.0038704936" flag="0"/>
    </comp>
  </station>
  <station code="THIV" name="THIV" netid="HA" insttype="25" commtype="DIG" lat="38.299" lon="23.332">
    <comp name="--.HHE">
      <acc value="0.1184402910" flag="0"/>
      <vel value="0.0639656474" flag="0"/>
      <psa03 value="0.1666448544" flag="0"/>
      <psa10 value="0.1187793714" flag="0"/>
      <psa30 value="0.0082584663" flag="0"/>
    </comp>
    <comp name="--.HHZ">
      <acc value="0.0612218510" flag="0"/>
      <vel value="0.0503483552" flag="0"/>
      <psa03 value="0.1646095927" flag="0"/>
      <psa10 value="0.0520169189" flag="0"/>
      <psa30 value="0.0087321657" flag="0"/>
    </comp>
    <comp name="--.HHN">
      <acc value="0.1202191724" flag="0"/>
      <vel value="0.0628467690" flag="0"/>
      <psa03 value="0.1942147819" flag="0"/>
      <psa10 value="0.1031939304" flag="0"/>
      <psa30 value="0.0078041366" flag="0"/>
    </comp>
  </station>
  <station code="AGXA" name="AGXA" netid="HL" insttype="CMG-5" commtype="DIG" lat="39.2765" lon="22.82">
    <comp name="00.HNZ">
      <acc value="0.2701043305" flag="0"/>
      <vel value="0.1525571567" flag="0"/>
      <psa03 value="0.7693854951" flag="0"/>
      <psa10 value="0.1639601606" flag="0"/>
      <psa30 value="0.0101749010" flag="0"/>
    </comp>
    <comp name="00.HNN">
      <acc value="1.2077043688" flag="0"/>
      <vel value="0.7901624168" flag="0"/>
      <psa03 value="3.1435764479" flag="0"/>
      <psa10 value="0.3755990962" flag="0"/>
      <psa30 value="0.0309665165" flag="0"/>
    </comp>
    <comp name="00.HNE">
      <acc value="0.7309840607" flag="0"/>
      <vel value="0.4259735444" flag="0"/>
      <psa03 value="2.5317955918" flag="0"/>
      <psa10 value="0.2126953411" flag="0"/>
      <psa30 value="0.0146324918" flag="0"/>
    </comp>
  </station>
  <station code="ALNA" name="ALNA" netid="HL" insttype="CMG-5" commtype="DIG" lat="39.148" lon="23.8667">
    <comp name="00.HNZ">
      <acc value="0.2498624357" flag="0"/>
      <vel value="0.0714023488" flag="0"/>
      <psa03 value="0.2874285279" flag="0"/>
      <psa10 value="0.0772596093" flag="0"/>
      <psa30 value="0.0091231597" flag="0"/>
    </comp>
    <comp name="00.HNE">
      <acc value="0.2046908487" flag="0"/>
      <vel value="0.0939866702" flag="0"/>
      <psa03 value="0.3279276905" flag="0"/>
      <psa10 value="0.0721908772" flag="0"/>
      <psa30 value="0.0098292714" flag="0"/>
    </comp>
    <comp name="00.HNN">
      <acc value="0.1902500203" flag="0"/>
      <vel value="0.1428825327" flag="0"/>
      <psa03 value="0.3740287233" flag="0"/>
      <psa10 value="0.1535655681" flag="0"/>
      <psa30 value="0.0158690174" flag="0"/>
    </comp>
  </station>
  <station code="ATH" name="ATH" netid="HL" insttype="DR24" commtype="DIG" lat="37.9738" lon="23.7177">
    <comp name="--.HHE">
      <acc value="0.1517703853" flag="0"/>
      <vel value="0.0836926405" flag="0"/>
      <psa03 value="0.3159990928" flag="0"/>
      <psa10 value="0.1017547357" flag="0"/>
      <psa30 value="0.0144344236" flag="0"/>
    </comp>
    <comp name="--.HHN">
      <acc value="0.0963870703" flag="0"/>
      <vel value="0.0388010155" flag="0"/>
      <psa03 value="0.2801011119" flag="0"/>
      <psa10 value="0.0396012616" flag="0"/>
      <psa30 value="0.0052108138" flag="0"/>
    </comp>
    <comp name="--.HHZ">
      <acc value="0.0349194859" flag="0"/>
      <vel value="0.0320379786" flag="0"/>
      <psa03 value="0.0908155998" flag="0"/>
      <psa10 value="0.0406931423" flag="0"/>
      <psa30 value="0.0043793256" flag="0"/>
    </comp>
  </station>
  <station code="ATHP" name="ATHP" netid="HL" insttype="CMG-5" commtype="DIG" lat="38.0008" lon="23.7735">
    <comp name="00.HNE">
      <acc value="0.0443883976" flag="0"/>
      <vel value="0.0425734574" flag="0"/>
      <psa03 value="0.1004800490" flag="0"/>
      <psa10 value="0.0495558467" flag="0"/>
      <psa30 value="0.0102938127" flag="0"/>
    </comp>
    <comp name="00.HNN">
      <acc value="0.0821444734" flag="0"/>
      <vel value="0.0645145120" flag="0"/>
      <psa03 value="0.2271939321" flag="0"/>
      <psa10 value="0.0976141244" flag="0"/>
      <psa30 value="0.0108167779" flag="0"/>
    </comp>
    <comp name="00.HNZ">
      <acc value="0.0255719740" flag="0"/>
      <vel value="0.0213034850" flag="0"/>
      <psa03 value="0.0610937373" flag="0"/>
      <psa10 value="0.0476273412" flag="0"/>
      <psa30 value="0.0051442098" flag="0"/>
    </comp>
  </station>
  <station code="EFSA" name="EFSA" netid="HL" insttype="CMG-5" commtype="DIG" lat="39.5401" lon="24.9886">
    <comp name="00.HNN">
