<?xml version="1.0" encoding="UTF-8" standalone="yes"?>
<!DOCTYPE earthquake SYSTEM "stationlist.dtd">
<stationlist created="" xmlns="ch.ethz.sed.shakemap.usgs.xml">
  <station code="PSAM" name="PSAM" netid="CL" insttype="CMG40-T" commtype="DIG" lat="38.3218" lon="22.1842">
    <comp name="00.HHE">
      <acc value="0.0420238168" flag="0"/>
      <vel value="0.0455041714" flag="0"/>
      <psa03 value="0.1180022879" flag="0"/>
      <psa10 value="0.0732416319" flag="0"/>
      <psa30 value="0.0093248786" flag="0"/>
    </comp>
    <comp name="00.HHN">
      <acc value="0.0336813815" flag="0"/>
      <vel value="0.0367215890" flag="0"/>
      <psa03 value="0.1150988673" flag="0"/>
      <psa10 value="0.0851838622" flag="0"/>
      <psa30 value="0.0052931261" flag="0"/>
    </comp>
    <comp name="00.HHZ">
      <acc value="0.0266201399" flag="0"/>
      <vel value="0.0202576287" flag="0"/>
      <psa03 value="0.0959299621" flag="0"/>
      <psa10 value="0.0444016748" flag="0"/>
      <psa30 value="0.0040600740" flag="0"/>
    </comp>
  </station>
  <station code="TRIZ" name="TRIZ" netid="CL" insttype="STS-2" commtype="DIG" lat="38.3654" lon="22.0727">
    <comp name="00.HH2">
      <acc value="0.0687089721" flag="0"/>
      <vel value="0.0417974570" flag="0"/>
      <psa03 value="0.3201518453" flag="0"/>
      <psa10 value="0.0362583725" flag="0"/>
      <psa30 value="0.0032709657" flag="0"/>
    </comp>
    <comp name="00.HH3">
      <acc value="0.0275341858" flag="0"/>
      <vel value="0.0243708013" flag="0"/>
      <psa03 value="0.1004027161" flag="0"/>
      <psa10 value="0.0442609058" flag="0"/>
      <psa30 value="0.0029335608" flag="0"/>
    </comp>
    <comp name="00.HHZ">
      <acc value="0.0394292517" flag="0"/>
      <vel value="0.0349021185" flag="0"/>
      <psa03 value="0.1435536032" flag="0"/>
      <psa10 value="0.0633609799" flag="0"/>
      <psa30 value="0.0041998083" flag="0"/>
    </comp>
  </station>
  <station code="THL" name="THL" netid="MN" insttype="" commtype="DIG" lat="39.5647" lon="22.0144">
    <comp name="--.HHE">
      <acc value="0.0181029452" flag="0"/>
      <vel value="0.0206235438" flag="0"/>
      <psa03 value="0.0446216314" flag="0"/>
      <psa10 value="0.0309612549" flag="0"/>
      <psa30 value="0.0035158162" flag="0"/>
    </comp>
    <comp name="--.HHN">
      <acc value="0.0253694353" flag="0"/>
      <vel value="0.0246574440" flag="0"/>
      <psa03 value="0.0474578085" flag="0"/>
      <psa10 value="0.0306282500" flag="0"/>
      <psa30 value="0.0043532549" flag="0"/>
    </comp>
    <comp name="--.HHZ">
      <acc value="0.0216948940" flag="0"/>
      <vel value="0.0165527551" flag="0"/>
      <psa03 value="0.0529465125" flag="0"/>
      <psa10 value="0.0170315885" flag="0"/>
      <psa30 value="0.0032561217" flag="0"/>
    </comp>
  </station>
</stationlist>
