<stationlist created="1777386300">
	<station code="MALA" name="MALA" netid="CL" source="Corinth Riff Laboratory (CRLNET)" insttype="" lat="38.39341" lon="21.87263">
		<comp name="01.HNE" depth="0.0">
			<acc value="0.0466540014731991" flag="0"/>
			<vel value="0.07712878679317" flag="0"/>
			<psa03 value="0.168445689950271" flag="0"/>
			<psa10 value="0.160502157480229" flag="0"/>
			<psa30 value="0.0205565717719935" flag="0"/>
		</comp>
		<comp name="01.HNN" depth="0.0">
			<acc value="0.0501009762746113" flag="0"/>
			<vel value="0.0768241012633817" flag="0"/>
			<psa03 value="0.159898061211816" flag="0"/>
			<psa10 value="0.126704753568089" flag="0"/>
			<psa30 value="0.0166195476301326" flag="0"/>
		</comp>
		<comp name="01.HNZ" depth="0.0">
			<acc value="0.0269095902573249" flag="0"/>
			<vel value="0.0499880168236271" flag="0"/>
			<psa03 value="0.0584934999072976" flag="0"/>
			<psa10 value="0.114434660734657" flag="0"/>
			<psa30 value="0.00961162588971044" flag="0"/>
		</comp>
	</station>
	<station code="ROD3" name="ROD3" netid="CL" source="Corinth Riff Laboratory (CRLNET)" insttype="" lat="38.30811" lon="21.89204">
		<comp name="00.HNE" depth="0.0">
			<acc value="0.0362156434830723" flag="0"/>
			<vel value="0.0285956180227022" flag="0"/>
			<psa03 value="0.171179027270454" flag="0"/>
			<psa10 value="0.0281282264819582" flag="0"/>
			<psa30 value="0.00421950035452359" flag="0"/>
		</comp>
		<comp name="00.HNN" depth="0.0">
			<acc value="0.0547857573985578" flag="0"/>
			<vel value="0.0326497106251587" flag="0"/>
			<psa03 value="0.300544951294692" flag="0"/>
			<psa10 value="0.034125119371681" flag="0"/>
			<psa30 value="0.00447058032067244" flag="0"/>
		</comp>
		<comp name="00.HNZ" depth="0.0">
			<acc value="0.0188865483670603" flag="0"/>
			<vel value="0.0120992972376422" flag="0"/>
			<psa03 value="0.0537987201511796" flag="0"/>
			<psa10 value="0.0273223449712632" flag="0"/>
			<psa30 value="0.00258352114559663" flag="0"/>
		</comp>
	</station>
	<station code="TRIZ" name="TRIZ" netid="CL" source="Corinth Riff Laboratory (CRLNET)" insttype="" lat="38.36543" lon="22.07272">
		<comp name="00.HNE" depth="0.0">
			<acc value="0.0390706746958008" flag="0"/>
			<vel value="0.0361374226604354" flag="0"/>
			<psa03 value="0.185346111603596" flag="0"/>
			<psa10 value="0.0327522284243935" flag="0"/>
			<psa30 value="0.00694848363627284" flag="0"/>
		</comp>
		<comp name="00.HNN" depth="0.0">
			<acc value="0.0953168059983025" flag="0"/>
			<vel value="0.0541037510122099" flag="0"/>
			<psa03 value="0.411892285842475" flag="0"/>
			<psa10 value="0.0635925801963418" flag="0"/>
			<psa30 value="0.00938428166260448" flag="0"/>
		</comp>
		<comp name="00.HNZ" depth="0.0">
			<acc value="0.0271337405553113" flag="0"/>
			<vel value="0.0234331863239855" flag="0"/>
			<psa03 value="0.082912237320477" flag="0"/>
			<psa10 value="0.0493870779015318" flag="0"/>
			<psa30 value="0.00449079540982288" flag="0"/>
		</comp>
	</station>
	<station code="MMAA" name="MMAA" netid="EG" source="EUROSEISTEST Strong Motion Network" insttype="" lat="40.630855" lon="22.943725">
		<comp name="--.EN1" depth="0.0">
			<acc value="0.0348853510596629" flag="0"/>
			<vel value="0.0245804284266564" flag="0"/>
			<psa03 value="0.110377520302349" flag="0"/>
			<psa10 value="0.0284765683078946" flag="0"/>
			<psa30 value="0.00109967597313629" flag="0"/>
		</comp>
		<comp name="--.EN2" depth="0.0">
			<acc value="0.0523065100510701" flag="0"/>
			<vel value="0.0293204022888549" flag="0"/>
			<psa03 value="0.183569764762668" flag="0"/>
			<psa10 value="0.0213118968085702" flag="0"/>
			<psa30 value="0.000868408777819601" flag="0"/>
		</comp>
		<comp name="--.EN3" depth="0.0">
			<acc value="0.0168843846597871" flag="0"/>
			<vel value="0.0081706863815776" flag="0"/>
			<psa03 value="0.0459022022539563" flag="0"/>
			<psa10 value="0.00691292107209417" flag="0"/>
			<psa30 value="0.000321369700623799" flag="0"/>
		</comp>
	</station>
	<station code="ATHU" name="ATHU" netid="HA" source="Hellenic Seismological Network, University of Athens, Seismological Laboratory (HA)" insttype="" lat="37.9665" lon="23.7845">
		<comp name="--.HNE" depth="0.0">
			<acc value="0.00112440355627332" flag="0"/>
			<vel value="0.00126814748137029" flag="0"/>
			<psa03 value="0.00383051677377039" flag="0"/>
			<psa10 value="0.00134839092584378" flag="0"/>
			<psa30 value="0.000174482600282619" flag="0"/>
		</comp>
		<comp name="--.HNN" depth="0.0">
			<acc value="0.00145292773819668" flag="0"/>
			<vel value="0.00103708838917079" flag="0"/>
			<psa03 value="0.00272754217716857" flag="0"/>
			<psa10 value="0.00153776276767391" flag="0"/>
			<psa30 value="0.000235219748820627" flag="0"/>
		</comp>
		<comp name="--.HNZ" depth="0.0">
			<acc value="0.00165111387296209" flag="0"/>
			<vel value="0.00150442350151464" flag="0"/>
			<psa03 value="0.00457806499308781" flag="0"/>
			<psa10 value="0.00187822403249931" flag="0"/>
			<psa30 value="0.0004749237530345" flag="0"/>
		</comp>
	</station>
	<station code="ACHA" name="ACHA" netid="HL" source="National Observatory of Athens Seismic Network" insttype="" lat="38.07458" lon="23.74127">
		<comp name="00.HNE" depth="0.0">
			<acc value="0.0889444136454528" flag="0"/>
			<vel value="0.0826491695294355" flag="0"/>
			<psa03 value="0.239935332038206" flag="0"/>
			<psa10 value="0.0639826960396018" flag="0"/>
			<psa30 value="0.0196298303799245" flag="0"/>
		</comp>
		<comp name="00.HNN" depth="0.0">
			<acc value="0.121467327207318" flag="0"/>
			<vel value="0.0733104324187467" flag="0"/>
			<psa03 value="0.381106746451577" flag="0"/>
			<psa10 value="0.123044323582567" flag="0"/>
			<psa30 value="0.0123857738300633" flag="0"/>
		</comp>
		<comp name="00.HNZ" depth="0.0">
			<acc value="0.060846638476359" flag="0"/>
			<vel value="0.0409721413775085" flag="0"/>
			<psa03 value="0.159446635473743" flag="0"/>
			<psa10 value="0.0488874173014692" flag="0"/>
			<psa30 value="0.00563612711576074" flag="0"/>
		</comp>
	</station>
	<station code="AGXA" name="AGXA" netid="HL" source="National Observatory of Athens Seismic Network" insttype="" lat="39.27649" lon="22.81999">
		<comp name="00.HNE" depth="0.0">
			<acc value="0.731672054412084" flag="0"/>
			<vel value="0.430454668082816" flag="0"/>
			<psa03 value="2.54818463805976" flag="0"/>
			<psa10 value="0.213418597934709" flag="0"/>
			<psa30 value="0.0140063195165952" flag="0"/>
		</comp>
		<comp name="00.HNN" depth="0.0">
			<acc value="1.20883176041917" flag="0"/>
			<vel value="0.790541032141557" flag="0"/>
			<psa03 value="3.14430296130641" flag="0"/>
			<psa10 value="0.376080343477049" flag="0"/>
			<psa30 value="0.0312606975344588" flag="0"/>
		</comp>
		<comp name="00.HNZ" depth="0.0">
			<acc value="0.271352273078546" flag="0"/>
			<vel value="0.160882047260277" flag="0"/>
			<psa03 value="0.768866183611265" flag="0"/>
			<psa10 value="0.164302074206063" flag="0"/>
			<psa30 value="0.012281921950386" flag="0"/>
		</comp>
	</station>
	<station code="ALNA" name="ALNA" netid="HL" source="National Observatory of Athens Seismic Network" insttype="" lat="39.14804" lon="23.86669">
		<comp name="00.HNE" depth="0.0">
			<acc value="0.20362608369691" flag="0"/>
			<vel value="0.0990074182471518" flag="0"/>
			<psa03 value="0.328589434104043" flag="0"/>
			<psa10 value="0.0727432613840613" flag="0"/>
			<psa30 value="0.0112753661043344" flag="0"/>
		</comp>
		<comp name="00.HNN" depth="0.0">
			<acc value="0.191003760894896" flag="0"/>
			<vel value="0.135654533033281" flag="0"/>
			<psa03 value="0.374227249051971" flag="0"/>
			<psa10 value="0.152239310107143" flag="0"/>
			<psa30 value="0.0157605523925806" flag="0"/>
		</comp>
		<comp name="00.HNZ" depth="0.0">
			<acc value="0.248288762488217" flag="0"/>
			<vel value="0.0710315382739755" flag="0"/>
			<psa03 value="0.287418060869291" flag="0"/>
			<psa10 value="0.0775641007410092" flag="0"/>
			<psa30 value="0.0101593546740543" flag="0"/>
		</comp>
	</station>
	<station code="ARTB" name="ARTB" netid="HL" source="National Observatory of Athens Seismic Network" insttype="" lat="39.15702" lon="20.9785">
		<comp name="00.HNE" depth="0.0">
			<acc value="0.0181284169853412" flag="0"/>
			<vel value="0.00970096152281179" flag="0"/>
			<psa03 value="0.0738847226252665" flag="0"/>
			<psa10 value="0.0131565624951962" flag="0"/>
			<psa30 value="0.00237984973669869" flag="0"/>
		</comp>
		<comp name="00.HNN" depth="0.0">
			<acc value="0.0120345235284203" flag="0"/>
			<vel value="0.00740624788656446" flag="0"/>
			<psa03 value="0.0414505089136203" flag="0"/>
			<psa10 value="0.0115996815469742" flag="0"/>
			<psa30 value="0.00179647984130615" flag="0"/>
		</comp>
		<comp name="00.HNZ" depth="0.0">
			<acc value="0.0113201003279354" flag="0"/>
			<vel value="0.00711369683780894" flag="0"/>
			<psa03 value="0.0107547502098365" flag="0"/>
			<psa10 value="0.00811457755093847" flag="0"/>
			<psa30 value="0.00236696492480981" flag="0"/>
		</comp>
	</station>
	<station code="ATHP" name="ATHP" netid="HL" source="National Observatory of Athens Seismic Network" insttype="" lat="38.000799" lon="23.773487">
		<comp name="00.HNE" depth="0.0">
			<acc value="0.0438024033138613" flag="0"/>
			<vel value="0.041412244805018" flag="0"/>
			<psa03 value="0.0998139767694327" flag="0"/>
			<psa10 value="0.0497079641586715" flag="0"/>
			<psa30 value="0.0122345854812439" flag="0"/>
		</comp>
		<comp name="00.HNN" depth="0.0">
			<acc value="0.0813240482592621" flag="0"/>
			<vel value="0.0662319718999103" flag="0"/>
			<psa03 value="0.228626957913919" flag="0"/>
			<psa10 value="0.097508221941158" flag="0"/>
			<psa30 value="0.0122956195244497" flag="0"/>
		</comp>
		<comp name="00.HNZ" depth="0.0">
			<acc value="0.0246147141485291" flag="0"/>
			<vel value="0.0224470288579795" flag="0"/>
			<psa03 value="0.0616764347194412" flag="0"/>
			<psa10 value="0.0475358240150473" flag="0"/>
			<psa30 value="0.0056739837902463" flag="0"/>
		</comp>
	</station>
	<station code="DLFA" name="DLFA" netid="HL" source="National Observatory of Athens Seismic Network" insttype="" lat="38.47836" lon="22.49583">
		<comp name="00.HNE" depth="0.0">
			<acc value="0.075794368621583" flag="0"/>
			<vel value="0.0483388447024703" flag="0"/>
			<psa03 value="0.242260090208692" flag="0"/>
			<psa10 value="0.0619765081394993" flag="0"/>
			<psa30 value="0.00655820278208165" flag="0"/>
		</comp>
		<comp name="00.HNN" depth="0.0">
			<acc value="0.108358356557927" flag="0"/>
			<vel value="0.0662126639047533" flag="0"/>
			<psa03 value="0.348949387017668" flag="0"/>
			<psa10 value="0.0583127816856024" flag="0"/>
			<psa30 value="0.00574727447872805" flag="0"/>
		</comp>
		<comp name="00.HNZ" depth="0.0">
			<acc value="0.0501901133397901" flag="0"/>
			<vel value="0.0353452395418713" flag="0"/>
			<psa03 value="0.120566674450472" flag="0"/>
			<psa10 value="0.0371561414120156" flag="0"/>
			<psa30 value="0.0053472404784388" flag="0"/>
		</comp>
	</station>
	<station code="DRPA" name="DRPA" netid="HL" source="National Observatory of Athens Seismic Network" insttype="" lat="37.94738" lon="23.63024">
		<comp name="00.HNE" depth="0.0">
			<acc value="0.059448708871652" flag="0"/>
			<vel value="0.0502457885826997" flag="0"/>
			<psa03 value="0.179933919739113" flag="0"/>
			<psa10 value="0.105790570606109" flag="0"/>
			<psa30 value="0.00829786635958917" flag="0"/>
		</comp>
		<comp name="00.HNN" depth="0.0">
			<acc value="0.0593349846460693" flag="0"/>
			<vel value="0.039910874889473" flag="0"/>
			<psa03 value="0.158092795788508" flag="0"/>
			<psa10 value="0.0590625163518445" flag="0"/>
			<psa30 value="0.00926417120587619" flag="0"/>
		</comp>
		<comp name="00.HNZ" depth="0.0">
			<acc value="0.0537995862994323" flag="0"/>
			<vel value="0.0398607415983413" flag="0"/>
			<psa03 value="0.0882523462848213" flag="0"/>
			<psa10 value="0.0538403591595595" flag="0"/>
			<psa30 value="0.00829646793361698" flag="0"/>
		</comp>
	</station>
	<station code="EFSA" name="EFSA" netid="HL" source="National Observatory of Athens Seismic Network" insttype="" lat="39.54015" lon="24.98864">
		<comp name="00.HNE" depth="0.0">
			<acc value="0.0190572780239653" flag="0"/>
			<vel value="0.0202459675236528" flag="0"/>
			<psa03 value="0.0371422417412307" flag="0"/>
			<psa10 value="0.0143629921027369" flag="0"/>
			<psa30 value="0.012153196756307" flag="0"/>
		</comp>
		<comp name="00.HNN" depth="0.0">
			<acc value="0.0247272928714296" flag="0"/>
			<vel value="0.0230147404472734" flag="0"/>
			<psa03 value="0.0488319588359514" flag="0"/>
			<psa10 value="0.0218524557429467" flag="0"/>
			<psa30 value="0.00596804118677233" flag="0"/>
		</comp>
		<comp name="00.HNZ" depth="0.0">
			<acc value="0.011295377396703" flag="0"/>
			<vel value="0.00934687738664446" flag="0"/>
			<psa03 value="0.0393615710525723" flag="0"/>
			<psa10 value="0.00698344355636264" flag="0"/>
			<psa30 value="0.0035345191445468" flag="0"/>
		</comp>
	</station>
	<station code="ELFA" name="ELFA" netid="HL" source="National Observatory of Athens Seismic Network" insttype="" lat="38.04472" lon="23.5405">
		<comp name="00.HNE" depth="0.0">
			<acc value="0.0496432165333337" flag="0"/>
			<vel value="0.0427110493762998" flag="0"/>
			<psa03 value="0.0964869855392584" flag="0"/>
			<psa10 value="0.112677316819248" flag="0"/>
			<psa30 value="0.00718432425955669" flag="0"/>
		</comp>
		<comp name="00.HNN" depth="0.0">
			<acc value="0.0476901417092956" flag="0"/>
			<vel value="0.0433034750355304" flag="0"/>
			<psa03 value="0.113638632168338" flag="0"/>
			<psa10 value="0.0932884274004794" flag="0"/>
			<psa30 value="0.0142757606990845" flag="0"/>
		</comp>
		<comp name="00.HNZ" depth="0.0">
			<acc value="0.0373718190990298" flag="0"/>
			<vel value="0.0313540376066237" flag="0"/>
			<psa03 value="0.0773674689651191" flag="0"/>
			<psa10 value="0.0552486712033208" flag="0"/>
			<psa30 value="0.00325359511804209" flag="0"/>
		</comp>
	</station>
	<station code="GINA" name="GINA" netid="HL" source="National Observatory of Athens Seismic Network" insttype="" lat="39.66886" lon="22.389">
		<comp name="00.HNE" depth="0.0">
			<acc value="0.0669161967345006" flag="0"/>
			<vel value="0.102409471075938" flag="0"/>
			<psa03 value="0.159304730239885" flag="0"/>
			<psa10 value="0.103033185442875" flag="0"/>
			<psa30 value="0.03104163302251" flag="0"/>
		</comp>
		<comp name="00.HNN" depth="0.0">
			<acc value="0.0576269902086665" flag="0"/>
			<vel value="0.0793317027974418" flag="0"/>
			<psa03 value="0.158339082937157" flag="0"/>
			<psa10 value="0.0801834017568466" flag="0"/>
			<psa30 value="0.0197778718536122" flag="0"/>
		</comp>
		<comp name="00.HNZ" depth="0.0">
			<acc value="0.049449290451223" flag="0"/>
			<vel value="0.0525585974080483" flag="0"/>
			<psa03 value="0.0851516148349137" flag="0"/>
			<psa10 value="0.0590070051745014" flag="0"/>
			<psa30 value="0.0156758101121537" flag="0"/>
		</comp>
	</station>
	<station code="KIAA" name="KIAA" netid="HL" source="National Observatory of Athens Seismic Network" insttype="" lat="38.0139" lon="22.7495">
		<comp name="00.HNE" depth="0.0">
			<acc value="0.111677124078825" flag="0"/>
			<vel value="0.146341968611861" flag="0"/>
			<psa03 value="0.267977168838938" flag="0"/>
			<psa10 value="0.181051298759989" flag="0"/>
			<psa30 value="0.0175730807970253" flag="0"/>
		</comp>
		<comp name="00.HNN" depth="0.0">
			<acc value="0.125286086346963" flag="0"/>
			<vel value="0.111933725934752" flag="0"/>
			<psa03 value="0.315988536856442" flag="0"/>
			<psa10 value="0.234512005269424" flag="0"/>
			<psa30 value="0.0213136135889651" flag="0"/>
		</comp>
		<comp name="00.HNZ" depth="0.0">
			<acc value="0.0592454318492754" flag="0"/>
			<vel value="0.0527125942290624" flag="0"/>
			<psa03 value="0.143753189609974" flag="0"/>
			<psa10 value="0.0971863006154501" flag="0"/>
			<psa30 value="0.00892128849157915" flag="0"/>
		</comp>
	</station>
	<station code="KRYO" name="KRYO" netid="HL" source="National Observatory of Athens Seismic Network" insttype="" lat="37.971151" lon="22.617961">
		<comp name="--.HNE" depth="0.0">
			<acc value="0.0488138563226101" flag="0"/>
			<vel value="0.0451106194625739" flag="0"/>
			<psa03 value="0.113636538279628" flag="0"/>
			<psa10 value="0.089302723367148" flag="0"/>
			<psa30 value="0.00996521097965401" flag="0"/>
		</comp>
		<comp name="--.HNN" depth="0.0">
			<acc value="0.0410778110006774" flag="0"/>
			<vel value="0.0398843515669314" flag="0"/>
			<psa03 value="0.096188215747226" flag="0"/>
			<psa10 value="0.0662165015182518" flag="0"/>
			<psa30 value="0.00909779435089275" flag="0"/>
		</comp>
		<comp name="--.HNZ" depth="0.0">
			<acc value="0.0303105108944751" flag="0"/>
			<vel value="0.0275363520221859" flag="0"/>
			<psa03 value="0.0916932929806526" flag="0"/>
			<psa10 value="0.0417290968478704" flag="0"/>
			<psa30 value="0.00600100378704949" flag="0"/>
		</comp>
	</station>
	<station code="KVLA" name="KVLA" netid="HL" source="National Observatory of Athens Seismic Network" insttype="" lat="40.93704" lon="24.38591">
		<comp name="00.HNE" depth="0.0">
			<acc value="0.00503545278832149" flag="0"/>
			<vel value="0.00404121542339013" flag="0"/>
			<psa03 value="0.0135413957489273" flag="0"/>
			<psa10 value="0.00326561812804916" flag="0"/>
			<psa30 value="0.00133963916118649" flag="0"/>
		</comp>
		<comp name="00.HNN" depth="0.0">
			<acc value="0.00973622867347971" flag="0"/>
			<vel value="0.00471025985900312" flag="0"/>
			<psa03 value="0.0205894069159106" flag="0"/>
			<psa10 value="0.00318423117406288" flag="0"/>
			<psa30 value="0.00141172476983762" flag="0"/>
		</comp>
		<comp name="00.HNZ" depth="0.0">
			<acc value="0.0130389261339191" flag="0"/>
			<vel value="0.0042087268610753" flag="0"/>
			<psa03 value="0.0145560293696751" flag="0"/>
			<psa10 value="0.00275782909889308" flag="0"/>
			<psa30 value="0.00116768297826662" flag="0"/>
		</comp>
	</station>
	<station code="LARA" name="LARA" netid="HL" source="National Observatory of Athens Seismic Network" insttype="" lat="39.63704" lon="22.42969">
		<comp name="00.HNE" depth="0.0">
			<acc value="0.109012326366125" flag="0"/>
			<vel value="0.186591224902999" flag="0"/>
			<psa03 value="0.290758302977271" flag="0"/>
			<psa10 value="0.251658306127706" flag="0"/>
			<psa30 value="0.0571697072125284" flag="0"/>
		</comp>
		<comp name="00.HNN" depth="0.0">
			<acc value="0.135799840176608" flag="0"/>
			<vel value="0.17505966878847" flag="0"/>
			<psa03 value="0.250559223318864" flag="0"/>
			<psa10 value="0.391289220990543" flag="0"/>
			<psa30 value="0.0507557289846157" flag="0"/>
		</comp>
		<comp name="00.HNZ" depth="0.0">
			<acc value="0.0615832077556572" flag="0"/>
			<vel value="0.131061229630199" flag="0"/>
			<psa03 value="0.173977879347334" flag="0"/>
			<psa10 value="0.105462806393339" flag="0"/>
			<psa30 value="0.0331363017840353" flag="0"/>
		</comp>
	</station>
	<station code="LIA" name="LIA" netid="HL" source="National Observatory of Athens Seismic Network" insttype="" lat="39.89725" lon="25.18055">
		<comp name="00.HNE" depth="0.0">
			<acc value="0.0133590484440305" flag="0"/>
			<vel value="0.0130658676312006" flag="0"/>
			<psa03 value="0.0318487191963413" flag="0"/>
			<psa10 value="0.0103823068393744" flag="0"/>
			<psa30 value="0.00287198379649822" flag="0"/>
		</comp>
		<comp name="00.HNN" depth="0.0">
			<acc value="0.0188950444417048" flag="0"/>
			<vel value="0.0208171624656907" flag="0"/>
			<psa03 value="0.0323942058529886" flag="0"/>
			<psa10 value="0.0154322198088249" flag="0"/>
			<psa30 value="0.00527526029343814" flag="0"/>
		</comp>
		<comp name="00.HNZ" depth="0.0">
			<acc value="0.0085106515498367" flag="0"/>
			<vel value="0.00544751775275725" flag="0"/>
			<psa03 value="0.0190393107400631" flag="0"/>
			<psa10 value="0.00483462105116755" flag="0"/>
			<psa30 value="0.00217754070971854" flag="0"/>
		</comp>
	</station>
