<?xml version="1.0" encoding="UTF-8" standalone="yes"?>
<!DOCTYPE earthquake SYSTEM "stationlist.dtd">
<stationlist created="" xmlns="ch.ethz.sed.shakemap.usgs.xml">
  <station code="AKDN" name="AKDN" netid="KO" insttype="CMG-5T" lat="35.2977" lon="32.9677">
    <comp name="--.HNE">
      <acc value="0.0101125725" flag="0"/>
      <vel value="0.0056998131" flag="0"/>
      <psa03 value="0.0250770319" flag="0"/>
      <psa10 value="0.0067789512" flag="0"/>
      <psa30 value="0.0008040653" flag="0"/>
    </comp>
    <comp name="--.HNN">
      <acc value="0.0085451514" flag="0"/>
      <vel value="0.0045838857" flag="0"/>
      <psa03 value="0.0294546823" flag="0"/>
      <psa10 value="0.0086296467" flag="0"/>
      <psa30 value="0.0007567183" flag="0"/>
    </comp>
    <comp name="--.HNZ">
      <acc value="0.0128624010" flag="0"/>
      <vel value="0.0040484646" flag="0"/>
      <psa03 value="0.0206764290" flag="0"/>
      <psa10 value="0.0038795683" flag="0"/>
      <psa30 value="0.0003950716" flag="0"/>
    </comp>
  </station>
  <station code="AKIN" name="AKIN" netid="KO" insttype="CMG-5T" lat="35.0157" lon="33.4662">
    <comp name="--.HNZ">
      <acc value="0.0250193680" flag="0"/>
      <vel value="0.0082568320" flag="0"/>
      <psa03 value="0.0694416499" flag="0"/>
      <psa10 value="0.0085079298" flag="0"/>
      <psa30 value="0.0005028017" flag="0"/>
    </comp>
    <comp name="--.HNN">
      <acc value="0.0260246621" flag="0"/>
      <vel value="0.0122915242" flag="0"/>
      <psa03 value="0.0513436914" flag="0"/>
      <psa10 value="0.0113207906" flag="0"/>
      <psa30 value="0.0009758635" flag="0"/>
    </comp>
    <comp name="--.HNE">
      <acc value="0.0228686983" flag="0"/>
      <vel value="0.0110541053" flag="0"/>
      <psa03 value="0.0533736265" flag="0"/>
      <psa10 value="0.0097718753" flag="0"/>
      <psa30 value="0.0013766383" flag="0"/>
    </comp>
  </station>
  <station code="EREN" name="EREN" netid="KO" insttype="CMG-3T" lat="35.5292" lon="34.1742">
    <comp name="--.HHE">
      <acc value="0.0000096467" flag="0"/>
      <vel value="0.0000009235" flag="0"/>
      <psa03 value="0.0000024574" flag="0"/>
      <psa10 value="0.0000011725" flag="0"/>
      <psa30 value="0.0000001933" flag="0"/>
    </comp>
    <comp name="--.HHN">
      <acc value="0.0000098499" flag="0"/>
      <vel value="0.0000009420" flag="0"/>
      <psa03 value="0.0000035263" flag="0"/>
      <psa10 value="0.0000010302" flag="0"/>
      <psa30 value="0.0000002636" flag="0"/>
    </comp>
    <comp name="--.HHZ">
      <acc value="0.0213024027" flag="0"/>
      <vel value="0.0096190873" flag="0"/>
      <psa03 value="0.0818932558" flag="0"/>
      <psa10 value="0.0059103282" flag="0"/>
      <psa30 value="0.0005008085" flag="0"/>
    </comp>
  </station>
  <station code="HSY" name="HSY" netid="KO" insttype="CMG-6T" lat="35.2916" lon="33.0974">
    <comp name="--.HHE">
      <acc value="0.0903353252" flag="0"/>
      <vel value="0.0330966816" flag="0"/>
      <psa03 value="0.1580680172" flag="0"/>
      <psa10 value="0.0130640565" flag="0"/>
      <psa30 value="0.0010417173" flag="0"/>
    </comp>
    <comp name="--.HHN">
      <acc value="0.0777580153" flag="0"/>
      <vel value="0.0258957867" flag="0"/>
      <psa03 value="0.1703593828" flag="0"/>
      <psa10 value="0.0099088909" flag="0"/>
      <psa30 value="0.0007535847" flag="0"/>
    </comp>
    <comp name="--.HHZ">
      <acc value="0.0245008098" flag="0"/>
      <vel value="0.0061402722" flag="0"/>
      <psa03 value="0.0300922322" flag="0"/>
      <psa10 value="0.0040163739" flag="0"/>
      <psa30 value="0.0004960786" flag="0"/>
    </comp>
  </station>
  <station code="LEF" name="LEF" netid="KO" insttype="CMG-6T" lat="35.1118" lon="32.8433">
    <comp name="--.HHE">
      <acc value="0.0116368263" flag="0"/>
      <vel value="0.0057665983" flag="0"/>
      <psa03 value="0.0236183093" flag="0"/>
      <psa10 value="0.0046380010" flag="0"/>
      <psa30 value="0.0004225581" flag="0"/>
    </comp>
    <comp name="--.HHN">
      <acc value="0.0112745135" flag="0"/>
      <vel value="0.0052966021" flag="0"/>
      <psa03 value="0.0210899905" flag="0"/>
      <psa10 value="0.0063402886" flag="0"/>
      <psa30 value="0.0005608185" flag="0"/>
    </comp>
    <comp name="--.HHZ">
      <acc value="0.0080157202" flag="0"/>
      <vel value="0.0042345708" flag="0"/>
      <psa03 value="0.0213625160" flag="0"/>
      <psa10 value="0.0066967512" flag="0"/>
      <psa30 value="0.0002979865" flag="0"/>
    </comp>
  </station>
</stationlist>
