<?xml version="1.0" encoding="UTF-8" standalone="yes"?>
<!DOCTYPE earthquake SYSTEM "stationlist.dtd">
<stationlist created="" xmlns="ch.ethz.sed.shakemap.usgs.xml">
  <station code="AKDN" name="AKDN" netid="KO" insttype="CMG-5T" lat="35.2977" lon="32.9677">
    <comp name="--.HNE">
      <acc value="0.0101125751" flag="0"/>
      <vel value="0.0056998229" flag="0"/>
      <psa03 value="0.0250770319" flag="0"/>
      <psa10 value="0.0067789507" flag="0"/>
      <psa30 value="0.0008037084" flag="0"/>
    </comp>
    <comp name="--.HNN">
      <acc value="0.0085451482" flag="0"/>
      <vel value="0.0045838917" flag="0"/>
      <psa03 value="0.0294546823" flag="0"/>
      <psa10 value="0.0086296467" flag="0"/>
      <psa30 value="0.0007570455" flag="0"/>
    </comp>
    <comp name="--.HNZ">
      <acc value="0.0128623971" flag="0"/>
      <vel value="0.0040484601" flag="0"/>
      <psa03 value="0.0206764290" flag="0"/>
      <psa10 value="0.0038795683" flag="0"/>
      <psa30 value="0.0003953453" flag="0"/>
    </comp>
  </station>
  <station code="AKIN" name="AKIN" netid="KO" insttype="CMG-5T" lat="35.0157" lon="33.4662">
    <comp name="--.HNE">
      <acc value="0.0228687052" flag="0"/>
      <vel value="0.0110541050" flag="0"/>
      <psa03 value="0.0533736265" flag="0"/>
      <psa10 value="0.0097718761" flag="0"/>
      <psa30 value="0.0013766515" flag="0"/>
    </comp>
    <comp name="--.HNN">
      <acc value="0.0260246541" flag="0"/>
      <vel value="0.0122915208" flag="0"/>
      <psa03 value="0.0513436914" flag="0"/>
      <psa10 value="0.0113207906" flag="0"/>
      <psa30 value="0.0009756915" flag="0"/>
    </comp>
    <comp name="--.HNZ">
      <acc value="0.0250193675" flag="0"/>
      <vel value="0.0082568311" flag="0"/>
      <psa03 value="0.0694416499" flag="0"/>
      <psa10 value="0.0085079300" flag="0"/>
      <psa30 value="0.0005027191" flag="0"/>
    </comp>
  </station>
  <station code="EREN" name="EREN" netid="KO" insttype="CMG-3T" lat="35.5292" lon="34.1742">
    <comp name="--.HHE">
      <acc value="0.0000096461" flag="0"/>
      <vel value="0.0000009235" flag="0"/>
      <psa03 value="0.0000024574" flag="0"/>
      <psa10 value="0.0000011725" flag="0"/>
      <psa30 value="0.0000001897" flag="0"/>
    </comp>
    <comp name="--.HHN">
      <acc value="0.0000093521" flag="0"/>
      <vel value="0.0000009197" flag="0"/>
      <psa03 value="0.0000035263" flag="0"/>
      <psa10 value="0.0000010302" flag="0"/>
      <psa30 value="0.0000002635" flag="0"/>
    </comp>
    <comp name="--.HHZ">
      <acc value="0.0213024023" flag="0"/>
      <vel value="0.0096190872" flag="0"/>
      <psa03 value="0.0818932558" flag="0"/>
      <psa10 value="0.0059103282" flag="0"/>
      <psa30 value="0.0005008690" flag="0"/>
    </comp>
  </station>
  <station code="HSY" name="HSY" netid="KO" insttype="CMG-6T" lat="35.2916" lon="33.0974">
    <comp name="--.HHE">
      <acc value="0.0903353283" flag="0"/>
      <vel value="0.0330966884" flag="0"/>
      <psa03 value="0.1580680172" flag="0"/>
      <psa10 value="0.0130640566" flag="0"/>
      <psa30 value="0.0010416120" flag="0"/>
    </comp>
    <comp name="--.HHN">
      <acc value="0.0777580128" flag="0"/>
      <vel value="0.0258957835" flag="0"/>
      <psa03 value="0.1703593828" flag="0"/>
      <psa10 value="0.0099088909" flag="0"/>
      <psa30 value="0.0007537435" flag="0"/>
    </comp>
    <comp name="--.HHZ">
      <acc value="0.0245008160" flag="0"/>
      <vel value="0.0061402715" flag="0"/>
      <psa03 value="0.0300922322" flag="0"/>
      <psa10 value="0.0040163739" flag="0"/>
      <psa30 value="0.0004960494" flag="0"/>
    </comp>
  </station>
  <station code="LEF" name="LEF" netid="KO" insttype="CMG-6T" lat="35.1118" lon="32.8433">
    <comp name="--.HHE">
      <acc value="0.0116368261" flag="0"/>
      <vel value="0.0057665942" flag="0"/>
      <psa03 value="0.0236183093" flag="0"/>
      <psa10 value="0.0046380010" flag="0"/>
      <psa30 value="0.0004225735" flag="0"/>
    </comp>
    <comp name="--.HHZ">
      <acc value="0.0080157199" flag="0"/>
      <vel value="0.0042345838" flag="0"/>
      <psa03 value="0.0213625160" flag="0"/>
      <psa10 value="0.0066967511" flag="0"/>
      <psa30 value="0.0002979534" flag="0"/>
    </comp>
    <comp name="--.HHN">
      <acc value="0.0112745231" flag="0"/>
      <vel value="0.0052966054" flag="0"/>
      <psa03 value="0.0210899905" flag="0"/>
      <psa10 value="0.0063402886" flag="0"/>
      <psa30 value="0.0005609494" flag="0"/>
    </comp>
  </station>
</stationlist>
