<?xml version="1.0" encoding="UTF-8" standalone="yes"?>
<!DOCTYPE earthquake SYSTEM "stationlist.dtd">
<stationlist created="" xmlns="ch.ethz.sed.shakemap.usgs.xml">
  <station code="AKDN" name="AKDN" netid="KO" insttype="CMG-5T" lat="35.2977" lon="32.9677">
    <comp name="--.HNE">
      <acc value="0.0101125785" flag="0"/>
      <vel value="0.0056998162" flag="0"/>
      <psa03 value="0.0250770319" flag="0"/>
      <psa10 value="0.0067789512" flag="0"/>
      <psa30 value="0.0008040626" flag="0"/>
    </comp>
    <comp name="--.HNN">
      <acc value="0.0085451473" flag="0"/>
      <vel value="0.0045838877" flag="0"/>
      <psa03 value="0.0294546823" flag="0"/>
      <psa10 value="0.0086296467" flag="0"/>
      <psa30 value="0.0007567150" flag="0"/>
    </comp>
    <comp name="--.HNZ">
      <acc value="0.0128624032" flag="0"/>
      <vel value="0.0040484650" flag="0"/>
      <psa03 value="0.0206764290" flag="0"/>
      <psa10 value="0.0038795683" flag="0"/>
      <psa30 value="0.0003950706" flag="0"/>
    </comp>
  </station>
  <station code="AKIN" name="AKIN" netid="KO" insttype="CMG-5T" lat="35.0157" lon="33.4662">
    <comp name="--.HNN">
      <acc value="0.0260246517" flag="0"/>
      <vel value="0.0122915147" flag="0"/>
      <psa03 value="0.0513436914" flag="0"/>
      <psa10 value="0.0113207929" flag="0"/>
      <psa30 value="0.0009745644" flag="0"/>
    </comp>
    <comp name="--.HNE">
      <acc value="0.0228687042" flag="0"/>
      <vel value="0.0110541049" flag="0"/>
      <psa03 value="0.0533736265" flag="0"/>
      <psa10 value="0.0097718867" flag="0"/>
      <psa30 value="0.0013779448" flag="0"/>
    </comp>
    <comp name="--.HNZ">
      <acc value="0.0250193700" flag="0"/>
      <vel value="0.0082568327" flag="0"/>
      <psa03 value="0.0694416499" flag="0"/>
      <psa10 value="0.0085079321" flag="0"/>
      <psa30 value="0.0005032438" flag="0"/>
    </comp>
  </station>
  <station code="EREN" name="EREN" netid="KO" insttype="CMG-3T" lat="35.5292" lon="34.1742">
    <comp name="--.HHN">
      <acc value="0.0000093529" flag="0"/>
      <vel value="0.0000009197" flag="0"/>
      <psa03 value="0.0000035263" flag="0"/>
      <psa10 value="0.0000010303" flag="0"/>
      <psa30 value="0.0000002638" flag="0"/>
    </comp>
    <comp name="--.HHE">
      <acc value="0.0000096462" flag="0"/>
      <vel value="0.0000009235" flag="0"/>
      <psa03 value="0.0000024574" flag="0"/>
      <psa10 value="0.0000011725" flag="0"/>
      <psa30 value="0.0000001878" flag="0"/>
    </comp>
    <comp name="--.HHZ">
      <acc value="0.0213024023" flag="0"/>
      <vel value="0.0096190873" flag="0"/>
      <psa03 value="0.0818932558" flag="0"/>
      <psa10 value="0.0059103282" flag="0"/>
      <psa30 value="0.0005007301" flag="0"/>
    </comp>
  </station>
  <station code="HSY" name="HSY" netid="KO" insttype="CMG-6T" lat="35.2916" lon="33.0974">
    <comp name="--.HHZ">
      <acc value="0.0245008167" flag="0"/>
      <vel value="0.0061402736" flag="0"/>
      <psa03 value="0.0300922322" flag="0"/>
      <psa10 value="0.0040163739" flag="0"/>
      <psa30 value="0.0004960797" flag="0"/>
    </comp>
    <comp name="--.HHE">
      <acc value="0.0903353285" flag="0"/>
      <vel value="0.0330966791" flag="0"/>
      <psa03 value="0.1580680172" flag="0"/>
      <psa10 value="0.0130640565" flag="0"/>
      <psa30 value="0.0010416998" flag="0"/>
    </comp>
    <comp name="--.HHN">
      <acc value="0.0777580106" flag="0"/>
      <vel value="0.0258958006" flag="0"/>
      <psa03 value="0.1703593828" flag="0"/>
      <psa10 value="0.0099088909" flag="0"/>
      <psa30 value="0.0007535554" flag="0"/>
    </comp>
  </station>
  <station code="LEF" name="LEF" netid="KO" insttype="CMG-6T" lat="35.1118" lon="32.8433">
    <comp name="--.HHE">
      <acc value="0.0116368249" flag="0"/>
      <vel value="0.0057665936" flag="0"/>
      <psa03 value="0.0236183093" flag="0"/>
      <psa10 value="0.0046380010" flag="0"/>
      <psa30 value="0.0004225575" flag="0"/>
    </comp>
    <comp name="--.HHN">
      <acc value="0.0112745137" flag="0"/>
      <vel value="0.0052966015" flag="0"/>
      <psa03 value="0.0210899905" flag="0"/>
      <psa10 value="0.0063402887" flag="0"/>
      <psa30 value="0.0005608193" flag="0"/>
    </comp>
    <comp name="--.HHZ">
      <acc value="0.0080157210" flag="0"/>
      <vel value="0.0042345720" flag="0"/>
      <psa03 value="0.0213625160" flag="0"/>
      <psa10 value="0.0066967512" flag="0"/>
      <psa30 value="0.0002979663" flag="0"/>
    </comp>
  </station>
</stationlist>
