<?xml version="1.0" encoding="UTF-8" standalone="yes"?>
<!DOCTYPE earthquake SYSTEM "stationlist.dtd">
<stationlist created="" xmlns="ch.ethz.sed.shakemap.usgs.xml">
  <station code="LINA" name="LINA" netid="IV" insttype="" lat="35.8613" lon="12.8643">
    <comp name="--.HHE">
      <acc value="0.0426741604" flag="0"/>
      <vel value="0.0550896038" flag="0"/>
      <psa03 value="0.1065751083" flag="0"/>
      <psa10 value="0.0783817096" flag="0"/>
      <psa30 value="0.0175997042" flag="0"/>
    </comp>
    <comp name="--.HHN">
      <acc value="0.0473622593" flag="0"/>
      <vel value="0.0567971533" flag="0"/>
      <psa03 value="0.1274151660" flag="0"/>
      <psa10 value="0.0944274771" flag="0"/>
      <psa30 value="0.0278138652" flag="0"/>
    </comp>
    <comp name="--.HHZ">
      <acc value="0.0316780287" flag="0"/>
      <vel value="0.0256108144" flag="0"/>
      <psa03 value="0.0828994448" flag="0"/>
      <psa10 value="0.0382236840" flag="0"/>
      <psa30 value="0.0139107424" flag="0"/>
    </comp>
  </station>
  <station code="LPDG" name="LPDG" netid="IV" insttype="" lat="35.5183" lon="12.6302">
    <comp name="--.HHE">
      <acc value="0.0487962897" flag="0"/>
      <vel value="0.0580610766" flag="0"/>
      <psa03 value="0.1297726808" flag="0"/>
      <psa10 value="0.0830116133" flag="0"/>
      <psa30 value="0.0208141056" flag="0"/>
    </comp>
    <comp name="--.HHN">
      <acc value="0.0817339873" flag="0"/>
      <vel value="0.0754219194" flag="0"/>
      <psa03 value="0.2499542225" flag="0"/>
      <psa10 value="0.0921064129" flag="0"/>
      <psa30 value="0.0151968517" flag="0"/>
    </comp>
    <comp name="--.HHZ">
      <acc value="0.0388218946" flag="0"/>
      <vel value="0.0263248202" flag="0"/>
      <psa03 value="0.0791303296" flag="0"/>
      <psa10 value="0.0270286813" flag="0"/>
      <psa30 value="0.0093773354" flag="0"/>
    </comp>
  </station>
  <station code="XLND" name="XLND" netid="ML" insttype="" lat="36.0323" lon="14.2201">
    <comp name="--.HHE">
      <acc value="0.0566296837" flag="0"/>
      <vel value="0.0411069736" flag="0"/>
      <psa03 value="0.1422864935" flag="0"/>
      <psa10 value="0.0473215316" flag="0"/>
      <psa30 value="0.0129669441" flag="0"/>
    </comp>
    <comp name="--.HHN">
      <acc value="0.0366668939" flag="0"/>
      <vel value="0.0415645699" flag="0"/>
      <psa03 value="0.1168469740" flag="0"/>
      <psa10 value="0.0410963524" flag="0"/>
      <psa30 value="0.0146596215" flag="0"/>
    </comp>
    <comp name="--.HHZ">
      <acc value="0.0288998707" flag="0"/>
      <vel value="0.0357876164" flag="0"/>
      <psa03 value="0.0848733649" flag="0"/>
      <psa10 value="0.0267666196" flag="0"/>
      <psa30 value="0.0226331707" flag="0"/>
    </comp>
  </station>
</stationlist>
