<?xml version="1.0" encoding="UTF-8" standalone="yes"?>
<!DOCTYPE earthquake SYSTEM "stationlist.dtd">
<stationlist created="" xmlns="ch.ethz.sed.shakemap.usgs.xml">
  <station code="LINA" name="LINA" netid="IV" insttype="" lat="35.8613" lon="12.8643">
    <comp name="--.HHE">
      <acc value="0.0426741605" flag="0"/>
      <vel value="0.0550895294" flag="0"/>
      <psa03 value="0.1065751082" flag="0"/>
      <psa10 value="0.0783817096" flag="0"/>
      <psa30 value="0.0175997019" flag="0"/>
    </comp>
    <comp name="--.HHZ">
      <acc value="0.0316780287" flag="0"/>
      <vel value="0.0256108137" flag="0"/>
      <psa03 value="0.0828994448" flag="0"/>
      <psa10 value="0.0382236840" flag="0"/>
      <psa30 value="0.0139114042" flag="0"/>
    </comp>
    <comp name="--.HHN">
      <acc value="0.0473622593" flag="0"/>
      <vel value="0.0567971314" flag="0"/>
      <psa03 value="0.1274151660" flag="0"/>
      <psa10 value="0.0944274771" flag="0"/>
      <psa30 value="0.0278150378" flag="0"/>
    </comp>
  </station>
  <station code="LPDG" name="LPDG" netid="IV" insttype="" lat="35.5183" lon="12.6302">
    <comp name="--.HHE">
      <acc value="0.0487962898" flag="0"/>
      <vel value="0.0580610819" flag="0"/>
      <psa03 value="0.1297726808" flag="0"/>
      <psa10 value="0.0830116133" flag="0"/>
      <psa30 value="0.0208141084" flag="0"/>
    </comp>
    <comp name="--.HHZ">
      <acc value="0.0388218946" flag="0"/>
      <vel value="0.0263248330" flag="0"/>
      <psa03 value="0.0791303295" flag="0"/>
      <psa10 value="0.0270286813" flag="0"/>
      <psa30 value="0.0093773366" flag="0"/>
    </comp>
    <comp name="--.HHN">
      <acc value="0.0817339873" flag="0"/>
      <vel value="0.0754219252" flag="0"/>
      <psa03 value="0.2499542225" flag="0"/>
      <psa10 value="0.0921064129" flag="0"/>
      <psa30 value="0.0151103569" flag="0"/>
    </comp>
  </station>
  <station code="XLND" name="XLND" netid="ML" insttype="" lat="36.0323" lon="14.2201">
    <comp name="--.HHE">
      <acc value="0.0566296837" flag="0"/>
      <vel value="0.0411069741" flag="0"/>
      <psa03 value="0.1422864935" flag="0"/>
      <psa10 value="0.0473215316" flag="0"/>
      <psa30 value="0.0129669514" flag="0"/>
    </comp>
    <comp name="--.HHN">
      <acc value="0.0366668940" flag="0"/>
      <vel value="0.0415645706" flag="0"/>
      <psa03 value="0.1168469740" flag="0"/>
      <psa10 value="0.0410963524" flag="0"/>
      <psa30 value="0.0146596063" flag="0"/>
    </comp>
    <comp name="--.HHZ">
      <acc value="0.0288998707" flag="0"/>
      <vel value="0.0357876156" flag="0"/>
      <psa03 value="0.0848733649" flag="0"/>
      <psa10 value="0.0267666196" flag="0"/>
      <psa30 value="0.0226330616" flag="0"/>
    </comp>
  </station>
</stationlist>
