<?xml version="1.0" encoding="UTF-8" standalone="yes"?>
<!DOCTYPE earthquake SYSTEM "stationlist.dtd">
<stationlist created="" xmlns="ch.ethz.sed.shakemap.usgs.xml">
  <station code="KARP" name="KARP" netid="GE" insttype="STS-2/N" lat="35.5471" lon="27.1611">
    <comp name="--.HHE">
      <acc value="0.0628400616" flag="0"/>
      <vel value="0.0107101920" flag="0"/>
      <psa03 value="0.0371087147" flag="0"/>
      <psa10 value="0.0088454987" flag="0"/>
      <psa30 value="0.0004068704" flag="0"/>
    </comp>
    <comp name="--.HHN">
      <acc value="0.0752024212" flag="0"/>
      <vel value="0.0116534171" flag="0"/>
      <psa03 value="0.0345321170" flag="0"/>
      <psa10 value="0.0091054148" flag="0"/>
      <psa30 value="0.0007322580" flag="0"/>
    </comp>
    <comp name="--.HHZ">
      <acc value="0.0447190000" flag="0"/>
      <vel value="0.0085029261" flag="0"/>
      <psa03 value="0.0267829512" flag="0"/>
      <psa10 value="0.0043049551" flag="0"/>
      <psa30 value="0.0004104688" flag="0"/>
    </comp>
  </station>
  <station code="THERA" name="THERA" netid="GE" insttype="STS-2/N" lat="36.367" lon="25.4753">
    <comp name="--.HHN">
      <acc value="0.0057019982" flag="0"/>
      <vel value="0.0016564204" flag="0"/>
      <psa03 value="0.0097615946" flag="0"/>
      <psa10 value="0.0011729864" flag="0"/>
      <psa30 value="0.0001194049" flag="0"/>
    </comp>
    <comp name="--.HHE">
      <acc value="0.0083112051" flag="0"/>
      <vel value="0.0036327402" flag="0"/>
      <psa03 value="0.0152622628" flag="0"/>
      <psa10 value="0.0039936520" flag="0"/>
      <psa30 value="0.0004039130" flag="0"/>
    </comp>
    <comp name="--.HHZ">
      <acc value="0.0060824986" flag="0"/>
      <vel value="0.0024697313" flag="0"/>
      <psa03 value="0.0126400251" flag="0"/>
      <psa10 value="0.0022581281" flag="0"/>
      <psa30 value="0.0001498171" flag="0"/>
    </comp>
  </station>
  <station code="ZKR" name="ZKR" netid="GE" insttype="STS-2/N" lat="35.1147" lon="26.2169">
    <comp name="--.HHN">
      <acc value="0.0409518562" flag="0"/>
      <vel value="0.0172138774" flag="0"/>
      <psa03 value="0.0920277091" flag="0"/>
      <psa10 value="0.0064241033" flag="0"/>
      <psa30 value="0.0003626714" flag="0"/>
    </comp>
    <comp name="--.HHZ">
      <acc value="0.0660573844" flag="0"/>
      <vel value="0.0175679877" flag="0"/>
      <psa03 value="0.0703952884" flag="0"/>
      <psa10 value="0.0116054469" flag="0"/>
      <psa30 value="0.0006024662" flag="0"/>
    </comp>
    <comp name="--.HHE">
      <acc value="0.1100827882" flag="0"/>
      <vel value="0.0460052758" flag="0"/>
      <psa03 value="0.1387167412" flag="0"/>
      <psa10 value="0.0304361296" flag="0"/>
      <psa30 value="0.0019118215" flag="0"/>
    </comp>
  </station>
  <station code="SNT5" name="SNT5" netid="HA" insttype="1s-100Hz," lat="36.4037" lon="25.3953">
    <comp name="--.HHZ">
      <acc value="0.0097183756" flag="0"/>
      <vel value="0.0024762194" flag="0"/>
      <psa03 value="0.0102220613" flag="0"/>
      <psa10 value="0.0019772877" flag="0"/>
      <psa30 value="0.0003458032" flag="0"/>
    </comp>
    <comp name="--.HHN">
      <acc value="0.0283571613" flag="0"/>
      <vel value="0.0065211154" flag="0"/>
      <psa03 value="0.0369416034" flag="0"/>
      <psa10 value="0.0037666372" flag="0"/>
      <psa30 value="0.0007544169" flag="0"/>
    </comp>
    <comp name="--.HHE">
      <acc value="0.0313211691" flag="0"/>
      <vel value="0.0103946584" flag="0"/>
      <psa03 value="0.0649300397" flag="0"/>
      <psa10 value="0.0077783338" flag="0"/>
      <psa30 value="0.0010241562" flag="0"/>
    </comp>
  </station>
  <station code="SIT2" name="SIT2" netid="HI" insttype="CMG-5TD,ACCELEROMETER,GURALP" lat="35.2059" lon="26.107">
    <comp name="--.HNE">
      <acc value="0.1226014072" flag="0"/>
      <vel value="0.0674690472" flag="0"/>
      <psa03 value="0.3364775685" flag="0"/>
      <psa10 value="0.0247391490" flag="0"/>
      <psa30 value="0.0025988697" flag="0"/>
    </comp>
    <comp name="--.HNZ">
      <acc value="0.1300783677" flag="0"/>
      <vel value="0.0386671885" flag="0"/>
      <psa03 value="0.2626792115" flag="0"/>
      <psa10 value="0.0098020235" flag="0"/>
      <psa30 value="0.0007793288" flag="0"/>
    </comp>
    <comp name="--.HNN">
      <acc value="0.1072703084" flag="0"/>
      <vel value="0.0538725253" flag="0"/>
      <psa03 value="0.3160677230" flag="0"/>
      <psa10 value="0.0275509535" flag="0"/>
      <psa30 value="0.0018408115" flag="0"/>
    </comp>
  </station>
  <station code="IACM" name="IACM" netid="HL" insttype="120" lat="35.3058" lon="25.0709">
    <comp name="--.HHE">
      <acc value="0.0502293734" flag="0"/>
      <vel value="0.0239643564" flag="0"/>
      <psa03 value="0.1404922744" flag="0"/>
      <psa10 value="0.0345114018" flag="0"/>
      <psa30 value="0.0013688011" flag="0"/>
    </comp>
    <comp name="--.HHN">
      <acc value="0.0471870560" flag="0"/>
      <vel value="0.0242625760" flag="0"/>
      <psa03 value="0.1592739265" flag="0"/>
      <psa10 value="0.0260095887" flag="0"/>
      <psa30 value="0.0011376898" flag="0"/>
    </comp>
    <comp name="--.HHZ">
      <acc value="0.0497459765" flag="0"/>
      <vel value="0.0160677536" flag="0"/>
      <psa03 value="0.0954198793" flag="0"/>
      <psa10 value="0.0128441601" flag="0"/>
      <psa30 value="0.0005465260" flag="0"/>
    </comp>
  </station>
  <station code="KARP" name="KARP" netid="HL" insttype="120" lat="35.5471" lon="27.1611">
    <comp name="--.HHE">
      <acc value="0.0533044571" flag="0"/>
      <vel value="0.0103270470" flag="0"/>
      <psa03 value="0.0360280658" flag="0"/>
      <psa10 value="0.0087705309" flag="0"/>
      <psa30 value="0.0004030109" flag="0"/>
    </comp>
    <comp name="--.HHN">
      <acc value="0.0691856331" flag="0"/>
      <vel value="0.0111470553" flag="0"/>
      <psa03 value="0.0336313690" flag="0"/>
      <psa10 value="0.0090336424" flag="0"/>
      <psa30 value="0.0007259406" flag="0"/>
    </comp>
    <comp name="--.HHZ">
      <acc value="0.0424480157" flag="0"/>
      <vel value="0.0080982368" flag="0"/>
      <psa03 value="0.0261888202" flag="0"/>
      <psa10 value="0.0042714296" flag="0"/>
      <psa30 value="0.0004094718" flag="0"/>
    </comp>
  </station>
  <station code="NPS" name="NPS" netid="HL" insttype="CMG3ESPC-120s" lat="35.2613" lon="25.6104">
    <comp name="--.HHN">
      <acc value="0.1470471281" flag="0"/>
      <vel value="0.0248059611" flag="0"/>
      <psa03 value="0.1099592342" flag="0"/>
      <psa10 value="0.0080241786" flag="0"/>
      <psa30 value="0.0005148252" flag="0"/>
    </comp>
    <comp name="--.HHE">
      <acc value="0.0363584859" flag="0"/>
      <vel value="0.0078717709" flag="0"/>
      <psa03 value="0.0582035789" flag="0"/>
      <psa10 value="0.0032838872" flag="0"/>
      <psa30 value="0.0002624570" flag="0"/>
    </comp>
    <comp name="--.HHZ">
      <acc value="0.0976722875" flag="0"/>
      <vel value="0.0196946246" flag="0"/>
      <psa03 value="0.0740052115" flag="0"/>
      <psa10 value="0.0045806277" flag="0"/>
      <psa30 value="0.0003606862" flag="0"/>
    </comp>
  </station>
  <station code="THERA" name="THERA" netid="HL" insttype="120" lat="36.367" lon="25.4753">
    <comp name="--.HHE">
      <acc value="0.0080798671" flag="0"/>
      <vel value="0.0035495693" flag="0"/>
      <psa03 value="0.0148623158" flag="0"/>
      <psa10 value="0.0039567466" flag="0"/>
      <psa30 value="0.0004024149" flag="0"/>
    </comp>
    <comp name="--.HHN">
      <acc value="0.0055188419" flag="0"/>
      <vel value="0.0016092228" flag="0"/>
      <psa03 value="0.0094644861" flag="0"/>
      <psa10 value="0.0011644343" flag="0"/>
      <psa30 value="0.0001185602" flag="0"/>
    </comp>
    <comp name="--.HHZ">
      <acc value="0.0058724596" flag="0"/>
      <vel value="0.0024130247" flag="0"/>
      <psa03 value="0.0122866507" flag="0"/>
      <psa10 value="0.0022377561" flag="0"/>
      <psa30 value="0.0001496936" flag="0"/>
    </comp>
  </station>
  <station code="ZKR" name="ZKR" netid="HL" insttype="120" lat="35.1147" lon="26.2169">
    <comp name="--.HHE">
      <acc value="0.1080538980" flag="0"/>
      <vel value="0.0455436501" flag="0"/>
      <psa03 value="0.1347512085" flag="0"/>
      <psa10 value="0.0300816962" flag="0"/>
      <psa30 value="0.0018922199" flag="0"/>
    </comp>
    <comp name="--.HHZ">
      <acc value="0.0646094820" flag="0"/>
      <vel value="0.0171080776" flag="0"/>
      <psa03 value="0.0682200884" flag="0"/>
      <psa10 value="0.0115267678" flag="0"/>
      <psa30 value="0.0005966289" flag="0"/>
    </comp>
    <comp name="--.HHN">
      <acc value="0.0398297685" flag="0"/>
      <vel value="0.0167023558" flag="0"/>
      <psa03 value="0.0894434807" flag="0"/>
      <psa10 value="0.0063656178" flag="0"/>
      <psa30 value="0.0003544407" flag="0"/>
    </comp>
  </station>
  <station code="CMBO" name="CMBO" netid="HT" insttype="120P," lat="36.4709" lon="25.4056">
    <comp name="--.HHZ">
      <acc value="0.0377492190" flag="0"/>
      <vel value="0.0120182589" flag="0"/>
      <psa03 value="0.0684435069" flag="0"/>
      <psa10 value="0.0047901344" flag="0"/>
      <psa30 value="0.0009436721" flag="0"/>
    </comp>
    <comp name="--.HHN">
      <acc value="0.0311424417" flag="0"/>
      <vel value="0.0194744839" flag="0"/>
      <psa03 value="0.0672467309" flag="0"/>
      <psa10 value="0.0187112425" flag="0"/>
      <psa30 value="0.0014298682" flag="0"/>
    </comp>
    <comp name="--.HHE">
      <acc value="0.0332519403" flag="0"/>
      <vel value="0.0241453774" flag="0"/>
      <psa03 value="0.0643275588" flag="0"/>
      <psa10 value="0.0170714522" flag="0"/>
      <psa30 value="0.0014522836" flag="0"/>
    </comp>
  </station>
</stationlist>
