<stationlist created="1631873549">
	<station code="CH01" name="CH01" netid="HI" source="ITSAK Strong Motion Network" insttype="" lat="35.517" lon="24.0208">
		<comp name="--.HNE" depth="0.0">
			<acc value="0.005520648" flag="0"/>
			<vel value="-0.002161" flag="0"/>
			<psa03 value="0.00863524587733" flag="0"/>
			<psa10 value="0.00285097340572" flag="0"/>
			<psa30 value="0.000194181176723" flag="0"/>
		</comp>
		<comp name="--.HNN" depth="0.0">
			<acc value="0.00546159" flag="0"/>
			<vel value="0.002432" flag="0"/>
			<psa03 value="0.0161071943826" flag="0"/>
			<psa10 value="0.00243218635177" flag="0"/>
			<psa30 value="0.000281428479629" flag="0"/>
		</comp>
		<comp name="--.HNZ" depth="0.0">
			<acc value="0.002619666" flag="0"/>
			<vel value="0.001153" flag="0"/>
			<psa03 value="0.00496638493463" flag="0"/>
			<psa10 value="0.00196910451327" flag="0"/>
			<psa30 value="0.000158834833495" flag="0"/>
		</comp>
	</station>
	<station code="KSS1" name="KSS1" netid="HI" source="ITSAK Strong Motion Network" insttype="" lat="35.4189" lon="26.9207">
		<comp name="--.HNE" depth="0.0">
			<acc value="0.101102094" flag="0"/>
			<vel value="0.029349" flag="0"/>
			<psa03 value="0.25243552974" flag="0"/>
			<psa10 value="0.0123501912928" flag="0"/>
			<psa30 value="0.000875157561453" flag="0"/>
		</comp>
		<comp name="--.HNN" depth="0.0">
			<acc value="0.113813742" flag="0"/>
			<vel value="-0.037429" flag="0"/>
			<psa03 value="0.303396903079" flag="0"/>
			<psa10 value="0.017218590795" flag="0"/>
			<psa30 value="0.00153913190767" flag="0"/>
		</comp>
		<comp name="--.HNZ" depth="0.0">
			<acc value="0.062210922" flag="0"/>
			<vel value="0.014258" flag="0"/>
			<psa03 value="0.0814755582519" flag="0"/>
			<psa10 value="0.00650730653056" flag="0"/>
			<psa30 value="0.000725718591348" flag="0"/>
		</comp>
	</station>
	<station code="SIT2" name="SIT2" netid="HI" source="ITSAK Strong Motion Network" insttype="" lat="35.2059" lon="26.107">
		<comp name="--.HNE" depth="0.0">
			<acc value="-0.122657856" flag="0"/>
			<vel value="0.067867" flag="0"/>
			<psa03 value="0.33619294053" flag="0"/>
			<psa10 value="0.0247728649604" flag="0"/>
			<psa30 value="0.00257670367915" flag="0"/>
		</comp>
		<comp name="--.HNN" depth="0.0">
			<acc value="-0.106204542" flag="0"/>
			<vel value="-0.053941" flag="0"/>
			<psa03 value="0.315387814452" flag="0"/>
			<psa10 value="0.0276479991577" flag="0"/>
			<psa30 value="0.00187514587937" flag="0"/>
		</comp>
		<comp name="--.HNZ" depth="0.0">
			<acc value="-0.12979092" flag="0"/>
			<vel value="-0.038751" flag="0"/>
			<psa03 value="0.265455511866" flag="0"/>
			<psa10 value="0.00982941537197" flag="0"/>
			<psa30 value="0.00079820096607" flag="0"/>
		</comp>
	</station>
	<station code="IACM" name="IACM" netid="HL" source="National Observatory of Athens Seismic Network" insttype="" lat="35.3058" lon="25.0709">
		<comp name="--.HNE" depth="0.0">
			<acc value="0.050054664" flag="0"/>
			<vel value="-0.023908" flag="0"/>
			<psa03 value="0.142056506013" flag="0"/>
			<psa10 value="0.034227788063" flag="0"/>
			<psa30 value="0.00133913424408" flag="0"/>
		</comp>
		<comp name="--.HNN" depth="0.0">
			<acc value="0.047232222" flag="0"/>
			<vel value="-0.023271" flag="0"/>
			<psa03 value="0.15758205171" flag="0"/>
			<psa10 value="0.0261540568787" flag="0"/>
			<psa30 value="0.00120669731249" flag="0"/>
		</comp>
		<comp name="--.HNZ" depth="0.0">
			<acc value="-0.048658794" flag="0"/>
			<vel value="0.016274" flag="0"/>
			<psa03 value="0.0940481183116" flag="0"/>
			<psa10 value="0.0130065594639" flag="0"/>
			<psa30 value="0.000523036395368" flag="0"/>
		</comp>
	</station>
	<station code="IMMV" name="IMMV" netid="HL" source="National Observatory of Athens Seismic Network" insttype="" lat="35.4606" lon="23.9811">
		<comp name="--.HNE" depth="0.0">
			<acc value="-0.003032358" flag="0"/>
			<vel value="0.001573" flag="0"/>
			<psa03 value="0.00854576146409" flag="0"/>
			<psa10 value="0.00243218635177" flag="0"/>
			<psa30 value="0.000149886392171" flag="0"/>
		</comp>
		<comp name="--.HNN" depth="0.0">
			<acc value="-0.002764098" flag="0"/>
			<vel value="0.002038" flag="0"/>
			<psa03 value="0.00957483221631" flag="0"/>
			<psa10 value="0.00243621315036" flag="0"/>
			<psa30 value="0.000199997663584" flag="0"/>
		</comp>
		<comp name="--.HNZ" depth="0.0">
			<acc value="0.00318801" flag="0"/>
			<vel value="0.001562" flag="0"/>
			<psa03 value="0.00903792573689" flag="0"/>
			<psa10 value="0.00100669964891" flag="0"/>
			<psa30 value="8.67998808394e-05" flag="0"/>
		</comp>
	</station>
	<station code="SIVA" name="SIVA" netid="HL" source="National Observatory of Athens Seismic Network" insttype="" lat="35.01777" lon="24.81204">
		<comp name="--.HNE" depth="0.0">
			<acc value="-0.012725112" flag="0"/>
			<vel value="0.007304" flag="0"/>
			<psa03 value="0.0416549943616" flag="0"/>
			<psa10 value="0.00627777901061" flag="0"/>
			<psa30 value="0.00029306145335" flag="0"/>
		</comp>
		<comp name="--.HNN" depth="0.0">
			<acc value="0.012329454" flag="0"/>
			<vel value="-0.005539" flag="0"/>
			<psa03 value="0.0299325362276" flag="0"/>
			<psa10 value="0.00463081838499" flag="0"/>
			<psa30 value="0.000326170686247" flag="0"/>
		</comp>
		<comp name="--.HNZ" depth="0.0">
			<acc value="0.006379182" flag="0"/>
			<vel value="-0.00452" flag="0"/>
			<psa03 value="0.0173152339613" flag="0"/>
			<psa10 value="0.00194897052029" flag="0"/>
			<psa30 value="0.000169572963083" flag="0"/>
		</comp>
	</station>
	<station code="THRA" name="THRA" netid="HL" source="National Observatory of Athens Seismic Network" insttype="" lat="36.41502" lon="25.43244">
		<comp name="--.HNE" depth="0.0">
			<acc value="-0.027607014" flag="0"/>
			<vel value="-0.016816" flag="0"/>
			<psa03 value="0.0530642570493" flag="0"/>
			<psa10 value="0.0224010805876" flag="0"/>
			<psa30 value="0.00167783274819" flag="0"/>
		</comp>
		<comp name="--.HNN" depth="0.0">
			<acc value="-0.022090548" flag="0"/>
			<vel value="0.011033" flag="0"/>
			<psa03 value="0.0459949884036" flag="0"/>
			<psa10 value="0.0198964118611" flag="0"/>
			<psa30 value="0.00110781703587" flag="0"/>
		</comp>
		<comp name="--.HNZ" depth="0.0">
			<acc value="-0.015139146" flag="0"/>
			<vel value="0.009059" flag="0"/>
			<psa03 value="0.0405364391962" flag="0"/>
			<psa10 value="0.00708716552833" flag="0"/>
			<psa30 value="0.000368228360468" flag="0"/>
		</comp>
	</station>
</stationlist>
