<?xml version="1.0" encoding="UTF-8" standalone="yes"?>
<!DOCTYPE earthquake SYSTEM "stationlist.dtd">
<stationlist created="" xmlns="ch.ethz.sed.shakemap.usgs.xml">
  <station code="ALAN" name="ALAN" netid="KO" insttype="CMG-5T" lat="36.557" lon="32.0327">
    <comp name="--.HNN">
      <acc value="0.1214695141" flag="0"/>
      <vel value="0.0349614808" flag="0"/>
      <psa03 value="0.1107083428" flag="0"/>
      <psa10 value="0.0121376154" flag="0"/>
      <psa30 value="0.0010362365" flag="0"/>
    </comp>
    <comp name="--.HNZ">
      <acc value="0.0300845344" flag="0"/>
      <vel value="0.0084101951" flag="0"/>
      <psa03 value="0.0374157830" flag="0"/>
      <psa10 value="0.0035519274" flag="0"/>
      <psa30 value="0.0005590320" flag="0"/>
    </comp>
    <comp name="--.HNE">
      <acc value="0.2093851626" flag="0"/>
      <vel value="0.0674813080" flag="0"/>
      <psa03 value="0.2086715020" flag="0"/>
      <psa10 value="0.0099991050" flag="0"/>
      <psa30 value="0.0010710809" flag="0"/>
    </comp>
  </station>
</stationlist>
