<?xml version="1.0" encoding="UTF-8" standalone="yes"?>
<!DOCTYPE earthquake SYSTEM "stationlist.dtd">
<stationlist created="" xmlns="ch.ethz.sed.shakemap.usgs.xml">
  <station code="AKS" name="AKS" netid="KO" insttype="CMG-5T" commtype="DIG" lat="38.8785" lon="27.8129">
    <comp name="--.HNN">
      <acc value="0.1051281926" flag="0"/>
      <vel value="0.0236311785" flag="0"/>
      <psa03 value="0.0588067762" flag="0"/>
      <psa10 value="0.0073213913" flag="0"/>
      <psa30 value="0.0005743948" flag="0"/>
    </comp>
    <comp name="--.HNZ">
      <acc value="0.0672874675" flag="0"/>
      <vel value="0.0112092428" flag="0"/>
      <psa03 value="0.0271742452" flag="0"/>
      <psa10 value="0.0044022079" flag="0"/>
      <psa30 value="0.0003449564" flag="0"/>
    </comp>
    <comp name="--.HNE">
      <acc value="0.0800349485" flag="0"/>
      <vel value="0.0152896978" flag="0"/>
      <psa03 value="0.0733096736" flag="0"/>
      <psa10 value="0.0095450198" flag="0"/>
      <psa30 value="0.0005052210" flag="0"/>
    </comp>
  </station>
  <station code="BALB" name="BALB" netid="KO" insttype="CMG-5T" commtype="DIG" lat="39.6507" lon="27.8642">
    <comp name="--.HNN">
      <acc value="0.1296097234" flag="0"/>
      <vel value="0.0330120015" flag="0"/>
      <psa03 value="0.1292696069" flag="0"/>
      <psa10 value="0.0161797864" flag="0"/>
      <psa30 value="0.0010065290" flag="0"/>
    </comp>
    <comp name="--.HNE">
      <acc value="0.1858281950" flag="0"/>
      <vel value="0.0485463404" flag="0"/>
      <psa03 value="0.1405668103" flag="0"/>
      <psa10 value="0.0228895306" flag="0"/>
      <psa30 value="0.0011718514" flag="0"/>
    </comp>
    <comp name="--.HNZ">
      <acc value="0.0448452903" flag="0"/>
      <vel value="0.0157087685" flag="0"/>
      <psa03 value="0.0795961917" flag="0"/>
      <psa10 value="0.0102726535" flag="0"/>
      <psa30 value="0.0006777014" flag="0"/>
    </comp>
  </station>
  <station code="DKL" name="DKL" netid="KO" insttype="CMG-3ESPC" commtype="DIG" lat="39.0713" lon="26.9053">
    <comp name="--.HHE">
      <acc value="0.0087647530" flag="0"/>
      <vel value="0.0045869503" flag="0"/>
      <psa03 value="0.0151402173" flag="0"/>
      <psa10 value="0.0058193014" flag="0"/>
      <psa30 value="0.0003117882" flag="0"/>
    </comp>
    <comp name="--.HHN">
      <acc value="0.0105132810" flag="0"/>
      <vel value="0.0060576576" flag="0"/>
      <psa03 value="0.0186029797" flag="0"/>
      <psa10 value="0.0063441913" flag="0"/>
      <psa30 value="0.0007192095" flag="0"/>
    </comp>
    <comp name="--.HHZ">
      <acc value="0.0047925165" flag="0"/>
      <vel value="0.0024502812" flag="0"/>
      <psa03 value="0.0141567936" flag="0"/>
      <psa10 value="0.0029054623" flag="0"/>
      <psa30 value="0.0001868292" flag="0"/>
    </comp>
  </station>
  <station code="DST" name="DST" netid="KO" insttype="CMG-5T" commtype="DIG" lat="39.6041" lon="28.6267">
    <comp name="--.HNE">
      <acc value="0.0480128962" flag="0"/>
      <vel value="0.0123164871" flag="0"/>
      <psa03 value="0.0861010588" flag="0"/>
      <psa10 value="0.0064850447" flag="0"/>
      <psa30 value="0.0005722582" flag="0"/>
    </comp>
    <comp name="--.HNN">
      <acc value="0.0655744083" flag="0"/>
      <vel value="0.0148878708" flag="0"/>
      <psa03 value="0.0680660833" flag="0"/>
      <psa10 value="0.0084030677" flag="0"/>
      <psa30 value="0.0010324096" flag="0"/>
    </comp>
    <comp name="--.HNZ">
      <acc value="0.0403231668" flag="0"/>
      <vel value="0.0135933133" flag="0"/>
      <psa03 value="0.0921226409" flag="0"/>
      <psa10 value="0.0083293428" flag="0"/>
      <psa30 value="0.0004601822" flag="0"/>
    </comp>
  </station>
  <station code="GEDZ" name="GEDZ" netid="KO" insttype="CMG-6T" commtype="DIG" lat="39.0445" lon="29.4105">
    <comp name="--.HHN">
      <acc value="0.0581886362" flag="0"/>
      <vel value="0.0206014730" flag="0"/>
      <psa03 value="0.0942724813" flag="0"/>
      <psa10 value="0.0290665228" flag="0"/>
      <psa30 value="0.0013345033" flag="0"/>
    </comp>
    <comp name="--.HHE">
      <acc value="0.0566415883" flag="0"/>
      <vel value="0.0188115175" flag="0"/>
      <psa03 value="0.0870785202" flag="0"/>
      <psa10 value="0.0222955138" flag="0"/>
      <psa30 value="0.0009607664" flag="0"/>
    </comp>
    <comp name="--.HHZ">
      <acc value="0.0195061744" flag="0"/>
      <vel value="0.0081368604" flag="0"/>
      <psa03 value="0.0286506568" flag="0"/>
      <psa10 value="0.0097699746" flag="0"/>
      <psa30 value="0.0003881440" flag="0"/>
    </comp>
  </station>
  <station code="GOMA" name="GOMA" netid="KO" insttype="CMG-5T" commtype="DIG" lat="38.7077" lon="27.9175">
    <comp name="--.HNZ">
      <acc value="0.0710523008" flag="0"/>
      <vel value="0.0177080592" flag="0"/>
      <psa03 value="0.0644640482" flag="0"/>
      <psa10 value="0.0055153639" flag="0"/>
      <psa30 value="0.0004159478" flag="0"/>
    </comp>
  </station>
  <station code="GONE" name="GONE" netid="KO" insttype="CMG-5T" commtype="DIG" lat="40.0466" lon="27.686">
    <comp name="--.HNZ">
      <acc value="0.0167323907" flag="0"/>
      <vel value="0.0062078545" flag="0"/>
      <psa03 value="0.0370178251" flag="0"/>
      <psa10 value="0.0044002087" flag="0"/>
      <psa30 value="0.0002745508" flag="0"/>
    </comp>
    <comp name="--.HNE">
      <acc value="0.0366329554" flag="0"/>
      <vel value="0.0134538531" flag="0"/>
      <psa03 value="0.0931660871" flag="0"/>
      <psa10 value="0.0121898422" flag="0"/>
      <psa30 value="0.0008120170" flag="0"/>
    </comp>
    <comp name="--.HNN">
      <acc value="0.0692664898" flag="0"/>
      <vel value="0.0370179384" flag="0"/>
      <psa03 value="0.1932260225" flag="0"/>
      <psa10 value="0.0185961128" flag="0"/>
      <psa30 value="0.0014788647" flag="0"/>
    </comp>
  </station>
  <station code="GORD" name="GORD" netid="KO" insttype="CMG-5T" commtype="DIG" lat="38.9088" lon="28.1769">
    <comp name="--.HNE">
      <acc value="0.0585411277" flag="0"/>
      <vel value="0.0216745463" flag="0"/>
      <psa03 value="0.0796507408" flag="0"/>
      <psa10 value="0.0430493682" flag="0"/>
      <psa30 value="0.0022894384" flag="0"/>
    </comp>
    <comp name="--.HNZ">
      <acc value="0.0427963890" flag="0"/>
      <vel value="0.0197416487" flag="0"/>
      <psa03 value="0.0872737215" flag="0"/>
      <psa10 value="0.0119643582" flag="0"/>
      <psa30 value="0.0012524405" flag="0"/>
    </comp>
    <comp name="--.HNN">
      <acc value="0.0649867087" flag="0"/>
      <vel value="0.0273304055" flag="0"/>
      <psa03 value="0.0730091299" flag="0"/>
      <psa10 value="0.0513427268" flag="0"/>
      <psa30 value="0.0022343445" flag="0"/>
    </comp>
  </station>
  <station code="KCTX" name="KCTX" netid="KO" insttype="CMG-3ESP" commtype="DIG" lat="40.2626" lon="28.3353">
    <comp name="--.HHE">
      <acc value="0.0252583976" flag="0"/>
      <vel value="0.0148644578" flag="0"/>
      <psa03 value="0.0741699180" flag="0"/>
      <psa10 value="0.0170753397" flag="0"/>
      <psa30 value="0.0009202294" flag="0"/>
    </comp>
    <comp name="--.HHN">
      <acc value="0.0364442320" flag="0"/>
      <vel value="0.0151994014" flag="0"/>
      <psa03 value="0.1291600725" flag="0"/>
      <psa10 value="0.0070009368" flag="0"/>
      <psa30 value="0.0003751177" flag="0"/>
    </comp>
    <comp name="--.HHZ">
      <acc value="0.0259473244" flag="0"/>
      <vel value="0.0128813505" flag="0"/>
      <psa03 value="0.0899426395" flag="0"/>
      <psa10 value="0.0069553897" flag="0"/>
      <psa30 value="0.0003636546" flag="0"/>
    </comp>
  </station>
  <station code="KULA" name="KULA" netid="KO" insttype="CMG-3T" commtype="DIG" lat="38.5145" lon="28.6607">
    <comp name="--.HHN">
      <acc value="0.0191730398" flag="0"/>
      <vel value="0.0049859163" flag="0"/>
      <psa03 value="0.0220858022" flag="0"/>
      <psa10 value="0.0030151449" flag="0"/>
      <psa30 value="0.0001783354" flag="0"/>
    </comp>
  </station>
  <station code="ORLT" name="ORLT" netid="KO" insttype="CMG-5T" commtype="DIG" lat="40.0452" lon="28.8914">
    <comp name="--.HNE">
      <acc value="0.0559734867" flag="0"/>
      <vel value="0.0176538674" flag="0"/>
      <psa03 value="0.0908055913" flag="0"/>
      <psa10 value="0.0086978418" flag="0"/>
      <psa30 value="0.0008065392" flag="0"/>
    </comp>
    <comp name="--.HNN">
      <acc value="0.0487270539" flag="0"/>
      <vel value="0.0189578212" flag="0"/>
      <psa03 value="0.1846647771" flag="0"/>
      <psa10 value="0.0131409664" flag="0"/>
      <psa30 value="0.0007672524" flag="0"/>
    </comp>
    <comp name="--.HNZ">
      <acc value="0.0195507666" flag="0"/>
      <vel value="0.0095850609" flag="0"/>
      <psa03 value="0.0395634328" flag="0"/>
      <psa10 value="0.0079919512" flag="0"/>
      <psa30 value="0.0005604825" flag="0"/>
    </comp>
  </station>
  <station code="SIMA" name="SIMA" netid="KO" insttype="CMG-6T" commtype="DIG" lat="39.0833" lon="28.9825">
    <comp name="--.HHE">
      <acc value="0.0824505952" flag="0"/>
      <vel value="0.0159170983" flag="0"/>
      <psa03 value="0.0459910499" flag="0"/>
      <psa10 value="0.0083535825" flag="0"/>
      <psa30 value="0.0003431493" flag="0"/>
    </comp>
    <comp name="--.HHZ">
      <acc value="0.0455313897" flag="0"/>
      <vel value="0.0116925403" flag="0"/>
      <psa03 value="0.0360928229" flag="0"/>
      <psa10 value="0.0041390562" flag="0"/>
      <psa30 value="0.0002807298" flag="0"/>
    </comp>
    <comp name="--.HHN">
      <acc value="0.0740801790" flag="0"/>
      <vel value="0.0164047307" flag="0"/>
      <psa03 value="0.0812731868" flag="0"/>
      <psa10 value="0.0107068514" flag="0"/>
      <psa30 value="0.0006119347" flag="0"/>
    </comp>
  </station>
  <station code="SMAA" name="SMAA" netid="KO" insttype="CMG-5T" commtype="DIG" lat="39.1005" lon="28.9805">
    <comp name="--.HNE">
      <acc value="0.0643059714" flag="0"/>
      <vel value="0.0327223435" flag="0"/>
      <psa03 value="0.1546766573" flag="0"/>
      <psa10 value="0.0595453070" flag="0"/>
      <psa30 value="0.0025855223" flag="0"/>
    </comp>
    <comp name="--.HNN">
      <acc value="0.0498201905" flag="0"/>
      <vel value="0.0292963951" flag="0"/>
      <psa03 value="0.1253954350" flag="0"/>
      <psa10 value="0.0323295902" flag="0"/>
      <psa30 value="0.0023973968" flag="0"/>
    </comp>
    <comp name="--.HNZ">
      <acc value="0.0319989748" flag="0"/>
      <vel value="0.0111934055" flag="0"/>
      <psa03 value="0.0282728216" flag="0"/>
      <psa10 value="0.0263788372" flag="0"/>
      <psa30 value="0.0008362342" flag="0"/>
    </comp>
  </station>
  <station code="SOMA" name="SOMA" netid="KO" insttype="CMG-5T" commtype="DIG" lat="39.1564" lon="27.5341">
    <comp name="--.HNE">
      <acc value="0.0511960580" flag="0"/>
      <vel value="0.0180740402" flag="0"/>
      <psa03 value="0.1259515849" flag="0"/>
      <psa10 value="0.0092443188" flag="0"/>
      <psa30 value="0.0008307143" flag="0"/>
    </comp>
    <comp name="--.HNN">
      <acc value="0.0484821547" flag="0"/>
      <vel value="0.0222397718" flag="0"/>
      <psa03 value="0.1041415248" flag="0"/>
      <psa10 value="0.0229131626" flag="0"/>
      <psa30 value="0.0014231948" flag="0"/>
    </comp>
    <comp name="--.HNZ">
      <acc value="0.0524412690" flag="0"/>
      <vel value="0.0135228315" flag="0"/>
      <psa03 value="0.0618919450" flag="0"/>
      <psa10 value="0.0099717738" flag="0"/>
      <psa30 value="0.0005277924" flag="0"/>
    </comp>
  </station>
  <station code="SUSR" name="SUSR" netid="KO" insttype="CMG-5T" commtype="DIG" lat="39.9627" lon="28.0835">
    <comp name="--.HNE">
      <acc value="0.0568144240" flag="0"/>
      <vel value="0.0157733146" flag="0"/>
      <psa03 value="0.0709747514" flag="0"/>
      <psa10 value="0.0055965354" flag="0"/>
      <psa30 value="0.0004822824" flag="0"/>
    </comp>
    <comp name="--.HNZ">
      <acc value="0.0381111521" flag="0"/>
      <vel value="0.0085779054" flag="0"/>
      <psa03 value="0.0587578049" flag="0"/>
      <psa10 value="0.0032722268" flag="0"/>
      <psa30 value="0.0004603947" flag="0"/>
    </comp>
    <comp name="--.HNN">
      <acc value="0.0529909895" flag="0"/>
      <vel value="0.0165132964" flag="0"/>
      <psa03 value="0.0839003720" flag="0"/>
      <psa10 value="0.0061654837" flag="0"/>
      <psa30 value="0.0004032359" flag="0"/>
    </comp>
  </station>
  <station code="TVSB" name="TVSB" netid="KO" insttype="CMG-3T" commtype="DIG" lat="39.4497" lon="29.4615">
    <comp name="--.HHN">
      <acc value="0.0281377931" flag="0"/>
      <vel value="0.0152840817" flag="0"/>
      <psa03 value="0.0846829517" flag="0"/>
      <psa10 value="0.0104665290" flag="0"/>
      <psa30 value="0.0005571991" flag="0"/>
    </comp>
    <comp name="--.HHZ">
      <acc value="0.0131512968" flag="0"/>
      <vel value="0.0048084183" flag="0"/>
      <psa03 value="0.0358806732" flag="0"/>
      <psa10 value="0.0025932513" flag="0"/>
      <psa30 value="0.0001787716" flag="0"/>
    </comp>
    <comp name="--.HHE">
      <acc value="0.0260673959" flag="0"/>
      <vel value="0.0157100380" flag="0"/>
      <psa03 value="0.0809370434" flag="0"/>
      <psa10 value="0.0066559508" flag="0"/>
      <psa30 value="0.0004722062" flag="0"/>
    </comp>
  </station>
  <station code="YAYO" name="YAYO" netid="KO" insttype="CMG-6T" commtype="DIG" lat="39.6113" lon="27.0726">
    <comp name="--.HHN">
      <acc value="0.0117546979" flag="0"/>
      <vel value="0.0050982553" flag="0"/>
      <psa03 value="0.0353954885" flag="0"/>
      <psa10 value="0.0038432839" flag="0"/>
      <psa30 value="0.0002826470" flag="0"/>
    </comp>
    <comp name="--.HHE">
      <acc value="0.0169871121" flag="0"/>
      <vel value="0.0059873287" flag="0"/>
      <psa03 value="0.0313594795" flag="0"/>
      <psa10 value="0.0055512394" flag="0"/>
      <psa30 value="0.0003592653" flag="0"/>
    </comp>
    <comp name="--.HHZ">
      <acc value="0.0141506651" flag="0"/>
      <vel value="0.0064716302" flag="0"/>
      <psa03 value="0.0278614997" flag="0"/>
      <psa10 value="0.0038544244" flag="0"/>
      <psa30 value="0.0002782040" flag="0"/>
    </comp>
  </station>
  <station code="YENI" name="YENI" netid="KO" insttype="CMG-5T" commtype="DIG" lat="39.9364" lon="27.2422">
    <comp name="--.HNE">
      <acc value="0.0395761464" flag="0"/>
      <vel value="0.0144173689" flag="0"/>
      <psa03 value="0.1188638141" flag="0"/>
      <psa10 value="0.0068432938" flag="0"/>
      <psa30 value="0.0006107514" flag="0"/>
    </comp>
    <comp name="--.HNZ">
      <acc value="0.0206931110" flag="0"/>
      <vel value="0.0067008254" flag="0"/>
      <psa03 value="0.0467183579" flag="0"/>
      <psa10 value="0.0021737507" flag="0"/>
      <psa30 value="0.0003464630" flag="0"/>
    </comp>
    <comp name="--.HNN">
      <acc value="0.0760630583" flag="0"/>
      <vel value="0.0285279521" flag="0"/>
      <psa03 value="0.1788310913" flag="0"/>
      <psa10 value="0.0128086323" flag="0"/>
      <psa30 value="0.0009895499" flag="0"/>
    </comp>
  </station>
</stationlist>
