<?xml version="1.0" encoding="UTF-8" standalone="yes"?>
<!DOCTYPE earthquake SYSTEM "stationlist.dtd">
<stationlist created="" xmlns="ch.ethz.sed.shakemap.usgs.xml">
  <station code="BAYT" name="BAYT" netid="KO" insttype="CMG-3ESPC" lat="40.3937" lon="40.141">
    <comp name="--.HHZ">
      <acc value="0.0013654630" flag="0"/>
      <vel value="0.0006202916" flag="0"/>
      <psa03 value="0.0062968265" flag="0"/>
      <psa10 value="0.0003612950" flag="0"/>
      <psa30 value="0.0000354416" flag="0"/>
    </comp>
    <comp name="--.HHN">
      <acc value="0.0132252022" flag="0"/>
      <vel value="0.0089193972" flag="0"/>
      <psa03 value="0.0564471493" flag="0"/>
      <psa10 value="0.0099509271" flag="0"/>
      <psa30 value="0.0016880054" flag="0"/>
    </comp>
    <comp name="--.HHE">
      <acc value="0.0228248367" flag="0"/>
      <vel value="0.0131224891" flag="0"/>
      <psa03 value="0.0615339477" flag="0"/>
      <psa10 value="0.0108749064" flag="0"/>
      <psa30 value="0.0008321627" flag="0"/>
    </comp>
  </station>
  <station code="BNGB" name="BNGB" netid="KO" insttype="CMG-3ESPC" lat="38.9913" lon="40.6792">
    <comp name="--.HHN">
      <acc value="0.0071446999" flag="0"/>
      <vel value="0.0036401306" flag="0"/>
      <psa03 value="0.0229294792" flag="0"/>
      <psa10 value="0.0032666738" flag="0"/>
      <psa30 value="0.0005439503" flag="0"/>
    </comp>
    <comp name="--.HHE">
      <acc value="0.0086482554" flag="0"/>
      <vel value="0.0036914625" flag="0"/>
      <psa03 value="0.0221751993" flag="0"/>
      <psa10 value="0.0041593625" flag="0"/>
      <psa30 value="0.0006223028" flag="0"/>
    </comp>
  </station>
  <station code="ERZN" name="ERZN" netid="KO" insttype="CMG-3ESP" lat="39.5867" lon="39.722">
    <comp name="--.HHZ">
      <acc value="0.0053773693" flag="0"/>
      <vel value="0.0018880181" flag="0"/>
      <psa03 value="0.0125988968" flag="0"/>
      <psa10 value="0.0031848080" flag="0"/>
      <psa30 value="0.0006441233" flag="0"/>
    </comp>
  </station>
  <station code="KARO" name="KARO" netid="KO" insttype="CMG-3T" lat="39.3089" lon="41.0493">
    <comp name="--.HHE">
      <acc value="0.1425076516" flag="0"/>
      <vel value="0.0805505733" flag="0"/>
      <psa03 value="0.4617045840" flag="0"/>
      <psa10 value="0.0279087232" flag="0"/>
      <psa30 value="0.0026706012" flag="0"/>
    </comp>
    <comp name="--.HHN">
      <acc value="0.0957359217" flag="0"/>
      <vel value="0.0456595276" flag="0"/>
      <psa03 value="0.4322323108" flag="0"/>
      <psa10 value="0.0242310774" flag="0"/>
      <psa30 value="0.0021194347" flag="0"/>
    </comp>
    <comp name="--.HHZ">
      <acc value="0.0875965727" flag="0"/>
      <vel value="0.0351857576" flag="0"/>
      <psa03 value="0.2176365711" flag="0"/>
      <psa10 value="0.0189244380" flag="0"/>
      <psa30 value="0.0021918079" flag="0"/>
    </comp>
  </station>
  <station code="KOPR" name="KOPR" netid="KO" insttype="CMG-3T" lat="39.9917" lon="41.8535">
    <comp name="--.HHE">
      <acc value="0.0089505301" flag="0"/>
      <vel value="0.0070954341" flag="0"/>
      <psa03 value="0.0219312198" flag="0"/>
      <psa10 value="0.0105277431" flag="0"/>
      <psa30 value="0.0023395662" flag="0"/>
    </comp>
    <comp name="--.HHN">
      <acc value="0.0092177572" flag="0"/>
      <vel value="0.0062542182" flag="0"/>
      <psa03 value="0.0318457717" flag="0"/>
      <psa10 value="0.0090436209" flag="0"/>
      <psa30 value="0.0022544229" flag="0"/>
    </comp>
    <comp name="--.HHZ">
      <acc value="0.0086115298" flag="0"/>
      <vel value="0.0066832685" flag="0"/>
      <psa03 value="0.0212183822" flag="0"/>
      <psa10 value="0.0074963650" flag="0"/>
      <psa30 value="0.0013395013" flag="0"/>
    </comp>
  </station>
  <station code="YEDI" name="YEDI" netid="KO" insttype="CMG-3T" lat="39.4377" lon="40.5443">
    <comp name="--.HHZ">
      <acc value="0.0000308069" flag="0"/>
      <vel value="0.0000042711" flag="0"/>
      <psa03 value="0.0000125259" flag="0"/>
      <psa10 value="0.0000042563" flag="0"/>
      <psa30 value="0.0000007582" flag="0"/>
    </comp>
    <comp name="--.HHN">
      <acc value="0.0949950438" flag="0"/>
      <vel value="0.0358792184" flag="0"/>
      <psa03 value="0.2699627475" flag="0"/>
      <psa10 value="0.0158829154" flag="0"/>
      <psa30 value="0.0013347544" flag="0"/>
    </comp>
    <comp name="--.HHE">
      <acc value="0.0988998070" flag="0"/>
      <vel value="0.0388506532" flag="0"/>
      <psa03 value="0.1321362983" flag="0"/>
      <psa10 value="0.0271270620" flag="0"/>
      <psa30 value="0.0034192395" flag="0"/>
    </comp>
  </station>
</stationlist>
