<?xml version="1.0" encoding="UTF-8" standalone="yes"?>
<!DOCTYPE earthquake SYSTEM "stationlist.dtd">
<stationlist created="" xmlns="ch.ethz.sed.shakemap.usgs.xml">
  <station code="BAYT" name="BAYT" netid="KO" insttype="CMG-3ESPC" lat="40.3937" lon="40.141">
    <comp name="--.HHN">
      <acc value="0.0132252022" flag="0"/>
      <vel value="0.0089193971" flag="0"/>
      <psa03 value="0.0564471493" flag="0"/>
      <psa10 value="0.0099509271" flag="0"/>
      <psa30 value="0.0016880029" flag="0"/>
    </comp>
    <comp name="--.HHZ">
      <acc value="0.0013654630" flag="0"/>
      <vel value="0.0006202916" flag="0"/>
      <psa03 value="0.0062968265" flag="0"/>
      <psa10 value="0.0003612950" flag="0"/>
      <psa30 value="0.0000354412" flag="0"/>
    </comp>
    <comp name="--.HHE">
      <acc value="0.0228248366" flag="0"/>
      <vel value="0.0131224889" flag="0"/>
      <psa03 value="0.0615339477" flag="0"/>
      <psa10 value="0.0108749064" flag="0"/>
      <psa30 value="0.0008321708" flag="0"/>
    </comp>
  </station>
  <station code="BNGB" name="BNGB" netid="KO" insttype="CMG-3ESPC" lat="38.9913" lon="40.6792">
    <comp name="--.HHE">
      <acc value="0.0086482555" flag="0"/>
      <vel value="0.0036914629" flag="0"/>
      <psa03 value="0.0221751993" flag="0"/>
      <psa10 value="0.0041593625" flag="0"/>
      <psa30 value="0.0006222967" flag="0"/>
    </comp>
    <comp name="--.HHN">
      <acc value="0.0071447001" flag="0"/>
      <vel value="0.0036401293" flag="0"/>
      <psa03 value="0.0229294792" flag="0"/>
      <psa10 value="0.0032666738" flag="0"/>
      <psa30 value="0.0005439475" flag="0"/>
    </comp>
  </station>
  <station code="ERZN" name="ERZN" netid="KO" insttype="CMG-3ESP" lat="39.5867" lon="39.722">
    <comp name="--.HHZ">
      <acc value="0.0053773693" flag="0"/>
      <vel value="0.0018880290" flag="0"/>
      <psa03 value="0.0125988969" flag="0"/>
      <psa10 value="0.0031848080" flag="0"/>
      <psa30 value="0.0006441237" flag="0"/>
    </comp>
  </station>
  <station code="KARO" name="KARO" netid="KO" insttype="CMG-3T" lat="39.3089" lon="41.0493">
    <comp name="--.HHN">
      <acc value="0.0957359216" flag="0"/>
      <vel value="0.0456595262" flag="0"/>
      <psa03 value="0.4322323108" flag="0"/>
      <psa10 value="0.0242310776" flag="0"/>
      <psa30 value="0.0021194875" flag="0"/>
    </comp>
    <comp name="--.HHZ">
      <acc value="0.0875965726" flag="0"/>
      <vel value="0.0351857571" flag="0"/>
      <psa03 value="0.2176365711" flag="0"/>
      <psa10 value="0.0189244380" flag="0"/>
      <psa30 value="0.0021918278" flag="0"/>
    </comp>
    <comp name="--.HHE">
      <acc value="0.1425076516" flag="0"/>
      <vel value="0.0805505717" flag="0"/>
      <psa03 value="0.4617045840" flag="0"/>
      <psa10 value="0.0279087233" flag="0"/>
      <psa30 value="0.0026705891" flag="0"/>
    </comp>
  </station>
  <station code="KOPR" name="KOPR" netid="KO" insttype="CMG-3T" lat="39.9917" lon="41.8535">
    <comp name="--.HHE">
      <acc value="0.0089505304" flag="0"/>
      <vel value="0.0070954342" flag="0"/>
      <psa03 value="0.0219312198" flag="0"/>
      <psa10 value="0.0105277431" flag="0"/>
      <psa30 value="0.0023395694" flag="0"/>
    </comp>
    <comp name="--.HHZ">
      <acc value="0.0086115296" flag="0"/>
      <vel value="0.0066832684" flag="0"/>
      <psa03 value="0.0212183822" flag="0"/>
      <psa10 value="0.0074963650" flag="0"/>
      <psa30 value="0.0013389703" flag="0"/>
    </comp>
    <comp name="--.HHN">
      <acc value="0.0092177580" flag="0"/>
      <vel value="0.0062542181" flag="0"/>
      <psa03 value="0.0318457717" flag="0"/>
      <psa10 value="0.0090436209" flag="0"/>
      <psa30 value="0.0022544237" flag="0"/>
    </comp>
  </station>
  <station code="YEDI" name="YEDI" netid="KO" insttype="CMG-3T" lat="39.4377" lon="40.5443">
    <comp name="--.HHZ">
      <acc value="0.0000308063" flag="0"/>
      <vel value="0.0000042711" flag="0"/>
      <psa03 value="0.0000125259" flag="0"/>
      <psa10 value="0.0000042562" flag="0"/>
      <psa30 value="0.0000007589" flag="0"/>
    </comp>
    <comp name="--.HHN">
      <acc value="0.0949950432" flag="0"/>
      <vel value="0.0358792182" flag="0"/>
      <psa03 value="0.2699627475" flag="0"/>
      <psa10 value="0.0158829152" flag="0"/>
      <psa30 value="0.0013347015" flag="0"/>
    </comp>
  </station>
</stationlist>
