<?xml version="1.0" encoding="UTF-8" standalone="yes"?>
<!DOCTYPE earthquake SYSTEM "stationlist.dtd">
<stationlist created="" xmlns="ch.ethz.sed.shakemap.usgs.xml">
  <station code="APE" name="APE" netid="GE" insttype="STS-2/N" lat="37.0727" lon="25.523">
    <comp name="--.HHZ">
      <acc value="0.0812203438" flag="0"/>
      <vel value="0.0139363288" flag="0"/>
      <psa03 value="0.0548582867" flag="0"/>
      <psa10 value="0.0071862436" flag="0"/>
      <psa30 value="0.0017986253" flag="0"/>
    </comp>
    <comp name="--.HHN">
      <acc value="0.1727475944" flag="0"/>
      <vel value="0.0333229513" flag="0"/>
      <psa03 value="0.0733386634" flag="0"/>
      <psa10 value="0.0099093528" flag="0"/>
      <psa30 value="0.0016530995" flag="0"/>
    </comp>
    <comp name="--.HHE">
      <acc value="0.1985224591" flag="0"/>
      <vel value="0.0315794444" flag="0"/>
      <psa03 value="0.1175805482" flag="0"/>
      <psa10 value="0.0058143921" flag="0"/>
      <psa30 value="0.0018683898" flag="0"/>
    </comp>
  </station>
  <station code="THERA" name="THERA" netid="GE" insttype="STS-2/N" lat="36.367" lon="25.4753">
    <comp name="--.HHN">
      <acc value="0.0925218244" flag="0"/>
      <vel value="0.0223732205" flag="0"/>
      <psa03 value="0.1071476688" flag="0"/>
      <psa10 value="0.0080227064" flag="0"/>
      <psa30 value="0.0008674984" flag="0"/>
    </comp>
    <comp name="--.HHZ">
      <acc value="0.1072966618" flag="0"/>
      <vel value="0.0300544953" flag="0"/>
      <psa03 value="0.0822528796" flag="0"/>
      <psa10 value="0.0160702428" flag="0"/>
      <psa30 value="0.0019221584" flag="0"/>
    </comp>
    <comp name="--.HHE">
      <acc value="0.1108745400" flag="0"/>
      <vel value="0.0322599647" flag="0"/>
      <psa03 value="0.1146005540" flag="0"/>
      <psa10 value="0.0140941291" flag="0"/>
      <psa30 value="0.0021396798" flag="0"/>
    </comp>
  </station>
</stationlist>
