<?xml version="1.0" encoding="UTF-8" standalone="yes"?>
<!DOCTYPE earthquake SYSTEM "stationlist.dtd">
<stationlist created="" xmlns="ch.ethz.sed.shakemap.usgs.xml">
  <station code="APE" name="APE" netid="GE" insttype="STS-2/N" lat="37.0727" lon="25.523">
    <comp name="--.HHZ">
      <acc value="0.0812203440" flag="0"/>
      <vel value="0.0139363242" flag="0"/>
      <psa03 value="0.0548582867" flag="0"/>
      <psa10 value="0.0071862424" flag="0"/>
      <psa30 value="0.0017986886" flag="0"/>
    </comp>
    <comp name="--.HHE">
      <acc value="0.1985224584" flag="0"/>
      <vel value="0.0315794415" flag="0"/>
      <psa03 value="0.1175805482" flag="0"/>
      <psa10 value="0.0058143965" flag="0"/>
      <psa30 value="0.0018679255" flag="0"/>
    </comp>
    <comp name="--.HHN">
      <acc value="0.1727475944" flag="0"/>
      <vel value="0.0333229538" flag="0"/>
      <psa03 value="0.0733386634" flag="0"/>
      <psa10 value="0.0099093517" flag="0"/>
      <psa30 value="0.0016530912" flag="0"/>
    </comp>
  </station>
  <station code="THERA" name="THERA" netid="GE" insttype="STS-2/N" lat="36.367" lon="25.4753">
    <comp name="--.HHN">
      <acc value="0.0925218251" flag="0"/>
      <vel value="0.0223732207" flag="0"/>
      <psa03 value="0.1071476688" flag="0"/>
      <psa10 value="0.0080227026" flag="0"/>
      <psa30 value="0.0008677142" flag="0"/>
    </comp>
    <comp name="--.HHE">
      <acc value="0.1108745396" flag="0"/>
      <vel value="0.0322599623" flag="0"/>
      <psa03 value="0.1146005540" flag="0"/>
      <psa10 value="0.0140941330" flag="0"/>
      <psa30 value="0.0021388265" flag="0"/>
    </comp>
    <comp name="--.HHZ">
      <acc value="0.1072966624" flag="0"/>
      <vel value="0.0300544872" flag="0"/>
      <psa03 value="0.0822528796" flag="0"/>
      <psa10 value="0.0160702346" flag="0"/>
      <psa30 value="0.0019195890" flag="0"/>
    </comp>
  </station>
  <station code="SERI" name="SERI" netid="HA" insttype="30" lat="37.1609" lon="24.4853">
    <comp name="--.HHE">
      <acc value="0.0281293330" flag="0"/>
      <vel value="0.0113388450" flag="0"/>
      <psa03 value="0.0253785594" flag="0"/>
      <psa10 value="0.0041004893" flag="0"/>
      <psa30 value="0.0005688172" flag="0"/>
    </comp>
    <comp name="--.HHN">
      <acc value="0.0603351505" flag="0"/>
      <vel value="0.0156524158" flag="0"/>
      <psa03 value="0.0348333748" flag="0"/>
      <psa10 value="0.0092332810" flag="0"/>
      <psa30 value="0.0007623079" flag="0"/>
    </comp>
    <comp name="--.HHZ">
      <acc value="0.0364823670" flag="0"/>
      <vel value="0.0101886625" flag="0"/>
      <psa03 value="0.0280038752" flag="0"/>
      <psa10 value="0.0076684160" flag="0"/>
      <psa30 value="0.0008050465" flag="0"/>
    </comp>
  </station>
  <station code="SNT1" name="SNT1" netid="HA" insttype="30" lat="36.4159" lon="25.4282">
    <comp name="--.HHN">
      <acc value="0.0702803874" flag="0"/>
      <vel value="0.0340278662" flag="0"/>
      <psa03 value="0.0875584654" flag="0"/>
      <psa10 value="0.0382694571" flag="0"/>
      <psa30 value="0.0046781913" flag="0"/>
    </comp>
    <comp name="--.HHZ">
      <acc value="0.0689742115" flag="0"/>
      <vel value="0.0239440038" flag="0"/>
      <psa03 value="0.1102498426" flag="0"/>
      <psa10 value="0.0220040371" flag="0"/>
      <psa30 value="0.0021732063" flag="0"/>
    </comp>
    <comp name="--.HHE">
      <acc value="0.1190464608" flag="0"/>
      <vel value="0.0316354509" flag="0"/>
      <psa03 value="0.0961060172" flag="0"/>
      <psa10 value="0.0355682077" flag="0"/>
      <psa30 value="0.0048004638" flag="0"/>
    </comp>
  </station>
  <station code="NAX1" name="NAX1" netid="HI" insttype="CMG-5TD,ACCELEROMETER,GURALP" lat="37.1014" lon="25.3741">
    <comp name="--.HNE">
      <acc value="0.1930329956" flag="0"/>
      <vel value="0.0585675836" flag="0"/>
      <psa03 value="0.2313114107" flag="0"/>
      <psa10 value="0.0127057001" flag="0"/>
      <psa30 value="0.0010527026" flag="0"/>
    </comp>
    <comp name="--.HNZ">
      <acc value="0.0787992264" flag="0"/>
      <vel value="0.0205911419" flag="0"/>
      <psa03 value="0.0645767250" flag="0"/>
      <psa10 value="0.0099253755" flag="0"/>
      <psa30 value="0.0013579460" flag="0"/>
    </comp>
    <comp name="--.HNN">
      <acc value="0.1648649396" flag="0"/>
      <vel value="0.0351713923" flag="0"/>
      <psa03 value="0.0945312028" flag="0"/>
      <psa10 value="0.0076218323" flag="0"/>
      <psa30 value="0.0012641909" flag="0"/>
    </comp>
  </station>
  <station code="SFR2" name="SFR2" netid="HI" insttype="unknown" lat="36.3998" lon="25.4382">
    <comp name="--.HNZ">
      <acc value="0.3141123522" flag="0"/>
      <vel value="0.0708824489" flag="0"/>
      <psa03 value="0.2386951451" flag="0"/>
      <psa10 value="0.0329975648" flag="0"/>
      <psa30 value="0.0033609568" flag="0"/>
    </comp>
    <comp name="--.HNN">
      <acc value="0.2464547603" flag="0"/>
      <vel value="0.0806149103" flag="0"/>
      <psa03 value="0.4339024624" flag="0"/>
      <psa10 value="0.0913834213" flag="0"/>
      <psa30 value="0.0041175995" flag="0"/>
    </comp>
    <comp name="--.HNE">
      <acc value="0.2279072587" flag="0"/>
      <vel value="0.0655551422" flag="0"/>
      <psa03 value="0.3358774644" flag="0"/>
      <psa10 value="0.0577013674" flag="0"/>
      <psa30 value="0.0052235666" flag="0"/>
    </comp>
  </station>
  <station code="AMGA" name="AMGA" netid="HL" insttype="SMART24" lat="36.8316" lon="25.8938">
    <comp name="--.HHZ">
      <acc value="0.4035908223" flag="0"/>
      <vel value="0.0840101888" flag="0"/>
      <psa03 value="0.2022001357" flag="0"/>
      <psa10 value="0.0333698679" flag="0"/>
      <psa30 value="0.0035328697" flag="0"/>
    </comp>
    <comp name="--.HHN">
      <acc value="0.3877307501" flag="0"/>
      <vel value="0.0735940327" flag="0"/>
      <psa03 value="0.1665919324" flag="0"/>
      <psa10 value="0.0253357402" flag="0"/>
      <psa30 value="0.0026816730" flag="0"/>
    </comp>
    <comp name="--.HHE">
      <acc value="0.4329951713" flag="0"/>
      <vel value="0.0891414731" flag="0"/>
      <psa03 value="0.1966010704" flag="0"/>
      <psa10 value="0.0200694252" flag="0"/>
      <psa30 value="0.0045479385" flag="0"/>
    </comp>
  </station>
  <station code="APE" name="APE" netid="HL" insttype="120" lat="37.0727" lon="25.523">
    <comp name="--.HHZ">
      <acc value="0.0734556104" flag="0"/>
      <vel value="0.0135326195" flag="0"/>
      <psa03 value="0.0534379945" flag="0"/>
      <psa10 value="0.0070820046" flag="0"/>
      <psa30 value="0.0017956466" flag="0"/>
    </comp>
    <comp name="--.HHE">
      <acc value="0.1722917455" flag="0"/>
      <vel value="0.0305373419" flag="0"/>
      <psa03 value="0.1142556835" flag="0"/>
      <psa10 value="0.0056913245" flag="0"/>
      <psa30 value="0.0018629639" flag="0"/>
    </comp>
    <comp name="--.HHN">
      <acc value="0.1484132645" flag="0"/>
      <vel value="0.0319136364" flag="0"/>
      <psa03 value="0.0715397011" flag="0"/>
      <psa10 value="0.0098149749" flag="0"/>
      <psa30 value="0.0016483519" flag="0"/>
    </comp>
  </station>
  <station code="MHLO" name="MHLO" netid="HL" insttype="20" lat="36.6898" lon="24.4017">
    <comp name="--.HHE">
      <acc value="0.1086532293" flag="0"/>
      <vel value="0.0451795989" flag="0"/>
      <psa03 value="0.2731796661" flag="0"/>
      <psa10 value="0.0394898756" flag="0"/>
      <psa30 value="0.0021489564" flag="0"/>
    </comp>
    <comp name="--.HHZ">
      <acc value="0.0240395251" flag="0"/>
      <vel value="0.0142842596" flag="0"/>
      <psa03 value="0.0843889124" flag="0"/>
      <psa10 value="0.0204512746" flag="0"/>
      <psa30 value="0.0014156766" flag="0"/>
    </comp>
    <comp name="--.HHN">
      <acc value="0.0722248981" flag="0"/>
      <vel value="0.0373867014" flag="0"/>
      <psa03 value="0.2180795535" flag="0"/>
      <psa10 value="0.0496717471" flag="0"/>
      <psa30 value="0.0019866080" flag="0"/>
    </comp>
  </station>
  <station code="MILA" name="MILA" netid="HL" insttype="CMG-5" lat="36.7429" lon="24.4282">
    <comp name="00.HNE">
      <acc value="0.1003160649" flag="0"/>
      <vel value="0.0370055794" flag="0"/>
      <psa03 value="0.2207062863" flag="0"/>
      <psa10 value="0.0266346833" flag="0"/>
      <psa30 value="0.0020129522" flag="0"/>
    </comp>
    <comp name="00.HNZ">
      <acc value="0.0796048633" flag="0"/>
      <vel value="0.0267119109" flag="0"/>
      <psa03 value="0.1295690962" flag="0"/>
      <psa10 value="0.0242245694" flag="0"/>
      <psa30 value="0.0015863421" flag="0"/>
    </comp>
    <comp name="00.HNN">
      <acc value="0.1423832741" flag="0"/>
      <vel value="0.0464372834" flag="0"/>
      <psa03 value="0.2071389561" flag="0"/>
      <psa10 value="0.0337623239" flag="0"/>
      <psa30 value="0.0020933080" flag="0"/>
    </comp>
  </station>
  <station code="SANT" name="SANT" netid="HL" insttype="30" lat="36.3705" lon="25.4593">
    <comp name="--.HHE">
      <acc value="0.3815968130" flag="0"/>
      <vel value="0.0851973999" flag="0"/>
      <psa03 value="0.2616362303" flag="0"/>
      <psa10 value="0.0232685095" flag="0"/>
      <psa30 value="0.0024384317" flag="0"/>
    </comp>
    <comp name="--.HHZ">
      <acc value="0.2175194364" flag="0"/>
      <vel value="0.0413254363" flag="0"/>
      <psa03 value="0.1269881656" flag="0"/>
      <psa10 value="0.0157394578" flag="0"/>
      <psa30 value="0.0017571231" flag="0"/>
    </comp>
    <comp name="--.HHN">
      <acc value="0.3147148235" flag="0"/>
      <vel value="0.0455931043" flag="0"/>
      <psa03 value="0.1108738364" flag="0"/>
      <psa10 value="0.0261407071" flag="0"/>
      <psa30 value="0.0018578233" flag="0"/>
    </comp>
  </station>
  <station code="SAP3" name="SAP3" netid="HL" insttype="65535" lat="36.4356" lon="25.3454">
    <comp name="--.HHE">
      <acc value="0.2026491340" flag="0"/>
      <vel value="0.0625122189" flag="0"/>
      <psa03 value="0.2095512289" flag="0"/>
      <psa10 value="0.0452859677" flag="0"/>
      <psa30 value="0.0051916233" flag="0"/>
    </comp>
    <comp name="--.HHN">
      <acc value="0.1313831293" flag="0"/>
      <vel value="0.0459806417" flag="0"/>
      <psa03 value="0.2423332604" flag="0"/>
      <psa10 value="0.0318585813" flag="0"/>
      <psa30 value="0.0055118962" flag="0"/>
    </comp>
    <comp name="--.HHZ">
      <acc value="0.1866387236" flag="0"/>
      <vel value="0.0414241571" flag="0"/>
      <psa03 value="0.1855753111" flag="0"/>
      <psa10 value="0.0161040376" flag="0"/>
      <psa30 value="0.0020483624" flag="0"/>
    </comp>
  </station>
  <station code="THERA" name="THERA" netid="HL" insttype="120" lat="36.367" lon="25.4753">
    <comp name="--.HHE">
      <acc value="0.1132500330" flag="0"/>
      <vel value="0.0316229309" flag="0"/>
      <psa03 value="0.1110853228" flag="0"/>
      <psa10 value="0.0139886118" flag="0"/>
      <psa30 value="0.0021363837" flag="0"/>
    </comp>
    <comp name="--.HHN">
      <acc value="0.1818264914" flag="0"/>
      <vel value="0.0431125527" flag="0"/>
      <psa03 value="0.2072226560" flag="0"/>
      <psa10 value="0.0159137274" flag="0"/>
      <psa30 value="0.0017356860" flag="0"/>
    </comp>
    <comp name="--.HHZ">
      <acc value="0.1063635201" flag="0"/>
      <vel value="0.0294202049" flag="0"/>
      <psa03 value="0.0798163031" flag="0"/>
      <psa10 value="0.0159978179" flag="0"/>
      <psa30 value="0.0019059405" flag="0"/>
    </comp>
  </station>
  <station code="THRA" name="THRA" netid="HL" insttype="CMG-5" lat="36.415" lon="25.4324">
    <comp name="00.HNN">
      <acc value="0.2517342461" flag="0"/>
      <vel value="0.0920788403" flag="0"/>
      <psa03 value="0.3960745587" flag="0"/>
      <psa10 value="0.1298585796" flag="0"/>
      <psa30 value="0.0070774883" flag="0"/>
    </comp>
    <comp name="00.HNE">
      <acc value="0.3005798530" flag="0"/>
      <vel value="0.0903928844" flag="0"/>
      <psa03 value="0.5018924176" flag="0"/>
      <psa10 value="0.0950330961" flag="0"/>
      <psa30 value="0.0092523605" flag="0"/>
    </comp>
    <comp name="00.HNZ">
      <acc value="0.1940542194" flag="0"/>
      <vel value="0.0668617388" flag="0"/>
      <psa03 value="0.2689395030" flag="0"/>
      <psa10 value="0.0323072449" flag="0"/>
      <psa30 value="0.0033893304" flag="0"/>
    </comp>
  </station>
  <station code="TNSA" name="TNSA" netid="HL" insttype="CMG-5" lat="37.5394" lon="25.1631">
    <comp name="00.HNN">
      <acc value="0.1025458027" flag="0"/>
      <vel value="0.0365680885" flag="0"/>
      <psa03 value="0.1511322695" flag="0"/>
      <psa10 value="0.0115178691" flag="0"/>
      <psa30 value="0.0012578015" flag="0"/>
    </comp>
    <comp name="00.HNE">
      <acc value="0.0509475739" flag="0"/>
      <vel value="0.0160834463" flag="0"/>
      <psa03 value="0.0587145020" flag="0"/>
      <psa10 value="0.0072997985" flag="0"/>
      <psa30 value="0.0007305340" flag="0"/>
    </comp>
    <comp name="00.HNZ">
      <acc value="0.0545402655" flag="0"/>
      <vel value="0.0250001695" flag="0"/>
      <psa03 value="0.0976629153" flag="0"/>
      <psa10 value="0.0116297894" flag="0"/>
      <psa30 value="0.0012653262" flag="0"/>
    </comp>
  </station>
  <station code="AKRO" name="AKRO" netid="HT" insttype="Compact," lat="36.3584" lon="25.3967">
    <comp name="--.HHN">
      <acc value="0.3029479032" flag="0"/>
      <vel value="0.0659074740" flag="0"/>
      <psa03 value="0.1887843879" flag="0"/>
      <psa10 value="0.0378854317" flag="0"/>
      <psa30 value="0.0025095400" flag="0"/>
    </comp>
    <comp name="--.HHE">
      <acc value="0.5000327571" flag="0"/>
      <vel value="0.1299187167" flag="0"/>
      <psa03 value="0.3731329889" flag="0"/>
      <psa10 value="0.0480391693" flag="0"/>
      <psa30 value="0.0034035354" flag="0"/>
    </comp>
    <comp name="--.HHZ">
      <acc value="0.2559426909" flag="0"/>
      <vel value="0.0516795663" flag="0"/>
      <psa03 value="0.2019667828" flag="0"/>
      <psa10 value="0.0289200858" flag="0"/>
      <psa30 value="0.0024881112" flag="0"/>
    </comp>
  </station>
  <station code="CMBO" name="CMBO" netid="HT" insttype="120P," lat="36.4709" lon="25.4056">
    <comp name="--.HHZ">
      <acc value="0.1835797123" flag="0"/>
      <vel value="0.0472555627" flag="0"/>
      <psa03 value="0.2924571955" flag="0"/>
      <psa10 value="0.0271996551" flag="0"/>
      <psa30 value="0.0032769843" flag="0"/>
    </comp>
    <comp name="--.HHN">
      <acc value="0.2762635187" flag="0"/>
      <vel value="0.0609016304" flag="0"/>
      <psa03 value="0.2461128587" flag="0"/>
      <psa10 value="0.0511797295" flag="0"/>
      <psa30 value="0.0035923657" flag="0"/>
    </comp>
    <comp name="--.HHE">
      <acc value="0.1797179771" flag="0"/>
      <vel value="0.0408982071" flag="0"/>
      <psa03 value="0.1802366146" flag="0"/>
      <psa10 value="0.0389777519" flag="0"/>
      <psa30 value="0.0046178848" flag="0"/>
    </comp>
  </station>
</stationlist>
