<?xml version="1.0" encoding="UTF-8" standalone="yes"?>
<!DOCTYPE earthquake SYSTEM "stationlist.dtd">
<stationlist created="" xmlns="ch.ethz.sed.shakemap.usgs.xml">
  <station code="APE" name="APE" netid="GE" insttype="STS-2/N" lat="37.0727" lon="25.523">
    <comp name="--.HHE">
      <acc value="0.1985224583" flag="0"/>
      <vel value="0.0315794395" flag="0"/>
      <psa03 value="0.1175805482" flag="0"/>
      <psa10 value="0.0058143955" flag="0"/>
      <psa30 value="0.0018678253" flag="0"/>
    </comp>
    <comp name="--.HHZ">
      <acc value="0.0812203440" flag="0"/>
      <vel value="0.0139363241" flag="0"/>
      <psa03 value="0.0548582867" flag="0"/>
      <psa10 value="0.0071862420" flag="0"/>
      <psa30 value="0.0017986889" flag="0"/>
    </comp>
    <comp name="--.HHN">
      <acc value="0.1727475944" flag="0"/>
      <vel value="0.0333229524" flag="0"/>
      <psa03 value="0.0733386634" flag="0"/>
      <psa10 value="0.0099093513" flag="0"/>
      <psa30 value="0.0016531446" flag="0"/>
    </comp>
  </station>
  <station code="THERA" name="THERA" netid="GE" insttype="STS-2/N" lat="36.367" lon="25.4753">
    <comp name="--.HHE">
      <acc value="0.1108745395" flag="0"/>
      <vel value="0.0322599617" flag="0"/>
      <psa03 value="0.1146005540" flag="0"/>
      <psa10 value="0.0140941343" flag="0"/>
      <psa30 value="0.0021384677" flag="0"/>
    </comp>
    <comp name="--.HHZ">
      <acc value="0.1072966625" flag="0"/>
      <vel value="0.0300544850" flag="0"/>
      <psa03 value="0.0822528796" flag="0"/>
      <psa10 value="0.0160702339" flag="0"/>
      <psa30 value="0.0019188902" flag="0"/>
    </comp>
    <comp name="--.HHN">
      <acc value="0.0925218252" flag="0"/>
      <vel value="0.0223732189" flag="0"/>
      <psa03 value="0.1071476688" flag="0"/>
      <psa10 value="0.0080227038" flag="0"/>
      <psa30 value="0.0008677962" flag="0"/>
    </comp>
  </station>
</stationlist>
