<stationlist created="1741951960">
	<station code="ABEA" name="ABEA" netid="HC" source="Seismological Network of Crete (HC)" insttype="" lat="35.5163" lon="24.0113">
		<comp name=".HNE" depth="0.0">
			<acc value="0.0074723909169702" flag="0"/>
			<vel value="0.0042562959572" flag="0"/>
			<psa03 value="0.0211475207111246" flag="0"/>
			<psa10 value="0.00546033078262088" flag="0"/>
			<psa30 value="0.00137633461291145" flag="0"/>
		</comp>
		<comp name=".HNN" depth="0.0">
			<acc value="0.0064651691737344" flag="0"/>
			<vel value="0.00428295657356" flag="0"/>
			<psa03 value="0.0183937067740392" flag="0"/>
			<psa10 value="0.00353804039343645" flag="0"/>
			<psa30 value="0.00128188616866803" flag="0"/>
		</comp>
		<comp name=".HNZ" depth="0.0">
			<acc value="0.0043850461727958" flag="0"/>
			<vel value="0.00232294311222" flag="0"/>
			<psa03 value="0.00936057451922582" flag="0"/>
			<psa10 value="0.00423810700379153" flag="0"/>
			<psa30 value="0.000735000356831748" flag="0"/>
		</comp>
	</station>
	<station code="ATEI" name="ATEI" netid="HC" source="Seismological Network of Crete (HC)" insttype="" lat="35.5193" lon="24.0432">
		<comp name=".HNE" depth="0.0">
			<acc value="0.0054754190090196" flag="0"/>
			<vel value="0.00350541615211" flag="0"/>
			<psa03 value="0.0148367003065117" flag="0"/>
			<psa10 value="0.00394576201236774" flag="0"/>
			<psa30 value="0.00089833898971672" flag="0"/>
		</comp>
		<comp name=".HNN" depth="0.0">
			<acc value="0.0047297228756076" flag="0"/>
			<vel value="0.00263201321908" flag="0"/>
			<psa03 value="0.0140138332955757" flag="0"/>
			<psa10 value="0.00350640540715091" flag="0"/>
			<psa30 value="0.00100800948401649" flag="0"/>
		</comp>
		<comp name=".HNZ" depth="0.0">
			<acc value="0.0051988138488174" flag="0"/>
			<vel value="0.00292449522546" flag="0"/>
			<psa03 value="0.00861432391189801" flag="0"/>
			<psa10 value="0.00321721484344419" flag="0"/>
			<psa30 value="0.000924652712036672" flag="0"/>
		</comp>
	</station>
	<station code="G0LD" name="G0LD" netid="HC" source="Seismological Network of Crete (HC)" insttype="" lat="35.4955" lon="24.0306">
		<comp name=".HNE" depth="0.0">
			<acc value="0.0041159372805804" flag="0"/>
			<vel value="0.0030745160626" flag="0"/>
			<psa03 value="0.00178009774044732" flag="0"/>
			<psa10 value="0.00184083804023725" flag="0"/>
			<psa30 value="0.00150496865512011" flag="0"/>
		</comp>
		<comp name=".HNN" depth="0.0">
			<acc value="0.0028246231109514" flag="0"/>
			<vel value="0.00237984050179" flag="0"/>
			<psa03 value="0.00170405657028021" flag="0"/>
			<psa10 value="0.00191162011201277" flag="0"/>
			<psa30 value="0.00136341188184629" flag="0"/>
		</comp>
		<comp name=".HNZ" depth="0.0">
			<acc value="0.004142813380869" flag="0"/>
			<vel value="0.00464692759421" flag="0"/>
			<psa03 value="0.00191738141164045" flag="0"/>
			<psa10 value="0.00174607324690695" flag="0"/>
			<psa30 value="0.00188625120488526" flag="0"/>
		</comp>
	</station>
	<station code="PASK" name="PASK" netid="HC" source="Seismological Network of Crete (HC)" insttype="" lat="35.4996" lon="24.0121">
		<comp name=".HNE" depth="0.0">
			<acc value="0.0054254401852224" flag="0"/>
			<vel value="0.00522208175821" flag="0"/>
			<psa03 value="0.0130086924911831" flag="0"/>
			<psa10 value="0.00680787473827822" flag="0"/>
			<psa30 value="0.00136401223411696" flag="0"/>
		</comp>
		<comp name=".HNN" depth="0.0">
			<acc value="0.0068864104752678" flag="0"/>
			<vel value="0.00470313257551" flag="0"/>
			<psa03 value="0.0185432609521048" flag="0"/>
			<psa10 value="0.0062071093155442" flag="0"/>
			<psa30 value="0.00145904352947532" flag="0"/>
		</comp>
		<comp name=".HNZ" depth="0.0">
			<acc value="0.0048794842823592" flag="0"/>
			<vel value="0.00301679693472" flag="0"/>
			<psa03 value="0.0130043679859535" flag="0"/>
			<psa10 value="0.00458241168728067" flag="0"/>
			<psa30 value="0.000940706067160069" flag="0"/>
		</comp>
	</station>
	<station code="POLY" name="POLY" netid="HC" source="Seismological Network of Crete (HC)" insttype="" lat="35.5226" lon="24.0602">
		<comp name=".HNE" depth="0.0">
			<acc value="0.0011304353925336" flag="0"/>
			<vel value="0.00158196527958" flag="0"/>
			<psa03 value="0.001430954494235" flag="0"/>
			<psa10 value="0.00121696171149122" flag="0"/>
			<psa30 value="0.000732955585958581" flag="0"/>
		</comp>
		<comp name=".HNN" depth="0.0">
			<acc value="0.001182983941815" flag="0"/>
			<vel value="0.00216863111512" flag="0"/>
			<psa03 value="0.00255460135871058" flag="0"/>
			<psa10 value="0.00131110536992206" flag="0"/>
			<psa30 value="0.00142956209730666" flag="0"/>
		</comp>
		<comp name=".HNZ" depth="0.0">
			<acc value="0.0012395125927044" flag="0"/>
			<vel value="0.00122250250053" flag="0"/>
			<psa03 value="0.00174486803034852" flag="0"/>
			<psa10 value="0.00101708847086878" flag="0"/>
			<psa30 value="0.000890956521495" flag="0"/>
		</comp>
	</station>
	<station code="ARK1" name="ARK1" netid="HI" source="ITSAK Strong Motion Network" insttype="" lat="35.148777" lon="25.264194">
		<comp name=".HNE" depth="0.0">
			<acc value="0.0097074356991336" flag="0"/>
			<vel value="0.00804859946403" flag="0"/>
			<psa03 value="0.0226774163300492" flag="0"/>
			<psa10 value="0.0093660007640679" flag="0"/>
			<psa30 value="0.00164266736031931" flag="0"/>
		</comp>
		<comp name=".HNN" depth="0.0">
			<acc value="0.010480824051246" flag="0"/>
			<vel value="0.00642559582835" flag="0"/>
			<psa03 value="0.0185179025014126" flag="0"/>
			<psa10 value="0.00752737677675083" flag="0"/>
			<psa30 value="0.000985722903469385" flag="0"/>
		</comp>
		<comp name=".HNZ" depth="0.0">
			<acc value="0.0063416503127334" flag="0"/>
			<vel value="0.00419882419182" flag="0"/>
			<psa03 value="0.0121867734597767" flag="0"/>
			<psa10 value="0.00683969840895011" flag="0"/>
			<psa30 value="0.000714270806520128" flag="0"/>
		</comp>
	</station>
	<station code="CH01" name="CH01" netid="HI" source="ITSAK Strong Motion Network" insttype="" lat="35.517" lon="24.0208">
		<comp name=".HNE" depth="0.0">
			<acc value="0.006365375902251" flag="0"/>
			<vel value="0.00314887437933" flag="0"/>
			<psa03 value="0.0135515487652567" flag="0"/>
			<psa10 value="0.00616306499154269" flag="0"/>
			<psa30 value="0.000587016855737037" flag="0"/>
		</comp>
		<comp name=".HNN" depth="0.0">
			<acc value="0.0082663073025222" flag="0"/>
			<vel value="0.00240116103865" flag="0"/>
			<psa03 value="0.0116617725351891" flag="0"/>
			<psa10 value="0.00478867488246099" flag="0"/>
			<psa30 value="0.000652597241782686" flag="0"/>
		</comp>
		<comp name=".HNZ" depth="0.0">
			<acc value="0.0075777283360092" flag="0"/>
			<vel value="0.00165104318891" flag="0"/>
			<psa03 value="0.00441706637199033" flag="0"/>
			<psa10 value="0.00264885859888298" flag="0"/>
			<psa30 value="0.000585671818716272" flag="0"/>
		</comp>
	</station>
	<station code="CH02" name="CH02" netid="HI" source="ITSAK Strong Motion Network" insttype="" lat="35.5145" lon="24.0315">
		<comp name=".HNE" depth="0.0">
			<acc value="0.0057221823625986" flag="0"/>
			<vel value="0.00306937277501" flag="0"/>
			<psa03 value="0.0127046137537433" flag="0"/>
			<psa10 value="0.00462282577076527" flag="0"/>
			<psa30 value="0.00059325190419538" flag="0"/>
		</comp>
		<comp name=".HNN" depth="0.0">
			<acc value="0.0089931661238232" flag="0"/>
			<vel value="0.00296239099455" flag="0"/>
			<psa03 value="0.017025153874569" flag="0"/>
			<psa10 value="0.00298294455856424" flag="0"/>
			<psa30 value="0.000619093616078678" flag="0"/>
		</comp>
		<comp name=".HNZ" depth="0.0">
			<acc value="0.0042774769223262" flag="0"/>
			<vel value="0.00184268942869" flag="0"/>
			<psa03 value="0.00645347243275171" flag="0"/>
			<psa10 value="0.00383677955843997" flag="0"/>
			<psa30 value="0.000526926468790919" flag="0"/>
		</comp>
	</station>
	<station code="CH03" name="CH03" netid="HI" source="ITSAK Strong Motion Network" insttype="" lat="35.53303" lon="24.0705">
		<comp name=".HNE" depth="0.0">
			<acc value="0.004558326894516" flag="0"/>
			<vel value="0.00241753642765" flag="0"/>
			<psa03 value="0.0127653300154494" flag="0"/>
			<psa10 value="0.00264633819754297" flag="0"/>
			<psa30 value="0.000488655235592985" flag="0"/>
		</comp>
		<comp name=".HNN" depth="0.0">
			<acc value="0.0050572028014644" flag="0"/>
			<vel value="0.0023449479935" flag="0"/>
			<psa03 value="0.0127275853275768" flag="0"/>
			<psa10 value="0.00385087463279435" flag="0"/>
			<psa30 value="0.000394791283193446" flag="0"/>
		</comp>
		<comp name=".HNZ" depth="0.0">
			<acc value="0.0036418982844432" flag="0"/>
			<vel value="0.00200224098503" flag="0"/>
			<psa03 value="0.00648540163124673" flag="0"/>
			<psa10 value="0.00116874429857487" flag="0"/>
			<psa30 value="0.000320974153587339" flag="0"/>
		</comp>
	</station>
	<station code="GOR1" name="GOR1" netid="HI" source="ITSAK Strong Motion Network" insttype="" lat="35.0582" lon="24.9628">
		<comp name=".HNE" depth="0.0">
			<acc value="0.0032784520985718" flag="0"/>
			<vel value="0.00313810885757" flag="0"/>
			<psa03 value="0.0108887454144959" flag="0"/>
			<psa10 value="0.00565067464194884" flag="0"/>
			<psa30 value="0.000827588156986108" flag="0"/>
		</comp>
		<comp name=".HNN" depth="0.0">
			<acc value="0.0036327619476444" flag="0"/>
			<vel value="0.00302439130473" flag="0"/>
			<psa03 value="0.0092910673105083" flag="0"/>
			<psa10 value="0.00490540933427386" flag="0"/>
			<psa30 value="0.000841244478317993" flag="0"/>
		</comp>
		<comp name=".HNZ" depth="0.0">
			<acc value="0.0035614322368746" flag="0"/>
			<vel value="0.00292425622147" flag="0"/>
			<psa03 value="0.00789479773120632" flag="0"/>
			<psa10 value="0.00462258997388232" flag="0"/>
			<psa30 value="0.00047545967395223" flag="0"/>
		</comp>
	</station>
	<station code="HER3" name="HER3" netid="HI" source="ITSAK Strong Motion Network" insttype="" lat="35.3296" lon="25.1065">
		<comp name=".HNE" depth="0.0">
			<acc value="0.027975726500574" flag="0"/>
			<vel value="0.0138983414109" flag="0"/>
			<psa03 value="0.0568923052942765" flag="0"/>
			<psa10 value="0.0403634626312666" flag="0"/>
			<psa30 value="0.00190757074220161" flag="0"/>
		</comp>
		<comp name=".HNN" depth="0.0">
			<acc value="0.03277965911859" flag="0"/>
			<vel value="0.0156079603841" flag="0"/>
			<psa03 value="0.0694304327589445" flag="0"/>
			<psa10 value="0.0245150196247444" flag="0"/>
			<psa30 value="0.00103530733402981" flag="0"/>
		</comp>
		<comp name=".HNZ" depth="0.0">
			<acc value="0.0161904563229" flag="0"/>
			<vel value="0.00660429640051" flag="0"/>
			<psa03 value="0.0350817198251026" flag="0"/>
			<psa10 value="0.0159871403195856" flag="0"/>
			<psa30 value="0.000557257696839686" flag="0"/>
		</comp>
	</station>
	<station code="KIS1" name="KIS1" netid="HI" source="ITSAK Strong Motion Network" insttype="" lat="35.493933" lon="23.658993">
		<comp name=".HNE" depth="0.0">
			<acc value="0.0029827222021212" flag="0"/>
			<vel value="0.00256106159929" flag="0"/>
			<psa03 value="0.00570903835203282" flag="0"/>
			<psa10 value="0.00432326717648887" flag="0"/>
			<psa30 value="0.000546929148036958" flag="0"/>
		</comp>
		<comp name=".HNN" depth="0.0">
			<acc value="0.00344591564493" flag="0"/>
			<vel value="0.00246231017794" flag="0"/>
			<psa03 value="0.00497613563414119" flag="0"/>
			<psa10 value="0.00446154539924016" flag="0"/>
			<psa30 value="0.000558221041903352" flag="0"/>
		</comp>
		<comp name=".HNZ" depth="0.0">
			<acc value="0.0022754255769024" flag="0"/>
			<vel value="0.00169889085671" flag="0"/>
			<psa03 value="0.00440230400082788" flag="0"/>
			<psa10 value="0.00277822880964726" flag="0"/>
			<psa30 value="0.00042055556807567" flag="0"/>
		</comp>
	</station>
	<station code="KRL1" name="KRL1" netid="HI" source="ITSAK Strong Motion Network" insttype="" lat="37.7951" lon="26.7065">
		<comp name=".HNE" depth="0.0">
			<acc value="0.014846161227234" flag="0"/>
			<vel value="0.00662291218335" flag="0"/>
			<psa03 value="0.0203318351655549" flag="0"/>
			<psa10 value="0.00844022381090088" flag="0"/>
			<psa30 value="0.000722655528630616" flag="0"/>
		</comp>
		<comp name=".HNN" depth="0.0">
			<acc value="0.011176011263556" flag="0"/>
			<vel value="0.00494407109888" flag="0"/>
			<psa03 value="0.0188823693538774" flag="0"/>
			<psa10 value="0.0079160965900573" flag="0"/>
			<psa30 value="0.00051056465573632" flag="0"/>
		</comp>
		<comp name=".HNZ" depth="0.0">
			<acc value="0.0070216274876256" flag="0"/>
			<vel value="0.00231410827461" flag="0"/>
			<psa03 value="0.00960356457443324" flag="0"/>
			<psa10 value="0.00404686683506868" flag="0"/>
			<psa30 value="0.00038137195672873" flag="0"/>
		</comp>
	</station>
	<station code="KTL1" name="KTL1" netid="HI" source="ITSAK Strong Motion Network" insttype="" lat="35.20778" lon="25.34272">
		<comp name=".HNE" depth="0.0">
			<acc value="0.0071179904518524" flag="0"/>
			<vel value="0.00517893700969" flag="0"/>
			<psa03 value="0.0178308621966948" flag="0"/>
			<psa10 value="0.00577869359135657" flag="0"/>
			<psa30 value="0.00110994967455177" flag="0"/>
		</comp>
		<comp name=".HNN" depth="0.0">
			<acc value="0.011793045739368" flag="0"/>
			<vel value="0.00485279495558" flag="0"/>
			<psa03 value="0.020528005712953" flag="0"/>
			<psa10 value="0.00791870395028212" flag="0"/>
			<psa30 value="0.000633866157189431" flag="0"/>
		</comp>
		<comp name=".HNZ" depth="0.0">
			<acc value="0.003897785343243" flag="0"/>
			<vel value="0.0023981088469" flag="0"/>
			<psa03 value="0.00733440058160168" flag="0"/>
			<psa10 value="0.00322518552771281" flag="0"/>
			<psa30 value="0.000338863541796472" flag="0"/>
		</comp>
	</station>
	<station code="NAX1" name="NAX1" netid="HI" source="ITSAK Strong Motion Network" insttype="" lat="37.101394" lon="25.374103">
		<comp name=".HNE" depth="0.0">
			<acc value="0.1864038152037" flag="0"/>
			<vel value="0.0591138937158" flag="0"/>
			<psa03 value="0.237572925540285" flag="0"/>
			<psa10 value="0.0127227740713355" flag="0"/>
			<psa30 value="0.00114033585415545" flag="0"/>
		</comp>
		<comp name=".HNN" depth="0.0">
			<acc value="0.15796747475376" flag="0"/>
			<vel value="0.0350915412456" flag="0"/>
			<psa03 value="0.0947449951410099" flag="0"/>
			<psa10 value="0.00775401366533061" flag="0"/>
			<psa30 value="0.00137711049764605" flag="0"/>
		</comp>
		<comp name=".HNZ" depth="0.0">
			<acc value="0.079627292158488" flag="0"/>
			<vel value="0.0204976273463" flag="0"/>
			<psa03 value="0.0663855487585788" flag="0"/>
			<psa10 value="0.00992297922367305" flag="0"/>
			<psa30 value="0.00146465775555313" flag="0"/>
		</comp>
	</station>
	<station code="RTH1" name="RTH1" netid="HI" source="ITSAK Strong Motion Network" insttype="" lat="35.365393" lon="24.471773">
		<comp name=".HNE" depth="0.0">
			<acc value="0.0039421637772252" flag="0"/>
			<vel value="0.00179846134841" flag="0"/>
			<psa03 value="0.00879431239773438" flag="0"/>
			<psa10 value="0.0023665502098376" flag="0"/>
			<psa30 value="0.000674423896024902" flag="0"/>
		</comp>
		<comp name=".HNN" depth="0.0">
			<acc value="0.0044125885678476" flag="0"/>
			<vel value="0.00217754134811" flag="0"/>
			<psa03 value="0.0090320827061348" flag="0"/>
			<psa10 value="0.00161461883557397" flag="0"/>
			<psa30 value="0.000570728120437228" flag="0"/>
		</comp>
		<comp name=".HNZ" depth="0.0">
			<acc value="0.0042681766266984" flag="0"/>
			<vel value="0.00127853009451" flag="0"/>
			<psa03 value="0.0062161728586731" flag="0"/>
			<psa10 value="0.00181986946366922" flag="0"/>
			<psa30 value="0.000474316785742179" flag="0"/>
		</comp>
	</station>
	<station code="SFR2" name="SFR2" netid="HI" source="ITSAK Strong Motion Network" insttype="" lat="36.399841" lon="25.438209">
		<comp name=".HNE" depth="0.0">
			<acc value="0.21908720884848" flag="0"/>
			<vel value="0.0660187311518" flag="0"/>
			<psa03 value="0.336824167114851" flag="0"/>
			<psa10 value="0.0576756632297191" flag="0"/>
			<psa30 value="0.00564474310318868" flag="0"/>
		</comp>
		<comp name=".HNN" depth="0.0">
			<acc value="0.24432007178586" flag="0"/>
			<vel value="0.0803126542246" flag="0"/>
			<psa03 value="0.435206538630799" flag="0"/>
			<psa10 value="0.0913642949363398" flag="0"/>
			<psa30 value="0.0043696052982396" flag="0"/>
		</comp>
		<comp name=".HNZ" depth="0.0">
			<acc value="0.31284304904832" flag="0"/>
			<vel value="0.0720467638085" flag="0"/>
			<psa03 value="0.244509926749494" flag="0"/>
			<psa10 value="0.0330060827409911" flag="0"/>
			<psa30 value="0.00361388023516492" flag="0"/>
		</comp>
	</station>
	<station code="AMGA" name="AMGA" netid="HL" source="National Observatory of Athens Seismic Network" insttype="" lat="36.831561" lon="25.893836">
		<comp name="00.HNE" depth="0.0">
			<acc value="0.26124228198396" flag="0"/>
			<vel value="0.0543493785729" flag="0"/>
			<psa03 value="0.121321505704211" flag="0"/>
			<psa10 value="0.0126137177843884" flag="0"/>
			<psa30 value="0.00306711963995531" flag="0"/>
		</comp>
		<comp name="00.HNN" depth="0.0">
			<acc value="0.23073419252442" flag="0"/>
			<vel value="0.0459402839033" flag="0"/>
			<psa03 value="0.107241489639247" flag="0"/>
			<psa10 value="0.0155670628040161" flag="0"/>
			<psa30 value="0.00191495310624558" flag="0"/>
		</comp>
		<comp name="00.HNZ" depth="0.0">
			<acc value="0.24810857208444" flag="0"/>
			<vel value="0.0515182023336" flag="0"/>
			<psa03 value="0.126809390083035" flag="0"/>
			<psa10 value="0.0204907705380006" flag="0"/>
			<psa30 value="0.00266292036373834" flag="0"/>
		</comp>
	</station>
	<station code="ANAF" name="ANAF" netid="HL" source="National Observatory of Athens Seismic Network" insttype="" lat="36.35675" lon="25.77262">
		<comp name=".HNE" depth="0.0">
			<acc value="1.2397549809042" flag="0"/>
			<vel value="0.232594606688" flag="0"/>
			<psa03 value="0.888275093867002" flag="0"/>
			<psa10 value="0.0575090621930357" flag="0"/>
			<psa30 value="0.00531699680827873" flag="0"/>
		</comp>
		<comp name=".HNN" depth="0.0">
			<acc value="1.7102981905074" flag="0"/>
			<vel value="0.427674937113" flag="0"/>
			<psa03 value="0.953275566494933" flag="0"/>
			<psa10 value="0.0682722226998768" flag="0"/>
			<psa30 value="0.00820569358694887" flag="0"/>
		</comp>
		<comp name=".HNZ" depth="0.0">
			<acc value="0.90841178677206" flag="0"/>
			<vel value="0.194832938157" flag="0"/>
			<psa03 value="0.459795084166387" flag="0"/>
			<psa10 value="0.0435121262148717" flag="0"/>
			<psa30 value="0.00697537041739162" flag="0"/>
		</comp>
	</station>
	<station code="CHNB" name="CHNB" netid="HL" source="National Observatory of Athens Seismic Network" insttype="" lat="35.48765" lon="24.06605">
		<comp name="00.HNE" depth="0.0">
			<acc value="0.012700753488324" flag="0"/>
			<vel value="0.0074891894316" flag="0"/>
			<psa03 value="0.0218238610882686" flag="0"/>
			<psa10 value="0.0100528625153146" flag="0"/>
			<psa30 value="0.000583999260000434" flag="0"/>
		</comp>
		<comp name="00.HNN" depth="0.0">
			<acc value="0.011494122857082" flag="0"/>
			<vel value="0.00793841555304" flag="0"/>
			<psa03 value="0.024494156471819" flag="0"/>
			<psa10 value="0.0130207219339322" flag="0"/>
			<psa30 value="0.000827196985242663" flag="0"/>
		</comp>
		<comp name="00.HNZ" depth="0.0">
			<acc value="0.0092701546000968" flag="0"/>
			<vel value="0.00400391234684" flag="0"/>
			<psa03 value="0.0156822680399486" flag="0"/>
			<psa10 value="0.00228040723766449" flag="0"/>
			<psa30 value="0.000413878328866317" flag="0"/>
		</comp>
	</station>
	<station code="HERG" name="HERG" netid="HL" source="National Observatory of Athens Seismic Network" insttype="" lat="35.32622" lon="25.06586">
		<comp name="00.HNE" depth="0.0">
			<acc value="0.011832579335418" flag="0"/>
			<vel value="0.0116762414339" flag="0"/>
			<psa03 value="0.0212342647387463" flag="0"/>
			<psa10 value="0.0183684299433375" flag="0"/>
			<psa30 value="0.00196816100600604" flag="0"/>
		</comp>
