<?xml version="1.0" encoding="UTF-8" standalone="yes"?>
<!DOCTYPE earthquake SYSTEM "stationlist.dtd">
<stationlist created="" xmlns="ch.ethz.sed.shakemap.usgs.xml">
  <station code="BNN" name="BNN" netid="KO" insttype="CMG-3T" lat="38.8521" lon="35.8472">
    <comp name="--.HHE">
      <acc value="0.0132498454" flag="0"/>
      <vel value="0.0065072413" flag="0"/>
      <psa03 value="0.0247645029" flag="0"/>
      <psa10 value="0.0098488818" flag="0"/>
      <psa30 value="0.0006839974" flag="0"/>
    </comp>
    <comp name="--.HHZ">
      <acc value="0.0125431648" flag="0"/>
      <vel value="0.0084354878" flag="0"/>
      <psa03 value="0.0360503734" flag="0"/>
      <psa10 value="0.0040337234" flag="0"/>
      <psa30 value="0.0004601815" flag="0"/>
    </comp>
    <comp name="--.HHN">
      <acc value="0.0109347763" flag="0"/>
      <vel value="0.0056195635" flag="0"/>
      <psa03 value="0.0254433808" flag="0"/>
      <psa10 value="0.0052177653" flag="0"/>
      <psa30 value="0.0007562388" flag="0"/>
    </comp>
  </station>
  <station code="DARE" name="DARE" netid="KO" insttype="CMG-3ESP" lat="38.5712" lon="37.4832">
    <comp name="--.HHE">
      <acc value="0.0062381577" flag="0"/>
      <vel value="0.0022054410" flag="0"/>
      <psa03 value="0.0128119921" flag="0"/>
      <psa10 value="0.0008384030" flag="0"/>
      <psa30 value="0.0000781629" flag="0"/>
    </comp>
    <comp name="--.HHZ">
      <acc value="0.0166970838" flag="0"/>
      <vel value="0.0092917134" flag="0"/>
      <psa03 value="0.0427872876" flag="0"/>
      <psa10 value="0.0091706600" flag="0"/>
      <psa30 value="0.0006068385" flag="0"/>
    </comp>
    <comp name="--.HHN">
      <acc value="0.0169232705" flag="0"/>
      <vel value="0.0092882780" flag="0"/>
      <psa03 value="0.0452551567" flag="0"/>
      <psa10 value="0.0126937354" flag="0"/>
      <psa30 value="0.0005421352" flag="0"/>
    </comp>
  </station>
  <station code="GAZ" name="GAZ" netid="KO" insttype="CMG-3T" lat="37.1721" lon="37.2096">
    <comp name="--.HHN">
      <acc value="0.0415437556" flag="0"/>
      <vel value="0.0160729098" flag="0"/>
      <psa03 value="0.0663181702" flag="0"/>
      <psa10 value="0.0112035939" flag="0"/>
      <psa30 value="0.0007201843" flag="0"/>
    </comp>
    <comp name="--.HHE">
      <acc value="0.0642830903" flag="0"/>
      <vel value="0.0199831745" flag="0"/>
      <psa03 value="0.0998149998" flag="0"/>
      <psa10 value="0.0104575052" flag="0"/>
      <psa30 value="0.0009795201" flag="0"/>
    </comp>
  </station>
  <station code="SARI" name="SARI" netid="KO" insttype="CMG-3T" lat="38.4072" lon="36.4181">
    <comp name="--.HHE">
      <acc value="0.2028905048" flag="0"/>
      <vel value="0.0370256543" flag="0"/>
      <psa03 value="0.2669358692" flag="0"/>
      <psa10 value="0.0314830834" flag="0"/>
      <psa30 value="0.0018851313" flag="0"/>
    </comp>
    <comp name="--.HHZ">
      <acc value="0.1093836116" flag="0"/>
      <vel value="0.0250900193" flag="0"/>
      <psa03 value="0.0927879077" flag="0"/>
      <psa10 value="0.0195625866" flag="0"/>
      <psa30 value="0.0015098685" flag="0"/>
    </comp>
    <comp name="--.HHN">
      <acc value="0.2154210857" flag="0"/>
      <vel value="0.0377843781" flag="0"/>
      <psa03 value="0.1711707544" flag="0"/>
      <psa10 value="0.0250514326" flag="0"/>
      <psa30 value="0.0016396280" flag="0"/>
    </comp>
  </station>
  <station code="ANDN" name="ANDN" netid="TU" insttype="T" lat="37.58" lon="36.3452">
    <comp name="--.HHE">
      <acc value="0.2283792640" flag="0"/>
      <vel value="0.1223011237" flag="0"/>
      <psa03 value="0.6061385828" flag="0"/>
      <psa10 value="0.1191447495" flag="0"/>
      <psa30 value="0.0049907966" flag="0"/>
    </comp>
    <comp name="--.HHZ">
      <acc value="0.1160069989" flag="0"/>
      <vel value="0.0801982085" flag="0"/>
      <psa03 value="0.3866155162" flag="0"/>
      <psa10 value="0.0651369132" flag="0"/>
      <psa30 value="0.0044758615" flag="0"/>
    </comp>
    <comp name="--.HHN">
      <acc value="0.3279712059" flag="0"/>
      <vel value="0.1064464161" flag="0"/>
      <psa03 value="0.4270432692" flag="0"/>
      <psa10 value="0.1189212847" flag="0"/>
      <psa30 value="0.0047431404" flag="0"/>
    </comp>
  </station>
</stationlist>
