<?xml version="1.0" encoding="UTF-8" standalone="yes"?>
<!DOCTYPE earthquake SYSTEM "stationlist.dtd">
<stationlist created="" xmlns="ch.ethz.sed.shakemap.usgs.xml">
  <station code="BNN" name="BNN" netid="KO" insttype="CMG-3T" lat="38.8521" lon="35.8472">
    <comp name="--.HHE">
      <acc value="0.0132498453" flag="0"/>
      <vel value="0.0065072411" flag="0"/>
      <psa03 value="0.0247645029" flag="0"/>
      <psa10 value="0.0098488818" flag="0"/>
      <psa30 value="0.0006840429" flag="0"/>
    </comp>
    <comp name="--.HHZ">
      <acc value="0.0125431648" flag="0"/>
      <vel value="0.0084354863" flag="0"/>
      <psa03 value="0.0360503734" flag="0"/>
      <psa10 value="0.0040337234" flag="0"/>
      <psa30 value="0.0004602100" flag="0"/>
    </comp>
    <comp name="--.HHN">
      <acc value="0.0109347764" flag="0"/>
      <vel value="0.0056195631" flag="0"/>
      <psa03 value="0.0254433808" flag="0"/>
      <psa10 value="0.0052177654" flag="0"/>
      <psa30 value="0.0007561973" flag="0"/>
    </comp>
  </station>
  <station code="DARE" name="DARE" netid="KO" insttype="CMG-3ESP" lat="38.5712" lon="37.4832">
    <comp name="--.HHZ">
      <acc value="0.0166970838" flag="0"/>
      <vel value="0.0092917152" flag="0"/>
      <psa03 value="0.0427872876" flag="0"/>
      <psa10 value="0.0091706600" flag="0"/>
      <psa30 value="0.0006068479" flag="0"/>
    </comp>
    <comp name="--.HHN">
      <acc value="0.0169232705" flag="0"/>
      <vel value="0.0092882777" flag="0"/>
      <psa03 value="0.0452551567" flag="0"/>
      <psa10 value="0.0126937353" flag="0"/>
      <psa30 value="0.0005421408" flag="0"/>
    </comp>
    <comp name="--.HHE">
      <acc value="0.0062381576" flag="0"/>
      <vel value="0.0022054509" flag="0"/>
      <psa03 value="0.0128119921" flag="0"/>
      <psa10 value="0.0008384026" flag="0"/>
      <psa30 value="0.0000781445" flag="0"/>
    </comp>
  </station>
  <station code="GAZ" name="GAZ" netid="KO" insttype="CMG-3T" lat="37.1721" lon="37.2096">
    <comp name="--.HHE">
      <acc value="0.0642830903" flag="0"/>
      <vel value="0.0199831744" flag="0"/>
      <psa03 value="0.0998149998" flag="0"/>
      <psa10 value="0.0104575052" flag="0"/>
      <psa30 value="0.0009795260" flag="0"/>
    </comp>
    <comp name="--.HHN">
      <acc value="0.0415437555" flag="0"/>
      <vel value="0.0160729095" flag="0"/>
      <psa03 value="0.0663181702" flag="0"/>
      <psa10 value="0.0112035939" flag="0"/>
      <psa30 value="0.0007202086" flag="0"/>
    </comp>
  </station>
  <station code="SARI" name="SARI" netid="KO" insttype="CMG-3T" lat="38.4072" lon="36.4181">
    <comp name="--.HHE">
      <acc value="0.2028905047" flag="0"/>
      <vel value="0.0370256541" flag="0"/>
      <psa03 value="0.2669358692" flag="0"/>
      <psa10 value="0.0314830830" flag="0"/>
      <psa30 value="0.0018852029" flag="0"/>
    </comp>
    <comp name="--.HHZ">
      <acc value="0.1093836116" flag="0"/>
      <vel value="0.0250900194" flag="0"/>
      <psa03 value="0.0927879077" flag="0"/>
      <psa10 value="0.0195625867" flag="0"/>
      <psa30 value="0.0015099062" flag="0"/>
    </comp>
    <comp name="--.HHN">
      <acc value="0.2154210857" flag="0"/>
      <vel value="0.0377843785" flag="0"/>
      <psa03 value="0.1711707544" flag="0"/>
      <psa10 value="0.0250514325" flag="0"/>
      <psa30 value="0.0016396305" flag="0"/>
    </comp>
  </station>
  <station code="ANDN" name="ANDN" netid="TU" insttype="T" lat="37.58" lon="36.3452">
    <comp name="--.HHE">
      <acc value="0.2283792641" flag="0"/>
      <vel value="0.1223011242" flag="0"/>
      <psa03 value="0.6061385828" flag="0"/>
      <psa10 value="0.1191447497" flag="0"/>
      <psa30 value="0.0049909349" flag="0"/>
    </comp>
    <comp name="--.HHZ">
      <acc value="0.1160069994" flag="0"/>
      <vel value="0.0801982093" flag="0"/>
      <psa03 value="0.3866155162" flag="0"/>
      <psa10 value="0.0651369132" flag="0"/>
      <psa30 value="0.0044761269" flag="0"/>
    </comp>
    <comp name="--.HHN">
      <acc value="0.3279712057" flag="0"/>
      <vel value="0.1064464181" flag="0"/>
      <psa03 value="0.4270432692" flag="0"/>
      <psa10 value="0.1189212848" flag="0"/>
      <psa30 value="0.0047431187" flag="0"/>
    </comp>
  </station>
</stationlist>
