<?xml version="1.0" encoding="UTF-8" standalone="yes"?>
<!DOCTYPE earthquake SYSTEM "stationlist.dtd">
<stationlist created="" xmlns="ch.ethz.sed.shakemap.usgs.xml">
  <station code="DARE" name="DARE" netid="KO" insttype="CMG-3ESP" lat="38.5712" lon="37.4832">
    <comp name="--.HHE">
      <acc value="0.0281774463" flag="0"/>
      <vel value="0.0084780670" flag="0"/>
      <psa03 value="0.0359877585" flag="0"/>
      <psa10 value="0.0132893270" flag="0"/>
      <psa30 value="0.0010075228" flag="0"/>
    </comp>
    <comp name="--.HHZ">
      <acc value="0.0261664493" flag="0"/>
      <vel value="0.0088845512" flag="0"/>
      <psa03 value="0.0391145846" flag="0"/>
      <psa10 value="0.0078043231" flag="0"/>
      <psa30 value="0.0011556966" flag="0"/>
    </comp>
    <comp name="--.HHN">
      <acc value="0.0215440393" flag="0"/>
      <vel value="0.0085161860" flag="0"/>
      <psa03 value="0.0323462830" flag="0"/>
      <psa10 value="0.0072215159" flag="0"/>
      <psa30 value="0.0009846243" flag="0"/>
    </comp>
  </station>
  <station code="GAZ" name="GAZ" netid="KO" insttype="CMG-3T" lat="37.1721" lon="37.2096">
    <comp name="--.HHN">
      <acc value="0.0096533687" flag="0"/>
      <vel value="0.0024656872" flag="0"/>
      <psa03 value="0.0144522566" flag="0"/>
      <psa10 value="0.0017330640" flag="0"/>
      <psa30 value="0.0006627436" flag="0"/>
    </comp>
    <comp name="--.HHE">
      <acc value="0.0089853750" flag="0"/>
      <vel value="0.0033699643" flag="0"/>
      <psa03 value="0.0199639843" flag="0"/>
      <psa10 value="0.0040656109" flag="0"/>
      <psa30 value="0.0012604346" flag="0"/>
    </comp>
    <comp name="--.HHZ">
      <acc value="0.0057368067" flag="0"/>
      <vel value="0.0024107861" flag="0"/>
      <psa03 value="0.0131337845" flag="0"/>
      <psa10 value="0.0019215064" flag="0"/>
      <psa30 value="0.0008290989" flag="0"/>
    </comp>
  </station>
  <station code="KMRS" name="KMRS" netid="KO" insttype="CMG-3T" lat="37.5053" lon="36.9">
    <comp name="--.HHE">
      <acc value="0.0074675542" flag="0"/>
      <vel value="0.0028448857" flag="0"/>
      <psa03 value="0.0172782998" flag="0"/>
      <psa10 value="0.0030980050" flag="0"/>
      <psa30 value="0.0004382010" flag="0"/>
    </comp>
    <comp name="--.HHN">
      <acc value="0.0093919254" flag="0"/>
      <vel value="0.0041113533" flag="0"/>
      <psa03 value="0.0263868275" flag="0"/>
      <psa10 value="0.0048357704" flag="0"/>
      <psa30 value="0.0010036301" flag="0"/>
    </comp>
    <comp name="--.HHZ">
      <acc value="0.0101108191" flag="0"/>
      <vel value="0.0031268999" flag="0"/>
      <psa03 value="0.0250368614" flag="0"/>
      <psa10 value="0.0034299001" flag="0"/>
      <psa30 value="0.0006218242" flag="0"/>
    </comp>
  </station>
  <station code="SARI" name="SARI" netid="KO" insttype="CMG-3T" lat="38.4072" lon="36.4181">
    <comp name="--.HHE">
      <acc value="0.0153382545" flag="0"/>
      <vel value="0.0059607296" flag="0"/>
      <psa03 value="0.0395051067" flag="0"/>
      <psa10 value="0.0044549654" flag="0"/>
      <psa30 value="0.0003732551" flag="0"/>
    </comp>
    <comp name="--.HHN">
      <acc value="0.0096410519" flag="0"/>
      <vel value="0.0056635862" flag="0"/>
      <psa03 value="0.0317187562" flag="0"/>
      <psa10 value="0.0038851783" flag="0"/>
      <psa30 value="0.0004531865" flag="0"/>
    </comp>
    <comp name="--.HHZ">
      <acc value="0.0065685601" flag="0"/>
      <vel value="0.0027622601" flag="0"/>
      <psa03 value="0.0153038906" flag="0"/>
      <psa10 value="0.0040480827" flag="0"/>
      <psa30 value="0.0003565391" flag="0"/>
    </comp>
  </station>
  <station code="URFA" name="URFA" netid="KO" insttype="CMG-3ESP" lat="37.4409" lon="38.8213">
    <comp name="--.HHE">
      <acc value="0.0126819393" flag="0"/>
      <vel value="0.0052072169" flag="0"/>
      <psa03 value="0.0187695729" flag="0"/>
      <psa10 value="0.0067349670" flag="0"/>
      <psa30 value="0.0007650011" flag="0"/>
    </comp>
    <comp name="--.HHN">
      <acc value="0.0184905878" flag="0"/>
      <vel value="0.0066072349" flag="0"/>
      <psa03 value="0.0291676031" flag="0"/>
      <psa10 value="0.0067350766" flag="0"/>
      <psa30 value="0.0008665150" flag="0"/>
    </comp>
    <comp name="--.HHZ">
      <acc value="0.0100592509" flag="0"/>
      <vel value="0.0044659261" flag="0"/>
      <psa03 value="0.0151252517" flag="0"/>
      <psa10 value="0.0063146579" flag="0"/>
      <psa30 value="0.0003832386" flag="0"/>
    </comp>
  </station>
</stationlist>
