<stationlist created="1778069772">
	<station code="IACM" name="IACM" netid="HL" source="National Observatory of Athens Seismic Network" insttype="" lat="35.3058" lon="25.0709">
		<comp name="--.HNE" depth="0.0">
			<acc value="0.0323837162517229" flag="0"/>
			<vel value="0.0203110867173125" flag="0"/>
			<psa03 value="0.121967255241409" flag="0"/>
			<psa10 value="0.0354036132529061" flag="0"/>
			<psa30 value="0.00194583856582864" flag="0"/>
		</comp>
		<comp name="--.HNN" depth="0.0">
			<acc value="0.0349784310179918" flag="0"/>
			<vel value="0.0231095638332973" flag="0"/>
			<psa03 value="0.11131861006626" flag="0"/>
			<psa10 value="0.0306117229240892" flag="0"/>
			<psa30 value="0.0015583710565144" flag="0"/>
		</comp>
		<comp name="--.HNZ" depth="0.0">
			<acc value="0.0315535428294026" flag="0"/>
			<vel value="0.0134700754272031" flag="0"/>
			<psa03 value="0.0486347785940614" flag="0"/>
			<psa10 value="0.0159259884457738" flag="0"/>
			<psa30 value="0.0010563634982574" flag="0"/>
		</comp>
	</station>
	<station code="SIVA" name="SIVA" netid="HL" source="National Observatory of Athens Seismic Network" insttype="" lat="35.01777" lon="24.81204">
		<comp name="00.HNE" depth="0.0">
			<acc value="0.00667358319336484" flag="0"/>
			<vel value="0.00554869729995147" flag="0"/>
			<psa03 value="0.0217447124164801" flag="0"/>
			<psa10 value="0.00726031786794696" flag="0"/>
			<psa30 value="0.000666658878612249" flag="0"/>
		</comp>
		<comp name="00.HNN" depth="0.0">
			<acc value="0.00760788304481879" flag="0"/>
			<vel value="0.00630068229651962" flag="0"/>
			<psa03 value="0.0206261572510233" flag="0"/>
			<psa10 value="0.00916499360368678" flag="0"/>
			<psa30 value="0.00107783975743417" flag="0"/>
		</comp>
		<comp name="00.HNZ" depth="0.0">
			<acc value="0.00426922315012599" flag="0"/>
			<vel value="0.00333464880023078" flag="0"/>
			<psa03 value="0.0122593646134065" flag="0"/>
			<psa10 value="0.00307647412707237" flag="0"/>
			<psa30 value="0.000417444787748475" flag="0"/>
		</comp>
	</station>
</stationlist>
