<?xml version="1.0" encoding="UTF-8" standalone="yes"?>
<!DOCTYPE earthquake SYSTEM "stationlist.dtd">
<stationlist created="" xmlns="ch.ethz.sed.shakemap.usgs.xml">
  <station code="STIA" name="STIA" netid="HC" insttype="120" lat="35.2021" lon="26.0909">
    <comp name="--.HHZ">
      <acc value="0.2574516826" flag="0"/>
      <vel value="0.0667480050" flag="0"/>
      <psa03 value="0.4725471654" flag="0"/>
      <psa10 value="0.0262127038" flag="0"/>
      <psa30 value="0.0020329345" flag="0"/>
    </comp>
    <comp name="--.HHE">
      <acc value="0.2512273028" flag="0"/>
      <vel value="0.0969855238" flag="0"/>
      <psa03 value="0.3904903346" flag="0"/>
      <psa10 value="0.0468323284" flag="0"/>
      <psa30 value="0.0039429789" flag="0"/>
    </comp>
    <comp name="--.HHN">
      <acc value="0.2684357864" flag="0"/>
      <vel value="0.0948995412" flag="0"/>
      <psa03 value="0.5661251232" flag="0"/>
      <psa10 value="0.0419691673" flag="0"/>
      <psa30 value="0.0024264940" flag="0"/>
    </comp>
  </station>
  <station code="KARP" name="KARP" netid="HL" insttype="120" lat="35.5471" lon="27.1611">
    <comp name="--.HHN">
      <acc value="0.0619049787" flag="0"/>
      <vel value="0.0194302117" flag="0"/>
      <psa03 value="0.1552109054" flag="0"/>
      <psa10 value="0.0119482896" flag="0"/>
      <psa30 value="0.0007699290" flag="0"/>
    </comp>
    <comp name="--.HHZ">
      <acc value="0.0471167369" flag="0"/>
      <vel value="0.0141821725" flag="0"/>
      <psa03 value="0.1475612311" flag="0"/>
      <psa10 value="0.0074100190" flag="0"/>
      <psa30 value="0.0008487178" flag="0"/>
    </comp>
    <comp name="--.HHE">
      <acc value="0.0579362426" flag="0"/>
      <vel value="0.0181385325" flag="0"/>
      <psa03 value="0.1133853955" flag="0"/>
      <psa10 value="0.0119829284" flag="0"/>
      <psa30 value="0.0008098143" flag="0"/>
    </comp>
  </station>
  <station code="NPS" name="NPS" netid="HL" insttype="CMG3ESPC-120s" lat="35.2613" lon="25.6104">
    <comp name="--.HHE">
      <acc value="0.0168482946" flag="0"/>
      <vel value="0.0075281222" flag="0"/>
      <psa03 value="0.0424236235" flag="0"/>
      <psa10 value="0.0055331708" flag="0"/>
      <psa30 value="0.0002629074" flag="0"/>
    </comp>
    <comp name="--.HHZ">
      <acc value="0.0306242560" flag="0"/>
      <vel value="0.0093557914" flag="0"/>
      <psa03 value="0.0512974877" flag="0"/>
      <psa10 value="0.0049423943" flag="0"/>
      <psa30 value="0.0003948304" flag="0"/>
    </comp>
    <comp name="--.HHN">
      <acc value="0.0305227537" flag="0"/>
      <vel value="0.0145825814" flag="0"/>
      <psa03 value="0.1058092425" flag="0"/>
      <psa10 value="0.0106296352" flag="0"/>
      <psa30 value="0.0006633007" flag="0"/>
    </comp>
  </station>
  <station code="ZKR" name="ZKR" netid="HL" insttype="120" lat="35.1147" lon="26.2169">
    <comp name="--.HHZ">
      <acc value="0.8068057040" flag="0"/>
      <vel value="0.2492098098" flag="0"/>
      <psa03 value="0.6590112126" flag="0"/>
      <psa10 value="0.0623447518" flag="0"/>
      <psa30 value="0.0045718704" flag="0"/>
    </comp>
    <comp name="--.HHE">
      <acc value="1.5866362493" flag="0"/>
      <vel value="0.7267210224" flag="0"/>
      <psa03 value="1.8360292983" flag="0"/>
      <psa10 value="0.3075162889" flag="0"/>
      <psa30 value="0.0197599401" flag="0"/>
    </comp>
    <comp name="--.HHN">
      <acc value="0.3868888326" flag="0"/>
      <vel value="0.1433010937" flag="0"/>
      <psa03 value="0.3342432273" flag="0"/>
      <psa10 value="0.0436740473" flag="0"/>
      <psa30 value="0.0034675103" flag="0"/>
    </comp>
  </station>
</stationlist>
