<?xml version="1.0" encoding="UTF-8" standalone="yes"?>
<!DOCTYPE earthquake SYSTEM "stationlist.dtd">
<stationlist created="" xmlns="ch.ethz.sed.shakemap.usgs.xml">
  <station code="ARR" name="ARR" netid="RO" insttype="w/attenuator" lat="45.3657" lon="24.6332">
    <comp name="--.HHE">
      <acc value="0.0045448972" flag="0"/>
      <vel value="0.0017605534" flag="0"/>
      <psa03 value="0.0128207506" flag="0"/>
      <psa10 value="0.0009716269" flag="0"/>
      <psa30 value="0.0000706953" flag="0"/>
    </comp>
    <comp name="--.HHZ">
      <acc value="0.0037765653" flag="0"/>
      <vel value="0.0015179464" flag="0"/>
      <psa03 value="0.0089516605" flag="0"/>
      <psa10 value="0.0006395695" flag="0"/>
      <psa30 value="0.0000452156" flag="0"/>
    </comp>
    <comp name="--.HHN">
      <acc value="0.0051411496" flag="0"/>
      <vel value="0.0022383107" flag="0"/>
      <psa03 value="0.0183687131" flag="0"/>
      <psa10 value="0.0013900605" flag="0"/>
      <psa30 value="0.0000795276" flag="0"/>
    </comp>
  </station>
  <station code="BAIL" name="BAIL" netid="RO" insttype="Seismometer/Basalt" lat="44.0201" lon="23.345">
    <comp name="--.HHE">
      <acc value="0.0297605977" flag="0"/>
      <vel value="0.0099313089" flag="0"/>
      <psa03 value="0.0394494574" flag="0"/>
      <psa10 value="0.0040757141" flag="0"/>
      <psa30 value="0.0003398740" flag="0"/>
    </comp>
    <comp name="--.HHN">
      <acc value="0.0303685658" flag="0"/>
      <vel value="0.0127127896" flag="0"/>
      <psa03 value="0.0967599158" flag="0"/>
      <psa10 value="0.0042339535" flag="0"/>
      <psa30 value="0.0005107193" flag="0"/>
    </comp>
  </station>
  <station code="CRAR" name="CRAR" netid="RO" insttype="MBB2/Quanterra" lat="44.325" lon="23.7999">
    <comp name="--.HHZ">
      <acc value="0.0470456299" flag="0"/>
      <vel value="0.0079159833" flag="0"/>
      <psa03 value="0.0246289104" flag="0"/>
      <psa10 value="0.0015014507" flag="0"/>
      <psa30 value="0.0001352934" flag="0"/>
    </comp>
    <comp name="--.HHE">
      <acc value="0.0404740080" flag="0"/>
      <vel value="0.0120717466" flag="0"/>
      <psa03 value="0.0724276064" flag="0"/>
      <psa10 value="0.0037285105" flag="0"/>
      <psa30 value="0.0003076684" flag="0"/>
    </comp>
  </station>
  <station code="CRBR" name="CRBR" netid="RO" insttype="200" lat="45.4108" lon="22.2383">
    <comp name="--.HNE">
      <acc value="0.0192088449" flag="0"/>
      <vel value="0.0036518650" flag="0"/>
      <psa03 value="0.0152218116" flag="0"/>
      <psa10 value="0.0025531996" flag="0"/>
      <psa30 value="0.0007900223" flag="0"/>
    </comp>
    <comp name="--.HNN">
      <acc value="0.0244622521" flag="0"/>
      <vel value="0.0037853539" flag="0"/>
      <psa03 value="0.0196726207" flag="0"/>
      <psa10 value="0.0027207071" flag="0"/>
      <psa30 value="0.0002082178" flag="0"/>
    </comp>
    <comp name="--.HNZ">
      <acc value="0.0124655135" flag="0"/>
      <vel value="0.0018421102" flag="0"/>
      <psa03 value="0.0085075519" flag="0"/>
      <psa10 value="0.0015765900" flag="0"/>
      <psa30 value="0.0000972149" flag="0"/>
    </comp>
  </station>
  <station code="DEV" name="DEV" netid="RO" insttype="CMG40T.1to100/Quanterra" lat="45.887" lon="22.898">
    <comp name="--.HHE">
      <acc value="0.0599827178" flag="0"/>
      <vel value="0.0132780936" flag="0"/>
      <psa03 value="0.0792909933" flag="0"/>
      <psa10 value="0.0062003153" flag="0"/>
      <psa30 value="0.0002961381" flag="0"/>
    </comp>
    <comp name="--.HHN">
      <acc value="0.0563643470" flag="0"/>
      <vel value="0.0202464332" flag="0"/>
      <psa03 value="0.1349203280" flag="0"/>
      <psa10 value="0.0054675744" flag="0"/>
      <psa30 value="0.0003766448" flag="0"/>
    </comp>
    <comp name="--.HHZ">
      <acc value="0.0355896403" flag="0"/>
      <vel value="0.0093882329" flag="0"/>
      <psa03 value="0.0484964421" flag="0"/>
      <psa10 value="0.0032789463" flag="0"/>
      <psa30 value="0.0001771595" flag="0"/>
    </comp>
  </station>
  <station code="GZR" name="GZR" netid="RO" insttype="330" lat="45.3933" lon="22.7767">
    <comp name="--.HHZ">
      <acc value="0.0995767363" flag="0"/>
      <vel value="0.0228707870" flag="0"/>
      <psa03 value="0.1362193363" flag="0"/>
      <psa10 value="0.0067006275" flag="0"/>
      <psa30 value="0.0005874269" flag="0"/>
    </comp>
    <comp name="--.HHN">
      <acc value="0.1839557749" flag="0"/>
      <vel value="0.0466420780" flag="0"/>
      <psa03 value="0.1546178372" flag="0"/>
      <psa10 value="0.0083206062" flag="0"/>
      <psa30 value="0.0007453325" flag="0"/>
    </comp>
    <comp name="--.HHE">
      <acc value="0.1583465167" flag="0"/>
      <vel value="0.0421004220" flag="0"/>
      <psa03 value="0.2800527819" flag="0"/>
      <psa10 value="0.0080497328" flag="0"/>
      <psa30 value="0.0007190267" flag="0"/>
    </comp>
  </station>
  <station code="HERR" name="HERR" netid="RO" insttype="CMG40T.1to100/Quanterra" lat="44.881" lon="22.416">
    <comp name="--.HHN">
      <acc value="0.0642673488" flag="0"/>
      <vel value="0.0113824292" flag="0"/>
      <psa03 value="0.0563365248" flag="0"/>
      <psa10 value="0.0026305743" flag="0"/>
      <psa30 value="0.0002853261" flag="0"/>
    </comp>
    <comp name="--.HHE">
      <acc value="0.0696840781" flag="0"/>
      <vel value="0.0116478096" flag="0"/>
      <psa03 value="0.0425898987" flag="0"/>
      <psa10 value="0.0027157465" flag="0"/>
      <psa30 value="0.0001829157" flag="0"/>
    </comp>
    <comp name="--.HHZ">
      <acc value="0.0386411264" flag="0"/>
      <vel value="0.0049219806" flag="0"/>
      <psa03 value="0.0132476202" flag="0"/>
      <psa10 value="0.0015723038" flag="0"/>
      <psa30 value="0.0001197909" flag="0"/>
    </comp>
  </station>
  <station code="LOT" name="LOT" netid="RO" insttype="330" lat="45.446" lon="23.7698">
    <comp name="--.HHE">
      <acc value="0.1415012381" flag="0"/>
      <vel value="0.0282499682" flag="0"/>
      <psa03 value="0.1955844414" flag="0"/>
      <psa10 value="0.0056783305" flag="0"/>
      <psa30 value="0.0006248430" flag="0"/>
    </comp>
    <comp name="--.HHN">
      <acc value="0.1393451990" flag="0"/>
      <vel value="0.0278507924" flag="0"/>
      <psa03 value="0.1445322465" flag="0"/>
      <psa10 value="0.0056704072" flag="0"/>
      <psa30 value="0.0004761226" flag="0"/>
    </comp>
    <comp name="--.HHZ">
      <acc value="0.1037719339" flag="0"/>
      <vel value="0.0179514379" flag="0"/>
      <psa03 value="0.0761261101" flag="0"/>
      <psa10 value="0.0024155450" flag="0"/>
      <psa30 value="0.0002527532" flag="0"/>
    </comp>
  </station>
  <station code="MDVR" name="MDVR" netid="RO" insttype="CMG40T.1to100/Quanterra" lat="44.7815" lon="21.7128">
    <comp name="--.HHN">
      <acc value="0.0231613211" flag="0"/>
      <vel value="0.0043233074" flag="0"/>
      <psa03 value="0.0196270092" flag="0"/>
      <psa10 value="0.0029271044" flag="0"/>
      <psa30 value="0.0001470627" flag="0"/>
    </comp>
    <comp name="--.HHE">
      <acc value="0.0162366816" flag="0"/>
      <vel value="0.0051125624" flag="0"/>
      <psa03 value="0.0273427875" flag="0"/>
      <psa10 value="0.0010783465" flag="0"/>
      <psa30 value="0.0001378563" flag="0"/>
    </comp>
    <comp name="--.HHZ">
      <acc value="0.0115004871" flag="0"/>
      <vel value="0.0034294108" flag="0"/>
      <psa03 value="0.0176714469" flag="0"/>
      <psa10 value="0.0009900558" flag="0"/>
      <psa30 value="0.0001104743" flag="0"/>
    </comp>
  </station>
  <station code="MHISU" name="MHISU" netid="RO" insttype="200" lat="44.6227" lon="22.6535">
    <comp name="--.HNE">
      <acc value="0.0316789438" flag="0"/>
      <vel value="0.0114942174" flag="0"/>
      <psa03 value="0.0781618111" flag="0"/>
      <psa10 value="0.0068057947" flag="0"/>
      <psa30 value="0.0004131182" flag="0"/>
    </comp>
    <comp name="--.HNN">
      <acc value="0.0451749463" flag="0"/>
      <vel value="0.0154401617" flag="0"/>
      <psa03 value="0.1378130501" flag="0"/>
      <psa10 value="0.0068009697" flag="0"/>
      <psa30 value="0.0006117467" flag="0"/>
    </comp>
    <comp name="--.HNZ">
      <acc value="0.0340022564" flag="0"/>
      <vel value="0.0078298748" flag="0"/>
      <psa03 value="0.0501193136" flag="0"/>
      <psa10 value="0.0032792526" flag="0"/>
      <psa30 value="0.0002081453" flag="0"/>
    </comp>
  </station>
  <station code="OTISU" name="OTISU" netid="RO" insttype="200" lat="44.4278" lon="24.3755">
    <comp name="--.HNE">
      <acc value="0.0428936834" flag="0"/>
      <vel value="0.0123665784" flag="0"/>
      <psa03 value="0.0625203154" flag="0"/>
      <psa10 value="0.0030989567" flag="0"/>
      <psa30 value="0.0002857372" flag="0"/>
    </comp>
    <comp name="--.HNZ">
      <acc value="0.0388524578" flag="0"/>
      <vel value="0.0087905099" flag="0"/>
      <psa03 value="0.0307127555" flag="0"/>
      <psa10 value="0.0011294097" flag="0"/>
      <psa30 value="0.0001265770" flag="0"/>
    </comp>
    <comp name="--.HNN">
      <acc value="0.0436950371" flag="0"/>
      <vel value="0.0099398063" flag="0"/>
      <psa03 value="0.0612667931" flag="0"/>
      <psa10 value="0.0021414948" flag="0"/>
      <psa30 value="0.0002833732" flag="0"/>
    </comp>
  </station>
  <station code="RMGR" name="RMGR" netid="RO" insttype="MBB2/Quanterra" lat="44.6627" lon="22.6922">
    <comp name="--.HHE">
      <acc value="0.0621001639" flag="0"/>
      <vel value="0.0226114553" flag="0"/>
      <psa03 value="0.0994011439" flag="0"/>
      <psa10 value="0.0092182990" flag="0"/>
      <psa30 value="0.0006653588" flag="0"/>
    </comp>
    <comp name="--.HHN">
      <acc value="0.0774111008" flag="0"/>
      <vel value="0.0272681798" flag="0"/>
      <psa03 value="0.1329966432" flag="0"/>
      <psa10 value="0.0128108189" flag="0"/>
      <psa30 value="0.0007665859" flag="0"/>
    </comp>
    <comp name="--.HHZ">
      <acc value="0.0567373128" flag="0"/>
      <vel value="0.0148315577" flag="0"/>
      <psa03 value="0.0503884839" flag="0"/>
      <psa10 value="0.0051888394" flag="0"/>
      <psa30 value="0.0004022951" flag="0"/>
    </comp>
  </station>
  <station code="SRE" name="SRE" netid="RO" insttype="Seismometer/Quanterra" lat="44.6609" lon="23.2038">
    <comp name="--.HHE">
      <acc value="0.2208371719" flag="0"/>
      <vel value="0.0770423897" flag="0"/>
      <psa03 value="0.3327373471" flag="0"/>
      <psa10 value="0.0167534399" flag="0"/>
      <psa30 value="0.0021191824" flag="0"/>
    </comp>
    <comp name="--.HHN">
      <acc value="0.1319048280" flag="0"/>
      <vel value="0.0345715764" flag="0"/>
      <psa03 value="0.1734338958" flag="0"/>
      <psa10 value="0.0177564663" flag="0"/>
      <psa30 value="0.0009347485" flag="0"/>
    </comp>
    <comp name="--.HHZ">
      <acc value="0.0517494574" flag="0"/>
      <vel value="0.0165600155" flag="0"/>
      <psa03 value="0.0835952170" flag="0"/>
      <psa10 value="0.0072198699" flag="0"/>
      <psa30 value="0.0004272523" flag="0"/>
    </comp>
  </station>
  <station code="SURR" name="SURR" netid="RO" insttype="Linear" lat="45.754" lon="22.1246">
    <comp name="--.HHE">
      <acc value="0.0411656584" flag="0"/>
      <vel value="0.0052808145" flag="0"/>
      <psa03 value="0.0155820152" flag="0"/>
      <psa10 value="0.0012793618" flag="0"/>
      <psa30 value="0.0001197764" flag="0"/>
    </comp>
    <comp name="--.HHN">
      <acc value="0.0364462966" flag="0"/>
      <vel value="0.0053827009" flag="0"/>
      <psa03 value="0.0162880990" flag="0"/>
      <psa10 value="0.0012684665" flag="0"/>
      <psa30 value="0.0000915056" flag="0"/>
    </comp>
    <comp name="--.HHZ">
      <acc value="0.0201523821" flag="0"/>
      <vel value="0.0037154031" flag="0"/>
      <psa03 value="0.0082732258" flag="0"/>
      <psa10 value="0.0007521329" flag="0"/>
      <psa30 value="0.0000580299" flag="0"/>
    </comp>
  </station>
  <station code="TNR" name="TNR" netid="RO" insttype="CMG40T.1to100/Quanterra" lat="45.652" lon="24.273">
    <comp name="--.HHE">
      <acc value="0.0095899485" flag="0"/>
      <vel value="0.0022788558" flag="0"/>
      <psa03 value="0.0079621874" flag="0"/>
      <psa10 value="0.0017552826" flag="0"/>
      <psa30 value="0.0000906192" flag="0"/>
    </comp>
    <comp name="--.HHN">
      <acc value="0.0086336361" flag="0"/>
      <vel value="0.0024209136" flag="0"/>
      <psa03 value="0.0134120302" flag="0"/>
      <psa10 value="0.0026007460" flag="0"/>
      <psa30 value="0.0001415686" flag="0"/>
    </comp>
    <comp name="--.HHZ">
      <acc value="0.0058996870" flag="0"/>
      <vel value="0.0015359176" flag="0"/>
      <psa03 value="0.0062927802" flag="0"/>
      <psa10 value="0.0009841719" flag="0"/>
      <psa30 value="0.0000681572" flag="0"/>
    </comp>
  </station>
</stationlist>
