<?xml version="1.0" encoding="UTF-8" standalone="yes"?>
<!DOCTYPE earthquake SYSTEM "stationlist.dtd">
<stationlist created="" xmlns="ch.ethz.sed.shakemap.usgs.xml">
  <station code="ARPRA" name="ARPRA" netid="KO" insttype="CMG-5T" lat="39.0929" lon="38.3356">
    <comp name="--.HNZ">
      <acc value="0.0087708623" flag="0"/>
      <vel value="0.0038203344" flag="0"/>
      <psa03 value="0.0254240800" flag="0"/>
      <psa10 value="0.0054645739" flag="0"/>
      <psa30 value="0.0003719318" flag="0"/>
    </comp>
    <comp name="--.HNN">
      <acc value="0.0202575793" flag="0"/>
      <vel value="0.0094385809" flag="0"/>
      <psa03 value="0.0609687825" flag="0"/>
      <psa10 value="0.0105715359" flag="0"/>
      <psa30 value="0.0010611086" flag="0"/>
    </comp>
    <comp name="--.HNE">
      <acc value="0.0232060896" flag="0"/>
      <vel value="0.0114413854" flag="0"/>
      <psa03 value="0.0602622581" flag="0"/>
      <psa10 value="0.0096963455" flag="0"/>
      <psa30 value="0.0009568394" flag="0"/>
    </comp>
  </station>
  <station code="DARE" name="DARE" netid="KO" insttype="CMG-3ESP" lat="38.5712" lon="37.4832">
    <comp name="--.HHZ">
      <acc value="0.0099471605" flag="0"/>
      <vel value="0.0061769543" flag="0"/>
      <psa03 value="0.0260109718" flag="0"/>
      <psa10 value="0.0075034398" flag="0"/>
      <psa30 value="0.0010834452" flag="0"/>
    </comp>
    <comp name="--.HHE">
      <acc value="0.0121796105" flag="0"/>
      <vel value="0.0054701304" flag="0"/>
      <psa03 value="0.0459314958" flag="0"/>
      <psa10 value="0.0060441331" flag="0"/>
      <psa30 value="0.0007523372" flag="0"/>
    </comp>
    <comp name="--.HHN">
      <acc value="0.0119167505" flag="0"/>
      <vel value="0.0050600274" flag="0"/>
      <psa03 value="0.0224238707" flag="0"/>
      <psa10 value="0.0083278096" flag="0"/>
      <psa30 value="0.0012300455" flag="0"/>
    </comp>
  </station>
  <station code="GAZ" name="GAZ" netid="KO" insttype="CMG-3T" lat="37.1721" lon="37.2096">
    <comp name="--.HHN">
      <acc value="0.0096056799" flag="0"/>
      <vel value="0.0051888486" flag="0"/>
      <psa03 value="0.0289098707" flag="0"/>
      <psa10 value="0.0035051610" flag="0"/>
      <psa30 value="0.0004290392" flag="0"/>
    </comp>
    <comp name="--.HHZ">
      <acc value="0.0064607558" flag="0"/>
      <vel value="0.0039677210" flag="0"/>
      <psa03 value="0.0177512792" flag="0"/>
      <psa10 value="0.0023777419" flag="0"/>
      <psa30 value="0.0004216129" flag="0"/>
    </comp>
    <comp name="--.HHE">
      <acc value="0.0034721933" flag="0"/>
      <vel value="0.0010537269" flag="0"/>
      <psa03 value="0.0062798629" flag="0"/>
      <psa10 value="0.0005324292" flag="0"/>
      <psa30 value="0.0000394215" flag="0"/>
    </comp>
  </station>
  <station code="SARI" name="SARI" netid="KO" insttype="CMG-3T" lat="38.4072" lon="36.4181">
    <comp name="--.HHE">
      <acc value="0.0183418622" flag="0"/>
      <vel value="0.0086924757" flag="0"/>
      <psa03 value="0.0707727797" flag="0"/>
      <psa10 value="0.0039327991" flag="0"/>
      <psa30 value="0.0003079612" flag="0"/>
    </comp>
    <comp name="--.HHN">
      <acc value="0.0118917381" flag="0"/>
      <vel value="0.0050697964" flag="0"/>
      <psa03 value="0.0392682483" flag="0"/>
      <psa10 value="0.0034565552" flag="0"/>
      <psa30 value="0.0007128898" flag="0"/>
    </comp>
    <comp name="--.HHZ">
      <acc value="0.0067157333" flag="0"/>
      <vel value="0.0034079105" flag="0"/>
      <psa03 value="0.0203806572" flag="0"/>
      <psa10 value="0.0028764631" flag="0"/>
      <psa30 value="0.0005894971" flag="0"/>
    </comp>
  </station>
  <station code="URFA" name="URFA" netid="KO" insttype="CMG-3ESP" lat="37.4409" lon="38.8213">
    <comp name="--.HHZ">
      <acc value="0.0178295578" flag="0"/>
      <vel value="0.0072180752" flag="0"/>
      <psa03 value="0.0404656194" flag="0"/>
      <psa10 value="0.0045143365" flag="0"/>
      <psa30 value="0.0002958438" flag="0"/>
    </comp>
    <comp name="--.HHE">
      <acc value="0.0359923774" flag="0"/>
      <vel value="0.0129102041" flag="0"/>
      <psa03 value="0.0507290351" flag="0"/>
      <psa10 value="0.0056530548" flag="0"/>
      <psa30 value="0.0007906256" flag="0"/>
    </comp>
    <comp name="--.HHN">
      <acc value="0.0222427015" flag="0"/>
      <vel value="0.0072753056" flag="0"/>
      <psa03 value="0.0372430285" flag="0"/>
      <psa10 value="0.0088164800" flag="0"/>
      <psa30 value="0.0012091328" flag="0"/>
    </comp>
  </station>
</stationlist>
