<?xml version="1.0" encoding="UTF-8" standalone="yes"?>
<!DOCTYPE earthquake SYSTEM "stationlist.dtd">
<stationlist created="" xmlns="ch.ethz.sed.shakemap.usgs.xml">
  <station code="ARPRA" name="ARPRA" netid="KO" insttype="CMG-5T" lat="39.0929" lon="38.3356">
    <comp name="--.HNE">
      <acc value="0.0232060915" flag="0"/>
      <vel value="0.0114413883" flag="0"/>
      <psa03 value="0.0602622581" flag="0"/>
      <psa10 value="0.0096963453" flag="0"/>
      <psa30 value="0.0009564736" flag="0"/>
    </comp>
    <comp name="--.HNZ">
      <acc value="0.0087708621" flag="0"/>
      <vel value="0.0038203351" flag="0"/>
      <psa03 value="0.0254240800" flag="0"/>
      <psa10 value="0.0054645734" flag="0"/>
      <psa30 value="0.0003656872" flag="0"/>
    </comp>
    <comp name="--.HNN">
      <acc value="0.0202575848" flag="0"/>
      <vel value="0.0094385941" flag="0"/>
      <psa03 value="0.0609687825" flag="0"/>
      <psa10 value="0.0105715357" flag="0"/>
      <psa30 value="0.0010615110" flag="0"/>
    </comp>
  </station>
  <station code="DARE" name="DARE" netid="KO" insttype="CMG-3ESP" lat="38.5712" lon="37.4832">
    <comp name="--.HHN">
      <acc value="0.0119167504" flag="0"/>
      <vel value="0.0050600288" flag="0"/>
      <psa03 value="0.0224238707" flag="0"/>
      <psa10 value="0.0083278096" flag="0"/>
      <psa30 value="0.0012300436" flag="0"/>
    </comp>
    <comp name="--.HHZ">
      <acc value="0.0099471605" flag="0"/>
      <vel value="0.0061769544" flag="0"/>
      <psa03 value="0.0260109718" flag="0"/>
      <psa10 value="0.0075034397" flag="0"/>
      <psa30 value="0.0010834359" flag="0"/>
    </comp>
    <comp name="--.HHE">
      <acc value="0.0121796105" flag="0"/>
      <vel value="0.0054701318" flag="0"/>
      <psa03 value="0.0459314958" flag="0"/>
      <psa10 value="0.0060441330" flag="0"/>
      <psa30 value="0.0007523192" flag="0"/>
    </comp>
  </station>
  <station code="GAZ" name="GAZ" netid="KO" insttype="CMG-3T" lat="37.1721" lon="37.2096">
    <comp name="--.HHE">
      <acc value="0.0038523744" flag="0"/>
      <vel value="0.0010537295" flag="0"/>
      <psa03 value="0.0062798629" flag="0"/>
      <psa10 value="0.0005324293" flag="0"/>
      <psa30 value="0.0000395070" flag="0"/>
    </comp>
    <comp name="--.HHN">
      <acc value="0.0096056800" flag="0"/>
      <vel value="0.0051888508" flag="0"/>
      <psa03 value="0.0289098707" flag="0"/>
      <psa10 value="0.0035051610" flag="0"/>
      <psa30 value="0.0004290423" flag="0"/>
    </comp>
    <comp name="--.HHZ">
      <acc value="0.0064607551" flag="0"/>
      <vel value="0.0039677200" flag="0"/>
      <psa03 value="0.0177512792" flag="0"/>
      <psa10 value="0.0023777419" flag="0"/>
      <psa30 value="0.0004237410" flag="0"/>
    </comp>
  </station>
  <station code="KMRS" name="KMRS" netid="KO" insttype="CMG-3T" lat="37.5053" lon="36.9">
    <comp name="--.HHZ">
      <acc value="0.0059795733" flag="0"/>
      <vel value="0.0031441235" flag="0"/>
      <psa03 value="0.0190482570" flag="0"/>
      <psa10 value="0.0022338532" flag="0"/>
      <psa30 value="0.0004593855" flag="0"/>
    </comp>
  </station>
  <station code="SARI" name="SARI" netid="KO" insttype="CMG-3T" lat="38.4072" lon="36.4181">
    <comp name="--.HHZ">
      <acc value="0.0067157335" flag="0"/>
      <vel value="0.0034079109" flag="0"/>
      <psa03 value="0.0203806572" flag="0"/>
      <psa10 value="0.0028764631" flag="0"/>
      <psa30 value="0.0005895187" flag="0"/>
    </comp>
    <comp name="--.HHE">
      <acc value="0.0183418622" flag="0"/>
      <vel value="0.0086924754" flag="0"/>
      <psa03 value="0.0707727797" flag="0"/>
      <psa10 value="0.0039327991" flag="0"/>
      <psa30 value="0.0003079579" flag="0"/>
    </comp>
    <comp name="--.HHN">
      <acc value="0.0118917382" flag="0"/>
      <vel value="0.0050697961" flag="0"/>
      <psa03 value="0.0392682483" flag="0"/>
      <psa10 value="0.0034565552" flag="0"/>
      <psa30 value="0.0007128890" flag="0"/>
    </comp>
  </station>
  <station code="URFA" name="URFA" netid="KO" insttype="CMG-3ESP" lat="37.4409" lon="38.8213">
    <comp name="--.HHZ">
      <acc value="0.0178295577" flag="0"/>
      <vel value="0.0072180758" flag="0"/>
      <psa03 value="0.0404656194" flag="0"/>
      <psa10 value="0.0045143365" flag="0"/>
      <psa30 value="0.0002958358" flag="0"/>
    </comp>
    <comp name="--.HHE">
      <acc value="0.0359923773" flag="0"/>
      <vel value="0.0129102050" flag="0"/>
      <psa03 value="0.0507290351" flag="0"/>
      <psa10 value="0.0056530548" flag="0"/>
      <psa30 value="0.0007906255" flag="0"/>
    </comp>
    <comp name="--.HHN">
      <acc value="0.0222427017" flag="0"/>
      <vel value="0.0072753058" flag="0"/>
      <psa03 value="0.0372430285" flag="0"/>
      <psa10 value="0.0088164801" flag="0"/>
      <psa30 value="0.0012091341" flag="0"/>
    </comp>
  </station>
</stationlist>
