<?xml version="1.0" encoding="UTF-8" standalone="yes"?>
<!DOCTYPE earthquake SYSTEM "stationlist.dtd">
<stationlist created="" xmlns="ch.ethz.sed.shakemap.usgs.xml">
  <station code="CEYT" name="CEYT" netid="KO" insttype="CMG-3ESP" lat="37.0105" lon="35.7478">
    <comp name="--.HHE">
      <acc value="0.0193241169" flag="0"/>
      <vel value="0.0084259152" flag="0"/>
      <psa03 value="0.0735506376" flag="0"/>
      <psa10 value="0.0104410222" flag="0"/>
      <psa30 value="0.0011119795" flag="0"/>
    </comp>
    <comp name="--.HHN">
      <acc value="0.0152241356" flag="0"/>
      <vel value="0.0090868425" flag="0"/>
      <psa03 value="0.0393213529" flag="0"/>
      <psa10 value="0.0137971767" flag="0"/>
      <psa30 value="0.0009134361" flag="0"/>
    </comp>
    <comp name="--.HHZ">
      <acc value="0.0109655648" flag="0"/>
      <vel value="0.0064295427" flag="0"/>
      <psa03 value="0.0366090135" flag="0"/>
      <psa10 value="0.0100247903" flag="0"/>
      <psa30 value="0.0007940967" flag="0"/>
    </comp>
  </station>
  <station code="TAHT" name="TAHT" netid="KO" insttype="CMG-3ESPC" lat="36.3755" lon="36.1855">
    <comp name="--.HHE">
      <acc value="0.9164734943" flag="0"/>
      <vel value="0.1779012899" flag="0"/>
      <psa03 value="0.6246775078" flag="0"/>
      <psa10 value="0.1009734319" flag="0"/>
      <psa30 value="0.0088516252" flag="0"/>
    </comp>
    <comp name="--.HHZ">
      <acc value="0.5529944683" flag="0"/>
      <vel value="0.1105968719" flag="0"/>
      <psa03 value="0.2198847898" flag="0"/>
      <psa10 value="0.0744339191" flag="0"/>
      <psa30 value="0.0047479070" flag="0"/>
    </comp>
  </station>
</stationlist>
