<stationlist created="1778069754">
	<station code="IMMV" name="IMMV" netid="GE" source="GEOFON" insttype="" lat="35.4606" lon="23.9811">
		<comp name="--.HNE" depth="0.0">
			<acc value="0.00170633196065537" flag="0"/>
			<vel value="0.00195425807308546" flag="0"/>
			<psa03 value="0.00420576742211754" flag="0"/>
			<psa10 value="0.00393820902654028" flag="0"/>
			<psa30 value="0.000751669071186965" flag="0"/>
		</comp>
		<comp name="--.HNN" depth="0.0">
			<acc value="0.00113678127545765" flag="0"/>
			<vel value="0.00238488225821657" flag="0"/>
			<psa03 value="0.00416102521549927" flag="0"/>
			<psa10 value="0.00239594516440845" flag="0"/>
			<psa30 value="0.000629522847119084" flag="0"/>
		</comp>
		<comp name="--.HNZ" depth="0.0">
			<acc value="0.00101065401719513" flag="0"/>
			<vel value="0.00147830196151132" flag="0"/>
			<psa03 value="0.00344514990960693" flag="0"/>
			<psa10 value="0.00242010595598232" flag="0"/>
			<psa30 value="0.000255925421856514" flag="0"/>
		</comp>
	</station>
	<station code="KARP" name="KARP" netid="GE" source="GEOFON" insttype="" lat="35.5471" lon="27.16106">
		<comp name="--.HNE" depth="0.0">
			<acc value="0.0152569477864561" flag="0"/>
			<vel value="0.00160272703307703" flag="0"/>
			<psa03 value="0.00393731418240792" flag="0"/>
			<psa10 value="0.00204158688799174" flag="0"/>
			<psa30 value="0.000666211456546066" flag="0"/>
		</comp>
		<comp name="--.HNN" depth="0.0">
			<acc value="0.0268766053819225" flag="0"/>
			<vel value="0.00219382390247865" flag="0"/>
			<psa03 value="0.00299772784342421" flag="0"/>
			<psa10 value="0.0019288365273137" flag="0"/>
			<psa30 value="0.00056464664752259" flag="0"/>
		</comp>
		<comp name="--.HNZ" depth="0.0">
			<acc value="0.00372071852151193" flag="0"/>
			<vel value="0.00114434633052231" flag="0"/>
			<psa03 value="0.00322143887651557" flag="0"/>
			<psa10 value="0.00237581117143023" flag="0"/>
			<psa30 value="0.000630865113317632" flag="0"/>
		</comp>
	</station>
	<station code="SIT2" name="SIT2" netid="HI" source="ITSAK Strong Motion Network" insttype="" lat="35.2059" lon="26.107">
		<comp name="--.HNE" depth="0.0">
			<acc value="0.0386577891770717" flag="0"/>
			<vel value="0.02469898363986" flag="0"/>
			<psa03 value="0.0913635859145109" flag="0"/>
			<psa10 value="0.0168682593171546" flag="0"/>
			<psa30 value="0.00177492333654684" flag="0"/>
		</comp>
		<comp name="--.HNN" depth="0.0">
			<acc value="0.0363708245833014" flag="0"/>
			<vel value="0.0261533092145093" flag="0"/>
			<psa03 value="0.106978616024288" flag="0"/>
			<psa10 value="0.0182494512354607" flag="0"/>
			<psa30 value="0.0015404741738671" flag="0"/>
		</comp>
		<comp name="--.HNZ" depth="0.0">
			<acc value="0.0260404330220476" flag="0"/>
			<vel value="0.00865696240310751" flag="0"/>
			<psa03 value="0.040178501543208" flag="0"/>
			<psa10 value="0.00478786353022126" flag="0"/>
			<psa30 value="0.00107515522503707" flag="0"/>
		</comp>
	</station>
	<station code="IMMV" name="IMMV" netid="HL" source="National Observatory of Athens Seismic Network" insttype="" lat="35.4606" lon="23.9811">
		<comp name="--.HNE" depth="0.0">
			<acc value="0.00173213639238879" flag="0"/>
			<vel value="0.0018939976081625" flag="0"/>
			<psa03 value="0.004116283008881" flag="0"/>
			<psa10 value="0.00386169985322303" flag="0"/>
			<psa30 value="0.000736456720936753" flag="0"/>
		</comp>
		<comp name="--.HNN" depth="0.0">
			<acc value="0.00112458134311291" flag="0"/>
			<vel value="0.00225944596108175" flag="0"/>
			<psa03 value="0.00407154080226273" flag="0"/>
			<psa10 value="0.00234762358126072" flag="0"/>
			<psa30 value="0.000616995029265967" flag="0"/>
		</comp>
		<comp name="--.HNZ" depth="0.0">
			<acc value="0.000987983368219365" flag="0"/>
			<vel value="0.00122371291868611" flag="0"/>
			<psa03 value="0.00335566549637038" flag="0"/>
			<psa10 value="0.00237178437283459" flag="0"/>
			<psa30 value="0.000250556357062322" flag="0"/>
		</comp>
	</station>
	<station code="SIVA" name="SIVA" netid="HL" source="National Observatory of Athens Seismic Network" insttype="" lat="35.01777" lon="24.81204">
		<comp name="00.HNE" depth="0.0">
			<acc value="0.00982304683262292" flag="0"/>
			<vel value="0.00670742732556814" flag="0"/>
			<psa03 value="0.031274802426172" flag="0"/>
			<psa10 value="0.00837171428034483" flag="0"/>
			<psa30 value="0.00121027668902425" flag="0"/>
		</comp>
		<comp name="00.HNN" depth="0.0">
			<acc value="0.00622426820792898" flag="0"/>
			<vel value="0.00506166489999853" flag="0"/>
			<psa03 value="0.017941624853927" flag="0"/>
			<psa10 value="0.00718380869462971" flag="0"/>
			<psa30 value="0.0013073672773859" flag="0"/>
		</comp>
		<comp name="00.HNZ" depth="0.0">
			<acc value="0.00559811049128501" flag="0"/>
			<vel value="0.0037302173161187" flag="0"/>
			<psa03 value="0.0142280217046104" flag="0"/>
			<psa10 value="0.00625764501763149" flag="0"/>
			<psa30 value="0.000611625964471775" flag="0"/>
		</comp>
	</station>
</stationlist>
