<?xml version="1.0" encoding="UTF-8" standalone="yes"?>
<!DOCTYPE earthquake SYSTEM "stationlist.dtd">
<stationlist created="" xmlns="ch.ethz.sed.shakemap.usgs.xml">
  <station code="SFL1" name="SFL1" netid="HI" insttype="CMG-5TD,ACCELEROMETER,GURALP" lat="41.19" lon="26.3044">
    <comp name="--.HNE">
      <acc value="0.1577887305" flag="0"/>
      <vel value="0.0835149911" flag="0"/>
      <psa03 value="0.4167727677" flag="0"/>
      <psa10 value="0.0521827723" flag="0"/>
      <psa30 value="0.0032948342" flag="0"/>
    </comp>
    <comp name="--.HNZ">
      <acc value="0.1030549361" flag="0"/>
      <vel value="0.0349039479" flag="0"/>
      <psa03 value="0.2333441847" flag="0"/>
      <psa10 value="0.0135104642" flag="0"/>
      <psa30 value="0.0015713065" flag="0"/>
    </comp>
    <comp name="--.HNN">
      <acc value="0.1668625202" flag="0"/>
      <vel value="0.0823159670" flag="0"/>
      <psa03 value="0.3935995098" flag="0"/>
      <psa10 value="0.0436213802" flag="0"/>
      <psa30 value="0.0026281387" flag="0"/>
    </comp>
  </station>
  <station code="ALN" name="ALN" netid="HT" insttype="100" lat="40.885" lon="26.046">
    <comp name="--.HHN">
      <acc value="0.0481175997" flag="0"/>
      <vel value="0.0274177911" flag="0"/>
      <psa03 value="0.1626453609" flag="0"/>
      <psa10 value="0.0260818575" flag="0"/>
      <psa30 value="0.0020482958" flag="0"/>
    </comp>
    <comp name="--.HHZ">
      <acc value="0.0343420722" flag="0"/>
      <vel value="0.0224309967" flag="0"/>
      <psa03 value="0.0767831430" flag="0"/>
      <psa10 value="0.0158498007" flag="0"/>
      <psa30 value="0.0010376137" flag="0"/>
    </comp>
    <comp name="--.HHE">
      <acc value="0.0427185053" flag="0"/>
      <vel value="0.0186342124" flag="0"/>
      <psa03 value="0.1194012314" flag="0"/>
      <psa10 value="0.0099055357" flag="0"/>
      <psa30 value="0.0010815131" flag="0"/>
    </comp>
  </station>
  <station code="ARMT" name="ARMT" netid="KO" insttype="120s," lat="40.5683" lon="28.866">
    <comp name="--.HHE">
      <acc value="0.0504289501" flag="0"/>
      <vel value="0.0154252251" flag="0"/>
      <psa03 value="0.0749211745" flag="0"/>
      <psa10 value="0.0128683982" flag="0"/>
      <psa30 value="0.0006075185" flag="0"/>
    </comp>
    <comp name="--.HHN">
      <acc value="0.0643134655" flag="0"/>
      <vel value="0.0218250575" flag="0"/>
      <psa03 value="0.1309150522" flag="0"/>
      <psa10 value="0.0206452200" flag="0"/>
      <psa30 value="0.0028286495" flag="0"/>
    </comp>
    <comp name="--.HHZ">
      <acc value="0.0396480825" flag="0"/>
      <vel value="0.0094990950" flag="0"/>
      <psa03 value="0.0341639733" flag="0"/>
      <psa10 value="0.0052497586" flag="0"/>
      <psa30 value="0.0006231177" flag="0"/>
    </comp>
  </station>
  <station code="BALB" name="BALB" netid="KO" insttype="120s," lat="39.64" lon="27.88">
    <comp name="--.HHE">
      <acc value="0.0403863510" flag="0"/>
      <vel value="0.0224658158" flag="0"/>
      <psa03 value="0.0929266392" flag="0"/>
      <psa10 value="0.0209783037" flag="0"/>
      <psa30 value="0.0023444858" flag="0"/>
    </comp>
    <comp name="--.HHN">
      <acc value="0.0402165933" flag="0"/>
      <vel value="0.0416748794" flag="0"/>
      <psa03 value="0.1421327556" flag="0"/>
      <psa10 value="0.0486410363" flag="0"/>
      <psa30 value="0.0047679651" flag="0"/>
    </comp>
    <comp name="--.HHZ">
      <acc value="0.0332314801" flag="0"/>
      <vel value="0.0161913945" flag="0"/>
      <psa03 value="0.0363755157" flag="0"/>
      <psa10 value="0.0232974675" flag="0"/>
      <psa30 value="0.0022046433" flag="0"/>
    </comp>
  </station>
  <station code="BGKT" name="BGKT" netid="KO" insttype="120s," lat="41.181" lon="28.773">
    <comp name="--.HHE">
      <acc value="0.0547667783" flag="0"/>
      <vel value="0.0216685489" flag="0"/>
      <psa03 value="0.1155447952" flag="0"/>
      <psa10 value="0.0161390303" flag="0"/>
      <psa30 value="0.0007241248" flag="0"/>
    </comp>
    <comp name="--.HHZ">
      <acc value="0.0271971077" flag="0"/>
      <vel value="0.0108278555" flag="0"/>
      <psa03 value="0.1008283523" flag="0"/>
      <psa10 value="0.0069641312" flag="0"/>
      <psa30 value="0.0004679675" flag="0"/>
    </comp>
    <comp name="--.HHN">
      <acc value="0.0661941765" flag="0"/>
      <vel value="0.0317937924" flag="0"/>
      <psa03 value="0.2022906256" flag="0"/>
      <psa10 value="0.0234602883" flag="0"/>
      <psa30 value="0.0015552789" flag="0"/>
    </comp>
  </station>
  <station code="CRLT" name="CRLT" netid="KO" insttype="30s," lat="41.129" lon="27.736">
    <comp name="--.HHE">
      <acc value="0.0327488429" flag="0"/>
      <vel value="0.0163490800" flag="0"/>
      <psa03 value="0.0777583158" flag="0"/>
      <psa10 value="0.0168470149" flag="0"/>
      <psa30 value="0.0080636541" flag="0"/>
    </comp>
    <comp name="--.HHN">
      <acc value="0.0419777719" flag="0"/>
      <vel value="0.0307022495" flag="0"/>
      <psa03 value="0.0900390655" flag="0"/>
      <psa10 value="0.0256332239" flag="0"/>
      <psa30 value="0.0040656122" flag="0"/>
    </comp>
    <comp name="--.HHZ">
      <acc value="0.0399797115" flag="0"/>
      <vel value="0.0163039258" flag="0"/>
      <psa03 value="0.0519896251" flag="0"/>
      <psa10 value="0.0216301378" flag="0"/>
      <psa30 value="0.0038423973" flag="0"/>
    </comp>
  </station>
  <station code="CTKS" name="CTKS" netid="KO" insttype="30s," lat="41.2373" lon="28.5072">
    <comp name="--.HHE">
      <acc value="0.0515889667" flag="0"/>
      <vel value="0.0151527212" flag="0"/>
      <psa03 value="0.0906538954" flag="0"/>
      <psa10 value="0.0120724083" flag="0"/>
      <psa30 value="0.0007802928" flag="0"/>
    </comp>
    <comp name="--.HHZ">
      <acc value="0.0000206840" flag="0"/>
      <vel value="0.0000027565" flag="0"/>
      <psa03 value="0.0000090707" flag="0"/>
      <psa10 value="0.0000028378" flag="0"/>
      <psa30 value="0.0000005562" flag="0"/>
    </comp>
    <comp name="--.HHN">
      <acc value="0.0672944426" flag="0"/>
      <vel value="0.0202280192" flag="0"/>
      <psa03 value="0.1032575642" flag="0"/>
      <psa10 value="0.0146365100" flag="0"/>
      <psa30 value="0.0010762540" flag="0"/>
    </comp>
  </station>
  <station code="CTYL" name="CTYL" netid="KO" insttype="360s," lat="41.476" lon="28.2897">
    <comp name="--.HHE">
      <acc value="0.0563513094" flag="0"/>
      <vel value="0.0160336041" flag="0"/>
      <psa03 value="0.0794052703" flag="0"/>
      <psa10 value="0.0186371279" flag="0"/>
      <psa30 value="0.0010484850" flag="0"/>
    </comp>
    <comp name="--.HHN">
      <acc value="0.0843759585" flag="0"/>
      <vel value="0.0266499669" flag="0"/>
      <psa03 value="0.0892598268" flag="0"/>
      <psa10 value="0.0296115497" flag="0"/>
      <psa30 value="0.0012699842" flag="0"/>
    </comp>
    <comp name="--.HHZ">
      <acc value="0.0537618783" flag="0"/>
      <vel value="0.0113159240" flag="0"/>
      <psa03 value="0.0684547899" flag="0"/>
      <psa10 value="0.0119142601" flag="0"/>
      <psa30 value="0.0006124739" flag="0"/>
    </comp>
  </station>
  <station code="EDC" name="EDC" netid="KO" insttype="120s," lat="40.3465" lon="27.8618">
    <comp name="--.HHZ">
      <acc value="0.1474883780" flag="0"/>
      <vel value="0.0330385232" flag="0"/>
      <psa03 value="0.0985845734" flag="0"/>
      <psa10 value="0.0126330183" flag="0"/>
      <psa30 value="0.0014900928" flag="0"/>
    </comp>
    <comp name="--.HHN">
      <acc value="0.2186750247" flag="0"/>
      <vel value="0.0778633675" flag="0"/>
      <psa03 value="0.3636413773" flag="0"/>
      <psa10 value="0.0193448370" flag="0"/>
      <psa30 value="0.0020229305" flag="0"/>
    </comp>
    <comp name="--.HHE">
      <acc value="0.1858303234" flag="0"/>
      <vel value="0.0470843063" flag="0"/>
      <psa03 value="0.4048921349" flag="0"/>
      <psa10 value="0.0172289666" flag="0"/>
      <psa30 value="0.0019844223" flag="0"/>
    </comp>
  </station>
  <station code="EDRB" name="EDRB" netid="KO" insttype="360s," lat="41.847" lon="26.7437">
    <comp name="--.HHE">
      <acc value="0.0260619647" flag="0"/>
      <vel value="0.0127030118" flag="0"/>
      <psa03 value="0.0331963792" flag="0"/>
      <psa10 value="0.0097724940" flag="0"/>
      <psa30 value="0.0008399058" flag="0"/>
    </comp>
    <comp name="--.HHN">
      <acc value="0.0298223942" flag="0"/>
      <vel value="0.0158225510" flag="0"/>
      <psa03 value="0.0767482569" flag="0"/>
      <psa10 value="0.0085994139" flag="0"/>
      <psa30 value="0.0010564448" flag="0"/>
    </comp>
    <comp name="--.HHZ">
      <acc value="0.0167242674" flag="0"/>
      <vel value="0.0072430637" flag="0"/>
      <psa03 value="0.0467780847" flag="0"/>
      <psa10 value="0.0050431292" flag="0"/>
      <psa30 value="0.0004162879" flag="0"/>
    </comp>
  </station>
  <station code="ERIK" name="ERIK" netid="KO" insttype="120s," lat="40.6708" lon="26.5132">
    <comp name="--.HHE">
      <acc value="0.0936818938" flag="0"/>
      <vel value="0.0313875370" flag="0"/>
      <psa03 value="0.2590802464" flag="0"/>
      <psa10 value="0.0215983365" flag="0"/>
      <psa30 value="0.0015816912" flag="0"/>
    </comp>
    <comp name="--.HHN">
      <acc value="0.0624535164" flag="0"/>
      <vel value="0.0325479696" flag="0"/>
      <psa03 value="0.1785882948" flag="0"/>
      <psa10 value="0.0154507143" flag="0"/>
      <psa30 value="0.0017621550" flag="0"/>
    </comp>
    <comp name="--.HHZ">
      <acc value="0.0483592480" flag="0"/>
      <vel value="0.0168473382" flag="0"/>
      <psa03 value="0.1453345117" flag="0"/>
      <psa10 value="0.0159917072" flag="0"/>
      <psa30 value="0.0013936427" flag="0"/>
    </comp>
  </station>
  <station code="EZN" name="EZN" netid="KO" insttype="120s," lat="39.8255" lon="26.3247">
    <comp name="--.HHE">
      <acc value="0.0814419389" flag="0"/>
      <vel value="0.0198379566" flag="0"/>
      <psa03 value="0.0906313391" flag="0"/>
      <psa10 value="0.0064290930" flag="0"/>
      <psa30 value="0.0005318062" flag="0"/>
    </comp>
    <comp name="--.HHN">
      <acc value="0.0777701978" flag="0"/>
      <vel value="0.0179897454" flag="0"/>
      <psa03 value="0.0600118666" flag="0"/>
      <psa10 value="0.0084333952" flag="0"/>
      <psa30 value="0.0008038545" flag="0"/>
    </comp>
    <comp name="--.HHZ">
      <acc value="0.0669680961" flag="0"/>
      <vel value="0.0118624665" flag="0"/>
      <psa03 value="0.0698522230" flag="0"/>
      <psa10 value="0.0070500238" flag="0"/>
      <psa30 value="0.0004174840" flag="0"/>
    </comp>
  </station>
  <station code="GELI" name="GELI" netid="KO" insttype="30s," lat="40.398" lon="26.4742">
    <comp name="--.HHZ">
      <acc value="0.0444065733" flag="0"/>
      <vel value="0.0134642655" flag="0"/>
      <psa03 value="0.0909080720" flag="0"/>
      <psa10 value="0.0085182402" flag="0"/>
      <psa30 value="0.0004915250" flag="0"/>
    </comp>
    <comp name="--.HHE">
      <acc value="0.0507745669" flag="0"/>
      <vel value="0.0235054209" flag="0"/>
      <psa03 value="0.2016282851" flag="0"/>
      <psa10 value="0.0160371972" flag="0"/>
      <psa30 value="0.0009266905" flag="0"/>
    </comp>
    <comp name="--.HHN">
      <acc value="0.0616114925" flag="0"/>
      <vel value="0.0256203975" flag="0"/>
      <psa03 value="0.1410247047" flag="0"/>
      <psa10 value="0.0159304493" flag="0"/>
      <psa30 value="0.0013706295" flag="0"/>
    </comp>
  </station>
  <station code="GONE" name="GONE" netid="KO" insttype="100" lat="40.0466" lon="27.686">
    <comp name="--.HNZ">
      <acc value="0.1472762153" flag="0"/>
      <vel value="0.0564980334" flag="0"/>
      <psa03 value="0.1614780279" flag="0"/>
      <psa10 value="0.1105953403" flag="0"/>
      <psa30 value="0.0044441499" flag="0"/>
    </comp>
    <comp name="--.HNE">
      <acc value="0.1397254737" flag="0"/>
      <vel value="0.0863539749" flag="0"/>
      <psa03 value="0.3095634948" flag="0"/>
      <psa10 value="0.1651974732" flag="0"/>
      <psa30 value="0.0078875651" flag="0"/>
    </comp>
    <comp name="--.HNN">
      <acc value="0.1715326301" flag="0"/>
      <vel value="0.1013317536" flag="0"/>
      <psa03 value="0.3179031239" flag="0"/>
      <psa10 value="0.1417882316" flag="0"/>
      <psa30 value="0.0096927034" flag="0"/>
    </comp>
  </station>
  <station code="ISK" name="ISK" netid="KO" insttype="120s," lat="41.0657" lon="29.0592">
    <comp name="--.HHE">
      <acc value="0.0337046053" flag="0"/>
      <vel value="0.0077002849" flag="0"/>
      <psa03 value="0.0440665312" flag="0"/>
      <psa10 value="0.0045459937" flag="0"/>
      <psa30 value="0.0004038001" flag="0"/>
    </comp>
    <comp name="--.HHN">
      <acc value="0.0360654174" flag="0"/>
      <vel value="0.0150027802" flag="0"/>
      <psa03 value="0.0678616343" flag="0"/>
      <psa10 value="0.0264769314" flag="0"/>
      <psa30 value="0.0014754293" flag="0"/>
    </comp>
    <comp name="--.HHZ">
      <acc value="0.0236708305" flag="0"/>
      <vel value="0.0107845005" flag="0"/>
      <psa03 value="0.0459904531" flag="0"/>
      <psa10 value="0.0135326675" flag="0"/>
      <psa30 value="0.0007415132" flag="0"/>
    </comp>
  </station>
  <station code="KAVV" name="KAVV" netid="KO" insttype="100" lat="41.0628" lon="29.0608">
    <comp name="--.HNZ">
      <acc value="0.1808216123" flag="0"/>
      <vel value="0.0540060538" flag="0"/>
      <psa03 value="0.1727253629" flag="0"/>
      <psa10 value="0.0644160483" flag="0"/>
      <psa30 value="0.0036128305" flag="0"/>
    </comp>
    <comp name="--.HNE">
      <acc value="0.2914818089" flag="0"/>
      <vel value="0.0878719847" flag="0"/>
      <psa03 value="0.5503669401" flag="0"/>
      <psa10 value="0.0232460959" flag="0"/>
      <psa30 value="0.0023328011" flag="0"/>
    </comp>
    <comp name="--.HNN">
      <acc value="0.3220456235" flag="0"/>
      <vel value="0.1641888951" flag="0"/>
      <psa03 value="0.6340338230" flag="0"/>
      <psa10 value="0.1213532256" flag="0"/>
      <psa30 value="0.0063795478" flag="0"/>
    </comp>
  </station>
  <station code="KCTX" name="KCTX" netid="KO" insttype="30s," lat="40.2627" lon="28.3353">
    <comp name="--.HHZ">
      <acc value="0.0602618510" flag="0"/>
      <vel value="0.0159442815" flag="0"/>
      <psa03 value="0.0390104883" flag="0"/>
      <psa10 value="0.0099425477" flag="0"/>
      <psa30 value="0.0008168511" flag="0"/>
    </comp>
    <comp name="--.HHE">
      <acc value="0.0623265435" flag="0"/>
      <vel value="0.0252907476" flag="0"/>
      <psa03 value="0.0627925897" flag="0"/>
      <psa10 value="0.0223087573" flag="0"/>
      <psa30 value="0.0010811254" flag="0"/>
    </comp>
    <comp name="--.HHN">
      <acc value="0.0629176260" flag="0"/>
      <vel value="0.0309832103" flag="0"/>
      <psa03 value="0.0524599340" flag="0"/>
      <psa10 value="0.0261867200" flag="0"/>
      <psa30 value="0.0016633783" flag="0"/>
    </comp>
  </station>
  <station code="KLYT" name="KLYT" netid="KO" insttype="120s," lat="41.253" lon="29.042">
    <comp name="--.HHZ">
      <acc value="0.0311873777" flag="0"/>
      <vel value="0.0096167947" flag="0"/>
      <psa03 value="0.0328292906" flag="0"/>
      <psa10 value="0.0071224047" flag="0"/>
      <psa30 value="0.0004585585" flag="0"/>
    </comp>
    <comp name="--.HHN">
      <acc value="0.0484341995" flag="0"/>
      <vel value="0.0165063936" flag="0"/>
      <psa03 value="0.0896214609" flag="0"/>
      <psa10 value="0.0138800006" flag="0"/>
      <psa30 value="0.0010297780" flag="0"/>
    </comp>
    <comp name="--.HHE">
      <acc value="0.0558280245" flag="0"/>
      <vel value="0.0152707867" flag="0"/>
      <psa03 value="0.1116336805" flag="0"/>
      <psa10 value="0.0085300848" flag="0"/>
      <psa30 value="0.0004995903" flag="0"/>
    </comp>
  </station>
  <station code="KRBG" name="KRBG" netid="KO" insttype="30s," lat="40.3932" lon="27.2977">
    <comp name="--.HHN">
      <acc value="0.2973712864" flag="0"/>
      <vel value="0.0860806775" flag="0"/>
      <psa03 value="0.3452342469" flag="0"/>
      <psa10 value="0.0564164686" flag="0"/>
      <psa30 value="0.0029703409" flag="0"/>
    </comp>
    <comp name="--.HHE">
      <acc value="0.4721918919" flag="0"/>
      <vel value="0.2378431060" flag="0"/>
      <psa03 value="1.0135706271" flag="0"/>
      <psa10 value="0.0993049416" flag="0"/>
      <psa30 value="0.0113570402" flag="0"/>
    </comp>
    <comp name="--.HHZ">
      <acc value="0.2069529852" flag="0"/>
      <vel value="0.0544091665" flag="0"/>
      <psa03 value="0.2221417436" flag="0"/>
      <psa10 value="0.0458097402" flag="0"/>
      <psa30 value="0.0023172732" flag="0"/>
    </comp>
  </station>
  <station code="MDNY" name="MDNY" netid="KO" insttype="30s," lat="40.371" lon="28.8847">
    <comp name="--.HHE">
      <acc value="0.0962116463" flag="0"/>
      <vel value="0.0324905559" flag="0"/>
      <psa03 value="0.1519287333" flag="0"/>
      <psa10 value="0.0429747100" flag="0"/>
      <psa30 value="0.0022349213" flag="0"/>
    </comp>
    <comp name="--.HHN">
      <acc value="0.1365441186" flag="0"/>
      <vel value="0.0360481795" flag="0"/>
      <psa03 value="0.3466438322" flag="0"/>
      <psa10 value="0.0313185288" flag="0"/>
      <psa30 value="0.0021720600" flag="0"/>
    </comp>
    <comp name="--.HHZ">
      <acc value="0.0828135742" flag="0"/>
      <vel value="0.0182037263" flag="0"/>
      <psa03 value="0.0795347128" flag="0"/>
      <psa10 value="0.0072354728" flag="0"/>
      <psa30 value="0.0007490637" flag="0"/>
    </comp>
  </station>
  <station code="MRMT" name="MRMT" netid="KO" insttype="120s," lat="40.609" lon="27.5832">
    <comp name="--.HHE">
      <acc value="2.0414317584" flag="0"/>
      <vel value="0.3610114278" flag="0"/>
      <psa03 value="1.0098604168" flag="0"/>
      <psa10 value="0.6313644671" flag="0"/>
      <psa30 value="0.2101750666" flag="0"/>
    </comp>
    <comp name="--.HHN">
      <acc value="0.2386337588" flag="0"/>
      <vel value="0.0498011490" flag="0"/>
      <psa03 value="0.1803170464" flag="0"/>
      <psa10 value="0.0275708185" flag="0"/>
      <psa30 value="0.0030627463" flag="0"/>
    </comp>
    <comp name="--.HHZ">
      <acc value="1.7348182430" flag="0"/>
      <vel value="0.2495800537" flag="0"/>
      <psa03 value="0.7322297778" flag="0"/>
      <psa10 value="0.2916609280" flag="0"/>
      <psa30 value="0.1127989846" flag="0"/>
    </comp>
  </station>
  <station code="ORLT" name="ORLT" netid="KO" insttype="100" lat="40.0452" lon="28.8914">
    <comp name="--.HNE">
      <acc value="0.2007236625" flag="0"/>
      <vel value="0.0926310730" flag="0"/>
      <psa03 value="0.4345189281" flag="0"/>
      <psa10 value="0.0802716747" flag="0"/>
      <psa30 value="0.0086987866" flag="0"/>
    </comp>
    <comp name="--.HNZ">
      <acc value="0.0830629083" flag="0"/>
      <vel value="0.0327134232" flag="0"/>
      <psa03 value="0.1061335387" flag="0"/>
      <psa10 value="0.0333256208" flag="0"/>
      <psa30 value="0.0048531687" flag="0"/>
    </comp>
    <comp name="--.HNN">
      <acc value="0.2153577639" flag="0"/>
      <vel value="0.1054870547" flag="0"/>
      <psa03 value="0.4003925377" flag="0"/>
      <psa10 value="0.1407093654" flag="0"/>
      <psa30 value="0.0118441440" flag="0"/>
    </comp>
  </station>
  <station code="PHSR" name="PHSR" netid="KO" insttype="30s," lat="41.6308" lon="27.5238">
    <comp name="--.HHZ">
      <acc value="0.0213934824" flag="0"/>
      <vel value="0.0084492006" flag="0"/>
      <psa03 value="0.0463016794" flag="0"/>
      <psa10 value="0.0043074978" flag="0"/>
      <psa30 value="0.0002863262" flag="0"/>
    </comp>
    <comp name="--.HHE">
      <acc value="0.0378894307" flag="0"/>
      <vel value="0.0315029105" flag="0"/>
      <psa03 value="0.0717367094" flag="0"/>
