<stationlist created="1778069799">
	<station code="LMN1" name="LMN1" netid="HI" source="ITSAK Strong Motion Network" insttype="" lat="39.875" lon="25.0588">
		<comp name="--.HNE" depth="0.0">
			<acc value="0.022665707099821" flag="0"/>
			<vel value="0.0091793292239453" flag="0"/>
			<psa03 value="0.113510978190555" flag="0"/>
			<psa10 value="0.0035959311459105" flag="0"/>
			<psa30 value="0.000427288073204495" flag="0"/>
		</comp>
		<comp name="--.HNN" depth="0.0">
			<acc value="0.0172435070424814" flag="0"/>
			<vel value="0.00912671888381909" flag="0"/>
			<psa03 value="0.101520066816859" flag="0"/>
			<psa10 value="0.00388988744339255" flag="0"/>
			<psa30 value="0.000531984836691251" flag="0"/>
		</comp>
		<comp name="--.HNZ" depth="0.0">
			<acc value="0.0200093007711663" flag="0"/>
			<vel value="0.004447457781849" flag="0"/>
			<psa03 value="0.019104922226002" flag="0"/>
			<psa10 value="0.00412746856053557" flag="0"/>
			<psa30 value="0.00029798309607769" flag="0"/>
		</comp>
	</station>
	<station code="MYT1" name="MYT1" netid="HI" source="ITSAK Strong Motion Network" insttype="" lat="39.085" lon="26.5694">
		<comp name="--.HNE" depth="0.0">
			<acc value="0.0346431047314494" flag="0"/>
			<vel value="0.022731014473926" flag="0"/>
			<psa03 value="0.0664421768281336" flag="0"/>
			<psa10 value="0.0157327021131829" flag="0"/>
			<psa30 value="0.00335656034050275" flag="0"/>
		</comp>
		<comp name="--.HNN" depth="0.0">
			<acc value="0.0240657681672582" flag="0"/>
			<vel value="0.0167739366182778" flag="0"/>
			<psa03 value="0.0867551386328289" flag="0"/>
			<psa10 value="0.0199245994512488" flag="0"/>
			<psa30 value="0.00188454174276161" flag="0"/>
		</comp>
		<comp name="--.HNZ" depth="0.0">
			<acc value="0.0126660975719369" flag="0"/>
			<vel value="0.0106123260707494" flag="0"/>
			<psa03 value="0.0404469547829177" flag="0"/>
			<psa10 value="0.00924150277700403" flag="0"/>
			<psa30 value="0.002127939346765" flag="0"/>
		</comp>
	</station>
	<station code="SFL1" name="SFL1" netid="HI" source="ITSAK Strong Motion Network" insttype="" lat="41.189954" lon="26.304374">
		<comp name="--.HNE" depth="0.0">
			<acc value="0.157304351212501" flag="0"/>
			<vel value="0.0837134270008541" flag="0"/>
			<psa03 value="0.412030980747665" flag="0"/>
			<psa10 value="0.052279926167252" flag="0"/>
			<psa30 value="0.0035001828237474" flag="0"/>
		</comp>
		<comp name="--.HNN" depth="0.0">
			<acc value="0.167313927853407" flag="0"/>
			<vel value="0.0832550277093761" flag="0"/>
			<psa03 value="0.390778432603986" flag="0"/>
			<psa10 value="0.0436827111655511" flag="0"/>
			<psa30 value="0.00262055104163218" flag="0"/>
		</comp>
		<comp name="--.HNZ" depth="0.0">
			<acc value="0.102466869588788" flag="0"/>
			<vel value="0.0355673227102659" flag="0"/>
			<psa03 value="0.239818227473937" flag="0"/>
			<psa10 value="0.0135380968785567" flag="0"/>
			<psa30 value="0.0016697791509939" flag="0"/>
		</comp>
	</station>
	<station code="PRK" name="PRK" netid="HL" source="National Observatory of Athens Seismic Network" insttype="" lat="39.24565" lon="26.26499">
		<comp name="--.HNE" depth="0.0">
			<acc value="0.0245700630691396" flag="0"/>
			<vel value="0.0172371034592017" flag="0"/>
			<psa03 value="0.0551671407603291" flag="0"/>
			<psa10 value="0.0322143887651557" flag="0"/>
			<psa30 value="0.00243979252689436" flag="0"/>
		</comp>
		<comp name="--.HNN" depth="0.0">
			<acc value="0.0278471048286906" flag="0"/>
			<vel value="0.0185136630531736" flag="0"/>
			<psa03 value="0.0808491673592171" flag="0"/>
			<psa10 value="0.0257674842135289" flag="0"/>
			<psa30 value="0.00223129384405321" flag="0"/>
		</comp>
		<comp name="--.HNZ" depth="0.0">
			<acc value="0.0185742773472999" flag="0"/>
			<vel value="0.0125763769799452" flag="0"/>
			<psa03 value="0.0369570626666925" flag="0"/>
			<psa10 value="0.0124629416535196" flag="0"/>
			<psa30 value="0.000902002885424358" flag="0"/>
		</comp>
	</station>
	<station code="SMTH" name="SMTH" netid="HL" source="National Observatory of Athens Seismic Network" insttype="" lat="40.47094" lon="25.53045">
		<comp name="00.HNE" depth="0.0">
			<acc value="0.0357443360735397" flag="0"/>
			<vel value="0.0139497852442719" flag="0"/>
			<psa03 value="0.0568226024052051" flag="0"/>
			<psa10 value="0.0089757340696915" flag="0"/>
			<psa30 value="0.00104249341420573" flag="0"/>
		</comp>
		<comp name="00.HNN" depth="0.0">
			<acc value="0.0433736100615178" flag="0"/>
			<vel value="0.0183061394311657" flag="0"/>
			<psa03 value="0.0887685379306512" flag="0"/>
			<psa10 value="0.00770729251206349" flag="0"/>
			<psa30 value="0.00117090354720017" flag="0"/>
		</comp>
		<comp name="00.HNZ" depth="0.0">
			<acc value="0.0299971876847556" flag="0"/>
			<vel value="0.0119552228435321" flag="0"/>
			<psa03 value="0.0758380402179706" flag="0"/>
			<psa10 value="0.00841600906489692" flag="0"/>
			<psa30 value="0.000664421768281335" flag="0"/>
		</comp>
	</station>
	<station code="BIGA" name="BIGA" netid="KO" source="Bogazici University Kandilli Observatory And Earthquake Research Institute (KOERI)" insttype="" lat="40.28134" lon="27.15048">
		<comp name="--.HNE" depth="0.0">
			<acc value="2.59757812005321" flag="0"/>
			<vel value="0.952773283562198" flag="0"/>
			<psa03 value="5.83751569748592" flag="0"/>
			<psa10 value="0.201239259817332" flag="0"/>
			<psa30 value="0.0269173589236185" flag="0"/>
		</comp>
		<comp name="--.HNN" depth="0.0">
			<acc value="1.62321286140936" flag="0"/>
			<vel value="0.77598036807162" flag="0"/>
			<psa03 value="3.63991273501626" flag="0"/>
			<psa10 value="0.182510619548989" flag="0"/>
			<psa30 value="0.0157787865859997" flag="0"/>
		</comp>
		<comp name="--.HNZ" depth="0.0">
			<acc value="1.15756200000294" flag="0"/>
			<vel value="0.266247378570637" flag="0"/>
			<psa03 value="1.73241824025948" flag="0"/>
			<psa10 value="0.131213232239075" flag="0"/>
			<psa30 value="0.00887774863719748" flag="0"/>
		</comp>
	</station>
	<station code="BOTS" name="BOTS" netid="KO" source="Bogazici University Kandilli Observatory And Earthquake Research Institute (KOERI)" insttype="" lat="40.9902" lon="27.981">
		<comp name="--.HNE" depth="0.0">
			<acc value="0.0571314326464059" flag="0"/>
			<vel value="0.0249313457652956" flag="0"/>
			<psa03 value="0.0957035799564833" flag="0"/>
			<psa10 value="0.0267782106610356" flag="0"/>
			<psa30 value="0.00209885691246313" flag="0"/>
		</comp>
		<comp name="--.HNN" depth="0.0">
			<acc value="0.0512808359607975" flag="0"/>
			<vel value="0.0179477216802051" flag="0"/>
			<psa03 value="0.105681092032358" flag="0"/>
			<psa10 value="0.0226145009131393" flag="0"/>
			<psa30 value="0.0017811872454734" flag="0"/>
		</comp>
		<comp name="--.HNZ" depth="0.0">
			<acc value="0.0343302586743129" flag="0"/>
			<vel value="0.00911280092967691" flag="0"/>
			<psa03 value="0.0311853180129354" flag="0"/>
			<psa10 value="0.00718783549322536" flag="0"/>
			<psa30 value="0.00155121230345548" flag="0"/>
		</comp>
	</station>
	<station code="CANM" name="CANM" netid="KO" source="Bogazici University Kandilli Observatory And Earthquake Research Institute (KOERI)" insttype="" lat="40.0113" lon="27.0529">
		<comp name="--.HNE" depth="0.0">
			<acc value="0.974621226389006" flag="0"/>
			<vel value="0.267374685667597" flag="0"/>
			<psa03 value="1.8137595718915" flag="0"/>
			<psa10 value="0.098205564150577" flag="0"/>
			<psa30 value="0.0116933756996853" flag="0"/>
		</comp>
		<comp name="--.HNN" depth="0.0">
			<acc value="0.773500662048964" flag="0"/>
			<vel value="0.309145399267811" flag="0"/>
			<psa03 value="1.94190125164623" flag="0"/>
			<psa10 value="0.146136547834533" flag="0"/>
			<psa30 value="0.00921913167369489" flag="0"/>
		</comp>
		<comp name="--.HNZ" depth="0.0">
			<acc value="0.781573906465039" flag="0"/>
			<vel value="0.266349030340774" flag="0"/>
			<psa03 value="1.69689292820457" flag="0"/>
			<psa10 value="0.0922096610416624" flag="0"/>
			<psa30 value="0.00679365665291838" flag="0"/>
		</comp>
	</station>
	<station code="DST" name="DST" netid="KO" source="Bogazici University Kandilli Observatory And Earthquake Research Institute (KOERI)" insttype="" lat="39.6041" lon="28.6267">
		<comp name="--.HNE" depth="0.0">
			<acc value="0.134849785337268" flag="0"/>
			<vel value="0.0699063617464284" flag="0"/>
			<psa03 value="0.320980590279482" flag="0"/>
			<psa10 value="0.0617871976515686" flag="0"/>
			<psa30 value="0.00462992354085876" flag="0"/>
		</comp>
		<comp name="--.HNN" depth="0.0">
			<acc value="0.158307612410102" flag="0"/>
			<vel value="0.0742753210645251" flag="0"/>
			<psa03 value="0.2982515493174" flag="0"/>
			<psa10 value="0.103621608261719" flag="0"/>
			<psa30 value="0.00511985070332884" flag="0"/>
		</comp>
		<comp name="--.HNZ" depth="0.0">
			<acc value="0.120775025687123" flag="0"/>
			<vel value="0.0645696999968807" flag="0"/>
			<psa03 value="0.234225451646653" flag="0"/>
			<psa10 value="0.0668368030905067" flag="0"/>
			<psa30 value="0.00303307418665264" flag="0"/>
		</comp>
	</station>
	<station code="EZNE" name="EZNE" netid="KO" source="Bogazici University Kandilli Observatory And Earthquake Research Institute (KOERI)" insttype="" lat="39.756" lon="26.3655">
		<comp name="--.HNE" depth="0.0">
			<acc value="0.232223631723689" flag="0"/>
			<vel value="0.0783318084241476" flag="0"/>
			<psa03 value="0.495788391537069" flag="0"/>
			<psa10 value="0.0476692417752391" flag="0"/>
			<psa30 value="0.00454536077035023" flag="0"/>
		</comp>
		<comp name="--.HNN" depth="0.0">
			<acc value="0.292996366555286" flag="0"/>
			<vel value="0.119023539855837" flag="0"/>
			<psa03 value="0.715920048098966" flag="0"/>
			<psa10 value="0.112867137837318" flag="0"/>
			<psa30 value="0.00541156989047997" flag="0"/>
		</comp>
		<comp name="--.HNZ" depth="0.0">
			<acc value="0.258122952732238" flag="0"/>
			<vel value="0.0771505868275711" flag="0"/>
			<psa03 value="0.596368872014944" flag="0"/>
			<psa10 value="0.0409243541275346" flag="0"/>
			<psa30 value="0.00311137304823462" flag="0"/>
		</comp>
	</station>
	<station code="GONE" name="GONE" netid="KO" source="Bogazici University Kandilli Observatory And Earthquake Research Institute (KOERI)" insttype="" lat="40.0466" lon="27.686">
		<comp name="--.HNE" depth="0.0">
			<acc value="0.138051647946065" flag="0"/>
			<vel value="0.0851130280023732" flag="0"/>
			<psa03 value="0.31480616576616" flag="0"/>
			<psa10 value="0.165211492782101" flag="0"/>
			<psa30 value="0.00803212093211214" flag="0"/>
		</comp>
		<comp name="--.HNN" depth="0.0">
			<acc value="0.170426160117416" flag="0"/>
			<vel value="0.101478466579566" flag="0"/>
			<psa03 value="0.32232285647803" flag="0"/>
			<psa10 value="0.142258740786927" flag="0"/>
			<psa30 value="0.0108276140016218" flag="0"/>
		</comp>
		<comp name="--.HNZ" depth="0.0">
			<acc value="0.145417050454733" flag="0"/>
			<vel value="0.05831261337766" flag="0"/>
			<psa03 value="0.163577507396402" flag="0"/>
			<psa10 value="0.110982596094557" flag="0"/>
			<psa30 value="0.00475385945319137" flag="0"/>
		</comp>
	</station>
	<station code="GORD" name="GORD" netid="KO" source="Bogazici University Kandilli Observatory And Earthquake Research Institute (KOERI)" insttype="" lat="38.9088" lon="28.1769">
		<comp name="--.HNE" depth="0.0">
			<acc value="0.0287937337790355" flag="0"/>
			<vel value="0.037225946150902" flag="0"/>
			<psa03 value="0.0755248447716427" flag="0"/>
			<psa10 value="0.0646945462376239" flag="0"/>
			<psa30 value="0.00434983732742838" flag="0"/>
		</comp>
		<comp name="--.HNN" depth="0.0">
			<acc value="0.0293900601876419" flag="0"/>
			<vel value="0.0285471626151798" flag="0"/>
			<psa03 value="0.0456817929572555" flag="0"/>
			<psa10 value="0.0425833951489401" flag="0"/>
			<psa30 value="0.00411225621028536" flag="0"/>
		</comp>
		<comp name="--.HNZ" depth="0.0">
			<acc value="0.0176084591516104" flag="0"/>
			<vel value="0.0207579959774528" flag="0"/>
			<psa03 value="0.0759275246312072" flag="0"/>
			<psa10 value="0.0478987692951908" flag="0"/>
			<psa30 value="0.00273732820090587" flag="0"/>
		</comp>
	</station>
	<station code="HVHR" name="HVHR" netid="KO" source="Bogazici University Kandilli Observatory And Earthquake Research Institute (KOERI)" insttype="" lat="40.9699" lon="28.8445">
		<comp name="--.HNE" depth="0.0">
			<acc value="0.208646666688097" flag="0"/>
			<vel value="0.0942397720230509" flag="0"/>
			<psa03 value="0.452254224497491" flag="0"/>
			<psa10 value="0.0529081067481725" flag="0"/>
			<psa30 value="0.00444200627306202" flag="0"/>
		</comp>
		<comp name="--.HNN" depth="0.0">
			<acc value="0.131710469485299" flag="0"/>
			<vel value="0.0800919642939686" flag="0"/>
			<psa03 value="0.374581753808171" flag="0"/>
			<psa10 value="0.0607080156279358" flag="0"/>
			<psa30 value="0.00397489763596726" flag="0"/>
		</comp>
		<comp name="--.HNZ" depth="0.0">
			<acc value="0.119609922307773" flag="0"/>
			<vel value="0.0552316757797619" flag="0"/>
			<psa03 value="0.323754607089814" flag="0"/>
			<psa10 value="0.0272936408812781" flag="0"/>
			<psa30 value="0.00177626560274539" flag="0"/>
		</comp>
	</station>
	<station code="KAVV" name="KAVV" netid="KO" source="Bogazici University Kandilli Observatory And Earthquake Research Institute (KOERI)" insttype="" lat="41.0638" lon="29.06">
		<comp name="--.HNE" depth="0.0">
			<acc value="0.294275582339814" flag="0"/>
			<vel value="0.088525946273709" flag="0"/>
			<psa03 value="0.552924189388602" flag="0"/>
			<psa10 value="0.0233675122505248" flag="0"/>
			<psa30 value="0.00264336956700749" flag="0"/>
		</comp>
		<comp name="--.HNN" depth="0.0">
			<acc value="0.321400012785386" flag="0"/>
			<vel value="0.166153480337734" flag="0"/>
			<psa03 value="0.637665928723609" flag="0"/>
			<psa10 value="0.12165763917161" flag="0"/>
			<psa30 value="0.00671848974579969" flag="0"/>
		</comp>
		<comp name="--.HNZ" depth="0.0">
			<acc value="0.178862245896405" flag="0"/>
			<vel value="0.0544662283836808" flag="0"/>
			<psa03 value="0.17216801106711" flag="0"/>
			<psa10 value="0.0645495814881807" flag="0"/>
			<psa30 value="0.00368720524741177" flag="0"/>
		</comp>
	</station>
	<station code="ORLT" name="ORLT" netid="KO" source="Bogazici University Kandilli Observatory And Earthquake Research Institute (KOERI)" insttype="" lat="40.0452" lon="28.8914">
		<comp name="--.HNE" depth="0.0">
			<acc value="0.200862926995834" flag="0"/>
			<vel value="0.092141232893436" flag="0"/>
			<psa03 value="0.441784548148815" flag="0"/>
			<psa10 value="0.0806004006904195" flag="0"/>
			<psa30 value="0.00913814827971582" flag="0"/>
		</comp>
		<comp name="--.HNN" depth="0.0">
			<acc value="0.21456776566937" flag="0"/>
			<vel value="0.105693031212165" flag="0"/>
			<psa03 value="0.415655099483745" flag="0"/>
			<psa10 value="0.140893656063004" flag="0"/>
			<psa30 value="0.0120687628132126" flag="0"/>
		</comp>
		<comp name="--.HNZ" depth="0.0">
			<acc value="0.0836812789130545" flag="0"/>
			<vel value="0.0333988286861751" flag="0"/>
			<psa03 value="0.108410366636072" flag="0"/>
			<psa10 value="0.0334022943508708" flag="0"/>
			<psa30 value="0.00535251017774385" flag="0"/>
		</comp>
	</station>
	<station code="SOMA" name="SOMA" netid="KO" source="Bogazici University Kandilli Observatory And Earthquake Research Institute (KOERI)" insttype="" lat="39.1564" lon="27.5341">
		<comp name="--.HNE" depth="0.0">
			<acc value="0.0696880133714434" flag="0"/>
			<vel value="0.0501618186491523" flag="0"/>
			<psa03 value="0.151049689543285" flag="0"/>
			<psa10 value="0.108808124852909" flag="0"/>
			<psa30 value="0.00646345916807554" flag="0"/>
		</comp>
		<comp name="--.HNN" depth="0.0">
			<acc value="0.0785898942653369" flag="0"/>
			<vel value="0.0609217714793215" flag="0"/>
			<psa03 value="0.218162999470693" flag="0"/>
			<psa10 value="0.0766944060526443" flag="0"/>
			<psa30 value="0.00721423339513014" flag="0"/>
		</comp>
		<comp name="--.HNZ" depth="0.0">
			<acc value="0.0499655413549" flag="0"/>
			<vel value="0.0391027644314549" flag="0"/>
			<psa03 value="0.189572729441617" flag="0"/>
			<psa10 value="0.0645536082867763" flag="0"/>
			<psa30 value="0.00534893080121439" flag="0"/>
		</comp>
	</station>
	<station code="SUSR" name="SUSR" netid="KO" source="Bogazici University Kandilli Observatory And Earthquake Research Institute (KOERI)" insttype="" lat="39.9627" lon="28.0835">
		<comp name="--.HNE" depth="0.0">
			<acc value="0.207400918351868" flag="0"/>
			<vel value="0.0918854458133671" flag="0"/>
			<psa03 value="0.370823408452236" flag="0"/>
			<psa10 value="0.0558798841117581" flag="0"/>
			<psa30 value="0.00363664655393313" flag="0"/>
		</comp>
		<comp name="--.HNN" depth="0.0">
			<acc value="0.244778061561456" flag="0"/>
			<vel value="0.0885254673370111" flag="0"/>
			<psa03 value="0.232435763381922" flag="0"/>
			<psa10 value="0.0377109688482103" flag="0"/>
			<psa30 value="0.0044554289350475" flag="0"/>
		</comp>
		<comp name="--.HNZ" depth="0.0">
			<acc value="0.208324598080254" flag="0"/>
			<vel value="0.0632931932640605" flag="0"/>
			<psa03 value="0.137537543144567" flag="0"/>
			<psa10 value="0.0660314433713778" flag="0"/>
			<psa30 value="0.00291808671564368" flag="0"/>
		</comp>
	</station>
	<station code="TKR" name="TKR" netid="KO" source="Bogazici University Kandilli Observatory And Earthquake Research Institute (KOERI)" insttype="" lat="40.9893" lon="27.5351">
		<comp name="--.HNE" depth="0.0">
			<acc value="1.71696489345273" flag="0"/>
			<vel value="0.846175168604832" flag="0"/>
			<psa03 value="3.32984924315164" flag="0"/>
			<psa10 value="0.570037635998025" flag="0"/>
			<psa30 value="0.0529577705975188" flag="0"/>
		</comp>
		<comp name="--.HNN" depth="0.0">
			<acc value="3.41775248576893" flag="0"/>
			<vel value="0.936352992957816" flag="0"/>
			<psa03 value="3.54130091162959" flag="0"/>
			<psa10 value="0.438067365622969" flag="0"/>
			<psa30 value="0.046236596319322" flag="0"/>
		</comp>
		<comp name="--.HNZ" depth="0.0">
			<acc value="0.686803444268469" flag="0"/>
			<vel value="0.256917250342091" flag="0"/>
			<psa03 value="1.16186562146328" flag="0"/>
			<psa10 value="0.192654125211418" flag="0"/>
			<psa30 value="0.0243760015877006" flag="0"/>
		</comp>
	</station>
	<station code="TUZL" name="TUZL" netid="KO" source="Bogazici University Kandilli Observatory And Earthquake Research Institute (KOERI)" insttype="" lat="40.8128" lon="29.2657">
		<comp name="--.HNE" depth="0.0">
			<acc value="0.0770051156919503" flag="0"/>
			<vel value="0.022426781235466" flag="0"/>
			<psa03 value="0.106889131611051" flag="0"/>
			<psa10 value="0.00613684105976215" flag="0"/>
			<psa30 value="0.000592386815625918" flag="0"/>
		</comp>
		<comp name="--.HNN" depth="0.0">
			<acc value="0.0919378266851727" flag="0"/>
			<vel value="0.0298230323855388" flag="0"/>
			<psa03 value="0.131855282904047" flag="0"/>
			<psa10 value="0.0140092323142471" flag="0"/>
			<psa30 value="0.00097314299394741" flag="0"/>
		</comp>
		<comp name="--.HNZ" depth="0.0">
			<acc value="0.0231329619246293" flag="0"/>
			<vel value="0.00664759575911935" flag="0"/>
			<psa03 value="0.0264426441113986" flag="0"/>
			<psa10 value="0.00708716552833425" flag="0"/>
			<psa30 value="0.000308721225666075" flag="0"/>
		</comp>
	</station>
	<station code="UKOP" name="UKOP" netid="KO" source="Bogazici University Kandilli Observatory And Earthquake Research Institute (KOERI)" insttype="" lat="41.1288" lon="26.6323">
		<comp name="--.HNE" depth="0.0">
			<acc value="0.576581743602404" flag="0"/>
			<vel value="0.372721317967882" flag="0"/>
			<psa03 value="1.45246625344896" flag="0"/>
			<psa10 value="0.225665820098511" flag="0"/>
			<psa30 value="0.0269544949551116" flag="0"/>
		</comp>
		<comp name="--.HNN" depth="0.0">
			<acc value="0.556784393214457" flag="0"/>
			<vel value="0.236884193914659" flag="0"/>
			<psa03 value="1.10593786319044" flag="0"/>
