<?xml version="1.0" encoding="UTF-8" standalone="yes"?>
<!DOCTYPE earthquake SYSTEM "stationlist.dtd">
<stationlist created="" xmlns="ch.ethz.sed.shakemap.usgs.xml">
  <station code="APMY" name="APMY" netid="KO" insttype="CMG-6T" lat="37.4717" lon="29.3018">
    <comp name="--.HHN">
      <acc value="0.0154419723" flag="0"/>
      <vel value="0.0091635693" flag="0"/>
      <psa03 value="0.0427837606" flag="0"/>
      <psa10 value="0.0093746099" flag="0"/>
      <psa30 value="0.0007625885" flag="0"/>
    </comp>
    <comp name="--.HHZ">
      <acc value="0.0127753809" flag="0"/>
      <vel value="0.0077995297" flag="0"/>
      <psa03 value="0.0404409732" flag="0"/>
      <psa10 value="0.0085378783" flag="0"/>
      <psa30 value="0.0007215285" flag="0"/>
    </comp>
    <comp name="--.HHE">
      <acc value="0.0113363258" flag="0"/>
      <vel value="0.0078856764" flag="0"/>
      <psa03 value="0.0360848601" flag="0"/>
      <psa10 value="0.0049106067" flag="0"/>
      <psa30 value="0.0007259223" flag="0"/>
    </comp>
  </station>
  <station code="AYDB" name="AYDB" netid="KO" insttype="CMG-3ESPC" lat="37.9467" lon="27.8908">
    <comp name="--.HHE">
      <acc value="0.0196056703" flag="0"/>
      <vel value="0.0110103097" flag="0"/>
      <psa03 value="0.0533822065" flag="0"/>
      <psa10 value="0.0056047869" flag="0"/>
      <psa30 value="0.0005491507" flag="0"/>
    </comp>
    <comp name="--.HHZ">
      <acc value="0.0100674070" flag="0"/>
      <vel value="0.0056185505" flag="0"/>
      <psa03 value="0.0253888343" flag="0"/>
      <psa10 value="0.0037193660" flag="0"/>
      <psa30 value="0.0002641224" flag="0"/>
    </comp>
    <comp name="--.HHN">
      <acc value="0.0213461885" flag="0"/>
      <vel value="0.0095118128" flag="0"/>
      <psa03 value="0.0428503337" flag="0"/>
      <psa10 value="0.0056922976" flag="0"/>
      <psa30 value="0.0003973900" flag="0"/>
    </comp>
  </station>
  <station code="BODA" name="BODA" netid="KO" insttype="ACEBOX" lat="37.0348" lon="27.4304">
    <comp name="--.HNE">
      <acc value="0.0154903319" flag="0"/>
      <vel value="0.0055302227" flag="0"/>
      <psa03 value="0.0404223324" flag="0"/>
      <psa10 value="0.0039887300" flag="0"/>
      <psa30 value="0.0003191604" flag="0"/>
    </comp>
    <comp name="--.HNN">
      <acc value="0.0139363558" flag="0"/>
      <vel value="0.0055295258" flag="0"/>
      <psa03 value="0.0389131881" flag="0"/>
      <psa10 value="0.0033665148" flag="0"/>
      <psa30 value="0.0002817455" flag="0"/>
    </comp>
    <comp name="--.HNZ">
      <acc value="0.0103677243" flag="0"/>
      <vel value="0.0019184209" flag="0"/>
      <psa03 value="0.0124698958" flag="0"/>
      <psa10 value="0.0022068060" flag="0"/>
      <psa30 value="0.0002507108" flag="0"/>
    </comp>
  </station>
  <station code="CAME" name="CAME" netid="KO" insttype="CMG-5T" lat="36.9435" lon="29.3023">
    <comp name="--.HNE">
      <acc value="0.0099388566" flag="0"/>
      <vel value="0.0032161992" flag="0"/>
      <psa03 value="0.0175381956" flag="0"/>
      <psa10 value="0.0050735867" flag="0"/>
      <psa30 value="0.0003253155" flag="0"/>
    </comp>
    <comp name="--.HNN">
      <acc value="0.0071335574" flag="0"/>
      <vel value="0.0037516485" flag="0"/>
      <psa03 value="0.0245866120" flag="0"/>
      <psa10 value="0.0034854916" flag="0"/>
      <psa30 value="0.0002786947" flag="0"/>
    </comp>
    <comp name="--.HNZ">
      <acc value="0.0044742092" flag="0"/>
      <vel value="0.0021162334" flag="0"/>
      <psa03 value="0.0078471887" flag="0"/>
      <psa10 value="0.0015944372" flag="0"/>
      <psa30 value="0.0001721828" flag="0"/>
    </comp>
  </station>
  <station code="DALY" name="DALY" netid="KO" insttype="CMG-3T" lat="36.8162" lon="28.6532">
    <comp name="--.HHE">
      <acc value="0.0219610712" flag="0"/>
      <vel value="0.0110376383" flag="0"/>
      <psa03 value="0.0466253741" flag="0"/>
      <psa10 value="0.0084291961" flag="0"/>
      <psa30 value="0.0007186882" flag="0"/>
    </comp>
    <comp name="--.HHN">
      <acc value="0.0210851643" flag="0"/>
      <vel value="0.0149339896" flag="0"/>
      <psa03 value="0.0407079843" flag="0"/>
      <psa10 value="0.0141808542" flag="0"/>
      <psa30 value="0.0008378690" flag="0"/>
    </comp>
    <comp name="--.HHZ">
      <acc value="0.0098781169" flag="0"/>
      <vel value="0.0050652674" flag="0"/>
      <psa03 value="0.0206669502" flag="0"/>
      <psa10 value="0.0062591093" flag="0"/>
      <psa30 value="0.0007073837" flag="0"/>
    </comp>
  </station>
  <station code="NAZL" name="NAZL" netid="KO" insttype="CMG-5T" lat="37.9641" lon="28.2922">
    <comp name="--.HNE">
      <acc value="0.0315880989" flag="0"/>
      <vel value="0.0126784987" flag="0"/>
      <psa03 value="0.0999761766" flag="0"/>
      <psa10 value="0.0113202066" flag="0"/>
      <psa30 value="0.0005987679" flag="0"/>
    </comp>
    <comp name="--.HNZ">
      <acc value="0.0184501150" flag="0"/>
      <vel value="0.0072879398" flag="0"/>
      <psa03 value="0.0335274344" flag="0"/>
      <psa10 value="0.0032988333" flag="0"/>
      <psa30 value="0.0002586705" flag="0"/>
    </comp>
    <comp name="--.HNN">
      <acc value="0.0327115639" flag="0"/>
      <vel value="0.0134848493" flag="0"/>
      <psa03 value="0.0887470468" flag="0"/>
      <psa10 value="0.0097376742" flag="0"/>
      <psa30 value="0.0004000135" flag="0"/>
    </comp>
  </station>
  <station code="YER" name="YER" netid="KO" insttype="CMG-3T" lat="37.1336" lon="28.284">
    <comp name="--.HHN">
      <acc value="0.0521799792" flag="0"/>
      <vel value="0.0187662454" flag="0"/>
      <psa03 value="0.1246806299" flag="0"/>
      <psa10 value="0.0112968147" flag="0"/>
      <psa30 value="0.0011548269" flag="0"/>
    </comp>
    <comp name="--.HHZ">
      <acc value="0.0367770859" flag="0"/>
      <vel value="0.0136688138" flag="0"/>
      <psa03 value="0.0851920325" flag="0"/>
      <psa10 value="0.0081247546" flag="0"/>
      <psa30 value="0.0006309162" flag="0"/>
    </comp>
  </station>
  <station code="AYDN" name="AYDN" netid="TU" insttype="T" lat="37.6608" lon="27.8792">
    <comp name="--.HHE">
      <acc value="0.0266658699" flag="0"/>
      <vel value="0.0118261264" flag="0"/>
      <psa03 value="0.0735417981" flag="0"/>
      <psa10 value="0.0080897000" flag="0"/>
      <psa30 value="0.0006068051" flag="0"/>
    </comp>
    <comp name="--.HHZ">
      <acc value="0.0175347334" flag="0"/>
      <vel value="0.0070643740" flag="0"/>
      <psa03 value="0.0268442777" flag="0"/>
      <psa10 value="0.0050224019" flag="0"/>
      <psa30 value="0.0003547252" flag="0"/>
    </comp>
    <comp name="--.HHN">
      <acc value="0.0293633337" flag="0"/>
      <vel value="0.0113285946" flag="0"/>
      <psa03 value="0.0922050826" flag="0"/>
      <psa10 value="0.0111389743" flag="0"/>
      <psa30 value="0.0006828388" flag="0"/>
    </comp>
  </station>
</stationlist>
