<stationlist created="1778138476">
	<station code="ABEA" name="ABEA" netid="HC" source="Seismological Network of Crete (HC)" insttype="" lat="35.5163" lon="24.0113">
		<comp name="--.HNE" depth="0.0">
			<acc value="0.0354672997051077" flag="0"/>
			<vel value="0.0332122784358478" flag="0"/>
			<psa03 value="0.147002863218298" flag="0"/>
			<psa10 value="0.0614804102752571" flag="0"/>
			<psa30 value="0.00346621086946082" flag="0"/>
		</comp>
		<comp name="--.HNN" depth="0.0">
			<acc value="0.0414376901241147" flag="0"/>
			<vel value="0.0280994937437225" flag="0"/>
			<psa03 value="0.109607656802535" flag="0"/>
			<psa10 value="0.0508774453810028" flag="0"/>
			<psa30 value="0.00514314362468341" flag="0"/>
		</comp>
		<comp name="--.HNZ" depth="0.0">
			<acc value="0.0190917080357368" flag="0"/>
			<vel value="0.0176113637662809" flag="0"/>
			<psa03 value="0.0420580335341591" flag="0"/>
			<psa10 value="0.0534659906096435" flag="0"/>
			<psa30 value="0.00230875877726994" flag="0"/>
		</comp>
	</station>
	<station code="ATEI" name="ATEI" netid="HC" source="Seismological Network of Crete (HC)" insttype="" lat="35.5193" lon="24.0432">
		<comp name="--.HNE" depth="0.0">
			<acc value="0.0325910880742628" flag="0"/>
			<vel value="0.0249899153618284" flag="0"/>
			<psa03 value="0.0571445511711988" flag="0"/>
			<psa10 value="0.0342198843994042" flag="0"/>
			<psa30 value="0.00299074041354058" flag="0"/>
		</comp>
		<comp name="--.HNN" depth="0.0">
			<acc value="0.0317823952429031" flag="0"/>
			<vel value="0.0253605894679765" flag="0"/>
			<psa03 value="0.0660593083966355" flag="0"/>
			<psa10 value="0.0415588430693904" flag="0"/>
			<psa30 value="0.00397986906346043" flag="0"/>
		</comp>
		<comp name="--.HNZ" depth="0.0">
			<acc value="0.0252395781649081" flag="0"/>
			<vel value="0.0286726977511992" flag="0"/>
			<psa03 value="0.0803061740564982" flag="0"/>
			<psa10 value="0.0415052595199289" flag="0"/>
			<psa30 value="0.00205351978560916" flag="0"/>
		</comp>
	</station>
	<station code="DEYA" name="DEYA" netid="HC" source="Seismological Network of Crete (HC)" insttype="" lat="35.4825" lon="24.014">
		<comp name="--.HNE" depth="0.0">
			<acc value="0.126830419286102" flag="0"/>
			<vel value="0.0983254728953054" flag="0"/>
			<psa03 value="0.368180806838226" flag="0"/>
			<psa10 value="0.152911324624744" flag="0"/>
			<psa30 value="0.0046124922216317" flag="0"/>
		</comp>
		<comp name="--.HNN" depth="0.0">
			<acc value="0.061848762154984" flag="0"/>
			<vel value="0.0460692585514026" flag="0"/>
			<psa03 value="0.177313496148825" flag="0"/>
			<psa10 value="0.0644905696837439" flag="0"/>
			<psa30 value="0.00419894190929539" flag="0"/>
		</comp>
		<comp name="--.HNZ" depth="0.0">
			<acc value="0.0667050286767673" flag="0"/>
			<vel value="0.0541739909752512" flag="0"/>
			<psa03 value="0.157633827884111" flag="0"/>
			<psa10 value="0.0494272918154359" flag="0"/>
			<psa30 value="0.00232042163320983" flag="0"/>
		</comp>
	</station>
	<station code="G0LD" name="G0LD" netid="HC" source="Seismological Network of Crete (HC)" insttype="" lat="35.4955" lon="24.0306">
		<comp name="--.HNE" depth="0.0">
			<acc value="0.088132627260939" flag="0"/>
			<vel value="0.0975263564467276" flag="0"/>
			<psa03 value="0.32292430881728" flag="0"/>
			<psa10 value="0.28095967219951" flag="0"/>
			<psa30 value="0.0105768031613131" flag="0"/>
		</comp>
		<comp name="--.HNN" depth="0.0">
			<acc value="0.106611444211183" flag="0"/>
			<vel value="0.081169470720216" flag="0"/>
			<psa03 value="0.299346351060125" flag="0"/>
			<psa10 value="0.17029087593478" flag="0"/>
			<psa30 value="0.0127070601137103" flag="0"/>
		</comp>
		<comp name="--.HNZ" depth="0.0">
			<acc value="0.0555223815436783" flag="0"/>
			<vel value="0.0614213028580507" flag="0"/>
			<psa03 value="0.142741508007538" flag="0"/>
			<psa10 value="0.0889804795201619" flag="0"/>
			<psa30 value="0.00379387882585416" flag="0"/>
		</comp>
	</station>
	<station code="MULT" name="MULT" netid="HC" source="Seismological Network of Crete (HC)" insttype="" lat="35.5091" lon="24.0118">
		<comp name="--.HNE" depth="0.0">
			<acc value="0.0515863791836443" flag="0"/>
			<vel value="0.0434889069341749" flag="0"/>
			<psa03 value="0.09019238105271" flag="0"/>
			<psa10 value="0.0683971509757395" flag="0"/>
			<psa30 value="0.00327487277758214" flag="0"/>
		</comp>
		<comp name="--.HNN" depth="0.0">
			<acc value="0.0427937052291608" flag="0"/>
			<vel value="0.0312562426874698" flag="0"/>
			<psa03 value="0.11485573362848" flag="0"/>
			<psa10 value="0.0659815634546228" flag="0"/>
			<psa30 value="0.00554010700489926" flag="0"/>
		</comp>
		<comp name="--.HNZ" depth="0.0">
			<acc value="0.0336141378189865" flag="0"/>
			<vel value="0.022594919482006" flag="0"/>
			<psa03 value="0.055597636195617" flag="0"/>
			<psa10 value="0.0607729634106782" flag="0"/>
			<psa30 value="0.00362238704869922" flag="0"/>
		</comp>
	</station>
	<station code="NERO" name="NERO" netid="HC" source="Seismological Network of Crete (HC)" insttype="" lat="35.474" lon="24.0423">
		<comp name="--.HNE" depth="0.0">
			<acc value="0.0415094659236327" flag="0"/>
			<vel value="0.0334614173227348" flag="0"/>
			<psa03 value="0.142411361136869" flag="0"/>
			<psa10 value="0.0361906887055015" flag="0"/>
			<psa30 value="0.00216157006840707" flag="0"/>
		</comp>
		<comp name="--.HNN" depth="0.0">
			<acc value="0.0366867854771601" flag="0"/>
			<vel value="0.0243699543154174" flag="0"/>
			<psa03 value="0.123423551204481" flag="0"/>
			<psa10 value="0.0465928240457562" flag="0"/>
			<psa30 value="0.00334283852998066" flag="0"/>
		</comp>
		<comp name="--.HNZ" depth="0.0">
			<acc value="0.0281958566625088" flag="0"/>
			<vel value="0.0180613841266239" flag="0"/>
			<psa03 value="0.0775376469050765" flag="0"/>
			<psa10 value="0.0254972021894922" flag="0"/>
			<psa30 value="0.00163868730498968" flag="0"/>
		</comp>
	</station>
	<station code="PASK" name="PASK" netid="HC" source="Seismological Network of Crete (HC)" insttype="" lat="35.4996" lon="24.0121">
		<comp name="--.HNE" depth="0.0">
			<acc value="0.0527869344269656" flag="0"/>
			<vel value="0.0522135831387263" flag="0"/>
			<psa03 value="0.176637180512779" flag="0"/>
			<psa10 value="0.0664788163951357" flag="0"/>
			<psa30 value="0.00400427651366508" flag="0"/>
		</comp>
		<comp name="--.HNN" depth="0.0">
			<acc value="0.0671257363633442" flag="0"/>
			<vel value="0.0629900616788508" flag="0"/>
			<psa03 value="0.197422015739621" flag="0"/>
			<psa10 value="0.056458685110884" flag="0"/>
			<psa30 value="0.00442738995952215" flag="0"/>
		</comp>
		<comp name="--.HNZ" depth="0.0">
			<acc value="0.0335900254587762" flag="0"/>
			<vel value="0.0233034596512124" flag="0"/>
			<psa03 value="0.0966624034098847" flag="0"/>
			<psa10 value="0.0330019574677204" flag="0"/>
			<psa30 value="0.002251647702275" flag="0"/>
		</comp>
	</station>
	<station code="POLY" name="POLY" netid="HC" source="Seismological Network of Crete (HC)" insttype="" lat="35.5226" lon="24.0602">
		<comp name="--.HNE" depth="0.0">
			<acc value="0.030696005748343" flag="0"/>
			<vel value="0.0318557698386079" flag="0"/>
			<psa03 value="0.0952847704817691" flag="0"/>
			<psa10 value="0.0326745495285579" flag="0"/>
			<psa30 value="0.0030951887910655" flag="0"/>
		</comp>
		<comp name="--.HNN" depth="0.0">
			<acc value="0.0328748536165489" flag="0"/>
			<vel value="0.0287871421736987" flag="0"/>
			<psa03 value="0.0995231762554842" flag="0"/>
			<psa10 value="0.0608330911436891" flag="0"/>
			<psa30 value="0.00391422679831664" flag="0"/>
		</comp>
		<comp name="--.HNZ" depth="0.0">
			<acc value="0.0204834227175503" flag="0"/>
			<vel value="0.0174395715686144" flag="0"/>
			<psa03 value="0.0803564065511031" flag="0"/>
			<psa10 value="0.0201948984378926" flag="0"/>
			<psa30 value="0.00140315638972573" flag="0"/>
		</comp>
	</station>
	<station code="SOUD" name="SOUD" netid="HC" source="Seismological Network of Crete (HC)" insttype="" lat="35.4878" lon="24.0678">
		<comp name="--.HNE" depth="0.0">
			<acc value="0.0715947704578628" flag="0"/>
			<vel value="0.0465781793163995" flag="0"/>
			<psa03 value="0.255084335585176" flag="0"/>
			<psa10 value="0.079572981319668" flag="0"/>
			<psa30 value="0.00370555130792131" flag="0"/>
		</comp>
		<comp name="--.HNN" depth="0.0">
			<acc value="0.0766197905848379" flag="0"/>
			<vel value="0.0627375217602847" flag="0"/>
			<psa03 value="0.222245826861909" flag="0"/>
			<psa10 value="0.0877604561993176" flag="0"/>
			<psa30 value="0.00435212914052964" flag="0"/>
		</comp>
		<comp name="--.HNZ" depth="0.0">
			<acc value="0.00594695476897428" flag="0"/>
			<vel value="0.00428510228113023" flag="0"/>
			<psa03 value="0.00596424796672582" flag="0"/>
			<psa10 value="0.00392838242355693" flag="0"/>
			<psa30 value="0.00287371661962241" flag="0"/>
		</comp>
	</station>
	<station code="CH01" name="CH01" netid="HI" source="ITSAK Strong Motion Network" insttype="" lat="35.517" lon="24.0208">
		<comp name="--.HNE" depth="0.0">
			<acc value="0.0337225256342097" flag="0"/>
			<vel value="0.0330582208674045" flag="0"/>
			<psa03 value="0.103004313113364" flag="0"/>
			<psa10 value="0.0596217383976607" flag="0"/>
			<psa30 value="0.00311037146351029" flag="0"/>
		</comp>
		<comp name="--.HNN" depth="0.0">
			<acc value="0.0350185014830782" flag="0"/>
			<vel value="0.0236918336707822" flag="0"/>
			<psa03 value="0.0933568198479093" flag="0"/>
			<psa10 value="0.0555817645192885" flag="0"/>
			<psa30 value="0.00441476745667673" flag="0"/>
		</comp>
		<comp name="--.HNZ" depth="0.0">
			<acc value="0.0241439563870924" flag="0"/>
			<vel value="0.0229134194178654" flag="0"/>
			<psa03 value="0.0780094073236223" flag="0"/>
			<psa10 value="0.0409199094930149" flag="0"/>
			<psa30 value="0.00234139239742389" flag="0"/>
		</comp>
	</station>
	<station code="KSS1" name="KSS1" netid="HI" source="ITSAK Strong Motion Network" insttype="" lat="35.4189" lon="26.9207">
		<comp name="--.HNE" depth="0.0">
			<acc value="0.00478743729212809" flag="0"/>
			<vel value="0.00225863776470394" flag="0"/>
			<psa03 value="0.0135841407680892" flag="0"/>
			<psa10 value="0.00392714413840003" flag="0"/>
			<psa30 value="0.000603501697774966" flag="0"/>
		</comp>
		<comp name="--.HNN" depth="0.0">
			<acc value="0.00602521637474004" flag="0"/>
			<vel value="0.0030514823837563" flag="0"/>
			<psa03 value="0.0138638064299672" flag="0"/>
			<psa10 value="0.00359212155417203" flag="0"/>
			<psa30 value="0.000505322745984639" flag="0"/>
		</comp>
		<comp name="--.HNZ" depth="0.0">
			<acc value="0.00320555519556922" flag="0"/>
			<vel value="0.0019439249853789" flag="0"/>
			<psa03 value="0.00369224915067572" flag="0"/>
			<psa10 value="0.00324374128819138" flag="0"/>
			<psa30 value="0.000415796815331545" flag="0"/>
		</comp>
	</station>
	<station code="SIT2" name="SIT2" netid="HI" source="ITSAK Strong Motion Network" insttype="" lat="35.2059" lon="26.107">
		<comp name="--.HNE" depth="0.0">
			<acc value="0.0556286128005939" flag="0"/>
			<vel value="0.0386247206204711" flag="0"/>
			<psa03 value="0.137510838584948" flag="0"/>
			<psa10 value="0.028572169641025" flag="0"/>
			<psa30 value="0.00375908527095093" flag="0"/>
		</comp>
		<comp name="--.HNN" depth="0.0">
			<acc value="0.0631957657905138" flag="0"/>
			<vel value="0.0366947899504484" flag="0"/>
			<psa03 value="0.200433986101225" flag="0"/>
			<psa10 value="0.0266241930971078" flag="0"/>
			<psa30 value="0.00247256775381014" flag="0"/>
		</comp>
		<comp name="--.HNZ" depth="0.0">
			<acc value="0.0329722336511486" flag="0"/>
			<vel value="0.0137646287457974" flag="0"/>
			<psa03 value="0.118141367952366" flag="0"/>
			<psa10 value="0.00870225929445662" flag="0"/>
			<psa30 value="0.00183983146313948" flag="0"/>
		</comp>
	</station>
	<station code="IACM" name="IACM" netid="HL" source="National Observatory of Athens Seismic Network" insttype="" lat="35.3058" lon="25.0709">
		<comp name="--.HNE" depth="0.0">
			<acc value="0.542693566322599" flag="0"/>
			<vel value="0.406436214753709" flag="0"/>
			<psa03 value="1.26768031093269" flag="0"/>
			<psa10 value="0.902796465835458" flag="0"/>
			<psa30 value="0.0309577874681333" flag="0"/>
		</comp>
		<comp name="--.HNN" depth="0.0">
			<acc value="0.631980549847253" flag="0"/>
			<vel value="0.447567059172125" flag="0"/>
			<psa03 value="1.16332998156883" flag="0"/>
			<psa10 value="0.457260201244319" flag="0"/>
			<psa30 value="0.0259895033437009" flag="0"/>
		</comp>
		<comp name="--.HNZ" depth="0.0">
			<acc value="0.56443095974134" flag="0"/>
			<vel value="0.213831402358126" flag="0"/>
			<psa03 value="0.70380354019699" flag="0"/>
			<psa10 value="0.254323337672993" flag="0"/>
			<psa30 value="0.0152936814646919" flag="0"/>
		</comp>
	</station>
	<station code="IMMV" name="IMMV" netid="HL" source="National Observatory of Athens Seismic Network" insttype="" lat="35.4606" lon="23.9811">
		<comp name="--.HNE" depth="0.0">
			<acc value="0.0424900920297972" flag="0"/>
			<vel value="0.0320694816221876" flag="0"/>
			<psa03 value="0.148235528209536" flag="0"/>
			<psa10 value="0.042459146460172" flag="0"/>
			<psa30 value="0.00246791265376698" flag="0"/>
		</comp>
		<comp name="--.HNN" depth="0.0">
			<acc value="0.0458459195648046" flag="0"/>
			<vel value="0.0274628849272739" flag="0"/>
			<psa03 value="0.1395382541414" flag="0"/>
			<psa10 value="0.0355469210590483" flag="0"/>
			<psa30 value="0.00204335661234652" flag="0"/>
		</comp>
		<comp name="--.HNZ" depth="0.0">
			<acc value="0.0370107530200395" flag="0"/>
			<vel value="0.0241755975259449" flag="0"/>
			<psa03 value="0.073778585385696" flag="0"/>
			<psa10 value="0.0237684370423239" flag="0"/>
			<psa30 value="0.00151834797893626" flag="0"/>
		</comp>
	</station>
	<station code="SIVA" name="SIVA" netid="HL" source="National Observatory of Athens Seismic Network" insttype="" lat="35.01777" lon="24.81204">
		<comp name="00.HNE" depth="0.0">
			<acc value="0.260278233006853" flag="0"/>
			<vel value="0.13657878956126" flag="0"/>
			<psa03 value="0.647852583720884" flag="0"/>
			<psa10 value="0.140973578807852" flag="0"/>
			<psa30 value="0.00573114674369065" flag="0"/>
		</comp>
		<comp name="00.HNN" depth="0.0">
			<acc value="0.354191158891773" flag="0"/>
			<vel value="0.277647131896775" flag="0"/>
			<psa03 value="0.834576286584153" flag="0"/>
			<psa10 value="0.247584801278072" flag="0"/>
			<psa30 value="0.0140668568602144" flag="0"/>
		</comp>
		<comp name="00.HNZ" depth="0.0">
			<acc value="0.165552249257865" flag="0"/>
			<vel value="0.0693596721318628" flag="0"/>
			<psa03 value="0.34565558548613" flag="0"/>
			<psa10 value="0.0636815285888297" flag="0"/>
			<psa30 value="0.00304453189362895" flag="0"/>
		</comp>
	</station>
</stationlist>
