<?xml version="1.0" encoding="UTF-8" standalone="yes"?>
<!DOCTYPE earthquake SYSTEM "stationlist.dtd">
<stationlist created="" xmlns="ch.ethz.sed.shakemap.usgs.xml">
  <station code="GVD" name="GVD" netid="GE" insttype="STS-2/N" lat="34.8391" lon="24.0874">
    <comp name="--.HHE">
      <acc value="0.0307084648" flag="0"/>
      <vel value="0.0156258690" flag="0"/>
      <psa03 value="0.1043965659" flag="0"/>
      <psa10 value="0.0170701039" flag="0"/>
      <psa30 value="0.0010936442" flag="0"/>
    </comp>
    <comp name="--.HHZ">
      <acc value="0.0139046310" flag="0"/>
      <vel value="0.0057691255" flag="0"/>
      <psa03 value="0.0367981563" flag="0"/>
      <psa10 value="0.0071013814" flag="0"/>
      <psa30 value="0.0004979725" flag="0"/>
    </comp>
    <comp name="--.HHN">
      <acc value="0.0279367719" flag="0"/>
      <vel value="0.0138499324" flag="0"/>
      <psa03 value="0.1192838590" flag="0"/>
      <psa10 value="0.0141153211" flag="0"/>
      <psa30 value="0.0018096899" flag="0"/>
    </comp>
  </station>
  <station code="IMMV" name="IMMV" netid="GE" insttype="STS-2/N" lat="35.4606" lon="23.9811">
    <comp name="--.HHZ">
      <acc value="0.0380097172" flag="0"/>
      <vel value="0.0244637230" flag="0"/>
      <psa03 value="0.0757711285" flag="0"/>
      <psa10 value="0.0241174884" flag="0"/>
      <psa30 value="0.0013795907" flag="0"/>
    </comp>
    <comp name="--.HHE">
      <acc value="0.0447107917" flag="0"/>
      <vel value="0.0334258564" flag="0"/>
      <psa03 value="0.1581801686" flag="0"/>
      <psa10 value="0.0442221687" flag="0"/>
      <psa30 value="0.0024396538" flag="0"/>
    </comp>
    <comp name="--.HHN">
      <acc value="0.0479185276" flag="0"/>
      <vel value="0.0289116422" flag="0"/>
      <psa03 value="0.1450913521" flag="0"/>
      <psa10 value="0.0361176597" flag="0"/>
      <psa30 value="0.0018677989" flag="0"/>
    </comp>
  </station>
  <station code="ZKR" name="ZKR" netid="GE" insttype="STS-2/N" lat="35.1147" lon="26.2169">
    <comp name="--.HHE">
      <acc value="0.0183885863" flag="0"/>
      <vel value="0.0121060444" flag="0"/>
      <psa03 value="0.0353276941" flag="0"/>
      <psa10 value="0.0202780628" flag="0"/>
      <psa30 value="0.0008958658" flag="0"/>
    </comp>
    <comp name="--.HHN">
      <acc value="0.0107412422" flag="0"/>
      <vel value="0.0056027820" flag="0"/>
      <psa03 value="0.0375961274" flag="0"/>
      <psa10 value="0.0079787243" flag="0"/>
      <psa30 value="0.0010379217" flag="0"/>
    </comp>
    <comp name="--.HHZ">
      <acc value="0.0097350238" flag="0"/>
      <vel value="0.0056928790" flag="0"/>
      <psa03 value="0.0225114584" flag="0"/>
      <psa10 value="0.0087608482" flag="0"/>
      <psa30 value="0.0014515106" flag="0"/>
    </comp>
  </station>
  <station code="CHAN" name="CHAN" netid="HC" insttype="120" lat="35.5193" lon="24.0428">
    <comp name="--.HHZ">
      <acc value="0.0477757504" flag="0"/>
      <vel value="0.0547155007" flag="0"/>
      <psa03 value="0.1551837601" flag="0"/>
      <psa10 value="0.0801178046" flag="0"/>
      <psa30 value="0.0038240597" flag="0"/>
    </comp>
    <comp name="--.HHE">
      <acc value="0.0684944449" flag="0"/>
      <vel value="0.0496861283" flag="0"/>
      <psa03 value="0.1220738721" flag="0"/>
      <psa10 value="0.0746196904" flag="0"/>
      <psa30 value="0.0051922988" flag="0"/>
    </comp>
    <comp name="--.HHN">
      <acc value="0.0577955664" flag="0"/>
      <vel value="0.0492990163" flag="0"/>
      <psa03 value="0.1162274986" flag="0"/>
      <psa10 value="0.0756578882" flag="0"/>
      <psa30 value="0.0053983397" flag="0"/>
    </comp>
  </station>
  <station code="GVDS" name="GVDS" netid="HC" insttype="60" lat="34.8389" lon="24.0585">
    <comp name="--.HHN">
      <acc value="0.0212664585" flag="0"/>
      <vel value="0.0094608352" flag="0"/>
      <psa03 value="0.0527493823" flag="0"/>
      <psa10 value="0.0082503776" flag="0"/>
      <psa30 value="0.0016615139" flag="0"/>
    </comp>
    <comp name="--.HHE">
      <acc value="0.0261424943" flag="0"/>
      <vel value="0.0100360823" flag="0"/>
      <psa03 value="0.0587871144" flag="0"/>
      <psa10 value="0.0121470153" flag="0"/>
      <psa30 value="0.0008430337" flag="0"/>
    </comp>
    <comp name="--.HHZ">
      <acc value="0.0129267350" flag="0"/>
      <vel value="0.0059535935" flag="0"/>
      <psa03 value="0.0253161916" flag="0"/>
      <psa10 value="0.0080988187" flag="0"/>
      <psa30 value="0.0008687595" flag="0"/>
    </comp>
  </station>
  <station code="IMOD" name="IMOD" netid="HC" insttype="120" lat="34.9731" lon="24.7995">
    <comp name="--.HHE">
      <acc value="0.1190795745" flag="0"/>
      <vel value="0.0865110664" flag="0"/>
      <psa03 value="0.3564809290" flag="0"/>
      <psa10 value="0.0769110177" flag="0"/>
      <psa30 value="0.0050428429" flag="0"/>
    </comp>
    <comp name="--.HHN">
      <acc value="0.1569003895" flag="0"/>
      <vel value="0.1484481929" flag="0"/>
      <psa03 value="0.4969022717" flag="0"/>
      <psa10 value="0.1671789094" flag="0"/>
      <psa30 value="0.0086471261" flag="0"/>
    </comp>
    <comp name="--.HHZ">
      <acc value="0.1169679055" flag="0"/>
      <vel value="0.0402712065" flag="0"/>
      <psa03 value="0.1626368001" flag="0"/>
      <psa10 value="0.0395634703" flag="0"/>
      <psa30 value="0.0026646507" flag="0"/>
    </comp>
  </station>
  <station code="KNSS" name="KNSS" netid="HC" insttype="60" lat="35.3042" lon="25.1802">
    <comp name="--.HHN">
      <acc value="0.0000000000" flag="0"/>
      <vel value="-100.0000000000" flag="0"/>
      <psa03 value="0.0000000000" flag="0"/>
      <psa10 value="0.0000000000" flag="0"/>
      <psa30 value="0.0000000000" flag="0"/>
    </comp>
    <comp name="--.HHE">
      <acc value="0.3757783835" flag="0"/>
      <vel value="0.2610826276" flag="0"/>
      <psa03 value="0.7290065614" flag="0"/>
      <psa10 value="0.2548063233" flag="0"/>
      <psa30 value="0.0167576499" flag="0"/>
    </comp>
    <comp name="--.HHZ">
      <acc value="0.2989951721" flag="0"/>
      <vel value="0.1007698003" flag="0"/>
      <psa03 value="0.3429465483" flag="0"/>
      <psa10 value="0.1025036754" flag="0"/>
      <psa30 value="0.0110122748" flag="0"/>
    </comp>
  </station>
  <station code="PFKS" name="PFKS" netid="HC" insttype="120" lat="35.0429" lon="25.4733">
    <comp name="--.HHZ">
      <acc value="0.3517493134" flag="0"/>
      <vel value="0.1050172766" flag="0"/>
      <psa03 value="0.3094714775" flag="0"/>
      <psa10 value="0.0481553009" flag="0"/>
      <psa30 value="0.0048308772" flag="0"/>
    </comp>
    <comp name="--.HHN">
      <acc value="0.6110320367" flag="0"/>
      <vel value="0.2404034892" flag="0"/>
      <psa03 value="1.0368288064" flag="0"/>
      <psa10 value="0.2943110474" flag="0"/>
      <psa30 value="0.0111542815" flag="0"/>
    </comp>
    <comp name="--.HHE">
      <acc value="0.6228198291" flag="0"/>
      <vel value="0.1293760548" flag="0"/>
      <psa03 value="0.5581280736" flag="0"/>
      <psa10 value="0.0990429088" flag="0"/>
      <psa30 value="0.0060999823" flag="0"/>
    </comp>
  </station>
  <station code="STIA" name="STIA" netid="HC" insttype="120" lat="35.2021" lon="26.0909">
    <comp name="--.HHZ">
      <acc value="0.0237188537" flag="0"/>
      <vel value="0.0116734895" flag="0"/>
      <psa03 value="0.0578339760" flag="0"/>
      <psa10 value="0.0085429616" flag="0"/>
      <psa30 value="0.0017137580" flag="0"/>
    </comp>
    <comp name="--.HHE">
      <acc value="0.0290448723" flag="0"/>
      <vel value="0.0144268862" flag="0"/>
      <psa03 value="0.0743380662" flag="0"/>
      <psa10 value="0.0190431350" flag="0"/>
      <psa30 value="0.0026698907" flag="0"/>
    </comp>
    <comp name="--.HHN">
      <acc value="0.0233881243" flag="0"/>
      <vel value="0.0134964451" flag="0"/>
      <psa03 value="0.0414543387" flag="0"/>
      <psa10 value="0.0188748950" flag="0"/>
      <psa30 value="0.0018373239" flag="0"/>
    </comp>
  </station>
  <station code="SIT2" name="SIT2" netid="HI" insttype="CMG-5TD,ACCELEROMETER,GURALP" lat="35.2059" lon="26.107">
    <comp name="--.HNN">
      <acc value="0.0631197742" flag="0"/>
      <vel value="0.0368697099" flag="0"/>
      <psa03 value="0.2049057319" flag="0"/>
      <psa10 value="0.0266095770" flag="0"/>
      <psa30 value="0.0022810269" flag="0"/>
    </comp>
    <comp name="--.HNE">
      <acc value="0.0553740806" flag="0"/>
      <vel value="0.0383848612" flag="0"/>
      <psa03 value="0.1383344992" flag="0"/>
      <psa10 value="0.0285244441" flag="0"/>
      <psa30 value="0.0034220222" flag="0"/>
    </comp>
    <comp name="--.HNZ">
      <acc value="0.0330712606" flag="0"/>
      <vel value="0.0131445212" flag="0"/>
      <psa03 value="0.1182434346" flag="0"/>
      <psa10 value="0.0086969746" flag="0"/>
      <psa30 value="0.0016701575" flag="0"/>
    </comp>
  </station>
  <station code="GVD" name="GVD" netid="HL" insttype="120" lat="34.8391" lon="24.0874">
    <comp name="--.HHZ">
      <acc value="0.0134889804" flag="0"/>
      <vel value="0.0055796476" flag="0"/>
      <psa03 value="0.0357522878" flag="0"/>
      <psa10 value="0.0070604794" flag="0"/>
      <psa30 value="0.0004951092" flag="0"/>
    </comp>
    <comp name="--.HHN">
      <acc value="0.0270166428" flag="0"/>
      <vel value="0.0134957000" flag="0"/>
      <psa03 value="0.1157930029" flag="0"/>
      <psa10 value="0.0139829042" flag="0"/>
      <psa30 value="0.0018068966" flag="0"/>
    </comp>
    <comp name="--.HHE">
      <acc value="0.0299448025" flag="0"/>
      <vel value="0.0152525168" flag="0"/>
      <psa03 value="0.1016168359" flag="0"/>
      <psa10 value="0.0169301711" flag="0"/>
      <psa30 value="0.0010895429" flag="0"/>
    </comp>
  </station>
  <station code="IACM" name="IACM" netid="HL" insttype="120" lat="35.3058" lon="25.0709">
    <comp name="--.HHN">
      <acc value="0.6190577214" flag="0"/>
      <vel value="0.4450207417" flag="0"/>
      <psa03 value="1.1641250782" flag="0"/>
      <psa10 value="0.4336977479" flag="0"/>
      <psa30 value="0.0245257906" flag="0"/>
    </comp>
    <comp name="--.HHE">
      <acc value="0.5347050804" flag="0"/>
      <vel value="0.4036691237" flag="0"/>
      <psa03 value="1.2442676507" flag="0"/>
      <psa10 value="0.8912436065" flag="0"/>
      <psa30 value="0.0304108534" flag="0"/>
    </comp>
    <comp name="--.HHZ">
      <acc value="0.5673557714" flag="0"/>
      <vel value="0.2129473096" flag="0"/>
      <psa03 value="0.6939441908" flag="0"/>
      <psa10 value="0.2623391841" flag="0"/>
      <psa30 value="0.0145339846" flag="0"/>
    </comp>
  </station>
  <station code="IDI" name="IDI" netid="HL" insttype="120" lat="35.288" lon="24.89">
    <comp name="--.HHZ">
      <acc value="0.1600076744" flag="0"/>
      <vel value="0.0591368858" flag="0"/>
      <psa03 value="0.3100933636" flag="0"/>
      <psa10 value="0.0439938996" flag="0"/>
      <psa30 value="0.0033495458" flag="0"/>
    </comp>
    <comp name="--.HHE">
      <acc value="0.1437183053" flag="0"/>
      <vel value="0.0510343771" flag="0"/>
      <psa03 value="0.2353312795" flag="0"/>
      <psa10 value="0.0510699498" flag="0"/>
      <psa30 value="0.0023898670" flag="0"/>
    </comp>
    <comp name="--.HHN">
      <acc value="0.2058440041" flag="0"/>
      <vel value="0.0747910404" flag="0"/>
      <psa03 value="0.5204247723" flag="0"/>
      <psa10 value="0.0402948829" flag="0"/>
      <psa30 value="0.0048336846" flag="0"/>
    </comp>
  </station>
  <station code="IMMV" name="IMMV" netid="HL" insttype="120" lat="35.4606" lon="23.9811">
    <comp name="--.HHE">
      <acc value="0.0439306244" flag="0"/>
      <vel value="0.0328210107" flag="0"/>
      <psa03 value="0.1537449634" flag="0"/>
      <psa10 value="0.0439756996" flag="0"/>
      <psa30 value="0.0024207522" flag="0"/>
    </comp>
    <comp name="--.HHN">
      <acc value="0.0466827618" flag="0"/>
      <vel value="0.0284101807" flag="0"/>
      <psa03 value="0.1410421976" flag="0"/>
      <psa10 value="0.0359481228" flag="0"/>
      <psa30 value="0.0018633469" flag="0"/>
    </comp>
    <comp name="--.HHZ">
      <acc value="0.0372221609" flag="0"/>
      <vel value="0.0238739101" flag="0"/>
      <psa03 value="0.0738237907" flag="0"/>
      <psa10 value="0.0239514109" flag="0"/>
      <psa30 value="0.0013794832" flag="0"/>
    </comp>
  </station>
  <station code="NPS" name="NPS" netid="HL" insttype="CMG3ESPC-120s" lat="35.2613" lon="25.6104">
    <comp name="--.HHE">
      <acc value="0.0415755459" flag="0"/>
      <vel value="0.0148562481" flag="0"/>
      <psa03 value="0.0594318708" flag="0"/>
      <psa10 value="0.0266780374" flag="0"/>
      <psa30 value="0.0015191794" flag="0"/>
    </comp>
    <comp name="--.HHN">
      <acc value="0.0809374715" flag="0"/>
      <vel value="0.0291957448" flag="0"/>
      <psa03 value="0.1115481381" flag="0"/>
      <psa10 value="0.0422804976" flag="0"/>
      <psa30 value="0.0033788488" flag="0"/>
    </comp>
    <comp name="--.HHZ">
      <acc value="0.0674259829" flag="0"/>
      <vel value="0.0378954337" flag="0"/>
      <psa03 value="0.0760171079" flag="0"/>
      <psa10 value="0.0404928045" flag="0"/>
      <psa30 value="0.0023250925" flag="0"/>
    </comp>
  </station>
  <station code="SIVA" name="SIVA" netid="HL" insttype="60" lat="35.0178" lon="24.812">
    <comp name="--.HHN">
      <acc value="0.3509851084" flag="0"/>
      <vel value="0.2449210143" flag="0"/>
      <psa03 value="0.7665796929" flag="0"/>
      <psa10 value="0.2103874736" flag="0"/>
      <psa30 value="0.0116532070" flag="0"/>
    </comp>
    <comp name="--.HHZ">
      <acc value="0.1650613565" flag="0"/>
      <vel value="0.0722697578" flag="0"/>
      <psa03 value="0.3457400939" flag="0"/>
      <psa10 value="0.0653837019" flag="0"/>
      <psa30 value="0.0031194718" flag="0"/>
    </comp>
    <comp name="--.HHE">
      <acc value="0.2798874032" flag="0"/>
      <vel value="0.1462142211" flag="0"/>
      <psa03 value="0.6916888287" flag="0"/>
      <psa10 value="0.1501586244" flag="0"/>
      <psa30 value="0.0062324342" flag="0"/>
    </comp>
  </station>
  <station code="VAM" name="VAM" netid="HL" insttype="CMG3ESPC-120s" lat="35.407" lon="24.1997">
    <comp name="--.HHN">
      <acc value="0.0685884960" flag="0"/>
      <vel value="0.0424714476" flag="0"/>
      <psa03 value="0.2537854160" flag="0"/>
      <psa10 value="0.0584121931" flag="0"/>
      <psa30 value="0.0044081758" flag="0"/>
    </comp>
    <comp name="--.HHE">
      <acc value="0.0602771748" flag="0"/>
      <vel value="0.0505468222" flag="0"/>
      <psa03 value="0.2518655102" flag="0"/>
      <psa10 value="0.0503611212" flag="0"/>
      <psa30 value="0.0025476543" flag="0"/>
    </comp>
    <comp name="--.HHZ">
      <acc value="0.0378130013" flag="0"/>
      <vel value="0.0242772870" flag="0"/>
      <psa03 value="0.0908333605" flag="0"/>
      <psa10 value="0.0231569713" flag="0"/>
      <psa30 value="0.0014202043" flag="0"/>
    </comp>
  </station>
  <station code="ZKR" name="ZKR" netid="HL" insttype="120" lat="35.1147" lon="26.2169">
    <comp name="--.HHN">
      <acc value="0.0104918998" flag="0"/>
      <vel value="0.0055246945" flag="0"/>
      <psa03 value="0.0364988277" flag="0"/>
      <psa10 value="0.0079375167" flag="0"/>
      <psa30 value="0.0010364512" flag="0"/>
    </comp>
    <comp name="--.HHZ">
      <acc value="0.0096529137" flag="0"/>
      <vel value="0.0056182421" flag="0"/>
      <psa03 value="0.0218852097" flag="0"/>
      <psa10 value="0.0086936245" flag="0"/>
      <psa30 value="0.0014532968" flag="0"/>
    </comp>
    <comp name="--.HHE">
      <acc value="0.0181176134" flag="0"/>
      <vel value="0.0119659319" flag="0"/>
      <psa03 value="0.0343220756" flag="0"/>
      <psa10 value="0.0201276590" flag="0"/>
      <psa30 value="0.0008916191" flag="0"/>
    </comp>
  </station>
  <station code="IDI" name="IDI" netid="MN" insttype="" lat="35.288" lon="24.89">
    <comp name="--.HHE">
      <acc value="0.1507262076" flag="0"/>
      <vel value="0.0516421835" flag="0"/>
      <psa03 value="0.2380410674" flag="0"/>
      <psa10 value="0.0509349983" flag="0"/>
      <psa30 value="0.0023826780" flag="0"/>
    </comp>
    <comp name="--.HHZ">
      <acc value="0.1634999632" flag="0"/>
      <vel value="0.0600706425" flag="0"/>
      <psa03 value="0.3138242313" flag="0"/>
      <psa10 value="0.0437695677" flag="0"/>
      <psa30 value="0.0033149217" flag="0"/>
    </comp>
    <comp name="--.HHN">
      <acc value="0.2075188395" flag="0"/>
      <vel value="0.0750207915" flag="0"/>
      <psa03 value="0.5253947589" flag="0"/>
      <psa10 value="0.0399987218" flag="0"/>
      <psa30 value="0.0048056092" flag="0"/>
    </comp>
  </station>
</stationlist>
