<?xml version="1.0" encoding="UTF-8" standalone="yes"?>
<!DOCTYPE earthquake SYSTEM "stationlist.dtd">
<stationlist created="" xmlns="ch.ethz.sed.shakemap.usgs.xml">
  <station code="APE" name="APE" netid="GE" insttype="STS-2/N" lat="37.0727" lon="25.523">
    <comp name="--.HHN">
      <acc value="0.1616945868" flag="0"/>
      <vel value="0.0400721560" flag="0"/>
      <psa03 value="0.1290646707" flag="0"/>
      <psa10 value="0.0084637394" flag="0"/>
      <psa30 value="0.0010474422" flag="0"/>
    </comp>
    <comp name="--.HHZ">
      <acc value="0.0658017146" flag="0"/>
      <vel value="0.0172717552" flag="0"/>
      <psa03 value="0.0770912766" flag="0"/>
      <psa10 value="0.0051936817" flag="0"/>
      <psa30 value="0.0011446048" flag="0"/>
    </comp>
    <comp name="--.HHE">
      <acc value="0.1418383566" flag="0"/>
      <vel value="0.0346129579" flag="0"/>
      <psa03 value="0.1968639884" flag="0"/>
      <psa10 value="0.0093678710" flag="0"/>
      <psa30 value="0.0007528689" flag="0"/>
    </comp>
  </station>
  <station code="THERA" name="THERA" netid="GE" insttype="STS-2/N" lat="36.367" lon="25.4753">
    <comp name="--.HHE">
      <acc value="0.1401057137" flag="0"/>
      <vel value="0.0238421542" flag="0"/>
      <psa03 value="0.1128274072" flag="0"/>
      <psa10 value="0.0087568001" flag="0"/>
      <psa30 value="0.0010405524" flag="0"/>
    </comp>
    <comp name="--.HHN">
      <acc value="0.0584257149" flag="0"/>
      <vel value="0.0141613745" flag="0"/>
      <psa03 value="0.0804225612" flag="0"/>
      <psa10 value="0.0053288764" flag="0"/>
      <psa30 value="0.0003912424" flag="0"/>
    </comp>
    <comp name="--.HHZ">
      <acc value="0.1163885396" flag="0"/>
      <vel value="0.0229170938" flag="0"/>
      <psa03 value="0.0835498812" flag="0"/>
      <psa10 value="0.0070808821" flag="0"/>
      <psa30 value="0.0006741541" flag="0"/>
    </comp>
  </station>
</stationlist>
