<stationlist xmlns:esm="https://esm-db.eu/esmws/shakemap/1/" created="1784080514">
	<station code="AIGS" name="AIGS" netid="HA" source="Hellenic Seismological Network, University of Athens, Seismological Laboratory (HA)" insttype="" lat="38.25001" lon="22.0878" esm:processing="manual (Paolucci et al 2011)" esm:quality="good">
		<comp name="--.HNE" depth="0.0">
			<acc value="0.0169353925736125" flag="0"/>
			<vel value="0.00848629734922618" flag="0"/>
			<psa03 value="0.0377439951461072" flag="0"/>
			<psa10 value="0.00598590934961709" flag="0"/>
			<psa30 value="0.000599999851212163" flag="0"/>
		</comp>
		<comp name="--.HNN" depth="0.0">
			<acc value="0.0139241958793017" flag="0"/>
			<vel value="0.00609415969414057" flag="0"/>
			<psa03 value="0.0393395018822648" flag="0"/>
			<psa10 value="0.00568096914882536" flag="0"/>
			<psa30 value="0.000712890610920954" flag="0"/>
		</comp>
		<comp name="--.HNZ" depth="0.0">
			<acc value="0.00875716239169587" flag="0"/>
			<vel value="0.00333524941810475" flag="0"/>
			<psa03 value="0.0186097184796008" flag="0"/>
			<psa10 value="0.00442133757941584" flag="0"/>
			<psa30 value="0.000383795658953834" flag="0"/>
		</comp>
	</station>
	<station code="ARS1" name="ARS1" netid="HI" source="ITSAK Strong Motion Network" insttype="" lat="37.6349" lon="22.7293" esm:processing="manual (Paolucci et al 2011)" esm:quality="good">
		<comp name="--.HNE" depth="0.0">
			<acc value="0.010892442790573" flag="0"/>
			<vel value="0.00853933590109666" flag="0"/>
			<psa03 value="0.0261960166075437" flag="0"/>
			<psa10 value="0.00802397529898933" flag="0"/>
			<psa30 value="0.000690084725143269" flag="0"/>
		</comp>
		<comp name="--.HNN" depth="0.0">
			<acc value="0.00987453661852522" flag="0"/>
			<vel value="0.00696789154751355" flag="0"/>
			<psa03 value="0.03204840169517" flag="0"/>
			<psa10 value="0.00956639060144596" flag="0"/>
			<psa30 value="0.000485825829411826" flag="0"/>
		</comp>
		<comp name="--.HNZ" depth="0.0">
			<acc value="0.00656398122220202" flag="0"/>
			<vel value="0.00393348988771245" flag="0"/>
			<psa03 value="0.0218150844652062" flag="0"/>
			<psa10 value="0.00364309914993728" flag="0"/>
			<psa30 value="0.000389417151141672" flag="0"/>
		</comp>
	</station>
	<station code="KLV1" name="KLV1" netid="HI" source="ITSAK Strong Motion Network" insttype="" lat="38.03256" lon="22.10797" esm:processing="manual (Paolucci et al 2011)" esm:quality="bad">
		<comp name="--.HNE" depth="0.0">
			<acc value="0.0169933842410487" flag="0"/>
			<vel value="0.00732706514865583" flag="0"/>
			<psa03 value="0.0727061549677533" flag="0"/>
			<psa10 value="0.0121312445729336" flag="0"/>
			<psa30 value="0.000445404870470185" flag="0"/>
		</comp>
		<comp name="--.HNN" depth="0.0">
			<acc value="0.0217638261194945" flag="0"/>
			<vel value="0.0109567514262562" flag="0"/>
			<psa03 value="0.0696959972261374" flag="0"/>
			<psa10 value="0.0084951893271173" flag="0"/>
			<psa30 value="0.000504713538962825" flag="0"/>
		</comp>
		<comp name="--.HNZ" depth="0.0">
			<acc value="0.00684826097282889" flag="0"/>
			<vel value="0.00465706589104044" flag="0"/>
			<psa03 value="0.0169358875444224" flag="0"/>
			<psa10 value="0.00818497533945375" flag="0"/>
			<psa30 value="0.000377299186927849" flag="0"/>
		</comp>
	</station>
	<station code="NPS1" name="NPS1" netid="HI" source="ITSAK Strong Motion Network" insttype="" lat="36.51263" lon="23.06248" esm:processing="manual (Paolucci et al 2011)" esm:quality="good">
		<comp name="--.HNE" depth="0.0">
			<acc value="0.014577266737635" flag="0"/>
			<vel value="0.00989244195982025" flag="0"/>
			<psa03 value="0.0599681548877052" flag="0"/>
			<psa10 value="0.0106741933629129" flag="0"/>
			<psa30 value="0.000551937396478053" flag="0"/>
		</comp>
		<comp name="--.HNN" depth="0.0">
			<acc value="0.014769385721616" flag="0"/>
			<vel value="0.0110333082895933" flag="0"/>
			<psa03 value="0.0433129656255808" flag="0"/>
			<psa10 value="0.00978953132092244" flag="0"/>
			<psa30 value="0.000509451196556074" flag="0"/>
		</comp>
		<comp name="--.HNZ" depth="0.0">
			<acc value="0.00767396921720852" flag="0"/>
			<vel value="0.00414414228115667" flag="0"/>
			<psa03 value="0.0233407545437853" flag="0"/>
			<psa10 value="0.00402898705687032" flag="0"/>
			<psa30 value="0.000324953896392654" flag="0"/>
		</comp>
	</station>
	<station code="ANKY" name="ANKY" netid="HL" source="National Observatory of Athens Seismic Network" insttype="" lat="35.86704" lon="23.30117" esm:processing="manual (Paolucci et al 2011)" esm:quality="bad">
		<comp name="00.HNE" depth="0.0">
			<acc value="0.00269140401838775" flag="0"/>
			<vel value="0.00207185819131326" flag="0"/>
			<psa03 value="0.00732642349063073" flag="0"/>
			<psa10 value="0.00325588412384351" flag="0"/>
			<psa30 value="0.000263636527126274" flag="0"/>
		</comp>
		<comp name="00.HNN" depth="0.0">
			<acc value="0.00193458516209148" flag="0"/>
			<vel value="0.00144200346390221" flag="0"/>
			<psa03 value="0.00792463108769772" flag="0"/>
			<psa10 value="0.00349630880079832" flag="0"/>
			<psa30 value="0.000402356341632891" flag="0"/>
		</comp>
		<comp name="00.HNZ" depth="0.0">
			<acc value="0.00177359622142946" flag="0"/>
			<vel value="0.00129004987327721" flag="0"/>
			<psa03 value="0.00539117419612947" flag="0"/>
			<psa10 value="0.00179456091210508" flag="0"/>
			<psa30 value="0.000156784383591844" flag="0"/>
		</comp>
	</station>
	<station code="MNVA" name="MNVA" netid="HL" source="National Observatory of Athens Seismic Network" insttype="" lat="36.68709" lon="23.03734" esm:processing="manual (Paolucci et al 2011)" esm:quality="bad">
		<comp name="00.HNE" depth="0.0">
			<acc value="0.00320686943701773" flag="0"/>
			<vel value="0.00255521586352558" flag="0"/>
			<psa03 value="0.0106813586292693" flag="0"/>
			<psa10 value="0.00354429815173196" flag="0"/>
			<psa30 value="0.000410814948849364" flag="0"/>
		</comp>
		<comp name="00.HNN" depth="0.0">
			<acc value="0.00300795460715387" flag="0"/>
			<vel value="0.00196487508697562" flag="0"/>
			<psa03 value="0.00898494286461794" flag="0"/>
			<psa10 value="0.00306878001036611" flag="0"/>
			<psa30 value="0.000188699323320553" flag="0"/>
		</comp>
		<comp name="00.HNZ" depth="0.0">
			<acc value="0.00400699789155387" flag="0"/>
			<vel value="0.00185184566721222" flag="0"/>
			<psa03 value="0.0100924328970582" flag="0"/>
			<psa10 value="0.00169343452547485" flag="0"/>
			<psa30 value="0.000144701968607918" flag="0"/>
		</comp>
	</station>
	<station code="YDRA" name="YDRA" netid="HL" source="National Observatory of Athens Seismic Network" insttype="" lat="37.34923" lon="23.46525" esm:processing="manual (Paolucci et al 2011)" esm:quality="bad">
		<comp name="00.HNE" depth="0.0">
			<acc value="0.00651107749103731" flag="0"/>
			<vel value="0.00274993408268476" flag="0"/>
			<psa03 value="0.00907880129583902" flag="0"/>
			<psa10 value="0.00344430199622832" flag="0"/>
			<psa30 value="0.000350002951602607" flag="0"/>
		</comp>
		<comp name="00.HNN" depth="0.0">
			<acc value="0.00488786606407783" flag="0"/>
			<vel value="0.00361891034368737" flag="0"/>
			<psa03 value="0.0112688715074265" flag="0"/>
			<psa10 value="0.00359224249968395" flag="0"/>
			<psa30 value="0.000377151963633426" flag="0"/>
		</comp>
		<comp name="00.HNZ" depth="0.0">
			<acc value="0.00694240945602649" flag="0"/>
			<vel value="0.00133551950260896" flag="0"/>
			<psa03 value="0.00652883614920434" flag="0"/>
			<psa10 value="0.00168307833161521" flag="0"/>
			<psa30 value="0.000380577659318847" flag="0"/>
		</comp>
	</station>
	<station code="GUR" name="GUR" netid="HP" source="University of Patras, Seismological Laboratory (PSLNET)" insttype="" lat="37.9363" lon="22.3423" esm:processing="manual (Paolucci et al 2011)" esm:quality="best">
		<comp name="--.HNE" depth="0.0">
			<acc value="0.0139572267010509" flag="0"/>
			<vel value="0.00638403973734893" flag="0"/>
			<psa03 value="0.038115551009847" flag="0"/>
			<psa10 value="0.00552257131198324" flag="0"/>
			<psa30 value="0.000343582760671792" flag="0"/>
		</comp>
		<comp name="--.HNN" depth="0.0">
			<acc value="0.0172477493512902" flag="0"/>
			<vel value="0.00920135919039865" flag="0"/>
			<psa03 value="0.0565360837796713" flag="0"/>
			<psa10 value="0.00653715836715464" flag="0"/>
			<psa30 value="0.000324011932950344" flag="0"/>
		</comp>
		<comp name="--.HNZ" depth="0.0">
			<acc value="0.0120797088768179" flag="0"/>
			<vel value="0.0043912819925903" flag="0"/>
			<psa03 value="0.0213587638716134" flag="0"/>
			<psa10 value="0.00482787060399084" flag="0"/>
			<psa30 value="0.00030433794735392" flag="0"/>
		</comp>
	</station>
	<station code="LTHK" name="LTHK" netid="HP" source="University of Patras, Seismological Laboratory (PSLNET)" insttype="" lat="37.7095" lon="20.8367" esm:processing="manual (Paolucci et al 2011)" esm:quality="best">
		<comp name="--.HNE" depth="0.0">
			<acc value="0.0297807523816842" flag="0"/>
			<vel value="0.00779791118799422" flag="0"/>
			<psa03 value="0.042393573991215" flag="0"/>
			<psa10 value="0.00476549412809583" flag="0"/>
			<psa30 value="0.000275210002145233" flag="0"/>
		</comp>
		<comp name="--.HNN" depth="0.0">
			<acc value="0.0285570634975306" flag="0"/>
			<vel value="0.00888900111095756" flag="0"/>
			<psa03 value="0.0622352425708777" flag="0"/>
			<psa10 value="0.0057323030182007" flag="0"/>
			<psa30 value="0.000245649007416107" flag="0"/>
		</comp>
		<comp name="--.HNZ" depth="0.0">
			<acc value="0.0135625969716945" flag="0"/>
			<vel value="0.00457810907218506" flag="0"/>
			<psa03 value="0.0298198347927277" flag="0"/>
			<psa10 value="0.00224278638609237" flag="0"/>
			<psa30 value="0.000233855648038815" flag="0"/>
		</comp>
	</station>
	<station code="LTK" name="LTK" netid="HP" source="University of Patras, Seismological Laboratory (PSLNET)" insttype="" lat="38.0228" lon="22.9673" esm:processing="manual (Paolucci et al 2011)" esm:quality="best">
		<comp name="--.HNE" depth="0.0">
			<acc value="0.00272177982076476" flag="0"/>
			<vel value="0.00182618410661282" flag="0"/>
			<psa03 value="0.00770494661280213" flag="0"/>
			<psa10 value="0.00190337624558384" flag="0"/>
			<psa30 value="0.000165958702283014" flag="0"/>
		</comp>
		<comp name="--.HNN" depth="0.0">
			<acc value="0.00301676090880385" flag="0"/>
			<vel value="0.00169712473026166" flag="0"/>
			<psa03 value="0.0101011405051326" flag="0"/>
			<psa10 value="0.00198685724454329" flag="0"/>
			<psa30 value="0.000161217802283797" flag="0"/>
		</comp>
		<comp name="--.HNZ" depth="0.0">
			<acc value="0.0021792249489351" flag="0"/>
			<vel value="0.00101707348256078" flag="0"/>
			<psa03 value="0.0069256013652475" flag="0"/>
			<psa10 value="0.0011521622235319" flag="0"/>
			<psa30 value="0.000121651860921887" flag="0"/>
		</comp>
	</station>
	<station code="PDO" name="PDO" netid="HP" source="University of Patras, Seismological Laboratory (PSLNET)" insttype="" lat="38.5986" lon="21.1833" esm:processing="manual (Paolucci et al 2011)" esm:quality="good">
		<comp name="--.HNE" depth="0.0">
			<acc value="0.00461156752903105" flag="0"/>
			<vel value="0.00372848142497267" flag="0"/>
			<psa03 value="0.01931916131006" flag="0"/>
			<psa10 value="0.00462446603567046" flag="0"/>
			<psa30 value="0.000272116333663324" flag="0"/>
		</comp>
		<comp name="--.HNN" depth="0.0">
			<acc value="0.00486966992795509" flag="0"/>
			<vel value="0.00395249110846102" flag="0"/>
			<psa03 value="0.0206491061831973" flag="0"/>
			<psa10 value="0.00432980573464092" flag="0"/>
			<psa30 value="0.000354283287237271" flag="0"/>
		</comp>
		<comp name="--.HNZ" depth="0.0">
			<acc value="0.00295573507275583" flag="0"/>
			<vel value="0.00165891558830659" flag="0"/>
			<psa03 value="0.00953689414224032" flag="0"/>
			<psa10 value="0.00154498070676621" flag="0"/>
			<psa30 value="0.000167594058012884" flag="0"/>
		</comp>
	</station>
	<station code="PYL" name="PYL" netid="HP" source="University of Patras, Seismological Laboratory (PSLNET)" insttype="" lat="36.8955" lon="21.742" esm:processing="manual (Paolucci et al 2011)" esm:quality="best">
		<comp name="--.HNE" depth="0.0">
			<acc value="0.444609177735629" flag="0"/>
			<vel value="0.0879116940454783" flag="0"/>
			<psa03 value="0.494774693061643" flag="0"/>
			<psa10 value="0.0375688187498455" flag="0"/>
			<psa30 value="0.00298160647513115" flag="0"/>
		</comp>
		<comp name="--.HNN" depth="0.0">
			<acc value="0.338503291730721" flag="0"/>
			<vel value="0.0751960021097353" flag="0"/>
			<psa03 value="0.243326765037219" flag="0"/>
			<psa10 value="0.0186929558165716" flag="0"/>
			<psa30 value="0.00225856003518358" flag="0"/>
		</comp>
		<comp name="--.HNZ" depth="0.0">
			<acc value="0.215679705307182" flag="0"/>
			<vel value="0.0549302491993032" flag="0"/>
			<psa03 value="0.32318855548913" flag="0"/>
			<psa10 value="0.0174261893995085" flag="0"/>
			<psa30 value="0.00162387476123215" flag="0"/>
		</comp>
	</station>
	<station code="UPR" name="UPR" netid="HP" source="University of Patras, Seismological Laboratory (PSLNET)" insttype="" lat="38.2836" lon="21.7864" esm:processing="manual (Paolucci et al 2011)" esm:quality="good">
		<comp name="--.HNE" depth="0.0">
			<acc value="0.0131723454610374" flag="0"/>
			<vel value="0.00768797584876783" flag="0"/>
			<psa03 value="0.0393558597367105" flag="0"/>
			<psa10 value="0.0102494224114348" flag="0"/>
			<psa30 value="0.00119030697699487" flag="0"/>
		</comp>
		<comp name="--.HNN" depth="0.0">
			<acc value="0.0100991464287445" flag="0"/>
			<vel value="0.00929488704077185" flag="0"/>
			<psa03 value="0.0302787818623488" flag="0"/>
			<psa10 value="0.0171690329891691" flag="0"/>
			<psa30 value="0.00147649281040306" flag="0"/>
		</comp>
		<comp name="--.HNZ" depth="0.0">
			<acc value="0.00905927383884221" flag="0"/>
			<vel value="0.00816189471138518" flag="0"/>
			<psa03 value="0.0251025170852204" flag="0"/>
			<psa10 value="0.0132092272339735" flag="0"/>
			<psa30 value="0.000541025319440776" flag="0"/>
		</comp>
	</station>
	<station code="VVK" name="VVK" netid="HP" source="University of Patras, Seismological Laboratory (PSLNET)" insttype="" lat="38.4222" lon="21.8116" esm:processing="manual (Paolucci et al 2011)" esm:quality="good">
		<comp name="--.HNE" depth="0.0">
			<acc value="0.00693273350744543" flag="0"/>
			<vel value="0.00452418137652221" flag="0"/>
			<psa03 value="0.0130931277721296" flag="0"/>
			<psa10 value="0.00711216098952645" flag="0"/>
			<psa30 value="0.000267724610441323" flag="0"/>
		</comp>
		<comp name="--.HNN" depth="0.0">
			<acc value="0.00447381012488978" flag="0"/>
			<vel value="0.00303313783283388" flag="0"/>
			<psa03 value="0.0122762767847386" flag="0"/>
			<psa10 value="0.00393010566271293" flag="0"/>
			<psa30 value="0.00021856828115937" flag="0"/>
		</comp>
		<comp name="--.HNZ" depth="0.0">
			<acc value="0.00287340875367721" flag="0"/>
			<vel value="0.00182135062855638" flag="0"/>
			<psa03 value="0.00713727489278912" flag="0"/>
			<psa10 value="0.00290280667169614" flag="0"/>
			<psa30 value="0.000195080983053624" flag="0"/>
		</comp>
	</station>
	<station code="DRES" name="DRES" netid="HA" source="Hellenic Seismological Network, University of Athens, Seismological Laboratory (HA)" insttype="" lat="38.319719" lon="21.853176" esm:processing="automatic (Paolucci et al 2011)" esm:quality="bad">
		<comp name="--.HNE" depth="0.0">
			<acc value="0" flag="1"/>
			<vel value="0" flag="1"/>
			<psa03 value="0" flag="1"/>
			<psa10 value="0" flag="1"/>
			<psa30 value="0" flag="1"/>
		</comp>
		<comp name="--.HNN" depth="0.0">
			<acc value="0" flag="1"/>
			<vel value="0" flag="1"/>
			<psa03 value="0" flag="1"/>
			<psa10 value="0" flag="1"/>
			<psa30 value="0" flag="1"/>
		</comp>
		<comp name="--.HNZ" depth="0.0">
			<acc value="0" flag="1"/>
			<vel value="0" flag="1"/>
			<psa03 value="0" flag="1"/>
			<psa10 value="0" flag="1"/>
			<psa30 value="0" flag="1"/>
		</comp>
	</station>
	<station code="KIAS" name="KIAS" netid="HA" source="Hellenic Seismological Network, University of Athens, Seismological Laboratory (HA)" insttype="" lat="37.9875" lon="22.7543" esm:processing="automatic (Paolucci et al 2011)" esm:quality="bad">
		<comp name="--.HNE" depth="0.0">
			<acc value="0" flag="1"/>
			<vel value="0" flag="1"/>
			<psa03 value="0" flag="1"/>
			<psa10 value="0" flag="1"/>
			<psa30 value="0" flag="1"/>
		</comp>
		<comp name="--.HNN" depth="0.0">
			<acc value="0" flag="1"/>
			<vel value="0" flag="1"/>
			<psa03 value="0" flag="1"/>
			<psa10 value="0" flag="1"/>
			<psa30 value="0" flag="1"/>
		</comp>
		<comp name="--.HNZ" depth="0.0">
			<acc value="0" flag="1"/>
			<vel value="0" flag="1"/>
			<psa03 value="0" flag="1"/>
			<psa10 value="0" flag="1"/>
			<psa30 value="0" flag="1"/>
		</comp>
	</station>
	<station code="MSL1" name="MSL1" netid="HI" source="ITSAK Strong Motion Network" insttype="" lat="38.3727" lon="21.4243" esm:processing="discarded" esm:quality="bad">
		<comp name="--.HNE" depth="0.0">
			<acc value="0" flag="1"/>
			<vel value="0" flag="1"/>
			<psa03 value="0" flag="1"/>
			<psa10 value="0" flag="1"/>
			<psa30 value="0" flag="1"/>
		</comp>
		<comp name="--.HNN" depth="0.0">
			<acc value="0" flag="1"/>
			<vel value="0" flag="1"/>
			<psa03 value="0" flag="1"/>
			<psa10 value="0" flag="1"/>
			<psa30 value="0" flag="1"/>
		</comp>
		<comp name="--.HNZ" depth="0.0">
			<acc value="0" flag="1"/>
			<vel value="0" flag="1"/>
			<psa03 value="0" flag="1"/>
			<psa10 value="0" flag="1"/>
			<psa30 value="0" flag="1"/>
		</comp>
	</station>
	<station code="PATC" name="PATC" netid="HL" source="National Observatory of Athens Seismic Network" insttype="" lat="38.26933" lon="21.76001" esm:processing="discarded" esm:quality="good">
		<comp name="00.HNE" depth="0.0">
			<acc value="0" flag="1"/>
			<vel value="0" flag="1"/>
			<psa03 value="0" flag="1"/>
			<psa10 value="0" flag="1"/>
			<psa30 value="0" flag="1"/>
		</comp>
		<comp name="00.HNN" depth="0.0">
			<acc value="0" flag="1"/>
			<vel value="0" flag="1"/>
			<psa03 value="0" flag="1"/>
			<psa10 value="0" flag="1"/>
			<psa30 value="0" flag="1"/>
		</comp>
		<comp name="00.HNZ" depth="0.0">
			<acc value="0" flag="1"/>
			<vel value="0" flag="1"/>
			<psa03 value="0" flag="1"/>
			<psa10 value="0" flag="1"/>
			<psa30 value="0" flag="1"/>
		</comp>
	</station>
	<station code="PATG" name="PATG" netid="HL" source="National Observatory of Athens Seismic Network" insttype="" lat="38.23865" lon="21.72657" esm:processing="discarded" esm:quality="bad">
		<comp name="00.HNE" depth="0.0">
			<acc value="0" flag="1"/>
			<vel value="0" flag="1"/>
			<psa03 value="0" flag="1"/>
			<psa10 value="0" flag="1"/>
			<psa30 value="0" flag="1"/>
		</comp>
		<comp name="00.HNN" depth="0.0">
			<acc value="0" flag="1"/>
			<vel value="0" flag="1"/>
			<psa03 value="0" flag="1"/>
			<psa10 value="0" flag="1"/>
			<psa30 value="0" flag="1"/>
		</comp>
		<comp name="00.HNZ" depth="0.0">
			<acc value="0" flag="1"/>
			<vel value="0" flag="1"/>
			<psa03 value="0" flag="1"/>
			<psa10 value="0" flag="1"/>
			<psa30 value="0" flag="1"/>
		</comp>
	</station>
	<station code="RIOA" name="RIOA" netid="HL" source="National Observatory of Athens Seismic Network" insttype="" lat="38.29585" lon="21.79118" esm:processing="discarded" esm:quality="bad">
		<comp name="00.HNE" depth="0.0">
			<acc value="0" flag="1"/>
			<vel value="0" flag="1"/>
			<psa03 value="0" flag="1"/>
			<psa10 value="0" flag="1"/>
			<psa30 value="0" flag="1"/>
		</comp>
		<comp name="00.HNN" depth="0.0">
			<acc value="0" flag="1"/>
			<vel value="0" flag="1"/>
			<psa03 value="0" flag="1"/>
			<psa10 value="0" flag="1"/>
			<psa30 value="0" flag="1"/>
		</comp>
		<comp name="00.HNZ" depth="0.0">
			<acc value="0" flag="1"/>
			<vel value="0" flag="1"/>
			<psa03 value="0" flag="1"/>
			<psa10 value="0" flag="1"/>
			<psa30 value="0" flag="1"/>
		</comp>
	</station>
