<?xml version="1.0" encoding="UTF-8" standalone="yes"?>
<!DOCTYPE earthquake SYSTEM "stationlist.dtd">
<stationlist created="" xmlns="ch.ethz.sed.shakemap.usgs.xml">
  <station code="KTRS" name="KTRS" netid="HC" insttype="60" lat="36.9261" lon="22.136">
    <comp name="--.HHZ">
      <acc value="0.0337655858" flag="0"/>
      <vel value="0.0102305277" flag="0"/>
      <psa03 value="0.0557245682" flag="0"/>
      <psa10 value="0.0044121438" flag="0"/>
      <psa30 value="0.0005871822" flag="0"/>
    </comp>
    <comp name="--.HHN">
      <acc value="0.0515131012" flag="0"/>
      <vel value="0.0152676708" flag="0"/>
      <psa03 value="0.0650575944" flag="0"/>
      <psa10 value="0.0125266579" flag="0"/>
      <psa30 value="0.0015529748" flag="0"/>
    </comp>
    <comp name="--.HHE">
      <acc value="0.0582964403" flag="0"/>
      <vel value="0.0130746449" flag="0"/>
      <psa03 value="0.0799162043" flag="0"/>
      <psa10 value="0.0079018307" flag="0"/>
      <psa30 value="0.0009548723" flag="0"/>
    </comp>
  </station>
  <station code="ITM" name="ITM" netid="HL" insttype="DR24" lat="37.1787" lon="21.9252">
    <comp name="--.HHN">
      <acc value="0.1248448246" flag="0"/>
      <vel value="0.0369427527" flag="0"/>
      <psa03 value="0.2239539248" flag="0"/>
      <psa10 value="0.0109734694" flag="0"/>
      <psa30 value="0.0008412392" flag="0"/>
    </comp>
    <comp name="--.HHE">
      <acc value="0.0844285376" flag="0"/>
      <vel value="0.0279085531" flag="0"/>
      <psa03 value="0.2059133932" flag="0"/>
      <psa10 value="0.0159440661" flag="0"/>
      <psa30 value="0.0010574383" flag="0"/>
    </comp>
    <comp name="--.HHZ">
      <acc value="0.0485176586" flag="0"/>
      <vel value="0.0134995603" flag="0"/>
      <psa03 value="0.0750607045" flag="0"/>
      <psa10 value="0.0146530753" flag="0"/>
      <psa30 value="0.0010326519" flag="0"/>
    </comp>
  </station>
  <station code="AMT" name="AMT" netid="HP" insttype="CMG-3T," lat="37.5324" lon="21.7089">
    <comp name="00.HHZ">
      <acc value="0.0561538540" flag="0"/>
      <vel value="0.0269401360" flag="0"/>
      <psa03 value="0.2032164228" flag="0"/>
      <psa10 value="0.0115455204" flag="0"/>
      <psa30 value="0.0008392625" flag="0"/>
    </comp>
    <comp name="00.HHN">
      <acc value="0.1179838810" flag="0"/>
      <vel value="0.0472938380" flag="0"/>
      <psa03 value="0.2947189189" flag="0"/>
      <psa10 value="0.0411403432" flag="0"/>
      <psa30 value="0.0017749836" flag="0"/>
    </comp>
    <comp name="00.HHE">
      <acc value="0.1029740776" flag="0"/>
      <vel value="0.0382939580" flag="0"/>
      <psa03 value="0.2017359479" flag="0"/>
      <psa10 value="0.0212816006" flag="0"/>
      <psa30 value="0.0013124151" flag="0"/>
    </comp>
  </station>
  <station code="PYL" name="PYL" netid="HP" insttype="120s" lat="36.8955" lon="21.742">
    <comp name="--.HHE">
      <acc value="0.3872780639" flag="0"/>
      <vel value="0.0789398043" flag="0"/>
      <psa03 value="0.4882808652" flag="0"/>
      <psa10 value="0.0383522212" flag="0"/>
      <psa30 value="0.0028737710" flag="0"/>
    </comp>
    <comp name="--.HHN">
      <acc value="0.2708002485" flag="0"/>
      <vel value="0.0574028677" flag="0"/>
      <psa03 value="0.2444869094" flag="0"/>
      <psa10 value="0.0183210878" flag="0"/>
      <psa30 value="0.0018566264" flag="0"/>
    </comp>
    <comp name="--.HHZ">
      <acc value="0.1687655411" flag="0"/>
      <vel value="0.0479184733" flag="0"/>
      <psa03 value="0.2960503316" flag="0"/>
      <psa10 value="0.0169646500" flag="0"/>
      <psa30 value="0.0014430209" flag="0"/>
    </comp>
  </station>
  <station code="VLX" name="VLX" netid="HP" insttype="40," lat="37.3703" lon="22.3793">
    <comp name="--.HHZ">
      <acc value="0.0111964894" flag="0"/>
      <vel value="0.0045199365" flag="0"/>
      <psa03 value="0.0250437939" flag="0"/>
      <psa10 value="0.0036780042" flag="0"/>
      <psa30 value="0.0003846262" flag="0"/>
    </comp>
    <comp name="--.HHE">
      <acc value="0.0253166352" flag="0"/>
      <vel value="0.0162594431" flag="0"/>
      <psa03 value="0.0545834674" flag="0"/>
      <psa10 value="0.0061027808" flag="0"/>
      <psa30 value="0.0007725360" flag="0"/>
    </comp>
    <comp name="--.HHN">
      <acc value="0.0200484837" flag="0"/>
      <vel value="0.0114936990" flag="0"/>
      <psa03 value="0.0383564824" flag="0"/>
      <psa10 value="0.0097292346" flag="0"/>
      <psa30 value="0.0006106107" flag="0"/>
    </comp>
  </station>
  <station code="STRF" name="STRF" netid="HT" insttype="30s-100Hz," lat="37.2497" lon="21.013">
    <comp name="--.HHE">
      <acc value="0.0629569155" flag="0"/>
      <vel value="0.0161744126" flag="0"/>
      <psa03 value="0.1271497326" flag="0"/>
      <psa10 value="0.0143979896" flag="0"/>
      <psa30 value="0.0011139259" flag="0"/>
    </comp>
    <comp name="--.HHN">
      <acc value="0.0590507351" flag="0"/>
      <vel value="0.0248453388" flag="0"/>
      <psa03 value="0.1217317512" flag="0"/>
      <psa10 value="0.0201458037" flag="0"/>
      <psa30 value="0.0014979219" flag="0"/>
    </comp>
    <comp name="--.HHZ">
      <acc value="0.0309467741" flag="0"/>
      <vel value="0.0128661955" flag="0"/>
      <psa03 value="0.0810303354" flag="0"/>
      <psa10 value="0.0076860448" flag="0"/>
      <psa30 value="0.0007929611" flag="0"/>
    </comp>
  </station>
</stationlist>
