<?xml version="1.0" encoding="UTF-8" standalone="yes"?>
<!DOCTYPE earthquake SYSTEM "stationlist.dtd">
<stationlist created="" xmlns="ch.ethz.sed.shakemap.usgs.xml">
  <station code="GVD" name="GVD" netid="GE" insttype="STS-2/N" lat="34.8391" lon="24.0874">
    <comp name="--.HHE">
      <acc value="0.1006693262" flag="0"/>
      <vel value="0.0377490030" flag="0"/>
      <psa03 value="0.2992627380" flag="0"/>
      <psa10 value="0.0134688140" flag="0"/>
      <psa30 value="0.0012500991" flag="0"/>
    </comp>
    <comp name="--.HHZ">
      <acc value="0.0833653843" flag="0"/>
      <vel value="0.0237166152" flag="0"/>
      <psa03 value="0.1398452996" flag="0"/>
      <psa10 value="0.0084437754" flag="0"/>
      <psa30 value="0.0005181612" flag="0"/>
    </comp>
    <comp name="--.HHN">
      <acc value="0.0619583600" flag="0"/>
      <vel value="0.0367539335" flag="0"/>
      <psa03 value="0.2205382611" flag="0"/>
      <psa10 value="0.0180126573" flag="0"/>
      <psa30 value="0.0012968033" flag="0"/>
    </comp>
  </station>
  <station code="IMMV" name="IMMV" netid="GE" insttype="STS-2/N" lat="35.4606" lon="23.9811">
    <comp name="--.HHN">
      <acc value="0.0136174906" flag="0"/>
      <vel value="0.0068539465" flag="0"/>
      <psa03 value="0.0445084140" flag="0"/>
      <psa10 value="0.0070015860" flag="0"/>
      <psa30 value="0.0006606096" flag="0"/>
    </comp>
    <comp name="--.HHZ">
      <acc value="0.0101718039" flag="0"/>
      <vel value="0.0045816174" flag="0"/>
      <psa03 value="0.0377341342" flag="0"/>
      <psa10 value="0.0036081021" flag="0"/>
      <psa30 value="0.0003104265" flag="0"/>
    </comp>
    <comp name="--.HHE">
      <acc value="0.0147166792" flag="0"/>
      <vel value="0.0083128527" flag="0"/>
      <psa03 value="0.0525626163" flag="0"/>
      <psa10 value="0.0077603188" flag="0"/>
      <psa30 value="0.0007660278" flag="0"/>
    </comp>
  </station>
  <station code="CHAN" name="CHAN" netid="HC" insttype="120" lat="35.5193" lon="24.0428">
    <comp name="--.HHE">
      <acc value="0.0158574390" flag="0"/>
      <vel value="0.0114627362" flag="0"/>
      <psa03 value="0.0448169365" flag="0"/>
      <psa10 value="0.0153564390" flag="0"/>
      <psa30 value="0.0019808062" flag="0"/>
    </comp>
    <comp name="--.HHZ">
      <acc value="0.0128175297" flag="0"/>
      <vel value="0.0086122305" flag="0"/>
      <psa03 value="0.0284651306" flag="0"/>
      <psa10 value="0.0103521565" flag="0"/>
      <psa30 value="0.0006536854" flag="0"/>
    </comp>
    <comp name="--.HHN">
      <acc value="0.0134893506" flag="0"/>
      <vel value="0.0122199030" flag="0"/>
      <psa03 value="0.0560342004" flag="0"/>
      <psa10 value="0.0194350455" flag="0"/>
      <psa30 value="0.0022419420" flag="0"/>
    </comp>
  </station>
  <station code="GVDS" name="GVDS" netid="HC" insttype="60" lat="34.8389" lon="24.0585">
    <comp name="--.HHE">
      <acc value="0.0822237774" flag="0"/>
      <vel value="0.0193724532" flag="0"/>
      <psa03 value="0.1488498526" flag="0"/>
      <psa10 value="0.0098632008" flag="0"/>
      <psa30 value="0.0004668314" flag="0"/>
    </comp>
    <comp name="--.HHZ">
      <acc value="0.0485590434" flag="0"/>
      <vel value="0.0142586713" flag="0"/>
      <psa03 value="0.0849238891" flag="0"/>
      <psa10 value="0.0072531668" flag="0"/>
      <psa30 value="0.0005127464" flag="0"/>
    </comp>
    <comp name="--.HHN">
      <acc value="0.0928551926" flag="0"/>
      <vel value="0.0321229845" flag="0"/>
      <psa03 value="0.2482466388" flag="0"/>
      <psa10 value="0.0145821138" flag="0"/>
      <psa30 value="0.0008118268" flag="0"/>
    </comp>
  </station>
  <station code="KNDR" name="KNDR" netid="HC" insttype="120" lat="35.2348" lon="23.6248">
    <comp name="--.HHZ">
      <acc value="0.0317946046" flag="0"/>
      <vel value="0.0108110189" flag="0"/>
      <psa03 value="0.0791514550" flag="0"/>
      <psa10 value="0.0078504325" flag="0"/>
      <psa30 value="0.0005206764" flag="0"/>
    </comp>
    <comp name="--.HHE">
      <acc value="0.0527157648" flag="0"/>
      <vel value="0.0264421798" flag="0"/>
      <psa03 value="0.1366674511" flag="0"/>
      <psa10 value="0.0208433854" flag="0"/>
      <psa30 value="0.0015716869" flag="0"/>
    </comp>
    <comp name="--.HHN">
      <acc value="0.0434072795" flag="0"/>
      <vel value="0.0232256522" flag="0"/>
      <psa03 value="0.1688796986" flag="0"/>
      <psa10 value="0.0268642074" flag="0"/>
      <psa30 value="0.0014967683" flag="0"/>
    </comp>
  </station>
  <station code="RODP" name="RODP" netid="HC" insttype="120" lat="35.5604" lon="23.7577">
    <comp name="--.HHE">
      <acc value="0.0101451970" flag="0"/>
      <vel value="0.0080891292" flag="0"/>
      <psa03 value="0.0353750683" flag="0"/>
      <psa10 value="0.0081139559" flag="0"/>
      <psa30 value="0.0007557966" flag="0"/>
    </comp>
    <comp name="--.HHZ">
      <acc value="0.0053627717" flag="0"/>
      <vel value="0.0037831927" flag="0"/>
      <psa03 value="0.0179008748" flag="0"/>
      <psa10 value="0.0033080816" flag="0"/>
      <psa30 value="0.0003318435" flag="0"/>
    </comp>
    <comp name="--.HHN">
      <acc value="0.0071862068" flag="0"/>
      <vel value="0.0052364395" flag="0"/>
      <psa03 value="0.0239777250" flag="0"/>
      <psa10 value="0.0084678297" flag="0"/>
      <psa30 value="0.0003716794" flag="0"/>
    </comp>
  </station>
  <station code="ANKY" name="ANKY" netid="HL" insttype="60" lat="35.867" lon="23.3012">
    <comp name="--.HHZ">
      <acc value="0.0028814675" flag="0"/>
      <vel value="0.0018199440" flag="0"/>
      <psa03 value="0.0096573687" flag="0"/>
      <psa10 value="0.0026436558" flag="0"/>
      <psa30 value="0.0004296276" flag="0"/>
    </comp>
    <comp name="--.HHN">
      <acc value="0.0048228262" flag="0"/>
      <vel value="0.0035027181" flag="0"/>
      <psa03 value="0.0117596029" flag="0"/>
      <psa10 value="0.0075600007" flag="0"/>
      <psa30 value="0.0003587251" flag="0"/>
    </comp>
    <comp name="--.HHE">
      <acc value="0.0054562100" flag="0"/>
      <vel value="0.0035771413" flag="0"/>
      <psa03 value="0.0114597857" flag="0"/>
      <psa10 value="0.0090893797" flag="0"/>
      <psa30 value="0.0005841041" flag="0"/>
    </comp>
  </station>
  <station code="GVD" name="GVD" netid="HL" insttype="120" lat="34.8391" lon="24.0874">
    <comp name="--.HHN">
      <acc value="0.0602863623" flag="0"/>
      <vel value="0.0361386069" flag="0"/>
      <psa03 value="0.2143940120" flag="0"/>
      <psa10 value="0.0176778452" flag="0"/>
      <psa30 value="0.0012711837" flag="0"/>
    </comp>
    <comp name="--.HHE">
      <acc value="0.0988528397" flag="0"/>
      <vel value="0.0366073812" flag="0"/>
      <psa03 value="0.2904476591" flag="0"/>
      <psa10 value="0.0133379825" flag="0"/>
      <psa30 value="0.0012290973" flag="0"/>
    </comp>
    <comp name="--.HHZ">
      <acc value="0.0817498136" flag="0"/>
      <vel value="0.0230495609" flag="0"/>
      <psa03 value="0.1356644425" flag="0"/>
      <psa10 value="0.0083279366" flag="0"/>
      <psa30 value="0.0005156989" flag="0"/>
    </comp>
  </station>
  <station code="IMMV" name="IMMV" netid="HL" insttype="120" lat="35.4606" lon="23.9811">
    <comp name="--.HHN">
      <acc value="0.0132278954" flag="0"/>
      <vel value="0.0067817928" flag="0"/>
      <psa03 value="0.0433115005" flag="0"/>
      <psa10 value="0.0069462824" flag="0"/>
      <psa30 value="0.0006604560" flag="0"/>
    </comp>
    <comp name="--.HHE">
      <acc value="0.0142955999" flag="0"/>
      <vel value="0.0081242866" flag="0"/>
      <psa03 value="0.0511751874" flag="0"/>
      <psa10 value="0.0076982990" flag="0"/>
      <psa30 value="0.0007644009" flag="0"/>
    </comp>
    <comp name="--.HHZ">
      <acc value="0.0099001316" flag="0"/>
      <vel value="0.0044958576" flag="0"/>
      <psa03 value="0.0366447499" flag="0"/>
      <psa10 value="0.0035852669" flag="0"/>
      <psa30 value="0.0003094191" flag="0"/>
    </comp>
  </station>
  <station code="VAM" name="VAM" netid="HL" insttype="CMG3ESPC-120s" lat="35.407" lon="24.1997">
    <comp name="--.HHE">
      <acc value="0.0105169278" flag="0"/>
      <vel value="0.0061491416" flag="0"/>
      <psa03 value="0.0290113196" flag="0"/>
      <psa10 value="0.0071640980" flag="0"/>
      <psa30 value="0.0004214244" flag="0"/>
    </comp>
    <comp name="--.HHN">
      <acc value="0.0112713164" flag="0"/>
      <vel value="0.0066245676" flag="0"/>
      <psa03 value="0.0309568044" flag="0"/>
      <psa10 value="0.0074702251" flag="0"/>
      <psa30 value="0.0006025430" flag="0"/>
    </comp>
    <comp name="--.HHZ">
      <acc value="0.0050181627" flag="0"/>
      <vel value="0.0032961802" flag="0"/>
      <psa03 value="0.0184555944" flag="0"/>
      <psa10 value="0.0041918338" flag="0"/>
      <psa30 value="0.0003763916" flag="0"/>
    </comp>
  </station>
</stationlist>
