<stationlist created="1778135924">
	<station code="ANKY" name="ANKY" netid="HL" source="National Observatory of Athens Seismic Network" insttype="" lat="35.86704" lon="23.30117">
		<comp name="00.HNE" depth="0.0">
			<acc value="0.00537264406465609" flag="0"/>
			<vel value="0.00367519018634761" flag="0"/>
			<psa03 value="0.0104249341420573" flag="0"/>
			<psa10 value="0.0103891403767627" flag="0"/>
			<psa30 value="0.000585675484633177" flag="0"/>
		</comp>
		<comp name="00.HNN" depth="0.0">
			<acc value="0.00468574813983655" flag="0"/>
			<vel value="0.0035144964507507" flag="0"/>
			<psa03 value="0.01449647494432" flag="0"/>
			<psa10 value="0.00642677055864855" flag="0"/>
			<psa30 value="0.000425050962873582" flag="0"/>
		</comp>
		<comp name="00.HNZ" depth="0.0">
			<acc value="0.00301435334615506" flag="0"/>
			<vel value="0.00183626858216466" flag="0"/>
			<psa03 value="0.00957483221631016" flag="0"/>
			<psa10 value="0.00260936548997761" flag="0"/>
			<psa30 value="0.000515430220242491" flag="0"/>
		</comp>
	</station>
	<station code="IMMV" name="IMMV" netid="HL" source="National Observatory of Athens Seismic Network" insttype="" lat="35.4606" lon="23.9811">
		<comp name="--.HNE" depth="0.0">
			<acc value="0.0139080195846342" flag="0"/>
			<vel value="0.00786635177121875" flag="0"/>
			<psa03 value="0.0485900363874431" flag="0"/>
			<psa10 value="0.00739722902019887" flag="0"/>
			<psa30 value="0.000796411277805237" flag="0"/>
		</comp>
		<comp name="--.HNN" depth="0.0">
			<acc value="0.0130076967641073" flag="0"/>
			<vel value="0.00678327524376646" flag="0"/>
			<psa03 value="0.0421919008410303" flag="0"/>
			<psa10 value="0.00683750401540429" flag="0"/>
			<psa30 value="0.000702452643906866" flag="0"/>
		</comp>
		<comp name="--.HNZ" depth="0.0">
			<acc value="0.00978020095620676" flag="0"/>
			<vel value="0.00446856731174116" flag="0"/>
			<psa03 value="0.0367780938402194" flag="0"/>
			<psa10 value="0.00360398474310179" flag="0"/>
			<psa30 value="0.000319011933188278" flag="0"/>
		</comp>
	</station>
	<station code="SIVA" name="SIVA" netid="HL" source="National Observatory of Athens Seismic Network" insttype="" lat="35.01777" lon="24.81204">
		<comp name="00.HNE" depth="0.0">
			<acc value="0.0100475589434741" flag="0"/>
			<vel value="0.008823654055743" flag="0"/>
			<psa03 value="0.0298877940210055" flag="0"/>
			<psa10 value="0.0101273984680458" flag="0"/>
			<psa30 value="0.000953903845101554" flag="0"/>
		</comp>
		<comp name="00.HNN" depth="0.0">
			<acc value="0.0100685116422691" flag="0"/>
			<vel value="0.00906119539240684" flag="0"/>
			<psa03 value="0.0281875901695112" flag="0"/>
			<psa10 value="0.00953143227589043" flag="0"/>
			<psa30 value="0.000809386517724536" flag="0"/>
		</comp>
		<comp name="00.HNZ" depth="0.0">
			<acc value="0.00482906424421736" flag="0"/>
			<vel value="0.00309091869109384" flag="0"/>
			<psa03 value="0.0130647243325354" flag="0"/>
			<psa10 value="0.0033784840217457" flag="0"/>
			<psa30 value="0.000465318948830026" flag="0"/>
		</comp>
	</station>
</stationlist>
