<stationlist created="1778637310">
	<station code="ALAN" name="ALAN" netid="KO" source="Bogazici University Kandilli Observatory And Earthquake Research Institute (KOERI)" insttype="" lat="36.557" lon="32.0327">
		<comp name="--.HNE" depth="0.0">
			<acc value="0.129523546883928" flag="0"/>
			<vel value="0.170511032231763" flag="0"/>
			<psa03 value="0.327347831020819" flag="0"/>
			<psa10 value="0.161820054784438" flag="0"/>
			<psa30 value="0.0490109800703346" flag="0"/>
		</comp>
		<comp name="--.HNN" depth="0.0">
			<acc value="0.174131251120297" flag="0"/>
			<vel value="0.216910207484313" flag="0"/>
			<psa03 value="0.420190335547765" flag="0"/>
			<psa10 value="0.25666274264691" flag="0"/>
			<psa30 value="0.0442805767042427" flag="0"/>
		</comp>
		<comp name="--.HNZ" depth="0.0">
			<acc value="0.0756104135940238" flag="0"/>
			<vel value="0.126795932379466" flag="0"/>
			<psa03 value="0.131248965433265" flag="0"/>
			<psa10 value="0.218590025516534" flag="0"/>
			<psa30 value="0.0348561857179173" flag="0"/>
		</comp>
	</station>
	<station code="ARPRA" name="ARPRA" netid="KO" source="Bogazici University Kandilli Observatory And Earthquake Research Institute (KOERI)" insttype="" lat="39.0929" lon="38.3356">
		<comp name="--.HNE" depth="0.0">
			<acc value="0.110813249881272" flag="0"/>
			<vel value="0.249459974170052" flag="0"/>
			<psa03 value="0.158663146071472" flag="0"/>
			<psa10 value="0.461066763408787" flag="0"/>
			<psa30 value="0.0631959464211038" flag="0"/>
		</comp>
		<comp name="--.HNN" depth="0.0">
			<acc value="0.11738451765926" flag="0"/>
			<vel value="0.220241052181708" flag="0"/>
			<psa03 value="0.18355540964509" flag="0"/>
			<psa10 value="0.565648771454933" flag="0"/>
			<psa30 value="0.0558266182396145" flag="0"/>
		</comp>
		<comp name="--.HNZ" depth="0.0">
			<acc value="0.0614624934492264" flag="0"/>
			<vel value="0.292721209955496" flag="0"/>
			<psa03 value="0.076190969152696" flag="0"/>
			<psa10 value="0.218016447519613" flag="0"/>
			<psa30 value="0.0677622955860841" flag="0"/>
		</comp>
	</station>
	<station code="BOZY" name="BOZY" netid="KO" source="Bogazici University Kandilli Observatory And Earthquake Research Institute (KOERI)" insttype="" lat="36.1069" lon="32.9763">
		<comp name="--.HNE" depth="0.0">
			<acc value="0.373185568987275" flag="0"/>
			<vel value="0.288873433397937" flag="0"/>
			<psa03 value="0.87624046329487" flag="0"/>
			<psa10 value="0.36400913381866" flag="0"/>
			<psa30 value="0.0465515571454738" flag="0"/>
		</comp>
		<comp name="--.HNN" depth="0.0">
			<acc value="0.301812534738382" flag="0"/>
			<vel value="0.222758001188572" flag="0"/>
			<psa03 value="0.85067426966047" flag="0"/>
			<psa10 value="0.280295158178481" flag="0"/>
			<psa30 value="0.0706962899490008" flag="0"/>
		</comp>
		<comp name="--.HNZ" depth="0.0">
			<acc value="0.168180958048988" flag="0"/>
			<vel value="0.162783921466081" flag="0"/>
			<psa03 value="0.323416591428744" flag="0"/>
			<psa10 value="0.185902125103447" flag="0"/>
			<psa30 value="0.0508155229458707" flag="0"/>
		</comp>
	</station>
	<station code="CMRD" name="CMRD" netid="KO" source="Bogazici University Kandilli Observatory And Earthquake Research Institute (KOERI)" insttype="" lat="37.6623" lon="34.9902">
		<comp name="--.HNE" depth="0.0">
			<acc value="0.339429563430131" flag="0"/>
			<vel value="0.491654593582974" flag="0"/>
			<psa03 value="0.707207599034059" flag="0"/>
			<psa10 value="0.457926905410098" flag="0"/>
			<psa30 value="0.0525501145204724" flag="0"/>
		</comp>
		<comp name="--.HNN" depth="0.0">
			<acc value="0.405851448789912" flag="0"/>
			<vel value="0.296376162624035" flag="0"/>
			<psa03 value="0.811347497791331" flag="0"/>
			<psa10 value="0.280216792987249" flag="0"/>
			<psa30 value="0.0739404381910931" flag="0"/>
		</comp>
		<comp name="--.HNZ" depth="0.0">
			<acc value="0.192776357763877" flag="0"/>
			<vel value="0.182171512193938" flag="0"/>
			<psa03 value="0.518617647538708" flag="0"/>
			<psa10 value="0.293949392704722" flag="0"/>
			<psa30 value="0.0440565118610117" flag="0"/>
		</comp>
	</station>
	<station code="KHMN" name="KHMN" netid="KO" source="Bogazici University Kandilli Observatory And Earthquake Research Institute (KOERI)" insttype="" lat="37.3916" lon="37.1574">
		<comp name="--.HNE" depth="0.0">
			<acc value="0.622902486089711" flag="0"/>
			<vel value="0.933957162432327" flag="0"/>
			<psa03 value="1.2402069909603" flag="0"/>
			<psa10 value="0.66774925510958" flag="0"/>
			<psa30 value="0.301022181241996" flag="0"/>
		</comp>
		<comp name="--.HNN" depth="0.0">
			<acc value="0.415292010313211" flag="0"/>
			<vel value="0.542605512012462" flag="0"/>
			<psa03 value="0.966465606938442" flag="0"/>
			<psa10 value="0.963612594607104" flag="0"/>
			<psa30 value="0.170308735451108" flag="0"/>
		</comp>
		<comp name="--.HNZ" depth="0.0">
			<acc value="0.306860002079953" flag="0"/>
			<vel value="0.794093360031611" flag="0"/>
			<psa03 value="0.573817054230825" flag="0"/>
			<psa10 value="0.500874390472103" flag="0"/>
			<psa30 value="0.213915170830324" flag="0"/>
		</comp>
	</station>
	<station code="KOZK" name="KOZK" netid="KO" source="Bogazici University Kandilli Observatory And Earthquake Research Institute (KOERI)" insttype="" lat="39.2101" lon="34.868">
		<comp name="--.HNE" depth="0.0">
			<acc value="0.0790056952367019" flag="0"/>
			<vel value="0.182937043598237" flag="0"/>
			<psa03 value="0.132429751987605" flag="0"/>
			<psa10 value="0.265741104043861" flag="0"/>
			<psa30 value="0.0481394723369367" flag="0"/>
		</comp>
		<comp name="--.HNN" depth="0.0">
			<acc value="0.0645561327234107" flag="0"/>
			<vel value="0.129681626688217" flag="0"/>
			<psa03 value="0.0918752008643354" flag="0"/>
			<psa10 value="0.216105755945695" flag="0"/>
			<psa30 value="0.0338813844754225" flag="0"/>
		</comp>
		<comp name="--.HNZ" depth="0.0">
			<acc value="0.0314095880217491" flag="0"/>
			<vel value="0.109781232652192" flag="0"/>
			<psa03 value="0.0664592880183935" flag="0"/>
			<psa10 value="0.0559999322206051" flag="0"/>
			<psa30 value="0.0221322128171327" flag="0"/>
		</comp>
	</station>
	<station code="KRMN" name="KRMN" netid="KO" source="Bogazici University Kandilli Observatory And Earthquake Research Institute (KOERI)" insttype="" lat="37.174" lon="33.2636">
		<comp name="--.HNE" depth="0.0">
			<acc value="0.418185209193133" flag="0"/>
			<vel value="0.480512184427655" flag="0"/>
			<psa03 value="1.0206712811277" flag="0"/>
			<psa10 value="1.31250354691711" flag="0"/>
			<psa30 value="0.0532350298927434" flag="0"/>
		</comp>
		<comp name="--.HNN" depth="0.0">
			<acc value="0.599446509132688" flag="0"/>
			<vel value="0.618988315070945" flag="0"/>
			<psa03 value="0.80536193461084" flag="0"/>
			<psa10 value="0.730169650157287" flag="0"/>
			<psa30 value="0.0608300230236479" flag="0"/>
		</comp>
		<comp name="--.HNZ" depth="0.0">
			<acc value="0.282455660593238" flag="0"/>
			<vel value="0.399503732995351" flag="0"/>
			<psa03 value="0.637789042059421" flag="0"/>
			<psa10 value="0.538650162928365" flag="0"/>
			<psa30 value="0.0640593302829637" flag="0"/>
		</comp>
	</station>
	<station code="KRTS" name="KRTS" netid="KO" source="Bogazici University Kandilli Observatory And Earthquake Research Institute (KOERI)" insttype="" lat="36.573" lon="35.375">
		<comp name="--.HNE" depth="0.0">
			<acc value="2.15398743085737" flag="0"/>
			<vel value="1.38334955746211" flag="0"/>
			<psa03 value="7.36503856430849" flag="0"/>
			<psa10 value="2.34199690580082" flag="0"/>
			<psa30 value="0.250341810583018" flag="0"/>
		</comp>
		<comp name="--.HNN" depth="0.0">
			<acc value="2.14822469955878" flag="0"/>
			<vel value="1.73724599918963" flag="0"/>
			<psa03 value="5.95210963139204" flag="0"/>
			<psa10 value="1.90054274163042" flag="0"/>
			<psa30 value="0.550455771661438" flag="0"/>
		</comp>
		<comp name="--.HNZ" depth="0.0">
			<acc value="1.16882509559576" flag="0"/>
			<vel value="1.27811564959758" flag="0"/>
			<psa03 value="4.14639501165188" flag="0"/>
			<psa10 value="1.73860101378578" flag="0"/>
			<psa30 value="0.352596237770359" flag="0"/>
		</comp>
	</station>
	<station code="MNVG" name="MNVG" netid="KO" source="Bogazici University Kandilli Observatory And Earthquake Research Institute (KOERI)" insttype="" lat="36.7935" lon="31.4161">
		<comp name="--.HNE" depth="0.0">
			<acc value="0.221914875734263" flag="0"/>
			<vel value="0.307322082177279" flag="0"/>
			<psa03 value="0.456315853684" flag="0"/>
			<psa10 value="0.576494369920729" flag="0"/>
			<psa30 value="0.158509833832074" flag="0"/>
		</comp>
		<comp name="--.HNN" depth="0.0">
			<acc value="0.164206634712046" flag="0"/>
			<vel value="0.378877343762607" flag="0"/>
			<psa03 value="0.329644879021997" flag="0"/>
			<psa10 value="0.346677075654873" flag="0"/>
			<psa30 value="0.108919602055753" flag="0"/>
		</comp>
		<comp name="--.HNZ" depth="0.0">
			<acc value="0.108695789887022" flag="0"/>
			<vel value="0.130316678665591" flag="0"/>
			<psa03 value="0.243375164076732" flag="0"/>
			<psa10 value="0.275720245112875" flag="0"/>
			<psa30 value="0.0532142685173853" flag="0"/>
		</comp>
	</station>
	<station code="SLFK" name="SLFK" netid="KO" source="Bogazici University Kandilli Observatory And Earthquake Research Institute (KOERI)" insttype="" lat="36.3925" lon="33.9464">
		<comp name="--.HNE" depth="0.0">
			<acc value="1.08037927903499" flag="0"/>
			<vel value="0.597719956827178" flag="0"/>
			<psa03 value="2.98313561809511" flag="0"/>
			<psa10 value="0.394757570751801" flag="0"/>
			<psa30 value="0.0592206430771244" flag="0"/>
		</comp>
		<comp name="--.HNN" depth="0.0">
			<acc value="1.27982571914279" flag="0"/>
			<vel value="0.68556562219653" flag="0"/>
			<psa03 value="2.55719173473559" flag="0"/>
			<psa10 value="0.960146765011118" flag="0"/>
			<psa30 value="0.0692260992225235" flag="0"/>
		</comp>
		<comp name="--.HNZ" depth="0.0">
			<acc value="0.582488810469686" flag="0"/>
			<vel value="0.389322468018883" flag="0"/>
			<psa03 value="1.40774092259327" flag="0"/>
			<psa10 value="0.345574022583127" flag="0"/>
			<psa30 value="0.0416572195863537" flag="0"/>
		</comp>
	</station>
</stationlist>
