<?xml version="1.0" encoding="UTF-8" standalone="yes"?>
<!DOCTYPE earthquake SYSTEM "stationlist.dtd">
<stationlist created="" xmlns="ch.ethz.sed.shakemap.usgs.xml">
  <station code="PARA" name="PARA" netid="CQ" insttype="Trillium120P" lat="34.994" lon="34.04">
    <comp name="--.HHE">
      <acc value="0.1926751047" flag="0"/>
      <vel value="0.5481984058" flag="0"/>
      <psa03 value="0.5298259671" flag="0"/>
      <psa10 value="0.4619108405" flag="0"/>
      <psa30 value="0.2414611290" flag="0"/>
    </comp>
    <comp name="--.HHZ">
      <acc value="0.1083241916" flag="0"/>
      <vel value="0.3343012329" flag="0"/>
      <psa03 value="0.2027541897" flag="0"/>
      <psa10 value="0.3670437654" flag="0"/>
      <psa30 value="0.1576799138" flag="0"/>
    </comp>
    <comp name="--.HHN">
      <acc value="0.2654997263" flag="0"/>
      <vel value="0.4361800943" flag="0"/>
      <psa03 value="0.4128143334" flag="0"/>
      <psa10 value="0.6931532392" flag="0"/>
      <psa30 value="0.2714704226" flag="0"/>
    </comp>
  </station>
  <station code="CMRD" name="CMRD" netid="KO" insttype="CMG-5T" lat="37.6623" lon="34.9902">
    <comp name="--.HNE">
      <acc value="0.3421977704" flag="0"/>
      <vel value="0.4464802016" flag="0"/>
      <psa03 value="0.7200150420" flag="0"/>
      <psa10 value="0.4533061172" flag="0"/>
      <psa30 value="0.0496874132" flag="0"/>
    </comp>
    <comp name="--.HNN">
      <acc value="0.4061104027" flag="0"/>
      <vel value="0.3416205378" flag="0"/>
      <psa03 value="0.8198708930" flag="0"/>
      <psa10 value="0.2782792788" flag="0"/>
      <psa30 value="0.0732521490" flag="0"/>
    </comp>
    <comp name="--.HNZ">
      <acc value="0.1923017727" flag="0"/>
      <vel value="0.1705828188" flag="0"/>
      <psa03 value="0.5195003276" flag="0"/>
      <psa10 value="0.2938113752" flag="0"/>
      <psa30 value="0.0443492977" flag="0"/>
    </comp>
  </station>
  <station code="IKL" name="IKL" netid="KO" insttype="CMG-3ESPC" lat="36.2366" lon="33.6845">
    <comp name="--.HHN">
      <acc value="0.2701628692" flag="0"/>
      <vel value="0.1989315309" flag="0"/>
      <psa03 value="0.7533019814" flag="0"/>
      <psa10 value="0.1990828426" flag="0"/>
      <psa30 value="0.0431783627" flag="0"/>
    </comp>
  </station>
  <station code="KHMN" name="KHMN" netid="KO" insttype="CMG-5T" lat="37.3916" lon="37.1574">
    <comp name="--.HNE">
      <acc value="0.6093544648" flag="0"/>
      <vel value="0.6367113299" flag="0"/>
      <psa03 value="1.2480934017" flag="0"/>
      <psa10 value="0.6352607489" flag="0"/>
      <psa30 value="0.2762931111" flag="0"/>
    </comp>
    <comp name="--.HNN">
      <acc value="0.4171460196" flag="0"/>
      <vel value="0.5889198039" flag="0"/>
      <psa03 value="0.9563262772" flag="0"/>
      <psa10 value="0.9531085813" flag="0"/>
      <psa30 value="0.1741047148" flag="0"/>
    </comp>
    <comp name="--.HNZ">
      <acc value="0.3010951328" flag="0"/>
      <vel value="0.4452374671" flag="0"/>
      <psa03 value="0.5568917145" flag="0"/>
      <psa10 value="0.5017570648" flag="0"/>
      <psa30 value="0.1773403041" flag="0"/>
    </comp>
  </station>
  <station code="KRTS" name="KRTS" netid="KO" insttype="CMG-5T" lat="36.573" lon="35.375">
    <comp name="--.HNE">
      <acc value="2.1646172039" flag="0"/>
      <vel value="1.4989341826" flag="0"/>
      <psa03 value="7.2046066571" flag="0"/>
      <psa10 value="2.3405595226" flag="0"/>
      <psa30 value="0.2625963193" flag="0"/>
    </comp>
    <comp name="--.HNZ">
      <acc value="1.1673302986" flag="0"/>
      <vel value="1.1496397209" flag="0"/>
      <psa03 value="4.1402307941" flag="0"/>
      <psa10 value="1.7272873221" flag="0"/>
      <psa30 value="0.3141533876" flag="0"/>
    </comp>
    <comp name="--.HNN">
      <acc value="2.1452836302" flag="0"/>
      <vel value="1.4216318820" flag="0"/>
      <psa03 value="5.8979599703" flag="0"/>
      <psa10 value="1.8762337385" flag="0"/>
      <psa30 value="0.4843382874" flag="0"/>
    </comp>
  </station>
  <station code="SLFK" name="SLFK" netid="KO" insttype="CMG-5T" lat="36.3925" lon="33.9464">
    <comp name="--.HNN">
      <acc value="1.2697897997" flag="0"/>
      <vel value="0.6422277669" flag="0"/>
      <psa03 value="2.5649796480" flag="0"/>
      <psa10 value="0.9556516650" flag="0"/>
      <psa30 value="0.0658828739" flag="0"/>
    </comp>
    <comp name="--.HNE">
      <acc value="1.0786673076" flag="0"/>
      <vel value="0.5749642877" flag="0"/>
      <psa03 value="2.9695146010" flag="0"/>
      <psa10 value="0.3944191649" flag="0"/>
      <psa30 value="0.0556223414" flag="0"/>
    </comp>
    <comp name="--.HNZ">
      <acc value="0.5831567983" flag="0"/>
      <vel value="0.3725263535" flag="0"/>
      <psa03 value="1.4048396438" flag="0"/>
      <psa10 value="0.3469094116" flag="0"/>
      <psa30 value="0.0369483056" flag="0"/>
    </comp>
  </station>
</stationlist>
