<?xml version="1.0" encoding="UTF-8" standalone="yes"?>
<!DOCTYPE earthquake SYSTEM "stationlist.dtd">
<stationlist created="" xmlns="ch.ethz.sed.shakemap.usgs.xml">
  <station code="PANR" name="PANR" netid="CL" insttype="TRILLIUM-40" commtype="DIG" lat="38.3735" lon="22.2497">
    <comp name="01.HHZ">
      <acc value="0.0400178314" flag="0"/>
      <vel value="0.0428242242" flag="0"/>
      <psa03 value="0.0759506379" flag="0"/>
      <psa10 value="0.0748828508" flag="0"/>
      <psa30 value="0.0055482092" flag="0"/>
    </comp>
    <comp name="01.HHE">
      <acc value="0.0610623496" flag="0"/>
      <vel value="0.0572194569" flag="0"/>
      <psa03 value="0.1375920030" flag="0"/>
      <psa10 value="0.0924391178" flag="0"/>
      <psa30 value="0.0058962382" flag="0"/>
    </comp>
    <comp name="01.HHN">
      <acc value="0.0673743476" flag="0"/>
      <vel value="0.0720992938" flag="0"/>
      <psa03 value="0.1253119686" flag="0"/>
      <psa10 value="0.1213732562" flag="0"/>
      <psa30 value="0.0096296713" flag="0"/>
    </comp>
  </station>
  <station code="PSAM" name="PSAM" netid="CL" insttype="CMG40-T" commtype="DIG" lat="38.3218" lon="22.1842">
    <comp name="00.HHE">
      <acc value="0.0547382856" flag="0"/>
      <vel value="0.0493507873" flag="0"/>
      <psa03 value="0.1221777243" flag="0"/>
      <psa10 value="0.1174403470" flag="0"/>
      <psa30 value="0.0110041105" flag="0"/>
    </comp>
    <comp name="00.HHZ">
      <acc value="0.0319732931" flag="0"/>
      <vel value="0.0311059599" flag="0"/>
      <psa03 value="0.0663617780" flag="0"/>
      <psa10 value="0.0595116094" flag="0"/>
      <psa30 value="0.0038239907" flag="0"/>
    </comp>
    <comp name="00.HHN">
      <acc value="0.0568519050" flag="0"/>
      <vel value="0.0521112111" flag="0"/>
      <psa03 value="0.1166905607" flag="0"/>
      <psa10 value="0.1031652440" flag="0"/>
      <psa30 value="0.0145015231" flag="0"/>
    </comp>
  </station>
  <station code="APE" name="APE" netid="GE" insttype="STS-2/N" commtype="DIG" lat="37.0727" lon="25.523">
    <comp name="--.HHE">
      <acc value="0.2257882501" flag="0"/>
      <vel value="0.1643391642" flag="0"/>
      <psa03 value="0.5391005284" flag="0"/>
      <psa10 value="0.1319323627" flag="0"/>
      <psa30 value="0.0185808794" flag="0"/>
    </comp>
    <comp name="--.HHZ">
      <acc value="0.1862042316" flag="0"/>
      <vel value="0.1514633793" flag="0"/>
      <psa03 value="0.5378937730" flag="0"/>
      <psa10 value="0.1466685705" flag="0"/>
      <psa30 value="0.0212736155" flag="0"/>
    </comp>
    <comp name="--.HHN">
      <acc value="0.2791776225" flag="0"/>
      <vel value="0.1669183910" flag="0"/>
      <psa03 value="0.4987151127" flag="0"/>
      <psa10 value="0.1891346503" flag="0"/>
      <psa30 value="0.0278877133" flag="0"/>
    </comp>
  </station>
  <station code="KLV" name="KLV" netid="MN" insttype="" commtype="DIG" lat="38.0437" lon="22.1504">
    <comp name="--.HHE">
      <acc value="0.0285789073" flag="0"/>
      <vel value="0.0237855406" flag="0"/>
      <psa03 value="0.0761899732" flag="0"/>
      <psa10 value="0.0378153348" flag="0"/>
      <psa30 value="0.0030258835" flag="0"/>
    </comp>
    <comp name="--.HHZ">
      <acc value="0.0269187790" flag="0"/>
      <vel value="0.0230303505" flag="0"/>
      <psa03 value="0.0562078329" flag="0"/>
      <psa10 value="0.0466254697" flag="0"/>
      <psa30 value="0.0035934083" flag="0"/>
    </comp>
    <comp name="--.HHN">
      <acc value="0.0336040200" flag="0"/>
      <vel value="0.0422134884" flag="0"/>
      <psa03 value="0.0746051828" flag="0"/>
      <psa10 value="0.0791356923" flag="0"/>
      <psa30 value="0.0048943019" flag="0"/>
    </comp>
  </station>
</stationlist>
