<?xml version="1.0" encoding="UTF-8" standalone="yes"?>
<!DOCTYPE earthquake SYSTEM "stationlist.dtd">
<stationlist created="" xmlns="ch.ethz.sed.shakemap.usgs.xml">
  <station code="PANR" name="PANR" netid="CL" insttype="TRILLIUM-40" commtype="DIG" lat="38.3735" lon="22.2497">
    <comp name="01.HHE">
      <acc value="0.0610623497" flag="0"/>
      <vel value="0.0572194703" flag="0"/>
      <psa03 value="0.1375920030" flag="0"/>
      <psa10 value="0.0924391178" flag="0"/>
      <psa30 value="0.0058962377" flag="0"/>
    </comp>
    <comp name="01.HHN">
      <acc value="0.0673743475" flag="0"/>
      <vel value="0.0720993140" flag="0"/>
      <psa03 value="0.1253119686" flag="0"/>
      <psa10 value="0.1213732562" flag="0"/>
      <psa30 value="0.0096296775" flag="0"/>
    </comp>
    <comp name="01.HHZ">
      <acc value="0.0400178314" flag="0"/>
      <vel value="0.0428242229" flag="0"/>
      <psa03 value="0.0759506379" flag="0"/>
      <psa10 value="0.0748828508" flag="0"/>
      <psa30 value="0.0055482091" flag="0"/>
    </comp>
  </station>
  <station code="PSAM" name="PSAM" netid="CL" insttype="CMG40-T" commtype="DIG" lat="38.3218" lon="22.1842">
    <comp name="00.HHE">
      <acc value="0.0547382857" flag="0"/>
      <vel value="0.0493507885" flag="0"/>
      <psa03 value="0.1221777243" flag="0"/>
      <psa10 value="0.1174403470" flag="0"/>
      <psa30 value="0.0110041171" flag="0"/>
    </comp>
    <comp name="00.HHN">
      <acc value="0.0568519052" flag="0"/>
      <vel value="0.0521112120" flag="0"/>
      <psa03 value="0.1166905607" flag="0"/>
      <psa10 value="0.1031652440" flag="0"/>
      <psa30 value="0.0145015292" flag="0"/>
    </comp>
    <comp name="00.HHZ">
      <acc value="0.0319732927" flag="0"/>
      <vel value="0.0311059596" flag="0"/>
      <psa03 value="0.0663617780" flag="0"/>
      <psa10 value="0.0595116094" flag="0"/>
      <psa30 value="0.0038240020" flag="0"/>
    </comp>
  </station>
  <station code="TRIZ" name="TRIZ" netid="CL" insttype="STS-2" commtype="DIG" lat="38.3654" lon="22.0727">
    <comp name="00.HH2">
      <acc value="0.0647878318" flag="0"/>
      <vel value="0.0458278108" flag="0"/>
      <psa03 value="0.1821666642" flag="0"/>
      <psa10 value="0.0728134180" flag="0"/>
      <psa30 value="0.0112283192" flag="0"/>
    </comp>
    <comp name="00.HH3">
      <acc value="0.0995633137" flag="0"/>
      <vel value="0.0693218507" flag="0"/>
      <psa03 value="0.2706912774" flag="0"/>
      <psa10 value="0.0690153965" flag="0"/>
      <psa30 value="0.0107961691" flag="0"/>
    </comp>
    <comp name="00.HHZ">
      <acc value="0.0411541337" flag="0"/>
      <vel value="0.0276892888" flag="0"/>
      <psa03 value="0.0972597857" flag="0"/>
      <psa10 value="0.0547061802" flag="0"/>
      <psa30 value="0.0075148885" flag="0"/>
    </comp>
  </station>
  <station code="KLV" name="KLV" netid="MN" insttype="" commtype="DIG" lat="38.0437" lon="22.1504">
    <comp name="--.HHE">
      <acc value="0.0285789073" flag="0"/>
      <vel value="0.0237855405" flag="0"/>
      <psa03 value="0.0761899732" flag="0"/>
      <psa10 value="0.0378153348" flag="0"/>
      <psa30 value="0.0030258839" flag="0"/>
    </comp>
    <comp name="--.HHZ">
      <acc value="0.0269187790" flag="0"/>
      <vel value="0.0230303504" flag="0"/>
      <psa03 value="0.0562078329" flag="0"/>
      <psa10 value="0.0466254697" flag="0"/>
      <psa30 value="0.0035934083" flag="0"/>
    </comp>
    <comp name="--.HHN">
      <acc value="0.0336040200" flag="0"/>
      <vel value="0.0422134886" flag="0"/>
      <psa03 value="0.0746051828" flag="0"/>
      <psa10 value="0.0791356923" flag="0"/>
      <psa30 value="0.0048943021" flag="0"/>
    </comp>
  </station>
</stationlist>
