<?xml version="1.0" encoding="UTF-8" standalone="yes"?>
<!DOCTYPE earthquake SYSTEM "stationlist.dtd">
<stationlist created="" xmlns="ch.ethz.sed.shakemap.usgs.xml">
  <station code="ARPRA" name="ARPRA" netid="KO" insttype="CMG-5T" lat="39.0929" lon="38.3356">
    <comp name="--.HNE">
      <acc value="0.0435451546" flag="0"/>
      <vel value="0.0384369425" flag="0"/>
      <psa03 value="0.1864839586" flag="0"/>
      <psa10 value="0.0450555182" flag="0"/>
      <psa30 value="0.0039281544" flag="0"/>
    </comp>
    <comp name="--.HNZ">
      <acc value="0.0232350394" flag="0"/>
      <vel value="0.0153837756" flag="0"/>
      <psa03 value="0.0667095131" flag="0"/>
      <psa10 value="0.0190138849" flag="0"/>
      <psa30 value="0.0015672061" flag="0"/>
    </comp>
    <comp name="--.HNN">
      <acc value="0.0470751779" flag="0"/>
      <vel value="0.0350524992" flag="0"/>
      <psa03 value="0.2821757000" flag="0"/>
      <psa10 value="0.0345935696" flag="0"/>
      <psa30 value="0.0022359756" flag="0"/>
    </comp>
  </station>
  <station code="DARE" name="DARE" netid="KO" insttype="CMG-3ESP" lat="38.5712" lon="37.4832">
    <comp name="--.HHN">
      <acc value="0.0145925663" flag="0"/>
      <vel value="0.0103587835" flag="0"/>
      <psa03 value="0.0306789230" flag="0"/>
      <psa10 value="0.0108477910" flag="0"/>
      <psa30 value="0.0008235147" flag="0"/>
    </comp>
    <comp name="--.HHZ">
      <acc value="0.0098595962" flag="0"/>
      <vel value="0.0078006501" flag="0"/>
      <psa03 value="0.0309636664" flag="0"/>
      <psa10 value="0.0088390813" flag="0"/>
      <psa30 value="0.0007318565" flag="0"/>
    </comp>
    <comp name="--.HHE">
      <acc value="0.0123484288" flag="0"/>
      <vel value="0.0082332047" flag="0"/>
      <psa03 value="0.0252955248" flag="0"/>
      <psa10 value="0.0161108750" flag="0"/>
      <psa30 value="0.0005712637" flag="0"/>
    </comp>
  </station>
  <station code="SVRC" name="SVRC" netid="KO" insttype="CMG-3T" lat="38.3775" lon="39.306">
    <comp name="--.HHE">
      <acc value="0.0852202665" flag="0"/>
      <vel value="0.0339027205" flag="0"/>
      <psa03 value="0.1967722884" flag="0"/>
      <psa10 value="0.0232226399" flag="0"/>
      <psa30 value="0.0039799475" flag="0"/>
    </comp>
    <comp name="--.HHN">
      <acc value="0.0616061123" flag="0"/>
      <vel value="0.0288657962" flag="0"/>
      <psa03 value="0.1598532958" flag="0"/>
      <psa10 value="0.0218932246" flag="0"/>
      <psa30 value="0.0019324370" flag="0"/>
    </comp>
    <comp name="--.HHZ">
      <acc value="0.0628007342" flag="0"/>
      <vel value="0.0204269828" flag="0"/>
      <psa03 value="0.1086227327" flag="0"/>
      <psa10 value="0.0172388418" flag="0"/>
      <psa30 value="0.0017004198" flag="0"/>
    </comp>
  </station>
  <station code="URFA" name="URFA" netid="KO" insttype="CMG-3ESP" lat="37.4409" lon="38.8213">
    <comp name="--.HHE">
      <acc value="0.0769406770" flag="0"/>
      <vel value="0.0340591019" flag="0"/>
      <psa03 value="0.1600056638" flag="0"/>
      <psa10 value="0.0222026550" flag="0"/>
      <psa30 value="0.0049657914" flag="0"/>
    </comp>
    <comp name="--.HHN">
      <acc value="0.0930725811" flag="0"/>
      <vel value="0.0364807531" flag="0"/>
      <psa03 value="0.1226365074" flag="0"/>
      <psa10 value="0.0193456180" flag="0"/>
      <psa30 value="0.0033748898" flag="0"/>
    </comp>
    <comp name="--.HHZ">
      <acc value="0.0582713377" flag="0"/>
      <vel value="0.0148149979" flag="0"/>
      <psa03 value="0.0629420731" flag="0"/>
      <psa10 value="0.0142919533" flag="0"/>
      <psa30 value="0.0032697790" flag="0"/>
    </comp>
  </station>
</stationlist>
