<?xml version="1.0" encoding="UTF-8" standalone="yes"?>
<!DOCTYPE earthquake SYSTEM "stationlist.dtd">
<stationlist created="" xmlns="ch.ethz.sed.shakemap.usgs.xml">
  <station code="ARPRA" name="ARPRA" netid="KO" insttype="CMG-5T" lat="39.0929" lon="38.3356">
    <comp name="--.HNN">
      <acc value="0.0470751815" flag="0"/>
      <vel value="0.0350524964" flag="0"/>
      <psa03 value="0.2821757000" flag="0"/>
      <psa10 value="0.0345935695" flag="0"/>
      <psa30 value="0.0022358642" flag="0"/>
    </comp>
    <comp name="--.HNE">
      <acc value="0.0435451589" flag="0"/>
      <vel value="0.0384369404" flag="0"/>
      <psa03 value="0.1864839586" flag="0"/>
      <psa10 value="0.0450555179" flag="0"/>
      <psa30 value="0.0039271275" flag="0"/>
    </comp>
    <comp name="--.HNZ">
      <acc value="0.0232350249" flag="0"/>
      <vel value="0.0153837817" flag="0"/>
      <psa03 value="0.0667095131" flag="0"/>
      <psa10 value="0.0190138850" flag="0"/>
      <psa30 value="0.0015671605" flag="0"/>
    </comp>
  </station>
  <station code="DARE" name="DARE" netid="KO" insttype="CMG-3ESP" lat="38.5712" lon="37.4832">
    <comp name="--.HHE">
      <acc value="0.0123484291" flag="0"/>
      <vel value="0.0082332048" flag="0"/>
      <psa03 value="0.0252955248" flag="0"/>
      <psa10 value="0.0161108750" flag="0"/>
      <psa30 value="0.0005712638" flag="0"/>
    </comp>
    <comp name="--.HHZ">
      <acc value="0.0098595963" flag="0"/>
      <vel value="0.0078006512" flag="0"/>
      <psa03 value="0.0309636664" flag="0"/>
      <psa10 value="0.0088390813" flag="0"/>
      <psa30 value="0.0007318462" flag="0"/>
    </comp>
    <comp name="--.HHN">
      <acc value="0.0145925660" flag="0"/>
      <vel value="0.0103587818" flag="0"/>
      <psa03 value="0.0306789230" flag="0"/>
      <psa10 value="0.0108477910" flag="0"/>
      <psa30 value="0.0008235681" flag="0"/>
    </comp>
  </station>
  <station code="DYBB" name="DYBB" netid="KO" insttype="CMG-3T" lat="37.9532" lon="40.1393">
    <comp name="--.HHE">
      <acc value="0.0246493799" flag="0"/>
      <vel value="0.0171717773" flag="0"/>
      <psa03 value="0.0761850857" flag="0"/>
      <psa10 value="0.0213958770" flag="0"/>
      <psa30 value="0.0018142942" flag="0"/>
    </comp>
    <comp name="--.HHZ">
      <acc value="0.0166452074" flag="0"/>
      <vel value="0.0062309176" flag="0"/>
      <psa03 value="0.0363992246" flag="0"/>
      <psa10 value="0.0098410919" flag="0"/>
      <psa30 value="0.0014183110" flag="0"/>
    </comp>
    <comp name="--.HHN">
      <acc value="0.0346449463" flag="0"/>
      <vel value="0.0131414830" flag="0"/>
      <psa03 value="0.0518921503" flag="0"/>
      <psa10 value="0.0176197884" flag="0"/>
      <psa30 value="0.0042009170" flag="0"/>
    </comp>
  </station>
  <station code="SVRC" name="SVRC" netid="KO" insttype="CMG-3T" lat="38.3775" lon="39.306">
    <comp name="--.HHE">
      <acc value="0.0852202672" flag="0"/>
      <vel value="0.0339027205" flag="0"/>
      <psa03 value="0.1967722884" flag="0"/>
      <psa10 value="0.0232226399" flag="0"/>
      <psa30 value="0.0039799373" flag="0"/>
    </comp>
    <comp name="--.HHN">
      <acc value="0.0616061119" flag="0"/>
      <vel value="0.0288657962" flag="0"/>
      <psa03 value="0.1598532958" flag="0"/>
      <psa10 value="0.0218932246" flag="0"/>
      <psa30 value="0.0019324352" flag="0"/>
    </comp>
    <comp name="--.HHZ">
      <acc value="0.0628007344" flag="0"/>
      <vel value="0.0204269828" flag="0"/>
      <psa03 value="0.1086227327" flag="0"/>
      <psa10 value="0.0172388418" flag="0"/>
      <psa30 value="0.0017004227" flag="0"/>
    </comp>
  </station>
  <station code="URFA" name="URFA" netid="KO" insttype="CMG-3ESP" lat="37.4409" lon="38.8213">
    <comp name="--.HHN">
      <acc value="0.0930725811" flag="0"/>
      <vel value="0.0364807530" flag="0"/>
      <psa03 value="0.1226365074" flag="0"/>
      <psa10 value="0.0193456179" flag="0"/>
      <psa30 value="0.0033748899" flag="0"/>
    </comp>
    <comp name="--.HHE">
      <acc value="0.0769406765" flag="0"/>
      <vel value="0.0340591016" flag="0"/>
      <psa03 value="0.1600056638" flag="0"/>
      <psa10 value="0.0222026550" flag="0"/>
      <psa30 value="0.0049657910" flag="0"/>
    </comp>
    <comp name="--.HHZ">
      <acc value="0.0582713377" flag="0"/>
      <vel value="0.0148149976" flag="0"/>
      <psa03 value="0.0629420731" flag="0"/>
      <psa10 value="0.0142919533" flag="0"/>
      <psa30 value="0.0032697790" flag="0"/>
    </comp>
  </station>
</stationlist>
