<stationlist created="1778118978">
	<station code="0904" name="0904" netid="TK" source="Turkish National Strong Motion Network (TNSMN)" insttype="" lat="37.85716" lon="28.05025">
		<comp name="00.HNE" depth="None">
			<acc value="0.307481090119521" flag="0"/>
			<vel value="0.303777088594427" flag="0"/>
			<psa03 value="0.509524248968879" flag="0"/>
			<psa10 value="0.493790204589497" flag="0"/>
			<psa30 value="0.139404635426748" flag="0"/>
		</comp>
		<comp name="00.HNN" depth="None">
			<acc value="0.263374271980752" flag="0"/>
			<vel value="0.322075725750099" flag="0"/>
			<psa03 value="0.795158496019926" flag="0"/>
			<psa10 value="0.483888306842808" flag="0"/>
			<psa30 value="0.126486218109854" flag="0"/>
		</comp>
		<comp name="00.HNZ" depth="None">
			<acc value="0.138132426592046" flag="0"/>
			<vel value="0.135716931967258" flag="0"/>
			<psa03 value="0.362367131401383" flag="0"/>
			<psa10 value="0.291177806451051" flag="0"/>
			<psa30 value="0.0351579785385718" flag="0"/>
		</comp>
	</station>
	<station code="0908" name="0908" netid="TK" source="Turkish National Strong Motion Network (TNSMN)" insttype="" lat="37.91333" lon="28.34308">
		<comp name="00.HNE" depth="None">
			<acc value="0.303184055296977" flag="0"/>
			<vel value="0.62418672074451" flag="0"/>
			<psa03 value="0.761243903403276" flag="0"/>
			<psa10 value="0.775625838298653" flag="0"/>
			<psa30 value="0.23757440581203" flag="0"/>
		</comp>
		<comp name="00.HNN" depth="None">
			<acc value="0.453085378776644" flag="0"/>
			<vel value="0.372759604076897" flag="0"/>
			<psa03 value="1.05488700543899" flag="0"/>
			<psa10 value="0.615902872002415" flag="0"/>
			<psa30 value="0.165411043023618" flag="0"/>
		</comp>
		<comp name="00.HNZ" depth="None">
			<acc value="0.148811286218422" flag="0"/>
			<vel value="0.313458068931773" flag="0"/>
			<psa03 value="0.357624457499846" flag="0"/>
			<psa10 value="0.480513849619657" flag="0"/>
			<psa30 value="0.0703848600753356" flag="0"/>
		</comp>
	</station>
	<station code="1001" name="1001" netid="TK" source="Turkish National Strong Motion Network (TNSMN)" insttype="" lat="39.65003" lon="27.85686">
		<comp name="00.HNE" depth="None">
			<acc value="0.212260477025656" flag="0"/>
			<vel value="0.131418431841087" flag="0"/>
			<psa03 value="0.782585935960191" flag="0"/>
			<psa10 value="0.143861406627994" flag="0"/>
			<psa30 value="0.0121980677903394" flag="0"/>
		</comp>
		<comp name="00.HNN" depth="None">
			<acc value="0.29671387771384" flag="0"/>
			<vel value="0.179551018005409" flag="0"/>
			<psa03 value="0.862942939046607" flag="0"/>
			<psa10 value="0.220688697034295" flag="0"/>
			<psa30 value="0.0224270310674087" flag="0"/>
		</comp>
		<comp name="00.HNZ" depth="None">
			<acc value="0.118895176939119" flag="0"/>
			<vel value="0.0915899509135092" flag="0"/>
			<psa03 value="0.462679158639548" flag="0"/>
			<psa10 value="0.0940136668125112" flag="0"/>
			<psa30 value="0.0159617822110684" flag="0"/>
		</comp>
	</station>
	<station code="1601" name="1601" netid="TK" source="Turkish National Strong Motion Network (TNSMN)" insttype="" lat="40.22566" lon="29.07518">
		<comp name="00.HNE" depth="None">
			<acc value="0.170771456248437" flag="0"/>
			<vel value="0.390737301785633" flag="0"/>
			<psa03 value="0.265813449519153" flag="0"/>
			<psa10 value="0.38408410364976" flag="0"/>
			<psa30 value="0.125328289802573" flag="0"/>
		</comp>
		<comp name="00.HNN" depth="None">
			<acc value="0.145756403123407" flag="0"/>
			<vel value="0.498397033485845" flag="0"/>
			<psa03 value="0.220668563041316" flag="0"/>
			<psa10 value="0.317037907032279" flag="0"/>
			<psa30 value="0.144022925993886" flag="0"/>
		</comp>
		<comp name="00.HNZ" depth="None">
			<acc value="0.0806038172164905" flag="0"/>
			<vel value="0.146091633703576" flag="0"/>
			<psa03 value="0.100356769444784" flag="0"/>
			<psa10 value="0.278533658860727" flag="0"/>
			<psa30 value="0.0630833793772999" flag="0"/>
		</comp>
	</station>
	<station code="1606" name="1606" netid="TK" source="Turkish National Strong Motion Network (TNSMN)" insttype="" lat="40.36298" lon="29.12207">
		<comp name="00.HNE" depth="None">
			<acc value="0.0749443111917897" flag="0"/>
			<vel value="0.0708617250758223" flag="0"/>
			<psa03 value="0.333821603578926" flag="0"/>
			<psa10 value="0.0729092153727385" flag="0"/>
			<psa30 value="0.0219129431133648" flag="0"/>
		</comp>
		<comp name="00.HNN" depth="None">
			<acc value="0.113393715052885" flag="0"/>
			<vel value="0.105580648549042" flag="0"/>
			<psa03 value="0.497399110975327" flag="0"/>
			<psa10 value="0.0618918944150553" flag="0"/>
			<psa30 value="0.0305634013409414" flag="0"/>
		</comp>
		<comp name="00.HNZ" depth="None">
			<acc value="0.0334400486787056" flag="0"/>
			<vel value="0.0454816088084651" flag="0"/>
			<psa03 value="0.0646524885634027" flag="0"/>
			<psa10 value="0.0483095027519466" flag="0"/>
			<psa30 value="0.0283540311781312" flag="0"/>
		</comp>
	</station>
	<station code="1609" name="1609" netid="TK" source="Turkish National Strong Motion Network (TNSMN)" insttype="" lat="40.42539" lon="29.16658">
		<comp name="00.HNE" depth="None">
			<acc value="0.163128013844552" flag="0"/>
			<vel value="0.243671713504922" flag="0"/>
			<psa03 value="0.440129086503939" flag="0"/>
			<psa10 value="0.5082101703605" flag="0"/>
			<psa30 value="0.0531139208986166" flag="0"/>
		</comp>
		<comp name="00.HNN" depth="None">
			<acc value="0.165441100870585" flag="0"/>
			<vel value="0.253331175060929" flag="0"/>
			<psa03 value="0.438697335892155" flag="0"/>
			<psa10 value="0.411756263599028" flag="0"/>
			<psa30 value="0.0410303931572199" flag="0"/>
		</comp>
		<comp name="00.HNZ" depth="None">
			<acc value="0.0750887724619293" flag="0"/>
			<vel value="0.0733107259201874" flag="0"/>
			<psa03 value="0.165322453454514" flag="0"/>
			<psa10 value="0.110434951485549" flag="0"/>
			<psa30 value="0.0157192794511974" flag="0"/>
		</comp>
	</station>
	<station code="2007" name="2007" netid="TK" source="Turkish National Strong Motion Network (TNSMN)" insttype="" lat="37.93252" lon="28.92294">
		<comp name="00.HNE" depth="None">
			<acc value="0.227704645371061" flag="0"/>
			<vel value="0.60641693555061" flag="0"/>
			<psa03 value="0.508897858076223" flag="0"/>
			<psa10 value="0.752109334500089" flag="0"/>
			<psa30 value="0.175396608696684" flag="0"/>
		</comp>
		<comp name="00.HNN" depth="None">
			<acc value="0.233770010824923" flag="0"/>
			<vel value="0.413342718399312" flag="0"/>
			<psa03 value="0.576190136830104" flag="0"/>
			<psa10 value="0.479515203567938" flag="0"/>
			<psa30 value="0.125456252513502" flag="0"/>
		</comp>
		<comp name="00.HNZ" depth="None">
			<acc value="0.0985299984810217" flag="0"/>
			<vel value="0.183521996253688" flag="0"/>
			<psa03 value="0.184114180234188" flag="0"/>
			<psa10 value="0.255802380788314" flag="0"/>
			<psa30 value="0.0619245562258866" flag="0"/>
		</comp>
	</station>
	<station code="3502" name="3502" netid="TK" source="Turkish National Strong Motion Network (TNSMN)" insttype="" lat="38.45514" lon="27.22673">
		<comp name="00.HNE" depth="None">
			<acc value="1.94769100370871" flag="0"/>
			<vel value="1.30831657950345" flag="0"/>
			<psa03 value="9.48592945175965" flag="0"/>
			<psa10 value="1.20635235008176" flag="0"/>
			<psa30 value="0.182207714810184" flag="0"/>
		</comp>
		<comp name="00.HNN" depth="None">
			<acc value="2.3001336990276" flag="0"/>
			<vel value="1.61828222330512" flag="0"/>
			<psa03 value="8.65394811969289" flag="0"/>
			<psa10 value="1.56278845457383" flag="0"/>
			<psa30 value="0.156624568487922" flag="0"/>
		</comp>
		<comp name="00.HNZ" depth="None">
			<acc value="0.727926648932123" flag="0"/>
			<vel value="0.568800345820724" flag="0"/>
			<psa03 value="2.99235877863001" flag="0"/>
			<psa10 value="0.462216076801049" flag="0"/>
			<psa30 value="0.11323849815225" flag="0"/>
		</comp>
	</station>
	<station code="4501" name="4501" netid="TK" source="Turkish National Strong Motion Network (TNSMN)" insttype="" lat="38.61259" lon="27.38138">
		<comp name="00.HNE" depth="0.0">
			<acc value="0.931044501747701" flag="0"/>
			<vel value="0.675524854755771" flag="0"/>
			<psa03 value="2.14158571978358" flag="0"/>
			<psa10 value="0.729204904088063" flag="0"/>
			<psa30 value="0.201061185834991" flag="0"/>
		</comp>
		<comp name="00.HNN" depth="0.0">
			<acc value="0.721869038094773" flag="0"/>
			<vel value="0.449967998875019" flag="0"/>
			<psa03 value="2.05782830899417" flag="0"/>
			<psa10 value="0.605803661124539" flag="0"/>
			<psa30 value="0.0921407580434703" flag="0"/>
		</comp>
		<comp name="00.HNZ" depth="0.0">
			<acc value="0.717929343403171" flag="0"/>
			<vel value="0.394048276809972" flag="0"/>
			<psa03 value="1.41653826153448" flag="0"/>
			<psa10 value="0.612472039598926" flag="0"/>
			<psa30 value="0.0734344888784371" flag="0"/>
		</comp>
	</station>
	<station code="4802" name="4802" netid="TK" source="Turkish National Strong Motion Network (TNSMN)" insttype="" lat="37.03304" lon="27.43997">
		<comp name="00.HNE" depth="None">
			<acc value="0.115428717417044" flag="0"/>
			<vel value="0.284678380667547" flag="0"/>
			<psa03 value="0.207782807535254" flag="0"/>
			<psa10 value="0.143217118852691" flag="0"/>
			<psa30 value="0.0902602430993043" flag="0"/>
		</comp>
		<comp name="00.HNN" depth="None">
			<acc value="0.0938891906086557" flag="0"/>
			<vel value="0.165259388519115" flag="0"/>
			<psa03 value="0.253106662839563" flag="0"/>
			<psa10 value="0.148141893535164" flag="0"/>
			<psa30 value="0.0486343311719952" flag="0"/>
		</comp>
		<comp name="00.HNZ" depth="None">
			<acc value="0.0694299251903441" flag="0"/>
			<vel value="0.0755833599462387" flag="0"/>
			<psa03 value="0.214046716461812" flag="0"/>
			<psa10 value="0.076392396157971" flag="0"/>
			<psa30 value="0.0207120622877304" flag="0"/>
		</comp>
	</station>
</stationlist>
