<?xml version="1.0" encoding="UTF-8" standalone="yes"?>
<!DOCTYPE earthquake SYSTEM "stationlist.dtd">
<stationlist created="" xmlns="ch.ethz.sed.shakemap.usgs.xml">
  <station code="APE" name="APE" netid="GE" source="GFZ" insttype="STS-2/N" lat="37.0689" lon="25.5306">
    <comp name="--.HHE">
      <acc value="0.1810560651" flag="0"/>
      <vel value="0.1201330554" flag="0"/>
      <psa03 value="0.3031166598" flag="0"/>
      <psa10 value="0.0686091298" flag="0"/>
      <psa30 value="0.0291334237" flag="0"/>
    </comp>
    <comp name="--.HHN">
      <acc value="0.2265909043" flag="0"/>
      <vel value="0.0758712231" flag="0"/>
      <psa03 value="0.3784193116" flag="0"/>
      <psa10 value="0.0740090882" flag="0"/>
      <psa30 value="0.0249652353" flag="0"/>
    </comp>
    <comp name="--.HHZ">
      <acc value="0.1049086334" flag="0"/>
      <vel value="0.0646612432" flag="0"/>
      <psa03 value="0.2927795532" flag="0"/>
      <psa10 value="0.0619845881" flag="0"/>
      <psa30 value="0.0223782125" flag="0"/>
    </comp>
  </station>
  <station code="ANDR" name="ANDR" netid="Z3" source="GFZ" insttype="CMG-3ESP/60" lat="37.8361" lon="24.9482">
    <comp name="--.HHE">
      <acc value="0.0271989670" flag="0"/>
      <vel value="0.0205008459" flag="0"/>
      <psa03 value="0.0549869462" flag="0"/>
      <psa10 value="0.0149464298" flag="0"/>
      <psa30 value="0.0131309265" flag="0"/>
    </comp>
    <comp name="--.HHN">
      <acc value="0.0303523321" flag="0"/>
      <vel value="0.0344441052" flag="0"/>
      <psa03 value="0.0820965563" flag="0"/>
      <psa10 value="0.0288643429" flag="0"/>
      <psa30 value="0.0161045685" flag="0"/>
    </comp>
    <comp name="--.HHZ">
      <acc value="0.0187775257" flag="0"/>
      <vel value="0.0166927355" flag="0"/>
      <psa03 value="0.0406407201" flag="0"/>
      <psa10 value="0.0194661036" flag="0"/>
      <psa30 value="0.0078220163" flag="0"/>
    </comp>
  </station>
  <station code="IKAR" name="IKAR" netid="Z3" source="GFZ" insttype="CMG-3ESP/60" lat="37.6435" lon="26.305">
    <comp name="--.HHE">
      <acc value="1.0312609713" flag="0"/>
      <vel value="0.3510494091" flag="0"/>
      <psa03 value="3.2132685791" flag="0"/>
      <psa10 value="0.1323858781" flag="0"/>
      <psa30 value="0.0304682219" flag="0"/>
    </comp>
    <comp name="--.HHN">
      <acc value="0.7877096727" flag="0"/>
      <vel value="0.2640580504" flag="0"/>
      <psa03 value="1.6423013272" flag="0"/>
      <psa10 value="0.0952102110" flag="0"/>
      <psa30 value="0.0368604793" flag="0"/>
    </comp>
    <comp name="--.HHZ">
      <acc value="0.6238601370" flag="0"/>
      <vel value="0.2336937169" flag="0"/>
      <psa03 value="1.0515263631" flag="0"/>
      <psa10 value="0.0766180128" flag="0"/>
      <psa30 value="0.0162873855" flag="0"/>
    </comp>
  </station>
  <station code="KOSI" name="KOSI" netid="Z3" source="GFZ" insttype="CMG-3ESP/60" lat="36.7449" lon="26.9517">
    <comp name="--.HHE">
      <acc value="0.0597753719" flag="0"/>
      <vel value="0.0768157252" flag="0"/>
      <psa03 value="0.1352536320" flag="0"/>
      <psa10 value="0.1149828031" flag="0"/>
      <psa30 value="0.0223838042" flag="0"/>
    </comp>
    <comp name="--.HHN">
      <acc value="0.0530799485" flag="0"/>
      <vel value="0.0742912375" flag="0"/>
      <psa03 value="0.1352816115" flag="0"/>
      <psa10 value="0.1213098194" flag="0"/>
      <psa30 value="0.0174232829" flag="0"/>
    </comp>
    <comp name="--.HHZ">
      <acc value="0.0444230931" flag="0"/>
      <vel value="0.0354428954" flag="0"/>
      <psa03 value="0.1068324553" flag="0"/>
      <psa10 value="0.0506914434" flag="0"/>
      <psa30 value="0.0086795177" flag="0"/>
    </comp>
  </station>
  <station code="LERO" name="LERO" netid="Z3" source="GFZ" insttype="CMG-3ESP/60" lat="37.1634" lon="26.8353">
    <comp name="--.HHE">
      <acc value="0.0712148044" flag="0"/>
      <vel value="0.0745418102" flag="0"/>
      <psa03 value="0.1414455256" flag="0"/>
      <psa10 value="0.0473662536" flag="0"/>
      <psa30 value="0.0248529924" flag="0"/>
    </comp>
    <comp name="--.HHN">
      <acc value="0.0430001884" flag="0"/>
      <vel value="0.0428741491" flag="0"/>
      <psa03 value="0.1194827082" flag="0"/>
      <psa10 value="0.0579442033" flag="0"/>
      <psa30 value="0.0164389360" flag="0"/>
    </comp>
    <comp name="--.HHZ">
      <acc value="0.0324119684" flag="0"/>
      <vel value="0.0445147479" flag="0"/>
      <psa03 value="0.0773326722" flag="0"/>
      <psa10 value="0.0330645561" flag="0"/>
      <psa30 value="0.0170032613" flag="0"/>
    </comp>
  </station>
  <station code="MYKO" name="MYKO" netid="Z3" source="GFZ" insttype="STS-2/N" lat="37.4822" lon="25.3844">
    <comp name="--.HHE">
      <acc value="0.1132996445" flag="0"/>
      <vel value="0.1015403698" flag="0"/>
      <psa03 value="0.4218304430" flag="0"/>
      <psa10 value="0.0698003190" flag="0"/>
      <psa30 value="0.0246696121" flag="0"/>
    </comp>
    <comp name="--.HHN">
      <acc value="0.0832626389" flag="0"/>
      <vel value="0.0487630824" flag="0"/>
      <psa03 value="0.2722890224" flag="0"/>
      <psa10 value="0.0622646810" flag="0"/>
      <psa30 value="0.0313184549" flag="0"/>
    </comp>
    <comp name="--.HHZ">
      <acc value="0.0662579680" flag="0"/>
      <vel value="0.0417155647" flag="0"/>
      <psa03 value="0.1408398437" flag="0"/>
      <psa10 value="0.0479103752" flag="0"/>
      <psa30 value="0.0115123847" flag="0"/>
    </comp>
  </station>
  <station code="PARO" name="PARO" netid="Z3" source="GFZ" insttype="L4-3D" lat="37.115" lon="25.1825">
    <comp name="--.HHE">
      <acc value="0.1816217648" flag="0"/>
      <vel value="0.1405062957" flag="0"/>
      <psa03 value="0.5281739332" flag="0"/>
      <psa10 value="0.1162869332" flag="0"/>
      <psa30 value="0.0779123014" flag="0"/>
    </comp>
    <comp name="--.HHN">
      <acc value="0.2163214134" flag="0"/>
      <vel value="0.1587790952" flag="0"/>
      <psa03 value="0.4541945121" flag="0"/>
      <psa10 value="0.1651081584" flag="0"/>
      <psa30 value="0.0438070724" flag="0"/>
    </comp>
    <comp name="--.HHZ">
      <acc value="0.0797878215" flag="0"/>
      <vel value="0.0702365668" flag="0"/>
      <psa03 value="0.1744429978" flag="0"/>
      <psa10 value="0.0887999967" flag="0"/>
      <psa30 value="0.0289255564" flag="0"/>
    </comp>
  </station>
  <station code="PARS" name="PARS" netid="Z3" source="GFZ" insttype="L4-3D" lat="37.0285" lon="25.2253">
    <comp name="--.HHE">
      <acc value="0.1849724322" flag="0"/>
      <vel value="0.0976543813" flag="0"/>
      <psa03 value="0.4653612630" flag="0"/>
      <psa10 value="0.1036169557" flag="0"/>
      <psa30 value="0.0271568089" flag="0"/>
    </comp>
    <comp name="--.HHN">
      <acc value="0.2225045327" flag="0"/>
      <vel value="0.1084220393" flag="0"/>
      <psa03 value="0.6586960842" flag="0"/>
      <psa10 value="0.0998063204" flag="0"/>
      <psa30 value="0.0300069635" flag="0"/>
    </comp>
    <comp name="--.HHZ">
      <acc value="0.2478124387" flag="0"/>
      <vel value="0.1090668253" flag="0"/>
      <psa03 value="0.4945322754" flag="0"/>
      <psa10 value="0.0714043869" flag="0"/>
      <psa30 value="0.0169460780" flag="0"/>
    </comp>
  </station>
  <station code="SAMO" name="SAMO" netid="Z3" source="GFZ" insttype="CMG-3ESP/60" lat="37.7043" lon="26.8377">
    <comp name="--.HHE">
      <acc value="0.4182542004" flag="0"/>
      <vel value="0.2256547626" flag="0"/>
      <psa03 value="0.8568587847" flag="0"/>
      <psa10 value="0.2273385301" flag="0"/>
      <psa30 value="0.0661681186" flag="0"/>
    </comp>
    <comp name="--.HHN">
      <acc value="0.5225351507" flag="0"/>
      <vel value="0.1615570170" flag="0"/>
      <psa03 value="0.7154815889" flag="0"/>
      <psa10 value="0.1834465860" flag="0"/>
      <psa30 value="0.0233558226" flag="0"/>
    </comp>
    <comp name="--.HHZ">
      <acc value="0.2802326759" flag="0"/>
      <vel value="0.0933362653" flag="0"/>
      <psa03 value="0.3495217610" flag="0"/>
      <psa10 value="0.0743748803" flag="0"/>
      <psa30 value="0.0220319805" flag="0"/>
    </comp>
  </station>
  <station code="SYRO" name="SYRO" netid="Z3" source="GFZ" insttype="CMG-3ESP/60" lat="37.4569" lon="24.9266">
    <comp name="--.HHE">
      <acc value="0.0280851620" flag="0"/>
      <vel value="0.0205668049" flag="0"/>
      <psa03 value="0.0839547566" flag="0"/>
      <psa10 value="0.0289091262" flag="0"/>
      <psa30 value="0.0120342275" flag="0"/>
    </comp>
    <comp name="--.HHN">
      <acc value="0.0433087255" flag="0"/>
      <vel value="0.0320100669" flag="0"/>
      <psa03 value="0.0806028136" flag="0"/>
      <psa10 value="0.0331283896" flag="0"/>
      <psa30 value="0.0189388661" flag="0"/>
    </comp>
    <comp name="--.HHZ">
      <acc value="0.0290924108" flag="0"/>
      <vel value="0.0174134870" flag="0"/>
      <psa03 value="0.0690349728" flag="0"/>
      <psa10 value="0.0271529043" flag="0"/>
      <psa30 value="0.0103782646" flag="0"/>
    </comp>
  </station>
  <station code="TUR2" name="TUR2" netid="Z3" source="GFZ" insttype="CMG-3ESP/60" lat="37.642" lon="27.2418">
    <comp name="--.HHE">
      <acc value="0.2424719855" flag="0"/>
      <vel value="0.1767750731" flag="0"/>
      <psa03 value="0.8714240400" flag="0"/>
      <psa10 value="0.1619819221" flag="0"/>
      <psa30 value="0.0391834177" flag="0"/>
    </comp>
    <comp name="--.HHN">
      <acc value="0.3657998872" flag="0"/>
      <vel value="0.2475670740" flag="0"/>
      <psa03 value="0.9002194986" flag="0"/>
      <psa10 value="0.2377604902" flag="0"/>
      <psa30 value="0.0433463545" flag="0"/>
    </comp>
    <comp name="--.HHZ">
      <acc value="0.2198798280" flag="0"/>
      <vel value="0.1014275939" flag="0"/>
      <psa03 value="0.4194555006" flag="0"/>
      <psa10 value="0.1862860983" flag="0"/>
      <psa30 value="0.0189700541" flag="0"/>
    </comp>
  </station>
  <station code="TUR3" name="TUR3" netid="Z3" source="GFZ" insttype="CMG-3ESP/60" lat="37.4663" lon="27.538">
    <comp name="--.HHE">
      <acc value="0.3574412143" flag="0"/>
      <vel value="0.2584324635" flag="0"/>
      <psa03 value="0.7201005123" flag="0"/>
      <psa10 value="0.2907355398" flag="0"/>
      <psa30 value="0.0331159865" flag="0"/>
    </comp>
    <comp name="--.HHN">
      <acc value="0.4359728365" flag="0"/>
      <vel value="0.2583274527" flag="0"/>
      <psa03 value="1.4080127259" flag="0"/>
      <psa10 value="0.3862923165" flag="0"/>
      <psa30 value="0.0314319971" flag="0"/>
    </comp>
    <comp name="--.HHZ">
      <acc value="0.2085156288" flag="0"/>
      <vel value="0.1151820389" flag="0"/>
      <psa03 value="0.4323493414" flag="0"/>
      <psa10 value="0.1066409032" flag="0"/>
      <psa30 value="0.0106660242" flag="0"/>
    </comp>
  </station>
  <station code="TUR4" name="TUR4" netid="Z3" source="GFZ" insttype="CMG-3ESP/60" lat="37.08" lon="27.8077">
    <comp name="--.HHE">
      <acc value="0.1106888083" flag="0"/>
      <vel value="0.0947994143" flag="0"/>
      <psa03 value="0.3055352357" flag="0"/>
      <psa10 value="0.1639269630" flag="0"/>
      <psa30 value="0.0145970759" flag="0"/>
    </comp>
    <comp name="--.HHN">
      <acc value="0.0720966818" flag="0"/>
      <vel value="0.0655254176" flag="0"/>
      <psa03 value="0.1851689558" flag="0"/>
      <psa10 value="0.1084952016" flag="0"/>
      <psa30 value="0.0159192267" flag="0"/>
    </comp>
    <comp name="--.HHZ">
      <acc value="0.0323999917" flag="0"/>
      <vel value="0.0286749594" flag="0"/>
      <psa03 value="0.0903068590" flag="0"/>
      <psa10 value="0.0490921223" flag="0"/>
      <psa30 value="0.0140029475" flag="0"/>
    </comp>
  </station>
  <station code="TUR5" name="TUR5" netid="Z3" source="GFZ" insttype="CMG-3ESP/60" lat="37.0302" lon="27.3167">
    <comp name="--.HHE">
      <acc value="0.0382767944" flag="0"/>
      <vel value="0.0746791252" flag="0"/>
      <psa03 value="0.1015976863" flag="0"/>
      <psa10 value="0.0873580542" flag="0"/>
      <psa30 value="0.0368821993" flag="0"/>
    </comp>
    <comp name="--.HHN">
      <acc value="0.0507518067" flag="0"/>
      <vel value="0.0512973911" flag="0"/>
      <psa03 value="0.1232016077" flag="0"/>
      <psa10 value="0.0636261764" flag="0"/>
      <psa30 value="0.0157968522" flag="0"/>
    </comp>
    <comp name="--.HHZ">
      <acc value="0.0296129054" flag="0"/>
      <vel value="0.0270891570" flag="0"/>
      <psa03 value="0.0581678587" flag="0"/>
      <psa10 value="0.0407985743" flag="0"/>
      <psa30 value="0.0069813311" flag="0"/>
    </comp>
  </station>
  <station code="TUR6" name="TUR6" netid="Z3" source="GFZ" insttype="CMG-3ESP/60" lat="37.0159" lon="28.4262">
    <comp name="--.HHE">
      <acc value="0.0115566757" flag="0"/>
      <vel value="0.0333191007" flag="0"/>
      <psa03 value="0.0281365735" flag="0"/>
      <psa10 value="0.0304713439" flag="0"/>
      <psa30 value="0.0143423243" flag="0"/>
    </comp>
    <comp name="--.HHN">
      <acc value="0.0123511519" flag="0"/>
      <vel value="0.0256374638" flag="0"/>
      <psa03 value="0.0240566862" flag="0"/>
      <psa10 value="0.0546915155" flag="0"/>
      <psa30 value="0.0088119226" flag="0"/>
    </comp>
    <comp name="--.HHZ">
      <acc value="0.0091962445" flag="0"/>
      <vel value="0.0282929726" flag="0"/>
      <psa03 value="0.0200373147" flag="0"/>
      <psa10 value="0.0420596666" flag="0"/>
      <psa30 value="0.0166475006" flag="0"/>
    </comp>
  </station>
  <station code="TUR7" name="TUR7" netid="Z3" source="GFZ" insttype="CMG-3ESP/60" lat="36.7017" lon="27.5697">
    <comp name="--.HHE">
      <acc value="0.0280826568" flag="0"/>
      <vel value="0.0461650001" flag="0"/>
      <psa03 value="0.0582291009" flag="0"/>
      <psa10 value="0.0282654800" flag="0"/>
      <psa30 value="0.0273314996" flag="0"/>
    </comp>
    <comp name="--.HHN">
      <acc value="0.0272621167" flag="0"/>
      <vel value="0.0315835980" flag="0"/>
      <psa03 value="0.0726540345" flag="0"/>
      <psa10 value="0.0298005996" flag="0"/>
      <psa30 value="0.0115513955" flag="0"/>
    </comp>
    <comp name="--.HHZ">
      <acc value="0.0121311855" flag="0"/>
      <vel value="0.0061133224" flag="0"/>
      <psa03 value="0.0240475210" flag="0"/>
      <psa10 value="0.0071246026" flag="0"/>
      <psa30 value="0.0020428251" flag="0"/>
    </comp>
  </station>
  <station code="AMOE" name="AMOE" netid="ZZ" source="GFZ" insttype="L4-3D" lat="36.915" lon="25.979">
    <comp name="--.HHE">
      <acc value="0.1698211404" flag="0"/>
      <vel value="0.1246906519" flag="0"/>
      <psa03 value="0.6151362135" flag="0"/>
      <psa10 value="0.1705704625" flag="0"/>
      <psa30 value="0.0282098137" flag="0"/>
    </comp>
    <comp name="--.HHN">
      <acc value="0.1780155389" flag="0"/>
      <vel value="0.1252550041" flag="0"/>
      <psa03 value="0.5424305754" flag="0"/>
      <psa10 value="0.0817565908" flag="0"/>
      <psa30 value="0.0275794920" flag="0"/>
    </comp>
    <comp name="--.HHZ">
      <acc value="0.1154126945" flag="0"/>
      <vel value="0.0804943000" flag="0"/>
      <psa03 value="0.3725057129" flag="0"/>
      <psa10 value="0.0608326456" flag="0"/>
      <psa30 value="0.0318179961" flag="0"/>
    </comp>
  </station>
  <station code="SCHI" name="SCHI" netid="ZZ" source="GFZ" insttype="L4-3D" lat="36.874" lon="25.518">
    <comp name="--.HHE">
      <acc value="0.2386803712" flag="0"/>
      <vel value="0.1566855501" flag="0"/>
      <psa03 value="0.4527463028" flag="0"/>
      <psa10 value="0.1741540563" flag="0"/>
      <psa30 value="0.0368570099" flag="0"/>
    </comp>
    <comp name="--.HHN">
      <acc value="0.2270397459" flag="0"/>
      <vel value="0.1666779706" flag="0"/>
      <psa03 value="0.6096945257" flag="0"/>
      <psa10 value="0.1493366562" flag="0"/>
      <psa30 value="0.0316136568" flag="0"/>
    </comp>
    <comp name="--.HHZ">
      <acc value="0.0787354427" flag="0"/>
      <vel value="0.0373126554" flag="0"/>
      <psa03 value="0.1627115831" flag="0"/>
      <psa10 value="0.0526657949" flag="0"/>
      <psa30 value="0.0168803171" flag="0"/>
    </comp>
  </station>
</stationlist>
