<?xml version="1.0" encoding="UTF-8" standalone="yes"?>
<!DOCTYPE earthquake SYSTEM "stationlist.dtd">
<stationlist created="" xmlns="ch.ethz.sed.shakemap.usgs.xml">
  <station code="BASM" name="BASM" netid="KO" insttype="100" lat="37.9194" lon="30.035">
    <comp name="--.HNZ">
      <acc value="0.0170505646" flag="0"/>
      <vel value="0.0090401336" flag="0"/>
      <psa03 value="0.0450382206" flag="0"/>
      <psa10 value="0.0106054528" flag="0"/>
      <psa30 value="0.0004854143" flag="0"/>
    </comp>
    <comp name="--.HNN">
      <acc value="0.0257081657" flag="0"/>
      <vel value="0.0137999920" flag="0"/>
      <psa03 value="0.0646538621" flag="0"/>
      <psa10 value="0.0150583556" flag="0"/>
      <psa30 value="0.0010366646" flag="0"/>
    </comp>
    <comp name="--.HNE">
      <acc value="0.0376806354" flag="0"/>
      <vel value="0.0182172839" flag="0"/>
      <psa03 value="0.0955473257" flag="0"/>
      <psa10 value="0.0131137223" flag="0"/>
      <psa30 value="0.0008311721" flag="0"/>
    </comp>
  </station>
  <station code="CAME" name="CAME" netid="KO" insttype="100" lat="36.9435" lon="29.3023">
    <comp name="--.HNN">
      <acc value="0.0150250713" flag="0"/>
      <vel value="0.0060523620" flag="0"/>
      <psa03 value="0.0464807556" flag="0"/>
      <psa10 value="0.0032789312" flag="0"/>
      <psa30 value="0.0002780074" flag="0"/>
    </comp>
    <comp name="--.HNE">
      <acc value="0.0196712765" flag="0"/>
      <vel value="0.0077300051" flag="0"/>
      <psa03 value="0.0546191330" flag="0"/>
      <psa10 value="0.0039290652" flag="0"/>
      <psa30 value="0.0003601813" flag="0"/>
    </comp>
    <comp name="--.HNZ">
      <acc value="0.0071441188" flag="0"/>
      <vel value="0.0029103161" flag="0"/>
      <psa03 value="0.0189791351" flag="0"/>
      <psa10 value="0.0029263343" flag="0"/>
      <psa30 value="0.0003279907" flag="0"/>
    </comp>
  </station>
  <station code="AYDN" name="AYDN" netid="TU" source="ODC" insttype="T" lat="37.6608" lon="27.8792">
    <comp name="--.HHE">
      <acc value="0.0282916518" flag="0"/>
      <vel value="0.0120750718" flag="0"/>
      <psa03 value="0.0856659915" flag="0"/>
      <psa10 value="0.0114154085" flag="0"/>
      <psa30 value="0.0006929598" flag="0"/>
    </comp>
    <comp name="--.HHN">
      <acc value="0.0276535540" flag="0"/>
      <vel value="0.0109584167" flag="0"/>
      <psa03 value="0.0784646550" flag="0"/>
      <psa10 value="0.0082246233" flag="0"/>
      <psa30 value="0.0006195427" flag="0"/>
    </comp>
    <comp name="--.HHZ">
      <acc value="0.0157080045" flag="0"/>
      <vel value="0.0042476847" flag="0"/>
      <psa03 value="0.0194710995" flag="0"/>
      <psa10 value="0.0058200144" flag="0"/>
      <psa30 value="0.0004472114" flag="0"/>
    </comp>
  </station>
</stationlist>
