<stationlist created="1778069972">
	<station code="BASM" name="BASM" netid="KO" source="Bogazici University Kandilli Observatory And Earthquake Research Institute (KOERI)" insttype="" lat="37.9194" lon="30.035">
		<comp name="--.HNE" depth="0.0">
			<acc value="0.23630171594611" flag="0"/>
			<vel value="0.112728182180168" flag="0"/>
			<psa03 value="0.591357744873698" flag="0"/>
			<psa10 value="0.0822352809202511" flag="0"/>
			<psa30 value="0.00549926461545178" flag="0"/>
		</comp>
		<comp name="--.HNN" depth="0.0">
			<acc value="0.161612738265026" flag="0"/>
			<vel value="0.0874223050548597" flag="0"/>
			<psa03 value="0.413060051499885" flag="0"/>
			<psa10 value="0.09481902653164" flag="0"/>
			<psa30 value="0.0069046173253317" flag="0"/>
		</comp>
		<comp name="--.HNZ" depth="0.0">
			<acc value="0.108438406884392" flag="0"/>
			<vel value="0.0579231473716235" flag="0"/>
			<psa03 value="0.28375507437308" flag="0"/>
			<psa10 value="0.0668166690975285" flag="0"/>
			<psa30 value="0.00301204534954205" flag="0"/>
		</comp>
	</station>
	<station code="CAME" name="CAME" netid="KO" source="Bogazici University Kandilli Observatory And Earthquake Research Institute (KOERI)" insttype="" lat="36.9435" lon="29.3023">
		<comp name="--.HNE" depth="0.0">
			<acc value="0.0196858922761126" flag="0"/>
			<vel value="0.00778727950453905" flag="0"/>
			<psa03 value="0.0552566251735656" flag="0"/>
			<psa10 value="0.00393418222794463" flag="0"/>
			<psa30 value="0.000383888132784772" flag="0"/>
		</comp>
		<comp name="--.HNN" depth="0.0">
			<acc value="0.0150886599373264" flag="0"/>
			<vel value="0.00603771435657764" flag="0"/>
			<psa03 value="0.0475609656352229" flag="0"/>
			<psa10 value="0.00331405524421539" flag="0"/>
			<psa30 value="0.000376729379725848" flag="0"/>
		</comp>
		<comp name="--.HNZ" depth="0.0">
			<acc value="0.00708849219548181" flag="0"/>
			<vel value="0.00289636206060915" flag="0"/>
			<psa03 value="0.0191944066392386" flag="0"/>
			<psa10 value="0.00291540218324659" flag="0"/>
			<psa30 value="0.000398653060968801" flag="0"/>
		</comp>
	</station>
	<station code="NAZL" name="NAZL" netid="KO" source="Bogazici University Kandilli Observatory And Earthquake Research Institute (KOERI)" insttype="" lat="37.9641" lon="28.2922">
		<comp name="--.HNE" depth="0.0">
			<acc value="0.343245964717292" flag="0"/>
			<vel value="0.118663518641294" flag="0"/>
			<psa03 value="0.643661384410458" flag="0"/>
			<psa10 value="0.0389310888226906" flag="0"/>
			<psa30 value="0.00256059648476369" flag="0"/>
		</comp>
		<comp name="--.HNN" depth="0.0">
			<acc value="0.202240336056623" flag="0"/>
			<vel value="0.0748436116334527" flag="0"/>
			<psa03 value="0.367825680608812" flag="0"/>
			<psa10 value="0.0408357645584304" flag="0"/>
			<psa30 value="0.00435789092461967" flag="0"/>
		</comp>
		<comp name="--.HNZ" depth="0.0">
			<acc value="0.150564044662567" flag="0"/>
			<vel value="0.0471292296621765" flag="0"/>
			<psa03 value="0.173376050645803" flag="0"/>
			<psa10 value="0.013783731592891" flag="0"/>
			<psa30 value="0.00179729443985598" flag="0"/>
		</comp>
	</station>
	<station code="ODEM" name="ODEM" netid="KO" source="Bogazici University Kandilli Observatory And Earthquake Research Institute (KOERI)" insttype="" lat="38.2762" lon="28.0747">
		<comp name="--.HNE" depth="0.0">
			<acc value="0.0336232126203274" flag="0"/>
			<vel value="0.0132061481286311" flag="0"/>
			<psa03 value="0.0429077761469226" flag="0"/>
			<psa10 value="0.015720621717396" flag="0"/>
			<psa30 value="0.00170199353975906" flag="0"/>
		</comp>
		<comp name="--.HNN" depth="0.0">
			<acc value="0.0506751550200058" flag="0"/>
			<vel value="0.0177810898410905" flag="0"/>
			<psa03 value="0.0549434297272377" flag="0"/>
			<psa10 value="0.0212172018004506" flag="0"/>
			<psa30 value="0.00145456913716001" flag="0"/>
		</comp>
		<comp name="--.HNZ" depth="0.0">
			<acc value="0.0290395000460173" flag="0"/>
			<vel value="0.0134089098457204" flag="0"/>
			<psa03 value="0.0342725302695962" flag="0"/>
			<psa10 value="0.0135864184617044" flag="0"/>
			<psa30 value="0.000792384479209593" flag="0"/>
		</comp>
	</station>
	<station code="SHAP" name="SHAP" netid="KO" source="Bogazici University Kandilli Observatory And Earthquake Research Institute (KOERI)" insttype="" lat="39.0231" lon="29.222">
		<comp name="--.HNE" depth="0.0">
			<acc value="0.0319096102435115" flag="0"/>
			<vel value="0.0143197008500075" flag="0"/>
			<psa03 value="0.0909609060549465" flag="0"/>
			<psa10 value="0.0138884283563777" flag="0"/>
			<psa30 value="0.0016465132035524" flag="0"/>
		</comp>
		<comp name="--.HNN" depth="0.0">
			<acc value="0.0346332654003405" flag="0"/>
			<vel value="0.0202362349472032" flag="0"/>
			<psa03 value="0.0826388556239479" flag="0"/>
			<psa10 value="0.0129823986723577" flag="0"/>
			<psa30 value="0.00148454641559426" flag="0"/>
		</comp>
		<comp name="--.HNZ" depth="0.0">
			<acc value="0.0193039648239587" flag="0"/>
			<vel value="0.00934554032849981" flag="0"/>
			<psa03 value="0.0326618108313384" flag="0"/>
			<psa10 value="0.00709521912552553" flag="0"/>
			<psa30 value="0.000757038135981158" flag="0"/>
		</comp>
	</station>
</stationlist>
