<?xml version="1.0" encoding="UTF-8" standalone="yes"?>
<!DOCTYPE earthquake SYSTEM "stationlist.dtd">
<stationlist created="" xmlns="ch.ethz.sed.shakemap.usgs.xml">
  <station code="ANDN" name="ANDN" netid="TU" insttype="T" lat="37.58" lon="36.3452">
    <comp name="--.HHZ">
      <acc value="0.0720635627" flag="0"/>
      <vel value="0.0297178967" flag="0"/>
      <psa03 value="0.1444606202" flag="0"/>
      <psa10 value="0.0192775493" flag="0"/>
      <psa30 value="0.0011672466" flag="0"/>
    </comp>
    <comp name="--.HHE">
      <acc value="0.1034577516" flag="0"/>
      <vel value="0.0290683059" flag="0"/>
      <psa03 value="0.1981824808" flag="0"/>
      <psa10 value="0.0206883455" flag="0"/>
      <psa30 value="0.0019032030" flag="0"/>
    </comp>
    <comp name="--.HHN">
      <acc value="0.1736200984" flag="0"/>
      <vel value="0.0496632435" flag="0"/>
      <psa03 value="0.2549208512" flag="0"/>
      <psa10 value="0.0288073030" flag="0"/>
      <psa30 value="0.0017368493" flag="0"/>
    </comp>
  </station>
</stationlist>
