<?xml version="1.0" encoding="UTF-8" standalone="yes"?>
<!DOCTYPE earthquake SYSTEM "stationlist.dtd">
<stationlist created="" xmlns="ch.ethz.sed.shakemap.usgs.xml">
  <station code="CEYT" name="CEYT" netid="KO" insttype="CMG-3ESP" lat="37.0105" lon="35.7478">
    <comp name="--.HHZ">
      <acc value="0.0541064467" flag="0"/>
      <vel value="0.0326160230" flag="0"/>
      <psa03 value="0.1267293096" flag="0"/>
      <psa10 value="0.0551078653" flag="0"/>
      <psa30 value="0.0022521009" flag="0"/>
    </comp>
    <comp name="--.HHE">
      <acc value="0.0837381495" flag="0"/>
      <vel value="0.0490463911" flag="0"/>
      <psa03 value="0.3446677576" flag="0"/>
      <psa10 value="0.0717900197" flag="0"/>
      <psa30 value="0.0034238748" flag="0"/>
    </comp>
    <comp name="--.HHN">
      <acc value="0.0534145256" flag="0"/>
      <vel value="0.0345157278" flag="0"/>
      <psa03 value="0.1928887047" flag="0"/>
      <psa10 value="0.0315165930" flag="0"/>
      <psa30 value="0.0021128294" flag="0"/>
    </comp>
  </station>
  <station code="GAZ" name="GAZ" netid="KO" insttype="CMG-3T" lat="37.1721" lon="37.2096">
    <comp name="--.HHZ">
      <acc value="0.0865994546" flag="0"/>
      <vel value="0.0598893920" flag="0"/>
      <psa03 value="0.2395106984" flag="0"/>
      <psa10 value="0.0590726284" flag="0"/>
      <psa30 value="0.0052341896" flag="0"/>
    </comp>
  </station>
  <station code="KHMN" name="KHMN" netid="KO" insttype="CMG-5T" lat="37.3916" lon="37.1574">
    <comp name="--.HNE">
      <acc value="0.1340297953" flag="0"/>
      <vel value="0.0582914688" flag="0"/>
      <psa03 value="0.3176472982" flag="0"/>
      <psa10 value="0.0690286555" flag="0"/>
      <psa30 value="0.0100780546" flag="0"/>
    </comp>
    <comp name="--.HNN">
      <acc value="0.1002882263" flag="0"/>
      <vel value="0.0643130324" flag="0"/>
      <psa03 value="0.1752442948" flag="0"/>
      <psa10 value="0.0726209005" flag="0"/>
      <psa30 value="0.0088700523" flag="0"/>
    </comp>
    <comp name="--.HNZ">
      <acc value="0.0739902163" flag="0"/>
      <vel value="0.0451680055" flag="0"/>
      <psa03 value="0.1235057469" flag="0"/>
      <psa10 value="0.0848871173" flag="0"/>
      <psa30 value="0.0085869529" flag="0"/>
    </comp>
  </station>
  <station code="KMRS" name="KMRS" netid="KO" insttype="CMG-3T" lat="37.5053" lon="36.9">
    <comp name="--.HHN">
      <acc value="0.0705910585" flag="0"/>
      <vel value="0.0577652971" flag="0"/>
      <psa03 value="0.1146665674" flag="0"/>
      <psa10 value="0.0687483085" flag="0"/>
      <psa30 value="0.0045409896" flag="0"/>
    </comp>
    <comp name="--.HHZ">
      <acc value="0.0845300738" flag="0"/>
      <vel value="0.0599500758" flag="0"/>
      <psa03 value="0.1791568170" flag="0"/>
      <psa10 value="0.0571188017" flag="0"/>
      <psa30 value="0.0036419590" flag="0"/>
    </comp>
  </station>
  <station code="ANDN" name="ANDN" netid="TU" insttype="T" lat="37.58" lon="36.3452">
    <comp name="--.HHE">
      <acc value="0.1761479212" flag="0"/>
      <vel value="0.1135909833" flag="0"/>
      <psa03 value="0.5035659312" flag="0"/>
      <psa10 value="0.1458569735" flag="0"/>
      <psa30 value="0.0077383480" flag="0"/>
    </comp>
    <comp name="--.HHN">
      <acc value="0.2315905458" flag="0"/>
      <vel value="0.0892435753" flag="0"/>
      <psa03 value="0.6765606167" flag="0"/>
      <psa10 value="0.1059081987" flag="0"/>
      <psa30 value="0.0062007729" flag="0"/>
    </comp>
    <comp name="--.HHZ">
      <acc value="0.0904548393" flag="0"/>
      <vel value="0.0439302245" flag="0"/>
      <psa03 value="0.1646400192" flag="0"/>
      <psa10 value="0.0821730555" flag="0"/>
      <psa30 value="0.0056169809" flag="0"/>
    </comp>
  </station>
</stationlist>
