<?xml version="1.0" encoding="UTF-8" standalone="yes"?>
<!DOCTYPE earthquake SYSTEM "stationlist.dtd">
<stationlist created="" xmlns="ch.ethz.sed.shakemap.usgs.xml">
  <station code="AKS" name="AKS" netid="KO" insttype="CMG-5T" commtype="DIG" lat="38.8785" lon="27.8129">
    <comp name="--.HNZ">
      <acc value="0.0700853312" flag="0"/>
      <vel value="0.0149263192" flag="0"/>
      <psa03 value="0.0742577713" flag="0"/>
      <psa10 value="0.0069530175" flag="0"/>
      <psa30 value="0.0016787745" flag="0"/>
    </comp>
    <comp name="--.HNN">
      <acc value="0.0934017779" flag="0"/>
      <vel value="0.0229425512" flag="0"/>
      <psa03 value="0.1935554868" flag="0"/>
      <psa10 value="0.0168473100" flag="0"/>
      <psa30 value="0.0026013405" flag="0"/>
    </comp>
  </station>
  <station code="BALB" name="BALB" netid="KO" insttype="CMG-5T" commtype="DIG" lat="39.6507" lon="27.8642">
    <comp name="--.HNE">
      <acc value="0.0534935384" flag="0"/>
      <vel value="0.0250055318" flag="0"/>
      <psa03 value="0.1479395294" flag="0"/>
      <psa10 value="0.0297268307" flag="0"/>
      <psa30 value="0.0017582144" flag="0"/>
    </comp>
    <comp name="--.HNN">
      <acc value="0.0641562539" flag="0"/>
      <vel value="0.0419828500" flag="0"/>
      <psa03 value="0.2545920589" flag="0"/>
      <psa10 value="0.0377917227" flag="0"/>
      <psa30 value="0.0021355797" flag="0"/>
    </comp>
    <comp name="--.HNZ">
      <acc value="0.0423961347" flag="0"/>
      <vel value="0.0155389392" flag="0"/>
      <psa03 value="0.0787101645" flag="0"/>
      <psa10 value="0.0188076514" flag="0"/>
      <psa30 value="0.0018890869" flag="0"/>
    </comp>
  </station>
  <station code="DKL" name="DKL" netid="KO" insttype="CMG-3ESPC" commtype="DIG" lat="39.0713" lon="26.9053">
    <comp name="--.HHN">
      <acc value="0.0125242134" flag="0"/>
      <vel value="0.0089557051" flag="0"/>
      <psa03 value="0.0242102917" flag="0"/>
      <psa10 value="0.0098382959" flag="0"/>
      <psa30 value="0.0008234129" flag="0"/>
    </comp>
    <comp name="--.HHZ">
      <acc value="0.0070844242" flag="0"/>
      <vel value="0.0036841818" flag="0"/>
      <psa03 value="0.0175027685" flag="0"/>
      <psa10 value="0.0041624144" flag="0"/>
      <psa30 value="0.0006558690" flag="0"/>
    </comp>
    <comp name="--.HHE">
      <acc value="0.0086332419" flag="0"/>
      <vel value="0.0052411712" flag="0"/>
      <psa03 value="0.0233026682" flag="0"/>
      <psa10 value="0.0066092409" flag="0"/>
      <psa30 value="0.0008648275" flag="0"/>
    </comp>
  </station>
  <station code="DST" name="DST" netid="KO" insttype="CMG-5T" commtype="DIG" lat="39.6041" lon="28.6267">
    <comp name="--.HNN">
      <acc value="0.0845963469" flag="0"/>
      <vel value="0.0199168143" flag="0"/>
      <psa03 value="0.1039753550" flag="0"/>
      <psa10 value="0.0135760350" flag="0"/>
      <psa30 value="0.0014027537" flag="0"/>
    </comp>
    <comp name="--.HNE">
      <acc value="0.0542991117" flag="0"/>
      <vel value="0.0169264810" flag="0"/>
      <psa03 value="0.0900014973" flag="0"/>
      <psa10 value="0.0152012869" flag="0"/>
      <psa30 value="0.0012338459" flag="0"/>
    </comp>
    <comp name="--.HNZ">
      <acc value="0.0617361937" flag="0"/>
      <vel value="0.0134202998" flag="0"/>
      <psa03 value="0.1067345017" flag="0"/>
      <psa10 value="0.0077382693" flag="0"/>
      <psa30 value="0.0013661319" flag="0"/>
    </comp>
  </station>
  <station code="GOMA" name="GOMA" netid="KO" insttype="CMG-5T" commtype="DIG" lat="38.7077" lon="27.9175">
    <comp name="--.HNN">
      <acc value="0.0838200780" flag="0"/>
      <vel value="0.0263738321" flag="0"/>
      <psa03 value="0.2321204364" flag="0"/>
      <psa10 value="0.0166872731" flag="0"/>
      <psa30 value="0.0015290529" flag="0"/>
    </comp>
    <comp name="--.HNE">
      <acc value="0.0682779347" flag="0"/>
      <vel value="0.0295274198" flag="0"/>
      <psa03 value="0.1429197273" flag="0"/>
      <psa10 value="0.0245372943" flag="0"/>
      <psa30 value="0.0013712144" flag="0"/>
    </comp>
    <comp name="--.HNZ">
      <acc value="0.0434060332" flag="0"/>
      <vel value="0.0132661736" flag="0"/>
      <psa03 value="0.0834699408" flag="0"/>
      <psa10 value="0.0068616859" flag="0"/>
      <psa30 value="0.0013953171" flag="0"/>
    </comp>
  </station>
  <station code="GONE" name="GONE" netid="KO" insttype="CMG-5T" commtype="DIG" lat="40.0466" lon="27.686">
    <comp name="--.HNZ">
      <acc value="0.0307991987" flag="0"/>
      <vel value="0.0089925415" flag="0"/>
      <psa03 value="0.0394078221" flag="0"/>
      <psa10 value="0.0061639765" flag="0"/>
      <psa30 value="0.0003918467" flag="0"/>
    </comp>
    <comp name="--.HNE">
      <acc value="0.0246412535" flag="0"/>
      <vel value="0.0167442228" flag="0"/>
      <psa03 value="0.0521201837" flag="0"/>
      <psa10 value="0.0257974688" flag="0"/>
      <psa30 value="0.0011688944" flag="0"/>
    </comp>
    <comp name="--.HNN">
      <acc value="0.0351026326" flag="0"/>
      <vel value="0.0136918935" flag="0"/>
      <psa03 value="0.0710040268" flag="0"/>
      <psa10 value="0.0140264995" flag="0"/>
      <psa30 value="0.0012917442" flag="0"/>
    </comp>
  </station>
  <station code="GORD" name="GORD" netid="KO" insttype="CMG-5T" commtype="DIG" lat="38.9088" lon="28.1769">
    <comp name="--.HNE">
      <acc value="0.0508765752" flag="0"/>
      <vel value="0.0237559702" flag="0"/>
      <psa03 value="0.0903036736" flag="0"/>
      <psa10 value="0.0482440642" flag="0"/>
      <psa30 value="0.0064655561" flag="0"/>
    </comp>
    <comp name="--.HNN">
      <acc value="0.0786987083" flag="0"/>
      <vel value="0.0362845609" flag="0"/>
      <psa03 value="0.0760373344" flag="0"/>
      <psa10 value="0.0442674943" flag="0"/>
      <psa30 value="0.0031094975" flag="0"/>
    </comp>
    <comp name="--.HNZ">
      <acc value="0.0455202927" flag="0"/>
      <vel value="0.0185176096" flag="0"/>
      <psa03 value="0.0747876617" flag="0"/>
      <psa10 value="0.0263707751" flag="0"/>
      <psa30 value="0.0030485112" flag="0"/>
    </comp>
  </station>
  <station code="KCTX" name="KCTX" netid="KO" insttype="CMG-3ESP" commtype="DIG" lat="40.2626" lon="28.3353">
    <comp name="--.HHE">
      <acc value="0.0269335389" flag="0"/>
      <vel value="0.0200743625" flag="0"/>
      <psa03 value="0.0553719831" flag="0"/>
      <psa10 value="0.0268067155" flag="0"/>
      <psa30 value="0.0014932721" flag="0"/>
    </comp>
    <comp name="--.HHN">
      <acc value="0.0303156617" flag="0"/>
      <vel value="0.0107597437" flag="0"/>
      <psa03 value="0.0706266250" flag="0"/>
      <psa10 value="0.0097711879" flag="0"/>
      <psa30 value="0.0008283309" flag="0"/>
    </comp>
    <comp name="--.HHZ">
      <acc value="0.0213119136" flag="0"/>
      <vel value="0.0072978489" flag="0"/>
      <psa03 value="0.0475459062" flag="0"/>
      <psa10 value="0.0052220548" flag="0"/>
      <psa30 value="0.0003831446" flag="0"/>
    </comp>
  </station>
  <station code="KULA" name="KULA" netid="KO" insttype="CMG-3T" commtype="DIG" lat="38.5145" lon="28.6607">
    <comp name="--.HHE">
      <acc value="0.0581520921" flag="0"/>
      <vel value="0.0173595653" flag="0"/>
      <psa03 value="0.0392692292" flag="0"/>
      <psa10 value="0.0082435761" flag="0"/>
      <psa30 value="0.0005700468" flag="0"/>
    </comp>
    <comp name="--.HHN">
      <acc value="0.0337244268" flag="0"/>
      <vel value="0.0080552323" flag="0"/>
      <psa03 value="0.0287464645" flag="0"/>
      <psa10 value="0.0047034466" flag="0"/>
      <psa30 value="0.0003784002" flag="0"/>
    </comp>
    <comp name="--.HHZ">
      <acc value="0.0319619785" flag="0"/>
      <vel value="0.0067007557" flag="0"/>
      <psa03 value="0.0236659058" flag="0"/>
      <psa10 value="0.0048793819" flag="0"/>
      <psa30 value="0.0005791013" flag="0"/>
    </comp>
  </station>
  <station code="ORLT" name="ORLT" netid="KO" insttype="CMG-5T" commtype="DIG" lat="40.0452" lon="28.8914">
    <comp name="--.HNZ">
      <acc value="0.0332246080" flag="0"/>
      <vel value="0.0173519582" flag="0"/>
      <psa03 value="0.0866697320" flag="0"/>
      <psa10 value="0.0189266759" flag="0"/>
      <psa30 value="0.0017781865" flag="0"/>
    </comp>
    <comp name="--.HNN">
      <acc value="0.0843898170" flag="0"/>
      <vel value="0.0327755020" flag="0"/>
      <psa03 value="0.3142933843" flag="0"/>
      <psa10 value="0.0493004886" flag="0"/>
      <psa30 value="0.0026316754" flag="0"/>
    </comp>
    <comp name="--.HNE">
      <acc value="0.0818380827" flag="0"/>
      <vel value="0.0379481760" flag="0"/>
      <psa03 value="0.2707690793" flag="0"/>
      <psa10 value="0.0306319487" flag="0"/>
      <psa30 value="0.0018556877" flag="0"/>
    </comp>
  </station>
  <station code="SHAP" name="SHAP" netid="KO" insttype="CMG-5T" commtype="DIG" lat="39.0231" lon="29.222">
    <comp name="--.HNE">
      <acc value="0.0598891449" flag="0"/>
      <vel value="0.0181260281" flag="0"/>
      <psa03 value="0.0977242604" flag="0"/>
      <psa10 value="0.0071069842" flag="0"/>
      <psa30 value="0.0005379402" flag="0"/>
    </comp>
    <comp name="--.HNN">
      <acc value="0.0663349156" flag="0"/>
      <vel value="0.0177790758" flag="0"/>
      <psa03 value="0.0824356215" flag="0"/>
      <psa10 value="0.0115133156" flag="0"/>
      <psa30 value="0.0009722634" flag="0"/>
    </comp>
    <comp name="--.HNZ">
      <acc value="0.0322382764" flag="0"/>
      <vel value="0.0084649912" flag="0"/>
      <psa03 value="0.0348448218" flag="0"/>
      <psa10 value="0.0051992249" flag="0"/>
      <psa30 value="0.0005850745" flag="0"/>
    </comp>
  </station>
  <station code="SIMA" name="SIMA" netid="KO" insttype="CMG-6T" commtype="DIG" lat="39.0833" lon="28.9825">
    <comp name="--.HHN">
      <acc value="0.0748808394" flag="0"/>
      <vel value="0.0256617723" flag="0"/>
      <psa03 value="0.1466187893" flag="0"/>
      <psa10 value="0.0074420460" flag="0"/>
      <psa30 value="0.0008350451" flag="0"/>
    </comp>
    <comp name="--.HHZ">
      <acc value="0.0568559183" flag="0"/>
      <vel value="0.0118797878" flag="0"/>
      <psa03 value="0.0661566927" flag="0"/>
      <psa10 value="0.0033606887" flag="0"/>
      <psa30 value="0.0007149097" flag="0"/>
    </comp>
    <comp name="--.HHE">
      <acc value="0.1075374058" flag="0"/>
      <vel value="0.0201419499" flag="0"/>
      <psa03 value="0.1349078492" flag="0"/>
      <psa10 value="0.0054398172" flag="0"/>
      <psa30 value="0.0009046907" flag="0"/>
    </comp>
  </station>
  <station code="SOMA" name="SOMA" netid="KO" insttype="CMG-5T" commtype="DIG" lat="39.1564" lon="27.5341">
    <comp name="--.HNE">
      <acc value="0.0638630425" flag="0"/>
      <vel value="0.0254324797" flag="0"/>
      <psa03 value="0.1297371112" flag="0"/>
      <psa10 value="0.0206379106" flag="0"/>
      <psa30 value="0.0020283755" flag="0"/>
    </comp>
    <comp name="--.HNZ">
      <acc value="0.0621189212" flag="0"/>
      <vel value="0.0237088325" flag="0"/>
      <psa03 value="0.0928189007" flag="0"/>
      <psa10 value="0.0129362778" flag="0"/>
      <psa30 value="0.0016952868" flag="0"/>
    </comp>
    <comp name="--.HNN">
      <acc value="0.0706027256" flag="0"/>
      <vel value="0.0346490779" flag="0"/>
      <psa03 value="0.1853108543" flag="0"/>
      <psa10 value="0.0346775048" flag="0"/>
      <psa30 value="0.0024801960" flag="0"/>
    </comp>
  </station>
  <station code="SUSR" name="SUSR" netid="KO" insttype="CMG-5T" commtype="DIG" lat="39.9627" lon="28.0835">
    <comp name="--.HNE">
      <acc value="0.0417134847" flag="0"/>
      <vel value="0.0096063067" flag="0"/>
      <psa03 value="0.0753644862" flag="0"/>
      <psa10 value="0.0066376516" flag="0"/>
      <psa30 value="0.0005611789" flag="0"/>
    </comp>
    <comp name="--.HNN">
      <acc value="0.0524409348" flag="0"/>
      <vel value="0.0183017766" flag="0"/>
      <psa03 value="0.1000763445" flag="0"/>
      <psa10 value="0.0058436530" flag="0"/>
      <psa30 value="0.0007355929" flag="0"/>
    </comp>
    <comp name="--.HNZ">
      <acc value="0.0493165402" flag="0"/>
      <vel value="0.0105171354" flag="0"/>
      <psa03 value="0.0539781436" flag="0"/>
      <psa10 value="0.0040622514" flag="0"/>
      <psa30 value="0.0011477291" flag="0"/>
    </comp>
  </station>
  <station code="TVSB" name="TVSB" netid="KO" insttype="CMG-3T" commtype="DIG" lat="39.4497" lon="29.4615">
    <comp name="--.HHE">
      <acc value="0.0501497144" flag="0"/>
      <vel value="0.0211903105" flag="0"/>
      <psa03 value="0.1081444731" flag="0"/>
      <psa10 value="0.0131931388" flag="0"/>
      <psa30 value="0.0007763305" flag="0"/>
    </comp>
    <comp name="--.HHN">
      <acc value="0.0534126547" flag="0"/>
      <vel value="0.0130426321" flag="0"/>
      <psa03 value="0.1224272517" flag="0"/>
      <psa10 value="0.0075521317" flag="0"/>
      <psa30 value="0.0008193602" flag="0"/>
    </comp>
    <comp name="--.HHZ">
      <acc value="0.0259546212" flag="0"/>
      <vel value="0.0067900287" flag="0"/>
      <psa03 value="0.0474876147" flag="0"/>
      <psa10 value="0.0033502011" flag="0"/>
      <psa30 value="0.0008754346" flag="0"/>
    </comp>
  </station>
  <station code="YAYO" name="YAYO" netid="KO" insttype="CMG-6T" commtype="DIG" lat="39.6113" lon="27.0726">
    <comp name="--.HHZ">
      <acc value="0.0163127411" flag="0"/>
      <vel value="0.0101315761" flag="0"/>
      <psa03 value="0.0430656241" flag="0"/>
      <psa10 value="0.0064969386" flag="0"/>
      <psa30 value="0.0006125539" flag="0"/>
    </comp>
    <comp name="--.HHN">
      <acc value="0.0220144490" flag="0"/>
      <vel value="0.0144137245" flag="0"/>
      <psa03 value="0.0527015275" flag="0"/>
      <psa10 value="0.0114627161" flag="0"/>
      <psa30 value="0.0007332185" flag="0"/>
    </comp>
    <comp name="--.HHE">
      <acc value="0.0190741514" flag="0"/>
      <vel value="0.0156758935" flag="0"/>
      <psa03 value="0.0279391629" flag="0"/>
      <psa10 value="0.0187721702" flag="0"/>
      <psa30 value="0.0010492097" flag="0"/>
    </comp>
  </station>
  <station code="YENI" name="YENI" netid="KO" insttype="CMG-5T" commtype="DIG" lat="39.9364" lon="27.2422">
    <comp name="--.HNN">
      <acc value="0.0422267906" flag="0"/>
      <vel value="0.0163742572" flag="0"/>
      <psa03 value="0.0488592622" flag="0"/>
      <psa10 value="0.0141707113" flag="0"/>
      <psa30 value="0.0007695313" flag="0"/>
    </comp>
    <comp name="--.HNZ">
      <acc value="0.0260844721" flag="0"/>
      <vel value="0.0075050973" flag="0"/>
      <psa03 value="0.0230932662" flag="0"/>
      <psa10 value="0.0036538506" flag="0"/>
      <psa30 value="0.0007795097" flag="0"/>
    </comp>
    <comp name="--.HNE">
      <acc value="0.0500300184" flag="0"/>
      <vel value="0.0194972935" flag="0"/>
      <psa03 value="0.0824703509" flag="0"/>
      <psa10 value="0.0140421795" flag="0"/>
      <psa30 value="0.0011119209" flag="0"/>
    </comp>
  </station>
</stationlist>
