<?xml version="1.0" encoding="UTF-8" standalone="yes"?>
<!DOCTYPE earthquake SYSTEM "stationlist.dtd">
<stationlist created="" xmlns="ch.ethz.sed.shakemap.usgs.xml">
  <station code="BIGA" name="BIGA" netid="KO" insttype="CMG-5T" lat="40.2813" lon="27.1505">
    <comp name="--.HNE">
      <acc value="0.0237046674" flag="0"/>
      <vel value="0.0104464328" flag="0"/>
      <psa03 value="0.0350794121" flag="0"/>
      <psa10 value="0.0098599158" flag="0"/>
      <psa30 value="0.0008560165" flag="0"/>
    </comp>
    <comp name="--.HNZ">
      <acc value="0.0127777811" flag="0"/>
      <vel value="0.0058329942" flag="0"/>
      <psa03 value="0.0157037282" flag="0"/>
      <psa10 value="0.0064013860" flag="0"/>
      <psa30 value="0.0006410991" flag="0"/>
    </comp>
    <comp name="--.HNN">
      <acc value="0.0282711143" flag="0"/>
      <vel value="0.0115557142" flag="0"/>
      <psa03 value="0.0405158877" flag="0"/>
      <psa10 value="0.0088579030" flag="0"/>
      <psa30 value="0.0006040093" flag="0"/>
    </comp>
  </station>
  <station code="CANM" name="CANM" netid="KO" insttype="CMG-5T" lat="40.0113" lon="27.0529">
    <comp name="--.HNE">
      <acc value="0.0384560615" flag="0"/>
      <vel value="0.0149007420" flag="0"/>
      <psa03 value="0.0374141433" flag="0"/>
      <psa10 value="0.0141671814" flag="0"/>
      <psa30 value="0.0012272494" flag="0"/>
    </comp>
    <comp name="--.HNN">
      <acc value="0.0383819355" flag="0"/>
      <vel value="0.0196546461" flag="0"/>
      <psa03 value="0.0705795871" flag="0"/>
      <psa10 value="0.0227971954" flag="0"/>
      <psa30 value="0.0013416038" flag="0"/>
    </comp>
    <comp name="--.HNZ">
      <acc value="0.0329993465" flag="0"/>
      <vel value="0.0110071372" flag="0"/>
      <psa03 value="0.0399386805" flag="0"/>
      <psa10 value="0.0100698480" flag="0"/>
      <psa30 value="0.0007405685" flag="0"/>
    </comp>
  </station>
  <station code="DKL" name="DKL" netid="KO" insttype="CMG-3ESPC" lat="39.0713" lon="26.9053">
    <comp name="--.HHN">
      <acc value="0.0377850476" flag="0"/>
      <vel value="0.0102430804" flag="0"/>
      <psa03 value="0.0485935874" flag="0"/>
      <psa10 value="0.0119327365" flag="0"/>
      <psa30 value="0.0019975504" flag="0"/>
    </comp>
    <comp name="--.HHZ">
      <acc value="0.0409968899" flag="0"/>
      <vel value="0.0102474773" flag="0"/>
      <psa03 value="0.0318187116" flag="0"/>
      <psa10 value="0.0087857829" flag="0"/>
      <psa30 value="0.0010971639" flag="0"/>
    </comp>
  </station>
  <station code="EZN" name="EZN" netid="KO" insttype="CMG-3ESP" lat="39.8255" lon="26.3246">
    <comp name="--.HHE">
      <acc value="0.1173282173" flag="0"/>
      <vel value="0.0551502271" flag="0"/>
      <psa03 value="0.1149453301" flag="0"/>
      <psa10 value="0.0334278856" flag="0"/>
      <psa30 value="0.0025570913" flag="0"/>
    </comp>
    <comp name="--.HHZ">
      <acc value="0.0765286019" flag="0"/>
      <vel value="0.0203285203" flag="0"/>
      <psa03 value="0.0843653413" flag="0"/>
      <psa10 value="0.0140371551" flag="0"/>
      <psa30 value="0.0011002196" flag="0"/>
    </comp>
    <comp name="--.HHN">
      <acc value="0.1239580010" flag="0"/>
      <vel value="0.0375914443" flag="0"/>
      <psa03 value="0.1330726970" flag="0"/>
      <psa10 value="0.0330511768" flag="0"/>
      <psa30 value="0.0017784866" flag="0"/>
    </comp>
  </station>
  <station code="EZNE" name="EZNE" netid="KO" insttype="CMG-5T" lat="39.756" lon="26.3655">
    <comp name="--.HNZ">
      <acc value="0.1707458878" flag="0"/>
      <vel value="0.0370659038" flag="0"/>
      <psa03 value="0.2028795667" flag="0"/>
      <psa10 value="0.0168200596" flag="0"/>
      <psa30 value="0.0015016140" flag="0"/>
    </comp>
    <comp name="--.HNN">
      <acc value="0.1366250274" flag="0"/>
      <vel value="0.0678784920" flag="0"/>
      <psa03 value="0.3329883245" flag="0"/>
      <psa10 value="0.0244546296" flag="0"/>
      <psa30 value="0.0021655864" flag="0"/>
    </comp>
    <comp name="--.HNE">
      <acc value="0.1363434476" flag="0"/>
      <vel value="0.0756605372" flag="0"/>
      <psa03 value="0.4587016383" flag="0"/>
      <psa10 value="0.0307184759" flag="0"/>
      <psa30 value="0.0024344703" flag="0"/>
    </comp>
  </station>
  <station code="GADA" name="GADA" netid="KO" insttype="CMG-3T" lat="40.1908" lon="25.8987">
    <comp name="--.HHZ">
      <acc value="0.0087118661" flag="0"/>
      <vel value="0.0036589860" flag="0"/>
      <psa03 value="0.0139529681" flag="0"/>
      <psa10 value="0.0047039856" flag="0"/>
      <psa30 value="0.0002723589" flag="0"/>
    </comp>
    <comp name="--.HHN">
      <acc value="0.0150029502" flag="0"/>
      <vel value="0.0052167986" flag="0"/>
      <psa03 value="0.0258759903" flag="0"/>
      <psa10 value="0.0043543244" flag="0"/>
      <psa30 value="0.0004524179" flag="0"/>
    </comp>
  </station>
  <station code="GELI" name="GELI" netid="KO" insttype="CMG-3ESP" lat="40.398" lon="26.4742">
    <comp name="--.HHN">
      <acc value="0.0076943985" flag="0"/>
      <vel value="0.0059257566" flag="0"/>
      <psa03 value="0.0209015074" flag="0"/>
      <psa10 value="0.0055910205" flag="0"/>
      <psa30 value="0.0005015183" flag="0"/>
    </comp>
    <comp name="--.HHZ">
      <acc value="0.0079043629" flag="0"/>
      <vel value="0.0044834109" flag="0"/>
      <psa03 value="0.0252643390" flag="0"/>
      <psa10 value="0.0051389933" flag="0"/>
      <psa30 value="0.0004331137" flag="0"/>
    </comp>
    <comp name="--.HHE">
      <acc value="0.0094150182" flag="0"/>
      <vel value="0.0052789595" flag="0"/>
      <psa03 value="0.0273342641" flag="0"/>
      <psa10 value="0.0076654880" flag="0"/>
      <psa30 value="0.0005882159" flag="0"/>
    </comp>
  </station>
  <station code="GPNR" name="GPNR" netid="KO" insttype="CMG-5T" lat="39.456" lon="26.1331">
    <comp name="--.HNE">
      <acc value="1.4680680347" flag="0"/>
      <vel value="0.8912808057" flag="0"/>
      <psa03 value="4.6896436568" flag="0"/>
      <psa10 value="0.4863444266" flag="0"/>
      <psa30 value="0.0368240341" flag="0"/>
    </comp>
    <comp name="--.HNN">
      <acc value="1.5322834497" flag="0"/>
      <vel value="0.6123175397" flag="0"/>
      <psa03 value="3.1878953756" flag="0"/>
      <psa10 value="0.2470974110" flag="0"/>
      <psa30 value="0.0164217920" flag="0"/>
    </comp>
    <comp name="--.HNZ">
      <acc value="1.6919757374" flag="0"/>
      <vel value="0.3705879070" flag="0"/>
      <psa03 value="2.5394206083" flag="0"/>
      <psa10 value="0.1606627345" flag="0"/>
      <psa30 value="0.0108708545" flag="0"/>
    </comp>
  </station>
  <station code="LAP" name="LAP" netid="KO" insttype="CMG-3ESP" lat="40.3703" lon="26.7593">
    <comp name="--.HHN">
      <acc value="0.0195069090" flag="0"/>
      <vel value="0.0107823103" flag="0"/>
      <psa03 value="0.0261346358" flag="0"/>
      <psa10 value="0.0149031217" flag="0"/>
      <psa30 value="0.0015699383" flag="0"/>
    </comp>
    <comp name="--.HHE">
      <acc value="0.0153049398" flag="0"/>
      <vel value="0.0087954734" flag="0"/>
      <psa03 value="0.0184858496" flag="0"/>
      <psa10 value="0.0133431104" flag="0"/>
      <psa30 value="0.0009403370" flag="0"/>
    </comp>
    <comp name="--.HHZ">
      <acc value="0.0121508603" flag="0"/>
      <vel value="0.0068995231" flag="0"/>
      <psa03 value="0.0206339519" flag="0"/>
      <psa10 value="0.0065019369" flag="0"/>
      <psa30 value="0.0006096867" flag="0"/>
    </comp>
  </station>
  <station code="LAPK" name="LAPK" netid="KO" insttype="CMG-5T" lat="40.3151" lon="26.6425">
    <comp name="--.HNN">
      <acc value="0.0584119972" flag="0"/>
      <vel value="0.0415970847" flag="0"/>
      <psa03 value="0.0724968861" flag="0"/>
      <psa10 value="0.0583288252" flag="0"/>
      <psa30 value="0.0023575434" flag="0"/>
    </comp>
    <comp name="--.HNE">
      <acc value="0.0518589807" flag="0"/>
      <vel value="0.0394728875" flag="0"/>
      <psa03 value="0.1216644587" flag="0"/>
      <psa10 value="0.0452442453" flag="0"/>
      <psa30 value="0.0018588283" flag="0"/>
    </comp>
    <comp name="--.HNZ">
      <acc value="0.0268652370" flag="0"/>
      <vel value="0.0123252827" flag="0"/>
      <psa03 value="0.0395040053" flag="0"/>
      <psa10 value="0.0141844854" flag="0"/>
      <psa30 value="0.0008501867" flag="0"/>
    </comp>
  </station>
  <station code="SOMA" name="SOMA" netid="KO" insttype="CMG-5T" lat="39.1564" lon="27.5341">
    <comp name="--.HNE">
      <acc value="0.0231838778" flag="0"/>
      <vel value="0.0090395527" flag="0"/>
      <psa03 value="0.0520876562" flag="0"/>
      <psa10 value="0.0125266941" flag="0"/>
      <psa30 value="0.0011666468" flag="0"/>
    </comp>
    <comp name="--.HNZ">
      <acc value="0.0180397908" flag="0"/>
      <vel value="0.0086688347" flag="0"/>
      <psa03 value="0.0436565152" flag="0"/>
      <psa10 value="0.0070031028" flag="0"/>
      <psa30 value="0.0004981388" flag="0"/>
    </comp>
    <comp name="--.HNN">
      <acc value="0.0213353799" flag="0"/>
      <vel value="0.0135427634" flag="0"/>
      <psa03 value="0.0588535037" flag="0"/>
      <psa10 value="0.0088696493" flag="0"/>
      <psa30 value="0.0009122647" flag="0"/>
    </comp>
  </station>
  <station code="YAYO" name="YAYO" netid="KO" insttype="CMG-6T" lat="39.6113" lon="27.0726">
    <comp name="--.HHN">
      <acc value="0.0524648937" flag="0"/>
      <vel value="0.0292874285" flag="0"/>
      <psa03 value="0.1453605479" flag="0"/>
      <psa10 value="0.0199030167" flag="0"/>
      <psa30 value="0.0014870720" flag="0"/>
    </comp>
    <comp name="--.HHE">
      <acc value="0.0616590988" flag="0"/>
      <vel value="0.0241553507" flag="0"/>
      <psa03 value="0.0999503502" flag="0"/>
      <psa10 value="0.0232883743" flag="0"/>
      <psa30 value="0.0010072599" flag="0"/>
    </comp>
    <comp name="--.HHZ">
      <acc value="0.0424892594" flag="0"/>
      <vel value="0.0162526408" flag="0"/>
      <psa03 value="0.1007614374" flag="0"/>
      <psa10 value="0.0095045568" flag="0"/>
      <psa30 value="0.0005781017" flag="0"/>
    </comp>
  </station>
  <station code="YENI" name="YENI" netid="KO" insttype="CMG-5T" lat="39.9364" lon="27.2422">
    <comp name="--.HNN">
      <acc value="0.1269396987" flag="0"/>
      <vel value="0.0483650431" flag="0"/>
      <psa03 value="0.2367247000" flag="0"/>
      <psa10 value="0.0305356852" flag="0"/>
      <psa30 value="0.0016176779" flag="0"/>
    </comp>
    <comp name="--.HNE">
      <acc value="0.0839737364" flag="0"/>
      <vel value="0.0350417633" flag="0"/>
      <psa03 value="0.1382869193" flag="0"/>
      <psa10 value="0.0391396614" flag="0"/>
      <psa30 value="0.0016654335" flag="0"/>
    </comp>
    <comp name="--.HNZ">
      <acc value="0.0371635045" flag="0"/>
      <vel value="0.0166783277" flag="0"/>
      <psa03 value="0.0934963089" flag="0"/>
      <psa10 value="0.0198853221" flag="0"/>
      <psa30 value="0.0009085645" flag="0"/>
    </comp>
  </station>
</stationlist>
