<?xml version="1.0" encoding="UTF-8" standalone="yes"?>
<!DOCTYPE earthquake SYSTEM "stationlist.dtd">
<stationlist created="" xmlns="ch.ethz.sed.shakemap.usgs.xml">
  <station code="MYT1" name="MYT1" netid="HI" insttype="CMG-5TD,ACCELEROMETER,GURALP" lat="39.085" lon="26.5694">
    <comp name="--.HNE">
      <acc value="0.0952431117" flag="0"/>
      <vel value="0.0431108715" flag="0"/>
      <psa03 value="0.2028829904" flag="0"/>
      <psa10 value="0.0561567351" flag="0"/>
      <psa30 value="0.0047102248" flag="0"/>
    </comp>
    <comp name="--.HNN">
      <acc value="0.0964435958" flag="0"/>
      <vel value="0.0595342365" flag="0"/>
      <psa03 value="0.1910663439" flag="0"/>
      <psa10 value="0.1025930459" flag="0"/>
      <psa30 value="0.0050515083" flag="0"/>
    </comp>
    <comp name="--.HNZ">
      <acc value="0.0653293740" flag="0"/>
      <vel value="0.0372335426" flag="0"/>
      <psa03 value="0.1052376714" flag="0"/>
      <psa10 value="0.0689645263" flag="0"/>
      <psa30 value="0.0037419955" flag="0"/>
    </comp>
  </station>
  <station code="LIA" name="LIA" netid="HL" insttype="P6C" lat="39.8972" lon="25.1806">
    <comp name="--.HHE">
      <acc value="0.0130959814" flag="0"/>
      <vel value="0.0062916399" flag="0"/>
      <psa03 value="0.0309827236" flag="0"/>
      <psa10 value="0.0064702839" flag="0"/>
      <psa30 value="0.0005350346" flag="0"/>
    </comp>
    <comp name="--.HHN">
      <acc value="0.0135640825" flag="0"/>
      <vel value="0.0061215763" flag="0"/>
      <psa03 value="0.0385437475" flag="0"/>
      <psa10 value="0.0063986776" flag="0"/>
      <psa30 value="0.0006667007" flag="0"/>
    </comp>
    <comp name="--.HHZ">
      <acc value="0.0108070210" flag="0"/>
      <vel value="0.0034329994" flag="0"/>
      <psa03 value="0.0182521999" flag="0"/>
      <psa10 value="0.0028820216" flag="0"/>
      <psa30 value="0.0004281949" flag="0"/>
    </comp>
  </station>
  <station code="PRK" name="PRK" netid="HL" insttype="CMG5T" lat="39.2456" lon="26.265">
    <comp name="--.HNN">
      <acc value="0.4185940406" flag="0"/>
      <vel value="0.2587659421" flag="0"/>
      <psa03 value="0.8705857758" flag="0"/>
      <psa10 value="0.4469482074" flag="0"/>
      <psa30 value="0.0181561903" flag="0"/>
    </comp>
    <comp name="--.HNE">
      <acc value="0.8337865110" flag="0"/>
      <vel value="0.3390163704" flag="0"/>
      <psa03 value="1.8252137590" flag="0"/>
      <psa10 value="0.3888536730" flag="0"/>
      <psa30 value="0.0257099039" flag="0"/>
    </comp>
    <comp name="--.HNZ">
      <acc value="0.3277131716" flag="0"/>
      <vel value="0.1451351750" flag="0"/>
      <psa03 value="0.4214878074" flag="0"/>
      <psa10 value="0.2008572298" flag="0"/>
      <psa30 value="0.0086606673" flag="0"/>
    </comp>
  </station>
  <station code="PSRA" name="PSRA" netid="HL" insttype="CMG-5" lat="38.5398" lon="25.562">
    <comp name="00.HNE">
      <acc value="0.0578717367" flag="0"/>
      <vel value="0.0167673759" flag="0"/>
      <psa03 value="0.0810041534" flag="0"/>
      <psa10 value="0.0121174501" flag="0"/>
      <psa30 value="0.0010226362" flag="0"/>
    </comp>
    <comp name="00.HNZ">
      <acc value="0.0320435156" flag="0"/>
      <vel value="0.0090710623" flag="0"/>
      <psa03 value="0.0360114542" flag="0"/>
      <psa10 value="0.0123109504" flag="0"/>
      <psa30 value="0.0007095283" flag="0"/>
    </comp>
    <comp name="00.HNN">
      <acc value="0.0454640107" flag="0"/>
      <vel value="0.0140188833" flag="0"/>
      <psa03 value="0.0640933149" flag="0"/>
      <psa10 value="0.0114180366" flag="0"/>
      <psa30 value="0.0007654309" flag="0"/>
    </comp>
  </station>
  <station code="CHOS" name="CHOS" netid="HT" insttype="100" lat="38.3869" lon="26.0506">
    <comp name="--.HHE">
      <acc value="0.0322233685" flag="0"/>
      <vel value="0.0094346613" flag="0"/>
      <psa03 value="0.0621217744" flag="0"/>
      <psa10 value="0.0142828347" flag="0"/>
      <psa30 value="0.0006791328" flag="0"/>
    </comp>
    <comp name="--.HHN">
      <acc value="0.0172591810" flag="0"/>
      <vel value="0.0071649418" flag="0"/>
      <psa03 value="0.0404656731" flag="0"/>
      <psa10 value="0.0089403899" flag="0"/>
      <psa30 value="0.0013175291" flag="0"/>
    </comp>
    <comp name="--.HHZ">
      <acc value="0.0091320252" flag="0"/>
      <vel value="0.0032511032" flag="0"/>
      <psa03 value="0.0197117913" flag="0"/>
      <psa10 value="0.0036953603" flag="0"/>
      <psa30 value="0.0006752970" flag="0"/>
    </comp>
  </station>
  <station code="LES3" name="LES3" netid="HT" insttype="" lat="39.3032" lon="26.1807">
    <comp name="--.HHN">
      <acc value="1.6359008824" flag="0"/>
      <vel value="0.8860609956" flag="0"/>
      <psa03 value="1.8968474203" flag="0"/>
      <psa10 value="0.4549548517" flag="0"/>
      <psa30 value="0.0337340010" flag="0"/>
    </comp>
    <comp name="--.HHE">
      <acc value="1.1502120194" flag="0"/>
      <vel value="0.4161622689" flag="0"/>
      <psa03 value="1.2363795072" flag="0"/>
      <psa10 value="0.2081667263" flag="0"/>
      <psa30 value="0.0189720477" flag="0"/>
    </comp>
    <comp name="--.HHZ">
      <acc value="0.7287981182" flag="0"/>
      <vel value="0.2679005146" flag="0"/>
      <psa03 value="1.4314790617" flag="0"/>
      <psa10 value="0.1212818414" flag="0"/>
      <psa30 value="0.0087163007" flag="0"/>
    </comp>
  </station>
  <station code="SIGR" name="SIGR" netid="HT" insttype="100" lat="39.2114" lon="25.8553">
    <comp name="--.HHE">
      <acc value="0.0702958864" flag="0"/>
      <vel value="0.0286273591" flag="0"/>
      <psa03 value="0.1536189061" flag="0"/>
      <psa10 value="0.0216033846" flag="0"/>
      <psa30 value="0.0023313091" flag="0"/>
    </comp>
    <comp name="--.HHN">
      <acc value="0.0872712359" flag="0"/>
      <vel value="0.0568895143" flag="0"/>
      <psa03 value="0.2310367552" flag="0"/>
      <psa10 value="0.0699464013" flag="0"/>
      <psa30 value="0.0045837627" flag="0"/>
    </comp>
    <comp name="--.HHZ">
      <acc value="0.0698290133" flag="0"/>
      <vel value="0.0183264689" flag="0"/>
      <psa03 value="0.1237219558" flag="0"/>
      <psa10 value="0.0174042140" flag="0"/>
      <psa30 value="0.0009778191" flag="0"/>
    </comp>
  </station>
  <station code="BIGA" name="BIGA" netid="KO" insttype="CMG-5T" lat="40.2813" lon="27.1505">
    <comp name="--.HNE">
      <acc value="0.0237046674" flag="0"/>
      <vel value="0.0104464328" flag="0"/>
      <psa03 value="0.0350794121" flag="0"/>
      <psa10 value="0.0098599158" flag="0"/>
      <psa30 value="0.0008560165" flag="0"/>
    </comp>
    <comp name="--.HNN">
      <acc value="0.0282711143" flag="0"/>
      <vel value="0.0115557142" flag="0"/>
      <psa03 value="0.0405158877" flag="0"/>
      <psa10 value="0.0088579030" flag="0"/>
      <psa30 value="0.0006040093" flag="0"/>
    </comp>
    <comp name="--.HNZ">
      <acc value="0.0127777811" flag="0"/>
      <vel value="0.0058329942" flag="0"/>
      <psa03 value="0.0157037282" flag="0"/>
      <psa10 value="0.0064013860" flag="0"/>
      <psa30 value="0.0006410991" flag="0"/>
    </comp>
  </station>
  <station code="CANM" name="CANM" netid="KO" insttype="CMG-5T" lat="40.0113" lon="27.0529">
    <comp name="--.HNE">
      <acc value="0.0384560615" flag="0"/>
      <vel value="0.0149007420" flag="0"/>
      <psa03 value="0.0374141433" flag="0"/>
      <psa10 value="0.0141671814" flag="0"/>
      <psa30 value="0.0012272494" flag="0"/>
    </comp>
    <comp name="--.HNZ">
      <acc value="0.0329993465" flag="0"/>
      <vel value="0.0110071372" flag="0"/>
      <psa03 value="0.0399386805" flag="0"/>
      <psa10 value="0.0100698480" flag="0"/>
      <psa30 value="0.0007405685" flag="0"/>
    </comp>
    <comp name="--.HNN">
      <acc value="0.0383819355" flag="0"/>
      <vel value="0.0196546461" flag="0"/>
      <psa03 value="0.0705795871" flag="0"/>
      <psa10 value="0.0227971954" flag="0"/>
      <psa30 value="0.0013416038" flag="0"/>
    </comp>
  </station>
  <station code="DKL" name="DKL" netid="KO" insttype="CMG-3ESPC" lat="39.0713" lon="26.9053">
    <comp name="--.HHN">
      <acc value="0.0377850476" flag="0"/>
      <vel value="0.0102430804" flag="0"/>
      <psa03 value="0.0485935874" flag="0"/>
      <psa10 value="0.0119327365" flag="0"/>
      <psa30 value="0.0019975504" flag="0"/>
    </comp>
    <comp name="--.HHZ">
      <acc value="0.0409968899" flag="0"/>
      <vel value="0.0102474773" flag="0"/>
      <psa03 value="0.0318187116" flag="0"/>
      <psa10 value="0.0087857829" flag="0"/>
      <psa30 value="0.0010971639" flag="0"/>
    </comp>
  </station>
  <station code="EZN" name="EZN" netid="KO" insttype="CMG-3ESP" lat="39.8255" lon="26.3246">
    <comp name="--.HHN">
      <acc value="0.1239580010" flag="0"/>
      <vel value="0.0375914443" flag="0"/>
      <psa03 value="0.1330726970" flag="0"/>
      <psa10 value="0.0330511768" flag="0"/>
      <psa30 value="0.0017784866" flag="0"/>
    </comp>
    <comp name="--.HHZ">
      <acc value="0.0765286019" flag="0"/>
      <vel value="0.0203285203" flag="0"/>
      <psa03 value="0.0843653413" flag="0"/>
      <psa10 value="0.0140371551" flag="0"/>
      <psa30 value="0.0011002196" flag="0"/>
    </comp>
    <comp name="--.HHE">
      <acc value="0.1173282173" flag="0"/>
      <vel value="0.0551502271" flag="0"/>
      <psa03 value="0.1149453301" flag="0"/>
      <psa10 value="0.0334278856" flag="0"/>
      <psa30 value="0.0025570913" flag="0"/>
    </comp>
  </station>
  <station code="EZNE" name="EZNE" netid="KO" insttype="CMG-5T" lat="39.756" lon="26.3655">
    <comp name="--.HNZ">
      <acc value="0.1707458878" flag="0"/>
      <vel value="0.0370659038" flag="0"/>
      <psa03 value="0.2028795667" flag="0"/>
      <psa10 value="0.0168200596" flag="0"/>
      <psa30 value="0.0015016140" flag="0"/>
    </comp>
    <comp name="--.HNN">
      <acc value="0.1366250274" flag="0"/>
      <vel value="0.0678784920" flag="0"/>
      <psa03 value="0.3329883245" flag="0"/>
      <psa10 value="0.0244546296" flag="0"/>
      <psa30 value="0.0021655864" flag="0"/>
    </comp>
    <comp name="--.HNE">
      <acc value="0.1363434476" flag="0"/>
      <vel value="0.0756605372" flag="0"/>
      <psa03 value="0.4587016383" flag="0"/>
      <psa10 value="0.0307184759" flag="0"/>
      <psa30 value="0.0024344703" flag="0"/>
    </comp>
  </station>
  <station code="GADA" name="GADA" netid="KO" insttype="CMG-3T" lat="40.1908" lon="25.8987">
    <comp name="--.HHZ">
      <acc value="0.0087118661" flag="0"/>
      <vel value="0.0036589860" flag="0"/>
      <psa03 value="0.0139529681" flag="0"/>
      <psa10 value="0.0047039856" flag="0"/>
      <psa30 value="0.0002723589" flag="0"/>
    </comp>
    <comp name="--.HHN">
      <acc value="0.0150029502" flag="0"/>
      <vel value="0.0052167986" flag="0"/>
      <psa03 value="0.0258759903" flag="0"/>
      <psa10 value="0.0043543244" flag="0"/>
      <psa30 value="0.0004524179" flag="0"/>
    </comp>
  </station>
  <station code="GELI" name="GELI" netid="KO" insttype="CMG-3ESP" lat="40.398" lon="26.4742">
    <comp name="--.HHN">
      <acc value="0.0076943985" flag="0"/>
      <vel value="0.0059257566" flag="0"/>
      <psa03 value="0.0209015074" flag="0"/>
      <psa10 value="0.0055910205" flag="0"/>
      <psa30 value="0.0005015183" flag="0"/>
    </comp>
    <comp name="--.HHE">
      <acc value="0.0094150182" flag="0"/>
      <vel value="0.0052789595" flag="0"/>
      <psa03 value="0.0273342641" flag="0"/>
      <psa10 value="0.0076654880" flag="0"/>
      <psa30 value="0.0005882159" flag="0"/>
    </comp>
    <comp name="--.HHZ">
      <acc value="0.0079043629" flag="0"/>
      <vel value="0.0044834109" flag="0"/>
      <psa03 value="0.0252643390" flag="0"/>
      <psa10 value="0.0051389933" flag="0"/>
      <psa30 value="0.0004331137" flag="0"/>
    </comp>
  </station>
  <station code="GPNR" name="GPNR" netid="KO" insttype="CMG-5T" lat="39.456" lon="26.1331">
    <comp name="--.HNE">
      <acc value="1.4680680347" flag="0"/>
      <vel value="0.8912808057" flag="0"/>
      <psa03 value="4.6896436568" flag="0"/>
      <psa10 value="0.4863444266" flag="0"/>
      <psa30 value="0.0368240341" flag="0"/>
    </comp>
    <comp name="--.HNZ">
      <acc value="1.6919757374" flag="0"/>
      <vel value="0.3705879070" flag="0"/>
      <psa03 value="2.5394206083" flag="0"/>
      <psa10 value="0.1606627345" flag="0"/>
      <psa30 value="0.0108708545" flag="0"/>
    </comp>
    <comp name="--.HNN">
      <acc value="1.5322834497" flag="0"/>
      <vel value="0.6123175397" flag="0"/>
      <psa03 value="3.1878953756" flag="0"/>
      <psa10 value="0.2470974110" flag="0"/>
      <psa30 value="0.0164217920" flag="0"/>
    </comp>
  </station>
  <station code="LAP" name="LAP" netid="KO" insttype="CMG-3ESP" lat="40.3703" lon="26.7593">
    <comp name="--.HHE">
      <acc value="0.0153049398" flag="0"/>
      <vel value="0.0087954734" flag="0"/>
      <psa03 value="0.0184858496" flag="0"/>
      <psa10 value="0.0133431104" flag="0"/>
      <psa30 value="0.0009403370" flag="0"/>
    </comp>
    <comp name="--.HHZ">
      <acc value="0.0121508603" flag="0"/>
      <vel value="0.0068995231" flag="0"/>
      <psa03 value="0.0206339519" flag="0"/>
      <psa10 value="0.0065019369" flag="0"/>
      <psa30 value="0.0006096867" flag="0"/>
    </comp>
    <comp name="--.HHN">
      <acc value="0.0195069090" flag="0"/>
      <vel value="0.0107823103" flag="0"/>
      <psa03 value="0.0261346358" flag="0"/>
      <psa10 value="0.0149031217" flag="0"/>
      <psa30 value="0.0015699383" flag="0"/>
    </comp>
  </station>
  <station code="LAPK" name="LAPK" netid="KO" insttype="CMG-5T" lat="40.3151" lon="26.6425">
    <comp name="--.HNE">
      <acc value="0.0518589807" flag="0"/>
      <vel value="0.0394728875" flag="0"/>
      <psa03 value="0.1216644587" flag="0"/>
      <psa10 value="0.0452442453" flag="0"/>
      <psa30 value="0.0018588283" flag="0"/>
    </comp>
    <comp name="--.HNN">
      <acc value="0.0584119972" flag="0"/>
      <vel value="0.0415970847" flag="0"/>
      <psa03 value="0.0724968861" flag="0"/>
      <psa10 value="0.0583288252" flag="0"/>
      <psa30 value="0.0023575434" flag="0"/>
    </comp>
    <comp name="--.HNZ">
      <acc value="0.0268652370" flag="0"/>
      <vel value="0.0123252827" flag="0"/>
      <psa03 value="0.0395040053" flag="0"/>
      <psa10 value="0.0141844854" flag="0"/>
      <psa30 value="0.0008501867" flag="0"/>
    </comp>
  </station>
  <station code="SOMA" name="SOMA" netid="KO" insttype="CMG-5T" lat="39.1564" lon="27.5341">
    <comp name="--.HNE">
      <acc value="0.0231838778" flag="0"/>
      <vel value="0.0090395527" flag="0"/>
      <psa03 value="0.0520876562" flag="0"/>
      <psa10 value="0.0125266941" flag="0"/>
      <psa30 value="0.0011666468" flag="0"/>
    </comp>
    <comp name="--.HNN">
      <acc value="0.0213353799" flag="0"/>
      <vel value="0.0135427634" flag="0"/>
      <psa03 value="0.0588535037" flag="0"/>
      <psa10 value="0.0088696493" flag="0"/>
      <psa30 value="0.0009122647" flag="0"/>
    </comp>
    <comp name="--.HNZ">
      <acc value="0.0180397908" flag="0"/>
      <vel value="0.0086688347" flag="0"/>
      <psa03 value="0.0436565152" flag="0"/>
      <psa10 value="0.0070031028" flag="0"/>
      <psa30 value="0.0004981388" flag="0"/>
    </comp>
  </station>
  <station code="YAYO" name="YAYO" netid="KO" insttype="CMG-6T" lat="39.6113" lon="27.0726">
    <comp name="--.HHE">
      <acc value="0.0616590988" flag="0"/>
      <vel value="0.0241553507" flag="0"/>
      <psa03 value="0.0999503502" flag="0"/>
      <psa10 value="0.0232883743" flag="0"/>
      <psa30 value="0.0010072599" flag="0"/>
    </comp>
    <comp name="--.HHN">
      <acc value="0.0524648937" flag="0"/>
      <vel value="0.0292874285" flag="0"/>
      <psa03 value="0.1453605479" flag="0"/>
      <psa10 value="0.0199030167" flag="0"/>
      <psa30 value="0.0014870720" flag="0"/>
    </comp>
    <comp name="--.HHZ">
      <acc value="0.0424892594" flag="0"/>
      <vel value="0.0162526408" flag="0"/>
      <psa03 value="0.1007614374" flag="0"/>
      <psa10 value="0.0095045568" flag="0"/>
      <psa30 value="0.0005781017" flag="0"/>
    </comp>
  </station>
  <station code="YENI" name="YENI" netid="KO" insttype="CMG-5T" lat="39.9364" lon="27.2422">
    <comp name="--.HNE">
      <acc value="0.0839737364" flag="0"/>
      <vel value="0.0350417633" flag="0"/>
      <psa03 value="0.1382869193" flag="0"/>
      <psa10 value="0.0391396614" flag="0"/>
      <psa30 value="0.0016654335" flag="0"/>
    </comp>
    <comp name="--.HNN">
      <acc value="0.1269396987" flag="0"/>
      <vel value="0.0483650431" flag="0"/>
      <psa03 value="0.2367247000" flag="0"/>
      <psa10 value="0.0305356852" flag="0"/>
      <psa30 value="0.0016176779" flag="0"/>
    </comp>
    <comp name="--.HNZ">
      <acc value="0.0371635045" flag="0"/>
      <vel value="0.0166783277" flag="0"/>
      <psa03 value="0.0934963089" flag="0"/>
      <psa10 value="0.0198853221" flag="0"/>
      <psa30 value="0.0009085645" flag="0"/>
    </comp>
  </station>
</stationlist>
