<?xml version="1.0" encoding="UTF-8" standalone="yes"?>
<!DOCTYPE earthquake SYSTEM "stationlist.dtd">
<stationlist created="" xmlns="ch.ethz.sed.shakemap.usgs.xml">
  <station code="DARE" name="DARE" netid="KO" insttype="CMG-3ESP" lat="38.5712" lon="37.4832">
    <comp name="--.HHE">
      <acc value="0.0475567368" flag="0"/>
      <vel value="0.0194596110" flag="0"/>
      <psa03 value="0.0769573190" flag="0"/>
      <psa10 value="0.0106695493" flag="0"/>
      <psa30 value="0.0009248796" flag="0"/>
    </comp>
    <comp name="--.HHN">
      <acc value="0.0534821572" flag="0"/>
      <vel value="0.0153580874" flag="0"/>
      <psa03 value="0.0715473879" flag="0"/>
      <psa10 value="0.0207653560" flag="0"/>
      <psa30 value="0.0008197201" flag="0"/>
    </comp>
    <comp name="--.HHZ">
      <acc value="0.0321570567" flag="0"/>
      <vel value="0.0118269310" flag="0"/>
      <psa03 value="0.0544074323" flag="0"/>
      <psa10 value="0.0236973921" flag="0"/>
      <psa30 value="0.0009399883" flag="0"/>
    </comp>
  </station>
  <station code="GAZ" name="GAZ" netid="KO" insttype="CMG-3T" lat="37.1721" lon="37.2096">
    <comp name="--.HHE">
      <acc value="0.0096972336" flag="0"/>
      <vel value="0.0033857468" flag="0"/>
      <psa03 value="0.0175656264" flag="0"/>
      <psa10 value="0.0047444834" flag="0"/>
      <psa30 value="0.0009537570" flag="0"/>
    </comp>
    <comp name="--.HHZ">
      <acc value="0.0048491657" flag="0"/>
      <vel value="0.0018276433" flag="0"/>
      <psa03 value="0.0097468778" flag="0"/>
      <psa10 value="0.0025748132" flag="0"/>
      <psa30 value="0.0005718327" flag="0"/>
    </comp>
    <comp name="--.HHN">
      <acc value="0.0055506827" flag="0"/>
      <vel value="0.0026808618" flag="0"/>
      <psa03 value="0.0129752164" flag="0"/>
      <psa10 value="0.0016157179" flag="0"/>
      <psa30 value="0.0002582361" flag="0"/>
    </comp>
  </station>
  <station code="KMRS" name="KMRS" netid="KO" insttype="CMG-3T" lat="37.5087" lon="36.9">
    <comp name="--.HHN">
      <acc value="0.0266090842" flag="0"/>
      <vel value="0.0100710291" flag="0"/>
      <psa03 value="0.0511305887" flag="0"/>
      <psa10 value="0.0087035853" flag="0"/>
      <psa30 value="0.0007453002" flag="0"/>
    </comp>
    <comp name="--.HHZ">
      <acc value="0.0110553053" flag="0"/>
      <vel value="0.0042974536" flag="0"/>
      <psa03 value="0.0345083423" flag="0"/>
      <psa10 value="0.0054555371" flag="0"/>
      <psa30 value="0.0004426738" flag="0"/>
    </comp>
    <comp name="--.HHE">
      <acc value="0.0145703613" flag="0"/>
      <vel value="0.0067863719" flag="0"/>
      <psa03 value="0.0414931858" flag="0"/>
      <psa10 value="0.0068508098" flag="0"/>
      <psa30 value="0.0004509009" flag="0"/>
    </comp>
  </station>
  <station code="SARI" name="SARI" netid="KO" insttype="CMG-3T" lat="38.4072" lon="36.4181">
    <comp name="--.HHZ">
      <acc value="0.0116456513" flag="0"/>
      <vel value="0.0043237883" flag="0"/>
      <psa03 value="0.0232237345" flag="0"/>
      <psa10 value="0.0037736866" flag="0"/>
      <psa30 value="0.0006081704" flag="0"/>
    </comp>
    <comp name="--.HHE">
      <acc value="0.0219097505" flag="0"/>
      <vel value="0.0056131932" flag="0"/>
      <psa03 value="0.0327601230" flag="0"/>
      <psa10 value="0.0045605198" flag="0"/>
      <psa30 value="0.0005782450" flag="0"/>
    </comp>
    <comp name="--.HHN">
      <acc value="0.0172621407" flag="0"/>
      <vel value="0.0062295684" flag="0"/>
      <psa03 value="0.0329828975" flag="0"/>
      <psa10 value="0.0070676517" flag="0"/>
      <psa30 value="0.0003393253" flag="0"/>
    </comp>
  </station>
  <station code="ANDN" name="ANDN" netid="TU" insttype="T" lat="37.58" lon="36.3452">
    <comp name="--.HHE">
      <acc value="0.0445532414" flag="0"/>
      <vel value="0.0168969703" flag="0"/>
      <psa03 value="0.0871592552" flag="0"/>
      <psa10 value="0.0179053288" flag="0"/>
      <psa30 value="0.0008360313" flag="0"/>
    </comp>
    <comp name="--.HHZ">
      <acc value="0.0207149355" flag="0"/>
      <vel value="0.0121731010" flag="0"/>
      <psa03 value="0.0536596117" flag="0"/>
      <psa10 value="0.0149106783" flag="0"/>
      <psa30 value="0.0008606858" flag="0"/>
    </comp>
    <comp name="--.HHN">
      <acc value="0.0690497485" flag="0"/>
      <vel value="0.0275116852" flag="0"/>
      <psa03 value="0.1057466009" flag="0"/>
      <psa10 value="0.0237684788" flag="0"/>
      <psa30 value="0.0012369695" flag="0"/>
    </comp>
  </station>
</stationlist>
