<?xml version="1.0" encoding="UTF-8" standalone="yes"?>
<!DOCTYPE earthquake SYSTEM "stationlist.dtd">
<stationlist created="" xmlns="ch.ethz.sed.shakemap.usgs.xml">
  <station code="BEHE" name="BEHE" netid="HU" insttype="" lat="46.4703" lon="16.7755">
    <comp name="--.HHN">
      <acc value="0.0147579413" flag="0"/>
      <vel value="0.0043053486" flag="0"/>
      <psa03 value="0.0326799408" flag="0"/>
      <psa10 value="0.0031053132" flag="0"/>
      <psa30 value="0.0002168000" flag="0"/>
    </comp>
    <comp name="--.HHE">
      <acc value="0.0126259833" flag="0"/>
      <vel value="0.0046917331" flag="0"/>
      <psa03 value="0.0234078678" flag="0"/>
      <psa10 value="0.0029950849" flag="0"/>
      <psa30 value="0.0001640589" flag="0"/>
    </comp>
    <comp name="--.HHZ">
      <acc value="0.0113144048" flag="0"/>
      <vel value="0.0041107685" flag="0"/>
      <psa03 value="0.0215571212" flag="0"/>
      <psa10 value="0.0017600743" flag="0"/>
      <psa30 value="0.0001351313" flag="0"/>
    </comp>
  </station>
  <station code="BLY" name="BLY" netid="MN" insttype="" lat="44.7488" lon="17.1839">
    <comp name="--.HHN">
      <acc value="0.0055863771" flag="0"/>
      <vel value="0.0025050455" flag="0"/>
      <psa03 value="0.0111434386" flag="0"/>
      <psa10 value="0.0028882688" flag="0"/>
      <psa30 value="0.0001232792" flag="0"/>
    </comp>
    <comp name="--.HHE">
      <acc value="0.0090098952" flag="0"/>
      <vel value="0.0038942416" flag="0"/>
      <psa03 value="0.0205743636" flag="0"/>
      <psa10 value="0.0028552459" flag="0"/>
      <psa30 value="0.0001501231" flag="0"/>
    </comp>
    <comp name="--.HHZ">
      <acc value="0.0038618157" flag="0"/>
      <vel value="0.0018250780" flag="0"/>
      <psa03 value="0.0151989658" flag="0"/>
      <psa10 value="0.0012247275" flag="0"/>
      <psa30 value="0.0001700467" flag="0"/>
    </comp>
  </station>
</stationlist>
