<?xml version="1.0" encoding="UTF-8" standalone="yes"?>
<!DOCTYPE earthquake SYSTEM "stationlist.dtd">
<stationlist created="" xmlns="ch.ethz.sed.shakemap.usgs.xml">
  <station code="AKS" name="AKS" netid="KO" insttype="CMG-5T" commtype="DIG" lat="38.8785" lon="27.8129">
    <comp name="--.HNZ">
      <acc value="0.0537384244" flag="0"/>
      <vel value="0.0111934222" flag="0"/>
      <psa03 value="0.0415570856" flag="0"/>
      <psa10 value="0.0031379244" flag="0"/>
      <psa30 value="0.0004742101" flag="0"/>
    </comp>
    <comp name="--.HNN">
      <acc value="0.0793772894" flag="0"/>
      <vel value="0.0256298877" flag="0"/>
      <psa03 value="0.1687894466" flag="0"/>
      <psa10 value="0.0076349272" flag="0"/>
      <psa30 value="0.0007767062" flag="0"/>
    </comp>
    <comp name="--.HNE">
      <acc value="0.0818156693" flag="0"/>
      <vel value="0.0287218657" flag="0"/>
      <psa03 value="0.2561639886" flag="0"/>
      <psa10 value="0.0093906119" flag="0"/>
      <psa30 value="0.0005744865" flag="0"/>
    </comp>
  </station>
  <station code="BALB" name="BALB" netid="KO" insttype="CMG-5T" commtype="DIG" lat="39.6507" lon="27.8642">
    <comp name="--.HNZ">
      <acc value="0.0148921831" flag="0"/>
      <vel value="0.0035494998" flag="0"/>
      <psa03 value="0.0154130490" flag="0"/>
      <psa10 value="0.0043307701" flag="0"/>
      <psa30 value="0.0004122608" flag="0"/>
    </comp>
    <comp name="--.HNN">
      <acc value="0.0178985597" flag="0"/>
      <vel value="0.0066766231" flag="0"/>
      <psa03 value="0.0309285970" flag="0"/>
      <psa10 value="0.0087622803" flag="0"/>
      <psa30 value="0.0007564746" flag="0"/>
    </comp>
    <comp name="--.HNE">
      <acc value="0.0173717134" flag="0"/>
      <vel value="0.0057292784" flag="0"/>
      <psa03 value="0.0216287648" flag="0"/>
      <psa10 value="0.0070064113" flag="0"/>
      <psa30 value="0.0004425561" flag="0"/>
    </comp>
  </station>
  <station code="DST" name="DST" netid="KO" insttype="CMG-5T" commtype="DIG" lat="39.6041" lon="28.6267">
    <comp name="--.HNN">
      <acc value="0.0333873930" flag="0"/>
      <vel value="0.0147588765" flag="0"/>
      <psa03 value="0.0592156301" flag="0"/>
      <psa10 value="0.0085081982" flag="0"/>
      <psa30 value="0.0007499230" flag="0"/>
    </comp>
    <comp name="--.HNE">
      <acc value="0.0292139877" flag="0"/>
      <vel value="0.0087662057" flag="0"/>
      <psa03 value="0.0361912227" flag="0"/>
      <psa10 value="0.0084778949" flag="0"/>
      <psa30 value="0.0005631976" flag="0"/>
    </comp>
    <comp name="--.HNZ">
      <acc value="0.0273259474" flag="0"/>
      <vel value="0.0089935957" flag="0"/>
      <psa03 value="0.0366429181" flag="0"/>
      <psa10 value="0.0043452506" flag="0"/>
      <psa30 value="0.0006110124" flag="0"/>
    </comp>
  </station>
  <station code="GOMA" name="GOMA" netid="KO" insttype="CMG-5T" commtype="DIG" lat="38.7077" lon="27.9175">
    <comp name="--.HNE">
      <acc value="0.0786267976" flag="0"/>
      <vel value="0.0308762892" flag="0"/>
      <psa03 value="0.1931420085" flag="0"/>
      <psa10 value="0.0163546695" flag="0"/>
      <psa30 value="0.0009050953" flag="0"/>
    </comp>
    <comp name="--.HNN">
      <acc value="0.1008833278" flag="0"/>
      <vel value="0.0460844270" flag="0"/>
      <psa03 value="0.2248252252" flag="0"/>
      <psa10 value="0.0094401581" flag="0"/>
      <psa30 value="0.0009948444" flag="0"/>
    </comp>
    <comp name="--.HNZ">
      <acc value="0.0690670929" flag="0"/>
      <vel value="0.0209265452" flag="0"/>
      <psa03 value="0.0809866622" flag="0"/>
      <psa10 value="0.0035424168" flag="0"/>
      <psa30 value="0.0005835095" flag="0"/>
    </comp>
  </station>
  <station code="GONE" name="GONE" netid="KO" insttype="CMG-5T" commtype="DIG" lat="40.0466" lon="27.686">
    <comp name="--.HNE">
      <acc value="0.0127821494" flag="0"/>
      <vel value="0.0060933798" flag="0"/>
      <psa03 value="0.0191285376" flag="0"/>
      <psa10 value="0.0050923671" flag="0"/>
      <psa30 value="0.0003618481" flag="0"/>
    </comp>
    <comp name="--.HNN">
      <acc value="0.0154179414" flag="0"/>
      <vel value="0.0059599797" flag="0"/>
      <psa03 value="0.0300267906" flag="0"/>
      <psa10 value="0.0059383430" flag="0"/>
      <psa30 value="0.0004047664" flag="0"/>
    </comp>
    <comp name="--.HNZ">
      <acc value="0.0092302486" flag="0"/>
      <vel value="0.0016832509" flag="0"/>
      <psa03 value="0.0094568150" flag="0"/>
      <psa10 value="0.0018052438" flag="0"/>
      <psa30 value="0.0001714725" flag="0"/>
    </comp>
  </station>
  <station code="GORD" name="GORD" netid="KO" insttype="CMG-5T" commtype="DIG" lat="38.9088" lon="28.1769">
    <comp name="--.HNN">
      <acc value="0.0569428075" flag="0"/>
      <vel value="0.0260467547" flag="0"/>
      <psa03 value="0.0937749802" flag="0"/>
      <psa10 value="0.0263254317" flag="0"/>
      <psa30 value="0.0015068998" flag="0"/>
    </comp>
    <comp name="--.HNZ">
      <acc value="0.0672150451" flag="0"/>
      <vel value="0.0182533614" flag="0"/>
      <psa03 value="0.0787553544" flag="0"/>
      <psa10 value="0.0220424129" flag="0"/>
      <psa30 value="0.0019809031" flag="0"/>
    </comp>
    <comp name="--.HNE">
      <acc value="0.0602243194" flag="0"/>
      <vel value="0.0231222238" flag="0"/>
      <psa03 value="0.0684920187" flag="0"/>
      <psa10 value="0.0212207432" flag="0"/>
      <psa30 value="0.0013137465" flag="0"/>
    </comp>
  </station>
  <station code="KCTX" name="KCTX" netid="KO" insttype="CMG-3ESP" commtype="DIG" lat="40.2626" lon="28.3353">
    <comp name="--.HHE">
      <acc value="0.0110281977" flag="0"/>
      <vel value="0.0031513064" flag="0"/>
      <psa03 value="0.0214790280" flag="0"/>
      <psa10 value="0.0023750223" flag="0"/>
      <psa30 value="0.0002362622" flag="0"/>
    </comp>
    <comp name="--.HHN">
      <acc value="0.0141285960" flag="0"/>
      <vel value="0.0049849738" flag="0"/>
      <psa03 value="0.0203281495" flag="0"/>
      <psa10 value="0.0035459322" flag="0"/>
      <psa30 value="0.0002477196" flag="0"/>
    </comp>
    <comp name="--.HHZ">
      <acc value="0.0108951553" flag="0"/>
      <vel value="0.0045990097" flag="0"/>
      <psa03 value="0.0234662542" flag="0"/>
      <psa10 value="0.0024410282" flag="0"/>
      <psa30 value="0.0002394265" flag="0"/>
    </comp>
  </station>
  <station code="KULA" name="KULA" netid="KO" insttype="CMG-3T" commtype="DIG" lat="38.5145" lon="28.6607">
    <comp name="--.HHE">
      <acc value="0.0411357458" flag="0"/>
      <vel value="0.0164991399" flag="0"/>
      <psa03 value="0.0644689719" flag="0"/>
      <psa10 value="0.0095008274" flag="0"/>
      <psa30 value="0.0006310587" flag="0"/>
    </comp>
    <comp name="--.HHZ">
      <acc value="0.0270673078" flag="0"/>
      <vel value="0.0087999967" flag="0"/>
      <psa03 value="0.0625079133" flag="0"/>
      <psa10 value="0.0032732740" flag="0"/>
      <psa30 value="0.0003373586" flag="0"/>
    </comp>
  </station>
  <station code="ORLT" name="ORLT" netid="KO" insttype="CMG-5T" commtype="DIG" lat="40.0452" lon="28.8914">
    <comp name="--.HNN">
      <acc value="0.0325306880" flag="0"/>
      <vel value="0.0154337061" flag="0"/>
      <psa03 value="0.0753679874" flag="0"/>
      <psa10 value="0.0187553161" flag="0"/>
      <psa30 value="0.0006934665" flag="0"/>
    </comp>
    <comp name="--.HNZ">
      <acc value="0.0125142236" flag="0"/>
      <vel value="0.0070066208" flag="0"/>
      <psa03 value="0.0258860520" flag="0"/>
      <psa10 value="0.0091893710" flag="0"/>
      <psa30 value="0.0003609425" flag="0"/>
    </comp>
    <comp name="--.HNE">
      <acc value="0.0230916228" flag="0"/>
      <vel value="0.0098709718" flag="0"/>
      <psa03 value="0.0546755083" flag="0"/>
      <psa10 value="0.0108651616" flag="0"/>
      <psa30 value="0.0008051167" flag="0"/>
    </comp>
  </station>
  <station code="SHAP" name="SHAP" netid="KO" insttype="CMG-5T" commtype="DIG" lat="39.0231" lon="29.222">
    <comp name="--.HNZ">
      <acc value="0.0477195347" flag="0"/>
      <vel value="0.0094597283" flag="0"/>
      <psa03 value="0.0380124202" flag="0"/>
      <psa10 value="0.0046882759" flag="0"/>
      <psa30 value="0.0003138498" flag="0"/>
    </comp>
    <comp name="--.HNN">
      <acc value="0.0944840081" flag="0"/>
      <vel value="0.0216537394" flag="0"/>
      <psa03 value="0.1389612140" flag="0"/>
      <psa10 value="0.0065218049" flag="0"/>
      <psa30 value="0.0004346374" flag="0"/>
    </comp>
    <comp name="--.HNE">
      <acc value="0.0700494378" flag="0"/>
      <vel value="0.0201923410" flag="0"/>
      <psa03 value="0.1327919370" flag="0"/>
      <psa10 value="0.0068139178" flag="0"/>
      <psa30 value="0.0004547522" flag="0"/>
    </comp>
  </station>
  <station code="SIMA" name="SIMA" netid="KO" insttype="CMG-6T" commtype="DIG" lat="39.0833" lon="28.9825">
    <comp name="--.HHZ">
      <acc value="0.0614200946" flag="0"/>
      <vel value="0.0072280223" flag="0"/>
      <psa03 value="0.0253249921" flag="0"/>
      <psa10 value="0.0025392310" flag="0"/>
      <psa30 value="0.0002702085" flag="0"/>
    </comp>
    <comp name="--.HHE">
      <acc value="0.0853774226" flag="0"/>
      <vel value="0.0134281621" flag="0"/>
      <psa03 value="0.0691665763" flag="0"/>
      <psa10 value="0.0029890713" flag="0"/>
      <psa30 value="0.0003866556" flag="0"/>
    </comp>
    <comp name="--.HHN">
      <acc value="0.0822090342" flag="0"/>
      <vel value="0.0161529610" flag="0"/>
      <psa03 value="0.1033139474" flag="0"/>
      <psa10 value="0.0065937946" flag="0"/>
      <psa30 value="0.0006102119" flag="0"/>
    </comp>
  </station>
  <station code="SMAA" name="SMAA" netid="KO" insttype="CMG-5T" commtype="DIG" lat="39.1005" lon="28.9805">
    <comp name="--.HNE">
      <acc value="0.0643439506" flag="0"/>
      <vel value="0.0256172981" flag="0"/>
      <psa03 value="0.1077716402" flag="0"/>
      <psa10 value="0.0207892658" flag="0"/>
      <psa30 value="0.0014091205" flag="0"/>
    </comp>
    <comp name="--.HNN">
      <acc value="0.0627746798" flag="0"/>
      <vel value="0.0208461657" flag="0"/>
      <psa03 value="0.1131957868" flag="0"/>
      <psa10 value="0.0215562892" flag="0"/>
      <psa30 value="0.0012368779" flag="0"/>
    </comp>
    <comp name="--.HNZ">
      <acc value="0.0408894759" flag="0"/>
      <vel value="0.0072043815" flag="0"/>
      <psa03 value="0.0262416153" flag="0"/>
      <psa10 value="0.0155674504" flag="0"/>
      <psa30 value="0.0007718269" flag="0"/>
    </comp>
  </station>
  <station code="SOMA" name="SOMA" netid="KO" insttype="CMG-5T" commtype="DIG" lat="39.1564" lon="27.5341">
    <comp name="--.HNZ">
      <acc value="0.0325337033" flag="0"/>
      <vel value="0.0075702135" flag="0"/>
      <psa03 value="0.0317302963" flag="0"/>
      <psa10 value="0.0069840717" flag="0"/>
      <psa30 value="0.0003448470" flag="0"/>
    </comp>
    <comp name="--.HNE">
      <acc value="0.0346026405" flag="0"/>
      <vel value="0.0111473999" flag="0"/>
      <psa03 value="0.0546972900" flag="0"/>
      <psa10 value="0.0101304638" flag="0"/>
      <psa30 value="0.0004633049" flag="0"/>
    </comp>
    <comp name="--.HNN">
      <acc value="0.0410654914" flag="0"/>
      <vel value="0.0156812141" flag="0"/>
      <psa03 value="0.0973866125" flag="0"/>
      <psa10 value="0.0106032495" flag="0"/>
      <psa30 value="0.0004083750" flag="0"/>
    </comp>
  </station>
  <station code="SUSR" name="SUSR" netid="KO" insttype="CMG-5T" commtype="DIG" lat="39.9627" lon="28.0835">
    <comp name="--.HNN">
      <acc value="0.0201014135" flag="0"/>
      <vel value="0.0048729127" flag="0"/>
      <psa03 value="0.0298462109" flag="0"/>
      <psa10 value="0.0014754644" flag="0"/>
      <psa30 value="0.0002448945" flag="0"/>
    </comp>
    <comp name="--.HNE">
      <acc value="0.0203534174" flag="0"/>
      <vel value="0.0048093586" flag="0"/>
      <psa03 value="0.0301518379" flag="0"/>
      <psa10 value="0.0022320522" flag="0"/>
      <psa30 value="0.0002474028" flag="0"/>
    </comp>
    <comp name="--.HNZ">
      <acc value="0.0226493349" flag="0"/>
      <vel value="0.0040859058" flag="0"/>
      <psa03 value="0.0194304285" flag="0"/>
      <psa10 value="0.0015508484" flag="0"/>
      <psa30 value="0.0002637452" flag="0"/>
    </comp>
  </station>
  <station code="TVSB" name="TVSB" netid="KO" insttype="CMG-3T" commtype="DIG" lat="39.4497" lon="29.4615">
    <comp name="--.HHE">
      <acc value="0.0190293757" flag="0"/>
      <vel value="0.0097238622" flag="0"/>
      <psa03 value="0.0537639909" flag="0"/>
      <psa10 value="0.0043485064" flag="0"/>
      <psa30 value="0.0003989282" flag="0"/>
    </comp>
    <comp name="--.HHN">
      <acc value="0.0216338467" flag="0"/>
      <vel value="0.0088810671" flag="0"/>
      <psa03 value="0.0541875228" flag="0"/>
      <psa10 value="0.0041853257" flag="0"/>
      <psa30 value="0.0002997740" flag="0"/>
    </comp>
    <comp name="--.HHZ">
      <acc value="0.0137855844" flag="0"/>
      <vel value="0.0046827868" flag="0"/>
      <psa03 value="0.0231309699" flag="0"/>
      <psa10 value="0.0032172910" flag="0"/>
      <psa30 value="0.0002878695" flag="0"/>
    </comp>
  </station>
  <station code="YAYO" name="YAYO" netid="KO" insttype="CMG-6T" commtype="DIG" lat="39.6113" lon="27.0726">
    <comp name="--.HHZ">
      <acc value="0.0070204396" flag="0"/>
      <vel value="0.0026629254" flag="0"/>
      <psa03 value="0.0105145692" flag="0"/>
      <psa10 value="0.0020129569" flag="0"/>
      <psa30 value="0.0001446407" flag="0"/>
    </comp>
    <comp name="--.HHN">
      <acc value="0.0108268960" flag="0"/>
      <vel value="0.0052471739" flag="0"/>
      <psa03 value="0.0269511537" flag="0"/>
      <psa10 value="0.0038686518" flag="0"/>
      <psa30 value="0.0002604247" flag="0"/>
    </comp>
    <comp name="--.HHE">
      <acc value="0.0105446990" flag="0"/>
      <vel value="0.0080841229" flag="0"/>
      <psa03 value="0.0239605926" flag="0"/>
      <psa10 value="0.0051883665" flag="0"/>
      <psa30 value="0.0004018278" flag="0"/>
    </comp>
  </station>
</stationlist>
