<stationlist created="1763006692">
	<station code="AKDN" name="AKDN" netid="KO" source="Bogazici University Kandilli Observatory And Earthquake Research Institute (KOERI)" insttype="" lat="35.2977" lon="32.9677">
		<comp name="--.HNE" depth="0.0">
			<acc value="0.021854241713604" flag="0"/>
			<vel value="0.0111054197673" flag="0"/>
			<psa03 value="0.0467366950350016" flag="0"/>
			<psa10 value="0.0100584381971849" flag="0"/>
			<psa30 value="0.0023021460475459" flag="0"/>
		</comp>
		<comp name="--.HNN" depth="0.0">
			<acc value="0.025852616844882" flag="0"/>
			<vel value="0.00975026486027" flag="0"/>
			<psa03 value="0.0494603806740301" flag="0"/>
			<psa10 value="0.00914937328859624" flag="0"/>
			<psa30 value="0.00318235498206411" flag="0"/>
		</comp>
		<comp name="--.HNZ" depth="0.0">
			<acc value="0.022115322333036" flag="0"/>
			<vel value="0.00715226209375" flag="0"/>
			<psa03 value="0.0554017482186987" flag="0"/>
			<psa10 value="0.00638348865604899" flag="0"/>
			<psa30 value="0.00186652656489222" flag="0"/>
		</comp>
	</station>
	<station code="AKIN" name="AKIN" netid="KO" source="Bogazici University Kandilli Observatory And Earthquake Research Institute (KOERI)" insttype="" lat="35.0157" lon="33.4662">
		<comp name="--.HNE" depth="0.0">
			<acc value="0.0061607450994996" flag="0"/>
			<vel value="0.00391004207779" flag="0"/>
			<psa03 value="0.0214480809863569" flag="0"/>
			<psa10 value="0.00646325737782439" flag="0"/>
			<psa30 value="0.000818592300636948" flag="0"/>
		</comp>
		<comp name="--.HNN" depth="0.0">
			<acc value="0.0084524834075964" flag="0"/>
			<vel value="0.00403013411087" flag="0"/>
			<psa03 value="0.0164032155387565" flag="0"/>
			<psa10 value="0.00523929864033704" flag="0"/>
			<psa30 value="0.0011961346547178" flag="0"/>
		</comp>
		<comp name="--.HNZ" depth="0.0">
			<acc value="0.0068375461405272" flag="0"/>
			<vel value="0.00347858605919" flag="0"/>
			<psa03 value="0.0233238732171488" flag="0"/>
			<psa10 value="0.00339657422512475" flag="0"/>
			<psa30 value="0.000440014096691123" flag="0"/>
		</comp>
	</station>
	<station code="ALAN" name="ALAN" netid="KO" source="Bogazici University Kandilli Observatory And Earthquake Research Institute (KOERI)" insttype="" lat="36.557" lon="32.0327">
		<comp name="--.HNE" depth="0.0">
			<acc value="0.011369452627272" flag="0"/>
			<vel value="0.00313727603819" flag="0"/>
			<psa03 value="0.0154489023202271" flag="0"/>
			<psa10 value="0.00211199248726327" flag="0"/>
			<psa30 value="0.000823415745169849" flag="0"/>
		</comp>
		<comp name="--.HNN" depth="0.0">
			<acc value="0.0084340389586344" flag="0"/>
			<vel value="0.00308548098268" flag="0"/>
			<psa03 value="0.0212156593395438" flag="0"/>
			<psa10 value="0.000978424288464941" flag="0"/>
			<psa30 value="0.000620904361032543" flag="0"/>
		</comp>
		<comp name="--.HNZ" depth="0.0">
			<acc value="0.01974316546446" flag="0"/>
			<vel value="0.00226458184945" flag="0"/>
			<psa03 value="0.0057304050018413" flag="0"/>
			<psa10 value="0.000933648724644857" flag="0"/>
			<psa30 value="0.000738707529496903" flag="0"/>
		</comp>
	</station>
	<station code="BOZY" name="BOZY" netid="KO" source="Bogazici University Kandilli Observatory And Earthquake Research Institute (KOERI)" insttype="" lat="36.1069" lon="32.9763">
		<comp name="--.HNE" depth="0.0">
			<acc value="0.013680985224954" flag="0"/>
			<vel value="0.00395019434366" flag="0"/>
			<psa03 value="0.0287146131396938" flag="0"/>
			<psa10 value="0.00166617584472341" flag="0"/>
			<psa30 value="0.000315252107863502" flag="0"/>
		</comp>
		<comp name="--.HNN" depth="0.0">
			<acc value="0.018060320720802" flag="0"/>
			<vel value="0.00341963298738" flag="0"/>
			<psa03 value="0.0218622451414685" flag="0"/>
			<psa10 value="0.00162708337222631" flag="0"/>
			<psa30 value="0.00031938975175349" flag="0"/>
		</comp>
		<comp name="--.HNZ" depth="0.0">
			<acc value="0.015724747126122" flag="0"/>
			<vel value="0.00255541653109" flag="0"/>
			<psa03 value="0.0140060879908455" flag="0"/>
			<psa10 value="0.00133432972092153" flag="0"/>
			<psa30 value="0.000189439789039846" flag="0"/>
		</comp>
	</station>
	<station code="SLFK" name="SLFK" netid="KO" source="Bogazici University Kandilli Observatory And Earthquake Research Institute (KOERI)" insttype="" lat="36.3925" lon="33.9464">
		<comp name="--.HNE" depth="0.0">
			<acc value="0.0059060368143486" flag="0"/>
			<vel value="0.00271534694878" flag="0"/>
			<psa03 value="0.0131045582168517" flag="0"/>
			<psa10 value="0.00217554068139216" flag="0"/>
			<psa30 value="0.000411429312464628" flag="0"/>
		</comp>
		<comp name="--.HNN" depth="0.0">
			<acc value="0.0054528119379666" flag="0"/>
			<vel value="0.0025752942432" flag="0"/>
			<psa03 value="0.0170554149938037" flag="0"/>
			<psa10 value="0.00168455651547694" flag="0"/>
			<psa30 value="0.0004623492221181" flag="0"/>
		</comp>
		<comp name="--.HNZ" depth="0.0">
			<acc value="0.004027748649261" flag="0"/>
			<vel value="0.0015461583984" flag="0"/>
			<psa03 value="0.00971756887146924" flag="0"/>
			<psa10 value="0.000993977799276845" flag="0"/>
			<psa30 value="0.000393523126267392" flag="0"/>
		</comp>
	</station>
</stationlist>
