<?xml version="1.0" encoding="UTF-8" standalone="yes"?>
<!DOCTYPE earthquake SYSTEM "stationlist.dtd">
<stationlist created="" xmlns="ch.ethz.sed.shakemap.usgs.xml">
  <station code="AKIN" name="AKIN" netid="KO" insttype="CMG-5T" commtype="DIG" lat="35.0157" lon="33.4662">
    <comp name="--.HNE">
      <acc value="0.0061428439" flag="0"/>
      <vel value="0.0038319022" flag="0"/>
      <psa03 value="0.0212995980" flag="0"/>
      <psa10 value="0.0064562562" flag="0"/>
      <psa30 value="0.0007379314" flag="0"/>
    </comp>
    <comp name="--.HNN">
      <acc value="0.0086109510" flag="0"/>
      <vel value="0.0042517715" flag="0"/>
      <psa03 value="0.0163642027" flag="0"/>
      <psa10 value="0.0052522986" flag="0"/>
      <psa30 value="0.0010175634" flag="0"/>
    </comp>
    <comp name="--.HNZ">
      <acc value="0.0068573739" flag="0"/>
      <vel value="0.0034851789" flag="0"/>
      <psa03 value="0.0233873167" flag="0"/>
      <psa10 value="0.0033853490" flag="0"/>
      <psa30 value="0.0003934060" flag="0"/>
    </comp>
  </station>
  <station code="LEF" name="LEF" netid="KO" insttype="CMG-6T" commtype="DIG" lat="35.1118" lon="32.8433">
    <comp name="--.HHE">
      <acc value="0.0768554337" flag="0"/>
      <vel value="0.0283580131" flag="0"/>
      <psa03 value="0.1449416384" flag="0"/>
      <psa10 value="0.0232582588" flag="0"/>
      <psa30 value="0.0014918323" flag="0"/>
    </comp>
    <comp name="--.HHZ">
      <acc value="0.1167716032" flag="0"/>
      <vel value="0.0309738272" flag="0"/>
      <psa03 value="0.0861143815" flag="0"/>
      <psa10 value="0.0369774588" flag="0"/>
      <psa30 value="0.0012971968" flag="0"/>
    </comp>
    <comp name="--.HHN">
      <acc value="0.1002025730" flag="0"/>
      <vel value="0.0321061629" flag="0"/>
      <psa03 value="0.1752460180" flag="0"/>
      <psa10 value="0.0200759409" flag="0"/>
      <psa30 value="0.0018133460" flag="0"/>
    </comp>
  </station>
</stationlist>
