<?xml version="1.0" encoding="UTF-8" standalone="yes"?>
<!DOCTYPE earthquake SYSTEM "stationlist.dtd">
<stationlist created="" xmlns="ch.ethz.sed.shakemap.usgs.xml">
  <station code="AKIN" name="AKIN" netid="KO" insttype="CMG-5T" commtype="DIG" lat="35.0157" lon="33.4662">
    <comp name="--.HNZ">
      <acc value="0.0068573770" flag="0"/>
      <vel value="0.0034851600" flag="0"/>
      <psa03 value="0.0233873167" flag="0"/>
      <psa10 value="0.0033853491" flag="0"/>
      <psa30 value="0.0003926866" flag="0"/>
    </comp>
    <comp name="--.HNN">
      <acc value="0.0086109533" flag="0"/>
      <vel value="0.0042517626" flag="0"/>
      <psa03 value="0.0163642027" flag="0"/>
      <psa10 value="0.0052523009" flag="0"/>
      <psa30 value="0.0010180621" flag="0"/>
    </comp>
    <comp name="--.HNE">
      <acc value="0.0061428455" flag="0"/>
      <vel value="0.0038318845" flag="0"/>
      <psa03 value="0.0212995979" flag="0"/>
      <psa10 value="0.0064562556" flag="0"/>
      <psa30 value="0.0007379148" flag="0"/>
    </comp>
  </station>
  <station code="LEF" name="LEF" netid="KO" insttype="CMG-6T" commtype="DIG" lat="35.1118" lon="32.8433">
    <comp name="--.HHE">
      <acc value="0.0768554347" flag="0"/>
      <vel value="0.0283579816" flag="0"/>
      <psa03 value="0.1449416384" flag="0"/>
      <psa10 value="0.0232582537" flag="0"/>
      <psa30 value="0.0014910178" flag="0"/>
    </comp>
    <comp name="--.HHN">
      <acc value="0.1002025744" flag="0"/>
      <vel value="0.0321061205" flag="0"/>
      <psa03 value="0.1752460179" flag="0"/>
      <psa10 value="0.0200759381" flag="0"/>
      <psa30 value="0.0018132434" flag="0"/>
    </comp>
    <comp name="--.HHZ">
      <acc value="0.1167716025" flag="0"/>
      <vel value="0.0309738075" flag="0"/>
      <psa03 value="0.0861143815" flag="0"/>
      <psa10 value="0.0369774645" flag="0"/>
      <psa30 value="0.0012980284" flag="0"/>
    </comp>
  </station>
</stationlist>
