<stationlist created="1777946097">
	<station code="CERNS" name="CERNS" netid="C4" source="CERN Seismic Network" insttype="" lat="46.266947" lon="6.066212">
		<comp name="--.HGE" depth="0.0">
			<acc value="0.0172031559852283" flag="0"/>
			<vel value="0.00344245617791296" flag="0"/>
			<psa03 value="0.0111701943976437" flag="0"/>
			<psa10 value="0.00174568849485808" flag="0"/>
			<psa30 value="0.000303667694619305" flag="0"/>
		</comp>
		<comp name="--.HGN" depth="0.0">
			<acc value="0.0212094499025298" flag="0"/>
			<vel value="0.0026291462046138" flag="0"/>
			<psa03 value="0.01755160802039" flag="0"/>
			<psa10 value="0.00114205331167742" flag="0"/>
			<psa30 value="0.00032128784624307" flag="0"/>
		</comp>
		<comp name="--.HGZ" depth="0.0">
			<acc value="0.0216562959231144" flag="0"/>
			<vel value="0.00313001552414947" flag="0"/>
			<psa03 value="0.00431114073514589" flag="0"/>
			<psa10 value="0.00107372437115933" flag="0"/>
			<psa30 value="0.000352959058888851" flag="0"/>
		</comp>
	</station>
	<station code="BRANT" name="BRANT" netid="CH" source="Switzerland Seismological Network" insttype="" lat="46.93801" lon="6.47298">
		<comp name="--.HGE" depth="0.0">
			<acc value="0.00393263579474466" flag="0"/>
			<vel value="0.00150466064362015" flag="0"/>
			<psa03 value="0.00648539316713979" flag="0"/>
			<psa10 value="0.000638368343459234" flag="0"/>
			<psa30 value="6.16867361831232e-05" flag="0"/>
		</comp>
		<comp name="--.HGN" depth="0.0">
			<acc value="0.00343930303861302" flag="0"/>
			<vel value="0.00168425994224904" flag="0"/>
			<psa03 value="0.00913605248424411" flag="0"/>
			<psa10 value="0.000993702624797534" flag="0"/>
			<psa30 value="7.98650562929536e-05" flag="0"/>
		</comp>
		<comp name="--.HGZ" depth="0.0">
			<acc value="0.00279028077269842" flag="0"/>
			<vel value="0.000982926760811711" flag="0"/>
			<psa03 value="0.00378869434178062" flag="0"/>
			<psa10 value="0.00101143438537741" flag="0"/>
			<psa30 value="8.50310886214319e-05" flag="0"/>
		</comp>
	</station>
	<station code="CHAMB" name="CHAMB" netid="CH" source="Switzerland Seismological Network" insttype="" lat="46.78233" lon="6.61184">
		<comp name="--.HGE" depth="0.0">
			<acc value="0.00653851834410288" flag="0"/>
			<vel value="0.00177061600985367" flag="0"/>
			<psa03 value="0.00656161240898949" flag="0"/>
			<psa10 value="0.000406485736279203" flag="0"/>
			<psa30 value="0.000167511799959522" flag="0"/>
		</comp>
		<comp name="--.HGN" depth="0.0">
			<acc value="0.00303924513237413" flag="0"/>
			<vel value="0.000960355411064755" flag="0"/>
			<psa03 value="0.0027792231723969" flag="0"/>
			<psa10 value="0.00023527094199059" flag="0"/>
			<psa30 value="7.40175595500998e-05" flag="0"/>
		</comp>
		<comp name="--.HGZ" depth="0.0">
			<acc value="0.00425434271506723" flag="0"/>
			<vel value="0.00124692433048326" flag="0"/>
			<psa03 value="0.00344093530184513" flag="0"/>
			<psa10 value="0.0003160165595463" flag="0"/>
			<psa30 value="7.10354804916483e-05" flag="0"/>
		</comp>
	</station>
	<station code="CHASS" name="CHASS" netid="CH" source="Switzerland Seismological Network" insttype="" lat="47.1609" lon="7.12129">
		<comp name="--.HGE" depth="0.0">
			<acc value="0.00234087384408674" flag="0"/>
			<vel value="0.000595021870455266" flag="0"/>
			<psa03 value="0.00230352124931942" flag="0"/>
			<psa10 value="0.000320549115664984" flag="0"/>
			<psa30 value="7.88254236202722e-05" flag="0"/>
		</comp>
		<comp name="--.HGN" depth="0.0">
			<acc value="0.00474078977828508" flag="0"/>
			<vel value="0.00131859769802136" flag="0"/>
			<psa03 value="0.00389791251444729" flag="0"/>
			<psa10 value="0.000332078522009636" flag="0"/>
			<psa30 value="8.42076095909342e-05" flag="0"/>
		</comp>
		<comp name="--.HGZ" depth="0.0">
			<acc value="0.00163949929792735" flag="0"/>
			<vel value="0.000514912716047813" flag="0"/>
			<psa03 value="0.00213134594381403" flag="0"/>
			<psa10 value="0.000206392959630015" flag="0"/>
			<psa30 value="6.11567401361738e-05" flag="0"/>
		</comp>
	</station>
	<station code="DIX" name="DIX" netid="CH" source="Switzerland Seismological Network" insttype="" lat="46.081053" lon="7.408391">
		<comp name="--.HGE" depth="0.0">
			<acc value="0.00205739549116976" flag="0"/>
			<vel value="0.00076129805861436" flag="0"/>
			<psa03 value="0.00250064840308131" flag="0"/>
			<psa10 value="0.000206985191245128" flag="0"/>
			<psa30 value="4.67021920984751e-05" flag="0"/>
		</comp>
		<comp name="--.HGN" depth="0.0">
			<acc value="0.00282971219295285" flag="0"/>
			<vel value="0.000923312552282125" flag="0"/>
			<psa03 value="0.00654293669266664" flag="0"/>
			<psa10 value="0.000429992293474502" flag="0"/>
			<psa30 value="4.8515075864938e-05" flag="0"/>
		</comp>
		<comp name="--.HGZ" depth="0.0">
			<acc value="0.00186016088016145" flag="0"/>
			<vel value="0.000674380051859689" flag="0"/>
			<psa03 value="0.0027833949982379" flag="0"/>
			<psa10 value="0.000278156014361446" flag="0"/>
			<psa30 value="3.81408729998018e-05" flag="0"/>
		</comp>
	</station>
	<station code="GRYON" name="GRYON" netid="CH" source="Switzerland Seismological Network" insttype="" lat="46.25053" lon="7.11106">
		<comp name="--.HGE" depth="0.0">
			<acc value="0.00330861819173568" flag="0"/>
			<vel value="0.000926656517448113" flag="0"/>
			<psa03 value="0.0027223247091419" flag="0"/>
			<psa10 value="0.00028717287144979" flag="0"/>
			<psa30 value="3.70524382661404e-05" flag="0"/>
		</comp>
		<comp name="--.HGN" depth="0.0">
			<acc value="0.00456388598731018" flag="0"/>
			<vel value="0.000874799969740062" flag="0"/>
			<psa03 value="0.0031240181487892" flag="0"/>
			<psa10 value="0.000258270058342649" flag="0"/>
			<psa30 value="5.20004760264803e-05" flag="0"/>
		</comp>
		<comp name="--.HGZ" depth="0.0">
			<acc value="0.00440598310783324" flag="0"/>
			<vel value="0.000905775912484876" flag="0"/>
			<psa03 value="0.00228855199596531" flag="0"/>
			<psa10 value="0.000148270290929023" flag="0"/>
			<psa30 value="6.11979082279461e-05" flag="0"/>
		</comp>
	</station>
	<station code="LADOL" name="LADOL" netid="CH" source="Switzerland Seismological Network" insttype="" lat="46.43213" lon="6.13151">
		<comp name="--.HGE" depth="0.0">
			<acc value="0.0146774790767974" flag="0"/>
			<vel value="0.00355579635702806" flag="0"/>
			<psa03 value="0.0250131231424705" flag="0"/>
			<psa10 value="0.00134973597588458" flag="0"/>
			<psa30 value="0.000131360212386003" flag="0"/>
		</comp>
		<comp name="--.HGN" depth="0.0">
			<acc value="0.00978946685673345" flag="0"/>
			<vel value="0.00286465162601328" flag="0"/>
			<psa03 value="0.013661149775791" flag="0"/>
			<psa10 value="0.00118101276754859" flag="0"/>
			<psa30 value="0.000132099336870405" flag="0"/>
		</comp>
		<comp name="--.HGZ" depth="0.0">
			<acc value="0.00753325332890902" flag="0"/>
			<vel value="0.00189744396990848" flag="0"/>
			<psa03 value="0.00608174989126866" flag="0"/>
			<psa10 value="0.000529278304276891" flag="0"/>
			<psa30 value="8.85534248235152e-05" flag="0"/>
		</comp>
	</station>
	<station code="LKBD2" name="LKBD2" netid="CH" source="Switzerland Seismological Network" insttype="" lat="46.37455" lon="7.64433">
		<comp name="--.HGE" depth="0.0">
			<acc value="0.0036226541034245" flag="0"/>
			<vel value="0.00133444385770508" flag="0"/>
			<psa03 value="0.00671003955928171" flag="0"/>
			<psa10 value="0.000773452526497151" flag="0"/>
			<psa30 value="7.22489332728752e-05" flag="0"/>
		</comp>
		<comp name="--.HGN" depth="0.0">
			<acc value="0.00371984711163359" flag="0"/>
			<vel value="0.00146704896748748" flag="0"/>
			<psa03 value="0.00684491763492652" flag="0"/>
			<psa10 value="0.000439302080120913" flag="0"/>
			<psa30 value="7.16023149167448e-05" flag="0"/>
		</comp>
		<comp name="--.HGZ" depth="0.0">
			<acc value="0.00225812582778987" flag="0"/>
			<vel value="0.000992011625017605" flag="0"/>
			<psa03 value="0.00417627503012166" flag="0"/>
			<psa10 value="0.000576381307434838" flag="0"/>
			<psa30 value="7.26859999866534e-05" flag="0"/>
		</comp>
	</station>
	<station code="MFERR" name="MFERR" netid="CH" source="Switzerland Seismological Network" insttype="" lat="45.95101" lon="7.11229">
		<comp name="--.HGE" depth="0.0">
			<acc value="0.00512379893968112" flag="0"/>
			<vel value="0.000997580093852993" flag="0"/>
			<psa03 value="0.00449642351703471" flag="0"/>
			<psa10 value="0.00059316888436971" flag="0"/>
			<psa30 value="7.03566073946514e-05" flag="0"/>
		</comp>
		<comp name="--.HGN" depth="0.0">
			<acc value="0.00456819813182479" flag="0"/>
			<vel value="0.000963812143561268" flag="0"/>
			<psa03 value="0.00527881160944485" flag="0"/>
			<psa10 value="0.000575409700099461" flag="0"/>
			<psa30 value="4.92281471910591e-05" flag="0"/>
		</comp>
		<comp name="--.HGZ" depth="0.0">
			<acc value="0.00642148197430837" flag="0"/>
			<vel value="0.00114721231677717" flag="0"/>
			<psa03 value="0.00506415057930948" flag="0"/>
			<psa10 value="0.000630756804074199" flag="0"/>
			<psa30 value="5.6642684591608e-05" flag="0"/>
		</comp>
	</station>
	<station code="SAIG" name="SAIG" netid="CH" source="Switzerland Seismological Network" insttype="" lat="46.31724" lon="6.9666">
		<comp name="--.HGE" depth="0.0">
			<acc value="0.0167003606949165" flag="0"/>
			<vel value="0.00425324241740785" flag="0"/>
			<psa03 value="0.0223537230119526" flag="0"/>
			<psa10 value="0.000950683173407127" flag="0"/>
			<psa30 value="9.85266571158301e-05" flag="0"/>
		</comp>
		<comp name="--.HGN" depth="0.0">
			<acc value="0.0133307470268334" flag="0"/>
			<vel value="0.00350103459354211" flag="0"/>
			<psa03 value="0.0114953617717192" flag="0"/>
			<psa10 value="0.000956210102037657" flag="0"/>
			<psa30 value="0.00014766377939666" flag="0"/>
		</comp>
		<comp name="--.HGZ" depth="0.0">
			<acc value="0.00772760437553523" flag="0"/>
			<vel value="0.00193831482547256" flag="0"/>
			<psa03 value="0.00887320759812161" flag="0"/>
			<psa10 value="0.000352751121936674" flag="0"/>
			<psa30 value="6.1078649025185e-05" flag="0"/>
		</comp>
	</station>
	<station code="SALAN" name="SALAN" netid="CH" source="Switzerland Seismological Network" insttype="" lat="46.14415" lon="6.97302">
		<comp name="--.HGE" depth="0.0">
			<acc value="0.00555372458710419" flag="0"/>
			<vel value="0.00103876087231383" flag="0"/>
			<psa03 value="0.0052008992215583" flag="0"/>
			<psa10 value="0.000324393384000772" flag="0"/>
			<psa30 value="6.87527055711559e-05" flag="0"/>
		</comp>
		<comp name="--.HGN" depth="0.0">
			<acc value="0.00434661562346884" flag="0"/>
			<vel value="0.0010926381840562" flag="0"/>
			<psa03 value="0.00284355881452307" flag="0"/>
			<psa10 value="0.000345767631971273" flag="0"/>
			<psa30 value="6.46324781989578e-05" flag="0"/>
		</comp>
		<comp name="--.HGZ" depth="0.0">
			<acc value="0.00407182318175179" flag="0"/>
			<vel value="0.000849721455991944" flag="0"/>
			<psa03 value="0.00392381006336956" flag="0"/>
			<psa10 value="0.00021975502155901" flag="0"/>
			<psa30 value="6.82770946369662e-05" flag="0"/>
		</comp>
	</station>
	<station code="SAYF2" name="SAYF2" netid="CH" source="Switzerland Seismological Network" insttype="" lat="46.288025" lon="7.416981">
		<comp name="--.HGE" depth="0.0">
			<acc value="0.00888506732743738" flag="0"/>
			<vel value="0.00218068837668874" flag="0"/>
			<psa03 value="0.00698763607369886" flag="0"/>
			<psa10 value="0.000783882963553893" flag="0"/>
			<psa30 value="6.91160694859909e-05" flag="0"/>
		</comp>
		<comp name="--.HGN" depth="0.0">
			<acc value="0.00884791378301376" flag="0"/>
			<vel value="0.00247341031889396" flag="0"/>
			<psa03 value="0.00867749411222973" flag="0"/>
			<psa10 value="0.000681960645297074" flag="0"/>
			<psa30 value="9.10669376856131e-05" flag="0"/>
		</comp>
		<comp name="--.HGZ" depth="0.0">
			<acc value="0.0047302194969729" flag="0"/>
			<vel value="0.00140556906837746" flag="0"/>
			<psa03 value="0.01140005467684" flag="0"/>
			<psa10 value="0.00056620811397829" flag="0"/>
			<psa30 value="7.2071441045707e-05" flag="0"/>
		</comp>
	</station>
	<station code="SBRS" name="SBRS" netid="CH" source="Switzerland Seismological Network" insttype="" lat="46.31693" lon="7.98139">
		<comp name="--.HGE" depth="0.0">
			<acc value="0.0177489024480141" flag="0"/>
			<vel value="0.0029730863832044" flag="0"/>
			<psa03 value="0.0179041417906937" flag="0"/>
			<psa10 value="0.000739755020764132" flag="0"/>
			<psa30 value="7.91304503374204e-05" flag="0"/>
		</comp>
		<comp name="--.HGN" depth="0.0">
			<acc value="0.0254323467583781" flag="0"/>
			<vel value="0.00312307226639546" flag="0"/>
			<psa03 value="0.0129629681080299" flag="0"/>
			<psa10 value="0.00112768903980076" flag="0"/>
			<psa30 value="6.2446154980331e-05" flag="0"/>
		</comp>
		<comp name="--.HGZ" depth="0.0">
			<acc value="0.0181284415132581" flag="0"/>
			<vel value="0.00223496635450716" flag="0"/>
			<psa03 value="0.00709562434714512" flag="0"/>
			<psa10 value="0.000431965627322257" flag="0"/>
			<psa30 value="4.64787658392382e-05" flag="0"/>
		</comp>
	</station>
	<station code="SBUL" name="SBUL" netid="CH" source="Switzerland Seismological Network" insttype="" lat="46.62637" lon="7.05287">
		<comp name="--.HGE" depth="1.0">
			<acc value="0.00820501085057309" flag="0"/>
			<vel value="0.00167638052749774" flag="0"/>
			<psa03 value="0.00605385481419202" flag="0"/>
			<psa10 value="0.000659955476623972" flag="0"/>
			<psa30 value="8.7785359619934e-05" flag="0"/>
		</comp>
		<comp name="--.HGN" depth="1.0">
			<acc value="0.0068689004586768" flag="0"/>
			<vel value="0.00129069689725854" flag="0"/>
			<psa03 value="0.00480683633296163" flag="0"/>
			<psa10 value="0.000504569558070793" flag="0"/>
			<psa30 value="0.000104098731967498" flag="0"/>
		</comp>
		<comp name="--.HGZ" depth="1.0">
			<acc value="0.00261166100047327" flag="0"/>
			<vel value="0.000881671569168864" flag="0"/>
			<psa03 value="0.00531631604701453" flag="0"/>
			<psa10 value="0.00053001352876569" flag="0"/>
			<psa30 value="9.69842372295702e-05" flag="0"/>
		</comp>
	</station>
	<station code="SBUS" name="SBUS" netid="CH" source="Switzerland Seismological Network" insttype="" lat="46.978918" lon="8.420467">
		<comp name="SF.HGE" depth="0.0">
			<acc value="0.0038112091157916" flag="0"/>
			<vel value="0.00144525356991767" flag="0"/>
			<psa03 value="0.00573661114213624" flag="0"/>
			<psa10 value="0.00190539411363349" flag="0"/>
			<psa30 value="0.000133265599025294" flag="0"/>
		</comp>
		<comp name="SF.HGN" depth="0.0">
			<acc value="0.00435770641329882" flag="0"/>
			<vel value="0.00164111809604276" flag="0"/>
			<psa03 value="0.00444924721474916" flag="0"/>
			<psa10 value="0.00333835372767735" flag="0"/>
			<psa30 value="0.000142290233321486" flag="0"/>
		</comp>
		<comp name="SF.HGZ" depth="0.0">
			<acc value="0.00276215692106616" flag="0"/>
			<vel value="0.000804972534275406" flag="0"/>
			<psa03 value="0.00321527810056316" flag="0"/>
			<psa10 value="0.0011926145126695" flag="0"/>
			<psa30 value="0.000167103179140726" flag="0"/>
		</comp>
	</station>
	<station code="SCAS2" name="SCAS2" netid="CH" source="Switzerland Seismological Network" insttype="" lat="46.155187" lon="8.614781">
		<comp name="--.HGE" depth="1.0">
			<acc value="0.00313762104091133" flag="0"/>
			<vel value="0.000456529386344124" flag="0"/>
			<psa03 value="0.00135995906847811" flag="0"/>
			<psa10 value="0.000276968035272965" flag="0"/>
			<psa30 value="2.82584247163242e-05" flag="0"/>
		</comp>
		<comp name="--.HGN" depth="1.0">
			<acc value="0.00239401210018318" flag="0"/>
			<vel value="0.000453094209802864" flag="0"/>
			<psa03 value="0.00146079891919666" flag="0"/>
			<psa10 value="0.000408450104689412" flag="0"/>
			<psa30 value="3.3776794838559e-05" flag="0"/>
		</comp>
		<comp name="--.HGZ" depth="1.0">
			<acc value="0.000739875041002059" flag="0"/>
			<vel value="0.000318324298300379" flag="0"/>
			<psa03 value="0.000809221006007073" flag="0"/>
			<psa10 value="0.000348626258841271" flag="0"/>
			<psa30 value="3.37603516919937e-05" flag="0"/>
		</comp>
	</station>
	<station code="SCHAT" name="SCHAT" netid="CH" source="Switzerland Seismological Network" insttype="" lat="46.83148" lon="6.83527">
		<comp name="--.HGE" depth="1.0">
			<acc value="0.000257126534563399" flag="0"/>
			<vel value="0.000360588881796762" flag="0"/>
			<psa03 value="0.000370522185250386" flag="0"/>
			<psa10 value="0.000251928183146328" flag="0"/>
			<psa30 value="0.000160568488437008" flag="0"/>
		</comp>
		<comp name="--.HGN" depth="1.0">
			<acc value="0.000329015797388808" flag="0"/>
			<vel value="0.000760348213923903" flag="0"/>
			<psa03 value="0.000403033534931167" flag="0"/>
			<psa10 value="0.000603044167466244" flag="0"/>
			<psa30 value="0.000431763211568801" flag="0"/>
		</comp>
		<comp name="--.HGZ" depth="1.0">
			<acc value="0.000292193444839328" flag="0"/>
			<vel value="0.000439035142207172" flag="0"/>
			<psa03 value="0.000393087522866721" flag="0"/>
			<psa10 value="0.000319584012669192" flag="0"/>
			<psa30 value="0.000240548044502417" flag="0"/>
		</comp>
	</station>
	<station code="SCHIO" name="SCHIO" netid="CH" source="Switzerland Seismological Network" insttype="" lat="46.41375" lon="6.92843">
		<comp name="--.HGE" depth="0.0">
			<acc value="0.00575520510585579" flag="0"/>
			<vel value="0.000937199481546541" flag="0"/>
			<psa03 value="0.00251469246493945" flag="0"/>
			<psa10 value="0.000259633390844223" flag="0"/>
			<psa30 value="5.38997880445671e-05" flag="0"/>
		</comp>
		<comp name="--.HGN" depth="0.0">
			<acc value="0.0105210646010442" flag="0"/>
			<vel value="0.00127038903146517" flag="0"/>
			<psa03 value="0.00284599745263392" flag="0"/>
			<psa10 value="0.000415296622689446" flag="0"/>
			<psa30 value="7.33453405395742e-05" flag="0"/>
		</comp>
		<comp name="--.HGZ" depth="0.0">
			<acc value="0.00307869681287469" flag="0"/>
			<vel value="0.000588904276145787" flag="0"/>
			<psa03 value="0.0018099646278356" flag="0"/>
			<psa10 value="0.000258181458723461" flag="0"/>
			<psa30 value="6.17090228158307e-05" flag="0"/>
		</comp>
	</station>
	<station code="SCME" name="SCME" netid="CH" source="Switzerland Seismological Network" insttype="" lat="46.278053" lon="6.939356">
		<comp name="BT.HG2" depth="0.0">
			<acc value="0.0132488248765725" flag="0"/>
			<vel value="0.00338724242735477" flag="0"/>
			<psa03 value="0.0116416357845697" flag="0"/>
			<psa10 value="0.00182447441716174" flag="0"/>
			<psa30 value="0.000130440099349729" flag="0"/>
		</comp>
		<comp name="BT.HG3" depth="0.0">
			<acc value="0.0230543629968332" flag="0"/>
			<vel value="0.00654108242158497" flag="0"/>
			<psa03 value="0.0191485276105542" flag="0"/>
			<psa10 value="0.00123235519217263" flag="0"/>
			<psa30 value="0.000211281847948186" flag="0"/>
		</comp>
		<comp name="BT.HGZ" depth="0.0">
			<acc value="0.00636680814442963" flag="0"/>
			<vel value="0.00158478666247658" flag="0"/>
			<psa03 value="0.00617520139449189" flag="0"/>
			<psa10 value="0.00158072666850966" flag="0"/>
			<psa30 value="0.000145775646504352" flag="0"/>
		</comp>
		<comp name="SF.HGE" depth="0.0">
			<acc value="0.0370763039285615" flag="0"/>
			<vel value="0.0138107654883267" flag="0"/>
			<psa03 value="0.0640085787957641" flag="0"/>
			<psa10 value="0.0030997624534238" flag="0"/>
			<psa30 value="0.000371960968713792" flag="0"/>
		</comp>
		<comp name="SF.HGN" depth="0.0">
			<acc value="0.0383070739634978" flag="0"/>
			<vel value="0.0106785720964991" flag="0"/>
			<psa03 value="0.0307542143991147" flag="0"/>
			<psa10 value="0.0032076648358041" flag="0"/>
			<psa30 value="0.000205834924616127" flag="0"/>
		</comp>
		<comp name="SF.HGZ" depth="0.0">
			<acc value="0.0125096648243271" flag="0"/>
			<vel value="0.00281232580267058" flag="0"/>
			<psa03 value="0.00971871933829769" flag="0"/>
			<psa10 value="0.0015190465668808" flag="0"/>
			<psa30 value="7.76724566170009e-05" flag="0"/>
		</comp>
	</station>
