<?xml version="1.0" encoding="UTF-8" standalone="yes"?>
<!DOCTYPE earthquake SYSTEM "stationlist.dtd">
<stationlist created="" xmlns="ch.ethz.sed.shakemap.usgs.xml">
  <station code="CI20" name="CI20" netid="8C" insttype="" lat="45.8203" lon="6.96349">
    <comp name="00.HHE">
      <acc value="0.0203498016" flag="0"/>
      <vel value="0.0039502928" flag="0"/>
      <psa03 value="0.0119772075" flag="0"/>
      <psa10 value="0.0008450030" flag="0"/>
      <psa30 value="0.0000754212" flag="0"/>
    </comp>
    <comp name="00.HHN">
      <acc value="0.0301210522" flag="0"/>
      <vel value="0.0078044494" flag="0"/>
      <psa03 value="0.0260183662" flag="0"/>
      <psa10 value="0.0018370472" flag="0"/>
      <psa30 value="0.0001486115" flag="0"/>
    </comp>
    <comp name="00.HHZ">
      <acc value="0.0321873651" flag="0"/>
      <vel value="0.0046615816" flag="0"/>
      <psa03 value="0.0124522283" flag="0"/>
      <psa10 value="0.0006040480" flag="0"/>
      <psa30 value="0.0000632702" flag="0"/>
    </comp>
  </station>
  <station code="OG02" name="OG02" netid="FR" insttype="" lat="46.1542" lon="6.22021">
    <comp name="00.HNE">
      <acc value="0.0066808102" flag="0"/>
      <vel value="0.0014051230" flag="0"/>
      <psa03 value="0.0053934192" flag="0"/>
      <psa10 value="0.0007994465" flag="0"/>
      <psa30 value="0.0000717639" flag="0"/>
    </comp>
    <comp name="00.HNN">
      <acc value="0.0047440562" flag="0"/>
      <vel value="0.0009296496" flag="0"/>
      <psa03 value="0.0036471833" flag="0"/>
      <psa10 value="0.0006825827" flag="0"/>
      <psa30 value="0.0000873146" flag="0"/>
    </comp>
    <comp name="00.HNZ">
      <acc value="0.0063249379" flag="0"/>
      <vel value="0.0008662665" flag="0"/>
      <psa03 value="0.0032624998" flag="0"/>
      <psa10 value="0.0004757216" flag="0"/>
      <psa30 value="0.0001084773" flag="0"/>
    </comp>
  </station>
  <station code="OG35" name="OG35" netid="FR" insttype="" lat="46.0445" lon="5.57127">
    <comp name="00.HNE">
      <acc value="0.0211721306" flag="0"/>
      <vel value="0.0028208168" flag="0"/>
      <psa03 value="0.0117095914" flag="0"/>
      <psa10 value="0.0006473457" flag="0"/>
      <psa30 value="0.0001135846" flag="0"/>
    </comp>
    <comp name="00.HNN">
      <acc value="0.0226034253" flag="0"/>
      <vel value="0.0028248660" flag="0"/>
      <psa03 value="0.0092187247" flag="0"/>
      <psa10 value="0.0008295355" flag="0"/>
      <psa30 value="0.0001042936" flag="0"/>
    </comp>
    <comp name="00.HNZ">
      <acc value="0.0095139888" flag="0"/>
      <vel value="0.0021426175" flag="0"/>
      <psa03 value="0.0104255485" flag="0"/>
      <psa10 value="0.0006242391" flag="0"/>
      <psa30 value="0.0000846027" flag="0"/>
    </comp>
  </station>
  <station code="OGAG" name="OGAG" netid="FR" insttype="" lat="44.7878" lon="6.53974">
    <comp name="00.HNE">
      <acc value="0.0024437191" flag="0"/>
      <vel value="0.0010416227" flag="0"/>
      <psa03 value="0.0045618355" flag="0"/>
      <psa10 value="0.0008076694" flag="0"/>
      <psa30 value="0.0000528646" flag="0"/>
    </comp>
    <comp name="00.HNN">
      <acc value="0.0025843338" flag="0"/>
      <vel value="0.0012365432" flag="0"/>
      <psa03 value="0.0047334421" flag="0"/>
      <psa10 value="0.0006625755" flag="0"/>
      <psa30 value="0.0000516561" flag="0"/>
    </comp>
    <comp name="00.HNZ">
      <acc value="0.0025198618" flag="0"/>
      <vel value="0.0006910180" flag="0"/>
      <psa03 value="0.0031037085" flag="0"/>
      <psa10 value="0.0004883404" flag="0"/>
      <psa30 value="0.0000466956" flag="0"/>
    </comp>
  </station>
  <station code="OGMO" name="OGMO" netid="FR" insttype="TRILLIUM-Compact" lat="45.2086" lon="6.68308">
    <comp name="00.HHE">
      <acc value="0.0454629986" flag="0"/>
      <vel value="0.0092608781" flag="0"/>
      <psa03 value="0.0535851746" flag="0"/>
      <psa10 value="0.0022308923" flag="0"/>
      <psa30 value="0.0002173503" flag="0"/>
    </comp>
    <comp name="00.HHN">
      <acc value="0.0291287976" flag="0"/>
      <vel value="0.0061585237" flag="0"/>
      <psa03 value="0.0477381178" flag="0"/>
      <psa10 value="0.0016089310" flag="0"/>
      <psa30 value="0.0001304484" flag="0"/>
    </comp>
    <comp name="00.HHZ">
      <acc value="0.0349668882" flag="0"/>
      <vel value="0.0096767578" flag="0"/>
      <psa03 value="0.0297881025" flag="0"/>
      <psa10 value="0.0019991609" flag="0"/>
      <psa30 value="0.0001649184" flag="0"/>
    </comp>
  </station>
  <station code="OGS1" name="OGS1" netid="FR" insttype="" lat="45.0608" lon="5.80467">
    <comp name="00.HNE">
      <acc value="0.0163898354" flag="0"/>
      <vel value="0.0039945719" flag="0"/>
      <psa03 value="0.0137190211" flag="0"/>
      <psa10 value="0.0005809053" flag="0"/>
      <psa30 value="0.0002920672" flag="0"/>
    </comp>
    <comp name="00.HNN">
      <acc value="0.0119489633" flag="0"/>
      <vel value="0.0022240020" flag="0"/>
      <psa03 value="0.0106691248" flag="0"/>
      <psa10 value="0.0004457710" flag="0"/>
      <psa30 value="0.0001372821" flag="0"/>
    </comp>
    <comp name="00.HNZ">
      <acc value="0.0074618858" flag="0"/>
      <vel value="0.0039749688" flag="0"/>
      <psa03 value="0.0041286161" flag="0"/>
      <psa10 value="0.0008645869" flag="0"/>
      <psa30 value="0.0011708375" flag="0"/>
    </comp>
  </station>
  <station code="OGS3" name="OGS3" netid="FR" insttype="" lat="45.0695" lon="5.80607">
    <comp name="00.HNE">
      <acc value="0.0037348575" flag="0"/>
      <vel value="0.0005570000" flag="0"/>
      <psa03 value="0.0021647793" flag="0"/>
      <psa10 value="0.0003978239" flag="0"/>
      <psa30 value="0.0000559694" flag="0"/>
    </comp>
    <comp name="00.HNN">
      <acc value="0.0035707141" flag="0"/>
      <vel value="0.0005214069" flag="0"/>
      <psa03 value="0.0023206357" flag="0"/>
      <psa10 value="0.0003606838" flag="0"/>
      <psa30 value="0.0000491726" flag="0"/>
    </comp>
    <comp name="00.HNZ">
      <acc value="0.0039197812" flag="0"/>
      <vel value="0.0008175393" flag="0"/>
      <psa03 value="0.0022712954" flag="0"/>
      <psa10 value="0.0002148306" flag="0"/>
      <psa30 value="0.0000470711" flag="0"/>
    </comp>
  </station>
  <station code="OGSI" name="OGSI" netid="FR" insttype="" lat="46.0565" lon="6.75688">
    <comp name="00.HNE">
      <acc value="0.0056008604" flag="0"/>
      <vel value="0.0008490541" flag="0"/>
      <psa03 value="0.0042508242" flag="0"/>
      <psa10 value="0.0003596857" flag="0"/>
      <psa30 value="0.0000513448" flag="0"/>
    </comp>
    <comp name="00.HNN">
      <acc value="0.0058503010" flag="0"/>
      <vel value="0.0009722118" flag="0"/>
      <psa03 value="0.0033497496" flag="0"/>
      <psa10 value="0.0002828971" flag="0"/>
      <psa30 value="0.0000307357" flag="0"/>
    </comp>
    <comp name="00.HNZ">
      <acc value="0.0055985402" flag="0"/>
      <vel value="0.0011194119" flag="0"/>
      <psa03 value="0.0054622832" flag="0"/>
      <psa10 value="0.0005318466" flag="0"/>
      <psa30 value="0.0000422414" flag="0"/>
    </comp>
  </station>
  <station code="OGSM" name="OGSM" netid="FR" insttype="" lat="45.6092" lon="5.69722">
    <comp name="00.HNE">
      <acc value="0.0158746648" flag="0"/>
      <vel value="0.0025659863" flag="0"/>
      <psa03 value="0.0112543918" flag="0"/>
      <psa10 value="0.0011717693" flag="0"/>
      <psa30 value="0.0000581787" flag="0"/>
    </comp>
    <comp name="00.HNN">
      <acc value="0.0204462237" flag="0"/>
      <vel value="0.0034222773" flag="0"/>
      <psa03 value="0.0135003223" flag="0"/>
      <psa10 value="0.0011959766" flag="0"/>
      <psa30 value="0.0000966638" flag="0"/>
    </comp>
    <comp name="00.HNZ">
      <acc value="0.0149684730" flag="0"/>
      <vel value="0.0051878717" flag="0"/>
      <psa03 value="0.0230170306" flag="0"/>
      <psa10 value="0.0010528989" flag="0"/>
      <psa30 value="0.0001025933" flag="0"/>
    </comp>
  </station>
  <station code="BLANC" name="BLANC" netid="GU" insttype="" lat="45.8444" lon="6.934">
    <comp name="--.HHE">
      <acc value="0.0123188501" flag="0"/>
      <vel value="0.0048300529" flag="0"/>
      <psa03 value="0.0282252736" flag="0"/>
      <psa10 value="0.0023188997" flag="0"/>
      <psa30 value="0.0001740537" flag="0"/>
    </comp>
    <comp name="--.HHN">
      <acc value="0.0127864273" flag="0"/>
      <vel value="0.0034097644" flag="0"/>
      <psa03 value="0.0109114321" flag="0"/>
      <psa10 value="0.0018846019" flag="0"/>
      <psa30 value="0.0001245064" flag="0"/>
    </comp>
    <comp name="--.HHZ">
      <acc value="0.0075757006" flag="0"/>
      <vel value="0.0023555821" flag="0"/>
      <psa03 value="0.0194404243" flag="0"/>
      <psa10 value="0.0009331698" flag="0"/>
      <psa30 value="0.0000645357" flag="0"/>
    </comp>
  </station>
  <station code="BNI" name="BNI" netid="MN" insttype="" lat="45.052" lon="6.678">
    <comp name="--.HNE">
      <acc value="0.0051310789" flag="0"/>
      <vel value="0.0012057538" flag="0"/>
      <psa03 value="0.0049011957" flag="0"/>
      <psa10 value="0.0003529341" flag="0"/>
      <psa30 value="0.0000426421" flag="0"/>
    </comp>
    <comp name="--.HNN">
      <acc value="0.0078568211" flag="0"/>
      <vel value="0.0018291560" flag="0"/>
      <psa03 value="0.0048870529" flag="0"/>
      <psa10 value="0.0002874939" flag="0"/>
      <psa30 value="0.0000544771" flag="0"/>
    </comp>
    <comp name="--.HNZ">
      <acc value="0.0059893078" flag="0"/>
      <vel value="0.0013468651" flag="0"/>
      <psa03 value="0.0059242478" flag="0"/>
      <psa10 value="0.0003872229" flag="0"/>
      <psa30 value="0.0000846682" flag="0"/>
    </comp>
  </station>
  <station code="OGAN" name="OGAN" netid="RA" insttype="" lat="45.8918" lon="6.13555">
    <comp name="00.HNE">
      <acc value="0.0346913906" flag="0"/>
      <vel value="0.0082944171" flag="0"/>
      <psa03 value="0.0246253727" flag="0"/>
      <psa10 value="0.0014199287" flag="0"/>
      <psa30 value="0.0002029467" flag="0"/>
    </comp>
    <comp name="00.HNN">
      <acc value="0.0732692072" flag="0"/>
      <vel value="0.0215084569" flag="0"/>
      <psa03 value="0.0641534812" flag="0"/>
      <psa10 value="0.0039315778" flag="0"/>
      <psa30 value="0.0005164735" flag="0"/>
    </comp>
    <comp name="00.HNZ">
      <acc value="0.0323670070" flag="0"/>
      <vel value="0.0074597156" flag="0"/>
      <psa03 value="0.0310679784" flag="0"/>
      <psa10 value="0.0019801446" flag="0"/>
      <psa30 value="0.0002075618" flag="0"/>
    </comp>
  </station>
  <station code="OGBA" name="OGBA" netid="RA" insttype="" lat="45.6367" lon="5.88412">
    <comp name="00.HNE">
      <acc value="0.0470328130" flag="0"/>
      <vel value="0.0112267737" flag="0"/>
      <psa03 value="0.0588200836" flag="0"/>
      <psa10 value="0.0176775343" flag="0"/>
      <psa30 value="0.0004790824" flag="0"/>
    </comp>
    <comp name="00.HNN">
      <acc value="0.0485348046" flag="0"/>
      <vel value="0.0155997484" flag="0"/>
      <psa03 value="0.0619236270" flag="0"/>
      <psa10 value="0.0151926226" flag="0"/>
      <psa30 value="0.0006993831" flag="0"/>
    </comp>
    <comp name="00.HNZ">
      <acc value="0.0662730080" flag="0"/>
      <vel value="0.0095685873" flag="0"/>
      <psa03 value="0.0343059806" flag="0"/>
      <psa10 value="0.0043234952" flag="0"/>
      <psa30 value="0.0002639693" flag="0"/>
    </comp>
  </station>
  <station code="OGBC" name="OGBC" netid="RA" insttype="" lat="45.589" lon="5.93226">
    <comp name="00.HNZ">
      <acc value="0.0249142764" flag="0"/>
      <vel value="0.0031077552" flag="0"/>
      <psa03 value="0.0091293819" flag="0"/>
      <psa10 value="0.0009602254" flag="0"/>
      <psa30 value="0.0000968266" flag="0"/>
    </comp>
  </station>
  <station code="OGFO" name="OGFO" netid="RA" insttype="" lat="45.2087" lon="5.82101">
    <comp name="00.HNE">
      <acc value="0.0201902896" flag="0"/>
      <vel value="0.0048693682" flag="0"/>
      <psa03 value="0.0152925804" flag="0"/>
      <psa10 value="0.0051843321" flag="0"/>
      <psa30 value="0.0008357380" flag="0"/>
    </comp>
    <comp name="00.HNN">
      <acc value="0.0283280204" flag="0"/>
      <vel value="0.0043241035" flag="0"/>
      <psa03 value="0.0207420228" flag="0"/>
      <psa10 value="0.0035041022" flag="0"/>
      <psa30 value="0.0009075558" flag="0"/>
    </comp>
    <comp name="00.HNZ">
      <acc value="0.0204954658" flag="0"/>
      <vel value="0.0022044160" flag="0"/>
      <psa03 value="0.0093993512" flag="0"/>
      <psa10 value="0.0020039948" flag="0"/>
      <psa30 value="0.0001664674" flag="0"/>
    </comp>
  </station>
  <station code="OGLE" name="OGLE" netid="RA" insttype="" lat="45.5326" lon="6.4726">
    <comp name="00.HNE">
      <acc value="0.3203022952" flag="0"/>
      <vel value="0.0439111980" flag="0"/>
      <psa03 value="0.1725979953" flag="0"/>
      <psa10 value="0.0078133555" flag="0"/>
      <psa30 value="0.0008681251" flag="0"/>
    </comp>
    <comp name="00.HNN">
      <acc value="0.1815303505" flag="0"/>
      <vel value="0.0277248553" flag="0"/>
      <psa03 value="0.0803408030" flag="0"/>
      <psa10 value="0.0042675656" flag="0"/>
      <psa30 value="0.0004626385" flag="0"/>
    </comp>
    <comp name="00.HNZ">
      <acc value="0.1349796857" flag="0"/>
      <vel value="0.0218027842" flag="0"/>
      <psa03 value="0.0885123378" flag="0"/>
      <psa10 value="0.0052666445" flag="0"/>
      <psa30 value="0.0006342693" flag="0"/>
    </comp>
  </station>
</stationlist>
