<?xml version="1.0" encoding="UTF-8" standalone="yes"?>
<!DOCTYPE earthquake SYSTEM "stationlist.dtd">
<stationlist created="" xmlns="ch.ethz.sed.shakemap.usgs.xml">
  <station code="AMRR" name="AMRR" netid="RO" insttype="330" lat="44.6102" lon="27.3351">
    <comp name="--.HHE">
      <acc value="0.0585559240" flag="0"/>
      <vel value="0.0249286486" flag="0"/>
      <psa03 value="0.0760685702" flag="0"/>
      <psa10 value="0.0085994473" flag="0"/>
      <psa30 value="0.0010329794" flag="0"/>
    </comp>
    <comp name="--.HHN">
      <acc value="0.0383339129" flag="0"/>
      <vel value="0.0149273437" flag="0"/>
      <psa03 value="0.0946518570" flag="0"/>
      <psa10 value="0.0109899888" flag="0"/>
      <psa30 value="0.0010153142" flag="0"/>
    </comp>
    <comp name="--.HHZ">
      <acc value="0.0376595445" flag="0"/>
      <vel value="0.0083359908" flag="0"/>
      <psa03 value="0.0403985162" flag="0"/>
      <psa10 value="0.0037426936" flag="0"/>
      <psa30 value="0.0003641552" flag="0"/>
    </comp>
  </station>
  <station code="BAPR" name="BAPR" netid="RO" insttype="2.5V" lat="44.4059" lon="26.119">
    <comp name="--.HNE">
      <acc value="0.0127468677" flag="0"/>
      <vel value="0.0047244820" flag="0"/>
      <psa03 value="0.0244504314" flag="0"/>
      <psa10 value="0.0042365886" flag="0"/>
      <psa30 value="0.0007784236" flag="0"/>
    </comp>
    <comp name="--.HNZ">
      <acc value="0.0141865203" flag="0"/>
      <vel value="0.0041607889" flag="0"/>
      <psa03 value="0.0137250935" flag="0"/>
      <psa10 value="0.0023783163" flag="0"/>
      <psa30 value="0.0007579580" flag="0"/>
    </comp>
    <comp name="--.HNN">
      <acc value="0.0173278578" flag="0"/>
      <vel value="0.0068303547" flag="0"/>
      <psa03 value="0.0566809442" flag="0"/>
      <psa10 value="0.0043540440" flag="0"/>
      <psa30 value="0.0005863258" flag="0"/>
    </comp>
  </station>
  <station code="BIR" name="BIR" netid="RO" insttype="MBB2/Quanterra" lat="46.2334" lon="27.6436">
    <comp name="--.HHZ">
      <acc value="0.0289397966" flag="0"/>
      <vel value="0.0090156648" flag="0"/>
      <psa03 value="0.0639335260" flag="0"/>
      <psa10 value="0.0039082413" flag="0"/>
      <psa30 value="0.0002705536" flag="0"/>
    </comp>
    <comp name="--.HHN">
      <acc value="0.0392685033" flag="0"/>
      <vel value="0.0124444917" flag="0"/>
      <psa03 value="0.0838811449" flag="0"/>
      <psa10 value="0.0075264055" flag="0"/>
      <psa30 value="0.0005675949" flag="0"/>
    </comp>
    <comp name="--.HHE">
      <acc value="0.0370789620" flag="0"/>
      <vel value="0.0115262408" flag="0"/>
      <psa03 value="0.0943444384" flag="0"/>
      <psa10 value="0.0073467717" flag="0"/>
      <psa30 value="0.0004789921" flag="0"/>
    </comp>
  </station>
  <station code="BISRR" name="BISRR" netid="RO" insttype="CMG40T.1to100/Basalt" lat="45.5481" lon="26.7099">
    <comp name="--.HHE">
      <acc value="0.2173438833" flag="0"/>
      <vel value="0.1256578627" flag="0"/>
      <psa03 value="0.4861281427" flag="0"/>
      <psa10 value="0.1890980104" flag="0"/>
      <psa30 value="0.0109438157" flag="0"/>
    </comp>
    <comp name="--.HHN">
      <acc value="0.1903572758" flag="0"/>
      <vel value="0.1038133317" flag="0"/>
      <psa03 value="0.5258448043" flag="0"/>
      <psa10 value="0.1751516517" flag="0"/>
      <psa30 value="0.0085506386" flag="0"/>
    </comp>
    <comp name="--.HHZ">
      <acc value="0.1479981326" flag="0"/>
      <vel value="0.0528335321" flag="0"/>
      <psa03 value="0.3014141484" flag="0"/>
      <psa10 value="0.0528703943" flag="0"/>
      <psa30 value="0.0026951138" flag="0"/>
    </comp>
  </station>
  <station code="CFR" name="CFR" netid="RO" insttype="CMG3T_100sec/Quanterra" lat="45.178" lon="28.1362">
    <comp name="--.HHE">
      <acc value="0.0722961046" flag="0"/>
      <vel value="0.0119642876" flag="0"/>
      <psa03 value="0.0509977438" flag="0"/>
      <psa10 value="0.0039868277" flag="0"/>
      <psa30 value="0.0002704257" flag="0"/>
    </comp>
    <comp name="--.HHN">
      <acc value="0.1126727012" flag="0"/>
      <vel value="0.0219018351" flag="0"/>
      <psa03 value="0.0566247851" flag="0"/>
      <psa10 value="0.0033597833" flag="0"/>
      <psa30 value="0.0004454846" flag="0"/>
    </comp>
    <comp name="--.HHZ">
      <acc value="0.0649798369" flag="0"/>
      <vel value="0.0087952303" flag="0"/>
      <psa03 value="0.0313616037" flag="0"/>
      <psa10 value="0.0039317344" flag="0"/>
      <psa30 value="0.0003388631" flag="0"/>
    </comp>
  </station>
  <station code="COPR" name="COPR" netid="RO" insttype="200" lat="45.8442" lon="26.1687">
    <comp name="--.HNE">
      <acc value="0.0095003394" flag="0"/>
      <vel value="0.0072789294" flag="0"/>
      <psa03 value="0.0411529670" flag="0"/>
      <psa10 value="0.0120127707" flag="0"/>
      <psa30 value="0.0007849193" flag="0"/>
    </comp>
    <comp name="--.HNN">
      <acc value="0.0084334648" flag="0"/>
      <vel value="0.0085618966" flag="0"/>
      <psa03 value="0.0264359648" flag="0"/>
      <psa10 value="0.0169727632" flag="0"/>
      <psa30 value="0.0008739878" flag="0"/>
    </comp>
    <comp name="--.HNZ">
      <acc value="0.0071849450" flag="0"/>
      <vel value="0.0041642452" flag="0"/>
      <psa03 value="0.0205260006" flag="0"/>
      <psa10 value="0.0040733161" flag="0"/>
      <psa30 value="0.0005768126" flag="0"/>
    </comp>
  </station>
  <station code="GISR" name="GISR" netid="RO" insttype="2.5V" lat="45.4411" lon="28.0541">
    <comp name="--.HNE">
      <acc value="0.0566540818" flag="0"/>
      <vel value="0.0188159277" flag="0"/>
      <psa03 value="0.1136043760" flag="0"/>
      <psa10 value="0.0098050386" flag="0"/>
      <psa30 value="0.0012811181" flag="0"/>
    </comp>
    <comp name="--.HNZ">
      <acc value="0.0543838755" flag="0"/>
      <vel value="0.0110450917" flag="0"/>
      <psa03 value="0.0874841012" flag="0"/>
      <psa10 value="0.0050058559" flag="0"/>
      <psa30 value="0.0005434107" flag="0"/>
    </comp>
    <comp name="--.HNN">
      <acc value="0.0653539782" flag="0"/>
      <vel value="0.0177650683" flag="0"/>
      <psa03 value="0.0816249614" flag="0"/>
      <psa10 value="0.0111880964" flag="0"/>
      <psa30 value="0.0010443381" flag="0"/>
    </comp>
  </station>
  <station code="HARR" name="HARR" netid="RO" insttype="MBB2/Quanterra" lat="44.6893" lon="27.9303">
    <comp name="--.HHE">
      <acc value="0.0396080690" flag="0"/>
      <vel value="0.0122728908" flag="0"/>
      <psa03 value="0.0592647090" flag="0"/>
      <psa10 value="0.0119515760" flag="0"/>
      <psa30 value="0.0006214906" flag="0"/>
    </comp>
    <comp name="--.HHN">
      <acc value="0.0499709179" flag="0"/>
      <vel value="0.0222006696" flag="0"/>
      <psa03 value="0.0922973801" flag="0"/>
      <psa10 value="0.0259698722" flag="0"/>
      <psa30 value="0.0009966789" flag="0"/>
    </comp>
    <comp name="--.HHZ">
      <acc value="0.0322556895" flag="0"/>
      <vel value="0.0073053320" flag="0"/>
      <psa03 value="0.0372129144" flag="0"/>
      <psa10 value="0.0039238962" flag="0"/>
      <psa30 value="0.0003147830" flag="0"/>
    </comp>
  </station>
  <station code="INCR" name="INCR" netid="RO" insttype="200" lat="44.441" lon="26.1611">
    <comp name="--.HNZ">
      <acc value="0.0184459157" flag="0"/>
      <vel value="0.0064050994" flag="0"/>
      <psa03 value="0.0281563258" flag="0"/>
      <psa10 value="0.0037373781" flag="0"/>
      <psa30 value="0.0002498023" flag="0"/>
    </comp>
    <comp name="--.HNN">
      <acc value="0.0096524397" flag="0"/>
      <vel value="0.0045302384" flag="0"/>
      <psa03 value="0.0225425054" flag="0"/>
      <psa10 value="0.0044321794" flag="0"/>
      <psa30 value="0.0004628787" flag="0"/>
    </comp>
    <comp name="--.HNE">
      <acc value="0.0097000717" flag="0"/>
      <vel value="0.0034404608" flag="0"/>
      <psa03 value="0.0220312337" flag="0"/>
      <psa10 value="0.0036663375" flag="0"/>
      <psa30 value="0.0005879905" flag="0"/>
    </comp>
  </station>
  <station code="ISR" name="ISR" netid="RO" insttype="CMG3ESP/Quanterra" lat="45.1187" lon="26.5432">
    <comp name="--.HHN">
      <acc value="0.0238902744" flag="0"/>
      <vel value="0.0150531620" flag="0"/>
      <psa03 value="0.0708545178" flag="0"/>
      <psa10 value="0.0159249852" flag="0"/>
      <psa30 value="0.0013775417" flag="0"/>
    </comp>
    <comp name="--.HHE">
      <acc value="0.0206632903" flag="0"/>
      <vel value="0.0182760861" flag="0"/>
      <psa03 value="0.0420162271" flag="0"/>
      <psa10 value="0.0236581959" flag="0"/>
      <psa30 value="0.0020931087" flag="0"/>
    </comp>
    <comp name="--.HHZ">
      <acc value="0.0131368049" flag="0"/>
      <vel value="0.0074914357" flag="0"/>
      <psa03 value="0.0315185753" flag="0"/>
      <psa10 value="0.0076849024" flag="0"/>
      <psa30 value="0.0010221457" flag="0"/>
    </comp>
  </station>
  <station code="IZVR" name="IZVR" netid="RO" insttype="CMG40T.1to100/Quanterra" lat="45.5442" lon="27.7655">
    <comp name="--.HHN">
      <acc value="0.0502561042" flag="0"/>
      <vel value="0.0120776212" flag="0"/>
      <psa03 value="0.0547639284" flag="0"/>
      <psa10 value="0.0039073274" flag="0"/>
      <psa30 value="0.0006144768" flag="0"/>
    </comp>
    <comp name="--.HHE">
      <acc value="0.0609062750" flag="0"/>
      <vel value="0.0116916936" flag="0"/>
      <psa03 value="0.0325451482" flag="0"/>
      <psa10 value="0.0033256008" flag="0"/>
      <psa30 value="0.0002330043" flag="0"/>
    </comp>
    <comp name="--.HHZ">
      <acc value="0.0304476119" flag="0"/>
      <vel value="0.0042064195" flag="0"/>
      <psa03 value="0.0146598763" flag="0"/>
      <psa10 value="0.0012214575" flag="0"/>
      <psa30 value="0.0000942542" flag="0"/>
    </comp>
  </station>
  <station code="MLR" name="MLR" netid="RO" insttype="330HR" lat="45.4909" lon="25.945">
    <comp name="--.HHN">
      <acc value="0.0024800829" flag="0"/>
      <vel value="0.0028887705" flag="0"/>
      <psa03 value="0.0091748358" flag="0"/>
      <psa10 value="0.0021946498" flag="0"/>
      <psa30 value="0.0008591954" flag="0"/>
    </comp>
    <comp name="--.HHE">
      <acc value="0.0030344041" flag="0"/>
      <vel value="0.0028190613" flag="0"/>
      <psa03 value="0.0130617050" flag="0"/>
      <psa10 value="0.0021912970" flag="0"/>
      <psa30 value="0.0009857307" flag="0"/>
    </comp>
    <comp name="--.HHZ">
      <acc value="0.0018084551" flag="0"/>
      <vel value="0.0017124513" flag="0"/>
      <psa03 value="0.0059696079" flag="0"/>
      <psa10 value="0.0017590417" flag="0"/>
      <psa30 value="0.0004011075" flag="0"/>
    </comp>
  </station>
  <station code="NARR" name="NARR" netid="RO" insttype="OBS-SIO/Centaur" lat="45.8165" lon="26.7368">
    <comp name="--.HHN">
      <acc value="0.0294291619" flag="0"/>
      <vel value="0.0147781361" flag="0"/>
      <psa03 value="0.0731683129" flag="0"/>
      <psa10 value="0.0081101092" flag="0"/>
      <psa30 value="0.0015383357" flag="0"/>
    </comp>
    <comp name="--.HHZ">
      <acc value="0.0179718597" flag="0"/>
      <vel value="0.0052997990" flag="0"/>
      <psa03 value="0.0311099638" flag="0"/>
      <psa10 value="0.0031048304" flag="0"/>
      <psa30 value="0.0007122720" flag="0"/>
    </comp>
    <comp name="--.HHE">
      <acc value="0.0231006926" flag="0"/>
      <vel value="0.0124812239" flag="0"/>
      <psa03 value="0.0528384534" flag="0"/>
      <psa10 value="0.0107088777" flag="0"/>
      <psa30 value="0.0011246053" flag="0"/>
    </comp>
  </station>
  <station code="NEGRR" name="NEGRR" netid="RO" insttype="CMG40T.1to100/Quanterra" lat="45.5373" lon="27.8771">
    <comp name="--.HHE">
      <acc value="0.0710438253" flag="0"/>
      <vel value="0.0124572041" flag="0"/>
      <psa03 value="0.0534515326" flag="0"/>
      <psa10 value="0.0030492488" flag="0"/>
      <psa30 value="0.0003003700" flag="0"/>
    </comp>
    <comp name="--.HHN">
      <acc value="0.0711330427" flag="0"/>
      <vel value="0.0175262327" flag="0"/>
      <psa03 value="0.0824206029" flag="0"/>
      <psa10 value="0.0054727490" flag="0"/>
      <psa30 value="0.0005896111" flag="0"/>
    </comp>
    <comp name="--.HHZ">
      <acc value="0.0313031618" flag="0"/>
      <vel value="0.0057802269" flag="0"/>
      <psa03 value="0.0278870584" flag="0"/>
      <psa10 value="0.0013094512" flag="0"/>
      <psa30 value="0.0001341337" flag="0"/>
    </comp>
  </station>
  <station code="ODBI" name="ODBI" netid="RO" insttype="200" lat="45.7633" lon="27.0558">
    <comp name="--.HNE">
      <acc value="0.0399467515" flag="0"/>
      <vel value="0.0140263673" flag="0"/>
      <psa03 value="0.0609761305" flag="0"/>
      <psa10 value="0.0195944603" flag="0"/>
      <psa30 value="0.0016527704" flag="0"/>
    </comp>
    <comp name="--.HNZ">
      <acc value="0.0909405040" flag="0"/>
      <vel value="0.0154178470" flag="0"/>
      <psa03 value="0.0588817443" flag="0"/>
      <psa10 value="0.0118863658" flag="0"/>
      <psa30 value="0.0010963188" flag="0"/>
    </comp>
    <comp name="--.HNN">
      <acc value="0.0319983649" flag="0"/>
      <vel value="0.0196135071" flag="0"/>
      <psa03 value="0.0464126248" flag="0"/>
      <psa10 value="0.0285716377" flag="0"/>
      <psa30 value="0.0021247802" flag="0"/>
    </comp>
  </station>
  <station code="ONER" name="ONER" netid="RO" insttype="CMG40T.1to100/obsidian" lat="46.3349" lon="26.394">
    <comp name="--.HHE">
      <acc value="0.0023546292" flag="0"/>
      <vel value="0.0014387922" flag="0"/>
      <psa03 value="0.0037789199" flag="0"/>
      <psa10 value="0.0016930320" flag="0"/>
      <psa30 value="0.0000922465" flag="0"/>
    </comp>
    <comp name="--.HHZ">
      <acc value="0.0018411972" flag="0"/>
      <vel value="0.0010111214" flag="0"/>
      <psa03 value="0.0043106723" flag="0"/>
      <psa10 value="0.0023520356" flag="0"/>
      <psa30 value="0.0001432916" flag="0"/>
    </comp>
    <comp name="--.HHN">
      <acc value="0.0025806044" flag="0"/>
      <vel value="0.0015756961" flag="0"/>
      <psa03 value="0.0026978652" flag="0"/>
      <psa10 value="0.0018640368" flag="0"/>
      <psa30 value="0.0001201682" flag="0"/>
    </comp>
  </station>
  <station code="PANC" name="PANC" netid="RO" insttype="Seismometer/Basalt" lat="45.8723" lon="27.1477">
    <comp name="--.HHN">
      <acc value="0.0409062661" flag="0"/>
      <vel value="0.0123572703" flag="0"/>
      <psa03 value="0.0512849591" flag="0"/>
      <psa10 value="0.0094155428" flag="0"/>
      <psa30 value="0.0011365053" flag="0"/>
    </comp>
    <comp name="--.HHE">
      <acc value="0.0498054025" flag="0"/>
      <vel value="0.0135844176" flag="0"/>
      <psa03 value="0.0466559603" flag="0"/>
      <psa10 value="0.0148492888" flag="0"/>
      <psa30 value="0.0012535706" flag="0"/>
    </comp>
    <comp name="--.HHZ">
      <acc value="0.0529658589" flag="0"/>
      <vel value="0.0094975587" flag="0"/>
      <psa03 value="0.0424949294" flag="0"/>
      <psa10 value="0.0066952304" flag="0"/>
      <psa30 value="0.0005104871" flag="0"/>
    </comp>
  </station>
  <station code="PGOR" name="PGOR" netid="RO" insttype="CMG40T.1to100/Quanterra" lat="44.9199" lon="26.9768">
    <comp name="--.HHE">
      <acc value="0.0255585734" flag="0"/>
      <vel value="0.0115327984" flag="0"/>
      <psa03 value="0.0328933841" flag="0"/>
      <psa10 value="0.0134095684" flag="0"/>
      <psa30 value="0.0019494980" flag="0"/>
    </comp>
    <comp name="--.HHN">
      <acc value="0.0285592079" flag="0"/>
      <vel value="0.0083911873" flag="0"/>
      <psa03 value="0.0533149875" flag="0"/>
      <psa10 value="0.0154331592" flag="0"/>
      <psa30 value="0.0012455802" flag="0"/>
    </comp>
    <comp name="--.HHZ">
      <acc value="0.0425935714" flag="0"/>
      <vel value="0.0065311831" flag="0"/>
      <psa03 value="0.0262125062" flag="0"/>
      <psa10 value="0.0057059370" flag="0"/>
      <psa30 value="0.0003473805" flag="0"/>
    </comp>
  </station>
  <station code="PLOR" name="PLOR" netid="RO" insttype="MBB2/Quanterra" lat="45.8512" lon="26.6498">
    <comp name="--.HHE">
      <acc value="0.0133718431" flag="0"/>
      <vel value="0.0079975396" flag="0"/>
      <psa03 value="0.0388636659" flag="0"/>
      <psa10 value="0.0102752780" flag="0"/>
      <psa30 value="0.0010068369" flag="0"/>
    </comp>
    <comp name="--.HHN">
      <acc value="0.0111342716" flag="0"/>
      <vel value="0.0069608424" flag="0"/>
      <psa03 value="0.0327271328" flag="0"/>
      <psa10 value="0.0076159418" flag="0"/>
      <psa30 value="0.0008230181" flag="0"/>
    </comp>
    <comp name="--.HHZ">
      <acc value="0.0067134685" flag="0"/>
      <vel value="0.0045959800" flag="0"/>
      <psa03 value="0.0164509178" flag="0"/>
      <psa10 value="0.0057951497" flag="0"/>
      <psa30 value="0.0006442274" flag="0"/>
    </comp>
  </station>
  <station code="PLOR4" name="PLOR4" netid="RO" insttype="MBB2/Quanterra" lat="45.8512" lon="26.6498">
    <comp name="--.HHZ">
      <acc value="0.0067134685" flag="0"/>
      <vel value="0.0045959800" flag="0"/>
      <psa03 value="0.0164509178" flag="0"/>
      <psa10 value="0.0057951497" flag="0"/>
      <psa30 value="0.0006442274" flag="0"/>
    </comp>
    <comp name="--.HHE">
      <acc value="0.0133718431" flag="0"/>
      <vel value="0.0079975396" flag="0"/>
      <psa03 value="0.0388636659" flag="0"/>
      <psa10 value="0.0102752780" flag="0"/>
      <psa30 value="0.0010068369" flag="0"/>
    </comp>
    <comp name="--.HHN">
      <acc value="0.0111342716" flag="0"/>
      <vel value="0.0069608424" flag="0"/>
      <psa03 value="0.0327271328" flag="0"/>
      <psa10 value="0.0076159418" flag="0"/>
      <psa30 value="0.0008230181" flag="0"/>
    </comp>
  </station>
  <station code="SCHLR" name="SCHLR" netid="RO" insttype="CMG40T.1to100/Quanterra" lat="45.4702" lon="27.8314">
    <comp name="--.HHE">
      <acc value="0.0633934131" flag="0"/>
      <vel value="0.0095338786" flag="0"/>
      <psa03 value="0.0335171355" flag="0"/>
      <psa10 value="0.0033684247" flag="0"/>
      <psa30 value="0.0002543763" flag="0"/>
    </comp>
    <comp name="--.HHZ">
      <acc value="0.0650006180" flag="0"/>
      <vel value="0.0075273220" flag="0"/>
      <psa03 value="0.0151309772" flag="0"/>
      <psa10 value="0.0018771606" flag="0"/>
      <psa30 value="0.0000997840" flag="0"/>
    </comp>
    <comp name="--.HHN">
      <acc value="0.0561244048" flag="0"/>
      <vel value="0.0131537670" flag="0"/>
      <psa03 value="0.0663014392" flag="0"/>
      <psa10 value="0.0044243424" flag="0"/>
      <psa30 value="0.0006276932" flag="0"/>
    </comp>
  </station>
  <station code="SCTR" name="SCTR" netid="RO" insttype="MBB2/Basalt" lat="45.6741" lon="27.9949">
    <comp name="--.HHE">
      <acc value="0.0676632708" flag="0"/>
      <vel value="0.0157446932" flag="0"/>
      <psa03 value="0.0708851150" flag="0"/>
      <psa10 value="0.0131003194" flag="0"/>
      <psa30 value="0.0010261543" flag="0"/>
    </comp>
    <comp name="--.HHN">
      <acc value="0.0679622063" flag="0"/>
      <vel value="0.0174434119" flag="0"/>
      <psa03 value="0.1125265024" flag="0"/>
      <psa10 value="0.0147691454" flag="0"/>
      <psa30 value="0.0005343990" flag="0"/>
    </comp>
    <comp name="--.HHZ">
      <acc value="0.0275456533" flag="0"/>
      <vel value="0.0083791209" flag="0"/>
      <psa03 value="0.0414920306" flag="0"/>
      <psa10 value="0.0058636056" flag="0"/>
      <psa30 value="0.0003041854" flag="0"/>
    </comp>
  </station>
  <station code="SULR" name="SULR" netid="RO" insttype="330" lat="44.6777" lon="26.2526">
    <comp name="--.HHZ">
      <acc value="0.0107363280" flag="0"/>
      <vel value="0.0023802587" flag="0"/>
      <psa03 value="0.0104993665" flag="0"/>
      <psa10 value="0.0021915304" flag="0"/>
