<?xml version="1.0" encoding="UTF-8" standalone="yes"?>
<!DOCTYPE earthquake SYSTEM "stationlist.dtd">
<stationlist created="" xmlns="ch.ethz.sed.shakemap.usgs.xml">
  <station code="AMRR" name="AMRR" netid="RO" insttype="330" lat="44.6102" lon="27.3351">
    <comp name="--.HHE">
      <acc value="0.0585559241" flag="0"/>
      <vel value="0.0249286487" flag="0"/>
      <psa03 value="0.0760685702" flag="0"/>
      <psa10 value="0.0085994473" flag="0"/>
      <psa30 value="0.0010329830" flag="0"/>
    </comp>
    <comp name="--.HHN">
      <acc value="0.0383339129" flag="0"/>
      <vel value="0.0149273451" flag="0"/>
      <psa03 value="0.0946518570" flag="0"/>
      <psa10 value="0.0109899888" flag="0"/>
      <psa30 value="0.0010153125" flag="0"/>
    </comp>
    <comp name="--.HHZ">
      <acc value="0.0376595445" flag="0"/>
      <vel value="0.0083359907" flag="0"/>
      <psa03 value="0.0403985162" flag="0"/>
      <psa10 value="0.0037426936" flag="0"/>
      <psa30 value="0.0003641519" flag="0"/>
    </comp>
  </station>
  <station code="BAPR" name="BAPR" netid="RO" insttype="2.5V" lat="44.4059" lon="26.119">
    <comp name="--.HNZ">
      <acc value="0.0141865213" flag="0"/>
      <vel value="0.0041607902" flag="0"/>
      <psa03 value="0.0137250935" flag="0"/>
      <psa10 value="0.0023780390" flag="0"/>
      <psa30 value="0.0007596203" flag="0"/>
    </comp>
    <comp name="--.HNE">
      <acc value="0.0127468653" flag="0"/>
      <vel value="0.0047244711" flag="0"/>
      <psa03 value="0.0244504314" flag="0"/>
      <psa10 value="0.0042365884" flag="0"/>
      <psa30 value="0.0007780164" flag="0"/>
    </comp>
  </station>
  <station code="BIR" name="BIR" netid="RO" insttype="MBB2/Quanterra" lat="46.2334" lon="27.6436">
    <comp name="--.HHZ">
      <acc value="0.0289397966" flag="0"/>
      <vel value="0.0090156646" flag="0"/>
      <psa03 value="0.0639335260" flag="0"/>
      <psa10 value="0.0039082413" flag="0"/>
      <psa30 value="0.0002705510" flag="0"/>
    </comp>
    <comp name="--.HHN">
      <acc value="0.0392685034" flag="0"/>
      <vel value="0.0124444919" flag="0"/>
      <psa03 value="0.0838811449" flag="0"/>
      <psa10 value="0.0075264055" flag="0"/>
      <psa30 value="0.0005675946" flag="0"/>
    </comp>
    <comp name="--.HHE">
      <acc value="0.0370789620" flag="0"/>
      <vel value="0.0115262407" flag="0"/>
      <psa03 value="0.0943444384" flag="0"/>
      <psa10 value="0.0073467717" flag="0"/>
      <psa30 value="0.0004790049" flag="0"/>
    </comp>
  </station>
  <station code="BISRR" name="BISRR" netid="RO" insttype="CMG40T.1to100/Basalt" lat="45.5481" lon="26.7099">
    <comp name="--.HHE">
      <acc value="0.2173438834" flag="0"/>
      <vel value="0.1256578580" flag="0"/>
      <psa03 value="0.4861281426" flag="0"/>
      <psa10 value="0.1890979903" flag="0"/>
      <psa30 value="0.0109425646" flag="0"/>
    </comp>
    <comp name="--.HHN">
      <acc value="0.1903572758" flag="0"/>
      <vel value="0.1038135248" flag="0"/>
      <psa03 value="0.5258448040" flag="0"/>
      <psa10 value="0.1751516311" flag="0"/>
      <psa30 value="0.0085465708" flag="0"/>
    </comp>
    <comp name="--.HHZ">
      <acc value="0.1479981336" flag="0"/>
      <vel value="0.0528335517" flag="0"/>
      <psa03 value="0.3014141483" flag="0"/>
      <psa10 value="0.0528704003" flag="0"/>
      <psa30 value="0.0026953535" flag="0"/>
    </comp>
  </station>
  <station code="BUC" name="BUC" netid="RO" insttype="200" lat="44.4107" lon="26.0938">
    <comp name="--.HNZ">
      <acc value="0.0164559219" flag="0"/>
      <vel value="0.0038667608" flag="0"/>
      <psa03 value="0.0138300909" flag="0"/>
      <psa10 value="0.0025054549" flag="0"/>
      <psa30 value="0.0002833032" flag="0"/>
    </comp>
    <comp name="--.HNN">
      <acc value="0.0111341518" flag="0"/>
      <vel value="0.0039290176" flag="0"/>
      <psa03 value="0.0212904197" flag="0"/>
      <psa10 value="0.0042171593" flag="0"/>
      <psa30 value="0.0004873673" flag="0"/>
    </comp>
    <comp name="--.HNE">
      <acc value="0.0111138572" flag="0"/>
      <vel value="0.0040496311" flag="0"/>
      <psa03 value="0.0180187553" flag="0"/>
      <psa10 value="0.0035818172" flag="0"/>
      <psa30 value="0.0006214229" flag="0"/>
    </comp>
  </station>
  <station code="CFR" name="CFR" netid="RO" insttype="CMG3T_100sec/Quanterra" lat="45.178" lon="28.1362">
    <comp name="--.HHE">
      <acc value="0.0722961046" flag="0"/>
      <vel value="0.0119642877" flag="0"/>
      <psa03 value="0.0509977438" flag="0"/>
      <psa10 value="0.0039868277" flag="0"/>
      <psa30 value="0.0002704375" flag="0"/>
    </comp>
    <comp name="--.HHN">
      <acc value="0.1126727012" flag="0"/>
      <vel value="0.0219018351" flag="0"/>
      <psa03 value="0.0566247851" flag="0"/>
      <psa10 value="0.0033597833" flag="0"/>
      <psa30 value="0.0004454974" flag="0"/>
    </comp>
    <comp name="--.HHZ">
      <acc value="0.0649798369" flag="0"/>
      <vel value="0.0087952302" flag="0"/>
      <psa03 value="0.0313616037" flag="0"/>
      <psa10 value="0.0039317343" flag="0"/>
      <psa30 value="0.0003388633" flag="0"/>
    </comp>
  </station>
  <station code="COPR" name="COPR" netid="RO" insttype="200" lat="45.8442" lon="26.1687">
    <comp name="--.HNN">
      <acc value="0.0084334651" flag="0"/>
      <vel value="0.0085618968" flag="0"/>
      <psa03 value="0.0264359648" flag="0"/>
      <psa10 value="0.0169727632" flag="0"/>
      <psa30 value="0.0008739909" flag="0"/>
    </comp>
    <comp name="--.HNZ">
      <acc value="0.0071849451" flag="0"/>
      <vel value="0.0041642431" flag="0"/>
      <psa03 value="0.0205260006" flag="0"/>
      <psa10 value="0.0040733161" flag="0"/>
      <psa30 value="0.0005768554" flag="0"/>
    </comp>
  </station>
  <station code="GISR" name="GISR" netid="RO" insttype="2.5V" lat="45.4411" lon="28.0541">
    <comp name="--.HNN">
      <acc value="0.0653539748" flag="0"/>
      <vel value="0.0177650560" flag="0"/>
      <psa03 value="0.0816249614" flag="0"/>
      <psa10 value="0.0111880964" flag="0"/>
      <psa30 value="0.0010463633" flag="0"/>
    </comp>
    <comp name="--.HNZ">
      <acc value="0.0543838764" flag="0"/>
      <vel value="0.0110450997" flag="0"/>
      <psa03 value="0.0874841012" flag="0"/>
      <psa10 value="0.0050058559" flag="0"/>
      <psa30 value="0.0005431152" flag="0"/>
    </comp>
  </station>
  <station code="HARR" name="HARR" netid="RO" insttype="MBB2/Quanterra" lat="44.6893" lon="27.9303">
    <comp name="--.HHE">
      <acc value="0.0396080690" flag="0"/>
      <vel value="0.0122728916" flag="0"/>
      <psa03 value="0.0592647090" flag="0"/>
      <psa10 value="0.0119515760" flag="0"/>
      <psa30 value="0.0006215334" flag="0"/>
    </comp>
    <comp name="--.HHZ">
      <acc value="0.0322556894" flag="0"/>
      <vel value="0.0073053318" flag="0"/>
      <psa03 value="0.0372129144" flag="0"/>
      <psa10 value="0.0039238962" flag="0"/>
      <psa30 value="0.0003147745" flag="0"/>
    </comp>
    <comp name="--.HHN">
      <acc value="0.0499709181" flag="0"/>
      <vel value="0.0222006693" flag="0"/>
      <psa03 value="0.0922973801" flag="0"/>
      <psa10 value="0.0259698722" flag="0"/>
      <psa30 value="0.0009966806" flag="0"/>
    </comp>
  </station>
  <station code="INCR" name="INCR" netid="RO" insttype="200" lat="44.441" lon="26.1611">
    <comp name="--.HNN">
      <acc value="0.0096524396" flag="0"/>
      <vel value="0.0045302396" flag="0"/>
      <psa03 value="0.0225425054" flag="0"/>
      <psa10 value="0.0044321794" flag="0"/>
      <psa30 value="0.0004628667" flag="0"/>
    </comp>
    <comp name="--.HNZ">
      <acc value="0.0184459165" flag="0"/>
      <vel value="0.0064050988" flag="0"/>
      <psa03 value="0.0281563258" flag="0"/>
      <psa10 value="0.0037374281" flag="0"/>
      <psa30 value="0.0002487673" flag="0"/>
    </comp>
    <comp name="--.HNE">
      <acc value="0.0097000704" flag="0"/>
      <vel value="0.0034404617" flag="0"/>
      <psa03 value="0.0220312337" flag="0"/>
      <psa10 value="0.0036663375" flag="0"/>
      <psa30 value="0.0005879576" flag="0"/>
    </comp>
  </station>
  <station code="ISR" name="ISR" netid="RO" insttype="CMG3ESP/Quanterra" lat="45.1187" lon="26.5432">
    <comp name="--.HHE">
      <acc value="0.0206632904" flag="0"/>
      <vel value="0.0182760826" flag="0"/>
      <psa03 value="0.0420162271" flag="0"/>
      <psa10 value="0.0236581959" flag="0"/>
      <psa30 value="0.0020931160" flag="0"/>
    </comp>
    <comp name="--.HHN">
      <acc value="0.0238902744" flag="0"/>
      <vel value="0.0150531620" flag="0"/>
      <psa03 value="0.0708545178" flag="0"/>
      <psa10 value="0.0159249852" flag="0"/>
      <psa30 value="0.0013775418" flag="0"/>
    </comp>
    <comp name="--.HHZ">
      <acc value="0.0131368049" flag="0"/>
      <vel value="0.0074914357" flag="0"/>
      <psa03 value="0.0315185753" flag="0"/>
      <psa10 value="0.0076849023" flag="0"/>
      <psa30 value="0.0010221458" flag="0"/>
    </comp>
  </station>
  <station code="IZVR" name="IZVR" netid="RO" insttype="CMG40T.1to100/Quanterra" lat="45.5442" lon="27.7655">
    <comp name="--.HHZ">
      <acc value="0.0304476114" flag="0"/>
      <vel value="0.0042064203" flag="0"/>
      <psa03 value="0.0146598763" flag="0"/>
      <psa10 value="0.0012214573" flag="0"/>
      <psa30 value="0.0000942348" flag="0"/>
    </comp>
    <comp name="--.HHE">
      <acc value="0.0609062752" flag="0"/>
      <vel value="0.0116916928" flag="0"/>
      <psa03 value="0.0325451482" flag="0"/>
      <psa10 value="0.0033256008" flag="0"/>
      <psa30 value="0.0002328626" flag="0"/>
    </comp>
    <comp name="--.HHN">
      <acc value="0.0502561047" flag="0"/>
      <vel value="0.0120776221" flag="0"/>
      <psa03 value="0.0547639284" flag="0"/>
      <psa10 value="0.0039073270" flag="0"/>
      <psa30 value="0.0006143612" flag="0"/>
    </comp>
  </station>
  <station code="MLR" name="MLR" netid="RO" insttype="330HR" lat="45.4909" lon="25.945">
    <comp name="--.HHE">
      <acc value="0.0030344040" flag="0"/>
      <vel value="0.0028190609" flag="0"/>
      <psa03 value="0.0130617050" flag="0"/>
      <psa10 value="0.0021912970" flag="0"/>
      <psa30 value="0.0009857312" flag="0"/>
    </comp>
    <comp name="--.HHN">
      <acc value="0.0024800830" flag="0"/>
      <vel value="0.0028887705" flag="0"/>
      <psa03 value="0.0091748358" flag="0"/>
      <psa10 value="0.0021946498" flag="0"/>
      <psa30 value="0.0008591890" flag="0"/>
    </comp>
    <comp name="--.HHZ">
      <acc value="0.0018084551" flag="0"/>
      <vel value="0.0017124511" flag="0"/>
      <psa03 value="0.0059696079" flag="0"/>
      <psa10 value="0.0017590417" flag="0"/>
      <psa30 value="0.0004011065" flag="0"/>
    </comp>
  </station>
  <station code="NARR" name="NARR" netid="RO" insttype="OBS-SIO/Centaur" lat="45.8165" lon="26.7368">
    <comp name="--.HHE">
      <acc value="0.0231006927" flag="0"/>
      <vel value="0.0124812184" flag="0"/>
      <psa03 value="0.0528384535" flag="0"/>
      <psa10 value="0.0107088777" flag="0"/>
      <psa30 value="0.0011244654" flag="0"/>
    </comp>
    <comp name="--.HHN">
      <acc value="0.0294291619" flag="0"/>
      <vel value="0.0147781341" flag="0"/>
      <psa03 value="0.0731683129" flag="0"/>
      <psa10 value="0.0081101092" flag="0"/>
      <psa30 value="0.0015383870" flag="0"/>
    </comp>
    <comp name="--.HHZ">
      <acc value="0.0179718593" flag="0"/>
      <vel value="0.0052998003" flag="0"/>
      <psa03 value="0.0311099638" flag="0"/>
      <psa10 value="0.0031048304" flag="0"/>
      <psa30 value="0.0007122349" flag="0"/>
    </comp>
  </station>
  <station code="NEGRR" name="NEGRR" netid="RO" insttype="CMG40T.1to100/Quanterra" lat="45.5373" lon="27.8771">
    <comp name="--.HHE">
      <acc value="0.0710438252" flag="0"/>
      <vel value="0.0124572052" flag="0"/>
      <psa03 value="0.0534515326" flag="0"/>
      <psa10 value="0.0030492488" flag="0"/>
      <psa30 value="0.0003003024" flag="0"/>
    </comp>
    <comp name="--.HHN">
      <acc value="0.0711330430" flag="0"/>
      <vel value="0.0175262331" flag="0"/>
      <psa03 value="0.0824206029" flag="0"/>
      <psa10 value="0.0054727487" flag="0"/>
      <psa30 value="0.0005898876" flag="0"/>
    </comp>
  </station>
  <station code="ODBI" name="ODBI" netid="RO" insttype="200" lat="45.7633" lon="27.0558">
    <comp name="--.HNZ">
      <acc value="0.0909405047" flag="0"/>
      <vel value="0.0154178469" flag="0"/>
      <psa03 value="0.0588817444" flag="0"/>
      <psa10 value="0.0118863658" flag="0"/>
      <psa30 value="0.0010962793" flag="0"/>
    </comp>
  </station>
  <station code="PANC" name="PANC" netid="RO" insttype="Seismometer/Basalt" lat="45.8723" lon="27.1477">
    <comp name="--.HHE">
      <acc value="0.0498054027" flag="0"/>
      <vel value="0.0135844192" flag="0"/>
      <psa03 value="0.0466559603" flag="0"/>
      <psa10 value="0.0148492890" flag="0"/>
      <psa30 value="0.0012535765" flag="0"/>
    </comp>
    <comp name="--.HHN">
      <acc value="0.0409062662" flag="0"/>
      <vel value="0.0123572713" flag="0"/>
      <psa03 value="0.0512849591" flag="0"/>
      <psa10 value="0.0094155428" flag="0"/>
      <psa30 value="0.0011362945" flag="0"/>
    </comp>
    <comp name="--.HHZ">
      <acc value="0.0529658594" flag="0"/>
      <vel value="0.0094975579" flag="0"/>
      <psa03 value="0.0424949294" flag="0"/>
      <psa10 value="0.0066952304" flag="0"/>
      <psa30 value="0.0005104758" flag="0"/>
    </comp>
  </station>
  <station code="PGOR" name="PGOR" netid="RO" insttype="CMG40T.1to100/Quanterra" lat="44.9199" lon="26.9768">
    <comp name="--.HHZ">
      <acc value="0.0425935714" flag="0"/>
      <vel value="0.0065311857" flag="0"/>
      <psa03 value="0.0262125062" flag="0"/>
      <psa10 value="0.0057059370" flag="0"/>
      <psa30 value="0.0003473675" flag="0"/>
    </comp>
    <comp name="--.HHN">
      <acc value="0.0285592078" flag="0"/>
      <vel value="0.0083911898" flag="0"/>
      <psa03 value="0.0533149875" flag="0"/>
      <psa10 value="0.0154331592" flag="0"/>
      <psa30 value="0.0012455542" flag="0"/>
    </comp>
    <comp name="--.HHE">
      <acc value="0.0255585734" flag="0"/>
      <vel value="0.0115328045" flag="0"/>
      <psa03 value="0.0328933841" flag="0"/>
      <psa10 value="0.0134095683" flag="0"/>
      <psa30 value="0.0019495157" flag="0"/>
    </comp>
  </station>
  <station code="PLOR" name="PLOR" netid="RO" insttype="MBB2/Quanterra" lat="45.8512" lon="26.6498">
    <comp name="--.HHN">
      <acc value="0.0111342715" flag="0"/>
      <vel value="0.0069608428" flag="0"/>
      <psa03 value="0.0327271328" flag="0"/>
      <psa10 value="0.0076159418" flag="0"/>
      <psa30 value="0.0008230180" flag="0"/>
    </comp>
    <comp name="--.HHE">
      <acc value="0.0133718429" flag="0"/>
      <vel value="0.0079975395" flag="0"/>
      <psa03 value="0.0388636659" flag="0"/>
      <psa10 value="0.0102752780" flag="0"/>
      <psa30 value="0.0010068186" flag="0"/>
    </comp>
    <comp name="--.HHZ">
      <acc value="0.0067134685" flag="0"/>
      <vel value="0.0045959796" flag="0"/>
      <psa03 value="0.0164509178" flag="0"/>
      <psa10 value="0.0057951497" flag="0"/>
      <psa30 value="0.0006442322" flag="0"/>
    </comp>
  </station>
  <station code="PLOR4" name="PLOR4" netid="RO" insttype="MBB2/Quanterra" lat="45.8512" lon="26.6498">
    <comp name="--.HHN">
      <acc value="0.0111342715" flag="0"/>
      <vel value="0.0069608428" flag="0"/>
      <psa03 value="0.0327271328" flag="0"/>
      <psa10 value="0.0076159418" flag="0"/>
      <psa30 value="0.0008230180" flag="0"/>
    </comp>
    <comp name="--.HHZ">
      <acc value="0.0067134685" flag="0"/>
      <vel value="0.0045959796" flag="0"/>
      <psa03 value="0.0164509178" flag="0"/>
      <psa10 value="0.0057951497" flag="0"/>
      <psa30 value="0.0006442322" flag="0"/>
    </comp>
    <comp name="--.HHE">
      <acc value="0.0133718429" flag="0"/>
      <vel value="0.0079975395" flag="0"/>
      <psa03 value="0.0388636659" flag="0"/>
      <psa10 value="0.0102752780" flag="0"/>
      <psa30 value="0.0010068186" flag="0"/>
    </comp>
  </station>
  <station code="SCHLR" name="SCHLR" netid="RO" insttype="CMG40T.1to100/Quanterra" lat="45.4702" lon="27.8314">
    <comp name="--.HHE">
      <acc value="0.0633934131" flag="0"/>
      <vel value="0.0095338781" flag="0"/>
      <psa03 value="0.0335171355" flag="0"/>
      <psa10 value="0.0033684248" flag="0"/>
      <psa30 value="0.0002545163" flag="0"/>
    </comp>
    <comp name="--.HHN">
      <acc value="0.0561244050" flag="0"/>
      <vel value="0.0131537664" flag="0"/>
      <psa03 value="0.0663014392" flag="0"/>
      <psa10 value="0.0044243427" flag="0"/>
      <psa30 value="0.0006276870" flag="0"/>
    </comp>
  </station>
  <station code="SCTR" name="SCTR" netid="RO" insttype="MBB2/Basalt" lat="45.6741" lon="27.9949">
    <comp name="--.HHN">
      <acc value="0.0679622062" flag="0"/>
      <vel value="0.0174434118" flag="0"/>
      <psa03 value="0.1125265024" flag="0"/>
      <psa10 value="0.0147691455" flag="0"/>
      <psa30 value="0.0005343558" flag="0"/>
    </comp>
    <comp name="--.HHE">
      <acc value="0.0676632705" flag="0"/>
      <vel value="0.0157446932" flag="0"/>
      <psa03 value="0.0708851150" flag="0"/>
      <psa10 value="0.0131003196" flag="0"/>
      <psa30 value="0.0010261826" flag="0"/>
    </comp>
    <comp name="--.HHZ">
      <acc value="0.0275456536" flag="0"/>
      <vel value="0.0083791208" flag="0"/>
      <psa03 value="0.0414920306" flag="0"/>
      <psa10 value="0.0058636055" flag="0"/>
      <psa30 value="0.0003041942" flag="0"/>
    </comp>
  </station>
  <station code="SULR" name="SULR" netid="RO" insttype="330" lat="44.6777" lon="26.2526">
    <comp name="--.HHZ">
      <acc value="0.0107363284" flag="0"/>
      <vel value="0.0023802590" flag="0"/>
      <psa03 value="0.0104993665" flag="0"/>
      <psa10 value="0.0021915335" flag="0"/>
      <psa30 value="0.0002304072" flag="0"/>
    </comp>
    <comp name="--.HHE">
      <acc value="0.0094053573" flag="0"/>
      <vel value="0.0040889005" flag="0"/>
      <psa03 value="0.0163327343" flag="0"/>
      <psa10 value="0.0047466369" flag="0"/>
      <psa30 value="0.0005877427" flag="0"/>
    </comp>
  </station>
  <station code="TUDR" name="TUDR" netid="RO" insttype="CMG40T.1to100/Quanterra" lat="45.5939" lon="27.6687">
    <comp name="--.HHE">
      <acc value="0.0619825706" flag="0"/>
      <vel value="0.0204332171" flag="0"/>
      <psa03 value="0.0839854385" flag="0"/>
      <psa10 value="0.0127669855" flag="0"/>
      <psa30 value="0.0012776853" flag="0"/>
    </comp>
    <comp name="--.HHN">
      <acc value="0.0752238462" flag="0"/>
      <vel value="0.0209369260" flag="0"/>
      <psa03 value="0.0956205910" flag="0"/>
      <psa10 value="0.0197919415" flag="0"/>
      <psa30 value="0.0018200700" flag="0"/>
    </comp>
    <comp name="--.HHZ">
      <acc value="0.0974776940" flag="0"/>
      <vel value="0.0138467098" flag="0"/>
      <psa03 value="0.0255847148" flag="0"/>
      <psa10 value="0.0070324274" flag="0"/>
      <psa30 value="0.0004929529" flag="0"/>
    </comp>
  </station>
  <station code="VRI" name="VRI" netid="RO" insttype="Linear" lat="45.8657" lon="26.7277">
    <comp name="--.HHN">
      <acc value="0.0100388133" flag="0"/>
      <vel value="0.0060253258" flag="0"/>
      <psa03 value="0.0340377602" flag="0"/>
      <psa10 value="0.0087009106" flag="0"/>
      <psa30 value="0.0006665840" flag="0"/>
    </comp>
    <comp name="--.HHE">
      <acc value="0.0184689381" flag="0"/>
      <vel value="0.0110118015" flag="0"/>
      <psa03 value="0.0449911370" flag="0"/>
      <psa10 value="0.0100446040" flag="0"/>
      <psa30 value="0.0013171330" flag="0"/>
    </comp>
