<?xml version="1.0" encoding="UTF-8" standalone="yes"?>
<!DOCTYPE earthquake SYSTEM "stationlist.dtd">
<stationlist created="" xmlns="ch.ethz.sed.shakemap.usgs.xml">
  <station code="AMRR" name="AMRR" netid="RO" insttype="330" lat="44.6102" lon="27.3351">
    <comp name="--.HHE">
      <acc value="0.0585559238" flag="0"/>
      <vel value="0.0249286479" flag="0"/>
      <psa03 value="0.0760685702" flag="0"/>
      <psa10 value="0.0085994470" flag="0"/>
      <psa30 value="0.0010328834" flag="0"/>
    </comp>
    <comp name="--.HHZ">
      <acc value="0.0376595448" flag="0"/>
      <vel value="0.0083359932" flag="0"/>
      <psa03 value="0.0403985162" flag="0"/>
      <psa10 value="0.0037426938" flag="0"/>
      <psa30 value="0.0003641985" flag="0"/>
    </comp>
    <comp name="--.HHN">
      <acc value="0.0383339127" flag="0"/>
      <vel value="0.0149273478" flag="0"/>
      <psa03 value="0.0946518570" flag="0"/>
      <psa10 value="0.0109899887" flag="0"/>
      <psa30 value="0.0010153431" flag="0"/>
    </comp>
  </station>
  <station code="BAPR" name="BAPR" netid="RO" insttype="2.5V" lat="44.4059" lon="26.119">
    <comp name="--.HNE">
      <acc value="0.0127468677" flag="0"/>
      <vel value="0.0047244478" flag="0"/>
      <psa03 value="0.0244504314" flag="0"/>
      <psa10 value="0.0042365891" flag="0"/>
      <psa30 value="0.0007804951" flag="0"/>
    </comp>
    <comp name="--.HNZ">
      <acc value="0.0141865197" flag="0"/>
      <vel value="0.0041607818" flag="0"/>
      <psa03 value="0.0137250935" flag="0"/>
      <psa10 value="0.0023783474" flag="0"/>
      <psa30 value="0.0007576257" flag="0"/>
    </comp>
    <comp name="--.HNN">
      <acc value="0.0173278590" flag="0"/>
      <vel value="0.0068303721" flag="0"/>
      <psa03 value="0.0566809442" flag="0"/>
      <psa10 value="0.0043541548" flag="0"/>
      <psa30 value="0.0005862526" flag="0"/>
    </comp>
  </station>
  <station code="BIR" name="BIR" netid="RO" insttype="MBB2/Quanterra" lat="46.2334" lon="27.6436">
    <comp name="--.HHE">
      <acc value="0.0370789618" flag="0"/>
      <vel value="0.0115262398" flag="0"/>
      <psa03 value="0.0943444384" flag="0"/>
      <psa10 value="0.0073467717" flag="0"/>
      <psa30 value="0.0004790563" flag="0"/>
    </comp>
    <comp name="--.HHN">
      <acc value="0.0392685037" flag="0"/>
      <vel value="0.0124444929" flag="0"/>
      <psa03 value="0.0838811449" flag="0"/>
      <psa10 value="0.0075264055" flag="0"/>
      <psa30 value="0.0005675931" flag="0"/>
    </comp>
    <comp name="--.HHZ">
      <acc value="0.0289397964" flag="0"/>
      <vel value="0.0090156651" flag="0"/>
      <psa03 value="0.0639335260" flag="0"/>
      <psa10 value="0.0039082413" flag="0"/>
      <psa30 value="0.0002705554" flag="0"/>
    </comp>
  </station>
  <station code="BISRR" name="BISRR" netid="RO" insttype="CMG40T.1to100/Basalt" lat="45.5481" lon="26.7099">
    <comp name="--.HHE">
      <acc value="0.2173438833" flag="0"/>
      <vel value="0.1256578568" flag="0"/>
      <psa03 value="0.4861281427" flag="0"/>
      <psa10 value="0.1890980016" flag="0"/>
      <psa30 value="0.0109426245" flag="0"/>
    </comp>
    <comp name="--.HHN">
      <acc value="0.1903572755" flag="0"/>
      <vel value="0.1038135324" flag="0"/>
      <psa03 value="0.5258448040" flag="0"/>
      <psa10 value="0.1751516466" flag="0"/>
      <psa30 value="0.0085479028" flag="0"/>
    </comp>
    <comp name="--.HHZ">
      <acc value="0.1479981333" flag="0"/>
      <vel value="0.0528335667" flag="0"/>
      <psa03 value="0.3014141483" flag="0"/>
      <psa10 value="0.0528703898" flag="0"/>
      <psa30 value="0.0026956350" flag="0"/>
    </comp>
  </station>
  <station code="CFR" name="CFR" netid="RO" insttype="CMG3T_100sec/Quanterra" lat="45.178" lon="28.1362">
    <comp name="--.HHE">
      <acc value="0.0722961046" flag="0"/>
      <vel value="0.0119642877" flag="0"/>
      <psa03 value="0.0509977438" flag="0"/>
      <psa10 value="0.0039868277" flag="0"/>
      <psa30 value="0.0002704510" flag="0"/>
    </comp>
    <comp name="--.HHN">
      <acc value="0.1126727010" flag="0"/>
      <vel value="0.0219018351" flag="0"/>
      <psa03 value="0.0566247851" flag="0"/>
      <psa10 value="0.0033597834" flag="0"/>
      <psa30 value="0.0004455143" flag="0"/>
    </comp>
    <comp name="--.HHZ">
      <acc value="0.0649798369" flag="0"/>
      <vel value="0.0087952301" flag="0"/>
      <psa03 value="0.0313616037" flag="0"/>
      <psa10 value="0.0039317344" flag="0"/>
      <psa30 value="0.0003388773" flag="0"/>
    </comp>
  </station>
  <station code="COPR" name="COPR" netid="RO" insttype="200" lat="45.8442" lon="26.1687">
    <comp name="--.HNE">
      <acc value="0.0095003385" flag="0"/>
      <vel value="0.0072789299" flag="0"/>
      <psa03 value="0.0411529670" flag="0"/>
      <psa10 value="0.0120127707" flag="0"/>
      <psa30 value="0.0007849402" flag="0"/>
    </comp>
    <comp name="--.HNN">
      <acc value="0.0084334650" flag="0"/>
      <vel value="0.0085618969" flag="0"/>
      <psa03 value="0.0264359648" flag="0"/>
      <psa10 value="0.0169727632" flag="0"/>
      <psa30 value="0.0008739920" flag="0"/>
    </comp>
    <comp name="--.HNZ">
      <acc value="0.0071849450" flag="0"/>
      <vel value="0.0041642434" flag="0"/>
      <psa03 value="0.0205260006" flag="0"/>
      <psa10 value="0.0040733161" flag="0"/>
      <psa30 value="0.0005767892" flag="0"/>
    </comp>
  </station>
  <station code="GISR" name="GISR" netid="RO" insttype="2.5V" lat="45.4411" lon="28.0541">
    <comp name="--.HNE">
      <acc value="0.0566540803" flag="0"/>
      <vel value="0.0188159397" flag="0"/>
      <psa03 value="0.1136043760" flag="0"/>
      <psa10 value="0.0098050369" flag="0"/>
      <psa30 value="0.0012795844" flag="0"/>
    </comp>
    <comp name="--.HNN">
      <acc value="0.0653539745" flag="0"/>
      <vel value="0.0177650556" flag="0"/>
      <psa03 value="0.0816249614" flag="0"/>
      <psa10 value="0.0111880964" flag="0"/>
      <psa30 value="0.0010464877" flag="0"/>
    </comp>
    <comp name="--.HNZ">
      <acc value="0.0543838765" flag="0"/>
      <vel value="0.0110450989" flag="0"/>
      <psa03 value="0.0874841012" flag="0"/>
      <psa10 value="0.0050058559" flag="0"/>
      <psa30 value="0.0005431871" flag="0"/>
    </comp>
  </station>
  <station code="HARR" name="HARR" netid="RO" insttype="MBB2/Quanterra" lat="44.6893" lon="27.9303">
    <comp name="--.HHE">
      <acc value="0.0396080689" flag="0"/>
      <vel value="0.0122728893" flag="0"/>
      <psa03 value="0.0592647090" flag="0"/>
      <psa10 value="0.0119515760" flag="0"/>
      <psa30 value="0.0006214317" flag="0"/>
    </comp>
    <comp name="--.HHN">
      <acc value="0.0499709175" flag="0"/>
      <vel value="0.0222006694" flag="0"/>
      <psa03 value="0.0922973801" flag="0"/>
      <psa10 value="0.0259698722" flag="0"/>
      <psa30 value="0.0009967027" flag="0"/>
    </comp>
    <comp name="--.HHZ">
      <acc value="0.0322556894" flag="0"/>
      <vel value="0.0073053322" flag="0"/>
      <psa03 value="0.0372129144" flag="0"/>
      <psa10 value="0.0039238962" flag="0"/>
      <psa30 value="0.0003147977" flag="0"/>
    </comp>
  </station>
  <station code="INCR" name="INCR" netid="RO" insttype="200" lat="44.441" lon="26.1611">
    <comp name="--.HNN">
      <acc value="0.0096524412" flag="0"/>
      <vel value="0.0045302360" flag="0"/>
      <psa03 value="0.0225425054" flag="0"/>
      <psa10 value="0.0044321793" flag="0"/>
      <psa30 value="0.0004628579" flag="0"/>
    </comp>
    <comp name="--.HNE">
      <acc value="0.0097000728" flag="0"/>
      <vel value="0.0034404604" flag="0"/>
      <psa03 value="0.0220312337" flag="0"/>
      <psa10 value="0.0036663375" flag="0"/>
      <psa30 value="0.0005879737" flag="0"/>
    </comp>
    <comp name="--.HNZ">
      <acc value="0.0184459154" flag="0"/>
      <vel value="0.0064050989" flag="0"/>
      <psa03 value="0.0281563258" flag="0"/>
      <psa10 value="0.0037373715" flag="0"/>
      <psa30 value="0.0002499323" flag="0"/>
    </comp>
  </station>
  <station code="ISR" name="ISR" netid="RO" insttype="CMG3ESP/Quanterra" lat="45.1187" lon="26.5432">
    <comp name="--.HHE">
      <acc value="0.0206632907" flag="0"/>
      <vel value="0.0182760861" flag="0"/>
      <psa03 value="0.0420162271" flag="0"/>
      <psa10 value="0.0236581959" flag="0"/>
      <psa30 value="0.0020931000" flag="0"/>
    </comp>
    <comp name="--.HHN">
      <acc value="0.0238902745" flag="0"/>
      <vel value="0.0150531645" flag="0"/>
      <psa03 value="0.0708545178" flag="0"/>
      <psa10 value="0.0159249852" flag="0"/>
      <psa30 value="0.0013775426" flag="0"/>
    </comp>
    <comp name="--.HHZ">
      <acc value="0.0131368048" flag="0"/>
      <vel value="0.0074914358" flag="0"/>
      <psa03 value="0.0315185753" flag="0"/>
      <psa10 value="0.0076849017" flag="0"/>
      <psa30 value="0.0010221456" flag="0"/>
    </comp>
  </station>
  <station code="IZVR" name="IZVR" netid="RO" insttype="CMG40T.1to100/Quanterra" lat="45.5442" lon="27.7655">
    <comp name="--.HHE">
      <acc value="0.0609062751" flag="0"/>
      <vel value="0.0116916924" flag="0"/>
      <psa03 value="0.0325451482" flag="0"/>
      <psa10 value="0.0033256008" flag="0"/>
      <psa30 value="0.0002329018" flag="0"/>
    </comp>
    <comp name="--.HHN">
      <acc value="0.0502561045" flag="0"/>
      <vel value="0.0120776228" flag="0"/>
      <psa03 value="0.0547639284" flag="0"/>
      <psa10 value="0.0039073272" flag="0"/>
      <psa30 value="0.0006143923" flag="0"/>
    </comp>
    <comp name="--.HHZ">
      <acc value="0.0304476115" flag="0"/>
      <vel value="0.0042064202" flag="0"/>
      <psa03 value="0.0146598763" flag="0"/>
      <psa10 value="0.0012214573" flag="0"/>
      <psa30 value="0.0000942403" flag="0"/>
    </comp>
  </station>
  <station code="MLR" name="MLR" netid="RO" insttype="330HR" lat="45.4909" lon="25.945">
    <comp name="--.HHE">
      <acc value="0.0030344038" flag="0"/>
      <vel value="0.0028190599" flag="0"/>
      <psa03 value="0.0130617050" flag="0"/>
      <psa10 value="0.0021912970" flag="0"/>
      <psa30 value="0.0009857452" flag="0"/>
    </comp>
    <comp name="--.HHZ">
      <acc value="0.0018084551" flag="0"/>
      <vel value="0.0017124514" flag="0"/>
      <psa03 value="0.0059696079" flag="0"/>
      <psa10 value="0.0017590417" flag="0"/>
      <psa30 value="0.0004011165" flag="0"/>
    </comp>
    <comp name="--.HHN">
      <acc value="0.0024800831" flag="0"/>
      <vel value="0.0028887702" flag="0"/>
      <psa03 value="0.0091748358" flag="0"/>
      <psa10 value="0.0021946498" flag="0"/>
      <psa30 value="0.0008591469" flag="0"/>
    </comp>
  </station>
  <station code="NARR" name="NARR" netid="RO" insttype="OBS-SIO/Centaur" lat="45.8165" lon="26.7368">
    <comp name="--.HHE">
      <acc value="0.0231006927" flag="0"/>
      <vel value="0.0124812198" flag="0"/>
      <psa03 value="0.0528384535" flag="0"/>
      <psa10 value="0.0107088777" flag="0"/>
      <psa30 value="0.0011244986" flag="0"/>
    </comp>
    <comp name="--.HHZ">
      <acc value="0.0179718594" flag="0"/>
      <vel value="0.0052998003" flag="0"/>
      <psa03 value="0.0311099638" flag="0"/>
      <psa10 value="0.0031048304" flag="0"/>
      <psa30 value="0.0007122445" flag="0"/>
    </comp>
    <comp name="--.HHN">
      <acc value="0.0294291619" flag="0"/>
      <vel value="0.0147781357" flag="0"/>
      <psa03 value="0.0731683129" flag="0"/>
      <psa10 value="0.0081101092" flag="0"/>
      <psa30 value="0.0015383715" flag="0"/>
    </comp>
  </station>
  <station code="NEGRR" name="NEGRR" netid="RO" insttype="CMG40T.1to100/Quanterra" lat="45.5373" lon="27.8771">
    <comp name="--.HHZ">
      <acc value="0.0313031623" flag="0"/>
      <vel value="0.0057802264" flag="0"/>
      <psa03 value="0.0278870584" flag="0"/>
      <psa10 value="0.0013094512" flag="0"/>
      <psa30 value="0.0001341576" flag="0"/>
    </comp>
    <comp name="--.HHE">
      <acc value="0.0710438252" flag="0"/>
      <vel value="0.0124572050" flag="0"/>
      <psa03 value="0.0534515326" flag="0"/>
      <psa10 value="0.0030492488" flag="0"/>
      <psa30 value="0.0003003188" flag="0"/>
    </comp>
    <comp name="--.HHN">
      <acc value="0.0711330429" flag="0"/>
      <vel value="0.0175262325" flag="0"/>
      <psa03 value="0.0824206029" flag="0"/>
      <psa10 value="0.0054727489" flag="0"/>
      <psa30 value="0.0005898215" flag="0"/>
    </comp>
  </station>
  <station code="ODBI" name="ODBI" netid="RO" insttype="200" lat="45.7633" lon="27.0558">
    <comp name="--.HNE">
      <acc value="0.0399467527" flag="0"/>
      <vel value="0.0140263677" flag="0"/>
      <psa03 value="0.0609761305" flag="0"/>
      <psa10 value="0.0195944604" flag="0"/>
      <psa30 value="0.0016528010" flag="0"/>
    </comp>
    <comp name="--.HNN">
      <acc value="0.0319983670" flag="0"/>
      <vel value="0.0196135065" flag="0"/>
      <psa03 value="0.0464126248" flag="0"/>
      <psa10 value="0.0285716381" flag="0"/>
      <psa30 value="0.0021244270" flag="0"/>
    </comp>
    <comp name="--.HNZ">
      <acc value="0.0909405039" flag="0"/>
      <vel value="0.0154178467" flag="0"/>
      <psa03 value="0.0588817444" flag="0"/>
      <psa10 value="0.0118863658" flag="0"/>
      <psa30 value="0.0010962474" flag="0"/>
    </comp>
  </station>
  <station code="ONER" name="ONER" netid="RO" insttype="CMG40T.1to100/obsidian" lat="46.3349" lon="26.394">
    <comp name="--.HHZ">
      <acc value="0.0018411964" flag="0"/>
      <vel value="0.0010111209" flag="0"/>
      <psa03 value="0.0043106723" flag="0"/>
      <psa10 value="0.0023520356" flag="0"/>
      <psa30 value="0.0001432942" flag="0"/>
    </comp>
    <comp name="--.HHN">
      <acc value="0.0025806044" flag="0"/>
      <vel value="0.0015756978" flag="0"/>
      <psa03 value="0.0026978652" flag="0"/>
      <psa10 value="0.0018640368" flag="0"/>
      <psa30 value="0.0001201719" flag="0"/>
    </comp>
    <comp name="--.HHE">
      <acc value="0.0023546294" flag="0"/>
      <vel value="0.0014387921" flag="0"/>
      <psa03 value="0.0037789199" flag="0"/>
      <psa10 value="0.0016930320" flag="0"/>
      <psa30 value="0.0000922425" flag="0"/>
    </comp>
  </station>
  <station code="PANC" name="PANC" netid="RO" insttype="Seismometer/Basalt" lat="45.8723" lon="27.1477">
    <comp name="--.HHE">
      <acc value="0.0498054026" flag="0"/>
      <vel value="0.0135844177" flag="0"/>
      <psa03 value="0.0466559603" flag="0"/>
      <psa10 value="0.0148492889" flag="0"/>
      <psa30 value="0.0012535711" flag="0"/>
    </comp>
    <comp name="--.HHN">
      <acc value="0.0409062662" flag="0"/>
      <vel value="0.0123572709" flag="0"/>
      <psa03 value="0.0512849591" flag="0"/>
      <psa10 value="0.0094155428" flag="0"/>
      <psa30 value="0.0011363603" flag="0"/>
    </comp>
    <comp name="--.HHZ">
      <acc value="0.0529658591" flag="0"/>
      <vel value="0.0094975580" flag="0"/>
      <psa03 value="0.0424949294" flag="0"/>
      <psa10 value="0.0066952304" flag="0"/>
      <psa30 value="0.0005104824" flag="0"/>
    </comp>
  </station>
  <station code="PGOR" name="PGOR" netid="RO" insttype="CMG40T.1to100/Quanterra" lat="44.9199" lon="26.9768">
    <comp name="--.HHE">
      <acc value="0.0255585734" flag="0"/>
      <vel value="0.0115328277" flag="0"/>
      <psa03 value="0.0328933841" flag="0"/>
      <psa10 value="0.0134095683" flag="0"/>
      <psa30 value="0.0019494982" flag="0"/>
    </comp>
    <comp name="--.HHN">
      <acc value="0.0285592075" flag="0"/>
      <vel value="0.0083911790" flag="0"/>
      <psa03 value="0.0533149875" flag="0"/>
      <psa10 value="0.0154331592" flag="0"/>
      <psa30 value="0.0012454892" flag="0"/>
    </comp>
    <comp name="--.HHZ">
      <acc value="0.0425935715" flag="0"/>
      <vel value="0.0065311775" flag="0"/>
      <psa03 value="0.0262125063" flag="0"/>
      <psa10 value="0.0057059370" flag="0"/>
      <psa30 value="0.0003473516" flag="0"/>
    </comp>
  </station>
  <station code="PLOR" name="PLOR" netid="RO" insttype="MBB2/Quanterra" lat="45.8512" lon="26.6498">
    <comp name="--.HHE">
      <acc value="0.0133718430" flag="0"/>
      <vel value="0.0079975397" flag="0"/>
      <psa03 value="0.0388636659" flag="0"/>
      <psa10 value="0.0102752780" flag="0"/>
      <psa30 value="0.0010068299" flag="0"/>
    </comp>
    <comp name="--.HHZ">
      <acc value="0.0067134685" flag="0"/>
      <vel value="0.0045959797" flag="0"/>
      <psa03 value="0.0164509178" flag="0"/>
      <psa10 value="0.0057951497" flag="0"/>
      <psa30 value="0.0006442314" flag="0"/>
    </comp>
    <comp name="--.HHN">
      <acc value="0.0111342716" flag="0"/>
      <vel value="0.0069608427" flag="0"/>
      <psa03 value="0.0327271328" flag="0"/>
      <psa10 value="0.0076159418" flag="0"/>
      <psa30 value="0.0008230208" flag="0"/>
    </comp>
  </station>
  <station code="PLOR4" name="PLOR4" netid="RO" insttype="MBB2/Quanterra" lat="45.8512" lon="26.6498">
    <comp name="--.HHN">
      <acc value="0.0111342716" flag="0"/>
      <vel value="0.0069608427" flag="0"/>
      <psa03 value="0.0327271328" flag="0"/>
      <psa10 value="0.0076159418" flag="0"/>
      <psa30 value="0.0008230208" flag="0"/>
    </comp>
    <comp name="--.HHZ">
      <acc value="0.0067134685" flag="0"/>
      <vel value="0.0045959797" flag="0"/>
      <psa03 value="0.0164509178" flag="0"/>
      <psa10 value="0.0057951497" flag="0"/>
      <psa30 value="0.0006442314" flag="0"/>
    </comp>
    <comp name="--.HHE">
      <acc value="0.0133718430" flag="0"/>
      <vel value="0.0079975397" flag="0"/>
      <psa03 value="0.0388636659" flag="0"/>
      <psa10 value="0.0102752780" flag="0"/>
      <psa30 value="0.0010068299" flag="0"/>
    </comp>
  </station>
  <station code="SCHLR" name="SCHLR" netid="RO" insttype="CMG40T.1to100/Quanterra" lat="45.4702" lon="27.8314">
    <comp name="--.HHE">
      <acc value="0.0633934131" flag="0"/>
      <vel value="0.0095338791" flag="0"/>
      <psa03 value="0.0335171355" flag="0"/>
      <psa10 value="0.0033684248" flag="0"/>
      <psa30 value="0.0002544901" flag="0"/>
    </comp>
    <comp name="--.HHN">
      <acc value="0.0561244049" flag="0"/>
      <vel value="0.0131537663" flag="0"/>
      <psa03 value="0.0663014392" flag="0"/>
      <psa10 value="0.0044243425" flag="0"/>
      <psa30 value="0.0006276973" flag="0"/>
    </comp>
    <comp name="--.HHZ">
      <acc value="0.0650006179" flag="0"/>
      <vel value="0.0075273222" flag="0"/>
      <psa03 value="0.0151309772" flag="0"/>
      <psa10 value="0.0018771607" flag="0"/>
      <psa30 value="0.0000997882" flag="0"/>
    </comp>
  </station>
  <station code="SCTR" name="SCTR" netid="RO" insttype="MBB2/Basalt" lat="45.6741" lon="27.9949">
    <comp name="--.HHE">
      <acc value="0.0676632705" flag="0"/>
      <vel value="0.0157446932" flag="0"/>
      <psa03 value="0.0708851150" flag="0"/>
      <psa10 value="0.0131003196" flag="0"/>
      <psa30 value="0.0010261826" flag="0"/>
    </comp>
    <comp name="--.HHN">
      <acc value="0.0679622062" flag="0"/>
      <vel value="0.0174434118" flag="0"/>
      <psa03 value="0.1125265024" flag="0"/>
      <psa10 value="0.0147691455" flag="0"/>
      <psa30 value="0.0005343558" flag="0"/>
    </comp>
    <comp name="--.HHZ">
      <acc value="0.0275456536" flag="0"/>
      <vel value="0.0083791208" flag="0"/>
      <psa03 value="0.0414920306" flag="0"/>
      <psa10 value="0.0058636055" flag="0"/>
      <psa30 value="0.0003041942" flag="0"/>
    </comp>
  </station>
  <station code="SULR" name="SULR" netid="RO" insttype="330" lat="44.6777" lon="26.2526">
    <comp name="--.HHN">
      <acc value="0.0092074186" flag="0"/>
      <vel value="0.0030661396" flag="0"/>
      <psa03 value="0.0152319866" flag="0"/>
      <psa10 value="0.0040841451" flag="0"/>
