<?xml version="1.0" encoding="UTF-8" standalone="yes"?>
<!DOCTYPE earthquake SYSTEM "stationlist.dtd">
<stationlist created="" xmlns="ch.ethz.sed.shakemap.usgs.xml">
  <station code="ALT" name="ALT" netid="KO" insttype="CMG-5T" lat="39.0541" lon="30.1104">
    <comp name="--.HNZ">
      <acc value="0.0703630579" flag="0"/>
      <vel value="0.0311915155" flag="0"/>
      <psa03 value="0.1474606775" flag="0"/>
      <psa10 value="0.0240934861" flag="0"/>
      <psa30 value="0.0079499369" flag="0"/>
    </comp>
    <comp name="--.HNE">
      <acc value="0.0860158495" flag="0"/>
      <vel value="0.0299195010" flag="0"/>
      <psa03 value="0.0916993447" flag="0"/>
      <psa10 value="0.0113083860" flag="0"/>
      <psa30 value="0.0066921331" flag="0"/>
    </comp>
    <comp name="--.HNN">
      <acc value="0.1700513273" flag="0"/>
      <vel value="0.0543207834" flag="0"/>
      <psa03 value="0.2872989664" flag="0"/>
      <psa10 value="0.0244923713" flag="0"/>
      <psa30 value="0.0082596329" flag="0"/>
    </comp>
  </station>
  <station code="BAKL" name="BAKL" netid="KO" insttype="30s," lat="37.9793" lon="29.6135">
    <comp name="--.HHE">
      <acc value="0.0193177079" flag="0"/>
      <vel value="0.0141964640" flag="0"/>
      <psa03 value="0.0351960354" flag="0"/>
      <psa10 value="0.0236447149" flag="0"/>
      <psa30 value="0.0026399143" flag="0"/>
    </comp>
    <comp name="--.HHZ">
      <acc value="0.0159267507" flag="0"/>
      <vel value="0.0123196666" flag="0"/>
      <psa03 value="0.0292997800" flag="0"/>
      <psa10 value="0.0190100278" flag="0"/>
      <psa30 value="0.0021965989" flag="0"/>
    </comp>
    <comp name="--.HHN">
      <acc value="0.0316995841" flag="0"/>
      <vel value="0.0349923084" flag="0"/>
      <psa03 value="0.0442425585" flag="0"/>
      <psa10 value="0.0395453820" flag="0"/>
      <psa30 value="0.0038174290" flag="0"/>
    </comp>
  </station>
  <station code="BLVD" name="BLVD" netid="KO" insttype="30s," lat="38.7946" lon="31.095">
    <comp name="--.HHN">
      <acc value="0.0037845793" flag="0"/>
      <vel value="0.0021418133" flag="0"/>
      <psa03 value="0.0065061161" flag="0"/>
      <psa10 value="0.0034875276" flag="0"/>
      <psa30 value="0.0009435636" flag="0"/>
    </comp>
    <comp name="--.HHE">
      <acc value="0.0037516636" flag="0"/>
      <vel value="0.0029532983" flag="0"/>
      <psa03 value="0.0075673510" flag="0"/>
      <psa10 value="0.0041548197" flag="0"/>
      <psa30 value="0.0012503411" flag="0"/>
    </comp>
    <comp name="--.HHZ">
      <acc value="0.0031255539" flag="0"/>
      <vel value="0.0020112982" flag="0"/>
      <psa03 value="0.0065960660" flag="0"/>
      <psa10 value="0.0042811803" flag="0"/>
      <psa30 value="0.0010386671" flag="0"/>
    </comp>
  </station>
  <station code="GEDZ" name="GEDZ" netid="KO" insttype="30s," lat="39.0445" lon="29.4105">
    <comp name="--.HHE">
      <acc value="0.5940556191" flag="0"/>
      <vel value="0.1453371287" flag="0"/>
      <psa03 value="0.8742935060" flag="0"/>
      <psa10 value="0.1444359491" flag="0"/>
      <psa30 value="0.0153148504" flag="0"/>
    </comp>
    <comp name="--.HHZ">
      <acc value="0.2227362846" flag="0"/>
      <vel value="0.0668136106" flag="0"/>
      <psa03 value="0.2142381040" flag="0"/>
      <psa10 value="0.0544368252" flag="0"/>
      <psa30 value="0.0051671055" flag="0"/>
    </comp>
    <comp name="--.HHN">
      <acc value="0.5548625859" flag="0"/>
      <vel value="0.2351435572" flag="0"/>
      <psa03 value="1.0367682371" flag="0"/>
      <psa10 value="0.1167732017" flag="0"/>
      <psa30 value="0.0112928573" flag="0"/>
    </comp>
  </station>
  <station code="SDAG" name="SDAG" netid="KO" insttype="30s," lat="38.4396" lon="30.9175">
    <comp name="--.HHN">
      <acc value="0.0024571565" flag="0"/>
      <vel value="0.0013425105" flag="0"/>
      <psa03 value="0.0043788992" flag="0"/>
      <psa10 value="0.0018075142" flag="0"/>
      <psa30 value="0.0000701772" flag="0"/>
    </comp>
    <comp name="--.HHZ">
      <acc value="0.0046106562" flag="0"/>
      <vel value="0.0040799636" flag="0"/>
      <psa03 value="0.0119581674" flag="0"/>
      <psa10 value="0.0069208455" flag="0"/>
      <psa30 value="0.0008450125" flag="0"/>
    </comp>
    <comp name="--.HHE">
      <acc value="0.0058302452" flag="0"/>
      <vel value="0.0069550070" flag="0"/>
      <psa03 value="0.0132078726" flag="0"/>
      <psa10 value="0.0171935932" flag="0"/>
      <psa30 value="0.0016261060" flag="0"/>
    </comp>
  </station>
  <station code="SHAP" name="SHAP" netid="KO" insttype="CMG-5T" lat="39.0231" lon="29.222">
    <comp name="--.HNN">
      <acc value="0.2132833005" flag="0"/>
      <vel value="0.0460344949" flag="0"/>
      <psa03 value="0.1545481289" flag="0"/>
      <psa10 value="0.0172393836" flag="0"/>
      <psa30 value="0.0038554107" flag="0"/>
    </comp>
    <comp name="--.HNZ">
      <acc value="0.1333146824" flag="0"/>
      <vel value="0.0237837057" flag="0"/>
      <psa03 value="0.0707615159" flag="0"/>
      <psa10 value="0.0095971661" flag="0"/>
      <psa30 value="0.0054596277" flag="0"/>
    </comp>
    <comp name="--.HNE">
      <acc value="0.1600735227" flag="0"/>
      <vel value="0.0402273039" flag="0"/>
      <psa03 value="0.1702622463" flag="0"/>
      <psa10 value="0.0129308128" flag="0"/>
      <psa30 value="0.0048986242" flag="0"/>
    </comp>
  </station>
  <station code="SMAA" name="SMAA" netid="KO" insttype="CMG-5T" lat="39.1005" lon="28.9805">
    <comp name="--.HNE">
      <acc value="0.1228122022" flag="0"/>
      <vel value="0.0508854919" flag="0"/>
      <psa03 value="0.2736489002" flag="0"/>
      <psa10 value="0.0511886735" flag="0"/>
      <psa30 value="0.0085101338" flag="0"/>
    </comp>
    <comp name="--.HNN">
      <acc value="0.1106939112" flag="0"/>
      <vel value="0.0691358182" flag="0"/>
      <psa03 value="0.3839546242" flag="0"/>
      <psa10 value="0.0532382580" flag="0"/>
      <psa30 value="0.0112610288" flag="0"/>
    </comp>
    <comp name="--.HNZ">
      <acc value="0.0502219560" flag="0"/>
      <vel value="0.0153798777" flag="0"/>
      <psa03 value="0.0673232078" flag="0"/>
      <psa10 value="0.0240311073" flag="0"/>
      <psa30 value="0.0032064672" flag="0"/>
    </comp>
  </station>
  <station code="TVSB" name="TVSB" netid="KO" insttype="120" lat="39.4497" lon="29.4615">
    <comp name="--.HHE">
      <acc value="0.0950352695" flag="0"/>
      <vel value="0.0258635468" flag="0"/>
      <psa03 value="0.1706160349" flag="0"/>
      <psa10 value="0.0116922735" flag="0"/>
      <psa30 value="0.0020345068" flag="0"/>
    </comp>
    <comp name="--.HHZ">
      <acc value="0.0376545167" flag="0"/>
      <vel value="0.0142455471" flag="0"/>
      <psa03 value="0.0957870119" flag="0"/>
      <psa10 value="0.0111313007" flag="0"/>
      <psa30 value="0.0036607989" flag="0"/>
    </comp>
    <comp name="--.HHN">
      <acc value="0.0728717342" flag="0"/>
      <vel value="0.0277073877" flag="0"/>
      <psa03 value="0.2071247240" flag="0"/>
      <psa10 value="0.0121202017" flag="0"/>
      <psa30 value="0.0034003470" flag="0"/>
    </comp>
  </station>
</stationlist>
