<stationlist created="1778138955">
	<station code="AKS" name="AKS" netid="KO" source="Bogazici University Kandilli Observatory And Earthquake Research Institute (KOERI)" insttype="" lat="38.8785" lon="27.8129">
		<comp name="--.HNE" depth="0.0">
			<acc value="0.0141755316539423" flag="0"/>
			<vel value="0.00521379166813736" flag="0"/>
			<psa03 value="0.0258883946665747" flag="0"/>
			<psa10 value="0.00920627112029263" flag="0"/>
			<psa30 value="0.00284658190541248" flag="0"/>
		</comp>
		<comp name="--.HNN" depth="0.0">
			<acc value="0.0108950379731784" flag="0"/>
			<vel value="0.00494500261356504" flag="0"/>
			<psa03 value="0.0201411467521448" flag="0"/>
			<psa10 value="0.00814438827573491" flag="0"/>
			<psa30 value="0.0012563583317399" flag="0"/>
		</comp>
		<comp name="--.HNZ" depth="0.0">
			<acc value="0.00514562272652862" flag="0"/>
			<vel value="0.00322099844272456" flag="0"/>
			<psa03 value="0.00921857748240622" flag="0"/>
			<psa10 value="0.00321090059703276" flag="0"/>
			<psa30 value="0.00262545225666147" flag="0"/>
		</comp>
	</station>
	<station code="ALT" name="ALT" netid="KO" source="Bogazici University Kandilli Observatory And Earthquake Research Institute (KOERI)" insttype="" lat="39.0541" lon="30.1104">
		<comp name="--.HNE" depth="0.0">
			<acc value="0.0858430178867079" flag="0"/>
			<vel value="0.0306252378062051" flag="0"/>
			<psa03 value="0.0938806670499123" flag="0"/>
			<psa10 value="0.0113165406027918" flag="0"/>
			<psa30 value="0.00729767843538528" flag="0"/>
		</comp>
		<comp name="--.HNN" depth="0.0">
			<acc value="0.171260061282988" flag="0"/>
			<vel value="0.0563461911281628" flag="0"/>
			<psa03 value="0.290762678267112" flag="0"/>
			<psa10 value="0.0243129937414991" flag="0"/>
			<psa30 value="0.00913925793100319" flag="0"/>
		</comp>
		<comp name="--.HNZ" depth="0.0">
			<acc value="0.0647237398083692" flag="0"/>
			<vel value="0.0315057573483489" flag="0"/>
			<psa03 value="0.147487603663285" flag="0"/>
			<psa10 value="0.0240077103929864" flag="0"/>
			<psa30 value="0.00853955403687488" flag="0"/>
		</comp>
	</station>
	<station code="BASM" name="BASM" netid="KO" source="Bogazici University Kandilli Observatory And Earthquake Research Institute (KOERI)" insttype="" lat="37.9194" lon="30.035">
		<comp name="--.HNE" depth="0.0">
			<acc value="0.0269356869810798" flag="0"/>
			<vel value="0.0274130496419703" flag="0"/>
			<psa03 value="0.0733832779487301" flag="0"/>
			<psa10 value="0.0862156763652356" flag="0"/>
			<psa30 value="0.00307210809541958" flag="0"/>
		</comp>
		<comp name="--.HNN" depth="0.0">
			<acc value="0.0233806812795101" flag="0"/>
			<vel value="0.022049214030486" flag="0"/>
			<psa03 value="0.0396290939829835" flag="0"/>
			<psa10 value="0.0520505568441099" flag="0"/>
			<psa30 value="0.00381827002498244" flag="0"/>
		</comp>
		<comp name="--.HNZ" depth="0.0">
			<acc value="0.0111280808299679" flag="0"/>
			<vel value="0.0100413568707839" flag="0"/>
			<psa03 value="0.0249964709976757" flag="0"/>
			<psa10 value="0.0112244748163647" flag="0"/>
			<psa30 value="0.00151950618065869" flag="0"/>
		</comp>
	</station>
	<station code="BRGA" name="BRGA" netid="KO" source="Bogazici University Kandilli Observatory And Earthquake Research Institute (KOERI)" insttype="" lat="40.8846" lon="29.065">
		<comp name="--.HNE" depth="0.0">
			<acc value="0.0106780722479376" flag="0"/>
			<vel value="0.0069797091614342" flag="0"/>
			<psa03 value="0.0444682010083926" flag="0"/>
			<psa10 value="0.0076579229248232" flag="0"/>
			<psa30 value="0.0006797084648487" flag="0"/>
		</comp>
		<comp name="--.HNN" depth="0.0">
			<acc value="0.0120965012516937" flag="0"/>
			<vel value="0.0062145831789922" flag="0"/>
			<psa03 value="0.0401566601816745" flag="0"/>
			<psa10 value="0.00662267481343487" flag="0"/>
			<psa30 value="0.000551399079567684" flag="0"/>
		</comp>
		<comp name="--.HNZ" depth="0.0">
			<acc value="0.00497600834301532" flag="0"/>
			<vel value="0.00382942751354061" flag="0"/>
			<psa03 value="0.0227966455825562" flag="0"/>
			<psa10 value="0.00383934941617941" flag="0"/>
			<psa30 value="0.000679163012048539" flag="0"/>
		</comp>
	</station>
	<station code="BUYA" name="BUYA" netid="KO" source="Bogazici University Kandilli Observatory And Earthquake Research Institute (KOERI)" insttype="" lat="40.8694" lon="29.1278">
		<comp name="--.HNE" depth="0.0">
			<acc value="0.024771031951104" flag="0"/>
			<vel value="0.00813151169331746" flag="0"/>
			<psa03 value="0.0403710858446267" flag="0"/>
			<psa10 value="0.00884359490724921" flag="0"/>
			<psa30 value="0.00072664594922618" flag="0"/>
		</comp>
		<comp name="--.HNN" depth="0.0">
			<acc value="0.0296623055364096" flag="0"/>
			<vel value="0.0108473676906466" flag="0"/>
			<psa03 value="0.107361664266661" flag="0"/>
			<psa10 value="0.011540211044845" flag="0"/>
			<psa30 value="0.00072138221511648" flag="0"/>
		</comp>
		<comp name="--.HNZ" depth="0.0">
			<acc value="0.0243090638477649" flag="0"/>
			<vel value="0.00802413621276654" flag="0"/>
			<psa03 value="0.0596103759783184" flag="0"/>
			<psa10 value="0.00776100272209904" flag="0"/>
			<psa30 value="0.000549248103742832" flag="0"/>
		</comp>
	</station>
	<station code="DST" name="DST" netid="KO" source="Bogazici University Kandilli Observatory And Earthquake Research Institute (KOERI)" insttype="" lat="39.6041" lon="28.6267">
		<comp name="--.HNE" depth="0.0">
			<acc value="0.0519338010445211" flag="0"/>
			<vel value="0.0347108369933578" flag="0"/>
			<psa03 value="0.177618141329938" flag="0"/>
			<psa10 value="0.0333917995428291" flag="0"/>
			<psa30 value="0.00204362246329001" flag="0"/>
		</comp>
		<comp name="--.HNN" depth="0.0">
			<acc value="0.0366637370298249" flag="0"/>
			<vel value="0.0265205374422983" flag="0"/>
			<psa03 value="0.125882339087096" flag="0"/>
			<psa10 value="0.0376348681253161" flag="0"/>
			<psa30 value="0.0016405427404058" flag="0"/>
		</comp>
		<comp name="--.HNZ" depth="0.0">
			<acc value="0.0297916949758426" flag="0"/>
			<vel value="0.0181811279446565" flag="0"/>
			<psa03 value="0.116536272039464" flag="0"/>
			<psa10 value="0.0119482708893043" flag="0"/>
			<psa30 value="0.00117123175502146" flag="0"/>
		</comp>
	</station>
	<station code="ESKT" name="ESKT" netid="KO" source="Bogazici University Kandilli Observatory And Earthquake Research Institute (KOERI)" insttype="" lat="39.5212" lon="30.8492">
		<comp name="--.HNE" depth="0.0">
			<acc value="0.03672835590854" flag="0"/>
			<vel value="0.0235086482157168" flag="0"/>
			<psa03 value="0.0780187881536307" flag="0"/>
			<psa10 value="0.0141681170057322" flag="0"/>
			<psa30 value="0.00201043547314874" flag="0"/>
		</comp>
		<comp name="--.HNN" depth="0.0">
			<acc value="0.060532621518474" flag="0"/>
			<vel value="0.0303153082748961" flag="0"/>
			<psa03 value="0.11256348802847" flag="0"/>
			<psa10 value="0.0316400547483556" flag="0"/>
			<psa30 value="0.00328349168187409" flag="0"/>
		</comp>
		<comp name="--.HNZ" depth="0.0">
			<acc value="0.0148264881883702" flag="0"/>
			<vel value="0.00874775349926108" flag="0"/>
			<psa03 value="0.0352759540463517" flag="0"/>
			<psa10 value="0.00630866791829567" flag="0"/>
			<psa30 value="0.00236406764954679" flag="0"/>
		</comp>
	</station>
	<station code="GOMA" name="GOMA" netid="KO" source="Bogazici University Kandilli Observatory And Earthquake Research Institute (KOERI)" insttype="" lat="38.7077" lon="27.9175">
		<comp name="--.HNE" depth="0.0">
			<acc value="0.0104571751709185" flag="0"/>
			<vel value="0.00801755547281284" flag="0"/>
			<psa03 value="0.0398099991962313" flag="0"/>
			<psa10 value="0.00832216786526424" flag="0"/>
			<psa30 value="0.00145797731300939" flag="0"/>
		</comp>
		<comp name="--.HNN" depth="0.0">
			<acc value="0.0101930570776896" flag="0"/>
			<vel value="0.00732765166423014" flag="0"/>
			<psa03 value="0.0258592937804526" flag="0"/>
			<psa10 value="0.00637575564377028" flag="0"/>
			<psa30 value="0.00107210102143283" flag="0"/>
		</comp>
		<comp name="--.HNZ" depth="0.0">
			<acc value="0.00487476096415387" flag="0"/>
			<vel value="0.00289190653735033" flag="0"/>
			<psa03 value="0.0150697730380676" flag="0"/>
			<psa10 value="0.0047479978127869" flag="0"/>
			<psa30 value="0.00116550095871707" flag="0"/>
		</comp>
	</station>
	<station code="GONE" name="GONE" netid="KO" source="Bogazici University Kandilli Observatory And Earthquake Research Institute (KOERI)" insttype="" lat="40.0466" lon="27.686">
		<comp name="--.HNE" depth="0.0">
			<acc value="0.0112468534404387" flag="0"/>
			<vel value="0.00704639356233354" flag="0"/>
			<psa03 value="0.0232987804090356" flag="0"/>
			<psa10 value="0.0074381386776793" flag="0"/>
			<psa30 value="0.00077904035759965" flag="0"/>
		</comp>
		<comp name="--.HNN" depth="0.0">
			<acc value="0.0143638921895735" flag="0"/>
			<vel value="0.0123442271847056" flag="0"/>
			<psa03 value="0.0323155079312868" flag="0"/>
			<psa10 value="0.0190501369780645" flag="0"/>
			<psa30 value="0.000881209729985542" flag="0"/>
		</comp>
		<comp name="--.HNZ" depth="0.0">
			<acc value="0.00581397833992024" flag="0"/>
			<vel value="0.00324805268298572" flag="0"/>
			<psa03 value="0.00813690556651868" flag="0"/>
			<psa10 value="0.00381276671770818" flag="0"/>
			<psa30 value="0.000523287998593861" flag="0"/>
		</comp>
	</station>
	<station code="GORD" name="GORD" netid="KO" source="Bogazici University Kandilli Observatory And Earthquake Research Institute (KOERI)" insttype="" lat="38.9088" lon="28.1769">
		<comp name="--.HNE" depth="0.0">
			<acc value="0.0115037464493" flag="0"/>
			<vel value="0.0123124486298046" flag="0"/>
			<psa03 value="0.0315157596394004" flag="0"/>
			<psa10 value="0.016285331948301" flag="0"/>
			<psa30 value="0.00326273197331523" flag="0"/>
		</comp>
		<comp name="--.HNN" depth="0.0">
			<acc value="0.0143005991298214" flag="0"/>
			<vel value="0.0113255582775269" flag="0"/>
			<psa03 value="0.0258510354209107" flag="0"/>
			<psa10 value="0.0141752199762437" flag="0"/>
			<psa30 value="0.00158596193719396" flag="0"/>
		</comp>
		<comp name="--.HNZ" depth="0.0">
			<acc value="0.00727721280609775" flag="0"/>
			<vel value="0.00705482683208781" flag="0"/>
			<psa03 value="0.0162204221796023" flag="0"/>
			<psa10 value="0.00966549185389801" flag="0"/>
			<psa30 value="0.00248229631494644" flag="0"/>
		</comp>
	</station>
	<station code="GPA" name="GPA" netid="KO" source="Bogazici University Kandilli Observatory And Earthquake Research Institute (KOERI)" insttype="" lat="40.2911" lon="30.3171">
		<comp name="--.HNE" depth="0.0">
			<acc value="0.0158132177596873" flag="0"/>
			<vel value="0.0115227606422152" flag="0"/>
			<psa03 value="0.0539466361997376" flag="0"/>
			<psa10 value="0.0147924321135281" flag="0"/>
			<psa30 value="0.00179761908344149" flag="0"/>
		</comp>
		<comp name="--.HNN" depth="0.0">
			<acc value="0.0187411801554301" flag="0"/>
			<vel value="0.00885738194122856" flag="0"/>
			<psa03 value="0.033119113249524" flag="0"/>
			<psa10 value="0.00939470329049027" flag="0"/>
			<psa30 value="0.00182268574398538" flag="0"/>
		</comp>
		<comp name="--.HNZ" depth="0.0">
			<acc value="0.00934909810832524" flag="0"/>
			<vel value="0.00681674981089263" flag="0"/>
			<psa03 value="0.0236641353411481" flag="0"/>
			<psa10 value="0.00734456951043915" flag="0"/>
			<psa30 value="0.00225498979867262" flag="0"/>
		</comp>
	</station>
	<station code="HYBA" name="HYBA" netid="KO" source="Bogazici University Kandilli Observatory And Earthquake Research Institute (KOERI)" insttype="" lat="40.8748" lon="29.0861">
		<comp name="--.HNE" depth="0.0">
			<acc value="0.00628356859524812" flag="0"/>
			<vel value="0.00483042846942031" flag="0"/>
			<psa03 value="0.0241158371391685" flag="0"/>
			<psa10 value="0.00949458646975399" flag="0"/>
			<psa30 value="0.000569363134181953" flag="0"/>
		</comp>
		<comp name="--.HNN" depth="0.0">
			<acc value="0.00969992145964179" flag="0"/>
			<vel value="0.00654435611105467" flag="0"/>
			<psa03 value="0.0386053777293294" flag="0"/>
			<psa10 value="0.00553766793708426" flag="0"/>
			<psa30 value="0.000620813365419958" flag="0"/>
		</comp>
		<comp name="--.HNZ" depth="0.0">
			<acc value="0.00496853465780163" flag="0"/>
			<vel value="0.00316473336348155" flag="0"/>
			<psa03 value="0.0128529504032136" flag="0"/>
			<psa10 value="0.0034286383804651" flag="0"/>
			<psa30 value="0.000415520130336099" flag="0"/>
		</comp>
	</station>
	<station code="IZI" name="IZI" netid="KO" source="Bogazici University Kandilli Observatory And Earthquake Research Institute (KOERI)" insttype="" lat="40.3483" lon="29.4612">
		<comp name="--.HNE" depth="0.0">
			<acc value="0.0420452366093363" flag="0"/>
			<vel value="0.0307354540681863" flag="0"/>
			<psa03 value="0.137473284013825" flag="0"/>
			<psa10 value="0.0255316744731285" flag="0"/>
			<psa30 value="0.00188127379182443" flag="0"/>
		</comp>
		<comp name="--.HNN" depth="0.0">
			<acc value="0.0401582099799701" flag="0"/>
			<vel value="0.0234968805671363" flag="0"/>
			<psa03 value="0.11876070064694" flag="0"/>
			<psa10 value="0.019565970524508" flag="0"/>
			<psa30 value="0.00195748404870974" flag="0"/>
		</comp>
		<comp name="--.HNZ" depth="0.0">
			<acc value="0.0297893180739274" flag="0"/>
			<vel value="0.0178284402754943" flag="0"/>
			<psa03 value="0.109805471990496" flag="0"/>
			<psa10 value="0.0164453306724631" flag="0"/>
			<psa30 value="0.00302275190914578" flag="0"/>
		</comp>
	</station>
	<station code="KCTX" name="KCTX" netid="KO" source="Bogazici University Kandilli Observatory And Earthquake Research Institute (KOERI)" insttype="" lat="40.2626" lon="28.3353">
		<comp name="--.HNE" depth="0.0">
			<acc value="0.0110260017770526" flag="0"/>
			<vel value="0.00519169197435148" flag="0"/>
			<psa03 value="0.0180445000470606" flag="0"/>
			<psa10 value="0.00580016470121095" flag="0"/>
			<psa30 value="0.000760463033192238" flag="0"/>
		</comp>
		<comp name="--.HNN" depth="0.0">
			<acc value="0.0178285913192974" flag="0"/>
			<vel value="0.00796695569083175" flag="0"/>
			<psa03 value="0.0433651774176894" flag="0"/>
			<psa10 value="0.00535252848501096" flag="0"/>
			<psa30 value="0.00107050435315928" flag="0"/>
		</comp>
		<comp name="--.HNZ" depth="0.0">
			<acc value="0.0072226337767011" flag="0"/>
			<vel value="0.00631268585864037" flag="0"/>
			<psa03 value="0.014195812798779" flag="0"/>
			<psa10 value="0.0059267168346671" flag="0"/>
			<psa30 value="0.00140833714959222" flag="0"/>
		</comp>
	</station>
	<station code="KHL" name="KHL" netid="KO" source="Bogazici University Kandilli Observatory And Earthquake Research Institute (KOERI)" insttype="" lat="38.3231" lon="29.5286">
		<comp name="--.HNE" depth="0.0">
			<acc value="0.0308834706082487" flag="0"/>
			<vel value="0.01200231909478" flag="0"/>
			<psa03 value="0.072592788082734" flag="0"/>
			<psa10 value="0.0087196829486815" flag="0"/>
			<psa30 value="0.00223245476417342" flag="0"/>
		</comp>
		<comp name="--.HNN" depth="0.0">
			<acc value="0.0315344764359286" flag="0"/>
			<vel value="0.00879983690276606" flag="0"/>
			<psa03 value="0.0519097721008685" flag="0"/>
			<psa10 value="0.00630868432560735" flag="0"/>
			<psa30 value="0.00374331964322239" flag="0"/>
		</comp>
		<comp name="--.HNZ" depth="0.0">
			<acc value="0.0206656919165528" flag="0"/>
			<vel value="0.00802818506662954" flag="0"/>
			<psa03 value="0.0455973122649827" flag="0"/>
			<psa10 value="0.00644903456064959" flag="0"/>
			<psa30 value="0.00382243946785352" flag="0"/>
		</comp>
	</station>
	<station code="LAFA" name="LAFA" netid="KO" source="Bogazici University Kandilli Observatory And Earthquake Research Institute (KOERI)" insttype="" lat="40.7598" lon="29.3554">
		<comp name="--.HNE" depth="0.0">
			<acc value="0.001448123020901" flag="0"/>
			<vel value="0.000769298341899167" flag="0"/>
			<psa03 value="0.00317196370775702" flag="0"/>
			<psa10 value="0.000776662680560532" flag="0"/>
			<psa30 value="0.00049228245504452" flag="0"/>
		</comp>
		<comp name="--.HNN" depth="0.0">
			<acc value="0.0259207551807996" flag="0"/>
			<vel value="0.00940136829695367" flag="0"/>
			<psa03 value="0.0720433193912325" flag="0"/>
			<psa10 value="0.00537980638578082" flag="0"/>
			<psa30 value="0.000990156113818358" flag="0"/>
		</comp>
		<comp name="--.HNZ" depth="0.0">
			<acc value="0.0415356415264115" flag="0"/>
			<vel value="0.00363457095202351" flag="0"/>
			<psa03 value="0.0168001155293774" flag="0"/>
			<psa10 value="0.00318210197051426" flag="0"/>
			<psa30 value="0.000450227064917466" flag="0"/>
		</comp>
	</station>
	<station code="ODEM" name="ODEM" netid="KO" source="Bogazici University Kandilli Observatory And Earthquake Research Institute (KOERI)" insttype="" lat="38.2762" lon="28.0747">
		<comp name="--.HNE" depth="0.0">
			<acc value="0.00309412162292145" flag="0"/>
			<vel value="0.00276170291337492" flag="0"/>
			<psa03 value="0.00841699703787422" flag="0"/>
			<psa10 value="0.00466108486776047" flag="0"/>
			<psa30 value="0.000694251094895884" flag="0"/>
		</comp>
		<comp name="--.HNN" depth="0.0">
			<acc value="0.00388924035952177" flag="0"/>
			<vel value="0.00295711599372478" flag="0"/>
			<psa03 value="0.00753131076134351" flag="0"/>
			<psa10 value="0.00385080900344695" flag="0"/>
			<psa30 value="0.00083895703512094" flag="0"/>
		</comp>
		<comp name="--.HNZ" depth="0.0">
			<acc value="0.00262784039120975" flag="0"/>
			<vel value="0.00249606991193147" flag="0"/>
			<psa03 value="0.00664342056277426" flag="0"/>
			<psa10 value="0.00320088579297553" flag="0"/>
			<psa30 value="0.000686297078398095" flag="0"/>
		</comp>
	</station>
	<station code="ORLT" name="ORLT" netid="KO" source="Bogazici University Kandilli Observatory And Earthquake Research Institute (KOERI)" insttype="" lat="40.0452" lon="28.8914">
		<comp name="--.HNE" depth="0.0">
			<acc value="0.0958087354392322" flag="0"/>
			<vel value="0.0493363438392327" flag="0"/>
			<psa03 value="0.336783185232984" flag="0"/>
			<psa10 value="0.0172662938072155" flag="0"/>
			<psa30 value="0.00198681661685013" flag="0"/>
		</comp>
		<comp name="--.HNN" depth="0.0">
			<acc value="0.071381598684165" flag="0"/>
			<vel value="0.0383112386572743" flag="0"/>
			<psa03 value="0.281035992255216" flag="0"/>
			<psa10 value="0.0324927412346297" flag="0"/>
			<psa30 value="0.00218402072232155" flag="0"/>
		</comp>
		<comp name="--.HNZ" depth="0.0">
			<acc value="0.0253352998950471" flag="0"/>
			<vel value="0.0176176210101164" flag="0"/>
			<psa03 value="0.0826634604237576" flag="0"/>
			<psa10 value="0.0193015836352004" flag="0"/>
			<psa30 value="0.00281073432235283" flag="0"/>
		</comp>
	</station>
	<station code="OSMT" name="OSMT" netid="KO" source="Bogazici University Kandilli Observatory And Earthquake Research Institute (KOERI)" insttype="" lat="40.6009" lon="29.7">
		<comp name="--.HNE" depth="0.0">
			<acc value="0.0207540018074794" flag="0"/>
			<vel value="0.0119280604391342" flag="0"/>
			<psa03 value="0.0522955007785946" flag="0"/>
			<psa10 value="0.0128783006241988" flag="0"/>
			<psa30 value="0.00127100086423522" flag="0"/>
		</comp>
		<comp name="--.HNN" depth="0.0">
			<acc value="0.0293543863851222" flag="0"/>
			<vel value="0.0137152341545126" flag="0"/>
			<psa03 value="0.0503385794755702" flag="0"/>
			<psa10 value="0.0131174380284093" flag="0"/>
			<psa30 value="0.00142069442653383" flag="0"/>
		</comp>
		<comp name="--.HNZ" depth="0.0">
			<acc value="0.00818424926256835" flag="0"/>
			<vel value="0.00681079681274895" flag="0"/>
			<psa03 value="0.0205184100252309" flag="0"/>
			<psa10 value="0.0108216371928714" flag="0"/>
			<psa30 value="0.00165241300591821" flag="0"/>
		</comp>
	</station>
	<station code="SHAP" name="SHAP" netid="KO" source="Bogazici University Kandilli Observatory And Earthquake Research Institute (KOERI)" insttype="" lat="39.0231" lon="29.222">
		<comp name="--.HNE" depth="0.0">
