<?xml version="1.0" encoding="UTF-8" standalone="yes"?>
<!DOCTYPE earthquake SYSTEM "stationlist.dtd">
<stationlist created="" xmlns="ch.ethz.sed.shakemap.usgs.xml">
  <station code="ALT" name="ALT" netid="KO" insttype="CMG-5T" lat="39.0541" lon="30.1104">
    <comp name="--.HNN">
      <acc value="0.1700513273" flag="0"/>
      <vel value="0.0543207834" flag="0"/>
      <psa03 value="0.2872989664" flag="0"/>
      <psa10 value="0.0244923713" flag="0"/>
      <psa30 value="0.0082596329" flag="0"/>
    </comp>
    <comp name="--.HNE">
      <acc value="0.0860158495" flag="0"/>
      <vel value="0.0299195010" flag="0"/>
      <psa03 value="0.0916993447" flag="0"/>
      <psa10 value="0.0113083860" flag="0"/>
      <psa30 value="0.0066921331" flag="0"/>
    </comp>
    <comp name="--.HNZ">
      <acc value="0.0703630579" flag="0"/>
      <vel value="0.0311915155" flag="0"/>
      <psa03 value="0.1474606775" flag="0"/>
      <psa10 value="0.0240934861" flag="0"/>
      <psa30 value="0.0079499369" flag="0"/>
    </comp>
  </station>
  <station code="BAKL" name="BAKL" netid="KO" insttype="30s," lat="37.9793" lon="29.6135">
    <comp name="--.HHE">
      <acc value="0.0193177087" flag="0"/>
      <vel value="0.0141964637" flag="0"/>
      <psa03 value="0.0351960354" flag="0"/>
      <psa10 value="0.0236447149" flag="0"/>
      <psa30 value="0.0026399149" flag="0"/>
    </comp>
    <comp name="--.HHZ">
      <acc value="0.0159267503" flag="0"/>
      <vel value="0.0123196665" flag="0"/>
      <psa03 value="0.0292997800" flag="0"/>
      <psa10 value="0.0190100278" flag="0"/>
      <psa30 value="0.0021965967" flag="0"/>
    </comp>
    <comp name="--.HHN">
      <acc value="0.0316995836" flag="0"/>
      <vel value="0.0349923091" flag="0"/>
      <psa03 value="0.0442425585" flag="0"/>
      <psa10 value="0.0395453820" flag="0"/>
      <psa30 value="0.0038174223" flag="0"/>
    </comp>
  </station>
  <station code="BLVD" name="BLVD" netid="KO" insttype="30s," lat="38.7946" lon="31.095">
    <comp name="--.HHE">
      <acc value="0.0037516637" flag="0"/>
      <vel value="0.0029532985" flag="0"/>
      <psa03 value="0.0075673510" flag="0"/>
      <psa10 value="0.0041548197" flag="0"/>
      <psa30 value="0.0012503411" flag="0"/>
    </comp>
    <comp name="--.HHN">
      <acc value="0.0037845792" flag="0"/>
      <vel value="0.0021418132" flag="0"/>
      <psa03 value="0.0065061161" flag="0"/>
      <psa10 value="0.0034875276" flag="0"/>
      <psa30 value="0.0009435638" flag="0"/>
    </comp>
    <comp name="--.HHZ">
      <acc value="0.0031255538" flag="0"/>
      <vel value="0.0020112978" flag="0"/>
      <psa03 value="0.0065960660" flag="0"/>
      <psa10 value="0.0042811803" flag="0"/>
      <psa30 value="0.0010386671" flag="0"/>
    </comp>
  </station>
  <station code="GEDZ" name="GEDZ" netid="KO" insttype="30s," lat="39.0445" lon="29.4105">
    <comp name="--.HHE">
      <acc value="0.5940556193" flag="0"/>
      <vel value="0.1453371389" flag="0"/>
      <psa03 value="0.8742935059" flag="0"/>
      <psa10 value="0.1444359491" flag="0"/>
      <psa30 value="0.0153148139" flag="0"/>
    </comp>
    <comp name="--.HHN">
      <acc value="0.5548625860" flag="0"/>
      <vel value="0.2351435576" flag="0"/>
      <psa03 value="1.0367682371" flag="0"/>
      <psa10 value="0.1167732017" flag="0"/>
      <psa30 value="0.0112928572" flag="0"/>
    </comp>
    <comp name="--.HHZ">
      <acc value="0.2227362848" flag="0"/>
      <vel value="0.0668136096" flag="0"/>
      <psa03 value="0.2142381040" flag="0"/>
      <psa10 value="0.0544368252" flag="0"/>
      <psa30 value="0.0051671068" flag="0"/>
    </comp>
  </station>
  <station code="SDAG" name="SDAG" netid="KO" insttype="30s," lat="38.4396" lon="30.9175">
    <comp name="--.HHE">
      <acc value="0.0058302438" flag="0"/>
      <vel value="0.0069550063" flag="0"/>
      <psa03 value="0.0132078726" flag="0"/>
      <psa10 value="0.0171935932" flag="0"/>
      <psa30 value="0.0016261056" flag="0"/>
    </comp>
    <comp name="--.HHN">
      <acc value="0.0024571496" flag="0"/>
      <vel value="0.0013425108" flag="0"/>
      <psa03 value="0.0043788992" flag="0"/>
      <psa10 value="0.0018075140" flag="0"/>
      <psa30 value="0.0000701796" flag="0"/>
    </comp>
    <comp name="--.HHZ">
      <acc value="0.0046106570" flag="0"/>
      <vel value="0.0040799634" flag="0"/>
      <psa03 value="0.0119581674" flag="0"/>
      <psa10 value="0.0069208456" flag="0"/>
      <psa30 value="0.0008450120" flag="0"/>
    </comp>
  </station>
  <station code="SHAP" name="SHAP" netid="KO" insttype="CMG-5T" lat="39.0231" lon="29.222">
    <comp name="--.HNZ">
      <acc value="0.1333146824" flag="0"/>
      <vel value="0.0237837058" flag="0"/>
      <psa03 value="0.0707615159" flag="0"/>
      <psa10 value="0.0095971661" flag="0"/>
      <psa30 value="0.0054596106" flag="0"/>
    </comp>
    <comp name="--.HNE">
      <acc value="0.1600735228" flag="0"/>
      <vel value="0.0402273040" flag="0"/>
      <psa03 value="0.1702622463" flag="0"/>
      <psa10 value="0.0129308128" flag="0"/>
      <psa30 value="0.0048986117" flag="0"/>
    </comp>
    <comp name="--.HNN">
      <acc value="0.2132833003" flag="0"/>
      <vel value="0.0460344950" flag="0"/>
      <psa03 value="0.1545481289" flag="0"/>
      <psa10 value="0.0172393836" flag="0"/>
      <psa30 value="0.0038554436" flag="0"/>
    </comp>
  </station>
  <station code="SMAA" name="SMAA" netid="KO" insttype="CMG-5T" lat="39.1005" lon="28.9805">
    <comp name="--.HNE">
      <acc value="0.1228122017" flag="0"/>
      <vel value="0.0508854917" flag="0"/>
      <psa03 value="0.2736489002" flag="0"/>
      <psa10 value="0.0511886738" flag="0"/>
      <psa30 value="0.0085101273" flag="0"/>
    </comp>
    <comp name="--.HNN">
      <acc value="0.1106939112" flag="0"/>
      <vel value="0.0691358189" flag="0"/>
      <psa03 value="0.3839546242" flag="0"/>
      <psa10 value="0.0532382579" flag="0"/>
      <psa30 value="0.0112610337" flag="0"/>
    </comp>
    <comp name="--.HNZ">
      <acc value="0.0502219560" flag="0"/>
      <vel value="0.0153798785" flag="0"/>
      <psa03 value="0.0673232078" flag="0"/>
      <psa10 value="0.0240311073" flag="0"/>
      <psa30 value="0.0032063639" flag="0"/>
    </comp>
  </station>
  <station code="TVSB" name="TVSB" netid="KO" insttype="120" lat="39.4497" lon="29.4615">
    <comp name="--.HHE">
      <acc value="0.0950352695" flag="0"/>
      <vel value="0.0258635473" flag="0"/>
      <psa03 value="0.1706160349" flag="0"/>
      <psa10 value="0.0116922735" flag="0"/>
      <psa30 value="0.0020345058" flag="0"/>
    </comp>
    <comp name="--.HHN">
      <acc value="0.0728717342" flag="0"/>
      <vel value="0.0277073879" flag="0"/>
      <psa03 value="0.2071247240" flag="0"/>
      <psa10 value="0.0121202017" flag="0"/>
      <psa30 value="0.0034003469" flag="0"/>
    </comp>
    <comp name="--.HHZ">
      <acc value="0.0376545167" flag="0"/>
      <vel value="0.0142455471" flag="0"/>
      <psa03 value="0.0957870119" flag="0"/>
      <psa10 value="0.0111313007" flag="0"/>
      <psa30 value="0.0036607990" flag="0"/>
    </comp>
  </station>
</stationlist>
