<?xml version="1.0" encoding="UTF-8" standalone="yes"?>
<!DOCTYPE earthquake SYSTEM "stationlist.dtd">
<stationlist created="" xmlns="ch.ethz.sed.shakemap.usgs.xml">
  <station code="KARP" name="KARP" netid="GE" source="GFZ" insttype="STS-2/N" lat="35.5471" lon="27.1611">
    <comp name="--.HHE">
      <acc value="0.1661129337" flag="0"/>
      <vel value="0.0319933215" flag="0"/>
      <psa03 value="0.1347525543" flag="0"/>
      <psa10 value="0.0297124770" flag="0"/>
      <psa30 value="0.0011913348" flag="0"/>
    </comp>
    <comp name="--.HHN">
      <acc value="0.2018646918" flag="0"/>
      <vel value="0.0521863408" flag="0"/>
      <psa03 value="0.3978904314" flag="0"/>
      <psa10 value="0.0204349346" flag="0"/>
      <psa30 value="0.0013244564" flag="0"/>
    </comp>
    <comp name="--.HHZ">
      <acc value="0.1531594783" flag="0"/>
      <vel value="0.0393015245" flag="0"/>
      <psa03 value="0.1796647647" flag="0"/>
      <psa10 value="0.0280965507" flag="0"/>
      <psa30 value="0.0010640897" flag="0"/>
    </comp>
  </station>
  <station code="ARG" name="ARG" netid="HL" source="NOA" insttype="LE3D20_DR24" lat="36.2136" lon="28.1212">
    <comp name="--.HHE">
      <acc value="0.2684252942" flag="0"/>
      <vel value="0.0712425292" flag="0"/>
      <psa03 value="0.3006624235" flag="0"/>
      <psa10 value="0.0175978169" flag="0"/>
      <psa30 value="0.0015463461" flag="0"/>
    </comp>
    <comp name="--.HHN">
      <acc value="0.1744370151" flag="0"/>
      <vel value="0.0457425220" flag="0"/>
      <psa03 value="0.2414261401" flag="0"/>
      <psa10 value="0.0162696887" flag="0"/>
      <psa30 value="0.0012523700" flag="0"/>
    </comp>
    <comp name="--.HHZ">
      <acc value="0.1056451182" flag="0"/>
      <vel value="0.0322646726" flag="0"/>
      <psa03 value="0.1981680567" flag="0"/>
      <psa10 value="0.0114356377" flag="0"/>
      <psa30 value="0.0007732105" flag="0"/>
    </comp>
  </station>
  <station code="KARP" name="KARP" netid="HL" source="NOA" insttype="120" lat="35.5471" lon="27.1611">
    <comp name="--.HHE">
      <acc value="0.1507005363" flag="0"/>
      <vel value="0.0306418242" flag="0"/>
      <psa03 value="0.1313135917" flag="0"/>
      <psa10 value="0.0295196351" flag="0"/>
      <psa30 value="0.0011817403" flag="0"/>
    </comp>
    <comp name="--.HHN">
      <acc value="0.1934967660" flag="0"/>
      <vel value="0.0501649064" flag="0"/>
      <psa03 value="0.3866050240" flag="0"/>
      <psa10 value="0.0202606369" flag="0"/>
      <psa30 value="0.0012931205" flag="0"/>
    </comp>
    <comp name="--.HHZ">
      <acc value="0.1459444364" flag="0"/>
      <vel value="0.0385646578" flag="0"/>
      <psa03 value="0.1746941841" flag="0"/>
      <psa10 value="0.0278064944" flag="0"/>
      <psa30 value="0.0010451931" flag="0"/>
    </comp>
  </station>
  <station code="DATC" name="DATC" netid="KO" source="KOERI" insttype="100" lat="36.7584" lon="27.6602">
    <comp name="--.HNE">
      <acc value="0.4608385135" flag="0"/>
      <vel value="0.1360821035" flag="0"/>
      <psa03 value="0.6417383344" flag="0"/>
      <psa10 value="0.0679374929" flag="0"/>
      <psa30 value="0.0040502337" flag="0"/>
    </comp>
    <comp name="--.HNN">
      <acc value="0.2736307746" flag="0"/>
      <vel value="0.0871856707" flag="0"/>
      <psa03 value="0.3674309273" flag="0"/>
      <psa10 value="0.0540711493" flag="0"/>
      <psa30 value="0.0042680762" flag="0"/>
    </comp>
    <comp name="--.HNZ">
      <acc value="0.3355334550" flag="0"/>
      <vel value="0.0890787533" flag="0"/>
      <psa03 value="0.3247527571" flag="0"/>
      <psa10 value="0.0456733030" flag="0"/>
      <psa30 value="0.0029592942" flag="0"/>
    </comp>
  </station>
  <station code="4810" name="4810" netid="TK" source="ODC" insttype="DC_100" lat="36.8394" lon="28.2448">
    <comp name="--.HNE">
      <acc value="0.0307803581" flag="0"/>
      <vel value="0.0084397734" flag="0"/>
      <psa03 value="0.0419915509" flag="0"/>
      <psa10 value="0.0034942367" flag="0"/>
      <psa30 value="0.0004430261" flag="0"/>
    </comp>
    <comp name="--.HNN">
      <acc value="0.0372429183" flag="0"/>
      <vel value="0.0125405027" flag="0"/>
      <psa03 value="0.0692716917" flag="0"/>
      <psa10 value="0.0034805815" flag="0"/>
      <psa30 value="0.0002644174" flag="0"/>
    </comp>
    <comp name="--.HNZ">
      <acc value="0.0278049882" flag="0"/>
      <vel value="0.0071512872" flag="0"/>
      <psa03 value="0.0230508645" flag="0"/>
      <psa10 value="0.0029275763" flag="0"/>
      <psa30 value="0.0002947777" flag="0"/>
    </comp>
  </station>
</stationlist>
