<stationlist xmlns:esm="https://esm-db.eu/esmws/shakemap/1/" created="1783994053">
	<station code="KARP" name="KARP" netid="GE" source="GEOFON" insttype="" lat="35.5471" lon="27.16106" esm:processing="manual (Paolucci et al 2011)" esm:quality="good">
		<comp name="--.HNE" depth="0.0">
			<acc value="0.147243121118417" flag="0"/>
			<vel value="0.0331351569238326" flag="0"/>
			<psa03 value="0.122817357167156" flag="0"/>
			<psa10 value="0.0265285491481057" flag="0"/>
			<psa30 value="0.00103265012874971" flag="0"/>
		</comp>
		<comp name="--.HNN" depth="0.0">
			<acc value="0.163889969470082" flag="0"/>
			<vel value="0.0464953616066413" flag="0"/>
			<psa03 value="0.331584493248012" flag="0"/>
			<psa10 value="0.0178507981744919" flag="0"/>
			<psa30 value="0.00116374479414125" flag="0"/>
		</comp>
		<comp name="--.HNZ" depth="0.0">
			<acc value="0.123052044592605" flag="0"/>
			<vel value="0.031658089269927" flag="0"/>
			<psa03 value="0.146441242261603" flag="0"/>
			<psa10 value="0.0231701991193382" flag="0"/>
			<psa30 value="0.000887237957240329" flag="0"/>
		</comp>
	</station>
	<station code="KOS2" name="KOS2" netid="HI" source="ITSAK Strong Motion Network" insttype="" lat="36.8941" lon="27.2888" esm:processing="manual (Paolucci et al 2011)" esm:quality="good">
		<comp name="--.HNE" depth="0.0">
			<acc value="0.0170883643042346" flag="0"/>
			<vel value="0.00780965581009756" flag="0"/>
			<psa03 value="0.0615513483080804" flag="0"/>
			<psa10 value="0.00755840211329529" flag="0"/>
			<psa30 value="0.000458646424741386" flag="0"/>
		</comp>
		<comp name="--.HNN" depth="0.0">
			<acc value="0.01925587597117" flag="0"/>
			<vel value="0.00989988660290656" flag="0"/>
			<psa03 value="0.0656002154839933" flag="0"/>
			<psa10 value="0.00644644407653256" flag="0"/>
			<psa30 value="0.000431868374785329" flag="0"/>
		</comp>
		<comp name="--.HNZ" depth="0.0">
			<acc value="0.0102201569735245" flag="0"/>
			<vel value="0.00399676140971925" flag="0"/>
			<psa03 value="0.0171815431408271" flag="0"/>
			<psa10 value="0.0023767872161134" flag="0"/>
			<psa30 value="0.000251118197848183" flag="0"/>
		</comp>
	</station>
	<station code="RDI1" name="RDI1" netid="HI" source="ITSAK Strong Motion Network" insttype="" lat="36.4514" lon="28.224" esm:processing="manual (Paolucci et al 2011)" esm:quality="good">
		<comp name="--.HNE" depth="0.0">
			<acc value="0.0376127729745025" flag="0"/>
			<vel value="0.0169535888566945" flag="0"/>
			<psa03 value="0.115613861901614" flag="0"/>
			<psa10 value="0.0165541690266944" flag="0"/>
			<psa30 value="0.0011986437153035" flag="0"/>
		</comp>
		<comp name="--.HNN" depth="0.0">
			<acc value="0.0435728588882852" flag="0"/>
			<vel value="0.0224647810477416" flag="0"/>
			<psa03 value="0.097135330568268" flag="0"/>
			<psa10 value="0.0192803116759457" flag="0"/>
			<psa30 value="0.00177760786894394" flag="0"/>
		</comp>
		<comp name="--.HNZ" depth="0.0">
			<acc value="0.0358552025297837" flag="0"/>
			<vel value="0.0118215725446899" flag="0"/>
			<psa03 value="0.0849207081614798" flag="0"/>
			<psa10 value="0.0121971729462071" flag="0"/>
			<psa30 value="0.000787462836481583" flag="0"/>
		</comp>
	</station>
	<station code="RGE1" name="RGE1" netid="HI" source="ITSAK Strong Motion Network" insttype="" lat="36.0269" lon="27.9306" esm:processing="manual (Paolucci et al 2011)" esm:quality="best">
		<comp name="--.HNE" depth="0.0">
			<acc value="0.269916517317665" flag="0"/>
			<vel value="0.0815848890720819" flag="0"/>
			<psa03 value="0.273598593470732" flag="0"/>
			<psa10 value="0.0217406856178844" flag="0"/>
			<psa30 value="0.00209572495799985" flag="0"/>
		</comp>
		<comp name="--.HNN" depth="0.0">
			<acc value="0.165562858165242" flag="0"/>
			<vel value="0.0462923530185811" flag="0"/>
			<psa03 value="0.276506836900919" flag="0"/>
			<psa10 value="0.0190507841559939" flag="0"/>
			<psa30 value="0.00132705384829794" flag="0"/>
		</comp>
		<comp name="--.HNZ" depth="0.0">
			<acc value="0.115427876956163" flag="0"/>
			<vel value="0.0219736584534851" flag="0"/>
			<psa03 value="0.113332009364082" flag="0"/>
			<psa10 value="0.00631402019797051" flag="0"/>
			<psa30 value="0.000659052703487143" flag="0"/>
		</comp>
	</station>
	<station code="RKL1" name="RKL1" netid="HI" source="ITSAK Strong Motion Network" insttype="" lat="36.336699" lon="28.171224" esm:processing="manual (Paolucci et al 2011)" esm:quality="good">
		<comp name="--.HNE" depth="0.0">
			<acc value="0.102456749544144" flag="0"/>
			<vel value="0.0490823455036196" flag="0"/>
			<psa03 value="0.205180967232103" flag="0"/>
			<psa10 value="0.0269111002283173" flag="0"/>
			<psa30 value="0.00141129609560672" flag="0"/>
		</comp>
		<comp name="--.HNN" depth="0.0">
			<acc value="0.127391387719996" flag="0"/>
			<vel value="0.0582551261399992" flag="0"/>
			<psa03 value="0.24204080484878" flag="0"/>
			<psa10 value="0.0295694413303688" flag="0"/>
			<psa30 value="0.00178189054150331" flag="0"/>
		</comp>
		<comp name="--.HNZ" depth="0.0">
			<acc value="0.0746012117433179" flag="0"/>
			<vel value="0.0329643681552302" flag="0"/>
			<psa03 value="0.153509398410926" flag="0"/>
			<psa10 value="0.0159611267213121" flag="0"/>
			<psa30 value="0.000928227323838034" flag="0"/>
		</comp>
	</station>
	<station code="RKT1" name="RKT1" netid="HI" source="ITSAK Strong Motion Network" insttype="" lat="35.954336" lon="27.767327" esm:processing="automatic (Paolucci et al 2011)" esm:quality="best">
		<comp name="--.HNE" depth="0.0">
			<acc value="0.269922542926442" flag="0"/>
			<vel value="0.118482787023401" flag="0"/>
			<psa03 value="0.609669012579983" flag="0"/>
			<psa10 value="0.0345837447533617" flag="0"/>
			<psa30 value="0.00257940441455007" flag="0"/>
		</comp>
		<comp name="--.HNN" depth="0.0">
			<acc value="0.251152382439496" flag="0"/>
			<vel value="0.115404396965789" flag="0"/>
			<psa03 value="0.737893881848277" flag="0"/>
			<psa10 value="0.0259039653855767" flag="0"/>
			<psa30 value="0.00273979212278193" flag="0"/>
		</comp>
		<comp name="--.HNZ" depth="0.0">
			<acc value="0.123675490569193" flag="0"/>
			<vel value="0.0321643467725384" flag="0"/>
			<psa03 value="0.220860818445293" flag="0"/>
			<psa10 value="0.00772819414243392" flag="0"/>
			<psa30 value="0.000573901038960604" flag="0"/>
		</comp>
	</station>
	<station code="RLN1" name="RLN1" netid="HI" source="ITSAK Strong Motion Network" insttype="" lat="36.089085" lon="28.086909" esm:processing="automatic (Paolucci et al 2011)" esm:quality="best">
		<comp name="--.HNE" depth="0.0">
			<acc value="0.0883803448097033" flag="0"/>
			<vel value="0.02576674855272" flag="0"/>
			<psa03 value="0.142536171488497" flag="0"/>
			<psa10 value="0.0120999618755907" flag="0"/>
			<psa30 value="0.000882665138900223" flag="0"/>
		</comp>
		<comp name="--.HNN" depth="0.0">
			<acc value="0.118036507958209" flag="0"/>
			<vel value="0.0236424973533975" flag="0"/>
			<psa03 value="0.1007777593653" flag="0"/>
			<psa10 value="0.0136867191779746" flag="0"/>
			<psa30 value="0.000953518061725298" flag="0"/>
		</comp>
		<comp name="--.HNZ" depth="0.0">
			<acc value="0.23864650787325" flag="0"/>
			<vel value="0.0427799237013552" flag="0"/>
			<psa03 value="0.110110367188099" flag="0"/>
			<psa10 value="0.00757383438560759" flag="0"/>
			<psa30 value="0.000922406313224649" flag="0"/>
		</comp>
	</station>
	<station code="RPN1" name="RPN1" netid="HI" source="ITSAK Strong Motion Network" insttype="" lat="36.448678" lon="28.218047" esm:processing="manual (Paolucci et al 2011)" esm:quality="good">
		<comp name="--.HNE" depth="0.0">
			<acc value="0.0476094904544005" flag="0"/>
			<vel value="0.0196855815321472" flag="0"/>
			<psa03 value="0.119710211464002" flag="0"/>
			<psa10 value="0.0220695988776137" flag="0"/>
			<psa30 value="0.00130437932539541" flag="0"/>
		</comp>
		<comp name="--.HNN" depth="0.0">
			<acc value="0.0848380335043639" flag="0"/>
			<vel value="0.042929099124398" flag="0"/>
			<psa03 value="0.162826505206859" flag="0"/>
			<psa10 value="0.017494035143972" flag="0"/>
			<psa30 value="0.0015841997371244" flag="0"/>
		</comp>
		<comp name="--.HNZ" depth="0.0">
			<acc value="0.0947725480543898" flag="0"/>
			<vel value="0.018641324622957" flag="0"/>
			<psa03 value="0.0772159797630362" flag="0"/>
			<psa10 value="0.012532985248764" flag="0"/>
			<psa30 value="0.000913588333243418" flag="0"/>
		</comp>
	</station>
	<station code="RSO1" name="RSO1" netid="HI" source="ITSAK Strong Motion Network" insttype="" lat="36.3632" lon="28.0016" esm:processing="manual (Paolucci et al 2011)" esm:quality="good">
		<comp name="--.HNE" depth="0.0">
			<acc value="0.396900315003175" flag="0"/>
			<vel value="0.0984283989986116" flag="0"/>
			<psa03 value="0.560105187553155" flag="0"/>
			<psa10 value="0.0319370106702182" flag="0"/>
			<psa30 value="0.00213732200375998" flag="0"/>
		</comp>
		<comp name="--.HNN" depth="0.0">
			<acc value="0.335451622579312" flag="0"/>
			<vel value="0.0936067690161884" flag="0"/>
			<psa03 value="0.419383365423066" flag="0"/>
			<psa10 value="0.0331979754529465" flag="0"/>
			<psa30 value="0.00292996701260172" flag="0"/>
		</comp>
		<comp name="--.HNZ" depth="0.0">
			<acc value="0.198038553902365" flag="0"/>
			<vel value="0.0476328781352154" flag="0"/>
			<psa03 value="0.205884034640202" flag="0"/>
			<psa10 value="0.0144677552927841" flag="0"/>
			<psa30 value="0.00106512587186164" flag="0"/>
		</comp>
	</station>
	<station code="SIT2" name="SIT2" netid="HI" source="ITSAK Strong Motion Network" insttype="" lat="35.2059" lon="26.107" esm:processing="manual (Paolucci et al 2011)" esm:quality="good">
		<comp name="--.HNE" depth="0.0">
			<acc value="0.0128950297862637" flag="0"/>
			<vel value="0.00759017172845102" flag="0"/>
			<psa03 value="0.0354231512974101" flag="0"/>
			<psa10 value="0.00417798958381447" flag="0"/>
			<psa30 value="0.000296593944768251" flag="0"/>
		</comp>
		<comp name="--.HNN" depth="0.0">
			<acc value="0.0098497804476496" flag="0"/>
			<vel value="0.00613883357747053" flag="0"/>
			<psa03 value="0.0378687690367452" flag="0"/>
			<psa10 value="0.00400100692207325" flag="0"/>
			<psa30 value="0.000257391217571695" flag="0"/>
		</comp>
		<comp name="--.HNZ" depth="0.0">
			<acc value="0.00672646746283993" flag="0"/>
			<vel value="0.00232370101214428" flag="0"/>
			<psa03 value="0.0149320920424155" flag="0"/>
			<psa10 value="0.00128132429550757" flag="0"/>
			<psa30 value="0.000107260575538876" flag="0"/>
		</comp>
	</station>
	<station code="KARP" name="KARP" netid="HL" source="National Observatory of Athens Seismic Network" insttype="" lat="35.5471" lon="27.16106" esm:processing="manual (Paolucci et al 2011)" esm:quality="good">
		<comp name="--.HNE" depth="0.0">
			<acc value="0.144253673379912" flag="0"/>
			<vel value="0.0324623938454328" flag="0"/>
			<psa03 value="0.120311793596533" flag="0"/>
			<psa10 value="0.0259889581362893" flag="0"/>
			<psa30 value="0.00101206871370531" flag="0"/>
		</comp>
		<comp name="--.HNN" depth="0.0">
			<acc value="0.160562557516291" flag="0"/>
			<vel value="0.0455515108754977" flag="0"/>
			<psa03 value="0.324828420048653" flag="0"/>
			<psa10 value="0.0174883863008839" flag="0"/>
			<psa30 value="0.00114092626876593" flag="0"/>
		</comp>
		<comp name="--.HNZ" depth="0.0">
			<acc value="0.12055373472371" flag="0"/>
			<vel value="0.0310155553586716" flag="0"/>
			<psa03 value="0.143488256624798" flag="0"/>
			<psa10 value="0.0227030904822435" flag="0"/>
			<psa30 value="0.000869788496659203" flag="0"/>
		</comp>
	</station>
	<station code="KLNA" name="KLNA" netid="HL" source="National Observatory of Athens Seismic Network" insttype="" lat="36.95708" lon="26.97274" esm:processing="manual (Paolucci et al 2011)" esm:quality="good">
		<comp name="00.HNE" depth="0.0">
			<acc value="0.0091110543459976" flag="0"/>
			<vel value="0.00362788791370209" flag="0"/>
			<psa03 value="0.0173488966750941" flag="0"/>
			<psa10 value="0.00133160715775151" flag="0"/>
			<psa30 value="8.83914544583884e-05" flag="0"/>
		</comp>
		<comp name="00.HNN" depth="0.0">
			<acc value="0.00709405499128719" flag="0"/>
			<vel value="0.00329638957624061" flag="0"/>
			<psa03 value="0.016498033017886" flag="0"/>
			<psa10 value="0.000964138713208002" flag="0"/>
			<psa30 value="6.8159105049952e-05" flag="0"/>
		</comp>
		<comp name="00.HNZ" depth="0.0">
			<acc value="0.00945948028531389" flag="0"/>
			<vel value="0.00229454575657755" flag="0"/>
			<psa03 value="0.00784582573703309" flag="0"/>
			<psa10 value="0.000797945574821968" flag="0"/>
			<psa30 value="6.16293235256392e-05" flag="0"/>
		</comp>
	</station>
	<station code="RODB" name="RODB" netid="HL" source="National Observatory of Athens Seismic Network" insttype="" lat="36.4471" lon="28.22116" esm:processing="manual (Paolucci et al 2011)" esm:quality="good">
		<comp name="00.HNE" depth="0.0">
			<acc value="0.0356777275609192" flag="0"/>
			<vel value="0.0205123618148518" flag="0"/>
			<psa03 value="0.185545930845973" flag="0"/>
			<psa10 value="0.0210400226622423" flag="0"/>
			<psa30 value="0.00161250912652251" flag="0"/>
		</comp>
		<comp name="00.HNN" depth="0.0">
			<acc value="0.0365925335031689" flag="0"/>
			<vel value="0.0173557958388249" flag="0"/>
			<psa03 value="0.123846427919376" flag="0"/>
			<psa10 value="0.011722010711921" flag="0"/>
			<psa30 value="0.00119193238431076" flag="0"/>
		</comp>
		<comp name="00.HNZ" depth="0.0">
			<acc value="0.0406739164679196" flag="0"/>
			<vel value="0.0132314970541474" flag="0"/>
			<psa03 value="0.0592386815625918" flag="0"/>
			<psa10 value="0.00971666501129008" flag="0"/>
			<psa30 value="0.000649656840097306" flag="0"/>
		</comp>
	</station>
	<station code="CAME" name="CAME" netid="KO" source="Bogazici University Kandilli Observatory And Earthquake Research Institute (KOERI)" insttype="" lat="36.9435" lon="29.3023" esm:processing="automatic (Paolucci et al 2011)" esm:quality="best">
		<comp name="--.HNE" depth="0.0">
			<acc value="0.0102661963227384" flag="0"/>
			<vel value="0.00303724477553823" flag="0"/>
			<psa03 value="0.0138056606510286" flag="0"/>
			<psa10 value="0.00106017378599847" flag="0"/>
			<psa30 value="0.000146348301627446" flag="0"/>
		</comp>
		<comp name="--.HNN" depth="0.0">
			<acc value="0.00618125591538268" flag="0"/>
			<vel value="0.00234795276450185" flag="0"/>
			<psa03 value="0.0103077668233595" flag="0"/>
			<psa10 value="0.00114261385662297" flag="0"/>
			<psa30 value="0.000104534047263258" flag="0"/>
		</comp>
		<comp name="--.HNZ" depth="0.0">
			<acc value="0.0103379129449878" flag="0"/>
			<vel value="0.00176381430500864" flag="0"/>
			<psa03 value="0.00504456204206203" flag="0"/>
			<psa10 value="0.000661461259969995" flag="0"/>
			<psa30 value="7.07008489489854e-05" flag="0"/>
		</comp>
	</station>
	<station code="DATC" name="DATC" netid="KO" source="Bogazici University Kandilli Observatory And Earthquake Research Institute (KOERI)" insttype="" lat="36.7584" lon="27.6602" esm:processing="manual (Paolucci et al 2011)" esm:quality="good">
		<comp name="--.HNE" depth="0.0">
			<acc value="0.457788670175811" flag="0"/>
			<vel value="0.13646791774733" flag="0"/>
			<psa03 value="0.648448800518613" flag="0"/>
			<psa10 value="0.0676663236012095" flag="0"/>
			<psa30 value="0.00373105260989768" flag="0"/>
		</comp>
		<comp name="--.HNN" depth="0.0">
			<acc value="0.276824478506631" flag="0"/>
			<vel value="0.0874611311463651" flag="0"/>
			<psa03 value="0.366170218963936" flag="0"/>
			<psa10 value="0.053967154778827" flag="0"/>
			<psa30 value="0.00390599463777512" flag="0"/>
		</comp>
		<comp name="--.HNZ" depth="0.0">
			<acc value="0.33110273290005" flag="0"/>
			<vel value="0.0910106297926536" flag="0"/>
			<psa03 value="0.325499553147927" flag="0"/>
			<psa10 value="0.0456759764703951" flag="0"/>
			<psa30 value="0.00285992184703993" flag="0"/>
		</comp>
	</station>
	<station code="AGNA" name="AGNA" netid="HL" source="National Observatory of Athens Seismic Network" insttype="" lat="35.1895" lon="25.71853" esm:processing="discarded" esm:quality="bad">
		<comp name="00.HNE" depth="0.0">
			<acc value="0" flag="1"/>
			<vel value="0" flag="1"/>
			<psa03 value="0" flag="1"/>
			<psa10 value="0" flag="1"/>
			<psa30 value="0" flag="1"/>
		</comp>
		<comp name="00.HNN" depth="0.0">
			<acc value="0" flag="1"/>
			<vel value="0" flag="1"/>
			<psa03 value="0" flag="1"/>
			<psa10 value="0" flag="1"/>
			<psa30 value="0" flag="1"/>
		</comp>
		<comp name="00.HNZ" depth="0.0">
			<acc value="0" flag="1"/>
			<vel value="0" flag="1"/>
			<psa03 value="0" flag="1"/>
			<psa10 value="0" flag="1"/>
			<psa30 value="0" flag="1"/>
		</comp>
	</station>
	<station code="AMGA" name="AMGA" netid="HL" source="National Observatory of Athens Seismic Network" insttype="" lat="36.831561" lon="25.893836" esm:processing="discarded" esm:quality="bad">
		<comp name="00.HNE" depth="0.0">
			<acc value="0" flag="1"/>
			<vel value="0" flag="1"/>
			<psa03 value="0" flag="1"/>
			<psa10 value="0" flag="1"/>
			<psa30 value="0" flag="1"/>
		</comp>
		<comp name="00.HNN" depth="0.0">
			<acc value="0" flag="1"/>
			<vel value="0" flag="1"/>
			<psa03 value="0" flag="1"/>
			<psa10 value="0" flag="1"/>
			<psa30 value="0" flag="1"/>
		</comp>
		<comp name="00.HNZ" depth="0.0">
			<acc value="0" flag="1"/>
			<vel value="0" flag="1"/>
			<psa03 value="0" flag="1"/>
			<psa10 value="0" flag="1"/>
			<psa30 value="0" flag="1"/>
		</comp>
	</station>
	<station code="ASTA" name="ASTA" netid="HL" source="National Observatory of Athens Seismic Network" insttype="" lat="36.54552" lon="26.35295" esm:processing="automatic (Paolucci et al 2011)" esm:quality="bad">
		<comp name="00.HNE" depth="0.0">
			<acc value="0" flag="1"/>
			<vel value="0" flag="1"/>
			<psa03 value="0" flag="1"/>
			<psa10 value="0" flag="1"/>
			<psa30 value="0" flag="1"/>
		</comp>
		<comp name="00.HNN" depth="0.0">
			<acc value="0" flag="1"/>
			<vel value="0" flag="1"/>
			<psa03 value="0" flag="1"/>
			<psa10 value="0" flag="1"/>
			<psa30 value="0" flag="1"/>
		</comp>
		<comp name="00.HNZ" depth="0.0">
			<acc value="0" flag="1"/>
			<vel value="0" flag="1"/>
			<psa03 value="0" flag="1"/>
			<psa10 value="0" flag="1"/>
			<psa30 value="0" flag="1"/>
		</comp>
	</station>
	<station code="KSL" name="KSL" netid="HL" source="National Observatory of Athens Seismic Network" insttype="" lat="36.15031" lon="29.58561" esm:processing="discarded" esm:quality="bad">
		<comp name="00.HNE" depth="0.0">
			<acc value="0" flag="1"/>
			<vel value="0" flag="1"/>
			<psa03 value="0" flag="1"/>
			<psa10 value="0" flag="1"/>
			<psa30 value="0" flag="1"/>
		</comp>
		<comp name="00.HNN" depth="0.0">
			<acc value="0" flag="1"/>
			<vel value="0" flag="1"/>
			<psa03 value="0" flag="1"/>
			<psa10 value="0" flag="1"/>
			<psa30 value="0" flag="1"/>
		</comp>
		<comp name="00.HNZ" depth="0.0">
			<acc value="0" flag="1"/>
			<vel value="0" flag="1"/>
			<psa03 value="0" flag="1"/>
			<psa10 value="0" flag="1"/>
			<psa30 value="0" flag="1"/>
		</comp>
	</station>
	<station code="ZKR" name="ZKR" netid="HL" source="National Observatory of Athens Seismic Network" insttype="" lat="35.1147" lon="26.21691" esm:processing="discarded" esm:quality="bad">
		<comp name="00.HNE" depth="0.0">
			<acc value="0" flag="1"/>
			<vel value="0" flag="1"/>
			<psa03 value="0" flag="1"/>
			<psa10 value="0" flag="1"/>
			<psa30 value="0" flag="1"/>
		</comp>
		<comp name="00.HNN" depth="0.0">
			<acc value="0" flag="1"/>
			<vel value="0" flag="1"/>
			<psa03 value="0" flag="1"/>
			<psa10 value="0" flag="1"/>
			<psa30 value="0" flag="1"/>
		</comp>
		<comp name="00.HNZ" depth="0.0">
			<acc value="0" flag="1"/>
			<vel value="0" flag="1"/>
			<psa03 value="0" flag="1"/>
			<psa10 value="0" flag="1"/>
			<psa30 value="0" flag="1"/>
		</comp>
	</station>
