<?xml version="1.0" encoding="UTF-8" standalone="yes"?>
<!DOCTYPE earthquake SYSTEM "stationlist.dtd">
<stationlist created="" xmlns="ch.ethz.sed.shakemap.usgs.xml">
  <station code="KRL1" name="KRL1" netid="HI" insttype="CMG-5TD,ACCELEROMETER,GURALP" lat="37.7951" lon="26.7065">
    <comp name="--.HNE">
      <acc value="0.7966852474" flag="0"/>
      <vel value="0.5604571526" flag="0"/>
      <psa03 value="2.0879058646" flag="0"/>
      <psa10 value="0.2463583031" flag="0"/>
      <psa30 value="0.0281805483" flag="0"/>
    </comp>
    <comp name="--.HNZ">
      <acc value="0.3329309251" flag="0"/>
      <vel value="0.1471303647" flag="0"/>
      <psa03 value="1.3702733668" flag="0"/>
      <psa10 value="0.1105734215" flag="0"/>
      <psa30 value="0.0084775552" flag="0"/>
    </comp>
    <comp name="--.HNN">
      <acc value="0.6061568404" flag="0"/>
      <vel value="0.3181020135" flag="0"/>
      <psa03 value="1.2231684238" flag="0"/>
      <psa10 value="0.2015942417" flag="0"/>
      <psa30 value="0.0185898079" flag="0"/>
    </comp>
  </station>
  <station code="SAM2" name="SAM2" netid="HL" insttype="60" lat="37.7586" lon="26.6107">
    <comp name="--.HHE">
      <acc value="0.2116906173" flag="0"/>
      <vel value="0.1213289279" flag="0"/>
      <psa03 value="0.4102461231" flag="0"/>
      <psa10 value="0.0724302001" flag="0"/>
      <psa30 value="0.0046603882" flag="0"/>
    </comp>
    <comp name="--.HHN">
      <acc value="0.2128047881" flag="0"/>
      <vel value="0.0761607167" flag="0"/>
      <psa03 value="0.4152878430" flag="0"/>
      <psa10 value="0.0422449988" flag="0"/>
      <psa30 value="0.0034103623" flag="0"/>
    </comp>
    <comp name="--.HHZ">
      <acc value="0.0974197932" flag="0"/>
      <vel value="0.0267006906" flag="0"/>
      <psa03 value="0.1374464731" flag="0"/>
      <psa10 value="0.0195442255" flag="0"/>
      <psa30 value="0.0032080022" flag="0"/>
    </comp>
  </station>
  <station code="SMG" name="SMG" netid="HL" insttype="120" lat="37.7043" lon="26.8377">
    <comp name="--.HHN">
      <acc value="0.2214804153" flag="0"/>
      <vel value="0.1133515481" flag="0"/>
      <psa03 value="0.6599378036" flag="0"/>
      <psa10 value="0.0379349699" flag="0"/>
      <psa30 value="0.0036962960" flag="0"/>
    </comp>
    <comp name="--.HHE">
      <acc value="0.2299547581" flag="0"/>
      <vel value="0.1171481428" flag="0"/>
      <psa03 value="0.5122870658" flag="0"/>
      <psa10 value="0.0809049556" flag="0"/>
      <psa30 value="0.0047522300" flag="0"/>
    </comp>
    <comp name="--.HHZ">
      <acc value="0.1082799828" flag="0"/>
      <vel value="0.0691716375" flag="0"/>
      <psa03 value="0.2619313489" flag="0"/>
      <psa10 value="0.0358823503" flag="0"/>
      <psa30 value="0.0045276713" flag="0"/>
    </comp>
  </station>
  <station code="CHOS" name="CHOS" netid="HT" insttype="100" lat="38.3869" lon="26.0506">
    <comp name="--.HHN">
      <acc value="0.0112169316" flag="0"/>
      <vel value="0.0081659607" flag="0"/>
      <psa03 value="0.0244717869" flag="0"/>
      <psa10 value="0.0156511651" flag="0"/>
      <psa30 value="0.0005873897" flag="0"/>
    </comp>
    <comp name="--.HHZ">
      <acc value="0.0070641909" flag="0"/>
      <vel value="0.0037975621" flag="0"/>
      <psa03 value="0.0161533629" flag="0"/>
      <psa10 value="0.0075678705" flag="0"/>
      <psa30 value="0.0004540151" flag="0"/>
    </comp>
    <comp name="--.HHE">
      <acc value="0.0159538025" flag="0"/>
      <vel value="0.0101710872" flag="0"/>
      <psa03 value="0.0439057685" flag="0"/>
      <psa10 value="0.0098823817" flag="0"/>
      <psa30 value="0.0004633409" flag="0"/>
    </comp>
  </station>
</stationlist>
