<?xml version="1.0" encoding="UTF-8" standalone="yes"?>
<!DOCTYPE earthquake SYSTEM "stationlist.dtd">
<stationlist created="" xmlns="ch.ethz.sed.shakemap.usgs.xml">
  <station code="KARP" name="KARP" netid="GE" insttype="STS-2/N" commtype="DIG" lat="35.5471" lon="27.1611">
    <comp name="--.HHN">
      <acc value="0.0047935521" flag="0"/>
      <vel value="0.0005161122" flag="0"/>
      <psa03 value="0.0011046619" flag="0"/>
      <psa10 value="0.0000847000" flag="0"/>
      <psa30 value="0.0000042295" flag="0"/>
    </comp>
    <comp name="--.HHE">
      <acc value="0.0074043175" flag="0"/>
      <vel value="0.0006610998" flag="0"/>
      <psa03 value="0.0008732463" flag="0"/>
      <psa10 value="0.0000623004" flag="0"/>
      <psa30 value="0.0000044005" flag="0"/>
    </comp>
    <comp name="--.HHZ">
      <acc value="0.0065609613" flag="0"/>
      <vel value="0.0005713305" flag="0"/>
      <psa03 value="0.0012644699" flag="0"/>
      <psa10 value="0.0001218543" flag="0"/>
      <psa30 value="0.0000055336" flag="0"/>
    </comp>
  </station>
  <station code="ZKR" name="ZKR" netid="GE" insttype="STS-2/N" commtype="DIG" lat="35.1147" lon="26.2169">
    <comp name="--.HHE">
      <acc value="0.3423128273" flag="0"/>
      <vel value="0.1343442226" flag="0"/>
      <psa03 value="0.8410076899" flag="0"/>
      <psa10 value="0.1237506837" flag="0"/>
      <psa30 value="0.0064557888" flag="0"/>
    </comp>
    <comp name="--.HHN">
      <acc value="0.1729772863" flag="0"/>
      <vel value="0.0824916619" flag="0"/>
      <psa03 value="0.2711245687" flag="0"/>
      <psa10 value="0.0638784544" flag="0"/>
      <psa30 value="0.0024474477" flag="0"/>
    </comp>
    <comp name="--.HHZ">
      <acc value="0.2163137405" flag="0"/>
      <vel value="0.0922035228" flag="0"/>
      <psa03 value="0.3336222193" flag="0"/>
      <psa10 value="0.1062752307" flag="0"/>
      <psa30 value="0.0067068479" flag="0"/>
    </comp>
  </station>
</stationlist>
