<stationlist created="1746068516">
	<station code="TEFL" name="TEFL" netid="HC" source="Seismological Network of Crete (HC)" insttype="" lat="35.093273" lon="25.163418">
		<comp name=".HNE" depth="0.0">
			<acc value="0.22917284823246" flag="0"/>
			<vel value="0.136983857713" flag="0"/>
			<psa03 value="0.312722320485487" flag="0"/>
			<psa10 value="0.124328963683541" flag="0"/>
			<psa30 value="0.0593974947923122" flag="0"/>
		</comp>
		<comp name=".HNN" depth="0.0">
			<acc value="0.21275864689746" flag="0"/>
			<vel value="0.147976801459" flag="0"/>
			<psa03 value="0.339090296401166" flag="0"/>
			<psa10 value="0.161289184616783" flag="0"/>
			<psa30 value="0.0805336549591957" flag="0"/>
		</comp>
		<comp name=".HNZ" depth="0.0">
			<acc value="0.20618709190398" flag="0"/>
			<vel value="0.128341445061" flag="0"/>
			<psa03 value="0.275795040901287" flag="0"/>
			<psa10 value="0.148215188528715" flag="0"/>
			<psa30 value="0.0623762787890336" flag="0"/>
		</comp>
	</station>
	<station code="AGN1" name="AGN1" netid="HI" source="ITSAK Strong Motion Network" insttype="" lat="35.1879" lon="25.7155">
		<comp name=".HNE" depth="0.0">
			<acc value="0.1091260860168" flag="0"/>
			<vel value="0.0421287982659" flag="0"/>
			<psa03 value="0.2165078842513" flag="0"/>
			<psa10 value="0.0302818385231995" flag="0"/>
			<psa30 value="0.00199814278381949" flag="0"/>
		</comp>
		<comp name=".HNN" depth="0.0">
			<acc value="0.17310148042704" flag="0"/>
			<vel value="0.0628694747249" flag="0"/>
			<psa03 value="0.396813370271655" flag="0"/>
			<psa10 value="0.0360668255001898" flag="0"/>
			<psa30 value="0.00197491145319059" flag="0"/>
		</comp>
		<comp name=".HNZ" depth="0.0">
			<acc value="0.075629677112136" flag="0"/>
			<vel value="0.025274770543" flag="0"/>
			<psa03 value="0.122189781973347" flag="0"/>
			<psa10 value="0.0216253500733265" flag="0"/>
			<psa30 value="0.00269006987059425" flag="0"/>
		</comp>
	</station>
	<station code="ARK1" name="ARK1" netid="HI" source="ITSAK Strong Motion Network" insttype="" lat="35.148777" lon="25.264194">
		<comp name=".HNE" depth="0.0">
			<acc value="0.076656243045528" flag="0"/>
			<vel value="0.032344726122" flag="0"/>
			<psa03 value="0.0833442242709259" flag="0"/>
			<psa10 value="0.0315906264739486" flag="0"/>
			<psa30 value="0.00350761861251848" flag="0"/>
		</comp>
		<comp name=".HNN" depth="0.0">
			<acc value="0.061270457867514" flag="0"/>
			<vel value="0.0229361112684" flag="0"/>
			<psa03 value="0.0993716453836427" flag="0"/>
			<psa10 value="0.0292407601818675" flag="0"/>
			<psa30 value="0.00338316495140658" flag="0"/>
		</comp>
		<comp name=".HNZ" depth="0.0">
			<acc value="0.04328558376966" flag="0"/>
			<vel value="0.0150456106353" flag="0"/>
			<psa03 value="0.0718152105303229" flag="0"/>
			<psa10 value="0.0185089386263408" flag="0"/>
			<psa30 value="0.00154927596526189" flag="0"/>
		</comp>
	</station>
	<station code="GOR1" name="GOR1" netid="HI" source="ITSAK Strong Motion Network" insttype="" lat="35.0582" lon="24.9628">
		<comp name=".HNE" depth="0.0">
			<acc value="0.024928608347508" flag="0"/>
			<vel value="0.0116076898717" flag="0"/>
			<psa03 value="0.0385476056730495" flag="0"/>
			<psa10 value="0.0153762839158642" flag="0"/>
			<psa30 value="0.00219627820098384" flag="0"/>
		</comp>
		<comp name=".HNN" depth="0.0">
			<acc value="0.020112204300264" flag="0"/>
			<vel value="0.0152773070268" flag="0"/>
			<psa03 value="0.0462652054678778" flag="0"/>
			<psa10 value="0.0304534761433398" flag="0"/>
			<psa30 value="0.00337164731342122" flag="0"/>
		</comp>
		<comp name=".HNZ" depth="0.0">
			<acc value="0.014744720347374" flag="0"/>
			<vel value="0.00740069666085" flag="0"/>
			<psa03 value="0.035729830467603" flag="0"/>
			<psa10 value="0.0132412562307434" flag="0"/>
			<psa30 value="0.00174737679680343" flag="0"/>
		</comp>
	</station>
	<station code="HER1" name="HER1" netid="HI" source="ITSAK Strong Motion Network" insttype="" lat="35.317672" lon="25.10217">
		<comp name=".HNE" depth="0.0">
			<acc value="0.058386151579968" flag="0"/>
			<vel value="0.0612169636568" flag="0"/>
			<psa03 value="0.167400662388952" flag="0"/>
			<psa10 value="0.124822533880365" flag="0"/>
			<psa30 value="0.00590044754234712" flag="0"/>
		</comp>
		<comp name=".HNN" depth="0.0">
			<acc value="0.069317413891362" flag="0"/>
			<vel value="0.0484371356594" flag="0"/>
			<psa03 value="0.167037544584441" flag="0"/>
			<psa10 value="0.0749071172289207" flag="0"/>
			<psa30 value="0.00486723326363312" flag="0"/>
		</comp>
		<comp name=".HNZ" depth="0.0">
			<acc value="0.074125894156938" flag="0"/>
			<vel value="0.0388906467905" flag="0"/>
			<psa03 value="0.121626911352503" flag="0"/>
			<psa10 value="0.0528276833248777" flag="0"/>
			<psa30 value="0.00270306802332418" flag="0"/>
		</comp>
	</station>
	<station code="HER3" name="HER3" netid="HI" source="ITSAK Strong Motion Network" insttype="" lat="35.3296" lon="25.1065">
		<comp name=".HNE" depth="0.0">
			<acc value="0.13882504925226" flag="0"/>
			<vel value="0.0566997376249" flag="0"/>
			<psa03 value="0.223850287316462" flag="0"/>
			<psa10 value="0.110906562015421" flag="0"/>
			<psa30 value="0.00415135667367076" flag="0"/>
		</comp>
		<comp name=".HNN" depth="0.0">
			<acc value="0.1080122400039" flag="0"/>
			<vel value="0.0656883658062" flag="0"/>
			<psa03 value="0.233384398071129" flag="0"/>
			<psa10 value="0.116228614575331" flag="0"/>
			<psa30 value="0.00496157576338266" flag="0"/>
		</comp>
		<comp name=".HNZ" depth="0.0">
			<acc value="0.089218067827572" flag="0"/>
			<vel value="0.0297344087499" flag="0"/>
			<psa03 value="0.0836303682265638" flag="0"/>
			<psa10 value="0.042274671739407" flag="0"/>
			<psa30 value="0.00139437643309599" flag="0"/>
		</comp>
	</station>
	<station code="KTL1" name="KTL1" netid="HI" source="ITSAK Strong Motion Network" insttype="" lat="35.20778" lon="25.34272">
		<comp name=".HNE" depth="0.0">
			<acc value="0.054646210120794" flag="0"/>
			<vel value="0.0203247625862" flag="0"/>
			<psa03 value="0.106059505088164" flag="0"/>
			<psa10 value="0.0404537648634503" flag="0"/>
			<psa30 value="0.00155091117775182" flag="0"/>
		</comp>
		<comp name=".HNN" depth="0.0">
			<acc value="0.11967144891942" flag="0"/>
			<vel value="0.0357907074739" flag="0"/>
			<psa03 value="0.125368752981328" flag="0"/>
			<psa10 value="0.0154395684206279" flag="0"/>
			<psa30 value="0.00166307610812805" flag="0"/>
		</comp>
		<comp name=".HNZ" depth="0.0">
			<acc value="0.052745323025304" flag="0"/>
			<vel value="0.0157163224247" flag="0"/>
			<psa03 value="0.0519164548353273" flag="0"/>
			<psa10 value="0.013078697962053" flag="0"/>
			<psa30 value="0.00145082569341523" flag="0"/>
		</comp>
	</station>
	<station code="NAX1" name="NAX1" netid="HI" source="ITSAK Strong Motion Network" insttype="" lat="37.101394" lon="25.374103">
		<comp name=".HNE" depth="0.0">
			<acc value="0.0076314287222286" flag="0"/>
			<vel value="0.00219653873999" flag="0"/>
			<psa03 value="0.00997568492871861" flag="0"/>
			<psa10 value="0.00323149016411302" flag="0"/>
			<psa30 value="0.000321195131767792" flag="0"/>
		</comp>
		<comp name=".HNN" depth="0.0">
			<acc value="0.005547956645691" flag="0"/>
			<vel value="0.00191397591033" flag="0"/>
			<psa03 value="0.00646927035428195" flag="0"/>
			<psa10 value="0.00203841800393885" flag="0"/>
			<psa30 value="0.000329134251445425" flag="0"/>
		</comp>
		<comp name=".HNZ" depth="0.0">
			<acc value="0.0031113157719264" flag="0"/>
			<vel value="0.00140971763778" flag="0"/>
			<psa03 value="0.0106741582824681" flag="0"/>
			<psa10 value="0.00156712803329269" flag="0"/>
			<psa30 value="0.000263280618131955" flag="0"/>
		</comp>
	</station>
	<station code="RDI1" name="RDI1" netid="HI" source="ITSAK Strong Motion Network" insttype="" lat="36.4514" lon="28.224">
		<comp name=".HNE" depth="0.0">
			<acc value="0.011485324020678" flag="0"/>
			<vel value="0.00899742523717" flag="0"/>
			<psa03 value="0.0438844748394211" flag="0"/>
			<psa10 value="0.0129681087610674" flag="0"/>
			<psa30 value="0.0027259543310978" flag="0"/>
		</comp>
		<comp name=".HNN" depth="0.0">
			<acc value="0.012182087753046" flag="0"/>
			<vel value="0.00940654019545" flag="0"/>
			<psa03 value="0.0403604679537678" flag="0"/>
			<psa10 value="0.013758228915141" flag="0"/>
			<psa30 value="0.00362108529579473" flag="0"/>
		</comp>
		<comp name=".HNZ" depth="0.0">
			<acc value="0.0090229567077294" flag="0"/>
			<vel value="0.00601415189707" flag="0"/>
			<psa03 value="0.0267750028791808" flag="0"/>
			<psa10 value="0.00841194600014776" flag="0"/>
			<psa30 value="0.00106972888512227" flag="0"/>
		</comp>
	</station>
	<station code="RKL1" name="RKL1" netid="HI" source="ITSAK Strong Motion Network" insttype="" lat="36.336699" lon="28.171224">
		<comp name=".HNE" depth="0.0">
			<acc value="0.03536529654465" flag="0"/>
			<vel value="0.0243480451864" flag="0"/>
			<psa03 value="0.105016342233904" flag="0"/>
			<psa10 value="0.0322940905750282" flag="0"/>
			<psa30 value="0.00104437793491071" flag="0"/>
		</comp>
		<comp name=".HNN" depth="0.0">
			<acc value="0.02539127986056" flag="0"/>
			<vel value="0.0149689136112" flag="0"/>
			<psa03 value="0.0632956669854529" flag="0"/>
			<psa10 value="0.012426793214082" flag="0"/>
			<psa30 value="0.0012787089790285" flag="0"/>
		</comp>
		<comp name=".HNZ" depth="0.0">
			<acc value="0.022851974285058" flag="0"/>
			<vel value="0.0139066035299" flag="0"/>
			<psa03 value="0.0762349720677271" flag="0"/>
			<psa10 value="0.0101032846055076" flag="0"/>
			<psa30 value="0.000811403074390395" flag="0"/>
		</comp>
	</station>
	<station code="RPN1" name="RPN1" netid="HI" source="ITSAK Strong Motion Network" insttype="" lat="36.448678" lon="28.218047">
		<comp name=".HNE" depth="0.0">
			<acc value="0.020005743488466" flag="0"/>
			<vel value="0.0094795422599" flag="0"/>
			<psa03 value="0.0560385976987947" flag="0"/>
			<psa10 value="0.0129269704108626" flag="0"/>
			<psa30 value="0.0024417544625831" flag="0"/>
		</comp>
		<comp name=".HNN" depth="0.0">
			<acc value="0.030339533951784" flag="0"/>
			<vel value="0.0117312293213" flag="0"/>
			<psa03 value="0.0478257307198081" flag="0"/>
			<psa10 value="0.0136188856218388" flag="0"/>
			<psa30 value="0.00330776349809725" flag="0"/>
		</comp>
		<comp name=".HNZ" depth="0.0">
			<acc value="0.016075579076676" flag="0"/>
			<vel value="0.00523136517501" flag="0"/>
			<psa03 value="0.0268045595246766" flag="0"/>
			<psa10 value="0.011649825181235" flag="0"/>
			<psa30 value="0.0010763036956696" flag="0"/>
		</comp>
	</station>
	<station code="RTH1" name="RTH1" netid="HI" source="ITSAK Strong Motion Network" insttype="" lat="35.365393" lon="24.471773">
		<comp name=".HNE" depth="0.0">
			<acc value="0.015103254959916" flag="0"/>
			<vel value="0.00659570942209" flag="0"/>
			<psa03 value="0.038869457723305" flag="0"/>
			<psa10 value="0.00842574785193165" flag="0"/>
			<psa30 value="0.000800787058628246" flag="0"/>
		</comp>
		<comp name=".HNN" depth="0.0">
			<acc value="0.025506830235996" flag="0"/>
			<vel value="0.00752746791753" flag="0"/>
			<psa03 value="0.0311670386216918" flag="0"/>
			<psa10 value="0.005118547672399" flag="0"/>
			<psa30 value="0.000639079523381947" flag="0"/>
		</comp>
		<comp name=".HNZ" depth="0.0">
			<acc value="0.018591829276488" flag="0"/>
			<vel value="0.00615113707596" flag="0"/>
			<psa03 value="0.0212117020461765" flag="0"/>
			<psa10 value="0.00376630207715314" flag="0"/>
			<psa30 value="0.000655443159475652" flag="0"/>
		</comp>
	</station>
	<station code="SFR2" name="SFR2" netid="HI" source="ITSAK Strong Motion Network" insttype="" lat="36.399841" lon="25.438209">
		<comp name=".HNE" depth="0.0">
			<acc value="0.026152930645782" flag="0"/>
			<vel value="0.0188277530591" flag="0"/>
			<psa03 value="0.0613208851241891" flag="0"/>
			<psa10 value="0.028879403118729" flag="0"/>
			<psa30 value="0.00180328070849579" flag="0"/>
		</comp>
		<comp name=".HNN" depth="0.0">
			<acc value="0.032624045911332" flag="0"/>
			<vel value="0.016703303884" flag="0"/>
			<psa03 value="0.0746983181888278" flag="0"/>
			<psa10 value="0.0276073844787147" flag="0"/>
			<psa30 value="0.00146151983935189" flag="0"/>
		</comp>
		<comp name=".HNZ" depth="0.0">
			<acc value="0.032428049888358" flag="0"/>
			<vel value="0.00875253425331" flag="0"/>
			<psa03 value="0.0539414066867807" flag="0"/>
			<psa10 value="0.0101857010026879" flag="0"/>
			<psa30 value="0.000737852941636984" flag="0"/>
		</comp>
	</station>
	<station code="AGNA" name="AGNA" netid="HL" source="National Observatory of Athens Seismic Network" insttype="" lat="35.1895" lon="25.71853">
		<comp name="00.HNE" depth="0.0">
			<acc value="0.068106942894738" flag="0"/>
			<vel value="0.0327214924851" flag="0"/>
			<psa03 value="0.11622477223731" flag="0"/>
			<psa10 value="0.0222338616342128" flag="0"/>
			<psa30 value="0.00209912072311278" flag="0"/>
		</comp>
		<comp name="00.HNN" depth="0.0">
			<acc value="0.096900356354238" flag="0"/>
			<vel value="0.0355674931844" flag="0"/>
			<psa03 value="0.204524319565827" flag="0"/>
			<psa10 value="0.0549935830549821" flag="0"/>
			<psa30 value="0.00270333283253487" flag="0"/>
		</comp>
		<comp name="00.HNZ" depth="0.0">
			<acc value="0.045394150364496" flag="0"/>
			<vel value="0.0195489244231" flag="0"/>
			<psa03 value="0.121287857641814" flag="0"/>
			<psa10 value="0.0174258893796577" flag="0"/>
			<psa30 value="0.00255985832804919" flag="0"/>
		</comp>
	</station>
	<station code="AMGA" name="AMGA" netid="HL" source="National Observatory of Athens Seismic Network" insttype="" lat="36.831561" lon="25.893836">
		<comp name="00.HNE" depth="0.0">
			<acc value="0.017170093634742" flag="0"/>
			<vel value="0.0062460449437" flag="0"/>
			<psa03 value="0.0421798853562524" flag="0"/>
			<psa10 value="0.00493181295839815" flag="0"/>
			<psa30 value="0.00160264064624226" flag="0"/>
		</comp>
		<comp name="00.HNN" depth="0.0">
			<acc value="0.014868675056568" flag="0"/>
			<vel value="0.007717154162" flag="0"/>
			<psa03 value="0.0408218552892437" flag="0"/>
			<psa10 value="0.00448337278267744" flag="0"/>
			<psa30 value="0.00116828260132199" flag="0"/>
		</comp>
		<comp name="00.HNZ" depth="0.0">
			<acc value="0.007349534416878" flag="0"/>
			<vel value="0.00352449357519" flag="0"/>
			<psa03 value="0.022836676880271" flag="0"/>
			<psa10 value="0.00316589433433728" flag="0"/>
			<psa30 value="0.000786552730259056" flag="0"/>
		</comp>
	</station>
	<station code="ANAF" name="ANAF" netid="HL" source="National Observatory of Athens Seismic Network" insttype="" lat="36.35675" lon="25.77262">
		<comp name=".HNE" depth="0.0">
			<acc value="0.11222748376332" flag="0"/>
			<vel value="0.0362671787616" flag="0"/>
			<psa03 value="0.20968320298319" flag="0"/>
			<psa10 value="0.0193893900769432" flag="0"/>
			<psa30 value="0.00237840130741331" flag="0"/>
		</comp>
		<comp name=".HNN" depth="0.0">
			<acc value="0.1486831808115" flag="0"/>
			<vel value="0.0451041738699" flag="0"/>
			<psa03 value="0.317137883828535" flag="0"/>
			<psa10 value="0.0141813178802147" flag="0"/>
			<psa30 value="0.00126051089849493" flag="0"/>
		</comp>
		<comp name=".HNZ" depth="0.0">
			<acc value="0.072514575965088" flag="0"/>
			<vel value="0.0229097334982" flag="0"/>
			<psa03 value="0.181123790228979" flag="0"/>
			<psa10 value="0.00919549478140564" flag="0"/>
			<psa30 value="0.0011374028473546" flag="0"/>
		</comp>
	</station>
	<station code="ASTA" name="ASTA" netid="HL" source="National Observatory of Athens Seismic Network" insttype="" lat="36.54552" lon="26.35295">
		<comp name="00.HNE" depth="0.0">
			<acc value="0.020401465606584" flag="0"/>
			<vel value="0.00602110070182" flag="0"/>
			<psa03 value="0.0211159209615326" flag="0"/>
			<psa10 value="0.00476335883039655" flag="0"/>
			<psa30 value="0.000561040655773851" flag="0"/>
		</comp>
		<comp name="00.HNN" depth="0.0">
			<acc value="0.015964252744416" flag="0"/>
			<vel value="0.0069561226194" flag="0"/>
			<psa03 value="0.0327375853710454" flag="0"/>
			<psa10 value="0.00496189088841718" flag="0"/>
			<psa30 value="0.000932217275652367" flag="0"/>
		</comp>
		<comp name="00.HNZ" depth="0.0">
			<acc value="0.0079709150963088" flag="0"/>
			<vel value="0.00315504698939" flag="0"/>
			<psa03 value="0.0114835328631062" flag="0"/>
			<psa10 value="0.00383475489306571" flag="0"/>
			<psa30 value="0.000430034685603876" flag="0"/>
		</comp>
	</station>
	<station code="HERG" name="HERG" netid="HL" source="National Observatory of Athens Seismic Network" insttype="" lat="35.32622" lon="25.06586">
		<comp name="00.HNE" depth="0.0">
			<acc value="0.069895538625462" flag="0"/>
			<vel value="0.0366270380918" flag="0"/>
			<psa03 value="0.147777664544976" flag="0"/>
			<psa10 value="0.057367651575361" flag="0"/>
			<psa30 value="0.00377495798910627" flag="0"/>
		</comp>
		<comp name="00.HNN" depth="0.0">
			<acc value="0.0689197273275" flag="0"/>
			<vel value="0.0327005933419" flag="0"/>
			<psa03 value="0.180524292181887" flag="0"/>
			<psa10 value="0.0554951150291306" flag="0"/>
			<psa30 value="0.00411391085973838" flag="0"/>
		</comp>
		<comp name="00.HNZ" depth="0.0">
			<acc value="0.05399229851235" flag="0"/>
			<vel value="0.026653743188" flag="0"/>
			<psa03 value="0.0878016185096362" flag="0"/>
			<psa10 value="0.0293393879654749" flag="0"/>
			<psa30 value="0.00143817631378759" flag="0"/>
		</comp>
	</station>
	<station code="IACM" name="IACM" netid="HL" source="National Observatory of Athens Seismic Network" insttype="" lat="35.3058" lon="25.0709">
		<comp name=".HNE" depth="0.0">
			<acc value="0.13212389833728" flag="0"/>
			<vel value="0.0530805527575" flag="0"/>
			<psa03 value="0.255504988451331" flag="0"/>
			<psa10 value="0.085688968973514" flag="0"/>
			<psa30 value="0.00465272322010078" flag="0"/>
		</comp>
		<comp name=".HNN" depth="0.0">
			<acc value="0.11955942451854" flag="0"/>
			<vel value="0.052825628374" flag="0"/>
			<psa03 value="0.311591745590648" flag="0"/>
			<psa10 value="0.0917875329734573" flag="0"/>
			<psa30 value="0.00435719947641544" flag="0"/>
		</comp>
		<comp name=".HNZ" depth="0.0">
			<acc value="0.10620462213222" flag="0"/>
			<vel value="0.0351477875894" flag="0"/>
			<psa03 value="0.149915681178043" flag="0"/>
			<psa10 value="0.0303373103229243" flag="0"/>
			<psa30 value="0.00130481570846905" flag="0"/>
		</comp>
	</station>
	<station code="KARP" name="KARP" netid="HL" source="National Observatory of Athens Seismic Network" insttype="" lat="35.5471" lon="27.16106">
		<comp name=".HNE" depth="0.0">
			<acc value="5.3593488864942e-05" flag="0"/>
			<vel value="0.000105448273998" flag="0"/>
			<psa03 value="5.47680476700489e-05" flag="0"/>
			<psa10 value="7.28084438076921e-05" flag="0"/>
			<psa30 value="3.45364317493261e-05" flag="0"/>
		</comp>
		<comp name=".HNN" depth="0.0">
			<acc value="6.1747803225516e-05" flag="0"/>
			<vel value="0.000116851186159" flag="0"/>
			<psa03 value="5.6127410995934e-05" flag="0"/>
			<psa10 value="9.13244311431112e-05" flag="0"/>
			<psa30 value="3.82722423794785e-05" flag="0"/>
		</comp>
		<comp name=".HNZ" depth="0.0">
			<acc value="6.7551931770576e-05" flag="0"/>
			<vel value="0.000106226756311" flag="0"/>
			<psa03 value="5.00096198581455e-05" flag="0"/>
			<psa10 value="6.72538790675302e-05" flag="0"/>
			<psa30 value="3.40166544780771e-05" flag="0"/>
		</comp>
	</station>
	<station code="KLNA" name="KLNA" netid="HL" source="National Observatory of Athens Seismic Network" insttype="" lat="36.95708" lon="26.97274">
		<comp name="00.HNE" depth="0.0">
			<acc value="0.015587213793612" flag="0"/>
			<vel value="0.00527633478322" flag="0"/>
			<psa03 value="0.0236066237187832" flag="0"/>
			<psa10 value="0.00206026531059036" flag="0"/>
			<psa30 value="0.000288495153054822" flag="0"/>
		</comp>
		<comp name="00.HNN" depth="0.0">
			<acc value="0.010626741057108" flag="0"/>
