<stationlist xmlns:esm="https://esm-db.eu/esmws/shakemap/1/" created="1783994063">
	<station code="KARP" name="KARP" netid="GE" source="GEOFON" insttype="" lat="35.5471" lon="27.16106" esm:processing="manual (Paolucci et al 2011)" esm:quality="good">
		<comp name="--.HNE" depth="0.0">
			<acc value="0.00491775619394324" flag="0"/>
			<vel value="0.00321299207493731" flag="0"/>
			<psa03 value="0.0118119425472237" flag="0"/>
			<psa10 value="0.0081341331632018" flag="0"/>
			<psa30 value="0.00039015204171133" flag="0"/>
		</comp>
		<comp name="--.HNN" depth="0.0">
			<acc value="0.00595112212333417" flag="0"/>
			<vel value="0.00525187820657741" flag="0"/>
			<psa03 value="0.0165546164487606" flag="0"/>
			<psa10 value="0.00554490166620242" flag="0"/>
			<psa30 value="0.000657710437288595" flag="0"/>
		</comp>
		<comp name="--.HNZ" depth="0.0">
			<acc value="0.00434842840080927" flag="0"/>
			<vel value="0.00264575303862818" flag="0"/>
			<psa03 value="0.0108276140016218" flag="0"/>
			<psa10 value="0.00371270830518419" flag="0"/>
			<psa30 value="0.000399995327167349" flag="0"/>
		</comp>
	</station>
	<station code="RDI1" name="RDI1" netid="HI" source="ITSAK Strong Motion Network" insttype="" lat="36.4514" lon="28.224" esm:processing="manual (Paolucci et al 2011)" esm:quality="good">
		<comp name="--.HNE" depth="0.0">
			<acc value="0.0306237057502573" flag="0"/>
			<vel value="0.0254449303800946" flag="0"/>
			<psa03 value="0.0919004923939302" flag="0"/>
			<psa10 value="0.0266654603003576" flag="0"/>
			<psa30 value="0.00758872566452507" flag="0"/>
		</comp>
		<comp name="--.HNN" depth="0.0">
			<acc value="0.0255877474346798" flag="0"/>
			<vel value="0.0184697464842171" flag="0"/>
			<psa03 value="0.0736904143002936" flag="0"/>
			<psa10 value="0.0196910451327014" flag="0"/>
			<psa30 value="0.00931130061932853" flag="0"/>
		</comp>
		<comp name="--.HNZ" depth="0.0">
			<acc value="0.0176740577290908" flag="0"/>
			<vel value="0.0107036970366039" flag="0"/>
			<psa03 value="0.0527510616029424" flag="0"/>
			<psa10 value="0.0151045215322624" flag="0"/>
			<psa30 value="0.00268005817643448" flag="0"/>
		</comp>
	</station>
	<station code="RGE1" name="RGE1" netid="HI" source="ITSAK Strong Motion Network" insttype="" lat="36.0269" lon="27.9306" esm:processing="manual (Paolucci et al 2011)" esm:quality="best">
		<comp name="--.HNE" depth="0.0">
			<acc value="0.0120727682363077" flag="0"/>
			<vel value="0.00924996001278992" flag="0"/>
			<psa03 value="0.0414760255351379" flag="0"/>
			<psa10 value="0.0119756990234466" flag="0"/>
			<psa30 value="0.00142593412492432" flag="0"/>
		</comp>
		<comp name="--.HNN" depth="0.0">
			<acc value="0.0146668046080748" flag="0"/>
			<vel value="0.0096902249387054" flag="0"/>
			<psa03 value="0.0403127281630629" flag="0"/>
			<psa10 value="0.0122414677307592" flag="0"/>
			<psa30 value="0.00118432620918565" flag="0"/>
		</comp>
		<comp name="--.HNZ" depth="0.0">
			<acc value="0.00958186654767574" flag="0"/>
			<vel value="0.00480830031699665" flag="0"/>
			<psa03 value="0.0218789390363349" flag="0"/>
			<psa10 value="0.00638650257269211" flag="0"/>
			<psa30 value="0.000765091733172447" flag="0"/>
		</comp>
	</station>
	<station code="KARP" name="KARP" netid="HL" source="National Observatory of Athens Seismic Network" insttype="" lat="35.5471" lon="27.16106" esm:processing="manual (Paolucci et al 2011)" esm:quality="good">
		<comp name="--.HNE" depth="0.0">
			<acc value="0.00486186375584146" flag="0"/>
			<vel value="0.00313443582663232" flag="0"/>
			<psa03 value="0.0115959726033582" flag="0"/>
			<psa10 value="0.00797165933330795" flag="0"/>
			<psa30 value="0.000386341686990696" flag="0"/>
		</comp>
		<comp name="--.HNN" depth="0.0">
			<acc value="0.00581407484421861" flag="0"/>
			<vel value="0.00513554940317389" flag="0"/>
			<psa03 value="0.0162387905839303" flag="0"/>
			<psa10 value="0.00543727566157781" flag="0"/>
			<psa30 value="0.000658214749330126" flag="0"/>
		</comp>
		<comp name="--.HNZ" depth="0.0">
			<acc value="0.00426927253568341" flag="0"/>
			<vel value="0.00259639977446961" flag="0"/>
			<psa03 value="0.0106552950537122" flag="0"/>
			<psa10 value="0.00363545239337919" flag="0"/>
			<psa30 value="0.000406085937658737" flag="0"/>
		</comp>
	</station>
	<station code="KLNA" name="KLNA" netid="HL" source="National Observatory of Athens Seismic Network" insttype="" lat="36.95708" lon="26.97274" esm:processing="automatic (Paolucci et al 2011)" esm:quality="best">
		<comp name="00.HNE" depth="0.0">
			<acc value="0.00438194476845261" flag="0"/>
			<vel value="0.00193246673847266" flag="0"/>
			<psa03 value="0.0142280217046104" flag="0"/>
			<psa10 value="0.00257312430261681" flag="0"/>
			<psa30 value="0.000332434595173759" flag="0"/>
		</comp>
		<comp name="00.HNN" depth="0.0">
			<acc value="0.00389955036650663" flag="0"/>
			<vel value="0.00231650744577937" flag="0"/>
			<psa03 value="0.0173599761678894" flag="0"/>
			<psa10 value="0.00320935848072863" flag="0"/>
			<psa30 value="0.00017941624853927" flag="0"/>
		</comp>
		<comp name="00.HNZ" depth="0.0">
			<acc value="0.00421335319814687" flag="0"/>
			<vel value="0.00183942713250837" flag="0"/>
			<psa03 value="0.0052348381743378" flag="0"/>
			<psa10 value="0.00199326530484401" flag="0"/>
			<psa30 value="0.000257715110121245" flag="0"/>
		</comp>
	</station>
	<station code="RODB" name="RODB" netid="HL" source="National Observatory of Athens Seismic Network" insttype="" lat="36.4471" lon="28.22116" esm:processing="manual (Paolucci et al 2011)" esm:quality="good">
		<comp name="00.HNE" depth="0.0">
			<acc value="0.0364350953020795" flag="0"/>
			<vel value="0.0201110031099763" flag="0"/>
			<psa03 value="0.0687240293656654" flag="0"/>
			<psa10 value="0.0152937810662577" flag="0"/>
			<psa30 value="0.00666927331851959" flag="0"/>
		</comp>
		<comp name="00.HNN" depth="0.0">
			<acc value="0.0275040621712727" flag="0"/>
			<vel value="0.0254573605129569" flag="0"/>
			<psa03 value="0.116195510587652" flag="0"/>
			<psa10 value="0.0276439723590992" flag="0"/>
			<psa30 value="0.00506302810092363" flag="0"/>
		</comp>
		<comp name="00.HNZ" depth="0.0">
			<acc value="0.042223382236019" flag="0"/>
			<vel value="0.0128768135311548" flag="0"/>
			<psa03 value="0.053019514842652" flag="0"/>
			<psa10 value="0.014134063070712" flag="0"/>
			<psa30 value="0.00197760553252761" flag="0"/>
		</comp>
	</station>
	<station code="BASM" name="BASM" netid="KO" source="Bogazici University Kandilli Observatory And Earthquake Research Institute (KOERI)" insttype="" lat="37.9194" lon="30.035" esm:processing="automatic (Paolucci et al 2011)" esm:quality="good">
		<comp name="--.HNE" depth="0.0">
			<acc value="0.0145174179328721" flag="0"/>
			<vel value="0.0152249107853451" flag="0"/>
			<psa03 value="0.0259504798385976" flag="0"/>
			<psa10 value="0.026717808682101" flag="0"/>
			<psa30 value="0.00259862736038922" flag="0"/>
		</comp>
		<comp name="--.HNN" depth="0.0">
			<acc value="0.00839439210355419" flag="0"/>
			<vel value="0.0113793895429605" flag="0"/>
			<psa03 value="0.0259952220452159" flag="0"/>
			<psa10 value="0.0310788315611839" flag="0"/>
			<psa30 value="0.00205590439410959" flag="0"/>
		</comp>
		<comp name="--.HNZ" depth="0.0">
			<acc value="0.00903999855503462" flag="0"/>
			<vel value="0.00823931693589254" flag="0"/>
			<psa03 value="0.0192838910524751" flag="0"/>
			<psa10 value="0.014564930520446" flag="0"/>
			<psa30 value="0.000812518472187815" flag="0"/>
		</comp>
	</station>
	<station code="CAME" name="CAME" netid="KO" source="Bogazici University Kandilli Observatory And Earthquake Research Institute (KOERI)" insttype="" lat="36.9435" lon="29.3023" esm:processing="manual (Paolucci et al 2011)" esm:quality="good">
		<comp name="--.HNE" depth="0.0">
			<acc value="0.0951371326115993" flag="0"/>
			<vel value="0.0593313337722082" flag="0"/>
			<psa03 value="0.227514120653912" flag="0"/>
			<psa10 value="0.0735776639396155" flag="0"/>
			<psa30 value="0.00811265690402503" flag="0"/>
		</comp>
		<comp name="--.HNN" depth="0.0">
			<acc value="0.0692902353375438" flag="0"/>
			<vel value="0.0328522869714726" flag="0"/>
			<psa03 value="0.150468040857248" flag="0"/>
			<psa10 value="0.034509663964673" flag="0"/>
			<psa30 value="0.00617800388985096" flag="0"/>
		</comp>
		<comp name="--.HNZ" depth="0.0">
			<acc value="0.0420616931546355" flag="0"/>
			<vel value="0.0220844064618448" flag="0"/>
			<psa03 value="0.0933322430057149" flag="0"/>
			<psa10 value="0.0244064262882011" flag="0"/>
			<psa30 value="0.0040438006341594" flag="0"/>
		</comp>
	</station>
	<station code="ASTA" name="ASTA" netid="HL" source="National Observatory of Athens Seismic Network" insttype="" lat="36.54552" lon="26.35295" esm:processing="discarded" esm:quality="bad">
		<comp name="00.HNE" depth="0.0">
			<acc value="0" flag="1"/>
			<vel value="0" flag="1"/>
			<psa03 value="0" flag="1"/>
			<psa10 value="0" flag="1"/>
			<psa30 value="0" flag="1"/>
		</comp>
		<comp name="00.HNN" depth="0.0">
			<acc value="0" flag="1"/>
			<vel value="0" flag="1"/>
			<psa03 value="0" flag="1"/>
			<psa10 value="0" flag="1"/>
			<psa30 value="0" flag="1"/>
		</comp>
		<comp name="00.HNZ" depth="0.0">
			<acc value="0" flag="1"/>
			<vel value="0" flag="1"/>
			<psa03 value="0" flag="1"/>
			<psa10 value="0" flag="1"/>
			<psa30 value="0" flag="1"/>
		</comp>
	</station>
	<station code="DATC" name="DATC" netid="KO" source="Bogazici University Kandilli Observatory And Earthquake Research Institute (KOERI)" insttype="" lat="36.7584" lon="27.6602" esm:processing="discarded" esm:quality="good">
		<comp name="--.HNE" depth="0.0">
			<acc value="0" flag="1"/>
			<vel value="0" flag="1"/>
			<psa03 value="0" flag="1"/>
			<psa10 value="0" flag="1"/>
			<psa30 value="0" flag="1"/>
		</comp>
		<comp name="--.HNN" depth="0.0">
			<acc value="0" flag="1"/>
			<vel value="0" flag="1"/>
			<psa03 value="0" flag="1"/>
			<psa10 value="0" flag="1"/>
			<psa30 value="0" flag="1"/>
		</comp>
		<comp name="--.HNZ" depth="0.0">
			<acc value="0" flag="1"/>
			<vel value="0" flag="1"/>
			<psa03 value="0" flag="1"/>
			<psa10 value="0" flag="1"/>
			<psa30 value="0" flag="1"/>
		</comp>
	</station>
	<station code="DEMR" name="DEMR" netid="KO" source="Bogazici University Kandilli Observatory And Earthquake Research Institute (KOERI)" insttype="" lat="36.2365" lon="29.9056" esm:processing="discarded" esm:quality="bad">
		<comp name="--.HNE" depth="0.0">
			<acc value="0" flag="1"/>
			<vel value="0" flag="1"/>
			<psa03 value="0" flag="1"/>
			<psa10 value="0" flag="1"/>
			<psa30 value="0" flag="1"/>
		</comp>
		<comp name="--.HNN" depth="0.0">
			<acc value="0" flag="1"/>
			<vel value="0" flag="1"/>
			<psa03 value="0" flag="1"/>
			<psa10 value="0" flag="1"/>
			<psa30 value="0" flag="1"/>
		</comp>
		<comp name="--.HNZ" depth="0.0">
			<acc value="0" flag="1"/>
			<vel value="0" flag="1"/>
			<psa03 value="0" flag="1"/>
			<psa10 value="0" flag="1"/>
			<psa30 value="0" flag="1"/>
		</comp>
	</station>
	<station code="DIDI" name="DIDI" netid="KO" source="Bogazici University Kandilli Observatory And Earthquake Research Institute (KOERI)" insttype="" lat="37.3767" lon="27.2398" esm:processing="discarded" esm:quality="bad">
		<comp name="--.HNE" depth="0.0">
			<acc value="0" flag="1"/>
			<vel value="0" flag="1"/>
			<psa03 value="0" flag="1"/>
			<psa10 value="0" flag="1"/>
			<psa30 value="0" flag="1"/>
		</comp>
		<comp name="--.HNN" depth="0.0">
			<acc value="0" flag="1"/>
			<vel value="0" flag="1"/>
			<psa03 value="0" flag="1"/>
			<psa10 value="0" flag="1"/>
			<psa30 value="0" flag="1"/>
		</comp>
		<comp name="--.HNZ" depth="0.0">
			<acc value="0" flag="1"/>
			<vel value="0" flag="1"/>
			<psa03 value="0" flag="1"/>
			<psa10 value="0" flag="1"/>
			<psa30 value="0" flag="1"/>
		</comp>
	</station>
	<station code="FETI" name="FETI" netid="KO" source="Bogazici University Kandilli Observatory And Earthquake Research Institute (KOERI)" insttype="" lat="36.6903" lon="29.096" esm:processing="discarded" esm:quality="bad">
		<comp name="--.HNE" depth="0.0">
			<acc value="0" flag="1"/>
			<vel value="0" flag="1"/>
			<psa03 value="0" flag="1"/>
			<psa10 value="0" flag="1"/>
			<psa30 value="0" flag="1"/>
		</comp>
		<comp name="--.HNN" depth="0.0">
			<acc value="0" flag="1"/>
			<vel value="0" flag="1"/>
			<psa03 value="0" flag="1"/>
			<psa10 value="0" flag="1"/>
			<psa30 value="0" flag="1"/>
		</comp>
		<comp name="--.HNZ" depth="0.0">
			<acc value="0" flag="1"/>
			<vel value="0" flag="1"/>
			<psa03 value="0" flag="1"/>
			<psa10 value="0" flag="1"/>
			<psa30 value="0" flag="1"/>
		</comp>
	</station>
	<station code="KEMT" name="KEMT" netid="KO" source="Bogazici University Kandilli Observatory And Earthquake Research Institute (KOERI)" insttype="" lat="36.6037" lon="30.5558" esm:processing="discarded" esm:quality="bad">
		<comp name="--.HNE" depth="0.0">
			<acc value="0" flag="1"/>
			<vel value="0" flag="1"/>
			<psa03 value="0" flag="1"/>
			<psa10 value="0" flag="1"/>
			<psa30 value="0" flag="1"/>
		</comp>
		<comp name="--.HNN" depth="0.0">
			<acc value="0" flag="1"/>
			<vel value="0" flag="1"/>
			<psa03 value="0" flag="1"/>
			<psa10 value="0" flag="1"/>
			<psa30 value="0" flag="1"/>
		</comp>
		<comp name="--.HNZ" depth="0.0">
			<acc value="0" flag="1"/>
			<vel value="0" flag="1"/>
			<psa03 value="0" flag="1"/>
			<psa10 value="0" flag="1"/>
			<psa30 value="0" flag="1"/>
		</comp>
	</station>
	<station code="MRSB" name="MRSB" netid="KO" source="Bogazici University Kandilli Observatory And Earthquake Research Institute (KOERI)" insttype="" lat="36.7161" lon="28.1969" esm:processing="discarded" esm:quality="good">
		<comp name="--.HNE" depth="0.0">
			<acc value="0" flag="1"/>
			<vel value="0" flag="1"/>
			<psa03 value="0" flag="1"/>
			<psa10 value="0" flag="1"/>
			<psa30 value="0" flag="1"/>
		</comp>
		<comp name="--.HNN" depth="0.0">
			<acc value="0" flag="1"/>
			<vel value="0" flag="1"/>
			<psa03 value="0" flag="1"/>
			<psa10 value="0" flag="1"/>
			<psa30 value="0" flag="1"/>
		</comp>
		<comp name="--.HNZ" depth="0.0">
			<acc value="0" flag="1"/>
			<vel value="0" flag="1"/>
			<psa03 value="0" flag="1"/>
			<psa10 value="0" flag="1"/>
			<psa30 value="0" flag="1"/>
		</comp>
	</station>
	<station code="YKAV" name="YKAV" netid="KO" source="Bogazici University Kandilli Observatory And Earthquake Research Institute (KOERI)" insttype="" lat="37.1246" lon="27.2801" esm:processing="discarded" esm:quality="bad">
		<comp name="--.HNE" depth="0.0">
			<acc value="0" flag="1"/>
			<vel value="0" flag="1"/>
			<psa03 value="0" flag="1"/>
			<psa10 value="0" flag="1"/>
			<psa30 value="0" flag="1"/>
		</comp>
		<comp name="--.HNN" depth="0.0">
			<acc value="0" flag="1"/>
			<vel value="0" flag="1"/>
			<psa03 value="0" flag="1"/>
			<psa10 value="0" flag="1"/>
			<psa30 value="0" flag="1"/>
		</comp>
		<comp name="--.HNZ" depth="0.0">
			<acc value="0" flag="1"/>
			<vel value="0" flag="1"/>
			<psa03 value="0" flag="1"/>
			<psa10 value="0" flag="1"/>
			<psa30 value="0" flag="1"/>
		</comp>
	</station>
</stationlist>
