<?xml version="1.0" encoding="UTF-8" standalone="yes"?>
<!DOCTYPE earthquake SYSTEM "stationlist.dtd">
<stationlist created="" xmlns="ch.ethz.sed.shakemap.usgs.xml">
  <station code="ARG" name="ARG" netid="HL" source="NOA" insttype="LE3D20_DR24" lat="36.2136" lon="28.1212">
    <comp name="--.HHE">
      <acc value="0.0221625876" flag="0"/>
      <vel value="0.0105194152" flag="0"/>
      <psa03 value="0.1001009283" flag="0"/>
      <psa10 value="0.0155720837" flag="0"/>
      <psa30 value="0.0017659420" flag="0"/>
    </comp>
    <comp name="--.HHN">
      <acc value="0.0225242013" flag="0"/>
      <vel value="0.0150424302" flag="0"/>
      <psa03 value="0.0545898412" flag="0"/>
      <psa10 value="0.0175077531" flag="0"/>
      <psa30 value="0.0017771324" flag="0"/>
    </comp>
    <comp name="--.HHZ">
      <acc value="0.0166710998" flag="0"/>
      <vel value="0.0070355281" flag="0"/>
      <psa03 value="0.0322273629" flag="0"/>
      <psa10 value="0.0123520546" flag="0"/>
      <psa30 value="0.0017843206" flag="0"/>
    </comp>
  </station>
  <station code="RODB" name="RODB" netid="HL" source="NOA" insttype="CMG-5" lat="36.4471" lon="28.2212">
    <comp name="00.HNE">
      <acc value="0.0364546183" flag="0"/>
      <vel value="0.0200254825" flag="0"/>
      <psa03 value="0.0688601865" flag="0"/>
      <psa10 value="0.0151528705" flag="0"/>
      <psa30 value="0.0056910644" flag="0"/>
    </comp>
    <comp name="00.HNN">
      <acc value="0.0274235711" flag="0"/>
      <vel value="0.0240875439" flag="0"/>
      <psa03 value="0.1161911928" flag="0"/>
      <psa10 value="0.0275373252" flag="0"/>
      <psa30 value="0.0039111826" flag="0"/>
    </comp>
    <comp name="00.HNZ">
      <acc value="0.0421768724" flag="0"/>
      <vel value="0.0124457379" flag="0"/>
      <psa03 value="0.0528621291" flag="0"/>
      <psa10 value="0.0140710374" flag="0"/>
      <psa30 value="0.0017563934" flag="0"/>
    </comp>
  </station>
  <station code="MRSB" name="MRSB" netid="KO" source="KOERI" insttype="100" lat="36.7161" lon="28.1969">
    <comp name="--.HNE">
      <acc value="0.1301932058" flag="0"/>
      <vel value="0.0595163569" flag="0"/>
      <psa03 value="0.2566033406" flag="0"/>
      <psa10 value="0.0459271810" flag="0"/>
      <psa30 value="0.0043265966" flag="0"/>
    </comp>
    <comp name="--.HNN">
      <acc value="0.1555792633" flag="0"/>
      <vel value="0.0672033141" flag="0"/>
      <psa03 value="0.3413933521" flag="0"/>
      <psa10 value="0.0344817508" flag="0"/>
      <psa30 value="0.0044954767" flag="0"/>
    </comp>
    <comp name="--.HNZ">
      <acc value="0.0963043194" flag="0"/>
      <vel value="0.0268936477" flag="0"/>
      <psa03 value="0.1621544515" flag="0"/>
      <psa10 value="0.0135853768" flag="0"/>
      <psa30 value="0.0029906220" flag="0"/>
    </comp>
  </station>
</stationlist>
