<?xml version="1.0" encoding="UTF-8" standalone="yes"?>
<!DOCTYPE earthquake SYSTEM "stationlist.dtd">
<stationlist created="" xmlns="ch.ethz.sed.shakemap.usgs.xml">
  <station code="KARP" name="KARP" netid="GE" insttype="STS-2/N" commtype="DIG" lat="35.5471" lon="27.1611">
    <comp name="--.HHE">
      <acc value="0.0344864827" flag="0"/>
      <vel value="0.0160004388" flag="0"/>
      <psa03 value="0.0785760095" flag="0"/>
      <psa10 value="0.0215641078" flag="0"/>
      <psa30 value="0.0013197931" flag="0"/>
    </comp>
    <comp name="--.HHN">
      <acc value="0.0381543252" flag="0"/>
      <vel value="0.0148612661" flag="0"/>
      <psa03 value="0.0729605330" flag="0"/>
      <psa10 value="0.0258427013" flag="0"/>
      <psa30 value="0.0013224087" flag="0"/>
    </comp>
  </station>
  <station code="ZKR" name="ZKR" netid="GE" insttype="STS-2/N" commtype="DIG" lat="35.1147" lon="26.2169">
    <comp name="--.HHN">
      <acc value="0.2677497870" flag="0"/>
      <vel value="0.1258645620" flag="0"/>
      <psa03 value="0.5495213077" flag="0"/>
      <psa10 value="0.0400382338" flag="0"/>
      <psa30 value="0.0043160829" flag="0"/>
    </comp>
  </station>
  <station code="KNSS" name="KNSS" netid="HC" insttype="60" commtype="DIG" lat="35.3042" lon="25.1802">
    <comp name="--.HHE">
      <acc value="0.0155242957" flag="0"/>
      <vel value="0.0098988943" flag="0"/>
      <psa03 value="0.0375906588" flag="0"/>
      <psa10 value="0.0126414857" flag="0"/>
      <psa30 value="0.0018157561" flag="0"/>
    </comp>
    <comp name="--.HHZ">
      <acc value="0.0125790094" flag="0"/>
      <vel value="0.0048682119" flag="0"/>
      <psa03 value="0.0260914848" flag="0"/>
      <psa10 value="0.0041550608" flag="0"/>
      <psa30 value="0.0014204732" flag="0"/>
    </comp>
    <comp name="--.HHN">
      <acc value="0.0144102625" flag="0"/>
      <vel value="0.0086228341" flag="0"/>
      <psa03 value="0.0538924590" flag="0"/>
      <psa10 value="0.0086685434" flag="0"/>
      <psa30 value="0.0021050311" flag="0"/>
    </comp>
  </station>
  <station code="PFKS" name="PFKS" netid="HC" insttype="120" commtype="DIG" lat="35.0429" lon="25.4733">
    <comp name="--.HHN">
      <acc value="0.1198960553" flag="0"/>
      <vel value="0.0499691800" flag="0"/>
      <psa03 value="0.1955916265" flag="0"/>
      <psa10 value="0.0243591633" flag="0"/>
      <psa30 value="0.0015851304" flag="0"/>
    </comp>
    <comp name="--.HHE">
      <acc value="0.1193706205" flag="0"/>
      <vel value="0.0437458923" flag="0"/>
      <psa03 value="0.2914079436" flag="0"/>
      <psa10 value="0.0291107334" flag="0"/>
      <psa30 value="0.0021593104" flag="0"/>
    </comp>
    <comp name="--.HHZ">
      <acc value="0.0528913726" flag="0"/>
      <vel value="0.0192862529" flag="0"/>
      <psa03 value="0.0859643141" flag="0"/>
      <psa10 value="0.0213300468" flag="0"/>
      <psa30 value="0.0024012580" flag="0"/>
    </comp>
  </station>
  <station code="STIA" name="STIA" netid="HC" insttype="120" commtype="DIG" lat="35.2021" lon="26.0909">
    <comp name="--.HHN">
      <acc value="0.0000000000" flag="0"/>
      <vel value="-100.0000000000" flag="0"/>
      <psa03 value="0.0000000000" flag="0"/>
      <psa10 value="0.0000000000" flag="0"/>
      <psa30 value="0.0000000000" flag="0"/>
    </comp>
    <comp name="--.HHE">
      <acc value="0.2400992858" flag="0"/>
      <vel value="0.0831739258" flag="0"/>
      <psa03 value="0.4887465746" flag="0"/>
      <psa10 value="0.1116970634" flag="0"/>
      <psa30 value="0.0042549264" flag="0"/>
    </comp>
    <comp name="--.HHZ">
      <acc value="0.4142667742" flag="0"/>
      <vel value="0.0900735715" flag="0"/>
      <psa03 value="0.3981920635" flag="0"/>
      <psa10 value="0.0341191244" flag="0"/>
      <psa30 value="0.0045352671" flag="0"/>
    </comp>
  </station>
  <station code="AGN1" name="AGN1" netid="HI" insttype="unknown" commtype="DIG" lat="35.1879" lon="25.7155">
    <comp name="--.HNE">
      <acc value="0.0822768813" flag="0"/>
      <vel value="0.0301315973" flag="0"/>
      <psa03 value="0.1741998256" flag="0"/>
      <psa10 value="0.0247203788" flag="0"/>
      <psa30 value="0.0045297648" flag="0"/>
    </comp>
    <comp name="--.HNZ">
      <acc value="0.0270659645" flag="0"/>
      <vel value="0.0094435263" flag="0"/>
      <psa03 value="0.0627410896" flag="0"/>
      <psa10 value="0.0074174986" flag="0"/>
      <psa30 value="0.0022338373" flag="0"/>
    </comp>
    <comp name="--.HNN">
      <acc value="0.0634291371" flag="0"/>
      <vel value="0.0278399121" flag="0"/>
      <psa03 value="0.1465683121" flag="0"/>
      <psa10 value="0.0175810508" flag="0"/>
      <psa30 value="0.0030989440" flag="0"/>
    </comp>
  </station>
  <station code="ARK1" name="ARK1" netid="HI" insttype="unknown" commtype="DIG" lat="35.1488" lon="25.2642">
    <comp name="--.HNE">
      <acc value="0.0277872150" flag="0"/>
      <vel value="0.0205738585" flag="0"/>
      <psa03 value="0.0732300275" flag="0"/>
      <psa10 value="0.0209516991" flag="0"/>
      <psa30 value="0.0041049828" flag="0"/>
    </comp>
    <comp name="--.HNN">
      <acc value="0.0384677222" flag="0"/>
      <vel value="0.0198412498" flag="0"/>
      <psa03 value="0.1072251559" flag="0"/>
      <psa10 value="0.0256932524" flag="0"/>
      <psa30 value="0.0047035839" flag="0"/>
    </comp>
    <comp name="--.HNZ">
      <acc value="0.0202906822" flag="0"/>
      <vel value="0.0127173279" flag="0"/>
      <psa03 value="0.0534284240" flag="0"/>
      <psa10 value="0.0223795280" flag="0"/>
      <psa30 value="0.0018567731" flag="0"/>
    </comp>
  </station>
  <station code="KSS1" name="KSS1" netid="HI" insttype="CMG-5TD,ACCELEROMETER,GURALP" commtype="DIG" lat="35.4189" lon="26.9207">
    <comp name="--.HNE">
      <acc value="0.0349043916" flag="0"/>
      <vel value="0.0168422852" flag="0"/>
      <psa03 value="0.1261566877" flag="0"/>
      <psa10 value="0.0172817146" flag="0"/>
      <psa30 value="0.0019418637" flag="0"/>
    </comp>
    <comp name="--.HNZ">
      <acc value="0.0262947403" flag="0"/>
      <vel value="0.0080639932" flag="0"/>
      <psa03 value="0.0494715772" flag="0"/>
      <psa10 value="0.0113548121" flag="0"/>
      <psa30 value="0.0010484017" flag="0"/>
    </comp>
    <comp name="--.HNN">
      <acc value="0.0617018143" flag="0"/>
      <vel value="0.0288598881" flag="0"/>
      <psa03 value="0.3461613546" flag="0"/>
      <psa10 value="0.0144243721" flag="0"/>
      <psa30 value="0.0018770036" flag="0"/>
    </comp>
  </station>
  <station code="KTL1" name="KTL1" netid="HI" insttype="unknown" commtype="DIG" lat="35.2078" lon="25.3427">
    <comp name="--.HNE">
      <acc value="0.0439616264" flag="0"/>
      <vel value="0.0319727222" flag="0"/>
      <psa03 value="0.0955313819" flag="0"/>
      <psa10 value="0.0289226097" flag="0"/>
      <psa30 value="0.0024797939" flag="0"/>
    </comp>
    <comp name="--.HNN">
      <acc value="0.0350907879" flag="0"/>
      <vel value="0.0179605398" flag="0"/>
      <psa03 value="0.1022557466" flag="0"/>
      <psa10 value="0.0173605552" flag="0"/>
      <psa30 value="0.0019692538" flag="0"/>
    </comp>
    <comp name="--.HNZ">
      <acc value="0.0172227448" flag="0"/>
      <vel value="0.0090021444" flag="0"/>
      <psa03 value="0.0457573726" flag="0"/>
      <psa10 value="0.0064857688" flag="0"/>
      <psa30 value="0.0020944962" flag="0"/>
    </comp>
  </station>
  <station code="IACM" name="IACM" netid="HL" insttype="120" commtype="DIG" lat="35.3058" lon="25.0709">
    <comp name="--.HHN">
      <acc value="0.0428437784" flag="0"/>
      <vel value="0.0313702291" flag="0"/>
      <psa03 value="0.1574033609" flag="0"/>
      <psa10 value="0.0673373927" flag="0"/>
      <psa30 value="0.0028656895" flag="0"/>
    </comp>
    <comp name="--.HHE">
      <acc value="0.0393369893" flag="0"/>
      <vel value="0.0321896872" flag="0"/>
      <psa03 value="0.1191438139" flag="0"/>
      <psa10 value="0.0474627489" flag="0"/>
      <psa30 value="0.0037681989" flag="0"/>
    </comp>
    <comp name="--.HHZ">
      <acc value="0.0313996860" flag="0"/>
      <vel value="0.0194187311" flag="0"/>
      <psa03 value="0.0741723053" flag="0"/>
      <psa10 value="0.0230804723" flag="0"/>
      <psa30 value="0.0015311208" flag="0"/>
    </comp>
  </station>
  <station code="KARP" name="KARP" netid="HL" insttype="120" commtype="DIG" lat="35.5471" lon="27.1611">
    <comp name="--.HHE">
      <acc value="0.0331882987" flag="0"/>
      <vel value="0.0154123094" flag="0"/>
      <psa03 value="0.0766427760" flag="0"/>
      <psa10 value="0.0214192685" flag="0"/>
      <psa30 value="0.0013140898" flag="0"/>
    </comp>
    <comp name="--.HHN">
      <acc value="0.0365907803" flag="0"/>
      <vel value="0.0144174216" flag="0"/>
      <psa03 value="0.0710507813" flag="0"/>
      <psa10 value="0.0256912983" flag="0"/>
      <psa30 value="0.0013181494" flag="0"/>
    </comp>
    <comp name="--.HHZ">
      <acc value="0.0174413505" flag="0"/>
      <vel value="0.0086513016" flag="0"/>
      <psa03 value="0.0686760296" flag="0"/>
      <psa10 value="0.0144001055" flag="0"/>
      <psa30 value="0.0010012821" flag="0"/>
    </comp>
  </station>
  <station code="NPS" name="NPS" netid="HL" insttype="CMG3ESPC-120s" commtype="DIG" lat="35.2613" lon="25.6104">
    <comp name="--.HHE">
      <acc value="0.0269491062" flag="0"/>
      <vel value="0.0124896857" flag="0"/>
      <psa03 value="0.0355094064" flag="0"/>
      <psa10 value="0.0080888550" flag="0"/>
      <psa30 value="0.0012991818" flag="0"/>
    </comp>
    <comp name="--.HHN">
      <acc value="0.0339169435" flag="0"/>
      <vel value="0.0197766873" flag="0"/>
      <psa03 value="0.1288879162" flag="0"/>
      <psa10 value="0.0244894864" flag="0"/>
      <psa30 value="0.0015682187" flag="0"/>
    </comp>
    <comp name="--.HHZ">
      <acc value="0.0357366623" flag="0"/>
      <vel value="0.0118624234" flag="0"/>
      <psa03 value="0.0838297964" flag="0"/>
      <psa10 value="0.0118748854" flag="0"/>
      <psa30 value="0.0021529814" flag="0"/>
    </comp>
  </station>
</stationlist>
