<?xml version="1.0" encoding="UTF-8" standalone="yes"?>
<!DOCTYPE earthquake SYSTEM "stationlist.dtd">
<stationlist created="" xmlns="ch.ethz.sed.shakemap.usgs.xml">
  <station code="KARP" name="KARP" netid="GE" insttype="STS-2/N" commtype="DIG" lat="35.5471" lon="27.1611">
    <comp name="--.HHE">
      <acc value="0.0344864828" flag="0"/>
      <vel value="0.0160004387" flag="0"/>
      <psa03 value="0.0785760095" flag="0"/>
      <psa10 value="0.0215641078" flag="0"/>
      <psa30 value="0.0013198064" flag="0"/>
    </comp>
    <comp name="--.HHZ">
      <acc value="0.0178680444" flag="0"/>
      <vel value="0.0087445600" flag="0"/>
      <psa03 value="0.0702376171" flag="0"/>
      <psa10 value="0.0144885433" flag="0"/>
      <psa30 value="0.0010063802" flag="0"/>
    </comp>
    <comp name="--.HHN">
      <acc value="0.0381543255" flag="0"/>
      <vel value="0.0148612660" flag="0"/>
      <psa03 value="0.0729605330" flag="0"/>
      <psa10 value="0.0258427013" flag="0"/>
      <psa30 value="0.0013224142" flag="0"/>
    </comp>
  </station>
  <station code="ZKR" name="ZKR" netid="GE" insttype="STS-2/N" commtype="DIG" lat="35.1147" lon="26.2169">
    <comp name="--.HHN">
      <acc value="0.2677497871" flag="0"/>
      <vel value="0.1258645614" flag="0"/>
      <psa03 value="0.5495213077" flag="0"/>
      <psa10 value="0.0400382343" flag="0"/>
      <psa30 value="0.0043160747" flag="0"/>
    </comp>
    <comp name="--.HHE">
      <acc value="0.4844643527" flag="0"/>
      <vel value="0.2378159345" flag="0"/>
      <psa03 value="0.7288133617" flag="0"/>
      <psa10 value="0.1211962742" flag="0"/>
      <psa30 value="0.0115950341" flag="0"/>
    </comp>
    <comp name="--.HHZ">
      <acc value="0.3041768741" flag="0"/>
      <vel value="0.0828021148" flag="0"/>
      <psa03 value="0.4350446532" flag="0"/>
      <psa10 value="0.0807148224" flag="0"/>
      <psa30 value="0.0079924893" flag="0"/>
    </comp>
  </station>
  <station code="KNSS" name="KNSS" netid="HC" insttype="60" commtype="DIG" lat="35.3042" lon="25.1802">
    <comp name="--.HHE">
      <acc value="0.0155242958" flag="0"/>
      <vel value="0.0098988953" flag="0"/>
      <psa03 value="0.0375906588" flag="0"/>
      <psa10 value="0.0126414857" flag="0"/>
      <psa30 value="0.0018157642" flag="0"/>
    </comp>
    <comp name="--.HHN">
      <acc value="0.0144102624" flag="0"/>
      <vel value="0.0086228344" flag="0"/>
      <psa03 value="0.0538924589" flag="0"/>
      <psa10 value="0.0086685434" flag="0"/>
      <psa30 value="0.0021050316" flag="0"/>
    </comp>
    <comp name="--.HHZ">
      <acc value="0.0125790095" flag="0"/>
      <vel value="0.0048682120" flag="0"/>
      <psa03 value="0.0260914848" flag="0"/>
      <psa10 value="0.0041550608" flag="0"/>
      <psa30 value="0.0014204717" flag="0"/>
    </comp>
  </station>
  <station code="PFKS" name="PFKS" netid="HC" insttype="120" commtype="DIG" lat="35.0429" lon="25.4733">
    <comp name="--.HHE">
      <acc value="0.1193706205" flag="0"/>
      <vel value="0.0437458923" flag="0"/>
      <psa03 value="0.2914079436" flag="0"/>
      <psa10 value="0.0291107334" flag="0"/>
      <psa30 value="0.0021593095" flag="0"/>
    </comp>
    <comp name="--.HHZ">
      <acc value="0.0528913726" flag="0"/>
      <vel value="0.0192862529" flag="0"/>
      <psa03 value="0.0859643141" flag="0"/>
      <psa10 value="0.0213300468" flag="0"/>
      <psa30 value="0.0024012582" flag="0"/>
    </comp>
    <comp name="--.HHN">
      <acc value="0.1198960553" flag="0"/>
      <vel value="0.0499691807" flag="0"/>
      <psa03 value="0.1955916265" flag="0"/>
      <psa10 value="0.0243591634" flag="0"/>
      <psa30 value="0.0015851407" flag="0"/>
    </comp>
  </station>
  <station code="STIA" name="STIA" netid="HC" insttype="120" commtype="DIG" lat="35.2021" lon="26.0909">
    <comp name="--.HHE">
      <acc value="0.2400992859" flag="0"/>
      <vel value="0.0831739255" flag="0"/>
      <psa03 value="0.4887465746" flag="0"/>
      <psa10 value="0.1116970641" flag="0"/>
      <psa30 value="0.0042548931" flag="0"/>
    </comp>
    <comp name="--.HHN">
      <acc value="0.0000000000" flag="0"/>
      <vel value="-100.0000000000" flag="0"/>
      <psa03 value="0.0000000000" flag="0"/>
      <psa10 value="0.0000000000" flag="0"/>
      <psa30 value="0.0000000000" flag="0"/>
    </comp>
    <comp name="--.HHZ">
      <acc value="0.4142667741" flag="0"/>
      <vel value="0.0900735719" flag="0"/>
      <psa03 value="0.3981920635" flag="0"/>
      <psa10 value="0.0341191251" flag="0"/>
      <psa30 value="0.0045351663" flag="0"/>
    </comp>
  </station>
  <station code="AGN1" name="AGN1" netid="HI" insttype="unknown" commtype="DIG" lat="35.1879" lon="25.7155">
    <comp name="--.HNE">
      <acc value="0.0822768829" flag="0"/>
      <vel value="0.0301315985" flag="0"/>
      <psa03 value="0.1741998256" flag="0"/>
      <psa10 value="0.0247203793" flag="0"/>
      <psa30 value="0.0045297915" flag="0"/>
    </comp>
    <comp name="--.HNN">
      <acc value="0.0634291390" flag="0"/>
      <vel value="0.0278399128" flag="0"/>
      <psa03 value="0.1465683121" flag="0"/>
      <psa10 value="0.0175810509" flag="0"/>
      <psa30 value="0.0030989481" flag="0"/>
    </comp>
    <comp name="--.HNZ">
      <acc value="0.0270659620" flag="0"/>
      <vel value="0.0094435264" flag="0"/>
      <psa03 value="0.0627410896" flag="0"/>
      <psa10 value="0.0074174986" flag="0"/>
      <psa30 value="0.0022338899" flag="0"/>
    </comp>
  </station>
  <station code="ARK1" name="ARK1" netid="HI" insttype="unknown" commtype="DIG" lat="35.1488" lon="25.2642">
    <comp name="--.HNE">
      <acc value="0.0277872154" flag="0"/>
      <vel value="0.0205738578" flag="0"/>
      <psa03 value="0.0732300275" flag="0"/>
      <psa10 value="0.0209516991" flag="0"/>
      <psa30 value="0.0041049832" flag="0"/>
    </comp>
    <comp name="--.HNN">
      <acc value="0.0384677219" flag="0"/>
      <vel value="0.0198412495" flag="0"/>
      <psa03 value="0.1072251559" flag="0"/>
      <psa10 value="0.0256932524" flag="0"/>
      <psa30 value="0.0047035852" flag="0"/>
    </comp>
    <comp name="--.HNZ">
      <acc value="0.0202906824" flag="0"/>
      <vel value="0.0127173275" flag="0"/>
      <psa03 value="0.0534284240" flag="0"/>
      <psa10 value="0.0223795280" flag="0"/>
      <psa30 value="0.0018567685" flag="0"/>
    </comp>
  </station>
  <station code="KSS1" name="KSS1" netid="HI" insttype="CMG-5TD,ACCELEROMETER,GURALP" commtype="DIG" lat="35.4189" lon="26.9207">
    <comp name="--.HNZ">
      <acc value="0.0262947385" flag="0"/>
      <vel value="0.0080639960" flag="0"/>
      <psa03 value="0.0494715772" flag="0"/>
      <psa10 value="0.0113548121" flag="0"/>
      <psa30 value="0.0010484279" flag="0"/>
    </comp>
    <comp name="--.HNE">
      <acc value="0.0349043908" flag="0"/>
      <vel value="0.0168422874" flag="0"/>
      <psa03 value="0.1261566877" flag="0"/>
      <psa10 value="0.0172817146" flag="0"/>
      <psa30 value="0.0019418880" flag="0"/>
    </comp>
    <comp name="--.HNN">
      <acc value="0.0617018155" flag="0"/>
      <vel value="0.0288598892" flag="0"/>
      <psa03 value="0.3461613546" flag="0"/>
      <psa10 value="0.0144243722" flag="0"/>
      <psa30 value="0.0018770031" flag="0"/>
    </comp>
  </station>
  <station code="KTL1" name="KTL1" netid="HI" insttype="unknown" commtype="DIG" lat="35.2078" lon="25.3427">
    <comp name="--.HNN">
      <acc value="0.0350907895" flag="0"/>
      <vel value="0.0179605393" flag="0"/>
      <psa03 value="0.1022557466" flag="0"/>
      <psa10 value="0.0173605552" flag="0"/>
      <psa30 value="0.0019690449" flag="0"/>
    </comp>
    <comp name="--.HNE">
      <acc value="0.0439616271" flag="0"/>
      <vel value="0.0319727225" flag="0"/>
      <psa03 value="0.0955313819" flag="0"/>
      <psa10 value="0.0289226097" flag="0"/>
      <psa30 value="0.0024797939" flag="0"/>
    </comp>
    <comp name="--.HNZ">
      <acc value="0.0172227452" flag="0"/>
      <vel value="0.0090021446" flag="0"/>
      <psa03 value="0.0457573726" flag="0"/>
      <psa10 value="0.0064857688" flag="0"/>
      <psa30 value="0.0020944970" flag="0"/>
    </comp>
  </station>
  <station code="IACM" name="IACM" netid="HL" insttype="120" commtype="DIG" lat="35.3058" lon="25.0709">
    <comp name="--.HHZ">
      <acc value="0.0313996860" flag="0"/>
      <vel value="0.0194187347" flag="0"/>
      <psa03 value="0.0741723053" flag="0"/>
      <psa10 value="0.0230804723" flag="0"/>
      <psa30 value="0.0015883782" flag="0"/>
    </comp>
    <comp name="--.HHE">
      <acc value="0.0393369892" flag="0"/>
      <vel value="0.0321896868" flag="0"/>
      <psa03 value="0.1191438139" flag="0"/>
      <psa10 value="0.0474627489" flag="0"/>
      <psa30 value="0.0037682003" flag="0"/>
    </comp>
    <comp name="--.HHN">
      <acc value="0.0428437784" flag="0"/>
      <vel value="0.0313702320" flag="0"/>
      <psa03 value="0.1574033609" flag="0"/>
      <psa10 value="0.0673373871" flag="0"/>
      <psa30 value="0.0028656919" flag="0"/>
    </comp>
  </station>
  <station code="KARP" name="KARP" netid="HL" insttype="120" commtype="DIG" lat="35.5471" lon="27.1611">
    <comp name="--.HHE">
      <acc value="0.0331882987" flag="0"/>
      <vel value="0.0154123093" flag="0"/>
      <psa03 value="0.0766427760" flag="0"/>
      <psa10 value="0.0214192685" flag="0"/>
      <psa30 value="0.0013141029" flag="0"/>
    </comp>
    <comp name="--.HHN">
      <acc value="0.0365907802" flag="0"/>
      <vel value="0.0144174214" flag="0"/>
      <psa03 value="0.0710507813" flag="0"/>
      <psa10 value="0.0256912983" flag="0"/>
      <psa30 value="0.0013181549" flag="0"/>
    </comp>
    <comp name="--.HHZ">
      <acc value="0.0174413506" flag="0"/>
      <vel value="0.0086513013" flag="0"/>
      <psa03 value="0.0686760296" flag="0"/>
      <psa10 value="0.0144001055" flag="0"/>
      <psa30 value="0.0010012735" flag="0"/>
    </comp>
  </station>
  <station code="NPS" name="NPS" netid="HL" insttype="CMG3ESPC-120s" commtype="DIG" lat="35.2613" lon="25.6104">
    <comp name="--.HHE">
      <acc value="0.0269491062" flag="0"/>
      <vel value="0.0124896854" flag="0"/>
      <psa03 value="0.0355094064" flag="0"/>
      <psa10 value="0.0080888550" flag="0"/>
      <psa30 value="0.0012991842" flag="0"/>
    </comp>
    <comp name="--.HHZ">
      <acc value="0.0357366622" flag="0"/>
      <vel value="0.0118624234" flag="0"/>
      <psa03 value="0.0838297964" flag="0"/>
      <psa10 value="0.0118748854" flag="0"/>
      <psa30 value="0.0021529773" flag="0"/>
    </comp>
    <comp name="--.HHN">
      <acc value="0.0339169436" flag="0"/>
      <vel value="0.0197766872" flag="0"/>
      <psa03 value="0.1288879162" flag="0"/>
      <psa10 value="0.0244894865" flag="0"/>
      <psa30 value="0.0015681842" flag="0"/>
    </comp>
  </station>
</stationlist>
