<?xml version="1.0" encoding="UTF-8" standalone="yes"?>
<!DOCTYPE earthquake SYSTEM "stationlist.dtd">
<stationlist created="" xmlns="ch.ethz.sed.shakemap.usgs.xml">
  <station code="DARE" name="DARE" netid="KO" insttype="CMG-3ESP" lat="38.5712" lon="37.4832">
    <comp name="--.HHZ">
      <acc value="0.0346668726" flag="0"/>
      <vel value="0.0384156197" flag="0"/>
      <psa03 value="0.0990146713" flag="0"/>
      <psa10 value="0.1347661874" flag="0"/>
      <psa30 value="0.0053866986" flag="0"/>
    </comp>
    <comp name="--.HHN">
      <acc value="0.0652625864" flag="0"/>
      <vel value="0.0732997961" flag="0"/>
      <psa03 value="0.0860848974" flag="0"/>
      <psa10 value="0.1776192771" flag="0"/>
      <psa30 value="0.0082760512" flag="0"/>
    </comp>
    <comp name="--.HHE">
      <acc value="0.0617259970" flag="0"/>
      <vel value="0.0772284178" flag="0"/>
      <psa03 value="0.0959894156" flag="0"/>
      <psa10 value="0.1433527934" flag="0"/>
      <psa30 value="0.0120067327" flag="0"/>
    </comp>
  </station>
  <station code="GAZ" name="GAZ" netid="KO" insttype="CMG-3T" lat="37.1721" lon="37.2096">
    <comp name="--.HHZ">
      <acc value="0.0626531726" flag="0"/>
      <vel value="0.0612110377" flag="0"/>
      <psa03 value="0.1077015362" flag="0"/>
      <psa10 value="0.0979862518" flag="0"/>
      <psa30 value="0.0167023512" flag="0"/>
    </comp>
    <comp name="--.HHN">
      <acc value="0.0775476869" flag="0"/>
      <vel value="0.0840262538" flag="0"/>
      <psa03 value="0.1415674845" flag="0"/>
      <psa10 value="0.0955871535" flag="0"/>
      <psa30 value="0.0148695621" flag="0"/>
    </comp>
    <comp name="--.HHE">
      <acc value="0.1481687914" flag="0"/>
      <vel value="0.1268666025" flag="0"/>
      <psa03 value="0.1586430251" flag="0"/>
      <psa10 value="0.1206737696" flag="0"/>
      <psa30 value="0.0233465077" flag="0"/>
    </comp>
  </station>
  <station code="SARI" name="SARI" netid="KO" insttype="CMG-3T" lat="38.4072" lon="36.4181">
    <comp name="--.HHZ">
      <acc value="0.0344017888" flag="0"/>
      <vel value="0.0629201250" flag="0"/>
      <psa03 value="0.0748909584" flag="0"/>
      <psa10 value="0.0865648757" flag="0"/>
      <psa30 value="0.0082621799" flag="0"/>
    </comp>
    <comp name="--.HHN">
      <acc value="0.0417122930" flag="0"/>
      <vel value="0.0406663863" flag="0"/>
      <psa03 value="0.1256231340" flag="0"/>
      <psa10 value="0.0666724462" flag="0"/>
      <psa30 value="0.0070396191" flag="0"/>
    </comp>
    <comp name="--.HHE">
      <acc value="0.0684279142" flag="0"/>
      <vel value="0.0684876844" flag="0"/>
      <psa03 value="0.2108670782" flag="0"/>
      <psa10 value="0.1099060026" flag="0"/>
      <psa30 value="0.0086694969" flag="0"/>
    </comp>
  </station>
  <station code="URFA" name="URFA" netid="KO" insttype="CMG-3ESP" lat="37.4409" lon="38.8213">
    <comp name="--.HHE">
      <acc value="0.1032107139" flag="0"/>
      <vel value="0.0592338786" flag="0"/>
      <psa03 value="0.2584152165" flag="0"/>
      <psa10 value="0.0757036648" flag="0"/>
      <psa30 value="0.0106727044" flag="0"/>
    </comp>
    <comp name="--.HHZ">
      <acc value="0.0625808375" flag="0"/>
      <vel value="0.0322656124" flag="0"/>
      <psa03 value="0.1661032414" flag="0"/>
      <psa10 value="0.0519820160" flag="0"/>
      <psa30 value="0.0087398596" flag="0"/>
    </comp>
  </station>
</stationlist>
