<?xml version="1.0" encoding="UTF-8" standalone="yes"?>
<!DOCTYPE earthquake SYSTEM "stationlist.dtd">
<stationlist created="" xmlns="ch.ethz.sed.shakemap.usgs.xml">
  <station code="ARPRA" name="ARPRA" netid="KO" insttype="CMG-5T" lat="39.0929" lon="38.3356">
    <comp name="--.HNZ">
      <acc value="0.0216926950" flag="0"/>
      <vel value="0.0295106651" flag="0"/>
      <psa03 value="0.0504806278" flag="0"/>
      <psa10 value="0.0392498751" flag="0"/>
      <psa30 value="0.0066111979" flag="0"/>
    </comp>
    <comp name="--.HNE">
      <acc value="0.0529676548" flag="0"/>
      <vel value="0.0693091791" flag="0"/>
      <psa03 value="0.0902173377" flag="0"/>
      <psa10 value="0.0831914781" flag="0"/>
      <psa30 value="0.0140998722" flag="0"/>
    </comp>
    <comp name="--.HNN">
      <acc value="0.0322551087" flag="0"/>
      <vel value="0.0434200270" flag="0"/>
      <psa03 value="0.1025274400" flag="0"/>
      <psa10 value="0.0980801079" flag="0"/>
      <psa30 value="0.0072236220" flag="0"/>
    </comp>
  </station>
  <station code="CEYT" name="CEYT" netid="KO" insttype="CMG-3ESP" lat="37.0105" lon="35.7478">
    <comp name="--.HHN">
      <acc value="0.0065327119" flag="0"/>
      <vel value="0.0094567941" flag="0"/>
      <psa03 value="0.0174336093" flag="0"/>
      <psa10 value="0.0155140151" flag="0"/>
      <psa30 value="0.0036273909" flag="0"/>
    </comp>
    <comp name="--.HHZ">
      <acc value="0.0057222429" flag="0"/>
      <vel value="0.0082015840" flag="0"/>
      <psa03 value="0.0166867510" flag="0"/>
      <psa10 value="0.0127491631" flag="0"/>
      <psa30 value="0.0040330427" flag="0"/>
    </comp>
    <comp name="--.HHE">
      <acc value="0.0077889359" flag="0"/>
      <vel value="0.0089156879" flag="0"/>
      <psa03 value="0.0231776852" flag="0"/>
      <psa10 value="0.0157073306" flag="0"/>
      <psa30 value="0.0045259732" flag="0"/>
    </comp>
  </station>
  <station code="DARE" name="DARE" netid="KO" insttype="CMG-3ESP" lat="38.5712" lon="37.4832">
    <comp name="--.HHZ">
      <acc value="0.0346668980" flag="0"/>
      <vel value="0.0395958994" flag="0"/>
      <psa03 value="0.0991101069" flag="0"/>
      <psa10 value="0.1350856456" flag="0"/>
      <psa30 value="0.0061906748" flag="0"/>
    </comp>
    <comp name="--.HHN">
      <acc value="0.0650089398" flag="0"/>
      <vel value="0.0731532382" flag="0"/>
      <psa03 value="0.0858387166" flag="0"/>
      <psa10 value="0.1780665195" flag="0"/>
      <psa30 value="0.0094858659" flag="0"/>
    </comp>
    <comp name="--.HHE">
      <acc value="0.0609484538" flag="0"/>
      <vel value="0.0739012385" flag="0"/>
      <psa03 value="0.0962315905" flag="0"/>
      <psa10 value="0.1442404050" flag="0"/>
      <psa30 value="0.0150584906" flag="0"/>
    </comp>
  </station>
  <station code="GAZ" name="GAZ" netid="KO" insttype="CMG-3T" lat="37.1721" lon="37.2096">
    <comp name="--.HHE">
      <acc value="0.1487147682" flag="0"/>
      <vel value="0.1241647357" flag="0"/>
      <psa03 value="0.1589892748" flag="0"/>
      <psa10 value="0.1212285456" flag="0"/>
      <psa30 value="0.0290561920" flag="0"/>
    </comp>
    <comp name="--.HHZ">
      <acc value="0.0628671219" flag="0"/>
      <vel value="0.0590880802" flag="0"/>
      <psa03 value="0.1078589081" flag="0"/>
      <psa10 value="0.0977664218" flag="0"/>
      <psa30 value="0.0202846718" flag="0"/>
    </comp>
    <comp name="--.HHN">
      <acc value="0.0778097389" flag="0"/>
      <vel value="0.0843617226" flag="0"/>
      <psa03 value="0.1412289519" flag="0"/>
      <psa10 value="0.0956054709" flag="0"/>
      <psa30 value="0.0155779301" flag="0"/>
    </comp>
  </station>
  <station code="SARI" name="SARI" netid="KO" insttype="CMG-3T" lat="38.4072" lon="36.4181">
    <comp name="--.HHZ">
      <acc value="0.0345801158" flag="0"/>
      <vel value="0.0635825875" flag="0"/>
      <psa03 value="0.0748391087" flag="0"/>
      <psa10 value="0.0865351483" flag="0"/>
      <psa30 value="0.0086523410" flag="0"/>
    </comp>
    <comp name="--.HHN">
      <acc value="0.0414411419" flag="0"/>
      <vel value="0.0428283152" flag="0"/>
      <psa03 value="0.1258045503" flag="0"/>
      <psa10 value="0.0669554435" flag="0"/>
      <psa30 value="0.0073945792" flag="0"/>
    </comp>
    <comp name="--.HHE">
      <acc value="0.0682912401" flag="0"/>
      <vel value="0.0693260266" flag="0"/>
      <psa03 value="0.2108465490" flag="0"/>
      <psa10 value="0.1098267307" flag="0"/>
      <psa30 value="0.0093437650" flag="0"/>
    </comp>
  </station>
  <station code="URFA" name="URFA" netid="KO" insttype="CMG-3ESP" lat="37.4409" lon="38.8213">
    <comp name="--.HHE">
      <acc value="0.1032046349" flag="0"/>
      <vel value="0.0603226385" flag="0"/>
      <psa03 value="0.2584425602" flag="0"/>
      <psa10 value="0.0756495245" flag="0"/>
      <psa30 value="0.0116095840" flag="0"/>
    </comp>
    <comp name="--.HHZ">
      <acc value="0.0623427408" flag="0"/>
      <vel value="0.0325484833" flag="0"/>
      <psa03 value="0.1662945176" flag="0"/>
      <psa10 value="0.0519412377" flag="0"/>
      <psa30 value="0.0099354238" flag="0"/>
    </comp>
  </station>
</stationlist>
