<stationlist created="1678190442">
	<station code="ARPRA" name="ARPRA" netid="KO" source="Bogazici University Kandilli Observatory And Earthquake Research Institute (KOERI)" insttype="" lat="39.0929" lon="38.3356">
		<comp name=".HNE" depth="0.0">
			<acc value="0.0139379019162" flag="0"/>
			<vel value="0.0088337196936" flag="0"/>
			<psa03 value="0.0339578511035" flag="0"/>
			<psa10 value="0.0238262414966" flag="0"/>
			<psa30 value="0.00140812651064" flag="0"/>
		</comp>
		<comp name=".HNN" depth="0.0">
			<acc value="0.0152144988036" flag="0"/>
			<vel value="0.0100382174051" flag="0"/>
			<psa03 value="0.0253668887652" flag="0"/>
			<psa10 value="0.0149003108225" flag="0"/>
			<psa30 value="0.00185942526113" flag="0"/>
		</comp>
		<comp name=".HNZ" depth="0.0">
			<acc value="0.00634370325917" flag="0"/>
			<vel value="0.00747147578701" flag="0"/>
			<psa03 value="0.0137551677228" flag="0"/>
			<psa10 value="0.0112146369772" flag="0"/>
			<psa30 value="0.000631582828848" flag="0"/>
		</comp>
	</station>
</stationlist>
