<?xml version="1.0" encoding="UTF-8" standalone="yes"?>
<!DOCTYPE earthquake SYSTEM "stationlist.dtd">
<stationlist created="" xmlns="ch.ethz.sed.shakemap.usgs.xml">
  <station code="DARE" name="DARE" netid="KO" insttype="CMG-3ESP" lat="38.5712" lon="37.4832">
    <comp name="--.HHE">
      <acc value="0.1426806552" flag="0"/>
      <vel value="0.0303306538" flag="0"/>
      <psa03 value="0.1303770539" flag="0"/>
      <psa10 value="0.0266723680" flag="0"/>
      <psa30 value="0.0013467693" flag="0"/>
    </comp>
    <comp name="--.HHN">
      <acc value="0.1336711160" flag="0"/>
      <vel value="0.0232494872" flag="0"/>
      <psa03 value="0.0793192152" flag="0"/>
      <psa10 value="0.0205090275" flag="0"/>
      <psa30 value="0.0009479252" flag="0"/>
    </comp>
    <comp name="--.HHZ">
      <acc value="0.1033200224" flag="0"/>
      <vel value="0.0202129163" flag="0"/>
      <psa03 value="0.0789970994" flag="0"/>
      <psa10 value="0.0115068514" flag="0"/>
      <psa30 value="0.0009432078" flag="0"/>
    </comp>
  </station>
  <station code="GAZ" name="GAZ" netid="KO" insttype="CMG-3T" lat="37.1721" lon="37.2096">
    <comp name="--.HHZ">
      <acc value="0.0046171188" flag="0"/>
      <vel value="0.0036230417" flag="0"/>
      <psa03 value="0.0105588291" flag="0"/>
      <psa10 value="0.0054933471" flag="0"/>
      <psa30 value="0.0003247125" flag="0"/>
    </comp>
    <comp name="--.HHN">
      <acc value="0.0064479556" flag="0"/>
      <vel value="0.0023236142" flag="0"/>
      <psa03 value="0.0085613027" flag="0"/>
      <psa10 value="0.0035554762" flag="0"/>
      <psa30 value="0.0002892373" flag="0"/>
    </comp>
    <comp name="--.HHE">
      <acc value="0.0090281268" flag="0"/>
      <vel value="0.0039832825" flag="0"/>
      <psa03 value="0.0133124633" flag="0"/>
      <psa10 value="0.0064941464" flag="0"/>
      <psa30 value="0.0003650960" flag="0"/>
    </comp>
  </station>
  <station code="KMRS" name="KMRS" netid="KO" insttype="CMG-3T" lat="37.5053" lon="36.9">
    <comp name="--.HHE">
      <acc value="0.0066963551" flag="0"/>
      <vel value="0.0060449823" flag="0"/>
      <psa03 value="0.0136382922" flag="0"/>
      <psa10 value="0.0061821295" flag="0"/>
      <psa30 value="0.0007950783" flag="0"/>
    </comp>
    <comp name="--.HHN">
      <acc value="0.0103968290" flag="0"/>
      <vel value="0.0083585383" flag="0"/>
      <psa03 value="0.0304065037" flag="0"/>
      <psa10 value="0.0078299957" flag="0"/>
      <psa30 value="0.0008219476" flag="0"/>
    </comp>
    <comp name="--.HHZ">
      <acc value="0.0078710860" flag="0"/>
      <vel value="0.0031805384" flag="0"/>
      <psa03 value="0.0100103807" flag="0"/>
      <psa10 value="0.0035442197" flag="0"/>
      <psa30 value="0.0003320975" flag="0"/>
    </comp>
  </station>
  <station code="SARI" name="SARI" netid="KO" insttype="CMG-3T" lat="38.4072" lon="36.4181">
    <comp name="--.HHE">
      <acc value="0.0587511571" flag="0"/>
      <vel value="0.0128513737" flag="0"/>
      <psa03 value="0.0536623235" flag="0"/>
      <psa10 value="0.0077931381" flag="0"/>
      <psa30 value="0.0003597685" flag="0"/>
    </comp>
    <comp name="--.HHN">
      <acc value="0.0479224986" flag="0"/>
      <vel value="0.0100217052" flag="0"/>
      <psa03 value="0.0455944809" flag="0"/>
      <psa10 value="0.0139438253" flag="0"/>
      <psa30 value="0.0006137790" flag="0"/>
    </comp>
    <comp name="--.HHZ">
      <acc value="0.0424424001" flag="0"/>
      <vel value="0.0101853337" flag="0"/>
      <psa03 value="0.0444674541" flag="0"/>
      <psa10 value="0.0085919390" flag="0"/>
      <psa30 value="0.0004481322" flag="0"/>
    </comp>
  </station>
  <station code="ANDN" name="ANDN" netid="TU" insttype="T" lat="37.58" lon="36.3452">
    <comp name="--.HHE">
      <acc value="0.0220037795" flag="0"/>
      <vel value="0.0205865935" flag="0"/>
      <psa03 value="0.0666377929" flag="0"/>
      <psa10 value="0.0209235223" flag="0"/>
      <psa30 value="0.0034913120" flag="0"/>
    </comp>
    <comp name="--.HHZ">
      <acc value="0.0135403315" flag="0"/>
      <vel value="0.0103492516" flag="0"/>
      <psa03 value="0.0268811610" flag="0"/>
      <psa10 value="0.0189849983" flag="0"/>
      <psa30 value="0.0012415370" flag="0"/>
    </comp>
    <comp name="--.HHN">
      <acc value="0.0326867692" flag="0"/>
      <vel value="0.0336149749" flag="0"/>
      <psa03 value="0.0682271791" flag="0"/>
      <psa10 value="0.0339821175" flag="0"/>
      <psa30 value="0.0027176519" flag="0"/>
    </comp>
  </station>
</stationlist>
