<stationlist created="1778069516">
	<station code="KARP" name="KARP" netid="GE" source="GEOFON" insttype="" lat="35.5471" lon="27.16106">
		<comp name="--.HNE" depth="0.0">
			<acc value="0.0240852506819147" flag="0"/>
			<vel value="0.0206666584981428" flag="0"/>
			<psa03 value="0.0519904440904318" flag="0"/>
			<psa10 value="0.0303741418069461" flag="0"/>
			<psa30 value="0.00188319947656306" flag="0"/>
		</comp>
		<comp name="--.HNN" depth="0.0">
			<acc value="0.0181492664810472" flag="0"/>
			<vel value="0.0154511328928975" flag="0"/>
			<psa03 value="0.0473819968087498" flag="0"/>
			<psa10 value="0.0257916450051028" flag="0"/>
			<psa30 value="0.00178431919993668" flag="0"/>
		</comp>
		<comp name="--.HNZ" depth="0.0">
			<acc value="0.0173910852910084" flag="0"/>
			<vel value="0.0148772010373859" flag="0"/>
			<psa03 value="0.0468003481227123" flag="0"/>
			<psa10 value="0.0265527099396796" flag="0"/>
			<psa30 value="0.00276685805727392" flag="0"/>
		</comp>
	</station>
	<station code="KSS1" name="KSS1" netid="HI" source="ITSAK Strong Motion Network" insttype="" lat="35.4189" lon="26.9207">
		<comp name="--.HNE" depth="0.0">
			<acc value="0.0146633850003042" flag="0"/>
			<vel value="0.0112655651502939" flag="0"/>
			<psa03 value="0.0762217524418485" flag="0"/>
			<psa10 value="0.01151147382864" flag="0"/>
			<psa30 value="0.0018019504120366" flag="0"/>
		</comp>
		<comp name="--.HNN" depth="0.0">
			<acc value="0.0237006621075956" flag="0"/>
			<vel value="0.0205598035976473" flag="0"/>
			<psa03 value="0.0936320464134132" flag="0"/>
			<psa10 value="0.0171947278163254" flag="0"/>
			<psa30 value="0.00213994551088669" flag="0"/>
		</comp>
		<comp name="--.HNZ" depth="0.0">
			<acc value="0.00675098962445255" flag="0"/>
			<vel value="0.00836895431025899" flag="0"/>
			<psa03 value="0.0164463316762725" flag="0"/>
			<psa10 value="0.0143038244331604" flag="0"/>
			<psa30 value="0.00110073437658273" flag="0"/>
		</comp>
	</station>
	<station code="SIT2" name="SIT2" netid="HI" source="ITSAK Strong Motion Network" insttype="" lat="35.2059" lon="26.107">
		<comp name="--.HNE" depth="0.0">
			<acc value="0.0199205152493652" flag="0"/>
			<vel value="0.0175789827645169" flag="0"/>
			<psa03 value="0.0347199523357789" flag="0"/>
			<psa10 value="0.0196588307439362" flag="0"/>
			<psa30 value="0.00149707423344737" flag="0"/>
		</comp>
		<comp name="--.HNN" depth="0.0">
			<acc value="0.0150158453277434" flag="0"/>
			<vel value="0.0134062192604362" flag="0"/>
			<psa03 value="0.0416997365682293" flag="0"/>
			<psa10 value="0.0231540919249556" flag="0"/>
			<psa30 value="0.00146083304608657" flag="0"/>
		</comp>
		<comp name="--.HNZ" depth="0.0">
			<acc value="0.00928115281528944" flag="0"/>
			<vel value="0.00396228032546612" flag="0"/>
			<psa03 value="0.0160177099693413" flag="0"/>
			<psa10 value="0.00460665759341726" flag="0"/>
			<psa30 value="0.00091050390468183" flag="0"/>
		</comp>
	</station>
	<station code="KARP" name="KARP" netid="HL" source="National Observatory of Athens Seismic Network" insttype="" lat="35.5471" lon="27.16106">
		<comp name="--.HNE" depth="0.0">
			<acc value="0.0237004208351179" flag="0"/>
			<vel value="0.0195457673109269" flag="0"/>
			<psa03 value="0.0509166311315933" flag="0"/>
			<psa10 value="0.0296936128442822" flag="0"/>
			<psa30 value="0.00181116452390764" flag="0"/>
		</comp>
		<comp name="--.HNN" depth="0.0">
			<acc value="0.0178381960048997" flag="0"/>
			<vel value="0.0152513754537055" flag="0"/>
			<psa03 value="0.0463976682631478" flag="0"/>
			<psa10 value="0.025268161187669" flag="0"/>
			<psa30 value="0.00168499150124411" flag="0"/>
		</comp>
		<comp name="--.HNZ" depth="0.0">
			<acc value="0.0170534008484608" flag="0"/>
			<vel value="0.0137042760932939" flag="0"/>
			<psa03 value="0.0458607617837286" flag="0"/>
			<psa10 value="0.0259567437475242" flag="0"/>
			<psa30 value="0.00256372843922697" flag="0"/>
		</comp>
	</station>
</stationlist>
