<?xml version="1.0" encoding="UTF-8" standalone="yes"?>
<!DOCTYPE earthquake SYSTEM "stationlist.dtd">
<stationlist created="" xmlns="ch.ethz.sed.shakemap.usgs.xml">
  <station code="KARP" name="KARP" netid="GE" insttype="STS-2/N" lat="35.5471" lon="27.1611">
    <comp name="--.HHE">
      <acc value="0.0248515474" flag="0"/>
      <vel value="0.0202192224" flag="0"/>
      <psa03 value="0.0573561147" flag="0"/>
      <psa10 value="0.0359318426" flag="0"/>
      <psa30 value="0.0019013136" flag="0"/>
    </comp>
    <comp name="--.HHN">
      <acc value="0.0251021493" flag="0"/>
      <vel value="0.0212699548" flag="0"/>
      <psa03 value="0.0572099015" flag="0"/>
      <psa10 value="0.0305735437" flag="0"/>
      <psa30 value="0.0019093979" flag="0"/>
    </comp>
    <comp name="--.HHZ">
      <acc value="0.0213044296" flag="0"/>
      <vel value="0.0171617497" flag="0"/>
      <psa03 value="0.0575052727" flag="0"/>
      <psa10 value="0.0319881630" flag="0"/>
      <psa30 value="0.0030459613" flag="0"/>
    </comp>
  </station>
  <station code="ARG" name="ARG" netid="HL" insttype="LE3D20_DR24" lat="36.2136" lon="28.1212">
    <comp name="--.HHN">
      <acc value="0.0073153967" flag="0"/>
      <vel value="0.0111503058" flag="0"/>
      <psa03 value="0.0111082498" flag="0"/>
      <psa10 value="0.0248263980" flag="0"/>
      <psa30 value="0.0021644349" flag="0"/>
    </comp>
    <comp name="--.HHE">
      <acc value="0.0076116282" flag="0"/>
      <vel value="0.0068757271" flag="0"/>
      <psa03 value="0.0179028587" flag="0"/>
      <psa10 value="0.0114285910" flag="0"/>
      <psa30 value="0.0014297894" flag="0"/>
    </comp>
    <comp name="--.HHZ">
      <acc value="0.0054644358" flag="0"/>
      <vel value="0.0045179357" flag="0"/>
      <psa03 value="0.0094935912" flag="0"/>
      <psa10 value="0.0087996675" flag="0"/>
      <psa30 value="0.0015958187" flag="0"/>
    </comp>
  </station>
  <station code="KARP" name="KARP" netid="HL" insttype="120" lat="35.5471" lon="27.1611">
    <comp name="--.HHE">
      <acc value="0.0243659719" flag="0"/>
      <vel value="0.0200076524" flag="0"/>
      <psa03 value="0.0560026202" flag="0"/>
      <psa10 value="0.0356920243" flag="0"/>
      <psa30 value="0.0018920112" flag="0"/>
    </comp>
    <comp name="--.HHN">
      <acc value="0.0245158849" flag="0"/>
      <vel value="0.0209359996" flag="0"/>
      <psa03 value="0.0558696892" flag="0"/>
      <psa10 value="0.0304015283" flag="0"/>
      <psa30 value="0.0019042536" flag="0"/>
    </comp>
    <comp name="--.HHZ">
      <acc value="0.0209804703" flag="0"/>
      <vel value="0.0169573975" flag="0"/>
      <psa03 value="0.0563720953" flag="0"/>
      <psa10 value="0.0317480248" flag="0"/>
      <psa30 value="0.0030344439" flag="0"/>
    </comp>
  </station>
</stationlist>
