<?xml version="1.0" encoding="UTF-8" standalone="yes"?>
<!DOCTYPE earthquake SYSTEM "stationlist.dtd">
<stationlist created="" xmlns="ch.ethz.sed.shakemap.usgs.xml">
  <station code="BNN" name="BNN" netid="KO" insttype="CMG-3T" lat="38.8521" lon="35.8472">
    <comp name="--.HHE">
      <acc value="0.0129966546" flag="0"/>
      <vel value="0.0053408403" flag="0"/>
      <psa03 value="0.0319491920" flag="0"/>
      <psa10 value="0.0058626178" flag="0"/>
      <psa30 value="0.0005096188" flag="0"/>
    </comp>
    <comp name="--.HHN">
      <acc value="0.0129665603" flag="0"/>
      <vel value="0.0056948023" flag="0"/>
      <psa03 value="0.0274581459" flag="0"/>
      <psa10 value="0.0047690198" flag="0"/>
      <psa30 value="0.0004568348" flag="0"/>
    </comp>
    <comp name="--.HHZ">
      <acc value="0.0090743378" flag="0"/>
      <vel value="0.0038171092" flag="0"/>
      <psa03 value="0.0156817241" flag="0"/>
      <psa10 value="0.0054156186" flag="0"/>
      <psa30 value="0.0004195720" flag="0"/>
    </comp>
  </station>
  <station code="CEYT" name="CEYT" netid="KO" insttype="CMG-3ESP" lat="37.0105" lon="35.7478">
    <comp name="--.HHZ">
      <acc value="0.0040655684" flag="0"/>
      <vel value="0.0030820704" flag="0"/>
      <psa03 value="0.0090197251" flag="0"/>
      <psa10 value="0.0054567668" flag="0"/>
      <psa30 value="0.0006173584" flag="0"/>
    </comp>
    <comp name="--.HHN">
      <acc value="0.0053584321" flag="0"/>
      <vel value="0.0030720676" flag="0"/>
      <psa03 value="0.0149712658" flag="0"/>
      <psa10 value="0.0053330963" flag="0"/>
      <psa30 value="0.0005343449" flag="0"/>
    </comp>
    <comp name="--.HHE">
      <acc value="0.0051784901" flag="0"/>
      <vel value="0.0047076797" flag="0"/>
      <psa03 value="0.0146994296" flag="0"/>
      <psa10 value="0.0050229447" flag="0"/>
      <psa30 value="0.0006929515" flag="0"/>
    </comp>
  </station>
  <station code="DARE" name="DARE" netid="KO" insttype="CMG-3ESP" lat="38.5712" lon="37.4832">
    <comp name="--.HHE">
      <acc value="0.0058726901" flag="0"/>
      <vel value="0.0031238347" flag="0"/>
      <psa03 value="0.0179342852" flag="0"/>
      <psa10 value="0.0042482997" flag="0"/>
      <psa30 value="0.0002058596" flag="0"/>
    </comp>
    <comp name="--.HHN">
      <acc value="0.0065266661" flag="0"/>
      <vel value="0.0029977823" flag="0"/>
      <psa03 value="0.0190141688" flag="0"/>
      <psa10 value="0.0038669806" flag="0"/>
      <psa30 value="0.0002476360" flag="0"/>
    </comp>
    <comp name="--.HHZ">
      <acc value="0.0053324152" flag="0"/>
      <vel value="0.0031834079" flag="0"/>
      <psa03 value="0.0105908624" flag="0"/>
      <psa10 value="0.0047985083" flag="0"/>
      <psa30 value="0.0002625811" flag="0"/>
    </comp>
  </station>
  <station code="GAZ" name="GAZ" netid="KO" insttype="CMG-3T" lat="37.1721" lon="37.2096">
    <comp name="--.HHN">
      <acc value="0.0283966852" flag="0"/>
      <vel value="0.0136868917" flag="0"/>
      <psa03 value="0.0537198320" flag="0"/>
      <psa10 value="0.0146514601" flag="0"/>
      <psa30 value="0.0010713289" flag="0"/>
    </comp>
    <comp name="--.HHE">
      <acc value="0.0238711997" flag="0"/>
      <vel value="0.0115520788" flag="0"/>
      <psa03 value="0.0359515242" flag="0"/>
      <psa10 value="0.0125438170" flag="0"/>
      <psa30 value="0.0008118314" flag="0"/>
    </comp>
    <comp name="--.HHZ">
      <acc value="0.0126682596" flag="0"/>
      <vel value="0.0083651936" flag="0"/>
      <psa03 value="0.0430839107" flag="0"/>
      <psa10 value="0.0070005441" flag="0"/>
      <psa30 value="0.0005224034" flag="0"/>
    </comp>
  </station>
  <station code="KMRS" name="KMRS" netid="KO" insttype="CMG-3T" lat="37.5087" lon="36.9">
    <comp name="--.HHN">
      <acc value="0.0257029786" flag="0"/>
      <vel value="0.0144250404" flag="0"/>
      <psa03 value="0.0834114681" flag="0"/>
      <psa10 value="0.0066560943" flag="0"/>
      <psa30 value="0.0009453620" flag="0"/>
    </comp>
    <comp name="--.HHZ">
      <acc value="0.0442410609" flag="0"/>
      <vel value="0.0197761266" flag="0"/>
      <psa03 value="0.0865897583" flag="0"/>
      <psa10 value="0.0066986800" flag="0"/>
      <psa30 value="0.0005211471" flag="0"/>
    </comp>
  </station>
  <station code="SARI" name="SARI" netid="KO" insttype="CMG-3T" lat="38.4072" lon="36.4181">
    <comp name="--.HHZ">
      <acc value="0.0928676088" flag="0"/>
      <vel value="0.0265138072" flag="0"/>
      <psa03 value="0.1329701637" flag="0"/>
      <psa10 value="0.0177510725" flag="0"/>
      <psa30 value="0.0014759289" flag="0"/>
    </comp>
    <comp name="--.HHE">
      <acc value="0.1474868941" flag="0"/>
      <vel value="0.0452610696" flag="0"/>
      <psa03 value="0.2039451023" flag="0"/>
      <psa10 value="0.0248679248" flag="0"/>
      <psa30 value="0.0012617496" flag="0"/>
    </comp>
    <comp name="--.HHN">
      <acc value="0.1511877449" flag="0"/>
      <vel value="0.0416465648" flag="0"/>
      <psa03 value="0.2541989632" flag="0"/>
      <psa10 value="0.0161969480" flag="0"/>
      <psa30 value="0.0014428179" flag="0"/>
    </comp>
  </station>
  <station code="ANDN" name="ANDN" netid="TU" insttype="T" lat="37.58" lon="36.3452">
    <comp name="--.HHZ">
      <acc value="0.1258016803" flag="0"/>
      <vel value="0.0521364159" flag="0"/>
      <psa03 value="0.2381006243" flag="0"/>
      <psa10 value="0.0768472924" flag="0"/>
      <psa30 value="0.0043034655" flag="0"/>
    </comp>
    <comp name="--.HHN">
      <acc value="0.2919906688" flag="0"/>
      <vel value="0.1315592490" flag="0"/>
      <psa03 value="0.6514316704" flag="0"/>
      <psa10 value="0.0908394803" flag="0"/>
      <psa30 value="0.0052470292" flag="0"/>
    </comp>
    <comp name="--.HHE">
      <acc value="0.2795246174" flag="0"/>
      <vel value="0.1168499501" flag="0"/>
      <psa03 value="0.4604295889" flag="0"/>
      <psa10 value="0.0701080029" flag="0"/>
      <psa30 value="0.0071834109" flag="0"/>
    </comp>
  </station>
</stationlist>
