<stationlist created="1778723781">
	<station code="3502" name="3502" netid="TK" source="Turkish National Strong Motion Network (TNSMN)" insttype="" lat="38.45514" lon="27.22673">
		<comp name="00.HNE" depth="None">
			<acc value="0.13405598155616" flag="0"/>
			<vel value="0.0643604519371667" flag="0"/>
			<psa03 value="0.462276478779984" flag="0"/>
			<psa10 value="0.0734045116000028" flag="0"/>
			<psa30 value="0.00320846363659627" flag="0"/>
		</comp>
		<comp name="00.HNN" depth="None">
			<acc value="0.176378778700829" flag="0"/>
			<vel value="0.0862562736739465" flag="0"/>
			<psa03 value="0.441874032562052" flag="0"/>
			<psa10 value="0.045688056866182" flag="0"/>
			<psa30 value="0.0039091265922384" flag="0"/>
		</comp>
		<comp name="00.HNZ" depth="None">
			<acc value="0.0929498314972108" flag="0"/>
			<vel value="0.0284693301663896" flag="0"/>
			<psa03 value="0.171989042240637" flag="0"/>
			<psa10 value="0.0237097901311546" flag="0"/>
			<psa30 value="0.0016854389233103" flag="0"/>
		</comp>
	</station>
</stationlist>
