<?xml version="1.0" encoding="UTF-8" standalone="yes"?>
<!DOCTYPE earthquake SYSTEM "stationlist.dtd">
<stationlist created="" xmlns="ch.ethz.sed.shakemap.usgs.xml">
  <station code="BNN" name="BNN" netid="KO" insttype="CMG-3T" lat="38.8521" lon="35.8472">
    <comp name="--.HHE">
      <acc value="0.0131916187" flag="0"/>
      <vel value="0.0078546669" flag="0"/>
      <psa03 value="0.0240300520" flag="0"/>
      <psa10 value="0.0107912658" flag="0"/>
      <psa30 value="0.0007416509" flag="0"/>
    </comp>
    <comp name="--.HHN">
      <acc value="0.0075861630" flag="0"/>
      <vel value="0.0054260436" flag="0"/>
      <psa03 value="0.0250165937" flag="0"/>
      <psa10 value="0.0117970913" flag="0"/>
      <psa30 value="0.0008801555" flag="0"/>
    </comp>
    <comp name="--.HHZ">
      <acc value="0.0050549714" flag="0"/>
      <vel value="0.0038873146" flag="0"/>
      <psa03 value="0.0170353301" flag="0"/>
      <psa10 value="0.0043622805" flag="0"/>
      <psa30 value="0.0004197327" flag="0"/>
    </comp>
  </station>
  <station code="DARE" name="DARE" netid="KO" insttype="CMG-3ESP" lat="38.5712" lon="37.4832">
    <comp name="--.HHE">
      <acc value="0.0228491399" flag="0"/>
      <vel value="0.0084036627" flag="0"/>
      <psa03 value="0.0531612795" flag="0"/>
      <psa10 value="0.0066107219" flag="0"/>
      <psa30 value="0.0004470606" flag="0"/>
    </comp>
    <comp name="--.HHN">
      <acc value="0.0176390497" flag="0"/>
      <vel value="0.0077431054" flag="0"/>
      <psa03 value="0.0450928476" flag="0"/>
      <psa10 value="0.0084422086" flag="0"/>
      <psa30 value="0.0004618926" flag="0"/>
    </comp>
    <comp name="--.HHZ">
      <acc value="0.0155069146" flag="0"/>
      <vel value="0.0095225342" flag="0"/>
      <psa03 value="0.0376260992" flag="0"/>
      <psa10 value="0.0055971239" flag="0"/>
      <psa30 value="0.0003932692" flag="0"/>
    </comp>
  </station>
  <station code="KMRS" name="KMRS" netid="KO" insttype="CMG-3T" lat="37.5053" lon="36.9">
    <comp name="--.HHN">
      <acc value="0.0765750850" flag="0"/>
      <vel value="0.0370722071" flag="0"/>
      <psa03 value="0.1737593825" flag="0"/>
      <psa10 value="0.0169611180" flag="0"/>
      <psa30 value="0.0015577955" flag="0"/>
    </comp>
    <comp name="--.HHE">
      <acc value="0.0451797123" flag="0"/>
      <vel value="0.0305290654" flag="0"/>
      <psa03 value="0.0914740143" flag="0"/>
      <psa10 value="0.0281185697" flag="0"/>
      <psa30 value="0.0019341034" flag="0"/>
    </comp>
    <comp name="--.HHZ">
      <acc value="0.0483340006" flag="0"/>
      <vel value="0.0256317511" flag="0"/>
      <psa03 value="0.1177816831" flag="0"/>
      <psa10 value="0.0102571589" flag="0"/>
      <psa30 value="0.0008694024" flag="0"/>
    </comp>
  </station>
  <station code="ANDN" name="ANDN" netid="TU" insttype="T" lat="37.58" lon="36.3452">
    <comp name="--.HHZ">
      <acc value="0.0474550979" flag="0"/>
      <vel value="0.0366728150" flag="0"/>
      <psa03 value="0.0689162327" flag="0"/>
      <psa10 value="0.0436128185" flag="0"/>
      <psa30 value="0.0032704024" flag="0"/>
    </comp>
    <comp name="--.HHE">
      <acc value="0.0718032497" flag="0"/>
      <vel value="0.0303234157" flag="0"/>
      <psa03 value="0.1144963160" flag="0"/>
      <psa10 value="0.0434522484" flag="0"/>
      <psa30 value="0.0019837891" flag="0"/>
    </comp>
    <comp name="--.HHN">
      <acc value="0.0997571706" flag="0"/>
      <vel value="0.0312847392" flag="0"/>
      <psa03 value="0.1324091795" flag="0"/>
      <psa10 value="0.0402508333" flag="0"/>
      <psa30 value="0.0020868410" flag="0"/>
    </comp>
  </station>
</stationlist>
