<?xml version="1.0" encoding="UTF-8" standalone="yes"?>
<!DOCTYPE earthquake SYSTEM "stationlist.dtd">
<stationlist created="" xmlns="ch.ethz.sed.shakemap.usgs.xml">
  <station code="BNN" name="BNN" netid="KO" insttype="CMG-3T" lat="38.8521" lon="35.8472">
    <comp name="--.HHE">
      <acc value="0.0131916184" flag="0"/>
      <vel value="0.0078546667" flag="0"/>
      <psa03 value="0.0240300520" flag="0"/>
      <psa10 value="0.0107912658" flag="0"/>
      <psa30 value="0.0007416551" flag="0"/>
    </comp>
    <comp name="--.HHZ">
      <acc value="0.0050549711" flag="0"/>
      <vel value="0.0038873143" flag="0"/>
      <psa03 value="0.0170353301" flag="0"/>
      <psa10 value="0.0043622805" flag="0"/>
      <psa30 value="0.0004197257" flag="0"/>
    </comp>
    <comp name="--.HHN">
      <acc value="0.0075861631" flag="0"/>
      <vel value="0.0054260431" flag="0"/>
      <psa03 value="0.0250165937" flag="0"/>
      <psa10 value="0.0117970912" flag="0"/>
      <psa30 value="0.0008801571" flag="0"/>
    </comp>
  </station>
  <station code="CEYT" name="CEYT" netid="KO" insttype="CMG-3ESP" lat="37.0105" lon="35.7478">
    <comp name="--.HHE">
      <acc value="0.0068239977" flag="0"/>
      <vel value="0.0040117313" flag="0"/>
      <psa03 value="0.0149664183" flag="0"/>
      <psa10 value="0.0084595096" flag="0"/>
      <psa30 value="0.0008214745" flag="0"/>
    </comp>
    <comp name="--.HHN">
      <acc value="0.0047227794" flag="0"/>
      <vel value="0.0031372038" flag="0"/>
      <psa03 value="0.0105514456" flag="0"/>
      <psa10 value="0.0051862505" flag="0"/>
      <psa30 value="0.0004873680" flag="0"/>
    </comp>
  </station>
  <station code="DARE" name="DARE" netid="KO" insttype="CMG-3ESP" lat="38.5712" lon="37.4832">
    <comp name="--.HHN">
      <acc value="0.0176390500" flag="0"/>
      <vel value="0.0077431036" flag="0"/>
      <psa03 value="0.0450928476" flag="0"/>
      <psa10 value="0.0084422086" flag="0"/>
      <psa30 value="0.0004618819" flag="0"/>
    </comp>
    <comp name="--.HHZ">
      <acc value="0.0155069148" flag="0"/>
      <vel value="0.0095225343" flag="0"/>
      <psa03 value="0.0376260992" flag="0"/>
      <psa10 value="0.0055971238" flag="0"/>
      <psa30 value="0.0003932692" flag="0"/>
    </comp>
    <comp name="--.HHE">
      <acc value="0.0228491398" flag="0"/>
      <vel value="0.0084036625" flag="0"/>
      <psa03 value="0.0531612795" flag="0"/>
      <psa10 value="0.0066107220" flag="0"/>
      <psa30 value="0.0004470151" flag="0"/>
    </comp>
  </station>
  <station code="KMRS" name="KMRS" netid="KO" insttype="CMG-3T" lat="37.5053" lon="36.9">
    <comp name="--.HHE">
      <acc value="0.0451797124" flag="0"/>
      <vel value="0.0305290646" flag="0"/>
      <psa03 value="0.0914740143" flag="0"/>
      <psa10 value="0.0281185691" flag="0"/>
      <psa30 value="0.0019340905" flag="0"/>
    </comp>
    <comp name="--.HHZ">
      <acc value="0.0483340004" flag="0"/>
      <vel value="0.0256317508" flag="0"/>
      <psa03 value="0.1177816831" flag="0"/>
      <psa10 value="0.0102571598" flag="0"/>
      <psa30 value="0.0008694519" flag="0"/>
    </comp>
    <comp name="--.HHN">
      <acc value="0.0765750847" flag="0"/>
      <vel value="0.0370722069" flag="0"/>
      <psa03 value="0.1737593825" flag="0"/>
      <psa10 value="0.0169611178" flag="0"/>
      <psa30 value="0.0015578763" flag="0"/>
    </comp>
  </station>
  <station code="ANDN" name="ANDN" netid="TU" insttype="T" lat="37.58" lon="36.3452">
    <comp name="--.HHN">
      <acc value="0.0997571702" flag="0"/>
      <vel value="0.0312847400" flag="0"/>
      <psa03 value="0.1324091795" flag="0"/>
      <psa10 value="0.0402508335" flag="0"/>
      <psa30 value="0.0020868359" flag="0"/>
    </comp>
    <comp name="--.HHZ">
      <acc value="0.0474550981" flag="0"/>
      <vel value="0.0366728137" flag="0"/>
      <psa03 value="0.0689162327" flag="0"/>
      <psa10 value="0.0436128186" flag="0"/>
      <psa30 value="0.0032703733" flag="0"/>
    </comp>
    <comp name="--.HHE">
      <acc value="0.0718032494" flag="0"/>
      <vel value="0.0303234134" flag="0"/>
      <psa03 value="0.1144963160" flag="0"/>
      <psa10 value="0.0434522485" flag="0"/>
      <psa30 value="0.0019838538" flag="0"/>
    </comp>
  </station>
</stationlist>
