<?xml version="1.0" encoding="UTF-8" standalone="yes"?>
<!DOCTYPE earthquake SYSTEM "stationlist.dtd">
<stationlist created="" xmlns="ch.ethz.sed.shakemap.usgs.xml">
  <station code="BNN" name="BNN" netid="KO" insttype="CMG-3T" lat="38.8521" lon="35.8472">
    <comp name="--.HHZ">
      <acc value="0.0050549710" flag="0"/>
      <vel value="0.0038873147" flag="0"/>
      <psa03 value="0.0170353301" flag="0"/>
      <psa10 value="0.0043622804" flag="0"/>
      <psa30 value="0.0004197319" flag="0"/>
    </comp>
    <comp name="--.HHN">
      <acc value="0.0075861630" flag="0"/>
      <vel value="0.0054260434" flag="0"/>
      <psa03 value="0.0250165937" flag="0"/>
      <psa10 value="0.0117970913" flag="0"/>
      <psa30 value="0.0008801271" flag="0"/>
    </comp>
    <comp name="--.HHE">
      <acc value="0.0131916182" flag="0"/>
      <vel value="0.0078546662" flag="0"/>
      <psa03 value="0.0240300520" flag="0"/>
      <psa10 value="0.0107912658" flag="0"/>
      <psa30 value="0.0007416398" flag="0"/>
    </comp>
  </station>
  <station code="CEYT" name="CEYT" netid="KO" insttype="CMG-3ESP" lat="37.0105" lon="35.7478">
    <comp name="--.HHN">
      <acc value="0.0047227793" flag="0"/>
      <vel value="0.0031372052" flag="0"/>
      <psa03 value="0.0105514456" flag="0"/>
      <psa10 value="0.0051862505" flag="0"/>
      <psa30 value="0.0004873689" flag="0"/>
    </comp>
    <comp name="--.HHE">
      <acc value="0.0068239977" flag="0"/>
      <vel value="0.0040117321" flag="0"/>
      <psa03 value="0.0149664183" flag="0"/>
      <psa10 value="0.0084595096" flag="0"/>
      <psa30 value="0.0008214757" flag="0"/>
    </comp>
  </station>
  <station code="CMRD" name="CMRD" netid="KO" insttype="CMG-5T" lat="37.6623" lon="34.9902">
    <comp name="--.HNE">
      <acc value="0.0040578536" flag="0"/>
      <vel value="0.0037716780" flag="0"/>
      <psa03 value="0.0107764346" flag="0"/>
      <psa10 value="0.0057805423" flag="0"/>
      <psa30 value="0.0003951360" flag="0"/>
    </comp>
    <comp name="--.HNZ">
      <acc value="0.0041035362" flag="0"/>
      <vel value="0.0044667100" flag="0"/>
      <psa03 value="0.0065613745" flag="0"/>
      <psa10 value="0.0055789299" flag="0"/>
      <psa30 value="0.0006054580" flag="0"/>
    </comp>
    <comp name="--.HNN">
      <acc value="0.0045125151" flag="0"/>
      <vel value="0.0041835903" flag="0"/>
      <psa03 value="0.0149069445" flag="0"/>
      <psa10 value="0.0057966244" flag="0"/>
      <psa30 value="0.0008134949" flag="0"/>
    </comp>
  </station>
  <station code="DARE" name="DARE" netid="KO" insttype="CMG-3ESP" lat="38.5712" lon="37.4832">
    <comp name="--.HHE">
      <acc value="0.0228491400" flag="0"/>
      <vel value="0.0084036625" flag="0"/>
      <psa03 value="0.0531612795" flag="0"/>
      <psa10 value="0.0066107218" flag="0"/>
      <psa30 value="0.0004470881" flag="0"/>
    </comp>
    <comp name="--.HHN">
      <acc value="0.0176390499" flag="0"/>
      <vel value="0.0077431046" flag="0"/>
      <psa03 value="0.0450928476" flag="0"/>
      <psa10 value="0.0084422085" flag="0"/>
      <psa30 value="0.0004618853" flag="0"/>
    </comp>
    <comp name="--.HHZ">
      <acc value="0.0155069150" flag="0"/>
      <vel value="0.0095225342" flag="0"/>
      <psa03 value="0.0376260992" flag="0"/>
      <psa10 value="0.0055971237" flag="0"/>
      <psa30 value="0.0003932810" flag="0"/>
    </comp>
  </station>
  <station code="KMRS" name="KMRS" netid="KO" insttype="CMG-3T" lat="37.5053" lon="36.9">
    <comp name="--.HHZ">
      <acc value="0.0483340004" flag="0"/>
      <vel value="0.0256317512" flag="0"/>
      <psa03 value="0.1177816831" flag="0"/>
      <psa10 value="0.0102571614" flag="0"/>
      <psa30 value="0.0008694849" flag="0"/>
    </comp>
    <comp name="--.HHN">
      <acc value="0.0765750847" flag="0"/>
      <vel value="0.0370722073" flag="0"/>
      <psa03 value="0.1737593825" flag="0"/>
      <psa10 value="0.0169611171" flag="0"/>
      <psa30 value="0.0015579531" flag="0"/>
    </comp>
    <comp name="--.HHE">
      <acc value="0.0451797124" flag="0"/>
      <vel value="0.0305290649" flag="0"/>
      <psa03 value="0.0914740143" flag="0"/>
      <psa10 value="0.0281185693" flag="0"/>
      <psa30 value="0.0019341249" flag="0"/>
    </comp>
  </station>
  <station code="ANDN" name="ANDN" netid="TU" insttype="T" lat="37.58" lon="36.3452">
    <comp name="--.HHE">
      <acc value="0.0718032495" flag="0"/>
      <vel value="0.0303234144" flag="0"/>
      <psa03 value="0.1144963160" flag="0"/>
      <psa10 value="0.0434522482" flag="0"/>
      <psa30 value="0.0019839035" flag="0"/>
    </comp>
    <comp name="--.HHN">
      <acc value="0.0997571703" flag="0"/>
      <vel value="0.0312847397" flag="0"/>
      <psa03 value="0.1324091795" flag="0"/>
      <psa10 value="0.0402508332" flag="0"/>
      <psa30 value="0.0020868586" flag="0"/>
    </comp>
    <comp name="--.HHZ">
      <acc value="0.0474550981" flag="0"/>
      <vel value="0.0366728133" flag="0"/>
      <psa03 value="0.0689162327" flag="0"/>
      <psa10 value="0.0436128184" flag="0"/>
      <psa30 value="0.0032703454" flag="0"/>
    </comp>
  </station>
</stationlist>
