<stationlist created="1778069658">
	<station code="IMMV" name="IMMV" netid="GE" source="GEOFON" insttype="" lat="35.4606" lon="23.9811">
		<comp name="--.HNE" depth="0.0">
			<acc value="0.0114290225242802" flag="0"/>
			<vel value="0.00686870176776156" flag="0"/>
			<psa03 value="0.0304694427070431" flag="0"/>
			<psa10 value="0.00752608657525949" flag="0"/>
			<psa30 value="0.000347646945423971" flag="0"/>
		</comp>
		<comp name="--.HNN" depth="0.0">
			<acc value="0.011505304393802" flag="0"/>
			<vel value="0.00702035693978032" flag="0"/>
			<psa03 value="0.0432657137998688" flag="0"/>
			<psa10 value="0.0033060016470241" flag="0"/>
			<psa30 value="0.000233554318547379" flag="0"/>
		</comp>
		<comp name="--.HNZ" depth="0.0">
			<acc value="0.00877044662899985" flag="0"/>
			<vel value="0.00480853609134228" flag="0"/>
			<psa03 value="0.0209840949039695" flag="0"/>
			<psa10 value="0.00241607915738667" flag="0"/>
			<psa30 value="0.000154360612833038" flag="0"/>
		</comp>
	</station>
	<station code="IMMV" name="IMMV" netid="HL" source="National Observatory of Athens Seismic Network" insttype="" lat="35.4606" lon="23.9811">
		<comp name="--.HNE" depth="0.0">
			<acc value="0.0111967469558885" flag="0"/>
			<vel value="0.00675832317792693" flag="0"/>
			<psa03 value="0.0298430518143873" flag="0"/>
			<psa10 value="0.007373068228625" flag="0"/>
			<psa30 value="0.000340935614431231" flag="0"/>
		</comp>
		<comp name="--.HNN" depth="0.0">
			<acc value="0.011304710503959" flag="0"/>
			<vel value="0.00680981478613393" flag="0"/>
			<psa03 value="0.0423708696675034" flag="0"/>
			<psa10 value="0.00323754607089814" flag="0"/>
			<psa30 value="0.000228632675819369" flag="0"/>
		</comp>
		<comp name="--.HNZ" depth="0.0">
			<acc value="0.00856732890866405" flag="0"/>
			<vel value="0.00470341172511391" flag="0"/>
			<psa03 value="0.020581415044405" flag="0"/>
			<psa10 value="0.0023637307756433" flag="0"/>
			<psa30 value="0.000151228658369759" flag="0"/>
		</comp>
	</station>
</stationlist>
