<?xml version="1.0" encoding="UTF-8" standalone="yes"?>
<!DOCTYPE earthquake SYSTEM "stationlist.dtd">
<stationlist created="" xmlns="ch.ethz.sed.shakemap.usgs.xml">
  <station code="GVD" name="GVD" netid="GE" insttype="STS-2/N" lat="34.8391" lon="24.0874">
    <comp name="--.HHN">
      <acc value="0.0121029033" flag="0"/>
      <vel value="0.0108420472" flag="0"/>
      <psa03 value="0.0419587811" flag="0"/>
      <psa10 value="0.0118170847" flag="0"/>
      <psa30 value="0.0058748954" flag="0"/>
    </comp>
    <comp name="--.HHE">
      <acc value="0.0094852147" flag="0"/>
      <vel value="0.0050138663" flag="0"/>
      <psa03 value="0.0138010486" flag="0"/>
      <psa10 value="0.0041110666" flag="0"/>
      <psa30 value="0.0010648758" flag="0"/>
    </comp>
    <comp name="--.HHZ">
      <acc value="0.0077179151" flag="0"/>
      <vel value="0.0068526311" flag="0"/>
      <psa03 value="0.0155792699" flag="0"/>
      <psa10 value="0.0074697475" flag="0"/>
      <psa30 value="0.0029337395" flag="0"/>
    </comp>
  </station>
  <station code="KARP" name="KARP" netid="GE" insttype="STS-2/N" lat="35.5471" lon="27.1611">
    <comp name="--.HHE">
      <acc value="0.0218889990" flag="0"/>
      <vel value="0.0186427800" flag="0"/>
      <psa03 value="0.0119083283" flag="0"/>
      <psa10 value="0.0115594203" flag="0"/>
      <psa30 value="0.0056420296" flag="0"/>
    </comp>
    <comp name="--.HHN">
      <acc value="0.0278036753" flag="0"/>
      <vel value="0.0123198585" flag="0"/>
      <psa03 value="0.0090921849" flag="0"/>
      <psa10 value="0.0123289622" flag="0"/>
      <psa30 value="0.0063489929" flag="0"/>
    </comp>
    <comp name="--.HHZ">
      <acc value="0.0062112123" flag="0"/>
      <vel value="0.0111402647" flag="0"/>
      <psa03 value="0.0098518872" flag="0"/>
      <psa10 value="0.0082764108" flag="0"/>
      <psa30 value="0.0040517866" flag="0"/>
    </comp>
  </station>
  <station code="STIA" name="STIA" netid="HC" insttype="120" lat="35.2021" lon="26.0909">
    <comp name="--.HHE">
      <acc value="0.0257850774" flag="0"/>
      <vel value="0.0395364796" flag="0"/>
      <psa03 value="0.0677935958" flag="0"/>
      <psa10 value="0.0395655652" flag="0"/>
      <psa30 value="0.0278758282" flag="0"/>
    </comp>
    <comp name="--.HHN">
      <acc value="0.0242724140" flag="0"/>
      <vel value="0.0237669992" flag="0"/>
      <psa03 value="0.0721371582" flag="0"/>
      <psa10 value="0.0354739910" flag="0"/>
      <psa30 value="0.0150471837" flag="0"/>
    </comp>
    <comp name="--.HHZ">
      <acc value="0.0242537117" flag="0"/>
      <vel value="0.0195880817" flag="0"/>
      <psa03 value="0.0892707086" flag="0"/>
      <psa10 value="0.0179549262" flag="0"/>
      <psa30 value="0.0152486269" flag="0"/>
    </comp>
  </station>
  <station code="SIT2" name="SIT2" netid="HI" insttype="CMG-5TD,ACCELEROMETER,GURALP" lat="35.2059" lon="26.107">
    <comp name="--.HNE">
      <acc value="0.0987933688" flag="0"/>
      <vel value="0.0812798175" flag="0"/>
      <psa03 value="0.3233234714" flag="0"/>
      <psa10 value="0.0817668873" flag="0"/>
      <psa30 value="0.0263863289" flag="0"/>
    </comp>
    <comp name="--.HNN">
      <acc value="0.0724535664" flag="0"/>
      <vel value="0.0491497884" flag="0"/>
      <psa03 value="0.2628733636" flag="0"/>
      <psa10 value="0.0521918286" flag="0"/>
      <psa30 value="0.0150222488" flag="0"/>
    </comp>
    <comp name="--.HNZ">
      <acc value="0.0542921330" flag="0"/>
      <vel value="0.0298657968" flag="0"/>
      <psa03 value="0.1485705209" flag="0"/>
      <psa10 value="0.0180628021" flag="0"/>
      <psa30 value="0.0151496335" flag="0"/>
    </comp>
  </station>
  <station code="GVD" name="GVD" netid="HL" insttype="120" lat="34.8391" lon="24.0874">
    <comp name="--.HHE">
      <acc value="0.0117021857" flag="0"/>
      <vel value="0.0049550315" flag="0"/>
      <psa03 value="0.0134057843" flag="0"/>
      <psa10 value="0.0040882974" flag="0"/>
      <psa30 value="0.0010644438" flag="0"/>
    </comp>
    <comp name="--.HHN">
      <acc value="0.0119015929" flag="0"/>
      <vel value="0.0108474016" flag="0"/>
      <psa03 value="0.0408637043" flag="0"/>
      <psa10 value="0.0117580083" flag="0"/>
      <psa30 value="0.0058795329" flag="0"/>
    </comp>
    <comp name="--.HHZ">
      <acc value="0.0076010016" flag="0"/>
      <vel value="0.0068258961" flag="0"/>
      <psa03 value="0.0151484144" flag="0"/>
      <psa10 value="0.0074295751" flag="0"/>
      <psa30 value="0.0029348635" flag="0"/>
    </comp>
  </station>
  <station code="IACM" name="IACM" netid="HL" insttype="120" lat="35.3058" lon="25.0709">
    <comp name="--.HHE">
      <acc value="0.0567739523" flag="0"/>
      <vel value="0.0855689172" flag="0"/>
      <psa03 value="0.1058823689" flag="0"/>
      <psa10 value="0.1383442391" flag="0"/>
      <psa30 value="0.0173744896" flag="0"/>
    </comp>
    <comp name="--.HHN">
      <acc value="0.0371737955" flag="0"/>
      <vel value="0.0543581967" flag="0"/>
      <psa03 value="0.0777548183" flag="0"/>
      <psa10 value="0.1556420593" flag="0"/>
      <psa30 value="0.0134658587" flag="0"/>
    </comp>
    <comp name="--.HHZ">
      <acc value="0.0214096922" flag="0"/>
      <vel value="0.0270036793" flag="0"/>
      <psa03 value="0.0460684299" flag="0"/>
      <psa10 value="0.0462248333" flag="0"/>
      <psa30 value="0.0095660323" flag="0"/>
    </comp>
  </station>
  <station code="IDI" name="IDI" netid="HL" insttype="120" lat="35.288" lon="24.89">
    <comp name="--.HHZ">
      <acc value="0.0031207813" flag="0"/>
      <vel value="0.0071277072" flag="0"/>
      <psa03 value="0.0109362220" flag="0"/>
      <psa10 value="0.0078788869" flag="0"/>
      <psa30 value="0.0037559938" flag="0"/>
    </comp>
    <comp name="--.HHE">
      <acc value="0.0049796626" flag="0"/>
      <vel value="0.0109309671" flag="0"/>
      <psa03 value="0.0102640723" flag="0"/>
      <psa10 value="0.0091131910" flag="0"/>
      <psa30 value="0.0045054047" flag="0"/>
    </comp>
    <comp name="--.HHN">
      <acc value="0.0051328533" flag="0"/>
      <vel value="0.0077099355" flag="0"/>
      <psa03 value="0.0098877420" flag="0"/>
      <psa10 value="0.0075967120" flag="0"/>
      <psa30 value="0.0051761372" flag="0"/>
    </comp>
  </station>
  <station code="KARP" name="KARP" netid="HL" insttype="120" lat="35.5471" lon="27.1611">
    <comp name="--.HHE">
      <acc value="0.0176384951" flag="0"/>
      <vel value="0.0185690952" flag="0"/>
      <psa03 value="0.0116941707" flag="0"/>
      <psa10 value="0.0115008782" flag="0"/>
      <psa30 value="0.0056355255" flag="0"/>
    </comp>
    <comp name="--.HHN">
      <acc value="0.0187089146" flag="0"/>
      <vel value="0.0122863326" flag="0"/>
      <psa03 value="0.0089664298" flag="0"/>
      <psa10 value="0.0122548796" flag="0"/>
      <psa30 value="0.0063407489" flag="0"/>
    </comp>
    <comp name="--.HHZ">
      <acc value="0.0056466651" flag="0"/>
      <vel value="0.0111130037" flag="0"/>
      <psa03 value="0.0096383254" flag="0"/>
      <psa10 value="0.0082372900" flag="0"/>
      <psa30 value="0.0040465048" flag="0"/>
    </comp>
  </station>
  <station code="NPS" name="NPS" netid="HL" insttype="CMG3ESPC-120s" lat="35.2613" lon="25.6104">
    <comp name="--.HHE">
      <acc value="0.0052280400" flag="0"/>
      <vel value="0.0077837462" flag="0"/>
      <psa03 value="0.0152435863" flag="0"/>
      <psa10 value="0.0093770999" flag="0"/>
      <psa30 value="0.0046059622" flag="0"/>
    </comp>
    <comp name="--.HHN">
      <acc value="0.0112986553" flag="0"/>
      <vel value="0.0139228172" flag="0"/>
      <psa03 value="0.0274715907" flag="0"/>
      <psa10 value="0.0270307631" flag="0"/>
      <psa30 value="0.0060318201" flag="0"/>
    </comp>
    <comp name="--.HHZ">
      <acc value="0.0075336758" flag="0"/>
      <vel value="0.0124284882" flag="0"/>
      <psa03 value="0.0198701571" flag="0"/>
      <psa10 value="0.0141634350" flag="0"/>
      <psa30 value="0.0078374195" flag="0"/>
    </comp>
  </station>
  <station code="ZKR" name="ZKR" netid="HL" insttype="120" lat="35.1147" lon="26.2169">
    <comp name="--.HHE">
      <acc value="0.0291176418" flag="0"/>
      <vel value="0.0318605133" flag="0"/>
      <psa03 value="0.0719397713" flag="0"/>
      <psa10 value="0.0284382063" flag="0"/>
      <psa30 value="0.0181070757" flag="0"/>
    </comp>
    <comp name="--.HHN">
      <acc value="0.0259182803" flag="0"/>
      <vel value="0.0109462663" flag="0"/>
      <psa03 value="0.0439672469" flag="0"/>
      <psa10 value="0.0145127740" flag="0"/>
      <psa30 value="0.0068083888" flag="0"/>
    </comp>
    <comp name="--.HHZ">
      <acc value="0.0266974757" flag="0"/>
      <vel value="0.0205154659" flag="0"/>
      <psa03 value="0.0483441653" flag="0"/>
      <psa10 value="0.0232500156" flag="0"/>
      <psa30 value="0.0135335486" flag="0"/>
    </comp>
  </station>
  <station code="IDI" name="IDI" netid="MN" insttype="" lat="35.288" lon="24.89">
    <comp name="--.HHE">
      <acc value="0.0049629834" flag="0"/>
      <vel value="0.0108108192" flag="0"/>
      <psa03 value="0.0103871246" flag="0"/>
      <psa10 value="0.0090434333" flag="0"/>
      <psa30 value="0.0044487305" flag="0"/>
    </comp>
    <comp name="--.HHN">
      <acc value="0.0051727346" flag="0"/>
      <vel value="0.0076247735" flag="0"/>
      <psa03 value="0.0099236437" flag="0"/>
      <psa10 value="0.0075438041" flag="0"/>
      <psa30 value="0.0051132586" flag="0"/>
    </comp>
    <comp name="--.HHZ">
      <acc value="0.0031279509" flag="0"/>
      <vel value="0.0070557669" flag="0"/>
      <psa03 value="0.0110578173" flag="0"/>
      <psa10 value="0.0078069752" flag="0"/>
      <psa30 value="0.0037099623" flag="0"/>
    </comp>
  </station>
</stationlist>
