<stationlist created="1778069539">
	<station code="IMMV" name="IMMV" netid="GE" source="GEOFON" insttype="" lat="35.4606" lon="23.9811">
		<comp name="--.HNE" depth="0.0">
			<acc value="0.00547823693335495" flag="0"/>
			<vel value="0.010127852280018" flag="0"/>
			<psa03 value="0.0152570924568307" flag="0"/>
			<psa10 value="0.0181085132846131" flag="0"/>
			<psa30 value="0.00259057376319793" flag="0"/>
		</comp>
		<comp name="--.HNN" depth="0.0">
			<acc value="0.00516881670982114" flag="0"/>
			<vel value="0.0147164902458958" flag="0"/>
			<psa03 value="0.0145412171509383" flag="0"/>
			<psa10 value="0.0132602477754572" flag="0"/>
			<psa30 value="0.0039686337270407" flag="0"/>
		</comp>
		<comp name="--.HNZ" depth="0.0">
			<acc value="0.0032647877974689" flag="0"/>
			<vel value="0.00815525838715079" flag="0"/>
			<psa03 value="0.00841153484423509" flag="0"/>
			<psa10 value="0.00824285672528421" flag="0"/>
			<psa30 value="0.00274851375256043" flag="0"/>
		</comp>
	</station>
	<station code="KARP" name="KARP" netid="GE" source="GEOFON" insttype="" lat="35.5471" lon="27.16106">
		<comp name="--.HNE" depth="0.0">
			<acc value="0.0124399001487257" flag="0"/>
			<vel value="0.0159883481925736" flag="0"/>
			<psa03 value="0.0102459653155842" flag="0"/>
			<psa10 value="0.0102119612385543" flag="0"/>
			<psa30 value="0.00515072282589544" flag="0"/>
		</comp>
		<comp name="--.HNN" depth="0.0">
			<acc value="0.0160428797467285" flag="0"/>
			<vel value="0.0107217523402561" flag="0"/>
			<psa03 value="0.00787462836481583" flag="0"/>
			<psa10 value="0.0105421587233972" flag="0"/>
			<psa30 value="0.00617397709125532" flag="0"/>
		</comp>
		<comp name="--.HNZ" depth="0.0">
			<acc value="0.00502953514623637" flag="0"/>
			<vel value="0.00998245207956853" flag="0"/>
			<psa03 value="0.00805359719128892" flag="0"/>
			<psa10 value="0.00678918243225656" flag="0"/>
			<psa30 value="0.00389794104058383" flag="0"/>
		</comp>
	</station>
	<station code="SIT2" name="SIT2" netid="HI" source="ITSAK Strong Motion Network" insttype="" lat="35.2059" lon="26.107">
		<comp name="--.HNE" depth="0.0">
			<acc value="0.0989597983418325" flag="0"/>
			<vel value="0.0883589546366654" flag="0"/>
			<psa03 value="0.319504097461079" flag="0"/>
			<psa10 value="0.0816634755196696" flag="0"/>
			<psa30 value="0.0264690420133034" flag="0"/>
		</comp>
		<comp name="--.HNN" depth="0.0">
			<acc value="0.0723033568872393" flag="0"/>
			<vel value="0.0490786769785646" flag="0"/>
			<psa03 value="0.259325829559503" flag="0"/>
			<psa10 value="0.0522356313826999" flag="0"/>
			<psa30 value="0.015010562898364" flag="0"/>
		</comp>
		<comp name="--.HNZ" depth="0.0">
			<acc value="0.0541080933077339" flag="0"/>
			<vel value="0.0302171015507439" flag="0"/>
			<psa03 value="0.147649281840297" flag="0"/>
			<psa10 value="0.0181044864860175" flag="0"/>
			<psa30 value="0.0151541853816086" flag="0"/>
		</comp>
	</station>
	<station code="IACM" name="IACM" netid="HL" source="National Observatory of Athens Seismic Network" insttype="" lat="35.3058" lon="25.0709">
		<comp name="--.HNE" depth="0.0">
			<acc value="0.0574320376170531" flag="0"/>
			<vel value="0.0868902011969781" flag="0"/>
			<psa03 value="0.101833262263187" flag="0"/>
			<psa10 value="0.137668190387893" flag="0"/>
			<psa30 value="0.0173380524866465" flag="0"/>
		</comp>
		<comp name="--.HNN" depth="0.0">
			<acc value="0.0356029711606126" flag="0"/>
			<vel value="0.0559090761564234" flag="0"/>
			<psa03 value="0.0794621589540506" flag="0"/>
			<psa10 value="0.153908269124127" flag="0"/>
			<psa30 value="0.0139309334526651" flag="0"/>
		</comp>
		<comp name="--.HNZ" depth="0.0">
			<acc value="0.0214021919881966" flag="0"/>
			<vel value="0.0282656308797837" flag="0"/>
			<psa03 value="0.0446079799984169" flag="0"/>
			<psa10 value="0.0459820131636641" flag="0"/>
			<psa30 value="0.00927550685403392" flag="0"/>
		</comp>
	</station>
	<station code="IMMV" name="IMMV" netid="HL" source="National Observatory of Athens Seismic Network" insttype="" lat="35.4606" lon="23.9811">
		<comp name="--.HNE" depth="0.0">
			<acc value="0.00539428887586195" flag="0"/>
			<vel value="0.00838802427770185" flag="0"/>
			<psa03 value="0.0149438970105028" flag="0"/>
			<psa10 value="0.0177420746124095" flag="0"/>
			<psa30 value="0.00253777795938837" flag="0"/>
		</comp>
		<comp name="--.HNN" depth="0.0">
			<acc value="0.00501639525579016" flag="0"/>
			<vel value="0.0124005823509807" flag="0"/>
			<psa03 value="0.0142280217046104" flag="0"/>
			<psa10 value="0.012990452269549" flag="0"/>
			<psa30 value="0.00388809775512781" flag="0"/>
		</comp>
		<comp name="--.HNZ" depth="0.0">
			<acc value="0.00314703849988718" flag="0"/>
			<vel value="0.0067862760865589" flag="0"/>
			<psa03 value="0.00827730822438028" flag="0"/>
			<psa10 value="0.00807373118426714" flag="0"/>
			<psa30 value="0.00269303341635378" flag="0"/>
		</comp>
	</station>
</stationlist>
