<stationlist created="1778032494">
	<station code="FUORN" name="FUORN" netid="CH" source="Switzerland Seismological Network" insttype="" lat="46.620334" lon="10.263551">
		<comp name="--.HGE" depth="0.0">
			<acc value="0.00204862266728159" flag="0"/>
			<vel value="0.00117743008877623" flag="0"/>
			<psa03 value="0.00550329141404743" flag="0"/>
			<psa10 value="0.00180400577084872" flag="0"/>
			<psa30 value="0.000185232735399645" flag="0"/>
		</comp>
		<comp name="--.HGN" depth="0.0">
			<acc value="0.00228187527547079" flag="0"/>
			<vel value="0.00110334134316231" flag="0"/>
			<psa03 value="0.0052348381743378" flag="0"/>
			<psa10 value="0.0014134063070712" flag="0"/>
			<psa30 value="0.000154360612833038" flag="0"/>
		</comp>
		<comp name="--.HGZ" depth="0.0">
			<acc value="0.00188796220509236" flag="0"/>
			<vel value="0.000725445064825436" flag="0"/>
			<psa03 value="0.004116283008881" flag="0"/>
			<psa10 value="0.00107918202363271" flag="0"/>
			<psa30 value="0.000173599761678894" flag="0"/>
		</comp>
	</station>
	<station code="SBGN" name="SBGN" netid="CH" source="Switzerland Seismological Network" insttype="" lat="46.628162" lon="9.748359">
		<comp name="--.HGE" depth="0.0">
			<acc value="0.00837326360070478" flag="0"/>
			<vel value="0.00278199038132742" flag="0"/>
			<psa03 value="0.0190154378127655" flag="0"/>
			<psa10 value="0.00167112141719245" flag="0"/>
			<psa30 value="0.000107828717950035" flag="0"/>
		</comp>
		<comp name="--.HGN" depth="0.0">
			<acc value="0.00620616544778906" flag="0"/>
			<vel value="0.00260595563825248" flag="0"/>
			<psa03 value="0.0170020385149433" flag="0"/>
			<psa10 value="0.00132884353656267" flag="0"/>
			<psa30 value="0.000234449162679744" flag="0"/>
		</comp>
		<comp name="--.HGZ" depth="0.0">
			<acc value="0.00726545614080617" flag="0"/>
			<vel value="0.00267767391670796" flag="0"/>
			<psa03 value="0.010380191935439" flag="0"/>
			<psa10 value="0.00165098742421423" flag="0"/>
			<psa30 value="0.000180758514737818" flag="0"/>
		</comp>
	</station>
	<station code="SCAS2" name="SCAS2" netid="CH" source="Switzerland Seismological Network" insttype="" lat="46.155187" lon="8.614781">
		<comp name="--.HGE" depth="1.0">
			<acc value="0.0293876412079719" flag="0"/>
			<vel value="0.00582087428752083" flag="0"/>
			<psa03 value="0.0131094665391536" flag="0"/>
			<psa10 value="0.00252882951806472" flag="0"/>
			<psa30 value="0.000106039029685304" flag="0"/>
		</comp>
		<comp name="--.HGN" depth="1.0">
			<acc value="0.0268840650494696" flag="0"/>
			<vel value="0.00588272687068019" flag="0"/>
			<psa03 value="0.0162414210024326" flag="0"/>
			<psa10 value="0.00184024695820952" flag="0"/>
			<psa30 value="0.000111408094479497" flag="0"/>
		</comp>
		<comp name="--.HGZ" depth="1.0">
			<acc value="0.00874679050968716" flag="0"/>
			<vel value="0.00190596032059632" flag="0"/>
			<psa03 value="0.00961957442292843" flag="0"/>
			<psa10 value="0.0020013189020353" flag="0"/>
			<psa30 value="8.72473029056299e-05" flag="0"/>
		</comp>
	</station>
	<station code="SCEL" name="SCEL" netid="CH" source="Switzerland Seismological Network" insttype="" lat="46.5074" lon="9.85542">
		<comp name="--.HGE" depth="1.0">
			<acc value="0.0153138240451076" flag="0"/>
			<vel value="0.00440348354150224" flag="0"/>
			<psa03 value="0.0206261572510233" flag="0"/>
			<psa10 value="0.00217849804024365" flag="0"/>
			<psa30 value="0.000188364689862924" flag="0"/>
		</comp>
		<comp name="--.HGN" depth="1.0">
			<acc value="0.0182896880986068" flag="0"/>
			<vel value="0.00512305854170377" flag="0"/>
			<psa03 value="0.0231764630282648" flag="0"/>
			<psa10 value="0.00176776458348792" flag="0"/>
			<psa30 value="0.000202682195980771" flag="0"/>
		</comp>
		<comp name="--.HGZ" depth="1.0">
			<acc value="0.00405742696203931" flag="0"/>
			<vel value="0.00141165283192633" flag="0"/>
			<psa03 value="0.00536906479419261" flag="0"/>
			<psa10 value="0.00147783508460152" flag="0"/>
			<psa30 value="0.000258609954253611" flag="0"/>
		</comp>
	</station>
	<station code="SLOP" name="SLOP" netid="CH" source="Switzerland Seismological Network" insttype="" lat="46.16384" lon="8.79055">
		<comp name="--.HGE" depth="1.0">
			<acc value="0.0135082503161543" flag="0"/>
			<vel value="0.0056966581144081" flag="0"/>
			<psa03 value="0.0294005335785679" flag="0"/>
			<psa10 value="0.0043440149571826" flag="0"/>
			<psa30 value="0.000274110502225625" flag="0"/>
		</comp>
		<comp name="--.HGN" depth="1.0">
			<acc value="0.0130007658949447" flag="0"/>
			<vel value="0.00470744910392019" flag="0"/>
			<psa03 value="0.03070949268653" flag="0"/>
			<psa10 value="0.00496035047386231" flag="0"/>
			<psa30 value="0.00029928550327924" flag="0"/>
		</comp>
		<comp name="--.HGZ" depth="1.0">
			<acc value="0.0090091126399025" flag="0"/>
			<vel value="0.00307974915736829" flag="0"/>
			<psa03 value="0.0157436158539636" flag="0"/>
			<psa10 value="0.00380482134761497" flag="0"/>
			<psa30 value="0.000147963187251485" flag="0"/>
		</comp>
	</station>
	<station code="SUSI" name="SUSI" netid="CH" source="Switzerland Seismological Network" insttype="" lat="46.01038" lon="8.95869">
		<comp name="--.HGE" depth="0.0">
			<acc value="0.0205514425637424" flag="0"/>
			<vel value="0.00909449267087535" flag="0"/>
			<psa03 value="0.0368228360468377" flag="0"/>
			<psa10 value="0.0158172648836914" flag="0"/>
			<psa30 value="0.000510061155448298" flag="0"/>
		</comp>
		<comp name="--.HGN" depth="0.0">
			<acc value="0.0279333803737334" flag="0"/>
			<vel value="0.00828078349852649" flag="0"/>
			<psa03 value="0.0404916969895359" flag="0"/>
			<psa10 value="0.0139206427451429" flag="0"/>
			<psa30 value="0.000578069309508071" flag="0"/>
		</comp>
		<comp name="--.HGZ" depth="0.0">
			<acc value="0.019371063937783" flag="0"/>
			<vel value="0.00560356056908883" flag="0"/>
			<psa03 value="0.0305141849136613" flag="0"/>
			<psa10 value="0.00395028942232721" flag="0"/>
			<psa30 value="0.000238923383341571" flag="0"/>
		</comp>
	</station>
	<station code="VDL" name="VDL" netid="CH" source="Switzerland Seismological Network" insttype="" lat="46.48318" lon="9.44956">
		<comp name="--.HGE" depth="0.0">
			<acc value="0.00585002218063856" flag="0"/>
			<vel value="0.0021221766002247" flag="0"/>
			<psa03 value="0.00836679263761682" flag="0"/>
			<psa10 value="0.001268441557628" flag="0"/>
			<psa30 value="0.000111855516545679" flag="0"/>
		</comp>
		<comp name="--.HGN" depth="0.0">
			<acc value="0.00694103896582575" flag="0"/>
			<vel value="0.00246677731808256" flag="0"/>
			<psa03 value="0.0103354497288208" flag="0"/>
			<psa10 value="0.00122414677307592" flag="0"/>
			<psa30 value="0.000161071943825778" flag="0"/>
		</comp>
		<comp name="--.HGZ" depth="0.0">
			<acc value="0.00899530256489679" flag="0"/>
			<vel value="0.00247889787720526" flag="0"/>
			<psa03 value="0.0102907075222025" flag="0"/>
			<psa10 value="0.00181205936804001" flag="0"/>
			<psa30 value="0.000171362651347981" flag="0"/>
		</comp>
	</station>
	<station code="ACQ" name="ACQ" netid="IT" source="Italian Strong Motion Network (RAN)" insttype="" lat="44.6826" lon="8.4624">
		<comp name="--.HGE" depth="0.0">
			<acc value="0.026928204" flag="0"/>
			<vel value="0.007447" flag="0"/>
			<psa03 value="0.0282323323761295" flag="0"/>
			<psa10 value="0.00309258132145494" flag="0"/>
			<psa30 value="0.000171810073414163" flag="0"/>
		</comp>
		<comp name="--.HGN" depth="0.0">
			<acc value="0.018820122" flag="0"/>
			<vel value="0.007008" flag="0"/>
			<psa03 value="0.0309616069798441" flag="0"/>
			<psa10 value="0.0033060016470241" flag="0"/>
			<psa30 value="0.000226395565488455" flag="0"/>
		</comp>
		<comp name="--.HGZ" depth="0.0">
			<acc value="0.009592896" flag="0"/>
			<vel value="0.002734" flag="0"/>
			<psa03 value="0.0106486451751487" flag="0"/>
			<psa10 value="0.00242815955317361" flag="0"/>
			<psa30 value="0.000122593646134065" flag="0"/>
		</comp>
	</station>
	<station code="APR" name="APR" netid="IT" source="Italian Strong Motion Network (RAN)" insttype="" lat="46.1562" lon="10.1577">
		<comp name="--.HGE" depth="0.0">
			<acc value="0.010947762" flag="0"/>
			<vel value="0.003942" flag="0"/>
			<psa03 value="0.016465132035524" flag="0"/>
			<psa10 value="0.00281070541975983" flag="0"/>
			<psa30 value="0.000229974942017917" flag="0"/>
		</comp>
		<comp name="--.HGN" depth="0.0">
			<acc value="0.013498374" flag="0"/>
			<vel value="0.002951" flag="0"/>
			<psa03 value="0.011856684753842" flag="0"/>
			<psa10 value="0.0019650777146745" flag="0"/>
			<psa30 value="0.000164203898289057" flag="0"/>
		</comp>
		<comp name="--.HGZ" depth="0.0">
			<acc value="0.012214194" flag="0"/>
			<vel value="0.004036" flag="0"/>
			<psa03 value="0.0123935912332613" flag="0"/>
			<psa10 value="0.00222681962339139" flag="0"/>
			<psa30 value="0.000206261572510233" flag="0"/>
		</comp>
	</station>
	<station code="AUL" name="AUL" netid="IT" source="Italian Strong Motion Network (RAN)" insttype="" lat="44.2087" lon="9.9731">
		<comp name="--.HGE" depth="0.0">
			<acc value="0.017826846" flag="0"/>
			<vel value="0.008791" flag="0"/>
			<psa03 value="0.0428630339403043" flag="0"/>
			<psa10 value="0.00889519809777861" flag="0"/>
			<psa30 value="0.000523931239499962" flag="0"/>
		</comp>
		<comp name="--.HGN" depth="0.0">
			<acc value="0.010370442" flag="0"/>
			<vel value="0.008004" flag="0"/>
			<psa03 value="0.0332434595173759" flag="0"/>
			<psa10 value="0.00619321624010118" flag="0"/>
			<psa30 value="0.000447422066182717" flag="0"/>
		</comp>
		<comp name="--.HGZ" depth="0.0">
			<acc value="0.009977436" flag="0"/>
			<vel value="0.003979" flag="0"/>
			<psa03 value="0.0223711033091359" flag="0"/>
			<psa10 value="0.0034872075838281" flag="0"/>
			<psa30 value="0.000450554020645997" flag="0"/>
		</comp>
	</station>
	<station code="BDG" name="BDG" netid="IT" source="Italian Strong Motion Network (RAN)" insttype="" lat="44.5067" lon="9.6229">
		<comp name="--.HGE" depth="0.0">
			<acc value="0.013213998" flag="0"/>
			<vel value="0.004564" flag="0"/>
			<psa03 value="0.0311405758063171" flag="0"/>
			<psa10 value="0.00380129787428837" flag="0"/>
			<psa30 value="0.000520799285036683" flag="0"/>
		</comp>
		<comp name="--.HGN" depth="0.0">
			<acc value="0.015071112" flag="0"/>
			<vel value="0.005992" flag="0"/>
			<psa03 value="0.0361517029475636" flag="0"/>
			<psa10 value="0.00364022593046259" flag="0"/>
			<psa30 value="0.000401337593365898" flag="0"/>
		</comp>
		<comp name="--.HGZ" depth="0.0">
			<acc value="0.007888374" flag="0"/>
			<vel value="0.00234" flag="0"/>
			<psa03 value="0.0133779197788633" flag="0"/>
			<psa10 value="0.0028711073986945" flag="0"/>
			<psa30 value="0.000378071645924396" flag="0"/>
		</comp>
	</station>
	<station code="BRSA" name="BRSA" netid="IT" source="Italian Strong Motion Network (RAN)" insttype="" lat="45.5527" lon="10.2255">
		<comp name="--.HGE" depth="0.0">
			<acc value="0.066256548" flag="0"/>
			<vel value="0.024102" flag="0"/>
			<psa03 value="0.223845259711214" flag="0"/>
			<psa10 value="0.010815981027901" flag="0"/>
			<psa30 value="0.000771355642099005" flag="0"/>
		</comp>
		<comp name="--.HGN" depth="0.0">
			<acc value="0.056658552" flag="0"/>
			<vel value="0.020045" flag="0"/>
			<psa03 value="0.108141913396363" flag="0"/>
			<psa10 value="0.0101555860582153" flag="0"/>
			<psa30 value="0.000593729081824466" flag="0"/>
		</comp>
		<comp name="--.HGZ" depth="0.0">
			<acc value="0.042000234" flag="0"/>
			<vel value="0.012151" flag="0"/>
			<psa03 value="0.112079227578771" flag="0"/>
			<psa10 value="0.00365230632624952" flag="0"/>
			<psa30 value="0.000378966490056762" flag="0"/>
		</comp>
	</station>
	<station code="BVT" name="BVT" netid="IT" source="Italian Strong Motion Network (RAN)" insttype="" lat="44.5304" lon="9.7428">
		<comp name="--.HGE" depth="0.0">
			<acc value="0.008669694" flag="0"/>
			<vel value="0.004632" flag="0"/>
			<psa03 value="0.0287244966489305" flag="0"/>
			<psa10 value="0.00633818098954438" flag="0"/>
			<psa30 value="0.000385677821049502" flag="0"/>
		</comp>
		<comp name="--.HGN" depth="0.0">
			<acc value="0.012609954" flag="0"/>
			<vel value="0.005824" flag="0"/>
			<psa03 value="0.0310063491864623" flag="0"/>
			<psa10 value="0.00619321624010118" flag="0"/>
			<psa30 value="0.000618784717530698" flag="0"/>
		</comp>
		<comp name="--.HGZ" depth="0.0">
			<acc value="0.00544119" flag="0"/>
			<vel value="0.002681" flag="0"/>
			<psa03 value="0.0129752399192988" flag="0"/>
			<psa10 value="0.00235970397704765" flag="0"/>
			<psa30 value="0.000313195446327902" flag="0"/>
		</comp>
	</station>
	<station code="CME" name="CME" netid="IT" source="Italian Strong Motion Network (RAN)" insttype="" lat="43.9543" lon="10.3012">
		<comp name="--.HGE" depth="0.0">
			<acc value="0.013586604" flag="0"/>
			<vel value="0.004784" flag="0"/>
			<psa03 value="0.029798309607769" flag="0"/>
			<psa10 value="0.00356371675714535" flag="0"/>
			<psa30 value="0.000285902700290756" flag="0"/>
		</comp>
		<comp name="--.HGN" depth="0.0">
			<acc value="0.014587632" flag="0"/>
			<vel value="0.006407" flag="0"/>
			<psa03 value="0.0408496346424821" flag="0"/>
			<psa10 value="0.00544423170131131" flag="0"/>
			<psa30 value="0.000369570626666925" flag="0"/>
		</comp>
		<comp name="--.HGZ" depth="0.0">
			<acc value="0.00892092" flag="0"/>
			<vel value="0.00421" flag="0"/>
			<psa03 value="0.0147649281840297" flag="0"/>
			<psa10 value="0.00243218635176925" flag="0"/>
			<psa30 value="0.000284560434092208" flag="0"/>
		</comp>
	</station>
	<station code="CRP" name="CRP" netid="IT" source="Italian Strong Motion Network (RAN)" insttype="" lat="44.7823" lon="10.8703">
		<comp name="--.HGE" depth="0.0">
			<acc value="1.773275406" flag="0"/>
			<vel value="0.471918" flag="0"/>
			<psa03 value="1.43447988638841" flag="0"/>
			<psa10 value="0.244889756594118" flag="0"/>
			<psa30 value="0.0243066511674423" flag="0"/>
		</comp>
		<comp name="--.HGN" depth="0.0">
			<acc value="1.982463024" flag="0"/>
			<vel value="0.463409" flag="0"/>
			<psa03 value="1.96293008875682" flag="0"/>
			<psa10 value="0.177408665728308" flag="0"/>
			<psa30 value="0.0179948680798027" flag="0"/>
		</comp>
		<comp name="--.HGZ" depth="0.0">
			<acc value="0.66835806" flag="0"/>
			<vel value="0.132782" flag="0"/>
			<psa03 value="0.486795208006797" flag="0"/>
			<psa10 value="0.0244023994896054" flag="0"/>
			<psa30 value="0.00227021956381111" flag="0"/>
		</comp>
	</station>
	<station code="DSG" name="DSG" netid="IT" source="Italian Strong Motion Network (RAN)" insttype="" lat="45.4591" lon="10.5575">
		<comp name="--.HGE" depth="0.0">
			<acc value="0.165029166" flag="0"/>
			<vel value="0.069251" flag="0"/>
			<psa03 value="0.438965789131864" flag="0"/>
			<psa10 value="0.0188454174276161" flag="0"/>
			<psa30 value="0.00133152806895977" flag="0"/>
		</comp>
		<comp name="--.HGN" depth="0.0">
			<acc value="0.140152386" flag="0"/>
			<vel value="0.043086" flag="0"/>
			<psa03 value="0.322546567511121" flag="0"/>
			<psa10 value="0.0122736821195243" flag="0"/>
			<psa30 value="0.000952561578903005" flag="0"/>
		</comp>
		<comp name="--.HGZ" depth="0.0">
			<acc value="0.047767824" flag="0"/>
			<vel value="0.011277" flag="0"/>
			<psa03 value="0.075569586978261" flag="0"/>
			<psa10 value="0.00792473963622829" flag="0"/>
			<psa30 value="0.000587017750831725" flag="0"/>
		</comp>
	</station>
	<station code="FRN" name="FRN" netid="IT" source="Italian Strong Motion Network (RAN)" insttype="" lat="44.6868" lon="10.1072">
		<comp name="--.HGE" depth="0.0">
			<acc value="0.040878234" flag="0"/>
			<vel value="0.030364" flag="0"/>
			<psa03 value="0.119685402703877" flag="0"/>
			<psa10 value="0.0197796347018056" flag="0"/>
			<psa30 value="0.00151765564849178" flag="0"/>
		</comp>
		<comp name="--.HGN" depth="0.0">
			<acc value="0.055562154" flag="0"/>
			<vel value="0.032416" flag="0"/>
			<psa03 value="0.137671769764422" flag="0"/>
			<psa10 value="0.0218494091799668" flag="0"/>
			<psa30 value="0.00263352628155148" flag="0"/>
		</comp>
		<comp name="--.HGZ" depth="0.0">
			<acc value="0.033985584" flag="0"/>
			<vel value="0.013166" flag="0"/>
			<psa03 value="0.0710058819031973" flag="0"/>
			<psa10 value="0.0115246975807344" flag="0"/>
			<psa30 value="0.00109349952975056" flag="0"/>
		</comp>
	</station>
	<station code="ISD" name="ISD" netid="IT" source="Italian Strong Motion Network (RAN)" insttype="" lat="45.2733" lon="10.9602">
		<comp name="--.HGE" depth="0.0">
			<acc value="0.04830465" flag="0"/>
			<vel value="0.019602" flag="0"/>
			<psa03 value="0.0958825487829564" flag="0"/>
			<psa10 value="0.019888358263888" flag="0"/>
			<psa30 value="0.00111945000958916" flag="0"/>
		</comp>
		<comp name="--.HGN" depth="0.0">
			<acc value="0.063282126" flag="0"/>
			<vel value="0.021857" flag="0"/>
			<psa03 value="0.132571158209939" flag="0"/>
			<psa10 value="0.0198239294863577" flag="0"/>
			<psa30 value="0.00196820966913777" flag="0"/>
		</comp>
		<comp name="--.HGZ" depth="0.0">
			<acc value="0.034347174" flag="0"/>
			<vel value="0.009036" flag="0"/>
			<psa03 value="0.0341383036497414" flag="0"/>
			<psa10 value="0.006285832607801" flag="0"/>
			<psa30 value="0.000754801025650244" flag="0"/>
		</comp>
	</station>
	<station code="LNG" name="LNG" netid="IT" source="Italian Strong Motion Network (RAN)" insttype="" lat="44.6553" lon="10.3133">
		<comp name="--.HGE" depth="0.0">
			<acc value="0.07444623" flag="0"/>
			<vel value="0.033364" flag="0"/>
			<psa03 value="0.160445552933123" flag="0"/>
			<psa10 value="0.0345177175618643" flag="0"/>
			<psa30 value="0.00212614965850027" flag="0"/>
		</comp>
		<comp name="--.HGN" depth="0.0">
			<acc value="0.086798532" flag="0"/>
			<vel value="0.03253" flag="0"/>
			<psa03 value="0.183308820515059" flag="0"/>
			<psa10 value="0.0255903050753205" flag="0"/>
			<psa30 value="0.00172704917546529" flag="0"/>
		</comp>
		<comp name="--.HGZ" depth="0.0">
			<acc value="0.06782082" flag="0"/>
			<vel value="0.023774" flag="0"/>
			<psa03 value="0.152794635601398" flag="0"/>
			<psa10 value="0.014202518646838" flag="0"/>
			<psa30 value="0.00109394695181674" flag="0"/>
		</comp>
	</station>
	<station code="MDC" name="MDC" netid="IT" source="Italian Strong Motion Network (RAN)" insttype="" lat="44.4855" lon="11.6404">
		<comp name="--.HGE" depth="0.0">
			<acc value="0.024574146" flag="0"/>
			<vel value="0.015152" flag="0"/>
			<psa03 value="0.053511679115453" flag="0"/>
			<psa10 value="0.0154588798086791" flag="0"/>
			<psa30 value="0.00344649217580547" flag="0"/>
		</comp>
		<comp name="--.HGN" depth="0.0">
			<acc value="0.016689648" flag="0"/>
			<vel value="0.010929" flag="0"/>
			<psa03 value="0.0613415652736506" flag="0"/>
			<psa10 value="0.0163367219025296" flag="0"/>
			<psa30 value="0.00265768707312534" flag="0"/>
		</comp>
		<comp name="--.HGZ" depth="0.0">
			<acc value="0.01111647" flag="0"/>
			<vel value="0.00502" flag="0"/>
			<psa03 value="0.0287692388555487" flag="0"/>
			<psa10 value="0.00517040939680748" flag="0"/>
			<psa30 value="0.000524378661566145" flag="0"/>
		</comp>
	</station>
	<station code="MLC" name="MLC" netid="IT" source="Italian Strong Motion Network (RAN)" insttype="" lat="45.8079" lon="10.8485">
		<comp name="--.HGE" depth="0.0">
			<acc value="0.118306842" flag="0"/>
			<vel value="0.02379" flag="0"/>
			<psa03 value="0.131228892011391" flag="0"/>
			<psa10 value="0.0130186398597185" flag="0"/>
			<psa30 value="0.000708269130767242" flag="0"/>
		</comp>
		<comp name="--.HGN" depth="0.0">
			<acc value="0.108532896" flag="0"/>
			<vel value="0.026693" flag="0"/>
			<psa03 value="0.0827730822438028" flag="0"/>
			<psa10 value="0.00797708801797167" flag="0"/>
			<psa30 value="0.000706032020436328" flag="0"/>
		</comp>
		<comp name="--.HGZ" depth="0.0">
			<acc value="0.053783988" flag="0"/>
			<vel value="0.010856" flag="0"/>
