<?xml version="1.0" encoding="UTF-8" standalone="yes"?>
<!DOCTYPE earthquake SYSTEM "stationlist.dtd">
<stationlist created="" xmlns="ch.ethz.sed.shakemap.usgs.xml">
  <station code="CARD" name="CARD" netid="GU" source="INGV" insttype="" lat="44.026" lon="10.4821">
    <comp name="--.HHE">
      <acc value="0.0228043995" flag="0"/>
      <vel value="0.0052067872" flag="0"/>
      <psa03 value="0.0156251388" flag="0"/>
      <psa10 value="0.0034308975" flag="0"/>
      <psa30 value="0.0002260278" flag="0"/>
    </comp>
    <comp name="--.HHN">
      <acc value="0.0200166453" flag="0"/>
      <vel value="0.0050982771" flag="0"/>
      <psa03 value="0.0239618130" flag="0"/>
      <psa10 value="0.0040615128" flag="0"/>
      <psa30 value="0.0003672966" flag="0"/>
    </comp>
    <comp name="--.HHZ">
      <acc value="0.0088162886" flag="0"/>
      <vel value="0.0030070807" flag="0"/>
      <psa03 value="0.0106265207" flag="0"/>
      <psa10 value="0.0038013189" flag="0"/>
      <psa30 value="0.0003545267" flag="0"/>
    </comp>
  </station>
  <station code="EQUI" name="EQUI" netid="GU" source="INGV" insttype="" lat="44.166" lon="10.153">
    <comp name="--.HHE">
      <acc value="0.0096895445" flag="0"/>
      <vel value="0.0021777712" flag="0"/>
      <psa03 value="0.0089968129" flag="0"/>
      <psa10 value="0.0029207898" flag="0"/>
      <psa30 value="0.0001924210" flag="0"/>
    </comp>
    <comp name="--.HHN">
      <acc value="0.0057390178" flag="0"/>
      <vel value="0.0026795196" flag="0"/>
      <psa03 value="0.0146998863" flag="0"/>
      <psa10 value="0.0035372418" flag="0"/>
      <psa30 value="0.0002096843" flag="0"/>
    </comp>
    <comp name="--.HHZ">
      <acc value="0.0062872563" flag="0"/>
      <vel value="0.0020211182" flag="0"/>
      <psa03 value="0.0074094533" flag="0"/>
      <psa10 value="0.0030517733" flag="0"/>
      <psa30 value="0.0001711386" flag="0"/>
    </comp>
  </station>
  <station code="GORR" name="GORR" netid="GU" source="INGV" insttype="" lat="44.6071" lon="9.2926">
    <comp name="--.HHE">
      <acc value="0.0115860974" flag="0"/>
      <vel value="0.0040427209" flag="0"/>
      <psa03 value="0.0173459524" flag="0"/>
      <psa10 value="0.0039666039" flag="0"/>
      <psa30 value="0.0001863910" flag="0"/>
    </comp>
    <comp name="--.HHN">
      <acc value="0.0174108237" flag="0"/>
      <vel value="0.0072486796" flag="0"/>
      <psa03 value="0.0373509868" flag="0"/>
      <psa10 value="0.0031352983" flag="0"/>
      <psa30 value="0.0002602805" flag="0"/>
    </comp>
    <comp name="--.HHZ">
      <acc value="0.0179627989" flag="0"/>
      <vel value="0.0053898199" flag="0"/>
      <psa03 value="0.0257596768" flag="0"/>
      <psa10 value="0.0027007162" flag="0"/>
      <psa30 value="0.0001894549" flag="0"/>
    </comp>
  </station>
  <station code="GSCL" name="GSCL" netid="GU" source="INGV" insttype="" lat="44.3505" lon="10.5881">
    <comp name="--.HHE">
      <acc value="0.0177173973" flag="0"/>
      <vel value="0.0132957795" flag="0"/>
      <psa03 value="0.0836280573" flag="0"/>
      <psa10 value="0.0174012714" flag="0"/>
      <psa30 value="0.0009246740" flag="0"/>
    </comp>
    <comp name="--.HHN">
      <acc value="0.0150086715" flag="0"/>
      <vel value="0.0116049754" flag="0"/>
      <psa03 value="0.0474555849" flag="0"/>
      <psa10 value="0.0161110589" flag="0"/>
      <psa30 value="0.0010093796" flag="0"/>
    </comp>
    <comp name="--.HHZ">
      <acc value="0.0152381693" flag="0"/>
      <vel value="0.0055505498" flag="0"/>
      <psa03 value="0.0373237817" flag="0"/>
      <psa10 value="0.0106491964" flag="0"/>
      <psa30 value="0.0005383142" flag="0"/>
    </comp>
  </station>
  <station code="MAIM" name="MAIM" netid="GU" source="INGV" insttype="" lat="43.9142" lon="10.4915">
    <comp name="--.HHE">
      <acc value="0.0130123287" flag="0"/>
      <vel value="0.0032711633" flag="0"/>
      <psa03 value="0.0230013328" flag="0"/>
      <psa10 value="0.0024068356" flag="0"/>
      <psa30 value="0.0001812111" flag="0"/>
    </comp>
    <comp name="--.HHN">
      <acc value="0.0137833555" flag="0"/>
      <vel value="0.0044578395" flag="0"/>
      <psa03 value="0.0224926760" flag="0"/>
      <psa10 value="0.0025404569" flag="0"/>
      <psa30 value="0.0003145311" flag="0"/>
    </comp>
    <comp name="--.HHZ">
      <acc value="0.0051708089" flag="0"/>
      <vel value="0.0019523846" flag="0"/>
      <psa03 value="0.0122893291" flag="0"/>
      <psa10 value="0.0023947034" flag="0"/>
      <psa30 value="0.0001722714" flag="0"/>
    </comp>
  </station>
  <station code="BAG8" name="BAG8" netid="IV" source="INGV" insttype="" lat="45.8228" lon="10.4664">
    <comp name="--.HNE">
      <acc value="0.0426761773" flag="0"/>
      <vel value="0.0121920946" flag="0"/>
      <psa03 value="0.0443697017" flag="0"/>
      <psa10 value="0.0068609452" flag="0"/>
      <psa30 value="0.0004044828" flag="0"/>
    </comp>
    <comp name="--.HNN">
      <acc value="0.0316147717" flag="0"/>
      <vel value="0.0123045809" flag="0"/>
      <psa03 value="0.0794429457" flag="0"/>
      <psa10 value="0.0092880351" flag="0"/>
      <psa30 value="0.0004805649" flag="0"/>
    </comp>
    <comp name="--.HNZ">
      <acc value="0.0282430587" flag="0"/>
      <vel value="0.0061299323" flag="0"/>
      <psa03 value="0.0293094394" flag="0"/>
      <psa10 value="0.0032427010" flag="0"/>
      <psa30 value="0.0003051860" flag="0"/>
    </comp>
  </station>
  <station code="BDI" name="BDI" netid="IV" source="INGV" insttype="" lat="44.0624" lon="10.597">
    <comp name="--.HHE">
      <acc value="0.0116061946" flag="0"/>
      <vel value="0.0051127104" flag="0"/>
      <psa03 value="0.0309057918" flag="0"/>
      <psa10 value="0.0058864086" flag="0"/>
      <psa30 value="0.0002392639" flag="0"/>
    </comp>
    <comp name="--.HHN">
      <acc value="0.0117249241" flag="0"/>
      <vel value="0.0046872477" flag="0"/>
      <psa03 value="0.0264394133" flag="0"/>
      <psa10 value="0.0055579504" flag="0"/>
      <psa30 value="0.0002869140" flag="0"/>
    </comp>
    <comp name="--.HHZ">
      <acc value="0.0083275945" flag="0"/>
      <vel value="0.0028133664" flag="0"/>
      <psa03 value="0.0189627921" flag="0"/>
      <psa10 value="0.0025947597" flag="0"/>
      <psa30 value="0.0003622012" flag="0"/>
    </comp>
  </station>
  <station code="BOB" name="BOB" netid="IV" source="INGV" insttype="" lat="44.7679" lon="9.44782">
    <comp name="--.HHE">
      <acc value="0.0187791989" flag="0"/>
      <vel value="0.0039624562" flag="0"/>
      <psa03 value="0.0150211826" flag="0"/>
      <psa10 value="0.0034661657" flag="0"/>
      <psa30 value="0.0004909420" flag="0"/>
    </comp>
    <comp name="--.HHN">
      <acc value="0.0149763090" flag="0"/>
      <vel value="0.0040217140" flag="0"/>
      <psa03 value="0.0143287824" flag="0"/>
      <psa10 value="0.0061517013" flag="0"/>
      <psa30 value="0.0003381636" flag="0"/>
    </comp>
    <comp name="--.HHZ">
      <acc value="0.0056399102" flag="0"/>
      <vel value="0.0035355660" flag="0"/>
      <psa03 value="0.0100068381" flag="0"/>
      <psa10 value="0.0024297016" flag="0"/>
      <psa30 value="0.0002325450" flag="0"/>
    </comp>
  </station>
  <station code="BRIS" name="BRIS" netid="IV" source="INGV" insttype="" lat="44.2245" lon="11.7666">
    <comp name="--.HHE">
      <acc value="0.0061081881" flag="0"/>
      <vel value="0.0025156075" flag="0"/>
      <psa03 value="0.0149185839" flag="0"/>
      <psa10 value="0.0053862246" flag="0"/>
      <psa30 value="0.0004825433" flag="0"/>
    </comp>
    <comp name="--.HHN">
      <acc value="0.0055275469" flag="0"/>
      <vel value="0.0029540679" flag="0"/>
      <psa03 value="0.0174583604" flag="0"/>
      <psa10 value="0.0043113478" flag="0"/>
      <psa30 value="0.0003758847" flag="0"/>
    </comp>
    <comp name="--.HHZ">
      <acc value="0.0039559144" flag="0"/>
      <vel value="0.0023243394" flag="0"/>
      <psa03 value="0.0128663579" flag="0"/>
      <psa10 value="0.0043020095" flag="0"/>
      <psa30 value="0.0003569281" flag="0"/>
    </comp>
  </station>
  <station code="CAPR" name="CAPR" netid="IV" source="INGV" insttype="" lat="45.6372" lon="9.9345">
    <comp name="--.HNE">
      <acc value="0.0264012705" flag="0"/>
      <vel value="0.0054954854" flag="0"/>
      <psa03 value="0.0196808215" flag="0"/>
      <psa10 value="0.0041792966" flag="0"/>
      <psa30 value="0.0004329188" flag="0"/>
    </comp>
    <comp name="--.HNN">
      <acc value="0.0250076762" flag="0"/>
      <vel value="0.0081152501" flag="0"/>
      <psa03 value="0.0243189390" flag="0"/>
      <psa10 value="0.0047128630" flag="0"/>
      <psa30 value="0.0004392967" flag="0"/>
    </comp>
    <comp name="--.HNZ">
      <acc value="0.0163022054" flag="0"/>
      <vel value="0.0034808957" flag="0"/>
      <psa03 value="0.0124724370" flag="0"/>
      <psa10 value="0.0032428581" flag="0"/>
      <psa30 value="0.0002198039" flag="0"/>
    </comp>
  </station>
  <station code="CAVE" name="CAVE" netid="IV" source="INGV" insttype="" lat="44.8658" lon="11.0031">
    <comp name="--.HHE">
      <acc value="0.2181024822" flag="0"/>
      <vel value="0.0595569995" flag="0"/>
      <psa03 value="0.3791866379" flag="0"/>
      <psa10 value="0.0191972477" flag="0"/>
      <psa30 value="0.0021594710" flag="0"/>
    </comp>
    <comp name="--.HHN">
      <acc value="0.2140541663" flag="0"/>
      <vel value="0.0496716657" flag="0"/>
      <psa03 value="0.2540809737" flag="0"/>
      <psa10 value="0.0366688169" flag="0"/>
      <psa30 value="0.0026991872" flag="0"/>
    </comp>
    <comp name="--.HHZ">
      <acc value="0.1058578175" flag="0"/>
      <vel value="0.0250623327" flag="0"/>
      <psa03 value="0.0826349172" flag="0"/>
      <psa10 value="0.0083973201" flag="0"/>
      <psa30 value="0.0005155405" flag="0"/>
    </comp>
  </station>
  <station code="CMPO" name="CMPO" netid="IV" source="INGV" insttype="" lat="44.5808" lon="11.8056">
    <comp name="--.HNE">
      <acc value="0.0502673774" flag="0"/>
      <vel value="0.0197061531" flag="0"/>
      <psa03 value="0.1287217231" flag="0"/>
      <psa10 value="0.0307983021" flag="0"/>
      <psa30 value="0.0021098711" flag="0"/>
    </comp>
    <comp name="--.HNN">
      <acc value="0.0432079861" flag="0"/>
      <vel value="0.0340192344" flag="0"/>
      <psa03 value="0.1505454089" flag="0"/>
      <psa10 value="0.0447095404" flag="0"/>
      <psa30 value="0.0033976065" flag="0"/>
    </comp>
    <comp name="--.HNZ">
      <acc value="0.0151169232" flag="0"/>
      <vel value="0.0063930967" flag="0"/>
      <psa03 value="0.0288956163" flag="0"/>
      <psa10 value="0.0049470867" flag="0"/>
      <psa30 value="0.0003454914" flag="0"/>
    </comp>
  </station>
  <station code="CNCS" name="CNCS" netid="IV" source="INGV" insttype="" lat="45.606" lon="10.217">
    <comp name="--.HNE">
      <acc value="0.0684065138" flag="0"/>
      <vel value="0.0191110902" flag="0"/>
      <psa03 value="0.0840671654" flag="0"/>
      <psa10 value="0.0055474348" flag="0"/>
      <psa30 value="0.0004407640" flag="0"/>
    </comp>
    <comp name="--.HNN">
      <acc value="0.1275532270" flag="0"/>
      <vel value="0.0453805791" flag="0"/>
      <psa03 value="0.3379170553" flag="0"/>
      <psa10 value="0.0281205514" flag="0"/>
      <psa30 value="0.0016208609" flag="0"/>
    </comp>
    <comp name="--.HNZ">
      <acc value="0.0897799271" flag="0"/>
      <vel value="0.0209045824" flag="0"/>
      <psa03 value="0.1258144959" flag="0"/>
      <psa10 value="0.0053091975" flag="0"/>
      <psa30 value="0.0003942068" flag="0"/>
    </comp>
  </station>
  <station code="CRMI" name="CRMI" netid="IV" source="INGV" insttype="" lat="43.7956" lon="10.9795">
    <comp name="--.HNE">
      <acc value="0.0027501211" flag="0"/>
      <vel value="0.0016857401" flag="0"/>
      <psa03 value="0.0040081169" flag="0"/>
      <psa10 value="0.0024551531" flag="0"/>
      <psa30 value="0.0002102373" flag="0"/>
    </comp>
    <comp name="--.HNN">
      <acc value="0.0021493692" flag="0"/>
      <vel value="0.0014492864" flag="0"/>
      <psa03 value="0.0059359771" flag="0"/>
      <psa10 value="0.0012484282" flag="0"/>
      <psa30 value="0.0001518479" flag="0"/>
    </comp>
    <comp name="--.HNZ">
      <acc value="0.0019778084" flag="0"/>
      <vel value="0.0012891008" flag="0"/>
      <psa03 value="0.0039054817" flag="0"/>
      <psa10 value="0.0016231348" flag="0"/>
      <psa30 value="0.0003851830" flag="0"/>
    </comp>
  </station>
  <station code="CTL8" name="CTL8" netid="IV" source="INGV" insttype="" lat="45.2763" lon="9.7622">
    <comp name="--.HNE">
      <acc value="0.0636928314" flag="0"/>
      <vel value="0.0314609170" flag="0"/>
      <psa03 value="0.1660143598" flag="0"/>
      <psa10 value="0.0122365041" flag="0"/>
      <psa30 value="0.0029044712" flag="0"/>
    </comp>
    <comp name="--.HNN">
      <acc value="0.0474424754" flag="0"/>
      <vel value="0.0149949592" flag="0"/>
      <psa03 value="0.0986104225" flag="0"/>
      <psa10 value="0.0116664701" flag="0"/>
      <psa30 value="0.0011813712" flag="0"/>
    </comp>
    <comp name="--.HNZ">
      <acc value="0.0152948571" flag="0"/>
      <vel value="0.0049643569" flag="0"/>
      <psa03 value="0.0278095655" flag="0"/>
      <psa10 value="0.0033283146" flag="0"/>
      <psa30 value="0.0004013314" flag="0"/>
    </comp>
  </station>
  <station code="FNVD" name="FNVD" netid="IV" source="INGV" insttype="" lat="44.1678" lon="11.1229">
    <comp name="--.HHE">
      <acc value="0.0079476918" flag="0"/>
      <vel value="0.0038487295" flag="0"/>
      <psa03 value="0.0224289935" flag="0"/>
      <psa10 value="0.0049305442" flag="0"/>
      <psa30 value="0.0003152571" flag="0"/>
    </comp>
    <comp name="--.HHN">
      <acc value="0.0099721929" flag="0"/>
      <vel value="0.0042724271" flag="0"/>
      <psa03 value="0.0356696769" flag="0"/>
      <psa10 value="0.0051626674" flag="0"/>
      <psa30 value="0.0005055601" flag="0"/>
    </comp>
    <comp name="--.HHZ">
      <acc value="0.0076364676" flag="0"/>
      <vel value="0.0026849999" flag="0"/>
      <psa03 value="0.0180236322" flag="0"/>
      <psa10 value="0.0034013824" flag="0"/>
      <psa30 value="0.0002222230" flag="0"/>
    </comp>
  </station>
  <station code="IMOL" name="IMOL" netid="IV" source="INGV" insttype="" lat="44.3595" lon="11.7425">
    <comp name="--.HNE">
      <acc value="0.0087966070" flag="0"/>
      <vel value="0.0055316314" flag="0"/>
      <psa03 value="0.0242253967" flag="0"/>
      <psa10 value="0.0061912289" flag="0"/>
      <psa30 value="0.0013084447" flag="0"/>
    </comp>
    <comp name="--.HNN">
      <acc value="0.0118886259" flag="0"/>
      <vel value="0.0065123992" flag="0"/>
      <psa03 value="0.0351538411" flag="0"/>
      <psa10 value="0.0120860377" flag="0"/>
      <psa30 value="0.0007164507" flag="0"/>
    </comp>
    <comp name="--.HNZ">
      <acc value="0.0066249259" flag="0"/>
      <vel value="0.0030122688" flag="0"/>
      <psa03 value="0.0120584577" flag="0"/>
      <psa10 value="0.0035579919" flag="0"/>
      <psa30 value="0.0005813849" flag="0"/>
    </comp>
  </station>
  <station code="LMD" name="LMD" netid="IV" source="INGV" insttype="" lat="44.0775" lon="11.7073">
    <comp name="--.HHE">
      <acc value="0.0047924599" flag="0"/>
      <vel value="0.0018903751" flag="0"/>
      <psa03 value="0.0157738772" flag="0"/>
      <psa10 value="0.0019082151" flag="0"/>
      <psa30 value="0.0002696258" flag="0"/>
    </comp>
    <comp name="--.HHN">
      <acc value="0.0034804224" flag="0"/>
      <vel value="0.0017908324" flag="0"/>
      <psa03 value="0.0094370658" flag="0"/>
      <psa10 value="0.0027634151" flag="0"/>
      <psa30 value="0.0002923306" flag="0"/>
    </comp>
    <comp name="--.HHZ">
      <acc value="0.0019931893" flag="0"/>
      <vel value="0.0012056910" flag="0"/>
      <psa03 value="0.0056906826" flag="0"/>
      <psa10 value="0.0018175332" flag="0"/>
      <psa30 value="0.0002831522" flag="0"/>
    </comp>
  </station>
  <station code="MNTV" name="MNTV" netid="IV" source="INGV" insttype="" lat="45.1495" lon="10.7897">
    <comp name="--.HNE">
      <acc value="0.1333615619" flag="0"/>
      <vel value="0.0795093783" flag="0"/>
      <psa03 value="0.4101348590" flag="0"/>
      <psa10 value="0.0960364250" flag="0"/>
      <psa30 value="0.0046055762" flag="0"/>
    </comp>
    <comp name="--.HNN">
      <acc value="0.1411967579" flag="0"/>
      <vel value="0.0950787508" flag="0"/>
      <psa03 value="0.2985374220" flag="0"/>
      <psa10 value="0.0605296060" flag="0"/>
      <psa30 value="0.0049139860" flag="0"/>
    </comp>
    <comp name="--.HNZ">
      <acc value="0.0773398646" flag="0"/>
      <vel value="0.0272756610" flag="0"/>
      <psa03 value="0.1674462061" flag="0"/>
      <psa10 value="0.0171166631" flag="0"/>
      <psa30 value="0.0008249589" flag="0"/>
    </comp>
  </station>
  <station code="MSSA" name="MSSA" netid="IV" source="INGV" insttype="" lat="44.3162" lon="9.51739">
    <comp name="--.HHE">
      <acc value="0.0111427243" flag="0"/>
      <vel value="0.0039548394" flag="0"/>
      <psa03 value="0.0235078990" flag="0"/>
      <psa10 value="0.0029758691" flag="0"/>
      <psa30 value="0.0001662985" flag="0"/>
    </comp>
    <comp name="--.HHN">
      <acc value="0.0124319041" flag="0"/>
      <vel value="0.0037747905" flag="0"/>
      <psa03 value="0.0207306011" flag="0"/>
      <psa10 value="0.0020554978" flag="0"/>
      <psa30 value="0.0001928191" flag="0"/>
    </comp>
    <comp name="--.HHZ">
      <acc value="0.0060974276" flag="0"/>
      <vel value="0.0019954567" flag="0"/>
      <psa03 value="0.0144805264" flag="0"/>
      <psa10 value="0.0021607332" flag="0"/>
      <psa30 value="0.0002544693" flag="0"/>
    </comp>
  </station>
  <station code="MTRZ" name="MTRZ" netid="IV" source="INGV" insttype="" lat="44.3128" lon="11.4248">
    <comp name="--.HHE">
      <acc value="0.0102713739" flag="0"/>
      <vel value="0.0067723956" flag="0"/>
      <psa03 value="0.0349728285" flag="0"/>
      <psa10 value="0.0116673791" flag="0"/>
      <psa30 value="0.0009123637" flag="0"/>
    </comp>
    <comp name="--.HHN">
      <acc value="0.0088430804" flag="0"/>
      <vel value="0.0067688027" flag="0"/>
      <psa03 value="0.0319650855" flag="0"/>
      <psa10 value="0.0085259217" flag="0"/>
      <psa30 value="0.0015763719" flag="0"/>
    </comp>
    <comp name="--.HHZ">
      <acc value="0.0058912002" flag="0"/>
      <vel value="0.0039162149" flag="0"/>
      <psa03 value="0.0221333227" flag="0"/>
      <psa10 value="0.0041620409" flag="0"/>
      <psa30 value="0.0007678120" flag="0"/>
    </comp>
  </station>
  <station code="NDIM" name="NDIM" netid="IV" source="INGV" insttype="" lat="44.8873" lon="10.8987">
    <comp name="--.HHE">
      <acc value="0.7286668554" flag="0"/>
      <vel value="0.1725484595" flag="0"/>
      <psa03 value="0.4995442935" flag="0"/>
      <psa10 value="0.0262714013" flag="0"/>
      <psa30 value="0.0027474972" flag="0"/>
    </comp>
    <comp name="--.HHN">
      <acc value="0.6919402873" flag="0"/>
      <vel value="0.1922089671" flag="0"/>
      <psa03 value="0.5011990968" flag="0"/>
      <psa10 value="0.0868883278" flag="0"/>
      <psa30 value="0.0067216664" flag="0"/>
    </comp>
    <comp name="--.HHZ">
      <acc value="0.2004527819" flag="0"/>
      <vel value="0.0440511874" flag="0"/>
      <psa03 value="0.2373389006" flag="0"/>
      <psa10 value="0.0101173144" flag="0"/>
      <psa30 value="0.0017071649" flag="0"/>
    </comp>
  </station>
  <station code="NEVI" name="NEVI" netid="IV" source="INGV" insttype="" lat="44.5834" lon="10.3163">
    <comp name="--.HNE">
      <acc value="0.0755819430" flag="0"/>
      <vel value="0.0255196060" flag="0"/>
      <psa03 value="0.1608074512" flag="0"/>
      <psa10 value="0.0159926348" flag="0"/>
