<?xml version="1.0" encoding="UTF-8" standalone="yes"?>
<!DOCTYPE earthquake SYSTEM "stationlist.dtd">
<stationlist created="" xmlns="ch.ethz.sed.shakemap.usgs.xml">
  <station code="AKS" name="AKS" netid="KO" insttype="CMG-5T" commtype="DIG" lat="38.8785" lon="27.8129">
    <comp name="--.HNN">
      <acc value="0.0957525099" flag="0"/>
      <vel value="0.0394356456" flag="0"/>
      <psa03 value="0.2532982705" flag="0"/>
      <psa10 value="0.0174444606" flag="0"/>
      <psa30 value="0.0014827187" flag="0"/>
    </comp>
    <comp name="--.HNZ">
      <acc value="0.0385866422" flag="0"/>
      <vel value="0.0101962647" flag="0"/>
      <psa03 value="0.0757412994" flag="0"/>
      <psa10 value="0.0060027978" flag="0"/>
      <psa30 value="0.0006563168" flag="0"/>
    </comp>
    <comp name="--.HNE">
      <acc value="0.0947405536" flag="0"/>
      <vel value="0.0601776491" flag="0"/>
      <psa03 value="0.3751905030" flag="0"/>
      <psa10 value="0.0264882055" flag="0"/>
      <psa30 value="0.0018042724" flag="0"/>
    </comp>
  </station>
  <station code="AYVL" name="AYVL" netid="KO" insttype="CMG-6T" commtype="DIG" lat="39.2907" lon="26.69">
    <comp name="--.HHE">
      <acc value="0.0158134146" flag="0"/>
      <vel value="0.0082878724" flag="0"/>
      <psa03 value="0.0387779575" flag="0"/>
      <psa10 value="0.0032396867" flag="0"/>
      <psa30 value="0.0001909050" flag="0"/>
    </comp>
    <comp name="--.HHN">
      <acc value="0.0233370647" flag="0"/>
      <vel value="0.0087760937" flag="0"/>
      <psa03 value="0.0503239539" flag="0"/>
      <psa10 value="0.0042357133" flag="0"/>
      <psa30 value="0.0002493323" flag="0"/>
    </comp>
    <comp name="--.HHZ">
      <acc value="0.0078888040" flag="0"/>
      <vel value="0.0025772956" flag="0"/>
      <psa03 value="0.0183979419" flag="0"/>
      <psa10 value="0.0014173328" flag="0"/>
      <psa30 value="0.0000760312" flag="0"/>
    </comp>
  </station>
  <station code="BALB" name="BALB" netid="KO" insttype="CMG-5T" commtype="DIG" lat="39.6507" lon="27.8642">
    <comp name="--.HNN">
      <acc value="0.0184417453" flag="0"/>
      <vel value="0.0125977219" flag="0"/>
      <psa03 value="0.0334156874" flag="0"/>
      <psa10 value="0.0175331273" flag="0"/>
      <psa30 value="0.0008306429" flag="0"/>
    </comp>
    <comp name="--.HNZ">
      <acc value="0.0187140502" flag="0"/>
      <vel value="0.0066570424" flag="0"/>
      <psa03 value="0.0242888940" flag="0"/>
      <psa10 value="0.0061273900" flag="0"/>
      <psa30 value="0.0005303393" flag="0"/>
    </comp>
    <comp name="--.HNE">
      <acc value="0.0230627297" flag="0"/>
      <vel value="0.0090366460" flag="0"/>
      <psa03 value="0.0383779924" flag="0"/>
      <psa10 value="0.0085956908" flag="0"/>
      <psa30 value="0.0009200476" flag="0"/>
    </comp>
  </station>
  <station code="DKL" name="DKL" netid="KO" insttype="CMG-3ESPC" commtype="DIG" lat="39.0713" lon="26.9053">
    <comp name="--.HHE">
      <acc value="0.0043950442" flag="0"/>
      <vel value="0.0022268193" flag="0"/>
      <psa03 value="0.0187031328" flag="0"/>
      <psa10 value="0.0022212936" flag="0"/>
      <psa30 value="0.0002777332" flag="0"/>
    </comp>
    <comp name="--.HHN">
      <acc value="0.0049363205" flag="0"/>
      <vel value="0.0031269091" flag="0"/>
      <psa03 value="0.0134743872" flag="0"/>
      <psa10 value="0.0041219461" flag="0"/>
      <psa30 value="0.0003885907" flag="0"/>
    </comp>
    <comp name="--.HHZ">
      <acc value="0.0040171523" flag="0"/>
      <vel value="0.0016868085" flag="0"/>
      <psa03 value="0.0135456690" flag="0"/>
      <psa10 value="0.0020545707" flag="0"/>
      <psa30 value="0.0002255006" flag="0"/>
    </comp>
  </station>
  <station code="DST" name="DST" netid="KO" insttype="CMG-5T" commtype="DIG" lat="39.6041" lon="28.6267">
    <comp name="--.HNE">
      <acc value="0.0246765649" flag="0"/>
      <vel value="0.0067843066" flag="0"/>
      <psa03 value="0.0353054577" flag="0"/>
      <psa10 value="0.0031696619" flag="0"/>
      <psa30 value="0.0004726544" flag="0"/>
    </comp>
    <comp name="--.HNN">
      <acc value="0.0249419978" flag="0"/>
      <vel value="0.0061735306" flag="0"/>
      <psa03 value="0.0325085122" flag="0"/>
      <psa10 value="0.0044594148" flag="0"/>
      <psa30 value="0.0006577771" flag="0"/>
    </comp>
    <comp name="--.HNZ">
      <acc value="0.0172907567" flag="0"/>
      <vel value="0.0044328716" flag="0"/>
      <psa03 value="0.0152775217" flag="0"/>
      <psa10 value="0.0025895680" flag="0"/>
      <psa30 value="0.0005605447" flag="0"/>
    </comp>
  </station>
  <station code="GOMA" name="GOMA" netid="KO" insttype="CMG-5T" commtype="DIG" lat="38.7077" lon="27.9175">
    <comp name="--.HNZ">
      <acc value="0.0286618007" flag="0"/>
      <vel value="0.0086992556" flag="0"/>
      <psa03 value="0.0407897269" flag="0"/>
      <psa10 value="0.0040771971" flag="0"/>
      <psa30 value="0.0004680191" flag="0"/>
    </comp>
    <comp name="--.HNE">
      <acc value="0.0452246950" flag="0"/>
      <vel value="0.0226252456" flag="0"/>
      <psa03 value="0.1271766895" flag="0"/>
      <psa10 value="0.0128603796" flag="0"/>
      <psa30 value="0.0007069054" flag="0"/>
    </comp>
    <comp name="--.HNN">
      <acc value="0.0403537526" flag="0"/>
      <vel value="0.0213047332" flag="0"/>
      <psa03 value="0.1386906425" flag="0"/>
      <psa10 value="0.0127733204" flag="0"/>
      <psa30 value="0.0008362525" flag="0"/>
    </comp>
  </station>
  <station code="GONE" name="GONE" netid="KO" insttype="CMG-5T" commtype="DIG" lat="40.0466" lon="27.686">
    <comp name="--.HNE">
      <acc value="0.0150023267" flag="0"/>
      <vel value="0.0074867673" flag="0"/>
      <psa03 value="0.0244891436" flag="0"/>
      <psa10 value="0.0085564495" flag="0"/>
      <psa30 value="0.0003802817" flag="0"/>
    </comp>
    <comp name="--.HNN">
      <acc value="0.0162328030" flag="0"/>
      <vel value="0.0061645636" flag="0"/>
      <psa03 value="0.0331212036" flag="0"/>
      <psa10 value="0.0061168381" flag="0"/>
      <psa30 value="0.0004181895" flag="0"/>
    </comp>
    <comp name="--.HNZ">
      <acc value="0.0088946068" flag="0"/>
      <vel value="0.0020381751" flag="0"/>
      <psa03 value="0.0112332592" flag="0"/>
      <psa10 value="0.0028674455" flag="0"/>
      <psa30 value="0.0001906598" flag="0"/>
    </comp>
  </station>
  <station code="GORD" name="GORD" netid="KO" insttype="CMG-5T" commtype="DIG" lat="38.9088" lon="28.1769">
    <comp name="--.HNN">
      <acc value="0.0516245689" flag="0"/>
      <vel value="0.0359589875" flag="0"/>
      <psa03 value="0.0862168355" flag="0"/>
      <psa10 value="0.0371220837" flag="0"/>
      <psa30 value="0.0019421037" flag="0"/>
    </comp>
    <comp name="--.HNZ">
      <acc value="0.0404428195" flag="0"/>
      <vel value="0.0171317321" flag="0"/>
      <psa03 value="0.0590578565" flag="0"/>
      <psa10 value="0.0150672668" flag="0"/>
      <psa30 value="0.0012576394" flag="0"/>
    </comp>
    <comp name="--.HNE">
      <acc value="0.0358687461" flag="0"/>
      <vel value="0.0275616788" flag="0"/>
      <psa03 value="0.0783964707" flag="0"/>
      <psa10 value="0.0282594654" flag="0"/>
      <psa30 value="0.0018519576" flag="0"/>
    </comp>
  </station>
  <station code="KCTX" name="KCTX" netid="KO" insttype="CMG-3ESP" commtype="DIG" lat="40.2626" lon="28.3353">
    <comp name="--.HHN">
      <acc value="0.0129290397" flag="0"/>
      <vel value="0.0046120918" flag="0"/>
      <psa03 value="0.0344343956" flag="0"/>
      <psa10 value="0.0045735487" flag="0"/>
      <psa30 value="0.0002840338" flag="0"/>
    </comp>
    <comp name="--.HHE">
      <acc value="0.0110884593" flag="0"/>
      <vel value="0.0048783506" flag="0"/>
      <psa03 value="0.0316900067" flag="0"/>
      <psa10 value="0.0073207740" flag="0"/>
      <psa30 value="0.0004881658" flag="0"/>
    </comp>
    <comp name="--.HHZ">
      <acc value="0.0117022762" flag="0"/>
      <vel value="0.0044651582" flag="0"/>
      <psa03 value="0.0205146482" flag="0"/>
      <psa10 value="0.0021256657" flag="0"/>
      <psa30 value="0.0001731460" flag="0"/>
    </comp>
  </station>
  <station code="KULA" name="KULA" netid="KO" insttype="CMG-3T" commtype="DIG" lat="38.5145" lon="28.6607">
    <comp name="--.HHE">
      <acc value="0.0169434751" flag="0"/>
      <vel value="0.0049649140" flag="0"/>
      <psa03 value="0.0180482463" flag="0"/>
      <psa10 value="0.0031368244" flag="0"/>
      <psa30 value="0.0002737558" flag="0"/>
    </comp>
    <comp name="--.HHN">
      <acc value="0.0187345725" flag="0"/>
      <vel value="0.0039772204" flag="0"/>
      <psa03 value="0.0147033041" flag="0"/>
      <psa10 value="0.0013141288" flag="0"/>
      <psa30 value="0.0002458861" flag="0"/>
    </comp>
    <comp name="--.HHZ">
      <acc value="0.0141192173" flag="0"/>
      <vel value="0.0060536863" flag="0"/>
      <psa03 value="0.0157451811" flag="0"/>
      <psa10 value="0.0039653546" flag="0"/>
      <psa30 value="0.0003041609" flag="0"/>
    </comp>
  </station>
  <station code="ORLT" name="ORLT" netid="KO" insttype="CMG-5T" commtype="DIG" lat="40.0452" lon="28.8914">
    <comp name="--.HNN">
      <acc value="0.0262255328" flag="0"/>
      <vel value="0.0141552578" flag="0"/>
      <psa03 value="0.0525248375" flag="0"/>
      <psa10 value="0.0121340936" flag="0"/>
      <psa30 value="0.0008323729" flag="0"/>
    </comp>
    <comp name="--.HNZ">
      <acc value="0.0089270255" flag="0"/>
      <vel value="0.0052967838" flag="0"/>
      <psa03 value="0.0182509356" flag="0"/>
      <psa10 value="0.0091392889" flag="0"/>
      <psa30 value="0.0006547147" flag="0"/>
    </comp>
    <comp name="--.HNE">
      <acc value="0.0186855223" flag="0"/>
      <vel value="0.0108505469" flag="0"/>
      <psa03 value="0.0570337246" flag="0"/>
      <psa10 value="0.0110004289" flag="0"/>
      <psa30 value="0.0008600339" flag="0"/>
    </comp>
  </station>
  <station code="SHAP" name="SHAP" netid="KO" insttype="CMG-5T" commtype="DIG" lat="39.0231" lon="29.222">
    <comp name="--.HNE">
      <acc value="0.0307514615" flag="0"/>
      <vel value="0.0083913813" flag="0"/>
      <psa03 value="0.0443825658" flag="0"/>
      <psa10 value="0.0041358980" flag="0"/>
      <psa30 value="0.0003966829" flag="0"/>
    </comp>
    <comp name="--.HNZ">
      <acc value="0.0248967213" flag="0"/>
      <vel value="0.0047642086" flag="0"/>
      <psa03 value="0.0117254201" flag="0"/>
      <psa10 value="0.0030661886" flag="0"/>
      <psa30 value="0.0002111865" flag="0"/>
    </comp>
    <comp name="--.HNN">
      <acc value="0.0374366294" flag="0"/>
      <vel value="0.0096885484" flag="0"/>
      <psa03 value="0.0447244309" flag="0"/>
      <psa10 value="0.0056987977" flag="0"/>
      <psa30 value="0.0003992029" flag="0"/>
    </comp>
  </station>
  <station code="SIMA" name="SIMA" netid="KO" insttype="CMG-6T" commtype="DIG" lat="39.0833" lon="28.9825">
    <comp name="--.HHE">
      <acc value="0.0223575678" flag="0"/>
      <vel value="0.0057119932" flag="0"/>
      <psa03 value="0.0359078647" flag="0"/>
      <psa10 value="0.0044350020" flag="0"/>
      <psa30 value="0.0003890757" flag="0"/>
    </comp>
    <comp name="--.HHN">
      <acc value="0.0193330929" flag="0"/>
      <vel value="0.0091746029" flag="0"/>
      <psa03 value="0.0531958943" flag="0"/>
      <psa10 value="0.0062134388" flag="0"/>
      <psa30 value="0.0003457208" flag="0"/>
    </comp>
    <comp name="--.HHZ">
      <acc value="0.0166266681" flag="0"/>
      <vel value="0.0031900229" flag="0"/>
      <psa03 value="0.0175739946" flag="0"/>
      <psa10 value="0.0024331106" flag="0"/>
      <psa30 value="0.0003128980" flag="0"/>
    </comp>
  </station>
  <station code="SMAA" name="SMAA" netid="KO" insttype="CMG-5T" commtype="DIG" lat="39.1005" lon="28.9805">
    <comp name="--.HNN">
      <acc value="0.0281078729" flag="0"/>
      <vel value="0.0166441355" flag="0"/>
      <psa03 value="0.0591358763" flag="0"/>
      <psa10 value="0.0161544545" flag="0"/>
      <psa30 value="0.0010922110" flag="0"/>
    </comp>
    <comp name="--.HNE">
      <acc value="0.0300098435" flag="0"/>
      <vel value="0.0182047085" flag="0"/>
      <psa03 value="0.0491751206" flag="0"/>
      <psa10 value="0.0180509127" flag="0"/>
      <psa30 value="0.0015654262" flag="0"/>
    </comp>
    <comp name="--.HNZ">
      <acc value="0.0129588698" flag="0"/>
      <vel value="0.0077826814" flag="0"/>
      <psa03 value="0.0159395239" flag="0"/>
      <psa10 value="0.0198289385" flag="0"/>
      <psa30 value="0.0006282120" flag="0"/>
    </comp>
  </station>
  <station code="SOMA" name="SOMA" netid="KO" insttype="CMG-5T" commtype="DIG" lat="39.1564" lon="27.5341">
    <comp name="--.HNZ">
      <acc value="0.0392848792" flag="0"/>
      <vel value="0.0122615983" flag="0"/>
      <psa03 value="0.0789493190" flag="0"/>
      <psa10 value="0.0071967988" flag="0"/>
      <psa30 value="0.0007182282" flag="0"/>
    </comp>
    <comp name="--.HNE">
      <acc value="0.0429511326" flag="0"/>
      <vel value="0.0140016701" flag="0"/>
      <psa03 value="0.1221807364" flag="0"/>
      <psa10 value="0.0081075536" flag="0"/>
      <psa30 value="0.0006929068" flag="0"/>
    </comp>
    <comp name="--.HNN">
      <acc value="0.0561568390" flag="0"/>
      <vel value="0.0227642245" flag="0"/>
      <psa03 value="0.1316262087" flag="0"/>
      <psa10 value="0.0108054071" flag="0"/>
      <psa30 value="0.0010370195" flag="0"/>
    </comp>
  </station>
  <station code="SUSR" name="SUSR" netid="KO" insttype="CMG-5T" commtype="DIG" lat="39.9627" lon="28.0835">
    <comp name="--.HNE">
      <acc value="0.0182209857" flag="0"/>
      <vel value="0.0042551479" flag="0"/>
      <psa03 value="0.0193797447" flag="0"/>
      <psa10 value="0.0038873624" flag="0"/>
      <psa30 value="0.0001843105" flag="0"/>
    </comp>
    <comp name="--.HNN">
      <acc value="0.0187082160" flag="0"/>
      <vel value="0.0076365844" flag="0"/>
      <psa03 value="0.0307444567" flag="0"/>
      <psa10 value="0.0021559914" flag="0"/>
      <psa30 value="0.0002240481" flag="0"/>
    </comp>
    <comp name="--.HNZ">
      <acc value="0.0156953941" flag="0"/>
      <vel value="0.0042357485" flag="0"/>
      <psa03 value="0.0140353725" flag="0"/>
      <psa10 value="0.0023176538" flag="0"/>
      <psa30 value="0.0003228971" flag="0"/>
    </comp>
  </station>
  <station code="TVSB" name="TVSB" netid="KO" insttype="CMG-3T" commtype="DIG" lat="39.4497" lon="29.4615">
    <comp name="--.HHN">
      <acc value="0.0207235350" flag="0"/>
      <vel value="0.0067299329" flag="0"/>
      <psa03 value="0.0335468287" flag="0"/>
      <psa10 value="0.0033769345" flag="0"/>
      <psa30 value="0.0002300205" flag="0"/>
    </comp>
    <comp name="--.HHE">
      <acc value="0.0220966936" flag="0"/>
      <vel value="0.0121145064" flag="0"/>
      <psa03 value="0.0443250120" flag="0"/>
      <psa10 value="0.0067774243" flag="0"/>
      <psa30 value="0.0004397855" flag="0"/>
    </comp>
    <comp name="--.HHZ">
      <acc value="0.0097397811" flag="0"/>
      <vel value="0.0030917119" flag="0"/>
      <psa03 value="0.0140906491" flag="0"/>
      <psa10 value="0.0024054264" flag="0"/>
      <psa30 value="0.0002339114" flag="0"/>
    </comp>
  </station>
  <station code="YAYO" name="YAYO" netid="KO" insttype="CMG-6T" commtype="DIG" lat="39.6113" lon="27.0726">
    <comp name="--.HHZ">
      <acc value="0.0079705837" flag="0"/>
      <vel value="0.0040221330" flag="0"/>
      <psa03 value="0.0233064792" flag="0"/>
      <psa10 value="0.0036760187" flag="0"/>
      <psa30 value="0.0002424770" flag="0"/>
    </comp>
    <comp name="--.HHN">
      <acc value="0.0138245072" flag="0"/>
      <vel value="0.0069582125" flag="0"/>
      <psa03 value="0.0635238555" flag="0"/>
      <psa10 value="0.0042277554" flag="0"/>
      <psa30 value="0.0003249092" flag="0"/>
    </comp>
    <comp name="--.HHE">
      <acc value="0.0111854906" flag="0"/>
      <vel value="0.0080788498" flag="0"/>
      <psa03 value="0.0331414590" flag="0"/>
      <psa10 value="0.0071185862" flag="0"/>
      <psa30 value="0.0003874632" flag="0"/>
    </comp>
  </station>
  <station code="YENI" name="YENI" netid="KO" insttype="CMG-5T" commtype="DIG" lat="39.9364" lon="27.2422">
    <comp name="--.HNN">
      <acc value="0.0162551065" flag="0"/>
      <vel value="0.0079776968" flag="0"/>
      <psa03 value="0.0430979850" flag="0"/>
      <psa10 value="0.0069943742" flag="0"/>
      <psa30 value="0.0004019552" flag="0"/>
    </comp>
    <comp name="--.HNE">
      <acc value="0.0170710632" flag="0"/>
      <vel value="0.0070484738" flag="0"/>
      <psa03 value="0.0402145129" flag="0"/>
      <psa10 value="0.0067446420" flag="0"/>
      <psa30 value="0.0005705184" flag="0"/>
    </comp>
    <comp name="--.HNZ">
      <acc value="0.0072611151" flag="0"/>
      <vel value="0.0020952348" flag="0"/>
      <psa03 value="0.0147737796" flag="0"/>
      <psa10 value="0.0015098732" flag="0"/>
      <psa30 value="0.0004100942" flag="0"/>
    </comp>
  </station>
</stationlist>
