<?xml version="1.0" encoding="UTF-8" standalone="yes"?>
<!DOCTYPE earthquake SYSTEM "stationlist.dtd">
<stationlist created="" xmlns="ch.ethz.sed.shakemap.usgs.xml">
  <station code="CMRD" name="CMRD" netid="KO" insttype="CMG-5T" lat="37.6623" lon="34.9902">
    <comp name="--.HNZ">
      <acc value="0.0080632648" flag="0"/>
      <vel value="0.0059555197" flag="0"/>
      <psa03 value="0.0241822683" flag="0"/>
      <psa10 value="0.0094553582" flag="0"/>
      <psa30 value="0.0017716386" flag="0"/>
    </comp>
    <comp name="--.HNN">
      <acc value="0.0110537447" flag="0"/>
      <vel value="0.0067094167" flag="0"/>
      <psa03 value="0.0342280602" flag="0"/>
      <psa10 value="0.0100775367" flag="0"/>
      <psa30 value="0.0016700677" flag="0"/>
    </comp>
    <comp name="--.HNE">
      <acc value="0.0119120819" flag="0"/>
      <vel value="0.0090625663" flag="0"/>
      <psa03 value="0.0389793213" flag="0"/>
      <psa10 value="0.0090534059" flag="0"/>
      <psa30 value="0.0031593065" flag="0"/>
    </comp>
  </station>
  <station code="GULA" name="GULA" netid="KO" insttype="CMG-6T" lat="38.3444" lon="34.236">
    <comp name="--.HHE">
      <acc value="0.0339183080" flag="0"/>
      <vel value="0.0148169945" flag="0"/>
      <psa03 value="0.0545182028" flag="0"/>
      <psa10 value="0.0078454861" flag="0"/>
      <psa30 value="0.0007837124" flag="0"/>
    </comp>
    <comp name="--.HHN">
      <acc value="0.0268869836" flag="0"/>
      <vel value="0.0121020782" flag="0"/>
      <psa03 value="0.0426957762" flag="0"/>
      <psa10 value="0.0126335737" flag="0"/>
      <psa30 value="0.0007966333" flag="0"/>
    </comp>
    <comp name="--.HHZ">
      <acc value="0.0170446560" flag="0"/>
      <vel value="0.0087162240" flag="0"/>
      <psa03 value="0.0561677262" flag="0"/>
      <psa10 value="0.0077150050" flag="0"/>
      <psa30 value="0.0010473776" flag="0"/>
    </comp>
  </station>
  <station code="KOZK" name="KOZK" netid="KO" insttype="CMG-5T" lat="39.2101" lon="34.868">
    <comp name="--.HNE">
      <acc value="0.1032740284" flag="0"/>
      <vel value="0.0286765300" flag="0"/>
      <psa03 value="0.1395069131" flag="0"/>
      <psa10 value="0.0550469462" flag="0"/>
      <psa30 value="0.0046981919" flag="0"/>
    </comp>
    <comp name="--.HNN">
      <acc value="0.1317141235" flag="0"/>
      <vel value="0.0386469684" flag="0"/>
      <psa03 value="0.1445576710" flag="0"/>
      <psa10 value="0.0345072712" flag="0"/>
      <psa30 value="0.0092503071" flag="0"/>
    </comp>
    <comp name="--.HNZ">
      <acc value="0.0772924711" flag="0"/>
      <vel value="0.0224544034" flag="0"/>
      <psa03 value="0.0873032667" flag="0"/>
      <psa10 value="0.0110811484" flag="0"/>
      <psa30 value="0.0028048888" flag="0"/>
    </comp>
  </station>
  <station code="SARI" name="SARI" netid="KO" insttype="CMG-3T" lat="38.4072" lon="36.4181">
    <comp name="--.HHN">
      <acc value="0.0101185535" flag="0"/>
      <vel value="0.0070563981" flag="0"/>
      <psa03 value="0.0169367633" flag="0"/>
      <psa10 value="0.0075264355" flag="0"/>
      <psa30 value="0.0017958114" flag="0"/>
    </comp>
    <comp name="--.HHE">
      <acc value="0.0115281345" flag="0"/>
      <vel value="0.0086175514" flag="0"/>
      <psa03 value="0.0193742871" flag="0"/>
      <psa10 value="0.0076860832" flag="0"/>
      <psa30 value="0.0011258323" flag="0"/>
    </comp>
    <comp name="--.HHZ">
      <acc value="0.0074960014" flag="0"/>
      <vel value="0.0040363665" flag="0"/>
      <psa03 value="0.0212399115" flag="0"/>
      <psa10 value="0.0051377276" flag="0"/>
      <psa30 value="0.0011891447" flag="0"/>
    </comp>
  </station>
  <station code="YOZ" name="YOZ" netid="KO" insttype="CMG-3T" lat="39.6376" lon="35.3152">
    <comp name="--.HHE">
      <acc value="0.0420662216" flag="0"/>
      <vel value="0.0140284158" flag="0"/>
      <psa03 value="0.0967485316" flag="0"/>
      <psa10 value="0.0073201168" flag="0"/>
      <psa30 value="0.0007226821" flag="0"/>
    </comp>
    <comp name="--.HHN">
      <acc value="0.0465484276" flag="0"/>
      <vel value="0.0144749184" flag="0"/>
      <psa03 value="0.0771128758" flag="0"/>
      <psa10 value="0.0078500402" flag="0"/>
      <psa30 value="0.0016901918" flag="0"/>
    </comp>
    <comp name="--.HHZ">
      <acc value="0.0293635440" flag="0"/>
      <vel value="0.0086982569" flag="0"/>
      <psa03 value="0.0646697531" flag="0"/>
      <psa10 value="0.0032209720" flag="0"/>
      <psa30 value="0.0014501746" flag="0"/>
    </comp>
  </station>
</stationlist>
