<?xml version="1.0" encoding="UTF-8" standalone="yes"?>
<!DOCTYPE earthquake SYSTEM "stationlist.dtd">
<stationlist created="" xmlns="ch.ethz.sed.shakemap.usgs.xml">
  <station code="BNN" name="BNN" netid="KO" insttype="CMG-3T" lat="38.8521" lon="35.8472">
    <comp name="--.HHZ">
      <acc value="0.0124657313" flag="0"/>
      <vel value="0.0075460308" flag="0"/>
      <psa03 value="0.0375137805" flag="0"/>
      <psa10 value="0.0124865149" flag="0"/>
      <psa30 value="0.0022545776" flag="0"/>
    </comp>
  </station>
  <station code="CMRD" name="CMRD" netid="KO" insttype="CMG-5T" lat="37.6623" lon="34.9902">
    <comp name="--.HNN">
      <acc value="0.0110537329" flag="0"/>
      <vel value="0.0067094149" flag="0"/>
      <psa03 value="0.0342280602" flag="0"/>
      <psa10 value="0.0100775367" flag="0"/>
      <psa30 value="0.0016729670" flag="0"/>
    </comp>
    <comp name="--.HNZ">
      <acc value="0.0080632609" flag="0"/>
      <vel value="0.0059555216" flag="0"/>
      <psa03 value="0.0241822683" flag="0"/>
      <psa10 value="0.0094553582" flag="0"/>
      <psa30 value="0.0017715460" flag="0"/>
    </comp>
    <comp name="--.HNE">
      <acc value="0.0119120861" flag="0"/>
      <vel value="0.0090625733" flag="0"/>
      <psa03 value="0.0389793213" flag="0"/>
      <psa10 value="0.0090534060" flag="0"/>
      <psa30 value="0.0031591819" flag="0"/>
    </comp>
  </station>
  <station code="GULA" name="GULA" netid="KO" insttype="CMG-6T" lat="38.3444" lon="34.236">
    <comp name="--.HHE">
      <acc value="0.0339183224" flag="0"/>
      <vel value="0.0148169933" flag="0"/>
      <psa03 value="0.0545182028" flag="0"/>
      <psa10 value="0.0078454860" flag="0"/>
      <psa30 value="0.0007836873" flag="0"/>
    </comp>
    <comp name="--.HHZ">
      <acc value="0.0170446305" flag="0"/>
      <vel value="0.0087162244" flag="0"/>
      <psa03 value="0.0561677262" flag="0"/>
      <psa10 value="0.0077150050" flag="0"/>
      <psa30 value="0.0010473722" flag="0"/>
    </comp>
    <comp name="--.HHN">
      <acc value="0.0268869759" flag="0"/>
      <vel value="0.0121020785" flag="0"/>
      <psa03 value="0.0426957762" flag="0"/>
      <psa10 value="0.0126335737" flag="0"/>
      <psa30 value="0.0007966355" flag="0"/>
    </comp>
  </station>
  <station code="KOZK" name="KOZK" netid="KO" insttype="CMG-5T" lat="39.2101" lon="34.868">
    <comp name="--.HNN">
      <acc value="0.1317141211" flag="0"/>
      <vel value="0.0386469571" flag="0"/>
      <psa03 value="0.1445576710" flag="0"/>
      <psa10 value="0.0345072708" flag="0"/>
      <psa30 value="0.0092507819" flag="0"/>
    </comp>
    <comp name="--.HNE">
      <acc value="0.1032740173" flag="0"/>
      <vel value="0.0286765144" flag="0"/>
      <psa03 value="0.1395069131" flag="0"/>
      <psa10 value="0.0550469459" flag="0"/>
      <psa30 value="0.0046966386" flag="0"/>
    </comp>
    <comp name="--.HNZ">
      <acc value="0.0772924637" flag="0"/>
      <vel value="0.0224543891" flag="0"/>
      <psa03 value="0.0873032667" flag="0"/>
      <psa10 value="0.0110811484" flag="0"/>
      <psa30 value="0.0028049081" flag="0"/>
    </comp>
  </station>
  <station code="SARI" name="SARI" netid="KO" insttype="CMG-3T" lat="38.4072" lon="36.4181">
    <comp name="--.HHE">
      <acc value="0.0115281337" flag="0"/>
      <vel value="0.0086175518" flag="0"/>
      <psa03 value="0.0193742871" flag="0"/>
      <psa10 value="0.0076860832" flag="0"/>
      <psa30 value="0.0011258234" flag="0"/>
    </comp>
    <comp name="--.HHN">
      <acc value="0.0101185536" flag="0"/>
      <vel value="0.0070563981" flag="0"/>
      <psa03 value="0.0169367633" flag="0"/>
      <psa10 value="0.0075264355" flag="0"/>
      <psa30 value="0.0017958012" flag="0"/>
    </comp>
    <comp name="--.HHZ">
      <acc value="0.0074960014" flag="0"/>
      <vel value="0.0040363666" flag="0"/>
      <psa03 value="0.0212399115" flag="0"/>
      <psa10 value="0.0051377276" flag="0"/>
      <psa30 value="0.0011891545" flag="0"/>
    </comp>
  </station>
  <station code="YOZ" name="YOZ" netid="KO" insttype="CMG-3T" lat="39.6376" lon="35.3152">
    <comp name="--.HHZ">
      <acc value="0.0293635439" flag="0"/>
      <vel value="0.0086982569" flag="0"/>
      <psa03 value="0.0646697531" flag="0"/>
      <psa10 value="0.0032209720" flag="0"/>
      <psa30 value="0.0014501772" flag="0"/>
    </comp>
    <comp name="--.HHN">
      <acc value="0.0465484273" flag="0"/>
      <vel value="0.0144749191" flag="0"/>
      <psa03 value="0.0771128758" flag="0"/>
      <psa10 value="0.0078500402" flag="0"/>
      <psa30 value="0.0016901824" flag="0"/>
    </comp>
    <comp name="--.HHE">
      <acc value="0.0420662216" flag="0"/>
      <vel value="0.0140284161" flag="0"/>
      <psa03 value="0.0967485316" flag="0"/>
      <psa10 value="0.0073201168" flag="0"/>
      <psa30 value="0.0007226925" flag="0"/>
    </comp>
  </station>
</stationlist>
