<stationlist created="1778136096">
	<station code="KTHA" name="KTHA" netid="GE" source="GEOFON" insttype="" lat="36.2566" lon="23.0621">
		<comp name="--.HNE" depth="0.0">
			<acc value="0.0168143808837675" flag="0"/>
			<vel value="0.0128262572418495" flag="0"/>
			<psa03 value="0.0370912892865473" flag="0"/>
			<psa10 value="0.0128897823046579" flag="0"/>
			<psa30 value="0.00289303107993745" flag="0"/>
		</comp>
		<comp name="--.HNN" depth="0.0">
			<acc value="0.00830436162146245" flag="0"/>
			<vel value="0.00317326065595468" flag="0"/>
			<psa03 value="0.0191944066392386" flag="0"/>
			<psa10 value="0.00396639661670979" flag="0"/>
			<psa30 value="0.00076732884350336" flag="0"/>
		</comp>
		<comp name="--.HNZ" depth="0.0">
			<acc value="0.00780301950856876" flag="0"/>
			<vel value="0.00363076143709077" flag="0"/>
			<psa03 value="0.0180758514737818" flag="0"/>
			<psa10 value="0.00484423871056028" flag="0"/>
			<psa30 value="0.00187067165870994" flag="0"/>
		</comp>
	</station>
	<station code="CH01" name="CH01" netid="HI" source="ITSAK Strong Motion Network" insttype="" lat="35.517" lon="24.0208">
		<comp name="--.HNE" depth="0.0">
			<acc value="0.00298832765043899" flag="0"/>
			<vel value="0.00272843393765573" flag="0"/>
			<psa03 value="0.00872473029056299" flag="0"/>
			<psa10 value="0.00422411172683104" flag="0"/>
			<psa30 value="0.000412523145020466" flag="0"/>
		</comp>
		<comp name="--.HNN" depth="0.0">
			<acc value="0.00314568069588458" flag="0"/>
			<vel value="0.00242081791395147" flag="0"/>
			<psa03 value="0.00899318353027262" flag="0"/>
			<psa10 value="0.00284291980852499" flag="0"/>
			<psa30 value="0.000526168349830876" flag="0"/>
		</comp>
		<comp name="--.HNZ" depth="0.0">
			<acc value="0.00289376319429847" flag="0"/>
			<vel value="0.00213624012570208" flag="0"/>
			<psa03 value="0.00863524587732645" flag="0"/>
			<psa10 value="0.00331405524421539" flag="0"/>
			<psa30 value="0.000358385075012357" flag="0"/>
		</comp>
	</station>
	<station code="NPS1" name="NPS1" netid="HI" source="ITSAK Strong Motion Network" insttype="" lat="36.51263" lon="23.06248">
		<comp name="--.HNE" depth="0.0">
			<acc value="0.0168437262866755" flag="0"/>
			<vel value="0.0124166224786824" flag="0"/>
			<psa03 value="0.0616995029265968" flag="0"/>
			<psa10 value="0.0108119542293054" flag="0"/>
			<psa30 value="0.000837126685827864" flag="0"/>
		</comp>
		<comp name="--.HNN" depth="0.0">
			<acc value="0.0203390227657943" flag="0"/>
			<vel value="0.0190671456812347" flag="0"/>
			<psa03 value="0.0592834237692101" flag="0"/>
			<psa10 value="0.0170011436708109" flag="0"/>
			<psa30 value="0.00161877303544907" flag="0"/>
		</comp>
		<comp name="--.HNZ" depth="0.0">
			<acc value="0.0111395374979663" flag="0"/>
			<vel value="0.00497061051472383" flag="0"/>
			<psa03 value="0.0275611992768554" flag="0"/>
			<psa10 value="0.00485631910634722" flag="0"/>
			<psa30 value="0.000623258938192525" flag="0"/>
		</comp>
	</station>
	<station code="PYL1" name="PYL1" netid="HI" source="ITSAK Strong Motion Network" insttype="" lat="36.914188" lon="21.695161">
		<comp name="--.HNE" depth="0.0">
			<acc value="0.00467969611940353" flag="0"/>
			<vel value="0.00297290769736958" flag="0"/>
			<psa03 value="0.0197760553252761" flag="0"/>
			<psa10 value="0.0041395489563225" flag="0"/>
			<psa30 value="0.000510508577514481" flag="0"/>
		</comp>
		<comp name="--.HNN" depth="0.0">
			<acc value="0.00631041130571903" flag="0"/>
			<vel value="0.00308875249310099" flag="0"/>
			<psa03 value="0.0190601800193838" flag="0"/>
			<psa10 value="0.00490464068949495" flag="0"/>
			<psa30 value="0.000425945807005947" flag="0"/>
		</comp>
		<comp name="--.HNZ" depth="0.0">
			<acc value="0.00399907161969936" flag="0"/>
			<vel value="0.00174828191363108" flag="0"/>
			<psa03 value="0.0108276140016218" flag="0"/>
			<psa10 value="0.00198118490905707" flag="0"/>
			<psa30 value="0.000432209715932505" flag="0"/>
		</comp>
	</station>
	<station code="IMMV" name="IMMV" netid="HL" source="National Observatory of Athens Seismic Network" insttype="" lat="35.4606" lon="23.9811">
		<comp name="--.HNE" depth="0.0">
			<acc value="0.00274323643572025" flag="0"/>
			<vel value="0.00257276861210357" flag="0"/>
			<psa03 value="0.00867998808394472" flag="0"/>
			<psa10 value="0.00423216532402233" flag="0"/>
			<psa30 value="0.00034898921162252" flag="0"/>
		</comp>
		<comp name="--.HNN" depth="0.0">
			<acc value="0.00374893229033422" flag="0"/>
			<vel value="0.00234997160864717" flag="0"/>
			<psa03 value="0.0127515288862075" flag="0"/>
			<psa10 value="0.00355163636135841" flag="0"/>
			<psa30 value="0.000238028539209206" flag="0"/>
		</comp>
		<comp name="--.HNZ" depth="0.0">
			<acc value="0.00291342070831524" flag="0"/>
			<vel value="0.00133493822092605" flag="0"/>
			<psa03 value="0.00832205043099855" flag="0"/>
			<psa10 value="0.00139327231409298" flag="0"/>
			<psa30 value="0.000215210013833887" flag="0"/>
		</comp>
	</station>
	<station code="MNVA" name="MNVA" netid="HL" source="National Observatory of Athens Seismic Network" insttype="" lat="36.68709" lon="23.03734">
		<comp name="00.HNE" depth="0.0">
			<acc value="0.00281744665602879" flag="0"/>
			<vel value="0.00280015031997622" flag="0"/>
			<psa03 value="0.00644287775303113" flag="0"/>
			<psa10 value="0.00401069140126188" flag="0"/>
			<psa30 value="0.000568226024052051" flag="0"/>
		</comp>
		<comp name="00.HNN" depth="0.0">
			<acc value="0.00354166842653703" flag="0"/>
			<vel value="0.00391561311028513" flag="0"/>
			<psa03 value="0.00908266794350917" flag="0"/>
			<psa10 value="0.00488047989792108" flag="0"/>
			<psa30 value="0.000969563617417949" flag="0"/>
		</comp>
		<comp name="00.HNZ" depth="0.0">
			<acc value="0.00421129766005184" flag="0"/>
			<vel value="0.00363786326656412" flag="0"/>
			<psa03 value="0.0096643166295467" flag="0"/>
			<psa10 value="0.00337043042455441" flag="0"/>
			<psa30 value="0.000523036395367597" flag="0"/>
		</comp>
	</station>
	<station code="PYL" name="PYL" netid="HP" source="University of Patras, Seismological Laboratory (PSLNET)" insttype="" lat="36.8955" lon="21.742">
		<comp name="--.HNE" depth="0.0">
			<acc value="0.0074766274687426" flag="0"/>
			<vel value="0.00392804907208589" flag="0"/>
			<psa03 value="0.0199102819451309" flag="0"/>
			<psa10 value="0.0033422428343849" flag="0"/>
			<psa30 value="0.000534221947022165" flag="0"/>
		</comp>
		<comp name="--.HNN" depth="0.0">
			<acc value="0.00697711350802235" flag="0"/>
			<vel value="0.00369535303128712" flag="0"/>
			<psa03 value="0.0208946104907329" flag="0"/>
			<psa10 value="0.00548449968726775" flag="0"/>
			<psa30 value="0.000316327400791181" flag="0"/>
		</comp>
		<comp name="--.HNZ" depth="0.0">
			<acc value="0.00529764294280734" flag="0"/>
			<vel value="0.00220632336777889" flag="0"/>
			<psa03 value="0.0127962710928257" flag="0"/>
			<psa10 value="0.00210198886692641" flag="0"/>
			<psa30 value="0.000365991250137463" flag="0"/>
		</comp>
	</station>
</stationlist>
