<?xml version="1.0" encoding="UTF-8" standalone="yes"?>
<!DOCTYPE earthquake SYSTEM "stationlist.dtd">
<stationlist created="" xmlns="ch.ethz.sed.shakemap.usgs.xml">
  <station code="KTHR" name="KTHR" netid="HC" insttype="60" lat="36.2447" lon="22.9939">
    <comp name="--.HHZ">
      <acc value="0.0313886252" flag="0"/>
      <vel value="0.0139452832" flag="0"/>
      <psa03 value="0.0886037371" flag="0"/>
      <psa10 value="0.0046856990" flag="0"/>
      <psa30 value="0.0003210275" flag="0"/>
    </comp>
    <comp name="--.HHN">
      <acc value="0.0579740502" flag="0"/>
      <vel value="0.0326166376" flag="0"/>
      <psa03 value="0.2562831039" flag="0"/>
      <psa10 value="0.0139034924" flag="0"/>
      <psa30 value="0.0009454414" flag="0"/>
    </comp>
    <comp name="--.HHE">
      <acc value="0.0455540506" flag="0"/>
      <vel value="0.0269559042" flag="0"/>
      <psa03 value="0.1819105832" flag="0"/>
      <psa10 value="0.0141992329" flag="0"/>
      <psa30 value="0.0010642382" flag="0"/>
    </comp>
  </station>
</stationlist>
