<?xml version="1.0" encoding="UTF-8" standalone="yes"?>
<!DOCTYPE earthquake SYSTEM "stationlist.dtd">
<stationlist created="" xmlns="ch.ethz.sed.shakemap.usgs.xml">
  <station code="ARGN" name="ARGN" netid="KO" insttype="CMG-6T" commtype="DIG" lat="38.7763" lon="38.2639">
    <comp name="--.HHZ">
      <acc value="0.0454607794" flag="0"/>
      <vel value="0.0099305612" flag="0"/>
      <psa03 value="0.0619421238" flag="0"/>
      <psa10 value="0.0125199252" flag="0"/>
      <psa30 value="0.0004149740" flag="0"/>
    </comp>
    <comp name="--.HHE">
      <acc value="0.1023338732" flag="0"/>
      <vel value="0.0298134804" flag="0"/>
      <psa03 value="0.0930282355" flag="0"/>
      <psa10 value="0.0196241587" flag="0"/>
      <psa30 value="0.0009771212" flag="0"/>
    </comp>
    <comp name="--.HHN">
      <acc value="0.1109439389" flag="0"/>
      <vel value="0.0318162726" flag="0"/>
      <psa03 value="0.0930262891" flag="0"/>
      <psa10 value="0.0083870036" flag="0"/>
      <psa30 value="0.0006472893" flag="0"/>
    </comp>
  </station>
  <station code="ARPRA" name="ARPRA" netid="KO" insttype="CMG-5T" commtype="DIG" lat="39.0929" lon="38.3356">
    <comp name="--.HNE">
      <acc value="0.0488988537" flag="0"/>
      <vel value="0.0179414462" flag="0"/>
      <psa03 value="0.0926302192" flag="0"/>
      <psa10 value="0.0088283275" flag="0"/>
      <psa30 value="0.0010541752" flag="0"/>
    </comp>
    <comp name="--.HNZ">
      <acc value="0.0189586735" flag="0"/>
      <vel value="0.0082822895" flag="0"/>
      <psa03 value="0.0309107210" flag="0"/>
      <psa10 value="0.0052804641" flag="0"/>
      <psa30 value="0.0004195568" flag="0"/>
    </comp>
    <comp name="--.HNN">
      <acc value="0.0350149082" flag="0"/>
      <vel value="0.0165102039" flag="0"/>
      <psa03 value="0.1255332937" flag="0"/>
      <psa10 value="0.0100913181" flag="0"/>
      <psa30 value="0.0007610040" flag="0"/>
    </comp>
  </station>
  <station code="SVRC" name="SVRC" netid="KO" insttype="CMG-3T" commtype="DIG" lat="38.3775" lon="39.306">
    <comp name="--.HHE">
      <acc value="0.0376411157" flag="0"/>
      <vel value="0.0172252817" flag="0"/>
      <psa03 value="0.0770441801" flag="0"/>
      <psa10 value="0.0114544093" flag="0"/>
      <psa30 value="0.0007174246" flag="0"/>
    </comp>
    <comp name="--.HHN">
      <acc value="0.0315117672" flag="0"/>
      <vel value="0.0167353244" flag="0"/>
      <psa03 value="0.0614527254" flag="0"/>
      <psa10 value="0.0067902326" flag="0"/>
      <psa30 value="0.0005983836" flag="0"/>
    </comp>
    <comp name="--.HHZ">
      <acc value="0.0330046285" flag="0"/>
      <vel value="0.0096433728" flag="0"/>
      <psa03 value="0.0302512345" flag="0"/>
      <psa10 value="0.0078805904" flag="0"/>
      <psa30 value="0.0005262137" flag="0"/>
    </comp>
  </station>
</stationlist>
