<?xml version="1.0" encoding="UTF-8" standalone="yes"?>
<!DOCTYPE earthquake SYSTEM "stationlist.dtd">
<stationlist created="" xmlns="ch.ethz.sed.shakemap.usgs.xml">
  <station code="ARGN" name="ARGN" netid="KO" insttype="CMG-6T" commtype="DIG" lat="38.7763" lon="38.2639">
    <comp name="--.HHE">
      <acc value="0.1023338632" flag="0"/>
      <vel value="0.0298134849" flag="0"/>
      <psa03 value="0.0930282355" flag="0"/>
      <psa10 value="0.0196241587" flag="0"/>
      <psa30 value="0.0009771146" flag="0"/>
    </comp>
    <comp name="--.HHN">
      <acc value="0.1109439631" flag="0"/>
      <vel value="0.0318162738" flag="0"/>
      <psa03 value="0.0930262891" flag="0"/>
      <psa10 value="0.0083870036" flag="0"/>
      <psa30 value="0.0006472803" flag="0"/>
    </comp>
    <comp name="--.HHZ">
      <acc value="0.0454607787" flag="0"/>
      <vel value="0.0099305608" flag="0"/>
      <psa03 value="0.0619421238" flag="0"/>
      <psa10 value="0.0125199252" flag="0"/>
      <psa30 value="0.0004149783" flag="0"/>
    </comp>
  </station>
  <station code="ARPRA" name="ARPRA" netid="KO" insttype="CMG-5T" commtype="DIG" lat="39.0929" lon="38.3356">
    <comp name="--.HNE">
      <acc value="0.0488988764" flag="0"/>
      <vel value="0.0179414443" flag="0"/>
      <psa03 value="0.0926302192" flag="0"/>
      <psa10 value="0.0088283277" flag="0"/>
      <psa30 value="0.0010539964" flag="0"/>
    </comp>
    <comp name="--.HNZ">
      <acc value="0.0189586395" flag="0"/>
      <vel value="0.0082822848" flag="0"/>
      <psa03 value="0.0309107209" flag="0"/>
      <psa10 value="0.0052804638" flag="0"/>
      <psa30 value="0.0004192612" flag="0"/>
    </comp>
    <comp name="--.HNN">
      <acc value="0.0350149250" flag="0"/>
      <vel value="0.0165102080" flag="0"/>
      <psa03 value="0.1255332937" flag="0"/>
      <psa10 value="0.0100913183" flag="0"/>
      <psa30 value="0.0007605498" flag="0"/>
    </comp>
  </station>
  <station code="DARE" name="DARE" netid="KO" insttype="CMG-3ESP" commtype="DIG" lat="38.5712" lon="37.4832">
    <comp name="--.HHN">
      <acc value="0.0059908436" flag="0"/>
      <vel value="0.0025628651" flag="0"/>
      <psa03 value="0.0131820979" flag="0"/>
      <psa10 value="0.0028491553" flag="0"/>
      <psa30 value="0.0001922780" flag="0"/>
    </comp>
    <comp name="--.HHE">
      <acc value="0.0045420326" flag="0"/>
      <vel value="0.0024100142" flag="0"/>
      <psa03 value="0.0141677798" flag="0"/>
      <psa10 value="0.0022067689" flag="0"/>
      <psa30 value="0.0001831044" flag="0"/>
    </comp>
    <comp name="--.HHZ">
      <acc value="0.0046329457" flag="0"/>
      <vel value="0.0022247751" flag="0"/>
      <psa03 value="0.0101447467" flag="0"/>
      <psa10 value="0.0019290481" flag="0"/>
      <psa30 value="0.0001671617" flag="0"/>
    </comp>
  </station>
  <station code="NURH" name="NURH" netid="KO" insttype="CMG-6T" commtype="DIG" lat="37.9693" lon="37.4363">
    <comp name="--.HHZ">
      <acc value="0.0110414292" flag="0"/>
      <vel value="0.0063704696" flag="0"/>
      <psa03 value="0.0276077327" flag="0"/>
      <psa10 value="0.0065238975" flag="0"/>
      <psa30 value="0.0004142642" flag="0"/>
    </comp>
    <comp name="--.HHE">
      <acc value="0.0137354200" flag="0"/>
      <vel value="0.0066536263" flag="0"/>
      <psa03 value="0.0367928892" flag="0"/>
      <psa10 value="0.0053679652" flag="0"/>
      <psa30 value="0.0003045621" flag="0"/>
    </comp>
    <comp name="--.HHN">
      <acc value="0.0246403920" flag="0"/>
      <vel value="0.0096017415" flag="0"/>
      <psa03 value="0.0912803352" flag="0"/>
      <psa10 value="0.0094196426" flag="0"/>
      <psa30 value="0.0004986307" flag="0"/>
    </comp>
  </station>
  <station code="SINE" name="SINE" netid="KO" insttype="CMG-6T" commtype="DIG" lat="39.1636" lon="39.3871">
    <comp name="--.HHN">
      <acc value="0.0060250464" flag="0"/>
      <vel value="0.0021039410" flag="0"/>
      <psa03 value="0.0131930351" flag="0"/>
      <psa10 value="0.0022051437" flag="0"/>
      <psa30 value="0.0000898829" flag="0"/>
    </comp>
    <comp name="--.HHE">
      <acc value="0.0066900855" flag="0"/>
      <vel value="0.0026394574" flag="0"/>
      <psa03 value="0.0146989593" flag="0"/>
      <psa10 value="0.0019835681" flag="0"/>
      <psa30 value="0.0000865365" flag="0"/>
    </comp>
    <comp name="--.HHZ">
      <acc value="0.0046199360" flag="0"/>
      <vel value="0.0016221871" flag="0"/>
      <psa03 value="0.0124116326" flag="0"/>
      <psa10 value="0.0016371292" flag="0"/>
      <psa30 value="0.0000952689" flag="0"/>
    </comp>
  </station>
  <station code="SVRC" name="SVRC" netid="KO" insttype="CMG-3T" commtype="DIG" lat="38.3775" lon="39.306">
    <comp name="--.HHE">
      <acc value="0.0376411159" flag="0"/>
      <vel value="0.0172252824" flag="0"/>
      <psa03 value="0.0770441801" flag="0"/>
      <psa10 value="0.0114544093" flag="0"/>
      <psa30 value="0.0007174197" flag="0"/>
    </comp>
    <comp name="--.HHN">
      <acc value="0.0315117670" flag="0"/>
      <vel value="0.0167353246" flag="0"/>
      <psa03 value="0.0614527254" flag="0"/>
      <psa10 value="0.0067902326" flag="0"/>
      <psa30 value="0.0005983882" flag="0"/>
    </comp>
    <comp name="--.HHZ">
      <acc value="0.0330046286" flag="0"/>
      <vel value="0.0096433725" flag="0"/>
      <psa03 value="0.0302512345" flag="0"/>
      <psa10 value="0.0078805904" flag="0"/>
      <psa30 value="0.0005261996" flag="0"/>
    </comp>
  </station>
</stationlist>
