<stationlist xmlns:esm="https://esm-db.eu/esmws/shakemap/1/" created="1782397430">
	<station code="ARPRA" name="ARPRA" netid="KO" source="Bogazici University Kandilli Observatory And Earthquake Research Institute (KOERI)" insttype="" lat="39.0929" lon="38.3356" esm:processing="automatic (Paolucci et al 2011)" esm:quality="best">
		<comp name="--.HNE" depth="0.0">
			<acc value="0.0492271583566397" flag="0"/>
			<vel value="0.018140653822165" flag="0"/>
			<psa03 value="0.0942291588859901" flag="0"/>
			<psa10 value="0.00876270954900247" flag="0"/>
			<psa30 value="0.000983643911581668" flag="0"/>
		</comp>
		<comp name="--.HNN" depth="0.0">
			<acc value="0.0348520833985519" flag="0"/>
			<vel value="0.0165857447789268" flag="0"/>
			<psa03 value="0.126367423304948" flag="0"/>
			<psa10 value="0.0100882076692477" flag="0"/>
			<psa30 value="0.000734741537604275" flag="0"/>
		</comp>
		<comp name="--.HNZ" depth="0.0">
			<acc value="0.0188070044530584" flag="0"/>
			<vel value="0.00829671420579533" flag="0"/>
			<psa03 value="0.0309997619154213" flag="0"/>
			<psa10 value="0.00527348168603079" flag="0"/>
			<psa30 value="0.000387766937656558" flag="0"/>
		</comp>
	</station>
</stationlist>
