<?xml version="1.0" encoding="UTF-8" standalone="yes"?>
<!DOCTYPE earthquake SYSTEM "stationlist.dtd">
<stationlist created="" xmlns="ch.ethz.sed.shakemap.usgs.xml">
  <station code="CEYT" name="CEYT" netid="KO" insttype="CMG-3ESP" lat="37.0105" lon="35.7478">
    <comp name="--.HHE">
      <acc value="0.0135720182" flag="0"/>
      <vel value="0.0064927140" flag="0"/>
      <psa03 value="0.0341636315" flag="0"/>
      <psa10 value="0.0053472137" flag="0"/>
      <psa30 value="0.0004385976" flag="0"/>
    </comp>
    <comp name="--.HHZ">
      <acc value="0.0069721276" flag="0"/>
      <vel value="0.0033796010" flag="0"/>
      <psa03 value="0.0201487040" flag="0"/>
      <psa10 value="0.0066252561" flag="0"/>
      <psa30 value="0.0004038091" flag="0"/>
    </comp>
    <comp name="--.HHN">
      <acc value="0.0079786160" flag="0"/>
      <vel value="0.0074831930" flag="0"/>
      <psa03 value="0.0266243943" flag="0"/>
      <psa10 value="0.0067907878" flag="0"/>
      <psa30 value="0.0006956341" flag="0"/>
    </comp>
  </station>
</stationlist>
