<?xml version="1.0" encoding="UTF-8" standalone="yes"?>
<!DOCTYPE earthquake SYSTEM "stationlist.dtd">
<stationlist created="" xmlns="ch.ethz.sed.shakemap.usgs.xml">
  <station code="CEYT" name="CEYT" netid="KO" insttype="CMG-3ESP" lat="37.0105" lon="35.7478">
    <comp name="--.HHE">
      <acc value="0.0135720180" flag="0"/>
      <vel value="0.0064927193" flag="0"/>
      <psa03 value="0.0341636315" flag="0"/>
      <psa10 value="0.0053472137" flag="0"/>
      <psa30 value="0.0004386794" flag="0"/>
    </comp>
    <comp name="--.HHN">
      <acc value="0.0079786157" flag="0"/>
      <vel value="0.0074831935" flag="0"/>
      <psa03 value="0.0266243943" flag="0"/>
      <psa10 value="0.0067907878" flag="0"/>
      <psa30 value="0.0006955606" flag="0"/>
    </comp>
    <comp name="--.HHZ">
      <acc value="0.0069721278" flag="0"/>
      <vel value="0.0033796011" flag="0"/>
      <psa03 value="0.0201487040" flag="0"/>
      <psa10 value="0.0066252561" flag="0"/>
      <psa30 value="0.0004038301" flag="0"/>
    </comp>
  </station>
</stationlist>
