<stationlist created="1778138468">
	<station code="ABEA" name="ABEA" netid="HC" source="Seismological Network of Crete (HC)" insttype="" lat="35.5163" lon="24.0113">
		<comp name="--.HNE" depth="0.0">
			<acc value="0.0516478326540351" flag="0"/>
			<vel value="0.0403720507909543" flag="0"/>
			<psa03 value="0.181890486852128" flag="0"/>
			<psa10 value="0.0784135020097904" flag="0"/>
			<psa30 value="0.00477306410874891" flag="0"/>
		</comp>
		<comp name="--.HNN" depth="0.0">
			<acc value="0.0506331009853278" flag="0"/>
			<vel value="0.0364346149054625" flag="0"/>
			<psa03 value="0.208595818449116" flag="0"/>
			<psa10 value="0.0479434160159" flag="0"/>
			<psa30 value="0.00489216699870526" flag="0"/>
		</comp>
		<comp name="--.HNZ" depth="0.0">
			<acc value="0.0351930333429861" flag="0"/>
			<vel value="0.0254862382431635" flag="0"/>
			<psa03 value="0.0959922756836531" flag="0"/>
			<psa10 value="0.0566308102633019" flag="0"/>
			<psa30 value="0.00294377396891082" flag="0"/>
		</comp>
	</station>
	<station code="ATEI" name="ATEI" netid="HC" source="Seismological Network of Crete (HC)" insttype="" lat="35.5193" lon="24.0432">
		<comp name="--.HNE" depth="0.0">
			<acc value="0.0492468841540879" flag="0"/>
			<vel value="0.0400410194885889" flag="0"/>
			<psa03 value="0.161578776717821" flag="0"/>
			<psa10 value="0.0839926791026939" flag="0"/>
			<psa30 value="0.00379053235416538" flag="0"/>
		</comp>
		<comp name="--.HNN" depth="0.0">
			<acc value="0.0514420522086818" flag="0"/>
			<vel value="0.0392259113967158" flag="0"/>
			<psa03 value="0.146117960847643" flag="0"/>
			<psa10 value="0.0681460793431754" flag="0"/>
			<psa30 value="0.00421509922963825" flag="0"/>
		</comp>
		<comp name="--.HNZ" depth="0.0">
			<acc value="0.0375705530179798" flag="0"/>
			<vel value="0.0312620324992968" flag="0"/>
			<psa03 value="0.126880519795259" flag="0"/>
			<psa10 value="0.0415515525863715" flag="0"/>
			<psa30 value="0.0028262282654208" flag="0"/>
		</comp>
	</station>
	<station code="DEYA" name="DEYA" netid="HC" source="Seismological Network of Crete (HC)" insttype="" lat="35.4825" lon="24.014">
		<comp name="--.HNE" depth="0.0">
			<acc value="0.104153611429536" flag="0"/>
			<vel value="0.0958978442999771" flag="0"/>
			<psa03 value="0.293275073867541" flag="0"/>
			<psa10 value="0.234990311955012" flag="0"/>
			<psa30 value="0.00859510438349408" flag="0"/>
		</comp>
		<comp name="--.HNN" depth="0.0">
			<acc value="0.0874507394962196" flag="0"/>
			<vel value="0.0639267834823444" flag="0"/>
			<psa03 value="0.242956928037377" flag="0"/>
			<psa10 value="0.106272087504283" flag="0"/>
			<psa30 value="0.00490474283179163" flag="0"/>
		</comp>
		<comp name="--.HNZ" depth="0.0">
			<acc value="0.0793574727167877" flag="0"/>
			<vel value="0.0645821511196951" flag="0"/>
			<psa03 value="0.167324001060365" flag="0"/>
			<psa10 value="0.103008208788391" flag="0"/>
			<psa30 value="0.00419642215904039" flag="0"/>
		</comp>
	</station>
	<station code="G0LD" name="G0LD" netid="HC" source="Seismological Network of Crete (HC)" insttype="" lat="35.4955" lon="24.0306">
		<comp name="--.HNE" depth="0.0">
			<acc value="0.119145347246307" flag="0"/>
			<vel value="0.114084257611331" flag="0"/>
			<psa03 value="0.481577610485636" flag="0"/>
			<psa10 value="0.250544197323614" flag="0"/>
			<psa30 value="0.010006280366956" flag="0"/>
		</comp>
		<comp name="--.HNN" depth="0.0">
			<acc value="0.1319267354442" flag="0"/>
			<vel value="0.123249716899998" flag="0"/>
			<psa03 value="0.47122634143379" flag="0"/>
			<psa10 value="0.290421488998462" flag="0"/>
			<psa30 value="0.00820841876746171" flag="0"/>
		</comp>
		<comp name="--.HNZ" depth="0.0">
			<acc value="0.101358852905378" flag="0"/>
			<vel value="0.0755109370011431" flag="0"/>
			<psa03 value="0.249870573532408" flag="0"/>
			<psa10 value="0.127194896037591" flag="0"/>
			<psa30 value="0.00495028043180251" flag="0"/>
		</comp>
	</station>
	<station code="MULT" name="MULT" netid="HC" source="Seismological Network of Crete (HC)" insttype="" lat="35.5091" lon="24.0118">
		<comp name="--.HNE" depth="0.0">
			<acc value="0.0997182333970426" flag="0"/>
			<vel value="0.0592832808895604" flag="0"/>
			<psa03 value="0.13974798678477" flag="0"/>
			<psa10 value="0.0988955963478597" flag="0"/>
			<psa30 value="0.00448236943499832" flag="0"/>
		</comp>
		<comp name="--.HNN" depth="0.0">
			<acc value="0.0752940366415757" flag="0"/>
			<vel value="0.0514550003324224" flag="0"/>
			<psa03 value="0.19859905204605" flag="0"/>
			<psa10 value="0.0754790151141936" flag="0"/>
			<psa30 value="0.00599791566580615" flag="0"/>
		</comp>
		<comp name="--.HNZ" depth="0.0">
			<acc value="0.0593797088880501" flag="0"/>
			<vel value="0.0371529532821855" flag="0"/>
			<psa03 value="0.0969530789157161" flag="0"/>
			<psa10 value="0.0655835645893672" flag="0"/>
			<psa30 value="0.00471369267567228" flag="0"/>
		</comp>
	</station>
	<station code="NERO" name="NERO" netid="HC" source="Seismological Network of Crete (HC)" insttype="" lat="35.474" lon="24.0423">
		<comp name="--.HNE" depth="0.0">
			<acc value="0.0590233968706571" flag="0"/>
			<vel value="0.0520929801910698" flag="0"/>
			<psa03 value="0.217327876071977" flag="0"/>
			<psa10 value="0.0683554932159515" flag="0"/>
			<psa30 value="0.00416680311358897" flag="0"/>
		</comp>
		<comp name="--.HNN" depth="0.0">
			<acc value="0.0741502377244652" flag="0"/>
			<vel value="0.0539111641633404" flag="0"/>
			<psa03 value="0.247682699429885" flag="0"/>
			<psa10 value="0.0548006027711649" flag="0"/>
			<psa30 value="0.00285265459936927" flag="0"/>
		</comp>
		<comp name="--.HNZ" depth="0.0">
			<acc value="0.0500247034471375" flag="0"/>
			<vel value="0.0395922881568531" flag="0"/>
			<psa03 value="0.180800060450235" flag="0"/>
			<psa10 value="0.0447375161408074" flag="0"/>
			<psa30 value="0.00231664075774573" flag="0"/>
		</comp>
	</station>
	<station code="PASK" name="PASK" netid="HC" source="Seismological Network of Crete (HC)" insttype="" lat="35.4996" lon="24.0121">
		<comp name="--.HNE" depth="0.0">
			<acc value="0.082144116478926" flag="0"/>
			<vel value="0.0620622445465019" flag="0"/>
			<psa03 value="0.22241144199964" flag="0"/>
			<psa10 value="0.110274037613702" flag="0"/>
			<psa30 value="0.00505446733363932" flag="0"/>
		</comp>
		<comp name="--.HNN" depth="0.0">
			<acc value="0.0899329738494312" flag="0"/>
			<vel value="0.0670056533214517" flag="0"/>
			<psa03 value="0.249997561111551" flag="0"/>
			<psa10 value="0.0851699945942725" flag="0"/>
			<psa30 value="0.00762780613804557" flag="0"/>
		</comp>
		<comp name="--.HNZ" depth="0.0">
			<acc value="0.0447676149615006" flag="0"/>
			<vel value="0.0321672531742494" flag="0"/>
			<psa03 value="0.196930983211093" flag="0"/>
			<psa10 value="0.0419957132597373" flag="0"/>
			<psa30 value="0.00331675451037325" flag="0"/>
		</comp>
	</station>
	<station code="POLY" name="POLY" netid="HC" source="Seismological Network of Crete (HC)" insttype="" lat="35.5226" lon="24.0602">
		<comp name="--.HNE" depth="0.0">
			<acc value="0.0443594549562108" flag="0"/>
			<vel value="0.0404301474550398" flag="0"/>
			<psa03 value="0.137191359087646" flag="0"/>
			<psa10 value="0.0614361498433239" flag="0"/>
			<psa30 value="0.00449875968741643" flag="0"/>
		</comp>
		<comp name="--.HNN" depth="0.0">
			<acc value="0.0510486544999348" flag="0"/>
			<vel value="0.0402433805706015" flag="0"/>
			<psa03 value="0.160868740098083" flag="0"/>
			<psa10 value="0.0364699397045056" flag="0"/>
			<psa30 value="0.00389985167936848" flag="0"/>
		</comp>
		<comp name="--.HNZ" depth="0.0">
			<acc value="0.0345208943512782" flag="0"/>
			<vel value="0.0277844697965904" flag="0"/>
			<psa03 value="0.100890100140473" flag="0"/>
			<psa10 value="0.0286336268372565" flag="0"/>
			<psa30 value="0.00235124138320258" flag="0"/>
		</comp>
	</station>
	<station code="SOUD" name="SOUD" netid="HC" source="Seismological Network of Crete (HC)" insttype="" lat="35.4878" lon="24.0678">
		<comp name="--.HNE" depth="0.0">
			<acc value="0.188006314040128" flag="0"/>
			<vel value="0.0981419387407209" flag="0"/>
			<psa03 value="0.511303496348871" flag="0"/>
			<psa10 value="0.120546575619217" flag="0"/>
			<psa30 value="0.00471410478629415" flag="0"/>
		</comp>
		<comp name="--.HNN" depth="0.0">
			<acc value="0.16040524353696" flag="0"/>
			<vel value="0.108470437981343" flag="0"/>
			<psa03 value="0.376160877145295" flag="0"/>
			<psa10 value="0.104471233206282" flag="0"/>
			<psa30 value="0.00458530667071811" flag="0"/>
		</comp>
		<comp name="--.HNZ" depth="0.0">
			<acc value="0.00631783448326026" flag="0"/>
			<vel value="0.00691318928617794" flag="0"/>
			<psa03 value="0.00677938920541037" flag="0"/>
			<psa10 value="0.00394625704516184" flag="0"/>
			<psa30 value="0.00208792185624463" flag="0"/>
		</comp>
	</station>
	<station code="CH01" name="CH01" netid="HI" source="ITSAK Strong Motion Network" insttype="" lat="35.517" lon="24.0208">
		<comp name="--.HNE" depth="0.0">
			<acc value="0.0603023677254444" flag="0"/>
			<vel value="0.0442516847186642" flag="0"/>
			<psa03 value="0.170349451481942" flag="0"/>
			<psa10 value="0.0649273986215526" flag="0"/>
			<psa30 value="0.00468324065835451" flag="0"/>
		</comp>
		<comp name="--.HNN" depth="0.0">
			<acc value="0.0536355542870322" flag="0"/>
			<vel value="0.0462309734249608" flag="0"/>
			<psa03 value="0.149283003849655" flag="0"/>
			<psa10 value="0.0589585519646123" flag="0"/>
			<psa30 value="0.00474708113747781" flag="0"/>
		</comp>
		<comp name="--.HNZ" depth="0.0">
			<acc value="0.044860683871991" flag="0"/>
			<vel value="0.0228839044541901" flag="0"/>
			<psa03 value="0.0800981915287011" flag="0"/>
			<psa10 value="0.0418841171172532" flag="0"/>
			<psa30 value="0.00256067296535121" flag="0"/>
		</comp>
	</station>
	<station code="KSS1" name="KSS1" netid="HI" source="ITSAK Strong Motion Network" insttype="" lat="35.4189" lon="26.9207">
		<comp name="--.HNE" depth="0.0">
			<acc value="0.0141120689129935" flag="0"/>
			<vel value="0.00722486021840548" flag="0"/>
			<psa03 value="0.04515150148199" flag="0"/>
			<psa10 value="0.00680764831703071" flag="0"/>
			<psa30 value="0.00077607031710168" flag="0"/>
		</comp>
		<comp name="--.HNN" depth="0.0">
			<acc value="0.0145656642747591" flag="0"/>
			<vel value="0.00826214561189439" flag="0"/>
			<psa03 value="0.0337306719914701" flag="0"/>
			<psa10 value="0.0122454780778289" flag="0"/>
			<psa30 value="0.00101799691646417" flag="0"/>
		</comp>
		<comp name="--.HNZ" depth="0.0">
			<acc value="0.00677236088997635" flag="0"/>
			<vel value="0.00488302504063047" flag="0"/>
			<psa03 value="0.0110579577958407" flag="0"/>
			<psa10 value="0.00698087416742223" flag="0"/>
			<psa30 value="0.00141010820441468" flag="0"/>
		</comp>
	</station>
	<station code="SIT2" name="SIT2" netid="HI" source="ITSAK Strong Motion Network" insttype="" lat="35.2059" lon="26.107">
		<comp name="--.HNE" depth="0.0">
			<acc value="0.132578660124576" flag="0"/>
			<vel value="0.100387704902758" flag="0"/>
			<psa03 value="0.320854525871209" flag="0"/>
			<psa10 value="0.117829130601646" flag="0"/>
			<psa30 value="0.00515606031369835" flag="0"/>
		</comp>
		<comp name="--.HNN" depth="0.0">
			<acc value="0.146048948393599" flag="0"/>
			<vel value="0.109735201489206" flag="0"/>
			<psa03 value="0.484447467268068" flag="0"/>
			<psa10 value="0.0843246960972876" flag="0"/>
			<psa30 value="0.00460113980293322" flag="0"/>
		</comp>
		<comp name="--.HNZ" depth="0.0">
			<acc value="0.0985993788057397" flag="0"/>
			<vel value="0.0341466735100309" flag="0"/>
			<psa03 value="0.316937578892478" flag="0"/>
			<psa10 value="0.020960296016727" flag="0"/>
			<psa30 value="0.00351627126904699" flag="0"/>
		</comp>
	</station>
	<station code="AGNA" name="AGNA" netid="HL" source="National Observatory of Athens Seismic Network" insttype="" lat="35.1895" lon="25.71853">
		<comp name="00.HNE" depth="0.0">
			<acc value="0.116547011250271" flag="0"/>
			<vel value="0.0534993448375469" flag="0"/>
			<psa03 value="0.264306717356026" flag="0"/>
			<psa10 value="0.0814800501536257" flag="0"/>
			<psa30 value="0.00637455353286505" flag="0"/>
		</comp>
		<comp name="00.HNN" depth="0.0">
			<acc value="0.11039810964413" flag="0"/>
			<vel value="0.0613263763570295" flag="0"/>
			<psa03 value="0.223335711561405" flag="0"/>
			<psa10 value="0.122771920537151" flag="0"/>
			<psa30 value="0.00774052693857677" flag="0"/>
		</comp>
		<comp name="00.HNZ" depth="0.0">
			<acc value="0.0893189472382994" flag="0"/>
			<vel value="0.0399245925014006" flag="0"/>
			<psa03 value="0.172629415018275" flag="0"/>
			<psa10 value="0.0585825145542077" flag="0"/>
			<psa30 value="0.00549056372291406" flag="0"/>
		</comp>
	</station>
	<station code="ANKY" name="ANKY" netid="HL" source="National Observatory of Athens Seismic Network" insttype="" lat="35.86704" lon="23.30117">
		<comp name="00.HNE" depth="0.0">
			<acc value="0.0150458461146422" flag="0"/>
			<vel value="0.00910900672736106" flag="0"/>
			<psa03 value="0.032797164838694" flag="0"/>
			<psa10 value="0.013156321541734" flag="0"/>
			<psa30 value="0.00225042428789605" flag="0"/>
		</comp>
		<comp name="00.HNN" depth="0.0">
			<acc value="0.0136044281681057" flag="0"/>
			<vel value="0.0117340336346713" flag="0"/>
			<psa03 value="0.0356462233665118" flag="0"/>
			<psa10 value="0.0144076659996579" flag="0"/>
			<psa30 value="0.00169037052041866" flag="0"/>
		</comp>
		<comp name="00.HNZ" depth="0.0">
			<acc value="0.00760585736417453" flag="0"/>
			<vel value="0.00616440934551799" flag="0"/>
			<psa03 value="0.0197799236041129" flag="0"/>
			<psa10 value="0.0063335255024677" flag="0"/>
			<psa30 value="0.00104243874394955" flag="0"/>
		</comp>
	</station>
	<station code="CHNB" name="CHNB" netid="HL" source="National Observatory of Athens Seismic Network" insttype="" lat="35.48765" lon="24.06605">
		<comp name="00.HNE" depth="0.0">
			<acc value="0.188331882109408" flag="0"/>
			<vel value="0.139135911598968" flag="0"/>
			<psa03 value="0.560907657381259" flag="0"/>
			<psa10 value="0.164856015902108" flag="0"/>
			<psa30 value="0.00833261866176636" flag="0"/>
		</comp>
		<comp name="00.HNN" depth="0.0">
			<acc value="0.131269834899056" flag="0"/>
			<vel value="0.128454722787381" flag="0"/>
			<psa03 value="0.375012884429775" flag="0"/>
			<psa10 value="0.161962909247796" flag="0"/>
			<psa30 value="0.00675184060965518" flag="0"/>
		</comp>
		<comp name="00.HNZ" depth="0.0">
			<acc value="0.121214559284334" flag="0"/>
			<vel value="0.0797928558591567" flag="0"/>
			<psa03 value="0.321040350681124" flag="0"/>
			<psa10 value="0.0392027832419857" flag="0"/>
			<psa30 value="0.00269195332869867" flag="0"/>
		</comp>
	</station>
	<station code="HERG" name="HERG" netid="HL" source="National Observatory of Athens Seismic Network" insttype="" lat="35.32622" lon="25.06586">
		<comp name="00.HNE" depth="0.0">
			<acc value="0.466687916116295" flag="0"/>
			<vel value="0.433247342855558" flag="0"/>
			<psa03 value="1.59824737604415" flag="0"/>
			<psa10 value="0.636576530069441" flag="0"/>
			<psa30 value="0.0428875010864648" flag="0"/>
		</comp>
		<comp name="00.HNN" depth="0.0">
			<acc value="0.491455991834307" flag="0"/>
			<vel value="0.412766888128408" flag="0"/>
			<psa03 value="1.03861246964668" flag="0"/>
			<psa10 value="0.664115534395739" flag="0"/>
			<psa30 value="0.0324175908396269" flag="0"/>
		</comp>
		<comp name="00.HNZ" depth="0.0">
			<acc value="0.553366643393071" flag="0"/>
			<vel value="0.299096085691887" flag="0"/>
			<psa03 value="0.799945742479056" flag="0"/>
			<psa10 value="0.293289709003774" flag="0"/>
			<psa30 value="0.0134669304513702" flag="0"/>
		</comp>
	</station>
	<station code="IACM" name="IACM" netid="HL" source="National Observatory of Athens Seismic Network" insttype="" lat="35.3058" lon="25.0709">
		<comp name="--.HNE" depth="0.0">
			<acc value="1.64903057536532" flag="0"/>
			<vel value="0.902693242619035" flag="0"/>
			<psa03 value="4.9294185497885" flag="0"/>
			<psa10 value="0.982473944075444" flag="0"/>
			<psa30 value="0.0600653390338106" flag="0"/>
		</comp>
		<comp name="--.HNN" depth="0.0">
			<acc value="1.17472033714839" flag="0"/>
			<vel value="0.851575382377703" flag="0"/>
			<psa03 value="4.01330452839471" flag="0"/>
			<psa10 value="0.91337054631614" flag="0"/>
			<psa30 value="0.0470347724897085" flag="0"/>
		</comp>
		<comp name="--.HNZ" depth="0.0">
			<acc value="0.987898523473873" flag="0"/>
			<vel value="0.411908607788518" flag="0"/>
			<psa03 value="2.47909472786038" flag="0"/>
			<psa10 value="0.451487998865708" flag="0"/>
			<psa30 value="0.0203402557754609" flag="0"/>
		</comp>
	</station>
	<station code="IMMV" name="IMMV" netid="HL" source="National Observatory of Athens Seismic Network" insttype="" lat="35.4606" lon="23.9811">
		<comp name="--.HNE" depth="0.0">
			<acc value="0.0684362059113776" flag="0"/>
			<vel value="0.0551881589678162" flag="0"/>
			<psa03 value="0.246973048252176" flag="0"/>
			<psa10 value="0.0889889250794856" flag="0"/>
			<psa30 value="0.00378056294373982" flag="0"/>
		</comp>
		<comp name="--.HNN" depth="0.0">
			<acc value="0.0627363885815152" flag="0"/>
			<vel value="0.0396063628544401" flag="0"/>
			<psa03 value="0.237242611991921" flag="0"/>
			<psa10 value="0.0450805776171153" flag="0"/>
			<psa30 value="0.00273613167196228" flag="0"/>
		</comp>
		<comp name="--.HNZ" depth="0.0">
			<acc value="0.0535434398872035" flag="0"/>
			<vel value="0.0339289832153637" flag="0"/>
			<psa03 value="0.152911244202909" flag="0"/>
			<psa10 value="0.039862939474098" flag="0"/>
			<psa30 value="0.00224412845416124" flag="0"/>
		</comp>
	</station>
	<station code="KARP" name="KARP" netid="HL" source="National Observatory of Athens Seismic Network" insttype="" lat="35.5471" lon="27.16106">
		<comp name="--.HNE" depth="0.0">
			<acc value="0.0184522558827209" flag="0"/>
			<vel value="0.00886406717212759" flag="0"/>
			<psa03 value="0.0466894471135841" flag="0"/>
			<psa10 value="0.0209842113510073" flag="0"/>
			<psa30 value="0.000961278784167383" flag="0"/>
		</comp>
		<comp name="--.HNN" depth="0.0">
			<acc value="0.0173698582113556" flag="0"/>
			<vel value="0.00800068093071268" flag="0"/>
			<psa03 value="0.0389480332410733" flag="0"/>
			<psa10 value="0.013499829297419" flag="0"/>
			<psa30 value="0.00112749604524462" flag="0"/>
		</comp>
		<comp name="--.HNZ" depth="0.0">
			<acc value="0.0103988178940569" flag="0"/>
			<vel value="0.00631339123592872" flag="0"/>
			<psa03 value="0.0199397714328431" flag="0"/>
			<psa10 value="0.00909605038120393" flag="0"/>
			<psa30 value="0.000767679969611719" flag="0"/>
		</comp>
	</station>
	<station code="MILA" name="MILA" netid="HL" source="National Observatory of Athens Seismic Network" insttype="" lat="36.74288" lon="24.4282">
		<comp name="00.HNE" depth="0.0">
			<acc value="0.0183941817651492" flag="0"/>
			<vel value="0.0138396110063694" flag="0"/>
			<psa03 value="0.0547853532191121" flag="0"/>
			<psa10 value="0.0187985496866386" flag="0"/>
			<psa30 value="0.00164205992424325" flag="0"/>
		</comp>
		<comp name="00.HNN" depth="0.0">
			<acc value="0.0244636827900951" flag="0"/>
			<vel value="0.0151956436670621" flag="0"/>
			<psa03 value="0.0831543575265745" flag="0"/>
			<psa10 value="0.02265921856204" flag="0"/>
			<psa30 value="0.0031577977302672" flag="0"/>
		</comp>
		<comp name="00.HNZ" depth="0.0">
			<acc value="0.0161774336722648" flag="0"/>
			<vel value="0.00992143765300502" flag="0"/>
			<psa03 value="0.0352772848636459" flag="0"/>
			<psa10 value="0.0174052442619928" flag="0"/>
			<psa30 value="0.00158774153425219" flag="0"/>
		</comp>
	</station>
	<station code="SIVA" name="SIVA" netid="HL" source="National Observatory of Athens Seismic Network" insttype="" lat="35.01777" lon="24.81204">
		<comp name="00.HNE" depth="0.0">
			<acc value="0.492299616806437" flag="0"/>
