<?xml version="1.0" encoding="UTF-8" standalone="yes"?>
<!DOCTYPE earthquake SYSTEM "stationlist.dtd">
<stationlist created="" xmlns="ch.ethz.sed.shakemap.usgs.xml">
  <station code="GVD" name="GVD" netid="GE" insttype="STS-2/N" lat="34.8391" lon="24.0874">
    <comp name="--.HHN">
      <acc value="0.0342492622" flag="0"/>
      <vel value="0.0218338727" flag="0"/>
      <psa03 value="0.0799069389" flag="0"/>
      <psa10 value="0.0169079680" flag="0"/>
      <psa30 value="0.0023912132" flag="0"/>
    </comp>
    <comp name="--.HHZ">
      <acc value="0.0161958692" flag="0"/>
      <vel value="0.0075984990" flag="0"/>
      <psa03 value="0.0524350998" flag="0"/>
      <psa10 value="0.0053726761" flag="0"/>
      <psa30 value="0.0008838559" flag="0"/>
    </comp>
    <comp name="--.HHE">
      <acc value="0.0348446556" flag="0"/>
      <vel value="0.0191123856" flag="0"/>
      <psa03 value="0.0813050268" flag="0"/>
      <psa10 value="0.0127015731" flag="0"/>
      <psa30 value="0.0009215457" flag="0"/>
    </comp>
  </station>
  <station code="IMMV" name="IMMV" netid="GE" insttype="STS-2/N" lat="35.4606" lon="23.9811">
    <comp name="--.HHE">
      <acc value="0.0725899865" flag="0"/>
      <vel value="0.0586698557" flag="0"/>
      <psa03 value="0.2639601050" flag="0"/>
      <psa10 value="0.0929533796" flag="0"/>
      <psa30 value="0.0037883930" flag="0"/>
    </comp>
    <comp name="--.HHN">
      <acc value="0.0652826747" flag="0"/>
      <vel value="0.0410610458" flag="0"/>
      <psa03 value="0.2508054678" flag="0"/>
      <psa10 value="0.0461859201" flag="0"/>
      <psa30 value="0.0025543551" flag="0"/>
    </comp>
    <comp name="--.HHZ">
      <acc value="0.0545651446" flag="0"/>
      <vel value="0.0335147630" flag="0"/>
      <psa03 value="0.1593453414" flag="0"/>
      <psa10 value="0.0404757844" flag="0"/>
      <psa30 value="0.0021475008" flag="0"/>
    </comp>
  </station>
  <station code="ZKR" name="ZKR" netid="GE" insttype="STS-2/N" lat="35.1147" lon="26.2169">
    <comp name="--.HHE">
      <acc value="0.0481113612" flag="0"/>
      <vel value="0.0346542780" flag="0"/>
      <psa03 value="0.1510489699" flag="0"/>
      <psa10 value="0.0473567576" flag="0"/>
      <psa30 value="0.0024031905" flag="0"/>
    </comp>
    <comp name="--.HHN">
      <acc value="0.0280223911" flag="0"/>
      <vel value="0.0202017898" flag="0"/>
      <psa03 value="0.1117730682" flag="0"/>
      <psa10 value="0.0183414816" flag="0"/>
      <psa30 value="0.0010037875" flag="0"/>
    </comp>
    <comp name="--.HHZ">
      <acc value="0.0263311484" flag="0"/>
      <vel value="0.0139208198" flag="0"/>
      <psa03 value="0.0555337225" flag="0"/>
      <psa10 value="0.0276710031" flag="0"/>
      <psa30 value="0.0018617541" flag="0"/>
    </comp>
  </station>
  <station code="CHAN" name="CHAN" netid="HC" insttype="120" lat="35.5193" lon="24.0428">
    <comp name="--.HHZ">
      <acc value="0.0709512616" flag="0"/>
      <vel value="0.0594107986" flag="0"/>
      <psa03 value="0.2474861080" flag="0"/>
      <psa10 value="0.0796512355" flag="0"/>
      <psa30 value="0.0051698750" flag="0"/>
    </comp>
    <comp name="--.HHE">
      <acc value="0.1031719658" flag="0"/>
      <vel value="0.0835304047" flag="0"/>
      <psa03 value="0.3034752284" flag="0"/>
      <psa10 value="0.1616263909" flag="0"/>
      <psa30 value="0.0070090975" flag="0"/>
    </comp>
    <comp name="--.HHN">
      <acc value="0.0864695742" flag="0"/>
      <vel value="0.0709203635" flag="0"/>
      <psa03 value="0.2500872563" flag="0"/>
      <psa10 value="0.1233709501" flag="0"/>
      <psa30 value="0.0062993904" flag="0"/>
    </comp>
  </station>
  <station code="GVDS" name="GVDS" netid="HC" insttype="60" lat="34.8389" lon="24.0585">
    <comp name="--.HHZ">
      <acc value="0.0113298399" flag="0"/>
      <vel value="0.0045052606" flag="0"/>
      <psa03 value="0.0174357712" flag="0"/>
      <psa10 value="0.0047513779" flag="0"/>
      <psa30 value="0.0006982952" flag="0"/>
    </comp>
    <comp name="--.HHN">
      <acc value="0.0273136279" flag="0"/>
      <vel value="0.0137913676" flag="0"/>
      <psa03 value="0.0637299464" flag="0"/>
      <psa10 value="0.0184484764" flag="0"/>
      <psa30 value="0.0019244820" flag="0"/>
    </comp>
    <comp name="--.HHE">
      <acc value="0.0246203208" flag="0"/>
      <vel value="0.0123062414" flag="0"/>
      <psa03 value="0.0947702065" flag="0"/>
      <psa10 value="0.0143545722" flag="0"/>
      <psa30 value="0.0008532529" flag="0"/>
    </comp>
  </station>
  <station code="IMOD" name="IMOD" netid="HC" insttype="120" lat="34.9731" lon="24.7995">
    <comp name="--.HHE">
      <acc value="0.2157519932" flag="0"/>
      <vel value="0.1288349089" flag="0"/>
      <psa03 value="0.5635377853" flag="0"/>
      <psa10 value="0.1000848220" flag="0"/>
      <psa30 value="0.0055180385" flag="0"/>
    </comp>
    <comp name="--.HHN">
      <acc value="0.2941425268" flag="0"/>
      <vel value="0.2250566347" flag="0"/>
      <psa03 value="0.7004977338" flag="0"/>
      <psa10 value="0.1578426244" flag="0"/>
      <psa30 value="0.0085118306" flag="0"/>
    </comp>
    <comp name="--.HHZ">
      <acc value="0.1462303510" flag="0"/>
      <vel value="0.0769387740" flag="0"/>
      <psa03 value="0.3347448956" flag="0"/>
      <psa10 value="0.0799153209" flag="0"/>
      <psa30 value="0.0029302149" flag="0"/>
    </comp>
  </station>
  <station code="KNDR" name="KNDR" netid="HC" insttype="120" lat="35.2348" lon="23.6248">
    <comp name="--.HHN">
      <acc value="0.0271419951" flag="0"/>
      <vel value="0.0211385357" flag="0"/>
      <psa03 value="0.0734946471" flag="0"/>
      <psa10 value="0.0289104401" flag="0"/>
      <psa30 value="0.0012923472" flag="0"/>
    </comp>
    <comp name="--.HHZ">
      <acc value="0.0168542814" flag="0"/>
      <vel value="0.0092740219" flag="0"/>
      <psa03 value="0.0430093963" flag="0"/>
      <psa10 value="0.0092667755" flag="0"/>
      <psa30 value="0.0005367591" flag="0"/>
    </comp>
    <comp name="--.HHE">
      <acc value="0.0255662753" flag="0"/>
      <vel value="0.0182072383" flag="0"/>
      <psa03 value="0.1066739571" flag="0"/>
      <psa10 value="0.0333339632" flag="0"/>
      <psa30 value="0.0010330945" flag="0"/>
    </comp>
  </station>
  <station code="KNSS" name="KNSS" netid="HC" insttype="60" lat="35.3042" lon="25.1802">
    <comp name="--.HHN">
      <acc value="0.0000000000" flag="0"/>
      <vel value="-100.0000000000" flag="0"/>
      <psa03 value="0.0000000000" flag="0"/>
      <psa10 value="0.0000000000" flag="0"/>
      <psa30 value="0.0000000000" flag="0"/>
    </comp>
    <comp name="--.HHZ">
      <acc value="1.2086024086" flag="0"/>
      <vel value="0.2547495953" flag="0"/>
      <psa03 value="1.0986287719" flag="0"/>
      <psa10 value="0.1686118299" flag="0"/>
      <psa30 value="0.0155568877" flag="0"/>
    </comp>
    <comp name="--.HHE">
      <acc value="1.3996897851" flag="0"/>
      <vel value="0.4326354431" flag="0"/>
      <psa03 value="2.5346569448" flag="0"/>
      <psa10 value="0.2431615693" flag="0"/>
      <psa30 value="0.0168120513" flag="0"/>
    </comp>
  </station>
  <station code="PFKS" name="PFKS" netid="HC" insttype="120" lat="35.0429" lon="25.4733">
    <comp name="--.HHE">
      <acc value="0.8423569649" flag="0"/>
      <vel value="0.3226911943" flag="0"/>
      <psa03 value="1.6148153107" flag="0"/>
      <psa10 value="0.1749291485" flag="0"/>
      <psa30 value="0.0137471151" flag="0"/>
    </comp>
    <comp name="--.HHN">
      <acc value="0.9664966810" flag="0"/>
      <vel value="0.2769336406" flag="0"/>
      <psa03 value="1.5093005682" flag="0"/>
      <psa10 value="0.2535153712" flag="0"/>
      <psa30 value="0.0117183837" flag="0"/>
    </comp>
    <comp name="--.HHZ">
      <acc value="0.6235662095" flag="0"/>
      <vel value="0.2351008710" flag="0"/>
      <psa03 value="0.8673231659" flag="0"/>
      <psa10 value="0.1257967044" flag="0"/>
      <psa30 value="0.0087002751" flag="0"/>
    </comp>
  </station>
  <station code="RODP" name="RODP" netid="HC" insttype="120" lat="35.5604" lon="23.7577">
    <comp name="--.HHZ">
      <acc value="0.0291551713" flag="0"/>
      <vel value="0.0170700978" flag="0"/>
      <psa03 value="0.1000336111" flag="0"/>
      <psa10 value="0.0139949171" flag="0"/>
      <psa30 value="0.0017018265" flag="0"/>
    </comp>
    <comp name="--.HHN">
      <acc value="0.0676121975" flag="0"/>
      <vel value="0.0318041768" flag="0"/>
      <psa03 value="0.2156380163" flag="0"/>
      <psa10 value="0.0275669971" flag="0"/>
      <psa30 value="0.0015614276" flag="0"/>
    </comp>
    <comp name="--.HHE">
      <acc value="0.0512807292" flag="0"/>
      <vel value="0.0361151982" flag="0"/>
      <psa03 value="0.1907108508" flag="0"/>
      <psa10 value="0.0349079553" flag="0"/>
      <psa30 value="0.0037668304" flag="0"/>
    </comp>
  </station>
  <station code="STIA" name="STIA" netid="HC" insttype="120" lat="35.2021" lon="26.0909">
    <comp name="--.HHE">
      <acc value="0.0755125566" flag="0"/>
      <vel value="0.0373346251" flag="0"/>
      <psa03 value="0.2609149998" flag="0"/>
      <psa10 value="0.0428233078" flag="0"/>
      <psa30 value="0.0024201960" flag="0"/>
    </comp>
    <comp name="--.HHN">
      <acc value="0.0700961296" flag="0"/>
      <vel value="0.0452882488" flag="0"/>
      <psa03 value="0.1981548852" flag="0"/>
      <psa10 value="0.0473666830" flag="0"/>
      <psa30 value="0.0027758433" flag="0"/>
    </comp>
    <comp name="--.HHZ">
      <acc value="0.0666581302" flag="0"/>
      <vel value="0.0271617726" flag="0"/>
      <psa03 value="0.1314966812" flag="0"/>
      <psa10 value="0.0263282774" flag="0"/>
      <psa30 value="0.0036233439" flag="0"/>
    </comp>
  </station>
  <station code="SIT2" name="SIT2" netid="HI" insttype="CMG-5TD,ACCELEROMETER,GURALP" lat="35.2059" lon="26.107">
    <comp name="--.HNE">
      <acc value="0.1318764864" flag="0"/>
      <vel value="0.0981575648" flag="0"/>
      <psa03 value="0.3253711280" flag="0"/>
      <psa10 value="0.1171232762" flag="0"/>
      <psa30 value="0.0044318781" flag="0"/>
    </comp>
    <comp name="--.HNN">
      <acc value="0.1460194781" flag="0"/>
      <vel value="0.1091968074" flag="0"/>
      <psa03 value="0.4920003665" flag="0"/>
      <psa10 value="0.0841658420" flag="0"/>
      <psa30 value="0.0043385951" flag="0"/>
    </comp>
    <comp name="--.HNZ">
      <acc value="0.0980290548" flag="0"/>
      <vel value="0.0338084769" flag="0"/>
      <psa03 value="0.3183119979" flag="0"/>
      <psa10 value="0.0210778250" flag="0"/>
      <psa30 value="0.0030175318" flag="0"/>
    </comp>
  </station>
  <station code="GVD" name="GVD" netid="HL" insttype="120" lat="34.8391" lon="24.0874">
    <comp name="--.HHE">
      <acc value="0.0338899984" flag="0"/>
      <vel value="0.0187909565" flag="0"/>
      <psa03 value="0.0790092027" flag="0"/>
      <psa10 value="0.0125801403" flag="0"/>
      <psa30 value="0.0009085905" flag="0"/>
    </comp>
    <comp name="--.HHN">
      <acc value="0.0334621694" flag="0"/>
      <vel value="0.0214827956" flag="0"/>
      <psa03 value="0.0781254828" flag="0"/>
      <psa10 value="0.0166834770" flag="0"/>
      <psa30 value="0.0023802376" flag="0"/>
    </comp>
    <comp name="--.HHZ">
      <acc value="0.0156414737" flag="0"/>
      <vel value="0.0074920501" flag="0"/>
      <psa03 value="0.0509740078" flag="0"/>
      <psa10 value="0.0053037349" flag="0"/>
      <psa30 value="0.0008839814" flag="0"/>
    </comp>
  </station>
  <station code="IACM" name="IACM" netid="HL" insttype="120" lat="35.3058" lon="25.0709">
    <comp name="--.HHE">
      <acc value="1.6246722555" flag="0"/>
      <vel value="0.8904249812" flag="0"/>
      <psa03 value="4.9724913999" flag="0"/>
      <psa10 value="0.9706611728" flag="0"/>
      <psa30 value="0.0582006214" flag="0"/>
    </comp>
    <comp name="--.HHZ">
      <acc value="0.9521116742" flag="0"/>
      <vel value="0.4132216019" flag="0"/>
      <psa03 value="2.4888311408" flag="0"/>
      <psa10 value="0.4613454683" flag="0"/>
      <psa30 value="0.0208138324" flag="0"/>
    </comp>
    <comp name="--.HHN">
      <acc value="1.1405292377" flag="0"/>
      <vel value="0.8168895334" flag="0"/>
      <psa03 value="4.0100894780" flag="0"/>
      <psa10 value="0.9398207215" flag="0"/>
      <psa30 value="0.0456401773" flag="0"/>
    </comp>
  </station>
  <station code="IDI" name="IDI" netid="HL" insttype="120" lat="35.288" lon="24.89">
    <comp name="--.HHE">
      <acc value="0.3231287925" flag="0"/>
      <vel value="0.0782569384" flag="0"/>
      <psa03 value="0.3192396895" flag="0"/>
      <psa10 value="0.0562636166" flag="0"/>
      <psa30 value="0.0026928528" flag="0"/>
    </comp>
    <comp name="--.HHN">
      <acc value="0.2254698775" flag="0"/>
      <vel value="0.0586754901" flag="0"/>
      <psa03 value="0.4069690226" flag="0"/>
      <psa10 value="0.0443008902" flag="0"/>
      <psa30 value="0.0047575681" flag="0"/>
    </comp>
    <comp name="--.HHZ">
      <acc value="0.2073094680" flag="0"/>
      <vel value="0.0498235585" flag="0"/>
      <psa03 value="0.2112795640" flag="0"/>
      <psa10 value="0.0566442378" flag="0"/>
      <psa30 value="0.0037678249" flag="0"/>
    </comp>
  </station>
  <station code="IMMV" name="IMMV" netid="HL" insttype="120" lat="35.4606" lon="23.9811">
    <comp name="--.HHN">
      <acc value="0.0635391431" flag="0"/>
      <vel value="0.0404133907" flag="0"/>
      <psa03 value="0.2440291917" flag="0"/>
      <psa10 value="0.0457803743" flag="0"/>
      <psa30 value="0.0025473072" flag="0"/>
    </comp>
    <comp name="--.HHZ">
      <acc value="0.0535667183" flag="0"/>
      <vel value="0.0327931105" flag="0"/>
      <psa03 value="0.1548453181" flag="0"/>
      <psa10 value="0.0400798161" flag="0"/>
      <psa30 value="0.0021348087" flag="0"/>
    </comp>
    <comp name="--.HHE">
      <acc value="0.0707292464" flag="0"/>
      <vel value="0.0578238068" flag="0"/>
      <psa03 value="0.2562938429" flag="0"/>
      <psa10 value="0.0923589567" flag="0"/>
      <psa30 value="0.0037719768" flag="0"/>
    </comp>
  </station>
  <station code="NPS" name="NPS" netid="HL" insttype="CMG3ESPC-120s" lat="35.2613" lon="25.6104">
    <comp name="--.HHZ">
      <acc value="0.1587348471" flag="0"/>
      <vel value="0.0847293637" flag="0"/>
      <psa03 value="0.1688560094" flag="0"/>
      <psa10 value="0.1078910976" flag="0"/>
      <psa30 value="0.0061612816" flag="0"/>
    </comp>
    <comp name="--.HHN">
      <acc value="0.2202904547" flag="0"/>
      <vel value="0.0823019567" flag="0"/>
      <psa03 value="0.4146591371" flag="0"/>
      <psa10 value="0.1211821291" flag="0"/>
      <psa30 value="0.0044622360" flag="0"/>
    </comp>
    <comp name="--.HHE">
      <acc value="0.0955396495" flag="0"/>
      <vel value="0.0391599337" flag="0"/>
      <psa03 value="0.1766138568" flag="0"/>
      <psa10 value="0.0553213881" flag="0"/>
      <psa30 value="0.0020139811" flag="0"/>
    </comp>
  </station>
  <station code="SIVA" name="SIVA" netid="HL" insttype="60" lat="35.0178" lon="24.812">
    <comp name="--.HHE">
      <acc value="0.5372927671" flag="0"/>
      <vel value="0.1775390707" flag="0"/>
      <psa03 value="0.6489708664" flag="0"/>
      <psa10 value="0.1159965272" flag="0"/>
      <psa30 value="0.0079457820" flag="0"/>
    </comp>
    <comp name="--.HHN">
      <acc value="0.3852439936" flag="0"/>
      <vel value="0.1456672332" flag="0"/>
      <psa03 value="0.5546349862" flag="0"/>
      <psa10 value="0.0842157202" flag="0"/>
      <psa30 value="0.0059588970" flag="0"/>
    </comp>
    <comp name="--.HHZ">
      <acc value="0.1702802004" flag="0"/>
      <vel value="0.1031387582" flag="0"/>
      <psa03 value="0.3635775054" flag="0"/>
      <psa10 value="0.0705671074" flag="0"/>
      <psa30 value="0.0042653493" flag="0"/>
    </comp>
  </station>
  <station code="VAM" name="VAM" netid="HL" insttype="CMG3ESPC-120s" lat="35.407" lon="24.1997">
    <comp name="--.HHE">
      <acc value="0.0969450434" flag="0"/>
      <vel value="0.0478728530" flag="0"/>
      <psa03 value="0.3471527360" flag="0"/>
      <psa10 value="0.0418687373" flag="0"/>
      <psa30 value="0.0020518362" flag="0"/>
    </comp>
    <comp name="--.HHN">
      <acc value="0.1690976548" flag="0"/>
      <vel value="0.0796408830" flag="0"/>
      <psa03 value="0.6545125516" flag="0"/>
      <psa10 value="0.0552079350" flag="0"/>
      <psa30 value="0.0030913185" flag="0"/>
    </comp>
    <comp name="--.HHZ">
      <acc value="0.0892996822" flag="0"/>
      <vel value="0.0544800331" flag="0"/>
      <psa03 value="0.2189176184" flag="0"/>
      <psa10 value="0.0241418062" flag="0"/>
      <psa30 value="0.0026685435" flag="0"/>
    </comp>
  </station>
  <station code="ZKR" name="ZKR" netid="HL" insttype="120" lat="35.1147" lon="26.2169">
    <comp name="--.HHZ">
      <acc value="0.0261213001" flag="0"/>
      <vel value="0.0138198683" flag="0"/>
      <psa03 value="0.0540898772" flag="0"/>
      <psa10 value="0.0274975925" flag="0"/>
      <psa30 value="0.0018602425" flag="0"/>
    </comp>
    <comp name="--.HHN">
      <acc value="0.0275865768" flag="0"/>
      <vel value="0.0197496739" flag="0"/>
      <psa03 value="0.1087873728" flag="0"/>
      <psa10 value="0.0182140742" flag="0"/>
      <psa30 value="0.0010006107" flag="0"/>
    </comp>
    <comp name="--.HHE">
      <acc value="0.0471276476" flag="0"/>
      <vel value="0.0341326006" flag="0"/>
      <psa03 value="0.1469226802" flag="0"/>
      <psa10 value="0.0469440168" flag="0"/>
      <psa30 value="0.0024013506" flag="0"/>
    </comp>
  </station>
  <station code="IDI" name="IDI" netid="MN" insttype="" lat="35.288" lon="24.89">
    <comp name="--.HHE">
      <acc value="0.3607136258" flag="0"/>
      <vel value="0.0802708449" flag="0"/>
      <psa03 value="0.3216875718" flag="0"/>
      <psa10 value="0.0560263641" flag="0"/>
      <psa30 value="0.0026630073" flag="0"/>
    </comp>
    <comp name="--.HHN">
      <acc value="0.2588456386" flag="0"/>
      <vel value="0.0593196935" flag="0"/>
      <psa03 value="0.4110143368" flag="0"/>
      <psa10 value="0.0441910449" flag="0"/>
      <psa30 value="0.0047347091" flag="0"/>
    </comp>
    <comp name="--.HHZ">
      <acc value="0.2111501688" flag="0"/>
      <vel value="0.0502195334" flag="0"/>
      <psa03 value="0.2124676901" flag="0"/>
      <psa10 value="0.0562822189" flag="0"/>
      <psa30 value="0.0037329558" flag="0"/>
    </comp>
  </station>
</stationlist>
