<stationlist xmlns:esm="https://esm-db.eu/esmws/shakemap/1/" created="1780624462">
	<station code="EMCN" name="EMCN" netid="IV" source="Italian National Seismic Network (INSN)" insttype="" lat="37.7912" lon="15.0336" esm:processing="manual (Paolucci et al 2011)" esm:quality="good">
		<comp name="--.HNE" depth="0.0">
			<acc value="10.779109320237" flag="0"/>
			<vel value="8.93105254545778" flag="0"/>
			<psa03 value="20.9173842739016" flag="0"/>
			<psa10 value="12.1405964259383" flag="0"/>
			<psa30 value="0.718492724979517" flag="0"/>
		</comp>
		<comp name="--.HNN" depth="0.0">
			<acc value="12.7169849753379" flag="0"/>
			<vel value="11.3218060997815" flag="0"/>
			<psa03 value="25.862650887006" flag="0"/>
			<psa10 value="11.9593904891343" flag="0"/>
			<psa30 value="1.0210708456769" flag="0"/>
		</comp>
		<comp name="--.HNZ" depth="0.0">
			<acc value="5.48812901031432" flag="0"/>
			<vel value="3.38751997203804" flag="0"/>
			<psa03 value="7.90814027757291" flag="0"/>
			<psa10 value="1.30332168706348" flag="0"/>
			<psa30 value="0.259127621584184" flag="0"/>
		</comp>
	</station>
	<station code="EVRN" name="EVRN" netid="IV" source="Italian National Seismic Network (INSN)" insttype="" lat="37.6892" lon="15.1356" esm:processing="manual (Paolucci et al 2011)" esm:quality="good">
		<comp name="--.HNE" depth="0.0">
			<acc value="0.255438125222355" flag="0"/>
			<vel value="0.351349055985831" flag="0"/>
			<psa03 value="0.776366769240251" flag="0"/>
			<psa10 value="0.596602426333492" flag="0"/>
			<psa30 value="0.0405713381173165" flag="0"/>
		</comp>
		<comp name="--.HNN" depth="0.0">
			<acc value="0.318499117099186" flag="0"/>
			<vel value="0.260771210528551" flag="0"/>
			<psa03 value="0.74688165507881" flag="0"/>
			<psa10 value="0.42263667340446" flag="0"/>
			<psa30 value="0.0969053556262501" flag="0"/>
		</comp>
		<comp name="--.HNZ" depth="0.0">
			<acc value="0.142142042121512" flag="0"/>
			<vel value="0.158814503395109" flag="0"/>
			<psa03 value="0.263397370361766" flag="0"/>
			<psa10 value="0.37846269281024" flag="0"/>
			<psa30 value="0.033716384641331" flag="0"/>
		</comp>
	</station>
</stationlist>
