<?xml version="1.0" encoding="UTF-8" standalone="yes"?>
<!DOCTYPE earthquake SYSTEM "stationlist.dtd">
<stationlist created="" xmlns="ch.ethz.sed.shakemap.usgs.xml">
  <station code="AIO" name="AIO" netid="IV" source="INGV" insttype="" lat="37.9712" lon="15.233">
    <comp name="--.HHE">
      <acc value="0.0454778093" flag="0"/>
      <vel value="0.0435972550" flag="0"/>
      <psa03 value="0.0889386726" flag="0"/>
      <psa10 value="0.0581321145" flag="0"/>
      <psa30 value="0.0162751178" flag="0"/>
    </comp>
    <comp name="--.HHN">
      <acc value="0.0528769680" flag="0"/>
      <vel value="0.0488958083" flag="0"/>
      <psa03 value="0.1317510926" flag="0"/>
      <psa10 value="0.0677082495" flag="0"/>
      <psa30 value="0.0161986398" flag="0"/>
    </comp>
    <comp name="--.HHZ">
      <acc value="0.0269411481" flag="0"/>
      <vel value="0.0379725806" flag="0"/>
      <psa03 value="0.0902269656" flag="0"/>
      <psa10 value="0.0655669807" flag="0"/>
      <psa30 value="0.0089338567" flag="0"/>
    </comp>
  </station>
  <station code="EMCN" name="EMCN" netid="IV" source="INGV" insttype="" lat="37.7912" lon="15.0336">
    <comp name="--.HNE">
      <acc value="10.7961574656" flag="0"/>
      <vel value="8.9472011876" flag="0"/>
      <psa03 value="20.9020708625" flag="0"/>
      <psa10 value="12.1229902348" flag="0"/>
      <psa30 value="0.7611821289" flag="0"/>
    </comp>
    <comp name="--.HNN">
      <acc value="12.7934109912" flag="0"/>
      <vel value="11.4299051466" flag="0"/>
      <psa03 value="25.8946720247" flag="0"/>
      <psa10 value="11.9844818078" flag="0"/>
      <psa30 value="1.0837138669" flag="0"/>
    </comp>
    <comp name="--.HNZ">
      <acc value="5.4905201231" flag="0"/>
      <vel value="3.3970144094" flag="0"/>
      <psa03 value="7.8741224690" flag="0"/>
      <psa10 value="1.2893223398" flag="0"/>
      <psa30 value="0.2316197920" flag="0"/>
    </comp>
  </station>
  <station code="EMSG" name="EMSG" netid="IV" source="INGV" insttype="" lat="37.8208" lon="14.9498">
    <comp name="--.HHE">
      <acc value="1.4482962990" flag="0"/>
      <vel value="0.5647400971" flag="0"/>
      <psa03 value="2.5052570024" flag="0"/>
      <psa10 value="0.7653585358" flag="0"/>
      <psa30 value="0.0681959905" flag="0"/>
    </comp>
    <comp name="--.HHN">
      <acc value="1.8296296363" flag="0"/>
      <vel value="0.5864589582" flag="0"/>
      <psa03 value="2.5983100789" flag="0"/>
      <psa10 value="0.8213264801" flag="0"/>
      <psa30 value="0.1821748565" flag="0"/>
    </comp>
    <comp name="--.HHZ">
      <acc value="1.2110261306" flag="0"/>
      <vel value="0.4522474152" flag="0"/>
      <psa03 value="1.5598808925" flag="0"/>
      <psa10 value="0.4575376484" flag="0"/>
      <psa30 value="0.1033591124" flag="0"/>
    </comp>
  </station>
  <station code="ENIC" name="ENIC" netid="IV" source="INGV" insttype="" lat="37.6314" lon="15.0216">
    <comp name="--.HHE">
      <acc value="0.0387677501" flag="0"/>
      <vel value="0.0323221536" flag="0"/>
      <psa03 value="0.0815751341" flag="0"/>
      <psa10 value="0.0536671124" flag="0"/>
      <psa30 value="0.0037596689" flag="0"/>
    </comp>
    <comp name="--.HHN">
      <acc value="0.0400911822" flag="0"/>
      <vel value="0.0389097026" flag="0"/>
      <psa03 value="0.0865983388" flag="0"/>
      <psa10 value="0.0876346107" flag="0"/>
      <psa30 value="0.0031722947" flag="0"/>
    </comp>
    <comp name="--.HHZ">
      <acc value="0.0372315497" flag="0"/>
      <vel value="0.0314116709" flag="0"/>
      <psa03 value="0.0893610242" flag="0"/>
      <psa10 value="0.0704517081" flag="0"/>
      <psa30 value="0.0031540480" flag="0"/>
    </comp>
  </station>
  <station code="EPOZ" name="EPOZ" netid="IV" source="INGV" insttype="" lat="37.6719" lon="15.1885">
    <comp name="--.HHE">
      <acc value="0.4618851900" flag="0"/>
      <vel value="0.8578312033" flag="0"/>
      <psa03 value="0.6457591149" flag="0"/>
      <psa10 value="1.1468281026" flag="0"/>
      <psa30 value="0.2879592091" flag="0"/>
    </comp>
    <comp name="--.HHN">
      <acc value="0.4918309417" flag="0"/>
      <vel value="0.6792487306" flag="0"/>
      <psa03 value="0.7543234887" flag="0"/>
      <psa10 value="0.9160222362" flag="0"/>
      <psa30 value="0.1457110614" flag="0"/>
    </comp>
    <comp name="--.HHZ">
      <acc value="0.2591959465" flag="0"/>
      <vel value="0.3637549169" flag="0"/>
      <psa03 value="0.3779051306" flag="0"/>
      <psa10 value="0.6224597088" flag="0"/>
      <psa30 value="0.1863653009" flag="0"/>
    </comp>
  </station>
  <station code="EPZF" name="EPZF" netid="IV" source="INGV" insttype="" lat="37.824" lon="14.857">
    <comp name="--.HHE">
      <acc value="0.2889736657" flag="0"/>
      <vel value="0.4277744186" flag="0"/>
      <psa03 value="0.5971616606" flag="0"/>
      <psa10 value="0.7546760964" flag="0"/>
      <psa30 value="0.1015606748" flag="0"/>
    </comp>
    <comp name="--.HHN">
      <acc value="0.3776157214" flag="0"/>
      <vel value="0.3258500569" flag="0"/>
      <psa03 value="0.7919958490" flag="0"/>
      <psa10 value="0.5074731807" flag="0"/>
      <psa30 value="0.0846726252" flag="0"/>
    </comp>
    <comp name="--.HHZ">
      <acc value="0.2548744785" flag="0"/>
      <vel value="0.2995021149" flag="0"/>
      <psa03 value="0.4875566668" flag="0"/>
      <psa10 value="0.4763985773" flag="0"/>
      <psa30 value="0.0670460695" flag="0"/>
    </comp>
  </station>
  <station code="ESLN" name="ESLN" netid="IV" source="INGV" insttype="" lat="37.6934" lon="14.9744">
    <comp name="--.HHE">
      <acc value="0.1574905003" flag="0"/>
      <vel value="0.1950353887" flag="0"/>
      <psa03 value="0.3880858643" flag="0"/>
      <psa10 value="0.4382783351" flag="0"/>
      <psa30 value="0.0578714171" flag="0"/>
    </comp>
    <comp name="--.HHN">
      <acc value="0.1116616764" flag="0"/>
      <vel value="0.1763133290" flag="0"/>
      <psa03 value="0.3192578462" flag="0"/>
      <psa10 value="0.2108692134" flag="0"/>
      <psa30 value="0.0560218091" flag="0"/>
    </comp>
    <comp name="--.HHZ">
      <acc value="0.0985764979" flag="0"/>
      <vel value="0.1044352269" flag="0"/>
      <psa03 value="0.2456020365" flag="0"/>
      <psa10 value="0.1856959402" flag="0"/>
      <psa30 value="0.0235274577" flag="0"/>
    </comp>
  </station>
  <station code="ESML" name="ESML" netid="IV" source="INGV" insttype="" lat="37.6181" lon="14.8794">
    <comp name="--.HHE">
      <acc value="0.0622844144" flag="0"/>
      <vel value="0.0707027957" flag="0"/>
      <psa03 value="0.1130870663" flag="0"/>
      <psa10 value="0.1069383195" flag="0"/>
      <psa30 value="0.0251300717" flag="0"/>
    </comp>
    <comp name="--.HHN">
      <acc value="0.0386706981" flag="0"/>
      <vel value="0.0531725976" flag="0"/>
      <psa03 value="0.0682237603" flag="0"/>
      <psa10 value="0.0778535761" flag="0"/>
      <psa30 value="0.0131276167" flag="0"/>
    </comp>
    <comp name="--.HHZ">
      <acc value="0.0318178052" flag="0"/>
      <vel value="0.0489376183" flag="0"/>
      <psa03 value="0.0563835382" flag="0"/>
      <psa10 value="0.0557368762" flag="0"/>
      <psa30 value="0.0098340529" flag="0"/>
    </comp>
  </station>
  <station code="EVRN" name="EVRN" netid="IV" source="INGV" insttype="" lat="37.6892" lon="15.1356">
    <comp name="--.HNE">
      <acc value="0.2543948823" flag="0"/>
      <vel value="0.3498874251" flag="0"/>
      <psa03 value="0.7785034770" flag="0"/>
      <psa10 value="0.5969389509" flag="0"/>
      <psa30 value="0.0384188791" flag="0"/>
    </comp>
    <comp name="--.HNN">
      <acc value="0.3183659936" flag="0"/>
      <vel value="0.2588826251" flag="0"/>
      <psa03 value="0.7442629789" flag="0"/>
      <psa10 value="0.4194782663" flag="0"/>
      <psa30 value="0.0893142395" flag="0"/>
    </comp>
    <comp name="--.HNZ">
      <acc value="0.1429549391" flag="0"/>
      <vel value="0.1545998485" flag="0"/>
      <psa03 value="0.2636852773" flag="0"/>
      <psa10 value="0.3773901833" flag="0"/>
      <psa30 value="0.0305850773" flag="0"/>
    </comp>
  </station>
  <station code="MPNC" name="MPNC" netid="IV" source="INGV" insttype="" lat="38.1465" lon="15.3528">
    <comp name="--.HHE">
      <acc value="0.0314353264" flag="0"/>
      <vel value="0.0377912963" flag="0"/>
      <psa03 value="0.0627322607" flag="0"/>
      <psa10 value="0.0602738185" flag="0"/>
      <psa30 value="0.0110916567" flag="0"/>
    </comp>
    <comp name="--.HHN">
      <acc value="0.0292691301" flag="0"/>
      <vel value="0.0445254991" flag="0"/>
      <psa03 value="0.0688470664" flag="0"/>
      <psa10 value="0.0643708202" flag="0"/>
      <psa30 value="0.0087709276" flag="0"/>
    </comp>
    <comp name="--.HHZ">
      <acc value="0.0294309804" flag="0"/>
      <vel value="0.0251745050" flag="0"/>
      <psa03 value="0.0675168901" flag="0"/>
      <psa10 value="0.0307527735" flag="0"/>
      <psa30 value="0.0049646073" flag="0"/>
    </comp>
  </station>
  <station code="MSRU" name="MSRU" netid="IV" source="INGV" insttype="" lat="38.2639" lon="15.5083">
    <comp name="--.HHE">
      <acc value="0.0114723530" flag="0"/>
      <vel value="0.0175593046" flag="0"/>
      <psa03 value="0.0378360863" flag="0"/>
      <psa10 value="0.0187566168" flag="0"/>
      <psa30 value="0.0083822694" flag="0"/>
    </comp>
    <comp name="--.HHN">
      <acc value="0.0084083775" flag="0"/>
      <vel value="0.0141103966" flag="0"/>
      <psa03 value="0.0184912314" flag="0"/>
      <psa10 value="0.0336129740" flag="0"/>
      <psa30 value="0.0067345994" flag="0"/>
    </comp>
    <comp name="--.HHZ">
      <acc value="0.0057602884" flag="0"/>
      <vel value="0.0076112477" flag="0"/>
      <psa03 value="0.0142517825" flag="0"/>
      <psa10 value="0.0093272927" flag="0"/>
      <psa30 value="0.0031033619" flag="0"/>
    </comp>
  </station>
  <station code="MUCR" name="MUCR" netid="IV" source="INGV" insttype="" lat="38.043" lon="14.8739">
    <comp name="--.HHE">
      <acc value="0.0583076304" flag="0"/>
      <vel value="0.0624258071" flag="0"/>
      <psa03 value="0.1143066086" flag="0"/>
      <psa10 value="0.0792678302" flag="0"/>
      <psa30 value="0.0207501576" flag="0"/>
    </comp>
    <comp name="--.HHN">
      <acc value="0.0438774683" flag="0"/>
      <vel value="0.0628556643" flag="0"/>
      <psa03 value="0.1346950813" flag="0"/>
      <psa10 value="0.1360841198" flag="0"/>
      <psa30 value="0.0263480686" flag="0"/>
    </comp>
    <comp name="--.HHZ">
      <acc value="0.0268536817" flag="0"/>
      <vel value="0.0349142585" flag="0"/>
      <psa03 value="0.0795190777" flag="0"/>
      <psa10 value="0.0547553372" flag="0"/>
      <psa30 value="0.0070676316" flag="0"/>
    </comp>
  </station>
  <station code="NOV" name="NOV" netid="IV" source="INGV" insttype="" lat="38.0286" lon="15.1356">
    <comp name="--.HHE">
      <acc value="0.2097164124" flag="0"/>
      <vel value="0.2134097710" flag="0"/>
      <psa03 value="0.6511729057" flag="0"/>
      <psa10 value="0.3337967418" flag="0"/>
      <psa30 value="0.0315854216" flag="0"/>
    </comp>
    <comp name="--.HHN">
      <acc value="0.2915347066" flag="0"/>
      <vel value="0.2342598338" flag="0"/>
      <psa03 value="0.4684482639" flag="0"/>
      <psa10 value="0.1816873589" flag="0"/>
      <psa30 value="0.0294737938" flag="0"/>
    </comp>
    <comp name="--.HHZ">
      <acc value="0.0884538056" flag="0"/>
      <vel value="0.0926275425" flag="0"/>
      <psa03 value="0.2150505124" flag="0"/>
      <psa10 value="0.1157337770" flag="0"/>
      <psa30 value="0.0298685611" flag="0"/>
    </comp>
  </station>
</stationlist>
