<?xml version="1.0" encoding="UTF-8" standalone="yes"?>
<!DOCTYPE earthquake SYSTEM "stationlist.dtd">
<stationlist created="" xmlns="ch.ethz.sed.shakemap.usgs.xml">
  <station code="BNN" name="BNN" netid="KO" insttype="CMG-3T" lat="38.8521" lon="35.8472">
    <comp name="--.HHZ">
      <acc value="0.0073922125" flag="0"/>
      <vel value="0.0042872392" flag="0"/>
      <psa03 value="0.0165138426" flag="0"/>
      <psa10 value="0.0032463108" flag="0"/>
      <psa30 value="0.0003038034" flag="0"/>
    </comp>
    <comp name="--.HHE">
      <acc value="0.0110688420" flag="0"/>
      <vel value="0.0071786325" flag="0"/>
      <psa03 value="0.0243679273" flag="0"/>
      <psa10 value="0.0096449415" flag="0"/>
      <psa30 value="0.0005390363" flag="0"/>
    </comp>
  </station>
  <station code="GAZ" name="GAZ" netid="KO" insttype="CMG-3T" lat="37.1721" lon="37.2096">
    <comp name="--.HHZ">
      <acc value="0.0135097373" flag="0"/>
      <vel value="0.0069772286" flag="0"/>
      <psa03 value="0.0507785999" flag="0"/>
      <psa10 value="0.0063113982" flag="0"/>
      <psa30 value="0.0007120118" flag="0"/>
    </comp>
    <comp name="--.HHN">
      <acc value="0.0191148470" flag="0"/>
      <vel value="0.0110229740" flag="0"/>
      <psa03 value="0.0656056244" flag="0"/>
      <psa10 value="0.0107779692" flag="0"/>
      <psa30 value="0.0004661785" flag="0"/>
    </comp>
  </station>
  <station code="ANDN" name="ANDN" netid="TU" insttype="T" lat="37.58" lon="36.3452">
    <comp name="--.HHN">
      <acc value="0.1817578016" flag="0"/>
      <vel value="0.0763485416" flag="0"/>
      <psa03 value="0.4476200083" flag="0"/>
      <psa10 value="0.0496563624" flag="0"/>
      <psa30 value="0.0060499566" flag="0"/>
    </comp>
    <comp name="--.HHZ">
      <acc value="0.0780410058" flag="0"/>
      <vel value="0.0451413660" flag="0"/>
      <psa03 value="0.3195349019" flag="0"/>
      <psa10 value="0.0464577284" flag="0"/>
      <psa30 value="0.0052722895" flag="0"/>
    </comp>
    <comp name="--.HHE">
      <acc value="0.1259426538" flag="0"/>
      <vel value="0.0754370420" flag="0"/>
      <psa03 value="0.3937813015" flag="0"/>
      <psa10 value="0.0635792650" flag="0"/>
      <psa30 value="0.0055061641" flag="0"/>
    </comp>
  </station>
</stationlist>
