<?xml version="1.0" encoding="UTF-8" standalone="yes"?>
<!DOCTYPE earthquake SYSTEM "stationlist.dtd">
<stationlist created="" xmlns="ch.ethz.sed.shakemap.usgs.xml">
  <station code="SKR" name="SKR" netid="VI" insttype="LE-3D/5s" lat="64.5601" lon="-18.3865">
    <comp name="--.HHE">
      <acc value="0.0127888727" flag="0"/>
      <vel value="0.0245796167" flag="0"/>
      <psa03 value="0.0142086776" flag="0"/>
      <psa10 value="0.0252173021" flag="0"/>
      <psa30 value="0.0105036763" flag="0"/>
    </comp>
    <comp name="--.HHZ">
      <acc value="0.0106021381" flag="0"/>
      <vel value="0.0132180900" flag="0"/>
      <psa03 value="0.0232139462" flag="0"/>
      <psa10 value="0.0334915787" flag="0"/>
      <psa30 value="0.0035415397" flag="0"/>
    </comp>
    <comp name="--.HHN">
      <acc value="0.0111307692" flag="0"/>
      <vel value="0.0188511584" flag="0"/>
      <psa03 value="0.0156888607" flag="0"/>
      <psa10 value="0.0325006603" flag="0"/>
      <psa30 value="0.0164332119" flag="0"/>
    </comp>
  </station>
</stationlist>
