<?xml version="1.0" encoding="UTF-8" standalone="yes"?>
<!DOCTYPE earthquake SYSTEM "stationlist.dtd">
<stationlist created="" xmlns="ch.ethz.sed.shakemap.usgs.xml">
  <station code="ARPRA" name="ARPRA" netid="KO" insttype="CMG-5T" lat="39.0929" lon="38.3356">
    <comp name="--.HNZ">
      <acc value="0.0228019706" flag="0"/>
      <vel value="0.0097811030" flag="0"/>
      <psa03 value="0.0517290077" flag="0"/>
      <psa10 value="0.0051782776" flag="0"/>
      <psa30 value="0.0003788645" flag="0"/>
    </comp>
    <comp name="--.HNN">
      <acc value="0.0307130001" flag="0"/>
      <vel value="0.0162664512" flag="0"/>
      <psa03 value="0.0781422134" flag="0"/>
      <psa10 value="0.0119896279" flag="0"/>
      <psa30 value="0.0007237308" flag="0"/>
    </comp>
    <comp name="--.HNE">
      <acc value="0.0330414676" flag="0"/>
      <vel value="0.0161595466" flag="0"/>
      <psa03 value="0.0655127069" flag="0"/>
      <psa10 value="0.0117568148" flag="0"/>
      <psa30 value="0.0006162505" flag="0"/>
    </comp>
  </station>
  <station code="KHMN" name="KHMN" netid="KO" insttype="CMG-5T" lat="37.3916" lon="37.1574">
    <comp name="--.HNZ">
      <acc value="0.0179530407" flag="0"/>
      <vel value="0.0050978636" flag="0"/>
      <psa03 value="0.0211412306" flag="0"/>
      <psa10 value="0.0024921083" flag="0"/>
      <psa30 value="0.0002665958" flag="0"/>
    </comp>
    <comp name="--.HNN">
      <acc value="0.0310435778" flag="0"/>
      <vel value="0.0080904227" flag="0"/>
      <psa03 value="0.0416437745" flag="0"/>
      <psa10 value="0.0031001447" flag="0"/>
      <psa30 value="0.0004799058" flag="0"/>
    </comp>
    <comp name="--.HNE">
      <acc value="0.0245079436" flag="0"/>
      <vel value="0.0071824549" flag="0"/>
      <psa03 value="0.0343205415" flag="0"/>
      <psa10 value="0.0037809436" flag="0"/>
      <psa30 value="0.0004956830" flag="0"/>
    </comp>
  </station>
  <station code="KMRS" name="KMRS" netid="KO" insttype="CMG-3T" lat="37.5053" lon="36.9">
    <comp name="--.HHE">
      <acc value="0.0143298321" flag="0"/>
      <vel value="0.0060978384" flag="0"/>
      <psa03 value="0.0349444433" flag="0"/>
      <psa10 value="0.0032213041" flag="0"/>
      <psa30 value="0.0004797845" flag="0"/>
    </comp>
    <comp name="--.HHZ">
      <acc value="0.0165251717" flag="0"/>
      <vel value="0.0050507116" flag="0"/>
      <psa03 value="0.0197347453" flag="0"/>
      <psa10 value="0.0026508870" flag="0"/>
      <psa30 value="0.0002393913" flag="0"/>
    </comp>
    <comp name="--.HHN">
      <acc value="0.0133167184" flag="0"/>
      <vel value="0.0051910411" flag="0"/>
      <psa03 value="0.0381004902" flag="0"/>
      <psa10 value="0.0053620074" flag="0"/>
      <psa30 value="0.0004873948" flag="0"/>
    </comp>
  </station>
  <station code="URFA" name="URFA" netid="KO" insttype="CMG-3ESP" lat="37.4409" lon="38.8213">
    <comp name="--.HHE">
      <acc value="0.0445799016" flag="0"/>
      <vel value="0.0206733067" flag="0"/>
      <psa03 value="0.0737960243" flag="0"/>
      <psa10 value="0.0094315164" flag="0"/>
      <psa30 value="0.0010870219" flag="0"/>
    </comp>
  </station>
</stationlist>
