<?xml version="1.0" encoding="UTF-8" standalone="yes"?>
<!DOCTYPE earthquake SYSTEM "stationlist.dtd">
<stationlist created="" xmlns="ch.ethz.sed.shakemap.usgs.xml">
  <station code="ARPRA" name="ARPRA" netid="KO" insttype="CMG-5T" lat="39.0929" lon="38.3356">
    <comp name="--.HNE">
      <acc value="0.0300907846" flag="0"/>
      <vel value="0.0101538329" flag="0"/>
      <psa03 value="0.0493360378" flag="0"/>
      <psa10 value="0.0118825587" flag="0"/>
      <psa30 value="0.0009362264" flag="0"/>
    </comp>
    <comp name="--.HNZ">
      <acc value="0.0102432874" flag="0"/>
      <vel value="0.0035664176" flag="0"/>
      <psa03 value="0.0194091287" flag="0"/>
      <psa10 value="0.0066225901" flag="0"/>
      <psa30 value="0.0004546880" flag="0"/>
    </comp>
    <comp name="--.HNN">
      <acc value="0.0260284931" flag="0"/>
      <vel value="0.0111579641" flag="0"/>
      <psa03 value="0.0656108416" flag="0"/>
      <psa10 value="0.0105371020" flag="0"/>
      <psa30 value="0.0005257445" flag="0"/>
    </comp>
  </station>
  <station code="DARE" name="DARE" netid="KO" insttype="CMG-3ESP" lat="38.5712" lon="37.4832">
    <comp name="--.HHZ">
      <acc value="0.0204277070" flag="0"/>
      <vel value="0.0068464938" flag="0"/>
      <psa03 value="0.0374034086" flag="0"/>
      <psa10 value="0.0030259107" flag="0"/>
      <psa30 value="0.0004822401" flag="0"/>
    </comp>
    <comp name="--.HHE">
      <acc value="0.0164839115" flag="0"/>
      <vel value="0.0061720852" flag="0"/>
      <psa03 value="0.0280670176" flag="0"/>
      <psa10 value="0.0039832748" flag="0"/>
      <psa30 value="0.0003364184" flag="0"/>
    </comp>
    <comp name="--.HHN">
      <acc value="0.0187913607" flag="0"/>
      <vel value="0.0068064624" flag="0"/>
      <psa03 value="0.0385726603" flag="0"/>
      <psa10 value="0.0045885581" flag="0"/>
      <psa30 value="0.0002531856" flag="0"/>
    </comp>
  </station>
  <station code="SVRC" name="SVRC" netid="KO" insttype="CMG-3T" lat="38.3775" lon="39.306">
    <comp name="--.HHE">
      <acc value="0.0124864134" flag="0"/>
      <vel value="0.0046454940" flag="0"/>
      <psa03 value="0.0286914366" flag="0"/>
      <psa10 value="0.0034887984" flag="0"/>
      <psa30 value="0.0003301586" flag="0"/>
    </comp>
    <comp name="--.HHN">
      <acc value="0.0099927158" flag="0"/>
      <vel value="0.0049477513" flag="0"/>
      <psa03 value="0.0265118830" flag="0"/>
      <psa10 value="0.0025471384" flag="0"/>
      <psa30 value="0.0007309693" flag="0"/>
    </comp>
    <comp name="--.HHZ">
      <acc value="0.0061802315" flag="0"/>
      <vel value="0.0030742966" flag="0"/>
      <psa03 value="0.0164489483" flag="0"/>
      <psa10 value="0.0028431599" flag="0"/>
      <psa30 value="0.0003669491" flag="0"/>
    </comp>
  </station>
  <station code="URFA" name="URFA" netid="KO" insttype="CMG-3ESP" lat="37.4409" lon="38.8213">
    <comp name="--.HHE">
      <acc value="0.0248089762" flag="0"/>
      <vel value="0.0053512814" flag="0"/>
      <psa03 value="0.0295580012" flag="0"/>
      <psa10 value="0.0047446896" flag="0"/>
      <psa30 value="0.0011645903" flag="0"/>
    </comp>
    <comp name="--.HHN">
      <acc value="0.0267289395" flag="0"/>
      <vel value="0.0064862604" flag="0"/>
      <psa03 value="0.0217933202" flag="0"/>
      <psa10 value="0.0037665879" flag="0"/>
      <psa30 value="0.0005193569" flag="0"/>
    </comp>
    <comp name="--.HHZ">
      <acc value="0.0188643828" flag="0"/>
      <vel value="0.0038870002" flag="0"/>
      <psa03 value="0.0121930765" flag="0"/>
      <psa10 value="0.0029058447" flag="0"/>
      <psa30 value="0.0002939162" flag="0"/>
    </comp>
  </station>
</stationlist>
