<?xml version="1.0" encoding="UTF-8" standalone="yes"?>
<!DOCTYPE earthquake SYSTEM "stationlist.dtd">
<stationlist created="" xmlns="ch.ethz.sed.shakemap.usgs.xml">
  <station code="ARPRA" name="ARPRA" netid="KO" insttype="CMG-5T" lat="39.0929" lon="38.3356">
    <comp name="--.HNE">
      <acc value="0.0300907844" flag="0"/>
      <vel value="0.0101538361" flag="0"/>
      <psa03 value="0.0493360378" flag="0"/>
      <psa10 value="0.0118825585" flag="0"/>
      <psa30 value="0.0009335533" flag="0"/>
    </comp>
    <comp name="--.HNZ">
      <acc value="0.0102432847" flag="0"/>
      <vel value="0.0035664146" flag="0"/>
      <psa03 value="0.0194091287" flag="0"/>
      <psa10 value="0.0066225901" flag="0"/>
      <psa30 value="0.0004547503" flag="0"/>
    </comp>
    <comp name="--.HNN">
      <acc value="0.0260284953" flag="0"/>
      <vel value="0.0111579682" flag="0"/>
      <psa03 value="0.0656108416" flag="0"/>
      <psa10 value="0.0105371030" flag="0"/>
      <psa30 value="0.0005235696" flag="0"/>
    </comp>
  </station>
  <station code="SVRC" name="SVRC" netid="KO" insttype="CMG-3T" lat="38.3775" lon="39.306">
    <comp name="--.HHN">
      <acc value="0.0099927160" flag="0"/>
      <vel value="0.0049477510" flag="0"/>
      <psa03 value="0.0265118830" flag="0"/>
      <psa10 value="0.0025471384" flag="0"/>
      <psa30 value="0.0007309716" flag="0"/>
    </comp>
    <comp name="--.HHE">
      <acc value="0.0124864134" flag="0"/>
      <vel value="0.0046454950" flag="0"/>
      <psa03 value="0.0286914366" flag="0"/>
      <psa10 value="0.0034887984" flag="0"/>
      <psa30 value="0.0003301650" flag="0"/>
    </comp>
    <comp name="--.HHZ">
      <acc value="0.0061802313" flag="0"/>
      <vel value="0.0030742965" flag="0"/>
      <psa03 value="0.0164489483" flag="0"/>
      <psa10 value="0.0028431599" flag="0"/>
      <psa30 value="0.0003669508" flag="0"/>
    </comp>
  </station>
  <station code="URFA" name="URFA" netid="KO" insttype="CMG-3ESP" lat="37.4409" lon="38.8213">
    <comp name="--.HHZ">
      <acc value="0.0188643828" flag="0"/>
      <vel value="0.0038869985" flag="0"/>
      <psa03 value="0.0121930765" flag="0"/>
      <psa10 value="0.0029058447" flag="0"/>
      <psa30 value="0.0002939132" flag="0"/>
    </comp>
    <comp name="--.HHN">
      <acc value="0.0267289395" flag="0"/>
      <vel value="0.0064862614" flag="0"/>
      <psa03 value="0.0217933202" flag="0"/>
      <psa10 value="0.0037665880" flag="0"/>
      <psa30 value="0.0005193570" flag="0"/>
    </comp>
    <comp name="--.HHE">
      <acc value="0.0248089763" flag="0"/>
      <vel value="0.0053512827" flag="0"/>
      <psa03 value="0.0295580012" flag="0"/>
      <psa10 value="0.0047446895" flag="0"/>
      <psa30 value="0.0011645755" flag="0"/>
    </comp>
  </station>
</stationlist>
