<stationlist created="1657796415">
	<station code="BCI" name="BCI" netid="AC" source="Albanian Seismological Network (AC)" insttype="" lat="42.3666" lon="20.067499">
		<comp name=".HHE" depth="0.0">
			<acc value="0.00307614061091" flag="0"/>
			<vel value="0.00204291387862" flag="0"/>
			<psa03 value="0.0125287192891" flag="0"/>
			<psa10 value="0.00297817728963" flag="0"/>
			<psa30 value="0.000286947029666" flag="0"/>
		</comp>
		<comp name=".HHN" depth="0.0">
			<acc value="0.00319144113896" flag="0"/>
			<vel value="0.00223924469279" flag="0"/>
			<psa03 value="0.00833400716519" flag="0"/>
			<psa10 value="0.00456098745552" flag="0"/>
			<psa30 value="0.000224953105164" flag="0"/>
		</comp>
		<comp name=".HHZ" depth="0.0">
			<acc value="0.00277524494038" flag="0"/>
			<vel value="0.00170376517517" flag="0"/>
			<psa03 value="0.00873773377991" flag="0"/>
			<psa10 value="0.0019307275106" flag="0"/>
			<psa30 value="0.000198357072474" flag="0"/>
		</comp>
	</station>
	<station code="KBN" name="KBN" netid="AC" source="Albanian Seismological Network (AC)" insttype="" lat="40.6236" lon="20.7874">
		<comp name=".HHE" depth="0.0">
			<acc value="0.00391005501904" flag="0"/>
			<vel value="0.00510760329032" flag="0"/>
			<psa03 value="0.00835965665082" flag="0"/>
			<psa10 value="0.00806400451323" flag="0"/>
			<psa30 value="0.000522073803579" flag="0"/>
		</comp>
		<comp name=".HHN" depth="0.0">
			<acc value="0.00383932657812" flag="0"/>
			<vel value="0.0030345125238" flag="0"/>
			<psa03 value="0.00757886013521" flag="0"/>
			<psa10 value="0.00488868041358" flag="0"/>
			<psa30 value="0.000505992425763" flag="0"/>
		</comp>
		<comp name=".HHZ" depth="0.0">
			<acc value="0.00235246402801" flag="0"/>
			<vel value="0.00177850069972" flag="0"/>
			<psa03 value="0.00393202349809" flag="0"/>
			<psa10 value="0.00248344193772" flag="0"/>
			<psa30 value="0.00043307671004" flag="0"/>
		</comp>
	</station>
	<station code="LSK" name="LSK" netid="AC" source="Albanian Seismological Network (AC)" insttype="" lat="40.149899" lon="20.5987">
		<comp name=".HHE" depth="0.0">
			<acc value="0.0334743577562" flag="0"/>
			<vel value="0.00688399487935" flag="0"/>
			<psa03 value="0.0266802179544" flag="0"/>
			<psa10 value="0.00334916991294" flag="0"/>
			<psa30 value="0.000697872220195" flag="0"/>
		</comp>
		<comp name=".HHN" depth="0.0">
			<acc value="0.00242045521463" flag="0"/>
			<vel value="0.00298199778156" flag="0"/>
			<psa03 value="0.00553961567028" flag="0"/>
			<psa10 value="0.00595964870371" flag="0"/>
			<psa30 value="0.00050033580104" flag="0"/>
		</comp>
		<comp name=".HHZ" depth="0.0">
			<acc value="0.00107902916869" flag="0"/>
			<vel value="0.00137614714119" flag="0"/>
			<psa03 value="0.00252270227289" flag="0"/>
			<psa10 value="0.00296211591314" flag="0"/>
			<psa30 value="0.000393805749156" flag="0"/>
		</comp>
	</station>
	<station code="SRN" name="SRN" netid="AC" source="Albanian Seismological Network (AC)" insttype="" lat="39.880001" lon="20.0005">
		<comp name=".HHE" depth="0.0">
			<acc value="0.000292080535398" flag="0"/>
			<vel value="0.000226856579254" flag="0"/>
			<psa03 value="0.000606756177693" flag="0"/>
			<psa10 value="0.000310436687954" flag="0"/>
			<psa30 value="6.1636381285e-05" flag="0"/>
		</comp>
		<comp name=".HHN" depth="0.0">
			<acc value="0.000276961241073" flag="0"/>
			<vel value="0.000271897463159" flag="0"/>
			<psa03 value="0.000411793596037" flag="0"/>
			<psa10 value="0.000304496206535" flag="0"/>
			<psa30 value="8.56648350313e-05" flag="0"/>
		</comp>
		<comp name=".HHZ" depth="0.0">
			<acc value="0.000214017111295" flag="0"/>
			<vel value="0.000138366579301" flag="0"/>
			<psa03 value="0.000469690741986" flag="0"/>
			<psa10 value="0.000229013784321" flag="0"/>
			<psa30 value="4.55642586431e-05" flag="0"/>
		</comp>
	</station>
	<station code="VLO" name="VLO" netid="AC" source="Albanian Seismological Network (AC)" insttype="" lat="40.468601" lon="19.495501">
		<comp name=".HHE" depth="0.0">
			<acc value="0.0742819231884" flag="0"/>
			<vel value="0.0055313648208" flag="0"/>
			<psa03 value="0.00633873696752" flag="0"/>
			<psa10 value="0.00165083310959" flag="0"/>
			<psa30 value="0.000263712079006" flag="0"/>
		</comp>
		<comp name=".HHN" depth="0.0">
			<acc value="0.0742332031398" flag="0"/>
			<vel value="0.00658203502723" flag="0"/>
			<psa03 value="0.0073383917314" flag="0"/>
			<psa10 value="0.0017067756827" flag="0"/>
			<psa30 value="0.000186414184962" flag="0"/>
		</comp>
		<comp name=".HHZ" depth="0.0">
			<acc value="0.0256956359842" flag="0"/>
			<vel value="0.00207419807243" flag="0"/>
			<psa03 value="0.00354717997024" flag="0"/>
			<psa10 value="0.00105410354012" flag="0"/>
			<psa30 value="0.000172336963353" flag="0"/>
		</comp>
	</station>
	<station code="KRK1" name="KRK1" netid="HI" source="ITSAK Strong Motion Network" insttype="" lat="39.618861" lon="19.9202">
		<comp name=".HNE" depth="0.0">
			<acc value="0.00584534816465" flag="0"/>
			<vel value="0.00146767697231" flag="0"/>
			<psa03 value="0.00352604868759" flag="0"/>
			<psa10 value="0.00112142518735" flag="0"/>
			<psa30 value="0.000201403914938" flag="0"/>
		</comp>
		<comp name=".HNN" depth="0.0">
			<acc value="0.00698035896485" flag="0"/>
			<vel value="0.00139579515263" flag="0"/>
			<psa03 value="0.00436609717522" flag="0"/>
			<psa10 value="0.000730647659632" flag="0"/>
			<psa30 value="0.000106581298769" flag="0"/>
		</comp>
		<comp name=".HNZ" depth="0.0">
			<acc value="0.0165171832921" flag="0"/>
			<vel value="0.00172389289927" flag="0"/>
			<psa03 value="0.00298844080808" flag="0"/>
			<psa10 value="0.000455858840988" flag="0"/>
			<psa30 value="0.000104161385857" flag="0"/>
		</comp>
	</station>
	<station code="LMS2" name="LMS2" netid="HI" source="ITSAK Strong Motion Network" insttype="" lat="40.834985" lon="21.141815">
		<comp name=".HNE" depth="0.0">
			<acc value="0.0034026319475" flag="0"/>
			<vel value="0.000942071786252" flag="0"/>
			<psa03 value="0.00482359460457" flag="0"/>
			<psa10 value="0.000653229816239" flag="0"/>
			<psa30 value="0.000111536920024" flag="0"/>
		</comp>
		<comp name=".HNN" depth="0.0">
			<acc value="0.00397542515294" flag="0"/>
			<vel value="0.00124684879257" flag="0"/>
			<psa03 value="0.00435168931973" flag="0"/>
			<psa10 value="0.00103734696133" flag="0"/>
			<psa30 value="8.20204139185e-05" flag="0"/>
		</comp>
		<comp name=".HNZ" depth="0.0">
			<acc value="0.00206384219278" flag="0"/>
			<vel value="0.000555786030116" flag="0"/>
			<psa03 value="0.00267491694621" flag="0"/>
			<psa10 value="0.000746451440934" flag="0"/>
			<psa30 value="6.91202364284e-05" flag="0"/>
		</comp>
	</station>
	<station code="JAN" name="JAN" netid="HL" source="National Observatory of Athens Seismic Network" insttype="" lat="39.65616" lon="20.84874">
		<comp name="00.HNE" depth="0.0">
			<acc value="0.00147270666572" flag="0"/>
			<vel value="0.000649781518644" flag="0"/>
			<psa03 value="0.00147317197192" flag="0"/>
			<psa10 value="0.001141010977" flag="0"/>
			<psa30 value="0.000160923212456" flag="0"/>
		</comp>
		<comp name="00.HNN" depth="0.0">
			<acc value="0.00147777510185" flag="0"/>
			<vel value="0.000531677477651" flag="0"/>
			<psa03 value="0.00208246998467" flag="0"/>
			<psa10 value="0.000786250307882" flag="0"/>
			<psa30 value="9.86684764063e-05" flag="0"/>
		</comp>
		<comp name="00.HNZ" depth="0.0">
			<acc value="0.000898359776127" flag="0"/>
			<vel value="0.000365619520809" flag="0"/>
			<psa03 value="0.00107385010866" flag="0"/>
			<psa10 value="0.000624948724003" flag="0"/>
			<psa30 value="0.000112405467144" flag="0"/>
		</comp>
	</station>
	<station code="TRKA" name="TRKA" netid="HL" source="National Observatory of Athens Seismic Network" insttype="" lat="39.55381" lon="21.76624">
		<comp name="00.HNE" depth="0.0">
			<acc value="0.00214236250263" flag="0"/>
			<vel value="0.000666779547635" flag="0"/>
			<psa03 value="0.00232967516288" flag="0"/>
			<psa10 value="0.00129092950212" flag="0"/>
			<psa30 value="0.000122227146428" flag="0"/>
		</comp>
		<comp name="00.HNN" depth="0.0">
			<acc value="0.00248830223899" flag="0"/>
			<vel value="0.000831490331736" flag="0"/>
			<psa03 value="0.0023519494249" flag="0"/>
			<psa10 value="0.00119157510788" flag="0"/>
			<psa30 value="0.000150798192765" flag="0"/>
		</comp>
		<comp name="00.HNZ" depth="0.0">
			<acc value="0.0101755919865" flag="0"/>
			<vel value="0.00119038753287" flag="0"/>
			<psa03 value="0.00203013839296" flag="0"/>
			<psa10 value="0.000379315244961" flag="0"/>
			<psa30 value="0.000110364433498" flag="0"/>
		</comp>
	</station>
</stationlist>
