<?xml version="1.0" encoding="UTF-8" standalone="yes"?>
<!DOCTYPE earthquake SYSTEM "stationlist.dtd">
<stationlist created="" xmlns="ch.ethz.sed.shakemap.usgs.xml">
  <station code="KBN" name="KBN" netid="AC" insttype="" lat="40.6236" lon="20.7874">
    <comp name="--.HHE">
      <acc value="0.0039273326" flag="0"/>
      <vel value="0.0050259439" flag="0"/>
      <psa03 value="0.0084168237" flag="0"/>
      <psa10 value="0.0080545204" flag="0"/>
      <psa30 value="0.0004511809" flag="0"/>
    </comp>
    <comp name="--.HHN">
      <acc value="0.0038423631" flag="0"/>
      <vel value="0.0030166678" flag="0"/>
      <psa03 value="0.0074161468" flag="0"/>
      <psa10 value="0.0048804301" flag="0"/>
      <psa30 value="0.0004496159" flag="0"/>
    </comp>
    <comp name="--.HHZ">
      <acc value="0.0023593236" flag="0"/>
      <vel value="0.0017144917" flag="0"/>
      <psa03 value="0.0039861282" flag="0"/>
      <psa10 value="0.0024758829" flag="0"/>
      <psa30 value="0.0003837824" flag="0"/>
    </comp>
  </station>
  <station code="PHP" name="PHP" netid="AC" insttype="" lat="41.6847" lon="20.4408">
    <comp name="--.HHE">
      <acc value="0.0836883990" flag="0"/>
      <vel value="0.0070481634" flag="0"/>
      <psa03 value="0.0244494769" flag="0"/>
      <psa10 value="0.0067335896" flag="0"/>
      <psa30 value="0.0009521764" flag="0"/>
    </comp>
    <comp name="--.HHZ">
      <acc value="0.0086772385" flag="0"/>
      <vel value="0.0018088078" flag="0"/>
      <psa03 value="0.0062428008" flag="0"/>
      <psa10 value="0.0020414523" flag="0"/>
      <psa30 value="0.0001800729" flag="0"/>
    </comp>
    <comp name="--.HHN">
      <acc value="0.0185885626" flag="0"/>
      <vel value="0.0038524349" flag="0"/>
      <psa03 value="0.0179171904" flag="0"/>
      <psa10 value="0.0024581923" flag="0"/>
      <psa30 value="0.0002952821" flag="0"/>
    </comp>
  </station>
  <station code="PUK" name="PUK" netid="AC" insttype="" lat="42.0426" lon="19.8926">
    <comp name="--.HHE">
      <acc value="0.0046689876" flag="0"/>
      <vel value="0.0012475122" flag="0"/>
      <psa03 value="0.0080176635" flag="0"/>
      <psa10 value="0.0007361962" flag="0"/>
      <psa30 value="0.0001072676" flag="0"/>
    </comp>
    <comp name="--.HHN">
      <acc value="0.0063692283" flag="0"/>
      <vel value="0.0018897507" flag="0"/>
      <psa03 value="0.0101236161" flag="0"/>
      <psa10 value="0.0006364586" flag="0"/>
      <psa30 value="0.0000867484" flag="0"/>
    </comp>
    <comp name="--.HHZ">
      <acc value="0.0033098371" flag="0"/>
      <vel value="0.0007956862" flag="0"/>
      <psa03 value="0.0028308784" flag="0"/>
      <psa10 value="0.0004142322" flag="0"/>
      <psa30 value="0.0000172537" flag="0"/>
    </comp>
  </station>
  <station code="FNA" name="FNA" netid="HT" insttype="30" lat="40.7817" lon="21.3836">
    <comp name="--.HHZ">
      <acc value="0.0014353810" flag="0"/>
      <vel value="0.0007763875" flag="0"/>
      <psa03 value="0.0025882005" flag="0"/>
      <psa10 value="0.0011628542" flag="0"/>
      <psa30 value="0.0000562459" flag="0"/>
    </comp>
    <comp name="--.HHN">
      <acc value="0.0035211601" flag="0"/>
      <vel value="0.0018143117" flag="0"/>
      <psa03 value="0.0090756091" flag="0"/>
      <psa10 value="0.0020230249" flag="0"/>
      <psa30 value="0.0000756306" flag="0"/>
    </comp>
    <comp name="--.HHE">
      <acc value="0.0030428270" flag="0"/>
      <vel value="0.0020542902" flag="0"/>
      <psa03 value="0.0075404239" flag="0"/>
      <psa10 value="0.0018532760" flag="0"/>
      <psa30 value="0.0001051314" flag="0"/>
    </comp>
  </station>
  <station code="NEST" name="NEST" netid="HT" insttype="120P," lat="40.4147" lon="21.0489">
    <comp name="--.HHE">
      <acc value="0.0010167184" flag="0"/>
      <vel value="0.0008575120" flag="0"/>
      <psa03 value="0.0032809269" flag="0"/>
      <psa10 value="0.0010551484" flag="0"/>
      <psa30 value="0.0003201746" flag="0"/>
    </comp>
    <comp name="--.HHZ">
      <acc value="0.0009751650" flag="0"/>
      <vel value="0.0008009931" flag="0"/>
      <psa03 value="0.0040770885" flag="0"/>
      <psa10 value="0.0014596088" flag="0"/>
      <psa30 value="0.0001519221" flag="0"/>
    </comp>
    <comp name="--.HHN">
      <acc value="0.0010004160" flag="0"/>
      <vel value="0.0007075328" flag="0"/>
      <psa03 value="0.0023516105" flag="0"/>
      <psa10 value="0.0014812136" flag="0"/>
      <psa30 value="0.0002080996" flag="0"/>
    </comp>
  </station>
  <station code="TIR" name="TIR" netid="MN" insttype="" lat="41.3472" lon="19.8631">
    <comp name="--.HHE">
      <acc value="0.1033556061" flag="0"/>
      <vel value="0.0272012953" flag="0"/>
      <psa03 value="0.1030516664" flag="0"/>
      <psa10 value="0.0137905709" flag="0"/>
      <psa30 value="0.0007706702" flag="0"/>
    </comp>
    <comp name="--.HHZ">
      <acc value="0.0663777265" flag="0"/>
      <vel value="0.0172123879" flag="0"/>
      <psa03 value="0.0732057389" flag="0"/>
      <psa10 value="0.0104682414" flag="0"/>
      <psa30 value="0.0007657703" flag="0"/>
    </comp>
    <comp name="--.HHN">
      <acc value="0.1033425618" flag="0"/>
      <vel value="0.0274111245" flag="0"/>
      <psa03 value="0.1469398082" flag="0"/>
      <psa10 value="0.0099327236" flag="0"/>
      <psa30 value="0.0010351938" flag="0"/>
    </comp>
  </station>
</stationlist>
