<stationlist created="1778136018">
	<station code="BLY" name="BLY" netid="MN" source="Mediterranean Very Broadband Seismographic Network (MedNet)" insttype="" lat="44.7488" lon="17.1839">
		<comp name="--.HNE" depth="1.0">
			<acc value="0.201249934138098" flag="0"/>
			<vel value="0.120734023282993" flag="0"/>
			<psa03 value="0.792026541556647" flag="0"/>
			<psa10 value="0.18941657914052" flag="0"/>
			<psa30 value="0.0110893559103387" flag="0"/>
		</comp>
		<comp name="--.HNN" depth="1.0">
			<acc value="0.0851637225144668" flag="0"/>
			<vel value="0.0574637918055225" flag="0"/>
			<psa03 value="0.258609954253611" flag="0"/>
			<psa10 value="0.060196612206289" flag="0"/>
			<psa30 value="0.0043623651452815" flag="0"/>
		</comp>
		<comp name="--.HNZ" depth="1.0">
			<acc value="0.103212734847375" flag="0"/>
			<vel value="0.0599057404613717" flag="0"/>
			<psa03 value="0.225545463562708" flag="0"/>
			<psa10 value="0.0416733386663245" flag="0"/>
			<psa30 value="0.00984731225461543" flag="0"/>
		</comp>
	</station>
	<station code="DST2" name="DST2" netid="NI" source="North-East Italy Broadband Network (NI)" insttype="" lat="45.6589" lon="13.8013">
		<comp name="--.HNE" depth="0.0">
			<acc value="0.0622786201723107" flag="0"/>
			<vel value="0.0384390343972383" flag="0"/>
			<psa03 value="0.205993119270523" flag="0"/>
			<psa10 value="0.0351740857329543" flag="0"/>
			<psa30 value="0.00227872058306858" flag="0"/>
		</comp>
		<comp name="--.HNN" depth="0.0">
			<acc value="0.0599723998681036" flag="0"/>
			<vel value="0.0447615420591141" flag="0"/>
			<psa03 value="0.237044210663604" flag="0"/>
			<psa10 value="0.0319083520718867" flag="0"/>
			<psa30 value="0.00335611291843656" flag="0"/>
		</comp>
		<comp name="--.HNZ" depth="0.0">
			<acc value="0.0408014429078219" flag="0"/>
			<vel value="0.0350566168481954" flag="0"/>
			<psa03 value="0.107470780297089" flag="0"/>
			<psa10 value="0.0378559335976535" flag="0"/>
			<psa30 value="0.0016362224960302" flag="0"/>
		</comp>
	</station>
	<station code="ACOM" name="ACOM" netid="OX" source="North-East Italy Seismic Network" insttype="" lat="46.548" lon="13.5137">
		<comp name="--.HNE" depth="0.0">
			<acc value="0.0381890041542196" flag="0"/>
			<vel value="0.0311091859637319" flag="0"/>
			<psa03 value="0.106083771891922" flag="0"/>
			<psa10 value="0.0445967944467624" flag="0"/>
			<psa30 value="0.00459591946382887" flag="0"/>
		</comp>
		<comp name="--.HNN" depth="0.0">
			<acc value="0.038871509152482" flag="0"/>
			<vel value="0.0316215522302324" flag="0"/>
			<psa03 value="0.111273867859642" flag="0"/>
			<psa10 value="0.0579979801730671" flag="0"/>
			<psa30 value="0.00338609019687081" flag="0"/>
		</comp>
		<comp name="--.HNZ" depth="0.0">
			<acc value="0.019310947278675" flag="0"/>
			<vel value="0.0186149267937725" flag="0"/>
			<psa03 value="0.0503349824455557" flag="0"/>
			<psa10 value="0.0396075909867589" flag="0"/>
			<psa30 value="0.00325320584321454" flag="0"/>
		</comp>
	</station>
	<station code="DRE" name="DRE" netid="OX" source="North-East Italy Seismic Network" insttype="" lat="46.1733" lon="13.645">
		<comp name="--.HNE" depth="0.0">
			<acc value="0.052126700024639" flag="0"/>
			<vel value="0.0317149723258619" flag="0"/>
			<psa03 value="0.148365157146189" flag="0"/>
			<psa10 value="0.0327298189853982" flag="0"/>
			<psa30 value="0.00243755541656344" flag="0"/>
		</comp>
		<comp name="--.HNN" depth="0.0">
			<acc value="0.0448314398037022" flag="0"/>
			<vel value="0.0307010058154682" flag="0"/>
			<psa03 value="0.146351757848367" flag="0"/>
			<psa10 value="0.0221473922760445" flag="0"/>
			<psa30 value="0.00211093730825006" flag="0"/>
		</comp>
		<comp name="--.HNZ" depth="0.0">
			<acc value="0.0221523869739365" flag="0"/>
			<vel value="0.021588369341384" flag="0"/>
			<psa03 value="0.0471582857756584" flag="0"/>
			<psa10 value="0.0285661092375018" flag="0"/>
			<psa30 value="0.00248185020111553" flag="0"/>
		</comp>
	</station>
	<station code="PRED" name="PRED" netid="OX" source="North-East Italy Seismic Network" insttype="" lat="46.4428" lon="13.565">
		<comp name="--.HNE" depth="0.0">
			<acc value="0.00618497226641096" flag="0"/>
			<vel value="0.010053117121477" flag="0"/>
			<psa03 value="0.014988639217121" flag="0"/>
			<psa10 value="0.02108834424539" flag="0"/>
			<psa30 value="0.00169930900736196" flag="0"/>
		</comp>
		<comp name="--.HNN" depth="0.0">
			<acc value="0.00741594309189056" flag="0"/>
			<vel value="0.00914317231334098" flag="0"/>
			<psa03 value="0.0197760553252761" flag="0"/>
			<psa10 value="0.0232225475010816" flag="0"/>
			<psa30 value="0.00163532765189783" flag="0"/>
		</comp>
		<comp name="--.HNZ" depth="0.0">
			<acc value="0.00829654336581689" flag="0"/>
			<vel value="0.00930540296409144" flag="0"/>
			<psa03 value="0.0262636752849255" flag="0"/>
			<psa10 value="0.0243661583022446" flag="0"/>
			<psa30 value="0.00140535270987992" flag="0"/>
		</comp>
	</station>
	<station code="SABO" name="SABO" netid="OX" source="North-East Italy Seismic Network" insttype="" lat="45.9875" lon="13.6336">
		<comp name="--.HNE" depth="0.0">
			<acc value="0.20707157014305" flag="0"/>
			<vel value="0.150983006153152" flag="0"/>
			<psa03 value="0.494490867545139" flag="0"/>
			<psa10 value="0.251896386150539" flag="0"/>
			<psa30 value="0.0143161638516484" flag="0"/>
		</comp>
		<comp name="--.HNN" depth="0.0">
			<acc value="0.242711098755886" flag="0"/>
			<vel value="0.218388322049525" flag="0"/>
			<psa03 value="0.648448800518613" flag="0"/>
			<psa10 value="0.403883872344543" flag="0"/>
			<psa30 value="0.0207304065924438" flag="0"/>
		</comp>
		<comp name="--.HNZ" depth="0.0">
			<acc value="0.0921550558843945" flag="0"/>
			<vel value="0.0918364620970249" flag="0"/>
			<psa03 value="0.234583389299599" flag="0"/>
			<psa10 value="0.171835576471936" flag="0"/>
			<psa30 value="0.00850862543259674" flag="0"/>
		</comp>
	</station>
	<station code="BOJS" name="BOJS" netid="SL" source="Seismic Network of the Republic of Slovenia (SNRS)" insttype="" lat="45.5043" lon="15.2518">
		<comp name="--.HNE" depth="0.0">
			<acc value="0.182522280933728" flag="0"/>
			<vel value="0.0596474966272355" flag="0"/>
			<psa03 value="0.263218401535293" flag="0"/>
			<psa10 value="0.033309677983171" flag="0"/>
			<psa30 value="0.00244158221515909" flag="0"/>
		</comp>
		<comp name="--.HNN" depth="0.0">
			<acc value="0.184002414716525" flag="0"/>
			<vel value="0.0591425820757172" flag="0"/>
			<psa03 value="0.253151405046182" flag="0"/>
			<psa10 value="0.0584691156087575" flag="0"/>
			<psa30 value="0.00321651723378756" flag="0"/>
		</comp>
		<comp name="--.HNZ" depth="0.0">
			<acc value="0.132832293259949" flag="0"/>
			<vel value="0.0743686207521712" flag="0"/>
			<psa03 value="0.376595153105993" flag="0"/>
			<psa10 value="0.0426236631348966" flag="0"/>
			<psa30 value="0.0030236783232628" flag="0"/>
		</comp>
	</station>
	<station code="BZKE" name="BZKE" netid="SL" source="Seismic Network of the Republic of Slovenia (SNRS)" insttype="" lat="46.038" lon="14.5645">
		<comp name="--.HN1" depth="0.0">
			<acc value="0.0843691051832664" flag="0"/>
			<vel value="0.0572507528057426" flag="0"/>
			<psa03 value="0.209642616961127" flag="0"/>
			<psa10 value="0.079243702006515" flag="0"/>
			<psa30 value="0.00586686615107284" flag="0"/>
		</comp>
		<comp name="--.HN2" depth="0.0">
			<acc value="0.0879995862231109" flag="0"/>
			<vel value="0.0705063646593667" flag="0"/>
			<psa03 value="0.244288307901357" flag="0"/>
			<psa10 value="0.0511275569498832" flag="0"/>
			<psa30 value="0.00403984678668915" flag="0"/>
		</comp>
		<comp name="--.HNZ" depth="0.0">
			<acc value="0.0432608675139789" flag="0"/>
			<vel value="0.0290508595515609" flag="0"/>
			<psa03 value="0.115903594711076" flag="0"/>
			<psa10 value="0.0465275209701175" flag="0"/>
			<psa30 value="0.00374461347893079" flag="0"/>
		</comp>
	</station>
	<station code="CADS" name="CADS" netid="SL" source="Seismic Network of the Republic of Slovenia (SNRS)" insttype="" lat="46.2281" lon="13.7368">
		<comp name="--.HNE" depth="0.0">
			<acc value="0.0474011095194799" flag="0"/>
			<vel value="0.0351180515405318" flag="0"/>
			<psa03 value="0.121027668902425" flag="0"/>
			<psa10 value="0.024780918557596" flag="0"/>
			<psa30 value="0.00251406458988069" flag="0"/>
		</comp>
		<comp name="--.HNN" depth="0.0">
			<acc value="0.0536324344638309" flag="0"/>
			<vel value="0.0343640217219712" flag="0"/>
			<psa03 value="0.230109168637772" flag="0"/>
			<psa10 value="0.0301768286757596" flag="0"/>
			<psa30 value="0.00421292617517647" flag="0"/>
		</comp>
		<comp name="--.HNZ" depth="0.0">
			<acc value="0.0315020576157216" flag="0"/>
			<vel value="0.0244135397490896" flag="0"/>
			<psa03 value="0.0909161638483282" flag="0"/>
			<psa10 value="0.0376545936678713" flag="0"/>
			<psa30 value="0.00222816188958993" flag="0"/>
		</comp>
	</station>
	<station code="CENE" name="CENE" netid="SL" source="Seismic Network of the Republic of Slovenia (SNRS)" insttype="" lat="45.5097" lon="13.77">
		<comp name="--.HN1" depth="0.0">
			<acc value="0.113047931868868" flag="0"/>
			<vel value="0.0739900491264143" flag="0"/>
			<psa03 value="0.270987118233141" flag="0"/>
			<psa10 value="0.0902891137106669" flag="0"/>
			<psa30 value="0.00528822906922669" flag="0"/>
		</comp>
		<comp name="--.HN2" depth="0.0">
			<acc value="0.102637036509477" flag="0"/>
			<vel value="0.0618557702499565" flag="0"/>
			<psa03 value="0.260826278460909" flag="0"/>
			<psa10 value="0.0538805318208424" flag="0"/>
			<psa30 value="0.00334937458796058" flag="0"/>
		</comp>
		<comp name="--.HNZ" depth="0.0">
			<acc value="0.058171353105563" flag="0"/>
			<vel value="0.038318155036092" flag="0"/>
			<psa03 value="0.190056986175924" flag="0"/>
			<psa10 value="0.0401395615489681" flag="0"/>
			<psa30 value="0.00220010824637464" flag="0"/>
		</comp>
	</station>
	<station code="CEY" name="CEY" netid="SL" source="Seismic Network of the Republic of Slovenia (SNRS)" insttype="" lat="45.7381" lon="14.4221">
		<comp name="--.HNE" depth="0.0">
			<acc value="0.0615581065026774" flag="0"/>
			<vel value="0.0388034509671205" flag="0"/>
			<psa03 value="0.171138940314889" flag="0"/>
			<psa10 value="0.0409646221134911" flag="0"/>
			<psa30 value="0.00300846597301259" flag="0"/>
		</comp>
		<comp name="--.HNN" depth="0.0">
			<acc value="0.0774282377230336" flag="0"/>
			<vel value="0.0579443728667876" flag="0"/>
			<psa03 value="0.129170750506951" flag="0"/>
			<psa10 value="0.0653871555960747" flag="0"/>
			<psa30 value="0.00405632845201252" flag="0"/>
		</comp>
		<comp name="--.HNZ" depth="0.0">
			<acc value="0.063448031271461" flag="0"/>
			<vel value="0.0555314114413278" flag="0"/>
			<psa03 value="0.134047651028342" flag="0"/>
			<psa10 value="0.0394747066331026" flag="0"/>
			<psa30 value="0.00373507940849333" flag="0"/>
		</comp>
	</station>
	<station code="CRES" name="CRES" netid="SL" source="Seismic Network of the Republic of Slovenia (SNRS)" insttype="" lat="45.826" lon="15.4569">
		<comp name="--.HNE" depth="0.0">
			<acc value="0.419313948650106" flag="0"/>
			<vel value="0.271714067169127" flag="0"/>
			<psa03 value="0.848446464102287" flag="0"/>
			<psa10 value="0.144562069583636" flag="0"/>
			<psa30 value="0.0111247022535671" flag="0"/>
		</comp>
		<comp name="--.HNN" depth="0.0">
			<acc value="0.289826233161603" flag="0"/>
			<vel value="0.168293182512378" flag="0"/>
			<psa03 value="0.979809582733533" flag="0"/>
			<psa10 value="0.164180632341616" flag="0"/>
			<psa30 value="0.0100155429515001" flag="0"/>
		</comp>
		<comp name="--.HNZ" depth="0.0">
			<acc value="0.300955267668565" flag="0"/>
			<vel value="0.107371977638119" flag="0"/>
			<psa03 value="0.39583430195185" flag="0"/>
			<psa10 value="0.0674327692826621" flag="0"/>
			<psa30 value="0.00447780003835664" flag="0"/>
		</comp>
	</station>
	<station code="CRNS" name="CRNS" netid="SL" source="Seismic Network of the Republic of Slovenia (SNRS)" insttype="" lat="46.0807" lon="14.2613">
		<comp name="--.HNE" depth="0.0">
			<acc value="0.154849617212879" flag="0"/>
			<vel value="0.0864932408058873" flag="0"/>
			<psa03 value="0.328989445264152" flag="0"/>
			<psa10 value="0.0696998568920099" flag="0"/>
			<psa30 value="0.00525765669971311" flag="0"/>
		</comp>
		<comp name="--.HNN" depth="0.0">
			<acc value="0.106832453647549" flag="0"/>
			<vel value="0.0490663887256939" flag="0"/>
			<psa03 value="0.200803023302804" flag="0"/>
			<psa10 value="0.0458491288100078" flag="0"/>
			<psa30 value="0.00346796843498224" flag="0"/>
		</comp>
		<comp name="--.HNZ" depth="0.0">
			<acc value="0.0477884135389618" flag="0"/>
			<vel value="0.0322635761516676" flag="0"/>
			<psa03 value="0.143532998831416" flag="0"/>
			<psa10 value="0.0320613704185212" flag="0"/>
			<psa30 value="0.00293508875415863" flag="0"/>
		</comp>
	</station>
	<station code="DOBS" name="DOBS" netid="SL" source="Seismic Network of the Republic of Slovenia (SNRS)" insttype="" lat="46.1495" lon="15.4695">
		<comp name="--.HNE" depth="0.0">
			<acc value="0.164404982439754" flag="0"/>
			<vel value="0.110304984534969" flag="0"/>
			<psa03 value="0.395083338999036" flag="0"/>
			<psa10 value="0.0904187898011317" flag="0"/>
			<psa30 value="0.01482243524694" flag="0"/>
		</comp>
		<comp name="--.HNN" depth="0.0">
			<acc value="0.173336869613873" flag="0"/>
			<vel value="0.0750312156621914" flag="0"/>
			<psa03 value="0.359726080087383" flag="0"/>
			<psa10 value="0.067189750991185" flag="0"/>
			<psa30 value="0.00654570612089523" flag="0"/>
		</comp>
		<comp name="--.HNZ" depth="0.0">
			<acc value="0.0655798056528129" flag="0"/>
			<vel value="0.0388125799008697" flag="0"/>
			<psa03 value="0.114978731359826" flag="0"/>
			<psa10 value="0.0789576780585132" flag="0"/>
			<psa30 value="0.00565833733708481" flag="0"/>
		</comp>
	</station>
	<station code="DOLA" name="DOLA" netid="SL" source="Seismic Network of the Republic of Slovenia (SNRS)" insttype="" lat="46.0938" lon="14.6781">
		<comp name="--.HGE" depth="0.0">
			<acc value="0.0839115708672067" flag="0"/>
			<vel value="0.0717808415908726" flag="0"/>
			<psa03 value="0.161556837764274" flag="0"/>
			<psa10 value="0.0953146266263612" flag="0"/>
			<psa30 value="0.00660059934064975" flag="0"/>
		</comp>
		<comp name="--.HGN" depth="0.0">
			<acc value="0.121803206893512" flag="0"/>
			<vel value="0.0824850773576439" flag="0"/>
			<psa03 value="0.255744921012592" flag="0"/>
			<psa10 value="0.111339678207073" flag="0"/>
			<psa30 value="0.00658561126442381" flag="0"/>
		</comp>
		<comp name="--.HGZ" depth="0.0">
			<acc value="0.0533565825042852" flag="0"/>
			<vel value="0.0491801790861681" flag="0"/>
			<psa03 value="0.135769754496484" flag="0"/>
			<psa10 value="0.0599891014834947" flag="0"/>
			<psa30 value="0.00458709428916363" flag="0"/>
		</comp>
	</station>
	<station code="DTSE" name="DTSE" netid="SL" source="Seismic Network of the Republic of Slovenia (SNRS)" insttype="" lat="46.0251" lon="14.8395">
		<comp name="--.HN1" depth="0.0">
			<acc value="0.190697336577472" flag="0"/>
			<vel value="0.165649780116723" flag="0"/>
			<psa03 value="0.374692321527233" flag="0"/>
			<psa10 value="0.184633341052907" flag="0"/>
			<psa30 value="0.0107595035976603" flag="0"/>
		</comp>
		<comp name="--.HN2" depth="0.0">
			<acc value="0.132276052173856" flag="0"/>
			<vel value="0.118326190278524" flag="0"/>
			<psa03 value="0.305907369028542" flag="0"/>
			<psa10 value="0.225682465355735" flag="0"/>
			<psa30 value="0.0102037567821411" flag="0"/>
		</comp>
		<comp name="--.HNZ" depth="0.0">
			<acc value="0.161525755294782" flag="0"/>
			<vel value="0.131954185638617" flag="0"/>
			<psa03 value="0.364424182980301" flag="0"/>
			<psa10 value="0.163853664501057" flag="0"/>
			<psa30 value="0.00785139761656044" flag="0"/>
		</comp>
	</station>
	<station code="FAGG" name="FAGG" netid="SL" source="Seismic Network of the Republic of Slovenia (SNRS)" insttype="" lat="46.0459" lon="14.4944">
		<comp name="--.HG1" depth="0.0">
			<acc value="0.231679242782002" flag="0"/>
			<vel value="0.121922460176256" flag="0"/>
			<psa03 value="0.520457561091417" flag="0"/>
			<psa10 value="0.0845728875388006" flag="0"/>
			<psa30 value="0.0102819902980435" flag="0"/>
		</comp>
		<comp name="--.HG2" depth="0.0">
			<acc value="0.233947167540284" flag="0"/>
			<vel value="0.125174718065001" flag="0"/>
			<psa03 value="0.626409288208242" flag="0"/>
			<psa10 value="0.0820800373997458" flag="0"/>
			<psa30 value="0.00681250754518137" flag="0"/>
		</comp>
		<comp name="--.HGZ" depth="0.0">
			<acc value="0.0588397960720278" flag="0"/>
			<vel value="0.0426429873218307" flag="0"/>
			<psa03 value="0.186571796965832" flag="0"/>
			<psa10 value="0.0395081659720891" flag="0"/>
			<psa30 value="0.00583139463463109" flag="0"/>
		</comp>
	</station>
	<station code="GBAS" name="GBAS" netid="SL" source="Seismic Network of the Republic of Slovenia (SNRS)" insttype="" lat="45.9348" lon="14.4434">
		<comp name="--.HNE" depth="0.0">
			<acc value="0.0370247104082297" flag="0"/>
			<vel value="0.0298042394138457" flag="0"/>
			<psa03 value="0.110423765933895" flag="0"/>
			<psa10 value="0.0509188682419242" flag="0"/>
			<psa30 value="0.00214270427494903" flag="0"/>
		</comp>
		<comp name="--.HNN" depth="0.0">
			<acc value="0.0415478229696559" flag="0"/>
			<vel value="0.0445320235982089" flag="0"/>
			<psa03 value="0.116374479414125" flag="0"/>
			<psa10 value="0.0792755839524524" flag="0"/>
			<psa30 value="0.0042406663432798" flag="0"/>
		</comp>
		<comp name="--.HNZ" depth="0.0">
			<acc value="0.0338296768183486" flag="0"/>
			<vel value="0.02047653112173" flag="0"/>
			<psa03 value="0.116777159273689" flag="0"/>
			<psa10 value="0.0242211935528014" flag="0"/>
			<psa30 value="0.00329705320570044" flag="0"/>
		</comp>
	</station>
	<station code="GBRS" name="GBRS" netid="SL" source="Seismic Network of the Republic of Slovenia (SNRS)" insttype="" lat="45.5311" lon="14.8101">
		<comp name="--.HNE" depth="0.0">
			<acc value="0.115596498129156" flag="0"/>
			<vel value="0.0474725397925322" flag="0"/>
			<psa03 value="0.19841097708703" flag="0"/>
			<psa10 value="0.0278364327770568" flag="0"/>
			<psa30 value="0.00237907072676079" flag="0"/>
		</comp>
		<comp name="--.HNN" depth="0.0">
			<acc value="0.0969937752450035" flag="0"/>
			<vel value="0.0409901632689028" flag="0"/>
			<psa03 value="0.208387158793212" flag="0"/>
			<psa10 value="0.0600103766430073" flag="0"/>
			<psa30 value="0.00257491036684334" flag="0"/>
		</comp>
		<comp name="--.HNZ" depth="0.0">
			<acc value="0.123575864937135" flag="0"/>
			<vel value="0.0660397493118449" flag="0"/>
			<psa03 value="0.172455476412233" flag="0"/>
			<psa10 value="0.0420586836814185" flag="0"/>
			<psa30 value="0.00531194189006069" flag="0"/>
		</comp>
	</station>
	<station code="GCIS" name="GCIS" netid="SL" source="Seismic Network of the Republic of Slovenia (SNRS)" insttype="" lat="45.8672" lon="15.6275">
		<comp name="--.HNE" depth="0.0">
			<acc value="0.348311930850443" flag="0"/>
			<vel value="0.17775931380412" flag="0"/>
			<psa03 value="0.657349796199669" flag="0"/>
			<psa10 value="0.116400023430345" flag="0"/>
			<psa30 value="0.0094669863080464" flag="0"/>
		</comp>
		<comp name="--.HNN" depth="0.0">
			<acc value="0.33533077811254" flag="0"/>
			<vel value="0.146471526188422" flag="0"/>
			<psa03 value="0.704276488193161" flag="0"/>
			<psa10 value="0.0904430014048636" flag="0"/>
			<psa30 value="0.00935688151413564" flag="0"/>
		</comp>
		<comp name="--.HNZ" depth="0.0">
			<acc value="0.148029605664025" flag="0"/>
			<vel value="0.0635146005217038" flag="0"/>
			<psa03 value="0.271140295047276" flag="0"/>
			<psa10 value="0.0524113569952041" flag="0"/>
			<psa30 value="0.00495484490080601" flag="0"/>
		</comp>
	</station>
