<?xml version="1.0" encoding="UTF-8" standalone="yes"?>
<!DOCTYPE earthquake SYSTEM "stationlist.dtd">
<stationlist created="" xmlns="ch.ethz.sed.shakemap.usgs.xml">
  <station code="BEHE" name="BEHE" netid="HU" insttype="" lat="46.4703" lon="16.7755">
    <comp name="--.HHZ">
      <acc value="0.0778077613" flag="0"/>
      <vel value="0.0449668380" flag="0"/>
      <psa03 value="0.2086966859" flag="0"/>
      <psa10 value="0.0519310800" flag="0"/>
      <psa30 value="0.0030857896" flag="0"/>
    </comp>
    <comp name="--.HHE">
      <acc value="0.1236686201" flag="0"/>
      <vel value="0.0875159950" flag="0"/>
      <psa03 value="0.3173411402" flag="0"/>
      <psa10 value="0.0906983401" flag="0"/>
      <psa30 value="0.0082061935" flag="0"/>
    </comp>
    <comp name="--.HHN">
      <acc value="0.1445348382" flag="0"/>
      <vel value="0.0657829975" flag="0"/>
      <psa03 value="0.3534357215" flag="0"/>
      <psa10 value="0.1241477555" flag="0"/>
      <psa30 value="0.0052652968" flag="0"/>
    </comp>
  </station>
  <station code="BLY" name="BLY" netid="MN" insttype="" lat="44.7488" lon="17.1839">
    <comp name="--.HHE">
      <acc value="0.2028754343" flag="0"/>
      <vel value="0.1215256604" flag="0"/>
      <psa03 value="0.7976908027" flag="0"/>
      <psa10 value="0.1870254218" flag="0"/>
      <psa30 value="0.0103526917" flag="0"/>
    </comp>
    <comp name="--.HHN">
      <acc value="0.0820869660" flag="0"/>
      <vel value="0.0554698485" flag="0"/>
      <psa03 value="0.2527544407" flag="0"/>
      <psa10 value="0.0586328865" flag="0"/>
      <psa30 value="0.0038249504" flag="0"/>
    </comp>
    <comp name="--.HHZ">
      <acc value="0.1053012040" flag="0"/>
      <vel value="0.0594284576" flag="0"/>
      <psa03 value="0.2252441822" flag="0"/>
      <psa10 value="0.0414724318" flag="0"/>
      <psa30 value="0.0092299002" flag="0"/>
    </comp>
  </station>
</stationlist>
