<?xml version="1.0" encoding="UTF-8" standalone="yes"?>
<!DOCTYPE earthquake SYSTEM "stationlist.dtd">
<stationlist created="" xmlns="ch.ethz.sed.shakemap.usgs.xml">
  <station code="BSZH" name="BSZH" netid="HU" insttype="" lat="47.2996" lon="20.267">
    <comp name="--.HHZ">
      <acc value="0.0541563229" flag="0"/>
      <vel value="0.0130072011" flag="0"/>
      <psa03 value="0.0515217339" flag="0"/>
      <psa10 value="0.0076506270" flag="0"/>
      <psa30 value="0.0006486133" flag="0"/>
    </comp>
    <comp name="--.HHE">
      <acc value="0.0599184201" flag="0"/>
      <vel value="0.0358381843" flag="0"/>
      <psa03 value="0.1717859207" flag="0"/>
      <psa10 value="0.0372103713" flag="0"/>
      <psa30 value="0.0030814514" flag="0"/>
    </comp>
    <comp name="--.HHN">
      <acc value="0.0702893829" flag="0"/>
      <vel value="0.0315773514" flag="0"/>
      <psa03 value="0.1362550549" flag="0"/>
      <psa10 value="0.0262245353" flag="0"/>
      <psa30 value="0.0014891433" flag="0"/>
    </comp>
  </station>
  <station code="LTVH" name="LTVH" netid="HU" insttype="" lat="47.3849" lon="21.9007">
    <comp name="--.HHE">
      <acc value="0.0208299134" flag="0"/>
      <vel value="0.0147401272" flag="0"/>
      <psa03 value="0.0663057017" flag="0"/>
      <psa10 value="0.0074127801" flag="0"/>
      <psa30 value="0.0014043312" flag="0"/>
    </comp>
    <comp name="--.HHZ">
      <acc value="0.0093543625" flag="0"/>
      <vel value="0.0033029476" flag="0"/>
      <psa03 value="0.0175973731" flag="0"/>
      <psa10 value="0.0053722173" flag="0"/>
      <psa30 value="0.0003146444" flag="0"/>
    </comp>
    <comp name="--.HHN">
      <acc value="0.0239753067" flag="0"/>
      <vel value="0.0138552343" flag="0"/>
      <psa03 value="0.0766899984" flag="0"/>
      <psa10 value="0.0074779598" flag="0"/>
      <psa30 value="0.0015245028" flag="0"/>
    </comp>
  </station>
  <station code="BORR" name="BORR" netid="RO" insttype="CMG40T.1to100/Quanterra" lat="47.0902" lon="21.7856">
    <comp name="--.HHE">
      <acc value="0.0316624648" flag="0"/>
      <vel value="0.0150460722" flag="0"/>
      <psa03 value="0.0890057730" flag="0"/>
      <psa10 value="0.0100324183" flag="0"/>
      <psa30 value="0.0010780212" flag="0"/>
    </comp>
    <comp name="--.HHN">
      <acc value="0.0316189580" flag="0"/>
      <vel value="0.0145198053" flag="0"/>
      <psa03 value="0.0937556388" flag="0"/>
      <psa10 value="0.0115291275" flag="0"/>
      <psa30 value="0.0019612479" flag="0"/>
    </comp>
    <comp name="--.HHZ">
      <acc value="0.0427592319" flag="0"/>
      <vel value="0.0062441002" flag="0"/>
      <psa03 value="0.0170818793" flag="0"/>
      <psa10 value="0.0059518831" flag="0"/>
      <psa30 value="0.0004045012" flag="0"/>
    </comp>
  </station>
</stationlist>
