<?xml version="1.0" encoding="UTF-8" standalone="yes"?>
<!DOCTYPE earthquake SYSTEM "stationlist.dtd">
<stationlist created="" xmlns="ch.ethz.sed.shakemap.usgs.xml">
  <station code="SIT2" name="SIT2" netid="HI" insttype="CMG-5TD,ACCELEROMETER,GURALP" commtype="DIG" lat="35.2059" lon="26.107">
    <comp name="--.HNZ">
      <acc value="0.2249197120" flag="0"/>
      <vel value="0.0768521446" flag="0"/>
      <psa03 value="0.6815025886" flag="0"/>
      <psa10 value="0.0177776208" flag="0"/>
      <psa30 value="0.0022136071" flag="0"/>
    </comp>
    <comp name="--.HNE">
      <acc value="0.2716477622" flag="0"/>
      <vel value="0.1564643990" flag="0"/>
      <psa03 value="1.2198336545" flag="0"/>
      <psa10 value="0.0735494019" flag="0"/>
      <psa30 value="0.0050947393" flag="0"/>
    </comp>
    <comp name="--.HNN">
      <acc value="0.1800459480" flag="0"/>
      <vel value="0.1159489982" flag="0"/>
      <psa03 value="0.6667665285" flag="0"/>
      <psa10 value="0.0647709519" flag="0"/>
      <psa30 value="0.0050997473" flag="0"/>
    </comp>
  </station>
</stationlist>
