<?xml version="1.0" encoding="UTF-8" standalone="yes"?>
<!DOCTYPE earthquake SYSTEM "stationlist.dtd">
<stationlist created="" xmlns="ch.ethz.sed.shakemap.usgs.xml">
  <station code="ARPRA" name="ARPRA" netid="KO" insttype="CMG-5T" lat="39.0929" lon="38.3356">
    <comp name="--.HNZ">
      <acc value="0.0506334111" flag="0"/>
      <vel value="0.0350820039" flag="0"/>
      <psa03 value="0.1873413794" flag="0"/>
      <psa10 value="0.0285156289" flag="0"/>
      <psa30 value="0.0020967636" flag="0"/>
    </comp>
    <comp name="--.HNN">
      <acc value="0.1200944216" flag="0"/>
      <vel value="0.0675822577" flag="0"/>
      <psa03 value="0.4515815515" flag="0"/>
      <psa10 value="0.0578308911" flag="0"/>
      <psa30 value="0.0034204708" flag="0"/>
    </comp>
    <comp name="--.HNE">
      <acc value="0.1412540628" flag="0"/>
      <vel value="0.0734134475" flag="0"/>
      <psa03 value="0.2822870577" flag="0"/>
      <psa10 value="0.0630585027" flag="0"/>
      <psa30 value="0.0061626485" flag="0"/>
    </comp>
  </station>
  <station code="DARE" name="DARE" netid="KO" insttype="CMG-3ESP" lat="38.5712" lon="37.4832">
    <comp name="--.HHN">
      <acc value="0.0199272634" flag="0"/>
      <vel value="0.0130109423" flag="0"/>
      <psa03 value="0.0609819463" flag="0"/>
      <psa10 value="0.0169806013" flag="0"/>
      <psa30 value="0.0011940143" flag="0"/>
    </comp>
    <comp name="--.HHE">
      <acc value="0.0168230085" flag="0"/>
      <vel value="0.0131964084" flag="0"/>
      <psa03 value="0.0382338167" flag="0"/>
      <psa10 value="0.0172840595" flag="0"/>
      <psa30 value="0.0012407737" flag="0"/>
    </comp>
    <comp name="--.HHZ">
      <acc value="0.0140267044" flag="0"/>
      <vel value="0.0094821828" flag="0"/>
      <psa03 value="0.0477748673" flag="0"/>
      <psa10 value="0.0141512710" flag="0"/>
      <psa30 value="0.0010785659" flag="0"/>
    </comp>
  </station>
  <station code="DYBB" name="DYBB" netid="KO" insttype="CMG-3T" lat="37.9532" lon="40.1393">
    <comp name="--.HHE">
      <acc value="0.0256054408" flag="0"/>
      <vel value="0.0152298207" flag="0"/>
      <psa03 value="0.0411011592" flag="0"/>
      <psa10 value="0.0279210043" flag="0"/>
      <psa30 value="0.0032965374" flag="0"/>
    </comp>
    <comp name="--.HHZ">
      <acc value="0.0225120120" flag="0"/>
      <vel value="0.0092234524" flag="0"/>
      <psa03 value="0.0215002715" flag="0"/>
      <psa10 value="0.0170261314" flag="0"/>
      <psa30 value="0.0020637226" flag="0"/>
    </comp>
    <comp name="--.HHN">
      <acc value="0.0188926569" flag="0"/>
      <vel value="0.0117996603" flag="0"/>
      <psa03 value="0.0446137761" flag="0"/>
      <psa10 value="0.0165372395" flag="0"/>
      <psa30 value="0.0038681559" flag="0"/>
    </comp>
  </station>
  <station code="URFA" name="URFA" netid="KO" insttype="CMG-3ESP" lat="37.4409" lon="38.8213">
    <comp name="--.HHN">
      <acc value="0.0815278125" flag="0"/>
      <vel value="0.0288646755" flag="0"/>
      <psa03 value="0.1026564348" flag="0"/>
      <psa10 value="0.0258372720" flag="0"/>
      <psa30 value="0.0023071574" flag="0"/>
    </comp>
  </station>
</stationlist>
