<?xml version="1.0" encoding="UTF-8" standalone="yes"?>
<!DOCTYPE earthquake SYSTEM "stationlist.dtd">
<stationlist created="" xmlns="ch.ethz.sed.shakemap.usgs.xml">
  <station code="APE" name="APE" netid="GE" insttype="STS-2/N" lat="37.0727" lon="25.523">
    <comp name="--.HHE">
      <acc value="0.1278805660" flag="0"/>
      <vel value="0.0248834924" flag="0"/>
      <psa03 value="0.0671839609" flag="0"/>
      <psa10 value="0.0110745940" flag="0"/>
      <psa30 value="0.0019144457" flag="0"/>
    </comp>
    <comp name="--.HHN">
      <acc value="0.1212611039" flag="0"/>
      <vel value="0.0250546043" flag="0"/>
      <psa03 value="0.0710654314" flag="0"/>
      <psa10 value="0.0085866296" flag="0"/>
      <psa30 value="0.0011824550" flag="0"/>
    </comp>
    <comp name="--.HHZ">
      <acc value="0.0720602645" flag="0"/>
      <vel value="0.0104216486" flag="0"/>
      <psa03 value="0.0300948697" flag="0"/>
      <psa10 value="0.0094657448" flag="0"/>
      <psa30 value="0.0011454983" flag="0"/>
    </comp>
  </station>
  <station code="THERA" name="THERA" netid="GE" insttype="STS-2/N" lat="36.367" lon="25.4753">
    <comp name="--.HHZ">
      <acc value="0.2200548266" flag="0"/>
      <vel value="0.0437837355" flag="0"/>
      <psa03 value="0.1127970536" flag="0"/>
      <psa10 value="0.0171331856" flag="0"/>
      <psa30 value="0.0018007837" flag="0"/>
    </comp>
    <comp name="--.HHN">
      <acc value="0.1177471952" flag="0"/>
      <vel value="0.0244188278" flag="0"/>
      <psa03 value="0.1100863222" flag="0"/>
      <psa10 value="0.0184026084" flag="0"/>
      <psa30 value="0.0010894964" flag="0"/>
    </comp>
    <comp name="--.HHE">
      <acc value="0.1737607358" flag="0"/>
      <vel value="0.0449482832" flag="0"/>
      <psa03 value="0.1308732423" flag="0"/>
      <psa10 value="0.0210660889" flag="0"/>
      <psa30 value="0.0021137761" flag="0"/>
    </comp>
  </station>
  <station code="SNT1" name="SNT1" netid="HA" insttype="30" lat="36.4159" lon="25.4282">
    <comp name="--.HHE">
      <acc value="0.1295596331" flag="0"/>
      <vel value="0.0355675102" flag="0"/>
      <psa03 value="0.0818311312" flag="0"/>
      <psa10 value="0.0483344400" flag="0"/>
      <psa30 value="0.0064680389" flag="0"/>
    </comp>
    <comp name="--.HHZ">
      <acc value="0.0895889509" flag="0"/>
      <vel value="0.0270102591" flag="0"/>
      <psa03 value="0.0799955346" flag="0"/>
      <psa10 value="0.0184236337" flag="0"/>
      <psa30 value="0.0022313571" flag="0"/>
    </comp>
    <comp name="--.HHN">
      <acc value="0.1492218867" flag="0"/>
      <vel value="0.0319921172" flag="0"/>
      <psa03 value="0.1212087295" flag="0"/>
      <psa10 value="0.0423679901" flag="0"/>
      <psa30 value="0.0048443697" flag="0"/>
    </comp>
  </station>
  <station code="NAX1" name="NAX1" netid="HI" insttype="CMG-5TD,ACCELEROMETER,GURALP" lat="37.1014" lon="25.3741">
    <comp name="--.HNZ">
      <acc value="0.0736361492" flag="0"/>
      <vel value="0.0130292721" flag="0"/>
      <psa03 value="0.0352449047" flag="0"/>
      <psa10 value="0.0104337834" flag="0"/>
      <psa30 value="0.0011027364" flag="0"/>
    </comp>
    <comp name="--.HNN">
      <acc value="0.1376400924" flag="0"/>
      <vel value="0.0249966403" flag="0"/>
      <psa03 value="0.0800931265" flag="0"/>
      <psa10 value="0.0080774260" flag="0"/>
      <psa30 value="0.0008919235" flag="0"/>
    </comp>
    <comp name="--.HNE">
      <acc value="0.1522540439" flag="0"/>
      <vel value="0.0491215149" flag="0"/>
      <psa03 value="0.1700965322" flag="0"/>
      <psa10 value="0.0154653734" flag="0"/>
      <psa30 value="0.0013798615" flag="0"/>
    </comp>
  </station>
  <station code="APE" name="APE" netid="HL" insttype="120" lat="37.0727" lon="25.523">
    <comp name="--.HHE">
      <acc value="0.1108525731" flag="0"/>
      <vel value="0.0242019375" flag="0"/>
      <psa03 value="0.0651628839" flag="0"/>
      <psa10 value="0.0109684373" flag="0"/>
      <psa30 value="0.0019087707" flag="0"/>
    </comp>
    <comp name="--.HHN">
      <acc value="0.1145538304" flag="0"/>
      <vel value="0.0237186005" flag="0"/>
      <psa03 value="0.0691361252" flag="0"/>
      <psa10 value="0.0084881672" flag="0"/>
      <psa30 value="0.0011738579" flag="0"/>
    </comp>
    <comp name="--.HHZ">
      <acc value="0.0605347005" flag="0"/>
      <vel value="0.0101062374" flag="0"/>
      <psa03 value="0.0294953493" flag="0"/>
      <psa10 value="0.0093960478" flag="0"/>
      <psa30 value="0.0011352921" flag="0"/>
    </comp>
  </station>
  <station code="MHLO" name="MHLO" netid="HL" insttype="20" lat="36.6898" lon="24.4017">
    <comp name="--.HHE">
      <acc value="0.0722712856" flag="0"/>
      <vel value="0.0287501575" flag="0"/>
      <psa03 value="0.2315734602" flag="0"/>
      <psa10 value="0.0431924662" flag="0"/>
      <psa30 value="0.0024442341" flag="0"/>
    </comp>
    <comp name="--.HHN">
      <acc value="0.0877712675" flag="0"/>
      <vel value="0.0372591544" flag="0"/>
      <psa03 value="0.2882939516" flag="0"/>
      <psa10 value="0.0435449391" flag="0"/>
      <psa30 value="0.0021710704" flag="0"/>
    </comp>
    <comp name="--.HHZ">
      <acc value="0.0224427064" flag="0"/>
      <vel value="0.0133076688" flag="0"/>
      <psa03 value="0.0870109677" flag="0"/>
      <psa10 value="0.0232434819" flag="0"/>
      <psa30 value="0.0019984029" flag="0"/>
    </comp>
  </station>
  <station code="SAP3" name="SAP3" netid="HL" insttype="LE3D20_SMART24" lat="36.4356" lon="25.3454">
    <comp name="--.HHE">
      <acc value="0.6265728038" flag="0"/>
      <vel value="0.1878959041" flag="0"/>
      <psa03 value="0.7841690230" flag="0"/>
      <psa10 value="0.1606363036" flag="0"/>
      <psa30 value="0.0178997238" flag="0"/>
    </comp>
    <comp name="--.HHZ">
      <acc value="0.6635219752" flag="0"/>
      <vel value="0.1261804705" flag="0"/>
      <psa03 value="0.3500074588" flag="0"/>
      <psa10 value="0.0601051654" flag="0"/>
      <psa30 value="0.0072982443" flag="0"/>
    </comp>
    <comp name="--.HHN">
      <acc value="0.5312967262" flag="0"/>
      <vel value="0.1500506072" flag="0"/>
      <psa03 value="0.7437314184" flag="0"/>
      <psa10 value="0.1077264906" flag="0"/>
      <psa30 value="0.0110267187" flag="0"/>
    </comp>
  </station>
  <station code="THERA" name="THERA" netid="HL" insttype="120" lat="36.367" lon="25.4753">
    <comp name="--.HHE">
      <acc value="0.1705872048" flag="0"/>
      <vel value="0.0440717549" flag="0"/>
      <psa03 value="0.1268720838" flag="0"/>
      <psa10 value="0.0209272125" flag="0"/>
      <psa30 value="0.0021093153" flag="0"/>
    </comp>
    <comp name="--.HHN">
      <acc value="0.1141373673" flag="0"/>
      <vel value="0.0238677340" flag="0"/>
      <psa03 value="0.1066766890" flag="0"/>
      <psa10 value="0.0183109504" flag="0"/>
      <psa30 value="0.0010823514" flag="0"/>
    </comp>
    <comp name="--.HHZ">
      <acc value="0.2144729548" flag="0"/>
      <vel value="0.0432450769" flag="0"/>
      <psa03 value="0.1092150388" flag="0"/>
      <psa10 value="0.0169312907" flag="0"/>
      <psa30 value="0.0018017918" flag="0"/>
    </comp>
  </station>
  <station code="THRA" name="THRA" netid="HL" insttype="CMG-5" lat="36.415" lon="25.4324">
    <comp name="00.HNE">
      <acc value="0.5245355322" flag="0"/>
      <vel value="0.1204443596" flag="0"/>
      <psa03 value="0.7073509433" flag="0"/>
      <psa10 value="0.1005031378" flag="0"/>
      <psa30 value="0.0093498504" flag="0"/>
    </comp>
    <comp name="00.HNN">
      <acc value="0.2595634429" flag="0"/>
      <vel value="0.0914515939" flag="0"/>
      <psa03 value="0.5013563031" flag="0"/>
      <psa10 value="0.1156866103" flag="0"/>
      <psa30 value="0.0086485764" flag="0"/>
    </comp>
    <comp name="00.HNZ">
      <acc value="0.3021741828" flag="0"/>
      <vel value="0.0728220790" flag="0"/>
      <psa03 value="0.4229193865" flag="0"/>
      <psa10 value="0.0642075781" flag="0"/>
      <psa30 value="0.0034744677" flag="0"/>
    </comp>
  </station>
  <station code="TNSA" name="TNSA" netid="HL" insttype="CMG-5" lat="37.5394" lon="25.1631">
    <comp name="00.HNN">
      <acc value="0.0493629042" flag="0"/>
      <vel value="0.0196221769" flag="0"/>
      <psa03 value="0.0444496601" flag="0"/>
      <psa10 value="0.0107983433" flag="0"/>
      <psa30 value="0.0010955462" flag="0"/>
    </comp>
    <comp name="00.HNE">
      <acc value="0.0449617239" flag="0"/>
      <vel value="0.0133895811" flag="0"/>
      <psa03 value="0.0419599423" flag="0"/>
      <psa10 value="0.0048636607" flag="0"/>
      <psa30 value="0.0006529167" flag="0"/>
    </comp>
    <comp name="00.HNZ">
      <acc value="0.0246212763" flag="0"/>
      <vel value="0.0085083714" flag="0"/>
      <psa03 value="0.0228416913" flag="0"/>
      <psa10 value="0.0074933023" flag="0"/>
      <psa30 value="0.0006413222" flag="0"/>
    </comp>
  </station>
  <station code="CMBO" name="CMBO" netid="HT" insttype="120P," lat="36.4709" lon="25.4056">
    <comp name="--.HHE">
      <acc value="0.5534130091" flag="0"/>
      <vel value="0.1358808049" flag="0"/>
      <psa03 value="0.5086499856" flag="0"/>
      <psa10 value="0.1504296013" flag="0"/>
      <psa30 value="0.0146147428" flag="0"/>
    </comp>
    <comp name="--.HHN">
      <acc value="0.8897107889" flag="0"/>
      <vel value="0.2444914028" flag="0"/>
      <psa03 value="0.9002374248" flag="0"/>
      <psa10 value="0.1959330112" flag="0"/>
      <psa30 value="0.0110162063" flag="0"/>
    </comp>
    <comp name="--.HHZ">
      <acc value="0.5721639957" flag="0"/>
      <vel value="0.1833066922" flag="0"/>
      <psa03 value="0.6537336999" flag="0"/>
      <psa10 value="0.0707119165" flag="0"/>
      <psa30 value="0.0097348481" flag="0"/>
    </comp>
  </station>
</stationlist>
