<?xml version="1.0" encoding="UTF-8" standalone="yes"?>
<!DOCTYPE earthquake SYSTEM "stationlist.dtd">
<stationlist created="" xmlns="ch.ethz.sed.shakemap.usgs.xml">
  <station code="APE" name="APE" netid="GE" insttype="STS-2/N" lat="37.0727" lon="25.523">
    <comp name="--.HHZ">
      <acc value="0.0720602644" flag="0"/>
      <vel value="0.0104216481" flag="0"/>
      <psa03 value="0.0300948697" flag="0"/>
      <psa10 value="0.0094657471" flag="0"/>
      <psa30 value="0.0011454669" flag="0"/>
    </comp>
    <comp name="--.HHN">
      <acc value="0.1212611042" flag="0"/>
      <vel value="0.0250546080" flag="0"/>
      <psa03 value="0.0710654314" flag="0"/>
      <psa10 value="0.0085866292" flag="0"/>
      <psa30 value="0.0011822353" flag="0"/>
    </comp>
    <comp name="--.HHE">
      <acc value="0.1278805659" flag="0"/>
      <vel value="0.0248834857" flag="0"/>
      <psa03 value="0.0671839609" flag="0"/>
      <psa10 value="0.0110745927" flag="0"/>
      <psa30 value="0.0019144925" flag="0"/>
    </comp>
  </station>
  <station code="THERA" name="THERA" netid="GE" insttype="STS-2/N" lat="36.367" lon="25.4753">
    <comp name="--.HHZ">
      <acc value="0.2200548266" flag="0"/>
      <vel value="0.0437837340" flag="0"/>
      <psa03 value="0.1127970536" flag="0"/>
      <psa10 value="0.0171331878" flag="0"/>
      <psa30 value="0.0018008192" flag="0"/>
    </comp>
    <comp name="--.HHN">
      <acc value="0.1177471954" flag="0"/>
      <vel value="0.0244188277" flag="0"/>
      <psa03 value="0.1100863222" flag="0"/>
      <psa10 value="0.0184026068" flag="0"/>
      <psa30 value="0.0010895477" flag="0"/>
    </comp>
    <comp name="--.HHE">
      <acc value="0.1737607358" flag="0"/>
      <vel value="0.0449482840" flag="0"/>
      <psa03 value="0.1308732423" flag="0"/>
      <psa10 value="0.0210660900" flag="0"/>
      <psa30 value="0.0021136403" flag="0"/>
    </comp>
  </station>
  <station code="SNT1" name="SNT1" netid="HA" insttype="30" lat="36.4159" lon="25.4282">
    <comp name="--.HHE">
      <acc value="0.1295596332" flag="0"/>
      <vel value="0.0355675024" flag="0"/>
      <psa03 value="0.0818311312" flag="0"/>
      <psa10 value="0.0483344337" flag="0"/>
      <psa30 value="0.0064679785" flag="0"/>
    </comp>
    <comp name="--.HHN">
      <acc value="0.1492218866" flag="0"/>
      <vel value="0.0319921019" flag="0"/>
      <psa03 value="0.1212087295" flag="0"/>
      <psa10 value="0.0423679898" flag="0"/>
      <psa30 value="0.0048443780" flag="0"/>
    </comp>
    <comp name="--.HHZ">
      <acc value="0.0895889510" flag="0"/>
      <vel value="0.0270102558" flag="0"/>
      <psa03 value="0.0799955346" flag="0"/>
      <psa10 value="0.0184236340" flag="0"/>
      <psa30 value="0.0022313702" flag="0"/>
    </comp>
  </station>
  <station code="NAX1" name="NAX1" netid="HI" insttype="CMG-5TD,ACCELEROMETER,GURALP" lat="37.1014" lon="25.3741">
    <comp name="--.HNE">
      <acc value="0.1522540445" flag="0"/>
      <vel value="0.0491215152" flag="0"/>
      <psa03 value="0.1700965322" flag="0"/>
      <psa10 value="0.0154653727" flag="0"/>
      <psa30 value="0.0013797595" flag="0"/>
    </comp>
    <comp name="--.HNN">
      <acc value="0.1376400913" flag="0"/>
      <vel value="0.0249966429" flag="0"/>
      <psa03 value="0.0800931265" flag="0"/>
      <psa10 value="0.0080774241" flag="0"/>
      <psa30 value="0.0008922626" flag="0"/>
    </comp>
    <comp name="--.HNZ">
      <acc value="0.0736361492" flag="0"/>
      <vel value="0.0130292747" flag="0"/>
      <psa03 value="0.0352449047" flag="0"/>
      <psa10 value="0.0104337820" flag="0"/>
      <psa30 value="0.0011026898" flag="0"/>
    </comp>
  </station>
  <station code="APE" name="APE" netid="HL" insttype="120" lat="37.0727" lon="25.523">
    <comp name="--.HHE">
      <acc value="0.1108525730" flag="0"/>
      <vel value="0.0242019308" flag="0"/>
      <psa03 value="0.0651628839" flag="0"/>
      <psa10 value="0.0109684360" flag="0"/>
      <psa30 value="0.0019088189" flag="0"/>
    </comp>
    <comp name="--.HHN">
      <acc value="0.1145538302" flag="0"/>
      <vel value="0.0237186043" flag="0"/>
      <psa03 value="0.0691361252" flag="0"/>
      <psa10 value="0.0084881669" flag="0"/>
      <psa30 value="0.0011736402" flag="0"/>
    </comp>
    <comp name="--.HHZ">
      <acc value="0.0605347004" flag="0"/>
      <vel value="0.0101062369" flag="0"/>
      <psa03 value="0.0294953493" flag="0"/>
      <psa10 value="0.0093960500" flag="0"/>
      <psa30 value="0.0011352608" flag="0"/>
    </comp>
  </station>
  <station code="MHLO" name="MHLO" netid="HL" insttype="20" lat="36.6898" lon="24.4017">
    <comp name="--.HHE">
      <acc value="0.0722712857" flag="0"/>
      <vel value="0.0287501639" flag="0"/>
      <psa03 value="0.2315734602" flag="0"/>
      <psa10 value="0.0431924661" flag="0"/>
      <psa30 value="0.0024442652" flag="0"/>
    </comp>
    <comp name="--.HHZ">
      <acc value="0.0224427064" flag="0"/>
      <vel value="0.0133076885" flag="0"/>
      <psa03 value="0.0870109676" flag="0"/>
      <psa10 value="0.0232434819" flag="0"/>
      <psa30 value="0.0019983961" flag="0"/>
    </comp>
    <comp name="--.HHN">
      <acc value="0.0877712676" flag="0"/>
      <vel value="0.0372591033" flag="0"/>
      <psa03 value="0.2882939517" flag="0"/>
      <psa10 value="0.0435449395" flag="0"/>
      <psa30 value="0.0021710578" flag="0"/>
    </comp>
  </station>
  <station code="SAP3" name="SAP3" netid="HL" insttype="LE3D20_SMART24" lat="36.4356" lon="25.3454">
    <comp name="--.HHN">
      <acc value="0.5312967264" flag="0"/>
      <vel value="0.1500505485" flag="0"/>
      <psa03 value="0.7437314185" flag="0"/>
      <psa10 value="0.1077264906" flag="0"/>
      <psa30 value="0.0110268694" flag="0"/>
    </comp>
    <comp name="--.HHZ">
      <acc value="0.6635219740" flag="0"/>
      <vel value="0.1261799549" flag="0"/>
      <psa03 value="0.3500074600" flag="0"/>
      <psa10 value="0.0601051635" flag="0"/>
      <psa30 value="0.0072990946" flag="0"/>
    </comp>
    <comp name="--.HHE">
      <acc value="0.6265728035" flag="0"/>
      <vel value="0.1878960003" flag="0"/>
      <psa03 value="0.7841690227" flag="0"/>
      <psa10 value="0.1606363038" flag="0"/>
      <psa30 value="0.0178996475" flag="0"/>
    </comp>
  </station>
  <station code="THERA" name="THERA" netid="HL" insttype="120" lat="36.367" lon="25.4753">
    <comp name="--.HHN">
      <acc value="0.1141373675" flag="0"/>
      <vel value="0.0238677338" flag="0"/>
      <psa03 value="0.1066766890" flag="0"/>
      <psa10 value="0.0183109488" flag="0"/>
      <psa30 value="0.0010824024" flag="0"/>
    </comp>
    <comp name="--.HHZ">
      <acc value="0.2144729548" flag="0"/>
      <vel value="0.0432450754" flag="0"/>
      <psa03 value="0.1092150388" flag="0"/>
      <psa10 value="0.0169312928" flag="0"/>
      <psa30 value="0.0018018272" flag="0"/>
    </comp>
    <comp name="--.HHE">
      <acc value="0.1705872048" flag="0"/>
      <vel value="0.0440717557" flag="0"/>
      <psa03 value="0.1268720838" flag="0"/>
      <psa10 value="0.0209272135" flag="0"/>
      <psa30 value="0.0021091791" flag="0"/>
    </comp>
  </station>
  <station code="THRA" name="THRA" netid="HL" insttype="CMG-5" lat="36.415" lon="25.4324">
    <comp name="00.HNE">
      <acc value="0.5245355329" flag="0"/>
      <vel value="0.1204443599" flag="0"/>
      <psa03 value="0.7073509433" flag="0"/>
      <psa10 value="0.1005031283" flag="0"/>
      <psa30 value="0.0093497765" flag="0"/>
    </comp>
    <comp name="00.HNN">
      <acc value="0.2595634436" flag="0"/>
      <vel value="0.0914515950" flag="0"/>
      <psa03 value="0.5013563031" flag="0"/>
      <psa10 value="0.1156866106" flag="0"/>
      <psa30 value="0.0086485367" flag="0"/>
    </comp>
    <comp name="00.HNZ">
      <acc value="0.3021741830" flag="0"/>
      <vel value="0.0728220782" flag="0"/>
      <psa03 value="0.4229193865" flag="0"/>
      <psa10 value="0.0642075780" flag="0"/>
      <psa30 value="0.0034744737" flag="0"/>
    </comp>
  </station>
  <station code="TNSA" name="TNSA" netid="HL" insttype="CMG-5" lat="37.5394" lon="25.1631">
    <comp name="00.HNN">
      <acc value="0.0493629050" flag="0"/>
      <vel value="0.0196221766" flag="0"/>
      <psa03 value="0.0444496601" flag="0"/>
      <psa10 value="0.0107983433" flag="0"/>
      <psa30 value="0.0010955214" flag="0"/>
    </comp>
    <comp name="00.HNE">
      <acc value="0.0449617245" flag="0"/>
      <vel value="0.0133895811" flag="0"/>
      <psa03 value="0.0419599423" flag="0"/>
      <psa10 value="0.0048636607" flag="0"/>
      <psa30 value="0.0006528595" flag="0"/>
    </comp>
    <comp name="00.HNZ">
      <acc value="0.0246212766" flag="0"/>
      <vel value="0.0085083702" flag="0"/>
      <psa03 value="0.0228416913" flag="0"/>
      <psa10 value="0.0074933023" flag="0"/>
      <psa30 value="0.0006412604" flag="0"/>
    </comp>
  </station>
  <station code="CMBO" name="CMBO" netid="HT" insttype="120P," lat="36.4709" lon="25.4056">
    <comp name="--.HHE">
      <acc value="0.5534130091" flag="0"/>
      <vel value="0.1358808394" flag="0"/>
      <psa03 value="0.5086499856" flag="0"/>
      <psa10 value="0.1504296016" flag="0"/>
      <psa30 value="0.0146147010" flag="0"/>
    </comp>
    <comp name="--.HHN">
      <acc value="0.8897107890" flag="0"/>
      <vel value="0.2444914121" flag="0"/>
      <psa03 value="0.9002374248" flag="0"/>
      <psa10 value="0.1959330146" flag="0"/>
      <psa30 value="0.0110160109" flag="0"/>
    </comp>
    <comp name="--.HHZ">
      <acc value="0.5721639958" flag="0"/>
      <vel value="0.1833067312" flag="0"/>
      <psa03 value="0.6537336999" flag="0"/>
      <psa10 value="0.0707119171" flag="0"/>
      <psa30 value="0.0097343887" flag="0"/>
    </comp>
  </station>
</stationlist>
