<?xml version="1.0" encoding="UTF-8" standalone="yes"?>
<!DOCTYPE earthquake SYSTEM "stationlist.dtd">
<stationlist created="" xmlns="ch.ethz.sed.shakemap.usgs.xml">
  <station code="APE" name="APE" netid="GE" insttype="STS-2/N" lat="37.0727" lon="25.523">
    <comp name="--.HHE">
      <acc value="0.1278805660" flag="0"/>
      <vel value="0.0248834911" flag="0"/>
      <psa03 value="0.0671839609" flag="0"/>
      <psa10 value="0.0110745948" flag="0"/>
      <psa30 value="0.0019144310" flag="0"/>
    </comp>
    <comp name="--.HHN">
      <acc value="0.1212611037" flag="0"/>
      <vel value="0.0250546103" flag="0"/>
      <psa03 value="0.0710654314" flag="0"/>
      <psa10 value="0.0085866293" flag="0"/>
      <psa30 value="0.0011823007" flag="0"/>
    </comp>
    <comp name="--.HHZ">
      <acc value="0.0720602645" flag="0"/>
      <vel value="0.0104216471" flag="0"/>
      <psa03 value="0.0300948697" flag="0"/>
      <psa10 value="0.0094657450" flag="0"/>
      <psa30 value="0.0011454209" flag="0"/>
    </comp>
  </station>
  <station code="THERA" name="THERA" netid="GE" insttype="STS-2/N" lat="36.367" lon="25.4753">
    <comp name="--.HHE">
      <acc value="0.1737607358" flag="0"/>
      <vel value="0.0449482839" flag="0"/>
      <psa03 value="0.1308732423" flag="0"/>
      <psa10 value="0.0210660896" flag="0"/>
      <psa30 value="0.0021136726" flag="0"/>
    </comp>
    <comp name="--.HHN">
      <acc value="0.1177471953" flag="0"/>
      <vel value="0.0244188277" flag="0"/>
      <psa03 value="0.1100863222" flag="0"/>
      <psa10 value="0.0184026071" flag="0"/>
      <psa30 value="0.0010895334" flag="0"/>
    </comp>
    <comp name="--.HHZ">
      <acc value="0.2200548266" flag="0"/>
      <vel value="0.0437837344" flag="0"/>
      <psa03 value="0.1127970536" flag="0"/>
      <psa10 value="0.0171331874" flag="0"/>
      <psa30 value="0.0018008101" flag="0"/>
    </comp>
  </station>
</stationlist>
