<?xml version="1.0" encoding="UTF-8" standalone="yes"?>
<!DOCTYPE earthquake SYSTEM "stationlist.dtd">
<stationlist created="" xmlns="ch.ethz.sed.shakemap.usgs.xml">
  <station code="APE" name="APE" netid="GE" insttype="STS-2/N" lat="37.0727" lon="25.523">
    <comp name="--.HHE">
      <acc value="0.1278805660" flag="0"/>
      <vel value="0.0248834911" flag="0"/>
      <psa03 value="0.0671839609" flag="0"/>
      <psa10 value="0.0110745948" flag="0"/>
      <psa30 value="0.0019144310" flag="0"/>
    </comp>
    <comp name="--.HHN">
      <acc value="0.1212611037" flag="0"/>
      <vel value="0.0250546103" flag="0"/>
      <psa03 value="0.0710654314" flag="0"/>
      <psa10 value="0.0085866293" flag="0"/>
      <psa30 value="0.0011823007" flag="0"/>
    </comp>
    <comp name="--.HHZ">
      <acc value="0.0720602645" flag="0"/>
      <vel value="0.0104216471" flag="0"/>
      <psa03 value="0.0300948697" flag="0"/>
      <psa10 value="0.0094657450" flag="0"/>
      <psa30 value="0.0011454209" flag="0"/>
    </comp>
  </station>
  <station code="THERA" name="THERA" netid="GE" insttype="STS-2/N" lat="36.367" lon="25.4753">
    <comp name="--.HHE">
      <acc value="0.1737607358" flag="0"/>
      <vel value="0.0449482839" flag="0"/>
      <psa03 value="0.1308732423" flag="0"/>
      <psa10 value="0.0210660896" flag="0"/>
      <psa30 value="0.0021136726" flag="0"/>
    </comp>
    <comp name="--.HHN">
      <acc value="0.1177471953" flag="0"/>
      <vel value="0.0244188277" flag="0"/>
      <psa03 value="0.1100863222" flag="0"/>
      <psa10 value="0.0184026071" flag="0"/>
      <psa30 value="0.0010895334" flag="0"/>
    </comp>
    <comp name="--.HHZ">
      <acc value="0.2200548266" flag="0"/>
      <vel value="0.0437837344" flag="0"/>
      <psa03 value="0.1127970536" flag="0"/>
      <psa10 value="0.0171331874" flag="0"/>
      <psa30 value="0.0018008101" flag="0"/>
    </comp>
  </station>
  <station code="SNT1" name="SNT1" netid="HA" insttype="30" lat="36.4159" lon="25.4282">
    <comp name="--.HHE">
      <acc value="0.1295596331" flag="0"/>
      <vel value="0.0355675315" flag="0"/>
      <psa03 value="0.0818311313" flag="0"/>
      <psa10 value="0.0483344308" flag="0"/>
      <psa30 value="0.0064679226" flag="0"/>
    </comp>
    <comp name="--.HHZ">
      <acc value="0.0895889511" flag="0"/>
      <vel value="0.0270102628" flag="0"/>
      <psa03 value="0.0799955346" flag="0"/>
      <psa10 value="0.0184236341" flag="0"/>
      <psa30 value="0.0022313536" flag="0"/>
    </comp>
    <comp name="--.HHN">
      <acc value="0.1492218866" flag="0"/>
      <vel value="0.0319921172" flag="0"/>
      <psa03 value="0.1212087295" flag="0"/>
      <psa10 value="0.0423679897" flag="0"/>
      <psa30 value="0.0048443697" flag="0"/>
    </comp>
  </station>
  <station code="NAX1" name="NAX1" netid="HI" insttype="CMG-5TD,ACCELEROMETER,GURALP" lat="37.1014" lon="25.3741">
    <comp name="--.HNN">
      <acc value="0.1376400929" flag="0"/>
      <vel value="0.0249966406" flag="0"/>
      <psa03 value="0.0800931265" flag="0"/>
      <psa10 value="0.0080774266" flag="0"/>
      <psa30 value="0.0008915972" flag="0"/>
    </comp>
    <comp name="--.HNZ">
      <acc value="0.0736361487" flag="0"/>
      <vel value="0.0130292705" flag="0"/>
      <psa03 value="0.0352449047" flag="0"/>
      <psa10 value="0.0104337840" flag="0"/>
      <psa30 value="0.0011027868" flag="0"/>
    </comp>
    <comp name="--.HNE">
      <acc value="0.1522540440" flag="0"/>
      <vel value="0.0491215152" flag="0"/>
      <psa03 value="0.1700965322" flag="0"/>
      <psa10 value="0.0154653733" flag="0"/>
      <psa30 value="0.0013797805" flag="0"/>
    </comp>
  </station>
  <station code="APE" name="APE" netid="HL" insttype="120" lat="37.0727" lon="25.523">
    <comp name="--.HHN">
      <acc value="0.1145538304" flag="0"/>
      <vel value="0.0237186066" flag="0"/>
      <psa03 value="0.0691361252" flag="0"/>
      <psa10 value="0.0084881670" flag="0"/>
      <psa30 value="0.0011737028" flag="0"/>
    </comp>
    <comp name="--.HHZ">
      <acc value="0.0605347005" flag="0"/>
      <vel value="0.0101062359" flag="0"/>
      <psa03 value="0.0294953493" flag="0"/>
      <psa10 value="0.0093960479" flag="0"/>
      <psa30 value="0.0011352152" flag="0"/>
    </comp>
    <comp name="--.HHE">
      <acc value="0.1108525731" flag="0"/>
      <vel value="0.0242019362" flag="0"/>
      <psa03 value="0.0651628839" flag="0"/>
      <psa10 value="0.0109684381" flag="0"/>
      <psa30 value="0.0019087560" flag="0"/>
    </comp>
  </station>
  <station code="MHLO" name="MHLO" netid="HL" insttype="20" lat="36.6898" lon="24.4017">
    <comp name="--.HHN">
      <acc value="0.0877712675" flag="0"/>
      <vel value="0.0372591616" flag="0"/>
      <psa03 value="0.2882939516" flag="0"/>
      <psa10 value="0.0435449394" flag="0"/>
      <psa30 value="0.0021710722" flag="0"/>
    </comp>
    <comp name="--.HHE">
      <acc value="0.0722712857" flag="0"/>
      <vel value="0.0287501641" flag="0"/>
      <psa03 value="0.2315734602" flag="0"/>
      <psa10 value="0.0431924661" flag="0"/>
      <psa30 value="0.0024442749" flag="0"/>
    </comp>
    <comp name="--.HHZ">
      <acc value="0.0224427065" flag="0"/>
      <vel value="0.0133076914" flag="0"/>
      <psa03 value="0.0870109676" flag="0"/>
      <psa10 value="0.0232434819" flag="0"/>
      <psa30 value="0.0019983956" flag="0"/>
    </comp>
  </station>
  <station code="SAP3" name="SAP3" netid="HL" insttype="LE3D20_SMART24" lat="36.4356" lon="25.3454">
    <comp name="--.HHZ">
      <acc value="0.6635219749" flag="0"/>
      <vel value="0.1261803313" flag="0"/>
      <psa03 value="0.3500074591" flag="0"/>
      <psa10 value="0.0601051628" flag="0"/>
      <psa30 value="0.0072985017" flag="0"/>
    </comp>
    <comp name="--.HHE">
      <acc value="0.6265728034" flag="0"/>
      <vel value="0.1878960541" flag="0"/>
      <psa03 value="0.7841690226" flag="0"/>
      <psa10 value="0.1606363039" flag="0"/>
      <psa30 value="0.0178993453" flag="0"/>
    </comp>
    <comp name="--.HHN">
      <acc value="0.5312967263" flag="0"/>
      <vel value="0.1500506043" flag="0"/>
      <psa03 value="0.7437314184" flag="0"/>
      <psa10 value="0.1077264913" flag="0"/>
      <psa30 value="0.0110270065" flag="0"/>
    </comp>
  </station>
  <station code="THERA" name="THERA" netid="HL" insttype="120" lat="36.367" lon="25.4753">
    <comp name="--.HHE">
      <acc value="0.1705872048" flag="0"/>
      <vel value="0.0440717556" flag="0"/>
      <psa03 value="0.1268720838" flag="0"/>
      <psa10 value="0.0209272132" flag="0"/>
      <psa30 value="0.0021092116" flag="0"/>
    </comp>
    <comp name="--.HHZ">
      <acc value="0.2144729548" flag="0"/>
      <vel value="0.0432450758" flag="0"/>
      <psa03 value="0.1092150388" flag="0"/>
      <psa10 value="0.0169312925" flag="0"/>
      <psa30 value="0.0018018182" flag="0"/>
    </comp>
    <comp name="--.HHN">
      <acc value="0.1141373674" flag="0"/>
      <vel value="0.0238677338" flag="0"/>
      <psa03 value="0.1066766890" flag="0"/>
      <psa10 value="0.0183109491" flag="0"/>
      <psa30 value="0.0010823882" flag="0"/>
    </comp>
  </station>
  <station code="THRA" name="THRA" netid="HL" insttype="CMG-5" lat="36.415" lon="25.4324">
    <comp name="00.HNZ">
      <acc value="0.3021741831" flag="0"/>
      <vel value="0.0728220791" flag="0"/>
      <psa03 value="0.4229193865" flag="0"/>
      <psa10 value="0.0642075776" flag="0"/>
      <psa30 value="0.0034746472" flag="0"/>
    </comp>
    <comp name="00.HNE">
      <acc value="0.5245355333" flag="0"/>
      <vel value="0.1204443608" flag="0"/>
      <psa03 value="0.7073509433" flag="0"/>
      <psa10 value="0.1005031257" flag="0"/>
      <psa30 value="0.0093496920" flag="0"/>
    </comp>
    <comp name="00.HNN">
      <acc value="0.2595634438" flag="0"/>
      <vel value="0.0914515943" flag="0"/>
      <psa03 value="0.5013563031" flag="0"/>
      <psa10 value="0.1156866106" flag="0"/>
      <psa30 value="0.0086485050" flag="0"/>
    </comp>
  </station>
  <station code="TNSA" name="TNSA" netid="HL" insttype="CMG-5" lat="37.5394" lon="25.1631">
    <comp name="00.HNN">
      <acc value="0.0493629030" flag="0"/>
      <vel value="0.0196221771" flag="0"/>
      <psa03 value="0.0444496601" flag="0"/>
      <psa10 value="0.0107983433" flag="0"/>
      <psa30 value="0.0010955953" flag="0"/>
    </comp>
    <comp name="00.HNE">
      <acc value="0.0449617233" flag="0"/>
      <vel value="0.0133895809" flag="0"/>
      <psa03 value="0.0419599423" flag="0"/>
      <psa10 value="0.0048636606" flag="0"/>
      <psa30 value="0.0006530080" flag="0"/>
    </comp>
    <comp name="00.HNZ">
      <acc value="0.0246212758" flag="0"/>
      <vel value="0.0085083725" flag="0"/>
      <psa03 value="0.0228416913" flag="0"/>
      <psa10 value="0.0074933024" flag="0"/>
      <psa30 value="0.0006413148" flag="0"/>
    </comp>
  </station>
  <station code="CMBO" name="CMBO" netid="HT" insttype="120P," lat="36.4709" lon="25.4056">
    <comp name="--.HHE">
      <acc value="0.5534130091" flag="0"/>
      <vel value="0.1358808282" flag="0"/>
      <psa03 value="0.5086499856" flag="0"/>
      <psa10 value="0.1504295997" flag="0"/>
      <psa30 value="0.0146149238" flag="0"/>
    </comp>
    <comp name="--.HHN">
      <acc value="0.8897107889" flag="0"/>
      <vel value="0.2444913987" flag="0"/>
      <psa03 value="0.9002374248" flag="0"/>
      <psa10 value="0.1959329810" flag="0"/>
      <psa30 value="0.0110161664" flag="0"/>
    </comp>
    <comp name="--.HHZ">
      <acc value="0.5721639957" flag="0"/>
      <vel value="0.1833066585" flag="0"/>
      <psa03 value="0.6537336999" flag="0"/>
      <psa10 value="0.0707119101" flag="0"/>
      <psa30 value="0.0097356208" flag="0"/>
    </comp>
  </station>
</stationlist>
