<?xml version="1.0" encoding="UTF-8" standalone="yes"?>
<!DOCTYPE earthquake SYSTEM "stationlist.dtd">
<stationlist created="" xmlns="ch.ethz.sed.shakemap.usgs.xml">
  <station code="APE" name="APE" netid="GE" insttype="STS-2/N" lat="37.0727" lon="25.523">
    <comp name="--.HHZ">
      <acc value="0.0720602644" flag="0"/>
      <vel value="0.0104216481" flag="0"/>
      <psa03 value="0.0300948697" flag="0"/>
      <psa10 value="0.0094657471" flag="0"/>
      <psa30 value="0.0011454669" flag="0"/>
    </comp>
    <comp name="--.HHN">
      <acc value="0.1212611042" flag="0"/>
      <vel value="0.0250546080" flag="0"/>
      <psa03 value="0.0710654314" flag="0"/>
      <psa10 value="0.0085866292" flag="0"/>
      <psa30 value="0.0011822353" flag="0"/>
    </comp>
    <comp name="--.HHE">
      <acc value="0.1278805659" flag="0"/>
      <vel value="0.0248834857" flag="0"/>
      <psa03 value="0.0671839609" flag="0"/>
      <psa10 value="0.0110745927" flag="0"/>
      <psa30 value="0.0019144925" flag="0"/>
    </comp>
  </station>
  <station code="THERA" name="THERA" netid="GE" insttype="STS-2/N" lat="36.367" lon="25.4753">
    <comp name="--.HHN">
      <acc value="0.1177471954" flag="0"/>
      <vel value="0.0244188277" flag="0"/>
      <psa03 value="0.1100863222" flag="0"/>
      <psa10 value="0.0184026068" flag="0"/>
      <psa30 value="0.0010895477" flag="0"/>
    </comp>
    <comp name="--.HHE">
      <acc value="0.1737607358" flag="0"/>
      <vel value="0.0449482840" flag="0"/>
      <psa03 value="0.1308732423" flag="0"/>
      <psa10 value="0.0210660900" flag="0"/>
      <psa30 value="0.0021136403" flag="0"/>
    </comp>
    <comp name="--.HHZ">
      <acc value="0.2200548266" flag="0"/>
      <vel value="0.0437837340" flag="0"/>
      <psa03 value="0.1127970536" flag="0"/>
      <psa10 value="0.0171331878" flag="0"/>
      <psa30 value="0.0018008192" flag="0"/>
    </comp>
  </station>
</stationlist>
