<?xml version="1.0" encoding="UTF-8" standalone="yes"?>
<!DOCTYPE earthquake SYSTEM "stationlist.dtd">
<stationlist created="" xmlns="ch.ethz.sed.shakemap.usgs.xml">
  <station code="BEHE" name="BEHE" netid="HU" insttype="" lat="46.4703" lon="16.7755">
    <comp name="--.HHE">
      <acc value="0.1640232365" flag="0"/>
      <vel value="0.0715740036" flag="0"/>
      <psa03 value="0.3016101646" flag="0"/>
      <psa10 value="0.0927916485" flag="0"/>
      <psa30 value="0.0060124938" flag="0"/>
    </comp>
    <comp name="--.HHN">
      <acc value="0.1128007252" flag="0"/>
      <vel value="0.0752575392" flag="0"/>
      <psa03 value="0.4089586190" flag="0"/>
      <psa10 value="0.1512267872" flag="0"/>
      <psa30 value="0.0091515006" flag="0"/>
    </comp>
    <comp name="--.HHZ">
      <acc value="0.0867570882" flag="0"/>
      <vel value="0.0441463908" flag="0"/>
      <psa03 value="0.3261189795" flag="0"/>
      <psa10 value="0.0589923394" flag="0"/>
      <psa30 value="0.0044655352" flag="0"/>
    </comp>
  </station>
  <station code="KOVH" name="KOVH" netid="HU" insttype="" lat="46.0883" lon="18.0999">
    <comp name="--.HHZ">
      <acc value="0.0275769877" flag="0"/>
      <vel value="0.0136338408" flag="0"/>
      <psa03 value="0.0790626012" flag="0"/>
      <psa10 value="0.0256059014" flag="0"/>
      <psa30 value="0.0020192071" flag="0"/>
    </comp>
    <comp name="--.HHE">
      <acc value="0.0547870266" flag="0"/>
      <vel value="0.0224029880" flag="0"/>
      <psa03 value="0.0839699513" flag="0"/>
      <psa10 value="0.0196624774" flag="0"/>
      <psa30 value="0.0036527257" flag="0"/>
    </comp>
    <comp name="--.HHN">
      <acc value="0.0394304806" flag="0"/>
      <vel value="0.0266196033" flag="0"/>
      <psa03 value="0.0909347102" flag="0"/>
      <psa10 value="0.0364081013" flag="0"/>
      <psa30 value="0.0038758311" flag="0"/>
    </comp>
  </station>
  <station code="BLY" name="BLY" netid="MN" insttype="" lat="44.7488" lon="17.1839">
    <comp name="--.HHE">
      <acc value="0.1513037669" flag="0"/>
      <vel value="0.0686548147" flag="0"/>
      <psa03 value="0.2523582777" flag="0"/>
      <psa10 value="0.0778371450" flag="0"/>
      <psa30 value="0.0056086690" flag="0"/>
    </comp>
    <comp name="--.HHN">
      <acc value="0.0794826941" flag="0"/>
      <vel value="0.0616047159" flag="0"/>
      <psa03 value="0.1858373100" flag="0"/>
      <psa10 value="0.1191745577" flag="0"/>
      <psa30 value="0.0061402075" flag="0"/>
    </comp>
    <comp name="--.HHZ">
      <acc value="0.0695204323" flag="0"/>
      <vel value="0.0453811894" flag="0"/>
      <psa03 value="0.1652331922" flag="0"/>
      <psa10 value="0.0726827884" flag="0"/>
      <psa30 value="0.0066841094" flag="0"/>
    </comp>
  </station>
  <station code="SOKA" name="SOKA" netid="OE" source="ODC" insttype="STS-2" lat="46.678" lon="15.0327">
    <comp name="--.HHE">
      <acc value="0.0236047921" flag="0"/>
      <vel value="0.0219671821" flag="0"/>
      <psa03 value="0.0601161579" flag="0"/>
      <psa10 value="0.0231388087" flag="0"/>
      <psa30 value="0.0025832378" flag="0"/>
    </comp>
    <comp name="--.HHN">
      <acc value="0.0295640680" flag="0"/>
      <vel value="0.0242844671" flag="0"/>
      <psa03 value="0.0865302522" flag="0"/>
      <psa10 value="0.0158248192" flag="0"/>
      <psa30 value="0.0036967250" flag="0"/>
    </comp>
    <comp name="--.HHZ">
      <acc value="0.0486690933" flag="0"/>
      <vel value="0.0273409814" flag="0"/>
      <psa03 value="0.0842961235" flag="0"/>
      <psa10 value="0.0190715315" flag="0"/>
      <psa30 value="0.0039388291" flag="0"/>
    </comp>
  </station>
</stationlist>
