<stationlist created="1778069949">
	<station code="BLY" name="BLY" netid="MN" source="Mediterranean Very Broadband Seismographic Network (MedNet)" insttype="" lat="44.7488" lon="17.1839">
		<comp name="--.HNE" depth="1.0">
			<acc value="0.149807962794598" flag="0"/>
			<vel value="0.0685326069922222" flag="0"/>
			<psa03 value="0.261831393130126" flag="0"/>
			<psa10 value="0.0792755839524524" flag="0"/>
			<psa30 value="0.00563841287803461" flag="0"/>
		</comp>
		<comp name="--.HNN" depth="1.0">
			<acc value="0.0803678777960613" flag="0"/>
			<vel value="0.0621847789061701" flag="0"/>
			<psa03 value="0.185814384085683" flag="0"/>
			<psa10 value="0.118770424578533" flag="0"/>
			<psa30 value="0.00633639130127964" flag="0"/>
		</comp>
		<comp name="--.HNZ" depth="1.0">
			<acc value="0.0679246856820605" flag="0"/>
			<vel value="0.0452138463066583" flag="0"/>
			<psa03 value="0.16102720161916" flag="0"/>
			<psa10 value="0.0729575369558863" flag="0"/>
			<psa30 value="0.00692654100657465" flag="0"/>
		</comp>
	</station>
	<station code="DST2" name="DST2" netid="NI" source="North-East Italy Broadband Network (NI)" insttype="" lat="45.6589" lon="13.8013">
		<comp name="--.HNE" depth="0.0">
			<acc value="0.122271455980893" flag="0"/>
			<vel value="0.0535481047672031" flag="0"/>
			<psa03 value="0.290332178745965" flag="0"/>
			<psa10 value="0.0287996635560492" flag="0"/>
			<psa30 value="0.00251809138847633" flag="0"/>
		</comp>
		<comp name="--.HNN" depth="0.0">
			<acc value="0.111584368877146" flag="0"/>
			<vel value="0.0648275902479212" flag="0"/>
			<psa03 value="0.307155248434436" flag="0"/>
			<psa10 value="0.0317714409196348" flag="0"/>
			<psa30 value="0.00296596087672523" flag="0"/>
		</comp>
		<comp name="--.HNZ" depth="0.0">
			<acc value="0.0725715962132471" flag="0"/>
			<vel value="0.0443246880768959" flag="0"/>
			<psa03 value="0.216060115759634" flag="0"/>
			<psa10 value="0.0378116388131015" flag="0"/>
			<psa30 value="0.00234762358126072" flag="0"/>
		</comp>
	</station>
	<station code="ACOM" name="ACOM" netid="OX" source="North-East Italy Seismic Network" insttype="" lat="46.548" lon="13.5137">
		<comp name="--.HNE" depth="0.0">
			<acc value="0.0435729792142965" flag="0"/>
			<vel value="0.0323155559788934" flag="0"/>
			<psa03 value="0.154405355039656" flag="0"/>
			<psa10 value="0.0306117229240892" flag="0"/>
			<psa30 value="0.0030004123758213" flag="0"/>
		</comp>
		<comp name="--.HNN" depth="0.0">
			<acc value="0.0464764449356183" flag="0"/>
			<vel value="0.0339240796021329" flag="0"/>
			<psa03 value="0.0883658580710867" flag="0"/>
			<psa10 value="0.0245473642390486" flag="0"/>
			<psa30 value="0.00301696699227006" flag="0"/>
		</comp>
		<comp name="--.HNZ" depth="0.0">
			<acc value="0.0185948216948388" flag="0"/>
			<vel value="0.0130765856902669" flag="0"/>
			<psa03 value="0.0603572367280486" flag="0"/>
			<psa10 value="0.0189017926079551" flag="0"/>
			<psa30 value="0.00206664252369797" flag="0"/>
		</comp>
	</station>
	<station code="DRE" name="DRE" netid="OX" source="North-East Italy Seismic Network" insttype="" lat="46.1733" lon="13.645">
		<comp name="--.HNE" depth="0.0">
			<acc value="0.0734181822602403" flag="0"/>
			<vel value="0.0367233029093196" flag="0"/>
			<psa03 value="0.153107831047726" flag="0"/>
			<psa10 value="0.0236453613536243" flag="0"/>
			<psa30 value="0.00261428713270562" flag="0"/>
		</comp>
		<comp name="--.HNN" depth="0.0">
			<acc value="0.0851462129007744" flag="0"/>
			<vel value="0.0497150941834309" flag="0"/>
			<psa03 value="0.246619042879914" flag="0"/>
			<psa10 value="0.0274506860265083" flag="0"/>
			<psa30 value="0.00216462795619199" flag="0"/>
		</comp>
		<comp name="--.HNZ" depth="0.0">
			<acc value="0.0287397096348208" flag="0"/>
			<vel value="0.0145556603456559" flag="0"/>
			<psa03 value="0.0788357680613948" flag="0"/>
			<psa10 value="0.0204722440602564" flag="0"/>
			<psa30 value="0.00143711967657889" flag="0"/>
		</comp>
	</station>
	<station code="PRED" name="PRED" netid="OX" source="North-East Italy Seismic Network" insttype="" lat="46.4428" lon="13.565">
		<comp name="--.HNE" depth="0.0">
			<acc value="0.00931774349548243" flag="0"/>
			<vel value="0.00644503278184169" flag="0"/>
			<psa03 value="0.0193286332590934" flag="0"/>
			<psa10 value="0.0104777299458669" flag="0"/>
			<psa30 value="0.00141295888500502" flag="0"/>
		</comp>
		<comp name="--.HNN" depth="0.0">
			<acc value="0.0112656533332848" flag="0"/>
			<vel value="0.011443301914049" flag="0"/>
			<psa03 value="0.0281428479628929" flag="0"/>
			<psa10 value="0.0186964258795772" flag="0"/>
			<psa30 value="0.00148499383766044" flag="0"/>
		</comp>
		<comp name="--.HNZ" depth="0.0">
			<acc value="0.0118753137533976" flag="0"/>
			<vel value="0.00649043539455647" flag="0"/>
			<psa03 value="0.0276059414834737" flag="0"/>
			<psa10 value="0.0101435056624284" flag="0"/>
			<psa30 value="0.00170244096182524" flag="0"/>
		</comp>
	</station>
	<station code="SABO" name="SABO" netid="OX" source="North-East Italy Seismic Network" insttype="" lat="45.9875" lon="13.6336">
		<comp name="--.HNE" depth="0.0">
			<acc value="0.289085068097205" flag="0"/>
			<vel value="0.198566455424841" flag="0"/>
			<psa03 value="0.669343411009345" flag="0"/>
			<psa10 value="0.205866051403727" flag="0"/>
			<psa30 value="0.0185586198831929" flag="0"/>
		</comp>
		<comp name="--.HNN" depth="0.0">
			<acc value="0.233005090367671" flag="0"/>
			<vel value="0.164260267199702" flag="0"/>
			<psa03 value="0.598427013519385" flag="0"/>
			<psa10 value="0.190133349290544" flag="0"/>
			<psa30 value="0.0229411190214527" flag="0"/>
		</comp>
		<comp name="--.HNZ" depth="0.0">
			<acc value="0.115618106308532" flag="0"/>
			<vel value="0.0980223720646687" flag="0"/>
			<psa03 value="0.198744881798363" flag="0"/>
			<psa10 value="0.0869748228673246" flag="0"/>
			<psa30 value="0.0157237536718592" flag="0"/>
		</comp>
	</station>
	<station code="BOJS" name="BOJS" netid="SL" source="Seismic Network of the Republic of Slovenia (SNRS)" insttype="" lat="45.5043" lon="15.2518">
		<comp name="--.HNE" depth="0.0">
			<acc value="0.227729853299218" flag="0"/>
			<vel value="0.0734947971898881" flag="0"/>
			<psa03 value="0.332524079586996" flag="0"/>
			<psa10 value="0.0374935217240455" flag="0"/>
			<psa30 value="0.00408585830838058" flag="0"/>
		</comp>
		<comp name="--.HNN" depth="0.0">
			<acc value="0.233024823507128" flag="0"/>
			<vel value="0.0799103484639171" flag="0"/>
			<psa03 value="0.301472988193915" flag="0"/>
			<psa10 value="0.0367445371852557" flag="0"/>
			<psa30 value="0.00345275608473203" flag="0"/>
		</comp>
		<comp name="--.HNZ" depth="0.0">
			<acc value="0.161366114403872" flag="0"/>
			<vel value="0.0511495612648786" flag="0"/>
			<psa03 value="0.263128917122056" flag="0"/>
			<psa10 value="0.0351982465245282" flag="0"/>
			<psa30 value="0.00396281724018033" flag="0"/>
		</comp>
	</station>
	<station code="CADS" name="CADS" netid="SL" source="Seismic Network of the Republic of Slovenia (SNRS)" insttype="" lat="46.2281" lon="13.7368">
		<comp name="--.HNE" depth="0.0">
			<acc value="0.0620303136892038" flag="0"/>
			<vel value="0.0325652646891719" flag="0"/>
			<psa03 value="0.204606110865357" flag="0"/>
			<psa10 value="0.0202064753529439" flag="0"/>
			<psa30 value="0.00237088952870222" flag="0"/>
		</comp>
		<comp name="--.HNN" depth="0.0">
			<acc value="0.05241233730097" flag="0"/>
			<vel value="0.0357376473623169" flag="0"/>
			<psa03 value="0.148230930526334" flag="0"/>
			<psa10 value="0.0283768497035065" flag="0"/>
			<psa30 value="0.00297311962978416" flag="0"/>
		</comp>
		<comp name="--.HNZ" depth="0.0">
			<acc value="0.0438639081391432" flag="0"/>
			<vel value="0.0217306168747613" flag="0"/>
			<psa03 value="0.0919899768071667" flag="0"/>
			<psa10 value="0.0204923780532346" flag="0"/>
			<psa30 value="0.00220086914355279" flag="0"/>
		</comp>
	</station>
	<station code="CEY" name="CEY" netid="SL" source="Seismic Network of the Republic of Slovenia (SNRS)" insttype="" lat="45.7381" lon="14.4221">
		<comp name="--.HNE" depth="0.0">
			<acc value="0.0944894252153821" flag="0"/>
			<vel value="0.035387850120943" flag="0"/>
			<psa03 value="0.182816656242258" flag="0"/>
			<psa10 value="0.0413028731955252" flag="0"/>
			<psa30 value="0.00333374181512743" flag="0"/>
		</comp>
		<comp name="--.HNN" depth="0.0">
			<acc value="0.0938731050441916" flag="0"/>
			<vel value="0.0611674524801221" flag="0"/>
			<psa03 value="0.218744648156731" flag="0"/>
			<psa10 value="0.0816554219224783" flag="0"/>
			<psa30 value="0.0057601116800363" flag="0"/>
		</comp>
		<comp name="--.HNZ" depth="0.0">
			<acc value="0.075402287982918" flag="0"/>
			<vel value="0.0505190949207369" flag="0"/>
			<psa03 value="0.197447357806433" flag="0"/>
			<psa10 value="0.0450477958894746" flag="0"/>
			<psa30 value="0.00466303277375628" flag="0"/>
		</comp>
	</station>
	<station code="CRES" name="CRES" netid="SL" source="Seismic Network of the Republic of Slovenia (SNRS)" insttype="" lat="45.826" lon="15.4569">
		<comp name="--.HNE" depth="0.0">
			<acc value="0.409086581366612" flag="0"/>
			<vel value="0.199893751878498" flag="0"/>
			<psa03 value="0.927461200990155" flag="0"/>
			<psa10 value="0.0655884955258569" flag="0"/>
			<psa30 value="0.0100938418130821" flag="0"/>
		</comp>
		<comp name="--.HNN" depth="0.0">
			<acc value="0.27041921595873" flag="0"/>
			<vel value="0.121059992842367" flag="0"/>
			<psa03 value="0.583930538575065" flag="0"/>
			<psa10 value="0.0389391424198819" flag="0"/>
			<psa30 value="0.00527689584855897" flag="0"/>
		</comp>
		<comp name="--.HNZ" depth="0.0">
			<acc value="0.275921454767408" flag="0"/>
			<vel value="0.0955650831632195" flag="0"/>
			<psa03 value="0.520799285036683" flag="0"/>
			<psa10 value="0.0382988814431744" flag="0"/>
			<psa30 value="0.00358116621772647" flag="0"/>
		</comp>
	</station>
	<station code="CRNS" name="CRNS" netid="SL" source="Seismic Network of the Republic of Slovenia (SNRS)" insttype="" lat="46.0807" lon="14.2613">
		<comp name="--.HNE" depth="0.0">
			<acc value="0.19180685840124" flag="0"/>
			<vel value="0.0789084644052526" flag="0"/>
			<psa03 value="0.379771849775891" flag="0"/>
			<psa10 value="0.0531617950596981" flag="0"/>
			<psa30 value="0.0044916701224083" flag="0"/>
		</comp>
		<comp name="--.HNN" depth="0.0">
			<acc value="0.115183238380339" flag="0"/>
			<vel value="0.0536228855233675" flag="0"/>
			<psa03 value="0.261294486650707" flag="0"/>
			<psa10 value="0.0509067878461372" flag="0"/>
			<psa30 value="0.00438742078098773" flag="0"/>
		</comp>
		<comp name="--.HNZ" depth="0.0">
			<acc value="0.0598597751427837" flag="0"/>
			<vel value="0.0280571695225098" flag="0"/>
			<psa03 value="0.111094899033169" flag="0"/>
			<psa10 value="0.0310264831794405" flag="0"/>
			<psa30 value="0.00312166375575682" flag="0"/>
		</comp>
	</station>
	<station code="GBAS" name="GBAS" netid="SL" source="Seismic Network of the Republic of Slovenia (SNRS)" insttype="" lat="45.9348" lon="14.4434">
		<comp name="--.HNE" depth="0.0">
			<acc value="0.0713887323371228" flag="0"/>
			<vel value="0.0330312965742072" flag="0"/>
			<psa03 value="0.143667225451271" flag="0"/>
			<psa10 value="0.02561849266549" flag="0"/>
			<psa30 value="0.00238923383341571" flag="0"/>
		</comp>
		<comp name="--.HNN" depth="0.0">
			<acc value="0.051612186866157" flag="0"/>
			<vel value="0.0285005575373194" flag="0"/>
			<psa03 value="0.132347447176848" flag="0"/>
			<psa10 value="0.0246279002109615" flag="0"/>
			<psa30 value="0.0031999626173388" flag="0"/>
		</comp>
		<comp name="--.HNZ" depth="0.0">
			<acc value="0.0571188338503147" flag="0"/>
			<vel value="0.0323985101751842" flag="0"/>
			<psa03 value="0.121475090968608" flag="0"/>
			<psa10 value="0.0321982815707731" flag="0"/>
			<psa30 value="0.00413283762532976" flag="0"/>
		</comp>
	</station>
	<station code="GORS" name="GORS" netid="SL" source="Seismic Network of the Republic of Slovenia (SNRS)" insttype="" lat="46.3174" lon="13.9999">
		<comp name="--.HNE" depth="0.0">
			<acc value="0.0394475328294389" flag="0"/>
			<vel value="0.0209885650021774" flag="0"/>
			<psa03 value="0.102907075222025" flag="0"/>
			<psa10 value="0.019638696750958" flag="0"/>
			<psa30 value="0.00206753736783034" flag="0"/>
		</comp>
		<comp name="--.HNN" depth="0.0">
			<acc value="0.0375201702958696" flag="0"/>
			<vel value="0.0242578456848824" flag="0"/>
			<psa03 value="0.0728403123745464" flag="0"/>
			<psa10 value="0.0168360449283895" flag="0"/>
			<psa30 value="0.0019959498372411" flag="0"/>
		</comp>
		<comp name="--.HNZ" depth="0.0">
			<acc value="0.0232709612517462" flag="0"/>
			<vel value="0.0157976249798113" flag="0"/>
			<psa03 value="0.0589254861162639" flag="0"/>
			<psa10 value="0.0186642114908121" flag="0"/>
			<psa30 value="0.00286797544423122" flag="0"/>
		</comp>
	</station>
	<station code="KOGS" name="KOGS" netid="SL" source="Seismic Network of the Republic of Slovenia (SNRS)" insttype="" lat="46.4481" lon="16.2504">
		<comp name="--.HNE" depth="0.0">
			<acc value="0.349570946561939" flag="0"/>
			<vel value="0.199322430538732" flag="0"/>
			<psa03 value="0.664242799454863" flag="0"/>
			<psa10 value="0.120755636286186" flag="0"/>
			<psa30 value="0.0181823379255333" flag="0"/>
		</comp>
		<comp name="--.HNN" depth="0.0">
			<acc value="0.334266824454716" flag="0"/>
			<vel value="0.159814700849826" flag="0"/>
			<psa03 value="0.81627681754375" flag="0"/>
			<psa10 value="0.087514413879141" flag="0"/>
			<psa30 value="0.011195394940024" flag="0"/>
		</comp>
		<comp name="--.HNZ" depth="0.0">
			<acc value="0.182753230670534" flag="0"/>
			<vel value="0.0613287594091263" flag="0"/>
			<psa03 value="0.377355770618504" flag="0"/>
			<psa10 value="0.0659186930106998" flag="0"/>
			<psa30 value="0.0106826492521786" flag="0"/>
		</comp>
	</station>
	<station code="LJU" name="LJU" netid="SL" source="Seismic Network of the Republic of Slovenia (SNRS)" insttype="" lat="46.0438" lon="14.5278">
		<comp name="--.HNE" depth="0.0">
			<acc value="0.109980507514865" flag="0"/>
			<vel value="0.0569527121244177" flag="0"/>
			<psa03 value="0.275164570702371" flag="0"/>
			<psa10 value="0.0566530294421219" flag="0"/>
			<psa30 value="0.00574042510912426" flag="0"/>
		</comp>
		<comp name="--.HNN" depth="0.0">
			<acc value="0.140681328012351" flag="0"/>
			<vel value="0.0813187958946158" flag="0"/>
			<psa03 value="0.291853413770987" flag="0"/>
			<psa10 value="0.0536087697038147" flag="0"/>
			<psa30 value="0.00521962582408758" flag="0"/>
		</comp>
		<comp name="--.HNZ" depth="0.0">
			<acc value="0.0748227245698725" flag="0"/>
			<vel value="0.0471415957778619" flag="0"/>
			<psa03 value="0.157626793916171" flag="0"/>
			<psa10 value="0.0684596029245514" flag="0"/>
			<psa30 value="0.00856186865847248" flag="0"/>
		</comp>
	</station>
	<station code="MOZS" name="MOZS" netid="SL" source="Seismic Network of the Republic of Slovenia (SNRS)" insttype="" lat="46.2941" lon="14.4433">
		<comp name="--.HNE" depth="0.0">
			<acc value="0.125921411502394" flag="0"/>
			<vel value="0.0650400072466187" flag="0"/>
			<psa03 value="0.351763228432853" flag="0"/>
			<psa10 value="0.0448464559596923" flag="0"/>
			<psa30 value="0.00793816229821377" flag="0"/>
		</comp>
		<comp name="--.HNN" depth="0.0">
			<acc value="0.0699252141207781" flag="0"/>
			<vel value="0.0422429626910509" flag="0"/>
			<psa03 value="0.176597489522319" flag="0"/>
			<psa10 value="0.0429659410155264" flag="0"/>
			<psa30 value="0.00684779472292649" flag="0"/>
		</comp>
		<comp name="--.HNZ" depth="0.0">
			<acc value="0.0449254192027213" flag="0"/>
			<vel value="0.023737448321764" flag="0"/>
			<psa03 value="0.0987460500065258" flag="0"/>
			<psa10 value="0.017826637382918" flag="0"/>
			<psa30 value="0.00531626899038305" flag="0"/>
		</comp>
	</station>
	<station code="PERS" name="PERS" netid="SL" source="Seismic Network of the Republic of Slovenia (SNRS)" insttype="" lat="46.6365" lon="15.1139">
		<comp name="--.HNE" depth="0.0">
			<acc value="0.0804722022936781" flag="0"/>
			<vel value="0.0577711414717502" flag="0"/>
			<psa03 value="0.320712137039772" flag="0"/>
			<psa10 value="0.0416612582705376" flag="0"/>
			<psa30 value="0.00518785885738861" flag="0"/>
		</comp>
		<comp name="--.HNN" depth="0.0">
			<acc value="0.138099076926413" flag="0"/>
			<vel value="0.089507094573286" flag="0"/>
			<psa03 value="0.530866281525794" flag="0"/>
			<psa10 value="0.0397324217432239" flag="0"/>
			<psa30 value="0.00514982798176308" flag="0"/>
		</comp>
		<comp name="--.HNZ" depth="0.0">
			<acc value="0.0689126577990038" flag="0"/>
			<vel value="0.0360003523384724" flag="0"/>
			<psa03 value="0.151765564849178" flag="0"/>
			<psa10 value="0.0277567227197772" flag="0"/>
			<psa30 value="0.00285947442497375" flag="0"/>
		</comp>
	</station>
	<station code="SKDS" name="SKDS" netid="SL" source="Seismic Network of the Republic of Slovenia (SNRS)" insttype="" lat="45.5464" lon="14.0143">
		<comp name="--.HNE" depth="0.0">
			<acc value="0.0379983061418257" flag="0"/>
			<vel value="0.0327168064234559" flag="0"/>
			<psa03 value="0.142861865732142" flag="0"/>
			<psa10 value="0.0184105231792865" flag="0"/>
			<psa30 value="0.002034875556999" flag="0"/>
		</comp>
		<comp name="--.HNN" depth="0.0">
			<acc value="0.0544476885222321" flag="0"/>
			<vel value="0.028550251240229" flag="0"/>
			<psa03 value="0.128812812854004" flag="0"/>
			<psa10 value="0.0298426043923211" flag="0"/>
			<psa30 value="0.00315790494311762" flag="0"/>
		</comp>
		<comp name="--.HNZ" depth="0.0">
			<acc value="0.0452981603089969" flag="0"/>
			<vel value="0.0281782903840859" flag="0"/>
			<psa03 value="0.109349952975056" flag="0"/>
			<psa10 value="0.0215151848965283" flag="0"/>
			<psa30 value="0.0025163017002116" flag="0"/>
		</comp>
	</station>
	<station code="VISS" name="VISS" netid="SL" source="Seismic Network of the Republic of Slovenia (SNRS)" insttype="" lat="45.8033" lon="14.8393">
		<comp name="--.HNE" depth="0.0">
			<acc value="0.195167199690829" flag="0"/>
			<vel value="0.0744595026874838" flag="0"/>
			<psa03 value="0.444648049372385" flag="0"/>
			<psa10 value="0.0550745243926292" flag="0"/>
			<psa30 value="0.00539322558576648" flag="0"/>
		</comp>
		<comp name="--.HNN" depth="0.0">
			<acc value="0.225193119493499" flag="0"/>
			<vel value="0.104914343357337" flag="0"/>
			<psa03 value="0.325768006387637" flag="0"/>
			<psa10 value="0.0757118671953071" flag="0"/>
			<psa30 value="0.00710416756684919" flag="0"/>
		</comp>
		<comp name="--.HNZ" depth="0.0">
			<acc value="0.108264540913459" flag="0"/>
			<vel value="0.06583344542121" flag="0"/>
			<psa03 value="0.263710565808094" flag="0"/>
			<psa10 value="0.0703562250631" flag="0"/>
			<psa30 value="0.00554892846479806" flag="0"/>
		</comp>
	</station>
	<station code="VNDS" name="VNDS" netid="SL" source="Seismic Network of the Republic of Slovenia (SNRS)" insttype="" lat="46.1016" lon="14.7014">
		<comp name="--.HNE" depth="0.0">
			<acc value="0.11545170642263" flag="0"/>
			<vel value="0.0613350317793285" flag="0"/>
			<psa03 value="0.257804594534482" flag="0"/>
			<psa10 value="0.0808178478145843" flag="0"/>
			<psa30 value="0.0101904849793776" flag="0"/>
		</comp>
		<comp name="--.HNN" depth="0.0">
			<acc value="0.0714401497474136" flag="0"/>
			<vel value="0.0394926866922854" flag="0"/>
			<psa03 value="0.191183448879875" flag="0"/>
			<psa10 value="0.0369136627262727" flag="0"/>
			<psa30 value="0.00586838782005252" flag="0"/>
		</comp>
		<comp name="--.HNZ" depth="0.0">
			<acc value="0.0480417519962623" flag="0"/>
			<vel value="0.0430766500705612" flag="0"/>
			<psa03 value="0.118969527397985" flag="0"/>
			<psa10 value="0.0593147433138429" flag="0"/>
			<psa30 value="0.00694041109062631" flag="0"/>
		</comp>
	</station>
