<?xml version="1.0" encoding="UTF-8" standalone="yes"?>
<!DOCTYPE earthquake SYSTEM "stationlist.dtd">
<stationlist created="" xmlns="ch.ethz.sed.shakemap.usgs.xml">
  <station code="CEYT" name="CEYT" netid="KO" insttype="CMG-3ESP" lat="37.0105" lon="35.7478">
    <comp name="--.HHE">
      <acc value="0.0700910511" flag="0"/>
      <vel value="0.0335201908" flag="0"/>
      <psa03 value="0.1806281931" flag="0"/>
      <psa10 value="0.0565235770" flag="0"/>
      <psa30 value="0.0062708741" flag="0"/>
    </comp>
    <comp name="--.HHZ">
      <acc value="0.0387037595" flag="0"/>
      <vel value="0.0191454779" flag="0"/>
      <psa03 value="0.0908462559" flag="0"/>
      <psa10 value="0.0277407707" flag="0"/>
      <psa30 value="0.0040299302" flag="0"/>
    </comp>
    <comp name="--.HHN">
      <acc value="0.0561067005" flag="0"/>
      <vel value="0.0310127804" flag="0"/>
      <psa03 value="0.1811417974" flag="0"/>
      <psa10 value="0.0522691455" flag="0"/>
      <psa30 value="0.0065957309" flag="0"/>
    </comp>
  </station>
  <station code="GAZ" name="GAZ" netid="KO" insttype="CMG-3T" lat="37.1721" lon="37.2096">
    <comp name="--.HHZ">
      <acc value="0.0258565973" flag="0"/>
      <vel value="0.0229892237" flag="0"/>
      <psa03 value="0.0698037384" flag="0"/>
      <psa10 value="0.0395433059" flag="0"/>
      <psa30 value="0.0069625422" flag="0"/>
    </comp>
    <comp name="--.HHE">
      <acc value="0.0576105285" flag="0"/>
      <vel value="0.0347445952" flag="0"/>
      <psa03 value="0.1854228359" flag="0"/>
      <psa10 value="0.0561194686" flag="0"/>
      <psa30 value="0.0084057741" flag="0"/>
    </comp>
    <comp name="--.HHN">
      <acc value="0.0361469774" flag="0"/>
      <vel value="0.0249226449" flag="0"/>
      <psa03 value="0.1215036291" flag="0"/>
      <psa10 value="0.0539974026" flag="0"/>
      <psa30 value="0.0076475041" flag="0"/>
    </comp>
  </station>
  <station code="KMRS" name="KMRS" netid="KO" insttype="CMG-3T" lat="37.5053" lon="36.9">
    <comp name="--.HHE">
      <acc value="0.0219116433" flag="0"/>
      <vel value="0.0277303141" flag="0"/>
      <psa03 value="0.0663988024" flag="0"/>
      <psa10 value="0.0523947079" flag="0"/>
      <psa30 value="0.0046243871" flag="0"/>
    </comp>
    <comp name="--.HHN">
      <acc value="0.0223656620" flag="0"/>
      <vel value="0.0268399520" flag="0"/>
      <psa03 value="0.0816878579" flag="0"/>
      <psa10 value="0.0299348482" flag="0"/>
      <psa30 value="0.0049247471" flag="0"/>
    </comp>
    <comp name="--.HHZ">
      <acc value="0.0172949186" flag="0"/>
      <vel value="0.0190721268" flag="0"/>
      <psa03 value="0.0641877007" flag="0"/>
      <psa10 value="0.0516424638" flag="0"/>
      <psa30 value="0.0046218779" flag="0"/>
    </comp>
  </station>
  <station code="KRTS" name="KRTS" netid="KO" insttype="CMG-5T" lat="36.573" lon="35.375">
    <comp name="--.HNE">
      <acc value="0.1331830371" flag="0"/>
      <vel value="0.0639002379" flag="0"/>
      <psa03 value="0.3933021516" flag="0"/>
      <psa10 value="0.0971913400" flag="0"/>
      <psa30 value="0.0197057461" flag="0"/>
    </comp>
    <comp name="--.HNZ">
      <acc value="0.0940671482" flag="0"/>
      <vel value="0.0553867539" flag="0"/>
      <psa03 value="0.2390833709" flag="0"/>
      <psa10 value="0.1050093921" flag="0"/>
      <psa30 value="0.0168659722" flag="0"/>
    </comp>
    <comp name="--.HNN">
      <acc value="0.1629639532" flag="0"/>
      <vel value="0.1203860142" flag="0"/>
      <psa03 value="0.3378667367" flag="0"/>
      <psa10 value="0.1764202811" flag="0"/>
      <psa30 value="0.0179981875" flag="0"/>
    </comp>
  </station>
  <station code="MERS" name="MERS" netid="KO" insttype="CMG-3T" lat="36.8678" lon="34.522">
    <comp name="--.HHE">
      <acc value="0.0366041956" flag="0"/>
      <vel value="0.0301341047" flag="0"/>
      <psa03 value="0.0960631679" flag="0"/>
      <psa10 value="0.0351819529" flag="0"/>
      <psa30 value="0.0032338588" flag="0"/>
    </comp>
    <comp name="--.HHN">
      <acc value="0.0295230133" flag="0"/>
      <vel value="0.0228349090" flag="0"/>
      <psa03 value="0.0623989182" flag="0"/>
      <psa10 value="0.0325134618" flag="0"/>
      <psa30 value="0.0051694793" flag="0"/>
    </comp>
    <comp name="--.HHZ">
      <acc value="0.0160396260" flag="0"/>
      <vel value="0.0155637828" flag="0"/>
      <psa03 value="0.0539864471" flag="0"/>
      <psa10 value="0.0223624018" flag="0"/>
      <psa30 value="0.0037757751" flag="0"/>
    </comp>
  </station>
  <station code="ANDN" name="ANDN" netid="TU" insttype="T" lat="37.58" lon="36.3452">
    <comp name="--.HHZ">
      <acc value="0.0337598919" flag="0"/>
      <vel value="0.0396203932" flag="0"/>
      <psa03 value="0.0742387889" flag="0"/>
      <psa10 value="0.0640494846" flag="0"/>
      <psa30 value="0.0039860943" flag="0"/>
    </comp>
    <comp name="--.HHE">
      <acc value="0.0559836342" flag="0"/>
      <vel value="0.0636962066" flag="0"/>
      <psa03 value="0.1482990765" flag="0"/>
      <psa10 value="0.1026104766" flag="0"/>
      <psa30 value="0.0098895466" flag="0"/>
    </comp>
    <comp name="--.HHN">
      <acc value="0.0734356156" flag="0"/>
      <vel value="0.0500153325" flag="0"/>
      <psa03 value="0.2020349294" flag="0"/>
      <psa10 value="0.0638715506" flag="0"/>
      <psa30 value="0.0085080841" flag="0"/>
    </comp>
  </station>
</stationlist>
