<?xml version="1.0" encoding="UTF-8" standalone="yes"?>
<!DOCTYPE earthquake SYSTEM "stationlist.dtd">
<stationlist created="" xmlns="ch.ethz.sed.shakemap.usgs.xml">
  <station code="CEYT" name="CEYT" netid="KO" insttype="CMG-3ESP" lat="37.0105" lon="35.7478">
    <comp name="--.HHN">
      <acc value="0.0561067005" flag="0"/>
      <vel value="0.0310127792" flag="0"/>
      <psa03 value="0.1811417974" flag="0"/>
      <psa10 value="0.0522691455" flag="0"/>
      <psa30 value="0.0065957308" flag="0"/>
    </comp>
    <comp name="--.HHE">
      <acc value="0.0700910511" flag="0"/>
      <vel value="0.0335201993" flag="0"/>
      <psa03 value="0.1806281931" flag="0"/>
      <psa10 value="0.0565235769" flag="0"/>
      <psa30 value="0.0062708739" flag="0"/>
    </comp>
    <comp name="--.HHZ">
      <acc value="0.0387037595" flag="0"/>
      <vel value="0.0191454802" flag="0"/>
      <psa03 value="0.0908462559" flag="0"/>
      <psa10 value="0.0277407707" flag="0"/>
      <psa30 value="0.0040299302" flag="0"/>
    </comp>
  </station>
  <station code="CMRD" name="CMRD" netid="KO" insttype="CMG-5T" lat="37.6623" lon="34.9902">
    <comp name="--.HNZ">
      <acc value="0.0071082981" flag="0"/>
      <vel value="0.0046805498" flag="0"/>
      <psa03 value="0.0190051833" flag="0"/>
      <psa10 value="0.0120168067" flag="0"/>
      <psa30 value="0.0008716859" flag="0"/>
    </comp>
    <comp name="--.HNE">
      <acc value="0.0106998262" flag="0"/>
      <vel value="0.0102711802" flag="0"/>
      <psa03 value="0.0213678831" flag="0"/>
      <psa10 value="0.0161333487" flag="0"/>
      <psa30 value="0.0013874367" flag="0"/>
    </comp>
    <comp name="--.HNN">
      <acc value="0.0106804930" flag="0"/>
      <vel value="0.0077885842" flag="0"/>
      <psa03 value="0.0249267282" flag="0"/>
      <psa10 value="0.0137402336" flag="0"/>
      <psa30 value="0.0011669950" flag="0"/>
    </comp>
  </station>
  <station code="GAZ" name="GAZ" netid="KO" insttype="CMG-3T" lat="37.1721" lon="37.2096">
    <comp name="--.HHE">
      <acc value="0.0576105284" flag="0"/>
      <vel value="0.0347445981" flag="0"/>
      <psa03 value="0.1854228359" flag="0"/>
      <psa10 value="0.0561194686" flag="0"/>
      <psa30 value="0.0084057860" flag="0"/>
    </comp>
    <comp name="--.HHN">
      <acc value="0.0361469773" flag="0"/>
      <vel value="0.0249226493" flag="0"/>
      <psa03 value="0.1215036292" flag="0"/>
      <psa10 value="0.0539974026" flag="0"/>
      <psa30 value="0.0076475056" flag="0"/>
    </comp>
    <comp name="--.HHZ">
      <acc value="0.0258565970" flag="0"/>
      <vel value="0.0229892247" flag="0"/>
      <psa03 value="0.0698037384" flag="0"/>
      <psa10 value="0.0395433059" flag="0"/>
      <psa30 value="0.0069625423" flag="0"/>
    </comp>
  </station>
  <station code="KRTS" name="KRTS" netid="KO" insttype="CMG-5T" lat="36.573" lon="35.375">
    <comp name="--.HNE">
      <acc value="0.1331830350" flag="0"/>
      <vel value="0.0639002306" flag="0"/>
      <psa03 value="0.3933021516" flag="0"/>
      <psa10 value="0.0971913402" flag="0"/>
      <psa30 value="0.0197049520" flag="0"/>
    </comp>
    <comp name="--.HNN">
      <acc value="0.1629639660" flag="0"/>
      <vel value="0.1203860155" flag="0"/>
      <psa03 value="0.3378667367" flag="0"/>
      <psa10 value="0.1764202818" flag="0"/>
      <psa30 value="0.0179981807" flag="0"/>
    </comp>
    <comp name="--.HNZ">
      <acc value="0.0940671613" flag="0"/>
      <vel value="0.0553867033" flag="0"/>
      <psa03 value="0.2390833709" flag="0"/>
      <psa10 value="0.1050093921" flag="0"/>
      <psa30 value="0.0168657156" flag="0"/>
    </comp>
  </station>
  <station code="MERS" name="MERS" netid="KO" insttype="CMG-3T" lat="36.8678" lon="34.522">
    <comp name="--.HHN">
      <acc value="0.0295230133" flag="0"/>
      <vel value="0.0228349075" flag="0"/>
      <psa03 value="0.0623989182" flag="0"/>
      <psa10 value="0.0325134618" flag="0"/>
      <psa30 value="0.0051694881" flag="0"/>
    </comp>
    <comp name="--.HHE">
      <acc value="0.0366041956" flag="0"/>
      <vel value="0.0301341071" flag="0"/>
      <psa03 value="0.0960631679" flag="0"/>
      <psa10 value="0.0351819529" flag="0"/>
      <psa30 value="0.0032338546" flag="0"/>
    </comp>
    <comp name="--.HHZ">
      <acc value="0.0160396260" flag="0"/>
      <vel value="0.0155637825" flag="0"/>
      <psa03 value="0.0539864471" flag="0"/>
      <psa10 value="0.0223624018" flag="0"/>
      <psa30 value="0.0037757611" flag="0"/>
    </comp>
  </station>
  <station code="ANDN" name="ANDN" netid="TU" insttype="T" lat="37.58" lon="36.3452">
    <comp name="--.HHN">
      <acc value="0.0734356157" flag="0"/>
      <vel value="0.0500153281" flag="0"/>
      <psa03 value="0.2020349294" flag="0"/>
      <psa10 value="0.0638715506" flag="0"/>
      <psa30 value="0.0085080901" flag="0"/>
    </comp>
    <comp name="--.HHZ">
      <acc value="0.0337598919" flag="0"/>
      <vel value="0.0396203928" flag="0"/>
      <psa03 value="0.0742387889" flag="0"/>
      <psa10 value="0.0640494846" flag="0"/>
      <psa30 value="0.0039860861" flag="0"/>
    </comp>
    <comp name="--.HHE">
      <acc value="0.0559836341" flag="0"/>
      <vel value="0.0636962053" flag="0"/>
      <psa03 value="0.1482990765" flag="0"/>
      <psa10 value="0.1026104766" flag="0"/>
      <psa30 value="0.0098895947" flag="0"/>
    </comp>
  </station>
</stationlist>
