<?xml version="1.0" encoding="UTF-8" standalone="yes"?>
<!DOCTYPE earthquake SYSTEM "stationlist.dtd">
<stationlist created="" xmlns="ch.ethz.sed.shakemap.usgs.xml">
  <station code="KARP" name="KARP" netid="GE" insttype="STS-2/N" lat="35.5471" lon="27.1611">
    <comp name="--.HHN">
      <acc value="0.0624977053" flag="0"/>
      <vel value="0.0100482541" flag="0"/>
      <psa03 value="0.0469996282" flag="0"/>
      <psa10 value="0.0066210818" flag="0"/>
      <psa30 value="0.0002971080" flag="0"/>
    </comp>
    <comp name="--.HHZ">
      <acc value="0.0375272305" flag="0"/>
      <vel value="0.0110313344" flag="0"/>
      <psa03 value="0.0298967757" flag="0"/>
      <psa10 value="0.0034480270" flag="0"/>
      <psa30 value="0.0002782459" flag="0"/>
    </comp>
    <comp name="--.HHE">
      <acc value="0.0585354557" flag="0"/>
      <vel value="0.0115824581" flag="0"/>
      <psa03 value="0.0424040764" flag="0"/>
      <psa10 value="0.0109099813" flag="0"/>
      <psa30 value="0.0004445821" flag="0"/>
    </comp>
  </station>
  <station code="ZKR" name="ZKR" netid="GE" insttype="STS-2/N" lat="35.1147" lon="26.2169">
    <comp name="--.HHN">
      <acc value="0.0105775059" flag="0"/>
      <vel value="0.0041768178" flag="0"/>
      <psa03 value="0.0204266841" flag="0"/>
      <psa10 value="0.0018033407" flag="0"/>
      <psa30 value="0.0001269685" flag="0"/>
    </comp>
    <comp name="--.HHE">
      <acc value="0.0295614000" flag="0"/>
      <vel value="0.0084172244" flag="0"/>
      <psa03 value="0.0349473758" flag="0"/>
      <psa10 value="0.0064842318" flag="0"/>
      <psa30 value="0.0004223861" flag="0"/>
    </comp>
    <comp name="--.HHZ">
      <acc value="0.0328517537" flag="0"/>
      <vel value="0.0049935913" flag="0"/>
      <psa03 value="0.0215249409" flag="0"/>
      <psa10 value="0.0038596273" flag="0"/>
      <psa30 value="0.0002093927" flag="0"/>
    </comp>
  </station>
  <station code="STIA" name="STIA" netid="HC" insttype="120" lat="35.2021" lon="26.0909">
    <comp name="--.HHE">
      <acc value="0.0388568717" flag="0"/>
      <vel value="0.0104980332" flag="0"/>
      <psa03 value="0.0612121101" flag="0"/>
      <psa10 value="0.0074048729" flag="0"/>
      <psa30 value="0.0004942086" flag="0"/>
    </comp>
    <comp name="--.HHZ">
      <acc value="0.0584760378" flag="0"/>
      <vel value="0.0102200383" flag="0"/>
      <psa03 value="0.0505856140" flag="0"/>
      <psa10 value="0.0052909831" flag="0"/>
      <psa30 value="0.0003067048" flag="0"/>
    </comp>
    <comp name="--.HHN">
      <acc value="0.0437826419" flag="0"/>
      <vel value="0.0135164006" flag="0"/>
      <psa03 value="0.0595678578" flag="0"/>
      <psa10 value="0.0067604004" flag="0"/>
      <psa30 value="0.0005865494" flag="0"/>
    </comp>
  </station>
  <station code="SIT2" name="SIT2" netid="HI" insttype="CMG-5TD,ACCELEROMETER,GURALP" lat="35.2059" lon="26.107">
    <comp name="--.HNN">
      <acc value="0.0646551208" flag="0"/>
      <vel value="0.0344144099" flag="0"/>
      <psa03 value="0.2520941368" flag="0"/>
      <psa10 value="0.0156093616" flag="0"/>
      <psa30 value="0.0011240360" flag="0"/>
    </comp>
    <comp name="--.HNE">
      <acc value="0.0610435376" flag="0"/>
      <vel value="0.0341559894" flag="0"/>
      <psa03 value="0.1832443317" flag="0"/>
      <psa10 value="0.0118799034" flag="0"/>
      <psa30 value="0.0011890892" flag="0"/>
    </comp>
    <comp name="--.HNZ">
      <acc value="0.0713679223" flag="0"/>
      <vel value="0.0230404208" flag="0"/>
      <psa03 value="0.1049583921" flag="0"/>
      <psa10 value="0.0064319497" flag="0"/>
      <psa30 value="0.0004848978" flag="0"/>
    </comp>
  </station>
  <station code="KARP" name="KARP" netid="HL" insttype="120" lat="35.5471" lon="27.1611">
    <comp name="--.HHN">
      <acc value="0.0597404146" flag="0"/>
      <vel value="0.0093719639" flag="0"/>
      <psa03 value="0.0458155500" flag="0"/>
      <psa10 value="0.0065823952" flag="0"/>
      <psa30 value="0.0002937562" flag="0"/>
    </comp>
    <comp name="--.HHZ">
      <acc value="0.0335631743" flag="0"/>
      <vel value="0.0104327377" flag="0"/>
      <psa03 value="0.0290276342" flag="0"/>
      <psa10 value="0.0034250177" flag="0"/>
      <psa30 value="0.0002738778" flag="0"/>
    </comp>
    <comp name="--.HHE">
      <acc value="0.0507646150" flag="0"/>
      <vel value="0.0111966850" flag="0"/>
      <psa03 value="0.0415361973" flag="0"/>
      <psa10 value="0.0108133066" flag="0"/>
      <psa30 value="0.0004389621" flag="0"/>
    </comp>
  </station>
  <station code="NPS" name="NPS" netid="HL" insttype="CMG3ESPC-120s" lat="35.2613" lon="25.6104">
    <comp name="--.HHE">
      <acc value="0.0209543425" flag="0"/>
      <vel value="0.0072532184" flag="0"/>
      <psa03 value="0.0522437083" flag="0"/>
      <psa10 value="0.0033975198" flag="0"/>
      <psa30 value="0.0001882341" flag="0"/>
    </comp>
    <comp name="--.HHZ">
      <acc value="0.0446674499" flag="0"/>
      <vel value="0.0095186651" flag="0"/>
      <psa03 value="0.0505861996" flag="0"/>
      <psa10 value="0.0037780582" flag="0"/>
      <psa30 value="0.0002384596" flag="0"/>
    </comp>
    <comp name="--.HHN">
      <acc value="0.0476708434" flag="0"/>
      <vel value="0.0152878923" flag="0"/>
      <psa03 value="0.0859374282" flag="0"/>
      <psa10 value="0.0034127371" flag="0"/>
      <psa30 value="0.0003891263" flag="0"/>
    </comp>
  </station>
  <station code="ZKR" name="ZKR" netid="HL" insttype="120" lat="35.1147" lon="26.2169">
    <comp name="--.HHZ">
      <acc value="0.0322659455" flag="0"/>
      <vel value="0.0048723937" flag="0"/>
      <psa03 value="0.0210251984" flag="0"/>
      <psa10 value="0.0038327847" flag="0"/>
      <psa30 value="0.0002081875" flag="0"/>
    </comp>
    <comp name="--.HHE">
      <acc value="0.0287612096" flag="0"/>
      <vel value="0.0083581907" flag="0"/>
      <psa03 value="0.0339507575" flag="0"/>
      <psa10 value="0.0064279729" flag="0"/>
      <psa30 value="0.0004167184" flag="0"/>
    </comp>
    <comp name="--.HHN">
      <acc value="0.0102576905" flag="0"/>
      <vel value="0.0040763740" flag="0"/>
      <psa03 value="0.0198173088" flag="0"/>
      <psa10 value="0.0017695634" flag="0"/>
      <psa30 value="0.0001262028" flag="0"/>
    </comp>
  </station>
</stationlist>
