<stationlist created="1778135927">
	<station code="KSS1" name="KSS1" netid="HI" source="ITSAK Strong Motion Network" insttype="" lat="35.4189" lon="26.9207">
		<comp name="--.HNE" depth="0.0">
			<acc value="0.0403625687505714" flag="0"/>
			<vel value="0.0101387357203915" flag="0"/>
			<psa03 value="0.072437632514982" flag="0"/>
			<psa10 value="0.00479591712741255" flag="0"/>
			<psa30 value="0.000289034654754035" flag="0"/>
		</comp>
		<comp name="--.HNN" depth="0.0">
			<acc value="0.0758546548044921" flag="0"/>
			<vel value="0.0175626745443885" flag="0"/>
			<psa03 value="0.114763759975867" flag="0"/>
			<psa10 value="0.00502544464736428" flag="0"/>
			<psa30 value="0.000517219908507221" flag="0"/>
		</comp>
		<comp name="--.HNZ" depth="0.0">
			<acc value="0.0401726830583027" flag="0"/>
			<vel value="0.00732377072251812" flag="0"/>
			<psa03 value="0.0152123502502124" flag="0"/>
			<psa10 value="0.00333418923719361" flag="0"/>
			<psa30 value="0.00029798309607769" flag="0"/>
		</comp>
	</station>
	<station code="SIT2" name="SIT2" netid="HI" source="ITSAK Strong Motion Network" insttype="" lat="35.2059" lon="26.107">
		<comp name="--.HNE" depth="0.0">
			<acc value="0.0609583705425468" flag="0"/>
			<vel value="0.0343677077630811" flag="0"/>
			<psa03 value="0.178924084266469" flag="0"/>
			<psa10 value="0.0119233506417032" flag="0"/>
			<psa30 value="0.00118880042984748" flag="0"/>
		</comp>
		<comp name="--.HNN" depth="0.0">
			<acc value="0.0649161314315346" flag="0"/>
			<vel value="0.0345534016946492" flag="0"/>
			<psa03 value="0.248856153210828" flag="0"/>
			<psa10 value="0.0156320321482918" flag="0"/>
			<psa30 value="0.0011391365805012" flag="0"/>
		</comp>
		<comp name="--.HNZ" depth="0.0">
			<acc value="0.071513899615413" flag="0"/>
			<vel value="0.0232978144355145" flag="0"/>
			<psa03 value="0.105860060858831" flag="0"/>
			<psa10 value="0.00645495814881807" flag="0"/>
			<psa30 value="0.000502454980323192" flag="0"/>
		</comp>
	</station>
	<station code="KARP" name="KARP" netid="HL" source="National Observatory of Athens Seismic Network" insttype="" lat="35.5471" lon="27.16106">
		<comp name="--.HNE" depth="0.0">
			<acc value="0.0457377669936057" flag="0"/>
			<vel value="0.00939447839312257" flag="0"/>
			<psa03 value="0.0337356237901769" flag="0"/>
			<psa10 value="0.00921331518683452" flag="0"/>
			<psa30 value="0.000378966490056762" flag="0"/>
		</comp>
		<comp name="--.HNN" depth="0.0">
			<acc value="0.0501144156841475" flag="0"/>
			<vel value="0.00890403111366551" flag="0"/>
			<psa03 value="0.0407601502292456" flag="0"/>
			<psa10 value="0.00546436569428953" flag="0"/>
			<psa30 value="0.000234449162679744" flag="0"/>
		</comp>
		<comp name="--.HNZ" depth="0.0">
			<acc value="0.028181393517226" flag="0"/>
			<vel value="0.00883173628495863" flag="0"/>
			<psa03 value="0.0242950181937216" flag="0"/>
			<psa10 value="0.00279459822537725" flag="0"/>
			<psa30 value="0.000225053299289907" flag="0"/>
		</comp>
	</station>
	<station code="THRA" name="THRA" netid="HL" source="National Observatory of Athens Seismic Network" insttype="" lat="36.41502" lon="25.43244">
		<comp name="00.HNE" depth="0.0">
			<acc value="0.0246836760143111" flag="0"/>
			<vel value="0.0122090682180818" flag="0"/>
			<psa03 value="0.0585228062566995" flag="0"/>
			<psa10 value="0.0202829845262611" flag="0"/>
			<psa30 value="0.000979406902873968" flag="0"/>
		</comp>
		<comp name="00.HNN" depth="0.0">
			<acc value="0.0160929699966974" flag="0"/>
			<vel value="0.00770253378206992" flag="0"/>
			<psa03 value="0.039999532716735" flag="0"/>
			<psa10 value="0.0114481884074172" flag="0"/>
			<psa30 value="0.000593281659758283" flag="0"/>
		</comp>
		<comp name="00.HNZ" depth="0.0">
			<acc value="0.0150228030065598" flag="0"/>
			<vel value="0.00729265652276926" flag="0"/>
			<psa03 value="0.0592834237692101" flag="0"/>
			<psa10 value="0.00779185528257203" flag="0"/>
			<psa30 value="0.00031945935525446" flag="0"/>
		</comp>
	</station>
</stationlist>
