<?xml version="1.0" encoding="UTF-8" standalone="yes"?>
<!DOCTYPE earthquake SYSTEM "stationlist.dtd">
<stationlist created="" xmlns="ch.ethz.sed.shakemap.usgs.xml">
  <station code="DARE" name="DARE" netid="KO" insttype="CMG-3ESP" lat="38.5712" lon="37.4832">
    <comp name="--.HHE">
      <acc value="0.0341730720" flag="0"/>
      <vel value="0.0117708858" flag="0"/>
      <psa03 value="0.0739444799" flag="0"/>
      <psa10 value="0.0205653620" flag="0"/>
      <psa30 value="0.0016668683" flag="0"/>
    </comp>
    <comp name="--.HHN">
      <acc value="0.0383551284" flag="0"/>
      <vel value="0.0154928696" flag="0"/>
      <psa03 value="0.0733480614" flag="0"/>
      <psa10 value="0.0227794198" flag="0"/>
      <psa30 value="0.0017795126" flag="0"/>
    </comp>
    <comp name="--.HHZ">
      <acc value="0.0445791454" flag="0"/>
      <vel value="0.0211445281" flag="0"/>
      <psa03 value="0.0947657522" flag="0"/>
      <psa10 value="0.0275812154" flag="0"/>
      <psa30 value="0.0024074182" flag="0"/>
    </comp>
  </station>
</stationlist>
