<?xml version="1.0" encoding="UTF-8" standalone="yes"?>
<!DOCTYPE earthquake SYSTEM "stationlist.dtd">
<stationlist created="" xmlns="ch.ethz.sed.shakemap.usgs.xml">
  <station code="DARE" name="DARE" netid="KO" insttype="CMG-3ESP" lat="38.5712" lon="37.4832">
    <comp name="--.HHN">
      <acc value="0.0383551283" flag="0"/>
      <vel value="0.0154928714" flag="0"/>
      <psa03 value="0.0733480614" flag="0"/>
      <psa10 value="0.0227794166" flag="0"/>
      <psa30 value="0.0017795565" flag="0"/>
    </comp>
    <comp name="--.HHZ">
      <acc value="0.0445791456" flag="0"/>
      <vel value="0.0211445303" flag="0"/>
      <psa03 value="0.0947657522" flag="0"/>
      <psa10 value="0.0275812155" flag="0"/>
      <psa30 value="0.0024077910" flag="0"/>
    </comp>
    <comp name="--.HHE">
      <acc value="0.0341730720" flag="0"/>
      <vel value="0.0117708846" flag="0"/>
      <psa03 value="0.0739444799" flag="0"/>
      <psa10 value="0.0205653618" flag="0"/>
      <psa30 value="0.0016668211" flag="0"/>
    </comp>
  </station>
  <station code="GAZ" name="GAZ" netid="KO" insttype="CMG-3T" lat="37.1721" lon="37.2096">
    <comp name="--.HHE">
      <acc value="0.0269155945" flag="0"/>
      <vel value="0.0108775121" flag="0"/>
      <psa03 value="0.0856167431" flag="0"/>
      <psa10 value="0.0137213173" flag="0"/>
      <psa30 value="0.0013784428" flag="0"/>
    </comp>
    <comp name="--.HHN">
      <acc value="0.0165965880" flag="0"/>
      <vel value="0.0092330462" flag="0"/>
      <psa03 value="0.0443274696" flag="0"/>
      <psa10 value="0.0117992579" flag="0"/>
      <psa30 value="0.0007750928" flag="0"/>
    </comp>
    <comp name="--.HHZ">
      <acc value="0.0189892037" flag="0"/>
      <vel value="0.0075968915" flag="0"/>
      <psa03 value="0.0403881953" flag="0"/>
      <psa10 value="0.0087185097" flag="0"/>
      <psa30 value="0.0007621285" flag="0"/>
    </comp>
  </station>
</stationlist>
