<?xml version="1.0" encoding="UTF-8" standalone="yes"?>
<!DOCTYPE earthquake SYSTEM "stationlist.dtd">
<stationlist created="" xmlns="ch.ethz.sed.shakemap.usgs.xml">
  <station code="KARP" name="KARP" netid="GE" insttype="STS-2/N" lat="35.5471" lon="27.1611">
    <comp name="--.HHE">
      <acc value="0.0952774613" flag="0"/>
      <vel value="0.0115891990" flag="0"/>
      <psa03 value="0.0406740090" flag="0"/>
      <psa10 value="0.0025057768" flag="0"/>
      <psa30 value="0.0002329603" flag="0"/>
    </comp>
    <comp name="--.HHN">
      <acc value="0.0419565780" flag="0"/>
      <vel value="0.0129554102" flag="0"/>
      <psa03 value="0.0843731395" flag="0"/>
      <psa10 value="0.0044932721" flag="0"/>
      <psa30 value="0.0004156041" flag="0"/>
    </comp>
    <comp name="--.HHZ">
      <acc value="0.0730063310" flag="0"/>
      <vel value="0.0096393892" flag="0"/>
      <psa03 value="0.0435944207" flag="0"/>
      <psa10 value="0.0017880920" flag="0"/>
      <psa30 value="0.0001201210" flag="0"/>
    </comp>
  </station>
  <station code="THERA" name="THERA" netid="GE" insttype="STS-2/N" lat="36.367" lon="25.4753">
    <comp name="--.HHN">
      <acc value="0.0015495847" flag="0"/>
      <vel value="0.0005006072" flag="0"/>
      <psa03 value="0.0040861152" flag="0"/>
      <psa10 value="0.0004787010" flag="0"/>
      <psa30 value="0.0000390635" flag="0"/>
    </comp>
    <comp name="--.HHE">
      <acc value="0.0021363794" flag="0"/>
      <vel value="0.0008569640" flag="0"/>
      <psa03 value="0.0050108347" flag="0"/>
      <psa10 value="0.0004100371" flag="0"/>
      <psa30 value="0.0000371531" flag="0"/>
    </comp>
    <comp name="--.HHZ">
      <acc value="0.0024728958" flag="0"/>
      <vel value="0.0010885602" flag="0"/>
      <psa03 value="0.0075471573" flag="0"/>
      <psa10 value="0.0003570067" flag="0"/>
      <psa30 value="0.0000432093" flag="0"/>
    </comp>
  </station>
  <station code="ARG" name="ARG" netid="HL" insttype="LE3D20_DR24" lat="36.2136" lon="28.1212">
    <comp name="--.HHE">
      <acc value="0.0289414759" flag="0"/>
      <vel value="0.0110546706" flag="0"/>
      <psa03 value="0.0327464026" flag="0"/>
      <psa10 value="0.0054317591" flag="0"/>
      <psa30 value="0.0003139829" flag="0"/>
    </comp>
    <comp name="--.HHN">
      <acc value="0.0236901854" flag="0"/>
      <vel value="0.0048692325" flag="0"/>
      <psa03 value="0.0264386050" flag="0"/>
      <psa10 value="0.0020888021" flag="0"/>
      <psa30 value="0.0001964836" flag="0"/>
    </comp>
    <comp name="--.HHZ">
      <acc value="0.0198119262" flag="0"/>
      <vel value="0.0050327826" flag="0"/>
      <psa03 value="0.0145522661" flag="0"/>
      <psa10 value="0.0014307930" flag="0"/>
      <psa30 value="0.0001003362" flag="0"/>
    </comp>
  </station>
  <station code="KARP" name="KARP" netid="HL" insttype="120" lat="35.5471" lon="27.1611">
    <comp name="--.HHE">
      <acc value="0.0888483327" flag="0"/>
      <vel value="0.0108840080" flag="0"/>
      <psa03 value="0.0394517861" flag="0"/>
      <psa10 value="0.0024685198" flag="0"/>
      <psa30 value="0.0002299418" flag="0"/>
    </comp>
    <comp name="--.HHZ">
      <acc value="0.0699616198" flag="0"/>
      <vel value="0.0083936290" flag="0"/>
      <psa03 value="0.0425366945" flag="0"/>
      <psa10 value="0.0017699122" flag="0"/>
      <psa30 value="0.0001174734" flag="0"/>
    </comp>
    <comp name="--.HHN">
      <acc value="0.0415151335" flag="0"/>
      <vel value="0.0125488571" flag="0"/>
      <psa03 value="0.0823948967" flag="0"/>
      <psa10 value="0.0044379984" flag="0"/>
      <psa30 value="0.0004082818" flag="0"/>
    </comp>
  </station>
  <station code="NISR2" name="NISR2" netid="HL" insttype="120" lat="36.5744" lon="27.1767">
    <comp name="--.HHE">
      <acc value="0.0043689948" flag="0"/>
      <vel value="0.0030889472" flag="0"/>
      <psa03 value="0.0116874675" flag="0"/>
      <psa10 value="0.0041991736" flag="0"/>
      <psa30 value="0.0001970538" flag="0"/>
    </comp>
    <comp name="--.HHZ">
      <acc value="0.0020715892" flag="0"/>
      <vel value="0.0007305066" flag="0"/>
      <psa03 value="0.0052109087" flag="0"/>
      <psa10 value="0.0005825790" flag="0"/>
      <psa30 value="0.0000881632" flag="0"/>
    </comp>
    <comp name="--.HHN">
      <acc value="0.0054739899" flag="0"/>
      <vel value="0.0028011412" flag="0"/>
      <psa03 value="0.0129715992" flag="0"/>
      <psa10 value="0.0030857799" flag="0"/>
      <psa30 value="0.0002917289" flag="0"/>
    </comp>
  </station>
  <station code="THERA" name="THERA" netid="HL" insttype="120" lat="36.367" lon="25.4753">
    <comp name="--.HHE">
      <acc value="0.0021129828" flag="0"/>
      <vel value="0.0008344804" flag="0"/>
      <psa03 value="0.0048513537" flag="0"/>
      <psa10 value="0.0004070735" flag="0"/>
      <psa30 value="0.0000368178" flag="0"/>
    </comp>
    <comp name="--.HHN">
      <acc value="0.0015191618" flag="0"/>
      <vel value="0.0004825088" flag="0"/>
      <psa03 value="0.0039616913" flag="0"/>
      <psa10 value="0.0004755720" flag="0"/>
      <psa30 value="0.0000389632" flag="0"/>
    </comp>
    <comp name="--.HHZ">
      <acc value="0.0024068883" flag="0"/>
      <vel value="0.0010561035" flag="0"/>
      <psa03 value="0.0073343110" flag="0"/>
      <psa10 value="0.0003496205" flag="0"/>
      <psa30 value="0.0000425352" flag="0"/>
    </comp>
  </station>
</stationlist>
