<?xml version="1.0" encoding="UTF-8" standalone="yes"?>
<!DOCTYPE earthquake SYSTEM "stationlist.dtd">
<stationlist created="" xmlns="ch.ethz.sed.shakemap.usgs.xml">
  <station code="NISR2" name="NISR2" netid="HL" insttype="120" lat="36.5744" lon="27.1767">
    <comp name="--.HHN">
      <acc value="0.0054739893" flag="0"/>
      <vel value="0.0028011416" flag="0"/>
      <psa03 value="0.0129715988" flag="0"/>
      <psa10 value="0.0030857798" flag="0"/>
      <psa30 value="0.0002917299" flag="0"/>
    </comp>
    <comp name="--.HHZ">
      <acc value="0.0020715897" flag="0"/>
      <vel value="0.0007305063" flag="0"/>
      <psa03 value="0.0052109087" flag="0"/>
      <psa10 value="0.0005825790" flag="0"/>
      <psa30 value="0.0000881644" flag="0"/>
    </comp>
    <comp name="--.HHE">
      <acc value="0.0043689938" flag="0"/>
      <vel value="0.0030889476" flag="0"/>
      <psa03 value="0.0116874675" flag="0"/>
      <psa10 value="0.0041991736" flag="0"/>
      <psa30 value="0.0001970498" flag="0"/>
    </comp>
  </station>
</stationlist>
