<stationlist created="1778138926">
	<station code="KSS1" name="KSS1" netid="HI" source="ITSAK Strong Motion Network" insttype="" lat="35.4189" lon="26.9207">
		<comp name="--.HNE" depth="0.0">
			<acc value="0.0573627972374921" flag="0"/>
			<vel value="0.0128228349708468" flag="0"/>
			<psa03 value="0.0503406421123242" flag="0"/>
			<psa10 value="0.00197919478381756" flag="0"/>
			<psa30 value="0.000202753717896914" flag="0"/>
		</comp>
		<comp name="--.HNN" depth="0.0">
			<acc value="0.0463981569004836" flag="0"/>
			<vel value="0.00984064203083867" flag="0"/>
			<psa03 value="0.0356875932945839" flag="0"/>
			<psa10 value="0.00193538004536619" flag="0"/>
			<psa30 value="0.000161289226286542" flag="0"/>
		</comp>
		<comp name="--.HNZ" depth="0.0">
			<acc value="0.0364029812852409" flag="0"/>
			<vel value="0.00673167464474347" flag="0"/>
			<psa03 value="0.0208237687954128" flag="0"/>
			<psa10 value="0.00134214746537012" flag="0"/>
			<psa30 value="0.000112795128373851" flag="0"/>
		</comp>
	</station>
	<station code="SIT2" name="SIT2" netid="HI" source="ITSAK Strong Motion Network" insttype="" lat="35.2059" lon="26.107">
		<comp name="--.HNE" depth="0.0">
			<acc value="0.0228015863353861" flag="0"/>
			<vel value="0.0118007605663677" flag="0"/>
			<psa03 value="0.0805864374141679" flag="0"/>
			<psa10 value="0.0042878231097354" flag="0"/>
			<psa30 value="0.000306714745430152" flag="0"/>
		</comp>
		<comp name="--.HNN" depth="0.0">
			<acc value="0.0262006203488987" flag="0"/>
			<vel value="0.00923582292256564" flag="0"/>
			<psa03 value="0.0901353147721671" flag="0"/>
			<psa10 value="0.00475724170643531" flag="0"/>
			<psa30 value="0.00026972893592658" flag="0"/>
		</comp>
		<comp name="--.HNZ" depth="0.0">
			<acc value="0.029512559765887" flag="0"/>
			<vel value="0.00820974733577783" flag="0"/>
			<psa03 value="0.0545878453434444" flag="0"/>
			<psa10 value="0.00164784732585996" flag="0"/>
			<psa30 value="0.000149736364612008" flag="0"/>
		</comp>
	</station>
</stationlist>
