<?xml version="1.0" encoding="UTF-8" standalone="yes"?>
<!DOCTYPE earthquake SYSTEM "stationlist.dtd">
<stationlist created="" xmlns="ch.ethz.sed.shakemap.usgs.xml">
  <station code="KARP" name="KARP" netid="GE" insttype="STS-2/N" lat="35.5471" lon="27.1611">
    <comp name="--.HHE">
      <acc value="0.0952774613" flag="0"/>
      <vel value="0.0115891990" flag="0"/>
      <psa03 value="0.0406740090" flag="0"/>
      <psa10 value="0.0025057768" flag="0"/>
      <psa30 value="0.0002329603" flag="0"/>
    </comp>
    <comp name="--.HHN">
      <acc value="0.0419565780" flag="0"/>
      <vel value="0.0129554102" flag="0"/>
      <psa03 value="0.0843731395" flag="0"/>
      <psa10 value="0.0044932721" flag="0"/>
      <psa30 value="0.0004156041" flag="0"/>
    </comp>
    <comp name="--.HHZ">
      <acc value="0.0730063310" flag="0"/>
      <vel value="0.0096393892" flag="0"/>
      <psa03 value="0.0435944207" flag="0"/>
      <psa10 value="0.0017880920" flag="0"/>
      <psa30 value="0.0001201210" flag="0"/>
    </comp>
  </station>
  <station code="THERA" name="THERA" netid="GE" insttype="STS-2/N" lat="36.367" lon="25.4753">
    <comp name="--.HHN">
      <acc value="0.0015495847" flag="0"/>
      <vel value="0.0005006072" flag="0"/>
      <psa03 value="0.0040861152" flag="0"/>
      <psa10 value="0.0004787010" flag="0"/>
      <psa30 value="0.0000390635" flag="0"/>
    </comp>
    <comp name="--.HHE">
      <acc value="0.0021363794" flag="0"/>
      <vel value="0.0008569640" flag="0"/>
      <psa03 value="0.0050108347" flag="0"/>
      <psa10 value="0.0004100371" flag="0"/>
      <psa30 value="0.0000371531" flag="0"/>
    </comp>
    <comp name="--.HHZ">
      <acc value="0.0024728958" flag="0"/>
      <vel value="0.0010885602" flag="0"/>
      <psa03 value="0.0075471573" flag="0"/>
      <psa10 value="0.0003570067" flag="0"/>
      <psa30 value="0.0000432093" flag="0"/>
    </comp>
  </station>
</stationlist>
