<stationlist created="1778138556">
	<station code="KTHA" name="KTHA" netid="GE" source="GEOFON" insttype="" lat="36.2566" lon="23.0621">
		<comp name="--.HNE" depth="0.0">
			<acc value="0.10907852574917" flag="0"/>
			<vel value="0.0301497888587546" flag="0"/>
			<psa03 value="0.123260092459455" flag="0"/>
			<psa10 value="0.0218623207714529" flag="0"/>
			<psa30 value="0.00162849996346351" flag="0"/>
		</comp>
		<comp name="--.HNN" depth="0.0">
			<acc value="0.0893945679215551" flag="0"/>
			<vel value="0.0256075895171373" flag="0"/>
			<psa03 value="0.137579541052596" flag="0"/>
			<psa10 value="0.0180044364555486" flag="0"/>
			<psa30 value="0.00266965622662347" flag="0"/>
		</comp>
		<comp name="--.HNZ" depth="0.0">
			<acc value="0.0614720309585831" flag="0"/>
			<vel value="0.0145182847332013" flag="0"/>
			<psa03 value="0.0747046988198807" flag="0"/>
			<psa10 value="0.00776389885146045" flag="0"/>
			<psa30 value="0.00093307931192639" flag="0"/>
		</comp>
	</station>
	<station code="AIGS" name="AIGS" netid="HA" source="Hellenic Seismological Network, University of Athens, Seismological Laboratory (HA)" insttype="" lat="38.25001" lon="22.0878">
		<comp name="--.HNE" depth="0.0">
			<acc value="0.0135525195848083" flag="0"/>
			<vel value="0.00483088733265118" flag="0"/>
			<psa03 value="0.02157874589225" flag="0"/>
			<psa10 value="0.00447954424781933" flag="0"/>
			<psa30 value="0.000766698342086018" flag="0"/>
		</comp>
		<comp name="--.HNN" depth="0.0">
			<acc value="0.00877885044821959" flag="0"/>
			<vel value="0.00338503517881736" flag="0"/>
			<psa03 value="0.0114907573000063" flag="0"/>
			<psa10 value="0.00338175629038143" flag="0"/>
			<psa30 value="0.000674452752099432" flag="0"/>
		</comp>
		<comp name="--.HNZ" depth="0.0">
			<acc value="0.00806755099417057" flag="0"/>
			<vel value="0.00206268557827455" flag="0"/>
			<psa03 value="0.00734105597038442" flag="0"/>
			<psa10 value="0.00376846268903187" flag="0"/>
			<psa30 value="0.000569845145275826" flag="0"/>
		</comp>
	</station>
	<station code="CORS" name="CORS" netid="HA" source="Hellenic Seismological Network, University of Athens, Seismological Laboratory (HA)" insttype="" lat="38.2562" lon="22.0748">
		<comp name="00.HNE" depth="0.0">
			<acc value="0.00571504638725339" flag="0"/>
			<vel value="0.00371489997970665" flag="0"/>
			<psa03 value="0.0187984731711521" flag="0"/>
			<psa10 value="0.00583485965581639" flag="0"/>
			<psa30 value="0.000270170631853392" flag="0"/>
		</comp>
		<comp name="00.HNN" depth="0.0">
			<acc value="0.00623949260984332" flag="0"/>
			<vel value="0.00308748280630083" flag="0"/>
			<psa03 value="0.0143760682293716" flag="0"/>
			<psa10 value="0.00520811813726562" flag="0"/>
			<psa30 value="0.000262897467750283" flag="0"/>
		</comp>
		<comp name="00.HNZ" depth="0.0">
			<acc value="0.010992695324225" flag="0"/>
			<vel value="0.00302772095598532" flag="0"/>
			<psa03 value="0.014369113341582" flag="0"/>
			<psa10 value="0.00196001308343391" flag="0"/>
			<psa30 value="0.000135653009783811" flag="0"/>
		</comp>
	</station>
	<station code="KIAS" name="KIAS" netid="HA" source="Hellenic Seismological Network, University of Athens, Seismological Laboratory (HA)" insttype="" lat="37.9875" lon="22.7543">
		<comp name="--.HNE" depth="0.0">
			<acc value="0.0456126293634398" flag="0"/>
			<vel value="0.0117725266598003" flag="0"/>
			<psa03 value="0.0442996846366796" flag="0"/>
			<psa10 value="0.0140314495146606" flag="0"/>
			<psa30 value="0.0011837200823113" flag="0"/>
		</comp>
		<comp name="--.HNN" depth="0.0">
			<acc value="0.0499941610457542" flag="0"/>
			<vel value="0.0115845498009866" flag="0"/>
			<psa03 value="0.03538804740947" flag="0"/>
			<psa10 value="0.0134925781921011" flag="0"/>
			<psa30 value="0.00127539282184911" flag="0"/>
		</comp>
		<comp name="--.HNZ" depth="0.0">
			<acc value="0.0216313707300581" flag="0"/>
			<vel value="0.00585303980029006" flag="0"/>
			<psa03 value="0.0257066899211907" flag="0"/>
			<psa10 value="0.00630691842740474" flag="0"/>
			<psa30 value="0.000712370993166064" flag="0"/>
		</comp>
	</station>
	<station code="LTRS" name="LTRS" netid="HA" source="Hellenic Seismological Network, University of Athens, Seismological Laboratory (HA)" insttype="" lat="37.97528" lon="22.9765">
		<comp name="--.HNE" depth="0.0">
			<acc value="0.0241065900507733" flag="0"/>
			<vel value="0.013482248393233" flag="0"/>
			<psa03 value="0.0493693069326042" flag="0"/>
			<psa10 value="0.0206061525564853" flag="0"/>
			<psa30 value="0.00164330479837597" flag="0"/>
		</comp>
		<comp name="--.HNN" depth="0.0">
			<acc value="0.0187759940519001" flag="0"/>
			<vel value="0.013468379179455" flag="0"/>
			<psa03 value="0.0421233659870833" flag="0"/>
			<psa10 value="0.0225342227816505" flag="0"/>
			<psa30 value="0.00122941508855044" flag="0"/>
		</comp>
		<comp name="--.HNZ" depth="0.0">
			<acc value="0.0192656273338078" flag="0"/>
			<vel value="0.00923071612145737" flag="0"/>
			<psa03 value="0.0319411992810443" flag="0"/>
			<psa10 value="0.0141169064257706" flag="0"/>
			<psa30 value="0.000764774725072673" flag="0"/>
		</comp>
	</station>
	<station code="ABEA" name="ABEA" netid="HC" source="Seismological Network of Crete (HC)" insttype="" lat="35.5163" lon="24.0113">
		<comp name="--.HNE" depth="0.0">
			<acc value="0.0522536217927259" flag="0"/>
			<vel value="0.0146706745353473" flag="0"/>
			<psa03 value="0.0737286914558161" flag="0"/>
			<psa10 value="0.0104252218697877" flag="0"/>
			<psa30 value="0.00109872986879625" flag="0"/>
		</comp>
		<comp name="--.HNN" depth="0.0">
			<acc value="0.0613680224895252" flag="0"/>
			<vel value="0.0198625201237654" flag="0"/>
			<psa03 value="0.104269876117595" flag="0"/>
			<psa10 value="0.011372422117153" flag="0"/>
			<psa30 value="0.000817404982400076" flag="0"/>
		</comp>
		<comp name="--.HNZ" depth="0.0">
			<acc value="0.0404575777084331" flag="0"/>
			<vel value="0.0123288655078246" flag="0"/>
			<psa03 value="0.0364861618208343" flag="0"/>
			<psa10 value="0.00700116301142367" flag="0"/>
			<psa30 value="0.000805728844333469" flag="0"/>
		</comp>
	</station>
	<station code="ATEI" name="ATEI" netid="HC" source="Seismological Network of Crete (HC)" insttype="" lat="35.5193" lon="24.0432">
		<comp name="--.HNE" depth="0.0">
			<acc value="0.027247348747201" flag="0"/>
			<vel value="0.010657398055053" flag="0"/>
			<psa03 value="0.0684307154906561" flag="0"/>
			<psa10 value="0.0104056436978331" flag="0"/>
			<psa30 value="0.000918405006491292" flag="0"/>
		</comp>
		<comp name="--.HNN" depth="0.0">
			<acc value="0.0401721510628101" flag="0"/>
			<vel value="0.0122988823467882" flag="0"/>
			<psa03 value="0.0770654437489735" flag="0"/>
			<psa10 value="0.00754273357532252" flag="0"/>
			<psa30 value="0.000728624882407627" flag="0"/>
		</comp>
		<comp name="--.HNZ" depth="0.0">
			<acc value="0.0241976434076814" flag="0"/>
			<vel value="0.00704348230015832" flag="0"/>
			<psa03 value="0.0312352723085083" flag="0"/>
			<psa10 value="0.00488825522915508" flag="0"/>
			<psa30 value="0.000612713401754672" flag="0"/>
		</comp>
	</station>
	<station code="DEYA" name="DEYA" netid="HC" source="Seismological Network of Crete (HC)" insttype="" lat="35.4825" lon="24.014">
		<comp name="--.HNE" depth="0.0">
			<acc value="0.0561201433058973" flag="0"/>
			<vel value="0.0192528944745285" flag="0"/>
			<psa03 value="0.0999580175612556" flag="0"/>
			<psa10 value="0.0227609084234862" flag="0"/>
			<psa30 value="0.0013794514860565" flag="0"/>
		</comp>
		<comp name="--.HNN" depth="0.0">
			<acc value="0.0645621339826686" flag="0"/>
			<vel value="0.0257576439169566" flag="0"/>
			<psa03 value="0.150811771789807" flag="0"/>
			<psa10 value="0.0147153373188643" flag="0"/>
			<psa30 value="0.00104053195096785" flag="0"/>
		</comp>
		<comp name="--.HNZ" depth="0.0">
			<acc value="0.0397152651426164" flag="0"/>
			<vel value="0.0127863379842769" flag="0"/>
			<psa03 value="0.0594744242636277" flag="0"/>
			<psa10 value="0.00985247549065532" flag="0"/>
			<psa30 value="0.0014253902584412" flag="0"/>
		</comp>
	</station>
	<station code="G0LD" name="G0LD" netid="HC" source="Seismological Network of Crete (HC)" insttype="" lat="35.4955" lon="24.0306">
		<comp name="--.HNE" depth="0.0">
			<acc value="0.0621488719885149" flag="0"/>
			<vel value="0.0312546246803164" flag="0"/>
			<psa03 value="0.182264282447335" flag="0"/>
			<psa10 value="0.018799215355748" flag="0"/>
			<psa30 value="0.00228645250792376" flag="0"/>
		</comp>
		<comp name="--.HNN" depth="0.0">
			<acc value="0.0570104384311816" flag="0"/>
			<vel value="0.0240094775785935" flag="0"/>
			<psa03 value="0.122697169751972" flag="0"/>
			<psa10 value="0.0182237416084504" flag="0"/>
			<psa30 value="0.00172646874508269" flag="0"/>
		</comp>
		<comp name="--.HNZ" depth="0.0">
			<acc value="0.0273678625871215" flag="0"/>
			<vel value="0.0114176320536989" flag="0"/>
			<psa03 value="0.05420097075651" flag="0"/>
			<psa10 value="0.0152869136204981" flag="0"/>
			<psa30 value="0.00192688264651967" flag="0"/>
		</comp>
	</station>
	<station code="LENT" name="LENT" netid="HC" source="Seismological Network of Crete (HC)" insttype="" lat="35.5074" lon="24.0402">
		<comp name="--.HNE" depth="0.0">
			<acc value="0.0329920919219857" flag="0"/>
			<vel value="0.0103984671858282" flag="0"/>
			<psa03 value="0.0485730354334793" flag="0"/>
			<psa10 value="0.0119798629821312" flag="0"/>
			<psa30 value="0.000933086499900585" flag="0"/>
		</comp>
		<comp name="--.HNN" depth="0.0">
			<acc value="0.0306295475464344" flag="0"/>
			<vel value="0.0133515751198265" flag="0"/>
			<psa03 value="0.0461420514761645" flag="0"/>
			<psa10 value="0.00849842954174763" flag="0"/>
			<psa30 value="0.000870251451971216" flag="0"/>
		</comp>
		<comp name="--.HNZ" depth="0.0">
			<acc value="0.0488429837380558" flag="0"/>
			<vel value="0.0108192455143975" flag="0"/>
			<psa03 value="0.0511497009166512" flag="0"/>
			<psa10 value="0.00928206457872269" flag="0"/>
			<psa30 value="0.000641468639981833" flag="0"/>
		</comp>
	</station>
	<station code="MULT" name="MULT" netid="HC" source="Seismological Network of Crete (HC)" insttype="" lat="35.5091" lon="24.0118">
		<comp name="--.HNE" depth="0.0">
			<acc value="0.0640950647145794" flag="0"/>
			<vel value="0.0171863235722745" flag="0"/>
			<psa03 value="0.0865625051744902" flag="0"/>
			<psa10 value="0.00914143119994121" flag="0"/>
			<psa30 value="0.0011654287664374" flag="0"/>
		</comp>
		<comp name="--.HNN" depth="0.0">
			<acc value="0.0676340490028695" flag="0"/>
			<vel value="0.0162869200773466" flag="0"/>
			<psa03 value="0.127228897039981" flag="0"/>
			<psa10 value="0.0139020800070841" flag="0"/>
			<psa30 value="0.00233162175016628" flag="0"/>
		</comp>
		<comp name="--.HNZ" depth="0.0">
			<acc value="0.0789727975380865" flag="0"/>
			<vel value="0.00958734883118245" flag="0"/>
			<psa03 value="0.0401262102478224" flag="0"/>
			<psa10 value="0.00646860851356629" flag="0"/>
			<psa30 value="0.00367733818894041" flag="0"/>
		</comp>
	</station>
	<station code="NERO" name="NERO" netid="HC" source="Seismological Network of Crete (HC)" insttype="" lat="35.474" lon="24.0423">
		<comp name="--.HNE" depth="0.0">
			<acc value="0.0224783305056339" flag="0"/>
			<vel value="0.00644092097539873" flag="0"/>
			<psa03 value="0.0381213743122877" flag="0"/>
			<psa10 value="0.00541236276120853" flag="0"/>
			<psa30 value="0.000646517516113855" flag="0"/>
		</comp>
		<comp name="--.HNN" depth="0.0">
			<acc value="0.0205377597293897" flag="0"/>
			<vel value="0.00814478395145826" flag="0"/>
			<psa03 value="0.0454827369663399" flag="0"/>
			<psa10 value="0.00443743458325697" flag="0"/>
			<psa30 value="0.000859989990948513" flag="0"/>
		</comp>
		<comp name="--.HNZ" depth="0.0">
			<acc value="0.0192755442692382" flag="0"/>
			<vel value="0.00813476722366134" flag="0"/>
			<psa03 value="0.0330073037593757" flag="0"/>
			<psa10 value="0.00531214065323311" flag="0"/>
			<psa30 value="0.000996196097266902" flag="0"/>
		</comp>
	</station>
	<station code="PASK" name="PASK" netid="HC" source="Seismological Network of Crete (HC)" insttype="" lat="35.4996" lon="24.0121">
		<comp name="--.HNE" depth="0.0">
			<acc value="0.0478651893182576" flag="0"/>
			<vel value="0.0226849684930035" flag="0"/>
			<psa03 value="0.132566573551641" flag="0"/>
			<psa10 value="0.012737841632011" flag="0"/>
			<psa30 value="0.00107338266883171" flag="0"/>
		</comp>
		<comp name="--.HNN" depth="0.0">
			<acc value="0.0437104297999979" flag="0"/>
			<vel value="0.0199615768108659" flag="0"/>
			<psa03 value="0.0817553325561954" flag="0"/>
			<psa10 value="0.0118536746227744" flag="0"/>
			<psa30 value="0.0013054251238419" flag="0"/>
		</comp>
		<comp name="--.HNZ" depth="0.0">
			<acc value="0.0314635207561403" flag="0"/>
			<vel value="0.0102016419400302" flag="0"/>
			<psa03 value="0.0598405318497663" flag="0"/>
			<psa10 value="0.00709221294931548" flag="0"/>
			<psa30 value="0.00103301707814526" flag="0"/>
		</comp>
	</station>
	<station code="POLY" name="POLY" netid="HC" source="Seismological Network of Crete (HC)" insttype="" lat="35.5226" lon="24.0602">
		<comp name="--.HNE" depth="0.0">
			<acc value="0.0349775658016615" flag="0"/>
			<vel value="0.0134717815616237" flag="0"/>
			<psa03 value="0.0505866896616567" flag="0"/>
			<psa10 value="0.00664625309416275" flag="0"/>
			<psa30 value="0.00100382587353911" flag="0"/>
		</comp>
		<comp name="--.HNN" depth="0.0">
			<acc value="0.0367135569666599" flag="0"/>
			<vel value="0.00865489838580484" flag="0"/>
			<psa03 value="0.0436775470689664" flag="0"/>
			<psa10 value="0.00533520327477698" flag="0"/>
			<psa30 value="0.000943461353849166" flag="0"/>
		</comp>
		<comp name="--.HNZ" depth="0.0">
			<acc value="0.0263101210675824" flag="0"/>
			<vel value="0.00674672031982751" flag="0"/>
			<psa03 value="0.0599560863799226" flag="0"/>
			<psa10 value="0.00523420111514919" flag="0"/>
			<psa30 value="0.000743223349484838" flag="0"/>
		</comp>
	</station>
	<station code="SOUD" name="SOUD" netid="HC" source="Seismological Network of Crete (HC)" insttype="" lat="35.4878" lon="24.0678">
		<comp name="--.HNE" depth="0.0">
			<acc value="0.075623804725951" flag="0"/>
			<vel value="0.0253526721599161" flag="0"/>
			<psa03 value="0.101398269220933" flag="0"/>
			<psa10 value="0.0186068669886157" flag="0"/>
			<psa30 value="0.00102140745489892" flag="0"/>
		</comp>
		<comp name="--.HNN" depth="0.0">
			<acc value="0.0627945608903132" flag="0"/>
			<vel value="0.0268035509147182" flag="0"/>
			<psa03 value="0.0897217769607005" flag="0"/>
			<psa10 value="0.0135447385224709" flag="0"/>
			<psa30 value="0.0014525847682792" flag="0"/>
		</comp>
		<comp name="--.HNZ" depth="0.0">
			<acc value="0.00709196388334568" flag="0"/>
			<vel value="0.00388511404955283" flag="0"/>
			<psa03 value="0.00760827614637817" flag="0"/>
			<psa10 value="0.0058522987798337" flag="0"/>
			<psa30 value="0.00262808638949074" flag="0"/>
		</comp>
	</station>
	<station code="ATH5" name="ATH5" netid="HI" source="ITSAK Strong Motion Network" insttype="" lat="37.975421" lon="23.737098">
		<comp name="--.HNE" depth="0.0">
			<acc value="0.00769656010005824" flag="0"/>
			<vel value="0.0021542374109874" flag="0"/>
			<psa03 value="0.0116331143867136" flag="0"/>
			<psa10 value="0.00173557348885063" flag="0"/>
			<psa30 value="0.000158277151751211" flag="0"/>
		</comp>
		<comp name="--.HNN" depth="0.0">
			<acc value="0.00865572365274365" flag="0"/>
			<vel value="0.00446557409569012" flag="0"/>
			<psa03 value="0.0243310675429655" flag="0"/>
			<psa10 value="0.00433009262861822" flag="0"/>
			<psa30 value="0.000166295521470366" flag="0"/>
		</comp>
		<comp name="--.HNZ" depth="0.0">
			<acc value="0.0060238736422147" flag="0"/>
			<vel value="0.00194015867806894" flag="0"/>
			<psa03 value="0.0086172440272253" flag="0"/>
			<psa10 value="0.00246198184421262" flag="0"/>
			<psa30 value="9.15326911958094e-05" flag="0"/>
		</comp>
	</station>
	<station code="CH01" name="CH01" netid="HI" source="ITSAK Strong Motion Network" insttype="" lat="35.517" lon="24.0208">
		<comp name="--.HNE" depth="0.0">
			<acc value="0.0351691140064342" flag="0"/>
			<vel value="0.0116189676714379" flag="0"/>
			<psa03 value="0.0573782281093428" flag="0"/>
			<psa10 value="0.0085028885871326" flag="0"/>
			<psa30 value="0.000629196420757971" flag="0"/>
		</comp>
		<comp name="--.HNN" depth="0.0">
			<acc value="0.0438094229158744" flag="0"/>
			<vel value="0.0156087717051444" flag="0"/>
			<psa03 value="0.0726692931505064" flag="0"/>
			<psa10 value="0.00665600889667656" flag="0"/>
			<psa30 value="0.000510485431735658" flag="0"/>
		</comp>
		<comp name="--.HNZ" depth="0.0">
			<acc value="0.0220968370529497" flag="0"/>
			<vel value="0.00653918475872739" flag="0"/>
			<psa03 value="0.0290760823977812" flag="0"/>
			<psa10 value="0.00799086623067601" flag="0"/>
			<psa30 value="0.000300697602032011" flag="0"/>
		</comp>
	</station>
	<station code="NPS1" name="NPS1" netid="HI" source="ITSAK Strong Motion Network" insttype="" lat="36.51263" lon="23.06248">
		<comp name="--.HNE" depth="0.0">
			<acc value="0.0470265752749423" flag="0"/>
			<vel value="0.0204377211932085" flag="0"/>
			<psa03 value="0.125374055416028" flag="0"/>
			<psa10 value="0.0098439202363849" flag="0"/>
			<psa30 value="0.000942917984523547" flag="0"/>
		</comp>
		<comp name="--.HNN" depth="0.0">
			<acc value="0.0599719879021053" flag="0"/>
			<vel value="0.0265060904067149" flag="0"/>
			<psa03 value="0.113343289686889" flag="0"/>
			<psa10 value="0.0158965793203712" flag="0"/>
			<psa30 value="0.000955720082599755" flag="0"/>
		</comp>
		<comp name="--.HNZ" depth="0.0">
			<acc value="0.0948944207329935" flag="0"/>
			<vel value="0.0134961212695641" flag="0"/>
			<psa03 value="0.0660950347215547" flag="0"/>
			<psa10 value="0.00384951844920402" flag="0"/>
			<psa30 value="0.000419139354466719" flag="0"/>
		</comp>
	</station>
	<station code="PYL1" name="PYL1" netid="HI" source="ITSAK Strong Motion Network" insttype="" lat="36.914188" lon="21.695161">
		<comp name="--.HNE" depth="0.0">
			<acc value="0.0216667268804053" flag="0"/>
			<vel value="0.00721499400449071" flag="0"/>
			<psa03 value="0.0395106694712767" flag="0"/>
			<psa10 value="0.00388970306436261" flag="0"/>
			<psa30 value="0.000405214682025475" flag="0"/>
		</comp>
		<comp name="--.HNN" depth="0.0">
			<acc value="0.0206836059509027" flag="0"/>
			<vel value="0.00399941482396364" flag="0"/>
			<psa03 value="0.0172150154103012" flag="0"/>
			<psa10 value="0.00350267930093782" flag="0"/>
			<psa30 value="0.000384877892104961" flag="0"/>
		</comp>
		<comp name="--.HNZ" depth="0.0">
			<acc value="0.0413840192670273" flag="0"/>
			<vel value="0.00766303985329627" flag="0"/>
			<psa03 value="0.0138689526042109" flag="0"/>
			<psa10 value="0.00398083339817428" flag="0"/>
			<psa30 value="0.000363180465173218" flag="0"/>
		</comp>
	</station>
	<station code="ANKY" name="ANKY" netid="HL" source="National Observatory of Athens Seismic Network" insttype="" lat="35.86704" lon="23.30117">
		<comp name="00.HNE" depth="0.0">
			<acc value="0.0302271187594458" flag="0"/>
			<vel value="0.0136076662176936" flag="0"/>
			<psa03 value="0.0521489910731507" flag="0"/>
			<psa10 value="0.00895684865975122" flag="0"/>
			<psa30 value="0.00059441922110439" flag="0"/>
		</comp>
		<comp name="00.HNN" depth="0.0">
			<acc value="0.0319114463110647" flag="0"/>
			<vel value="0.0136528488886504" flag="0"/>
			<psa03 value="0.0979492594910927" flag="0"/>
			<psa10 value="0.0140717731233901" flag="0"/>
			<psa30 value="0.000682292542280631" flag="0"/>
		</comp>
		<comp name="00.HNZ" depth="0.0">
			<acc value="0.0308262309038811" flag="0"/>
			<vel value="0.0108683949692744" flag="0"/>
			<psa03 value="0.0621418613848196" flag="0"/>
			<psa10 value="0.0081917586013243" flag="0"/>
