<stationlist xmlns:esm="https://esm-db.eu/esmws/shakemap/1/" created="1783994401">
	<station code="KTHA" name="KTHA" netid="GE" source="GEOFON" insttype="" lat="36.2566" lon="23.0621" esm:processing="automatic (Paolucci et al 2011)" esm:quality="good">
		<comp name="--.HNE" depth="0.0">
			<acc value="0.10907852574917" flag="0"/>
			<vel value="0.0301497888587546" flag="0"/>
			<psa03 value="0.123260092459455" flag="0"/>
			<psa10 value="0.0218623207714529" flag="0"/>
			<psa30 value="0.00162849996346351" flag="0"/>
		</comp>
		<comp name="--.HNN" depth="0.0">
			<acc value="0.0893945679215551" flag="0"/>
			<vel value="0.0256075895171373" flag="0"/>
			<psa03 value="0.137579541052596" flag="0"/>
			<psa10 value="0.0180044364555486" flag="0"/>
			<psa30 value="0.00266965622662347" flag="0"/>
		</comp>
		<comp name="--.HNZ" depth="0.0">
			<acc value="0.0614720309585831" flag="0"/>
			<vel value="0.0145182847332013" flag="0"/>
			<psa03 value="0.0747046988198807" flag="0"/>
			<psa10 value="0.00776389885146045" flag="0"/>
			<psa30 value="0.00093307931192639" flag="0"/>
		</comp>
	</station>
	<station code="KIAS" name="KIAS" netid="HA" source="Hellenic Seismological Network, University of Athens, Seismological Laboratory (HA)" insttype="" lat="37.9875" lon="22.7543" esm:processing="manual (Paolucci et al 2011)" esm:quality="good">
		<comp name="--.HNE" depth="0.0">
			<acc value="0.0456126293634398" flag="0"/>
			<vel value="0.0117725266598003" flag="0"/>
			<psa03 value="0.0444298859702283" flag="0"/>
			<psa10 value="0.013983226945159" flag="0"/>
			<psa30 value="0.00100970876325017" flag="0"/>
		</comp>
		<comp name="--.HNN" depth="0.0">
			<acc value="0.0499941610457542" flag="0"/>
			<vel value="0.0115845498009866" flag="0"/>
			<psa03 value="0.0355170611643268" flag="0"/>
			<psa10 value="0.0133814020772151" flag="0"/>
			<psa30 value="0.000892646841805719" flag="0"/>
		</comp>
		<comp name="--.HNZ" depth="0.0">
			<acc value="0.0216313707300581" flag="0"/>
			<vel value="0.00585303980029006" flag="0"/>
			<psa03 value="0.025740522891647" flag="0"/>
			<psa10 value="0.00625988281151435" flag="0"/>
			<psa30 value="0.000420345137469077" flag="0"/>
		</comp>
	</station>
	<station code="LTRS" name="LTRS" netid="HA" source="Hellenic Seismological Network, University of Athens, Seismological Laboratory (HA)" insttype="" lat="37.97528" lon="22.9765" esm:processing="manual (Paolucci et al 2011)" esm:quality="good">
		<comp name="--.HNE" depth="0.0">
			<acc value="0.0241065900507733" flag="0"/>
			<vel value="0.013482248393233" flag="0"/>
			<psa03 value="0.0493730050942773" flag="0"/>
			<psa10 value="0.0205669193324686" flag="0"/>
			<psa30 value="0.00138437649981561" flag="0"/>
		</comp>
		<comp name="--.HNN" depth="0.0">
			<acc value="0.0187759940519001" flag="0"/>
			<vel value="0.013468379179455" flag="0"/>
			<psa03 value="0.0421977328927084" flag="0"/>
			<psa10 value="0.0223418125354325" flag="0"/>
			<psa30 value="0.00109721310164981" flag="0"/>
		</comp>
		<comp name="--.HNZ" depth="0.0">
			<acc value="0.0192656273338078" flag="0"/>
			<vel value="0.00923071612145737" flag="0"/>
			<psa03 value="0.0319094159255351" flag="0"/>
			<psa10 value="0.0140398303823589" flag="0"/>
			<psa30 value="0.000611046468413005" flag="0"/>
		</comp>
	</station>
	<station code="ABEA" name="ABEA" netid="HC" source="Seismological Network of Crete (HC)" insttype="" lat="35.5163" lon="24.0113" esm:processing="manual (Paolucci et al 2011)" esm:quality="good">
		<comp name="--.HNE" depth="0.0">
			<acc value="0.0522536217927259" flag="0"/>
			<vel value="0.0146706745353473" flag="0"/>
			<psa03 value="0.0736554157681459" flag="0"/>
			<psa10 value="0.0103265931486158" flag="0"/>
			<psa30 value="0.00071229213377478" flag="0"/>
		</comp>
		<comp name="--.HNN" depth="0.0">
			<acc value="0.0613680224895252" flag="0"/>
			<vel value="0.0198625201237654" flag="0"/>
			<psa03 value="0.104281887329913" flag="0"/>
			<psa10 value="0.0110839755089801" flag="0"/>
			<psa30 value="0.000474222352403484" flag="0"/>
		</comp>
		<comp name="--.HNZ" depth="0.0">
			<acc value="0.0404575777084331" flag="0"/>
			<vel value="0.0123288655078246" flag="0"/>
			<psa03 value="0.0364551675801062" flag="0"/>
			<psa10 value="0.00682885128413331" flag="0"/>
			<psa30 value="0.000446787409973192" flag="0"/>
		</comp>
	</station>
	<station code="ATEI" name="ATEI" netid="HC" source="Seismological Network of Crete (HC)" insttype="" lat="35.5193" lon="24.0432" esm:processing="manual (Paolucci et al 2011)" esm:quality="good">
		<comp name="--.HNE" depth="0.0">
			<acc value="0.027235871858032" flag="0"/>
			<vel value="0.0106587235327965" flag="0"/>
			<psa03 value="0.0683807069695749" flag="0"/>
			<psa10 value="0.0102595143299733" flag="0"/>
			<psa30 value="0.000517326353665357" flag="0"/>
		</comp>
		<comp name="--.HNN" depth="0.0">
			<acc value="0.0401883560194844" flag="0"/>
			<vel value="0.0123221363023179" flag="0"/>
			<psa03 value="0.0770605632174528" flag="0"/>
			<psa10 value="0.00746522250310342" flag="0"/>
			<psa30 value="0.00042414070140656" flag="0"/>
		</comp>
		<comp name="--.HNZ" depth="0.0">
			<acc value="0.0241556420821045" flag="0"/>
			<vel value="0.00712899797774185" flag="0"/>
			<psa03 value="0.0312974821587596" flag="0"/>
			<psa10 value="0.00480181575297754" flag="0"/>
			<psa30 value="0.00033949261992826" flag="0"/>
		</comp>
	</station>
	<station code="DEYA" name="DEYA" netid="HC" source="Seismological Network of Crete (HC)" insttype="" lat="35.4825" lon="24.014" esm:processing="manual (Paolucci et al 2011)" esm:quality="good">
		<comp name="--.HNE" depth="0.0">
			<acc value="0.0561515624129143" flag="0"/>
			<vel value="0.0193483702288744" flag="0"/>
			<psa03 value="0.0998528960143083" flag="0"/>
			<psa10 value="0.0226454120224086" flag="0"/>
			<psa30 value="0.00107407833991872" flag="0"/>
		</comp>
		<comp name="--.HNN" depth="0.0">
			<acc value="0.0645341219232959" flag="0"/>
			<vel value="0.0257671195230257" flag="0"/>
			<psa03 value="0.150839659053796" flag="0"/>
			<psa10 value="0.0145848164850136" flag="0"/>
			<psa30 value="0.000648408683059694" flag="0"/>
		</comp>
		<comp name="--.HNZ" depth="0.0">
			<acc value="0.0396955429782781" flag="0"/>
			<vel value="0.0129113432679098" flag="0"/>
			<psa03 value="0.059496456973281" flag="0"/>
			<psa10 value="0.00969539539736254" flag="0"/>
			<psa30 value="0.000746342149837902" flag="0"/>
		</comp>
	</station>
	<station code="NERO" name="NERO" netid="HC" source="Seismological Network of Crete (HC)" insttype="" lat="35.474" lon="24.0423" esm:processing="manual (Paolucci et al 2011)" esm:quality="good">
		<comp name="--.HNE" depth="0.0">
			<acc value="0.0221824610470926" flag="0"/>
			<vel value="0.00639944657742852" flag="0"/>
			<psa03 value="0.0380938698860916" flag="0"/>
			<psa10 value="0.005349038878824" flag="0"/>
			<psa30 value="0.000306686097698835" flag="0"/>
		</comp>
		<comp name="--.HNN" depth="0.0">
			<acc value="0.0200041869410964" flag="0"/>
			<vel value="0.00822531776869128" flag="0"/>
			<psa03 value="0.0455326413140244" flag="0"/>
			<psa10 value="0.00438360398600046" flag="0"/>
			<psa30 value="0.000348110638746378" flag="0"/>
		</comp>
		<comp name="--.HNZ" depth="0.0">
			<acc value="0.0191689727489232" flag="0"/>
			<vel value="0.00815486122660506" flag="0"/>
			<psa03 value="0.0329923157873364" flag="0"/>
			<psa10 value="0.00515698912522035" flag="0"/>
			<psa30 value="0.00026474613188193" flag="0"/>
		</comp>
	</station>
	<station code="PASK" name="PASK" netid="HC" source="Seismological Network of Crete (HC)" insttype="" lat="35.4996" lon="24.0121" esm:processing="manual (Paolucci et al 2011)" esm:quality="good">
		<comp name="--.HNE" depth="0.0">
			<acc value="0.0478617737998434" flag="0"/>
			<vel value="0.0227765623923077" flag="0"/>
			<psa03 value="0.132543071994699" flag="0"/>
			<psa10 value="0.0126247547655441" flag="0"/>
			<psa30 value="0.000760520901610622" flag="0"/>
		</comp>
		<comp name="--.HNN" depth="0.0">
			<acc value="0.043703765265023" flag="0"/>
			<vel value="0.0199646118554159" flag="0"/>
			<psa03 value="0.0815953323736539" flag="0"/>
			<psa10 value="0.011765996627032" flag="0"/>
			<psa30 value="0.000831511333545001" flag="0"/>
		</comp>
		<comp name="--.HNZ" depth="0.0">
			<acc value="0.0314728994077906" flag="0"/>
			<vel value="0.0101619041427453" flag="0"/>
			<psa03 value="0.0599168285708363" flag="0"/>
			<psa10 value="0.00706571041238811" flag="0"/>
			<psa30 value="0.000498420257479271" flag="0"/>
		</comp>
	</station>
	<station code="POLY" name="POLY" netid="HC" source="Seismological Network of Crete (HC)" insttype="" lat="35.5226" lon="24.0602" esm:processing="manual (Paolucci et al 2011)" esm:quality="good">
		<comp name="--.HNE" depth="0.0">
			<acc value="0.0349775658016615" flag="0"/>
			<vel value="0.0134717815616237" flag="0"/>
			<psa03 value="0.0506651792361393" flag="0"/>
			<psa10 value="0.00615621281888612" flag="0"/>
			<psa30 value="0.000332552837285052" flag="0"/>
		</comp>
		<comp name="--.HNN" depth="0.0">
			<acc value="0.0367135569666599" flag="0"/>
			<vel value="0.00865489838580484" flag="0"/>
			<psa03 value="0.0435701857901439" flag="0"/>
			<psa10 value="0.00509452826874515" flag="0"/>
			<psa30 value="0.000333021982946983" flag="0"/>
		</comp>
		<comp name="--.HNZ" depth="0.0">
			<acc value="0.0263101210675824" flag="0"/>
			<vel value="0.00674672031982751" flag="0"/>
			<psa03 value="0.0600056729980102" flag="0"/>
			<psa10 value="0.00502695535487124" flag="0"/>
			<psa30 value="0.000231607035537769" flag="0"/>
		</comp>
	</station>
	<station code="ATH5" name="ATH5" netid="HI" source="ITSAK Strong Motion Network" insttype="" lat="37.975421" lon="23.737098" esm:processing="manual (Paolucci et al 2011)" esm:quality="bad">
		<comp name="--.HNE" depth="0.0">
			<acc value="0.00769656010005824" flag="0"/>
			<vel value="0.0021542374109874" flag="0"/>
			<psa03 value="0.0116331143867136" flag="0"/>
			<psa10 value="0.00173557348885063" flag="0"/>
			<psa30 value="0.000158277151751211" flag="0"/>
		</comp>
		<comp name="--.HNN" depth="0.0">
			<acc value="0.00865572365274365" flag="0"/>
			<vel value="0.00446557409569012" flag="0"/>
			<psa03 value="0.0243310675429655" flag="0"/>
			<psa10 value="0.00433009262861822" flag="0"/>
			<psa30 value="0.000166295521470366" flag="0"/>
		</comp>
		<comp name="--.HNZ" depth="0.0">
			<acc value="0.0060238736422147" flag="0"/>
			<vel value="0.00194015867806894" flag="0"/>
			<psa03 value="0.0086172440272253" flag="0"/>
			<psa10 value="0.00246198184421262" flag="0"/>
			<psa30 value="9.15326911958094e-05" flag="0"/>
		</comp>
	</station>
	<station code="CH01" name="CH01" netid="HI" source="ITSAK Strong Motion Network" insttype="" lat="35.517" lon="24.0208" esm:processing="manual (Paolucci et al 2011)" esm:quality="best">
		<comp name="--.HNE" depth="0.0">
			<acc value="0.0351691140064342" flag="0"/>
			<vel value="0.0116189676714379" flag="0"/>
			<psa03 value="0.0573782281093428" flag="0"/>
			<psa10 value="0.0085028885871326" flag="0"/>
			<psa30 value="0.000629196420757971" flag="0"/>
		</comp>
		<comp name="--.HNN" depth="0.0">
			<acc value="0.0438094229158744" flag="0"/>
			<vel value="0.0156087717051444" flag="0"/>
			<psa03 value="0.0726692931505064" flag="0"/>
			<psa10 value="0.00665600889667656" flag="0"/>
			<psa30 value="0.000510485431735658" flag="0"/>
		</comp>
		<comp name="--.HNZ" depth="0.0">
			<acc value="0.0220968370529497" flag="0"/>
			<vel value="0.00653918475872739" flag="0"/>
			<psa03 value="0.0290760823977812" flag="0"/>
			<psa10 value="0.00799086623067601" flag="0"/>
			<psa30 value="0.000300697602032011" flag="0"/>
		</comp>
	</station>
	<station code="NPS1" name="NPS1" netid="HI" source="ITSAK Strong Motion Network" insttype="" lat="36.51263" lon="23.06248" esm:processing="manual (Paolucci et al 2011)" esm:quality="best">
		<comp name="--.HNE" depth="0.0">
			<acc value="0.0470265752749423" flag="0"/>
			<vel value="0.0204377211932085" flag="0"/>
			<psa03 value="0.125374055416028" flag="0"/>
			<psa10 value="0.0098439202363849" flag="0"/>
			<psa30 value="0.000942917984523547" flag="0"/>
		</comp>
		<comp name="--.HNN" depth="0.0">
			<acc value="0.0599719879021053" flag="0"/>
			<vel value="0.0265060904067149" flag="0"/>
			<psa03 value="0.113343289686889" flag="0"/>
			<psa10 value="0.0158965793203712" flag="0"/>
			<psa30 value="0.000955720082599755" flag="0"/>
		</comp>
		<comp name="--.HNZ" depth="0.0">
			<acc value="0.0948944207329935" flag="0"/>
			<vel value="0.0134961212695641" flag="0"/>
			<psa03 value="0.0660950347215547" flag="0"/>
			<psa10 value="0.00384951844920402" flag="0"/>
			<psa30 value="0.000419139354466719" flag="0"/>
		</comp>
	</station>
	<station code="PYL1" name="PYL1" netid="HI" source="ITSAK Strong Motion Network" insttype="" lat="36.914188" lon="21.695161" esm:processing="manual (Paolucci et al 2011)" esm:quality="best">
		<comp name="--.HNE" depth="0.0">
			<acc value="0.0216667268804053" flag="0"/>
			<vel value="0.00721499400449071" flag="0"/>
			<psa03 value="0.0395106694712767" flag="0"/>
			<psa10 value="0.00388970306436261" flag="0"/>
			<psa30 value="0.000405214682025475" flag="0"/>
		</comp>
		<comp name="--.HNN" depth="0.0">
			<acc value="0.0206836059509027" flag="0"/>
			<vel value="0.00399941482396364" flag="0"/>
			<psa03 value="0.0172150154103012" flag="0"/>
			<psa10 value="0.00350267930093782" flag="0"/>
			<psa30 value="0.000384877892104961" flag="0"/>
		</comp>
		<comp name="--.HNZ" depth="0.0">
			<acc value="0.0413840192670273" flag="0"/>
			<vel value="0.00766303985329627" flag="0"/>
			<psa03 value="0.0138689526042109" flag="0"/>
			<psa10 value="0.00398083339817428" flag="0"/>
			<psa30 value="0.000363180465173218" flag="0"/>
		</comp>
	</station>
	<station code="ANKY" name="ANKY" netid="HL" source="National Observatory of Athens Seismic Network" insttype="" lat="35.86704" lon="23.30117" esm:processing="manual (Paolucci et al 2011)" esm:quality="best">
		<comp name="00.HNE" depth="0.0">
			<acc value="0.0302271187594458" flag="0"/>
			<vel value="0.0136076662176936" flag="0"/>
			<psa03 value="0.0521489910731507" flag="0"/>
			<psa10 value="0.00895684865975122" flag="0"/>
			<psa30 value="0.00059441922110439" flag="0"/>
		</comp>
		<comp name="00.HNN" depth="0.0">
			<acc value="0.0319114463110647" flag="0"/>
			<vel value="0.0136528488886504" flag="0"/>
			<psa03 value="0.0979492594910927" flag="0"/>
			<psa10 value="0.0140717731233901" flag="0"/>
			<psa30 value="0.000682292542280631" flag="0"/>
		</comp>
		<comp name="00.HNZ" depth="0.0">
			<acc value="0.0308262309038811" flag="0"/>
			<vel value="0.0108683949692744" flag="0"/>
			<psa03 value="0.0621418613848196" flag="0"/>
			<psa10 value="0.0081917586013243" flag="0"/>
			<psa30 value="0.000408501696649119" flag="0"/>
		</comp>
	</station>
	<station code="IMMV" name="IMMV" netid="HL" source="National Observatory of Athens Seismic Network" insttype="" lat="35.4606" lon="23.9811" esm:processing="manual (Paolucci et al 2011)" esm:quality="best">
		<comp name="--.HNE" depth="0.0">
			<acc value="0.0210026768279389" flag="0"/>
			<vel value="0.00827510238028985" flag="0"/>
			<psa03 value="0.048763428254459" flag="0"/>
			<psa10 value="0.0121187393695053" flag="0"/>
			<psa30 value="0.000507441219656749" flag="0"/>
		</comp>
		<comp name="--.HNN" depth="0.0">
			<acc value="0.0197795035323899" flag="0"/>
			<vel value="0.0077517168413978" flag="0"/>
			<psa03 value="0.0737015959106072" flag="0"/>
			<psa10 value="0.00717625367284886" flag="0"/>
			<psa30 value="0.000332771992428184" flag="0"/>
		</comp>
		<comp name="--.HNZ" depth="0.0">
			<acc value="0.0207892594605071" flag="0"/>
			<vel value="0.00715880246413348" flag="0"/>
			<psa03 value="0.0345007490469846" flag="0"/>
			<psa10 value="0.00284677983519105" flag="0"/>
			<psa30 value="0.000208289800781128" flag="0"/>
		</comp>
	</station>
	<station code="ITM" name="ITM" netid="HL" source="National Observatory of Athens Seismic Network" insttype="" lat="37.17872" lon="21.92522" esm:processing="manual (Paolucci et al 2011)" esm:quality="best">
		<comp name="--.HNE" depth="0.0">
			<acc value="0.0209599176094486" flag="0"/>
			<vel value="0.00946655175745082" flag="0"/>
			<psa03 value="0.0555871563345999" flag="0"/>
			<psa10 value="0.00378975355257179" flag="0"/>
			<psa30 value="0.000332739724665546" flag="0"/>
		</comp>
		<comp name="--.HNN" depth="0.0">
			<acc value="0.0138104359495869" flag="0"/>
			<vel value="0.00566430336756257" flag="0"/>
			<psa03 value="0.0386102061741752" flag="0"/>
			<psa10 value="0.00239092166807524" flag="0"/>
			<psa30 value="0.00040034193735531" flag="0"/>
		</comp>
		<comp name="--.HNZ" depth="0.0">
			<acc value="0.00950029565818323" flag="0"/>
			<vel value="0.00324074581270434" flag="0"/>
			<psa03 value="0.0163688825352337" flag="0"/>
			<psa10 value="0.00310627124397461" flag="0"/>
			<psa30 value="0.000216796418990642" flag="0"/>
		</comp>
	</station>
	<station code="MNVA" name="MNVA" netid="HL" source="National Observatory of Athens Seismic Network" insttype="" lat="36.68709" lon="23.03734" esm:processing="manual (Paolucci et al 2011)" esm:quality="best">
		<comp name="00.HNE" depth="0.0">
			<acc value="0.0389458018229821" flag="0"/>
			<vel value="0.0144655638072131" flag="0"/>
			<psa03 value="0.063209473775826" flag="0"/>
			<psa10 value="0.0104489084389016" flag="0"/>
			<psa30 value="0.000516091011413364" flag="0"/>
		</comp>
		<comp name="00.HNN" depth="0.0">
			<acc value="0.0554736693228106" flag="0"/>
			<vel value="0.0185447944993424" flag="0"/>
			<psa03 value="0.0682363328223269" flag="0"/>
			<psa10 value="0.00890149780552633" flag="0"/>
			<psa30 value="0.000760666692517744" flag="0"/>
		</comp>
		<comp name="00.HNZ" depth="0.0">
			<acc value="0.0317487747836024" flag="0"/>
			<vel value="0.0100267635799679" flag="0"/>
			<psa03 value="0.0554837067730978" flag="0"/>
			<psa10 value="0.00680786583144268" flag="0"/>
			<psa30 value="0.000307844664031539" flag="0"/>
		</comp>
	</station>
	<station code="GUR" name="GUR" netid="HP" source="University of Patras, Seismological Laboratory (PSLNET)" insttype="" lat="37.9363" lon="22.3423" esm:processing="manual (Paolucci et al 2011)" esm:quality="good">
		<comp name="--.HNE" depth="0.0">
			<acc value="0.0241899576593736" flag="0"/>
			<vel value="0.0103002053341821" flag="0"/>
			<psa03 value="0.0511134172631198" flag="0"/>
			<psa10 value="0.00495514794172667" flag="0"/>
			<psa30 value="0.000339290262772946" flag="0"/>
		</comp>
		<comp name="--.HNN" depth="0.0">
			<acc value="0.0279461162453327" flag="0"/>
			<vel value="0.0106141328129935" flag="0"/>
			<psa03 value="0.0569593618196324" flag="0"/>
			<psa10 value="0.00621598474721518" flag="0"/>
			<psa30 value="0.000364929357070693" flag="0"/>
		</comp>
		<comp name="--.HNZ" depth="0.0">
			<acc value="0.0126145922534237" flag="0"/>
			<vel value="0.00442184020592463" flag="0"/>
			<psa03 value="0.0244805722386114" flag="0"/>
			<psa10 value="0.00239022459064952" flag="0"/>
			<psa30 value="0.000165224565108134" flag="0"/>
		</comp>
	</station>
	<station code="LTK" name="LTK" netid="HP" source="University of Patras, Seismological Laboratory (PSLNET)" insttype="" lat="38.0228" lon="22.9673" esm:processing="manual (Paolucci et al 2011)" esm:quality="best">
		<comp name="--.HNE" depth="0.0">
			<acc value="0.00992340213063129" flag="0"/>
			<vel value="0.00475530041332879" flag="0"/>
			<psa03 value="0.0238211639727009" flag="0"/>
			<psa10 value="0.00640032492760561" flag="0"/>
			<psa30 value="0.000401042947335534" flag="0"/>
		</comp>
		<comp name="--.HNN" depth="0.0">
			<acc value="0.0109107093060718" flag="0"/>
			<vel value="0.00547667399263532" flag="0"/>
			<psa03 value="0.0141358023129442" flag="0"/>
			<psa10 value="0.00705468749467589" flag="0"/>
