<?xml version="1.0" encoding="UTF-8" standalone="yes"?>
<!DOCTYPE earthquake SYSTEM "stationlist.dtd">
<stationlist created="" xmlns="ch.ethz.sed.shakemap.usgs.xml">
  <station code="KTHA" name="KTHA" netid="GE" insttype="STS-2/N" lat="36.2566" lon="23.0621">
    <comp name="--.HHN">
      <acc value="0.0995933282" flag="0"/>
      <vel value="0.0260852723" flag="0"/>
      <psa03 value="0.1422726928" flag="0"/>
      <psa10 value="0.0178749075" flag="0"/>
      <psa30 value="0.0011251959" flag="0"/>
    </comp>
    <comp name="--.HHZ">
      <acc value="0.0655565637" flag="0"/>
      <vel value="0.0146853351" flag="0"/>
      <psa03 value="0.0791110627" flag="0"/>
      <psa10 value="0.0060986809" flag="0"/>
      <psa30 value="0.0003398041" flag="0"/>
    </comp>
    <comp name="--.HHE">
      <acc value="0.1180773355" flag="0"/>
      <vel value="0.0325085487" flag="0"/>
      <psa03 value="0.1277067041" flag="0"/>
      <psa10 value="0.0218066599" flag="0"/>
      <psa30 value="0.0015901121" flag="0"/>
    </comp>
  </station>
  <station code="KTHR" name="KTHR" netid="HC" insttype="120s" lat="36.2447" lon="22.9939">
    <comp name="--.HHE">
      <acc value="0.2336060049" flag="0"/>
      <vel value="0.1014921129" flag="0"/>
      <psa03 value="0.9132072316" flag="0"/>
      <psa10 value="0.0400624633" flag="0"/>
      <psa30 value="0.0025440855" flag="0"/>
    </comp>
    <comp name="--.HHZ">
      <acc value="0.2008208705" flag="0"/>
      <vel value="0.0478957591" flag="0"/>
      <psa03 value="0.2325310141" flag="0"/>
      <psa10 value="0.0109594928" flag="0"/>
      <psa30 value="0.0009419120" flag="0"/>
    </comp>
    <comp name="--.HHN">
      <acc value="0.2890937426" flag="0"/>
      <vel value="0.1066173428" flag="0"/>
      <psa03 value="0.6567378229" flag="0"/>
      <psa10 value="0.0297218382" flag="0"/>
      <psa30 value="0.0024671865" flag="0"/>
    </comp>
  </station>
  <station code="KTRS" name="KTRS" netid="HC" insttype="60" lat="36.9261" lon="22.136">
    <comp name="--.HHE">
      <acc value="0.0207896581" flag="0"/>
      <vel value="0.0072432362" flag="0"/>
      <psa03 value="0.0327088601" flag="0"/>
      <psa10 value="0.0061408583" flag="0"/>
      <psa30 value="0.0006145837" flag="0"/>
    </comp>
    <comp name="--.HHN">
      <acc value="0.0247984449" flag="0"/>
      <vel value="0.0172188988" flag="0"/>
      <psa03 value="0.0550110295" flag="0"/>
      <psa10 value="0.0184166340" flag="0"/>
      <psa30 value="0.0010150693" flag="0"/>
    </comp>
    <comp name="--.HHZ">
      <acc value="0.0226324134" flag="0"/>
      <vel value="0.0102818129" flag="0"/>
      <psa03 value="0.0367544782" flag="0"/>
      <psa10 value="0.0076365948" flag="0"/>
      <psa30 value="0.0006189217" flag="0"/>
    </comp>
  </station>
  <station code="RODP" name="RODP" netid="HC" insttype="120" lat="35.5604" lon="23.7577">
    <comp name="--.HHZ">
      <acc value="0.0129798332" flag="0"/>
      <vel value="0.0045500201" flag="0"/>
      <psa03 value="0.0307292170" flag="0"/>
      <psa10 value="0.0046466361" flag="0"/>
      <psa30 value="0.0002207235" flag="0"/>
    </comp>
    <comp name="--.HHE">
      <acc value="0.0220188618" flag="0"/>
      <vel value="0.0091773070" flag="0"/>
      <psa03 value="0.0869546254" flag="0"/>
      <psa10 value="0.0053643817" flag="0"/>
      <psa30 value="0.0004492842" flag="0"/>
    </comp>
    <comp name="--.HHN">
      <acc value="0.0199431261" flag="0"/>
      <vel value="0.0076183614" flag="0"/>
      <psa03 value="0.0469765001" flag="0"/>
      <psa10 value="0.0097320387" flag="0"/>
      <psa30 value="0.0004138025" flag="0"/>
    </comp>
  </station>
  <station code="NPS1" name="NPS1" netid="HI" insttype="CMG-5TD,ACCELEROMETER,GURALP" lat="36.5126" lon="23.0625">
    <comp name="--.HNN">
      <acc value="0.0605251546" flag="0"/>
      <vel value="0.0263573735" flag="0"/>
      <psa03 value="0.1121133436" flag="0"/>
      <psa10 value="0.0158562813" flag="0"/>
      <psa30 value="0.0009474839" flag="0"/>
    </comp>
    <comp name="--.HNE">
      <acc value="0.0474542317" flag="0"/>
      <vel value="0.0201224237" flag="0"/>
      <psa03 value="0.1253911484" flag="0"/>
      <psa10 value="0.0098238595" flag="0"/>
      <psa30 value="0.0009178213" flag="0"/>
    </comp>
    <comp name="--.HNZ">
      <acc value="0.0954037525" flag="0"/>
      <vel value="0.0129620405" flag="0"/>
      <psa03 value="0.0640910457" flag="0"/>
      <psa10 value="0.0038283354" flag="0"/>
      <psa30 value="0.0004073611" flag="0"/>
    </comp>
  </station>
  <station code="ANKY" name="ANKY" netid="HL" insttype="60" lat="35.867" lon="23.3012">
    <comp name="--.HHN">
      <acc value="0.0269778936" flag="0"/>
      <vel value="0.0110473136" flag="0"/>
      <psa03 value="0.0881891663" flag="0"/>
      <psa10 value="0.0135699910" flag="0"/>
      <psa30 value="0.0006156219" flag="0"/>
    </comp>
    <comp name="--.HHZ">
      <acc value="0.0272171940" flag="0"/>
      <vel value="0.0111854087" flag="0"/>
      <psa03 value="0.0641933729" flag="0"/>
      <psa10 value="0.0082461200" flag="0"/>
      <psa30 value="0.0004303531" flag="0"/>
    </comp>
    <comp name="--.HHE">
      <acc value="0.0286453042" flag="0"/>
      <vel value="0.0143356277" flag="0"/>
      <psa03 value="0.0644349966" flag="0"/>
      <psa10 value="0.0088948244" flag="0"/>
      <psa30 value="0.0006297044" flag="0"/>
    </comp>
  </station>
  <station code="KTHA" name="KTHA" netid="HL" insttype="120" lat="36.2566" lon="23.0621">
    <comp name="--.HHE">
      <acc value="0.1115318649" flag="0"/>
      <vel value="0.0317347523" flag="0"/>
      <psa03 value="0.1238899937" flag="0"/>
      <psa10 value="0.0215547768" flag="0"/>
      <psa30 value="0.0015747857" flag="0"/>
    </comp>
    <comp name="--.HHN">
      <acc value="0.0905845861" flag="0"/>
      <vel value="0.0252080668" flag="0"/>
      <psa03 value="0.1384490664" flag="0"/>
      <psa10 value="0.0177184917" flag="0"/>
      <psa30 value="0.0011137954" flag="0"/>
    </comp>
    <comp name="--.HHZ">
      <acc value="0.0616279425" flag="0"/>
      <vel value="0.0142754404" flag="0"/>
      <psa03 value="0.0774400265" flag="0"/>
      <psa10 value="0.0060416712" flag="0"/>
      <psa30 value="0.0003380800" flag="0"/>
    </comp>
  </station>
  <station code="MHLO" name="MHLO" netid="HL" insttype="20" lat="36.6898" lon="24.4017">
    <comp name="--.HHN">
      <acc value="0.0420670892" flag="0"/>
      <vel value="0.0167663352" flag="0"/>
      <psa03 value="0.0869074034" flag="0"/>
      <psa10 value="0.0205926018" flag="0"/>
      <psa30 value="0.0008061483" flag="0"/>
    </comp>
    <comp name="--.HHZ">
      <acc value="0.0165897990" flag="0"/>
      <vel value="0.0074651487" flag="0"/>
      <psa03 value="0.0322088885" flag="0"/>
      <psa10 value="0.0086685579" flag="0"/>
      <psa30 value="0.0003230215" flag="0"/>
    </comp>
    <comp name="--.HHE">
      <acc value="0.0330412114" flag="0"/>
      <vel value="0.0127083597" flag="0"/>
      <psa03 value="0.0707792750" flag="0"/>
      <psa10 value="0.0125971994" flag="0"/>
      <psa30 value="0.0004985858" flag="0"/>
    </comp>
  </station>
  <station code="MNVA" name="MNVA" netid="HL" insttype="CMG-5" lat="36.6871" lon="23.0373">
    <comp name="00.HNE">
      <acc value="0.0391008573" flag="0"/>
      <vel value="0.0144458282" flag="0"/>
      <psa03 value="0.0629621163" flag="0"/>
      <psa10 value="0.0104667611" flag="0"/>
      <psa30 value="0.0005577707" flag="0"/>
    </comp>
    <comp name="00.HNZ">
      <acc value="0.0317323085" flag="0"/>
      <vel value="0.0100030517" flag="0"/>
      <psa03 value="0.0553893119" flag="0"/>
      <psa10 value="0.0068196218" flag="0"/>
      <psa30 value="0.0003114166" flag="0"/>
    </comp>
    <comp name="00.HNN">
      <acc value="0.0557054225" flag="0"/>
      <vel value="0.0184652168" flag="0"/>
      <psa03 value="0.0680591020" flag="0"/>
      <psa10 value="0.0089244818" flag="0"/>
      <psa30 value="0.0007998409" flag="0"/>
    </comp>
  </station>
  <station code="VLI" name="VLI" netid="HL" insttype="60" lat="36.718" lon="22.9469">
    <comp name="--.HHN">
      <acc value="0.0784178601" flag="0"/>
      <vel value="0.0470313033" flag="0"/>
      <psa03 value="0.1702640268" flag="0"/>
      <psa10 value="0.0322450444" flag="0"/>
      <psa30 value="0.0023306399" flag="0"/>
    </comp>
    <comp name="--.HHZ">
      <acc value="0.0709134110" flag="0"/>
      <vel value="0.0278321426" flag="0"/>
      <psa03 value="0.0906363870" flag="0"/>
      <psa10 value="0.0112376084" flag="0"/>
      <psa30 value="0.0008619016" flag="0"/>
    </comp>
    <comp name="--.HHE">
      <acc value="0.1251362641" flag="0"/>
      <vel value="0.0389654262" flag="0"/>
      <psa03 value="0.1722403021" flag="0"/>
      <psa10 value="0.0421076934" flag="0"/>
      <psa30 value="0.0018632030" flag="0"/>
    </comp>
  </station>
  <station code="VLX" name="VLX" netid="HP" insttype="40," lat="37.3703" lon="22.3793">
    <comp name="--.HHZ">
      <acc value="0.0096257433" flag="0"/>
      <vel value="0.0051678961" flag="0"/>
      <psa03 value="0.0151267438" flag="0"/>
      <psa10 value="0.0031748565" flag="0"/>
      <psa30 value="0.0003494632" flag="0"/>
    </comp>
    <comp name="--.HHE">
      <acc value="0.0091245239" flag="0"/>
      <vel value="0.0070218399" flag="0"/>
      <psa03 value="0.0228232044" flag="0"/>
      <psa10 value="0.0052811779" flag="0"/>
      <psa30 value="0.0008084962" flag="0"/>
    </comp>
    <comp name="--.HHN">
      <acc value="0.0082632692" flag="0"/>
      <vel value="0.0045414303" flag="0"/>
      <psa03 value="0.0169681580" flag="0"/>
      <psa10 value="0.0067266971" flag="0"/>
      <psa30 value="0.0005815467" flag="0"/>
    </comp>
  </station>
</stationlist>
