<?xml version="1.0" encoding="UTF-8" standalone="yes"?>
<!DOCTYPE earthquake SYSTEM "stationlist.dtd">
<stationlist created="" xmlns="ch.ethz.sed.shakemap.usgs.xml">
  <station code="GVD" name="GVD" netid="GE" insttype="STS-2/N" lat="34.8391" lon="24.0874">
    <comp name="--.HHN">
      <acc value="0.0232954129" flag="0"/>
      <vel value="0.0087921971" flag="0"/>
      <psa03 value="0.0657265707" flag="0"/>
      <psa10 value="0.0062468186" flag="0"/>
      <psa30 value="0.0008336764" flag="0"/>
    </comp>
    <comp name="--.HHZ">
      <acc value="0.0148264186" flag="0"/>
      <vel value="0.0056871762" flag="0"/>
      <psa03 value="0.0316930296" flag="0"/>
      <psa10 value="0.0033487146" flag="0"/>
      <psa30 value="0.0003451715" flag="0"/>
    </comp>
    <comp name="--.HHE">
      <acc value="0.0191384818" flag="0"/>
      <vel value="0.0081760522" flag="0"/>
      <psa03 value="0.0433000713" flag="0"/>
      <psa10 value="0.0074311002" flag="0"/>
      <psa30 value="0.0005766547" flag="0"/>
    </comp>
  </station>
  <station code="GVDS" name="GVDS" netid="HC" insttype="60" lat="34.8389" lon="24.0585">
    <comp name="--.HHE">
      <acc value="0.0210153256" flag="0"/>
      <vel value="0.0085011252" flag="0"/>
      <psa03 value="0.0638895516" flag="0"/>
      <psa10 value="0.0060446130" flag="0"/>
      <psa30 value="0.0004956206" flag="0"/>
    </comp>
  </station>
  <station code="GVD" name="GVD" netid="HL" insttype="120" lat="34.8391" lon="24.0874">
    <comp name="--.HHE">
      <acc value="0.0185211943" flag="0"/>
      <vel value="0.0079215109" flag="0"/>
      <psa03 value="0.0420835127" flag="0"/>
      <psa10 value="0.0073625917" flag="0"/>
      <psa30 value="0.0005759598" flag="0"/>
    </comp>
    <comp name="--.HHZ">
      <acc value="0.0144299062" flag="0"/>
      <vel value="0.0055417084" flag="0"/>
      <psa03 value="0.0307600758" flag="0"/>
      <psa10 value="0.0033287924" flag="0"/>
      <psa30 value="0.0003445994" flag="0"/>
    </comp>
    <comp name="--.HHN">
      <acc value="0.0225386288" flag="0"/>
      <vel value="0.0085603805" flag="0"/>
      <psa03 value="0.0638209591" flag="0"/>
      <psa10 value="0.0062082745" flag="0"/>
      <psa30 value="0.0008317075" flag="0"/>
    </comp>
  </station>
  <station code="IDI" name="IDI" netid="HL" insttype="120" lat="35.288" lon="24.89">
    <comp name="--.HHN">
      <acc value="0.0053397427" flag="0"/>
      <vel value="0.0028468675" flag="0"/>
      <psa03 value="0.0146174393" flag="0"/>
      <psa10 value="0.0032895105" flag="0"/>
      <psa30 value="0.0002004557" flag="0"/>
    </comp>
    <comp name="--.HHE">
      <acc value="0.0069021647" flag="0"/>
      <vel value="0.0028189134" flag="0"/>
      <psa03 value="0.0149963047" flag="0"/>
      <psa10 value="0.0024992048" flag="0"/>
      <psa30 value="0.0004221009" flag="0"/>
    </comp>
    <comp name="--.HHZ">
      <acc value="0.0053634093" flag="0"/>
      <vel value="0.0025704540" flag="0"/>
      <psa03 value="0.0183054366" flag="0"/>
      <psa10 value="0.0027507609" flag="0"/>
      <psa30 value="0.0003079343" flag="0"/>
    </comp>
  </station>
  <station code="SIVA" name="SIVA" netid="HL" insttype="60" lat="35.0178" lon="24.812">
    <comp name="--.HHE">
      <acc value="0.0441194213" flag="0"/>
      <vel value="0.0245576080" flag="0"/>
      <psa03 value="0.1662208942" flag="0"/>
      <psa10 value="0.0271077753" flag="0"/>
      <psa30 value="0.0012879235" flag="0"/>
    </comp>
    <comp name="--.HHN">
      <acc value="0.0455861258" flag="0"/>
      <vel value="0.0173239929" flag="0"/>
      <psa03 value="0.0728379344" flag="0"/>
      <psa10 value="0.0133100998" flag="0"/>
      <psa30 value="0.0007251678" flag="0"/>
    </comp>
    <comp name="--.HHZ">
      <acc value="0.0296326920" flag="0"/>
      <vel value="0.0101867086" flag="0"/>
      <psa03 value="0.0599734260" flag="0"/>
      <psa10 value="0.0085704045" flag="0"/>
      <psa30 value="0.0005816158" flag="0"/>
    </comp>
  </station>
  <station code="IDI" name="IDI" netid="MN" insttype="" lat="35.288" lon="24.89">
    <comp name="--.HHN">
      <acc value="0.0054009375" flag="0"/>
      <vel value="0.0028723138" flag="0"/>
      <psa03 value="0.0148918791" flag="0"/>
      <psa10 value="0.0032663871" flag="0"/>
      <psa30 value="0.0001988917" flag="0"/>
    </comp>
    <comp name="--.HHZ">
      <acc value="0.0054902019" flag="0"/>
      <vel value="0.0026075627" flag="0"/>
      <psa03 value="0.0185663221" flag="0"/>
      <psa10 value="0.0027449004" flag="0"/>
      <psa30 value="0.0003043416" flag="0"/>
    </comp>
    <comp name="--.HHE">
      <acc value="0.0070556752" flag="0"/>
      <vel value="0.0028710284" flag="0"/>
      <psa03 value="0.0153417934" flag="0"/>
      <psa10 value="0.0024842368" flag="0"/>
      <psa30 value="0.0004182858" flag="0"/>
    </comp>
  </station>
</stationlist>
