<stationlist created="1778069805">
	<station code="SIT2" name="SIT2" netid="HI" source="ITSAK Strong Motion Network" insttype="" lat="35.2059" lon="26.107">
		<comp name="--.HNE" depth="0.0">
			<acc value="0.0165163048793219" flag="0"/>
			<vel value="0.010772514774513" flag="0"/>
			<psa03 value="0.0595071348023014" flag="0"/>
			<psa10 value="0.0137676243985084" flag="0"/>
			<psa30 value="0.00075569586978261" flag="0"/>
		</comp>
		<comp name="--.HNN" depth="0.0">
			<acc value="0.0199111956798563" flag="0"/>
			<vel value="0.0153867596405084" flag="0"/>
			<psa03 value="0.0527063193963241" flag="0"/>
			<psa10 value="0.0139609107310993" flag="0"/>
			<psa30 value="0.000950771890638275" flag="0"/>
		</comp>
		<comp name="--.HNZ" depth="0.0">
			<acc value="0.0122688470916138" flag="0"/>
			<vel value="0.00481401571405492" flag="0"/>
			<psa03 value="0.0322143887651557" flag="0"/>
			<psa10 value="0.00377311028411886" flag="0"/>
			<psa30 value="0.000321696465585374" flag="0"/>
		</comp>
	</station>
	<station code="IMMV" name="IMMV" netid="HL" source="National Observatory of Athens Seismic Network" insttype="" lat="35.4606" lon="23.9811">
		<comp name="--.HNE" depth="0.0">
			<acc value="0.00495355160099868" flag="0"/>
			<vel value="0.00353800972138681" flag="0"/>
			<psa03 value="0.0143622483244652" flag="0"/>
			<psa10 value="0.00533550813922891" flag="0"/>
			<psa30 value="0.000634891911913276" flag="0"/>
		</comp>
		<comp name="--.HNN" depth="0.0">
			<acc value="0.00365193741820028" flag="0"/>
			<vel value="0.00307061126446387" flag="0"/>
			<psa03 value="0.0146754437707931" flag="0"/>
			<psa10 value="0.00473954194707353" flag="0"/>
			<psa30 value="0.000469345747425671" flag="0"/>
		</comp>
		<comp name="--.HNZ" depth="0.0">
			<acc value="0.00296167652241369" flag="0"/>
			<vel value="0.00224647895701749" flag="0"/>
			<psa03 value="0.0132436931590084" flag="0"/>
			<psa10 value="0.00454625561448259" flag="0"/>
			<psa30 value="0.000336908815835586" flag="0"/>
		</comp>
	</station>
	<station code="SIVA" name="SIVA" netid="HL" source="National Observatory of Athens Seismic Network" insttype="" lat="35.01777" lon="24.81204">
		<comp name="00.HNE" depth="0.0">
			<acc value="0.0410689909684016" flag="0"/>
			<vel value="0.0230463311632727" flag="0"/>
			<psa03 value="0.153465768700672" flag="0"/>
			<psa10 value="0.0254131259371122" flag="0"/>
			<psa30 value="0.00126665186936327" flag="0"/>
		</comp>
		<comp name="00.HNN" depth="0.0">
			<acc value="0.0434912925182329" flag="0"/>
			<vel value="0.017233298467735" flag="0"/>
			<psa03 value="0.0782541193753573" flag="0"/>
			<psa10 value="0.0156078713567179" flag="0"/>
			<psa30 value="0.000986118233866709" flag="0"/>
		</comp>
		<comp name="00.HNZ" depth="0.0">
			<acc value="0.0288372194123505" flag="0"/>
			<vel value="0.0100560710596217" flag="0"/>
			<psa03 value="0.0596861036287745" flag="0"/>
			<psa10 value="0.00860526859889221" flag="0"/>
			<psa30 value="0.000604914633479034" flag="0"/>
		</comp>
	</station>
</stationlist>
