<?xml version="1.0" encoding="UTF-8" standalone="yes"?>
<!DOCTYPE earthquake SYSTEM "stationlist.dtd">
<stationlist created="" xmlns="ch.ethz.sed.shakemap.usgs.xml">
  <station code="ZKR" name="ZKR" netid="GE" insttype="STS-2/N" lat="35.1147" lon="26.2169">
    <comp name="--.HHE">
      <acc value="0.0197986336" flag="0"/>
      <vel value="0.0132745876" flag="0"/>
      <psa03 value="0.0400779072" flag="0"/>
      <psa10 value="0.0158965134" flag="0"/>
      <psa30 value="0.0008042296" flag="0"/>
    </comp>
    <comp name="--.HHZ">
      <acc value="0.0132301190" flag="0"/>
      <vel value="0.0054308453" flag="0"/>
      <psa03 value="0.0175243414" flag="0"/>
      <psa10 value="0.0118683555" flag="0"/>
      <psa30 value="0.0007582395" flag="0"/>
    </comp>
    <comp name="--.HHN">
      <acc value="0.0095944964" flag="0"/>
      <vel value="0.0046659536" flag="0"/>
      <psa03 value="0.0212381596" flag="0"/>
      <psa10 value="0.0058972396" flag="0"/>
      <psa30 value="0.0005335606" flag="0"/>
    </comp>
  </station>
  <station code="IDI" name="IDI" netid="MN" insttype="" lat="35.288" lon="24.89">
    <comp name="--.HHE">
      <acc value="0.0598400698" flag="0"/>
      <vel value="0.0147465465" flag="0"/>
      <psa03 value="0.0976852276" flag="0"/>
      <psa10 value="0.0071177600" flag="0"/>
      <psa30 value="0.0014258354" flag="0"/>
    </comp>
    <comp name="--.HHN">
      <acc value="0.0527915703" flag="0"/>
      <vel value="0.0135066770" flag="0"/>
      <psa03 value="0.0736255837" flag="0"/>
      <psa10 value="0.0087315142" flag="0"/>
      <psa30 value="0.0011683796" flag="0"/>
    </comp>
    <comp name="--.HHZ">
      <acc value="0.0403172470" flag="0"/>
      <vel value="0.0120426860" flag="0"/>
      <psa03 value="0.0632010131" flag="0"/>
      <psa10 value="0.0068136175" flag="0"/>
      <psa30 value="0.0020925306" flag="0"/>
    </comp>
  </station>
</stationlist>
