<?xml version="1.0" encoding="UTF-8" standalone="yes"?>
<!DOCTYPE earthquake SYSTEM "stationlist.dtd">
<stationlist created="" xmlns="ch.ethz.sed.shakemap.usgs.xml">
  <station code="SVRC" name="SVRC" netid="KO" insttype="CMG-3T" lat="38.3775" lon="39.306">
    <comp name="--.HHZ">
      <acc value="0.0074143457" flag="0"/>
      <vel value="0.0042723017" flag="0"/>
      <psa03 value="0.0258889824" flag="0"/>
      <psa10 value="0.0042882653" flag="0"/>
      <psa30 value="0.0004637411" flag="0"/>
    </comp>
  </station>
  <station code="URFA" name="URFA" netid="KO" insttype="CMG-3ESP" lat="37.4409" lon="38.8213">
    <comp name="--.HHE">
      <acc value="0.0631162199" flag="0"/>
      <vel value="0.0266774269" flag="0"/>
      <psa03 value="0.1608508207" flag="0"/>
      <psa10 value="0.0127165874" flag="0"/>
      <psa30 value="0.0030952871" flag="0"/>
    </comp>
    <comp name="--.HHN">
      <acc value="0.0957254031" flag="0"/>
      <vel value="0.0229357905" flag="0"/>
      <psa03 value="0.1177151647" flag="0"/>
      <psa10 value="0.0115481377" flag="0"/>
      <psa30 value="0.0023014287" flag="0"/>
    </comp>
  </station>
</stationlist>
