<?xml version="1.0" encoding="UTF-8" standalone="yes"?>
<!DOCTYPE earthquake SYSTEM "stationlist.dtd">
<stationlist created="" xmlns="ch.ethz.sed.shakemap.usgs.xml">
  <station code="ARPRA" name="ARPRA" netid="KO" insttype="CMG-5T" lat="39.0929" lon="38.3356">
    <comp name="--.HNN">
      <acc value="7.0136055693" flag="0"/>
      <vel value="13.1933772023" flag="0"/>
      <psa03 value="11.8497541554" flag="0"/>
      <psa10 value="17.7222891756" flag="0"/>
      <psa30 value="4.6742373607" flag="0"/>
    </comp>
    <comp name="--.HNE">
      <acc value="6.0574575460" flag="0"/>
      <vel value="13.5804940019" flag="0"/>
      <psa03 value="13.5920874788" flag="0"/>
      <psa10 value="12.0375396530" flag="0"/>
      <psa30 value="4.9910640549" flag="0"/>
    </comp>
    <comp name="--.HNZ">
      <acc value="4.3175389799" flag="0"/>
      <vel value="10.1490077870" flag="0"/>
      <psa03 value="5.2981239605" flag="0"/>
      <psa10 value="17.4694111672" flag="0"/>
      <psa30 value="4.2594228225" flag="0"/>
    </comp>
  </station>
  <station code="BAYT" name="BAYT" netid="KO" insttype="CMG-3ESPC" lat="40.3937" lon="40.141">
    <comp name="--.HHZ">
      <acc value="0.0126807527" flag="0"/>
      <vel value="0.0571941131" flag="0"/>
      <psa03 value="0.0435527121" flag="0"/>
      <psa10 value="0.0204918631" flag="0"/>
      <psa30 value="0.0109460549" flag="0"/>
    </comp>
    <comp name="--.HHN">
      <acc value="0.2011513095" flag="0"/>
      <vel value="0.3542105590" flag="0"/>
      <psa03 value="0.3333635185" flag="0"/>
      <psa10 value="0.4977775678" flag="0"/>
      <psa30 value="0.2487209224" flag="0"/>
    </comp>
    <comp name="--.HHE">
      <acc value="0.2588038534" flag="0"/>
      <vel value="0.3841630492" flag="0"/>
      <psa03 value="0.3688721653" flag="0"/>
      <psa10 value="0.4565659828" flag="0"/>
      <psa30 value="0.2439937122" flag="0"/>
    </comp>
  </station>
  <station code="BNGB" name="BNGB" netid="KO" insttype="CMG-3ESPC" lat="38.9913" lon="40.6792">
    <comp name="--.HHN">
      <acc value="0.3859318374" flag="0"/>
      <vel value="0.5419330535" flag="0"/>
      <psa03 value="0.6011233938" flag="0"/>
      <psa10 value="0.4675979486" flag="0"/>
      <psa30 value="0.2612774714" flag="0"/>
    </comp>
    <comp name="--.HHE">
      <acc value="0.3421615732" flag="0"/>
      <vel value="0.4587465724" flag="0"/>
      <psa03 value="0.6081166660" flag="0"/>
      <psa10 value="0.5364333451" flag="0"/>
      <psa30 value="0.3613751610" flag="0"/>
    </comp>
  </station>
  <station code="BNN" name="BNN" netid="KO" insttype="CMG-3T" lat="38.8521" lon="35.8472">
    <comp name="--.HHN">
      <acc value="1.8614842062" flag="0"/>
      <vel value="0.4340696216" flag="0"/>
      <psa03 value="1.6130472287" flag="0"/>
      <psa10 value="0.5245470879" flag="0"/>
      <psa30 value="0.3097642057" flag="0"/>
    </comp>
  </station>
  <station code="CEYT" name="CEYT" netid="KO" insttype="CMG-3ESP" lat="37.0105" lon="35.7478">
    <comp name="--.HHZ">
      <acc value="0.9729092729" flag="0"/>
      <vel value="0.5510330402" flag="0"/>
      <psa03 value="1.3831179972" flag="0"/>
      <psa10 value="0.5352251428" flag="0"/>
      <psa30 value="0.3200653430" flag="0"/>
    </comp>
    <comp name="--.HHE">
      <acc value="1.5646385597" flag="0"/>
      <vel value="0.5346002705" flag="0"/>
      <psa03 value="1.7193362686" flag="0"/>
      <psa10 value="0.8411682339" flag="0"/>
      <psa30 value="0.2754259048" flag="0"/>
    </comp>
  </station>
  <station code="CMRD" name="CMRD" netid="KO" insttype="CMG-5T" lat="37.6623" lon="34.9902">
    <comp name="--.HNZ">
      <acc value="1.3543989629" flag="0"/>
      <vel value="8.9479645619" flag="0"/>
      <psa03 value="1.4017574698" flag="0"/>
      <psa10 value="2.5609402934" flag="0"/>
      <psa30 value="1.9280318026" flag="0"/>
    </comp>
    <comp name="--.HNN">
      <acc value="1.7419272805" flag="0"/>
      <vel value="9.4794678148" flag="0"/>
      <psa03 value="2.0751667399" flag="0"/>
      <psa10 value="2.3622812992" flag="0"/>
      <psa30 value="1.7663483252" flag="0"/>
    </comp>
    <comp name="--.HNE">
      <acc value="1.6598235003" flag="0"/>
      <vel value="8.4393526989" flag="0"/>
      <psa03 value="2.8967871818" flag="0"/>
      <psa10 value="2.2597592711" flag="0"/>
      <psa30 value="1.1319204506" flag="0"/>
    </comp>
  </station>
  <station code="DYBB" name="DYBB" netid="KO" insttype="CMG-3T" lat="37.9532" lon="40.1393">
    <comp name="--.HHN">
      <acc value="1.3305068438" flag="0"/>
      <vel value="0.4426560149" flag="0"/>
      <psa03 value="1.3205236379" flag="0"/>
      <psa10 value="0.7910349226" flag="0"/>
      <psa30 value="0.4858247528" flag="0"/>
    </comp>
    <comp name="--.HHZ">
      <acc value="0.6689077761" flag="0"/>
      <vel value="0.3560120145" flag="0"/>
      <psa03 value="0.9336308393" flag="0"/>
      <psa10 value="0.7252913700" flag="0"/>
      <psa30 value="0.3093680361" flag="0"/>
    </comp>
    <comp name="--.HHE">
      <acc value="1.4092963617" flag="0"/>
      <vel value="0.3972112311" flag="0"/>
      <psa03 value="1.3687732640" flag="0"/>
      <psa10 value="0.5153075676" flag="0"/>
      <psa30 value="0.3155161526" flag="0"/>
    </comp>
  </station>
  <station code="ERBG" name="ERBG" netid="KO" insttype="CMG-5T" lat="40.712" lon="36.6768">
    <comp name="--.HNE">
      <acc value="0.4918545925" flag="0"/>
      <vel value="5.8481352531" flag="0"/>
      <psa03 value="0.5122786710" flag="0"/>
      <psa10 value="0.8576843909" flag="0"/>
      <psa30 value="1.0699030461" flag="0"/>
    </comp>
    <comp name="--.HNN">
      <acc value="0.3803000197" flag="0"/>
      <vel value="2.4198404038" flag="0"/>
      <psa03 value="0.4623078009" flag="0"/>
      <psa10 value="1.2812185146" flag="0"/>
      <psa30 value="0.7249369247" flag="0"/>
    </comp>
    <comp name="--.HNZ">
      <acc value="0.2501337658" flag="0"/>
      <vel value="2.4447109855" flag="0"/>
      <psa03 value="0.2679299472" flag="0"/>
      <psa10 value="0.7701523416" flag="0"/>
      <psa30 value="0.5615911088" flag="0"/>
    </comp>
  </station>
  <station code="GUMT" name="GUMT" netid="KO" insttype="CMG-5T" lat="40.4665" lon="39.478">
    <comp name="--.HNE">
      <acc value="0.4415648720" flag="0"/>
      <vel value="2.3454510160" flag="0"/>
      <psa03 value="0.5449357691" flag="0"/>
      <psa10 value="0.7278847558" flag="0"/>
      <psa30 value="0.5573400009" flag="0"/>
    </comp>
    <comp name="--.HNZ">
      <acc value="0.2729277794" flag="0"/>
      <vel value="2.5029121801" flag="0"/>
      <psa03 value="0.3255999568" flag="0"/>
      <psa10 value="0.6985849920" flag="0"/>
      <psa30 value="0.5739330071" flag="0"/>
    </comp>
    <comp name="--.HNN">
      <acc value="0.2819906275" flag="0"/>
      <vel value="1.8954816306" flag="0"/>
      <psa03 value="0.3046529900" flag="0"/>
      <psa10 value="0.6676658434" flag="0"/>
      <psa30 value="0.5784483075" flag="0"/>
    </comp>
  </station>
  <station code="IKL" name="IKL" netid="KO" insttype="CMG-3ESPC" lat="36.2366" lon="33.6845">
    <comp name="--.HHZ">
      <acc value="0.2914512244" flag="0"/>
      <vel value="1.1190796987" flag="0"/>
      <psa03 value="0.5043024842" flag="0"/>
      <psa10 value="0.5125251780" flag="0"/>
      <psa30 value="0.4779510900" flag="0"/>
    </comp>
    <comp name="--.HHE">
      <acc value="0.3024614469" flag="0"/>
      <vel value="1.0888443025" flag="0"/>
      <psa03 value="0.4112819443" flag="0"/>
      <psa10 value="0.5127248290" flag="0"/>
      <psa30 value="0.3915483358" flag="0"/>
    </comp>
  </station>
  <station code="KAMT" name="KAMT" netid="KO" insttype="CMG-3T" lat="39.3692" lon="33.7124">
    <comp name="--.HHE">
      <acc value="0.1531176743" flag="0"/>
      <vel value="1.2114988473" flag="0"/>
      <psa03 value="0.2263228033" flag="0"/>
      <psa10 value="0.4174155075" flag="0"/>
      <psa30 value="0.2642449706" flag="0"/>
    </comp>
    <comp name="--.HHZ">
      <acc value="0.1712706789" flag="0"/>
      <vel value="1.1634535315" flag="0"/>
      <psa03 value="0.3057263837" flag="0"/>
      <psa10 value="0.2694421054" flag="0"/>
      <psa30 value="0.3118195976" flag="0"/>
    </comp>
  </station>
  <station code="KOZK" name="KOZK" netid="KO" insttype="CMG-5T" lat="39.2101" lon="34.868">
    <comp name="--.HNE">
      <acc value="1.5788565329" flag="0"/>
      <vel value="3.7426341866" flag="0"/>
      <psa03 value="2.7463456419" flag="0"/>
      <psa10 value="3.0809559532" flag="0"/>
      <psa30 value="1.3976685034" flag="0"/>
    </comp>
    <comp name="--.HNZ">
      <acc value="0.8881707907" flag="0"/>
      <vel value="1.7053462341" flag="0"/>
      <psa03 value="2.0700397511" flag="0"/>
      <psa10 value="1.5849927142" flag="0"/>
      <psa30 value="0.6235856206" flag="0"/>
    </comp>
    <comp name="--.HNN">
      <acc value="1.1039030801" flag="0"/>
      <vel value="4.1648091588" flag="0"/>
      <psa03 value="2.4752385285" flag="0"/>
      <psa10 value="3.9571377381" flag="0"/>
      <psa30 value="0.8139497356" flag="0"/>
    </comp>
  </station>
  <station code="KRMN" name="KRMN" netid="KO" insttype="CMG-5T" lat="37.174" lon="33.2636">
    <comp name="--.HNZ">
      <acc value="0.3114016313" flag="0"/>
      <vel value="2.9146356654" flag="0"/>
      <psa03 value="0.3865257071" flag="0"/>
      <psa10 value="0.5387568283" flag="0"/>
      <psa30 value="0.4058569943" flag="0"/>
    </comp>
    <comp name="--.HNE">
      <acc value="0.4760223169" flag="0"/>
      <vel value="2.3359837790" flag="0"/>
      <psa03 value="0.6128784847" flag="0"/>
      <psa10 value="1.1319276678" flag="0"/>
      <psa30 value="0.5152336439" flag="0"/>
    </comp>
    <comp name="--.HNN">
      <acc value="0.5599512430" flag="0"/>
      <vel value="5.3290033776" flag="0"/>
      <psa03 value="0.6806103981" flag="0"/>
      <psa10 value="1.1492408176" flag="0"/>
      <psa30 value="0.9706361799" flag="0"/>
    </comp>
  </station>
  <station code="KULU" name="KULU" netid="KO" insttype="CMG-6T" lat="39.0343" lon="33.0023">
    <comp name="--.HHE">
      <acc value="0.0493433318" flag="0"/>
      <vel value="0.1628611683" flag="0"/>
      <psa03 value="0.0605346862" flag="0"/>
      <psa10 value="0.0879591441" flag="0"/>
      <psa30 value="0.0837717887" flag="0"/>
    </comp>
    <comp name="--.HHZ">
      <acc value="0.0494543354" flag="0"/>
      <vel value="0.1857045423" flag="0"/>
      <psa03 value="0.0695649933" flag="0"/>
      <psa10 value="0.1015308112" flag="0"/>
      <psa30 value="0.0781992529" flag="0"/>
    </comp>
    <comp name="--.HHN">
      <acc value="0.0686840370" flag="0"/>
      <vel value="0.1740490313" flag="0"/>
      <psa03 value="0.0827752321" flag="0"/>
      <psa10 value="0.1026675863" flag="0"/>
      <psa30 value="0.0764224932" flag="0"/>
    </comp>
  </station>
  <station code="KVT" name="KVT" netid="KO" insttype="CMG-3T" lat="41.0807" lon="36.0463">
    <comp name="--.HHE">
      <acc value="0.7732024613" flag="0"/>
      <vel value="0.2576655330" flag="0"/>
      <psa03 value="0.2151414725" flag="0"/>
      <psa10 value="0.2365694021" flag="0"/>
      <psa30 value="0.0458926540" flag="0"/>
    </comp>
    <comp name="--.HHN">
      <acc value="0.1807326374" flag="0"/>
      <vel value="0.3486111357" flag="0"/>
      <psa03 value="0.3238981269" flag="0"/>
      <psa10 value="0.6929085789" flag="0"/>
      <psa30 value="0.1468409563" flag="0"/>
    </comp>
  </station>
  <station code="KYHL" name="KYHL" netid="KO" insttype="CMG-5T" lat="40.3244" lon="37.8955">
    <comp name="--.HNN">
      <acc value="0.8342559747" flag="0"/>
      <vel value="2.3480486000" flag="0"/>
      <psa03 value="1.4421801684" flag="0"/>
      <psa10 value="2.2240062859" flag="0"/>
      <psa30 value="0.6245119260" flag="0"/>
    </comp>
    <comp name="--.HNE">
      <acc value="1.2714270599" flag="0"/>
      <vel value="7.2574855599" flag="0"/>
      <psa03 value="1.8340095845" flag="0"/>
      <psa10 value="3.6468279522" flag="0"/>
      <psa30 value="1.4182873033" flag="0"/>
    </comp>
    <comp name="--.HNZ">
      <acc value="0.5935560264" flag="0"/>
      <vel value="1.7877394365" flag="0"/>
      <psa03 value="1.2056706922" flag="0"/>
      <psa10 value="2.1499379422" flag="0"/>
      <psa30 value="0.8585225432" flag="0"/>
    </comp>
  </station>
  <station code="MERS" name="MERS" netid="KO" insttype="CMG-3T" lat="36.8678" lon="34.522">
    <comp name="--.HHN">
      <acc value="0.6785463339" flag="0"/>
      <vel value="0.4014983980" flag="0"/>
      <psa03 value="0.9153632142" flag="0"/>
      <psa10 value="0.4837416072" flag="0"/>
      <psa30 value="0.2931898848" flag="0"/>
    </comp>
    <comp name="--.HHZ">
      <acc value="0.4648104474" flag="0"/>
      <vel value="0.4378859556" flag="0"/>
      <psa03 value="1.0704927567" flag="0"/>
      <psa10 value="0.7642444804" flag="0"/>
      <psa30 value="0.2716473466" flag="0"/>
    </comp>
    <comp name="--.HHE">
      <acc value="1.0554405178" flag="0"/>
      <vel value="0.4007270524" flag="0"/>
      <psa03 value="1.3199569381" flag="0"/>
      <psa10 value="0.6536498042" flag="0"/>
      <psa30 value="0.3159291441" flag="0"/>
    </comp>
  </station>
  <station code="RFHY" name="RFHY" netid="KO" insttype="CMG-5T" lat="39.927" lon="38.833">
    <comp name="--.HNE">
      <acc value="0.1760657120" flag="0"/>
      <vel value="0.6166115756" flag="0"/>
      <psa03 value="0.2454287985" flag="0"/>
      <psa10 value="0.3869816397" flag="0"/>
      <psa30 value="0.4555547639" flag="0"/>
    </comp>
    <comp name="--.HNN">
      <acc value="2.7722907499" flag="0"/>
      <vel value="8.8147394913" flag="0"/>
      <psa03 value="2.7609255889" flag="0"/>
      <psa10 value="6.4764682770" flag="0"/>
      <psa30 value="4.3899714455" flag="0"/>
    </comp>
    <comp name="--.HNZ">
      <acc value="1.4580251333" flag="0"/>
      <vel value="5.1260504763" flag="0"/>
      <psa03 value="2.3280992661" flag="0"/>
      <psa10 value="4.1237868527" flag="0"/>
      <psa30 value="2.1448219631" flag="0"/>
    </comp>
  </station>
  <station code="SVSK" name="SVSK" netid="KO" insttype="CMG-3T" lat="39.9157" lon="36.9925">
    <comp name="--.HHE">
      <acc value="0.6823786233" flag="0"/>
      <vel value="0.3380860012" flag="0"/>
      <psa03 value="1.0615251909" flag="0"/>
      <psa10 value="0.5129869339" flag="0"/>
      <psa30 value="0.2904390730" flag="0"/>
    </comp>
    <comp name="--.HHZ">
      <acc value="0.6409765749" flag="0"/>
      <vel value="0.3860606454" flag="0"/>
      <psa03 value="0.9347657446" flag="0"/>
      <psa10 value="0.5917739385" flag="0"/>
      <psa30 value="0.2844537726" flag="0"/>
    </comp>
    <comp name="--.HHN">
      <acc value="0.5354661497" flag="0"/>
      <vel value="0.3644541777" flag="0"/>
      <psa03 value="0.8481447951" flag="0"/>
      <psa10 value="0.5066911030" flag="0"/>
      <psa30 value="0.2758863981" flag="0"/>
    </comp>
  </station>
  <station code="TOKT" name="TOKT" netid="KO" insttype="CMG-3T" lat="40.3173" lon="36.5443">
    <comp name="--.HHE">
      <acc value="0.3652075708" flag="0"/>
      <vel value="1.5288951802" flag="0"/>
      <psa03 value="0.6058185548" flag="0"/>
      <psa10 value="0.7765782499" flag="0"/>
      <psa30 value="0.6180656398" flag="0"/>
    </comp>
  </station>
  <station code="TUNC" name="TUNC" netid="KO" insttype="CMG-5T" lat="39.6942" lon="37.5388">
    <comp name="--.HNN">
      <acc value="2.4081367898" flag="0"/>
      <vel value="4.5321670806" flag="0"/>
      <psa03 value="4.3874144100" flag="0"/>
      <psa10 value="3.2983792805" flag="0"/>
      <psa30 value="1.8994978015" flag="0"/>
    </comp>
    <comp name="--.HNZ">
      <acc value="1.9096017669" flag="0"/>
      <vel value="5.1501948935" flag="0"/>
      <psa03 value="3.8636632381" flag="0"/>
      <psa10 value="6.3456071821" flag="0"/>
      <psa30 value="2.2558271153" flag="0"/>
    </comp>
    <comp name="--.HNE">
      <acc value="2.8769894872" flag="0"/>
      <vel value="13.9543916615" flag="0"/>
      <psa03 value="5.3825911406" flag="0"/>
      <psa10 value="7.8741430901" flag="0"/>
      <psa30 value="2.6938031346" flag="0"/>
    </comp>
  </station>
  <station code="YESY" name="YESY" netid="KO" insttype="CMG-6T" lat="37.7825" lon="33.7431">
    <comp name="--.HHN">
      <acc value="0.0020427089" flag="0"/>
      <vel value="0.0010151631" flag="0"/>
      <psa03 value="0.0024912246" flag="0"/>
      <psa10 value="0.0011996358" flag="0"/>
      <psa30 value="0.0003236796" flag="0"/>
    </comp>
    <comp name="--.HHZ">
      <acc value="0.3761585701" flag="0"/>
      <vel value="0.5412750558" flag="0"/>
      <psa03 value="0.5660438311" flag="0"/>
      <psa10 value="0.5917675128" flag="0"/>
      <psa30 value="0.3082050917" flag="0"/>
    </comp>
  </station>
</stationlist>
