<stationlist created="1675762372">
	<station code="ALAN" name="ALAN" netid="KO" source="Bogazici University Kandilli Observatory And Earthquake Research Institute (KOERI)" insttype="" lat="36.557" lon="32.0327">
		<comp name=".HNE" depth="0.0">
			<acc value="0.22802650102" flag="0"/>
			<vel value="2.26186178688" flag="0"/>
			<psa03 value="0.257446846257" flag="0"/>
			<psa10 value="0.498959483616" flag="0"/>
			<psa30 value="0.500996548564" flag="0"/>
		</comp>
		<comp name=".HNN" depth="0.0">
			<acc value="0.257378816023" flag="0"/>
			<vel value="2.97988295785" flag="0"/>
			<psa03 value="0.28214004456" flag="0"/>
			<psa10 value="0.430456455627" flag="0"/>
			<psa30 value="0.643726643733" flag="0"/>
		</comp>
		<comp name=".HNZ" depth="0.0">
			<acc value="0.180475837812" flag="0"/>
			<vel value="2.53699566257" flag="0"/>
			<psa03 value="0.181560194138" flag="0"/>
			<psa10 value="0.326759236196" flag="0"/>
			<psa30 value="0.32835433853" flag="0"/>
		</comp>
	</station>
	<station code="ARPRA" name="ARPRA" netid="KO" source="Bogazici University Kandilli Observatory And Earthquake Research Institute (KOERI)" insttype="" lat="39.0929" lon="38.3356">
		<comp name=".HNE" depth="0.0">
			<acc value="6.05965665176" flag="0"/>
			<vel value="13.39371417" flag="0"/>
			<psa03 value="13.5822930936" flag="0"/>
			<psa10 value="12.0470402973" flag="0"/>
			<psa30 value="4.98351690688" flag="0"/>
		</comp>
		<comp name=".HNN" depth="0.0">
			<acc value="7.003376839" flag="0"/>
			<vel value="12.9950261386" flag="0"/>
			<psa03 value="11.7995523291" flag="0"/>
			<psa10 value="17.7256638382" flag="0"/>
			<psa30 value="4.67149965059" flag="0"/>
		</comp>
		<comp name=".HNZ" depth="0.0">
			<acc value="4.32194944874" flag="0"/>
			<vel value="10.2799878421" flag="0"/>
			<psa03 value="5.33908235466" flag="0"/>
			<psa10 value="17.4752024464" flag="0"/>
			<psa30 value="4.26504541833" flag="0"/>
		</comp>
	</station>
	<station code="BOZY" name="BOZY" netid="KO" source="Bogazici University Kandilli Observatory And Earthquake Research Institute (KOERI)" insttype="" lat="36.1069" lon="32.9763">
		<comp name=".HNE" depth="0.0">
			<acc value="0.342978051994" flag="0"/>
			<vel value="3.96939541625" flag="0"/>
			<psa03 value="0.403169082973" flag="0"/>
			<psa10 value="0.467719434119" flag="0"/>
			<psa30 value="0.895988421503" flag="0"/>
		</comp>
		<comp name=".HNN" depth="0.0">
			<acc value="0.286073753687" flag="0"/>
			<vel value="2.81406407308" flag="0"/>
			<psa03 value="0.377882491194" flag="0"/>
			<psa10 value="0.470542621141" flag="0"/>
			<psa30 value="1.11711272323" flag="0"/>
		</comp>
		<comp name=".HNZ" depth="0.0">
			<acc value="0.330429379956" flag="0"/>
			<vel value="3.16033005339" flag="0"/>
			<psa03 value="0.37043962314" flag="0"/>
			<psa10 value="0.475983841594" flag="0"/>
			<psa30 value="0.423197688103" flag="0"/>
		</comp>
	</station>
	<station code="CHAY" name="CHAY" netid="KO" source="Bogazici University Kandilli Observatory And Earthquake Research Institute (KOERI)" insttype="" lat="41.0862" lon="40.7253">
		<comp name=".HNE" depth="0.0">
			<acc value="0.235039641226" flag="0"/>
			<vel value="1.60555515011" flag="0"/>
			<psa03 value="0.276233736629" flag="0"/>
			<psa10 value="0.563692701874" flag="0"/>
			<psa30 value="0.507224427796" flag="0"/>
		</comp>
		<comp name=".HNN" depth="0.0">
			<acc value="0.231094335292" flag="0"/>
			<vel value="1.82621867977" flag="0"/>
			<psa03 value="0.293709144289" flag="0"/>
			<psa10 value="0.5187191826" flag="0"/>
			<psa30 value="0.575710938026" flag="0"/>
		</comp>
		<comp name=".HNZ" depth="0.0">
			<acc value="0.132366211836" flag="0"/>
			<vel value="1.35815543605" flag="0"/>
			<psa03 value="0.154397780179" flag="0"/>
			<psa10 value="0.300531078709" flag="0"/>
			<psa30 value="0.328033063914" flag="0"/>
		</comp>
	</station>
	<station code="CMRD" name="CMRD" netid="KO" source="Bogazici University Kandilli Observatory And Earthquake Research Institute (KOERI)" insttype="" lat="37.6623" lon="34.9902">
		<comp name=".HNE" depth="0.0">
			<acc value="1.66382117972" flag="0"/>
			<vel value="8.59475747367" flag="0"/>
			<psa03 value="2.87798531907" flag="0"/>
			<psa10 value="2.26025685092" flag="0"/>
			<psa30 value="1.13269018183" flag="0"/>
		</comp>
		<comp name=".HNN" depth="0.0">
			<acc value="1.7234753868" flag="0"/>
			<vel value="9.60031270227" flag="0"/>
			<psa03 value="2.07478261083" flag="0"/>
			<psa10 value="2.36955649149" flag="0"/>
			<psa30 value="1.77373958154" flag="0"/>
		</comp>
		<comp name=".HNZ" depth="0.0">
			<acc value="1.32938437608" flag="0"/>
			<vel value="8.93307864037" flag="0"/>
			<psa03 value="1.4085999795" flag="0"/>
			<psa10 value="2.56641633249" flag="0"/>
			<psa30 value="1.93107512425" flag="0"/>
		</comp>
	</station>
	<station code="ERBG" name="ERBG" netid="KO" source="Bogazici University Kandilli Observatory And Earthquake Research Institute (KOERI)" insttype="" lat="40.712" lon="36.6768">
		<comp name=".HNE" depth="0.0">
			<acc value="0.50311185069" flag="0"/>
			<vel value="5.90211191826" flag="0"/>
			<psa03 value="0.523567517114" flag="0"/>
			<psa10 value="0.869684712344" flag="0"/>
			<psa30 value="1.06697926881" flag="0"/>
		</comp>
		<comp name=".HNN" depth="0.0">
			<acc value="0.383780788122" flag="0"/>
			<vel value="2.53913066059" flag="0"/>
			<psa03 value="0.466918181038" flag="0"/>
			<psa10 value="1.27735393843" flag="0"/>
			<psa30 value="0.726280325842" flag="0"/>
		</comp>
		<comp name=".HNZ" depth="0.0">
			<acc value="0.251059392765" flag="0"/>
			<vel value="2.4947855756" flag="0"/>
			<psa03 value="0.268804556983" flag="0"/>
			<psa10 value="0.768593315533" flag="0"/>
			<psa30 value="0.561430632023" flag="0"/>
		</comp>
	</station>
	<station code="ERCV" name="ERCV" netid="KO" source="Bogazici University Kandilli Observatory And Earthquake Research Institute (KOERI)" insttype="" lat="39.0198" lon="43.3381">
		<comp name=".HNE" depth="0.0">
			<acc value="0.4222245786" flag="0"/>
			<vel value="1.9385950971" flag="0"/>
			<psa03 value="0.428335458456" flag="0"/>
			<psa10 value="0.564925123517" flag="0"/>
			<psa30 value="1.06724200621" flag="0"/>
		</comp>
		<comp name=".HNN" depth="0.0">
			<acc value="0.495300818521" flag="0"/>
			<vel value="3.72482469811" flag="0"/>
			<psa03 value="0.505542489708" flag="0"/>
			<psa10 value="0.639047253746" flag="0"/>
			<psa30 value="1.23689377814" flag="0"/>
		</comp>
		<comp name=".HNZ" depth="0.0">
			<acc value="0.177102298805" flag="0"/>
			<vel value="0.657062727192" flag="0"/>
			<psa03 value="0.180885211924" flag="0"/>
			<psa10 value="0.376770719211" flag="0"/>
			<psa30 value="0.291314098129" flag="0"/>
		</comp>
	</station>
	<station code="GUMT" name="GUMT" netid="KO" source="Bogazici University Kandilli Observatory And Earthquake Research Institute (KOERI)" insttype="" lat="40.4665" lon="39.478">
		<comp name=".HNE" depth="0.0">
			<acc value="0.444434330571" flag="0"/>
			<vel value="2.33428566765" flag="0"/>
			<psa03 value="0.548437872984" flag="0"/>
			<psa10 value="0.730498411935" flag="0"/>
			<psa30 value="0.553005913928" flag="0"/>
		</comp>
		<comp name=".HNN" depth="0.0">
			<acc value="0.282567205183" flag="0"/>
			<vel value="2.04404054671" flag="0"/>
			<psa03 value="0.310295555558" flag="0"/>
			<psa10 value="0.667921586526" flag="0"/>
			<psa30 value="0.578383221716" flag="0"/>
		</comp>
		<comp name=".HNZ" depth="0.0">
			<acc value="0.27537264564" flag="0"/>
			<vel value="2.61659194679" flag="0"/>
			<psa03 value="0.328983418537" flag="0"/>
			<psa10 value="0.698807792588" flag="0"/>
			<psa30 value="0.572434027614" flag="0"/>
		</comp>
	</station>
	<station code="HOPA" name="HOPA" netid="KO" source="Bogazici University Kandilli Observatory And Earthquake Research Institute (KOERI)" insttype="" lat="41.3867" lon="41.4458">
		<comp name=".HNE" depth="0.0">
			<acc value="0.115539381037" flag="0"/>
			<vel value="1.21755191456" flag="0"/>
			<psa03 value="0.121005463935" flag="0"/>
			<psa10 value="0.188865511413" flag="0"/>
			<psa30 value="0.202217115891" flag="0"/>
		</comp>
		<comp name=".HNN" depth="0.0">
			<acc value="0.0693609407286" flag="0"/>
			<vel value="0.734391080861" flag="0"/>
			<psa03 value="0.104885083539" flag="0"/>
			<psa10 value="0.0969445821029" flag="0"/>
			<psa30 value="0.147609111713" flag="0"/>
		</comp>
		<comp name=".HNZ" depth="0.0">
			<acc value="0.0622917733528" flag="0"/>
			<vel value="0.56136727232" flag="0"/>
			<psa03 value="0.0645612299897" flag="0"/>
			<psa10 value="0.102535092447" flag="0"/>
			<psa30 value="0.0984608358803" flag="0"/>
		</comp>
	</station>
	<station code="KMON" name="KMON" netid="KO" source="Bogazici University Kandilli Observatory And Earthquake Research Institute (KOERI)" insttype="" lat="41.3738" lon="33.7839">
		<comp name=".HNE" depth="0.0">
			<acc value="0.309881753302" flag="0"/>
			<vel value="1.44237554507" flag="0"/>
			<psa03 value="0.325469352414" flag="0"/>
			<psa10 value="0.689903082693" flag="0"/>
			<psa30 value="0.50584348298" flag="0"/>
		</comp>
		<comp name=".HNN" depth="0.0">
			<acc value="0.262113771001" flag="0"/>
			<vel value="1.74047184231" flag="0"/>
			<psa03 value="0.28307531485" flag="0"/>
			<psa10 value="0.63639069776" flag="0"/>
			<psa30 value="0.503313395378" flag="0"/>
		</comp>
		<comp name=".HNZ" depth="0.0">
			<acc value="0.15726432973" flag="0"/>
			<vel value="1.77542572747" flag="0"/>
			<psa03 value="0.171570563625" flag="0"/>
			<psa10 value="0.425009384787" flag="0"/>
			<psa30 value="0.307394256694" flag="0"/>
		</comp>
	</station>
	<station code="KOZK" name="KOZK" netid="KO" source="Bogazici University Kandilli Observatory And Earthquake Research Institute (KOERI)" insttype="" lat="39.2101" lon="34.868">
		<comp name=".HNE" depth="0.0">
			<acc value="1.57860369336" flag="0"/>
			<vel value="3.70766998063" flag="0"/>
			<psa03 value="2.717479353" flag="0"/>
			<psa10 value="3.08282470201" flag="0"/>
			<psa30 value="1.39664345411" flag="0"/>
		</comp>
		<comp name=".HNN" depth="0.0">
			<acc value="1.10247506055" flag="0"/>
			<vel value="4.26082592628" flag="0"/>
			<psa03 value="2.4500929733" flag="0"/>
			<psa10 value="3.95622960079" flag="0"/>
			<psa30 value="0.816596015479" flag="0"/>
		</comp>
		<comp name=".HNZ" depth="0.0">
			<acc value="0.885783890666" flag="0"/>
			<vel value="1.76764277546" flag="0"/>
			<psa03 value="2.02964845425" flag="0"/>
			<psa10 value="1.58591261893" flag="0"/>
			<psa30 value="0.624913237435" flag="0"/>
		</comp>
	</station>
	<station code="KRMN" name="KRMN" netid="KO" source="Bogazici University Kandilli Observatory And Earthquake Research Institute (KOERI)" insttype="" lat="37.174" lon="33.2636">
		<comp name=".HNE" depth="0.0">
			<acc value="0.476303952085" flag="0"/>
			<vel value="2.56472453643" flag="0"/>
			<psa03 value="0.616869031212" flag="0"/>
			<psa10 value="1.13739850707" flag="0"/>
			<psa30 value="0.520421142014" flag="0"/>
		</comp>
		<comp name=".HNN" depth="0.0">
			<acc value="0.559020065159" flag="0"/>
			<vel value="5.51264131803" flag="0"/>
			<psa03 value="0.684347042969" flag="0"/>
			<psa10 value="1.15264563712" flag="0"/>
			<psa30 value="0.967457475978" flag="0"/>
		</comp>
		<comp name=".HNZ" depth="0.0">
			<acc value="0.310901276182" flag="0"/>
			<vel value="2.99732895331" flag="0"/>
			<psa03 value="0.392104850022" flag="0"/>
			<psa10 value="0.540317853404" flag="0"/>
			<psa30 value="0.404393349075" flag="0"/>
		</comp>
	</station>
	<station code="KRTS" name="KRTS" netid="KO" source="Bogazici University Kandilli Observatory And Earthquake Research Institute (KOERI)" insttype="" lat="36.573" lon="35.375">
		<comp name=".HNE" depth="0.0">
			<acc value="0.860238943086" flag="0"/>
			<vel value="9.95507090001" flag="0"/>
			<psa03 value="1.1815622727" flag="0"/>
			<psa10 value="1.88790206425" flag="0"/>
			<psa30 value="1.29735111648" flag="0"/>
		</comp>
		<comp name=".HNN" depth="0.0">
			<acc value="0.84137396358" flag="0"/>
			<vel value="5.5427922632" flag="0"/>
			<psa03 value="1.66180475307" flag="0"/>
			<psa10 value="1.66985613977" flag="0"/>
			<psa30 value="0.928098068611" flag="0"/>
		</comp>
		<comp name=".HNZ" depth="0.0">
			<acc value="0.859410862941" flag="0"/>
			<vel value="8.67031900193" flag="0"/>
			<psa03 value="1.20228422876" flag="0"/>
			<psa10 value="1.10296042572" flag="0"/>
			<psa30 value="1.43026882829" flag="0"/>
		</comp>
	</station>
	<station code="KYHL" name="KYHL" netid="KO" source="Bogazici University Kandilli Observatory And Earthquake Research Institute (KOERI)" insttype="" lat="40.3244" lon="37.8955">
		<comp name=".HNE" depth="0.0">
			<acc value="1.27015553602" flag="0"/>
			<vel value="7.88519097309" flag="0"/>
			<psa03 value="1.86829009838" flag="0"/>
			<psa10 value="3.64598648871" flag="0"/>
			<psa30 value="1.43133545895" flag="0"/>
		</comp>
		<comp name=".HNN" depth="0.0">
			<acc value="0.832454417546" flag="0"/>
			<vel value="2.38844909832" flag="0"/>
			<psa03 value="1.43882814864" flag="0"/>
			<psa10 value="2.22369594894" flag="0"/>
			<psa30 value="0.624569641341" flag="0"/>
		</comp>
		<comp name=".HNZ" depth="0.0">
			<acc value="0.593907178278" flag="0"/>
			<vel value="1.79385267703" flag="0"/>
			<psa03 value="1.20308311502" flag="0"/>
			<psa10 value="2.15187527118" flag="0"/>
			<psa30 value="0.857763062593" flag="0"/>
		</comp>
	</station>
	<station code="MNVG" name="MNVG" netid="KO" source="Bogazici University Kandilli Observatory And Earthquake Research Institute (KOERI)" insttype="" lat="36.7935" lon="31.4161">
		<comp name=".HNE" depth="0.0">
			<acc value="0.253570717432" flag="0"/>
			<vel value="1.82296927508" flag="0"/>
			<psa03 value="0.270125665333" flag="0"/>
			<psa10 value="0.842665582459" flag="0"/>
			<psa30 value="0.759145863023" flag="0"/>
		</comp>
		<comp name=".HNN" depth="0.0">
			<acc value="0.319150802589" flag="0"/>
			<vel value="3.74740500186" flag="0"/>
			<psa03 value="0.347757308048" flag="0"/>
			<psa10 value="0.595391721779" flag="0"/>
			<psa30 value="0.590327639641" flag="0"/>
		</comp>
		<comp name=".HNZ" depth="0.0">
			<acc value="0.148080444186" flag="0"/>
			<vel value="1.74838374951" flag="0"/>
			<psa03 value="0.177640997011" flag="0"/>
			<psa10 value="0.351568779706" flag="0"/>
			<psa30 value="0.343930437037" flag="0"/>
		</comp>
	</station>
	<station code="RFHY" name="RFHY" netid="KO" source="Bogazici University Kandilli Observatory And Earthquake Research Institute (KOERI)" insttype="" lat="39.927" lon="38.833">
		<comp name=".HNE" depth="0.0">
			<acc value="0.175529340391" flag="0"/>
			<vel value="0.621691630874" flag="0"/>
			<psa03 value="0.245331231157" flag="0"/>
			<psa10 value="0.386800653645" flag="0"/>
			<psa30 value="0.455199754749" flag="0"/>
		</comp>
		<comp name=".HNN" depth="0.0">
			<acc value="2.77394037808" flag="0"/>
			<vel value="8.74856701775" flag="0"/>
			<psa03 value="2.78360073322" flag="0"/>
			<psa10 value="6.46344961183" flag="0"/>
			<psa30 value="4.39167908719" flag="0"/>
		</comp>
		<comp name=".HNZ" depth="0.0">
			<acc value="1.45888170583" flag="0"/>
			<vel value="5.18877112169" flag="0"/>
			<psa03 value="2.30388295427" flag="0"/>
			<psa10 value="4.12609077328" flag="0"/>
			<psa30 value="2.14351266386" flag="0"/>
		</comp>
	</station>
	<station code="SAFT" name="SAFT" netid="KO" source="Bogazici University Kandilli Observatory And Earthquake Research Institute (KOERI)" insttype="" lat="41.2398" lon="32.6871">
		<comp name=".HNE" depth="0.0">
			<acc value="0.0852318356127" flag="0"/>
			<vel value="0.707531159727" flag="0"/>
			<psa03 value="0.0863189942515" flag="0"/>
			<psa10 value="0.121577646422" flag="0"/>
			<psa30 value="0.2053248951" flag="0"/>
		</comp>
		<comp name=".HNN" depth="0.0">
			<acc value="0.111290838948" flag="0"/>
			<vel value="1.02646767749" flag="0"/>
			<psa03 value="0.112580499572" flag="0"/>
			<psa10 value="0.128855551048" flag="0"/>
			<psa30 value="0.229573954815" flag="0"/>
		</comp>
		<comp name=".HNZ" depth="0.0">
			<acc value="0.0778734989148" flag="0"/>
			<vel value="1.0667931264" flag="0"/>
			<psa03 value="0.0782205411019" flag="0"/>
			<psa10 value="0.0909111449171" flag="0"/>
			<psa30 value="0.189157490756" flag="0"/>
		</comp>
	</station>
	<station code="SINP" name="SINP" netid="KO" source="Bogazici University Kandilli Observatory And Earthquake Research Institute (KOERI)" insttype="" lat="41.9824" lon="35.0956">
		<comp name=".HNE" depth="0.0">
			<acc value="1.22420479272" flag="0"/>
			<vel value="6.93023906554" flag="0"/>
			<psa03 value="1.22018966491" flag="0"/>
			<psa10 value="1.57380525688" flag="0"/>
			<psa30 value="4.19431859969" flag="0"/>
		</comp>
		<comp name=".HNN" depth="0.0">
			<acc value="0.835513770238" flag="0"/>
			<vel value="7.44395781768" flag="0"/>
			<psa03 value="0.852701737304" flag="0"/>
			<psa10 value="1.51165025941" flag="0"/>
			<psa30 value="1.60229750434" flag="0"/>
		</comp>
		<comp name=".HNZ" depth="0.0">
			<acc value="0.430715569432" flag="0"/>
			<vel value="2.38219480711" flag="0"/>
			<psa03 value="0.436193562349" flag="0"/>
			<psa10 value="0.582041137368" flag="0"/>
			<psa30 value="1.40996241642" flag="0"/>
		</comp>
	</station>
	<station code="SLFK" name="SLFK" netid="KO" source="Bogazici University Kandilli Observatory And Earthquake Research Institute (KOERI)" insttype="" lat="36.3925" lon="33.9464">
		<comp name=".HNE" depth="0.0">
			<acc value="0.474826828467" flag="0"/>
			<vel value="3.57524149356" flag="0"/>
			<psa03 value="0.780056174891" flag="0"/>
			<psa10 value="0.936599945149" flag="0"/>
			<psa30 value="0.551702200895" flag="0"/>
		</comp>
		<comp name=".HNN" depth="0.0">
			<acc value="0.344131832526" flag="0"/>
			<vel value="2.32930963844" flag="0"/>
			<psa03 value="0.590418278981" flag="0"/>
			<psa10 value="1.13407848714" flag="0"/>
			<psa30 value="0.539676017553" flag="0"/>
		</comp>
		<comp name=".HNZ" depth="0.0">
			<acc value="0.397139002109" flag="0"/>
			<vel value="2.3243157598" flag="0"/>
			<psa03 value="0.59577405044" flag="0"/>
			<psa10 value="0.802629970296" flag="0"/>
			<psa30 value="0.482958446958" flag="0"/>
		</comp>
	</station>
	<station code="TOS" name="TOS" netid="KO" source="Bogazici University Kandilli Observatory And Earthquake Research Institute (KOERI)" insttype="" lat="41.0362" lon="34.0226">
		<comp name=".HNE" depth="0.0">
			<acc value="0.141897691468" flag="0"/>
			<vel value="1.39589731346" flag="0"/>
			<psa03 value="0.157089989774" flag="0"/>
			<psa10 value="0.238600241095" flag="0"/>
			<psa30 value="0.384047681274" flag="0"/>
		</comp>
		<comp name=".HNN" depth="0.0">
			<acc value="0.213246091247" flag="0"/>
			<vel value="1.67337791686" flag="0"/>
			<psa03 value="0.223672004673" flag="0"/>
			<psa10 value="0.396913543574" flag="0"/>
			<psa30 value="0.339944973019" flag="0"/>
		</comp>
		<comp name=".HNZ" depth="0.0">
			<acc value="0.134138111712" flag="0"/>
			<vel value="1.37048497309" flag="0"/>
			<psa03 value="0.165072216474" flag="0"/>
			<psa10 value="0.187593712163" flag="0"/>
			<psa30 value="0.379953516723" flag="0"/>
		</comp>
	</station>
	<station code="TUNC" name="TUNC" netid="KO" source="Bogazici University Kandilli Observatory And Earthquake Research Institute (KOERI)" insttype="" lat="39.6942" lon="37.5388">
		<comp name=".HNE" depth="0.0">
			<acc value="2.88454673267" flag="0"/>
			<vel value="13.8238743153" flag="0"/>
			<psa03 value="5.42059275433" flag="0"/>
			<psa10 value="7.89660279117" flag="0"/>
			<psa30 value="2.71291486396" flag="0"/>
		</comp>
		<comp name=".HNN" depth="0.0">
			<acc value="2.40785784246" flag="0"/>
			<vel value="4.56068616806" flag="0"/>
			<psa03 value="4.31321872957" flag="0"/>
			<psa10 value="3.30046151938" flag="0"/>
			<psa30 value="1.89923984199" flag="0"/>
		</comp>
		<comp name=".HNZ" depth="0.0">
			<acc value="1.90930544937" flag="0"/>
