<?xml version="1.0" encoding="UTF-8" standalone="yes"?>
<!DOCTYPE earthquake SYSTEM "stationlist.dtd">
<stationlist created="" xmlns="ch.ethz.sed.shakemap.usgs.xml">
  <station code="APE" name="APE" netid="GE" insttype="STS-2/N" lat="37.0727" lon="25.523">
    <comp name="--.HHN">
      <acc value="0.1613586877" flag="0"/>
      <vel value="0.0299516708" flag="0"/>
      <psa03 value="0.1185524724" flag="0"/>
      <psa10 value="0.0062208553" flag="0"/>
      <psa30 value="0.0008772061" flag="0"/>
    </comp>
    <comp name="--.HHE">
      <acc value="0.1422410553" flag="0"/>
      <vel value="0.0348166912" flag="0"/>
      <psa03 value="0.1535954200" flag="0"/>
      <psa10 value="0.0113224088" flag="0"/>
      <psa30 value="0.0009032807" flag="0"/>
    </comp>
    <comp name="--.HHZ">
      <acc value="0.0661887134" flag="0"/>
      <vel value="0.0132942641" flag="0"/>
      <psa03 value="0.0596960842" flag="0"/>
      <psa10 value="0.0086767022" flag="0"/>
      <psa30 value="0.0009434101" flag="0"/>
    </comp>
  </station>
  <station code="THERA" name="THERA" netid="GE" insttype="STS-2/N" lat="36.367" lon="25.4753">
    <comp name="--.HHN">
      <acc value="0.0461224378" flag="0"/>
      <vel value="0.0129129906" flag="0"/>
      <psa03 value="0.0676065455" flag="0"/>
      <psa10 value="0.0044715026" flag="0"/>
      <psa30 value="0.0003215850" flag="0"/>
    </comp>
    <comp name="--.HHE">
      <acc value="0.0747119525" flag="0"/>
      <vel value="0.0207802493" flag="0"/>
      <psa03 value="0.1095290985" flag="0"/>
      <psa10 value="0.0097068482" flag="0"/>
      <psa30 value="0.0006741875" flag="0"/>
    </comp>
    <comp name="--.HHZ">
      <acc value="0.0625539325" flag="0"/>
      <vel value="0.0179943445" flag="0"/>
      <psa03 value="0.0785744785" flag="0"/>
      <psa10 value="0.0055986927" flag="0"/>
      <psa30 value="0.0005235093" flag="0"/>
    </comp>
  </station>
  <station code="SNT1" name="SNT1" netid="HA" insttype="30" lat="36.4159" lon="25.4282">
    <comp name="--.HHN">
      <acc value="0.0343787262" flag="0"/>
      <vel value="0.0133094586" flag="0"/>
      <psa03 value="0.0481578352" flag="0"/>
      <psa10 value="0.0121400378" flag="0"/>
      <psa30 value="0.0008912446" flag="0"/>
    </comp>
    <comp name="--.HHE">
      <acc value="0.0332567956" flag="0"/>
      <vel value="0.0118757815" flag="0"/>
      <psa03 value="0.0459920735" flag="0"/>
      <psa10 value="0.0197560871" flag="0"/>
      <psa30 value="0.0015929107" flag="0"/>
    </comp>
    <comp name="--.HHZ">
      <acc value="0.0252309657" flag="0"/>
      <vel value="0.0091416433" flag="0"/>
      <psa03 value="0.0348564780" flag="0"/>
      <psa10 value="0.0063889252" flag="0"/>
      <psa30 value="0.0006713739" flag="0"/>
    </comp>
  </station>
  <station code="SNT5" name="SNT5" netid="HA" insttype="1s-100Hz," lat="36.4037" lon="25.3953">
    <comp name="--.HHZ">
      <acc value="0.0527047335" flag="0"/>
      <vel value="0.0075341637" flag="0"/>
      <psa03 value="0.0364633169" flag="0"/>
      <psa10 value="0.0061847617" flag="0"/>
      <psa30 value="0.0003718809" flag="0"/>
    </comp>
    <comp name="--.HHE">
      <acc value="0.1426410686" flag="0"/>
      <vel value="0.0355837963" flag="0"/>
      <psa03 value="0.1677935871" flag="0"/>
      <psa10 value="0.0150670573" flag="0"/>
      <psa30 value="0.0020718918" flag="0"/>
    </comp>
    <comp name="--.HHN">
      <acc value="0.0989302923" flag="0"/>
      <vel value="0.0244440051" flag="0"/>
      <psa03 value="0.1188975616" flag="0"/>
      <psa10 value="0.0071432865" flag="0"/>
      <psa30 value="0.0011936565" flag="0"/>
    </comp>
  </station>
  <station code="NAX1" name="NAX1" netid="HI" insttype="CMG-5TD,ACCELEROMETER,GURALP" lat="37.1014" lon="25.3741">
    <comp name="--.HNE">
      <acc value="0.0789508600" flag="0"/>
      <vel value="0.0253781899" flag="0"/>
      <psa03 value="0.1890145197" flag="0"/>
      <psa10 value="0.0068433656" flag="0"/>
      <psa30 value="0.0008144353" flag="0"/>
    </comp>
    <comp name="--.HNZ">
      <acc value="0.0445958552" flag="0"/>
      <vel value="0.0148045865" flag="0"/>
      <psa03 value="0.0762555964" flag="0"/>
      <psa10 value="0.0054733328" flag="0"/>
      <psa30 value="0.0007382155" flag="0"/>
    </comp>
    <comp name="--.HNN">
      <acc value="0.0756357840" flag="0"/>
      <vel value="0.0259935183" flag="0"/>
      <psa03 value="0.0839557434" flag="0"/>
      <psa10 value="0.0058358567" flag="0"/>
      <psa30 value="0.0007815069" flag="0"/>
    </comp>
  </station>
  <station code="SFR2" name="SFR2" netid="HI" insttype="unknown" lat="36.3998" lon="25.4382">
    <comp name="--.HNE">
      <acc value="0.0783323959" flag="0"/>
      <vel value="0.0334920666" flag="0"/>
      <psa03 value="0.1909874508" flag="0"/>
      <psa10 value="0.0287733342" flag="0"/>
      <psa30 value="0.0018650369" flag="0"/>
    </comp>
    <comp name="--.HNN">
      <acc value="0.0991456941" flag="0"/>
      <vel value="0.0371806496" flag="0"/>
      <psa03 value="0.2157721051" flag="0"/>
      <psa10 value="0.0233525750" flag="0"/>
      <psa30 value="0.0016650995" flag="0"/>
    </comp>
    <comp name="--.HNZ">
      <acc value="0.0956664460" flag="0"/>
      <vel value="0.0248974451" flag="0"/>
      <psa03 value="0.1069623799" flag="0"/>
      <psa10 value="0.0139764077" flag="0"/>
      <psa30 value="0.0009001116" flag="0"/>
    </comp>
  </station>
  <station code="AMGA" name="AMGA" netid="HL" insttype="SMART24" lat="36.8316" lon="25.8938">
    <comp name="--.HHE">
      <acc value="0.9047705976" flag="0"/>
      <vel value="0.1751430193" flag="0"/>
      <psa03 value="0.7568898366" flag="0"/>
      <psa10 value="0.0621717358" flag="0"/>
      <psa30 value="0.0051299166" flag="0"/>
    </comp>
    <comp name="--.HHZ">
      <acc value="0.8077656004" flag="0"/>
      <vel value="0.1862518066" flag="0"/>
      <psa03 value="0.7967089458" flag="0"/>
      <psa10 value="0.0499774181" flag="0"/>
      <psa30 value="0.0051610500" flag="0"/>
    </comp>
    <comp name="--.HHN">
      <acc value="0.9555933454" flag="0"/>
      <vel value="0.1784205299" flag="0"/>
      <psa03 value="0.5062464240" flag="0"/>
      <psa10 value="0.0807489127" flag="0"/>
      <psa30 value="0.0050781088" flag="0"/>
    </comp>
  </station>
  <station code="APE" name="APE" netid="HL" insttype="120" lat="37.0727" lon="25.523">
    <comp name="--.HHN">
      <acc value="0.1407898977" flag="0"/>
      <vel value="0.0280851059" flag="0"/>
      <psa03 value="0.1158545630" flag="0"/>
      <psa10 value="0.0060733152" flag="0"/>
      <psa30 value="0.0008689636" flag="0"/>
    </comp>
    <comp name="--.HHE">
      <acc value="0.1261720690" flag="0"/>
      <vel value="0.0334782610" flag="0"/>
      <psa03 value="0.1493344475" flag="0"/>
      <psa10 value="0.0112323738" flag="0"/>
      <psa30 value="0.0008918826" flag="0"/>
    </comp>
    <comp name="--.HHZ">
      <acc value="0.0611708569" flag="0"/>
      <vel value="0.0127983010" flag="0"/>
      <psa03 value="0.0578287307" flag="0"/>
      <psa10 value="0.0085868937" flag="0"/>
      <psa30 value="0.0009415995" flag="0"/>
    </comp>
  </station>
  <station code="MHLO" name="MHLO" netid="HL" insttype="20" lat="36.6898" lon="24.4017">
    <comp name="--.HHN">
      <acc value="0.0325625796" flag="0"/>
      <vel value="0.0199186034" flag="0"/>
      <psa03 value="0.1362932316" flag="0"/>
      <psa10 value="0.0211519180" flag="0"/>
      <psa30 value="0.0010027581" flag="0"/>
    </comp>
    <comp name="--.HHE">
      <acc value="0.0433158696" flag="0"/>
      <vel value="0.0208305145" flag="0"/>
      <psa03 value="0.1106470813" flag="0"/>
      <psa10 value="0.0277972259" flag="0"/>
      <psa30 value="0.0013026338" flag="0"/>
    </comp>
    <comp name="--.HHZ">
      <acc value="0.0187933911" flag="0"/>
      <vel value="0.0103551554" flag="0"/>
      <psa03 value="0.0614227835" flag="0"/>
      <psa10 value="0.0171944705" flag="0"/>
      <psa30 value="0.0009464958" flag="0"/>
    </comp>
  </station>
  <station code="MILA" name="MILA" netid="HL" insttype="CMG-5" lat="36.7429" lon="24.4282">
    <comp name="00.HNE">
      <acc value="0.0401095743" flag="0"/>
      <vel value="0.0171366949" flag="0"/>
      <psa03 value="0.0974959552" flag="0"/>
      <psa10 value="0.0147206121" flag="0"/>
      <psa30 value="0.0010127535" flag="0"/>
    </comp>
    <comp name="00.HNN">
      <acc value="0.0436753568" flag="0"/>
      <vel value="0.0191553120" flag="0"/>
      <psa03 value="0.1042888376" flag="0"/>
      <psa10 value="0.0126505278" flag="0"/>
      <psa30 value="0.0009597549" flag="0"/>
    </comp>
    <comp name="00.HNZ">
      <acc value="0.0376118916" flag="0"/>
      <vel value="0.0160779568" flag="0"/>
      <psa03 value="0.0842968587" flag="0"/>
      <psa10 value="0.0130568127" flag="0"/>
      <psa30 value="0.0007129501" flag="0"/>
    </comp>
  </station>
  <station code="NISR" name="NISR" netid="HL" insttype="65535" lat="36.6106" lon="27.131">
    <comp name="--.HHE">
      <acc value="0.0000000000" flag="0"/>
      <vel value="-100.0000000000" flag="0"/>
      <psa03 value="0.0000000000" flag="0"/>
      <psa10 value="0.0000000000" flag="0"/>
      <psa30 value="0.0000000000" flag="0"/>
    </comp>
    <comp name="--.HHN">
      <acc value="0.0162968511" flag="0"/>
      <vel value="0.0092049890" flag="0"/>
      <psa03 value="0.0260964661" flag="0"/>
      <psa10 value="0.0058120794" flag="0"/>
      <psa30 value="0.0011961921" flag="0"/>
    </comp>
    <comp name="--.HHZ">
      <acc value="0.0099296376" flag="0"/>
      <vel value="0.0053835002" flag="0"/>
      <psa03 value="0.0143157590" flag="0"/>
      <psa10 value="0.0053830061" flag="0"/>
      <psa30 value="0.0003209472" flag="0"/>
    </comp>
  </station>
  <station code="SANT" name="SANT" netid="HL" insttype="30" lat="36.3705" lon="25.4593">
    <comp name="--.HHN">
      <acc value="0.1191722147" flag="0"/>
      <vel value="0.0191284810" flag="0"/>
      <psa03 value="0.0928774527" flag="0"/>
      <psa10 value="0.0070491335" flag="0"/>
      <psa30 value="0.0006187204" flag="0"/>
    </comp>
    <comp name="--.HHE">
      <acc value="0.1539451142" flag="0"/>
      <vel value="0.0274375136" flag="0"/>
      <psa03 value="0.1665995400" flag="0"/>
      <psa10 value="0.0147116525" flag="0"/>
      <psa30 value="0.0008818754" flag="0"/>
    </comp>
    <comp name="--.HHZ">
      <acc value="0.1452693631" flag="0"/>
      <vel value="0.0246395191" flag="0"/>
      <psa03 value="0.0843774627" flag="0"/>
      <psa10 value="0.0062293545" flag="0"/>
      <psa30 value="0.0005126183" flag="0"/>
    </comp>
  </station>
  <station code="SAP3" name="SAP3" netid="HL" insttype="65535" lat="36.4356" lon="25.3454">
    <comp name="--.HHE">
      <acc value="0.0496241106" flag="0"/>
      <vel value="0.0135347235" flag="0"/>
      <psa03 value="0.0721857067" flag="0"/>
      <psa10 value="0.0150120302" flag="0"/>
      <psa30 value="0.0019602108" flag="0"/>
    </comp>
    <comp name="--.HHZ">
      <acc value="0.0437711305" flag="0"/>
      <vel value="0.0115643990" flag="0"/>
      <psa03 value="0.0399146923" flag="0"/>
      <psa10 value="0.0074355383" flag="0"/>
      <psa30 value="0.0006872540" flag="0"/>
    </comp>
    <comp name="--.HHN">
      <acc value="0.0590142231" flag="0"/>
      <vel value="0.0126478778" flag="0"/>
      <psa03 value="0.0670665818" flag="0"/>
      <psa10 value="0.0107338857" flag="0"/>
      <psa30 value="0.0013079255" flag="0"/>
    </comp>
  </station>
  <station code="THERA" name="THERA" netid="HL" insttype="120" lat="36.367" lon="25.4753">
    <comp name="--.HHZ">
      <acc value="0.0614080074" flag="0"/>
      <vel value="0.0176498390" flag="0"/>
      <psa03 value="0.0765226387" flag="0"/>
      <psa10 value="0.0055267018" flag="0"/>
      <psa30 value="0.0005188818" flag="0"/>
    </comp>
    <comp name="--.HHN">
      <acc value="0.0889287789" flag="0"/>
      <vel value="0.0251012673" flag="0"/>
      <psa03 value="0.1313890274" flag="0"/>
      <psa10 value="0.0087474048" flag="0"/>
      <psa30 value="0.0006426379" flag="0"/>
    </comp>
    <comp name="--.HHE">
      <acc value="0.0741376792" flag="0"/>
      <vel value="0.0201827890" flag="0"/>
      <psa03 value="0.1061737614" flag="0"/>
      <psa10 value="0.0095356833" flag="0"/>
      <psa30 value="0.0006722441" flag="0"/>
    </comp>
  </station>
  <station code="TNSA" name="TNSA" netid="HL" insttype="CMG-5" lat="37.5394" lon="25.1631">
    <comp name="00.HNN">
      <acc value="0.0455388654" flag="0"/>
      <vel value="0.0170988653" flag="0"/>
      <psa03 value="0.0748468806" flag="0"/>
      <psa10 value="0.0074244264" flag="0"/>
      <psa30 value="0.0006925846" flag="0"/>
    </comp>
    <comp name="00.HNE">
      <acc value="0.0366800195" flag="0"/>
      <vel value="0.0128782143" flag="0"/>
      <psa03 value="0.0834614303" flag="0"/>
      <psa10 value="0.0037849101" flag="0"/>
      <psa30 value="0.0003204561" flag="0"/>
    </comp>
    <comp name="00.HNZ">
      <acc value="0.0321284154" flag="0"/>
      <vel value="0.0091979258" flag="0"/>
      <psa03 value="0.0795023335" flag="0"/>
      <psa10 value="0.0048165790" flag="0"/>
      <psa30 value="0.0007502811" flag="0"/>
    </comp>
  </station>
  <station code="AKRO" name="AKRO" netid="HT" insttype="Compact," lat="36.3584" lon="25.3967">
    <comp name="--.HHE">
      <acc value="0.1923459256" flag="0"/>
      <vel value="0.0479654762" flag="0"/>
      <psa03 value="0.2508513827" flag="0"/>
      <psa10 value="0.0179324718" flag="0"/>
      <psa30 value="0.0011910961" flag="0"/>
    </comp>
    <comp name="--.HHN">
      <acc value="0.1627717558" flag="0"/>
      <vel value="0.0417323382" flag="0"/>
      <psa03 value="0.2123251502" flag="0"/>
      <psa10 value="0.0263307994" flag="0"/>
      <psa30 value="0.0013985424" flag="0"/>
    </comp>
    <comp name="--.HHZ">
      <acc value="0.1264133956" flag="0"/>
      <vel value="0.0216877300" flag="0"/>
      <psa03 value="0.0909801514" flag="0"/>
      <psa10 value="0.0090367611" flag="0"/>
      <psa30 value="0.0007658364" flag="0"/>
    </comp>
  </station>
  <station code="CMBO" name="CMBO" netid="HT" insttype="120P," lat="36.4709" lon="25.4056">
    <comp name="--.HHE">
      <acc value="0.0423415650" flag="0"/>
      <vel value="0.0189295152" flag="0"/>
      <psa03 value="0.0710574132" flag="0"/>
      <psa10 value="0.0149776858" flag="0"/>
      <psa30 value="0.0013600872" flag="0"/>
    </comp>
    <comp name="--.HHN">
      <acc value="0.0706904711" flag="0"/>
      <vel value="0.0260783046" flag="0"/>
      <psa03 value="0.0961830313" flag="0"/>
      <psa10 value="0.0198847487" flag="0"/>
      <psa30 value="0.0011700003" flag="0"/>
    </comp>
    <comp name="--.HHZ">
      <acc value="0.0469867808" flag="0"/>
      <vel value="0.0146558897" flag="0"/>
      <psa03 value="0.0860587703" flag="0"/>
      <psa10 value="0.0076024493" flag="0"/>
      <psa30 value="0.0006049245" flag="0"/>
    </comp>
  </station>
</stationlist>
