<?xml version="1.0" encoding="UTF-8" standalone="yes"?>
<!DOCTYPE earthquake SYSTEM "stationlist.dtd">
<stationlist created="" xmlns="ch.ethz.sed.shakemap.usgs.xml">
  <station code="APE" name="APE" netid="GE" insttype="STS-2/N" lat="37.0727" lon="25.523">
    <comp name="--.HHN">
      <acc value="0.1613586877" flag="0"/>
      <vel value="0.0299516708" flag="0"/>
      <psa03 value="0.1185524724" flag="0"/>
      <psa10 value="0.0062208553" flag="0"/>
      <psa30 value="0.0008772061" flag="0"/>
    </comp>
    <comp name="--.HHE">
      <acc value="0.1422410553" flag="0"/>
      <vel value="0.0348166912" flag="0"/>
      <psa03 value="0.1535954200" flag="0"/>
      <psa10 value="0.0113224088" flag="0"/>
      <psa30 value="0.0009032807" flag="0"/>
    </comp>
    <comp name="--.HHZ">
      <acc value="0.0661887134" flag="0"/>
      <vel value="0.0132942641" flag="0"/>
      <psa03 value="0.0596960842" flag="0"/>
      <psa10 value="0.0086767022" flag="0"/>
      <psa30 value="0.0009434101" flag="0"/>
    </comp>
  </station>
  <station code="THERA" name="THERA" netid="GE" insttype="STS-2/N" lat="36.367" lon="25.4753">
    <comp name="--.HHN">
      <acc value="0.0461224378" flag="0"/>
      <vel value="0.0129129906" flag="0"/>
      <psa03 value="0.0676065455" flag="0"/>
      <psa10 value="0.0044715026" flag="0"/>
      <psa30 value="0.0003215850" flag="0"/>
    </comp>
    <comp name="--.HHE">
      <acc value="0.0747119525" flag="0"/>
      <vel value="0.0207802493" flag="0"/>
      <psa03 value="0.1095290985" flag="0"/>
      <psa10 value="0.0097068482" flag="0"/>
      <psa30 value="0.0006741875" flag="0"/>
    </comp>
    <comp name="--.HHZ">
      <acc value="0.0625539325" flag="0"/>
      <vel value="0.0179943445" flag="0"/>
      <psa03 value="0.0785744785" flag="0"/>
      <psa10 value="0.0055986927" flag="0"/>
      <psa30 value="0.0005235093" flag="0"/>
    </comp>
  </station>
</stationlist>
