<?xml version="1.0" encoding="UTF-8" standalone="yes"?>
<!DOCTYPE earthquake SYSTEM "stationlist.dtd">
<stationlist created="" xmlns="ch.ethz.sed.shakemap.usgs.xml">
  <station code="ARG" name="ARG" netid="HL" insttype="LE3D20_DR24" lat="36.2136" lon="28.1212">
    <comp name="--.HHE">
      <acc value="0.1958502896" flag="0"/>
      <vel value="0.0312361797" flag="0"/>
      <psa03 value="0.2181751625" flag="0"/>
      <psa10 value="0.0112002334" flag="0"/>
      <psa30 value="0.0011490385" flag="0"/>
    </comp>
    <comp name="--.HHZ">
      <acc value="0.1508838578" flag="0"/>
      <vel value="0.0267068678" flag="0"/>
      <psa03 value="0.0812803542" flag="0"/>
      <psa10 value="0.0047368857" flag="0"/>
      <psa30 value="0.0005055698" flag="0"/>
    </comp>
    <comp name="--.HHN">
      <acc value="0.2508546703" flag="0"/>
      <vel value="0.0333503454" flag="0"/>
      <psa03 value="0.0874383499" flag="0"/>
      <psa10 value="0.0094495866" flag="0"/>
      <psa30 value="0.0004408607" flag="0"/>
    </comp>
  </station>
  <station code="NISR2" name="NISR2" netid="HL" insttype="120" lat="36.5744" lon="27.1767">
    <comp name="--.HHN">
      <acc value="0.0358794080" flag="0"/>
      <vel value="0.0150220032" flag="0"/>
      <psa03 value="0.1044574172" flag="0"/>
      <psa10 value="0.0091377473" flag="0"/>
      <psa30 value="0.0006424363" flag="0"/>
    </comp>
    <comp name="--.HHZ">
      <acc value="0.0242810307" flag="0"/>
      <vel value="0.0083684022" flag="0"/>
      <psa03 value="0.0401765574" flag="0"/>
      <psa10 value="0.0028069730" flag="0"/>
      <psa30 value="0.0001867845" flag="0"/>
    </comp>
    <comp name="--.HHE">
      <acc value="0.0357135769" flag="0"/>
      <vel value="0.0180687541" flag="0"/>
      <psa03 value="0.0897777366" flag="0"/>
      <psa10 value="0.0110085758" flag="0"/>
      <psa30 value="0.0006703741" flag="0"/>
    </comp>
  </station>
  <station code="RODB" name="RODB" netid="HL" insttype="CMG-5" lat="36.4471" lon="28.2212">
    <comp name="00.HNN">
      <acc value="0.1896095657" flag="0"/>
      <vel value="0.0756022049" flag="0"/>
      <psa03 value="0.5647780409" flag="0"/>
      <psa10 value="0.0302626675" flag="0"/>
      <psa30 value="0.0023043717" flag="0"/>
    </comp>
    <comp name="00.HNZ">
      <acc value="0.1336334859" flag="0"/>
      <vel value="0.0309457377" flag="0"/>
      <psa03 value="0.1837939928" flag="0"/>
      <psa10 value="0.0117863513" flag="0"/>
      <psa30 value="0.0008759465" flag="0"/>
    </comp>
    <comp name="00.HNE">
      <acc value="0.1144219855" flag="0"/>
      <vel value="0.0488446524" flag="0"/>
      <psa03 value="0.2064968875" flag="0"/>
      <psa10 value="0.0213497281" flag="0"/>
      <psa30 value="0.0021527998" flag="0"/>
    </comp>
  </station>
  <station code="APMY" name="APMY" netid="KO" insttype="30s," lat="37.4718" lon="29.3018">
    <comp name="--.HHE">
      <acc value="0.0084304863" flag="0"/>
      <vel value="0.0024240697" flag="0"/>
      <psa03 value="0.0140696482" flag="0"/>
      <psa10 value="0.0011525192" flag="0"/>
      <psa30 value="0.0001391273" flag="0"/>
    </comp>
    <comp name="--.HHZ">
      <acc value="0.0061202761" flag="0"/>
      <vel value="0.0015648352" flag="0"/>
      <psa03 value="0.0093183886" flag="0"/>
      <psa10 value="0.0009956649" flag="0"/>
      <psa30 value="0.0001114881" flag="0"/>
    </comp>
    <comp name="--.HHN">
      <acc value="0.0120800493" flag="0"/>
      <vel value="0.0037186593" flag="0"/>
      <psa03 value="0.0147194927" flag="0"/>
      <psa10 value="0.0023657834" flag="0"/>
      <psa30 value="0.0002160580" flag="0"/>
    </comp>
  </station>
  <station code="FETI" name="FETI" netid="KO" insttype="CMG-5T" lat="36.6903" lon="29.096">
    <comp name="--.HNN">
      <acc value="0.0063242034" flag="0"/>
      <vel value="0.0331084345" flag="0"/>
      <psa03 value="0.0062369299" flag="0"/>
      <psa10 value="0.0070657821" flag="0"/>
      <psa30 value="0.0098614322" flag="0"/>
    </comp>
    <comp name="--.HNZ">
      <acc value="0.0345215413" flag="0"/>
      <vel value="0.0098276327" flag="0"/>
      <psa03 value="0.0447003105" flag="0"/>
      <psa10 value="0.0039724993" flag="0"/>
      <psa30 value="0.0005369902" flag="0"/>
    </comp>
    <comp name="--.HNE">
      <acc value="0.0651474045" flag="0"/>
      <vel value="0.0146685460" flag="0"/>
      <psa03 value="0.0404817155" flag="0"/>
      <psa10 value="0.0089523522" flag="0"/>
      <psa30 value="0.0007925514" flag="0"/>
    </comp>
  </station>
  <station code="FETY" name="FETY" netid="KO" insttype="120s," lat="36.6353" lon="29.0835">
    <comp name="--.HHN">
      <acc value="0.1122037941" flag="0"/>
      <vel value="0.0155387647" flag="0"/>
      <psa03 value="0.0494526448" flag="0"/>
      <psa10 value="0.0044880892" flag="0"/>
      <psa30 value="0.0004797911" flag="0"/>
    </comp>
    <comp name="--.HHZ">
      <acc value="0.0798504019" flag="0"/>
      <vel value="0.0104325827" flag="0"/>
      <psa03 value="0.0451477100" flag="0"/>
      <psa10 value="0.0054447409" flag="0"/>
      <psa30 value="0.0002888729" flag="0"/>
    </comp>
    <comp name="--.HHE">
      <acc value="0.0885033376" flag="0"/>
      <vel value="0.0232541022" flag="0"/>
      <psa03 value="0.1067427069" flag="0"/>
      <psa10 value="0.0102286793" flag="0"/>
      <psa30 value="0.0006034818" flag="0"/>
    </comp>
  </station>
  <station code="YKAV" name="YKAV" netid="KO" insttype="CMG-5T" lat="37.1246" lon="27.2801">
    <comp name="--.HNE">
      <acc value="0.0205807968" flag="0"/>
      <vel value="0.0052692842" flag="0"/>
      <psa03 value="0.0268200107" flag="0"/>
      <psa10 value="0.0012606974" flag="0"/>
      <psa30 value="0.0002211994" flag="0"/>
    </comp>
    <comp name="--.HNN">
      <acc value="0.0128215646" flag="0"/>
      <vel value="0.0033227302" flag="0"/>
      <psa03 value="0.0161797416" flag="0"/>
      <psa10 value="0.0013485874" flag="0"/>
      <psa30 value="0.0002265265" flag="0"/>
    </comp>
    <comp name="--.HNZ">
      <acc value="0.0132676056" flag="0"/>
      <vel value="0.0024654421" flag="0"/>
      <psa03 value="0.0081434602" flag="0"/>
      <psa10 value="0.0010843430" flag="0"/>
      <psa30 value="0.0003324324" flag="0"/>
    </comp>
  </station>
  <station code="AYDN" name="AYDN" netid="TU" insttype="T" lat="37.6608" lon="27.8792">
    <comp name="--.HHZ">
      <acc value="0.0429393183" flag="0"/>
      <vel value="0.0118342097" flag="0"/>
      <psa03 value="0.0644013219" flag="0"/>
      <psa10 value="0.0074907413" flag="0"/>
      <psa30 value="0.0005605310" flag="0"/>
    </comp>
    <comp name="--.HHN">
      <acc value="0.0472181222" flag="0"/>
      <vel value="0.0148949043" flag="0"/>
      <psa03 value="0.0963705070" flag="0"/>
      <psa10 value="0.0079991030" flag="0"/>
      <psa30 value="0.0007157167" flag="0"/>
    </comp>
    <comp name="--.HHE">
      <acc value="0.0614765394" flag="0"/>
      <vel value="0.0218820504" flag="0"/>
      <psa03 value="0.1218567486" flag="0"/>
      <psa10 value="0.0146565445" flag="0"/>
      <psa30 value="0.0008867256" flag="0"/>
    </comp>
  </station>
</stationlist>
