<?xml version="1.0" encoding="UTF-8" standalone="yes"?>
<!DOCTYPE earthquake SYSTEM "stationlist.dtd">
<stationlist created="" xmlns="ch.ethz.sed.shakemap.usgs.xml">
  <station code="ARG" name="ARG" netid="HL" insttype="LE3D20_DR24" lat="36.2136" lon="28.1212">
    <comp name="--.HHZ">
      <acc value="0.1508838568" flag="0"/>
      <vel value="0.0267068687" flag="0"/>
      <psa03 value="0.0812803542" flag="0"/>
      <psa10 value="0.0047368861" flag="0"/>
      <psa30 value="0.0005061610" flag="0"/>
    </comp>
    <comp name="--.HHN">
      <acc value="0.2508546704" flag="0"/>
      <vel value="0.0333503369" flag="0"/>
      <psa03 value="0.0874383499" flag="0"/>
      <psa10 value="0.0094495868" flag="0"/>
      <psa30 value="0.0004411563" flag="0"/>
    </comp>
    <comp name="--.HHE">
      <acc value="0.1958502892" flag="0"/>
      <vel value="0.0312361837" flag="0"/>
      <psa03 value="0.2181751625" flag="0"/>
      <psa10 value="0.0112002346" flag="0"/>
      <psa30 value="0.0011488326" flag="0"/>
    </comp>
  </station>
  <station code="NISR2" name="NISR2" netid="HL" insttype="120" lat="36.5744" lon="27.1767">
    <comp name="--.HHN">
      <acc value="0.0358794079" flag="0"/>
      <vel value="0.0150219945" flag="0"/>
      <psa03 value="0.1044574172" flag="0"/>
      <psa10 value="0.0091377473" flag="0"/>
      <psa30 value="0.0006423895" flag="0"/>
    </comp>
    <comp name="--.HHZ">
      <acc value="0.0242810306" flag="0"/>
      <vel value="0.0083684029" flag="0"/>
      <psa03 value="0.0401765574" flag="0"/>
      <psa10 value="0.0028069729" flag="0"/>
      <psa30 value="0.0001867838" flag="0"/>
    </comp>
    <comp name="--.HHE">
      <acc value="0.0357135769" flag="0"/>
      <vel value="0.0180687625" flag="0"/>
      <psa03 value="0.0897777366" flag="0"/>
      <psa10 value="0.0110085767" flag="0"/>
      <psa30 value="0.0006707231" flag="0"/>
    </comp>
  </station>
  <station code="RODB" name="RODB" netid="HL" insttype="CMG-5" lat="36.4471" lon="28.2212">
    <comp name="00.HNN">
      <acc value="0.1896095664" flag="0"/>
      <vel value="0.0756022164" flag="0"/>
      <psa03 value="0.5647780409" flag="0"/>
      <psa10 value="0.0302626595" flag="0"/>
      <psa30 value="0.0023068083" flag="0"/>
    </comp>
    <comp name="00.HNZ">
      <acc value="0.1336334846" flag="0"/>
      <vel value="0.0309457466" flag="0"/>
      <psa03 value="0.1837939928" flag="0"/>
      <psa10 value="0.0117863509" flag="0"/>
      <psa30 value="0.0008764999" flag="0"/>
    </comp>
    <comp name="00.HNE">
      <acc value="0.1144219830" flag="0"/>
      <vel value="0.0488446404" flag="0"/>
      <psa03 value="0.2064968875" flag="0"/>
      <psa10 value="0.0213497148" flag="0"/>
      <psa30 value="0.0021541761" flag="0"/>
    </comp>
  </station>
  <station code="APMY" name="APMY" netid="KO" insttype="30s," lat="37.4718" lon="29.3018">
    <comp name="--.HHE">
      <acc value="0.0084304820" flag="0"/>
      <vel value="0.0024240698" flag="0"/>
      <psa03 value="0.0140696482" flag="0"/>
      <psa10 value="0.0011525192" flag="0"/>
      <psa30 value="0.0001391498" flag="0"/>
    </comp>
    <comp name="--.HHZ">
      <acc value="0.0061202779" flag="0"/>
      <vel value="0.0015648351" flag="0"/>
      <psa03 value="0.0093183886" flag="0"/>
      <psa10 value="0.0009956649" flag="0"/>
      <psa30 value="0.0001114871" flag="0"/>
    </comp>
    <comp name="--.HHN">
      <acc value="0.0120800690" flag="0"/>
      <vel value="0.0037186594" flag="0"/>
      <psa03 value="0.0147194927" flag="0"/>
      <psa10 value="0.0023657834" flag="0"/>
      <psa30 value="0.0002160559" flag="0"/>
    </comp>
  </station>
  <station code="FETI" name="FETI" netid="KO" insttype="CMG-5T" lat="36.6903" lon="29.096">
    <comp name="--.HNN">
      <acc value="0.0064544640" flag="0"/>
      <vel value="0.0329690081" flag="0"/>
      <psa03 value="0.0058844885" flag="0"/>
      <psa10 value="0.0070958356" flag="0"/>
      <psa30 value="0.0099235743" flag="0"/>
    </comp>
    <comp name="--.HNE">
      <acc value="0.0651474067" flag="0"/>
      <vel value="0.0146685447" flag="0"/>
      <psa03 value="0.0404817155" flag="0"/>
      <psa10 value="0.0089523524" flag="0"/>
      <psa30 value="0.0007916297" flag="0"/>
    </comp>
    <comp name="--.HNZ">
      <acc value="0.0345215788" flag="0"/>
      <vel value="0.0098276415" flag="0"/>
      <psa03 value="0.0447003105" flag="0"/>
      <psa10 value="0.0039724994" flag="0"/>
      <psa30 value="0.0005370923" flag="0"/>
    </comp>
  </station>
  <station code="FETY" name="FETY" netid="KO" insttype="120s," lat="36.6353" lon="29.0835">
    <comp name="--.HHN">
      <acc value="0.1122037944" flag="0"/>
      <vel value="0.0155387658" flag="0"/>
      <psa03 value="0.0494526448" flag="0"/>
      <psa10 value="0.0044880882" flag="0"/>
      <psa30 value="0.0004800059" flag="0"/>
    </comp>
    <comp name="--.HHZ">
      <acc value="0.0798504020" flag="0"/>
      <vel value="0.0104325827" flag="0"/>
      <psa03 value="0.0451477100" flag="0"/>
      <psa10 value="0.0054447403" flag="0"/>
      <psa30 value="0.0002890309" flag="0"/>
    </comp>
    <comp name="--.HHE">
      <acc value="0.0885033372" flag="0"/>
      <vel value="0.0232541034" flag="0"/>
      <psa03 value="0.1067427069" flag="0"/>
      <psa10 value="0.0102286791" flag="0"/>
      <psa30 value="0.0006033752" flag="0"/>
    </comp>
  </station>
  <station code="YKAV" name="YKAV" netid="KO" insttype="CMG-5T" lat="37.1246" lon="27.2801">
    <comp name="--.HNE">
      <acc value="0.0205807682" flag="0"/>
      <vel value="0.0052692835" flag="0"/>
      <psa03 value="0.0268200107" flag="0"/>
      <psa10 value="0.0012606974" flag="0"/>
      <psa30 value="0.0002233705" flag="0"/>
    </comp>
    <comp name="--.HNN">
      <acc value="0.0128215851" flag="0"/>
      <vel value="0.0033227293" flag="0"/>
      <psa03 value="0.0161797416" flag="0"/>
      <psa10 value="0.0013485890" flag="0"/>
      <psa30 value="0.0002266754" flag="0"/>
    </comp>
    <comp name="--.HNZ">
      <acc value="0.0132676076" flag="0"/>
      <vel value="0.0024654454" flag="0"/>
      <psa03 value="0.0081434602" flag="0"/>
      <psa10 value="0.0010843434" flag="0"/>
      <psa30 value="0.0003608781" flag="0"/>
    </comp>
  </station>
  <station code="AYDN" name="AYDN" netid="TU" insttype="T" lat="37.6608" lon="27.8792">
    <comp name="--.HHN">
      <acc value="0.0472181222" flag="0"/>
      <vel value="0.0148949040" flag="0"/>
      <psa03 value="0.0963705070" flag="0"/>
      <psa10 value="0.0079991031" flag="0"/>
      <psa30 value="0.0007157007" flag="0"/>
    </comp>
    <comp name="--.HHZ">
      <acc value="0.0429393182" flag="0"/>
      <vel value="0.0118342096" flag="0"/>
      <psa03 value="0.0644013219" flag="0"/>
      <psa10 value="0.0074907413" flag="0"/>
      <psa30 value="0.0005605565" flag="0"/>
    </comp>
    <comp name="--.HHE">
      <acc value="0.0614765394" flag="0"/>
      <vel value="0.0218820513" flag="0"/>
      <psa03 value="0.1218567486" flag="0"/>
      <psa10 value="0.0146565445" flag="0"/>
      <psa30 value="0.0008867821" flag="0"/>
    </comp>
  </station>
</stationlist>
