<?xml version="1.0" encoding="UTF-8" standalone="yes"?>
<!DOCTYPE earthquake SYSTEM "stationlist.dtd">
<stationlist created="" xmlns="ch.ethz.sed.shakemap.usgs.xml">
  <station code="APMY" name="APMY" netid="KO" insttype="30s," lat="37.4718" lon="29.3018">
    <comp name="--.HHE">
      <acc value="0.0084304771" flag="0"/>
      <vel value="0.0024240704" flag="0"/>
      <psa03 value="0.0140696482" flag="0"/>
      <psa10 value="0.0011525192" flag="0"/>
      <psa30 value="0.0001391774" flag="0"/>
    </comp>
    <comp name="--.HHZ">
      <acc value="0.0061202793" flag="0"/>
      <vel value="0.0015648350" flag="0"/>
      <psa03 value="0.0093183886" flag="0"/>
      <psa10 value="0.0009956649" flag="0"/>
      <psa30 value="0.0001114930" flag="0"/>
    </comp>
    <comp name="--.HHN">
      <acc value="0.0120800783" flag="0"/>
      <vel value="0.0037186593" flag="0"/>
      <psa03 value="0.0147194927" flag="0"/>
      <psa10 value="0.0023657834" flag="0"/>
      <psa30 value="0.0002160538" flag="0"/>
    </comp>
  </station>
  <station code="FETI" name="FETI" netid="KO" insttype="CMG-5T" lat="36.6903" lon="29.096">
    <comp name="--.HNN">
      <acc value="0.0064042521" flag="0"/>
      <vel value="0.0335847997" flag="0"/>
      <psa03 value="0.0060210258" flag="0"/>
      <psa10 value="0.0070297093" flag="0"/>
      <psa30 value="0.0101125115" flag="0"/>
    </comp>
    <comp name="--.HNE">
      <acc value="0.0651474061" flag="0"/>
      <vel value="0.0146685452" flag="0"/>
      <psa03 value="0.0404817155" flag="0"/>
      <psa10 value="0.0089523523" flag="0"/>
      <psa30 value="0.0007913647" flag="0"/>
    </comp>
    <comp name="--.HNZ">
      <acc value="0.0345215704" flag="0"/>
      <vel value="0.0098276425" flag="0"/>
      <psa03 value="0.0447003105" flag="0"/>
      <psa10 value="0.0039724996" flag="0"/>
      <psa30 value="0.0005368665" flag="0"/>
    </comp>
  </station>
  <station code="FETY" name="FETY" netid="KO" insttype="120s," lat="36.6353" lon="29.0835">
    <comp name="--.HHE">
      <acc value="0.0885033371" flag="0"/>
      <vel value="0.0232541037" flag="0"/>
      <psa03 value="0.1067427069" flag="0"/>
      <psa10 value="0.0102286791" flag="0"/>
      <psa30 value="0.0006033617" flag="0"/>
    </comp>
    <comp name="--.HHN">
      <acc value="0.1122037943" flag="0"/>
      <vel value="0.0155387660" flag="0"/>
      <psa03 value="0.0494526448" flag="0"/>
      <psa10 value="0.0044880882" flag="0"/>
      <psa30 value="0.0004800207" flag="0"/>
    </comp>
    <comp name="--.HHZ">
      <acc value="0.0798504020" flag="0"/>
      <vel value="0.0104325822" flag="0"/>
      <psa03 value="0.0451477100" flag="0"/>
      <psa10 value="0.0054447403" flag="0"/>
      <psa30 value="0.0002890558" flag="0"/>
    </comp>
  </station>
  <station code="YKAV" name="YKAV" netid="KO" insttype="CMG-5T" lat="37.1246" lon="27.2801">
    <comp name="--.HNN">
      <acc value="0.0128215996" flag="0"/>
      <vel value="0.0033227291" flag="0"/>
      <psa03 value="0.0161797416" flag="0"/>
      <psa10 value="0.0013485898" flag="0"/>
      <psa30 value="0.0002267780" flag="0"/>
    </comp>
    <comp name="--.HNE">
      <acc value="0.0205807444" flag="0"/>
      <vel value="0.0052692857" flag="0"/>
      <psa03 value="0.0268200107" flag="0"/>
      <psa10 value="0.0012606974" flag="0"/>
      <psa30 value="0.0002246345" flag="0"/>
    </comp>
    <comp name="--.HNZ">
      <acc value="0.0132676085" flag="0"/>
      <vel value="0.0024654491" flag="0"/>
      <psa03 value="0.0081434602" flag="0"/>
      <psa10 value="0.0010843438" flag="0"/>
      <psa30 value="0.0003650185" flag="0"/>
    </comp>
  </station>
  <station code="AYDN" name="AYDN" netid="TU" insttype="T" lat="37.6608" lon="27.8792">
    <comp name="--.HHN">
      <acc value="0.0472181222" flag="0"/>
      <vel value="0.0148949047" flag="0"/>
      <psa03 value="0.0963705070" flag="0"/>
      <psa10 value="0.0079991031" flag="0"/>
      <psa30 value="0.0007157064" flag="0"/>
    </comp>
    <comp name="--.HHZ">
      <acc value="0.0429393182" flag="0"/>
      <vel value="0.0118342096" flag="0"/>
      <psa03 value="0.0644013219" flag="0"/>
      <psa10 value="0.0074907413" flag="0"/>
      <psa30 value="0.0005605654" flag="0"/>
    </comp>
    <comp name="--.HHE">
      <acc value="0.0614765394" flag="0"/>
      <vel value="0.0218820514" flag="0"/>
      <psa03 value="0.1218567486" flag="0"/>
      <psa10 value="0.0146565445" flag="0"/>
      <psa30 value="0.0008867989" flag="0"/>
    </comp>
  </station>
</stationlist>
