<stationlist created="1778069550">
	<station code="IMMV" name="IMMV" netid="GE" source="GEOFON" insttype="" lat="35.4606" lon="23.9811">
		<comp name="--.HNE" depth="0.0">
			<acc value="0.016579205679301" flag="0"/>
			<vel value="0.0226221658204226" flag="0"/>
			<psa03 value="0.0700215533575953" flag="0"/>
			<psa10 value="0.0414438111463728" flag="0"/>
			<psa30 value="0.00608001845735695" flag="0"/>
		</comp>
		<comp name="--.HNN" depth="0.0">
			<acc value="0.0137947204133217" flag="0"/>
			<vel value="0.0249949740363402" flag="0"/>
			<psa03 value="0.044294784552089" flag="0"/>
			<psa10 value="0.0327459261797807" flag="0"/>
			<psa30 value="0.00555429752959225" flag="0"/>
		</comp>
		<comp name="--.HNZ" depth="0.0">
			<acc value="0.011901973007316" flag="0"/>
			<vel value="0.0148996391393536" flag="0"/>
			<psa03 value="0.0365096406005098" flag="0"/>
			<psa10 value="0.0226869832878609" flag="0"/>
			<psa30 value="0.00387064829454669" flag="0"/>
		</comp>
	</station>
	<station code="KARP" name="KARP" netid="GE" source="GEOFON" insttype="" lat="35.5471" lon="27.16106">
		<comp name="--.HNE" depth="0.0">
			<acc value="0.0131368149823782" flag="0"/>
			<vel value="0.0188949184226286" flag="0"/>
			<psa03 value="0.0171362651347981" flag="0"/>
			<psa10 value="0.0286506720080103" flag="0"/>
			<psa30 value="0.00572118596027841" flag="0"/>
		</comp>
		<comp name="--.HNN" depth="0.0">
			<acc value="0.0355856962364165" flag="0"/>
			<vel value="0.0159590639975338" flag="0"/>
			<psa03 value="0.0173152339612712" flag="0"/>
			<psa10 value="0.0253446703609862" flag="0"/>
			<psa30 value="0.00728045186092518" flag="0"/>
		</comp>
		<comp name="--.HNZ" depth="0.0">
			<acc value="0.00799656955924724" flag="0"/>
			<vel value="0.015484489681197" flag="0"/>
			<psa03 value="0.0147201859774114" flag="0"/>
			<psa10 value="0.0145971449092112" flag="0"/>
			<psa30 value="0.00600664123850298" flag="0"/>
		</comp>
	</station>
	<station code="KTHA" name="KTHA" netid="GE" source="GEOFON" insttype="" lat="36.2566" lon="23.0621">
		<comp name="--.HNE" depth="0.0">
			<acc value="0.00425510500975165" flag="0"/>
			<vel value="0.00941674471097013" flag="0"/>
			<psa03 value="0.00854576146408991" flag="0"/>
			<psa10 value="0.00848849143961852" flag="0"/>
			<psa30 value="0.00612252355364431" flag="0"/>
		</comp>
		<comp name="--.HNN" depth="0.0">
			<acc value="0.00206983474023667" flag="0"/>
			<vel value="0.004136469963929" flag="0"/>
			<psa03 value="0.00545854920742915" flag="0"/>
			<psa10 value="0.00691803998731718" flag="0"/>
			<psa30 value="0.0032724449920604" flag="0"/>
		</comp>
		<comp name="--.HNZ" depth="0.0">
			<acc value="0.00238944671686394" flag="0"/>
			<vel value="0.00415201136794229" flag="0"/>
			<psa03 value="0.00501112714124644" flag="0"/>
			<psa10 value="0.00550060688165033" flag="0"/>
			<psa30 value="0.00194762825409337" flag="0"/>
		</comp>
	</station>
	<station code="CH01" name="CH01" netid="HI" source="ITSAK Strong Motion Network" insttype="" lat="35.517" lon="24.0208">
		<comp name="--.HNE" depth="0.0">
			<acc value="0.0153127667975673" flag="0"/>
			<vel value="0.0292556887356302" flag="0"/>
			<psa03 value="0.0246082136400495" flag="0"/>
			<psa10 value="0.0332090080182798" flag="0"/>
			<psa30 value="0.00980033293766624" flag="0"/>
		</comp>
		<comp name="--.HNN" depth="0.0">
			<acc value="0.0114282075249548" flag="0"/>
			<vel value="0.0271797406673019" flag="0"/>
			<psa03 value="0.031453771252645" flag="0"/>
			<psa10 value="0.0350412013792981" flag="0"/>
			<psa30 value="0.0111707867263839" flag="0"/>
		</comp>
		<comp name="--.HNZ" depth="0.0">
			<acc value="0.00880384336722551" flag="0"/>
			<vel value="0.0180373498985533" flag="0"/>
			<psa03 value="0.0221473922760445" flag="0"/>
			<psa10 value="0.0271647833262175" flag="0"/>
			<psa30 value="0.0037771370827145" flag="0"/>
		</comp>
	</station>
	<station code="SIT2" name="SIT2" netid="HI" source="ITSAK Strong Motion Network" insttype="" lat="35.2059" lon="26.107">
		<comp name="--.HNE" depth="0.0">
			<acc value="0.254635426909472" flag="0"/>
			<vel value="0.199823012898998" flag="0"/>
			<psa03 value="0.719499424628428" flag="0"/>
			<psa10 value="0.184028722619547" flag="0"/>
			<psa30 value="0.0190932892522813" flag="0"/>
		</comp>
		<comp name="--.HNN" depth="0.0">
			<acc value="0.312657523109151" flag="0"/>
			<vel value="0.25837651548424" flag="0"/>
			<psa03 value="0.838558436439649" flag="0"/>
			<psa10 value="0.163471915788782" flag="0"/>
			<psa30 value="0.0176154541676798" flag="0"/>
		</comp>
		<comp name="--.HNZ" depth="0.0">
			<acc value="0.100420666785487" flag="0"/>
			<vel value="0.0733904133370076" flag="0"/>
			<psa03 value="0.342188396216542" flag="0"/>
			<psa10 value="0.0342358416601692" flag="0"/>
			<psa30 value="0.0159009328100676" flag="0"/>
		</comp>
	</station>
	<station code="IACM" name="IACM" netid="HL" source="National Observatory of Athens Seismic Network" insttype="" lat="35.3058" lon="25.0709">
		<comp name="--.HNE" depth="0.0">
			<acc value="0.128345067284249" flag="0"/>
			<vel value="0.166327157649675" flag="0"/>
			<psa03 value="0.304023293971157" flag="0"/>
			<psa10 value="0.348237542551333" flag="0"/>
			<psa30 value="0.0387789653201885" flag="0"/>
		</comp>
		<comp name="--.HNN" depth="0.0">
			<acc value="0.115632260803943" flag="0"/>
			<vel value="0.148088713391884" flag="0"/>
			<psa03 value="0.322099145444938" flag="0"/>
			<psa10 value="0.227506067056721" flag="0"/>
			<psa30 value="0.0353866112143911" flag="0"/>
		</comp>
		<comp name="--.HNZ" depth="0.0">
			<acc value="0.0854362682142838" flag="0"/>
			<vel value="0.0841179339083465" flag="0"/>
			<psa03 value="0.226082370042127" flag="0"/>
			<psa10 value="0.116752998482115" flag="0"/>
			<psa30 value="0.0157376237559109" flag="0"/>
		</comp>
	</station>
	<station code="IMMV" name="IMMV" netid="HL" source="National Observatory of Athens Seismic Network" insttype="" lat="35.4606" lon="23.9811">
		<comp name="--.HNE" depth="0.0">
			<acc value="0.016378084154864" flag="0"/>
			<vel value="0.0202449111113426" flag="0"/>
			<psa03 value="0.0685898027458106" flag="0"/>
			<psa10 value="0.0406022102398831" flag="0"/>
			<psa30 value="0.00595876707742143" flag="0"/>
		</comp>
		<comp name="--.HNN" depth="0.0">
			<acc value="0.0135948758690199" flag="0"/>
			<vel value="0.0228114260940377" flag="0"/>
			<psa03 value="0.0433999404197236" flag="0"/>
			<psa10 value="0.0320815044114994" flag="0"/>
			<psa30 value="0.00544288943511276" flag="0"/>
		</comp>
		<comp name="--.HNZ" depth="0.0">
			<acc value="0.0116023436039905" flag="0"/>
			<vel value="0.013335562298916" flag="0"/>
			<psa03 value="0.0357490230879991" flag="0"/>
			<psa10 value="0.0222279282479574" flag="0"/>
			<psa30 value="0.00379324427709708" flag="0"/>
		</comp>
	</station>
	<station code="KTHA" name="KTHA" netid="HL" source="National Observatory of Athens Seismic Network" insttype="" lat="36.2566" lon="23.0621">
		<comp name="--.HNE" depth="0.0">
			<acc value="0.0298120701107048" flag="0"/>
			<vel value="0.035335128627711" flag="0"/>
			<psa03 value="0.0768629355424591" flag="0"/>
			<psa10 value="0.0483031773483916" flag="0"/>
			<psa30 value="0.0136186113328238" flag="0"/>
		</comp>
		<comp name="--.HNN" depth="0.0">
			<acc value="0.0189256454122197" flag="0"/>
			<vel value="0.0165949585134529" flag="0"/>
			<psa03 value="0.0466236510880441" flag="0"/>
			<psa10 value="0.0409221371409507" flag="0"/>
			<psa30 value="0.00728441589014225" flag="0"/>
		</comp>
		<comp name="--.HNZ" depth="0.0">
			<acc value="0.0183220624889193" flag="0"/>
			<vel value="0.0180837504942943" flag="0"/>
			<psa03 value="0.0366257700275294" flag="0"/>
			<psa10 value="0.0335061521181454" flag="0"/>
			<psa30 value="0.00438684185674414" flag="0"/>
		</comp>
	</station>
</stationlist>
