<?xml version="1.0" encoding="UTF-8" standalone="yes"?>
<!DOCTYPE earthquake SYSTEM "stationlist.dtd">
<stationlist created="" xmlns="ch.ethz.sed.shakemap.usgs.xml">
  <station code="GVD" name="GVD" netid="GE" insttype="STS-2/N" lat="34.8391" lon="24.0874">
    <comp name="--.HHE">
      <acc value="0.0542944364" flag="0"/>
      <vel value="0.0433191080" flag="0"/>
      <psa03 value="0.1982240317" flag="0"/>
      <psa10 value="0.0439946724" flag="0"/>
      <psa30 value="0.0072393110" flag="0"/>
    </comp>
    <comp name="--.HHZ">
      <acc value="0.0317424711" flag="0"/>
      <vel value="0.0159423742" flag="0"/>
      <psa03 value="0.0595946622" flag="0"/>
      <psa10 value="0.0249775651" flag="0"/>
      <psa30 value="0.0046956903" flag="0"/>
    </comp>
    <comp name="--.HHN">
      <acc value="0.0540698150" flag="0"/>
      <vel value="0.0336825598" flag="0"/>
      <psa03 value="0.1869234632" flag="0"/>
      <psa10 value="0.0475951036" flag="0"/>
      <psa30 value="0.0055307390" flag="0"/>
    </comp>
  </station>
  <station code="ZKR" name="ZKR" netid="GE" insttype="STS-2/N" lat="35.1147" lon="26.2169">
    <comp name="--.HHE">
      <acc value="0.1279111352" flag="0"/>
      <vel value="0.0777059360" flag="0"/>
      <psa03 value="0.5319514998" flag="0"/>
      <psa10 value="0.0865105755" flag="0"/>
      <psa30 value="0.0182271009" flag="0"/>
    </comp>
    <comp name="--.HHZ">
      <acc value="0.0489956396" flag="0"/>
      <vel value="0.0451135443" flag="0"/>
      <psa03 value="0.1556505831" flag="0"/>
      <psa10 value="0.0613338023" flag="0"/>
      <psa30 value="0.0157701418" flag="0"/>
    </comp>
    <comp name="--.HHN">
      <acc value="0.0984103318" flag="0"/>
      <vel value="0.0443597904" flag="0"/>
      <psa03 value="0.2893567787" flag="0"/>
      <psa10 value="0.0403312264" flag="0"/>
      <psa30 value="0.0049857319" flag="0"/>
    </comp>
  </station>
  <station code="STIA" name="STIA" netid="HC" insttype="120" lat="35.2021" lon="26.0909">
    <comp name="--.HHE">
      <acc value="0.0662493459" flag="0"/>
      <vel value="0.0600300453" flag="0"/>
      <psa03 value="0.2676540894" flag="0"/>
      <psa10 value="0.0924547383" flag="0"/>
      <psa30 value="0.0186681474" flag="0"/>
    </comp>
    <comp name="--.HHN">
      <acc value="0.0845464262" flag="0"/>
      <vel value="0.0877419821" flag="0"/>
      <psa03 value="0.2480047376" flag="0"/>
      <psa10 value="0.0678968402" flag="0"/>
      <psa30 value="0.0112281417" flag="0"/>
    </comp>
    <comp name="--.HHZ">
      <acc value="0.0748837820" flag="0"/>
      <vel value="0.0596713409" flag="0"/>
      <psa03 value="0.1663940427" flag="0"/>
      <psa10 value="0.0522254544" flag="0"/>
      <psa30 value="0.0168620031" flag="0"/>
    </comp>
  </station>
  <station code="SIT2" name="SIT2" netid="HI" insttype="CMG-5TD,ACCELEROMETER,GURALP" lat="35.2059" lon="26.107">
    <comp name="--.HNE">
      <acc value="0.2548201860" flag="0"/>
      <vel value="0.1970169474" flag="0"/>
      <psa03 value="0.7215591268" flag="0"/>
      <psa10 value="0.1837197665" flag="0"/>
      <psa30 value="0.0190748858" flag="0"/>
    </comp>
    <comp name="--.HNN">
      <acc value="0.3122735091" flag="0"/>
      <vel value="0.2551112558" flag="0"/>
      <psa03 value="0.8270067285" flag="0"/>
      <psa10 value="0.1629121142" flag="0"/>
      <psa30 value="0.0176298784" flag="0"/>
    </comp>
    <comp name="--.HNZ">
      <acc value="0.1006795774" flag="0"/>
      <vel value="0.0674846524" flag="0"/>
      <psa03 value="0.3474085037" flag="0"/>
      <psa10 value="0.0340773694" flag="0"/>
      <psa30 value="0.0159945314" flag="0"/>
    </comp>
  </station>
  <station code="GVD" name="GVD" netid="HL" insttype="120" lat="34.8391" lon="24.0874">
    <comp name="--.HHE">
      <acc value="0.0532594961" flag="0"/>
      <vel value="0.0426185665" flag="0"/>
      <psa03 value="0.1923943504" flag="0"/>
      <psa10 value="0.0436938020" flag="0"/>
      <psa30 value="0.0072442773" flag="0"/>
    </comp>
    <comp name="--.HHN">
      <acc value="0.0529593852" flag="0"/>
      <vel value="0.0331522923" flag="0"/>
      <psa03 value="0.1821230979" flag="0"/>
      <psa10 value="0.0472948075" flag="0"/>
      <psa30 value="0.0055244301" flag="0"/>
    </comp>
    <comp name="--.HHZ">
      <acc value="0.0307500666" flag="0"/>
      <vel value="0.0157748297" flag="0"/>
      <psa03 value="0.0579340111" flag="0"/>
      <psa10 value="0.0247999775" flag="0"/>
      <psa30 value="0.0046991404" flag="0"/>
    </comp>
  </station>
  <station code="IACM" name="IACM" netid="HL" insttype="120" lat="35.3058" lon="25.0709">
    <comp name="--.HHE">
      <acc value="0.1253251756" flag="0"/>
      <vel value="0.1658846734" flag="0"/>
      <psa03 value="0.3166380892" flag="0"/>
      <psa10 value="0.3419173999" flag="0"/>
      <psa30 value="0.0378402246" flag="0"/>
    </comp>
    <comp name="--.HHN">
      <acc value="0.1158603154" flag="0"/>
      <vel value="0.1437981976" flag="0"/>
      <psa03 value="0.3139309880" flag="0"/>
      <psa10 value="0.2412669459" flag="0"/>
      <psa30 value="0.0343784794" flag="0"/>
    </comp>
    <comp name="--.HHZ">
      <acc value="0.0868380649" flag="0"/>
      <vel value="0.0832360322" flag="0"/>
      <psa03 value="0.2281978863" flag="0"/>
      <psa10 value="0.1193789995" flag="0"/>
      <psa30 value="0.0154410019" flag="0"/>
    </comp>
  </station>
  <station code="IDI" name="IDI" netid="HL" insttype="120" lat="35.288" lon="24.89">
    <comp name="--.HHE">
      <acc value="0.0157009351" flag="0"/>
      <vel value="0.0274739135" flag="0"/>
      <psa03 value="0.0468205294" flag="0"/>
      <psa10 value="0.0296908238" flag="0"/>
      <psa30 value="0.0108516426" flag="0"/>
    </comp>
    <comp name="--.HHN">
      <acc value="0.0154204540" flag="0"/>
      <vel value="0.0159634723" flag="0"/>
      <psa03 value="0.0416329396" flag="0"/>
      <psa10 value="0.0223325705" flag="0"/>
      <psa30 value="0.0086915460" flag="0"/>
    </comp>
    <comp name="--.HHZ">
      <acc value="0.0196860095" flag="0"/>
      <vel value="0.0173654238" flag="0"/>
      <psa03 value="0.0414014209" flag="0"/>
      <psa10 value="0.0165461521" flag="0"/>
      <psa30 value="0.0079567429" flag="0"/>
    </comp>
  </station>
  <station code="NPS" name="NPS" netid="HL" insttype="CMG3ESPC-120s" lat="35.2613" lon="25.6104">
    <comp name="--.HHE">
      <acc value="0.0200735380" flag="0"/>
      <vel value="0.0204083447" flag="0"/>
      <psa03 value="0.0488430695" flag="0"/>
      <psa10 value="0.0263559574" flag="0"/>
      <psa30 value="0.0037272279" flag="0"/>
    </comp>
    <comp name="--.HHN">
      <acc value="0.0488365697" flag="0"/>
      <vel value="0.0378864693" flag="0"/>
      <psa03 value="0.0981070039" flag="0"/>
      <psa10 value="0.0434976130" flag="0"/>
      <psa30 value="0.0093695447" flag="0"/>
    </comp>
    <comp name="--.HHZ">
      <acc value="0.0347865362" flag="0"/>
      <vel value="0.0310808695" flag="0"/>
      <psa03 value="0.0767473739" flag="0"/>
      <psa10 value="0.0294376174" flag="0"/>
      <psa30 value="0.0119753807" flag="0"/>
    </comp>
  </station>
  <station code="ZKR" name="ZKR" netid="HL" insttype="120" lat="35.1147" lon="26.2169">
    <comp name="--.HHE">
      <acc value="0.1243476278" flag="0"/>
      <vel value="0.0761863471" flag="0"/>
      <psa03 value="0.5164169465" flag="0"/>
      <psa10 value="0.0860969137" flag="0"/>
      <psa30 value="0.0182257209" flag="0"/>
    </comp>
    <comp name="--.HHN">
      <acc value="0.0955945982" flag="0"/>
      <vel value="0.0430587173" flag="0"/>
      <psa03 value="0.2809666419" flag="0"/>
      <psa10 value="0.0400976546" flag="0"/>
      <psa30 value="0.0049881747" flag="0"/>
    </comp>
    <comp name="--.HHZ">
      <acc value="0.0474806379" flag="0"/>
      <vel value="0.0447359183" flag="0"/>
      <psa03 value="0.1512979527" flag="0"/>
      <psa10 value="0.0610047787" flag="0"/>
      <psa30 value="0.0157784334" flag="0"/>
    </comp>
  </station>
  <station code="IDI" name="IDI" netid="MN" insttype="" lat="35.288" lon="24.89">
    <comp name="--.HHE">
      <acc value="0.0157962039" flag="0"/>
      <vel value="0.0272313653" flag="0"/>
      <psa03 value="0.0470890826" flag="0"/>
      <psa10 value="0.0294837222" flag="0"/>
      <psa30 value="0.0107146524" flag="0"/>
    </comp>
    <comp name="--.HHN">
      <acc value="0.0155304692" flag="0"/>
      <vel value="0.0157903254" flag="0"/>
      <psa03 value="0.0420764856" flag="0"/>
      <psa10 value="0.0221297259" flag="0"/>
      <psa30 value="0.0085822571" flag="0"/>
    </comp>
    <comp name="--.HHZ">
      <acc value="0.0200577810" flag="0"/>
      <vel value="0.0172318399" flag="0"/>
      <psa03 value="0.0416870980" flag="0"/>
      <psa10 value="0.0164240948" flag="0"/>
      <psa30 value="0.0078598630" flag="0"/>
    </comp>
  </station>
</stationlist>
