<?xml version="1.0" encoding="UTF-8" standalone="yes"?>
<!DOCTYPE earthquake SYSTEM "stationlist.dtd">
<stationlist created="" xmlns="ch.ethz.sed.shakemap.usgs.xml">
  <station code="ADVT" name="ADVT" netid="KO" insttype="120SN" lat="40.4332" lon="29.7383">
    <comp name="--.HHE">
      <acc value="0.0425947297" flag="0"/>
      <vel value="0.0204509495" flag="0"/>
      <psa03 value="0.1047055820" flag="0"/>
      <psa10 value="0.0180270021" flag="0"/>
      <psa30 value="0.0012182055" flag="0"/>
    </comp>
    <comp name="--.HHZ">
      <acc value="0.0285979564" flag="0"/>
      <vel value="0.0103634428" flag="0"/>
      <psa03 value="0.0638249167" flag="0"/>
      <psa10 value="0.0062760612" flag="0"/>
      <psa30 value="0.0005285754" flag="0"/>
    </comp>
    <comp name="--.HHN">
      <acc value="0.0459426090" flag="0"/>
      <vel value="0.0226976168" flag="0"/>
      <psa03 value="0.1422326404" flag="0"/>
      <psa10 value="0.0132694020" flag="0"/>
      <psa30 value="0.0010215313" flag="0"/>
    </comp>
  </station>
  <station code="CAVI" name="CAVI" netid="KO" insttype="120s," lat="40.2018" lon="29.8377">
    <comp name="--.HHZ">
      <acc value="0.0000363125" flag="0"/>
      <vel value="0.0000172832" flag="0"/>
      <psa03 value="0.0000921320" flag="0"/>
      <psa10 value="0.0000228785" flag="0"/>
      <psa30 value="0.0000017396" flag="0"/>
    </comp>
    <comp name="--.HHE">
      <acc value="0.0249567962" flag="0"/>
      <vel value="0.0155070862" flag="0"/>
      <psa03 value="0.0754314738" flag="0"/>
      <psa10 value="0.0141775380" flag="0"/>
      <psa30 value="0.0009555186" flag="0"/>
    </comp>
    <comp name="--.HHN">
      <acc value="0.0185139602" flag="0"/>
      <vel value="0.0127557284" flag="0"/>
      <psa03 value="0.0354086797" flag="0"/>
      <psa10 value="0.0117818515" flag="0"/>
      <psa30 value="0.0009228012" flag="0"/>
    </comp>
  </station>
  <station code="GPA" name="GPA" netid="KO" insttype="CMG-5T" lat="40.2911" lon="30.3171">
    <comp name="--.HNE">
      <acc value="0.0674509005" flag="0"/>
      <vel value="0.0239747282" flag="0"/>
      <psa03 value="0.1617986261" flag="0"/>
      <psa10 value="0.0169700301" flag="0"/>
      <psa30 value="0.0007838154" flag="0"/>
    </comp>
    <comp name="--.HNN">
      <acc value="0.0848359596" flag="0"/>
      <vel value="0.0320594849" flag="0"/>
      <psa03 value="0.2815957261" flag="0"/>
      <psa10 value="0.0190756626" flag="0"/>
      <psa30 value="0.0011285208" flag="0"/>
    </comp>
    <comp name="--.HNZ">
      <acc value="0.0249395400" flag="0"/>
      <vel value="0.0099216533" flag="0"/>
      <psa03 value="0.0776024900" flag="0"/>
      <psa10 value="0.0071304011" flag="0"/>
      <psa30 value="0.0007423273" flag="0"/>
    </comp>
  </station>
  <station code="HRTX" name="HRTX" netid="KO" insttype="-3ESP," lat="40.801" lon="29.673">
    <comp name="--.HHE">
      <acc value="0.0020166381" flag="0"/>
      <vel value="0.0009745471" flag="0"/>
      <psa03 value="0.0041604325" flag="0"/>
      <psa10 value="0.0003840454" flag="0"/>
      <psa30 value="0.0000350001" flag="0"/>
    </comp>
    <comp name="--.HHN">
      <acc value="0.0026398081" flag="0"/>
      <vel value="0.0009856914" flag="0"/>
      <psa03 value="0.0075680605" flag="0"/>
      <psa10 value="0.0011647873" flag="0"/>
      <psa30 value="0.0000670665" flag="0"/>
    </comp>
    <comp name="--.HHZ">
      <acc value="0.0009352978" flag="0"/>
      <vel value="0.0005125160" flag="0"/>
      <psa03 value="0.0023964650" flag="0"/>
      <psa10 value="0.0006068083" flag="0"/>
      <psa30 value="0.0000352212" flag="0"/>
    </comp>
  </station>
  <station code="IZI" name="IZI" netid="KO" insttype="CMG-5T" lat="40.3483" lon="29.4612">
    <comp name="--.HNN">
      <acc value="0.0287749837" flag="0"/>
      <vel value="0.0231278723" flag="0"/>
      <psa03 value="0.0959134147" flag="0"/>
      <psa10 value="0.0274084247" flag="0"/>
      <psa30 value="0.0022884612" flag="0"/>
    </comp>
    <comp name="--.HNE">
      <acc value="0.0389020637" flag="0"/>
      <vel value="0.0279634167" flag="0"/>
      <psa03 value="0.1215798689" flag="0"/>
      <psa10 value="0.0241566134" flag="0"/>
      <psa30 value="0.0015915625" flag="0"/>
    </comp>
    <comp name="--.HNZ">
      <acc value="0.0287894234" flag="0"/>
      <vel value="0.0187443698" flag="0"/>
      <psa03 value="0.0609306957" flag="0"/>
      <psa10 value="0.0128288538" flag="0"/>
      <psa30 value="0.0012613076" flag="0"/>
    </comp>
  </station>
  <station code="OSMT" name="OSMT" netid="KO" insttype="CMG-5T" lat="40.6009" lon="29.7">
    <comp name="--.HNZ">
      <acc value="0.0418845108" flag="0"/>
      <vel value="0.0156745293" flag="0"/>
      <psa03 value="0.0626099789" flag="0"/>
      <psa10 value="0.0105220819" flag="0"/>
      <psa30 value="0.0007534723" flag="0"/>
    </comp>
    <comp name="--.HNE">
      <acc value="0.0606164364" flag="0"/>
      <vel value="0.0229741136" flag="0"/>
      <psa03 value="0.1647222137" flag="0"/>
      <psa10 value="0.0164893159" flag="0"/>
      <psa30 value="0.0008692174" flag="0"/>
    </comp>
    <comp name="--.HNN">
      <acc value="0.0540148632" flag="0"/>
      <vel value="0.0281096653" flag="0"/>
      <psa03 value="0.0878541282" flag="0"/>
      <psa10 value="0.0144754935" flag="0"/>
      <psa30 value="0.0011954144" flag="0"/>
    </comp>
  </station>
  <station code="RUZG" name="RUZG" netid="KO" insttype="30s," lat="40.7243" lon="31.7936">
    <comp name="--.HHE">
      <acc value="0.0969053928" flag="0"/>
      <vel value="0.0356665056" flag="0"/>
      <psa03 value="0.1708705081" flag="0"/>
      <psa10 value="0.0346349365" flag="0"/>
      <psa30 value="0.0021331578" flag="0"/>
    </comp>
    <comp name="--.HHZ">
      <acc value="0.0419759803" flag="0"/>
      <vel value="0.0215435141" flag="0"/>
      <psa03 value="0.0705806515" flag="0"/>
      <psa10 value="0.0128907353" flag="0"/>
      <psa30 value="0.0012299297" flag="0"/>
    </comp>
    <comp name="--.HHN">
      <acc value="0.1149431068" flag="0"/>
      <vel value="0.0381257001" flag="0"/>
      <psa03 value="0.1866056451" flag="0"/>
      <psa10 value="0.0345421236" flag="0"/>
      <psa30 value="0.0025730933" flag="0"/>
    </comp>
  </station>
  <station code="SAFT" name="SAFT" netid="KO" insttype="CMG-5T" lat="41.2398" lon="32.6871">
    <comp name="--.HNE">
      <acc value="0.0094707366" flag="0"/>
      <vel value="0.0065316194" flag="0"/>
      <psa03 value="0.0192444393" flag="0"/>
      <psa10 value="0.0101882018" flag="0"/>
      <psa30 value="0.0006054160" flag="0"/>
    </comp>
    <comp name="--.HNN">
      <acc value="0.0144796299" flag="0"/>
      <vel value="0.0056333608" flag="0"/>
      <psa03 value="0.0213595583" flag="0"/>
      <psa10 value="0.0086929904" flag="0"/>
      <psa30 value="0.0008092571" flag="0"/>
    </comp>
    <comp name="--.HNZ">
      <acc value="0.0075586043" flag="0"/>
      <vel value="0.0059126704" flag="0"/>
      <psa03 value="0.0148817143" flag="0"/>
      <psa10 value="0.0116172612" flag="0"/>
      <psa30 value="0.0007581673" flag="0"/>
    </comp>
  </station>
  <station code="SAUV" name="SAUV" netid="KO" insttype="30s," lat="40.7402" lon="30.3272">
    <comp name="--.HHN">
      <acc value="0.2250286439" flag="0"/>
      <vel value="0.0522412418" flag="0"/>
      <psa03 value="0.1984744817" flag="0"/>
      <psa10 value="0.0225899167" flag="0"/>
      <psa30 value="0.0022416754" flag="0"/>
    </comp>
    <comp name="--.HHE">
      <acc value="0.2706005870" flag="0"/>
      <vel value="0.0753618747" flag="0"/>
      <psa03 value="0.2309196478" flag="0"/>
      <psa10 value="0.0366855913" flag="0"/>
      <psa30 value="0.0022212921" flag="0"/>
    </comp>
  </station>
  <station code="YLV" name="YLV" netid="KO" insttype="120s," lat="40.5658" lon="29.3708">
    <comp name="--.HHE">
      <acc value="0.0511662874" flag="0"/>
      <vel value="0.0261282245" flag="0"/>
      <psa03 value="0.1106854253" flag="0"/>
      <psa10 value="0.0411108513" flag="0"/>
      <psa30 value="0.0020850274" flag="0"/>
    </comp>
    <comp name="--.HHZ">
      <acc value="0.0324863247" flag="0"/>
      <vel value="0.0186471437" flag="0"/>
      <psa03 value="0.0593629029" flag="0"/>
      <psa10 value="0.0233692990" flag="0"/>
      <psa30 value="0.0014067778" flag="0"/>
    </comp>
    <comp name="--.HHN">
      <acc value="0.0524653075" flag="0"/>
      <vel value="0.0259978554" flag="0"/>
      <psa03 value="0.1605539280" flag="0"/>
      <psa10 value="0.0132746728" flag="0"/>
      <psa30 value="0.0016742297" flag="0"/>
    </comp>
  </station>
  <station code="BORA" name="BORA" netid="TU" insttype="T" lat="39.8801" lon="30.4534">
    <comp name="--.HHZ">
      <acc value="0.0287416931" flag="0"/>
      <vel value="0.0104257055" flag="0"/>
      <psa03 value="0.0727060356" flag="0"/>
      <psa10 value="0.0071836519" flag="0"/>
      <psa30 value="0.0005698082" flag="0"/>
    </comp>
    <comp name="--.HHN">
      <acc value="0.0527549167" flag="0"/>
      <vel value="0.0229715266" flag="0"/>
      <psa03 value="0.1071481631" flag="0"/>
      <psa10 value="0.0064169052" flag="0"/>
      <psa30 value="0.0011061065" flag="0"/>
    </comp>
    <comp name="--.HHE">
      <acc value="0.0628301005" flag="0"/>
      <vel value="0.0234131717" flag="0"/>
      <psa03 value="0.1325820856" flag="0"/>
      <psa10 value="0.0148222974" flag="0"/>
      <psa30 value="0.0010667162" flag="0"/>
    </comp>
  </station>
</stationlist>
