<?xml version="1.0" encoding="UTF-8" standalone="yes"?>
<!DOCTYPE earthquake SYSTEM "stationlist.dtd">
<stationlist created="" xmlns="ch.ethz.sed.shakemap.usgs.xml">
  <station code="GVD" name="GVD" netid="GE" source="GFZ" insttype="STS-2/N" lat="34.8391" lon="24.0874">
    <comp name="--.HHE">
      <acc value="0.0147668526" flag="0"/>
      <vel value="0.0075749472" flag="0"/>
      <psa03 value="0.0539953524" flag="0"/>
      <psa10 value="0.0050007911" flag="0"/>
      <psa30 value="0.0003612904" flag="0"/>
    </comp>
    <comp name="--.HHN">
      <acc value="0.0139058673" flag="0"/>
      <vel value="0.0071620907" flag="0"/>
      <psa03 value="0.0656556648" flag="0"/>
      <psa10 value="0.0045857087" flag="0"/>
      <psa30 value="0.0002700323" flag="0"/>
    </comp>
    <comp name="--.HHZ">
      <acc value="0.0113344462" flag="0"/>
      <vel value="0.0043857683" flag="0"/>
      <psa03 value="0.0348400082" flag="0"/>
      <psa10 value="0.0022637328" flag="0"/>
      <psa30 value="0.0001873677" flag="0"/>
    </comp>
  </station>
  <station code="KTHA" name="KTHA" netid="GE" source="GFZ" insttype="STS-2/N" lat="36.2566" lon="23.0621">
    <comp name="--.HHE">
      <acc value="0.0648131284" flag="0"/>
      <vel value="0.0265275556" flag="0"/>
      <psa03 value="0.1597790248" flag="0"/>
      <psa10 value="0.0099637657" flag="0"/>
      <psa30 value="0.0007435581" flag="0"/>
    </comp>
    <comp name="--.HHN">
      <acc value="0.0442027655" flag="0"/>
      <vel value="0.0121515834" flag="0"/>
      <psa03 value="0.0902232628" flag="0"/>
      <psa10 value="0.0051879330" flag="0"/>
      <psa30 value="0.0003772619" flag="0"/>
    </comp>
    <comp name="--.HHZ">
      <acc value="0.0310723870" flag="0"/>
      <vel value="0.0086542881" flag="0"/>
      <psa03 value="0.0461795522" flag="0"/>
      <psa10 value="0.0039121008" flag="0"/>
      <psa30 value="0.0003272948" flag="0"/>
    </comp>
  </station>
  <station code="CHAN" name="CHAN" netid="HC" source="NOA" insttype="120" lat="35.5193" lon="24.0428">
    <comp name="--.HHE">
      <acc value="0.4616759797" flag="0"/>
      <vel value="0.1756603795" flag="0"/>
      <psa03 value="1.0235295161" flag="0"/>
      <psa10 value="0.0633655453" flag="0"/>
      <psa30 value="0.0061909887" flag="0"/>
    </comp>
    <comp name="--.HHN">
      <acc value="0.4175127892" flag="0"/>
      <vel value="0.1135847023" flag="0"/>
      <psa03 value="0.6201395053" flag="0"/>
      <psa10 value="0.0691887892" flag="0"/>
      <psa30 value="0.0043686249" flag="0"/>
    </comp>
    <comp name="--.HHZ">
      <acc value="0.4272651352" flag="0"/>
      <vel value="0.0942861245" flag="0"/>
      <psa03 value="0.3403287457" flag="0"/>
      <psa10 value="0.0235500389" flag="0"/>
      <psa30 value="0.0019031786" flag="0"/>
    </comp>
  </station>
  <station code="KNDR" name="KNDR" netid="HC" source="NOA" insttype="60" lat="35.2348" lon="23.6248">
    <comp name="--.HHE">
      <acc value="0.1498901050" flag="0"/>
      <vel value="0.0491595341" flag="0"/>
      <psa03 value="0.3241594171" flag="0"/>
      <psa10 value="0.0230415811" flag="0"/>
      <psa30 value="0.0013797062" flag="0"/>
    </comp>
    <comp name="--.HHN">
      <acc value="0.1516626509" flag="0"/>
      <vel value="0.0401846580" flag="0"/>
      <psa03 value="0.1726644425" flag="0"/>
      <psa10 value="0.0152850011" flag="0"/>
      <psa30 value="0.0009728480" flag="0"/>
    </comp>
    <comp name="--.HHZ">
      <acc value="0.1715543958" flag="0"/>
      <vel value="0.0453427525" flag="0"/>
      <psa03 value="0.2153631740" flag="0"/>
      <psa10 value="0.0091635393" flag="0"/>
      <psa30 value="0.0008355358" flag="0"/>
    </comp>
  </station>
  <station code="PRNS" name="PRNS" netid="HC" source="NOA" insttype="120" lat="35.3445" lon="24.4266">
    <comp name="--.HHE">
      <acc value="0.1002136679" flag="0"/>
      <vel value="0.0315124226" flag="0"/>
      <psa03 value="0.1457823872" flag="0"/>
      <psa10 value="0.0194346329" flag="0"/>
      <psa30 value="0.0011480493" flag="0"/>
    </comp>
    <comp name="--.HHN">
      <acc value="0.0000000000" flag="0"/>
      <vel value="-100.0000000000" flag="0"/>
      <psa03 value="0.0000000000" flag="0"/>
      <psa10 value="0.0000000000" flag="0"/>
      <psa30 value="0.0000000000" flag="0"/>
    </comp>
    <comp name="--.HHZ">
      <acc value="0.0567361702" flag="0"/>
      <vel value="0.0177944996" flag="0"/>
      <psa03 value="0.0827934358" flag="0"/>
      <psa10 value="0.0115619001" flag="0"/>
      <psa30 value="0.0007309863" flag="0"/>
    </comp>
  </station>
  <station code="TMBK" name="TMBK" netid="HC" source="NOA" insttype="120" lat="35.0724" lon="24.7662">
    <comp name="--.HHE">
      <acc value="0.0421554657" flag="0"/>
      <vel value="0.0227413515" flag="0"/>
      <psa03 value="0.1194297284" flag="0"/>
      <psa10 value="0.0269645152" flag="0"/>
      <psa30 value="0.0027132490" flag="0"/>
    </comp>
    <comp name="--.HHN">
      <acc value="0.0000000000" flag="0"/>
      <vel value="-100.0000000000" flag="0"/>
      <psa03 value="0.0000000000" flag="0"/>
      <psa10 value="0.0000000000" flag="0"/>
      <psa30 value="0.0000000000" flag="0"/>
    </comp>
    <comp name="--.HHZ">
      <acc value="0.0552965164" flag="0"/>
      <vel value="0.0104354370" flag="0"/>
      <psa03 value="0.0515890177" flag="0"/>
      <psa10 value="0.0204658767" flag="0"/>
      <psa30 value="0.0011230218" flag="0"/>
    </comp>
  </station>
  <station code="CH01" name="CH01" netid="HI" source="NOA" insttype="CMG-5TD,ACCELEROMETER,GURALP" lat="35.517" lon="24.0208">
    <comp name="--.HNE">
      <acc value="0.1717417745" flag="0"/>
      <vel value="0.0483110674" flag="0"/>
      <psa03 value="0.2792520573" flag="0"/>
      <psa10 value="0.0252773973" flag="0"/>
      <psa30 value="0.0031440026" flag="0"/>
    </comp>
    <comp name="--.HNN">
      <acc value="0.1946717871" flag="0"/>
      <vel value="0.0408714518" flag="0"/>
      <psa03 value="0.1882599473" flag="0"/>
      <psa10 value="0.0336157376" flag="0"/>
      <psa30 value="0.0020762324" flag="0"/>
    </comp>
    <comp name="--.HNZ">
      <acc value="0.1208822536" flag="0"/>
      <vel value="0.0366614313" flag="0"/>
      <psa03 value="0.1598938308" flag="0"/>
      <psa10 value="0.0208193433" flag="0"/>
      <psa30 value="0.0012647011" flag="0"/>
    </comp>
  </station>
  <station code="ANKY" name="ANKY" netid="HL" source="NOA" insttype="60" lat="35.867" lon="23.3012">
    <comp name="--.HHE">
      <acc value="0.1601838299" flag="0"/>
      <vel value="0.0580769046" flag="0"/>
      <psa03 value="0.3784815273" flag="0"/>
      <psa10 value="0.0371854989" flag="0"/>
      <psa30 value="0.0024546221" flag="0"/>
    </comp>
    <comp name="--.HHN">
      <acc value="0.1649978768" flag="0"/>
      <vel value="0.0670000286" flag="0"/>
      <psa03 value="0.3660279573" flag="0"/>
      <psa10 value="0.0500087994" flag="0"/>
      <psa30 value="0.0028018981" flag="0"/>
    </comp>
    <comp name="--.HHZ">
      <acc value="0.1812515626" flag="0"/>
      <vel value="0.0566440133" flag="0"/>
      <psa03 value="0.2815620642" flag="0"/>
      <psa10 value="0.0240891073" flag="0"/>
      <psa30 value="0.0018039563" flag="0"/>
    </comp>
  </station>
  <station code="GVD" name="GVD" netid="HL" source="NOA" insttype="120" lat="34.8391" lon="24.0874">
    <comp name="--.HHE">
      <acc value="0.0143403102" flag="0"/>
      <vel value="0.0073867256" flag="0"/>
      <psa03 value="0.0524789947" flag="0"/>
      <psa10 value="0.0049560316" flag="0"/>
      <psa30 value="0.0003601136" flag="0"/>
    </comp>
    <comp name="--.HHN">
      <acc value="0.0136473895" flag="0"/>
      <vel value="0.0069836987" flag="0"/>
      <psa03 value="0.0637836376" flag="0"/>
      <psa10 value="0.0045448926" flag="0"/>
      <psa30 value="0.0002685235" flag="0"/>
    </comp>
    <comp name="--.HHZ">
      <acc value="0.0109538130" flag="0"/>
      <vel value="0.0042502914" flag="0"/>
      <psa03 value="0.0338675325" flag="0"/>
      <psa10 value="0.0022374485" flag="0"/>
      <psa30 value="0.0001867260" flag="0"/>
    </comp>
  </station>
  <station code="IACM" name="IACM" netid="HL" source="NOA" insttype="120" lat="35.3058" lon="25.0709">
    <comp name="--.HHE">
      <acc value="0.0451932188" flag="0"/>
      <vel value="0.0255161831" flag="0"/>
      <psa03 value="0.1600800253" flag="0"/>
      <psa10 value="0.0369104368" flag="0"/>
      <psa30 value="0.0016223540" flag="0"/>
    </comp>
    <comp name="--.HHN">
      <acc value="0.0507976008" flag="0"/>
      <vel value="0.0238722222" flag="0"/>
      <psa03 value="0.2281985232" flag="0"/>
      <psa10 value="0.0337703877" flag="0"/>
      <psa30 value="0.0013040465" flag="0"/>
    </comp>
    <comp name="--.HHZ">
      <acc value="0.0388539350" flag="0"/>
      <vel value="0.0150742924" flag="0"/>
      <psa03 value="0.0758816125" flag="0"/>
      <psa10 value="0.0180939763" flag="0"/>
      <psa30 value="0.0006422454" flag="0"/>
    </comp>
  </station>
  <station code="IDI" name="IDI" netid="HL" source="NOA" insttype="120" lat="35.288" lon="24.89">
    <comp name="--.HHE">
      <acc value="0.0117952246" flag="0"/>
      <vel value="0.0056289901" flag="0"/>
      <psa03 value="0.0273875887" flag="0"/>
      <psa10 value="0.0073172914" flag="0"/>
      <psa30 value="0.0004403729" flag="0"/>
    </comp>
    <comp name="--.HHN">
      <acc value="0.0103991162" flag="0"/>
      <vel value="0.0040948773" flag="0"/>
      <psa03 value="0.0247907525" flag="0"/>
      <psa10 value="0.0040000211" flag="0"/>
      <psa30 value="0.0003727728" flag="0"/>
    </comp>
    <comp name="--.HHZ">
      <acc value="0.0133398258" flag="0"/>
      <vel value="0.0050563442" flag="0"/>
      <psa03 value="0.0210785905" flag="0"/>
      <psa10 value="0.0061106562" flag="0"/>
      <psa30 value="0.0004442342" flag="0"/>
    </comp>
  </station>
  <station code="MHLO" name="MHLO" netid="HL" source="NOA" insttype="20" lat="36.6898" lon="24.4017">
    <comp name="--.HHE">
      <acc value="0.0294992459" flag="0"/>
      <vel value="0.0140496732" flag="0"/>
      <psa03 value="0.1251178536" flag="0"/>
      <psa10 value="0.0131674070" flag="0"/>
      <psa30 value="0.0006294985" flag="0"/>
    </comp>
    <comp name="--.HHN">
      <acc value="0.0299081927" flag="0"/>
      <vel value="0.0169375896" flag="0"/>
      <psa03 value="0.1133981299" flag="0"/>
      <psa10 value="0.0156712837" flag="0"/>
      <psa30 value="0.0007631890" flag="0"/>
    </comp>
    <comp name="--.HHZ">
      <acc value="0.0175687705" flag="0"/>
      <vel value="0.0080304292" flag="0"/>
      <psa03 value="0.0515071316" flag="0"/>
      <psa10 value="0.0087315030" flag="0"/>
      <psa30 value="0.0003670923" flag="0"/>
    </comp>
  </station>
  <station code="VLI" name="VLI" netid="HL" source="NOA" insttype="60" lat="36.718" lon="22.9469">
    <comp name="--.HHE">
      <acc value="0.0149740569" flag="0"/>
      <vel value="0.0070275007" flag="0"/>
      <psa03 value="0.0325048245" flag="0"/>
      <psa10 value="0.0046422858" flag="0"/>
      <psa30 value="0.0003071607" flag="0"/>
    </comp>
    <comp name="--.HHN">
      <acc value="0.0111459266" flag="0"/>
      <vel value="0.0065357441" flag="0"/>
      <psa03 value="0.0316109686" flag="0"/>
      <psa10 value="0.0092140472" flag="0"/>
      <psa30 value="0.0003374892" flag="0"/>
    </comp>
    <comp name="--.HHZ">
      <acc value="0.0142906623" flag="0"/>
      <vel value="0.0035675477" flag="0"/>
      <psa03 value="0.0210663430" flag="0"/>
      <psa10 value="0.0024595582" flag="0"/>
      <psa30 value="0.0002144831" flag="0"/>
    </comp>
  </station>
  <station code="IDI" name="IDI" netid="MN" source="INGV" insttype="" lat="35.288" lon="24.89">
    <comp name="--.HHE">
      <acc value="0.0125576383" flag="0"/>
      <vel value="0.0056065113" flag="0"/>
      <psa03 value="0.0277161480" flag="0"/>
      <psa10 value="0.0072689085" flag="0"/>
      <psa30 value="0.0004372086" flag="0"/>
    </comp>
    <comp name="--.HHN">
      <acc value="0.0105604054" flag="0"/>
      <vel value="0.0041418830" flag="0"/>
      <psa03 value="0.0250020021" flag="0"/>
      <psa10 value="0.0039719222" flag="0"/>
      <psa30 value="0.0003691444" flag="0"/>
    </comp>
    <comp name="--.HHZ">
      <acc value="0.0139189065" flag="0"/>
      <vel value="0.0050845005" flag="0"/>
      <psa03 value="0.0214643242" flag="0"/>
      <psa10 value="0.0060752575" flag="0"/>
      <psa30 value="0.0004393172" flag="0"/>
    </comp>
  </station>
</stationlist>
