<stationlist xmlns:esm="https://esm-db.eu/esmws/shakemap/1/" created="1781661273">
	<station code="KTHA" name="KTHA" netid="GE" source="GEOFON" insttype="" lat="36.2566" lon="23.0621" esm:processing="manual (Paolucci et al 2011)" esm:quality="good">
		<comp name="--.HNE" depth="0.0">
			<acc value="0.0606189583343963" flag="0"/>
			<vel value="0.0256169812855699" flag="0"/>
			<psa03 value="0.153599995320527" flag="0"/>
			<psa10 value="0.00986565655932892" flag="0"/>
			<psa30 value="0.00100669964891111" flag="0"/>
		</comp>
		<comp name="--.HNN" depth="0.0">
			<acc value="0.0412409432994828" flag="0"/>
			<vel value="0.0118826180855808" flag="0"/>
			<psa03 value="0.0884553424843233" flag="0"/>
			<psa10 value="0.00539591011816357" flag="0"/>
			<psa30 value="0.000710506241098155" flag="0"/>
		</comp>
		<comp name="--.HNZ" depth="0.0">
			<acc value="0.0288478789100378" flag="0"/>
			<vel value="0.00720085192993893" flag="0"/>
			<psa03 value="0.0445632377917987" flag="0"/>
			<psa10 value="0.00529926695186811" flag="0"/>
			<psa30 value="0.00151720822642559" flag="0"/>
		</comp>
	</station>
	<station code="CH01" name="CH01" netid="HI" source="ITSAK Strong Motion Network" insttype="" lat="35.517" lon="24.0208" esm:processing="manual (Paolucci et al 2011)" esm:quality="best">
		<comp name="--.HNE" depth="0.0">
			<acc value="0.174516784161612" flag="0"/>
			<vel value="0.0489453717878913" flag="0"/>
			<psa03 value="0.280533635496564" flag="0"/>
			<psa10 value="0.0253325899651993" flag="0"/>
			<psa30 value="0.0032957109395019" flag="0"/>
		</comp>
		<comp name="--.HNN" depth="0.0">
			<acc value="0.193242128938488" flag="0"/>
			<vel value="0.0417106652203089" flag="0"/>
			<psa03 value="0.193733754657117" flag="0"/>
			<psa10 value="0.0336801434539702" flag="0"/>
			<psa30 value="0.00224337423984015" flag="0"/>
		</comp>
		<comp name="--.HNZ" depth="0.0">
			<acc value="0.120357599618548" flag="0"/>
			<vel value="0.0372318429310945" flag="0"/>
			<psa03 value="0.161385139272106" flag="0"/>
			<psa10 value="0.020850763128247" flag="0"/>
			<psa30 value="0.00134316104268052" flag="0"/>
		</comp>
	</station>
	<station code="CHNB" name="CHNB" netid="HL" source="National Observatory of Athens Seismic Network" insttype="" lat="35.48765" lon="24.06605" esm:processing="manual (Paolucci et al 2011)" esm:quality="best">
		<comp name="00.HNE" depth="0.0">
			<acc value="0.289593746575678" flag="0"/>
			<vel value="0.100019365006999" flag="0"/>
			<psa03 value="0.423507430288911" flag="0"/>
			<psa10 value="0.0950532343102046" flag="0"/>
			<psa30 value="0.00462504138630479" flag="0"/>
		</comp>
		<comp name="00.HNN" depth="0.0">
			<acc value="0.346767088675721" flag="0"/>
			<vel value="0.136677011156914" flag="0"/>
			<psa03 value="0.58215923185846" flag="0"/>
			<psa10 value="0.0666798972161328" flag="0"/>
			<psa30 value="0.00339577182821978" flag="0"/>
		</comp>
		<comp name="00.HNZ" depth="0.0">
			<acc value="0.191402274478124" flag="0"/>
			<vel value="0.0704661439152051" flag="0"/>
			<psa03 value="0.494840947450955" flag="0"/>
			<psa10 value="0.0264231779058406" flag="0"/>
			<psa30 value="0.00172599631795292" flag="0"/>
		</comp>
	</station>
	<station code="HERG" name="HERG" netid="HL" source="National Observatory of Athens Seismic Network" insttype="" lat="35.32622" lon="25.06586" esm:processing="manual (Paolucci et al 2011)" esm:quality="good">
		<comp name="00.HNE" depth="0.0">
			<acc value="0.0182465825785889" flag="0"/>
			<vel value="0.0137762594110793" flag="0"/>
			<psa03 value="0.070862043221136" flag="0"/>
			<psa10 value="0.0372794420800713" flag="0"/>
			<psa30 value="0.00135483745966557" flag="0"/>
		</comp>
		<comp name="00.HNN" depth="0.0">
			<acc value="0.0239858355309996" flag="0"/>
			<vel value="0.0109135675051704" flag="0"/>
			<psa03 value="0.0741924878049838" flag="0"/>
			<psa10 value="0.0273666466560195" flag="0"/>
			<psa30 value="0.00120962315243082" flag="0"/>
		</comp>
		<comp name="00.HNZ" depth="0.0">
			<acc value="0.0162316735850414" flag="0"/>
			<vel value="0.010282853651868" flag="0"/>
			<psa03 value="0.0363719667559597" flag="0"/>
			<psa10 value="0.0129283664408089" flag="0"/>
			<psa30 value="0.000589401597045754" flag="0"/>
		</comp>
	</station>
	<station code="IACM" name="IACM" netid="HL" source="National Observatory of Athens Seismic Network" insttype="" lat="35.3058" lon="25.0709" esm:processing="manual (Paolucci et al 2011)" esm:quality="good">
		<comp name="--.HNE" depth="0.0">
			<acc value="0.0436742838614495" flag="0"/>
			<vel value="0.0253714936196677" flag="0"/>
			<psa03 value="0.162995858710364" flag="0"/>
			<psa10 value="0.0361163566043351" flag="0"/>
			<psa30 value="0.00163935445049348" flag="0"/>
		</comp>
		<comp name="--.HNN" depth="0.0">
			<acc value="0.049834768840223" flag="0"/>
			<vel value="0.0238075949882705" flag="0"/>
			<psa03 value="0.225634947975944" flag="0"/>
			<psa10 value="0.0335754466904835" flag="0"/>
			<psa30 value="0.00139058778169589" flag="0"/>
		</comp>
		<comp name="--.HNZ" depth="0.0">
			<acc value="0.0394585132442426" flag="0"/>
			<vel value="0.0149325184595749" flag="0"/>
			<psa03 value="0.0760170090444437" flag="0"/>
			<psa10 value="0.0178467713758962" flag="0"/>
			<psa30 value="0.000663974346215153" flag="0"/>
		</comp>
	</station>
	<station code="KTHA" name="KTHA" netid="HL" source="National Observatory of Athens Seismic Network" insttype="" lat="36.2566" lon="23.0621" esm:processing="manual (Paolucci et al 2011)" esm:quality="good">
		<comp name="--.HNE" depth="0.0">
			<acc value="0.816388145812775" flag="0"/>
			<vel value="0.266191219721118" flag="0"/>
			<psa03 value="1.77613137612553" flag="0"/>
			<psa10 value="0.113539613202791" flag="0"/>
			<psa30 value="0.0087166766933717" flag="0"/>
		</comp>
		<comp name="--.HNN" depth="0.0">
			<acc value="0.492512567509992" flag="0"/>
			<vel value="0.147248774995373" flag="0"/>
			<psa03 value="0.993948120024907" flag="0"/>
			<psa10 value="0.0389914908016253" flag="0"/>
			<psa30 value="0.00336237682736312" flag="0"/>
		</comp>
		<comp name="--.HNZ" depth="0.0">
			<acc value="0.348818396342692" flag="0"/>
			<vel value="0.0800399685638255" flag="0"/>
			<psa03 value="0.539635754022976" flag="0"/>
			<psa10 value="0.0326372026176983" flag="0"/>
			<psa30 value="0.0041990560911248" flag="0"/>
		</comp>
	</station>
	<station code="MNVA" name="MNVA" netid="HL" source="National Observatory of Athens Seismic Network" insttype="" lat="36.68709" lon="23.03734" esm:processing="manual (Paolucci et al 2011)" esm:quality="best">
		<comp name="00.HNE" depth="0.0">
			<acc value="0.00527405151379431" flag="0"/>
			<vel value="0.0026555598235156" flag="0"/>
			<psa03 value="0.0192838910524751" flag="0"/>
			<psa10 value="0.00363619913186695" flag="0"/>
			<psa30 value="0.000195523442921848" flag="0"/>
		</comp>
		<comp name="00.HNN" depth="0.0">
			<acc value="0.00643116290545304" flag="0"/>
			<vel value="0.00202760030972809" flag="0"/>
			<psa03 value="0.0104249341420573" flag="0"/>
			<psa10 value="0.00171138940314889" flag="0"/>
			<psa30 value="0.000120356535803151" flag="0"/>
		</comp>
		<comp name="00.HNZ" depth="0.0">
			<acc value="0.0075319492910263" flag="0"/>
			<vel value="0.00328416115637577" flag="0"/>
			<psa03 value="0.0204024462179319" flag="0"/>
			<psa10 value="0.00251272232368214" flag="0"/>
			<psa30 value="0.000143622483244652" flag="0"/>
		</comp>
	</station>
</stationlist>
