<stationlist xmlns:esm="https://esm-db.eu/esmws/shakemap/1/" created="1783994130">
	<station code="ARG2" name="ARG2" netid="HI" source="ITSAK Strong Motion Network" insttype="" lat="38.1783" lon="20.4878" esm:processing="manual (Paolucci et al 2011)" esm:quality="good">
		<comp name="--.HNE" depth="0.0">
			<acc value="0.0918106963346679" flag="0"/>
			<vel value="0.029563851290669" flag="0"/>
			<psa03 value="0.161743076925052" flag="0"/>
			<psa10 value="0.029379522553822" flag="0"/>
			<psa30 value="0.00247558629218898" flag="0"/>
		</comp>
		<comp name="--.HNN" depth="0.0">
			<acc value="0.0711329222281781" flag="0"/>
			<vel value="0.0199922445752049" flag="0"/>
			<psa03 value="0.110826445793459" flag="0"/>
			<psa10 value="0.0142991618131335" flag="0"/>
			<psa30 value="0.00140445786574755" flag="0"/>
		</comp>
		<comp name="--.HNZ" depth="0.0">
			<acc value="0.0537184047065076" flag="0"/>
			<vel value="0.0143524736070022" flag="0"/>
			<psa03 value="0.096643166295467" flag="0"/>
			<psa10 value="0.00619724303869682" flag="0"/>
			<psa30 value="0.00100043573998456" flag="0"/>
		</comp>
	</station>
	<station code="KLV1" name="KLV1" netid="HI" source="ITSAK Strong Motion Network" insttype="" lat="38.03256" lon="22.10797" esm:processing="manual (Paolucci et al 2011)" esm:quality="good">
		<comp name="--.HNE" depth="0.0">
			<acc value="0.0178863090344335" flag="0"/>
			<vel value="0.0071636716047395" flag="0"/>
			<psa03 value="0.0667579796802428" flag="0"/>
			<psa10 value="0.00714168669545977" flag="0"/>
			<psa30 value="0.000308679979783713" flag="0"/>
		</comp>
		<comp name="--.HNN" depth="0.0">
			<acc value="0.0185079910847297" flag="0"/>
			<vel value="0.00741508433023178" flag="0"/>
			<psa03 value="0.0519069177453994" flag="0"/>
			<psa10 value="0.00535558775017129" flag="0"/>
			<psa30 value="0.000419855261267098" flag="0"/>
		</comp>
		<comp name="--.HNZ" depth="0.0">
			<acc value="0.0056963098472815" flag="0"/>
			<vel value="0.00361884747727456" flag="0"/>
			<psa03 value="0.0190824268775672" flag="0"/>
			<psa10 value="0.00312881633122751" flag="0"/>
			<psa30 value="0.000193915658460488" flag="0"/>
		</comp>
	</station>
	<station code="KRI1" name="KRI1" netid="HI" source="ITSAK Strong Motion Network" insttype="" lat="37.6621" lon="20.8172" esm:processing="manual (Paolucci et al 2011)" esm:quality="good">
		<comp name="--.HNE" depth="0.0">
			<acc value="0.431477085579558" flag="0"/>
			<vel value="0.10995465320066" flag="0"/>
			<psa03 value="0.380935147147966" flag="0"/>
			<psa10 value="0.0275231684012299" flag="0"/>
			<psa30 value="0.00307960608153564" flag="0"/>
		</comp>
		<comp name="--.HNN" depth="0.0">
			<acc value="0.25809136020112" flag="0"/>
			<vel value="0.107950186395349" flag="0"/>
			<psa03 value="0.329929031603136" flag="0"/>
			<psa10 value="0.0708474944917686" flag="0"/>
			<psa30 value="0.00517801557193259" flag="0"/>
		</comp>
		<comp name="--.HNZ" depth="0.0">
			<acc value="0.159625246810222" flag="0"/>
			<vel value="0.0487534861818471" flag="0"/>
			<psa03 value="0.193823239070353" flag="0"/>
			<psa10 value="0.0219098111589015" flag="0"/>
			<psa30 value="0.00303083707632173" flag="0"/>
		</comp>
	</station>
	<station code="ITM" name="ITM" netid="HL" source="National Observatory of Athens Seismic Network" insttype="" lat="37.17872" lon="21.92522" esm:processing="manual (Paolucci et al 2011)" esm:quality="good">
		<comp name="--.HNE" depth="0.0">
			<acc value="0.0132687391104475" flag="0"/>
			<vel value="0.00650947162778234" flag="0"/>
			<psa03 value="0.0289288695206302" flag="0"/>
			<psa10 value="0.00408535563476092" flag="0"/>
			<psa30 value="0.00149299942471796" flag="0"/>
		</comp>
		<comp name="--.HNN" depth="0.0">
			<acc value="0.0194649783779691" flag="0"/>
			<vel value="0.00828467769228352" flag="0"/>
			<psa03 value="0.0520081900790164" flag="0"/>
			<psa10 value="0.00441233229535996" flag="0"/>
			<psa30 value="0.00118087801903998" flag="0"/>
		</comp>
		<comp name="--.HNZ" depth="0.0">
			<acc value="0.00756653721517728" flag="0"/>
			<vel value="0.00372158477492257" flag="0"/>
			<psa03 value="0.0177522345921683" flag="0"/>
			<psa10 value="0.00468847246329086" flag="0"/>
			<psa30 value="0.000690540797022137" flag="0"/>
		</comp>
	</station>
	<station code="LXRA" name="LXRA" netid="HL" source="National Observatory of Athens Seismic Network" insttype="" lat="38.20006" lon="20.43718" esm:processing="manual (Paolucci et al 2011)" esm:quality="good">
		<comp name="00.HNE" depth="0.0">
			<acc value="0.0779081760157629" flag="0"/>
			<vel value="0.0393849419278886" flag="0"/>
			<psa03 value="0.140982693054174" flag="0"/>
			<psa10 value="0.0393820902654028" flag="0"/>
			<psa30 value="0.00487645309932544" flag="0"/>
		</comp>
		<comp name="00.HNN" depth="0.0">
			<acc value="0.0751684343897717" flag="0"/>
			<vel value="0.0346999218245815" flag="0"/>
			<psa03 value="0.205053532931539" flag="0"/>
			<psa10 value="0.041757901436833" flag="0"/>
			<psa30 value="0.00393597191620937" flag="0"/>
		</comp>
		<comp name="00.HNZ" depth="0.0">
			<acc value="0.0717640463134355" flag="0"/>
			<vel value="0.0212733499334487" flag="0"/>
			<psa03 value="0.10796294456989" flag="0"/>
			<psa10 value="0.0264077451902364" flag="0"/>
			<psa30 value="0.0018796201000336" flag="0"/>
		</comp>
	</station>
	<station code="PATC" name="PATC" netid="HL" source="National Observatory of Athens Seismic Network" insttype="" lat="38.26933" lon="21.76001" esm:processing="manual (Paolucci et al 2011)" esm:quality="good">
		<comp name="00.HNE" depth="0.0">
			<acc value="0.0141879396668509" flag="0"/>
			<vel value="0.00857091096405603" flag="0"/>
			<psa03 value="0.0510913220493426" flag="0"/>
			<psa10 value="0.012329334570406" flag="0"/>
			<psa30 value="0.00180430973499818" flag="0"/>
		</comp>
		<comp name="00.HNN" depth="0.0">
			<acc value="0.0133975850269581" flag="0"/>
			<vel value="0.0102198227384059" flag="0"/>
			<psa03 value="0.0427874360201465" flag="0"/>
			<psa10 value="0.0128447162119104" flag="0"/>
			<psa30 value="0.00163332986675437" flag="0"/>
		</comp>
		<comp name="00.HNZ" depth="0.0">
			<acc value="0.0104114628820516" flag="0"/>
			<vel value="0.00445281082014628" flag="0"/>
			<psa03 value="0.0220195159765339" flag="0"/>
			<psa10 value="0.00760809993678219" flag="0"/>
			<psa30 value="0.000689677666927338" flag="0"/>
		</comp>
	</station>
	<station code="ROD3" name="ROD3" netid="CL" source="Corinth Riff Laboratory (CRLNET)" insttype="" lat="38.30811" lon="21.89204" esm:processing="discarded" esm:quality="good">
		<comp name="00.HNE" depth="0.0">
			<acc value="0" flag="1"/>
			<vel value="0" flag="1"/>
			<psa03 value="0" flag="1"/>
			<psa10 value="0" flag="1"/>
			<psa30 value="0" flag="1"/>
		</comp>
		<comp name="00.HNN" depth="0.0">
			<acc value="0" flag="1"/>
			<vel value="0" flag="1"/>
			<psa03 value="0" flag="1"/>
			<psa10 value="0" flag="1"/>
			<psa30 value="0" flag="1"/>
		</comp>
		<comp name="00.HNZ" depth="0.0">
			<acc value="0" flag="1"/>
			<vel value="0" flag="1"/>
			<psa03 value="0" flag="1"/>
			<psa10 value="0" flag="1"/>
			<psa30 value="0" flag="1"/>
		</comp>
	</station>
	<station code="ARS1" name="ARS1" netid="HI" source="ITSAK Strong Motion Network" insttype="" lat="37.6349" lon="22.7293" esm:processing="discarded" esm:quality="bad">
		<comp name="--.HNE" depth="0.0">
			<acc value="0" flag="1"/>
			<vel value="0" flag="1"/>
			<psa03 value="0" flag="1"/>
			<psa10 value="0" flag="1"/>
			<psa30 value="0" flag="1"/>
		</comp>
		<comp name="--.HNN" depth="0.0">
			<acc value="0" flag="1"/>
			<vel value="0" flag="1"/>
			<psa03 value="0" flag="1"/>
			<psa10 value="0" flag="1"/>
			<psa30 value="0" flag="1"/>
		</comp>
		<comp name="--.HNZ" depth="0.0">
			<acc value="0" flag="1"/>
			<vel value="0" flag="1"/>
			<psa03 value="0" flag="1"/>
			<psa10 value="0" flag="1"/>
			<psa30 value="0" flag="1"/>
		</comp>
	</station>
	<station code="ART2" name="ART2" netid="HI" source="ITSAK Strong Motion Network" insttype="" lat="39.1474" lon="20.9937" esm:processing="discarded" esm:quality="bad">
		<comp name="--.HNE" depth="0.0">
			<acc value="0" flag="1"/>
			<vel value="0" flag="1"/>
			<psa03 value="0" flag="1"/>
			<psa10 value="0" flag="1"/>
			<psa30 value="0" flag="1"/>
		</comp>
		<comp name="--.HNN" depth="0.0">
			<acc value="0" flag="1"/>
			<vel value="0" flag="1"/>
			<psa03 value="0" flag="1"/>
			<psa10 value="0" flag="1"/>
			<psa30 value="0" flag="1"/>
		</comp>
		<comp name="--.HNZ" depth="0.0">
			<acc value="0" flag="1"/>
			<vel value="0" flag="1"/>
			<psa03 value="0" flag="1"/>
			<psa10 value="0" flag="1"/>
			<psa30 value="0" flag="1"/>
		</comp>
	</station>
	<station code="MSL1" name="MSL1" netid="HI" source="ITSAK Strong Motion Network" insttype="" lat="38.3727" lon="21.4243" esm:processing="discarded" esm:quality="bad">
		<comp name="--.HNE" depth="0.0">
			<acc value="0" flag="1"/>
			<vel value="0" flag="1"/>
			<psa03 value="0" flag="1"/>
			<psa10 value="0" flag="1"/>
			<psa30 value="0" flag="1"/>
		</comp>
		<comp name="--.HNN" depth="0.0">
			<acc value="0" flag="1"/>
			<vel value="0" flag="1"/>
			<psa03 value="0" flag="1"/>
			<psa10 value="0" flag="1"/>
			<psa30 value="0" flag="1"/>
		</comp>
		<comp name="--.HNZ" depth="0.0">
			<acc value="0" flag="1"/>
			<vel value="0" flag="1"/>
			<psa03 value="0" flag="1"/>
			<psa10 value="0" flag="1"/>
			<psa30 value="0" flag="1"/>
		</comp>
	</station>
	<station code="PYL1" name="PYL1" netid="HI" source="ITSAK Strong Motion Network" insttype="" lat="36.914188" lon="21.695161" esm:processing="discarded" esm:quality="good">
		<comp name="--.HNE" depth="0.0">
			<acc value="0" flag="1"/>
			<vel value="0" flag="1"/>
			<psa03 value="0" flag="1"/>
			<psa10 value="0" flag="1"/>
			<psa30 value="0" flag="1"/>
		</comp>
		<comp name="--.HNN" depth="0.0">
			<acc value="0" flag="1"/>
			<vel value="0" flag="1"/>
			<psa03 value="0" flag="1"/>
			<psa10 value="0" flag="1"/>
			<psa30 value="0" flag="1"/>
		</comp>
		<comp name="--.HNZ" depth="0.0">
			<acc value="0" flag="1"/>
			<vel value="0" flag="1"/>
			<psa03 value="0" flag="1"/>
			<psa10 value="0" flag="1"/>
			<psa30 value="0" flag="1"/>
		</comp>
	</station>
	<station code="DLFA" name="DLFA" netid="HL" source="National Observatory of Athens Seismic Network" insttype="" lat="38.47836" lon="22.49583" esm:processing="automatic (Paolucci et al 2011)" esm:quality="bad">
		<comp name="00.HNE" depth="0.0">
			<acc value="0" flag="1"/>
			<vel value="0" flag="1"/>
			<psa03 value="0" flag="1"/>
			<psa10 value="0" flag="1"/>
			<psa30 value="0" flag="1"/>
		</comp>
		<comp name="00.HNN" depth="0.0">
			<acc value="0" flag="1"/>
			<vel value="0" flag="1"/>
			<psa03 value="0" flag="1"/>
			<psa10 value="0" flag="1"/>
			<psa30 value="0" flag="1"/>
		</comp>
		<comp name="00.HNZ" depth="0.0">
			<acc value="0" flag="1"/>
			<vel value="0" flag="1"/>
			<psa03 value="0" flag="1"/>
			<psa10 value="0" flag="1"/>
			<psa30 value="0" flag="1"/>
		</comp>
	</station>
	<station code="PATG" name="PATG" netid="HL" source="National Observatory of Athens Seismic Network" insttype="" lat="38.23865" lon="21.72657" esm:processing="automatic (Paolucci et al 2011)" esm:quality="bad">
		<comp name="00.HNE" depth="0.0">
			<acc value="0" flag="1"/>
			<vel value="0" flag="1"/>
			<psa03 value="0" flag="1"/>
			<psa10 value="0" flag="1"/>
			<psa30 value="0" flag="1"/>
		</comp>
		<comp name="00.HNN" depth="0.0">
			<acc value="0" flag="1"/>
			<vel value="0" flag="1"/>
			<psa03 value="0" flag="1"/>
			<psa10 value="0" flag="1"/>
			<psa30 value="0" flag="1"/>
		</comp>
		<comp name="00.HNZ" depth="0.0">
			<acc value="0" flag="1"/>
			<vel value="0" flag="1"/>
			<psa03 value="0" flag="1"/>
			<psa10 value="0" flag="1"/>
			<psa30 value="0" flag="1"/>
		</comp>
	</station>
	<station code="RIOA" name="RIOA" netid="HL" source="National Observatory of Athens Seismic Network" insttype="" lat="38.29585" lon="21.79118" esm:processing="automatic (Paolucci et al 2011)" esm:quality="bad">
		<comp name="00.HNE" depth="0.0">
			<acc value="0" flag="1"/>
			<vel value="0" flag="1"/>
			<psa03 value="0" flag="1"/>
			<psa10 value="0" flag="1"/>
			<psa30 value="0" flag="1"/>
		</comp>
		<comp name="00.HNN" depth="0.0">
			<acc value="0" flag="1"/>
			<vel value="0" flag="1"/>
			<psa03 value="0" flag="1"/>
			<psa10 value="0" flag="1"/>
			<psa30 value="0" flag="1"/>
		</comp>
		<comp name="00.HNZ" depth="0.0">
			<acc value="0" flag="1"/>
			<vel value="0" flag="1"/>
			<psa03 value="0" flag="1"/>
			<psa10 value="0" flag="1"/>
			<psa30 value="0" flag="1"/>
		</comp>
	</station>
</stationlist>
