<?xml version="1.0" encoding="UTF-8" standalone="yes"?>
<!DOCTYPE earthquake SYSTEM "stationlist.dtd">
<stationlist created="" xmlns="ch.ethz.sed.shakemap.usgs.xml">
  <station code="ITM" name="ITM" netid="HL" source="NOA" insttype="DR24" lat="37.1787" lon="21.9252">
    <comp name="--.HHE">
      <acc value="0.0137597834" flag="0"/>
      <vel value="0.0065023231" flag="0"/>
      <psa03 value="0.0291598679" flag="0"/>
      <psa10 value="0.0041606777" flag="0"/>
      <psa30 value="0.0014308730" flag="0"/>
    </comp>
    <comp name="--.HHN">
      <acc value="0.0199093615" flag="0"/>
      <vel value="0.0085156904" flag="0"/>
      <psa03 value="0.0531101027" flag="0"/>
      <psa10 value="0.0045384942" flag="0"/>
      <psa30 value="0.0010657430" flag="0"/>
    </comp>
    <comp name="--.HHZ">
      <acc value="0.0081436181" flag="0"/>
      <vel value="0.0037966439" flag="0"/>
      <psa03 value="0.0188398686" flag="0"/>
      <psa10 value="0.0050760289" flag="0"/>
      <psa30 value="0.0007158291" flag="0"/>
    </comp>
  </station>
  <station code="RLS" name="RLS" netid="HL" source="NOA" insttype="120" lat="38.0559" lon="21.4647">
    <comp name="--.HHE">
      <acc value="0.0184647651" flag="0"/>
      <vel value="0.0087109170" flag="0"/>
      <psa03 value="0.0622843415" flag="0"/>
      <psa10 value="0.0062853123" flag="0"/>
      <psa30 value="0.0006681105" flag="0"/>
    </comp>
    <comp name="--.HHN">
      <acc value="0.0170381498" flag="0"/>
      <vel value="0.0076628183" flag="0"/>
      <psa03 value="0.0555019232" flag="0"/>
      <psa10 value="0.0064961504" flag="0"/>
      <psa30 value="0.0004779589" flag="0"/>
    </comp>
    <comp name="--.HHZ">
      <acc value="0.0081409761" flag="0"/>
      <vel value="0.0034314738" flag="0"/>
      <psa03 value="0.0251343116" flag="0"/>
      <psa10 value="0.0052713837" flag="0"/>
      <psa30 value="0.0003672194" flag="0"/>
    </comp>
  </station>
  <station code="VLS" name="VLS" netid="HL" source="NOA" insttype="120P," lat="38.1768" lon="20.5886">
    <comp name="--.HHE">
      <acc value="0.2647847115" flag="0"/>
      <vel value="0.0361485798" flag="0"/>
      <psa03 value="0.1337645803" flag="0"/>
      <psa10 value="0.0099918187" flag="0"/>
      <psa30 value="0.0013422222" flag="0"/>
    </comp>
    <comp name="--.HHN">
      <acc value="0.1299427067" flag="0"/>
      <vel value="0.0220199803" flag="0"/>
      <psa03 value="0.1029290150" flag="0"/>
      <psa10 value="0.0066725653" flag="0"/>
      <psa30 value="0.0004664316" flag="0"/>
    </comp>
    <comp name="--.HHZ">
      <acc value="0.0775748759" flag="0"/>
      <vel value="0.0106038149" flag="0"/>
      <psa03 value="0.0573427001" flag="0"/>
      <psa10 value="0.0060519647" flag="0"/>
      <psa30 value="0.0005881810" flag="0"/>
    </comp>
  </station>
  <station code="AMT" name="AMT" netid="HP" source="NOA" insttype="CMG-3T," lat="37.5324" lon="21.7089">
    <comp name="00.HHE">
      <acc value="0.0554035088" flag="0"/>
      <vel value="0.0261291937" flag="0"/>
      <psa03 value="0.1953977687" flag="0"/>
      <psa10 value="0.0151204104" flag="0"/>
      <psa30 value="0.0008982212" flag="0"/>
    </comp>
    <comp name="00.HHN">
      <acc value="0.0523282420" flag="0"/>
      <vel value="0.0278735001" flag="0"/>
      <psa03 value="0.1545040339" flag="0"/>
      <psa10 value="0.0188950030" flag="0"/>
      <psa30 value="0.0019000739" flag="0"/>
    </comp>
    <comp name="00.HHZ">
      <acc value="0.0366323071" flag="0"/>
      <vel value="0.0145742198" flag="0"/>
      <psa03 value="0.0991320713" flag="0"/>
      <psa10 value="0.0079215757" flag="0"/>
      <psa30 value="0.0006949273" flag="0"/>
    </comp>
  </station>
  <station code="DRO" name="DRO" netid="HP" source="NOA" insttype="120P," lat="37.952" lon="21.71">
    <comp name="--.HHE">
      <acc value="0.0353724554" flag="0"/>
      <vel value="0.0182277027" flag="0"/>
      <psa03 value="0.1253456569" flag="0"/>
      <psa10 value="0.0083664735" flag="0"/>
      <psa30 value="0.0015279877" flag="0"/>
    </comp>
    <comp name="--.HHN">
      <acc value="0.0450178750" flag="0"/>
      <vel value="0.0167764127" flag="0"/>
      <psa03 value="0.1833351935" flag="0"/>
      <psa10 value="0.0084060196" flag="0"/>
      <psa30 value="0.0012180610" flag="0"/>
    </comp>
    <comp name="--.HHZ">
      <acc value="0.0257243429" flag="0"/>
      <vel value="0.0102682912" flag="0"/>
      <psa03 value="0.0647316724" flag="0"/>
      <psa10 value="0.0050480797" flag="0"/>
      <psa30 value="0.0006373851" flag="0"/>
    </comp>
  </station>
  <station code="PYL" name="PYL" netid="HP" source="NOA" insttype="120s" lat="36.8955" lon="21.742">
    <comp name="--.HHE">
      <acc value="0.0154909703" flag="0"/>
      <vel value="0.0062376696" flag="0"/>
      <psa03 value="0.0285810889" flag="0"/>
      <psa10 value="0.0025618583" flag="0"/>
      <psa30 value="0.0004590115" flag="0"/>
    </comp>
    <comp name="--.HHN">
      <acc value="0.0011339592" flag="0"/>
      <vel value="0.0005287576" flag="0"/>
      <psa03 value="0.0034862896" flag="0"/>
      <psa10 value="0.0001508424" flag="0"/>
      <psa30 value="0.0000360593" flag="0"/>
    </comp>
    <comp name="--.HHZ">
      <acc value="0.0004009285" flag="0"/>
      <vel value="0.0001562635" flag="0"/>
      <psa03 value="0.0009982295" flag="0"/>
      <psa10 value="0.0001215183" flag="0"/>
      <psa30 value="0.0000159405" flag="0"/>
    </comp>
  </station>
  <station code="DMLN" name="DMLN" netid="HT" source="NOA" insttype="1s-100Hz," lat="38.2385" lon="20.3734">
    <comp name="--.HHE">
      <acc value="0.0721049678" flag="0"/>
      <vel value="0.0325346647" flag="0"/>
      <psa03 value="0.1041331366" flag="0"/>
      <psa10 value="0.0313329504" flag="0"/>
      <psa30 value="0.0036346896" flag="0"/>
    </comp>
    <comp name="--.HHN">
      <acc value="0.0881741762" flag="0"/>
      <vel value="0.0316231500" flag="0"/>
      <psa03 value="0.2437682485" flag="0"/>
      <psa10 value="0.0388148183" flag="0"/>
      <psa30 value="0.0020499973" flag="0"/>
    </comp>
    <comp name="--.HHZ">
      <acc value="0.0813388183" flag="0"/>
      <vel value="0.0194415925" flag="0"/>
      <psa03 value="0.0757083314" flag="0"/>
      <psa10 value="0.0154334579" flag="0"/>
      <psa30 value="0.0007976159" flag="0"/>
    </comp>
  </station>
  <station code="PSDA" name="PSDA" netid="HT" source="NOA" insttype="30" lat="38.114" lon="20.5841">
    <comp name="--.HHE">
      <acc value="0.1663707508" flag="0"/>
      <vel value="0.0371670623" flag="0"/>
      <psa03 value="0.2430230302" flag="0"/>
      <psa10 value="0.0163841719" flag="0"/>
      <psa30 value="0.0021014473" flag="0"/>
    </comp>
    <comp name="--.HHN">
      <acc value="0.1671042913" flag="0"/>
      <vel value="0.0283699021" flag="0"/>
      <psa03 value="0.1488002138" flag="0"/>
      <psa10 value="0.0107728875" flag="0"/>
      <psa30 value="0.0010303831" flag="0"/>
    </comp>
    <comp name="--.HHZ">
      <acc value="0.1157876833" flag="0"/>
      <vel value="0.0238189410" flag="0"/>
      <psa03 value="0.0569248940" flag="0"/>
      <psa10 value="0.0066131370" flag="0"/>
      <psa30 value="0.0006700312" flag="0"/>
    </comp>
  </station>
</stationlist>
