<?xml version="1.0" encoding="UTF-8" standalone="yes"?>
<!DOCTYPE earthquake SYSTEM "stationlist.dtd">
<stationlist created="" xmlns="ch.ethz.sed.shakemap.usgs.xml">
  <station code="ARPRA" name="ARPRA" netid="KO" insttype="CMG-5T" lat="39.0929" lon="38.3356">
    <comp name="--.HNE">
      <acc value="0.1563728630" flag="0"/>
      <vel value="0.0833080439" flag="0"/>
      <psa03 value="0.4696614733" flag="0"/>
      <psa10 value="0.0733556286" flag="0"/>
      <psa30 value="0.0056080135" flag="0"/>
    </comp>
    <comp name="--.HNN">
      <acc value="0.1200112908" flag="0"/>
      <vel value="0.0702062680" flag="0"/>
      <psa03 value="0.2815741902" flag="0"/>
      <psa10 value="0.0496431374" flag="0"/>
      <psa30 value="0.0033050876" flag="0"/>
    </comp>
    <comp name="--.HNZ">
      <acc value="0.0518825908" flag="0"/>
      <vel value="0.0309671760" flag="0"/>
      <psa03 value="0.1849523695" flag="0"/>
      <psa10 value="0.0221328930" flag="0"/>
      <psa30 value="0.0016833387" flag="0"/>
    </comp>
  </station>
  <station code="DARE" name="DARE" netid="KO" insttype="CMG-3ESP" lat="38.5712" lon="37.4832">
    <comp name="--.HHE">
      <acc value="0.0142125344" flag="0"/>
      <vel value="0.0036728400" flag="0"/>
      <psa03 value="0.0206655019" flag="0"/>
      <psa10 value="0.0024571696" flag="0"/>
      <psa30 value="0.0002670922" flag="0"/>
    </comp>
    <comp name="--.HHZ">
      <acc value="0.0118533565" flag="0"/>
      <vel value="0.0048776162" flag="0"/>
      <psa03 value="0.0164650514" flag="0"/>
      <psa10 value="0.0052029102" flag="0"/>
      <psa30 value="0.0004385190" flag="0"/>
    </comp>
    <comp name="--.HHN">
      <acc value="0.0178098992" flag="0"/>
      <vel value="0.0043587269" flag="0"/>
      <psa03 value="0.0164032105" flag="0"/>
      <psa10 value="0.0023299739" flag="0"/>
      <psa30 value="0.0001759022" flag="0"/>
    </comp>
  </station>
  <station code="DYBB" name="DYBB" netid="KO" insttype="CMG-3T" lat="37.9532" lon="40.1393">
    <comp name="--.HHN">
      <acc value="0.0280465083" flag="0"/>
      <vel value="0.0109419265" flag="0"/>
      <psa03 value="0.0512787006" flag="0"/>
      <psa10 value="0.0100165631" flag="0"/>
      <psa30 value="0.0033290262" flag="0"/>
    </comp>
    <comp name="--.HHZ">
      <acc value="0.0250163440" flag="0"/>
      <vel value="0.0070313166" flag="0"/>
      <psa03 value="0.0243725928" flag="0"/>
      <psa10 value="0.0089875085" flag="0"/>
      <psa30 value="0.0010320711" flag="0"/>
    </comp>
    <comp name="--.HHE">
      <acc value="0.0244849604" flag="0"/>
      <vel value="0.0098433286" flag="0"/>
      <psa03 value="0.0384239555" flag="0"/>
      <psa10 value="0.0183843428" flag="0"/>
      <psa30 value="0.0016626373" flag="0"/>
    </comp>
  </station>
  <station code="GAZ" name="GAZ" netid="KO" insttype="CMG-3T" lat="37.1721" lon="37.2096">
    <comp name="--.HHN">
      <acc value="0.0088982442" flag="0"/>
      <vel value="0.0083962424" flag="0"/>
      <psa03 value="0.0240770361" flag="0"/>
      <psa10 value="0.0147174771" flag="0"/>
      <psa30 value="0.0012832479" flag="0"/>
    </comp>
    <comp name="--.HHE">
      <acc value="0.0093580182" flag="0"/>
      <vel value="0.0084655484" flag="0"/>
      <psa03 value="0.0274340615" flag="0"/>
      <psa10 value="0.0164708942" flag="0"/>
      <psa30 value="0.0016249810" flag="0"/>
    </comp>
    <comp name="--.HHZ">
      <acc value="0.0039424507" flag="0"/>
      <vel value="0.0023039067" flag="0"/>
      <psa03 value="0.0097390897" flag="0"/>
      <psa10 value="0.0017880605" flag="0"/>
      <psa30 value="0.0001527822" flag="0"/>
    </comp>
  </station>
  <station code="SVRC" name="SVRC" netid="KO" insttype="CMG-3T" lat="38.3775" lon="39.306">
    <comp name="--.HHE">
      <acc value="0.1417364988" flag="0"/>
      <vel value="0.0599638869" flag="0"/>
      <psa03 value="0.1648686720" flag="0"/>
      <psa10 value="0.0277537185" flag="0"/>
      <psa30 value="0.0024793463" flag="0"/>
    </comp>
    <comp name="--.HHN">
      <acc value="0.1571143836" flag="0"/>
      <vel value="0.0465532331" flag="0"/>
      <psa03 value="0.1205094296" flag="0"/>
      <psa10 value="0.0164705093" flag="0"/>
      <psa30 value="0.0023189351" flag="0"/>
    </comp>
    <comp name="--.HHZ">
      <acc value="0.1237675625" flag="0"/>
      <vel value="0.0325536361" flag="0"/>
      <psa03 value="0.1066213898" flag="0"/>
      <psa10 value="0.0275883582" flag="0"/>
      <psa30 value="0.0027295193" flag="0"/>
    </comp>
  </station>
  <station code="URFA" name="URFA" netid="KO" insttype="CMG-3ESP" lat="37.4409" lon="38.8213">
    <comp name="--.HHN">
      <acc value="0.0825025037" flag="0"/>
      <vel value="0.0217655252" flag="0"/>
      <psa03 value="0.0777319015" flag="0"/>
      <psa10 value="0.0113961506" flag="0"/>
      <psa30 value="0.0016549140" flag="0"/>
    </comp>
  </station>
</stationlist>
