<?xml version="1.0" encoding="UTF-8" standalone="yes"?>
<!DOCTYPE earthquake SYSTEM "stationlist.dtd">
<stationlist created="" xmlns="ch.ethz.sed.shakemap.usgs.xml">
  <station code="KARP" name="KARP" netid="GE" insttype="STS-2/N" lat="35.5471" lon="27.1611">
    <comp name="--.HHE">
      <acc value="0.0287264985" flag="0"/>
      <vel value="0.0099941863" flag="0"/>
      <psa03 value="0.0631363882" flag="0"/>
      <psa10 value="0.0103525978" flag="0"/>
      <psa30 value="0.0005542207" flag="0"/>
    </comp>
    <comp name="--.HHN">
      <acc value="0.0302724822" flag="0"/>
      <vel value="0.0120583601" flag="0"/>
      <psa03 value="0.0502148374" flag="0"/>
      <psa10 value="0.0097202922" flag="0"/>
      <psa30 value="0.0006695438" flag="0"/>
    </comp>
    <comp name="--.HHZ">
      <acc value="0.0199335370" flag="0"/>
      <vel value="0.0063187307" flag="0"/>
      <psa03 value="0.0421036446" flag="0"/>
      <psa10 value="0.0050587646" flag="0"/>
      <psa30 value="0.0004724366" flag="0"/>
    </comp>
  </station>
  <station code="ARG" name="ARG" netid="HL" insttype="LE3D20_DR24" lat="36.2136" lon="28.1212">
    <comp name="--.HHE">
      <acc value="0.0420707023" flag="0"/>
      <vel value="0.0245499569" flag="0"/>
      <psa03 value="0.0807364890" flag="0"/>
      <psa10 value="0.0161388787" flag="0"/>
      <psa30 value="0.0014381060" flag="0"/>
    </comp>
    <comp name="--.HHN">
      <acc value="0.0297689611" flag="0"/>
      <vel value="0.0119519297" flag="0"/>
      <psa03 value="0.0570661336" flag="0"/>
      <psa10 value="0.0113933722" flag="0"/>
      <psa30 value="0.0008765145" flag="0"/>
    </comp>
    <comp name="--.HHZ">
      <acc value="0.0150850386" flag="0"/>
      <vel value="0.0068320141" flag="0"/>
      <psa03 value="0.0362206792" flag="0"/>
      <psa10 value="0.0117661074" flag="0"/>
      <psa30 value="0.0008315470" flag="0"/>
    </comp>
  </station>
  <station code="KARP" name="KARP" netid="HL" insttype="120" lat="35.5471" lon="27.1611">
    <comp name="--.HHE">
      <acc value="0.0271414039" flag="0"/>
      <vel value="0.0098533592" flag="0"/>
      <psa03 value="0.0618174343" flag="0"/>
      <psa10 value="0.0102849846" flag="0"/>
      <psa30 value="0.0005486813" flag="0"/>
    </comp>
    <comp name="--.HHN">
      <acc value="0.0288951239" flag="0"/>
      <vel value="0.0117377523" flag="0"/>
      <psa03 value="0.0489938096" flag="0"/>
      <psa10 value="0.0096638788" flag="0"/>
      <psa30 value="0.0006623519" flag="0"/>
    </comp>
    <comp name="--.HHZ">
      <acc value="0.0172689401" flag="0"/>
      <vel value="0.0062049407" flag="0"/>
      <psa03 value="0.0409653143" flag="0"/>
      <psa10 value="0.0050277490" flag="0"/>
      <psa30 value="0.0004709927" flag="0"/>
    </comp>
  </station>
  <station code="KLNA" name="KLNA" netid="HL" insttype="CMG-5" lat="36.9571" lon="26.9727">
    <comp name="00.HNZ">
      <acc value="0.0775762916" flag="0"/>
      <vel value="0.0145851899" flag="0"/>
      <psa03 value="0.0544919530" flag="0"/>
      <psa10 value="0.0034102834" flag="0"/>
      <psa30 value="0.0003883687" flag="0"/>
    </comp>
    <comp name="00.HNE">
      <acc value="0.0550911586" flag="0"/>
      <vel value="0.0200268695" flag="0"/>
      <psa03 value="0.1962513185" flag="0"/>
      <psa10 value="0.0090224724" flag="0"/>
      <psa30 value="0.0007776725" flag="0"/>
    </comp>
    <comp name="00.HNN">
      <acc value="0.0490780675" flag="0"/>
      <vel value="0.0161396592" flag="0"/>
      <psa03 value="0.1169246739" flag="0"/>
      <psa10 value="0.0067507454" flag="0"/>
      <psa30 value="0.0003923492" flag="0"/>
    </comp>
  </station>
  <station code="NISR" name="NISR" netid="HL" insttype="65535" lat="36.6106" lon="27.131">
    <comp name="--.HHN">
      <acc value="0.9966379380" flag="0"/>
      <vel value="0.2180310786" flag="0"/>
      <psa03 value="0.5093571086" flag="0"/>
      <psa10 value="0.0941972440" flag="0"/>
      <psa30 value="0.0633139753" flag="0"/>
    </comp>
    <comp name="--.HHZ">
      <acc value="0.6320174241" flag="0"/>
      <vel value="0.1044775268" flag="0"/>
      <psa03 value="0.3123623133" flag="0"/>
      <psa10 value="0.0720996804" flag="0"/>
      <psa30 value="0.0038742525" flag="0"/>
    </comp>
    <comp name="--.HHE">
      <acc value="0.8344956140" flag="0"/>
      <vel value="0.2641733687" flag="0"/>
      <psa03 value="0.8987522588" flag="0"/>
      <psa10 value="0.2230417676" flag="0"/>
      <psa30 value="0.0121875512" flag="0"/>
    </comp>
  </station>
</stationlist>
