<stationlist created="1675692189">
	<station code="ARPRA" name="ARPRA" netid="KO" source="Bogazici University Kandilli Observatory And Earthquake Research Institute (KOERI)" insttype="" lat="39.0929" lon="38.3356">
		<comp name=".HNE" depth="0.0">
			<acc value="0.0113273905679" flag="0"/>
			<vel value="0.00772483395659" flag="0"/>
			<psa03 value="0.0326911083338" flag="0"/>
			<psa10 value="0.0109755136364" flag="0"/>
			<psa30 value="0.00145301365086" flag="0"/>
		</comp>
		<comp name=".HNN" depth="0.0">
			<acc value="0.0100860536628" flag="0"/>
			<vel value="0.0122911635903" flag="0"/>
			<psa03 value="0.034165716436" flag="0"/>
			<psa10 value="0.0206063888221" flag="0"/>
			<psa30 value="0.00119589120109" flag="0"/>
		</comp>
		<comp name=".HNZ" depth="0.0">
			<acc value="0.00697631364348" flag="0"/>
			<vel value="0.00706671521395" flag="0"/>
			<psa03 value="0.015185995581" flag="0"/>
			<psa10 value="0.0152173596379" flag="0"/>
			<psa30 value="0.00078093829583" flag="0"/>
		</comp>
	</station>
	<station code="KHMN" name="KHMN" netid="KO" source="Bogazici University Kandilli Observatory And Earthquake Research Institute (KOERI)" insttype="" lat="37.3916" lon="37.1574">
		<comp name=".HNE" depth="0.0">
			<acc value="0.668211704395" flag="0"/>
			<vel value="0.175531208799" flag="0"/>
			<psa03 value="0.651772760081" flag="0"/>
			<psa10 value="0.100448251704" flag="0"/>
			<psa30 value="0.00681665490326" flag="0"/>
		</comp>
		<comp name=".HNN" depth="0.0">
			<acc value="1.10993742832" flag="0"/>
			<vel value="0.212487504379" flag="0"/>
			<psa03 value="0.688837507105" flag="0"/>
			<psa10 value="0.104197787592" flag="0"/>
			<psa30 value="0.00869946046322" flag="0"/>
		</comp>
		<comp name=".HNZ" depth="0.0">
			<acc value="0.525922905732" flag="0"/>
			<vel value="0.104546206159" flag="0"/>
			<psa03 value="0.436527876163" flag="0"/>
			<psa10 value="0.0554291556594" flag="0"/>
			<psa30 value="0.00630434888218" flag="0"/>
		</comp>
	</station>
</stationlist>
