<?xml version="1.0" encoding="UTF-8" standalone="yes"?>
<!DOCTYPE earthquake SYSTEM "stationlist.dtd">
<stationlist created="" xmlns="ch.ethz.sed.shakemap.usgs.xml">
  <station code="KRBN" name="KRBN" netid="KO" insttype="100" lat="38.5936" lon="26.5537">
    <comp name="--.HNZ">
      <acc value="0.0530400346" flag="0"/>
      <vel value="0.0431796492" flag="0"/>
      <psa03 value="0.1161656089" flag="0"/>
      <psa10 value="0.0593377919" flag="0"/>
      <psa30 value="0.0025990019" flag="0"/>
    </comp>
    <comp name="--.HNN">
      <acc value="0.1179636694" flag="0"/>
      <vel value="0.0896376092" flag="0"/>
      <psa03 value="0.2017639644" flag="0"/>
      <psa10 value="0.1153156606" flag="0"/>
      <psa30 value="0.0060633049" flag="0"/>
    </comp>
    <comp name="--.HNE">
      <acc value="0.0760255290" flag="0"/>
      <vel value="0.0490204453" flag="0"/>
      <psa03 value="0.2353529920" flag="0"/>
      <psa10 value="0.0832103783" flag="0"/>
      <psa30 value="0.0057016643" flag="0"/>
    </comp>
  </station>
</stationlist>
