<stationlist created="1631873509">
	<station code="KLNA" name="KLNA" netid="HL" source="National Observatory of Athens Seismic Network" insttype="" lat="36.95708" lon="26.97274">
		<comp name="--.HNE" depth="0.0">
			<acc value="0.180122004" flag="0"/>
			<vel value="-0.076752" flag="0"/>
			<psa03 value="0.627777901061" flag="0"/>
			<psa10 value="0.0187246134697" flag="0"/>
			<psa30 value="0.00331897688694" flag="0"/>
		</comp>
		<comp name="--.HNN" depth="0.0">
			<acc value="0.089877912" flag="0"/>
			<vel value="-0.039724" flag="0"/>
			<psa03 value="0.218655163743" flag="0"/>
			<psa10 value="0.0280708130102" flag="0"/>
			<psa30 value="0.00305544528996" flag="0"/>
		</comp>
		<comp name="--.HNZ" depth="0.0">
			<acc value="0.091085694" flag="0"/>
			<vel value="-0.027543" flag="0"/>
			<psa03 value="0.112974071711" flag="0"/>
			<psa10 value="0.0178789857647" flag="0"/>
			<psa30 value="0.00390152041711" flag="0"/>
		</comp>
	</station>
	<station code="CESE" name="CESE" netid="KO" source="Bogazici University Kandilli Observatory And Earthquake Research Institute (KOERI)" insttype="" lat="38.3306" lon="26.2997">
		<comp name="--.HNE" depth="0.0">
			<acc value="-0.05668242" flag="0"/>
			<vel value="0.031251" flag="0"/>
			<psa03 value="0.0893501866167" flag="0"/>
			<psa10 value="0.0336036342807" flag="0"/>
			<psa30 value="0.00302725769979" flag="0"/>
		</comp>
		<comp name="--.HNN" depth="0.0">
			<acc value="0.122169786" flag="0"/>
			<vel value="-0.100625" flag="0"/>
			<psa03 value="0.309437100972" flag="0"/>
			<psa10 value="0.126763619791" flag="0"/>
			<psa30 value="0.00713727679975" flag="0"/>
		</comp>
		<comp name="--.HNZ" depth="0.0">
			<acc value="-0.040149852" flag="0"/>
			<vel value="-0.031337" flag="0"/>
			<psa03 value="0.111184383446" flag="0"/>
			<psa10 value="0.0544060758258" flag="0"/>
			<psa30 value="0.00237044210664" flag="0"/>
		</comp>
	</station>
	<station code="GMLD" name="GMLD" netid="KO" source="Bogazici University Kandilli Observatory And Earthquake Research Institute (KOERI)" insttype="" lat="38.0766" lon="26.9157">
		<comp name="--.HNE" depth="0.0">
			<acc value="1.828030434" flag="0"/>
			<vel value="-0.759164" flag="0"/>
			<psa03 value="4.15641676822" flag="0"/>
			<psa10 value="0.635404657601" flag="0"/>
			<psa30 value="0.0609822853545" flag="0"/>
		</comp>
		<comp name="--.HNN" depth="0.0">
			<acc value="-2.600131368" flag="0"/>
			<vel value="-1.251863" flag="0"/>
			<psa03 value="5.39058579558" flag="0"/>
			<psa10 value="0.754791182365" flag="0"/>
			<psa30 value="0.0955340069934" flag="0"/>
		</comp>
		<comp name="--.HNZ" depth="0.0">
			<acc value="-1.533546132" flag="0"/>
			<vel value="-0.427625" flag="0"/>
			<psa03 value="3.5904725967" flag="0"/>
			<psa10 value="0.218526306188" flag="0"/>
			<psa30 value="0.0549206112019" flag="0"/>
		</comp>
	</station>
</stationlist>
