<stationlist created="1778135778">
	<station code="MYT1" name="MYT1" netid="HI" source="ITSAK Strong Motion Network" insttype="" lat="39.085" lon="26.5694">
		<comp name="--.HNE" depth="0.0">
			<acc value="0.0299315982910955" flag="0"/>
			<vel value="0.0258782184876635" flag="0"/>
			<psa03 value="0.076404113481042" flag="0"/>
			<psa10 value="0.0448581203803388" flag="0"/>
			<psa30 value="0.0062653858843822" flag="0"/>
		</comp>
		<comp name="--.HNN" depth="0.0">
			<acc value="0.0274435235784244" flag="0"/>
			<vel value="0.0215271424561348" flag="0"/>
			<psa03 value="0.0744353945212095" flag="0"/>
			<psa10 value="0.0398614018722619" flag="0"/>
			<psa30 value="0.00589118317862913" flag="0"/>
		</comp>
		<comp name="--.HNZ" depth="0.0">
			<acc value="0.0201323175348313" flag="0"/>
			<vel value="0.0239229626890084" flag="0"/>
			<psa03 value="0.0716903480919014" flag="0"/>
			<psa10 value="0.0494812503899123" flag="0"/>
			<psa30 value="0.0040016055033919" flag="0"/>
		</comp>
	</station>
	<station code="NAX1" name="NAX1" netid="HI" source="ITSAK Strong Motion Network" insttype="" lat="37.101394" lon="25.374103">
		<comp name="--.HNE" depth="0.0">
			<acc value="0.0294962852992672" flag="0"/>
			<vel value="0.0101921373810047" flag="0"/>
			<psa03 value="0.048702965915603" flag="0"/>
			<psa10 value="0.00656736239927099" flag="0"/>
			<psa30 value="0.00111182104851995" flag="0"/>
		</comp>
		<comp name="--.HNN" depth="0.0">
			<acc value="0.0271295326508646" flag="0"/>
			<vel value="0.00911298611299786" flag="0"/>
			<psa03 value="0.0488673101361902" flag="0"/>
			<psa10 value="0.00719447753631612" flag="0"/>
			<psa30 value="0.00161119767144053" flag="0"/>
		</comp>
		<comp name="--.HNZ" depth="0.0">
			<acc value="0.020383120205275" flag="0"/>
			<vel value="0.00819011036449253" flag="0"/>
			<psa03 value="0.0299108486344058" flag="0"/>
			<psa10 value="0.00675045093424314" flag="0"/>
			<psa30 value="0.00124469985109118" flag="0"/>
		</comp>
	</station>
	<station code="KLNA" name="KLNA" netid="HL" source="National Observatory of Athens Seismic Network" insttype="" lat="36.95708" lon="26.97274">
		<comp name="00.HNE" depth="0.0">
			<acc value="0.18012204372674" flag="0"/>
			<vel value="0.0767520125093189" flag="0"/>
			<psa03 value="0.627777901060971" flag="0"/>
			<psa10 value="0.0187246134697467" flag="0"/>
			<psa30 value="0.0033189768869434" flag="0"/>
		</comp>
		<comp name="00.HNN" depth="0.0">
			<acc value="0.089877861285424" flag="0"/>
			<vel value="0.0397242750621301" flag="0"/>
			<psa03 value="0.218655163743494" flag="0"/>
			<psa10 value="0.0280708130102375" flag="0"/>
			<psa30 value="0.00305544528996178" flag="0"/>
		</comp>
		<comp name="00.HNZ" depth="0.0">
			<acc value="0.0910857103088897" flag="0"/>
			<vel value="0.0275435151702519" flag="0"/>
			<psa03 value="0.112974071711136" flag="0"/>
			<psa10 value="0.0178789857646614" flag="0"/>
			<psa30 value="0.0039015204171133" flag="0"/>
		</comp>
	</station>
	<station code="PRK" name="PRK" netid="HL" source="National Observatory of Athens Seismic Network" insttype="" lat="39.24565" lon="26.26499">
		<comp name="--.HNE" depth="0.0">
			<acc value="0.0392834210902768" flag="0"/>
			<vel value="0.035447999492265" flag="0"/>
			<psa03 value="0.119589276369128" flag="0"/>
			<psa10 value="0.0501687684345524" flag="0"/>
			<psa30 value="0.00254760959996477" flag="0"/>
		</comp>
		<comp name="--.HNN" depth="0.0">
			<acc value="0.0343763688368407" flag="0"/>
			<vel value="0.0269417683140915" flag="0"/>
			<psa03 value="0.112780939933787" flag="0"/>
			<psa10 value="0.04434225870715" flag="0"/>
			<psa30 value="0.00430993842893646" flag="0"/>
		</comp>
		<comp name="--.HNZ" depth="0.0">
			<acc value="0.0323988493172669" flag="0"/>
			<vel value="0.0271821739026655" flag="0"/>
			<psa03 value="0.0705167651397611" flag="0"/>
			<psa10 value="0.0167965001857021" flag="0"/>
			<psa30 value="0.00192052493368671" flag="0"/>
		</comp>
	</station>
	<station code="AKS" name="AKS" netid="KO" source="Bogazici University Kandilli Observatory And Earthquake Research Institute (KOERI)" insttype="" lat="38.8785" lon="27.8129">
		<comp name="--.HNE" depth="0.0">
			<acc value="0.0193788525282537" flag="0"/>
			<vel value="0.0126871959450233" flag="0"/>
			<psa03 value="0.0462186994366747" flag="0"/>
			<psa10 value="0.0112186608874655" flag="0"/>
			<psa30 value="0.00212346512610318" flag="0"/>
		</comp>
		<comp name="--.HNN" depth="0.0">
			<acc value="0.0317286039345194" flag="0"/>
			<vel value="0.0199357686845442" flag="0"/>
			<psa03 value="0.0690372248119933" flag="0"/>
			<psa10 value="0.0137595708013171" flag="0"/>
			<psa30 value="0.00321070074692718" flag="0"/>
		</comp>
		<comp name="--.HNZ" depth="0.0">
			<acc value="0.0133092486485968" flag="0"/>
			<vel value="0.00522770315028615" flag="0"/>
			<psa03 value="0.0275164570702371" flag="0"/>
			<psa10 value="0.00597174231734073" flag="0"/>
			<psa30 value="0.00213867747635339" flag="0"/>
		</comp>
	</station>
	<station code="CESE" name="CESE" netid="KO" source="Bogazici University Kandilli Observatory And Earthquake Research Institute (KOERI)" insttype="" lat="38.3306" lon="26.2997">
		<comp name="--.HNE" depth="0.0">
			<acc value="0.0570544284808057" flag="0"/>
			<vel value="0.0312680886555718" flag="0"/>
			<psa03 value="0.0893501866166887" flag="0"/>
			<psa10 value="0.033603634280653" flag="0"/>
			<psa30 value="0.00302725769979227" flag="0"/>
		</comp>
		<comp name="--.HNN" depth="0.0">
			<acc value="0.122575656151164" flag="0"/>
			<vel value="0.100671798243268" flag="0"/>
			<psa03 value="0.309437100971967" flag="0"/>
			<psa10 value="0.126763619790888" flag="0"/>
			<psa30 value="0.00713727679974671" flag="0"/>
		</comp>
		<comp name="--.HNZ" depth="0.0">
			<acc value="0.0405189001797458" flag="0"/>
			<vel value="0.0314190113414828" flag="0"/>
			<psa03 value="0.111184383446405" flag="0"/>
			<psa10 value="0.0544060758257523" flag="0"/>
			<psa30 value="0.00237044210663604" flag="0"/>
		</comp>
	</station>
	<station code="DATC" name="DATC" netid="KO" source="Bogazici University Kandilli Observatory And Earthquake Research Institute (KOERI)" insttype="" lat="36.7584" lon="27.6602">
		<comp name="--.HNE" depth="0.0">
			<acc value="0.109263658575891" flag="0"/>
			<vel value="0.091029343591019" flag="0"/>
			<psa03 value="0.397668732423199" flag="0"/>
			<psa10 value="0.0936834693276683" flag="0"/>
			<psa30 value="0.0326470459031543" flag="0"/>
		</comp>
		<comp name="--.HNN" depth="0.0">
			<acc value="0.140810010865261" flag="0"/>
			<vel value="0.183715579815035" flag="0"/>
			<psa03 value="0.423127047988996" flag="0"/>
			<psa10 value="0.158257211607423" flag="0"/>
			<psa30 value="0.0354282214665461" flag="0"/>
		</comp>
		<comp name="--.HNZ" depth="0.0">
			<acc value="0.130503744266401" flag="0"/>
			<vel value="0.0894134300665119" flag="0"/>
			<psa03 value="0.144383100757163" flag="0"/>
			<psa10 value="0.100702179279877" flag="0"/>
			<psa30 value="0.0180785360061789" flag="0"/>
		</comp>
	</station>
	<station code="EZNE" name="EZNE" netid="KO" source="Bogazici University Kandilli Observatory And Earthquake Research Institute (KOERI)" insttype="" lat="39.756" lon="26.3655">
		<comp name="--.HNE" depth="0.0">
			<acc value="0.0414263795602585" flag="0"/>
			<vel value="0.0295848506206224" flag="0"/>
			<psa03 value="0.142861865732142" flag="0"/>
			<psa10 value="0.0379485499653534" flag="0"/>
			<psa30 value="0.00489390255990656" flag="0"/>
		</comp>
		<comp name="--.HNN" depth="0.0">
			<acc value="0.0486385193942456" flag="0"/>
			<vel value="0.0311832179287346" flag="0"/>
			<psa03 value="0.146083304608657" flag="0"/>
			<psa10 value="0.0348761026368766" flag="0"/>
			<psa30 value="0.00520486089590355" flag="0"/>
		</comp>
		<comp name="--.HNZ" depth="0.0">
			<acc value="0.0236145343656771" flag="0"/>
			<vel value="0.0150415718023992" flag="0"/>
			<psa03 value="0.120535504629624" flag="0"/>
			<psa10 value="0.0175286542868403" flag="0"/>
			<psa30 value="0.00412075722954283" flag="0"/>
		</comp>
	</station>
	<station code="FOCM" name="FOCM" netid="KO" source="Bogazici University Kandilli Observatory And Earthquake Research Institute (KOERI)" insttype="" lat="38.7131" lon="26.7309">
		<comp name="--.HNE" depth="0.0">
			<acc value="0.0509666049212764" flag="0"/>
			<vel value="0.0384067895197723" flag="0"/>
			<psa03 value="0.199997663583675" flag="0"/>
			<psa10 value="0.0354438812388625" flag="0"/>
			<psa30 value="0.0039091265922384" flag="0"/>
		</comp>
		<comp name="--.HNN" depth="0.0">
			<acc value="0.0732086866503862" flag="0"/>
			<vel value="0.0414791937496621" flag="0"/>
			<psa03 value="0.235567717845201" flag="0"/>
			<psa10 value="0.0323392195216206" flag="0"/>
			<psa30 value="0.00460755243754962" flag="0"/>
		</comp>
		<comp name="--.HNZ" depth="0.0">
			<acc value="0.0464322891589047" flag="0"/>
			<vel value="0.020989270898439" flag="0"/>
			<psa03 value="0.0896186398563983" flag="0"/>
			<psa10 value="0.0162602127292123" flag="0"/>
			<psa30 value="0.00284381465265735" flag="0"/>
		</comp>
	</station>
	<station code="GMLD" name="GMLD" netid="KO" source="Bogazici University Kandilli Observatory And Earthquake Research Institute (KOERI)" insttype="" lat="38.0766" lon="26.9157">
		<comp name="--.HNE" depth="0.0">
			<acc value="1.84367474891638" flag="0"/>
			<vel value="0.762561707195125" flag="0"/>
			<psa03 value="4.15641676821759" flag="0"/>
			<psa10 value="0.635404657601122" flag="0"/>
			<psa30 value="0.0609822853545058" flag="0"/>
		</comp>
		<comp name="--.HNN" depth="0.0">
			<acc value="2.6093212565618" flag="0"/>
			<vel value="1.25587587518786" flag="0"/>
			<psa03 value="5.390585795576" flag="0"/>
			<psa10 value="0.754791182364788" flag="0"/>
			<psa30 value="0.0955340069934" flag="0"/>
		</comp>
		<comp name="--.HNZ" depth="0.0">
			<acc value="1.54855997561545" flag="0"/>
			<vel value="0.428612343566988" flag="0"/>
			<psa03 value="3.59047259670307" flag="0"/>
			<psa10 value="0.218526306188433" flag="0"/>
			<psa30 value="0.0549206112018624" flag="0"/>
		</comp>
	</station>
	<station code="GOMA" name="GOMA" netid="KO" source="Bogazici University Kandilli Observatory And Earthquake Research Institute (KOERI)" insttype="" lat="38.7077" lon="27.9175">
		<comp name="--.HNE" depth="0.0">
			<acc value="0.0654658337159531" flag="0"/>
			<vel value="0.0342931907426095" flag="0"/>
			<psa03 value="0.282994456860569" flag="0"/>
			<psa10 value="0.0217286052220975" flag="0"/>
			<psa30 value="0.00207290643262453" flag="0"/>
		</comp>
		<comp name="--.HNN" depth="0.0">
			<acc value="0.0319667287750421" flag="0"/>
			<vel value="0.021526983992429" flag="0"/>
			<psa03 value="0.105323154379412" flag="0"/>
			<psa10 value="0.0191836685096502" flag="0"/>
			<psa30 value="0.00198610655178508" flag="0"/>
		</comp>
		<comp name="--.HNZ" depth="0.0">
			<acc value="0.0303502483324928" flag="0"/>
			<vel value="0.0145310218240281" flag="0"/>
			<psa03 value="0.10536789658603" flag="0"/>
			<psa10 value="0.0178507981744919" flag="0"/>
			<psa30 value="0.00246082136400495" flag="0"/>
		</comp>
	</station>
	<station code="GORD" name="GORD" netid="KO" source="Bogazici University Kandilli Observatory And Earthquake Research Institute (KOERI)" insttype="" lat="38.9088" lon="28.1769">
		<comp name="--.HNE" depth="0.0">
			<acc value="0.077629300718064" flag="0"/>
			<vel value="0.0746577972483791" flag="0"/>
			<psa03 value="0.272256327272184" flag="0"/>
			<psa10 value="0.152776738718751" flag="0"/>
			<psa30 value="0.013286645677362" flag="0"/>
		</comp>
		<comp name="--.HNN" depth="0.0">
			<acc value="0.0545070281346151" flag="0"/>
			<vel value="0.0467500723990003" flag="0"/>
			<psa03 value="0.161922045751525" flag="0"/>
			<psa10 value="0.0755628756472683" flag="0"/>
			<psa30 value="0.0162821364104553" flag="0"/>
		</comp>
		<comp name="--.HNZ" depth="0.0">
			<acc value="0.0602878197327169" flag="0"/>
			<vel value="0.0529553035314124" flag="0"/>
			<psa03 value="0.229035355678933" flag="0"/>
			<psa10 value="0.0608167391900182" flag="0"/>
			<psa30 value="0.00715204172793074" flag="0"/>
		</comp>
	</station>
	<station code="KRBN" name="KRBN" netid="KO" source="Bogazici University Kandilli Observatory And Earthquake Research Institute (KOERI)" insttype="" lat="38.5936" lon="26.5537">
		<comp name="--.HNE" depth="0.0">
			<acc value="0.480047490715705" flag="0"/>
			<vel value="0.309201877488971" flag="0"/>
			<psa03 value="1.46955777637714" flag="0"/>
			<psa10 value="0.523435495850632" flag="0"/>
			<psa30 value="0.0385803099228034" flag="0"/>
		</comp>
		<comp name="--.HNN" depth="0.0">
			<acc value="0.731492904535344" flag="0"/>
			<vel value="0.563483488637652" flag="0"/>
			<psa03 value="1.26714403363607" flag="0"/>
			<psa10 value="0.72355933245697" flag="0"/>
			<psa30 value="0.0403735775640637" flag="0"/>
		</comp>
		<comp name="--.HNZ" depth="0.0">
			<acc value="0.333056703923897" flag="0"/>
			<vel value="0.271855960914647" flag="0"/>
			<psa03 value="0.730282296423432" flag="0"/>
			<psa10 value="0.372756719200212" flag="0"/>
			<psa30 value="0.0163595404279049" flag="0"/>
		</comp>
	</station>
	<station code="NAZL" name="NAZL" netid="KO" source="Bogazici University Kandilli Observatory And Earthquake Research Institute (KOERI)" insttype="" lat="37.9641" lon="28.2922">
		<comp name="--.HNE" depth="0.0">
			<acc value="0.217971448142768" flag="0"/>
			<vel value="0.14416137064665" flag="0"/>
			<psa03 value="0.867685612948144" flag="0"/>
			<psa10 value="0.117566411798436" flag="0"/>
			<psa30 value="0.008999000017133" flag="0"/>
		</comp>
		<comp name="--.HNN" depth="0.0">
			<acc value="0.155019456566614" flag="0"/>
			<vel value="0.0966657578921798" flag="0"/>
			<psa03 value="0.437802491759789" flag="0"/>
			<psa10 value="0.0748662394902218" flag="0"/>
			<psa30 value="0.00845582962878718" flag="0"/>
		</comp>
		<comp name="--.HNZ" depth="0.0">
			<acc value="0.0721423598811235" flag="0"/>
			<vel value="0.0415434121141844" flag="0"/>
			<psa03 value="0.242144822218087" flag="0"/>
			<psa10 value="0.0266936478905271" flag="0"/>
			<psa30 value="0.0052397598170658" flag="0"/>
		</comp>
	</station>
	<station code="SOMA" name="SOMA" netid="KO" source="Bogazici University Kandilli Observatory And Earthquake Research Institute (KOERI)" insttype="" lat="39.1564" lon="27.5341">
		<comp name="--.HNE" depth="0.0">
			<acc value="0.105124999292969" flag="0"/>
			<vel value="0.0662836186248181" flag="0"/>
			<psa03 value="0.26796107543683" flag="0"/>
			<psa10 value="0.061533509340043" flag="0"/>
			<psa30 value="0.00887774863719748" flag="0"/>
		</comp>
		<comp name="--.HNN" depth="0.0">
			<acc value="0.131488983288048" flag="0"/>
			<vel value="0.0604916257273483" flag="0"/>
			<psa03 value="0.303799582938065" flag="0"/>
			<psa10 value="0.0456034940956735" flag="0"/>
			<psa30 value="0.0143139267413175" flag="0"/>
		</comp>
		<comp name="--.HNZ" depth="0.0">
			<acc value="0.0821011429833537" flag="0"/>
			<vel value="0.035356803760905" flag="0"/>
			<psa03 value="0.170736260455325" flag="0"/>
			<psa10 value="0.033603634280653" flag="0"/>
			<psa30 value="0.0113783905650927" flag="0"/>
		</comp>
	</station>
	<station code="YKAV" name="YKAV" netid="KO" source="Bogazici University Kandilli Observatory And Earthquake Research Institute (KOERI)" insttype="" lat="37.1246" lon="27.2801">
		<comp name="--.HNE" depth="0.0">
			<acc value="0.0446932062885661" flag="0"/>
			<vel value="0.0293494301469666" flag="0"/>
			<psa03 value="0.129170750506951" flag="0"/>
			<psa10 value="0.0503269288483644" flag="0"/>
			<psa30 value="0.00330242227049464" flag="0"/>
		</comp>
		<comp name="--.HNN" depth="0.0">
			<acc value="0.0282388444909282" flag="0"/>
			<vel value="0.0245308078489685" flag="0"/>
			<psa03 value="0.0735561876804388" flag="0"/>
			<psa10 value="0.0488209061735934" flag="0"/>
			<psa30 value="0.00378295356957488" flag="0"/>
		</comp>
		<comp name="--.HNZ" depth="0.0">
			<acc value="0.0218885427154111" flag="0"/>
			<vel value="0.0207334106096595" flag="0"/>
			<psa03 value="0.0697083579112674" flag="0"/>
			<psa10 value="0.0292506649987613" flag="0"/>
			<psa30 value="0.0028813981062167" flag="0"/>
		</comp>
	</station>
</stationlist>
