<stationlist created="1642764508">
	<station code="MYT1" name="MYT1" netid="HI" source="ITSAK Strong Motion Network" insttype="" lat="39.085" lon="26.5694">
		<comp name=".HNE" depth="0.0">
			<acc value="0.029850504" flag="0"/>
			<vel value="0.025827" flag="0"/>
			<psa03 value="0.076419688904" flag="0"/>
			<psa10 value="0.0448585363555" flag="0"/>
			<psa30 value="0.00620977085655" flag="0"/>
		</comp>
		<comp name=".HNN" depth="0.0">
			<acc value="0.027454524" flag="0"/>
			<vel value="0.02143" flag="0"/>
			<psa03 value="0.0744510318128" flag="0"/>
			<psa10 value="0.0398532257011" flag="0"/>
			<psa30 value="0.00585093835947" flag="0"/>
		</comp>
		<comp name=".HNZ" depth="0.0">
			<acc value="0.025359648" flag="0"/>
			<vel value="0.023902" flag="0"/>
			<psa03 value="0.0717217572091" flag="0"/>
			<psa10 value="0.0494611671503" flag="0"/>
			<psa30 value="0.00402545632945" flag="0"/>
		</comp>
	</station>
	<station code="NAX1" name="NAX1" netid="HI" source="ITSAK Strong Motion Network" insttype="" lat="37.101394" lon="25.374103">
		<comp name=".HNE" depth="0.0">
			<acc value="0.029533386" flag="0"/>
			<vel value="0.010097" flag="0"/>
			<psa03 value="0.0487690052139" flag="0"/>
			<psa10 value="0.0065596549123" flag="0"/>
			<psa30 value="0.00105009958933" flag="0"/>
		</comp>
		<comp name=".HNN" depth="0.0">
			<acc value="0.027526638" flag="0"/>
			<vel value="0.008848" flag="0"/>
			<psa03 value="0.0489032318338" flag="0"/>
			<psa10 value="0.00718783549323" flag="0"/>
			<psa30 value="0.00158700606875" flag="0"/>
		</comp>
		<comp name=".HNZ" depth="0.0">
			<acc value="0.020835846" flag="0"/>
			<vel value="0.008222" flag="0"/>
			<psa03 value="0.0299325362276" flag="0"/>
			<psa10 value="0.0067489144463" flag="0"/>
			<psa30 value="0.0012357797468" flag="0"/>
		</comp>
	</station>
	<station code="RDI1" name="RDI1" netid="HI" source="ITSAK Strong Motion Network" insttype="" lat="36.4514" lon="28.224">
		<comp name=".HNE" depth="0.0">
			<acc value="0.009812298" flag="0"/>
			<vel value="0.021138" flag="0"/>
			<psa03 value="0.0131989509524" flag="0"/>
			<psa10 value="0.0248413205365" flag="0"/>
			<psa30 value="0.00668001144811" flag="0"/>
		</comp>
		<comp name=".HNN" depth="0.0">
			<acc value="0.007453854" flag="0"/>
			<vel value="0.016008" flag="0"/>
			<psa03 value="0.0137805996384" flag="0"/>
			<psa10 value="0.0180521381043" flag="0"/>
			<psa30 value="0.0109613931994" flag="0"/>
		</comp>
		<comp name=".HNZ" depth="0.0">
			<acc value="0.004328166" flag="0"/>
			<vel value="0.007034" flag="0"/>
			<psa03 value="0.0102907075222" flag="0"/>
			<psa10 value="0.00965223623376" flag="0"/>
			<psa30 value="0.0036093538079" flag="0"/>
		</comp>
	</station>
	<station code="ASTA" name="ASTA" netid="HL" source="National Observatory of Athens Seismic Network" insttype="" lat="36.54543" lon="26.3528">
		<comp name="00.HNE" depth="0.0">
			<acc value="0.011185014" flag="0"/>
			<vel value="0.012271" flag="0"/>
			<psa03 value="0.0288587232688" flag="0"/>
			<psa10 value="0.0137837315929" flag="0"/>
			<psa30 value="0.00168991314397" flag="0"/>
		</comp>
		<comp name="00.HNN" depth="0.0">
			<acc value="0.010829034" flag="0"/>
			<vel value="0.008924" flag="0"/>
			<psa03 value="0.0226395565488" flag="0"/>
			<psa10 value="0.00779588208117" flag="0"/>
			<psa30 value="0.0023708895287" flag="0"/>
		</comp>
		<comp name="00.HNZ" depth="0.0">
			<acc value="0.00931923" flag="0"/>
			<vel value="0.012543" flag="0"/>
			<psa03 value="0.0252793467393" flag="0"/>
			<psa10 value="0.0125233436325" flag="0"/>
			<psa30 value="0.00247737598045" flag="0"/>
		</comp>
	</station>
	<station code="KLNA" name="KLNA" netid="HL" source="National Observatory of Athens Seismic Network" insttype="" lat="36.95708" lon="26.97274">
		<comp name="00.HNE" depth="0.0">
			<acc value="0.180122004" flag="0"/>
			<vel value="0.076752" flag="0"/>
			<psa03 value="0.627777901061" flag="0"/>
			<psa10 value="0.0187246134697" flag="0"/>
			<psa30 value="0.00331897688694" flag="0"/>
		</comp>
		<comp name="00.HNN" depth="0.0">
			<acc value="0.089877912" flag="0"/>
			<vel value="0.039724" flag="0"/>
			<psa03 value="0.218655163743" flag="0"/>
			<psa10 value="0.0280708130102" flag="0"/>
			<psa30 value="0.00305544528996" flag="0"/>
		</comp>
		<comp name="00.HNZ" depth="0.0">
			<acc value="0.091085694" flag="0"/>
			<vel value="0.027543" flag="0"/>
			<psa03 value="0.112974071711" flag="0"/>
			<psa10 value="0.0178789857647" flag="0"/>
			<psa30 value="0.00390152041711" flag="0"/>
		</comp>
	</station>
	<station code="PRK" name="PRK" netid="HL" source="National Observatory of Athens Seismic Network" insttype="" lat="39.24565" lon="26.26499">
		<comp name=".HNE" depth="0.0">
			<acc value="0.039241134" flag="0"/>
			<vel value="0.035416" flag="0"/>
			<psa03 value="0.119595918291" flag="0"/>
			<psa10 value="0.0501658569045" flag="0"/>
			<psa30 value="0.00254762124484" flag="0"/>
		</comp>
		<comp name=".HNN" depth="0.0">
			<acc value="0.034296582" flag="0"/>
			<vel value="0.0269" flag="0"/>
			<psa03 value="0.112795102885" flag="0"/>
			<psa10 value="0.0443390793366" flag="0"/>
			<psa30 value="0.00430956934147" flag="0"/>
		</comp>
		<comp name=".HNZ" depth="0.0">
			<acc value="0.03236817" flag="0"/>
			<vel value="0.027155" flag="0"/>
			<psa03 value="0.0705137176304" flag="0"/>
			<psa10 value="0.0167957769424" flag="0"/>
			<psa30 value="0.00191944066392" flag="0"/>
		</comp>
	</station>
	<station code="RODB" name="RODB" netid="HL" source="National Observatory of Athens Seismic Network" insttype="" lat="36.4471" lon="28.22116">
		<comp name="00.HNE" depth="0.0">
			<acc value="0.00751128" flag="0"/>
			<vel value="0.013889" flag="0"/>
			<psa03 value="0.0111855516546" flag="0"/>
			<psa10 value="0.0172508051837" flag="0"/>
			<psa30 value="0.00895828460911" flag="0"/>
		</comp>
		<comp name="00.HNN" depth="0.0">
			<acc value="0.008416734" flag="0"/>
			<vel value="0.017523" flag="0"/>
			<psa03 value="0.0133779197789" flag="0"/>
			<psa10 value="0.0146253324994" flag="0"/>
			<psa30 value="0.00960659918301" flag="0"/>
		</comp>
		<comp name="00.HNZ" depth="0.0">
			<acc value="0.007120314" flag="0"/>
			<vel value="0.00608" flag="0"/>
			<psa03 value="0.00644287775303" flag="0"/>
			<psa10 value="0.00918915439526" flag="0"/>
			<psa30 value="0.00307602670501" flag="0"/>
		</comp>
	</station>
	<station code="THRA" name="THRA" netid="HL" source="National Observatory of Athens Seismic Network" insttype="" lat="36.41502" lon="25.43244">
		<comp name="00.HNE" depth="0.0">
			<acc value="0.030851124" flag="0"/>
			<vel value="0.032704" flag="0"/>
			<psa03 value="0.0934664696256" flag="0"/>
			<psa10 value="0.0681374590369" flag="0"/>
			<psa30 value="0.00760393801478" flag="0"/>
		</comp>
		<comp name="00.HNN" depth="0.0">
			<acc value="0.03215091" flag="0"/>
			<vel value="0.030685" flag="0"/>
			<psa03 value="0.100177800618" flag="0"/>
			<psa10 value="0.0951854652038" flag="0"/>
			<psa30 value="0.00667195785092" flag="0"/>
		</comp>
		<comp name="00.HNZ" depth="0.0">
			<acc value="0.044429364" flag="0"/>
			<vel value="0.014283" flag="0"/>
			<psa03 value="0.0596861036288" flag="0"/>
			<psa10 value="0.0183259604088" flag="0"/>
			<psa30 value="0.0020335332908" flag="0"/>
		</comp>
	</station>
	<station code="TNSA" name="TNSA" netid="HL" source="National Observatory of Athens Seismic Network" insttype="" lat="37.53942" lon="25.1631">
		<comp name="00.HNE" depth="0.0">
			<acc value="0.010583622" flag="0"/>
			<vel value="0.005947" flag="0"/>
			<psa03 value="0.0376729379726" flag="0"/>
			<psa10 value="0.00532745454204" flag="0"/>
			<psa30 value="0.000622811516126" flag="0"/>
		</comp>
		<comp name="00.HNN" depth="0.0">
			<acc value="0.02019294" flag="0"/>
			<vel value="0.006654" flag="0"/>
			<psa03 value="0.0359279919145" flag="0"/>
			<psa10 value="0.00388988744339" flag="0"/>
			<psa30 value="0.000736904143003" flag="0"/>
		</comp>
		<comp name="00.HNZ" depth="0.0">
			<acc value="0.013312224" flag="0"/>
			<vel value="0.00541" flag="0"/>
			<psa03 value="0.0233106896481" flag="0"/>
			<psa10 value="0.00542007090974" flag="0"/>
			<psa30 value="0.000838916374093" flag="0"/>
		</comp>
	</station>
	<station code="AKS" name="AKS" netid="KO" source="Bogazici University Kandilli Observatory And Earthquake Research Institute (KOERI)" insttype="" lat="38.8785" lon="27.8129">
		<comp name=".HNE" depth="0.0">
			<acc value="0.01923618" flag="0"/>
			<vel value="0.012691" flag="0"/>
			<psa03 value="0.0462186994367" flag="0"/>
			<psa10 value="0.0112186608875" flag="0"/>
			<psa30 value="0.0021234651261" flag="0"/>
		</comp>
		<comp name=".HNN" depth="0.0">
			<acc value="0.03146292" flag="0"/>
			<vel value="0.020855" flag="0"/>
			<psa03 value="0.069037224812" flag="0"/>
			<psa10 value="0.0137595708013" flag="0"/>
			<psa30 value="0.00321070074693" flag="0"/>
		</comp>
		<comp name=".HNZ" depth="0.0">
			<acc value="0.013231542" flag="0"/>
			<vel value="0.005878" flag="0"/>
			<psa03 value="0.0275164570702" flag="0"/>
			<psa10 value="0.00597174231734" flag="0"/>
			<psa30 value="0.00213867747635" flag="0"/>
		</comp>
	</station>
	<station code="CESE" name="CESE" netid="KO" source="Bogazici University Kandilli Observatory And Earthquake Research Institute (KOERI)" insttype="" lat="38.3306" lon="26.2997">
		<comp name=".HNE" depth="0.0">
			<acc value="0.05668242" flag="0"/>
			<vel value="0.031251" flag="0"/>
			<psa03 value="0.0893501866167" flag="0"/>
			<psa10 value="0.0336036342807" flag="0"/>
			<psa30 value="0.00302725769979" flag="0"/>
		</comp>
		<comp name=".HNN" depth="0.0">
			<acc value="0.122169786" flag="0"/>
			<vel value="0.100625" flag="0"/>
			<psa03 value="0.309437100972" flag="0"/>
			<psa10 value="0.126763619791" flag="0"/>
			<psa30 value="0.00713727679975" flag="0"/>
		</comp>
		<comp name=".HNZ" depth="0.0">
			<acc value="0.040149852" flag="0"/>
			<vel value="0.031337" flag="0"/>
			<psa03 value="0.111184383446" flag="0"/>
			<psa10 value="0.0544060758258" flag="0"/>
			<psa30 value="0.00237044210664" flag="0"/>
		</comp>
	</station>
	<station code="DATC" name="DATC" netid="KO" source="Bogazici University Kandilli Observatory And Earthquake Research Institute (KOERI)" insttype="" lat="36.7584" lon="27.6602">
		<comp name=".HNE" depth="0.0">
			<acc value="0.1080894" flag="0"/>
			<vel value="0.090967" flag="0"/>
			<psa03 value="0.397668732423" flag="0"/>
			<psa10 value="0.0936834693277" flag="0"/>
			<psa30 value="0.0326470459032" flag="0"/>
		</comp>
		<comp name=".HNN" depth="0.0">
			<acc value="0.139977048" flag="0"/>
			<vel value="0.183543" flag="0"/>
			<psa03 value="0.423127047989" flag="0"/>
			<psa10 value="0.158257211607" flag="0"/>
			<psa30 value="0.0354282214665" flag="0"/>
		</comp>
		<comp name=".HNZ" depth="0.0">
			<acc value="0.12855876" flag="0"/>
			<vel value="0.089309" flag="0"/>
			<psa03 value="0.144383100757" flag="0"/>
			<psa10 value="0.10070217928" flag="0"/>
			<psa30 value="0.0180785360062" flag="0"/>
		</comp>
	</station>
	<station code="EZNE" name="EZNE" netid="KO" source="Bogazici University Kandilli Observatory And Earthquake Research Institute (KOERI)" insttype="" lat="39.756" lon="26.3655">
		<comp name=".HNE" depth="0.0">
			<acc value="0.04334796" flag="0"/>
			<vel value="0.030141" flag="0"/>
			<psa03 value="0.142861865732" flag="0"/>
			<psa10 value="0.0379485499654" flag="0"/>
			<psa30 value="0.00489390255991" flag="0"/>
		</comp>
		<comp name=".HNN" depth="0.0">
			<acc value="0.048785784" flag="0"/>
			<vel value="0.032384" flag="0"/>
			<psa03 value="0.146083304609" flag="0"/>
			<psa10 value="0.0348761026369" flag="0"/>
			<psa30 value="0.0052048608959" flag="0"/>
		</comp>
		<comp name=".HNZ" depth="0.0">
			<acc value="0.02418216" flag="0"/>
			<vel value="0.017514" flag="0"/>
			<psa03 value="0.12053550463" flag="0"/>
			<psa10 value="0.0175286542868" flag="0"/>
			<psa30 value="0.00412075722954" flag="0"/>
		</comp>
	</station>
	<station code="FOCM" name="FOCM" netid="KO" source="Bogazici University Kandilli Observatory And Earthquake Research Institute (KOERI)" insttype="" lat="38.7131" lon="26.7309">
		<comp name=".HNE" depth="0.0">
			<acc value="0.050948898" flag="0"/>
			<vel value="0.039562" flag="0"/>
			<psa03 value="0.199997663584" flag="0"/>
			<psa10 value="0.0354438812389" flag="0"/>
			<psa30 value="0.00390912659224" flag="0"/>
		</comp>
		<comp name=".HNN" depth="0.0">
			<acc value="0.072774654" flag="0"/>
			<vel value="0.041732" flag="0"/>
			<psa03 value="0.235567717845" flag="0"/>
			<psa10 value="0.0323392195216" flag="0"/>
			<psa30 value="0.00460755243755" flag="0"/>
		</comp>
		<comp name=".HNZ" depth="0.0">
			<acc value="0.046130214" flag="0"/>
			<vel value="0.021839" flag="0"/>
			<psa03 value="0.0896186398564" flag="0"/>
			<psa10 value="0.0162602127292" flag="0"/>
			<psa30 value="0.00284381465266" flag="0"/>
		</comp>
	</station>
	<station code="GMLD" name="GMLD" netid="KO" source="Bogazici University Kandilli Observatory And Earthquake Research Institute (KOERI)" insttype="" lat="38.0766" lon="26.9157">
		<comp name=".HNE" depth="0.0">
			<acc value="1.828030434" flag="0"/>
			<vel value="0.759164" flag="0"/>
			<psa03 value="4.15641676822" flag="0"/>
			<psa10 value="0.635404657601" flag="0"/>
			<psa30 value="0.0609822853545" flag="0"/>
		</comp>
		<comp name=".HNN" depth="0.0">
			<acc value="2.600131368" flag="0"/>
			<vel value="1.251863" flag="0"/>
			<psa03 value="5.39058579558" flag="0"/>
			<psa10 value="0.754791182365" flag="0"/>
			<psa30 value="0.0955340069934" flag="0"/>
		</comp>
		<comp name=".HNZ" depth="0.0">
			<acc value="1.533546132" flag="0"/>
			<vel value="0.427625" flag="0"/>
			<psa03 value="3.5904725967" flag="0"/>
			<psa10 value="0.218526306188" flag="0"/>
			<psa30 value="0.0549206112019" flag="0"/>
		</comp>
	</station>
	<station code="GOMA" name="GOMA" netid="KO" source="Bogazici University Kandilli Observatory And Earthquake Research Institute (KOERI)" insttype="" lat="38.7077" lon="27.9175">
		<comp name=".HNE" depth="0.0">
			<acc value="0.0653463" flag="0"/>
			<vel value="0.033546" flag="0"/>
			<psa03 value="0.282994456861" flag="0"/>
			<psa10 value="0.0217286052221" flag="0"/>
			<psa30 value="0.00207290643262" flag="0"/>
		</comp>
		<comp name=".HNN" depth="0.0">
			<acc value="0.031806864" flag="0"/>
			<vel value="0.021388" flag="0"/>
			<psa03 value="0.105323154379" flag="0"/>
			<psa10 value="0.0191836685097" flag="0"/>
			<psa30 value="0.00198610655179" flag="0"/>
		</comp>
		<comp name=".HNZ" depth="0.0">
			<acc value="0.030138348" flag="0"/>
			<vel value="0.014979" flag="0"/>
			<psa03 value="0.105367896586" flag="0"/>
			<psa10 value="0.0178507981745" flag="0"/>
			<psa30 value="0.002460821364" flag="0"/>
		</comp>
	</station>
	<station code="GORD" name="GORD" netid="KO" source="Bogazici University Kandilli Observatory And Earthquake Research Institute (KOERI)" insttype="" lat="38.9088" lon="28.1769">
		<comp name=".HNE" depth="0.0">
			<acc value="0.07708905" flag="0"/>
			<vel value="0.076856" flag="0"/>
			<psa03 value="0.272256327272" flag="0"/>
			<psa10 value="0.152776738719" flag="0"/>
			<psa30 value="0.0132866456774" flag="0"/>
		</comp>
		<comp name=".HNN" depth="0.0">
			<acc value="0.054536646" flag="0"/>
			<vel value="0.048225" flag="0"/>
			<psa03 value="0.161922045752" flag="0"/>
			<psa10 value="0.0755628756473" flag="0"/>
			<psa30 value="0.0162821364105" flag="0"/>
		</comp>
		<comp name=".HNZ" depth="0.0">
			<acc value="0.059731506" flag="0"/>
			<vel value="0.053382" flag="0"/>
			<psa03 value="0.229035355679" flag="0"/>
			<psa10 value="0.06081673919" flag="0"/>
			<psa30 value="0.00715204172793" flag="0"/>
		</comp>
	</station>
	<station code="KRBN" name="KRBN" netid="KO" source="Bogazici University Kandilli Observatory And Earthquake Research Institute (KOERI)" insttype="" lat="38.5936" lon="26.5537">
		<comp name=".HNE" depth="0.0">
			<acc value="0.480315756" flag="0"/>
			<vel value="0.315053" flag="0"/>
			<psa03 value="1.46955777638" flag="0"/>
			<psa10 value="0.523435495851" flag="0"/>
			<psa30 value="0.0385803099228" flag="0"/>
		</comp>
		<comp name=".HNN" depth="0.0">
			<acc value="0.733207722" flag="0"/>
			<vel value="0.568362" flag="0"/>
			<psa03 value="1.26714403364" flag="0"/>
			<psa10 value="0.723559332457" flag="0"/>
			<psa30 value="0.0403735775641" flag="0"/>
		</comp>
		<comp name=".HNZ" depth="0.0">
			<acc value="0.334436886" flag="0"/>
			<vel value="0.274401" flag="0"/>
			<psa03 value="0.730282296423" flag="0"/>
			<psa10 value="0.3727567192" flag="0"/>
			<psa30 value="0.0163595404279" flag="0"/>
		</comp>
	</station>
	<station code="NAZL" name="NAZL" netid="KO" source="Bogazici University Kandilli Observatory And Earthquake Research Institute (KOERI)" insttype="" lat="37.9641" lon="28.2922">
		<comp name=".HNE" depth="0.0">
			<acc value="0.217208184" flag="0"/>
			<vel value="0.143334" flag="0"/>
			<psa03 value="0.867685612948" flag="0"/>
			<psa10 value="0.117566411798" flag="0"/>
			<psa30 value="0.00899900001713" flag="0"/>
		</comp>
		<comp name=".HNN" depth="0.0">
			<acc value="0.154649034" flag="0"/>
			<vel value="0.093429" flag="0"/>
			<psa03 value="0.43780249176" flag="0"/>
			<psa10 value="0.0748662394902" flag="0"/>
			<psa30 value="0.00845582962879" flag="0"/>
		</comp>
		<comp name=".HNZ" depth="0.0">
			<acc value="0.072059328" flag="0"/>
			<vel value="0.040642" flag="0"/>
			<psa03 value="0.242144822218" flag="0"/>
			<psa10 value="0.0266936478905" flag="0"/>
			<psa30 value="0.00523975981707" flag="0"/>
		</comp>
	</station>
	<station code="SOMA" name="SOMA" netid="KO" source="Bogazici University Kandilli Observatory And Earthquake Research Institute (KOERI)" insttype="" lat="39.1564" lon="27.5341">
		<comp name=".HNE" depth="0.0">
			<acc value="0.10480143" flag="0"/>
			<vel value="0.067642" flag="0"/>
			<psa03 value="0.267961075437" flag="0"/>
			<psa10 value="0.06153350934" flag="0"/>
			<psa30 value="0.0088777486372" flag="0"/>
		</comp>
		<comp name=".HNN" depth="0.0">
			<acc value="0.131323368" flag="0"/>
			<vel value="0.061738" flag="0"/>
			<psa03 value="0.303799582938" flag="0"/>
			<psa10 value="0.0456034940957" flag="0"/>
			<psa30 value="0.0143139267413" flag="0"/>
		</comp>
		<comp name=".HNZ" depth="0.0">
			<acc value="0.08129961" flag="0"/>
			<vel value="0.041629" flag="0"/>
			<psa03 value="0.170736260455" flag="0"/>
			<psa10 value="0.0336036342807" flag="0"/>
			<psa30 value="0.0113783905651" flag="0"/>
		</comp>
	</station>
	<station code="YKAV" name="YKAV" netid="KO" source="Bogazici University Kandilli Observatory And Earthquake Research Institute (KOERI)" insttype="" lat="37.1246" lon="27.2801">
		<comp name=".HNE" depth="0.0">
			<acc value="0.044757804" flag="0"/>
			<vel value="0.029716" flag="0"/>
			<psa03 value="0.129170750507" flag="0"/>
			<psa10 value="0.0503269288484" flag="0"/>
			<psa30 value="0.00330242227049" flag="0"/>
		</comp>
		<comp name=".HNN" depth="0.0">
			<acc value="0.028095594" flag="0"/>
			<vel value="0.024172" flag="0"/>
			<psa03 value="0.0735561876804" flag="0"/>
			<psa10 value="0.0488209061736" flag="0"/>
			<psa30 value="0.00378295356957" flag="0"/>
		</comp>
		<comp name=".HNZ" depth="0.0">
			<acc value="0.021794748" flag="0"/>
			<vel value="0.020882" flag="0"/>
			<psa03 value="0.0697083579113" flag="0"/>
			<psa10 value="0.0292506649988" flag="0"/>
			<psa30 value="0.00288139810622" flag="0"/>
		</comp>
	</station>
</stationlist>
