<?xml version="1.0" encoding="UTF-8" standalone="yes"?>
<!DOCTYPE earthquake SYSTEM "stationlist.dtd">
<stationlist created="" xmlns="ch.ethz.sed.shakemap.usgs.xml">
  <station code="MRKA" name="MRKA" netid="HA" insttype="Horizon,120s,1200" commtype="DIG" lat="38.7047" lon="23.5863">
    <comp name="--.HHE">
      <acc value="0.0317270662" flag="0"/>
      <vel value="0.0173690220" flag="0"/>
      <psa03 value="0.0898943244" flag="0"/>
      <psa10 value="0.0221823383" flag="0"/>
      <psa30 value="0.0012492667" flag="0"/>
    </comp>
    <comp name="--.HHN">
      <acc value="0.0178362435" flag="0"/>
      <vel value="0.0104843706" flag="0"/>
      <psa03 value="0.0524763475" flag="0"/>
      <psa10 value="0.0063018122" flag="0"/>
      <psa30 value="0.0006521924" flag="0"/>
    </comp>
    <comp name="--.HHZ">
      <acc value="0.0123374073" flag="0"/>
      <vel value="0.0083317011" flag="0"/>
      <psa03 value="0.0386119071" flag="0"/>
      <psa10 value="0.0095899356" flag="0"/>
      <psa30 value="0.0006966988" flag="0"/>
    </comp>
  </station>
  <station code="ITS1" name="ITS1" netid="HI" insttype="unknown" commtype="DIG" lat="40.605" lon="23.0123">
    <comp name="--.HNE">
      <acc value="0.0200927545" flag="0"/>
      <vel value="0.0143061086" flag="0"/>
      <psa03 value="0.0778813828" flag="0"/>
      <psa10 value="0.0110423713" flag="0"/>
      <psa30 value="0.0007652524" flag="0"/>
    </comp>
    <comp name="--.HNN">
      <acc value="0.0496874424" flag="0"/>
      <vel value="0.0340187380" flag="0"/>
      <psa03 value="0.1595133909" flag="0"/>
      <psa10 value="0.0198636301" flag="0"/>
      <psa30 value="0.0012622660" flag="0"/>
    </comp>
    <comp name="--.HNZ">
      <acc value="0.0259161326" flag="0"/>
      <vel value="0.0146290945" flag="0"/>
      <psa03 value="0.0679126414" flag="0"/>
      <psa10 value="0.0089536690" flag="0"/>
      <psa30 value="0.0007021658" flag="0"/>
    </comp>
  </station>
  <station code="KLR1" name="KLR1" netid="HI" insttype="unknown" commtype="DIG" lat="40.5825" lon="22.9496">
    <comp name="--.HNZ">
      <acc value="0.0536153975" flag="0"/>
      <vel value="0.0197682407" flag="0"/>
      <psa03 value="0.1418177549" flag="0"/>
      <psa10 value="0.0133699884" flag="0"/>
      <psa30 value="0.0011473403" flag="0"/>
    </comp>
    <comp name="--.HNE">
      <acc value="0.0373350366" flag="0"/>
      <vel value="0.0255520352" flag="0"/>
      <psa03 value="0.1145294918" flag="0"/>
      <psa10 value="0.0367320315" flag="0"/>
      <psa30 value="0.0021233987" flag="0"/>
    </comp>
    <comp name="--.HNN">
      <acc value="0.0351571668" flag="0"/>
      <vel value="0.0190556521" flag="0"/>
      <psa03 value="0.0899373046" flag="0"/>
      <psa10 value="0.0312800482" flag="0"/>
      <psa30 value="0.0022062692" flag="0"/>
    </comp>
  </station>
  <station code="LAR4" name="LAR4" netid="HI" insttype="unknown" commtype="DIG" lat="39.6422" lon="22.4219">
    <comp name="--.HNN">
      <acc value="0.0243482700" flag="0"/>
      <vel value="0.0213594022" flag="0"/>
      <psa03 value="0.0674055739" flag="0"/>
      <psa10 value="0.0390468231" flag="0"/>
      <psa30 value="0.0026240739" flag="0"/>
    </comp>
    <comp name="--.HNE">
      <acc value="0.0232377724" flag="0"/>
      <vel value="0.0252296676" flag="0"/>
      <psa03 value="0.0808623409" flag="0"/>
      <psa10 value="0.0407552353" flag="0"/>
      <psa30 value="0.0034624242" flag="0"/>
    </comp>
    <comp name="--.HNZ">
      <acc value="0.0196377934" flag="0"/>
      <vel value="0.0080053618" flag="0"/>
      <psa03 value="0.0506777332" flag="0"/>
      <psa10 value="0.0164124737" flag="0"/>
      <psa30 value="0.0014364119" flag="0"/>
    </comp>
  </station>
  <station code="PLA1" name="PLA1" netid="HI" insttype="unknown" commtype="DIG" lat="40.5559" lon="22.9886">
    <comp name="--.HNZ">
      <acc value="0.0282302750" flag="0"/>
      <vel value="0.0179699551" flag="0"/>
      <psa03 value="0.0881650132" flag="0"/>
      <psa10 value="0.0161732502" flag="0"/>
      <psa30 value="0.0013541920" flag="0"/>
    </comp>
    <comp name="--.HNN">
      <acc value="0.0284460827" flag="0"/>
      <vel value="0.0257507672" flag="0"/>
      <psa03 value="0.0529302682" flag="0"/>
      <psa10 value="0.0369317446" flag="0"/>
      <psa30 value="0.0018940168" flag="0"/>
    </comp>
    <comp name="--.HNE">
      <acc value="0.0350071289" flag="0"/>
      <vel value="0.0213648948" flag="0"/>
      <psa03 value="0.1235520013" flag="0"/>
      <psa10 value="0.0279588987" flag="0"/>
      <psa30 value="0.0022379456" flag="0"/>
    </comp>
  </station>
  <station code="PLN1" name="PLN1" netid="HI" insttype="CMG-5TD,ACCELEROMETER,GURALP" commtype="DIG" lat="39.998" lon="23.575">
    <comp name="--.HNE">
      <acc value="0.2127128743" flag="0"/>
      <vel value="0.1245233938" flag="0"/>
      <psa03 value="0.5763704453" flag="0"/>
      <psa10 value="0.1201140457" flag="0"/>
      <psa30 value="0.0114583828" flag="0"/>
    </comp>
    <comp name="--.HNZ">
      <acc value="0.9058697767" flag="0"/>
      <vel value="0.2586544210" flag="0"/>
      <psa03 value="0.7005983775" flag="0"/>
      <psa10 value="0.0478567970" flag="0"/>
      <psa30 value="0.0048978531" flag="0"/>
    </comp>
    <comp name="--.HNN">
      <acc value="0.2170335040" flag="0"/>
      <vel value="0.0943292488" flag="0"/>
      <psa03 value="0.6907781800" flag="0"/>
      <psa10 value="0.0966240944" flag="0"/>
      <psa30 value="0.0094840093" flag="0"/>
    </comp>
  </station>
  <station code="SEIS" name="SEIS" netid="HI" insttype="unknown" commtype="DIG" lat="40.6318" lon="22.9628">
    <comp name="--.HNE">
      <acc value="0.0105579208" flag="0"/>
      <vel value="0.0066504045" flag="0"/>
      <psa03 value="0.0396170286" flag="0"/>
      <psa10 value="0.0100289677" flag="0"/>
      <psa30 value="0.0004259996" flag="0"/>
    </comp>
    <comp name="--.HNN">
      <acc value="0.0124744139" flag="0"/>
      <vel value="0.0068043190" flag="0"/>
      <psa03 value="0.0300146002" flag="0"/>
      <psa10 value="0.0050725138" flag="0"/>
      <psa30 value="0.0004890591" flag="0"/>
    </comp>
    <comp name="--.HNZ">
      <acc value="0.0149814792" flag="0"/>
      <vel value="0.0112525565" flag="0"/>
      <psa03 value="0.0438598270" flag="0"/>
      <psa10 value="0.0096846401" flag="0"/>
      <psa30 value="0.0007482429" flag="0"/>
    </comp>
  </station>
  <station code="VOL2" name="VOL2" netid="HI" insttype="CMG-5TD,ACCELEROMETER,GURALP" commtype="DIG" lat="39.366" lon="22.9506">
    <comp name="--.HNE">
      <acc value="0.0972361042" flag="0"/>
      <vel value="0.0486296167" flag="0"/>
      <psa03 value="0.2173389626" flag="0"/>
      <psa10 value="0.0344323833" flag="0"/>
      <psa30 value="0.0022139176" flag="0"/>
    </comp>
    <comp name="--.HNN">
      <acc value="0.0994731383" flag="0"/>
      <vel value="0.0508211739" flag="0"/>
      <psa03 value="0.2571256195" flag="0"/>
      <psa10 value="0.0284228046" flag="0"/>
      <psa30 value="0.0026473829" flag="0"/>
    </comp>
    <comp name="--.HNZ">
      <acc value="0.0533050669" flag="0"/>
      <vel value="0.0177690045" flag="0"/>
      <psa03 value="0.1290406392" flag="0"/>
      <psa10 value="0.0139783322" flag="0"/>
      <psa30 value="0.0012338385" flag="0"/>
    </comp>
  </station>
  <station code="VOL3" name="VOL3" netid="HI" insttype="unknown" commtype="DIG" lat="39.374" lon="22.9354">
    <comp name="--.HNZ">
      <acc value="0.0525994464" flag="0"/>
      <vel value="0.0195182156" flag="0"/>
      <psa03 value="0.1637588786" flag="0"/>
      <psa10 value="0.0136962939" flag="0"/>
      <psa30 value="0.0010070827" flag="0"/>
    </comp>
    <comp name="--.HNN">
      <acc value="0.1154440950" flag="0"/>
      <vel value="0.0687398946" flag="0"/>
      <psa03 value="0.3224079364" flag="0"/>
      <psa10 value="0.0322327010" flag="0"/>
      <psa30 value="0.0027615250" flag="0"/>
    </comp>
    <comp name="--.HNE">
      <acc value="0.1020129922" flag="0"/>
      <vel value="0.0649930258" flag="0"/>
      <psa03 value="0.2166864437" flag="0"/>
      <psa10 value="0.0366807200" flag="0"/>
      <psa30 value="0.0020343782" flag="0"/>
    </comp>
  </station>
  <station code="ALNA" name="ALNA" netid="HL" insttype="CMG-5" commtype="DIG" lat="39.148" lon="23.8667">
    <comp name="00.HNE">
      <acc value="0.1442836425" flag="0"/>
      <vel value="0.0708074115" flag="0"/>
      <psa03 value="0.3333715896" flag="0"/>
      <psa10 value="0.0447869501" flag="0"/>
      <psa30 value="0.0046143416" flag="0"/>
    </comp>
    <comp name="00.HNZ">
      <acc value="0.0680661402" flag="0"/>
      <vel value="0.0357361285" flag="0"/>
      <psa03 value="0.1608029048" flag="0"/>
      <psa10 value="0.0378459287" flag="0"/>
      <psa30 value="0.0020373656" flag="0"/>
    </comp>
    <comp name="00.HNN">
      <acc value="0.0961208009" flag="0"/>
      <vel value="0.0483837318" flag="0"/>
      <psa03 value="0.1873271616" flag="0"/>
      <psa10 value="0.0755337239" flag="0"/>
      <psa30 value="0.0030567682" flag="0"/>
    </comp>
  </station>
  <station code="LARA" name="LARA" netid="HL" insttype="CMG-5" commtype="DIG" lat="39.637" lon="22.4297">
    <comp name="00.HNE">
      <acc value="0.0246286330" flag="0"/>
      <vel value="0.0202891597" flag="0"/>
      <psa03 value="0.0870008329" flag="0"/>
      <psa10 value="0.0389646361" flag="0"/>
      <psa30 value="0.0033110941" flag="0"/>
    </comp>
    <comp name="00.HNN">
      <acc value="0.0262401425" flag="0"/>
      <vel value="0.0250529469" flag="0"/>
      <psa03 value="0.1058365247" flag="0"/>
      <psa10 value="0.0473557172" flag="0"/>
      <psa30 value="0.0024930722" flag="0"/>
    </comp>
    <comp name="00.HNZ">
      <acc value="0.0223031214" flag="0"/>
      <vel value="0.0097416000" flag="0"/>
      <psa03 value="0.0415432352" flag="0"/>
      <psa10 value="0.0116619882" flag="0"/>
      <psa30 value="0.0016115026" flag="0"/>
    </comp>
  </station>
  <station code="NEO" name="NEO" netid="HL" insttype="120" commtype="DIG" lat="39.3057" lon="23.2219">
    <comp name="--.HHE">
      <acc value="0.1199101188" flag="0"/>
      <vel value="0.0415873879" flag="0"/>
      <psa03 value="0.1834675804" flag="0"/>
      <psa10 value="0.0311439579" flag="0"/>
      <psa30 value="0.0019430644" flag="0"/>
    </comp>
    <comp name="--.HHN">
      <acc value="0.0829413249" flag="0"/>
      <vel value="0.0374306286" flag="0"/>
      <psa03 value="0.2367186268" flag="0"/>
      <psa10 value="0.0235859436" flag="0"/>
      <psa30 value="0.0020300983" flag="0"/>
    </comp>
    <comp name="--.HHZ">
      <acc value="0.0622382088" flag="0"/>
      <vel value="0.0233900169" flag="0"/>
      <psa03 value="0.1690625176" flag="0"/>
      <psa10 value="0.0292125292" flag="0"/>
      <psa30 value="0.0022945836" flag="0"/>
    </comp>
  </station>
  <station code="PLG" name="PLG" netid="HL" insttype="120" commtype="DIG" lat="40.3733" lon="23.4444">
    <comp name="--.HHN">
      <acc value="0.0778494654" flag="0"/>
      <vel value="0.0221506278" flag="0"/>
      <psa03 value="0.1058026482" flag="0"/>
      <psa10 value="0.0092380253" flag="0"/>
      <psa30 value="0.0006352691" flag="0"/>
    </comp>
    <comp name="--.HHE">
      <acc value="0.0487814407" flag="0"/>
      <vel value="0.0146185678" flag="0"/>
      <psa03 value="0.1027803616" flag="0"/>
      <psa10 value="0.0107813668" flag="0"/>
      <psa30 value="0.0005710207" flag="0"/>
    </comp>
    <comp name="--.HHZ">
      <acc value="0.0465105683" flag="0"/>
      <vel value="0.0125803938" flag="0"/>
      <psa03 value="0.0954179384" flag="0"/>
      <psa10 value="0.0055410369" flag="0"/>
      <psa30 value="0.0006293662" flag="0"/>
    </comp>
  </station>
</stationlist>
