<?xml version="1.0" encoding="UTF-8" standalone="yes"?>
<!DOCTYPE earthquake SYSTEM "stationlist.dtd">
<stationlist created="" xmlns="ch.ethz.sed.shakemap.usgs.xml">
  <station code="SPA0" name="SPA0" netid="NO" insttype="CMG-3T" lat="78.1777" lon="16.37">
    <comp name="00.HHN">
      <acc value="0.0008041088" flag="0"/>
      <vel value="0.0002606227" flag="0"/>
      <psa03 value="0.0015282727" flag="0"/>
      <psa10 value="0.0002347302" flag="0"/>
      <psa30 value="0.0000432637" flag="0"/>
    </comp>
    <comp name="00.HHE">
      <acc value="0.0006776036" flag="0"/>
      <vel value="0.0002231146" flag="0"/>
      <psa03 value="0.0007006368" flag="0"/>
      <psa10 value="0.0002664947" flag="0"/>
      <psa30 value="0.0000586314" flag="0"/>
    </comp>
    <comp name="00.HHZ">
      <acc value="0.0003576543" flag="0"/>
      <vel value="0.0001343958" flag="0"/>
      <psa03 value="0.0005579092" flag="0"/>
      <psa10 value="0.0001835087" flag="0"/>
      <psa30 value="0.0000356197" flag="0"/>
    </comp>
  </station>
  <station code="SPA1" name="SPA1" netid="NO" insttype="CMG-3T" lat="78.1797" lon="16.3755">
    <comp name="00.HHZ">
      <acc value="0.0006357270" flag="0"/>
      <vel value="0.0002541844" flag="0"/>
      <psa03 value="0.0010030897" flag="0"/>
      <psa10 value="0.0003825346" flag="0"/>
      <psa30 value="0.0000682484" flag="0"/>
    </comp>
  </station>
  <station code="SPA2" name="SPA2" netid="NO" insttype="CMG-3T" lat="78.1759" lon="16.3766">
    <comp name="00.HHZ">
      <acc value="0.0008148870" flag="0"/>
      <vel value="0.0002746783" flag="0"/>
      <psa03 value="0.0009040965" flag="0"/>
      <psa10 value="0.0002874258" flag="0"/>
      <psa30 value="0.0000732808" flag="0"/>
    </comp>
  </station>
  <station code="SPA3" name="SPA3" netid="NO" insttype="CMG-3T" lat="78.1773" lon="16.3588">
    <comp name="00.HHZ">
      <acc value="0.0005798059" flag="0"/>
      <vel value="0.0002566463" flag="0"/>
      <psa03 value="0.0010237794" flag="0"/>
      <psa10 value="0.0003901115" flag="0"/>
      <psa30 value="0.0000703425" flag="0"/>
    </comp>
  </station>
  <station code="SPB1" name="SPB1" netid="NO" insttype="CMG-3T" lat="78.1796" lon="16.3906">
    <comp name="00.HHE">
      <acc value="0.0012052659" flag="0"/>
      <vel value="0.0005593179" flag="0"/>
      <psa03 value="0.0029073847" flag="0"/>
      <psa10 value="0.0006731071" flag="0"/>
      <psa30 value="0.0001163379" flag="0"/>
    </comp>
    <comp name="00.HHN">
      <acc value="0.0010438897" flag="0"/>
      <vel value="0.0003292296" flag="0"/>
      <psa03 value="0.0008652427" flag="0"/>
      <psa10 value="0.0004144195" flag="0"/>
      <psa30 value="0.0000746822" flag="0"/>
    </comp>
    <comp name="00.HHZ">
      <acc value="0.0006010858" flag="0"/>
      <vel value="0.0002940109" flag="0"/>
      <psa03 value="0.0008358905" flag="0"/>
      <psa10 value="0.0003225281" flag="0"/>
      <psa30 value="0.0000610029" flag="0"/>
    </comp>
  </station>
  <station code="SPB3" name="SPB3" netid="NO" insttype="CMG-3T" lat="78.1737" lon="16.3584">
    <comp name="00.HHE">
      <acc value="0.0010950695" flag="0"/>
      <vel value="0.0003809395" flag="0"/>
      <psa03 value="0.0019272761" flag="0"/>
      <psa10 value="0.0005114414" flag="0"/>
      <psa30 value="0.0000752636" flag="0"/>
    </comp>
    <comp name="00.HHN">
      <acc value="0.0017415796" flag="0"/>
      <vel value="0.0005660975" flag="0"/>
      <psa03 value="0.0026245385" flag="0"/>
      <psa10 value="0.0005061453" flag="0"/>
      <psa30 value="0.0000943054" flag="0"/>
    </comp>
    <comp name="00.HHZ">
      <acc value="0.0006653551" flag="0"/>
      <vel value="0.0002960090" flag="0"/>
      <psa03 value="0.0009782588" flag="0"/>
      <psa10 value="0.0003637558" flag="0"/>
      <psa30 value="0.0000857105" flag="0"/>
    </comp>
  </station>
  <station code="SPB4" name="SPB4" netid="NO" insttype="CMG-3T" lat="78.1789" lon="16.3482">
    <comp name="00.HHN">
      <acc value="0.0001826693" flag="0"/>
      <vel value="0.0001012029" flag="0"/>
      <psa03 value="0.0002677643" flag="0"/>
      <psa10 value="0.0000725704" flag="0"/>
      <psa30 value="0.0000334767" flag="0"/>
    </comp>
    <comp name="00.HHZ">
      <acc value="0.0010863403" flag="0"/>
      <vel value="0.0002647790" flag="0"/>
      <psa03 value="0.0015487477" flag="0"/>
      <psa10 value="0.0004924543" flag="0"/>
      <psa30 value="0.0000782319" flag="0"/>
    </comp>
    <comp name="00.HHE">
      <acc value="0.0012228128" flag="0"/>
      <vel value="0.0003706672" flag="0"/>
      <psa03 value="0.0016578125" flag="0"/>
      <psa10 value="0.0004711879" flag="0"/>
      <psa30 value="0.0000986541" flag="0"/>
    </comp>
  </station>
  <station code="SPB5" name="SPB5" netid="NO" insttype="CMG-3T" lat="78.1823" lon="16.3683">
    <comp name="00.HHE">
      <acc value="0.0014011734" flag="0"/>
      <vel value="0.0006217929" flag="0"/>
      <psa03 value="0.0031479609" flag="0"/>
      <psa10 value="0.0005319322" flag="0"/>
      <psa30 value="0.0001031463" flag="0"/>
    </comp>
    <comp name="00.HHN">
      <acc value="0.0009311331" flag="0"/>
      <vel value="0.0003095265" flag="0"/>
      <psa03 value="0.0012604407" flag="0"/>
      <psa10 value="0.0003222415" flag="0"/>
      <psa30 value="0.0000763631" flag="0"/>
    </comp>
    <comp name="00.HHZ">
      <acc value="0.0008336760" flag="0"/>
      <vel value="0.0003223745" flag="0"/>
      <psa03 value="0.0011393031" flag="0"/>
      <psa10 value="0.0003998089" flag="0"/>
      <psa30 value="0.0000614296" flag="0"/>
    </comp>
  </station>
</stationlist>
