<?xml version="1.0" encoding="UTF-8" standalone="yes"?>
<!DOCTYPE earthquake SYSTEM "stationlist.dtd">
<stationlist created="" xmlns="ch.ethz.sed.shakemap.usgs.xml">
  <station code="KTHR" name="KTHR" netid="HC" insttype="120s" lat="36.2447" lon="22.9939">
    <comp name="--.HHE">
      <acc value="0.0335552677" flag="0"/>
      <vel value="0.0210898582" flag="0"/>
      <psa03 value="0.1142942599" flag="0"/>
      <psa10 value="0.0149159960" flag="0"/>
      <psa30 value="0.0008798775" flag="0"/>
    </comp>
    <comp name="--.HHN">
      <acc value="0.0415459370" flag="0"/>
      <vel value="0.0228851918" flag="0"/>
      <psa03 value="0.1200492216" flag="0"/>
      <psa10 value="0.0209620994" flag="0"/>
      <psa30 value="0.0022087204" flag="0"/>
    </comp>
    <comp name="--.HHZ">
      <acc value="0.0274987917" flag="0"/>
      <vel value="0.0089497384" flag="0"/>
      <psa03 value="0.0419143825" flag="0"/>
      <psa10 value="0.0064805365" flag="0"/>
      <psa30 value="0.0003650957" flag="0"/>
    </comp>
  </station>
  <station code="KTRS" name="KTRS" netid="HC" insttype="60" lat="36.9261" lon="22.136">
    <comp name="--.HHN">
      <acc value="0.0400647580" flag="0"/>
      <vel value="0.0138101503" flag="0"/>
      <psa03 value="0.0660515284" flag="0"/>
      <psa10 value="0.0115834378" flag="0"/>
      <psa30 value="0.0010176172" flag="0"/>
    </comp>
    <comp name="--.HHZ">
      <acc value="0.0300006138" flag="0"/>
      <vel value="0.0093531554" flag="0"/>
      <psa03 value="0.0379616801" flag="0"/>
      <psa10 value="0.0123477786" flag="0"/>
      <psa30 value="0.0006158975" flag="0"/>
    </comp>
    <comp name="--.HHE">
      <acc value="0.0357861197" flag="0"/>
      <vel value="0.0107971505" flag="0"/>
      <psa03 value="0.0498013229" flag="0"/>
      <psa10 value="0.0090236087" flag="0"/>
      <psa30 value="0.0009826579" flag="0"/>
    </comp>
  </station>
  <station code="NPS1" name="NPS1" netid="HI" insttype="CMG-5TD,ACCELEROMETER,GURALP" lat="36.5126" lon="23.0625">
    <comp name="--.HNZ">
      <acc value="0.0155285716" flag="0"/>
      <vel value="0.0064103287" flag="0"/>
      <psa03 value="0.0494709759" flag="0"/>
      <psa10 value="0.0048042793" flag="0"/>
      <psa30 value="0.0005317165" flag="0"/>
    </comp>
    <comp name="--.HNN">
      <acc value="0.0193344916" flag="0"/>
      <vel value="0.0127615658" flag="0"/>
      <psa03 value="0.0469750230" flag="0"/>
      <psa10 value="0.0093438769" flag="0"/>
      <psa30 value="0.0012740700" flag="0"/>
    </comp>
    <comp name="--.HNE">
      <acc value="0.0169034681" flag="0"/>
      <vel value="0.0100205248" flag="0"/>
      <psa03 value="0.0685846882" flag="0"/>
      <psa10 value="0.0105024028" flag="0"/>
      <psa30 value="0.0009827457" flag="0"/>
    </comp>
  </station>
  <station code="ITM" name="ITM" netid="HL" insttype="DR24" lat="37.1787" lon="21.9252">
    <comp name="--.HHN">
      <acc value="0.0329245407" flag="0"/>
      <vel value="0.0122665739" flag="0"/>
      <psa03 value="0.0719690683" flag="0"/>
      <psa10 value="0.0103299671" flag="0"/>
      <psa30 value="0.0012937188" flag="0"/>
    </comp>
    <comp name="--.HHZ">
      <acc value="0.0179563055" flag="0"/>
      <vel value="0.0084241336" flag="0"/>
      <psa03 value="0.0357259623" flag="0"/>
      <psa10 value="0.0098088083" flag="0"/>
      <psa30 value="0.0011596815" flag="0"/>
    </comp>
    <comp name="--.HHE">
      <acc value="0.0325015975" flag="0"/>
      <vel value="0.0110736403" flag="0"/>
      <psa03 value="0.0726682451" flag="0"/>
      <psa10 value="0.0113292431" flag="0"/>
      <psa30 value="0.0010800411" flag="0"/>
    </comp>
  </station>
  <station code="VLI" name="VLI" netid="HL" insttype="60" lat="36.718" lon="22.9469">
    <comp name="--.HHN">
      <acc value="0.0192766585" flag="0"/>
      <vel value="0.0124714926" flag="0"/>
      <psa03 value="0.0531386975" flag="0"/>
      <psa10 value="0.0119748676" flag="0"/>
      <psa30 value="0.0010054686" flag="0"/>
    </comp>
    <comp name="--.HHZ">
      <acc value="0.0134530827" flag="0"/>
      <vel value="0.0059603797" flag="0"/>
      <psa03 value="0.0362388547" flag="0"/>
      <psa10 value="0.0072075326" flag="0"/>
      <psa30 value="0.0004900934" flag="0"/>
    </comp>
    <comp name="--.HHE">
      <acc value="0.0136757892" flag="0"/>
      <vel value="0.0116877824" flag="0"/>
      <psa03 value="0.0452012203" flag="0"/>
      <psa10 value="0.0250990428" flag="0"/>
      <psa30 value="0.0019500051" flag="0"/>
    </comp>
  </station>
  <station code="PYL" name="PYL" netid="HP" insttype="" lat="0" lon="0">
    <comp name="--.HHE">
      <acc value="0.0466399859" flag="0"/>
      <vel value="0.0176291547" flag="0"/>
      <psa03 value="0.1155615640" flag="0"/>
      <psa10 value="0.0134471524" flag="0"/>
      <psa30 value="0.0011453702" flag="0"/>
    </comp>
  </station>
  <station code="VALY" name="VALY" netid="HP" insttype="DC_100" lat="37.1641" lon="21.9836">
    <comp name="--.HNN">
      <acc value="0.0279137025" flag="0"/>
      <vel value="0.0101113800" flag="0"/>
      <psa03 value="0.0723842981" flag="0"/>
      <psa10 value="0.0103450795" flag="0"/>
      <psa30 value="0.0012423067" flag="0"/>
    </comp>
    <comp name="--.HNE">
      <acc value="0.0172972643" flag="0"/>
      <vel value="0.0077020516" flag="0"/>
      <psa03 value="0.0509211580" flag="0"/>
      <psa10 value="0.0099222743" flag="0"/>
      <psa30 value="0.0007891436" flag="0"/>
    </comp>
    <comp name="--.HNZ">
      <acc value="0.0123223165" flag="0"/>
      <vel value="0.0055170695" flag="0"/>
      <psa03 value="0.0242002725" flag="0"/>
      <psa10 value="0.0053110134" flag="0"/>
      <psa30 value="0.0010972194" flag="0"/>
    </comp>
  </station>
  <station code="VLX" name="VLX" netid="HP" insttype="40," lat="37.3703" lon="22.3793">
    <comp name="--.HHE">
      <acc value="0.0106152929" flag="0"/>
      <vel value="0.0073129478" flag="0"/>
      <psa03 value="0.0294317788" flag="0"/>
      <psa10 value="0.0131704433" flag="0"/>
      <psa30 value="0.0006416290" flag="0"/>
    </comp>
    <comp name="--.HHN">
      <acc value="0.0097610538" flag="0"/>
      <vel value="0.0100367526" flag="0"/>
      <psa03 value="0.0272184661" flag="0"/>
      <psa10 value="0.0223404521" flag="0"/>
      <psa30 value="0.0011310415" flag="0"/>
    </comp>
    <comp name="--.HHZ">
      <acc value="0.0058784197" flag="0"/>
      <vel value="0.0050238249" flag="0"/>
      <psa03 value="0.0154274195" flag="0"/>
      <psa10 value="0.0062423266" flag="0"/>
      <psa30 value="0.0008242002" flag="0"/>
    </comp>
  </station>
</stationlist>
