<stationlist created="1778138759">
	<station code="ROD3" name="ROD3" netid="CL" source="Corinth Riff Laboratory (CRLNET)" insttype="" lat="38.30811" lon="21.89204">
		<comp name="00.HNE" depth="0.0">
			<acc value="0.00490001755304692" flag="0"/>
			<vel value="0.00316745635546161" flag="0"/>
			<psa03 value="0.0201997482904571" flag="0"/>
			<psa10 value="0.00440656863230954" flag="0"/>
			<psa30 value="0.00058878098301626" flag="0"/>
		</comp>
		<comp name="00.HNN" depth="0.0">
			<acc value="0.00507220286973652" flag="0"/>
			<vel value="0.0032090827355688" flag="0"/>
			<psa03 value="0.0164932970270761" flag="0"/>
			<psa10 value="0.00549686945311044" flag="0"/>
			<psa30 value="0.000567254348651697" flag="0"/>
		</comp>
		<comp name="00.HNZ" depth="0.0">
			<acc value="0.00356270957634577" flag="0"/>
			<vel value="0.00268465311922254" flag="0"/>
			<psa03 value="0.00784695797348125" flag="0"/>
			<psa10 value="0.00270090993765487" flag="0"/>
			<psa30 value="0.000760763886456128" flag="0"/>
		</comp>
	</station>
	<station code="KIAS" name="KIAS" netid="HA" source="Hellenic Seismological Network, University of Athens, Seismological Laboratory (HA)" insttype="" lat="37.9875" lon="22.7543">
		<comp name="--.HNE" depth="0.0">
			<acc value="0.0064260566251368" flag="0"/>
			<vel value="0.00594344996462757" flag="0"/>
			<psa03 value="0.0136394439107954" flag="0"/>
			<psa10 value="0.0129188867503581" flag="0"/>
			<psa30 value="0.0016930545523876" flag="0"/>
		</comp>
		<comp name="--.HNN" depth="0.0">
			<acc value="0.00770237939704738" flag="0"/>
			<vel value="0.00556526235189129" flag="0"/>
			<psa03 value="0.0126518771872731" flag="0"/>
			<psa10 value="0.0103151089503254" flag="0"/>
			<psa30 value="0.00164783364005966" flag="0"/>
		</comp>
		<comp name="--.HNZ" depth="0.0">
			<acc value="0.00558021232012988" flag="0"/>
			<vel value="0.00414069787054907" flag="0"/>
			<psa03 value="0.0113651760642101" flag="0"/>
			<psa10 value="0.00930838100957028" flag="0"/>
			<psa30 value="0.000901833179523231" flag="0"/>
		</comp>
	</station>
	<station code="LTRS" name="LTRS" netid="HA" source="Hellenic Seismological Network, University of Athens, Seismological Laboratory (HA)" insttype="" lat="37.97528" lon="22.9765">
		<comp name="--.HNE" depth="0.0">
			<acc value="0.00661010200609691" flag="0"/>
			<vel value="0.00798836560178516" flag="0"/>
			<psa03 value="0.0206028739538516" flag="0"/>
			<psa10 value="0.0202233009444239" flag="0"/>
			<psa30 value="0.00125455414972056" flag="0"/>
		</comp>
		<comp name="--.HNN" depth="0.0">
			<acc value="0.00752411299431481" flag="0"/>
			<vel value="0.0100109149222385" flag="0"/>
			<psa03 value="0.0207484994862689" flag="0"/>
			<psa10 value="0.0128034437903034" flag="0"/>
			<psa30 value="0.00166159965615481" flag="0"/>
		</comp>
		<comp name="--.HNZ" depth="0.0">
			<acc value="0.00516360843961195" flag="0"/>
			<vel value="0.0046381714267525" flag="0"/>
			<psa03 value="0.0110664010635134" flag="0"/>
			<psa10 value="0.00776878261247441" flag="0"/>
			<psa30 value="0.000736836051355444" flag="0"/>
		</comp>
	</station>
	<station code="NPS1" name="NPS1" netid="HI" source="ITSAK Strong Motion Network" insttype="" lat="36.51263" lon="23.06248">
		<comp name="--.HNE" depth="0.0">
			<acc value="0.0169537700639484" flag="0"/>
			<vel value="0.0100295456531605" flag="0"/>
			<psa03 value="0.0689458329481094" flag="0"/>
			<psa10 value="0.0105143371482404" flag="0"/>
			<psa30 value="0.00105692584948207" flag="0"/>
		</comp>
		<comp name="--.HNN" depth="0.0">
			<acc value="0.0193496908256807" flag="0"/>
			<vel value="0.0128928611477591" flag="0"/>
			<psa03 value="0.0473690494253283" flag="0"/>
			<psa10 value="0.00937257401204289" flag="0"/>
			<psa30 value="0.00136864524936219" flag="0"/>
		</comp>
		<comp name="--.HNZ" depth="0.0">
			<acc value="0.015351737698225" flag="0"/>
			<vel value="0.00642366642623681" flag="0"/>
			<psa03 value="0.0504475241925635" flag="0"/>
			<psa10 value="0.00482322076470054" flag="0"/>
			<psa30 value="0.000586447234668879" flag="0"/>
		</comp>
	</station>
	<station code="IMMV" name="IMMV" netid="HL" source="National Observatory of Athens Seismic Network" insttype="" lat="35.4606" lon="23.9811">
		<comp name="--.HNE" depth="0.0">
			<acc value="0.00249164879030853" flag="0"/>
			<vel value="0.00219232140290286" flag="0"/>
			<psa03 value="0.00860511106198538" flag="0"/>
			<psa10 value="0.0050484911565192" flag="0"/>
			<psa30 value="0.000563401645512165" flag="0"/>
		</comp>
		<comp name="--.HNN" depth="0.0">
			<acc value="0.00231493612228959" flag="0"/>
			<vel value="0.00234221276702006" flag="0"/>
			<psa03 value="0.00708859263134932" flag="0"/>
			<psa10 value="0.00552937098120574" flag="0"/>
			<psa30 value="0.000505027309749188" flag="0"/>
		</comp>
		<comp name="--.HNZ" depth="0.0">
			<acc value="0.00157102572728406" flag="0"/>
			<vel value="0.00148868669699813" flag="0"/>
			<psa03 value="0.00576224304842579" flag="0"/>
			<psa10 value="0.00269123148400255" flag="0"/>
			<psa30 value="0.000315106759693035" flag="0"/>
		</comp>
	</station>
	<station code="ITM" name="ITM" netid="HL" source="National Observatory of Athens Seismic Network" insttype="" lat="37.17872" lon="21.92522">
		<comp name="--.HNE" depth="0.0">
			<acc value="0.0318355364357159" flag="0"/>
			<vel value="0.0109545386513089" flag="0"/>
			<psa03 value="0.0706169853201975" flag="0"/>
			<psa10 value="0.0110341412701914" flag="0"/>
			<psa30 value="0.00113238647337979" flag="0"/>
		</comp>
		<comp name="--.HNN" depth="0.0">
			<acc value="0.0322690793089498" flag="0"/>
			<vel value="0.0120356049344697" flag="0"/>
			<psa03 value="0.0705237603945063" flag="0"/>
			<psa10 value="0.010037082407433" flag="0"/>
			<psa30 value="0.00134080132150904" flag="0"/>
		</comp>
		<comp name="--.HNZ" depth="0.0">
			<acc value="0.0172869961388569" flag="0"/>
			<vel value="0.0073881817065801" flag="0"/>
			<psa03 value="0.033284090324284" flag="0"/>
			<psa10 value="0.00930198121058916" flag="0"/>
			<psa30 value="0.00107447367860978" flag="0"/>
		</comp>
	</station>
	<station code="PATG" name="PATG" netid="HL" source="National Observatory of Athens Seismic Network" insttype="" lat="38.23865" lon="21.72657">
		<comp name="00.HNE" depth="0.0">
			<acc value="0.00820034553335319" flag="0"/>
			<vel value="0.00858701178173832" flag="0"/>
			<psa03 value="0.0203416418047724" flag="0"/>
			<psa10 value="0.0123021321433663" flag="0"/>
			<psa30 value="0.00201958587098557" flag="0"/>
		</comp>
		<comp name="00.HNN" depth="0.0">
			<acc value="0.00848612603853792" flag="0"/>
			<vel value="0.00883652235950089" flag="0"/>
			<psa03 value="0.0184072831942731" flag="0"/>
			<psa10 value="0.0129631218681844" flag="0"/>
			<psa30 value="0.00238227823090971" flag="0"/>
		</comp>
		<comp name="00.HNZ" depth="0.0">
			<acc value="0.0117637754861131" flag="0"/>
			<vel value="0.00584616020161712" flag="0"/>
			<psa03 value="0.0136199621514952" flag="0"/>
			<psa10 value="0.0114019018825492" flag="0"/>
			<psa30 value="0.00149509820958764" flag="0"/>
		</comp>
	</station>
	<station code="GUR" name="GUR" netid="HP" source="University of Patras, Seismological Laboratory (PSLNET)" insttype="" lat="37.9363" lon="22.3423">
		<comp name="--.HNE" depth="0.0">
			<acc value="0.00742652240304793" flag="0"/>
			<vel value="0.00412682427330655" flag="0"/>
			<psa03 value="0.0158500786357455" flag="0"/>
			<psa10 value="0.00578724790802721" flag="0"/>
			<psa30 value="0.000464397795322686" flag="0"/>
		</comp>
		<comp name="--.HNN" depth="0.0">
			<acc value="0.00539686071997309" flag="0"/>
			<vel value="0.0043317647073692" flag="0"/>
			<psa03 value="0.0210684790166546" flag="0"/>
			<psa10 value="0.0052293211043733" flag="0"/>
			<psa30 value="0.000540997505094568" flag="0"/>
		</comp>
		<comp name="--.HNZ" depth="0.0">
			<acc value="0.00343196555802059" flag="0"/>
			<vel value="0.00260141819081795" flag="0"/>
			<psa03 value="0.00870331678640254" flag="0"/>
			<psa10 value="0.00369967235076299" flag="0"/>
			<psa30 value="0.000545130956001324" flag="0"/>
		</comp>
	</station>
	<station code="LTHK" name="LTHK" netid="HP" source="University of Patras, Seismological Laboratory (PSLNET)" insttype="" lat="37.7095" lon="20.8367">
		<comp name="--.HNE" depth="0.0">
			<acc value="0.00811570540339938" flag="0"/>
			<vel value="0.00295315502390015" flag="0"/>
			<psa03 value="0.0118517004815548" flag="0"/>
			<psa10 value="0.00327310245197444" flag="0"/>
			<psa30 value="0.000502930660439571" flag="0"/>
		</comp>
		<comp name="--.HNN" depth="0.0">
			<acc value="0.0107986802291332" flag="0"/>
			<vel value="0.00398158195916217" flag="0"/>
			<psa03 value="0.0118063615406102" flag="0"/>
			<psa10 value="0.0057253045858371" flag="0"/>
			<psa30 value="0.000405414200451257" flag="0"/>
		</comp>
		<comp name="--.HNZ" depth="0.0">
			<acc value="0.00430271810369874" flag="0"/>
			<vel value="0.00155817810617439" flag="0"/>
			<psa03 value="0.00659383003802999" flag="0"/>
			<psa10 value="0.002184241726546" flag="0"/>
			<psa30 value="0.000226657228470577" flag="0"/>
		</comp>
	</station>
	<station code="LTK" name="LTK" netid="HP" source="University of Patras, Seismological Laboratory (PSLNET)" insttype="" lat="38.0228" lon="22.9673">
		<comp name="--.HNE" depth="0.0">
			<acc value="0.00214637052652948" flag="0"/>
			<vel value="0.00219734662136284" flag="0"/>
			<psa03 value="0.00566451261595057" flag="0"/>
			<psa10 value="0.00262249247725615" flag="0"/>
			<psa30 value="0.000424028324170606" flag="0"/>
		</comp>
		<comp name="--.HNN" depth="0.0">
			<acc value="0.00242111093082089" flag="0"/>
			<vel value="0.00177367053017544" flag="0"/>
			<psa03 value="0.00682690211854208" flag="0"/>
			<psa10 value="0.00294050979434339" flag="0"/>
			<psa30 value="0.000385955177011159" flag="0"/>
		</comp>
		<comp name="--.HNZ" depth="0.0">
			<acc value="0.00201013766792734" flag="0"/>
			<vel value="0.00105562961915688" flag="0"/>
			<psa03 value="0.00408560658888721" flag="0"/>
			<psa10 value="0.00194161752888378" flag="0"/>
			<psa30 value="0.000248009684632791" flag="0"/>
		</comp>
	</station>
	<station code="PYL" name="PYL" netid="HP" source="University of Patras, Seismological Laboratory (PSLNET)" insttype="" lat="36.8955" lon="21.742">
		<comp name="--.HNE" depth="0.0">
			<acc value="0.0509236898740588" flag="0"/>
			<vel value="0.0186932191728193" flag="0"/>
			<psa03 value="0.115905417748392" flag="0"/>
			<psa10 value="0.0128867527466405" flag="0"/>
			<psa30 value="0.0011249578562699" flag="0"/>
		</comp>
		<comp name="--.HNN" depth="0.0">
			<acc value="0.0722674677746638" flag="0"/>
			<vel value="0.0337258248334877" flag="0"/>
			<psa03 value="0.100629905820835" flag="0"/>
			<psa10 value="0.0352741579898616" flag="0"/>
			<psa30 value="0.00303643698238339" flag="0"/>
		</comp>
		<comp name="--.HNZ" depth="0.0">
			<acc value="0.049779118855832" flag="0"/>
			<vel value="0.015044026729205" flag="0"/>
			<psa03 value="0.0543075924031027" flag="0"/>
			<psa10 value="0.00920694897767576" flag="0"/>
			<psa30 value="0.0016594914956687" flag="0"/>
		</comp>
	</station>
	<station code="VALY" name="VALY" netid="HP" source="University of Patras, Seismological Laboratory (PSLNET)" insttype="" lat="37.1641" lon="21.9836">
		<comp name="--.HNE" depth="0.0">
			<acc value="0.0173464061408511" flag="0"/>
			<vel value="0.00777022193956476" flag="0"/>
			<psa03 value="0.0511217511483119" flag="0"/>
			<psa10 value="0.00996170803927485" flag="0"/>
			<psa30 value="0.000858396239540218" flag="0"/>
		</comp>
		<comp name="--.HNN" depth="0.0">
			<acc value="0.0281379620869131" flag="0"/>
			<vel value="0.0101342520983416" flag="0"/>
			<psa03 value="0.0722911014308169" flag="0"/>
			<psa10 value="0.0103771211833615" flag="0"/>
			<psa30 value="0.00124679717752935" flag="0"/>
		</comp>
		<comp name="--.HNZ" depth="0.0">
			<acc value="0.0121675865283582" flag="0"/>
			<vel value="0.00567368908141427" flag="0"/>
			<psa03 value="0.0241307365637231" flag="0"/>
			<psa10 value="0.00531280819746156" flag="0"/>
			<psa30 value="0.00122485051533339" flag="0"/>
		</comp>
	</station>
</stationlist>
