<?xml version="1.0" encoding="UTF-8" standalone="yes"?>
<!DOCTYPE earthquake SYSTEM "stationlist.dtd">
<stationlist created="" xmlns="ch.ethz.sed.shakemap.usgs.xml">
  <station code="KTRS" name="KTRS" netid="HC" insttype="60" lat="36.9261" lon="22.136">
    <comp name="--.HHN">
      <acc value="0.0400647589" flag="0"/>
      <vel value="0.0138101498" flag="0"/>
      <psa03 value="0.0660515284" flag="0"/>
      <psa10 value="0.0115834369" flag="0"/>
      <psa30 value="0.0010174765" flag="0"/>
    </comp>
    <comp name="--.HHE">
      <acc value="0.0357861200" flag="0"/>
      <vel value="0.0107971486" flag="0"/>
      <psa03 value="0.0498013229" flag="0"/>
      <psa10 value="0.0090236087" flag="0"/>
      <psa30 value="0.0009830033" flag="0"/>
    </comp>
    <comp name="--.HHZ">
      <acc value="0.0300006140" flag="0"/>
      <vel value="0.0093531562" flag="0"/>
      <psa03 value="0.0379616801" flag="0"/>
      <psa10 value="0.0123477786" flag="0"/>
      <psa30 value="0.0006158605" flag="0"/>
    </comp>
  </station>
  <station code="NPS1" name="NPS1" netid="HI" insttype="CMG-5TD,ACCELEROMETER,GURALP" lat="36.5126" lon="23.0625">
    <comp name="--.HNZ">
      <acc value="0.0155285706" flag="0"/>
      <vel value="0.0064103294" flag="0"/>
      <psa03 value="0.0494709759" flag="0"/>
      <psa10 value="0.0048042793" flag="0"/>
      <psa30 value="0.0005317291" flag="0"/>
    </comp>
    <comp name="--.HNN">
      <acc value="0.0193344918" flag="0"/>
      <vel value="0.0127615662" flag="0"/>
      <psa03 value="0.0469750230" flag="0"/>
      <psa10 value="0.0093438769" flag="0"/>
      <psa30 value="0.0012742298" flag="0"/>
    </comp>
    <comp name="--.HNE">
      <acc value="0.0169034677" flag="0"/>
      <vel value="0.0100205259" flag="0"/>
      <psa03 value="0.0685846882" flag="0"/>
      <psa10 value="0.0105024028" flag="0"/>
      <psa30 value="0.0009826524" flag="0"/>
    </comp>
  </station>
  <station code="ANKY" name="ANKY" netid="HL" insttype="60" lat="35.867" lon="23.3012">
    <comp name="--.HHE">
      <acc value="0.0059211683" flag="0"/>
      <vel value="0.0052894891" flag="0"/>
      <psa03 value="0.0110874839" flag="0"/>
      <psa10 value="0.0079776857" flag="0"/>
      <psa30 value="0.0006490442" flag="0"/>
    </comp>
    <comp name="--.HHZ">
      <acc value="0.0037029414" flag="0"/>
      <vel value="0.0022799763" flag="0"/>
      <psa03 value="0.0080585416" flag="0"/>
      <psa10 value="0.0026689333" flag="0"/>
      <psa30 value="0.0004667743" flag="0"/>
    </comp>
    <comp name="--.HHN">
      <acc value="0.0045625937" flag="0"/>
      <vel value="0.0057465166" flag="0"/>
      <psa03 value="0.0126655504" flag="0"/>
      <psa10 value="0.0073090462" flag="0"/>
      <psa30 value="0.0004851207" flag="0"/>
    </comp>
  </station>
  <station code="ITM" name="ITM" netid="HL" insttype="DR24" lat="37.1787" lon="21.9252">
    <comp name="--.HHN">
      <acc value="0.0329245402" flag="0"/>
      <vel value="0.0122665740" flag="0"/>
      <psa03 value="0.0719690683" flag="0"/>
      <psa10 value="0.0103299671" flag="0"/>
      <psa30 value="0.0012937149" flag="0"/>
    </comp>
    <comp name="--.HHE">
      <acc value="0.0325015982" flag="0"/>
      <vel value="0.0110736402" flag="0"/>
      <psa03 value="0.0726682451" flag="0"/>
      <psa10 value="0.0113292431" flag="0"/>
      <psa30 value="0.0010800408" flag="0"/>
    </comp>
    <comp name="--.HHZ">
      <acc value="0.0179563053" flag="0"/>
      <vel value="0.0084241336" flag="0"/>
      <psa03 value="0.0357259623" flag="0"/>
      <psa10 value="0.0098088083" flag="0"/>
      <psa30 value="0.0011596852" flag="0"/>
    </comp>
  </station>
  <station code="VLI" name="VLI" netid="HL" insttype="60" lat="36.718" lon="22.9469">
    <comp name="--.HHE">
      <acc value="0.0136757892" flag="0"/>
      <vel value="0.0116877826" flag="0"/>
      <psa03 value="0.0452012203" flag="0"/>
      <psa10 value="0.0250990428" flag="0"/>
      <psa30 value="0.0019499604" flag="0"/>
    </comp>
    <comp name="--.HHZ">
      <acc value="0.0134530825" flag="0"/>
      <vel value="0.0059603775" flag="0"/>
      <psa03 value="0.0362388547" flag="0"/>
      <psa10 value="0.0072075326" flag="0"/>
      <psa30 value="0.0004901312" flag="0"/>
    </comp>
    <comp name="--.HHN">
      <acc value="0.0192766603" flag="0"/>
      <vel value="0.0124714919" flag="0"/>
      <psa03 value="0.0531386975" flag="0"/>
      <psa10 value="0.0119748677" flag="0"/>
      <psa30 value="0.0010053736" flag="0"/>
    </comp>
  </station>
  <station code="AMT" name="AMT" netid="HP" insttype="CMG-3T," lat="37.5324" lon="21.7089">
    <comp name="00.HHE">
      <acc value="0.0178769090" flag="0"/>
      <vel value="0.0124102128" flag="0"/>
      <psa03 value="0.0736383465" flag="0"/>
      <psa10 value="0.0260164586" flag="0"/>
      <psa30 value="0.0009995121" flag="0"/>
    </comp>
    <comp name="00.HHZ">
      <acc value="0.0146888940" flag="0"/>
      <vel value="0.0077685310" flag="0"/>
      <psa03 value="0.0511873071" flag="0"/>
      <psa10 value="0.0088532120" flag="0"/>
      <psa30 value="0.0007440275" flag="0"/>
    </comp>
    <comp name="00.HHN">
      <acc value="0.0271697889" flag="0"/>
      <vel value="0.0115172574" flag="0"/>
      <psa03 value="0.0570084768" flag="0"/>
      <psa10 value="0.0107358458" flag="0"/>
      <psa30 value="0.0009397820" flag="0"/>
    </comp>
  </station>
  <station code="PYL" name="PYL" netid="HP" insttype="" lat="0" lon="0">
    <comp name="--.HHE">
      <acc value="0.0466399859" flag="0"/>
      <vel value="0.0176291543" flag="0"/>
      <psa03 value="0.1155615640" flag="0"/>
      <psa10 value="0.0134471520" flag="0"/>
      <psa30 value="0.0011454520" flag="0"/>
    </comp>
  </station>
  <station code="VALY" name="VALY" netid="HP" insttype="DC_100" lat="37.1641" lon="21.9836">
    <comp name="--.HNE">
      <acc value="0.0172972617" flag="0"/>
      <vel value="0.0077020517" flag="0"/>
      <psa03 value="0.0509211580" flag="0"/>
      <psa10 value="0.0099222743" flag="0"/>
      <psa30 value="0.0007890753" flag="0"/>
    </comp>
    <comp name="--.HNN">
      <acc value="0.0279137065" flag="0"/>
      <vel value="0.0101113786" flag="0"/>
      <psa03 value="0.0723842981" flag="0"/>
      <psa10 value="0.0103450795" flag="0"/>
      <psa30 value="0.0012429283" flag="0"/>
    </comp>
    <comp name="--.HNZ">
      <acc value="0.0123223169" flag="0"/>
      <vel value="0.0055170714" flag="0"/>
      <psa03 value="0.0242002725" flag="0"/>
      <psa10 value="0.0053110134" flag="0"/>
      <psa30 value="0.0010972500" flag="0"/>
    </comp>
  </station>
  <station code="VLX" name="VLX" netid="HP" insttype="40," lat="37.3703" lon="22.3793">
    <comp name="--.HHE">
      <acc value="0.0106152917" flag="0"/>
      <vel value="0.0073129475" flag="0"/>
      <psa03 value="0.0294317788" flag="0"/>
      <psa10 value="0.0131704433" flag="0"/>
      <psa30 value="0.0006416003" flag="0"/>
    </comp>
    <comp name="--.HHN">
      <acc value="0.0097610540" flag="0"/>
      <vel value="0.0100367516" flag="0"/>
      <psa03 value="0.0272184661" flag="0"/>
      <psa10 value="0.0223404521" flag="0"/>
      <psa30 value="0.0011311040" flag="0"/>
    </comp>
    <comp name="--.HHZ">
      <acc value="0.0058784191" flag="0"/>
      <vel value="0.0050238243" flag="0"/>
      <psa03 value="0.0154274195" flag="0"/>
      <psa10 value="0.0062423266" flag="0"/>
      <psa30 value="0.0008241358" flag="0"/>
    </comp>
  </station>
</stationlist>
