<?xml version="1.0" encoding="UTF-8" standalone="yes"?>
<!DOCTYPE earthquake SYSTEM "stationlist.dtd">
<stationlist created="" xmlns="ch.ethz.sed.shakemap.usgs.xml">
  <station code="THERA" name="THERA" netid="GE" insttype="STS-2/N" lat="36.367" lon="25.4753">
    <comp name="--.HHE">
      <acc value="0.1558237835" flag="0"/>
      <vel value="0.0455330576" flag="0"/>
      <psa03 value="0.2342905031" flag="0"/>
      <psa10 value="0.0164645854" flag="0"/>
      <psa30 value="0.0016169035" flag="0"/>
    </comp>
    <comp name="--.HHN">
      <acc value="0.0909092336" flag="0"/>
      <vel value="0.0241952144" flag="0"/>
      <psa03 value="0.1610443254" flag="0"/>
      <psa10 value="0.0055895597" flag="0"/>
      <psa30 value="0.0005590407" flag="0"/>
    </comp>
    <comp name="--.HHZ">
      <acc value="0.0906880731" flag="0"/>
      <vel value="0.0272976248" flag="0"/>
      <psa03 value="0.1745854965" flag="0"/>
      <psa10 value="0.0131946461" flag="0"/>
      <psa30 value="0.0010583740" flag="0"/>
    </comp>
  </station>
</stationlist>
