<?xml version="1.0" encoding="UTF-8" standalone="yes"?>
<!DOCTYPE earthquake SYSTEM "stationlist.dtd">
<stationlist created="" xmlns="ch.ethz.sed.shakemap.usgs.xml">
  <station code="THERA" name="THERA" netid="GE" insttype="STS-2/N" lat="36.367" lon="25.4753">
    <comp name="--.HHE">
      <acc value="0.1558237835" flag="0"/>
      <vel value="0.0455330576" flag="0"/>
      <psa03 value="0.2342905031" flag="0"/>
      <psa10 value="0.0164645854" flag="0"/>
      <psa30 value="0.0016169035" flag="0"/>
    </comp>
    <comp name="--.HHN">
      <acc value="0.0909092336" flag="0"/>
      <vel value="0.0241952144" flag="0"/>
      <psa03 value="0.1610443254" flag="0"/>
      <psa10 value="0.0055895597" flag="0"/>
      <psa30 value="0.0005590407" flag="0"/>
    </comp>
    <comp name="--.HHZ">
      <acc value="0.0906880731" flag="0"/>
      <vel value="0.0272976248" flag="0"/>
      <psa03 value="0.1745854965" flag="0"/>
      <psa10 value="0.0131946461" flag="0"/>
      <psa30 value="0.0010583740" flag="0"/>
    </comp>
  </station>
  <station code="SNT1" name="SNT1" netid="HA" insttype="30" lat="36.4159" lon="25.4282">
    <comp name="--.HHN">
      <acc value="0.0937432133" flag="0"/>
      <vel value="0.0434786610" flag="0"/>
      <psa03 value="0.1894219646" flag="0"/>
      <psa10 value="0.0232663666" flag="0"/>
      <psa30 value="0.0017764984" flag="0"/>
    </comp>
    <comp name="--.HHE">
      <acc value="0.0954824876" flag="0"/>
      <vel value="0.0311211816" flag="0"/>
      <psa03 value="0.1599432716" flag="0"/>
      <psa10 value="0.0235947014" flag="0"/>
      <psa30 value="0.0026780648" flag="0"/>
    </comp>
    <comp name="--.HHZ">
      <acc value="0.0968879487" flag="0"/>
      <vel value="0.0300795277" flag="0"/>
      <psa03 value="0.1556748103" flag="0"/>
      <psa10 value="0.0127797078" flag="0"/>
      <psa30 value="0.0013196911" flag="0"/>
    </comp>
  </station>
  <station code="MHLO" name="MHLO" netid="HL" insttype="20" lat="36.6898" lon="24.4017">
    <comp name="--.HHE">
      <acc value="0.1487830754" flag="0"/>
      <vel value="0.0523932086" flag="0"/>
      <psa03 value="0.3064886545" flag="0"/>
      <psa10 value="0.0511470877" flag="0"/>
      <psa30 value="0.0022980181" flag="0"/>
    </comp>
    <comp name="--.HHN">
      <acc value="0.1229645672" flag="0"/>
      <vel value="0.0459291136" flag="0"/>
      <psa03 value="0.3449874740" flag="0"/>
      <psa10 value="0.0481756456" flag="0"/>
      <psa30 value="0.0021889231" flag="0"/>
    </comp>
  </station>
  <station code="THERA" name="THERA" netid="HL" insttype="120" lat="36.367" lon="25.4753">
    <comp name="--.HHE">
      <acc value="0.1553666092" flag="0"/>
      <vel value="0.0443126713" flag="0"/>
      <psa03 value="0.2278935385" flag="0"/>
      <psa10 value="0.0163401428" flag="0"/>
      <psa30 value="0.0015893549" flag="0"/>
    </comp>
    <comp name="--.HHN">
      <acc value="0.0884803597" flag="0"/>
      <vel value="0.0235282596" flag="0"/>
      <psa03 value="0.1563763088" flag="0"/>
      <psa10 value="0.0054501845" flag="0"/>
      <psa30 value="0.0005576210" flag="0"/>
    </comp>
    <comp name="--.HHZ">
      <acc value="0.0878931404" flag="0"/>
      <vel value="0.0264459572" flag="0"/>
      <psa03 value="0.1693638946" flag="0"/>
      <psa10 value="0.0130386710" flag="0"/>
      <psa30 value="0.0010554992" flag="0"/>
    </comp>
  </station>
  <station code="THRA" name="THRA" netid="HL" insttype="CMG-5" lat="36.415" lon="25.4324">
    <comp name="00.HNE">
      <acc value="0.3536486029" flag="0"/>
      <vel value="0.1154089241" flag="0"/>
      <psa03 value="0.8261338104" flag="0"/>
      <psa10 value="0.0434854897" flag="0"/>
      <psa30 value="0.0055558745" flag="0"/>
    </comp>
    <comp name="00.HNZ">
      <acc value="0.2101243333" flag="0"/>
      <vel value="0.0840024811" flag="0"/>
      <psa03 value="0.6887266373" flag="0"/>
      <psa10 value="0.0401355039" flag="0"/>
      <psa30 value="0.0039373037" flag="0"/>
    </comp>
    <comp name="00.HNN">
      <acc value="0.2334226340" flag="0"/>
      <vel value="0.1226646784" flag="0"/>
      <psa03 value="0.8365272694" flag="0"/>
      <psa10 value="0.0725193680" flag="0"/>
      <psa30 value="0.0040160396" flag="0"/>
    </comp>
  </station>
  <station code="CMBO" name="CMBO" netid="HT" insttype="120P," lat="36.4709" lon="25.4056">
    <comp name="--.HHE">
      <acc value="0.3514346761" flag="0"/>
      <vel value="0.1209416385" flag="0"/>
      <psa03 value="0.5994863127" flag="0"/>
      <psa10 value="0.1056490572" flag="0"/>
      <psa30 value="0.0064603314" flag="0"/>
    </comp>
    <comp name="--.HHN">
      <acc value="0.5050216036" flag="0"/>
      <vel value="0.2081482719" flag="0"/>
      <psa03 value="0.8642233429" flag="0"/>
      <psa10 value="0.1003699584" flag="0"/>
      <psa30 value="0.0058060850" flag="0"/>
    </comp>
    <comp name="--.HHZ">
      <acc value="0.4263683112" flag="0"/>
      <vel value="0.1206503729" flag="0"/>
      <psa03 value="0.8766780120" flag="0"/>
      <psa10 value="0.0400141867" flag="0"/>
      <psa30 value="0.0036119353" flag="0"/>
    </comp>
  </station>
</stationlist>
