<stationlist created="1738720949">
	<station code="ABEA" name="ABEA" netid="HC" source="Seismological Network of Crete (HC)" insttype="" lat="35.5163" lon="24.0113">
		<comp name=".HNE" depth="0.0">
			<acc value="0.0035779043147742" flag="0"/>
			<vel value="0.00222374980525" flag="0"/>
			<psa03 value="0.0127238663312019" flag="0"/>
			<psa10 value="0.00183685785469438" flag="0"/>
			<psa30 value="0.00076717347773001" flag="0"/>
		</comp>
		<comp name=".HNN" depth="0.0">
			<acc value="0.0072613666498218" flag="0"/>
			<vel value="0.00237700021365" flag="0"/>
			<psa03 value="0.0143981295866795" flag="0"/>
			<psa10 value="0.00220097158481555" flag="0"/>
			<psa30 value="0.000892283588573568" flag="0"/>
		</comp>
		<comp name=".HNZ" depth="0.0">
			<acc value="0.0025437182941572" flag="0"/>
			<vel value="0.0013363192331" flag="0"/>
			<psa03 value="0.00436968530353762" flag="0"/>
			<psa10 value="0.00140322155029202" flag="0"/>
			<psa30 value="0.000625001767881626" flag="0"/>
		</comp>
	</station>
	<station code="ATEI" name="ATEI" netid="HC" source="Seismological Network of Crete (HC)" insttype="" lat="35.5193" lon="24.0432">
		<comp name=".HNE" depth="0.0">
			<acc value="0.01158028874367" flag="0"/>
			<vel value="0.00565650385156" flag="0"/>
			<psa03 value="0.0336939247655019" flag="0"/>
			<psa10 value="0.00510609778518358" flag="0"/>
			<psa30 value="0.00107750658785876" flag="0"/>
		</comp>
		<comp name=".HNN" depth="0.0">
			<acc value="0.0076187227299042" flag="0"/>
			<vel value="0.00460519085256" flag="0"/>
			<psa03 value="0.0168120368920333" flag="0"/>
			<psa10 value="0.00390232851011101" flag="0"/>
			<psa30 value="0.000937075305808077" flag="0"/>
		</comp>
		<comp name=".HNZ" depth="0.0">
			<acc value="0.011094176371734" flag="0"/>
			<vel value="0.00230450738636" flag="0"/>
			<psa03 value="0.0216901243643015" flag="0"/>
			<psa10 value="0.00312685377934239" flag="0"/>
			<psa30 value="0.000600023134005148" flag="0"/>
		</comp>
	</station>
	<station code="G0LD" name="G0LD" netid="HC" source="Seismological Network of Crete (HC)" insttype="" lat="35.4955" lon="24.0306">
		<comp name=".HNE" depth="0.0">
			<acc value="0.0067246506661344" flag="0"/>
			<vel value="0.00424304600312" flag="0"/>
			<psa03 value="0.0229209506921418" flag="0"/>
			<psa10 value="0.00733621536326902" flag="0"/>
			<psa30 value="0.00142078151563724" flag="0"/>
		</comp>
		<comp name=".HNN" depth="0.0">
			<acc value="0.0072085849662396" flag="0"/>
			<vel value="0.003318279826" flag="0"/>
			<psa03 value="0.0206589649091888" flag="0"/>
			<psa10 value="0.00534698655536373" flag="0"/>
			<psa30 value="0.00109618855460972" flag="0"/>
		</comp>
		<comp name=".HNZ" depth="0.0">
			<acc value="0.0047188331621238" flag="0"/>
			<vel value="0.00442016968372" flag="0"/>
			<psa03 value="0.0132387637218748" flag="0"/>
			<psa10 value="0.00393160951233389" flag="0"/>
			<psa30 value="0.00181984472244998" flag="0"/>
		</comp>
	</station>
	<station code="PASK" name="PASK" netid="HC" source="Seismological Network of Crete (HC)" insttype="" lat="35.4996" lon="24.0121">
		<comp name=".HNE" depth="0.0">
			<acc value="0.010479352043448" flag="0"/>
			<vel value="0.00797538736963" flag="0"/>
			<psa03 value="0.0270643866328096" flag="0"/>
			<psa10 value="0.0103679086980575" flag="0"/>
			<psa30 value="0.00129806380285859" flag="0"/>
		</comp>
		<comp name=".HNN" depth="0.0">
			<acc value="0.010556462393598" flag="0"/>
			<vel value="0.00550214583894" flag="0"/>
			<psa03 value="0.032843798136285" flag="0"/>
			<psa10 value="0.00825602660875961" flag="0"/>
			<psa30 value="0.00126289418137326" flag="0"/>
		</comp>
		<comp name=".HNZ" depth="0.0">
			<acc value="0.0069537726924252" flag="0"/>
			<vel value="0.00364303025778" flag="0"/>
			<psa03 value="0.0226466434581352" flag="0"/>
			<psa10 value="0.0037631003025516" flag="0"/>
			<psa30 value="0.000716224008825436" flag="0"/>
		</comp>
	</station>
	<station code="POLY" name="POLY" netid="HC" source="Seismological Network of Crete (HC)" insttype="" lat="35.5226" lon="24.0602">
		<comp name=".HNE" depth="0.0">
			<acc value="0.0024562472067462" flag="0"/>
			<vel value="0.00191063563988" flag="0"/>
			<psa03 value="0.00518474841207003" flag="0"/>
			<psa10 value="0.00164644778002318" flag="0"/>
			<psa30 value="0.000724080050083005" flag="0"/>
		</comp>
		<comp name=".HNN" depth="0.0">
			<acc value="0.0027641717553126" flag="0"/>
			<vel value="0.00262927371523" flag="0"/>
			<psa03 value="0.00930939079000647" flag="0"/>
			<psa10 value="0.00166591285855004" flag="0"/>
			<psa30 value="0.00142036627979461" flag="0"/>
		</comp>
		<comp name=".HNZ" depth="0.0">
			<acc value="0.0022839057324624" flag="0"/>
			<vel value="0.00189536138824" flag="0"/>
			<psa03 value="0.00614659403065804" flag="0"/>
			<psa10 value="0.00127546359476685" flag="0"/>
			<psa30 value="0.000835544361131719" flag="0"/>
		</comp>
	</station>
	<station code="ARK1" name="ARK1" netid="HI" source="ITSAK Strong Motion Network" insttype="" lat="35.148777" lon="25.264194">
		<comp name=".HNE" depth="0.0">
			<acc value="0.016210980173952" flag="0"/>
			<vel value="0.00879326032903" flag="0"/>
			<psa03 value="0.0349307905559423" flag="0"/>
			<psa10 value="0.0104220941625813" flag="0"/>
			<psa30 value="0.00131288863909444" flag="0"/>
		</comp>
		<comp name=".HNN" depth="0.0">
			<acc value="0.017144806022406" flag="0"/>
			<vel value="0.00895377058005" flag="0"/>
			<psa03 value="0.055082029122407" flag="0"/>
			<psa10 value="0.00963077111630518" flag="0"/>
			<psa30 value="0.000821839286570722" flag="0"/>
		</comp>
		<comp name=".HNZ" depth="0.0">
			<acc value="0.010405388323938" flag="0"/>
			<vel value="0.00644868880751" flag="0"/>
			<psa03 value="0.0310298420330876" flag="0"/>
			<psa10 value="0.00802735521039037" flag="0"/>
			<psa30 value="0.000513062321193394" flag="0"/>
		</comp>
	</station>
	<station code="CH01" name="CH01" netid="HI" source="ITSAK Strong Motion Network" insttype="" lat="35.517" lon="24.0208">
		<comp name=".HNE" depth="0.0">
			<acc value="0.009777933101307" flag="0"/>
			<vel value="0.00440362651581" flag="0"/>
			<psa03 value="0.0196996292224873" flag="0"/>
			<psa10 value="0.00560297382576394" flag="0"/>
			<psa30 value="0.000698577579417826" flag="0"/>
		</comp>
		<comp name=".HNN" depth="0.0">
			<acc value="0.011155986953322" flag="0"/>
			<vel value="0.00458306104541" flag="0"/>
			<psa03 value="0.0222248238480268" flag="0"/>
			<psa10 value="0.00486465116552035" flag="0"/>
			<psa30 value="0.000599802286039281" flag="0"/>
		</comp>
		<comp name=".HNZ" depth="0.0">
			<acc value="0.0064789211008644" flag="0"/>
			<vel value="0.00235085900454" flag="0"/>
			<psa03 value="0.0113815430338577" flag="0"/>
			<psa10 value="0.00419167799061492" flag="0"/>
			<psa30 value="0.000430367494109223" flag="0"/>
		</comp>
	</station>
	<station code="CH02" name="CH02" netid="HI" source="ITSAK Strong Motion Network" insttype="" lat="35.5145" lon="24.0315">
		<comp name=".HNE" depth="0.0">
			<acc value="0.0074705180460612" flag="0"/>
			<vel value="0.00470254032238" flag="0"/>
			<psa03 value="0.0240238883396879" flag="0"/>
			<psa10 value="0.00681188187872768" flag="0"/>
			<psa30 value="0.000643504868623696" flag="0"/>
		</comp>
		<comp name=".HNN" depth="0.0">
			<acc value="0.0114711493674" flag="0"/>
			<vel value="0.00544751734902" flag="0"/>
			<psa03 value="0.0273419961689091" flag="0"/>
			<psa10 value="0.00650949794105487" flag="0"/>
			<psa30 value="0.00058854497780017" flag="0"/>
		</comp>
		<comp name=".HNZ" depth="0.0">
			<acc value="0.0047585525032644" flag="0"/>
			<vel value="0.00235800706562" flag="0"/>
			<psa03 value="0.0104373255361798" flag="0"/>
			<psa10 value="0.00350216411055773" flag="0"/>
			<psa30 value="0.00033047650182134" flag="0"/>
		</comp>
	</station>
	<station code="CH03" name="CH03" netid="HI" source="ITSAK Strong Motion Network" insttype="" lat="35.53303" lon="24.0705">
		<comp name=".HNE" depth="0.0">
			<acc value="0.0069269369815152" flag="0"/>
			<vel value="0.00334568283475" flag="0"/>
			<psa03 value="0.0210200539337316" flag="0"/>
			<psa10 value="0.00560055397796601" flag="0"/>
			<psa30 value="0.000337201244177316" flag="0"/>
		</comp>
		<comp name=".HNN" depth="0.0">
			<acc value="0.0078603249230694" flag="0"/>
			<vel value="0.00392980769544" flag="0"/>
			<psa03 value="0.0179382417058881" flag="0"/>
			<psa10 value="0.00465569341683853" flag="0"/>
			<psa30 value="0.000394998250028858" flag="0"/>
		</comp>
		<comp name=".HNZ" depth="0.0">
			<acc value="0.004659007624221" flag="0"/>
			<vel value="0.00263078256868" flag="0"/>
			<psa03 value="0.0113172353883799" flag="0"/>
			<psa10 value="0.00288762660359274" flag="0"/>
			<psa30 value="0.000316342284248629" flag="0"/>
		</comp>
	</station>
	<station code="GOR1" name="GOR1" netid="HI" source="ITSAK Strong Motion Network" insttype="" lat="35.0582" lon="24.9628">
		<comp name=".HNE" depth="0.0">
			<acc value="0.0067062293886552" flag="0"/>
			<vel value="0.00393977936147" flag="0"/>
			<psa03 value="0.019368882051717" flag="0"/>
			<psa10 value="0.00597386917700436" flag="0"/>
			<psa30 value="0.00069302278435937" flag="0"/>
		</comp>
		<comp name=".HNN" depth="0.0">
			<acc value="0.004545631553817" flag="0"/>
			<vel value="0.00330050967116" flag="0"/>
			<psa03 value="0.0173302821607321" flag="0"/>
			<psa10 value="0.00589237159068768" flag="0"/>
			<psa30 value="0.000764856345063242" flag="0"/>
		</comp>
		<comp name=".HNZ" depth="0.0">
			<acc value="0.0049438287653892" flag="0"/>
			<vel value="0.00268759671972" flag="0"/>
			<psa03 value="0.0112767418204502" flag="0"/>
			<psa10 value="0.00476914405740287" flag="0"/>
			<psa30 value="0.000350244660322984" flag="0"/>
		</comp>
	</station>
	<station code="HER1" name="HER1" netid="HI" source="ITSAK Strong Motion Network" insttype="" lat="35.317672" lon="25.10217">
		<comp name=".HNE" depth="0.0">
			<acc value="0.020656035276948" flag="0"/>
			<vel value="0.0159461147233" flag="0"/>
			<psa03 value="0.0656964041475715" flag="0"/>
			<psa10 value="0.0296110840889918" flag="0"/>
			<psa30 value="0.00160982080939558" flag="0"/>
		</comp>
		<comp name=".HNN" depth="0.0">
			<acc value="0.015822107654286" flag="0"/>
			<vel value="0.0146268154445" flag="0"/>
			<psa03 value="0.0453900224910613" flag="0"/>
			<psa10 value="0.0261481965646756" flag="0"/>
			<psa30 value="0.00133638186207325" flag="0"/>
		</comp>
		<comp name=".HNZ" depth="0.0">
			<acc value="0.01742093008542" flag="0"/>
			<vel value="0.0127793492366" flag="0"/>
			<psa03 value="0.0388334371079535" flag="0"/>
			<psa10 value="0.0195855374457484" flag="0"/>
			<psa30 value="0.000684530242600178" flag="0"/>
		</comp>
	</station>
	<station code="HER3" name="HER3" netid="HI" source="ITSAK Strong Motion Network" insttype="" lat="35.3296" lon="25.1065">
		<comp name=".HNE" depth="0.0">
			<acc value="0.041680409245686" flag="0"/>
			<vel value="0.0173844275839" flag="0"/>
			<psa03 value="0.105318185146188" flag="0"/>
			<psa10 value="0.0228373384866001" flag="0"/>
			<psa30 value="0.00173399549369049" flag="0"/>
		</comp>
		<comp name=".HNN" depth="0.0">
			<acc value="0.036358225006986" flag="0"/>
			<vel value="0.0197401428886" flag="0"/>
			<psa03 value="0.0942432744044581" flag="0"/>
			<psa10 value="0.0211725338264596" flag="0"/>
			<psa30 value="0.00148307657987929" flag="0"/>
		</comp>
		<comp name=".HNZ" depth="0.0">
			<acc value="0.02446806201333" flag="0"/>
			<vel value="0.0104890966448" flag="0"/>
			<psa03 value="0.0676398297653024" flag="0"/>
			<psa10 value="0.00935749051281537" flag="0"/>
			<psa30 value="0.000524550946842061" flag="0"/>
		</comp>
	</station>
	<station code="KIS1" name="KIS1" netid="HI" source="ITSAK Strong Motion Network" insttype="" lat="35.493933" lon="23.658993">
		<comp name=".HNE" depth="0.0">
			<acc value="0.0042098224148154" flag="0"/>
			<vel value="0.00225279242525" flag="0"/>
			<psa03 value="0.00799116283887093" flag="0"/>
			<psa10 value="0.00270314203864207" flag="0"/>
			<psa30 value="0.000431093740136468" flag="0"/>
		</comp>
		<comp name=".HNN" depth="0.0">
			<acc value="0.0040604779715178" flag="0"/>
			<vel value="0.00377830503032" flag="0"/>
			<psa03 value="0.0126458663724368" flag="0"/>
			<psa10 value="0.0043831192663978" flag="0"/>
			<psa30 value="0.000659099495441628" flag="0"/>
		</comp>
		<comp name=".HNZ" depth="0.0">
			<acc value="0.0049600045838604" flag="0"/>
			<vel value="0.00211040000295" flag="0"/>
			<psa03 value="0.00788544880458359" flag="0"/>
			<psa10 value="0.00296466186305004" flag="0"/>
			<psa30 value="0.000425429667002498" flag="0"/>
		</comp>
	</station>
	<station code="KRL1" name="KRL1" netid="HI" source="ITSAK Strong Motion Network" insttype="" lat="37.7951" lon="26.7065">
		<comp name=".HNE" depth="0.0">
			<acc value="0.01531762189026" flag="0"/>
			<vel value="0.00754783707166" flag="0"/>
			<psa03 value="0.0365497103014448" flag="0"/>
			<psa10 value="0.0042436508085578" flag="0"/>
			<psa30 value="0.000606738005914017" flag="0"/>
		</comp>
		<comp name=".HNN" depth="0.0">
			<acc value="0.01318372657005" flag="0"/>
			<vel value="0.00620095041493" flag="0"/>
			<psa03 value="0.0234699401850355" flag="0"/>
			<psa10 value="0.00511881675274548" flag="0"/>
			<psa30 value="0.000460489359326407" flag="0"/>
		</comp>
		<comp name=".HNZ" depth="0.0">
			<acc value="0.0073657827664986" flag="0"/>
			<vel value="0.00346604290151" flag="0"/>
			<psa03 value="0.0165669737827887" flag="0"/>
			<psa10 value="0.00415870955659157" flag="0"/>
			<psa30 value="0.000338300744097372" flag="0"/>
		</comp>
	</station>
	<station code="KTL1" name="KTL1" netid="HI" source="ITSAK Strong Motion Network" insttype="" lat="35.20778" lon="25.34272">
		<comp name=".HNE" depth="0.0">
			<acc value="0.013378021837068" flag="0"/>
			<vel value="0.00822988361443" flag="0"/>
			<psa03 value="0.0545094755685969" flag="0"/>
			<psa10 value="0.00599142033968597" flag="0"/>
			<psa30 value="0.000518728529885415" flag="0"/>
		</comp>
		<comp name=".HNN" depth="0.0">
			<acc value="0.016001659666476" flag="0"/>
			<vel value="0.00865859398611" flag="0"/>
			<psa03 value="0.0552822298847366" flag="0"/>
			<psa10 value="0.0123149036144222" flag="0"/>
			<psa30 value="0.000535507766425998" flag="0"/>
		</comp>
		<comp name=".HNZ" depth="0.0">
			<acc value="0.0071427823070196" flag="0"/>
			<vel value="0.00328931448913" flag="0"/>
			<psa03 value="0.015096718833527" flag="0"/>
			<psa10 value="0.00381993555198311" flag="0"/>
			<psa30 value="0.000262037488905916" flag="0"/>
		</comp>
	</station>
	<station code="NAX1" name="NAX1" netid="HI" source="ITSAK Strong Motion Network" insttype="" lat="37.101394" lon="25.374103">
		<comp name=".HNE" depth="0.0">
			<acc value="0.10815748728072" flag="0"/>
			<vel value="0.036340167804" flag="0"/>
			<psa03 value="0.201797576432315" flag="0"/>
			<psa10 value="0.0116593901898837" flag="0"/>
			<psa30 value="0.0012621919473532" flag="0"/>
		</comp>
		<comp name=".HNN" depth="0.0">
			<acc value="0.08362604401422" flag="0"/>
			<vel value="0.0232934113995" flag="0"/>
			<psa03 value="0.0947301087381823" flag="0"/>
			<psa10 value="0.00845904349511234" flag="0"/>
			<psa30 value="0.000934028958165749" flag="0"/>
		</comp>
		<comp name=".HNZ" depth="0.0">
			<acc value="0.03770306504265" flag="0"/>
			<vel value="0.00988337575867" flag="0"/>
			<psa03 value="0.0471396019339719" flag="0"/>
			<psa10 value="0.00624364611091474" flag="0"/>
			<psa30 value="0.00109396142790714" flag="0"/>
		</comp>
	</station>
	<station code="RTH1" name="RTH1" netid="HI" source="ITSAK Strong Motion Network" insttype="" lat="35.365393" lon="24.471773">
		<comp name=".HNE" depth="0.0">
			<acc value="0.0057073846541628" flag="0"/>
			<vel value="0.00241682386599" flag="0"/>
			<psa03 value="0.0220813846583456" flag="0"/>
			<psa10 value="0.00238330421033116" flag="0"/>
			<psa30 value="0.000604923094020017" flag="0"/>
		</comp>
		<comp name=".HNN" depth="0.0">
			<acc value="0.0058376715372798" flag="0"/>
			<vel value="0.00316776215899" flag="0"/>
			<psa03 value="0.0181241850132999" flag="0"/>
			<psa10 value="0.00304500577918777" flag="0"/>
			<psa30 value="0.000458038103192941" flag="0"/>
		</comp>
		<comp name=".HNZ" depth="0.0">
			<acc value="0.006580642288587" flag="0"/>
			<vel value="0.00195218756135" flag="0"/>
			<psa03 value="0.00882714660409091" flag="0"/>
			<psa10 value="0.00242230773162445" flag="0"/>
			<psa30 value="0.00028385893446983" flag="0"/>
		</comp>
	</station>
	<station code="SFR2" name="SFR2" netid="HI" source="ITSAK Strong Motion Network" insttype="" lat="36.399841" lon="25.438209">
		<comp name=".HNE" depth="0.0">
			<acc value="0.26273899087818" flag="0"/>
			<vel value="0.108939022019" flag="0"/>
			<psa03 value="0.625071866275249" flag="0"/>
			<psa10 value="0.0454749162400299" flag="0"/>
			<psa30 value="0.00372314955705061" flag="0"/>
		</comp>
		<comp name=".HNN" depth="0.0">
			<acc value="0.3498762461571" flag="0"/>
			<vel value="0.110306416252" flag="0"/>
			<psa03 value="0.547720867154813" flag="0"/>
			<psa10 value="0.0551962127280866" flag="0"/>
			<psa30 value="0.00262325565281484" flag="0"/>
		</comp>
		<comp name=".HNZ" depth="0.0">
			<acc value="0.22327204203414" flag="0"/>
			<vel value="0.0674710809488" flag="0"/>
			<psa03 value="0.421043308719612" flag="0"/>
			<psa10 value="0.0267918104509653" flag="0"/>
			<psa30 value="0.00215356828832856" flag="0"/>
		</comp>
	</station>
	<station code="AMGA" name="AMGA" netid="HL" source="National Observatory of Athens Seismic Network" insttype="" lat="36.831561" lon="25.893836">
		<comp name="00.HNE" depth="0.0">
			<acc value="0.27759387018444" flag="0"/>
			<vel value="0.045297582209" flag="0"/>
			<psa03 value="0.0980300877620517" flag="0"/>
			<psa10 value="0.0190154040521979" flag="0"/>
			<psa30 value="0.00144165696103195" flag="0"/>
		</comp>
		<comp name="00.HNN" depth="0.0">
			<acc value="0.25765125812238" flag="0"/>
			<vel value="0.0476975614464" flag="0"/>
			<psa03 value="0.117556839647172" flag="0"/>
			<psa10 value="0.0149994805169583" flag="0"/>
			<psa30 value="0.00214893006440592" flag="0"/>
		</comp>
		<comp name="00.HNZ" depth="0.0">
			<acc value="0.20371579593324" flag="0"/>
			<vel value="0.0496267221982" flag="0"/>
			<psa03 value="0.19453888724646" flag="0"/>
			<psa10 value="0.0108610794931986" flag="0"/>
			<psa30 value="0.00163909618624436" flag="0"/>
		</comp>
	</station>
	<station code="ANAF" name="ANAF" netid="HL" source="National Observatory of Athens Seismic Network" insttype="" lat="36.35675" lon="25.77262">
		<comp name=".HNE" depth="0.0">
			<acc value="1.2246878801562" flag="0"/>
			<vel value="0.410888431237" flag="0"/>
			<psa03 value="1.93461949238223" flag="0"/>
			<psa10 value="0.156424047325264" flag="0"/>
			<psa30 value="0.0099879433188915" flag="0"/>
		</comp>
		<comp name=".HNN" depth="0.0">
			<acc value="1.194353906244" flag="0"/>
			<vel value="0.34139251609" flag="0"/>
			<psa03 value="1.28812774880846" flag="0"/>
			<psa10 value="0.0553651201676247" flag="0"/>
			<psa30 value="0.00608479142088226" flag="0"/>
		</comp>
		<comp name=".HNZ" depth="0.0">
			<acc value="0.88276365536262" flag="0"/>
			<vel value="0.191036863466" flag="0"/>
			<psa03 value="0.630387468409888" flag="0"/>
			<psa10 value="0.0365874912417127" flag="0"/>
			<psa30 value="0.00429607626063572" flag="0"/>
		</comp>
	</station>
	<station code="CHNB" name="CHNB" netid="HL" source="National Observatory of Athens Seismic Network" insttype="" lat="35.48765" lon="24.06605">
		<comp name="00.HNE" depth="0.0">
			<acc value="0.016166380305222" flag="0"/>
			<vel value="0.0109165679013" flag="0"/>
			<psa03 value="0.0470296675681373" flag="0"/>
			<psa10 value="0.0127021092648805" flag="0"/>
			<psa30 value="0.00062950513912461" flag="0"/>
		</comp>
		<comp name="00.HNN" depth="0.0">
