<?xml version="1.0" encoding="UTF-8" standalone="yes"?>
<!DOCTYPE earthquake SYSTEM "stationlist.dtd">
<stationlist created="" xmlns="ch.ethz.sed.shakemap.usgs.xml">
  <station code="BNN" name="BNN" netid="KO" insttype="CMG-3T" lat="38.8521" lon="35.8472">
    <comp name="--.HHZ">
      <acc value="0.0068037930" flag="0"/>
      <vel value="0.0055292537" flag="0"/>
      <psa03 value="0.0156304645" flag="0"/>
      <psa10 value="0.0086015252" flag="0"/>
      <psa30 value="0.0009342119" flag="0"/>
    </comp>
    <comp name="--.HHN">
      <acc value="0.0162917028" flag="0"/>
      <vel value="0.0112946460" flag="0"/>
      <psa03 value="0.0377148765" flag="0"/>
      <psa10 value="0.0107244251" flag="0"/>
      <psa30 value="0.0012024595" flag="0"/>
    </comp>
  </station>
  <station code="DARE" name="DARE" netid="KO" insttype="CMG-3ESP" lat="38.5712" lon="37.4832">
    <comp name="--.HHZ">
      <acc value="0.0236959527" flag="0"/>
      <vel value="0.0075628948" flag="0"/>
      <psa03 value="0.0675116119" flag="0"/>
      <psa10 value="0.0056591217" flag="0"/>
      <psa30 value="0.0010158460" flag="0"/>
    </comp>
    <comp name="--.HHE">
      <acc value="0.0296185635" flag="0"/>
      <vel value="0.0092421684" flag="0"/>
      <psa03 value="0.0665690538" flag="0"/>
      <psa10 value="0.0077148417" flag="0"/>
      <psa30 value="0.0009713077" flag="0"/>
    </comp>
    <comp name="--.HHN">
      <acc value="0.0333892253" flag="0"/>
      <vel value="0.0079726160" flag="0"/>
      <psa03 value="0.0391716106" flag="0"/>
      <psa10 value="0.0092437120" flag="0"/>
      <psa30 value="0.0012988866" flag="0"/>
    </comp>
  </station>
  <station code="GAZ" name="GAZ" netid="KO" insttype="CMG-3T" lat="37.1721" lon="37.2096">
    <comp name="--.HHE">
      <acc value="0.0370968603" flag="0"/>
      <vel value="0.0288799431" flag="0"/>
      <psa03 value="0.0776098570" flag="0"/>
      <psa10 value="0.0227454426" flag="0"/>
      <psa30 value="0.0024469113" flag="0"/>
    </comp>
    <comp name="--.HHZ">
      <acc value="0.0223297122" flag="0"/>
      <vel value="0.0132763932" flag="0"/>
      <psa03 value="0.0545073906" flag="0"/>
      <psa10 value="0.0091378914" flag="0"/>
      <psa30 value="0.0005999152" flag="0"/>
    </comp>
    <comp name="--.HHN">
      <acc value="0.0345182358" flag="0"/>
      <vel value="0.0161238779" flag="0"/>
      <psa03 value="0.0697160008" flag="0"/>
      <psa10 value="0.0234487361" flag="0"/>
      <psa30 value="0.0009428082" flag="0"/>
    </comp>
  </station>
  <station code="SARI" name="SARI" netid="KO" insttype="CMG-3T" lat="38.4072" lon="36.4181">
    <comp name="--.HHN">
      <acc value="0.0973761036" flag="0"/>
      <vel value="0.0263761016" flag="0"/>
      <psa03 value="0.0994397878" flag="0"/>
      <psa10 value="0.0289953633" flag="0"/>
      <psa30 value="0.0020652602" flag="0"/>
    </comp>
    <comp name="--.HHZ">
      <acc value="0.0835109853" flag="0"/>
      <vel value="0.0192248577" flag="0"/>
      <psa03 value="0.0785952036" flag="0"/>
      <psa10 value="0.0164164543" flag="0"/>
      <psa30 value="0.0023518269" flag="0"/>
    </comp>
  </station>
  <station code="ANDN" name="ANDN" netid="TU" insttype="T" lat="37.58" lon="36.3452">
    <comp name="--.HHN">
      <acc value="0.1720981191" flag="0"/>
      <vel value="0.0668270663" flag="0"/>
      <psa03 value="0.3314014780" flag="0"/>
      <psa10 value="0.0856802381" flag="0"/>
      <psa30 value="0.0072212461" flag="0"/>
    </comp>
    <comp name="--.HHE">
      <acc value="0.1332242471" flag="0"/>
      <vel value="0.0734253211" flag="0"/>
      <psa03 value="0.2363251151" flag="0"/>
      <psa10 value="0.1123199354" flag="0"/>
      <psa30 value="0.0062690138" flag="0"/>
    </comp>
    <comp name="--.HHZ">
      <acc value="0.0693900756" flag="0"/>
      <vel value="0.0360297366" flag="0"/>
      <psa03 value="0.1250858540" flag="0"/>
      <psa10 value="0.0620137431" flag="0"/>
      <psa30 value="0.0053910158" flag="0"/>
    </comp>
  </station>
</stationlist>
