<?xml version="1.0" encoding="UTF-8" standalone="yes"?>
<!DOCTYPE earthquake SYSTEM "stationlist.dtd">
<stationlist created="" xmlns="ch.ethz.sed.shakemap.usgs.xml">
  <station code="POPM" name="POPM" netid="GU" insttype="" lat="44.045" lon="10.757">
    <comp name="--.HHE">
      <acc value="0.0081719253" flag="0"/>
      <vel value="0.0033365498" flag="0"/>
      <psa03 value="0.0184525941" flag="0"/>
      <psa10 value="0.0010561617" flag="0"/>
      <psa30 value="0.0001167576" flag="0"/>
    </comp>
    <comp name="--.HHN">
      <acc value="0.0107570268" flag="0"/>
      <vel value="0.0035820777" flag="0"/>
      <psa03 value="0.0312910404" flag="0"/>
      <psa10 value="0.0016733952" flag="0"/>
      <psa30 value="0.0001213782" flag="0"/>
    </comp>
    <comp name="--.HHZ">
      <acc value="0.0038491550" flag="0"/>
      <vel value="0.0014853728" flag="0"/>
      <psa03 value="0.0105581013" flag="0"/>
      <psa10 value="0.0015211722" flag="0"/>
      <psa30 value="0.0000954981" flag="0"/>
    </comp>
  </station>
  <station code="APEC" name="APEC" netid="IV" insttype="" lat="43.5585" lon="12.4199">
    <comp name="--.HHE">
      <acc value="0.0896921715" flag="0"/>
      <vel value="0.0286482747" flag="0"/>
      <psa03 value="0.1577114398" flag="0"/>
      <psa10 value="0.0066277123" flag="0"/>
      <psa30 value="0.0006002124" flag="0"/>
    </comp>
    <comp name="--.HHN">
      <acc value="0.0883431851" flag="0"/>
      <vel value="0.0255787165" flag="0"/>
      <psa03 value="0.1135106649" flag="0"/>
      <psa10 value="0.0066077183" flag="0"/>
      <psa30 value="0.0004831007" flag="0"/>
    </comp>
    <comp name="--.HHZ">
      <acc value="0.0523172766" flag="0"/>
      <vel value="0.0118915332" flag="0"/>
      <psa03 value="0.0539704953" flag="0"/>
      <psa10 value="0.0040193153" flag="0"/>
      <psa30 value="0.0002661980" flag="0"/>
    </comp>
  </station>
  <station code="ARCI" name="ARCI" netid="IV" insttype="" lat="42.8519" lon="11.4754">
    <comp name="--.HHE">
      <acc value="0.0038911979" flag="0"/>
      <vel value="0.0018543712" flag="0"/>
      <psa03 value="0.0143347149" flag="0"/>
      <psa10 value="0.0025983589" flag="0"/>
      <psa30 value="0.0001513808" flag="0"/>
    </comp>
    <comp name="--.HHN">
      <acc value="0.0056620833" flag="0"/>
      <vel value="0.0037495424" flag="0"/>
      <psa03 value="0.0205896786" flag="0"/>
      <psa10 value="0.0049082090" flag="0"/>
      <psa30 value="0.0001691954" flag="0"/>
    </comp>
    <comp name="--.HHZ">
      <acc value="0.0043457413" flag="0"/>
      <vel value="0.0015029175" flag="0"/>
      <psa03 value="0.0062576742" flag="0"/>
      <psa10 value="0.0008412382" flag="0"/>
      <psa30 value="0.0000701554" flag="0"/>
    </comp>
  </station>
  <station code="ARVD" name="ARVD" netid="IV" insttype="" lat="43.4981" lon="12.9415">
    <comp name="--.HHE">
      <acc value="0.0054632379" flag="0"/>
      <vel value="0.0015150704" flag="0"/>
      <psa03 value="0.0058689745" flag="0"/>
      <psa10 value="0.0015191182" flag="0"/>
      <psa30 value="0.0001028244" flag="0"/>
    </comp>
    <comp name="--.HHN">
      <acc value="0.0068628539" flag="0"/>
      <vel value="0.0019834567" flag="0"/>
      <psa03 value="0.0057665050" flag="0"/>
      <psa10 value="0.0012728793" flag="0"/>
      <psa30 value="0.0000799560" flag="0"/>
    </comp>
    <comp name="--.HHZ">
      <acc value="0.0047434440" flag="0"/>
      <vel value="0.0013757595" flag="0"/>
      <psa03 value="0.0046383664" flag="0"/>
      <psa10 value="0.0013514674" flag="0"/>
      <psa30 value="0.0001008167" flag="0"/>
    </comp>
  </station>
  <station code="ASSB" name="ASSB" netid="IV" insttype="" lat="43.0426" lon="12.6587">
    <comp name="--.HHE">
      <acc value="0.0055579131" flag="0"/>
      <vel value="0.0022653397" flag="0"/>
      <psa03 value="0.0194260654" flag="0"/>
      <psa10 value="0.0018218634" flag="0"/>
      <psa30 value="0.0001231873" flag="0"/>
    </comp>
    <comp name="--.HHN">
      <acc value="0.0067103737" flag="0"/>
      <vel value="0.0023079500" flag="0"/>
      <psa03 value="0.0165470865" flag="0"/>
      <psa10 value="0.0014446558" flag="0"/>
      <psa30 value="0.0001040526" flag="0"/>
    </comp>
    <comp name="--.HHZ">
      <acc value="0.0041812416" flag="0"/>
      <vel value="0.0015822073" flag="0"/>
      <psa03 value="0.0089060119" flag="0"/>
      <psa10 value="0.0006649359" flag="0"/>
      <psa30 value="0.0001103777" flag="0"/>
    </comp>
  </station>
  <station code="ATBU" name="ATBU" netid="IV" insttype="" lat="43.4757" lon="12.5483">
    <comp name="--.HNE">
      <acc value="0.0653439827" flag="0"/>
      <vel value="0.0191648451" flag="0"/>
      <psa03 value="0.1064575070" flag="0"/>
      <psa10 value="0.0101710911" flag="0"/>
      <psa30 value="0.0004363801" flag="0"/>
    </comp>
    <comp name="--.HNN">
      <acc value="0.0508473702" flag="0"/>
      <vel value="0.0174713387" flag="0"/>
      <psa03 value="0.1055828342" flag="0"/>
      <psa10 value="0.0075281388" flag="0"/>
      <psa30 value="0.0004726831" flag="0"/>
    </comp>
    <comp name="--.HNZ">
      <acc value="0.0202402391" flag="0"/>
      <vel value="0.0055227935" flag="0"/>
      <psa03 value="0.0317892053" flag="0"/>
      <psa10 value="0.0058258402" flag="0"/>
      <psa30 value="0.0002815852" flag="0"/>
    </comp>
  </station>
  <station code="ATCC" name="ATCC" netid="IV" insttype="" lat="43.1851" lon="12.6399">
    <comp name="--.HNN">
      <acc value="0.0149064793" flag="0"/>
      <vel value="0.0051221145" flag="0"/>
      <psa03 value="0.0337448737" flag="0"/>
      <psa10 value="0.0022292908" flag="0"/>
      <psa30 value="0.0002502705" flag="0"/>
    </comp>
    <comp name="--.HNE">
      <acc value="0.0163535715" flag="0"/>
      <vel value="0.0080828469" flag="0"/>
      <psa03 value="0.0449761199" flag="0"/>
      <psa10 value="0.0073860037" flag="0"/>
      <psa30 value="0.0003671174" flag="0"/>
    </comp>
    <comp name="--.HNZ">
      <acc value="0.0074600702" flag="0"/>
      <vel value="0.0030293817" flag="0"/>
      <psa03 value="0.0177644032" flag="0"/>
      <psa10 value="0.0032379174" flag="0"/>
      <psa30 value="0.0002426397" flag="0"/>
    </comp>
  </station>
  <station code="ATFO" name="ATFO" netid="IV" insttype="" lat="43.3666" lon="12.5715">
    <comp name="--.HHE">
      <acc value="0.0211990841" flag="0"/>
      <vel value="0.0075658000" flag="0"/>
      <psa03 value="0.0414336471" flag="0"/>
      <psa10 value="0.0038178173" flag="0"/>
      <psa30 value="0.0002128368" flag="0"/>
    </comp>
    <comp name="--.HHN">
      <acc value="0.0206114010" flag="0"/>
      <vel value="0.0073596635" flag="0"/>
      <psa03 value="0.0547994255" flag="0"/>
      <psa10 value="0.0026479053" flag="0"/>
      <psa30 value="0.0002732046" flag="0"/>
    </comp>
    <comp name="--.HHZ">
      <acc value="0.0099629697" flag="0"/>
      <vel value="0.0034095947" flag="0"/>
      <psa03 value="0.0225343396" flag="0"/>
      <psa10 value="0.0022331219" flag="0"/>
      <psa30 value="0.0001513043" flag="0"/>
    </comp>
  </station>
  <station code="ATLO" name="ATLO" netid="IV" insttype="" lat="43.3152" lon="12.4073">
    <comp name="--.HNE">
      <acc value="0.0238904304" flag="0"/>
      <vel value="0.0101803140" flag="0"/>
      <psa03 value="0.0379116064" flag="0"/>
      <psa10 value="0.0038750811" flag="0"/>
      <psa30 value="0.0002765636" flag="0"/>
    </comp>
    <comp name="--.HNN">
      <acc value="0.0183306962" flag="0"/>
      <vel value="0.0056926311" flag="0"/>
      <psa03 value="0.0293893931" flag="0"/>
      <psa10 value="0.0041578716" flag="0"/>
      <psa30 value="0.0002851436" flag="0"/>
    </comp>
    <comp name="--.HNZ">
      <acc value="0.0041489542" flag="0"/>
      <vel value="0.0011469046" flag="0"/>
      <psa03 value="0.0044142449" flag="0"/>
      <psa10 value="0.0004377871" flag="0"/>
      <psa30 value="0.0000481674" flag="0"/>
    </comp>
  </station>
  <station code="ATMI" name="ATMI" netid="IV" insttype="" lat="43.3342" lon="12.268">
    <comp name="--.HHE">
      <acc value="0.0667174574" flag="0"/>
      <vel value="0.0197644474" flag="0"/>
      <psa03 value="0.1378626687" flag="0"/>
      <psa10 value="0.0093120252" flag="0"/>
      <psa30 value="0.0005879670" flag="0"/>
    </comp>
    <comp name="--.HHN">
      <acc value="0.0778029544" flag="0"/>
      <vel value="0.0253023704" flag="0"/>
      <psa03 value="0.1778341296" flag="0"/>
      <psa10 value="0.0085217570" flag="0"/>
      <psa30 value="0.0006262528" flag="0"/>
    </comp>
    <comp name="--.HHZ">
      <acc value="0.0422911061" flag="0"/>
      <vel value="0.0152043500" flag="0"/>
      <psa03 value="0.0961027671" flag="0"/>
      <psa10 value="0.0043889616" flag="0"/>
      <psa30 value="0.0004094093" flag="0"/>
    </comp>
  </station>
  <station code="ATPC" name="ATPC" netid="IV" insttype="" lat="43.4807" lon="12.457">
    <comp name="--.HHE">
      <acc value="0.0878690751" flag="0"/>
      <vel value="0.0253871529" flag="0"/>
      <psa03 value="0.1193282506" flag="0"/>
      <psa10 value="0.0058165084" flag="0"/>
      <psa30 value="0.0004629549" flag="0"/>
    </comp>
    <comp name="--.HHN">
      <acc value="0.0854464392" flag="0"/>
      <vel value="0.0178014632" flag="0"/>
      <psa03 value="0.1125602882" flag="0"/>
      <psa10 value="0.0071430650" flag="0"/>
      <psa30 value="0.0004211721" flag="0"/>
    </comp>
    <comp name="--.HHZ">
      <acc value="0.0546583176" flag="0"/>
      <vel value="0.0104698517" flag="0"/>
      <psa03 value="0.0651423513" flag="0"/>
      <psa10 value="0.0029461194" flag="0"/>
      <psa30 value="0.0004107745" flag="0"/>
    </comp>
  </station>
  <station code="ATPI" name="ATPI" netid="IV" insttype="" lat="43.4507" lon="12.4022">
    <comp name="--.HNE">
      <acc value="0.0646506971" flag="0"/>
      <vel value="0.0131752338" flag="0"/>
      <psa03 value="0.0460319908" flag="0"/>
      <psa10 value="0.0040383644" flag="0"/>
      <psa30 value="0.0002945618" flag="0"/>
    </comp>
    <comp name="--.HNN">
      <acc value="0.0437915376" flag="0"/>
      <vel value="0.0127651255" flag="0"/>
      <psa03 value="0.0556700319" flag="0"/>
      <psa10 value="0.0038707187" flag="0"/>
      <psa30 value="0.0002427906" flag="0"/>
    </comp>
    <comp name="--.HNZ">
      <acc value="0.0192047812" flag="0"/>
      <vel value="0.0056364738" flag="0"/>
      <psa03 value="0.0355739592" flag="0"/>
      <psa10 value="0.0027755779" flag="0"/>
      <psa30 value="0.0002089461" flag="0"/>
    </comp>
  </station>
  <station code="ATVO" name="ATVO" netid="IV" insttype="" lat="43.3821" lon="12.4066">
    <comp name="--.HHE">
      <acc value="0.0358269403" flag="0"/>
      <vel value="0.0088894697" flag="0"/>
      <psa03 value="0.0501632777" flag="0"/>
      <psa10 value="0.0044107979" flag="0"/>
      <psa30 value="0.0003280853" flag="0"/>
    </comp>
    <comp name="--.HHN">
      <acc value="0.0313579415" flag="0"/>
      <vel value="0.0117687370" flag="0"/>
      <psa03 value="0.0402276756" flag="0"/>
      <psa10 value="0.0048831269" flag="0"/>
      <psa30 value="0.0002990473" flag="0"/>
    </comp>
    <comp name="--.HHZ">
      <acc value="0.0177749632" flag="0"/>
      <vel value="0.0058899218" flag="0"/>
      <psa03 value="0.0435673843" flag="0"/>
      <psa10 value="0.0038723878" flag="0"/>
      <psa30 value="0.0001816199" flag="0"/>
    </comp>
  </station>
  <station code="BDI" name="BDI" netid="IV" insttype="" lat="44.0624" lon="10.597">
    <comp name="--.HHE">
      <acc value="0.0044152960" flag="0"/>
      <vel value="0.0018105552" flag="0"/>
      <psa03 value="0.0107887456" flag="0"/>
      <psa10 value="0.0015327300" flag="0"/>
      <psa30 value="0.0001239123" flag="0"/>
    </comp>
    <comp name="--.HHN">
      <acc value="0.0038024988" flag="0"/>
      <vel value="0.0013787192" flag="0"/>
      <psa03 value="0.0117962704" flag="0"/>
      <psa10 value="0.0011677993" flag="0"/>
      <psa30 value="0.0001391497" flag="0"/>
    </comp>
    <comp name="--.HHZ">
      <acc value="0.0026953708" flag="0"/>
      <vel value="0.0010425471" flag="0"/>
      <psa03 value="0.0089784293" flag="0"/>
      <psa10 value="0.0007151131" flag="0"/>
      <psa30 value="0.0000667337" flag="0"/>
    </comp>
  </station>
  <station code="BOSL" name="BOSL" netid="IV" insttype="" lat="43.931" lon="11.3743">
    <comp name="--.HHE">
      <acc value="0.0285965470" flag="0"/>
      <vel value="0.0055440595" flag="0"/>
      <psa03 value="0.0344935441" flag="0"/>
      <psa10 value="0.0014721402" flag="0"/>
      <psa30 value="0.0001026931" flag="0"/>
    </comp>
    <comp name="--.HHZ">
      <acc value="0.0217963908" flag="0"/>
      <vel value="0.0033596016" flag="0"/>
      <psa03 value="0.0259848711" flag="0"/>
      <psa10 value="0.0015966589" flag="0"/>
      <psa30 value="0.0001026931" flag="0"/>
    </comp>
    <comp name="--.HHN">
      <acc value="0.0304933909" flag="0"/>
      <vel value="0.0071172442" flag="0"/>
      <psa03 value="0.0384749994" flag="0"/>
      <psa10 value="0.0015670839" flag="0"/>
      <psa30 value="0.0001411034" flag="0"/>
    </comp>
  </station>
  <station code="BRIS" name="BRIS" netid="IV" insttype="" lat="44.2245" lon="11.7666">
    <comp name="--.HHE">
      <acc value="0.0047366170" flag="0"/>
      <vel value="0.0021607287" flag="0"/>
      <psa03 value="0.0164144563" flag="0"/>
      <psa10 value="0.0019629422" flag="0"/>
      <psa30 value="0.0002224868" flag="0"/>
    </comp>
    <comp name="--.HHN">
      <acc value="0.0048655736" flag="0"/>
      <vel value="0.0025582698" flag="0"/>
      <psa03 value="0.0154070742" flag="0"/>
      <psa10 value="0.0014523624" flag="0"/>
      <psa30 value="0.0001448858" flag="0"/>
    </comp>
    <comp name="--.HHZ">
      <acc value="0.0031626870" flag="0"/>
      <vel value="0.0018268057" flag="0"/>
      <psa03 value="0.0092972096" flag="0"/>
      <psa10 value="0.0017634578" flag="0"/>
      <psa30 value="0.0001244091" flag="0"/>
    </comp>
  </station>
  <station code="BRSN" name="BRSN" netid="IV" insttype="" lat="44.2842" lon="12.0802">
    <comp name="--.HNN">
      <acc value="0.0104793429" flag="0"/>
      <vel value="0.0057230778" flag="0"/>
      <psa03 value="0.0390613252" flag="0"/>
      <psa10 value="0.0069331995" flag="0"/>
      <psa30 value="0.0009230437" flag="0"/>
    </comp>
    <comp name="--.HNZ">
      <acc value="0.0068247176" flag="0"/>
      <vel value="0.0024417407" flag="0"/>
      <psa03 value="0.0123658840" flag="0"/>
      <psa10 value="0.0014228540" flag="0"/>
      <psa30 value="0.0002546935" flag="0"/>
    </comp>
    <comp name="--.HNE">
      <acc value="0.0102435971" flag="0"/>
      <vel value="0.0062362693" flag="0"/>
      <psa03 value="0.0333449631" flag="0"/>
      <psa10 value="0.0107413928" flag="0"/>
      <psa30 value="0.0012078634" flag="0"/>
    </comp>
  </station>
  <station code="CAFI" name="CAFI" netid="IV" insttype="" lat="43.3292" lon="11.9663">
    <comp name="--.HHE">
      <acc value="0.0364565497" flag="0"/>
      <vel value="0.0116825572" flag="0"/>
      <psa03 value="0.0366337225" flag="0"/>
      <psa10 value="0.0086655777" flag="0"/>
      <psa30 value="0.0004872333" flag="0"/>
    </comp>
    <comp name="--.HHN">
      <acc value="0.0379771188" flag="0"/>
      <vel value="0.0119396653" flag="0"/>
      <psa03 value="0.0382788705" flag="0"/>
      <psa10 value="0.0052520745" flag="0"/>
      <psa30 value="0.0004032431" flag="0"/>
    </comp>
    <comp name="--.HHZ">
      <acc value="0.0240384879" flag="0"/>
      <vel value="0.0047702688" flag="0"/>
      <psa03 value="0.0346466061" flag="0"/>
      <psa10 value="0.0023161570" flag="0"/>
      <psa30 value="0.0002727020" flag="0"/>
    </comp>
  </station>
  <station code="CASP" name="CASP" netid="IV" insttype="" lat="42.7908" lon="10.8652">
    <comp name="--.HHE">
      <acc value="0.0007492582" flag="0"/>
      <vel value="0.0003347420" flag="0"/>
      <psa03 value="0.0017189397" flag="0"/>
      <psa10 value="0.0001821602" flag="0"/>
      <psa30 value="0.0000182332" flag="0"/>
    </comp>
    <comp name="--.HHN">
      <acc value="0.0011584298" flag="0"/>
      <vel value="0.0004563201" flag="0"/>
      <psa03 value="0.0020326445" flag="0"/>
      <psa10 value="0.0003685128" flag="0"/>
      <psa30 value="0.0000219107" flag="0"/>
    </comp>
    <comp name="--.HHZ">
      <acc value="0.0012702591" flag="0"/>
      <vel value="0.0004908701" flag="0"/>
      <psa03 value="0.0026193686" flag="0"/>
      <psa10 value="0.0004198657" flag="0"/>
      <psa30 value="0.0000248942" flag="0"/>
    </comp>
  </station>
  <station code="CDCA" name="CDCA" netid="IV" insttype="" lat="43.4584" lon="12.2336">
    <comp name="--.HNE">
      <acc value="0.4170977191" flag="0"/>
      <vel value="0.0508408101" flag="0"/>
      <psa03 value="0.1259629287" flag="0"/>
      <psa10 value="0.0106425938" flag="0"/>
      <psa30 value="0.0008634997" flag="0"/>
    </comp>
    <comp name="--.HNN">
      <acc value="1.1030383131" flag="0"/>
      <vel value="0.1601601140" flag="0"/>
      <psa03 value="0.3518127126" flag="0"/>
      <psa10 value="0.0201736616" flag="0"/>
      <psa30 value="0.0017617728" flag="0"/>
    </comp>
    <comp name="--.HNZ">
      <acc value="0.2324123167" flag="0"/>
      <vel value="0.0308855791" flag="0"/>
      <psa03 value="0.1548480864" flag="0"/>
      <psa10 value="0.0111837845" flag="0"/>
      <psa30 value="0.0007367919" flag="0"/>
    </comp>
  </station>
  <station code="CING" name="CING" netid="IV" insttype="" lat="43.3756" lon="13.1954">
    <comp name="--.HHE">
      <acc value="0.0023599491" flag="0"/>
      <vel value="0.0008539016" flag="0"/>
      <psa03 value="0.0038663036" flag="0"/>
      <psa10 value="0.0007700032" flag="0"/>
      <psa30 value="0.0000549117" flag="0"/>
    </comp>
    <comp name="--.HHN">
      <acc value="0.0023246094" flag="0"/>
      <vel value="0.0013609534" flag="0"/>
      <psa03 value="0.0055532160" flag="0"/>
      <psa10 value="0.0016150030" flag="0"/>
      <psa30 value="0.0000866644" flag="0"/>
    </comp>
    <comp name="--.HHZ">
      <acc value="0.0018267098" flag="0"/>
      <vel value="0.0008124983" flag="0"/>
      <psa03 value="0.0056978976" flag="0"/>
      <psa10 value="0.0006852543" flag="0"/>
      <psa30 value="0.0000514294" flag="0"/>
    </comp>
  </station>
  <station code="CPGN" name="CPGN" netid="IV" insttype="" lat="43.8011" lon="12.3205">
    <comp name="--.HNE">
      <acc value="0.0368016577" flag="0"/>
      <vel value="0.0163284784" flag="0"/>
      <psa03 value="0.0881832598" flag="0"/>
      <psa10 value="0.0091194199" flag="0"/>
      <psa30 value="0.0003829786" flag="0"/>
    </comp>
    <comp name="--.HNN">
      <acc value="0.0250736525" flag="0"/>
      <vel value="0.0091519177" flag="0"/>
      <psa03 value="0.0616822925" flag="0"/>
      <psa10 value="0.0076405851" flag="0"/>
      <psa30 value="0.0004843852" flag="0"/>
    </comp>
    <comp name="--.HNZ">
      <acc value="0.0329091664" flag="0"/>
      <vel value="0.0067987562" flag="0"/>
      <psa03 value="0.0339774446" flag="0"/>
      <psa10 value="0.0048003357" flag="0"/>
      <psa30 value="0.0002594251" flag="0"/>
    </comp>
  </station>
  <station code="CRE" name="CRE" netid="IV" insttype="" lat="43.6189" lon="11.9517">
    <comp name="--.HHE">
      <acc value="0.5880707707" flag="0"/>
      <vel value="0.1687110538" flag="0"/>
      <psa03 value="0.6705808872" flag="0"/>
      <psa10 value="0.0319907817" flag="0"/>
      <psa30 value="0.0030704832" flag="0"/>
    </comp>
    <comp name="--.HHN">
      <acc value="1.0050606491" flag="0"/>
      <vel value="0.2357591929" flag="0"/>
      <psa03 value="0.9516520919" flag="0"/>
      <psa10 value="0.0478388770" flag="0"/>
      <psa30 value="0.0056173374" flag="0"/>
    </comp>
