<?xml version="1.0" encoding="UTF-8" standalone="yes"?>
<!DOCTYPE earthquake SYSTEM "stationlist.dtd">
<stationlist created="" xmlns="ch.ethz.sed.shakemap.usgs.xml">
  <station code="CARD" name="CARD" netid="GU" insttype="" lat="44.0261" lon="10.4821">
    <comp name="--.HHE">
      <acc value="0.0063115841" flag="0"/>
      <vel value="0.0016857803" flag="0"/>
      <psa03 value="0.0092017174" flag="0"/>
      <psa10 value="0.0010543656" flag="0"/>
      <psa30 value="0.0000637019" flag="0"/>
    </comp>
    <comp name="--.HHN">
      <acc value="0.0056750091" flag="0"/>
      <vel value="0.0015276065" flag="0"/>
      <psa03 value="0.0090592342" flag="0"/>
      <psa10 value="0.0018605600" flag="0"/>
      <psa30 value="0.0000904743" flag="0"/>
    </comp>
    <comp name="--.HHZ">
      <acc value="0.0020214822" flag="0"/>
      <vel value="0.0007674277" flag="0"/>
      <psa03 value="0.0049426851" flag="0"/>
      <psa10 value="0.0009077323" flag="0"/>
      <psa30 value="0.0000620490" flag="0"/>
    </comp>
  </station>
  <station code="POPM" name="POPM" netid="GU" insttype="" lat="44.045" lon="10.757">
    <comp name="--.HHE">
      <acc value="0.0081719254" flag="0"/>
      <vel value="0.0033365486" flag="0"/>
      <psa03 value="0.0184525941" flag="0"/>
      <psa10 value="0.0010561616" flag="0"/>
      <psa30 value="0.0001167505" flag="0"/>
    </comp>
    <comp name="--.HHN">
      <acc value="0.0107570271" flag="0"/>
      <vel value="0.0035820786" flag="0"/>
      <psa03 value="0.0312910404" flag="0"/>
      <psa10 value="0.0016733953" flag="0"/>
      <psa30 value="0.0001213860" flag="0"/>
    </comp>
    <comp name="--.HHZ">
      <acc value="0.0038491552" flag="0"/>
      <vel value="0.0014853746" flag="0"/>
      <psa03 value="0.0105581013" flag="0"/>
      <psa10 value="0.0015211722" flag="0"/>
      <psa30 value="0.0000955095" flag="0"/>
    </comp>
  </station>
  <station code="APEC" name="APEC" netid="IV" insttype="" lat="43.5585" lon="12.4199">
    <comp name="--.HHE">
      <acc value="0.0896921714" flag="0"/>
      <vel value="0.0286482753" flag="0"/>
      <psa03 value="0.1577114398" flag="0"/>
      <psa10 value="0.0066277126" flag="0"/>
      <psa30 value="0.0006004338" flag="0"/>
    </comp>
    <comp name="--.HHZ">
      <acc value="0.0523172763" flag="0"/>
      <vel value="0.0118915314" flag="0"/>
      <psa03 value="0.0539704953" flag="0"/>
      <psa10 value="0.0040193153" flag="0"/>
      <psa30 value="0.0002662050" flag="0"/>
    </comp>
    <comp name="--.HHN">
      <acc value="0.0883431852" flag="0"/>
      <vel value="0.0255787157" flag="0"/>
      <psa03 value="0.1135106649" flag="0"/>
      <psa10 value="0.0066077183" flag="0"/>
      <psa30 value="0.0004832359" flag="0"/>
    </comp>
  </station>
  <station code="ARCI" name="ARCI" netid="IV" insttype="" lat="42.8519" lon="11.4754">
    <comp name="--.HHE">
      <acc value="0.0038911981" flag="0"/>
      <vel value="0.0018543687" flag="0"/>
      <psa03 value="0.0143347149" flag="0"/>
      <psa10 value="0.0025983589" flag="0"/>
      <psa30 value="0.0001513738" flag="0"/>
    </comp>
    <comp name="--.HHN">
      <acc value="0.0056620835" flag="0"/>
      <vel value="0.0037495455" flag="0"/>
      <psa03 value="0.0205896786" flag="0"/>
      <psa10 value="0.0049082090" flag="0"/>
      <psa30 value="0.0001691184" flag="0"/>
    </comp>
    <comp name="--.HHZ">
      <acc value="0.0043457415" flag="0"/>
      <vel value="0.0015029176" flag="0"/>
      <psa03 value="0.0062576742" flag="0"/>
      <psa10 value="0.0008412379" flag="0"/>
      <psa30 value="0.0000701506" flag="0"/>
    </comp>
  </station>
  <station code="ARVD" name="ARVD" netid="IV" insttype="" lat="43.4981" lon="12.9415">
    <comp name="--.HHE">
      <acc value="0.0054632378" flag="0"/>
      <vel value="0.0015150723" flag="0"/>
      <psa03 value="0.0058689745" flag="0"/>
      <psa10 value="0.0015191182" flag="0"/>
      <psa30 value="0.0001028438" flag="0"/>
    </comp>
    <comp name="--.HHN">
      <acc value="0.0068628538" flag="0"/>
      <vel value="0.0019834565" flag="0"/>
      <psa03 value="0.0057665050" flag="0"/>
      <psa10 value="0.0012728793" flag="0"/>
      <psa30 value="0.0000799412" flag="0"/>
    </comp>
    <comp name="--.HHZ">
      <acc value="0.0047434439" flag="0"/>
      <vel value="0.0013757586" flag="0"/>
      <psa03 value="0.0046383664" flag="0"/>
      <psa10 value="0.0013514674" flag="0"/>
      <psa30 value="0.0001008218" flag="0"/>
    </comp>
  </station>
  <station code="ASSB" name="ASSB" netid="IV" insttype="" lat="43.0426" lon="12.6587">
    <comp name="--.HHE">
      <acc value="0.0055579131" flag="0"/>
      <vel value="0.0022653390" flag="0"/>
      <psa03 value="0.0194260654" flag="0"/>
      <psa10 value="0.0018218634" flag="0"/>
      <psa30 value="0.0001231836" flag="0"/>
    </comp>
    <comp name="--.HHZ">
      <acc value="0.0041812416" flag="0"/>
      <vel value="0.0015822076" flag="0"/>
      <psa03 value="0.0089060119" flag="0"/>
      <psa10 value="0.0006649359" flag="0"/>
      <psa30 value="0.0001103796" flag="0"/>
    </comp>
    <comp name="--.HHN">
      <acc value="0.0067103737" flag="0"/>
      <vel value="0.0023079510" flag="0"/>
      <psa03 value="0.0165470864" flag="0"/>
      <psa10 value="0.0014446558" flag="0"/>
      <psa30 value="0.0001040526" flag="0"/>
    </comp>
  </station>
  <station code="ATBU" name="ATBU" netid="IV" insttype="" lat="43.4757" lon="12.5483">
    <comp name="--.HNN">
      <acc value="0.0508473719" flag="0"/>
      <vel value="0.0174713377" flag="0"/>
      <psa03 value="0.1055828342" flag="0"/>
      <psa10 value="0.0075281388" flag="0"/>
      <psa30 value="0.0004726766" flag="0"/>
    </comp>
    <comp name="--.HNZ">
      <acc value="0.0202402396" flag="0"/>
      <vel value="0.0055227940" flag="0"/>
      <psa03 value="0.0317892053" flag="0"/>
      <psa10 value="0.0058258402" flag="0"/>
      <psa30 value="0.0002815569" flag="0"/>
    </comp>
    <comp name="--.HNE">
      <acc value="0.0653439830" flag="0"/>
      <vel value="0.0191648446" flag="0"/>
      <psa03 value="0.1064575070" flag="0"/>
      <psa10 value="0.0101710911" flag="0"/>
      <psa30 value="0.0004358591" flag="0"/>
    </comp>
  </station>
  <station code="ATCC" name="ATCC" netid="IV" insttype="" lat="43.1851" lon="12.6399">
    <comp name="--.HNE">
      <acc value="0.0163535720" flag="0"/>
      <vel value="0.0080828465" flag="0"/>
      <psa03 value="0.0449761199" flag="0"/>
      <psa10 value="0.0073860034" flag="0"/>
      <psa30 value="0.0003669544" flag="0"/>
    </comp>
    <comp name="--.HNN">
      <acc value="0.0149064807" flag="0"/>
      <vel value="0.0051221157" flag="0"/>
      <psa03 value="0.0337448737" flag="0"/>
      <psa10 value="0.0022292908" flag="0"/>
      <psa30 value="0.0002502202" flag="0"/>
    </comp>
    <comp name="--.HNZ">
      <acc value="0.0074600707" flag="0"/>
      <vel value="0.0030293810" flag="0"/>
      <psa03 value="0.0177644032" flag="0"/>
      <psa10 value="0.0032379176" flag="0"/>
      <psa30 value="0.0002426917" flag="0"/>
    </comp>
  </station>
  <station code="ATFO" name="ATFO" netid="IV" insttype="" lat="43.3666" lon="12.5715">
    <comp name="--.HHE">
      <acc value="0.0211990841" flag="0"/>
      <vel value="0.0075657990" flag="0"/>
      <psa03 value="0.0414336471" flag="0"/>
      <psa10 value="0.0038178174" flag="0"/>
      <psa30 value="0.0002127732" flag="0"/>
    </comp>
    <comp name="--.HHN">
      <acc value="0.0206114011" flag="0"/>
      <vel value="0.0073596631" flag="0"/>
      <psa03 value="0.0547994255" flag="0"/>
      <psa10 value="0.0026479054" flag="0"/>
      <psa30 value="0.0002732424" flag="0"/>
    </comp>
    <comp name="--.HHZ">
      <acc value="0.0099629697" flag="0"/>
      <vel value="0.0034095949" flag="0"/>
      <psa03 value="0.0225343396" flag="0"/>
      <psa10 value="0.0022331219" flag="0"/>
      <psa30 value="0.0001512554" flag="0"/>
    </comp>
  </station>
  <station code="ATLO" name="ATLO" netid="IV" insttype="" lat="43.3152" lon="12.4073">
    <comp name="--.HNE">
      <acc value="0.0238904312" flag="0"/>
      <vel value="0.0101803142" flag="0"/>
      <psa03 value="0.0379116064" flag="0"/>
      <psa10 value="0.0038750811" flag="0"/>
      <psa30 value="0.0002757326" flag="0"/>
    </comp>
    <comp name="--.HNN">
      <acc value="0.0183306972" flag="0"/>
      <vel value="0.0056926335" flag="0"/>
      <psa03 value="0.0293893931" flag="0"/>
      <psa10 value="0.0041578710" flag="0"/>
      <psa30 value="0.0002836204" flag="0"/>
    </comp>
    <comp name="--.HNZ">
      <acc value="0.0041489542" flag="0"/>
      <vel value="0.0011469052" flag="0"/>
      <psa03 value="0.0044142449" flag="0"/>
      <psa10 value="0.0004377869" flag="0"/>
      <psa30 value="0.0000481967" flag="0"/>
    </comp>
  </station>
  <station code="ATMI" name="ATMI" netid="IV" insttype="" lat="43.3342" lon="12.268">
    <comp name="--.HHE">
      <acc value="0.0667174577" flag="0"/>
      <vel value="0.0197644486" flag="0"/>
      <psa03 value="0.1378626687" flag="0"/>
      <psa10 value="0.0093120251" flag="0"/>
      <psa30 value="0.0005879624" flag="0"/>
    </comp>
    <comp name="--.HHN">
      <acc value="0.0778029543" flag="0"/>
      <vel value="0.0253023707" flag="0"/>
      <psa03 value="0.1778341296" flag="0"/>
      <psa10 value="0.0085217570" flag="0"/>
      <psa30 value="0.0006262300" flag="0"/>
    </comp>
    <comp name="--.HHZ">
      <acc value="0.0422911061" flag="0"/>
      <vel value="0.0152043509" flag="0"/>
      <psa03 value="0.0961027671" flag="0"/>
      <psa10 value="0.0043889617" flag="0"/>
      <psa30 value="0.0004093578" flag="0"/>
    </comp>
  </station>
  <station code="ATPC" name="ATPC" netid="IV" insttype="" lat="43.4807" lon="12.457">
    <comp name="--.HHN">
      <acc value="0.0854464391" flag="0"/>
      <vel value="0.0178014631" flag="0"/>
      <psa03 value="0.1125602882" flag="0"/>
      <psa10 value="0.0071430649" flag="0"/>
      <psa30 value="0.0004212874" flag="0"/>
    </comp>
    <comp name="--.HHE">
      <acc value="0.0878690751" flag="0"/>
      <vel value="0.0253871521" flag="0"/>
      <psa03 value="0.1193282506" flag="0"/>
      <psa10 value="0.0058165084" flag="0"/>
      <psa30 value="0.0004628621" flag="0"/>
    </comp>
    <comp name="--.HHZ">
      <acc value="0.0546583176" flag="0"/>
      <vel value="0.0104698554" flag="0"/>
      <psa03 value="0.0651423513" flag="0"/>
      <psa10 value="0.0029461195" flag="0"/>
      <psa30 value="0.0004108072" flag="0"/>
    </comp>
  </station>
  <station code="ATPI" name="ATPI" netid="IV" insttype="" lat="43.4507" lon="12.4022">
    <comp name="--.HNE">
      <acc value="0.0646506933" flag="0"/>
      <vel value="0.0131752311" flag="0"/>
      <psa03 value="0.0460319908" flag="0"/>
      <psa10 value="0.0040383637" flag="0"/>
      <psa30 value="0.0002933181" flag="0"/>
    </comp>
    <comp name="--.HNN">
      <acc value="0.0437915379" flag="0"/>
      <vel value="0.0127651244" flag="0"/>
      <psa03 value="0.0556700319" flag="0"/>
      <psa10 value="0.0038707216" flag="0"/>
      <psa30 value="0.0002429926" flag="0"/>
    </comp>
    <comp name="--.HNZ">
      <acc value="0.0192047818" flag="0"/>
      <vel value="0.0056364730" flag="0"/>
      <psa03 value="0.0355739592" flag="0"/>
      <psa10 value="0.0027755806" flag="0"/>
      <psa30 value="0.0002088960" flag="0"/>
    </comp>
  </station>
  <station code="ATVO" name="ATVO" netid="IV" insttype="" lat="43.3821" lon="12.4066">
    <comp name="--.HHN">
      <acc value="0.0313579414" flag="0"/>
      <vel value="0.0117687372" flag="0"/>
      <psa03 value="0.0402276756" flag="0"/>
      <psa10 value="0.0048831269" flag="0"/>
      <psa30 value="0.0002990522" flag="0"/>
    </comp>
    <comp name="--.HHZ">
      <acc value="0.0177749632" flag="0"/>
      <vel value="0.0058899224" flag="0"/>
      <psa03 value="0.0435673843" flag="0"/>
      <psa10 value="0.0038723878" flag="0"/>
      <psa30 value="0.0001816136" flag="0"/>
    </comp>
    <comp name="--.HHE">
      <acc value="0.0358269402" flag="0"/>
      <vel value="0.0088894695" flag="0"/>
      <psa03 value="0.0501632777" flag="0"/>
      <psa10 value="0.0044107978" flag="0"/>
      <psa30 value="0.0003281868" flag="0"/>
    </comp>
  </station>
  <station code="BDI" name="BDI" netid="IV" insttype="" lat="44.0624" lon="10.597">
    <comp name="--.HHE">
      <acc value="0.0044152961" flag="0"/>
      <vel value="0.0018105542" flag="0"/>
      <psa03 value="0.0107887456" flag="0"/>
      <psa10 value="0.0015327299" flag="0"/>
      <psa30 value="0.0001239187" flag="0"/>
    </comp>
    <comp name="--.HHN">
      <acc value="0.0038024990" flag="0"/>
      <vel value="0.0013787192" flag="0"/>
      <psa03 value="0.0117962704" flag="0"/>
      <psa10 value="0.0011677993" flag="0"/>
      <psa30 value="0.0001391446" flag="0"/>
    </comp>
    <comp name="--.HHZ">
      <acc value="0.0026953707" flag="0"/>
      <vel value="0.0010425494" flag="0"/>
      <psa03 value="0.0089784293" flag="0"/>
      <psa10 value="0.0007151131" flag="0"/>
      <psa30 value="0.0000667333" flag="0"/>
    </comp>
  </station>
  <station code="BOSL" name="BOSL" netid="IV" insttype="" lat="43.931" lon="11.3743">
    <comp name="--.HHE">
      <acc value="0.0285965474" flag="0"/>
      <vel value="0.0055440598" flag="0"/>
      <psa03 value="0.0344935441" flag="0"/>
      <psa10 value="0.0014721402" flag="0"/>
      <psa30 value="0.0001027188" flag="0"/>
    </comp>
    <comp name="--.HHN">
      <acc value="0.0304933944" flag="0"/>
      <vel value="0.0071172441" flag="0"/>
      <psa03 value="0.0384749994" flag="0"/>
      <psa10 value="0.0015670838" flag="0"/>
      <psa30 value="0.0001410760" flag="0"/>
    </comp>
    <comp name="--.HHZ">
      <acc value="0.0217963889" flag="0"/>
      <vel value="0.0033596016" flag="0"/>
      <psa03 value="0.0259848711" flag="0"/>
      <psa10 value="0.0015966589" flag="0"/>
      <psa30 value="0.0001026899" flag="0"/>
    </comp>
  </station>
  <station code="BRIS" name="BRIS" netid="IV" insttype="" lat="44.2245" lon="11.7666">
    <comp name="--.HHE">
      <acc value="0.0047366168" flag="0"/>
      <vel value="0.0021607282" flag="0"/>
      <psa03 value="0.0164144563" flag="0"/>
      <psa10 value="0.0019629422" flag="0"/>
      <psa30 value="0.0002224970" flag="0"/>
    </comp>
    <comp name="--.HHN">
      <acc value="0.0048655737" flag="0"/>
      <vel value="0.0025582689" flag="0"/>
      <psa03 value="0.0154070742" flag="0"/>
      <psa10 value="0.0014523624" flag="0"/>
      <psa30 value="0.0001448867" flag="0"/>
    </comp>
    <comp name="--.HHZ">
      <acc value="0.0031626870" flag="0"/>
      <vel value="0.0018268039" flag="0"/>
      <psa03 value="0.0092972096" flag="0"/>
      <psa10 value="0.0017634578" flag="0"/>
      <psa30 value="0.0001244011" flag="0"/>
    </comp>
  </station>
  <station code="BRSN" name="BRSN" netid="IV" insttype="" lat="44.2842" lon="12.0802">
    <comp name="--.HNE">
      <acc value="0.0102435946" flag="0"/>
      <vel value="0.0062362699" flag="0"/>
      <psa03 value="0.0333449631" flag="0"/>
      <psa10 value="0.0107413928" flag="0"/>
      <psa30 value="0.0012080231" flag="0"/>
    </comp>
    <comp name="--.HNN">
      <acc value="0.0104793457" flag="0"/>
      <vel value="0.0057230806" flag="0"/>
      <psa03 value="0.0390613252" flag="0"/>
      <psa10 value="0.0069331995" flag="0"/>
      <psa30 value="0.0009230164" flag="0"/>
    </comp>
    <comp name="--.HNZ">
      <acc value="0.0068247191" flag="0"/>
      <vel value="0.0024417397" flag="0"/>
      <psa03 value="0.0123658840" flag="0"/>
      <psa10 value="0.0014228540" flag="0"/>
      <psa30 value="0.0002546967" flag="0"/>
    </comp>
  </station>
  <station code="CAFI" name="CAFI" netid="IV" insttype="" lat="43.3292" lon="11.9663">
    <comp name="--.HHE">
      <acc value="0.0364565498" flag="0"/>
      <vel value="0.0116825588" flag="0"/>
      <psa03 value="0.0366337225" flag="0"/>
      <psa10 value="0.0086655777" flag="0"/>
      <psa30 value="0.0004869580" flag="0"/>
    </comp>
    <comp name="--.HHN">
      <acc value="0.0379771188" flag="0"/>
      <vel value="0.0119396664" flag="0"/>
      <psa03 value="0.0382788705" flag="0"/>
      <psa10 value="0.0052520742" flag="0"/>
      <psa30 value="0.0004031630" flag="0"/>
    </comp>
    <comp name="--.HHZ">
      <acc value="0.0240384878" flag="0"/>
      <vel value="0.0047702664" flag="0"/>
      <psa03 value="0.0346466061" flag="0"/>
      <psa10 value="0.0023161570" flag="0"/>
      <psa30 value="0.0002726499" flag="0"/>
    </comp>
  </station>
  <station code="CASP" name="CASP" netid="IV" insttype="" lat="42.7908" lon="10.8652">
    <comp name="--.HHE">
      <acc value="0.0007492582" flag="0"/>
      <vel value="0.0003347418" flag="0"/>
      <psa03 value="0.0017189397" flag="0"/>
      <psa10 value="0.0001821602" flag="0"/>
      <psa30 value="0.0000182371" flag="0"/>
    </comp>
    <comp name="--.HHN">
      <acc value="0.0011584296" flag="0"/>
      <vel value="0.0004563202" flag="0"/>
      <psa03 value="0.0020326445" flag="0"/>
      <psa10 value="0.0003685129" flag="0"/>
      <psa30 value="0.0000219168" flag="0"/>
    </comp>
    <comp name="--.HHZ">
      <acc value="0.0012702589" flag="0"/>
      <vel value="0.0004908699" flag="0"/>
      <psa03 value="0.0026193686" flag="0"/>
      <psa10 value="0.0004198654" flag="0"/>
      <psa30 value="0.0000249209" flag="0"/>
    </comp>
  </station>
  <station code="CDCA" name="CDCA" netid="IV" insttype="" lat="43.4584" lon="12.2336">
    <comp name="--.HNE">
      <acc value="0.4170977185" flag="0"/>
      <vel value="0.0508408099" flag="0"/>
      <psa03 value="0.1259629287" flag="0"/>
      <psa10 value="0.0106425939" flag="0"/>
      <psa30 value="0.0008667016" flag="0"/>
    </comp>
    <comp name="--.HNN">
      <acc value="1.1030383126" flag="0"/>
      <vel value="0.1601601140" flag="0"/>
      <psa03 value="0.3518127126" flag="0"/>
      <psa10 value="0.0201736613" flag="0"/>
      <psa30 value="0.0017614647" flag="0"/>
    </comp>
    <comp name="--.HNZ">
      <acc value="0.2324123176" flag="0"/>
      <vel value="0.0308855829" flag="0"/>
      <psa03 value="0.1548480864" flag="0"/>
      <psa10 value="0.0111837843" flag="0"/>
      <psa30 value="0.0007367737" flag="0"/>
    </comp>
  </station>
  <station code="CING" name="CING" netid="IV" insttype="" lat="43.3756" lon="13.1954">
    <comp name="--.HHE">
      <acc value="0.0023599489" flag="0"/>
      <vel value="0.0008539009" flag="0"/>
      <psa03 value="0.0038663036" flag="0"/>
      <psa10 value="0.0007700032" flag="0"/>
      <psa30 value="0.0000549009" flag="0"/>
    </comp>
    <comp name="--.HHN">
      <acc value="0.0023246093" flag="0"/>
      <vel value="0.0013609551" flag="0"/>
      <psa03 value="0.0055532160" flag="0"/>
      <psa10 value="0.0016150030" flag="0"/>
      <psa30 value="0.0000866380" flag="0"/>
    </comp>
    <comp name="--.HHZ">
      <acc value="0.0018267099" flag="0"/>
      <vel value="0.0008124983" flag="0"/>
      <psa03 value="0.0056978976" flag="0"/>
      <psa10 value="0.0006852543" flag="0"/>
      <psa30 value="0.0000514482" flag="0"/>
    </comp>
  </station>
  <station code="CPGN" name="CPGN" netid="IV" insttype="" lat="43.8011" lon="12.3205">
    <comp name="--.HNE">
      <acc value="0.0368016595" flag="0"/>
      <vel value="0.0163284773" flag="0"/>
      <psa03 value="0.0881832598" flag="0"/>
      <psa10 value="0.0091194209" flag="0"/>
      <psa30 value="0.0003830410" flag="0"/>
    </comp>
    <comp name="--.HNN">
      <acc value="0.0250736525" flag="0"/>
      <vel value="0.0091519168" flag="0"/>
      <psa03 value="0.0616822925" flag="0"/>
      <psa10 value="0.0076405806" flag="0"/>
      <psa30 value="0.0004842587" flag="0"/>
    </comp>
