<?xml version="1.0" encoding="UTF-8" standalone="yes"?>
<!DOCTYPE earthquake SYSTEM "stationlist.dtd">
<stationlist created="" xmlns="ch.ethz.sed.shakemap.usgs.xml">
  <station code="ARPRA" name="ARPRA" netid="KO" insttype="CMG-5T" lat="39.0929" lon="38.3356">
    <comp name="--.HNZ">
      <acc value="0.0058498513" flag="0"/>
      <vel value="0.0036322971" flag="0"/>
      <psa03 value="0.0185204718" flag="0"/>
      <psa10 value="0.0054527530" flag="0"/>
      <psa30 value="0.0005965891" flag="0"/>
    </comp>
    <comp name="--.HNE">
      <acc value="0.0121270480" flag="0"/>
      <vel value="0.0056219789" flag="0"/>
      <psa03 value="0.0340629326" flag="0"/>
      <psa10 value="0.0062414456" flag="0"/>
      <psa30 value="0.0005597691" flag="0"/>
    </comp>
    <comp name="--.HNN">
      <acc value="0.0123526944" flag="0"/>
      <vel value="0.0073816723" flag="0"/>
      <psa03 value="0.0433943162" flag="0"/>
      <psa10 value="0.0100203073" flag="0"/>
      <psa30 value="0.0004990162" flag="0"/>
    </comp>
  </station>
  <station code="DARE" name="DARE" netid="KO" insttype="CMG-3ESP" lat="38.5712" lon="37.4832">
    <comp name="--.HHN">
      <acc value="0.0107955143" flag="0"/>
      <vel value="0.0059985696" flag="0"/>
      <psa03 value="0.0197340679" flag="0"/>
      <psa10 value="0.0115237881" flag="0"/>
      <psa30 value="0.0006248478" flag="0"/>
    </comp>
    <comp name="--.HHZ">
      <acc value="0.0080248711" flag="0"/>
      <vel value="0.0060388629" flag="0"/>
      <psa03 value="0.0244539818" flag="0"/>
      <psa10 value="0.0071613034" flag="0"/>
      <psa30 value="0.0005033613" flag="0"/>
    </comp>
    <comp name="--.HHE">
      <acc value="0.0126201616" flag="0"/>
      <vel value="0.0071101527" flag="0"/>
      <psa03 value="0.0198180490" flag="0"/>
      <psa10 value="0.0114226753" flag="0"/>
      <psa30 value="0.0009365706" flag="0"/>
    </comp>
  </station>
  <station code="GAZ" name="GAZ" netid="KO" insttype="CMG-3T" lat="37.1721" lon="37.2096">
    <comp name="--.HHE">
      <acc value="0.0133681173" flag="0"/>
      <vel value="0.0083528662" flag="0"/>
      <psa03 value="0.0406035081" flag="0"/>
      <psa10 value="0.0160239453" flag="0"/>
      <psa30 value="0.0008844361" flag="0"/>
    </comp>
    <comp name="--.HHZ">
      <acc value="0.0065656346" flag="0"/>
      <vel value="0.0045717130" flag="0"/>
      <psa03 value="0.0233833407" flag="0"/>
      <psa10 value="0.0052476193" flag="0"/>
      <psa30 value="0.0005785207" flag="0"/>
    </comp>
    <comp name="--.HHN">
      <acc value="0.0076313575" flag="0"/>
      <vel value="0.0062176350" flag="0"/>
      <psa03 value="0.0219961045" flag="0"/>
      <psa10 value="0.0095005656" flag="0"/>
      <psa30 value="0.0006339936" flag="0"/>
    </comp>
  </station>
  <station code="KMRS" name="KMRS" netid="KO" insttype="CMG-3T" lat="37.5053" lon="36.9">
    <comp name="--.HHE">
      <acc value="0.0109990802" flag="0"/>
      <vel value="0.0072950427" flag="0"/>
      <psa03 value="0.0292235462" flag="0"/>
      <psa10 value="0.0079394003" flag="0"/>
      <psa30 value="0.0005725936" flag="0"/>
    </comp>
    <comp name="--.HHN">
      <acc value="0.0121844965" flag="0"/>
      <vel value="0.0091782147" flag="0"/>
      <psa03 value="0.0325023053" flag="0"/>
      <psa10 value="0.0111731402" flag="0"/>
      <psa30 value="0.0005925873" flag="0"/>
    </comp>
    <comp name="--.HHZ">
      <acc value="0.0134020701" flag="0"/>
      <vel value="0.0098040594" flag="0"/>
      <psa03 value="0.0352467188" flag="0"/>
      <psa10 value="0.0059100297" flag="0"/>
      <psa30 value="0.0004298102" flag="0"/>
    </comp>
  </station>
  <station code="SVRC" name="SVRC" netid="KO" insttype="CMG-3T" lat="38.3775" lon="39.306">
    <comp name="--.HHE">
      <acc value="0.0058185637" flag="0"/>
      <vel value="0.0038812333" flag="0"/>
      <psa03 value="0.0183061488" flag="0"/>
      <psa10 value="0.0039484807" flag="0"/>
      <psa30 value="0.0007111339" flag="0"/>
    </comp>
  </station>
  <station code="URFA" name="URFA" netid="KO" insttype="CMG-3ESP" lat="37.4409" lon="38.8213">
    <comp name="--.HHZ">
      <acc value="0.0256576313" flag="0"/>
      <vel value="0.0044880913" flag="0"/>
      <psa03 value="0.0152093874" flag="0"/>
      <psa10 value="0.0066297101" flag="0"/>
      <psa30 value="0.0006626434" flag="0"/>
    </comp>
    <comp name="--.HHN">
      <acc value="0.0209977807" flag="0"/>
      <vel value="0.0050104725" flag="0"/>
      <psa03 value="0.0255670427" flag="0"/>
      <psa10 value="0.0061444255" flag="0"/>
      <psa30 value="0.0012090607" flag="0"/>
    </comp>
    <comp name="--.HHE">
      <acc value="0.0256772079" flag="0"/>
      <vel value="0.0100118600" flag="0"/>
      <psa03 value="0.0362899164" flag="0"/>
      <psa10 value="0.0063975331" flag="0"/>
      <psa30 value="0.0013671241" flag="0"/>
    </comp>
  </station>
</stationlist>
