<?xml version="1.0" encoding="UTF-8" standalone="yes"?>
<!DOCTYPE earthquake SYSTEM "stationlist.dtd">
<stationlist created="" xmlns="ch.ethz.sed.shakemap.usgs.xml">
  <station code="ARPRA" name="ARPRA" netid="KO" insttype="CMG-5T" lat="39.0929" lon="38.3356">
    <comp name="--.HNE">
      <acc value="0.0121270476" flag="0"/>
      <vel value="0.0056219795" flag="0"/>
      <psa03 value="0.0340629326" flag="0"/>
      <psa10 value="0.0062414457" flag="0"/>
      <psa30 value="0.0005597718" flag="0"/>
    </comp>
    <comp name="--.HNZ">
      <acc value="0.0058498467" flag="0"/>
      <vel value="0.0036322915" flag="0"/>
      <psa03 value="0.0185204718" flag="0"/>
      <psa10 value="0.0054527528" flag="0"/>
      <psa30 value="0.0005965940" flag="0"/>
    </comp>
    <comp name="--.HNN">
      <acc value="0.0123526908" flag="0"/>
      <vel value="0.0073816751" flag="0"/>
      <psa03 value="0.0433943162" flag="0"/>
      <psa10 value="0.0100203073" flag="0"/>
      <psa30 value="0.0004988356" flag="0"/>
    </comp>
  </station>
  <station code="DARE" name="DARE" netid="KO" insttype="CMG-3ESP" lat="38.5712" lon="37.4832">
    <comp name="--.HHE">
      <acc value="0.0126201616" flag="0"/>
      <vel value="0.0071101535" flag="0"/>
      <psa03 value="0.0198180490" flag="0"/>
      <psa10 value="0.0114226752" flag="0"/>
      <psa30 value="0.0009365667" flag="0"/>
    </comp>
    <comp name="--.HHN">
      <acc value="0.0107955142" flag="0"/>
      <vel value="0.0059985693" flag="0"/>
      <psa03 value="0.0197340679" flag="0"/>
      <psa10 value="0.0115237882" flag="0"/>
      <psa30 value="0.0006248276" flag="0"/>
    </comp>
    <comp name="--.HHZ">
      <acc value="0.0080248709" flag="0"/>
      <vel value="0.0060388643" flag="0"/>
      <psa03 value="0.0244539818" flag="0"/>
      <psa10 value="0.0071613034" flag="0"/>
      <psa30 value="0.0005033784" flag="0"/>
    </comp>
  </station>
  <station code="KMRS" name="KMRS" netid="KO" insttype="CMG-3T" lat="37.5053" lon="36.9">
    <comp name="--.HHN">
      <acc value="0.0121844958" flag="0"/>
      <vel value="0.0091782140" flag="0"/>
      <psa03 value="0.0325023053" flag="0"/>
      <psa10 value="0.0111731400" flag="0"/>
      <psa30 value="0.0005928613" flag="0"/>
    </comp>
    <comp name="--.HHE">
      <acc value="0.0109990800" flag="0"/>
      <vel value="0.0072950422" flag="0"/>
      <psa03 value="0.0292235462" flag="0"/>
      <psa10 value="0.0079394003" flag="0"/>
      <psa30 value="0.0005725945" flag="0"/>
    </comp>
    <comp name="--.HHZ">
      <acc value="0.0134020702" flag="0"/>
      <vel value="0.0098040594" flag="0"/>
      <psa03 value="0.0352467188" flag="0"/>
      <psa10 value="0.0059100297" flag="0"/>
      <psa30 value="0.0004298102" flag="0"/>
    </comp>
  </station>
  <station code="URFA" name="URFA" netid="KO" insttype="CMG-3ESP" lat="37.4409" lon="38.8213">
    <comp name="--.HHZ">
      <acc value="0.0256576313" flag="0"/>
      <vel value="0.0044880916" flag="0"/>
      <psa03 value="0.0152093875" flag="0"/>
      <psa10 value="0.0066297101" flag="0"/>
      <psa30 value="0.0006626499" flag="0"/>
    </comp>
    <comp name="--.HHE">
      <acc value="0.0256772078" flag="0"/>
      <vel value="0.0100118601" flag="0"/>
      <psa03 value="0.0362899164" flag="0"/>
      <psa10 value="0.0063975331" flag="0"/>
      <psa30 value="0.0013671227" flag="0"/>
    </comp>
    <comp name="--.HHN">
      <acc value="0.0209977807" flag="0"/>
      <vel value="0.0050104725" flag="0"/>
      <psa03 value="0.0255670427" flag="0"/>
      <psa10 value="0.0061444255" flag="0"/>
      <psa30 value="0.0012090637" flag="0"/>
    </comp>
  </station>
</stationlist>
