<?xml version="1.0" encoding="UTF-8" standalone="yes"?>
<!DOCTYPE earthquake SYSTEM "stationlist.dtd">
<stationlist created="" xmlns="ch.ethz.sed.shakemap.usgs.xml">
  <station code="ZKR" name="ZKR" netid="GE" insttype="STS-2/N" lat="35.1147" lon="26.2169">
    <comp name="--.HHE">
      <acc value="0.0352756158" flag="0"/>
      <vel value="0.0171185855" flag="0"/>
      <psa03 value="0.0829198020" flag="0"/>
      <psa10 value="0.0146621027" flag="0"/>
      <psa30 value="0.0036974059" flag="0"/>
    </comp>
    <comp name="--.HHZ">
      <acc value="0.0235999279" flag="0"/>
      <vel value="0.0084636262" flag="0"/>
      <psa03 value="0.0475190069" flag="0"/>
      <psa10 value="0.0116295276" flag="0"/>
      <psa30 value="0.0011457598" flag="0"/>
    </comp>
    <comp name="--.HHN">
      <acc value="0.0239852642" flag="0"/>
      <vel value="0.0102001213" flag="0"/>
      <psa03 value="0.0585434753" flag="0"/>
      <psa10 value="0.0070189709" flag="0"/>
      <psa30 value="0.0006263177" flag="0"/>
    </comp>
  </station>
  <station code="PFKS" name="PFKS" netid="HC" insttype="120" lat="35.0429" lon="25.4733">
    <comp name="--.HHN">
      <acc value="0.0193816881" flag="0"/>
      <vel value="0.0110082980" flag="0"/>
      <psa03 value="0.0373680173" flag="0"/>
      <psa10 value="0.0099235547" flag="0"/>
      <psa30 value="0.0019192920" flag="0"/>
    </comp>
    <comp name="--.HHE">
      <acc value="0.0174984167" flag="0"/>
      <vel value="0.0102226579" flag="0"/>
      <psa03 value="0.0639177417" flag="0"/>
      <psa10 value="0.0112875977" flag="0"/>
      <psa30 value="0.0020704864" flag="0"/>
    </comp>
    <comp name="--.HHZ">
      <acc value="0.0095729814" flag="0"/>
      <vel value="0.0051754263" flag="0"/>
      <psa03 value="0.0299895220" flag="0"/>
      <psa10 value="0.0071137073" flag="0"/>
      <psa30 value="0.0013526909" flag="0"/>
    </comp>
  </station>
  <station code="STIA" name="STIA" netid="HC" insttype="120" lat="35.2021" lon="26.0909">
    <comp name="--.HHN">
      <acc value="0.0376185222" flag="0"/>
      <vel value="0.0146231561" flag="0"/>
      <psa03 value="0.0666697174" flag="0"/>
      <psa10 value="0.0243741477" flag="0"/>
      <psa30 value="0.0020083449" flag="0"/>
    </comp>
    <comp name="--.HHE">
      <acc value="0.0437104653" flag="0"/>
      <vel value="0.0198741967" flag="0"/>
      <psa03 value="0.0621930655" flag="0"/>
      <psa10 value="0.0312872425" flag="0"/>
      <psa30 value="0.0025688992" flag="0"/>
    </comp>
    <comp name="--.HHZ">
      <acc value="0.0320578382" flag="0"/>
      <vel value="0.0114987465" flag="0"/>
      <psa03 value="0.0523740646" flag="0"/>
      <psa10 value="0.0108773903" flag="0"/>
      <psa30 value="0.0011601946" flag="0"/>
    </comp>
  </station>
  <station code="ZKR" name="ZKR" netid="HL" insttype="120" lat="35.1147" lon="26.2169">
    <comp name="--.HHZ">
      <acc value="0.0227722252" flag="0"/>
      <vel value="0.0083365104" flag="0"/>
      <psa03 value="0.0461986462" flag="0"/>
      <psa10 value="0.0115313080" flag="0"/>
      <psa30 value="0.0011461233" flag="0"/>
    </comp>
    <comp name="--.HHN">
      <acc value="0.0232328445" flag="0"/>
      <vel value="0.0099178948" flag="0"/>
      <psa03 value="0.0569580413" flag="0"/>
      <psa10 value="0.0069627371" flag="0"/>
      <psa30 value="0.0006257470" flag="0"/>
    </comp>
    <comp name="--.HHE">
      <acc value="0.0341772343" flag="0"/>
      <vel value="0.0169588422" flag="0"/>
      <psa03 value="0.0806692133" flag="0"/>
      <psa10 value="0.0145732745" flag="0"/>
      <psa30 value="0.0036950320" flag="0"/>
    </comp>
  </station>
</stationlist>
