<stationlist created="1670153426">
	<station code="CSGE1" name="CSGE1" netid="7C" source="Urban Seismic Network (RUSN-CAL-INGV)" insttype="" lat="38.2705" lon="16.2205">
		<comp name=".HNE" depth="0.0">
			<acc value="0.0215061230276" flag="0"/>
			<vel value="0.0268492017462" flag="0"/>
			<psa03 value="0.0475150538892" flag="0"/>
			<psa10 value="0.0410277216351" flag="0"/>
			<psa30 value="0.00425733327744" flag="0"/>
		</comp>
		<comp name=".HNN" depth="0.0">
			<acc value="0.0238755049078" flag="0"/>
			<vel value="0.0301430983876" flag="0"/>
			<psa03 value="0.0507212454504" flag="0"/>
			<psa10 value="0.0410845266484" flag="0"/>
			<psa30 value="0.00616995289576" flag="0"/>
		</comp>
		<comp name=".HNZ" depth="0.0">
			<acc value="0.0161852482686" flag="0"/>
			<vel value="0.0148116388727" flag="0"/>
			<psa03 value="0.0305216469093" flag="0"/>
			<psa10 value="0.0223979818814" flag="0"/>
			<psa30 value="0.00496548018869" flag="0"/>
		</comp>
	</station>
	<station code="SPAOL" name="SPAOL" netid="7C" source="Urban Seismic Network (RUSN-CAL-INGV)" insttype="" lat="37.54939" lon="15.071367">
		<comp name=".HH1" depth="0.0">
			<acc value="0.0187192043788" flag="0"/>
			<vel value="0.0420242749119" flag="0"/>
			<psa03 value="0.0410930998204" flag="0"/>
			<psa10 value="0.0542802558004" flag="0"/>
			<psa30 value="0.0200437878026" flag="0"/>
		</comp>
		<comp name=".HH2" depth="0.0">
			<acc value="0.0215256099308" flag="0"/>
			<vel value="0.0357552210966" flag="0"/>
			<psa03 value="0.0419176830908" flag="0"/>
			<psa10 value="0.05140954188" flag="0"/>
			<psa30 value="0.013303446288" flag="0"/>
		</comp>
		<comp name=".HHZ" depth="0.0">
			<acc value="0.0161693435076" flag="0"/>
			<vel value="0.0204118702703" flag="0"/>
			<psa03 value="0.0424392775397" flag="0"/>
			<psa10 value="0.03658036952" flag="0"/>
			<psa30 value="0.00656966354129" flag="0"/>
		</comp>
		<comp name=".HNE" depth="0.0">
			<acc value="0.0494200693778" flag="0"/>
			<vel value="0.0603131295423" flag="0"/>
			<psa03 value="0.0956431275544" flag="0"/>
			<psa10 value="0.0978529972809" flag="0"/>
			<psa30 value="0.0168562899798" flag="0"/>
		</comp>
		<comp name=".HNN" depth="0.0">
			<acc value="0.0665883072013" flag="0"/>
			<vel value="0.0628580713731" flag="0"/>
			<psa03 value="0.101537799297" flag="0"/>
			<psa10 value="0.100876425068" flag="0"/>
			<psa30 value="0.0197095923304" flag="0"/>
		</comp>
		<comp name=".HNZ" depth="0.0">
			<acc value="0.0591428118508" flag="0"/>
			<vel value="0.026811310113" flag="0"/>
			<psa03 value="0.0584973126597" flag="0"/>
			<psa10 value="0.0392666199709" flag="0"/>
			<psa30 value="0.00662619020259" flag="0"/>
		</comp>
	</station>
	<station code="MARCO" name="MARCO" netid="GE" source="GEOFON" insttype="" lat="40.29724" lon="15.80632">
		<comp name=".HLE" depth="1.0">
			<acc value="0.00311513458965" flag="0"/>
			<vel value="0.00282399454746" flag="0"/>
			<psa03 value="0.00800753501718" flag="0"/>
			<psa10 value="0.00476970237561" flag="0"/>
			<psa30 value="0.000907501263339" flag="0"/>
		</comp>
		<comp name=".HLN" depth="1.0">
			<acc value="0.00372491281927" flag="0"/>
			<vel value="0.0035968891509" flag="0"/>
			<psa03 value="0.0144681745914" flag="0"/>
			<psa10 value="0.00609104943964" flag="0"/>
			<psa30 value="0.00110309807484" flag="0"/>
		</comp>
		<comp name=".HLZ" depth="1.0">
			<acc value="0.000888420779025" flag="0"/>
			<vel value="0.000795874870499" flag="0"/>
			<psa03 value="0.00227458166946" flag="0"/>
			<psa10 value="0.00156527962959" flag="0"/>
			<psa30 value="0.000340197015549" flag="0"/>
		</comp>
	</station>
	<station code="ACATE" name="ACATE" netid="IV" source="Italian National Seismic Network (INSN)" insttype="" lat="37.02398" lon="14.50064">
		<comp name=".HNE" depth="0.0">
			<acc value="0.0316065420423" flag="0"/>
			<vel value="0.0350502462624" flag="0"/>
			<psa03 value="0.0874748468626" flag="0"/>
			<psa10 value="0.0450460490795" flag="0"/>
			<psa30 value="0.00894736188548" flag="0"/>
		</comp>
		<comp name=".HNN" depth="0.0">
			<acc value="0.0224001002136" flag="0"/>
			<vel value="0.0255727586488" flag="0"/>
			<psa03 value="0.0629921364616" flag="0"/>
			<psa10 value="0.0279844250808" flag="0"/>
			<psa30 value="0.00449637119586" flag="0"/>
		</comp>
		<comp name=".HNZ" depth="0.0">
			<acc value="0.0158708521391" flag="0"/>
			<vel value="0.0153928626401" flag="0"/>
			<psa03 value="0.0431355059531" flag="0"/>
			<psa10 value="0.0250471705021" flag="0"/>
			<psa30 value="0.00217481407076" flag="0"/>
		</comp>
	</station>
	<station code="CAR1" name="CAR1" netid="IV" source="Italian National Seismic Network (INSN)" insttype="" lat="39.2534" lon="16.2114">
		<comp name=".HNE" depth="0.0">
			<acc value="0.0101885658961" flag="0"/>
			<vel value="0.00874234187512" flag="0"/>
			<psa03 value="0.0292410829116" flag="0"/>
			<psa10 value="0.0109764962015" flag="0"/>
			<psa30 value="0.00126758115853" flag="0"/>
		</comp>
		<comp name=".HNN" depth="0.0">
			<acc value="0.0090373731823" flag="0"/>
			<vel value="0.008660212573" flag="0"/>
			<psa03 value="0.0244092576185" flag="0"/>
			<psa10 value="0.0109781059956" flag="0"/>
			<psa30 value="0.000955948639406" flag="0"/>
		</comp>
		<comp name=".HNZ" depth="0.0">
			<acc value="0.00593798250924" flag="0"/>
			<vel value="0.00458515627055" flag="0"/>
			<psa03 value="0.0160876959392" flag="0"/>
			<psa10 value="0.00481967115454" flag="0"/>
			<psa30 value="0.00119764381719" flag="0"/>
		</comp>
	</station>
	<station code="ECHR" name="ECHR" netid="IV" source="Italian National Seismic Network (INSN)" insttype="" lat="37.6863" lon="14.9129">
		<comp name=".HNE" depth="0.0">
			<acc value="0.0121185637463" flag="0"/>
			<vel value="0.0140766236861" flag="0"/>
			<psa03 value="0.0282184162066" flag="0"/>
			<psa10 value="0.0222247147783" flag="0"/>
			<psa30 value="0.00254260989376" flag="0"/>
		</comp>
		<comp name=".HNN" depth="0.0">
			<acc value="0.0088545035892" flag="0"/>
			<vel value="0.00853581803258" flag="0"/>
			<psa03 value="0.0349848331985" flag="0"/>
			<psa10 value="0.0141283737479" flag="0"/>
			<psa30 value="0.00323878142837" flag="0"/>
		</comp>
		<comp name=".HNZ" depth="0.0">
			<acc value="0.00519446398192" flag="0"/>
			<vel value="0.00738135290149" flag="0"/>
			<psa03 value="0.016817357557" flag="0"/>
			<psa10 value="0.00792179321743" flag="0"/>
			<psa30 value="0.00470635885652" flag="0"/>
		</comp>
	</station>
	<station code="EMCN" name="EMCN" netid="IV" source="Italian National Seismic Network (INSN)" insttype="" lat="37.7912" lon="15.0336">
		<comp name=".HNE" depth="0.0">
			<acc value="0.137587399835" flag="0"/>
			<vel value="0.0829510596328" flag="0"/>
			<psa03 value="0.279448387084" flag="0"/>
			<psa10 value="0.165219054952" flag="0"/>
			<psa30 value="0.0195324889315" flag="0"/>
		</comp>
		<comp name=".HNN" depth="0.0">
			<acc value="0.0811081262908" flag="0"/>
			<vel value="0.0601182213184" flag="0"/>
			<psa03 value="0.245091236091" flag="0"/>
			<psa10 value="0.120729415231" flag="0"/>
			<psa30 value="0.00735224788366" flag="0"/>
		</comp>
		<comp name=".HNZ" depth="0.0">
			<acc value="0.0724219781584" flag="0"/>
			<vel value="0.0437227796574" flag="0"/>
			<psa03 value="0.181270424943" flag="0"/>
			<psa10 value="0.0716977746259" flag="0"/>
			<psa30 value="0.00886718657428" flag="0"/>
		</comp>
	</station>
	<station code="EVRN" name="EVRN" netid="IV" source="Italian National Seismic Network (INSN)" insttype="" lat="37.6892" lon="15.1356">
		<comp name=".HNE" depth="0.0">
			<acc value="0.0782436280444" flag="0"/>
			<vel value="0.0554147380197" flag="0"/>
			<psa03 value="0.239558598748" flag="0"/>
			<psa10 value="0.0870833038414" flag="0"/>
			<psa30 value="0.0151019637643" flag="0"/>
		</comp>
		<comp name=".HNN" depth="0.0">
			<acc value="0.0647794940017" flag="0"/>
			<vel value="0.0651691050539" flag="0"/>
			<psa03 value="0.315969952292" flag="0"/>
			<psa10 value="0.0936594544794" flag="0"/>
			<psa30 value="0.0124966120059" flag="0"/>
		</comp>
		<comp name=".HNZ" depth="0.0">
			<acc value="0.0289134255452" flag="0"/>
			<vel value="0.028749956839" flag="0"/>
			<psa03 value="0.0880300086393" flag="0"/>
			<psa10 value="0.0446258862461" flag="0"/>
			<psa30 value="0.00663351568784" flag="0"/>
		</comp>
	</station>
	<station code="GALF" name="GALF" netid="IV" source="Italian National Seismic Network (INSN)" insttype="" lat="37.7107" lon="14.5665">
		<comp name=".HNE" depth="0.0">
			<acc value="0.013460611925" flag="0"/>
			<vel value="0.0110125986235" flag="0"/>
			<psa03 value="0.0363429674391" flag="0"/>
			<psa10 value="0.0207268674282" flag="0"/>
			<psa30 value="0.00147092775424" flag="0"/>
		</comp>
		<comp name=".HNN" depth="0.0">
			<acc value="0.0149679920521" flag="0"/>
			<vel value="0.0139491848255" flag="0"/>
			<psa03 value="0.0464044699018" flag="0"/>
			<psa10 value="0.0194405734676" flag="0"/>
			<psa30 value="0.00132056373086" flag="0"/>
		</comp>
		<comp name=".HNZ" depth="0.0">
			<acc value="0.00852701902507" flag="0"/>
			<vel value="0.00643632582858" flag="0"/>
			<psa03 value="0.0311022166192" flag="0"/>
			<psa10 value="0.00928222208916" flag="0"/>
			<psa30 value="0.000922888115975" flag="0"/>
		</comp>
	</station>
	<station code="HMDC" name="HMDC" netid="IV" source="Italian National Seismic Network (INSN)" insttype="" lat="36.959" lon="14.7831">
		<comp name=".HNE" depth="0.0">
			<acc value="0.0188093072302" flag="0"/>
			<vel value="0.00943766247449" flag="0"/>
			<psa03 value="0.0604574320913" flag="0"/>
			<psa10 value="0.0148812717487" flag="0"/>
			<psa30 value="0.00175590798695" flag="0"/>
		</comp>
		<comp name=".HNN" depth="0.0">
			<acc value="0.0152521922941" flag="0"/>
			<vel value="0.0127741220291" flag="0"/>
			<psa03 value="0.0382102421785" flag="0"/>
			<psa10 value="0.0184146892578" flag="0"/>
			<psa30 value="0.0013646002939" flag="0"/>
		</comp>
		<comp name=".HNZ" depth="0.0">
			<acc value="0.000276247503995" flag="0"/>
			<vel value="0.000307702928353" flag="0"/>
			<psa03 value="0.000328412278976" flag="0"/>
			<psa10 value="0.000184445817263" flag="0"/>
			<psa30 value="0.000146265405511" flag="0"/>
		</comp>
	</station>
	<station code="HVZN" name="HVZN" netid="IV" source="Italian National Seismic Network (INSN)" insttype="" lat="37.1783" lon="14.7155">
		<comp name=".HNE" depth="0.0">
			<acc value="0.0475057008756" flag="0"/>
			<vel value="0.0333544646638" flag="0"/>
			<psa03 value="0.111174000148" flag="0"/>
			<psa10 value="0.0427723672094" flag="0"/>
			<psa30 value="0.00368831224925" flag="0"/>
		</comp>
		<comp name=".HNN" depth="0.0">
			<acc value="0.0336193731237" flag="0"/>
			<vel value="0.0265047269847" flag="0"/>
			<psa03 value="0.128932353636" flag="0"/>
			<psa10 value="0.044509456033" flag="0"/>
			<psa30 value="0.00282023620181" flag="0"/>
		</comp>
		<comp name=".HNZ" depth="0.0">
			<acc value="0.0249182427893" flag="0"/>
			<vel value="0.0174963685747" flag="0"/>
			<psa03 value="0.0992897024555" flag="0"/>
			<psa10 value="0.021954289989" flag="0"/>
			<psa30 value="0.0020058245427" flag="0"/>
		</comp>
	</station>
	<station code="IVPL" name="IVPL" netid="IV" source="Italian National Seismic Network (INSN)" insttype="" lat="38.3763" lon="14.9801">
		<comp name=".HNE" depth="0.0">
			<acc value="1.41937562977" flag="0"/>
			<vel value="0.768343651195" flag="0"/>
			<psa03 value="2.20440386427" flag="0"/>
			<psa10 value="1.5281040694" flag="0"/>
			<psa30 value="0.0661780773062" flag="0"/>
		</comp>
		<comp name=".HNN" depth="0.0">
			<acc value="1.58517920608" flag="0"/>
			<vel value="0.799220333757" flag="0"/>
			<psa03 value="2.15001509462" flag="0"/>
			<psa10 value="1.34075845867" flag="0"/>
			<psa30 value="0.0750123491999" flag="0"/>
		</comp>
		<comp name=".HNZ" depth="0.0">
			<acc value="1.88988935428" flag="0"/>
			<vel value="0.43164264975" flag="0"/>
			<psa03 value="2.40980547112" flag="0"/>
			<psa10 value="0.485673223466" flag="0"/>
			<psa30 value="0.0443371837875" flag="0"/>
		</comp>
	</station>
	<station code="MARIO" name="MARIO" netid="IV" source="Italian National Seismic Network (INSN)" insttype="" lat="37.954428" lon="13.433009">
		<comp name=".HHE" depth="0.0">
			<acc value="0.00517447764446" flag="0"/>
			<vel value="0.00665587417235" flag="0"/>
			<psa03 value="0.0160373123932" flag="0"/>
			<psa10 value="0.00850102283854" flag="0"/>
			<psa30 value="0.00275078785119" flag="0"/>
		</comp>
		<comp name=".HHN" depth="0.0">
			<acc value="0.00698690955699" flag="0"/>
			<vel value="0.00846852174919" flag="0"/>
			<psa03 value="0.0206383346363" flag="0"/>
			<psa10 value="0.0153578870722" flag="0"/>
			<psa30 value="0.00187612490907" flag="0"/>
		</comp>
		<comp name=".HHZ" depth="0.0">
			<acc value="0.00303724357452" flag="0"/>
			<vel value="0.00405926212185" flag="0"/>
			<psa03 value="0.00732584923385" flag="0"/>
			<psa10 value="0.00551911733318" flag="0"/>
			<psa30 value="0.00127125056828" flag="0"/>
		</comp>
		<comp name=".HNE" depth="0.0">
			<acc value="0.00530395438445" flag="0"/>
			<vel value="0.00649812271666" flag="0"/>
			<psa03 value="0.0154056325267" flag="0"/>
			<psa10 value="0.00800762515335" flag="0"/>
			<psa30 value="0.00279151721598" flag="0"/>
		</comp>
		<comp name=".HNN" depth="0.0">
			<acc value="0.0069522816432" flag="0"/>
			<vel value="0.00856353236333" flag="0"/>
			<psa03 value="0.0205012031562" flag="0"/>
			<psa10 value="0.0151479566028" flag="0"/>
			<psa30 value="0.00182003285991" flag="0"/>
		</comp>
		<comp name=".HNZ" depth="0.0">
			<acc value="0.00303288712674" flag="0"/>
			<vel value="0.00397940194445" flag="0"/>
			<psa03 value="0.007302462919" flag="0"/>
			<psa10 value="0.00533601754749" flag="0"/>
			<psa30 value="0.00124278628682" flag="0"/>
		</comp>
	</station>
	<station code="MCEL" name="MCEL" netid="IV" source="Italian National Seismic Network (INSN)" insttype="" lat="40.3249" lon="15.8019">
		<comp name=".HHE" depth="0.0">
			<acc value="0.00258738016828" flag="0"/>
			<vel value="0.00197412427198" flag="0"/>
			<psa03 value="0.00708208699205" flag="0"/>
			<psa10 value="0.00325310823683" flag="0"/>
			<psa30 value="0.000817367219486" flag="0"/>
		</comp>
		<comp name=".HHN" depth="0.0">
			<acc value="0.00162172754538" flag="0"/>
			<vel value="0.00162032867507" flag="0"/>
			<psa03 value="0.00551944245888" flag="0"/>
			<psa10 value="0.00287145365721" flag="0"/>
			<psa30 value="0.00104495286883" flag="0"/>
		</comp>
		<comp name=".HHZ" depth="0.0">
			<acc value="0.00139169759314" flag="0"/>
			<vel value="0.0011056504149" flag="0"/>
			<psa03 value="0.00414527525519" flag="0"/>
			<psa10 value="0.00111194948151" flag="0"/>
			<psa30 value="0.000569046290273" flag="0"/>
		</comp>
	</station>
	<station code="MGR" name="MGR" netid="IV" source="Italian National Seismic Network (INSN)" insttype="" lat="40.1376" lon="15.55352">
		<comp name=".HHE" depth="0.0">
			<acc value="0.00295915822489" flag="0"/>
			<vel value="0.00200571502697" flag="0"/>
			<psa03 value="0.0100136965614" flag="0"/>
			<psa10 value="0.00262265795697" flag="0"/>
			<psa30 value="0.000265462142856" flag="0"/>
		</comp>
		<comp name=".HHN" depth="0.0">
			<acc value="0.00391817515877" flag="0"/>
			<vel value="0.00223004087448" flag="0"/>
			<psa03 value="0.0155551072724" flag="0"/>
			<psa10 value="0.00299241018561" flag="0"/>
			<psa30 value="0.000312690636095" flag="0"/>
		</comp>
		<comp name=".HHZ" depth="0.0">
			<acc value="0.00365373984767" flag="0"/>
			<vel value="0.00131402382492" flag="0"/>
			<psa03 value="0.00763356037342" flag="0"/>
			<psa10 value="0.00150720574342" flag="0"/>
			<psa30 value="0.00058466617918" flag="0"/>
		</comp>
		<comp name=".HNE" depth="0.0">
			<acc value="0.00299184951806" flag="0"/>
			<vel value="0.00235593212499" flag="0"/>
			<psa03 value="0.0102679028544" flag="0"/>
			<psa10 value="0.00287853084479" flag="0"/>
			<psa30 value="0.000529839838873" flag="0"/>
		</comp>
		<comp name=".HNN" depth="0.0">
			<acc value="0.00411906142929" flag="0"/>
			<vel value="0.0027224755007" flag="0"/>
			<psa03 value="0.0161012033445" flag="0"/>
			<psa10 value="0.00261124806049" flag="0"/>
			<psa30 value="0.000711643965838" flag="0"/>
		</comp>
		<comp name=".HNZ" depth="0.0">
			<acc value="0.00372710028505" flag="0"/>
			<vel value="0.00165424926077" flag="0"/>
			<psa03 value="0.00929410071458" flag="0"/>
			<psa10 value="0.00139742073633" flag="0"/>
			<psa30 value="0.000599349703975" flag="0"/>
		</comp>
	</station>
	<station code="MPAZ" name="MPAZ" netid="IV" source="Italian National Seismic Network (INSN)" insttype="" lat="37.9531" lon="16.0067">
		<comp name=".HHE" depth="0.0">
			<acc value="0.0149247601562" flag="0"/>
			<vel value="0.0120560681416" flag="0"/>
			<psa03 value="0.0411814207753" flag="0"/>
			<psa10 value="0.0207336910053" flag="0"/>
			<psa30 value="0.00230111889617" flag="0"/>
		</comp>
		<comp name=".HHN" depth="0.0">
			<acc value="0.0217350384812" flag="0"/>
			<vel value="0.0119504108154" flag="0"/>
			<psa03 value="0.0458452036863" flag="0"/>
			<psa10 value="0.0147589827102" flag="0"/>
			<psa30 value="0.00216660602702" flag="0"/>
		</comp>
		<comp name=".HHZ" depth="0.0">
			<acc value="0.0102782428944" flag="0"/>
			<vel value="0.00643527549915" flag="0"/>
			<psa03 value="0.0197965913749" flag="0"/>
			<psa10 value="0.0116149872484" flag="0"/>
			<psa30 value="0.000978831717799" flag="0"/>
		</comp>
	</station>
	<station code="SSY" name="SSY" netid="IV" source="Italian National Seismic Network (INSN)" insttype="" lat="37.1577" lon="15.0737">
		<comp name=".HNE" depth="0.0">
			<acc value="0.0387589857188" flag="0"/>
			<vel value="0.0218385567881" flag="0"/>
			<psa03 value="0.114808980532" flag="0"/>
			<psa10 value="0.0256545551134" flag="0"/>
			<psa30 value="0.00174997509393" flag="0"/>
		</comp>
		<comp name=".HNN" depth="0.0">
			<acc value="0.0429380609756" flag="0"/>
			<vel value="0.0188493863747" flag="0"/>
			<psa03 value="0.0943605634244" flag="0"/>
			<psa10 value="0.0324418353624" flag="0"/>
			<psa30 value="0.00177209593432" flag="0"/>
		</comp>
		<comp name=".HNZ" depth="0.0">
			<acc value="0.018370995411" flag="0"/>
			<vel value="0.0107485070084" flag="0"/>
			<psa03 value="0.0495689659925" flag="0"/>
			<psa10 value="0.0111180558916" flag="0"/>
			<psa30 value="0.00155736879304" flag="0"/>
		</comp>
	</station>
	<station code="CGG3" name="CGG3" netid="IX" source="Irpinia Seismic Network (ISNet)" insttype="" lat="40.542" lon="15.5225">
		<comp name="01.HNE" depth="0.0">
			<acc value="0.00452588791311" flag="0"/>
			<vel value="0.00192802285596" flag="0"/>
			<psa03 value="0.0148041838295" flag="0"/>
			<psa10 value="0.00212480708617" flag="0"/>
			<psa30 value="0.000364036042685" flag="0"/>
		</comp>
		<comp name="01.HNN" depth="0.0">
			<acc value="0.00290455502551" flag="0"/>
			<vel value="0.00115694370653" flag="0"/>
			<psa03 value="0.00711373817733" flag="0"/>
			<psa10 value="0.00139598439118" flag="0"/>
			<psa30 value="0.000171965363216" flag="0"/>
		</comp>
		<comp name="01.HNZ" depth="0.0">
			<acc value="0.00109115553196" flag="0"/>
			<vel value="0.000600168373954" flag="0"/>
			<psa03 value="0.00406212684336" flag="0"/>
			<psa10 value="0.000625531243064" flag="0"/>
			<psa30 value="0.000175046661086" flag="0"/>
		</comp>
		<comp name="02.HNE" depth="0.0">
			<acc value="0.00598737971331" flag="0"/>
			<vel value="0.00202770467474" flag="0"/>
			<psa03 value="0.0167316201065" flag="0"/>
			<psa10 value="0.00257682968669" flag="0"/>
			<psa30 value="0.000349150707646" flag="0"/>
		</comp>
		<comp name="02.HNN" depth="0.0">
			<acc value="0.00299596622269" flag="0"/>
			<vel value="0.00103380755093" flag="0"/>
			<psa03 value="0.00690414812115" flag="0"/>
			<psa10 value="0.00138632492316" flag="0"/>
			<psa30 value="0.000153630854373" flag="0"/>
		</comp>
		<comp name="02.HNZ" depth="0.0">
