<?xml version="1.0" encoding="UTF-8" standalone="yes"?>
<!DOCTYPE earthquake SYSTEM "stationlist.dtd">
<stationlist created="" xmlns="ch.ethz.sed.shakemap.usgs.xml">
  <station code="FX01" name="FX01" netid="1J" insttype="" lat="37.0586" lon="15.2964">
    <comp name="--.HHE">
      <acc value="0.0143389979" flag="0"/>
      <vel value="0.0140493738" flag="0"/>
      <psa03 value="0.0422724651" flag="0"/>
      <psa10 value="0.0189908079" flag="0"/>
      <psa30 value="0.0024848969" flag="0"/>
    </comp>
    <comp name="--.HHN">
      <acc value="0.0121961160" flag="0"/>
      <vel value="0.0096430855" flag="0"/>
      <psa03 value="0.0263632069" flag="0"/>
      <psa10 value="0.0159450250" flag="0"/>
      <psa30 value="0.0019877019" flag="0"/>
    </comp>
    <comp name="--.HHZ">
      <acc value="0.0069824308" flag="0"/>
      <vel value="0.0051600006" flag="0"/>
      <psa03 value="0.0190183981" flag="0"/>
      <psa10 value="0.0080952288" flag="0"/>
      <psa30 value="0.0012362263" flag="0"/>
    </comp>
  </station>
  <station code="FX07" name="FX07" netid="1J" insttype="" lat="37.5521" lon="15.1452">
    <comp name="--.HHE">
      <acc value="0.0143664308" flag="0"/>
      <vel value="0.0242545102" flag="0"/>
      <psa03 value="0.0276880507" flag="0"/>
      <psa10 value="0.0302137951" flag="0"/>
      <psa30 value="0.0085316052" flag="0"/>
    </comp>
    <comp name="--.HHN">
      <acc value="0.0170308283" flag="0"/>
      <vel value="0.0315607073" flag="0"/>
      <psa03 value="0.0313255510" flag="0"/>
      <psa10 value="0.0477906009" flag="0"/>
      <psa30 value="0.0079645555" flag="0"/>
    </comp>
    <comp name="--.HHZ">
      <acc value="0.0158205532" flag="0"/>
      <vel value="0.0254673802" flag="0"/>
      <psa03 value="0.0306594840" flag="0"/>
      <psa10 value="0.0214194094" flag="0"/>
      <psa30 value="0.0069108174" flag="0"/>
    </comp>
  </station>
  <station code="FX08" name="FX08" netid="1J" insttype="" lat="37.7352" lon="15.2006">
    <comp name="--.HHE">
      <acc value="0.0354932793" flag="0"/>
      <vel value="0.0440259539" flag="0"/>
      <psa03 value="0.0758509899" flag="0"/>
      <psa10 value="0.0555417698" flag="0"/>
      <psa30 value="0.0106077256" flag="0"/>
    </comp>
    <comp name="--.HHN">
      <acc value="0.0439701383" flag="0"/>
      <vel value="0.0526433395" flag="0"/>
      <psa03 value="0.1290292005" flag="0"/>
      <psa10 value="0.0576387438" flag="0"/>
      <psa30 value="0.0109553135" flag="0"/>
    </comp>
    <comp name="--.HHZ">
      <acc value="0.0266447474" flag="0"/>
      <vel value="0.0293007039" flag="0"/>
      <psa03 value="0.0748454537" flag="0"/>
      <psa10 value="0.0642283858" flag="0"/>
      <psa30 value="0.0062429595" flag="0"/>
    </comp>
  </station>
  <station code="FX11" name="FX11" netid="1J" insttype="" lat="38.1019" lon="15.4868">
    <comp name="--.HHE">
      <acc value="0.1028004296" flag="0"/>
      <vel value="0.0721377223" flag="0"/>
      <psa03 value="0.2045143275" flag="0"/>
      <psa10 value="0.1028272681" flag="0"/>
      <psa30 value="0.0045552714" flag="0"/>
    </comp>
    <comp name="--.HHN">
      <acc value="0.1370567218" flag="0"/>
      <vel value="0.0818812740" flag="0"/>
      <psa03 value="0.2117860772" flag="0"/>
      <psa10 value="0.1344517242" flag="0"/>
      <psa30 value="0.0064416360" flag="0"/>
    </comp>
    <comp name="--.HHZ">
      <acc value="0.1194079916" flag="0"/>
      <vel value="0.0375857914" flag="0"/>
      <psa03 value="0.0947187972" flag="0"/>
      <psa10 value="0.0562202731" flag="0"/>
      <psa30 value="0.0029650657" flag="0"/>
    </comp>
  </station>
  <station code="FX12" name="FX12" netid="1J" insttype="" lat="38.0895" lon="15.7176">
    <comp name="00.HHE">
      <acc value="0.0088960048" flag="0"/>
      <vel value="0.0054684572" flag="0"/>
      <psa03 value="0.0323609101" flag="0"/>
      <psa10 value="0.0055530019" flag="0"/>
      <psa30 value="0.0011280591" flag="0"/>
    </comp>
    <comp name="00.HHN">
      <acc value="0.0040729977" flag="0"/>
      <vel value="0.0033655326" flag="0"/>
      <psa03 value="0.0175731632" flag="0"/>
      <psa10 value="0.0040857219" flag="0"/>
      <psa30 value="0.0008230243" flag="0"/>
    </comp>
    <comp name="00.HHZ">
      <acc value="0.0027916461" flag="0"/>
      <vel value="0.0017259674" flag="0"/>
      <psa03 value="0.0045500853" flag="0"/>
      <psa10 value="0.0023735781" flag="0"/>
      <psa30 value="0.0006777512" flag="0"/>
    </comp>
  </station>
  <station code="CS2FF" name="CS2FF" netid="7C" insttype="" lat="39.2933" lon="16.2584">
    <comp name="--.HH1">
      <acc value="0.0036196129" flag="0"/>
      <vel value="0.0036037894" flag="0"/>
      <psa03 value="0.0135495675" flag="0"/>
      <psa10 value="0.0085536346" flag="0"/>
      <psa30 value="0.0007224821" flag="0"/>
    </comp>
    <comp name="--.HH2">
      <acc value="0.0038415904" flag="0"/>
      <vel value="0.0035474502" flag="0"/>
      <psa03 value="0.0083479845" flag="0"/>
      <psa10 value="0.0049304066" flag="0"/>
      <psa30 value="0.0011745184" flag="0"/>
    </comp>
    <comp name="--.HHZ">
      <acc value="0.0029060941" flag="0"/>
      <vel value="0.0021583794" flag="0"/>
      <psa03 value="0.0094095568" flag="0"/>
      <psa10 value="0.0037412421" flag="0"/>
      <psa30 value="0.0004440198" flag="0"/>
    </comp>
  </station>
  <station code="CSGE1" name="CSGE1" netid="7C" insttype="" lat="38.2705" lon="16.2205">
    <comp name="--.HNE">
      <acc value="0.0217668583" flag="0"/>
      <vel value="0.0276709180" flag="0"/>
      <psa03 value="0.0474675863" flag="0"/>
      <psa10 value="0.0410186337" flag="0"/>
      <psa30 value="0.0039752935" flag="0"/>
    </comp>
    <comp name="--.HNN">
      <acc value="0.0239768104" flag="0"/>
      <vel value="0.0284823030" flag="0"/>
      <psa03 value="0.0508255504" flag="0"/>
      <psa10 value="0.0408302200" flag="0"/>
      <psa30 value="0.0058623857" flag="0"/>
    </comp>
    <comp name="--.HNZ">
      <acc value="0.0162623869" flag="0"/>
      <vel value="0.0144801021" flag="0"/>
      <psa03 value="0.0304322834" flag="0"/>
      <psa10 value="0.0223368933" flag="0"/>
      <psa30 value="0.0043410192" flag="0"/>
    </comp>
  </station>
  <station code="AIO" name="AIO" netid="IV" insttype="" lat="37.9712" lon="15.233">
    <comp name="--.HHE">
      <acc value="0.1112517498" flag="0"/>
      <vel value="0.0485870920" flag="0"/>
      <psa03 value="0.1839988140" flag="0"/>
      <psa10 value="0.0787455154" flag="0"/>
      <psa30 value="0.0094076755" flag="0"/>
    </comp>
    <comp name="--.HHN">
      <acc value="0.1196311923" flag="0"/>
      <vel value="0.0567308419" flag="0"/>
      <psa03 value="0.2535736235" flag="0"/>
      <psa10 value="0.0581570902" flag="0"/>
      <psa30 value="0.0048599681" flag="0"/>
    </comp>
    <comp name="--.HHZ">
      <acc value="0.0890028024" flag="0"/>
      <vel value="0.0460315777" flag="0"/>
      <psa03 value="0.1227093452" flag="0"/>
      <psa10 value="0.0638037048" flag="0"/>
      <psa30 value="0.0028988369" flag="0"/>
    </comp>
  </station>
  <station code="ALJA" name="ALJA" netid="IV" insttype="" lat="37.749" lon="13.7537">
    <comp name="--.HHE">
      <acc value="0.0179751233" flag="0"/>
      <vel value="0.0169390351" flag="0"/>
      <psa03 value="0.0558444679" flag="0"/>
      <psa10 value="0.0282138541" flag="0"/>
      <psa30 value="0.0026149707" flag="0"/>
    </comp>
    <comp name="--.HHN">
      <acc value="0.0094493634" flag="0"/>
      <vel value="0.0118681263" flag="0"/>
      <psa03 value="0.0296322742" flag="0"/>
      <psa10 value="0.0169636887" flag="0"/>
      <psa30 value="0.0019833525" flag="0"/>
    </comp>
    <comp name="--.HHZ">
      <acc value="0.0096969851" flag="0"/>
      <vel value="0.0105605860" flag="0"/>
      <psa03 value="0.0328464219" flag="0"/>
      <psa10 value="0.0154844619" flag="0"/>
      <psa30 value="0.0022165629" flag="0"/>
    </comp>
  </station>
  <station code="CAR1" name="CAR1" netid="IV" insttype="" lat="39.2534" lon="16.2114">
    <comp name="--.HHN">
      <acc value="0.0090026019" flag="0"/>
      <vel value="0.0083482152" flag="0"/>
      <psa03 value="0.0244294719" flag="0"/>
      <psa10 value="0.0114229283" flag="0"/>
      <psa30 value="0.0007978793" flag="0"/>
    </comp>
    <comp name="--.HHZ">
      <acc value="0.0061975176" flag="0"/>
      <vel value="0.0048064702" flag="0"/>
      <psa03 value="0.0168148083" flag="0"/>
      <psa10 value="0.0048587982" flag="0"/>
      <psa30 value="0.0011651772" flag="0"/>
    </comp>
    <comp name="--.HHE">
      <acc value="0.0108121116" flag="0"/>
      <vel value="0.0089605588" flag="0"/>
      <psa03 value="0.0296423082" flag="0"/>
      <psa10 value="0.0109338568" flag="0"/>
      <psa30 value="0.0012261347" flag="0"/>
    </comp>
  </station>
  <station code="CET2" name="CET2" netid="IV" insttype="" lat="39.5288" lon="15.9546">
    <comp name="--.HHE">
      <acc value="0.0068668976" flag="0"/>
      <vel value="0.0046601104" flag="0"/>
      <psa03 value="0.0119873214" flag="0"/>
      <psa10 value="0.0065943156" flag="0"/>
      <psa30 value="0.0008359477" flag="0"/>
    </comp>
    <comp name="--.HHN">
      <acc value="0.0107123567" flag="0"/>
      <vel value="0.0065741189" flag="0"/>
      <psa03 value="0.0297198023" flag="0"/>
      <psa10 value="0.0074838620" flag="0"/>
      <psa30 value="0.0010469026" flag="0"/>
    </comp>
    <comp name="--.HHZ">
      <acc value="0.0049638802" flag="0"/>
      <vel value="0.0027083417" flag="0"/>
      <psa03 value="0.0091315600" flag="0"/>
      <psa10 value="0.0037184646" flag="0"/>
      <psa30 value="0.0006153027" flag="0"/>
    </comp>
  </station>
  <station code="CPTP" name="CPTP" netid="IV" insttype="" lat="37.4075" lon="14.1625">
    <comp name="--.HHE">
      <acc value="0.0000000000" flag="0"/>
      <vel value="-100.0000000000" flag="0"/>
      <psa03 value="0.0000000000" flag="0"/>
      <psa10 value="0.0000000000" flag="0"/>
      <psa30 value="0.0000000000" flag="0"/>
    </comp>
    <comp name="--.HHN">
      <acc value="0.0121934847" flag="0"/>
      <vel value="0.0251028329" flag="0"/>
      <psa03 value="0.0211988297" flag="0"/>
      <psa10 value="0.0242720251" flag="0"/>
      <psa30 value="0.0091969428" flag="0"/>
    </comp>
    <comp name="--.HHZ">
      <acc value="0.0099188872" flag="0"/>
      <vel value="0.0189518673" flag="0"/>
      <psa03 value="0.0142823497" flag="0"/>
      <psa10 value="0.0259820379" flag="0"/>
      <psa30 value="0.0061999482" flag="0"/>
    </comp>
  </station>
  <station code="ECBD" name="ECBD" netid="IV" insttype="" lat="37.7802" lon="15.0865">
    <comp name="--.HHE">
      <acc value="0.0945250102" flag="0"/>
      <vel value="0.0799408026" flag="0"/>
      <psa03 value="0.2335800849" flag="0"/>
      <psa10 value="0.1124189420" flag="0"/>
      <psa30 value="0.0118774605" flag="0"/>
    </comp>
    <comp name="--.HHN">
      <acc value="0.0902738562" flag="0"/>
      <vel value="0.0755508321" flag="0"/>
      <psa03 value="0.2173614355" flag="0"/>
      <psa10 value="0.1144332950" flag="0"/>
      <psa30 value="0.0093579050" flag="0"/>
    </comp>
    <comp name="--.HHZ">
      <acc value="0.0472861499" flag="0"/>
      <vel value="0.0327747531" flag="0"/>
      <psa03 value="0.1749751229" flag="0"/>
      <psa10 value="0.0578365568" flag="0"/>
      <psa30 value="0.0061006222" flag="0"/>
    </comp>
  </station>
  <station code="ECHR" name="ECHR" netid="IV" insttype="" lat="37.6863" lon="14.9129">
    <comp name="--.HHE">
      <acc value="0.0493792105" flag="0"/>
      <vel value="0.0548414224" flag="0"/>
      <psa03 value="0.1158141636" flag="0"/>
      <psa10 value="0.0900141949" flag="0"/>
      <psa30 value="0.0090681653" flag="0"/>
    </comp>
    <comp name="--.HHN">
      <acc value="0.0344222735" flag="0"/>
      <vel value="0.0332407781" flag="0"/>
      <psa03 value="0.1398662053" flag="0"/>
      <psa10 value="0.0533997170" flag="0"/>
      <psa30 value="0.0108993925" flag="0"/>
    </comp>
    <comp name="--.HHZ">
      <acc value="0.0206139404" flag="0"/>
      <vel value="0.0271730595" flag="0"/>
      <psa03 value="0.0666995153" flag="0"/>
      <psa10 value="0.0312428396" flag="0"/>
      <psa30 value="0.0156936321" flag="0"/>
    </comp>
  </station>
  <station code="ECNE" name="ECNE" netid="IV" insttype="" lat="37.7653" lon="15.0018">
    <comp name="--.HHE">
      <acc value="0.0859513853" flag="0"/>
      <vel value="0.0985351116" flag="0"/>
      <psa03 value="0.2425067340" flag="0"/>
      <psa10 value="0.1388629218" flag="0"/>
      <psa30 value="0.0143308967" flag="0"/>
    </comp>
    <comp name="--.HHZ">
      <acc value="0.0503296943" flag="0"/>
      <vel value="0.0320706348" flag="0"/>
      <psa03 value="0.1328129357" flag="0"/>
      <psa10 value="0.0401328369" flag="0"/>
      <psa30 value="0.0046298609" flag="0"/>
    </comp>
    <comp name="--.HHN">
      <acc value="0.0641671942" flag="0"/>
      <vel value="0.0502535527" flag="0"/>
      <psa03 value="0.1880367316" flag="0"/>
      <psa10 value="0.0827846857" flag="0"/>
      <psa30 value="0.0054700187" flag="0"/>
    </comp>
  </station>
  <station code="ECTS" name="ECTS" netid="IV" insttype="" lat="37.882" lon="15.121">
    <comp name="--.HHE">
      <acc value="0.0569978707" flag="0"/>
      <vel value="0.0577398723" flag="0"/>
      <psa03 value="0.2727059853" flag="0"/>
      <psa10 value="0.0891536223" flag="0"/>
      <psa30 value="0.0076788174" flag="0"/>
    </comp>
    <comp name="--.HHZ">
      <acc value="0.0509238472" flag="0"/>
      <vel value="0.0278831229" flag="0"/>
      <psa03 value="0.1553191570" flag="0"/>
      <psa10 value="0.0474397218" flag="0"/>
      <psa30 value="0.0038128789" flag="0"/>
    </comp>
    <comp name="--.HHN">
      <acc value="0.1081068881" flag="0"/>
      <vel value="0.0671567423" flag="0"/>
      <psa03 value="0.4023280931" flag="0"/>
      <psa10 value="0.0884508279" flag="0"/>
      <psa30 value="0.0049404863" flag="0"/>
    </comp>
  </station>
  <station code="ECZM" name="ECZM" netid="IV" insttype="" lat="37.7313" lon="14.9041">
    <comp name="--.HHE">
      <acc value="0.0526315299" flag="0"/>
      <vel value="0.0401685478" flag="0"/>
      <psa03 value="0.1411951825" flag="0"/>
      <psa10 value="0.0676152492" flag="0"/>
      <psa30 value="0.0083424057" flag="0"/>
    </comp>
    <comp name="--.HHN">
      <acc value="0.0589675297" flag="0"/>
      <vel value="0.0726385753" flag="0"/>
      <psa03 value="0.1587518836" flag="0"/>
      <psa10 value="0.1032884029" flag="0"/>
      <psa30 value="0.0135741937" flag="0"/>
    </comp>
    <comp name="--.HHZ">
      <acc value="0.0390365475" flag="0"/>
      <vel value="0.0383880550" flag="0"/>
      <psa03 value="0.1501338882" flag="0"/>
      <psa10 value="0.0359131884" flag="0"/>
      <psa30 value="0.0228171254" flag="0"/>
    </comp>
  </station>
  <station code="EMCN" name="EMCN" netid="IV" insttype="" lat="37.7912" lon="15.0336">
    <comp name="--.HHN">
      <acc value="0.0833593708" flag="0"/>
      <vel value="0.0599108813" flag="0"/>
      <psa03 value="0.2383653125" flag="0"/>
      <psa10 value="0.1183578750" flag="0"/>
      <psa30 value="0.0068121562" flag="0"/>
    </comp>
    <comp name="--.HHZ">
      <acc value="0.0718393277" flag="0"/>
      <vel value="0.0415602558" flag="0"/>
      <psa03 value="0.1754063259" flag="0"/>
      <psa10 value="0.0700554931" flag="0"/>
      <psa30 value="0.0082242537" flag="0"/>
    </comp>
    <comp name="--.HHE">
      <acc value="0.1400285860" flag="0"/>
      <vel value="0.0833163188" flag="0"/>
      <psa03 value="0.2859122834" flag="0"/>
      <psa10 value="0.1649417752" flag="0"/>
      <psa30 value="0.0167934339" flag="0"/>
    </comp>
  </station>
  <station code="EMFO" name="EMFO" netid="IV" insttype="" lat="37.7357" lon="15.0902">
    <comp name="--.HHE">
      <acc value="0.0836601821" flag="0"/>
      <vel value="0.0674973893" flag="0"/>
      <psa03 value="0.2476661698" flag="0"/>
      <psa10 value="0.1023450660" flag="0"/>
      <psa30 value="0.0088862005" flag="0"/>
    </comp>
    <comp name="--.HHN">
      <acc value="0.0949215070" flag="0"/>
      <vel value="0.0876537783" flag="0"/>
      <psa03 value="0.3003843403" flag="0"/>
      <psa10 value="0.1347476246" flag="0"/>
      <psa30 value="0.0102251136" flag="0"/>
    </comp>
    <comp name="--.HHZ">
      <acc value="0.0498117546" flag="0"/>
      <vel value="0.0291888542" flag="0"/>
      <psa03 value="0.1717446579" flag="0"/>
      <psa10 value="0.0520492962" flag="0"/>
      <psa30 value="0.0044681944" flag="0"/>
    </comp>
  </station>
  <station code="EMFS" name="EMFS" netid="IV" insttype="" lat="37.7196" lon="14.9979">
    <comp name="--.HHE">
      <acc value="0.0712352416" flag="0"/>
      <vel value="0.0585682909" flag="0"/>
      <psa03 value="0.1509777022" flag="0"/>
      <psa10 value="0.1089789467" flag="0"/>
      <psa30 value="0.0123750144" flag="0"/>
    </comp>
    <comp name="--.HHZ">
      <acc value="0.0316036311" flag="0"/>
      <vel value="0.0295878492" flag="0"/>
      <psa03 value="0.1238472083" flag="0"/>
      <psa10 value="0.0405264125" flag="0"/>
      <psa30 value="0.0039220270" flag="0"/>
    </comp>
    <comp name="--.HHN">
      <acc value="0.0553424004" flag="0"/>
      <vel value="0.0533356686" flag="0"/>
      <psa03 value="0.1938041932" flag="0"/>
      <psa10 value="0.1258188784" flag="0"/>
      <psa30 value="0.0094745768" flag="0"/>
    </comp>
  </station>
  <station code="EMNR" name="EMNR" netid="IV" insttype="" lat="37.8168" lon="15.026">
    <comp name="--.HHE">
      <acc value="0.1497034167" flag="0"/>
      <vel value="0.0773117922" flag="0"/>
      <psa03 value="0.3804337926" flag="0"/>
      <psa10 value="0.1622221534" flag="0"/>
      <psa30 value="0.0187745418" flag="0"/>
    </comp>
    <comp name="--.HHZ">
      <acc value="0.1024865114" flag="0"/>
      <vel value="0.0536169804" flag="0"/>
      <psa03 value="0.2271944773" flag="0"/>
      <psa10 value="0.0649363865" flag="0"/>
      <psa30 value="0.0085252572" flag="0"/>
    </comp>
    <comp name="--.HHN">
      <acc value="0.1398650713" flag="0"/>
      <vel value="0.0809689831" flag="0"/>
      <psa03 value="0.3201775958" flag="0"/>
      <psa10 value="0.1549098001" flag="0"/>
      <psa30 value="0.0136249968" flag="0"/>
    </comp>
  </station>
  <station code="EMPL" name="EMPL" netid="IV" insttype="" lat="37.679" lon="14.9703">
    <comp name="--.HHE">
      <acc value="0.0578973283" flag="0"/>
      <vel value="0.0443926624" flag="0"/>
      <psa03 value="0.1693603458" flag="0"/>
      <psa10 value="0.0585072449" flag="0"/>
      <psa30 value="0.0062542293" flag="0"/>
    </comp>
    <comp name="--.HHN">
      <acc value="0.0878944881" flag="0"/>
      <vel value="0.0507721874" flag="0"/>
      <psa03 value="0.2717162585" flag="0"/>
      <psa10 value="0.0700439249" flag="0"/>
      <psa30 value="0.0088345979" flag="0"/>
    </comp>
    <comp name="--.HHZ">
      <acc value="0.0466561006" flag="0"/>
      <vel value="0.0283440814" flag="0"/>
      <psa03 value="0.1055453196" flag="0"/>
      <psa10 value="0.0396706510" flag="0"/>
      <psa30 value="0.0034676919" flag="0"/>
    </comp>
  </station>
  <station code="EMSA" name="EMSA" netid="IV" insttype="" lat="37.498" lon="14.945">
    <comp name="--.HHE">
      <acc value="0.0000352243" flag="0"/>
      <vel value="0.0000043993" flag="0"/>
      <psa03 value="0.0000085390" flag="0"/>
      <psa10 value="0.0000018442" flag="0"/>
      <psa30 value="0.0000005807" flag="0"/>
    </comp>
    <comp name="--.HHZ">
      <acc value="0.0182820878" flag="0"/>
      <vel value="0.0187813443" flag="0"/>
      <psa03 value="0.0418873076" flag="0"/>
      <psa10 value="0.0346531733" flag="0"/>
      <psa30 value="0.0120270284" flag="0"/>
    </comp>
