<stationlist created="1670151652">
	<station code="FX06" name="FX06" netid="1J" source="FocusX temporary land-network (FXland)" insttype="" lat="37.5223" lon="15.0037">
		<comp name=".EHE" depth="0.0">
			<acc value="0.0132894223508" flag="0"/>
			<vel value="0.0248456966417" flag="0"/>
			<psa03 value="0.0231871662443" flag="0"/>
			<psa10 value="0.0328868698437" flag="0"/>
			<psa30 value="0.013268696486" flag="0"/>
		</comp>
		<comp name=".EHN" depth="0.0">
			<acc value="0.010301418737" flag="0"/>
			<vel value="0.0193980236579" flag="0"/>
			<psa03 value="0.0224499325103" flag="0"/>
			<psa10 value="0.0239254936965" flag="0"/>
			<psa30 value="0.0124902974209" flag="0"/>
		</comp>
		<comp name=".EHZ" depth="0.0">
			<acc value="0.0108881859547" flag="0"/>
			<vel value="0.0199196697143" flag="0"/>
			<psa03 value="0.0216834859037" flag="0"/>
			<psa10 value="0.0278169464862" flag="0"/>
			<psa30 value="0.005890554387" flag="0"/>
		</comp>
	</station>
	<station code="FX07" name="FX07" netid="1J" source="FocusX temporary land-network (FXland)" insttype="" lat="37.5521" lon="15.1452">
		<comp name=".HHE" depth="0.0">
			<acc value="0.0141394491305" flag="0"/>
			<vel value="0.0236898099299" flag="0"/>
			<psa03 value="0.0283484039843" flag="0"/>
			<psa10 value="0.0300822259248" flag="0"/>
			<psa30 value="0.00976604861948" flag="0"/>
		</comp>
		<comp name=".HHN" depth="0.0">
			<acc value="0.017090546945" flag="0"/>
			<vel value="0.032602971149" flag="0"/>
			<psa03 value="0.0315769642147" flag="0"/>
			<psa10 value="0.0481460081866" flag="0"/>
			<psa30 value="0.00955181609427" flag="0"/>
		</comp>
		<comp name=".HHZ" depth="0.0">
			<acc value="0.015868853617" flag="0"/>
			<vel value="0.0261846196603" flag="0"/>
			<psa03 value="0.0306391416719" flag="0"/>
			<psa10 value="0.021354291492" flag="0"/>
			<psa30 value="0.00872173860569" flag="0"/>
		</comp>
	</station>
	<station code="FX08" name="FX08" netid="1J" source="FocusX temporary land-network (FXland)" insttype="" lat="37.7352" lon="15.2006">
		<comp name=".HHE" depth="0.0">
			<acc value="0.0351696732908" flag="0"/>
			<vel value="0.0444425218069" flag="0"/>
			<psa03 value="0.0764711179198" flag="0"/>
			<psa10 value="0.0556667789009" flag="0"/>
			<psa30 value="0.0116754176058" flag="0"/>
		</comp>
		<comp name=".HHN" depth="0.0">
			<acc value="0.04295462597" flag="0"/>
			<vel value="0.055534147908" flag="0"/>
			<psa03 value="0.127014580759" flag="0"/>
			<psa10 value="0.0576762220165" flag="0"/>
			<psa30 value="0.0134213732668" flag="0"/>
		</comp>
		<comp name=".HHZ" depth="0.0">
			<acc value="0.0263355457305" flag="0"/>
			<vel value="0.0291228949588" flag="0"/>
			<psa03 value="0.0737859087878" flag="0"/>
			<psa10 value="0.0646594658724" flag="0"/>
			<psa30 value="0.00716996997531" flag="0"/>
		</comp>
	</station>
	<station code="FX10" name="FX10" netid="1J" source="FocusX temporary land-network (FXland)" insttype="" lat="37.957" lon="15.3777">
		<comp name=".EHE" depth="0.0">
			<acc value="0.123521076203" flag="0"/>
			<vel value="0.130753315659" flag="0"/>
			<psa03 value="0.330847854547" flag="0"/>
			<psa10 value="0.154220821372" flag="0"/>
			<psa30 value="0.00984013686077" flag="0"/>
		</comp>
		<comp name=".EHN" depth="0.0">
			<acc value="0.0952590037614" flag="0"/>
			<vel value="0.0761784758845" flag="0"/>
			<psa03 value="0.250196824312" flag="0"/>
			<psa10 value="0.209433043911" flag="0"/>
			<psa30 value="0.0106906023666" flag="0"/>
		</comp>
		<comp name=".EHZ" depth="0.0">
			<acc value="0.0984524811627" flag="0"/>
			<vel value="0.069994399477" flag="0"/>
			<psa03 value="0.135254928725" flag="0"/>
			<psa10 value="0.116294086412" flag="0"/>
			<psa30 value="0.00745964666498" flag="0"/>
		</comp>
	</station>
	<station code="FX13" name="FX13" netid="1J" source="FocusX temporary land-network (FXland)" insttype="" lat="37.945" lon="15.7075">
		<comp name=".HHE" depth="0.0">
			<acc value="0.0298956063559" flag="0"/>
			<vel value="0.0249307362737" flag="0"/>
			<psa03 value="0.0683130566549" flag="0"/>
			<psa10 value="0.0613269351085" flag="0"/>
			<psa30 value="0.00474322921568" flag="0"/>
		</comp>
		<comp name=".HHN" depth="0.0">
			<acc value="0.042219659404" flag="0"/>
			<vel value="0.0328903675277" flag="0"/>
			<psa03 value="0.0724232143492" flag="0"/>
			<psa10 value="0.0630781061151" flag="0"/>
			<psa30 value="0.00464205334658" flag="0"/>
		</comp>
		<comp name=".HHZ" depth="0.0">
			<acc value="0.0257837873084" flag="0"/>
			<vel value="0.0148127923303" flag="0"/>
			<psa03 value="0.0362018330896" flag="0"/>
			<psa10 value="0.0237221383502" flag="0"/>
			<psa30 value="0.00160100897565" flag="0"/>
		</comp>
	</station>
	<station code="CS2FS" name="CS2FS" netid="7C" source="Urban Seismic Network (RUSN-CAL-INGV)" insttype="" lat="39.2933" lon="16.2584">
		<comp name=".HHE" depth="0.0">
			<acc value="0.00500678440441" flag="0"/>
			<vel value="0.00149063805722" flag="0"/>
			<psa03 value="0.00713355589641" flag="0"/>
			<psa10 value="0.00202742438504" flag="0"/>
			<psa30 value="0.000380768114644" flag="0"/>
		</comp>
		<comp name=".HHN" depth="0.0">
			<acc value="0.00277864954265" flag="0"/>
			<vel value="0.00174651964272" flag="0"/>
			<psa03 value="0.00662776978637" flag="0"/>
			<psa10 value="0.00244960250852" flag="0"/>
			<psa30 value="0.000310996331147" flag="0"/>
		</comp>
		<comp name=".HHZ" depth="0.0">
			<acc value="0.00448173186592" flag="0"/>
			<vel value="0.000946821090374" flag="0"/>
			<psa03 value="0.00325424910668" flag="0"/>
			<psa10 value="0.00177465939842" flag="0"/>
			<psa30 value="0.000362668946913" flag="0"/>
		</comp>
		<comp name=".HNE" depth="0.0">
			<acc value="0.0100170388488" flag="0"/>
			<vel value="0.00552711658109" flag="0"/>
			<psa03 value="0.0228819767562" flag="0"/>
			<psa10 value="0.00817897025416" flag="0"/>
			<psa30 value="0.000959534814474" flag="0"/>
		</comp>
		<comp name=".HNN" depth="0.0">
			<acc value="0.016947965857" flag="0"/>
			<vel value="0.00502612263883" flag="0"/>
			<psa03 value="0.0227944735637" flag="0"/>
			<psa10 value="0.0067749756839" flag="0"/>
			<psa30 value="0.00131670420436" flag="0"/>
		</comp>
		<comp name=".HNZ" depth="0.0">
			<acc value="0.0163139762787" flag="0"/>
			<vel value="0.00364238266428" flag="0"/>
			<psa03 value="0.0104992423983" flag="0"/>
			<psa10 value="0.00637956355228" flag="0"/>
			<psa30 value="0.00135455660773" flag="0"/>
		</comp>
	</station>
	<station code="CSGE1" name="CSGE1" netid="7C" source="Urban Seismic Network (RUSN-CAL-INGV)" insttype="" lat="38.2705" lon="16.2205">
		<comp name=".HNE" depth="0.0">
			<acc value="0.0215061230276" flag="0"/>
			<vel value="0.0268492017462" flag="0"/>
			<psa03 value="0.0475150538892" flag="0"/>
			<psa10 value="0.0410277216351" flag="0"/>
			<psa30 value="0.00425733327744" flag="0"/>
		</comp>
		<comp name=".HNN" depth="0.0">
			<acc value="0.0238755049078" flag="0"/>
			<vel value="0.0301430983876" flag="0"/>
			<psa03 value="0.0507212454504" flag="0"/>
			<psa10 value="0.0410845266484" flag="0"/>
			<psa30 value="0.00616995289576" flag="0"/>
		</comp>
		<comp name=".HNZ" depth="0.0">
			<acc value="0.0161852482686" flag="0"/>
			<vel value="0.0148116388727" flag="0"/>
			<psa03 value="0.0305216469093" flag="0"/>
			<psa10 value="0.0223979818814" flag="0"/>
			<psa30 value="0.00496548018869" flag="0"/>
		</comp>
	</station>
	<station code="CSMBE" name="CSMBE" netid="7C" source="Urban Seismic Network (RUSN-CAL-INGV)" insttype="" lat="39.2895" lon="16.2642">
		<comp name=".HNE" depth="0.0">
			<acc value="0.00804656367776" flag="0"/>
			<vel value="0.00542566268909" flag="0"/>
			<psa03 value="0.0157254427751" flag="0"/>
			<psa10 value="0.00687649256515" flag="0"/>
			<psa30 value="0.00138907514441" flag="0"/>
		</comp>
		<comp name=".HNN" depth="0.0">
			<acc value="0.00681945987171" flag="0"/>
			<vel value="0.00520116106513" flag="0"/>
			<psa03 value="0.0207790249459" flag="0"/>
			<psa10 value="0.0105007059327" flag="0"/>
			<psa30 value="0.000800592774925" flag="0"/>
		</comp>
		<comp name=".HNZ" depth="0.0">
			<acc value="0.00537217049723" flag="0"/>
			<vel value="0.00268126042423" flag="0"/>
			<psa03 value="0.0120832548834" flag="0"/>
			<psa10 value="0.00432481087248" flag="0"/>
			<psa30 value="0.00121940786312" flag="0"/>
		</comp>
	</station>
	<station code="SPAOL" name="SPAOL" netid="7C" source="Urban Seismic Network (RUSN-CAL-INGV)" insttype="" lat="37.54939" lon="15.071367">
		<comp name=".HH1" depth="0.0">
			<acc value="0.0187192043788" flag="0"/>
			<vel value="0.0420242749119" flag="0"/>
			<psa03 value="0.0410930998204" flag="0"/>
			<psa10 value="0.0542802558004" flag="0"/>
			<psa30 value="0.0200437878026" flag="0"/>
		</comp>
		<comp name=".HH2" depth="0.0">
			<acc value="0.0215256099308" flag="0"/>
			<vel value="0.0357552210966" flag="0"/>
			<psa03 value="0.0419176830908" flag="0"/>
			<psa10 value="0.05140954188" flag="0"/>
			<psa30 value="0.013303446288" flag="0"/>
		</comp>
		<comp name=".HHZ" depth="0.0">
			<acc value="0.0161693435076" flag="0"/>
			<vel value="0.0204118702703" flag="0"/>
			<psa03 value="0.0424392775397" flag="0"/>
			<psa10 value="0.03658036952" flag="0"/>
			<psa30 value="0.00656966354129" flag="0"/>
		</comp>
		<comp name=".HNE" depth="0.0">
			<acc value="0.0494200693778" flag="0"/>
			<vel value="0.0603131295423" flag="0"/>
			<psa03 value="0.0956431275544" flag="0"/>
			<psa10 value="0.0978529972809" flag="0"/>
			<psa30 value="0.0168562899798" flag="0"/>
		</comp>
		<comp name=".HNN" depth="0.0">
			<acc value="0.0665883072013" flag="0"/>
			<vel value="0.0628580713731" flag="0"/>
			<psa03 value="0.101537799297" flag="0"/>
			<psa10 value="0.100876425068" flag="0"/>
			<psa30 value="0.0197095923304" flag="0"/>
		</comp>
		<comp name=".HNZ" depth="0.0">
			<acc value="0.0591428118508" flag="0"/>
			<vel value="0.026811310113" flag="0"/>
			<psa03 value="0.0584973126597" flag="0"/>
			<psa10 value="0.0392666199709" flag="0"/>
			<psa30 value="0.00662619020259" flag="0"/>
		</comp>
	</station>
	<station code="MARCO" name="MARCO" netid="GE" source="GEOFON" insttype="" lat="40.29724" lon="15.80632">
		<comp name=".HLE" depth="1.0">
			<acc value="0.00311513458965" flag="0"/>
			<vel value="0.00282399454746" flag="0"/>
			<psa03 value="0.00800753501718" flag="0"/>
			<psa10 value="0.00476970237561" flag="0"/>
			<psa30 value="0.000907501263339" flag="0"/>
		</comp>
		<comp name=".HLN" depth="1.0">
			<acc value="0.00372491281927" flag="0"/>
			<vel value="0.0035968891509" flag="0"/>
			<psa03 value="0.0144681745914" flag="0"/>
			<psa10 value="0.00609104943964" flag="0"/>
			<psa30 value="0.00110309807484" flag="0"/>
		</comp>
		<comp name=".HLZ" depth="1.0">
			<acc value="0.000888420779025" flag="0"/>
			<vel value="0.000795874870499" flag="0"/>
			<psa03 value="0.00227458166946" flag="0"/>
			<psa10 value="0.00156527962959" flag="0"/>
			<psa30 value="0.000340197015549" flag="0"/>
		</comp>
	</station>
	<station code="ACATE" name="ACATE" netid="IV" source="Italian National Seismic Network (INSN)" insttype="" lat="37.02398" lon="14.50064">
		<comp name=".EHE" depth="0.0">
			<acc value="0.0292916055912" flag="0"/>
			<vel value="0.0313718125042" flag="0"/>
			<psa03 value="0.079779774602" flag="0"/>
			<psa10 value="0.0407352397596" flag="0"/>
			<psa30 value="0.0083152466776" flag="0"/>
		</comp>
		<comp name=".EHN" depth="0.0">
			<acc value="0.0227511468346" flag="0"/>
			<vel value="0.0253844671995" flag="0"/>
			<psa03 value="0.0602790348568" flag="0"/>
			<psa10 value="0.0284710104397" flag="0"/>
			<psa30 value="0.00420958469766" flag="0"/>
		</comp>
		<comp name=".EHZ" depth="0.0">
			<acc value="0.0157640485572" flag="0"/>
			<vel value="0.0156209810205" flag="0"/>
			<psa03 value="0.0431454909895" flag="0"/>
			<psa10 value="0.0249942469962" flag="0"/>
			<psa30 value="0.00221580866145" flag="0"/>
		</comp>
		<comp name=".HNE" depth="0.0">
			<acc value="0.0316065420423" flag="0"/>
			<vel value="0.0350502462624" flag="0"/>
			<psa03 value="0.0874748468626" flag="0"/>
			<psa10 value="0.0450460490795" flag="0"/>
			<psa30 value="0.00894736188548" flag="0"/>
		</comp>
		<comp name=".HNN" depth="0.0">
			<acc value="0.0224001002136" flag="0"/>
			<vel value="0.0255727586488" flag="0"/>
			<psa03 value="0.0629921364616" flag="0"/>
			<psa10 value="0.0279844250808" flag="0"/>
			<psa30 value="0.00449637119586" flag="0"/>
		</comp>
		<comp name=".HNZ" depth="0.0">
			<acc value="0.0158708521391" flag="0"/>
			<vel value="0.0153928626401" flag="0"/>
			<psa03 value="0.0431355059531" flag="0"/>
			<psa10 value="0.0250471705021" flag="0"/>
			<psa30 value="0.00217481407076" flag="0"/>
		</comp>
	</station>
	<station code="CAR1" name="CAR1" netid="IV" source="Italian National Seismic Network (INSN)" insttype="" lat="39.2534" lon="16.2114">
		<comp name=".HHE" depth="0.0">
			<acc value="0.0108095655345" flag="0"/>
			<vel value="0.00860735694778" flag="0"/>
			<psa03 value="0.0294515421659" flag="0"/>
			<psa10 value="0.0109668815021" flag="0"/>
			<psa30 value="0.00132833935013" flag="0"/>
		</comp>
		<comp name=".HHN" depth="0.0">
			<acc value="0.00906925743556" flag="0"/>
			<vel value="0.00914745114624" flag="0"/>
			<psa03 value="0.0247139054041" flag="0"/>
			<psa10 value="0.0114459476129" flag="0"/>
			<psa30 value="0.00091994583773" flag="0"/>
		</comp>
		<comp name=".HHZ" depth="0.0">
			<acc value="0.0062135453632" flag="0"/>
			<vel value="0.00452870762608" flag="0"/>
			<psa03 value="0.0165603861068" flag="0"/>
			<psa10 value="0.00488933248802" flag="0"/>
			<psa30 value="0.00123133427819" flag="0"/>
		</comp>
		<comp name=".HNE" depth="0.0">
			<acc value="0.0101885658961" flag="0"/>
			<vel value="0.00874234187512" flag="0"/>
			<psa03 value="0.0292410829116" flag="0"/>
			<psa10 value="0.0109764962015" flag="0"/>
			<psa30 value="0.00126758115853" flag="0"/>
		</comp>
		<comp name=".HNN" depth="0.0">
			<acc value="0.0090373731823" flag="0"/>
			<vel value="0.008660212573" flag="0"/>
			<psa03 value="0.0244092576185" flag="0"/>
			<psa10 value="0.0109781059956" flag="0"/>
			<psa30 value="0.000955948639406" flag="0"/>
		</comp>
		<comp name=".HNZ" depth="0.0">
			<acc value="0.00593798250924" flag="0"/>
			<vel value="0.00458515627055" flag="0"/>
			<psa03 value="0.0160876959392" flag="0"/>
			<psa10 value="0.00481967115454" flag="0"/>
			<psa30 value="0.00119764381719" flag="0"/>
		</comp>
	</station>
	<station code="CELI" name="CELI" netid="IV" source="Italian National Seismic Network (INSN)" insttype="" lat="39.4027" lon="16.5088">
		<comp name=".HHE" depth="0.0">
			<acc value="0.00160778982674" flag="0"/>
			<vel value="0.00277403617499" flag="0"/>
			<psa03 value="0.00419595178934" flag="0"/>
			<psa10 value="0.00364317063905" flag="0"/>
			<psa30 value="0.000947133055416" flag="0"/>
		</comp>
		<comp name=".HHN" depth="0.0">
			<acc value="0.00242755382189" flag="0"/>
			<vel value="0.00282878411905" flag="0"/>
			<psa03 value="0.0087004513622" flag="0"/>
			<psa10 value="0.00404834537049" flag="0"/>
			<psa30 value="0.00100862337885" flag="0"/>
		</comp>
		<comp name=".HHZ" depth="0.0">
			<acc value="0.00157239211221" flag="0"/>
			<vel value="0.0022670536979" flag="0"/>
			<psa03 value="0.00365477303525" flag="0"/>
			<psa10 value="0.00307228391436" flag="0"/>
			<psa30 value="0.00084085627552" flag="0"/>
		</comp>
	</station>
	<station code="ECHR" name="ECHR" netid="IV" source="Italian National Seismic Network (INSN)" insttype="" lat="37.6863" lon="14.9129">
		<comp name=".HHE" depth="0.0">
			<acc value="0.0494011740957" flag="0"/>
			<vel value="0.0564026286192" flag="0"/>
			<psa03 value="0.113835936905" flag="0"/>
			<psa10 value="0.0897373096563" flag="0"/>
			<psa30 value="0.0100006749956" flag="0"/>
		</comp>
		<comp name=".HHN" depth="0.0">
			<acc value="0.0343765366941" flag="0"/>
			<vel value="0.0330051227201" flag="0"/>
			<psa03 value="0.140869342319" flag="0"/>
			<psa10 value="0.0533597798234" flag="0"/>
			<psa30 value="0.0127913048612" flag="0"/>
		</comp>
		<comp name=".HHZ" depth="0.0">
			<acc value="0.020743206699" flag="0"/>
			<vel value="0.0293393693198" flag="0"/>
			<psa03 value="0.0678496509562" flag="0"/>
			<psa10 value="0.0315903002024" flag="0"/>
			<psa30 value="0.0186277589976" flag="0"/>
		</comp>
		<comp name=".HNE" depth="0.0">
			<acc value="0.0121185637463" flag="0"/>
			<vel value="0.0140766236861" flag="0"/>
			<psa03 value="0.0282184162066" flag="0"/>
			<psa10 value="0.0222247147783" flag="0"/>
			<psa30 value="0.00254260989376" flag="0"/>
		</comp>
		<comp name=".HNN" depth="0.0">
			<acc value="0.0088545035892" flag="0"/>
			<vel value="0.00853581803258" flag="0"/>
			<psa03 value="0.0349848331985" flag="0"/>
			<psa10 value="0.0141283737479" flag="0"/>
			<psa30 value="0.00323878142837" flag="0"/>
		</comp>
		<comp name=".HNZ" depth="0.0">
			<acc value="0.00519446398192" flag="0"/>
			<vel value="0.00738135290149" flag="0"/>
			<psa03 value="0.016817357557" flag="0"/>
			<psa10 value="0.00792179321743" flag="0"/>
			<psa30 value="0.00470635885652" flag="0"/>
		</comp>
	</station>
	<station code="ECZM" name="ECZM" netid="IV" source="Italian National Seismic Network (INSN)" insttype="" lat="37.7313" lon="14.9041">
		<comp name=".HHE" depth="0.0">
			<acc value="0.0530222158248" flag="0"/>
			<vel value="0.0405691208387" flag="0"/>
			<psa03 value="0.140898760935" flag="0"/>
			<psa10 value="0.0673492640582" flag="0"/>
			<psa30 value="0.0089638413105" flag="0"/>
		</comp>
		<comp name=".HHN" depth="0.0">
			<acc value="0.0592422734873" flag="0"/>
			<vel value="0.0766690102656" flag="0"/>
			<psa03 value="0.163494789061" flag="0"/>
			<psa10 value="0.103833293446" flag="0"/>
			<psa30 value="0.015039046263" flag="0"/>
		</comp>
		<comp name=".HHZ" depth="0.0">
			<acc value="0.0385455102791" flag="0"/>
			<vel value="0.0460891314322" flag="0"/>
			<psa03 value="0.148184253979" flag="0"/>
			<psa10 value="0.0375320513142" flag="0"/>
			<psa30 value="0.0273144094456" flag="0"/>
		</comp>
	</station>
	<station code="EMCN" name="EMCN" netid="IV" source="Italian National Seismic Network (INSN)" insttype="" lat="37.7912" lon="15.0336">
		<comp name=".HHE" depth="0.0">
			<acc value="0.139116334611" flag="0"/>
			<vel value="0.0829317078461" flag="0"/>
			<psa03 value="0.285012734862" flag="0"/>
			<psa10 value="0.165082455902" flag="0"/>
			<psa30 value="0.0193181147303" flag="0"/>
		</comp>
		<comp name=".HHN" depth="0.0">
			<acc value="0.083363308696" flag="0"/>
			<vel value="0.0582849038433" flag="0"/>
			<psa03 value="0.236468144021" flag="0"/>
			<psa10 value="0.118131280618" flag="0"/>
			<psa30 value="0.00681601111061" flag="0"/>
		</comp>
		<comp name=".HHZ" depth="0.0">
			<acc value="0.0714902993372" flag="0"/>
			<vel value="0.0430195610506" flag="0"/>
			<psa03 value="0.177266055506" flag="0"/>
			<psa10 value="0.0701118470659" flag="0"/>
			<psa30 value="0.00868035169737" flag="0"/>
		</comp>
		<comp name=".HNE" depth="0.0">
			<acc value="0.137587399835" flag="0"/>
			<vel value="0.0829510596328" flag="0"/>
			<psa03 value="0.279448387084" flag="0"/>
			<psa10 value="0.165219054952" flag="0"/>
			<psa30 value="0.0195324889315" flag="0"/>
		</comp>
		<comp name=".HNN" depth="0.0">
			<acc value="0.0811081262908" flag="0"/>
			<vel value="0.0601182213184" flag="0"/>
			<psa03 value="0.245091236091" flag="0"/>
			<psa10 value="0.120729415231" flag="0"/>
			<psa30 value="0.00735224788366" flag="0"/>
		</comp>
		<comp name=".HNZ" depth="0.0">
			<acc value="0.0724219781584" flag="0"/>
			<vel value="0.0437227796574" flag="0"/>
			<psa03 value="0.181270424943" flag="0"/>
			<psa10 value="0.0716977746259" flag="0"/>
			<psa30 value="0.00886718657428" flag="0"/>
		</comp>
	</station>
	<station code="EMFO" name="EMFO" netid="IV" source="Italian National Seismic Network (INSN)" insttype="" lat="37.7357" lon="15.0902">
