<?xml version="1.0" encoding="UTF-8" standalone="yes"?>
<!DOCTYPE earthquake SYSTEM "stationlist.dtd">
<stationlist created="" xmlns="ch.ethz.sed.shakemap.usgs.xml">
  <station code="MYT1" name="MYT1" netid="HI" insttype="CMG-5TD,ACCELEROMETER,GURALP" lat="39.085" lon="26.5694">
    <comp name="--.HNE">
      <acc value="0.0615646464" flag="0"/>
      <vel value="0.0245972307" flag="0"/>
      <psa03 value="0.1532423309" flag="0"/>
      <psa10 value="0.0162744131" flag="0"/>
      <psa30 value="0.0026788311" flag="0"/>
    </comp>
    <comp name="--.HNN">
      <acc value="0.1041198186" flag="0"/>
      <vel value="0.0449137316" flag="0"/>
      <psa03 value="0.2639542199" flag="0"/>
      <psa10 value="0.0245882415" flag="0"/>
      <psa30 value="0.0023497634" flag="0"/>
    </comp>
    <comp name="--.HNZ">
      <acc value="0.0607564857" flag="0"/>
      <vel value="0.0289848699" flag="0"/>
      <psa03 value="0.1811236797" flag="0"/>
      <psa10 value="0.0426273222" flag="0"/>
      <psa30 value="0.0023192256" flag="0"/>
    </comp>
  </station>
  <station code="PRK" name="PRK" netid="HL" insttype="120" lat="39.2456" lon="26.265">
    <comp name="--.HHZ">
      <acc value="0.0587806305" flag="0"/>
      <vel value="0.0159523425" flag="0"/>
      <psa03 value="0.0846168402" flag="0"/>
      <psa10 value="0.0072338009" flag="0"/>
      <psa30 value="0.0006193416" flag="0"/>
    </comp>
    <comp name="--.HHN">
      <acc value="0.0740939703" flag="0"/>
      <vel value="0.0243725541" flag="0"/>
      <psa03 value="0.1056502582" flag="0"/>
      <psa10 value="0.0239679915" flag="0"/>
      <psa30 value="0.0014147287" flag="0"/>
    </comp>
    <comp name="--.HHE">
      <acc value="0.0723284951" flag="0"/>
      <vel value="0.0322152685" flag="0"/>
      <psa03 value="0.1286253336" flag="0"/>
      <psa10 value="0.0323081789" flag="0"/>
      <psa30 value="0.0023010605" flag="0"/>
    </comp>
  </station>
  <station code="SMG" name="SMG" netid="HL" insttype="120" lat="37.7043" lon="26.8377">
    <comp name="--.HHZ">
      <acc value="0.0782018188" flag="0"/>
      <vel value="0.0200150032" flag="0"/>
      <psa03 value="0.0547023030" flag="0"/>
      <psa10 value="0.0042937716" flag="0"/>
      <psa30 value="0.0002858973" flag="0"/>
    </comp>
    <comp name="--.HHE">
      <acc value="0.0648876660" flag="0"/>
      <vel value="0.0217448597" flag="0"/>
      <psa03 value="0.1356030775" flag="0"/>
      <psa10 value="0.0092160332" flag="0"/>
      <psa30 value="0.0011228265" flag="0"/>
    </comp>
    <comp name="--.HHN">
      <acc value="0.0810482966" flag="0"/>
      <vel value="0.0263103399" flag="0"/>
      <psa03 value="0.2088916321" flag="0"/>
      <psa10 value="0.0093031182" flag="0"/>
      <psa30 value="0.0006646115" flag="0"/>
    </comp>
  </station>
  <station code="CHOS" name="CHOS" netid="HT" insttype="100" lat="38.3869" lon="26.0506">
    <comp name="--.HHE">
      <acc value="0.1920838948" flag="0"/>
      <vel value="0.0573453683" flag="0"/>
      <psa03 value="0.2071275903" flag="0"/>
      <psa10 value="0.0150223127" flag="0"/>
      <psa30 value="0.0010502157" flag="0"/>
    </comp>
    <comp name="--.HHZ">
      <acc value="0.0531060266" flag="0"/>
      <vel value="0.0148968285" flag="0"/>
      <psa03 value="0.0522911370" flag="0"/>
      <psa10 value="0.0064900101" flag="0"/>
      <psa30 value="0.0008126085" flag="0"/>
    </comp>
    <comp name="--.HHN">
      <acc value="0.1193919285" flag="0"/>
      <vel value="0.0326204879" flag="0"/>
      <psa03 value="0.1607232589" flag="0"/>
      <psa10 value="0.0128593970" flag="0"/>
      <psa30 value="0.0017581078" flag="0"/>
    </comp>
  </station>
  <station code="SIGR" name="SIGR" netid="HT" insttype="100" lat="39.2114" lon="25.8553">
    <comp name="--.HHE">
      <acc value="0.0283365450" flag="0"/>
      <vel value="0.0082595027" flag="0"/>
      <psa03 value="0.0570654138" flag="0"/>
      <psa10 value="0.0058695863" flag="0"/>
      <psa30 value="0.0004572929" flag="0"/>
    </comp>
    <comp name="--.HHN">
      <acc value="0.0342516564" flag="0"/>
      <vel value="0.0107263670" flag="0"/>
      <psa03 value="0.0655113413" flag="0"/>
      <psa10 value="0.0077300489" flag="0"/>
      <psa30 value="0.0006574085" flag="0"/>
    </comp>
    <comp name="--.HHZ">
      <acc value="0.0716030228" flag="0"/>
      <vel value="0.0181602820" flag="0"/>
      <psa03 value="0.0530298282" flag="0"/>
      <psa10 value="0.0038984131" flag="0"/>
      <psa30 value="0.0004221711" flag="0"/>
    </comp>
  </station>
  <station code="AKS" name="AKS" netid="KO" insttype="CMG-5T" lat="38.8785" lon="27.8129">
    <comp name="--.HNE">
      <acc value="0.0520393768" flag="0"/>
      <vel value="0.0221427009" flag="0"/>
      <psa03 value="0.1035577769" flag="0"/>
      <psa10 value="0.0150169691" flag="0"/>
      <psa30 value="0.0009294579" flag="0"/>
    </comp>
    <comp name="--.HNN">
      <acc value="0.0595768176" flag="0"/>
      <vel value="0.0226158473" flag="0"/>
      <psa03 value="0.2111901153" flag="0"/>
      <psa10 value="0.0116131561" flag="0"/>
      <psa30 value="0.0017157921" flag="0"/>
    </comp>
    <comp name="--.HNZ">
      <acc value="0.0311464007" flag="0"/>
      <vel value="0.0095522063" flag="0"/>
      <psa03 value="0.0368885594" flag="0"/>
      <psa10 value="0.0043433006" flag="0"/>
      <psa30 value="0.0003970876" flag="0"/>
    </comp>
  </station>
  <station code="BLCB" name="BLCB" netid="KO" insttype="CMG-3T" lat="38.3853" lon="27.042">
    <comp name="--.HHN">
      <acc value="0.0000874107" flag="0"/>
      <vel value="0.0000162027" flag="0"/>
      <psa03 value="0.0000803677" flag="0"/>
      <psa10 value="0.0000070169" flag="0"/>
      <psa30 value="0.0000006210" flag="0"/>
    </comp>
    <comp name="--.HHZ">
      <acc value="0.1393799378" flag="0"/>
      <vel value="0.0214190783" flag="0"/>
      <psa03 value="0.0642611955" flag="0"/>
      <psa10 value="0.0072307167" flag="0"/>
      <psa30 value="0.0007920771" flag="0"/>
    </comp>
    <comp name="--.HHE">
      <acc value="0.1768056475" flag="0"/>
      <vel value="0.0491902529" flag="0"/>
      <psa03 value="0.1343302704" flag="0"/>
      <psa10 value="0.0160921178" flag="0"/>
      <psa30 value="0.0013446655" flag="0"/>
    </comp>
  </station>
  <station code="CESE" name="CESE" netid="KO" insttype="CMG-5T" lat="38.3306" lon="26.2997">
    <comp name="--.HNZ">
      <acc value="0.0415490325" flag="0"/>
      <vel value="0.0100447790" flag="0"/>
      <psa03 value="0.0357271978" flag="0"/>
      <psa10 value="0.0113701493" flag="0"/>
      <psa30 value="0.0009571429" flag="0"/>
    </comp>
    <comp name="--.HNN">
      <acc value="0.0537450351" flag="0"/>
      <vel value="0.0147214992" flag="0"/>
      <psa03 value="0.0617062850" flag="0"/>
      <psa10 value="0.0187169308" flag="0"/>
      <psa30 value="0.0013493150" flag="0"/>
    </comp>
    <comp name="--.HNE">
      <acc value="0.0607508167" flag="0"/>
      <vel value="0.0152672890" flag="0"/>
      <psa03 value="0.0664164485" flag="0"/>
      <psa10 value="0.0119390311" flag="0"/>
      <psa30 value="0.0018940410" flag="0"/>
    </comp>
  </station>
  <station code="DKL" name="DKL" netid="KO" insttype="CMG-3ESPC" lat="39.0713" lon="26.9053">
    <comp name="--.HHE">
      <acc value="0.1003834651" flag="0"/>
      <vel value="0.0278337620" flag="0"/>
      <psa03 value="0.1467866489" flag="0"/>
      <psa10 value="0.0074856177" flag="0"/>
      <psa30 value="0.0009631872" flag="0"/>
    </comp>
    <comp name="--.HHZ">
      <acc value="0.0661674152" flag="0"/>
      <vel value="0.0161465751" flag="0"/>
      <psa03 value="0.0667749230" flag="0"/>
      <psa10 value="0.0059984973" flag="0"/>
      <psa30 value="0.0004732699" flag="0"/>
    </comp>
  </station>
  <station code="FOCM" name="FOCM" netid="KO" insttype="CMG-5T" lat="38.7131" lon="26.7309">
    <comp name="--.HNE">
      <acc value="1.2557037244" flag="0"/>
      <vel value="0.2433477993" flag="0"/>
      <psa03 value="1.1445393354" flag="0"/>
      <psa10 value="0.1109474308" flag="0"/>
      <psa30 value="0.0093112756" flag="0"/>
    </comp>
    <comp name="--.HNN">
      <acc value="1.6125962261" flag="0"/>
      <vel value="0.2630759282" flag="0"/>
      <psa03 value="0.6813735351" flag="0"/>
      <psa10 value="0.1496248141" flag="0"/>
      <psa30 value="0.0100873543" flag="0"/>
    </comp>
    <comp name="--.HNZ">
      <acc value="0.9430681261" flag="0"/>
      <vel value="0.1629211799" flag="0"/>
      <psa03 value="0.5711985298" flag="0"/>
      <psa10 value="0.0686283631" flag="0"/>
      <psa30 value="0.0044240339" flag="0"/>
    </comp>
  </station>
  <station code="GMLD" name="GMLD" netid="KO" insttype="CMG-5T" lat="38.0766" lon="26.9157">
    <comp name="--.HNN">
      <acc value="0.1930892378" flag="0"/>
      <vel value="0.0681988816" flag="0"/>
      <psa03 value="0.3134985080" flag="0"/>
      <psa10 value="0.0278619184" flag="0"/>
      <psa30 value="0.0018295068" flag="0"/>
    </comp>
    <comp name="--.HNE">
      <acc value="0.2235953927" flag="0"/>
      <vel value="0.0672928089" flag="0"/>
      <psa03 value="0.4093868932" flag="0"/>
      <psa10 value="0.0237159854" flag="0"/>
      <psa30 value="0.0024292683" flag="0"/>
    </comp>
    <comp name="--.HNZ">
      <acc value="0.1403039541" flag="0"/>
      <vel value="0.0345141273" flag="0"/>
      <psa03 value="0.2135780151" flag="0"/>
      <psa10 value="0.0115370543" flag="0"/>
      <psa30 value="0.0010345034" flag="0"/>
    </comp>
  </station>
  <station code="KRBN" name="KRBN" netid="KO" insttype="CMG-5T" lat="38.5936" lon="26.5537">
    <comp name="--.HNE">
      <acc value="1.6519026086" flag="0"/>
      <vel value="0.4589560005" flag="0"/>
      <psa03 value="1.0159979812" flag="0"/>
      <psa10 value="0.2198292345" flag="0"/>
      <psa30 value="0.0141009874" flag="0"/>
    </comp>
    <comp name="--.HNZ">
      <acc value="1.0777323058" flag="0"/>
      <vel value="0.2432753940" flag="0"/>
      <psa03 value="0.3674898005" flag="0"/>
      <psa10 value="0.1827076600" flag="0"/>
      <psa30 value="0.0063118249" flag="0"/>
    </comp>
    <comp name="--.HNN">
      <acc value="1.1226279595" flag="0"/>
      <vel value="0.3882957954" flag="0"/>
      <psa03 value="0.7588242295" flag="0"/>
      <psa10 value="0.4151273597" flag="0"/>
      <psa30 value="0.0315316799" flag="0"/>
    </comp>
  </station>
  <station code="ODEM" name="ODEM" netid="KO" insttype="CMG-5T" lat="38.2762" lon="28.0747">
    <comp name="--.HNE">
      <acc value="0.0159744371" flag="0"/>
      <vel value="0.0045208700" flag="0"/>
      <psa03 value="0.0282101532" flag="0"/>
      <psa10 value="0.0034797261" flag="0"/>
      <psa30 value="0.0002978434" flag="0"/>
    </comp>
    <comp name="--.HNN">
      <acc value="0.0241798179" flag="0"/>
      <vel value="0.0064592478" flag="0"/>
      <psa03 value="0.0424360536" flag="0"/>
      <psa10 value="0.0046220691" flag="0"/>
      <psa30 value="0.0002807697" flag="0"/>
    </comp>
    <comp name="--.HNZ">
      <acc value="0.0226413505" flag="0"/>
      <vel value="0.0052070800" flag="0"/>
      <psa03 value="0.0231652767" flag="0"/>
      <psa10 value="0.0051590891" flag="0"/>
      <psa30 value="0.0004687111" flag="0"/>
    </comp>
  </station>
  <station code="SOMA" name="SOMA" netid="KO" insttype="CMG-5T" lat="39.1564" lon="27.5341">
    <comp name="--.HNE">
      <acc value="0.0718512611" flag="0"/>
      <vel value="0.0197096751" flag="0"/>
      <psa03 value="0.0745680332" flag="0"/>
      <psa10 value="0.0169870281" flag="0"/>
      <psa30 value="0.0008704964" flag="0"/>
    </comp>
    <comp name="--.HNZ">
      <acc value="0.0576494191" flag="0"/>
      <vel value="0.0133263833" flag="0"/>
      <psa03 value="0.0499172219" flag="0"/>
      <psa10 value="0.0084521248" flag="0"/>
      <psa30 value="0.0006601171" flag="0"/>
    </comp>
    <comp name="--.HNN">
      <acc value="0.0799737660" flag="0"/>
      <vel value="0.0206035853" flag="0"/>
      <psa03 value="0.0742664533" flag="0"/>
      <psa10 value="0.0175574659" flag="0"/>
      <psa30 value="0.0007152111" flag="0"/>
    </comp>
  </station>
  <station code="YAYO" name="YAYO" netid="KO" insttype="CMG-6T" lat="39.6113" lon="27.0726">
    <comp name="--.HHN">
      <acc value="0.0215808508" flag="0"/>
      <vel value="0.0083115553" flag="0"/>
      <psa03 value="0.0376309452" flag="0"/>
      <psa10 value="0.0087910139" flag="0"/>
      <psa30 value="0.0007952828" flag="0"/>
    </comp>
    <comp name="--.HHZ">
      <acc value="0.0164180225" flag="0"/>
      <vel value="0.0047832408" flag="0"/>
      <psa03 value="0.0224970519" flag="0"/>
      <psa10 value="0.0061101788" flag="0"/>
      <psa30 value="0.0004636574" flag="0"/>
    </comp>
    <comp name="--.HHE">
      <acc value="0.0243030875" flag="0"/>
      <vel value="0.0076845166" flag="0"/>
      <psa03 value="0.0355864896" flag="0"/>
      <psa10 value="0.0105073578" flag="0"/>
      <psa30 value="0.0013462328" flag="0"/>
    </comp>
  </station>
</stationlist>
