<?xml version="1.0" encoding="UTF-8" standalone="yes"?>
<!DOCTYPE earthquake SYSTEM "stationlist.dtd">
<stationlist created="" xmlns="ch.ethz.sed.shakemap.usgs.xml">
  <station code="MYT1" name="MYT1" netid="HI" insttype="CMG-5TD,ACCELEROMETER,GURALP" lat="39.085" lon="26.5694">
    <comp name="--.HNN">
      <acc value="0.1041198194" flag="0"/>
      <vel value="0.0449137327" flag="0"/>
      <psa03 value="0.2639542199" flag="0"/>
      <psa10 value="0.0245882409" flag="0"/>
      <psa30 value="0.0023497162" flag="0"/>
    </comp>
    <comp name="--.HNE">
      <acc value="0.0615646456" flag="0"/>
      <vel value="0.0245972287" flag="0"/>
      <psa03 value="0.1532423309" flag="0"/>
      <psa10 value="0.0162744167" flag="0"/>
      <psa30 value="0.0026788353" flag="0"/>
    </comp>
    <comp name="--.HNZ">
      <acc value="0.0607564860" flag="0"/>
      <vel value="0.0289848670" flag="0"/>
      <psa03 value="0.1811236797" flag="0"/>
      <psa10 value="0.0426273217" flag="0"/>
      <psa30 value="0.0023198202" flag="0"/>
    </comp>
  </station>
  <station code="PRK" name="PRK" netid="HL" insttype="120" lat="39.2456" lon="26.265">
    <comp name="--.HHZ">
      <acc value="0.0587806305" flag="0"/>
      <vel value="0.0159523428" flag="0"/>
      <psa03 value="0.0846168402" flag="0"/>
      <psa10 value="0.0072338009" flag="0"/>
      <psa30 value="0.0006191838" flag="0"/>
    </comp>
    <comp name="--.HHN">
      <acc value="0.0740939703" flag="0"/>
      <vel value="0.0243725542" flag="0"/>
      <psa03 value="0.1056502582" flag="0"/>
      <psa10 value="0.0239679912" flag="0"/>
      <psa30 value="0.0014146380" flag="0"/>
    </comp>
    <comp name="--.HHE">
      <acc value="0.0723284951" flag="0"/>
      <vel value="0.0322152681" flag="0"/>
      <psa03 value="0.1286253336" flag="0"/>
      <psa10 value="0.0323081792" flag="0"/>
      <psa30 value="0.0023010246" flag="0"/>
    </comp>
  </station>
  <station code="SMG" name="SMG" netid="HL" insttype="120" lat="37.7043" lon="26.8377">
    <comp name="--.HHE">
      <acc value="0.0648876660" flag="0"/>
      <vel value="0.0217448588" flag="0"/>
      <psa03 value="0.1356030775" flag="0"/>
      <psa10 value="0.0092160332" flag="0"/>
      <psa30 value="0.0011228230" flag="0"/>
    </comp>
    <comp name="--.HHN">
      <acc value="0.0810482966" flag="0"/>
      <vel value="0.0263103399" flag="0"/>
      <psa03 value="0.2088916321" flag="0"/>
      <psa10 value="0.0093031182" flag="0"/>
      <psa30 value="0.0006646085" flag="0"/>
    </comp>
    <comp name="--.HHZ">
      <acc value="0.0782018188" flag="0"/>
      <vel value="0.0200150032" flag="0"/>
      <psa03 value="0.0547023030" flag="0"/>
      <psa10 value="0.0042937716" flag="0"/>
      <psa30 value="0.0002858982" flag="0"/>
    </comp>
  </station>
  <station code="CHOS" name="CHOS" netid="HT" insttype="100" lat="38.3869" lon="26.0506">
    <comp name="--.HHE">
      <acc value="0.1920838949" flag="0"/>
      <vel value="0.0573453693" flag="0"/>
      <psa03 value="0.2071275903" flag="0"/>
      <psa10 value="0.0150223124" flag="0"/>
      <psa30 value="0.0010500585" flag="0"/>
    </comp>
    <comp name="--.HHN">
      <acc value="0.1193919285" flag="0"/>
      <vel value="0.0326204892" flag="0"/>
      <psa03 value="0.1607232589" flag="0"/>
      <psa10 value="0.0128593969" flag="0"/>
      <psa30 value="0.0017578755" flag="0"/>
    </comp>
    <comp name="--.HHZ">
      <acc value="0.0531060266" flag="0"/>
      <vel value="0.0148968277" flag="0"/>
      <psa03 value="0.0522911370" flag="0"/>
      <psa10 value="0.0064900104" flag="0"/>
      <psa30 value="0.0008125974" flag="0"/>
    </comp>
  </station>
  <station code="SIGR" name="SIGR" netid="HT" insttype="100" lat="39.2114" lon="25.8553">
    <comp name="--.HHN">
      <acc value="0.0342516563" flag="0"/>
      <vel value="0.0107263645" flag="0"/>
      <psa03 value="0.0655113413" flag="0"/>
      <psa10 value="0.0077300489" flag="0"/>
      <psa30 value="0.0006573387" flag="0"/>
    </comp>
    <comp name="--.HHZ">
      <acc value="0.0716030227" flag="0"/>
      <vel value="0.0181602827" flag="0"/>
      <psa03 value="0.0530298282" flag="0"/>
      <psa10 value="0.0038984112" flag="0"/>
      <psa30 value="0.0004227108" flag="0"/>
    </comp>
    <comp name="--.HHE">
      <acc value="0.0283365451" flag="0"/>
      <vel value="0.0082594997" flag="0"/>
      <psa03 value="0.0570654138" flag="0"/>
      <psa10 value="0.0058695863" flag="0"/>
      <psa30 value="0.0004573044" flag="0"/>
    </comp>
  </station>
  <station code="AKS" name="AKS" netid="KO" insttype="CMG-5T" lat="38.8785" lon="27.8129">
    <comp name="--.HNZ">
      <acc value="0.0311464013" flag="0"/>
      <vel value="0.0095522056" flag="0"/>
      <psa03 value="0.0368885594" flag="0"/>
      <psa10 value="0.0043433006" flag="0"/>
      <psa30 value="0.0003971127" flag="0"/>
    </comp>
    <comp name="--.HNE">
      <acc value="0.0520393774" flag="0"/>
      <vel value="0.0221427002" flag="0"/>
      <psa03 value="0.1035577769" flag="0"/>
      <psa10 value="0.0150169691" flag="0"/>
      <psa30 value="0.0009292512" flag="0"/>
    </comp>
    <comp name="--.HNN">
      <acc value="0.0595768170" flag="0"/>
      <vel value="0.0226158484" flag="0"/>
      <psa03 value="0.2111901153" flag="0"/>
      <psa10 value="0.0116131560" flag="0"/>
      <psa30 value="0.0017157463" flag="0"/>
    </comp>
  </station>
  <station code="BLCB" name="BLCB" netid="KO" insttype="CMG-3T" lat="38.3853" lon="27.042">
    <comp name="--.HHN">
      <acc value="0.0000874107" flag="0"/>
      <vel value="0.0000162027" flag="0"/>
      <psa03 value="0.0000803677" flag="0"/>
      <psa10 value="0.0000070169" flag="0"/>
      <psa30 value="0.0000006210" flag="0"/>
    </comp>
    <comp name="--.HHE">
      <acc value="0.1768056475" flag="0"/>
      <vel value="0.0491902528" flag="0"/>
      <psa03 value="0.1343302704" flag="0"/>
      <psa10 value="0.0160921181" flag="0"/>
      <psa30 value="0.0013446525" flag="0"/>
    </comp>
    <comp name="--.HHZ">
      <acc value="0.1393799378" flag="0"/>
      <vel value="0.0214190785" flag="0"/>
      <psa03 value="0.0642611955" flag="0"/>
      <psa10 value="0.0072307167" flag="0"/>
      <psa30 value="0.0007920879" flag="0"/>
    </comp>
  </station>
  <station code="CESE" name="CESE" netid="KO" insttype="CMG-5T" lat="38.3306" lon="26.2997">
    <comp name="--.HNN">
      <acc value="0.0537450345" flag="0"/>
      <vel value="0.0147215002" flag="0"/>
      <psa03 value="0.0617062850" flag="0"/>
      <psa10 value="0.0187169307" flag="0"/>
      <psa30 value="0.0013494355" flag="0"/>
    </comp>
    <comp name="--.HNZ">
      <acc value="0.0415490264" flag="0"/>
      <vel value="0.0100447806" flag="0"/>
      <psa03 value="0.0357271978" flag="0"/>
      <psa10 value="0.0113701490" flag="0"/>
      <psa30 value="0.0009571832" flag="0"/>
    </comp>
    <comp name="--.HNE">
      <acc value="0.0607508022" flag="0"/>
      <vel value="0.0152672887" flag="0"/>
      <psa03 value="0.0664164485" flag="0"/>
      <psa10 value="0.0119390311" flag="0"/>
      <psa30 value="0.0018942947" flag="0"/>
    </comp>
  </station>
  <station code="DKL" name="DKL" netid="KO" insttype="CMG-3ESPC" lat="39.0713" lon="26.9053">
    <comp name="--.HHE">
      <acc value="0.1003834650" flag="0"/>
      <vel value="0.0278337631" flag="0"/>
      <psa03 value="0.1467866489" flag="0"/>
      <psa10 value="0.0074856177" flag="0"/>
      <psa30 value="0.0009631332" flag="0"/>
    </comp>
    <comp name="--.HHZ">
      <acc value="0.0661674149" flag="0"/>
      <vel value="0.0161465742" flag="0"/>
      <psa03 value="0.0667749230" flag="0"/>
      <psa10 value="0.0059984974" flag="0"/>
      <psa30 value="0.0004733200" flag="0"/>
    </comp>
  </station>
  <station code="FOCM" name="FOCM" netid="KO" insttype="CMG-5T" lat="38.7131" lon="26.7309">
    <comp name="--.HNN">
      <acc value="1.6125962201" flag="0"/>
      <vel value="0.2630759274" flag="0"/>
      <psa03 value="0.6813735351" flag="0"/>
      <psa10 value="0.1496248155" flag="0"/>
      <psa30 value="0.0100873779" flag="0"/>
    </comp>
    <comp name="--.HNE">
      <acc value="1.2557037253" flag="0"/>
      <vel value="0.2433477974" flag="0"/>
      <psa03 value="1.1445393354" flag="0"/>
      <psa10 value="0.1109474230" flag="0"/>
      <psa30 value="0.0093107058" flag="0"/>
    </comp>
    <comp name="--.HNZ">
      <acc value="0.9430681246" flag="0"/>
      <vel value="0.1629211792" flag="0"/>
      <psa03 value="0.5711985298" flag="0"/>
      <psa10 value="0.0686283119" flag="0"/>
      <psa30 value="0.0044244355" flag="0"/>
    </comp>
  </station>
  <station code="GMLD" name="GMLD" netid="KO" insttype="CMG-5T" lat="38.0766" lon="26.9157">
    <comp name="--.HNZ">
      <acc value="0.1403039537" flag="0"/>
      <vel value="0.0345141275" flag="0"/>
      <psa03 value="0.2135780151" flag="0"/>
      <psa10 value="0.0115370530" flag="0"/>
      <psa30 value="0.0010342408" flag="0"/>
    </comp>
    <comp name="--.HNE">
      <acc value="0.2235953925" flag="0"/>
      <vel value="0.0672928087" flag="0"/>
      <psa03 value="0.4093868932" flag="0"/>
      <psa10 value="0.0237159852" flag="0"/>
      <psa30 value="0.0024286786" flag="0"/>
    </comp>
    <comp name="--.HNN">
      <acc value="0.1930892388" flag="0"/>
      <vel value="0.0681988812" flag="0"/>
      <psa03 value="0.3134985080" flag="0"/>
      <psa10 value="0.0278619187" flag="0"/>
      <psa30 value="0.0018294512" flag="0"/>
    </comp>
  </station>
  <station code="KRBN" name="KRBN" netid="KO" insttype="CMG-5T" lat="38.5936" lon="26.5537">
    <comp name="--.HNE">
      <acc value="1.6519025415" flag="0"/>
      <vel value="0.4589559989" flag="0"/>
      <psa03 value="1.0159979812" flag="0"/>
      <psa10 value="0.2198292032" flag="0"/>
      <psa30 value="0.0140983003" flag="0"/>
    </comp>
    <comp name="--.HNZ">
      <acc value="1.0777321565" flag="0"/>
      <vel value="0.2432753981" flag="0"/>
      <psa03 value="0.3674898005" flag="0"/>
      <psa10 value="0.1827076738" flag="0"/>
      <psa30 value="0.0063120233" flag="0"/>
    </comp>
    <comp name="--.HNN">
      <acc value="1.1226278462" flag="0"/>
      <vel value="0.3882957981" flag="0"/>
      <psa03 value="0.7588242295" flag="0"/>
      <psa10 value="0.4151273696" flag="0"/>
      <psa30 value="0.0315335490" flag="0"/>
    </comp>
  </station>
  <station code="ODEM" name="ODEM" netid="KO" insttype="CMG-5T" lat="38.2762" lon="28.0747">
    <comp name="--.HNE">
      <acc value="0.0159744371" flag="0"/>
      <vel value="0.0045208699" flag="0"/>
      <psa03 value="0.0282101532" flag="0"/>
      <psa10 value="0.0034797261" flag="0"/>
      <psa30 value="0.0002978431" flag="0"/>
    </comp>
    <comp name="--.HNN">
      <acc value="0.0241798179" flag="0"/>
      <vel value="0.0064592478" flag="0"/>
      <psa03 value="0.0424360536" flag="0"/>
      <psa10 value="0.0046220691" flag="0"/>
      <psa30 value="0.0002807692" flag="0"/>
    </comp>
    <comp name="--.HNZ">
      <acc value="0.0226413504" flag="0"/>
      <vel value="0.0052070800" flag="0"/>
      <psa03 value="0.0231652767" flag="0"/>
      <psa10 value="0.0051590891" flag="0"/>
      <psa30 value="0.0004687101" flag="0"/>
    </comp>
  </station>
  <station code="SOMA" name="SOMA" netid="KO" insttype="CMG-5T" lat="39.1564" lon="27.5341">
    <comp name="--.HNE">
      <acc value="0.0718512605" flag="0"/>
      <vel value="0.0197096739" flag="0"/>
      <psa03 value="0.0745680332" flag="0"/>
      <psa10 value="0.0169870283" flag="0"/>
      <psa30 value="0.0008705517" flag="0"/>
    </comp>
    <comp name="--.HNZ">
      <acc value="0.0576494182" flag="0"/>
      <vel value="0.0133263840" flag="0"/>
      <psa03 value="0.0499172219" flag="0"/>
      <psa10 value="0.0084521249" flag="0"/>
      <psa30 value="0.0006602013" flag="0"/>
    </comp>
    <comp name="--.HNN">
      <acc value="0.0799737658" flag="0"/>
      <vel value="0.0206035848" flag="0"/>
      <psa03 value="0.0742664533" flag="0"/>
      <psa10 value="0.0175574659" flag="0"/>
      <psa30 value="0.0007152107" flag="0"/>
    </comp>
  </station>
  <station code="YAYO" name="YAYO" netid="KO" insttype="CMG-6T" lat="39.6113" lon="27.0726">
    <comp name="--.HHE">
      <acc value="0.0243030876" flag="0"/>
      <vel value="0.0076845168" flag="0"/>
      <psa03 value="0.0355864896" flag="0"/>
      <psa10 value="0.0105073577" flag="0"/>
      <psa30 value="0.0013462746" flag="0"/>
    </comp>
    <comp name="--.HHN">
      <acc value="0.0215808506" flag="0"/>
      <vel value="0.0083115575" flag="0"/>
      <psa03 value="0.0376309452" flag="0"/>
      <psa10 value="0.0087910139" flag="0"/>
      <psa30 value="0.0007953566" flag="0"/>
    </comp>
    <comp name="--.HHZ">
      <acc value="0.0164180226" flag="0"/>
      <vel value="0.0047832421" flag="0"/>
      <psa03 value="0.0224970519" flag="0"/>
      <psa10 value="0.0061101788" flag="0"/>
      <psa30 value="0.0004636409" flag="0"/>
    </comp>
  </station>
</stationlist>
