<?xml version="1.0" encoding="UTF-8" standalone="yes"?>
<!DOCTYPE earthquake SYSTEM "stationlist.dtd">
<stationlist created="" xmlns="ch.ethz.sed.shakemap.usgs.xml">
  <station code="MYT1" name="MYT1" netid="HI" insttype="CMG-5TD,ACCELEROMETER,GURALP" lat="39.085" lon="26.5694">
    <comp name="--.HNE">
      <acc value="0.0615646520" flag="0"/>
      <vel value="0.0245972313" flag="0"/>
      <psa03 value="0.1532423309" flag="0"/>
      <psa10 value="0.0162744108" flag="0"/>
      <psa30 value="0.0026788294" flag="0"/>
    </comp>
    <comp name="--.HNZ">
      <acc value="0.0607564898" flag="0"/>
      <vel value="0.0289848684" flag="0"/>
      <psa03 value="0.1811236797" flag="0"/>
      <psa10 value="0.0426273288" flag="0"/>
      <psa30 value="0.0023185964" flag="0"/>
    </comp>
    <comp name="--.HNN">
      <acc value="0.1041198173" flag="0"/>
      <vel value="0.0449137311" flag="0"/>
      <psa03 value="0.2639542199" flag="0"/>
      <psa10 value="0.0245882431" flag="0"/>
      <psa30 value="0.0023496000" flag="0"/>
    </comp>
  </station>
  <station code="PRK" name="PRK" netid="HL" insttype="120" lat="39.2456" lon="26.265">
    <comp name="--.HHE">
      <acc value="0.0723284951" flag="0"/>
      <vel value="0.0322152702" flag="0"/>
      <psa03 value="0.1286253336" flag="0"/>
      <psa10 value="0.0323081784" flag="0"/>
      <psa30 value="0.0023011269" flag="0"/>
    </comp>
    <comp name="--.HHZ">
      <acc value="0.0587806305" flag="0"/>
      <vel value="0.0159523416" flag="0"/>
      <psa03 value="0.0846168402" flag="0"/>
      <psa10 value="0.0072338010" flag="0"/>
      <psa30 value="0.0006195026" flag="0"/>
    </comp>
    <comp name="--.HHN">
      <acc value="0.0740939704" flag="0"/>
      <vel value="0.0243725541" flag="0"/>
      <psa03 value="0.1056502582" flag="0"/>
      <psa10 value="0.0239679914" flag="0"/>
      <psa30 value="0.0014148335" flag="0"/>
    </comp>
  </station>
  <station code="SMG" name="SMG" netid="HL" insttype="120" lat="37.7043" lon="26.8377">
    <comp name="--.HHN">
      <acc value="0.0810482959" flag="0"/>
      <vel value="0.0263103339" flag="0"/>
      <psa03 value="0.2088916321" flag="0"/>
      <psa10 value="0.0093031183" flag="0"/>
      <psa30 value="0.0006637302" flag="0"/>
    </comp>
    <comp name="--.HHZ">
      <acc value="0.0782018214" flag="0"/>
      <vel value="0.0200150062" flag="0"/>
      <psa03 value="0.0547023030" flag="0"/>
      <psa10 value="0.0042937721" flag="0"/>
      <psa30 value="0.0002857761" flag="0"/>
    </comp>
    <comp name="--.HHE">
      <acc value="0.0648876670" flag="0"/>
      <vel value="0.0217448612" flag="0"/>
      <psa03 value="0.1356030775" flag="0"/>
      <psa10 value="0.0092160330" flag="0"/>
      <psa30 value="0.0011232117" flag="0"/>
    </comp>
  </station>
  <station code="CHOS" name="CHOS" netid="HT" insttype="100" lat="38.3869" lon="26.0506">
    <comp name="--.HHE">
      <acc value="0.1920838947" flag="0"/>
      <vel value="0.0573453722" flag="0"/>
      <psa03 value="0.2071275903" flag="0"/>
      <psa10 value="0.0150223138" flag="0"/>
      <psa30 value="0.0010506297" flag="0"/>
    </comp>
    <comp name="--.HHN">
      <acc value="0.1193919291" flag="0"/>
      <vel value="0.0326204821" flag="0"/>
      <psa03 value="0.1607232589" flag="0"/>
      <psa10 value="0.0128593970" flag="0"/>
      <psa30 value="0.0017591730" flag="0"/>
    </comp>
    <comp name="--.HHZ">
      <acc value="0.0531060268" flag="0"/>
      <vel value="0.0148968315" flag="0"/>
      <psa03 value="0.0522911370" flag="0"/>
      <psa10 value="0.0064900090" flag="0"/>
      <psa30 value="0.0008126930" flag="0"/>
    </comp>
  </station>
  <station code="SIGR" name="SIGR" netid="HT" insttype="100" lat="39.2114" lon="25.8553">
    <comp name="--.HHE">
      <acc value="0.0283365460" flag="0"/>
      <vel value="0.0082595032" flag="0"/>
      <psa03 value="0.0570654138" flag="0"/>
      <psa10 value="0.0058695863" flag="0"/>
      <psa30 value="0.0004572813" flag="0"/>
    </comp>
    <comp name="--.HHN">
      <acc value="0.0342516563" flag="0"/>
      <vel value="0.0107263657" flag="0"/>
      <psa03 value="0.0655113413" flag="0"/>
      <psa10 value="0.0077300489" flag="0"/>
      <psa30 value="0.0006574833" flag="0"/>
    </comp>
    <comp name="--.HHZ">
      <acc value="0.0716030236" flag="0"/>
      <vel value="0.0181602835" flag="0"/>
      <psa03 value="0.0530298282" flag="0"/>
      <psa10 value="0.0038984146" flag="0"/>
      <psa30 value="0.0004218514" flag="0"/>
    </comp>
  </station>
  <station code="AKS" name="AKS" netid="KO" insttype="CMG-5T" lat="38.8785" lon="27.8129">
    <comp name="--.HNZ">
      <acc value="0.0311463856" flag="0"/>
      <vel value="0.0095521999" flag="0"/>
      <psa03 value="0.0368885594" flag="0"/>
      <psa10 value="0.0043433019" flag="0"/>
      <psa30 value="0.0003972179" flag="0"/>
    </comp>
    <comp name="--.HNE">
      <acc value="0.0520394129" flag="0"/>
      <vel value="0.0221426922" flag="0"/>
      <psa03 value="0.1035577769" flag="0"/>
      <psa10 value="0.0150169671" flag="0"/>
      <psa30 value="0.0009290179" flag="0"/>
    </comp>
    <comp name="--.HNN">
      <acc value="0.0595768318" flag="0"/>
      <vel value="0.0226158469" flag="0"/>
      <psa03 value="0.2111901153" flag="0"/>
      <psa10 value="0.0116131561" flag="0"/>
      <psa30 value="0.0017167692" flag="0"/>
    </comp>
  </station>
  <station code="AYDB" name="AYDB" netid="KO" insttype="CMG-3ESPC" lat="37.9467" lon="27.8908">
    <comp name="--.HHZ">
      <acc value="0.0190911927" flag="0"/>
      <vel value="0.0046442876" flag="0"/>
      <psa03 value="0.0303103211" flag="0"/>
      <psa10 value="0.0055068674" flag="0"/>
      <psa30 value="0.0003027115" flag="0"/>
    </comp>
    <comp name="--.HHE">
      <acc value="0.0211628809" flag="0"/>
      <vel value="0.0056104620" flag="0"/>
      <psa03 value="0.0360373466" flag="0"/>
      <psa10 value="0.0049876851" flag="0"/>
      <psa30 value="0.0003388456" flag="0"/>
    </comp>
    <comp name="--.HHN">
      <acc value="0.0169684493" flag="0"/>
      <vel value="0.0057659315" flag="0"/>
      <psa03 value="0.0243304926" flag="0"/>
      <psa10 value="0.0083587108" flag="0"/>
      <psa30 value="0.0004858243" flag="0"/>
    </comp>
  </station>
  <station code="BLCB" name="BLCB" netid="KO" insttype="CMG-3T" lat="38.3853" lon="27.042">
    <comp name="--.HHN">
      <acc value="0.0000874103" flag="0"/>
      <vel value="0.0000162027" flag="0"/>
      <psa03 value="0.0000803677" flag="0"/>
      <psa10 value="0.0000070169" flag="0"/>
      <psa30 value="0.0000006207" flag="0"/>
    </comp>
    <comp name="--.HHE">
      <acc value="0.1768056474" flag="0"/>
      <vel value="0.0491902554" flag="0"/>
      <psa03 value="0.1343302704" flag="0"/>
      <psa10 value="0.0160921179" flag="0"/>
      <psa30 value="0.0013440611" flag="0"/>
    </comp>
    <comp name="--.HHZ">
      <acc value="0.1393799380" flag="0"/>
      <vel value="0.0214190783" flag="0"/>
      <psa03 value="0.0642611955" flag="0"/>
      <psa10 value="0.0072307181" flag="0"/>
      <psa30 value="0.0007921611" flag="0"/>
    </comp>
  </station>
  <station code="BMYO" name="BMYO" netid="KO" insttype="CMG-5T" lat="39.8098" lon="26.6009">
    <comp name="--.HNE">
      <acc value="0.0173382059" flag="0"/>
      <vel value="0.0112747412" flag="0"/>
      <psa03 value="0.0393178953" flag="0"/>
      <psa10 value="0.0146002472" flag="0"/>
      <psa30 value="0.0034603099" flag="0"/>
    </comp>
    <comp name="--.HNN">
      <acc value="0.0202350235" flag="0"/>
      <vel value="0.0127316052" flag="0"/>
      <psa03 value="0.0554778824" flag="0"/>
      <psa10 value="0.0183330124" flag="0"/>
      <psa30 value="0.0009105658" flag="0"/>
    </comp>
    <comp name="--.HNZ">
      <acc value="0.0129127195" flag="0"/>
      <vel value="0.0062117372" flag="0"/>
      <psa03 value="0.0202495642" flag="0"/>
      <psa10 value="0.0126365844" flag="0"/>
      <psa30 value="0.0006265726" flag="0"/>
    </comp>
  </station>
  <station code="DKL" name="DKL" netid="KO" insttype="CMG-3ESPC" lat="39.0713" lon="26.9053">
    <comp name="--.HHZ">
      <acc value="0.0661674140" flag="0"/>
      <vel value="0.0161465753" flag="0"/>
      <psa03 value="0.0667749230" flag="0"/>
      <psa10 value="0.0059984973" flag="0"/>
      <psa30 value="0.0004732297" flag="0"/>
    </comp>
    <comp name="--.HHE">
      <acc value="0.1003834662" flag="0"/>
      <vel value="0.0278337618" flag="0"/>
      <psa03 value="0.1467866489" flag="0"/>
      <psa10 value="0.0074856177" flag="0"/>
      <psa30 value="0.0009634063" flag="0"/>
    </comp>
  </station>
  <station code="EZN" name="EZN" netid="KO" insttype="CMG-3ESP" lat="39.8255" lon="26.3246">
    <comp name="--.HHE">
      <acc value="0.0235905214" flag="0"/>
      <vel value="0.0066635922" flag="0"/>
      <psa03 value="0.0413049934" flag="0"/>
      <psa10 value="0.0076007642" flag="0"/>
      <psa30 value="0.0004941714" flag="0"/>
    </comp>
    <comp name="--.HHN">
      <acc value="0.0193653897" flag="0"/>
      <vel value="0.0059573272" flag="0"/>
      <psa03 value="0.0405234393" flag="0"/>
      <psa10 value="0.0046424891" flag="0"/>
      <psa30 value="0.0003904534" flag="0"/>
    </comp>
    <comp name="--.HHZ">
      <acc value="0.0106112511" flag="0"/>
      <vel value="0.0031900568" flag="0"/>
      <psa03 value="0.0251537552" flag="0"/>
      <psa10 value="0.0036989138" flag="0"/>
      <psa30 value="0.0003255107" flag="0"/>
    </comp>
  </station>
  <station code="FOCM" name="FOCM" netid="KO" insttype="CMG-5T" lat="38.7131" lon="26.7309">
    <comp name="--.HNE">
      <acc value="1.2557037828" flag="0"/>
      <vel value="0.2433478000" flag="0"/>
      <psa03 value="1.1445393354" flag="0"/>
      <psa10 value="0.1109474474" flag="0"/>
      <psa30 value="0.0093137077" flag="0"/>
    </comp>
    <comp name="--.HNN">
      <acc value="1.6125962882" flag="0"/>
      <vel value="0.2630759372" flag="0"/>
      <psa03 value="0.6813735351" flag="0"/>
      <psa10 value="0.1496247632" flag="0"/>
      <psa30 value="0.0100877831" flag="0"/>
    </comp>
    <comp name="--.HNZ">
      <acc value="0.9430681637" flag="0"/>
      <vel value="0.1629211726" flag="0"/>
      <psa03 value="0.5711985298" flag="0"/>
      <psa10 value="0.0686285269" flag="0"/>
      <psa30 value="0.0044252916" flag="0"/>
    </comp>
  </station>
  <station code="GORD" name="GORD" netid="KO" insttype="CMG-5T" lat="38.9088" lon="28.1769">
    <comp name="--.HNE">
      <acc value="0.0150543811" flag="0"/>
      <vel value="0.0107893465" flag="0"/>
      <psa03 value="0.0441230747" flag="0"/>
      <psa10 value="0.0166059682" flag="0"/>
      <psa30 value="0.0007944197" flag="0"/>
    </comp>
    <comp name="--.HNN">
      <acc value="0.0143615606" flag="0"/>
      <vel value="0.0076647137" flag="0"/>
      <psa03 value="0.0281740910" flag="0"/>
      <psa10 value="0.0098705104" flag="0"/>
      <psa30 value="0.0010012925" flag="0"/>
    </comp>
    <comp name="--.HNZ">
      <acc value="0.0103730412" flag="0"/>
      <vel value="0.0046565625" flag="0"/>
      <psa03 value="0.0162089410" flag="0"/>
      <psa10 value="0.0088439701" flag="0"/>
      <psa30 value="0.0006347553" flag="0"/>
    </comp>
  </station>
  <station code="KRBN" name="KRBN" netid="KO" insttype="CMG-5T" lat="38.5936" lon="26.5537">
    <comp name="--.HNE">
      <acc value="1.6519180256" flag="0"/>
      <vel value="0.4589559659" flag="0"/>
      <psa03 value="1.0159979811" flag="0"/>
      <psa10 value="0.2198293558" flag="0"/>
      <psa30 value="0.0141129394" flag="0"/>
    </comp>
    <comp name="--.HNN">
      <acc value="1.1226474720" flag="0"/>
      <vel value="0.3882957879" flag="0"/>
      <psa03 value="0.7588242295" flag="0"/>
      <psa10 value="0.4151274237" flag="0"/>
      <psa30 value="0.0315197296" flag="0"/>
    </comp>
    <comp name="--.HNZ">
      <acc value="1.0777532538" flag="0"/>
      <vel value="0.2432753898" flag="0"/>
      <psa03 value="0.3674898005" flag="0"/>
      <psa10 value="0.1827076597" flag="0"/>
      <psa30 value="0.0063044913" flag="0"/>
    </comp>
  </station>
  <station code="ODEM" name="ODEM" netid="KO" insttype="CMG-5T" lat="38.2762" lon="28.0747">
    <comp name="--.HNE">
      <acc value="0.0159744351" flag="0"/>
      <vel value="0.0045208738" flag="0"/>
      <psa03 value="0.0282101532" flag="0"/>
      <psa10 value="0.0034797259" flag="0"/>
      <psa30 value="0.0002977202" flag="0"/>
    </comp>
    <comp name="--.HNN">
      <acc value="0.0241798262" flag="0"/>
      <vel value="0.0064592458" flag="0"/>
      <psa03 value="0.0424360536" flag="0"/>
      <psa10 value="0.0046220691" flag="0"/>
      <psa30 value="0.0002807972" flag="0"/>
    </comp>
    <comp name="--.HNZ">
      <acc value="0.0226413427" flag="0"/>
      <vel value="0.0052070780" flag="0"/>
      <psa03 value="0.0231652767" flag="0"/>
      <psa10 value="0.0051590890" flag="0"/>
      <psa30 value="0.0004686642" flag="0"/>
    </comp>
  </station>
  <station code="SOMA" name="SOMA" netid="KO" insttype="CMG-5T" lat="39.1564" lon="27.5341">
    <comp name="--.HNE">
      <acc value="0.0718512655" flag="0"/>
      <vel value="0.0197096745" flag="0"/>
      <psa03 value="0.0745680332" flag="0"/>
      <psa10 value="0.0169870270" flag="0"/>
      <psa30 value="0.0008701640" flag="0"/>
    </comp>
    <comp name="--.HNN">
      <acc value="0.0799737587" flag="0"/>
      <vel value="0.0206035866" flag="0"/>
      <psa03 value="0.0742664533" flag="0"/>
      <psa10 value="0.0175574656" flag="0"/>
      <psa30 value="0.0007151798" flag="0"/>
    </comp>
    <comp name="--.HNZ">
      <acc value="0.0576494175" flag="0"/>
      <vel value="0.0133263850" flag="0"/>
      <psa03 value="0.0499172219" flag="0"/>
      <psa10 value="0.0084521242" flag="0"/>
      <psa30 value="0.0006597135" flag="0"/>
    </comp>
  </station>
  <station code="YAYO" name="YAYO" netid="KO" insttype="CMG-6T" lat="39.6113" lon="27.0726">
    <comp name="--.HHE">
      <acc value="0.0243030908" flag="0"/>
      <vel value="0.0076845153" flag="0"/>
      <psa03 value="0.0355864896" flag="0"/>
      <psa10 value="0.0105073578" flag="0"/>
      <psa30 value="0.0013461791" flag="0"/>
    </comp>
    <comp name="--.HHZ">
      <acc value="0.0164180162" flag="0"/>
      <vel value="0.0047832421" flag="0"/>
      <psa03 value="0.0224970519" flag="0"/>
      <psa10 value="0.0061101788" flag="0"/>
      <psa30 value="0.0004636739" flag="0"/>
    </comp>
    <comp name="--.HHN">
      <acc value="0.0215808568" flag="0"/>
      <vel value="0.0083115564" flag="0"/>
      <psa03 value="0.0376309452" flag="0"/>
      <psa10 value="0.0087910139" flag="0"/>
      <psa30 value="0.0007951555" flag="0"/>
    </comp>
  </station>
</stationlist>
