<?xml version="1.0" encoding="UTF-8" standalone="yes"?>
<!DOCTYPE earthquake SYSTEM "stationlist.dtd">
<stationlist created="" xmlns="ch.ethz.sed.shakemap.usgs.xml">
  <station code="MYT1" name="MYT1" netid="HI" insttype="CMG-5TD,ACCELEROMETER,GURALP" lat="39.085" lon="26.5694">
    <comp name="--.HNE">
      <acc value="0.0615646520" flag="0"/>
      <vel value="0.0245972318" flag="0"/>
      <psa03 value="0.1532423309" flag="0"/>
      <psa10 value="0.0162744106" flag="0"/>
      <psa30 value="0.0026787793" flag="0"/>
    </comp>
    <comp name="--.HNZ">
      <acc value="0.0607564899" flag="0"/>
      <vel value="0.0289848678" flag="0"/>
      <psa03 value="0.1811236797" flag="0"/>
      <psa10 value="0.0426273316" flag="0"/>
      <psa30 value="0.0023184884" flag="0"/>
    </comp>
    <comp name="--.HNN">
      <acc value="0.1041198173" flag="0"/>
      <vel value="0.0449137314" flag="0"/>
      <psa03 value="0.2639542199" flag="0"/>
      <psa10 value="0.0245882436" flag="0"/>
      <psa30 value="0.0023496007" flag="0"/>
    </comp>
  </station>
  <station code="PRK" name="PRK" netid="HL" insttype="120" lat="39.2456" lon="26.265">
    <comp name="--.HHE">
      <acc value="0.0723284951" flag="0"/>
      <vel value="0.0322152695" flag="0"/>
      <psa03 value="0.1286253336" flag="0"/>
      <psa10 value="0.0323081783" flag="0"/>
      <psa30 value="0.0023011176" flag="0"/>
    </comp>
    <comp name="--.HHZ">
      <acc value="0.0587806304" flag="0"/>
      <vel value="0.0159523427" flag="0"/>
      <psa03 value="0.0846168402" flag="0"/>
      <psa10 value="0.0072338010" flag="0"/>
      <psa30 value="0.0006195262" flag="0"/>
    </comp>
    <comp name="--.HHN">
      <acc value="0.0740939704" flag="0"/>
      <vel value="0.0243725546" flag="0"/>
      <psa03 value="0.1056502582" flag="0"/>
      <psa10 value="0.0239679913" flag="0"/>
      <psa30 value="0.0014148748" flag="0"/>
    </comp>
  </station>
  <station code="SMG" name="SMG" netid="HL" insttype="120" lat="37.7043" lon="26.8377">
    <comp name="--.HHZ">
      <acc value="0.0782018215" flag="0"/>
      <vel value="0.0200150058" flag="0"/>
      <psa03 value="0.0547023030" flag="0"/>
      <psa10 value="0.0042937721" flag="0"/>
      <psa30 value="0.0002857788" flag="0"/>
    </comp>
    <comp name="--.HHE">
      <acc value="0.0648876670" flag="0"/>
      <vel value="0.0217448610" flag="0"/>
      <psa03 value="0.1356030775" flag="0"/>
      <psa10 value="0.0092160330" flag="0"/>
      <psa30 value="0.0011232385" flag="0"/>
    </comp>
    <comp name="--.HHN">
      <acc value="0.0810482959" flag="0"/>
      <vel value="0.0263103337" flag="0"/>
      <psa03 value="0.2088916321" flag="0"/>
      <psa10 value="0.0093031183" flag="0"/>
      <psa30 value="0.0006636911" flag="0"/>
    </comp>
  </station>
  <station code="CHOS" name="CHOS" netid="HT" insttype="100" lat="38.3869" lon="26.0506">
    <comp name="--.HHE">
      <acc value="0.1920838947" flag="0"/>
      <vel value="0.0573453725" flag="0"/>
      <psa03 value="0.2071275903" flag="0"/>
      <psa10 value="0.0150223137" flag="0"/>
      <psa30 value="0.0010506486" flag="0"/>
    </comp>
    <comp name="--.HHN">
      <acc value="0.1193919291" flag="0"/>
      <vel value="0.0326204812" flag="0"/>
      <psa03 value="0.1607232589" flag="0"/>
      <psa10 value="0.0128593972" flag="0"/>
      <psa30 value="0.0017592765" flag="0"/>
    </comp>
    <comp name="--.HHZ">
      <acc value="0.0531060267" flag="0"/>
      <vel value="0.0148968317" flag="0"/>
      <psa03 value="0.0522911370" flag="0"/>
      <psa10 value="0.0064900091" flag="0"/>
      <psa30 value="0.0008127005" flag="0"/>
    </comp>
  </station>
  <station code="SIGR" name="SIGR" netid="HT" insttype="100" lat="39.2114" lon="25.8553">
    <comp name="--.HHN">
      <acc value="0.0342516563" flag="0"/>
      <vel value="0.0107263643" flag="0"/>
      <psa03 value="0.0655113413" flag="0"/>
      <psa10 value="0.0077300489" flag="0"/>
      <psa30 value="0.0006575112" flag="0"/>
    </comp>
    <comp name="--.HHE">
      <acc value="0.0283365459" flag="0"/>
      <vel value="0.0082595017" flag="0"/>
      <psa03 value="0.0570654138" flag="0"/>
      <psa10 value="0.0058695863" flag="0"/>
      <psa30 value="0.0004572954" flag="0"/>
    </comp>
    <comp name="--.HHZ">
      <acc value="0.0716030236" flag="0"/>
      <vel value="0.0181602845" flag="0"/>
      <psa03 value="0.0530298282" flag="0"/>
      <psa10 value="0.0038984151" flag="0"/>
      <psa30 value="0.0004217955" flag="0"/>
    </comp>
  </station>
  <station code="AKS" name="AKS" netid="KO" insttype="CMG-5T" lat="38.8785" lon="27.8129">
    <comp name="--.HNE">
      <acc value="0.0520394132" flag="0"/>
      <vel value="0.0221426907" flag="0"/>
      <psa03 value="0.1035577769" flag="0"/>
      <psa10 value="0.0150169670" flag="0"/>
      <psa30 value="0.0009287709" flag="0"/>
    </comp>
    <comp name="--.HNN">
      <acc value="0.0595768317" flag="0"/>
      <vel value="0.0226158485" flag="0"/>
      <psa03 value="0.2111901153" flag="0"/>
      <psa10 value="0.0116131557" flag="0"/>
      <psa30 value="0.0017168404" flag="0"/>
    </comp>
    <comp name="--.HNZ">
      <acc value="0.0311463852" flag="0"/>
      <vel value="0.0095522003" flag="0"/>
      <psa03 value="0.0368885594" flag="0"/>
      <psa10 value="0.0043433022" flag="0"/>
      <psa30 value="0.0003971830" flag="0"/>
    </comp>
  </station>
  <station code="AYDB" name="AYDB" netid="KO" insttype="CMG-3ESPC" lat="37.9467" lon="27.8908">
    <comp name="--.HHE">
      <acc value="0.0211628809" flag="0"/>
      <vel value="0.0056104613" flag="0"/>
      <psa03 value="0.0360373466" flag="0"/>
      <psa10 value="0.0049876851" flag="0"/>
      <psa30 value="0.0003388464" flag="0"/>
    </comp>
    <comp name="--.HHZ">
      <acc value="0.0190911927" flag="0"/>
      <vel value="0.0046442878" flag="0"/>
      <psa03 value="0.0303103211" flag="0"/>
      <psa10 value="0.0055068674" flag="0"/>
      <psa30 value="0.0003027083" flag="0"/>
    </comp>
    <comp name="--.HHN">
      <acc value="0.0169684493" flag="0"/>
      <vel value="0.0057659315" flag="0"/>
      <psa03 value="0.0243304926" flag="0"/>
      <psa10 value="0.0083587108" flag="0"/>
      <psa30 value="0.0004858144" flag="0"/>
    </comp>
  </station>
  <station code="BLCB" name="BLCB" netid="KO" insttype="CMG-3T" lat="38.3853" lon="27.042">
    <comp name="--.HHN">
      <acc value="0.0000874103" flag="0"/>
      <vel value="0.0000162027" flag="0"/>
      <psa03 value="0.0000803677" flag="0"/>
      <psa10 value="0.0000070169" flag="0"/>
      <psa30 value="0.0000006206" flag="0"/>
    </comp>
    <comp name="--.HHE">
      <acc value="0.1768056474" flag="0"/>
      <vel value="0.0491902555" flag="0"/>
      <psa03 value="0.1343302704" flag="0"/>
      <psa10 value="0.0160921177" flag="0"/>
      <psa30 value="0.0013440494" flag="0"/>
    </comp>
    <comp name="--.HHZ">
      <acc value="0.1393799380" flag="0"/>
      <vel value="0.0214190781" flag="0"/>
      <psa03 value="0.0642611955" flag="0"/>
      <psa10 value="0.0072307182" flag="0"/>
      <psa30 value="0.0007921536" flag="0"/>
    </comp>
  </station>
  <station code="BMYO" name="BMYO" netid="KO" insttype="CMG-5T" lat="39.8098" lon="26.6009">
    <comp name="--.HNE">
      <acc value="0.0173382066" flag="0"/>
      <vel value="0.0112747413" flag="0"/>
      <psa03 value="0.0393178953" flag="0"/>
      <psa10 value="0.0146002472" flag="0"/>
      <psa30 value="0.0034602633" flag="0"/>
    </comp>
    <comp name="--.HNN">
      <acc value="0.0202350232" flag="0"/>
      <vel value="0.0127316053" flag="0"/>
      <psa03 value="0.0554778824" flag="0"/>
      <psa10 value="0.0183330124" flag="0"/>
      <psa30 value="0.0009105723" flag="0"/>
    </comp>
    <comp name="--.HNZ">
      <acc value="0.0129127215" flag="0"/>
      <vel value="0.0062117359" flag="0"/>
      <psa03 value="0.0202495642" flag="0"/>
      <psa10 value="0.0126365844" flag="0"/>
      <psa30 value="0.0006265455" flag="0"/>
    </comp>
  </station>
  <station code="DKL" name="DKL" netid="KO" insttype="CMG-3ESPC" lat="39.0713" lon="26.9053">
    <comp name="--.HHE">
      <acc value="0.1003834662" flag="0"/>
      <vel value="0.0278337619" flag="0"/>
      <psa03 value="0.1467866489" flag="0"/>
      <psa10 value="0.0074856177" flag="0"/>
      <psa30 value="0.0009634470" flag="0"/>
    </comp>
    <comp name="--.HHZ">
      <acc value="0.0661674140" flag="0"/>
      <vel value="0.0161465749" flag="0"/>
      <psa03 value="0.0667749230" flag="0"/>
      <psa10 value="0.0059984973" flag="0"/>
      <psa30 value="0.0004732361" flag="0"/>
    </comp>
  </station>
  <station code="EZN" name="EZN" netid="KO" insttype="CMG-3ESP" lat="39.8255" lon="26.3246">
    <comp name="--.HHE">
      <acc value="0.0235905214" flag="0"/>
      <vel value="0.0066635940" flag="0"/>
      <psa03 value="0.0413049934" flag="0"/>
      <psa10 value="0.0076007642" flag="0"/>
      <psa30 value="0.0004941682" flag="0"/>
    </comp>
    <comp name="--.HHN">
      <acc value="0.0193653897" flag="0"/>
      <vel value="0.0059573272" flag="0"/>
      <psa03 value="0.0405234393" flag="0"/>
      <psa10 value="0.0046424891" flag="0"/>
      <psa30 value="0.0003904560" flag="0"/>
    </comp>
    <comp name="--.HHZ">
      <acc value="0.0106112511" flag="0"/>
      <vel value="0.0031900584" flag="0"/>
      <psa03 value="0.0251537552" flag="0"/>
      <psa10 value="0.0036989138" flag="0"/>
      <psa30 value="0.0003255100" flag="0"/>
    </comp>
  </station>
  <station code="FOCM" name="FOCM" netid="KO" insttype="CMG-5T" lat="38.7131" lon="26.7309">
    <comp name="--.HNZ">
      <acc value="0.9430681623" flag="0"/>
      <vel value="0.1629211730" flag="0"/>
      <psa03 value="0.5711985298" flag="0"/>
      <psa10 value="0.0686285340" flag="0"/>
      <psa30 value="0.0044252212" flag="0"/>
    </comp>
    <comp name="--.HNE">
      <acc value="1.2557037886" flag="0"/>
      <vel value="0.2433478001" flag="0"/>
      <psa03 value="1.1445393354" flag="0"/>
      <psa10 value="0.1109474521" flag="0"/>
      <psa30 value="0.0093142768" flag="0"/>
    </comp>
    <comp name="--.HNN">
      <acc value="1.6125962839" flag="0"/>
      <vel value="0.2630759378" flag="0"/>
      <psa03 value="0.6813735351" flag="0"/>
      <psa10 value="0.1496247604" flag="0"/>
      <psa30 value="0.0100880214" flag="0"/>
    </comp>
  </station>
  <station code="GORD" name="GORD" netid="KO" insttype="CMG-5T" lat="38.9088" lon="28.1769">
    <comp name="--.HNN">
      <acc value="0.0143615600" flag="0"/>
      <vel value="0.0076647133" flag="0"/>
      <psa03 value="0.0281740910" flag="0"/>
      <psa10 value="0.0098705104" flag="0"/>
      <psa30 value="0.0010013305" flag="0"/>
    </comp>
    <comp name="--.HNE">
      <acc value="0.0150543809" flag="0"/>
      <vel value="0.0107893465" flag="0"/>
      <psa03 value="0.0441230747" flag="0"/>
      <psa10 value="0.0166059682" flag="0"/>
      <psa30 value="0.0007944108" flag="0"/>
    </comp>
    <comp name="--.HNZ">
      <acc value="0.0103730412" flag="0"/>
      <vel value="0.0046565632" flag="0"/>
      <psa03 value="0.0162089410" flag="0"/>
      <psa10 value="0.0088439701" flag="0"/>
      <psa30 value="0.0006347405" flag="0"/>
    </comp>
  </station>
  <station code="KRBN" name="KRBN" netid="KO" insttype="CMG-5T" lat="38.5936" lon="26.5537">
    <comp name="--.HNN">
      <acc value="1.1226474609" flag="0"/>
      <vel value="0.3882957872" flag="0"/>
      <psa03 value="0.7588242295" flag="0"/>
      <psa10 value="0.4151274396" flag="0"/>
      <psa30 value="0.0315192807" flag="0"/>
    </comp>
    <comp name="--.HNZ">
      <acc value="1.0777532141" flag="0"/>
      <vel value="0.2432753904" flag="0"/>
      <psa03 value="0.3674898005" flag="0"/>
      <psa10 value="0.1827076646" flag="0"/>
      <psa30 value="0.0063034338" flag="0"/>
    </comp>
    <comp name="--.HNE">
      <acc value="1.6519179886" flag="0"/>
      <vel value="0.4589559646" flag="0"/>
      <psa03 value="1.0159979811" flag="0"/>
      <psa10 value="0.2198293609" flag="0"/>
      <psa30 value="0.0141130759" flag="0"/>
    </comp>
  </station>
  <station code="ODEM" name="ODEM" netid="KO" insttype="CMG-5T" lat="38.2762" lon="28.0747">
    <comp name="--.HNN">
      <acc value="0.0241798262" flag="0"/>
      <vel value="0.0064592460" flag="0"/>
      <psa03 value="0.0424360536" flag="0"/>
      <psa10 value="0.0046220691" flag="0"/>
      <psa30 value="0.0002808140" flag="0"/>
    </comp>
    <comp name="--.HNE">
      <acc value="0.0159744351" flag="0"/>
      <vel value="0.0045208736" flag="0"/>
      <psa03 value="0.0282101532" flag="0"/>
      <psa10 value="0.0034797259" flag="0"/>
      <psa30 value="0.0002977129" flag="0"/>
    </comp>
    <comp name="--.HNZ">
      <acc value="0.0226413426" flag="0"/>
      <vel value="0.0052070776" flag="0"/>
      <psa03 value="0.0231652767" flag="0"/>
      <psa10 value="0.0051590890" flag="0"/>
      <psa30 value="0.0004686691" flag="0"/>
    </comp>
  </station>
  <station code="SOMA" name="SOMA" netid="KO" insttype="CMG-5T" lat="39.1564" lon="27.5341">
    <comp name="--.HNE">
      <acc value="0.0718512656" flag="0"/>
      <vel value="0.0197096738" flag="0"/>
      <psa03 value="0.0745680332" flag="0"/>
      <psa10 value="0.0169870270" flag="0"/>
      <psa30 value="0.0008701181" flag="0"/>
    </comp>
    <comp name="--.HNN">
      <acc value="0.0799737586" flag="0"/>
      <vel value="0.0206035862" flag="0"/>
      <psa03 value="0.0742664533" flag="0"/>
      <psa10 value="0.0175574656" flag="0"/>
      <psa30 value="0.0007151771" flag="0"/>
    </comp>
    <comp name="--.HNZ">
      <acc value="0.0576494175" flag="0"/>
      <vel value="0.0133263855" flag="0"/>
      <psa03 value="0.0499172219" flag="0"/>
      <psa10 value="0.0084521242" flag="0"/>
      <psa30 value="0.0006597103" flag="0"/>
    </comp>
  </station>
  <station code="YAYO" name="YAYO" netid="KO" insttype="CMG-6T" lat="39.6113" lon="27.0726">
    <comp name="--.HHE">
      <acc value="0.0243030908" flag="0"/>
      <vel value="0.0076845175" flag="0"/>
      <psa03 value="0.0355864896" flag="0"/>
      <psa10 value="0.0105073578" flag="0"/>
      <psa30 value="0.0013461629" flag="0"/>
    </comp>
    <comp name="--.HHN">
      <acc value="0.0215808569" flag="0"/>
      <vel value="0.0083115575" flag="0"/>
      <psa03 value="0.0376309452" flag="0"/>
      <psa10 value="0.0087910140" flag="0"/>
      <psa30 value="0.0007951264" flag="0"/>
    </comp>
    <comp name="--.HHZ">
      <acc value="0.0164180162" flag="0"/>
      <vel value="0.0047832420" flag="0"/>
      <psa03 value="0.0224970519" flag="0"/>
      <psa10 value="0.0061101788" flag="0"/>
      <psa30 value="0.0004636748" flag="0"/>
    </comp>
  </station>
</stationlist>
