<stationlist created="1739419356">
	<station code="ABEA" name="ABEA" netid="HC" source="Seismological Network of Crete (HC)" insttype="" lat="35.5163" lon="24.0113">
		<comp name=".HNE" depth="0.0">
			<acc value="0.0037091803236132" flag="0"/>
			<vel value="0.00216460915813" flag="0"/>
			<psa03 value="0.00685442086860566" flag="0"/>
			<psa10 value="0.00169621592066923" flag="0"/>
			<psa30 value="0.00103559693654817" flag="0"/>
		</comp>
		<comp name=".HNN" depth="0.0">
			<acc value="0.0041061917255664" flag="0"/>
			<vel value="0.00185010722642" flag="0"/>
			<psa03 value="0.00803631687177435" flag="0"/>
			<psa10 value="0.00178762623396582" flag="0"/>
			<psa30 value="0.00096947901489399" flag="0"/>
		</comp>
		<comp name=".HNZ" depth="0.0">
			<acc value="0.0032200199306388" flag="0"/>
			<vel value="0.0014663031193" flag="0"/>
			<psa03 value="0.00233767260022166" flag="0"/>
			<psa10 value="0.00138083233274171" flag="0"/>
			<psa30 value="0.00071294113510062" flag="0"/>
		</comp>
	</station>
	<station code="ATEI" name="ATEI" netid="HC" source="Seismological Network of Crete (HC)" insttype="" lat="35.5193" lon="24.0432">
		<comp name=".HNE" depth="0.0">
			<acc value="0.0065201195736258" flag="0"/>
			<vel value="0.00443571922322" flag="0"/>
			<psa03 value="0.0230841177511788" flag="0"/>
			<psa10 value="0.00536228006848681" flag="0"/>
			<psa30 value="0.000964687864171745" flag="0"/>
		</comp>
		<comp name=".HNN" depth="0.0">
			<acc value="0.0071769449613876" flag="0"/>
			<vel value="0.00387357848758" flag="0"/>
			<psa03 value="0.0190838019686172" flag="0"/>
			<psa10 value="0.00373687481524293" flag="0"/>
			<psa30 value="0.000932734184893363" flag="0"/>
		</comp>
		<comp name=".HNZ" depth="0.0">
			<acc value="0.0044734028944746" flag="0"/>
			<vel value="0.00249323978263" flag="0"/>
			<psa03 value="0.00881365091839475" flag="0"/>
			<psa10 value="0.00507259025294803" flag="0"/>
			<psa30 value="0.000693342024258575" flag="0"/>
		</comp>
	</station>
	<station code="G0LD" name="G0LD" netid="HC" source="Seismological Network of Crete (HC)" insttype="" lat="35.4955" lon="24.0306">
		<comp name=".HNE" depth="0.0">
			<acc value="0.0040061044752216" flag="0"/>
			<vel value="0.00670648636679" flag="0"/>
			<psa03 value="0.00534717876861714" flag="0"/>
			<psa10 value="0.00818429748203035" flag="0"/>
			<psa30 value="0.0034794223696581" flag="0"/>
		</comp>
		<comp name=".HNN" depth="0.0">
			<acc value="0.0049163894556888" flag="0"/>
			<vel value="0.00486318734906" flag="0"/>
			<psa03 value="0.00391815767069511" flag="0"/>
			<psa10 value="0.0107724076816458" flag="0"/>
			<psa30 value="0.00148720362410921" flag="0"/>
		</comp>
		<comp name=".HNZ" depth="0.0">
			<acc value="0.0052899298386636" flag="0"/>
			<vel value="0.0045024422024" flag="0"/>
			<psa03 value="0.00322827049770037" flag="0"/>
			<psa10 value="0.00469389860398029" flag="0"/>
			<psa30 value="0.00200631561689748" flag="0"/>
		</comp>
	</station>
	<station code="PASK" name="PASK" netid="HC" source="Seismological Network of Crete (HC)" insttype="" lat="35.4996" lon="24.0121">
		<comp name=".HNE" depth="0.0">
			<acc value="0.03976789588695" flag="0"/>
			<vel value="0.00775690463763" flag="0"/>
			<psa03 value="0.021148061111523" flag="0"/>
			<psa10 value="0.00950611285830826" flag="0"/>
			<psa30 value="0.00114107756995589" flag="0"/>
		</comp>
		<comp name=".HNN" depth="0.0">
			<acc value="0.048013794774972" flag="0"/>
			<vel value="0.00803223016602" flag="0"/>
			<psa03 value="0.0174163334341201" flag="0"/>
			<psa10 value="0.0080675944385217" flag="0"/>
			<psa30 value="0.00115234539972757" flag="0"/>
		</comp>
		<comp name=".HNZ" depth="0.0">
			<acc value="0.012702092686512" flag="0"/>
			<vel value="0.00380693417639" flag="0"/>
			<psa03 value="0.0130947476711027" flag="0"/>
			<psa10 value="0.00784467357737611" flag="0"/>
			<psa30 value="0.00114215159944016" flag="0"/>
		</comp>
	</station>
	<station code="POLY" name="POLY" netid="HC" source="Seismological Network of Crete (HC)" insttype="" lat="35.5226" lon="24.0602">
		<comp name=".HNE" depth="0.0">
			<acc value="0.001945203674469" flag="0"/>
			<vel value="0.00259557701534" flag="0"/>
			<psa03 value="0.00202497984810171" flag="0"/>
			<psa10 value="0.00306760688577685" flag="0"/>
			<psa30 value="0.00103623374956516" flag="0"/>
		</comp>
		<comp name=".HNN" depth="0.0">
			<acc value="0.0017120168074284" flag="0"/>
			<vel value="0.00314834342619" flag="0"/>
			<psa03 value="0.00228835357787164" flag="0"/>
			<psa10 value="0.00235745515420748" flag="0"/>
			<psa30 value="0.00199437440918475" flag="0"/>
		</comp>
		<comp name=".HNZ" depth="0.0">
			<acc value="0.002191831082652" flag="0"/>
			<vel value="0.0019022826643" flag="0"/>
			<psa03 value="0.00180252891390034" flag="0"/>
			<psa10 value="0.00198286955850012" flag="0"/>
			<psa30 value="0.0006425729839755" flag="0"/>
		</comp>
	</station>
	<station code="ARK1" name="ARK1" netid="HI" source="ITSAK Strong Motion Network" insttype="" lat="35.148777" lon="25.264194">
		<comp name=".HNE" depth="0.0">
			<acc value="0.013904090545788" flag="0"/>
			<vel value="0.0121395917389" flag="0"/>
			<psa03 value="0.0482334712723777" flag="0"/>
			<psa10 value="0.0143742606617318" flag="0"/>
			<psa30 value="0.00134110498745596" flag="0"/>
		</comp>
		<comp name=".HNN" depth="0.0">
			<acc value="0.016948768025718" flag="0"/>
			<vel value="0.0092617569526" flag="0"/>
			<psa03 value="0.0492252400970562" flag="0"/>
			<psa10 value="0.0130720422086392" flag="0"/>
			<psa30 value="0.00084246643426655" flag="0"/>
		</comp>
		<comp name=".HNZ" depth="0.0">
			<acc value="0.0089486350716372" flag="0"/>
			<vel value="0.00519190621775" flag="0"/>
			<psa03 value="0.0169224817084596" flag="0"/>
			<psa10 value="0.00798727536777962" flag="0"/>
			<psa30 value="0.000574182099245931" flag="0"/>
		</comp>
	</station>
	<station code="CH01" name="CH01" netid="HI" source="ITSAK Strong Motion Network" insttype="" lat="35.517" lon="24.0208">
		<comp name=".HNE" depth="0.0">
			<acc value="0.006093316112826" flag="0"/>
			<vel value="0.00366753594" flag="0"/>
			<psa03 value="0.0128413011940226" flag="0"/>
			<psa10 value="0.00662010870594961" flag="0"/>
			<psa30 value="0.000462402090202944" flag="0"/>
		</comp>
		<comp name=".HNN" depth="0.0">
			<acc value="0.0066685566815436" flag="0"/>
			<vel value="0.00373074249963" flag="0"/>
			<psa03 value="0.0217986706174485" flag="0"/>
			<psa10 value="0.00496583099317997" flag="0"/>
			<psa30 value="0.00055357203601271" flag="0"/>
		</comp>
		<comp name=".HNZ" depth="0.0">
			<acc value="0.0092024511972234" flag="0"/>
			<vel value="0.00202874487957" flag="0"/>
			<psa03 value="0.00700601033774916" flag="0"/>
			<psa10 value="0.00467405463319786" flag="0"/>
			<psa30 value="0.00023617434330791" flag="0"/>
		</comp>
	</station>
	<station code="CH02" name="CH02" netid="HI" source="ITSAK Strong Motion Network" insttype="" lat="35.5145" lon="24.0315">
		<comp name=".HNE" depth="0.0">
			<acc value="0.02581226047695" flag="0"/>
			<vel value="0.00340842410464" flag="0"/>
			<psa03 value="0.0245661351983751" flag="0"/>
			<psa10 value="0.00466570142358724" flag="0"/>
			<psa30 value="0.000397442839054081" flag="0"/>
		</comp>
		<comp name=".HNN" depth="0.0">
			<acc value="0.011520299085972" flag="0"/>
			<vel value="0.00477571569011" flag="0"/>
			<psa03 value="0.0198380290158273" flag="0"/>
			<psa10 value="0.0043613509493309" flag="0"/>
			<psa30 value="0.000532960462264698" flag="0"/>
		</comp>
		<comp name=".HNZ" depth="0.0">
			<acc value="0.012968925262914" flag="0"/>
			<vel value="0.00217124165639" flag="0"/>
			<psa03 value="0.00722476962117116" flag="0"/>
			<psa10 value="0.00539463205541633" flag="0"/>
			<psa30 value="0.000251337222774083" flag="0"/>
		</comp>
	</station>
	<station code="CH03" name="CH03" netid="HI" source="ITSAK Strong Motion Network" insttype="" lat="35.53303" lon="24.0705">
		<comp name=".HNE" depth="0.0">
			<acc value="0.0044366545283766" flag="0"/>
			<vel value="0.00315093319616" flag="0"/>
			<psa03 value="0.0154097669151783" flag="0"/>
			<psa10 value="0.00426903530262805" flag="0"/>
			<psa30 value="0.000310325271067759" flag="0"/>
		</comp>
		<comp name=".HNN" depth="0.0">
			<acc value="0.004658392104354" flag="0"/>
			<vel value="0.00396527841229" flag="0"/>
			<psa03 value="0.017184207379827" flag="0"/>
			<psa10 value="0.00663888573110238" flag="0"/>
			<psa30 value="0.000581335125181603" flag="0"/>
		</comp>
		<comp name=".HNZ" depth="0.0">
			<acc value="0.0037507707879642" flag="0"/>
			<vel value="0.00199065044183" flag="0"/>
			<psa03 value="0.00717690577334721" flag="0"/>
			<psa10 value="0.00278954776260068" flag="0"/>
			<psa30 value="0.000300759298827587" flag="0"/>
		</comp>
	</station>
	<station code="HER3" name="HER3" netid="HI" source="ITSAK Strong Motion Network" insttype="" lat="35.3296" lon="25.1065">
		<comp name=".HNE" depth="0.0">
			<acc value="0.03564705090189" flag="0"/>
			<vel value="0.019147701369" flag="0"/>
			<psa03 value="0.106632365954268" flag="0"/>
			<psa10 value="0.0496500265707153" flag="0"/>
			<psa30 value="0.00186719015051814" flag="0"/>
		</comp>
		<comp name=".HNN" depth="0.0">
			<acc value="0.040087102562268" flag="0"/>
			<vel value="0.0195405259449" flag="0"/>
			<psa03 value="0.111697378569816" flag="0"/>
			<psa10 value="0.0289275469330138" flag="0"/>
			<psa30 value="0.00148828786260174" flag="0"/>
		</comp>
		<comp name=".HNZ" depth="0.0">
			<acc value="0.020634740005812" flag="0"/>
			<vel value="0.0119154276692" flag="0"/>
			<psa03 value="0.0416810632491939" flag="0"/>
			<psa10 value="0.0230504707305683" flag="0"/>
			<psa30 value="0.00080917318708472" flag="0"/>
		</comp>
	</station>
	<station code="KIS1" name="KIS1" netid="HI" source="ITSAK Strong Motion Network" insttype="" lat="35.493933" lon="23.658993">
		<comp name=".HNE" depth="0.0">
			<acc value="0.0035407542954732" flag="0"/>
			<vel value="0.0027718197848" flag="0"/>
			<psa03 value="0.0080609682443733" flag="0"/>
			<psa10 value="0.00593653310995096" flag="0"/>
			<psa30 value="0.000388884667950623" flag="0"/>
		</comp>
		<comp name=".HNN" depth="0.0">
			<acc value="0.0039769479832812" flag="0"/>
			<vel value="0.00259859373196" flag="0"/>
			<psa03 value="0.00771169705998221" flag="0"/>
			<psa10 value="0.00613025969335852" flag="0"/>
			<psa30 value="0.00039444615616355" flag="0"/>
		</comp>
		<comp name=".HNZ" depth="0.0">
			<acc value="0.005032142709492" flag="0"/>
			<vel value="0.00225492014791" flag="0"/>
			<psa03 value="0.00508925185148481" flag="0"/>
			<psa10 value="0.00299826104195589" flag="0"/>
			<psa30 value="0.000336965681697889" flag="0"/>
		</comp>
	</station>
	<station code="KRL1" name="KRL1" netid="HI" source="ITSAK Strong Motion Network" insttype="" lat="37.7951" lon="26.7065">
		<comp name=".HNE" depth="0.0">
			<acc value="0.0078443992631172" flag="0"/>
			<vel value="0.00376823354042" flag="0"/>
			<psa03 value="0.0146713039331154" flag="0"/>
			<psa10 value="0.00528311232401281" flag="0"/>
			<psa30 value="0.000514309330885063" flag="0"/>
		</comp>
		<comp name=".HNN" depth="0.0">
			<acc value="0.007771662594366" flag="0"/>
			<vel value="0.00325240060352" flag="0"/>
			<psa03 value="0.017703038624857" flag="0"/>
			<psa10 value="0.0049852685308044" flag="0"/>
			<psa30 value="0.000335254891282821" flag="0"/>
		</comp>
		<comp name=".HNZ" depth="0.0">
			<acc value="0.004543926537321" flag="0"/>
			<vel value="0.00190164464417" flag="0"/>
			<psa03 value="0.00726305666270791" flag="0"/>
			<psa10 value="0.00309665654454663" flag="0"/>
			<psa30 value="0.000284139109279988" flag="0"/>
		</comp>
	</station>
	<station code="KTL1" name="KTL1" netid="HI" source="ITSAK Strong Motion Network" insttype="" lat="35.20778" lon="25.34272">
		<comp name=".HNE" depth="0.0">
			<acc value="0.0101698628447574" flag="0"/>
			<vel value="0.00645914766809" flag="0"/>
			<psa03 value="0.031013174262256" flag="0"/>
			<psa10 value="0.00770576437533834" flag="0"/>
			<psa30 value="0.000807662201573071" flag="0"/>
		</comp>
		<comp name=".HNN" depth="0.0">
			<acc value="0.009639682485978" flag="0"/>
			<vel value="0.00728263208628" flag="0"/>
			<psa03 value="0.0376965076252927" flag="0"/>
			<psa10 value="0.016075865572192" flag="0"/>
			<psa30 value="0.000519694635552178" flag="0"/>
		</comp>
		<comp name=".HNZ" depth="0.0">
			<acc value="0.009529351417188" flag="0"/>
			<vel value="0.00276660223842" flag="0"/>
			<psa03 value="0.0102682798325298" flag="0"/>
			<psa10 value="0.00392337209164577" flag="0"/>
			<psa30 value="0.000338623916547504" flag="0"/>
		</comp>
	</station>
	<station code="NAX1" name="NAX1" netid="HI" source="ITSAK Strong Motion Network" insttype="" lat="37.101394" lon="25.374103">
		<comp name=".HNE" depth="0.0">
			<acc value="0.091969615655874" flag="0"/>
			<vel value="0.0212694641395" flag="0"/>
			<psa03 value="0.0681316279694492" flag="0"/>
			<psa10 value="0.00791926086216541" flag="0"/>
			<psa30 value="0.000836403115936247" flag="0"/>
		</comp>
		<comp name=".HNN" depth="0.0">
			<acc value="0.09109388229276" flag="0"/>
			<vel value="0.0173673767997" flag="0"/>
			<psa03 value="0.0628553930281582" flag="0"/>
			<psa10 value="0.00560547805416" flag="0"/>
			<psa30 value="0.000924138823829735" flag="0"/>
		</comp>
		<comp name=".HNZ" depth="0.0">
			<acc value="0.054449157644958" flag="0"/>
			<vel value="0.0109710648115" flag="0"/>
			<psa03 value="0.0520017261089683" flag="0"/>
			<psa10 value="0.00883598940342722" flag="0"/>
			<psa30 value="0.000748928467001959" flag="0"/>
		</comp>
	</station>
	<station code="RTH1" name="RTH1" netid="HI" source="ITSAK Strong Motion Network" insttype="" lat="35.365393" lon="24.471773">
		<comp name=".HNE" depth="0.0">
			<acc value="0.0043965127456068" flag="0"/>
			<vel value="0.00245920467754" flag="0"/>
			<psa03 value="0.0197341601558232" flag="0"/>
			<psa10 value="0.00221862587932591" flag="0"/>
			<psa30 value="0.000676639251111083" flag="0"/>
		</comp>
		<comp name=".HNN" depth="0.0">
			<acc value="0.004856215398015" flag="0"/>
			<vel value="0.00309481359772" flag="0"/>
			<psa03 value="0.0150593569835086" flag="0"/>
			<psa10 value="0.00364416679879095" flag="0"/>
			<psa30 value="0.000469936130962686" flag="0"/>
		</comp>
		<comp name=".HNZ" depth="0.0">
			<acc value="0.008569140704811" flag="0"/>
			<vel value="0.00152939481924" flag="0"/>
			<psa03 value="0.00711430266786707" flag="0"/>
			<psa10 value="0.00174852590938461" flag="0"/>
			<psa30 value="0.000250660823799413" flag="0"/>
		</comp>
	</station>
	<station code="SFR2" name="SFR2" netid="HI" source="ITSAK Strong Motion Network" insttype="" lat="36.399841" lon="25.438209">
		<comp name=".HNE" depth="0.0">
			<acc value="0.28777449810168" flag="0"/>
			<vel value="0.119511874245" flag="0"/>
			<psa03 value="0.72892353760771" flag="0"/>
			<psa10 value="0.0657368672448951" flag="0"/>
			<psa30 value="0.00818784323776242" flag="0"/>
		</comp>
		<comp name=".HNN" depth="0.0">
			<acc value="0.30225029136324" flag="0"/>
			<vel value="0.140267725677" flag="0"/>
			<psa03 value="0.784435298324217" flag="0"/>
			<psa10 value="0.113053991772302" flag="0"/>
			<psa30 value="0.00455859615130209" flag="0"/>
		</comp>
		<comp name=".HNZ" depth="0.0">
			<acc value="0.33654479228682" flag="0"/>
			<vel value="0.109956195431" flag="0"/>
			<psa03 value="0.518625356383775" flag="0"/>
			<psa10 value="0.0482073022472174" flag="0"/>
			<psa30 value="0.00348375932362373" flag="0"/>
		</comp>
	</station>
	<station code="AMGA" name="AMGA" netid="HL" source="National Observatory of Athens Seismic Network" insttype="" lat="36.831561" lon="25.893836">
		<comp name="00.HNE" depth="0.0">
			<acc value="0.16529916040596" flag="0"/>
			<vel value="0.0262815960882" flag="0"/>
			<psa03 value="0.101405050920231" flag="0"/>
			<psa10 value="0.0132308005380971" flag="0"/>
			<psa30 value="0.00181741956179242" flag="0"/>
		</comp>
		<comp name="00.HNN" depth="0.0">
			<acc value="0.13640713286094" flag="0"/>
			<vel value="0.0293571957054" flag="0"/>
			<psa03 value="0.137372266905338" flag="0"/>
			<psa10 value="0.0137367718687196" flag="0"/>
			<psa30 value="0.0017627840674611" flag="0"/>
		</comp>
		<comp name="00.HNZ" depth="0.0">
			<acc value="0.082182848919486" flag="0"/>
			<vel value="0.0169730089927" flag="0"/>
			<psa03 value="0.0637160490006331" flag="0"/>
			<psa10 value="0.019686662894795" flag="0"/>
			<psa30 value="0.00250758278171892" flag="0"/>
		</comp>
	</station>
	<station code="ANAF" name="ANAF" netid="HL" source="National Observatory of Athens Seismic Network" insttype="" lat="36.35675" lon="25.77262">
		<comp name=".HNE" depth="0.0">
			<acc value="0.7744947417468" flag="0"/>
			<vel value="0.221247979465" flag="0"/>
			<psa03 value="1.5790836065414" flag="0"/>
			<psa10 value="0.0899163165144899" flag="0"/>
			<psa30 value="0.00559105162975304" flag="0"/>
		</comp>
		<comp name=".HNN" depth="0.0">
			<acc value="0.95120321607648" flag="0"/>
			<vel value="0.263701630502" flag="0"/>
			<psa03 value="1.20226981113953" flag="0"/>
			<psa10 value="0.0473550620403204" flag="0"/>
			<psa30 value="0.00497091513208572" flag="0"/>
		</comp>
		<comp name=".HNZ" depth="0.0">
			<acc value="0.60241093963962" flag="0"/>
			<vel value="0.159589838205" flag="0"/>
			<psa03 value="0.568354650706006" flag="0"/>
			<psa10 value="0.03009115526636" flag="0"/>
			<psa30 value="0.00372827531327331" flag="0"/>
		</comp>
	</station>
	<station code="ASTA" name="ASTA" netid="HL" source="National Observatory of Athens Seismic Network" insttype="" lat="36.54552" lon="26.35295">
		<comp name="00.HNE" depth="0.0">
			<acc value="0.017151247512126" flag="0"/>
			<vel value="0.00988992560464" flag="0"/>
			<psa03 value="0.023320253185658" flag="0"/>
			<psa10 value="0.012338612685045" flag="0"/>
			<psa30 value="0.000666384613458333" flag="0"/>
		</comp>
		<comp name="00.HNN" depth="0.0">
			<acc value="0.017422529788956" flag="0"/>
			<vel value="0.00785884955569" flag="0"/>
			<psa03 value="0.0228610587037594" flag="0"/>
			<psa10 value="0.00569060822487226" flag="0"/>
			<psa30 value="0.000661121764823747" flag="0"/>
		</comp>
		<comp name="00.HNZ" depth="0.0">
			<acc value="0.013136232042912" flag="0"/>
			<vel value="0.00521940910567" flag="0"/>
			<psa03 value="0.0239490161923025" flag="0"/>
			<psa10 value="0.00616645474737907" flag="0"/>
			<psa30 value="0.000675112535393937" flag="0"/>
		</comp>
	</station>
	<station code="CHNB" name="CHNB" netid="HL" source="National Observatory of Athens Seismic Network" insttype="" lat="35.48765" lon="24.06605">
		<comp name="00.HNE" depth="0.0">
			<acc value="0.0096032840428956" flag="0"/>
			<vel value="0.00889567312527" flag="0"/>
			<psa03 value="0.0290839475021409" flag="0"/>
			<psa10 value="0.0111328609349133" flag="0"/>
			<psa30 value="0.000650158851082816" flag="0"/>
		</comp>
		<comp name="00.HNN" depth="0.0">
			<acc value="0.012390323447784" flag="0"/>
			<vel value="0.0118775459198" flag="0"/>
			<psa03 value="0.0378342042470263" flag="0"/>
			<psa10 value="0.0158671042427726" flag="0"/>
			<psa30 value="0.000947762472112632" flag="0"/>
		</comp>
		<comp name="00.HNZ" depth="0.0">
			<acc value="0.019546359924096" flag="0"/>
			<vel value="0.00516932110011" flag="0"/>
			<psa03 value="0.0229787618135134" flag="0"/>
			<psa10 value="0.00443279693228066" flag="0"/>
			<psa30 value="0.000343646827415967" flag="0"/>
		</comp>
	</station>
	<station code="HERG" name="HERG" netid="HL" source="National Observatory of Athens Seismic Network" insttype="" lat="35.32622" lon="25.06586">
		<comp name="00.HNE" depth="0.0">
			<acc value="0.01845957184563" flag="0"/>
			<vel value="0.0144019057814" flag="0"/>
			<psa03 value="0.0416354248092424" flag="0"/>
			<psa10 value="0.0177707641009036" flag="0"/>
			<psa30 value="0.00200938811210012" flag="0"/>
		</comp>
