<?xml version="1.0" encoding="UTF-8" standalone="yes"?>
<!DOCTYPE earthquake SYSTEM "stationlist.dtd">
<stationlist created="" xmlns="ch.ethz.sed.shakemap.usgs.xml">
  <station code="SNT1" name="SNT1" netid="HA" insttype="30" lat="36.4159" lon="25.4282">
    <comp name="--.HHN">
      <acc value="0.1130058795" flag="0"/>
      <vel value="0.0605830070" flag="0"/>
      <psa03 value="0.2308063141" flag="0"/>
      <psa10 value="0.0521731773" flag="0"/>
      <psa30 value="0.0047808930" flag="0"/>
    </comp>
    <comp name="--.HHE">
      <acc value="0.1385697542" flag="0"/>
      <vel value="0.0419962147" flag="0"/>
      <psa03 value="0.2086893323" flag="0"/>
      <psa10 value="0.0399626745" flag="0"/>
      <psa30 value="0.0053230262" flag="0"/>
    </comp>
    <comp name="--.HHZ">
      <acc value="0.0895642893" flag="0"/>
      <vel value="0.0267003433" flag="0"/>
      <psa03 value="0.1312348359" flag="0"/>
      <psa10 value="0.0234411922" flag="0"/>
      <psa30 value="0.0019116242" flag="0"/>
    </comp>
  </station>
</stationlist>
