<?xml version="1.0" encoding="UTF-8" standalone="yes"?>
<!DOCTYPE earthquake SYSTEM "stationlist.dtd">
<stationlist created="" xmlns="ch.ethz.sed.shakemap.usgs.xml">
  <station code="ARPRA" name="ARPRA" netid="KO" insttype="CMG-5T" lat="39.0929" lon="38.3356">
    <comp name="--.HNE">
      <acc value="0.0316834522" flag="0"/>
      <vel value="0.0155328240" flag="0"/>
      <psa03 value="0.0996554482" flag="0"/>
      <psa10 value="0.0247596772" flag="0"/>
      <psa30 value="0.0009030596" flag="0"/>
    </comp>
    <comp name="--.HNN">
      <acc value="0.0292973793" flag="0"/>
      <vel value="0.0143963171" flag="0"/>
      <psa03 value="0.0738523145" flag="0"/>
      <psa10 value="0.0196843603" flag="0"/>
      <psa30 value="0.0020687012" flag="0"/>
    </comp>
    <comp name="--.HNZ">
      <acc value="0.0162723183" flag="0"/>
      <vel value="0.0111068230" flag="0"/>
      <psa03 value="0.0346545764" flag="0"/>
      <psa10 value="0.0216830923" flag="0"/>
      <psa30 value="0.0011833095" flag="0"/>
    </comp>
  </station>
  <station code="DARE" name="DARE" netid="KO" insttype="CMG-3ESP" lat="38.5712" lon="37.4832">
    <comp name="--.HHE">
      <acc value="0.3423014342" flag="0"/>
      <vel value="0.0766610496" flag="0"/>
      <psa03 value="0.2881876085" flag="0"/>
      <psa10 value="0.0504637466" flag="0"/>
      <psa30 value="0.0040657756" flag="0"/>
    </comp>
    <comp name="--.HHN">
      <acc value="0.3015562715" flag="0"/>
      <vel value="0.0963812015" flag="0"/>
      <psa03 value="0.2996498409" flag="0"/>
      <psa10 value="0.0378754468" flag="0"/>
      <psa30 value="0.0024823381" flag="0"/>
    </comp>
  </station>
  <station code="KMRS" name="KMRS" netid="KO" insttype="CMG-3T" lat="37.5053" lon="36.9">
    <comp name="--.HHE">
      <acc value="0.0128468839" flag="0"/>
      <vel value="0.0063516721" flag="0"/>
      <psa03 value="0.0234684231" flag="0"/>
      <psa10 value="0.0074178225" flag="0"/>
      <psa30 value="0.0004627625" flag="0"/>
    </comp>
    <comp name="--.HHN">
      <acc value="0.0156722847" flag="0"/>
      <vel value="0.0064665374" flag="0"/>
      <psa03 value="0.0243022830" flag="0"/>
      <psa10 value="0.0088912317" flag="0"/>
      <psa30 value="0.0005276240" flag="0"/>
    </comp>
    <comp name="--.HHZ">
      <acc value="0.0076516880" flag="0"/>
      <vel value="0.0059334439" flag="0"/>
      <psa03 value="0.0159917767" flag="0"/>
      <psa10 value="0.0037842841" flag="0"/>
      <psa30 value="0.0005158905" flag="0"/>
    </comp>
  </station>
</stationlist>
