<?xml version="1.0" encoding="UTF-8" standalone="yes"?>
<!DOCTYPE earthquake SYSTEM "stationlist.dtd">
<stationlist created="" xmlns="ch.ethz.sed.shakemap.usgs.xml">
  <station code="ARPRA" name="ARPRA" netid="KO" insttype="CMG-5T" lat="39.0929" lon="38.3356">
    <comp name="--.HNE">
      <acc value="0.0316834554" flag="0"/>
      <vel value="0.0155328271" flag="0"/>
      <psa03 value="0.0996554482" flag="0"/>
      <psa10 value="0.0247596772" flag="0"/>
      <psa30 value="0.0009030542" flag="0"/>
    </comp>
    <comp name="--.HNN">
      <acc value="0.0292973820" flag="0"/>
      <vel value="0.0143963223" flag="0"/>
      <psa03 value="0.0738523145" flag="0"/>
      <psa10 value="0.0196843594" flag="0"/>
      <psa30 value="0.0020695553" flag="0"/>
    </comp>
    <comp name="--.HNZ">
      <acc value="0.0162723202" flag="0"/>
      <vel value="0.0111068177" flag="0"/>
      <psa03 value="0.0346545764" flag="0"/>
      <psa10 value="0.0216830927" flag="0"/>
      <psa30 value="0.0011840721" flag="0"/>
    </comp>
  </station>
  <station code="DARE" name="DARE" netid="KO" insttype="CMG-3ESP" lat="38.5712" lon="37.4832">
    <comp name="--.HHE">
      <acc value="0.3423014342" flag="0"/>
      <vel value="0.0766610493" flag="0"/>
      <psa03 value="0.2881876085" flag="0"/>
      <psa10 value="0.0504637462" flag="0"/>
      <psa30 value="0.0040656350" flag="0"/>
    </comp>
    <comp name="--.HHN">
      <acc value="0.3015562716" flag="0"/>
      <vel value="0.0963812018" flag="0"/>
      <psa03 value="0.2996498409" flag="0"/>
      <psa10 value="0.0378754461" flag="0"/>
      <psa30 value="0.0024822604" flag="0"/>
    </comp>
  </station>
  <station code="KMRS" name="KMRS" netid="KO" insttype="CMG-3T" lat="37.5053" lon="36.9">
    <comp name="--.HHE">
      <acc value="0.0128468838" flag="0"/>
      <vel value="0.0063516733" flag="0"/>
      <psa03 value="0.0234684231" flag="0"/>
      <psa10 value="0.0074178221" flag="0"/>
      <psa30 value="0.0004627846" flag="0"/>
    </comp>
    <comp name="--.HHN">
      <acc value="0.0156722847" flag="0"/>
      <vel value="0.0064665363" flag="0"/>
      <psa03 value="0.0243022830" flag="0"/>
      <psa10 value="0.0088912311" flag="0"/>
      <psa30 value="0.0005276212" flag="0"/>
    </comp>
    <comp name="--.HHZ">
      <acc value="0.0076516880" flag="0"/>
      <vel value="0.0059334469" flag="0"/>
      <psa03 value="0.0159917767" flag="0"/>
      <psa10 value="0.0037842841" flag="0"/>
      <psa30 value="0.0005158233" flag="0"/>
    </comp>
  </station>
  <station code="SARI" name="SARI" netid="KO" insttype="CMG-3T" lat="38.4072" lon="36.4181">
    <comp name="--.HHE">
      <acc value="0.0357077780" flag="0"/>
      <vel value="0.0086338646" flag="0"/>
      <psa03 value="0.0364979857" flag="0"/>
      <psa10 value="0.0079689794" flag="0"/>
      <psa30 value="0.0004058920" flag="0"/>
    </comp>
    <comp name="--.HHN">
      <acc value="0.0271339084" flag="0"/>
      <vel value="0.0081365981" flag="0"/>
      <psa03 value="0.0385427032" flag="0"/>
      <psa10 value="0.0080723588" flag="0"/>
      <psa30 value="0.0005346897" flag="0"/>
    </comp>
    <comp name="--.HHZ">
      <acc value="0.0166128219" flag="0"/>
      <vel value="0.0050843630" flag="0"/>
      <psa03 value="0.0362823851" flag="0"/>
      <psa10 value="0.0058071667" flag="0"/>
      <psa30 value="0.0006045766" flag="0"/>
    </comp>
  </station>
</stationlist>
