<?xml version="1.0" encoding="UTF-8" standalone="yes"?>
<!DOCTYPE earthquake SYSTEM "stationlist.dtd">
<stationlist created="" xmlns="ch.ethz.sed.shakemap.usgs.xml">
  <station code="ACOR" name="ACOR" netid="HA" insttype="30" lat="37.8902" lon="22.8692">
    <comp name="--.HHE">
      <acc value="0.0092774716" flag="0"/>
      <vel value="0.0072606341" flag="0"/>
      <psa03 value="0.0199205811" flag="0"/>
      <psa10 value="0.0116680078" flag="0"/>
      <psa30 value="0.0020181141" flag="0"/>
    </comp>
    <comp name="--.HHN">
      <acc value="0.0346946812" flag="0"/>
      <vel value="0.0347269012" flag="0"/>
      <psa03 value="0.0768144985" flag="0"/>
      <psa10 value="0.0495817278" flag="0"/>
      <psa30 value="0.0130247290" flag="0"/>
    </comp>
    <comp name="--.HHZ">
      <acc value="0.0062625977" flag="0"/>
      <vel value="0.0040656967" flag="0"/>
      <psa03 value="0.0136887000" flag="0"/>
      <psa10 value="0.0058525662" flag="0"/>
      <psa30 value="0.0016578777" flag="0"/>
    </comp>
  </station>
  <station code="EPID" name="EPID" netid="HA" insttype="30" lat="37.6144" lon="23.1189">
    <comp name="--.HHN">
      <acc value="0.0157852883" flag="0"/>
      <vel value="0.0081367101" flag="0"/>
      <psa03 value="0.0289883324" flag="0"/>
      <psa10 value="0.0086648241" flag="0"/>
      <psa30 value="0.0019126952" flag="0"/>
    </comp>
    <comp name="--.HHZ">
      <acc value="0.0124258501" flag="0"/>
      <vel value="0.0071589833" flag="0"/>
      <psa03 value="0.0205380734" flag="0"/>
      <psa10 value="0.0136306980" flag="0"/>
      <psa30 value="0.0016357117" flag="0"/>
    </comp>
    <comp name="--.HHE">
      <acc value="0.0168676888" flag="0"/>
      <vel value="0.0064290909" flag="0"/>
      <psa03 value="0.0316644356" flag="0"/>
      <psa10 value="0.0083925237" flag="0"/>
      <psa30 value="0.0012639686" flag="0"/>
    </comp>
  </station>
  <station code="KALE" name="KALE" netid="HA" insttype="40," lat="38.3911" lon="22.1398">
    <comp name="--.HHE">
      <acc value="1.5101863876" flag="0"/>
      <vel value="0.5240463979" flag="0"/>
      <psa03 value="2.0846152635" flag="0"/>
      <psa10 value="0.5075826745" flag="0"/>
      <psa30 value="0.0380984222" flag="0"/>
    </comp>
    <comp name="--.HHZ">
      <acc value="1.9783547966" flag="0"/>
      <vel value="0.4177047880" flag="0"/>
      <psa03 value="1.9962868326" flag="0"/>
      <psa10 value="0.1376125263" flag="0"/>
      <psa30 value="0.0475657420" flag="0"/>
    </comp>
    <comp name="--.HHN">
      <acc value="2.2727036985" flag="0"/>
      <vel value="0.5909773190" flag="0"/>
      <psa03 value="2.0030041104" flag="0"/>
      <psa10 value="0.6783926864" flag="0"/>
      <psa30 value="0.0701461584" flag="0"/>
    </comp>
  </station>
  <station code="LAKA" name="LAKA" netid="HA" insttype="120s" lat="38.2401" lon="21.9785">
    <comp name="--.HHN">
      <acc value="0.3698734924" flag="0"/>
      <vel value="0.1118866165" flag="0"/>
      <psa03 value="0.2125419913" flag="0"/>
      <psa10 value="0.1108628590" flag="0"/>
      <psa30 value="0.0395022156" flag="0"/>
    </comp>
    <comp name="--.HHE">
      <acc value="0.4644454655" flag="0"/>
      <vel value="0.1239923499" flag="0"/>
      <psa03 value="0.3129380454" flag="0"/>
      <psa10 value="0.1373400685" flag="0"/>
      <psa30 value="0.0263189168" flag="0"/>
    </comp>
    <comp name="--.HHZ">
      <acc value="0.2937124424" flag="0"/>
      <vel value="0.1200048673" flag="0"/>
      <psa03 value="0.2460326914" flag="0"/>
      <psa10 value="0.1863595234" flag="0"/>
      <psa30 value="0.0359364874" flag="0"/>
    </comp>
  </station>
  <station code="STFN" name="STFN" netid="HA" insttype="1s-100Hz," lat="38.1766" lon="23.544">
    <comp name="--.HHZ">
      <acc value="0.0074613414" flag="0"/>
      <vel value="0.0107225928" flag="0"/>
      <psa03 value="0.0134308225" flag="0"/>
      <psa10 value="0.0277080196" flag="0"/>
      <psa30 value="0.0025552985" flag="0"/>
    </comp>
    <comp name="--.HHE">
      <acc value="0.0080303367" flag="0"/>
      <vel value="0.0094862495" flag="0"/>
      <psa03 value="0.0187976367" flag="0"/>
      <psa10 value="0.0210802584" flag="0"/>
      <psa30 value="0.0023765999" flag="0"/>
    </comp>
    <comp name="--.HHN">
      <acc value="0.0092803179" flag="0"/>
      <vel value="0.0119827157" flag="0"/>
      <psa03 value="0.0216758894" flag="0"/>
      <psa10 value="0.0162649935" flag="0"/>
      <psa30 value="0.0022991667" flag="0"/>
    </comp>
  </station>
  <station code="THAL" name="THAL" netid="HA" insttype="30" lat="38.0357" lon="22.6634">
    <comp name="--.HHZ">
      <acc value="0.0696748508" flag="0"/>
      <vel value="0.0189793119" flag="0"/>
      <psa03 value="0.0915948091" flag="0"/>
      <psa10 value="0.0220690023" flag="0"/>
      <psa30 value="0.0022038276" flag="0"/>
    </comp>
    <comp name="--.HHN">
      <acc value="0.1252788701" flag="0"/>
      <vel value="0.0374939652" flag="0"/>
      <psa03 value="0.2045252840" flag="0"/>
      <psa10 value="0.0461718846" flag="0"/>
      <psa30 value="0.0064677225" flag="0"/>
    </comp>
    <comp name="--.HHE">
      <acc value="0.1280676351" flag="0"/>
      <vel value="0.0362517217" flag="0"/>
      <psa03 value="0.1359915977" flag="0"/>
      <psa10 value="0.0385135267" flag="0"/>
      <psa30 value="0.0050088360" flag="0"/>
    </comp>
  </station>
  <station code="VILL" name="VILL" netid="HA" insttype="30" lat="38.1642" lon="23.3122">
    <comp name="--.HHZ">
      <acc value="0.0099312789" flag="0"/>
      <vel value="0.0141037474" flag="0"/>
      <psa03 value="0.0238689520" flag="0"/>
      <psa10 value="0.0289054386" flag="0"/>
      <psa30 value="0.0023430721" flag="0"/>
    </comp>
    <comp name="--.HHN">
      <acc value="0.0232987057" flag="0"/>
      <vel value="0.0249411710" flag="0"/>
      <psa03 value="0.0434302924" flag="0"/>
      <psa10 value="0.0360875823" flag="0"/>
      <psa30 value="0.0033509717" flag="0"/>
    </comp>
    <comp name="--.HHE">
      <acc value="0.0300307249" flag="0"/>
      <vel value="0.0327027918" flag="0"/>
      <psa03 value="0.0674601503" flag="0"/>
      <psa10 value="0.0537359782" flag="0"/>
      <psa30 value="0.0041707421" flag="0"/>
    </comp>
  </station>
  <station code="KLV1" name="KLV1" netid="HI" insttype="CMG-5TD,ACCELEROMETER,GURALP" lat="38.0326" lon="22.108">
    <comp name="--.HNE">
      <acc value="0.1411461159" flag="0"/>
      <vel value="0.0830308019" flag="0"/>
      <psa03 value="0.2146103152" flag="0"/>
      <psa10 value="0.1758375619" flag="0"/>
      <psa30 value="0.0058237048" flag="0"/>
    </comp>
    <comp name="--.HNN">
      <acc value="0.2199713060" flag="0"/>
      <vel value="0.0988098966" flag="0"/>
      <psa03 value="0.3644835641" flag="0"/>
      <psa10 value="0.1171967789" flag="0"/>
      <psa30 value="0.0059063367" flag="0"/>
    </comp>
    <comp name="--.HNZ">
      <acc value="0.1408770980" flag="0"/>
      <vel value="0.0558850342" flag="0"/>
      <psa03 value="0.1443828214" flag="0"/>
      <psa10 value="0.0923542093" flag="0"/>
      <psa30 value="0.0076604522" flag="0"/>
    </comp>
  </station>
  <station code="LAM2" name="LAM2" netid="HI" insttype="CMG-5TD,ACCELEROMETER,GURALP" lat="38.902" lon="22.4313">
    <comp name="--.HNZ">
      <acc value="0.0617277182" flag="0"/>
      <vel value="0.0273476457" flag="0"/>
      <psa03 value="0.1068672973" flag="0"/>
      <psa10 value="0.0443136169" flag="0"/>
      <psa30 value="0.0050612707" flag="0"/>
    </comp>
    <comp name="--.HNN">
      <acc value="0.1235639952" flag="0"/>
      <vel value="0.0387334041" flag="0"/>
      <psa03 value="0.3080276036" flag="0"/>
      <psa10 value="0.0307137919" flag="0"/>
      <psa30 value="0.0091646427" flag="0"/>
    </comp>
    <comp name="--.HNE">
      <acc value="0.1522286610" flag="0"/>
      <vel value="0.0528836483" flag="0"/>
      <psa03 value="0.3249094837" flag="0"/>
      <psa10 value="0.0482109729" flag="0"/>
      <psa30 value="0.0115984107" flag="0"/>
    </comp>
  </station>
  <station code="MSL1" name="MSL1" netid="HI" insttype="CMG-5TD,ACCELEROMETER,GURALP" lat="38.3727" lon="21.4243">
    <comp name="--.HNE">
      <acc value="0.1445243228" flag="0"/>
      <vel value="0.0745243004" flag="0"/>
      <psa03 value="0.4257918414" flag="0"/>
      <psa10 value="0.1043797977" flag="0"/>
      <psa30 value="0.0098724084" flag="0"/>
    </comp>
    <comp name="--.HNZ">
      <acc value="0.0706055072" flag="0"/>
      <vel value="0.0436404126" flag="0"/>
      <psa03 value="0.2233926157" flag="0"/>
      <psa10 value="0.0359379165" flag="0"/>
      <psa30 value="0.0035262278" flag="0"/>
    </comp>
    <comp name="--.HNN">
      <acc value="0.1859423316" flag="0"/>
      <vel value="0.0726832272" flag="0"/>
      <psa03 value="0.3850996895" flag="0"/>
      <psa10 value="0.1028094301" flag="0"/>
      <psa30 value="0.0096206774" flag="0"/>
    </comp>
  </station>
  <station code="VOL2" name="VOL2" netid="HI" insttype="CMG-5TD,ACCELEROMETER,GURALP" lat="39.366" lon="22.9506">
    <comp name="--.HNE">
      <acc value="0.0151903508" flag="0"/>
      <vel value="0.0108882292" flag="0"/>
      <psa03 value="0.0607981779" flag="0"/>
      <psa10 value="0.0162682004" flag="0"/>
      <psa30 value="0.0022070766" flag="0"/>
    </comp>
    <comp name="--.HNN">
      <acc value="0.0142036930" flag="0"/>
      <vel value="0.0109913329" flag="0"/>
      <psa03 value="0.0386667205" flag="0"/>
      <psa10 value="0.0177562000" flag="0"/>
      <psa30 value="0.0035813303" flag="0"/>
    </comp>
    <comp name="--.HNZ">
      <acc value="0.0073780817" flag="0"/>
      <vel value="0.0052630665" flag="0"/>
      <psa03 value="0.0152304025" flag="0"/>
      <psa10 value="0.0123290605" flag="0"/>
      <psa30 value="0.0019031681" flag="0"/>
    </comp>
  </station>
  <station code="DLFA" name="DLFA" netid="HL" insttype="CMG-5" lat="38.4784" lon="22.4958">
    <comp name="00.HNE">
      <acc value="0.2152829777" flag="0"/>
      <vel value="0.0886444466" flag="0"/>
      <psa03 value="0.3599877930" flag="0"/>
      <psa10 value="0.0963461367" flag="0"/>
      <psa30 value="0.0088535204" flag="0"/>
    </comp>
    <comp name="00.HNN">
      <acc value="0.2553319815" flag="0"/>
      <vel value="0.1019081279" flag="0"/>
      <psa03 value="0.3840388201" flag="0"/>
      <psa10 value="0.0920301921" flag="0"/>
      <psa30 value="0.0069070616" flag="0"/>
    </comp>
    <comp name="00.HNZ">
      <acc value="0.2225797479" flag="0"/>
      <vel value="0.0515110813" flag="0"/>
      <psa03 value="0.2315129528" flag="0"/>
      <psa10 value="0.0605627918" flag="0"/>
      <psa30 value="0.0086433181" flag="0"/>
    </comp>
  </station>
  <station code="EVR" name="EVR" netid="HL" insttype="DR24" lat="38.9166" lon="21.8105">
    <comp name="--.HHE">
      <acc value="0.1625410424" flag="0"/>
      <vel value="0.0731294133" flag="0"/>
      <psa03 value="0.4731382429" flag="0"/>
      <psa10 value="0.0435596157" flag="0"/>
      <psa30 value="0.0082237384" flag="0"/>
    </comp>
    <comp name="--.HHN">
      <acc value="0.1466981355" flag="0"/>
      <vel value="0.0748545835" flag="0"/>
      <psa03 value="0.4294035520" flag="0"/>
      <psa10 value="0.0355351123" flag="0"/>
      <psa30 value="0.0068927435" flag="0"/>
    </comp>
    <comp name="--.HHZ">
      <acc value="0.1643606054" flag="0"/>
      <vel value="0.0641532582" flag="0"/>
      <psa03 value="0.5947753049" flag="0"/>
      <psa10 value="0.0266059144" flag="0"/>
      <psa30 value="0.0074537695" flag="0"/>
    </comp>
  </station>
  <station code="ITM" name="ITM" netid="HL" insttype="DR24" lat="37.1787" lon="21.9252">
    <comp name="--.HHE">
      <acc value="0.0119342541" flag="0"/>
      <vel value="0.0138709564" flag="0"/>
      <psa03 value="0.0234499845" flag="0"/>
      <psa10 value="0.0208759761" flag="0"/>
      <psa30 value="0.0032124837" flag="0"/>
    </comp>
    <comp name="--.HHN">
      <acc value="0.0105503235" flag="0"/>
      <vel value="0.0123463100" flag="0"/>
      <psa03 value="0.0259233685" flag="0"/>
      <psa10 value="0.0249741208" flag="0"/>
      <psa30 value="0.0022067827" flag="0"/>
    </comp>
    <comp name="--.HHZ">
      <acc value="0.0095635659" flag="0"/>
      <vel value="0.0120775585" flag="0"/>
      <psa03 value="0.0222345562" flag="0"/>
      <psa10 value="0.0208993593" flag="0"/>
      <psa30 value="0.0022426020" flag="0"/>
    </comp>
  </station>
  <station code="KLV" name="KLV" netid="HL" insttype="120" lat="38.0435" lon="22.1504">
    <comp name="--.HHE">
      <acc value="0.1062956058" flag="0"/>
      <vel value="0.0272132266" flag="0"/>
      <psa03 value="0.0694578366" flag="0"/>
      <psa10 value="0.0515714861" flag="0"/>
      <psa30 value="0.0036528402" flag="0"/>
    </comp>
    <comp name="--.HHN">
      <acc value="0.0855431439" flag="0"/>
      <vel value="0.0242938581" flag="0"/>
      <psa03 value="0.0707075175" flag="0"/>
      <psa10 value="0.0309666982" flag="0"/>
      <psa30 value="0.0071294035" flag="0"/>
    </comp>
    <comp name="--.HHZ">
      <acc value="0.0960103449" flag="0"/>
      <vel value="0.0323856651" flag="0"/>
      <psa03 value="0.0567070697" flag="0"/>
      <psa10 value="0.0420563956" flag="0"/>
      <psa30 value="0.0061385891" flag="0"/>
    </comp>
  </station>
  <station code="LKR" name="LKR" netid="HL" insttype="30" lat="38.6496" lon="22.9989">
    <comp name="--.HHE">
      <acc value="0.1429467671" flag="0"/>
      <vel value="0.0386198580" flag="0"/>
      <psa03 value="0.1802358987" flag="0"/>
      <psa10 value="0.0146699514" flag="0"/>
      <psa30 value="0.0060801277" flag="0"/>
    </comp>
    <comp name="--.HHZ">
      <acc value="0.0573121072" flag="0"/>
      <vel value="0.0181307124" flag="0"/>
      <psa03 value="0.0604476755" flag="0"/>
      <psa10 value="0.0127149440" flag="0"/>
      <psa30 value="0.0051186953" flag="0"/>
    </comp>
    <comp name="--.HHN">
      <acc value="0.1065684070" flag="0"/>
      <vel value="0.0270546090" flag="0"/>
      <psa03 value="0.1122475940" flag="0"/>
      <psa10 value="0.0194082970" flag="0"/>
      <psa30 value="0.0037559257" flag="0"/>
    </comp>
  </station>
  <station code="NEO" name="NEO" netid="HL" insttype="120" lat="39.3057" lon="23.2219">
    <comp name="--.HHZ">
      <acc value="0.0102937029" flag="0"/>
      <vel value="0.0075170169" flag="0"/>
      <psa03 value="0.0277239683" flag="0"/>
      <psa10 value="0.0099377848" flag="0"/>
      <psa30 value="0.0019702973" flag="0"/>
    </comp>
    <comp name="--.HHE">
      <acc value="0.0250412700" flag="0"/>
      <vel value="0.0114974828" flag="0"/>
      <psa03 value="0.0461990825" flag="0"/>
      <psa10 value="0.0099838194" flag="0"/>
      <psa30 value="0.0015237061" flag="0"/>
    </comp>
    <comp name="--.HHN">
      <acc value="0.0184526196" flag="0"/>
      <vel value="0.0170065348" flag="0"/>
      <psa03 value="0.0765030298" flag="0"/>
      <psa10 value="0.0113290313" flag="0"/>
      <psa30 value="0.0031485545" flag="0"/>
    </comp>
  </station>
  <station code="PATC" name="PATC" netid="HL" insttype="CMG-5" lat="38.2693" lon="21.76">
    <comp name="00.HNE">
      <acc value="0.3044727796" flag="0"/>
      <vel value="0.1811901621" flag="0"/>
      <psa03 value="0.7928104208" flag="0"/>
      <psa10 value="0.1415629212" flag="0"/>
      <psa30 value="0.0479273200" flag="0"/>
    </comp>
    <comp name="00.HNZ">
      <acc value="0.3988281308" flag="0"/>
      <vel value="0.1333966465" flag="0"/>
      <psa03 value="0.4581237867" flag="0"/>
      <psa10 value="0.1426201704" flag="0"/>
      <psa30 value="0.0232115471" flag="0"/>
    </comp>
    <comp name="00.HNN">
      <acc value="0.4330140337" flag="0"/>
      <vel value="0.1694867748" flag="0"/>
      <psa03 value="0.6974871925" flag="0"/>
      <psa10 value="0.2043778308" flag="0"/>
      <psa30 value="0.0276900243" flag="0"/>
    </comp>
  </station>
  <station code="PATG" name="PATG" netid="HL" insttype="CMG-5" lat="38.2386" lon="21.7266">
    <comp name="00.HNN">
      <acc value="0.2918801127" flag="0"/>
      <vel value="0.1878972870" flag="0"/>
      <psa03 value="0.6204513081" flag="0"/>
      <psa10 value="0.2723847881" flag="0"/>
      <psa30 value="0.0684212551" flag="0"/>
    </comp>
    <comp name="00.HNE">
      <acc value="0.2754305962" flag="0"/>
      <vel value="0.2090975736" flag="0"/>
      <psa03 value="0.5983667175" flag="0"/>
      <psa10 value="0.1992264497" flag="0"/>
      <psa30 value="0.0438936494" flag="0"/>
    </comp>
    <comp name="00.HNZ">
      <acc value="0.2279250368" flag="0"/>
      <vel value="0.1500616024" flag="0"/>
      <psa03 value="0.4831850060" flag="0"/>
      <psa10 value="0.1989592448" flag="0"/>
      <psa30 value="0.0246953692" flag="0"/>
    </comp>
  </station>
  <station code="RIOA" name="RIOA" netid="HL" insttype="CMG-5" lat="38.2959" lon="21.7912">
    <comp name="00.HNZ">
      <acc value="0.4089476587" flag="0"/>
      <vel value="0.1300980522" flag="0"/>
      <psa03 value="0.4326001847" flag="0"/>
      <psa10 value="0.0824226331" flag="0"/>
      <psa30 value="0.0256014102" flag="0"/>
    </comp>
    <comp name="00.HNN">
      <acc value="0.4941734772" flag="0"/>
      <vel value="0.1528137268" flag="0"/>
      <psa03 value="0.9833621550" flag="0"/>
      <psa10 value="0.1178082681" flag="0"/>
      <psa30 value="0.0398050218" flag="0"/>
    </comp>
    <comp name="00.HNE">
      <acc value="0.4167517208" flag="0"/>
      <vel value="0.1397881324" flag="0"/>
      <psa03 value="0.6904490988" flag="0"/>
      <psa10 value="0.1601489125" flag="0"/>
      <psa30 value="0.0200935036" flag="0"/>
    </comp>
  </station>
  <station code="RLS" name="RLS" netid="HL" insttype="CMG3ESPC-120s" lat="38.0559" lon="21.4647">
    <comp name="--.HHN">
      <acc value="0.0726134355" flag="0"/>
      <vel value="0.0227892050" flag="0"/>
      <psa03 value="0.1176940562" flag="0"/>
      <psa10 value="0.0169426370" flag="0"/>
      <psa30 value="0.0041688914" flag="0"/>
    </comp>
    <comp name="--.HHE">
      <acc value="0.0878425519" flag="0"/>
      <vel value="0.0364241219" flag="0"/>
      <psa03 value="0.1222249670" flag="0"/>
      <psa10 value="0.0264612579" flag="0"/>
      <psa30 value="0.0039517474" flag="0"/>
    </comp>
    <comp name="--.HHZ">
      <acc value="0.0280898826" flag="0"/>
      <vel value="0.0115925582" flag="0"/>
      <psa03 value="0.0686490833" flag="0"/>
      <psa10 value="0.0142058228" flag="0"/>
      <psa30 value="0.0060773726" flag="0"/>
    </comp>
  </station>
  <station code="TETR" name="TETR" netid="HL" insttype="60" lat="39.3445" lon="21.2747">
    <comp name="--.HHN">
      <acc value="0.0238323966" flag="0"/>
      <vel value="0.0160402474" flag="0"/>
      <psa03 value="0.0487637870" flag="0"/>
      <psa10 value="0.0134162932" flag="0"/>
      <psa30 value="0.0036506201" flag="0"/>
    </comp>
    <comp name="--.HHE">
      <acc value="0.0273764945" flag="0"/>
      <vel value="0.0179895594" flag="0"/>
      <psa03 value="0.1137161413" flag="0"/>
      <psa10 value="0.0201143185" flag="0"/>
      <psa30 value="0.0039056368" flag="0"/>
    </comp>
    <comp name="--.HHZ">
      <acc value="0.0103258804" flag="0"/>
      <vel value="0.0089718362" flag="0"/>
      <psa03 value="0.0273296991" flag="0"/>
      <psa10 value="0.0133851769" flag="0"/>
      <psa30 value="0.0023035029" flag="0"/>
    </comp>
  </station>
  <station code="THL" name="THL" netid="HL" insttype="120" lat="39.5647" lon="22.0144">
    <comp name="--.HHE">
      <acc value="0.0078342399" flag="0"/>
      <vel value="0.0144474939" flag="0"/>
      <psa03 value="0.0212477363" flag="0"/>
      <psa10 value="0.0197788697" flag="0"/>
      <psa30 value="0.0027890661" flag="0"/>
    </comp>
    <comp name="--.HHZ">
      <acc value="0.0057285394" flag="0"/>
