<stationlist created="1778136043">
	<station code="MALA" name="MALA" netid="CL" source="Corinth Riff Laboratory (CRLNET)" insttype="" lat="38.39341" lon="21.87263">
		<comp name="01.HNE" depth="0.0">
			<acc value="1.78972678812349" flag="0"/>
			<vel value="0.613132429348246" flag="0"/>
			<psa03 value="3.33937933316133" flag="0"/>
			<psa10 value="0.428346673813084" flag="0"/>
			<psa30 value="0.0387382499121659" flag="0"/>
		</comp>
		<comp name="01.HNN" depth="0.0">
			<acc value="1.57007804506794" flag="0"/>
			<vel value="0.737205287796371" flag="0"/>
			<psa03 value="3.10085862967932" flag="0"/>
			<psa10 value="0.663878150470924" flag="0"/>
			<psa30 value="0.0492643014411805" flag="0"/>
		</comp>
		<comp name="01.HNZ" depth="0.0">
			<acc value="0.552287186886102" flag="0"/>
			<vel value="0.151043647483009" flag="0"/>
			<psa03 value="0.717978189603407" flag="0"/>
			<psa10 value="0.128483062791228" flag="0"/>
			<psa30 value="0.0303759314952109" flag="0"/>
		</comp>
	</station>
	<station code="AIGS" name="AIGS" netid="HA" source="Hellenic Seismological Network, University of Athens, Seismological Laboratory (HA)" insttype="" lat="38.25001" lon="22.0878">
		<comp name="--.HNE" depth="0.0">
			<acc value="1.8417593944514" flag="0"/>
			<vel value="0.647602705316039" flag="0"/>
			<psa03 value="2.17872175127674" flag="0"/>
			<psa10 value="0.425842005086593" flag="0"/>
			<psa30 value="0.0726268920489772" flag="0"/>
		</comp>
		<comp name="--.HNN" depth="0.0">
			<acc value="2.51374761514178" flag="0"/>
			<vel value="0.768772317401388" flag="0"/>
			<psa03 value="4.59994626242452" flag="0"/>
			<psa10 value="0.398628900177227" flag="0"/>
			<psa30 value="0.0839498022778633" flag="0"/>
		</comp>
		<comp name="--.HNZ" depth="0.0">
			<acc value="2.5846762852051" flag="0"/>
			<vel value="0.493129272355008" flag="0"/>
			<psa03 value="0.921465745303307" flag="0"/>
			<psa10 value="0.318741242838237" flag="0"/>
			<psa30 value="0.0531720857672203" flag="0"/>
		</comp>
	</station>
	<station code="ARS1" name="ARS1" netid="HI" source="ITSAK Strong Motion Network" insttype="" lat="37.6349" lon="22.7293">
		<comp name="--.HNE" depth="0.0">
			<acc value="0.0211408795362774" flag="0"/>
			<vel value="0.0227990961673995" flag="0"/>
			<psa03 value="0.042147158634412" flag="0"/>
			<psa10 value="0.0341512788896607" flag="0"/>
			<psa30 value="0.00328765734231061" flag="0"/>
		</comp>
		<comp name="--.HNN" depth="0.0">
			<acc value="0.0333767556427725" flag="0"/>
			<vel value="0.0282167442340032" flag="0"/>
			<psa03 value="0.107605006916944" flag="0"/>
			<psa10 value="0.058440928018588" flag="0"/>
			<psa30 value="0.00342054169596687" flag="0"/>
		</comp>
		<comp name="--.HNZ" depth="0.0">
			<acc value="0.0171857411011374" flag="0"/>
			<vel value="0.0119342557461644" flag="0"/>
			<psa03 value="0.049395396106572" flag="0"/>
			<psa10 value="0.00949116428993399" flag="0"/>
			<psa30 value="0.00279415080331107" flag="0"/>
		</comp>
	</station>
	<station code="KLV1" name="KLV1" netid="HI" source="ITSAK Strong Motion Network" insttype="" lat="38.03256" lon="22.10797">
		<comp name="--.HNE" depth="0.0">
			<acc value="0.141412782492532" flag="0"/>
			<vel value="0.0859842939256171" flag="0"/>
			<psa03 value="0.221473922760445" flag="0"/>
			<psa10 value="0.175552311575716" flag="0"/>
			<psa30 value="0.00654175802965751" flag="0"/>
		</comp>
		<comp name="--.HNN" depth="0.0">
			<acc value="0.221516980822612" flag="0"/>
			<vel value="0.0988087264235725" flag="0"/>
			<psa03 value="0.36684135206321" flag="0"/>
			<psa10 value="0.117336884278484" flag="0"/>
			<psa30 value="0.00820572069379104" flag="0"/>
		</comp>
		<comp name="--.HNZ" depth="0.0">
			<acc value="0.142767404375839" flag="0"/>
			<vel value="0.053864483341667" flag="0"/>
			<psa03 value="0.146396500054985" flag="0"/>
			<psa10 value="0.0925519389222922" flag="0"/>
			<psa30 value="0.00947729420588232" flag="0"/>
		</comp>
	</station>
	<station code="LAM2" name="LAM2" netid="HI" source="ITSAK Strong Motion Network" insttype="" lat="38.90203" lon="22.431301">
		<comp name="--.HNE" depth="0.0">
			<acc value="0.153364839252622" flag="0"/>
			<vel value="0.0558964846609654" flag="0"/>
			<psa03 value="0.327378725825894" flag="0"/>
			<psa10 value="0.0486839950213415" flag="0"/>
			<psa30 value="0.0133009631834798" flag="0"/>
		</comp>
		<comp name="--.HNN" depth="0.0">
			<acc value="0.124796678263103" flag="0"/>
			<vel value="0.0393886310085342" flag="0"/>
			<psa03 value="0.307155248434436" flag="0"/>
			<psa10 value="0.0312197695120315" flag="0"/>
			<psa30 value="0.0100795243069643" flag="0"/>
		</comp>
		<comp name="--.HNZ" depth="0.0">
			<acc value="0.0622140618425355" flag="0"/>
			<vel value="0.028850479114788" flag="0"/>
			<psa03 value="0.108634077669164" flag="0"/>
			<psa10 value="0.0440813642265199" flag="0"/>
			<psa30 value="0.00596458356428181" flag="0"/>
		</comp>
	</station>
	<station code="MSL1" name="MSL1" netid="HI" source="ITSAK Strong Motion Network" insttype="" lat="38.3727" lon="21.4243">
		<comp name="--.HNE" depth="0.0">
			<acc value="0.144286300130057" flag="0"/>
			<vel value="0.0775418687780852" flag="0"/>
			<psa03 value="0.429838378981737" flag="0"/>
			<psa10 value="0.104733004674117" flag="0"/>
			<psa30 value="0.0109023334866743" flag="0"/>
		</comp>
		<comp name="--.HNN" depth="0.0">
			<acc value="0.185091319177129" flag="0"/>
			<vel value="0.0737346276852067" flag="0"/>
			<psa03 value="0.387109571661287" flag="0"/>
			<psa10 value="0.103094097645689" flag="0"/>
			<psa30 value="0.0102643096202977" flag="0"/>
		</comp>
		<comp name="--.HNZ" depth="0.0">
			<acc value="0.071021876320112" flag="0"/>
			<vel value="0.0436171708694959" flag="0"/>
			<psa03 value="0.226619276521546" flag="0"/>
			<psa10 value="0.0360720618197831" flag="0"/>
			<psa30 value="0.00400934913506333" flag="0"/>
		</comp>
	</station>
	<station code="PYL1" name="PYL1" netid="HI" source="ITSAK Strong Motion Network" insttype="" lat="36.914188" lon="21.695161">
		<comp name="--.HNE" depth="0.0">
			<acc value="0.00644437403390836" flag="0"/>
			<vel value="0.0116689854928687" flag="0"/>
			<psa03 value="0.0124830756464978" flag="0"/>
			<psa10 value="0.0167273213663071" flag="0"/>
			<psa30 value="0.0038496194574361" flag="0"/>
		</comp>
		<comp name="--.HNN" depth="0.0">
			<acc value="0.00661020643287135" flag="0"/>
			<vel value="0.00678737303439612" flag="0"/>
			<psa03 value="0.0120803957869334" flag="0"/>
			<psa10 value="0.01293407708921" flag="0"/>
			<psa30 value="0.00283128683480424" flag="0"/>
		</comp>
		<comp name="--.HNZ" depth="0.0">
			<acc value="0.00437405067146727" flag="0"/>
			<vel value="0.00686545338656643" flag="0"/>
			<psa03 value="0.00653236216626768" flag="0"/>
			<psa10 value="0.00762272974155496" flag="0"/>
			<psa30 value="0.00205366728377867" flag="0"/>
		</comp>
	</station>
	<station code="VAS2" name="VAS2" netid="HI" source="ITSAK Strong Motion Network" insttype="" lat="38.630558" lon="20.608081">
		<comp name="--.HNE" depth="0.0">
			<acc value="0.058595564992477" flag="0"/>
			<vel value="0.0417407820509924" flag="0"/>
			<psa03 value="0.198655397385127" flag="0"/>
			<psa10 value="0.0691965070675544" flag="0"/>
			<psa30 value="0.00459189266523323" flag="0"/>
		</comp>
		<comp name="--.HNN" depth="0.0">
			<acc value="0.0849395482283043" flag="0"/>
			<vel value="0.0594343790116668" flag="0"/>
			<psa03 value="0.282368065967913" flag="0"/>
			<psa10 value="0.128571652360332" flag="0"/>
			<psa30 value="0.00640171492294232" flag="0"/>
		</comp>
		<comp name="--.HNZ" depth="0.0">
			<acc value="0.0385968669856204" flag="0"/>
			<vel value="0.0273418589563361" flag="0"/>
			<psa03 value="0.108320882222836" flag="0"/>
			<psa10 value="0.0283124209259762" flag="0"/>
			<psa30 value="0.00299146393449765" flag="0"/>
		</comp>
	</station>
	<station code="VOL2" name="VOL2" netid="HI" source="ITSAK Strong Motion Network" insttype="" lat="39.366" lon="22.9506">
		<comp name="--.HNE" depth="0.0">
			<acc value="0.0153287199526753" flag="0"/>
			<vel value="0.0115423116874954" flag="0"/>
			<psa03 value="0.0618784717530698" flag="0"/>
			<psa10 value="0.0162682663264036" flag="0"/>
			<psa30 value="0.00267737364403738" flag="0"/>
		</comp>
		<comp name="--.HNN" depth="0.0">
			<acc value="0.0141551543084609" flag="0"/>
			<vel value="0.0116016660155926" flag="0"/>
			<psa03 value="0.0397310794770253" flag="0"/>
			<psa10 value="0.0175125470924577" flag="0"/>
			<psa30 value="0.00413373246946213" flag="0"/>
		</comp>
		<comp name="--.HNZ" depth="0.0">
			<acc value="0.00740066402710168" flag="0"/>
			<vel value="0.0056174045836007" flag="0"/>
			<psa03 value="0.0152123502502124" flag="0"/>
			<psa10 value="0.0125072364380717" flag="0"/>
			<psa30 value="0.00231719888076029" flag="0"/>
		</comp>
	</station>
	<station code="DLFA" name="DLFA" netid="HL" source="National Observatory of Athens Seismic Network" insttype="" lat="38.47836" lon="22.49583">
		<comp name="00.HNE" depth="0.0">
			<acc value="0.211927320432228" flag="0"/>
			<vel value="0.0883181921136037" flag="0"/>
			<psa03 value="0.361651256095491" flag="0"/>
			<psa10 value="0.0961599504639896" flag="0"/>
			<psa30 value="0.0101614025450757" flag="0"/>
		</comp>
		<comp name="00.HNN" depth="0.0">
			<acc value="0.252216854903956" flag="0"/>
			<vel value="0.107765910775303" flag="0"/>
			<psa03 value="0.385498852223029" flag="0"/>
			<psa10 value="0.091557319669168" flag="0"/>
			<psa30 value="0.00763659982560662" flag="0"/>
		</comp>
		<comp name="00.HNZ" depth="0.0">
			<acc value="0.221188891602259" flag="0"/>
			<vel value="0.0550329527736181" flag="0"/>
			<psa03 value="0.233017412067959" flag="0"/>
			<psa10 value="0.0598462807284679" flag="0"/>
			<psa30 value="0.0104889154975214" flag="0"/>
		</comp>
	</station>
	<station code="ITM" name="ITM" netid="HL" source="National Observatory of Athens Seismic Network" insttype="" lat="37.17872" lon="21.92522">
		<comp name="--.HNE" depth="0.0">
			<acc value="0.0119586042268822" flag="0"/>
			<vel value="0.0128137617737637" flag="0"/>
			<psa03 value="0.0229974942017917" flag="0"/>
			<psa10 value="0.0207138519759951" flag="0"/>
			<psa30 value="0.00367199289716156" flag="0"/>
		</comp>
		<comp name="--.HNN" depth="0.0">
			<acc value="0.0104001732242736" flag="0"/>
			<vel value="0.0118636831043281" flag="0"/>
			<psa03 value="0.0252346045327053" flag="0"/>
			<psa10 value="0.0243097831219056" flag="0"/>
			<psa30 value="0.00262726237262492" flag="0"/>
		</comp>
		<comp name="--.HNZ" depth="0.0">
			<acc value="0.00889543905407507" flag="0"/>
			<vel value="0.0126902003556238" flag="0"/>
			<psa03 value="0.0207156416642598" flag="0"/>
			<psa10 value="0.0195944019664059" flag="0"/>
			<psa30 value="0.00251495943401305" flag="0"/>
		</comp>
	</station>
	<station code="KYMI" name="KYMI" netid="HL" source="National Observatory of Athens Seismic Network" insttype="" lat="38.633147" lon="24.100138">
		<comp name="--.HNE" depth="1.0">
			<acc value="0.00307081450259209" flag="0"/>
			<vel value="0.00512053198374245" flag="0"/>
			<psa03 value="0.00550329141404743" flag="0"/>
			<psa10 value="0.00517846299399877" flag="0"/>
			<psa30 value="0.00217760319611129" flag="0"/>
		</comp>
		<comp name="--.HNN" depth="1.0">
			<acc value="0.00486383378486131" flag="0"/>
			<vel value="0.0087207721142193" flag="0"/>
			<psa03 value="0.00630865113317632" flag="0"/>
			<psa10 value="0.0124991828408804" flag="0"/>
			<psa30 value="0.00168185954678083" flag="0"/>
		</comp>
		<comp name="--.HNZ" depth="1.0">
			<acc value="0.00243127146464722" flag="0"/>
			<vel value="0.00381958891919067" flag="0"/>
			<psa03 value="0.00519009596771952" flag="0"/>
			<psa10 value="0.00602811749767975" flag="0"/>
			<psa30 value="0.00204829821898448" flag="0"/>
		</comp>
	</station>
	<station code="NOAC" name="NOAC" netid="HL" source="National Observatory of Athens Seismic Network" insttype="" lat="37.97384" lon="23.71767">
		<comp name="00.HNE" depth="0.0">
			<acc value="0.0110437137842839" flag="0"/>
			<vel value="0.00993814237195208" flag="0"/>
			<psa03 value="0.0269795505908179" flag="0"/>
			<psa10 value="0.0117340911077079" flag="0"/>
			<psa30 value="0.00233017412067959" flag="0"/>
		</comp>
		<comp name="00.HNN" depth="0.0">
			<acc value="0.00732734011011054" flag="0"/>
			<vel value="0.00872956797023754" flag="0"/>
			<psa03 value="0.018612757953201" flag="0"/>
			<psa10 value="0.0156561929398656" flag="0"/>
			<psa30 value="0.00286708060009885" flag="0"/>
		</comp>
		<comp name="00.HNZ" depth="0.0">
			<acc value="0.00732055430505637" flag="0"/>
			<vel value="0.00670885269911574" flag="0"/>
			<psa03 value="0.0145412171509383" flag="0"/>
			<psa10 value="0.00892338568794812" flag="0"/>
			<psa30 value="0.00131049923184918" flag="0"/>
		</comp>
	</station>
	<station code="PATC" name="PATC" netid="HL" source="National Observatory of Athens Seismic Network" insttype="" lat="38.26933" lon="21.76001">
		<comp name="00.HNE" depth="0.0">
			<acc value="0.302093782764162" flag="0"/>
			<vel value="0.1895073091008" flag="0"/>
			<psa03 value="0.788984071506604" flag="0"/>
			<psa10 value="0.140784932500922" flag="0"/>
			<psa30 value="0.052191784020214" flag="0"/>
		</comp>
		<comp name="00.HNN" depth="0.0">
			<acc value="0.433316006099013" flag="0"/>
			<vel value="0.171434697837258" flag="0"/>
			<psa03 value="0.69900749399726" flag="0"/>
			<psa10 value="0.204561368658738" flag="0"/>
			<psa30 value="0.0295365676990521" flag="0"/>
		</comp>
		<comp name="00.HNZ" depth="0.0">
			<acc value="0.403568003971191" flag="0"/>
			<vel value="0.139487241401114" flag="0"/>
			<psa03 value="0.454580819241641" flag="0"/>
			<psa10 value="0.142580884674579" flag="0"/>
			<psa30 value="0.0215907992257132" flag="0"/>
		</comp>
	</station>
	<station code="PATG" name="PATG" netid="HL" source="National Observatory of Athens Seismic Network" insttype="" lat="38.23865" lon="21.72657">
		<comp name="00.HNE" depth="0.0">
			<acc value="0.277566773932353" flag="0"/>
			<vel value="0.195185584442115" flag="0"/>
			<psa03 value="0.600082475164261" flag="0"/>
			<psa10 value="0.200381551716459" flag="0"/>
			<psa30 value="0.0523331693931277" flag="0"/>
		</comp>
		<comp name="00.HNN" depth="0.0">
			<acc value="0.294230713433184" flag="0"/>
			<vel value="0.181697538798724" flag="0"/>
			<psa03 value="0.618203068844661" flag="0"/>
			<psa10 value="0.271096161854572" flag="0"/>
			<psa30 value="0.0776764974879154" flag="0"/>
		</comp>
		<comp name="00.HNZ" depth="0.0">
			<acc value="0.225930177830042" flag="0"/>
			<vel value="0.15089603795225" flag="0"/>
			<psa03 value="0.484558097675883" flag="0"/>
			<psa10 value="0.199072842172875" flag="0"/>
			<psa30 value="0.0245992651987258" flag="0"/>
		</comp>
	</station>
	<station code="RIOA" name="RIOA" netid="HL" source="National Observatory of Athens Seismic Network" insttype="" lat="38.29585" lon="21.79118">
		<comp name="00.HNE" depth="0.0">
			<acc value="0.408444619830681" flag="0"/>
			<vel value="0.135053559075576" flag="0"/>
			<psa03 value="0.691893483144954" flag="0"/>
			<psa10 value="0.160065244176867" flag="0"/>
			<psa30 value="0.0218605947316214" flag="0"/>
		</comp>
		<comp name="00.HNN" depth="0.0">
			<acc value="0.498012338394455" flag="0"/>
			<vel value="0.145308708425962" flag="0"/>
			<psa03 value="0.986744624759365" flag="0"/>
			<psa10 value="0.119519409117323" flag="0"/>
			<psa30 value="0.0453448841414199" flag="0"/>
		</comp>
		<comp name="00.HNZ" depth="0.0">
			<acc value="0.410637803874838" flag="0"/>
			<vel value="0.131610088408635" flag="0"/>
			<psa03 value="0.432970333445016" flag="0"/>
			<psa10 value="0.082247361316038" flag="0"/>
			<psa30 value="0.0270542700758704" flag="0"/>
		</comp>
	</station>
	<station code="ANX" name="ANX" netid="HP" source="University of Patras, Seismological Laboratory (PSLNET)" insttype="" lat="38.5933" lon="21.9209">
		<comp name="--.HNE" depth="0.0">
			<acc value="2.02389247408189" flag="0"/>
			<vel value="0.712796389647744" flag="0"/>
			<psa03 value="4.440485038037" flag="0"/>
			<psa10 value="0.232205341017838" flag="0"/>
			<psa30 value="0.0256247565744166" flag="0"/>
		</comp>
		<comp name="--.HNN" depth="0.0">
			<acc value="2.18361362206931" flag="0"/>
			<vel value="1.06150172429299" flag="0"/>
			<psa03 value="5.60096365109511" flag="0"/>
			<psa10 value="0.404890571993455" flag="0"/>
			<psa30 value="0.0378917273629482" flag="0"/>
		</comp>
		<comp name="--.HNZ" depth="0.0">
			<acc value="1.57070707200958" flag="0"/>
			<vel value="0.296094588003437" flag="0"/>
			<psa03 value="1.82669006960418" flag="0"/>
			<psa10 value="0.122354275328657" flag="0"/>
			<psa30 value="0.0176628809066951" flag="0"/>
		</comp>
	</station>
	<station code="GUR" name="GUR" netid="HP" source="University of Patras, Seismological Laboratory (PSLNET)" insttype="" lat="37.9363" lon="22.3423">
		<comp name="--.HNE" depth="0.0">
			<acc value="0.0807960454304663" flag="0"/>
			<vel value="0.0270454473805821" flag="0"/>
			<psa03 value="0.130602501118735" flag="0"/>
			<psa10 value="0.042494805579836" flag="0"/>
			<psa30 value="0.00354984667309368" flag="0"/>
		</comp>
		<comp name="--.HNN" depth="0.0">
			<acc value="0.0873693633053185" flag="0"/>
			<vel value="0.0342870851860735" flag="0"/>
			<psa03 value="0.189662213854854" flag="0"/>
			<psa10 value="0.0308331968468496" flag="0"/>
			<psa30 value="0.00341919942976833" flag="0"/>
		</comp>
		<comp name="--.HNZ" depth="0.0">
			<acc value="0.0511804608659445" flag="0"/>
			<vel value="0.015850313357257" flag="0"/>
			<psa03 value="0.0618337295464516" flag="0"/>
			<psa10 value="0.0220426955125578" flag="0"/>
			<psa30 value="0.00400845429093097" flag="0"/>
		</comp>
	</station>
	<station code="LTK" name="LTK" netid="HP" source="University of Patras, Seismological Laboratory (PSLNET)" insttype="" lat="38.0228" lon="22.9673">
		<comp name="--.HNE" depth="0.0">
			<acc value="0.0140487370500907" flag="0"/>
			<vel value="0.0124446971240907" flag="0"/>
			<psa03 value="0.0400442749233532" flag="0"/>
			<psa10 value="0.020069564200692" flag="0"/>
			<psa30 value="0.00279101884884779" flag="0"/>
		</comp>
		<comp name="--.HNN" depth="0.0">
			<acc value="0.021377770036614" flag="0"/>
			<vel value="0.0114245171864667" flag="0"/>
			<psa03 value="0.0633997067780911" flag="0"/>
			<psa10 value="0.0156038445581223" flag="0"/>
			<psa30 value="0.00340667161191521" flag="0"/>
		</comp>
		<comp name="--.HNZ" depth="0.0">
			<acc value="0.0146887458575581" flag="0"/>
			<vel value="0.00783655119008801" flag="0"/>
			<psa03 value="0.0263979019047803" flag="0"/>
			<psa10 value="0.0115448315737127" flag="0"/>
			<psa30 value="0.00265231800833115" flag="0"/>
		</comp>
	</station>
	<station code="PDO" name="PDO" netid="HP" source="University of Patras, Seismological Laboratory (PSLNET)" insttype="" lat="38.5986" lon="21.1833">
		<comp name="--.HNE" depth="0.0">
			<acc value="0.117790791240554" flag="0"/>
			<vel value="0.0635582204574651" flag="0"/>
			<psa03 value="0.40594604064758" flag="0"/>
			<psa10 value="0.0279781966425377" flag="0"/>
			<psa30 value="0.00261876135336744" flag="0"/>
		</comp>
		<comp name="--.HNN" depth="0.0">
			<acc value="0.14700182472166" flag="0"/>
			<vel value="0.0744708250722036" flag="0"/>
			<psa03 value="0.606749063950383" flag="0"/>
			<psa10 value="0.0358183735082575" flag="0"/>
			<psa30 value="0.00439055273545101" flag="0"/>
		</comp>
		<comp name="--.HNZ" depth="0.0">
			<acc value="0.0832996755362982" flag="0"/>
			<vel value="0.0343281760158585" flag="0"/>
			<psa03 value="0.220981758487644" flag="0"/>
			<psa10 value="0.0114320812130346" flag="0"/>
			<psa30 value="0.00298430518143873" flag="0"/>
		</comp>
	</station>
	<station code="PVO" name="PVO" netid="HP" source="University of Patras, Seismological Laboratory (PSLNET)" insttype="" lat="38.616" lon="21.525">
