<stationlist created="1778069599">
	<station code="KUBB" name="KUBB" netid="BS" source="National Seismic Network of Bulgaria (BS)" insttype="" lat="43.8024" lon="26.4941">
		<comp name="--.HNE" depth="0.0">
			<acc value="0.0444572459110863" flag="0"/>
			<vel value="0.0115211605916947" flag="0"/>
			<psa03 value="0.0574489932978609" flag="0"/>
			<psa10 value="0.00293956297482045" flag="0"/>
			<psa30 value="0.000290376920952584" flag="0"/>
		</comp>
		<comp name="--.HNN" depth="0.0">
			<acc value="0.0299809472228686" flag="0"/>
			<vel value="0.00888151784377337" flag="0"/>
			<psa03 value="0.0540933278014906" flag="0"/>
			<psa10 value="0.00285500020431192" flag="0"/>
			<psa30 value="0.000356595386747626" flag="0"/>
		</comp>
		<comp name="--.HNZ" depth="0.0">
			<acc value="0.0186137544554167" flag="0"/>
			<vel value="0.00402626462595336" flag="0"/>
			<psa03 value="0.0104696763486756" flag="0"/>
			<psa10 value="0.00291540218324659" flag="0"/>
			<psa30 value="0.000123935912332613" flag="0"/>
		</comp>
	</station>
	<station code="RUSAM" name="RUSAM" netid="BS" source="National Seismic Network of Bulgaria (BS)" insttype="" lat="43.8462" lon="25.9612">
		<comp name="--.HNE" depth="0.0">
			<acc value="0.0127758436347558" flag="0"/>
			<vel value="0.00539916246622502" flag="0"/>
			<psa03 value="0.0345857257159241" flag="0"/>
			<psa10 value="0.00272211585065565" flag="0"/>
			<psa30 value="0.000288587232687853" flag="0"/>
		</comp>
		<comp name="--.HNN" depth="0.0">
			<acc value="0.0118731880825794" flag="0"/>
			<vel value="0.00408446494710231" flag="0"/>
			<psa03 value="0.0229974942017917" flag="0"/>
			<psa10 value="0.00249258833070392" flag="0"/>
			<psa30 value="0.000765091733172447" flag="0"/>
		</comp>
		<comp name="--.HNZ" depth="0.0">
			<acc value="0.0089444611742181" flag="0"/>
			<vel value="0.00269822233838747" flag="0"/>
			<psa03 value="0.0121251379935516" flag="0"/>
			<psa10 value="0.00206977447816125" flag="0"/>
			<psa30 value="0.000140937950847556" flag="0"/>
		</comp>
	</station>
	<station code="SILAM" name="SILAM" netid="BS" source="National Seismic Network of Bulgaria (BS)" insttype="" lat="44.1046" lon="27.2665">
		<comp name="--.HNE" depth="0.0">
			<acc value="0.0387304754295897" flag="0"/>
			<vel value="0.0101948254584559" flag="0"/>
			<psa03 value="0.0510061155448298" flag="0"/>
			<psa10 value="0.0032697604596633" flag="0"/>
			<psa30 value="0.000451896286844545" flag="0"/>
		</comp>
		<comp name="--.HNN" depth="0.0">
			<acc value="0.0295357314025053" flag="0"/>
			<vel value="0.00906026119811633" flag="0"/>
			<psa03 value="0.0474714812219863" flag="0"/>
			<psa10 value="0.00348318078523246" flag="0"/>
			<psa30 value="0.000357490230879991" flag="0"/>
		</comp>
		<comp name="--.HNZ" depth="0.0">
			<acc value="0.0382542890843451" flag="0"/>
			<vel value="0.00897226205631553" flag="0"/>
			<psa03 value="0.0123041068200247" flag="0"/>
			<psa10 value="0.0013409239323496" flag="0"/>
			<psa30 value="0.000153018346634489" flag="0"/>
		</comp>
	</station>
	<station code="BAC" name="BAC" netid="RO" source="Romanian Seismic Network (NIEP)" insttype="" lat="46.5669" lon="26.9124">
		<comp name="--.HNE" depth="0.0">
			<acc value="0.144840411097003" flag="0"/>
			<vel value="0.0563112235784722" flag="0"/>
			<psa03 value="0.293374648796008" flag="0"/>
			<psa10 value="0.0157125681202047" flag="0"/>
			<psa30 value="0.00162011530164762" flag="0"/>
		</comp>
		<comp name="--.HNN" depth="0.0">
			<acc value="0.125060927900585" flag="0"/>
			<vel value="0.0571341367244409" flag="0"/>
			<psa03 value="0.311853180129354" flag="0"/>
			<psa10 value="0.0162279983404472" flag="0"/>
			<psa30 value="0.00192078293012241" flag="0"/>
		</comp>
		<comp name="--.HNZ" depth="0.0">
			<acc value="0.0713003701364596" flag="0"/>
			<vel value="0.0208697641644411" flag="0"/>
			<psa03 value="0.0882316314512319" flag="0"/>
			<psa10 value="0.00399861100547495" flag="0"/>
			<psa30 value="0.000387914931380416" flag="0"/>
		</comp>
	</station>
	<station code="BISRR" name="BISRR" netid="RO" source="Romanian Seismic Network (NIEP)" insttype="" lat="45.5481" lon="26.7099">
		<comp name="--.HNE" depth="0.0">
			<acc value="0.0575267276483311" flag="0"/>
			<vel value="0.0216420433052387" flag="0"/>
			<psa03 value="0.059104454942737" flag="0"/>
			<psa10 value="0.0196668843411275" flag="0"/>
			<psa30 value="0.00129752399192988" flag="0"/>
		</comp>
		<comp name="--.HNN" depth="0.0">
			<acc value="0.0696257666374004" flag="0"/>
			<vel value="0.0181309127945048" flag="0"/>
			<psa03 value="0.0809833939790719" flag="0"/>
			<psa10 value="0.0217648464094583" flag="0"/>
			<psa30 value="0.000954798689233919" flag="0"/>
		</comp>
		<comp name="--.HNZ" depth="0.0">
			<acc value="0.0590637679516919" flag="0"/>
			<vel value="0.0109841191682343" flag="0"/>
			<psa03 value="0.031453771252645" flag="0"/>
			<psa10 value="0.017170269211828" flag="0"/>
			<psa30 value="0.00062236409406016" flag="0"/>
		</comp>
	</station>
	<station code="COPA" name="COPA" netid="RO" source="Romanian Seismic Network (NIEP)" insttype="" lat="44.1343" lon="25.2172">
		<comp name="--.HNE" depth="0.0">
			<acc value="0.0391656238614143" flag="0"/>
			<vel value="0.0103857740261936" flag="0"/>
			<psa03 value="0.044115815725616" flag="0"/>
			<psa10 value="0.00504960543893815" flag="0"/>
			<psa30 value="0.00056151469305931" flag="0"/>
		</comp>
		<comp name="--.HNN" depth="0.0">
			<acc value="0.0287038946036456" flag="0"/>
			<vel value="0.00799580484012712" flag="0"/>
			<psa03 value="0.0292166609217315" flag="0"/>
			<psa10 value="0.00407109338019655" flag="0"/>
			<psa30 value="0.00040178501543208" flag="0"/>
		</comp>
		<comp name="--.HNZ" depth="0.0">
			<acc value="0.027227500159031" flag="0"/>
			<vel value="0.00316655099187087" flag="0"/>
			<psa03 value="0.0146754437707931" flag="0"/>
			<psa10 value="0.00158253184808827" flag="0"/>
			<psa30 value="0.000100222542824929" flag="0"/>
		</comp>
	</station>
	<station code="GHRR" name="GHRR" netid="RO" source="Romanian Seismic Network (NIEP)" insttype="" lat="46.0605" lon="27.408">
		<comp name="--.HNE" depth="0.0">
			<acc value="0.234047882139151" flag="0"/>
			<vel value="0.0770075395796613" flag="0"/>
			<psa03 value="0.31999626173388" flag="0"/>
			<psa10 value="0.0418625982003198" flag="0"/>
			<psa30 value="0.0025941531397274" flag="0"/>
		</comp>
		<comp name="--.HNN" depth="0.0">
			<acc value="0.197606623881411" flag="0"/>
			<vel value="0.0657281379840712" flag="0"/>
			<psa03 value="0.547599866801028" flag="0"/>
			<psa10 value="0.0477618581429389" flag="0"/>
			<psa30 value="0.00209527753593367" flag="0"/>
		</comp>
		<comp name="--.HNZ" depth="0.0">
			<acc value="0.137020984150682" flag="0"/>
			<vel value="0.0388085918079548" flag="0"/>
			<psa03 value="0.137090121078385" flag="0"/>
			<psa10 value="0.011609260351243" flag="0"/>
			<psa30 value="0.000771355642099005" flag="0"/>
		</comp>
	</station>
	<station code="HUMR" name="HUMR" netid="RO" source="Romanian Seismic Network (NIEP)" insttype="" lat="44.5281" lon="24.9804">
		<comp name="--.HNE" depth="0.0">
			<acc value="0.0258171053892876" flag="0"/>
			<vel value="0.00779530514984806" flag="0"/>
			<psa03 value="0.0678291852333" flag="0"/>
			<psa10 value="0.00568986641564562" flag="0"/>
			<psa30 value="0.000366438672203646" flag="0"/>
		</comp>
		<comp name="--.HNN" depth="0.0">
			<acc value="0.0294983923218371" flag="0"/>
			<vel value="0.00746597176860801" flag="0"/>
			<psa03 value="0.0340488192365048" flag="0"/>
			<psa10 value="0.0036321723332713" flag="0"/>
			<psa30 value="0.000381651022453858" flag="0"/>
		</comp>
		<comp name="--.HNZ" depth="0.0">
			<acc value="0.0285814947346414" flag="0"/>
			<vel value="0.00397391568935163" flag="0"/>
			<psa03 value="0.0202682195980771" flag="0"/>
			<psa10 value="0.00171541620174454" flag="0"/>
			<psa30 value="0.000192391488458568" flag="0"/>
		</comp>
	</station>
	<station code="IASR" name="IASR" netid="RO" source="Romanian Seismic Network (NIEP)" insttype="" lat="47.1777" lon="27.5748">
		<comp name="--.HNE" depth="0.0">
			<acc value="0.204754485077881" flag="0"/>
			<vel value="0.0796969107531374" flag="0"/>
			<psa03 value="0.513774758597615" flag="0"/>
			<psa10 value="0.0268345858413747" flag="0"/>
			<psa30 value="0.00224874330463434" flag="0"/>
		</comp>
		<comp name="--.HNN" depth="0.0">
			<acc value="0.123068831149736" flag="0"/>
			<vel value="0.046034006975462" flag="0"/>
			<psa03 value="0.384156586024481" flag="0"/>
			<psa10 value="0.0182534780340563" flag="0"/>
			<psa30 value="0.00145635882542475" flag="0"/>
		</comp>
		<comp name="--.HNZ" depth="0.0">
			<acc value="0.201617384296785" flag="0"/>
			<vel value="0.0420792922519293" flag="0"/>
			<psa03 value="0.249079864243919" flag="0"/>
			<psa10 value="0.00859721500170092" flag="0"/>
			<psa30 value="0.000712743351429069" flag="0"/>
		</comp>
	</station>
	<station code="LEHL" name="LEHL" netid="RO" source="Romanian Seismic Network (NIEP)" insttype="" lat="44.4739" lon="26.8194">
		<comp name="--.HNE" depth="0.0">
			<acc value="0.168985493249059" flag="0"/>
			<vel value="0.0485571489227597" flag="0"/>
			<psa03 value="0.110647476966986" flag="0"/>
			<psa10 value="0.0181608616663565" flag="0"/>
			<psa30 value="0.00162548436644181" flag="0"/>
		</comp>
		<comp name="--.HNN" depth="0.0">
			<acc value="0.218887229222303" flag="0"/>
			<vel value="0.0552760257790468" flag="0"/>
			<psa03 value="0.177984497927485" flag="0"/>
			<psa10 value="0.0242896491289274" flag="0"/>
			<psa30 value="0.00196955193533632" flag="0"/>
		</comp>
		<comp name="--.HNZ" depth="0.0">
			<acc value="0.074770593136784" flag="0"/>
			<vel value="0.0135010343240955" flag="0"/>
			<psa03 value="0.0330197484842846" flag="0"/>
			<psa10 value="0.00360398474310179" flag="0"/>
			<psa30 value="0.000416102521549927" flag="0"/>
		</comp>
	</station>
	<station code="MLR" name="MLR" netid="RO" source="Romanian Seismic Network (NIEP)" insttype="" lat="45.4909" lon="25.945">
		<comp name="--.HNE" depth="0.0">
			<acc value="0.0125289579554897" flag="0"/>
			<vel value="0.00911456650346205" flag="0"/>
			<psa03 value="0.0205366728377867" flag="0"/>
			<psa10 value="0.0131032026302271" flag="0"/>
			<psa30 value="0.00115613861901614" flag="0"/>
		</comp>
		<comp name="--.HNN" depth="0.0">
			<acc value="0.0131292934400942" flag="0"/>
			<vel value="0.00923077833597987" flag="0"/>
			<psa03 value="0.0153018346634489" flag="0"/>
			<psa10 value="0.00884687651463087" flag="0"/>
			<psa30 value="0.000626838314721987" flag="0"/>
		</comp>
		<comp name="--.HNZ" depth="0.0">
			<acc value="0.0116795147714998" flag="0"/>
			<vel value="0.00498096347708363" flag="0"/>
			<psa03 value="0.0109618406214766" flag="0"/>
			<psa10 value="0.00777574808818945" flag="0"/>
			<psa30 value="0.000398205638902619" flag="0"/>
		</comp>
	</station>
	<station code="PLOR" name="PLOR" netid="RO" source="Romanian Seismic Network (NIEP)" insttype="" lat="45.8512" lon="26.6498">
		<comp name="--.HNE" depth="0.0">
			<acc value="0.0394823307638971" flag="0"/>
			<vel value="0.0143298402094314" flag="0"/>
			<psa03 value="0.0955246111300102" flag="0"/>
			<psa10 value="0.0110334281520658" flag="0"/>
			<psa30 value="0.000738246409201484" flag="0"/>
		</comp>
		<comp name="--.HNN" depth="0.0">
			<acc value="0.0523401752409428" flag="0"/>
			<vel value="0.0199053983083071" flag="0"/>
			<psa03 value="0.109126241941965" flag="0"/>
			<psa10 value="0.0104294083627191" flag="0"/>
			<psa30 value="0.00068321349506101" flag="0"/>
		</comp>
		<comp name="--.HNZ" depth="0.0">
			<acc value="0.0651525960207693" flag="0"/>
			<vel value="0.0115149008943878" flag="0"/>
			<psa03 value="0.0523931239499962" flag="0"/>
			<psa10 value="0.00525094536872037" flag="0"/>
			<psa30 value="0.000420129320145572" flag="0"/>
		</comp>
	</station>
	<station code="PLOR4" name="PLOR4" netid="RO" source="Romanian Seismic Network (NIEP)" insttype="" lat="45.8512" lon="26.6498">
		<comp name="--.HNE" depth="0.0">
			<acc value="0.039482319571996" flag="0"/>
			<vel value="0.0143298253137281" flag="0"/>
			<psa03 value="0.0955246111300102" flag="0"/>
			<psa10 value="0.0110334281520658" flag="0"/>
			<psa30 value="0.000738246409201484" flag="0"/>
		</comp>
		<comp name="--.HNN" depth="0.0">
			<acc value="0.0523401929294579" flag="0"/>
			<vel value="0.0199053593205994" flag="0"/>
			<psa03 value="0.109126241941965" flag="0"/>
			<psa10 value="0.0104294083627191" flag="0"/>
			<psa30 value="0.00068321349506101" flag="0"/>
		</comp>
		<comp name="--.HNZ" depth="0.0">
			<acc value="0.0651525486446231" flag="0"/>
			<vel value="0.01151490763031" flag="0"/>
			<psa03 value="0.0523931239499962" flag="0"/>
			<psa10 value="0.00525094536872037" flag="0"/>
			<psa30 value="0.000420129320145572" flag="0"/>
		</comp>
	</station>
	<station code="SULR" name="SULR" netid="RO" source="Romanian Seismic Network (NIEP)" insttype="" lat="44.6777" lon="26.2526">
		<comp name="--.HNE" depth="0.0">
			<acc value="0.141545123377089" flag="0"/>
			<vel value="0.0383685543001501" flag="0"/>
			<psa03 value="0.113868915843502" flag="0"/>
			<psa10 value="0.0165944370126508" flag="0"/>
			<psa30 value="0.00129483945953278" flag="0"/>
		</comp>
		<comp name="--.HNN" depth="0.0">
			<acc value="0.0908735711154118" flag="0"/>
			<vel value="0.0382943620237984" flag="0"/>
			<psa03 value="0.115300666455286" flag="0"/>
			<psa10 value="0.0274667932208908" flag="0"/>
			<psa30 value="0.00194449629963009" flag="0"/>
		</comp>
		<comp name="--.HNZ" depth="0.0">
			<acc value="0.0618938713576061" flag="0"/>
			<vel value="0.0135944615941322" flag="0"/>
			<psa03 value="0.0561514693059311" flag="0"/>
			<psa10 value="0.00767910492189398" flag="0"/>
			<psa30 value="0.000448764332381266" flag="0"/>
		</comp>
	</station>
	<station code="TESR" name="TESR" netid="RO" source="Romanian Seismic Network (NIEP)" insttype="" lat="46.5118" lon="26.6489">
		<comp name="--.HNE" depth="0.0">
			<acc value="0.0761005824248104" flag="0"/>
			<vel value="0.0286149025466122" flag="0"/>
			<psa03 value="0.115792830728087" flag="0"/>
			<psa10 value="0.0127609247495973" flag="0"/>
			<psa30 value="0.000903345151622907" flag="0"/>
		</comp>
		<comp name="--.HNN" depth="0.0">
			<acc value="0.0753679186686751" flag="0"/>
			<vel value="0.022278063541989" flag="0"/>
			<psa03 value="0.131407860837864" flag="0"/>
			<psa10 value="0.00863748298765736" flag="0"/>
			<psa30 value="0.000761512356642985" flag="0"/>
		</comp>
		<comp name="--.HNZ" depth="0.0">
			<acc value="0.0327681620031177" flag="0"/>
			<vel value="0.00832319527916939" flag="0"/>
			<psa03 value="0.0354805698482895" flag="0"/>
			<psa10 value="0.00407512017879219" flag="0"/>
			<psa30 value="0.000314090290460268" flag="0"/>
		</comp>
	</station>
</stationlist>
