<?xml version="1.0" encoding="UTF-8" standalone="yes"?>
<!DOCTYPE earthquake SYSTEM "stationlist.dtd">
<stationlist created="" xmlns="ch.ethz.sed.shakemap.usgs.xml">
  <station code="THERA" name="THERA" netid="GE" insttype="STS-2/N" lat="36.367" lon="25.4753">
    <comp name="--.HHE">
      <acc value="0.0286468242" flag="0"/>
      <vel value="0.0089574083" flag="0"/>
      <psa03 value="0.0768084400" flag="0"/>
      <psa10 value="0.0055089077" flag="0"/>
      <psa30 value="0.0006292116" flag="0"/>
    </comp>
    <comp name="--.HHZ">
      <acc value="0.0235611004" flag="0"/>
      <vel value="0.0070623867" flag="0"/>
      <psa03 value="0.0523724654" flag="0"/>
      <psa10 value="0.0048697740" flag="0"/>
      <psa30 value="0.0003236254" flag="0"/>
    </comp>
    <comp name="--.HHN">
      <acc value="0.0151673420" flag="0"/>
      <vel value="0.0059876327" flag="0"/>
      <psa03 value="0.0337608808" flag="0"/>
      <psa10 value="0.0031658387" flag="0"/>
      <psa30 value="0.0002530560" flag="0"/>
    </comp>
  </station>
  <station code="ZKR" name="ZKR" netid="GE" insttype="STS-2/N" lat="35.1147" lon="26.2169">
    <comp name="--.HHE">
      <acc value="0.0251879838" flag="0"/>
      <vel value="0.0094635219" flag="0"/>
      <psa03 value="0.0491240455" flag="0"/>
      <psa10 value="0.0093376845" flag="0"/>
      <psa30 value="0.0015026581" flag="0"/>
    </comp>
    <comp name="--.HHN">
      <acc value="0.0104375310" flag="0"/>
      <vel value="0.0040660450" flag="0"/>
      <psa03 value="0.0227452347" flag="0"/>
      <psa10 value="0.0062234756" flag="0"/>
      <psa30 value="0.0002984351" flag="0"/>
    </comp>
    <comp name="--.HHZ">
      <acc value="0.0213307219" flag="0"/>
      <vel value="0.0057078145" flag="0"/>
      <psa03 value="0.0281853829" flag="0"/>
      <psa10 value="0.0084984180" flag="0"/>
      <psa30 value="0.0007323849" flag="0"/>
    </comp>
  </station>
  <station code="SNT5" name="SNT5" netid="HA" insttype="1s-100Hz," lat="36.4037" lon="25.3953">
    <comp name="--.HHN">
      <acc value="0.0541739708" flag="0"/>
      <vel value="0.0168994064" flag="0"/>
      <psa03 value="0.1125622051" flag="0"/>
      <psa10 value="0.0067507705" flag="0"/>
      <psa30 value="0.0013835802" flag="0"/>
    </comp>
    <comp name="--.HHZ">
      <acc value="0.0245377342" flag="0"/>
      <vel value="0.0061619328" flag="0"/>
      <psa03 value="0.0327835255" flag="0"/>
      <psa10 value="0.0041764564" flag="0"/>
      <psa30 value="0.0004904972" flag="0"/>
    </comp>
    <comp name="--.HHE">
      <acc value="0.0711572616" flag="0"/>
      <vel value="0.0237846284" flag="0"/>
      <psa03 value="0.1324737720" flag="0"/>
      <psa10 value="0.0086898834" flag="0"/>
      <psa30 value="0.0022403713" flag="0"/>
    </comp>
  </station>
  <station code="IMOD" name="IMOD" netid="HC" insttype="120" lat="34.9731" lon="24.7995">
    <comp name="--.HHN">
      <acc value="0.0311747436" flag="0"/>
      <vel value="0.0121506145" flag="0"/>
      <psa03 value="0.0810027827" flag="0"/>
      <psa10 value="0.0115689120" flag="0"/>
      <psa30 value="0.0006521796" flag="0"/>
    </comp>
    <comp name="--.HHE">
      <acc value="0.0273515645" flag="0"/>
      <vel value="0.0137421968" flag="0"/>
      <psa03 value="0.0734133979" flag="0"/>
      <psa10 value="0.0077712053" flag="0"/>
      <psa30 value="0.0005630806" flag="0"/>
    </comp>
    <comp name="--.HHZ">
      <acc value="0.0190734040" flag="0"/>
      <vel value="0.0114452482" flag="0"/>
      <psa03 value="0.0302781802" flag="0"/>
      <psa10 value="0.0055482075" flag="0"/>
      <psa30 value="0.0003425685" flag="0"/>
    </comp>
  </station>
  <station code="KNSS" name="KNSS" netid="HC" insttype="60" lat="35.3042" lon="25.1802">
    <comp name="--.HHE">
      <acc value="0.1018253757" flag="0"/>
      <vel value="0.0242203633" flag="0"/>
      <psa03 value="0.1528667939" flag="0"/>
      <psa10 value="0.0189006865" flag="0"/>
      <psa30 value="0.0010998406" flag="0"/>
    </comp>
    <comp name="--.HHZ">
      <acc value="0.1148239016" flag="0"/>
      <vel value="0.0285651427" flag="0"/>
      <psa03 value="0.0871337872" flag="0"/>
      <psa10 value="0.0147128241" flag="0"/>
      <psa30 value="0.0006442412" flag="0"/>
    </comp>
    <comp name="--.HHN">
      <acc value="0.0928959894" flag="0"/>
      <vel value="0.0241178410" flag="0"/>
      <psa03 value="0.1878625332" flag="0"/>
      <psa10 value="0.0105301140" flag="0"/>
      <psa30 value="0.0018207112" flag="0"/>
    </comp>
  </station>
  <station code="PFKS" name="PFKS" netid="HC" insttype="120" lat="35.0429" lon="25.4733">
    <comp name="--.HHZ">
      <acc value="0.0460449173" flag="0"/>
      <vel value="0.0114629048" flag="0"/>
      <psa03 value="0.0342931031" flag="0"/>
      <psa10 value="0.0065307718" flag="0"/>
      <psa30 value="0.0006684171" flag="0"/>
    </comp>
    <comp name="--.HHE">
      <acc value="0.1062740825" flag="0"/>
      <vel value="0.0225842028" flag="0"/>
      <psa03 value="0.0826820610" flag="0"/>
      <psa10 value="0.0111950109" flag="0"/>
      <psa30 value="0.0011586888" flag="0"/>
    </comp>
    <comp name="--.HHN">
      <acc value="0.0986870420" flag="0"/>
      <vel value="0.0184737632" flag="0"/>
      <psa03 value="0.0648356020" flag="0"/>
      <psa10 value="0.0117045099" flag="0"/>
      <psa30 value="0.0008662021" flag="0"/>
    </comp>
  </station>
  <station code="STIA" name="STIA" netid="HC" insttype="120" lat="35.2021" lon="26.0909">
    <comp name="--.HHN">
      <acc value="0.0368596604" flag="0"/>
      <vel value="0.0134114274" flag="0"/>
      <psa03 value="0.0583185961" flag="0"/>
      <psa10 value="0.0150781657" flag="0"/>
      <psa30 value="0.0013965715" flag="0"/>
    </comp>
    <comp name="--.HHE">
      <acc value="0.0473055150" flag="0"/>
      <vel value="0.0150946192" flag="0"/>
      <psa03 value="0.0861001252" flag="0"/>
      <psa10 value="0.0168998350" flag="0"/>
      <psa30 value="0.0014676616" flag="0"/>
    </comp>
    <comp name="--.HHZ">
      <acc value="0.0563030378" flag="0"/>
      <vel value="0.0107493064" flag="0"/>
      <psa03 value="0.0501121348" flag="0"/>
      <psa10 value="0.0075020081" flag="0"/>
      <psa30 value="0.0006466051" flag="0"/>
    </comp>
  </station>
  <station code="TEFL" name="TEFL" netid="HC" insttype="GEOtiny," lat="35.0933" lon="25.1634">
    <comp name="--.HHN">
      <acc value="0.3108896420" flag="0"/>
      <vel value="0.0885103243" flag="0"/>
      <psa03 value="0.3341015578" flag="0"/>
      <psa10 value="0.0334165905" flag="0"/>
      <psa30 value="0.0016651085" flag="0"/>
    </comp>
    <comp name="--.HHE">
      <acc value="0.2741864856" flag="0"/>
      <vel value="0.0793332915" flag="0"/>
      <psa03 value="0.2248912693" flag="0"/>
      <psa10 value="0.0331875191" flag="0"/>
      <psa30 value="0.0019257878" flag="0"/>
    </comp>
    <comp name="--.HHZ">
      <acc value="0.1039111381" flag="0"/>
      <vel value="0.0309751152" flag="0"/>
      <psa03 value="0.1707869163" flag="0"/>
      <psa10 value="0.0117590691" flag="0"/>
      <psa30 value="0.0009704979" flag="0"/>
    </comp>
  </station>
  <station code="IACM" name="IACM" netid="HL" insttype="120" lat="35.3058" lon="25.0709">
    <comp name="--.HHE">
      <acc value="0.2850662459" flag="0"/>
      <vel value="0.0998048034" flag="0"/>
      <psa03 value="0.5109454040" flag="0"/>
      <psa10 value="0.0815194056" flag="0"/>
      <psa30 value="0.0035202648" flag="0"/>
    </comp>
    <comp name="--.HHN">
      <acc value="0.2713921853" flag="0"/>
      <vel value="0.0958620583" flag="0"/>
      <psa03 value="0.6687832388" flag="0"/>
      <psa10 value="0.0566300042" flag="0"/>
      <psa30 value="0.0028949407" flag="0"/>
    </comp>
    <comp name="--.HHZ">
      <acc value="0.3137353566" flag="0"/>
      <vel value="0.0795800717" flag="0"/>
      <psa03 value="0.2395980936" flag="0"/>
      <psa10 value="0.0426567163" flag="0"/>
      <psa30 value="0.0018839090" flag="0"/>
    </comp>
  </station>
  <station code="IDI" name="IDI" netid="HL" insttype="120" lat="35.288" lon="24.89">
    <comp name="--.HHZ">
      <acc value="0.0456941874" flag="0"/>
      <vel value="0.0153038747" flag="0"/>
      <psa03 value="0.0798493615" flag="0"/>
      <psa10 value="0.0083966172" flag="0"/>
      <psa30 value="0.0005445613" flag="0"/>
    </comp>
    <comp name="--.HHE">
      <acc value="0.0598947233" flag="0"/>
      <vel value="0.0223405368" flag="0"/>
      <psa03 value="0.0668153493" flag="0"/>
      <psa10 value="0.0082608521" flag="0"/>
      <psa30 value="0.0005042155" flag="0"/>
    </comp>
    <comp name="--.HHN">
      <acc value="0.0677095483" flag="0"/>
      <vel value="0.0230852692" flag="0"/>
      <psa03 value="0.0975322693" flag="0"/>
      <psa10 value="0.0124635158" flag="0"/>
      <psa30 value="0.0007291907" flag="0"/>
    </comp>
  </station>
  <station code="KSTE" name="KSTE" netid="HL" insttype="60" lat="35.1801" lon="25.3372">
    <comp name="--.HHN">
      <acc value="0.0140537003" flag="0"/>
      <vel value="0.0029568714" flag="0"/>
      <psa03 value="0.0073107209" flag="0"/>
      <psa10 value="0.0019336487" flag="0"/>
      <psa30 value="0.0005692394" flag="0"/>
    </comp>
    <comp name="--.HHE">
      <acc value="0.0589860221" flag="0"/>
      <vel value="0.0116742084" flag="0"/>
      <psa03 value="0.0443996548" flag="0"/>
      <psa10 value="0.0102234550" flag="0"/>
      <psa30 value="0.0009122857" flag="0"/>
    </comp>
    <comp name="--.HHZ">
      <acc value="0.0729360244" flag="0"/>
      <vel value="0.0169064582" flag="0"/>
      <psa03 value="0.0612114174" flag="0"/>
      <psa10 value="0.0090438747" flag="0"/>
      <psa30 value="0.0011274075" flag="0"/>
    </comp>
  </station>
  <station code="NPS" name="NPS" netid="HL" insttype="CMG3ESPC-120s" lat="35.2613" lon="25.6104">
    <comp name="--.HHZ">
      <acc value="0.0852612838" flag="0"/>
      <vel value="0.0257416054" flag="0"/>
      <psa03 value="0.0676723525" flag="0"/>
      <psa10 value="0.0139892912" flag="0"/>
      <psa30 value="0.0013789444" flag="0"/>
    </comp>
    <comp name="--.HHN">
      <acc value="0.1278943049" flag="0"/>
      <vel value="0.0270079350" flag="0"/>
      <psa03 value="0.1027256422" flag="0"/>
      <psa10 value="0.0236321431" flag="0"/>
      <psa30 value="0.0010758333" flag="0"/>
    </comp>
    <comp name="--.HHE">
      <acc value="0.0419158997" flag="0"/>
      <vel value="0.0171426440" flag="0"/>
      <psa03 value="0.0613786782" flag="0"/>
      <psa10 value="0.0153765337" flag="0"/>
      <psa30 value="0.0011003134" flag="0"/>
    </comp>
  </station>
  <station code="SAP3" name="SAP3" netid="HL" insttype="LE3D20_SMART24" lat="36.4356" lon="25.3454">
    <comp name="--.HHZ">
      <acc value="0.0667603923" flag="0"/>
      <vel value="0.0225321728" flag="0"/>
      <psa03 value="0.1104445182" flag="0"/>
      <psa10 value="0.0098802886" flag="0"/>
      <psa30 value="0.0011500213" flag="0"/>
    </comp>
    <comp name="--.HHE">
      <acc value="0.0762718280" flag="0"/>
      <vel value="0.0375265765" flag="0"/>
      <psa03 value="0.1858677266" flag="0"/>
      <psa10 value="0.0293330468" flag="0"/>
      <psa30 value="0.0043202927" flag="0"/>
    </comp>
    <comp name="--.HHN">
      <acc value="0.0919042980" flag="0"/>
      <vel value="0.0339505981" flag="0"/>
      <psa03 value="0.1834097926" flag="0"/>
      <psa10 value="0.0191372293" flag="0"/>
      <psa30 value="0.0033748421" flag="0"/>
    </comp>
  </station>
  <station code="SIVA" name="SIVA" netid="HL" insttype="60" lat="35.0178" lon="24.812">
    <comp name="--.HHE">
      <acc value="0.0515524021" flag="0"/>
      <vel value="0.0196496442" flag="0"/>
      <psa03 value="0.1402091683" flag="0"/>
      <psa10 value="0.0118893865" flag="0"/>
      <psa30 value="0.0007882716" flag="0"/>
    </comp>
    <comp name="--.HHN">
      <acc value="0.0421233046" flag="0"/>
      <vel value="0.0139639773" flag="0"/>
      <psa03 value="0.0633379026" flag="0"/>
      <psa10 value="0.0114079704" flag="0"/>
      <psa30 value="0.0006932893" flag="0"/>
    </comp>
    <comp name="--.HHZ">
      <acc value="0.0276936253" flag="0"/>
      <vel value="0.0104959444" flag="0"/>
      <psa03 value="0.0597920034" flag="0"/>
      <psa10 value="0.0053901052" flag="0"/>
      <psa30 value="0.0003406387" flag="0"/>
    </comp>
  </station>
  <station code="THERA" name="THERA" netid="HL" insttype="120" lat="36.367" lon="25.4753">
    <comp name="--.HHE">
      <acc value="0.0278721853" flag="0"/>
      <vel value="0.0087580506" flag="0"/>
      <psa03 value="0.0744094631" flag="0"/>
      <psa10 value="0.0054501422" flag="0"/>
      <psa30 value="0.0006270638" flag="0"/>
    </comp>
    <comp name="--.HHN">
      <acc value="0.0146340823" flag="0"/>
      <vel value="0.0058265844" flag="0"/>
      <psa03 value="0.0327900058" flag="0"/>
      <psa10 value="0.0031396259" flag="0"/>
      <psa30 value="0.0002497596" flag="0"/>
    </comp>
    <comp name="--.HHZ">
      <acc value="0.0227660843" flag="0"/>
      <vel value="0.0068726070" flag="0"/>
      <psa03 value="0.0508894910" flag="0"/>
      <psa10 value="0.0048311411" flag="0"/>
      <psa30 value="0.0003226275" flag="0"/>
    </comp>
  </station>
  <station code="THRA" name="THRA" netid="HL" insttype="CMG-5" lat="36.415" lon="25.4324">
    <comp name="00.HNE">
      <acc value="0.0655576684" flag="0"/>
      <vel value="0.0350577438" flag="0"/>
      <psa03 value="0.1570335789" flag="0"/>
      <psa10 value="0.0467819879" flag="0"/>
      <psa30 value="0.0036492992" flag="0"/>
    </comp>
    <comp name="00.HNN">
      <acc value="0.0738192810" flag="0"/>
      <vel value="0.0329133056" flag="0"/>
      <psa03 value="0.1918441937" flag="0"/>
      <psa10 value="0.0338571892" flag="0"/>
      <psa30 value="0.0016338531" flag="0"/>
    </comp>
    <comp name="00.HNZ">
      <acc value="0.0475797508" flag="0"/>
      <vel value="0.0159177497" flag="0"/>
      <psa03 value="0.1251739742" flag="0"/>
      <psa10 value="0.0094205888" flag="0"/>
      <psa30 value="0.0009419456" flag="0"/>
    </comp>
  </station>
  <station code="ZKR" name="ZKR" netid="HL" insttype="120" lat="35.1147" lon="26.2169">
    <comp name="--.HHN">
      <acc value="0.0101511998" flag="0"/>
      <vel value="0.0039991680" flag="0"/>
      <psa03 value="0.0220503252" flag="0"/>
      <psa10 value="0.0061889262" flag="0"/>
      <psa30 value="0.0002969547" flag="0"/>
    </comp>
    <comp name="--.HHE">
      <acc value="0.0245111266" flag="0"/>
      <vel value="0.0093406569" flag="0"/>
      <psa03 value="0.0478064709" flag="0"/>
      <psa10 value="0.0092831624" flag="0"/>
      <psa30 value="0.0015032435" flag="0"/>
    </comp>
    <comp name="--.HHZ">
      <acc value="0.0209562966" flag="0"/>
      <vel value="0.0055856362" flag="0"/>
      <psa03 value="0.0273869035" flag="0"/>
      <psa10 value="0.0084417608" flag="0"/>
      <psa30 value="0.0007321602" flag="0"/>
    </comp>
  </station>
  <station code="CMBO" name="CMBO" netid="HT" insttype="120P," lat="36.4709" lon="25.4056">
    <comp name="--.HHN">
      <acc value="0.0612039339" flag="0"/>
      <vel value="0.0276357883" flag="0"/>
      <psa03 value="0.1255833936" flag="0"/>
      <psa10 value="0.0287056293" flag="0"/>
      <psa30 value="0.0018228323" flag="0"/>
    </comp>
    <comp name="--.HHE">
      <acc value="0.0635764552" flag="0"/>
      <vel value="0.0309407012" flag="0"/>
      <psa03 value="0.1478282521" flag="0"/>
      <psa10 value="0.0265249470" flag="0"/>
      <psa30 value="0.0020741757" flag="0"/>
    </comp>
    <comp name="--.HHZ">
      <acc value="0.0777741631" flag="0"/>
      <vel value="0.0224073744" flag="0"/>
      <psa03 value="0.1537293027" flag="0"/>
      <psa10 value="0.0077128807" flag="0"/>
      <psa30 value="0.0018600900" flag="0"/>
    </comp>
  </station>
  <station code="IDI" name="IDI" netid="MN" insttype="" lat="35.288" lon="24.89">
    <comp name="--.HHE">
      <acc value="0.0611584577" flag="0"/>
      <vel value="0.0224427785" flag="0"/>
      <psa03 value="0.0682110205" flag="0"/>
      <psa10 value="0.0082139862" flag="0"/>
      <psa30 value="0.0005085303" flag="0"/>
    </comp>
    <comp name="--.HHZ">
      <acc value="0.0484388655" flag="0"/>
      <vel value="0.0155139857" flag="0"/>
      <psa03 value="0.0813197360" flag="0"/>
      <psa10 value="0.0083926670" flag="0"/>
      <psa30 value="0.0005420778" flag="0"/>
    </comp>
    <comp name="--.HHN">
      <acc value="0.0718417106" flag="0"/>
      <vel value="0.0236376837" flag="0"/>
      <psa03 value="0.0987333561" flag="0"/>
      <psa10 value="0.0125418020" flag="0"/>
      <psa30 value="0.0007307362" flag="0"/>
    </comp>
  </station>
</stationlist>
