<?xml version="1.0" encoding="UTF-8" standalone="yes"?>
<!DOCTYPE earthquake SYSTEM "stationlist.dtd">
<stationlist created="" xmlns="ch.ethz.sed.shakemap.usgs.xml">
  <station code="THERA" name="THERA" netid="GE" insttype="STS-2/N" lat="36.367" lon="25.4753">
    <comp name="--.HHE">
      <acc value="0.0286468242" flag="0"/>
      <vel value="0.0089574081" flag="0"/>
      <psa03 value="0.0768084400" flag="0"/>
      <psa10 value="0.0055089077" flag="0"/>
      <psa30 value="0.0006292055" flag="0"/>
    </comp>
    <comp name="--.HHN">
      <acc value="0.0151673419" flag="0"/>
      <vel value="0.0059876327" flag="0"/>
      <psa03 value="0.0337608808" flag="0"/>
      <psa10 value="0.0031658387" flag="0"/>
      <psa30 value="0.0002530643" flag="0"/>
    </comp>
    <comp name="--.HHZ">
      <acc value="0.0235611003" flag="0"/>
      <vel value="0.0070623867" flag="0"/>
      <psa03 value="0.0523724654" flag="0"/>
      <psa10 value="0.0048697740" flag="0"/>
      <psa30 value="0.0003235898" flag="0"/>
    </comp>
  </station>
  <station code="ZKR" name="ZKR" netid="GE" insttype="STS-2/N" lat="35.1147" lon="26.2169">
    <comp name="--.HHE">
      <acc value="0.0251879837" flag="0"/>
      <vel value="0.0094635212" flag="0"/>
      <psa03 value="0.0491240455" flag="0"/>
      <psa10 value="0.0093376845" flag="0"/>
      <psa30 value="0.0015026421" flag="0"/>
    </comp>
    <comp name="--.HHN">
      <acc value="0.0104375308" flag="0"/>
      <vel value="0.0040660450" flag="0"/>
      <psa03 value="0.0227452347" flag="0"/>
      <psa10 value="0.0062234756" flag="0"/>
      <psa30 value="0.0002984306" flag="0"/>
    </comp>
    <comp name="--.HHZ">
      <acc value="0.0213307218" flag="0"/>
      <vel value="0.0057078151" flag="0"/>
      <psa03 value="0.0281853829" flag="0"/>
      <psa10 value="0.0084984180" flag="0"/>
      <psa30 value="0.0007323953" flag="0"/>
    </comp>
  </station>
  <station code="SNT5" name="SNT5" netid="HA" insttype="1s-100Hz," lat="36.4037" lon="25.3953">
    <comp name="--.HHE">
      <acc value="0.0711572610" flag="0"/>
      <vel value="0.0237848433" flag="0"/>
      <psa03 value="0.1324737714" flag="0"/>
      <psa10 value="0.0086898829" flag="0"/>
      <psa30 value="0.0022403347" flag="0"/>
    </comp>
    <comp name="--.HHZ">
      <acc value="0.0245377328" flag="0"/>
      <vel value="0.0061614174" flag="0"/>
      <psa03 value="0.0327835242" flag="0"/>
      <psa10 value="0.0041764551" flag="0"/>
      <psa30 value="0.0004905357" flag="0"/>
    </comp>
    <comp name="--.HHN">
      <acc value="0.0541739719" flag="0"/>
      <vel value="0.0168990885" flag="0"/>
      <psa03 value="0.1125622061" flag="0"/>
      <psa10 value="0.0067507695" flag="0"/>
      <psa30 value="0.0013835977" flag="0"/>
    </comp>
  </station>
  <station code="IMOD" name="IMOD" netid="HC" insttype="120" lat="34.9731" lon="24.7995">
    <comp name="--.HHN">
      <acc value="0.0311747436" flag="0"/>
      <vel value="0.0121506150" flag="0"/>
      <psa03 value="0.0810027827" flag="0"/>
      <psa10 value="0.0115689120" flag="0"/>
      <psa30 value="0.0006521778" flag="0"/>
    </comp>
    <comp name="--.HHZ">
      <acc value="0.0190734040" flag="0"/>
      <vel value="0.0114452481" flag="0"/>
      <psa03 value="0.0302781802" flag="0"/>
      <psa10 value="0.0055482075" flag="0"/>
      <psa30 value="0.0003425734" flag="0"/>
    </comp>
    <comp name="--.HHE">
      <acc value="0.0273515645" flag="0"/>
      <vel value="0.0137421967" flag="0"/>
      <psa03 value="0.0734133979" flag="0"/>
      <psa10 value="0.0077712053" flag="0"/>
      <psa30 value="0.0005630815" flag="0"/>
    </comp>
  </station>
  <station code="KNSS" name="KNSS" netid="HC" insttype="60" lat="35.3042" lon="25.1802">
    <comp name="--.HHN">
      <acc value="0.0928959894" flag="0"/>
      <vel value="0.0241178413" flag="0"/>
      <psa03 value="0.1878625332" flag="0"/>
      <psa10 value="0.0105301140" flag="0"/>
      <psa30 value="0.0018207175" flag="0"/>
    </comp>
    <comp name="--.HHZ">
      <acc value="0.1148239016" flag="0"/>
      <vel value="0.0285651417" flag="0"/>
      <psa03 value="0.0871337872" flag="0"/>
      <psa10 value="0.0147128241" flag="0"/>
      <psa30 value="0.0006442497" flag="0"/>
    </comp>
    <comp name="--.HHE">
      <acc value="0.1018253757" flag="0"/>
      <vel value="0.0242203628" flag="0"/>
      <psa03 value="0.1528667939" flag="0"/>
      <psa10 value="0.0189006866" flag="0"/>
      <psa30 value="0.0010998592" flag="0"/>
    </comp>
  </station>
  <station code="PFKS" name="PFKS" netid="HC" insttype="120" lat="35.0429" lon="25.4733">
    <comp name="--.HHZ">
      <acc value="0.0460449173" flag="0"/>
      <vel value="0.0114629048" flag="0"/>
      <psa03 value="0.0342931031" flag="0"/>
      <psa10 value="0.0065307718" flag="0"/>
      <psa30 value="0.0006684137" flag="0"/>
    </comp>
    <comp name="--.HHN">
      <acc value="0.0986870420" flag="0"/>
      <vel value="0.0184737632" flag="0"/>
      <psa03 value="0.0648356020" flag="0"/>
      <psa10 value="0.0117045099" flag="0"/>
      <psa30 value="0.0008661986" flag="0"/>
    </comp>
    <comp name="--.HHE">
      <acc value="0.1062740825" flag="0"/>
      <vel value="0.0225842029" flag="0"/>
      <psa03 value="0.0826820610" flag="0"/>
      <psa10 value="0.0111950109" flag="0"/>
      <psa30 value="0.0011586906" flag="0"/>
    </comp>
  </station>
  <station code="STIA" name="STIA" netid="HC" insttype="120" lat="35.2021" lon="26.0909">
    <comp name="--.HHZ">
      <acc value="0.0563030379" flag="0"/>
      <vel value="0.0107493066" flag="0"/>
      <psa03 value="0.0501121348" flag="0"/>
      <psa10 value="0.0075020081" flag="0"/>
      <psa30 value="0.0006465869" flag="0"/>
    </comp>
    <comp name="--.HHE">
      <acc value="0.0473055149" flag="0"/>
      <vel value="0.0150946189" flag="0"/>
      <psa03 value="0.0861001252" flag="0"/>
      <psa10 value="0.0168998348" flag="0"/>
      <psa30 value="0.0014676529" flag="0"/>
    </comp>
    <comp name="--.HHN">
      <acc value="0.0368596604" flag="0"/>
      <vel value="0.0134114268" flag="0"/>
      <psa03 value="0.0583185961" flag="0"/>
      <psa10 value="0.0150781654" flag="0"/>
      <psa30 value="0.0013965186" flag="0"/>
    </comp>
  </station>
  <station code="TEFL" name="TEFL" netid="HC" insttype="GEOtiny," lat="35.0933" lon="25.1634">
    <comp name="--.HHE">
      <acc value="0.2741864860" flag="0"/>
      <vel value="0.0793329796" flag="0"/>
      <psa03 value="0.2248912694" flag="0"/>
      <psa10 value="0.0331875191" flag="0"/>
      <psa30 value="0.0019257900" flag="0"/>
    </comp>
    <comp name="--.HHN">
      <acc value="0.3108896416" flag="0"/>
      <vel value="0.0885106579" flag="0"/>
      <psa03 value="0.3341015579" flag="0"/>
      <psa10 value="0.0334165906" flag="0"/>
      <psa30 value="0.0016651057" flag="0"/>
    </comp>
    <comp name="--.HHZ">
      <acc value="0.1039111379" flag="0"/>
      <vel value="0.0309750045" flag="0"/>
      <psa03 value="0.1707869163" flag="0"/>
      <psa10 value="0.0117590690" flag="0"/>
      <psa30 value="0.0009705001" flag="0"/>
    </comp>
  </station>
  <station code="IACM" name="IACM" netid="HL" insttype="120" lat="35.3058" lon="25.0709">
    <comp name="--.HHE">
      <acc value="0.2850662459" flag="0"/>
      <vel value="0.0998047996" flag="0"/>
      <psa03 value="0.5109454040" flag="0"/>
      <psa10 value="0.0815194057" flag="0"/>
      <psa30 value="0.0035202085" flag="0"/>
    </comp>
    <comp name="--.HHN">
      <acc value="0.2713921853" flag="0"/>
      <vel value="0.0958620585" flag="0"/>
      <psa03 value="0.6687832388" flag="0"/>
      <psa10 value="0.0566300042" flag="0"/>
      <psa30 value="0.0028949451" flag="0"/>
    </comp>
    <comp name="--.HHZ">
      <acc value="0.3137353566" flag="0"/>
      <vel value="0.0795800718" flag="0"/>
      <psa03 value="0.2395980936" flag="0"/>
      <psa10 value="0.0426567164" flag="0"/>
      <psa30 value="0.0018839221" flag="0"/>
    </comp>
  </station>
  <station code="IDI" name="IDI" netid="HL" insttype="120" lat="35.288" lon="24.89">
    <comp name="--.HHE">
      <acc value="0.0598947233" flag="0"/>
      <vel value="0.0223405368" flag="0"/>
      <psa03 value="0.0668153493" flag="0"/>
      <psa10 value="0.0082608522" flag="0"/>
      <psa30 value="0.0005042075" flag="0"/>
    </comp>
    <comp name="--.HHN">
      <acc value="0.0677095483" flag="0"/>
      <vel value="0.0230852690" flag="0"/>
      <psa03 value="0.0975322693" flag="0"/>
      <psa10 value="0.0124635157" flag="0"/>
      <psa30 value="0.0007292019" flag="0"/>
    </comp>
    <comp name="--.HHZ">
      <acc value="0.0456941874" flag="0"/>
      <vel value="0.0153038752" flag="0"/>
      <psa03 value="0.0798493615" flag="0"/>
      <psa10 value="0.0083966172" flag="0"/>
      <psa30 value="0.0005445516" flag="0"/>
    </comp>
  </station>
  <station code="KSTE" name="KSTE" netid="HL" insttype="60" lat="35.1801" lon="25.3372">
    <comp name="--.HHE">
      <acc value="0.0589860221" flag="0"/>
      <vel value="0.0116742084" flag="0"/>
      <psa03 value="0.0443996548" flag="0"/>
      <psa10 value="0.0102234550" flag="0"/>
      <psa30 value="0.0009122857" flag="0"/>
    </comp>
    <comp name="--.HHN">
      <acc value="0.0140537003" flag="0"/>
      <vel value="0.0029568714" flag="0"/>
      <psa03 value="0.0073107209" flag="0"/>
      <psa10 value="0.0019336487" flag="0"/>
      <psa30 value="0.0005692394" flag="0"/>
    </comp>
    <comp name="--.HHZ">
      <acc value="0.0729360244" flag="0"/>
      <vel value="0.0169064582" flag="0"/>
      <psa03 value="0.0612114174" flag="0"/>
      <psa10 value="0.0090438747" flag="0"/>
      <psa30 value="0.0011274075" flag="0"/>
    </comp>
  </station>
  <station code="NPS" name="NPS" netid="HL" insttype="CMG3ESPC-120s" lat="35.2613" lon="25.6104">
    <comp name="--.HHE">
      <acc value="0.0419158997" flag="0"/>
      <vel value="0.0171426440" flag="0"/>
      <psa03 value="0.0613786782" flag="0"/>
      <psa10 value="0.0153765337" flag="0"/>
      <psa30 value="0.0011003147" flag="0"/>
    </comp>
    <comp name="--.HHZ">
      <acc value="0.0852612838" flag="0"/>
      <vel value="0.0257416052" flag="0"/>
      <psa03 value="0.0676723525" flag="0"/>
      <psa10 value="0.0139892912" flag="0"/>
      <psa30 value="0.0013789445" flag="0"/>
    </comp>
    <comp name="--.HHN">
      <acc value="0.1278943048" flag="0"/>
      <vel value="0.0270079350" flag="0"/>
      <psa03 value="0.1027256422" flag="0"/>
      <psa10 value="0.0236321431" flag="0"/>
      <psa30 value="0.0010758346" flag="0"/>
    </comp>
  </station>
  <station code="SAP3" name="SAP3" netid="HL" insttype="LE3D20_SMART24" lat="36.4356" lon="25.3454">
    <comp name="--.HHE">
      <acc value="0.0762718278" flag="0"/>
      <vel value="0.0375265896" flag="0"/>
      <psa03 value="0.1858677266" flag="0"/>
      <psa10 value="0.0293330471" flag="0"/>
      <psa30 value="0.0043199377" flag="0"/>
    </comp>
    <comp name="--.HHN">
      <acc value="0.0919042980" flag="0"/>
      <vel value="0.0339505950" flag="0"/>
      <psa03 value="0.1834097926" flag="0"/>
      <psa10 value="0.0191372293" flag="0"/>
      <psa30 value="0.0033748469" flag="0"/>
    </comp>
    <comp name="--.HHZ">
      <acc value="0.0667603921" flag="0"/>
      <vel value="0.0225321644" flag="0"/>
      <psa03 value="0.1104445182" flag="0"/>
      <psa10 value="0.0098802886" flag="0"/>
      <psa30 value="0.0011500097" flag="0"/>
    </comp>
  </station>
  <station code="SIVA" name="SIVA" netid="HL" insttype="60" lat="35.0178" lon="24.812">
    <comp name="--.HHZ">
      <acc value="0.0276936253" flag="0"/>
      <vel value="0.0104959442" flag="0"/>
      <psa03 value="0.0597920034" flag="0"/>
      <psa10 value="0.0053901052" flag="0"/>
      <psa30 value="0.0003406388" flag="0"/>
    </comp>
    <comp name="--.HHN">
      <acc value="0.0421233046" flag="0"/>
      <vel value="0.0139639772" flag="0"/>
      <psa03 value="0.0633379026" flag="0"/>
      <psa10 value="0.0114079704" flag="0"/>
      <psa30 value="0.0006932943" flag="0"/>
    </comp>
    <comp name="--.HHE">
      <acc value="0.0515524021" flag="0"/>
      <vel value="0.0196496440" flag="0"/>
      <psa03 value="0.1402091683" flag="0"/>
      <psa10 value="0.0118893865" flag="0"/>
      <psa30 value="0.0007882586" flag="0"/>
    </comp>
  </station>
  <station code="THERA" name="THERA" netid="HL" insttype="120" lat="36.367" lon="25.4753">
    <comp name="--.HHE">
      <acc value="0.0278721853" flag="0"/>
      <vel value="0.0087580504" flag="0"/>
      <psa03 value="0.0744094631" flag="0"/>
      <psa10 value="0.0054501423" flag="0"/>
      <psa30 value="0.0006270577" flag="0"/>
    </comp>
    <comp name="--.HHN">
      <acc value="0.0146340823" flag="0"/>
      <vel value="0.0058265844" flag="0"/>
      <psa03 value="0.0327900058" flag="0"/>
      <psa10 value="0.0031396259" flag="0"/>
      <psa30 value="0.0002497679" flag="0"/>
    </comp>
    <comp name="--.HHZ">
      <acc value="0.0227660842" flag="0"/>
      <vel value="0.0068726070" flag="0"/>
      <psa03 value="0.0508894910" flag="0"/>
      <psa10 value="0.0048311411" flag="0"/>
      <psa30 value="0.0003225921" flag="0"/>
    </comp>
  </station>
  <station code="THRA" name="THRA" netid="HL" insttype="CMG-5" lat="36.415" lon="25.4324">
    <comp name="00.HNZ">
      <acc value="0.0475797509" flag="0"/>
      <vel value="0.0159177496" flag="0"/>
      <psa03 value="0.1251739742" flag="0"/>
      <psa10 value="0.0094205888" flag="0"/>
      <psa30 value="0.0009419868" flag="0"/>
    </comp>
    <comp name="00.HNE">
      <acc value="0.0655576685" flag="0"/>
      <vel value="0.0350577439" flag="0"/>
      <psa03 value="0.1570335789" flag="0"/>
      <psa10 value="0.0467819879" flag="0"/>
      <psa30 value="0.0036492695" flag="0"/>
    </comp>
    <comp name="00.HNN">
      <acc value="0.0738192809" flag="0"/>
      <vel value="0.0329133044" flag="0"/>
      <psa03 value="0.1918441937" flag="0"/>
      <psa10 value="0.0338571892" flag="0"/>
      <psa30 value="0.0016337433" flag="0"/>
    </comp>
  </station>
  <station code="ZKR" name="ZKR" netid="HL" insttype="120" lat="35.1147" lon="26.2169">
    <comp name="--.HHE">
      <acc value="0.0245111265" flag="0"/>
      <vel value="0.0093406562" flag="0"/>
      <psa03 value="0.0478064709" flag="0"/>
      <psa10 value="0.0092831623" flag="0"/>
      <psa30 value="0.0015032274" flag="0"/>
    </comp>
    <comp name="--.HHZ">
      <acc value="0.0209562965" flag="0"/>
      <vel value="0.0055856368" flag="0"/>
      <psa03 value="0.0273869035" flag="0"/>
      <psa10 value="0.0084417608" flag="0"/>
      <psa30 value="0.0007321705" flag="0"/>
    </comp>
    <comp name="--.HHN">
      <acc value="0.0101511995" flag="0"/>
      <vel value="0.0039991679" flag="0"/>
      <psa03 value="0.0220503252" flag="0"/>
      <psa10 value="0.0061889263" flag="0"/>
      <psa30 value="0.0002969502" flag="0"/>
    </comp>
  </station>
  <station code="CMBO" name="CMBO" netid="HT" insttype="120P," lat="36.4709" lon="25.4056">
    <comp name="--.HHN">
      <acc value="0.0612039339" flag="0"/>
      <vel value="0.0276357931" flag="0"/>
      <psa03 value="0.1255833936" flag="0"/>
      <psa10 value="0.0287056292" flag="0"/>
      <psa30 value="0.0018228023" flag="0"/>
    </comp>
    <comp name="--.HHE">
      <acc value="0.0635764552" flag="0"/>
      <vel value="0.0309407017" flag="0"/>
      <psa03 value="0.1478282521" flag="0"/>
      <psa10 value="0.0265249469" flag="0"/>
      <psa30 value="0.0020742434" flag="0"/>
    </comp>
    <comp name="--.HHZ">
      <acc value="0.0777741631" flag="0"/>
      <vel value="0.0224073741" flag="0"/>
      <psa03 value="0.1537293027" flag="0"/>
      <psa10 value="0.0077128807" flag="0"/>
      <psa30 value="0.0018601106" flag="0"/>
    </comp>
  </station>
  <station code="IDI" name="IDI" netid="MN" insttype="" lat="35.288" lon="24.89">
    <comp name="--.HHZ">
      <acc value="0.0484388655" flag="0"/>
      <vel value="0.0155139863" flag="0"/>
      <psa03 value="0.0813197360" flag="0"/>
      <psa10 value="0.0083926670" flag="0"/>
      <psa30 value="0.0005420656" flag="0"/>
    </comp>
    <comp name="--.HHN">
      <acc value="0.0718417106" flag="0"/>
      <vel value="0.0236376835" flag="0"/>
      <psa03 value="0.0987333561" flag="0"/>
      <psa10 value="0.0125418019" flag="0"/>
      <psa30 value="0.0007307473" flag="0"/>
    </comp>
    <comp name="--.HHE">
      <acc value="0.0611584577" flag="0"/>
      <vel value="0.0224427785" flag="0"/>
      <psa03 value="0.0682110205" flag="0"/>
      <psa10 value="0.0082139862" flag="0"/>
      <psa30 value="0.0005085224" flag="0"/>
    </comp>
  </station>
</stationlist>
