<?xml version="1.0" encoding="UTF-8" standalone="yes"?>
<!DOCTYPE earthquake SYSTEM "stationlist.dtd">
<stationlist created="" xmlns="ch.ethz.sed.shakemap.usgs.xml">
  <station code="CEYT" name="CEYT" netid="KO" insttype="CMG-3ESP" lat="37.0105" lon="35.7478">
    <comp name="--.HHN">
      <acc value="0.0054571372" flag="0"/>
      <vel value="0.0019655303" flag="0"/>
      <psa03 value="0.0112498581" flag="0"/>
      <psa10 value="0.0015488234" flag="0"/>
      <psa30 value="0.0001207850" flag="0"/>
    </comp>
    <comp name="--.HHZ">
      <acc value="0.0037471189" flag="0"/>
      <vel value="0.0012005769" flag="0"/>
      <psa03 value="0.0061869910" flag="0"/>
      <psa10 value="0.0013035137" flag="0"/>
      <psa30 value="0.0000775713" flag="0"/>
    </comp>
    <comp name="--.HHE">
      <acc value="0.0061059666" flag="0"/>
      <vel value="0.0019770989" flag="0"/>
      <psa03 value="0.0141052305" flag="0"/>
      <psa10 value="0.0013760789" flag="0"/>
      <psa30 value="0.0001536697" flag="0"/>
    </comp>
  </station>
</stationlist>
