<?xml version="1.0" encoding="UTF-8" standalone="yes"?>
<!DOCTYPE earthquake SYSTEM "stationlist.dtd">
<stationlist created="" xmlns="ch.ethz.sed.shakemap.usgs.xml">
  <station code="KOSP" name="KOSP" netid="HC" insttype="60" lat="36.881" lon="27.281">
    <comp name="--.HHE">
      <acc value="0.0255863735" flag="0"/>
      <vel value="0.0235401997" flag="0"/>
      <psa03 value="0.0603327981" flag="0"/>
      <psa10 value="0.0177902289" flag="0"/>
      <psa30 value="0.0015868018" flag="0"/>
    </comp>
    <comp name="--.HHZ">
      <acc value="0.0119556035" flag="0"/>
      <vel value="0.0064940191" flag="0"/>
      <psa03 value="0.0348293259" flag="0"/>
      <psa10 value="0.0081914538" flag="0"/>
      <psa30 value="0.0009522982" flag="0"/>
    </comp>
    <comp name="--.HHN">
      <acc value="0.0203481930" flag="0"/>
      <vel value="0.0120486408" flag="0"/>
      <psa03 value="0.0570206679" flag="0"/>
      <psa10 value="0.0163067936" flag="0"/>
      <psa30 value="0.0013031773" flag="0"/>
    </comp>
  </station>
  <station code="KRL1" name="KRL1" netid="HI" insttype="CMG-5TD,ACCELEROMETER,GURALP" lat="37.7951" lon="26.7065">
    <comp name="--.HNE">
      <acc value="0.1826909763" flag="0"/>
      <vel value="0.0671972073" flag="0"/>
      <psa03 value="0.3527170713" flag="0"/>
      <psa10 value="0.0384114043" flag="0"/>
      <psa30 value="0.0028618118" flag="0"/>
    </comp>
    <comp name="--.HNN">
      <acc value="0.0961656944" flag="0"/>
      <vel value="0.0346706556" flag="0"/>
      <psa03 value="0.1875283477" flag="0"/>
      <psa10 value="0.0309055953" flag="0"/>
      <psa30 value="0.0020978447" flag="0"/>
    </comp>
    <comp name="--.HNZ">
      <acc value="0.0547733473" flag="0"/>
      <vel value="0.0232306131" flag="0"/>
      <psa03 value="0.1153050650" flag="0"/>
      <psa10 value="0.0221071337" flag="0"/>
      <psa30 value="0.0009237426" flag="0"/>
    </comp>
  </station>
  <station code="SMG" name="SMG" netid="HL" insttype="120" lat="37.7043" lon="26.8377">
    <comp name="--.HHZ">
      <acc value="0.1396317347" flag="0"/>
      <vel value="0.0430204107" flag="0"/>
      <psa03 value="0.2245798189" flag="0"/>
      <psa10 value="0.0255393998" flag="0"/>
      <psa30 value="0.0015919691" flag="0"/>
    </comp>
    <comp name="--.HHE">
      <acc value="0.1668075889" flag="0"/>
      <vel value="0.0749189644" flag="0"/>
      <psa03 value="0.4432846233" flag="0"/>
      <psa10 value="0.0233025157" flag="0"/>
      <psa30 value="0.0018007158" flag="0"/>
    </comp>
    <comp name="--.HHN">
      <acc value="0.1696372263" flag="0"/>
      <vel value="0.0659531035" flag="0"/>
      <psa03 value="0.2461816399" flag="0"/>
      <psa10 value="0.0558026524" flag="0"/>
      <psa30 value="0.0029199018" flag="0"/>
    </comp>
  </station>
  <station code="CHOS" name="CHOS" netid="HT" insttype="100" lat="38.3869" lon="26.0506">
    <comp name="--.HHE">
      <acc value="0.0179946776" flag="0"/>
      <vel value="0.0076808511" flag="0"/>
      <psa03 value="0.0332469787" flag="0"/>
      <psa10 value="0.0066772515" flag="0"/>
      <psa30 value="0.0005172531" flag="0"/>
    </comp>
    <comp name="--.HHZ">
      <acc value="0.0065152168" flag="0"/>
      <vel value="0.0033300977" flag="0"/>
      <psa03 value="0.0111444866" flag="0"/>
      <psa10 value="0.0038236873" flag="0"/>
      <psa30 value="0.0003521453" flag="0"/>
    </comp>
    <comp name="--.HHN">
      <acc value="0.0108089999" flag="0"/>
      <vel value="0.0057384129" flag="0"/>
      <psa03 value="0.0241854633" flag="0"/>
      <psa10 value="0.0043702849" flag="0"/>
      <psa30 value="0.0004381412" flag="0"/>
    </comp>
  </station>
  <station code="BLCB" name="BLCB" netid="KO" insttype="CMG-3T" lat="38.3853" lon="27.042">
    <comp name="--.HHN">
      <acc value="0.0000590945" flag="0"/>
      <vel value="0.0000149552" flag="0"/>
      <psa03 value="0.0001005703" flag="0"/>
      <psa10 value="0.0000057496" flag="0"/>
      <psa30 value="0.0000004437" flag="0"/>
    </comp>
    <comp name="--.HHE">
      <acc value="0.0870620538" flag="0"/>
      <vel value="0.0287112956" flag="0"/>
      <psa03 value="0.1875916771" flag="0"/>
      <psa10 value="0.0148860064" flag="0"/>
      <psa30 value="0.0008714971" flag="0"/>
    </comp>
    <comp name="--.HHZ">
      <acc value="0.0320982719" flag="0"/>
      <vel value="0.0109904436" flag="0"/>
      <psa03 value="0.0552834344" flag="0"/>
      <psa10 value="0.0045486850" flag="0"/>
      <psa30 value="0.0004068667" flag="0"/>
    </comp>
  </station>
  <station code="BODA" name="BODA" netid="KO" insttype="ACEBOX" lat="37.0348" lon="27.4304">
    <comp name="--.HNN">
      <acc value="0.0390245357" flag="0"/>
      <vel value="0.0169010442" flag="0"/>
      <psa03 value="0.1448966364" flag="0"/>
      <psa10 value="0.0078159898" flag="0"/>
      <psa30 value="0.0007923077" flag="0"/>
    </comp>
    <comp name="--.HNE">
      <acc value="0.0474299394" flag="0"/>
      <vel value="0.0222282125" flag="0"/>
      <psa03 value="0.1388637270" flag="0"/>
      <psa10 value="0.0092100104" flag="0"/>
      <psa30 value="0.0010009190" flag="0"/>
    </comp>
    <comp name="--.HNZ">
      <acc value="0.0161530255" flag="0"/>
      <vel value="0.0054390491" flag="0"/>
      <psa03 value="0.0400335680" flag="0"/>
      <psa10 value="0.0050039531" flag="0"/>
      <psa30 value="0.0004018296" flag="0"/>
    </comp>
  </station>
  <station code="BODM" name="BODM" netid="KO" insttype="ACEBOX" lat="37.031" lon="27.4247">
    <comp name="--.HNE">
      <acc value="0.0576324294" flag="0"/>
      <vel value="0.0359645591" flag="0"/>
      <psa03 value="0.1477247716" flag="0"/>
      <psa10 value="0.0215221094" flag="0"/>
      <psa30 value="0.0013830552" flag="0"/>
    </comp>
    <comp name="--.HNZ">
      <acc value="0.0156776460" flag="0"/>
      <vel value="0.0077646492" flag="0"/>
      <psa03 value="0.0419904154" flag="0"/>
      <psa10 value="0.0067063160" flag="0"/>
      <psa30 value="0.0003495212" flag="0"/>
    </comp>
    <comp name="--.HNN">
      <acc value="0.0555581543" flag="0"/>
      <vel value="0.0360009399" flag="0"/>
      <psa03 value="0.1408766510" flag="0"/>
      <psa10 value="0.0137606853" flag="0"/>
      <psa30 value="0.0012304119" flag="0"/>
    </comp>
  </station>
  <station code="BODT" name="BODT" netid="KO" insttype="CMG-3ESP" lat="37.0622" lon="27.3103">
    <comp name="--.HHZ">
      <acc value="0.0185896021" flag="0"/>
      <vel value="0.0094638211" flag="0"/>
      <psa03 value="0.0426106298" flag="0"/>
      <psa10 value="0.0061446966" flag="0"/>
      <psa30 value="0.0003717415" flag="0"/>
    </comp>
    <comp name="--.HHE">
      <acc value="0.0503076931" flag="0"/>
      <vel value="0.0290387503" flag="0"/>
      <psa03 value="0.0878814576" flag="0"/>
      <psa10 value="0.0296406242" flag="0"/>
      <psa30 value="0.0014015940" flag="0"/>
    </comp>
    <comp name="--.HHN">
      <acc value="0.0299210643" flag="0"/>
      <vel value="0.0149297055" flag="0"/>
      <psa03 value="0.0735886776" flag="0"/>
      <psa10 value="0.0097680252" flag="0"/>
      <psa30 value="0.0010407322" flag="0"/>
    </comp>
  </station>
  <station code="DIDI" name="DIDI" netid="KO" insttype="CMG-5T" lat="37.3767" lon="27.2398">
    <comp name="--.HNE">
      <acc value="0.2689681103" flag="0"/>
      <vel value="0.1361109282" flag="0"/>
      <psa03 value="0.9323541606" flag="0"/>
      <psa10 value="0.0740722219" flag="0"/>
      <psa30 value="0.0050797178" flag="0"/>
    </comp>
    <comp name="--.HNN">
      <acc value="0.1801999685" flag="0"/>
      <vel value="0.0913631419" flag="0"/>
      <psa03 value="0.6104334297" flag="0"/>
      <psa10 value="0.0501661894" flag="0"/>
      <psa30 value="0.0036506052" flag="0"/>
    </comp>
    <comp name="--.HNZ">
      <acc value="0.2333829108" flag="0"/>
      <vel value="0.0700793400" flag="0"/>
      <psa03 value="0.4762079434" flag="0"/>
      <psa10 value="0.0280144634" flag="0"/>
      <psa30 value="0.0022046688" flag="0"/>
    </comp>
  </station>
  <station code="GMLD" name="GMLD" netid="KO" insttype="CMG-5T" lat="38.0766" lon="26.9157">
    <comp name="--.HNE">
      <acc value="0.1973021999" flag="0"/>
      <vel value="0.0893590751" flag="0"/>
      <psa03 value="0.4539361636" flag="0"/>
      <psa10 value="0.0534264692" flag="0"/>
      <psa30 value="0.0036424476" flag="0"/>
    </comp>
    <comp name="--.HNN">
      <acc value="0.2106044999" flag="0"/>
      <vel value="0.1069164975" flag="0"/>
      <psa03 value="0.5128844757" flag="0"/>
      <psa10 value="0.0699295816" flag="0"/>
      <psa30 value="0.0048786315" flag="0"/>
    </comp>
    <comp name="--.HNZ">
      <acc value="0.1336097245" flag="0"/>
      <vel value="0.0412792067" flag="0"/>
      <psa03 value="0.3351271864" flag="0"/>
      <psa10 value="0.0182373442" flag="0"/>
      <psa30 value="0.0012165131" flag="0"/>
    </comp>
  </station>
  <station code="GOMA" name="GOMA" netid="KO" insttype="CMG-5T" lat="38.7077" lon="27.9175">
    <comp name="--.HNE">
      <acc value="0.0183540236" flag="0"/>
      <vel value="0.0076029513" flag="0"/>
      <psa03 value="0.0558441320" flag="0"/>
      <psa10 value="0.0045631262" flag="0"/>
      <psa30 value="0.0003524044" flag="0"/>
    </comp>
    <comp name="--.HNZ">
      <acc value="0.0103071840" flag="0"/>
      <vel value="0.0040711013" flag="0"/>
      <psa03 value="0.0235595562" flag="0"/>
      <psa10 value="0.0034467101" flag="0"/>
      <psa30 value="0.0003403816" flag="0"/>
    </comp>
  </station>
  <station code="KUSD" name="KUSD" netid="KO" insttype="CMG-5T" lat="37.8606" lon="27.2868">
    <comp name="--.HNE">
      <acc value="0.4531175379" flag="0"/>
      <vel value="0.1345402111" flag="0"/>
      <psa03 value="0.5394906863" flag="0"/>
      <psa10 value="0.0729774334" flag="0"/>
      <psa30 value="0.0045706819" flag="0"/>
    </comp>
    <comp name="--.HNN">
      <acc value="0.6147098745" flag="0"/>
      <vel value="0.1614416160" flag="0"/>
      <psa03 value="0.7595300598" flag="0"/>
      <psa10 value="0.0752085724" flag="0"/>
      <psa30 value="0.0065365101" flag="0"/>
    </comp>
    <comp name="--.HNZ">
      <acc value="0.3544511145" flag="0"/>
      <vel value="0.0722844346" flag="0"/>
      <psa03 value="0.4033599929" flag="0"/>
      <psa10 value="0.0324130949" flag="0"/>
      <psa30 value="0.0025214045" flag="0"/>
    </comp>
  </station>
  <station code="MLSB" name="MLSB" netid="KO" insttype="CMG-3ESP" lat="37.2953" lon="27.7767">
    <comp name="--.HHZ">
      <acc value="0.0165982426" flag="0"/>
      <vel value="0.0081412342" flag="0"/>
      <psa03 value="0.0287561668" flag="0"/>
      <psa10 value="0.0064183040" flag="0"/>
      <psa30 value="0.0004924869" flag="0"/>
    </comp>
  </station>
  <station code="NAZL" name="NAZL" netid="KO" insttype="CMG-5T" lat="37.9641" lon="28.2922">
    <comp name="--.HNN">
      <acc value="0.0882453156" flag="0"/>
      <vel value="0.0343436796" flag="0"/>
      <psa03 value="0.1385736315" flag="0"/>
      <psa10 value="0.0369983163" flag="0"/>
      <psa30 value="0.0020904015" flag="0"/>
    </comp>
    <comp name="--.HNZ">
      <acc value="0.0294784195" flag="0"/>
      <vel value="0.0138797420" flag="0"/>
      <psa03 value="0.0624859691" flag="0"/>
      <psa10 value="0.0119117464" flag="0"/>
      <psa30 value="0.0007623301" flag="0"/>
    </comp>
    <comp name="--.HNE">
      <acc value="0.0787285515" flag="0"/>
      <vel value="0.0413179149" flag="0"/>
      <psa03 value="0.2555996333" flag="0"/>
      <psa10 value="0.0357397877" flag="0"/>
      <psa30 value="0.0018606996" flag="0"/>
    </comp>
  </station>
  <station code="ODEM" name="ODEM" netid="KO" insttype="CMG-5T" lat="38.2762" lon="28.0747">
    <comp name="--.HNE">
      <acc value="0.0235074240" flag="0"/>
      <vel value="0.0080812845" flag="0"/>
      <psa03 value="0.0508251389" flag="0"/>
      <psa10 value="0.0086658280" flag="0"/>
      <psa30 value="0.0006182452" flag="0"/>
    </comp>
    <comp name="--.HNN">
      <acc value="0.0245920714" flag="0"/>
      <vel value="0.0128125477" flag="0"/>
      <psa03 value="0.0476842526" flag="0"/>
      <psa10 value="0.0078546291" flag="0"/>
      <psa30 value="0.0006151918" flag="0"/>
    </comp>
    <comp name="--.HNZ">
      <acc value="0.0197527106" flag="0"/>
      <vel value="0.0074406933" flag="0"/>
      <psa03 value="0.0296480073" flag="0"/>
      <psa10 value="0.0064026840" flag="0"/>
      <psa30 value="0.0004370228" flag="0"/>
    </comp>
  </station>
  <station code="AYDN" name="AYDN" netid="TU" insttype="T" lat="37.6608" lon="27.8792">
    <comp name="--.HHZ">
      <acc value="0.1492584004" flag="0"/>
      <vel value="0.0320013321" flag="0"/>
      <psa03 value="0.0589516055" flag="0"/>
      <psa10 value="0.0204722609" flag="0"/>
      <psa30 value="0.0012767113" flag="0"/>
    </comp>
    <comp name="--.HHN">
      <acc value="0.1535262942" flag="0"/>
      <vel value="0.0395380121" flag="0"/>
      <psa03 value="0.2149192721" flag="0"/>
      <psa10 value="0.0284392792" flag="0"/>
      <psa30 value="0.0021099314" flag="0"/>
    </comp>
    <comp name="--.HHE">
      <acc value="0.2616726688" flag="0"/>
      <vel value="0.0556611314" flag="0"/>
      <psa03 value="0.1754777019" flag="0"/>
      <psa10 value="0.0314937550" flag="0"/>
      <psa30 value="0.0018784336" flag="0"/>
    </comp>
  </station>
</stationlist>
