<?xml version="1.0" encoding="UTF-8" standalone="yes"?>
<!DOCTYPE earthquake SYSTEM "stationlist.dtd">
<stationlist created="" xmlns="ch.ethz.sed.shakemap.usgs.xml">
  <station code="KOSP" name="KOSP" netid="HC" insttype="60" lat="36.881" lon="27.281">
    <comp name="--.HHE">
      <acc value="0.0255863735" flag="0"/>
      <vel value="0.0235401991" flag="0"/>
      <psa03 value="0.0603327981" flag="0"/>
      <psa10 value="0.0177902289" flag="0"/>
      <psa30 value="0.0015868054" flag="0"/>
    </comp>
    <comp name="--.HHN">
      <acc value="0.0203481928" flag="0"/>
      <vel value="0.0120486405" flag="0"/>
      <psa03 value="0.0570206679" flag="0"/>
      <psa10 value="0.0163067937" flag="0"/>
      <psa30 value="0.0013033353" flag="0"/>
    </comp>
    <comp name="--.HHZ">
      <acc value="0.0119556034" flag="0"/>
      <vel value="0.0064940187" flag="0"/>
      <psa03 value="0.0348293259" flag="0"/>
      <psa10 value="0.0081914538" flag="0"/>
      <psa30 value="0.0009523114" flag="0"/>
    </comp>
  </station>
  <station code="KRL1" name="KRL1" netid="HI" insttype="CMG-5TD,ACCELEROMETER,GURALP" lat="37.7951" lon="26.7065">
    <comp name="--.HNN">
      <acc value="0.0961656964" flag="0"/>
      <vel value="0.0346706542" flag="0"/>
      <psa03 value="0.1875283477" flag="0"/>
      <psa10 value="0.0309056121" flag="0"/>
      <psa30 value="0.0020979432" flag="0"/>
    </comp>
    <comp name="--.HNE">
      <acc value="0.1826909732" flag="0"/>
      <vel value="0.0671972062" flag="0"/>
      <psa03 value="0.3527170713" flag="0"/>
      <psa10 value="0.0384114052" flag="0"/>
      <psa30 value="0.0028614463" flag="0"/>
    </comp>
    <comp name="--.HNZ">
      <acc value="0.0547733486" flag="0"/>
      <vel value="0.0232306118" flag="0"/>
      <psa03 value="0.1153050650" flag="0"/>
      <psa10 value="0.0221071338" flag="0"/>
      <psa30 value="0.0009237315" flag="0"/>
    </comp>
  </station>
  <station code="KLNA" name="KLNA" netid="HL" insttype="CMG-5" lat="36.9571" lon="26.9727">
    <comp name="00.HNE">
      <acc value="0.0804917093" flag="0"/>
      <vel value="0.0299471247" flag="0"/>
      <psa03 value="0.2502013195" flag="0"/>
      <psa10 value="0.0111528035" flag="0"/>
      <psa30 value="0.0008816437" flag="0"/>
    </comp>
    <comp name="00.HNZ">
      <acc value="0.0587363077" flag="0"/>
      <vel value="0.0293744040" flag="0"/>
      <psa03 value="0.1078190029" flag="0"/>
      <psa10 value="0.0149702504" flag="0"/>
      <psa30 value="0.0006996610" flag="0"/>
    </comp>
    <comp name="00.HNN">
      <acc value="0.0510679161" flag="0"/>
      <vel value="0.0295664909" flag="0"/>
      <psa03 value="0.1818361334" flag="0"/>
      <psa10 value="0.0104804381" flag="0"/>
      <psa30 value="0.0010101862" flag="0"/>
    </comp>
  </station>
  <station code="SMG" name="SMG" netid="HL" insttype="120" lat="37.7043" lon="26.8377">
    <comp name="--.HHE">
      <acc value="0.1668075890" flag="0"/>
      <vel value="0.0749189642" flag="0"/>
      <psa03 value="0.4432846233" flag="0"/>
      <psa10 value="0.0233025285" flag="0"/>
      <psa30 value="0.0018006814" flag="0"/>
    </comp>
    <comp name="--.HHN">
      <acc value="0.1696372260" flag="0"/>
      <vel value="0.0659531041" flag="0"/>
      <psa03 value="0.2461816399" flag="0"/>
      <psa10 value="0.0558026479" flag="0"/>
      <psa30 value="0.0029198838" flag="0"/>
    </comp>
    <comp name="--.HHZ">
      <acc value="0.1396317346" flag="0"/>
      <vel value="0.0430204104" flag="0"/>
      <psa03 value="0.2245798189" flag="0"/>
      <psa10 value="0.0255393987" flag="0"/>
      <psa30 value="0.0015919184" flag="0"/>
    </comp>
  </station>
  <station code="CHOS" name="CHOS" netid="HT" insttype="100" lat="38.3869" lon="26.0506">
    <comp name="--.HHZ">
      <acc value="0.0065152168" flag="0"/>
      <vel value="0.0033300978" flag="0"/>
      <psa03 value="0.0111444866" flag="0"/>
      <psa10 value="0.0038236873" flag="0"/>
      <psa30 value="0.0003521626" flag="0"/>
    </comp>
    <comp name="--.HHE">
      <acc value="0.0179946777" flag="0"/>
      <vel value="0.0076808512" flag="0"/>
      <psa03 value="0.0332469787" flag="0"/>
      <psa10 value="0.0066772514" flag="0"/>
      <psa30 value="0.0005172640" flag="0"/>
    </comp>
    <comp name="--.HHN">
      <acc value="0.0108089999" flag="0"/>
      <vel value="0.0057384129" flag="0"/>
      <psa03 value="0.0241854633" flag="0"/>
      <psa10 value="0.0043702849" flag="0"/>
      <psa30 value="0.0004381481" flag="0"/>
    </comp>
  </station>
  <station code="BLCB" name="BLCB" netid="KO" insttype="CMG-3T" lat="38.3853" lon="27.042">
    <comp name="--.HHE">
      <acc value="0.0870620538" flag="0"/>
      <vel value="0.0287112956" flag="0"/>
      <psa03 value="0.1875916771" flag="0"/>
      <psa10 value="0.0148860066" flag="0"/>
      <psa30 value="0.0008715062" flag="0"/>
    </comp>
    <comp name="--.HHN">
      <acc value="0.0000590945" flag="0"/>
      <vel value="0.0000149552" flag="0"/>
      <psa03 value="0.0001005703" flag="0"/>
      <psa10 value="0.0000057496" flag="0"/>
      <psa30 value="0.0000004462" flag="0"/>
    </comp>
    <comp name="--.HHZ">
      <acc value="0.0320982718" flag="0"/>
      <vel value="0.0109904436" flag="0"/>
      <psa03 value="0.0552834344" flag="0"/>
      <psa10 value="0.0045486850" flag="0"/>
      <psa30 value="0.0004068682" flag="0"/>
    </comp>
  </station>
  <station code="BODA" name="BODA" netid="KO" insttype="ACEBOX" lat="37.0348" lon="27.4304">
    <comp name="--.HNZ">
      <acc value="0.0161530255" flag="0"/>
      <vel value="0.0054390476" flag="0"/>
      <psa03 value="0.0400335680" flag="0"/>
      <psa10 value="0.0050039497" flag="0"/>
      <psa30 value="0.0004020684" flag="0"/>
    </comp>
    <comp name="--.HNN">
      <acc value="0.0390245368" flag="0"/>
      <vel value="0.0169010426" flag="0"/>
      <psa03 value="0.1448966364" flag="0"/>
      <psa10 value="0.0078159894" flag="0"/>
      <psa30 value="0.0007920432" flag="0"/>
    </comp>
    <comp name="--.HNE">
      <acc value="0.0474299399" flag="0"/>
      <vel value="0.0222282123" flag="0"/>
      <psa03 value="0.1388637270" flag="0"/>
      <psa10 value="0.0092100118" flag="0"/>
      <psa30 value="0.0010012487" flag="0"/>
    </comp>
  </station>
  <station code="BODM" name="BODM" netid="KO" insttype="ACEBOX" lat="37.031" lon="27.4247">
    <comp name="--.HNE">
      <acc value="0.0576324279" flag="0"/>
      <vel value="0.0359645587" flag="0"/>
      <psa03 value="0.1477247716" flag="0"/>
      <psa10 value="0.0215221072" flag="0"/>
      <psa30 value="0.0013830157" flag="0"/>
    </comp>
    <comp name="--.HNN">
      <acc value="0.0555581549" flag="0"/>
      <vel value="0.0360009391" flag="0"/>
      <psa03 value="0.1408766510" flag="0"/>
      <psa10 value="0.0137606870" flag="0"/>
      <psa30 value="0.0012303205" flag="0"/>
    </comp>
    <comp name="--.HNZ">
      <acc value="0.0156776454" flag="0"/>
      <vel value="0.0077646492" flag="0"/>
      <psa03 value="0.0419904154" flag="0"/>
      <psa10 value="0.0067063183" flag="0"/>
      <psa30 value="0.0003490296" flag="0"/>
    </comp>
  </station>
  <station code="BODT" name="BODT" netid="KO" insttype="CMG-3ESP" lat="37.0622" lon="27.3103">
    <comp name="--.HHZ">
      <acc value="0.0185896020" flag="0"/>
      <vel value="0.0094638200" flag="0"/>
      <psa03 value="0.0426106298" flag="0"/>
      <psa10 value="0.0061446964" flag="0"/>
      <psa30 value="0.0003717331" flag="0"/>
    </comp>
    <comp name="--.HHE">
      <acc value="0.0503076931" flag="0"/>
      <vel value="0.0290387504" flag="0"/>
      <psa03 value="0.0878814576" flag="0"/>
      <psa10 value="0.0296406240" flag="0"/>
      <psa30 value="0.0014015860" flag="0"/>
    </comp>
    <comp name="--.HHN">
      <acc value="0.0299210643" flag="0"/>
      <vel value="0.0149297045" flag="0"/>
      <psa03 value="0.0735886776" flag="0"/>
      <psa10 value="0.0097680256" flag="0"/>
      <psa30 value="0.0010407580" flag="0"/>
    </comp>
  </station>
  <station code="DIDI" name="DIDI" netid="KO" insttype="CMG-5T" lat="37.3767" lon="27.2398">
    <comp name="--.HNE">
      <acc value="0.2689681091" flag="0"/>
      <vel value="0.1361109296" flag="0"/>
      <psa03 value="0.9323541606" flag="0"/>
      <psa10 value="0.0740722369" flag="0"/>
      <psa30 value="0.0050836479" flag="0"/>
    </comp>
    <comp name="--.HNZ">
      <acc value="0.2333829187" flag="0"/>
      <vel value="0.0700793399" flag="0"/>
      <psa03 value="0.4762079434" flag="0"/>
      <psa10 value="0.0280144702" flag="0"/>
      <psa30 value="0.0022069400" flag="0"/>
    </comp>
    <comp name="--.HNN">
      <acc value="0.1801999652" flag="0"/>
      <vel value="0.0913631479" flag="0"/>
      <psa03 value="0.6104334297" flag="0"/>
      <psa10 value="0.0501661892" flag="0"/>
      <psa30 value="0.0036492678" flag="0"/>
    </comp>
  </station>
  <station code="GMLD" name="GMLD" netid="KO" insttype="CMG-5T" lat="38.0766" lon="26.9157">
    <comp name="--.HNE">
      <acc value="0.1973021979" flag="0"/>
      <vel value="0.0893590451" flag="0"/>
      <psa03 value="0.4539361636" flag="0"/>
      <psa10 value="0.0534264805" flag="0"/>
      <psa30 value="0.0036429370" flag="0"/>
    </comp>
    <comp name="--.HNN">
      <acc value="0.2106045045" flag="0"/>
      <vel value="0.1069165035" flag="0"/>
      <psa03 value="0.5128844757" flag="0"/>
      <psa10 value="0.0699295638" flag="0"/>
      <psa30 value="0.0048777843" flag="0"/>
    </comp>
    <comp name="--.HNZ">
      <acc value="0.1336097250" flag="0"/>
      <vel value="0.0412792191" flag="0"/>
      <psa03 value="0.3351271864" flag="0"/>
      <psa10 value="0.0182373681" flag="0"/>
      <psa30 value="0.0012206590" flag="0"/>
    </comp>
  </station>
  <station code="GOMA" name="GOMA" netid="KO" insttype="CMG-5T" lat="38.7077" lon="27.9175">
    <comp name="--.HNE">
      <acc value="0.0183540184" flag="0"/>
      <vel value="0.0076029470" flag="0"/>
      <psa03 value="0.0558441320" flag="0"/>
      <psa10 value="0.0045631262" flag="0"/>
      <psa30 value="0.0003538405" flag="0"/>
    </comp>
    <comp name="--.HNZ">
      <acc value="0.0103071841" flag="0"/>
      <vel value="0.0040711142" flag="0"/>
      <psa03 value="0.0235595562" flag="0"/>
      <psa10 value="0.0034467100" flag="0"/>
      <psa30 value="0.0003405572" flag="0"/>
    </comp>
  </station>
  <station code="KUSD" name="KUSD" netid="KO" insttype="CMG-5T" lat="37.8606" lon="27.2868">
    <comp name="--.HNE">
      <acc value="0.4531175334" flag="0"/>
      <vel value="0.1345402093" flag="0"/>
      <psa03 value="0.5394906863" flag="0"/>
      <psa10 value="0.0729774764" flag="0"/>
      <psa30 value="0.0045683608" flag="0"/>
    </comp>
    <comp name="--.HNN">
      <acc value="0.6147098753" flag="0"/>
      <vel value="0.1614416282" flag="0"/>
      <psa03 value="0.7595300598" flag="0"/>
      <psa10 value="0.0752085233" flag="0"/>
      <psa30 value="0.0065369304" flag="0"/>
    </comp>
    <comp name="--.HNZ">
      <acc value="0.3544511295" flag="0"/>
      <vel value="0.0722844345" flag="0"/>
      <psa03 value="0.4033599929" flag="0"/>
      <psa10 value="0.0324131031" flag="0"/>
      <psa30 value="0.0025161705" flag="0"/>
    </comp>
  </station>
  <station code="MLSB" name="MLSB" netid="KO" insttype="CMG-3ESP" lat="37.2953" lon="27.7767">
    <comp name="--.HHZ">
      <acc value="0.0165982425" flag="0"/>
      <vel value="0.0081412342" flag="0"/>
      <psa03 value="0.0287561668" flag="0"/>
      <psa10 value="0.0064183040" flag="0"/>
      <psa30 value="0.0004924855" flag="0"/>
    </comp>
  </station>
  <station code="NAZL" name="NAZL" netid="KO" insttype="CMG-5T" lat="37.9641" lon="28.2922">
    <comp name="--.HNE">
      <acc value="0.0787285539" flag="0"/>
      <vel value="0.0413179150" flag="0"/>
      <psa03 value="0.2555996333" flag="0"/>
      <psa10 value="0.0357397880" flag="0"/>
      <psa30 value="0.0018603649" flag="0"/>
    </comp>
    <comp name="--.HNN">
      <acc value="0.0882453133" flag="0"/>
      <vel value="0.0343436781" flag="0"/>
      <psa03 value="0.1385736315" flag="0"/>
      <psa10 value="0.0369983158" flag="0"/>
      <psa30 value="0.0020908872" flag="0"/>
    </comp>
    <comp name="--.HNZ">
      <acc value="0.0294784205" flag="0"/>
      <vel value="0.0138797408" flag="0"/>
      <psa03 value="0.0624859691" flag="0"/>
      <psa10 value="0.0119117465" flag="0"/>
      <psa30 value="0.0007617034" flag="0"/>
    </comp>
  </station>
  <station code="ODEM" name="ODEM" netid="KO" insttype="CMG-5T" lat="38.2762" lon="28.0747">
    <comp name="--.HNE">
      <acc value="0.0235074260" flag="0"/>
      <vel value="0.0080812742" flag="0"/>
      <psa03 value="0.0508251389" flag="0"/>
      <psa10 value="0.0086658238" flag="0"/>
      <psa30 value="0.0006174183" flag="0"/>
    </comp>
    <comp name="--.HNN">
      <acc value="0.0245920733" flag="0"/>
      <vel value="0.0128125465" flag="0"/>
      <psa03 value="0.0476842526" flag="0"/>
      <psa10 value="0.0078546290" flag="0"/>
      <psa30 value="0.0006143555" flag="0"/>
    </comp>
    <comp name="--.HNZ">
      <acc value="0.0197527100" flag="0"/>
      <vel value="0.0074406887" flag="0"/>
      <psa03 value="0.0296480073" flag="0"/>
      <psa10 value="0.0064026835" flag="0"/>
      <psa30 value="0.0004380796" flag="0"/>
    </comp>
  </station>
  <station code="AYDN" name="AYDN" netid="TU" insttype="T" lat="37.6608" lon="27.8792">
    <comp name="--.HHE">
      <acc value="0.2616726687" flag="0"/>
      <vel value="0.0556611311" flag="0"/>
      <psa03 value="0.1754777019" flag="0"/>
      <psa10 value="0.0314937550" flag="0"/>
      <psa30 value="0.0018784118" flag="0"/>
    </comp>
    <comp name="--.HHN">
      <acc value="0.1535262942" flag="0"/>
      <vel value="0.0395380120" flag="0"/>
      <psa03 value="0.2149192721" flag="0"/>
      <psa10 value="0.0284392791" flag="0"/>
      <psa30 value="0.0021099100" flag="0"/>
    </comp>
    <comp name="--.HHZ">
      <acc value="0.1492584001" flag="0"/>
      <vel value="0.0320013325" flag="0"/>
      <psa03 value="0.0589516055" flag="0"/>
      <psa10 value="0.0204722612" flag="0"/>
      <psa30 value="0.0012767602" flag="0"/>
    </comp>
  </station>
</stationlist>
