<?xml version="1.0" encoding="UTF-8" standalone="yes"?>
<!DOCTYPE earthquake SYSTEM "stationlist.dtd">
<stationlist created="" xmlns="ch.ethz.sed.shakemap.usgs.xml">
  <station code="KOSP" name="KOSP" netid="HC" insttype="60" lat="36.881" lon="27.281">
    <comp name="--.HHE">
      <acc value="0.0255863735" flag="0"/>
      <vel value="0.0235402006" flag="0"/>
      <psa03 value="0.0603327981" flag="0"/>
      <psa10 value="0.0177902289" flag="0"/>
      <psa30 value="0.0015868042" flag="0"/>
    </comp>
    <comp name="--.HHZ">
      <acc value="0.0119556034" flag="0"/>
      <vel value="0.0064940185" flag="0"/>
      <psa03 value="0.0348293259" flag="0"/>
      <psa10 value="0.0081914538" flag="0"/>
      <psa30 value="0.0009523150" flag="0"/>
    </comp>
    <comp name="--.HHN">
      <acc value="0.0203481928" flag="0"/>
      <vel value="0.0120486406" flag="0"/>
      <psa03 value="0.0570206679" flag="0"/>
      <psa10 value="0.0163067937" flag="0"/>
      <psa30 value="0.0013033707" flag="0"/>
    </comp>
  </station>
  <station code="KRL1" name="KRL1" netid="HI" insttype="CMG-5TD,ACCELEROMETER,GURALP" lat="37.7951" lon="26.7065">
    <comp name="--.HNE">
      <acc value="0.1826909732" flag="0"/>
      <vel value="0.0671972062" flag="0"/>
      <psa03 value="0.3527170713" flag="0"/>
      <psa10 value="0.0384114052" flag="0"/>
      <psa30 value="0.0028614508" flag="0"/>
    </comp>
    <comp name="--.HNN">
      <acc value="0.0961656965" flag="0"/>
      <vel value="0.0346706540" flag="0"/>
      <psa03 value="0.1875283477" flag="0"/>
      <psa10 value="0.0309056130" flag="0"/>
      <psa30 value="0.0020980064" flag="0"/>
    </comp>
    <comp name="--.HNZ">
      <acc value="0.0547733489" flag="0"/>
      <vel value="0.0232306118" flag="0"/>
      <psa03 value="0.1153050650" flag="0"/>
      <psa10 value="0.0221071338" flag="0"/>
      <psa30 value="0.0009237065" flag="0"/>
    </comp>
  </station>
  <station code="KLNA" name="KLNA" netid="HL" insttype="CMG-5" lat="36.9571" lon="26.9727">
    <comp name="00.HNE">
      <acc value="0.0804917092" flag="0"/>
      <vel value="0.0299471248" flag="0"/>
      <psa03 value="0.2502013195" flag="0"/>
      <psa10 value="0.0111528037" flag="0"/>
      <psa30 value="0.0008816951" flag="0"/>
    </comp>
    <comp name="00.HNZ">
      <acc value="0.0587363076" flag="0"/>
      <vel value="0.0293744040" flag="0"/>
      <psa03 value="0.1078190029" flag="0"/>
      <psa10 value="0.0149702504" flag="0"/>
      <psa30 value="0.0006996531" flag="0"/>
    </comp>
    <comp name="00.HNN">
      <acc value="0.0510679161" flag="0"/>
      <vel value="0.0295664911" flag="0"/>
      <psa03 value="0.1818361334" flag="0"/>
      <psa10 value="0.0104804382" flag="0"/>
      <psa30 value="0.0010102098" flag="0"/>
    </comp>
  </station>
  <station code="SMG" name="SMG" netid="HL" insttype="120" lat="37.7043" lon="26.8377">
    <comp name="--.HHE">
      <acc value="0.1668075891" flag="0"/>
      <vel value="0.0749189642" flag="0"/>
      <psa03 value="0.4432846233" flag="0"/>
      <psa10 value="0.0233025294" flag="0"/>
      <psa30 value="0.0018006761" flag="0"/>
    </comp>
    <comp name="--.HHN">
      <acc value="0.1696372260" flag="0"/>
      <vel value="0.0659531040" flag="0"/>
      <psa03 value="0.2461816399" flag="0"/>
      <psa10 value="0.0558026473" flag="0"/>
      <psa30 value="0.0029198962" flag="0"/>
    </comp>
    <comp name="--.HHZ">
      <acc value="0.1396317346" flag="0"/>
      <vel value="0.0430204104" flag="0"/>
      <psa03 value="0.2245798189" flag="0"/>
      <psa10 value="0.0255393986" flag="0"/>
      <psa30 value="0.0015919130" flag="0"/>
    </comp>
  </station>
  <station code="CHOS" name="CHOS" netid="HT" insttype="100" lat="38.3869" lon="26.0506">
    <comp name="--.HHE">
      <acc value="0.0179946777" flag="0"/>
      <vel value="0.0076808512" flag="0"/>
      <psa03 value="0.0332469787" flag="0"/>
      <psa10 value="0.0066772514" flag="0"/>
      <psa30 value="0.0005172640" flag="0"/>
    </comp>
    <comp name="--.HHN">
      <acc value="0.0108089999" flag="0"/>
      <vel value="0.0057384128" flag="0"/>
      <psa03 value="0.0241854633" flag="0"/>
      <psa10 value="0.0043702849" flag="0"/>
      <psa30 value="0.0004381468" flag="0"/>
    </comp>
    <comp name="--.HHZ">
      <acc value="0.0065152168" flag="0"/>
      <vel value="0.0033300978" flag="0"/>
      <psa03 value="0.0111444866" flag="0"/>
      <psa10 value="0.0038236873" flag="0"/>
      <psa30 value="0.0003521621" flag="0"/>
    </comp>
  </station>
  <station code="BLCB" name="BLCB" netid="KO" insttype="CMG-3T" lat="38.3853" lon="27.042">
    <comp name="--.HHE">
      <acc value="0.0870620538" flag="0"/>
      <vel value="0.0287112956" flag="0"/>
      <psa03 value="0.1875916771" flag="0"/>
      <psa10 value="0.0148860066" flag="0"/>
      <psa30 value="0.0008715059" flag="0"/>
    </comp>
    <comp name="--.HHZ">
      <acc value="0.0320982718" flag="0"/>
      <vel value="0.0109904436" flag="0"/>
      <psa03 value="0.0552834344" flag="0"/>
      <psa10 value="0.0045486850" flag="0"/>
      <psa30 value="0.0004068682" flag="0"/>
    </comp>
    <comp name="--.HHN">
      <acc value="0.0000590945" flag="0"/>
      <vel value="0.0000149552" flag="0"/>
      <psa03 value="0.0001005703" flag="0"/>
      <psa10 value="0.0000057496" flag="0"/>
      <psa30 value="0.0000004462" flag="0"/>
    </comp>
  </station>
  <station code="BODA" name="BODA" netid="KO" insttype="ACEBOX" lat="37.0348" lon="27.4304">
    <comp name="--.HNE">
      <acc value="0.0474299399" flag="0"/>
      <vel value="0.0222282122" flag="0"/>
      <psa03 value="0.1388637270" flag="0"/>
      <psa10 value="0.0092100120" flag="0"/>
      <psa30 value="0.0010012767" flag="0"/>
    </comp>
    <comp name="--.HNZ">
      <acc value="0.0161530255" flag="0"/>
      <vel value="0.0054390478" flag="0"/>
      <psa03 value="0.0400335680" flag="0"/>
      <psa10 value="0.0050039495" flag="0"/>
      <psa30 value="0.0004020852" flag="0"/>
    </comp>
    <comp name="--.HNN">
      <acc value="0.0390245369" flag="0"/>
      <vel value="0.0169010424" flag="0"/>
      <psa03 value="0.1448966364" flag="0"/>
      <psa10 value="0.0078159893" flag="0"/>
      <psa30 value="0.0007920274" flag="0"/>
    </comp>
  </station>
  <station code="BODM" name="BODM" netid="KO" insttype="ACEBOX" lat="37.031" lon="27.4247">
    <comp name="--.HNE">
      <acc value="0.0576324277" flag="0"/>
      <vel value="0.0359645587" flag="0"/>
      <psa03 value="0.1477247716" flag="0"/>
      <psa10 value="0.0215221068" flag="0"/>
      <psa30 value="0.0013830113" flag="0"/>
    </comp>
    <comp name="--.HNN">
      <acc value="0.0555581550" flag="0"/>
      <vel value="0.0360009387" flag="0"/>
      <psa03 value="0.1408766510" flag="0"/>
      <psa10 value="0.0137606871" flag="0"/>
      <psa30 value="0.0012303278" flag="0"/>
    </comp>
    <comp name="--.HNZ">
      <acc value="0.0156776453" flag="0"/>
      <vel value="0.0077646492" flag="0"/>
      <psa03 value="0.0419904154" flag="0"/>
      <psa10 value="0.0067063186" flag="0"/>
      <psa30 value="0.0003489771" flag="0"/>
    </comp>
  </station>
  <station code="BODT" name="BODT" netid="KO" insttype="CMG-3ESP" lat="37.0622" lon="27.3103">
    <comp name="--.HHN">
      <acc value="0.0299210642" flag="0"/>
      <vel value="0.0149297052" flag="0"/>
      <psa03 value="0.0735886776" flag="0"/>
      <psa10 value="0.0097680256" flag="0"/>
      <psa30 value="0.0010407655" flag="0"/>
    </comp>
    <comp name="--.HHE">
      <acc value="0.0503076931" flag="0"/>
      <vel value="0.0290387509" flag="0"/>
      <psa03 value="0.0878814576" flag="0"/>
      <psa10 value="0.0296406240" flag="0"/>
      <psa30 value="0.0014015868" flag="0"/>
    </comp>
    <comp name="--.HHZ">
      <acc value="0.0185896020" flag="0"/>
      <vel value="0.0094638209" flag="0"/>
      <psa03 value="0.0426106298" flag="0"/>
      <psa10 value="0.0061446963" flag="0"/>
      <psa30 value="0.0003717323" flag="0"/>
    </comp>
  </station>
  <station code="DIDI" name="DIDI" netid="KO" insttype="CMG-5T" lat="37.3767" lon="27.2398">
    <comp name="--.HNE">
      <acc value="0.2689681085" flag="0"/>
      <vel value="0.1361109306" flag="0"/>
      <psa03 value="0.9323541606" flag="0"/>
      <psa10 value="0.0740722374" flag="0"/>
      <psa30 value="0.0050834893" flag="0"/>
    </comp>
    <comp name="--.HNN">
      <acc value="0.1801999647" flag="0"/>
      <vel value="0.0913631465" flag="0"/>
      <psa03 value="0.6104334297" flag="0"/>
      <psa10 value="0.0501661892" flag="0"/>
      <psa30 value="0.0036488959" flag="0"/>
    </comp>
    <comp name="--.HNZ">
      <acc value="0.2333829188" flag="0"/>
      <vel value="0.0700793407" flag="0"/>
      <psa03 value="0.4762079434" flag="0"/>
      <psa10 value="0.0280144727" flag="0"/>
      <psa30 value="0.0022072268" flag="0"/>
    </comp>
  </station>
  <station code="GMLD" name="GMLD" netid="KO" insttype="CMG-5T" lat="38.0766" lon="26.9157">
    <comp name="--.HNE">
      <acc value="0.1973021978" flag="0"/>
      <vel value="0.0893590448" flag="0"/>
      <psa03 value="0.4539361636" flag="0"/>
      <psa10 value="0.0534264806" flag="0"/>
      <psa30 value="0.0036429507" flag="0"/>
    </comp>
    <comp name="--.HNZ">
      <acc value="0.1336097249" flag="0"/>
      <vel value="0.0412792193" flag="0"/>
      <psa03 value="0.3351271864" flag="0"/>
      <psa10 value="0.0182373686" flag="0"/>
      <psa30 value="0.0012206098" flag="0"/>
    </comp>
    <comp name="--.HNN">
      <acc value="0.2106045045" flag="0"/>
      <vel value="0.1069165034" flag="0"/>
      <psa03 value="0.5128844757" flag="0"/>
      <psa10 value="0.0699295635" flag="0"/>
      <psa30 value="0.0048778215" flag="0"/>
    </comp>
  </station>
  <station code="GOMA" name="GOMA" netid="KO" insttype="CMG-5T" lat="38.7077" lon="27.9175">
    <comp name="--.HNZ">
      <acc value="0.0103071846" flag="0"/>
      <vel value="0.0040711134" flag="0"/>
      <psa03 value="0.0235595562" flag="0"/>
      <psa10 value="0.0034467099" flag="0"/>
      <psa30 value="0.0003405635" flag="0"/>
    </comp>
    <comp name="--.HNE">
      <acc value="0.0183540188" flag="0"/>
      <vel value="0.0076029474" flag="0"/>
      <psa03 value="0.0558441320" flag="0"/>
      <psa10 value="0.0045631262" flag="0"/>
      <psa30 value="0.0003537025" flag="0"/>
    </comp>
  </station>
  <station code="KUSD" name="KUSD" netid="KO" insttype="CMG-5T" lat="37.8606" lon="27.2868">
    <comp name="--.HNE">
      <acc value="0.4531175334" flag="0"/>
      <vel value="0.1345402096" flag="0"/>
      <psa03 value="0.5394906863" flag="0"/>
      <psa10 value="0.0729774736" flag="0"/>
      <psa30 value="0.0045684624" flag="0"/>
    </comp>
    <comp name="--.HNN">
      <acc value="0.6147098754" flag="0"/>
      <vel value="0.1614416280" flag="0"/>
      <psa03 value="0.7595300598" flag="0"/>
      <psa10 value="0.0752085271" flag="0"/>
      <psa30 value="0.0065362553" flag="0"/>
    </comp>
    <comp name="--.HNZ">
      <acc value="0.3544511290" flag="0"/>
      <vel value="0.0722844339" flag="0"/>
      <psa03 value="0.4033599929" flag="0"/>
      <psa10 value="0.0324131041" flag="0"/>
      <psa30 value="0.0025166396" flag="0"/>
    </comp>
  </station>
  <station code="MLSB" name="MLSB" netid="KO" insttype="CMG-3ESP" lat="37.2953" lon="27.7767">
    <comp name="--.HHZ">
      <acc value="0.0165982425" flag="0"/>
      <vel value="0.0081412342" flag="0"/>
      <psa03 value="0.0287561668" flag="0"/>
      <psa10 value="0.0064183040" flag="0"/>
      <psa30 value="0.0004924855" flag="0"/>
    </comp>
  </station>
  <station code="NAZL" name="NAZL" netid="KO" insttype="CMG-5T" lat="37.9641" lon="28.2922">
    <comp name="--.HNE">
      <acc value="0.0787285538" flag="0"/>
      <vel value="0.0413179150" flag="0"/>
      <psa03 value="0.2555996333" flag="0"/>
      <psa10 value="0.0357397879" flag="0"/>
      <psa30 value="0.0018604020" flag="0"/>
    </comp>
    <comp name="--.HNZ">
      <acc value="0.0294784204" flag="0"/>
      <vel value="0.0138797409" flag="0"/>
      <psa03 value="0.0624859691" flag="0"/>
      <psa10 value="0.0119117465" flag="0"/>
      <psa30 value="0.0007617421" flag="0"/>
    </comp>
    <comp name="--.HNN">
      <acc value="0.0882453134" flag="0"/>
      <vel value="0.0343436777" flag="0"/>
      <psa03 value="0.1385736315" flag="0"/>
      <psa10 value="0.0369983157" flag="0"/>
      <psa30 value="0.0020909125" flag="0"/>
    </comp>
  </station>
  <station code="ODEM" name="ODEM" netid="KO" insttype="CMG-5T" lat="38.2762" lon="28.0747">
    <comp name="--.HNE">
      <acc value="0.0235074259" flag="0"/>
      <vel value="0.0080812749" flag="0"/>
      <psa03 value="0.0508251389" flag="0"/>
      <psa10 value="0.0086658240" flag="0"/>
      <psa30 value="0.0006170876" flag="0"/>
    </comp>
    <comp name="--.HNN">
      <acc value="0.0245920731" flag="0"/>
      <vel value="0.0128125465" flag="0"/>
      <psa03 value="0.0476842526" flag="0"/>
      <psa10 value="0.0078546290" flag="0"/>
      <psa30 value="0.0006144188" flag="0"/>
    </comp>
    <comp name="--.HNZ">
      <acc value="0.0197527101" flag="0"/>
      <vel value="0.0074406888" flag="0"/>
      <psa03 value="0.0296480073" flag="0"/>
      <psa10 value="0.0064026836" flag="0"/>
      <psa30 value="0.0004379157" flag="0"/>
    </comp>
  </station>
  <station code="AYDN" name="AYDN" netid="TU" insttype="T" lat="37.6608" lon="27.8792">
    <comp name="--.HHE">
      <acc value="0.2616726687" flag="0"/>
      <vel value="0.0556611312" flag="0"/>
      <psa03 value="0.1754777019" flag="0"/>
      <psa10 value="0.0314937550" flag="0"/>
      <psa30 value="0.0018784108" flag="0"/>
    </comp>
    <comp name="--.HHZ">
      <acc value="0.1492584002" flag="0"/>
      <vel value="0.0320013324" flag="0"/>
      <psa03 value="0.0589516055" flag="0"/>
      <psa10 value="0.0204722612" flag="0"/>
      <psa30 value="0.0012767611" flag="0"/>
    </comp>
    <comp name="--.HHN">
      <acc value="0.1535262942" flag="0"/>
      <vel value="0.0395380120" flag="0"/>
      <psa03 value="0.2149192721" flag="0"/>
      <psa10 value="0.0284392791" flag="0"/>
      <psa30 value="0.0021099097" flag="0"/>
    </comp>
  </station>
</stationlist>
