<?xml version="1.0" encoding="UTF-8" standalone="yes"?>
<!DOCTYPE earthquake SYSTEM "stationlist.dtd">
<stationlist created="" xmlns="ch.ethz.sed.shakemap.usgs.xml">
  <station code="THERA" name="THERA" netid="GE" insttype="STS-2/N" lat="36.367" lon="25.4753">
    <comp name="--.HHE">
      <acc value="0.1563905406" flag="0"/>
      <vel value="0.0415011261" flag="0"/>
      <psa03 value="0.1877734024" flag="0"/>
      <psa10 value="0.0175553239" flag="0"/>
      <psa30 value="0.0021060865" flag="0"/>
    </comp>
    <comp name="--.HHN">
      <acc value="0.1243026945" flag="0"/>
      <vel value="0.0256769690" flag="0"/>
      <psa03 value="0.1970031921" flag="0"/>
      <psa10 value="0.0113184898" flag="0"/>
      <psa30 value="0.0017170525" flag="0"/>
    </comp>
    <comp name="--.HHZ">
      <acc value="0.1184727388" flag="0"/>
      <vel value="0.0328146237" flag="0"/>
      <psa03 value="0.1320459098" flag="0"/>
      <psa10 value="0.0208649183" flag="0"/>
      <psa30 value="0.0023260102" flag="0"/>
    </comp>
  </station>
</stationlist>
