<stationlist created="1739419355">
	<station code="ABEA" name="ABEA" netid="HC" source="Seismological Network of Crete (HC)" insttype="" lat="35.5163" lon="24.0113">
		<comp name=".HNE" depth="0.0">
			<acc value="0.00517266972864" flag="0"/>
			<vel value="0.00272255413676" flag="0"/>
			<psa03 value="0.0103188170345369" flag="0"/>
			<psa10 value="0.00402942583593233" flag="0"/>
			<psa30 value="0.000779367462601604" flag="0"/>
		</comp>
		<comp name=".HNN" depth="0.0">
			<acc value="0.0061322502448392" flag="0"/>
			<vel value="0.003066000428" flag="0"/>
			<psa03 value="0.00936561131121266" flag="0"/>
			<psa10 value="0.00268521796063774" flag="0"/>
			<psa30 value="0.000634313738922653" flag="0"/>
		</comp>
		<comp name=".HNZ" depth="0.0">
			<acc value="0.012594133690656" flag="0"/>
			<vel value="0.00195854511651" flag="0"/>
			<psa03 value="0.00716734003547656" flag="0"/>
			<psa10 value="0.00212168547312434" flag="0"/>
			<psa30 value="0.000802129230877108" flag="0"/>
		</comp>
	</station>
	<station code="ATEI" name="ATEI" netid="HC" source="Seismological Network of Crete (HC)" insttype="" lat="35.5193" lon="24.0432">
		<comp name=".HNE" depth="0.0">
			<acc value="0.006045723395031" flag="0"/>
			<vel value="0.0031600111895" flag="0"/>
			<psa03 value="0.015246401926373" flag="0"/>
			<psa10 value="0.00299461415973943" flag="0"/>
			<psa30 value="0.00107900887487695" flag="0"/>
		</comp>
		<comp name=".HNN" depth="0.0">
			<acc value="0.0065408618166942" flag="0"/>
			<vel value="0.00355329317125" flag="0"/>
			<psa03 value="0.0179188471919222" flag="0"/>
			<psa10 value="0.00505944328827871" flag="0"/>
			<psa30 value="0.00084521468924361" flag="0"/>
		</comp>
		<comp name=".HNZ" depth="0.0">
			<acc value="0.0047700838525626" flag="0"/>
			<vel value="0.00269540309312" flag="0"/>
			<psa03 value="0.0133873933595107" flag="0"/>
			<psa10 value="0.00450593052703215" flag="0"/>
			<psa30 value="0.00104428282444686" flag="0"/>
		</comp>
	</station>
	<station code="G0LD" name="G0LD" netid="HC" source="Seismological Network of Crete (HC)" insttype="" lat="35.4955" lon="24.0306">
		<comp name=".HNE" depth="0.0">
			<acc value="0.009873916520637" flag="0"/>
			<vel value="0.00322047182764" flag="0"/>
			<psa03 value="0.0125887818616819" flag="0"/>
			<psa10 value="0.00322723996068429" flag="0"/>
			<psa30 value="0.00165306825765939" flag="0"/>
		</comp>
		<comp name=".HNN" depth="0.0">
			<acc value="0.014325163314486" flag="0"/>
			<vel value="0.00335489185133" flag="0"/>
			<psa03 value="0.0107328705052145" flag="0"/>
			<psa10 value="0.00410752147813892" flag="0"/>
			<psa30 value="0.00110600983022443" flag="0"/>
		</comp>
		<comp name=".HNZ" depth="0.0">
			<acc value="0.01058791124229" flag="0"/>
			<vel value="0.00502857734571" flag="0"/>
			<psa03 value="0.0068977219141628" flag="0"/>
			<psa10 value="0.00291482528036998" flag="0"/>
			<psa30 value="0.0024081236930445" flag="0"/>
		</comp>
	</station>
	<station code="PASK" name="PASK" netid="HC" source="Seismological Network of Crete (HC)" insttype="" lat="35.4996" lon="24.0121">
		<comp name=".HNE" depth="0.0">
			<acc value="0.0098158063489254" flag="0"/>
			<vel value="0.00554552240072" flag="0"/>
			<psa03 value="0.0298416096726664" flag="0"/>
			<psa10 value="0.00727322853443717" flag="0"/>
			<psa30 value="0.00087717540023403" flag="0"/>
		</comp>
		<comp name=".HNN" depth="0.0">
			<acc value="0.0093173267377728" flag="0"/>
			<vel value="0.00511051280911" flag="0"/>
			<psa03 value="0.0238462880328874" flag="0"/>
			<psa10 value="0.00881480518759041" flag="0"/>
			<psa30 value="0.000934694106395343" flag="0"/>
		</comp>
		<comp name=".HNZ" depth="0.0">
			<acc value="0.007363986824469" flag="0"/>
			<vel value="0.00316707360442" flag="0"/>
			<psa03 value="0.0173492716999212" flag="0"/>
			<psa10 value="0.00484865635594567" flag="0"/>
			<psa30 value="0.000965041637604882" flag="0"/>
		</comp>
	</station>
	<station code="POLY" name="POLY" netid="HC" source="Seismological Network of Crete (HC)" insttype="" lat="35.5226" lon="24.0602">
		<comp name=".HNE" depth="0.0">
			<acc value="0.0023796263617668" flag="0"/>
			<vel value="0.00250925785753" flag="0"/>
			<psa03 value="0.00386272756642959" flag="0"/>
			<psa10 value="0.00193765961043783" flag="0"/>
			<psa30 value="0.000954925759145434" flag="0"/>
		</comp>
		<comp name=".HNN" depth="0.0">
			<acc value="0.003051210913011" flag="0"/>
			<vel value="0.00233822070541" flag="0"/>
			<psa03 value="0.0038690248585948" flag="0"/>
			<psa10 value="0.00125751924197656" flag="0"/>
			<psa30 value="0.000965478229028016" flag="0"/>
		</comp>
		<comp name=".HNZ" depth="0.0">
			<acc value="0.0063457222401576" flag="0"/>
			<vel value="0.00180960008541" flag="0"/>
			<psa03 value="0.00254024021855214" flag="0"/>
			<psa10 value="0.00111808043452977" flag="0"/>
			<psa30 value="0.000723981033105515" flag="0"/>
		</comp>
	</station>
	<station code="ARK1" name="ARK1" netid="HI" source="ITSAK Strong Motion Network" insttype="" lat="35.148777" lon="25.264194">
		<comp name=".HNE" depth="0.0">
			<acc value="0.021219168867558" flag="0"/>
			<vel value="0.00996099792674" flag="0"/>
			<psa03 value="0.0698981408252782" flag="0"/>
			<psa10 value="0.013117271142332" flag="0"/>
			<psa30 value="0.000959280005924706" flag="0"/>
		</comp>
		<comp name=".HNN" depth="0.0">
			<acc value="0.013427376034428" flag="0"/>
			<vel value="0.0084579996146" flag="0"/>
			<psa03 value="0.061759247497104" flag="0"/>
			<psa10 value="0.0116925995773472" flag="0"/>
			<psa30 value="0.000770518282637373" flag="0"/>
		</comp>
		<comp name=".HNZ" depth="0.0">
			<acc value="0.011050738997208" flag="0"/>
			<vel value="0.0067473745824" flag="0"/>
			<psa03 value="0.0445241890923589" flag="0"/>
			<psa10 value="0.0080682591700716" flag="0"/>
			<psa30 value="0.000574520819602125" flag="0"/>
		</comp>
	</station>
	<station code="CH01" name="CH01" netid="HI" source="ITSAK Strong Motion Network" insttype="" lat="35.517" lon="24.0208">
		<comp name=".HNE" depth="0.0">
			<acc value="0.006675503981073" flag="0"/>
			<vel value="0.00357431522894" flag="0"/>
			<psa03 value="0.0131023705718937" flag="0"/>
			<psa10 value="0.00617840163252436" flag="0"/>
			<psa30 value="0.000668105039928168" flag="0"/>
		</comp>
		<comp name=".HNN" depth="0.0">
			<acc value="0.007728163971849" flag="0"/>
			<vel value="0.00500386356381" flag="0"/>
			<psa03 value="0.0166466795837287" flag="0"/>
			<psa10 value="0.00490824545966512" flag="0"/>
			<psa30 value="0.000547866449713594" flag="0"/>
		</comp>
		<comp name=".HNZ" depth="0.0">
			<acc value="0.009887350316754" flag="0"/>
			<vel value="0.0017244448857" flag="0"/>
			<psa03 value="0.00810546663486897" flag="0"/>
			<psa10 value="0.00336616346055906" flag="0"/>
			<psa30 value="0.000397891618783598" flag="0"/>
		</comp>
	</station>
	<station code="CH02" name="CH02" netid="HI" source="ITSAK Strong Motion Network" insttype="" lat="35.5145" lon="24.0315">
		<comp name=".HNE" depth="0.0">
			<acc value="0.0059552466635424" flag="0"/>
			<vel value="0.0033210574731" flag="0"/>
			<psa03 value="0.0182854118396116" flag="0"/>
			<psa10 value="0.00474054888184721" flag="0"/>
			<psa30 value="0.0008749983810132" flag="0"/>
		</comp>
		<comp name=".HNN" depth="0.0">
			<acc value="0.0084831290416212" flag="0"/>
			<vel value="0.00358358285446" flag="0"/>
			<psa03 value="0.0250678533305726" flag="0"/>
			<psa10 value="0.00566117908785106" flag="0"/>
			<psa30 value="0.000503262557425813" flag="0"/>
		</comp>
		<comp name=".HNZ" depth="0.0">
			<acc value="0.0041938451368962" flag="0"/>
			<vel value="0.00272776749231" flag="0"/>
			<psa03 value="0.0113739227373763" flag="0"/>
			<psa10 value="0.0052298775474567" flag="0"/>
			<psa30 value="0.000299513122524393" flag="0"/>
		</comp>
	</station>
	<station code="CH03" name="CH03" netid="HI" source="ITSAK Strong Motion Network" insttype="" lat="35.53303" lon="24.0705">
		<comp name=".HNE" depth="0.0">
			<acc value="0.0040717296470976" flag="0"/>
			<vel value="0.0030923077312" flag="0"/>
			<psa03 value="0.0106059148293675" flag="0"/>
			<psa10 value="0.00357526207794287" flag="0"/>
			<psa30 value="0.000364551102846589" flag="0"/>
		</comp>
		<comp name=".HNN" depth="0.0">
			<acc value="0.006031305956406" flag="0"/>
			<vel value="0.00410649693985" flag="0"/>
			<psa03 value="0.0134101409602113" flag="0"/>
			<psa10 value="0.00599022119776172" flag="0"/>
			<psa30 value="0.000806942466392808" flag="0"/>
		</comp>
		<comp name=".HNZ" depth="0.0">
			<acc value="0.0041881815510432" flag="0"/>
			<vel value="0.00222212398548" flag="0"/>
			<psa03 value="0.0114870461166944" flag="0"/>
			<psa10 value="0.00194843618370865" flag="0"/>
			<psa30 value="0.000514789883553021" flag="0"/>
		</comp>
	</station>
	<station code="GOR1" name="GOR1" netid="HI" source="ITSAK Strong Motion Network" insttype="" lat="35.0582" lon="24.9628">
		<comp name=".HNE" depth="0.0">
			<acc value="0.0081482600855796" flag="0"/>
			<vel value="0.00472652792868" flag="0"/>
			<psa03 value="0.0216095981964799" flag="0"/>
			<psa10 value="0.00559978752094678" flag="0"/>
			<psa30 value="0.000598239317917902" flag="0"/>
		</comp>
		<comp name=".HNN" depth="0.0">
			<acc value="0.0066922828151802" flag="0"/>
			<vel value="0.00483713562792" flag="0"/>
			<psa03 value="0.0225651797282463" flag="0"/>
			<psa10 value="0.008661193136536" flag="0"/>
			<psa30 value="0.000776363201085067" flag="0"/>
		</comp>
		<comp name=".HNZ" depth="0.0">
			<acc value="0.0068332881786078" flag="0"/>
			<vel value="0.00357897578095" flag="0"/>
			<psa03 value="0.0108561449475564" flag="0"/>
			<psa10 value="0.00734905527633076" flag="0"/>
			<psa30 value="0.00040165905585793" flag="0"/>
		</comp>
	</station>
	<station code="HER3" name="HER3" netid="HI" source="ITSAK Strong Motion Network" insttype="" lat="35.3296" lon="25.1065">
		<comp name=".HNE" depth="0.0">
			<acc value="0.039168475441278" flag="0"/>
			<vel value="0.0185107779892" flag="0"/>
			<psa03 value="0.125309207370018" flag="0"/>
			<psa10 value="0.0457468242524003" flag="0"/>
			<psa30 value="0.00175611050036724" flag="0"/>
		</comp>
		<comp name=".HNN" depth="0.0">
			<acc value="0.032286350397876" flag="0"/>
			<vel value="0.0238007812485" flag="0"/>
			<psa03 value="0.10868688747281" flag="0"/>
			<psa10 value="0.0276220929530885" flag="0"/>
			<psa30 value="0.00126675027015557" flag="0"/>
		</comp>
		<comp name=".HNZ" depth="0.0">
			<acc value="0.0279175882053" flag="0"/>
			<vel value="0.0117860571026" flag="0"/>
			<psa03 value="0.0631805031066614" flag="0"/>
			<psa10 value="0.0153559060034268" flag="0"/>
			<psa30 value="0.000653153841155091" flag="0"/>
		</comp>
	</station>
	<station code="KIS1" name="KIS1" netid="HI" source="ITSAK Strong Motion Network" insttype="" lat="35.493933" lon="23.658993">
		<comp name=".HNE" depth="0.0">
			<acc value="0.0037423539813096" flag="0"/>
			<vel value="0.0023114206674" flag="0"/>
			<psa03 value="0.00801140115872882" flag="0"/>
			<psa10 value="0.00450557565976839" flag="0"/>
			<psa30 value="0.000443084925118602" flag="0"/>
		</comp>
		<comp name=".HNN" depth="0.0">
			<acc value="0.0044585059894068" flag="0"/>
			<vel value="0.0021682088922" flag="0"/>
			<psa03 value="0.00743848625280901" flag="0"/>
			<psa10 value="0.00311848908459749" flag="0"/>
			<psa30 value="0.000407187468963288" flag="0"/>
		</comp>
		<comp name=".HNZ" depth="0.0">
			<acc value="0.0048005779932804" flag="0"/>
			<vel value="0.00164561845177" flag="0"/>
			<psa03 value="0.00531885495220907" flag="0"/>
			<psa10 value="0.00216784774989757" flag="0"/>
			<psa30 value="0.000488469337863117" flag="0"/>
		</comp>
	</station>
	<station code="KRL1" name="KRL1" netid="HI" source="ITSAK Strong Motion Network" insttype="" lat="37.7951" lon="26.7065">
		<comp name=".HNE" depth="0.0">
			<acc value="0.01138664102865" flag="0"/>
			<vel value="0.00636111275845" flag="0"/>
			<psa03 value="0.0231197633416943" flag="0"/>
			<psa10 value="0.0122429016571486" flag="0"/>
			<psa30 value="0.000733994092256054" flag="0"/>
		</comp>
		<comp name=".HNN" depth="0.0">
			<acc value="0.015125673170676" flag="0"/>
			<vel value="0.00612085780958" flag="0"/>
			<psa03 value="0.0245200670424147" flag="0"/>
			<psa10 value="0.00931588431912304" flag="0"/>
			<psa30 value="0.000449201371969186" flag="0"/>
		</comp>
		<comp name=".HNZ" depth="0.0">
			<acc value="0.0060833412464202" flag="0"/>
			<vel value="0.0025349057688" flag="0"/>
			<psa03 value="0.0139952669615097" flag="0"/>
			<psa10 value="0.00300074862862019" flag="0"/>
			<psa30 value="0.000313334012048745" flag="0"/>
		</comp>
	</station>
	<station code="KTL1" name="KTL1" netid="HI" source="ITSAK Strong Motion Network" insttype="" lat="35.20778" lon="25.34272">
		<comp name=".HNE" depth="0.0">
			<acc value="0.014193753847266" flag="0"/>
			<vel value="0.00712536725149" flag="0"/>
			<psa03 value="0.025298970203456" flag="0"/>
			<psa10 value="0.00775039608196785" flag="0"/>
			<psa30 value="0.000636720096247303" flag="0"/>
		</comp>
		<comp name=".HNN" depth="0.0">
			<acc value="0.015198045097464" flag="0"/>
			<vel value="0.00842853879941" flag="0"/>
			<psa03 value="0.0501720163583096" flag="0"/>
			<psa10 value="0.0101859016409882" flag="0"/>
			<psa30 value="0.000499800296816768" flag="0"/>
		</comp>
		<comp name=".HNZ" depth="0.0">
			<acc value="0.03101569351932" flag="0"/>
			<vel value="0.00271612454533" flag="0"/>
			<psa03 value="0.013012619834699" flag="0"/>
			<psa10 value="0.00253305983403316" flag="0"/>
			<psa30 value="0.000333750885399702" flag="0"/>
		</comp>
	</station>
	<station code="NAX1" name="NAX1" netid="HI" source="ITSAK Strong Motion Network" insttype="" lat="37.101394" lon="25.374103">
		<comp name=".HNE" depth="0.0">
			<acc value="0.12859119832152" flag="0"/>
			<vel value="0.0384265397525" flag="0"/>
			<psa03 value="0.216353103164632" flag="0"/>
			<psa10 value="0.00981526646321849" flag="0"/>
			<psa30 value="0.000890078650842199" flag="0"/>
		</comp>
		<comp name=".HNN" depth="0.0">
			<acc value="0.15643114845366" flag="0"/>
			<vel value="0.0524821969336" flag="0"/>
			<psa03 value="0.207438054253117" flag="0"/>
			<psa10 value="0.0128880090798563" flag="0"/>
			<psa30 value="0.0012339072611323" flag="0"/>
		</comp>
		<comp name=".HNZ" depth="0.0">
			<acc value="0.065046361621524" flag="0"/>
			<vel value="0.0284794641024" flag="0"/>
			<psa03 value="0.101401998634636" flag="0"/>
			<psa10 value="0.0108383211105837" flag="0"/>
			<psa30 value="0.00123734571808207" flag="0"/>
		</comp>
	</station>
	<station code="RTH1" name="RTH1" netid="HI" source="ITSAK Strong Motion Network" insttype="" lat="35.365393" lon="24.471773">
		<comp name=".HNE" depth="0.0">
			<acc value="0.0071411596530042" flag="0"/>
			<vel value="0.00282972009008" flag="0"/>
			<psa03 value="0.0266771969208765" flag="0"/>
			<psa10 value="0.00170339073190118" flag="0"/>
			<psa30 value="0.000624593772106534" flag="0"/>
		</comp>
		<comp name=".HNN" depth="0.0">
			<acc value="0.0065614916420232" flag="0"/>
			<vel value="0.00376907795945" flag="0"/>
			<psa03 value="0.0149733929554549" flag="0"/>
			<psa10 value="0.00257215593958447" flag="0"/>
			<psa30 value="0.000327044321331138" flag="0"/>
		</comp>
		<comp name=".HNZ" depth="0.0">
			<acc value="0.0075639291523098" flag="0"/>
			<vel value="0.0020423278038" flag="0"/>
			<psa03 value="0.0111948054030184" flag="0"/>
			<psa10 value="0.00219928725448824" flag="0"/>
			<psa30 value="0.000617054314318353" flag="0"/>
		</comp>
	</station>
	<station code="SFR2" name="SFR2" netid="HI" source="ITSAK Strong Motion Network" insttype="" lat="36.399841" lon="25.438209">
		<comp name=".HNE" depth="0.0">
			<acc value="0.30500012996316" flag="0"/>
			<vel value="0.110464884823" flag="0"/>
			<psa03 value="0.639508739316299" flag="0"/>
			<psa10 value="0.0680577984950285" flag="0"/>
			<psa30 value="0.00685989193417694" flag="0"/>
		</comp>
		<comp name=".HNN" depth="0.0">
			<acc value="0.35001252361308" flag="0"/>
			<vel value="0.146580556853" flag="0"/>
			<psa03 value="1.12127311217495" flag="0"/>
			<psa10 value="0.0994184409839015" flag="0"/>
			<psa30 value="0.00692244399461581" flag="0"/>
		</comp>
		<comp name=".HNZ" depth="0.0">
			<acc value="0.52189268892594" flag="0"/>
			<vel value="0.133162699811" flag="0"/>
			<psa03 value="0.436542835487002" flag="0"/>
			<psa10 value="0.0509356267351411" flag="0"/>
			<psa30 value="0.00563787681499052" flag="0"/>
		</comp>
	</station>
	<station code="AMGA" name="AMGA" netid="HL" source="National Observatory of Athens Seismic Network" insttype="" lat="36.831561" lon="25.893836">
		<comp name="00.HNE" depth="0.0">
			<acc value="0.11297409549198" flag="0"/>
			<vel value="0.0288507708363" flag="0"/>
			<psa03 value="0.180952466379415" flag="0"/>
			<psa10 value="0.0128330435636399" flag="0"/>
			<psa30 value="0.00206021731261999" flag="0"/>
		</comp>
		<comp name="00.HNN" depth="0.0">
			<acc value="0.11449570323696" flag="0"/>
			<vel value="0.0364355362473" flag="0"/>
			<psa03 value="0.100737131673792" flag="0"/>
			<psa10 value="0.0148121537324916" flag="0"/>
			<psa30 value="0.00143737011454807" flag="0"/>
		</comp>
		<comp name="00.HNZ" depth="0.0">
			<acc value="0.09682160133987" flag="0"/>
			<vel value="0.0235276829915" flag="0"/>
			<psa03 value="0.10619083670515" flag="0"/>
			<psa10 value="0.015961957401335" flag="0"/>
			<psa30 value="0.00219050323508807" flag="0"/>
		</comp>
	</station>
	<station code="ANAF" name="ANAF" netid="HL" source="National Observatory of Athens Seismic Network" insttype="" lat="36.35675" lon="25.77262">
		<comp name=".HNE" depth="0.0">
			<acc value="0.78148690493784" flag="0"/>
			<vel value="0.271351277556" flag="0"/>
			<psa03 value="0.968534327312587" flag="0"/>
			<psa10 value="0.110616405293954" flag="0"/>
			<psa30 value="0.00762370503302492" flag="0"/>
		</comp>
		<comp name=".HNN" depth="0.0">
			<acc value="1.0919222470992" flag="0"/>
			<vel value="0.301909277568" flag="0"/>
			<psa03 value="1.25863137815212" flag="0"/>
			<psa10 value="0.0666123777430308" flag="0"/>
			<psa30 value="0.00726623551912886" flag="0"/>
		</comp>
		<comp name=".HNZ" depth="0.0">
			<acc value="0.45597445027152" flag="0"/>
			<vel value="0.111203274683" flag="0"/>
			<psa03 value="0.554422852793641" flag="0"/>
			<psa10 value="0.028404595415026" flag="0"/>
			<psa30 value="0.00470157228943529" flag="0"/>
		</comp>
	</station>
	<station code="ASTA" name="ASTA" netid="HL" source="National Observatory of Athens Seismic Network" insttype="" lat="36.54552" lon="26.35295">
		<comp name="00.HNE" depth="0.0">
			<acc value="0.023216204942658" flag="0"/>
			<vel value="0.011031500505" flag="0"/>
			<psa03 value="0.0366385182678634" flag="0"/>
			<psa10 value="0.00752247707718482" flag="0"/>
			<psa30 value="0.000395484558285954" flag="0"/>
		</comp>
		<comp name="00.HNN" depth="0.0">
			<acc value="0.024274100728482" flag="0"/>
			<vel value="0.00941517094937" flag="0"/>
			<psa03 value="0.0442053554711815" flag="0"/>
			<psa10 value="0.00553272604717891" flag="0"/>
			<psa30 value="0.00103084235074553" flag="0"/>
		</comp>
		<comp name="00.HNZ" depth="0.0">
			<acc value="0.02203035303507" flag="0"/>
			<vel value="0.0102305104415" flag="0"/>
			<psa03 value="0.0338704156237867" flag="0"/>
			<psa10 value="0.00775282296148229" flag="0"/>
			<psa30 value="0.000768974899146263" flag="0"/>
		</comp>
	</station>
	<station code="CHNB" name="CHNB" netid="HL" source="National Observatory of Athens Seismic Network" insttype="" lat="35.48765" lon="24.06605">
		<comp name="00.HNE" depth="0.0">
			<acc value="0.011861432906004" flag="0"/>
			<vel value="0.00718908035896" flag="0"/>
			<psa03 value="0.0297922913014319" flag="0"/>
			<psa10 value="0.00871310126271113" flag="0"/>
			<psa30 value="0.000605862739597682" flag="0"/>
		</comp>
		<comp name="00.HNN" depth="0.0">
