<?xml version="1.0" encoding="UTF-8" standalone="yes"?>
<!DOCTYPE earthquake SYSTEM "stationlist.dtd">
<stationlist created="" xmlns="ch.ethz.sed.shakemap.usgs.xml">
  <station code="THERA" name="THERA" netid="GE" insttype="STS-2/N" lat="36.367" lon="25.4753">
    <comp name="--.HHE">
      <acc value="0.1563905405" flag="0"/>
      <vel value="0.0415011287" flag="0"/>
      <psa03 value="0.1877734024" flag="0"/>
      <psa10 value="0.0175553217" flag="0"/>
      <psa30 value="0.0021062176" flag="0"/>
    </comp>
    <comp name="--.HHN">
      <acc value="0.1243026946" flag="0"/>
      <vel value="0.0256769625" flag="0"/>
      <psa03 value="0.1970031921" flag="0"/>
      <psa10 value="0.0113184875" flag="0"/>
      <psa30 value="0.0017172827" flag="0"/>
    </comp>
    <comp name="--.HHZ">
      <acc value="0.1184727389" flag="0"/>
      <vel value="0.0328146363" flag="0"/>
      <psa03 value="0.1320459098" flag="0"/>
      <psa10 value="0.0208649181" flag="0"/>
      <psa30 value="0.0023258243" flag="0"/>
    </comp>
  </station>
  <station code="SNT1" name="SNT1" netid="HA" insttype="30" lat="36.4159" lon="25.4282">
    <comp name="--.HHE">
      <acc value="0.1457848276" flag="0"/>
      <vel value="0.0592608220" flag="0"/>
      <psa03 value="0.3253980487" flag="0"/>
      <psa10 value="0.0523338439" flag="0"/>
      <psa30 value="0.0045324213" flag="0"/>
    </comp>
    <comp name="--.HHZ">
      <acc value="0.0913870578" flag="0"/>
      <vel value="0.0276847016" flag="0"/>
      <psa03 value="0.1339539916" flag="0"/>
      <psa10 value="0.0216349125" flag="0"/>
      <psa30 value="0.0025054600" flag="0"/>
    </comp>
    <comp name="--.HHN">
      <acc value="0.1299320625" flag="0"/>
      <vel value="0.0701819160" flag="0"/>
      <psa03 value="0.2334386694" flag="0"/>
      <psa10 value="0.0598223874" flag="0"/>
      <psa30 value="0.0060423811" flag="0"/>
    </comp>
  </station>
  <station code="SFR2" name="SFR2" netid="HI" insttype="unknown" lat="36.3998" lon="25.4382">
    <comp name="--.HNE">
      <acc value="0.3071982524" flag="0"/>
      <vel value="0.1092670237" flag="0"/>
      <psa03 value="0.6397101784" flag="0"/>
      <psa10 value="0.0680859094" flag="0"/>
      <psa30 value="0.0065519427" flag="0"/>
    </comp>
    <comp name="--.HNN">
      <acc value="0.3553698891" flag="0"/>
      <vel value="0.1461181824" flag="0"/>
      <psa03 value="1.1112860516" flag="0"/>
      <psa10 value="0.0992586986" flag="0"/>
      <psa30 value="0.0063250336" flag="0"/>
    </comp>
    <comp name="--.HNZ">
      <acc value="0.5361273650" flag="0"/>
      <vel value="0.1326785088" flag="0"/>
      <psa03 value="0.4329265564" flag="0"/>
      <psa10 value="0.0509282071" flag="0"/>
      <psa30 value="0.0052838739" flag="0"/>
    </comp>
  </station>
  <station code="SANT" name="SANT" netid="HL" insttype="30" lat="36.3705" lon="25.4593">
    <comp name="--.HHE">
      <acc value="0.5628733597" flag="0"/>
      <vel value="0.1181770943" flag="0"/>
      <psa03 value="0.4847713032" flag="0"/>
      <psa10 value="0.0292551047" flag="0"/>
      <psa30 value="0.0032813556" flag="0"/>
    </comp>
    <comp name="--.HHN">
      <acc value="0.4067695837" flag="0"/>
      <vel value="0.0487665391" flag="0"/>
      <psa03 value="0.1488994507" flag="0"/>
      <psa10 value="0.0270270388" flag="0"/>
      <psa30 value="0.0036931720" flag="0"/>
    </comp>
    <comp name="--.HHZ">
      <acc value="0.3180084637" flag="0"/>
      <vel value="0.0570190427" flag="0"/>
      <psa03 value="0.2306022847" flag="0"/>
      <psa10 value="0.0194027657" flag="0"/>
      <psa30 value="0.0020969977" flag="0"/>
    </comp>
  </station>
  <station code="SAP3" name="SAP3" netid="HL" insttype="65535" lat="36.4356" lon="25.3454">
    <comp name="--.HHE">
      <acc value="0.3074105144" flag="0"/>
      <vel value="0.0818212995" flag="0"/>
      <psa03 value="0.3110557538" flag="0"/>
      <psa10 value="0.0402419773" flag="0"/>
      <psa30 value="0.0060559638" flag="0"/>
    </comp>
    <comp name="--.HHN">
      <acc value="0.2682408046" flag="0"/>
      <vel value="0.0928527481" flag="0"/>
      <psa03 value="0.5038484309" flag="0"/>
      <psa10 value="0.0372801413" flag="0"/>
      <psa30 value="0.0052343424" flag="0"/>
    </comp>
    <comp name="--.HHZ">
      <acc value="0.2738217692" flag="0"/>
      <vel value="0.0640543943" flag="0"/>
      <psa03 value="0.2247774674" flag="0"/>
      <psa10 value="0.0199128540" flag="0"/>
      <psa30 value="0.0021905736" flag="0"/>
    </comp>
  </station>
  <station code="THERA" name="THERA" netid="HL" insttype="120" lat="36.367" lon="25.4753">
    <comp name="--.HHN">
      <acc value="0.2439274872" flag="0"/>
      <vel value="0.0500511500" flag="0"/>
      <psa03 value="0.3824291377" flag="0"/>
      <psa10 value="0.0224556297" flag="0"/>
      <psa30 value="0.0034340754" flag="0"/>
    </comp>
    <comp name="--.HHZ">
      <acc value="0.1184806312" flag="0"/>
      <vel value="0.0318435130" flag="0"/>
      <psa03 value="0.1282861655" flag="0"/>
      <psa10 value="0.0207793128" flag="0"/>
      <psa30 value="0.0023275417" flag="0"/>
    </comp>
    <comp name="--.HHE">
      <acc value="0.1547790780" flag="0"/>
      <vel value="0.0409279055" flag="0"/>
      <psa03 value="0.1830066315" flag="0"/>
      <psa10 value="0.0174707074" flag="0"/>
      <psa30 value="0.0021027496" flag="0"/>
    </comp>
  </station>
  <station code="THRA" name="THRA" netid="HL" insttype="CMG-5" lat="36.415" lon="25.4324">
    <comp name="00.HNE">
      <acc value="0.4015679664" flag="0"/>
      <vel value="0.1594268699" flag="0"/>
      <psa03 value="1.0015581857" flag="0"/>
      <psa10 value="0.0958423638" flag="0"/>
      <psa30 value="0.0095598219" flag="0"/>
    </comp>
    <comp name="00.HNN">
      <acc value="0.3982166217" flag="0"/>
      <vel value="0.1617431922" flag="0"/>
      <psa03 value="1.1159266415" flag="0"/>
      <psa10 value="0.2014553944" flag="0"/>
      <psa30 value="0.0125775353" flag="0"/>
    </comp>
    <comp name="00.HNZ">
      <acc value="0.3581344049" flag="0"/>
      <vel value="0.1475099178" flag="0"/>
      <psa03 value="0.6311089627" flag="0"/>
      <psa10 value="0.0630102032" flag="0"/>
      <psa30 value="0.0048315719" flag="0"/>
    </comp>
  </station>
  <station code="TNSA" name="TNSA" netid="HL" insttype="CMG-5" lat="37.5394" lon="25.1631">
    <comp name="00.HNE">
      <acc value="0.0487876635" flag="0"/>
      <vel value="0.0143238933" flag="0"/>
      <psa03 value="0.1132506987" flag="0"/>
      <psa10 value="0.0088546611" flag="0"/>
      <psa30 value="0.0006383475" flag="0"/>
    </comp>
    <comp name="00.HNN">
      <acc value="0.0725244479" flag="0"/>
      <vel value="0.0333053372" flag="0"/>
      <psa03 value="0.1513789253" flag="0"/>
      <psa10 value="0.0173415261" flag="0"/>
      <psa30 value="0.0010211689" flag="0"/>
    </comp>
    <comp name="00.HNZ">
      <acc value="0.0514032452" flag="0"/>
      <vel value="0.0266946717" flag="0"/>
      <psa03 value="0.1368580982" flag="0"/>
      <psa10 value="0.0119687726" flag="0"/>
      <psa30 value="0.0014233327" flag="0"/>
    </comp>
  </station>
  <station code="AKRO" name="AKRO" netid="HT" insttype="Compact," lat="36.3584" lon="25.3967">
    <comp name="--.HHE">
      <acc value="0.4776206661" flag="0"/>
      <vel value="0.2279750687" flag="0"/>
      <psa03 value="0.9277594937" flag="0"/>
      <psa10 value="0.1106359479" flag="0"/>
      <psa30 value="0.0071602555" flag="0"/>
    </comp>
    <comp name="--.HHN">
      <acc value="0.3862075074" flag="0"/>
      <vel value="0.1134801050" flag="0"/>
      <psa03 value="0.4330316809" flag="0"/>
      <psa10 value="0.0624388616" flag="0"/>
      <psa30 value="0.0054295815" flag="0"/>
    </comp>
    <comp name="--.HHZ">
      <acc value="0.3284488632" flag="0"/>
      <vel value="0.0979599140" flag="0"/>
      <psa03 value="0.2914724460" flag="0"/>
      <psa10 value="0.0456965405" flag="0"/>
      <psa30 value="0.0040377567" flag="0"/>
    </comp>
  </station>
  <station code="CMBO" name="CMBO" netid="HT" insttype="120P," lat="36.4709" lon="25.4056">
    <comp name="--.HHZ">
      <acc value="0.3511794678" flag="0"/>
      <vel value="0.0730445073" flag="0"/>
      <psa03 value="0.5067618246" flag="0"/>
      <psa10 value="0.0196847187" flag="0"/>
      <psa30 value="0.0042272783" flag="0"/>
    </comp>
    <comp name="--.HHE">
      <acc value="0.3370072054" flag="0"/>
      <vel value="0.0951440224" flag="0"/>
      <psa03 value="0.3062020216" flag="0"/>
      <psa10 value="0.0479970057" flag="0"/>
      <psa30 value="0.0035986128" flag="0"/>
    </comp>
    <comp name="--.HHN">
      <acc value="0.4931269540" flag="0"/>
      <vel value="0.1969306923" flag="0"/>
      <psa03 value="0.5155145072" flag="0"/>
      <psa10 value="0.0723096623" flag="0"/>
      <psa30 value="0.0047501890" flag="0"/>
    </comp>
  </station>
</stationlist>
