<?xml version="1.0" encoding="UTF-8" standalone="yes"?>
<!DOCTYPE earthquake SYSTEM "stationlist.dtd">
<stationlist created="" xmlns="ch.ethz.sed.shakemap.usgs.xml">
  <station code="AFSR" name="AFSR" netid="KO" insttype="CMG-3ESP" lat="39.4468" lon="33.0707">
    <comp name="--.HHE">
      <acc value="0.0064598605" flag="0"/>
      <vel value="0.0023624384" flag="0"/>
      <psa03 value="0.0066149267" flag="0"/>
      <psa10 value="0.0034008483" flag="0"/>
      <psa30 value="0.0003676484" flag="0"/>
    </comp>
    <comp name="--.HHN">
      <acc value="0.0071363566" flag="0"/>
      <vel value="0.0024649103" flag="0"/>
      <psa03 value="0.0100166278" flag="0"/>
      <psa10 value="0.0026495193" flag="0"/>
      <psa30 value="0.0002829257" flag="0"/>
    </comp>
    <comp name="--.HHZ">
      <acc value="0.0080665344" flag="0"/>
      <vel value="0.0016855764" flag="0"/>
      <psa03 value="0.0060498074" flag="0"/>
      <psa10 value="0.0026795290" flag="0"/>
      <psa30 value="0.0001620387" flag="0"/>
    </comp>
  </station>
  <station code="CANT" name="CANT" netid="KO" insttype="CMG-3ESP" lat="40.6062" lon="33.6193">
    <comp name="--.HHE">
      <acc value="0.0104457737" flag="0"/>
      <vel value="0.0082176961" flag="0"/>
      <psa03 value="0.0212479036" flag="0"/>
      <psa10 value="0.0081592440" flag="0"/>
      <psa30 value="0.0007244589" flag="0"/>
    </comp>
  </station>
  <station code="CORM" name="CORM" netid="KO" insttype="CMG-3ESP" lat="40.1785" lon="34.6302">
    <comp name="--.HHN">
      <acc value="0.0047746426" flag="0"/>
      <vel value="0.0022017235" flag="0"/>
      <psa03 value="0.0175943939" flag="0"/>
      <psa10 value="0.0020566725" flag="0"/>
      <psa30 value="0.0001155066" flag="0"/>
    </comp>
    <comp name="--.HHE">
      <acc value="0.0070611220" flag="0"/>
      <vel value="0.0030527125" flag="0"/>
      <psa03 value="0.0125006089" flag="0"/>
      <psa10 value="0.0013581872" flag="0"/>
      <psa30 value="0.0001555651" flag="0"/>
    </comp>
    <comp name="--.HHZ">
      <acc value="0.0029401090" flag="0"/>
      <vel value="0.0011292049" flag="0"/>
      <psa03 value="0.0096925917" flag="0"/>
      <psa10 value="0.0005759484" flag="0"/>
      <psa30 value="0.0001169370" flag="0"/>
    </comp>
  </station>
  <station code="KAMT" name="KAMT" netid="KO" insttype="CMG-3T" lat="39.3692" lon="33.7124">
    <comp name="--.HHE">
      <acc value="0.0073889481" flag="0"/>
      <vel value="0.0023451016" flag="0"/>
      <psa03 value="0.0188741847" flag="0"/>
      <psa10 value="0.0010579633" flag="0"/>
      <psa30 value="0.0000833740" flag="0"/>
    </comp>
    <comp name="--.HHN">
      <acc value="0.0070298762" flag="0"/>
      <vel value="0.0018392312" flag="0"/>
      <psa03 value="0.0077375843" flag="0"/>
      <psa10 value="0.0009569632" flag="0"/>
      <psa30 value="0.0001034236" flag="0"/>
    </comp>
    <comp name="--.HHZ">
      <acc value="0.0034276118" flag="0"/>
      <vel value="0.0008390852" flag="0"/>
      <psa03 value="0.0062429644" flag="0"/>
      <psa10 value="0.0007506852" flag="0"/>
      <psa30 value="0.0001113546" flag="0"/>
    </comp>
  </station>
  <station code="POLA" name="POLA" netid="KO" insttype="CMG-6T" lat="39.7005" lon="32.1677">
    <comp name="--.HHN">
      <acc value="0.0076809900" flag="0"/>
      <vel value="0.0066735626" flag="0"/>
      <psa03 value="0.0221869680" flag="0"/>
      <psa10 value="0.0043846090" flag="0"/>
      <psa30 value="0.0003282529" flag="0"/>
    </comp>
    <comp name="--.HHE">
      <acc value="0.0048173093" flag="0"/>
      <vel value="0.0030775908" flag="0"/>
      <psa03 value="0.0140739315" flag="0"/>
      <psa10 value="0.0020155956" flag="0"/>
      <psa30 value="0.0001212589" flag="0"/>
    </comp>
    <comp name="--.HHZ">
      <acc value="0.0041190718" flag="0"/>
      <vel value="0.0021500968" flag="0"/>
      <psa03 value="0.0121046773" flag="0"/>
      <psa10 value="0.0012254340" flag="0"/>
      <psa30 value="0.0000788783" flag="0"/>
    </comp>
  </station>
  <station code="YALI" name="YALI" netid="KO" insttype="CMG-6T" lat="40.7676" lon="32.9822">
    <comp name="--.HHN">
      <acc value="0.0082367826" flag="0"/>
      <vel value="0.0029169822" flag="0"/>
      <psa03 value="0.0216543531" flag="0"/>
      <psa10 value="0.0016568648" flag="0"/>
      <psa30 value="0.0001845120" flag="0"/>
    </comp>
    <comp name="--.HHE">
      <acc value="0.0076937180" flag="0"/>
      <vel value="0.0032025923" flag="0"/>
      <psa03 value="0.0301377635" flag="0"/>
      <psa10 value="0.0023505975" flag="0"/>
      <psa30 value="0.0002444978" flag="0"/>
    </comp>
    <comp name="--.HHZ">
      <acc value="0.0048765993" flag="0"/>
      <vel value="0.0017858555" flag="0"/>
      <psa03 value="0.0089749283" flag="0"/>
      <psa10 value="0.0014014061" flag="0"/>
      <psa30 value="0.0001542767" flag="0"/>
    </comp>
  </station>
</stationlist>
