<stationlist created="1770374117">
	<station code="CMRD" name="CMRD" netid="KO" source="Bogazici University Kandilli Observatory And Earthquake Research Institute (KOERI)" insttype="" lat="37.6623" lon="34.9902">
		<comp name="--.HNE" depth="0.0">
			<acc value="0.00085738274728536" flag="0"/>
			<vel value="0.000884949972084" flag="0"/>
			<psa03 value="0.00246103949663341" flag="0"/>
			<psa10 value="0.000546423502564153" flag="0"/>
			<psa30 value="0.000160776887658819" flag="0"/>
		</comp>
		<comp name="--.HNN" depth="0.0">
			<acc value="0.00086631938128398" flag="0"/>
			<vel value="0.000589302333246" flag="0"/>
			<psa03 value="0.00222530154942116" flag="0"/>
			<psa10 value="0.000641874415559595" flag="0"/>
			<psa30 value="0.000123188590326974" flag="0"/>
		</comp>
		<comp name="--.HNZ" depth="0.0">
			<acc value="0.00068867779575018" flag="0"/>
			<vel value="0.000632286187191" flag="0"/>
			<psa03 value="0.00185441646578338" flag="0"/>
			<psa10 value="0.000852146216130642" flag="0"/>
			<psa30 value="0.000288094267122847" flag="0"/>
		</comp>
	</station>
	<station code="KHMN" name="KHMN" netid="KO" source="Bogazici University Kandilli Observatory And Earthquake Research Institute (KOERI)" insttype="" lat="37.3916" lon="37.1574">
		<comp name="--.HNE" depth="0.0">
			<acc value="0.29601272214648" flag="0"/>
			<vel value="0.0648826372047" flag="0"/>
			<psa03 value="0.349957391292794" flag="0"/>
			<psa10 value="0.0166127305118683" flag="0"/>
			<psa30 value="0.00197816083511427" flag="0"/>
		</comp>
		<comp name="--.HNN" depth="0.0">
			<acc value="0.28252183029426" flag="0"/>
			<vel value="0.0725118826854" flag="0"/>
			<psa03 value="0.228475781232559" flag="0"/>
			<psa10 value="0.0177703103208491" flag="0"/>
			<psa30 value="0.00179934857301351" flag="0"/>
		</comp>
		<comp name="--.HNZ" depth="0.0">
			<acc value="0.16330941047136" flag="0"/>
			<vel value="0.0398416452282" flag="0"/>
			<psa03 value="0.128630312793616" flag="0"/>
			<psa10 value="0.017714007841097" flag="0"/>
			<psa30 value="0.00174640475324183" flag="0"/>
		</comp>
	</station>
</stationlist>
