<stationlist created="1775808462">
	<station code="KHMN" name="KHMN" netid="KO" source="Bogazici University Kandilli Observatory And Earthquake Research Institute (KOERI)" insttype="" lat="37.3916" lon="37.1574">
		<comp name="--.HNE" depth="0.0">
			<acc value="0.292080548663423" flag="0"/>
			<vel value="0.0655112134871831" flag="0"/>
			<psa03 value="0.350526470658386" flag="0"/>
			<psa10 value="0.0166490741694543" flag="0"/>
			<psa30 value="0.00198104977649187" flag="0"/>
		</comp>
		<comp name="--.HNN" depth="0.0">
			<acc value="0.284476147415977" flag="0"/>
			<vel value="0.0731745464053915" flag="0"/>
			<psa03 value="0.229232414689125" flag="0"/>
			<psa10 value="0.0178039594249346" flag="0"/>
			<psa30 value="0.00180031697049713" flag="0"/>
		</comp>
		<comp name="--.HNZ" depth="0.0">
			<acc value="0.166564888529114" flag="0"/>
			<vel value="0.0402056485788935" flag="0"/>
			<psa03 value="0.129023390916434" flag="0"/>
			<psa10 value="0.0177207751643856" flag="0"/>
			<psa30 value="0.00174893335825166" flag="0"/>
		</comp>
	</station>
</stationlist>
