<?xml version="1.0" encoding="UTF-8" standalone="yes"?>
<!DOCTYPE earthquake SYSTEM "stationlist.dtd">
<stationlist created="" xmlns="ch.ethz.sed.shakemap.usgs.xml">
  <station code="CEYT" name="CEYT" netid="KO" insttype="CMG-3ESP" commtype="DIG" lat="37.0105" lon="35.7478">
    <comp name="--.HHZ">
      <acc value="0.0025413548" flag="0"/>
      <vel value="0.0018712064" flag="0"/>
      <psa03 value="0.0060086091" flag="0"/>
      <psa10 value="0.0028354118" flag="0"/>
      <psa30 value="0.0001933234" flag="0"/>
    </comp>
    <comp name="--.HHN">
      <acc value="0.0035264901" flag="0"/>
      <vel value="0.0042475363" flag="0"/>
      <psa03 value="0.0110737789" flag="0"/>
      <psa10 value="0.0064188078" flag="0"/>
      <psa30 value="0.0004954150" flag="0"/>
    </comp>
    <comp name="--.HHE">
      <acc value="0.0040135633" flag="0"/>
      <vel value="0.0024486310" flag="0"/>
      <psa03 value="0.0129582850" flag="0"/>
      <psa10 value="0.0022648471" flag="0"/>
      <psa30 value="0.0002075734" flag="0"/>
    </comp>
  </station>
  <station code="GAZ" name="GAZ" netid="KO" insttype="CMG-3T" commtype="DIG" lat="37.1721" lon="37.2096">
    <comp name="--.HHE">
      <acc value="0.1739951267" flag="0"/>
      <vel value="0.0579217010" flag="0"/>
      <psa03 value="0.3002495059" flag="0"/>
      <psa10 value="0.0544737105" flag="0"/>
      <psa30 value="0.0032542501" flag="0"/>
    </comp>
    <comp name="--.HHN">
      <acc value="0.2220220246" flag="0"/>
      <vel value="0.0470077575" flag="0"/>
      <psa03 value="0.2217899989" flag="0"/>
      <psa10 value="0.0229032683" flag="0"/>
      <psa30 value="0.0016798291" flag="0"/>
    </comp>
    <comp name="--.HHZ">
      <acc value="0.1034046145" flag="0"/>
      <vel value="0.0399297083" flag="0"/>
      <psa03 value="0.1920231416" flag="0"/>
      <psa10 value="0.0388481174" flag="0"/>
      <psa30 value="0.0024795708" flag="0"/>
    </comp>
  </station>
  <station code="KHMN" name="KHMN" netid="KO" insttype="CMG-5T" commtype="DIG" lat="37.3916" lon="37.1574">
    <comp name="--.HNZ">
      <acc value="0.1646102162" flag="0"/>
      <vel value="0.0398777390" flag="0"/>
      <psa03 value="0.1256619790" flag="0"/>
      <psa10 value="0.0176178177" flag="0"/>
      <psa30 value="0.0016700609" flag="0"/>
    </comp>
    <comp name="--.HNE">
      <acc value="0.3006672395" flag="0"/>
      <vel value="0.0642974594" flag="0"/>
      <psa03 value="0.3459453670" flag="0"/>
      <psa10 value="0.0165268505" flag="0"/>
      <psa30 value="0.0018520862" flag="0"/>
    </comp>
    <comp name="--.HNN">
      <acc value="0.2873586083" flag="0"/>
      <vel value="0.0724331979" flag="0"/>
      <psa03 value="0.2243375019" flag="0"/>
      <psa10 value="0.0175752985" flag="0"/>
      <psa30 value="0.0016036010" flag="0"/>
    </comp>
  </station>
  <station code="KMRS" name="KMRS" netid="KO" insttype="CMG-3T" commtype="DIG" lat="37.5087" lon="36.9">
    <comp name="--.HHE">
      <acc value="0.0362454379" flag="0"/>
      <vel value="0.0141902176" flag="0"/>
      <psa03 value="0.0910294940" flag="0"/>
      <psa10 value="0.0079461926" flag="0"/>
      <psa30 value="0.0004195927" flag="0"/>
    </comp>
    <comp name="--.HHN">
      <acc value="0.0376320065" flag="0"/>
      <vel value="0.0135591261" flag="0"/>
      <psa03 value="0.0651763110" flag="0"/>
      <psa10 value="0.0072809308" flag="0"/>
      <psa30 value="0.0006269900" flag="0"/>
    </comp>
    <comp name="--.HHZ">
      <acc value="0.0351608870" flag="0"/>
      <vel value="0.0090919001" flag="0"/>
      <psa03 value="0.0667991373" flag="0"/>
      <psa10 value="0.0105721550" flag="0"/>
      <psa30 value="0.0005171063" flag="0"/>
    </comp>
  </station>
  <station code="KOZT" name="KOZT" netid="KO" insttype="CMG-3T" commtype="DIG" lat="37.4795" lon="35.8264">
    <comp name="--.HHE">
      <acc value="0.0066918435" flag="0"/>
      <vel value="0.0045038286" flag="0"/>
      <psa03 value="0.0234526798" flag="0"/>
      <psa10 value="0.0066400697" flag="0"/>
      <psa30 value="0.0003516475" flag="0"/>
    </comp>
    <comp name="--.HHN">
      <acc value="0.0053385162" flag="0"/>
      <vel value="0.0028441976" flag="0"/>
      <psa03 value="0.0181141503" flag="0"/>
      <psa10 value="0.0034493128" flag="0"/>
      <psa30 value="0.0001621839" flag="0"/>
    </comp>
    <comp name="--.HHZ">
      <acc value="0.0036807976" flag="0"/>
      <vel value="0.0022874525" flag="0"/>
      <psa03 value="0.0099357940" flag="0"/>
      <psa10 value="0.0020288506" flag="0"/>
      <psa30 value="0.0001976032" flag="0"/>
    </comp>
  </station>
  <station code="NURH" name="NURH" netid="KO" insttype="CMG-6T" commtype="DIG" lat="37.9693" lon="37.4363">
    <comp name="--.HHE">
      <acc value="0.0359061104" flag="0"/>
      <vel value="0.0178150588" flag="0"/>
      <psa03 value="0.1000162776" flag="0"/>
      <psa10 value="0.0078782058" flag="0"/>
      <psa30 value="0.0006623095" flag="0"/>
    </comp>
    <comp name="--.HHN">
      <acc value="0.0480228981" flag="0"/>
      <vel value="0.0195664367" flag="0"/>
      <psa03 value="0.1441382999" flag="0"/>
      <psa10 value="0.0048773118" flag="0"/>
      <psa30 value="0.0004748547" flag="0"/>
    </comp>
    <comp name="--.HHZ">
      <acc value="0.0216483459" flag="0"/>
      <vel value="0.0066681740" flag="0"/>
      <psa03 value="0.0372578264" flag="0"/>
      <psa10 value="0.0033783842" flag="0"/>
      <psa30 value="0.0002263580" flag="0"/>
    </comp>
  </station>
  <station code="TAHT" name="TAHT" netid="KO" insttype="CMG-3ESPC" commtype="DIG" lat="36.3755" lon="36.1855">
    <comp name="--.HHZ">
      <acc value="0.0280832994" flag="0"/>
      <vel value="0.0078378460" flag="0"/>
      <psa03 value="0.0242567799" flag="0"/>
      <psa10 value="0.0073606949" flag="0"/>
      <psa30 value="0.0003892245" flag="0"/>
    </comp>
    <comp name="--.HHE">
      <acc value="0.0463830070" flag="0"/>
      <vel value="0.0153428836" flag="0"/>
      <psa03 value="0.0535594698" flag="0"/>
      <psa10 value="0.0109639815" flag="0"/>
      <psa30 value="0.0007572322" flag="0"/>
    </comp>
    <comp name="--.HHN">
      <acc value="0.0376965511" flag="0"/>
      <vel value="0.0108595194" flag="0"/>
      <psa03 value="0.0796136477" flag="0"/>
      <psa10 value="0.0125434017" flag="0"/>
      <psa30 value="0.0005986472" flag="0"/>
    </comp>
  </station>
  <station code="ANDN" name="ANDN" netid="TU" insttype="T" commtype="DIG" lat="37.58" lon="36.3452">
    <comp name="--.HHN">
      <acc value="0.0791142298" flag="0"/>
      <vel value="0.0254415982" flag="0"/>
      <psa03 value="0.1567464199" flag="0"/>
      <psa10 value="0.0200206659" flag="0"/>
      <psa30 value="0.0009379116" flag="0"/>
    </comp>
    <comp name="--.HHZ">
      <acc value="0.0251980774" flag="0"/>
      <vel value="0.0095748803" flag="0"/>
      <psa03 value="0.0506231269" flag="0"/>
      <psa10 value="0.0133936720" flag="0"/>
      <psa30 value="0.0010129369" flag="0"/>
    </comp>
    <comp name="--.HHE">
      <acc value="0.0563530847" flag="0"/>
      <vel value="0.0192866060" flag="0"/>
      <psa03 value="0.1118147411" flag="0"/>
      <psa10 value="0.0173742148" flag="0"/>
      <psa30 value="0.0010889815" flag="0"/>
    </comp>
  </station>
</stationlist>
