<?xml version="1.0" encoding="UTF-8" standalone="yes"?>
<!DOCTYPE earthquake SYSTEM "stationlist.dtd">
<stationlist created="" xmlns="ch.ethz.sed.shakemap.usgs.xml">
  <station code="KRL1" name="KRL1" netid="HI" insttype="CMG-5TD,ACCELEROMETER,GURALP" lat="37.7951" lon="26.7065">
    <comp name="--.HNZ">
      <acc value="0.0658282494" flag="0"/>
      <vel value="0.0179090953" flag="0"/>
      <psa03 value="0.0602941313" flag="0"/>
      <psa10 value="0.0160668375" flag="0"/>
      <psa30 value="0.0014117134" flag="0"/>
    </comp>
    <comp name="--.HNE">
      <acc value="0.1171216492" flag="0"/>
      <vel value="0.0376489157" flag="0"/>
      <psa03 value="0.1908427814" flag="0"/>
      <psa10 value="0.0369064712" flag="0"/>
      <psa30 value="0.0021689938" flag="0"/>
    </comp>
    <comp name="--.HNN">
      <acc value="0.1303756922" flag="0"/>
      <vel value="0.0425336871" flag="0"/>
      <psa03 value="0.1449094066" flag="0"/>
      <psa10 value="0.0571268206" flag="0"/>
      <psa30 value="0.0031720017" flag="0"/>
    </comp>
  </station>
  <station code="SMG" name="SMG" netid="HL" insttype="120" lat="37.7043" lon="26.8377">
    <comp name="--.HHZ">
      <acc value="0.0855323459" flag="0"/>
      <vel value="0.0271123761" flag="0"/>
      <psa03 value="0.0970017988" flag="0"/>
      <psa10 value="0.0132647849" flag="0"/>
      <psa30 value="0.0015374752" flag="0"/>
    </comp>
    <comp name="--.HHE">
      <acc value="0.1326425802" flag="0"/>
      <vel value="0.0512236411" flag="0"/>
      <psa03 value="0.2563684191" flag="0"/>
      <psa10 value="0.0170597377" flag="0"/>
      <psa30 value="0.0021504498" flag="0"/>
    </comp>
    <comp name="--.HHN">
      <acc value="0.1278604827" flag="0"/>
      <vel value="0.0413696368" flag="0"/>
      <psa03 value="0.2678688736" flag="0"/>
      <psa10 value="0.0361284976" flag="0"/>
      <psa30 value="0.0020414596" flag="0"/>
    </comp>
  </station>
  <station code="CHOS" name="CHOS" netid="HT" insttype="100" lat="38.3869" lon="26.0506">
    <comp name="--.HHE">
      <acc value="0.0471374544" flag="0"/>
      <vel value="0.0190719741" flag="0"/>
      <psa03 value="0.1702551903" flag="0"/>
      <psa10 value="0.0110765854" flag="0"/>
      <psa30 value="0.0011016840" flag="0"/>
    </comp>
    <comp name="--.HHZ">
      <acc value="0.0163899649" flag="0"/>
      <vel value="0.0112610104" flag="0"/>
      <psa03 value="0.0329729343" flag="0"/>
      <psa10 value="0.0108537635" flag="0"/>
      <psa30 value="0.0012356785" flag="0"/>
    </comp>
    <comp name="--.HHN">
      <acc value="0.0277959139" flag="0"/>
      <vel value="0.0111706439" flag="0"/>
      <psa03 value="0.0753116357" flag="0"/>
      <psa10 value="0.0094479316" flag="0"/>
      <psa30 value="0.0007526313" flag="0"/>
    </comp>
  </station>
  <station code="AYDB" name="AYDB" netid="KO" insttype="30s," lat="37.9467" lon="27.8908">
    <comp name="--.HHE">
      <acc value="0.0710837383" flag="0"/>
      <vel value="0.0208376928" flag="0"/>
      <psa03 value="0.0943123555" flag="0"/>
      <psa10 value="0.0138836398" flag="0"/>
      <psa30 value="0.0019300146" flag="0"/>
    </comp>
    <comp name="--.HHN">
      <acc value="0.0509031082" flag="0"/>
      <vel value="0.0161293555" flag="0"/>
      <psa03 value="0.0612340928" flag="0"/>
      <psa10 value="0.0116161126" flag="0"/>
      <psa30 value="0.0010684098" flag="0"/>
    </comp>
    <comp name="--.HHZ">
      <acc value="0.0344155465" flag="0"/>
      <vel value="0.0101422210" flag="0"/>
      <psa03 value="0.0505249446" flag="0"/>
      <psa10 value="0.0095887393" flag="0"/>
      <psa30 value="0.0018454288" flag="0"/>
    </comp>
  </station>
  <station code="GMLD" name="GMLD" netid="KO" insttype="CMG-5T" lat="38.0766" lon="26.9157">
    <comp name="--.HNN">
      <acc value="0.8019524145" flag="0"/>
      <vel value="0.2440394512" flag="0"/>
      <psa03 value="1.1430213818" flag="0"/>
      <psa10 value="0.0974259093" flag="0"/>
      <psa30 value="0.0061382761" flag="0"/>
    </comp>
    <comp name="--.HNE">
      <acc value="0.6502747574" flag="0"/>
      <vel value="0.2897993651" flag="0"/>
      <psa03 value="1.2793164787" flag="0"/>
      <psa10 value="0.1026705272" flag="0"/>
      <psa30 value="0.0086146068" flag="0"/>
    </comp>
    <comp name="--.HNZ">
      <acc value="0.4730588621" flag="0"/>
      <vel value="0.1316708225" flag="0"/>
      <psa03 value="1.0366168268" flag="0"/>
      <psa10 value="0.0372306597" flag="0"/>
      <psa30 value="0.0036408606" flag="0"/>
    </comp>
  </station>
  <station code="KUSD" name="KUSD" netid="KO" insttype="CMG-5T" lat="37.8606" lon="27.2868">
    <comp name="--.HNE">
      <acc value="1.5489829507" flag="0"/>
      <vel value="0.5432511967" flag="0"/>
      <psa03 value="1.7832810751" flag="0"/>
      <psa10 value="0.1688961890" flag="0"/>
      <psa30 value="0.0151282368" flag="0"/>
    </comp>
    <comp name="--.HNZ">
      <acc value="0.9543446421" flag="0"/>
      <vel value="0.1545208390" flag="0"/>
      <psa03 value="0.8878534870" flag="0"/>
      <psa10 value="0.0731146375" flag="0"/>
      <psa30 value="0.0083219596" flag="0"/>
    </comp>
    <comp name="--.HNN">
      <acc value="1.7077295642" flag="0"/>
      <vel value="0.4914275316" flag="0"/>
      <psa03 value="2.2383059622" flag="0"/>
      <psa10 value="0.2348868204" flag="0"/>
      <psa30 value="0.0155840038" flag="0"/>
    </comp>
  </station>
  <station code="AYDN" name="AYDN" netid="TU" insttype="T" lat="37.6608" lon="27.8792">
    <comp name="--.HHE">
      <acc value="0.1207324887" flag="0"/>
      <vel value="0.0366317890" flag="0"/>
      <psa03 value="0.2190710433" flag="0"/>
      <psa10 value="0.0139824022" flag="0"/>
      <psa30 value="0.0022964975" flag="0"/>
    </comp>
    <comp name="--.HHZ">
      <acc value="0.0782501780" flag="0"/>
      <vel value="0.0117407471" flag="0"/>
      <psa03 value="0.0502451335" flag="0"/>
      <psa10 value="0.0089208720" flag="0"/>
      <psa30 value="0.0021923385" flag="0"/>
    </comp>
    <comp name="--.HHN">
      <acc value="0.0565210778" flag="0"/>
      <vel value="0.0200024383" flag="0"/>
      <psa03 value="0.1049300152" flag="0"/>
      <psa10 value="0.0124321728" flag="0"/>
      <psa30 value="0.0015428815" flag="0"/>
    </comp>
  </station>
</stationlist>
