<?xml version="1.0" encoding="UTF-8" standalone="yes"?>
<!DOCTYPE earthquake SYSTEM "stationlist.dtd">
<stationlist created="" xmlns="ch.ethz.sed.shakemap.usgs.xml">
  <station code="AYDB" name="AYDB" netid="KO" insttype="30s," lat="37.9467" lon="27.8908">
    <comp name="--.HHE">
      <acc value="0.0710837383" flag="0"/>
      <vel value="0.0208376928" flag="0"/>
      <psa03 value="0.0943123555" flag="0"/>
      <psa10 value="0.0138836398" flag="0"/>
      <psa30 value="0.0019300146" flag="0"/>
    </comp>
    <comp name="--.HHN">
      <acc value="0.0509031082" flag="0"/>
      <vel value="0.0161293555" flag="0"/>
      <psa03 value="0.0612340928" flag="0"/>
      <psa10 value="0.0116161126" flag="0"/>
      <psa30 value="0.0010684098" flag="0"/>
    </comp>
    <comp name="--.HHZ">
      <acc value="0.0344155465" flag="0"/>
      <vel value="0.0101422210" flag="0"/>
      <psa03 value="0.0505249446" flag="0"/>
      <psa10 value="0.0095887393" flag="0"/>
      <psa30 value="0.0018454288" flag="0"/>
    </comp>
  </station>
  <station code="GMLD" name="GMLD" netid="KO" insttype="CMG-5T" lat="38.0766" lon="26.9157">
    <comp name="--.HNN">
      <acc value="0.8019524145" flag="0"/>
      <vel value="0.2440394512" flag="0"/>
      <psa03 value="1.1430213818" flag="0"/>
      <psa10 value="0.0974259093" flag="0"/>
      <psa30 value="0.0061382761" flag="0"/>
    </comp>
    <comp name="--.HNE">
      <acc value="0.6502747574" flag="0"/>
      <vel value="0.2897993651" flag="0"/>
      <psa03 value="1.2793164787" flag="0"/>
      <psa10 value="0.1026705272" flag="0"/>
      <psa30 value="0.0086146068" flag="0"/>
    </comp>
    <comp name="--.HNZ">
      <acc value="0.4730588621" flag="0"/>
      <vel value="0.1316708225" flag="0"/>
      <psa03 value="1.0366168268" flag="0"/>
      <psa10 value="0.0372306597" flag="0"/>
      <psa30 value="0.0036408606" flag="0"/>
    </comp>
  </station>
  <station code="KUSD" name="KUSD" netid="KO" insttype="CMG-5T" lat="37.8606" lon="27.2868">
    <comp name="--.HNE">
      <acc value="1.5489829507" flag="0"/>
      <vel value="0.5432511967" flag="0"/>
      <psa03 value="1.7832810751" flag="0"/>
      <psa10 value="0.1688961890" flag="0"/>
      <psa30 value="0.0151282368" flag="0"/>
    </comp>
    <comp name="--.HNZ">
      <acc value="0.9543446421" flag="0"/>
      <vel value="0.1545208390" flag="0"/>
      <psa03 value="0.8878534870" flag="0"/>
      <psa10 value="0.0731146375" flag="0"/>
      <psa30 value="0.0083219596" flag="0"/>
    </comp>
    <comp name="--.HNN">
      <acc value="1.7077295642" flag="0"/>
      <vel value="0.4914275316" flag="0"/>
      <psa03 value="2.2383059622" flag="0"/>
      <psa10 value="0.2348868204" flag="0"/>
      <psa30 value="0.0155840038" flag="0"/>
    </comp>
  </station>
  <station code="AYDN" name="AYDN" netid="TU" insttype="T" lat="37.6608" lon="27.8792">
    <comp name="--.HHE">
      <acc value="0.1207324887" flag="0"/>
      <vel value="0.0366317890" flag="0"/>
      <psa03 value="0.2190710433" flag="0"/>
      <psa10 value="0.0139824022" flag="0"/>
      <psa30 value="0.0022964975" flag="0"/>
    </comp>
    <comp name="--.HHZ">
      <acc value="0.0782501780" flag="0"/>
      <vel value="0.0117407471" flag="0"/>
      <psa03 value="0.0502451335" flag="0"/>
      <psa10 value="0.0089208720" flag="0"/>
      <psa30 value="0.0021923385" flag="0"/>
    </comp>
    <comp name="--.HHN">
      <acc value="0.0565210778" flag="0"/>
      <vel value="0.0200024383" flag="0"/>
      <psa03 value="0.1049300152" flag="0"/>
      <psa10 value="0.0124321728" flag="0"/>
      <psa30 value="0.0015428815" flag="0"/>
    </comp>
  </station>
</stationlist>
