<?xml version="1.0" encoding="UTF-8" standalone="yes"?>
<!DOCTYPE earthquake SYSTEM "stationlist.dtd">
<stationlist created="" xmlns="ch.ethz.sed.shakemap.usgs.xml">
  <station code="KARP" name="KARP" netid="GE" insttype="STS-2/N" commtype="DIG" lat="35.5471" lon="27.1611">
    <comp name="--.HHE">
      <acc value="0.4505325095" flag="0"/>
      <vel value="0.1789373780" flag="0"/>
      <psa03 value="0.8443585976" flag="0"/>
      <psa10 value="0.2169461314" flag="0"/>
      <psa30 value="0.0142785203" flag="0"/>
    </comp>
    <comp name="--.HHZ">
      <acc value="0.2261089859" flag="0"/>
      <vel value="0.0835043498" flag="0"/>
      <psa03 value="0.5543955075" flag="0"/>
      <psa10 value="0.1019864248" flag="0"/>
      <psa30 value="0.0078523851" flag="0"/>
    </comp>
    <comp name="--.HHN">
      <acc value="0.3439345851" flag="0"/>
      <vel value="0.1381194524" flag="0"/>
      <psa03 value="0.6752234148" flag="0"/>
      <psa10 value="0.1812726471" flag="0"/>
      <psa30 value="0.0149348029" flag="0"/>
    </comp>
  </station>
  <station code="ZKR" name="ZKR" netid="GE" insttype="STS-2/N" commtype="DIG" lat="35.1147" lon="26.2169">
    <comp name="--.HHZ">
      <acc value="0.2356953695" flag="0"/>
      <vel value="0.0879965051" flag="0"/>
      <psa03 value="0.2894036267" flag="0"/>
      <psa10 value="0.0649023000" flag="0"/>
      <psa30 value="0.0191120914" flag="0"/>
    </comp>
    <comp name="--.HHN">
      <acc value="0.1488804564" flag="0"/>
      <vel value="0.0695365297" flag="0"/>
      <psa03 value="0.4501292087" flag="0"/>
      <psa10 value="0.0458770046" flag="0"/>
      <psa30 value="0.0148946203" flag="0"/>
    </comp>
    <comp name="--.HHE">
      <acc value="0.4270873758" flag="0"/>
      <vel value="0.1257273330" flag="0"/>
      <psa03 value="0.7180501244" flag="0"/>
      <psa10 value="0.1415507324" flag="0"/>
      <psa30 value="0.0115628754" flag="0"/>
    </comp>
  </station>
  <station code="IMOD" name="IMOD" netid="HC" insttype="120" commtype="DIG" lat="34.9731" lon="24.7995">
    <comp name="--.HHZ">
      <acc value="0.0190547971" flag="0"/>
      <vel value="0.0204641227" flag="0"/>
      <psa03 value="0.0453527621" flag="0"/>
      <psa10 value="0.0459339755" flag="0"/>
      <psa30 value="0.0043279525" flag="0"/>
    </comp>
    <comp name="--.HHE">
      <acc value="0.0315497831" flag="0"/>
      <vel value="0.0339700095" flag="0"/>
      <psa03 value="0.0781033378" flag="0"/>
      <psa10 value="0.0527986870" flag="0"/>
      <psa30 value="0.0040499408" flag="0"/>
    </comp>
    <comp name="--.HHN">
      <acc value="0.0363920229" flag="0"/>
      <vel value="0.0350791891" flag="0"/>
      <psa03 value="0.1001865513" flag="0"/>
      <psa10 value="0.0764197628" flag="0"/>
      <psa30 value="0.0074226053" flag="0"/>
    </comp>
  </station>
  <station code="KNSS" name="KNSS" netid="HC" insttype="60" commtype="DIG" lat="35.3042" lon="25.1802">
    <comp name="--.HHN">
      <acc value="0.0412996418" flag="0"/>
      <vel value="0.0346824885" flag="0"/>
      <psa03 value="0.1345752634" flag="0"/>
      <psa10 value="0.0583760057" flag="0"/>
      <psa30 value="0.0070138727" flag="0"/>
    </comp>
    <comp name="--.HHE">
      <acc value="0.0499367239" flag="0"/>
      <vel value="0.0329668235" flag="0"/>
      <psa03 value="0.1556469896" flag="0"/>
      <psa10 value="0.0481166132" flag="0"/>
      <psa30 value="0.0052272818" flag="0"/>
    </comp>
    <comp name="--.HHZ">
      <acc value="0.0290951597" flag="0"/>
      <vel value="0.0162246123" flag="0"/>
      <psa03 value="0.0708902765" flag="0"/>
      <psa10 value="0.0165116753" flag="0"/>
      <psa30 value="0.0016378662" flag="0"/>
    </comp>
  </station>
  <station code="PFKS" name="PFKS" netid="HC" insttype="120" commtype="DIG" lat="35.0429" lon="25.4733">
    <comp name="--.HHE">
      <acc value="0.0706231958" flag="0"/>
      <vel value="0.0531351354" flag="0"/>
      <psa03 value="0.2689841083" flag="0"/>
      <psa10 value="0.0975575965" flag="0"/>
      <psa30 value="0.0055344052" flag="0"/>
    </comp>
    <comp name="--.HHN">
      <acc value="0.1049390079" flag="0"/>
      <vel value="0.0793257566" flag="0"/>
      <psa03 value="0.2835361731" flag="0"/>
      <psa10 value="0.2113586040" flag="0"/>
      <psa30 value="0.0078973805" flag="0"/>
    </comp>
    <comp name="--.HHZ">
      <acc value="0.0498274304" flag="0"/>
      <vel value="0.0371919743" flag="0"/>
      <psa03 value="0.1755827031" flag="0"/>
      <psa10 value="0.0658552702" flag="0"/>
      <psa30 value="0.0040366309" flag="0"/>
    </comp>
  </station>
  <station code="STIA" name="STIA" netid="HC" insttype="120" commtype="DIG" lat="35.2021" lon="26.0909">
    <comp name="--.HHZ">
      <acc value="0.2266576501" flag="0"/>
      <vel value="0.1121850622" flag="0"/>
      <psa03 value="0.5089477827" flag="0"/>
      <psa10 value="0.0884967452" flag="0"/>
      <psa30 value="0.0112094284" flag="0"/>
    </comp>
    <comp name="--.HHE">
      <acc value="0.2644736519" flag="0"/>
      <vel value="0.1559187450" flag="0"/>
      <psa03 value="0.8738459572" flag="0"/>
      <psa10 value="0.2426905060" flag="0"/>
      <psa30 value="0.0158048977" flag="0"/>
    </comp>
    <comp name="--.HHN">
      <acc value="0.0000000000" flag="0"/>
      <vel value="-100.0000000000" flag="0"/>
      <psa03 value="0.0000000000" flag="0"/>
      <psa10 value="0.0000000000" flag="0"/>
      <psa30 value="0.0000000000" flag="0"/>
    </comp>
  </station>
  <station code="TEFL" name="TEFL" netid="HC" insttype="GEOtiny," commtype="DIG" lat="35.0933" lon="25.1634">
    <comp name="--.HHN">
      <acc value="0.0960279909" flag="0"/>
      <vel value="0.0902872087" flag="0"/>
      <psa03 value="0.3444586764" flag="0"/>
      <psa10 value="0.1776902048" flag="0"/>
      <psa30 value="0.0094153622" flag="0"/>
    </comp>
    <comp name="--.HHE">
      <acc value="0.0948689505" flag="0"/>
      <vel value="0.0847758655" flag="0"/>
      <psa03 value="0.2160288439" flag="0"/>
      <psa10 value="0.1577851842" flag="0"/>
      <psa30 value="0.0141780382" flag="0"/>
    </comp>
    <comp name="--.HHZ">
      <acc value="0.0436922389" flag="0"/>
      <vel value="0.0430562935" flag="0"/>
      <psa03 value="0.1674358449" flag="0"/>
      <psa10 value="0.0479031917" flag="0"/>
      <psa30 value="0.0044260326" flag="0"/>
    </comp>
  </station>
  <station code="AGN1" name="AGN1" netid="HI" insttype="unknown" commtype="DIG" lat="35.1879" lon="25.7155">
    <comp name="--.HNE">
      <acc value="0.1928955270" flag="0"/>
      <vel value="0.1189356119" flag="0"/>
      <psa03 value="0.4275675401" flag="0"/>
      <psa10 value="0.2306794499" flag="0"/>
      <psa30 value="0.0108663642" flag="0"/>
    </comp>
    <comp name="--.HNN">
      <acc value="0.1453742038" flag="0"/>
      <vel value="0.0935989886" flag="0"/>
      <psa03 value="0.3352917909" flag="0"/>
      <psa10 value="0.0972881907" flag="0"/>
      <psa30 value="0.0125814518" flag="0"/>
    </comp>
    <comp name="--.HNZ">
      <acc value="0.0624930395" flag="0"/>
      <vel value="0.0423108325" flag="0"/>
      <psa03 value="0.1478753789" flag="0"/>
      <psa10 value="0.0534585686" flag="0"/>
      <psa30 value="0.0067522465" flag="0"/>
    </comp>
  </station>
  <station code="ARK1" name="ARK1" netid="HI" insttype="unknown" commtype="DIG" lat="35.1488" lon="25.2642">
    <comp name="--.HNE">
      <acc value="0.0667840803" flag="0"/>
      <vel value="0.0804056250" flag="0"/>
      <psa03 value="0.1673291011" flag="0"/>
      <psa10 value="0.1160338463" flag="0"/>
      <psa30 value="0.0112073776" flag="0"/>
    </comp>
    <comp name="--.HNZ">
      <acc value="0.0579190232" flag="0"/>
      <vel value="0.0672097455" flag="0"/>
      <psa03 value="0.1215827252" flag="0"/>
      <psa10 value="0.0937673822" flag="0"/>
      <psa30 value="0.0144469853" flag="0"/>
    </comp>
    <comp name="--.HNN">
      <acc value="0.0991423293" flag="0"/>
      <vel value="0.1191630657" flag="0"/>
      <psa03 value="0.1858847508" flag="0"/>
      <psa10 value="0.1950442942" flag="0"/>
      <psa30 value="0.0235437113" flag="0"/>
    </comp>
  </station>
  <station code="GOR1" name="GOR1" netid="HI" insttype="unknown" commtype="DIG" lat="35.0582" lon="24.9628">
    <comp name="--.HNE">
      <acc value="0.0346737717" flag="0"/>
      <vel value="0.0481913661" flag="0"/>
      <psa03 value="0.1417024667" flag="0"/>
      <psa10 value="0.0858953657" flag="0"/>
      <psa30 value="0.0163091435" flag="0"/>
    </comp>
    <comp name="--.HNZ">
      <acc value="0.0270926391" flag="0"/>
      <vel value="0.0367352126" flag="0"/>
      <psa03 value="0.0491078789" flag="0"/>
      <psa10 value="0.0491249849" flag="0"/>
      <psa30 value="0.0127570746" flag="0"/>
    </comp>
    <comp name="--.HNN">
      <acc value="0.0457743206" flag="0"/>
      <vel value="0.0929552212" flag="0"/>
      <psa03 value="0.1134320867" flag="0"/>
      <psa10 value="0.1560285078" flag="0"/>
      <psa30 value="0.0199168000" flag="0"/>
    </comp>
  </station>
  <station code="HER1" name="HER1" netid="HI" insttype="unknown" commtype="DIG" lat="35.3177" lon="25.1022">
    <comp name="--.HNE">
      <acc value="0.1659787739" flag="0"/>
      <vel value="0.2215370768" flag="0"/>
      <psa03 value="0.3557985116" flag="0"/>
      <psa10 value="0.5084445506" flag="0"/>
      <psa30 value="0.0271866691" flag="0"/>
    </comp>
    <comp name="--.HNZ">
      <acc value="0.1584825277" flag="0"/>
      <vel value="0.1794408035" flag="0"/>
      <psa03 value="0.2732287270" flag="0"/>
      <psa10 value="0.3785741225" flag="0"/>
      <psa30 value="0.0141630017" flag="0"/>
    </comp>
    <comp name="--.HNN">
      <acc value="0.1738532038" flag="0"/>
      <vel value="0.2430098769" flag="0"/>
      <psa03 value="0.2649521459" flag="0"/>
      <psa10 value="0.4484127686" flag="0"/>
      <psa30 value="0.0303136891" flag="0"/>
    </comp>
  </station>
  <station code="KSS1" name="KSS1" netid="HI" insttype="CMG-5TD,ACCELEROMETER,GURALP" commtype="DIG" lat="35.4189" lon="26.9207">
    <comp name="--.HNE">
      <acc value="0.3911985798" flag="0"/>
      <vel value="0.1171697906" flag="0"/>
      <psa03 value="0.8585821279" flag="0"/>
      <psa10 value="0.0809018303" flag="0"/>
      <psa30 value="0.0091444573" flag="0"/>
    </comp>
    <comp name="--.HNN">
      <acc value="0.5094319781" flag="0"/>
      <vel value="0.2205824865" flag="0"/>
      <psa03 value="0.9695165647" flag="0"/>
      <psa10 value="0.1987243980" flag="0"/>
      <psa30 value="0.0182491884" flag="0"/>
    </comp>
    <comp name="--.HNZ">
      <acc value="0.4450013369" flag="0"/>
      <vel value="0.1235183127" flag="0"/>
      <psa03 value="0.3488762702" flag="0"/>
      <psa10 value="0.1219432406" flag="0"/>
      <psa30 value="0.0168267983" flag="0"/>
    </comp>
  </station>
  <station code="KTL1" name="KTL1" netid="HI" insttype="unknown" commtype="DIG" lat="35.2078" lon="25.3427">
    <comp name="--.HNE">
      <acc value="0.1193131226" flag="0"/>
      <vel value="0.0906123210" flag="0"/>
      <psa03 value="0.2447165099" flag="0"/>
      <psa10 value="0.0757782648" flag="0"/>
      <psa30 value="0.0080034317" flag="0"/>
    </comp>
    <comp name="--.HNN">
      <acc value="0.0874757759" flag="0"/>
      <vel value="0.0845459150" flag="0"/>
      <psa03 value="0.2217691780" flag="0"/>
      <psa10 value="0.0900305533" flag="0"/>
      <psa30 value="0.0088923580" flag="0"/>
    </comp>
    <comp name="--.HNZ">
      <acc value="0.0375424232" flag="0"/>
      <vel value="0.0389082247" flag="0"/>
      <psa03 value="0.0754670791" flag="0"/>
      <psa10 value="0.0559783852" flag="0"/>
      <psa30 value="0.0052886410" flag="0"/>
    </comp>
  </station>
  <station code="AGNA" name="AGNA" netid="HL" insttype="CMG-5" commtype="DIG" lat="35.1895" lon="25.7185">
    <comp name="00.HNE">
      <acc value="0.1073340146" flag="0"/>
      <vel value="0.0867289066" flag="0"/>
      <psa03 value="0.3757355451" flag="0"/>
      <psa10 value="0.1381325920" flag="0"/>
      <psa30 value="0.0090962218" flag="0"/>
    </comp>
    <comp name="00.HNN">
      <acc value="0.1484018291" flag="0"/>
      <vel value="0.1453353833" flag="0"/>
      <psa03 value="0.2889866258" flag="0"/>
      <psa10 value="0.2665113601" flag="0"/>
      <psa30 value="0.0149663785" flag="0"/>
    </comp>
    <comp name="00.HNZ">
      <acc value="0.0506698471" flag="0"/>
      <vel value="0.0479880068" flag="0"/>
      <psa03 value="0.1387934556" flag="0"/>
      <psa10 value="0.0628244724" flag="0"/>
      <psa30 value="0.0066231082" flag="0"/>
    </comp>
  </station>
  <station code="ANAF" name="ANAF" netid="HL" insttype="LE3D20_SMART24" commtype="DIG" lat="36.3567" lon="25.7726">
    <comp name="--.HHE">
      <acc value="0.2843760065" flag="0"/>
      <vel value="0.1825709132" flag="0"/>
      <psa03 value="0.7807957953" flag="0"/>
      <psa10 value="0.1179763677" flag="0"/>
      <psa30 value="0.0170926559" flag="0"/>
    </comp>
    <comp name="--.HHN">
      <acc value="0.4354990975" flag="0"/>
      <vel value="0.1852149673" flag="0"/>
      <psa03 value="1.2363390952" flag="0"/>
      <psa10 value="0.1050874613" flag="0"/>
      <psa30 value="0.0090298114" flag="0"/>
    </comp>
    <comp name="--.HHZ">
      <acc value="0.1158807041" flag="0"/>
      <vel value="0.0698119835" flag="0"/>
      <psa03 value="0.3851714861" flag="0"/>
      <psa10 value="0.0481056196" flag="0"/>
      <psa30 value="0.0091500909" flag="0"/>
    </comp>
  </station>
  <station code="ASTA" name="ASTA" netid="HL" insttype="LE3D20_SMART24" commtype="DIG" lat="36.5475" lon="26.3471">
    <comp name="--.HHE">
      <acc value="0.0632210932" flag="0"/>
      <vel value="0.0386721108" flag="0"/>
      <psa03 value="0.1693995124" flag="0"/>
      <psa10 value="0.0505429120" flag="0"/>
      <psa30 value="0.0051307433" flag="0"/>
    </comp>
    <comp name="--.HHN">
      <acc value="0.0755721465" flag="0"/>
      <vel value="0.0397871359" flag="0"/>
      <psa03 value="0.2022107324" flag="0"/>
      <psa10 value="0.0222092776" flag="0"/>
      <psa30 value="0.0040940453" flag="0"/>
    </comp>
    <comp name="--.HHZ">
      <acc value="0.0344066731" flag="0"/>
      <vel value="0.0224511212" flag="0"/>
      <psa03 value="0.1093299627" flag="0"/>
      <psa10 value="0.0189585742" flag="0"/>
      <psa30 value="0.0025031489" flag="0"/>
    </comp>
  </station>
  <station code="IACM" name="IACM" netid="HL" insttype="120" commtype="DIG" lat="35.3058" lon="25.0709">
    <comp name="--.HHE">
      <acc value="0.1933020747" flag="0"/>
      <vel value="0.2174837613" flag="0"/>
      <psa03 value="0.6591551783" flag="0"/>
      <psa10 value="0.6026975598" flag="0"/>
      <psa30 value="0.0232720186" flag="0"/>
    </comp>
    <comp name="--.HHN">
      <acc value="0.1754740121" flag="0"/>
      <vel value="0.1974425352" flag="0"/>
      <psa03 value="0.5408430189" flag="0"/>
      <psa10 value="0.3349897440" flag="0"/>
      <psa30 value="0.0248724335" flag="0"/>
    </comp>
    <comp name="--.HHZ">
      <acc value="0.1140064654" flag="0"/>
      <vel value="0.0979056542" flag="0"/>
      <psa03 value="0.2827566798" flag="0"/>
      <psa10 value="0.1424091219" flag="0"/>
      <psa30 value="0.0090414625" flag="0"/>
    </comp>
  </station>
  <station code="KARP" name="KARP" netid="HL" insttype="120" commtype="DIG" lat="35.5471" lon="27.1611">
    <comp name="--.HHE">
      <acc value="0.4278882980" flag="0"/>
      <vel value="0.1742571100" flag="0"/>
      <psa03 value="0.8209563384" flag="0"/>
      <psa10 value="0.2153895443" flag="0"/>
      <psa30 value="0.0141814501" flag="0"/>
    </comp>
    <comp name="--.HHN">
      <acc value="0.3247318289" flag="0"/>
      <vel value="0.1357095480" flag="0"/>
      <psa03 value="0.6543658743" flag="0"/>
      <psa10 value="0.1799375129" flag="0"/>
      <psa30 value="0.0148621241" flag="0"/>
    </comp>
    <comp name="--.HHZ">
      <acc value="0.2189236178" flag="0"/>
      <vel value="0.0826154030" flag="0"/>
      <psa03 value="0.5417300191" flag="0"/>
      <psa10 value="0.1011674132" flag="0"/>
      <psa30 value="0.0078389069" flag="0"/>
    </comp>
  </station>
  <station code="NPS" name="NPS" netid="HL" insttype="CMG3ESPC-120s" commtype="DIG" lat="35.2613" lon="25.6104">
    <comp name="--.HHE">
      <acc value="0.0629501002" flag="0"/>
      <vel value="0.0514414323" flag="0"/>
      <psa03 value="0.0874404680" flag="0"/>
      <psa10 value="0.0675952358" flag="0"/>
      <psa30 value="0.0028435524" flag="0"/>
    </comp>
    <comp name="--.HHN">
      <acc value="0.0883786442" flag="0"/>
      <vel value="0.0614895094" flag="0"/>
      <psa03 value="0.2057294688" flag="0"/>
      <psa10 value="0.1124182180" flag="0"/>
      <psa30 value="0.0078156006" flag="0"/>
    </comp>
    <comp name="--.HHZ">
      <acc value="0.0675644333" flag="0"/>
      <vel value="0.0461069262" flag="0"/>
      <psa03 value="0.2345842280" flag="0"/>
      <psa10 value="0.0402544523" flag="0"/>
      <psa30 value="0.0059217588" flag="0"/>
    </comp>
  </station>
  <station code="SIVA" name="SIVA" netid="HL" insttype="60" commtype="DIG" lat="35.0178" lon="24.812">
    <comp name="--.HHE">
      <acc value="0.0327474371" flag="0"/>
      <vel value="0.0377344795" flag="0"/>
      <psa03 value="0.0772309207" flag="0"/>
      <psa10 value="0.0814734781" flag="0"/>
      <psa30 value="0.0060761563" flag="0"/>
    </comp>
    <comp name="--.HHN">
      <acc value="0.0309609495" flag="0"/>
      <vel value="0.0334288559" flag="0"/>
      <psa03 value="0.0700960190" flag="0"/>
      <psa10 value="0.0599057556" flag="0"/>
      <psa30 value="0.0067322586" flag="0"/>
    </comp>
    <comp name="--.HHZ">
      <acc value="0.0215119154" flag="0"/>
      <vel value="0.0258886710" flag="0"/>
      <psa03 value="0.0475884163" flag="0"/>
      <psa10 value="0.0369385400" flag="0"/>
      <psa30 value="0.0040236331" flag="0"/>
    </comp>
  </station>
</stationlist>
