<?xml version="1.0" encoding="UTF-8" standalone="yes"?>
<!DOCTYPE earthquake SYSTEM "stationlist.dtd">
<stationlist created="" xmlns="ch.ethz.sed.shakemap.usgs.xml">
  <station code="KARP" name="KARP" netid="GE" insttype="STS-2/N" commtype="DIG" lat="35.5471" lon="27.1611">
    <comp name="--.HHE">
      <acc value="0.4503668553" flag="0"/>
      <vel value="0.1802908610" flag="0"/>
      <psa03 value="0.8444181142" flag="0"/>
      <psa10 value="0.2167576308" flag="0"/>
      <psa30 value="0.0138748281" flag="0"/>
    </comp>
    <comp name="--.HHZ">
      <acc value="0.2259383574" flag="0"/>
      <vel value="0.0856856263" flag="0"/>
      <psa03 value="0.5541699507" flag="0"/>
      <psa10 value="0.1018937747" flag="0"/>
      <psa30 value="0.0073388610" flag="0"/>
    </comp>
    <comp name="--.HHN">
      <acc value="0.3437979592" flag="0"/>
      <vel value="0.1393737037" flag="0"/>
      <psa03 value="0.6750823029" flag="0"/>
      <psa10 value="0.1812655634" flag="0"/>
      <psa30 value="0.0141320454" flag="0"/>
    </comp>
  </station>
  <station code="ZKR" name="ZKR" netid="GE" insttype="STS-2/N" commtype="DIG" lat="35.1147" lon="26.2169">
    <comp name="--.HHE">
      <acc value="0.4270443986" flag="0"/>
      <vel value="0.1227474864" flag="0"/>
      <psa03 value="0.7183045783" flag="0"/>
      <psa10 value="0.1413912383" flag="0"/>
      <psa30 value="0.0113733450" flag="0"/>
    </comp>
    <comp name="--.HHN">
      <acc value="0.1491251577" flag="0"/>
      <vel value="0.0679503329" flag="0"/>
      <psa03 value="0.4501025372" flag="0"/>
      <psa10 value="0.0461640452" flag="0"/>
      <psa30 value="0.0131800155" flag="0"/>
    </comp>
    <comp name="--.HHZ">
      <acc value="0.2358013101" flag="0"/>
      <vel value="0.0876009631" flag="0"/>
      <psa03 value="0.2891979862" flag="0"/>
      <psa10 value="0.0648640240" flag="0"/>
      <psa30 value="0.0166753284" flag="0"/>
    </comp>
  </station>
</stationlist>
