<?xml version="1.0" encoding="UTF-8" standalone="yes"?>
<!DOCTYPE earthquake SYSTEM "stationlist.dtd">
<stationlist created="" xmlns="ch.ethz.sed.shakemap.usgs.xml">
  <station code="APE" name="APE" netid="GE" insttype="STS-2/N" commtype="DIG" lat="37.0727" lon="25.523">
    <comp name="--.HHE">
      <acc value="0.1586521053" flag="0"/>
      <vel value="0.0196904529" flag="0"/>
      <psa03 value="0.0781735545" flag="0"/>
      <psa10 value="0.0077392231" flag="0"/>
      <psa30 value="0.0014844078" flag="0"/>
    </comp>
    <comp name="--.HHZ">
      <acc value="0.0575134459" flag="0"/>
      <vel value="0.0112441843" flag="0"/>
      <psa03 value="0.0459812739" flag="0"/>
      <psa10 value="0.0081049662" flag="0"/>
      <psa30 value="0.0014644565" flag="0"/>
    </comp>
    <comp name="--.HHN">
      <acc value="0.1676779911" flag="0"/>
      <vel value="0.0230226816" flag="0"/>
      <psa03 value="0.0717787150" flag="0"/>
      <psa10 value="0.0087602922" flag="0"/>
      <psa30 value="0.0010224807" flag="0"/>
    </comp>
  </station>
  <station code="THERA" name="THERA" netid="GE" insttype="STS-2/N" commtype="DIG" lat="36.367" lon="25.4753">
    <comp name="--.HHN">
      <acc value="0.0494394925" flag="0"/>
      <vel value="0.0141052036" flag="0"/>
      <psa03 value="0.0710485804" flag="0"/>
      <psa10 value="0.0058665368" flag="0"/>
      <psa30 value="0.0003565756" flag="0"/>
    </comp>
    <comp name="--.HHE">
      <acc value="0.0663950285" flag="0"/>
      <vel value="0.0164401709" flag="0"/>
      <psa03 value="0.0668086055" flag="0"/>
      <psa10 value="0.0074462938" flag="0"/>
      <psa30 value="0.0006112048" flag="0"/>
    </comp>
    <comp name="--.HHZ">
      <acc value="0.0529801860" flag="0"/>
      <vel value="0.0128297860" flag="0"/>
      <psa03 value="0.0391948055" flag="0"/>
      <psa10 value="0.0037112483" flag="0"/>
      <psa30 value="0.0002924434" flag="0"/>
    </comp>
  </station>
</stationlist>
