<stationlist created="1778135912">
	<station code="ERCV" name="ERCV" netid="KO" source="Bogazici University Kandilli Observatory And Earthquake Research Institute (KOERI)" insttype="" lat="39.0198" lon="43.3381">
		<comp name="--.HNE" depth="0.0">
			<acc value="0.722863467769229" flag="0"/>
			<vel value="0.825512391461709" flag="0"/>
			<psa03 value="1.58754297522952" flag="0"/>
			<psa10 value="1.25071961700857" flag="0"/>
			<psa30 value="0.17255950537502" flag="0"/>
		</comp>
		<comp name="--.HNN" depth="0.0">
			<acc value="1.53002326402936" flag="0"/>
			<vel value="1.29381797830851" flag="0"/>
			<psa03 value="3.3924435902106" flag="0"/>
			<psa10 value="1.47001906852737" flag="0"/>
			<psa30 value="0.317047302895669" flag="0"/>
		</comp>
		<comp name="--.HNZ" depth="0.0">
			<acc value="0.457110966673886" flag="0"/>
			<vel value="0.459382387590974" flag="0"/>
			<psa03 value="0.763033591668007" flag="0"/>
			<psa10 value="0.86361541441208" flag="0"/>
			<psa30 value="0.0746138934448947" flag="0"/>
		</comp>
	</station>
</stationlist>
