<?xml version="1.0" encoding="UTF-8" standalone="yes"?>
<!DOCTYPE earthquake SYSTEM "stationlist.dtd">
<stationlist created="" xmlns="ch.ethz.sed.shakemap.usgs.xml">
  <station code="AGRB" name="AGRB" netid="KO" insttype="120s," lat="39.5755" lon="42.992">
    <comp name="--.HHE">
      <acc value="0.0434244194" flag="0"/>
      <vel value="0.0436252525" flag="0"/>
      <psa03 value="0.0985773404" flag="0"/>
      <psa10 value="0.0552154515" flag="0"/>
      <psa30 value="0.0083642199" flag="0"/>
    </comp>
    <comp name="--.HHN">
      <acc value="0.0257611884" flag="0"/>
      <vel value="0.0246459851" flag="0"/>
      <psa03 value="0.0861431828" flag="0"/>
      <psa10 value="0.0564710673" flag="0"/>
      <psa30 value="0.0072059646" flag="0"/>
    </comp>
    <comp name="--.HHZ">
      <acc value="0.0273886045" flag="0"/>
      <vel value="0.0234322375" flag="0"/>
      <psa03 value="0.0595624965" flag="0"/>
      <psa10 value="0.0340255142" flag="0"/>
      <psa30 value="0.0123442924" flag="0"/>
    </comp>
  </station>
  <station code="ERCV" name="ERCV" netid="KO" insttype="100" lat="39.0198" lon="43.3381">
    <comp name="--.HNE">
      <acc value="0.1145571168" flag="0"/>
      <vel value="0.1261215622" flag="0"/>
      <psa03 value="0.2521442912" flag="0"/>
      <psa10 value="0.1983207521" flag="0"/>
      <psa30 value="0.0250718675" flag="0"/>
    </comp>
    <comp name="--.HNZ">
      <acc value="0.0725800210" flag="0"/>
      <vel value="0.0724335566" flag="0"/>
      <psa03 value="0.1211381781" flag="0"/>
      <psa10 value="0.1372472782" flag="0"/>
      <psa30 value="0.0107948545" flag="0"/>
    </comp>
    <comp name="--.HNN">
      <acc value="0.2441047065" flag="0"/>
      <vel value="0.2005729793" flag="0"/>
      <psa03 value="0.5395479451" flag="0"/>
      <psa10 value="0.2325103699" flag="0"/>
      <psa30 value="0.0444614487" flag="0"/>
    </comp>
  </station>
  <station code="MLAZ" name="MLAZ" netid="KO" insttype="120s," lat="39.141" lon="42.5496">
    <comp name="--.HHN">
      <acc value="0.0549360540" flag="0"/>
      <vel value="0.0906356679" flag="0"/>
      <psa03 value="0.0986959823" flag="0"/>
      <psa10 value="0.1181594404" flag="0"/>
      <psa30 value="0.0352677179" flag="0"/>
    </comp>
    <comp name="--.HHE">
      <acc value="0.0718057824" flag="0"/>
      <vel value="0.0982819092" flag="0"/>
      <psa03 value="0.1052939752" flag="0"/>
      <psa10 value="0.1798087123" flag="0"/>
      <psa30 value="0.0372111989" flag="0"/>
    </comp>
    <comp name="--.HHZ">
      <acc value="0.0400095908" flag="0"/>
      <vel value="0.0646366018" flag="0"/>
      <psa03 value="0.0487755469" flag="0"/>
      <psa10 value="0.0947916073" flag="0"/>
      <psa30 value="0.0134490497" flag="0"/>
    </comp>
  </station>
  <station code="TASB" name="TASB" netid="KO" insttype="120s," lat="39.9839" lon="44.2384">
    <comp name="--.HHN">
      <acc value="0.0077732897" flag="0"/>
      <vel value="0.0100246277" flag="0"/>
      <psa03 value="0.0124587006" flag="0"/>
      <psa10 value="0.0170957714" flag="0"/>
      <psa30 value="0.0032362012" flag="0"/>
    </comp>
    <comp name="--.HHZ">
      <acc value="0.0034307673" flag="0"/>
      <vel value="0.0075794545" flag="0"/>
      <psa03 value="0.0073682331" flag="0"/>
      <psa10 value="0.0093253934" flag="0"/>
      <psa30 value="0.0036496557" flag="0"/>
    </comp>
    <comp name="--.HHE">
      <acc value="0.0107330033" flag="0"/>
      <vel value="0.0181126476" flag="0"/>
      <psa03 value="0.0157308259" flag="0"/>
      <psa10 value="0.0185825989" flag="0"/>
      <psa30 value="0.0049896563" flag="0"/>
    </comp>
  </station>
  <station code="VANB" name="VANB" netid="KO" insttype="360s," lat="38.509" lon="43.4058">
    <comp name="--.HHZ">
      <acc value="0.0343367214" flag="0"/>
      <vel value="0.0707369971" flag="0"/>
      <psa03 value="0.0502611767" flag="0"/>
      <psa10 value="0.1515526718" flag="0"/>
      <psa30 value="0.0521711585" flag="0"/>
    </comp>
    <comp name="--.HHE">
      <acc value="0.0862817601" flag="0"/>
      <vel value="0.1892097361" flag="0"/>
      <psa03 value="0.1042315210" flag="0"/>
      <psa10 value="0.3530825065" flag="0"/>
      <psa30 value="0.0564027207" flag="0"/>
    </comp>
    <comp name="--.HHN">
      <acc value="0.0520811435" flag="0"/>
      <vel value="0.1041443301" flag="0"/>
      <psa03 value="0.0719761358" flag="0"/>
      <psa10 value="0.1701720407" flag="0"/>
      <psa30 value="0.0583283296" flag="0"/>
    </comp>
  </station>
</stationlist>
