<stationlist xmlns:esm="https://esm-db.eu/esmws/shakemap/1/" created="1784080549">
	<station code="ATEI" name="ATEI" netid="HC" source="Seismological Network of Crete (HC)" insttype="" lat="35.5193" lon="24.0432" esm:processing="manual (Paolucci et al 2011)" esm:quality="good">
		<comp name="--.HNE" depth="0.0">
			<acc value="0.0140681239817267" flag="0"/>
			<vel value="0.0178885158263454" flag="0"/>
			<psa03 value="0.0501125228336982" flag="0"/>
			<psa10 value="0.0350739622278635" flag="0"/>
			<psa30 value="0.00425173415652144" flag="0"/>
		</comp>
		<comp name="--.HNN" depth="0.0">
			<acc value="0.0207886607523457" flag="0"/>
			<vel value="0.0223494148848591" flag="0"/>
			<psa03 value="0.0363503976187771" flag="0"/>
			<psa10 value="0.049523958219181" flag="0"/>
			<psa30 value="0.00471754918114738" flag="0"/>
		</comp>
		<comp name="--.HNZ" depth="0.0">
			<acc value="0.00992992358093451" flag="0"/>
			<vel value="0.00900964332139607" flag="0"/>
			<psa03 value="0.0212525719410889" flag="0"/>
			<psa10 value="0.0135644376399228" flag="0"/>
			<psa30 value="0.0018870904271461" flag="0"/>
		</comp>
	</station>
	<station code="LENT" name="LENT" netid="HC" source="Seismological Network of Crete (HC)" insttype="" lat="35.5074" lon="24.0402" esm:processing="manual (Paolucci et al 2011)" esm:quality="good">
		<comp name="--.HNE" depth="0.0">
			<acc value="0.0168549215533067" flag="0"/>
			<vel value="0.0228369111044695" flag="0"/>
			<psa03 value="0.032266442180939" flag="0"/>
			<psa10 value="0.0439096300474933" flag="0"/>
			<psa30 value="0.00441316818406682" flag="0"/>
		</comp>
		<comp name="--.HNN" depth="0.0">
			<acc value="0.0181066162977367" flag="0"/>
			<vel value="0.0265004843767091" flag="0"/>
			<psa03 value="0.0340193030910384" flag="0"/>
			<psa10 value="0.0612503362841777" flag="0"/>
			<psa30 value="0.00543125812752905" flag="0"/>
		</comp>
		<comp name="--.HNZ" depth="0.0">
			<acc value="0.0112164518387219" flag="0"/>
			<vel value="0.013416754473282" flag="0"/>
			<psa03 value="0.0250720124602784" flag="0"/>
			<psa10 value="0.0172563481483751" flag="0"/>
			<psa30 value="0.00235776785721588" flag="0"/>
		</comp>
	</station>
	<station code="PASK" name="PASK" netid="HC" source="Seismological Network of Crete (HC)" insttype="" lat="35.4996" lon="24.0121" esm:processing="automatic (Paolucci et al 2011)" esm:quality="best">
		<comp name="--.HNE" depth="0.0">
			<acc value="0.0332375807516535" flag="0"/>
			<vel value="0.0335220806357621" flag="0"/>
			<psa03 value="0.0771949575370838" flag="0"/>
			<psa10 value="0.0520047775613296" flag="0"/>
			<psa30 value="0.010115917629908" flag="0"/>
		</comp>
		<comp name="--.HNN" depth="0.0">
			<acc value="0.0249694435860824" flag="0"/>
			<vel value="0.0290983972700115" flag="0"/>
			<psa03 value="0.0625107347793632" flag="0"/>
			<psa10 value="0.0590127168029878" flag="0"/>
			<psa30 value="0.011405307212302" flag="0"/>
		</comp>
		<comp name="--.HNZ" depth="0.0">
			<acc value="0.017128184786484" flag="0"/>
			<vel value="0.0138345551082956" flag="0"/>
			<psa03 value="0.0433560205610824" flag="0"/>
			<psa10 value="0.0173670686080765" flag="0"/>
			<psa30 value="0.00387894029408937" flag="0"/>
		</comp>
	</station>
	<station code="POLY" name="POLY" netid="HC" source="Seismological Network of Crete (HC)" insttype="" lat="35.5226" lon="24.0602" esm:processing="manual (Paolucci et al 2011)" esm:quality="good">
		<comp name="--.HNE" depth="0.0">
			<acc value="0.0179062043261355" flag="0"/>
			<vel value="0.0198839309898839" flag="0"/>
			<psa03 value="0.0268524298833615" flag="0"/>
			<psa10 value="0.0374046966275788" flag="0"/>
			<psa30 value="0.00471729833119647" flag="0"/>
		</comp>
		<comp name="--.HNN" depth="0.0">
			<acc value="0.0151766630339242" flag="0"/>
			<vel value="0.0237856231314603" flag="0"/>
			<psa03 value="0.0290783221294654" flag="0"/>
			<psa10 value="0.0231579322243566" flag="0"/>
			<psa30 value="0.00582350327851193" flag="0"/>
		</comp>
		<comp name="--.HNZ" depth="0.0">
			<acc value="0.00917298884198722" flag="0"/>
			<vel value="0.0086177123011956" flag="0"/>
			<psa03 value="0.0180820715464144" flag="0"/>
			<psa10 value="0.0189310722156254" flag="0"/>
			<psa30 value="0.00161208668866475" flag="0"/>
		</comp>
	</station>
	<station code="CH01" name="CH01" netid="HI" source="ITSAK Strong Motion Network" insttype="" lat="35.517" lon="24.0208" esm:processing="manual (Paolucci et al 2011)" esm:quality="best">
		<comp name="--.HNE" depth="0.0">
			<acc value="0.016452525423248" flag="0"/>
			<vel value="0.0223269383414492" flag="0"/>
			<psa03 value="0.0295854078047329" flag="0"/>
			<psa10 value="0.0323122080251883" flag="0"/>
			<psa30 value="0.00499545592445524" flag="0"/>
		</comp>
		<comp name="--.HNN" depth="0.0">
			<acc value="0.0166372993812289" flag="0"/>
			<vel value="0.0198621675830628" flag="0"/>
			<psa03 value="0.0393907813209637" flag="0"/>
			<psa10 value="0.0310429851954255" flag="0"/>
			<psa30 value="0.00934484488343028" flag="0"/>
		</comp>
		<comp name="--.HNZ" depth="0.0">
			<acc value="0.0108707106959391" flag="0"/>
			<vel value="0.0135524682434815" flag="0"/>
			<psa03 value="0.0258158820505062" flag="0"/>
			<psa10 value="0.0354048391468265" flag="0"/>
			<psa30 value="0.00321231113317917" flag="0"/>
		</comp>
	</station>
	<station code="NPS1" name="NPS1" netid="HI" source="ITSAK Strong Motion Network" insttype="" lat="36.51263" lon="23.06248" esm:processing="manual (Paolucci et al 2011)" esm:quality="best">
		<comp name="--.HNE" depth="0.0">
			<acc value="0.0202963096549367" flag="0"/>
			<vel value="0.0154903167272494" flag="0"/>
			<psa03 value="0.0508956632543969" flag="0"/>
			<psa10 value="0.03067290505442" flag="0"/>
			<psa30 value="0.00348865048097186" flag="0"/>
		</comp>
		<comp name="--.HNN" depth="0.0">
			<acc value="0.0191931900437586" flag="0"/>
			<vel value="0.0170046246223906" flag="0"/>
			<psa03 value="0.0396553118656043" flag="0"/>
			<psa10 value="0.0365184454177708" flag="0"/>
			<psa30 value="0.00168592512176465" flag="0"/>
		</comp>
		<comp name="--.HNZ" depth="0.0">
			<acc value="0.0105279955895938" flag="0"/>
			<vel value="0.00815061295109177" flag="0"/>
			<psa03 value="0.0478331687125579" flag="0"/>
			<psa10 value="0.0138680127502867" flag="0"/>
			<psa30 value="0.00109267915546411" flag="0"/>
		</comp>
	</station>
	<station code="ANKY" name="ANKY" netid="HL" source="National Observatory of Athens Seismic Network" insttype="" lat="35.86704" lon="23.30117" esm:processing="manual (Paolucci et al 2011)" esm:quality="best">
		<comp name="00.HNE" depth="0.0">
			<acc value="0.0354212344806689" flag="0"/>
			<vel value="0.0175762617118196" flag="0"/>
			<psa03 value="0.0657407456268801" flag="0"/>
			<psa10 value="0.0255740147779763" flag="0"/>
			<psa30 value="0.00258692012076201" flag="0"/>
		</comp>
		<comp name="00.HNN" depth="0.0">
			<acc value="0.0415361313830905" flag="0"/>
			<vel value="0.0150916470832577" flag="0"/>
			<psa03 value="0.0623357075596399" flag="0"/>
			<psa10 value="0.0158853998297644" flag="0"/>
			<psa30 value="0.00209325450116899" flag="0"/>
		</comp>
		<comp name="00.HNZ" depth="0.0">
			<acc value="0.020796253734214" flag="0"/>
			<vel value="0.00932314509059942" flag="0"/>
			<psa03 value="0.0637104705060707" flag="0"/>
			<psa10 value="0.0107589677288019" flag="0"/>
			<psa30 value="0.00117256444747502" flag="0"/>
		</comp>
	</station>
	<station code="IMMV" name="IMMV" netid="HL" source="National Observatory of Athens Seismic Network" insttype="" lat="35.4606" lon="23.9811" esm:processing="manual (Paolucci et al 2011)" esm:quality="best">
		<comp name="--.HNE" depth="0.0">
			<acc value="0.0127310122673611" flag="0"/>
			<vel value="0.0156328526200941" flag="0"/>
			<psa03 value="0.0368867039797789" flag="0"/>
			<psa10 value="0.021955658829648" flag="0"/>
			<psa30 value="0.00286624904159854" flag="0"/>
		</comp>
		<comp name="--.HNN" depth="0.0">
			<acc value="0.0185939396115257" flag="0"/>
			<vel value="0.0244619985608623" flag="0"/>
			<psa03 value="0.0711888200765882" flag="0"/>
			<psa10 value="0.0368882236637661" flag="0"/>
			<psa30 value="0.00573947396198074" flag="0"/>
		</comp>
		<comp name="--.HNZ" depth="0.0">
			<acc value="0.00878042074210194" flag="0"/>
			<vel value="0.00898663374824343" flag="0"/>
			<psa03 value="0.0323051661003797" flag="0"/>
			<psa10 value="0.0112516481789866" flag="0"/>
			<psa30 value="0.00180519708544606" flag="0"/>
		</comp>
	</station>
	<station code="PYL" name="PYL" netid="HP" source="University of Patras, Seismological Laboratory (PSLNET)" insttype="" lat="36.8955" lon="21.742" esm:processing="manual (Paolucci et al 2011)" esm:quality="best">
		<comp name="--.HNE" depth="0.0">
			<acc value="0.00222468893140359" flag="0"/>
			<vel value="0.00405576990482168" flag="0"/>
			<psa03 value="0.00591128938038839" flag="0"/>
			<psa10 value="0.00504672525827632" flag="0"/>
			<psa30 value="0.000800043728135261" flag="0"/>
		</comp>
		<comp name="--.HNN" depth="0.0">
			<acc value="0.00179002939786267" flag="0"/>
			<vel value="0.00280496855580905" flag="0"/>
			<psa03 value="0.00469718714214005" flag="0"/>
			<psa10 value="0.00351011159016589" flag="0"/>
			<psa30 value="0.000859566212874572" flag="0"/>
		</comp>
		<comp name="--.HNZ" depth="0.0">
			<acc value="0.00154644034487942" flag="0"/>
			<vel value="0.00217386285624613" flag="0"/>
			<psa03 value="0.00404846838647534" flag="0"/>
			<psa10 value="0.00379612264636799" flag="0"/>
			<psa30 value="0.00061752773109652" flag="0"/>
		</comp>
	</station>
	<station code="G0LD" name="G0LD" netid="HC" source="Seismological Network of Crete (HC)" insttype="" lat="35.4955" lon="24.0306" esm:processing="automatic (Paolucci et al 2011)" esm:quality="bad">
		<comp name="--.HNE" depth="0.0">
			<acc value="0" flag="1"/>
			<vel value="0" flag="1"/>
			<psa03 value="0" flag="1"/>
			<psa10 value="0" flag="1"/>
			<psa30 value="0" flag="1"/>
		</comp>
		<comp name="--.HNN" depth="0.0">
			<acc value="0" flag="1"/>
			<vel value="0" flag="1"/>
			<psa03 value="0" flag="1"/>
			<psa10 value="0" flag="1"/>
			<psa30 value="0" flag="1"/>
		</comp>
		<comp name="--.HNZ" depth="0.0">
			<acc value="0" flag="1"/>
			<vel value="0" flag="1"/>
			<psa03 value="0" flag="1"/>
			<psa10 value="0" flag="1"/>
			<psa30 value="0" flag="1"/>
		</comp>
	</station>
	<station code="MULT" name="MULT" netid="HC" source="Seismological Network of Crete (HC)" insttype="" lat="35.5091" lon="24.0118" esm:processing="automatic (Paolucci et al 2011)" esm:quality="bad">
		<comp name="--.HNE" depth="0.0">
			<acc value="0" flag="1"/>
			<vel value="0" flag="1"/>
			<psa03 value="0" flag="1"/>
			<psa10 value="0" flag="1"/>
			<psa30 value="0" flag="1"/>
		</comp>
		<comp name="--.HNN" depth="0.0">
			<acc value="0" flag="1"/>
			<vel value="0" flag="1"/>
			<psa03 value="0" flag="1"/>
			<psa10 value="0" flag="1"/>
			<psa30 value="0" flag="1"/>
		</comp>
		<comp name="--.HNZ" depth="0.0">
			<acc value="0" flag="1"/>
			<vel value="0" flag="1"/>
			<psa03 value="0" flag="1"/>
			<psa10 value="0" flag="1"/>
			<psa30 value="0" flag="1"/>
		</comp>
	</station>
	<station code="SOUD" name="SOUD" netid="HC" source="Seismological Network of Crete (HC)" insttype="" lat="35.4878" lon="24.0678" esm:processing="automatic (Paolucci et al 2011)" esm:quality="bad">
		<comp name="--.HNE" depth="0.0">
			<acc value="0" flag="1"/>
			<vel value="0" flag="1"/>
			<psa03 value="0" flag="1"/>
			<psa10 value="0" flag="1"/>
			<psa30 value="0" flag="1"/>
		</comp>
		<comp name="--.HNN" depth="0.0">
			<acc value="0" flag="1"/>
			<vel value="0" flag="1"/>
			<psa03 value="0" flag="1"/>
			<psa10 value="0" flag="1"/>
			<psa30 value="0" flag="1"/>
		</comp>
		<comp name="--.HNZ" depth="0.0">
			<acc value="0" flag="1"/>
			<vel value="0" flag="1"/>
			<psa03 value="0" flag="1"/>
			<psa10 value="0" flag="1"/>
			<psa30 value="0" flag="1"/>
		</comp>
	</station>
	<station code="CHNB" name="CHNB" netid="HL" source="National Observatory of Athens Seismic Network" insttype="" lat="35.48765" lon="24.06605" esm:processing="discarded" esm:quality="best">
		<comp name="00.HNE" depth="0.0">
			<acc value="0" flag="1"/>
			<vel value="0" flag="1"/>
			<psa03 value="0" flag="1"/>
			<psa10 value="0" flag="1"/>
			<psa30 value="0" flag="1"/>
		</comp>
		<comp name="00.HNN" depth="0.0">
			<acc value="0" flag="1"/>
			<vel value="0" flag="1"/>
			<psa03 value="0" flag="1"/>
			<psa10 value="0" flag="1"/>
			<psa30 value="0" flag="1"/>
		</comp>
		<comp name="00.HNZ" depth="0.0">
			<acc value="0" flag="1"/>
			<vel value="0" flag="1"/>
			<psa03 value="0" flag="1"/>
			<psa10 value="0" flag="1"/>
			<psa30 value="0" flag="1"/>
		</comp>
	</station>
	<station code="HERG" name="HERG" netid="HL" source="National Observatory of Athens Seismic Network" insttype="" lat="35.32622" lon="25.06586" esm:processing="discarded" esm:quality="bad">
		<comp name="00.HNE" depth="0.0">
			<acc value="0" flag="1"/>
			<vel value="0" flag="1"/>
			<psa03 value="0" flag="1"/>
			<psa10 value="0" flag="1"/>
			<psa30 value="0" flag="1"/>
		</comp>
		<comp name="00.HNN" depth="0.0">
			<acc value="0" flag="1"/>
			<vel value="0" flag="1"/>
			<psa03 value="0" flag="1"/>
			<psa10 value="0" flag="1"/>
			<psa30 value="0" flag="1"/>
		</comp>
		<comp name="00.HNZ" depth="0.0">
			<acc value="0" flag="1"/>
			<vel value="0" flag="1"/>
			<psa03 value="0" flag="1"/>
			<psa10 value="0" flag="1"/>
			<psa30 value="0" flag="1"/>
		</comp>
	</station>
	<station code="IACM" name="IACM" netid="HL" source="National Observatory of Athens Seismic Network" insttype="" lat="35.3058" lon="25.0709" esm:processing="discarded" esm:quality="bad">
		<comp name="--.HNE" depth="0.0">
			<acc value="0" flag="1"/>
			<vel value="0" flag="1"/>
			<psa03 value="0" flag="1"/>
			<psa10 value="0" flag="1"/>
			<psa30 value="0" flag="1"/>
		</comp>
		<comp name="--.HNN" depth="0.0">
			<acc value="0" flag="1"/>
			<vel value="0" flag="1"/>
			<psa03 value="0" flag="1"/>
			<psa10 value="0" flag="1"/>
			<psa30 value="0" flag="1"/>
		</comp>
		<comp name="--.HNZ" depth="0.0">
			<acc value="0" flag="1"/>
			<vel value="0" flag="1"/>
			<psa03 value="0" flag="1"/>
			<psa10 value="0" flag="1"/>
			<psa30 value="0" flag="1"/>
		</comp>
	</station>
	<station code="MILA" name="MILA" netid="HL" source="National Observatory of Athens Seismic Network" insttype="" lat="36.74288" lon="24.4282" esm:processing="discarded" esm:quality="good">
		<comp name="00.HNE" depth="0.0">
			<acc value="0" flag="1"/>
			<vel value="0" flag="1"/>
			<psa03 value="0" flag="1"/>
			<psa10 value="0" flag="1"/>
			<psa30 value="0" flag="1"/>
		</comp>
		<comp name="00.HNN" depth="0.0">
			<acc value="0" flag="1"/>
			<vel value="0" flag="1"/>
			<psa03 value="0" flag="1"/>
			<psa10 value="0" flag="1"/>
			<psa30 value="0" flag="1"/>
		</comp>
		<comp name="00.HNZ" depth="0.0">
			<acc value="0" flag="1"/>
			<vel value="0" flag="1"/>
			<psa03 value="0" flag="1"/>
			<psa10 value="0" flag="1"/>
			<psa30 value="0" flag="1"/>
		</comp>
	</station>
	<station code="MNVA" name="MNVA" netid="HL" source="National Observatory of Athens Seismic Network" insttype="" lat="36.68709" lon="23.03734" esm:processing="discarded" esm:quality="bad">
		<comp name="00.HNE" depth="0.0">
			<acc value="0" flag="1"/>
			<vel value="0" flag="1"/>
			<psa03 value="0" flag="1"/>
			<psa10 value="0" flag="1"/>
			<psa30 value="0" flag="1"/>
		</comp>
		<comp name="00.HNN" depth="0.0">
			<acc value="0" flag="1"/>
			<vel value="0" flag="1"/>
			<psa03 value="0" flag="1"/>
			<psa10 value="0" flag="1"/>
			<psa30 value="0" flag="1"/>
		</comp>
		<comp name="00.HNZ" depth="0.0">
			<acc value="0" flag="1"/>
			<vel value="0" flag="1"/>
			<psa03 value="0" flag="1"/>
			<psa10 value="0" flag="1"/>
			<psa30 value="0" flag="1"/>
		</comp>
	</station>
	<station code="SIVA" name="SIVA" netid="HL" source="National Observatory of Athens Seismic Network" insttype="" lat="35.01777" lon="24.81204" esm:processing="discarded" esm:quality="good">
		<comp name="00.HNE" depth="0.0">
			<acc value="0" flag="1"/>
			<vel value="0" flag="1"/>
			<psa03 value="0" flag="1"/>
			<psa10 value="0" flag="1"/>
			<psa30 value="0" flag="1"/>
		</comp>
		<comp name="00.HNN" depth="0.0">
			<acc value="0" flag="1"/>
			<vel value="0" flag="1"/>
			<psa03 value="0" flag="1"/>
			<psa10 value="0" flag="1"/>
			<psa30 value="0" flag="1"/>
		</comp>
		<comp name="00.HNZ" depth="0.0">
			<acc value="0" flag="1"/>
			<vel value="0" flag="1"/>
			<psa03 value="0" flag="1"/>
			<psa10 value="0" flag="1"/>
			<psa30 value="0" flag="1"/>
		</comp>
	</station>
	<station code="VALY" name="VALY" netid="HP" source="University of Patras, Seismological Laboratory (PSLNET)" insttype="" lat="37.1641" lon="21.9836" esm:processing="discarded" esm:quality="good">
		<comp name="--.HNE" depth="0.0">
			<acc value="0" flag="1"/>
			<vel value="0" flag="1"/>
			<psa03 value="0" flag="1"/>
			<psa10 value="0" flag="1"/>
			<psa30 value="0" flag="1"/>
		</comp>
		<comp name="--.HNN" depth="0.0">
			<acc value="0" flag="1"/>
			<vel value="0" flag="1"/>
			<psa03 value="0" flag="1"/>
			<psa10 value="0" flag="1"/>
			<psa30 value="0" flag="1"/>
		</comp>
		<comp name="--.HNZ" depth="0.0">
			<acc value="0" flag="1"/>
			<vel value="0" flag="1"/>
			<psa03 value="0" flag="1"/>
			<psa10 value="0" flag="1"/>
			<psa30 value="0" flag="1"/>
		</comp>
	</station>
</stationlist>
