<?xml version="1.0" encoding="UTF-8" standalone="yes"?>
<!DOCTYPE earthquake SYSTEM "stationlist.dtd">
<stationlist created="" xmlns="ch.ethz.sed.shakemap.usgs.xml">
  <station code="GVD" name="GVD" netid="GE" insttype="STS-2/N" lat="34.8391" lon="24.0874">
    <comp name="--.HHE">
      <acc value="0.0567169952" flag="0"/>
      <vel value="0.0125330747" flag="0"/>
      <psa03 value="0.0671382034" flag="0"/>
      <psa10 value="0.0175432686" flag="0"/>
      <psa30 value="0.0041967262" flag="0"/>
    </comp>
    <comp name="--.HHN">
      <acc value="0.0147662605" flag="0"/>
      <vel value="0.0111022531" flag="0"/>
      <psa03 value="0.0654592162" flag="0"/>
      <psa10 value="0.0068838355" flag="0"/>
      <psa30 value="0.0018464907" flag="0"/>
    </comp>
  </station>
  <station code="CHAN" name="CHAN" netid="HC" insttype="120" lat="35.5193" lon="24.0428">
    <comp name="--.HHE">
      <acc value="0.0288883528" flag="0"/>
      <vel value="0.0326773535" flag="0"/>
      <psa03 value="0.1000608710" flag="0"/>
      <psa10 value="0.0816875795" flag="0"/>
      <psa30 value="0.0081884142" flag="0"/>
    </comp>
    <comp name="--.HHN">
      <acc value="0.0352673791" flag="0"/>
      <vel value="0.0407018730" flag="0"/>
      <psa03 value="0.0661168349" flag="0"/>
      <psa10 value="0.0841076402" flag="0"/>
      <psa30 value="0.0090717755" flag="0"/>
    </comp>
    <comp name="--.HHZ">
      <acc value="0.0189073587" flag="0"/>
      <vel value="0.0168290625" flag="0"/>
      <psa03 value="0.0417150758" flag="0"/>
      <psa10 value="0.0259447587" flag="0"/>
      <psa30 value="0.0037947158" flag="0"/>
    </comp>
  </station>
  <station code="GVDS" name="GVDS" netid="HC" insttype="60" lat="34.8389" lon="24.0585">
    <comp name="--.HHN">
      <acc value="0.0101507849" flag="0"/>
      <vel value="0.0065108121" flag="0"/>
      <psa03 value="0.0310843388" flag="0"/>
      <psa10 value="0.0129475187" flag="0"/>
      <psa30 value="0.0012969940" flag="0"/>
    </comp>
    <comp name="--.HHE">
      <acc value="0.0096132313" flag="0"/>
      <vel value="0.0051771290" flag="0"/>
      <psa03 value="0.0208806998" flag="0"/>
      <psa10 value="0.0069908001" flag="0"/>
      <psa30 value="0.0014560180" flag="0"/>
    </comp>
    <comp name="--.HHZ">
      <acc value="0.0042195389" flag="0"/>
      <vel value="0.0041479051" flag="0"/>
      <psa03 value="0.0151555174" flag="0"/>
      <psa10 value="0.0043091305" flag="0"/>
      <psa30 value="0.0008280904" flag="0"/>
    </comp>
  </station>
  <station code="KNDR" name="KNDR" netid="HC" insttype="120" lat="35.2348" lon="23.6248">
    <comp name="--.HHZ">
      <acc value="0.0290741139" flag="0"/>
      <vel value="0.0263911107" flag="0"/>
      <psa03 value="0.0934938645" flag="0"/>
      <psa10 value="0.0262777089" flag="0"/>
      <psa30 value="0.0021741559" flag="0"/>
    </comp>
    <comp name="--.HHE">
      <acc value="0.0437260376" flag="0"/>
      <vel value="0.0556695721" flag="0"/>
      <psa03 value="0.1221884204" flag="0"/>
      <psa10 value="0.0814058163" flag="0"/>
      <psa30 value="0.0048391769" flag="0"/>
    </comp>
    <comp name="--.HHN">
      <acc value="0.0382510374" flag="0"/>
      <vel value="0.0552828454" flag="0"/>
      <psa03 value="0.1144953983" flag="0"/>
      <psa10 value="0.0749924148" flag="0"/>
      <psa30 value="0.0069923688" flag="0"/>
    </comp>
  </station>
  <station code="KTHR" name="KTHR" netid="HC" insttype="120s" lat="36.2447" lon="22.9939">
    <comp name="--.HHE">
      <acc value="0.0382231538" flag="0"/>
      <vel value="0.0419819517" flag="0"/>
      <psa03 value="0.1713512763" flag="0"/>
      <psa10 value="0.0458973158" flag="0"/>
      <psa30 value="0.0039654867" flag="0"/>
    </comp>
    <comp name="--.HHZ">
      <acc value="0.0305490881" flag="0"/>
      <vel value="0.0109788942" flag="0"/>
      <psa03 value="0.0830625847" flag="0"/>
      <psa10 value="0.0132074918" flag="0"/>
      <psa30 value="0.0008597376" flag="0"/>
    </comp>
    <comp name="--.HHN">
      <acc value="0.0529697691" flag="0"/>
      <vel value="0.0316663121" flag="0"/>
      <psa03 value="0.1989843586" flag="0"/>
      <psa10 value="0.0308026068" flag="0"/>
      <psa30 value="0.0014029801" flag="0"/>
    </comp>
  </station>
  <station code="RODP" name="RODP" netid="HC" insttype="120" lat="35.5604" lon="23.7577">
    <comp name="--.HHE">
      <acc value="0.0252799324" flag="0"/>
      <vel value="0.0241222211" flag="0"/>
      <psa03 value="0.0490846331" flag="0"/>
      <psa10 value="0.0400070969" flag="0"/>
      <psa30 value="0.0031626265" flag="0"/>
    </comp>
    <comp name="--.HHZ">
      <acc value="0.0108249972" flag="0"/>
      <vel value="0.0086082994" flag="0"/>
      <psa03 value="0.0357295625" flag="0"/>
      <psa10 value="0.0159533825" flag="0"/>
      <psa30 value="0.0012557378" flag="0"/>
    </comp>
    <comp name="--.HHN">
      <acc value="0.0216802740" flag="0"/>
      <vel value="0.0186861929" flag="0"/>
      <psa03 value="0.0403192584" flag="0"/>
      <psa10 value="0.0272631280" flag="0"/>
      <psa30 value="0.0041990103" flag="0"/>
    </comp>
  </station>
  <station code="CH01" name="CH01" netid="HI" insttype="CMG-5TD,ACCELEROMETER,GURALP" lat="35.517" lon="24.0208">
    <comp name="--.HNN">
      <acc value="0.0166451617" flag="0"/>
      <vel value="0.0200046107" flag="0"/>
      <psa03 value="0.0391285765" flag="0"/>
      <psa10 value="0.0310510382" flag="0"/>
      <psa30 value="0.0084195397" flag="0"/>
    </comp>
    <comp name="--.HNE">
      <acc value="0.0164734802" flag="0"/>
      <vel value="0.0222194394" flag="0"/>
      <psa03 value="0.0296451584" flag="0"/>
      <psa10 value="0.0321891645" flag="0"/>
      <psa30 value="0.0047404219" flag="0"/>
    </comp>
    <comp name="--.HNZ">
      <acc value="0.0109414254" flag="0"/>
      <vel value="0.0132334616" flag="0"/>
      <psa03 value="0.0258331628" flag="0"/>
      <psa10 value="0.0353565414" flag="0"/>
      <psa30 value="0.0029307863" flag="0"/>
    </comp>
  </station>
  <station code="NPS1" name="NPS1" netid="HI" insttype="CMG-5TD,ACCELEROMETER,GURALP" lat="36.5126" lon="23.0625">
    <comp name="--.HNZ">
      <acc value="0.0269622030" flag="0"/>
      <vel value="0.0078562427" flag="0"/>
      <psa03 value="0.0478546490" flag="0"/>
      <psa10 value="0.0138261069" flag="0"/>
      <psa30 value="0.0010113207" flag="0"/>
    </comp>
    <comp name="--.HNN">
      <acc value="0.0191929758" flag="0"/>
      <vel value="0.0171123472" flag="0"/>
      <psa03 value="0.0397104693" flag="0"/>
      <psa10 value="0.0365030430" flag="0"/>
      <psa30 value="0.0015351574" flag="0"/>
    </comp>
    <comp name="--.HNE">
      <acc value="0.0204881415" flag="0"/>
      <vel value="0.0146103578" flag="0"/>
      <psa03 value="0.0506146212" flag="0"/>
      <psa10 value="0.0306881258" flag="0"/>
      <psa30 value="0.0030670913" flag="0"/>
    </comp>
  </station>
  <station code="ANKY" name="ANKY" netid="HL" insttype="60" lat="35.867" lon="23.3012">
    <comp name="--.HHE">
      <acc value="0.0302921319" flag="0"/>
      <vel value="0.0155114363" flag="0"/>
      <psa03 value="0.0620828147" flag="0"/>
      <psa10 value="0.0266214946" flag="0"/>
      <psa30 value="0.0022880167" flag="0"/>
    </comp>
    <comp name="--.HHN">
      <acc value="0.0370621435" flag="0"/>
      <vel value="0.0136416754" flag="0"/>
      <psa03 value="0.0580883644" flag="0"/>
      <psa10 value="0.0111171579" flag="0"/>
      <psa30 value="0.0017372501" flag="0"/>
    </comp>
    <comp name="--.HHZ">
      <acc value="0.0224187378" flag="0"/>
      <vel value="0.0091233793" flag="0"/>
      <psa03 value="0.0659447758" flag="0"/>
      <psa10 value="0.0108608397" flag="0"/>
      <psa30 value="0.0009785419" flag="0"/>
    </comp>
  </station>
  <station code="GVD" name="GVD" netid="HL" insttype="120" lat="34.8391" lon="24.0874">
    <comp name="--.HHE">
      <acc value="0.0647004199" flag="0"/>
      <vel value="0.0124712382" flag="0"/>
      <psa03 value="0.0652246431" flag="0"/>
      <psa10 value="0.0174404206" flag="0"/>
      <psa30 value="0.0041945750" flag="0"/>
    </comp>
    <comp name="--.HHN">
      <acc value="0.0143700733" flag="0"/>
      <vel value="0.0108992914" flag="0"/>
      <psa03 value="0.0636526222" flag="0"/>
      <psa10 value="0.0068181343" flag="0"/>
      <psa30 value="0.0018454926" flag="0"/>
    </comp>
    <comp name="--.HHZ">
      <acc value="0.0061331939" flag="0"/>
      <vel value="0.0035772533" flag="0"/>
      <psa03 value="0.0151186250" flag="0"/>
      <psa10 value="0.0042358115" flag="0"/>
      <psa30 value="0.0008652454" flag="0"/>
    </comp>
  </station>
  <station code="IMMV" name="IMMV" netid="HL" insttype="120" lat="35.4606" lon="23.9811">
    <comp name="--.HHE">
      <acc value="0.0131743966" flag="0"/>
      <vel value="0.0161248511" flag="0"/>
      <psa03 value="0.0381449108" flag="0"/>
      <psa10 value="0.0226459291" flag="0"/>
      <psa30 value="0.0027487943" flag="0"/>
    </comp>
    <comp name="--.HHN">
      <acc value="0.0191102664" flag="0"/>
      <vel value="0.0243661816" flag="0"/>
      <psa03 value="0.0734540064" flag="0"/>
      <psa10 value="0.0376466713" flag="0"/>
      <psa30 value="0.0054395554" flag="0"/>
    </comp>
    <comp name="--.HHZ">
      <acc value="0.0088356954" flag="0"/>
      <vel value="0.0088806128" flag="0"/>
      <psa03 value="0.0325697787" flag="0"/>
      <psa10 value="0.0112134349" flag="0"/>
      <psa30 value="0.0017022578" flag="0"/>
    </comp>
  </station>
  <station code="VAM" name="VAM" netid="HL" insttype="CMG3ESPC-120s" lat="35.407" lon="24.1997">
    <comp name="--.HHE">
      <acc value="0.0103829930" flag="0"/>
      <vel value="0.0105974837" flag="0"/>
      <psa03 value="0.0231630285" flag="0"/>
      <psa10 value="0.0181777743" flag="0"/>
      <psa30 value="0.0019127859" flag="0"/>
    </comp>
    <comp name="--.HHN">
      <acc value="0.0164712267" flag="0"/>
      <vel value="0.0164155997" flag="0"/>
      <psa03 value="0.0226935795" flag="0"/>
      <psa10 value="0.0276860908" flag="0"/>
      <psa30 value="0.0032965652" flag="0"/>
    </comp>
    <comp name="--.HHZ">
      <acc value="0.0063474026" flag="0"/>
      <vel value="0.0095936106" flag="0"/>
      <psa03 value="0.0143535120" flag="0"/>
      <psa10 value="0.0094830241" flag="0"/>
      <psa30 value="0.0022097528" flag="0"/>
    </comp>
  </station>
</stationlist>
