<?xml version="1.0" encoding="UTF-8" standalone="yes"?>
<!DOCTYPE earthquake SYSTEM "stationlist.dtd">
<stationlist created="" xmlns="ch.ethz.sed.shakemap.usgs.xml">
  <station code="IMMV" name="IMMV" netid="GE" insttype="STS-2/N" lat="35.4606" lon="23.9811">
    <comp name="--.HHE">
      <acc value="0.0133461912" flag="0"/>
      <vel value="0.0162676516" flag="0"/>
      <psa03 value="0.0391597367" flag="0"/>
      <psa10 value="0.0228173886" flag="0"/>
      <psa30 value="0.0027488006" flag="0"/>
    </comp>
    <comp name="--.HHZ">
      <acc value="0.0091205404" flag="0"/>
      <vel value="0.0089740725" flag="0"/>
      <psa03 value="0.0334495175" flag="0"/>
      <psa10 value="0.0112913093" flag="0"/>
      <psa30 value="0.0017036459" flag="0"/>
    </comp>
  </station>
</stationlist>
