<?xml version="1.0" encoding="UTF-8" standalone="yes"?>
<!DOCTYPE earthquake SYSTEM "stationlist.dtd">
<stationlist created="" xmlns="ch.ethz.sed.shakemap.usgs.xml">
  <station code="IMMV" name="IMMV" netid="GE" insttype="STS-2/N" lat="35.4606" lon="23.9811">
    <comp name="--.HHE">
      <acc value="0.0133461912" flag="0"/>
      <vel value="0.0162676516" flag="0"/>
      <psa03 value="0.0391597367" flag="0"/>
      <psa10 value="0.0228173886" flag="0"/>
      <psa30 value="0.0027488006" flag="0"/>
    </comp>
    <comp name="--.HHZ">
      <acc value="0.0091205404" flag="0"/>
      <vel value="0.0089740725" flag="0"/>
      <psa03 value="0.0334495175" flag="0"/>
      <psa10 value="0.0112913093" flag="0"/>
      <psa30 value="0.0017036459" flag="0"/>
    </comp>
    <comp name="--.HHN">
      <acc value="0.0193727168" flag="0"/>
      <vel value="0.0246770995" flag="0"/>
      <psa03 value="0.0753828742" flag="0"/>
      <psa10 value="0.0379406799" flag="0"/>
      <psa30 value="0.0054415351" flag="0"/>
    </comp>
  </station>
  <station code="CHAN" name="CHAN" netid="HC" insttype="120" lat="35.5193" lon="24.0428">
    <comp name="--.HHE">
      <acc value="0.0288883502" flag="0"/>
      <vel value="0.0326773573" flag="0"/>
      <psa03 value="0.1000608710" flag="0"/>
      <psa10 value="0.0816875795" flag="0"/>
      <psa30 value="0.0081885802" flag="0"/>
    </comp>
    <comp name="--.HHZ">
      <acc value="0.0189073611" flag="0"/>
      <vel value="0.0168290573" flag="0"/>
      <psa03 value="0.0417150758" flag="0"/>
      <psa10 value="0.0259447586" flag="0"/>
      <psa30 value="0.0037947710" flag="0"/>
    </comp>
    <comp name="--.HHN">
      <acc value="0.0352673779" flag="0"/>
      <vel value="0.0407018677" flag="0"/>
      <psa03 value="0.0661168349" flag="0"/>
      <psa10 value="0.0841076402" flag="0"/>
      <psa30 value="0.0090720954" flag="0"/>
    </comp>
  </station>
  <station code="KNDR" name="KNDR" netid="HC" insttype="120" lat="35.2348" lon="23.6248">
    <comp name="--.HHE">
      <acc value="0.0437260375" flag="0"/>
      <vel value="0.0556695730" flag="0"/>
      <psa03 value="0.1221884204" flag="0"/>
      <psa10 value="0.0814058162" flag="0"/>
      <psa30 value="0.0048390541" flag="0"/>
    </comp>
    <comp name="--.HHN">
      <acc value="0.0382510381" flag="0"/>
      <vel value="0.0552828440" flag="0"/>
      <psa03 value="0.1144953983" flag="0"/>
      <psa10 value="0.0749924148" flag="0"/>
      <psa30 value="0.0069924157" flag="0"/>
    </comp>
    <comp name="--.HHZ">
      <acc value="0.0290741148" flag="0"/>
      <vel value="0.0263911125" flag="0"/>
      <psa03 value="0.0934938645" flag="0"/>
      <psa10 value="0.0262777089" flag="0"/>
      <psa30 value="0.0021739970" flag="0"/>
    </comp>
  </station>
  <station code="KTHR" name="KTHR" netid="HC" insttype="120s" lat="36.2447" lon="22.9939">
    <comp name="--.HHZ">
      <acc value="0.0305490886" flag="0"/>
      <vel value="0.0109788955" flag="0"/>
      <psa03 value="0.0830625847" flag="0"/>
      <psa10 value="0.0132074918" flag="0"/>
      <psa30 value="0.0008597076" flag="0"/>
    </comp>
    <comp name="--.HHN">
      <acc value="0.0529697691" flag="0"/>
      <vel value="0.0316663123" flag="0"/>
      <psa03 value="0.1989843586" flag="0"/>
      <psa10 value="0.0308026068" flag="0"/>
      <psa30 value="0.0014030099" flag="0"/>
    </comp>
    <comp name="--.HHE">
      <acc value="0.0382231536" flag="0"/>
      <vel value="0.0419819524" flag="0"/>
      <psa03 value="0.1713512763" flag="0"/>
      <psa10 value="0.0458973157" flag="0"/>
      <psa30 value="0.0039655064" flag="0"/>
    </comp>
  </station>
  <station code="RODP" name="RODP" netid="HC" insttype="120" lat="35.5604" lon="23.7577">
    <comp name="--.HHZ">
      <acc value="0.0108249974" flag="0"/>
      <vel value="0.0086083009" flag="0"/>
      <psa03 value="0.0357295625" flag="0"/>
      <psa10 value="0.0159533825" flag="0"/>
      <psa30 value="0.0012557490" flag="0"/>
    </comp>
    <comp name="--.HHN">
      <acc value="0.0216802744" flag="0"/>
      <vel value="0.0186861877" flag="0"/>
      <psa03 value="0.0403192584" flag="0"/>
      <psa10 value="0.0272631280" flag="0"/>
      <psa30 value="0.0041990030" flag="0"/>
    </comp>
    <comp name="--.HHE">
      <acc value="0.0252799325" flag="0"/>
      <vel value="0.0241222309" flag="0"/>
      <psa03 value="0.0490846331" flag="0"/>
      <psa10 value="0.0400070968" flag="0"/>
      <psa30 value="0.0031628583" flag="0"/>
    </comp>
  </station>
  <station code="CH01" name="CH01" netid="HI" insttype="CMG-5TD,ACCELEROMETER,GURALP" lat="35.517" lon="24.0208">
    <comp name="--.HNN">
      <acc value="0.0166451807" flag="0"/>
      <vel value="0.0200046105" flag="0"/>
      <psa03 value="0.0391285765" flag="0"/>
      <psa10 value="0.0310510382" flag="0"/>
      <psa30 value="0.0084195711" flag="0"/>
    </comp>
    <comp name="--.HNE">
      <acc value="0.0164734716" flag="0"/>
      <vel value="0.0222194351" flag="0"/>
      <psa03 value="0.0296451584" flag="0"/>
      <psa10 value="0.0321891643" flag="0"/>
      <psa30 value="0.0047408023" flag="0"/>
    </comp>
    <comp name="--.HNZ">
      <acc value="0.0109414252" flag="0"/>
      <vel value="0.0132334574" flag="0"/>
      <psa03 value="0.0258331628" flag="0"/>
      <psa10 value="0.0353565414" flag="0"/>
      <psa30 value="0.0029308554" flag="0"/>
    </comp>
  </station>
  <station code="ANKY" name="ANKY" netid="HL" insttype="60" lat="35.867" lon="23.3012">
    <comp name="--.HHE">
      <acc value="0.0302921325" flag="0"/>
      <vel value="0.0155114395" flag="0"/>
      <psa03 value="0.0620828147" flag="0"/>
      <psa10 value="0.0266214946" flag="0"/>
      <psa30 value="0.0022880263" flag="0"/>
    </comp>
    <comp name="--.HHN">
      <acc value="0.0370621432" flag="0"/>
      <vel value="0.0136416767" flag="0"/>
      <psa03 value="0.0580883644" flag="0"/>
      <psa10 value="0.0111171579" flag="0"/>
      <psa30 value="0.0017370039" flag="0"/>
    </comp>
    <comp name="--.HHZ">
      <acc value="0.0224187374" flag="0"/>
      <vel value="0.0091233781" flag="0"/>
      <psa03 value="0.0659447759" flag="0"/>
      <psa10 value="0.0108608396" flag="0"/>
      <psa30 value="0.0009784761" flag="0"/>
    </comp>
  </station>
  <station code="IMMV" name="IMMV" netid="HL" insttype="120" lat="35.4606" lon="23.9811">
    <comp name="--.HHZ">
      <acc value="0.0088356953" flag="0"/>
      <vel value="0.0088806141" flag="0"/>
      <psa03 value="0.0325697787" flag="0"/>
      <psa10 value="0.0112134348" flag="0"/>
      <psa30 value="0.0017022974" flag="0"/>
    </comp>
    <comp name="--.HHN">
      <acc value="0.0191102679" flag="0"/>
      <vel value="0.0243661833" flag="0"/>
      <psa03 value="0.0734540064" flag="0"/>
      <psa10 value="0.0376466712" flag="0"/>
      <psa30 value="0.0054395753" flag="0"/>
    </comp>
    <comp name="--.HHE">
      <acc value="0.0131743969" flag="0"/>
      <vel value="0.0161248497" flag="0"/>
      <psa03 value="0.0381449108" flag="0"/>
      <psa10 value="0.0226459291" flag="0"/>
      <psa30 value="0.0027488200" flag="0"/>
    </comp>
  </station>
</stationlist>
