<?xml version="1.0" encoding="UTF-8" standalone="yes"?>
<!DOCTYPE earthquake SYSTEM "stationlist.dtd">
<stationlist created="" xmlns="ch.ethz.sed.shakemap.usgs.xml">
  <station code="URFA" name="URFA" netid="KO" insttype="CMG-3ESP" lat="37.4409" lon="38.8213">
    <comp name="--.HHN">
      <acc value="0.0144513159" flag="0"/>
      <vel value="0.0022487474" flag="0"/>
      <psa03 value="0.0073583075" flag="0"/>
      <psa10 value="0.0004543776" flag="0"/>
      <psa30 value="0.0000578892" flag="0"/>
    </comp>
    <comp name="--.HHE">
      <acc value="0.0135408373" flag="0"/>
      <vel value="0.0025469577" flag="0"/>
      <psa03 value="0.0100969651" flag="0"/>
      <psa10 value="0.0007627330" flag="0"/>
      <psa30 value="0.0001124007" flag="0"/>
    </comp>
    <comp name="--.HHZ">
      <acc value="0.0121671590" flag="0"/>
      <vel value="0.0017837536" flag="0"/>
      <psa03 value="0.0058236230" flag="0"/>
      <psa10 value="0.0003950427" flag="0"/>
      <psa30 value="0.0000319521" flag="0"/>
    </comp>
  </station>
</stationlist>
