<?xml version="1.0" encoding="UTF-8" standalone="yes"?>
<!DOCTYPE earthquake SYSTEM "stationlist.dtd">
<stationlist created="" xmlns="ch.ethz.sed.shakemap.usgs.xml">
  <station code="SPA0" name="SPA0" netid="NO" insttype="CMG-3T" lat="78.1777" lon="16.37">
    <comp name="00.HHZ">
      <acc value="0.0005117467" flag="0"/>
      <vel value="0.0000773426" flag="0"/>
      <psa03 value="0.0003037880" flag="0"/>
      <psa10 value="0.0000289411" flag="0"/>
      <psa30 value="0.0000242184" flag="0"/>
    </comp>
    <comp name="00.HHE">
      <acc value="0.0006323038" flag="0"/>
      <vel value="0.0001191456" flag="0"/>
      <psa03 value="0.0003287132" flag="0"/>
      <psa10 value="0.0000510452" flag="0"/>
      <psa30 value="0.0000146149" flag="0"/>
    </comp>
    <comp name="00.HHN">
      <acc value="0.0010933805" flag="0"/>
      <vel value="0.0000916933" flag="0"/>
      <psa03 value="0.0003058716" flag="0"/>
      <psa10 value="0.0000488098" flag="0"/>
      <psa30 value="0.0000141512" flag="0"/>
    </comp>
  </station>
  <station code="SPA1" name="SPA1" netid="NO" insttype="CMG-3T" lat="78.1797" lon="16.3755">
    <comp name="00.HHZ">
      <acc value="0.0011424279" flag="0"/>
      <vel value="0.0001647858" flag="0"/>
      <psa03 value="0.0003299406" flag="0"/>
      <psa10 value="0.0000620599" flag="0"/>
      <psa30 value="0.0000481435" flag="0"/>
    </comp>
  </station>
  <station code="SPA2" name="SPA2" netid="NO" insttype="CMG-3T" lat="78.1759" lon="16.3766">
    <comp name="00.HHZ">
      <acc value="0.0007835901" flag="0"/>
      <vel value="0.0001212920" flag="0"/>
      <psa03 value="0.0004977348" flag="0"/>
      <psa10 value="0.0000764531" flag="0"/>
      <psa30 value="0.0000490168" flag="0"/>
    </comp>
  </station>
  <station code="SPA3" name="SPA3" netid="NO" insttype="CMG-3T" lat="78.1773" lon="16.3588">
    <comp name="00.HHZ">
      <acc value="0.0011314831" flag="0"/>
      <vel value="0.0001332589" flag="0"/>
      <psa03 value="0.0004552784" flag="0"/>
      <psa10 value="0.0000649284" flag="0"/>
      <psa30 value="0.0000470141" flag="0"/>
    </comp>
  </station>
  <station code="SPB1" name="SPB1" netid="NO" insttype="CMG-3T" lat="78.1796" lon="16.3906">
    <comp name="00.HHE">
      <acc value="0.0010824238" flag="0"/>
      <vel value="0.0001931499" flag="0"/>
      <psa03 value="0.0007592572" flag="0"/>
      <psa10 value="0.0000859323" flag="0"/>
      <psa30 value="0.0000308205" flag="0"/>
    </comp>
    <comp name="00.HHN">
      <acc value="0.0013175072" flag="0"/>
      <vel value="0.0002167285" flag="0"/>
      <psa03 value="0.0005168235" flag="0"/>
      <psa10 value="0.0000902637" flag="0"/>
      <psa30 value="0.0000368541" flag="0"/>
    </comp>
    <comp name="00.HHZ">
      <acc value="0.0010322217" flag="0"/>
      <vel value="0.0001265692" flag="0"/>
      <psa03 value="0.0007415070" flag="0"/>
      <psa10 value="0.0000722100" flag="0"/>
      <psa30 value="0.0000467028" flag="0"/>
    </comp>
  </station>
  <station code="SPB3" name="SPB3" netid="NO" insttype="CMG-3T" lat="78.1737" lon="16.3584">
    <comp name="00.HHE">
      <acc value="0.0015046583" flag="0"/>
      <vel value="0.0002485202" flag="0"/>
      <psa03 value="0.0008580118" flag="0"/>
      <psa10 value="0.0000620234" flag="0"/>
      <psa30 value="0.0000289083" flag="0"/>
    </comp>
    <comp name="00.HHZ">
      <acc value="0.0014602038" flag="0"/>
      <vel value="0.0001638940" flag="0"/>
      <psa03 value="0.0007068517" flag="0"/>
      <psa10 value="0.0000814339" flag="0"/>
      <psa30 value="0.0000493214" flag="0"/>
    </comp>
    <comp name="00.HHN">
      <acc value="0.0014436371" flag="0"/>
      <vel value="0.0003052198" flag="0"/>
      <psa03 value="0.0006764265" flag="0"/>
      <psa10 value="0.0000824173" flag="0"/>
      <psa30 value="0.0000351178" flag="0"/>
    </comp>
  </station>
  <station code="SPB4" name="SPB4" netid="NO" insttype="CMG-3T" lat="78.1789" lon="16.3482">
    <comp name="00.HHE">
      <acc value="0.0013235702" flag="0"/>
      <vel value="0.0003013734" flag="0"/>
      <psa03 value="0.0008903672" flag="0"/>
      <psa10 value="0.0000939252" flag="0"/>
      <psa30 value="0.0000352572" flag="0"/>
    </comp>
    <comp name="00.HHN">
      <acc value="0.0012072572" flag="0"/>
      <vel value="0.0003396290" flag="0"/>
      <psa03 value="0.0008459687" flag="0"/>
      <psa10 value="0.0001063210" flag="0"/>
      <psa30 value="0.0000316093" flag="0"/>
    </comp>
    <comp name="00.HHZ">
      <acc value="0.0013133991" flag="0"/>
      <vel value="0.0001849713" flag="0"/>
      <psa03 value="0.0006089262" flag="0"/>
      <psa10 value="0.0000760330" flag="0"/>
      <psa30 value="0.0000434065" flag="0"/>
    </comp>
  </station>
  <station code="SPB5" name="SPB5" netid="NO" insttype="CMG-3T" lat="78.1823" lon="16.3683">
    <comp name="00.HHZ">
      <acc value="0.0010227085" flag="0"/>
      <vel value="0.0001417289" flag="0"/>
      <psa03 value="0.0004732702" flag="0"/>
      <psa10 value="0.0000618811" flag="0"/>
      <psa30 value="0.0000460433" flag="0"/>
    </comp>
    <comp name="00.HHN">
      <acc value="0.0014833564" flag="0"/>
      <vel value="0.0002710051" flag="0"/>
      <psa03 value="0.0014327903" flag="0"/>
      <psa10 value="0.0001078763" flag="0"/>
      <psa30 value="0.0000354759" flag="0"/>
    </comp>
    <comp name="00.HHE">
      <acc value="0.0012399281" flag="0"/>
      <vel value="0.0001940458" flag="0"/>
      <psa03 value="0.0008222981" flag="0"/>
      <psa10 value="0.0000925590" flag="0"/>
      <psa30 value="0.0000355907" flag="0"/>
    </comp>
  </station>
</stationlist>
