<?xml version="1.0" encoding="UTF-8" standalone="yes"?>
<!DOCTYPE earthquake SYSTEM "stationlist.dtd">
<stationlist created="" xmlns="ch.ethz.sed.shakemap.usgs.xml">
  <station code="KRL1" name="KRL1" netid="HI" insttype="CMG-5TD,ACCELEROMETER,GURALP" lat="37.7951" lon="26.7065">
    <comp name="--.HNN">
      <acc value="0.4110956286" flag="0"/>
      <vel value="0.1667432290" flag="0"/>
      <psa03 value="0.7489421637" flag="0"/>
      <psa10 value="0.0538344332" flag="0"/>
      <psa30 value="0.0048128896" flag="0"/>
    </comp>
    <comp name="--.HNE">
      <acc value="0.7229904900" flag="0"/>
      <vel value="0.1642112677" flag="0"/>
      <psa03 value="0.3200613397" flag="0"/>
      <psa10 value="0.0575031434" flag="0"/>
      <psa30 value="0.0053711847" flag="0"/>
    </comp>
    <comp name="--.HNZ">
      <acc value="0.2298641312" flag="0"/>
      <vel value="0.0572004127" flag="0"/>
      <psa03 value="0.1233336582" flag="0"/>
      <psa10 value="0.0387251960" flag="0"/>
      <psa30 value="0.0029231832" flag="0"/>
    </comp>
  </station>
  <station code="MYT1" name="MYT1" netid="HI" insttype="CMG-5TD,ACCELEROMETER,GURALP" lat="39.085" lon="26.5694">
    <comp name="--.HNZ">
      <acc value="0.0192124639" flag="0"/>
      <vel value="0.0144559140" flag="0"/>
      <psa03 value="0.0581082459" flag="0"/>
      <psa10 value="0.0312667430" flag="0"/>
      <psa30 value="0.0023605150" flag="0"/>
    </comp>
    <comp name="--.HNE">
      <acc value="0.0226924928" flag="0"/>
      <vel value="0.0136896781" flag="0"/>
      <psa03 value="0.0675936016" flag="0"/>
      <psa10 value="0.0215036748" flag="0"/>
      <psa30 value="0.0014658389" flag="0"/>
    </comp>
    <comp name="--.HNN">
      <acc value="0.0200482795" flag="0"/>
      <vel value="0.0182147973" flag="0"/>
      <psa03 value="0.0508323181" flag="0"/>
      <psa10 value="0.0184444233" flag="0"/>
      <psa30 value="0.0017108189" flag="0"/>
    </comp>
  </station>
  <station code="EAG2" name="EAG2" netid="HL" insttype="SMART24" lat="38.5438" lon="26.1079">
    <comp name="--.HHZ">
      <acc value="0.1386323717" flag="0"/>
      <vel value="0.0567661024" flag="0"/>
      <psa03 value="0.5599230590" flag="0"/>
      <psa10 value="0.0305522810" flag="0"/>
      <psa30 value="0.0031671601" flag="0"/>
    </comp>
    <comp name="--.HHE">
      <acc value="0.4104412008" flag="0"/>
      <vel value="0.2266483332" flag="0"/>
      <psa03 value="1.5956924945" flag="0"/>
      <psa10 value="0.0724170115" flag="0"/>
      <psa30 value="0.0071066453" flag="0"/>
    </comp>
    <comp name="--.HHN">
      <acc value="0.3607963879" flag="0"/>
      <vel value="0.1946719665" flag="0"/>
      <psa03 value="1.6489040441" flag="0"/>
      <psa10 value="0.0757873694" flag="0"/>
      <psa30 value="0.0061093404" flag="0"/>
    </comp>
  </station>
  <station code="CHOS" name="CHOS" netid="HT" insttype="100" lat="38.3869" lon="26.0506">
    <comp name="--.HHE">
      <acc value="0.0657670888" flag="0"/>
      <vel value="0.0242523753" flag="0"/>
      <psa03 value="0.1670222846" flag="0"/>
      <psa10 value="0.0199447306" flag="0"/>
      <psa30 value="0.0017488718" flag="0"/>
    </comp>
    <comp name="--.HHN">
      <acc value="0.0400254680" flag="0"/>
      <vel value="0.0164996945" flag="0"/>
      <psa03 value="0.1118145390" flag="0"/>
      <psa10 value="0.0187872795" flag="0"/>
      <psa30 value="0.0019695943" flag="0"/>
    </comp>
    <comp name="--.HHZ">
      <acc value="0.0197358094" flag="0"/>
      <vel value="0.0094273352" flag="0"/>
      <psa03 value="0.0425965787" flag="0"/>
      <psa10 value="0.0153883023" flag="0"/>
      <psa30 value="0.0018187304" flag="0"/>
    </comp>
  </station>
  <station code="GMLD" name="GMLD" netid="KO" insttype="100" lat="38.0764" lon="26.8747">
    <comp name="--.HNE">
      <acc value="0.1989538226" flag="0"/>
      <vel value="0.1005904736" flag="0"/>
      <psa03 value="0.4649940574" flag="0"/>
      <psa10 value="0.0696919903" flag="0"/>
      <psa30 value="0.0040481823" flag="0"/>
    </comp>
    <comp name="--.HNZ">
      <acc value="0.1224823874" flag="0"/>
      <vel value="0.0461631916" flag="0"/>
      <psa03 value="0.2276723581" flag="0"/>
      <psa10 value="0.0218285797" flag="0"/>
      <psa30 value="0.0018277729" flag="0"/>
    </comp>
    <comp name="--.HNN">
      <acc value="0.2288359061" flag="0"/>
      <vel value="0.1111704882" flag="0"/>
      <psa03 value="0.5245580066" flag="0"/>
      <psa10 value="0.0548492049" flag="0"/>
      <psa30 value="0.0044873373" flag="0"/>
    </comp>
  </station>
  <station code="KRBN" name="KRBN" netid="KO" insttype="100" lat="38.5936" lon="26.5537">
    <comp name="--.HNZ">
      <acc value="0.0429517238" flag="0"/>
      <vel value="0.0281814272" flag="0"/>
      <psa03 value="0.1031902986" flag="0"/>
      <psa10 value="0.0453203004" flag="0"/>
      <psa30 value="0.0017236820" flag="0"/>
    </comp>
    <comp name="--.HNE">
      <acc value="0.0980360702" flag="0"/>
      <vel value="0.0462048718" flag="0"/>
      <psa03 value="0.1434260705" flag="0"/>
      <psa10 value="0.0530212946" flag="0"/>
      <psa30 value="0.0039238921" flag="0"/>
    </comp>
  </station>
  <station code="AYDN" name="AYDN" netid="TU" source="ODC" insttype="T" lat="37.6608" lon="27.8792">
    <comp name="--.HHE">
      <acc value="0.0245830864" flag="0"/>
      <vel value="0.0125903407" flag="0"/>
      <psa03 value="0.0795019299" flag="0"/>
      <psa10 value="0.0064445780" flag="0"/>
      <psa30 value="0.0015336479" flag="0"/>
    </comp>
    <comp name="--.HHN">
      <acc value="0.0208620563" flag="0"/>
      <vel value="0.0111884567" flag="0"/>
      <psa03 value="0.0736419761" flag="0"/>
      <psa10 value="0.0070081622" flag="0"/>
      <psa30 value="0.0020044406" flag="0"/>
    </comp>
    <comp name="--.HHZ">
      <acc value="0.0143567881" flag="0"/>
      <vel value="0.0048217688" flag="0"/>
      <psa03 value="0.0308479695" flag="0"/>
      <psa10 value="0.0048058598" flag="0"/>
      <psa30 value="0.0009168953" flag="0"/>
    </comp>
  </station>
</stationlist>
