<stationlist created="1631873494">
	<station code="KRL1" name="KRL1" netid="HI" source="ITSAK Strong Motion Network" insttype="" lat="37.7951" lon="26.7065">
		<comp name="--.HNE" depth="0.0">
			<acc value="0.72449325" flag="0"/>
			<vel value="-0.166951" flag="0"/>
			<psa03 value="0.331673977661" flag="0"/>
			<psa10 value="0.0575912735149" flag="0"/>
			<psa30 value="0.00618292553258" flag="0"/>
		</comp>
		<comp name="--.HNN" depth="0.0">
			<acc value="-0.40955397" flag="0"/>
			<vel value="-0.167644" flag="0"/>
			<psa03 value="0.755427416543" flag="0"/>
			<psa10 value="0.0539188331957" flag="0"/>
			<psa30 value="0.00500083643372" flag="0"/>
		</comp>
		<comp name="--.HNZ" depth="0.0">
			<acc value="0.209414874" flag="0"/>
			<vel value="0.05706" flag="0"/>
			<psa03 value="0.12330952144" flag="0"/>
			<psa10 value="0.0385807573449" flag="0"/>
			<psa30 value="0.00336148198323" flag="0"/>
		</comp>
	</station>
	<station code="KLNA" name="KLNA" netid="HL" source="National Observatory of Athens Seismic Network" insttype="" lat="36.95708" lon="26.97274">
		<comp name="--.HNE" depth="0.0">
			<acc value="0.061679604" flag="0"/>
			<vel value="-0.031023" flag="0"/>
			<psa03 value="0.154315870626" flag="0"/>
			<psa10 value="0.0218816235687" flag="0"/>
			<psa30 value="0.00204695595279" flag="0"/>
		</comp>
		<comp name="--.HNN" depth="0.0">
			<acc value="-0.03610749" flag="0"/>
			<vel value="-0.016238" flag="0"/>
			<psa03 value="0.0909609060549" flag="0"/>
			<psa10 value="0.00962404864359" flag="0"/>
			<psa30 value="0.00112616134058" flag="0"/>
		</comp>
		<comp name="--.HNZ" depth="0.0">
			<acc value="0.042478512" flag="0"/>
			<vel value="-0.019636" flag="0"/>
			<psa03 value="0.0524826083632" flag="0"/>
			<psa10 value="0.017895092959" flag="0"/>
			<psa30 value="0.00131228892011" flag="0"/>
		</comp>
	</station>
	<station code="GMLD" name="GMLD" netid="KO" source="Bogazici University Kandilli Observatory And Earthquake Research Institute (KOERI)" insttype="" lat="38.0766" lon="26.9157">
		<comp name="--.HNE" depth="0.0">
			<acc value="1.240701888" flag="0"/>
			<vel value="0.631168" flag="0"/>
			<psa03 value="2.91754980916" flag="0"/>
			<psa10 value="0.439456611138" flag="0"/>
			<psa30 value="0.0261858238454" flag="0"/>
		</comp>
		<comp name="--.HNN" depth="0.0">
			<acc value="1.430667096" flag="0"/>
			<vel value="-0.698041" flag="0"/>
			<psa03 value="3.3193348246" flag="0"/>
			<psa10 value="0.344975835689" flag="0"/>
			<psa30 value="0.0286954142146" flag="0"/>
		</comp>
		<comp name="--.HNZ" depth="0.0">
			<acc value="-0.742321626" flag="0"/>
			<vel value="0.292644" flag="0"/>
			<psa03 value="1.41873062966" flag="0"/>
			<psa10 value="0.137672217186" flag="0"/>
			<psa30 value="0.0118369981829" flag="0"/>
		</comp>
	</station>
</stationlist>
