<?xml version="1.0" encoding="UTF-8" standalone="yes"?>
<!DOCTYPE earthquake SYSTEM "stationlist.dtd">
<stationlist created="" xmlns="ch.ethz.sed.shakemap.usgs.xml">
  <station code="APE" name="APE" netid="GE" insttype="STS-2/N" lat="37.0727" lon="25.523">
    <comp name="--.HHE">
      <acc value="0.2247242742" flag="0"/>
      <vel value="0.0597544872" flag="0"/>
      <psa03 value="0.2879811885" flag="0"/>
      <psa10 value="0.0261092007" flag="0"/>
      <psa30 value="0.0058522667" flag="0"/>
    </comp>
    <comp name="--.HHN">
      <acc value="0.2029290049" flag="0"/>
      <vel value="0.0489489623" flag="0"/>
      <psa03 value="0.1723850314" flag="0"/>
      <psa10 value="0.0286165853" flag="0"/>
      <psa30 value="0.0069300924" flag="0"/>
    </comp>
    <comp name="--.HHZ">
      <acc value="0.0952859834" flag="0"/>
      <vel value="0.0286597970" flag="0"/>
      <psa03 value="0.0734448274" flag="0"/>
      <psa10 value="0.0267068573" flag="0"/>
      <psa30 value="0.0071576123" flag="0"/>
    </comp>
  </station>
  <station code="THERA" name="THERA" netid="GE" insttype="STS-2/N" lat="36.367" lon="25.4753">
    <comp name="--.HHE">
      <acc value="0.3272950407" flag="0"/>
      <vel value="0.0865111736" flag="0"/>
      <psa03 value="0.5896598917" flag="0"/>
      <psa10 value="0.0414297771" flag="0"/>
      <psa30 value="0.0127776910" flag="0"/>
    </comp>
    <comp name="--.HHZ">
      <acc value="0.2947901990" flag="0"/>
      <vel value="0.0712723005" flag="0"/>
      <psa03 value="0.3965493229" flag="0"/>
      <psa10 value="0.0456702193" flag="0"/>
      <psa30 value="0.0069107635" flag="0"/>
    </comp>
    <comp name="--.HHN">
      <acc value="0.2314044001" flag="0"/>
      <vel value="0.0555231426" flag="0"/>
      <psa03 value="0.4388619193" flag="0"/>
      <psa10 value="0.0399494030" flag="0"/>
      <psa30 value="0.0051746656" flag="0"/>
    </comp>
  </station>
</stationlist>
