<?xml version="1.0" encoding="UTF-8" standalone="yes"?>
<!DOCTYPE earthquake SYSTEM "stationlist.dtd">
<stationlist created="" xmlns="ch.ethz.sed.shakemap.usgs.xml">
  <station code="APE" name="APE" netid="GE" insttype="STS-2/N" lat="37.0727" lon="25.523">
    <comp name="--.HHE">
      <acc value="0.2247242742" flag="0"/>
      <vel value="0.0597544872" flag="0"/>
      <psa03 value="0.2879811885" flag="0"/>
      <psa10 value="0.0261092007" flag="0"/>
      <psa30 value="0.0058522667" flag="0"/>
    </comp>
    <comp name="--.HHN">
      <acc value="0.2029290049" flag="0"/>
      <vel value="0.0489489623" flag="0"/>
      <psa03 value="0.1723850314" flag="0"/>
      <psa10 value="0.0286165853" flag="0"/>
      <psa30 value="0.0069300924" flag="0"/>
    </comp>
    <comp name="--.HHZ">
      <acc value="0.0952859834" flag="0"/>
      <vel value="0.0286597970" flag="0"/>
      <psa03 value="0.0734448274" flag="0"/>
      <psa10 value="0.0267068573" flag="0"/>
      <psa30 value="0.0071576123" flag="0"/>
    </comp>
  </station>
  <station code="THERA" name="THERA" netid="GE" insttype="STS-2/N" lat="36.367" lon="25.4753">
    <comp name="--.HHE">
      <acc value="0.3272950407" flag="0"/>
      <vel value="0.0865111736" flag="0"/>
      <psa03 value="0.5896598917" flag="0"/>
      <psa10 value="0.0414297771" flag="0"/>
      <psa30 value="0.0127776910" flag="0"/>
    </comp>
    <comp name="--.HHZ">
      <acc value="0.2947901990" flag="0"/>
      <vel value="0.0712723005" flag="0"/>
      <psa03 value="0.3965493229" flag="0"/>
      <psa10 value="0.0456702193" flag="0"/>
      <psa30 value="0.0069107635" flag="0"/>
    </comp>
    <comp name="--.HHN">
      <acc value="0.2314044001" flag="0"/>
      <vel value="0.0555231426" flag="0"/>
      <psa03 value="0.4388619193" flag="0"/>
      <psa10 value="0.0399494030" flag="0"/>
      <psa30 value="0.0051746656" flag="0"/>
    </comp>
  </station>
  <station code="SNT1" name="SNT1" netid="HA" insttype="30" lat="36.4159" lon="25.4282">
    <comp name="--.HHE">
      <acc value="0.3086978486" flag="0"/>
      <vel value="0.1169528900" flag="0"/>
      <psa03 value="0.3224534514" flag="0"/>
      <psa10 value="0.1615510824" flag="0"/>
      <psa30 value="0.0141412085" flag="0"/>
    </comp>
    <comp name="--.HHN">
      <acc value="0.2043861733" flag="0"/>
      <vel value="0.1140054302" flag="0"/>
      <psa03 value="0.3474866141" flag="0"/>
      <psa10 value="0.1512043674" flag="0"/>
      <psa30 value="0.0179646789" flag="0"/>
    </comp>
    <comp name="--.HHZ">
      <acc value="0.3059029578" flag="0"/>
      <vel value="0.0844691437" flag="0"/>
      <psa03 value="0.2263931062" flag="0"/>
      <psa10 value="0.0771334834" flag="0"/>
      <psa30 value="0.0089898901" flag="0"/>
    </comp>
  </station>
  <station code="KNSS" name="KNSS" netid="HC" insttype="60" lat="35.3042" lon="25.1802">
    <comp name="--.HHE">
      <acc value="0.0219417928" flag="0"/>
      <vel value="0.0138232347" flag="0"/>
      <psa03 value="0.0453051666" flag="0"/>
      <psa10 value="0.0237416897" flag="0"/>
      <psa30 value="0.0023174673" flag="0"/>
    </comp>
    <comp name="--.HHN">
      <acc value="0.0187678927" flag="0"/>
      <vel value="0.0103284609" flag="0"/>
      <psa03 value="0.0578006320" flag="0"/>
      <psa10 value="0.0113934837" flag="0"/>
      <psa30 value="0.0017967194" flag="0"/>
    </comp>
    <comp name="--.HHZ">
      <acc value="0.0205059449" flag="0"/>
      <vel value="0.0116788760" flag="0"/>
      <psa03 value="0.0496910462" flag="0"/>
      <psa10 value="0.0137040816" flag="0"/>
      <psa30 value="0.0016791238" flag="0"/>
    </comp>
  </station>
  <station code="NAX1" name="NAX1" netid="HI" insttype="CMG-5TD,ACCELEROMETER,GURALP" lat="37.1014" lon="25.3741">
    <comp name="--.HNE">
      <acc value="0.2387917129" flag="0"/>
      <vel value="0.0643354804" flag="0"/>
      <psa03 value="0.4112203695" flag="0"/>
      <psa10 value="0.0340171594" flag="0"/>
      <psa30 value="0.0031246581" flag="0"/>
    </comp>
    <comp name="--.HNN">
      <acc value="0.1994351533" flag="0"/>
      <vel value="0.0566058486" flag="0"/>
      <psa03 value="0.2174816398" flag="0"/>
      <psa10 value="0.0297467397" flag="0"/>
      <psa30 value="0.0075874637" flag="0"/>
    </comp>
    <comp name="--.HNZ">
      <acc value="0.0998586369" flag="0"/>
      <vel value="0.0380923274" flag="0"/>
      <psa03 value="0.1406572651" flag="0"/>
      <psa10 value="0.0395138582" flag="0"/>
      <psa30 value="0.0067952517" flag="0"/>
    </comp>
  </station>
  <station code="APE" name="APE" netid="HL" insttype="120" lat="37.0727" lon="25.523">
    <comp name="--.HHE">
      <acc value="0.2047160915" flag="0"/>
      <vel value="0.0585449064" flag="0"/>
      <psa03 value="0.2805513861" flag="0"/>
      <psa10 value="0.0258861150" flag="0"/>
      <psa30 value="0.0058410075" flag="0"/>
    </comp>
    <comp name="--.HHZ">
      <acc value="0.0874478098" flag="0"/>
      <vel value="0.0276060489" flag="0"/>
      <psa03 value="0.0715546262" flag="0"/>
      <psa10 value="0.0264765612" flag="0"/>
      <psa30 value="0.0071463575" flag="0"/>
    </comp>
    <comp name="--.HHN">
      <acc value="0.1752900150" flag="0"/>
      <vel value="0.0463583287" flag="0"/>
      <psa03 value="0.1679751643" flag="0"/>
      <psa10 value="0.0282853116" flag="0"/>
      <psa30 value="0.0069124707" flag="0"/>
    </comp>
  </station>
  <station code="IACM" name="IACM" netid="HL" insttype="120" lat="35.3058" lon="25.0709">
    <comp name="--.HHE">
      <acc value="0.0633624735" flag="0"/>
      <vel value="0.0531234257" flag="0"/>
      <psa03 value="0.1945361356" flag="0"/>
      <psa10 value="0.1232295747" flag="0"/>
      <psa30 value="0.0083126313" flag="0"/>
    </comp>
    <comp name="--.HHN">
      <acc value="0.0708983731" flag="0"/>
      <vel value="0.0476604620" flag="0"/>
      <psa03 value="0.1944167542" flag="0"/>
      <psa10 value="0.1052166014" flag="0"/>
      <psa30 value="0.0044108377" flag="0"/>
    </comp>
    <comp name="--.HHZ">
      <acc value="0.0634033548" flag="0"/>
      <vel value="0.0340392365" flag="0"/>
      <psa03 value="0.1902436336" flag="0"/>
      <psa10 value="0.0407164832" flag="0"/>
      <psa30 value="0.0016118726" flag="0"/>
    </comp>
  </station>
  <station code="MHLO" name="MHLO" netid="HL" insttype="20" lat="36.6898" lon="24.4017">
    <comp name="--.HHE">
      <acc value="0.2450526289" flag="0"/>
      <vel value="0.1889304664" flag="0"/>
      <psa03 value="0.5524020794" flag="0"/>
      <psa10 value="0.4026476266" flag="0"/>
      <psa30 value="0.0163575639" flag="0"/>
    </comp>
    <comp name="--.HHZ">
      <acc value="0.1126821029" flag="0"/>
      <vel value="0.1052811274" flag="0"/>
      <psa03 value="0.2790189609" flag="0"/>
      <psa10 value="0.2001050426" flag="0"/>
      <psa30 value="0.0100025739" flag="0"/>
    </comp>
    <comp name="--.HHN">
      <acc value="0.2084708380" flag="0"/>
      <vel value="0.1740793291" flag="0"/>
      <psa03 value="0.3968671402" flag="0"/>
      <psa10 value="0.4106691156" flag="0"/>
      <psa30 value="0.0143838310" flag="0"/>
    </comp>
  </station>
  <station code="NISR" name="NISR" netid="HL" insttype="65535" lat="36.6106" lon="27.131">
    <comp name="--.HHE">
      <acc value="0.0000000000" flag="0"/>
      <vel value="-100.0000000000" flag="0"/>
      <psa03 value="0.0000000000" flag="0"/>
      <psa10 value="0.0000000000" flag="0"/>
      <psa30 value="0.0000000000" flag="0"/>
    </comp>
    <comp name="--.HHN">
      <acc value="0.0275666215" flag="0"/>
      <vel value="0.0157498928" flag="0"/>
      <psa03 value="0.0594911467" flag="0"/>
      <psa10 value="0.0234731284" flag="0"/>
      <psa30 value="0.0067258496" flag="0"/>
    </comp>
    <comp name="--.HHZ">
      <acc value="0.0119260502" flag="0"/>
      <vel value="0.0088443231" flag="0"/>
      <psa03 value="0.0242854803" flag="0"/>
      <psa10 value="0.0138928758" flag="0"/>
      <psa30 value="0.0014468643" flag="0"/>
    </comp>
  </station>
  <station code="NISR2" name="NISR2" netid="HL" insttype="120" lat="36.5744" lon="27.1767">
    <comp name="--.HHN">
      <acc value="0.0420613006" flag="0"/>
      <vel value="0.0392320659" flag="0"/>
      <psa03 value="0.1045591172" flag="0"/>
      <psa10 value="0.0748610789" flag="0"/>
      <psa30 value="0.0053267545" flag="0"/>
    </comp>
    <comp name="--.HHZ">
      <acc value="0.0159525177" flag="0"/>
      <vel value="0.0103359113" flag="0"/>
      <psa03 value="0.0343054853" flag="0"/>
      <psa10 value="0.0144555814" flag="0"/>
      <psa30 value="0.0023459030" flag="0"/>
    </comp>
    <comp name="--.HHE">
      <acc value="0.0340691597" flag="0"/>
      <vel value="0.0311400516" flag="0"/>
      <psa03 value="0.0941017790" flag="0"/>
      <psa10 value="0.0755118930" flag="0"/>
      <psa30 value="0.0043955674" flag="0"/>
    </comp>
  </station>
  <station code="NPS" name="NPS" netid="HL" insttype="CMG3ESPC-120s" lat="35.2613" lon="25.6104">
    <comp name="--.HHE">
      <acc value="0.0119706505" flag="0"/>
      <vel value="0.0072646675" flag="0"/>
      <psa03 value="0.0336223578" flag="0"/>
      <psa10 value="0.0132222787" flag="0"/>
      <psa30 value="0.0008417114" flag="0"/>
    </comp>
    <comp name="--.HHZ">
      <acc value="0.0235815200" flag="0"/>
      <vel value="0.0102722709" flag="0"/>
      <psa03 value="0.0429378397" flag="0"/>
      <psa10 value="0.0106655199" flag="0"/>
      <psa30 value="0.0018811807" flag="0"/>
    </comp>
    <comp name="--.HHN">
      <acc value="0.0239060817" flag="0"/>
      <vel value="0.0187733913" flag="0"/>
      <psa03 value="0.0617149797" flag="0"/>
      <psa10 value="0.0297096840" flag="0"/>
      <psa30 value="0.0015444231" flag="0"/>
    </comp>
  </station>
  <station code="SAP3" name="SAP3" netid="HL" insttype="LE3D20_SMART24" lat="36.4356" lon="25.3454">
    <comp name="--.HHE">
      <acc value="1.0557512613" flag="0"/>
      <vel value="0.3828915295" flag="0"/>
      <psa03 value="1.7605062501" flag="0"/>
      <psa10 value="0.3748182221" flag="0"/>
      <psa30 value="0.0764476737" flag="0"/>
    </comp>
    <comp name="--.HHN">
      <acc value="1.0960073293" flag="0"/>
      <vel value="0.5203101010" flag="0"/>
      <psa03 value="1.6905808122" flag="0"/>
      <psa10 value="0.4617385179" flag="0"/>
      <psa30 value="0.0469406119" flag="0"/>
    </comp>
    <comp name="--.HHZ">
      <acc value="1.4759482096" flag="0"/>
      <vel value="0.3252158761" flag="0"/>
      <psa03 value="1.5782862550" flag="0"/>
      <psa10 value="0.2073682817" flag="0"/>
      <psa30 value="0.0264683871" flag="0"/>
    </comp>
  </station>
  <station code="THERA" name="THERA" netid="HL" insttype="120" lat="36.367" lon="25.4753">
    <comp name="--.HHE">
      <acc value="0.3297566937" flag="0"/>
      <vel value="0.0850946781" flag="0"/>
      <psa03 value="0.5717621161" flag="0"/>
      <psa10 value="0.0411577314" flag="0"/>
      <psa30 value="0.0127782926" flag="0"/>
    </comp>
    <comp name="--.HHZ">
      <acc value="0.2920817036" flag="0"/>
      <vel value="0.0691684909" flag="0"/>
      <psa03 value="0.3858345270" flag="0"/>
      <psa10 value="0.0454058741" flag="0"/>
      <psa30 value="0.0069022063" flag="0"/>
    </comp>
    <comp name="--.HHN">
      <acc value="0.2339092897" flag="0"/>
      <vel value="0.0537257218" flag="0"/>
      <psa03 value="0.4252925853" flag="0"/>
      <psa10 value="0.0396928238" flag="0"/>
      <psa30 value="0.0051696699" flag="0"/>
    </comp>
  </station>
  <station code="THRA" name="THRA" netid="HL" insttype="CMG-5" lat="36.415" lon="25.4324">
    <comp name="00.HNE">
      <acc value="1.0220336770" flag="0"/>
      <vel value="0.3320582166" flag="0"/>
      <psa03 value="1.4045664795" flag="0"/>
      <psa10 value="0.3488443325" flag="0"/>
      <psa30 value="0.0254641867" flag="0"/>
    </comp>
    <comp name="00.HNZ">
      <acc value="0.8383343711" flag="0"/>
      <vel value="0.2964351484" flag="0"/>
      <psa03 value="1.0094832990" flag="0"/>
      <psa10 value="0.1993343634" flag="0"/>
      <psa30 value="0.0166339494" flag="0"/>
    </comp>
    <comp name="00.HNN">
      <acc value="0.7222204117" flag="0"/>
      <vel value="0.3325603164" flag="0"/>
      <psa03 value="1.4491250857" flag="0"/>
      <psa10 value="0.4004820803" flag="0"/>
      <psa30 value="0.0310153868" flag="0"/>
    </comp>
  </station>
  <station code="TNSA" name="TNSA" netid="HL" insttype="CMG-5" lat="37.5394" lon="25.1631">
    <comp name="00.HNE">
      <acc value="0.0700559666" flag="0"/>
      <vel value="0.0267694643" flag="0"/>
      <psa03 value="0.1859063740" flag="0"/>
      <psa10 value="0.0168927609" flag="0"/>
      <psa30 value="0.0025202231" flag="0"/>
    </comp>
    <comp name="00.HNZ">
      <acc value="0.0785419870" flag="0"/>
      <vel value="0.0346995100" flag="0"/>
      <psa03 value="0.2019331654" flag="0"/>
      <psa10 value="0.0273331659" flag="0"/>
      <psa30 value="0.0056642909" flag="0"/>
    </comp>
    <comp name="00.HNN">
      <acc value="0.1004981722" flag="0"/>
      <vel value="0.0433390229" flag="0"/>
      <psa03 value="0.1479665071" flag="0"/>
      <psa10 value="0.0410359194" flag="0"/>
      <psa30 value="0.0041864797" flag="0"/>
    </comp>
  </station>
  <station code="CMBO" name="CMBO" netid="HT" insttype="120P," lat="36.4709" lon="25.4056">
    <comp name="--.HHE">
      <acc value="1.4128952494" flag="0"/>
      <vel value="0.6152748250" flag="0"/>
      <psa03 value="1.9424463906" flag="0"/>
      <psa10 value="0.7433557605" flag="0"/>
      <psa30 value="0.0352136776" flag="0"/>
    </comp>
    <comp name="--.HHN">
      <acc value="2.0448416827" flag="0"/>
      <vel value="1.2935215152" flag="0"/>
      <psa03 value="3.5989793829" flag="0"/>
      <psa10 value="1.2012638219" flag="0"/>
      <psa30 value="0.0509811978" flag="0"/>
    </comp>
    <comp name="--.HHZ">
      <acc value="1.7695850505" flag="0"/>
      <vel value="0.6051211320" flag="0"/>
      <psa03 value="2.6981474616" flag="0"/>
      <psa10 value="0.3007795003" flag="0"/>
      <psa30 value="0.0322454443" flag="0"/>
    </comp>
  </station>
</stationlist>
