<?xml version="1.0" encoding="UTF-8" standalone="yes"?>
<!DOCTYPE earthquake SYSTEM "stationlist.dtd">
<stationlist created="" xmlns="ch.ethz.sed.shakemap.usgs.xml">
  <station code="BISRR" name="BISRR" netid="RO" insttype="CMG40T.1to100/Basalt" commtype="DIG" lat="45.5481" lon="26.7099">
    <comp name="--.HHN">
      <acc value="0.0307659023" flag="0"/>
      <vel value="0.0061678809" flag="0"/>
      <psa03 value="0.0395299320" flag="0"/>
      <psa10 value="0.0045784137" flag="0"/>
      <psa30 value="0.0002619109" flag="0"/>
    </comp>
    <comp name="--.HHZ">
      <acc value="0.0571836176" flag="0"/>
      <vel value="0.0089370738" flag="0"/>
      <psa03 value="0.0278615058" flag="0"/>
      <psa10 value="0.0022578130" flag="0"/>
      <psa30 value="0.0001484564" flag="0"/>
    </comp>
    <comp name="--.HHE">
      <acc value="0.0580657459" flag="0"/>
      <vel value="0.0104955757" flag="0"/>
      <psa03 value="0.0540879296" flag="0"/>
      <psa10 value="0.0034944234" flag="0"/>
      <psa30 value="0.0002127412" flag="0"/>
    </comp>
  </station>
  <station code="BOSR" name="BOSR" netid="RO" insttype="Seismometer/Basalt" commtype="DIG" lat="46.0749" lon="25.6611">
    <comp name="--.HHZ">
      <acc value="0.0057897653" flag="0"/>
      <vel value="0.0013028898" flag="0"/>
      <psa03 value="0.0044431058" flag="0"/>
      <psa10 value="0.0004012182" flag="0"/>
      <psa30 value="0.0000435940" flag="0"/>
    </comp>
    <comp name="--.HHE">
      <acc value="0.0032573858" flag="0"/>
      <vel value="0.0014071624" flag="0"/>
      <psa03 value="0.0069169598" flag="0"/>
      <psa10 value="0.0014604494" flag="0"/>
      <psa30 value="0.0001177561" flag="0"/>
    </comp>
    <comp name="--.HHN">
      <acc value="0.0000199682" flag="0"/>
      <vel value="0.0000010713" flag="0"/>
      <psa03 value="0.0000025263" flag="0"/>
      <psa10 value="0.0000005193" flag="0"/>
      <psa30 value="0.0000000947" flag="0"/>
    </comp>
  </station>
  <station code="DOPR" name="DOPR" netid="RO" insttype="330" commtype="DIG" lat="45.9675" lon="25.3886">
    <comp name="--.HHE">
      <acc value="0.0072151484" flag="0"/>
      <vel value="0.0011841396" flag="0"/>
      <psa03 value="0.0055438252" flag="0"/>
      <psa10 value="0.0011273364" flag="0"/>
      <psa30 value="0.0000999761" flag="0"/>
    </comp>
    <comp name="--.HHZ">
      <acc value="0.0048281033" flag="0"/>
      <vel value="0.0012264529" flag="0"/>
      <psa03 value="0.0039345157" flag="0"/>
      <psa10 value="0.0003949737" flag="0"/>
      <psa30 value="0.0000433513" flag="0"/>
    </comp>
    <comp name="--.HHN">
      <acc value="0.0062521372" flag="0"/>
      <vel value="0.0012804458" flag="0"/>
      <psa03 value="0.0037547431" flag="0"/>
      <psa10 value="0.0012477429" flag="0"/>
      <psa30 value="0.0001109524" flag="0"/>
    </comp>
  </station>
  <station code="ISR" name="ISR" netid="RO" insttype="CMG3ESP/Quanterra" commtype="DIG" lat="45.1187" lon="26.5432">
    <comp name="--.HHE">
      <acc value="0.0112903282" flag="0"/>
      <vel value="0.0024604251" flag="0"/>
      <psa03 value="0.0109385297" flag="0"/>
      <psa10 value="0.0012776143" flag="0"/>
      <psa30 value="0.0000658882" flag="0"/>
    </comp>
    <comp name="--.HHN">
      <acc value="0.0120260584" flag="0"/>
      <vel value="0.0019363560" flag="0"/>
      <psa03 value="0.0113904034" flag="0"/>
      <psa10 value="0.0014414730" flag="0"/>
      <psa30 value="0.0000944152" flag="0"/>
    </comp>
    <comp name="--.HHZ">
      <acc value="0.0097789547" flag="0"/>
      <vel value="0.0016239463" flag="0"/>
      <psa03 value="0.0103273906" flag="0"/>
      <psa10 value="0.0009300917" flag="0"/>
      <psa30 value="0.0000570416" flag="0"/>
    </comp>
  </station>
  <station code="MLR" name="MLR" netid="RO" insttype="330HR" commtype="DIG" lat="45.4909" lon="25.945">
    <comp name="--.HHN">
      <acc value="0.0028363584" flag="0"/>
      <vel value="0.0013432357" flag="0"/>
      <psa03 value="0.0057916571" flag="0"/>
      <psa10 value="0.0005112068" flag="0"/>
      <psa30 value="0.0000572780" flag="0"/>
    </comp>
    <comp name="--.HHZ">
      <acc value="0.0052444087" flag="0"/>
      <vel value="0.0018928483" flag="0"/>
      <psa03 value="0.0075720002" flag="0"/>
      <psa10 value="0.0008830036" flag="0"/>
      <psa30 value="0.0000609459" flag="0"/>
    </comp>
    <comp name="--.HHE">
      <acc value="0.0027253159" flag="0"/>
      <vel value="0.0011757432" flag="0"/>
      <psa03 value="0.0054435449" flag="0"/>
      <psa10 value="0.0005431612" flag="0"/>
      <psa30 value="0.0000588571" flag="0"/>
    </comp>
  </station>
  <station code="MTUR" name="MTUR" netid="RO" insttype="200" commtype="DIG" lat="45.2349" lon="25.0739">
    <comp name="--.HNE">
      <acc value="0.0057170789" flag="0"/>
      <vel value="0.0018862545" flag="0"/>
      <psa03 value="0.0080751329" flag="0"/>
      <psa10 value="0.0028411273" flag="0"/>
      <psa30 value="0.0001252689" flag="0"/>
    </comp>
    <comp name="--.HNN">
      <acc value="0.0074679565" flag="0"/>
      <vel value="0.0024879064" flag="0"/>
      <psa03 value="0.0111208184" flag="0"/>
      <psa10 value="0.0019748762" flag="0"/>
      <psa30 value="0.0001847438" flag="0"/>
    </comp>
    <comp name="--.HNZ">
      <acc value="0.0069768682" flag="0"/>
      <vel value="0.0010097557" flag="0"/>
      <psa03 value="0.0072204895" flag="0"/>
      <psa10 value="0.0007477796" flag="0"/>
      <psa30 value="0.0001718356" flag="0"/>
    </comp>
  </station>
  <station code="NEHR" name="NEHR" netid="RO" insttype="Seismometer/Basalt" commtype="DIG" lat="45.4272" lon="26.2952">
    <comp name="--.HHZ">
      <acc value="0.0017354233" flag="0"/>
      <vel value="0.0004598584" flag="0"/>
      <psa03 value="0.0024649815" flag="0"/>
      <psa10 value="0.0001763176" flag="0"/>
      <psa30 value="0.0000145760" flag="0"/>
    </comp>
    <comp name="--.HHN">
      <acc value="0.0014670057" flag="0"/>
      <vel value="0.0004191239" flag="0"/>
      <psa03 value="0.0024253397" flag="0"/>
      <psa10 value="0.0001409642" flag="0"/>
      <psa30 value="0.0000084734" flag="0"/>
    </comp>
    <comp name="--.HHE">
      <acc value="0.0010333070" flag="0"/>
      <vel value="0.0003207516" flag="0"/>
      <psa03 value="0.0028614280" flag="0"/>
      <psa10 value="0.0001664868" flag="0"/>
      <psa30 value="0.0000106941" flag="0"/>
    </comp>
  </station>
  <station code="ODBI" name="ODBI" netid="RO" insttype="200" commtype="DIG" lat="45.7633" lon="27.0558">
    <comp name="--.HNZ">
      <acc value="0.0882649271" flag="0"/>
      <vel value="0.0175019317" flag="0"/>
      <psa03 value="0.0350555542" flag="0"/>
      <psa10 value="0.0020903772" flag="0"/>
      <psa30 value="0.0002648782" flag="0"/>
    </comp>
    <comp name="--.HNE">
      <acc value="0.0342035688" flag="0"/>
      <vel value="0.0047055931" flag="0"/>
      <psa03 value="0.0261268090" flag="0"/>
      <psa10 value="0.0020951421" flag="0"/>
      <psa30 value="0.0001351239" flag="0"/>
    </comp>
    <comp name="--.HNN">
      <acc value="0.0331648046" flag="0"/>
      <vel value="0.0050552128" flag="0"/>
      <psa03 value="0.0264584579" flag="0"/>
      <psa10 value="0.0016933032" flag="0"/>
      <psa30 value="0.0001507543" flag="0"/>
    </comp>
  </station>
  <station code="PANC" name="PANC" netid="RO" insttype="Seismometer/Basalt" commtype="DIG" lat="45.8723" lon="27.1477">
    <comp name="--.HHE">
      <acc value="0.0902101064" flag="0"/>
      <vel value="0.0174801997" flag="0"/>
      <psa03 value="0.0402121603" flag="0"/>
      <psa10 value="0.0027193313" flag="0"/>
      <psa30 value="0.0001730709" flag="0"/>
    </comp>
    <comp name="--.HHN">
      <acc value="0.0548037876" flag="0"/>
      <vel value="0.0138976929" flag="0"/>
      <psa03 value="0.0408310595" flag="0"/>
      <psa10 value="0.0031286749" flag="0"/>
      <psa30 value="0.0002166979" flag="0"/>
    </comp>
    <comp name="--.HHZ">
      <acc value="0.0923472995" flag="0"/>
      <vel value="0.0145886376" flag="0"/>
      <psa03 value="0.0397229308" flag="0"/>
      <psa10 value="0.0024718040" flag="0"/>
      <psa30 value="0.0001987582" flag="0"/>
    </comp>
  </station>
  <station code="PGOR" name="PGOR" netid="RO" insttype="CMG40T.1to100/Quanterra" commtype="DIG" lat="44.9199" lon="26.9768">
    <comp name="--.HHZ">
      <acc value="0.1394302592" flag="0"/>
      <vel value="0.0154365803" flag="0"/>
      <psa03 value="0.0166689891" flag="0"/>
      <psa10 value="0.0012423703" flag="0"/>
      <psa30 value="0.0000915631" flag="0"/>
    </comp>
    <comp name="--.HHE">
      <acc value="0.0580672019" flag="0"/>
      <vel value="0.0120590021" flag="0"/>
      <psa03 value="0.0445888828" flag="0"/>
      <psa10 value="0.0033122063" flag="0"/>
      <psa30 value="0.0003494536" flag="0"/>
    </comp>
    <comp name="--.HHN">
      <acc value="0.0353449090" flag="0"/>
      <vel value="0.0129002061" flag="0"/>
      <psa03 value="0.0508099958" flag="0"/>
      <psa10 value="0.0031955100" flag="0"/>
      <psa30 value="0.0002852895" flag="0"/>
    </comp>
  </station>
  <station code="PLAR" name="PLAR" netid="RO" insttype="200" commtype="DIG" lat="44.9142" lon="26.0274">
    <comp name="--.HNE">
      <acc value="0.0210824491" flag="0"/>
      <vel value="0.0059346197" flag="0"/>
      <psa03 value="0.0238144828" flag="0"/>
      <psa10 value="0.0032942362" flag="0"/>
      <psa30 value="0.0002227465" flag="0"/>
    </comp>
    <comp name="--.HNN">
      <acc value="0.0217477150" flag="0"/>
      <vel value="0.0063027096" flag="0"/>
      <psa03 value="0.0277351924" flag="0"/>
      <psa10 value="0.0018701936" flag="0"/>
      <psa30 value="0.0001921321" flag="0"/>
    </comp>
    <comp name="--.HNZ">
      <acc value="0.0862787377" flag="0"/>
      <vel value="0.0167688735" flag="0"/>
      <psa03 value="0.0379061009" flag="0"/>
      <psa10 value="0.0022986021" flag="0"/>
      <psa30 value="0.0002651263" flag="0"/>
    </comp>
  </station>
  <station code="PLOR" name="PLOR" netid="RO" insttype="MBB2/Quanterra" commtype="DIG" lat="45.8512" lon="26.6498">
    <comp name="--.HHN">
      <acc value="0.0099621092" flag="0"/>
      <vel value="0.0037947307" flag="0"/>
      <psa03 value="0.0278832206" flag="0"/>
      <psa10 value="0.0015196789" flag="0"/>
      <psa30 value="0.0001092955" flag="0"/>
    </comp>
    <comp name="--.HHZ">
      <acc value="0.0071894851" flag="0"/>
      <vel value="0.0017056378" flag="0"/>
      <psa03 value="0.0096788115" flag="0"/>
      <psa10 value="0.0006256883" flag="0"/>
      <psa30 value="0.0000492136" flag="0"/>
    </comp>
    <comp name="--.HHE">
      <acc value="0.0136491633" flag="0"/>
      <vel value="0.0048245929" flag="0"/>
      <psa03 value="0.0331044402" flag="0"/>
      <psa10 value="0.0015597468" flag="0"/>
      <psa30 value="0.0001136145" flag="0"/>
    </comp>
  </station>
  <station code="PLOR4" name="PLOR4" netid="RO" insttype="MBB2/Quanterra" commtype="DIG" lat="45.8512" lon="26.6498">
    <comp name="--.HHE">
      <acc value="0.0136491633" flag="0"/>
      <vel value="0.0048245929" flag="0"/>
      <psa03 value="0.0331044402" flag="0"/>
      <psa10 value="0.0015597468" flag="0"/>
      <psa30 value="0.0001136145" flag="0"/>
    </comp>
    <comp name="--.HHZ">
      <acc value="0.0071894851" flag="0"/>
      <vel value="0.0017056378" flag="0"/>
      <psa03 value="0.0096788115" flag="0"/>
      <psa10 value="0.0006256883" flag="0"/>
      <psa30 value="0.0000492136" flag="0"/>
    </comp>
    <comp name="--.HHN">
      <acc value="0.0099621092" flag="0"/>
      <vel value="0.0037947307" flag="0"/>
      <psa03 value="0.0278832206" flag="0"/>
      <psa10 value="0.0015196789" flag="0"/>
      <psa30 value="0.0001092955" flag="0"/>
    </comp>
  </station>
  <station code="SCHL" name="SCHL" netid="RO" insttype="CMG40T.1to100/Quanterra" commtype="DIG" lat="45.5007" lon="27.8302">
    <comp name="--.HHN">
      <acc value="0.0570121436" flag="0"/>
      <vel value="0.0131725195" flag="0"/>
      <psa03 value="0.0606878465" flag="0"/>
      <psa10 value="0.0030773066" flag="0"/>
      <psa30 value="0.0002730670" flag="0"/>
    </comp>
    <comp name="--.HHE">
      <acc value="0.0730120996" flag="0"/>
      <vel value="0.0213890318" flag="0"/>
      <psa03 value="0.0718581628" flag="0"/>
      <psa10 value="0.0044367064" flag="0"/>
      <psa30 value="0.0004687943" flag="0"/>
    </comp>
    <comp name="--.HHZ">
      <acc value="0.0634805863" flag="0"/>
      <vel value="0.0105584789" flag="0"/>
      <psa03 value="0.0246255877" flag="0"/>
      <psa10 value="0.0014295996" flag="0"/>
      <psa30 value="0.0001135405" flag="0"/>
    </comp>
  </station>
  <station code="SULR" name="SULR" netid="RO" insttype="330" commtype="DIG" lat="44.6777" lon="26.2526">
    <comp name="--.HHE">
      <acc value="0.0227498130" flag="0"/>
      <vel value="0.0075085446" flag="0"/>
      <psa03 value="0.0286172786" flag="0"/>
      <psa10 value="0.0029397393" flag="0"/>
      <psa30 value="0.0002540360" flag="0"/>
    </comp>
    <comp name="--.HHZ">
      <acc value="0.0487436133" flag="0"/>
      <vel value="0.0054166240" flag="0"/>
      <psa03 value="0.0172366485" flag="0"/>
      <psa10 value="0.0009520647" flag="0"/>
      <psa30 value="0.0001113410" flag="0"/>
    </comp>
    <comp name="--.HHN">
      <acc value="0.0269168332" flag="0"/>
      <vel value="0.0099595025" flag="0"/>
      <psa03 value="0.0493130380" flag="0"/>
      <psa10 value="0.0040163660" flag="0"/>
      <psa30 value="0.0003176870" flag="0"/>
    </comp>
  </station>
  <station code="TESR" name="TESR" netid="RO" insttype="330" commtype="DIG" lat="46.5118" lon="26.6489">
    <comp name="--.HHN">
      <acc value="0.0060065638" flag="0"/>
      <vel value="0.0020813531" flag="0"/>
      <psa03 value="0.0106803559" flag="0"/>
      <psa10 value="0.0005421471" flag="0"/>
      <psa30 value="0.0000678127" flag="0"/>
    </comp>
    <comp name="--.HHE">
      <acc value="0.0061736374" flag="0"/>
      <vel value="0.0020819331" flag="0"/>
      <psa03 value="0.0151447571" flag="0"/>
      <psa10 value="0.0009327232" flag="0"/>
      <psa30 value="0.0000849789" flag="0"/>
    </comp>
    <comp name="--.HHZ">
      <acc value="0.0059763330" flag="0"/>
      <vel value="0.0012918491" flag="0"/>
      <psa03 value="0.0029796323" flag="0"/>
      <psa10 value="0.0002424322" flag="0"/>
      <psa30 value="0.0000291980" flag="0"/>
    </comp>
  </station>
  <station code="TUDR" name="TUDR" netid="RO" insttype="CMG40T.1to100/Quanterra" commtype="DIG" lat="45.5939" lon="27.6687">
    <comp name="--.HHN">
      <acc value="0.0853969279" flag="0"/>
      <vel value="0.0250737278" flag="0"/>
      <psa03 value="0.0749272098" flag="0"/>
      <psa10 value="0.0039145097" flag="0"/>
      <psa30 value="0.0003797247" flag="0"/>
    </comp>
    <comp name="--.HHE">
      <acc value="0.0680878416" flag="0"/>
      <vel value="0.0152294990" flag="0"/>
      <psa03 value="0.0696550773" flag="0"/>
      <psa10 value="0.0041105555" flag="0"/>
      <psa30 value="0.0003279930" flag="0"/>
    </comp>
    <comp name="--.HHZ">
      <acc value="0.0971100690" flag="0"/>
      <vel value="0.0141959305" flag="0"/>
      <psa03 value="0.0180147090" flag="0"/>
      <psa10 value="0.0011031964" flag="0"/>
      <psa30 value="0.0001174192" flag="0"/>
    </comp>
  </station>
  <station code="VARL" name="VARL" netid="RO" insttype="MBB2/Quanterra" commtype="DIG" lat="45.8996" lon="27.8487">
    <comp name="--.HHE">
      <acc value="0.0897394753" flag="0"/>
      <vel value="0.0165085472" flag="0"/>
      <psa03 value="0.0356840245" flag="0"/>
      <psa10 value="0.0026168615" flag="0"/>
      <psa30 value="0.0002497611" flag="0"/>
    </comp>
    <comp name="--.HHN">
      <acc value="0.0615373394" flag="0"/>
      <vel value="0.0074803160" flag="0"/>
      <psa03 value="0.0198482364" flag="0"/>
      <psa10 value="0.0013016039" flag="0"/>
      <psa30 value="0.0000842230" flag="0"/>
    </comp>
    <comp name="--.HHZ">
      <acc value="0.0615373394" flag="0"/>
      <vel value="0.0074803160" flag="0"/>
      <psa03 value="0.0198482364" flag="0"/>
      <psa10 value="0.0013016039" flag="0"/>
      <psa30 value="0.0000842230" flag="0"/>
    </comp>
  </station>
  <station code="VRI" name="VRI" netid="RO" insttype="Linear" commtype="DIG" lat="45.8657" lon="26.7277">
    <comp name="--.HHZ">
      <acc value="0.0088146996" flag="0"/>
      <vel value="0.0022876881" flag="0"/>
      <psa03 value="0.0151332503" flag="0"/>
      <psa10 value="0.0007958267" flag="0"/>
      <psa30 value="0.0000499060" flag="0"/>
    </comp>
    <comp name="--.HHE">
      <acc value="0.0421505135" flag="0"/>
      <vel value="0.0119457637" flag="0"/>
      <psa03 value="0.0944602797" flag="0"/>
      <psa10 value="0.0029488311" flag="0"/>
      <psa30 value="0.0002142271" flag="0"/>
    </comp>
    <comp name="--.HHN">
      <acc value="0.0123125443" flag="0"/>
      <vel value="0.0043048771" flag="0"/>
      <psa03 value="0.0335649662" flag="0"/>
      <psa10 value="0.0013200436" flag="0"/>
      <psa30 value="0.0001079257" flag="0"/>
    </comp>
  </station>
</stationlist>
