<?xml version="1.0" encoding="UTF-8" standalone="yes"?>
<!DOCTYPE earthquake SYSTEM "stationlist.dtd">
<stationlist created="" xmlns="ch.ethz.sed.shakemap.usgs.xml">
  <station code="GVD" name="GVD" netid="GE" insttype="STS-2/N" lat="34.8391" lon="24.0874">
    <comp name="--.HHZ">
      <acc value="0.0535878272" flag="0"/>
      <vel value="0.0172959187" flag="0"/>
      <psa03 value="0.1250715972" flag="0"/>
      <psa10 value="0.0083192047" flag="0"/>
      <psa30 value="0.0013842225" flag="0"/>
    </comp>
    <comp name="--.HHE">
      <acc value="0.1111319554" flag="0"/>
      <vel value="0.0379493247" flag="0"/>
      <psa03 value="0.2990555471" flag="0"/>
      <psa10 value="0.0193605177" flag="0"/>
      <psa30 value="0.0016045895" flag="0"/>
    </comp>
    <comp name="--.HHN">
      <acc value="0.0864196681" flag="0"/>
      <vel value="0.0413556430" flag="0"/>
      <psa03 value="0.3080081163" flag="0"/>
      <psa10 value="0.0183892555" flag="0"/>
      <psa30 value="0.0015608345" flag="0"/>
    </comp>
  </station>
  <station code="IMMV" name="IMMV" netid="GE" insttype="STS-2/N" lat="35.4606" lon="23.9811">
    <comp name="--.HHE">
      <acc value="0.1209350129" flag="0"/>
      <vel value="0.0643648262" flag="0"/>
      <psa03 value="0.3354534371" flag="0"/>
      <psa10 value="0.0547911295" flag="0"/>
      <psa30 value="0.0033654618" flag="0"/>
    </comp>
    <comp name="--.HHN">
      <acc value="0.0976751535" flag="0"/>
      <vel value="0.0526565533" flag="0"/>
      <psa03 value="0.2668919719" flag="0"/>
      <psa10 value="0.0437941910" flag="0"/>
      <psa30 value="0.0032670552" flag="0"/>
    </comp>
    <comp name="--.HHZ">
      <acc value="0.0903691995" flag="0"/>
      <vel value="0.0411490732" flag="0"/>
      <psa03 value="0.2592609967" flag="0"/>
      <psa10 value="0.0195463873" flag="0"/>
      <psa30 value="0.0027855693" flag="0"/>
    </comp>
  </station>
  <station code="ZKR" name="ZKR" netid="GE" insttype="STS-2/N" lat="35.1147" lon="26.2169">
    <comp name="--.HHE">
      <acc value="0.0277557380" flag="0"/>
      <vel value="0.0152706564" flag="0"/>
      <psa03 value="0.0561457790" flag="0"/>
      <psa10 value="0.0275539882" flag="0"/>
      <psa30 value="0.0015177808" flag="0"/>
    </comp>
    <comp name="--.HHN">
      <acc value="0.0193850900" flag="0"/>
      <vel value="0.0087113088" flag="0"/>
      <psa03 value="0.0594037659" flag="0"/>
      <psa10 value="0.0075634637" flag="0"/>
      <psa30 value="0.0005851936" flag="0"/>
    </comp>
    <comp name="--.HHZ">
      <acc value="0.0181299752" flag="0"/>
      <vel value="0.0091166554" flag="0"/>
      <psa03 value="0.0340890615" flag="0"/>
      <psa10 value="0.0115318699" flag="0"/>
      <psa30 value="0.0017096014" flag="0"/>
    </comp>
  </station>
</stationlist>
