<stationlist created="1778138860">
	<station code="ABEA" name="ABEA" netid="HC" source="Seismological Network of Crete (HC)" insttype="" lat="35.5163" lon="24.0113">
		<comp name="--.HNE" depth="0.0">
			<acc value="0.0903718684364516" flag="0"/>
			<vel value="0.0450563598680172" flag="0"/>
			<psa03 value="0.212346900273351" flag="0"/>
			<psa10 value="0.0509807197225832" flag="0"/>
			<psa30 value="0.00677027599755518" flag="0"/>
		</comp>
		<comp name="--.HNN" depth="0.0">
			<acc value="0.0841207696157864" flag="0"/>
			<vel value="0.0523597813831984" flag="0"/>
			<psa03 value="0.205954747657939" flag="0"/>
			<psa10 value="0.0517532784007399" flag="0"/>
			<psa30 value="0.00605411730557744" flag="0"/>
		</comp>
		<comp name="--.HNZ" depth="0.0">
			<acc value="0.0441174295068521" flag="0"/>
			<vel value="0.0247461472809814" flag="0"/>
			<psa03 value="0.114022022149288" flag="0"/>
			<psa10 value="0.0316789373241209" flag="0"/>
			<psa30 value="0.00516541551675782" flag="0"/>
		</comp>
	</station>
	<station code="ATEI" name="ATEI" netid="HC" source="Seismological Network of Crete (HC)" insttype="" lat="35.5193" lon="24.0432">
		<comp name="--.HNE" depth="0.0">
			<acc value="0.0794932246699785" flag="0"/>
			<vel value="0.0351882173079463" flag="0"/>
			<psa03 value="0.226210110309569" flag="0"/>
			<psa10 value="0.0367872519748831" flag="0"/>
			<psa30 value="0.0054840166225307" flag="0"/>
		</comp>
		<comp name="--.HNN" depth="0.0">
			<acc value="0.0616634173654088" flag="0"/>
			<vel value="0.0413406322302017" flag="0"/>
			<psa03 value="0.163803059482258" flag="0"/>
			<psa10 value="0.0452838823350854" flag="0"/>
			<psa30 value="0.00369982467856153" flag="0"/>
		</comp>
		<comp name="--.HNZ" depth="0.0">
			<acc value="0.0568263339825274" flag="0"/>
			<vel value="0.0276816946758274" flag="0"/>
			<psa03 value="0.124124733070839" flag="0"/>
			<psa10 value="0.020246224337997" flag="0"/>
			<psa30 value="0.00406189533063003" flag="0"/>
		</comp>
	</station>
	<station code="G0LD" name="G0LD" netid="HC" source="Seismological Network of Crete (HC)" insttype="" lat="35.4955" lon="24.0306">
		<comp name="--.HNE" depth="0.0">
			<acc value="0.144158054878018" flag="0"/>
			<vel value="0.0972916248472034" flag="0"/>
			<psa03 value="0.37842756896911" flag="0"/>
			<psa10 value="0.158817770898042" flag="0"/>
			<psa30 value="0.0113725650433043" flag="0"/>
		</comp>
		<comp name="--.HNN" depth="0.0">
			<acc value="0.175637704771133" flag="0"/>
			<vel value="0.0964433007257352" flag="0"/>
			<psa03 value="0.457341629973588" flag="0"/>
			<psa10 value="0.173661809242453" flag="0"/>
			<psa30 value="0.011220427464904" flag="0"/>
		</comp>
		<comp name="--.HNZ" depth="0.0">
			<acc value="0.0963478524703711" flag="0"/>
			<vel value="0.0653848931058241" flag="0"/>
			<psa03 value="0.232752918738589" flag="0"/>
			<psa10 value="0.119843194023254" flag="0"/>
			<psa30 value="0.00600453110404889" flag="0"/>
		</comp>
	</station>
	<station code="LENT" name="LENT" netid="HC" source="Seismological Network of Crete (HC)" insttype="" lat="35.5074" lon="24.0402">
		<comp name="--.HNE" depth="0.0">
			<acc value="0.0811729481523369" flag="0"/>
			<vel value="0.0370226651247771" flag="0"/>
			<psa03 value="0.185477161951807" flag="0"/>
			<psa10 value="0.0430595462336876" flag="0"/>
			<psa30 value="0.00607751218869389" flag="0"/>
		</comp>
		<comp name="--.HNN" depth="0.0">
			<acc value="0.0924606438982495" flag="0"/>
			<vel value="0.0701569708612255" flag="0"/>
			<psa03 value="0.23425962271681" flag="0"/>
			<psa10 value="0.05943619110607" flag="0"/>
			<psa30 value="0.00539964394989089" flag="0"/>
		</comp>
		<comp name="--.HNZ" depth="0.0">
			<acc value="0.0569763668112629" flag="0"/>
			<vel value="0.0330120678273376" flag="0"/>
			<psa03 value="0.162302668421787" flag="0"/>
			<psa10 value="0.0214409991109815" flag="0"/>
			<psa30 value="0.00467980751430017" flag="0"/>
		</comp>
	</station>
	<station code="MULT" name="MULT" netid="HC" source="Seismological Network of Crete (HC)" insttype="" lat="35.5091" lon="24.0118">
		<comp name="--.HNE" depth="0.0">
			<acc value="0.150581164314379" flag="0"/>
			<vel value="0.0629148364799724" flag="0"/>
			<psa03 value="0.228923248375172" flag="0"/>
			<psa10 value="0.0518876723037411" flag="0"/>
			<psa30 value="0.00622748837386534" flag="0"/>
		</comp>
		<comp name="--.HNN" depth="0.0">
			<acc value="0.101646191269018" flag="0"/>
			<vel value="0.0429957138438204" flag="0"/>
			<psa03 value="0.256010167750611" flag="0"/>
			<psa10 value="0.0393994425196967" flag="0"/>
			<psa30 value="0.00706749485352286" flag="0"/>
		</comp>
		<comp name="--.HNZ" depth="0.0">
			<acc value="0.0865914888798298" flag="0"/>
			<vel value="0.036183262908941" flag="0"/>
			<psa03 value="0.0952557060562054" flag="0"/>
			<psa10 value="0.0450968836970939" flag="0"/>
			<psa30 value="0.00721405456236471" flag="0"/>
		</comp>
	</station>
	<station code="PASK" name="PASK" netid="HC" source="Seismological Network of Crete (HC)" insttype="" lat="35.4996" lon="24.0121">
		<comp name="--.HNE" depth="0.0">
			<acc value="0.102172877095051" flag="0"/>
			<vel value="0.0614544599686429" flag="0"/>
			<psa03 value="0.290113593601986" flag="0"/>
			<psa10 value="0.0670030336222567" flag="0"/>
			<psa30 value="0.0060580959024543" flag="0"/>
		</comp>
		<comp name="--.HNN" depth="0.0">
			<acc value="0.0909504149673659" flag="0"/>
			<vel value="0.068059518457625" flag="0"/>
			<psa03 value="0.231532129533895" flag="0"/>
			<psa10 value="0.0524679969971474" flag="0"/>
			<psa30 value="0.00838351453336418" flag="0"/>
		</comp>
		<comp name="--.HNZ" depth="0.0">
			<acc value="0.0701177121985872" flag="0"/>
			<vel value="0.0311219036656785" flag="0"/>
			<psa03 value="0.246213247919381" flag="0"/>
			<psa10 value="0.0267617878371188" flag="0"/>
			<psa30 value="0.00469849333547142" flag="0"/>
		</comp>
	</station>
	<station code="POLY" name="POLY" netid="HC" source="Seismological Network of Crete (HC)" insttype="" lat="35.5226" lon="24.0602">
		<comp name="--.HNE" depth="0.0">
			<acc value="0.0519816129436069" flag="0"/>
			<vel value="0.0338231135427631" flag="0"/>
			<psa03 value="0.112649472891537" flag="0"/>
			<psa10 value="0.0336560007948691" flag="0"/>
			<psa30 value="0.00508810039500349" flag="0"/>
		</comp>
		<comp name="--.HNN" depth="0.0">
			<acc value="0.0566714547111367" flag="0"/>
			<vel value="0.031974230288329" flag="0"/>
			<psa03 value="0.223786908117722" flag="0"/>
			<psa10 value="0.0574346235117722" flag="0"/>
			<psa30 value="0.00434048753599696" flag="0"/>
		</comp>
		<comp name="--.HNZ" depth="0.0">
			<acc value="0.0488066688264535" flag="0"/>
			<vel value="0.0213356215033281" flag="0"/>
			<psa03 value="0.151838006439588" flag="0"/>
			<psa10 value="0.0224522929792287" flag="0"/>
			<psa30 value="0.0036156957720986" flag="0"/>
		</comp>
	</station>
	<station code="CH01" name="CH01" netid="HI" source="ITSAK Strong Motion Network" insttype="" lat="35.517" lon="24.0208">
		<comp name="--.HNE" depth="0.0">
			<acc value="0.0762281919939809" flag="0"/>
			<vel value="0.0320149624812731" flag="0"/>
			<psa03 value="0.211413796793308" flag="0"/>
			<psa10 value="0.0382307638504692" flag="0"/>
			<psa30 value="0.00678511948088415" flag="0"/>
		</comp>
		<comp name="--.HNN" depth="0.0">
			<acc value="0.0725274931134739" flag="0"/>
			<vel value="0.0408297520395557" flag="0"/>
			<psa03 value="0.202861001045846" flag="0"/>
			<psa10 value="0.0430060301882697" flag="0"/>
			<psa30 value="0.00578502614625077" flag="0"/>
		</comp>
		<comp name="--.HNZ" depth="0.0">
			<acc value="0.0471079864224706" flag="0"/>
			<vel value="0.0271674078897475" flag="0"/>
			<psa03 value="0.121242177532506" flag="0"/>
			<psa10 value="0.048137333862053" flag="0"/>
			<psa30 value="0.00468976025695623" flag="0"/>
		</comp>
	</station>
	<station code="KSS1" name="KSS1" netid="HI" source="ITSAK Strong Motion Network" insttype="" lat="35.4189" lon="26.9207">
		<comp name="--.HNE" depth="0.0">
			<acc value="0.00987462221452486" flag="0"/>
			<vel value="0.00470659265337135" flag="0"/>
			<psa03 value="0.0300308461670204" flag="0"/>
			<psa10 value="0.00641987122245616" flag="0"/>
			<psa30 value="0.000912403671432412" flag="0"/>
		</comp>
		<comp name="--.HNN" depth="0.0">
			<acc value="0.00961374260374093" flag="0"/>
			<vel value="0.00449369718791746" flag="0"/>
			<psa03 value="0.0263795001165773" flag="0"/>
			<psa10 value="0.00541083172228909" flag="0"/>
			<psa30 value="0.00117277706572495" flag="0"/>
		</comp>
		<comp name="--.HNZ" depth="0.0">
			<acc value="0.00489588405067826" flag="0"/>
			<vel value="0.00347779999959505" flag="0"/>
			<psa03 value="0.0111692125617759" flag="0"/>
			<psa10 value="0.00623950677421097" flag="0"/>
			<psa30 value="0.000761113545038007" flag="0"/>
		</comp>
	</station>
	<station code="AGNA" name="AGNA" netid="HL" source="National Observatory of Athens Seismic Network" insttype="" lat="35.1895" lon="25.71853">
		<comp name="00.HNE" depth="0.0">
			<acc value="0.045332047892339" flag="0"/>
			<vel value="0.0193286138266316" flag="0"/>
			<psa03 value="0.105428338276805" flag="0"/>
			<psa10 value="0.0211935127161984" flag="0"/>
			<psa30 value="0.00431785853693552" flag="0"/>
		</comp>
		<comp name="00.HNN" depth="0.0">
			<acc value="0.0469682459881305" flag="0"/>
			<vel value="0.0220265499039891" flag="0"/>
			<psa03 value="0.114205180116084" flag="0"/>
			<psa10 value="0.021785860706354" flag="0"/>
			<psa30 value="0.00519997572286135" flag="0"/>
		</comp>
		<comp name="00.HNZ" depth="0.0">
			<acc value="0.0302209567676185" flag="0"/>
			<vel value="0.0183598490436743" flag="0"/>
			<psa03 value="0.0813232935192533" flag="0"/>
			<psa10 value="0.0142737624416934" flag="0"/>
			<psa30 value="0.00556919059820326" flag="0"/>
		</comp>
	</station>
	<station code="CHNB" name="CHNB" netid="HL" source="National Observatory of Athens Seismic Network" insttype="" lat="35.48765" lon="24.06605">
		<comp name="00.HNE" depth="0.0">
			<acc value="0.175610240322626" flag="0"/>
			<vel value="0.107618345899142" flag="0"/>
			<psa03 value="0.58379213169532" flag="0"/>
			<psa10 value="0.108841255199027" flag="0"/>
			<psa30 value="0.00454165836259585" flag="0"/>
		</comp>
		<comp name="00.HNN" depth="0.0">
			<acc value="0.194899154094155" flag="0"/>
			<vel value="0.12025938008709" flag="0"/>
			<psa03 value="0.467077941623371" flag="0"/>
			<psa10 value="0.0838352961771145" flag="0"/>
			<psa30 value="0.0085844520111589" flag="0"/>
		</comp>
		<comp name="00.HNZ" depth="0.0">
			<acc value="0.129581193222519" flag="0"/>
			<vel value="0.0732856939653243" flag="0"/>
			<psa03 value="0.308541356017463" flag="0"/>
			<psa10 value="0.0370925672005401" flag="0"/>
			<psa30 value="0.00337540527070116" flag="0"/>
		</comp>
	</station>
	<station code="HERG" name="HERG" netid="HL" source="National Observatory of Athens Seismic Network" insttype="" lat="35.32622" lon="25.06586">
		<comp name="00.HNE" depth="0.0">
			<acc value="0.414674526300793" flag="0"/>
			<vel value="0.202136867736775" flag="0"/>
			<psa03 value="0.669753451212455" flag="0"/>
			<psa10 value="0.231425370794989" flag="0"/>
			<psa30 value="0.0298880432695031" flag="0"/>
		</comp>
		<comp name="00.HNN" depth="0.0">
			<acc value="0.553189457903962" flag="0"/>
			<vel value="0.186784080985243" flag="0"/>
			<psa03 value="0.956084335897041" flag="0"/>
			<psa10 value="0.273689440582143" flag="0"/>
			<psa30 value="0.0303751955409449" flag="0"/>
		</comp>
		<comp name="00.HNZ" depth="0.0">
			<acc value="0.630720459503616" flag="0"/>
			<vel value="0.137677597098186" flag="0"/>
			<psa03 value="0.44349229585491" flag="0"/>
			<psa10 value="0.134286285807315" flag="0"/>
			<psa30 value="0.00862073858161368" flag="0"/>
		</comp>
	</station>
	<station code="IACM" name="IACM" netid="HL" source="National Observatory of Athens Seismic Network" insttype="" lat="35.3058" lon="25.0709">
		<comp name="--.HNE" depth="0.0">
			<acc value="1.05581687358155" flag="0"/>
			<vel value="0.53480083789966" flag="0"/>
			<psa03 value="2.74518102143596" flag="0"/>
			<psa10 value="0.400703784659182" flag="0"/>
			<psa30 value="0.0343863145912601" flag="0"/>
		</comp>
		<comp name="--.HNN" depth="0.0">
			<acc value="0.820595545044063" flag="0"/>
			<vel value="0.426816658870936" flag="0"/>
			<psa03 value="2.92688022478176" flag="0"/>
			<psa10 value="0.422003785681214" flag="0"/>
			<psa30 value="0.0451820030858426" flag="0"/>
		</comp>
		<comp name="--.HNZ" depth="0.0">
			<acc value="0.881048375515249" flag="0"/>
			<vel value="0.270642487739918" flag="0"/>
			<psa03 value="1.29001637392187" flag="0"/>
			<psa10 value="0.192416306635975" flag="0"/>
			<psa30 value="0.0162439460817037" flag="0"/>
		</comp>
	</station>
	<station code="IMMV" name="IMMV" netid="HL" source="National Observatory of Athens Seismic Network" insttype="" lat="35.4606" lon="23.9811">
		<comp name="--.HNE" depth="0.0">
			<acc value="0.115189456287379" flag="0"/>
			<vel value="0.0612504928259028" flag="0"/>
			<psa03 value="0.320111705829532" flag="0"/>
			<psa10 value="0.0531249917699106" flag="0"/>
			<psa30 value="0.00376328596589092" flag="0"/>
		</comp>
		<comp name="--.HNN" depth="0.0">
			<acc value="0.0929675615590352" flag="0"/>
			<vel value="0.0507472951324888" flag="0"/>
			<psa03 value="0.250417588936238" flag="0"/>
			<psa10 value="0.0422166366450366" flag="0"/>
			<psa30 value="0.00334976711396561" flag="0"/>
		</comp>
		<comp name="--.HNZ" depth="0.0">
			<acc value="0.0867797680530975" flag="0"/>
			<vel value="0.0393922432713252" flag="0"/>
			<psa03 value="0.248006741729363" flag="0"/>
			<psa10 value="0.0192255454730518" flag="0"/>
			<psa30 value="0.00312182534727399" flag="0"/>
		</comp>
	</station>
	<station code="KARP" name="KARP" netid="HL" source="National Observatory of Athens Seismic Network" insttype="" lat="35.5471" lon="27.16106">
		<comp name="--.HNE" depth="0.0">
			<acc value="0.0114161215358141" flag="0"/>
			<vel value="0.00508403262720157" flag="0"/>
			<psa03 value="0.0248833723596345" flag="0"/>
			<psa10 value="0.0125936773943033" flag="0"/>
			<psa30 value="0.000925439951690079" flag="0"/>
		</comp>
		<comp name="--.HNN" depth="0.0">
			<acc value="0.00928102955879233" flag="0"/>
			<vel value="0.00586975142396137" flag="0"/>
			<psa03 value="0.0140764520270925" flag="0"/>
			<psa10 value="0.0106493564050905" flag="0"/>
			<psa30 value="0.000664369375792725" flag="0"/>
		</comp>
		<comp name="--.HNZ" depth="0.0">
			<acc value="0.00735929861287152" flag="0"/>
			<vel value="0.0033796710457094" flag="0"/>
			<psa03 value="0.013124375935896" flag="0"/>
			<psa10 value="0.00481000957702309" flag="0"/>
			<psa30 value="0.000749548664338334" flag="0"/>
		</comp>
	</station>
	<station code="KSTE" name="KSTE" netid="HL" source="National Observatory of Athens Seismic Network" insttype="" lat="35.1801" lon="25.3372">
		<comp name="--.HNE" depth="0.0">
			<acc value="0.142694293518053" flag="0"/>
			<vel value="0.0610218706421134" flag="0"/>
			<psa03 value="0.285884625953359" flag="0"/>
			<psa10 value="0.0511938688424615" flag="0"/>
			<psa30 value="0.00655974955119923" flag="0"/>
		</comp>
		<comp name="--.HNN" depth="0.0">
			<acc value="0.270118150914651" flag="0"/>
			<vel value="0.0817546041793715" flag="0"/>
			<psa03 value="0.436517667153283" flag="0"/>
			<psa10 value="0.0656272249815989" flag="0"/>
			<psa30 value="0.00549405312071839" flag="0"/>
		</comp>
		<comp name="--.HNZ" depth="0.0">
			<acc value="0.192387511205558" flag="0"/>
			<vel value="0.0437627078229987" flag="0"/>
			<psa03 value="0.268645150589386" flag="0"/>
			<psa10 value="0.0346045923844233" flag="0"/>
			<psa30 value="0.0046533811803338" flag="0"/>
		</comp>
	</station>
	<station code="MILA" name="MILA" netid="HL" source="National Observatory of Athens Seismic Network" insttype="" lat="36.74288" lon="24.4282">
		<comp name="00.HNE" depth="0.0">
			<acc value="0.0287606416838913" flag="0"/>
			<vel value="0.0243243568192" flag="0"/>
			<psa03 value="0.105649592517121" flag="0"/>
			<psa10 value="0.0319643387305497" flag="0"/>
			<psa30 value="0.00189196220821281" flag="0"/>
		</comp>
		<comp name="00.HNN" depth="0.0">
			<acc value="0.0365949022167781" flag="0"/>
			<vel value="0.0274820175492853" flag="0"/>
			<psa03 value="0.0983965599560114" flag="0"/>
			<psa10 value="0.0384813592011879" flag="0"/>
			<psa30 value="0.00269696553572886" flag="0"/>
		</comp>
		<comp name="00.HNZ" depth="0.0">
			<acc value="0.0284796508552659" flag="0"/>
			<vel value="0.0233654394988898" flag="0"/>
			<psa03 value="0.0694248178035105" flag="0"/>
			<psa10 value="0.0353975149116247" flag="0"/>
			<psa30 value="0.0013830570374077" flag="0"/>
		</comp>
	</station>
	<station code="SIVA" name="SIVA" netid="HL" source="National Observatory of Athens Seismic Network" insttype="" lat="35.01777" lon="24.81204">
		<comp name="00.HNE" depth="0.0">
			<acc value="1.30345599905623" flag="0"/>
			<vel value="0.559616939119483" flag="0"/>
			<psa03 value="2.52380485635228" flag="0"/>
			<psa10 value="0.299726425404622" flag="0"/>
			<psa30 value="0.0197312304304963" flag="0"/>
		</comp>
		<comp name="00.HNN" depth="0.0">
			<acc value="1.22754380709409" flag="0"/>
			<vel value="0.398834078096751" flag="0"/>
			<psa03 value="2.13629551909269" flag="0"/>
			<psa10 value="0.205373414980827" flag="0"/>
			<psa30 value="0.0242570952468576" flag="0"/>
		</comp>
		<comp name="00.HNZ" depth="0.0">
			<acc value="0.90750170567924" flag="0"/>
			<vel value="0.324009873194658" flag="0"/>
			<psa03 value="1.61384207578292" flag="0"/>
			<psa10 value="0.183406064751827" flag="0"/>
			<psa30 value="0.0171666972094405" flag="0"/>
		</comp>
	</station>
</stationlist>
