<?xml version="1.0" encoding="UTF-8" standalone="yes"?>
<!DOCTYPE earthquake SYSTEM "stationlist.dtd">
<stationlist created="" xmlns="ch.ethz.sed.shakemap.usgs.xml">
  <station code="APE" name="APE" netid="GE" insttype="STS-2/N" lat="37.0727" lon="25.523">
    <comp name="--.HHE">
      <acc value="0.1230327871" flag="0"/>
      <vel value="0.0301915247" flag="0"/>
      <psa03 value="0.0799925652" flag="0"/>
      <psa10 value="0.0113359214" flag="0"/>
      <psa30 value="0.0026055005" flag="0"/>
    </comp>
    <comp name="--.HHN">
      <acc value="0.1085227142" flag="0"/>
      <vel value="0.0234236318" flag="0"/>
      <psa03 value="0.0686726824" flag="0"/>
      <psa10 value="0.0117093964" flag="0"/>
      <psa30 value="0.0025550919" flag="0"/>
    </comp>
    <comp name="--.HHZ">
      <acc value="0.0548685958" flag="0"/>
      <vel value="0.0159806049" flag="0"/>
      <psa03 value="0.0807725253" flag="0"/>
      <psa10 value="0.0197276033" flag="0"/>
      <psa30 value="0.0016082016" flag="0"/>
    </comp>
  </station>
  <station code="THERA" name="THERA" netid="GE" insttype="STS-2/N" lat="36.367" lon="25.4753">
    <comp name="--.HHN">
      <acc value="0.1547766319" flag="0"/>
      <vel value="0.0293224092" flag="0"/>
      <psa03 value="0.0832718356" flag="0"/>
      <psa10 value="0.0108539283" flag="0"/>
      <psa30 value="0.0011609710" flag="0"/>
    </comp>
    <comp name="--.HHE">
      <acc value="0.1780355835" flag="0"/>
      <vel value="0.0500567915" flag="0"/>
      <psa03 value="0.1985640392" flag="0"/>
      <psa10 value="0.0184327363" flag="0"/>
      <psa30 value="0.0023086475" flag="0"/>
    </comp>
    <comp name="--.HHZ">
      <acc value="0.2156541573" flag="0"/>
      <vel value="0.0389587924" flag="0"/>
      <psa03 value="0.1789503807" flag="0"/>
      <psa10 value="0.0097298484" flag="0"/>
      <psa30 value="0.0021400510" flag="0"/>
    </comp>
  </station>
</stationlist>
