<?xml version="1.0" encoding="UTF-8" standalone="yes"?>
<!DOCTYPE earthquake SYSTEM "stationlist.dtd">
<stationlist created="" xmlns="ch.ethz.sed.shakemap.usgs.xml">
  <station code="THERA" name="THERA" netid="GE" insttype="STS-2/N" lat="36.367" lon="25.4753">
    <comp name="--.HHN">
      <acc value="0.1547766305" flag="0"/>
      <vel value="0.0293224096" flag="0"/>
      <psa03 value="0.0832718356" flag="0"/>
      <psa10 value="0.0108539522" flag="0"/>
      <psa30 value="0.0011609437" flag="0"/>
    </comp>
    <comp name="--.HHZ">
      <acc value="0.2156541573" flag="0"/>
      <vel value="0.0389587921" flag="0"/>
      <psa03 value="0.1789503807" flag="0"/>
      <psa10 value="0.0097299000" flag="0"/>
      <psa30 value="0.0021404921" flag="0"/>
    </comp>
    <comp name="--.HHE">
      <acc value="0.1780355839" flag="0"/>
      <vel value="0.0500567871" flag="0"/>
      <psa03 value="0.1985640392" flag="0"/>
      <psa10 value="0.0184327271" flag="0"/>
      <psa30 value="0.0023087812" flag="0"/>
    </comp>
  </station>
</stationlist>
