<?xml version="1.0" encoding="UTF-8" standalone="yes"?>
<!DOCTYPE earthquake SYSTEM "stationlist.dtd">
<stationlist created="" xmlns="ch.ethz.sed.shakemap.usgs.xml">
  <station code="ARPRA" name="ARPRA" netid="KO" insttype="CMG-5T" lat="39.0929" lon="38.3356">
    <comp name="--.HNE">
      <acc value="0.0837171245" flag="0"/>
      <vel value="0.0652878856" flag="0"/>
      <psa03 value="0.2059564994" flag="0"/>
      <psa10 value="0.1032127139" flag="0"/>
      <psa30 value="0.0085014559" flag="0"/>
    </comp>
    <comp name="--.HNZ">
      <acc value="0.0268857991" flag="0"/>
      <vel value="0.0321705914" flag="0"/>
      <psa03 value="0.0657231174" flag="0"/>
      <psa10 value="0.0504748079" flag="0"/>
      <psa30 value="0.0028841214" flag="0"/>
    </comp>
    <comp name="--.HNN">
      <acc value="0.0689656108" flag="0"/>
      <vel value="0.0665314601" flag="0"/>
      <psa03 value="0.2210846686" flag="0"/>
      <psa10 value="0.1362068787" flag="0"/>
      <psa30 value="0.0068678983" flag="0"/>
    </comp>
  </station>
</stationlist>
