<?xml version="1.0" encoding="UTF-8" standalone="yes"?>
<!DOCTYPE earthquake SYSTEM "stationlist.dtd">
<stationlist created="" xmlns="ch.ethz.sed.shakemap.usgs.xml">
  <station code="ARPRA" name="ARPRA" netid="KO" insttype="CMG-5T" lat="39.0929" lon="38.3356">
    <comp name="--.HNZ">
      <acc value="0.0268614998" flag="0"/>
      <vel value="0.0319729208" flag="0"/>
      <psa03 value="0.0657621916" flag="0"/>
      <psa10 value="0.0505460662" flag="0"/>
      <psa30 value="0.0029040208" flag="0"/>
    </comp>
    <comp name="--.HNE">
      <acc value="0.0833142379" flag="0"/>
      <vel value="0.0645893610" flag="0"/>
      <psa03 value="0.2055519887" flag="0"/>
      <psa10 value="0.1032362446" flag="0"/>
      <psa30 value="0.0093778813" flag="0"/>
    </comp>
    <comp name="--.HNN">
      <acc value="0.0690485084" flag="0"/>
      <vel value="0.0659293915" flag="0"/>
      <psa03 value="0.2211534556" flag="0"/>
      <psa10 value="0.1363142258" flag="0"/>
      <psa30 value="0.0083644302" flag="0"/>
    </comp>
  </station>
</stationlist>
