<?xml version="1.0" encoding="UTF-8" standalone="yes"?>
<!DOCTYPE earthquake SYSTEM "stationlist.dtd">
<stationlist created="" xmlns="ch.ethz.sed.shakemap.usgs.xml">
  <station code="IMMV" name="IMMV" netid="GE" insttype="STS-2/N" commtype="DIG" lat="35.4606" lon="23.9811">
    <comp name="--.HHE">
      <acc value="0.0381467992" flag="0"/>
      <vel value="0.0289844240" flag="0"/>
      <psa03 value="0.1362663202" flag="0"/>
      <psa10 value="0.0553562670" flag="0"/>
      <psa30 value="0.0060773516" flag="0"/>
    </comp>
    <comp name="--.HHN">
      <acc value="0.0427364197" flag="0"/>
      <vel value="0.0307300206" flag="0"/>
      <psa03 value="0.1357796376" flag="0"/>
      <psa10 value="0.0516682143" flag="0"/>
      <psa30 value="0.0045846177" flag="0"/>
    </comp>
    <comp name="--.HHZ">
      <acc value="0.0337338564" flag="0"/>
      <vel value="0.0226613077" flag="0"/>
      <psa03 value="0.1173575382" flag="0"/>
      <psa10 value="0.0328207586" flag="0"/>
      <psa30 value="0.0031775710" flag="0"/>
    </comp>
  </station>
</stationlist>
