<?xml version="1.0" encoding="UTF-8" standalone="yes"?>
<!DOCTYPE earthquake SYSTEM "stationlist.dtd">
<stationlist created="" xmlns="ch.ethz.sed.shakemap.usgs.xml">
  <station code="DARE" name="DARE" netid="KO" insttype="CMG-3ESP" lat="38.5712" lon="37.4832">
    <comp name="--.HHZ">
      <acc value="0.0650740997" flag="0"/>
      <vel value="0.0204798806" flag="0"/>
      <psa03 value="0.0393875621" flag="0"/>
      <psa10 value="0.0078934747" flag="0"/>
      <psa30 value="0.0006990794" flag="0"/>
    </comp>
  </station>
  <station code="KMRS" name="KMRS" netid="KO" insttype="CMG-3T" lat="37.5087" lon="36.9">
    <comp name="--.HHE">
      <acc value="0.0077183575" flag="0"/>
      <vel value="0.0046170476" flag="0"/>
      <psa03 value="0.0153157743" flag="0"/>
      <psa10 value="0.0034767252" flag="0"/>
      <psa30 value="0.0002880738" flag="0"/>
    </comp>
    <comp name="--.HHN">
      <acc value="0.0172695747" flag="0"/>
      <vel value="0.0071239141" flag="0"/>
      <psa03 value="0.0298827474" flag="0"/>
      <psa10 value="0.0063291296" flag="0"/>
      <psa30 value="0.0005658481" flag="0"/>
    </comp>
    <comp name="--.HHZ">
      <acc value="0.0045427718" flag="0"/>
      <vel value="0.0027437288" flag="0"/>
      <psa03 value="0.0124991645" flag="0"/>
      <psa10 value="0.0021069368" flag="0"/>
      <psa30 value="0.0003049853" flag="0"/>
    </comp>
  </station>
  <station code="SARI" name="SARI" netid="KO" insttype="CMG-3T" lat="38.4072" lon="36.4181">
    <comp name="--.HHZ">
      <acc value="0.0509766903" flag="0"/>
      <vel value="0.0142574680" flag="0"/>
      <psa03 value="0.1070878278" flag="0"/>
      <psa10 value="0.0102089196" flag="0"/>
      <psa30 value="0.0009629162" flag="0"/>
    </comp>
  </station>
  <station code="ANDN" name="ANDN" netid="TU" insttype="T" lat="37.58" lon="36.3452">
    <comp name="--.HHE">
      <acc value="0.0150353869" flag="0"/>
      <vel value="0.0111722030" flag="0"/>
      <psa03 value="0.0381174782" flag="0"/>
      <psa10 value="0.0137397047" flag="0"/>
      <psa30 value="0.0010498305" flag="0"/>
    </comp>
    <comp name="--.HHZ">
      <acc value="0.0083852425" flag="0"/>
      <vel value="0.0085063116" flag="0"/>
      <psa03 value="0.0276259076" flag="0"/>
      <psa10 value="0.0134006083" flag="0"/>
      <psa30 value="0.0008430129" flag="0"/>
    </comp>
    <comp name="--.HHN">
      <acc value="0.0202716225" flag="0"/>
      <vel value="0.0120899398" flag="0"/>
      <psa03 value="0.0440019204" flag="0"/>
      <psa10 value="0.0177806456" flag="0"/>
      <psa30 value="0.0012490613" flag="0"/>
    </comp>
  </station>
</stationlist>
