<?xml version="1.0" encoding="UTF-8" standalone="yes"?>
<!DOCTYPE earthquake SYSTEM "stationlist.dtd">
<stationlist created="" xmlns="ch.ethz.sed.shakemap.usgs.xml">
  <station code="KMRS" name="KMRS" netid="KO" insttype="CMG-3T" lat="37.5087" lon="36.9">
    <comp name="--.HHE">
      <acc value="0.0077183576" flag="0"/>
      <vel value="0.0046170479" flag="0"/>
      <psa03 value="0.0153157743" flag="0"/>
      <psa10 value="0.0034767253" flag="0"/>
      <psa30 value="0.0002880647" flag="0"/>
    </comp>
    <comp name="--.HHN">
      <acc value="0.0172695746" flag="0"/>
      <vel value="0.0071239148" flag="0"/>
      <psa03 value="0.0298827474" flag="0"/>
      <psa10 value="0.0063291296" flag="0"/>
      <psa30 value="0.0005658716" flag="0"/>
    </comp>
    <comp name="--.HHZ">
      <acc value="0.0045427719" flag="0"/>
      <vel value="0.0027437293" flag="0"/>
      <psa03 value="0.0124991645" flag="0"/>
      <psa10 value="0.0021069368" flag="0"/>
      <psa30 value="0.0003050481" flag="0"/>
    </comp>
  </station>
  <station code="ANDN" name="ANDN" netid="TU" insttype="T" lat="37.58" lon="36.3452">
    <comp name="--.HHE">
      <acc value="0.0150353868" flag="0"/>
      <vel value="0.0111722028" flag="0"/>
      <psa03 value="0.0381174782" flag="0"/>
      <psa10 value="0.0137397047" flag="0"/>
      <psa30 value="0.0010498207" flag="0"/>
    </comp>
    <comp name="--.HHZ">
      <acc value="0.0083852422" flag="0"/>
      <vel value="0.0085063114" flag="0"/>
      <psa03 value="0.0276259076" flag="0"/>
      <psa10 value="0.0134006083" flag="0"/>
      <psa30 value="0.0008430460" flag="0"/>
    </comp>
    <comp name="--.HHN">
      <acc value="0.0202716224" flag="0"/>
      <vel value="0.0120899390" flag="0"/>
      <psa03 value="0.0440019204" flag="0"/>
      <psa10 value="0.0177806455" flag="0"/>
      <psa30 value="0.0012490257" flag="0"/>
    </comp>
  </station>
</stationlist>
