<?xml version="1.0" encoding="UTF-8" standalone="yes"?>
<!DOCTYPE earthquake SYSTEM "stationlist.dtd">
<stationlist created="" xmlns="ch.ethz.sed.shakemap.usgs.xml">
  <station code="APE" name="APE" netid="GE" insttype="STS-2/N" commtype="DIG" lat="37.0727" lon="25.523">
    <comp name="--.HHE">
      <acc value="0.1350807744" flag="0"/>
      <vel value="0.0169121614" flag="0"/>
      <psa03 value="0.0819031208" flag="0"/>
      <psa10 value="0.0042767108" flag="0"/>
      <psa30 value="0.0003076082" flag="0"/>
    </comp>
    <comp name="--.HHN">
      <acc value="0.1888409873" flag="0"/>
      <vel value="0.0235820147" flag="0"/>
      <psa03 value="0.0746687811" flag="0"/>
      <psa10 value="0.0052642726" flag="0"/>
      <psa30 value="0.0005133189" flag="0"/>
    </comp>
    <comp name="--.HHZ">
      <acc value="0.0736798987" flag="0"/>
      <vel value="0.0094286388" flag="0"/>
      <psa03 value="0.0437363493" flag="0"/>
      <psa10 value="0.0040685140" flag="0"/>
      <psa30 value="0.0003140021" flag="0"/>
    </comp>
  </station>
  <station code="THERA" name="THERA" netid="GE" insttype="STS-2/N" commtype="DIG" lat="36.367" lon="25.4753">
    <comp name="--.HHN">
      <acc value="0.1100311167" flag="0"/>
      <vel value="0.0198440126" flag="0"/>
      <psa03 value="0.0738778786" flag="0"/>
      <psa10 value="0.0041646533" flag="0"/>
      <psa30 value="0.0003108444" flag="0"/>
    </comp>
    <comp name="--.HHE">
      <acc value="0.1094351591" flag="0"/>
      <vel value="0.0327915117" flag="0"/>
      <psa03 value="0.1035351552" flag="0"/>
      <psa10 value="0.0099098345" flag="0"/>
      <psa30 value="0.0007966735" flag="0"/>
    </comp>
    <comp name="--.HHZ">
      <acc value="0.1229680741" flag="0"/>
      <vel value="0.0286058326" flag="0"/>
      <psa03 value="0.1293405923" flag="0"/>
      <psa10 value="0.0065886249" flag="0"/>
      <psa30 value="0.0005011603" flag="0"/>
    </comp>
  </station>
  <station code="IOSI" name="IOSI" netid="HA" insttype="60s," commtype="DIG" lat="36.7225" lon="25.2887">
    <comp name="--.HHN">
      <acc value="0.1562129447" flag="0"/>
      <vel value="0.0178181270" flag="0"/>
      <psa03 value="0.0885307523" flag="0"/>
      <psa10 value="0.0055059801" flag="0"/>
      <psa30 value="0.0005688158" flag="0"/>
    </comp>
    <comp name="--.HHZ">
      <acc value="0.1533407971" flag="0"/>
      <vel value="0.0159456616" flag="0"/>
      <psa03 value="0.0419580113" flag="0"/>
      <psa10 value="0.0041279968" flag="0"/>
      <psa30 value="0.0003560028" flag="0"/>
    </comp>
    <comp name="--.HHE">
      <acc value="0.1409471807" flag="0"/>
      <vel value="0.0179330952" flag="0"/>
      <psa03 value="0.0705718983" flag="0"/>
      <psa10 value="0.0048608901" flag="0"/>
      <psa30 value="0.0002919259" flag="0"/>
    </comp>
  </station>
  <station code="SNT1" name="SNT1" netid="HA" insttype="30" commtype="DIG" lat="36.4159" lon="25.4282">
    <comp name="--.HHE">
      <acc value="0.0391243790" flag="0"/>
      <vel value="0.0092637967" flag="0"/>
      <psa03 value="0.0432180591" flag="0"/>
      <psa10 value="0.0082933570" flag="0"/>
      <psa30 value="0.0005600199" flag="0"/>
    </comp>
    <comp name="--.HHZ">
      <acc value="0.0350651464" flag="0"/>
      <vel value="0.0113490808" flag="0"/>
      <psa03 value="0.0680214628" flag="0"/>
      <psa10 value="0.0039152659" flag="0"/>
      <psa30 value="0.0002448242" flag="0"/>
    </comp>
    <comp name="--.HHN">
      <acc value="0.0480565704" flag="0"/>
      <vel value="0.0116002181" flag="0"/>
      <psa03 value="0.0518628910" flag="0"/>
      <psa10 value="0.0043025604" flag="0"/>
      <psa30 value="0.0003125112" flag="0"/>
    </comp>
  </station>
  <station code="SNT5" name="SNT5" netid="HA" insttype="1s-100Hz," commtype="DIG" lat="36.4037" lon="25.3953">
    <comp name="--.HHN">
      <acc value="0.1146618954" flag="0"/>
      <vel value="0.0218536082" flag="0"/>
      <psa03 value="0.0995802109" flag="0"/>
      <psa10 value="0.0041156675" flag="0"/>
      <psa30 value="0.0003973870" flag="0"/>
    </comp>
    <comp name="--.HHE">
      <acc value="0.1852057627" flag="0"/>
      <vel value="0.0449372841" flag="0"/>
      <psa03 value="0.1660525485" flag="0"/>
      <psa10 value="0.0107999283" flag="0"/>
      <psa30 value="0.0008558127" flag="0"/>
    </comp>
    <comp name="--.HHZ">
      <acc value="0.0753259225" flag="0"/>
      <vel value="0.0103962076" flag="0"/>
      <psa03 value="0.0384873616" flag="0"/>
      <psa10 value="0.0023999488" flag="0"/>
      <psa30 value="0.0002482023" flag="0"/>
    </comp>
  </station>
  <station code="NAX1" name="NAX1" netid="HI" insttype="CMG-5TD,ACCELEROMETER,GURALP" commtype="DIG" lat="37.1014" lon="25.3741">
    <comp name="--.HNE">
      <acc value="0.1379194372" flag="0"/>
      <vel value="0.0196957844" flag="0"/>
      <psa03 value="0.0737735318" flag="0"/>
      <psa10 value="0.0033515502" flag="0"/>
      <psa30 value="0.0002975573" flag="0"/>
    </comp>
    <comp name="--.HNZ">
      <acc value="0.0614737381" flag="0"/>
      <vel value="0.0140223889" flag="0"/>
      <psa03 value="0.0880263151" flag="0"/>
      <psa10 value="0.0039421817" flag="0"/>
      <psa30 value="0.0003924134" flag="0"/>
    </comp>
    <comp name="--.HNN">
      <acc value="0.1150771071" flag="0"/>
      <vel value="0.0154675478" flag="0"/>
      <psa03 value="0.0884491313" flag="0"/>
      <psa10 value="0.0042926503" flag="0"/>
      <psa30 value="0.0004525080" flag="0"/>
    </comp>
  </station>
  <station code="AMGA" name="AMGA" netid="HL" insttype="LE3D20_SMART24" commtype="DIG" lat="36.8316" lon="25.8938">
    <comp name="--.HHZ">
      <acc value="1.0238149108" flag="0"/>
      <vel value="0.2311795314" flag="0"/>
      <psa03 value="0.7886672533" flag="0"/>
      <psa10 value="0.0628770416" flag="0"/>
      <psa30 value="0.0049603275" flag="0"/>
    </comp>
    <comp name="--.HHE">
      <acc value="1.6594511091" flag="0"/>
      <vel value="0.3715499853" flag="0"/>
      <psa03 value="1.1123893823" flag="0"/>
      <psa10 value="0.0865530375" flag="0"/>
      <psa30 value="0.0068963998" flag="0"/>
    </comp>
    <comp name="--.HHN">
      <acc value="1.5983433513" flag="0"/>
      <vel value="0.3608880210" flag="0"/>
      <psa03 value="1.1475259643" flag="0"/>
      <psa10 value="0.1075728670" flag="0"/>
      <psa30 value="0.0064245109" flag="0"/>
    </comp>
  </station>
  <station code="ANAF" name="ANAF" netid="HL" insttype="LE3D20_SMART24" commtype="DIG" lat="36.3567" lon="25.7726">
    <comp name="--.HHE">
      <acc value="1.4659135940" flag="0"/>
      <vel value="0.2802776836" flag="0"/>
      <psa03 value="0.6638764250" flag="0"/>
      <psa10 value="0.0364672628" flag="0"/>
      <psa30 value="0.0034757339" flag="0"/>
    </comp>
    <comp name="--.HHZ">
      <acc value="1.0808692019" flag="0"/>
      <vel value="0.2041324747" flag="0"/>
      <psa03 value="1.0313830083" flag="0"/>
      <psa10 value="0.0387980619" flag="0"/>
      <psa30 value="0.0035480934" flag="0"/>
    </comp>
    <comp name="--.HHN">
      <acc value="1.8760152489" flag="0"/>
      <vel value="0.3430218921" flag="0"/>
      <psa03 value="1.4435451393" flag="0"/>
      <psa10 value="0.0532236129" flag="0"/>
      <psa30 value="0.0058683800" flag="0"/>
    </comp>
  </station>
  <station code="APE" name="APE" netid="HL" insttype="120" commtype="DIG" lat="37.0727" lon="25.523">
    <comp name="--.HHE">
      <acc value="0.1280381507" flag="0"/>
      <vel value="0.0160376014" flag="0"/>
      <psa03 value="0.0793371737" flag="0"/>
      <psa10 value="0.0041938713" flag="0"/>
      <psa30 value="0.0003009927" flag="0"/>
    </comp>
    <comp name="--.HHN">
      <acc value="0.1600648939" flag="0"/>
      <vel value="0.0219227013" flag="0"/>
      <psa03 value="0.0719169004" flag="0"/>
      <psa10 value="0.0051569860" flag="0"/>
      <psa30 value="0.0005105020" flag="0"/>
    </comp>
    <comp name="--.HHZ">
      <acc value="0.0635694966" flag="0"/>
      <vel value="0.0085902701" flag="0"/>
      <psa03 value="0.0424503003" flag="0"/>
      <psa10 value="0.0040099269" flag="0"/>
      <psa30 value="0.0003073617" flag="0"/>
    </comp>
  </station>
  <station code="ASTA" name="ASTA" netid="HL" insttype="LE3D20_SMART24" commtype="DIG" lat="36.5475" lon="26.3471">
    <comp name="--.HHN">
      <acc value="0.0485258155" flag="0"/>
      <vel value="0.0125896167" flag="0"/>
      <psa03 value="0.0629519024" flag="0"/>
      <psa10 value="0.0076132321" flag="0"/>
      <psa30 value="0.0005345585" flag="0"/>
    </comp>
    <comp name="--.HHE">
      <acc value="0.0485240415" flag="0"/>
      <vel value="0.0105149246" flag="0"/>
      <psa03 value="0.0618797396" flag="0"/>
      <psa10 value="0.0031318875" flag="0"/>
      <psa30 value="0.0002787580" flag="0"/>
    </comp>
    <comp name="--.HHZ">
      <acc value="0.0407814728" flag="0"/>
      <vel value="0.0089279098" flag="0"/>
      <psa03 value="0.0526143529" flag="0"/>
      <psa10 value="0.0019271127" flag="0"/>
      <psa30 value="0.0002425106" flag="0"/>
    </comp>
  </station>
  <station code="MHLO" name="MHLO" netid="HL" insttype="20" commtype="DIG" lat="36.6898" lon="24.4017">
    <comp name="--.HHZ">
      <acc value="0.0180631016" flag="0"/>
      <vel value="0.0082819370" flag="0"/>
      <psa03 value="0.0572900823" flag="0"/>
      <psa10 value="0.0057704762" flag="0"/>
      <psa30 value="0.0003348871" flag="0"/>
    </comp>
    <comp name="--.HHN">
      <acc value="0.0424625990" flag="0"/>
      <vel value="0.0134171451" flag="0"/>
      <psa03 value="0.0875949338" flag="0"/>
      <psa10 value="0.0141042336" flag="0"/>
      <psa30 value="0.0005614098" flag="0"/>
    </comp>
    <comp name="--.HHE">
      <acc value="0.0286512391" flag="0"/>
      <vel value="0.0105586783" flag="0"/>
      <psa03 value="0.0571765891" flag="0"/>
      <psa10 value="0.0155348836" flag="0"/>
      <psa30 value="0.0006265622" flag="0"/>
    </comp>
  </station>
  <station code="MILA" name="MILA" netid="HL" insttype="CMG-5" commtype="DIG" lat="36.7429" lon="24.4282">
    <comp name="00.HNE">
      <acc value="0.0454440111" flag="0"/>
      <vel value="0.0131341245" flag="0"/>
      <psa03 value="0.0730997266" flag="0"/>
      <psa10 value="0.0070455853" flag="0"/>
      <psa30 value="0.0006840247" flag="0"/>
    </comp>
    <comp name="00.HNZ">
      <acc value="0.0292755803" flag="0"/>
      <vel value="0.0083480756" flag="0"/>
      <psa03 value="0.0453730161" flag="0"/>
      <psa10 value="0.0065954433" flag="0"/>
      <psa30 value="0.0003244853" flag="0"/>
    </comp>
    <comp name="00.HNN">
      <acc value="0.0524030983" flag="0"/>
      <vel value="0.0157796867" flag="0"/>
      <psa03 value="0.1173589319" flag="0"/>
      <psa10 value="0.0075756920" flag="0"/>
      <psa30 value="0.0005341816" flag="0"/>
    </comp>
  </station>
  <station code="SAP3" name="SAP3" netid="HL" insttype="65535" commtype="DIG" lat="36.4356" lon="25.3454">
    <comp name="--.HHE">
      <acc value="0.1262942961" flag="0"/>
      <vel value="0.0303352337" flag="0"/>
      <psa03 value="0.1580904585" flag="0"/>
      <psa10 value="0.0115587583" flag="0"/>
      <psa30 value="0.0009486811" flag="0"/>
    </comp>
    <comp name="--.HHZ">
      <acc value="0.1325571234" flag="0"/>
      <vel value="0.0290604351" flag="0"/>
      <psa03 value="0.0751469632" flag="0"/>
      <psa10 value="0.0045598191" flag="0"/>
      <psa30 value="0.0006631316" flag="0"/>
    </comp>
    <comp name="--.HHN">
      <acc value="0.1332699597" flag="0"/>
      <vel value="0.0364484451" flag="0"/>
      <psa03 value="0.1859767035" flag="0"/>
      <psa10 value="0.0096080720" flag="0"/>
      <psa30 value="0.0011089472" flag="0"/>
    </comp>
  </station>
  <station code="THERA" name="THERA" netid="HL" insttype="120" commtype="DIG" lat="36.367" lon="25.4753">
    <comp name="--.HHN">
      <acc value="0.2177392989" flag="0"/>
      <vel value="0.0385412328" flag="0"/>
      <psa03 value="0.1433132634" flag="0"/>
      <psa10 value="0.0082010741" flag="0"/>
      <psa30 value="0.0006103961" flag="0"/>
    </comp>
    <comp name="--.HHZ">
      <acc value="0.1240588580" flag="0"/>
      <vel value="0.0278068049" flag="0"/>
      <psa03 value="0.1258852101" flag="0"/>
      <psa10 value="0.0065038954" flag="0"/>
      <psa30 value="0.0004918028" flag="0"/>
    </comp>
    <comp name="--.HHE">
      <acc value="0.1064308758" flag="0"/>
      <vel value="0.0320779260" flag="0"/>
      <psa03 value="0.1006204608" flag="0"/>
      <psa10 value="0.0097049343" flag="0"/>
      <psa30 value="0.0007861133" flag="0"/>
    </comp>
  </station>
  <station code="THRA" name="THRA" netid="HL" insttype="CMG-5" commtype="DIG" lat="36.415" lon="25.4324">
    <comp name="00.HNE">
      <acc value="0.4044027326" flag="0"/>
      <vel value="0.0982247898" flag="0"/>
      <psa03 value="0.4539649439" flag="0"/>
      <psa10 value="0.0374118743" flag="0"/>
      <psa30 value="0.0025217071" flag="0"/>
    </comp>
    <comp name="00.HNN">
      <acc value="0.2335568438" flag="0"/>
      <vel value="0.0611992139" flag="0"/>
      <psa03 value="0.3827013311" flag="0"/>
      <psa10 value="0.0441941812" flag="0"/>
      <psa30 value="0.0016581479" flag="0"/>
    </comp>
    <comp name="00.HNZ">
      <acc value="0.3065314563" flag="0"/>
      <vel value="0.0739535054" flag="0"/>
      <psa03 value="0.3542026650" flag="0"/>
      <psa10 value="0.0162710068" flag="0"/>
      <psa30 value="0.0012956121" flag="0"/>
    </comp>
  </station>
  <station code="TNSA" name="TNSA" netid="HL" insttype="CMG-5" commtype="DIG" lat="37.5394" lon="25.1631">
    <comp name="00.HNZ">
      <acc value="0.0621699142" flag="0"/>
      <vel value="0.0146708819" flag="0"/>
      <psa03 value="0.0408178499" flag="0"/>
      <psa10 value="0.0044146469" flag="0"/>
      <psa30 value="0.0005598634" flag="0"/>
    </comp>
    <comp name="00.HNE">
      <acc value="0.0522815121" flag="0"/>
      <vel value="0.0134378729" flag="0"/>
      <psa03 value="0.0538847239" flag="0"/>
      <psa10 value="0.0030163072" flag="0"/>
      <psa30 value="0.0003300094" flag="0"/>
    </comp>
    <comp name="00.HNN">
      <acc value="0.0817956666" flag="0"/>
      <vel value="0.0190798320" flag="0"/>
      <psa03 value="0.0500283119" flag="0"/>
      <psa10 value="0.0048793018" flag="0"/>
      <psa30 value="0.0003908492" flag="0"/>
    </comp>
  </station>
  <station code="AKRO" name="AKRO" netid="HT" insttype="Compact," commtype="DIG" lat="36.3584" lon="25.3967">
    <comp name="--.HHE">
      <acc value="0.5376299866" flag="0"/>
      <vel value="0.1131148848" flag="0"/>
      <psa03 value="0.4680984640" flag="0"/>
      <psa10 value="0.0196340266" flag="0"/>
      <psa30 value="0.0017662861" flag="0"/>
    </comp>
    <comp name="--.HHN">
      <acc value="0.5256675857" flag="0"/>
      <vel value="0.0920184296" flag="0"/>
      <psa03 value="0.3099359215" flag="0"/>
      <psa10 value="0.0138472604" flag="0"/>
      <psa30 value="0.0016811419" flag="0"/>
    </comp>
    <comp name="--.HHZ">
      <acc value="0.3493955028" flag="0"/>
      <vel value="0.0507998300" flag="0"/>
      <psa03 value="0.1401941454" flag="0"/>
      <psa10 value="0.0094732696" flag="0"/>
      <psa30 value="0.0007532741" flag="0"/>
    </comp>
  </station>
  <station code="ANYD" name="ANYD" netid="HT" insttype="120" commtype="DIG" lat="36.63" lon="25.6779">
    <comp name="--.HHN">
      <acc value="0.6042409724" flag="0"/>
      <vel value="0.1657248181" flag="0"/>
      <psa03 value="0.4094477624" flag="0"/>
      <psa10 value="0.0410960478" flag="0"/>
      <psa30 value="0.0058995487" flag="0"/>
    </comp>
    <comp name="--.HHE">
      <acc value="0.4955565435" flag="0"/>
      <vel value="0.1323003806" flag="0"/>
      <psa03 value="0.7123351032" flag="0"/>
      <psa10 value="0.0482257545" flag="0"/>
      <psa30 value="0.0038202161" flag="0"/>
    </comp>
    <comp name="--.HHZ">
      <acc value="1.1360385082" flag="0"/>
      <vel value="0.1913071479" flag="0"/>
      <psa03 value="0.3865843202" flag="0"/>
      <psa10 value="0.0323460581" flag="0"/>
      <psa30 value="0.0036153884" flag="0"/>
    </comp>
  </station>
  <station code="CHRI" name="CHRI" netid="HT" insttype="120s," commtype="DIG" lat="36.2491" lon="25.2076">
    <comp name="--.HHZ">
      <acc value="0.0625789307" flag="0"/>
      <vel value="0.0138603474" flag="0"/>
      <psa03 value="0.0798145416" flag="0"/>
      <psa10 value="0.0044965840" flag="0"/>
      <psa30 value="0.0013688644" flag="0"/>
    </comp>
    <comp name="--.HHN">
      <acc value="0.0658264413" flag="0"/>
      <vel value="0.0182602590" flag="0"/>
      <psa03 value="0.0832618115" flag="0"/>
      <psa10 value="0.0080703249" flag="0"/>
      <psa30 value="0.0005101670" flag="0"/>
    </comp>
    <comp name="--.HHE">
      <acc value="0.0891938280" flag="0"/>
      <vel value="0.0316787950" flag="0"/>
      <psa03 value="0.2557891670" flag="0"/>
      <psa10 value="0.0102535104" flag="0"/>
      <psa30 value="0.0007476104" flag="0"/>
    </comp>
  </station>
</stationlist>
