<?xml version="1.0" encoding="UTF-8" standalone="yes"?>
<!DOCTYPE earthquake SYSTEM "stationlist.dtd">
<stationlist created="" xmlns="ch.ethz.sed.shakemap.usgs.xml">
  <station code="APE" name="APE" netid="GE" insttype="STS-2/N" commtype="DIG" lat="37.0727" lon="25.523">
    <comp name="--.HHE">
      <acc value="0.1350807744" flag="0"/>
      <vel value="0.0169121614" flag="0"/>
      <psa03 value="0.0819031208" flag="0"/>
      <psa10 value="0.0042767108" flag="0"/>
      <psa30 value="0.0003076082" flag="0"/>
    </comp>
    <comp name="--.HHN">
      <acc value="0.1888409873" flag="0"/>
      <vel value="0.0235820147" flag="0"/>
      <psa03 value="0.0746687811" flag="0"/>
      <psa10 value="0.0052642726" flag="0"/>
      <psa30 value="0.0005133189" flag="0"/>
    </comp>
    <comp name="--.HHZ">
      <acc value="0.0736798987" flag="0"/>
      <vel value="0.0094286388" flag="0"/>
      <psa03 value="0.0437363493" flag="0"/>
      <psa10 value="0.0040685140" flag="0"/>
      <psa30 value="0.0003140021" flag="0"/>
    </comp>
  </station>
  <station code="THERA" name="THERA" netid="GE" insttype="STS-2/N" commtype="DIG" lat="36.367" lon="25.4753">
    <comp name="--.HHN">
      <acc value="0.1100311167" flag="0"/>
      <vel value="0.0198440126" flag="0"/>
      <psa03 value="0.0738778786" flag="0"/>
      <psa10 value="0.0041646533" flag="0"/>
      <psa30 value="0.0003108444" flag="0"/>
    </comp>
    <comp name="--.HHE">
      <acc value="0.1094351591" flag="0"/>
      <vel value="0.0327915117" flag="0"/>
      <psa03 value="0.1035351552" flag="0"/>
      <psa10 value="0.0099098345" flag="0"/>
      <psa30 value="0.0007966735" flag="0"/>
    </comp>
    <comp name="--.HHZ">
      <acc value="0.1229680741" flag="0"/>
      <vel value="0.0286058326" flag="0"/>
      <psa03 value="0.1293405923" flag="0"/>
      <psa10 value="0.0065886249" flag="0"/>
      <psa30 value="0.0005011603" flag="0"/>
    </comp>
  </station>
</stationlist>
