<?xml version="1.0" encoding="UTF-8" standalone="yes"?>
<!DOCTYPE earthquake SYSTEM "stationlist.dtd">
<stationlist created="" xmlns="ch.ethz.sed.shakemap.usgs.xml">
  <station code="APE" name="APE" netid="GE" insttype="STS-2/N" lat="37.0727" lon="25.523">
    <comp name="--.HHE">
      <acc value="0.2892658618" flag="0"/>
      <vel value="0.0532969729" flag="0"/>
      <psa03 value="0.2554965810" flag="0"/>
      <psa10 value="0.0335923721" flag="0"/>
      <psa30 value="0.0075298105" flag="0"/>
    </comp>
    <comp name="--.HHN">
      <acc value="0.3013095905" flag="0"/>
      <vel value="0.0713098919" flag="0"/>
      <psa03 value="0.1740527040" flag="0"/>
      <psa10 value="0.0308527622" flag="0"/>
      <psa30 value="0.0088894510" flag="0"/>
    </comp>
    <comp name="--.HHZ">
      <acc value="0.1244505131" flag="0"/>
      <vel value="0.0278094499" flag="0"/>
      <psa03 value="0.1080036377" flag="0"/>
      <psa10 value="0.0263867685" flag="0"/>
      <psa30 value="0.0091664476" flag="0"/>
    </comp>
  </station>
  <station code="THERA" name="THERA" netid="GE" insttype="STS-2/N" lat="36.367" lon="25.4753">
    <comp name="--.HHZ">
      <acc value="0.4522827801" flag="0"/>
      <vel value="0.1798429037" flag="0"/>
      <psa03 value="1.1949310123" flag="0"/>
      <psa10 value="0.1500542765" flag="0"/>
      <psa30 value="0.0095251018" flag="0"/>
    </comp>
    <comp name="--.HHE">
      <acc value="0.7701506807" flag="0"/>
      <vel value="0.3033240017" flag="0"/>
      <psa03 value="2.5417642068" flag="0"/>
      <psa10 value="0.1638121788" flag="0"/>
      <psa30 value="0.0126477261" flag="0"/>
    </comp>
    <comp name="--.HHN">
      <acc value="0.9112707503" flag="0"/>
      <vel value="0.3098403765" flag="0"/>
      <psa03 value="2.4623045636" flag="0"/>
      <psa10 value="0.0568296623" flag="0"/>
      <psa30 value="0.0089741348" flag="0"/>
    </comp>
  </station>
</stationlist>
