<?xml version="1.0" encoding="UTF-8" standalone="yes"?>
<!DOCTYPE earthquake SYSTEM "stationlist.dtd">
<stationlist created="" xmlns="ch.ethz.sed.shakemap.usgs.xml">
  <station code="THERA" name="THERA" netid="GE" insttype="STS-2/N" lat="36.367" lon="25.4753">
    <comp name="--.HHE">
      <acc value="0.7701506810" flag="0"/>
      <vel value="0.3033240000" flag="0"/>
      <psa03 value="2.5417642068" flag="0"/>
      <psa10 value="0.1638125694" flag="0"/>
      <psa30 value="0.0126518557" flag="0"/>
    </comp>
    <comp name="--.HHZ">
      <acc value="0.4522827807" flag="0"/>
      <vel value="0.1798429038" flag="0"/>
      <psa03 value="1.1949310123" flag="0"/>
      <psa10 value="0.1500544212" flag="0"/>
      <psa30 value="0.0095263054" flag="0"/>
    </comp>
    <comp name="--.HHN">
      <acc value="0.9112707496" flag="0"/>
      <vel value="0.3098403825" flag="0"/>
      <psa03 value="2.4623045635" flag="0"/>
      <psa10 value="0.0568299327" flag="0"/>
      <psa30 value="0.0089789879" flag="0"/>
    </comp>
  </station>
  <station code="SNT1" name="SNT1" netid="HA" insttype="30" lat="36.4159" lon="25.4282">
    <comp name="--.HHE">
      <acc value="0.7113230097" flag="0"/>
      <vel value="0.3537572654" flag="0"/>
      <psa03 value="1.0675977647" flag="0"/>
      <psa10 value="0.3244211394" flag="0"/>
      <psa30 value="0.0218412037" flag="0"/>
    </comp>
    <comp name="--.HHN">
      <acc value="0.6937955905" flag="0"/>
      <vel value="0.4349880605" flag="0"/>
      <psa03 value="1.4816566627" flag="0"/>
      <psa10 value="0.2641047573" flag="0"/>
      <psa30 value="0.0155470987" flag="0"/>
    </comp>
    <comp name="--.HHZ">
      <acc value="0.4536675677" flag="0"/>
      <vel value="0.1899201976" flag="0"/>
      <psa03 value="0.9407537450" flag="0"/>
      <psa10 value="0.1526890439" flag="0"/>
      <psa30 value="0.0107401676" flag="0"/>
    </comp>
  </station>
  <station code="AMGA" name="AMGA" netid="HL" insttype="SMART24" lat="36.8316" lon="25.8938">
    <comp name="--.HHN">
      <acc value="0.8456679095" flag="0"/>
      <vel value="0.1889742084" flag="0"/>
      <psa03 value="0.4984883894" flag="0"/>
      <psa10 value="0.1761694720" flag="0"/>
      <psa30 value="0.0215838330" flag="0"/>
    </comp>
    <comp name="--.HHE">
      <acc value="0.7781797143" flag="0"/>
      <vel value="0.1857320876" flag="0"/>
      <psa03 value="0.5112621829" flag="0"/>
      <psa10 value="0.1449864822" flag="0"/>
      <psa30 value="0.0102481285" flag="0"/>
    </comp>
    <comp name="--.HHZ">
      <acc value="0.7051038458" flag="0"/>
      <vel value="0.1520384516" flag="0"/>
      <psa03 value="0.5023452957" flag="0"/>
      <psa10 value="0.0852043361" flag="0"/>
      <psa30 value="0.0158758598" flag="0"/>
    </comp>
  </station>
  <station code="APE" name="APE" netid="HL" insttype="120" lat="37.0727" lon="25.523">
    <comp name="--.HHE">
      <acc value="0.2666040439" flag="0"/>
      <vel value="0.0498793749" flag="0"/>
      <psa03 value="0.2461088359" flag="0"/>
      <psa10 value="0.0332817399" flag="0"/>
      <psa30 value="0.0075166718" flag="0"/>
    </comp>
    <comp name="--.HHZ">
      <acc value="0.1151939256" flag="0"/>
      <vel value="0.0275193294" flag="0"/>
      <psa03 value="0.1055364650" flag="0"/>
      <psa10 value="0.0262702077" flag="0"/>
      <psa30 value="0.0091546352" flag="0"/>
    </comp>
    <comp name="--.HHN">
      <acc value="0.2875279498" flag="0"/>
      <vel value="0.0687008691" flag="0"/>
      <psa03 value="0.1681283198" flag="0"/>
      <psa10 value="0.0306748359" flag="0"/>
      <psa30 value="0.0088648339" flag="0"/>
    </comp>
  </station>
  <station code="MHLO" name="MHLO" netid="HL" insttype="20" lat="36.6898" lon="24.4017">
    <comp name="--.HHE">
      <acc value="0.3841681576" flag="0"/>
      <vel value="0.2175238700" flag="0"/>
      <psa03 value="1.5239872509" flag="0"/>
      <psa10 value="0.3794873959" flag="0"/>
      <psa30 value="0.0194165863" flag="0"/>
    </comp>
    <comp name="--.HHZ">
      <acc value="0.1513908515" flag="0"/>
      <vel value="0.1514112575" flag="0"/>
      <psa03 value="0.5009808187" flag="0"/>
      <psa10 value="0.2007948342" flag="0"/>
      <psa30 value="0.0115403874" flag="0"/>
    </comp>
    <comp name="--.HHN">
      <acc value="0.3823632265" flag="0"/>
      <vel value="0.2615827926" flag="0"/>
      <psa03 value="1.5915394207" flag="0"/>
      <psa10 value="0.3723689831" flag="0"/>
      <psa30 value="0.0170656316" flag="0"/>
    </comp>
  </station>
  <station code="NISR" name="NISR" netid="HL" insttype="65535" lat="36.6106" lon="27.131">
    <comp name="--.HHN">
      <acc value="0.0266864674" flag="0"/>
      <vel value="0.0261562860" flag="0"/>
      <psa03 value="0.0638845017" flag="0"/>
      <psa10 value="0.0327447955" flag="0"/>
      <psa30 value="0.0072361726" flag="0"/>
    </comp>
    <comp name="--.HHZ">
      <acc value="0.0234067948" flag="0"/>
      <vel value="0.0125575302" flag="0"/>
      <psa03 value="0.0430279356" flag="0"/>
      <psa10 value="0.0159686329" flag="0"/>
      <psa30 value="0.0016741865" flag="0"/>
    </comp>
    <comp name="--.HHE">
      <acc value="0.0000000000" flag="0"/>
      <vel value="-100.0000000000" flag="0"/>
      <psa03 value="0.0000000000" flag="0"/>
      <psa10 value="0.0000000000" flag="0"/>
      <psa30 value="0.0000000000" flag="0"/>
    </comp>
  </station>
  <station code="SAP3" name="SAP3" netid="HL" insttype="LE3D20_SMART24" lat="36.4356" lon="25.3454">
    <comp name="--.HHE">
      <acc value="3.1011784222" flag="0"/>
      <vel value="0.8704621091" flag="0"/>
      <psa03 value="4.4029733426" flag="0"/>
      <psa10 value="0.6339544181" flag="0"/>
      <psa30 value="0.0753926183" flag="0"/>
    </comp>
    <comp name="--.HHZ">
      <acc value="2.7645843228" flag="0"/>
      <vel value="0.6388364154" flag="0"/>
      <psa03 value="3.4593729113" flag="0"/>
      <psa10 value="0.2926675655" flag="0"/>
      <psa30 value="0.0296067693" flag="0"/>
    </comp>
    <comp name="--.HHN">
      <acc value="3.1942476650" flag="0"/>
      <vel value="1.1045878365" flag="0"/>
      <psa03 value="4.8346252141" flag="0"/>
      <psa10 value="0.7011588685" flag="0"/>
      <psa30 value="0.0659782495" flag="0"/>
    </comp>
  </station>
  <station code="THERA" name="THERA" netid="HL" insttype="120" lat="36.367" lon="25.4753">
    <comp name="--.HHE">
      <acc value="0.7633890421" flag="0"/>
      <vel value="0.2936192906" flag="0"/>
      <psa03 value="2.4704289224" flag="0"/>
      <psa10 value="0.1610371187" flag="0"/>
      <psa30 value="0.0126548844" flag="0"/>
    </comp>
    <comp name="--.HHN">
      <acc value="0.9022056719" flag="0"/>
      <vel value="0.3030038571" flag="0"/>
      <psa03 value="2.3931839996" flag="0"/>
      <psa10 value="0.0559182311" flag="0"/>
      <psa30 value="0.0087985276" flag="0"/>
    </comp>
    <comp name="--.HHZ">
      <acc value="0.4527522030" flag="0"/>
      <vel value="0.1756123516" flag="0"/>
      <psa03 value="1.1595888122" flag="0"/>
      <psa10 value="0.1485227355" flag="0"/>
      <psa30 value="0.0094196984" flag="0"/>
    </comp>
  </station>
  <station code="THRA" name="THRA" netid="HL" insttype="CMG-5" lat="36.415" lon="25.4324">
    <comp name="00.HNN">
      <acc value="2.0307773396" flag="0"/>
      <vel value="0.8448250878" flag="0"/>
      <psa03 value="4.0704827738" flag="0"/>
      <psa10 value="1.0781891549" flag="0"/>
      <psa30 value="0.0443216592" flag="0"/>
    </comp>
    <comp name="00.HNE">
      <acc value="2.1435289363" flag="0"/>
      <vel value="0.8510947523" flag="0"/>
      <psa03 value="5.0819038833" flag="0"/>
      <psa10 value="0.4815606389" flag="0"/>
      <psa30 value="0.0459843819" flag="0"/>
    </comp>
    <comp name="00.HNZ">
      <acc value="1.5243509122" flag="0"/>
      <vel value="0.6328989796" flag="0"/>
      <psa03 value="3.5467799415" flag="0"/>
      <psa10 value="0.2659327710" flag="0"/>
      <psa30 value="0.0265344507" flag="0"/>
    </comp>
  </station>
  <station code="TNSA" name="TNSA" netid="HL" insttype="CMG-5" lat="37.5394" lon="25.1631">
    <comp name="00.HNE">
      <acc value="0.0929675138" flag="0"/>
      <vel value="0.0262374891" flag="0"/>
      <psa03 value="0.1644366134" flag="0"/>
      <psa10 value="0.0136896303" flag="0"/>
      <psa30 value="0.0026187831" flag="0"/>
    </comp>
    <comp name="00.HNN">
      <acc value="0.1203988272" flag="0"/>
      <vel value="0.0397280403" flag="0"/>
      <psa03 value="0.1512716906" flag="0"/>
      <psa10 value="0.0424131216" flag="0"/>
      <psa30 value="0.0039493392" flag="0"/>
    </comp>
    <comp name="00.HNZ">
      <acc value="0.0817691359" flag="0"/>
      <vel value="0.0343103757" flag="0"/>
      <psa03 value="0.1098779213" flag="0"/>
      <psa10 value="0.0191774390" flag="0"/>
      <psa30 value="0.0034371730" flag="0"/>
    </comp>
  </station>
  <station code="CMBO" name="CMBO" netid="HT" insttype="120P," lat="36.4709" lon="25.4056">
    <comp name="--.HHE">
      <acc value="3.1649936418" flag="0"/>
      <vel value="0.9699447092" flag="0"/>
      <psa03 value="5.5272928971" flag="0"/>
      <psa10 value="1.0106594206" flag="0"/>
      <psa30 value="0.0738878755" flag="0"/>
    </comp>
    <comp name="--.HHN">
      <acc value="4.1834854213" flag="0"/>
      <vel value="1.5778566874" flag="0"/>
      <psa03 value="3.1980784387" flag="0"/>
      <psa10 value="0.8056333275" flag="0"/>
      <psa30 value="0.0638233062" flag="0"/>
    </comp>
    <comp name="--.HHZ">
      <acc value="2.3997148976" flag="0"/>
      <vel value="0.7217170735" flag="0"/>
      <psa03 value="4.6785481965" flag="0"/>
      <psa10 value="0.3223138540" flag="0"/>
      <psa30 value="0.0315091931" flag="0"/>
    </comp>
  </station>
</stationlist>
