<?xml version="1.0" encoding="UTF-8" standalone="yes"?>
<!DOCTYPE earthquake SYSTEM "stationlist.dtd">
<stationlist created="" xmlns="ch.ethz.sed.shakemap.usgs.xml">
  <station code="KAPA" name="KAPA" netid="Z3" source="GFZ" insttype="CMG-3ESP/60" lat="35.6402" lon="27.1376">
    <comp name="--.HHE">
      <acc value="0.0551501977" flag="0"/>
      <vel value="0.0233874826" flag="0"/>
      <psa03 value="0.1029144087" flag="0"/>
      <psa10 value="0.0178147890" flag="0"/>
      <psa30 value="0.0015806107" flag="0"/>
    </comp>
    <comp name="--.HHN">
      <acc value="0.0533409743" flag="0"/>
      <vel value="0.0220638749" flag="0"/>
      <psa03 value="0.1139295417" flag="0"/>
      <psa10 value="0.0302499296" flag="0"/>
      <psa30 value="0.0013248502" flag="0"/>
    </comp>
    <comp name="--.HHZ">
      <acc value="0.0332062680" flag="0"/>
      <vel value="0.0133114328" flag="0"/>
      <psa03 value="0.0500013689" flag="0"/>
      <psa10 value="0.0241307694" flag="0"/>
      <psa30 value="0.0009777504" flag="0"/>
    </comp>
  </station>
  <station code="KASO" name="KASO" netid="Z3" source="GFZ" insttype="CMG-3ESP/60" lat="35.4115" lon="26.9152">
    <comp name="--.HHE">
      <acc value="0.2816688438" flag="0"/>
      <vel value="0.0797989780" flag="0"/>
      <psa03 value="0.2917285750" flag="0"/>
      <psa10 value="0.0276500271" flag="0"/>
      <psa30 value="0.0023949821" flag="0"/>
    </comp>
    <comp name="--.HHN">
      <acc value="0.3394893827" flag="0"/>
      <vel value="0.0950031445" flag="0"/>
      <psa03 value="0.6014203870" flag="0"/>
      <psa10 value="0.0295161805" flag="0"/>
      <psa30 value="0.0022389479" flag="0"/>
    </comp>
    <comp name="--.HHZ">
      <acc value="0.2236363196" flag="0"/>
      <vel value="0.0391749876" flag="0"/>
      <psa03 value="0.1371873405" flag="0"/>
      <psa10 value="0.0247142336" flag="0"/>
      <psa30 value="0.0021145504" flag="0"/>
    </comp>
  </station>
</stationlist>
