<?xml version="1.0" encoding="UTF-8" standalone="yes"?>
<!DOCTYPE earthquake SYSTEM "stationlist.dtd">
<stationlist created="" xmlns="ch.ethz.sed.shakemap.usgs.xml">
  <station code="BIR" name="BIR" netid="RO" insttype="MBB2/Quanterra" commtype="DIG" lat="46.2334" lon="27.6436">
    <comp name="--.HHN">
      <acc value="0.1152405921" flag="0"/>
      <vel value="0.0186746279" flag="0"/>
      <psa03 value="0.0406428747" flag="0"/>
      <psa10 value="0.0035757392" flag="0"/>
      <psa30 value="0.0002782383" flag="0"/>
    </comp>
    <comp name="--.HHE">
      <acc value="0.1233425738" flag="0"/>
      <vel value="0.0237202024" flag="0"/>
      <psa03 value="0.0684503805" flag="0"/>
      <psa10 value="0.0042306856" flag="0"/>
      <psa30 value="0.0004999484" flag="0"/>
    </comp>
    <comp name="--.HHZ">
      <acc value="0.0587986102" flag="0"/>
      <vel value="0.0120307486" flag="0"/>
      <psa03 value="0.0351794166" flag="0"/>
      <psa10 value="0.0014836002" flag="0"/>
      <psa30 value="0.0001508132" flag="0"/>
    </comp>
  </station>
  <station code="BISRR" name="BISRR" netid="RO" insttype="CMG40T.1to100/Basalt" commtype="DIG" lat="45.5481" lon="26.7099">
    <comp name="--.HHZ">
      <acc value="0.0513183125" flag="0"/>
      <vel value="0.0123545088" flag="0"/>
      <psa03 value="0.0757036189" flag="0"/>
      <psa10 value="0.0115240644" flag="0"/>
      <psa30 value="0.0003436435" flag="0"/>
    </comp>
    <comp name="--.HHN">
      <acc value="0.0523328444" flag="0"/>
      <vel value="0.0173310763" flag="0"/>
      <psa03 value="0.0625780073" flag="0"/>
      <psa10 value="0.0169992598" flag="0"/>
      <psa30 value="0.0009826571" flag="0"/>
    </comp>
    <comp name="--.HHE">
      <acc value="0.0526567058" flag="0"/>
      <vel value="0.0264125845" flag="0"/>
      <psa03 value="0.0937371449" flag="0"/>
      <psa10 value="0.0238448154" flag="0"/>
      <psa30 value="0.0010408911" flag="0"/>
    </comp>
  </station>
  <station code="CFR" name="CFR" netid="RO" insttype="CMG3T_100sec/Quanterra" commtype="DIG" lat="45.178" lon="28.1362">
    <comp name="--.HHE">
      <acc value="0.0654659665" flag="0"/>
      <vel value="0.0059984753" flag="0"/>
      <psa03 value="0.0146528974" flag="0"/>
      <psa10 value="0.0006424450" flag="0"/>
      <psa30 value="0.0000579145" flag="0"/>
    </comp>
    <comp name="--.HHN">
      <acc value="0.0802741019" flag="0"/>
      <vel value="0.0089531454" flag="0"/>
      <psa03 value="0.0147522509" flag="0"/>
      <psa10 value="0.0007679114" flag="0"/>
      <psa30 value="0.0000714342" flag="0"/>
    </comp>
    <comp name="--.HHZ">
      <acc value="0.0478623652" flag="0"/>
      <vel value="0.0044051249" flag="0"/>
      <psa03 value="0.0058538920" flag="0"/>
      <psa10 value="0.0004476750" flag="0"/>
      <psa30 value="0.0000273954" flag="0"/>
    </comp>
  </station>
  <station code="GISR" name="GISR" netid="RO" insttype="2.5V" commtype="DIG" lat="45.4411" lon="28.0541">
    <comp name="--.HNZ">
      <acc value="0.0947763347" flag="0"/>
      <vel value="0.0131214609" flag="0"/>
      <psa03 value="0.0329504727" flag="0"/>
      <psa10 value="0.0025083274" flag="0"/>
      <psa30 value="0.0005503954" flag="0"/>
    </comp>
    <comp name="--.HNE">
      <acc value="0.0627348216" flag="0"/>
      <vel value="0.0157794393" flag="0"/>
      <psa03 value="0.0365735145" flag="0"/>
      <psa10 value="0.0084926806" flag="0"/>
      <psa30 value="0.0007004315" flag="0"/>
    </comp>
    <comp name="--.HNN">
      <acc value="0.0581983012" flag="0"/>
      <vel value="0.0117818716" flag="0"/>
      <psa03 value="0.0531948736" flag="0"/>
      <psa10 value="0.0036152048" flag="0"/>
      <psa30 value="0.0005286250" flag="0"/>
    </comp>
  </station>
  <station code="IZVR" name="IZVR" netid="RO" insttype="CMG40T.1to100/Quanterra" commtype="DIG" lat="45.5442" lon="27.7655">
    <comp name="--.HHE">
      <acc value="0.1553189251" flag="0"/>
      <vel value="0.0216093376" flag="0"/>
      <psa03 value="0.0356323898" flag="0"/>
      <psa10 value="0.0024975224" flag="0"/>
      <psa30 value="0.0001665841" flag="0"/>
    </comp>
    <comp name="--.HHZ">
      <acc value="0.0623121653" flag="0"/>
      <vel value="0.0065959177" flag="0"/>
      <psa03 value="0.0087849948" flag="0"/>
      <psa10 value="0.0008246254" flag="0"/>
      <psa30 value="0.0000761263" flag="0"/>
    </comp>
    <comp name="--.HHN">
      <acc value="0.0950618995" flag="0"/>
      <vel value="0.0181201339" flag="0"/>
      <psa03 value="0.0350273504" flag="0"/>
      <psa10 value="0.0018250461" flag="0"/>
      <psa30 value="0.0002038543" flag="0"/>
    </comp>
  </station>
  <station code="NARR" name="NARR" netid="RO" insttype="OBS-SIO/Centaur" commtype="DIG" lat="45.8165" lon="26.7368">
    <comp name="--.HHN">
      <acc value="0.0438220980" flag="0"/>
      <vel value="0.0155603116" flag="0"/>
      <psa03 value="0.0944678352" flag="0"/>
      <psa10 value="0.0033047930" flag="0"/>
      <psa30 value="0.0003956958" flag="0"/>
    </comp>
    <comp name="--.HHE">
      <acc value="0.0403669905" flag="0"/>
      <vel value="0.0160070193" flag="0"/>
      <psa03 value="0.0722885205" flag="0"/>
      <psa10 value="0.0047969593" flag="0"/>
      <psa30 value="0.0003307750" flag="0"/>
    </comp>
    <comp name="--.HHZ">
      <acc value="0.0367656193" flag="0"/>
      <vel value="0.0080432059" flag="0"/>
      <psa03 value="0.0597443840" flag="0"/>
      <psa10 value="0.0013700119" flag="0"/>
      <psa30 value="0.0001790400" flag="0"/>
    </comp>
  </station>
  <station code="NEGRR" name="NEGRR" netid="RO" insttype="CMG40T.1to100/Quanterra" commtype="DIG" lat="45.5373" lon="27.8771">
    <comp name="--.HHN">
      <acc value="0.0666741586" flag="0"/>
      <vel value="0.0127689203" flag="0"/>
      <psa03 value="0.0354871104" flag="0"/>
      <psa10 value="0.0037185538" flag="0"/>
      <psa30 value="0.0003037206" flag="0"/>
    </comp>
    <comp name="--.HHE">
      <acc value="0.0975092998" flag="0"/>
      <vel value="0.0152531566" flag="0"/>
      <psa03 value="0.0358005359" flag="0"/>
      <psa10 value="0.0019699319" flag="0"/>
      <psa30 value="0.0001671581" flag="0"/>
    </comp>
    <comp name="--.HHZ">
      <acc value="0.0740267731" flag="0"/>
      <vel value="0.0104876280" flag="0"/>
      <psa03 value="0.0191288256" flag="0"/>
      <psa10 value="0.0017051069" flag="0"/>
      <psa30 value="0.0001177305" flag="0"/>
    </comp>
  </station>
  <station code="ODBI" name="ODBI" netid="RO" insttype="200" commtype="DIG" lat="45.7633" lon="27.0558">
    <comp name="--.HNN">
      <acc value="0.1415743725" flag="0"/>
      <vel value="0.0318799570" flag="0"/>
      <psa03 value="0.1653852325" flag="0"/>
      <psa10 value="0.0122513261" flag="0"/>
      <psa30 value="0.0010546718" flag="0"/>
    </comp>
    <comp name="--.HNE">
      <acc value="0.2456176278" flag="0"/>
      <vel value="0.0265681010" flag="0"/>
      <psa03 value="0.1037846424" flag="0"/>
      <psa10 value="0.0061152572" flag="0"/>
      <psa30 value="0.0007695954" flag="0"/>
    </comp>
    <comp name="--.HNZ">
      <acc value="0.3308174861" flag="0"/>
      <vel value="0.0286434538" flag="0"/>
      <psa03 value="0.0928304298" flag="0"/>
      <psa10 value="0.0038553246" flag="0"/>
      <psa30 value="0.0004285780" flag="0"/>
    </comp>
  </station>
  <station code="ONER" name="ONER" netid="RO" insttype="CMG40T.1to100/obsidian" commtype="DIG" lat="46.3349" lon="26.394">
    <comp name="--.HHE">
      <acc value="0.0051467413" flag="0"/>
      <vel value="0.0008600549" flag="0"/>
      <psa03 value="0.0039339024" flag="0"/>
      <psa10 value="0.0011051523" flag="0"/>
      <psa30 value="0.0000434774" flag="0"/>
    </comp>
    <comp name="--.HHN">
      <acc value="0.0031374180" flag="0"/>
      <vel value="0.0009463826" flag="0"/>
      <psa03 value="0.0030556556" flag="0"/>
      <psa10 value="0.0019613665" flag="0"/>
      <psa30 value="0.0000509623" flag="0"/>
    </comp>
    <comp name="--.HHZ">
      <acc value="0.0039378070" flag="0"/>
      <vel value="0.0010152047" flag="0"/>
      <psa03 value="0.0052553599" flag="0"/>
      <psa10 value="0.0010910573" flag="0"/>
      <psa30 value="0.0000442167" flag="0"/>
    </comp>
  </station>
  <station code="PANC" name="PANC" netid="RO" insttype="Seismometer/Basalt" commtype="DIG" lat="45.8723" lon="27.1477">
    <comp name="--.HHE">
      <acc value="0.6850503846" flag="0"/>
      <vel value="0.1273598423" flag="0"/>
      <psa03 value="0.2693533651" flag="0"/>
      <psa10 value="0.0240010116" flag="0"/>
      <psa30 value="0.0023174253" flag="0"/>
    </comp>
    <comp name="--.HHZ">
      <acc value="0.6799685972" flag="0"/>
      <vel value="0.0871668654" flag="0"/>
      <psa03 value="0.0795503042" flag="0"/>
      <psa10 value="0.0102045748" flag="0"/>
      <psa30 value="0.0021936752" flag="0"/>
    </comp>
    <comp name="--.HHN">
      <acc value="0.5688945857" flag="0"/>
      <vel value="0.0995494065" flag="0"/>
      <psa03 value="0.1669124116" flag="0"/>
      <psa10 value="0.0162253988" flag="0"/>
      <psa30 value="0.0013522642" flag="0"/>
    </comp>
  </station>
  <station code="PLOR" name="PLOR" netid="RO" insttype="MBB2/Quanterra" commtype="DIG" lat="45.8512" lon="26.6498">
    <comp name="--.HHE">
      <acc value="0.0230855597" flag="0"/>
      <vel value="0.0082243740" flag="0"/>
      <psa03 value="0.0514008819" flag="0"/>
      <psa10 value="0.0039775261" flag="0"/>
      <psa30 value="0.0003259574" flag="0"/>
    </comp>
    <comp name="--.HHZ">
      <acc value="0.0146029180" flag="0"/>
      <vel value="0.0039304726" flag="0"/>
      <psa03 value="0.0208458101" flag="0"/>
      <psa10 value="0.0018583520" flag="0"/>
      <psa30 value="0.0001135142" flag="0"/>
    </comp>
    <comp name="--.HHN">
      <acc value="0.0231899462" flag="0"/>
      <vel value="0.0082573615" flag="0"/>
      <psa03 value="0.0420250612" flag="0"/>
      <psa10 value="0.0047668851" flag="0"/>
      <psa30 value="0.0003704725" flag="0"/>
    </comp>
  </station>
  <station code="PLOR4" name="PLOR4" netid="RO" insttype="MBB2/Quanterra" commtype="DIG" lat="45.8512" lon="26.6498">
    <comp name="--.HHN">
      <acc value="0.0231899462" flag="0"/>
      <vel value="0.0082573615" flag="0"/>
      <psa03 value="0.0420250612" flag="0"/>
      <psa10 value="0.0047668851" flag="0"/>
      <psa30 value="0.0003704725" flag="0"/>
    </comp>
    <comp name="--.HHE">
      <acc value="0.0230855597" flag="0"/>
      <vel value="0.0082243740" flag="0"/>
      <psa03 value="0.0514008819" flag="0"/>
      <psa10 value="0.0039775261" flag="0"/>
      <psa30 value="0.0003259574" flag="0"/>
    </comp>
    <comp name="--.HHZ">
      <acc value="0.0146029180" flag="0"/>
      <vel value="0.0039304726" flag="0"/>
      <psa03 value="0.0208458101" flag="0"/>
      <psa10 value="0.0018583520" flag="0"/>
      <psa30 value="0.0001135142" flag="0"/>
    </comp>
  </station>
  <station code="SCHL" name="SCHL" netid="RO" insttype="CMG40T.1to100/Quanterra" commtype="DIG" lat="45.5007" lon="27.8302">
    <comp name="--.HHE">
      <acc value="0.1114219243" flag="0"/>
      <vel value="0.0306175008" flag="0"/>
      <psa03 value="0.0803297286" flag="0"/>
      <psa10 value="0.0050545340" flag="0"/>
      <psa30 value="0.0006209492" flag="0"/>
    </comp>
    <comp name="--.HHZ">
      <acc value="0.1172185212" flag="0"/>
      <vel value="0.0161489188" flag="0"/>
      <psa03 value="0.0217223398" flag="0"/>
      <psa10 value="0.0027986195" flag="0"/>
      <psa30 value="0.0001891599" flag="0"/>
    </comp>
    <comp name="--.HHN">
      <acc value="0.0673879136" flag="0"/>
      <vel value="0.0162597343" flag="0"/>
      <psa03 value="0.0465934426" flag="0"/>
      <psa10 value="0.0062415652" flag="0"/>
      <psa30 value="0.0004998448" flag="0"/>
    </comp>
  </station>
  <station code="SCHLR" name="SCHLR" netid="RO" insttype="CMG40T.1to100/Quanterra" commtype="DIG" lat="45.4702" lon="27.8314">
    <comp name="--.HHZ">
      <acc value="0.0840938523" flag="0"/>
      <vel value="0.0096144510" flag="0"/>
      <psa03 value="0.0137543021" flag="0"/>
      <psa10 value="0.0009552300" flag="0"/>
      <psa30 value="0.0001028447" flag="0"/>
    </comp>
    <comp name="--.HHE">
      <acc value="0.0895694155" flag="0"/>
      <vel value="0.0144254739" flag="0"/>
      <psa03 value="0.0180554301" flag="0"/>
      <psa10 value="0.0018029086" flag="0"/>
      <psa30 value="0.0001342465" flag="0"/>
    </comp>
    <comp name="--.HHN">
      <acc value="0.0724207203" flag="0"/>
      <vel value="0.0112723070" flag="0"/>
      <psa03 value="0.0383612392" flag="0"/>
      <psa10 value="0.0030470230" flag="0"/>
      <psa30 value="0.0001900406" flag="0"/>
    </comp>
  </station>
  <station code="SCTR" name="SCTR" netid="RO" insttype="MBB2/Basalt" commtype="DIG" lat="45.6741" lon="27.9949">
    <comp name="--.HHZ">
      <acc value="0.0534887486" flag="0"/>
      <vel value="0.0094248282" flag="0"/>
      <psa03 value="0.0234128660" flag="0"/>
      <psa10 value="0.0029646899" flag="0"/>
      <psa30 value="0.0001421484" flag="0"/>
    </comp>
    <comp name="--.HHN">
      <acc value="0.0749713845" flag="0"/>
      <vel value="0.0139258080" flag="0"/>
      <psa03 value="0.0967867883" flag="0"/>
      <psa10 value="0.0067256213" flag="0"/>
      <psa30 value="0.0004796684" flag="0"/>
    </comp>
    <comp name="--.HHE">
      <acc value="0.0656326485" flag="0"/>
      <vel value="0.0137694348" flag="0"/>
      <psa03 value="0.0723756578" flag="0"/>
      <psa10 value="0.0031473749" flag="0"/>
      <psa30 value="0.0002392556" flag="0"/>
    </comp>
  </station>
  <station code="TATR" name="TATR" netid="RO" insttype="MBB2/Basalt" commtype="DIG" lat="45.5977" lon="28.0498">
    <comp name="--.HHE">
      <acc value="0.1649095666" flag="0"/>
      <vel value="0.0268732433" flag="0"/>
      <psa03 value="0.1040942495" flag="0"/>
      <psa10 value="0.0044928340" flag="0"/>
      <psa30 value="0.0005916951" flag="0"/>
    </comp>
    <comp name="--.HHN">
      <acc value="0.1285463704" flag="0"/>
      <vel value="0.0192905388" flag="0"/>
      <psa03 value="0.0631532554" flag="0"/>
      <psa10 value="0.0056119717" flag="0"/>
      <psa30 value="0.0003034072" flag="0"/>
    </comp>
    <comp name="--.HHZ">
      <acc value="0.1137560481" flag="0"/>
      <vel value="0.0143738988" flag="0"/>
      <psa03 value="0.0342857588" flag="0"/>
      <psa10 value="0.0018061043" flag="0"/>
      <psa30 value="0.0001529625" flag="0"/>
    </comp>
  </station>
  <station code="TESR" name="TESR" netid="RO" insttype="330" commtype="DIG" lat="46.5118" lon="26.6489">
    <comp name="--.HHN">
      <acc value="0.0079009807" flag="0"/>
      <vel value="0.0016842521" flag="0"/>
      <psa03 value="0.0116025949" flag="0"/>
      <psa10 value="0.0009010909" flag="0"/>
      <psa30 value="0.0000789786" flag="0"/>
    </comp>
    <comp name="--.HHE">
      <acc value="0.0085141639" flag="0"/>
      <vel value="0.0021314591" flag="0"/>
      <psa03 value="0.0130891399" flag="0"/>
      <psa10 value="0.0008716543" flag="0"/>
      <psa30 value="0.0000614461" flag="0"/>
    </comp>
    <comp name="--.HHZ">
      <acc value="0.0081281587" flag="0"/>
      <vel value="0.0012181798" flag="0"/>
      <psa03 value="0.0067983593" flag="0"/>
      <psa10 value="0.0006022598" flag="0"/>
      <psa30 value="0.0000393036" flag="0"/>
    </comp>
  </station>
  <station code="TUDR" name="TUDR" netid="RO" insttype="CMG40T.1to100/Quanterra" commtype="DIG" lat="45.5939" lon="27.6687">
    <comp name="--.HHE">
      <acc value="0.1554401216" flag="0"/>
      <vel value="0.0361645867" flag="0"/>
      <psa03 value="0.0908421433" flag="0"/>
      <psa10 value="0.0043810594" flag="0"/>
      <psa30 value="0.0004355081" flag="0"/>
    </comp>
    <comp name="--.HHN">
      <acc value="0.1757543283" flag="0"/>
      <vel value="0.0369302067" flag="0"/>
      <psa03 value="0.0845373664" flag="0"/>
      <psa10 value="0.0059656826" flag="0"/>
      <psa30 value="0.0007054559" flag="0"/>
    </comp>
    <comp name="--.HHZ">
      <acc value="0.3074116476" flag="0"/>
      <vel value="0.0343983948" flag="0"/>
      <psa03 value="0.0356279757" flag="0"/>
      <psa10 value="0.0026894857" flag="0"/>
      <psa30 value="0.0002383592" flag="0"/>
    </comp>
  </station>
  <station code="VARL" name="VARL" netid="RO" insttype="MBB2/Quanterra" commtype="DIG" lat="45.8996" lon="27.8487">
    <comp name="--.HHE">
      <acc value="0.1928369408" flag="0"/>
      <vel value="0.0319078764" flag="0"/>
      <psa03 value="0.0889820803" flag="0"/>
      <psa10 value="0.0061104089" flag="0"/>
      <psa30 value="0.0005418367" flag="0"/>
    </comp>
    <comp name="--.HHZ">
      <acc value="0.1810301740" flag="0"/>
      <vel value="0.0284611802" flag="0"/>
      <psa03 value="0.0314191931" flag="0"/>
      <psa10 value="0.0032181749" flag="0"/>
      <psa30 value="0.0002786666" flag="0"/>
    </comp>
    <comp name="--.HHN">
      <acc value="0.1635646920" flag="0"/>
      <vel value="0.0288592990" flag="0"/>
      <psa03 value="0.0845857807" flag="0"/>
      <psa10 value="0.0049914572" flag="0"/>
      <psa30 value="0.0004848610" flag="0"/>
    </comp>
  </station>
  <station code="VASR" name="VASR" netid="RO" insttype="CMG40T.1to100/Basalt" commtype="DIG" lat="46.6415" lon="27.7911">
    <comp name="--.HHE">
      <acc value="0.1008746849" flag="0"/>
      <vel value="0.0174225478" flag="0"/>
      <psa03 value="0.0319017342" flag="0"/>
      <psa10 value="0.0049298801" flag="0"/>
      <psa30 value="0.0003501730" flag="0"/>
    </comp>
    <comp name="--.HHN">
      <acc value="0.1016489381" flag="0"/>
      <vel value="0.0165092556" flag="0"/>
      <psa03 value="0.0421882739" flag="0"/>
      <psa10 value="0.0024679435" flag="0"/>
      <psa30 value="0.0002059737" flag="0"/>
    </comp>
    <comp name="--.HHZ">
      <acc value="0.0962030241" flag="0"/>
      <vel value="0.0117973087" flag="0"/>
      <psa03 value="0.0163542800" flag="0"/>
      <psa10 value="0.0009342868" flag="0"/>
      <psa30 value="0.0000962064" flag="0"/>
    </comp>
  </station>
  <station code="VLDR" name="VLDR" netid="RO" insttype="MBB2/Basalt" commtype="DIG" lat="45.8443" lon="28.0808">
    <comp name="--.HHN">
      <acc value="0.3094917424" flag="0"/>
      <vel value="0.0674796469" flag="0"/>
      <psa03 value="0.2206832655" flag="0"/>
      <psa10 value="0.0117078089" flag="0"/>
      <psa30 value="0.0010570138" flag="0"/>
    </comp>
    <comp name="--.HHE">
      <acc value="0.2370653328" flag="0"/>
      <vel value="0.0462055576" flag="0"/>
      <psa03 value="0.1092239187" flag="0"/>
      <psa10 value="0.0080346268" flag="0"/>
      <psa30 value="0.0006088576" flag="0"/>
    </comp>
    <comp name="--.HHZ">
      <acc value="0.2426594930" flag="0"/>
      <vel value="0.0320158778" flag="0"/>
      <psa03 value="0.0776654117" flag="0"/>
      <psa10 value="0.0044752342" flag="0"/>
      <psa30 value="0.0004787172" flag="0"/>
    </comp>
  </station>
  <station code="VRI" name="VRI" netid="RO" insttype="Linear" commtype="DIG" lat="45.8657" lon="26.7277">
    <comp name="--.HHE">
      <acc value="0.0179906991" flag="0"/>
      <vel value="0.0037570154" flag="0"/>
      <psa03 value="0.0205820996" flag="0"/>
      <psa10 value="0.0008930602" flag="0"/>
      <psa30 value="0.0001047726" flag="0"/>
    </comp>
    <comp name="--.HHN">
      <acc value="0.0223947470" flag="0"/>
      <vel value="0.0048381371" flag="0"/>
      <psa03 value="0.0323983195" flag="0"/>
      <psa10 value="0.0019138224" flag="0"/>
      <psa30 value="0.0001597705" flag="0"/>
    </comp>
    <comp name="--.HHZ">
      <acc value="0.0252582300" flag="0"/>
      <vel value="0.0052934946" flag="0"/>
      <psa03 value="0.0288803767" flag="0"/>
      <psa10 value="0.0012516822" flag="0"/>
