<stationlist created="1778136797">
	<station code="ABEA" name="ABEA" netid="HC" source="Seismological Network of Crete (HC)" insttype="" lat="35.5163" lon="24.0113">
		<comp name="--.HNE" depth="0.0">
			<acc value="0.0184408405350248" flag="0"/>
			<vel value="0.01103259639868" flag="0"/>
			<psa03 value="0.0558293911316058" flag="0"/>
			<psa10 value="0.0195140089573196" flag="0"/>
			<psa30 value="0.00186388743172762" flag="0"/>
		</comp>
		<comp name="--.HNN" depth="0.0">
			<acc value="0.0164435941738605" flag="0"/>
			<vel value="0.00936657320927078" flag="0"/>
			<psa03 value="0.0386150528494121" flag="0"/>
			<psa10 value="0.0158100610889484" flag="0"/>
			<psa30 value="0.00188930765735808" flag="0"/>
		</comp>
		<comp name="--.HNZ" depth="0.0">
			<acc value="0.00967734079085151" flag="0"/>
			<vel value="0.00521398250368297" flag="0"/>
			<psa03 value="0.0177254333375547" flag="0"/>
			<psa10 value="0.00903959789148617" flag="0"/>
			<psa30 value="0.000926831606376537" flag="0"/>
		</comp>
	</station>
	<station code="ATEI" name="ATEI" netid="HC" source="Seismological Network of Crete (HC)" insttype="" lat="35.5193" lon="24.0432">
		<comp name="--.HNE" depth="0.0">
			<acc value="0.00789892707758712" flag="0"/>
			<vel value="0.00610199181446426" flag="0"/>
			<psa03 value="0.0289142253213378" flag="0"/>
			<psa10 value="0.0105773375717054" flag="0"/>
			<psa30 value="0.000999289323014833" flag="0"/>
		</comp>
		<comp name="--.HNN" depth="0.0">
			<acc value="0.00924159503261014" flag="0"/>
			<vel value="0.00760767552103142" flag="0"/>
			<psa03 value="0.0274415027607243" flag="0"/>
			<psa10 value="0.00883605597035427" flag="0"/>
			<psa30 value="0.00182963078739325" flag="0"/>
		</comp>
		<comp name="--.HNZ" depth="0.0">
			<acc value="0.0109809657233636" flag="0"/>
			<vel value="0.00729611754413398" flag="0"/>
			<psa03 value="0.0269464100674134" flag="0"/>
			<psa10 value="0.00785754677390138" flag="0"/>
			<psa30 value="0.000704022627628614" flag="0"/>
		</comp>
	</station>
	<station code="DEYA" name="DEYA" netid="HC" source="Seismological Network of Crete (HC)" insttype="" lat="35.4825" lon="24.014">
		<comp name="--.HNE" depth="0.0">
			<acc value="0.0245870626294232" flag="0"/>
			<vel value="0.0143351523073308" flag="0"/>
			<psa03 value="0.08601458866933" flag="0"/>
			<psa10 value="0.0270389386970062" flag="0"/>
			<psa30 value="0.00200089025749472" flag="0"/>
		</comp>
		<comp name="--.HNN" depth="0.0">
			<acc value="0.0247279932719609" flag="0"/>
			<vel value="0.0170382418738078" flag="0"/>
			<psa03 value="0.0925825602236279" flag="0"/>
			<psa10 value="0.023614596226103" flag="0"/>
			<psa30 value="0.00172762778019584" flag="0"/>
		</comp>
		<comp name="--.HNZ" depth="0.0">
			<acc value="0.0156100756523294" flag="0"/>
			<vel value="0.00901170716762307" flag="0"/>
			<psa03 value="0.040435373957581" flag="0"/>
			<psa10 value="0.0151333465724213" flag="0"/>
			<psa30 value="0.00155148663254154" flag="0"/>
		</comp>
	</station>
	<station code="G0LD" name="G0LD" netid="HC" source="Seismological Network of Crete (HC)" insttype="" lat="35.4955" lon="24.0306">
		<comp name="--.HNE" depth="0.0">
			<acc value="0.0297225676997979" flag="0"/>
			<vel value="0.0240951613943022" flag="0"/>
			<psa03 value="0.110261127175263" flag="0"/>
			<psa10 value="0.0487658154961009" flag="0"/>
			<psa30 value="0.00263374947297542" flag="0"/>
		</comp>
		<comp name="--.HNN" depth="0.0">
			<acc value="0.0338967528957208" flag="0"/>
			<vel value="0.0305442732540489" flag="0"/>
			<psa03 value="0.111486750033556" flag="0"/>
			<psa10 value="0.0415509075435714" flag="0"/>
			<psa30 value="0.0037088702777882" flag="0"/>
		</comp>
		<comp name="--.HNZ" depth="0.0">
			<acc value="0.0188746299014775" flag="0"/>
			<vel value="0.0154079168689083" flag="0"/>
			<psa03 value="0.0437152240440283" flag="0"/>
			<psa10 value="0.0247736386319571" flag="0"/>
			<psa30 value="0.001917007617345" flag="0"/>
		</comp>
	</station>
	<station code="LENT" name="LENT" netid="HC" source="Seismological Network of Crete (HC)" insttype="" lat="35.5074" lon="24.0402">
		<comp name="--.HNE" depth="0.0">
			<acc value="0.0130471644150027" flag="0"/>
			<vel value="0.0128073669967978" flag="0"/>
			<psa03 value="0.0290599771641811" flag="0"/>
			<psa10 value="0.0138164862119222" flag="0"/>
			<psa30 value="0.00132697269709384" flag="0"/>
		</comp>
		<comp name="--.HNN" depth="0.0">
			<acc value="0.0181332321434107" flag="0"/>
			<vel value="0.0142406333740191" flag="0"/>
			<psa03 value="0.0334480907718402" flag="0"/>
			<psa10 value="0.020150015464628" flag="0"/>
			<psa30 value="0.00183057855851358" flag="0"/>
		</comp>
		<comp name="--.HNZ" depth="0.0">
			<acc value="0.0128764486460743" flag="0"/>
			<vel value="0.0063883780790474" flag="0"/>
			<psa03 value="0.0309114513777638" flag="0"/>
			<psa10 value="0.0077790456360963" flag="0"/>
			<psa30 value="0.000684134487219004" flag="0"/>
		</comp>
	</station>
	<station code="MULT" name="MULT" netid="HC" source="Seismological Network of Crete (HC)" insttype="" lat="35.5091" lon="24.0118">
		<comp name="--.HNE" depth="0.0">
			<acc value="0.025265670165132" flag="0"/>
			<vel value="0.0130199414335101" flag="0"/>
			<psa03 value="0.0411681542714887" flag="0"/>
			<psa10 value="0.015438076759329" flag="0"/>
			<psa30 value="0.00132996664542885" flag="0"/>
		</comp>
		<comp name="--.HNN" depth="0.0">
			<acc value="0.0195492723974978" flag="0"/>
			<vel value="0.011923124067292" flag="0"/>
			<psa03 value="0.0315550434917531" flag="0"/>
			<psa10 value="0.013423897079818" flag="0"/>
			<psa30 value="0.00207694883766873" flag="0"/>
		</comp>
		<comp name="--.HNZ" depth="0.0">
			<acc value="0.0257719029665279" flag="0"/>
			<vel value="0.00847558367700265" flag="0"/>
			<psa03 value="0.0217583971162097" flag="0"/>
			<psa10 value="0.0120289706102573" flag="0"/>
			<psa30 value="0.00232755127218382" flag="0"/>
		</comp>
	</station>
	<station code="NERO" name="NERO" netid="HC" source="Seismological Network of Crete (HC)" insttype="" lat="35.474" lon="24.0423">
		<comp name="--.HNE" depth="0.0">
			<acc value="0.0123314090583151" flag="0"/>
			<vel value="0.00834716660720217" flag="0"/>
			<psa03 value="0.0374363523704339" flag="0"/>
			<psa10 value="0.0109329548796152" flag="0"/>
			<psa30 value="0.00122705659897979" flag="0"/>
		</comp>
		<comp name="--.HNN" depth="0.0">
			<acc value="0.0125898423923868" flag="0"/>
			<vel value="0.00774424443357961" flag="0"/>
			<psa03 value="0.0294607589223401" flag="0"/>
			<psa10 value="0.012770097518788" flag="0"/>
			<psa30 value="0.00111971157123153" flag="0"/>
		</comp>
		<comp name="--.HNZ" depth="0.0">
			<acc value="0.0112019554560674" flag="0"/>
			<vel value="0.00734505495965804" flag="0"/>
			<psa03 value="0.0293228904142477" flag="0"/>
			<psa10 value="0.00786374265310365" flag="0"/>
			<psa30 value="0.00105541168667868" flag="0"/>
		</comp>
	</station>
	<station code="PASK" name="PASK" netid="HC" source="Seismological Network of Crete (HC)" insttype="" lat="35.4996" lon="24.0121">
		<comp name="--.HNE" depth="0.0">
			<acc value="0.0208457892407541" flag="0"/>
			<vel value="0.0152674093490229" flag="0"/>
			<psa03 value="0.0544363821849059" flag="0"/>
			<psa10 value="0.0245446465873874" flag="0"/>
			<psa30 value="0.0014045460651154" flag="0"/>
		</comp>
		<comp name="--.HNN" depth="0.0">
			<acc value="0.0182727687018353" flag="0"/>
			<vel value="0.013908130712934" flag="0"/>
			<psa03 value="0.038840213598543" flag="0"/>
			<psa10 value="0.0141948994049081" flag="0"/>
			<psa30 value="0.00186274902298202" flag="0"/>
		</comp>
		<comp name="--.HNZ" depth="0.0">
			<acc value="0.0138080204487783" flag="0"/>
			<vel value="0.00979408854383289" flag="0"/>
			<psa03 value="0.0412480996716878" flag="0"/>
			<psa10 value="0.0118785359572247" flag="0"/>
			<psa30 value="0.00147440788062096" flag="0"/>
		</comp>
	</station>
	<station code="POLY" name="POLY" netid="HC" source="Seismological Network of Crete (HC)" insttype="" lat="35.5226" lon="24.0602">
		<comp name="--.HNE" depth="0.0">
			<acc value="0.0108574899546899" flag="0"/>
			<vel value="0.00867664371732555" flag="0"/>
			<psa03 value="0.0329175478134724" flag="0"/>
			<psa10 value="0.0110145330962516" flag="0"/>
			<psa30 value="0.00181669368037523" flag="0"/>
		</comp>
		<comp name="--.HNN" depth="0.0">
			<acc value="0.0104516306080019" flag="0"/>
			<vel value="0.0072747017772614" flag="0"/>
			<psa03 value="0.0338115679754189" flag="0"/>
			<psa10 value="0.0119659617487566" flag="0"/>
			<psa30 value="0.00151331722900412" flag="0"/>
		</comp>
		<comp name="--.HNZ" depth="0.0">
			<acc value="0.0085437189751681" flag="0"/>
			<vel value="0.00435037217660563" flag="0"/>
			<psa03 value="0.0228978371818457" flag="0"/>
			<psa10 value="0.00858107470409432" flag="0"/>
			<psa30 value="0.000959071450441633" flag="0"/>
		</comp>
	</station>
	<station code="SOUD" name="SOUD" netid="HC" source="Seismological Network of Crete (HC)" insttype="" lat="35.4878" lon="24.0678">
		<comp name="--.HNE" depth="0.0">
			<acc value="0.0323247777622226" flag="0"/>
			<vel value="0.0186109683102642" flag="0"/>
			<psa03 value="0.087007597159616" flag="0"/>
			<psa10 value="0.0295516970298918" flag="0"/>
			<psa30 value="0.00157187308721027" flag="0"/>
		</comp>
		<comp name="--.HNN" depth="0.0">
			<acc value="0.0305332359329852" flag="0"/>
			<vel value="0.0184497978684725" flag="0"/>
			<psa03 value="0.0558508040085252" flag="0"/>
			<psa10 value="0.0261081757885157" flag="0"/>
			<psa30 value="0.00187622179048507" flag="0"/>
		</comp>
		<comp name="--.HNZ" depth="0.0">
			<acc value="0.00629390614967086" flag="0"/>
			<vel value="0.00506191373057753" flag="0"/>
			<psa03 value="0.00638715619064924" flag="0"/>
			<psa10 value="0.00450843897446617" flag="0"/>
			<psa30 value="0.0029585307798116" flag="0"/>
		</comp>
	</station>
	<station code="CH01" name="CH01" netid="HI" source="ITSAK Strong Motion Network" insttype="" lat="35.517" lon="24.0208">
		<comp name="--.HNE" depth="0.0">
			<acc value="0.0159280378403415" flag="0"/>
			<vel value="0.00989778048433388" flag="0"/>
			<psa03 value="0.0312557554362446" flag="0"/>
			<psa10 value="0.0109665064772285" flag="0"/>
			<psa30 value="0.00137068559285979" flag="0"/>
		</comp>
		<comp name="--.HNN" depth="0.0">
			<acc value="0.0155900057847437" flag="0"/>
			<vel value="0.0106128185047432" flag="0"/>
			<psa03 value="0.037102877154352" flag="0"/>
			<psa10 value="0.0123632836943496" flag="0"/>
			<psa30 value="0.00154464690861023" flag="0"/>
		</comp>
		<comp name="--.HNZ" depth="0.0">
			<acc value="0.0100556539482517" flag="0"/>
			<vel value="0.00549642799162048" flag="0"/>
			<psa03 value="0.0224482787549828" flag="0"/>
			<psa10 value="0.012633097193202" flag="0"/>
			<psa30 value="0.000766822100282306" flag="0"/>
		</comp>
	</station>
	<station code="KSS1" name="KSS1" netid="HI" source="ITSAK Strong Motion Network" insttype="" lat="35.4189" lon="26.9207">
		<comp name="--.HNE" depth="0.0">
			<acc value="0.00613557607213686" flag="0"/>
			<vel value="0.00264963062721557" flag="0"/>
			<psa03 value="0.0258004096713474" flag="0"/>
			<psa10 value="0.00152400814556016" flag="0"/>
			<psa30 value="0.000252266190563737" flag="0"/>
		</comp>
		<comp name="--.HNN" depth="0.0">
			<acc value="0.00908468646052212" flag="0"/>
			<vel value="0.00308621022181764" flag="0"/>
			<psa03 value="0.0273067698769851" flag="0"/>
			<psa10 value="0.00418163013748607" flag="0"/>
			<psa30 value="0.000275410119568939" flag="0"/>
		</comp>
		<comp name="--.HNZ" depth="0.0">
			<acc value="0.00427166880509344" flag="0"/>
			<vel value="0.00157200553439145" flag="0"/>
			<psa03 value="0.00818975216628965" flag="0"/>
			<psa10 value="0.00200804028844077" flag="0"/>
			<psa30 value="0.000210320143614793" flag="0"/>
		</comp>
	</station>
	<station code="NAX1" name="NAX1" netid="HI" source="ITSAK Strong Motion Network" insttype="" lat="37.101394" lon="25.374103">
		<comp name="--.HNE" depth="0.0">
			<acc value="0.0026528317295047" flag="0"/>
			<vel value="0.0016695336180951" flag="0"/>
			<psa03 value="0.00866489822573109" flag="0"/>
			<psa10 value="0.0016835663326928" flag="0"/>
			<psa30 value="0.000249884079635476" flag="0"/>
		</comp>
		<comp name="--.HNN" depth="0.0">
			<acc value="0.00325804126754517" flag="0"/>
			<vel value="0.00169945757629658" flag="0"/>
			<psa03 value="0.0113864430980459" flag="0"/>
			<psa10 value="0.00206545401369292" flag="0"/>
			<psa30 value="0.00011620039301831" flag="0"/>
		</comp>
		<comp name="--.HNZ" depth="0.0">
			<acc value="0.00268992806121437" flag="0"/>
			<vel value="0.00165718895945132" flag="0"/>
			<psa03 value="0.00916745300189068" flag="0"/>
			<psa10 value="0.00147188941951376" flag="0"/>
			<psa30 value="0.000120408913999759" flag="0"/>
		</comp>
	</station>
	<station code="SIT2" name="SIT2" netid="HI" source="ITSAK Strong Motion Network" insttype="" lat="35.2059" lon="26.107">
		<comp name="--.HNE" depth="0.0">
			<acc value="0.0705758740953948" flag="0"/>
			<vel value="0.0449608636326115" flag="0"/>
			<psa03 value="0.187512942645436" flag="0"/>
			<psa10 value="0.0277230665170906" flag="0"/>
			<psa30 value="0.00173131406605801" flag="0"/>
		</comp>
		<comp name="--.HNN" depth="0.0">
			<acc value="0.0780730108081468" flag="0"/>
			<vel value="0.0447133750927219" flag="0"/>
			<psa03 value="0.262990984362052" flag="0"/>
			<psa10 value="0.0240354022274307" flag="0"/>
			<psa30 value="0.00162681818538781" flag="0"/>
		</comp>
		<comp name="--.HNZ" depth="0.0">
			<acc value="0.0564598371487416" flag="0"/>
			<vel value="0.0223169961817235" flag="0"/>
			<psa03 value="0.150756184773862" flag="0"/>
			<psa10 value="0.00799402018958917" flag="0"/>
			<psa30 value="0.000501886476682696" flag="0"/>
		</comp>
	</station>
	<station code="IACM" name="IACM" netid="HL" source="National Observatory of Athens Seismic Network" insttype="" lat="35.3058" lon="25.0709">
		<comp name="--.HNE" depth="0.0">
			<acc value="0.429697419042197" flag="0"/>
			<vel value="0.170924655034128" flag="0"/>
			<psa03 value="0.975182184366754" flag="0"/>
			<psa10 value="0.268574191722146" flag="0"/>
			<psa30 value="0.0145271573528613" flag="0"/>
		</comp>
		<comp name="--.HNN" depth="0.0">
			<acc value="0.438443868364938" flag="0"/>
			<vel value="0.185591114883761" flag="0"/>
			<psa03 value="1.49371778480579" flag="0"/>
			<psa10 value="0.162721674512325" flag="0"/>
			<psa30 value="0.0118451996863576" flag="0"/>
		</comp>
		<comp name="--.HNZ" depth="0.0">
			<acc value="0.4196703316835" flag="0"/>
			<vel value="0.10545933900163" flag="0"/>
			<psa03 value="0.675114764705701" flag="0"/>
			<psa10 value="0.102580897981134" flag="0"/>
			<psa30 value="0.0039938908256641" flag="0"/>
		</comp>
	</station>
	<station code="IMMV" name="IMMV" netid="HL" source="National Observatory of Athens Seismic Network" insttype="" lat="35.4606" lon="23.9811">
		<comp name="--.HNE" depth="0.0">
			<acc value="0.0120282366613041" flag="0"/>
			<vel value="0.00967203863050733" flag="0"/>
			<psa03 value="0.0401641710958991" flag="0"/>
			<psa10 value="0.0137218861951139" flag="0"/>
			<psa30 value="0.000560048350453427" flag="0"/>
		</comp>
		<comp name="--.HNN" depth="0.0">
			<acc value="0.0167703406174181" flag="0"/>
			<vel value="0.00868544841528329" flag="0"/>
			<psa03 value="0.0326920719393428" flag="0"/>
			<psa10 value="0.0119755586344692" flag="0"/>
			<psa30 value="0.000771219474920165" flag="0"/>
		</comp>
		<comp name="--.HNZ" depth="0.0">
			<acc value="0.0135687581478107" flag="0"/>
			<vel value="0.00612010769613614" flag="0"/>
			<psa03 value="0.0358112499237362" flag="0"/>
			<psa10 value="0.00685168842199426" flag="0"/>
			<psa30 value="0.000471850684873854" flag="0"/>
		</comp>
	</station>
	<station code="SIVA" name="SIVA" netid="HL" source="National Observatory of Athens Seismic Network" insttype="" lat="35.01777" lon="24.81204">
		<comp name="00.HNE" depth="0.0">
			<acc value="0.115533558903877" flag="0"/>
			<vel value="0.0596857312703022" flag="0"/>
			<psa03 value="0.255569138534578" flag="0"/>
			<psa10 value="0.05785400254377" flag="0"/>
			<psa30 value="0.00227094543899123" flag="0"/>
		</comp>
		<comp name="00.HNN" depth="0.0">
			<acc value="0.0992569832397682" flag="0"/>
			<vel value="0.061869927403939" flag="0"/>
			<psa03 value="0.30614817664759" flag="0"/>
			<psa10 value="0.0458687823318205" flag="0"/>
			<psa30 value="0.00273851953847833" flag="0"/>
		</comp>
		<comp name="00.HNZ" depth="0.0">
			<acc value="0.0745741895893008" flag="0"/>
			<vel value="0.0345477810254444" flag="0"/>
			<psa03 value="0.154357381668995" flag="0"/>
			<psa10 value="0.0162533667057797" flag="0"/>
			<psa30 value="0.00109078361322793" flag="0"/>
		</comp>
	</station>
</stationlist>
