<?xml version="1.0" encoding="UTF-8" standalone="yes"?>
<!DOCTYPE earthquake SYSTEM "stationlist.dtd">
<stationlist created="" xmlns="ch.ethz.sed.shakemap.usgs.xml">
  <station code="GVD" name="GVD" netid="GE" insttype="STS-2/N" lat="34.8391" lon="24.0874">
    <comp name="--.HHN">
      <acc value="0.0109878859" flag="0"/>
      <vel value="0.0059155646" flag="0"/>
      <psa03 value="0.0416462882" flag="0"/>
      <psa10 value="0.0037906239" flag="0"/>
      <psa30 value="0.0004473489" flag="0"/>
    </comp>
    <comp name="--.HHZ">
      <acc value="0.0074844666" flag="0"/>
      <vel value="0.0023907526" flag="0"/>
      <psa03 value="0.0114255801" flag="0"/>
      <psa10 value="0.0021265885" flag="0"/>
      <psa30 value="0.0001766811" flag="0"/>
    </comp>
    <comp name="--.HHE">
      <acc value="0.0032974768" flag="0"/>
      <vel value="0.0010291458" flag="0"/>
      <psa03 value="0.0035044045" flag="0"/>
      <psa10 value="0.0014301718" flag="0"/>
      <psa30 value="0.0001494254" flag="0"/>
    </comp>
  </station>
  <station code="IMMV" name="IMMV" netid="GE" insttype="STS-2/N" lat="35.4606" lon="23.9811">
    <comp name="--.HHN">
      <acc value="0.0174107143" flag="0"/>
      <vel value="0.0091275785" flag="0"/>
      <psa03 value="0.0343982387" flag="0"/>
      <psa10 value="0.0122892382" flag="0"/>
      <psa30 value="0.0007481429" flag="0"/>
    </comp>
    <comp name="--.HHE">
      <acc value="0.0125520081" flag="0"/>
      <vel value="0.0103790840" flag="0"/>
      <psa03 value="0.0434767172" flag="0"/>
      <psa10 value="0.0144146039" flag="0"/>
      <psa30 value="0.0005899328" flag="0"/>
    </comp>
    <comp name="--.HHZ">
      <acc value="0.0140818229" flag="0"/>
      <vel value="0.0062779327" flag="0"/>
      <psa03 value="0.0370296022" flag="0"/>
      <psa10 value="0.0069745544" flag="0"/>
      <psa30 value="0.0004502422" flag="0"/>
    </comp>
  </station>
  <station code="ZKR" name="ZKR" netid="GE" insttype="STS-2/N" lat="35.1147" lon="26.2169">
    <comp name="--.HHE">
      <acc value="0.0261540643" flag="0"/>
      <vel value="0.0133809853" flag="0"/>
      <psa03 value="0.0723048836" flag="0"/>
      <psa10 value="0.0196968063" flag="0"/>
      <psa30 value="0.0006169689" flag="0"/>
    </comp>
    <comp name="--.HHN">
      <acc value="0.0119975807" flag="0"/>
      <vel value="0.0078876482" flag="0"/>
      <psa03 value="0.0395104306" flag="0"/>
      <psa10 value="0.0055483583" flag="0"/>
      <psa30 value="0.0004674257" flag="0"/>
    </comp>
    <comp name="--.HHZ">
      <acc value="0.0166193452" flag="0"/>
      <vel value="0.0066016634" flag="0"/>
      <psa03 value="0.0314269007" flag="0"/>
      <psa10 value="0.0089912783" flag="0"/>
      <psa30 value="0.0003946800" flag="0"/>
    </comp>
  </station>
  <station code="IMOD" name="IMOD" netid="HC" insttype="120" lat="34.9731" lon="24.7995">
    <comp name="--.HHN">
      <acc value="0.0649087740" flag="0"/>
      <vel value="0.0426343651" flag="0"/>
      <psa03 value="0.2392154274" flag="0"/>
      <psa10 value="0.0256320347" flag="0"/>
      <psa30 value="0.0021704812" flag="0"/>
    </comp>
    <comp name="--.HHE">
      <acc value="0.0620774945" flag="0"/>
      <vel value="0.0400093629" flag="0"/>
      <psa03 value="0.1662335851" flag="0"/>
      <psa10 value="0.0294256923" flag="0"/>
      <psa30 value="0.0021462844" flag="0"/>
    </comp>
    <comp name="--.HHZ">
      <acc value="0.0475863243" flag="0"/>
      <vel value="0.0200763278" flag="0"/>
      <psa03 value="0.0735300799" flag="0"/>
      <psa10 value="0.0215955244" flag="0"/>
      <psa30 value="0.0010024457" flag="0"/>
    </comp>
  </station>
  <station code="KNSS" name="KNSS" netid="HC" insttype="60" lat="35.3042" lon="25.1802">
    <comp name="--.HHE">
      <acc value="0.2940515728" flag="0"/>
      <vel value="0.1096924132" flag="0"/>
      <psa03 value="0.8775447284" flag="0"/>
      <psa10 value="0.0785665333" flag="0"/>
      <psa30 value="0.0070061688" flag="0"/>
    </comp>
    <comp name="--.HHN">
      <acc value="0.3176545495" flag="0"/>
      <vel value="0.1019328194" flag="0"/>
      <psa03 value="0.6478950143" flag="0"/>
      <psa10 value="0.0735391585" flag="0"/>
      <psa30 value="0.0037071875" flag="0"/>
    </comp>
    <comp name="--.HHZ">
      <acc value="0.1914890887" flag="0"/>
      <vel value="0.0612806709" flag="0"/>
      <psa03 value="0.4005472601" flag="0"/>
      <psa10 value="0.0314243089" flag="0"/>
      <psa30 value="0.0023325937" flag="0"/>
    </comp>
  </station>
  <station code="PFKS" name="PFKS" netid="HC" insttype="120" lat="35.0429" lon="25.4733">
    <comp name="--.HHN">
      <acc value="0.6763175210" flag="0"/>
      <vel value="0.1696013549" flag="0"/>
      <psa03 value="0.6226348826" flag="0"/>
      <psa10 value="0.0676221081" flag="0"/>
      <psa30 value="0.0055562713" flag="0"/>
    </comp>
    <comp name="--.HHZ">
      <acc value="0.4418117909" flag="0"/>
      <vel value="0.0856597444" flag="0"/>
      <psa03 value="0.3284544082" flag="0"/>
      <psa10 value="0.0278070191" flag="0"/>
      <psa30 value="0.0022307024" flag="0"/>
    </comp>
    <comp name="--.HHE">
      <acc value="0.6003711766" flag="0"/>
      <vel value="0.1317265071" flag="0"/>
      <psa03 value="0.5545877734" flag="0"/>
      <psa10 value="0.0426478143" flag="0"/>
      <psa30 value="0.0032483270" flag="0"/>
    </comp>
  </station>
  <station code="STIA" name="STIA" netid="HC" insttype="120" lat="35.2021" lon="26.0909">
    <comp name="--.HHZ">
      <acc value="0.0422204738" flag="0"/>
      <vel value="0.0131976654" flag="0"/>
      <psa03 value="0.0541063751" flag="0"/>
      <psa10 value="0.0090746443" flag="0"/>
      <psa30 value="0.0003941956" flag="0"/>
    </comp>
    <comp name="--.HHN">
      <acc value="0.0504155289" flag="0"/>
      <vel value="0.0163055268" flag="0"/>
      <psa03 value="0.0565578446" flag="0"/>
      <psa10 value="0.0129514484" flag="0"/>
      <psa30 value="0.0008707237" flag="0"/>
    </comp>
    <comp name="--.HHE">
      <acc value="0.0609666833" flag="0"/>
      <vel value="0.0197046161" flag="0"/>
      <psa03 value="0.0984064667" flag="0"/>
      <psa10 value="0.0228316080" flag="0"/>
      <psa30 value="0.0009617254" flag="0"/>
    </comp>
  </station>
  <station code="SIT2" name="SIT2" netid="HI" insttype="CMG-5TD,ACCELEROMETER,GURALP" lat="35.2059" lon="26.107">
    <comp name="--.HNE">
      <acc value="0.0711956434" flag="0"/>
      <vel value="0.0447116369" flag="0"/>
      <psa03 value="0.1887767634" flag="0"/>
      <psa10 value="0.0276965793" flag="0"/>
      <psa30 value="0.0016940118" flag="0"/>
    </comp>
    <comp name="--.HNZ">
      <acc value="0.0558967099" flag="0"/>
      <vel value="0.0221673453" flag="0"/>
      <psa03 value="0.1532146582" flag="0"/>
      <psa10 value="0.0079652542" flag="0"/>
      <psa30 value="0.0005063080" flag="0"/>
    </comp>
    <comp name="--.HNN">
      <acc value="0.0780276887" flag="0"/>
      <vel value="0.0445401858" flag="0"/>
      <psa03 value="0.2666943601" flag="0"/>
      <psa10 value="0.0239677705" flag="0"/>
      <psa30 value="0.0016143398" flag="0"/>
    </comp>
  </station>
  <station code="GVD" name="GVD" netid="HL" insttype="120" lat="34.8391" lon="24.0874">
    <comp name="--.HHE">
      <acc value="0.0033427921" flag="0"/>
      <vel value="0.0010023701" flag="0"/>
      <psa03 value="0.0034105032" flag="0"/>
      <psa10 value="0.0014216206" flag="0"/>
      <psa30 value="0.0001492415" flag="0"/>
    </comp>
    <comp name="--.HHZ">
      <acc value="0.0073177310" flag="0"/>
      <vel value="0.0023342001" flag="0"/>
      <psa03 value="0.0111168348" flag="0"/>
      <psa10 value="0.0021045946" flag="0"/>
      <psa30 value="0.0001751702" flag="0"/>
    </comp>
    <comp name="--.HHN">
      <acc value="0.0106814131" flag="0"/>
      <vel value="0.0057994754" flag="0"/>
      <psa03 value="0.0404372141" flag="0"/>
      <psa10 value="0.0037504370" flag="0"/>
      <psa30 value="0.0004452610" flag="0"/>
    </comp>
  </station>
  <station code="IACM" name="IACM" netid="HL" insttype="120" lat="35.3058" lon="25.0709">
    <comp name="--.HHN">
      <acc value="0.4244229007" flag="0"/>
      <vel value="0.1782592785" flag="0"/>
      <psa03 value="1.4954468809" flag="0"/>
      <psa10 value="0.1627696523" flag="0"/>
      <psa30 value="0.0114326119" flag="0"/>
    </comp>
    <comp name="--.HHE">
      <acc value="0.4304103154" flag="0"/>
      <vel value="0.1765082563" flag="0"/>
      <psa03 value="0.9532452086" flag="0"/>
      <psa10 value="0.2704520745" flag="0"/>
      <psa30 value="0.0147382475" flag="0"/>
    </comp>
    <comp name="--.HHZ">
      <acc value="0.4351222601" flag="0"/>
      <vel value="0.1033422892" flag="0"/>
      <psa03 value="0.6748356990" flag="0"/>
      <psa10 value="0.1020542541" flag="0"/>
      <psa30 value="0.0040132372" flag="0"/>
    </comp>
  </station>
  <station code="IDI" name="IDI" netid="HL" insttype="120" lat="35.288" lon="24.89">
    <comp name="--.HHZ">
      <acc value="0.0523137943" flag="0"/>
      <vel value="0.0197925388" flag="0"/>
      <psa03 value="0.0644002711" flag="0"/>
      <psa10 value="0.0119213071" flag="0"/>
      <psa30 value="0.0010504065" flag="0"/>
    </comp>
    <comp name="--.HHE">
      <acc value="0.0650605021" flag="0"/>
      <vel value="0.0170927013" flag="0"/>
      <psa03 value="0.0823360606" flag="0"/>
      <psa10 value="0.0184433902" flag="0"/>
      <psa30 value="0.0014359461" flag="0"/>
    </comp>
    <comp name="--.HHN">
      <acc value="0.0933257722" flag="0"/>
      <vel value="0.0246336282" flag="0"/>
      <psa03 value="0.1457177948" flag="0"/>
      <psa10 value="0.0166609262" flag="0"/>
      <psa30 value="0.0015463091" flag="0"/>
    </comp>
  </station>
  <station code="IMMV" name="IMMV" netid="HL" insttype="120" lat="35.4606" lon="23.9811">
    <comp name="--.HHE">
      <acc value="0.0123814632" flag="0"/>
      <vel value="0.0101568756" flag="0"/>
      <psa03 value="0.0422640277" flag="0"/>
      <psa10 value="0.0143148524" flag="0"/>
      <psa30 value="0.0005859539" flag="0"/>
    </comp>
    <comp name="--.HHN">
      <acc value="0.0169090793" flag="0"/>
      <vel value="0.0089342211" flag="0"/>
      <psa03 value="0.0333246717" flag="0"/>
      <psa10 value="0.0122032760" flag="0"/>
      <psa30 value="0.0007431598" flag="0"/>
    </comp>
    <comp name="--.HHZ">
      <acc value="0.0137416487" flag="0"/>
      <vel value="0.0060995340" flag="0"/>
      <psa03 value="0.0359668952" flag="0"/>
      <psa10 value="0.0069260111" flag="0"/>
      <psa30 value="0.0004470169" flag="0"/>
    </comp>
  </station>
  <station code="NPS" name="NPS" netid="HL" insttype="CMG3ESPC-120s" lat="35.2613" lon="25.6104">
    <comp name="--.HHE">
      <acc value="0.0515164316" flag="0"/>
      <vel value="0.0132619542" flag="0"/>
      <psa03 value="0.0414108882" flag="0"/>
      <psa10 value="0.0089575352" flag="0"/>
      <psa30 value="0.0005797579" flag="0"/>
    </comp>
    <comp name="--.HHN">
      <acc value="0.2392619305" flag="0"/>
      <vel value="0.0495382894" flag="0"/>
      <psa03 value="0.0953912684" flag="0"/>
      <psa10 value="0.0227312296" flag="0"/>
      <psa30 value="0.0018346857" flag="0"/>
    </comp>
    <comp name="--.HHZ">
      <acc value="0.1468829265" flag="0"/>
      <vel value="0.0364035333" flag="0"/>
      <psa03 value="0.0965432412" flag="0"/>
      <psa10 value="0.0209347709" flag="0"/>
      <psa30 value="0.0013714451" flag="0"/>
    </comp>
  </station>
  <station code="SIVA" name="SIVA" netid="HL" insttype="60" lat="35.0178" lon="24.812">
    <comp name="--.HHE">
      <acc value="0.1262614992" flag="0"/>
      <vel value="0.0639347808" flag="0"/>
      <psa03 value="0.2720279876" flag="0"/>
      <psa10 value="0.0610390456" flag="0"/>
      <psa30 value="0.0023362467" flag="0"/>
    </comp>
    <comp name="--.HHZ">
      <acc value="0.0717467993" flag="0"/>
      <vel value="0.0350280699" flag="0"/>
      <psa03 value="0.1529984756" flag="0"/>
      <psa10 value="0.0165211261" flag="0"/>
      <psa30 value="0.0010615281" flag="0"/>
    </comp>
    <comp name="--.HHN">
      <acc value="0.0974224625" flag="0"/>
      <vel value="0.0552957645" flag="0"/>
      <psa03 value="0.2856385444" flag="0"/>
      <psa10 value="0.0390676952" flag="0"/>
      <psa30 value="0.0023868908" flag="0"/>
    </comp>
  </station>
  <station code="VAM" name="VAM" netid="HL" insttype="CMG3ESPC-120s" lat="35.407" lon="24.1997">
    <comp name="--.HHE">
      <acc value="0.0244586939" flag="0"/>
      <vel value="0.0176944080" flag="0"/>
      <psa03 value="0.0751745018" flag="0"/>
      <psa10 value="0.0124778856" flag="0"/>
      <psa30 value="0.0008600410" flag="0"/>
    </comp>
    <comp name="--.HHN">
      <acc value="0.0408397229" flag="0"/>
      <vel value="0.0153848476" flag="0"/>
      <psa03 value="0.0775758083" flag="0"/>
      <psa10 value="0.0113443466" flag="0"/>
      <psa30 value="0.0014334498" flag="0"/>
    </comp>
    <comp name="--.HHZ">
      <acc value="0.0149551275" flag="0"/>
      <vel value="0.0089623630" flag="0"/>
      <psa03 value="0.0394116379" flag="0"/>
      <psa10 value="0.0054743844" flag="0"/>
      <psa30 value="0.0004550995" flag="0"/>
    </comp>
  </station>
  <station code="ZKR" name="ZKR" netid="HL" insttype="120" lat="35.1147" lon="26.2169">
    <comp name="--.HHE">
      <acc value="0.0252316059" flag="0"/>
      <vel value="0.0131335873" flag="0"/>
      <psa03 value="0.0703913261" flag="0"/>
      <psa10 value="0.0195475345" flag="0"/>
      <psa30 value="0.0006146948" flag="0"/>
    </comp>
    <comp name="--.HHN">
      <acc value="0.0118823317" flag="0"/>
      <vel value="0.0077278525" flag="0"/>
      <psa03 value="0.0384142268" flag="0"/>
      <psa10 value="0.0055125020" flag="0"/>
      <psa30 value="0.0004666775" flag="0"/>
    </comp>
    <comp name="--.HHZ">
      <acc value="0.0161013972" flag="0"/>
      <vel value="0.0065118313" flag="0"/>
      <psa03 value="0.0305700952" flag="0"/>
      <psa10 value="0.0089286883" flag="0"/>
      <psa30 value="0.0003936460" flag="0"/>
    </comp>
  </station>
  <station code="IDI" name="IDI" netid="MN" insttype="" lat="35.288" lon="24.89">
    <comp name="--.HHE">
      <acc value="0.0740383720" flag="0"/>
      <vel value="0.0175749105" flag="0"/>
      <psa03 value="0.0839500941" flag="0"/>
      <psa10 value="0.0183541330" flag="0"/>
      <psa30 value="0.0014262150" flag="0"/>
    </comp>
    <comp name="--.HHZ">
      <acc value="0.0636324728" flag="0"/>
      <vel value="0.0198396040" flag="0"/>
      <psa03 value="0.0653798940" flag="0"/>
      <psa10 value="0.0118470889" flag="0"/>
      <psa30 value="0.0010416764" flag="0"/>
    </comp>
    <comp name="--.HHN">
      <acc value="0.0979239998" flag="0"/>
      <vel value="0.0247871048" flag="0"/>
      <psa03 value="0.1478724627" flag="0"/>
      <psa10 value="0.0165185056" flag="0"/>
      <psa30 value="0.0015391266" flag="0"/>
    </comp>
  </station>
</stationlist>
