<?xml version="1.0" encoding="UTF-8" standalone="yes"?>
<!DOCTYPE earthquake SYSTEM "stationlist.dtd">
<stationlist created="" xmlns="ch.ethz.sed.shakemap.usgs.xml">
  <station code="ATAL" name="ATAL" netid="HA" insttype="120" lat="38.6926" lon="23.0213">
    <comp name="--.HHZ">
      <acc value="0.0384181256" flag="0"/>
      <vel value="0.0128053185" flag="0"/>
      <psa03 value="0.0711768434" flag="0"/>
      <psa10 value="0.0111297409" flag="0"/>
      <psa30 value="0.0012333584" flag="0"/>
    </comp>
    <comp name="--.HHE">
      <acc value="0.0000331283" flag="0"/>
      <vel value="0.0000030309" flag="0"/>
      <psa03 value="0.0000097764" flag="0"/>
      <psa10 value="0.0000026205" flag="0"/>
      <psa30 value="0.0000007905" flag="0"/>
    </comp>
    <comp name="--.HHN">
      <acc value="0.0000353532" flag="0"/>
      <vel value="0.0000027751" flag="0"/>
      <psa03 value="0.0000106328" flag="0"/>
      <psa10 value="0.0000025090" flag="0"/>
      <psa30 value="0.0000007960" flag="0"/>
    </comp>
  </station>
  <station code="AXAR" name="AXAR" netid="HA" insttype="30" lat="38.7664" lon="22.659">
    <comp name="--.HHZ">
      <acc value="0.0443722838" flag="0"/>
      <vel value="0.0167401431" flag="0"/>
      <psa03 value="0.0779038099" flag="0"/>
      <psa10 value="0.0160760627" flag="0"/>
      <psa30 value="0.0012150394" flag="0"/>
    </comp>
    <comp name="--.HHE">
      <acc value="0.0643125842" flag="0"/>
      <vel value="0.0274763891" flag="0"/>
      <psa03 value="0.1499687196" flag="0"/>
      <psa10 value="0.0349800854" flag="0"/>
      <psa30 value="0.0028229434" flag="0"/>
    </comp>
    <comp name="--.HHN">
      <acc value="0.0658872210" flag="0"/>
      <vel value="0.0297342679" flag="0"/>
      <psa03 value="0.1683952188" flag="0"/>
      <psa10 value="0.0231109373" flag="0"/>
      <psa30 value="0.0024379286" flag="0"/>
    </comp>
  </station>
  <station code="STFN" name="STFN" netid="HA" insttype="1s-100Hz," lat="38.1766" lon="23.544">
    <comp name="--.HHN">
      <acc value="0.0333314810" flag="0"/>
      <vel value="0.0175302632" flag="0"/>
      <psa03 value="0.0929166422" flag="0"/>
      <psa10 value="0.0163010267" flag="0"/>
      <psa30 value="0.0012556165" flag="0"/>
    </comp>
    <comp name="--.HHZ">
      <acc value="0.0234991582" flag="0"/>
      <vel value="0.0174181510" flag="0"/>
      <psa03 value="0.0717174988" flag="0"/>
      <psa10 value="0.0109681126" flag="0"/>
      <psa30 value="0.0012732686" flag="0"/>
    </comp>
    <comp name="--.HHE">
      <acc value="0.0241378829" flag="0"/>
      <vel value="0.0146475223" flag="0"/>
      <psa03 value="0.0675584450" flag="0"/>
      <psa10 value="0.0112324817" flag="0"/>
      <psa30 value="0.0010231215" flag="0"/>
    </comp>
  </station>
  <station code="VILL" name="VILL" netid="HA" insttype="30" lat="38.1642" lon="23.3122">
    <comp name="--.HHE">
      <acc value="0.0272371618" flag="0"/>
      <vel value="0.0226771798" flag="0"/>
      <psa03 value="0.0852107635" flag="0"/>
      <psa10 value="0.0297891394" flag="0"/>
      <psa30 value="0.0022853564" flag="0"/>
    </comp>
    <comp name="--.HHN">
      <acc value="0.0432779114" flag="0"/>
      <vel value="0.0289815903" flag="0"/>
      <psa03 value="0.0666917632" flag="0"/>
      <psa10 value="0.0314623078" flag="0"/>
      <psa30 value="0.0024611878" flag="0"/>
    </comp>
    <comp name="--.HHZ">
      <acc value="0.0165442335" flag="0"/>
      <vel value="0.0122101772" flag="0"/>
      <psa03 value="0.0562573433" flag="0"/>
      <psa10 value="0.0135584013" flag="0"/>
      <psa30 value="0.0010084803" flag="0"/>
    </comp>
  </station>
  <station code="VOL2" name="VOL2" netid="HI" insttype="CMG-5TD,ACCELEROMETER,GURALP" lat="39.366" lon="22.9506">
    <comp name="--.HNE">
      <acc value="0.3484437506" flag="0"/>
      <vel value="0.1140998189" flag="0"/>
      <psa03 value="0.6813568636" flag="0"/>
      <psa10 value="0.0558915368" flag="0"/>
      <psa30 value="0.0038324250" flag="0"/>
    </comp>
    <comp name="--.HNN">
      <acc value="0.4632065480" flag="0"/>
      <vel value="0.1919407646" flag="0"/>
      <psa03 value="0.9834691045" flag="0"/>
      <psa10 value="0.0698326206" flag="0"/>
      <psa30 value="0.0053080910" flag="0"/>
    </comp>
    <comp name="--.HNZ">
      <acc value="0.2646678492" flag="0"/>
      <vel value="0.0785782445" flag="0"/>
      <psa03 value="0.2223811006" flag="0"/>
      <psa10 value="0.0241073277" flag="0"/>
      <psa30 value="0.0015576326" flag="0"/>
    </comp>
  </station>
  <station code="DION" name="DION" netid="HL" insttype="30" lat="38.0779" lon="23.9331">
    <comp name="--.HHE">
      <acc value="0.0210513955" flag="0"/>
      <vel value="0.0094668365" flag="0"/>
      <psa03 value="0.0651406966" flag="0"/>
      <psa10 value="0.0102126717" flag="0"/>
      <psa30 value="0.0006728366" flag="0"/>
    </comp>
    <comp name="--.HHN">
      <acc value="0.0192315546" flag="0"/>
      <vel value="0.0128909890" flag="0"/>
      <psa03 value="0.0591722257" flag="0"/>
      <psa10 value="0.0058704771" flag="0"/>
      <psa30 value="0.0007329245" flag="0"/>
    </comp>
    <comp name="--.HHZ">
      <acc value="0.0134267339" flag="0"/>
      <vel value="0.0100326341" flag="0"/>
      <psa03 value="0.0288662106" flag="0"/>
      <psa10 value="0.0074974188" flag="0"/>
      <psa30 value="0.0008490510" flag="0"/>
    </comp>
  </station>
  <station code="KYMI" name="KYMI" netid="HL" insttype="60" lat="38.6331" lon="24.1001">
    <comp name="--.HHE">
      <acc value="0.0535316299" flag="0"/>
      <vel value="0.0251548763" flag="0"/>
      <psa03 value="0.2099209593" flag="0"/>
      <psa10 value="0.0105622338" flag="0"/>
      <psa30 value="0.0010248082" flag="0"/>
    </comp>
    <comp name="--.HHZ">
      <acc value="0.0293636888" flag="0"/>
      <vel value="0.0109555377" flag="0"/>
      <psa03 value="0.1164408042" flag="0"/>
      <psa10 value="0.0111019598" flag="0"/>
      <psa30 value="0.0005349391" flag="0"/>
    </comp>
    <comp name="--.HHN">
      <acc value="0.0305708101" flag="0"/>
      <vel value="0.0138106995" flag="0"/>
      <psa03 value="0.0969514305" flag="0"/>
      <psa10 value="0.0162112571" flag="0"/>
      <psa30 value="0.0010128239" flag="0"/>
    </comp>
  </station>
  <station code="LKR" name="LKR" netid="HL" insttype="30" lat="38.6496" lon="22.9989">
    <comp name="--.HHZ">
      <acc value="0.0496503524" flag="0"/>
      <vel value="0.0155117294" flag="0"/>
      <psa03 value="0.0761587676" flag="0"/>
      <psa10 value="0.0115658097" flag="0"/>
      <psa30 value="0.0009572881" flag="0"/>
    </comp>
    <comp name="--.HHN">
      <acc value="0.0963388451" flag="0"/>
      <vel value="0.0306759097" flag="0"/>
      <psa03 value="0.1446802686" flag="0"/>
      <psa10 value="0.0197677461" flag="0"/>
      <psa30 value="0.0015164287" flag="0"/>
    </comp>
    <comp name="--.HHE">
      <acc value="0.0994126767" flag="0"/>
      <vel value="0.0342078376" flag="0"/>
      <psa03 value="0.1478473310" flag="0"/>
      <psa10 value="0.0147359127" flag="0"/>
      <psa30 value="0.0014121678" flag="0"/>
    </comp>
  </station>
  <station code="NEO" name="NEO" netid="HL" insttype="120" lat="39.3057" lon="23.2219">
    <comp name="--.HHE">
      <acc value="0.7987644987" flag="0"/>
      <vel value="0.4504813957" flag="0"/>
      <psa03 value="2.6345637539" flag="0"/>
      <psa10 value="0.1168886443" flag="0"/>
      <psa30 value="0.0229853080" flag="0"/>
    </comp>
    <comp name="--.HHZ">
      <acc value="0.7294754370" flag="0"/>
      <vel value="0.3232458879" flag="0"/>
      <psa03 value="1.9728262020" flag="0"/>
      <psa10 value="0.1362555239" flag="0"/>
      <psa30 value="0.0131684824" flag="0"/>
    </comp>
    <comp name="--.HHN">
      <acc value="0.8567212490" flag="0"/>
      <vel value="0.4021323947" flag="0"/>
      <psa03 value="1.9703053021" flag="0"/>
      <psa10 value="0.2012532588" flag="0"/>
      <psa30 value="0.0161601704" flag="0"/>
    </comp>
  </station>
  <station code="PTL" name="PTL" netid="HL" insttype="120" lat="38.0473" lon="23.8638">
    <comp name="--.HHE">
      <acc value="0.0137256765" flag="0"/>
      <vel value="0.0095549925" flag="0"/>
      <psa03 value="0.0325147411" flag="0"/>
      <psa10 value="0.0077469949" flag="0"/>
      <psa30 value="0.0005761656" flag="0"/>
    </comp>
    <comp name="--.HHN">
      <acc value="0.0205007078" flag="0"/>
      <vel value="0.0132680353" flag="0"/>
      <psa03 value="0.0566956916" flag="0"/>
      <psa10 value="0.0053703395" flag="0"/>
      <psa30 value="0.0013490797" flag="0"/>
    </comp>
    <comp name="--.HHZ">
      <acc value="0.0127679627" flag="0"/>
      <vel value="0.0066983003" flag="0"/>
      <psa03 value="0.0353099140" flag="0"/>
      <psa10 value="0.0050071629" flag="0"/>
      <psa30 value="0.0007797395" flag="0"/>
    </comp>
  </station>
  <station code="SKY" name="SKY" netid="HL" insttype="120" lat="38.8831" lon="24.5482">
    <comp name="--.HHZ">
      <acc value="0.1009758660" flag="0"/>
      <vel value="0.0278452346" flag="0"/>
      <psa03 value="0.0856565432" flag="0"/>
      <psa10 value="0.0281124543" flag="0"/>
      <psa30 value="0.0017378584" flag="0"/>
    </comp>
    <comp name="--.HHE">
      <acc value="0.2348638139" flag="0"/>
      <vel value="0.0688847308" flag="0"/>
      <psa03 value="0.3605783308" flag="0"/>
      <psa10 value="0.0190158895" flag="0"/>
      <psa30 value="0.0018237174" flag="0"/>
    </comp>
    <comp name="--.HHN">
      <acc value="0.1497830581" flag="0"/>
      <vel value="0.0468689682" flag="0"/>
      <psa03 value="0.1772269320" flag="0"/>
      <psa10 value="0.0218178996" flag="0"/>
      <psa30 value="0.0023684194" flag="0"/>
    </comp>
  </station>
  <station code="AGG" name="AGG" netid="HT" insttype="120P," lat="39.0211" lon="22.336">
    <comp name="--.HHN">
      <acc value="0.0108047952" flag="0"/>
      <vel value="0.0086681212" flag="0"/>
      <psa03 value="0.0311415641" flag="0"/>
      <psa10 value="0.0112619212" flag="0"/>
      <psa30 value="0.0009405154" flag="0"/>
    </comp>
    <comp name="--.HHZ">
      <acc value="0.0138423183" flag="0"/>
      <vel value="0.0065872860" flag="0"/>
      <psa03 value="0.0159470511" flag="0"/>
      <psa10 value="0.0091569930" flag="0"/>
      <psa30 value="0.0011475917" flag="0"/>
    </comp>
    <comp name="--.HHE">
      <acc value="0.0144486444" flag="0"/>
      <vel value="0.0069867880" flag="0"/>
      <psa03 value="0.0328930797" flag="0"/>
      <psa10 value="0.0112622381" flag="0"/>
      <psa30 value="0.0010958532" flag="0"/>
    </comp>
  </station>
  <station code="PAIG" name="PAIG" netid="HT" insttype="100" lat="39.9363" lon="23.6768">
    <comp name="--.HHN">
      <acc value="0.0139487341" flag="0"/>
      <vel value="0.0066737703" flag="0"/>
      <psa03 value="0.0264836925" flag="0"/>
      <psa10 value="0.0042403449" flag="0"/>
      <psa30 value="0.0003562583" flag="0"/>
    </comp>
    <comp name="--.HHE">
      <acc value="0.0177330043" flag="0"/>
      <vel value="0.0126892655" flag="0"/>
      <psa03 value="0.0401923255" flag="0"/>
      <psa10 value="0.0078856346" flag="0"/>
      <psa30 value="0.0008067886" flag="0"/>
    </comp>
    <comp name="--.HHZ">
      <acc value="0.0083201835" flag="0"/>
      <vel value="0.0037647960" flag="0"/>
      <psa03 value="0.0269688206" flag="0"/>
      <psa10 value="0.0027748054" flag="0"/>
      <psa30 value="0.0001988941" flag="0"/>
    </comp>
  </station>
  <station code="XOR" name="XOR" netid="HT" insttype="Compact," lat="39.366" lon="23.1918">
    <comp name="--.HHE">
      <acc value="0.2321770477" flag="0"/>
      <vel value="0.0905009913" flag="0"/>
      <psa03 value="0.5382173567" flag="0"/>
      <psa10 value="0.0553151662" flag="0"/>
      <psa30 value="0.0036202358" flag="0"/>
    </comp>
    <comp name="--.HHZ">
      <acc value="0.2318416341" flag="0"/>
      <vel value="0.0950592177" flag="0"/>
      <psa03 value="0.4824325547" flag="0"/>
      <psa10 value="0.0426971957" flag="0"/>
      <psa30 value="0.0024534200" flag="0"/>
    </comp>
    <comp name="--.HHN">
      <acc value="0.4251876442" flag="0"/>
      <vel value="0.1368639249" flag="0"/>
      <psa03 value="0.6957518720" flag="0"/>
      <psa10 value="0.0712505521" flag="0"/>
      <psa30 value="0.0051007345" flag="0"/>
    </comp>
  </station>
</stationlist>
