<stationlist created="1631873542">
	<station code="LTRS" name="LTRS" netid="HA" source="Hellenic Seismological Network, University of Athens, Seismological Laboratory (HA)" insttype="" lat="37.97528" lon="22.9765">
		<comp name="--.HNE" depth="0.0">
			<acc value="0.033070236" flag="0"/>
			<vel value="-0.020584" flag="0"/>
			<psa03 value="0.12026705139" flag="0"/>
			<psa10 value="0.0261218424899" flag="0"/>
			<psa30 value="0.00187514587937" flag="0"/>
		</comp>
		<comp name="--.HNN" depth="0.0">
			<acc value="-0.028655574" flag="0"/>
			<vel value="0.017666" flag="0"/>
			<psa03 value="0.0884553424843" flag="0"/>
			<psa10 value="0.0298506579895" flag="0"/>
			<psa30 value="0.00192257261839" flag="0"/>
		</comp>
		<comp name="--.HNZ" depth="0.0">
			<acc value="-0.021270774" flag="0"/>
			<vel value="0.015369" flag="0"/>
			<psa03 value="0.0709611396966" flag="0"/>
			<psa10 value="0.0197796347018" flag="0"/>
			<psa30 value="0.00118074683266" flag="0"/>
		</comp>
	</station>
	<station code="XLKS" name="XLKS" netid="HA" source="Hellenic Seismological Network, University of Athens, Seismological Laboratory (HA)" insttype="" lat="38.0772" lon="22.6361">
		<comp name="--.HNE" depth="0.0">
			<acc value="0.023128398" flag="0"/>
			<vel value="0.020966" flag="0"/>
			<psa03 value="0.0660842391752" flag="0"/>
			<psa10 value="0.037026413087" flag="0"/>
			<psa30 value="0.00713861906595" flag="0"/>
		</comp>
		<comp name="--.HNN" depth="0.0">
			<acc value="0.029819292" flag="0"/>
			<vel value="-0.025334" flag="0"/>
			<psa03 value="0.0685450605392" flag="0"/>
			<psa10 value="0.0433847280695" flag="0"/>
			<psa30 value="0.00414804997558" flag="0"/>
		</comp>
		<comp name="--.HNZ" depth="0.0">
			<acc value="0.018116016" flag="0"/>
			<vel value="-0.01043" flag="0"/>
			<psa03 value="0.0571805400582" flag="0"/>
			<psa10 value="0.0130790418387" flag="0"/>
			<psa30 value="0.00157492567296" flag="0"/>
		</comp>
	</station>
	<station code="VOL2" name="VOL2" netid="HI" source="ITSAK Strong Motion Network" insttype="" lat="39.366" lon="22.9506">
		<comp name="--.HNE" depth="0.0">
			<acc value="-0.347626506" flag="0"/>
			<vel value="0.115321" flag="0"/>
			<psa03 value="0.697173063526" flag="0"/>
			<psa10 value="0.0559886076738" flag="0"/>
			<psa30 value="0.00380308756255" flag="0"/>
		</comp>
		<comp name="--.HNN" depth="0.0">
			<acc value="0.461582232" flag="0"/>
			<vel value="-0.192016" flag="0"/>
			<psa03 value="0.994753479744" flag="0"/>
			<psa10 value="0.0702072335151" flag="0"/>
			<psa30 value="0.00561738404092" flag="0"/>
		</comp>
		<comp name="--.HNZ" depth="0.0">
			<acc value="-0.263200698" flag="0"/>
			<vel value="-0.079786" flag="0"/>
			<psa03 value="0.222726704546" flag="0"/>
			<psa10 value="0.0242171667542" flag="0"/>
			<psa30 value="0.00164696062562" flag="0"/>
		</comp>
	</station>
	<station code="DLFA" name="DLFA" netid="HL" source="National Observatory of Athens Seismic Network" insttype="" lat="38.47836" lon="22.49583">
		<comp name="--.HNE" depth="0.0">
			<acc value="0.020970078" flag="0"/>
			<vel value="-0.012875" flag="0"/>
			<psa03 value="0.049574364933" flag="0"/>
			<psa10 value="0.0129743450752" flag="0"/>
			<psa30 value="0.00126173022664" flag="0"/>
		</comp>
		<comp name="--.HNN" depth="0.0">
			<acc value="-0.01965081" flag="0"/>
			<vel value="0.011943" flag="0"/>
			<psa03 value="0.0488584896272" flag="0"/>
			<psa10 value="0.0141501702651" flag="0"/>
			<psa30 value="0.00116016541761" flag="0"/>
		</comp>
		<comp name="--.HNZ" depth="0.0">
			<acc value="0.018111528" flag="0"/>
			<vel value="0.011483" flag="0"/>
			<psa03 value="0.0353910854351" flag="0"/>
			<psa10 value="0.00629791300359" flag="0"/>
			<psa30 value="0.000678739274399" flag="0"/>
		</comp>
	</station>
	<station code="KYMI" name="KYMI" netid="HL" source="National Observatory of Athens Seismic Network" insttype="" lat="38.633147" lon="24.100138">
		<comp name="--.HNE" depth="1.0">
			<acc value="-0.052313964" flag="0"/>
			<vel value="0.02441" flag="0"/>
			<psa03 value="0.204292915419" flag="0"/>
			<psa10 value="0.010147532461" flag="0"/>
			<psa30 value="0.00119327465051" flag="0"/>
		</comp>
		<comp name="--.HNN" depth="1.0">
			<acc value="0.030167724" flag="0"/>
			<vel value="-0.013898" flag="0"/>
			<psa03 value="0.100177800618" flag="0"/>
			<psa10 value="0.0162441055348" flag="0"/>
			<psa30 value="0.00108141913396" flag="0"/>
		</comp>
		<comp name="--.HNZ" depth="1.0">
			<acc value="0.027971562" flag="0"/>
			<vel value="0.01034" flag="0"/>
			<psa03 value="0.112616134058" flag="0"/>
			<psa10 value="0.0109730261731" flag="0"/>
			<psa30 value="0.000738246409201" flag="0"/>
		</comp>
	</station>
</stationlist>
