<?xml version="1.0" encoding="UTF-8" standalone="yes"?>
<!DOCTYPE earthquake SYSTEM "stationlist.dtd">
<stationlist created="" xmlns="ch.ethz.sed.shakemap.usgs.xml">
  <station code="TIRR" name="TIRR" netid="GE" insttype="STS-2/N" lat="44.4581" lon="28.4128">
    <comp name="--.HHE">
      <acc value="0.0659656705" flag="0"/>
      <vel value="0.0083349259" flag="0"/>
      <psa03 value="0.0270147982" flag="0"/>
      <psa10 value="0.0020837715" flag="0"/>
      <psa30 value="0.0001687475" flag="0"/>
    </comp>
    <comp name="--.HHZ">
      <acc value="0.0446177253" flag="0"/>
      <vel value="0.0052018794" flag="0"/>
      <psa03 value="0.0148892060" flag="0"/>
      <psa10 value="0.0009424914" flag="0"/>
      <psa30 value="0.0000815824" flag="0"/>
    </comp>
    <comp name="--.HHN">
      <acc value="0.1111268850" flag="0"/>
      <vel value="0.0141506660" flag="0"/>
      <psa03 value="0.0287736464" flag="0"/>
      <psa10 value="0.0017292196" flag="0"/>
      <psa30 value="0.0001200872" flag="0"/>
    </comp>
  </station>
  <station code="CFR" name="CFR" netid="RO" insttype="CMG3T_100sec/Quanterra" lat="45.178" lon="28.1362">
    <comp name="--.HHE">
      <acc value="0.0669407610" flag="0"/>
      <vel value="0.0101785860" flag="0"/>
      <psa03 value="0.0451124553" flag="0"/>
      <psa10 value="0.0019047495" flag="0"/>
      <psa30 value="0.0001779640" flag="0"/>
    </comp>
    <comp name="--.HHN">
      <acc value="0.0746206603" flag="0"/>
      <vel value="0.0167466344" flag="0"/>
      <psa03 value="0.0573145057" flag="0"/>
      <psa10 value="0.0025018850" flag="0"/>
      <psa30 value="0.0001751788" flag="0"/>
    </comp>
    <comp name="--.HHZ">
      <acc value="0.0490563073" flag="0"/>
      <vel value="0.0078099498" flag="0"/>
      <psa03 value="0.0259046492" flag="0"/>
      <psa10 value="0.0008566113" flag="0"/>
      <psa30 value="0.0000861909" flag="0"/>
    </comp>
  </station>
  <station code="CHLR" name="CHLR" netid="RO" insttype="MBB2/Quanterra" lat="45.4245" lon="29.289">
    <comp name="--.HHE">
      <acc value="0.5640700290" flag="0"/>
      <vel value="0.1271111111" flag="0"/>
      <psa03 value="0.2794508447" flag="0"/>
      <psa10 value="0.0160223315" flag="0"/>
      <psa30 value="0.0019506401" flag="0"/>
    </comp>
    <comp name="--.HHZ">
      <acc value="0.2627484376" flag="0"/>
      <vel value="0.0196462030" flag="0"/>
      <psa03 value="0.0443848072" flag="0"/>
      <psa10 value="0.0020623435" flag="0"/>
      <psa30 value="0.0002254742" flag="0"/>
    </comp>
    <comp name="--.HHN">
      <acc value="0.2292128097" flag="0"/>
      <vel value="0.0378103068" flag="0"/>
      <psa03 value="0.0984534574" flag="0"/>
      <psa10 value="0.0057578402" flag="0"/>
      <psa30 value="0.0006898975" flag="0"/>
    </comp>
  </station>
  <station code="JURR" name="JURR" netid="RO" insttype="200" lat="44.7661" lon="28.8769">
    <comp name="--.HNE">
      <acc value="0.4398662890" flag="0"/>
      <vel value="0.1589825801" flag="0"/>
      <psa03 value="0.4482639584" flag="0"/>
      <psa10 value="0.0522222751" flag="0"/>
      <psa30 value="0.0186012884" flag="0"/>
    </comp>
    <comp name="--.HNN">
      <acc value="0.6541902911" flag="0"/>
      <vel value="0.2369384112" flag="0"/>
      <psa03 value="0.6769222239" flag="0"/>
      <psa10 value="0.1219093791" flag="0"/>
      <psa30 value="0.0311222964" flag="0"/>
    </comp>
    <comp name="--.HNZ">
      <acc value="0.3902768511" flag="0"/>
      <vel value="0.0911116558" flag="0"/>
      <psa03 value="0.2624024030" flag="0"/>
      <psa10 value="0.0287803921" flag="0"/>
      <psa30 value="0.0115260784" flag="0"/>
    </comp>
  </station>
  <station code="TLCR" name="TLCR" netid="RO" insttype="Seismometer/Quanterra" lat="45.1861" lon="28.8151">
    <comp name="--.HHE">
      <acc value="0.1262278997" flag="0"/>
      <vel value="0.0290918622" flag="0"/>
      <psa03 value="0.1012258452" flag="0"/>
      <psa10 value="0.0040622928" flag="0"/>
      <psa30 value="0.0004209144" flag="0"/>
    </comp>
    <comp name="--.HHN">
      <acc value="0.1374056257" flag="0"/>
      <vel value="0.0312127158" flag="0"/>
      <psa03 value="0.0845891822" flag="0"/>
      <psa10 value="0.0054510750" flag="0"/>
      <psa30 value="0.0004380539" flag="0"/>
    </comp>
    <comp name="--.HHZ">
      <acc value="0.0934002934" flag="0"/>
      <vel value="0.0283154226" flag="0"/>
      <psa03 value="0.0747232393" flag="0"/>
      <psa10 value="0.0050542763" flag="0"/>
      <psa30 value="0.0007432511" flag="0"/>
    </comp>
  </station>
  <station code="TPGR" name="TPGR" netid="RO" insttype="PBB.1to100/Quanterra" lat="44.8565" lon="28.4196">
    <comp name="--.HHE">
      <acc value="0.2582791378" flag="0"/>
      <vel value="0.0352515686" flag="0"/>
      <psa03 value="0.1351915123" flag="0"/>
      <psa10 value="0.0069287252" flag="0"/>
      <psa30 value="0.0006619493" flag="0"/>
    </comp>
    <comp name="--.HHZ">
      <acc value="0.0898274902" flag="0"/>
      <vel value="0.0146971641" flag="0"/>
      <psa03 value="0.0474462106" flag="0"/>
      <psa10 value="0.0054963014" flag="0"/>
      <psa30 value="0.0002450272" flag="0"/>
    </comp>
    <comp name="--.HHN">
      <acc value="0.2806593081" flag="0"/>
      <vel value="0.0614049887" flag="0"/>
      <psa03 value="0.1637852689" flag="0"/>
      <psa10 value="0.0087363818" flag="0"/>
      <psa30 value="0.0014316500" flag="0"/>
    </comp>
  </station>
  <station code="TSSL" name="TSSL" netid="RO" insttype="MBB2/Quanterra" lat="45.1621" lon="29.7269">
    <comp name="--.HHE">
      <acc value="1.2543160708" flag="0"/>
      <vel value="0.2278888351" flag="0"/>
      <psa03 value="0.4725151832" flag="0"/>
      <psa10 value="0.0397171569" flag="0"/>
      <psa30 value="0.0045067640" flag="0"/>
    </comp>
    <comp name="--.HHZ">
      <acc value="0.4106242658" flag="0"/>
      <vel value="0.0873531215" flag="0"/>
      <psa03 value="0.1422855185" flag="0"/>
      <psa10 value="0.0074520867" flag="0"/>
      <psa30 value="0.0007421387" flag="0"/>
    </comp>
    <comp name="--.HHN">
      <acc value="0.6047782195" flag="0"/>
      <vel value="0.1154670835" flag="0"/>
      <psa03 value="0.3284020646" flag="0"/>
      <psa10 value="0.0251849983" flag="0"/>
      <psa30 value="0.0027152190" flag="0"/>
    </comp>
  </station>
</stationlist>
