<?xml version="1.0" encoding="UTF-8" standalone="yes"?>
<!DOCTYPE earthquake SYSTEM "stationlist.dtd">
<stationlist created="" xmlns="ch.ethz.sed.shakemap.usgs.xml">
  <station code="TIRR" name="TIRR" netid="GE" insttype="STS-2/N" lat="44.4581" lon="28.4128">
    <comp name="--.HHE">
      <acc value="0.0659656700" flag="0"/>
      <vel value="0.0083349258" flag="0"/>
      <psa03 value="0.0270147982" flag="0"/>
      <psa10 value="0.0020837715" flag="0"/>
      <psa30 value="0.0001687310" flag="0"/>
    </comp>
    <comp name="--.HHZ">
      <acc value="0.0446177253" flag="0"/>
      <vel value="0.0052018791" flag="0"/>
      <psa03 value="0.0148892060" flag="0"/>
      <psa10 value="0.0009424914" flag="0"/>
      <psa30 value="0.0000815784" flag="0"/>
    </comp>
    <comp name="--.HHN">
      <acc value="0.1111268851" flag="0"/>
      <vel value="0.0141506673" flag="0"/>
      <psa03 value="0.0287736464" flag="0"/>
      <psa10 value="0.0017292196" flag="0"/>
      <psa30 value="0.0001200782" flag="0"/>
    </comp>
  </station>
  <station code="CFR" name="CFR" netid="RO" insttype="CMG3T_100sec/Quanterra" lat="45.178" lon="28.1362">
    <comp name="--.HHE">
      <acc value="0.0669407611" flag="0"/>
      <vel value="0.0101785858" flag="0"/>
      <psa03 value="0.0451124553" flag="0"/>
      <psa10 value="0.0019047495" flag="0"/>
      <psa30 value="0.0001779598" flag="0"/>
    </comp>
    <comp name="--.HHN">
      <acc value="0.0746206601" flag="0"/>
      <vel value="0.0167466344" flag="0"/>
      <psa03 value="0.0573145057" flag="0"/>
      <psa10 value="0.0025018850" flag="0"/>
      <psa30 value="0.0001751733" flag="0"/>
    </comp>
    <comp name="--.HHZ">
      <acc value="0.0490563073" flag="0"/>
      <vel value="0.0078099498" flag="0"/>
      <psa03 value="0.0259046492" flag="0"/>
      <psa10 value="0.0008566113" flag="0"/>
      <psa30 value="0.0000861931" flag="0"/>
    </comp>
  </station>
  <station code="CHLR" name="CHLR" netid="RO" insttype="MBB2/Quanterra" lat="45.4245" lon="29.289">
    <comp name="--.HHE">
      <acc value="0.5640700290" flag="0"/>
      <vel value="0.1271111108" flag="0"/>
      <psa03 value="0.2794508447" flag="0"/>
      <psa10 value="0.0160223311" flag="0"/>
      <psa30 value="0.0019506780" flag="0"/>
    </comp>
    <comp name="--.HHN">
      <acc value="0.2292128097" flag="0"/>
      <vel value="0.0378103076" flag="0"/>
      <psa03 value="0.0984534574" flag="0"/>
      <psa10 value="0.0057578406" flag="0"/>
      <psa30 value="0.0006899104" flag="0"/>
    </comp>
    <comp name="--.HHZ">
      <acc value="0.2627484376" flag="0"/>
      <vel value="0.0196462035" flag="0"/>
      <psa03 value="0.0443848072" flag="0"/>
      <psa10 value="0.0020623436" flag="0"/>
      <psa30 value="0.0002254996" flag="0"/>
    </comp>
  </station>
  <station code="GISR" name="GISR" netid="RO" insttype="2.5V" lat="45.4411" lon="28.0541">
    <comp name="--.HNN">
      <acc value="0.0380430045" flag="0"/>
      <vel value="0.0132034005" flag="0"/>
      <psa03 value="0.0803822076" flag="0"/>
      <psa10 value="0.0059370796" flag="0"/>
      <psa30 value="0.0005310809" flag="0"/>
    </comp>
    <comp name="--.HNZ">
      <acc value="0.0640228611" flag="0"/>
      <vel value="0.0115667537" flag="0"/>
      <psa03 value="0.0401849451" flag="0"/>
      <psa10 value="0.0029957744" flag="0"/>
      <psa30 value="0.0004598949" flag="0"/>
    </comp>
    <comp name="--.HNE">
      <acc value="0.0509130470" flag="0"/>
      <vel value="0.0137582808" flag="0"/>
      <psa03 value="0.0591469840" flag="0"/>
      <psa10 value="0.0066442328" flag="0"/>
      <psa30 value="0.0007177163" flag="0"/>
    </comp>
  </station>
  <station code="JURR" name="JURR" netid="RO" insttype="200" lat="44.7661" lon="28.8769">
    <comp name="--.HNE">
      <acc value="0.4398662878" flag="0"/>
      <vel value="0.1589825813" flag="0"/>
      <psa03 value="0.4482639584" flag="0"/>
      <psa10 value="0.0522222742" flag="0"/>
      <psa30 value="0.0186014865" flag="0"/>
    </comp>
    <comp name="--.HNN">
      <acc value="0.6541903073" flag="0"/>
      <vel value="0.2369384086" flag="0"/>
      <psa03 value="0.6769222239" flag="0"/>
      <psa10 value="0.1219093778" flag="0"/>
      <psa30 value="0.0311225398" flag="0"/>
    </comp>
    <comp name="--.HNZ">
      <acc value="0.3902768561" flag="0"/>
      <vel value="0.0911116610" flag="0"/>
      <psa03 value="0.2624024030" flag="0"/>
      <psa10 value="0.0287804087" flag="0"/>
      <psa30 value="0.0115248934" flag="0"/>
    </comp>
  </station>
  <station code="TLCR" name="TLCR" netid="RO" insttype="Seismometer/Quanterra" lat="45.1861" lon="28.8151">
    <comp name="--.HHN">
      <acc value="0.1374056257" flag="0"/>
      <vel value="0.0312127157" flag="0"/>
      <psa03 value="0.0845891822" flag="0"/>
      <psa10 value="0.0054510750" flag="0"/>
      <psa30 value="0.0004380582" flag="0"/>
    </comp>
    <comp name="--.HHZ">
      <acc value="0.0934002934" flag="0"/>
      <vel value="0.0283154224" flag="0"/>
      <psa03 value="0.0747232393" flag="0"/>
      <psa10 value="0.0050542762" flag="0"/>
      <psa30 value="0.0007432498" flag="0"/>
    </comp>
    <comp name="--.HHE">
      <acc value="0.1262278997" flag="0"/>
      <vel value="0.0290918624" flag="0"/>
      <psa03 value="0.1012258452" flag="0"/>
      <psa10 value="0.0040622928" flag="0"/>
      <psa30 value="0.0004209051" flag="0"/>
    </comp>
  </station>
  <station code="TPGR" name="TPGR" netid="RO" insttype="PBB.1to100/Quanterra" lat="44.8565" lon="28.4196">
    <comp name="--.HHN">
      <acc value="0.2806593081" flag="0"/>
      <vel value="0.0614049906" flag="0"/>
      <psa03 value="0.1637852689" flag="0"/>
      <psa10 value="0.0087363818" flag="0"/>
      <psa30 value="0.0014316716" flag="0"/>
    </comp>
    <comp name="--.HHE">
      <acc value="0.2582791377" flag="0"/>
      <vel value="0.0352515727" flag="0"/>
      <psa03 value="0.1351915123" flag="0"/>
      <psa10 value="0.0069287252" flag="0"/>
      <psa30 value="0.0006619613" flag="0"/>
    </comp>
    <comp name="--.HHZ">
      <acc value="0.0898274904" flag="0"/>
      <vel value="0.0146971638" flag="0"/>
      <psa03 value="0.0474462106" flag="0"/>
      <psa10 value="0.0054963014" flag="0"/>
      <psa30 value="0.0002450301" flag="0"/>
    </comp>
  </station>
  <station code="TSSL" name="TSSL" netid="RO" insttype="MBB2/Quanterra" lat="45.1621" lon="29.7269">
    <comp name="--.HHE">
      <acc value="1.2543160702" flag="0"/>
      <vel value="0.2278888448" flag="0"/>
      <psa03 value="0.4725151832" flag="0"/>
      <psa10 value="0.0397171588" flag="0"/>
      <psa30 value="0.0045075588" flag="0"/>
    </comp>
    <comp name="--.HHN">
      <acc value="0.6047782194" flag="0"/>
      <vel value="0.1154670881" flag="0"/>
      <psa03 value="0.3284020646" flag="0"/>
      <psa10 value="0.0251849833" flag="0"/>
      <psa30 value="0.0027156355" flag="0"/>
    </comp>
    <comp name="--.HHZ">
      <acc value="0.4106242651" flag="0"/>
      <vel value="0.0873531204" flag="0"/>
      <psa03 value="0.1422855185" flag="0"/>
      <psa10 value="0.0074521492" flag="0"/>
      <psa30 value="0.0007429044" flag="0"/>
    </comp>
  </station>
</stationlist>
