<?xml version="1.0" encoding="UTF-8" standalone="yes"?>
<!DOCTYPE earthquake SYSTEM "stationlist.dtd">
<stationlist created="" xmlns="ch.ethz.sed.shakemap.usgs.xml">
  <station code="KBN" name="KBN" netid="AC" insttype="" lat="40.6236" lon="20.7874">
    <comp name="--.HHE">
      <acc value="0.0010477676" flag="0"/>
      <vel value="0.0008642828" flag="0"/>
      <psa03 value="0.0027869628" flag="0"/>
      <psa10 value="0.0009256861" flag="0"/>
      <psa30 value="0.0001121234" flag="0"/>
    </comp>
    <comp name="--.HHZ">
      <acc value="0.0007620816" flag="0"/>
      <vel value="0.0005624972" flag="0"/>
      <psa03 value="0.0023149219" flag="0"/>
      <psa10 value="0.0007781954" flag="0"/>
      <psa30 value="0.0000770779" flag="0"/>
    </comp>
    <comp name="--.HHN">
      <acc value="0.0009687654" flag="0"/>
      <vel value="0.0010827018" flag="0"/>
      <psa03 value="0.0026758228" flag="0"/>
      <psa10 value="0.0015018493" flag="0"/>
      <psa30 value="0.0000947022" flag="0"/>
    </comp>
  </station>
  <station code="LSK" name="LSK" netid="AC" insttype="" lat="40.1499" lon="20.5987">
    <comp name="--.HHE">
      <acc value="1.4558484296" flag="0"/>
      <vel value="0.0467761750" flag="0"/>
      <psa03 value="0.0714967551" flag="0"/>
      <psa10 value="0.0241312268" flag="0"/>
      <psa30 value="0.0019783272" flag="0"/>
    </comp>
    <comp name="--.HHN">
      <acc value="0.0151869662" flag="0"/>
      <vel value="0.0086156352" flag="0"/>
      <psa03 value="0.0302227480" flag="0"/>
      <psa10 value="0.0095559836" flag="0"/>
      <psa30 value="0.0005727872" flag="0"/>
    </comp>
    <comp name="--.HHZ">
      <acc value="0.0093532116" flag="0"/>
      <vel value="0.0062671154" flag="0"/>
      <psa03 value="0.0192225618" flag="0"/>
      <psa10 value="0.0113955618" flag="0"/>
      <psa30 value="0.0006625978" flag="0"/>
    </comp>
  </station>
  <station code="SRN" name="SRN" netid="AC" insttype="" lat="39.88" lon="20.0005">
    <comp name="--.HHE">
      <acc value="0.0038355083" flag="0"/>
      <vel value="0.0012249072" flag="0"/>
      <psa03 value="0.0049054684" flag="0"/>
      <psa10 value="0.0012943378" flag="0"/>
      <psa30 value="0.0001202912" flag="0"/>
    </comp>
    <comp name="--.HHN">
      <acc value="0.0027423813" flag="0"/>
      <vel value="0.0010499995" flag="0"/>
      <psa03 value="0.0072618251" flag="0"/>
      <psa10 value="0.0007008947" flag="0"/>
      <psa30 value="0.0000839382" flag="0"/>
    </comp>
    <comp name="--.HHZ">
      <acc value="0.0026444916" flag="0"/>
      <vel value="0.0009065546" flag="0"/>
      <psa03 value="0.0055822053" flag="0"/>
      <psa10 value="0.0008011578" flag="0"/>
      <psa30 value="0.0000970452" flag="0"/>
    </comp>
  </station>
  <station code="JAN" name="JAN" netid="HL" insttype="CMG3EPSC60_DR24" lat="39.6562" lon="20.8487">
    <comp name="--.HHZ">
      <acc value="0.0664467693" flag="0"/>
      <vel value="0.0189713338" flag="0"/>
      <psa03 value="0.1316562453" flag="0"/>
      <psa10 value="0.0060677779" flag="0"/>
      <psa30 value="0.0006110851" flag="0"/>
    </comp>
    <comp name="--.HHN">
      <acc value="0.0906782915" flag="0"/>
      <vel value="0.0310681995" flag="0"/>
      <psa03 value="0.2676646413" flag="0"/>
      <psa10 value="0.0072445431" flag="0"/>
      <psa30 value="0.0008313902" flag="0"/>
    </comp>
    <comp name="--.HHE">
      <acc value="0.1521832977" flag="0"/>
      <vel value="0.0679097194" flag="0"/>
      <psa03 value="0.4943630269" flag="0"/>
      <psa10 value="0.0194639473" flag="0"/>
      <psa30 value="0.0018922089" flag="0"/>
    </comp>
  </station>
  <station code="TETR" name="TETR" netid="HL" insttype="60" lat="39.3445" lon="21.2747">
    <comp name="--.HHE">
      <acc value="0.0499097360" flag="0"/>
      <vel value="0.0158543833" flag="0"/>
      <psa03 value="0.0724455482" flag="0"/>
      <psa10 value="0.0077343937" flag="0"/>
      <psa30 value="0.0004583106" flag="0"/>
    </comp>
    <comp name="--.HHN">
      <acc value="0.0363971833" flag="0"/>
      <vel value="0.0130996079" flag="0"/>
      <psa03 value="0.0574281936" flag="0"/>
      <psa10 value="0.0046966066" flag="0"/>
      <psa30 value="0.0003721170" flag="0"/>
    </comp>
    <comp name="--.HHZ">
      <acc value="0.0170804471" flag="0"/>
      <vel value="0.0059508511" flag="0"/>
      <psa03 value="0.0271581090" flag="0"/>
      <psa10 value="0.0033390450" flag="0"/>
      <psa30 value="0.0002798792" flag="0"/>
    </comp>
  </station>
  <station code="THL" name="THL" netid="HL" insttype="120" lat="39.5647" lon="22.0144">
    <comp name="--.HHE">
      <acc value="0.0011871265" flag="0"/>
      <vel value="0.0008842958" flag="0"/>
      <psa03 value="0.0044450814" flag="0"/>
      <psa10 value="0.0011962653" flag="0"/>
      <psa30 value="0.0000728642" flag="0"/>
    </comp>
    <comp name="--.HHN">
      <acc value="0.0009790135" flag="0"/>
      <vel value="0.0008021969" flag="0"/>
      <psa03 value="0.0032335437" flag="0"/>
      <psa10 value="0.0017679822" flag="0"/>
      <psa30 value="0.0000752862" flag="0"/>
    </comp>
    <comp name="--.HHZ">
      <acc value="0.0008377839" flag="0"/>
      <vel value="0.0006024088" flag="0"/>
      <psa03 value="0.0032794717" flag="0"/>
      <psa10 value="0.0010765712" flag="0"/>
      <psa30 value="0.0000645047" flag="0"/>
    </comp>
  </station>
  <station code="AMPL" name="AMPL" netid="HP" insttype="Compact," lat="38.9224" lon="21.2135">
    <comp name="--.HHZ">
      <acc value="0.0058176137" flag="0"/>
      <vel value="0.0021047848" flag="0"/>
      <psa03 value="0.0141471056" flag="0"/>
      <psa10 value="0.0014763699" flag="0"/>
      <psa30 value="0.0000898637" flag="0"/>
    </comp>
    <comp name="--.HHE">
      <acc value="0.0187088884" flag="0"/>
      <vel value="0.0059484576" flag="0"/>
      <psa03 value="0.0231506442" flag="0"/>
      <psa10 value="0.0021137194" flag="0"/>
      <psa30 value="0.0001996266" flag="0"/>
    </comp>
    <comp name="--.HHN">
      <acc value="0.0104815799" flag="0"/>
      <vel value="0.0033499067" flag="0"/>
      <psa03 value="0.0214154669" flag="0"/>
      <psa10 value="0.0021497173" flag="0"/>
      <psa30 value="0.0001122493" flag="0"/>
    </comp>
  </station>
  <station code="FSK" name="FSK" netid="HP" insttype="40," lat="38.4593" lon="20.5623">
    <comp name="--.HHE">
      <acc value="0.0128829488" flag="0"/>
      <vel value="0.0049790989" flag="0"/>
      <psa03 value="0.0457780250" flag="0"/>
      <psa10 value="0.0023331493" flag="0"/>
      <psa30 value="0.0002231774" flag="0"/>
    </comp>
    <comp name="--.HHN">
      <acc value="0.0071484208" flag="0"/>
      <vel value="0.0025736641" flag="0"/>
      <psa03 value="0.0239487725" flag="0"/>
      <psa10 value="0.0011081981" flag="0"/>
      <psa30 value="0.0001041534" flag="0"/>
    </comp>
    <comp name="--.HHZ">
      <acc value="0.0043625237" flag="0"/>
      <vel value="0.0013757676" flag="0"/>
      <psa03 value="0.0097751700" flag="0"/>
      <psa10 value="0.0008040596" flag="0"/>
      <psa30 value="0.0000714014" flag="0"/>
    </comp>
  </station>
  <station code="PDO" name="PDO" netid="HP" insttype="120s" lat="38.5986" lon="21.1833">
    <comp name="--.HHE">
      <acc value="0.0084664205" flag="0"/>
      <vel value="0.0034555186" flag="0"/>
      <psa03 value="0.0161278299" flag="0"/>
      <psa10 value="0.0029793624" flag="0"/>
      <psa30 value="0.0001894401" flag="0"/>
    </comp>
    <comp name="--.HHN">
      <acc value="0.0083902452" flag="0"/>
      <vel value="0.0033093945" flag="0"/>
      <psa03 value="0.0181960090" flag="0"/>
      <psa10 value="0.0024573656" flag="0"/>
      <psa30 value="0.0001927134" flag="0"/>
    </comp>
    <comp name="--.HHZ">
      <acc value="0.0080206224" flag="0"/>
      <vel value="0.0024306449" flag="0"/>
      <psa03 value="0.0134528334" flag="0"/>
      <psa10 value="0.0011521672" flag="0"/>
      <psa30 value="0.0000751004" flag="0"/>
    </comp>
  </station>
  <station code="PRMD" name="PRMD" netid="HP" insttype="120P," lat="39.5299" lon="21.0965">
    <comp name="--.HHZ">
      <acc value="0.0172837544" flag="0"/>
      <vel value="0.0065805650" flag="0"/>
      <psa03 value="0.0438784780" flag="0"/>
      <psa10 value="0.0043449692" flag="0"/>
      <psa30 value="0.0003274705" flag="0"/>
    </comp>
    <comp name="--.HHN">
      <acc value="0.0302683460" flag="0"/>
      <vel value="0.0135887616" flag="0"/>
      <psa03 value="0.0440946358" flag="0"/>
      <psa10 value="0.0059429274" flag="0"/>
      <psa30 value="0.0005060490" flag="0"/>
    </comp>
    <comp name="--.HHE">
      <acc value="0.0258874338" flag="0"/>
      <vel value="0.0093916176" flag="0"/>
      <psa03 value="0.0751586791" flag="0"/>
      <psa10 value="0.0090487408" flag="0"/>
      <psa30 value="0.0003767851" flag="0"/>
    </comp>
  </station>
  <station code="VRKS" name="VRKS" netid="HP" insttype="" lat="39.784" lon="21.9765">
    <comp name="--.HHZ">
      <acc value="0.0038297724" flag="0"/>
      <vel value="0.0008686368" flag="0"/>
      <psa03 value="0.0044309968" flag="0"/>
      <psa10 value="0.0007587038" flag="0"/>
      <psa30 value="0.0000566574" flag="0"/>
    </comp>
    <comp name="--.HHE">
      <acc value="0.0032651928" flag="0"/>
      <vel value="0.0010327698" flag="0"/>
      <psa03 value="0.0049283591" flag="0"/>
      <psa10 value="0.0011951250" flag="0"/>
      <psa30 value="0.0000539500" flag="0"/>
    </comp>
    <comp name="--.HHN">
      <acc value="0.0036605443" flag="0"/>
      <vel value="0.0014740029" flag="0"/>
      <psa03 value="0.0078819880" flag="0"/>
      <psa10 value="0.0009517524" flag="0"/>
      <psa30 value="0.0000823408" flag="0"/>
    </comp>
  </station>
  <station code="DRAG" name="DRAG" netid="HT" insttype="1s-100Hz," lat="38.6839" lon="20.5746">
    <comp name="--.HHE">
      <acc value="0.0848831138" flag="0"/>
      <vel value="0.0203525863" flag="0"/>
      <psa03 value="0.0985384577" flag="0"/>
      <psa10 value="0.0087496451" flag="0"/>
      <psa30 value="0.0005337230" flag="0"/>
    </comp>
    <comp name="--.HHN">
      <acc value="0.0593396653" flag="0"/>
      <vel value="0.0154734665" flag="0"/>
      <psa03 value="0.0607910739" flag="0"/>
      <psa10 value="0.0061957949" flag="0"/>
      <psa30 value="0.0003834045" flag="0"/>
    </comp>
    <comp name="--.HHZ">
      <acc value="0.0292121184" flag="0"/>
      <vel value="0.0064441754" flag="0"/>
      <psa03 value="0.0268946915" flag="0"/>
      <psa10 value="0.0026812484" flag="0"/>
      <psa30 value="0.0001062483" flag="0"/>
    </comp>
  </station>
  <station code="EVGI" name="EVGI" netid="HT" insttype="30" lat="38.621" lon="20.656">
    <comp name="--.HHE">
      <acc value="0.0308571324" flag="0"/>
      <vel value="0.0049976636" flag="0"/>
      <psa03 value="0.0314211317" flag="0"/>
      <psa10 value="0.0023682641" flag="0"/>
      <psa30 value="0.0001119065" flag="0"/>
    </comp>
    <comp name="--.HHZ">
      <acc value="0.0220977826" flag="0"/>
      <vel value="0.0053754085" flag="0"/>
      <psa03 value="0.0161223662" flag="0"/>
      <psa10 value="0.0010425146" flag="0"/>
      <psa30 value="0.0000972290" flag="0"/>
    </comp>
    <comp name="--.HHN">
      <acc value="0.0261548581" flag="0"/>
      <vel value="0.0061501577" flag="0"/>
      <psa03 value="0.0472487280" flag="0"/>
      <psa10 value="0.0028345413" flag="0"/>
      <psa30 value="0.0001467055" flag="0"/>
    </comp>
  </station>
  <station code="IGT" name="IGT" netid="HT" insttype="100" lat="39.5315" lon="20.3299">
    <comp name="--.HHZ">
      <acc value="0.1095873089" flag="0"/>
      <vel value="0.0247789727" flag="0"/>
      <psa03 value="0.0878175682" flag="0"/>
      <psa10 value="0.0134250819" flag="0"/>
      <psa30 value="0.0010465099" flag="0"/>
    </comp>
    <comp name="--.HHN">
      <acc value="0.1805909233" flag="0"/>
      <vel value="0.0368556366" flag="0"/>
      <psa03 value="0.1294909694" flag="0"/>
      <psa10 value="0.0088071839" flag="0"/>
      <psa30 value="0.0005845322" flag="0"/>
    </comp>
    <comp name="--.HHE">
      <acc value="0.1589546381" flag="0"/>
      <vel value="0.0292377630" flag="0"/>
      <psa03 value="0.1617677182" flag="0"/>
      <psa10 value="0.0115051640" flag="0"/>
      <psa30 value="0.0009991615" flag="0"/>
    </comp>
  </station>
  <station code="LKD2" name="LKD2" netid="HT" insttype="100" lat="38.7889" lon="20.6578">
    <comp name="--.HHZ">
      <acc value="0.0100100795" flag="0"/>
      <vel value="0.0019403633" flag="0"/>
      <psa03 value="0.0098165023" flag="0"/>
      <psa10 value="0.0008959975" flag="0"/>
      <psa30 value="0.0000913783" flag="0"/>
    </comp>
    <comp name="--.HHN">
      <acc value="0.0146400600" flag="0"/>
      <vel value="0.0036712667" flag="0"/>
      <psa03 value="0.0256845369" flag="0"/>
      <psa10 value="0.0015730655" flag="0"/>
      <psa30 value="0.0001117668" flag="0"/>
    </comp>
    <comp name="--.HHE">
      <acc value="0.0179396874" flag="0"/>
      <vel value="0.0047727335" flag="0"/>
      <psa03 value="0.0258624101" flag="0"/>
      <psa10 value="0.0017644727" flag="0"/>
      <psa30 value="0.0001428012" flag="0"/>
    </comp>
  </station>
  <station code="NEST" name="NEST" netid="HT" insttype="120P," lat="40.4147" lon="21.0489">
    <comp name="--.HHE">
      <acc value="0.0039457846" flag="0"/>
      <vel value="0.0011935454" flag="0"/>
      <psa03 value="0.0072373467" flag="0"/>
      <psa10 value="0.0013834648" flag="0"/>
      <psa30 value="0.0001229854" flag="0"/>
    </comp>
    <comp name="--.HHN">
      <acc value="0.0030725111" flag="0"/>
      <vel value="0.0010603752" flag="0"/>
      <psa03 value="0.0064591662" flag="0"/>
      <psa10 value="0.0009718157" flag="0"/>
      <psa30 value="0.0000902931" flag="0"/>
    </comp>
    <comp name="--.HHZ">
      <acc value="0.0025981377" flag="0"/>
      <vel value="0.0014312875" flag="0"/>
      <psa03 value="0.0084555724" flag="0"/>
      <psa10 value="0.0015589579" flag="0"/>
      <psa30 value="0.0001023078" flag="0"/>
    </comp>
  </station>
  <station code="NYDR" name="NYDR" netid="HT" insttype="1s-100Hz," lat="38.7135" lon="20.6983">
    <comp name="--.HHZ">
      <acc value="0.0077939693" flag="0"/>
      <vel value="0.0020690698" flag="0"/>
      <psa03 value="0.0119491290" flag="0"/>
      <psa10 value="0.0010227080" flag="0"/>
      <psa30 value="0.0000743649" flag="0"/>
    </comp>
    <comp name="--.HHE">
      <acc value="0.0139752286" flag="0"/>
      <vel value="0.0029762272" flag="0"/>
      <psa03 value="0.0103155092" flag="0"/>
      <psa10 value="0.0025827641" flag="0"/>
      <psa30 value="0.0001370334" flag="0"/>
    </comp>
    <comp name="--.HHN">
      <acc value="0.0245592962" flag="0"/>
      <vel value="0.0051340121" flag="0"/>
      <psa03 value="0.0242830610" flag="0"/>
      <psa10 value="0.0019213662" flag="0"/>
      <psa30 value="0.0001140719" flag="0"/>
    </comp>
  </station>
  <station code="TSLK" name="TSLK" netid="HT" insttype="1s-100Hz," lat="38.8249" lon="20.6554">
    <comp name="--.HHE">
      <acc value="0.0187922114" flag="0"/>
      <vel value="0.0046844182" flag="0"/>
      <psa03 value="0.0241523045" flag="0"/>
      <psa10 value="0.0018685500" flag="0"/>
      <psa30 value="0.0002728329" flag="0"/>
    </comp>
    <comp name="--.HHZ">
      <acc value="0.0125478465" flag="0"/>
      <vel value="0.0026274452" flag="0"/>
      <psa03 value="0.0128457294" flag="0"/>
      <psa10 value="0.0009996151" flag="0"/>
      <psa30 value="0.0001366404" flag="0"/>
    </comp>
    <comp name="--.HHN">
      <acc value="0.0222541442" flag="0"/>
      <vel value="0.0072500943" flag="0"/>
      <psa03 value="0.0336887149" flag="0"/>
      <psa10 value="0.0026588413" flag="0"/>
      <psa30 value="0.0002540273" flag="0"/>
    </comp>
  </station>
  <station code="THL" name="THL" netid="MN" insttype="" lat="39.5647" lon="22.0144">
    <comp name="--.HHE">
      <acc value="0.0011871265" flag="0"/>
      <vel value="0.0008842958" flag="0"/>
      <psa03 value="0.0044450814" flag="0"/>
      <psa10 value="0.0011962653" flag="0"/>
      <psa30 value="0.0000728642" flag="0"/>
    </comp>
    <comp name="--.HHN">
      <acc value="0.0009790135" flag="0"/>
      <vel value="0.0008021969" flag="0"/>
      <psa03 value="0.0032335437" flag="0"/>
      <psa10 value="0.0017679822" flag="0"/>
      <psa30 value="0.0000752862" flag="0"/>
    </comp>
    <comp name="--.HHZ">
      <acc value="0.0008377839" flag="0"/>
      <vel value="0.0006024088" flag="0"/>
      <psa03 value="0.0032794717" flag="0"/>
      <psa10 value="0.0010765712" flag="0"/>
      <psa30 value="0.0000645047" flag="0"/>
    </comp>
  </station>
</stationlist>
