<?xml version="1.0" encoding="UTF-8" standalone="yes"?>
<!DOCTYPE earthquake SYSTEM "stationlist.dtd">
<stationlist created="" xmlns="ch.ethz.sed.shakemap.usgs.xml">
  <station code="AGRP" name="AGRP" netid="CL" insttype="CMG40-T" commtype="DIG" lat="38.3959" lon="21.7228">
    <comp name="00.HHE">
      <acc value="0.1380018926" flag="0"/>
      <vel value="0.0694937697" flag="0"/>
      <psa03 value="0.4796224948" flag="0"/>
      <psa10 value="0.0740576765" flag="0"/>
      <psa30 value="0.0032357501" flag="0"/>
    </comp>
    <comp name="00.HHN">
      <acc value="0.0823959511" flag="0"/>
      <vel value="0.0389905542" flag="0"/>
      <psa03 value="0.2424437550" flag="0"/>
      <psa10 value="0.0474344285" flag="0"/>
      <psa30 value="0.0042435440" flag="0"/>
    </comp>
    <comp name="00.HHZ">
      <acc value="0.0495763054" flag="0"/>
      <vel value="0.0261395137" flag="0"/>
      <psa03 value="0.1525562542" flag="0"/>
      <psa10 value="0.0324955631" flag="0"/>
      <psa30 value="0.0040726812" flag="0"/>
    </comp>
  </station>
  <station code="MALA" name="MALA" netid="CL" insttype="TRILLIUM-40" commtype="DIG" lat="38.3934" lon="21.8726">
    <comp name="01.HHE">
      <acc value="0.3016369225" flag="0"/>
      <vel value="0.1358498523" flag="0"/>
      <psa03 value="0.4987117974" flag="0"/>
      <psa10 value="0.2561980559" flag="0"/>
      <psa30 value="0.0133499375" flag="0"/>
    </comp>
    <comp name="01.HHN">
      <acc value="0.3994318866" flag="0"/>
      <vel value="0.1476975984" flag="0"/>
      <psa03 value="0.4814641863" flag="0"/>
      <psa10 value="0.3483692609" flag="0"/>
      <psa30 value="0.0145491175" flag="0"/>
    </comp>
    <comp name="01.HHZ">
      <acc value="0.0806915129" flag="0"/>
      <vel value="0.0575565708" flag="0"/>
      <psa03 value="0.1467108685" flag="0"/>
      <psa10 value="0.1080277252" flag="0"/>
      <psa30 value="0.0061415206" flag="0"/>
    </comp>
  </station>
  <station code="MG06" name="MG06" netid="CL" insttype="TRILLIUM-40" commtype="DIG" lat="38.4129" lon="21.9462">
    <comp name="06.HHE">
      <acc value="0.2187922816" flag="0"/>
      <vel value="0.0547415561" flag="0"/>
      <psa03 value="0.3682535093" flag="0"/>
      <psa10 value="0.0521560039" flag="0"/>
      <psa30 value="0.0056486193" flag="0"/>
    </comp>
    <comp name="06.HHN">
      <acc value="0.2580895406" flag="0"/>
      <vel value="0.0658602101" flag="0"/>
      <psa03 value="0.2466385377" flag="0"/>
      <psa10 value="0.0488733370" flag="0"/>
      <psa30 value="0.0045869128" flag="0"/>
    </comp>
    <comp name="06.HHZ">
      <acc value="0.1273193845" flag="0"/>
      <vel value="0.0289659422" flag="0"/>
      <psa03 value="0.1437164378" flag="0"/>
      <psa10 value="0.0417849344" flag="0"/>
      <psa30 value="0.0052564236" flag="0"/>
    </comp>
  </station>
  <station code="PSAM" name="PSAM" netid="CL" insttype="CMG40-T" commtype="DIG" lat="38.3218" lon="22.1842">
    <comp name="00.HHE">
      <acc value="0.0851330180" flag="0"/>
      <vel value="0.0507306108" flag="0"/>
      <psa03 value="0.2258109675" flag="0"/>
      <psa10 value="0.0906672806" flag="0"/>
      <psa30 value="0.0058656453" flag="0"/>
    </comp>
    <comp name="00.HHN">
      <acc value="0.0887051074" flag="0"/>
      <vel value="0.0539258976" flag="0"/>
      <psa03 value="0.1336158603" flag="0"/>
      <psa10 value="0.0615204553" flag="0"/>
      <psa30 value="0.0055435187" flag="0"/>
    </comp>
    <comp name="00.HHZ">
      <acc value="0.1634161307" flag="0"/>
      <vel value="0.0275507608" flag="0"/>
      <psa03 value="0.0922575132" flag="0"/>
      <psa10 value="0.0369874400" flag="0"/>
      <psa30 value="0.0025038035" flag="0"/>
    </comp>
  </station>
  <station code="ROD3" name="ROD3" netid="CL" insttype="CMG40-T" commtype="DIG" lat="38.3081" lon="21.892">
    <comp name="00.HHE">
      <acc value="0.2132538967" flag="0"/>
      <vel value="0.0634441040" flag="0"/>
      <psa03 value="0.4778900084" flag="0"/>
      <psa10 value="0.0502965760" flag="0"/>
      <psa30 value="0.0056416563" flag="0"/>
    </comp>
    <comp name="00.HHN">
      <acc value="0.2609533675" flag="0"/>
      <vel value="0.0871364836" flag="0"/>
      <psa03 value="0.4690706941" flag="0"/>
      <psa10 value="0.0658712403" flag="0"/>
      <psa30 value="0.0048481835" flag="0"/>
    </comp>
    <comp name="00.HHZ">
      <acc value="0.0898207423" flag="0"/>
      <vel value="0.0342605993" flag="0"/>
      <psa03 value="0.1149842849" flag="0"/>
      <psa10 value="0.0571663317" flag="0"/>
      <psa30 value="0.0034063898" flag="0"/>
    </comp>
  </station>
  <station code="TRIZ" name="TRIZ" netid="CL" insttype="STS-2" commtype="DIG" lat="38.3654" lon="22.0727">
    <comp name="00.HH2">
      <acc value="0.1182972902" flag="0"/>
      <vel value="0.0572292369" flag="0"/>
      <psa03 value="0.2701535292" flag="0"/>
      <psa10 value="0.0434039397" flag="0"/>
      <psa30 value="0.0055782425" flag="0"/>
    </comp>
    <comp name="00.HH3">
      <acc value="0.1587422151" flag="0"/>
      <vel value="0.0602762605" flag="0"/>
      <psa03 value="0.3282095467" flag="0"/>
      <psa10 value="0.0634402883" flag="0"/>
      <psa30 value="0.0048159158" flag="0"/>
    </comp>
    <comp name="00.HHZ">
      <acc value="0.1003413213" flag="0"/>
      <vel value="0.0332649468" flag="0"/>
      <psa03 value="0.1374885496" flag="0"/>
      <psa10 value="0.0532354306" flag="0"/>
      <psa30 value="0.0041143029" flag="0"/>
    </comp>
  </station>
  <station code="ZIRI" name="ZIRI" netid="CL" insttype="TRILLIUM-40" commtype="DIG" lat="38.3051" lon="21.9476">
    <comp name="01.HHE">
      <acc value="0.1555960810" flag="0"/>
      <vel value="0.0615297223" flag="0"/>
      <psa03 value="0.3374928969" flag="0"/>
      <psa10 value="0.0497963174" flag="0"/>
      <psa30 value="0.0046409239" flag="0"/>
    </comp>
    <comp name="01.HHN">
      <acc value="0.1822291322" flag="0"/>
      <vel value="0.0754717876" flag="0"/>
      <psa03 value="0.4010252259" flag="0"/>
      <psa10 value="0.0602358849" flag="0"/>
      <psa30 value="0.0055183211" flag="0"/>
    </comp>
    <comp name="01.HHZ">
      <acc value="0.1528492194" flag="0"/>
      <vel value="0.0453034271" flag="0"/>
      <psa03 value="0.2883895134" flag="0"/>
      <psa10 value="0.0189486259" flag="0"/>
      <psa30 value="0.0026084913" flag="0"/>
    </comp>
  </station>
  <station code="AMPE" name="AMPE" netid="HA" insttype="1s-100Hz," commtype="DIG" lat="38.3015" lon="23.2688">
    <comp name="--.HHN">
      <acc value="0.0251881221" flag="0"/>
      <vel value="0.0204346666" flag="0"/>
      <psa03 value="0.0551536685" flag="0"/>
      <psa10 value="0.0265001122" flag="0"/>
      <psa30 value="0.0046370523" flag="0"/>
    </comp>
    <comp name="--.HHE">
      <acc value="0.0452801278" flag="0"/>
      <vel value="0.0347147319" flag="0"/>
      <psa03 value="0.1630119017" flag="0"/>
      <psa10 value="0.0255003021" flag="0"/>
      <psa30 value="0.0093867274" flag="0"/>
    </comp>
    <comp name="--.HHZ">
      <acc value="0.0204273624" flag="0"/>
      <vel value="0.0130595118" flag="0"/>
      <psa03 value="0.0424017030" flag="0"/>
      <psa10 value="0.0156610778" flag="0"/>
      <psa30 value="0.0048338577" flag="0"/>
    </comp>
  </station>
  <station code="ANTK" name="ANTK" netid="HA" insttype="25" commtype="DIG" lat="38.3605" lon="22.6385">
    <comp name="--.HHN">
      <acc value="0.0364087988" flag="0"/>
      <vel value="0.0110589131" flag="0"/>
      <psa03 value="0.0301715358" flag="0"/>
      <psa10 value="0.0149228319" flag="0"/>
      <psa30 value="0.0021760254" flag="0"/>
    </comp>
    <comp name="--.HHE">
      <acc value="0.0261094100" flag="0"/>
      <vel value="0.0106495650" flag="0"/>
      <psa03 value="0.0362365599" flag="0"/>
      <psa10 value="0.0096473858" flag="0"/>
      <psa30 value="0.0009351341" flag="0"/>
    </comp>
    <comp name="--.HHZ">
      <acc value="0.0161367228" flag="0"/>
      <vel value="0.0068638640" flag="0"/>
      <psa03 value="0.0188202467" flag="0"/>
      <psa10 value="0.0073853260" flag="0"/>
      <psa30 value="0.0011765326" flag="0"/>
    </comp>
  </station>
  <station code="ATAL" name="ATAL" netid="HA" insttype="120s," commtype="DIG" lat="38.6926" lon="23.0213">
    <comp name="--.HHE">
      <acc value="0.0442885570" flag="0"/>
      <vel value="0.0117699771" flag="0"/>
      <psa03 value="0.0459901062" flag="0"/>
      <psa10 value="0.0094024565" flag="0"/>
      <psa30 value="0.0019517133" flag="0"/>
    </comp>
    <comp name="--.HHN">
      <acc value="0.0503836544" flag="0"/>
      <vel value="0.0117633046" flag="0"/>
      <psa03 value="0.0463114324" flag="0"/>
      <psa10 value="0.0162330737" flag="0"/>
      <psa30 value="0.0027309474" flag="0"/>
    </comp>
    <comp name="--.HHZ">
      <acc value="0.0477589348" flag="0"/>
      <vel value="0.0134937207" flag="0"/>
      <psa03 value="0.0636480222" flag="0"/>
      <psa10 value="0.0104394539" flag="0"/>
      <psa30 value="0.0018377490" flag="0"/>
    </comp>
  </station>
  <station code="AXAR" name="AXAR" netid="HA" insttype="Horizon,120s,1200" commtype="DIG" lat="38.7664" lon="22.659">
    <comp name="--.HHZ">
      <acc value="0.5043901000" flag="0"/>
      <vel value="0.1122323462" flag="0"/>
      <psa03 value="0.3596275631" flag="0"/>
      <psa10 value="0.0335010333" flag="0"/>
      <psa30 value="0.0043897988" flag="0"/>
    </comp>
    <comp name="--.HHE">
      <acc value="0.4342782023" flag="0"/>
      <vel value="0.1389091206" flag="0"/>
      <psa03 value="0.7495697425" flag="0"/>
      <psa10 value="0.0616454851" flag="0"/>
      <psa30 value="0.0124815377" flag="0"/>
    </comp>
    <comp name="--.HHN">
      <acc value="0.4773697575" flag="0"/>
      <vel value="0.1038210612" flag="0"/>
      <psa03 value="0.4647566818" flag="0"/>
      <psa10 value="0.1098292061" flag="0"/>
      <psa30 value="0.0112085185" flag="0"/>
    </comp>
  </station>
  <station code="DOMV" name="DOMV" netid="HA" insttype="60" commtype="DIG" lat="38.2569" lon="22.9795">
    <comp name="--.HHZ">
      <acc value="0.0393718735" flag="0"/>
      <vel value="0.0223512071" flag="0"/>
      <psa03 value="0.0556882323" flag="0"/>
      <psa10 value="0.0185827980" flag="0"/>
      <psa30 value="0.0016733949" flag="0"/>
    </comp>
    <comp name="--.HHE">
      <acc value="0.0756696348" flag="0"/>
      <vel value="0.0192567465" flag="0"/>
      <psa03 value="0.0743972390" flag="0"/>
      <psa10 value="0.0124702562" flag="0"/>
      <psa30 value="0.0022501154" flag="0"/>
    </comp>
    <comp name="--.HHN">
      <acc value="0.0560109476" flag="0"/>
      <vel value="0.0200822015" flag="0"/>
      <psa03 value="0.0669023367" flag="0"/>
      <psa10 value="0.0158138144" flag="0"/>
      <psa30 value="0.0016021162" flag="0"/>
    </comp>
  </station>
  <station code="KALE" name="KALE" netid="HA" insttype="40," commtype="DIG" lat="38.3911" lon="22.1398">
    <comp name="--.HHE">
      <acc value="0.1658176341" flag="0"/>
      <vel value="0.0704740107" flag="0"/>
      <psa03 value="0.2432936654" flag="0"/>
      <psa10 value="0.0627604623" flag="0"/>
      <psa30 value="0.0050116445" flag="0"/>
    </comp>
    <comp name="--.HHN">
      <acc value="0.2457408159" flag="0"/>
      <vel value="0.0847058439" flag="0"/>
      <psa03 value="0.4441389340" flag="0"/>
      <psa10 value="0.0741998152" flag="0"/>
      <psa30 value="0.0041850041" flag="0"/>
    </comp>
    <comp name="--.HHZ">
      <acc value="0.1245055932" flag="0"/>
      <vel value="0.0331166118" flag="0"/>
      <psa03 value="0.1280863599" flag="0"/>
      <psa10 value="0.0402265508" flag="0"/>
      <psa30 value="0.0039306035" flag="0"/>
    </comp>
  </station>
  <station code="LAKA" name="LAKA" netid="HA" insttype="120s," commtype="DIG" lat="38.2401" lon="21.9785">
    <comp name="--.HHE">
      <acc value="0.0263887003" flag="0"/>
      <vel value="0.0117585253" flag="0"/>
      <psa03 value="0.0411559258" flag="0"/>
      <psa10 value="0.0129770807" flag="0"/>
      <psa30 value="0.0018145442" flag="0"/>
    </comp>
    <comp name="--.HHN">
      <acc value="0.0304469892" flag="0"/>
      <vel value="0.0122394223" flag="0"/>
      <psa03 value="0.0436789127" flag="0"/>
      <psa10 value="0.0170879450" flag="0"/>
      <psa30 value="0.0034497306" flag="0"/>
    </comp>
    <comp name="--.HHZ">
      <acc value="0.0176421789" flag="0"/>
      <vel value="0.0140269715" flag="0"/>
      <psa03 value="0.0419060190" flag="0"/>
      <psa10 value="0.0210532030" flag="0"/>
      <psa30 value="0.0023182135" flag="0"/>
    </comp>
  </station>
  <station code="LOUT" name="LOUT" netid="HA" insttype="30" commtype="DIG" lat="37.9879" lon="22.9743">
    <comp name="--.HHE">
      <acc value="0.0249825652" flag="0"/>
      <vel value="0.0152524680" flag="0"/>
      <psa03 value="0.0822308553" flag="0"/>
      <psa10 value="0.0177685530" flag="0"/>
      <psa30 value="0.0019959573" flag="0"/>
    </comp>
    <comp name="--.HHN">
      <acc value="0.0280089700" flag="0"/>
      <vel value="0.0131625756" flag="0"/>
      <psa03 value="0.0535964386" flag="0"/>
      <psa10 value="0.0148419952" flag="0"/>
      <psa30 value="0.0021075979" flag="0"/>
    </comp>
    <comp name="--.HHZ">
      <acc value="0.0125866924" flag="0"/>
      <vel value="0.0084999332" flag="0"/>
      <psa03 value="0.0306126805" flag="0"/>
      <psa10 value="0.0091350147" flag="0"/>
      <psa30 value="0.0012560333" flag="0"/>
    </comp>
  </station>
  <station code="PRDM" name="PRDM" netid="HA" insttype="25" commtype="DIG" lat="38.2804" lon="22.847">
    <comp name="--.HHE">
      <acc value="0.0297678822" flag="0"/>
      <vel value="0.0069490271" flag="0"/>
      <psa03 value="0.0228438672" flag="0"/>
      <psa10 value="0.0054679249" flag="0"/>
      <psa30 value="0.0005870458" flag="0"/>
    </comp>
    <comp name="--.HHZ">
      <acc value="0.0153586897" flag="0"/>
      <vel value="0.0051178489" flag="0"/>
      <psa03 value="0.0275804124" flag="0"/>
      <psa10 value="0.0042589702" flag="0"/>
      <psa30 value="0.0007853546" flag="0"/>
    </comp>
    <comp name="--.HHN">
      <acc value="0.0301595171" flag="0"/>
      <vel value="0.0075101802" flag="0"/>
      <psa03 value="0.0368098104" flag="0"/>
      <psa10 value="0.0052872037" flag="0"/>
      <psa30 value="0.0008089533" flag="0"/>
    </comp>
  </station>
  <station code="PSAH" name="PSAH" netid="HA" insttype="25" commtype="DIG" lat="38.5694" lon="23.6473">
    <comp name="--.HHN">
      <acc value="0.0029235166" flag="0"/>
      <vel value="0.0023835539" flag="0"/>
      <psa03 value="0.0059409356" flag="0"/>
      <psa10 value="0.0025986593" flag="0"/>
      <psa30 value="0.0004629031" flag="0"/>
    </comp>
    <comp name="--.HHZ">
      <acc value="0.0019693991" flag="0"/>
      <vel value="0.0022195433" flag="0"/>
      <psa03 value="0.0052498746" flag="0"/>
      <psa10 value="0.0030566900" flag="0"/>
      <psa30 value="0.0005656331" flag="0"/>
    </comp>
    <comp name="--.HHE">
      <acc value="0.0022573045" flag="0"/>
      <vel value="0.0020174069" flag="0"/>
      <psa03 value="0.0053896927" flag="0"/>
      <psa10 value="0.0033363023" flag="0"/>
      <psa30 value="0.0004761248" flag="0"/>
    </comp>
  </station>
  <station code="THAL" name="THAL" netid="HA" insttype="30" commtype="DIG" lat="38.0357" lon="22.6634">
    <comp name="--.HHZ">
      <acc value="0.0310303174" flag="0"/>
      <vel value="0.0135449155" flag="0"/>
      <psa03 value="0.0669225231" flag="0"/>
      <psa10 value="0.0230875867" flag="0"/>
      <psa30 value="0.0017400971" flag="0"/>
    </comp>
    <comp name="--.HHN">
      <acc value="0.0575295539" flag="0"/>
      <vel value="0.0222371664" flag="0"/>
      <psa03 value="0.1224268865" flag="0"/>
      <psa10 value="0.0299308119" flag="0"/>
      <psa30 value="0.0030962144" flag="0"/>
    </comp>
    <comp name="--.HHE">
      <acc value="0.0706792895" flag="0"/>
      <vel value="0.0278923340" flag="0"/>
      <psa03 value="0.1273615371" flag="0"/>
      <psa10 value="0.0239224043" flag="0"/>
      <psa30 value="0.0032269098" flag="0"/>
    </comp>
  </station>
  <station code="THIV" name="THIV" netid="HA" insttype="25" commtype="DIG" lat="38.299" lon="23.332">
    <comp name="--.HHE">
      <acc value="0.0095614544" flag="0"/>
      <vel value="0.0069374742" flag="0"/>
      <psa03 value="0.0256852048" flag="0"/>
      <psa10 value="0.0105177360" flag="0"/>
      <psa30 value="0.0017937131" flag="0"/>
    </comp>
    <comp name="--.HHN">
      <acc value="0.0100225539" flag="0"/>
      <vel value="0.0093439502" flag="0"/>
      <psa03 value="0.0195932404" flag="0"/>
      <psa10 value="0.0103905236" flag="0"/>
      <psa30 value="0.0018968511" flag="0"/>
    </comp>
    <comp name="--.HHZ">
      <acc value="0.0082350643" flag="0"/>
      <vel value="0.0073563601" flag="0"/>
      <psa03 value="0.0127924907" flag="0"/>
      <psa10 value="0.0052552510" flag="0"/>
      <psa30 value="0.0017536821" flag="0"/>
    </comp>
  </station>
  <station code="VILL" name="VILL" netid="HA" insttype="Horizon,120s,1200" commtype="DIG" lat="38.1642" lon="23.3122">
    <comp name="--.HHE">
      <acc value="0.0114980139" flag="0"/>
      <vel value="0.0094629931" flag="0"/>
      <psa03 value="0.0315027893" flag="0"/>
      <psa10 value="0.0140575512" flag="0"/>
      <psa30 value="0.0019208038" flag="0"/>
    </comp>
    <comp name="--.HHN">
      <acc value="0.0128725658" flag="0"/>
      <vel value="0.0081231950" flag="0"/>
      <psa03 value="0.0436665665" flag="0"/>
      <psa10 value="0.0133402389" flag="0"/>
      <psa30 value="0.0012489106" flag="0"/>
    </comp>
    <comp name="--.HHZ">
      <acc value="0.0064432119" flag="0"/>
      <vel value="0.0046554933" flag="0"/>
      <psa03 value="0.0159638874" flag="0"/>
      <psa10 value="0.0054997297" flag="0"/>
      <psa30 value="0.0017743930" flag="0"/>
    </comp>
  </station>
  <station code="AGR3" name="AGR3" netid="HI" insttype="unknown" commtype="DIG" lat="38.5893" lon="21.4162">
    <comp name="--.HNE">
      <acc value="0.1669512640" flag="0"/>
      <vel value="0.1025954340" flag="0"/>
      <psa03 value="0.4778793680" flag="0"/>
      <psa10 value="0.1449203643" flag="0"/>
      <psa30 value="0.0181310104" flag="0"/>
    </comp>
    <comp name="--.HNZ">
      <acc value="0.0993074120" flag="0"/>
      <vel value="0.0583335996" flag="0"/>
      <psa03 value="0.2666248262" flag="0"/>
      <psa10 value="0.1102867491" flag="0"/>
      <psa30 value="0.0080907956" flag="0"/>
    </comp>
    <comp name="--.HNN">
      <acc value="0.1743001319" flag="0"/>
      <vel value="0.0842348655" flag="0"/>
      <psa03 value="0.3043377990" flag="0"/>
      <psa10 value="0.1266525808" flag="0"/>
      <psa30 value="0.0091695260" flag="0"/>
    </comp>
  </station>
  <station code="AIG2" name="AIG2" netid="HI" insttype="unknown" commtype="DIG" lat="38.2417" lon="22.0726">
    <comp name="--.HNN">
      <acc value="0.0815665589" flag="0"/>
      <vel value="0.0370697745" flag="0"/>
      <psa03 value="0.0871613843" flag="0"/>
      <psa10 value="0.0555696912" flag="0"/>
      <psa30 value="0.0062198076" flag="0"/>
    </comp>
    <comp name="--.HNZ">
      <acc value="0.0530353771" flag="0"/>
      <vel value="0.0180281092" flag="0"/>
      <psa03 value="0.0555054931" flag="0"/>
      <psa10 value="0.0233399801" flag="0"/>
      <psa30 value="0.0034031753" flag="0"/>
    </comp>
    <comp name="--.HNE">
      <acc value="0.0651068766" flag="0"/>
      <vel value="0.0330021721" flag="0"/>
      <psa03 value="0.0793862580" flag="0"/>
      <psa10 value="0.0372875057" flag="0"/>
      <psa30 value="0.0043406266" flag="0"/>
    </comp>
  </station>
  <station code="AKR1" name="AKR1" netid="HI" insttype="unknown" commtype="DIG" lat="38.1536" lon="22.3133">
    <comp name="--.HNN">
