<stationlist created="1775808518">
	<station code="AGRP" name="AGRP" netid="CL" source="Corinth Riff Laboratory (CRLNET)" insttype="" lat="38.3959" lon="21.72277">
		<comp name="00.HNE" depth="0.0">
			<acc value="0.134421555011515" flag="0"/>
			<vel value="0.0688159321388385" flag="0"/>
			<psa03 value="0.465954117173478" flag="0"/>
			<psa10 value="0.0721923123863941" flag="0"/>
			<psa30 value="0.00347262858626773" flag="0"/>
		</comp>
		<comp name="00.HNN" depth="0.0">
			<acc value="0.0834063946713298" flag="0"/>
			<vel value="0.0396251820281491" flag="0"/>
			<psa03 value="0.24010205141588" flag="0"/>
			<psa10 value="0.0461177238228692" flag="0"/>
			<psa30 value="0.00421228570992212" flag="0"/>
		</comp>
		<comp name="00.HNZ" depth="0.0">
			<acc value="0.0506595268687603" flag="0"/>
			<vel value="0.0260749197172044" flag="0"/>
			<psa03 value="0.146731199388507" flag="0"/>
			<psa10 value="0.0308804438028486" flag="0"/>
			<psa30 value="0.00390094508513371" flag="0"/>
		</comp>
	</station>
	<station code="MALA" name="MALA" netid="CL" source="Corinth Riff Laboratory (CRLNET)" insttype="" lat="38.39341" lon="21.87263">
		<comp name="01.HNE" depth="0.0">
			<acc value="0.311205850183244" flag="0"/>
			<vel value="0.141459576682281" flag="0"/>
			<psa03 value="0.510039537616223" flag="0"/>
			<psa10 value="0.264523473381898" flag="0"/>
			<psa30 value="0.0138352973538829" flag="0"/>
		</comp>
		<comp name="01.HNN" depth="0.0">
			<acc value="0.406187102309789" flag="0"/>
			<vel value="0.149683899733646" flag="0"/>
			<psa03 value="0.477262532967193" flag="0"/>
			<psa10 value="0.347124495294214" flag="0"/>
			<psa30 value="0.0151624211026514" flag="0"/>
		</comp>
		<comp name="01.HNZ" depth="0.0">
			<acc value="0.0850719393764524" flag="0"/>
			<vel value="0.0585220929024755" flag="0"/>
			<psa03 value="0.148827088230856" flag="0"/>
			<psa10 value="0.110333899079323" flag="0"/>
			<psa30 value="0.00634789301675851" flag="0"/>
		</comp>
	</station>
	<station code="ROD3" name="ROD3" netid="CL" source="Corinth Riff Laboratory (CRLNET)" insttype="" lat="38.30811" lon="21.89204">
		<comp name="00.HNE" depth="0.0">
			<acc value="0.174287927002202" flag="0"/>
			<vel value="0.0527293263823159" flag="0"/>
			<psa03 value="0.394716606371337" flag="0"/>
			<psa10 value="0.0390642753165222" flag="0"/>
			<psa30 value="0.0044983496602549" flag="0"/>
		</comp>
		<comp name="00.HNN" depth="0.0">
			<acc value="0.212579060310139" flag="0"/>
			<vel value="0.0738409640089681" flag="0"/>
			<psa03 value="0.412621292468919" flag="0"/>
			<psa10 value="0.0579014619376877" flag="0"/>
			<psa30 value="0.00430962757500962" flag="0"/>
		</comp>
		<comp name="00.HNZ" depth="0.0">
			<acc value="0.0772038590434825" flag="0"/>
			<vel value="0.0277335725819323" flag="0"/>
			<psa03 value="0.0958338172700662" flag="0"/>
			<psa10 value="0.046180930510002" flag="0"/>
			<psa30 value="0.00275977803008354" flag="0"/>
		</comp>
	</station>
	<station code="TRIZ" name="TRIZ" netid="CL" source="Corinth Riff Laboratory (CRLNET)" insttype="" lat="38.36543" lon="22.07272">
		<comp name="00.HNE" depth="0.0">
			<acc value="0.1229084001931" flag="0"/>
			<vel value="0.0504888057119344" flag="0"/>
			<psa03 value="0.173048921975134" flag="0"/>
			<psa10 value="0.0513275989515277" flag="0"/>
			<psa30 value="0.00514700513049637" flag="0"/>
		</comp>
		<comp name="00.HNN" depth="0.0">
			<acc value="0.178992264491896" flag="0"/>
			<vel value="0.073518650655323" flag="0"/>
			<psa03 value="0.360437002182461" flag="0"/>
			<psa10 value="0.0639200968927155" flag="0"/>
			<psa30 value="0.00602035506897695" flag="0"/>
		</comp>
		<comp name="00.HNZ" depth="0.0">
			<acc value="0.099520508220787" flag="0"/>
			<vel value="0.0332787491438727" flag="0"/>
			<psa03 value="0.144460028101222" flag="0"/>
			<psa10 value="0.052584378457002" flag="0"/>
			<psa30 value="0.00449738876326686" flag="0"/>
		</comp>
	</station>
	<station code="AGR3" name="AGR3" netid="HI" source="ITSAK Strong Motion Network" insttype="" lat="38.5893" lon="21.4162">
		<comp name="--.HNE" depth="0.0">
			<acc value="0.167562231341867" flag="0"/>
			<vel value="0.102305972656581" flag="0"/>
			<psa03 value="0.484240536892373" flag="0"/>
			<psa10 value="0.145692561417172" flag="0"/>
			<psa30 value="0.0202204378381033" flag="0"/>
		</comp>
		<comp name="--.HNN" depth="0.0">
			<acc value="0.17291456139849" flag="0"/>
			<vel value="0.0834819623611831" flag="0"/>
			<psa03 value="0.30560159877277" flag="0"/>
			<psa10 value="0.126808455437829" flag="0"/>
			<psa30 value="0.0110246869980739" flag="0"/>
		</comp>
		<comp name="--.HNZ" depth="0.0">
			<acc value="0.0990838542224419" flag="0"/>
			<vel value="0.0594173104496594" flag="0"/>
			<psa03 value="0.263501289000532" flag="0"/>
			<psa10 value="0.110588248428719" flag="0"/>
			<psa30 value="0.00862929498177549" flag="0"/>
		</comp>
	</station>
	<station code="AIA1" name="AIA1" netid="HI" source="ITSAK Strong Motion Network" insttype="" lat="40.1641" lon="21.8202">
		<comp name="--.HNE" depth="0.0">
			<acc value="0.0130226602739145" flag="0"/>
			<vel value="0.0097279211300625" flag="0"/>
			<psa03 value="0.0395598393952103" flag="0"/>
			<psa10 value="0.0136405986227142" flag="0"/>
			<psa30 value="0.00263082948787546" flag="0"/>
		</comp>
		<comp name="--.HNN" depth="0.0">
			<acc value="0.0119936473792553" flag="0"/>
			<vel value="0.008057612965422" flag="0"/>
			<psa03 value="0.0310973699439741" flag="0"/>
			<psa10 value="0.0170745361042194" flag="0"/>
			<psa30 value="0.00182178110072375" flag="0"/>
		</comp>
		<comp name="--.HNZ" depth="0.0">
			<acc value="0.00689988084266489" flag="0"/>
			<vel value="0.00806136130954949" flag="0"/>
			<psa03 value="0.0107043315052614" flag="0"/>
			<psa10 value="0.0140027854283125" flag="0"/>
			<psa30 value="0.00256508429924604" flag="0"/>
		</comp>
	</station>
	<station code="AIG2" name="AIG2" netid="HI" source="ITSAK Strong Motion Network" insttype="" lat="38.2417" lon="22.0726">
		<comp name="--.HNE" depth="0.0">
			<acc value="0.0643675533879391" flag="0"/>
			<vel value="0.0328348893889598" flag="0"/>
			<psa03 value="0.0818025596431102" flag="0"/>
			<psa10 value="0.0372971019999628" flag="0"/>
			<psa30 value="0.00453720473421286" flag="0"/>
		</comp>
		<comp name="--.HNN" depth="0.0">
			<acc value="0.0814723013738577" flag="0"/>
			<vel value="0.0381737072775098" flag="0"/>
			<psa03 value="0.0880493536708902" flag="0"/>
			<psa10 value="0.0555432644686788" flag="0"/>
			<psa30 value="0.0066518256508039" flag="0"/>
		</comp>
		<comp name="--.HNZ" depth="0.0">
			<acc value="0.0519046288834901" flag="0"/>
			<vel value="0.0177513823356348" flag="0"/>
			<psa03 value="0.0560012462660586" flag="0"/>
			<psa10 value="0.0233851916541785" flag="0"/>
			<psa30 value="0.00406230119085049" flag="0"/>
		</comp>
	</station>
	<station code="AKR1" name="AKR1" netid="HI" source="ITSAK Strong Motion Network" insttype="" lat="38.153583" lon="22.31326">
		<comp name="--.HNE" depth="0.0">
			<acc value="0.040222699801668" flag="0"/>
			<vel value="0.0204678822061086" flag="0"/>
			<psa03 value="0.102437067202967" flag="0"/>
			<psa10 value="0.0263021067604888" flag="0"/>
			<psa30 value="0.00299816361362518" flag="0"/>
		</comp>
		<comp name="--.HNN" depth="0.0">
			<acc value="0.0434792840476679" flag="0"/>
			<vel value="0.0206509530565635" flag="0"/>
			<psa03 value="0.136237233381427" flag="0"/>
			<psa10 value="0.0312659730922719" flag="0"/>
			<psa30 value="0.00347647613281547" flag="0"/>
		</comp>
		<comp name="--.HNZ" depth="0.0">
			<acc value="0.0350202391267695" flag="0"/>
			<vel value="0.0141130134552211" flag="0"/>
			<psa03 value="0.0487859505797969" flag="0"/>
			<psa10 value="0.0147374619095238" flag="0"/>
			<psa30 value="0.003028249356658" flag="0"/>
		</comp>
	</station>
	<station code="ARS1" name="ARS1" netid="HI" source="ITSAK Strong Motion Network" insttype="" lat="37.6349" lon="22.7293">
		<comp name="--.HNE" depth="0.0">
			<acc value="0.0122332743189748" flag="0"/>
			<vel value="0.0114922406892355" flag="0"/>
			<psa03 value="0.0360911226305816" flag="0"/>
			<psa10 value="0.0119712430360993" flag="0"/>
			<psa30 value="0.00205888347425903" flag="0"/>
		</comp>
		<comp name="--.HNN" depth="0.0">
			<acc value="0.0188750238815105" flag="0"/>
			<vel value="0.0110023576643752" flag="0"/>
			<psa03 value="0.0848316196784717" flag="0"/>
			<psa10 value="0.0141004962761766" flag="0"/>
			<psa30 value="0.00320759519577299" flag="0"/>
		</comp>
		<comp name="--.HNZ" depth="0.0">
			<acc value="0.0175402491777227" flag="0"/>
			<vel value="0.00779431560250148" flag="0"/>
			<psa03 value="0.0358590734042925" flag="0"/>
			<psa10 value="0.00634103959400289" flag="0"/>
			<psa30 value="0.00287652013867529" flag="0"/>
		</comp>
	</station>
	<station code="ART2" name="ART2" netid="HI" source="ITSAK Strong Motion Network" insttype="" lat="39.1474" lon="20.9937">
		<comp name="--.HNE" depth="0.0">
			<acc value="0.0241124937368991" flag="0"/>
			<vel value="0.0102479876190896" flag="0"/>
			<psa03 value="0.0482031619729118" flag="0"/>
			<psa10 value="0.0112897563284495" flag="0"/>
			<psa30 value="0.00159427821727425" flag="0"/>
		</comp>
		<comp name="--.HNN" depth="0.0">
			<acc value="0.0245685243957068" flag="0"/>
			<vel value="0.00854644679967079" flag="0"/>
			<psa03 value="0.0378491948234028" flag="0"/>
			<psa10 value="0.0135450966711786" flag="0"/>
			<psa30 value="0.00195252872044521" flag="0"/>
		</comp>
		<comp name="--.HNZ" depth="0.0">
			<acc value="0.014370264965809" flag="0"/>
			<vel value="0.00692305844568145" flag="0"/>
			<psa03 value="0.0291296562592662" flag="0"/>
			<psa10 value="0.00814678374694089" flag="0"/>
			<psa30 value="0.00156117956631773" flag="0"/>
		</comp>
	</station>
	<station code="AST1" name="AST1" netid="HI" source="ITSAK Strong Motion Network" insttype="" lat="38.5416" lon="21.0895">
		<comp name="--.HNE" depth="0.0">
			<acc value="0.0481558492009324" flag="0"/>
			<vel value="0.032822774696144" flag="0"/>
			<psa03 value="0.101972692690435" flag="0"/>
			<psa10 value="0.0366103902586801" flag="0"/>
			<psa30 value="0.00296445658903356" flag="0"/>
		</comp>
		<comp name="--.HNN" depth="0.0">
			<acc value="0.0756862033212246" flag="0"/>
			<vel value="0.0470632919590418" flag="0"/>
			<psa03 value="0.197940695932996" flag="0"/>
			<psa10 value="0.0447653242330336" flag="0"/>
			<psa30 value="0.00320416663531435" flag="0"/>
		</comp>
		<comp name="--.HNZ" depth="0.0">
			<acc value="0.0349664630159753" flag="0"/>
			<vel value="0.0218354543762776" flag="0"/>
			<psa03 value="0.120156793131179" flag="0"/>
			<psa10 value="0.0244662082662237" flag="0"/>
			<psa30 value="0.00168590897486224" flag="0"/>
		</comp>
	</station>
	<station code="ATH5" name="ATH5" netid="HI" source="ITSAK Strong Motion Network" insttype="" lat="37.975421" lon="23.737098">
		<comp name="--.HNE" depth="0.0">
			<acc value="0.00503798538733391" flag="0"/>
			<vel value="0.0038650027047551" flag="0"/>
			<psa03 value="0.013173169532831" flag="0"/>
			<psa10 value="0.00481748663484656" flag="0"/>
			<psa30 value="0.00113278295797822" flag="0"/>
		</comp>
		<comp name="--.HNN" depth="0.0">
			<acc value="0.00619673336619623" flag="0"/>
			<vel value="0.00315028448658688" flag="0"/>
			<psa03 value="0.0164630502316981" flag="0"/>
			<psa10 value="0.00537386083565682" flag="0"/>
			<psa30 value="0.000827247717768047" flag="0"/>
		</comp>
		<comp name="--.HNZ" depth="0.0">
			<acc value="0.00520856141713407" flag="0"/>
			<vel value="0.00365316451722722" flag="0"/>
			<psa03 value="0.00711271467202296" flag="0"/>
			<psa10 value="0.00325924294009925" flag="0"/>
			<psa30 value="0.000849074684530807" flag="0"/>
		</comp>
	</station>
	<station code="FRS1" name="FRS1" netid="HI" source="ITSAK Strong Motion Network" insttype="" lat="39.2934" lon="22.3844">
		<comp name="--.HNE" depth="0.0">
			<acc value="0.106948996576151" flag="0"/>
			<vel value="0.0476982341971723" flag="0"/>
			<psa03 value="0.4274134390427" flag="0"/>
			<psa10 value="0.023204448430827" flag="0"/>
			<psa30 value="0.00505817924621747" flag="0"/>
		</comp>
		<comp name="--.HNN" depth="0.0">
			<acc value="0.138905891761376" flag="0"/>
			<vel value="0.0803676190986164" flag="0"/>
			<psa03 value="0.321893844720773" flag="0"/>
			<psa10 value="0.0669772394134039" flag="0"/>
			<psa30 value="0.0157768018023575" flag="0"/>
		</comp>
		<comp name="--.HNZ" depth="0.0">
			<acc value="0.198376147253156" flag="0"/>
			<vel value="0.0868930281796129" flag="0"/>
			<psa03 value="0.235631130239294" flag="0"/>
			<psa10 value="0.0926329739799071" flag="0"/>
			<psa30 value="0.0129875195260958" flag="0"/>
		</comp>
	</station>
	<station code="GRE3" name="GRE3" netid="HI" source="ITSAK Strong Motion Network" insttype="" lat="40.08481" lon="21.43829">
		<comp name="--.HNE" depth="0.0">
			<acc value="0.0145867300655849" flag="0"/>
			<vel value="0.0111026398288261" flag="0"/>
			<psa03 value="0.0294409399011131" flag="0"/>
			<psa10 value="0.0171678085330601" flag="0"/>
			<psa30 value="0.00350393211830643" flag="0"/>
		</comp>
		<comp name="--.HNN" depth="0.0">
			<acc value="0.0107181485100327" flag="0"/>
			<vel value="0.0139983618243092" flag="0"/>
			<psa03 value="0.0224331814006714" flag="0"/>
			<psa10 value="0.0175555954720416" flag="0"/>
			<psa30 value="0.00349069103281617" flag="0"/>
		</comp>
		<comp name="--.HNZ" depth="0.0">
			<acc value="0.00919333932087124" flag="0"/>
			<vel value="0.00818891083383727" flag="0"/>
			<psa03 value="0.0149556300600097" flag="0"/>
			<psa10 value="0.0114633825178324" flag="0"/>
			<psa30 value="0.00196436992153334" flag="0"/>
		</comp>
	</station>
	<station code="JAN2" name="JAN2" netid="HI" source="ITSAK Strong Motion Network" insttype="" lat="39.664" lon="20.85222">
		<comp name="--.HNE" depth="0.0">
			<acc value="0.0425029359523918" flag="0"/>
			<vel value="0.0300975318389251" flag="0"/>
			<psa03 value="0.171282107015647" flag="0"/>
			<psa10 value="0.0389111526728985" flag="0"/>
			<psa30 value="0.00236579151374375" flag="0"/>
		</comp>
		<comp name="--.HNN" depth="0.0">
			<acc value="0.0405103379895493" flag="0"/>
			<vel value="0.0243971171798747" flag="0"/>
			<psa03 value="0.166745108545099" flag="0"/>
			<psa10 value="0.025909142603542" flag="0"/>
			<psa30 value="0.00269444349365781" flag="0"/>
		</comp>
		<comp name="--.HNZ" depth="0.0">
			<acc value="0.0210091506481039" flag="0"/>
			<vel value="0.011700878210296" flag="0"/>
			<psa03 value="0.0264645604389144" flag="0"/>
			<psa10 value="0.0108661432661631" flag="0"/>
			<psa30 value="0.0020747103560456" flag="0"/>
		</comp>
	</station>
	<station code="JAN3" name="JAN3" netid="HI" source="ITSAK Strong Motion Network" insttype="" lat="39.684" lon="20.8379">
		<comp name="--.HNE" depth="0.0">
			<acc value="0.0536378779970032" flag="0"/>
			<vel value="0.0303581293362414" flag="0"/>
			<psa03 value="0.0844865030661899" flag="0"/>
			<psa10 value="0.0235509451345331" flag="0"/>
			<psa30 value="0.00184850328760415" flag="0"/>
		</comp>
		<comp name="--.HNN" depth="0.0">
			<acc value="0.0394789667736135" flag="0"/>
			<vel value="0.0182366633645947" flag="0"/>
			<psa03 value="0.111400598492924" flag="0"/>
			<psa10 value="0.0292760406440133" flag="0"/>
			<psa30 value="0.00227321996466627" flag="0"/>
		</comp>
		<comp name="--.HNZ" depth="0.0">
			<acc value="0.0250103735837789" flag="0"/>
			<vel value="0.0115390476573592" flag="0"/>
			<psa03 value="0.0403945170843442" flag="0"/>
			<psa10 value="0.0122966633435976" flag="0"/>
			<psa30 value="0.00165569822354823" flag="0"/>
		</comp>
	</station>
	<station code="KAR2" name="KAR2" netid="HI" source="ITSAK Strong Motion Network" insttype="" lat="39.365759" lon="21.91933">
		<comp name="--.HNE" depth="0.0">
			<acc value="1.07841544718024" flag="0"/>
			<vel value="0.360248133022445" flag="0"/>
			<psa03 value="1.08348519224318" flag="0"/>
			<psa10 value="0.310370650532378" flag="0"/>
			<psa30 value="0.032665517263538" flag="0"/>
		</comp>
		<comp name="--.HNN" depth="0.0">
			<acc value="0.445958141232016" flag="0"/>
			<vel value="0.159069745983021" flag="0"/>
			<psa03 value="0.759801249770553" flag="0"/>
			<psa10 value="0.165981795479354" flag="0"/>
			<psa30 value="0.0372769594156154" flag="0"/>
		</comp>
		<comp name="--.HNZ" depth="0.0">
			<acc value="0.301712516528604" flag="0"/>
			<vel value="0.0870798268452762" flag="0"/>
			<psa03 value="0.424439908727577" flag="0"/>
			<psa10 value="0.0782459259085803" flag="0"/>
			<psa30 value="0.0138835255487641" flag="0"/>
		</comp>
	</station>
	<station code="KIF1" name="KIF1" netid="HI" source="ITSAK Strong Motion Network" insttype="" lat="38.077273" lon="23.814551">
		<comp name="--.HNE" depth="0.0">
			<acc value="0.00522074209843181" flag="0"/>
			<vel value="0.00616881260197228" flag="0"/>
			<psa03 value="0.0217801524636259" flag="0"/>
			<psa10 value="0.00713550066064954" flag="0"/>
			<psa30 value="0.00128551995105442" flag="0"/>
		</comp>
		<comp name="--.HNN" depth="0.0">
			<acc value="0.00584334297159988" flag="0"/>
			<vel value="0.00523341134359207" flag="0"/>
			<psa03 value="0.0148685591878251" flag="0"/>
			<psa10 value="0.0060444310388918" flag="0"/>
			<psa30 value="0.00151942232093849" flag="0"/>
		</comp>
		<comp name="--.HNZ" depth="0.0">
			<acc value="0.00622526720482359" flag="0"/>
			<vel value="0.00329252954384055" flag="0"/>
			<psa03 value="0.00953597415940459" flag="0"/>
			<psa10 value="0.00585801837746784" flag="0"/>
			<psa30 value="0.0011100321800175" flag="0"/>
		</comp>
	</station>
	<station code="KLV1" name="KLV1" netid="HI" source="ITSAK Strong Motion Network" insttype="" lat="38.03256" lon="22.10797">
		<comp name="--.HNE" depth="0.0">
			<acc value="0.0572835943865103" flag="0"/>
			<vel value="0.0310673269285441" flag="0"/>
			<psa03 value="0.199365998685642" flag="0"/>
			<psa10 value="0.0398370065061711" flag="0"/>
			<psa30 value="0.00240949649231742" flag="0"/>
		</comp>
		<comp name="--.HNN" depth="0.0">
			<acc value="0.12885811742877" flag="0"/>
			<vel value="0.042830683021167" flag="0"/>
			<psa03 value="0.212056068507155" flag="0"/>
			<psa10 value="0.0238135937837171" flag="0"/>
			<psa30 value="0.00237632429482214" flag="0"/>
		</comp>
		<comp name="--.HNZ" depth="0.0">
			<acc value="0.0932568952635406" flag="0"/>
			<vel value="0.0261989403972106" flag="0"/>
			<psa03 value="0.132751908745775" flag="0"/>
			<psa10 value="0.0254433486219767" flag="0"/>
			<psa30 value="0.00234537911985617" flag="0"/>
		</comp>
	</station>
	<station code="KMV1" name="KMV1" netid="HI" source="ITSAK Strong Motion Network" insttype="" lat="38.7794" lon="22.7846">
		<comp name="--.HNE" depth="0.0">
			<acc value="0.274537248611235" flag="0"/>
			<vel value="0.102818485861021" flag="0"/>
			<psa03 value="0.541797433087605" flag="0"/>
			<psa10 value="0.0769807945998401" flag="0"/>
			<psa30 value="0.00640567267771082" flag="0"/>
		</comp>
		<comp name="--.HNN" depth="0.0">
			<acc value="0.355150162709734" flag="0"/>
			<vel value="0.119326721216407" flag="0"/>
			<psa03 value="0.53947144566902" flag="0"/>
			<psa10 value="0.0859350902779833" flag="0"/>
			<psa30 value="0.00599614471515982" flag="0"/>
		</comp>
		<comp name="--.HNZ" depth="0.0">
			<acc value="0.218111686663817" flag="0"/>
			<vel value="0.0527062758071938" flag="0"/>
			<psa03 value="0.221017745507608" flag="0"/>
			<psa10 value="0.0310059102393842" flag="0"/>
			<psa30 value="0.00329158888494268" flag="0"/>
		</comp>
	</station>
	<station code="KOR2" name="KOR2" netid="HI" source="ITSAK Strong Motion Network" insttype="" lat="37.9401" lon="22.9495">
		<comp name="--.HNE" depth="0.0">
			<acc value="0.017439921201012" flag="0"/>
			<vel value="0.0187735903988305" flag="0"/>
			<psa03 value="0.0488220467209891" flag="0"/>
			<psa10 value="0.0330733959501659" flag="0"/>
