<stationlist xmlns:esm="https://esm-db.eu/esmws/shakemap/1/" created="1781229324">
	<station code="AGRP" name="AGRP" netid="CL" source="Corinth Riff Laboratory (CRLNET)" insttype="" lat="38.3959" lon="21.72277" esm:processing="automatic (Paolucci et al 2011)" esm:quality="best">
		<comp name="00.HNE" depth="0.0">
			<acc value="0.134421555011515" flag="0"/>
			<vel value="0.0688159321388385" flag="0"/>
			<psa03 value="0.465954117173478" flag="0"/>
			<psa10 value="0.0721923123863941" flag="0"/>
			<psa30 value="0.00347262858626773" flag="0"/>
		</comp>
		<comp name="00.HNN" depth="0.0">
			<acc value="0.0834063946713298" flag="0"/>
			<vel value="0.0396251820281491" flag="0"/>
			<psa03 value="0.24010205141588" flag="0"/>
			<psa10 value="0.0461177238228692" flag="0"/>
			<psa30 value="0.00421228570992212" flag="0"/>
		</comp>
		<comp name="00.HNZ" depth="0.0">
			<acc value="0.0506595268687603" flag="0"/>
			<vel value="0.0260749197172044" flag="0"/>
			<psa03 value="0.146731199388507" flag="0"/>
			<psa10 value="0.0308804438028486" flag="0"/>
			<psa30 value="0.00390094508513371" flag="0"/>
		</comp>
	</station>
	<station code="ROD3" name="ROD3" netid="CL" source="Corinth Riff Laboratory (CRLNET)" insttype="" lat="38.30811" lon="21.89204" esm:processing="automatic (Paolucci et al 2011)" esm:quality="best">
		<comp name="00.HNE" depth="0.0">
			<acc value="0.174287927002202" flag="0"/>
			<vel value="0.0527293263823159" flag="0"/>
			<psa03 value="0.394716606371337" flag="0"/>
			<psa10 value="0.0390642753165222" flag="0"/>
			<psa30 value="0.0044983496602549" flag="0"/>
		</comp>
		<comp name="00.HNN" depth="0.0">
			<acc value="0.212579060310139" flag="0"/>
			<vel value="0.0738409640089681" flag="0"/>
			<psa03 value="0.412621292468919" flag="0"/>
			<psa10 value="0.0579014619376877" flag="0"/>
			<psa30 value="0.00430962757500962" flag="0"/>
		</comp>
		<comp name="00.HNZ" depth="0.0">
			<acc value="0.0772038590434825" flag="0"/>
			<vel value="0.0277335725819323" flag="0"/>
			<psa03 value="0.0958338172700662" flag="0"/>
			<psa10 value="0.046180930510002" flag="0"/>
			<psa30 value="0.00275977803008354" flag="0"/>
		</comp>
	</station>
	<station code="TRIZ" name="TRIZ" netid="CL" source="Corinth Riff Laboratory (CRLNET)" insttype="" lat="38.36543" lon="22.07272" esm:processing="automatic (Paolucci et al 2011)" esm:quality="best">
		<comp name="00.HNE" depth="0.0">
			<acc value="0.1229084001931" flag="0"/>
			<vel value="0.0504888057119344" flag="0"/>
			<psa03 value="0.173048921975134" flag="0"/>
			<psa10 value="0.0513275989515277" flag="0"/>
			<psa30 value="0.00514700513049637" flag="0"/>
		</comp>
		<comp name="00.HNN" depth="0.0">
			<acc value="0.178992264491896" flag="0"/>
			<vel value="0.073518650655323" flag="0"/>
			<psa03 value="0.360437002182461" flag="0"/>
			<psa10 value="0.0639200968927155" flag="0"/>
			<psa30 value="0.00602035506897695" flag="0"/>
		</comp>
		<comp name="00.HNZ" depth="0.0">
			<acc value="0.099520508220787" flag="0"/>
			<vel value="0.0332787491438727" flag="0"/>
			<psa03 value="0.144460028101222" flag="0"/>
			<psa10 value="0.052584378457002" flag="0"/>
			<psa30 value="0.00449738876326686" flag="0"/>
		</comp>
	</station>
	<station code="AGR3" name="AGR3" netid="HI" source="ITSAK Strong Motion Network" insttype="" lat="38.5893" lon="21.4162" esm:processing="automatic (Paolucci et al 2011)" esm:quality="best">
		<comp name="--.HNE" depth="0.0">
			<acc value="0.167562231341867" flag="0"/>
			<vel value="0.102305972656581" flag="0"/>
			<psa03 value="0.484240536892373" flag="0"/>
			<psa10 value="0.145692561417172" flag="0"/>
			<psa30 value="0.0202204378381033" flag="0"/>
		</comp>
		<comp name="--.HNN" depth="0.0">
			<acc value="0.17291456139849" flag="0"/>
			<vel value="0.0834819623611831" flag="0"/>
			<psa03 value="0.30560159877277" flag="0"/>
			<psa10 value="0.126808455437829" flag="0"/>
			<psa30 value="0.0110246869980739" flag="0"/>
		</comp>
		<comp name="--.HNZ" depth="0.0">
			<acc value="0.0990838542224419" flag="0"/>
			<vel value="0.0594173104496594" flag="0"/>
			<psa03 value="0.263501289000532" flag="0"/>
			<psa10 value="0.110588248428719" flag="0"/>
			<psa30 value="0.00862929498177549" flag="0"/>
		</comp>
	</station>
	<station code="AIA1" name="AIA1" netid="HI" source="ITSAK Strong Motion Network" insttype="" lat="40.1641" lon="21.8202" esm:processing="manual (Paolucci et al 2011)" esm:quality="good">
		<comp name="--.HNE" depth="0.0">
			<acc value="0.0130879387072892" flag="0"/>
			<vel value="0.00939822154036657" flag="0"/>
			<psa03 value="0.0395821611864194" flag="0"/>
			<psa10 value="0.0135824153933608" flag="0"/>
			<psa30 value="0.00234102112282692" flag="0"/>
		</comp>
		<comp name="--.HNN" depth="0.0">
			<acc value="0.0119436346575682" flag="0"/>
			<vel value="0.00773240895663064" flag="0"/>
			<psa03 value="0.0311596709461098" flag="0"/>
			<psa10 value="0.0170833135606828" flag="0"/>
			<psa30 value="0.00167061514922135" flag="0"/>
		</comp>
		<comp name="--.HNZ" depth="0.0">
			<acc value="0.00691657293906299" flag="0"/>
			<vel value="0.00721319511960135" flag="0"/>
			<psa03 value="0.010694274849474" flag="0"/>
			<psa10 value="0.0139060730840943" flag="0"/>
			<psa30 value="0.00228990211144329" flag="0"/>
		</comp>
	</station>
	<station code="AIG2" name="AIG2" netid="HI" source="ITSAK Strong Motion Network" insttype="" lat="38.2417" lon="22.0726" esm:processing="automatic (Paolucci et al 2011)" esm:quality="best">
		<comp name="--.HNE" depth="0.0">
			<acc value="0.0643675533879391" flag="0"/>
			<vel value="0.0328348893889598" flag="0"/>
			<psa03 value="0.0818025596431102" flag="0"/>
			<psa10 value="0.0372971019999628" flag="0"/>
			<psa30 value="0.00453720473421286" flag="0"/>
		</comp>
		<comp name="--.HNN" depth="0.0">
			<acc value="0.0814723013738577" flag="0"/>
			<vel value="0.0381737072775098" flag="0"/>
			<psa03 value="0.0880493536708902" flag="0"/>
			<psa10 value="0.0555432644686788" flag="0"/>
			<psa30 value="0.0066518256508039" flag="0"/>
		</comp>
		<comp name="--.HNZ" depth="0.0">
			<acc value="0.0519046288834901" flag="0"/>
			<vel value="0.0177513823356348" flag="0"/>
			<psa03 value="0.0560012462660586" flag="0"/>
			<psa10 value="0.0233851916541785" flag="0"/>
			<psa30 value="0.00406230119085049" flag="0"/>
		</comp>
	</station>
	<station code="AKR1" name="AKR1" netid="HI" source="ITSAK Strong Motion Network" insttype="" lat="38.153583" lon="22.31326" esm:processing="automatic (Paolucci et al 2011)" esm:quality="best">
		<comp name="--.HNE" depth="0.0">
			<acc value="0.040222699801668" flag="0"/>
			<vel value="0.0204678822061086" flag="0"/>
			<psa03 value="0.102437067202967" flag="0"/>
			<psa10 value="0.0263021067604888" flag="0"/>
			<psa30 value="0.00299816361362518" flag="0"/>
		</comp>
		<comp name="--.HNN" depth="0.0">
			<acc value="0.0434792840476679" flag="0"/>
			<vel value="0.0206509530565635" flag="0"/>
			<psa03 value="0.136237233381427" flag="0"/>
			<psa10 value="0.0312659730922719" flag="0"/>
			<psa30 value="0.00347647613281547" flag="0"/>
		</comp>
		<comp name="--.HNZ" depth="0.0">
			<acc value="0.0350202391267695" flag="0"/>
			<vel value="0.0141130134552211" flag="0"/>
			<psa03 value="0.0487859505797969" flag="0"/>
			<psa10 value="0.0147374619095238" flag="0"/>
			<psa30 value="0.003028249356658" flag="0"/>
		</comp>
	</station>
	<station code="ARS1" name="ARS1" netid="HI" source="ITSAK Strong Motion Network" insttype="" lat="37.6349" lon="22.7293" esm:processing="manual (Paolucci et al 2011)" esm:quality="good">
		<comp name="--.HNE" depth="0.0">
			<acc value="0.0122500556381024" flag="0"/>
			<vel value="0.0113430698674638" flag="0"/>
			<psa03 value="0.0360996388197373" flag="0"/>
			<psa10 value="0.0119701339001245" flag="0"/>
			<psa30 value="0.00204812130298466" flag="0"/>
		</comp>
		<comp name="--.HNN" depth="0.0">
			<acc value="0.0188783394438183" flag="0"/>
			<vel value="0.0109209113951505" flag="0"/>
			<psa03 value="0.0848612205977207" flag="0"/>
			<psa10 value="0.0141041115156685" flag="0"/>
			<psa30 value="0.00317953437854823" flag="0"/>
		</comp>
		<comp name="--.HNZ" depth="0.0">
			<acc value="0.0175607411040893" flag="0"/>
			<vel value="0.00788088876830166" flag="0"/>
			<psa03 value="0.0358787778346143" flag="0"/>
			<psa10 value="0.00633977388515589" flag="0"/>
			<psa30 value="0.00284151344465362" flag="0"/>
		</comp>
	</station>
	<station code="ART2" name="ART2" netid="HI" source="ITSAK Strong Motion Network" insttype="" lat="39.1474" lon="20.9937" esm:processing="manual (Paolucci et al 2011)" esm:quality="good">
		<comp name="--.HNE" depth="0.0">
			<acc value="0.0241225903106378" flag="0"/>
			<vel value="0.0100370497429606" flag="0"/>
			<psa03 value="0.048212813653955" flag="0"/>
			<psa10 value="0.0112807172921577" flag="0"/>
			<psa30 value="0.00158284506405063" flag="0"/>
		</comp>
		<comp name="--.HNN" depth="0.0">
			<acc value="0.0245799587825895" flag="0"/>
			<vel value="0.00854744936117109" flag="0"/>
			<psa03 value="0.0378478822364504" flag="0"/>
			<psa10 value="0.013543550631261" flag="0"/>
			<psa30 value="0.00192823127752553" flag="0"/>
		</comp>
		<comp name="--.HNZ" depth="0.0">
			<acc value="0.0143655550004853" flag="0"/>
			<vel value="0.00668593621018689" flag="0"/>
			<psa03 value="0.0291449932127641" flag="0"/>
			<psa10 value="0.00813190651139705" flag="0"/>
			<psa30 value="0.00154436043129925" flag="0"/>
		</comp>
	</station>
	<station code="AST1" name="AST1" netid="HI" source="ITSAK Strong Motion Network" insttype="" lat="38.5416" lon="21.0895" esm:processing="manual (Paolucci et al 2011)" esm:quality="good">
		<comp name="--.HNE" depth="0.0">
			<acc value="0.0481558492009324" flag="0"/>
			<vel value="0.032822774696144" flag="0"/>
			<psa03 value="0.101972692690435" flag="0"/>
			<psa10 value="0.0366103902586801" flag="0"/>
			<psa30 value="0.00296445658903356" flag="0"/>
		</comp>
		<comp name="--.HNN" depth="0.0">
			<acc value="0.0756862033212246" flag="0"/>
			<vel value="0.0470632919590418" flag="0"/>
			<psa03 value="0.197940695932996" flag="0"/>
			<psa10 value="0.0447653242330336" flag="0"/>
			<psa30 value="0.00320416663531435" flag="0"/>
		</comp>
		<comp name="--.HNZ" depth="0.0">
			<acc value="0.0349664630159753" flag="0"/>
			<vel value="0.0218354543762776" flag="0"/>
			<psa03 value="0.120156793131179" flag="0"/>
			<psa10 value="0.0244662082662237" flag="0"/>
			<psa30 value="0.00168590897486224" flag="0"/>
		</comp>
	</station>
	<station code="FRS1" name="FRS1" netid="HI" source="ITSAK Strong Motion Network" insttype="" lat="39.2934" lon="22.3844" esm:processing="automatic (Paolucci et al 2011)" esm:quality="best">
		<comp name="--.HNE" depth="0.0">
			<acc value="0.106948996576151" flag="0"/>
			<vel value="0.0476982341971723" flag="0"/>
			<psa03 value="0.4274134390427" flag="0"/>
			<psa10 value="0.023204448430827" flag="0"/>
			<psa30 value="0.00505817924621747" flag="0"/>
		</comp>
		<comp name="--.HNN" depth="0.0">
			<acc value="0.138905891761376" flag="0"/>
			<vel value="0.0803676190986164" flag="0"/>
			<psa03 value="0.321893844720773" flag="0"/>
			<psa10 value="0.0669772394134039" flag="0"/>
			<psa30 value="0.0157768018023575" flag="0"/>
		</comp>
		<comp name="--.HNZ" depth="0.0">
			<acc value="0.198376147253156" flag="0"/>
			<vel value="0.0868930281796129" flag="0"/>
			<psa03 value="0.235631130239294" flag="0"/>
			<psa10 value="0.0926329739799071" flag="0"/>
			<psa30 value="0.0129875195260958" flag="0"/>
		</comp>
	</station>
	<station code="GRE3" name="GRE3" netid="HI" source="ITSAK Strong Motion Network" insttype="" lat="40.08481" lon="21.43829" esm:processing="manual (Paolucci et al 2011)" esm:quality="good">
		<comp name="--.HNE" depth="0.0">
			<acc value="0.0145931827329579" flag="0"/>
			<vel value="0.011058205007252" flag="0"/>
			<psa03 value="0.0294401221386071" flag="0"/>
			<psa10 value="0.0171689673598267" flag="0"/>
			<psa30 value="0.003483050318323" flag="0"/>
		</comp>
		<comp name="--.HNN" depth="0.0">
			<acc value="0.010722440863473" flag="0"/>
			<vel value="0.0137411883695559" flag="0"/>
			<psa03 value="0.0224265168966808" flag="0"/>
			<psa10 value="0.0175672662451731" flag="0"/>
			<psa30 value="0.00347015113048177" flag="0"/>
		</comp>
		<comp name="--.HNZ" depth="0.0">
			<acc value="0.00917212558871637" flag="0"/>
			<vel value="0.00799410340394343" flag="0"/>
			<psa03 value="0.0149634183363615" flag="0"/>
			<psa10 value="0.0114609176670482" flag="0"/>
			<psa30 value="0.00194070627059927" flag="0"/>
		</comp>
	</station>
	<station code="JAN2" name="JAN2" netid="HI" source="ITSAK Strong Motion Network" insttype="" lat="39.664" lon="20.85222" esm:processing="manual (Paolucci et al 2011)" esm:quality="good">
		<comp name="--.HNE" depth="0.0">
			<acc value="0.0425029359523918" flag="0"/>
			<vel value="0.0300975318389251" flag="0"/>
			<psa03 value="0.171282107015647" flag="0"/>
			<psa10 value="0.0389111526728985" flag="0"/>
			<psa30 value="0.00236579151374375" flag="0"/>
		</comp>
		<comp name="--.HNN" depth="0.0">
			<acc value="0.0405103379895493" flag="0"/>
			<vel value="0.0243971171798747" flag="0"/>
			<psa03 value="0.166745108545099" flag="0"/>
			<psa10 value="0.025909142603542" flag="0"/>
			<psa30 value="0.00269444349365781" flag="0"/>
		</comp>
		<comp name="--.HNZ" depth="0.0">
			<acc value="0.0210091506481039" flag="0"/>
			<vel value="0.011700878210296" flag="0"/>
			<psa03 value="0.0264645604389144" flag="0"/>
			<psa10 value="0.0108661432661631" flag="0"/>
			<psa30 value="0.0020747103560456" flag="0"/>
		</comp>
	</station>
	<station code="JAN3" name="JAN3" netid="HI" source="ITSAK Strong Motion Network" insttype="" lat="39.684" lon="20.8379" esm:processing="manual (Paolucci et al 2011)" esm:quality="good">
		<comp name="--.HNE" depth="0.0">
			<acc value="0.0536378779970032" flag="0"/>
			<vel value="0.0303581293362414" flag="0"/>
			<psa03 value="0.0844865030661899" flag="0"/>
			<psa10 value="0.0235509451345331" flag="0"/>
			<psa30 value="0.00184850328760415" flag="0"/>
		</comp>
		<comp name="--.HNN" depth="0.0">
			<acc value="0.0394789667736135" flag="0"/>
			<vel value="0.0182366633645947" flag="0"/>
			<psa03 value="0.111400598492924" flag="0"/>
			<psa10 value="0.0292760406440133" flag="0"/>
			<psa30 value="0.00227321996466627" flag="0"/>
		</comp>
		<comp name="--.HNZ" depth="0.0">
			<acc value="0.0250103735837789" flag="0"/>
			<vel value="0.0115390476573592" flag="0"/>
			<psa03 value="0.0403945170843442" flag="0"/>
			<psa10 value="0.0122966633435976" flag="0"/>
			<psa30 value="0.00165569822354823" flag="0"/>
		</comp>
	</station>
	<station code="KAR2" name="KAR2" netid="HI" source="ITSAK Strong Motion Network" insttype="" lat="39.365759" lon="21.91933" esm:processing="manual (Paolucci et al 2011)" esm:quality="good">
		<comp name="--.HNE" depth="0.0">
			<acc value="1.07841544718024" flag="0"/>
			<vel value="0.360248133022445" flag="0"/>
			<psa03 value="1.08348519224318" flag="0"/>
			<psa10 value="0.310370650532378" flag="0"/>
			<psa30 value="0.032665517263538" flag="0"/>
		</comp>
		<comp name="--.HNN" depth="0.0">
			<acc value="0.445958141232016" flag="0"/>
			<vel value="0.159069745983021" flag="0"/>
			<psa03 value="0.759801249770553" flag="0"/>
			<psa10 value="0.165981795479354" flag="0"/>
			<psa30 value="0.0372769594156154" flag="0"/>
		</comp>
		<comp name="--.HNZ" depth="0.0">
			<acc value="0.301712516528604" flag="0"/>
			<vel value="0.0870798268452762" flag="0"/>
			<psa03 value="0.424439908727577" flag="0"/>
			<psa10 value="0.0782459259085803" flag="0"/>
			<psa30 value="0.0138835255487641" flag="0"/>
		</comp>
	</station>
	<station code="KLV1" name="KLV1" netid="HI" source="ITSAK Strong Motion Network" insttype="" lat="38.03256" lon="22.10797" esm:processing="manual (Paolucci et al 2011)" esm:quality="good">
		<comp name="--.HNE" depth="0.0">
			<acc value="0.0572766374347168" flag="0"/>
			<vel value="0.030923625289075" flag="0"/>
			<psa03 value="0.199388541845682" flag="0"/>
			<psa10 value="0.0398362752077262" flag="0"/>
			<psa30 value="0.00237486586487498" flag="0"/>
		</comp>
		<comp name="--.HNN" depth="0.0">
			<acc value="0.128903766234159" flag="0"/>
			<vel value="0.0427615502897778" flag="0"/>
			<psa03 value="0.212115864134988" flag="0"/>
			<psa10 value="0.023826241496566" flag="0"/>
			<psa30 value="0.00233110171571488" flag="0"/>
		</comp>
		<comp name="--.HNZ" depth="0.0">
			<acc value="0.0933087558301305" flag="0"/>
			<vel value="0.0262422481120392" flag="0"/>
			<psa03 value="0.132763461594428" flag="0"/>
			<psa10 value="0.0254900917184775" flag="0"/>
			<psa30 value="0.00236013509736726" flag="0"/>
		</comp>
	</station>
	<station code="KMV1" name="KMV1" netid="HI" source="ITSAK Strong Motion Network" insttype="" lat="38.7794" lon="22.7846" esm:processing="automatic (Paolucci et al 2011)" esm:quality="best">
		<comp name="--.HNE" depth="0.0">
			<acc value="0.274537248611235" flag="0"/>
			<vel value="0.102818485861021" flag="0"/>
			<psa03 value="0.541797433087605" flag="0"/>
			<psa10 value="0.0769807945998401" flag="0"/>
			<psa30 value="0.00640567267771082" flag="0"/>
		</comp>
		<comp name="--.HNN" depth="0.0">
			<acc value="0.355150162709734" flag="0"/>
			<vel value="0.119326721216407" flag="0"/>
			<psa03 value="0.53947144566902" flag="0"/>
			<psa10 value="0.0859350902779833" flag="0"/>
			<psa30 value="0.00599614471515982" flag="0"/>
		</comp>
		<comp name="--.HNZ" depth="0.0">
			<acc value="0.218111686663817" flag="0"/>
			<vel value="0.0527062758071938" flag="0"/>
			<psa03 value="0.221017745507608" flag="0"/>
			<psa10 value="0.0310059102393842" flag="0"/>
			<psa30 value="0.00329158888494268" flag="0"/>
		</comp>
	</station>
	<station code="KOR2" name="KOR2" netid="HI" source="ITSAK Strong Motion Network" insttype="" lat="37.9401" lon="22.9495" esm:processing="manual (Paolucci et al 2011)" esm:quality="good">
		<comp name="--.HNE" depth="0.0">
			<acc value="0.017439921201012" flag="0"/>
			<vel value="0.0187735903988305" flag="0"/>
			<psa03 value="0.0488220467209891" flag="0"/>
			<psa10 value="0.0330733959501659" flag="0"/>
			<psa30 value="0.00412116634037775" flag="0"/>
		</comp>
		<comp name="--.HNN" depth="0.0">
			<acc value="0.0209624460781182" flag="0"/>
			<vel value="0.0163908134990973" flag="0"/>
			<psa03 value="0.0475306434635278" flag="0"/>
			<psa10 value="0.0258079721514961" flag="0"/>
			<psa30 value="0.00485328817318943" flag="0"/>
		</comp>
		<comp name="--.HNZ" depth="0.0">
			<acc value="0.0220066237879055" flag="0"/>
			<vel value="0.013747191698336" flag="0"/>
			<psa03 value="0.0649333848514032" flag="0"/>
			<psa10 value="0.0155494975779016" flag="0"/>
			<psa30 value="0.00140012827245991" flag="0"/>
		</comp>
	</station>
	<station code="LAM2" name="LAM2" netid="HI" source="ITSAK Strong Motion Network" insttype="" lat="38.90203" lon="22.431301" esm:processing="automatic (Paolucci et al 2011)" esm:quality="best">
		<comp name="--.HNE" depth="0.0">
			<acc value="1.57338261388811" flag="0"/>
			<vel value="0.627418077564201" flag="0"/>
			<psa03 value="2.62868663758881" flag="0"/>
			<psa10 value="0.191336190083564" flag="0"/>
			<psa30 value="0.0190617994173276" flag="0"/>
		</comp>
		<comp name="--.HNN" depth="0.0">
			<acc value="1.54037127400675" flag="0"/>
			<vel value="0.497077001874159" flag="0"/>
			<psa03 value="1.56923728760222" flag="0"/>
			<psa10 value="0.403143936307252" flag="0"/>
			<psa30 value="0.0408783246550546" flag="0"/>
		</comp>
		<comp name="--.HNZ" depth="0.0">
			<acc value="1.29636835602161" flag="0"/>
			<vel value="0.200194288057687" flag="0"/>
			<psa03 value="0.754760999212023" flag="0"/>
			<psa10 value="0.132555276136496" flag="0"/>
			<psa30 value="0.0153043488380007" flag="0"/>
		</comp>
	</station>
