<?xml version="1.0" encoding="UTF-8" standalone="yes"?>
<!DOCTYPE earthquake SYSTEM "stationlist.dtd">
<stationlist created="" xmlns="ch.ethz.sed.shakemap.usgs.xml">
  <station code="GAZ" name="GAZ" netid="KO" insttype="CMG-3T" lat="37.1721" lon="37.2096">
    <comp name="--.HHN">
      <acc value="0.0172068393" flag="0"/>
      <vel value="0.0056068384" flag="0"/>
      <psa03 value="0.0570180651" flag="0"/>
      <psa10 value="0.0030765861" flag="0"/>
      <psa30 value="0.0001571921" flag="0"/>
    </comp>
    <comp name="--.HHZ">
      <acc value="0.0097142772" flag="0"/>
      <vel value="0.0041977459" flag="0"/>
      <psa03 value="0.0154596233" flag="0"/>
      <psa10 value="0.0019566122" flag="0"/>
      <psa30 value="0.0001729610" flag="0"/>
    </comp>
    <comp name="--.HHE">
      <acc value="0.0194194021" flag="0"/>
      <vel value="0.0091360813" flag="0"/>
      <psa03 value="0.0548295405" flag="0"/>
      <psa10 value="0.0060425501" flag="0"/>
      <psa30 value="0.0003485114" flag="0"/>
    </comp>
  </station>
  <station code="KMRS" name="KMRS" netid="KO" insttype="CMG-3T" lat="37.5053" lon="36.9">
    <comp name="--.HHE">
      <acc value="0.0072908954" flag="0"/>
      <vel value="0.0037003736" flag="0"/>
      <psa03 value="0.0173388024" flag="0"/>
      <psa10 value="0.0049162079" flag="0"/>
      <psa30 value="0.0003567474" flag="0"/>
    </comp>
    <comp name="--.HHN">
      <acc value="0.0138580441" flag="0"/>
      <vel value="0.0053614758" flag="0"/>
      <psa03 value="0.0301025411" flag="0"/>
      <psa10 value="0.0029819641" flag="0"/>
      <psa30 value="0.0003600509" flag="0"/>
    </comp>
    <comp name="--.HHZ">
      <acc value="0.0082858696" flag="0"/>
      <vel value="0.0031839820" flag="0"/>
      <psa03 value="0.0147065591" flag="0"/>
      <psa10 value="0.0021491617" flag="0"/>
      <psa30 value="0.0002851700" flag="0"/>
    </comp>
  </station>
  <station code="SARI" name="SARI" netid="KO" insttype="CMG-3T" lat="38.4072" lon="36.4181">
    <comp name="--.HHE">
      <acc value="0.0286339346" flag="0"/>
      <vel value="0.0087634767" flag="0"/>
      <psa03 value="0.0420238078" flag="0"/>
      <psa10 value="0.0054758247" flag="0"/>
      <psa30 value="0.0005299615" flag="0"/>
    </comp>
    <comp name="--.HHN">
      <acc value="0.0257420504" flag="0"/>
      <vel value="0.0088890606" flag="0"/>
      <psa03 value="0.0365755139" flag="0"/>
      <psa10 value="0.0046059969" flag="0"/>
      <psa30 value="0.0004527926" flag="0"/>
    </comp>
    <comp name="--.HHZ">
      <acc value="0.0188225509" flag="0"/>
      <vel value="0.0039515106" flag="0"/>
      <psa03 value="0.0170288581" flag="0"/>
      <psa10 value="0.0029926969" flag="0"/>
      <psa30 value="0.0003395033" flag="0"/>
    </comp>
  </station>
  <station code="ANDN" name="ANDN" netid="TU" insttype="T" lat="37.58" lon="36.3452">
    <comp name="--.HHN">
      <acc value="0.0513718762" flag="0"/>
      <vel value="0.0153778379" flag="0"/>
      <psa03 value="0.0823655670" flag="0"/>
      <psa10 value="0.0123159967" flag="0"/>
      <psa30 value="0.0009778770" flag="0"/>
    </comp>
    <comp name="--.HHZ">
      <acc value="0.0199654317" flag="0"/>
      <vel value="0.0070950756" flag="0"/>
      <psa03 value="0.0453542989" flag="0"/>
      <psa10 value="0.0099083537" flag="0"/>
      <psa30 value="0.0008114028" flag="0"/>
    </comp>
    <comp name="--.HHE">
      <acc value="0.0268866860" flag="0"/>
      <vel value="0.0097274714" flag="0"/>
      <psa03 value="0.0493686694" flag="0"/>
      <psa10 value="0.0119573507" flag="0"/>
      <psa30 value="0.0007895657" flag="0"/>
    </comp>
  </station>
</stationlist>
