<?xml version="1.0" encoding="UTF-8" standalone="yes"?>
<!DOCTYPE earthquake SYSTEM "stationlist.dtd">
<stationlist created="" xmlns="ch.ethz.sed.shakemap.usgs.xml">
  <station code="DARE" name="DARE" netid="KO" insttype="CMG-3ESP" lat="38.5712" lon="37.4832">
    <comp name="--.HHZ">
      <acc value="0.0030361954" flag="0"/>
      <vel value="0.0012467867" flag="0"/>
      <psa03 value="0.0082345039" flag="0"/>
      <psa10 value="0.0013897520" flag="0"/>
      <psa30 value="0.0001050321" flag="0"/>
    </comp>
    <comp name="--.HHE">
      <acc value="0.0040944704" flag="0"/>
      <vel value="0.0017765983" flag="0"/>
      <psa03 value="0.0057333547" flag="0"/>
      <psa10 value="0.0020811675" flag="0"/>
      <psa30 value="0.0000957909" flag="0"/>
    </comp>
    <comp name="--.HHN">
      <acc value="0.0040526963" flag="0"/>
      <vel value="0.0018615412" flag="0"/>
      <psa03 value="0.0078440786" flag="0"/>
      <psa10 value="0.0016131969" flag="0"/>
      <psa30 value="0.0001434441" flag="0"/>
    </comp>
  </station>
  <station code="KMRS" name="KMRS" netid="KO" insttype="CMG-3T" lat="37.5053" lon="36.9">
    <comp name="--.HHN">
      <acc value="0.0138580443" flag="0"/>
      <vel value="0.0053614760" flag="0"/>
      <psa03 value="0.0301025411" flag="0"/>
      <psa10 value="0.0029819641" flag="0"/>
      <psa30 value="0.0003600509" flag="0"/>
    </comp>
    <comp name="--.HHE">
      <acc value="0.0072908955" flag="0"/>
      <vel value="0.0037003736" flag="0"/>
      <psa03 value="0.0173388024" flag="0"/>
      <psa10 value="0.0049162079" flag="0"/>
      <psa30 value="0.0003567373" flag="0"/>
    </comp>
    <comp name="--.HHZ">
      <acc value="0.0082858693" flag="0"/>
      <vel value="0.0031839818" flag="0"/>
      <psa03 value="0.0147065591" flag="0"/>
      <psa10 value="0.0021491617" flag="0"/>
      <psa30 value="0.0002851699" flag="0"/>
    </comp>
  </station>
  <station code="SARI" name="SARI" netid="KO" insttype="CMG-3T" lat="38.4072" lon="36.4181">
    <comp name="--.HHE">
      <acc value="0.0286339349" flag="0"/>
      <vel value="0.0087634762" flag="0"/>
      <psa03 value="0.0420238078" flag="0"/>
      <psa10 value="0.0054758248" flag="0"/>
      <psa30 value="0.0005301620" flag="0"/>
    </comp>
    <comp name="--.HHN">
      <acc value="0.0257420503" flag="0"/>
      <vel value="0.0088890608" flag="0"/>
      <psa03 value="0.0365755139" flag="0"/>
      <psa10 value="0.0046059967" flag="0"/>
      <psa30 value="0.0004528862" flag="0"/>
    </comp>
    <comp name="--.HHZ">
      <acc value="0.0188225512" flag="0"/>
      <vel value="0.0039515106" flag="0"/>
      <psa03 value="0.0170288581" flag="0"/>
      <psa10 value="0.0029926982" flag="0"/>
      <psa30 value="0.0003394406" flag="0"/>
    </comp>
  </station>
  <station code="ANDN" name="ANDN" netid="TU" insttype="T" lat="37.58" lon="36.3452">
    <comp name="--.HHE">
      <acc value="0.0268866860" flag="0"/>
      <vel value="0.0097274730" flag="0"/>
      <psa03 value="0.0493686694" flag="0"/>
      <psa10 value="0.0119573507" flag="0"/>
      <psa30 value="0.0007895403" flag="0"/>
    </comp>
    <comp name="--.HHN">
      <acc value="0.0513718756" flag="0"/>
      <vel value="0.0153778381" flag="0"/>
      <psa03 value="0.0823655670" flag="0"/>
      <psa10 value="0.0123159967" flag="0"/>
      <psa30 value="0.0009778376" flag="0"/>
    </comp>
    <comp name="--.HHZ">
      <acc value="0.0199654310" flag="0"/>
      <vel value="0.0070950763" flag="0"/>
      <psa03 value="0.0453542989" flag="0"/>
      <psa10 value="0.0099083537" flag="0"/>
      <psa30 value="0.0008114303" flag="0"/>
    </comp>
  </station>
</stationlist>
