<?xml version="1.0" encoding="UTF-8" standalone="yes"?>
<!DOCTYPE earthquake SYSTEM "stationlist.dtd">
<stationlist created="" xmlns="ch.ethz.sed.shakemap.usgs.xml">
  <station code="BAYT" name="BAYT" netid="KO" insttype="CMG-3ESPC" lat="40.3937" lon="40.141">
    <comp name="--.HHE">
      <acc value="0.0217385695" flag="0"/>
      <vel value="0.0050313560" flag="0"/>
      <psa03 value="0.0250178349" flag="0"/>
      <psa10 value="0.0015434875" flag="0"/>
      <psa30 value="0.0001177162" flag="0"/>
    </comp>
    <comp name="--.HHZ">
      <acc value="0.0018031881" flag="0"/>
      <vel value="0.0008085984" flag="0"/>
      <psa03 value="0.0077671213" flag="0"/>
      <psa10 value="0.0001756947" flag="0"/>
      <psa30 value="0.0000163307" flag="0"/>
    </comp>
    <comp name="--.HHN">
      <acc value="0.0208676824" flag="0"/>
      <vel value="0.0044707615" flag="0"/>
      <psa03 value="0.0237773293" flag="0"/>
      <psa10 value="0.0015227326" flag="0"/>
      <psa30 value="0.0001146794" flag="0"/>
    </comp>
  </station>
  <station code="ERZN" name="ERZN" netid="KO" insttype="CMG-3ESP" lat="39.5867" lon="39.722">
    <comp name="--.HHN">
      <acc value="0.0324466051" flag="0"/>
      <vel value="0.0106305953" flag="0"/>
      <psa03 value="0.0516077207" flag="0"/>
      <psa10 value="0.0032073657" flag="0"/>
      <psa30 value="0.0003571372" flag="0"/>
    </comp>
    <comp name="--.HHZ">
      <acc value="0.0224465774" flag="0"/>
      <vel value="0.0031237000" flag="0"/>
      <psa03 value="0.0100511118" flag="0"/>
      <psa10 value="0.0008210282" flag="0"/>
      <psa30 value="0.0001122777" flag="0"/>
    </comp>
    <comp name="--.HHE">
      <acc value="0.0244028737" flag="0"/>
      <vel value="0.0071748756" flag="0"/>
      <psa03 value="0.0199181988" flag="0"/>
      <psa10 value="0.0021486753" flag="0"/>
      <psa30 value="0.0001472828" flag="0"/>
    </comp>
  </station>
  <station code="KTUT" name="KTUT" netid="KO" insttype="CMG-3T" lat="40.987" lon="39.7667">
    <comp name="--.HHE">
      <acc value="0.0229213832" flag="0"/>
      <vel value="0.0048211322" flag="0"/>
      <psa03 value="0.0217501636" flag="0"/>
      <psa10 value="0.0025758956" flag="0"/>
      <psa30 value="0.0002310266" flag="0"/>
    </comp>
    <comp name="--.HHZ">
      <acc value="0.0113547753" flag="0"/>
      <vel value="0.0028913413" flag="0"/>
      <psa03 value="0.0083600949" flag="0"/>
      <psa10 value="0.0016596118" flag="0"/>
      <psa30 value="0.0000994613" flag="0"/>
    </comp>
    <comp name="--.HHN">
      <acc value="0.0173678088" flag="0"/>
      <vel value="0.0033186139" flag="0"/>
      <psa03 value="0.0144210194" flag="0"/>
      <psa10 value="0.0009637931" flag="0"/>
      <psa30 value="0.0000681194" flag="0"/>
    </comp>
  </station>
</stationlist>
