<?xml version="1.0" encoding="UTF-8" standalone="yes"?>
<!DOCTYPE earthquake SYSTEM "stationlist.dtd">
<stationlist created="" xmlns="ch.ethz.sed.shakemap.usgs.xml">
  <station code="ZKR" name="ZKR" netid="GE" source="GFZ" insttype="STS-2/N" lat="35.1147" lon="26.2169">
    <comp name="--.HHE">
      <acc value="0.9426427601" flag="0"/>
      <vel value="0.2626929571" flag="0"/>
      <psa03 value="0.8257335804" flag="0"/>
      <psa10 value="0.1241293845" flag="0"/>
      <psa30 value="0.0100350897" flag="0"/>
    </comp>
    <comp name="--.HHN">
      <acc value="0.3209904258" flag="0"/>
      <vel value="0.0760267608" flag="0"/>
      <psa03 value="0.4907144419" flag="0"/>
      <psa10 value="0.0263964830" flag="0"/>
      <psa30 value="0.0020270843" flag="0"/>
    </comp>
    <comp name="--.HHZ">
      <acc value="0.5974467497" flag="0"/>
      <vel value="0.1083280388" flag="0"/>
      <psa03 value="0.3933801540" flag="0"/>
      <psa10 value="0.0489994483" flag="0"/>
      <psa30 value="0.0035822343" flag="0"/>
    </comp>
  </station>
  <station code="FRMA" name="FRMA" netid="HC" source="NOA" insttype="60" lat="35.0187" lon="25.8555">
    <comp name="--.HHE">
      <acc value="2.7046321751" flag="0"/>
      <vel value="0.6295627561" flag="0"/>
      <psa03 value="2.7079782712" flag="0"/>
      <psa10 value="0.1655511401" flag="0"/>
      <psa30 value="0.0154710068" flag="0"/>
    </comp>
    <comp name="--.HHN">
      <acc value="2.9055007424" flag="0"/>
      <vel value="0.6592954232" flag="0"/>
      <psa03 value="1.9060341284" flag="0"/>
      <psa10 value="0.1090466956" flag="0"/>
      <psa30 value="0.0082043910" flag="0"/>
    </comp>
    <comp name="--.HHZ">
      <acc value="1.7192138858" flag="0"/>
      <vel value="0.3125934392" flag="0"/>
      <psa03 value="0.5662135530" flag="0"/>
      <psa10 value="0.0447713794" flag="0"/>
      <psa30 value="0.0032849061" flag="0"/>
    </comp>
  </station>
  <station code="HRKL" name="HRKL" netid="HC" source="NOA" insttype="120" lat="35.3115" lon="25.1016">
    <comp name="--.HHE">
      <acc value="0.0773726299" flag="0"/>
      <vel value="0.0571842318" flag="0"/>
      <psa03 value="0.2077954173" flag="0"/>
      <psa10 value="0.1223122717" flag="0"/>
      <psa30 value="0.0041738301" flag="0"/>
    </comp>
    <comp name="--.HHN">
      <acc value="0.0799347616" flag="0"/>
      <vel value="0.0488323240" flag="0"/>
      <psa03 value="0.2466958233" flag="0"/>
      <psa10 value="0.0616779448" flag="0"/>
      <psa30 value="0.0025905368" flag="0"/>
    </comp>
    <comp name="--.HHZ">
      <acc value="0.0681837785" flag="0"/>
      <vel value="0.0435343388" flag="0"/>
      <psa03 value="0.3478322400" flag="0"/>
      <psa10 value="0.0372422479" flag="0"/>
      <psa30 value="0.0018096511" flag="0"/>
    </comp>
  </station>
  <station code="KSTL" name="KSTL" netid="HC" source="NOA" insttype="1s-100Hz," lat="35.2092" lon="25.3374">
    <comp name="--.HHE">
      <acc value="0.0534305975" flag="0"/>
      <vel value="0.0265774983" flag="0"/>
      <psa03 value="0.2003047834" flag="0"/>
      <psa10 value="0.0120476352" flag="0"/>
      <psa30 value="0.0008064319" flag="0"/>
    </comp>
    <comp name="--.HHN">
      <acc value="0.0539764452" flag="0"/>
      <vel value="0.0333016058" flag="0"/>
      <psa03 value="0.1843199722" flag="0"/>
      <psa10 value="0.0190001548" flag="0"/>
      <psa30 value="0.0013517527" flag="0"/>
    </comp>
    <comp name="--.HHZ">
      <acc value="0.0212604932" flag="0"/>
      <vel value="0.0098997981" flag="0"/>
      <psa03 value="0.0760143899" flag="0"/>
      <psa10 value="0.0061610176" flag="0"/>
      <psa30 value="0.0004929108" flag="0"/>
    </comp>
  </station>
  <station code="IACM" name="IACM" netid="HL" source="NOA" insttype="120" lat="35.3058" lon="25.0709">
    <comp name="--.HHE">
      <acc value="0.0951254118" flag="0"/>
      <vel value="0.0609409114" flag="0"/>
      <psa03 value="0.3132799753" flag="0"/>
      <psa10 value="0.0795002685" flag="0"/>
      <psa30 value="0.0028896124" flag="0"/>
    </comp>
    <comp name="--.HHN">
      <acc value="0.0715316354" flag="0"/>
      <vel value="0.0495725066" flag="0"/>
      <psa03 value="0.2970233340" flag="0"/>
      <psa10 value="0.0395757561" flag="0"/>
      <psa30 value="0.0024564292" flag="0"/>
    </comp>
    <comp name="--.HHZ">
      <acc value="0.0514421726" flag="0"/>
      <vel value="0.0230603903" flag="0"/>
      <psa03 value="0.1546460611" flag="0"/>
      <psa10 value="0.0272494857" flag="0"/>
      <psa30 value="0.0009522083" flag="0"/>
    </comp>
  </station>
  <station code="IDI" name="IDI" netid="HL" source="NOA" insttype="120" lat="35.288" lon="24.89">
    <comp name="--.HHE">
      <acc value="0.0093273979" flag="0"/>
      <vel value="0.0049298392" flag="0"/>
      <psa03 value="0.0257077024" flag="0"/>
      <psa10 value="0.0039291800" flag="0"/>
      <psa30 value="0.0003087741" flag="0"/>
    </comp>
    <comp name="--.HHN">
      <acc value="0.0109485139" flag="0"/>
      <vel value="0.0057585432" flag="0"/>
      <psa03 value="0.0324164453" flag="0"/>
      <psa10 value="0.0050453985" flag="0"/>
      <psa30 value="0.0002569663" flag="0"/>
    </comp>
    <comp name="--.HHZ">
      <acc value="0.0097061405" flag="0"/>
      <vel value="0.0042970491" flag="0"/>
      <psa03 value="0.0351085796" flag="0"/>
      <psa10 value="0.0054084851" flag="0"/>
      <psa30 value="0.0003920401" flag="0"/>
    </comp>
  </station>
  <station code="LAST" name="LAST" netid="HL" source="NOA" insttype="30" lat="35.1615" lon="25.4782">
    <comp name="--.HHE">
      <acc value="0.0507577251" flag="0"/>
      <vel value="0.0213719401" flag="0"/>
      <psa03 value="0.1374460051" flag="0"/>
      <psa10 value="0.0101906133" flag="0"/>
      <psa30 value="0.0007045653" flag="0"/>
    </comp>
    <comp name="--.HHN">
      <acc value="0.0559241861" flag="0"/>
      <vel value="0.0329991876" flag="0"/>
      <psa03 value="0.1591609298" flag="0"/>
      <psa10 value="0.0201659035" flag="0"/>
      <psa30 value="0.0012606323" flag="0"/>
    </comp>
    <comp name="--.HHZ">
      <acc value="0.0267634072" flag="0"/>
      <vel value="0.0091666292" flag="0"/>
      <psa03 value="0.0713088349" flag="0"/>
      <psa10 value="0.0072165888" flag="0"/>
      <psa30 value="0.0005828104" flag="0"/>
    </comp>
  </station>
  <station code="NPS" name="NPS" netid="HL" source="NOA" insttype="120" lat="35.2613" lon="25.6104">
    <comp name="--.HHE">
      <acc value="0.1509854333" flag="0"/>
      <vel value="0.0560763301" flag="0"/>
      <psa03 value="0.4624215098" flag="0"/>
      <psa10 value="0.0279380365" flag="0"/>
      <psa30 value="0.0015013552" flag="0"/>
    </comp>
    <comp name="--.HHN">
      <acc value="0.0851140456" flag="0"/>
      <vel value="0.0316973992" flag="0"/>
      <psa03 value="0.2386860363" flag="0"/>
      <psa10 value="0.0085488358" flag="0"/>
      <psa30 value="0.0006606165" flag="0"/>
    </comp>
    <comp name="--.HHZ">
      <acc value="0.0810567827" flag="0"/>
      <vel value="0.0217874614" flag="0"/>
      <psa03 value="0.0984263330" flag="0"/>
      <psa10 value="0.0091095740" flag="0"/>
      <psa30 value="0.0004817171" flag="0"/>
    </comp>
  </station>
  <station code="SIVA" name="SIVA" netid="HL" source="NOA" insttype="60" lat="35.0178" lon="24.812">
    <comp name="--.HHE">
      <acc value="0.0318276825" flag="0"/>
      <vel value="0.0203235000" flag="0"/>
      <psa03 value="0.1135650531" flag="0"/>
      <psa10 value="0.0277273334" flag="0"/>
      <psa30 value="0.0009053213" flag="0"/>
    </comp>
    <comp name="--.HHN">
      <acc value="0.0208258337" flag="0"/>
      <vel value="0.0129647910" flag="0"/>
      <psa03 value="0.0676337989" flag="0"/>
      <psa10 value="0.0142750656" flag="0"/>
      <psa30 value="0.0007994767" flag="0"/>
    </comp>
    <comp name="--.HHZ">
      <acc value="0.0131855109" flag="0"/>
      <vel value="0.0085913327" flag="0"/>
      <psa03 value="0.0415469460" flag="0"/>
      <psa10 value="0.0118900271" flag="0"/>
      <psa30 value="0.0006295432" flag="0"/>
    </comp>
  </station>
  <station code="ZKR" name="ZKR" netid="HL" source="NOA" insttype="120" lat="35.1147" lon="26.2169">
    <comp name="--.HHE">
      <acc value="0.9139423143" flag="0"/>
      <vel value="0.2594692289" flag="0"/>
      <psa03 value="0.8039136527" flag="0"/>
      <psa10 value="0.1223662686" flag="0"/>
      <psa30 value="0.0098763033" flag="0"/>
    </comp>
  </station>
  <station code="IDI" name="IDI" netid="MN" source="INGV" insttype="" lat="35.288" lon="24.89">
    <comp name="--.HHE">
      <acc value="0.0089925895" flag="0"/>
      <vel value="0.0047226300" flag="0"/>
      <psa03 value="0.0245140202" flag="0"/>
      <psa10 value="0.0036999226" flag="0"/>
      <psa30 value="0.0002895669" flag="0"/>
    </comp>
    <comp name="--.HHN">
      <acc value="0.0107887398" flag="0"/>
      <vel value="0.0054961416" flag="0"/>
      <psa03 value="0.0314147201" flag="0"/>
      <psa10 value="0.0048090680" flag="0"/>
      <psa30 value="0.0002452198" flag="0"/>
    </comp>
    <comp name="--.HHZ">
      <acc value="0.0095267466" flag="0"/>
      <vel value="0.0041427187" flag="0"/>
      <psa03 value="0.0339092274" flag="0"/>
      <psa10 value="0.0051474655" flag="0"/>
      <psa30 value="0.0003719169" flag="0"/>
    </comp>
  </station>
</stationlist>
