<stationlist xmlns:esm="https://esm-db.eu/esmws/shakemap/1/" created="1783475630">
	<station code="IMMV" name="IMMV" netid="GE" source="GEOFON" insttype="" lat="35.4606" lon="23.9811" esm:processing="manual (Paolucci et al 2011)" esm:quality="best">
		<comp name="--.HNE" depth="0.0">
			<acc value="0.00526264753402325" flag="0"/>
			<vel value="0.00323039990184226" flag="0"/>
			<psa03 value="0.0178073982340722" flag="0"/>
			<psa10 value="0.00668045887017416" flag="0"/>
			<psa30 value="0.00047918903288169" flag="0"/>
		</comp>
		<comp name="--.HNN" depth="0.0">
			<acc value="0.00568922517130417" flag="0"/>
			<vel value="0.00356527588675662" flag="0"/>
			<psa03 value="0.0195076020855665" flag="0"/>
			<psa10 value="0.00532342774344197" flag="0"/>
			<psa30 value="0.000462186994366747" flag="0"/>
		</comp>
		<comp name="--.HNZ" depth="0.0">
			<acc value="0.00418640969167731" flag="0"/>
			<vel value="0.00269164111824605" flag="0"/>
			<psa03 value="0.0153913190766855" flag="0"/>
			<psa10 value="0.00385767305462739" flag="0"/>
			<psa30 value="0.00029306145334968" flag="0"/>
		</comp>
	</station>
	<station code="KARP" name="KARP" netid="GE" source="GEOFON" insttype="" lat="35.5471" lon="27.16106" esm:processing="manual (Paolucci et al 2011)" esm:quality="best">
		<comp name="--.HNE" depth="0.0">
			<acc value="0.0187483036625284" flag="0"/>
			<vel value="0.00687163077595203" flag="0"/>
			<psa03 value="0.0340488192365048" flag="0"/>
			<psa10 value="0.00732474664547727" flag="0"/>
			<psa30 value="0.000439368468991429" flag="0"/>
		</comp>
		<comp name="--.HNN" depth="0.0">
			<acc value="0.0160005214413639" flag="0"/>
			<vel value="0.0111847883502244" flag="0"/>
			<psa03 value="0.0432209715932505" flag="0"/>
			<psa10 value="0.0119998598150205" flag="0"/>
			<psa30 value="0.000589254861162639" flag="0"/>
		</comp>
		<comp name="--.HNZ" depth="0.0">
			<acc value="0.0167474678822325" flag="0"/>
			<vel value="0.0065351098863291" flag="0"/>
			<psa03 value="0.0478294188749325" flag="0"/>
			<psa10 value="0.00598382271312766" flag="0"/>
			<psa30 value="0.000483663253543518" flag="0"/>
		</comp>
	</station>
	<station code="RGE1" name="RGE1" netid="HI" source="ITSAK Strong Motion Network" insttype="" lat="36.0269" lon="27.9306" esm:processing="manual (Paolucci et al 2011)" esm:quality="good">
		<comp name="--.HNE" depth="0.0">
			<acc value="0.00352053291859261" flag="0"/>
			<vel value="0.0021854268988785" flag="0"/>
			<psa03 value="0.0113620456485208" flag="0"/>
			<psa10 value="0.00304756391740103" flag="0"/>
			<psa30 value="0.00019728670208817" flag="0"/>
		</comp>
		<comp name="--.HNN" depth="0.0">
			<acc value="0.00361438811982058" flag="0"/>
			<vel value="0.00238471584328894" flag="0"/>
			<psa03 value="0.00954176816301907" flag="0"/>
			<psa10 value="0.00384997129170308" flag="0"/>
			<psa30 value="0.000195157706886178" flag="0"/>
		</comp>
		<comp name="--.HNZ" depth="0.0">
			<acc value="0.00385244467533193" flag="0"/>
			<vel value="0.00189253511289925" flag="0"/>
			<psa03 value="0.0113244233645426" flag="0"/>
			<psa10 value="0.00159359470845355" flag="0"/>
			<psa30 value="0.000119249397083296" flag="0"/>
		</comp>
	</station>
	<station code="SIT2" name="SIT2" netid="HI" source="ITSAK Strong Motion Network" insttype="" lat="35.2059" lon="26.107" esm:processing="manual (Paolucci et al 2011)" esm:quality="best">
		<comp name="--.HNE" depth="0.0">
			<acc value="1.98023592059665" flag="0"/>
			<vel value="0.989143126024315" flag="0"/>
			<psa03 value="5.40749834967771" flag="0"/>
			<psa10 value="0.383468003464626" flag="0"/>
			<psa30 value="0.0229509623069087" flag="0"/>
		</comp>
		<comp name="--.HNN" depth="0.0">
			<acc value="1.79151625323926" flag="0"/>
			<vel value="0.756489629065271" flag="0"/>
			<psa03 value="3.65839126634961" flag="0"/>
			<psa10 value="0.309729267581185" flag="0"/>
			<psa30 value="0.0222525364615975" flag="0"/>
		</comp>
		<comp name="--.HNZ" depth="0.0">
			<acc value="2.393931240907" flag="0"/>
			<vel value="0.716488673636699" flag="0"/>
			<psa03 value="3.63995747722288" flag="0"/>
			<psa10 value="0.104527637945739" flag="0"/>
			<psa30 value="0.0115399099309846" flag="0"/>
		</comp>
	</station>
	<station code="AGNA" name="AGNA" netid="HL" source="National Observatory of Athens Seismic Network" insttype="" lat="35.1895" lon="25.71853" esm:processing="automatic (Paolucci et al 2011)" esm:quality="best">
		<comp name="00.HNE" depth="0.0">
			<acc value="0.145182980076159" flag="0"/>
			<vel value="0.0645350005919076" flag="0"/>
			<psa03 value="0.412920937318783" flag="0"/>
			<psa10 value="0.0202251816940097" flag="0"/>
			<psa30 value="0.00240444594940915" flag="0"/>
		</comp>
		<comp name="00.HNN" depth="0.0">
			<acc value="0.1865924853718" flag="0"/>
			<vel value="0.0835125729275532" flag="0"/>
			<psa03 value="0.803590150570952" flag="0"/>
			<psa10 value="0.0328939728142811" flag="0"/>
			<psa30 value="0.00267596643631114" flag="0"/>
		</comp>
		<comp name="00.HNZ" depth="0.0">
			<acc value="0.100516071587386" flag="0"/>
			<vel value="0.0391692769817733" flag="0"/>
			<psa03 value="0.217278476966294" flag="0"/>
			<psa10 value="0.0130846777332027" flag="0"/>
			<psa30 value="0.00108353677899217" flag="0"/>
		</comp>
	</station>
	<station code="GVD" name="GVD" netid="HL" source="National Observatory of Athens Seismic Network" insttype="" lat="34.83914" lon="24.08738" esm:processing="manual (Paolucci et al 2011)" esm:quality="good">
		<comp name="00.HNE" depth="1.0">
			<acc value="0.0055058859612956" flag="0"/>
			<vel value="0.00397353065054998" flag="0"/>
			<psa03 value="0.0204434337042526" flag="0"/>
			<psa10 value="0.00530373822164718" flag="0"/>
			<psa30 value="0.000350800270046101" flag="0"/>
		</comp>
		<comp name="00.HNN" depth="1.0">
			<acc value="0.00570666579182854" flag="0"/>
			<vel value="0.00413531200116257" flag="0"/>
			<psa03 value="0.0254053913158366" flag="0"/>
			<psa10 value="0.00350075401714618" flag="0"/>
			<psa30 value="0.000392922148955702" flag="0"/>
		</comp>
		<comp name="00.HNZ" depth="1.0">
			<acc value="0.00244756441922346" flag="0"/>
			<vel value="0.00159874669845642" flag="0"/>
			<psa03 value="0.00914714892248782" flag="0"/>
			<psa10 value="0.00303290654017399" flag="0"/>
			<psa30 value="0.000210841219800398" flag="0"/>
		</comp>
	</station>
	<station code="HERG" name="HERG" netid="HL" source="National Observatory of Athens Seismic Network" insttype="" lat="35.32622" lon="25.06586" esm:processing="automatic (Paolucci et al 2011)" esm:quality="best">
		<comp name="00.HNE" depth="0.0">
			<acc value="0.0404625525285433" flag="0"/>
			<vel value="0.0283331320337646" flag="0"/>
			<psa03 value="0.122467748304159" flag="0"/>
			<psa10 value="0.0411862221350469" flag="0"/>
			<psa30 value="0.00223028253693687" flag="0"/>
		</comp>
		<comp name="00.HNN" depth="0.0">
			<acc value="0.0447432005860437" flag="0"/>
			<vel value="0.0222245380239659" flag="0"/>
			<psa03 value="0.182715041474982" flag="0"/>
			<psa10 value="0.02983746221042" flag="0"/>
			<psa30 value="0.00265290636702828" flag="0"/>
		</comp>
		<comp name="00.HNZ" depth="0.0">
			<acc value="0.0334317783253068" flag="0"/>
			<vel value="0.0247346844242219" flag="0"/>
			<psa03 value="0.117592769110658" flag="0"/>
			<psa10 value="0.015605553478816" flag="0"/>
			<psa30 value="0.000899472293958197" flag="0"/>
		</comp>
	</station>
	<station code="IACM" name="IACM" netid="HL" source="National Observatory of Athens Seismic Network" insttype="" lat="35.3058" lon="25.0709" esm:processing="manual (Paolucci et al 2011)" esm:quality="good">
		<comp name="--.HNE" depth="0.0">
			<acc value="0.0958197889129689" flag="0"/>
			<vel value="0.0602128549824141" flag="0"/>
			<psa03 value="0.311003078203607" flag="0"/>
			<psa10 value="0.0796581298190387" flag="0"/>
			<psa30 value="0.00289258365787127" flag="0"/>
		</comp>
		<comp name="--.HNN" depth="0.0">
			<acc value="0.0744240004853714" flag="0"/>
			<vel value="0.0502846209198932" flag="0"/>
			<psa03 value="0.30858699904622" flag="0"/>
			<psa10 value="0.0397002073544587" flag="0"/>
			<psa30 value="0.00258252016600665" flag="0"/>
		</comp>
		<comp name="--.HNZ" depth="0.0">
			<acc value="0.0517293746830687" flag="0"/>
			<vel value="0.0229756952235168" flag="0"/>
			<psa03 value="0.155971332271295" flag="0"/>
			<psa10 value="0.0272090781107696" flag="0"/>
			<psa30 value="0.000983433701469613" flag="0"/>
		</comp>
	</station>
	<station code="IMMV" name="IMMV" netid="HL" source="National Observatory of Athens Seismic Network" insttype="" lat="35.4606" lon="23.9811" esm:processing="manual (Paolucci et al 2011)" esm:quality="best">
		<comp name="--.HNE" depth="0.0">
			<acc value="0.00515655017281518" flag="0"/>
			<vel value="0.00318947634785445" flag="0"/>
			<psa03 value="0.017449460581126" flag="0"/>
			<psa10 value="0.0065395209193266" flag="0"/>
			<psa30 value="0.000465318948830026" flag="0"/>
		</comp>
		<comp name="--.HNN" depth="0.0">
			<acc value="0.00557233375316394" flag="0"/>
			<vel value="0.00347283817402609" flag="0"/>
			<psa03 value="0.019104922226002" flag="0"/>
			<psa10 value="0.00521873097995522" flag="0"/>
			<psa30 value="0.000442053001388525" flag="0"/>
		</comp>
		<comp name="--.HNZ" depth="0.0">
			<acc value="0.00410351204139308" flag="0"/>
			<vel value="0.00265452182813932" flag="0"/>
			<psa03 value="0.0150781236303576" flag="0"/>
			<psa10 value="0.00378519067990579" flag="0"/>
			<psa30 value="0.000271137772106727" flag="0"/>
		</comp>
	</station>
	<station code="KARP" name="KARP" netid="HL" source="National Observatory of Athens Seismic Network" insttype="" lat="35.5471" lon="27.16106" esm:processing="manual (Paolucci et al 2011)" esm:quality="best">
		<comp name="--.HNE" depth="0.0">
			<acc value="0.0183720064040145" flag="0"/>
			<vel value="0.00665879158487924" flag="0"/>
			<psa03 value="0.0333776861372307" flag="0"/>
			<psa10 value="0.00717575509743842" flag="0"/>
			<psa30 value="0.00043131487180014" flag="0"/>
		</comp>
		<comp name="--.HNN" depth="0.0">
			<acc value="0.0156793620479682" flag="0"/>
			<vel value="0.0109828480603965" flag="0"/>
			<psa03 value="0.0423261274608851" flag="0"/>
			<psa10 value="0.0117542251006862" flag="0"/>
			<psa30 value="0.000572252822647696" flag="0"/>
		</comp>
		<comp name="--.HNZ" depth="0.0">
			<acc value="0.0164181420543415" flag="0"/>
			<vel value="0.00636476498738964" flag="0"/>
			<psa03 value="0.0468450903293305" flag="0"/>
			<psa10 value="0.0058509383594714" flag="0"/>
			<psa30 value="0.000459949884035834" flag="0"/>
		</comp>
	</station>
	<station code="NISR" name="NISR" netid="HL" source="National Observatory of Athens Seismic Network" insttype="" lat="36.6106" lon="27.131" esm:processing="automatic (Paolucci et al 2011)" esm:quality="good">
		<comp name="00.HNE" depth="0.0">
			<acc value="0.00776109604572826" flag="0"/>
			<vel value="0.00407608696831826" flag="0"/>
			<psa03 value="0.0196865709120396" flag="0"/>
			<psa10 value="0.00674891444630011" flag="0"/>
			<psa30 value="0.00035570054261526" flag="0"/>
		</comp>
		<comp name="00.HNN" depth="0.0">
			<acc value="0.00515467499423655" flag="0"/>
			<vel value="0.00278705332258126" flag="0"/>
			<psa03 value="0.016957296308325" flag="0"/>
			<psa10 value="0.00306036693268979" flag="0"/>
			<psa30 value="0.000355253120549078" flag="0"/>
		</comp>
		<comp name="00.HNZ" depth="0.0">
			<acc value="0.00315539608365952" flag="0"/>
			<vel value="0.00206298795129529" flag="0"/>
			<psa03 value="0.011364520481041" flag="0"/>
			<psa10 value="0.00227111440794347" flag="0"/>
			<psa30 value="0.000193286332590934" flag="0"/>
		</comp>
	</station>
	<station code="ZKR" name="ZKR" netid="HL" source="National Observatory of Athens Seismic Network" insttype="" lat="35.1147" lon="26.21691" esm:processing="manual (Paolucci et al 2011)" esm:quality="best">
		<comp name="00.HNE" depth="0.0">
			<acc value="0.884571674609459" flag="0"/>
			<vel value="0.237532413630873" flag="0"/>
			<psa03 value="0.786567992349217" flag="0"/>
			<psa10 value="0.122048238635388" flag="0"/>
			<psa30 value="0.00947058287488958" flag="0"/>
		</comp>
		<comp name="00.HNN" depth="0.0">
			<acc value="0.550720257693936" flag="0"/>
			<vel value="0.175497783278228" flag="0"/>
			<psa03 value="0.959675589755311" flag="0"/>
			<psa10 value="0.0614731073611083" flag="0"/>
			<psa30 value="0.00402142953085026" flag="0"/>
		</comp>
		<comp name="00.HNZ" depth="0.0">
			<acc value="0.597594020951836" flag="0"/>
			<vel value="0.104295701981713" flag="0"/>
			<psa03 value="0.370912892865473" flag="0"/>
			<psa10 value="0.0477578313443433" flag="0"/>
			<psa30 value="0.00355163636135841" flag="0"/>
		</comp>
	</station>
	<station code="CH01" name="CH01" netid="HI" source="ITSAK Strong Motion Network" insttype="" lat="35.517" lon="24.0208" esm:processing="discarded" esm:quality="bad">
		<comp name="--.HNE" depth="0.0">
			<acc value="0" flag="1"/>
			<vel value="0" flag="1"/>
			<psa03 value="0" flag="1"/>
			<psa10 value="0" flag="1"/>
			<psa30 value="0" flag="1"/>
		</comp>
		<comp name="--.HNN" depth="0.0">
			<acc value="0" flag="1"/>
			<vel value="0" flag="1"/>
			<psa03 value="0" flag="1"/>
			<psa10 value="0" flag="1"/>
			<psa30 value="0" flag="1"/>
		</comp>
		<comp name="--.HNZ" depth="0.0">
			<acc value="0" flag="1"/>
			<vel value="0" flag="1"/>
			<psa03 value="0" flag="1"/>
			<psa10 value="0" flag="1"/>
			<psa30 value="0" flag="1"/>
		</comp>
	</station>
	<station code="AMGA" name="AMGA" netid="HL" source="National Observatory of Athens Seismic Network" insttype="" lat="36.831561" lon="25.893836" esm:processing="automatic (Paolucci et al 2011)" esm:quality="bad">
		<comp name="00.HNE" depth="0.0">
			<acc value="0" flag="1"/>
			<vel value="0" flag="1"/>
			<psa03 value="0" flag="1"/>
			<psa10 value="0" flag="1"/>
			<psa30 value="0" flag="1"/>
		</comp>
		<comp name="00.HNN" depth="0.0">
			<acc value="0" flag="1"/>
			<vel value="0" flag="1"/>
			<psa03 value="0" flag="1"/>
			<psa10 value="0" flag="1"/>
			<psa30 value="0" flag="1"/>
		</comp>
		<comp name="00.HNZ" depth="0.0">
			<acc value="0" flag="1"/>
			<vel value="0" flag="1"/>
			<psa03 value="0" flag="1"/>
			<psa10 value="0" flag="1"/>
			<psa30 value="0" flag="1"/>
		</comp>
	</station>
	<station code="ASTA" name="ASTA" netid="HL" source="National Observatory of Athens Seismic Network" insttype="" lat="36.54552" lon="26.35295" esm:processing="automatic (Paolucci et al 2011)" esm:quality="bad">
		<comp name="00.HNE" depth="0.0">
			<acc value="0" flag="1"/>
			<vel value="0" flag="1"/>
			<psa03 value="0" flag="1"/>
			<psa10 value="0" flag="1"/>
			<psa30 value="0" flag="1"/>
		</comp>
		<comp name="00.HNN" depth="0.0">
			<acc value="0" flag="1"/>
			<vel value="0" flag="1"/>
			<psa03 value="0" flag="1"/>
			<psa10 value="0" flag="1"/>
			<psa30 value="0" flag="1"/>
		</comp>
		<comp name="00.HNZ" depth="0.0">
			<acc value="0" flag="1"/>
			<vel value="0" flag="1"/>
			<psa03 value="0" flag="1"/>
			<psa10 value="0" flag="1"/>
			<psa30 value="0" flag="1"/>
		</comp>
	</station>
	<station code="CHNB" name="CHNB" netid="HL" source="National Observatory of Athens Seismic Network" insttype="" lat="35.48765" lon="24.06605" esm:processing="automatic (Paolucci et al 2011)" esm:quality="bad">
		<comp name="00.HNE" depth="0.0">
			<acc value="0" flag="1"/>
			<vel value="0" flag="1"/>
			<psa03 value="0" flag="1"/>
			<psa10 value="0" flag="1"/>
			<psa30 value="0" flag="1"/>
		</comp>
		<comp name="00.HNN" depth="0.0">
			<acc value="0" flag="1"/>
			<vel value="0" flag="1"/>
			<psa03 value="0" flag="1"/>
			<psa10 value="0" flag="1"/>
			<psa30 value="0" flag="1"/>
		</comp>
		<comp name="00.HNZ" depth="0.0">
			<acc value="0" flag="1"/>
			<vel value="0" flag="1"/>
			<psa03 value="0" flag="1"/>
			<psa10 value="0" flag="1"/>
			<psa30 value="0" flag="1"/>
		</comp>
	</station>
	<station code="THRA" name="THRA" netid="HL" source="National Observatory of Athens Seismic Network" insttype="" lat="36.41502" lon="25.43244" esm:processing="automatic (Paolucci et al 2011)" esm:quality="bad">
		<comp name="00.HNE" depth="0.0">
			<acc value="0" flag="1"/>
			<vel value="0" flag="1"/>
			<psa03 value="0" flag="1"/>
			<psa10 value="0" flag="1"/>
			<psa30 value="0" flag="1"/>
		</comp>
		<comp name="00.HNN" depth="0.0">
			<acc value="0" flag="1"/>
			<vel value="0" flag="1"/>
			<psa03 value="0" flag="1"/>
			<psa10 value="0" flag="1"/>
			<psa30 value="0" flag="1"/>
		</comp>
		<comp name="00.HNZ" depth="0.0">
			<acc value="0" flag="1"/>
			<vel value="0" flag="1"/>
			<psa03 value="0" flag="1"/>
			<psa10 value="0" flag="1"/>
			<psa30 value="0" flag="1"/>
		</comp>
	</station>
</stationlist>
