<?xml version="1.0" encoding="UTF-8" standalone="yes"?>
<!DOCTYPE earthquake SYSTEM "stationlist.dtd">
<stationlist created="" xmlns="ch.ethz.sed.shakemap.usgs.xml">
  <station code="KRTS" name="KRTS" netid="KO" insttype="CMG-5T" lat="36.573" lon="35.375">
    <comp name="--.HNN">
      <acc value="0.0511427987" flag="0"/>
      <vel value="0.0229605985" flag="0"/>
      <psa03 value="0.1405389544" flag="0"/>
      <psa10 value="0.0265390957" flag="0"/>
      <psa30 value="0.0039970746" flag="0"/>
    </comp>
    <comp name="--.HNE">
      <acc value="0.0559823277" flag="0"/>
      <vel value="0.0227851599" flag="0"/>
      <psa03 value="0.1294120813" flag="0"/>
      <psa10 value="0.0236543435" flag="0"/>
      <psa30 value="0.0016854431" flag="0"/>
    </comp>
  </station>
</stationlist>
