<?xml version="1.0" encoding="UTF-8" standalone="yes"?>
<!DOCTYPE earthquake SYSTEM "stationlist.dtd">
<stationlist created="" xmlns="ch.ethz.sed.shakemap.usgs.xml">
  <station code="KRTS" name="KRTS" netid="KO" insttype="CMG-5T" lat="36.573" lon="35.375">
    <comp name="--.HNE">
      <acc value="0.0559823119" flag="0"/>
      <vel value="0.0227851604" flag="0"/>
      <psa03 value="0.1294120813" flag="0"/>
      <psa10 value="0.0236543435" flag="0"/>
      <psa30 value="0.0016854348" flag="0"/>
    </comp>
    <comp name="--.HNN">
      <acc value="0.0511427671" flag="0"/>
      <vel value="0.0229605942" flag="0"/>
      <psa03 value="0.1405389544" flag="0"/>
      <psa10 value="0.0265390959" flag="0"/>
      <psa30 value="0.0039969931" flag="0"/>
    </comp>
  </station>
</stationlist>
