<?xml version="1.0" encoding="UTF-8" standalone="yes"?>
<!DOCTYPE earthquake SYSTEM "stationlist.dtd">
<stationlist created="" xmlns="ch.ethz.sed.shakemap.usgs.xml">
  <station code="ARPRA" name="ARPRA" netid="KO" insttype="CMG-5T" lat="39.0929" lon="38.3356">
    <comp name="--.HNE">
      <acc value="0.1123502669" flag="0"/>
      <vel value="0.1527258315" flag="0"/>
      <psa03 value="0.2881769466" flag="0"/>
      <psa10 value="0.2020990639" flag="0"/>
      <psa30 value="0.0390695318" flag="0"/>
    </comp>
    <comp name="--.HNN">
      <acc value="0.0976163864" flag="0"/>
      <vel value="0.0738469419" flag="0"/>
      <psa03 value="0.2410664596" flag="0"/>
      <psa10 value="0.1692977793" flag="0"/>
      <psa30 value="0.0151867506" flag="0"/>
    </comp>
    <comp name="--.HNZ">
      <acc value="0.0502595049" flag="0"/>
      <vel value="0.0477636989" flag="0"/>
      <psa03 value="0.1438021643" flag="0"/>
      <psa10 value="0.1364062739" flag="0"/>
      <psa30 value="0.0084932566" flag="0"/>
    </comp>
  </station>
  <station code="DARE" name="DARE" netid="KO" insttype="CMG-3ESP" lat="38.5712" lon="37.4832">
    <comp name="--.HHN">
      <acc value="0.0001867916" flag="0"/>
      <vel value="0.0000818766" flag="0"/>
      <psa03 value="0.0003528599" flag="0"/>
      <psa10 value="0.0001203556" flag="0"/>
      <psa30 value="0.0000067118" flag="0"/>
    </comp>
    <comp name="--.HHZ">
      <acc value="0.2192493394" flag="0"/>
      <vel value="0.1586476426" flag="0"/>
      <psa03 value="0.5157114917" flag="0"/>
      <psa10 value="0.2768380087" flag="0"/>
      <psa30 value="0.0137539932" flag="0"/>
    </comp>
  </station>
  <station code="GAZ" name="GAZ" netid="KO" insttype="CMG-3T" lat="37.1721" lon="37.2096">
    <comp name="--.HHN">
      <acc value="0.0527662257" flag="0"/>
      <vel value="0.0459519975" flag="0"/>
      <psa03 value="0.1409153248" flag="0"/>
      <psa10 value="0.0654644825" flag="0"/>
      <psa30 value="0.0081358044" flag="0"/>
    </comp>
    <comp name="--.HHZ">
      <acc value="0.0377000840" flag="0"/>
      <vel value="0.0339176622" flag="0"/>
      <psa03 value="0.0931274843" flag="0"/>
      <psa10 value="0.0502950723" flag="0"/>
      <psa30 value="0.0111690328" flag="0"/>
    </comp>
    <comp name="--.HHE">
      <acc value="0.0619820595" flag="0"/>
      <vel value="0.0771868587" flag="0"/>
      <psa03 value="0.2038976063" flag="0"/>
      <psa10 value="0.1221743711" flag="0"/>
      <psa30 value="0.0189905708" flag="0"/>
    </comp>
  </station>
  <station code="URFA" name="URFA" netid="KO" insttype="CMG-3ESP" lat="37.4409" lon="38.8213">
    <comp name="--.HHN">
      <acc value="0.1593623080" flag="0"/>
      <vel value="0.0774108596" flag="0"/>
      <psa03 value="0.3691729576" flag="0"/>
      <psa10 value="0.1081274189" flag="0"/>
      <psa30 value="0.0184254458" flag="0"/>
    </comp>
    <comp name="--.HHZ">
      <acc value="0.1213366239" flag="0"/>
      <vel value="0.0798057289" flag="0"/>
      <psa03 value="0.2699154533" flag="0"/>
      <psa10 value="0.1053031723" flag="0"/>
      <psa30 value="0.0121698846" flag="0"/>
    </comp>
  </station>
</stationlist>
