<?xml version="1.0" encoding="UTF-8" standalone="yes"?>
<!DOCTYPE earthquake SYSTEM "stationlist.dtd">
<stationlist created="" xmlns="ch.ethz.sed.shakemap.usgs.xml">
  <station code="ARPRA" name="ARPRA" netid="KO" insttype="CMG-5T" lat="39.0929" lon="38.3356">
    <comp name="--.HNN">
      <acc value="0.0976163839" flag="0"/>
      <vel value="0.0738469702" flag="0"/>
      <psa03 value="0.2410664596" flag="0"/>
      <psa10 value="0.1692977811" flag="0"/>
      <psa30 value="0.0151870711" flag="0"/>
    </comp>
    <comp name="--.HNE">
      <acc value="0.1123502649" flag="0"/>
      <vel value="0.1527258174" flag="0"/>
      <psa03 value="0.2881769465" flag="0"/>
      <psa10 value="0.2020990660" flag="0"/>
      <psa30 value="0.0390694916" flag="0"/>
    </comp>
    <comp name="--.HNZ">
      <acc value="0.0502595073" flag="0"/>
      <vel value="0.0477636819" flag="0"/>
      <psa03 value="0.1438021643" flag="0"/>
      <psa10 value="0.1364062742" flag="0"/>
      <psa30 value="0.0084937132" flag="0"/>
    </comp>
  </station>
  <station code="DARE" name="DARE" netid="KO" insttype="CMG-3ESP" lat="38.5712" lon="37.4832">
    <comp name="--.HHN">
      <acc value="0.0001867916" flag="0"/>
      <vel value="0.0000818765" flag="0"/>
      <psa03 value="0.0003528599" flag="0"/>
      <psa10 value="0.0001203556" flag="0"/>
      <psa30 value="0.0000067120" flag="0"/>
    </comp>
    <comp name="--.HHZ">
      <acc value="0.2192493389" flag="0"/>
      <vel value="0.1586476454" flag="0"/>
      <psa03 value="0.5157114917" flag="0"/>
      <psa10 value="0.2768380101" flag="0"/>
      <psa30 value="0.0137542107" flag="0"/>
    </comp>
    <comp name="--.HHE">
      <acc value="0.2326943392" flag="0"/>
      <vel value="0.1155420527" flag="0"/>
      <psa03 value="0.6542604007" flag="0"/>
      <psa10 value="0.1404987204" flag="0"/>
      <psa30 value="0.0130801115" flag="0"/>
    </comp>
  </station>
  <station code="GAZ" name="GAZ" netid="KO" insttype="CMG-3T" lat="37.1721" lon="37.2096">
    <comp name="--.HHE">
      <acc value="0.0619820597" flag="0"/>
      <vel value="0.0771868587" flag="0"/>
      <psa03 value="0.2038976063" flag="0"/>
      <psa10 value="0.1221743711" flag="0"/>
      <psa30 value="0.0189905736" flag="0"/>
    </comp>
    <comp name="--.HHZ">
      <acc value="0.0377000838" flag="0"/>
      <vel value="0.0339176603" flag="0"/>
      <psa03 value="0.0931274843" flag="0"/>
      <psa10 value="0.0502950723" flag="0"/>
      <psa30 value="0.0111690013" flag="0"/>
    </comp>
    <comp name="--.HHN">
      <acc value="0.0527662258" flag="0"/>
      <vel value="0.0459519676" flag="0"/>
      <psa03 value="0.1409153248" flag="0"/>
      <psa10 value="0.0654644823" flag="0"/>
      <psa30 value="0.0081368148" flag="0"/>
    </comp>
  </station>
  <station code="URFA" name="URFA" netid="KO" insttype="CMG-3ESP" lat="37.4409" lon="38.8213">
    <comp name="--.HHN">
      <acc value="0.1593623083" flag="0"/>
      <vel value="0.0774108215" flag="0"/>
      <psa03 value="0.3691729578" flag="0"/>
      <psa10 value="0.1081274187" flag="0"/>
      <psa30 value="0.0184256205" flag="0"/>
    </comp>
    <comp name="--.HHZ">
      <acc value="0.1213366233" flag="0"/>
      <vel value="0.0798054885" flag="0"/>
      <psa03 value="0.2699154536" flag="0"/>
      <psa10 value="0.1053031719" flag="0"/>
      <psa30 value="0.0121682445" flag="0"/>
    </comp>
    <comp name="--.HHE">
      <acc value="0.2195689323" flag="0"/>
      <vel value="0.1150778935" flag="0"/>
      <psa03 value="0.3531321702" flag="0"/>
      <psa10 value="0.1378222807" flag="0"/>
      <psa30 value="0.0173555293" flag="0"/>
    </comp>
  </station>
  <station code="ANDN" name="ANDN" netid="TU" insttype="T" lat="37.58" lon="36.3452">
    <comp name="--.HHZ">
      <acc value="0.1969694459" flag="0"/>
      <vel value="0.1565612635" flag="0"/>
      <psa03 value="0.3191003530" flag="0"/>
      <psa10 value="0.3546849230" flag="0"/>
      <psa30 value="0.0152468093" flag="0"/>
    </comp>
    <comp name="--.HHN">
      <acc value="0.3277790095" flag="0"/>
      <vel value="0.2330792526" flag="0"/>
      <psa03 value="0.7864190390" flag="0"/>
      <psa10 value="0.3222911125" flag="0"/>
      <psa30 value="0.0285311706" flag="0"/>
    </comp>
    <comp name="--.HHE">
      <acc value="0.3204615380" flag="0"/>
      <vel value="0.2490620340" flag="0"/>
      <psa03 value="0.4906448443" flag="0"/>
      <psa10 value="0.4532725496" flag="0"/>
      <psa30 value="0.0252815332" flag="0"/>
    </comp>
  </station>
</stationlist>
