<?xml version="1.0" encoding="UTF-8" standalone="yes"?>
<!DOCTYPE earthquake SYSTEM "stationlist.dtd">
<stationlist created="" xmlns="ch.ethz.sed.shakemap.usgs.xml">
  <station code="ARPRA" name="ARPRA" netid="KO" insttype="CMG-5T" lat="39.0929" lon="38.3356">
    <comp name="--.HNZ">
      <acc value="0.0134780349" flag="0"/>
      <vel value="0.0043912173" flag="0"/>
      <psa03 value="0.0185715948" flag="0"/>
      <psa10 value="0.0043733472" flag="0"/>
      <psa30 value="0.0003418666" flag="0"/>
    </comp>
    <comp name="--.HNN">
      <acc value="0.0218241952" flag="0"/>
      <vel value="0.0088107970" flag="0"/>
      <psa03 value="0.0564094999" flag="0"/>
      <psa10 value="0.0093173485" flag="0"/>
      <psa30 value="0.0006296418" flag="0"/>
    </comp>
    <comp name="--.HNE">
      <acc value="0.0269514139" flag="0"/>
      <vel value="0.0076387055" flag="0"/>
      <psa03 value="0.0455179822" flag="0"/>
      <psa10 value="0.0055273462" flag="0"/>
      <psa30 value="0.0005852014" flag="0"/>
    </comp>
  </station>
  <station code="DARE" name="DARE" netid="KO" insttype="CMG-3ESP" lat="38.5712" lon="37.4832">
    <comp name="--.HHN">
      <acc value="0.0023271652" flag="0"/>
      <vel value="0.0014928499" flag="0"/>
      <psa03 value="0.0061263804" flag="0"/>
      <psa10 value="0.0026399083" flag="0"/>
      <psa30 value="0.0001515600" flag="0"/>
    </comp>
    <comp name="--.HHZ">
      <acc value="0.0024979665" flag="0"/>
      <vel value="0.0017334291" flag="0"/>
      <psa03 value="0.0060456984" flag="0"/>
      <psa10 value="0.0019636944" flag="0"/>
      <psa30 value="0.0002043861" flag="0"/>
    </comp>
    <comp name="--.HHE">
      <acc value="0.0028695241" flag="0"/>
      <vel value="0.0020361817" flag="0"/>
      <psa03 value="0.0068594151" flag="0"/>
      <psa10 value="0.0029098527" flag="0"/>
      <psa30 value="0.0003129435" flag="0"/>
    </comp>
  </station>
  <station code="KYHL" name="KYHL" netid="KO" insttype="CMG-5T" lat="40.3244" lon="37.8955">
    <comp name="--.HNE">
      <acc value="0.0205919028" flag="0"/>
      <vel value="0.0080831338" flag="0"/>
      <psa03 value="0.0480040801" flag="0"/>
      <psa10 value="0.0072942238" flag="0"/>
      <psa30 value="0.0006968502" flag="0"/>
    </comp>
    <comp name="--.HNN">
      <acc value="0.0170474397" flag="0"/>
      <vel value="0.0086574277" flag="0"/>
      <psa03 value="0.0413848236" flag="0"/>
      <psa10 value="0.0067160642" flag="0"/>
      <psa30 value="0.0004597676" flag="0"/>
    </comp>
    <comp name="--.HNZ">
      <acc value="0.0140413634" flag="0"/>
      <vel value="0.0052930899" flag="0"/>
      <psa03 value="0.0326996798" flag="0"/>
      <psa10 value="0.0032708030" flag="0"/>
      <psa30 value="0.0004264868" flag="0"/>
    </comp>
  </station>
  <station code="RSDY" name="RSDY" netid="KO" insttype="CMG-3T" lat="40.3971" lon="37.3273">
    <comp name="--.HHE">
      <acc value="0.0103404522" flag="0"/>
      <vel value="0.0086321473" flag="0"/>
      <psa03 value="0.0314774226" flag="0"/>
      <psa10 value="0.0088586215" flag="0"/>
      <psa30 value="0.0005603564" flag="0"/>
    </comp>
    <comp name="--.HHN">
      <acc value="0.0106458137" flag="0"/>
      <vel value="0.0064680172" flag="0"/>
      <psa03 value="0.0165268298" flag="0"/>
      <psa10 value="0.0081635229" flag="0"/>
      <psa30 value="0.0004901044" flag="0"/>
    </comp>
    <comp name="--.HHZ">
      <acc value="0.0079172972" flag="0"/>
      <vel value="0.0041602304" flag="0"/>
      <psa03 value="0.0223088183" flag="0"/>
      <psa10 value="0.0038460149" flag="0"/>
      <psa30 value="0.0003085304" flag="0"/>
    </comp>
  </station>
  <station code="TOKT" name="TOKT" netid="KO" insttype="CMG-3T" lat="40.3173" lon="36.5443">
    <comp name="--.HHZ">
      <acc value="0.0000652394" flag="0"/>
      <vel value="0.0000059444" flag="0"/>
      <psa03 value="0.0000162251" flag="0"/>
      <psa10 value="0.0000047600" flag="0"/>
      <psa30 value="0.0000013961" flag="0"/>
    </comp>
    <comp name="--.HHN">
      <acc value="0.0119085604" flag="0"/>
      <vel value="0.0043010658" flag="0"/>
      <psa03 value="0.0177446535" flag="0"/>
      <psa10 value="0.0033548865" flag="0"/>
      <psa30 value="0.0002913021" flag="0"/>
    </comp>
    <comp name="--.HHE">
      <acc value="0.0081605084" flag="0"/>
      <vel value="0.0032034467" flag="0"/>
      <psa03 value="0.0137106199" flag="0"/>
      <psa10 value="0.0030014285" flag="0"/>
      <psa30 value="0.0003070773" flag="0"/>
    </comp>
  </station>
  <station code="TUNC" name="TUNC" netid="KO" insttype="CMG-5T" lat="39.6942" lon="37.5388">
    <comp name="--.HNZ">
      <acc value="0.8606396735" flag="0"/>
      <vel value="0.1328869856" flag="0"/>
      <psa03 value="0.4421148443" flag="0"/>
      <psa10 value="0.0520914841" flag="0"/>
      <psa30 value="0.0068579746" flag="0"/>
    </comp>
    <comp name="--.HNN">
      <acc value="0.6644391085" flag="0"/>
      <vel value="0.2110605022" flag="0"/>
      <psa03 value="0.8548919622" flag="0"/>
      <psa10 value="0.1197514639" flag="0"/>
      <psa30 value="0.0111674153" flag="0"/>
    </comp>
    <comp name="--.HNE">
      <acc value="0.7121098728" flag="0"/>
      <vel value="0.2041688881" flag="0"/>
      <psa03 value="0.6686597465" flag="0"/>
      <psa10 value="0.0509902639" flag="0"/>
      <psa30 value="0.0040747148" flag="0"/>
    </comp>
  </station>
</stationlist>
