<stationlist xmlns:esm="https://esm-db.eu/esmws/shakemap/1/" created="1781661261">
	<station code="ARG2" name="ARG2" netid="HI" source="ITSAK Strong Motion Network" insttype="" lat="38.1783" lon="20.4878" esm:processing="manual (Paolucci et al 2011)" esm:quality="best">
		<comp name="--.HNE" depth="0.0">
			<acc value="0.392065624343473" flag="0"/>
			<vel value="0.085970504154823" flag="0"/>
			<psa03 value="0.362411873608001" flag="0"/>
			<psa10 value="0.0282036973638938" flag="0"/>
			<psa30 value="0.00230556590703954" flag="0"/>
		</comp>
		<comp name="--.HNN" depth="0.0">
			<acc value="0.44579065752434" flag="0"/>
			<vel value="0.099418508528808" flag="0"/>
			<psa03 value="0.282591777001004" flag="0"/>
			<psa10 value="0.0483336635435204" flag="0"/>
			<psa30 value="0.00288631974894471" flag="0"/>
		</comp>
		<comp name="--.HNZ" depth="0.0">
			<acc value="0.247189722704759" flag="0"/>
			<vel value="0.0521450279749373" flag="0"/>
			<psa03 value="0.194807567615955" flag="0"/>
			<psa10 value="0.0119112702459163" flag="0"/>
			<psa30 value="0.00133779197788633" flag="0"/>
		</comp>
	</station>
	<station code="ANX" name="ANX" netid="HP" source="University of Patras, Seismological Laboratory (PSLNET)" insttype="" lat="38.5933" lon="21.9209" esm:processing="manual (Paolucci et al 2011)" esm:quality="best">
		<comp name="--.HNE" depth="0.0">
			<acc value="0.00423305570500295" flag="0"/>
			<vel value="0.00254760355132643" flag="0"/>
			<psa03 value="0.00715875305892348" flag="0"/>
			<psa10 value="0.00384156586024481" flag="0"/>
			<psa30 value="0.00019597086498803" flag="0"/>
		</comp>
		<comp name="--.HNN" depth="0.0">
			<acc value="0.0032390926021315" flag="0"/>
			<vel value="0.0034477428361013" flag="0"/>
			<psa03 value="0.00827730822438028" flag="0"/>
			<psa10 value="0.00434894248329601" flag="0"/>
			<psa30 value="0.000336461393769404" flag="0"/>
		</comp>
		<comp name="--.HNZ" depth="0.0">
			<acc value="0.00290279050244446" flag="0"/>
			<vel value="0.00114316619506115" flag="0"/>
			<psa03 value="0.00545854920742915" flag="0"/>
			<psa10 value="0.00269392826048614" flag="0"/>
			<psa30 value="0.000221026500694262" flag="0"/>
		</comp>
	</station>
	<station code="LTHK" name="LTHK" netid="HP" source="University of Patras, Seismological Laboratory (PSLNET)" insttype="" lat="37.7095" lon="20.8367" esm:processing="manual (Paolucci et al 2011)" esm:quality="best">
		<comp name="--.HNE" depth="0.0">
			<acc value="0.102356339822498" flag="0"/>
			<vel value="0.0177259734738503" flag="0"/>
			<psa03 value="0.100133058411692" flag="0"/>
			<psa10 value="0.0104737031472712" flag="0"/>
			<psa30 value="0.000482320987344969" flag="0"/>
		</comp>
		<comp name="--.HNN" depth="0.0">
			<acc value="0.0837969968024998" flag="0"/>
			<vel value="0.0169532285282071" flag="0"/>
			<psa03 value="0.0744510318128042" flag="0"/>
			<psa10 value="0.0117179839133254" flag="0"/>
			<psa30 value="0.000832652465166037" flag="0"/>
		</comp>
		<comp name="--.HNZ" depth="0.0">
			<acc value="0.0436320090719389" flag="0"/>
			<vel value="0.0118597852745947" flag="0"/>
			<psa03 value="0.0449659176513631" flag="0"/>
			<psa10 value="0.00538382972237664" flag="0"/>
			<psa30 value="0.000312748024261719" flag="0"/>
		</comp>
	</station>
	<station code="PVO" name="PVO" netid="HP" source="University of Patras, Seismological Laboratory (PSLNET)" insttype="" lat="38.616" lon="21.525" esm:processing="manual (Paolucci et al 2011)" esm:quality="bad">
		<comp name="--.HNE" depth="0.0">
			<acc value="0.00646913745490192" flag="0"/>
			<vel value="0.00259960496637491" flag="0"/>
			<psa03 value="0.00765958683711999" flag="0"/>
			<psa10 value="0.0022375826819962" flag="0"/>
			<psa30 value="0.000242013037384322" flag="0"/>
		</comp>
		<comp name="--.HNN" depth="0.0">
			<acc value="0.00535254423062701" flag="0"/>
			<vel value="0.00216014371654168" flag="0"/>
			<psa03 value="0.00732161197398567" flag="0"/>
			<psa10 value="0.00239144224943743" flag="0"/>
			<psa30 value="0.000224776973704693" flag="0"/>
		</comp>
		<comp name="--.HNZ" depth="0.0">
			<acc value="0.00289829790718073" flag="0"/>
			<vel value="0.00107519284497111" flag="0"/>
			<psa03 value="0.00345066511306625" flag="0"/>
			<psa10 value="0.0012577620705644" flag="0"/>
			<psa30 value="0.000155598693066443" flag="0"/>
		</comp>
	</station>
</stationlist>
