<?xml version="1.0" encoding="UTF-8" standalone="yes"?>
<!DOCTYPE earthquake SYSTEM "stationlist.dtd">
<stationlist created="" xmlns="ch.ethz.sed.shakemap.usgs.xml">
  <station code="ARG2" name="ARG2" netid="HI" source="NOA" insttype="CMG-5TD,ACCELEROMETER,GURALP" lat="38.1783" lon="20.4878">
    <comp name="--.HNE">
      <acc value="0.3987659146" flag="0"/>
      <vel value="0.0844481814" flag="0"/>
      <psa03 value="0.3577425231" flag="0"/>
      <psa10 value="0.0280953430" flag="0"/>
      <psa30 value="0.0022054446" flag="0"/>
    </comp>
    <comp name="--.HNN">
      <acc value="0.4468551313" flag="0"/>
      <vel value="0.0969586134" flag="0"/>
      <psa03 value="0.2809238861" flag="0"/>
      <psa10 value="0.0482188004" flag="0"/>
      <psa30 value="0.0028578105" flag="0"/>
    </comp>
    <comp name="--.HNZ">
      <acc value="0.2558774143" flag="0"/>
      <vel value="0.0514623449" flag="0"/>
      <psa03 value="0.1943085768" flag="0"/>
      <psa10 value="0.0118725109" flag="0"/>
      <psa30 value="0.0012316649" flag="0"/>
    </comp>
  </station>
  <station code="VLS" name="VLS" netid="HL" source="NOA" insttype="120P," lat="38.1768" lon="20.5886">
    <comp name="--.HHE">
      <acc value="0.9902925586" flag="0"/>
      <vel value="0.0844001105" flag="0"/>
      <psa03 value="0.1176720995" flag="0"/>
      <psa10 value="0.0124260960" flag="0"/>
      <psa30 value="0.0008535852" flag="0"/>
    </comp>
    <comp name="--.HHN">
      <acc value="0.4231313303" flag="0"/>
      <vel value="0.0899515698" flag="0"/>
      <psa03 value="0.2759661429" flag="0"/>
      <psa10 value="0.0148374780" flag="0"/>
      <psa30 value="0.0013765126" flag="0"/>
    </comp>
    <comp name="--.HHZ">
      <acc value="0.2281538885" flag="0"/>
      <vel value="0.0346015338" flag="0"/>
      <psa03 value="0.0948312938" flag="0"/>
      <psa10 value="0.0051413219" flag="0"/>
      <psa30 value="0.0007237317" flag="0"/>
    </comp>
  </station>
  <station code="FSK" name="FSK" netid="HP" source="NOA" insttype="DC_100" lat="38.4593" lon="20.5623">
    <comp name="--.HNE">
      <acc value="0.0653560078" flag="0"/>
      <vel value="0.0163869694" flag="0"/>
      <psa03 value="0.0406586884" flag="0"/>
      <psa10 value="0.0094999157" flag="0"/>
      <psa30 value="0.0012139580" flag="0"/>
    </comp>
    <comp name="--.HNN">
      <acc value="0.0291301411" flag="0"/>
      <vel value="0.0069685586" flag="0"/>
      <psa03 value="0.0191243118" flag="0"/>
      <psa10 value="0.0077947557" flag="0"/>
      <psa30 value="0.0004224726" flag="0"/>
    </comp>
    <comp name="--.HNZ">
      <acc value="0.0262149529" flag="0"/>
      <vel value="0.0074074932" flag="0"/>
      <psa03 value="0.0167761868" flag="0"/>
      <psa10 value="0.0064073443" flag="0"/>
      <psa30 value="0.0005005941" flag="0"/>
    </comp>
  </station>
  <station code="DMLN" name="DMLN" netid="HT" source="NOA" insttype="1s-100Hz," lat="38.2385" lon="20.3734">
    <comp name="--.HHE">
      <acc value="0.4391735434" flag="0"/>
      <vel value="0.0950029884" flag="0"/>
      <psa03 value="0.2101768566" flag="0"/>
      <psa10 value="0.0561119967" flag="0"/>
      <psa30 value="0.0026036460" flag="0"/>
    </comp>
    <comp name="--.HHN">
      <acc value="0.6067116866" flag="0"/>
      <vel value="0.1686524175" flag="0"/>
      <psa03 value="0.3140744992" flag="0"/>
      <psa10 value="0.0679922199" flag="0"/>
      <psa30 value="0.0049663650" flag="0"/>
    </comp>
    <comp name="--.HHZ">
      <acc value="0.3064965965" flag="0"/>
      <vel value="0.0551162226" flag="0"/>
      <psa03 value="0.1569425571" flag="0"/>
      <psa10 value="0.0228883256" flag="0"/>
      <psa30 value="0.0013233284" flag="0"/>
    </comp>
  </station>
  <station code="NYDR" name="NYDR" netid="HT" source="NOA" insttype="1s-100Hz," lat="38.7135" lon="20.6983">
    <comp name="--.HHE">
      <acc value="0.0187350383" flag="0"/>
      <vel value="0.0120887767" flag="0"/>
      <psa03 value="0.0287700936" flag="0"/>
      <psa10 value="0.0094563301" flag="0"/>
      <psa30 value="0.0005806411" flag="0"/>
    </comp>
    <comp name="--.HHN">
      <acc value="0.0209086036" flag="0"/>
      <vel value="0.0110679152" flag="0"/>
      <psa03 value="0.0246276528" flag="0"/>
      <psa10 value="0.0107291014" flag="0"/>
      <psa30 value="0.0005206042" flag="0"/>
    </comp>
    <comp name="--.HHZ">
      <acc value="0.0111574263" flag="0"/>
      <vel value="0.0049884809" flag="0"/>
      <psa03 value="0.0138264999" flag="0"/>
      <psa10 value="0.0045343354" flag="0"/>
      <psa30 value="0.0003594517" flag="0"/>
    </comp>
  </station>
  <station code="PSDA" name="PSDA" netid="HT" source="NOA" insttype="30" lat="38.114" lon="20.5841">
    <comp name="--.HHE">
      <acc value="0.2581623266" flag="0"/>
      <vel value="0.0481729034" flag="0"/>
      <psa03 value="0.1623352426" flag="0"/>
      <psa10 value="0.0139777005" flag="0"/>
      <psa30 value="0.0009848715" flag="0"/>
    </comp>
    <comp name="--.HHN">
      <acc value="0.2200687519" flag="0"/>
      <vel value="0.0455493255" flag="0"/>
      <psa03 value="0.1601029082" flag="0"/>
      <psa10 value="0.0218759180" flag="0"/>
      <psa30 value="0.0012874610" flag="0"/>
    </comp>
    <comp name="--.HHZ">
      <acc value="0.2262023455" flag="0"/>
      <vel value="0.0393232550" flag="0"/>
      <psa03 value="0.0805335480" flag="0"/>
      <psa10 value="0.0082851634" flag="0"/>
      <psa30 value="0.0007012991" flag="0"/>
    </comp>
  </station>
  <station code="TSLK" name="TSLK" netid="HT" source="NOA" insttype="1s-100Hz," lat="38.8249" lon="20.6554">
    <comp name="--.HHE">
      <acc value="0.0241244650" flag="0"/>
      <vel value="0.0114575387" flag="0"/>
      <psa03 value="0.0391499439" flag="0"/>
      <psa10 value="0.0069754584" flag="0"/>
      <psa30 value="0.0006304660" flag="0"/>
    </comp>
    <comp name="--.HHN">
      <acc value="0.0184273365" flag="0"/>
      <vel value="0.0085337756" flag="0"/>
      <psa03 value="0.0321433997" flag="0"/>
      <psa10 value="0.0062599637" flag="0"/>
      <psa30 value="0.0004960840" flag="0"/>
    </comp>
    <comp name="--.HHZ">
      <acc value="0.0120799356" flag="0"/>
      <vel value="0.0068592725" flag="0"/>
      <psa03 value="0.0248045853" flag="0"/>
      <psa10 value="0.0028688331" flag="0"/>
      <psa30 value="0.0003945169" flag="0"/>
    </comp>
  </station>
</stationlist>
