<?xml version="1.0" encoding="UTF-8" standalone="yes"?>
<!DOCTYPE earthquake SYSTEM "stationlist.dtd">
<stationlist created="" xmlns="ch.ethz.sed.shakemap.usgs.xml">
  <station code="SKR" name="SKR" netid="VI" insttype="LE-3D/5s" commtype="DIG" lat="64.5601" lon="-18.3865">
    <comp name="--.HHE">
      <acc value="0.0143822178" flag="0"/>
      <vel value="0.0479140464" flag="0"/>
      <psa03 value="0.0248579296" flag="0"/>
      <psa10 value="0.0233830611" flag="0"/>
      <psa30 value="0.0226856861" flag="0"/>
    </comp>
    <comp name="--.HHZ">
      <acc value="0.0140536743" flag="0"/>
      <vel value="0.0375507995" flag="0"/>
      <psa03 value="0.0499512696" flag="0"/>
      <psa10 value="0.0371621714" flag="0"/>
      <psa30 value="0.0221709846" flag="0"/>
    </comp>
    <comp name="--.HHN">
      <acc value="0.0236249382" flag="0"/>
      <vel value="0.0744904898" flag="0"/>
      <psa03 value="0.0277487740" flag="0"/>
      <psa10 value="0.0463321165" flag="0"/>
      <psa30 value="0.0343788897" flag="0"/>
    </comp>
  </station>
</stationlist>
