<?xml version="1.0" encoding="UTF-8" standalone="yes"?>
<!DOCTYPE earthquake SYSTEM "stationlist.dtd">
<stationlist created="" xmlns="ch.ethz.sed.shakemap.usgs.xml">
  <station code="KAVV" name="KAVV" netid="KO" insttype="CMG-5T" commtype="DIG" lat="41.0638" lon="29.06">
    <comp name="--.HNE">
      <acc value="0.2858826940" flag="0"/>
      <vel value="0.0936517854" flag="0"/>
      <psa03 value="0.2006581074" flag="0"/>
      <psa10 value="0.0289078648" flag="0"/>
      <psa30 value="0.0534945416" flag="0"/>
    </comp>
    <comp name="--.HNN">
      <acc value="0.1771048496" flag="0"/>
      <vel value="0.0636855150" flag="0"/>
      <psa03 value="0.1835934112" flag="0"/>
      <psa10 value="0.0324797152" flag="0"/>
      <psa30 value="0.0385720478" flag="0"/>
    </comp>
    <comp name="--.HNZ">
      <acc value="0.1724042481" flag="0"/>
      <vel value="0.0550023501" flag="0"/>
      <psa03 value="0.1377074594" flag="0"/>
      <psa10 value="0.0251085755" flag="0"/>
      <psa30 value="0.0342846368" flag="0"/>
    </comp>
  </station>
</stationlist>
