<stationlist created="1745501517">
	<station code="AKS" name="AKS" netid="KO" source="Bogazici University Kandilli Observatory And Earthquake Research Institute (KOERI)" insttype="" lat="38.8785" lon="27.8129">
		<comp name=".HNE" depth="0.0">
			<acc value="0.0054464270646114" flag="0"/>
			<vel value="0.00118466666079" flag="0"/>
			<psa03 value="0.00318988937441259" flag="0"/>
			<psa10 value="0.00198087630145827" flag="0"/>
			<psa30 value="0.000417096172241212" flag="0"/>
		</comp>
		<comp name=".HNN" depth="0.0">
			<acc value="0.0040063587871602" flag="0"/>
			<vel value="0.00132885610746" flag="0"/>
			<psa03 value="0.00541479783138344" flag="0"/>
			<psa10 value="0.00118893587054085" flag="0"/>
			<psa30 value="0.000399503756829892" flag="0"/>
		</comp>
		<comp name=".HNZ" depth="0.0">
			<acc value="0.00083670457513038" flag="0"/>
			<vel value="0.00101767595403" flag="0"/>
			<psa03 value="0.00175960924125705" flag="0"/>
			<psa10 value="0.000751124895058244" flag="0"/>
			<psa30 value="0.000332853898895496" flag="0"/>
		</comp>
	</station>
	<station code="ARMT" name="ARMT" netid="KO" source="Bogazici University Kandilli Observatory And Earthquake Research Institute (KOERI)" insttype="" lat="40.5683" lon="28.866">
		<comp name=".HNE" depth="0.0">
			<acc value="0.02176511482689" flag="0"/>
			<vel value="0.00780641003255" flag="0"/>
			<psa03 value="0.0563800838620516" flag="0"/>
			<psa10 value="0.00425629102087866" flag="0"/>
			<psa30 value="0.000260462280389277" flag="0"/>
		</comp>
		<comp name=".HNN" depth="0.0">
			<acc value="0.021052144492716" flag="0"/>
			<vel value="0.00798116420816" flag="0"/>
			<psa03 value="0.0510511006349641" flag="0"/>
			<psa10 value="0.00316104549750191" flag="0"/>
			<psa30 value="0.000278829304406484" flag="0"/>
		</comp>
		<comp name=".HNZ" depth="0.0">
			<acc value="0.01955570395713" flag="0"/>
			<vel value="0.00413860387555" flag="0"/>
			<psa03 value="0.0162189220802588" flag="0"/>
			<psa10 value="0.0018284999572741" flag="0"/>
			<psa30 value="0.000111740488196401" flag="0"/>
		</comp>
	</station>
	<station code="ARMU" name="ARMU" netid="KO" source="Bogazici University Kandilli Observatory And Earthquake Research Institute (KOERI)" insttype="" lat="40.5088" lon="28.838">
		<comp name=".HNE" depth="0.0">
			<acc value="0.040663184109684" flag="0"/>
			<vel value="0.0170438179615" flag="0"/>
			<psa03 value="0.101298783464131" flag="0"/>
			<psa10 value="0.00373232154486073" flag="0"/>
			<psa30 value="0.00056253372343218" flag="0"/>
		</comp>
		<comp name=".HNN" depth="0.0">
			<acc value="0.048912598061934" flag="0"/>
			<vel value="0.0165637145735" flag="0"/>
			<psa03 value="0.128935197574168" flag="0"/>
			<psa10 value="0.00621916261399669" flag="0"/>
			<psa30 value="0.000606599507156151" flag="0"/>
		</comp>
		<comp name=".HNZ" depth="0.0">
			<acc value="0.018298261805262" flag="0"/>
			<vel value="0.00415867367227" flag="0"/>
			<psa03 value="0.0169392302137842" flag="0"/>
			<psa10 value="0.00107461939138673" flag="0"/>
			<psa30 value="0.000175834252322738" flag="0"/>
		</comp>
	</station>
	<station code="ASYA" name="ASYA" netid="KO" source="Bogazici University Kandilli Observatory And Earthquake Research Institute (KOERI)" insttype="" lat="40.8956" lon="27.465">
		<comp name=".HNE" depth="0.0">
			<acc value="0.025227852549888" flag="0"/>
			<vel value="0.00962042855922" flag="0"/>
			<psa03 value="0.0676874006247817" flag="0"/>
			<psa10 value="0.00905829100484069" flag="0"/>
			<psa30 value="0.00056224807950739" flag="0"/>
		</comp>
		<comp name=".HNN" depth="0.0">
			<acc value="0.020844944902656" flag="0"/>
			<vel value="0.00773681764621" flag="0"/>
			<psa03 value="0.0306979815072701" flag="0"/>
			<psa10 value="0.00673674518257149" flag="0"/>
			<psa30 value="0.000809921830428391" flag="0"/>
		</comp>
		<comp name=".HNZ" depth="0.0">
			<acc value="0.041787423181554" flag="0"/>
			<vel value="0.00930579595479" flag="0"/>
			<psa03 value="0.0524350048115179" flag="0"/>
			<psa10 value="0.00170882648261701" flag="0"/>
			<psa30 value="0.000373106487306986" flag="0"/>
		</comp>
	</station>
	<station code="ATAM" name="ATAM" netid="KO" source="Bogazici University Kandilli Observatory And Earthquake Research Institute (KOERI)" insttype="" lat="40.9688" lon="28.875">
		<comp name=".HNE" depth="0.0">
			<acc value="0.16952186823366" flag="0"/>
			<vel value="0.074056045285" flag="0"/>
			<psa03 value="0.467239994021067" flag="0"/>
			<psa10 value="0.0303315255647178" flag="0"/>
			<psa30 value="0.00237915239883576" flag="0"/>
		</comp>
		<comp name=".HNN" depth="0.0">
			<acc value="0.10891382429628" flag="0"/>
			<vel value="0.0425380234642" flag="0"/>
			<psa03 value="0.289426881443994" flag="0"/>
			<psa10 value="0.0190161278501585" flag="0"/>
			<psa30 value="0.00146227082660107" flag="0"/>
		</comp>
		<comp name=".HNZ" depth="0.0">
			<acc value="0.047238319208508" flag="0"/>
			<vel value="0.0126022325358" flag="0"/>
			<psa03 value="0.0952537059238667" flag="0"/>
			<psa10 value="0.00683769624506466" flag="0"/>
			<psa30 value="0.00048717456459073" flag="0"/>
		</comp>
	</station>
	<station code="AVCI" name="AVCI" netid="KO" source="Bogazici University Kandilli Observatory And Earthquake Research Institute (KOERI)" insttype="" lat="40.9958" lon="28.7225">
		<comp name=".HNE" depth="0.0">
			<acc value="0.100235912750736" flag="0"/>
			<vel value="0.0523767945473" flag="0"/>
			<psa03 value="0.257489536584633" flag="0"/>
			<psa10 value="0.0228266821556535" flag="0"/>
			<psa30 value="0.00196290732464244" flag="0"/>
		</comp>
		<comp name=".HNN" depth="0.0">
			<acc value="0.057979399543134" flag="0"/>
			<vel value="0.0250120741303" flag="0"/>
			<psa03 value="0.168038913003463" flag="0"/>
			<psa10 value="0.0184101177049495" flag="0"/>
			<psa30 value="0.00178019501251454" flag="0"/>
		</comp>
		<comp name=".HNZ" depth="0.0">
			<acc value="0.07598513944092" flag="0"/>
			<vel value="0.0205333178436" flag="0"/>
			<psa03 value="0.104199954818995" flag="0"/>
			<psa10 value="0.00890059868349316" flag="0"/>
			<psa30 value="0.000715687619127451" flag="0"/>
		</comp>
	</station>
	<station code="BIGA" name="BIGA" netid="KO" source="Bogazici University Kandilli Observatory And Earthquake Research Institute (KOERI)" insttype="" lat="40.28134" lon="27.15048">
		<comp name=".HNE" depth="0.0">
			<acc value="0.0094631064851316" flag="0"/>
			<vel value="0.00339518434287" flag="0"/>
			<psa03 value="0.0134627069424103" flag="0"/>
			<psa10 value="0.00160194944159939" flag="0"/>
			<psa30 value="0.00067236053016986" flag="0"/>
		</comp>
		<comp name=".HNN" depth="0.0">
			<acc value="0.010839365742894" flag="0"/>
			<vel value="0.00333191667727" flag="0"/>
			<psa03 value="0.018008686476673" flag="0"/>
			<psa10 value="0.00207232306248075" flag="0"/>
			<psa30 value="0.000512333627088708" flag="0"/>
		</comp>
		<comp name=".HNZ" depth="0.0">
			<acc value="0.010938284743338" flag="0"/>
			<vel value="0.00170780248727" flag="0"/>
			<psa03 value="0.00947672479172897" flag="0"/>
			<psa10 value="0.000893543157693011" flag="0"/>
			<psa30 value="0.000397799425176508" flag="0"/>
		</comp>
	</station>
	<station code="BMYO" name="BMYO" netid="KO" source="Bogazici University Kandilli Observatory And Earthquake Research Institute (KOERI)" insttype="" lat="39.8098" lon="26.6009">
		<comp name=".HNE" depth="0.0">
			<acc value="0.0020805208248576" flag="0"/>
			<vel value="0.00138083291817" flag="0"/>
			<psa03 value="0.0071724523532925" flag="0"/>
			<psa10 value="0.00182416068544159" flag="0"/>
			<psa30 value="0.000346011958052215" flag="0"/>
		</comp>
		<comp name=".HNN" depth="0.0">
			<acc value="0.0021179692211784" flag="0"/>
			<vel value="0.00234176774051" flag="0"/>
			<psa03 value="0.00506812382425782" flag="0"/>
			<psa10 value="0.00229959679012822" flag="0"/>
			<psa30 value="0.000581648375101568" flag="0"/>
		</comp>
		<comp name=".HNZ" depth="0.0">
			<acc value="0.0011114959567986" flag="0"/>
			<vel value="0.000899705963559" flag="0"/>
			<psa03 value="0.00227970652066921" flag="0"/>
			<psa10 value="0.00142501623626967" flag="0"/>
			<psa30 value="0.000242940260266546" flag="0"/>
		</comp>
	</station>
	<station code="BOTS" name="BOTS" netid="KO" source="Bogazici University Kandilli Observatory And Earthquake Research Institute (KOERI)" insttype="" lat="40.9902" lon="27.981">
		<comp name=".HNE" depth="0.0">
			<acc value="0.05603440112352" flag="0"/>
			<vel value="0.0326376804205" flag="0"/>
			<psa03 value="0.0957525202178621" flag="0"/>
			<psa10 value="0.021990403006269" flag="0"/>
			<psa30 value="0.00209674139882803" flag="0"/>
		</comp>
		<comp name=".HNN" depth="0.0">
			<acc value="0.091116550896588" flag="0"/>
			<vel value="0.0424778291396" flag="0"/>
			<psa03 value="0.178311437257549" flag="0"/>
			<psa10 value="0.0191155131839495" flag="0"/>
			<psa30 value="0.00267154197654451" flag="0"/>
		</comp>
		<comp name=".HNZ" depth="0.0">
			<acc value="0.024167577754518" flag="0"/>
			<vel value="0.00712483263128" flag="0"/>
			<psa03 value="0.0347996724950299" flag="0"/>
			<psa10 value="0.00663755439288355" flag="0"/>
			<psa30 value="0.000536940934282971" flag="0"/>
		</comp>
	</station>
	<station code="BRGA" name="BRGA" netid="KO" source="Bogazici University Kandilli Observatory And Earthquake Research Institute (KOERI)" insttype="" lat="40.8846" lon="29.065">
		<comp name=".HNE" depth="0.0">
			<acc value="0.028642096456236" flag="0"/>
			<vel value="0.0144936667459" flag="0"/>
			<psa03 value="0.09201180366359" flag="0"/>
			<psa10 value="0.00689498879040495" flag="0"/>
			<psa30 value="0.000368607074659815" flag="0"/>
		</comp>
		<comp name=".HNN" depth="0.0">
			<acc value="0.063927668930928" flag="0"/>
			<vel value="0.0205559216853" flag="0"/>
			<psa03 value="0.121551437602884" flag="0"/>
			<psa10 value="0.0102889903450996" flag="0"/>
			<psa30 value="0.000776106673674718" flag="0"/>
		</comp>
		<comp name=".HNZ" depth="0.0">
			<acc value="0.05146537426152" flag="0"/>
			<vel value="0.0103288056017" flag="0"/>
			<psa03 value="0.0532619033398758" flag="0"/>
			<psa10 value="0.0056462432546703" flag="0"/>
			<psa30 value="0.00075523180123528" flag="0"/>
		</comp>
	</station>
	<station code="BUYA" name="BUYA" netid="KO" source="Bogazici University Kandilli Observatory And Earthquake Research Institute (KOERI)" insttype="" lat="40.8694" lon="29.1278">
		<comp name=".HNE" depth="0.0">
			<acc value="0.035528769242364" flag="0"/>
			<vel value="0.0169813757227" flag="0"/>
			<psa03 value="0.103689473085462" flag="0"/>
			<psa10 value="0.00688822334224576" flag="0"/>
			<psa30 value="0.000471889906223268" flag="0"/>
		</comp>
		<comp name=".HNN" depth="0.0">
			<acc value="0.043183312311858" flag="0"/>
			<vel value="0.0118239589282" flag="0"/>
			<psa03 value="0.106374942651028" flag="0"/>
			<psa10 value="0.00679914697261372" flag="0"/>
			<psa30 value="0.000619915337181613" flag="0"/>
		</comp>
		<comp name=".HNZ" depth="0.0">
			<acc value="0.027402582953814" flag="0"/>
			<vel value="0.00701712454766" flag="0"/>
			<psa03 value="0.0568402862232274" flag="0"/>
			<psa10 value="0.00180022531077932" flag="0"/>
			<psa30 value="0.000299435981997377" flag="0"/>
		</comp>
	</station>
	<station code="BYKA" name="BYKA" netid="KO" source="Bogazici University Kandilli Observatory And Earthquake Research Institute (KOERI)" insttype="" lat="40.8738" lon="29.1251">
		<comp name=".HNE" depth="0.0">
			<acc value="0.060928047186186" flag="0"/>
			<vel value="0.0217213443317" flag="0"/>
			<psa03 value="0.157278377254012" flag="0"/>
			<psa10 value="0.00634802911954335" flag="0"/>
			<psa30 value="0.000504691349991617" flag="0"/>
		</comp>
		<comp name=".HNN" depth="0.0">
			<acc value="0.052951803209976" flag="0"/>
			<vel value="0.0190866731699" flag="0"/>
			<psa03 value="0.113469548050838" flag="0"/>
			<psa10 value="0.00897662371976821" flag="0"/>
			<psa30 value="0.000672253127218748" flag="0"/>
		</comp>
		<comp name=".HNZ" depth="0.0">
			<acc value="0.024153608332686" flag="0"/>
			<vel value="0.00609655544161" flag="0"/>
			<psa03 value="0.0274084536963856" flag="0"/>
			<psa10 value="0.00276278809927733" flag="0"/>
			<psa30 value="0.000170550894513875" flag="0"/>
		</comp>
	</station>
	<station code="CADB" name="CADB" netid="KO" source="Bogazici University Kandilli Observatory And Earthquake Research Institute (KOERI)" insttype="" lat="40.9534" lon="29.083">
		<comp name=".HNE" depth="0.0">
			<acc value="0.13434222277692" flag="0"/>
			<vel value="0.022769212078" flag="0"/>
			<psa03 value="0.0631615695605094" flag="0"/>
			<psa10 value="0.00426234298431253" flag="0"/>
			<psa30 value="0.000480986029629275" flag="0"/>
		</comp>
		<comp name=".HNN" depth="0.0">
			<acc value="0.060250350928878" flag="0"/>
			<vel value="0.0207604118757" flag="0"/>
			<psa03 value="0.0667671990409966" flag="0"/>
			<psa10 value="0.0048616645614038" flag="0"/>
			<psa30 value="0.000720498041960125" flag="0"/>
		</comp>
		<comp name=".HNZ" depth="0.0">
			<acc value="0.034509627782382" flag="0"/>
			<vel value="0.00495992071102" flag="0"/>
			<psa03 value="0.0166621337324965" flag="0"/>
			<psa10 value="0.00263629034442216" flag="0"/>
			<psa30 value="0.000159976834659351" flag="0"/>
		</comp>
	</station>
	<station code="CANM" name="CANM" netid="KO" source="Bogazici University Kandilli Observatory And Earthquake Research Institute (KOERI)" insttype="" lat="40.0113" lon="27.0529">
		<comp name=".HNE" depth="0.0">
			<acc value="0.007113874730922" flag="0"/>
			<vel value="0.00209608561226" flag="0"/>
			<psa03 value="0.0142749026734915" flag="0"/>
			<psa10 value="0.00157059009857292" flag="0"/>
			<psa30 value="0.000209830267412802" flag="0"/>
		</comp>
		<comp name=".HNN" depth="0.0">
			<acc value="0.0096394118370768" flag="0"/>
			<vel value="0.00412340762145" flag="0"/>
			<psa03 value="0.0175078954892149" flag="0"/>
			<psa10 value="0.00276095633730725" flag="0"/>
			<psa30 value="0.000283452553382363" flag="0"/>
		</comp>
		<comp name=".HNZ" depth="0.0">
			<acc value="0.0052276802319906" flag="0"/>
			<vel value="0.00194258270107" flag="0"/>
			<psa03 value="0.0123803969634623" flag="0"/>
			<psa10 value="0.00120629248908308" flag="0"/>
			<psa30 value="0.000181927872141112" flag="0"/>
		</comp>
	</station>
	<station code="CRLU" name="CRLU" netid="KO" source="Bogazici University Kandilli Observatory And Earthquake Research Institute (KOERI)" insttype="" lat="41.1428" lon="27.8215">
		<comp name=".HNE" depth="0.0">
			<acc value="0.01491746590038" flag="0"/>
			<vel value="0.00986936412998" flag="0"/>
			<psa03 value="0.0323554506814901" flag="0"/>
			<psa10 value="0.0117191147713359" flag="0"/>
			<psa30 value="0.00180870523451232" flag="0"/>
		</comp>
		<comp name=".HNN" depth="0.0">
			<acc value="0.019809840002748" flag="0"/>
			<vel value="0.0133240024253" flag="0"/>
			<psa03 value="0.0431545280465055" flag="0"/>
			<psa10 value="0.0127592602383713" flag="0"/>
			<psa30 value="0.00165187755377975" flag="0"/>
		</comp>
		<comp name=".HNZ" depth="0.0">
			<acc value="0.01380759037467" flag="0"/>
			<vel value="0.00842487239142" flag="0"/>
			<psa03 value="0.0235890939117134" flag="0"/>
			<psa10 value="0.0119499238113234" flag="0"/>
			<psa30 value="0.000671909250274025" flag="0"/>
		</comp>
	</station>
	<station code="CTYL" name="CTYL" netid="KO" source="Bogazici University Kandilli Observatory And Earthquake Research Institute (KOERI)" insttype="" lat="41.476" lon="28.2897">
		<comp name=".HNE" depth="0.0">
			<acc value="0.030620577233874" flag="0"/>
			<vel value="0.00932419282536" flag="0"/>
			<psa03 value="0.0530038081169692" flag="0"/>
			<psa10 value="0.00443107603705567" flag="0"/>
			<psa30 value="0.000588283241712414" flag="0"/>
		</comp>
		<comp name=".HNN" depth="0.0">
			<acc value="0.041619413783022" flag="0"/>
			<vel value="0.0112851791302" flag="0"/>
			<psa03 value="0.0530488840199128" flag="0"/>
			<psa10 value="0.00322665023411723" flag="0"/>
			<psa30 value="0.000345434263532959" flag="0"/>
		</comp>
		<comp name=".HNZ" depth="0.0">
			<acc value="0.025064237599608" flag="0"/>
			<vel value="0.00687509618964" flag="0"/>
			<psa03 value="0.0422165388260004" flag="0"/>
			<psa10 value="0.00219693608310816" flag="0"/>
			<psa30 value="0.000457876061206756" flag="0"/>
		</comp>
	</station>
	<station code="DEGR" name="DEGR" netid="KO" source="Bogazici University Kandilli Observatory And Earthquake Research Institute (KOERI)" insttype="" lat="40.4518" lon="27.1547">
		<comp name=".HNE" depth="0.0">
			<acc value="0.016494614042658" flag="0"/>
			<vel value="0.00705165245181" flag="0"/>
			<psa03 value="0.0438786984150904" flag="0"/>
			<psa10 value="0.00305993645577106" flag="0"/>
			<psa30 value="0.000962587204179675" flag="0"/>
		</comp>
		<comp name=".HNN" depth="0.0">
			<acc value="0.013961986941942" flag="0"/>
			<vel value="0.00675476016763" flag="0"/>
			<psa03 value="0.0448027804641024" flag="0"/>
			<psa10 value="0.00364652851774177" flag="0"/>
			<psa30 value="0.00138328173979386" flag="0"/>
		</comp>
		<comp name=".HNZ" depth="0.0">
			<acc value="0.0042330487750842" flag="0"/>
			<vel value="0.00107067808144" flag="0"/>
			<psa03 value="0.00536120215852886" flag="0"/>
			<psa10 value="0.00212949770939567" flag="0"/>
			<psa30 value="9.35700136584513e-05" flag="0"/>
		</comp>
	</station>
	<station code="DGNL" name="DGNL" netid="KO" source="Bogazici University Kandilli Observatory And Earthquake Research Institute (KOERI)" insttype="" lat="40.5209" lon="27.7484">
		<comp name=".HNE" depth="0.0">
			<acc value="0.034753297474278" flag="0"/>
			<vel value="0.00375577223386" flag="0"/>
			<psa03 value="0.00689047403820767" flag="0"/>
			<psa10 value="0.000886703642106476" flag="0"/>
			<psa30 value="0.000184512483463002" flag="0"/>
		</comp>
		<comp name=".HNN" depth="0.0">
			<acc value="0.032782069434894" flag="0"/>
			<vel value="0.0033125681777" flag="0"/>
			<psa03 value="0.00937572070487985" flag="0"/>
			<psa10 value="0.00119192071671015" flag="0"/>
			<psa30 value="0.000236766960690865" flag="0"/>
		</comp>
		<comp name=".HNZ" depth="0.0">
			<acc value="0.014699527594668" flag="0"/>
			<vel value="0.00167574522691" flag="0"/>
			<psa03 value="0.00446604455144966" flag="0"/>
			<psa10 value="0.000814076037917719" flag="0"/>
			<psa30 value="0.00019543530340073" flag="0"/>
		</comp>
	</station>
	<station code="DOGC" name="DOGC" netid="KO" source="Bogazici University Kandilli Observatory And Earthquake Research Institute (KOERI)" insttype="" lat="41.3949" lon="26.9852">
		<comp name=".HNE" depth="0.0">
			<acc value="0.010333012873356" flag="0"/>
			<vel value="0.00661699531091" flag="0"/>
			<psa03 value="0.0431886110335308" flag="0"/>
			<psa10 value="0.00292350499598239" flag="0"/>
			<psa30 value="0.000686398439276615" flag="0"/>
		</comp>
		<comp name=".HNN" depth="0.0">
			<acc value="0.0077298440900532" flag="0"/>
			<vel value="0.00525844732555" flag="0"/>
			<psa03 value="0.0183775377342046" flag="0"/>
			<psa10 value="0.00407047605530089" flag="0"/>
			<psa30 value="0.000779510076215203" flag="0"/>
		</comp>
		<comp name=".HNZ" depth="0.0">
			<acc value="0.0031231461865302" flag="0"/>
			<vel value="0.00121408669212" flag="0"/>
			<psa03 value="0.00631814706184012" flag="0"/>
			<psa10 value="0.00110366600308204" flag="0"/>
			<psa30 value="0.000410684783976242" flag="0"/>
		</comp>
	</station>
	<station code="DST" name="DST" netid="KO" source="Bogazici University Kandilli Observatory And Earthquake Research Institute (KOERI)" insttype="" lat="39.6041" lon="28.6267">
		<comp name=".HNE" depth="0.0">
			<acc value="0.0059843700434268" flag="0"/>
			<vel value="0.00298153343263" flag="0"/>
			<psa03 value="0.0189752947805618" flag="0"/>
			<psa10 value="0.00312213409168686" flag="0"/>
			<psa30 value="0.000746384704741116" flag="0"/>
		</comp>
		<comp name=".HNN" depth="0.0">
