<?xml version="1.0" encoding="UTF-8" standalone="yes"?>
<!DOCTYPE earthquake SYSTEM "stationlist.dtd">
<stationlist created="" xmlns="ch.ethz.sed.shakemap.usgs.xml">
  <station code="ARMT" name="ARMT" netid="KO" insttype="CMG-3ESP" commtype="DIG" lat="40.5683" lon="28.866">
    <comp name="--.HHE">
      <acc value="0.0207858372" flag="0"/>
      <vel value="0.0072987776" flag="0"/>
      <psa03 value="0.0544421077" flag="0"/>
      <psa10 value="0.0040846826" flag="0"/>
      <psa30 value="0.0002156426" flag="0"/>
    </comp>
    <comp name="--.HHZ">
      <acc value="0.0203327015" flag="0"/>
      <vel value="0.0039287190" flag="0"/>
      <psa03 value="0.0155825961" flag="0"/>
      <psa10 value="0.0017311091" flag="0"/>
      <psa30 value="0.0001000619" flag="0"/>
    </comp>
  </station>
  <station code="AVCI" name="AVCI" netid="KO" insttype="CMG-5T" commtype="DIG" lat="40.9958" lon="28.7225">
    <comp name="--.HNE">
      <acc value="0.1003559986" flag="0"/>
      <vel value="0.0518288525" flag="0"/>
      <psa03 value="0.2555183464" flag="0"/>
      <psa10 value="0.0228607738" flag="0"/>
      <psa30 value="0.0020064003" flag="0"/>
    </comp>
    <comp name="--.HNN">
      <acc value="0.0590986942" flag="0"/>
      <vel value="0.0246448833" flag="0"/>
      <psa03 value="0.1673322828" flag="0"/>
      <psa10 value="0.0183632630" flag="0"/>
      <psa30 value="0.0015864859" flag="0"/>
    </comp>
    <comp name="--.HNZ">
      <acc value="0.0750585500" flag="0"/>
      <vel value="0.0204670444" flag="0"/>
      <psa03 value="0.1021317963" flag="0"/>
      <psa10 value="0.0088746513" flag="0"/>
      <psa30 value="0.0006962466" flag="0"/>
    </comp>
  </station>
  <station code="BGKT" name="BGKT" netid="KO" insttype="CMG-3ESP" commtype="DIG" lat="41.181" lon="28.773">
    <comp name="--.HHZ">
      <acc value="0.0624205933" flag="0"/>
      <vel value="0.0088007861" flag="0"/>
      <psa03 value="0.0614674913" flag="0"/>
      <psa10 value="0.0020620831" flag="0"/>
      <psa30 value="0.0001377448" flag="0"/>
    </comp>
    <comp name="--.HHE">
      <acc value="0.0747608619" flag="0"/>
      <vel value="0.0098985430" flag="0"/>
      <psa03 value="0.0725323771" flag="0"/>
      <psa10 value="0.0046152672" flag="0"/>
      <psa30 value="0.0003213262" flag="0"/>
    </comp>
    <comp name="--.HHN">
      <acc value="0.0636649587" flag="0"/>
      <vel value="0.0105366178" flag="0"/>
      <psa03 value="0.0925693331" flag="0"/>
      <psa10 value="0.0034247431" flag="0"/>
      <psa30 value="0.0003933149" flag="0"/>
    </comp>
  </station>
  <station code="BIGA" name="BIGA" netid="KO" insttype="CMG-5T" commtype="DIG" lat="40.2813" lon="27.1505">
    <comp name="--.HNN">
      <acc value="0.0109313113" flag="0"/>
      <vel value="0.0033136059" flag="0"/>
      <psa03 value="0.0182069227" flag="0"/>
      <psa10 value="0.0020910863" flag="0"/>
      <psa30 value="0.0004167081" flag="0"/>
    </comp>
    <comp name="--.HNE">
      <acc value="0.0095029063" flag="0"/>
      <vel value="0.0031620727" flag="0"/>
      <psa03 value="0.0130520258" flag="0"/>
      <psa10 value="0.0015682636" flag="0"/>
      <psa30 value="0.0005716785" flag="0"/>
    </comp>
    <comp name="--.HNZ">
      <acc value="0.0113558026" flag="0"/>
      <vel value="0.0017283834" flag="0"/>
      <psa03 value="0.0093004896" flag="0"/>
      <psa10 value="0.0009031735" flag="0"/>
      <psa30 value="0.0003028591" flag="0"/>
    </comp>
  </station>
  <station code="BOTS" name="BOTS" netid="KO" insttype="CMG-5T" commtype="DIG" lat="40.9902" lon="27.981">
    <comp name="--.HNE">
      <acc value="0.0563677199" flag="0"/>
      <vel value="0.0326987161" flag="0"/>
      <psa03 value="0.0951678686" flag="0"/>
      <psa10 value="0.0219916992" flag="0"/>
      <psa30 value="0.0021232895" flag="0"/>
    </comp>
    <comp name="--.HNN">
      <acc value="0.0908781821" flag="0"/>
      <vel value="0.0418999251" flag="0"/>
      <psa03 value="0.1753617992" flag="0"/>
      <psa10 value="0.0190732383" flag="0"/>
      <psa30 value="0.0026716507" flag="0"/>
    </comp>
    <comp name="--.HNZ">
      <acc value="0.0286761067" flag="0"/>
      <vel value="0.0072295642" flag="0"/>
      <psa03 value="0.0343306888" flag="0"/>
      <psa10 value="0.0066592187" flag="0"/>
      <psa30 value="0.0004442825" flag="0"/>
    </comp>
  </station>
  <station code="BRGA" name="BRGA" netid="KO" insttype="CMG-5T" commtype="DIG" lat="40.8846" lon="29.065">
    <comp name="--.HNZ">
      <acc value="0.0537979008" flag="0"/>
      <vel value="0.0102131891" flag="0"/>
      <psa03 value="0.0525099340" flag="0"/>
      <psa10 value="0.0056459618" flag="0"/>
      <psa30 value="0.0006402481" flag="0"/>
    </comp>
    <comp name="--.HNE">
      <acc value="0.0287920344" flag="0"/>
      <vel value="0.0144397069" flag="0"/>
      <psa03 value="0.0916504994" flag="0"/>
      <psa10 value="0.0068844616" flag="0"/>
      <psa30 value="0.0003457702" flag="0"/>
    </comp>
    <comp name="--.HNN">
      <acc value="0.0643966290" flag="0"/>
      <vel value="0.0205543858" flag="0"/>
      <psa03 value="0.1197937667" flag="0"/>
      <psa10 value="0.0102682541" flag="0"/>
      <psa30 value="0.0007342137" flag="0"/>
    </comp>
  </station>
  <station code="CRLU" name="CRLU" netid="KO" insttype="ACEBOX" commtype="DIG" lat="41.1428" lon="27.8215">
    <comp name="--.HNE">
      <acc value="0.1483387906" flag="0"/>
      <vel value="0.0971461270" flag="0"/>
      <psa03 value="0.3174126809" flag="0"/>
      <psa10 value="0.1166511819" flag="0"/>
      <psa30 value="0.0159107775" flag="0"/>
    </comp>
    <comp name="--.HNZ">
      <acc value="0.1370606607" flag="0"/>
      <vel value="0.0818655185" flag="0"/>
      <psa03 value="0.2291067341" flag="0"/>
      <psa10 value="0.1182626357" flag="0"/>
      <psa30 value="0.0060819928" flag="0"/>
    </comp>
    <comp name="--.HNN">
      <acc value="0.1969454965" flag="0"/>
      <vel value="0.1328623326" flag="0"/>
      <psa03 value="0.4234926682" flag="0"/>
      <psa10 value="0.1268713216" flag="0"/>
      <psa30 value="0.0150762829" flag="0"/>
    </comp>
  </station>
  <station code="CTYL" name="CTYL" netid="KO" insttype="CMG-3T" commtype="DIG" lat="41.476" lon="28.2897">
    <comp name="--.HHE">
      <acc value="0.0297215110" flag="0"/>
      <vel value="0.0089846426" flag="0"/>
      <psa03 value="0.0518943278" flag="0"/>
      <psa10 value="0.0044149837" flag="0"/>
      <psa30 value="0.0004533535" flag="0"/>
    </comp>
    <comp name="--.HHZ">
      <acc value="0.0279861424" flag="0"/>
      <vel value="0.0068099041" flag="0"/>
      <psa03 value="0.0414957869" flag="0"/>
      <psa10 value="0.0019875685" flag="0"/>
      <psa30 value="0.0001310090" flag="0"/>
    </comp>
    <comp name="--.HHN">
      <acc value="0.0415373592" flag="0"/>
      <vel value="0.0114409481" flag="0"/>
      <psa03 value="0.0516546377" flag="0"/>
      <psa10 value="0.0029083976" flag="0"/>
      <psa30 value="0.0002096506" flag="0"/>
    </comp>
  </station>
  <station code="EDC" name="EDC" netid="KO" insttype="CMG-5T" commtype="DIG" lat="40.3465" lon="27.8618">
    <comp name="--.HNN">
      <acc value="0.0146500635" flag="0"/>
      <vel value="0.0050413015" flag="0"/>
      <psa03 value="0.0260230624" flag="0"/>
      <psa10 value="0.0028146661" flag="0"/>
      <psa30 value="0.0001908633" flag="0"/>
    </comp>
    <comp name="--.HNZ">
      <acc value="0.0095823862" flag="0"/>
      <vel value="0.0020150550" flag="0"/>
      <psa03 value="0.0086768724" flag="0"/>
      <psa10 value="0.0010938417" flag="0"/>
      <psa30 value="0.0001599531" flag="0"/>
    </comp>
    <comp name="--.HNE">
      <acc value="0.0126800570" flag="0"/>
      <vel value="0.0037744583" flag="0"/>
      <psa03 value="0.0215850521" flag="0"/>
      <psa10 value="0.0038329156" flag="0"/>
      <psa30 value="0.0002231160" flag="0"/>
    </comp>
  </station>
  <station code="GAZK" name="GAZK" netid="KO" insttype="CMG-6T" commtype="DIG" lat="40.7479" lon="27.3275">
    <comp name="--.HHE">
      <acc value="0.0088893633" flag="0"/>
      <vel value="0.0019227015" flag="0"/>
      <psa03 value="0.0110417113" flag="0"/>
      <psa10 value="0.0021639911" flag="0"/>
      <psa30 value="0.0003366660" flag="0"/>
    </comp>
    <comp name="--.HHN">
      <acc value="0.0072355198" flag="0"/>
      <vel value="0.0027078081" flag="0"/>
      <psa03 value="0.0128465483" flag="0"/>
      <psa10 value="0.0015870106" flag="0"/>
      <psa30 value="0.0003730446" flag="0"/>
    </comp>
    <comp name="--.HHZ">
      <acc value="0.0067054316" flag="0"/>
      <vel value="0.0017602489" flag="0"/>
      <psa03 value="0.0068208121" flag="0"/>
      <psa10 value="0.0018982387" flag="0"/>
      <psa30 value="0.0002050373" flag="0"/>
    </comp>
  </station>
  <station code="GEML" name="GEML" netid="KO" insttype="CMG-3T" commtype="DIG" lat="40.4646" lon="29.2116">
    <comp name="--.HHZ">
      <acc value="0.0435670257" flag="0"/>
      <vel value="0.0072061542" flag="0"/>
      <psa03 value="0.0288431824" flag="0"/>
      <psa10 value="0.0044485320" flag="0"/>
      <psa30 value="0.0002829674" flag="0"/>
    </comp>
    <comp name="--.HHE">
      <acc value="0.0451413465" flag="0"/>
      <vel value="0.0138126229" flag="0"/>
      <psa03 value="0.0785384409" flag="0"/>
      <psa10 value="0.0084941228" flag="0"/>
      <psa30 value="0.0004828099" flag="0"/>
    </comp>
    <comp name="--.HHN">
      <acc value="0.0298988955" flag="0"/>
      <vel value="0.0099016343" flag="0"/>
      <psa03 value="0.0605115205" flag="0"/>
      <psa10 value="0.0063455120" flag="0"/>
      <psa30 value="0.0003293285" flag="0"/>
    </comp>
  </station>
  <station code="GONE" name="GONE" netid="KO" insttype="CMG-5T" commtype="DIG" lat="40.0466" lon="27.686">
    <comp name="--.HNE">
      <acc value="0.0081256049" flag="0"/>
      <vel value="0.0064061302" flag="0"/>
      <psa03 value="0.0161880528" flag="0"/>
      <psa10 value="0.0069092862" flag="0"/>
      <psa30 value="0.0002695582" flag="0"/>
    </comp>
    <comp name="--.HNZ">
      <acc value="0.0053200281" flag="0"/>
      <vel value="0.0021625043" flag="0"/>
      <psa03 value="0.0083214894" flag="0"/>
      <psa10 value="0.0023298418" flag="0"/>
      <psa30 value="0.0001206579" flag="0"/>
    </comp>
    <comp name="--.HNN">
      <acc value="0.0125158419" flag="0"/>
      <vel value="0.0042394316" flag="0"/>
      <psa03 value="0.0154320601" flag="0"/>
      <psa10 value="0.0033082690" flag="0"/>
      <psa30 value="0.0002087058" flag="0"/>
    </comp>
  </station>
  <station code="ISK" name="ISK" netid="KO" insttype="CMG-3T" commtype="DIG" lat="41.0615" lon="29.0592">
    <comp name="--.HHN">
      <acc value="0.0243666399" flag="0"/>
      <vel value="0.0105078585" flag="0"/>
      <psa03 value="0.0665359263" flag="0"/>
      <psa10 value="0.0049442056" flag="0"/>
      <psa30 value="0.0002817043" flag="0"/>
    </comp>
    <comp name="--.HHE">
      <acc value="0.0165634557" flag="0"/>
      <vel value="0.0049669713" flag="0"/>
      <psa03 value="0.0153936441" flag="0"/>
      <psa10 value="0.0016800604" flag="0"/>
      <psa30 value="0.0001487083" flag="0"/>
    </comp>
    <comp name="--.HHZ">
      <acc value="0.0205397845" flag="0"/>
      <vel value="0.0065848096" flag="0"/>
      <psa03 value="0.0312453777" flag="0"/>
      <psa10 value="0.0026505354" flag="0"/>
      <psa30 value="0.0002265284" flag="0"/>
    </comp>
  </station>
  <station code="IZI" name="IZI" netid="KO" insttype="CMG-5T" commtype="DIG" lat="40.3483" lon="29.4612">
    <comp name="--.HNE">
      <acc value="0.0102803361" flag="0"/>
      <vel value="0.0054096071" flag="0"/>
      <psa03 value="0.0220469602" flag="0"/>
      <psa10 value="0.0036982170" flag="0"/>
      <psa30 value="0.0004699831" flag="0"/>
    </comp>
    <comp name="--.HNN">
      <acc value="0.0096562157" flag="0"/>
      <vel value="0.0049706273" flag="0"/>
      <psa03 value="0.0281573654" flag="0"/>
      <psa10 value="0.0036539290" flag="0"/>
      <psa30 value="0.0005085713" flag="0"/>
    </comp>
    <comp name="--.HNZ">
      <acc value="0.0077306432" flag="0"/>
      <vel value="0.0027723883" flag="0"/>
      <psa03 value="0.0175379800" flag="0"/>
      <psa10 value="0.0021680419" flag="0"/>
      <psa30 value="0.0004164844" flag="0"/>
    </comp>
  </station>
  <station code="KAVV" name="KAVV" netid="KO" insttype="CMG-3ESPC" commtype="DIG" lat="41.0638" lon="29.06">
    <comp name="--.HHZ">
      <acc value="0.0260848295" flag="0"/>
      <vel value="0.0083279954" flag="0"/>
      <psa03 value="0.0499969150" flag="0"/>
      <psa10 value="0.0036887892" flag="0"/>
      <psa30 value="0.0002611718" flag="0"/>
    </comp>
    <comp name="--.HHN">
      <acc value="0.0428624480" flag="0"/>
      <vel value="0.0140157879" flag="0"/>
      <psa03 value="0.1208536613" flag="0"/>
      <psa10 value="0.0055286336" flag="0"/>
      <psa30 value="0.0003245875" flag="0"/>
    </comp>
    <comp name="--.HHE">
      <acc value="0.0514270244" flag="0"/>
      <vel value="0.0155746856" flag="0"/>
      <psa03 value="0.0685998009" flag="0"/>
      <psa10 value="0.0028121007" flag="0"/>
      <psa30 value="0.0002987301" flag="0"/>
    </comp>
  </station>
  <station code="KCTX" name="KCTX" netid="KO" insttype="CMG-3ESP" commtype="DIG" lat="40.2626" lon="28.3353">
    <comp name="--.HHN">
      <acc value="0.0103534715" flag="0"/>
      <vel value="0.0026462168" flag="0"/>
      <psa03 value="0.0144953265" flag="0"/>
      <psa10 value="0.0020963336" flag="0"/>
      <psa30 value="0.0001905033" flag="0"/>
    </comp>
    <comp name="--.HHE">
      <acc value="0.0093761222" flag="0"/>
      <vel value="0.0024830307" flag="0"/>
      <psa03 value="0.0113726280" flag="0"/>
      <psa10 value="0.0026055392" flag="0"/>
      <psa30 value="0.0002056749" flag="0"/>
    </comp>
    <comp name="--.HHZ">
      <acc value="0.0124937401" flag="0"/>
      <vel value="0.0020892017" flag="0"/>
      <psa03 value="0.0079138185" flag="0"/>
      <psa10 value="0.0012263104" flag="0"/>
      <psa30 value="0.0000969660" flag="0"/>
    </comp>
  </station>
  <station code="KLYT" name="KLYT" netid="KO" insttype="CMG-3T" commtype="DIG" lat="41.253" lon="29.042">
    <comp name="--.HHN">
      <acc value="0.0464879571" flag="0"/>
      <vel value="0.0135572619" flag="0"/>
      <psa03 value="0.0812514819" flag="0"/>
      <psa10 value="0.0081522476" flag="0"/>
      <psa30 value="0.0004577590" flag="0"/>
    </comp>
    <comp name="--.HHZ">
      <acc value="0.0259428893" flag="0"/>
      <vel value="0.0068433569" flag="0"/>
      <psa03 value="0.0336124517" flag="0"/>
      <psa10 value="0.0025368193" flag="0"/>
      <psa30 value="0.0001873579" flag="0"/>
    </comp>
  </station>
  <station code="KOUK" name="KOUK" netid="KO" insttype="CMG-5T" commtype="DIG" lat="40.6572" lon="29.1918">
    <comp name="--.HNZ">
      <acc value="0.0135123102" flag="0"/>
      <vel value="0.0064140906" flag="0"/>
      <psa03 value="0.0563583870" flag="0"/>
      <psa10 value="0.0088939171" flag="0"/>
      <psa30 value="0.0003864406" flag="0"/>
    </comp>
    <comp name="--.HNE">
      <acc value="0.0268612120" flag="0"/>
      <vel value="0.0189915032" flag="0"/>
      <psa03 value="0.0682119846" flag="0"/>
      <psa10 value="0.0282730666" flag="0"/>
      <psa30 value="0.0010607210" flag="0"/>
    </comp>
    <comp name="--.HNN">
      <acc value="0.0240864639" flag="0"/>
      <vel value="0.0186144479" flag="0"/>
      <psa03 value="0.0768503669" flag="0"/>
      <psa10 value="0.0345756733" flag="0"/>
      <psa30 value="0.0009797347" flag="0"/>
    </comp>
  </station>
  <station code="KRBG" name="KRBG" netid="KO" insttype="CMG-3ESP" commtype="DIG" lat="40.3932" lon="27.2977">
    <comp name="--.HHN">
      <acc value="0.0101829647" flag="0"/>
      <vel value="0.0024242168" flag="0"/>
      <psa03 value="0.0117181295" flag="0"/>
      <psa10 value="0.0015269287" flag="0"/>
      <psa30 value="0.0000974095" flag="0"/>
    </comp>
    <comp name="--.HHE">
      <acc value="0.0113002007" flag="0"/>
      <vel value="0.0035118874" flag="0"/>
      <psa03 value="0.0136818890" flag="0"/>
      <psa10 value="0.0022913886" flag="0"/>
      <psa30 value="0.0001743762" flag="0"/>
    </comp>
    <comp name="--.HHZ">
      <acc value="0.0062533124" flag="0"/>
      <vel value="0.0012739946" flag="0"/>
      <psa03 value="0.0070630813" flag="0"/>
      <psa10 value="0.0007208122" flag="0"/>
      <psa30 value="0.0000594110" flag="0"/>
    </comp>
  </station>
  <station code="MAEG" name="MAEG" netid="KO" insttype="CMG-5T" commtype="DIG" lat="40.9653" lon="27.9448">
    <comp name="--.HNE">
      <acc value="0.0316865158" flag="0"/>
      <vel value="0.0157160159" flag="0"/>
      <psa03 value="0.0282561561" flag="0"/>
      <psa10 value="0.0095692458" flag="0"/>
      <psa30 value="0.0009805369" flag="0"/>
    </comp>
    <comp name="--.HNZ">
      <acc value="0.0298475268" flag="0"/>
      <vel value="0.0044161266" flag="0"/>
      <psa03 value="0.0153041949" flag="0"/>
      <psa10 value="0.0059556619" flag="0"/>
      <psa30 value="0.0004152865" flag="0"/>
    </comp>
    <comp name="--.HNN">
      <acc value="0.0415272019" flag="0"/>
      <vel value="0.0165431008" flag="0"/>
      <psa03 value="0.0449878529" flag="0"/>
      <psa10 value="0.0101269769" flag="0"/>
      <psa30 value="0.0013675587" flag="0"/>
    </comp>
  </station>
  <station code="MDNY" name="MDNY" netid="KO" insttype="CMG-5T" commtype="DIG" lat="40.3709" lon="28.8846">
    <comp name="--.HNE">
      <acc value="0.0373258466" flag="0"/>
      <vel value="0.0105778892" flag="0"/>
      <psa03 value="0.0428169301" flag="0"/>
      <psa10 value="0.0024137657" flag="0"/>
      <psa30 value="0.0001875543" flag="0"/>
    </comp>
    <comp name="--.HNN">
      <acc value="0.0301060925" flag="0"/>
      <vel value="0.0082146566" flag="0"/>
      <psa03 value="0.0581621739" flag="0"/>
      <psa10 value="0.0024534668" flag="0"/>
      <psa30 value="0.0001799161" flag="0"/>
    </comp>
    <comp name="--.HNZ">
      <acc value="0.0270848596" flag="0"/>
      <vel value="0.0058814628" flag="0"/>
      <psa03 value="0.0192128221" flag="0"/>
      <psa10 value="0.0012169106" flag="0"/>
      <psa30 value="0.0001312631" flag="0"/>
    </comp>
  </station>
  <station code="ORLT" name="ORLT" netid="KO" insttype="CMG-5T" commtype="DIG" lat="40.0452" lon="28.8914">
    <comp name="--.HNE">
      <acc value="0.0317540142" flag="0"/>
      <vel value="0.0129451927" flag="0"/>
      <psa03 value="0.0728288705" flag="0"/>
      <psa10 value="0.0044846291" flag="0"/>
      <psa30 value="0.0003680202" flag="0"/>
    </comp>
    <comp name="--.HNN">
      <acc value="0.0265977950" flag="0"/>
      <vel value="0.0102790198" flag="0"/>
      <psa03 value="0.0867303733" flag="0"/>
      <psa10 value="0.0034496698" flag="0"/>
      <psa30 value="0.0003870446" flag="0"/>
    </comp>
    <comp name="--.HNZ">
      <acc value="0.0107388253" flag="0"/>
      <vel value="0.0038668810" flag="0"/>
      <psa03 value="0.0174768888" flag="0"/>
      <psa10 value="0.0024793135" flag="0"/>
      <psa30 value="0.0002663984" flag="0"/>
    </comp>
  </station>
  <station code="SILV" name="SILV" netid="KO" insttype="ACEBOX" commtype="DIG" lat="41.0723" lon="28.239">
    <comp name="--.HNE">
      <acc value="0.4223409635" flag="0"/>
      <vel value="0.1206261436" flag="0"/>
      <psa03 value="0.4080050356" flag="0"/>
      <psa10 value="0.0254815948" flag="0"/>
      <psa30 value="0.0032990446" flag="0"/>
    </comp>
  </station>
  <station code="SINB" name="SINB" netid="KO" insttype="CMG-5T" commtype="DIG" lat="40.9998" lon="28.5392">
    <comp name="--.HNZ">
      <acc value="0.1263806803" flag="0"/>
      <vel value="0.0197143499" flag="0"/>
      <psa03 value="0.1164398500" flag="0"/>
