<stationlist created="1763467336">
	<station code="ATHU" name="ATHU" netid="HA" source="Hellenic Seismological Network, University of Athens, Seismological Laboratory (HA)" insttype="" lat="37.9665" lon="23.7845">
		<comp name="--.HNE" depth="0.0">
			<acc value="0.0018354215959338" flag="0"/>
			<vel value="0.000820440913368" flag="0"/>
			<psa03 value="0.00389531175622588" flag="0"/>
			<psa10 value="0.00120259908034975" flag="0"/>
			<psa30 value="7.04802614194493e-05" flag="0"/>
		</comp>
		<comp name="--.HNN" depth="0.0">
			<acc value="0.0012484748260806" flag="0"/>
			<vel value="0.000791484038023" flag="0"/>
			<psa03 value="0.00318634063671983" flag="0"/>
			<psa10 value="0.00112592396193756" flag="0"/>
			<psa30 value="0.000129187985153486" flag="0"/>
		</comp>
		<comp name="--.HNZ" depth="0.0">
			<acc value="0.0021264853537398" flag="0"/>
			<vel value="0.00102822843292" flag="0"/>
			<psa03 value="0.0041565364178489" flag="0"/>
			<psa10 value="0.00122313766749135" flag="0"/>
			<psa30 value="0.000139066959899511" flag="0"/>
		</comp>
	</station>
	<station code="AKR1" name="AKR1" netid="HI" source="ITSAK Strong Motion Network" insttype="" lat="38.153583" lon="22.31326">
		<comp name="--.HNE" depth="0.0">
			<acc value="0.014145848669148" flag="0"/>
			<vel value="0.0134531124205" flag="0"/>
			<psa03 value="0.0346224003349552" flag="0"/>
			<psa10 value="0.0133884975472422" flag="0"/>
			<psa30 value="0.00271487401374407" flag="0"/>
		</comp>
		<comp name="--.HNN" depth="0.0">
			<acc value="0.010278807280494" flag="0"/>
			<vel value="0.00907911876955" flag="0"/>
			<psa03 value="0.0403095869789535" flag="0"/>
			<psa10 value="0.0147144513227047" flag="0"/>
			<psa30 value="0.00152012007549599" flag="0"/>
		</comp>
		<comp name="--.HNZ" depth="0.0">
			<acc value="0.006396465110673" flag="0"/>
			<vel value="0.00672840421979" flag="0"/>
			<psa03 value="0.0165127006561928" flag="0"/>
			<psa10 value="0.0132259402161114" flag="0"/>
			<psa30 value="0.00170318095237961" flag="0"/>
		</comp>
	</station>
	<station code="ATH5" name="ATH5" netid="HI" source="ITSAK Strong Motion Network" insttype="" lat="37.975421" lon="23.737098">
		<comp name="--.HNE" depth="0.0">
			<acc value="0.055737354536232" flag="0"/>
			<vel value="0.0409555754003" flag="0"/>
			<psa03 value="0.129392832056617" flag="0"/>
			<psa10 value="0.0407304281911405" flag="0"/>
			<psa30 value="0.00476612364897877" flag="0"/>
		</comp>
		<comp name="--.HNN" depth="0.0">
			<acc value="0.059595049939776" flag="0"/>
			<vel value="0.0405016665199" flag="0"/>
			<psa03 value="0.181191253031468" flag="0"/>
			<psa10 value="0.0680604836730556" flag="0"/>
			<psa30 value="0.00330989968127612" flag="0"/>
		</comp>
		<comp name="--.HNZ" depth="0.0">
			<acc value="0.0385894010271" flag="0"/>
			<vel value="0.0212647550926" flag="0"/>
			<psa03 value="0.0921081017095325" flag="0"/>
			<psa10 value="0.0547323895020069" flag="0"/>
			<psa30 value="0.00291398741236485" flag="0"/>
		</comp>
	</station>
	<station code="FRS1" name="FRS1" netid="HI" source="ITSAK Strong Motion Network" insttype="" lat="39.2934" lon="22.3844">
		<comp name="--.HNE" depth="0.0">
			<acc value="0.0063322482206976" flag="0"/>
			<vel value="0.00357802248277" flag="0"/>
			<psa03 value="0.0255095466531204" flag="0"/>
			<psa10 value="0.00275312206832687" flag="0"/>
			<psa30 value="0.000639972759636005" flag="0"/>
		</comp>
		<comp name="--.HNN" depth="0.0">
			<acc value="0.0088606962245274" flag="0"/>
			<vel value="0.00475487186392" flag="0"/>
			<psa03 value="0.0265529074372829" flag="0"/>
			<psa10 value="0.0032509987220863" flag="0"/>
			<psa30 value="0.0017280514540965" flag="0"/>
		</comp>
		<comp name="--.HNZ" depth="0.0">
			<acc value="0.0061767139598892" flag="0"/>
			<vel value="0.00331030559276" flag="0"/>
			<psa03 value="0.0133659205828884" flag="0"/>
			<psa10 value="0.00378116853073234" flag="0"/>
			<psa30 value="0.00102219281942435" flag="0"/>
		</comp>
	</station>
	<station code="KIF1" name="KIF1" netid="HI" source="ITSAK Strong Motion Network" insttype="" lat="38.077273" lon="23.814551">
		<comp name="--.HNE" depth="0.0">
			<acc value="0.097873450366998" flag="0"/>
			<vel value="0.0520287516371" flag="0"/>
			<psa03 value="0.311221741913112" flag="0"/>
			<psa10 value="0.101809636888892" flag="0"/>
			<psa30 value="0.0072313373739307" flag="0"/>
		</comp>
		<comp name="--.HNN" depth="0.0">
			<acc value="0.087478536744156" flag="0"/>
			<vel value="0.0578294289553" flag="0"/>
			<psa03 value="0.418901541837739" flag="0"/>
			<psa10 value="0.0599189868389651" flag="0"/>
			<psa30 value="0.00463890730485702" flag="0"/>
		</comp>
		<comp name="--.HNZ" depth="0.0">
			<acc value="0.06870645209061" flag="0"/>
			<vel value="0.0242049251065" flag="0"/>
			<psa03 value="0.119612163302205" flag="0"/>
			<psa10 value="0.0521798766607501" flag="0"/>
			<psa30 value="0.003007128582511" flag="0"/>
		</comp>
	</station>
	<station code="KMV1" name="KMV1" netid="HI" source="ITSAK Strong Motion Network" insttype="" lat="38.7794" lon="22.7846">
		<comp name="--.HNE" depth="0.0">
			<acc value="0.03748798400592" flag="0"/>
			<vel value="0.0205702709586" flag="0"/>
			<psa03 value="0.0907264893513954" flag="0"/>
			<psa10 value="0.0311873810109379" flag="0"/>
			<psa30 value="0.00196666194836847" flag="0"/>
		</comp>
		<comp name="--.HNN" depth="0.0">
			<acc value="0.048969805131684" flag="0"/>
			<vel value="0.025712419249" flag="0"/>
			<psa03 value="0.120855599840538" flag="0"/>
			<psa10 value="0.030066921160958" flag="0"/>
			<psa30 value="0.00300630706975462" flag="0"/>
		</comp>
		<comp name="--.HNZ" depth="0.0">
			<acc value="0.033283026340314" flag="0"/>
			<vel value="0.0149789941106" flag="0"/>
			<psa03 value="0.0743267675333904" flag="0"/>
			<psa10 value="0.0198654166113604" flag="0"/>
			<psa30 value="0.00144398774043415" flag="0"/>
		</comp>
	</station>
	<station code="KOR2" name="KOR2" netid="HI" source="ITSAK Strong Motion Network" insttype="" lat="37.9401" lon="22.9495">
		<comp name="--.HNE" depth="0.0">
			<acc value="0.07505402296359" flag="0"/>
			<vel value="0.0694650763153" flag="0"/>
			<psa03 value="0.191418868060753" flag="0"/>
			<psa10 value="0.108815198472689" flag="0"/>
			<psa30 value="0.00764666155379039" flag="0"/>
		</comp>
		<comp name="--.HNN" depth="0.0">
			<acc value="0.064717520501934" flag="0"/>
			<vel value="0.0668799687457" flag="0"/>
			<psa03 value="0.217262309228547" flag="0"/>
			<psa10 value="0.0860874553713292" flag="0"/>
			<psa30 value="0.0135628676400965" flag="0"/>
		</comp>
		<comp name="--.HNZ" depth="0.0">
			<acc value="0.043223191414038" flag="0"/>
			<vel value="0.0331029257228" flag="0"/>
			<psa03 value="0.127705918223468" flag="0"/>
			<psa10 value="0.0670250100781404" flag="0"/>
			<psa30 value="0.0026122738836566" flag="0"/>
		</comp>
	</station>
	<station code="LAR4" name="LAR4" netid="HI" source="ITSAK Strong Motion Network" insttype="" lat="39.6422" lon="22.4219">
		<comp name="--.HNE" depth="0.0">
			<acc value="0.017552004653592" flag="0"/>
			<vel value="0.0193349619653" flag="0"/>
			<psa03 value="0.0721141626258188" flag="0"/>
			<psa10 value="0.0221019110181182" flag="0"/>
			<psa30 value="0.00712394609315231" flag="0"/>
		</comp>
		<comp name="--.HNN" depth="0.0">
			<acc value="0.016563807001644" flag="0"/>
			<vel value="0.0154539472689" flag="0"/>
			<psa03 value="0.046429731991928" flag="0"/>
			<psa10 value="0.0166724757197104" flag="0"/>
			<psa30 value="0.00827441563942488" flag="0"/>
		</comp>
		<comp name="--.HNZ" depth="0.0">
			<acc value="0.011505773102976" flag="0"/>
			<vel value="0.00616661817774" flag="0"/>
			<psa03 value="0.0338825596574432" flag="0"/>
			<psa10 value="0.00905878134979694" flag="0"/>
			<psa30 value="0.00230769370671456" flag="0"/>
		</comp>
	</station>
	<station code="MYT1" name="MYT1" netid="HI" source="ITSAK Strong Motion Network" insttype="" lat="39.085" lon="26.5694">
		<comp name="--.HNE" depth="0.0">
			<acc value="0.008743031371272" flag="0"/>
			<vel value="0.00738689796082" flag="0"/>
			<psa03 value="0.0229978177633809" flag="0"/>
			<psa10 value="0.0181216129679422" flag="0"/>
			<psa30 value="0.0011555125887054" flag="0"/>
		</comp>
		<comp name="--.HNN" depth="0.0">
			<acc value="0.011677101927186" flag="0"/>
			<vel value="0.0122716206134" flag="0"/>
			<psa03 value="0.0221954781539816" flag="0"/>
			<psa10 value="0.019796820817235" flag="0"/>
			<psa30 value="0.00246870874817153" flag="0"/>
		</comp>
		<comp name="--.HNZ" depth="0.0">
			<acc value="0.010870337420592" flag="0"/>
			<vel value="0.0124553060173" flag="0"/>
			<psa03 value="0.0172292064545407" flag="0"/>
			<psa10 value="0.0275880932007776" flag="0"/>
			<psa30 value="0.00171033746813134" flag="0"/>
		</comp>
	</station>
	<station code="NMA1" name="NMA1" netid="HI" source="ITSAK Strong Motion Network" insttype="" lat="37.81873" lon="22.662702">
		<comp name="--.HNE" depth="0.0">
			<acc value="0.024327580106844" flag="0"/>
			<vel value="0.0168900573181" flag="0"/>
			<psa03 value="0.0596761824207389" flag="0"/>
			<psa10 value="0.0332569743613225" flag="0"/>
			<psa30 value="0.00391098200003069" flag="0"/>
		</comp>
		<comp name="--.HNN" depth="0.0">
			<acc value="0.023306920920726" flag="0"/>
			<vel value="0.0156066207546" flag="0"/>
			<psa03 value="0.0570120996885483" flag="0"/>
			<psa10 value="0.0243708675753909" flag="0"/>
			<psa30 value="0.00380232063508298" flag="0"/>
		</comp>
		<comp name="--.HNZ" depth="0.0">
			<acc value="0.012287851445232" flag="0"/>
			<vel value="0.010789659969" flag="0"/>
			<psa03 value="0.0331775285776179" flag="0"/>
			<psa10 value="0.0167252023375587" flag="0"/>
			<psa30 value="0.00186492562550526" flag="0"/>
		</comp>
	</station>
	<station code="PAT5" name="PAT5" netid="HI" source="ITSAK Strong Motion Network" insttype="" lat="38.29595" lon="21.795083">
		<comp name="--.HNE" depth="0.0">
			<acc value="0.0046205069704818" flag="0"/>
			<vel value="0.00461534253318" flag="0"/>
			<psa03 value="0.00687111077631508" flag="0"/>
			<psa10 value="0.00510288616617893" flag="0"/>
			<psa30 value="0.0019546257343607" flag="0"/>
		</comp>
		<comp name="--.HNN" depth="0.0">
			<acc value="0.006501083208066" flag="0"/>
			<vel value="0.00761142687182" flag="0"/>
			<psa03 value="0.0113179567903326" flag="0"/>
			<psa10 value="0.00489572338016555" flag="0"/>
			<psa30 value="0.00235574543157412" flag="0"/>
		</comp>
		<comp name="--.HNZ" depth="0.0">
			<acc value="0.0076862721727332" flag="0"/>
			<vel value="0.00416675011411" flag="0"/>
			<psa03 value="0.00877039805312487" flag="0"/>
			<psa10 value="0.00566420085050991" flag="0"/>
			<psa30 value="0.00131298427042915" flag="0"/>
		</comp>
	</station>
	<station code="PER1" name="PER1" netid="HI" source="ITSAK Strong Motion Network" insttype="" lat="38.0119" lon="23.7027">
		<comp name="--.HNE" depth="0.0">
			<acc value="0.055842190764144" flag="0"/>
			<vel value="0.0399557418151" flag="0"/>
			<psa03 value="0.173417758908894" flag="0"/>
			<psa10 value="0.0931173335664904" flag="0"/>
			<psa30 value="0.00656727754992217" flag="0"/>
		</comp>
		<comp name="--.HNN" depth="0.0">
			<acc value="0.074740902313092" flag="0"/>
			<vel value="0.0608091228566" flag="0"/>
			<psa03 value="0.179717155379715" flag="0"/>
			<psa10 value="0.0962263870258498" flag="0"/>
			<psa30 value="0.00425406264410567" flag="0"/>
		</comp>
		<comp name="--.HNZ" depth="0.0">
			<acc value="0.035648382035958" flag="0"/>
			<vel value="0.0211589167653" flag="0"/>
			<psa03 value="0.0659795791566852" flag="0"/>
			<psa10 value="0.0523334418337482" flag="0"/>
			<psa30 value="0.00327868636354554" flag="0"/>
		</comp>
	</station>
	<station code="PIR1" name="PIR1" netid="HI" source="ITSAK Strong Motion Network" insttype="" lat="37.93723" lon="23.642595">
		<comp name="--.HNE" depth="0.0">
			<acc value="0.13030813342878" flag="0"/>
			<vel value="0.0726721903499" flag="0"/>
			<psa03 value="0.383372396539916" flag="0"/>
			<psa10 value="0.0756755806359931" flag="0"/>
			<psa30 value="0.00694046143818132" flag="0"/>
		</comp>
		<comp name="--.HNN" depth="0.0">
			<acc value="0.10525365976428" flag="0"/>
			<vel value="0.0745003694727" flag="0"/>
			<psa03 value="0.303970449050247" flag="0"/>
			<psa10 value="0.0741774988954342" flag="0"/>
			<psa30 value="0.00531988824980229" flag="0"/>
		</comp>
		<comp name="--.HNZ" depth="0.0">
			<acc value="0.070502394135" flag="0"/>
			<vel value="0.0363058257109" flag="0"/>
			<psa03 value="0.134539610505773" flag="0"/>
			<psa10 value="0.0474268567964977" flag="0"/>
			<psa30 value="0.00261316102575814" flag="0"/>
		</comp>
	</station>
	<station code="PIR2" name="PIR2" netid="HI" source="ITSAK Strong Motion Network" insttype="" lat="37.9458" lon="23.6709">
		<comp name="--.HNE" depth="0.0">
			<acc value="0.23662546664934" flag="0"/>
			<vel value="0.173696689685" flag="0"/>
			<psa03 value="0.483573742718957" flag="0"/>
			<psa10 value="0.123116463361523" flag="0"/>
			<psa30 value="0.0122059427504677" flag="0"/>
		</comp>
		<comp name="--.HNN" depth="0.0">
			<acc value="0.50796104031636" flag="0"/>
			<vel value="0.290099295214" flag="0"/>
			<psa03 value="1.114530832197" flag="0"/>
			<psa10 value="0.260765964465466" flag="0"/>
			<psa30 value="0.00951814469702487" flag="0"/>
		</comp>
		<comp name="--.HNZ" depth="0.0">
			<acc value="0.20414413653456" flag="0"/>
			<vel value="0.0774048619527" flag="0"/>
			<psa03 value="0.357840955206914" flag="0"/>
			<psa10 value="0.0469582632544681" flag="0"/>
			<psa30 value="0.00390094841868589" flag="0"/>
		</comp>
	</station>
	<station code="PIR3" name="PIR3" netid="HI" source="ITSAK Strong Motion Network" insttype="" lat="37.9573" lon="23.6519">
		<comp name="--.HNE" depth="0.0">
			<acc value="0.090405402664302" flag="0"/>
			<vel value="0.0599105528692" flag="0"/>
			<psa03 value="0.264390639582339" flag="0"/>
			<psa10 value="0.0379428460273303" flag="0"/>
			<psa30 value="0.00281193231838443" flag="0"/>
		</comp>
		<comp name="--.HNN" depth="0.0">
			<acc value="0.098471180702148" flag="0"/>
			<vel value="0.0558648689678" flag="0"/>
			<psa03 value="0.255088960891769" flag="0"/>
			<psa10 value="0.0464537685841922" flag="0"/>
			<psa30 value="0.0054553938930598" flag="0"/>
		</comp>
		<comp name="--.HNZ" depth="0.0">
			<acc value="0.04643771787831" flag="0"/>
			<vel value="0.0208294563623" flag="0"/>
			<psa03 value="0.109751072553072" flag="0"/>
			<psa10 value="0.0290668817882804" flag="0"/>
			<psa30 value="0.0021905940744385" flag="0"/>
		</comp>
	</station>
	<station code="PLA1" name="PLA1" netid="HI" source="ITSAK Strong Motion Network" insttype="" lat="40.555907" lon="22.988593">
		<comp name="--.HNE" depth="0.0">
			<acc value="0.0041784975259278" flag="0"/>
			<vel value="0.00587659704555" flag="0"/>
			<psa03 value="0.0109024566092628" flag="0"/>
			<psa10 value="0.00904621145460092" flag="0"/>
			<psa30 value="0.00306914685758388" flag="0"/>
		</comp>
		<comp name="--.HNN" depth="0.0">
			<acc value="0.0032059770780582" flag="0"/>
			<vel value="0.00447152102664" flag="0"/>
			<psa03 value="0.00640232972188986" flag="0"/>
			<psa10 value="0.00686417346779224" flag="0"/>
			<psa30 value="0.0022979957726075" flag="0"/>
		</comp>
		<comp name="--.HNZ" depth="0.0">
			<acc value="0.0028522830229368" flag="0"/>
			<vel value="0.0022753748301" flag="0"/>
			<psa03 value="0.00607637062869651" flag="0"/>
			<psa10 value="0.00450532017409531" flag="0"/>
			<psa30 value="0.000867088690368951" flag="0"/>
		</comp>
	</station>
	<station code="PLM1" name="PLM1" netid="HI" source="ITSAK Strong Motion Network" insttype="" lat="38.9751" lon="26.3688">
		<comp name="--.HNE" depth="0.0">
			<acc value="0.013164579855372" flag="0"/>
			<vel value="0.00850170983675" flag="0"/>
			<psa03 value="0.034175112891853" flag="0"/>
			<psa10 value="0.00931757568116283" flag="0"/>
			<psa30 value="0.000888953367965627" flag="0"/>
		</comp>
		<comp name="--.HNN" depth="0.0">
			<acc value="0.011146689093954" flag="0"/>
			<vel value="0.00662540702034" flag="0"/>
			<psa03 value="0.0208762084671859" flag="0"/>
			<psa10 value="0.0101599152320168" flag="0"/>
			<psa30 value="0.000905854279232431" flag="0"/>
		</comp>
		<comp name="--.HNZ" depth="0.0">
			<acc value="0.0053219089570914" flag="0"/>
			<vel value="0.00482766809152" flag="0"/>
			<psa03 value="0.016312301964095" flag="0"/>
			<psa10 value="0.00746738874034953" flag="0"/>
			<psa30 value="0.000774740072726896" flag="0"/>
		</comp>
	</station>
	<station code="SEIS" name="SEIS" netid="HI" source="ITSAK Strong Motion Network" insttype="" lat="40.631849" lon="22.962768">
		<comp name="--.HNE" depth="0.0">
			<acc value="0.0013247306761776" flag="0"/>
			<vel value="0.000995092145828" flag="0"/>
			<psa03 value="0.00309383711298138" flag="0"/>
			<psa10 value="0.00140034792242747" flag="0"/>
			<psa30 value="0.000343380559776676" flag="0"/>
		</comp>
		<comp name="--.HNN" depth="0.0">
			<acc value="0.0014576471873592" flag="0"/>
			<vel value="0.00140907371505" flag="0"/>
			<psa03 value="0.00273132742141097" flag="0"/>
			<psa10 value="0.00207931610386303" flag="0"/>
			<psa30 value="0.000420689691544157" flag="0"/>
		</comp>
		<comp name="--.HNZ" depth="0.0">
			<acc value="0.0014586964283826" flag="0"/>
			<vel value="0.000962096548985" flag="0"/>
			<psa03 value="0.00300394541591221" flag="0"/>
			<psa10 value="0.00187934699751621" flag="0"/>
			<psa30 value="0.000288021944623662" flag="0"/>
		</comp>
	</station>
	<station code="SKY1" name="SKY1" netid="HI" source="ITSAK Strong Motion Network" insttype="" lat="38.904483" lon="24.564572">
		<comp name="--.HNE" depth="0.0">
			<acc value="0.81998953973736" flag="0"/>
			<vel value="0.224184534888" flag="0"/>
			<psa03 value="1.24468128736174" flag="0"/>
			<psa10 value="0.148227774362624" flag="0"/>
			<psa30 value="0.0125364146426194" flag="0"/>
		</comp>
		<comp name="--.HNN" depth="0.0">
			<acc value="0.76102751375076" flag="0"/>
			<vel value="0.363648373616" flag="0"/>
			<psa03 value="2.17512092442069" flag="0"/>
			<psa10 value="0.129792108090084" flag="0"/>
			<psa30 value="0.0137337464599602" flag="0"/>
		</comp>
		<comp name="--.HNZ" depth="0.0">
			<acc value="0.99479439633618" flag="0"/>
			<vel value="0.229470066501" flag="0"/>
			<psa03 value="0.916530715662335" flag="0"/>
			<psa10 value="0.161789077732225" flag="0"/>
			<psa30 value="0.0111106301913828" flag="0"/>
		</comp>
	</station>
	<station code="STL1" name="STL1" netid="HI" source="ITSAK Strong Motion Network" insttype="" lat="40.662419" lon="22.935323">
		<comp name="--.HNE" depth="0.0">
			<acc value="0.015647969516394" flag="0"/>
			<vel value="0.00230451432898" flag="0"/>
			<psa03 value="0.0147979972217816" flag="0"/>
			<psa10 value="0.00218826199286896" flag="0"/>
			<psa30 value="0.000505021267681071" flag="0"/>
		</comp>
		<comp name="--.HNN" depth="0.0">
			<acc value="0.0071162934471096" flag="0"/>
			<vel value="0.00257247681661" flag="0"/>
			<psa03 value="0.0134296448563893" flag="0"/>
			<psa10 value="0.0032955765188946" flag="0"/>
			<psa30 value="0.000602877229325176" flag="0"/>
		</comp>
		<comp name="--.HNZ" depth="0.0">
			<acc value="0.017279193394416" flag="0"/>
			<vel value="0.00210615410637" flag="0"/>
			<psa03 value="0.00535302518456859" flag="0"/>
			<psa10 value="0.00136248201556109" flag="0"/>
			<psa30 value="0.000341576039194392" flag="0"/>
		</comp>
	</station>
	<station code="THV2" name="THV2" netid="HI" source="ITSAK Strong Motion Network" insttype="" lat="38.316117" lon="23.319807">
		<comp name="--.HNE" depth="0.0">
			<acc value="0.10755006139728" flag="0"/>
			<vel value="0.0853713630721" flag="0"/>
			<psa03 value="0.2643828682342" flag="0"/>
			<psa10 value="0.148100850954632" flag="0"/>
			<psa30 value="0.010843509995966" flag="0"/>
		</comp>
		<comp name="--.HNN" depth="0.0">
			<acc value="0.096330263734782" flag="0"/>
