<?xml version="1.0" encoding="UTF-8" standalone="yes"?>
<!DOCTYPE earthquake SYSTEM "stationlist.dtd">
<stationlist created="" xmlns="ch.ethz.sed.shakemap.usgs.xml">
  <station code="ALIO" name="ALIO" netid="HA" insttype="25" commtype="DIG" lat="38.0657" lon="23.6727">
    <comp name="--.HHE">
      <acc value="0.0334464550" flag="0"/>
      <vel value="0.0186018325" flag="0"/>
      <psa03 value="0.1314883325" flag="0"/>
      <psa10 value="0.0213447421" flag="0"/>
      <psa30 value="0.0018505587" flag="0"/>
    </comp>
    <comp name="--.HHZ">
      <acc value="0.0286336527" flag="0"/>
      <vel value="0.0138030053" flag="0"/>
      <psa03 value="0.0973137832" flag="0"/>
      <psa10 value="0.0169649591" flag="0"/>
      <psa30 value="0.0010718430" flag="0"/>
    </comp>
    <comp name="--.HHN">
      <acc value="0.0278494058" flag="0"/>
      <vel value="0.0115930873" flag="0"/>
      <psa03 value="0.0828983358" flag="0"/>
      <psa10 value="0.0199621035" flag="0"/>
      <psa30 value="0.0012521114" flag="0"/>
    </comp>
  </station>
  <station code="AMPE" name="AMPE" netid="HA" insttype="1s-100Hz," commtype="DIG" lat="38.3015" lon="23.2688">
    <comp name="--.HHE">
      <acc value="0.1043310180" flag="0"/>
      <vel value="0.0893454715" flag="0"/>
      <psa03 value="0.2289260004" flag="0"/>
      <psa10 value="0.1470789232" flag="0"/>
      <psa30 value="0.0155219636" flag="0"/>
    </comp>
    <comp name="--.HHN">
      <acc value="0.1029226156" flag="0"/>
      <vel value="0.0945302812" flag="0"/>
      <psa03 value="0.1656253747" flag="0"/>
      <psa10 value="0.1465852386" flag="0"/>
      <psa30 value="0.0129902238" flag="0"/>
    </comp>
    <comp name="--.HHZ">
      <acc value="0.0612902324" flag="0"/>
      <vel value="0.0444967553" flag="0"/>
      <psa03 value="0.1597449865" flag="0"/>
      <psa10 value="0.0572100691" flag="0"/>
      <psa30 value="0.0055854405" flag="0"/>
    </comp>
  </station>
  <station code="ATAL" name="ATAL" netid="HA" insttype="120s," commtype="DIG" lat="38.6926" lon="23.0213">
    <comp name="--.HHE">
      <acc value="0.0151941076" flag="0"/>
      <vel value="0.0073449324" flag="0"/>
      <psa03 value="0.0250940046" flag="0"/>
      <psa10 value="0.0120378174" flag="0"/>
      <psa30 value="0.0010962601" flag="0"/>
    </comp>
    <comp name="--.HHN">
      <acc value="0.0241470230" flag="0"/>
      <vel value="0.0128778559" flag="0"/>
      <psa03 value="0.0448181174" flag="0"/>
      <psa10 value="0.0271721038" flag="0"/>
      <psa30 value="0.0026932843" flag="0"/>
    </comp>
    <comp name="--.HHZ">
      <acc value="0.0101083315" flag="0"/>
      <vel value="0.0023998073" flag="0"/>
      <psa03 value="0.0118331140" flag="0"/>
      <psa10 value="0.0025563613" flag="0"/>
      <psa30 value="0.0002888649" flag="0"/>
    </comp>
  </station>
  <station code="ATHU" name="ATHU" netid="HA" insttype="60s," commtype="DIG" lat="37.9665" lon="23.7845">
    <comp name="--.HHE">
      <acc value="0.0376647373" flag="0"/>
      <vel value="0.0178389829" flag="0"/>
      <psa03 value="0.0710427213" flag="0"/>
      <psa10 value="0.0214256538" flag="0"/>
      <psa30 value="0.0023840497" flag="0"/>
    </comp>
    <comp name="--.HHN">
      <acc value="0.0328894755" flag="0"/>
      <vel value="0.0146962039" flag="0"/>
      <psa03 value="0.0695746747" flag="0"/>
      <psa10 value="0.0213553098" flag="0"/>
      <psa30 value="0.0012371925" flag="0"/>
    </comp>
    <comp name="--.HHZ">
      <acc value="0.0216695002" flag="0"/>
      <vel value="0.0137612994" flag="0"/>
      <psa03 value="0.0563799765" flag="0"/>
      <psa10 value="0.0195810748" flag="0"/>
      <psa30 value="0.0023059899" flag="0"/>
    </comp>
  </station>
  <station code="AXAR" name="AXAR" netid="HA" insttype="Horizon,120s,1200" commtype="DIG" lat="38.7664" lon="22.659">
    <comp name="--.HHE">
      <acc value="0.0289002397" flag="0"/>
      <vel value="0.0159012381" flag="0"/>
      <psa03 value="0.1030230661" flag="0"/>
      <psa10 value="0.0278893938" flag="0"/>
      <psa30 value="0.0051348253" flag="0"/>
    </comp>
    <comp name="--.HHZ">
      <acc value="0.0268215671" flag="0"/>
      <vel value="0.0142818427" flag="0"/>
      <psa03 value="0.0459209634" flag="0"/>
      <psa10 value="0.0177438897" flag="0"/>
      <psa30 value="0.0014055330" flag="0"/>
    </comp>
    <comp name="--.HHN">
      <acc value="0.0387260476" flag="0"/>
      <vel value="0.0187133181" flag="0"/>
      <psa03 value="0.0992557895" flag="0"/>
      <psa10 value="0.0220649774" flag="0"/>
      <psa30 value="0.0030461370" flag="0"/>
    </comp>
  </station>
  <station code="DOMV" name="DOMV" netid="HA" insttype="60" commtype="DIG" lat="38.2569" lon="22.9795">
    <comp name="--.HHN">
      <acc value="0.1304836742" flag="0"/>
      <vel value="0.0528091980" flag="0"/>
      <psa03 value="0.4152381782" flag="0"/>
      <psa10 value="0.0262886583" flag="0"/>
      <psa30 value="0.0042804980" flag="0"/>
    </comp>
    <comp name="--.HHE">
      <acc value="0.1219616621" flag="0"/>
      <vel value="0.0608795367" flag="0"/>
      <psa03 value="0.3054505974" flag="0"/>
      <psa10 value="0.0493168234" flag="0"/>
      <psa30 value="0.0036041473" flag="0"/>
    </comp>
    <comp name="--.HHZ">
      <acc value="0.0781283411" flag="0"/>
      <vel value="0.0309288347" flag="0"/>
      <psa03 value="0.2199995941" flag="0"/>
      <psa10 value="0.0273396196" flag="0"/>
      <psa30 value="0.0021649840" flag="0"/>
    </comp>
  </station>
  <station code="ERTR" name="ERTR" netid="HA" insttype="Horizon,120s,1200" commtype="DIG" lat="38.4066" lon="23.7865">
    <comp name="--.HHE">
      <acc value="0.1314338622" flag="0"/>
      <vel value="0.0757881619" flag="0"/>
      <psa03 value="0.3220114022" flag="0"/>
      <psa10 value="0.0902301312" flag="0"/>
      <psa30 value="0.0045486627" flag="0"/>
    </comp>
    <comp name="--.HHZ">
      <acc value="0.0968924398" flag="0"/>
      <vel value="0.0601375210" flag="0"/>
      <psa03 value="0.2501787462" flag="0"/>
      <psa10 value="0.0358410649" flag="0"/>
      <psa30 value="0.0023383789" flag="0"/>
    </comp>
    <comp name="--.HHN">
      <acc value="0.1227830179" flag="0"/>
      <vel value="0.0593889232" flag="0"/>
      <psa03 value="0.4632754814" flag="0"/>
      <psa10 value="0.0385087033" flag="0"/>
      <psa30 value="0.0041891295" flag="0"/>
    </comp>
  </station>
  <station code="KARY" name="KARY" netid="HA" insttype="60" commtype="DIG" lat="38.0321" lon="24.437">
    <comp name="--.HHN">
      <acc value="0.0769195153" flag="0"/>
      <vel value="0.0262868496" flag="0"/>
      <psa03 value="0.1700121690" flag="0"/>
      <psa10 value="0.0238359508" flag="0"/>
      <psa30 value="0.0020340726" flag="0"/>
    </comp>
    <comp name="--.HHE">
      <acc value="0.0926997918" flag="0"/>
      <vel value="0.0344370612" flag="0"/>
      <psa03 value="0.1243316143" flag="0"/>
      <psa10 value="0.0254869555" flag="0"/>
      <psa30 value="0.0031877682" flag="0"/>
    </comp>
    <comp name="--.HHZ">
      <acc value="0.0722246611" flag="0"/>
      <vel value="0.0275844220" flag="0"/>
      <psa03 value="0.1265524327" flag="0"/>
      <psa10 value="0.0170242872" flag="0"/>
      <psa30 value="0.0020311601" flag="0"/>
    </comp>
  </station>
  <station code="MDRA" name="MDRA" netid="HA" insttype="60" commtype="DIG" lat="38.0606" lon="23.4662">
    <comp name="--.HHE">
      <acc value="0.0404131564" flag="0"/>
      <vel value="0.0226957341" flag="0"/>
      <psa03 value="0.1285988432" flag="0"/>
      <psa10 value="0.0341227288" flag="0"/>
      <psa30 value="0.0034174680" flag="0"/>
    </comp>
    <comp name="--.HHN">
      <acc value="0.0877717222" flag="0"/>
      <vel value="0.0550488121" flag="0"/>
      <psa03 value="0.3305030875" flag="0"/>
      <psa10 value="0.0667350675" flag="0"/>
      <psa30 value="0.0059124749" flag="0"/>
    </comp>
    <comp name="--.HHZ">
      <acc value="0.0916323626" flag="0"/>
      <vel value="0.0780728140" flag="0"/>
      <psa03 value="0.2584045903" flag="0"/>
      <psa10 value="0.0547175548" flag="0"/>
      <psa30 value="0.0049243597" flag="0"/>
    </comp>
  </station>
  <station code="MRKA" name="MRKA" netid="HA" insttype="Horizon,120s,1200" commtype="DIG" lat="38.7047" lon="23.5863">
    <comp name="--.HHE">
      <acc value="0.3242336588" flag="0"/>
      <vel value="0.1335105619" flag="0"/>
      <psa03 value="0.3632684457" flag="0"/>
      <psa10 value="0.0714007130" flag="0"/>
      <psa30 value="0.0037137337" flag="0"/>
    </comp>
    <comp name="--.HHN">
      <acc value="0.2481340659" flag="0"/>
      <vel value="0.0856881786" flag="0"/>
      <psa03 value="0.3133233742" flag="0"/>
      <psa10 value="0.0862347875" flag="0"/>
      <psa30 value="0.0058642266" flag="0"/>
    </comp>
    <comp name="--.HHZ">
      <acc value="0.1207286838" flag="0"/>
      <vel value="0.0524965112" flag="0"/>
      <psa03 value="0.2427421331" flag="0"/>
      <psa10 value="0.0482330665" flag="0"/>
      <psa30 value="0.0028376700" flag="0"/>
    </comp>
  </station>
  <station code="MRTH" name="MRTH" netid="HA" insttype="S100," commtype="DIG" lat="38.1225" lon="23.9409">
    <comp name="--.HHE">
      <acc value="0.2580978832" flag="0"/>
      <vel value="0.1295581032" flag="0"/>
      <psa03 value="0.7445925124" flag="0"/>
      <psa10 value="0.0823270892" flag="0"/>
      <psa30 value="0.0044910247" flag="0"/>
    </comp>
    <comp name="--.HHZ">
      <acc value="0.1887625937" flag="0"/>
      <vel value="0.0688078206" flag="0"/>
      <psa03 value="0.4846583082" flag="0"/>
      <psa10 value="0.0303442876" flag="0"/>
      <psa30 value="0.0043691145" flag="0"/>
    </comp>
    <comp name="--.HHN">
      <acc value="0.1673848717" flag="0"/>
      <vel value="0.0820794241" flag="0"/>
      <psa03 value="0.5319779680" flag="0"/>
      <psa10 value="0.0684383027" flag="0"/>
      <psa30 value="0.0048136376" flag="0"/>
    </comp>
  </station>
  <station code="PRDM" name="PRDM" netid="HA" insttype="25" commtype="DIG" lat="38.2804" lon="22.847">
    <comp name="--.HHN">
      <acc value="0.0159128743" flag="0"/>
      <vel value="0.0076626149" flag="0"/>
      <psa03 value="0.0330029163" flag="0"/>
      <psa10 value="0.0104917594" flag="0"/>
      <psa30 value="0.0016904487" flag="0"/>
    </comp>
    <comp name="--.HHE">
      <acc value="0.0136113740" flag="0"/>
      <vel value="0.0088515708" flag="0"/>
      <psa03 value="0.0248667932" flag="0"/>
      <psa10 value="0.0159083689" flag="0"/>
      <psa30 value="0.0023603265" flag="0"/>
    </comp>
    <comp name="--.HHZ">
      <acc value="0.0108742082" flag="0"/>
      <vel value="0.0056368843" flag="0"/>
      <psa03 value="0.0219604490" flag="0"/>
      <psa10 value="0.0089598655" flag="0"/>
      <psa30 value="0.0009126770" flag="0"/>
    </comp>
  </station>
  <station code="PSAH" name="PSAH" netid="HA" insttype="25" commtype="DIG" lat="38.5694" lon="23.6473">
    <comp name="--.HHE">
      <acc value="0.0724274115" flag="0"/>
      <vel value="0.0357479950" flag="0"/>
      <psa03 value="0.1224310988" flag="0"/>
      <psa10 value="0.0311463241" flag="0"/>
      <psa30 value="0.0020365085" flag="0"/>
    </comp>
    <comp name="--.HHN">
      <acc value="0.0643406519" flag="0"/>
      <vel value="0.0261262464" flag="0"/>
      <psa03 value="0.1212692319" flag="0"/>
      <psa10 value="0.0300415616" flag="0"/>
      <psa30 value="0.0023113095" flag="0"/>
    </comp>
    <comp name="--.HHZ">
      <acc value="0.1108747170" flag="0"/>
      <vel value="0.0397991212" flag="0"/>
      <psa03 value="0.2517659913" flag="0"/>
      <psa10 value="0.0338123463" flag="0"/>
      <psa30 value="0.0017148217" flag="0"/>
    </comp>
  </station>
  <station code="THIV" name="THIV" netid="HA" insttype="25" commtype="DIG" lat="38.299" lon="23.332">
    <comp name="--.HHZ">
      <acc value="0.0352118555" flag="0"/>
      <vel value="0.0194301859" flag="0"/>
      <psa03 value="0.0959544245" flag="0"/>
      <psa10 value="0.0227165252" flag="0"/>
      <psa30 value="0.0026578033" flag="0"/>
    </comp>
    <comp name="--.HHN">
      <acc value="0.0388350660" flag="0"/>
      <vel value="0.0271680262" flag="0"/>
      <psa03 value="0.1050394140" flag="0"/>
      <psa10 value="0.0375671150" flag="0"/>
      <psa30 value="0.0039675716" flag="0"/>
    </comp>
    <comp name="--.HHE">
      <acc value="0.0423277558" flag="0"/>
      <vel value="0.0239907532" flag="0"/>
      <psa03 value="0.0996644926" flag="0"/>
      <psa10 value="0.0567462558" flag="0"/>
      <psa30 value="0.0062682452" flag="0"/>
    </comp>
  </station>
  <station code="VILL" name="VILL" netid="HA" insttype="Horizon,120s,1200" commtype="DIG" lat="38.1642" lon="23.3122">
    <comp name="--.HHE">
      <acc value="0.0568691726" flag="0"/>
      <vel value="0.0579426129" flag="0"/>
      <psa03 value="0.1538291586" flag="0"/>
      <psa10 value="0.2373815382" flag="0"/>
      <psa30 value="0.0064183495" flag="0"/>
    </comp>
    <comp name="--.HHN">
      <acc value="0.0590410426" flag="0"/>
      <vel value="0.0423807116" flag="0"/>
      <psa03 value="0.1314481705" flag="0"/>
      <psa10 value="0.0703971457" flag="0"/>
      <psa30 value="0.0048214588" flag="0"/>
    </comp>
    <comp name="--.HHZ">
      <acc value="0.0375591286" flag="0"/>
      <vel value="0.0268627817" flag="0"/>
      <psa03 value="0.1126369182" flag="0"/>
      <psa10 value="0.0398777536" flag="0"/>
      <psa30 value="0.0017256240" flag="0"/>
    </comp>
  </station>
  <station code="ATH5" name="ATH5" netid="HI" insttype="CMG-5TD,ACCELEROMETER,GURALP" commtype="DIG" lat="37.9754" lon="23.7371">
    <comp name="--.HNE">
      <acc value="0.0558236234" flag="0"/>
      <vel value="0.0408983588" flag="0"/>
      <psa03 value="0.1299843363" flag="0"/>
      <psa10 value="0.0405557150" flag="0"/>
      <psa30 value="0.0042168035" flag="0"/>
    </comp>
    <comp name="--.HNN">
      <acc value="0.0596551828" flag="0"/>
      <vel value="0.0402212375" flag="0"/>
      <psa03 value="0.1827799101" flag="0"/>
      <psa10 value="0.0679267780" flag="0"/>
      <psa30 value="0.0031435691" flag="0"/>
    </comp>
    <comp name="--.HNZ">
      <acc value="0.0392804249" flag="0"/>
      <vel value="0.0209861700" flag="0"/>
      <psa03 value="0.0930437814" flag="0"/>
      <psa10 value="0.0547773593" flag="0"/>
      <psa30 value="0.0027271185" flag="0"/>
    </comp>
  </station>
  <station code="KIF1" name="KIF1" netid="HI" insttype="unknown" commtype="DIG" lat="38.0773" lon="23.8146">
    <comp name="--.HNE">
      <acc value="0.0975336231" flag="0"/>
      <vel value="0.0520139878" flag="0"/>
      <psa03 value="0.3067859118" flag="0"/>
      <psa10 value="0.1015757024" flag="0"/>
      <psa30 value="0.0066950421" flag="0"/>
    </comp>
    <comp name="--.HNN">
      <acc value="0.0874899030" flag="0"/>
      <vel value="0.0582663865" flag="0"/>
      <psa03 value="0.4240611119" flag="0"/>
      <psa10 value="0.0597035369" flag="0"/>
      <psa30 value="0.0043665141" flag="0"/>
    </comp>
    <comp name="--.HNZ">
      <acc value="0.0701150896" flag="0"/>
      <vel value="0.0245625331" flag="0"/>
      <psa03 value="0.1190921872" flag="0"/>
      <psa10 value="0.0522204844" flag="0"/>
      <psa30 value="0.0026534048" flag="0"/>
    </comp>
  </station>
  <station code="KMV1" name="KMV1" netid="HI" insttype="unknown" commtype="DIG" lat="38.7794" lon="22.7846">
    <comp name="--.HNE">
      <acc value="0.0376667952" flag="0"/>
      <vel value="0.0203318530" flag="0"/>
      <psa03 value="0.0908656252" flag="0"/>
      <psa10 value="0.0311215135" flag="0"/>
      <psa30 value="0.0018060177" flag="0"/>
    </comp>
    <comp name="--.HNN">
      <acc value="0.0489773216" flag="0"/>
      <vel value="0.0255162398" flag="0"/>
      <psa03 value="0.1218865534" flag="0"/>
      <psa10 value="0.0298968389" flag="0"/>
      <psa30 value="0.0025955873" flag="0"/>
    </comp>
    <comp name="--.HNZ">
      <acc value="0.0339985414" flag="0"/>
      <vel value="0.0148920745" flag="0"/>
      <psa03 value="0.0753613379" flag="0"/>
      <psa10 value="0.0198016997" flag="0"/>
      <psa30 value="0.0013958029" flag="0"/>
    </comp>
  </station>
  <station code="LMN1" name="LMN1" netid="HI" insttype="CMG-5TD,ACCELEROMETER,GURALP" commtype="DIG" lat="39.875" lon="25.0588">
    <comp name="--.HNE">
      <acc value="0.0558664165" flag="0"/>
      <vel value="0.0403930994" flag="0"/>
      <psa03 value="0.1560836706" flag="0"/>
      <psa10 value="0.0514892476" flag="0"/>
      <psa30 value="0.0051841406" flag="0"/>
    </comp>
    <comp name="--.HNN">
      <acc value="0.0707974838" flag="0"/>
      <vel value="0.0358648572" flag="0"/>
      <psa03 value="0.2225517997" flag="0"/>
      <psa10 value="0.0187153822" flag="0"/>
      <psa30 value="0.0028158893" flag="0"/>
    </comp>
  </station>
  <station code="PER1" name="PER1" netid="HI" insttype="unknown" commtype="DIG" lat="38.0119" lon="23.7027">
    <comp name="--.HNE">
      <acc value="0.0555845988" flag="0"/>
      <vel value="0.0394934268" flag="0"/>
      <psa03 value="0.1732027597" flag="0"/>
      <psa10 value="0.0930941039" flag="0"/>
      <psa30 value="0.0057562593" flag="0"/>
    </comp>
    <comp name="--.HNZ">
      <acc value="0.0364644231" flag="0"/>
      <vel value="0.0211374524" flag="0"/>
      <psa03 value="0.0664898775" flag="0"/>
      <psa10 value="0.0522724285" flag="0"/>
      <psa30 value="0.0030549362" flag="0"/>
    </comp>
    <comp name="--.HNN">
      <acc value="0.0751125504" flag="0"/>
      <vel value="0.0606592350" flag="0"/>
      <psa03 value="0.1804004015" flag="0"/>
      <psa10 value="0.0961389423" flag="0"/>
      <psa30 value="0.0040394618" flag="0"/>
    </comp>
  </station>
  <station code="PIR1" name="PIR1" netid="HI" insttype="unknown" commtype="DIG" lat="37.9372" lon="23.6426">
    <comp name="--.HNE">
      <acc value="0.1310095071" flag="0"/>
      <vel value="0.0720357383" flag="0"/>
      <psa03 value="0.3855410690" flag="0"/>
      <psa10 value="0.0755503433" flag="0"/>
      <psa30 value="0.0062308285" flag="0"/>
    </comp>
    <comp name="--.HNN">
      <acc value="0.1052704073" flag="0"/>
      <vel value="0.0745361166" flag="0"/>
      <psa03 value="0.3036617822" flag="0"/>
      <psa10 value="0.0742335692" flag="0"/>
      <psa30 value="0.0048390157" flag="0"/>
    </comp>
    <comp name="--.HNZ">
      <acc value="0.0707073410" flag="0"/>
      <vel value="0.0363196498" flag="0"/>
      <psa03 value="0.1375938686" flag="0"/>
      <psa10 value="0.0474261366" flag="0"/>
      <psa30 value="0.0024484386" flag="0"/>
    </comp>
  </station>
  <station code="PIR2" name="PIR2" netid="HI" insttype="unknown" commtype="DIG" lat="37.9458" lon="23.6709">
    <comp name="--.HNE">
      <acc value="0.2373257766" flag="0"/>
      <vel value="0.1724996000" flag="0"/>
      <psa03 value="0.4868710234" flag="0"/>
      <psa10 value="0.1229793034" flag="0"/>
      <psa30 value="0.0112938829" flag="0"/>
    </comp>
    <comp name="--.HNN">
      <acc value="0.5098091863" flag="0"/>
      <vel value="0.2890504247" flag="0"/>
      <psa03 value="1.1220130921" flag="0"/>
      <psa10 value="0.2601052868" flag="0"/>
      <psa30 value="0.0098196846" flag="0"/>
    </comp>
    <comp name="--.HNZ">
      <acc value="0.2035062523" flag="0"/>
      <vel value="0.0776723027" flag="0"/>
      <psa03 value="0.3547359467" flag="0"/>
      <psa10 value="0.0468524268" flag="0"/>
      <psa30 value="0.0037680853" flag="0"/>
    </comp>
  </station>
  <station code="SKY1" name="SKY1" netid="HI" insttype="CMG-5TD,ACCELEROMETER,GURALP" commtype="DIG" lat="38.9045" lon="24.5646">
    <comp name="--.HNE">
      <acc value="0.8397563790" flag="0"/>
      <vel value="0.2234900431" flag="0"/>
      <psa03 value="1.2441144422" flag="0"/>
      <psa10 value="0.1476193578" flag="0"/>
