<stationlist created="1763460157">
	<station code="MALA" name="MALA" netid="CL" source="Corinth Riff Laboratory (CRLNET)" insttype="" lat="38.39341" lon="21.87263">
		<comp name="01.HNE" depth="0.0">
			<acc value="0.010957849001952" flag="0"/>
			<vel value="0.0148584991684" flag="0"/>
			<psa03 value="0.0187778494091304" flag="0"/>
			<psa10 value="0.0261759502782493" flag="0"/>
			<psa30 value="0.0024432078921989" flag="0"/>
		</comp>
		<comp name="01.HNN" depth="0.0">
			<acc value="0.007297452844527" flag="0"/>
			<vel value="0.0113310855736" flag="0"/>
			<psa03 value="0.0146427616777826" flag="0"/>
			<psa10 value="0.0218690187151658" flag="0"/>
			<psa30 value="0.0031297583728" flag="0"/>
		</comp>
		<comp name="01.HNZ" depth="0.0">
			<acc value="0.0031698730925742" flag="0"/>
			<vel value="0.006503892597" flag="0"/>
			<psa03 value="0.0081575416991789" flag="0"/>
			<psa10 value="0.00587422788878059" flag="0"/>
			<psa30 value="0.00152863303527169" flag="0"/>
		</comp>
	</station>
	<station code="TRIZ" name="TRIZ" netid="CL" source="Corinth Riff Laboratory (CRLNET)" insttype="" lat="38.36543" lon="22.07272">
		<comp name="00.HNE" depth="0.0">
			<acc value="0.0045323845601124" flag="0"/>
			<vel value="0.00523463416852" flag="0"/>
			<psa03 value="0.0130577764719568" flag="0"/>
			<psa10 value="0.00668126213209229" flag="0"/>
			<psa30 value="0.00164693878911306" flag="0"/>
		</comp>
		<comp name="00.HNN" depth="0.0">
			<acc value="0.0081564993323784" flag="0"/>
			<vel value="0.00770572986769" flag="0"/>
			<psa03 value="0.0356527055667585" flag="0"/>
			<psa10 value="0.0104589769183801" flag="0"/>
			<psa30 value="0.00123471377289614" flag="0"/>
		</comp>
		<comp name="00.HNZ" depth="0.0">
			<acc value="0.0037683061194738" flag="0"/>
			<vel value="0.00493759616546" flag="0"/>
			<psa03 value="0.00773226222443346" flag="0"/>
			<psa10 value="0.0051231782916588" flag="0"/>
			<psa30 value="0.00172647812070023" flag="0"/>
		</comp>
	</station>
	<station code="MMAA" name="MMAA" netid="EG" source="EUROSEISTEST Strong Motion Network" insttype="" lat="40.630855" lon="22.943725">
		<comp name="--.EN1" depth="0.0">
			<acc value="0.0065642416223868" flag="0"/>
			<vel value="0.00512324931767" flag="0"/>
			<psa03 value="0.0131597246317592" flag="0"/>
			<psa10 value="0.00834407212882352" flag="0"/>
			<psa30 value="0.00085004058185082" flag="0"/>
		</comp>
		<comp name="--.EN2" depth="0.0">
			<acc value="0.0084525521556576" flag="0"/>
			<vel value="0.00419028075997" flag="0"/>
			<psa03 value="0.0205910268148923" flag="0"/>
			<psa10 value="0.00783720308248699" flag="0"/>
			<psa30 value="0.00064486136473207" flag="0"/>
		</comp>
		<comp name="--.EN3" depth="0.0">
			<acc value="0.031871779716792" flag="0"/>
			<vel value="0.0048667653558" flag="0"/>
			<psa03 value="0.00932829503708239" flag="0"/>
			<psa10 value="0.00229928223804047" flag="0"/>
			<psa30 value="0.000509144717921659" flag="0"/>
		</comp>
	</station>
	<station code="ATHU" name="ATHU" netid="HA" source="Hellenic Seismological Network, University of Athens, Seismological Laboratory (HA)" insttype="" lat="37.9665" lon="23.7845">
		<comp name="--.HNE" depth="0.0">
			<acc value="0.001832923321878" flag="0"/>
			<vel value="0.000826011333695" flag="0"/>
			<psa03 value="0.00389305932836474" flag="0"/>
			<psa10 value="0.00120756452647522" flag="0"/>
			<psa30 value="7.7125232866164e-05" flag="0"/>
		</comp>
		<comp name="--.HNN" depth="0.0">
			<acc value="0.0012509929047318" flag="0"/>
			<vel value="0.00081522735988" flag="0"/>
			<psa03 value="0.00318860055205502" flag="0"/>
			<psa10 value="0.0011278644811096" flag="0"/>
			<psa30 value="0.000136985545974327" flag="0"/>
		</comp>
		<comp name="--.HNZ" depth="0.0">
			<acc value="0.0021271154257122" flag="0"/>
			<vel value="0.0010617467054" flag="0"/>
			<psa03 value="0.00415427292154883" flag="0"/>
			<psa10 value="0.00122809256604205" flag="0"/>
			<psa30 value="0.000153419069510204" flag="0"/>
		</comp>
	</station>
	<station code="AIG2" name="AIG2" netid="HI" source="ITSAK Strong Motion Network" insttype="" lat="38.2417" lon="22.0726">
		<comp name="--.HNE" depth="0.0">
			<acc value="0.0044330173509318" flag="0"/>
			<vel value="0.00642092444213" flag="0"/>
			<psa03 value="0.0152734948670038" flag="0"/>
			<psa10 value="0.00911883314044674" flag="0"/>
			<psa30 value="0.0019618476711155" flag="0"/>
		</comp>
		<comp name="--.HNN" depth="0.0">
			<acc value="0.0046361959958706" flag="0"/>
			<vel value="0.00675821442418" flag="0"/>
			<psa03 value="0.00932386635830464" flag="0"/>
			<psa10 value="0.00596820817701659" flag="0"/>
			<psa30 value="0.00221203236962029" flag="0"/>
		</comp>
		<comp name="--.HNZ" depth="0.0">
			<acc value="0.0036065015634708" flag="0"/>
			<vel value="0.0042030443038" flag="0"/>
			<psa03 value="0.00761824034813974" flag="0"/>
			<psa10 value="0.00499492167028935" flag="0"/>
			<psa30 value="0.000953008132111329" flag="0"/>
		</comp>
	</station>
	<station code="AKR1" name="AKR1" netid="HI" source="ITSAK Strong Motion Network" insttype="" lat="38.153583" lon="22.31326">
		<comp name="--.HNE" depth="0.0">
			<acc value="0.014145848669148" flag="0"/>
			<vel value="0.0134531124205" flag="0"/>
			<psa03 value="0.0346224003349552" flag="0"/>
			<psa10 value="0.0133884975472422" flag="0"/>
			<psa30 value="0.00271487401374407" flag="0"/>
		</comp>
		<comp name="--.HNN" depth="0.0">
			<acc value="0.010278807280494" flag="0"/>
			<vel value="0.00907911876955" flag="0"/>
			<psa03 value="0.0403095869789535" flag="0"/>
			<psa10 value="0.0147144513227047" flag="0"/>
			<psa30 value="0.00152012007549599" flag="0"/>
		</comp>
		<comp name="--.HNZ" depth="0.0">
			<acc value="0.006396465110673" flag="0"/>
			<vel value="0.00672840421979" flag="0"/>
			<psa03 value="0.0165127006561928" flag="0"/>
			<psa10 value="0.0132259402161114" flag="0"/>
			<psa30 value="0.00170318095237961" flag="0"/>
		</comp>
	</station>
	<station code="ARS1" name="ARS1" netid="HI" source="ITSAK Strong Motion Network" insttype="" lat="37.6349" lon="22.7293">
		<comp name="--.HNE" depth="0.0">
			<acc value="0.015957787624356" flag="0"/>
			<vel value="0.0188599663912" flag="0"/>
			<psa03 value="0.0426786840242111" flag="0"/>
			<psa10 value="0.0278348726737118" flag="0"/>
			<psa30 value="0.00337409205870458" flag="0"/>
		</comp>
		<comp name="--.HNN" depth="0.0">
			<acc value="0.027676781599854" flag="0"/>
			<vel value="0.0291038954805" flag="0"/>
			<psa03 value="0.0865621301497885" flag="0"/>
			<psa10 value="0.0439807760104724" flag="0"/>
			<psa30 value="0.00329569353185738" flag="0"/>
		</comp>
		<comp name="--.HNZ" depth="0.0">
			<acc value="0.011581543682412" flag="0"/>
			<vel value="0.00841173036036" flag="0"/>
			<psa03 value="0.0355930896383278" flag="0"/>
			<psa10 value="0.00999811732618866" flag="0"/>
			<psa30 value="0.00254605033000601" flag="0"/>
		</comp>
	</station>
	<station code="ATH5" name="ATH5" netid="HI" source="ITSAK Strong Motion Network" insttype="" lat="37.975421" lon="23.737098">
		<comp name="--.HNE" depth="0.0">
			<acc value="0.055737354536232" flag="0"/>
			<vel value="0.0409555754003" flag="0"/>
			<psa03 value="0.129392832056617" flag="0"/>
			<psa10 value="0.0407304281911405" flag="0"/>
			<psa30 value="0.00476612364897877" flag="0"/>
		</comp>
		<comp name="--.HNN" depth="0.0">
			<acc value="0.059595049939776" flag="0"/>
			<vel value="0.0405016665199" flag="0"/>
			<psa03 value="0.181191253031468" flag="0"/>
			<psa10 value="0.0680604836730556" flag="0"/>
			<psa30 value="0.00330989968127612" flag="0"/>
		</comp>
		<comp name="--.HNZ" depth="0.0">
			<acc value="0.0385894010271" flag="0"/>
			<vel value="0.0212647550926" flag="0"/>
			<psa03 value="0.0921081017095325" flag="0"/>
			<psa10 value="0.0547323895020069" flag="0"/>
			<psa30 value="0.00291398741236485" flag="0"/>
		</comp>
	</station>
	<station code="FRS1" name="FRS1" netid="HI" source="ITSAK Strong Motion Network" insttype="" lat="39.2934" lon="22.3844">
		<comp name="--.HNE" depth="0.0">
			<acc value="0.0063322482206976" flag="0"/>
			<vel value="0.00357802248277" flag="0"/>
			<psa03 value="0.0255095466531204" flag="0"/>
			<psa10 value="0.00275312206832687" flag="0"/>
			<psa30 value="0.000639972759636005" flag="0"/>
		</comp>
		<comp name="--.HNN" depth="0.0">
			<acc value="0.0088606962245274" flag="0"/>
			<vel value="0.00475487186392" flag="0"/>
			<psa03 value="0.0265529074372829" flag="0"/>
			<psa10 value="0.0032509987220863" flag="0"/>
			<psa30 value="0.0017280514540965" flag="0"/>
		</comp>
		<comp name="--.HNZ" depth="0.0">
			<acc value="0.0061767139598892" flag="0"/>
			<vel value="0.00331030559276" flag="0"/>
			<psa03 value="0.0133659205828884" flag="0"/>
			<psa10 value="0.00378116853073234" flag="0"/>
			<psa30 value="0.00102219281942435" flag="0"/>
		</comp>
	</station>
	<station code="KAR2" name="KAR2" netid="HI" source="ITSAK Strong Motion Network" insttype="" lat="39.365759" lon="21.91933">
		<comp name="--.HNE" depth="0.0">
			<acc value="0.0089358626369412" flag="0"/>
			<vel value="0.00913652185536" flag="0"/>
			<psa03 value="0.0244499373966733" flag="0"/>
			<psa10 value="0.0171709606168515" flag="0"/>
			<psa30 value="0.00433711189570934" flag="0"/>
		</comp>
		<comp name="--.HNN" depth="0.0">
			<acc value="0.011321012376024" flag="0"/>
			<vel value="0.0150798911774" flag="0"/>
			<psa03 value="0.0368540611923495" flag="0"/>
			<psa10 value="0.00844881656763252" flag="0"/>
			<psa30 value="0.008920577611133" flag="0"/>
		</comp>
		<comp name="--.HNZ" depth="0.0">
			<acc value="0.011319882592608" flag="0"/>
			<vel value="0.00409871310642" flag="0"/>
			<psa03 value="0.0139879552792306" flag="0"/>
			<psa10 value="0.00669457082620111" flag="0"/>
			<psa30 value="0.00143465472633247" flag="0"/>
		</comp>
	</station>
	<station code="KIF1" name="KIF1" netid="HI" source="ITSAK Strong Motion Network" insttype="" lat="38.077273" lon="23.814551">
		<comp name="--.HNE" depth="0.0">
			<acc value="0.097873450366998" flag="0"/>
			<vel value="0.0520287516371" flag="0"/>
			<psa03 value="0.311221741913112" flag="0"/>
			<psa10 value="0.101809636888892" flag="0"/>
			<psa30 value="0.0072313373739307" flag="0"/>
		</comp>
		<comp name="--.HNN" depth="0.0">
			<acc value="0.087478536744156" flag="0"/>
			<vel value="0.0578294289553" flag="0"/>
			<psa03 value="0.418901541837739" flag="0"/>
			<psa10 value="0.0599189868389651" flag="0"/>
			<psa30 value="0.00463890730485702" flag="0"/>
		</comp>
		<comp name="--.HNZ" depth="0.0">
			<acc value="0.06870645209061" flag="0"/>
			<vel value="0.0242049251065" flag="0"/>
			<psa03 value="0.119612163302205" flag="0"/>
			<psa10 value="0.0521798766607501" flag="0"/>
			<psa30 value="0.003007128582511" flag="0"/>
		</comp>
	</station>
	<station code="KLR1" name="KLR1" netid="HI" source="ITSAK Strong Motion Network" insttype="" lat="40.58251" lon="22.949554">
		<comp name="--.HNE" depth="0.0">
			<acc value="0.004674717433293" flag="0"/>
			<vel value="0.00442850864457" flag="0"/>
			<psa03 value="0.0114261853141266" flag="0"/>
			<psa10 value="0.00581323994235575" flag="0"/>
			<psa30 value="0.00215650931648985" flag="0"/>
		</comp>
		<comp name="--.HNN" depth="0.0">
			<acc value="0.0043239554062482" flag="0"/>
			<vel value="0.00422431069341" flag="0"/>
			<psa03 value="0.0182286502669633" flag="0"/>
			<psa10 value="0.0087120146282108" flag="0"/>
			<psa30 value="0.00320779270885925" flag="0"/>
		</comp>
		<comp name="--.HNZ" depth="0.0">
			<acc value="0.0039163715824764" flag="0"/>
			<vel value="0.00238590742791" flag="0"/>
			<psa03 value="0.0109165226452087" flag="0"/>
			<psa10 value="0.00319411636015819" flag="0"/>
			<psa30 value="0.000633108346570305" flag="0"/>
		</comp>
	</station>
	<station code="KMV1" name="KMV1" netid="HI" source="ITSAK Strong Motion Network" insttype="" lat="38.7794" lon="22.7846">
		<comp name="--.HNE" depth="0.0">
			<acc value="0.03748798400592" flag="0"/>
			<vel value="0.0205702709586" flag="0"/>
			<psa03 value="0.0907264893513954" flag="0"/>
			<psa10 value="0.0311873810109379" flag="0"/>
			<psa30 value="0.00196666194836847" flag="0"/>
		</comp>
		<comp name="--.HNN" depth="0.0">
			<acc value="0.048969805131684" flag="0"/>
			<vel value="0.025712419249" flag="0"/>
			<psa03 value="0.120855599840538" flag="0"/>
			<psa10 value="0.030066921160958" flag="0"/>
			<psa30 value="0.00300630706975462" flag="0"/>
		</comp>
		<comp name="--.HNZ" depth="0.0">
			<acc value="0.033283026340314" flag="0"/>
			<vel value="0.0149789941106" flag="0"/>
			<psa03 value="0.0743267675333904" flag="0"/>
			<psa10 value="0.0198654166113604" flag="0"/>
			<psa30 value="0.00144398774043415" flag="0"/>
		</comp>
	</station>
	<station code="KOR2" name="KOR2" netid="HI" source="ITSAK Strong Motion Network" insttype="" lat="37.9401" lon="22.9495">
		<comp name="--.HNE" depth="0.0">
			<acc value="0.07505402296359" flag="0"/>
			<vel value="0.0694650763153" flag="0"/>
			<psa03 value="0.191418868060753" flag="0"/>
			<psa10 value="0.108815198472689" flag="0"/>
			<psa30 value="0.00764666155379039" flag="0"/>
		</comp>
		<comp name="--.HNN" depth="0.0">
			<acc value="0.064717520501934" flag="0"/>
			<vel value="0.0668799687457" flag="0"/>
			<psa03 value="0.217262309228547" flag="0"/>
			<psa10 value="0.0860874553713292" flag="0"/>
			<psa30 value="0.0135628676400965" flag="0"/>
		</comp>
		<comp name="--.HNZ" depth="0.0">
			<acc value="0.043223191414038" flag="0"/>
			<vel value="0.0331029257228" flag="0"/>
			<psa03 value="0.127705918223468" flag="0"/>
			<psa10 value="0.0670250100781404" flag="0"/>
			<psa30 value="0.0026122738836566" flag="0"/>
		</comp>
	</station>
	<station code="LAR4" name="LAR4" netid="HI" source="ITSAK Strong Motion Network" insttype="" lat="39.6422" lon="22.4219">
		<comp name="--.HNE" depth="0.0">
			<acc value="0.017552004653592" flag="0"/>
			<vel value="0.0193349619653" flag="0"/>
			<psa03 value="0.0721141626258188" flag="0"/>
			<psa10 value="0.0221019110181182" flag="0"/>
			<psa30 value="0.00712394609315231" flag="0"/>
		</comp>
		<comp name="--.HNN" depth="0.0">
			<acc value="0.016563807001644" flag="0"/>
			<vel value="0.0154539472689" flag="0"/>
			<psa03 value="0.046429731991928" flag="0"/>
			<psa10 value="0.0166724757197104" flag="0"/>
			<psa30 value="0.00827441563942488" flag="0"/>
		</comp>
		<comp name="--.HNZ" depth="0.0">
			<acc value="0.011505773102976" flag="0"/>
			<vel value="0.00616661817774" flag="0"/>
			<psa03 value="0.0338825596574432" flag="0"/>
			<psa10 value="0.00905878134979694" flag="0"/>
			<psa30 value="0.00230769370671456" flag="0"/>
		</comp>
	</station>
	<station code="MYT1" name="MYT1" netid="HI" source="ITSAK Strong Motion Network" insttype="" lat="39.085" lon="26.5694">
		<comp name="--.HNE" depth="0.0">
			<acc value="0.008743031371272" flag="0"/>
			<vel value="0.00738689796082" flag="0"/>
			<psa03 value="0.0229978177633809" flag="0"/>
			<psa10 value="0.0181216129679422" flag="0"/>
			<psa30 value="0.0011555125887054" flag="0"/>
		</comp>
		<comp name="--.HNN" depth="0.0">
			<acc value="0.011677101927186" flag="0"/>
			<vel value="0.0122716206134" flag="0"/>
			<psa03 value="0.0221954781539816" flag="0"/>
			<psa10 value="0.019796820817235" flag="0"/>
			<psa30 value="0.00246870874817153" flag="0"/>
		</comp>
		<comp name="--.HNZ" depth="0.0">
			<acc value="0.010870337420592" flag="0"/>
			<vel value="0.0124553060173" flag="0"/>
			<psa03 value="0.0172292064545407" flag="0"/>
			<psa10 value="0.0275880932007776" flag="0"/>
			<psa30 value="0.00171033746813134" flag="0"/>
		</comp>
	</station>
	<station code="NMA1" name="NMA1" netid="HI" source="ITSAK Strong Motion Network" insttype="" lat="37.81873" lon="22.662702">
		<comp name="--.HNE" depth="0.0">
			<acc value="0.024327580106844" flag="0"/>
			<vel value="0.0168900573181" flag="0"/>
			<psa03 value="0.0596761824207389" flag="0"/>
			<psa10 value="0.0332569743613225" flag="0"/>
			<psa30 value="0.00391098200003069" flag="0"/>
		</comp>
		<comp name="--.HNN" depth="0.0">
			<acc value="0.023306920920726" flag="0"/>
			<vel value="0.0156066207546" flag="0"/>
			<psa03 value="0.0570120996885483" flag="0"/>
			<psa10 value="0.0243708675753909" flag="0"/>
			<psa30 value="0.00380232063508298" flag="0"/>
		</comp>
		<comp name="--.HNZ" depth="0.0">
			<acc value="0.012287851445232" flag="0"/>
			<vel value="0.010789659969" flag="0"/>
			<psa03 value="0.0331775285776179" flag="0"/>
			<psa10 value="0.0167252023375587" flag="0"/>
			<psa30 value="0.00186492562550526" flag="0"/>
		</comp>
	</station>
	<station code="PAT5" name="PAT5" netid="HI" source="ITSAK Strong Motion Network" insttype="" lat="38.29595" lon="21.795083">
		<comp name="--.HNE" depth="0.0">
			<acc value="0.0046205069704818" flag="0"/>
			<vel value="0.00461534253318" flag="0"/>
			<psa03 value="0.00687111077631508" flag="0"/>
			<psa10 value="0.00510288616617893" flag="0"/>
			<psa30 value="0.0019546257343607" flag="0"/>
		</comp>
		<comp name="--.HNN" depth="0.0">
			<acc value="0.006501083208066" flag="0"/>
			<vel value="0.00761142687182" flag="0"/>
			<psa03 value="0.0113179567903326" flag="0"/>
			<psa10 value="0.00489572338016555" flag="0"/>
			<psa30 value="0.00235574543157412" flag="0"/>
		</comp>
		<comp name="--.HNZ" depth="0.0">
			<acc value="0.0076862721727332" flag="0"/>
			<vel value="0.00416675011411" flag="0"/>
			<psa03 value="0.00877039805312487" flag="0"/>
			<psa10 value="0.00566420085050991" flag="0"/>
			<psa30 value="0.00131298427042915" flag="0"/>
		</comp>
	</station>
	<station code="PER1" name="PER1" netid="HI" source="ITSAK Strong Motion Network" insttype="" lat="38.0119" lon="23.7027">
		<comp name="--.HNE" depth="0.0">
			<acc value="0.055842190764144" flag="0"/>
			<vel value="0.0399557418151" flag="0"/>
			<psa03 value="0.173417758908894" flag="0"/>
			<psa10 value="0.0931173335664904" flag="0"/>
			<psa30 value="0.00656727754992217" flag="0"/>
		</comp>
		<comp name="--.HNN" depth="0.0">
			<acc value="0.074740902313092" flag="0"/>
			<vel value="0.0608091228566" flag="0"/>
			<psa03 value="0.179717155379715" flag="0"/>
			<psa10 value="0.0962263870258498" flag="0"/>
			<psa30 value="0.00425406264410567" flag="0"/>
		</comp>
		<comp name="--.HNZ" depth="0.0">
			<acc value="0.035648382035958" flag="0"/>
			<vel value="0.0211589167653" flag="0"/>
			<psa03 value="0.0659795791566852" flag="0"/>
			<psa10 value="0.0523334418337482" flag="0"/>
			<psa30 value="0.00327868636354554" flag="0"/>
		</comp>
	</station>
	<station code="PIR1" name="PIR1" netid="HI" source="ITSAK Strong Motion Network" insttype="" lat="37.93723" lon="23.642595">
		<comp name="--.HNE" depth="0.0">
			<acc value="0.13030813342878" flag="0"/>
			<vel value="0.0726721903499" flag="0"/>
			<psa03 value="0.383372396539916" flag="0"/>
			<psa10 value="0.0756755806359931" flag="0"/>
			<psa30 value="0.00694046143818132" flag="0"/>
		</comp>
		<comp name="--.HNN" depth="0.0">
			<acc value="0.10525365976428" flag="0"/>
			<vel value="0.0745003694727" flag="0"/>
			<psa03 value="0.303970449050247" flag="0"/>
			<psa10 value="0.0741774988954342" flag="0"/>
			<psa30 value="0.00531988824980229" flag="0"/>
		</comp>
		<comp name="--.HNZ" depth="0.0">
			<acc value="0.070502394135" flag="0"/>
			<vel value="0.0363058257109" flag="0"/>
			<psa03 value="0.134539610505773" flag="0"/>
			<psa10 value="0.0474268567964977" flag="0"/>
			<psa30 value="0.00261316102575814" flag="0"/>
		</comp>
	</station>
	<station code="PIR2" name="PIR2" netid="HI" source="ITSAK Strong Motion Network" insttype="" lat="37.9458" lon="23.6709">
		<comp name="--.HNE" depth="0.0">
			<acc value="0.23662546664934" flag="0"/>
			<vel value="0.173696689685" flag="0"/>
			<psa03 value="0.483573742718957" flag="0"/>
			<psa10 value="0.123116463361523" flag="0"/>
			<psa30 value="0.0122059427504677" flag="0"/>
		</comp>
		<comp name="--.HNN" depth="0.0">
