<?xml version="1.0" encoding="UTF-8" standalone="yes"?>
<!DOCTYPE earthquake SYSTEM "stationlist.dtd">
<stationlist created="" xmlns="ch.ethz.sed.shakemap.usgs.xml">
  <station code="ALIO" name="ALIO" netid="HA" insttype="25" commtype="DIG" lat="38.0657" lon="23.6727">
    <comp name="--.HHN">
      <acc value="0.0278494058" flag="0"/>
      <vel value="0.0115930872" flag="0"/>
      <psa03 value="0.0828983358" flag="0"/>
      <psa10 value="0.0199621035" flag="0"/>
      <psa30 value="0.0012520992" flag="0"/>
    </comp>
    <comp name="--.HHE">
      <acc value="0.0334464550" flag="0"/>
      <vel value="0.0186018327" flag="0"/>
      <psa03 value="0.1314883325" flag="0"/>
      <psa10 value="0.0213447421" flag="0"/>
      <psa30 value="0.0018505878" flag="0"/>
    </comp>
    <comp name="--.HHZ">
      <acc value="0.0286336526" flag="0"/>
      <vel value="0.0138030091" flag="0"/>
      <psa03 value="0.0973137832" flag="0"/>
      <psa10 value="0.0169649591" flag="0"/>
      <psa30 value="0.0010718556" flag="0"/>
    </comp>
  </station>
  <station code="AMPE" name="AMPE" netid="HA" insttype="1s-100Hz," commtype="DIG" lat="38.3015" lon="23.2688">
    <comp name="--.HHE">
      <acc value="0.1043310183" flag="0"/>
      <vel value="0.0893452209" flag="0"/>
      <psa03 value="0.2289260006" flag="0"/>
      <psa10 value="0.1470789236" flag="0"/>
      <psa30 value="0.0155218367" flag="0"/>
    </comp>
    <comp name="--.HHN">
      <acc value="0.1029226158" flag="0"/>
      <vel value="0.0945302538" flag="0"/>
      <psa03 value="0.1656253749" flag="0"/>
      <psa10 value="0.1465852388" flag="0"/>
      <psa30 value="0.0129901690" flag="0"/>
    </comp>
    <comp name="--.HHZ">
      <acc value="0.0612902335" flag="0"/>
      <vel value="0.0444962128" flag="0"/>
      <psa03 value="0.1597449855" flag="0"/>
      <psa10 value="0.0572100702" flag="0"/>
      <psa30 value="0.0055854671" flag="0"/>
    </comp>
  </station>
  <station code="ATAL" name="ATAL" netid="HA" insttype="120s," commtype="DIG" lat="38.6926" lon="23.0213">
    <comp name="--.HHE">
      <acc value="0.0151941074" flag="0"/>
      <vel value="0.0073449328" flag="0"/>
      <psa03 value="0.0250940046" flag="0"/>
      <psa10 value="0.0120378174" flag="0"/>
      <psa30 value="0.0010962602" flag="0"/>
    </comp>
    <comp name="--.HHN">
      <acc value="0.0241470229" flag="0"/>
      <vel value="0.0128778562" flag="0"/>
      <psa03 value="0.0448181174" flag="0"/>
      <psa10 value="0.0271721038" flag="0"/>
      <psa30 value="0.0026932918" flag="0"/>
    </comp>
    <comp name="--.HHZ">
      <acc value="0.0101083313" flag="0"/>
      <vel value="0.0023998061" flag="0"/>
      <psa03 value="0.0118331140" flag="0"/>
      <psa10 value="0.0025563613" flag="0"/>
      <psa30 value="0.0002888357" flag="0"/>
    </comp>
  </station>
  <station code="ATHU" name="ATHU" netid="HA" insttype="60s," commtype="DIG" lat="37.9665" lon="23.7845">
    <comp name="--.HHN">
      <acc value="0.0328894756" flag="0"/>
      <vel value="0.0146962047" flag="0"/>
      <psa03 value="0.0695746747" flag="0"/>
      <psa10 value="0.0213553098" flag="0"/>
      <psa30 value="0.0012371879" flag="0"/>
    </comp>
    <comp name="--.HHE">
      <acc value="0.0376647371" flag="0"/>
      <vel value="0.0178389835" flag="0"/>
      <psa03 value="0.0710427213" flag="0"/>
      <psa10 value="0.0214256537" flag="0"/>
      <psa30 value="0.0023841333" flag="0"/>
    </comp>
    <comp name="--.HHZ">
      <acc value="0.0216695002" flag="0"/>
      <vel value="0.0137612984" flag="0"/>
      <psa03 value="0.0563799765" flag="0"/>
      <psa10 value="0.0195810753" flag="0"/>
      <psa30 value="0.0023059672" flag="0"/>
    </comp>
  </station>
  <station code="AXAR" name="AXAR" netid="HA" insttype="Horizon,120s,1200" commtype="DIG" lat="38.7664" lon="22.659">
    <comp name="--.HHE">
      <acc value="0.0289002396" flag="0"/>
      <vel value="0.0159012371" flag="0"/>
      <psa03 value="0.1030230661" flag="0"/>
      <psa10 value="0.0278893938" flag="0"/>
      <psa30 value="0.0051348174" flag="0"/>
    </comp>
    <comp name="--.HHZ">
      <acc value="0.0268215671" flag="0"/>
      <vel value="0.0142818432" flag="0"/>
      <psa03 value="0.0459209634" flag="0"/>
      <psa10 value="0.0177438897" flag="0"/>
      <psa30 value="0.0014055390" flag="0"/>
    </comp>
    <comp name="--.HHN">
      <acc value="0.0387260476" flag="0"/>
      <vel value="0.0187133176" flag="0"/>
      <psa03 value="0.0992557895" flag="0"/>
      <psa10 value="0.0220649774" flag="0"/>
      <psa30 value="0.0030461408" flag="0"/>
    </comp>
  </station>
  <station code="DOMV" name="DOMV" netid="HA" insttype="60" commtype="DIG" lat="38.2569" lon="22.9795">
    <comp name="--.HHN">
      <acc value="0.1304836743" flag="0"/>
      <vel value="0.0528091964" flag="0"/>
      <psa03 value="0.4152381782" flag="0"/>
      <psa10 value="0.0262886583" flag="0"/>
      <psa30 value="0.0042804962" flag="0"/>
    </comp>
    <comp name="--.HHE">
      <acc value="0.1219616621" flag="0"/>
      <vel value="0.0608795379" flag="0"/>
      <psa03 value="0.3054505974" flag="0"/>
      <psa10 value="0.0493168234" flag="0"/>
      <psa30 value="0.0036041504" flag="0"/>
    </comp>
    <comp name="--.HHZ">
      <acc value="0.0781283412" flag="0"/>
      <vel value="0.0309288341" flag="0"/>
      <psa03 value="0.2199995941" flag="0"/>
      <psa10 value="0.0273396196" flag="0"/>
      <psa30 value="0.0021649878" flag="0"/>
    </comp>
  </station>
  <station code="ERTR" name="ERTR" netid="HA" insttype="Horizon,120s,1200" commtype="DIG" lat="38.4066" lon="23.7865">
    <comp name="--.HHN">
      <acc value="0.1227830180" flag="0"/>
      <vel value="0.0593889230" flag="0"/>
      <psa03 value="0.4632754814" flag="0"/>
      <psa10 value="0.0385087031" flag="0"/>
      <psa30 value="0.0041890321" flag="0"/>
    </comp>
    <comp name="--.HHE">
      <acc value="0.1314338622" flag="0"/>
      <vel value="0.0757881623" flag="0"/>
      <psa03 value="0.3220114022" flag="0"/>
      <psa10 value="0.0902301311" flag="0"/>
      <psa30 value="0.0045488498" flag="0"/>
    </comp>
    <comp name="--.HHZ">
      <acc value="0.0968924398" flag="0"/>
      <vel value="0.0601375192" flag="0"/>
      <psa03 value="0.2501787462" flag="0"/>
      <psa10 value="0.0358410654" flag="0"/>
      <psa30 value="0.0023381649" flag="0"/>
    </comp>
  </station>
  <station code="KARY" name="KARY" netid="HA" insttype="60" commtype="DIG" lat="38.0321" lon="24.437">
    <comp name="--.HHE">
      <acc value="0.0926997916" flag="0"/>
      <vel value="0.0344370626" flag="0"/>
      <psa03 value="0.1243316143" flag="0"/>
      <psa10 value="0.0254869556" flag="0"/>
      <psa30 value="0.0031877472" flag="0"/>
    </comp>
    <comp name="--.HHN">
      <acc value="0.0769195150" flag="0"/>
      <vel value="0.0262868499" flag="0"/>
      <psa03 value="0.1700121690" flag="0"/>
      <psa10 value="0.0238359507" flag="0"/>
      <psa30 value="0.0020341360" flag="0"/>
    </comp>
    <comp name="--.HHZ">
      <acc value="0.0722246612" flag="0"/>
      <vel value="0.0275844181" flag="0"/>
      <psa03 value="0.1265524327" flag="0"/>
      <psa10 value="0.0170242872" flag="0"/>
      <psa30 value="0.0020312188" flag="0"/>
    </comp>
  </station>
  <station code="MDRA" name="MDRA" netid="HA" insttype="60" commtype="DIG" lat="38.0606" lon="23.4662">
    <comp name="--.HHE">
      <acc value="0.0404131564" flag="0"/>
      <vel value="0.0226957345" flag="0"/>
      <psa03 value="0.1285988432" flag="0"/>
      <psa10 value="0.0341227288" flag="0"/>
      <psa30 value="0.0034174599" flag="0"/>
    </comp>
    <comp name="--.HHZ">
      <acc value="0.0916323626" flag="0"/>
      <vel value="0.0780728134" flag="0"/>
      <psa03 value="0.2584045903" flag="0"/>
      <psa10 value="0.0547175548" flag="0"/>
      <psa30 value="0.0049243450" flag="0"/>
    </comp>
    <comp name="--.HHN">
      <acc value="0.0877717221" flag="0"/>
      <vel value="0.0550488120" flag="0"/>
      <psa03 value="0.3305030875" flag="0"/>
      <psa10 value="0.0667350675" flag="0"/>
      <psa30 value="0.0059125578" flag="0"/>
    </comp>
  </station>
  <station code="MRKA" name="MRKA" netid="HA" insttype="Horizon,120s,1200" commtype="DIG" lat="38.7047" lon="23.5863">
    <comp name="--.HHE">
      <acc value="0.3242336584" flag="0"/>
      <vel value="0.1335105609" flag="0"/>
      <psa03 value="0.3632684457" flag="0"/>
      <psa10 value="0.0714007129" flag="0"/>
      <psa30 value="0.0037138383" flag="0"/>
    </comp>
    <comp name="--.HHZ">
      <acc value="0.1207286839" flag="0"/>
      <vel value="0.0524965111" flag="0"/>
      <psa03 value="0.2427421331" flag="0"/>
      <psa10 value="0.0482330666" flag="0"/>
      <psa30 value="0.0028377832" flag="0"/>
    </comp>
    <comp name="--.HHN">
      <acc value="0.2481340660" flag="0"/>
      <vel value="0.0856881800" flag="0"/>
      <psa03 value="0.3133233742" flag="0"/>
      <psa10 value="0.0862347876" flag="0"/>
      <psa30 value="0.0058646087" flag="0"/>
    </comp>
  </station>
  <station code="MRTH" name="MRTH" netid="HA" insttype="S100," commtype="DIG" lat="38.1225" lon="23.9409">
    <comp name="--.HHE">
      <acc value="0.2580978865" flag="0"/>
      <vel value="0.1295606170" flag="0"/>
      <psa03 value="0.7445925127" flag="0"/>
      <psa10 value="0.0823270894" flag="0"/>
      <psa30 value="0.0044907300" flag="0"/>
    </comp>
    <comp name="--.HHZ">
      <acc value="0.1887625936" flag="0"/>
      <vel value="0.0688078047" flag="0"/>
      <psa03 value="0.4846583082" flag="0"/>
      <psa10 value="0.0303442874" flag="0"/>
      <psa30 value="0.0043691759" flag="0"/>
    </comp>
    <comp name="--.HHN">
      <acc value="0.1673848721" flag="0"/>
      <vel value="0.0820794291" flag="0"/>
      <psa03 value="0.5319779683" flag="0"/>
      <psa10 value="0.0684383032" flag="0"/>
      <psa30 value="0.0048134363" flag="0"/>
    </comp>
  </station>
  <station code="PRDM" name="PRDM" netid="HA" insttype="25" commtype="DIG" lat="38.2804" lon="22.847">
    <comp name="--.HHE">
      <acc value="0.0136113739" flag="0"/>
      <vel value="0.0088515685" flag="0"/>
      <psa03 value="0.0248667932" flag="0"/>
      <psa10 value="0.0159083689" flag="0"/>
      <psa30 value="0.0023603320" flag="0"/>
    </comp>
    <comp name="--.HHN">
      <acc value="0.0159128743" flag="0"/>
      <vel value="0.0076626140" flag="0"/>
      <psa03 value="0.0330029163" flag="0"/>
      <psa10 value="0.0104917594" flag="0"/>
      <psa30 value="0.0016904513" flag="0"/>
    </comp>
    <comp name="--.HHZ">
      <acc value="0.0108742083" flag="0"/>
      <vel value="0.0056368833" flag="0"/>
      <psa03 value="0.0219604490" flag="0"/>
      <psa10 value="0.0089598655" flag="0"/>
      <psa30 value="0.0009126688" flag="0"/>
    </comp>
  </station>
  <station code="PSAH" name="PSAH" netid="HA" insttype="25" commtype="DIG" lat="38.5694" lon="23.6473">
    <comp name="--.HHE">
      <acc value="0.0724274114" flag="0"/>
      <vel value="0.0357479887" flag="0"/>
      <psa03 value="0.1224310988" flag="0"/>
      <psa10 value="0.0311463242" flag="0"/>
      <psa30 value="0.0020364875" flag="0"/>
    </comp>
    <comp name="--.HHN">
      <acc value="0.0643406519" flag="0"/>
      <vel value="0.0261262482" flag="0"/>
      <psa03 value="0.1212692319" flag="0"/>
      <psa10 value="0.0300415620" flag="0"/>
      <psa30 value="0.0023113159" flag="0"/>
    </comp>
    <comp name="--.HHZ">
      <acc value="0.1108747171" flag="0"/>
      <vel value="0.0397991167" flag="0"/>
      <psa03 value="0.2517659913" flag="0"/>
      <psa10 value="0.0338123463" flag="0"/>
      <psa30 value="0.0017148448" flag="0"/>
    </comp>
  </station>
  <station code="THIV" name="THIV" netid="HA" insttype="25" commtype="DIG" lat="38.299" lon="23.332">
    <comp name="--.HHE">
      <acc value="0.0423277559" flag="0"/>
      <vel value="0.0239907508" flag="0"/>
      <psa03 value="0.0996644926" flag="0"/>
      <psa10 value="0.0567462558" flag="0"/>
      <psa30 value="0.0062682303" flag="0"/>
    </comp>
    <comp name="--.HHN">
      <acc value="0.0388350660" flag="0"/>
      <vel value="0.0271680080" flag="0"/>
      <psa03 value="0.1050394140" flag="0"/>
      <psa10 value="0.0375671150" flag="0"/>
      <psa30 value="0.0039674484" flag="0"/>
    </comp>
    <comp name="--.HHZ">
      <acc value="0.0352118554" flag="0"/>
      <vel value="0.0194301757" flag="0"/>
      <psa03 value="0.0959544245" flag="0"/>
      <psa10 value="0.0227165252" flag="0"/>
      <psa30 value="0.0026577988" flag="0"/>
    </comp>
  </station>
  <station code="VILL" name="VILL" netid="HA" insttype="Horizon,120s,1200" commtype="DIG" lat="38.1642" lon="23.3122">
    <comp name="--.HHE">
      <acc value="0.0568691726" flag="0"/>
      <vel value="0.0579426139" flag="0"/>
      <psa03 value="0.1538291586" flag="0"/>
      <psa10 value="0.2373815382" flag="0"/>
      <psa30 value="0.0064183362" flag="0"/>
    </comp>
    <comp name="--.HHN">
      <acc value="0.0590410426" flag="0"/>
      <vel value="0.0423807120" flag="0"/>
      <psa03 value="0.1314481705" flag="0"/>
      <psa10 value="0.0703971457" flag="0"/>
      <psa30 value="0.0048214839" flag="0"/>
    </comp>
    <comp name="--.HHZ">
      <acc value="0.0375591285" flag="0"/>
      <vel value="0.0268627820" flag="0"/>
      <psa03 value="0.1126369182" flag="0"/>
      <psa10 value="0.0398777536" flag="0"/>
      <psa30 value="0.0017256029" flag="0"/>
    </comp>
  </station>
  <station code="ATH5" name="ATH5" netid="HI" insttype="CMG-5TD,ACCELEROMETER,GURALP" commtype="DIG" lat="37.9754" lon="23.7371">
    <comp name="--.HNE">
      <acc value="0.0558236234" flag="0"/>
      <vel value="0.0408983587" flag="0"/>
      <psa03 value="0.1299843363" flag="0"/>
      <psa10 value="0.0405557150" flag="0"/>
      <psa30 value="0.0042168727" flag="0"/>
    </comp>
    <comp name="--.HNN">
      <acc value="0.0596551828" flag="0"/>
      <vel value="0.0402212384" flag="0"/>
      <psa03 value="0.1827799101" flag="0"/>
      <psa10 value="0.0679267780" flag="0"/>
      <psa30 value="0.0031435317" flag="0"/>
    </comp>
    <comp name="--.HNZ">
      <acc value="0.0392804249" flag="0"/>
      <vel value="0.0209861691" flag="0"/>
      <psa03 value="0.0930437814" flag="0"/>
      <psa10 value="0.0547773593" flag="0"/>
      <psa30 value="0.0027271752" flag="0"/>
    </comp>
  </station>
  <station code="KIF1" name="KIF1" netid="HI" insttype="unknown" commtype="DIG" lat="38.0773" lon="23.8146">
    <comp name="--.HNN">
      <acc value="0.0874899022" flag="0"/>
      <vel value="0.0582663854" flag="0"/>
      <psa03 value="0.4240611119" flag="0"/>
      <psa10 value="0.0597035368" flag="0"/>
      <psa30 value="0.0043663983" flag="0"/>
    </comp>
    <comp name="--.HNE">
      <acc value="0.0975336225" flag="0"/>
      <vel value="0.0520139861" flag="0"/>
      <psa03 value="0.3067859118" flag="0"/>
      <psa10 value="0.1015757024" flag="0"/>
      <psa30 value="0.0066949366" flag="0"/>
    </comp>
    <comp name="--.HNZ">
      <acc value="0.0701150919" flag="0"/>
      <vel value="0.0245625315" flag="0"/>
      <psa03 value="0.1190921872" flag="0"/>
      <psa10 value="0.0522204845" flag="0"/>
      <psa30 value="0.0026534105" flag="0"/>
    </comp>
  </station>
  <station code="KMV1" name="KMV1" netid="HI" insttype="unknown" commtype="DIG" lat="38.7794" lon="22.7846">
    <comp name="--.HNE">
      <acc value="0.0376667953" flag="0"/>
      <vel value="0.0203318527" flag="0"/>
      <psa03 value="0.0908656252" flag="0"/>
      <psa10 value="0.0311215135" flag="0"/>
      <psa30 value="0.0018060200" flag="0"/>
    </comp>
    <comp name="--.HNZ">
      <acc value="0.0339985414" flag="0"/>
      <vel value="0.0148920744" flag="0"/>
      <psa03 value="0.0753613379" flag="0"/>
      <psa10 value="0.0198016997" flag="0"/>
      <psa30 value="0.0013958087" flag="0"/>
    </comp>
    <comp name="--.HNN">
      <acc value="0.0489773215" flag="0"/>
      <vel value="0.0255162397" flag="0"/>
      <psa03 value="0.1218865534" flag="0"/>
      <psa10 value="0.0298968389" flag="0"/>
      <psa30 value="0.0025955926" flag="0"/>
    </comp>
  </station>
  <station code="LMN1" name="LMN1" netid="HI" insttype="CMG-5TD,ACCELEROMETER,GURALP" commtype="DIG" lat="39.875" lon="25.0588">
    <comp name="--.HNE">
      <acc value="0.0558664169" flag="0"/>
      <vel value="0.0403930976" flag="0"/>
      <psa03 value="0.1560836706" flag="0"/>
      <psa10 value="0.0514892475" flag="0"/>
      <psa30 value="0.0051840474" flag="0"/>
    </comp>
    <comp name="--.HNN">
      <acc value="0.0707974838" flag="0"/>
      <vel value="0.0358648570" flag="0"/>
      <psa03 value="0.2225517997" flag="0"/>
      <psa10 value="0.0187153821" flag="0"/>
      <psa30 value="0.0028158954" flag="0"/>
    </comp>
  </station>
  <station code="PER1" name="PER1" netid="HI" insttype="unknown" commtype="DIG" lat="38.0119" lon="23.7027">
    <comp name="--.HNE">
      <acc value="0.0555845988" flag="0"/>
      <vel value="0.0394934268" flag="0"/>
      <psa03 value="0.1732027597" flag="0"/>
      <psa10 value="0.0930941039" flag="0"/>
      <psa30 value="0.0057562724" flag="0"/>
    </comp>
    <comp name="--.HNN">
      <acc value="0.0751125494" flag="0"/>
      <vel value="0.0606592369" flag="0"/>
      <psa03 value="0.1804004015" flag="0"/>
      <psa10 value="0.0961389423" flag="0"/>
      <psa30 value="0.0040393656" flag="0"/>
    </comp>
    <comp name="--.HNZ">
      <acc value="0.0364644226" flag="0"/>
      <vel value="0.0211374504" flag="0"/>
      <psa03 value="0.0664898775" flag="0"/>
      <psa10 value="0.0522724272" flag="0"/>
      <psa30 value="0.0030548246" flag="0"/>
    </comp>
  </station>
  <station code="PIR1" name="PIR1" netid="HI" insttype="unknown" commtype="DIG" lat="37.9372" lon="23.6426">
    <comp name="--.HNE">
      <acc value="0.1310095070" flag="0"/>
      <vel value="0.0720357383" flag="0"/>
      <psa03 value="0.3855410690" flag="0"/>
      <psa10 value="0.0755503433" flag="0"/>
      <psa30 value="0.0062308455" flag="0"/>
    </comp>
    <comp name="--.HNN">
      <acc value="0.1052704074" flag="0"/>
      <vel value="0.0745361171" flag="0"/>
      <psa03 value="0.3036617822" flag="0"/>
      <psa10 value="0.0742335692" flag="0"/>
      <psa30 value="0.0048390187" flag="0"/>
    </comp>
    <comp name="--.HNZ">
      <acc value="0.0707073411" flag="0"/>
      <vel value="0.0363196499" flag="0"/>
      <psa03 value="0.1375938686" flag="0"/>
      <psa10 value="0.0474261366" flag="0"/>
      <psa30 value="0.0024484476" flag="0"/>
    </comp>
  </station>
  <station code="PIR2" name="PIR2" netid="HI" insttype="unknown" commtype="DIG" lat="37.9458" lon="23.6709">
    <comp name="--.HNN">
      <acc value="0.5098091861" flag="0"/>
      <vel value="0.2890504248" flag="0"/>
      <psa03 value="1.1220130921" flag="0"/>
      <psa10 value="0.2601052866" flag="0"/>
      <psa30 value="0.0098197323" flag="0"/>
    </comp>
    <comp name="--.HNE">
      <acc value="0.2373257765" flag="0"/>
      <vel value="0.1724996008" flag="0"/>
      <psa03 value="0.4868710234" flag="0"/>
      <psa10 value="0.1229793034" flag="0"/>
      <psa30 value="0.0112939169" flag="0"/>
    </comp>
    <comp name="--.HNZ">
      <acc value="0.2035062525" flag="0"/>
      <vel value="0.0776723022" flag="0"/>
      <psa03 value="0.3547359467" flag="0"/>
      <psa10 value="0.0468524249" flag="0"/>
      <psa30 value="0.0037680809" flag="0"/>
    </comp>
  </station>
  <station code="SKY1" name="SKY1" netid="HI" insttype="CMG-5TD,ACCELEROMETER,GURALP" commtype="DIG" lat="38.9045" lon="24.5646">
    <comp name="--.HNE">
      <acc value="0.8397563776" flag="0"/>
      <vel value="0.2234900420" flag="0"/>
      <psa03 value="1.2441144422" flag="0"/>
      <psa10 value="0.1476193530" flag="0"/>
