<stationlist created="1778136147">
	<station code="KRL1" name="KRL1" netid="HI" source="ITSAK Strong Motion Network" insttype="" lat="37.7951" lon="26.7065">
		<comp name="--.HNE" depth="0.0">
			<acc value="0.7851397537912" flag="0"/>
			<vel value="0.217642418543681" flag="0"/>
			<psa03 value="0.954664462614064" flag="0"/>
			<psa10 value="0.091138532615221" flag="0"/>
			<psa30 value="0.00737977955961774" flag="0"/>
		</comp>
		<comp name="--.HNN" depth="0.0">
			<acc value="0.522696511255914" flag="0"/>
			<vel value="0.154957989322354" flag="0"/>
			<psa03 value="0.496191071396634" flag="0"/>
			<psa10 value="0.0435015052287471" flag="0"/>
			<psa30 value="0.00338385308653989" flag="0"/>
		</comp>
		<comp name="--.HNZ" depth="0.0">
			<acc value="0.259937853366318" flag="0"/>
			<vel value="0.0693658677715401" flag="0"/>
			<psa03 value="0.26769262219712" flag="0"/>
			<psa10 value="0.0295405944976477" flag="0"/>
			<psa30 value="0.00352031681672562" flag="0"/>
		</comp>
	</station>
	<station code="MYT1" name="MYT1" netid="HI" source="ITSAK Strong Motion Network" insttype="" lat="39.085" lon="26.5694">
		<comp name="--.HNE" depth="0.0">
			<acc value="0.023178591600089" flag="0"/>
			<vel value="0.0139496553283555" flag="0"/>
			<psa03 value="0.0523931239499962" flag="0"/>
			<psa10 value="0.0191353469265025" flag="0"/>
			<psa30 value="0.00107381295883852" flag="0"/>
		</comp>
		<comp name="--.HNN" depth="0.0">
			<acc value="0.0260852226536564" flag="0"/>
			<vel value="0.0132433412807916" flag="0"/>
			<psa03 value="0.0561962115125493" flag="0"/>
			<psa10 value="0.0170977868371064" flag="0"/>
			<psa30 value="0.00162235241197853" flag="0"/>
		</comp>
		<comp name="--.HNZ" depth="0.0">
			<acc value="0.0176029201084381" flag="0"/>
			<vel value="0.00859857786436427" flag="0"/>
			<psa03 value="0.0469793169491853" flag="0"/>
			<psa10 value="0.0173756359402058" flag="0"/>
			<psa30 value="0.000932875007990966" flag="0"/>
		</comp>
	</station>
	<station code="NAX1" name="NAX1" netid="HI" source="ITSAK Strong Motion Network" insttype="" lat="37.101394" lon="25.374103">
		<comp name="--.HNE" depth="0.0">
			<acc value="0.0260961090341244" flag="0"/>
			<vel value="0.00862830348410114" flag="0"/>
			<psa03 value="0.0345857257159241" flag="0"/>
			<psa10 value="0.00635026138533131" flag="0"/>
			<psa30 value="0.000379413912122944" flag="0"/>
		</comp>
		<comp name="--.HNN" depth="0.0">
			<acc value="0.0261475943561377" flag="0"/>
			<vel value="0.00638264997579172" flag="0"/>
			<psa03 value="0.017941624853927" flag="0"/>
			<psa10 value="0.00392612863075335" flag="0"/>
			<psa30 value="0.000313642868394085" flag="0"/>
		</comp>
		<comp name="--.HNZ" depth="0.0">
			<acc value="0.0111504603127358" flag="0"/>
			<vel value="0.00424241328867435" flag="0"/>
			<psa03 value="0.0182100780936366" flag="0"/>
			<psa10 value="0.00423216532402233" flag="0"/>
			<psa30 value="0.000386572665181868" flag="0"/>
		</comp>
	</station>
	<station code="KLNA" name="KLNA" netid="HL" source="National Observatory of Athens Seismic Network" insttype="" lat="36.95708" lon="26.97274">
		<comp name="00.HNE" depth="0.0">
			<acc value="0.116426846803319" flag="0"/>
			<vel value="0.0391204624658856" flag="0"/>
			<psa03 value="0.278117556339177" flag="0"/>
			<psa10 value="0.0132723281712441" flag="0"/>
			<psa30 value="0.001672463683391" flag="0"/>
		</comp>
		<comp name="00.HNN" depth="0.0">
			<acc value="0.113742424398308" flag="0"/>
			<vel value="0.04042876578332" flag="0"/>
			<psa03 value="0.328452538784733" flag="0"/>
			<psa10 value="0.0110616157422353" flag="0"/>
			<psa30 value="0.000885895691041781" flag="0"/>
		</comp>
		<comp name="00.HNZ" depth="0.0">
			<acc value="0.0753906707063131" flag="0"/>
			<vel value="0.0371636532319377" flag="0"/>
			<psa03 value="0.169528220876632" flag="0"/>
			<psa10 value="0.0120401278009769" flag="0"/>
			<psa30 value="0.000967326507087035" flag="0"/>
		</comp>
	</station>
	<station code="PRK" name="PRK" netid="HL" source="National Observatory of Athens Seismic Network" insttype="" lat="39.24565" lon="26.26499">
		<comp name="--.HNE" depth="0.0">
			<acc value="0.0205675114790727" flag="0"/>
			<vel value="0.0232469977273944" flag="0"/>
			<psa03 value="0.0575384777110975" flag="0"/>
			<psa10 value="0.0330962576576018" flag="0"/>
			<psa30 value="0.00183219336101823" flag="0"/>
		</comp>
		<comp name="--.HNN" depth="0.0">
			<acc value="0.0219919540280104" flag="0"/>
			<vel value="0.0149582145261236" flag="0"/>
			<psa03 value="0.0520351862970501" flag="0"/>
			<psa10 value="0.0213621665498938" flag="0"/>
			<psa30 value="0.00142548670285814" flag="0"/>
		</comp>
		<comp name="--.HNZ" depth="0.0">
			<acc value="0.0134911632637982" flag="0"/>
			<vel value="0.00748249119865177" flag="0"/>
			<psa03 value="0.0349884055754885" flag="0"/>
			<psa10 value="0.00578248278334544" flag="0"/>
			<psa30 value="0.000827283400371845" flag="0"/>
		</comp>
	</station>
	<station code="SMG" name="SMG" netid="HL" source="National Observatory of Athens Seismic Network" insttype="" lat="37.70425" lon="26.83772">
		<comp name="00.HNE" depth="0.0">
			<acc value="0.280152823292207" flag="0"/>
			<vel value="0.0662385520170489" flag="0"/>
			<psa03 value="0.185814384085683" flag="0"/>
			<psa10 value="0.0191997757040328" flag="0"/>
			<psa30 value="0.00119103754017839" flag="0"/>
		</comp>
		<comp name="00.HNN" depth="0.0">
			<acc value="0.23766612346794" flag="0"/>
			<vel value="0.0549293345292886" flag="0"/>
			<psa03 value="0.181877069903275" flag="0"/>
			<psa10 value="0.0230856363488297" flag="0"/>
			<psa30 value="0.00126754671349564" flag="0"/>
		</comp>
		<comp name="00.HNZ" depth="0.0">
			<acc value="0.202090757177828" flag="0"/>
			<vel value="0.0380999366718224" flag="0"/>
			<psa03 value="0.112079227578771" flag="0"/>
			<psa10 value="0.0201219125824354" flag="0"/>
			<psa30 value="0.00131586829664337" flag="0"/>
		</comp>
	</station>
	<station code="TNSA" name="TNSA" netid="HL" source="National Observatory of Athens Seismic Network" insttype="" lat="37.53942" lon="25.1631">
		<comp name="00.HNE" depth="0.0">
			<acc value="0.0266321278390968" flag="0"/>
			<vel value="0.0141182265274496" flag="0"/>
			<psa03 value="0.049395396106572" flag="0"/>
			<psa10 value="0.00927371716576919" flag="0"/>
			<psa30 value="0.000819229803180556" flag="0"/>
		</comp>
		<comp name="00.HNN" depth="0.0">
			<acc value="0.0189513419081837" flag="0"/>
			<vel value="0.0109579869695833" flag="0"/>
			<psa03 value="0.0492164272800989" flag="0"/>
			<psa10 value="0.00531537414625068" flag="0"/>
			<psa30 value="0.000480978721146421" flag="0"/>
		</comp>
		<comp name="00.HNZ" depth="0.0">
			<acc value="0.0130439272795429" flag="0"/>
			<vel value="0.0048389866678308" flag="0"/>
			<psa03 value="0.0188812111929107" flag="0"/>
			<psa10 value="0.00325365326528072" flag="0"/>
			<psa30 value="0.000305141849136613" flag="0"/>
		</comp>
	</station>
	<station code="DATC" name="DATC" netid="KO" source="Bogazici University Kandilli Observatory And Earthquake Research Institute (KOERI)" insttype="" lat="36.7584" lon="27.6602">
		<comp name="--.HNE" depth="0.0">
			<acc value="0.0743163548927606" flag="0"/>
			<vel value="0.0424838764414485" flag="0"/>
			<psa03 value="0.204561368658738" flag="0"/>
			<psa10 value="0.0456961104633733" flag="0"/>
			<psa30 value="0.00408183150978493" flag="0"/>
		</comp>
		<comp name="--.HNN" depth="0.0">
			<acc value="0.063430803261484" flag="0"/>
			<vel value="0.0406342244509456" flag="0"/>
			<psa03 value="0.201384671988841" flag="0"/>
			<psa10 value="0.0515027540382926" flag="0"/>
			<psa30 value="0.00527734327062515" flag="0"/>
		</comp>
		<comp name="--.HNZ" depth="0.0">
			<acc value="0.106729259264157" flag="0"/>
			<vel value="0.0302987826264237" flag="0"/>
			<psa03 value="0.108813046495637" flag="0"/>
			<psa10 value="0.0354680420304364" flag="0"/>
			<psa30 value="0.00272256327272184" flag="0"/>
		</comp>
	</station>
	<station code="EZNE" name="EZNE" netid="KO" source="Bogazici University Kandilli Observatory And Earthquake Research Institute (KOERI)" insttype="" lat="39.756" lon="26.3655">
		<comp name="--.HNE" depth="0.0">
			<acc value="0.0303398378267446" flag="0"/>
			<vel value="0.014739243114324" flag="0"/>
			<psa03 value="0.0707821708701059" flag="0"/>
			<psa10 value="0.0185554879287297" flag="0"/>
			<psa30 value="0.00155881847858059" flag="0"/>
		</comp>
		<comp name="--.HNN" depth="0.0">
			<acc value="0.0295292419491887" flag="0"/>
			<vel value="0.0212647257246056" flag="0"/>
			<psa03 value="0.0690372248119933" flag="0"/>
			<psa10 value="0.025449367124473" flag="0"/>
			<psa30 value="0.00213778263222102" flag="0"/>
		</comp>
		<comp name="--.HNZ" depth="0.0">
			<acc value="0.0184428321388432" flag="0"/>
			<vel value="0.0106970039887312" flag="0"/>
			<psa03 value="0.0460844728168199" flag="0"/>
			<psa10 value="0.0123018697096938" flag="0"/>
			<psa30 value="0.00115658604108232" flag="0"/>
		</comp>
	</station>
	<station code="GOMA" name="GOMA" netid="KO" source="Bogazici University Kandilli Observatory And Earthquake Research Institute (KOERI)" insttype="" lat="38.7077" lon="27.9175">
		<comp name="--.HNE" depth="0.0">
			<acc value="0.024915235782334" flag="0"/>
			<vel value="0.0110769302998652" flag="0"/>
			<psa03 value="0.07507742270546" flag="0"/>
			<psa10 value="0.00604825149065798" flag="0"/>
			<psa30 value="0.000475609656352229" flag="0"/>
		</comp>
		<comp name="--.HNN" depth="0.0">
			<acc value="0.0268459459733428" flag="0"/>
			<vel value="0.0106970807062126" flag="0"/>
			<psa03 value="0.062728573678817" flag="0"/>
			<psa10 value="0.00406303978300526" flag="0"/>
			<psa30 value="0.000490374584536258" flag="0"/>
		</comp>
		<comp name="--.HNZ" depth="0.0">
			<acc value="0.0191933481902727" flag="0"/>
			<vel value="0.00765351834437878" flag="0"/>
			<psa03 value="0.0414760255351379" flag="0"/>
			<psa10 value="0.00498114986281219" flag="0"/>
			<psa30 value="0.000459502461969651" flag="0"/>
		</comp>
	</station>
	<station code="GORD" name="GORD" netid="KO" source="Bogazici University Kandilli Observatory And Earthquake Research Institute (KOERI)" insttype="" lat="38.9088" lon="28.1769">
		<comp name="--.HNE" depth="0.0">
			<acc value="0.0328357414328837" flag="0"/>
			<vel value="0.03049689821362" flag="0"/>
			<psa03 value="0.102370168742606" flag="0"/>
			<psa10 value="0.064795216202515" flag="0"/>
			<psa30 value="0.00487466341106071" flag="0"/>
		</comp>
		<comp name="--.HNN" depth="0.0">
			<acc value="0.0303957495490834" flag="0"/>
			<vel value="0.0231633034018059" flag="0"/>
			<psa03 value="0.0803570030864161" flag="0"/>
			<psa10 value="0.0439082118869072" flag="0"/>
			<psa30 value="0.00283039199067187" flag="0"/>
		</comp>
		<comp name="--.HNZ" depth="0.0">
			<acc value="0.0379564492989052" flag="0"/>
			<vel value="0.0355153451018219" flag="0"/>
			<psa03 value="0.0820124647312921" flag="0"/>
			<psa10 value="0.028698993591158" flag="0"/>
			<psa30 value="0.00266305613791953" flag="0"/>
		</comp>
	</station>
	<station code="KRBN" name="KRBN" netid="KO" source="Bogazici University Kandilli Observatory And Earthquake Research Institute (KOERI)" insttype="" lat="38.5936" lon="26.5537">
		<comp name="--.HNE" depth="0.0">
			<acc value="0.705651454813211" flag="0"/>
			<vel value="0.209903258901966" flag="0"/>
			<psa03 value="0.77408491670272" flag="0"/>
			<psa10 value="0.154983424349164" flag="0"/>
			<psa30 value="0.0118938207853352" flag="0"/>
		</comp>
		<comp name="--.HNN" depth="0.0">
			<acc value="0.879796965287069" flag="0"/>
			<vel value="0.271143637410656" flag="0"/>
			<psa03 value="0.742004754557419" flag="0"/>
			<psa10 value="0.207392208071477" flag="0"/>
			<psa30 value="0.0177013592043869" flag="0"/>
		</comp>
		<comp name="--.HNZ" depth="0.0">
			<acc value="0.328291547089988" flag="0"/>
			<vel value="0.157326350534919" flag="0"/>
			<psa03 value="0.601111545916481" flag="0"/>
			<psa10 value="0.142613099063344" flag="0"/>
			<psa30 value="0.00681737002242607" flag="0"/>
		</comp>
	</station>
	<station code="KUSD" name="KUSD" netid="KO" source="Bogazici University Kandilli Observatory And Earthquake Research Institute (KOERI)" insttype="" lat="37.8606" lon="27.2868">
		<comp name="--.HNE" depth="0.0">
			<acc value="0.1683013054317" flag="0"/>
			<vel value="0.068002693303523" flag="0"/>
			<psa03 value="0.517846299399877" flag="0"/>
			<psa10 value="0.0732192788646032" flag="0"/>
			<psa30 value="0.00295611759126921" flag="0"/>
		</comp>
		<comp name="--.HNN" depth="0.0">
			<acc value="0.209480135516957" flag="0"/>
			<vel value="0.0686050494648725" flag="0"/>
			<psa03 value="0.374626496014789" flag="0"/>
			<psa10 value="0.0694864365664408" flag="0"/>
			<psa30 value="0.00560888302166655" flag="0"/>
		</comp>
		<comp name="--.HNZ" depth="0.0">
			<acc value="0.113547362860175" flag="0"/>
			<vel value="0.0369731567797912" flag="0"/>
			<psa03 value="0.163711734016256" flag="0"/>
			<psa10 value="0.0268909610217137" flag="0"/>
			<psa30 value="0.00267245200130937" flag="0"/>
		</comp>
	</station>
	<station code="ODEM" name="ODEM" netid="KO" source="Bogazici University Kandilli Observatory And Earthquake Research Institute (KOERI)" insttype="" lat="38.2762" lon="28.0747">
		<comp name="--.HNE" depth="0.0">
			<acc value="0.0349726851603801" flag="0"/>
			<vel value="0.0154588780194257" flag="0"/>
			<psa03 value="0.10174377784995" flag="0"/>
			<psa10 value="0.0268829074245224" flag="0"/>
			<psa30 value="0.00199729210343965" flag="0"/>
		</comp>
		<comp name="--.HNN" depth="0.0">
			<acc value="0.0418558820538344" flag="0"/>
			<vel value="0.0179958211944742" flag="0"/>
			<psa03 value="0.109797375041239" flag="0"/>
			<psa10 value="0.0183058264157997" flag="0"/>
			<psa30 value="0.00123354263646575" flag="0"/>
		</comp>
		<comp name="--.HNZ" depth="0.0">
			<acc value="0.0270818172977181" flag="0"/>
			<vel value="0.0143094207361103" flag="0"/>
			<psa03 value="0.0510061155448298" flag="0"/>
			<psa10 value="0.0263956647944494" flag="0"/>
			<psa30 value="0.00184651086713607" flag="0"/>
		</comp>
	</station>
	<station code="SOMA" name="SOMA" netid="KO" source="Bogazici University Kandilli Observatory And Earthquake Research Institute (KOERI)" insttype="" lat="39.1564" lon="27.5341">
		<comp name="--.HNE" depth="0.0">
			<acc value="0.135592548019711" flag="0"/>
			<vel value="0.0513291890004037" flag="0"/>
			<psa03 value="0.324828420048653" flag="0"/>
			<psa10 value="0.0237661653114936" flag="0"/>
			<psa30 value="0.00390375752744421" flag="0"/>
		</comp>
		<comp name="--.HNN" depth="0.0">
			<acc value="0.0980651960260105" flag="0"/>
			<vel value="0.0433543706108645" flag="0"/>
			<psa03 value="0.339459121612828" flag="0"/>
			<psa10 value="0.0324519698822987" flag="0"/>
			<psa30 value="0.0024567945654093" flag="0"/>
		</comp>
		<comp name="--.HNZ" depth="0.0">
			<acc value="0.108316446554771" flag="0"/>
			<vel value="0.0488067569683531" flag="0"/>
			<psa03 value="0.190914995640166" flag="0"/>
			<psa10 value="0.0185313271371558" flag="0"/>
			<psa30 value="0.00209796206833076" flag="0"/>
		</comp>
	</station>
	<station code="YKAV" name="YKAV" netid="KO" source="Bogazici University Kandilli Observatory And Earthquake Research Institute (KOERI)" insttype="" lat="37.1246" lon="27.2801">
		<comp name="--.HNE" depth="0.0">
			<acc value="0.0447248044786189" flag="0"/>
			<vel value="0.026387976150406" flag="0"/>
			<psa03 value="0.11726932354649" flag="0"/>
			<psa10 value="0.0147340560614631" flag="0"/>
			<psa30 value="0.00142056506013013" flag="0"/>
		</comp>
		<comp name="--.HNN" depth="0.0">
			<acc value="0.0255983562320022" flag="0"/>
			<vel value="0.0172982611061982" flag="0"/>
			<psa03 value="0.0601782679015755" flag="0"/>
			<psa10 value="0.0119515382318728" flag="0"/>
			<psa30 value="0.000609836276207044" flag="0"/>
		</comp>
		<comp name="--.HNZ" depth="0.0">
			<acc value="0.0164724847071588" flag="0"/>
			<vel value="0.0108979075659328" flag="0"/>
			<psa03 value="0.0647867151832575" flag="0"/>
			<psa10 value="0.00525094536872037" flag="0"/>
			<psa30 value="0.000399100483034984" flag="0"/>
		</comp>
	</station>
</stationlist>
