<?xml version="1.0" encoding="UTF-8" standalone="yes"?>
<!DOCTYPE earthquake SYSTEM "stationlist.dtd">
<stationlist created="" xmlns="ch.ethz.sed.shakemap.usgs.xml">
  <station code="APE" name="APE" netid="GE" insttype="STS-2/N" lat="37.0727" lon="25.523">
    <comp name="--.HHE">
      <acc value="0.0353945852" flag="0"/>
      <vel value="0.0075788790" flag="0"/>
      <psa03 value="0.0304100688" flag="0"/>
      <psa10 value="0.0041210940" flag="0"/>
      <psa30 value="0.0004430685" flag="0"/>
    </comp>
    <comp name="--.HHZ">
      <acc value="0.0193867918" flag="0"/>
      <vel value="0.0054663734" flag="0"/>
      <psa03 value="0.0312500746" flag="0"/>
      <psa10 value="0.0041011751" flag="0"/>
      <psa30 value="0.0003146986" flag="0"/>
    </comp>
    <comp name="--.HHN">
      <acc value="0.0442653980" flag="0"/>
      <vel value="0.0077639036" flag="0"/>
      <psa03 value="0.0345660610" flag="0"/>
      <psa10 value="0.0032345654" flag="0"/>
      <psa30 value="0.0003073466" flag="0"/>
    </comp>
  </station>
  <station code="KRL1" name="KRL1" netid="HI" insttype="CMG-5TD,ACCELEROMETER,GURALP" lat="37.7951" lon="26.7065">
    <comp name="--.HNZ">
      <acc value="0.2530418010" flag="0"/>
      <vel value="0.0688245496" flag="0"/>
      <psa03 value="0.2679086632" flag="0"/>
      <psa10 value="0.0294303413" flag="0"/>
      <psa30 value="0.0032269720" flag="0"/>
    </comp>
    <comp name="--.HNE">
      <acc value="0.7799112908" flag="0"/>
      <vel value="0.2117143523" flag="0"/>
      <psa03 value="0.9445201913" flag="0"/>
      <psa10 value="0.0908398913" flag="0"/>
      <psa30 value="0.0072728196" flag="0"/>
    </comp>
    <comp name="--.HNN">
      <acc value="0.5293165100" flag="0"/>
      <vel value="0.1524236738" flag="0"/>
      <psa03 value="0.4888057397" flag="0"/>
      <psa10 value="0.0434995425" flag="0"/>
      <psa30 value="0.0032571434" flag="0"/>
    </comp>
  </station>
  <station code="APE" name="APE" netid="HL" insttype="120" lat="37.0727" lon="25.523">
    <comp name="--.HHZ">
      <acc value="0.0181102318" flag="0"/>
      <vel value="0.0051764747" flag="0"/>
      <psa03 value="0.0304151930" flag="0"/>
      <psa10 value="0.0040695035" flag="0"/>
      <psa30 value="0.0003136931" flag="0"/>
    </comp>
    <comp name="--.HHE">
      <acc value="0.0342385806" flag="0"/>
      <vel value="0.0072990863" flag="0"/>
      <psa03 value="0.0296503026" flag="0"/>
      <psa10 value="0.0040781526" flag="0"/>
      <psa30 value="0.0004406927" flag="0"/>
    </comp>
    <comp name="--.HHN">
      <acc value="0.0411131541" flag="0"/>
      <vel value="0.0073948697" flag="0"/>
      <psa03 value="0.0332856783" flag="0"/>
      <psa10 value="0.0031779764" flag="0"/>
      <psa30 value="0.0003060110" flag="0"/>
    </comp>
  </station>
  <station code="SMG" name="SMG" netid="HL" insttype="120" lat="37.7043" lon="26.8377">
    <comp name="--.HHN">
      <acc value="0.3114785216" flag="0"/>
      <vel value="0.0629680427" flag="0"/>
      <psa03 value="0.1967393654" flag="0"/>
      <psa10 value="0.0224423476" flag="0"/>
      <psa30 value="0.0011950683" flag="0"/>
    </comp>
    <comp name="--.HHZ">
      <acc value="0.2461019984" flag="0"/>
      <vel value="0.0426238181" flag="0"/>
      <psa03 value="0.1199311809" flag="0"/>
      <psa10 value="0.0205370281" flag="0"/>
      <psa30 value="0.0013738777" flag="0"/>
    </comp>
    <comp name="--.HHE">
      <acc value="0.3330165488" flag="0"/>
      <vel value="0.0780441396" flag="0"/>
      <psa03 value="0.2009221176" flag="0"/>
      <psa10 value="0.0208796083" flag="0"/>
      <psa30 value="0.0013822439" flag="0"/>
    </comp>
  </station>
  <station code="CHOS" name="CHOS" netid="HT" insttype="100" lat="38.3869" lon="26.0506">
    <comp name="--.HHE">
      <acc value="0.0673848703" flag="0"/>
      <vel value="0.0202096297" flag="0"/>
      <psa03 value="0.1217746852" flag="0"/>
      <psa10 value="0.0174438977" flag="0"/>
      <psa30 value="0.0013964093" flag="0"/>
    </comp>
    <comp name="--.HHZ">
      <acc value="0.0184051669" flag="0"/>
      <vel value="0.0079368816" flag="0"/>
      <psa03 value="0.0405442177" flag="0"/>
      <psa10 value="0.0060025739" flag="0"/>
      <psa30 value="0.0005137572" flag="0"/>
    </comp>
    <comp name="--.HHN">
      <acc value="0.0452317324" flag="0"/>
      <vel value="0.0130087467" flag="0"/>
      <psa03 value="0.0555325099" flag="0"/>
      <psa10 value="0.0148800073" flag="0"/>
      <psa30 value="0.0011434780" flag="0"/>
    </comp>
  </station>
  <station code="KRBN" name="KRBN" netid="KO" insttype="100" lat="38.5936" lon="26.5537">
    <comp name="--.HNN">
      <acc value="0.1412145776" flag="0"/>
      <vel value="0.0427844704" flag="0"/>
      <psa03 value="0.1169462125" flag="0"/>
      <psa10 value="0.0329498142" flag="0"/>
      <psa30 value="0.0027943306" flag="0"/>
    </comp>
    <comp name="--.HNE">
      <acc value="0.1127117154" flag="0"/>
      <vel value="0.0323783529" flag="0"/>
      <psa03 value="0.1215606411" flag="0"/>
      <psa10 value="0.0245911497" flag="0"/>
      <psa30 value="0.0018504980" flag="0"/>
    </comp>
    <comp name="--.HNZ">
      <acc value="0.0517808549" flag="0"/>
      <vel value="0.0246815080" flag="0"/>
      <psa03 value="0.0939592199" flag="0"/>
      <psa10 value="0.0226260445" flag="0"/>
      <psa30 value="0.0010675203" flag="0"/>
    </comp>
  </station>
</stationlist>
