<?xml version="1.0" encoding="UTF-8" standalone="yes"?>
<!DOCTYPE earthquake SYSTEM "stationlist.dtd">
<stationlist created="" xmlns="ch.ethz.sed.shakemap.usgs.xml">
  <station code="AXAR" name="AXAR" netid="HA" insttype="30" lat="38.7664" lon="22.659">
    <comp name="--.HHE">
      <acc value="0.0024810346" flag="0"/>
      <vel value="0.0015250659" flag="0"/>
      <psa03 value="0.0083587495" flag="0"/>
      <psa10 value="0.0014269709" flag="0"/>
      <psa30 value="0.0001151220" flag="0"/>
    </comp>
    <comp name="--.HHZ">
      <acc value="0.0011432462" flag="0"/>
      <vel value="0.0006425769" flag="0"/>
      <psa03 value="0.0038979021" flag="0"/>
      <psa10 value="0.0006016538" flag="0"/>
      <psa30 value="0.0000605558" flag="0"/>
    </comp>
    <comp name="--.HHN">
      <acc value="0.0021798467" flag="0"/>
      <vel value="0.0011412465" flag="0"/>
      <psa03 value="0.0068035284" flag="0"/>
      <psa10 value="0.0014043066" flag="0"/>
      <psa30 value="0.0001305507" flag="0"/>
    </comp>
  </station>
  <station code="LAKA" name="LAKA" netid="HA" insttype="120s" lat="38.2401" lon="21.9785">
    <comp name="--.HHN">
      <acc value="0.0043157439" flag="0"/>
      <vel value="0.0014755527" flag="0"/>
      <psa03 value="0.0062690060" flag="0"/>
      <psa10 value="0.0005884107" flag="0"/>
      <psa30 value="0.0000714171" flag="0"/>
    </comp>
    <comp name="--.HHE">
      <acc value="0.0043430593" flag="0"/>
      <vel value="0.0030963874" flag="0"/>
      <psa03 value="0.0084650063" flag="0"/>
      <psa10 value="0.0042644918" flag="0"/>
      <psa30 value="0.0005611441" flag="0"/>
    </comp>
    <comp name="--.HHZ">
      <acc value="0.0037264707" flag="0"/>
      <vel value="0.0026194854" flag="0"/>
      <psa03 value="0.0097777759" flag="0"/>
      <psa10 value="0.0040745299" flag="0"/>
      <psa30 value="0.0002683907" flag="0"/>
    </comp>
  </station>
  <station code="ARG2" name="ARG2" netid="HI" insttype="CMG-5TD,ACCELEROMETER,GURALP" lat="38.1783" lon="20.4878">
    <comp name="--.HNN">
      <acc value="0.1556647280" flag="0"/>
      <vel value="0.0454453279" flag="0"/>
      <psa03 value="0.1879459618" flag="0"/>
      <psa10 value="0.0179327100" flag="0"/>
      <psa30 value="0.0009498320" flag="0"/>
    </comp>
    <comp name="--.HNE">
      <acc value="0.1456074662" flag="0"/>
      <vel value="0.0445155667" flag="0"/>
      <psa03 value="0.1180874663" flag="0"/>
      <psa10 value="0.0183343003" flag="0"/>
      <psa30 value="0.0011220596" flag="0"/>
    </comp>
    <comp name="--.HNZ">
      <acc value="0.0735607109" flag="0"/>
      <vel value="0.0192688444" flag="0"/>
      <psa03 value="0.1417342840" flag="0"/>
      <psa10 value="0.0074882211" flag="0"/>
      <psa30 value="0.0005813419" flag="0"/>
    </comp>
  </station>
  <station code="ART2" name="ART2" netid="HI" insttype="CMG-5TD,ACCELEROMETER,GURALP" lat="39.1474" lon="20.9937">
    <comp name="--.HNZ">
      <acc value="0.0594873040" flag="0"/>
      <vel value="0.0253982285" flag="0"/>
      <psa03 value="0.1047020119" flag="0"/>
      <psa10 value="0.0170097257" flag="0"/>
      <psa30 value="0.0015977676" flag="0"/>
    </comp>
    <comp name="--.HNE">
      <acc value="0.0653778747" flag="0"/>
      <vel value="0.0302564490" flag="0"/>
      <psa03 value="0.0995023168" flag="0"/>
      <psa10 value="0.0297339906" flag="0"/>
      <psa30 value="0.0020546158" flag="0"/>
    </comp>
    <comp name="--.HNN">
      <acc value="0.0911972164" flag="0"/>
      <vel value="0.0548649529" flag="0"/>
      <psa03 value="0.1458026664" flag="0"/>
      <psa10 value="0.0482514361" flag="0"/>
      <psa30 value="0.0028426910" flag="0"/>
    </comp>
  </station>
  <station code="KLV1" name="KLV1" netid="HI" insttype="CMG-5TD,ACCELEROMETER,GURALP" lat="38.0326" lon="22.108">
    <comp name="--.HNZ">
      <acc value="0.0059356640" flag="0"/>
      <vel value="0.0058069316" flag="0"/>
      <psa03 value="0.0135483219" flag="0"/>
      <psa10 value="0.0132676260" flag="0"/>
      <psa30 value="0.0005014054" flag="0"/>
    </comp>
    <comp name="--.HNE">
      <acc value="0.0108469939" flag="0"/>
      <vel value="0.0065744831" flag="0"/>
      <psa03 value="0.0296135537" flag="0"/>
      <psa10 value="0.0085946302" flag="0"/>
      <psa30 value="0.0005301112" flag="0"/>
    </comp>
    <comp name="--.HNN">
      <acc value="0.0101800768" flag="0"/>
      <vel value="0.0069218788" flag="0"/>
      <psa03 value="0.0285493674" flag="0"/>
      <psa10 value="0.0092763019" flag="0"/>
      <psa30 value="0.0006869454" flag="0"/>
    </comp>
  </station>
  <station code="MSL1" name="MSL1" netid="HI" insttype="CMG-5TD,ACCELEROMETER,GURALP" lat="38.3727" lon="21.4243">
    <comp name="--.HNN">
      <acc value="0.0923465632" flag="0"/>
      <vel value="0.0493778229" flag="0"/>
      <psa03 value="0.3060094114" flag="0"/>
      <psa10 value="0.0603311377" flag="0"/>
      <psa30 value="0.0024292585" flag="0"/>
    </comp>
    <comp name="--.HNZ">
      <acc value="0.0616979798" flag="0"/>
      <vel value="0.0222094517" flag="0"/>
      <psa03 value="0.0941889712" flag="0"/>
      <psa10 value="0.0563156325" flag="0"/>
      <psa30 value="0.0016966691" flag="0"/>
    </comp>
    <comp name="--.HNE">
      <acc value="0.0757366244" flag="0"/>
      <vel value="0.0433342793" flag="0"/>
      <psa03 value="0.2072392923" flag="0"/>
      <psa10 value="0.0654261117" flag="0"/>
      <psa30 value="0.0042997943" flag="0"/>
    </comp>
  </station>
  <station code="EVR" name="EVR" netid="HL" insttype="DR24" lat="38.9166" lon="21.8105">
    <comp name="--.HHE">
      <acc value="0.0547817830" flag="0"/>
      <vel value="0.0143191211" flag="0"/>
      <psa03 value="0.0778047377" flag="0"/>
      <psa10 value="0.0124267614" flag="0"/>
      <psa30 value="0.0008470823" flag="0"/>
    </comp>
    <comp name="--.HHZ">
      <acc value="0.0248792197" flag="0"/>
      <vel value="0.0105371765" flag="0"/>
      <psa03 value="0.0492655247" flag="0"/>
      <psa10 value="0.0181926238" flag="0"/>
      <psa30 value="0.0011424085" flag="0"/>
    </comp>
    <comp name="--.HHN">
      <acc value="0.0333796554" flag="0"/>
      <vel value="0.0167060914" flag="0"/>
      <psa03 value="0.0488578664" flag="0"/>
      <psa10 value="0.0181153367" flag="0"/>
      <psa30 value="0.0009610893" flag="0"/>
    </comp>
  </station>
  <station code="JAN" name="JAN" netid="HL" insttype="CMG3EPSC60_DR24" lat="39.6562" lon="20.8487">
    <comp name="--.HHE">
      <acc value="0.0132367745" flag="0"/>
      <vel value="0.0111635006" flag="0"/>
      <psa03 value="0.0366838871" flag="0"/>
      <psa10 value="0.0128648957" flag="0"/>
      <psa30 value="0.0010009095" flag="0"/>
    </comp>
    <comp name="--.HHZ">
      <acc value="0.0102804301" flag="0"/>
      <vel value="0.0046225844" flag="0"/>
      <psa03 value="0.0227278239" flag="0"/>
      <psa10 value="0.0091960118" flag="0"/>
      <psa30 value="0.0005080176" flag="0"/>
    </comp>
    <comp name="--.HHN">
      <acc value="0.0108149973" flag="0"/>
      <vel value="0.0060133305" flag="0"/>
      <psa03 value="0.0305025384" flag="0"/>
      <psa10 value="0.0053304327" flag="0"/>
      <psa30 value="0.0006287164" flag="0"/>
    </comp>
  </station>
  <station code="KLV" name="KLV" netid="HL" insttype="120" lat="38.0435" lon="22.1504">
    <comp name="--.HHE">
      <acc value="0.0026700150" flag="0"/>
      <vel value="0.0034996417" flag="0"/>
      <psa03 value="0.0073286567" flag="0"/>
      <psa10 value="0.0057901329" flag="0"/>
      <psa30 value="0.0004536567" flag="0"/>
    </comp>
    <comp name="--.HHN">
      <acc value="0.0038124698" flag="0"/>
      <vel value="0.0040226793" flag="0"/>
      <psa03 value="0.0093102931" flag="0"/>
      <psa10 value="0.0085707111" flag="0"/>
      <psa30 value="0.0004872587" flag="0"/>
    </comp>
    <comp name="--.HHZ">
      <acc value="0.0030721195" flag="0"/>
      <vel value="0.0029892251" flag="0"/>
      <psa03 value="0.0073291585" flag="0"/>
      <psa10 value="0.0054545678" flag="0"/>
      <psa30 value="0.0003929047" flag="0"/>
    </comp>
  </station>
  <station code="RLS" name="RLS" netid="HL" insttype="CMG3ESPC-120s" lat="38.0559" lon="21.4647">
    <comp name="--.HHN">
      <acc value="0.0082228234" flag="0"/>
      <vel value="0.0044996686" flag="0"/>
      <psa03 value="0.0294768165" flag="0"/>
      <psa10 value="0.0046115612" flag="0"/>
      <psa30 value="0.0003018428" flag="0"/>
    </comp>
    <comp name="--.HHE">
      <acc value="0.0096017922" flag="0"/>
      <vel value="0.0061730023" flag="0"/>
      <psa03 value="0.0186915271" flag="0"/>
      <psa10 value="0.0059243021" flag="0"/>
      <psa30 value="0.0003266969" flag="0"/>
    </comp>
    <comp name="--.HHZ">
      <acc value="0.0073889900" flag="0"/>
      <vel value="0.0027141080" flag="0"/>
      <psa03 value="0.0163403478" flag="0"/>
      <psa10 value="0.0050480012" flag="0"/>
      <psa30 value="0.0002457853" flag="0"/>
    </comp>
  </station>
  <station code="SOFA" name="SOFA" netid="HL" insttype="CMG-5" lat="39.3377" lon="22.0969">
    <comp name="00.HNE">
      <acc value="0.0308148511" flag="0"/>
      <vel value="0.0243032388" flag="0"/>
      <psa03 value="0.1426901258" flag="0"/>
      <psa10 value="0.0211362470" flag="0"/>
      <psa30 value="0.0013516370" flag="0"/>
    </comp>
    <comp name="00.HNN">
      <acc value="0.0423903912" flag="0"/>
      <vel value="0.0327936511" flag="0"/>
      <psa03 value="0.1520125965" flag="0"/>
      <psa10 value="0.0276897794" flag="0"/>
      <psa30 value="0.0035092985" flag="0"/>
    </comp>
    <comp name="00.HNZ">
      <acc value="0.0206856243" flag="0"/>
      <vel value="0.0089367343" flag="0"/>
      <psa03 value="0.0693731922" flag="0"/>
      <psa10 value="0.0115030765" flag="0"/>
      <psa30 value="0.0006588790" flag="0"/>
    </comp>
  </station>
  <station code="TETR" name="TETR" netid="HL" insttype="60" lat="39.3445" lon="21.2747">
    <comp name="--.HHN">
      <acc value="0.0581216736" flag="0"/>
      <vel value="0.0181152923" flag="0"/>
      <psa03 value="0.0825643638" flag="0"/>
      <psa10 value="0.0125290291" flag="0"/>
      <psa30 value="0.0013089582" flag="0"/>
    </comp>
    <comp name="--.HHE">
      <acc value="0.0591917248" flag="0"/>
      <vel value="0.0286441478" flag="0"/>
      <psa03 value="0.1266006442" flag="0"/>
      <psa10 value="0.0214503512" flag="0"/>
      <psa30 value="0.0014347691" flag="0"/>
    </comp>
    <comp name="--.HHZ">
      <acc value="0.0206655418" flag="0"/>
      <vel value="0.0174344840" flag="0"/>
      <psa03 value="0.0497116088" flag="0"/>
      <psa10 value="0.0153838746" flag="0"/>
      <psa30 value="0.0009138447" flag="0"/>
    </comp>
  </station>
  <station code="THL" name="THL" netid="HL" insttype="120" lat="39.5647" lon="22.0144">
    <comp name="--.HHN">
      <acc value="0.0062344076" flag="0"/>
      <vel value="0.0036642913" flag="0"/>
      <psa03 value="0.0225319259" flag="0"/>
      <psa10 value="0.0060255490" flag="0"/>
      <psa30 value="0.0003380951" flag="0"/>
    </comp>
    <comp name="--.HHE">
      <acc value="0.0106020867" flag="0"/>
      <vel value="0.0073667792" flag="0"/>
      <psa03 value="0.0315297255" flag="0"/>
      <psa10 value="0.0076918179" flag="0"/>
      <psa30 value="0.0006330600" flag="0"/>
    </comp>
    <comp name="--.HHZ">
      <acc value="0.0052698902" flag="0"/>
      <vel value="0.0033996339" flag="0"/>
      <psa03 value="0.0132241004" flag="0"/>
      <psa10 value="0.0033104829" flag="0"/>
      <psa30 value="0.0002996308" flag="0"/>
    </comp>
  </station>
  <station code="VLS" name="VLS" netid="HL" insttype="120P," lat="38.1768" lon="20.5886">
    <comp name="--.HHZ">
      <acc value="0.0601193979" flag="0"/>
      <vel value="0.0118196515" flag="0"/>
      <psa03 value="0.0493581604" flag="0"/>
      <psa10 value="0.0063979874" flag="0"/>
      <psa30 value="0.0003804685" flag="0"/>
    </comp>
    <comp name="--.HHN">
      <acc value="0.0903851095" flag="0"/>
      <vel value="0.0198319568" flag="0"/>
      <psa03 value="0.0828972378" flag="0"/>
      <psa10 value="0.0091013755" flag="0"/>
      <psa30 value="0.0003890136" flag="0"/>
    </comp>
    <comp name="--.HHE">
      <acc value="0.1840137771" flag="0"/>
      <vel value="0.0209947984" flag="0"/>
      <psa03 value="0.0579956305" flag="0"/>
      <psa10 value="0.0085649249" flag="0"/>
      <psa30 value="0.0003750753" flag="0"/>
    </comp>
  </station>
  <station code="AMPL" name="AMPL" netid="HP" insttype="Compact," lat="38.9224" lon="21.2135">
    <comp name="--.HHN">
      <acc value="0.7727639599" flag="0"/>
      <vel value="0.1418007018" flag="0"/>
      <psa03 value="0.4353222149" flag="0"/>
      <psa10 value="0.0664640225" flag="0"/>
      <psa30 value="0.0062763670" flag="0"/>
    </comp>
    <comp name="--.HHE">
      <acc value="0.6953663211" flag="0"/>
      <vel value="0.1534205813" flag="0"/>
      <psa03 value="0.6400397652" flag="0"/>
      <psa10 value="0.0608587899" flag="0"/>
      <psa30 value="0.0062658658" flag="0"/>
    </comp>
    <comp name="--.HHZ">
      <acc value="0.4339661661" flag="0"/>
      <vel value="0.0523353582" flag="0"/>
      <psa03 value="0.2176468368" flag="0"/>
      <psa10 value="0.0290584112" flag="0"/>
      <psa30 value="0.0018117295" flag="0"/>
    </comp>
  </station>
  <station code="ANX" name="ANX" netid="HP" insttype="120" lat="38.5933" lon="21.9209">
    <comp name="--.HHZ">
      <acc value="0.0110927701" flag="0"/>
      <vel value="0.0082728351" flag="0"/>
      <psa03 value="0.0430237795" flag="0"/>
      <psa10 value="0.0085759326" flag="0"/>
      <psa30 value="0.0004846166" flag="0"/>
    </comp>
    <comp name="--.HHE">
      <acc value="0.0208507230" flag="0"/>
      <vel value="0.0118219048" flag="0"/>
      <psa03 value="0.0542652400" flag="0"/>
      <psa10 value="0.0187628223" flag="0"/>
      <psa30 value="0.0007461470" flag="0"/>
    </comp>
    <comp name="--.HHN">
      <acc value="0.0250733225" flag="0"/>
      <vel value="0.0168320664" flag="0"/>
      <psa03 value="0.0740850765" flag="0"/>
      <psa10 value="0.0143888054" flag="0"/>
      <psa30 value="0.0013187755" flag="0"/>
    </comp>
  </station>
  <station code="AXS" name="AXS" netid="HP" insttype="40," lat="38.1962" lon="21.3763">
    <comp name="--.HHE">
      <acc value="0.0072816354" flag="0"/>
      <vel value="0.0037295094" flag="0"/>
      <psa03 value="0.0154955576" flag="0"/>
      <psa10 value="0.0017069009" flag="0"/>
      <psa30 value="0.0001804585" flag="0"/>
    </comp>
    <comp name="--.HHZ">
      <acc value="0.0053557313" flag="0"/>
      <vel value="0.0018796667" flag="0"/>
      <psa03 value="0.0083371776" flag="0"/>
      <psa10 value="0.0012778540" flag="0"/>
      <psa30 value="0.0001581719" flag="0"/>
    </comp>
    <comp name="--.HHN">
      <acc value="0.0074803826" flag="0"/>
      <vel value="0.0041392627" flag="0"/>
      <psa03 value="0.0253255794" flag="0"/>
      <psa10 value="0.0019875379" flag="0"/>
      <psa30 value="0.0001419851" flag="0"/>
    </comp>
  </station>
  <station code="DRO" name="DRO" netid="HP" insttype="120P," lat="37.952" lon="21.71">
    <comp name="--.HHE">
      <acc value="0.0226368050" flag="0"/>
      <vel value="0.0142355089" flag="0"/>
      <psa03 value="0.0681515454" flag="0"/>
      <psa10 value="0.0100531332" flag="0"/>
      <psa30 value="0.0005209873" flag="0"/>
    </comp>
    <comp name="--.HHN">
      <acc value="0.0145644937" flag="0"/>
      <vel value="0.0091222306" flag="0"/>
      <psa03 value="0.0534694801" flag="0"/>
      <psa10 value="0.0078481736" flag="0"/>
      <psa30 value="0.0006850311" flag="0"/>
    </comp>
    <comp name="--.HHZ">
      <acc value="0.0075686675" flag="0"/>
      <vel value="0.0041172402" flag="0"/>
      <psa03 value="0.0206267012" flag="0"/>
      <psa10 value="0.0063791554" flag="0"/>
      <psa30 value="0.0003762355" flag="0"/>
    </comp>
  </station>
  <station code="DSF" name="DSF" netid="HP" insttype="40," lat="38.4112" lon="22.5271">
    <comp name="--.HHZ">
      <acc value="0.0011574769" flag="0"/>
      <vel value="0.0005718244" flag="0"/>
      <psa03 value="0.0021999312" flag="0"/>
      <psa10 value="0.0006661724" flag="0"/>
      <psa30 value="0.0000481728" flag="0"/>
    </comp>
    <comp name="--.HHN">
      <acc value="0.0028508940" flag="0"/>
      <vel value="0.0010905677" flag="0"/>
      <psa03 value="0.0052371616" flag="0"/>
      <psa10 value="0.0009693909" flag="0"/>
      <psa30 value="0.0000999488" flag="0"/>
    </comp>
    <comp name="--.HHE">
      <acc value="0.0014991927" flag="0"/>
      <vel value="0.0010535197" flag="0"/>
      <psa03 value="0.0046052591" flag="0"/>
      <psa10 value="0.0012135566" flag="0"/>
      <psa30 value="0.0000747650" flag="0"/>
    </comp>
  </station>
  <station code="EFP" name="EFP" netid="HP" insttype="40," lat="38.4269" lon="21.9058">
    <comp name="--.HHE">
      <acc value="0.0187650182" flag="0"/>
      <vel value="0.0110457284" flag="0"/>
      <psa03 value="0.0416562371" flag="0"/>
      <psa10 value="0.0111156900" flag="0"/>
      <psa30 value="0.0008077701" flag="0"/>
    </comp>
    <comp name="--.HHN">
      <acc value="0.0153602385" flag="0"/>
      <vel value="0.0100988148" flag="0"/>
      <psa03 value="0.0496678043" flag="0"/>
      <psa10 value="0.0134349979" flag="0"/>
      <psa30 value="0.0008088357" flag="0"/>
    </comp>
    <comp name="--.HHZ">
      <acc value="0.0113851958" flag="0"/>
      <vel value="0.0081898790" flag="0"/>
      <psa03 value="0.0374043469" flag="0"/>
      <psa10 value="0.0085617737" flag="0"/>
      <psa30 value="0.0006106495" flag="0"/>
    </comp>
  </station>
  <station code="FSK" name="FSK" netid="HP" insttype="40," lat="38.4593" lon="20.5623">
    <comp name="--.HHE">
      <acc value="0.1548860467" flag="0"/>
      <vel value="0.0349676429" flag="0"/>
      <psa03 value="0.1907954649" flag="0"/>
      <psa10 value="0.0183987814" flag="0"/>
      <psa30 value="0.0010896311" flag="0"/>
    </comp>
    <comp name="--.HHZ">
      <acc value="0.0533007395" flag="0"/>
      <vel value="0.0160488338" flag="0"/>
      <psa03 value="0.0572400122" flag="0"/>
      <psa10 value="0.0074127961" flag="0"/>
      <psa30 value="0.0006494661" flag="0"/>
    </comp>
    <comp name="--.HHN">
      <acc value="0.0924818714" flag="0"/>
      <vel value="0.0267267150" flag="0"/>
      <psa03 value="0.0905203753" flag="0"/>
      <psa10 value="0.0111070170" flag="0"/>
      <psa30 value="0.0007423580" flag="0"/>
    </comp>
  </station>
  <station code="KSTR" name="KSTR" netid="HP" insttype="Compact," lat="39.2492" lon="20.576">
    <comp name="--.HHZ">
      <acc value="0.0089512251" flag="0"/>
      <vel value="0.0049622368" flag="0"/>
      <psa03 value="0.0147598928" flag="0"/>
      <psa10 value="0.0077128560" flag="0"/>
      <psa30 value="0.0004536682" flag="0"/>
    </comp>
    <comp name="--.HHN">
      <acc value="0.0178154897" flag="0"/>
      <vel value="0.0112655348" flag="0"/>
      <psa03 value="0.0188637616" flag="0"/>
      <psa10 value="0.0129563226" flag="0"/>
      <psa30 value="0.0007552228" flag="0"/>
    </comp>
    <comp name="--.HHE">
      <acc value="0.0136306758" flag="0"/>
      <vel value="0.0089844644" flag="0"/>
      <psa03 value="0.0191236689" flag="0"/>
      <psa10 value="0.0067722106" flag="0"/>
      <psa30 value="0.0005312915" flag="0"/>
    </comp>
  </station>
  <station code="PDO" name="PDO" netid="HP" insttype="120s" lat="38.5986" lon="21.1833">
    <comp name="--.HHE">
      <acc value="0.2963562466" flag="0"/>
      <vel value="0.1185126447" flag="0"/>
      <psa03 value="0.5118992821" flag="0"/>
      <psa10 value="0.0808738163" flag="0"/>
      <psa30 value="0.0055029860" flag="0"/>
    </comp>
    <comp name="--.HHN">
      <acc value="0.4280781213" flag="0"/>
