<stationlist created="1775820761">
	<station code="AGRP" name="AGRP" netid="CL" source="Corinth Riff Laboratory (CRLNET)" insttype="" lat="38.3959" lon="21.72277">
		<comp name="00.HNE" depth="0.0">
			<acc value="0.0174667947075833" flag="0"/>
			<vel value="0.0110206926374344" flag="0"/>
			<psa03 value="0.0525397357079392" flag="0"/>
			<psa10 value="0.0157770514022258" flag="0"/>
			<psa30 value="0.000968169448975622" flag="0"/>
		</comp>
		<comp name="00.HNN" depth="0.0">
			<acc value="0.0162390013273516" flag="0"/>
			<vel value="0.00969871482749513" flag="0"/>
			<psa03 value="0.039460244255836" flag="0"/>
			<psa10 value="0.00902070132719298" flag="0"/>
			<psa30 value="0.00148194056712359" flag="0"/>
		</comp>
		<comp name="00.HNZ" depth="0.0">
			<acc value="0.0150863087208716" flag="0"/>
			<vel value="0.00572022160744292" flag="0"/>
			<psa03 value="0.0219512640593377" flag="0"/>
			<psa10 value="0.00775335174649954" flag="0"/>
			<psa30 value="0.000779341002516981" flag="0"/>
		</comp>
	</station>
	<station code="ROD3" name="ROD3" netid="CL" source="Corinth Riff Laboratory (CRLNET)" insttype="" lat="38.30811" lon="21.89204">
		<comp name="00.HNE" depth="0.0">
			<acc value="0.0276284320161974" flag="0"/>
			<vel value="0.0144674990570538" flag="0"/>
			<psa03 value="0.127527666832014" flag="0"/>
			<psa10 value="0.0121594370655291" flag="0"/>
			<psa30 value="0.000961285555448459" flag="0"/>
		</comp>
		<comp name="00.HNN" depth="0.0">
			<acc value="0.025205548055522" flag="0"/>
			<vel value="0.0144264793916828" flag="0"/>
			<psa03 value="0.0924468428994876" flag="0"/>
			<psa10 value="0.0115333471526547" flag="0"/>
			<psa30 value="0.000875225687740303" flag="0"/>
		</comp>
		<comp name="00.HNZ" depth="0.0">
			<acc value="0.0129122216536817" flag="0"/>
			<vel value="0.00555176939699139" flag="0"/>
			<psa03 value="0.0227792668271446" flag="0"/>
			<psa10 value="0.00496126225300936" flag="0"/>
			<psa30 value="0.000382195422737903" flag="0"/>
		</comp>
	</station>
	<station code="AIGS" name="AIGS" netid="HA" source="Hellenic Seismological Network, University of Athens, Seismological Laboratory (HA)" insttype="" lat="38.25001" lon="22.0878">
		<comp name="--.HNE" depth="0.0">
			<acc value="0.0149632121642578" flag="0"/>
			<vel value="0.0103395908015001" flag="0"/>
			<psa03 value="0.0408902634667735" flag="0"/>
			<psa10 value="0.0126734086136175" flag="0"/>
			<psa30 value="0.000898790269612555" flag="0"/>
		</comp>
		<comp name="--.HNN" depth="0.0">
			<acc value="0.0173000486821316" flag="0"/>
			<vel value="0.0087623346562356" flag="0"/>
			<psa03 value="0.0340903286294801" flag="0"/>
			<psa10 value="0.00843223296907043" flag="0"/>
			<psa30 value="0.00106877809296789" flag="0"/>
		</comp>
		<comp name="--.HNZ" depth="0.0">
			<acc value="0.0104592534833573" flag="0"/>
			<vel value="0.00450840927585915" flag="0"/>
			<psa03 value="0.0150580873681392" flag="0"/>
			<psa10 value="0.00610956066592075" flag="0"/>
			<psa30 value="0.000846987410843015" flag="0"/>
		</comp>
	</station>
	<station code="DRES" name="DRES" netid="HA" source="Hellenic Seismological Network, University of Athens, Seismological Laboratory (HA)" insttype="" lat="38.319719" lon="21.853176">
		<comp name="--.HNE" depth="0.0">
			<acc value="0.0152820791391764" flag="0"/>
			<vel value="0.012241443000622" flag="0"/>
			<psa03 value="0.0457457595987975" flag="0"/>
			<psa10 value="0.0262908091370739" flag="0"/>
			<psa30 value="0.000875907087046267" flag="0"/>
		</comp>
		<comp name="--.HNN" depth="0.0">
			<acc value="0.0150556450162525" flag="0"/>
			<vel value="0.00942546483542448" flag="0"/>
			<psa03 value="0.0411152679555374" flag="0"/>
			<psa10 value="0.016074746123028" flag="0"/>
			<psa30 value="0.00117300114306696" flag="0"/>
		</comp>
		<comp name="--.HNZ" depth="0.0">
			<acc value="0.00659077888511393" flag="0"/>
			<vel value="0.00416511608944335" flag="0"/>
			<psa03 value="0.0173033637108592" flag="0"/>
			<psa10 value="0.0072982122207468" flag="0"/>
			<psa30 value="0.000716825298660097" flag="0"/>
		</comp>
	</station>
	<station code="KIAS" name="KIAS" netid="HA" source="Hellenic Seismological Network, University of Athens, Seismological Laboratory (HA)" insttype="" lat="37.9875" lon="22.7543">
		<comp name="--.HNE" depth="0.0">
			<acc value="0.0066531106846964" flag="0"/>
			<vel value="0.00436196768543765" flag="0"/>
			<psa03 value="0.0124879145026314" flag="0"/>
			<psa10 value="0.0101724401242352" flag="0"/>
			<psa30 value="0.0012640147764433" flag="0"/>
		</comp>
		<comp name="--.HNN" depth="0.0">
			<acc value="0.00530761750809663" flag="0"/>
			<vel value="0.00409381768373598" flag="0"/>
			<psa03 value="0.0137722730225914" flag="0"/>
			<psa10 value="0.00754969825546296" flag="0"/>
			<psa30 value="0.00109847381016342" flag="0"/>
		</comp>
		<comp name="--.HNZ" depth="0.0">
			<acc value="0.00591390939143914" flag="0"/>
			<vel value="0.00241070617405727" flag="0"/>
			<psa03 value="0.00778529763882191" flag="0"/>
			<psa10 value="0.00389649359232948" flag="0"/>
			<psa30 value="0.000598326042412598" flag="0"/>
		</comp>
	</station>
	<station code="LTRS" name="LTRS" netid="HA" source="Hellenic Seismological Network, University of Athens, Seismological Laboratory (HA)" insttype="" lat="37.97528" lon="22.9765">
		<comp name="--.HNE" depth="0.0">
			<acc value="0.0042285947355777" flag="0"/>
			<vel value="0.00399487133437785" flag="0"/>
			<psa03 value="0.012318498331721" flag="0"/>
			<psa10 value="0.00783030356291418" flag="0"/>
			<psa30 value="0.000798770102101286" flag="0"/>
		</comp>
		<comp name="--.HNN" depth="0.0">
			<acc value="0.00372069811374816" flag="0"/>
			<vel value="0.00464964759149348" flag="0"/>
			<psa03 value="0.0142306627636451" flag="0"/>
			<psa10 value="0.00791271574109674" flag="0"/>
			<psa30 value="0.000841278907683119" flag="0"/>
		</comp>
		<comp name="--.HNZ" depth="0.0">
			<acc value="0.00483301324600509" flag="0"/>
			<vel value="0.00278137221151111" flag="0"/>
			<psa03 value="0.00559260355547098" flag="0"/>
			<psa10 value="0.00625137724807441" flag="0"/>
			<psa30 value="0.000638672048473254" flag="0"/>
		</comp>
	</station>
	<station code="ARG2" name="ARG2" netid="HI" source="ITSAK Strong Motion Network" insttype="" lat="38.1783" lon="20.4878">
		<comp name="--.HNE" depth="0.0">
			<acc value="0.147399980522504" flag="0"/>
			<vel value="0.0451854317378592" flag="0"/>
			<psa03 value="0.119573566995154" flag="0"/>
			<psa10 value="0.018361415103622" flag="0"/>
			<psa30 value="0.00111467457088471" flag="0"/>
		</comp>
		<comp name="--.HNN" depth="0.0">
			<acc value="0.155497503361753" flag="0"/>
			<vel value="0.0459852551707599" flag="0"/>
			<psa03 value="0.191726950969491" flag="0"/>
			<psa10 value="0.0179604872941401" flag="0"/>
			<psa30 value="0.000952489764439944" flag="0"/>
		</comp>
		<comp name="--.HNZ" depth="0.0">
			<acc value="0.0753244219700944" flag="0"/>
			<vel value="0.0197553514266873" flag="0"/>
			<psa03 value="0.143992799233082" flag="0"/>
			<psa10 value="0.00749887020083127" flag="0"/>
			<psa30 value="0.000581797603734085" flag="0"/>
		</comp>
	</station>
	<station code="ART2" name="ART2" netid="HI" source="ITSAK Strong Motion Network" insttype="" lat="39.1474" lon="20.9937">
		<comp name="--.HNE" depth="0.0">
			<acc value="0.0648941018835953" flag="0"/>
			<vel value="0.0306732339095368" flag="0"/>
			<psa03 value="0.100990752641586" flag="0"/>
			<psa10 value="0.0297630554063411" flag="0"/>
			<psa30 value="0.00227240678579865" flag="0"/>
		</comp>
		<comp name="--.HNN" depth="0.0">
			<acc value="0.0908320616598039" flag="0"/>
			<vel value="0.05521696114128" flag="0"/>
			<psa03 value="0.146727094949951" flag="0"/>
			<psa10 value="0.0482702876695288" flag="0"/>
			<psa30 value="0.00272473570870314" flag="0"/>
		</comp>
		<comp name="--.HNZ" depth="0.0">
			<acc value="0.05853108244996" flag="0"/>
			<vel value="0.0254097497355619" flag="0"/>
			<psa03 value="0.105884722676767" flag="0"/>
			<psa10 value="0.0170168066549466" flag="0"/>
			<psa30 value="0.00168491776336728" flag="0"/>
		</comp>
	</station>
	<station code="KLV1" name="KLV1" netid="HI" source="ITSAK Strong Motion Network" insttype="" lat="38.03256" lon="22.10797">
		<comp name="--.HNE" depth="0.0">
			<acc value="0.0107764137830011" flag="0"/>
			<vel value="0.00654776781398493" flag="0"/>
			<psa03 value="0.0298642856540247" flag="0"/>
			<psa10 value="0.00859407212759787" flag="0"/>
			<psa30 value="0.000548198919655111" flag="0"/>
		</comp>
		<comp name="--.HNN" depth="0.0">
			<acc value="0.0100283475412862" flag="0"/>
			<vel value="0.00693958698201913" flag="0"/>
			<psa03 value="0.0280692396577005" flag="0"/>
			<psa10 value="0.00927959972794714" flag="0"/>
			<psa30 value="0.000682680588821212" flag="0"/>
		</comp>
		<comp name="--.HNZ" depth="0.0">
			<acc value="0.00509543727313998" flag="0"/>
			<vel value="0.00577482637076316" flag="0"/>
			<psa03 value="0.0135962561539819" flag="0"/>
			<psa10 value="0.013282131125999" flag="0"/>
			<psa30 value="0.000493708747447138" flag="0"/>
		</comp>
	</station>
	<station code="MSL1" name="MSL1" netid="HI" source="ITSAK Strong Motion Network" insttype="" lat="38.3727" lon="21.4243">
		<comp name="--.HNE" depth="0.0">
			<acc value="0.0753608703237884" flag="0"/>
			<vel value="0.0440398562891574" flag="0"/>
			<psa03 value="0.206074130566637" flag="0"/>
			<psa10 value="0.0655959929126332" flag="0"/>
			<psa30 value="0.00454449980081095" flag="0"/>
		</comp>
		<comp name="--.HNN" depth="0.0">
			<acc value="0.0932571797936025" flag="0"/>
			<vel value="0.0499284806549073" flag="0"/>
			<psa03 value="0.30398426246561" flag="0"/>
			<psa10 value="0.0603998436933025" flag="0"/>
			<psa30 value="0.00265995787582328" flag="0"/>
		</comp>
		<comp name="--.HNZ" depth="0.0">
			<acc value="0.0559719671016833" flag="0"/>
			<vel value="0.0222113746566977" flag="0"/>
			<psa03 value="0.0970171769118757" flag="0"/>
			<psa10 value="0.0564243290849903" flag="0"/>
			<psa30 value="0.0017113789954584" flag="0"/>
		</comp>
	</station>
	<station code="VAS2" name="VAS2" netid="HI" source="ITSAK Strong Motion Network" insttype="" lat="38.630558" lon="20.608081">
		<comp name="--.HNE" depth="0.0">
			<acc value="0.265052603924188" flag="0"/>
			<vel value="0.125714776307653" flag="0"/>
			<psa03 value="0.516253907622232" flag="0"/>
			<psa10 value="0.145871853294269" flag="0"/>
			<psa30 value="0.00637420184292436" flag="0"/>
		</comp>
		<comp name="--.HNN" depth="0.0">
			<acc value="0.352355045405743" flag="0"/>
			<vel value="0.15755816910038" flag="0"/>
			<psa03 value="0.710874175260718" flag="0"/>
			<psa10 value="0.126137866014502" flag="0"/>
			<psa30 value="0.00539303601218693" flag="0"/>
		</comp>
		<comp name="--.HNZ" depth="0.0">
			<acc value="0.102410252693896" flag="0"/>
			<vel value="0.0575395722196433" flag="0"/>
			<psa03 value="0.367016021343491" flag="0"/>
			<psa10 value="0.0795913725379722" flag="0"/>
			<psa30 value="0.0027938738304304" flag="0"/>
		</comp>
	</station>
	<station code="ITM" name="ITM" netid="HL" source="National Observatory of Athens Seismic Network" insttype="" lat="37.17872" lon="21.92522">
		<comp name="--.HNE" depth="0.0">
			<acc value="0.00204757445474738" flag="0"/>
			<vel value="0.00173076516069538" flag="0"/>
			<psa03 value="0.0061754234144038" flag="0"/>
			<psa10 value="0.00187415934917314" flag="0"/>
			<psa30 value="0.00025048721854876" flag="0"/>
		</comp>
		<comp name="--.HNN" depth="0.0">
			<acc value="0.00248636224486903" flag="0"/>
			<vel value="0.00116034297126745" flag="0"/>
			<psa03 value="0.00979457592590525" flag="0"/>
			<psa10 value="0.00146155971178095" flag="0"/>
			<psa30 value="0.000188127084891921" flag="0"/>
		</comp>
		<comp name="--.HNZ" depth="0.0">
			<acc value="0.00279879810224571" flag="0"/>
			<vel value="0.00130534377166004" flag="0"/>
			<psa03 value="0.00731667870447145" flag="0"/>
			<psa10 value="0.00226891483572124" flag="0"/>
			<psa30 value="0.000198190746351984" flag="0"/>
		</comp>
	</station>
	<station code="PATC" name="PATC" netid="HL" source="National Observatory of Athens Seismic Network" insttype="" lat="38.26933" lon="21.76001">
		<comp name="00.HNE" depth="0.0">
			<acc value="0.0215795982752977" flag="0"/>
			<vel value="0.0128142122762894" flag="0"/>
			<psa03 value="0.0566911044657775" flag="0"/>
			<psa10 value="0.0213931234394433" flag="0"/>
			<psa30 value="0.0017715619406163" flag="0"/>
		</comp>
		<comp name="00.HNN" depth="0.0">
			<acc value="0.0194083795473918" flag="0"/>
			<vel value="0.0147402668490561" flag="0"/>
			<psa03 value="0.0616402969086347" flag="0"/>
			<psa10 value="0.0259063974216675" flag="0"/>
			<psa30 value="0.00215488045858787" flag="0"/>
		</comp>
		<comp name="00.HNZ" depth="0.0">
			<acc value="0.0173069772953611" flag="0"/>
			<vel value="0.00851320881741021" flag="0"/>
			<psa03 value="0.0361794149378305" flag="0"/>
			<psa10 value="0.0121251766709477" flag="0"/>
			<psa30 value="0.000756955092477017" flag="0"/>
		</comp>
	</station>
	<station code="PATG" name="PATG" netid="HL" source="National Observatory of Athens Seismic Network" insttype="" lat="38.23865" lon="21.72657">
		<comp name="00.HNE" depth="0.0">
			<acc value="0.0245087206106395" flag="0"/>
			<vel value="0.0157816479046859" flag="0"/>
			<psa03 value="0.0579621782517157" flag="0"/>
			<psa10 value="0.0172231659501989" flag="0"/>
			<psa30 value="0.00206799157762483" flag="0"/>
		</comp>
		<comp name="00.HNN" depth="0.0">
			<acc value="0.0227279838837835" flag="0"/>
			<vel value="0.0184954838701311" flag="0"/>
			<psa03 value="0.0618440604069723" flag="0"/>
			<psa10 value="0.0220396475184872" flag="0"/>
			<psa30 value="0.00175350949473038" flag="0"/>
		</comp>
		<comp name="00.HNZ" depth="0.0">
			<acc value="0.0164008580323299" flag="0"/>
			<vel value="0.00881543772808314" flag="0"/>
			<psa03 value="0.0443740124772246" flag="0"/>
			<psa10 value="0.0137167661684574" flag="0"/>
			<psa30 value="0.00112892009791502" flag="0"/>
		</comp>
	</station>
	<station code="RIOA" name="RIOA" netid="HL" source="National Observatory of Athens Seismic Network" insttype="" lat="38.29585" lon="21.79118">
		<comp name="00.HNE" depth="0.0">
			<acc value="0.0207601918009122" flag="0"/>
			<vel value="0.011675622821231" flag="0"/>
			<psa03 value="0.0383150772483339" flag="0"/>
			<psa10 value="0.0111110438646307" flag="0"/>
			<psa30 value="0.00122378159035772" flag="0"/>
		</comp>
		<comp name="00.HNN" depth="0.0">
			<acc value="0.0210363964153102" flag="0"/>
			<vel value="0.00890007101513058" flag="0"/>
			<psa03 value="0.0660517506043904" flag="0"/>
			<psa10 value="0.0147589527081989" flag="0"/>
			<psa30 value="0.0020279618425182" flag="0"/>
		</comp>
		<comp name="00.HNZ" depth="0.0">
			<acc value="0.0204120654078442" flag="0"/>
			<vel value="0.00750219762487325" flag="0"/>
			<psa03 value="0.0337630309059294" flag="0"/>
			<psa10 value="0.00878026258678904" flag="0"/>
			<psa30 value="0.00119360063268322" flag="0"/>
		</comp>
	</station>
	<station code="SOFA" name="SOFA" netid="HL" source="National Observatory of Athens Seismic Network" insttype="" lat="39.33773" lon="22.09691">
		<comp name="00.HNE" depth="0.0">
			<acc value="0.030803057532669" flag="0"/>
			<vel value="0.0242921265126902" flag="0"/>
			<psa03 value="0.142917550919647" flag="0"/>
			<psa10 value="0.0211071576206148" flag="0"/>
			<psa30 value="0.00132665944717835" flag="0"/>
		</comp>
		<comp name="00.HNN" depth="0.0">
			<acc value="0.0422937591027489" flag="0"/>
			<vel value="0.0327866364595351" flag="0"/>
			<psa03 value="0.151573343073278" flag="0"/>
			<psa10 value="0.0276933664246039" flag="0"/>
			<psa30 value="0.00358159726324124" flag="0"/>
		</comp>
		<comp name="00.HNZ" depth="0.0">
			<acc value="0.020041627669606" flag="0"/>
			<vel value="0.00897368237690597" flag="0"/>
			<psa03 value="0.0692938143334742" flag="0"/>
			<psa10 value="0.011491324681369" flag="0"/>
			<psa30 value="0.000650608672548261" flag="0"/>
		</comp>
	</station>
	<station code="ANX" name="ANX" netid="HP" source="University of Patras, Seismological Laboratory (PSLNET)" insttype="" lat="38.5933" lon="21.9209">
		<comp name="--.HNE" depth="0.0">
			<acc value="0.0257112369159476" flag="0"/>
			<vel value="0.0150662399304319" flag="0"/>
			<psa03 value="0.068528378210589" flag="0"/>
			<psa10 value="0.0238840553264512" flag="0"/>
			<psa30 value="0.00103088402017372" flag="0"/>
		</comp>
		<comp name="--.HNN" depth="0.0">
			<acc value="0.0313877562364289" flag="0"/>
			<vel value="0.0208218756976146" flag="0"/>
			<psa03 value="0.0909694741978046" flag="0"/>
			<psa10 value="0.0178143269867442" flag="0"/>
			<psa30 value="0.00177418336427413" flag="0"/>
		</comp>
		<comp name="--.HNZ" depth="0.0">
			<acc value="0.0139300329364584" flag="0"/>
			<vel value="0.0104547588668276" flag="0"/>
			<psa03 value="0.0542717150262569" flag="0"/>
			<psa10 value="0.0105512227167177" flag="0"/>
			<psa30 value="0.000595194324537159" flag="0"/>
		</comp>
	</station>
	<station code="DSF" name="DSF" netid="HP" source="University of Patras, Seismological Laboratory (PSLNET)" insttype="" lat="38.4112" lon="22.5271">
		<comp name="--.HNE" depth="1.0">
			<acc value="0.00474398728279826" flag="0"/>
			<vel value="0.00355199332745596" flag="0"/>
			<psa03 value="0.0151523605403765" flag="0"/>
			<psa10 value="0.00429362193137485" flag="0"/>
			<psa30 value="0.000223843448321636" flag="0"/>
		</comp>
		<comp name="--.HNN" depth="1.0">
			<acc value="0.00833159693068923" flag="0"/>
			<vel value="0.00324279327782792" flag="0"/>
			<psa03 value="0.0172948045500886" flag="0"/>
			<psa10 value="0.00319226115913576" flag="0"/>
			<psa30 value="0.000252339763145856" flag="0"/>
		</comp>
		<comp name="--.HNZ" depth="1.0">
			<acc value="0.00323492364927053" flag="0"/>
			<vel value="0.00191961505195693" flag="0"/>
			<psa03 value="0.0070468138220583" flag="0"/>
			<psa10 value="0.00219698530511971" flag="0"/>
			<psa30 value="0.000136692036947235" flag="0"/>
		</comp>
	</station>
	<station code="FSK" name="FSK" netid="HP" source="University of Patras, Seismological Laboratory (PSLNET)" insttype="" lat="38.4593" lon="20.5623">
		<comp name="--.HNE" depth="0.0">
			<acc value="0.163352180515354" flag="0"/>
			<vel value="0.0362008431276159" flag="0"/>
			<psa03 value="0.202414388126363" flag="0"/>
			<psa10 value="0.0188244789043587" flag="0"/>
			<psa30 value="0.00104953348477641" flag="0"/>
		</comp>
		<comp name="--.HNN" depth="0.0">
			<acc value="0.0871598924128707" flag="0"/>
			<vel value="0.0220792591131401" flag="0"/>
			<psa03 value="0.0729729903525376" flag="0"/>
			<psa10 value="0.0138275653833386" flag="0"/>
			<psa30 value="0.000739477163816829" flag="0"/>
		</comp>
		<comp name="--.HNZ" depth="0.0">
			<acc value="0.0541976842593506" flag="0"/>
			<vel value="0.0162582305550576" flag="0"/>
			<psa03 value="0.058555608188489" flag="0"/>
			<psa10 value="0.00754586597032651" flag="0"/>
			<psa30 value="0.000687755820864578" flag="0"/>
		</comp>
	</station>
	<station code="LTHK" name="LTHK" netid="HP" source="University of Patras, Seismological Laboratory (PSLNET)" insttype="" lat="37.7095" lon="20.8367">
		<comp name="--.HNE" depth="0.0">
			<acc value="0.0127052774583652" flag="0"/>
			<vel value="0.00682759389928419" flag="0"/>
			<psa03 value="0.0363298936563259" flag="0"/>
			<psa10 value="0.00681181437428138" flag="0"/>
			<psa30 value="0.000494527864209133" flag="0"/>
		</comp>
		<comp name="--.HNN" depth="0.0">
			<acc value="0.0146904370888633" flag="0"/>
			<vel value="0.00787209927012911" flag="0"/>
			<psa03 value="0.0361566087395595" flag="0"/>
			<psa10 value="0.00802162951859459" flag="0"/>
			<psa30 value="0.000564778455468239" flag="0"/>
		</comp>
		<comp name="--.HNZ" depth="0.0">
			<acc value="0.00681969072612457" flag="0"/>
			<vel value="0.00445421414001542" flag="0"/>
