<?xml version="1.0" encoding="UTF-8" standalone="yes"?>
<!DOCTYPE earthquake SYSTEM "stationlist.dtd">
<stationlist created="" xmlns="ch.ethz.sed.shakemap.usgs.xml">
  <station code="APE" name="APE" netid="GE" insttype="STS-2/N" lat="37.0727" lon="25.523">
    <comp name="--.HHZ">
      <acc value="0.0497072697" flag="0"/>
      <vel value="0.0086845032" flag="0"/>
      <psa03 value="0.0454957194" flag="0"/>
      <psa10 value="0.0046091957" flag="0"/>
      <psa30 value="0.0006511202" flag="0"/>
    </comp>
    <comp name="--.HHE">
      <acc value="0.1187878187" flag="0"/>
      <vel value="0.0255263152" flag="0"/>
      <psa03 value="0.1112958494" flag="0"/>
      <psa10 value="0.0073323432" flag="0"/>
      <psa30 value="0.0006689933" flag="0"/>
    </comp>
    <comp name="--.HHN">
      <acc value="0.1281292972" flag="0"/>
      <vel value="0.0265290245" flag="0"/>
      <psa03 value="0.0756929880" flag="0"/>
      <psa10 value="0.0049811941" flag="0"/>
      <psa30 value="0.0006552210" flag="0"/>
    </comp>
  </station>
  <station code="THERA" name="THERA" netid="GE" insttype="STS-2/N" lat="36.367" lon="25.4753">
    <comp name="--.HHE">
      <acc value="0.1625760751" flag="0"/>
      <vel value="0.0316943882" flag="0"/>
      <psa03 value="0.0835486255" flag="0"/>
      <psa10 value="0.0067575313" flag="0"/>
      <psa30 value="0.0008780429" flag="0"/>
    </comp>
    <comp name="--.HHZ">
      <acc value="0.1380263596" flag="0"/>
      <vel value="0.0298628581" flag="0"/>
      <psa03 value="0.0856331403" flag="0"/>
      <psa10 value="0.0070594027" flag="0"/>
      <psa30 value="0.0005029934" flag="0"/>
    </comp>
    <comp name="--.HHN">
      <acc value="0.1135798016" flag="0"/>
      <vel value="0.0208688038" flag="0"/>
      <psa03 value="0.0641449322" flag="0"/>
      <psa10 value="0.0046242058" flag="0"/>
      <psa30 value="0.0003120426" flag="0"/>
    </comp>
  </station>
  <station code="SNT1" name="SNT1" netid="HA" insttype="30" lat="36.4159" lon="25.4282">
    <comp name="--.HHE">
      <acc value="0.0914346918" flag="0"/>
      <vel value="0.0169751852" flag="0"/>
      <psa03 value="0.0665671625" flag="0"/>
      <psa10 value="0.0173966128" flag="0"/>
      <psa30 value="0.0013564564" flag="0"/>
    </comp>
    <comp name="--.HHN">
      <acc value="0.0824816862" flag="0"/>
      <vel value="0.0147649829" flag="0"/>
      <psa03 value="0.0516592967" flag="0"/>
      <psa10 value="0.0117788761" flag="0"/>
      <psa30 value="0.0009592954" flag="0"/>
    </comp>
    <comp name="--.HHZ">
      <acc value="0.0854634081" flag="0"/>
      <vel value="0.0141128028" flag="0"/>
      <psa03 value="0.0471656194" flag="0"/>
      <psa10 value="0.0074609982" flag="0"/>
      <psa30 value="0.0006531552" flag="0"/>
    </comp>
  </station>
  <station code="NAX1" name="NAX1" netid="HI" insttype="CMG-5TD,ACCELEROMETER,GURALP" lat="37.1014" lon="25.3741">
    <comp name="--.HNN">
      <acc value="0.0869881317" flag="0"/>
      <vel value="0.0222344936" flag="0"/>
      <psa03 value="0.1138863497" flag="0"/>
      <psa10 value="0.0056299090" flag="0"/>
      <psa30 value="0.0004974092" flag="0"/>
    </comp>
    <comp name="--.HNZ">
      <acc value="0.0503572035" flag="0"/>
      <vel value="0.0167808911" flag="0"/>
      <psa03 value="0.0923365291" flag="0"/>
      <psa10 value="0.0055660759" flag="0"/>
      <psa30 value="0.0004556680" flag="0"/>
    </comp>
    <comp name="--.HNE">
      <acc value="0.0990885174" flag="0"/>
      <vel value="0.0262438508" flag="0"/>
      <psa03 value="0.1771971019" flag="0"/>
      <psa10 value="0.0085605693" flag="0"/>
      <psa30 value="0.0007387020" flag="0"/>
    </comp>
  </station>
  <station code="APE" name="APE" netid="HL" insttype="120" lat="37.0727" lon="25.523">
    <comp name="--.HHN">
      <acc value="0.1159002446" flag="0"/>
      <vel value="0.0248043497" flag="0"/>
      <psa03 value="0.0727410861" flag="0"/>
      <psa10 value="0.0048162978" flag="0"/>
      <psa30 value="0.0006510060" flag="0"/>
    </comp>
    <comp name="--.HHE">
      <acc value="0.1062802966" flag="0"/>
      <vel value="0.0238976868" flag="0"/>
      <psa03 value="0.1081547805" flag="0"/>
      <psa10 value="0.0071402168" flag="0"/>
      <psa30 value="0.0006664062" flag="0"/>
    </comp>
    <comp name="--.HHZ">
      <acc value="0.0416594829" flag="0"/>
      <vel value="0.0084368060" flag="0"/>
      <psa03 value="0.0441834936" flag="0"/>
      <psa10 value="0.0045514976" flag="0"/>
      <psa30 value="0.0006494845" flag="0"/>
    </comp>
  </station>
  <station code="SAP3" name="SAP3" netid="HL" insttype="LE3D20_SMART24" lat="36.4356" lon="25.3454">
    <comp name="--.HHZ">
      <acc value="0.2429440008" flag="0"/>
      <vel value="0.0565603364" flag="0"/>
      <psa03 value="0.1791283886" flag="0"/>
      <psa10 value="0.0193637867" flag="0"/>
      <psa30 value="0.0013376587" flag="0"/>
    </comp>
    <comp name="--.HHE">
      <acc value="0.2638783701" flag="0"/>
      <vel value="0.0538938344" flag="0"/>
      <psa03 value="0.2644741940" flag="0"/>
      <psa10 value="0.0311137644" flag="0"/>
      <psa30 value="0.0033297718" flag="0"/>
    </comp>
    <comp name="--.HHN">
      <acc value="0.2624228630" flag="0"/>
      <vel value="0.0613288540" flag="0"/>
      <psa03 value="0.3164869228" flag="0"/>
      <psa10 value="0.0317930716" flag="0"/>
      <psa30 value="0.0031532194" flag="0"/>
    </comp>
  </station>
  <station code="THERA" name="THERA" netid="HL" insttype="120" lat="36.367" lon="25.4753">
    <comp name="--.HHE">
      <acc value="0.1608200576" flag="0"/>
      <vel value="0.0312842244" flag="0"/>
      <psa03 value="0.0812828969" flag="0"/>
      <psa10 value="0.0067037638" flag="0"/>
      <psa30 value="0.0008680501" flag="0"/>
    </comp>
    <comp name="--.HHZ">
      <acc value="0.1392253632" flag="0"/>
      <vel value="0.0289977909" flag="0"/>
      <psa03 value="0.0828213734" flag="0"/>
      <psa10 value="0.0069124258" flag="0"/>
      <psa30 value="0.0005030368" flag="0"/>
    </comp>
    <comp name="--.HHN">
      <acc value="0.1114744036" flag="0"/>
      <vel value="0.0204772583" flag="0"/>
      <psa03 value="0.0621091188" flag="0"/>
      <psa10 value="0.0045964861" flag="0"/>
      <psa30 value="0.0003114466" flag="0"/>
    </comp>
  </station>
  <station code="THRA" name="THRA" netid="HL" insttype="CMG-5" lat="36.415" lon="25.4324">
    <comp name="00.HNE">
      <acc value="0.2537280826" flag="0"/>
      <vel value="0.0645383352" flag="0"/>
      <psa03 value="0.3222804820" flag="0"/>
      <psa10 value="0.0407679011" flag="0"/>
      <psa30 value="0.0029479547" flag="0"/>
    </comp>
    <comp name="00.HNN">
      <acc value="0.2186119483" flag="0"/>
      <vel value="0.0514043239" flag="0"/>
      <psa03 value="0.3359049755" flag="0"/>
      <psa10 value="0.0437785859" flag="0"/>
      <psa30 value="0.0018672153" flag="0"/>
    </comp>
    <comp name="00.HNZ">
      <acc value="0.2311262805" flag="0"/>
      <vel value="0.0438645172" flag="0"/>
      <psa03 value="0.1765059462" flag="0"/>
      <psa10 value="0.0238605289" flag="0"/>
      <psa30 value="0.0017020888" flag="0"/>
    </comp>
  </station>
  <station code="CMBO" name="CMBO" netid="HT" insttype="120P," lat="36.4709" lon="25.4056">
    <comp name="--.HHZ">
      <acc value="0.2452070195" flag="0"/>
      <vel value="0.0644384707" flag="0"/>
      <psa03 value="0.2104322146" flag="0"/>
      <psa10 value="0.0137567235" flag="0"/>
      <psa30 value="0.0018895960" flag="0"/>
    </comp>
    <comp name="--.HHN">
      <acc value="0.3685801214" flag="0"/>
      <vel value="0.0986940331" flag="0"/>
      <psa03 value="0.3216874127" flag="0"/>
      <psa10 value="0.0344267696" flag="0"/>
      <psa30 value="0.0030583558" flag="0"/>
    </comp>
    <comp name="--.HHE">
      <acc value="0.2931245153" flag="0"/>
      <vel value="0.0578874814" flag="0"/>
      <psa03 value="0.2846324866" flag="0"/>
      <psa10 value="0.0282362317" flag="0"/>
      <psa30 value="0.0029119798" flag="0"/>
    </comp>
  </station>
</stationlist>
