<?xml version="1.0" encoding="UTF-8" standalone="yes"?>
<!DOCTYPE earthquake SYSTEM "stationlist.dtd">
<stationlist created="" xmlns="ch.ethz.sed.shakemap.usgs.xml">
  <station code="AKDG" name="AKDG" netid="KO" insttype="CMG-6T" commtype="DIG" lat="38.3618" lon="37.9703">
    <comp name="--.HHE">
      <acc value="0.3513210912" flag="0"/>
      <vel value="0.0926465806" flag="0"/>
      <psa03 value="0.4621773086" flag="0"/>
      <psa10 value="0.0835651122" flag="0"/>
      <psa30 value="0.0042911639" flag="0"/>
    </comp>
    <comp name="--.HHN">
      <acc value="0.3802086587" flag="0"/>
      <vel value="0.1024231189" flag="0"/>
      <psa03 value="0.4730766230" flag="0"/>
      <psa10 value="0.0889363911" flag="0"/>
      <psa30 value="0.0046298441" flag="0"/>
    </comp>
    <comp name="--.HHZ">
      <acc value="0.1839794024" flag="0"/>
      <vel value="0.0624864916" flag="0"/>
      <psa03 value="0.3614824868" flag="0"/>
      <psa10 value="0.0498974108" flag="0"/>
      <psa30 value="0.0032242698" flag="0"/>
    </comp>
  </station>
  <station code="ARGN" name="ARGN" netid="KO" insttype="CMG-6T" commtype="DIG" lat="38.7763" lon="38.2639">
    <comp name="--.HHZ">
      <acc value="0.0745564503" flag="0"/>
      <vel value="0.0183421492" flag="0"/>
      <psa03 value="0.1312584313" flag="0"/>
      <psa10 value="0.0226129651" flag="0"/>
      <psa30 value="0.0008855702" flag="0"/>
    </comp>
    <comp name="--.HHE">
      <acc value="0.1576033806" flag="0"/>
      <vel value="0.0454421827" flag="0"/>
      <psa03 value="0.2160053895" flag="0"/>
      <psa10 value="0.0297204732" flag="0"/>
      <psa30 value="0.0013053101" flag="0"/>
    </comp>
    <comp name="--.HHN">
      <acc value="0.1446794565" flag="0"/>
      <vel value="0.0464797926" flag="0"/>
      <psa03 value="0.0908795416" flag="0"/>
      <psa10 value="0.0223339025" flag="0"/>
      <psa30 value="0.0011692276" flag="0"/>
    </comp>
  </station>
  <station code="ARPRA" name="ARPRA" netid="KO" insttype="CMG-5T" commtype="DIG" lat="39.0929" lon="38.3356">
    <comp name="--.HNZ">
      <acc value="0.0400053425" flag="0"/>
      <vel value="0.0141974002" flag="0"/>
      <psa03 value="0.0962636104" flag="0"/>
      <psa10 value="0.0188493963" flag="0"/>
      <psa30 value="0.0010375320" flag="0"/>
    </comp>
    <comp name="--.HNE">
      <acc value="0.0956070518" flag="0"/>
      <vel value="0.0349668120" flag="0"/>
      <psa03 value="0.1764181614" flag="0"/>
      <psa10 value="0.0334147390" flag="0"/>
      <psa30 value="0.0028661577" flag="0"/>
    </comp>
    <comp name="--.HNN">
      <acc value="0.1036600491" flag="0"/>
      <vel value="0.0366498696" flag="0"/>
      <psa03 value="0.1745731451" flag="0"/>
      <psa10 value="0.0189201100" flag="0"/>
      <psa30 value="0.0016190678" flag="0"/>
    </comp>
  </station>
  <station code="KBAN" name="KBAN" netid="KO" insttype="CMG-6T" commtype="DIG" lat="38.797" lon="38.7278">
    <comp name="--.HHE">
      <acc value="0.0859318532" flag="0"/>
      <vel value="0.0224307289" flag="0"/>
      <psa03 value="0.1157484616" flag="0"/>
      <psa10 value="0.0141873710" flag="0"/>
      <psa30 value="0.0012239864" flag="0"/>
    </comp>
    <comp name="--.HHN">
      <acc value="0.0749924812" flag="0"/>
      <vel value="0.0109291281" flag="0"/>
      <psa03 value="0.0386224493" flag="0"/>
      <psa10 value="0.0108782663" flag="0"/>
      <psa30 value="0.0004850278" flag="0"/>
    </comp>
    <comp name="--.HHZ">
      <acc value="0.0532914521" flag="0"/>
      <vel value="0.0167180789" flag="0"/>
      <psa03 value="0.0677291464" flag="0"/>
      <psa10 value="0.0090957488" flag="0"/>
      <psa30 value="0.0007113715" flag="0"/>
    </comp>
  </station>
  <station code="NURH" name="NURH" netid="KO" insttype="CMG-6T" commtype="DIG" lat="37.9693" lon="37.4363">
    <comp name="--.HHZ">
      <acc value="0.0341268754" flag="0"/>
      <vel value="0.0188307813" flag="0"/>
      <psa03 value="0.0869618537" flag="0"/>
      <psa10 value="0.0128193237" flag="0"/>
      <psa30 value="0.0010841132" flag="0"/>
    </comp>
    <comp name="--.HHE">
      <acc value="0.0528115493" flag="0"/>
      <vel value="0.0235543977" flag="0"/>
      <psa03 value="0.1586299584" flag="0"/>
      <psa10 value="0.0108388693" flag="0"/>
      <psa30 value="0.0009287346" flag="0"/>
    </comp>
    <comp name="--.HHN">
      <acc value="0.0746288635" flag="0"/>
      <vel value="0.0414297022" flag="0"/>
      <psa03 value="0.2998404721" flag="0"/>
      <psa10 value="0.0388664078" flag="0"/>
      <psa30 value="0.0018068962" flag="0"/>
    </comp>
  </station>
  <station code="SVRC" name="SVRC" netid="KO" insttype="CMG-3T" commtype="DIG" lat="38.3775" lon="39.306">
    <comp name="--.HHZ">
      <acc value="0.0303513807" flag="0"/>
      <vel value="0.0166350195" flag="0"/>
      <psa03 value="0.0904815410" flag="0"/>
      <psa10 value="0.0161153804" flag="0"/>
      <psa30 value="0.0012745197" flag="0"/>
    </comp>
    <comp name="--.HHE">
      <acc value="0.0507167281" flag="0"/>
      <vel value="0.0315246406" flag="0"/>
      <psa03 value="0.1570256990" flag="0"/>
      <psa10 value="0.0212474669" flag="0"/>
      <psa30 value="0.0016461898" flag="0"/>
    </comp>
    <comp name="--.HHN">
      <acc value="0.0445218047" flag="0"/>
      <vel value="0.0205094648" flag="0"/>
      <psa03 value="0.1094072943" flag="0"/>
      <psa10 value="0.0113472807" flag="0"/>
      <psa30 value="0.0016984757" flag="0"/>
    </comp>
  </station>
  <station code="URFA" name="URFA" netid="KO" insttype="CMG-3ESP" commtype="DIG" lat="37.4409" lon="38.8213">
    <comp name="--.HHZ">
      <acc value="0.0327715556" flag="0"/>
      <vel value="0.0128979799" flag="0"/>
      <psa03 value="0.0649191894" flag="0"/>
      <psa10 value="0.0107421281" flag="0"/>
      <psa30 value="0.0009310274" flag="0"/>
    </comp>
    <comp name="--.HHE">
      <acc value="0.0524334019" flag="0"/>
      <vel value="0.0265231470" flag="0"/>
      <psa03 value="0.1004448198" flag="0"/>
      <psa10 value="0.0281339341" flag="0"/>
      <psa30 value="0.0025180401" flag="0"/>
    </comp>
    <comp name="--.HHN">
      <acc value="0.0549301338" flag="0"/>
      <vel value="0.0258247301" flag="0"/>
      <psa03 value="0.1187455843" flag="0"/>
      <psa10 value="0.0194434998" flag="0"/>
      <psa30 value="0.0016803249" flag="0"/>
    </comp>
  </station>
</stationlist>
