<?xml version="1.0" encoding="UTF-8" standalone="yes"?>
<!DOCTYPE earthquake SYSTEM "stationlist.dtd">
<stationlist created="" xmlns="ch.ethz.sed.shakemap.usgs.xml">
  <station code="AKDG" name="AKDG" netid="KO" insttype="CMG-6T" commtype="DIG" lat="38.3618" lon="37.9703">
    <comp name="--.HHE">
      <acc value="0.3513210963" flag="0"/>
      <vel value="0.0926465798" flag="0"/>
      <psa03 value="0.4621773086" flag="0"/>
      <psa10 value="0.0835651122" flag="0"/>
      <psa30 value="0.0042911788" flag="0"/>
    </comp>
    <comp name="--.HHN">
      <acc value="0.3802086585" flag="0"/>
      <vel value="0.1024231183" flag="0"/>
      <psa03 value="0.4730766230" flag="0"/>
      <psa10 value="0.0889363911" flag="0"/>
      <psa30 value="0.0046297894" flag="0"/>
    </comp>
    <comp name="--.HHZ">
      <acc value="0.1839794019" flag="0"/>
      <vel value="0.0624864921" flag="0"/>
      <psa03 value="0.3614824868" flag="0"/>
      <psa10 value="0.0498974108" flag="0"/>
      <psa30 value="0.0032243736" flag="0"/>
    </comp>
  </station>
  <station code="ARGN" name="ARGN" netid="KO" insttype="CMG-6T" commtype="DIG" lat="38.7763" lon="38.2639">
    <comp name="--.HHE">
      <acc value="0.1576033816" flag="0"/>
      <vel value="0.0454421806" flag="0"/>
      <psa03 value="0.2160053895" flag="0"/>
      <psa10 value="0.0297204702" flag="0"/>
      <psa30 value="0.0013052963" flag="0"/>
    </comp>
    <comp name="--.HHN">
      <acc value="0.1446794541" flag="0"/>
      <vel value="0.0464797759" flag="0"/>
      <psa03 value="0.0908795416" flag="0"/>
      <psa10 value="0.0223339026" flag="0"/>
      <psa30 value="0.0011692040" flag="0"/>
    </comp>
    <comp name="--.HHZ">
      <acc value="0.0745564418" flag="0"/>
      <vel value="0.0183421498" flag="0"/>
      <psa03 value="0.1312584313" flag="0"/>
      <psa10 value="0.0226129651" flag="0"/>
      <psa30 value="0.0008855732" flag="0"/>
    </comp>
  </station>
  <station code="ARPRA" name="ARPRA" netid="KO" insttype="CMG-5T" commtype="DIG" lat="39.0929" lon="38.3356">
    <comp name="--.HNZ">
      <acc value="0.0400053386" flag="0"/>
      <vel value="0.0141974218" flag="0"/>
      <psa03 value="0.0962636104" flag="0"/>
      <psa10 value="0.0188493965" flag="0"/>
      <psa30 value="0.0010386016" flag="0"/>
    </comp>
    <comp name="--.HNN">
      <acc value="0.1036600491" flag="0"/>
      <vel value="0.0366498696" flag="0"/>
      <psa03 value="0.1745731451" flag="0"/>
      <psa10 value="0.0189201100" flag="0"/>
      <psa30 value="0.0016190678" flag="0"/>
    </comp>
    <comp name="--.HNE">
      <acc value="0.0956070518" flag="0"/>
      <vel value="0.0349668120" flag="0"/>
      <psa03 value="0.1764181614" flag="0"/>
      <psa10 value="0.0334147390" flag="0"/>
      <psa30 value="0.0028661577" flag="0"/>
    </comp>
  </station>
  <station code="KBAN" name="KBAN" netid="KO" insttype="CMG-6T" commtype="DIG" lat="38.797" lon="38.7278">
    <comp name="--.HHZ">
      <acc value="0.0532914554" flag="0"/>
      <vel value="0.0167180843" flag="0"/>
      <psa03 value="0.0677291464" flag="0"/>
      <psa10 value="0.0090957489" flag="0"/>
      <psa30 value="0.0007114034" flag="0"/>
    </comp>
    <comp name="--.HHE">
      <acc value="0.0859318676" flag="0"/>
      <vel value="0.0224307297" flag="0"/>
      <psa03 value="0.1157484616" flag="0"/>
      <psa10 value="0.0141873710" flag="0"/>
      <psa30 value="0.0012240532" flag="0"/>
    </comp>
    <comp name="--.HHN">
      <acc value="0.0749924528" flag="0"/>
      <vel value="0.0109291338" flag="0"/>
      <psa03 value="0.0386224493" flag="0"/>
      <psa10 value="0.0108782663" flag="0"/>
      <psa30 value="0.0004849896" flag="0"/>
    </comp>
  </station>
  <station code="NURH" name="NURH" netid="KO" insttype="CMG-6T" commtype="DIG" lat="37.9693" lon="37.4363">
    <comp name="--.HHN">
      <acc value="0.0746287577" flag="0"/>
      <vel value="0.0414297028" flag="0"/>
      <psa03 value="0.2998404721" flag="0"/>
      <psa10 value="0.0388664079" flag="0"/>
      <psa30 value="0.0018068954" flag="0"/>
    </comp>
    <comp name="--.HHZ">
      <acc value="0.0341268744" flag="0"/>
      <vel value="0.0188307766" flag="0"/>
      <psa03 value="0.0869618537" flag="0"/>
      <psa10 value="0.0128193238" flag="0"/>
      <psa30 value="0.0010840447" flag="0"/>
    </comp>
    <comp name="--.HHE">
      <acc value="0.0528115766" flag="0"/>
      <vel value="0.0235543965" flag="0"/>
      <psa03 value="0.1586299584" flag="0"/>
      <psa10 value="0.0108388693" flag="0"/>
      <psa30 value="0.0009287992" flag="0"/>
    </comp>
  </station>
  <station code="SVRC" name="SVRC" netid="KO" insttype="CMG-3T" commtype="DIG" lat="38.3775" lon="39.306">
    <comp name="--.HHZ">
      <acc value="0.0303513806" flag="0"/>
      <vel value="0.0166350196" flag="0"/>
      <psa03 value="0.0904815410" flag="0"/>
      <psa10 value="0.0161153804" flag="0"/>
      <psa30 value="0.0012745626" flag="0"/>
    </comp>
    <comp name="--.HHN">
      <acc value="0.0445218047" flag="0"/>
      <vel value="0.0205094646" flag="0"/>
      <psa03 value="0.1094072943" flag="0"/>
      <psa10 value="0.0113472807" flag="0"/>
      <psa30 value="0.0016984718" flag="0"/>
    </comp>
    <comp name="--.HHE">
      <acc value="0.0507167282" flag="0"/>
      <vel value="0.0315246407" flag="0"/>
      <psa03 value="0.1570256990" flag="0"/>
      <psa10 value="0.0212474669" flag="0"/>
      <psa30 value="0.0016461850" flag="0"/>
    </comp>
  </station>
  <station code="URFA" name="URFA" netid="KO" insttype="CMG-3ESP" commtype="DIG" lat="37.4409" lon="38.8213">
    <comp name="--.HHZ">
      <acc value="0.0327715555" flag="0"/>
      <vel value="0.0128979811" flag="0"/>
      <psa03 value="0.0649191894" flag="0"/>
      <psa10 value="0.0107421281" flag="0"/>
      <psa30 value="0.0009310234" flag="0"/>
    </comp>
    <comp name="--.HHN">
      <acc value="0.0549301339" flag="0"/>
      <vel value="0.0258247297" flag="0"/>
      <psa03 value="0.1187455843" flag="0"/>
      <psa10 value="0.0194434998" flag="0"/>
      <psa30 value="0.0016803156" flag="0"/>
    </comp>
    <comp name="--.HHE">
      <acc value="0.0524334019" flag="0"/>
      <vel value="0.0265231464" flag="0"/>
      <psa03 value="0.1004448198" flag="0"/>
      <psa10 value="0.0281339339" flag="0"/>
      <psa30 value="0.0025180199" flag="0"/>
    </comp>
  </station>
</stationlist>
