<stationlist created="1775808346">
	<station code="ARPRA" name="ARPRA" netid="KO" source="Bogazici University Kandilli Observatory And Earthquake Research Institute (KOERI)" insttype="" lat="39.0929" lon="38.3356">
		<comp name="--.HNE" depth="0.0">
			<acc value="0.0957184877219421" flag="0"/>
			<vel value="0.0354612923182182" flag="0"/>
			<psa03 value="0.177452817878291" flag="0"/>
			<psa10 value="0.0334571476218308" flag="0"/>
			<psa30 value="0.00299866760534549" flag="0"/>
		</comp>
		<comp name="--.HNN" depth="0.0">
			<acc value="0.103310253330159" flag="0"/>
			<vel value="0.0369543353657475" flag="0"/>
			<psa03 value="0.176019202074947" flag="0"/>
			<psa10 value="0.018896283036013" flag="0"/>
			<psa30 value="0.00166507696984414" flag="0"/>
		</comp>
		<comp name="--.HNZ" depth="0.0">
			<acc value="0.0399323827589272" flag="0"/>
			<vel value="0.0143516249197265" flag="0"/>
			<psa03 value="0.0964941630980698" flag="0"/>
			<psa10 value="0.0188493618027116" flag="0"/>
			<psa30 value="0.00102881638320288" flag="0"/>
		</comp>
	</station>
</stationlist>
