<?xml version="1.0" encoding="UTF-8" standalone="yes"?>
<!DOCTYPE earthquake SYSTEM "stationlist.dtd">
<stationlist created="" xmlns="ch.ethz.sed.shakemap.usgs.xml">
  <station code="RDI1" name="RDI1" netid="HI" insttype="CMG-5TD,ACCELEROMETER,GURALP" commtype="DIG" lat="36.4514" lon="28.224">
    <comp name="--.HNE">
      <acc value="0.0723341292" flag="0"/>
      <vel value="0.0277281944" flag="0"/>
      <psa03 value="0.1656410538" flag="0"/>
      <psa10 value="0.0279225220" flag="0"/>
      <psa30 value="0.0023731947" flag="0"/>
    </comp>
    <comp name="--.HNN">
      <acc value="0.0764118993" flag="0"/>
      <vel value="0.0379843876" flag="0"/>
      <psa03 value="0.1912381872" flag="0"/>
      <psa10 value="0.0314683901" flag="0"/>
      <psa30 value="0.0030528311" flag="0"/>
    </comp>
    <comp name="--.HNZ">
      <acc value="0.0594923711" flag="0"/>
      <vel value="0.0183295493" flag="0"/>
      <psa03 value="0.0990656862" flag="0"/>
      <psa10 value="0.0188729754" flag="0"/>
      <psa30 value="0.0011393636" flag="0"/>
    </comp>
  </station>
  <station code="RKL1" name="RKL1" netid="HI" insttype="unknown" commtype="DIG" lat="36.3367" lon="28.1712">
    <comp name="--.HNE">
      <acc value="0.1037586734" flag="0"/>
      <vel value="0.0728715799" flag="0"/>
      <psa03 value="0.2580135162" flag="0"/>
      <psa10 value="0.0331648711" flag="0"/>
      <psa30 value="0.0024361931" flag="0"/>
    </comp>
    <comp name="--.HNN">
      <acc value="0.1152986170" flag="0"/>
      <vel value="0.0444563982" flag="0"/>
      <psa03 value="0.2501625864" flag="0"/>
      <psa10 value="0.0173031151" flag="0"/>
      <psa30 value="0.0010722493" flag="0"/>
    </comp>
    <comp name="--.HNZ">
      <acc value="0.1551662024" flag="0"/>
      <vel value="0.0309298527" flag="0"/>
      <psa03 value="0.1289675420" flag="0"/>
      <psa10 value="0.0198854879" flag="0"/>
      <psa30 value="0.0009762790" flag="0"/>
    </comp>
  </station>
  <station code="RLN1" name="RLN1" netid="HI" insttype="unknown" commtype="DIG" lat="36.0891" lon="28.0869">
    <comp name="--.HNE">
      <acc value="0.0472488076" flag="0"/>
      <vel value="0.0309818736" flag="0"/>
      <psa03 value="0.0739129814" flag="0"/>
      <psa10 value="0.0276292945" flag="0"/>
      <psa30 value="0.0016641457" flag="0"/>
    </comp>
    <comp name="--.HNZ">
      <acc value="0.0190327827" flag="0"/>
      <vel value="0.0123858529" flag="0"/>
      <psa03 value="0.0548117879" flag="0"/>
      <psa10 value="0.0103721574" flag="0"/>
      <psa30 value="0.0005015920" flag="0"/>
    </comp>
    <comp name="--.HNN">
      <acc value="0.0351160922" flag="0"/>
      <vel value="0.0218680733" flag="0"/>
      <psa03 value="0.0598716997" flag="0"/>
      <psa10 value="0.0150015749" flag="0"/>
      <psa30 value="0.0009271799" flag="0"/>
    </comp>
  </station>
  <station code="RPN1" name="RPN1" netid="HI" insttype="unknown" commtype="DIG" lat="36.4487" lon="28.218">
    <comp name="--.HNN">
      <acc value="0.1069476294" flag="0"/>
      <vel value="0.0517547130" flag="0"/>
      <psa03 value="0.2033977428" flag="0"/>
      <psa10 value="0.0232547912" flag="0"/>
      <psa30 value="0.0033870287" flag="0"/>
    </comp>
    <comp name="--.HNE">
      <acc value="0.0839973571" flag="0"/>
      <vel value="0.0281448069" flag="0"/>
      <psa03 value="0.1334940398" flag="0"/>
      <psa10 value="0.0191094949" flag="0"/>
      <psa30 value="0.0020396536" flag="0"/>
    </comp>
    <comp name="--.HNZ">
      <acc value="0.1325614030" flag="0"/>
      <vel value="0.0208433209" flag="0"/>
      <psa03 value="0.0691267538" flag="0"/>
      <psa10 value="0.0162196655" flag="0"/>
      <psa30 value="0.0008459402" flag="0"/>
    </comp>
  </station>
  <station code="RSO1" name="RSO1" netid="HI" insttype="unknown" commtype="DIG" lat="36.3632" lon="28.0016">
    <comp name="--.HNZ">
      <acc value="0.0686831463" flag="0"/>
      <vel value="0.0146184451" flag="0"/>
      <psa03 value="0.0839067057" flag="0"/>
      <psa10 value="0.0091542878" flag="0"/>
      <psa30 value="0.0008371454" flag="0"/>
    </comp>
    <comp name="--.HNE">
      <acc value="0.0817560507" flag="0"/>
      <vel value="0.0450851083" flag="0"/>
      <psa03 value="0.2274640824" flag="0"/>
      <psa10 value="0.0183423561" flag="0"/>
      <psa30 value="0.0020305230" flag="0"/>
    </comp>
    <comp name="--.HNN">
      <acc value="0.0579182290" flag="0"/>
      <vel value="0.0220748625" flag="0"/>
      <psa03 value="0.1155222989" flag="0"/>
      <psa10 value="0.0115815471" flag="0"/>
      <psa30 value="0.0013426884" flag="0"/>
    </comp>
  </station>
  <station code="ARG" name="ARG" netid="HL" insttype="LE3D20_DR24" commtype="DIG" lat="36.2136" lon="28.1212">
    <comp name="--.HHZ">
      <acc value="0.0394922730" flag="0"/>
      <vel value="0.0095908291" flag="0"/>
      <psa03 value="0.0304501326" flag="0"/>
      <psa10 value="0.0042083469" flag="0"/>
      <psa30 value="0.0004711184" flag="0"/>
    </comp>
    <comp name="--.HHE">
      <acc value="0.0393620968" flag="0"/>
      <vel value="0.0146522888" flag="0"/>
      <psa03 value="0.0713871427" flag="0"/>
      <psa10 value="0.0181938466" flag="0"/>
      <psa30 value="0.0009576354" flag="0"/>
    </comp>
    <comp name="--.HHN">
      <acc value="0.0399116467" flag="0"/>
      <vel value="0.0136108541" flag="0"/>
      <psa03 value="0.0554594020" flag="0"/>
      <psa10 value="0.0076736117" flag="0"/>
      <psa30 value="0.0004292126" flag="0"/>
    </comp>
  </station>
  <station code="RODB" name="RODB" netid="HL" insttype="CMG-5" commtype="DIG" lat="36.4471" lon="28.2212">
    <comp name="00.HNE">
      <acc value="0.0627113669" flag="0"/>
      <vel value="0.0301673458" flag="0"/>
      <psa03 value="0.1276109103" flag="0"/>
      <psa10 value="0.0229023406" flag="0"/>
      <psa30 value="0.0021450112" flag="0"/>
    </comp>
    <comp name="00.HNZ">
      <acc value="0.1178701463" flag="0"/>
      <vel value="0.0249366219" flag="0"/>
      <psa03 value="0.0647654074" flag="0"/>
      <psa10 value="0.0148080614" flag="0"/>
      <psa30 value="0.0009285482" flag="0"/>
    </comp>
    <comp name="00.HNN">
      <acc value="0.0643916588" flag="0"/>
      <vel value="0.0339826070" flag="0"/>
      <psa03 value="0.1414967438" flag="0"/>
      <psa10 value="0.0242619080" flag="0"/>
      <psa30 value="0.0022957698" flag="0"/>
    </comp>
  </station>
  <station code="DALY" name="DALY" netid="KO" insttype="CMG-3T" commtype="DIG" lat="36.8162" lon="28.6532">
    <comp name="--.HHZ">
      <acc value="0.0179025380" flag="0"/>
      <vel value="0.0063624633" flag="0"/>
      <psa03 value="0.0306192633" flag="0"/>
      <psa10 value="0.0056119717" flag="0"/>
      <psa30 value="0.0006088328" flag="0"/>
    </comp>
    <comp name="--.HHN">
      <acc value="0.0404451192" flag="0"/>
      <vel value="0.0168336636" flag="0"/>
      <psa03 value="0.0832820727" flag="0"/>
      <psa10 value="0.0113763164" flag="0"/>
      <psa30 value="0.0006774498" flag="0"/>
    </comp>
    <comp name="--.HHE">
      <acc value="0.0442657339" flag="0"/>
      <vel value="0.0141821886" flag="0"/>
      <psa03 value="0.0776278964" flag="0"/>
      <psa10 value="0.0090844350" flag="0"/>
      <psa30 value="0.0005047757" flag="0"/>
    </comp>
  </station>
  <station code="DAT" name="DAT" netid="KO" insttype="CMG-3T" commtype="DIG" lat="36.7308" lon="27.5767">
    <comp name="--.HHE">
      <acc value="0.0303360772" flag="0"/>
      <vel value="0.0149203111" flag="0"/>
      <psa03 value="0.0749001881" flag="0"/>
      <psa10 value="0.0117934336" flag="0"/>
      <psa30 value="0.0006638000" flag="0"/>
    </comp>
    <comp name="--.HHZ">
      <acc value="0.0000272902" flag="0"/>
      <vel value="0.0000026754" flag="0"/>
      <psa03 value="0.0000092411" flag="0"/>
      <psa10 value="0.0000027005" flag="0"/>
      <psa30 value="0.0000005015" flag="0"/>
    </comp>
    <comp name="--.HHN">
      <acc value="0.0362099590" flag="0"/>
      <vel value="0.0148924570" flag="0"/>
      <psa03 value="0.1120011583" flag="0"/>
      <psa10 value="0.0191858083" flag="0"/>
      <psa30 value="0.0010882017" flag="0"/>
    </comp>
  </station>
  <station code="ELL" name="ELL" netid="KO" insttype="CMG-3T" commtype="DIG" lat="36.7483" lon="29.9085">
    <comp name="--.HHE">
      <acc value="0.0073228496" flag="0"/>
      <vel value="0.0048455888" flag="0"/>
      <psa03 value="0.0155162451" flag="0"/>
      <psa10 value="0.0032656987" flag="0"/>
      <psa30 value="0.0003481429" flag="0"/>
    </comp>
    <comp name="--.HHN">
      <acc value="0.0048424675" flag="0"/>
      <vel value="0.0038516164" flag="0"/>
      <psa03 value="0.0110817611" flag="0"/>
      <psa10 value="0.0052286855" flag="0"/>
      <psa30 value="0.0004094673" flag="0"/>
    </comp>
    <comp name="--.HHZ">
      <acc value="0.0039326529" flag="0"/>
      <vel value="0.0025615139" flag="0"/>
      <psa03 value="0.0122192181" flag="0"/>
      <psa10 value="0.0028464198" flag="0"/>
      <psa30 value="0.0002924308" flag="0"/>
    </comp>
  </station>
  <station code="FETY" name="FETY" netid="KO" insttype="CMG-3ESP" commtype="DIG" lat="36.6353" lon="29.0835">
    <comp name="--.HHE">
      <acc value="0.0722204185" flag="0"/>
      <vel value="0.0286593972" flag="0"/>
      <psa03 value="0.1942559899" flag="0"/>
      <psa10 value="0.0155585087" flag="0"/>
      <psa30 value="0.0012296196" flag="0"/>
    </comp>
    <comp name="--.HHN">
      <acc value="0.0732042270" flag="0"/>
      <vel value="0.0299184478" flag="0"/>
      <psa03 value="0.1452639633" flag="0"/>
      <psa10 value="0.0285158594" flag="0"/>
      <psa30 value="0.0018278986" flag="0"/>
    </comp>
    <comp name="--.HHZ">
      <acc value="0.0402899222" flag="0"/>
      <vel value="0.0154322903" flag="0"/>
      <psa03 value="0.1223802790" flag="0"/>
      <psa10 value="0.0108213964" flag="0"/>
      <psa30 value="0.0007406474" flag="0"/>
    </comp>
  </station>
  <station code="YER" name="YER" netid="KO" insttype="CMG-3T" commtype="DIG" lat="37.1336" lon="28.284">
    <comp name="--.HHE">
      <acc value="0.0355359982" flag="0"/>
      <vel value="0.0102283158" flag="0"/>
      <psa03 value="0.0446016320" flag="0"/>
      <psa10 value="0.0057807172" flag="0"/>
      <psa30 value="0.0008712011" flag="0"/>
    </comp>
    <comp name="--.HHN">
      <acc value="0.0248190383" flag="0"/>
      <vel value="0.0103045482" flag="0"/>
      <psa03 value="0.0527510045" flag="0"/>
      <psa10 value="0.0150399207" flag="0"/>
      <psa30 value="0.0009584010" flag="0"/>
    </comp>
    <comp name="--.HHZ">
      <acc value="0.0138574432" flag="0"/>
      <vel value="0.0051736694" flag="0"/>
      <psa03 value="0.0307800112" flag="0"/>
      <psa10 value="0.0051280313" flag="0"/>
      <psa30 value="0.0003375858" flag="0"/>
    </comp>
  </station>
</stationlist>
