<?xml version="1.0" encoding="UTF-8" standalone="yes"?>
<!DOCTYPE earthquake SYSTEM "stationlist.dtd">
<stationlist created="" xmlns="ch.ethz.sed.shakemap.usgs.xml">
  <station code="ARPRA" name="ARPRA" netid="KO" insttype="CMG-5T" lat="39.0929" lon="38.3356">
    <comp name="--.HNN">
      <acc value="0.0259454952" flag="0"/>
      <vel value="0.0113357725" flag="0"/>
      <psa03 value="0.0914948199" flag="0"/>
      <psa10 value="0.0076898780" flag="0"/>
      <psa30 value="0.0005270619" flag="0"/>
    </comp>
    <comp name="--.HNE">
      <acc value="0.0319829472" flag="0"/>
      <vel value="0.0106811182" flag="0"/>
      <psa03 value="0.0600925786" flag="0"/>
      <psa10 value="0.0070925676" flag="0"/>
      <psa30 value="0.0005548495" flag="0"/>
    </comp>
    <comp name="--.HNZ">
      <acc value="0.0184779728" flag="0"/>
      <vel value="0.0046646644" flag="0"/>
      <psa03 value="0.0318208657" flag="0"/>
      <psa10 value="0.0030145038" flag="0"/>
      <psa30 value="0.0002572409" flag="0"/>
    </comp>
  </station>
  <station code="SVRC" name="SVRC" netid="KO" insttype="CMG-3T" lat="38.3775" lon="39.306">
    <comp name="--.HHN">
      <acc value="0.0505512406" flag="0"/>
      <vel value="0.0158396295" flag="0"/>
      <psa03 value="0.0934110911" flag="0"/>
      <psa10 value="0.0041282847" flag="0"/>
      <psa30 value="0.0004484483" flag="0"/>
    </comp>
    <comp name="--.HHZ">
      <acc value="0.0648314970" flag="0"/>
      <vel value="0.0208214743" flag="0"/>
      <psa03 value="0.1046334406" flag="0"/>
      <psa10 value="0.0037441727" flag="0"/>
      <psa30 value="0.0003482445" flag="0"/>
    </comp>
    <comp name="--.HHE">
      <acc value="0.0541362896" flag="0"/>
      <vel value="0.0170082363" flag="0"/>
      <psa03 value="0.0731615657" flag="0"/>
      <psa10 value="0.0045260465" flag="0"/>
      <psa30 value="0.0003305783" flag="0"/>
    </comp>
  </station>
  <station code="URFA" name="URFA" netid="KO" insttype="CMG-3ESP" lat="37.4409" lon="38.8213">
    <comp name="--.HHN">
      <acc value="0.0396358060" flag="0"/>
      <vel value="0.0053994259" flag="0"/>
      <psa03 value="0.0169147375" flag="0"/>
      <psa10 value="0.0027706973" flag="0"/>
      <psa30 value="0.0002778004" flag="0"/>
    </comp>
  </station>
</stationlist>
