<?xml version="1.0" encoding="UTF-8" standalone="yes"?>
<!DOCTYPE earthquake SYSTEM "stationlist.dtd">
<stationlist created="" xmlns="ch.ethz.sed.shakemap.usgs.xml">
  <station code="FOO" name="FOO" netid="NS" insttype="" lat="61.5973" lon="5.04267">
    <comp name="00.HHZ">
      <acc value="0.1701314251" flag="0"/>
      <vel value="0.0278910270" flag="0"/>
      <psa03 value="0.1451025283" flag="0"/>
      <psa10 value="0.0114071814" flag="0"/>
      <psa30 value="0.0040631888" flag="0"/>
    </comp>
    <comp name="00.HHE">
      <acc value="0.2069099420" flag="0"/>
      <vel value="0.0318227044" flag="0"/>
      <psa03 value="0.0943793487" flag="0"/>
      <psa10 value="0.0143788626" flag="0"/>
      <psa30 value="0.0076529270" flag="0"/>
    </comp>
    <comp name="00.HHN">
      <acc value="0.2168367986" flag="0"/>
      <vel value="0.0300490104" flag="0"/>
      <psa03 value="0.1896895262" flag="0"/>
      <psa10 value="0.0136934475" flag="0"/>
      <psa30 value="0.0041274074" flag="0"/>
    </comp>
  </station>
  <station code="SUE" name="SUE" netid="NS" insttype="" lat="61.057" lon="4.7595">
    <comp name="00.HHZ">
      <acc value="0.2091039884" flag="0"/>
      <vel value="0.0509474159" flag="0"/>
      <psa03 value="0.2476747413" flag="0"/>
      <psa10 value="0.0263341142" flag="0"/>
      <psa30 value="0.0067218816" flag="0"/>
    </comp>
    <comp name="00.HHN">
      <acc value="0.2971389189" flag="0"/>
      <vel value="0.0614158656" flag="0"/>
      <psa03 value="0.3469723549" flag="0"/>
      <psa10 value="0.0238406869" flag="0"/>
      <psa30 value="0.0090239915" flag="0"/>
    </comp>
    <comp name="00.HHE">
      <acc value="0.3072551851" flag="0"/>
      <vel value="0.0837959043" flag="0"/>
      <psa03 value="0.3234429110" flag="0"/>
      <psa10 value="0.0223996497" flag="0"/>
      <psa30 value="0.0082079963" flag="0"/>
    </comp>
  </station>
</stationlist>
