<stationlist xmlns:esm="https://esm-db.eu/esmws/shakemap/1/" created="1783994031">
	<station code="KTHA" name="KTHA" netid="GE" source="GEOFON" insttype="" lat="36.2566" lon="23.0621" esm:processing="manual (Paolucci et al 2011)" esm:quality="best">
		<comp name="--.HNE" depth="0.0">
			<acc value="0.00396694083276959" flag="0"/>
			<vel value="0.00240154680908801" flag="0"/>
			<psa03 value="0.0162414210024326" flag="0"/>
			<psa10 value="0.00295969696779868" flag="0"/>
			<psa30 value="0.000187917267796741" flag="0"/>
		</comp>
		<comp name="--.HNN" depth="0.0">
			<acc value="0.00429685756246673" flag="0"/>
			<vel value="0.00201033541499963" flag="0"/>
			<psa03 value="0.0121698802001699" flag="0"/>
			<psa10 value="0.00164696062561858" flag="0"/>
			<psa30 value="0.000246082136400495" flag="0"/>
		</comp>
		<comp name="--.HNZ" depth="0.0">
			<acc value="0.00202722960772161" flag="0"/>
			<vel value="0.000887186604622897" flag="0"/>
			<psa03 value="0.00644287775303113" flag="0"/>
			<psa10 value="0.000889922489637425" flag="0"/>
			<psa30 value="0.000132884353656267" flag="0"/>
		</comp>
	</station>
	<station code="ARG2" name="ARG2" netid="HI" source="ITSAK Strong Motion Network" insttype="" lat="38.1783" lon="20.4878" esm:processing="manual (Paolucci et al 2011)" esm:quality="best">
		<comp name="--.HNE" depth="0.0">
			<acc value="0.01075040142" flag="0"/>
			<vel value="0.0046315713768265" flag="0"/>
			<psa03 value="0.03036506622411" flag="0"/>
			<psa10 value="0.00353380730051521" flag="0"/>
			<psa30 value="0.000371820334397429" flag="0"/>
		</comp>
		<comp name="--.HNN" depth="0.0">
			<acc value="0.0109212003103927" flag="0"/>
			<vel value="0.00458673614860524" flag="0"/>
			<psa03 value="0.0166004278218595" flag="0"/>
			<psa10 value="0.0042268018798873" flag="0"/>
			<psa30 value="0.000308854730943574" flag="0"/>
		</comp>
		<comp name="--.HNZ" depth="0.0">
			<acc value="0.00662834005773106" flag="0"/>
			<vel value="0.00225042550247727" flag="0"/>
			<psa03 value="0.0160114643267785" flag="0"/>
			<psa10 value="0.00202768830877274" flag="0"/>
			<psa30 value="0.000380685973785933" flag="0"/>
		</comp>
	</station>
	<station code="KLV1" name="KLV1" netid="HI" source="ITSAK Strong Motion Network" insttype="" lat="38.03256" lon="22.10797" esm:processing="manual (Paolucci et al 2011)" esm:quality="good">
		<comp name="--.HNE" depth="0.0">
			<acc value="0.00551088339677049" flag="0"/>
			<vel value="0.00343231962869143" flag="0"/>
			<psa03 value="0.0178300196929801" flag="0"/>
			<psa10 value="0.00472826541186887" flag="0"/>
			<psa30 value="0.000264129320187702" flag="0"/>
		</comp>
		<comp name="--.HNN" depth="0.0">
			<acc value="0.00556298031542938" flag="0"/>
			<vel value="0.00339874573318459" flag="0"/>
			<psa03 value="0.0173896480725757" flag="0"/>
			<psa10 value="0.00439713910139355" flag="0"/>
			<psa30 value="0.000244152970811253" flag="0"/>
		</comp>
		<comp name="--.HNZ" depth="0.0">
			<acc value="0.00389482491422036" flag="0"/>
			<vel value="0.0019014181426105" flag="0"/>
			<psa03 value="0.00769378832154499" flag="0"/>
			<psa10 value="0.00342402838757508" flag="0"/>
			<psa30 value="0.000275499344229505" flag="0"/>
		</comp>
	</station>
	<station code="KRI1" name="KRI1" netid="HI" source="ITSAK Strong Motion Network" insttype="" lat="37.6621" lon="20.8172" esm:processing="manual (Paolucci et al 2011)" esm:quality="best">
		<comp name="--.HNE" depth="0.0">
			<acc value="0.030516392210067" flag="0"/>
			<vel value="0.0132214522492753" flag="0"/>
			<psa03 value="0.0834442153430768" flag="0"/>
			<psa10 value="0.00898378766688279" flag="0"/>
			<psa30 value="0.000774040174496101" flag="0"/>
		</comp>
		<comp name="--.HNN" depth="0.0">
			<acc value="0.027488686266454" flag="0"/>
			<vel value="0.018465835449489" flag="0"/>
			<psa03 value="0.0945850247910265" flag="0"/>
			<psa10 value="0.0159984708204954" flag="0"/>
			<psa30 value="0.00105815318652213" flag="0"/>
		</comp>
		<comp name="--.HNZ" depth="0.0">
			<acc value="0.031106070870332" flag="0"/>
			<vel value="0.0112621238913855" flag="0"/>
			<psa03 value="0.0522588973301414" flag="0"/>
			<psa10 value="0.00550463368024597" flag="0"/>
			<psa30 value="0.00049887560379373" flag="0"/>
		</comp>
	</station>
	<station code="MSL1" name="MSL1" netid="HI" source="ITSAK Strong Motion Network" insttype="" lat="38.3727" lon="21.4243" esm:processing="manual (Paolucci et al 2011)" esm:quality="bad">
		<comp name="--.HNE" depth="0.0">
			<acc value="0.0163522341436135" flag="0"/>
			<vel value="0.0124848576295144" flag="0"/>
			<psa03 value="0.0270681030248301" flag="0"/>
			<psa10 value="0.0145703770909925" flag="0"/>
			<psa30 value="0.00131719329925836" flag="0"/>
		</comp>
		<comp name="--.HNN" depth="0.0">
			<acc value="0.0095220096715256" flag="0"/>
			<vel value="0.00811487978312594" flag="0"/>
			<psa03 value="0.0267451102739856" flag="0"/>
			<psa10 value="0.0151576313061982" flag="0"/>
			<psa30 value="0.000898522647714364" flag="0"/>
		</comp>
		<comp name="--.HNZ" depth="0.0">
			<acc value="0.00425448658487478" flag="0"/>
			<vel value="0.00377621145728925" flag="0"/>
			<psa03 value="0.0106975563168677" flag="0"/>
			<psa10 value="0.00702826324420196" flag="0"/>
			<psa30 value="0.000298497612543506" flag="0"/>
		</comp>
	</station>
	<station code="NPS1" name="NPS1" netid="HI" source="ITSAK Strong Motion Network" insttype="" lat="36.51263" lon="23.06248" esm:processing="manual (Paolucci et al 2011)" esm:quality="good">
		<comp name="--.HNE" depth="0.0">
			<acc value="0.00762070215922654" flag="0"/>
			<vel value="0.00543349532422543" flag="0"/>
			<psa03 value="0.0226005206110911" flag="0"/>
			<psa10 value="0.00681799056465327" flag="0"/>
			<psa30 value="0.000355730206005192" flag="0"/>
		</comp>
		<comp name="--.HNN" depth="0.0">
			<acc value="0.0089025041387683" flag="0"/>
			<vel value="0.00609100167289646" flag="0"/>
			<psa03 value="0.0291032847206241" flag="0"/>
			<psa10 value="0.00491071640459766" flag="0"/>
			<psa30 value="0.000238657294249635" flag="0"/>
		</comp>
		<comp name="--.HNZ" depth="0.0">
			<acc value="0.00426465152843517" flag="0"/>
			<vel value="0.00224985559346345" flag="0"/>
			<psa03 value="0.0177845700675567" flag="0"/>
			<psa10 value="0.00250414284029746" flag="0"/>
			<psa30 value="0.000133109234500301" flag="0"/>
		</comp>
	</station>
	<station code="PYL1" name="PYL1" netid="HI" source="ITSAK Strong Motion Network" insttype="" lat="36.914188" lon="21.695161" esm:processing="manual (Paolucci et al 2011)" esm:quality="good">
		<comp name="--.HNE" depth="0.0">
			<acc value="0.0419475004182748" flag="0"/>
			<vel value="0.0306239835696777" flag="0"/>
			<psa03 value="0.153197315460962" flag="0"/>
			<psa10 value="0.0181528080691652" flag="0"/>
			<psa30 value="0.00112079227578771" flag="0"/>
		</comp>
		<comp name="--.HNN" depth="0.0">
			<acc value="0.0223226612516873" flag="0"/>
			<vel value="0.0171894521429954" flag="0"/>
			<psa03 value="0.0566883757853503" flag="0"/>
			<psa10 value="0.00986565655932892" flag="0"/>
			<psa30 value="0.00170378322802379" flag="0"/>
		</comp>
		<comp name="--.HNZ" depth="0.0">
			<acc value="0.0154349368244553" flag="0"/>
			<vel value="0.00596559352142728" flag="0"/>
			<psa03 value="0.0475609656352229" flag="0"/>
			<psa10 value="0.00712340671569505" flag="0"/>
			<psa30 value="0.000456817929572554" flag="0"/>
		</comp>
	</station>
	<station code="VAS2" name="VAS2" netid="HI" source="ITSAK Strong Motion Network" insttype="" lat="38.630558" lon="20.608081" esm:processing="manual (Paolucci et al 2011)" esm:quality="good">
		<comp name="--.HNE" depth="0.0">
			<acc value="0.0072623058989566" flag="0"/>
			<vel value="0.00721585362991932" flag="0"/>
			<psa03 value="0.0169961766945633" flag="0"/>
			<psa10 value="0.0150710905732665" flag="0"/>
			<psa30 value="0.000991356714181944" flag="0"/>
		</comp>
		<comp name="--.HNN" depth="0.0">
			<acc value="0.00694380744174527" flag="0"/>
			<vel value="0.00654176015894537" flag="0"/>
			<psa03 value="0.0235914768820406" flag="0"/>
			<psa10 value="0.0142554893562105" flag="0"/>
			<psa30 value="0.000653603714704939" flag="0"/>
		</comp>
		<comp name="--.HNZ" depth="0.0">
			<acc value="0.00646493806039983" flag="0"/>
			<vel value="0.0033971278630984" flag="0"/>
			<psa03 value="0.0149650694874118" flag="0"/>
			<psa10 value="0.0064789713875385" flag="0"/>
			<psa30 value="0.000298849771289019" flag="0"/>
		</comp>
	</station>
	<station code="ITM" name="ITM" netid="HL" source="National Observatory of Athens Seismic Network" insttype="" lat="37.17872" lon="21.92522" esm:processing="manual (Paolucci et al 2011)" esm:quality="best">
		<comp name="00.HNE" depth="0.0">
			<acc value="0.0140029807809727" flag="0"/>
			<vel value="0.0071450907078284" flag="0"/>
			<psa03 value="0.0453685975109276" flag="0"/>
			<psa10 value="0.00739320222160322" flag="0"/>
			<psa30 value="0.000647419729766392" flag="0"/>
		</comp>
		<comp name="00.HNN" depth="0.0">
			<acc value="0.0178242834682538" flag="0"/>
			<vel value="0.0067867756220879" flag="0"/>
			<psa03 value="0.0310510913930806" flag="0"/>
			<psa10 value="0.00901600205564794" flag="0"/>
			<psa30 value="0.000602230101081938" flag="0"/>
		</comp>
		<comp name="00.HNZ" depth="0.0">
			<acc value="0.0186040772241414" flag="0"/>
			<vel value="0.00528025008367134" flag="0"/>
			<psa03 value="0.0239370805407754" flag="0"/>
			<psa10 value="0.00815829395477567" flag="0"/>
			<psa30 value="0.000519009596771952" flag="0"/>
		</comp>
	</station>
	<station code="KTHA" name="KTHA" netid="HL" source="National Observatory of Athens Seismic Network" insttype="" lat="36.2566" lon="23.0621" esm:processing="manual (Paolucci et al 2011)" esm:quality="best">
		<comp name="--.HNE" depth="0.0">
			<acc value="0.00388642223833961" flag="0"/>
			<vel value="0.00235281734563655" flag="0"/>
			<psa03 value="0.0159282255561047" flag="0"/>
			<psa10 value="0.00289929498886401" flag="0"/>
			<psa30 value="0.000183890469201097" flag="0"/>
		</comp>
		<comp name="--.HNN" depth="0.0">
			<acc value="0.00420968604951562" flag="0"/>
			<vel value="0.00196959100235405" flag="0"/>
			<psa03 value="0.0119461691670786" flag="0"/>
			<psa10 value="0.00161474623685343" flag="0"/>
			<psa30 value="0.000241160493672485" flag="0"/>
		</comp>
		<comp name="--.HNZ" depth="0.0">
			<acc value="0.0019860859420494" flag="0"/>
			<vel value="0.000869163101829101" flag="0"/>
			<psa03 value="0.00635339333979459" flag="0"/>
			<psa10 value="0.000869788496659203" flag="0"/>
			<psa30 value="0.000130199821259171" flag="0"/>
		</comp>
	</station>
	<station code="LXRA" name="LXRA" netid="HL" source="National Observatory of Athens Seismic Network" insttype="" lat="38.20006" lon="20.43718" esm:processing="manual (Paolucci et al 2011)" esm:quality="bad">
		<comp name="00.HNE" depth="0.0">
			<acc value="0.0134845407845937" flag="0"/>
			<vel value="0.00692775741624146" flag="0"/>
			<psa03 value="0.022057907862808" flag="0"/>
			<psa10 value="0.0110374549506615" flag="0"/>
			<psa30 value="0.00105725834238976" flag="0"/>
		</comp>
		<comp name="00.HNN" depth="0.0">
			<acc value="0.0109826651968704" flag="0"/>
			<vel value="0.00724977048624357" flag="0"/>
			<psa03 value="0.0255925421856514" flag="0"/>
			<psa10 value="0.00992203173966794" flag="0"/>
			<psa30 value="0.000957930643697198" flag="0"/>
		</comp>
		<comp name="00.HNZ" depth="0.0">
			<acc value="0.0118039589270803" flag="0"/>
			<vel value="0.00341317347333397" flag="0"/>
			<psa03 value="0.0136016308119546" flag="0"/>
			<psa10 value="0.0051261146122554" flag="0"/>
			<psa30 value="0.000384782976917137" flag="0"/>
		</comp>
	</station>
	<station code="PATC" name="PATC" netid="HL" source="National Observatory of Athens Seismic Network" insttype="" lat="38.26933" lon="21.76001" esm:processing="manual (Paolucci et al 2011)" esm:quality="good">
		<comp name="00.HNE" depth="0.0">
			<acc value="0.0118242940882288" flag="0"/>
			<vel value="0.00857809800169757" flag="0"/>
			<psa03 value="0.0284966794318174" flag="0"/>
			<psa10 value="0.0151607149479463" flag="0"/>
			<psa30 value="0.00114340345320052" flag="0"/>
		</comp>
		<comp name="00.HNN" depth="0.0">
			<acc value="0.013368063162263" flag="0"/>
			<vel value="0.010522016733635" flag="0"/>
			<psa03 value="0.0484818054316865" flag="0"/>
			<psa10 value="0.017604943116074" flag="0"/>
			<psa30 value="0.00144820458228171" flag="0"/>
		</comp>
		<comp name="00.HNZ" depth="0.0">
			<acc value="0.00886296935058556" flag="0"/>
			<vel value="0.00404169354699051" flag="0"/>
			<psa03 value="0.0185297496403719" flag="0"/>
			<psa10 value="0.00682975040621183" flag="0"/>
			<psa30 value="0.000622794694591312" flag="0"/>
		</comp>
	</station>
	<station code="SMHA" name="SMHA" netid="HL" source="National Observatory of Athens Seismic Network" insttype="" lat="38.25123" lon="20.6477" esm:processing="manual (Paolucci et al 2011)" esm:quality="best">
		<comp name="00.HNE" depth="0.0">
			<acc value="0.0135541155985879" flag="0"/>
			<vel value="0.00688145410031011" flag="0"/>
			<psa03 value="0.0308537235952843" flag="0"/>
			<psa10 value="0.00953413471462868" flag="0"/>
			<psa30 value="0.000503337458219709" flag="0"/>
		</comp>
		<comp name="00.HNN" depth="0.0">
			<acc value="0.0166337053919249" flag="0"/>
			<vel value="0.00602888347035636" flag="0"/>
			<psa03 value="0.0357947332045629" flag="0"/>
			<psa10 value="0.00656284006843741" flag="0"/>
			<psa30 value="0.000419779188519555" flag="0"/>
		</comp>
		<comp name="00.HNZ" depth="0.0">
			<acc value="0.0105892884678518" flag="0"/>
			<vel value="0.00343116712737722" flag="0"/>
			<psa03 value="0.0166960943155378" flag="0"/>
			<psa10 value="0.00358539524921328" flag="0"/>
			<psa30 value="0.000199722566577284" flag="0"/>
		</comp>
	</station>
	<station code="ZARA" name="ZARA" netid="HL" source="National Observatory of Athens Seismic Network" insttype="" lat="37.4865" lon="21.6491" esm:processing="manual (Paolucci et al 2011)" esm:quality="bad">
		<comp name="00.HNE" depth="0.0">
			<acc value="0.0338113613404411" flag="0"/>
			<vel value="0.0168376771031472" flag="0"/>
			<psa03 value="0.0872687342503426" flag="0"/>
			<psa10 value="0.0234176106767942" flag="0"/>
			<psa30 value="0.00142294874253846" flag="0"/>
		</comp>
		<comp name="00.HNN" depth="0.0">
			<acc value="0.0282625255081784" flag="0"/>
			<vel value="0.0152935000332108" flag="0"/>
			<psa03 value="0.107100480297734" flag="0"/>
			<psa10 value="0.016739929563163" flag="0"/>
			<psa30 value="0.00274911315692271" flag="0"/>
		</comp>
		<comp name="00.HNZ" depth="0.0">
			<acc value="0.0253102989683034" flag="0"/>
			<vel value="0.0155345128213924" flag="0"/>
			<psa03 value="0.0424636072764266" flag="0"/>
			<psa10 value="0.013181135060488" flag="0"/>
			<psa30 value="0.00100458936161317" flag="0"/>
		</comp>
	</station>
	<station code="ARS1" name="ARS1" netid="HI" source="ITSAK Strong Motion Network" insttype="" lat="37.6349" lon="22.7293" esm:processing="discarded" esm:quality="good">
		<comp name="--.HNE" depth="0.0">
			<acc value="0" flag="1"/>
			<vel value="0" flag="1"/>
			<psa03 value="0" flag="1"/>
			<psa10 value="0" flag="1"/>
			<psa30 value="0" flag="1"/>
		</comp>
		<comp name="--.HNN" depth="0.0">
			<acc value="0" flag="1"/>
			<vel value="0" flag="1"/>
			<psa03 value="0" flag="1"/>
			<psa10 value="0" flag="1"/>
			<psa30 value="0" flag="1"/>
		</comp>
		<comp name="--.HNZ" depth="0.0">
			<acc value="0" flag="1"/>
			<vel value="0" flag="1"/>
			<psa03 value="0" flag="1"/>
			<psa10 value="0" flag="1"/>
			<psa30 value="0" flag="1"/>
		</comp>
	</station>
	<station code="DLFA" name="DLFA" netid="HL" source="National Observatory of Athens Seismic Network" insttype="" lat="38.47836" lon="22.49583" esm:processing="discarded" esm:quality="bad">
		<comp name="00.HNE" depth="0.0">
			<acc value="0" flag="1"/>
			<vel value="0" flag="1"/>
			<psa03 value="0" flag="1"/>
			<psa10 value="0" flag="1"/>
			<psa30 value="0" flag="1"/>
		</comp>
		<comp name="00.HNN" depth="0.0">
			<acc value="0" flag="1"/>
			<vel value="0" flag="1"/>
			<psa03 value="0" flag="1"/>
			<psa10 value="0" flag="1"/>
			<psa30 value="0" flag="1"/>
		</comp>
		<comp name="00.HNZ" depth="0.0">
			<acc value="0" flag="1"/>
			<vel value="0" flag="1"/>
			<psa03 value="0" flag="1"/>
			<psa10 value="0" flag="1"/>
			<psa30 value="0" flag="1"/>
		</comp>
	</station>
	<station code="KIAA" name="KIAA" netid="HL" source="National Observatory of Athens Seismic Network" insttype="" lat="38.0139" lon="22.7495" esm:processing="discarded" esm:quality="bad">
		<comp name="00.HNE" depth="0.0">
			<acc value="0" flag="1"/>
			<vel value="0" flag="1"/>
			<psa03 value="0" flag="1"/>
			<psa10 value="0" flag="1"/>
			<psa30 value="0" flag="1"/>
		</comp>
		<comp name="00.HNN" depth="0.0">
			<acc value="0" flag="1"/>
			<vel value="0" flag="1"/>
			<psa03 value="0" flag="1"/>
			<psa10 value="0" flag="1"/>
			<psa30 value="0" flag="1"/>
		</comp>
		<comp name="00.HNZ" depth="0.0">
			<acc value="0" flag="1"/>
			<vel value="0" flag="1"/>
			<psa03 value="0" flag="1"/>
			<psa10 value="0" flag="1"/>
			<psa30 value="0" flag="1"/>
		</comp>
	</station>
	<station code="MNVA" name="MNVA" netid="HL" source="National Observatory of Athens Seismic Network" insttype="" lat="36.68709" lon="23.03734" esm:processing="discarded" esm:quality="bad">
		<comp name="00.HNE" depth="0.0">
			<acc value="0" flag="1"/>
			<vel value="0" flag="1"/>
			<psa03 value="0" flag="1"/>
			<psa10 value="0" flag="1"/>
			<psa30 value="0" flag="1"/>
		</comp>
		<comp name="00.HNN" depth="0.0">
			<acc value="0" flag="1"/>
			<vel value="0" flag="1"/>
			<psa03 value="0" flag="1"/>
			<psa10 value="0" flag="1"/>
			<psa30 value="0" flag="1"/>
		</comp>
		<comp name="00.HNZ" depth="0.0">
			<acc value="0" flag="1"/>
			<vel value="0" flag="1"/>
			<psa03 value="0" flag="1"/>
			<psa10 value="0" flag="1"/>
			<psa30 value="0" flag="1"/>
		</comp>
	</station>
	<station code="PATG" name="PATG" netid="HL" source="National Observatory of Athens Seismic Network" insttype="" lat="38.23865" lon="21.72657" esm:processing="discarded" esm:quality="bad">
		<comp name="00.HNE" depth="0.0">
			<acc value="0" flag="1"/>
			<vel value="0" flag="1"/>
			<psa03 value="0" flag="1"/>
			<psa10 value="0" flag="1"/>
			<psa30 value="0" flag="1"/>
		</comp>
		<comp name="00.HNN" depth="0.0">
			<acc value="0" flag="1"/>
			<vel value="0" flag="1"/>
			<psa03 value="0" flag="1"/>
			<psa10 value="0" flag="1"/>
			<psa30 value="0" flag="1"/>
		</comp>
		<comp name="00.HNZ" depth="0.0">
			<acc value="0" flag="1"/>
			<vel value="0" flag="1"/>
			<psa03 value="0" flag="1"/>
			<psa10 value="0" flag="1"/>
			<psa30 value="0" flag="1"/>
		</comp>
	</station>
	<station code="RIOA" name="RIOA" netid="HL" source="National Observatory of Athens Seismic Network" insttype="" lat="38.29585" lon="21.79118" esm:processing="discarded" esm:quality="good">
		<comp name="00.HNE" depth="0.0">
			<acc value="0" flag="1"/>
			<vel value="0" flag="1"/>
			<psa03 value="0" flag="1"/>
			<psa10 value="0" flag="1"/>
			<psa30 value="0" flag="1"/>
		</comp>
		<comp name="00.HNN" depth="0.0">
			<acc value="0" flag="1"/>
			<vel value="0" flag="1"/>
			<psa03 value="0" flag="1"/>
			<psa10 value="0" flag="1"/>
			<psa30 value="0" flag="1"/>
		</comp>
		<comp name="00.HNZ" depth="0.0">
			<acc value="0" flag="1"/>
			<vel value="0" flag="1"/>
			<psa03 value="0" flag="1"/>
			<psa10 value="0" flag="1"/>
			<psa30 value="0" flag="1"/>
		</comp>
	</station>
</stationlist>
