<?xml version="1.0" encoding="UTF-8" standalone="yes"?>
<!DOCTYPE earthquake SYSTEM "stationlist.dtd">
<stationlist created="" xmlns="ch.ethz.sed.shakemap.usgs.xml">
  <station code="KLMT" name="KLMT" netid="HC" source="NOA" insttype="120" lat="37.0616" lon="22.0635">
    <comp name="--.HHE">
      <acc value="0.0406296505" flag="0"/>
      <vel value="0.0322447725" flag="0"/>
      <psa03 value="0.1856640620" flag="0"/>
      <psa10 value="0.0504189701" flag="0"/>
      <psa30 value="0.0035515813" flag="0"/>
    </comp>
    <comp name="--.HHN">
      <acc value="0.0395377825" flag="0"/>
      <vel value="0.0354740160" flag="0"/>
      <psa03 value="0.1251812983" flag="0"/>
      <psa10 value="0.0721253784" flag="0"/>
      <psa30 value="0.0033027275" flag="0"/>
    </comp>
    <comp name="--.HHZ">
      <acc value="0.0375004898" flag="0"/>
      <vel value="0.0201861088" flag="0"/>
      <psa03 value="0.0864533259" flag="0"/>
      <psa10 value="0.0207564795" flag="0"/>
      <psa30 value="0.0013352844" flag="0"/>
    </comp>
  </station>
  <station code="ITM" name="ITM" netid="HL" source="NOA" insttype="CMG-5" lat="37.1787" lon="21.9252">
    <comp name="00.HNE">
      <acc value="0.0142474936" flag="0"/>
      <vel value="0.0072036773" flag="0"/>
      <psa03 value="0.0454480211" flag="0"/>
      <psa10 value="0.0073882906" flag="0"/>
      <psa30 value="0.0005933154" flag="0"/>
    </comp>
    <comp name="00.HNN">
      <acc value="0.0177185849" flag="0"/>
      <vel value="0.0067689669" flag="0"/>
      <psa03 value="0.0311505720" flag="0"/>
      <psa10 value="0.0090023767" flag="0"/>
      <psa30 value="0.0005405420" flag="0"/>
    </comp>
    <comp name="00.HNZ">
      <acc value="0.0206376238" flag="0"/>
      <vel value="0.0053029884" flag="0"/>
      <psa03 value="0.0237789892" flag="0"/>
      <psa10 value="0.0081519451" flag="0"/>
      <psa30 value="0.0004696618" flag="0"/>
    </comp>
  </station>
  <station code="LTHK" name="LTHK" netid="HP" source="NOA" insttype="40," lat="37.7095" lon="20.8367">
    <comp name="--.HHE">
      <acc value="0.0406438013" flag="0"/>
      <vel value="0.0109755062" flag="0"/>
      <psa03 value="0.0514049816" flag="0"/>
      <psa10 value="0.0084026414" flag="0"/>
      <psa30 value="0.0006120701" flag="0"/>
    </comp>
    <comp name="--.HHN">
      <acc value="0.0431123680" flag="0"/>
      <vel value="0.0132341070" flag="0"/>
      <psa03 value="0.0843481894" flag="0"/>
      <psa10 value="0.0126843260" flag="0"/>
      <psa30 value="0.0007148289" flag="0"/>
    </comp>
    <comp name="--.HHZ">
      <acc value="0.0254951608" flag="0"/>
      <vel value="0.0066502503" flag="0"/>
      <psa03 value="0.0405134773" flag="0"/>
      <psa10 value="0.0051023876" flag="0"/>
      <psa30 value="0.0003596655" flag="0"/>
    </comp>
  </station>
</stationlist>
