<stationlist created="1770373840">
	<station code="SPAOL" name="SPAOL" netid="7C" source="Urban Seismic Network (RUSN-CAL-INGV)" insttype="" lat="37.54939" lon="15.071367">
		<comp name="--.HNE" depth="0.0">
			<acc value="0.074069814006138" flag="0"/>
			<vel value="0.00517757224566" flag="0"/>
			<psa03 value="0.000752384395810253" flag="0"/>
			<psa10 value="0.000473801728837486" flag="0"/>
			<psa30 value="0.00060637532564086" flag="0"/>
		</comp>
		<comp name="--.HNN" depth="0.0">
			<acc value="0.038366434110984" flag="0"/>
			<vel value="0.00311206948179" flag="0"/>
			<psa03 value="0.000549256193469356" flag="0"/>
			<psa10 value="0.000464977482161844" flag="0"/>
			<psa30 value="0.000412589389313699" flag="0"/>
		</comp>
		<comp name="--.HNZ" depth="0.0">
			<acc value="0.047273710457058" flag="0"/>
			<vel value="0.00622108435003" flag="0"/>
			<psa03 value="0.000992196017831155" flag="0"/>
			<psa10 value="0.000888636367796409" flag="0"/>
			<psa30 value="0.000914182851793053" flag="0"/>
		</comp>
	</station>
	<station code="MARCO" name="MARCO" netid="GE" source="GEOFON" insttype="" lat="40.29724" lon="15.80632">
		<comp name="--.HLE" depth="1.0">
			<acc value="0.01165080561237" flag="0"/>
			<vel value="0.00607849179059" flag="0"/>
			<psa03 value="0.025156736822865" flag="0"/>
			<psa10 value="0.00882858360034611" flag="0"/>
			<psa30 value="0.00108760069404012" flag="0"/>
		</comp>
		<comp name="--.HLN" depth="1.0">
			<acc value="0.014622680351274" flag="0"/>
			<vel value="0.0085409422971" flag="0"/>
			<psa03 value="0.0351230923574844" flag="0"/>
			<psa10 value="0.014187472975437" flag="0"/>
			<psa30 value="0.0012969548752272" flag="0"/>
		</comp>
		<comp name="--.HLZ" depth="1.0">
			<acc value="0.0046547277179604" flag="0"/>
			<vel value="0.0020677310909" flag="0"/>
			<psa03 value="0.0120565005068886" flag="0"/>
			<psa10 value="0.00249858965992797" flag="0"/>
			<psa30 value="0.000406308764919775" flag="0"/>
		</comp>
	</station>
	<station code="ARMO" name="ARMO" netid="IT" source="Italian Strong Motion Network (RAN)" insttype="" lat="38.0761" lon="15.7125">
		<comp name="--.HNE" depth="0.0">
			<acc value="1.7550843391242" flag="0"/>
			<vel value="0.839743168293" flag="0"/>
			<psa03 value="3.2016454266284" flag="0"/>
			<psa10 value="0.761148382342887" flag="0"/>
			<psa30 value="0.0277211930596747" flag="0"/>
		</comp>
		<comp name="--.HNN" depth="0.0">
			<acc value="1.7911189188408" flag="0"/>
			<vel value="0.62507888601" flag="0"/>
			<psa03 value="2.93105316788936" flag="0"/>
			<psa10 value="0.585705760132736" flag="0"/>
			<psa30 value="0.0311940064498245" flag="0"/>
		</comp>
		<comp name="--.HNZ" depth="0.0">
			<acc value="1.7477222671416" flag="0"/>
			<vel value="0.993065678804" flag="0"/>
			<psa03 value="4.41327269098903" flag="0"/>
			<psa10 value="0.839204853201714" flag="0"/>
			<psa30 value="0.0351574223400135" flag="0"/>
		</comp>
	</station>
	<station code="BVM" name="BVM" netid="IT" source="Italian Strong Motion Network (RAN)" insttype="" lat="37.931" lon="15.936">
		<comp name="--.HNE" depth="0.0">
			<acc value="1.308269291805" flag="0"/>
			<vel value="1.00476350206" flag="0"/>
			<psa03 value="2.68294789879692" flag="0"/>
			<psa10 value="0.866024409866985" flag="0"/>
			<psa30 value="0.0345318375647861" flag="0"/>
		</comp>
		<comp name="--.HNN" depth="0.0">
			<acc value="1.3861433850396" flag="0"/>
			<vel value="0.645903693814" flag="0"/>
			<psa03 value="1.48620862069503" flag="0"/>
			<psa10 value="0.56399926218392" flag="0"/>
			<psa30 value="0.0262699302539565" flag="0"/>
		</comp>
		<comp name="--.HNZ" depth="0.0">
			<acc value="0.614403998985" flag="0"/>
			<vel value="0.231579925681" flag="0"/>
			<psa03 value="1.14706798762553" flag="0"/>
			<psa10 value="0.205857872073777" flag="0"/>
			<psa30 value="0.0105386022973379" flag="0"/>
		</comp>
	</station>
	<station code="DLNV" name="DLNV" netid="IT" source="Italian Strong Motion Network (RAN)" insttype="" lat="38.237" lon="15.919">
		<comp name="--.HNE" depth="0.0">
			<acc value="1.2548660116854" flag="0"/>
			<vel value="0.444526622079" flag="0"/>
			<psa03 value="3.69779229392398" flag="0"/>
			<psa10 value="0.227350305842129" flag="0"/>
			<psa30 value="0.0129516796518952" flag="0"/>
		</comp>
		<comp name="--.HNN" depth="0.0">
			<acc value="1.123573744587" flag="0"/>
			<vel value="0.426065746382" flag="0"/>
			<psa03 value="2.69661813771565" flag="0"/>
			<psa10 value="0.199902372551248" flag="0"/>
			<psa30 value="0.0154085540744029" flag="0"/>
		</comp>
		<comp name="--.HNZ" depth="0.0">
			<acc value="0.87228220107612" flag="0"/>
			<vel value="0.250831457355" flag="0"/>
			<psa03 value="0.960120686618232" flag="0"/>
			<psa10 value="0.126363750978215" flag="0"/>
			<psa30 value="0.00866246551249509" flag="0"/>
		</comp>
	</station>
	<station code="FRR" name="FRR" netid="IT" source="Italian Strong Motion Network (RAN)" insttype="" lat="38.0515" lon="16.1325">
		<comp name="--.HGE" depth="0.0">
			<acc value="1.3145796493968" flag="0"/>
			<vel value="0.541362955494" flag="0"/>
			<psa03 value="3.82080510958627" flag="0"/>
			<psa10 value="0.246730749701194" flag="0"/>
			<psa30 value="0.018086538144374" flag="0"/>
		</comp>
		<comp name="--.HGN" depth="0.0">
			<acc value="1.3951247309412" flag="0"/>
			<vel value="0.485452002143" flag="0"/>
			<psa03 value="2.268342266543" flag="0"/>
			<psa10 value="0.245837785546688" flag="0"/>
			<psa30 value="0.0169177523847376" flag="0"/>
		</comp>
		<comp name="--.HGZ" depth="0.0">
			<acc value="1.4713804657476" flag="0"/>
			<vel value="0.222608972575" flag="0"/>
			<psa03 value="0.949970764234345" flag="0"/>
			<psa10 value="0.136456554576849" flag="0"/>
			<psa30 value="0.00486812082243673" flag="0"/>
		</comp>
	</station>
	<station code="GMB" name="GMB" netid="IT" source="Italian Strong Motion Network (RAN)" insttype="" lat="38.1666" lon="15.8363">
		<comp name="--.HGE" depth="0.0">
			<acc value="0.7060841881938" flag="0"/>
			<vel value="0.272277870905" flag="0"/>
			<psa03 value="1.26553458545366" flag="0"/>
			<psa10 value="0.218205985075461" flag="0"/>
			<psa30 value="0.00963756010771506" flag="0"/>
		</comp>
		<comp name="--.HGN" depth="0.0">
			<acc value="0.7213512058155" flag="0"/>
			<vel value="0.29715565926" flag="0"/>
			<psa03 value="1.04465612000988" flag="0"/>
			<psa10 value="0.117859447610027" flag="0"/>
			<psa30 value="0.015495118142203" flag="0"/>
		</comp>
		<comp name="--.HGZ" depth="0.0">
			<acc value="0.5677328495172" flag="0"/>
			<vel value="0.106555492736" flag="0"/>
			<psa03 value="0.379827703387826" flag="0"/>
			<psa10 value="0.0601658169402742" flag="0"/>
			<psa30 value="0.00314664386638115" flag="0"/>
		</comp>
	</station>
	<station code="LAZR" name="LAZR" netid="IT" source="Italian Strong Motion Network (RAN)" insttype="" lat="37.9778" lon="15.6659">
		<comp name="--.HNE" depth="0.0">
			<acc value="1.070179089975" flag="0"/>
			<vel value="0.613619452829" flag="0"/>
			<psa03 value="3.24202343480737" flag="0"/>
			<psa10 value="0.576904617101286" flag="0"/>
			<psa30 value="0.0292084882523294" flag="0"/>
		</comp>
		<comp name="--.HNN" depth="0.0">
			<acc value="0.43670988078492" flag="0"/>
			<vel value="0.274483235174" flag="0"/>
			<psa03 value="1.3685118238605" flag="0"/>
			<psa10 value="0.309305279956717" flag="0"/>
			<psa30 value="0.0207237495133453" flag="0"/>
		</comp>
		<comp name="--.HNZ" depth="0.0">
			<acc value="0.46559289553038" flag="0"/>
			<vel value="0.215657075134" flag="0"/>
			<psa03 value="0.735496806387821" flag="0"/>
			<psa10 value="0.173094276646452" flag="0"/>
			<psa30 value="0.00804631469551451" flag="0"/>
		</comp>
	</station>
	<station code="MLPS" name="MLPS" netid="IT" source="Italian Strong Motion Network (RAN)" insttype="" lat="37.9227" lon="15.7776">
		<comp name="--.HNE" depth="0.0">
			<acc value="1.8224106172548" flag="0"/>
			<vel value="1.02545044715" flag="0"/>
			<psa03 value="4.38570253127099" flag="0"/>
			<psa10 value="0.639538926317116" flag="0"/>
			<psa30 value="0.0271516519970255" flag="0"/>
		</comp>
		<comp name="--.HNN" depth="0.0">
			<acc value="1.3799313525102" flag="0"/>
			<vel value="0.547530479453" flag="0"/>
			<psa03 value="2.92284929108901" flag="0"/>
			<psa10 value="0.315565644675328" flag="0"/>
			<psa30 value="0.0237639659128027" flag="0"/>
		</comp>
		<comp name="--.HNZ" depth="0.0">
			<acc value="1.2381715338834" flag="0"/>
			<vel value="0.390975759777" flag="0"/>
			<psa03 value="1.51608309973064" flag="0"/>
			<psa10 value="0.140476640888223" flag="0"/>
			<psa30 value="0.0144384531433067" flag="0"/>
		</comp>
	</station>
	<station code="ACATE" name="ACATE" netid="IV" source="Italian National Seismic Network (INSN)" insttype="" lat="37.02398" lon="14.50064">
		<comp name="--.HNE" depth="0.0">
			<acc value="0.14439667995612" flag="0"/>
			<vel value="0.0379005461089" flag="0"/>
			<psa03 value="0.230821332446978" flag="0"/>
			<psa10 value="0.0310102192748216" flag="0"/>
			<psa30 value="0.00239220451347668" flag="0"/>
		</comp>
		<comp name="--.HNN" depth="0.0">
			<acc value="0.12671542346844" flag="0"/>
			<vel value="0.0565910712345" flag="0"/>
			<psa03 value="0.302819914499992" flag="0"/>
			<psa10 value="0.0335224656988418" flag="0"/>
			<psa30 value="0.00253527753302843" flag="0"/>
		</comp>
		<comp name="--.HNZ" depth="0.0">
			<acc value="0.086568238280982" flag="0"/>
			<vel value="0.0258822976664" flag="0"/>
			<psa03 value="0.176542695087271" flag="0"/>
			<psa10 value="0.0284283344876339" flag="0"/>
			<psa30 value="0.0013151722278712" flag="0"/>
		</comp>
	</station>
	<station code="ACER" name="ACER" netid="IV" source="Italian National Seismic Network (INSN)" insttype="" lat="40.7867" lon="15.9427">
		<comp name="--.HNE" depth="1.0">
			<acc value="0.018142207596006" flag="0"/>
			<vel value="0.0116953885215" flag="0"/>
			<psa03 value="0.0477101970247551" flag="0"/>
			<psa10 value="0.0134389918297597" flag="0"/>
			<psa30 value="0.00134416196079965" flag="0"/>
		</comp>
		<comp name="--.HNN" depth="1.0">
			<acc value="0.017575119834738" flag="0"/>
			<vel value="0.00858054256851" flag="0"/>
			<psa03 value="0.0356659382141852" flag="0"/>
			<psa10 value="0.00985530317797065" flag="0"/>
			<psa30 value="0.000892764870458958" flag="0"/>
		</comp>
		<comp name="--.HNZ" depth="1.0">
			<acc value="0.016580690633448" flag="0"/>
			<vel value="0.00676546953888" flag="0"/>
			<psa03 value="0.0225749876696409" flag="0"/>
			<psa10 value="0.00439357214632524" flag="0"/>
			<psa30 value="0.00076500932394725" flag="0"/>
		</comp>
	</station>
	<station code="BASIC" name="BASIC" netid="IV" source="Italian National Seismic Network (INSN)" insttype="" lat="38.06703" lon="15.068847">
		<comp name="--.HNE" depth="0.0">
			<acc value="0.0002852287891968" flag="0"/>
			<vel value="0.000318849490769" flag="0"/>
			<psa03 value="0.000497456985659401" flag="0"/>
			<psa10 value="0.000699639140629411" flag="0"/>
			<psa30 value="0.000133517738124046" flag="0"/>
		</comp>
		<comp name="--.HNN" depth="0.0">
			<acc value="0.00029950759933212" flag="0"/>
			<vel value="0.000333730889936" flag="0"/>
			<psa03 value="0.000474252201387048" flag="0"/>
			<psa10 value="0.000662703588358857" flag="0"/>
			<psa30 value="0.000155006453312797" flag="0"/>
		</comp>
		<comp name="--.HNZ" depth="0.0">
			<acc value="0.00026960324828568" flag="0"/>
			<vel value="0.000314891105834" flag="0"/>
			<psa03 value="0.00048067275204073" flag="0"/>
			<psa10 value="0.000678831707549336" flag="0"/>
			<psa30 value="0.000125170192952851" flag="0"/>
		</comp>
	</station>
	<station code="BRICA" name="BRICA" netid="IV" source="Italian National Seismic Network (INSN)" insttype="" lat="38.72384" lon="16.02905">
		<comp name="--.HNE" depth="0.0">
			<acc value="0.23885687263488" flag="0"/>
			<vel value="0.0834316418221" flag="0"/>
			<psa03 value="0.543807232892639" flag="0"/>
			<psa10 value="0.0607942385697882" flag="0"/>
			<psa30 value="0.00441772515261198" flag="0"/>
		</comp>
		<comp name="--.HNN" depth="0.0">
			<acc value="0.16231193982948" flag="0"/>
			<vel value="0.0663582416542" flag="0"/>
			<psa03 value="0.31069193598251" flag="0"/>
			<psa10 value="0.0339722704962046" flag="0"/>
			<psa30 value="0.00443044599530186" flag="0"/>
		</comp>
		<comp name="--.HNZ" depth="0.0">
			<acc value="0.3202397529573" flag="0"/>
			<vel value="0.0583753864933" flag="0"/>
			<psa03 value="0.214009093718779" flag="0"/>
			<psa10 value="0.0317239815580654" flag="0"/>
			<psa30 value="0.00167201555449191" flag="0"/>
		</comp>
	</station>
	<station code="CAR1" name="CAR1" netid="IV" source="Italian National Seismic Network (INSN)" insttype="" lat="39.2534" lon="16.2114">
		<comp name="--.HNE" depth="0.0">
			<acc value="0.16506621315582" flag="0"/>
			<vel value="0.0959182409691" flag="0"/>
			<psa03 value="0.451130135159549" flag="0"/>
			<psa10 value="0.122811845681878" flag="0"/>
			<psa30 value="0.0071062082514211" flag="0"/>
		</comp>
		<comp name="--.HNN" depth="0.0">
			<acc value="0.1398553881783" flag="0"/>
			<vel value="0.070359897715" flag="0"/>
			<psa03 value="0.373226766108126" flag="0"/>
			<psa10 value="0.0739790132466701" flag="0"/>
			<psa30 value="0.00347549752631882" flag="0"/>
		</comp>
		<comp name="--.HNZ" depth="0.0">
			<acc value="0.10631108502084" flag="0"/>
			<vel value="0.0480943061379" flag="0"/>
			<psa03 value="0.259470042783498" flag="0"/>
			<psa10 value="0.0259768889664115" flag="0"/>
			<psa30 value="0.0020662847978949" flag="0"/>
		</comp>
	</station>
	<station code="CELI" name="CELI" netid="IV" source="Italian National Seismic Network (INSN)" insttype="" lat="39.4027" lon="16.5088">
		<comp name="--.HNE" depth="0.0">
			<acc value="0.024051691987986" flag="0"/>
			<vel value="0.0145197791556" flag="0"/>
			<psa03 value="0.0571427281334355" flag="0"/>
			<psa10 value="0.0220651417073431" flag="0"/>
			<psa30 value="0.00288467526224545" flag="0"/>
		</comp>
		<comp name="--.HNN" depth="0.0">
			<acc value="0.04397873800569" flag="0"/>
			<vel value="0.0266643784231" flag="0"/>
			<psa03 value="0.112106166066754" flag="0"/>
			<psa10 value="0.0448769953806423" flag="0"/>
			<psa30 value="0.00212732550820893" flag="0"/>
		</comp>
		<comp name="--.HNZ" depth="0.0">
			<acc value="0.015413186071128" flag="0"/>
			<vel value="0.0100636061" flag="0"/>
			<psa03 value="0.0333608037395105" flag="0"/>
			<psa10 value="0.0174333823760155" flag="0"/>
			<psa30 value="0.00177050020361482" flag="0"/>
		</comp>
	</station>
	<station code="CIMI" name="CIMI" netid="IV" source="Italian National Seismic Network (INSN)" insttype="" lat="37.881475" lon="13.572629">
		<comp name="--.HNE" depth="0.0">
			<acc value="0.01769741634717" flag="0"/>
			<vel value="0.0144859771838" flag="0"/>
			<psa03 value="0.0509788458481878" flag="0"/>
			<psa10 value="0.0306455169901049" flag="0"/>
			<psa30 value="0.00156659815443945" flag="0"/>
		</comp>
		<comp name="--.HNN" depth="0.0">
			<acc value="0.014889834930456" flag="0"/>
			<vel value="0.0106512219344" flag="0"/>
			<psa03 value="0.0637927728331876" flag="0"/>
			<psa10 value="0.0182796559374752" flag="0"/>
			<psa30 value="0.00178864515562811" flag="0"/>
		</comp>
		<comp name="--.HNZ" depth="0.0">
			<acc value="0.012568947922668" flag="0"/>
			<vel value="0.00842326046542" flag="0"/>
			<psa03 value="0.0477684404664902" flag="0"/>
			<psa10 value="0.00617663667188127" flag="0"/>
			<psa30 value="0.00245044899688637" flag="0"/>
		</comp>
	</station>
	<station code="CLTB" name="CLTB" netid="IV" source="Italian National Seismic Network (INSN)" insttype="" lat="37.578" lon="13.216">
		<comp name="--.HNE" depth="0.0">
			<acc value="0.013707647768934" flag="0"/>
			<vel value="0.0091603927213" flag="0"/>
			<psa03 value="0.0505374832767649" flag="0"/>
			<psa10 value="0.0100807896778419" flag="0"/>
			<psa30 value="0.00107142493497755" flag="0"/>
		</comp>
		<comp name="--.HNN" depth="0.0">
			<acc value="0.017082775801464" flag="0"/>
			<vel value="0.0143594106068" flag="0"/>
			<psa03 value="0.0525893900388285" flag="0"/>
			<psa10 value="0.0188213980752489" flag="0"/>
			<psa30 value="0.00194043750279528" flag="0"/>
		</comp>
		<comp name="--.HNZ" depth="0.0">
			<acc value="0.007142377817982" flag="0"/>
			<vel value="0.00439400725046" flag="0"/>
			<psa03 value="0.0241253924596664" flag="0"/>
			<psa10 value="0.00430691140549344" flag="0"/>
			<psa30 value="0.000715237068444574" flag="0"/>
		</comp>
	</station>
	<station code="CORL" name="CORL" netid="IV" source="Italian National Seismic Network (INSN)" insttype="" lat="37.8943" lon="13.3038">
		<comp name="--.HNE" depth="0.0">
			<acc value="0.01327514663841" flag="0"/>
			<vel value="0.00887687412247" flag="0"/>
			<psa03 value="0.0646543819936322" flag="0"/>
			<psa10 value="0.0115913438071251" flag="0"/>
			<psa30 value="0.00211654833594019" flag="0"/>
		</comp>
		<comp name="--.HNN" depth="0.0">
			<acc value="0.0097018949242998" flag="0"/>
			<vel value="0.00827989459428" flag="0"/>
			<psa03 value="0.0321368789105085" flag="0"/>
			<psa10 value="0.014569890496234" flag="0"/>
			<psa30 value="0.00223517369428948" flag="0"/>
		</comp>
		<comp name="--.HNZ" depth="0.0">
			<acc value="0.0087811587200256" flag="0"/>
			<vel value="0.00502011150193" flag="0"/>
			<psa03 value="0.0357250853615599" flag="0"/>
			<psa10 value="0.00896866944283946" flag="0"/>
			<psa30 value="0.000770955915797777" flag="0"/>
		</comp>
	</station>
	<station code="CRJA" name="CRJA" netid="IV" source="Italian National Seismic Network (INSN)" insttype="" lat="37.80162" lon="13.00433">
		<comp name="--.HNE" depth="0.0">
			<acc value="0.0053521698461268" flag="0"/>
			<vel value="0.0062467849633" flag="0"/>
			<psa03 value="0.0104358469225808" flag="0"/>
			<psa10 value="0.0100023091663864" flag="0"/>
			<psa30 value="0.00197563650122154" flag="0"/>
		</comp>
		<comp name="--.HNN" depth="0.0">
			<acc value="0.0057837973443966" flag="0"/>
			<vel value="0.00504631948173" flag="0"/>
			<psa03 value="0.0169248542614588" flag="0"/>
			<psa10 value="0.0071577147884577" flag="0"/>
			<psa30 value="0.00172353011291132" flag="0"/>
		</comp>
		<comp name="--.HNZ" depth="0.0">
			<acc value="0.0039713167802148" flag="0"/>
			<vel value="0.00501235117453" flag="0"/>
			<psa03 value="0.0128503955464828" flag="0"/>
			<psa10 value="0.00976679731489532" flag="0"/>
			<psa30 value="0.00183264411201196" flag="0"/>
		</comp>
	</station>
	<station code="CSLB" name="CSLB" netid="IV" source="Italian National Seismic Network (INSN)" insttype="" lat="37.93745" lon="14.05785">
		<comp name="--.HNE" depth="0.0">
			<acc value="0.010927036471692" flag="0"/>
			<vel value="0.0069425420135" flag="0"/>
			<psa03 value="0.0378167395484129" flag="0"/>
			<psa10 value="0.0100802046390925" flag="0"/>
			<psa30 value="0.00105656738823792" flag="0"/>
		</comp>
		<comp name="--.HNN" depth="0.0">
			<acc value="0.012541560668586" flag="0"/>
			<vel value="0.0075932068201" flag="0"/>
			<psa03 value="0.0345022048725724" flag="0"/>
			<psa10 value="0.00935182107475168" flag="0"/>
			<psa30 value="0.000972615576842593" flag="0"/>
		</comp>
		<comp name="--.HNZ" depth="0.0">
			<acc value="0.0089521834908342" flag="0"/>
			<vel value="0.00494468032136" flag="0"/>
			<psa03 value="0.0237020076416686" flag="0"/>
			<psa10 value="0.00767044922336073" flag="0"/>
			<psa30 value="0.000655023652519601" flag="0"/>
		</comp>
	</station>
	<station code="ECHR" name="ECHR" netid="IV" source="Italian National Seismic Network (INSN)" insttype="" lat="37.6863" lon="14.9129">
		<comp name="--.HNE" depth="0.0">
			<acc value="0.042696721493316" flag="0"/>
			<vel value="0.0239826087206" flag="0"/>
			<psa03 value="0.167140051374854" flag="0"/>
			<psa10 value="0.026014299569668" flag="0"/>
			<psa30 value="0.0014934446625468" flag="0"/>
		</comp>
		<comp name="--.HNN" depth="0.0">
			<acc value="0.06649162234896" flag="0"/>
