<?xml version="1.0" encoding="UTF-8" standalone="yes"?>
<!DOCTYPE earthquake SYSTEM "stationlist.dtd">
<stationlist created="" xmlns="ch.ethz.sed.shakemap.usgs.xml">
  <station code="AIO" name="AIO" netid="IV" insttype="" commtype="DIG" lat="37.9712" lon="15.233">
    <comp name="--.HHE">
      <acc value="0.1579409245" flag="0"/>
      <vel value="0.0531839085" flag="0"/>
      <psa03 value="0.2944570773" flag="0"/>
      <psa10 value="0.0234172828" flag="0"/>
      <psa30 value="0.0020879089" flag="0"/>
    </comp>
    <comp name="--.HHN">
      <acc value="0.1176309045" flag="0"/>
      <vel value="0.0573580738" flag="0"/>
      <psa03 value="0.2854712240" flag="0"/>
      <psa10 value="0.0237996624" flag="0"/>
      <psa30 value="0.0027750095" flag="0"/>
    </comp>
    <comp name="--.HHZ">
      <acc value="0.0606415954" flag="0"/>
      <vel value="0.0287171762" flag="0"/>
      <psa03 value="0.1086612289" flag="0"/>
      <psa10 value="0.0178743321" flag="0"/>
      <psa30 value="0.0011786676" flag="0"/>
    </comp>
  </station>
  <station code="BASIC" name="BASIC" netid="IV" insttype="" commtype="DIG" lat="38.067" lon="15.0688">
    <comp name="--.HHN">
      <acc value="0.0174632854" flag="0"/>
      <vel value="0.0015973154" flag="0"/>
      <psa03 value="0.0059508250" flag="0"/>
      <psa10 value="0.0001102953" flag="0"/>
      <psa30 value="0.0000110261" flag="0"/>
    </comp>
    <comp name="--.HHE">
      <acc value="0.0102634815" flag="0"/>
      <vel value="0.0011646102" flag="0"/>
      <psa03 value="0.0028483358" flag="0"/>
      <psa10 value="0.0000802309" flag="0"/>
      <psa30 value="0.0000080584" flag="0"/>
    </comp>
    <comp name="--.HHZ">
      <acc value="0.0202536485" flag="0"/>
      <vel value="0.0017822193" flag="0"/>
      <psa03 value="0.0036400074" flag="0"/>
      <psa10 value="0.0001637655" flag="0"/>
      <psa30 value="0.0000178261" flag="0"/>
    </comp>
  </station>
  <station code="BRICA" name="BRICA" netid="IV" insttype="" commtype="DIG" lat="38.7238" lon="16.0291">
    <comp name="--.HNE">
      <acc value="0.2404360135" flag="0"/>
      <vel value="0.0826670082" flag="0"/>
      <psa03 value="0.5442772770" flag="0"/>
      <psa10 value="0.0608156497" flag="0"/>
      <psa30 value="0.0044596462" flag="0"/>
    </comp>
    <comp name="--.HNN">
      <acc value="0.1636309079" flag="0"/>
      <vel value="0.0659741038" flag="0"/>
      <psa03 value="0.3116854250" flag="0"/>
      <psa10 value="0.0339670816" flag="0"/>
      <psa30 value="0.0043913899" flag="0"/>
    </comp>
    <comp name="--.HNZ">
      <acc value="0.3173721642" flag="0"/>
      <vel value="0.0572849740" flag="0"/>
      <psa03 value="0.2134203827" flag="0"/>
      <psa10 value="0.0316817178" flag="0"/>
      <psa30 value="0.0017120629" flag="0"/>
    </comp>
  </station>
  <station code="CAR1" name="CAR1" netid="IV" insttype="" commtype="DIG" lat="39.2534" lon="16.2114">
    <comp name="--.HHE">
      <acc value="0.1629038944" flag="0"/>
      <vel value="0.0960434803" flag="0"/>
      <psa03 value="0.4577990756" flag="0"/>
      <psa10 value="0.1258326979" flag="0"/>
      <psa30 value="0.0073485732" flag="0"/>
    </comp>
    <comp name="--.HHN">
      <acc value="0.1467422561" flag="0"/>
      <vel value="0.0712199601" flag="0"/>
      <psa03 value="0.4116592827" flag="0"/>
      <psa10 value="0.0687763938" flag="0"/>
      <psa30 value="0.0034258344" flag="0"/>
    </comp>
    <comp name="--.HHZ">
      <acc value="0.1149622609" flag="0"/>
      <vel value="0.0495996132" flag="0"/>
      <psa03 value="0.2685098100" flag="0"/>
      <psa10 value="0.0262120581" flag="0"/>
      <psa30 value="0.0021754926" flag="0"/>
    </comp>
  </station>
  <station code="CELI" name="CELI" netid="IV" insttype="SS08" commtype="DIG" lat="39.4027" lon="16.5088">
    <comp name="--.HHE">
      <acc value="0.0230271103" flag="0"/>
      <vel value="0.0146107939" flag="0"/>
      <psa03 value="0.0570227532" flag="0"/>
      <psa10 value="0.0206731953" flag="0"/>
      <psa30 value="0.0027679768" flag="0"/>
    </comp>
    <comp name="--.HHZ">
      <acc value="0.0150881551" flag="0"/>
      <vel value="0.0096087290" flag="0"/>
      <psa03 value="0.0326734932" flag="0"/>
      <psa10 value="0.0169489906" flag="0"/>
      <psa30 value="0.0017194467" flag="0"/>
    </comp>
    <comp name="--.HHN">
      <acc value="0.0430139045" flag="0"/>
      <vel value="0.0259589766" flag="0"/>
      <psa03 value="0.1117913239" flag="0"/>
      <psa10 value="0.0429441870" flag="0"/>
      <psa30 value="0.0019910759" flag="0"/>
    </comp>
  </station>
  <station code="EBDA" name="EBDA" netid="IV" insttype="" commtype="DIG" lat="37.6335" lon="15.1223">
    <comp name="--.HHE">
      <acc value="0.3109713866" flag="0"/>
      <vel value="0.1450199896" flag="0"/>
      <psa03 value="0.5919969961" flag="0"/>
      <psa10 value="0.1266838730" flag="0"/>
      <psa30 value="0.0085711878" flag="0"/>
    </comp>
    <comp name="--.HHN">
      <acc value="0.3611388952" flag="0"/>
      <vel value="0.1060518057" flag="0"/>
      <psa03 value="0.4782602135" flag="0"/>
      <psa10 value="0.0602126560" flag="0"/>
      <psa30 value="0.0038115441" flag="0"/>
    </comp>
    <comp name="--.HHZ">
      <acc value="0.3407181576" flag="0"/>
      <vel value="0.1205889941" flag="0"/>
      <psa03 value="0.3578878757" flag="0"/>
      <psa10 value="0.0557825133" flag="0"/>
      <psa30 value="0.0035581363" flag="0"/>
    </comp>
  </station>
  <station code="ECBD" name="ECBD" netid="IV" insttype="" commtype="DIG" lat="37.7802" lon="15.0865">
    <comp name="--.HHE">
      <acc value="0.4104924061" flag="0"/>
      <vel value="0.1498939329" flag="0"/>
      <psa03 value="0.5761631674" flag="0"/>
      <psa10 value="0.0976015878" flag="0"/>
      <psa30 value="0.0063710092" flag="0"/>
    </comp>
    <comp name="--.HHN">
      <acc value="0.4899921252" flag="0"/>
      <vel value="0.1609367971" flag="0"/>
      <psa03 value="0.8949869345" flag="0"/>
      <psa10 value="0.0781933881" flag="0"/>
      <psa30 value="0.0084579178" flag="0"/>
    </comp>
    <comp name="--.HHZ">
      <acc value="0.1913989462" flag="0"/>
      <vel value="0.0653886321" flag="0"/>
      <psa03 value="0.5066781352" flag="0"/>
      <psa10 value="0.0644006913" flag="0"/>
      <psa30 value="0.0032652353" flag="0"/>
    </comp>
  </station>
  <station code="ECHR" name="ECHR" netid="IV" insttype="" commtype="DIG" lat="37.6863" lon="14.9129">
    <comp name="--.HHE">
      <acc value="0.1813772857" flag="0"/>
      <vel value="0.0992381547" flag="0"/>
      <psa03 value="0.6859998216" flag="0"/>
      <psa10 value="0.1045184284" flag="0"/>
      <psa30 value="0.0060419693" flag="0"/>
    </comp>
    <comp name="--.HHN">
      <acc value="0.2694117065" flag="0"/>
      <vel value="0.1043914515" flag="0"/>
      <psa03 value="0.5174474450" flag="0"/>
      <psa10 value="0.0595023418" flag="0"/>
      <psa30 value="0.0062777551" flag="0"/>
    </comp>
    <comp name="--.HHZ">
      <acc value="0.1353958057" flag="0"/>
      <vel value="0.0537560064" flag="0"/>
      <psa03 value="0.4043370893" flag="0"/>
      <psa10 value="0.0338496287" flag="0"/>
      <psa30 value="0.0040453058" flag="0"/>
    </comp>
  </station>
  <station code="ECNE" name="ECNE" netid="IV" insttype="" commtype="DIG" lat="37.7653" lon="15.0018">
    <comp name="--.HHE">
      <acc value="0.2878943343" flag="0"/>
      <vel value="0.1253703618" flag="0"/>
      <psa03 value="0.8406880642" flag="0"/>
      <psa10 value="0.1190403357" flag="0"/>
      <psa30 value="0.0062183735" flag="0"/>
    </comp>
    <comp name="--.HHN">
      <acc value="0.3592416107" flag="0"/>
      <vel value="0.1368837380" flag="0"/>
      <psa03 value="0.7762985550" flag="0"/>
      <psa10 value="0.0689096365" flag="0"/>
      <psa30 value="0.0042825642" flag="0"/>
    </comp>
    <comp name="--.HHZ">
      <acc value="0.2002295599" flag="0"/>
      <vel value="0.0802667885" flag="0"/>
      <psa03 value="0.4578098450" flag="0"/>
      <psa10 value="0.0813319598" flag="0"/>
      <psa30 value="0.0022642916" flag="0"/>
    </comp>
  </station>
  <station code="ECPN" name="ECPN" netid="IV" insttype="" commtype="DIG" lat="37.7437" lon="14.9865">
    <comp name="--.HHN">
      <acc value="0.3710073080" flag="0"/>
      <vel value="0.1624032680" flag="0"/>
      <psa03 value="0.8605968376" flag="0"/>
      <psa10 value="0.0889936394" flag="0"/>
      <psa30 value="0.0069044737" flag="0"/>
    </comp>
    <comp name="--.HHE">
      <acc value="0.2105635923" flag="0"/>
      <vel value="0.1046994131" flag="0"/>
      <psa03 value="0.5822635240" flag="0"/>
      <psa10 value="0.1332776397" flag="0"/>
      <psa30 value="0.0073256798" flag="0"/>
    </comp>
    <comp name="--.HHZ">
      <acc value="0.1520041990" flag="0"/>
      <vel value="0.0607663350" flag="0"/>
      <psa03 value="0.4275534008" flag="0"/>
      <psa10 value="0.0624442735" flag="0"/>
      <psa30 value="0.0030183560" flag="0"/>
    </comp>
  </station>
  <station code="ECTS" name="ECTS" netid="IV" insttype="" commtype="DIG" lat="37.882" lon="15.121">
    <comp name="--.HHE">
      <acc value="0.1643721269" flag="0"/>
      <vel value="0.0689643442" flag="0"/>
      <psa03 value="0.3717806440" flag="0"/>
      <psa10 value="0.0740232696" flag="0"/>
      <psa30 value="0.0034534762" flag="0"/>
    </comp>
    <comp name="--.HHZ">
      <acc value="0.1468378636" flag="0"/>
      <vel value="0.0523545061" flag="0"/>
      <psa03 value="0.2828967469" flag="0"/>
      <psa10 value="0.0450959985" flag="0"/>
      <psa30 value="0.0024001926" flag="0"/>
    </comp>
    <comp name="--.HHN">
      <acc value="0.1632186729" flag="0"/>
      <vel value="0.0833918169" flag="0"/>
      <psa03 value="0.5949514275" flag="0"/>
      <psa10 value="0.0567444597" flag="0"/>
      <psa30 value="0.0045333402" flag="0"/>
    </comp>
  </station>
  <station code="EFIU" name="EFIU" netid="IV" insttype="" commtype="DIG" lat="37.7896" lon="15.2103">
    <comp name="--.HHN">
      <acc value="0.0894486858" flag="0"/>
      <vel value="0.0601206969" flag="0"/>
      <psa03 value="0.2232370375" flag="0"/>
      <psa10 value="0.0694804493" flag="0"/>
      <psa30 value="0.0111034033" flag="0"/>
    </comp>
    <comp name="--.HHE">
      <acc value="0.0983575808" flag="0"/>
      <vel value="0.0584636124" flag="0"/>
      <psa03 value="0.2436306683" flag="0"/>
      <psa10 value="0.0689146393" flag="0"/>
      <psa30 value="0.0113824431" flag="0"/>
    </comp>
    <comp name="--.HHZ">
      <acc value="0.0835353758" flag="0"/>
      <vel value="0.0452890244" flag="0"/>
      <psa03 value="0.1801652454" flag="0"/>
      <psa10 value="0.0507920819" flag="0"/>
      <psa30 value="0.0040422809" flag="0"/>
    </comp>
  </station>
  <station code="EMCN" name="EMCN" netid="IV" insttype="" commtype="DIG" lat="37.7912" lon="15.0336">
    <comp name="--.HHE">
      <acc value="0.5845319468" flag="0"/>
      <vel value="0.1817324244" flag="0"/>
      <psa03 value="0.8759698210" flag="0"/>
      <psa10 value="0.1373875255" flag="0"/>
      <psa30 value="0.0066024684" flag="0"/>
    </comp>
    <comp name="--.HHN">
      <acc value="0.5662026560" flag="0"/>
      <vel value="0.1825120277" flag="0"/>
      <psa03 value="1.2471037553" flag="0"/>
      <psa10 value="0.1297053038" flag="0"/>
      <psa30 value="0.0083134843" flag="0"/>
    </comp>
    <comp name="--.HHZ">
      <acc value="0.3499251269" flag="0"/>
      <vel value="0.1316926871" flag="0"/>
      <psa03 value="0.7354887326" flag="0"/>
      <psa10 value="0.0781854205" flag="0"/>
      <psa30 value="0.0047806311" flag="0"/>
    </comp>
  </station>
  <station code="EMCO" name="EMCO" netid="IV" insttype="" commtype="DIG" lat="37.9264" lon="14.9029">
    <comp name="--.HHE">
      <acc value="0.3546558876" flag="0"/>
      <vel value="0.1608931671" flag="0"/>
      <psa03 value="1.0402492508" flag="0"/>
      <psa10 value="0.0833767511" flag="0"/>
      <psa30 value="0.0078475397" flag="0"/>
    </comp>
    <comp name="--.HHN">
      <acc value="0.2948291249" flag="0"/>
      <vel value="0.1210607210" flag="0"/>
      <psa03 value="0.8518538895" flag="0"/>
      <psa10 value="0.0969956408" flag="0"/>
      <psa30 value="0.0068385894" flag="0"/>
    </comp>
    <comp name="--.HHZ">
      <acc value="0.1643511793" flag="0"/>
      <vel value="0.0416124153" flag="0"/>
      <psa03 value="0.2028247930" flag="0"/>
      <psa10 value="0.0326161169" flag="0"/>
      <psa30 value="0.0023971859" flag="0"/>
    </comp>
  </station>
  <station code="EMFO" name="EMFO" netid="IV" insttype="" commtype="DIG" lat="37.7357" lon="15.0902">
    <comp name="--.HHE">
      <acc value="0.4288568891" flag="0"/>
      <vel value="0.1572086428" flag="0"/>
      <psa03 value="0.8430849658" flag="0"/>
      <psa10 value="0.0585661148" flag="0"/>
      <psa30 value="0.0046846012" flag="0"/>
    </comp>
    <comp name="--.HHN">
      <acc value="0.4348632919" flag="0"/>
      <vel value="0.1827432754" flag="0"/>
      <psa03 value="1.3454404363" flag="0"/>
      <psa10 value="0.0786706325" flag="0"/>
      <psa30 value="0.0088142148" flag="0"/>
    </comp>
    <comp name="--.HHZ">
      <acc value="0.2981208986" flag="0"/>
      <vel value="0.1195252168" flag="0"/>
      <psa03 value="0.7796544524" flag="0"/>
      <psa10 value="0.0347479004" flag="0"/>
      <psa30 value="0.0023044485" flag="0"/>
    </comp>
  </station>
  <station code="EMFS" name="EMFS" netid="IV" insttype="" commtype="DIG" lat="37.7196" lon="14.9979">
    <comp name="--.HHE">
      <acc value="0.4844512187" flag="0"/>
      <vel value="0.1057617831" flag="0"/>
      <psa03 value="0.6962196858" flag="0"/>
      <psa10 value="0.0874766909" flag="0"/>
      <psa30 value="0.0047152101" flag="0"/>
    </comp>
  </station>
  <station code="EMNR" name="EMNR" netid="IV" insttype="" commtype="DIG" lat="37.8168" lon="15.026">
    <comp name="--.HHE">
      <acc value="1.1324435180" flag="0"/>
      <vel value="0.4563370992" flag="0"/>
      <psa03 value="1.4752140223" flag="0"/>
      <psa10 value="0.1755593973" flag="0"/>
      <psa30 value="0.0114562303" flag="0"/>
    </comp>
    <comp name="--.HHN">
      <acc value="0.8383281665" flag="0"/>
      <vel value="0.2966754796" flag="0"/>
      <psa03 value="1.4648681941" flag="0"/>
      <psa10 value="0.1034620782" flag="0"/>
      <psa30 value="0.0146712980" flag="0"/>
    </comp>
    <comp name="--.HHZ">
      <acc value="0.5630649023" flag="0"/>
      <vel value="0.1659107276" flag="0"/>
      <psa03 value="0.7792077428" flag="0"/>
      <psa10 value="0.0736259209" flag="0"/>
      <psa30 value="0.0047059743" flag="0"/>
    </comp>
  </station>
  <station code="EMPL" name="EMPL" netid="IV" insttype="" commtype="DIG" lat="37.679" lon="14.9703">
    <comp name="--.HHE">
      <acc value="0.5054026718" flag="0"/>
      <vel value="0.1368952952" flag="0"/>
      <psa03 value="0.6854072613" flag="0"/>
      <psa10 value="0.0782113358" flag="0"/>
      <psa30 value="0.0040389126" flag="0"/>
    </comp>
    <comp name="--.HHN">
      <acc value="0.5074977754" flag="0"/>
      <vel value="0.1368490660" flag="0"/>
      <psa03 value="0.7901799830" flag="0"/>
      <psa10 value="0.0782519402" flag="0"/>
      <psa30 value="0.0046495966" flag="0"/>
    </comp>
    <comp name="--.HHZ">
      <acc value="0.4765844717" flag="0"/>
      <vel value="0.1426742928" flag="0"/>
      <psa03 value="0.3944693344" flag="0"/>
      <psa10 value="0.0377435469" flag="0"/>
      <psa30 value="0.0019993116" flag="0"/>
    </comp>
  </station>
  <station code="EMSA" name="EMSA" netid="IV" insttype="" commtype="DIG" lat="37.498" lon="14.945">
    <comp name="--.HHE">
      <acc value="0.2595489084" flag="0"/>
      <vel value="0.1226100962" flag="0"/>
      <psa03 value="0.6263369244" flag="0"/>
      <psa10 value="0.1300627154" flag="0"/>
      <psa30 value="0.0119353491" flag="0"/>
    </comp>
    <comp name="--.HHN">
      <acc value="0.3625909995" flag="0"/>
      <vel value="0.1555440632" flag="0"/>
      <psa03 value="0.6592297281" flag="0"/>
      <psa10 value="0.1017576272" flag="0"/>
      <psa30 value="0.0099329531" flag="0"/>
    </comp>
    <comp name="--.HHZ">
      <acc value="0.3709201798" flag="0"/>
      <vel value="0.0889630085" flag="0"/>
      <psa03 value="0.4465799349" flag="0"/>
      <psa10 value="0.0614979494" flag="0"/>
      <psa30 value="0.0051602462" flag="0"/>
    </comp>
  </station>
  <station code="EMSG" name="EMSG" netid="IV" insttype="" commtype="DIG" lat="37.8208" lon="14.9498">
    <comp name="--.HHE">
      <acc value="0.7505015742" flag="0"/>
      <vel value="0.3183733637" flag="0"/>
      <psa03 value="1.3153720581" flag="0"/>
      <psa10 value="0.2625160921" flag="0"/>
      <psa30 value="0.0148985795" flag="0"/>
    </comp>
    <comp name="--.HHZ">
      <acc value="0.4131284750" flag="0"/>
      <vel value="0.2004685001" flag="0"/>
      <psa03 value="0.9925070799" flag="0"/>
      <psa10 value="0.1112130656" flag="0"/>
      <psa30 value="0.0058890298" flag="0"/>
    </comp>
    <comp name="--.HHN">
      <acc value="0.5122568946" flag="0"/>
      <vel value="0.3066942694" flag="0"/>
      <psa03 value="1.0802826665" flag="0"/>
      <psa10 value="0.1939465509" flag="0"/>
      <psa30 value="0.0115441435" flag="0"/>
    </comp>
  </station>
  <station code="EPLC" name="EPLC" netid="IV" insttype="" commtype="DIG" lat="37.7651" lon="14.9857">
    <comp name="--.HHN">
      <acc value="0.2682862286" flag="0"/>
      <vel value="0.1539832417" flag="0"/>
      <psa03 value="0.8051124395" flag="0"/>
      <psa10 value="0.1741938639" flag="0"/>
      <psa30 value="0.0061504525" flag="0"/>
    </comp>
  </station>
  <station code="EPMN" name="EPMN" netid="IV" insttype="" commtype="DIG" lat="37.8204" lon="15.1773">
    <comp name="--.HHE">
      <acc value="0.4598754034" flag="0"/>
      <vel value="0.1724133389" flag="0"/>
      <psa03 value="0.9908713696" flag="0"/>
      <psa10 value="0.1210776426" flag="0"/>
      <psa30 value="0.0071260682" flag="0"/>
    </comp>
    <comp name="--.HHZ">
      <acc value="0.2144164020" flag="0"/>
      <vel value="0.0760980875" flag="0"/>
      <psa03 value="0.4711792172" flag="0"/>
      <psa10 value="0.0366377826" flag="0"/>
      <psa30 value="0.0025953922" flag="0"/>
    </comp>
    <comp name="--.HHN">
      <acc value="0.0000591431" flag="0"/>
      <vel value="0.0000138165" flag="0"/>
      <psa03 value="0.0000605474" flag="0"/>
      <psa10 value="0.0000069533" flag="0"/>
      <psa30 value="0.0000010010" flag="0"/>
    </comp>
  </station>
  <station code="EPOZ" name="EPOZ" netid="IV" insttype="" commtype="DIG" lat="37.6719" lon="15.1885">
    <comp name="--.HHE">
      <acc value="0.1979056230" flag="0"/>
      <vel value="0.0669872931" flag="0"/>
      <psa03 value="0.4341782433" flag="0"/>
      <psa10 value="0.0565358510" flag="0"/>
      <psa30 value="0.0039126258" flag="0"/>
    </comp>
    <comp name="--.HHN">
      <acc value="0.2381293097" flag="0"/>
      <vel value="0.0827221496" flag="0"/>
      <psa03 value="0.4556254242" flag="0"/>
      <psa10 value="0.0575635179" flag="0"/>
      <psa30 value="0.0040237507" flag="0"/>
    </comp>
    <comp name="--.HHZ">
      <acc value="0.2484944387" flag="0"/>
      <vel value="0.0922643402" flag="0"/>
      <psa03 value="0.3232840745" flag="0"/>
      <psa10 value="0.0285632109" flag="0"/>
      <psa30 value="0.0025309672" flag="0"/>
    </comp>
  </station>
  <station code="EPZF" name="EPZF" netid="IV" insttype="" commtype="DIG" lat="37.824" lon="14.857">
    <comp name="--.HHZ">
      <acc value="0.1630054879" flag="0"/>
      <vel value="0.0767047244" flag="0"/>
      <psa03 value="0.4977844479" flag="0"/>
      <psa10 value="0.0538949982" flag="0"/>
      <psa30 value="0.0040484924" flag="0"/>
    </comp>
    <comp name="--.HHE">
