<stationlist xmlns:esm="https://esm-db.eu/esmws/shakemap/1/" created="1781229320">
	<station code="ACR" name="ACR" netid="IT" source="Italian Strong Motion Network (RAN)" insttype="" lat="39.4889" lon="16.3798" esm:processing="manual (Paolucci et al 2011)" esm:quality="good">
		<comp name="--.HNE" depth="0.0">
			<acc value="0.0529902087298225" flag="0"/>
			<vel value="0.02490855785396" flag="0"/>
			<psa03 value="0.0992349800804103" flag="0"/>
			<psa10 value="0.0295854867683004" flag="0"/>
			<psa30 value="0.00138614922141638" flag="0"/>
		</comp>
		<comp name="--.HNN" depth="0.0">
			<acc value="0.047942616969384" flag="0"/>
			<vel value="0.0225706128237666" flag="0"/>
			<psa03 value="0.117285519590065" flag="0"/>
			<psa10 value="0.0312887877286296" flag="0"/>
			<psa30 value="0.00134473356116548" flag="0"/>
		</comp>
		<comp name="--.HNZ" depth="0.0">
			<acc value="0.0272553262179227" flag="0"/>
			<vel value="0.0132477182287087" flag="0"/>
			<psa03 value="0.059240210831565" flag="0"/>
			<psa10 value="0.0151924467375357" flag="0"/>
			<psa30 value="0.000901052294459039" flag="0"/>
		</comp>
	</station>
	<station code="ALD" name="ALD" netid="IT" source="Italian Strong Motion Network (RAN)" insttype="" lat="39.9298" lon="16.4653" esm:processing="automatic (Paolucci et al 2011)" esm:quality="best">
		<comp name="--.HNE" depth="0.0">
			<acc value="0.0270173204892468" flag="0"/>
			<vel value="0.0182552498424346" flag="0"/>
			<psa03 value="0.084620970307318" flag="0"/>
			<psa10 value="0.0137661541276502" flag="0"/>
			<psa30 value="0.00187970097929812" flag="0"/>
		</comp>
		<comp name="--.HNN" depth="0.0">
			<acc value="0.0323873846453705" flag="0"/>
			<vel value="0.0134760971362116" flag="0"/>
			<psa03 value="0.0811948266754504" flag="0"/>
			<psa10 value="0.015524040891521" flag="0"/>
			<psa30 value="0.00109457855212383" flag="0"/>
		</comp>
		<comp name="--.HNZ" depth="0.0">
			<acc value="0.0137468724736262" flag="0"/>
			<vel value="0.00661873011203195" flag="0"/>
			<psa03 value="0.0279467054987506" flag="0"/>
			<psa10 value="0.0058891252818976" flag="0"/>
			<psa30 value="0.000769773181195403" flag="0"/>
		</comp>
	</station>
	<station code="ARMO" name="ARMO" netid="IT" source="Italian Strong Motion Network (RAN)" insttype="" lat="38.0761" lon="15.7125" esm:processing="automatic (Paolucci et al 2011)" esm:quality="best">
		<comp name="--.HNE" depth="0.0">
			<acc value="1.75617950083673" flag="0"/>
			<vel value="0.840227446583588" flag="0"/>
			<psa03 value="3.20166942821997" flag="0"/>
			<psa10 value="0.761182524606565" flag="0"/>
			<psa30 value="0.027810620650464" flag="0"/>
		</comp>
		<comp name="--.HNN" depth="0.0">
			<acc value="1.79195006421701" flag="0"/>
			<vel value="0.624066242566703" flag="0"/>
			<psa03 value="2.93118684340952" flag="0"/>
			<psa10 value="0.585691359178121" flag="0"/>
			<psa30 value="0.0314384526431957" flag="0"/>
		</comp>
		<comp name="--.HNZ" depth="0.0">
			<acc value="1.74863385630925" flag="0"/>
			<vel value="0.992877619742128" flag="0"/>
			<psa03 value="4.41327269098989" flag="0"/>
			<psa10 value="0.839238455428903" flag="0"/>
			<psa30 value="0.0351805972085743" flag="0"/>
		</comp>
	</station>
	<station code="BCL" name="BCL" netid="IT" source="Italian Strong Motion Network (RAN)" insttype="" lat="38.1827" lon="15.2316" esm:processing="manual (Paolucci et al 2011)" esm:quality="good">
		<comp name="--.HGE" depth="0.0">
			<acc value="0.687565148859679" flag="0"/>
			<vel value="0.360169375738608" flag="0"/>
			<psa03 value="1.71383836671405" flag="0"/>
			<psa10 value="0.35849182832424" flag="0"/>
			<psa30 value="0.0261770024312743" flag="0"/>
		</comp>
		<comp name="--.HGN" depth="0.0">
			<acc value="0.750981998811624" flag="0"/>
			<vel value="0.509573620072359" flag="0"/>
			<psa03 value="1.78236140602911" flag="0"/>
			<psa10 value="0.537364997793853" flag="0"/>
			<psa30 value="0.0225121763211972" flag="0"/>
		</comp>
		<comp name="--.HGZ" depth="0.0">
			<acc value="0.364898981152217" flag="0"/>
			<vel value="0.186967421907206" flag="0"/>
			<psa03 value="0.54743138964291" flag="0"/>
			<psa10 value="0.190677241431449" flag="0"/>
			<psa30 value="0.0108991561822735" flag="0"/>
		</comp>
	</station>
	<station code="BNT" name="BNT" netid="IT" source="Italian Strong Motion Network (RAN)" insttype="" lat="37.7805" lon="14.8444" esm:processing="automatic (Paolucci et al 2011)" esm:quality="best">
		<comp name="--.HNE" depth="0.0">
			<acc value="0.255335344469713" flag="0"/>
			<vel value="0.152707399391467" flag="0"/>
			<psa03 value="0.523293082265177" flag="0"/>
			<psa10 value="0.119047871337219" flag="0"/>
			<psa30 value="0.00895221804050997" flag="0"/>
		</comp>
		<comp name="--.HNN" depth="0.0">
			<acc value="0.185740111001117" flag="0"/>
			<vel value="0.113657652586929" flag="0"/>
			<psa03 value="0.605008620518548" flag="0"/>
			<psa10 value="0.0952352338668534" flag="0"/>
			<psa30 value="0.00689674520885595" flag="0"/>
		</comp>
		<comp name="--.HNZ" depth="0.0">
			<acc value="0.125634927238474" flag="0"/>
			<vel value="0.0834761048332066" flag="0"/>
			<psa03 value="0.308136120839085" flag="0"/>
			<psa10 value="0.0625231256002234" flag="0"/>
			<psa30 value="0.003958709328398" flag="0"/>
		</comp>
	</station>
	<station code="BRO" name="BRO" netid="IT" source="Italian Strong Motion Network (RAN)" insttype="" lat="38.6021" lon="16.3493" esm:processing="manual (Paolucci et al 2011)" esm:quality="good">
		<comp name="--.HGE" depth="0.0">
			<acc value="0.829297318891937" flag="0"/>
			<vel value="0.355829060241287" flag="0"/>
			<psa03 value="1.65571668310442" flag="0"/>
			<psa10 value="0.197697076461069" flag="0"/>
			<psa30 value="0.0103373823008442" flag="0"/>
		</comp>
		<comp name="--.HGN" depth="0.0">
			<acc value="0.404162849077375" flag="0"/>
			<vel value="0.212520598438146" flag="0"/>
			<psa03 value="1.59152626413753" flag="0"/>
			<psa10 value="0.13923223345215" flag="0"/>
			<psa30 value="0.0078012451275365" flag="0"/>
		</comp>
		<comp name="--.HGZ" depth="0.0">
			<acc value="0.393217964759493" flag="0"/>
			<vel value="0.104403149733565" flag="0"/>
			<psa03 value="0.272423817574261" flag="0"/>
			<psa10 value="0.0487565448818137" flag="0"/>
			<psa30 value="0.00287185316284438" flag="0"/>
		</comp>
	</station>
	<station code="BVM" name="BVM" netid="IT" source="Italian Strong Motion Network (RAN)" insttype="" lat="37.931" lon="15.936" esm:processing="automatic (Paolucci et al 2011)" esm:quality="best">
		<comp name="--.HNE" depth="0.0">
			<acc value="1.30906140899053" flag="0"/>
			<vel value="1.00581299191612" flag="0"/>
			<psa03 value="2.68300323579687" flag="0"/>
			<psa10 value="0.866073253102551" flag="0"/>
			<psa30 value="0.0345468752276032" flag="0"/>
		</comp>
		<comp name="--.HNN" depth="0.0">
			<acc value="1.38823132482391" flag="0"/>
			<vel value="0.646167711995765" flag="0"/>
			<psa03 value="1.48612278167411" flag="0"/>
			<psa10 value="0.564104209135375" flag="0"/>
			<psa30 value="0.0261272891380126" flag="0"/>
		</comp>
		<comp name="--.HNZ" depth="0.0">
			<acc value="0.624641353011324" flag="0"/>
			<vel value="0.231820143808136" flag="0"/>
			<psa03 value="1.1470515698704" flag="0"/>
			<psa10 value="0.205837545727206" flag="0"/>
			<psa30 value="0.010558123590538" flag="0"/>
		</comp>
	</station>
	<station code="CDI1" name="CDI1" netid="IT" source="Italian Strong Motion Network (RAN)" insttype="" lat="37.5032" lon="14.6473" esm:processing="automatic (Paolucci et al 2011)" esm:quality="best">
		<comp name="--.HNE" depth="0.0">
			<acc value="0.115897587671693" flag="0"/>
			<vel value="0.0799927657728738" flag="0"/>
			<psa03 value="0.206834118411922" flag="0"/>
			<psa10 value="0.023982733738409" flag="0"/>
			<psa30 value="0.00541490579426722" flag="0"/>
		</comp>
		<comp name="--.HNN" depth="0.0">
			<acc value="0.189884903807253" flag="0"/>
			<vel value="0.0632473816072655" flag="0"/>
			<psa03 value="0.646533371329496" flag="0"/>
			<psa10 value="0.0507910546581015" flag="0"/>
			<psa30 value="0.00465166439993731" flag="0"/>
		</comp>
		<comp name="--.HNZ" depth="0.0">
			<acc value="0.0969408972807914" flag="0"/>
			<vel value="0.0271080844613288" flag="0"/>
			<psa03 value="0.150494469520017" flag="0"/>
			<psa10 value="0.0196649377056125" flag="0"/>
			<psa30 value="0.00306828430044321" flag="0"/>
		</comp>
	</station>
	<station code="CFL" name="CFL" netid="IT" source="Italian Strong Motion Network (RAN)" insttype="" lat="38.037" lon="14.0232" esm:processing="automatic (Paolucci et al 2011)" esm:quality="best">
		<comp name="--.HNE" depth="0.0">
			<acc value="0.00986001203001035" flag="0"/>
			<vel value="0.00644924216361303" flag="0"/>
			<psa03 value="0.0205645511026683" flag="0"/>
			<psa10 value="0.00878085043824735" flag="0"/>
			<psa30 value="0.00104178911758287" flag="0"/>
		</comp>
		<comp name="--.HNN" depth="0.0">
			<acc value="0.0096822047806585" flag="0"/>
			<vel value="0.00710380191825902" flag="0"/>
			<psa03 value="0.027366263401477" flag="0"/>
			<psa10 value="0.010849989071027" flag="0"/>
			<psa30 value="0.00122463883464591" flag="0"/>
		</comp>
		<comp name="--.HNZ" depth="0.0">
			<acc value="0.00898782897333324" flag="0"/>
			<vel value="0.00444890694193451" flag="0"/>
			<psa03 value="0.0174800694271451" flag="0"/>
			<psa10 value="0.00698218769191779" flag="0"/>
			<psa30 value="0.000683734252371959" flag="0"/>
		</comp>
	</station>
	<station code="CLG1" name="CLG1" netid="IT" source="Italian Strong Motion Network (RAN)" insttype="" lat="37.2214" lon="14.5182" esm:processing="automatic (Paolucci et al 2011)" esm:quality="best">
		<comp name="--.HNE" depth="0.0">
			<acc value="0.108633180476859" flag="0"/>
			<vel value="0.0399529519666754" flag="0"/>
			<psa03 value="0.19716824892884" flag="0"/>
			<psa10 value="0.0603837213751932" flag="0"/>
			<psa30 value="0.00374711156108438" flag="0"/>
		</comp>
		<comp name="--.HNN" depth="0.0">
			<acc value="0.0976642225174092" flag="0"/>
			<vel value="0.0414810616619648" flag="0"/>
			<psa03 value="0.264462456839851" flag="0"/>
			<psa10 value="0.0422349753598391" flag="0"/>
			<psa30 value="0.00276034994296996" flag="0"/>
		</comp>
		<comp name="--.HNZ" depth="0.0">
			<acc value="0.182335541457623" flag="0"/>
			<vel value="0.0319697050522063" flag="0"/>
			<psa03 value="0.121669674602152" flag="0"/>
			<psa10 value="0.0295692463174502" flag="0"/>
			<psa30 value="0.00236096452731292" flag="0"/>
		</comp>
	</station>
	<station code="CLTS" name="CLTS" netid="IT" source="Italian Strong Motion Network (RAN)" insttype="" lat="37.4787" lon="14.0537" esm:processing="manual (Paolucci et al 2011)" esm:quality="good">
		<comp name="--.HNE" depth="0.0">
			<acc value="0.108524734724471" flag="0"/>
			<vel value="0.0620271648546346" flag="0"/>
			<psa03 value="0.495590288757732" flag="0"/>
			<psa10 value="0.0524161648136737" flag="0"/>
			<psa30 value="0.00429727300658009" flag="0"/>
		</comp>
		<comp name="--.HNN" depth="0.0">
			<acc value="0.0887573908310761" flag="0"/>
			<vel value="0.0689162630594453" flag="0"/>
			<psa03 value="0.380254273312749" flag="0"/>
			<psa10 value="0.101453528298342" flag="0"/>
			<psa30 value="0.00390263353031825" flag="0"/>
		</comp>
		<comp name="--.HNZ" depth="0.0">
			<acc value="0.0635426528398733" flag="0"/>
			<vel value="0.0376252166099355" flag="0"/>
			<psa03 value="0.184627855689333" flag="0"/>
			<psa10 value="0.0548312423007046" flag="0"/>
			<psa30 value="0.00210561782018008" flag="0"/>
		</comp>
	</station>
	<station code="CLV" name="CLV" netid="IT" source="Italian Strong Motion Network (RAN)" insttype="" lat="37.8192" lon="13.8902" esm:processing="automatic (Paolucci et al 2011)" esm:quality="best">
		<comp name="--.HGE" depth="0.0">
			<acc value="0.0363753939355629" flag="0"/>
			<vel value="0.0226792821251775" flag="0"/>
			<psa03 value="0.144618288585202" flag="0"/>
			<psa10 value="0.0244789291089171" flag="0"/>
			<psa30 value="0.00130569649598483" flag="0"/>
		</comp>
		<comp name="--.HGN" depth="0.0">
			<acc value="0.0434857171471861" flag="0"/>
			<vel value="0.0238110209778835" flag="0"/>
			<psa03 value="0.162880237933055" flag="0"/>
			<psa10 value="0.0171976023817563" flag="0"/>
			<psa30 value="0.00152685416742851" flag="0"/>
		</comp>
		<comp name="--.HGZ" depth="0.0">
			<acc value="0.0216085576935407" flag="0"/>
			<vel value="0.0129134587899244" flag="0"/>
			<psa03 value="0.0630173829256789" flag="0"/>
			<psa10 value="0.0103013117863496" flag="0"/>
			<psa30 value="0.00101606460095989" flag="0"/>
		</comp>
	</station>
	<station code="CRL" name="CRL" netid="IT" source="Italian Strong Motion Network (RAN)" insttype="" lat="37.813" lon="13.307" esm:processing="manual (Paolucci et al 2011)" esm:quality="good">
		<comp name="--.HGE" depth="0.0">
			<acc value="0.018023705577266" flag="0"/>
			<vel value="0.00791717290819598" flag="0"/>
			<psa03 value="0.0301042208193854" flag="0"/>
			<psa10 value="0.0130166313504446" flag="0"/>
			<psa30 value="0.00172529991765221" flag="0"/>
		</comp>
		<comp name="--.HGN" depth="0.0">
			<acc value="0.0129040254056163" flag="0"/>
			<vel value="0.00706693470353615" flag="0"/>
			<psa03 value="0.0310277872094595" flag="0"/>
			<psa10 value="0.0109972641397775" flag="0"/>
			<psa30 value="0.00136199980913634" flag="0"/>
		</comp>
		<comp name="--.HGZ" depth="0.0">
			<acc value="0.0117621810338312" flag="0"/>
			<vel value="0.00775905957874181" flag="0"/>
			<psa03 value="0.0245466599499196" flag="0"/>
			<psa10 value="0.00922422918491333" flag="0"/>
			<psa30 value="0.000675368906542186" flag="0"/>
		</comp>
	</station>
	<station code="CRN" name="CRN" netid="IT" source="Italian Strong Motion Network (RAN)" insttype="" lat="39.0777" lon="17.1113" esm:processing="automatic (Paolucci et al 2011)" esm:quality="best">
		<comp name="--.HGE" depth="0.0">
			<acc value="0.0582785850800407" flag="0"/>
			<vel value="0.0385496295381449" flag="0"/>
			<psa03 value="0.209038639450622" flag="0"/>
			<psa10 value="0.0563004021253327" flag="0"/>
			<psa30 value="0.00557771032926866" flag="0"/>
		</comp>
		<comp name="--.HGN" depth="0.0">
			<acc value="0.0578542530232467" flag="0"/>
			<vel value="0.044283144013861" flag="0"/>
			<psa03 value="0.113280441773316" flag="0"/>
			<psa10 value="0.055303968616503" flag="0"/>
			<psa30 value="0.0047676891693422" flag="0"/>
		</comp>
		<comp name="--.HGZ" depth="0.0">
			<acc value="0.034586348020809" flag="0"/>
			<vel value="0.0201715610638263" flag="0"/>
			<psa03 value="0.101375392705575" flag="0"/>
			<psa10 value="0.0233474716554137" flag="0"/>
			<psa30 value="0.002276235997797" flag="0"/>
		</comp>
	</station>
	<station code="CSLA" name="CSLA" netid="IT" source="Italian Strong Motion Network (RAN)" insttype="" lat="37.789" lon="14.0412" esm:processing="manual (Paolucci et al 2011)" esm:quality="good">
		<comp name="--.HNE" depth="0.0">
			<acc value="0.0674435804514516" flag="0"/>
			<vel value="0.0451906902453371" flag="0"/>
			<psa03 value="0.243705040096197" flag="0"/>
			<psa10 value="0.0470550196641187" flag="0"/>
			<psa30 value="0.00300480134500897" flag="0"/>
		</comp>
		<comp name="--.HNN" depth="0.0">
			<acc value="0.0558523946963367" flag="0"/>
			<vel value="0.0323933120819778" flag="0"/>
			<psa03 value="0.165552519125236" flag="0"/>
			<psa10 value="0.047273801657352" flag="0"/>
			<psa30 value="0.00235687113114551" flag="0"/>
		</comp>
		<comp name="--.HNZ" depth="0.0">
			<acc value="0.0218953221734198" flag="0"/>
			<vel value="0.0151682881276776" flag="0"/>
			<psa03 value="0.0648744174034325" flag="0"/>
			<psa10 value="0.0163804438740156" flag="0"/>
			<psa30 value="0.00126871404607903" flag="0"/>
		</comp>
	</station>
	<station code="CSM" name="CSM" netid="IT" source="Italian Strong Motion Network (RAN)" insttype="" lat="37.5404" lon="13.6273" esm:processing="manual (Paolucci et al 2011)" esm:quality="good">
		<comp name="--.HGE" depth="0.0">
			<acc value="0.0130377837143221" flag="0"/>
			<vel value="0.00976018548449003" flag="0"/>
			<psa03 value="0.0539716847342343" flag="0"/>
			<psa10 value="0.012147372516313" flag="0"/>
			<psa30 value="0.00136811990206246" flag="0"/>
		</comp>
		<comp name="--.HGN" depth="0.0">
			<acc value="0.014379119291703" flag="0"/>
			<vel value="0.013063845776071" flag="0"/>
			<psa03 value="0.05279581517198" flag="0"/>
			<psa10 value="0.0145315076410643" flag="0"/>
			<psa30 value="0.00121067978492738" flag="0"/>
		</comp>
		<comp name="--.HGZ" depth="0.0">
			<acc value="0.007880229219935" flag="0"/>
			<vel value="0.00645797683755314" flag="0"/>
			<psa03 value="0.0403363647945404" flag="0"/>
			<psa10 value="0.00755783207553309" flag="0"/>
			<psa30 value="0.000939865490642801" flag="0"/>
		</comp>
	</station>
	<station code="CSPC" name="CSPC" netid="IT" source="Italian Strong Motion Network (RAN)" insttype="" lat="39.3102" lon="16.2337" esm:processing="manual (Paolucci et al 2011)" esm:quality="good">
		<comp name="--.HNE" depth="0.0">
			<acc value="0.207528807906384" flag="0"/>
			<vel value="0.0940714225193895" flag="0"/>
			<psa03 value="0.427946974386798" flag="0"/>
			<psa10 value="0.147521767593104" flag="0"/>
			<psa30 value="0.00619838977956944" flag="0"/>
		</comp>
		<comp name="--.HNN" depth="0.0">
			<acc value="0.216914391310405" flag="0"/>
			<vel value="0.112041815080083" flag="0"/>
			<psa03 value="0.501733070686888" flag="0"/>
			<psa10 value="0.112835359788819" flag="0"/>
			<psa30 value="0.00455871199229649" flag="0"/>
		</comp>
		<comp name="--.HNZ" depth="0.0">
			<acc value="0.115527466281008" flag="0"/>
			<vel value="0.0566905250312104" flag="0"/>
			<psa03 value="0.26172331705195" flag="0"/>
			<psa10 value="0.0567477730114584" flag="0"/>
			<psa30 value="0.00274456660573466" flag="0"/>
		</comp>
	</station>
	<station code="CSSE" name="CSSE" netid="IT" source="Italian Strong Motion Network (RAN)" insttype="" lat="39.3023" lon="16.2494" esm:processing="automatic (Paolucci et al 2011)" esm:quality="best">
		<comp name="--.HNE" depth="0.0">
			<acc value="0.155448587409988" flag="0"/>
			<vel value="0.065297025230253" flag="0"/>
			<psa03 value="0.254068539127147" flag="0"/>
			<psa10 value="0.0702525038836009" flag="0"/>
			<psa30 value="0.00436635716639997" flag="0"/>
		</comp>
		<comp name="--.HNN" depth="0.0">
			<acc value="0.172439430649134" flag="0"/>
			<vel value="0.0817379780348931" flag="0"/>
			<psa03 value="0.408619277355059" flag="0"/>
			<psa10 value="0.069180427863826" flag="0"/>
			<psa30 value="0.00343225924533035" flag="0"/>
		</comp>
		<comp name="--.HNZ" depth="0.0">
			<acc value="0.0934306955703175" flag="0"/>
			<vel value="0.0464359465856171" flag="0"/>
			<psa03 value="0.192379827552757" flag="0"/>
			<psa10 value="0.0353937946651928" flag="0"/>
			<psa30 value="0.0021121317933655" flag="0"/>
		</comp>
	</station>
	<station code="CSST" name="CSST" netid="IT" source="Italian Strong Motion Network (RAN)" insttype="" lat="39.2911" lon="16.2545" esm:processing="automatic (Paolucci et al 2011)" esm:quality="best">
		<comp name="--.HNE" depth="0.0">
			<acc value="0.0844396645192419" flag="0"/>
			<vel value="0.0421551947675619" flag="0"/>
			<psa03 value="0.188561012074974" flag="0"/>
			<psa10 value="0.0400883969095516" flag="0"/>
			<psa30 value="0.00391341091093349" flag="0"/>
		</comp>
		<comp name="--.HNN" depth="0.0">
			<acc value="0.0804934251133247" flag="0"/>
			<vel value="0.0405974734823388" flag="0"/>
			<psa03 value="0.19200844878407" flag="0"/>
			<psa10 value="0.0416429948940385" flag="0"/>
			<psa30 value="0.00193654557830716" flag="0"/>
		</comp>
		<comp name="--.HNZ" depth="0.0">
			<acc value="0.0438100329956173" flag="0"/>
			<vel value="0.0267101955281815" flag="0"/>
			<psa03 value="0.105474737183695" flag="0"/>
			<psa10 value="0.0234199770835425" flag="0"/>
			<psa30 value="0.00177843468756995" flag="0"/>
		</comp>
	</station>
