<stationlist created="1775181335">
	<station code="SPAOL" name="SPAOL" netid="7C" source="Urban Seismic Network (RUSN-CAL-INGV)" insttype="" lat="37.54939" lon="15.071367">
		<comp name="--.HNE" depth="0.0">
			<acc value="0.0740698747686957" flag="0"/>
			<vel value="0.00566353377700219" flag="0"/>
			<psa03 value="0.00131760274695511" flag="0"/>
			<psa10 value="0.00118108355348896" flag="0"/>
			<psa30 value="0.000867553096134889" flag="0"/>
		</comp>
		<comp name="--.HNN" depth="0.0">
			<acc value="0.0383742999756539" flag="0"/>
			<vel value="0.0105251608471084" flag="0"/>
			<psa03 value="0.00122746184717747" flag="0"/>
			<psa10 value="0.0016478902193271" flag="0"/>
			<psa30 value="0.00201221517437986" flag="0"/>
		</comp>
		<comp name="--.HNZ" depth="0.0">
			<acc value="0.0479573782950187" flag="0"/>
			<vel value="0.00650572165295107" flag="0"/>
			<psa03 value="0.00184529688378939" flag="0"/>
			<psa10 value="0.00181501851731912" flag="0"/>
			<psa30 value="0.00142131155074813" flag="0"/>
		</comp>
	</station>
	<station code="ACR" name="ACR" netid="IT" source="Italian Strong Motion Network (RAN)" insttype="" lat="39.4889" lon="16.3798">
		<comp name="--.HNE" depth="0.0">
			<acc value="0.0530058929353567" flag="0"/>
			<vel value="0.024704187198288" flag="0"/>
			<psa03 value="0.0990267787880965" flag="0"/>
			<psa10 value="0.0302421646449869" flag="0"/>
			<psa30 value="0.00222007977772302" flag="0"/>
		</comp>
		<comp name="--.HNN" depth="0.0">
			<acc value="0.0480209488653378" flag="0"/>
			<vel value="0.0212896808150608" flag="0"/>
			<psa03 value="0.116992083484697" flag="0"/>
			<psa10 value="0.0314690396694361" flag="0"/>
			<psa30 value="0.00160475505714681" flag="0"/>
		</comp>
		<comp name="--.HNZ" depth="0.0">
			<acc value="0.0276460587932623" flag="0"/>
			<vel value="0.0142295102520496" flag="0"/>
			<psa03 value="0.0592141726483299" flag="0"/>
			<psa10 value="0.015423266090685" flag="0"/>
			<psa30 value="0.00119762027396553" flag="0"/>
		</comp>
	</station>
	<station code="AGR" name="AGR" netid="IT" source="Italian Strong Motion Network (RAN)" insttype="" lat="37.3231" lon="13.586">
		<comp name="--.HNE" depth="0.0">
			<acc value="0.00802245658848218" flag="0"/>
			<vel value="0.00816426758766477" flag="0"/>
			<psa03 value="0.0185821645709563" flag="0"/>
			<psa10 value="0.00843792022080346" flag="0"/>
			<psa30 value="0.00339908392262803" flag="0"/>
		</comp>
		<comp name="--.HNN" depth="0.0">
			<acc value="0.0132030784168043" flag="0"/>
			<vel value="0.0117964688192582" flag="0"/>
			<psa03 value="0.035732140516445" flag="0"/>
			<psa10 value="0.0147812366843878" flag="0"/>
			<psa30 value="0.0037597924011278" flag="0"/>
		</comp>
		<comp name="--.HNZ" depth="0.0">
			<acc value="0.00956311396898473" flag="0"/>
			<vel value="0.00664761067592972" flag="0"/>
			<psa03 value="0.029344798115525" flag="0"/>
			<psa10 value="0.011052710625335" flag="0"/>
			<psa30 value="0.00219987114733377" flag="0"/>
		</comp>
	</station>
	<station code="ALD" name="ALD" netid="IT" source="Italian Strong Motion Network (RAN)" insttype="" lat="39.9298" lon="16.4653">
		<comp name="--.HNE" depth="0.0">
			<acc value="0.0270173204892468" flag="0"/>
			<vel value="0.0182552498424346" flag="0"/>
			<psa03 value="0.084620970307318" flag="0"/>
			<psa10 value="0.0137661541276502" flag="0"/>
			<psa30 value="0.00187970097929812" flag="0"/>
		</comp>
		<comp name="--.HNN" depth="0.0">
			<acc value="0.0323873846453705" flag="0"/>
			<vel value="0.0134760971362116" flag="0"/>
			<psa03 value="0.0811948266754504" flag="0"/>
			<psa10 value="0.015524040891521" flag="0"/>
			<psa30 value="0.00109457855212383" flag="0"/>
		</comp>
		<comp name="--.HNZ" depth="0.0">
			<acc value="0.0137468724736262" flag="0"/>
			<vel value="0.00661873011203195" flag="0"/>
			<psa03 value="0.0279467054987506" flag="0"/>
			<psa10 value="0.0058891252818976" flag="0"/>
			<psa30 value="0.000769773181195403" flag="0"/>
		</comp>
	</station>
	<station code="ARMO" name="ARMO" netid="IT" source="Italian Strong Motion Network (RAN)" insttype="" lat="38.0761" lon="15.7125">
		<comp name="--.HNE" depth="0.0">
			<acc value="1.75617950083673" flag="0"/>
			<vel value="0.840227446583588" flag="0"/>
			<psa03 value="3.20166942821997" flag="0"/>
			<psa10 value="0.761182524606565" flag="0"/>
			<psa30 value="0.027810620650464" flag="0"/>
		</comp>
		<comp name="--.HNN" depth="0.0">
			<acc value="1.79195006421701" flag="0"/>
			<vel value="0.624066242566703" flag="0"/>
			<psa03 value="2.93118684340952" flag="0"/>
			<psa10 value="0.585691359178121" flag="0"/>
			<psa30 value="0.0314384526431957" flag="0"/>
		</comp>
		<comp name="--.HNZ" depth="0.0">
			<acc value="1.74863385630925" flag="0"/>
			<vel value="0.992877619742128" flag="0"/>
			<psa03 value="4.41327269098989" flag="0"/>
			<psa10 value="0.839238455428903" flag="0"/>
			<psa30 value="0.0351805972085743" flag="0"/>
		</comp>
	</station>
	<station code="BCL" name="BCL" netid="IT" source="Italian Strong Motion Network (RAN)" insttype="" lat="38.1827" lon="15.2316">
		<comp name="--.HGE" depth="0.0">
			<acc value="0.699939970269521" flag="0"/>
			<vel value="0.379140676648485" flag="0"/>
			<psa03 value="1.70926089681246" flag="0"/>
			<psa10 value="0.365079334714208" flag="0"/>
			<psa30 value="0.0418951886839727" flag="0"/>
		</comp>
		<comp name="--.HGN" depth="0.0">
			<acc value="0.736969330418663" flag="0"/>
			<vel value="0.537862407174128" flag="0"/>
			<psa03 value="1.78059795587585" flag="0"/>
			<psa10 value="0.535164051991995" flag="0"/>
			<psa30 value="0.0413572463812686" flag="0"/>
		</comp>
		<comp name="--.HGZ" depth="0.0">
			<acc value="0.382086805755993" flag="0"/>
			<vel value="0.186990732224279" flag="0"/>
			<psa03 value="0.550233075240831" flag="0"/>
			<psa10 value="0.191419235584921" flag="0"/>
			<psa30 value="0.0118813820832522" flag="0"/>
		</comp>
	</station>
	<station code="BNT" name="BNT" netid="IT" source="Italian Strong Motion Network (RAN)" insttype="" lat="37.7805" lon="14.8444">
		<comp name="--.HNE" depth="0.0">
			<acc value="0.255335344469713" flag="0"/>
			<vel value="0.152707399391467" flag="0"/>
			<psa03 value="0.523293082265177" flag="0"/>
			<psa10 value="0.119047871337219" flag="0"/>
			<psa30 value="0.00895221804050997" flag="0"/>
		</comp>
		<comp name="--.HNN" depth="0.0">
			<acc value="0.185740111001117" flag="0"/>
			<vel value="0.113657652586929" flag="0"/>
			<psa03 value="0.605008620518548" flag="0"/>
			<psa10 value="0.0952352338668534" flag="0"/>
			<psa30 value="0.00689674520885595" flag="0"/>
		</comp>
		<comp name="--.HNZ" depth="0.0">
			<acc value="0.125634927238474" flag="0"/>
			<vel value="0.0834761048332066" flag="0"/>
			<psa03 value="0.308136120839085" flag="0"/>
			<psa10 value="0.0625231256002234" flag="0"/>
			<psa30 value="0.003958709328398" flag="0"/>
		</comp>
	</station>
	<station code="BRO" name="BRO" netid="IT" source="Italian Strong Motion Network (RAN)" insttype="" lat="38.6021" lon="16.3493">
		<comp name="--.HGE" depth="0.0">
			<acc value="0.829297318891937" flag="0"/>
			<vel value="0.355829060241287" flag="0"/>
			<psa03 value="1.65571668310442" flag="0"/>
			<psa10 value="0.197697076461069" flag="0"/>
			<psa30 value="0.0103373823008442" flag="0"/>
		</comp>
		<comp name="--.HGN" depth="0.0">
			<acc value="0.404162849077375" flag="0"/>
			<vel value="0.212520598438146" flag="0"/>
			<psa03 value="1.59152626413753" flag="0"/>
			<psa10 value="0.13923223345215" flag="0"/>
			<psa30 value="0.0078012451275365" flag="0"/>
		</comp>
		<comp name="--.HGZ" depth="0.0">
			<acc value="0.393217964759493" flag="0"/>
			<vel value="0.104403149733565" flag="0"/>
			<psa03 value="0.272423817574261" flag="0"/>
			<psa10 value="0.0487565448818137" flag="0"/>
			<psa30 value="0.00287185316284438" flag="0"/>
		</comp>
	</station>
	<station code="BVM" name="BVM" netid="IT" source="Italian Strong Motion Network (RAN)" insttype="" lat="37.931" lon="15.936">
		<comp name="--.HNE" depth="0.0">
			<acc value="1.30906140899053" flag="0"/>
			<vel value="1.00581299191612" flag="0"/>
			<psa03 value="2.68300323579687" flag="0"/>
			<psa10 value="0.866073253102551" flag="0"/>
			<psa30 value="0.0345468752276032" flag="0"/>
		</comp>
		<comp name="--.HNN" depth="0.0">
			<acc value="1.38823132482391" flag="0"/>
			<vel value="0.646167711995765" flag="0"/>
			<psa03 value="1.48612278167411" flag="0"/>
			<psa10 value="0.564104209135375" flag="0"/>
			<psa30 value="0.0261272891380126" flag="0"/>
		</comp>
		<comp name="--.HNZ" depth="0.0">
			<acc value="0.624641353011324" flag="0"/>
			<vel value="0.231820143808136" flag="0"/>
			<psa03 value="1.1470515698704" flag="0"/>
			<psa10 value="0.205837545727206" flag="0"/>
			<psa30 value="0.010558123590538" flag="0"/>
		</comp>
	</station>
	<station code="CDI1" name="CDI1" netid="IT" source="Italian Strong Motion Network (RAN)" insttype="" lat="37.5032" lon="14.6473">
		<comp name="--.HNE" depth="0.0">
			<acc value="0.115897587671693" flag="0"/>
			<vel value="0.0799927657728738" flag="0"/>
			<psa03 value="0.206834118411922" flag="0"/>
			<psa10 value="0.023982733738409" flag="0"/>
			<psa30 value="0.00541490579426722" flag="0"/>
		</comp>
		<comp name="--.HNN" depth="0.0">
			<acc value="0.189884903807253" flag="0"/>
			<vel value="0.0632473816072655" flag="0"/>
			<psa03 value="0.646533371329496" flag="0"/>
			<psa10 value="0.0507910546581015" flag="0"/>
			<psa30 value="0.00465166439993731" flag="0"/>
		</comp>
		<comp name="--.HNZ" depth="0.0">
			<acc value="0.0969408972807914" flag="0"/>
			<vel value="0.0271080844613288" flag="0"/>
			<psa03 value="0.150494469520017" flag="0"/>
			<psa10 value="0.0196649377056125" flag="0"/>
			<psa30 value="0.00306828430044321" flag="0"/>
		</comp>
	</station>
	<station code="CFL" name="CFL" netid="IT" source="Italian Strong Motion Network (RAN)" insttype="" lat="38.037" lon="14.0232">
		<comp name="--.HNE" depth="0.0">
			<acc value="0.00986001203001035" flag="0"/>
			<vel value="0.00644924216361303" flag="0"/>
			<psa03 value="0.0205645511026683" flag="0"/>
			<psa10 value="0.00878085043824735" flag="0"/>
			<psa30 value="0.00104178911758287" flag="0"/>
		</comp>
		<comp name="--.HNN" depth="0.0">
			<acc value="0.0096822047806585" flag="0"/>
			<vel value="0.00710380191825902" flag="0"/>
			<psa03 value="0.027366263401477" flag="0"/>
			<psa10 value="0.010849989071027" flag="0"/>
			<psa30 value="0.00122463883464591" flag="0"/>
		</comp>
		<comp name="--.HNZ" depth="0.0">
			<acc value="0.00898782897333324" flag="0"/>
			<vel value="0.00444890694193451" flag="0"/>
			<psa03 value="0.0174800694271451" flag="0"/>
			<psa10 value="0.00698218769191779" flag="0"/>
			<psa30 value="0.000683734252371959" flag="0"/>
		</comp>
	</station>
	<station code="CLG1" name="CLG1" netid="IT" source="Italian Strong Motion Network (RAN)" insttype="" lat="37.2214" lon="14.5182">
		<comp name="--.HNE" depth="0.0">
			<acc value="0.108633180476859" flag="0"/>
			<vel value="0.0399529519666754" flag="0"/>
			<psa03 value="0.19716824892884" flag="0"/>
			<psa10 value="0.0603837213751932" flag="0"/>
			<psa30 value="0.00374711156108438" flag="0"/>
		</comp>
		<comp name="--.HNN" depth="0.0">
			<acc value="0.0976642225174092" flag="0"/>
			<vel value="0.0414810616619648" flag="0"/>
			<psa03 value="0.264462456839851" flag="0"/>
			<psa10 value="0.0422349753598391" flag="0"/>
			<psa30 value="0.00276034994296996" flag="0"/>
		</comp>
		<comp name="--.HNZ" depth="0.0">
			<acc value="0.182335541457623" flag="0"/>
			<vel value="0.0319697050522063" flag="0"/>
			<psa03 value="0.121669674602152" flag="0"/>
			<psa10 value="0.0295692463174502" flag="0"/>
			<psa30 value="0.00236096452731292" flag="0"/>
		</comp>
	</station>
	<station code="CLTS" name="CLTS" netid="IT" source="Italian Strong Motion Network (RAN)" insttype="" lat="37.4787" lon="14.0537">
		<comp name="--.HNE" depth="0.0">
			<acc value="0.108902813010838" flag="0"/>
			<vel value="0.0694566954353574" flag="0"/>
			<psa03 value="0.496775117246805" flag="0"/>
			<psa10 value="0.052907807382581" flag="0"/>
			<psa30 value="0.0094918579556726" flag="0"/>
		</comp>
		<comp name="--.HNN" depth="0.0">
			<acc value="0.0885623914633741" flag="0"/>
			<vel value="0.0743632482770447" flag="0"/>
			<psa03 value="0.379966254232899" flag="0"/>
			<psa10 value="0.101763951362346" flag="0"/>
			<psa30 value="0.00792240398704966" flag="0"/>
		</comp>
		<comp name="--.HNZ" depth="0.0">
			<acc value="0.0641223749033779" flag="0"/>
			<vel value="0.0389364975602107" flag="0"/>
			<psa03 value="0.185163891199055" flag="0"/>
			<psa10 value="0.0555272359068653" flag="0"/>
			<psa30 value="0.00529748051541879" flag="0"/>
		</comp>
	</station>
	<station code="CLV" name="CLV" netid="IT" source="Italian Strong Motion Network (RAN)" insttype="" lat="37.8192" lon="13.8902">
		<comp name="--.HGE" depth="0.0">
			<acc value="0.0363753939355629" flag="0"/>
			<vel value="0.0226792821251775" flag="0"/>
			<psa03 value="0.144618288585202" flag="0"/>
			<psa10 value="0.0244789291089171" flag="0"/>
			<psa30 value="0.00130569649598483" flag="0"/>
		</comp>
		<comp name="--.HGN" depth="0.0">
			<acc value="0.0434857171471861" flag="0"/>
			<vel value="0.0238110209778835" flag="0"/>
			<psa03 value="0.162880237933055" flag="0"/>
			<psa10 value="0.0171976023817563" flag="0"/>
			<psa30 value="0.00152685416742851" flag="0"/>
		</comp>
		<comp name="--.HGZ" depth="0.0">
			<acc value="0.0216085576935407" flag="0"/>
			<vel value="0.0129134587899244" flag="0"/>
			<psa03 value="0.0630173829256789" flag="0"/>
			<psa10 value="0.0103013117863496" flag="0"/>
			<psa30 value="0.00101606460095989" flag="0"/>
		</comp>
	</station>
	<station code="CNCT" name="CNCT" netid="IT" source="Italian Strong Motion Network (RAN)" insttype="" lat="37.3597" lon="13.8517">
		<comp name="--.HNE" depth="0.0">
			<acc value="0.0103456282991721" flag="0"/>
			<vel value="0.00549052606419965" flag="0"/>
			<psa03 value="0.026100994687801" flag="0"/>
			<psa10 value="0.00786034867827334" flag="0"/>
			<psa30 value="0.00192736934542676" flag="0"/>
		</comp>
		<comp name="--.HNN" depth="0.0">
			<acc value="0.0160582767272675" flag="0"/>
			<vel value="0.00624997832871393" flag="0"/>
			<psa03 value="0.0159699407426978" flag="0"/>
			<psa10 value="0.00921836567148434" flag="0"/>
			<psa30 value="0.0029330340907806" flag="0"/>
		</comp>
		<comp name="--.HNZ" depth="0.0">
			<acc value="0.0220446460907157" flag="0"/>
			<vel value="0.00891122947286114" flag="0"/>
			<psa03 value="0.0503125256662376" flag="0"/>
			<psa10 value="0.010318130713021" flag="0"/>
			<psa30 value="0.001701017059032" flag="0"/>
		</comp>
	</station>
	<station code="CON" name="CON" netid="IT" source="Italian Strong Motion Network (RAN)" insttype="" lat="37.8138" lon="13.308">
		<comp name="--.HNE" depth="0.0">
			<acc value="0.00702361335065061" flag="0"/>
			<vel value="0.00662419032595825" flag="0"/>
			<psa03 value="0.0213174616563807" flag="0"/>
			<psa10 value="0.0124455144542532" flag="0"/>
			<psa30 value="0.00161645541557146" flag="0"/>
		</comp>
		<comp name="--.HNN" depth="0.0">
			<acc value="0.00508591978627125" flag="0"/>
			<vel value="0.00540543704626781" flag="0"/>
			<psa03 value="0.014282537293834" flag="0"/>
			<psa10 value="0.0090787776744646" flag="0"/>
			<psa30 value="0.00142106445104566" flag="0"/>
		</comp>
		<comp name="--.HNZ" depth="0.0">
			<acc value="0.0126136874154409" flag="0"/>
			<vel value="0.00778574487734609" flag="0"/>
			<psa03 value="0.0240623882859652" flag="0"/>
			<psa10 value="0.00852741989971795" flag="0"/>
			<psa30 value="0.000652300607547258" flag="0"/>
		</comp>
	</station>
	<station code="CRL" name="CRL" netid="IT" source="Italian Strong Motion Network (RAN)" insttype="" lat="37.813" lon="13.307">
		<comp name="--.HGE" depth="0.0">
			<acc value="0.0180203109352321" flag="0"/>
			<vel value="0.00796852483301218" flag="0"/>
			<psa03 value="0.0301011633251748" flag="0"/>
			<psa10 value="0.0130194552875166" flag="0"/>
			<psa30 value="0.00172820636018976" flag="0"/>
		</comp>
		<comp name="--.HGN" depth="0.0">
			<acc value="0.0129035766658327" flag="0"/>
			<vel value="0.00704592703474405" flag="0"/>
			<psa03 value="0.0310270423684507" flag="0"/>
			<psa10 value="0.0109966819137079" flag="0"/>
			<psa30 value="0.00136498313176682" flag="0"/>
		</comp>
		<comp name="--.HGZ" depth="0.0">
			<acc value="0.0117652670499771" flag="0"/>
			<vel value="0.0077720470148368" flag="0"/>
			<psa03 value="0.0245419044265562" flag="0"/>
			<psa10 value="0.00922046768573247" flag="0"/>
			<psa30 value="0.000679475845273388" flag="0"/>
		</comp>
	</station>
	<station code="CRN" name="CRN" netid="IT" source="Italian Strong Motion Network (RAN)" insttype="" lat="39.0777" lon="17.1113">
		<comp name="--.HGE" depth="0.0">
			<acc value="0.0582785850800407" flag="0"/>
			<vel value="0.0385496295381449" flag="0"/>
			<psa03 value="0.209038639450622" flag="0"/>
			<psa10 value="0.0563004021253327" flag="0"/>
			<psa30 value="0.00557771032926866" flag="0"/>
		</comp>
		<comp name="--.HGN" depth="0.0">
			<acc value="0.0578542530232467" flag="0"/>
			<vel value="0.044283144013861" flag="0"/>
			<psa03 value="0.113280441773316" flag="0"/>
			<psa10 value="0.055303968616503" flag="0"/>
			<psa30 value="0.0047676891693422" flag="0"/>
		</comp>
		<comp name="--.HGZ" depth="0.0">
			<acc value="0.034586348020809" flag="0"/>
			<vel value="0.0201715610638263" flag="0"/>
			<psa03 value="0.101375392705575" flag="0"/>
			<psa10 value="0.0233474716554137" flag="0"/>
			<psa30 value="0.002276235997797" flag="0"/>
		</comp>
	</station>
	<station code="CSA7" name="CSA7" netid="IT" source="Italian Strong Motion Network (RAN)" insttype="" lat="40.1619" lon="15.9908">
		<comp name="--.HNE" depth="0.0">
			<acc value="0.0216818092916843" flag="0"/>
			<vel value="0.0129497551483459" flag="0"/>
			<psa03 value="0.0574974599662065" flag="0"/>
			<psa10 value="0.00967685698178349" flag="0"/>
			<psa30 value="0.000899992328408157" flag="0"/>
		</comp>
		<comp name="--.HNN" depth="0.0">
			<acc value="0.0206566113505918" flag="0"/>
			<vel value="0.0132229912112517" flag="0"/>
			<psa03 value="0.0686073626093987" flag="0"/>
			<psa10 value="0.012398061623236" flag="0"/>
			<psa30 value="0.00106448697537122" flag="0"/>
		</comp>
		<comp name="--.HNZ" depth="0.0">
			<acc value="0.00697911821071484" flag="0"/>
			<vel value="0.00458873649523163" flag="0"/>
			<psa03 value="0.0122908441560217" flag="0"/>
			<psa10 value="0.00456507147608108" flag="0"/>
			<psa30 value="0.000609883526790497" flag="0"/>
		</comp>
	</station>
	<station code="CSLA" name="CSLA" netid="IT" source="Italian Strong Motion Network (RAN)" insttype="" lat="37.789" lon="14.0412">
		<comp name="--.HNE" depth="0.0">
			<acc value="0.0677487644997581" flag="0"/>
			<vel value="0.050070779551787" flag="0"/>
			<psa03 value="0.243060726580256" flag="0"/>
			<psa10 value="0.0480488542507825" flag="0"/>
			<psa30 value="0.00587606676058465" flag="0"/>
		</comp>
		<comp name="--.HNN" depth="0.0">
			<acc value="0.0560153992903659" flag="0"/>
			<vel value="0.0337584617382041" flag="0"/>
			<psa03 value="0.165007191333279" flag="0"/>
			<psa10 value="0.0476358693925625" flag="0"/>
			<psa30 value="0.00433929662377183" flag="0"/>
		</comp>
		<comp name="--.HNZ" depth="0.0">
			<acc value="0.0219327654690437" flag="0"/>
			<vel value="0.0153488388787408" flag="0"/>
			<psa03 value="0.0651410913192707" flag="0"/>
			<psa10 value="0.0166048156125421" flag="0"/>
			<psa30 value="0.00277091335107724" flag="0"/>
		</comp>
	</station>
	<station code="CSM" name="CSM" netid="IT" source="Italian Strong Motion Network (RAN)" insttype="" lat="37.5404" lon="13.6273">
		<comp name="--.HGE" depth="0.0">
			<acc value="0.0132179177614368" flag="0"/>
			<vel value="0.0127945279702184" flag="0"/>
			<psa03 value="0.0533261575962295" flag="0"/>
