<stationlist created="1778069719">
	<station code="IMMV" name="IMMV" netid="GE" source="GEOFON" insttype="" lat="35.4606" lon="23.9811">
		<comp name="--.HNE" depth="0.0">
			<acc value="0.00157887795794645" flag="0"/>
			<vel value="0.00171583837070884" flag="0"/>
			<psa03 value="0.00451896286844545" flag="0"/>
			<psa10 value="0.00447780003835664" flag="0"/>
			<psa30 value="0.000412523145020466" flag="0"/>
		</comp>
		<comp name="--.HNN" depth="0.0">
			<acc value="0.00181385140050501" flag="0"/>
			<vel value="0.00174891606636979" flag="0"/>
			<psa03 value="0.00438473624859063" flag="0"/>
			<psa10 value="0.00360398474310179" flag="0"/>
			<psa30 value="0.000377176801792031" flag="0"/>
		</comp>
		<comp name="--.HNZ" depth="0.0">
			<acc value="0.00167113304681452" flag="0"/>
			<vel value="0.00129497108621782" flag="0"/>
			<psa03 value="0.00308721225666075" flag="0"/>
			<psa10 value="0.00184830055540081" flag="0"/>
			<psa30 value="0.000287692388555487" flag="0"/>
		</comp>
	</station>
	<station code="SIT2" name="SIT2" netid="HI" source="ITSAK Strong Motion Network" insttype="" lat="35.2059" lon="26.107">
		<comp name="--.HNE" depth="0.0">
			<acc value="0.0504550970977475" flag="0"/>
			<vel value="0.0320079722283499" flag="0"/>
			<psa03 value="0.131810540697429" flag="0"/>
			<psa10 value="0.0182293172424825" flag="0"/>
			<psa30 value="0.00148723094799135" flag="0"/>
		</comp>
		<comp name="--.HNN" depth="0.0">
			<acc value="0.0403261308169155" flag="0"/>
			<vel value="0.0293891721333661" flag="0"/>
			<psa03 value="0.133421260135686" flag="0"/>
			<psa10 value="0.0248896421196784" flag="0"/>
			<psa30 value="0.00145904335782184" flag="0"/>
		</comp>
		<comp name="--.HNZ" depth="0.0">
			<acc value="0.0178427632358883" flag="0"/>
			<vel value="0.00830936165673733" flag="0"/>
			<psa03 value="0.0480083877014056" flag="0"/>
			<psa10 value="0.00398653060968801" flag="0"/>
			<psa30 value="0.000620126983729246" flag="0"/>
		</comp>
	</station>
	<station code="IMMV" name="IMMV" netid="HL" source="National Observatory of Athens Seismic Network" insttype="" lat="35.4606" lon="23.9811">
		<comp name="--.HNE" depth="0.0">
			<acc value="0.00154682195220886" flag="0"/>
			<vel value="0.00168101369933294" flag="0"/>
			<psa03 value="0.0044294784552089" flag="0"/>
			<psa10 value="0.00438921046925246" flag="0"/>
			<psa30 value="0.000404022125762994" flag="0"/>
		</comp>
		<comp name="--.HNN" depth="0.0">
			<acc value="0.00177706701295177" flag="0"/>
			<vel value="0.00171343248416542" flag="0"/>
			<psa03 value="0.00429525183535409" flag="0"/>
			<psa10 value="0.00353150236838019" flag="0"/>
			<psa30 value="0.000369570626666925" flag="0"/>
		</comp>
		<comp name="--.HNZ" depth="0.0">
			<acc value="0.00163721325850087" flag="0"/>
			<vel value="0.0012686733412245" flag="0"/>
			<psa03 value="0.00304247005004248" flag="0"/>
			<psa10 value="0.00181205936804001" flag="0"/>
			<psa30 value="0.000281875901695112" flag="0"/>
		</comp>
	</station>
	<station code="SIVA" name="SIVA" netid="HL" source="National Observatory of Athens Seismic Network" insttype="" lat="35.01777" lon="24.81204">
		<comp name="00.HNE" depth="0.0">
			<acc value="0.0139444322196842" flag="0"/>
			<vel value="0.0119645500602526" flag="0"/>
			<psa03 value="0.051364053197776" flag="0"/>
			<psa10 value="0.0106025607023319" flag="0"/>
			<psa30 value="0.00058612290669936" flag="0"/>
		</comp>
		<comp name="00.HNN" depth="0.0">
			<acc value="0.0155866266858888" flag="0"/>
			<vel value="0.0103232682370868" flag="0"/>
			<psa03 value="0.0379861334189127" flag="0"/>
			<psa10 value="0.0145125821387026" flag="0"/>
			<psa30 value="0.000688582559855202" flag="0"/>
		</comp>
		<comp name="00.HNZ" depth="0.0">
			<acc value="0.0073172487780644" flag="0"/>
			<vel value="0.00546991602334698" flag="0"/>
			<psa03 value="0.0254583155657966" flag="0"/>
			<psa10 value="0.00882674252165265" flag="0"/>
			<psa30 value="0.00049395396106572" flag="0"/>
		</comp>
	</station>
</stationlist>
