<?xml version="1.0" encoding="UTF-8" standalone="yes"?>
<!DOCTYPE earthquake SYSTEM "stationlist.dtd">
<stationlist created="" xmlns="ch.ethz.sed.shakemap.usgs.xml">
  <station code="SIVA" name="SIVA" netid="HL" insttype="60" lat="35.0178" lon="24.812">
    <comp name="--.HHZ">
      <acc value="0.0072709176" flag="0"/>
      <vel value="0.0054338194" flag="0"/>
      <psa03 value="0.0254523026" flag="0"/>
      <psa10 value="0.0089258175" flag="0"/>
      <psa30 value="0.0006278561" flag="0"/>
    </comp>
    <comp name="--.HHE">
      <acc value="0.0150416426" flag="0"/>
      <vel value="0.0129619678" flag="0"/>
      <psa03 value="0.0546880519" flag="0"/>
      <psa10 value="0.0112280852" flag="0"/>
      <psa30 value="0.0006580524" flag="0"/>
    </comp>
    <comp name="--.HHN">
      <acc value="0.0142591969" flag="0"/>
      <vel value="0.0091232401" flag="0"/>
      <psa03 value="0.0341516463" flag="0"/>
      <psa10 value="0.0124761771" flag="0"/>
      <psa30 value="0.0006434992" flag="0"/>
    </comp>
  </station>
</stationlist>
