<?xml version="1.0" encoding="UTF-8" standalone="yes"?>
<!DOCTYPE earthquake SYSTEM "stationlist.dtd">
<stationlist created="" xmlns="ch.ethz.sed.shakemap.usgs.xml">
  <station code="KSP" name="KSP" netid="PL" insttype="STS-2/N" lat="50.8428" lon="16.2931">
    <comp name="--.HHE">
      <acc value="0.0043698557" flag="0"/>
      <vel value="0.0012040950" flag="0"/>
      <psa03 value="0.0042087764" flag="0"/>
      <psa10 value="0.0007292807" flag="0"/>
      <psa30 value="0.0002447558" flag="0"/>
    </comp>
    <comp name="--.HHZ">
      <acc value="0.0032619140" flag="0"/>
      <vel value="0.0021688738" flag="0"/>
      <psa03 value="0.0042859514" flag="0"/>
      <psa10 value="0.0012987996" flag="0"/>
      <psa30 value="0.0005497454" flag="0"/>
    </comp>
    <comp name="--.HHN">
      <acc value="0.0032449307" flag="0"/>
      <vel value="0.0024285939" flag="0"/>
      <psa03 value="0.0071293358" flag="0"/>
      <psa10 value="0.0013002214" flag="0"/>
      <psa30 value="0.0005863320" flag="0"/>
    </comp>
  </station>
</stationlist>
