<?xml version="1.0" encoding="UTF-8" standalone="yes"?>
<!DOCTYPE earthquake SYSTEM "stationlist.dtd">
<stationlist created="" xmlns="ch.ethz.sed.shakemap.usgs.xml">
  <station code="EVR" name="EVR" netid="HL" insttype="DR24" lat="38.9166" lon="21.8105">
    <comp name="--.HHZ">
      <acc value="0.0204670254" flag="0"/>
      <vel value="0.0162973130" flag="0"/>
      <psa03 value="0.0495815127" flag="0"/>
      <psa10 value="0.0324981559" flag="0"/>
      <psa30 value="0.0012199842" flag="0"/>
    </comp>
    <comp name="--.HHE">
      <acc value="0.0286072522" flag="0"/>
      <vel value="0.0177643677" flag="0"/>
      <psa03 value="0.0892967475" flag="0"/>
      <psa10 value="0.0167882478" flag="0"/>
      <psa30 value="0.0019708083" flag="0"/>
    </comp>
    <comp name="--.HHN">
      <acc value="0.0302215698" flag="0"/>
      <vel value="0.0182717751" flag="0"/>
      <psa03 value="0.1281491122" flag="0"/>
      <psa10 value="0.0163807675" flag="0"/>
      <psa30 value="0.0023190582" flag="0"/>
    </comp>
  </station>
  <station code="JAN" name="JAN" netid="HL" insttype="CMG3EPSC60_DR24" lat="39.6562" lon="20.8487">
    <comp name="--.HHZ">
      <acc value="0.0072796275" flag="0"/>
      <vel value="0.0034822188" flag="0"/>
      <psa03 value="0.0177262723" flag="0"/>
      <psa10 value="0.0036059805" flag="0"/>
      <psa30 value="0.0009527532" flag="0"/>
    </comp>
    <comp name="--.HHE">
      <acc value="0.0139680980" flag="0"/>
      <vel value="0.0074755939" flag="0"/>
      <psa03 value="0.0360992714" flag="0"/>
      <psa10 value="0.0055894078" flag="0"/>
      <psa30 value="0.0016578493" flag="0"/>
    </comp>
    <comp name="--.HHN">
      <acc value="0.0154831223" flag="0"/>
      <vel value="0.0074998087" flag="0"/>
      <psa03 value="0.0399188053" flag="0"/>
      <psa10 value="0.0068564614" flag="0"/>
      <psa30 value="0.0007006310" flag="0"/>
    </comp>
  </station>
  <station code="KZN" name="KZN" netid="HL" insttype="120" lat="40.3033" lon="21.7821">
    <comp name="--.HHZ">
      <acc value="0.0201414191" flag="0"/>
      <vel value="0.0072619908" flag="0"/>
      <psa03 value="0.0260845105" flag="0"/>
      <psa10 value="0.0046403122" flag="0"/>
      <psa30 value="0.0034173957" flag="0"/>
    </comp>
    <comp name="--.HHE">
      <acc value="0.0468692348" flag="0"/>
      <vel value="0.0215708538" flag="0"/>
      <psa03 value="0.1539856506" flag="0"/>
      <psa10 value="0.0132958875" flag="0"/>
      <psa30 value="0.0016556933" flag="0"/>
    </comp>
    <comp name="--.HHN">
      <acc value="0.0358126787" flag="0"/>
      <vel value="0.0140450118" flag="0"/>
      <psa03 value="0.0725078012" flag="0"/>
      <psa10 value="0.0062973345" flag="0"/>
      <psa30 value="0.0019682396" flag="0"/>
    </comp>
  </station>
  <station code="NEO" name="NEO" netid="HL" insttype="120" lat="39.3057" lon="23.2219">
    <comp name="--.HHN">
      <acc value="0.0206872520" flag="0"/>
      <vel value="0.0158967170" flag="0"/>
      <psa03 value="0.0518868237" flag="0"/>
      <psa10 value="0.0139901420" flag="0"/>
      <psa30 value="0.0018444177" flag="0"/>
    </comp>
    <comp name="--.HHZ">
      <acc value="0.0119379120" flag="0"/>
      <vel value="0.0073299041" flag="0"/>
      <psa03 value="0.0269371172" flag="0"/>
      <psa10 value="0.0064503624" flag="0"/>
      <psa30 value="0.0024300364" flag="0"/>
    </comp>
    <comp name="--.HHE">
      <acc value="0.0160088471" flag="0"/>
      <vel value="0.0107520096" flag="0"/>
      <psa03 value="0.0415659352" flag="0"/>
      <psa10 value="0.0071923603" flag="0"/>
      <psa30 value="0.0008627602" flag="0"/>
    </comp>
  </station>
  <station code="PENT" name="PENT" netid="HL" insttype="30" lat="40.1959" lon="21.1384">
    <comp name="--.HHN">
      <acc value="0.0005210391" flag="0"/>
      <vel value="0.0003046546" flag="0"/>
      <psa03 value="0.0017153269" flag="0"/>
      <psa10 value="0.0003300832" flag="0"/>
      <psa30 value="0.0001887964" flag="0"/>
    </comp>
    <comp name="--.HHE">
      <acc value="0.0088303067" flag="0"/>
      <vel value="0.0064018332" flag="0"/>
      <psa03 value="0.0350811598" flag="0"/>
      <psa10 value="0.0073337740" flag="0"/>
      <psa30 value="0.0017916167" flag="0"/>
    </comp>
    <comp name="--.HHZ">
      <acc value="0.0086320722" flag="0"/>
      <vel value="0.0049857712" flag="0"/>
      <psa03 value="0.0228921636" flag="0"/>
      <psa10 value="0.0045610524" flag="0"/>
      <psa30 value="0.0018273715" flag="0"/>
    </comp>
  </station>
  <station code="TETR" name="TETR" netid="HL" insttype="60" lat="39.3445" lon="21.2747">
    <comp name="--.HHE">
      <acc value="0.1239515126" flag="0"/>
      <vel value="0.0447874928" flag="0"/>
      <psa03 value="0.2296175225" flag="0"/>
      <psa10 value="0.0300117613" flag="0"/>
      <psa30 value="0.0035604169" flag="0"/>
    </comp>
    <comp name="--.HHZ">
      <acc value="0.0476475918" flag="0"/>
      <vel value="0.0221347887" flag="0"/>
      <psa03 value="0.1173244551" flag="0"/>
      <psa10 value="0.0175408063" flag="0"/>
      <psa30 value="0.0020816912" flag="0"/>
    </comp>
    <comp name="--.HHN">
      <acc value="0.0876552382" flag="0"/>
      <vel value="0.0306015574" flag="0"/>
      <psa03 value="0.1505266980" flag="0"/>
      <psa10 value="0.0187324007" flag="0"/>
      <psa30 value="0.0017366251" flag="0"/>
    </comp>
  </station>
  <station code="THL" name="THL" netid="HL" insttype="120" lat="39.5647" lon="22.0144">
    <comp name="--.HHE">
      <acc value="0.1473099362" flag="0"/>
      <vel value="0.0427414308" flag="0"/>
      <psa03 value="0.2309330761" flag="0"/>
      <psa10 value="0.0207390438" flag="0"/>
      <psa30 value="0.0022413245" flag="0"/>
    </comp>
    <comp name="--.HHN">
      <acc value="0.1682335252" flag="0"/>
      <vel value="0.0379736740" flag="0"/>
      <psa03 value="0.1358482066" flag="0"/>
      <psa10 value="0.0356163275" flag="0"/>
      <psa30 value="0.0069215817" flag="0"/>
    </comp>
    <comp name="--.HHZ">
      <acc value="0.1361108051" flag="0"/>
      <vel value="0.0249725141" flag="0"/>
      <psa03 value="0.0957333544" flag="0"/>
      <psa10 value="0.0202311868" flag="0"/>
      <psa30 value="0.0056545455" flag="0"/>
    </comp>
  </station>
  <station code="AMPL" name="AMPL" netid="HP" insttype="Compact," lat="38.9224" lon="21.2135">
    <comp name="--.HHE">
      <acc value="0.0105808816" flag="0"/>
      <vel value="0.0064912994" flag="0"/>
      <psa03 value="0.0247881979" flag="0"/>
      <psa10 value="0.0073214373" flag="0"/>
      <psa30 value="0.0007256644" flag="0"/>
    </comp>
    <comp name="--.HHN">
      <acc value="0.0069566371" flag="0"/>
      <vel value="0.0056747446" flag="0"/>
      <psa03 value="0.0195243174" flag="0"/>
      <psa10 value="0.0065094787" flag="0"/>
      <psa30 value="0.0008329694" flag="0"/>
    </comp>
    <comp name="--.HHZ">
      <acc value="0.0065327997" flag="0"/>
      <vel value="0.0039735462" flag="0"/>
      <psa03 value="0.0205502588" flag="0"/>
      <psa10 value="0.0050677873" flag="0"/>
      <psa30 value="0.0005847416" flag="0"/>
    </comp>
  </station>
  <station code="PRMD" name="PRMD" netid="HP" insttype="120P," lat="39.5299" lon="21.0965">
    <comp name="--.HHZ">
      <acc value="0.0378760538" flag="0"/>
      <vel value="0.0156517594" flag="0"/>
      <psa03 value="0.0597785364" flag="0"/>
      <psa10 value="0.0111451150" flag="0"/>
      <psa30 value="0.0037173546" flag="0"/>
    </comp>
    <comp name="--.HHN">
      <acc value="0.0369183221" flag="0"/>
      <vel value="0.0203907533" flag="0"/>
      <psa03 value="0.1158632535" flag="0"/>
      <psa10 value="0.0295647348" flag="0"/>
      <psa30 value="0.0022430472" flag="0"/>
    </comp>
    <comp name="--.HHE">
      <acc value="0.0411642305" flag="0"/>
      <vel value="0.0210345695" flag="0"/>
      <psa03 value="0.0643754985" flag="0"/>
      <psa10 value="0.0152242799" flag="0"/>
      <psa30 value="0.0020288203" flag="0"/>
    </comp>
  </station>
  <station code="AGG" name="AGG" netid="HT" insttype="120P," lat="39.0211" lon="22.336">
    <comp name="--.HHZ">
      <acc value="0.0181491384" flag="0"/>
      <vel value="0.0072622061" flag="0"/>
      <psa03 value="0.0358810780" flag="0"/>
      <psa10 value="0.0068190180" flag="0"/>
      <psa30 value="0.0014999431" flag="0"/>
    </comp>
    <comp name="--.HHE">
      <acc value="0.0285748227" flag="0"/>
      <vel value="0.0116209065" flag="0"/>
      <psa03 value="0.0903741874" flag="0"/>
      <psa10 value="0.0085539318" flag="0"/>
      <psa30 value="0.0013614223" flag="0"/>
    </comp>
    <comp name="--.HHN">
      <acc value="0.0324742109" flag="0"/>
      <vel value="0.0138610155" flag="0"/>
      <psa03 value="0.1139998760" flag="0"/>
      <psa10 value="0.0086972091" flag="0"/>
      <psa30 value="0.0019929675" flag="0"/>
    </comp>
  </station>
  <station code="HORT" name="HORT" netid="HT" insttype="100" lat="40.5978" lon="23.0996">
    <comp name="--.HHE">
      <acc value="0.0032931480" flag="0"/>
      <vel value="0.0021504430" flag="0"/>
      <psa03 value="0.0086776368" flag="0"/>
      <psa10 value="0.0021099964" flag="0"/>
      <psa30 value="0.0004926715" flag="0"/>
    </comp>
    <comp name="--.HHN">
      <acc value="0.0000114283" flag="0"/>
      <vel value="0.0000019066" flag="0"/>
      <psa03 value="0.0000092258" flag="0"/>
      <psa10 value="0.0000015958" flag="0"/>
      <psa30 value="0.0000004731" flag="0"/>
    </comp>
    <comp name="--.HHZ">
      <acc value="0.0017875844" flag="0"/>
      <vel value="0.0018417734" flag="0"/>
      <psa03 value="0.0048924625" flag="0"/>
      <psa10 value="0.0020264956" flag="0"/>
      <psa30 value="0.0009051183" flag="0"/>
    </comp>
  </station>
  <station code="KPRO" name="KPRO" netid="HT" insttype="100" lat="39.9549" lon="21.3632">
    <comp name="--.HHE">
      <acc value="0.0479669421" flag="0"/>
      <vel value="0.0219157856" flag="0"/>
      <psa03 value="0.0998982428" flag="0"/>
      <psa10 value="0.0271069712" flag="0"/>
      <psa30 value="0.0016897637" flag="0"/>
    </comp>
    <comp name="--.HHN">
      <acc value="0.0446139146" flag="0"/>
      <vel value="0.0202649457" flag="0"/>
      <psa03 value="0.1294048143" flag="0"/>
      <psa10 value="0.0278342767" flag="0"/>
      <psa30 value="0.0033418440" flag="0"/>
    </comp>
    <comp name="--.HHZ">
      <acc value="0.0298109619" flag="0"/>
      <vel value="0.0104697572" flag="0"/>
      <psa03 value="0.0484511318" flag="0"/>
      <psa10 value="0.0131256157" flag="0"/>
      <psa30 value="0.0019926191" flag="0"/>
    </comp>
  </station>
  <station code="LIT" name="LIT" netid="HT" insttype="100" lat="40.1033" lon="22.4892">
    <comp name="--.HHE">
      <acc value="0.1105754424" flag="0"/>
      <vel value="0.0325676089" flag="0"/>
      <psa03 value="0.2350504306" flag="0"/>
      <psa10 value="0.0118653407" flag="0"/>
      <psa30 value="0.0025255018" flag="0"/>
    </comp>
    <comp name="--.HHZ">
      <acc value="0.0352461869" flag="0"/>
      <vel value="0.0179905363" flag="0"/>
      <psa03 value="0.1116472771" flag="0"/>
      <psa10 value="0.0147102525" flag="0"/>
      <psa30 value="0.0040625025" flag="0"/>
    </comp>
    <comp name="--.HHN">
      <acc value="0.0606745283" flag="0"/>
      <vel value="0.0275976834" flag="0"/>
      <psa03 value="0.1597748307" flag="0"/>
      <psa10 value="0.0200499461" flag="0"/>
      <psa30 value="0.0050911339" flag="0"/>
    </comp>
  </station>
  <station code="NEST" name="NEST" netid="HT" insttype="120P," lat="40.4147" lon="21.0489">
    <comp name="--.HHZ">
      <acc value="0.0111116106" flag="0"/>
      <vel value="0.0077599795" flag="0"/>
      <psa03 value="0.0356680193" flag="0"/>
      <psa10 value="0.0074658755" flag="0"/>
      <psa30 value="0.0013385803" flag="0"/>
    </comp>
    <comp name="--.HHE">
      <acc value="0.0116079245" flag="0"/>
      <vel value="0.0058820233" flag="0"/>
      <psa03 value="0.0302875928" flag="0"/>
      <psa10 value="0.0076025904" flag="0"/>
      <psa30 value="0.0020473351" flag="0"/>
    </comp>
    <comp name="--.HHN">
      <acc value="0.0097139613" flag="0"/>
      <vel value="0.0084643016" flag="0"/>
      <psa03 value="0.0263647895" flag="0"/>
      <psa10 value="0.0111915425" flag="0"/>
      <psa30 value="0.0019869448" flag="0"/>
    </comp>
  </station>
  <station code="THE" name="THE" netid="HT" insttype="30s-100Hz," lat="40.6319" lon="22.9628">
    <comp name="--.HHZ">
      <acc value="0.0014592187" flag="0"/>
      <vel value="0.0027200611" flag="0"/>
      <psa03 value="0.0033950046" flag="0"/>
      <psa10 value="0.0023441897" flag="0"/>
      <psa30 value="0.0008510091" flag="0"/>
    </comp>
    <comp name="--.HHE">
      <acc value="0.0015748769" flag="0"/>
      <vel value="0.0013516414" flag="0"/>
      <psa03 value="0.0063082603" flag="0"/>
      <psa10 value="0.0019103013" flag="0"/>
      <psa30 value="0.0003860246" flag="0"/>
    </comp>
    <comp name="--.HHN">
      <acc value="0.0019326919" flag="0"/>
      <vel value="0.0019719081" flag="0"/>
      <psa03 value="0.0091258322" flag="0"/>
      <psa10 value="0.0020908600" flag="0"/>
      <psa30 value="0.0007835807" flag="0"/>
    </comp>
  </station>
  <station code="TYRN" name="TYRN" netid="HT" insttype="120P," lat="39.711" lon="22.2325">
    <comp name="--.HHE">
      <acc value="0.1491610640" flag="0"/>
      <vel value="0.0547733390" flag="0"/>
      <psa03 value="0.1753494206" flag="0"/>
      <psa10 value="0.0464989942" flag="0"/>
      <psa30 value="0.0074618119" flag="0"/>
    </comp>
    <comp name="--.HHN">
      <acc value="0.1372932714" flag="0"/>
      <vel value="0.0610084160" flag="0"/>
      <psa03 value="0.2598042623" flag="0"/>
      <psa10 value="0.0362788820" flag="0"/>
      <psa30 value="0.0067309957" flag="0"/>
    </comp>
    <comp name="--.HHZ">
      <acc value="0.1649511430" flag="0"/>
      <vel value="0.0406777305" flag="0"/>
      <psa03 value="0.2528506488" flag="0"/>
      <psa10 value="0.0412907913" flag="0"/>
      <psa30 value="0.0071585875" flag="0"/>
    </comp>
  </station>
  <station code="THL" name="THL" netid="MN" insttype="" lat="39.5647" lon="22.0144">
    <comp name="--.HHZ">
      <acc value="0.1361108051" flag="0"/>
      <vel value="0.0249725141" flag="0"/>
      <psa03 value="0.0957333544" flag="0"/>
      <psa10 value="0.0202311868" flag="0"/>
      <psa30 value="0.0056545455" flag="0"/>
    </comp>
    <comp name="--.HHN">
      <acc value="0.1682335252" flag="0"/>
      <vel value="0.0379736740" flag="0"/>
      <psa03 value="0.1358482066" flag="0"/>
      <psa10 value="0.0356163275" flag="0"/>
      <psa30 value="0.0069215817" flag="0"/>
    </comp>
    <comp name="--.HHE">
      <acc value="0.1473099362" flag="0"/>
      <vel value="0.0427414308" flag="0"/>
      <psa03 value="0.2309330761" flag="0"/>
      <psa10 value="0.0207390438" flag="0"/>
      <psa30 value="0.0022413245" flag="0"/>
    </comp>
  </station>
</stationlist>
