<stationlist created="1778136435">
	<station code="MALA" name="MALA" netid="CL" source="Corinth Riff Laboratory (CRLNET)" insttype="" lat="38.39341" lon="21.87263">
		<comp name="01.HNE" depth="0.0">
			<acc value="0.0169410390154321" flag="0"/>
			<vel value="0.0171876966993004" flag="0"/>
			<psa03 value="0.0423261274608851" flag="0"/>
			<psa10 value="0.0201299661796266" flag="0"/>
			<psa30 value="0.00412075722954283" flag="0"/>
		</comp>
		<comp name="01.HNN" depth="0.0">
			<acc value="0.0157256398103043" flag="0"/>
			<vel value="0.0146133733953392" flag="0"/>
			<psa03 value="0.0429077761469226" flag="0"/>
			<psa10 value="0.0266976746891228" flag="0"/>
			<psa30 value="0.00275164570702371" flag="0"/>
		</comp>
		<comp name="01.HNZ" depth="0.0">
			<acc value="0.00797661833714244" flag="0"/>
			<vel value="0.00850973262201083" flag="0"/>
			<psa03 value="0.0162414210024326" flag="0"/>
			<psa10 value="0.00632610059375744" flag="0"/>
			<psa30 value="0.00262413041816164" flag="0"/>
		</comp>
	</station>
	<station code="ROD3" name="ROD3" netid="CL" source="Corinth Riff Laboratory (CRLNET)" insttype="" lat="38.30811" lon="21.89204">
		<comp name="00.HNE" depth="0.0">
			<acc value="0.0121668716352495" flag="0"/>
			<vel value="0.0067051147280341" flag="0"/>
			<psa03 value="0.0589702283228822" flag="0"/>
			<psa10 value="0.00462276478779984" flag="0"/>
			<psa30 value="0.00104025630387482" flag="0"/>
		</comp>
		<comp name="00.HNN" depth="0.0">
			<acc value="0.00991326863183041" flag="0"/>
			<vel value="0.00667869830300693" flag="0"/>
			<psa03 value="0.0455028241307824" flag="0"/>
			<psa10 value="0.00522678457714651" flag="0"/>
			<psa30 value="0.00112526649644953" flag="0"/>
		</comp>
		<comp name="00.HNZ" depth="0.0">
			<acc value="0.00361146352699173" flag="0"/>
			<vel value="0.00226745956964833" flag="0"/>
			<psa03 value="0.00912741015012744" flag="0"/>
			<psa10 value="0.00269795505908179" flag="0"/>
			<psa30 value="0.000913188437078926" flag="0"/>
		</comp>
	</station>
	<station code="TST" name="TST" netid="EG" source="EUROSEISTEST Strong Motion Network" insttype="" lat="40.6638" lon="23.2906">
		<comp name="00.EN1" depth="0.0">
			<acc value="0.0085973434435678" flag="0"/>
			<vel value="0.00523421286222057" flag="0"/>
			<psa03 value="0.0193999166596785" flag="0"/>
			<psa10 value="0.00811409001862536" flag="0"/>
			<psa30 value="0.00112134834632513" flag="0"/>
		</comp>
		<comp name="00.EN2" depth="0.0">
			<acc value="0.00321903562877701" flag="0"/>
			<vel value="0.00282568217490748" flag="0"/>
			<psa03 value="0.0111473895015051" flag="0"/>
			<psa10 value="0.00466260887496339" flag="0"/>
			<psa30 value="0.000886139744074369" flag="0"/>
		</comp>
		<comp name="00.EN3" depth="0.0">
			<acc value="0.00672522172733309" flag="0"/>
			<vel value="0.00633723405357701" flag="0"/>
			<psa03 value="0.0232214445567405" flag="0"/>
			<psa10 value="0.0091765569643729" flag="0"/>
			<psa30 value="0.00145169991799429" flag="0"/>
		</comp>
	</station>
	<station code="AIGS" name="AIGS" netid="HA" source="Hellenic Seismological Network, University of Athens, Seismological Laboratory (HA)" insttype="" lat="38.25001" lon="22.0878">
		<comp name="--.HNE" depth="0.0">
			<acc value="0.00628071199803498" flag="0"/>
			<vel value="0.00472600473057081" flag="0"/>
			<psa03 value="0.0197760553252761" flag="0"/>
			<psa10 value="0.00497712306421655" flag="0"/>
			<psa30 value="0.00289884756679783" flag="0"/>
		</comp>
		<comp name="--.HNN" depth="0.0">
			<acc value="0.00602121754806193" flag="0"/>
			<vel value="0.00406707347571571" flag="0"/>
			<psa03 value="0.0157492567296317" flag="0"/>
			<psa10 value="0.00419189733806588" flag="0"/>
			<psa30 value="0.00149438970105028" flag="0"/>
		</comp>
		<comp name="--.HNZ" depth="0.0">
			<acc value="0.00413171260698993" flag="0"/>
			<vel value="0.00368012727665736" flag="0"/>
			<psa03 value="0.00608494010008496" flag="0"/>
			<psa10 value="0.00325365326528072" flag="0"/>
			<psa30 value="0.00239326063201136" flag="0"/>
		</comp>
	</station>
	<station code="KIAS" name="KIAS" netid="HA" source="Hellenic Seismological Network, University of Athens, Seismological Laboratory (HA)" insttype="" lat="37.9875" lon="22.7543">
		<comp name="--.HNE" depth="0.0">
			<acc value="0.00372485246301079" flag="0"/>
			<vel value="0.00376023087857291" flag="0"/>
			<psa03 value="0.00765091733172447" flag="0"/>
			<psa10 value="0.00451001442712179" flag="0"/>
			<psa30 value="0.00250243161615994" flag="0"/>
		</comp>
		<comp name="--.HNN" depth="0.0">
			<acc value="0.00428702221350774" flag="0"/>
			<vel value="0.00326077264644438" flag="0"/>
			<psa03 value="0.00827730822438028" flag="0"/>
			<psa10 value="0.00345499319506294" flag="0"/>
			<psa30 value="0.00243710799449726" flag="0"/>
		</comp>
		<comp name="--.HNZ" depth="0.0">
			<acc value="0.00370664219846441" flag="0"/>
			<vel value="0.00243566088003786" flag="0"/>
			<psa03 value="0.00527958038095607" flag="0"/>
			<psa10 value="0.00265768707312534" flag="0"/>
			<psa30 value="0.00203845493352846" flag="0"/>
		</comp>
	</station>
	<station code="LTRS" name="LTRS" netid="HA" source="Hellenic Seismological Network, University of Athens, Seismological Laboratory (HA)" insttype="" lat="37.97528" lon="22.9765">
		<comp name="--.HNE" depth="0.0">
			<acc value="0.0124111680372536" flag="0"/>
			<vel value="0.00305489842494237" flag="0"/>
			<psa03 value="0.0101564809023477" flag="0"/>
			<psa10 value="0.00416370974789637" flag="0"/>
			<psa30 value="0.00101430582403622" flag="0"/>
		</comp>
		<comp name="--.HNN" depth="0.0">
			<acc value="0.00877952221877038" flag="0"/>
			<vel value="0.00317161873047485" flag="0"/>
			<psa03 value="0.00644287775303113" flag="0"/>
			<psa10 value="0.00452612162150437" flag="0"/>
			<psa30 value="0.00148096703906479" flag="0"/>
		</comp>
		<comp name="--.HNZ" depth="0.0">
			<acc value="0.0250434537360266" flag="0"/>
			<vel value="0.00490084680011892" flag="0"/>
			<psa03 value="0.00514535376110125" flag="0"/>
			<psa10 value="0.00377311028411886" flag="0"/>
			<psa30 value="0.00070961139696579" flag="0"/>
		</comp>
	</station>
	<station code="XLKS" name="XLKS" netid="HA" source="Hellenic Seismological Network, University of Athens, Seismological Laboratory (HA)" insttype="" lat="38.0772" lon="22.6361">
		<comp name="--.HNE" depth="0.0">
			<acc value="0.0111299297130449" flag="0"/>
			<vel value="0.0105104249584622" flag="0"/>
			<psa03 value="0.0203577040113136" flag="0"/>
			<psa10 value="0.00857708100872269" flag="0"/>
			<psa30 value="0.00280399408876709" flag="0"/>
		</comp>
		<comp name="--.HNN" depth="0.0">
			<acc value="0.0116797059562631" flag="0"/>
			<vel value="0.00615698256621548" flag="0"/>
			<psa03 value="0.0160177099693413" flag="0"/>
			<psa10 value="0.00620126983729246" flag="0"/>
			<psa30 value="0.00167112141719245" flag="0"/>
		</comp>
		<comp name="--.HNZ" depth="0.0">
			<acc value="0.0116538032716471" flag="0"/>
			<vel value="0.00417365415119627" flag="0"/>
			<psa03 value="0.018433789126728" flag="0"/>
			<psa10 value="0.00325768006387637" flag="0"/>
			<psa30 value="0.00138521871690169" flag="0"/>
		</comp>
	</station>
	<station code="ART2" name="ART2" netid="HI" source="ITSAK Strong Motion Network" insttype="" lat="39.1474" lon="20.9937">
		<comp name="--.HNE" depth="0.0">
			<acc value="0.009420021225932" flag="0"/>
			<vel value="0.00309930235932422" flag="0"/>
			<psa03 value="0.0129259864915114" flag="0"/>
			<psa10 value="0.00311577882693179" flag="0"/>
			<psa30 value="0.000506750444728769" flag="0"/>
		</comp>
		<comp name="--.HNN" depth="0.0">
			<acc value="0.00677618531403123" flag="0"/>
			<vel value="0.00262803923574215" flag="0"/>
			<psa03 value="0.0123828619705044" flag="0"/>
			<psa10 value="0.00265862565215126" flag="0"/>
			<psa30 value="0.000417532086534896" flag="0"/>
		</comp>
		<comp name="--.HNZ" depth="0.0">
			<acc value="0.00594237452826347" flag="0"/>
			<vel value="0.00212601315271231" flag="0"/>
			<psa03 value="0.010989156363084" flag="0"/>
			<psa10 value="0.00266086736315371" flag="0"/>
			<psa30 value="0.000287039874358166" flag="0"/>
		</comp>
	</station>
	<station code="KRK1" name="KRK1" netid="HI" source="ITSAK Strong Motion Network" insttype="" lat="39.618861" lon="19.9202">
		<comp name="--.HNE" depth="0.0">
			<acc value="0.0177050375693273" flag="0"/>
			<vel value="0.00905060348046343" flag="0"/>
			<psa03 value="0.0531535888727906" flag="0"/>
			<psa10 value="0.00953740586884387" flag="0"/>
			<psa30 value="0.000546588240037417" flag="0"/>
		</comp>
		<comp name="--.HNN" depth="0.0">
			<acc value="0.0147699903963382" flag="0"/>
			<vel value="0.00839108212248462" flag="0"/>
			<psa03 value="0.0420386676679121" flag="0"/>
			<psa10 value="0.00849205318183497" flag="0"/>
			<psa30 value="0.00045852318740975" flag="0"/>
		</comp>
		<comp name="--.HNZ" depth="0.0">
			<acc value="0.00717944419567113" flag="0"/>
			<vel value="0.00348938420288811" flag="0"/>
			<psa03 value="0.023998040273239" flag="0"/>
			<psa10 value="0.00308032819724962" flag="0"/>
			<psa30 value="0.000675034144783986" flag="0"/>
		</comp>
	</station>
	<station code="LMS2" name="LMS2" netid="HI" source="ITSAK Strong Motion Network" insttype="" lat="40.834985" lon="21.141815">
		<comp name="--.HNE" depth="0.0">
			<acc value="0.00807179727879595" flag="0"/>
			<vel value="0.00415202843211178" flag="0"/>
			<psa03 value="0.0181164501258977" flag="0"/>
			<psa10 value="0.00478084295739149" flag="0"/>
			<psa30 value="0.0011725115273013" flag="0"/>
		</comp>
		<comp name="--.HNN" depth="0.0">
			<acc value="0.0103697993912293" flag="0"/>
			<vel value="0.00521291747286399" flag="0"/>
			<psa03 value="0.0172588177911649" flag="0"/>
			<psa10 value="0.00646187541127084" flag="0"/>
			<psa30 value="0.000778819353376101" flag="0"/>
		</comp>
		<comp name="--.HNZ" depth="0.0">
			<acc value="0.00391769919982601" flag="0"/>
			<vel value="0.00414265747936571" flag="0"/>
			<psa03 value="0.00808875589245887" flag="0"/>
			<psa10 value="0.00643030628875278" flag="0"/>
			<psa30 value="0.00221013057696944" flag="0"/>
		</comp>
	</station>
	<station code="SKO1" name="SKO1" netid="HI" source="ITSAK Strong Motion Network" insttype="" lat="39.123383" lon="23.728705">
		<comp name="--.HNE" depth="0.0">
			<acc value="0.0027641590966316" flag="0"/>
			<vel value="0.00147605590102703" flag="0"/>
			<psa03 value="0.00930062783971497" flag="0"/>
			<psa10 value="0.00227908504069726" flag="0"/>
			<psa30 value="0.000392864254495572" flag="0"/>
		</comp>
		<comp name="--.HNN" depth="0.0">
			<acc value="0.00240951082265258" flag="0"/>
			<vel value="0.00172237383312604" flag="0"/>
			<psa03 value="0.00802477313830862" flag="0"/>
			<psa10 value="0.00208098262051119" flag="0"/>
			<psa30 value="0.00039645733106096" flag="0"/>
		</comp>
		<comp name="--.HNZ" depth="0.0">
			<acc value="0.00253696663812759" flag="0"/>
			<vel value="0.00225418389319195" flag="0"/>
			<psa03 value="0.00713273683170978" flag="0"/>
			<psa10 value="0.00300962593544645" flag="0"/>
			<psa30 value="0.000628194375211289" flag="0"/>
		</comp>
	</station>
	<station code="VAS2" name="VAS2" netid="HI" source="ITSAK Strong Motion Network" insttype="" lat="38.630558" lon="20.608081">
		<comp name="--.HNE" depth="0.0">
			<acc value="0.0227062053604738" flag="0"/>
			<vel value="0.0203767784223396" flag="0"/>
			<psa03 value="0.0607190796329119" flag="0"/>
			<psa10 value="0.0499661125095399" flag="0"/>
			<psa30 value="0.00186526168943164" flag="0"/>
		</comp>
		<comp name="--.HNN" depth="0.0">
			<acc value="0.0245760025095465" flag="0"/>
			<vel value="0.0243642408076596" flag="0"/>
			<psa03 value="0.0811816643451608" flag="0"/>
			<psa10 value="0.0408136949570577" flag="0"/>
			<psa30 value="0.00377997165457133" flag="0"/>
		</comp>
		<comp name="--.HNZ" depth="0.0">
			<acc value="0.0111672348125223" flag="0"/>
			<vel value="0.011816731657426" flag="0"/>
			<psa03 value="0.0361308335945854" flag="0"/>
			<psa10 value="0.0268086640674334" flag="0"/>
			<psa30 value="0.000931369302811367" flag="0"/>
		</comp>
	</station>
	<station code="DLFA" name="DLFA" netid="HL" source="National Observatory of Athens Seismic Network" insttype="" lat="38.47836" lon="22.49583">
		<comp name="00.HNE" depth="0.0">
			<acc value="0.00784992035444202" flag="0"/>
			<vel value="0.00914642816549874" flag="0"/>
			<psa03 value="0.0168678118950885" flag="0"/>
			<psa10 value="0.00655562811370918" flag="0"/>
			<psa30 value="0.00227156183000966" flag="0"/>
		</comp>
		<comp name="00.HNN" depth="0.0">
			<acc value="0.00652032998449834" flag="0"/>
			<vel value="0.00547625545352174" flag="0"/>
			<psa03 value="0.0144517327377018" flag="0"/>
			<psa10 value="0.00560530364513709" flag="0"/>
			<psa30 value="0.00118387878711947" flag="0"/>
		</comp>
		<comp name="00.HNZ" depth="0.0">
			<acc value="0.00343649094649348" flag="0"/>
			<vel value="0.00288245977016826" flag="0"/>
			<psa03 value="0.00675607319935904" flag="0"/>
			<psa10 value="0.00388988744339255" flag="0"/>
			<psa30 value="0.00104607279073519" flag="0"/>
		</comp>
	</station>
	<station code="JAN" name="JAN" netid="HL" source="National Observatory of Athens Seismic Network" insttype="" lat="39.65616" lon="20.84874">
		<comp name="00.HNE" depth="0.0">
			<acc value="0.0143672158888109" flag="0"/>
			<vel value="0.00708556805287358" flag="0"/>
			<psa03 value="0.0378071645924396" flag="0"/>
			<psa10 value="0.00571000040862384" flag="0"/>
			<psa30 value="0.00189035822962198" flag="0"/>
		</comp>
		<comp name="00.HNN" depth="0.0">
			<acc value="0.0154495442384698" flag="0"/>
			<vel value="0.00763455853280094" flag="0"/>
			<psa03 value="0.0395968528571705" flag="0"/>
			<psa10 value="0.00688985239714767" flag="0"/>
			<psa30 value="0.000846522549217701" flag="0"/>
		</comp>
		<comp name="00.HNZ" depth="0.0">
			<acc value="0.00722985952787228" flag="0"/>
			<vel value="0.00341939302582602" flag="0"/>
			<psa03 value="0.0177179138208356" flag="0"/>
			<psa10 value="0.00347512718804117" flag="0"/>
			<psa30 value="0.00120669731249479" flag="0"/>
		</comp>
	</station>
	<station code="PATC" name="PATC" netid="HL" source="National Observatory of Athens Seismic Network" insttype="" lat="38.26933" lon="21.76001">
		<comp name="00.HNE" depth="0.0">
			<acc value="0.00992646809212091" flag="0"/>
			<vel value="0.0109744083242257" flag="0"/>
			<psa03 value="0.0328407796578115" flag="0"/>
			<psa10 value="0.00931398515172563" flag="0"/>
			<psa30 value="0.00448630105761411" flag="0"/>
		</comp>
		<comp name="00.HNN" depth="0.0">
			<acc value="0.00881221631816522" flag="0"/>
			<vel value="0.0103305684017276" flag="0"/>
			<psa03 value="0.0150781236303576" flag="0"/>
			<psa10 value="0.0158011576893089" flag="0"/>
			<psa30 value="0.00478115219922852" flag="0"/>
		</comp>
		<comp name="00.HNZ" depth="0.0">
			<acc value="0.00600224154902852" flag="0"/>
			<vel value="0.00669693863100297" flag="0"/>
			<psa03 value="0.0127515288862075" flag="0"/>
			<psa10 value="0.0132119261923095" flag="0"/>
			<psa30 value="0.00166038328760406" flag="0"/>
		</comp>
	</station>
	<station code="PATG" name="PATG" netid="HL" source="National Observatory of Athens Seismic Network" insttype="" lat="38.23865" lon="21.72657">
		<comp name="00.HNE" depth="0.0">
			<acc value="0.0164552929433471" flag="0"/>
			<vel value="0.0106638759153752" flag="0"/>
			<psa03 value="0.0332434595173759" flag="0"/>
			<psa10 value="0.011665635531582" flag="0"/>
			<psa30 value="0.00456102054266662" flag="0"/>
		</comp>
		<comp name="00.HNN" depth="0.0">
			<acc value="0.018213314697557" flag="0"/>
			<vel value="0.0139679557897661" flag="0"/>
			<psa03 value="0.031274802426172" flag="0"/>
			<psa10 value="0.00957572706044252" flag="0"/>
			<psa30 value="0.00425408900526528" flag="0"/>
		</comp>
		<comp name="00.HNZ" depth="0.0">
			<acc value="0.0131821174824003" flag="0"/>
			<vel value="0.00544266400427992" flag="0"/>
			<psa03 value="0.0199550241517492" flag="0"/>
			<psa10 value="0.00571805400581513" flag="0"/>
			<psa30 value="0.00199371272691019" flag="0"/>
		</comp>
	</station>
	<station code="PLG" name="PLG" netid="HL" source="National Observatory of Athens Seismic Network" insttype="" lat="40.37328" lon="23.44443">
		<comp name="--.HNE" depth="0.0">
			<acc value="0.0" flag="1"/>
			<vel value="0.0" flag="1"/>
			<psa03 value="0.0" flag="1"/>
			<psa10 value="0.0" flag="1"/>
			<psa30 value="0.0" flag="1"/>
		</comp>
		<comp name="--.HNN" depth="0.0">
			<acc value="0.0" flag="1"/>
			<vel value="0.0" flag="1"/>
			<psa03 value="0.0" flag="1"/>
			<psa10 value="0.0" flag="1"/>
			<psa30 value="0.0" flag="1"/>
		</comp>
		<comp name="--.HNZ" depth="0.0">
			<acc value="0.0" flag="1"/>
			<vel value="0.0" flag="1"/>
			<psa03 value="0.0" flag="1"/>
			<psa10 value="0.0" flag="1"/>
			<psa30 value="0.0" flag="1"/>
		</comp>
	</station>
	<station code="RIOA" name="RIOA" netid="HL" source="National Observatory of Athens Seismic Network" insttype="" lat="38.29585" lon="21.79118">
		<comp name="00.HNE" depth="0.0">
			<acc value="0.00855451775162318" flag="0"/>
			<vel value="0.00748800878647341" flag="0"/>
			<psa03 value="0.0171810073414164" flag="0"/>
			<psa10 value="0.0111260445197656" flag="0"/>
			<psa30 value="0.00267826848816975" flag="0"/>
		</comp>
		<comp name="00.HNN" depth="0.0">
			<acc value="0.00826898564674737" flag="0"/>
			<vel value="0.0069593252056135" flag="0"/>
			<psa03 value="0.0204471884245502" flag="0"/>
			<psa10 value="0.00907237723598696" flag="0"/>
			<psa30 value="0.00314269259286741" flag="0"/>
		</comp>
		<comp name="00.HNZ" depth="0.0">
			<acc value="0.007032962130753" flag="0"/>
			<vel value="0.00387172152059478" flag="0"/>
			<psa03 value="0.00961957442292843" flag="0"/>
			<psa10 value="0.0056334912353066" flag="0"/>
			<psa30 value="0.00166754204066299" flag="0"/>
		</comp>
	</station>
	<station code="ANX" name="ANX" netid="HP" source="University of Patras, Seismological Laboratory (PSLNET)" insttype="" lat="38.5933" lon="21.9209">
		<comp name="--.HNE" depth="0.0">
			<acc value="0.0377463857794922" flag="0"/>
			<vel value="0.0206465143505739" flag="0"/>
			<psa03 value="0.0896382505941918" flag="0"/>
			<psa10 value="0.0137115364470152" flag="0"/>
			<psa30 value="0.00191470579819509" flag="0"/>
		</comp>
		<comp name="--.HNN" depth="0.0">
			<acc value="0.0306415575579695" flag="0"/>
			<vel value="0.0240224830510495" flag="0"/>
			<psa03 value="0.0819786650590332" flag="0"/>
			<psa10 value="0.0144333945790373" flag="0"/>
			<psa30 value="0.00195035357635399" flag="0"/>
		</comp>
		<comp name="--.HNZ" depth="0.0">
			<acc value="0.0163649126120747" flag="0"/>
			<vel value="0.0113646926612873" flag="0"/>
			<psa03 value="0.0606719515105423" flag="0"/>
			<psa10 value="0.010089379621895" flag="0"/>
			<psa30 value="0.00217692629401453" flag="0"/>
		</comp>
	</station>
	<station code="LTK" name="LTK" netid="HP" source="University of Patras, Seismological Laboratory (PSLNET)" insttype="" lat="38.0228" lon="22.9673">
		<comp name="--.HNE" depth="0.0">
			<acc value="0.00147686275348336" flag="0"/>
			<vel value="0.0015003356663953" flag="0"/>
			<psa03 value="0.0031573523882662" flag="0"/>
			<psa10 value="0.00134989688498065" flag="0"/>
			<psa30 value="0.000261616992300128" flag="0"/>
		</comp>
		<comp name="--.HNN" depth="0.0">
			<acc value="0.00191563041263948" flag="0"/>
			<vel value="0.00193285388878837" flag="0"/>
			<psa03 value="0.00507912162311694" flag="0"/>
			<psa10 value="0.00139305240007146" flag="0"/>
			<psa30 value="0.000464496030998342" flag="0"/>
		</comp>
		<comp name="--.HNZ" depth="0.0">
			<acc value="0.00109276093338023" flag="0"/>
			<vel value="0.00132012717305837" flag="0"/>
			<psa03 value="0.00257032863754483" flag="0"/>
			<psa10 value="0.000847593297332255" flag="0"/>
			<psa30 value="0.000595823637060113" flag="0"/>
		</comp>
	</station>
