<?xml version="1.0" encoding="UTF-8" standalone="yes"?>
<!DOCTYPE earthquake SYSTEM "stationlist.dtd">
<stationlist created="" xmlns="ch.ethz.sed.shakemap.usgs.xml">
  <station code="ANDN" name="ANDN" netid="TU" insttype="T" lat="37.58" lon="36.3452">
    <comp name="--.HHE">
      <acc value="0.0095036820" flag="0"/>
      <vel value="0.0066622770" flag="0"/>
      <psa03 value="0.0388286883" flag="0"/>
      <psa10 value="0.0061681550" flag="0"/>
      <psa30 value="0.0008355113" flag="0"/>
    </comp>
    <comp name="--.HHZ">
      <acc value="0.0059190710" flag="0"/>
      <vel value="0.0035758565" flag="0"/>
      <psa03 value="0.0147134755" flag="0"/>
      <psa10 value="0.0058534581" flag="0"/>
      <psa30 value="0.0005649252" flag="0"/>
    </comp>
    <comp name="--.HHN">
      <acc value="0.0134618714" flag="0"/>
      <vel value="0.0064807047" flag="0"/>
      <psa03 value="0.0563051399" flag="0"/>
      <psa10 value="0.0047784417" flag="0"/>
      <psa30 value="0.0003469141" flag="0"/>
    </comp>
  </station>
</stationlist>
