<stationlist created="1775820572">
	<station code="KTHA" name="KTHA" netid="GE" source="GEOFON" insttype="" lat="36.2566" lon="23.0621">
		<comp name="--.HNE" depth="0.0">
			<acc value="0.00961575173806408" flag="0"/>
			<vel value="0.0039938884841279" flag="0"/>
			<psa03 value="0.0157045145230134" flag="0"/>
			<psa10 value="0.00415162935210944" flag="0"/>
			<psa30 value="0.00352300134912272" flag="0"/>
		</comp>
		<comp name="--.HNN" depth="0.0">
			<acc value="0.00559615357978605" flag="0"/>
			<vel value="0.00194289156310203" flag="0"/>
			<psa03 value="0.00917215235674571" flag="0"/>
			<psa10 value="0.00299996495375512" flag="0"/>
			<psa30 value="0.00116911385893544" flag="0"/>
		</comp>
		<comp name="--.HNZ" depth="0.0">
			<acc value="0.00485548870648934" flag="0"/>
			<vel value="0.00293538469744988" flag="0"/>
			<psa03 value="0.00510061155448298" flag="0"/>
			<psa10 value="0.00378519067990579" flag="0"/>
			<psa30 value="0.00166798946272917" flag="0"/>
		</comp>
	</station>
	<station code="CESE" name="CESE" netid="KO" source="Bogazici University Kandilli Observatory And Earthquake Research Institute (KOERI)" insttype="" lat="38.3306" lon="26.2997">
		<comp name="--.HNE" depth="0.0">
			<acc value="0.00644209100536512" flag="0"/>
			<vel value="0.000784805012210929" flag="0"/>
			<psa03 value="0.000581648686037533" flag="0"/>
			<psa10 value="0.000430867449733957" flag="0"/>
			<psa30 value="0.000468898325359488" flag="0"/>
		</comp>
		<comp name="--.HNN" depth="0.0">
			<acc value="0.00603349831922004" flag="0"/>
			<vel value="0.0013026146506193" flag="0"/>
			<psa03 value="0.00116329737207507" flag="0"/>
			<psa10 value="0.000591939393559735" flag="0"/>
			<psa30 value="0.000572252822647696" flag="0"/>
		</comp>
		<comp name="--.HNZ" depth="0.0">
			<acc value="0.00141396772759145" flag="0"/>
			<vel value="0.000684001563892159" flag="0"/>
			<psa03 value="0.000536906479419261" flag="0"/>
			<psa10 value="0.000354358276416712" flag="0"/>
			<psa30 value="0.000334671705504673" flag="0"/>
		</comp>
	</station>
</stationlist>
