<stationlist created="1779654268">
	<station code="ARPRA" name="ARPRA" netid="KO" source="Bogazici University Kandilli Observatory And Earthquake Research Institute (KOERI)" insttype="" lat="39.0929" lon="38.3356">
		<comp name="--.HNE" depth="0.0">
			<acc value="0.0760319133486119" flag="0"/>
			<vel value="0.0303382524419995" flag="0"/>
			<psa03 value="0.134206369680007" flag="0"/>
			<psa10 value="0.0175291449698257" flag="0"/>
			<psa30 value="0.00110187643140585" flag="0"/>
		</comp>
		<comp name="--.HNN" depth="0.0">
			<acc value="0.0619053852608848" flag="0"/>
			<vel value="0.0218056201994419" flag="0"/>
			<psa03 value="0.208606319144857" flag="0"/>
			<psa10 value="0.00792358302348837" flag="0"/>
			<psa30 value="0.000750159121443539" flag="0"/>
		</comp>
		<comp name="--.HNZ" depth="0.0">
			<acc value="0.0336278809230414" flag="0"/>
			<vel value="0.0136268735799897" flag="0"/>
			<psa03 value="0.0656019603912515" flag="0"/>
			<psa10 value="0.00973092056323043" flag="0"/>
			<psa30 value="0.000764460068811116" flag="0"/>
		</comp>
	</station>
	<station code="KHMN" name="KHMN" netid="KO" source="Bogazici University Kandilli Observatory And Earthquake Research Institute (KOERI)" insttype="" lat="37.3916" lon="37.1574">
		<comp name="--.HNE" depth="0.0">
			<acc value="0.00459544733956926" flag="0"/>
			<vel value="0.0022193753266466" flag="0"/>
			<psa03 value="0.0113091476130269" flag="0"/>
			<psa10 value="0.00185772107271634" flag="0"/>
			<psa30 value="0.000281474062941933" flag="0"/>
		</comp>
		<comp name="--.HNN" depth="0.0">
			<acc value="0.00414863343762565" flag="0"/>
			<vel value="0.00251455118216505" flag="0"/>
			<psa03 value="0.00778698850602197" flag="0"/>
			<psa10 value="0.00268009301175881" flag="0"/>
			<psa30 value="0.000943971595985461" flag="0"/>
		</comp>
		<comp name="--.HNZ" depth="0.0">
			<acc value="0.00249858841814973" flag="0"/>
			<vel value="0.00144186796112516" flag="0"/>
			<psa03 value="0.00600681719299244" flag="0"/>
			<psa10 value="0.00216548978119533" flag="0"/>
			<psa30 value="0.000423589076322439" flag="0"/>
		</comp>
	</station>
</stationlist>
