<?xml version="1.0" encoding="UTF-8" standalone="yes"?>
<!DOCTYPE earthquake SYSTEM "stationlist.dtd">
<stationlist created="" xmlns="ch.ethz.sed.shakemap.usgs.xml">
  <station code="AKDG" name="AKDG" netid="KO" insttype="CMG-6T" commtype="DIG" lat="38.3618" lon="37.9703">
    <comp name="--.HHE">
      <acc value="0.0473674468" flag="0"/>
      <vel value="0.0210219102" flag="0"/>
      <psa03 value="0.1407395445" flag="0"/>
      <psa10 value="0.0219796536" flag="0"/>
      <psa30 value="0.0011585868" flag="0"/>
    </comp>
    <comp name="--.HHZ">
      <acc value="0.0456371411" flag="0"/>
      <vel value="0.0165160072" flag="0"/>
      <psa03 value="0.0854502532" flag="0"/>
      <psa10 value="0.0188305663" flag="0"/>
      <psa30 value="0.0007923264" flag="0"/>
    </comp>
    <comp name="--.HHN">
      <acc value="0.0717613001" flag="0"/>
      <vel value="0.0320867759" flag="0"/>
      <psa03 value="0.1296304932" flag="0"/>
      <psa10 value="0.0397676461" flag="0"/>
      <psa30 value="0.0020291784" flag="0"/>
    </comp>
  </station>
  <station code="ARGN" name="ARGN" netid="KO" insttype="CMG-6T" commtype="DIG" lat="38.7763" lon="38.2639">
    <comp name="--.HHE">
      <acc value="0.1272465571" flag="0"/>
      <vel value="0.0334266513" flag="0"/>
      <psa03 value="0.1478064683" flag="0"/>
      <psa10 value="0.0196155578" flag="0"/>
      <psa30 value="0.0009941616" flag="0"/>
    </comp>
    <comp name="--.HHN">
      <acc value="0.1710370507" flag="0"/>
      <vel value="0.0484701422" flag="0"/>
      <psa03 value="0.1290829913" flag="0"/>
      <psa10 value="0.0098701853" flag="0"/>
      <psa30 value="0.0008618734" flag="0"/>
    </comp>
    <comp name="--.HHZ">
      <acc value="0.0773091515" flag="0"/>
      <vel value="0.0149038917" flag="0"/>
      <psa03 value="0.0726785669" flag="0"/>
      <psa10 value="0.0096582453" flag="0"/>
      <psa30 value="0.0003592121" flag="0"/>
    </comp>
  </station>
  <station code="ARPRA" name="ARPRA" netid="KO" insttype="CMG-5T" commtype="DIG" lat="39.0929" lon="38.3356">
    <comp name="--.HNZ">
      <acc value="0.0335815044" flag="0"/>
      <vel value="0.0135985536" flag="0"/>
      <psa03 value="0.0656022638" flag="0"/>
      <psa10 value="0.0097254868" flag="0"/>
      <psa30 value="0.0007879727" flag="0"/>
    </comp>
    <comp name="--.HNE">
      <acc value="0.0760781623" flag="0"/>
      <vel value="0.0300559064" flag="0"/>
      <psa03 value="0.1293691165" flag="0"/>
      <psa10 value="0.0175781925" flag="0"/>
      <psa30 value="0.0011493278" flag="0"/>
    </comp>
    <comp name="--.HNN">
      <acc value="0.0617016008" flag="0"/>
      <vel value="0.0215918116" flag="0"/>
      <psa03 value="0.2095799824" flag="0"/>
      <psa10 value="0.0079299248" flag="0"/>
      <psa30 value="0.0007901063" flag="0"/>
    </comp>
  </station>
  <station code="DARE" name="DARE" netid="KO" insttype="CMG-3ESP" commtype="DIG" lat="38.5712" lon="37.4832">
    <comp name="--.HHE">
      <acc value="0.0055108889" flag="0"/>
      <vel value="0.0025451115" flag="0"/>
      <psa03 value="0.0112222525" flag="0"/>
      <psa10 value="0.0020171744" flag="0"/>
      <psa30 value="0.0001271416" flag="0"/>
    </comp>
    <comp name="--.HHN">
      <acc value="0.0053213478" flag="0"/>
      <vel value="0.0026495787" flag="0"/>
      <psa03 value="0.0124904102" flag="0"/>
      <psa10 value="0.0024938120" flag="0"/>
      <psa30 value="0.0002072771" flag="0"/>
    </comp>
    <comp name="--.HHZ">
      <acc value="0.0047100073" flag="0"/>
      <vel value="0.0020965345" flag="0"/>
      <psa03 value="0.0177372230" flag="0"/>
      <psa10 value="0.0022467671" flag="0"/>
      <psa30 value="0.0001982232" flag="0"/>
    </comp>
  </station>
  <station code="MLTY" name="MLTY" netid="KO" insttype="CMG-6T" commtype="DIG" lat="38.3223" lon="38.4407">
    <comp name="--.HHE">
      <acc value="1.9649628934" flag="0"/>
      <vel value="0.2759228990" flag="0"/>
      <psa03 value="1.1648334645" flag="0"/>
      <psa10 value="0.0806281716" flag="0"/>
      <psa30 value="0.0067870527" flag="0"/>
    </comp>
    <comp name="--.HHN">
      <acc value="1.5025613228" flag="0"/>
      <vel value="0.2317212841" flag="0"/>
      <psa03 value="0.8616333524" flag="0"/>
      <psa10 value="0.0746652490" flag="0"/>
      <psa30 value="0.0067925757" flag="0"/>
    </comp>
    <comp name="--.HHZ">
      <acc value="1.4565619676" flag="0"/>
      <vel value="0.1166720798" flag="0"/>
      <psa03 value="0.4831949767" flag="0"/>
      <psa10 value="0.0334718032" flag="0"/>
      <psa30 value="0.0032581339" flag="0"/>
    </comp>
  </station>
  <station code="NURH" name="NURH" netid="KO" insttype="CMG-6T" commtype="DIG" lat="37.9693" lon="37.4363">
    <comp name="--.HHZ">
      <acc value="0.0073124906" flag="0"/>
      <vel value="0.0048521257" flag="0"/>
      <psa03 value="0.0157401461" flag="0"/>
      <psa10 value="0.0051679967" flag="0"/>
      <psa30 value="0.0004332629" flag="0"/>
    </comp>
    <comp name="--.HHN">
      <acc value="0.0125400394" flag="0"/>
      <vel value="0.0063285037" flag="0"/>
      <psa03 value="0.0319958505" flag="0"/>
      <psa10 value="0.0106987490" flag="0"/>
      <psa30 value="0.0004614912" flag="0"/>
    </comp>
    <comp name="--.HHE">
      <acc value="0.0097999361" flag="0"/>
      <vel value="0.0051948374" flag="0"/>
      <psa03 value="0.0301054713" flag="0"/>
      <psa10 value="0.0041783575" flag="0"/>
      <psa30 value="0.0003809478" flag="0"/>
    </comp>
  </station>
  <station code="SINE" name="SINE" netid="KO" insttype="CMG-6T" commtype="DIG" lat="39.1636" lon="39.3871">
    <comp name="--.HHE">
      <acc value="0.0060994046" flag="0"/>
      <vel value="0.0026207174" flag="0"/>
      <psa03 value="0.0140364447" flag="0"/>
      <psa10 value="0.0027153606" flag="0"/>
      <psa30 value="0.0001339123" flag="0"/>
    </comp>
    <comp name="--.HHN">
      <acc value="0.0072260468" flag="0"/>
      <vel value="0.0030754601" flag="0"/>
      <psa03 value="0.0175848983" flag="0"/>
      <psa10 value="0.0019079663" flag="0"/>
      <psa30 value="0.0000948184" flag="0"/>
    </comp>
    <comp name="--.HHZ">
      <acc value="0.0044875567" flag="0"/>
      <vel value="0.0023806610" flag="0"/>
      <psa03 value="0.0100401334" flag="0"/>
      <psa10 value="0.0022258408" flag="0"/>
      <psa30 value="0.0000972540" flag="0"/>
    </comp>
  </station>
  <station code="SVRC" name="SVRC" netid="KO" insttype="CMG-3T" commtype="DIG" lat="38.3775" lon="39.306">
    <comp name="--.HHE">
      <acc value="0.0393459050" flag="0"/>
      <vel value="0.0185008238" flag="0"/>
      <psa03 value="0.1288671112" flag="0"/>
      <psa10 value="0.0081407754" flag="0"/>
      <psa30 value="0.0006650868" flag="0"/>
    </comp>
    <comp name="--.HHN">
      <acc value="0.0409359892" flag="0"/>
      <vel value="0.0142456532" flag="0"/>
      <psa03 value="0.1297350962" flag="0"/>
      <psa10 value="0.0068423947" flag="0"/>
      <psa30 value="0.0006353602" flag="0"/>
    </comp>
    <comp name="--.HHZ">
      <acc value="0.0299507663" flag="0"/>
      <vel value="0.0121740894" flag="0"/>
      <psa03 value="0.0651731380" flag="0"/>
      <psa10 value="0.0061244718" flag="0"/>
      <psa30 value="0.0004297631" flag="0"/>
    </comp>
  </station>
  <station code="URFA" name="URFA" netid="KO" insttype="CMG-3ESP" commtype="DIG" lat="37.4409" lon="38.8213">
    <comp name="--.HHN">
      <acc value="0.0231886701" flag="0"/>
      <vel value="0.0062648471" flag="0"/>
      <psa03 value="0.0275865096" flag="0"/>
      <psa10 value="0.0067683501" flag="0"/>
      <psa30 value="0.0005159580" flag="0"/>
    </comp>
    <comp name="--.HHZ">
      <acc value="0.0203761690" flag="0"/>
      <vel value="0.0043791428" flag="0"/>
      <psa03 value="0.0215354033" flag="0"/>
      <psa10 value="0.0038740535" flag="0"/>
      <psa30 value="0.0002963667" flag="0"/>
    </comp>
    <comp name="--.HHE">
      <acc value="0.0230726113" flag="0"/>
      <vel value="0.0116459662" flag="0"/>
      <psa03 value="0.0263377336" flag="0"/>
      <psa10 value="0.0100840220" flag="0"/>
      <psa30 value="0.0008011680" flag="0"/>
    </comp>
  </station>
</stationlist>
