<?xml version="1.0" encoding="UTF-8" standalone="yes"?>
<!DOCTYPE earthquake SYSTEM "stationlist.dtd">
<stationlist created="" xmlns="ch.ethz.sed.shakemap.usgs.xml">
  <station code="LSK" name="LSK" netid="AC" insttype="" lat="40.1499" lon="20.5987">
    <comp name="--.HHZ">
      <acc value="0.1298956519" flag="0"/>
      <vel value="0.0128981140" flag="0"/>
      <psa03 value="0.0206891351" flag="0"/>
      <psa10 value="0.0206230854" flag="0"/>
      <psa30 value="0.0026582927" flag="0"/>
    </comp>
    <comp name="--.HHN">
      <acc value="0.3674191629" flag="0"/>
      <vel value="0.0235324078" flag="0"/>
      <psa03 value="0.0446719514" flag="0"/>
      <psa10 value="0.0403328080" flag="0"/>
      <psa30 value="0.0017319333" flag="0"/>
    </comp>
    <comp name="--.HHE">
      <acc value="15.6117739942" flag="0"/>
      <vel value="0.7976846685" flag="0"/>
      <psa03 value="1.2248246963" flag="0"/>
      <psa10 value="0.1651775058" flag="0"/>
      <psa30 value="0.0163513354" flag="0"/>
    </comp>
  </station>
  <station code="SRN" name="SRN" netid="AC" insttype="" lat="39.88" lon="20.0005">
    <comp name="--.HHE">
      <acc value="0.0058909387" flag="0"/>
      <vel value="0.0018826374" flag="0"/>
      <psa03 value="0.0106323031" flag="0"/>
      <psa10 value="0.0028416320" flag="0"/>
      <psa30 value="0.0003356594" flag="0"/>
    </comp>
    <comp name="--.HHZ">
      <acc value="0.0060199957" flag="0"/>
      <vel value="0.0020715409" flag="0"/>
      <psa03 value="0.0058913168" flag="0"/>
      <psa10 value="0.0023360150" flag="0"/>
      <psa30 value="0.0002625712" flag="0"/>
    </comp>
    <comp name="--.HHN">
      <acc value="0.0053547947" flag="0"/>
      <vel value="0.0027287925" flag="0"/>
      <psa03 value="0.0063646653" flag="0"/>
      <psa10 value="0.0025214328" flag="0"/>
      <psa30 value="0.0003639230" flag="0"/>
    </comp>
  </station>
  <station code="KEK" name="KEK" netid="MN" insttype="" lat="39.7127" lon="19.7962">
    <comp name="--.HHE">
      <acc value="0.0373437307" flag="0"/>
      <vel value="0.0147352787" flag="0"/>
      <psa03 value="0.0707830483" flag="0"/>
      <psa10 value="0.0126950993" flag="0"/>
      <psa30 value="0.0005609583" flag="0"/>
    </comp>
    <comp name="--.HHN">
      <acc value="0.0207393617" flag="0"/>
      <vel value="0.0102954301" flag="0"/>
      <psa03 value="0.0363430720" flag="0"/>
      <psa10 value="0.0129071251" flag="0"/>
      <psa30 value="0.0009874850" flag="0"/>
    </comp>
    <comp name="--.HHZ">
      <acc value="0.0193592927" flag="0"/>
      <vel value="0.0116548014" flag="0"/>
      <psa03 value="0.0329533988" flag="0"/>
      <psa10 value="0.0057885163" flag="0"/>
      <psa30 value="0.0006372245" flag="0"/>
    </comp>
  </station>
</stationlist>
