<?xml version="1.0" encoding="UTF-8" standalone="yes"?>
<!DOCTYPE earthquake SYSTEM "stationlist.dtd">
<stationlist created="" xmlns="ch.ethz.sed.shakemap.usgs.xml">
  <station code="LSK" name="LSK" netid="AC" insttype="" lat="40.1499" lon="20.5987">
    <comp name="--.HHN">
      <acc value="0.3674191617" flag="0"/>
      <vel value="0.0235324081" flag="0"/>
      <psa03 value="0.0446719514" flag="0"/>
      <psa10 value="0.0403328080" flag="0"/>
      <psa30 value="0.0017319311" flag="0"/>
    </comp>
    <comp name="--.HHZ">
      <acc value="0.1298956523" flag="0"/>
      <vel value="0.0128981137" flag="0"/>
      <psa03 value="0.0206891351" flag="0"/>
      <psa10 value="0.0206230854" flag="0"/>
      <psa30 value="0.0026582899" flag="0"/>
    </comp>
    <comp name="--.HHE">
      <acc value="15.6117739954" flag="0"/>
      <vel value="0.7976846533" flag="0"/>
      <psa03 value="1.2248246963" flag="0"/>
      <psa10 value="0.1651775081" flag="0"/>
      <psa30 value="0.0163524727" flag="0"/>
    </comp>
  </station>
  <station code="SRN" name="SRN" netid="AC" insttype="" lat="39.88" lon="20.0005">
    <comp name="--.HHE">
      <acc value="0.0058909388" flag="0"/>
      <vel value="0.0018826375" flag="0"/>
      <psa03 value="0.0106323031" flag="0"/>
      <psa10 value="0.0028416320" flag="0"/>
      <psa30 value="0.0003356638" flag="0"/>
    </comp>
    <comp name="--.HHN">
      <acc value="0.0053547947" flag="0"/>
      <vel value="0.0027287925" flag="0"/>
      <psa03 value="0.0063646653" flag="0"/>
      <psa10 value="0.0025214328" flag="0"/>
      <psa30 value="0.0003639230" flag="0"/>
    </comp>
    <comp name="--.HHZ">
      <acc value="0.0060199957" flag="0"/>
      <vel value="0.0020715408" flag="0"/>
      <psa03 value="0.0058913168" flag="0"/>
      <psa10 value="0.0023360150" flag="0"/>
      <psa30 value="0.0002625710" flag="0"/>
    </comp>
  </station>
  <station code="KEK" name="KEK" netid="MN" insttype="" lat="39.7127" lon="19.7962">
    <comp name="--.HHE">
      <acc value="0.0373437306" flag="0"/>
      <vel value="0.0147352788" flag="0"/>
      <psa03 value="0.0707830483" flag="0"/>
      <psa10 value="0.0126950993" flag="0"/>
      <psa30 value="0.0005609558" flag="0"/>
    </comp>
    <comp name="--.HHN">
      <acc value="0.0207393617" flag="0"/>
      <vel value="0.0102954302" flag="0"/>
      <psa03 value="0.0363430720" flag="0"/>
      <psa10 value="0.0129071251" flag="0"/>
      <psa30 value="0.0009874861" flag="0"/>
    </comp>
    <comp name="--.HHZ">
      <acc value="0.0193592927" flag="0"/>
      <vel value="0.0116548014" flag="0"/>
      <psa03 value="0.0329533988" flag="0"/>
      <psa10 value="0.0057885163" flag="0"/>
      <psa30 value="0.0006372218" flag="0"/>
    </comp>
  </station>
</stationlist>
