<?xml version="1.0" encoding="UTF-8" standalone="yes"?>
<!DOCTYPE earthquake SYSTEM "stationlist.dtd">
<stationlist created="" xmlns="ch.ethz.sed.shakemap.usgs.xml">
  <station code="LSK" name="LSK" netid="AC" insttype="" lat="40.1499" lon="20.5987">
    <comp name="--.HHZ">
      <acc value="0.1298956519" flag="0"/>
      <vel value="0.0128981140" flag="0"/>
      <psa03 value="0.0206891351" flag="0"/>
      <psa10 value="0.0206230854" flag="0"/>
      <psa30 value="0.0026582927" flag="0"/>
    </comp>
    <comp name="--.HHN">
      <acc value="0.3674191629" flag="0"/>
      <vel value="0.0235324078" flag="0"/>
      <psa03 value="0.0446719514" flag="0"/>
      <psa10 value="0.0403328080" flag="0"/>
      <psa30 value="0.0017319333" flag="0"/>
    </comp>
    <comp name="--.HHE">
      <acc value="15.6117739942" flag="0"/>
      <vel value="0.7976846685" flag="0"/>
      <psa03 value="1.2248246963" flag="0"/>
      <psa10 value="0.1651775058" flag="0"/>
      <psa30 value="0.0163513354" flag="0"/>
    </comp>
  </station>
  <station code="SRN" name="SRN" netid="AC" insttype="" lat="39.88" lon="20.0005">
    <comp name="--.HHE">
      <acc value="0.0058909387" flag="0"/>
      <vel value="0.0018826374" flag="0"/>
      <psa03 value="0.0106323031" flag="0"/>
      <psa10 value="0.0028416320" flag="0"/>
      <psa30 value="0.0003356594" flag="0"/>
    </comp>
    <comp name="--.HHZ">
      <acc value="0.0060199957" flag="0"/>
      <vel value="0.0020715409" flag="0"/>
      <psa03 value="0.0058913168" flag="0"/>
      <psa10 value="0.0023360150" flag="0"/>
      <psa30 value="0.0002625712" flag="0"/>
    </comp>
    <comp name="--.HHN">
      <acc value="0.0053547947" flag="0"/>
      <vel value="0.0027287925" flag="0"/>
      <psa03 value="0.0063646653" flag="0"/>
      <psa10 value="0.0025214328" flag="0"/>
      <psa30 value="0.0003639230" flag="0"/>
    </comp>
  </station>
  <station code="ART2" name="ART2" netid="HI" insttype="CMG-5TD,ACCELEROMETER,GURALP" lat="39.1474" lon="20.9937">
    <comp name="--.HNE">
      <acc value="0.8029183073" flag="0"/>
      <vel value="0.0992481997" flag="0"/>
      <psa03 value="0.3001862229" flag="0"/>
      <psa10 value="0.0661445736" flag="0"/>
      <psa30 value="0.0052513406" flag="0"/>
    </comp>
    <comp name="--.HNN">
      <acc value="0.8492583613" flag="0"/>
      <vel value="0.1436280912" flag="0"/>
      <psa03 value="0.4214932698" flag="0"/>
      <psa10 value="0.0574686826" flag="0"/>
      <psa30 value="0.0051197850" flag="0"/>
    </comp>
    <comp name="--.HNZ">
      <acc value="0.5189893135" flag="0"/>
      <vel value="0.0934841393" flag="0"/>
      <psa03 value="0.4137695887" flag="0"/>
      <psa10 value="0.0428313911" flag="0"/>
      <psa30 value="0.0031830444" flag="0"/>
    </comp>
  </station>
  <station code="MSL1" name="MSL1" netid="HI" insttype="CMG-5TD,ACCELEROMETER,GURALP" lat="38.3727" lon="21.4243">
    <comp name="--.HNE">
      <acc value="0.0531820795" flag="0"/>
      <vel value="0.0362340849" flag="0"/>
      <psa03 value="0.1606862773" flag="0"/>
      <psa10 value="0.0531817169" flag="0"/>
      <psa30 value="0.0048554676" flag="0"/>
    </comp>
    <comp name="--.HNN">
      <acc value="0.0787257014" flag="0"/>
      <vel value="0.0611830220" flag="0"/>
      <psa03 value="0.1587988071" flag="0"/>
      <psa10 value="0.0878458883" flag="0"/>
      <psa30 value="0.0039712310" flag="0"/>
    </comp>
    <comp name="--.HNZ">
      <acc value="0.0195730408" flag="0"/>
      <vel value="0.0146027914" flag="0"/>
      <psa03 value="0.0663876144" flag="0"/>
      <psa10 value="0.0242609161" flag="0"/>
      <psa30 value="0.0011115877" flag="0"/>
    </comp>
  </station>
  <station code="EVR" name="EVR" netid="HL" insttype="DR24" lat="38.9166" lon="21.8105">
    <comp name="--.HHZ">
      <acc value="0.0093006872" flag="0"/>
      <vel value="0.0069054526" flag="0"/>
      <psa03 value="0.0295906460" flag="0"/>
      <psa10 value="0.0077857482" flag="0"/>
      <psa30 value="0.0007172389" flag="0"/>
    </comp>
    <comp name="--.HHE">
      <acc value="0.0174412620" flag="0"/>
      <vel value="0.0098234443" flag="0"/>
      <psa03 value="0.0796411305" flag="0"/>
      <psa10 value="0.0051931073" flag="0"/>
      <psa30 value="0.0008361991" flag="0"/>
    </comp>
    <comp name="--.HHN">
      <acc value="0.0139693204" flag="0"/>
      <vel value="0.0078951007" flag="0"/>
      <psa03 value="0.0505604173" flag="0"/>
      <psa10 value="0.0106192013" flag="0"/>
      <psa30 value="0.0005674180" flag="0"/>
    </comp>
  </station>
  <station code="JAN" name="JAN" netid="HL" insttype="CMG3EPSC60_DR24" lat="39.6562" lon="20.8487">
    <comp name="--.HHN">
      <acc value="0.0915571588" flag="0"/>
      <vel value="0.0298347305" flag="0"/>
      <psa03 value="0.1848716427" flag="0"/>
      <psa10 value="0.0134528441" flag="0"/>
      <psa30 value="0.0018622167" flag="0"/>
    </comp>
    <comp name="--.HHZ">
      <acc value="0.0591583219" flag="0"/>
      <vel value="0.0178032073" flag="0"/>
      <psa03 value="0.1241567396" flag="0"/>
      <psa10 value="0.0194574343" flag="0"/>
      <psa30 value="0.0010422298" flag="0"/>
    </comp>
    <comp name="--.HHE">
      <acc value="0.1805034858" flag="0"/>
      <vel value="0.0436207299" flag="0"/>
      <psa03 value="0.2294634633" flag="0"/>
      <psa10 value="0.0243039917" flag="0"/>
      <psa30 value="0.0020827426" flag="0"/>
    </comp>
  </station>
  <station code="KEK" name="KEK" netid="HL" insttype="120" lat="39.7127" lon="19.7962">
    <comp name="--.HHZ">
      <acc value="0.0193593061" flag="0"/>
      <vel value="0.0116548095" flag="0"/>
      <psa03 value="0.0329534216" flag="0"/>
      <psa10 value="0.0057885203" flag="0"/>
      <psa30 value="0.0006372226" flag="0"/>
    </comp>
    <comp name="--.HHN">
      <acc value="0.0207393761" flag="0"/>
      <vel value="0.0102954372" flag="0"/>
      <psa03 value="0.0363430972" flag="0"/>
      <psa10 value="0.0129071340" flag="0"/>
      <psa30 value="0.0009874859" flag="0"/>
    </comp>
    <comp name="--.HHE">
      <acc value="0.0373437565" flag="0"/>
      <vel value="0.0147352890" flag="0"/>
      <psa03 value="0.0707830973" flag="0"/>
      <psa10 value="0.0126951081" flag="0"/>
      <psa30 value="0.0005609566" flag="0"/>
    </comp>
  </station>
  <station code="PENT" name="PENT" netid="HL" insttype="30s-100Hz," lat="40.1959" lon="21.1384">
    <comp name="--.HHZ">
      <acc value="0.0053248074" flag="0"/>
      <vel value="0.0032310783" flag="0"/>
      <psa03 value="0.0141421907" flag="0"/>
      <psa10 value="0.0045444624" flag="0"/>
      <psa30 value="0.0005647689" flag="0"/>
    </comp>
    <comp name="--.HHN">
      <acc value="0.0049932446" flag="0"/>
      <vel value="0.0031671631" flag="0"/>
      <psa03 value="0.0156714815" flag="0"/>
      <psa10 value="0.0042733243" flag="0"/>
      <psa30 value="0.0004448122" flag="0"/>
    </comp>
    <comp name="--.HHE">
      <acc value="0.0070241250" flag="0"/>
      <vel value="0.0056351270" flag="0"/>
      <psa03 value="0.0142151526" flag="0"/>
      <psa10 value="0.0051726104" flag="0"/>
      <psa30 value="0.0007135859" flag="0"/>
    </comp>
  </station>
  <station code="TETR" name="TETR" netid="HL" insttype="60" lat="39.3445" lon="21.2747">
    <comp name="--.HHZ">
      <acc value="0.3977285955" flag="0"/>
      <vel value="0.0625909391" flag="0"/>
      <psa03 value="0.2278026491" flag="0"/>
      <psa10 value="0.0338046852" flag="0"/>
      <psa30 value="0.0022289149" flag="0"/>
    </comp>
    <comp name="--.HHN">
      <acc value="0.7141661257" flag="0"/>
      <vel value="0.1858670420" flag="0"/>
      <psa03 value="0.6928101725" flag="0"/>
      <psa10 value="0.0520324019" flag="0"/>
      <psa30 value="0.0042041271" flag="0"/>
    </comp>
    <comp name="--.HHE">
      <acc value="0.4708362659" flag="0"/>
      <vel value="0.1750622267" flag="0"/>
      <psa03 value="0.7410334855" flag="0"/>
      <psa10 value="0.0400634081" flag="0"/>
      <psa30 value="0.0034627988" flag="0"/>
    </comp>
  </station>
  <station code="THL" name="THL" netid="HL" insttype="120" lat="39.5647" lon="22.0144">
    <comp name="--.HHE">
      <acc value="0.0083844092" flag="0"/>
      <vel value="0.0043186035" flag="0"/>
      <psa03 value="0.0337998807" flag="0"/>
      <psa10 value="0.0041222447" flag="0"/>
      <psa30 value="0.0002920198" flag="0"/>
    </comp>
    <comp name="--.HHN">
      <acc value="0.0056838699" flag="0"/>
      <vel value="0.0050729069" flag="0"/>
      <psa03 value="0.0163729138" flag="0"/>
      <psa10 value="0.0045775018" flag="0"/>
      <psa30 value="0.0004885883" flag="0"/>
    </comp>
    <comp name="--.HHZ">
      <acc value="0.0042271450" flag="0"/>
      <vel value="0.0022484211" flag="0"/>
      <psa03 value="0.0114726402" flag="0"/>
      <psa10 value="0.0021289471" flag="0"/>
      <psa30 value="0.0001801835" flag="0"/>
    </comp>
  </station>
  <station code="VLS" name="VLS" netid="HL" insttype="120P," lat="38.1768" lon="20.5886">
    <comp name="--.HHN">
      <acc value="0.0184487162" flag="0"/>
      <vel value="0.0092580625" flag="0"/>
      <psa03 value="0.0616848747" flag="0"/>
      <psa10 value="0.0097024870" flag="0"/>
      <psa30 value="0.0006292940" flag="0"/>
    </comp>
    <comp name="--.HHE">
      <acc value="0.0229093577" flag="0"/>
      <vel value="0.0092746588" flag="0"/>
      <psa03 value="0.0476766348" flag="0"/>
      <psa10 value="0.0071891928" flag="0"/>
      <psa30 value="0.0012767303" flag="0"/>
    </comp>
    <comp name="--.HHZ">
      <acc value="0.0105071332" flag="0"/>
      <vel value="0.0067579314" flag="0"/>
      <psa03 value="0.0301553384" flag="0"/>
      <psa10 value="0.0052755440" flag="0"/>
      <psa30 value="0.0005288462" flag="0"/>
    </comp>
  </station>
  <station code="AMPL" name="AMPL" netid="HP" insttype="Compact," lat="38.9224" lon="21.2135">
    <comp name="--.HHN">
      <acc value="0.1419423791" flag="0"/>
      <vel value="0.0407806813" flag="0"/>
      <psa03 value="0.1848705701" flag="0"/>
      <psa10 value="0.0170497038" flag="0"/>
      <psa30 value="0.0016159847" flag="0"/>
    </comp>
    <comp name="--.HHE">
      <acc value="0.1922107948" flag="0"/>
      <vel value="0.0693055017" flag="0"/>
      <psa03 value="0.3458049644" flag="0"/>
      <psa10 value="0.0279384304" flag="0"/>
      <psa30 value="0.0026054226" flag="0"/>
    </comp>
    <comp name="--.HHZ">
      <acc value="0.0645606328" flag="0"/>
      <vel value="0.0250227616" flag="0"/>
      <psa03 value="0.1974955244" flag="0"/>
      <psa10 value="0.0114758265" flag="0"/>
      <psa30 value="0.0009947401" flag="0"/>
    </comp>
  </station>
  <station code="FSK" name="FSK" netid="HP" insttype="40," lat="38.4593" lon="20.5623">
    <comp name="--.HHN">
      <acc value="0.0241816590" flag="0"/>
      <vel value="0.0123669979" flag="0"/>
      <psa03 value="0.0511250147" flag="0"/>
      <psa10 value="0.0094099734" flag="0"/>
      <psa30 value="0.0016572886" flag="0"/>
    </comp>
    <comp name="--.HHZ">
      <acc value="0.0138509173" flag="0"/>
      <vel value="0.0084116938" flag="0"/>
      <psa03 value="0.0316176424" flag="0"/>
      <psa10 value="0.0080180026" flag="0"/>
      <psa30 value="0.0009059302" flag="0"/>
    </comp>
    <comp name="--.HHE">
      <acc value="0.0476463137" flag="0"/>
      <vel value="0.0165432939" flag="0"/>
      <psa03 value="0.0985135735" flag="0"/>
      <psa10 value="0.0180321978" flag="0"/>
      <psa30 value="0.0015163448" flag="0"/>
    </comp>
  </station>
  <station code="PDO" name="PDO" netid="HP" insttype="120s" lat="38.5986" lon="21.1833">
    <comp name="--.HHE">
      <acc value="0.0415987564" flag="0"/>
      <vel value="0.0160522280" flag="0"/>
      <psa03 value="0.1306195565" flag="0"/>
      <psa10 value="0.0151168777" flag="0"/>
      <psa30 value="0.0008277574" flag="0"/>
    </comp>
    <comp name="--.HHZ">
      <acc value="0.0476786635" flag="0"/>
      <vel value="0.0159057460" flag="0"/>
      <psa03 value="0.0953739953" flag="0"/>
      <psa10 value="0.0087398383" flag="0"/>
      <psa30 value="0.0007349505" flag="0"/>
    </comp>
    <comp name="--.HHN">
      <acc value="0.0551997800" flag="0"/>
      <vel value="0.0243402809" flag="0"/>
      <psa03 value="0.1651338409" flag="0"/>
      <psa10 value="0.0107925476" flag="0"/>
      <psa30 value="0.0009550574" flag="0"/>
    </comp>
  </station>
  <station code="PLEV" name="PLEV" netid="HP" insttype="Compact," lat="38.4124" lon="21.4073">
    <comp name="--.HHE">
      <acc value="0.0058017766" flag="0"/>
      <vel value="0.0033179022" flag="0"/>
      <psa03 value="0.0148555170" flag="0"/>
      <psa10 value="0.0036359778" flag="0"/>
      <psa30 value="0.0004760518" flag="0"/>
    </comp>
    <comp name="--.HHZ">
      <acc value="0.0041050315" flag="0"/>
      <vel value="0.0030257016" flag="0"/>
      <psa03 value="0.0106279569" flag="0"/>
      <psa10 value="0.0020515857" flag="0"/>
      <psa30 value="0.0002299071" flag="0"/>
    </comp>
    <comp name="--.HHN">
      <acc value="0.0059015163" flag="0"/>
      <vel value="0.0030972745" flag="0"/>
      <psa03 value="0.0157731846" flag="0"/>
      <psa10 value="0.0024526671" flag="0"/>
      <psa30 value="0.0002119698" flag="0"/>
    </comp>
  </station>
  <station code="PRMD" name="PRMD" netid="HP" insttype="120P," lat="39.5299" lon="21.0965">
    <comp name="--.HHE">
      <acc value="0.1082287780" flag="0"/>
      <vel value="0.0498643942" flag="0"/>
      <psa03 value="0.2286509832" flag="0"/>
      <psa10 value="0.0545743749" flag="0"/>
      <psa30 value="0.0034060550" flag="0"/>
    </comp>
    <comp name="--.HHN">
      <acc value="0.1394281720" flag="0"/>
      <vel value="0.0403505816" flag="0"/>
      <psa03 value="0.2714757927" flag="0"/>
      <psa10 value="0.0357741952" flag="0"/>
      <psa30 value="0.0028871121" flag="0"/>
    </comp>
    <comp name="--.HHZ">
      <acc value="0.0638778908" flag="0"/>
      <vel value="0.0211778956" flag="0"/>
      <psa03 value="0.1043021781" flag="0"/>
      <psa10 value="0.0184032341" flag="0"/>
      <psa30 value="0.0015568923" flag="0"/>
    </comp>
  </station>
  <station code="PVO" name="PVO" netid="HP" insttype="120P," lat="38.616" lon="21.525">
    <comp name="--.HHE">
      <acc value="0.0276348804" flag="0"/>
      <vel value="0.0129251372" flag="0"/>
      <psa03 value="0.1185235000" flag="0"/>
      <psa10 value="0.0144983057" flag="0"/>
      <psa30 value="0.0012199809" flag="0"/>
    </comp>
    <comp name="--.HHZ">
      <acc value="0.0180040776" flag="0"/>
      <vel value="0.0105710703" flag="0"/>
      <psa03 value="0.0506882152" flag="0"/>
      <psa10 value="0.0207638035" flag="0"/>
      <psa30 value="0.0010641201" flag="0"/>
    </comp>
    <comp name="--.HHN">
      <acc value="0.0204165110" flag="0"/>
      <vel value="0.0121984484" flag="0"/>
      <psa03 value="0.0669879290" flag="0"/>
      <psa10 value="0.0106654779" flag="0"/>
      <psa30 value="0.0012299669" flag="0"/>
    </comp>
  </station>
  <station code="VVK" name="VVK" netid="HP" insttype="40," lat="38.4222" lon="21.8115">
    <comp name="--.HHE">
      <acc value="0.0083646194" flag="0"/>
      <vel value="0.0053333706" flag="0"/>
      <psa03 value="0.0204614202" flag="0"/>
      <psa10 value="0.0042162396" flag="0"/>
      <psa30 value="0.0007134707" flag="0"/>
    </comp>
    <comp name="--.HHZ">
      <acc value="0.0044001274" flag="0"/>
      <vel value="0.0037195471" flag="0"/>
      <psa03 value="0.0163517437" flag="0"/>
      <psa10 value="0.0048554460" flag="0"/>
      <psa30 value="0.0004108592" flag="0"/>
    </comp>
    <comp name="--.HHN">
      <acc value="0.0080527483" flag="0"/>
      <vel value="0.0064611474" flag="0"/>
      <psa03 value="0.0228387988" flag="0"/>
      <psa10 value="0.0057689566" flag="0"/>
      <psa30 value="0.0007066139" flag="0"/>
    </comp>
  </station>
  <station code="DMLN" name="DMLN" netid="HT" insttype="1s-100Hz," lat="38.2385" lon="20.3734">
    <comp name="--.HHZ">
      <acc value="0.0183911412" flag="0"/>
      <vel value="0.0089927790" flag="0"/>
      <psa03 value="0.0632722936" flag="0"/>
      <psa10 value="0.0078719409" flag="0"/>
      <psa30 value="0.0008035983" flag="0"/>
    </comp>
    <comp name="--.HHE">
      <acc value="0.0429414455" flag="0"/>
      <vel value="0.0274931594" flag="0"/>
      <psa03 value="0.1451953061" flag="0"/>
      <psa10 value="0.0234863262" flag="0"/>
      <psa30 value="0.0017544840" flag="0"/>
    </comp>
    <comp name="--.HHN">
      <acc value="0.0298119517" flag="0"/>
      <vel value="0.0155725230" flag="0"/>
      <psa03 value="0.1552232887" flag="0"/>
      <psa10 value="0.0165300179" flag="0"/>
      <psa30 value="0.0010217281" flag="0"/>
    </comp>
  </station>
  <station code="EVGI" name="EVGI" netid="HT" insttype="30" lat="38.621" lon="20.656">
    <comp name="--.HHN">
      <acc value="0.0880710788" flag="0"/>
      <vel value="0.0422465886" flag="0"/>
      <psa03 value="0.1953129868" flag="0"/>
      <psa10 value="0.0211304563" flag="0"/>
      <psa30 value="0.0015941684" flag="0"/>
    </comp>
    <comp name="--.HHE">
      <acc value="0.0812028485" flag="0"/>
      <vel value="0.0291390019" flag="0"/>
      <psa03 value="0.1583412655" flag="0"/>
      <psa10 value="0.0343364678" flag="0"/>
      <psa30 value="0.0022051774" flag="0"/>
    </comp>
    <comp name="--.HHZ">
      <acc value="0.0633584036" flag="0"/>
      <vel value="0.0303559558" flag="0"/>
      <psa03 value="0.1341747516" flag="0"/>
      <psa10 value="0.0206302494" flag="0"/>
      <psa30 value="0.0007321144" flag="0"/>
    </comp>
  </station>
  <station code="KPRO" name="KPRO" netid="HT" insttype="100" lat="39.9549" lon="21.3632">
    <comp name="--.HHE">
      <acc value="0.0181741264" flag="0"/>
      <vel value="0.0145553369" flag="0"/>
      <psa03 value="0.0573423936" flag="0"/>
      <psa10 value="0.0296727700" flag="0"/>
      <psa30 value="0.0019397027" flag="0"/>
    </comp>
    <comp name="--.HHZ">
      <acc value="0.0109923264" flag="0"/>
      <vel value="0.0067248304" flag="0"/>
      <psa03 value="0.0245669418" flag="0"/>
      <psa10 value="0.0062634347" flag="0"/>
      <psa30 value="0.0006880279" flag="0"/>
    </comp>
    <comp name="--.HHN">
      <acc value="0.0176538344" flag="0"/>
      <vel value="0.0133280988" flag="0"/>
      <psa03 value="0.0778640991" flag="0"/>
      <psa10 value="0.0173882287" flag="0"/>
      <psa30 value="0.0009911192" flag="0"/>
    </comp>
  </station>
  <station code="LKD2" name="LKD2" netid="HT" insttype="100" lat="38.7889" lon="20.6578">
    <comp name="--.HHN">
      <acc value="0.0678050497" flag="0"/>
      <vel value="0.0254205431" flag="0"/>
      <psa03 value="0.1267425017" flag="0"/>
      <psa10 value="0.0241180035" flag="0"/>
      <psa30 value="0.0014408253" flag="0"/>
    </comp>
    <comp name="--.HHE">
      <acc value="0.0761508674" flag="0"/>
      <vel value="0.0344612090" flag="0"/>
      <psa03 value="0.2389071541" flag="0"/>
      <psa10 value="0.0395665920" flag="0"/>
      <psa30 value="0.0014568160" flag="0"/>
    </comp>
    <comp name="--.HHZ">
      <acc value="0.0415755608" flag="0"/>
      <vel value="0.0160236346" flag="0"/>
      <psa03 value="0.1115081812" flag="0"/>
      <psa10 value="0.0160727380" flag="0"/>
      <psa30 value="0.0012027177" flag="0"/>
    </comp>
  </station>
  <station code="NYDR" name="NYDR" netid="HT" insttype="1s-100Hz," lat="38.7135" lon="20.6983">
    <comp name="--.HHN">
      <acc value="0.0534712363" flag="0"/>
      <vel value="0.0244737321" flag="0"/>
      <psa03 value="0.0885064640" flag="0"/>
      <psa10 value="0.0301189611" flag="0"/>
      <psa30 value="0.0011840414" flag="0"/>
    </comp>
    <comp name="--.HHZ">
      <acc value="0.0256416907" flag="0"/>
      <vel value="0.0128837417" flag="0"/>
