<?xml version="1.0" encoding="UTF-8" standalone="yes"?>
<!DOCTYPE earthquake SYSTEM "stationlist.dtd">
<stationlist created="" xmlns="ch.ethz.sed.shakemap.usgs.xml">
  <station code="MRKA" name="MRKA" netid="HA" insttype="30" lat="38.7047" lon="23.5863">
    <comp name="--.HHZ">
      <acc value="0.0720399091" flag="0"/>
      <vel value="0.0610288918" flag="0"/>
      <psa03 value="0.2119038417" flag="0"/>
      <psa10 value="0.1008246779" flag="0"/>
      <psa30 value="0.0223827055" flag="0"/>
    </comp>
    <comp name="--.HHN">
      <acc value="0.1105698404" flag="0"/>
      <vel value="0.0912248590" flag="0"/>
      <psa03 value="0.3286283367" flag="0"/>
      <psa10 value="0.1328020703" flag="0"/>
      <psa30 value="0.0160892930" flag="0"/>
    </comp>
    <comp name="--.HHE">
      <acc value="0.0871885326" flag="0"/>
      <vel value="0.0789378253" flag="0"/>
      <psa03 value="0.2315142329" flag="0"/>
      <psa10 value="0.1152025532" flag="0"/>
      <psa30 value="0.0229730052" flag="0"/>
    </comp>
  </station>
  <station code="SKY1" name="SKY1" netid="HI" insttype="CMG-5TD,ACCELEROMETER,GURALP" lat="38.9045" lon="24.5646">
    <comp name="--.HNN">
      <acc value="0.6869143319" flag="0"/>
      <vel value="0.5388169898" flag="0"/>
      <psa03 value="1.5348764710" flag="0"/>
      <psa10 value="0.6702306796" flag="0"/>
      <psa30 value="0.0289853020" flag="0"/>
    </comp>
    <comp name="--.HNE">
      <acc value="0.3614903256" flag="0"/>
      <vel value="0.3380744230" flag="0"/>
      <psa03 value="1.1262617987" flag="0"/>
      <psa10 value="0.6086539451" flag="0"/>
      <psa30 value="0.0240256001" flag="0"/>
    </comp>
    <comp name="--.HNZ">
      <acc value="0.1713816902" flag="0"/>
      <vel value="0.1663922999" flag="0"/>
      <psa03 value="0.5017890712" flag="0"/>
      <psa10 value="0.2609794237" flag="0"/>
      <psa30 value="0.0186852721" flag="0"/>
    </comp>
  </station>
  <station code="VOL2" name="VOL2" netid="HI" insttype="CMG-5TD,ACCELEROMETER,GURALP" lat="39.366" lon="22.9506">
    <comp name="--.HNN">
      <acc value="0.3014646824" flag="0"/>
      <vel value="0.2221724034" flag="0"/>
      <psa03 value="0.5859387755" flag="0"/>
      <psa10 value="0.1357448191" flag="0"/>
      <psa30 value="0.0320679302" flag="0"/>
    </comp>
    <comp name="--.HNE">
      <acc value="0.2016430636" flag="0"/>
      <vel value="0.1291373512" flag="0"/>
      <psa03 value="0.4694908601" flag="0"/>
      <psa10 value="0.1677385220" flag="0"/>
      <psa30 value="0.0184731444" flag="0"/>
    </comp>
    <comp name="--.HNZ">
      <acc value="0.0669483301" flag="0"/>
      <vel value="0.0657600334" flag="0"/>
      <psa03 value="0.1674075900" flag="0"/>
      <psa10 value="0.0690696808" flag="0"/>
      <psa30 value="0.0250950181" flag="0"/>
    </comp>
  </station>
  <station code="EFSA" name="EFSA" netid="HL" insttype="CMG-5" lat="39.5401" lon="24.9886">
    <comp name="00.HNN">
      <acc value="0.3643362139" flag="0"/>
      <vel value="0.2939153148" flag="0"/>
      <psa03 value="1.0673819371" flag="0"/>
      <psa10 value="0.3633554507" flag="0"/>
      <psa30 value="0.0384979514" flag="0"/>
    </comp>
    <comp name="00.HNZ">
      <acc value="0.2722894025" flag="0"/>
      <vel value="0.2037309505" flag="0"/>
      <psa03 value="0.8568317168" flag="0"/>
      <psa10 value="0.5233817990" flag="0"/>
      <psa30 value="0.0359230042" flag="0"/>
    </comp>
    <comp name="00.HNE">
      <acc value="0.8204297263" flag="0"/>
      <vel value="0.8846333124" flag="0"/>
      <psa03 value="1.5676116078" flag="0"/>
      <psa10 value="1.6899830649" flag="0"/>
      <psa30 value="0.1069568813" flag="0"/>
    </comp>
  </station>
  <station code="KVLA" name="KVLA" netid="HL" insttype="CMG-5" lat="40.937" lon="24.3859">
    <comp name="00.HNE">
      <acc value="0.5206171866" flag="0"/>
      <vel value="0.2501191367" flag="0"/>
      <psa03 value="1.7884401649" flag="0"/>
      <psa10 value="0.1365889807" flag="0"/>
      <psa30 value="0.0263770423" flag="0"/>
    </comp>
    <comp name="00.HNN">
      <acc value="0.3314313014" flag="0"/>
      <vel value="0.1844543685" flag="0"/>
      <psa03 value="1.2157358953" flag="0"/>
      <psa10 value="0.0744295380" flag="0"/>
      <psa30 value="0.0346838884" flag="0"/>
    </comp>
    <comp name="00.HNZ">
      <acc value="0.1706702382" flag="0"/>
      <vel value="0.1364800887" flag="0"/>
      <psa03 value="0.7573426528" flag="0"/>
      <psa10 value="0.0958489597" flag="0"/>
      <psa30 value="0.0209633115" flag="0"/>
    </comp>
  </station>
  <station code="LIA" name="LIA" netid="HL" insttype="P6C" lat="39.8972" lon="25.1806">
    <comp name="--.HHZ">
      <acc value="0.5383268718" flag="0"/>
      <vel value="0.2299649530" flag="0"/>
      <psa03 value="1.5663315755" flag="0"/>
      <psa10 value="0.1736768309" flag="0"/>
      <psa30 value="0.0154778223" flag="0"/>
    </comp>
    <comp name="--.HHN">
      <acc value="0.8585205120" flag="0"/>
      <vel value="0.5190832085" flag="0"/>
      <psa03 value="3.0499695580" flag="0"/>
      <psa10 value="0.1574148258" flag="0"/>
      <psa30 value="0.0122694984" flag="0"/>
    </comp>
    <comp name="--.HHE">
      <acc value="0.5543094367" flag="0"/>
      <vel value="0.3682182741" flag="0"/>
      <psa03 value="1.3382775609" flag="0"/>
      <psa10 value="0.2668490965" flag="0"/>
      <psa30 value="0.0278545758" flag="0"/>
    </comp>
  </station>
  <station code="NEO" name="NEO" netid="HL" insttype="120" lat="39.3057" lon="23.2219">
    <comp name="--.HHE">
      <acc value="0.2455895788" flag="0"/>
      <vel value="0.1894512416" flag="0"/>
      <psa03 value="0.5701640189" flag="0"/>
      <psa10 value="0.1491085853" flag="0"/>
      <psa30 value="0.0304076029" flag="0"/>
    </comp>
    <comp name="--.HHN">
      <acc value="0.2036361516" flag="0"/>
      <vel value="0.1751288068" flag="0"/>
      <psa03 value="0.4975374527" flag="0"/>
      <psa10 value="0.2059890664" flag="0"/>
      <psa30 value="0.0539969501" flag="0"/>
    </comp>
    <comp name="--.HHZ">
      <acc value="0.1620147958" flag="0"/>
      <vel value="0.1390593155" flag="0"/>
      <psa03 value="0.5660784735" flag="0"/>
      <psa10 value="0.1502004098" flag="0"/>
      <psa30 value="0.0364229375" flag="0"/>
    </comp>
  </station>
  <station code="PLG" name="PLG" netid="HL" insttype="120" lat="40.3733" lon="23.4444">
    <comp name="--.HHE">
      <acc value="0.2625105550" flag="0"/>
      <vel value="0.2059993341" flag="0"/>
      <psa03 value="0.4686132249" flag="0"/>
      <psa10 value="0.2969355149" flag="0"/>
      <psa30 value="0.0381281374" flag="0"/>
    </comp>
    <comp name="--.HHN">
      <acc value="0.2442573401" flag="0"/>
      <vel value="0.1406642711" flag="0"/>
      <psa03 value="0.5356959672" flag="0"/>
      <psa10 value="0.2285558480" flag="0"/>
      <psa30 value="0.0268126737" flag="0"/>
    </comp>
    <comp name="--.HHZ">
      <acc value="0.2195411895" flag="0"/>
      <vel value="0.1436843550" flag="0"/>
      <psa03 value="0.5322568835" flag="0"/>
      <psa10 value="0.1045210842" flag="0"/>
      <psa30 value="0.0370975559" flag="0"/>
    </comp>
  </station>
  <station code="PRAS" name="PRAS" netid="HL" insttype="120" lat="41.3524" lon="24.55">
    <comp name="--.HHE">
      <acc value="0.1037545151" flag="0"/>
      <vel value="0.0835923151" flag="0"/>
      <psa03 value="0.3286224763" flag="0"/>
      <psa10 value="0.0800409982" flag="0"/>
      <psa30 value="0.0147785252" flag="0"/>
    </comp>
    <comp name="--.HHN">
      <acc value="0.1645785244" flag="0"/>
      <vel value="0.0878897637" flag="0"/>
      <psa03 value="0.2613731648" flag="0"/>
      <psa10 value="0.0706326344" flag="0"/>
      <psa30 value="0.0107471830" flag="0"/>
    </comp>
    <comp name="--.HHZ">
      <acc value="0.0703140579" flag="0"/>
      <vel value="0.0613876433" flag="0"/>
      <psa03 value="0.1490981355" flag="0"/>
      <psa10 value="0.0975150140" flag="0"/>
      <psa30 value="0.0171335887" flag="0"/>
    </comp>
  </station>
  <station code="RDO" name="RDO" netid="HL" insttype="120" lat="41.145" lon="25.5355">
    <comp name="--.HHN">
      <acc value="0.0517319230" flag="0"/>
      <vel value="0.0333108452" flag="0"/>
      <psa03 value="0.0785749408" flag="0"/>
      <psa10 value="0.0305650478" flag="0"/>
      <psa30 value="0.0134626347" flag="0"/>
    </comp>
    <comp name="--.HHE">
      <acc value="0.0476678045" flag="0"/>
      <vel value="0.0377070500" flag="0"/>
      <psa03 value="0.1139301735" flag="0"/>
      <psa10 value="0.0367642370" flag="0"/>
      <psa30 value="0.0130233243" flag="0"/>
    </comp>
    <comp name="--.HHZ">
      <acc value="0.0253630630" flag="0"/>
      <vel value="0.0218359381" flag="0"/>
      <psa03 value="0.0538858766" flag="0"/>
      <psa10 value="0.0255996148" flag="0"/>
      <psa30 value="0.0139830918" flag="0"/>
    </comp>
  </station>
  <station code="SMTH" name="SMTH" netid="HL" insttype="CMG3ESPC60_P6C" lat="40.4709" lon="25.5304">
    <comp name="--.HHN">
      <acc value="0.1794745869" flag="0"/>
      <vel value="0.0976910103" flag="0"/>
      <psa03 value="0.5117668309" flag="0"/>
      <psa10 value="0.0577091179" flag="0"/>
      <psa30 value="0.0158428099" flag="0"/>
    </comp>
    <comp name="--.HHZ">
      <acc value="0.1226573654" flag="0"/>
      <vel value="0.0596084000" flag="0"/>
      <psa03 value="0.2306437565" flag="0"/>
      <psa10 value="0.0382384715" flag="0"/>
      <psa30 value="0.0129492621" flag="0"/>
    </comp>
    <comp name="--.HHE">
      <acc value="0.1426023543" flag="0"/>
      <vel value="0.0935831637" flag="0"/>
      <psa03 value="0.4248464005" flag="0"/>
      <psa10 value="0.0392102624" flag="0"/>
      <psa30 value="0.0171593111" flag="0"/>
    </comp>
  </station>
  <station code="AOS2" name="AOS2" netid="HT" insttype="100" lat="39.1478" lon="23.8436">
    <comp name="--.HHE">
      <acc value="0.3165552408" flag="0"/>
      <vel value="0.2142110229" flag="0"/>
      <psa03 value="1.0829341434" flag="0"/>
      <psa10 value="0.3260601385" flag="0"/>
      <psa30 value="0.0314234348" flag="0"/>
    </comp>
    <comp name="--.HHN">
      <acc value="0.2927067318" flag="0"/>
      <vel value="0.1924394983" flag="0"/>
      <psa03 value="1.2905440506" flag="0"/>
      <psa10 value="0.3201835307" flag="0"/>
      <psa30 value="0.0254653208" flag="0"/>
    </comp>
    <comp name="--.HHZ">
      <acc value="0.2111894886" flag="0"/>
      <vel value="0.1793306371" flag="0"/>
      <psa03 value="0.6129888285" flag="0"/>
      <psa10 value="0.2023247687" flag="0"/>
      <psa30 value="0.0212968148" flag="0"/>
    </comp>
  </station>
  <station code="KAVA" name="KAVA" netid="HT" insttype="Compact," lat="40.9967" lon="24.5137">
    <comp name="--.HHZ">
      <acc value="0.3501505267" flag="0"/>
      <vel value="0.1955845485" flag="0"/>
      <psa03 value="0.7670514791" flag="0"/>
      <psa10 value="0.1470573587" flag="0"/>
      <psa30 value="0.0389117355" flag="0"/>
    </comp>
    <comp name="--.HHN">
      <acc value="0.3192866727" flag="0"/>
      <vel value="0.1657380719" flag="0"/>
      <psa03 value="0.9358432741" flag="0"/>
      <psa10 value="0.1200390119" flag="0"/>
      <psa30 value="0.0436807382" flag="0"/>
    </comp>
    <comp name="--.HHE">
      <acc value="0.7624614605" flag="0"/>
      <vel value="0.2340151341" flag="0"/>
      <psa03 value="0.9466812402" flag="0"/>
      <psa10 value="0.1196716234" flag="0"/>
      <psa30 value="0.0499000557" flag="0"/>
    </comp>
  </station>
  <station code="LIT" name="LIT" netid="HT" insttype="100" lat="40.1033" lon="22.4892">
    <comp name="--.HHN">
      <acc value="0.0383225255" flag="0"/>
      <vel value="0.0288207225" flag="0"/>
      <psa03 value="0.0903355304" flag="0"/>
      <psa10 value="0.0324684516" flag="0"/>
      <psa30 value="0.0164440698" flag="0"/>
    </comp>
    <comp name="--.HHZ">
      <acc value="0.0246648744" flag="0"/>
      <vel value="0.0195266774" flag="0"/>
      <psa03 value="0.0533877038" flag="0"/>
      <psa10 value="0.0213691168" flag="0"/>
      <psa30 value="0.0088575442" flag="0"/>
    </comp>
    <comp name="--.HHE">
      <acc value="0.0379911787" flag="0"/>
      <vel value="0.0239290683" flag="0"/>
      <psa03 value="0.1198421628" flag="0"/>
      <psa10 value="0.0318426574" flag="0"/>
      <psa30 value="0.0079158700" flag="0"/>
    </comp>
  </station>
  <station code="NESN" name="NESN" netid="HT" insttype="1s-100Hz," lat="39.7267" lon="22.5399">
    <comp name="--.HHZ">
      <acc value="0.0845288930" flag="0"/>
      <vel value="0.0719034819" flag="0"/>
      <psa03 value="0.1401238855" flag="0"/>
      <psa10 value="0.0748503458" flag="0"/>
      <psa30 value="0.0108661367" flag="0"/>
    </comp>
    <comp name="--.HHN">
      <acc value="0.1644581985" flag="0"/>
      <vel value="0.1724821152" flag="0"/>
      <psa03 value="0.3532335108" flag="0"/>
      <psa10 value="0.4267015504" flag="0"/>
      <psa30 value="0.0302178557" flag="0"/>
    </comp>
    <comp name="--.HHE">
      <acc value="0.1534339845" flag="0"/>
      <vel value="0.1749823645" flag="0"/>
      <psa03 value="0.3192151646" flag="0"/>
      <psa10 value="0.4602706862" flag="0"/>
      <psa30 value="0.0281830608" flag="0"/>
    </comp>
  </station>
  <station code="OUR" name="OUR" netid="HT" insttype="100" lat="40.3325" lon="23.9791">
    <comp name="--.HHZ">
      <acc value="0.6815369976" flag="0"/>
      <vel value="0.2477649226" flag="0"/>
      <psa03 value="0.9988630275" flag="0"/>
      <psa10 value="0.1995923856" flag="0"/>
      <psa30 value="0.0574227600" flag="0"/>
    </comp>
    <comp name="--.HHE">
      <acc value="1.1456396109" flag="0"/>
      <vel value="0.4370160232" flag="0"/>
      <psa03 value="2.7118042666" flag="0"/>
      <psa10 value="0.2572120859" flag="0"/>
      <psa30 value="0.0906960860" flag="0"/>
    </comp>
    <comp name="--.HHN">
      <acc value="0.8049858784" flag="0"/>
      <vel value="0.5471471365" flag="0"/>
      <psa03 value="1.7422960858" flag="0"/>
      <psa10 value="0.3106656054" flag="0"/>
      <psa30 value="0.0646521704" flag="0"/>
    </comp>
  </station>
  <station code="PAIG" name="PAIG" netid="HT" insttype="100" lat="39.9363" lon="23.6768">
    <comp name="--.HHE">
      <acc value="0.7263169387" flag="0"/>
      <vel value="0.3724442519" flag="0"/>
      <psa03 value="0.8487426756" flag="0"/>
      <psa10 value="0.4089231367" flag="0"/>
      <psa30 value="0.0406246448" flag="0"/>
    </comp>
    <comp name="--.HHN">
      <acc value="0.4826286498" flag="0"/>
      <vel value="0.2839293039" flag="0"/>
      <psa03 value="1.3572428808" flag="0"/>
      <psa10 value="0.2729691456" flag="0"/>
      <psa30 value="0.0380629861" flag="0"/>
    </comp>
    <comp name="--.HHZ">
      <acc value="0.3047194248" flag="0"/>
      <vel value="0.1471473045" flag="0"/>
      <psa03 value="0.4253366875" flag="0"/>
      <psa10 value="0.1835708831" flag="0"/>
      <psa30 value="0.0115112549" flag="0"/>
    </comp>
  </station>
  <station code="SIGR" name="SIGR" netid="HT" insttype="100" lat="39.2114" lon="25.8553">
    <comp name="--.HHE">
      <acc value="0.0628385316" flag="0"/>
      <vel value="0.0617611581" flag="0"/>
      <psa03 value="0.1058125508" flag="0"/>
      <psa10 value="0.0836237785" flag="0"/>
      <psa30 value="0.0086700133" flag="0"/>
    </comp>
    <comp name="--.HHZ">
      <acc value="0.0353504320" flag="0"/>
      <vel value="0.0338499047" flag="0"/>
      <psa03 value="0.1328297284" flag="0"/>
      <psa10 value="0.0541569605" flag="0"/>
      <psa30 value="0.0107305026" flag="0"/>
    </comp>
    <comp name="--.HHN">
      <acc value="0.0674172075" flag="0"/>
      <vel value="0.0581711501" flag="0"/>
      <psa03 value="0.1814828086" flag="0"/>
      <psa10 value="0.1016910882" flag="0"/>
      <psa30 value="0.0173605535" flag="0"/>
    </comp>
  </station>
  <station code="SOH" name="SOH" netid="HT" insttype="120P," lat="40.8217" lon="23.3539">
    <comp name="--.HHE">
      <acc value="0.1858343276" flag="0"/>
      <vel value="0.1565622396" flag="0"/>
      <psa03 value="0.8919672815" flag="0"/>
      <psa10 value="0.1127053459" flag="0"/>
      <psa30 value="0.0461996863" flag="0"/>
    </comp>
    <comp name="--.HHN">
      <acc value="0.2031250989" flag="0"/>
      <vel value="0.2669216215" flag="0"/>
      <psa03 value="0.5484620861" flag="0"/>
      <psa10 value="0.2159559125" flag="0"/>
      <psa30 value="0.0777014508" flag="0"/>
    </comp>
    <comp name="--.HHZ">
      <acc value="0.1464255250" flag="0"/>
      <vel value="0.1112409514" flag="0"/>
      <psa03 value="0.3620297563" flag="0"/>
      <psa10 value="0.1085160351" flag="0"/>
      <psa30 value="0.0222081973" flag="0"/>
    </comp>
  </station>
  <station code="SRS" name="SRS" netid="HT" insttype="100" lat="41.1087" lon="23.595">
    <comp name="--.HHN">
      <acc value="0.0989727632" flag="0"/>
      <vel value="0.0547731868" flag="0"/>
      <psa03 value="0.2238101097" flag="0"/>
      <psa10 value="0.0739246794" flag="0"/>
      <psa30 value="0.0231915073" flag="0"/>
    </comp>
    <comp name="--.HHZ">
      <acc value="0.0524851231" flag="0"/>
      <vel value="0.0469445134" flag="0"/>
      <psa03 value="0.1381974346" flag="0"/>
      <psa10 value="0.0480320797" flag="0"/>
      <psa30 value="0.0214166398" flag="0"/>
    </comp>
    <comp name="--.HHE">
      <acc value="0.0889029330" flag="0"/>
      <vel value="0.0620926821" flag="0"/>
      <psa03 value="0.2063684580" flag="0"/>
      <psa10 value="0.0496378373" flag="0"/>
      <psa30 value="0.0442283738" flag="0"/>
    </comp>
  </station>
  <station code="THAS" name="THAS" netid="HT" insttype="100" lat="40.6064" lon="24.7194">
    <comp name="--.HHE">
      <acc value="0.9394214782" flag="0"/>
      <vel value="0.6223955256" flag="0"/>
      <psa03 value="1.8323786211" flag="0"/>
      <psa10 value="0.5084641717" flag="0"/>
      <psa30 value="0.0757151932" flag="0"/>
    </comp>
    <comp name="--.HHN">
      <acc value="1.0958714585" flag="0"/>
      <vel value="0.4831039115" flag="0"/>
      <psa03 value="2.2702160463" flag="0"/>
      <psa10 value="0.3757151882" flag="0"/>
      <psa30 value="0.0271143091" flag="0"/>
    </comp>
    <comp name="--.HHZ">
      <acc value="0.6922696475" flag="0"/>
      <vel value="0.4601623803" flag="0"/>
      <psa03 value="1.4382391397" flag="0"/>
      <psa10 value="0.3834625558" flag="0"/>
      <psa30 value="0.0279929447" flag="0"/>
    </comp>
  </station>
  <station code="THE" name="THE" netid="HT" insttype="30s-100Hz," lat="40.6319" lon="22.9628">
    <comp name="--.HHN">
      <acc value="0.0607995747" flag="0"/>
      <vel value="0.0534577130" flag="0"/>
      <psa03 value="0.1006093340" flag="0"/>
      <psa10 value="0.1536989171" flag="0"/>
      <psa30 value="0.0179858016" flag="0"/>
    </comp>
    <comp name="--.HHE">
      <acc value="0.0440538239" flag="0"/>
      <vel value="0.0527701796" flag="0"/>
      <psa03 value="0.1085043200" flag="0"/>
      <psa10 value="0.0866882343" flag="0"/>
      <psa30 value="0.0205635422" flag="0"/>
    </comp>
    <comp name="--.HHZ">
      <acc value="0.0497304913" flag="0"/>
      <vel value="0.0437225653" flag="0"/>
      <psa03 value="0.0615698300" flag="0"/>
      <psa10 value="0.0934998925" flag="0"/>
      <psa30 value="0.0165980037" flag="0"/>
    </comp>
  </station>
  <station code="XOR" name="XOR" netid="HT" insttype="Compact," lat="39.366" lon="23.1918">
    <comp name="--.HHZ">
      <acc value="0.2963698745" flag="0"/>
      <vel value="0.3264598604" flag="0"/>
      <psa03 value="0.8054348052" flag="0"/>
      <psa10 value="0.2320981296" flag="0"/>
      <psa30 value="0.0963286602" flag="0"/>
    </comp>
    <comp name="--.HHE">
      <acc value="0.4052186505" flag="0"/>
      <vel value="0.3381224528" flag="0"/>
