<stationlist created="1775820697">
	<station code="E02" name="E02" netid="EG" source="EUROSEISTEST Strong Motion Network" insttype="" lat="40.674206" lon="23.315498">
		<comp name="--.EN1" depth="0.0">
			<acc value="0.61531105900774" flag="0"/>
			<vel value="0.997751253230048" flag="0"/>
			<psa03 value="1.80212254844177" flag="0"/>
			<psa10 value="1.69256248395618" flag="0"/>
			<psa30 value="0.123764358781481" flag="0"/>
		</comp>
		<comp name="--.EN2" depth="0.0">
			<acc value="0.56187125774609" flag="0"/>
			<vel value="0.644242567910311" flag="0"/>
			<psa03 value="1.44806792739492" flag="0"/>
			<psa10 value="1.19195688129169" flag="0"/>
			<psa30 value="0.12736695743563" flag="0"/>
		</comp>
		<comp name="--.EN3" depth="0.0">
			<acc value="0.288880366700165" flag="0"/>
			<vel value="0.437772640511643" flag="0"/>
			<psa03 value="0.671366891428771" flag="0"/>
			<psa10 value="0.44659161450258" flag="0"/>
			<psa30 value="0.123805841529533" flag="0"/>
		</comp>
	</station>
	<station code="E03" name="E03" netid="EG" source="EUROSEISTEST Strong Motion Network" insttype="" lat="40.676239" lon="23.324046">
		<comp name="--.EN1" depth="0.0">
			<acc value="0.52147287757957" flag="0"/>
			<vel value="0.874630794840798" flag="0"/>
			<psa03 value="0.789276785715688" flag="0"/>
			<psa10 value="0.942714230189308" flag="0"/>
			<psa30 value="0.127080018427536" flag="0"/>
		</comp>
		<comp name="--.EN2" depth="0.0">
			<acc value="0.33623083487355" flag="0"/>
			<vel value="0.510853103001879" flag="0"/>
			<psa03 value="0.706891078065059" flag="0"/>
			<psa10 value="0.768489148636119" flag="0"/>
			<psa30 value="0.0830062387558117" flag="0"/>
		</comp>
		<comp name="--.EN3" depth="0.0">
			<acc value="0.195426723101226" flag="0"/>
			<vel value="0.271046221355383" flag="0"/>
			<psa03 value="0.408568357315118" flag="0"/>
			<psa10 value="0.432446787477078" flag="0"/>
			<psa30 value="0.0783888128743217" flag="0"/>
		</comp>
	</station>
	<station code="MMAA" name="MMAA" netid="EG" source="EUROSEISTEST Strong Motion Network" insttype="" lat="40.630855" lon="22.943725">
		<comp name="--.EN1" depth="0.0">
			<acc value="0.398557636843499" flag="0"/>
			<vel value="0.413801224718476" flag="0"/>
			<psa03 value="1.22219163086486" flag="0"/>
			<psa10 value="1.02957628437402" flag="0"/>
			<psa30 value="0.0515904076111725" flag="0"/>
		</comp>
		<comp name="--.EN2" depth="0.0">
			<acc value="0.384633989014062" flag="0"/>
			<vel value="0.282056729014883" flag="0"/>
			<psa03 value="1.17871950104686" flag="0"/>
			<psa10 value="0.444170514116604" flag="0"/>
			<psa30 value="0.0335492224713372" flag="0"/>
		</comp>
		<comp name="--.EN3" depth="0.0">
			<acc value="0.290345562937173" flag="0"/>
			<vel value="0.158588313448946" flag="0"/>
			<psa03 value="0.758617671363133" flag="0"/>
			<psa10 value="0.233702491642965" flag="0"/>
			<psa30 value="0.0271982767523449" flag="0"/>
		</comp>
	</station>
	<station code="PRR" name="PRR" netid="EG" source="EUROSEISTEST Strong Motion Network" insttype="" lat="40.682635" lon="23.300668">
		<comp name="--.EN1" depth="0.0">
			<acc value="0.127023787044813" flag="0"/>
			<vel value="0.180337876515228" flag="0"/>
			<psa03 value="0.423379546817326" flag="0"/>
			<psa10 value="0.206544752576334" flag="0"/>
			<psa30 value="0.0665042255784343" flag="0"/>
		</comp>
		<comp name="--.EN2" depth="0.0">
			<acc value="0.237024634282974" flag="0"/>
			<vel value="0.25972331803282" flag="0"/>
			<psa03 value="0.492830647611332" flag="0"/>
			<psa10 value="0.322410478111685" flag="0"/>
			<psa30 value="0.0906428113079114" flag="0"/>
		</comp>
		<comp name="--.EN3" depth="0.0">
			<acc value="0.09821563149159" flag="0"/>
			<vel value="0.121369951916813" flag="0"/>
			<psa03 value="0.173214224592219" flag="0"/>
			<psa10 value="0.273994410785052" flag="0"/>
			<psa30 value="0.0771404435090516" flag="0"/>
		</comp>
	</station>
	<station code="SHTA" name="SHTA" netid="EG" source="EUROSEISTEST Strong Motion Network" insttype="" lat="40.613764" lon="22.952972">
		<comp name="--.EN1" depth="0.0">
			<acc value="0.248975544239243" flag="0"/>
			<vel value="0.361618749162429" flag="0"/>
			<psa03 value="0.563906689383944" flag="0"/>
			<psa10 value="0.747842020861845" flag="0"/>
			<psa30 value="0.0789009868032984" flag="0"/>
		</comp>
		<comp name="--.EN2" depth="0.0">
			<acc value="0.409729901878223" flag="0"/>
			<vel value="0.317496260105278" flag="0"/>
			<psa03 value="0.624633962267897" flag="0"/>
			<psa10 value="0.703112957783092" flag="0"/>
			<psa30 value="0.0808646302183976" flag="0"/>
		</comp>
		<comp name="--.EN3" depth="0.0">
			<acc value="0.212012132507527" flag="0"/>
			<vel value="0.226330297929166" flag="0"/>
			<psa03 value="0.351430238862059" flag="0"/>
			<psa10 value="0.505042836608964" flag="0"/>
			<psa30 value="0.0493683070749335" flag="0"/>
		</comp>
	</station>
	<station code="STC" name="STC" netid="EG" source="EUROSEISTEST Strong Motion Network" insttype="" lat="40.64865" lon="23.304856">
		<comp name="--.EN1" depth="0.0">
			<acc value="0.63985044114437" flag="0"/>
			<vel value="0.582827377949266" flag="0"/>
			<psa03 value="1.4961576130996" flag="0"/>
			<psa10 value="0.902404219849976" flag="0"/>
			<psa30 value="0.13774796512664" flag="0"/>
		</comp>
		<comp name="--.EN2" depth="0.0">
			<acc value="0.808821407686869" flag="0"/>
			<vel value="0.825131126547124" flag="0"/>
			<psa03 value="1.34454215265347" flag="0"/>
			<psa10 value="1.09104255621633" flag="0"/>
			<psa30 value="0.167071200980521" flag="0"/>
		</comp>
		<comp name="--.EN3" depth="0.0">
			<acc value="0.340921531354385" flag="0"/>
			<vel value="0.422467505265263" flag="0"/>
			<psa03 value="0.762184490983359" flag="0"/>
			<psa10 value="0.710604874085053" flag="0"/>
			<psa30 value="0.12878965168252" flag="0"/>
		</comp>
	</station>
	<station code="TST" name="TST" netid="EG" source="EUROSEISTEST Strong Motion Network" insttype="" lat="40.6638" lon="23.2906">
		<comp name="00.EN1" depth="0.0">
			<acc value="0.415023657668044" flag="0"/>
			<vel value="0.493868127042446" flag="0"/>
			<psa03 value="0.898458185111726" flag="0"/>
			<psa10 value="0.984853641719593" flag="0"/>
			<psa30 value="0.0761158356340015" flag="0"/>
		</comp>
		<comp name="00.EN2" depth="0.0">
			<acc value="0.232466574189414" flag="0"/>
			<vel value="0.32324503955865" flag="0"/>
			<psa03 value="0.64867205467561" flag="0"/>
			<psa10 value="0.502235010603888" flag="0"/>
			<psa30 value="0.0811993123891044" flag="0"/>
		</comp>
		<comp name="00.EN3" depth="0.0">
			<acc value="0.556764890178048" flag="0"/>
			<vel value="0.722218986062497" flag="0"/>
			<psa03 value="0.928950371736515" flag="0"/>
			<psa10 value="0.924160161074876" flag="0"/>
			<psa30 value="0.135713683698718" flag="0"/>
		</comp>
	</station>
	<station code="W01" name="W01" netid="EG" source="EUROSEISTEST Strong Motion Network" insttype="" lat="40.664956" lon="23.273878">
		<comp name="--.EN1" depth="0.0">
			<acc value="0.16998417932335" flag="0"/>
			<vel value="0.216856987684255" flag="0"/>
			<psa03 value="0.395332188817198" flag="0"/>
			<psa10 value="0.334116353568478" flag="0"/>
			<psa30 value="0.0731703605107984" flag="0"/>
		</comp>
		<comp name="--.EN2" depth="0.0">
			<acc value="0.415558762650613" flag="0"/>
			<vel value="0.425567568619815" flag="0"/>
			<psa03 value="0.875069635733359" flag="0"/>
			<psa10 value="0.930225422870172" flag="0"/>
			<psa30 value="0.103507450193996" flag="0"/>
		</comp>
		<comp name="--.EN3" depth="0.0">
			<acc value="1.11139641775716" flag="0"/>
			<vel value="0.824583353377861" flag="0"/>
			<psa03 value="1.7515990348385" flag="0"/>
			<psa10 value="0.958071707550378" flag="0"/>
			<psa30 value="0.189809160591881" flag="0"/>
		</comp>
	</station>
	<station code="AIGS" name="AIGS" netid="HA" source="Hellenic Seismological Network, University of Athens, Seismological Laboratory (HA)" insttype="" lat="38.25001" lon="22.0878">
		<comp name="--.HNE" depth="0.0">
			<acc value="0.00993222104198443" flag="0"/>
			<vel value="0.0256211377182491" flag="0"/>
			<psa03 value="0.0284244350626375" flag="0"/>
			<psa10 value="0.0148316597121621" flag="0"/>
			<psa30 value="0.016642855840837" flag="0"/>
		</comp>
		<comp name="--.HNN" depth="0.0">
			<acc value="0.00828913847045532" flag="0"/>
			<vel value="0.0249739924236238" flag="0"/>
			<psa03 value="0.0255383037664353" flag="0"/>
			<psa10 value="0.0195893401976594" flag="0"/>
			<psa30 value="0.0129067975120123" flag="0"/>
		</comp>
		<comp name="--.HNZ" depth="0.0">
			<acc value="0.00796755769175511" flag="0"/>
			<vel value="0.0225132403866407" flag="0"/>
			<psa03 value="0.0161422672626475" flag="0"/>
			<psa10 value="0.0152073220979546" flag="0"/>
			<psa30 value="0.0091041956082599" flag="0"/>
		</comp>
	</station>
	<station code="DRES" name="DRES" netid="HA" source="Hellenic Seismological Network, University of Athens, Seismological Laboratory (HA)" insttype="" lat="38.319719" lon="21.853176">
		<comp name="--.HNE" depth="0.0">
			<acc value="0.00880595546100186" flag="0"/>
			<vel value="0.0213159254503486" flag="0"/>
			<psa03 value="0.020994022261374" flag="0"/>
			<psa10 value="0.0200433658996053" flag="0"/>
			<psa30 value="0.0089671690309582" flag="0"/>
		</comp>
		<comp name="--.HNN" depth="0.0">
			<acc value="0.00788152769569488" flag="0"/>
			<vel value="0.01479500566884" flag="0"/>
			<psa03 value="0.0149415431893205" flag="0"/>
			<psa10 value="0.015616601710728" flag="0"/>
			<psa30 value="0.011108693396425" flag="0"/>
		</comp>
		<comp name="--.HNZ" depth="0.0">
			<acc value="0.00519351799821778" flag="0"/>
			<vel value="0.00970226527027065" flag="0"/>
			<psa03 value="0.01262582468017" flag="0"/>
			<psa10 value="0.011461918983376" flag="0"/>
			<psa30 value="0.00436541335387747" flag="0"/>
		</comp>
	</station>
	<station code="KIAS" name="KIAS" netid="HA" source="Hellenic Seismological Network, University of Athens, Seismological Laboratory (HA)" insttype="" lat="37.9875" lon="22.7543">
		<comp name="--.HNE" depth="0.0">
			<acc value="0.0349241006607696" flag="0"/>
			<vel value="0.0621559889912159" flag="0"/>
			<psa03 value="0.0672988853039946" flag="0"/>
			<psa10 value="0.105382753590051" flag="0"/>
			<psa30 value="0.0302204886257145" flag="0"/>
		</comp>
		<comp name="--.HNN" depth="0.0">
			<acc value="0.0302386774014554" flag="0"/>
			<vel value="0.0691176892110935" flag="0"/>
			<psa03 value="0.0804255309216531" flag="0"/>
			<psa10 value="0.0741217552024831" flag="0"/>
			<psa30 value="0.0278775017476917" flag="0"/>
		</comp>
		<comp name="--.HNZ" depth="0.0">
			<acc value="0.0194626678775166" flag="0"/>
			<vel value="0.0416592881628583" flag="0"/>
			<psa03 value="0.0475973301728205" flag="0"/>
			<psa10 value="0.0466696216332881" flag="0"/>
			<psa30 value="0.0218265108992369" flag="0"/>
		</comp>
	</station>
	<station code="LTRS" name="LTRS" netid="HA" source="Hellenic Seismological Network, University of Athens, Seismological Laboratory (HA)" insttype="" lat="37.97528" lon="22.9765">
		<comp name="--.HNE" depth="0.0">
			<acc value="0.0557155670612057" flag="0"/>
			<vel value="0.0684383242246381" flag="0"/>
			<psa03 value="0.178609394495763" flag="0"/>
			<psa10 value="0.161837650950017" flag="0"/>
			<psa30 value="0.0198743865805758" flag="0"/>
		</comp>
		<comp name="--.HNN" depth="0.0">
			<acc value="0.0511475004765059" flag="0"/>
			<vel value="0.0544289066992602" flag="0"/>
			<psa03 value="0.196256230178717" flag="0"/>
			<psa10 value="0.0876463361396071" flag="0"/>
			<psa30 value="0.0209073250076578" flag="0"/>
		</comp>
		<comp name="--.HNZ" depth="0.0">
			<acc value="0.0368742501203467" flag="0"/>
			<vel value="0.0458162366436691" flag="0"/>
			<psa03 value="0.0916731249780501" flag="0"/>
			<psa10 value="0.074236197783795" flag="0"/>
			<psa30 value="0.0135146644468408" flag="0"/>
		</comp>
	</station>
	<station code="ATH5" name="ATH5" netid="HI" source="ITSAK Strong Motion Network" insttype="" lat="37.975421" lon="23.737098">
		<comp name="--.HNE" depth="0.0">
			<acc value="0.0513523897170771" flag="0"/>
			<vel value="0.065691898858559" flag="0"/>
			<psa03 value="0.103935614391194" flag="0"/>
			<psa10 value="0.0805438381338801" flag="0"/>
			<psa30 value="0.0179715738619085" flag="0"/>
		</comp>
		<comp name="--.HNN" depth="0.0">
			<acc value="0.0305296114954841" flag="0"/>
			<vel value="0.0418483335143856" flag="0"/>
			<psa03 value="0.121567251150585" flag="0"/>
			<psa10 value="0.0606715116899533" flag="0"/>
			<psa30 value="0.0145778323765246" flag="0"/>
		</comp>
		<comp name="--.HNZ" depth="0.0">
			<acc value="0.0206391250170473" flag="0"/>
			<vel value="0.0283165659017095" flag="0"/>
			<psa03 value="0.0565937490581382" flag="0"/>
			<psa10 value="0.0355160865164454" flag="0"/>
			<psa30 value="0.00546092675960933" flag="0"/>
		</comp>
	</station>
	<station code="DRA2" name="DRA2" netid="HI" source="ITSAK Strong Motion Network" insttype="" lat="41.1593" lon="24.1485">
		<comp name="--.HNE" depth="0.0">
			<acc value="0.184185356902616" flag="0"/>
			<vel value="0.114747994860203" flag="0"/>
			<psa03 value="0.620691201079771" flag="0"/>
			<psa10 value="0.114073811830354" flag="0"/>
			<psa30 value="0.0177390501250129" flag="0"/>
		</comp>
		<comp name="--.HNN" depth="0.0">
			<acc value="0.161893642151543" flag="0"/>
			<vel value="0.101071646343388" flag="0"/>
			<psa03 value="0.517557994011772" flag="0"/>
			<psa10 value="0.164524313928398" flag="0"/>
			<psa30 value="0.0221550276618351" flag="0"/>
		</comp>
		<comp name="--.HNZ" depth="0.0">
			<acc value="0.123935201750919" flag="0"/>
			<vel value="0.068703269659174" flag="0"/>
			<psa03 value="0.156236131126851" flag="0"/>
			<psa10 value="0.0662379004360114" flag="0"/>
			<psa30 value="0.0183631898045495" flag="0"/>
		</comp>
	</station>
	<station code="LMS2" name="LMS2" netid="HI" source="ITSAK Strong Motion Network" insttype="" lat="40.834985" lon="21.141815">
		<comp name="--.HNE" depth="0.0">
			<acc value="0.00502811532003598" flag="0"/>
			<vel value="0.00898274317278226" flag="0"/>
			<psa03 value="0.0111316449689261" flag="0"/>
			<psa10 value="0.0121396545050359" flag="0"/>
			<psa30 value="0.00603241628464159" flag="0"/>
		</comp>
		<comp name="--.HNN" depth="0.0">
			<acc value="0.00644152558150472" flag="0"/>
			<vel value="0.0163230573584272" flag="0"/>
			<psa03 value="0.00927401279533571" flag="0"/>
			<psa10 value="0.0171692261269531" flag="0"/>
			<psa30 value="0.00883885969772579" flag="0"/>
		</comp>
		<comp name="--.HNZ" depth="0.0">
			<acc value="0.00390405138641619" flag="0"/>
			<vel value="0.00975578453296898" flag="0"/>
			<psa03 value="0.00590019424432186" flag="0"/>
			<psa10 value="0.0130815256493683" flag="0"/>
			<psa30 value="0.00450271994978713" flag="0"/>
		</comp>
	</station>
	<station code="MSL1" name="MSL1" netid="HI" source="ITSAK Strong Motion Network" insttype="" lat="38.3727" lon="21.4243">
		<comp name="--.HNE" depth="0.0">
			<acc value="0.0250376828160852" flag="0"/>
			<vel value="0.0396830171613963" flag="0"/>
			<psa03 value="0.0361383809695473" flag="0"/>
			<psa10 value="0.0615334087864525" flag="0"/>
			<psa30 value="0.0220669451601406" flag="0"/>
		</comp>
		<comp name="--.HNN" depth="0.0">
			<acc value="0.020836722159259" flag="0"/>
			<vel value="0.0440641823540318" flag="0"/>
			<psa03 value="0.0387334799654733" flag="0"/>
			<psa10 value="0.0539702452637971" flag="0"/>
			<psa30 value="0.0135213015531973" flag="0"/>
		</comp>
		<comp name="--.HNZ" depth="0.0">
			<acc value="0.00886955325206905" flag="0"/>
			<vel value="0.0144182986153932" flag="0"/>
			<psa03 value="0.0176050855213365" flag="0"/>
			<psa10 value="0.0324970465198512" flag="0"/>
			<psa30 value="0.0036365754886112" flag="0"/>
		</comp>
	</station>
	<station code="MYT1" name="MYT1" netid="HI" source="ITSAK Strong Motion Network" insttype="" lat="39.085" lon="26.5694">
		<comp name="--.HNE" depth="0.0">
			<acc value="0.0361732264050168" flag="0"/>
			<vel value="0.0476788245433946" flag="0"/>
			<psa03 value="0.0965177584110685" flag="0"/>
			<psa10 value="0.0676646749525499" flag="0"/>
			<psa30 value="0.0100817987030341" flag="0"/>
		</comp>
		<comp name="--.HNN" depth="0.0">
			<acc value="0.0375130804859013" flag="0"/>
			<vel value="0.0675690427679403" flag="0"/>
			<psa03 value="0.0990801781590962" flag="0"/>
			<psa10 value="0.0964139819529827" flag="0"/>
			<psa30 value="0.0222041675837897" flag="0"/>
		</comp>
		<comp name="--.HNZ" depth="0.0">
			<acc value="0.031110340287894" flag="0"/>
			<vel value="0.0520815186600649" flag="0"/>
			<psa03 value="0.060131848023281" flag="0"/>
			<psa10 value="0.107746047646904" flag="0"/>
			<psa30 value="0.0132359293153449" flag="0"/>
		</comp>
	</station>
	<station code="NAX1" name="NAX1" netid="HI" source="ITSAK Strong Motion Network" insttype="" lat="37.101394" lon="25.374103">
		<comp name="--.HNE" depth="0.0">
			<acc value="0.00528090758302032" flag="0"/>
			<vel value="0.0127462450905954" flag="0"/>
			<psa03 value="0.00632324049822116" flag="0"/>
			<psa10 value="0.0165090717700002" flag="0"/>
			<psa30 value="0.00554424894595292" flag="0"/>
		</comp>
		<comp name="--.HNN" depth="0.0">
			<acc value="0.00566436233708438" flag="0"/>
			<vel value="0.0122042171802467" flag="0"/>
			<psa03 value="0.00586582543110548" flag="0"/>
			<psa10 value="0.0116661200107007" flag="0"/>
			<psa30 value="0.00545873661450157" flag="0"/>
		</comp>
		<comp name="--.HNZ" depth="0.0">
			<acc value="0.00409048753251515" flag="0"/>
			<vel value="0.00726128375554856" flag="0"/>
			<psa03 value="0.00529715592359895" flag="0"/>
			<psa10 value="0.0132655934679741" flag="0"/>
			<psa30 value="0.00278451321033354" flag="0"/>
		</comp>
	</station>
	<station code="SFL1" name="SFL1" netid="HI" source="ITSAK Strong Motion Network" insttype="" lat="41.189954" lon="26.304374">
		<comp name="--.HNE" depth="0.0">
			<acc value="0.425141677106456" flag="0"/>
			<vel value="0.310272823764174" flag="0"/>
			<psa03 value="1.04906466205196" flag="0"/>
			<psa10 value="0.20780239088849" flag="0"/>
			<psa30 value="0.024656756722444" flag="0"/>
		</comp>
		<comp name="--.HNN" depth="0.0">
			<acc value="0.46314177089267" flag="0"/>
			<vel value="0.322827090334708" flag="0"/>
			<psa03 value="1.03268466029262" flag="0"/>
			<psa10 value="0.249778966630857" flag="0"/>
			<psa30 value="0.0258033293439505" flag="0"/>
		</comp>
		<comp name="--.HNZ" depth="0.0">
			<acc value="0.0999588130092895" flag="0"/>
			<vel value="0.06447846689858" flag="0"/>
			<psa03 value="0.396715030423615" flag="0"/>
			<psa10 value="0.0486315303500842" flag="0"/>
			<psa30 value="0.0117669328348715" flag="0"/>
		</comp>
	</station>
	<station code="SKO1" name="SKO1" netid="HI" source="ITSAK Strong Motion Network" insttype="" lat="39.123383" lon="23.728705">
		<comp name="--.HNE" depth="0.0">
			<acc value="0.183412400100916" flag="0"/>
			<vel value="0.136240962383918" flag="0"/>
			<psa03 value="0.481559525954174" flag="0"/>
			<psa10 value="0.128046232434375" flag="0"/>
			<psa30 value="0.0308066641236563" flag="0"/>
		</comp>
		<comp name="--.HNN" depth="0.0">
			<acc value="0.158503642580068" flag="0"/>
			<vel value="0.105033003589261" flag="0"/>
			<psa03 value="0.483877887868328" flag="0"/>
			<psa10 value="0.140180131245671" flag="0"/>
			<psa30 value="0.033858696305795" flag="0"/>
		</comp>
		<comp name="--.HNZ" depth="0.0">
			<acc value="0.0991743885794674" flag="0"/>
			<vel value="0.0781794179390651" flag="0"/>
			<psa03 value="0.264735641603852" flag="0"/>
			<psa10 value="0.103717065746429" flag="0"/>
			<psa30 value="0.0243558351212315" flag="0"/>
		</comp>
	</station>
	<station code="SKY1" name="SKY1" netid="HI" source="ITSAK Strong Motion Network" insttype="" lat="38.904483" lon="24.564572">
		<comp name="--.HNE" depth="0.0">
			<acc value="0.362283465057375" flag="0"/>
