<?xml version="1.0" encoding="UTF-8" standalone="yes"?>
<!DOCTYPE earthquake SYSTEM "stationlist.dtd">
<stationlist created="" xmlns="ch.ethz.sed.shakemap.usgs.xml">
  <station code="APE" name="APE" netid="GE" insttype="STS-2/N" lat="37.0727" lon="25.523">
    <comp name="--.HHZ">
      <acc value="0.0551356217" flag="0"/>
      <vel value="0.0082890967" flag="0"/>
      <psa03 value="0.0348426502" flag="0"/>
      <psa10 value="0.0041569153" flag="0"/>
      <psa30 value="0.0007773870" flag="0"/>
    </comp>
    <comp name="--.HHE">
      <acc value="0.1308627723" flag="0"/>
      <vel value="0.0271503597" flag="0"/>
      <psa03 value="0.0838734581" flag="0"/>
      <psa10 value="0.0035360819" flag="0"/>
      <psa30 value="0.0013316012" flag="0"/>
    </comp>
    <comp name="--.HHN">
      <acc value="0.1505768387" flag="0"/>
      <vel value="0.0277896838" flag="0"/>
      <psa03 value="0.0643099589" flag="0"/>
      <psa10 value="0.0034293116" flag="0"/>
      <psa30 value="0.0009877068" flag="0"/>
    </comp>
  </station>
  <station code="THERA" name="THERA" netid="GE" insttype="STS-2/N" lat="36.367" lon="25.4753">
    <comp name="--.HHN">
      <acc value="0.1243156241" flag="0"/>
      <vel value="0.0231130566" flag="0"/>
      <psa03 value="0.0793111331" flag="0"/>
      <psa10 value="0.0067801010" flag="0"/>
      <psa30 value="0.0007412273" flag="0"/>
    </comp>
    <comp name="--.HHE">
      <acc value="0.1282409274" flag="0"/>
      <vel value="0.0275558512" flag="0"/>
      <psa03 value="0.0728661094" flag="0"/>
      <psa10 value="0.0177828355" flag="0"/>
      <psa30 value="0.0016319137" flag="0"/>
    </comp>
    <comp name="--.HHZ">
      <acc value="0.0938762614" flag="0"/>
      <vel value="0.0257841349" flag="0"/>
      <psa03 value="0.0720837624" flag="0"/>
      <psa10 value="0.0168845293" flag="0"/>
      <psa30 value="0.0012824834" flag="0"/>
    </comp>
  </station>
</stationlist>
