<?xml version="1.0" encoding="UTF-8" standalone="yes"?>
<!DOCTYPE earthquake SYSTEM "stationlist.dtd">
<stationlist created="" xmlns="ch.ethz.sed.shakemap.usgs.xml">
  <station code="APE" name="APE" netid="GE" insttype="STS-2/N" lat="37.0727" lon="25.523">
    <comp name="--.HHZ">
      <acc value="0.0551356217" flag="0"/>
      <vel value="0.0082890967" flag="0"/>
      <psa03 value="0.0348426502" flag="0"/>
      <psa10 value="0.0041569153" flag="0"/>
      <psa30 value="0.0007773870" flag="0"/>
    </comp>
    <comp name="--.HHE">
      <acc value="0.1308627723" flag="0"/>
      <vel value="0.0271503597" flag="0"/>
      <psa03 value="0.0838734581" flag="0"/>
      <psa10 value="0.0035360819" flag="0"/>
      <psa30 value="0.0013316012" flag="0"/>
    </comp>
    <comp name="--.HHN">
      <acc value="0.1505768387" flag="0"/>
      <vel value="0.0277896838" flag="0"/>
      <psa03 value="0.0643099589" flag="0"/>
      <psa10 value="0.0034293116" flag="0"/>
      <psa30 value="0.0009877068" flag="0"/>
    </comp>
  </station>
  <station code="THERA" name="THERA" netid="GE" insttype="STS-2/N" lat="36.367" lon="25.4753">
    <comp name="--.HHN">
      <acc value="0.1243156241" flag="0"/>
      <vel value="0.0231130566" flag="0"/>
      <psa03 value="0.0793111331" flag="0"/>
      <psa10 value="0.0067801010" flag="0"/>
      <psa30 value="0.0007412273" flag="0"/>
    </comp>
    <comp name="--.HHE">
      <acc value="0.1282409274" flag="0"/>
      <vel value="0.0275558512" flag="0"/>
      <psa03 value="0.0728661094" flag="0"/>
      <psa10 value="0.0177828355" flag="0"/>
      <psa30 value="0.0016319137" flag="0"/>
    </comp>
    <comp name="--.HHZ">
      <acc value="0.0938762614" flag="0"/>
      <vel value="0.0257841349" flag="0"/>
      <psa03 value="0.0720837624" flag="0"/>
      <psa10 value="0.0168845293" flag="0"/>
      <psa30 value="0.0012824834" flag="0"/>
    </comp>
  </station>
  <station code="SNT1" name="SNT1" netid="HA" insttype="30" lat="36.4159" lon="25.4282">
    <comp name="--.HHN">
      <acc value="0.1611195889" flag="0"/>
      <vel value="0.0754456927" flag="0"/>
      <psa03 value="0.1933793793" flag="0"/>
      <psa10 value="0.0557867911" flag="0"/>
      <psa30 value="0.0028073930" flag="0"/>
    </comp>
    <comp name="--.HHE">
      <acc value="0.2177290366" flag="0"/>
      <vel value="0.0604100211" flag="0"/>
      <psa03 value="0.1901229322" flag="0"/>
      <psa10 value="0.0538413305" flag="0"/>
      <psa30 value="0.0033674279" flag="0"/>
    </comp>
    <comp name="--.HHZ">
      <acc value="0.1285026698" flag="0"/>
      <vel value="0.0361537798" flag="0"/>
      <psa03 value="0.1306672468" flag="0"/>
      <psa10 value="0.0132686505" flag="0"/>
      <psa30 value="0.0014442113" flag="0"/>
    </comp>
  </station>
  <station code="NAX1" name="NAX1" netid="HI" insttype="CMG-5TD,ACCELEROMETER,GURALP" lat="37.1014" lon="25.3741">
    <comp name="--.HNE">
      <acc value="0.1046146713" flag="0"/>
      <vel value="0.0158747852" flag="0"/>
      <psa03 value="0.0942144151" flag="0"/>
      <psa10 value="0.0055367938" flag="0"/>
      <psa30 value="0.0005806765" flag="0"/>
    </comp>
    <comp name="--.HNZ">
      <acc value="0.0884199815" flag="0"/>
      <vel value="0.0148849286" flag="0"/>
      <psa03 value="0.0531502138" flag="0"/>
      <psa10 value="0.0057793026" flag="0"/>
      <psa30 value="0.0008277896" flag="0"/>
    </comp>
    <comp name="--.HNN">
      <acc value="0.1183042439" flag="0"/>
      <vel value="0.0185215246" flag="0"/>
      <psa03 value="0.0526005950" flag="0"/>
      <psa10 value="0.0038742736" flag="0"/>
      <psa30 value="0.0006002603" flag="0"/>
    </comp>
  </station>
  <station code="APE" name="APE" netid="HL" insttype="120" lat="37.0727" lon="25.523">
    <comp name="--.HHN">
      <acc value="0.1368587420" flag="0"/>
      <vel value="0.0267966395" flag="0"/>
      <psa03 value="0.0608467044" flag="0"/>
      <psa10 value="0.0034029441" flag="0"/>
      <psa30 value="0.0009828224" flag="0"/>
    </comp>
    <comp name="--.HHE">
      <acc value="0.1203112818" flag="0"/>
      <vel value="0.0255275355" flag="0"/>
      <psa03 value="0.0817988265" flag="0"/>
      <psa10 value="0.0035060675" flag="0"/>
      <psa30 value="0.0013253634" flag="0"/>
    </comp>
    <comp name="--.HHZ">
      <acc value="0.0460078851" flag="0"/>
      <vel value="0.0077760256" flag="0"/>
      <psa03 value="0.0338524680" flag="0"/>
      <psa10 value="0.0041130940" flag="0"/>
      <psa30 value="0.0007743667" flag="0"/>
    </comp>
  </station>
  <station code="MHLO" name="MHLO" netid="HL" insttype="20" lat="36.6898" lon="24.4017">
    <comp name="--.HHE">
      <acc value="0.1019498983" flag="0"/>
      <vel value="0.0362996731" flag="0"/>
      <psa03 value="0.1981503674" flag="0"/>
      <psa10 value="0.0471006594" flag="0"/>
      <psa30 value="0.0021309881" flag="0"/>
    </comp>
    <comp name="--.HHZ">
      <acc value="0.0289930096" flag="0"/>
      <vel value="0.0151250108" flag="0"/>
      <psa03 value="0.0755642988" flag="0"/>
      <psa10 value="0.0195244078" flag="0"/>
      <psa30 value="0.0015367751" flag="0"/>
    </comp>
    <comp name="--.HHN">
      <acc value="0.0768632004" flag="0"/>
      <vel value="0.0368133001" flag="0"/>
      <psa03 value="0.1703890839" flag="0"/>
      <psa10 value="0.0486355915" flag="0"/>
      <psa30 value="0.0021685263" flag="0"/>
    </comp>
  </station>
  <station code="SAP3" name="SAP3" netid="HL" insttype="LE3D20_SMART24" lat="36.4356" lon="25.3454">
    <comp name="--.HHE">
      <acc value="0.7483105899" flag="0"/>
      <vel value="0.1830544873" flag="0"/>
      <psa03 value="0.6530045712" flag="0"/>
      <psa10 value="0.1128909859" flag="0"/>
      <psa30 value="0.0077703428" flag="0"/>
    </comp>
    <comp name="--.HHN">
      <acc value="0.7135794831" flag="0"/>
      <vel value="0.1818686083" flag="0"/>
      <psa03 value="0.5257141021" flag="0"/>
      <psa10 value="0.0960347866" flag="0"/>
      <psa30 value="0.0066870303" flag="0"/>
    </comp>
    <comp name="--.HHZ">
      <acc value="0.7308428040" flag="0"/>
      <vel value="0.1508028253" flag="0"/>
      <psa03 value="0.7201226181" flag="0"/>
      <psa10 value="0.0311689391" flag="0"/>
      <psa30 value="0.0040828019" flag="0"/>
    </comp>
  </station>
  <station code="THERA" name="THERA" netid="HL" insttype="120" lat="36.367" lon="25.4753">
    <comp name="--.HHE">
      <acc value="0.1313972231" flag="0"/>
      <vel value="0.0272380184" flag="0"/>
      <psa03 value="0.0711001648" flag="0"/>
      <psa10 value="0.0175995453" flag="0"/>
      <psa30 value="0.0016310360" flag="0"/>
    </comp>
    <comp name="--.HHN">
      <acc value="0.1286206952" flag="0"/>
      <vel value="0.0223921441" flag="0"/>
      <psa03 value="0.0768727022" flag="0"/>
      <psa10 value="0.0067406157" flag="0"/>
      <psa30 value="0.0007338101" flag="0"/>
    </comp>
    <comp name="--.HHZ">
      <acc value="0.0970701601" flag="0"/>
      <vel value="0.0252259146" flag="0"/>
      <psa03 value="0.0703417693" flag="0"/>
      <psa10 value="0.0168219654" flag="0"/>
      <psa30 value="0.0012757802" flag="0"/>
    </comp>
  </station>
  <station code="THRA" name="THRA" netid="HL" insttype="CMG-5" lat="36.415" lon="25.4324">
    <comp name="00.HNE">
      <acc value="0.4527923408" flag="0"/>
      <vel value="0.1245409281" flag="0"/>
      <psa03 value="0.6671017296" flag="0"/>
      <psa10 value="0.1071290208" flag="0"/>
      <psa30 value="0.0078276591" flag="0"/>
    </comp>
    <comp name="00.HNN">
      <acc value="0.4391734784" flag="0"/>
      <vel value="0.1686589908" flag="0"/>
      <psa03 value="0.7002080555" flag="0"/>
      <psa10 value="0.2152387221" flag="0"/>
      <psa30 value="0.0081084293" flag="0"/>
    </comp>
    <comp name="00.HNZ">
      <acc value="0.3395614906" flag="0"/>
      <vel value="0.1115891486" flag="0"/>
      <psa03 value="0.3504243891" flag="0"/>
      <psa10 value="0.0466323192" flag="0"/>
      <psa30 value="0.0038046521" flag="0"/>
    </comp>
  </station>
  <station code="TNSA" name="TNSA" netid="HL" insttype="CMG-5" lat="37.5394" lon="25.1631">
    <comp name="00.HNE">
      <acc value="0.0319820562" flag="0"/>
      <vel value="0.0059866156" flag="0"/>
      <psa03 value="0.0199135464" flag="0"/>
      <psa10 value="0.0018883033" flag="0"/>
      <psa30 value="0.0003148556" flag="0"/>
    </comp>
    <comp name="00.HNN">
      <acc value="0.0383495132" flag="0"/>
      <vel value="0.0109517670" flag="0"/>
      <psa03 value="0.0608873969" flag="0"/>
      <psa10 value="0.0054265214" flag="0"/>
      <psa30 value="0.0006477761" flag="0"/>
    </comp>
    <comp name="00.HNZ">
      <acc value="0.0215627616" flag="0"/>
      <vel value="0.0081462872" flag="0"/>
      <psa03 value="0.0302998433" flag="0"/>
      <psa10 value="0.0050550362" flag="0"/>
      <psa30 value="0.0006349115" flag="0"/>
    </comp>
  </station>
</stationlist>
