<?xml version="1.0" encoding="UTF-8" standalone="yes"?>
<!DOCTYPE earthquake SYSTEM "stationlist.dtd">
<stationlist created="" xmlns="ch.ethz.sed.shakemap.usgs.xml">
  <station code="APE" name="APE" netid="GE" insttype="STS-2/N" lat="37.0727" lon="25.523">
    <comp name="--.HHN">
      <acc value="0.1505768387" flag="0"/>
      <vel value="0.0277896836" flag="0"/>
      <psa03 value="0.0643099589" flag="0"/>
      <psa10 value="0.0034293117" flag="0"/>
      <psa30 value="0.0009878152" flag="0"/>
    </comp>
    <comp name="--.HHZ">
      <acc value="0.0551356219" flag="0"/>
      <vel value="0.0082890966" flag="0"/>
      <psa03 value="0.0348426502" flag="0"/>
      <psa10 value="0.0041569154" flag="0"/>
      <psa30 value="0.0007773665" flag="0"/>
    </comp>
    <comp name="--.HHE">
      <acc value="0.1308627723" flag="0"/>
      <vel value="0.0271503600" flag="0"/>
      <psa03 value="0.0838734581" flag="0"/>
      <psa10 value="0.0035360819" flag="0"/>
      <psa30 value="0.0013316152" flag="0"/>
    </comp>
  </station>
  <station code="THERA" name="THERA" netid="GE" insttype="STS-2/N" lat="36.367" lon="25.4753">
    <comp name="--.HHN">
      <acc value="0.1243156242" flag="0"/>
      <vel value="0.0231130564" flag="0"/>
      <psa03 value="0.0793111331" flag="0"/>
      <psa10 value="0.0067800997" flag="0"/>
      <psa30 value="0.0007412735" flag="0"/>
    </comp>
    <comp name="--.HHZ">
      <acc value="0.0938762612" flag="0"/>
      <vel value="0.0257841352" flag="0"/>
      <psa03 value="0.0720837624" flag="0"/>
      <psa10 value="0.0168845282" flag="0"/>
      <psa30 value="0.0012826285" flag="0"/>
    </comp>
    <comp name="--.HHE">
      <acc value="0.1282409274" flag="0"/>
      <vel value="0.0275558489" flag="0"/>
      <psa03 value="0.0728661094" flag="0"/>
      <psa10 value="0.0177828386" flag="0"/>
      <psa30 value="0.0016318991" flag="0"/>
    </comp>
  </station>
  <station code="SNT1" name="SNT1" netid="HA" insttype="30" lat="36.4159" lon="25.4282">
    <comp name="--.HHE">
      <acc value="0.2177290364" flag="0"/>
      <vel value="0.0604100247" flag="0"/>
      <psa03 value="0.1901229322" flag="0"/>
      <psa10 value="0.0538413364" flag="0"/>
      <psa30 value="0.0033677815" flag="0"/>
    </comp>
    <comp name="--.HHN">
      <acc value="0.1611195892" flag="0"/>
      <vel value="0.0754456937" flag="0"/>
      <psa03 value="0.1933793793" flag="0"/>
      <psa10 value="0.0557867889" flag="0"/>
      <psa30 value="0.0028076232" flag="0"/>
    </comp>
    <comp name="--.HHZ">
      <acc value="0.1285026701" flag="0"/>
      <vel value="0.0361537737" flag="0"/>
      <psa03 value="0.1306672468" flag="0"/>
      <psa10 value="0.0132686503" flag="0"/>
      <psa30 value="0.0014441313" flag="0"/>
    </comp>
  </station>
  <station code="NAX1" name="NAX1" netid="HI" insttype="CMG-5TD,ACCELEROMETER,GURALP" lat="37.1014" lon="25.3741">
    <comp name="--.HNE">
      <acc value="0.1046146714" flag="0"/>
      <vel value="0.0158747836" flag="0"/>
      <psa03 value="0.0942144151" flag="0"/>
      <psa10 value="0.0055367962" flag="0"/>
      <psa30 value="0.0005806400" flag="0"/>
    </comp>
    <comp name="--.HNZ">
      <acc value="0.0884199817" flag="0"/>
      <vel value="0.0148849266" flag="0"/>
      <psa03 value="0.0531502138" flag="0"/>
      <psa10 value="0.0057793009" flag="0"/>
      <psa30 value="0.0008277815" flag="0"/>
    </comp>
  </station>
  <station code="APE" name="APE" netid="HL" insttype="120" lat="37.0727" lon="25.523">
    <comp name="--.HHZ">
      <acc value="0.0460078852" flag="0"/>
      <vel value="0.0077760254" flag="0"/>
      <psa03 value="0.0338524680" flag="0"/>
      <psa10 value="0.0041130940" flag="0"/>
      <psa30 value="0.0007743458" flag="0"/>
    </comp>
    <comp name="--.HHE">
      <acc value="0.1203112818" flag="0"/>
      <vel value="0.0255275358" flag="0"/>
      <psa03 value="0.0817988265" flag="0"/>
      <psa10 value="0.0035060675" flag="0"/>
      <psa30 value="0.0013253778" flag="0"/>
    </comp>
    <comp name="--.HHN">
      <acc value="0.1368587420" flag="0"/>
      <vel value="0.0267966393" flag="0"/>
      <psa03 value="0.0608467044" flag="0"/>
      <psa10 value="0.0034029441" flag="0"/>
      <psa30 value="0.0009829311" flag="0"/>
    </comp>
  </station>
  <station code="MHLO" name="MHLO" netid="HL" insttype="20" lat="36.6898" lon="24.4017">
    <comp name="--.HHN">
      <acc value="0.0768632006" flag="0"/>
      <vel value="0.0368132985" flag="0"/>
      <psa03 value="0.1703890839" flag="0"/>
      <psa10 value="0.0486355921" flag="0"/>
      <psa30 value="0.0021684583" flag="0"/>
    </comp>
    <comp name="--.HHE">
      <acc value="0.1019498981" flag="0"/>
      <vel value="0.0362996926" flag="0"/>
      <psa03 value="0.1981503674" flag="0"/>
      <psa10 value="0.0471006593" flag="0"/>
      <psa30 value="0.0021310113" flag="0"/>
    </comp>
    <comp name="--.HHZ">
      <acc value="0.0289930094" flag="0"/>
      <vel value="0.0151249932" flag="0"/>
      <psa03 value="0.0755642988" flag="0"/>
      <psa10 value="0.0195244078" flag="0"/>
      <psa30 value="0.0015368147" flag="0"/>
    </comp>
  </station>
  <station code="SAP3" name="SAP3" netid="HL" insttype="LE3D20_SMART24" lat="36.4356" lon="25.3454">
    <comp name="--.HHE">
      <acc value="0.7483105898" flag="0"/>
      <vel value="0.1830544552" flag="0"/>
      <psa03 value="0.6530045713" flag="0"/>
      <psa10 value="0.1128909863" flag="0"/>
      <psa30 value="0.0077700858" flag="0"/>
    </comp>
    <comp name="--.HHZ">
      <acc value="0.7308428038" flag="0"/>
      <vel value="0.1508028836" flag="0"/>
      <psa03 value="0.7201226182" flag="0"/>
      <psa10 value="0.0311689380" flag="0"/>
      <psa30 value="0.0040820151" flag="0"/>
    </comp>
    <comp name="--.HHN">
      <acc value="0.7135794832" flag="0"/>
      <vel value="0.1818685790" flag="0"/>
      <psa03 value="0.5257141021" flag="0"/>
      <psa10 value="0.0960347915" flag="0"/>
      <psa30 value="0.0066902481" flag="0"/>
    </comp>
  </station>
  <station code="THERA" name="THERA" netid="HL" insttype="120" lat="36.367" lon="25.4753">
    <comp name="--.HHN">
      <acc value="0.1286206954" flag="0"/>
      <vel value="0.0223921439" flag="0"/>
      <psa03 value="0.0768727022" flag="0"/>
      <psa10 value="0.0067406144" flag="0"/>
      <psa30 value="0.0007338565" flag="0"/>
    </comp>
    <comp name="--.HHE">
      <acc value="0.1313972231" flag="0"/>
      <vel value="0.0272380161" flag="0"/>
      <psa03 value="0.0711001648" flag="0"/>
      <psa10 value="0.0175995484" flag="0"/>
      <psa30 value="0.0016310212" flag="0"/>
    </comp>
    <comp name="--.HHZ">
      <acc value="0.0970701598" flag="0"/>
      <vel value="0.0252259148" flag="0"/>
      <psa03 value="0.0703417693" flag="0"/>
      <psa10 value="0.0168219644" flag="0"/>
      <psa30 value="0.0012759250" flag="0"/>
    </comp>
  </station>
  <station code="THRA" name="THRA" netid="HL" insttype="CMG-5" lat="36.415" lon="25.4324">
    <comp name="00.HNE">
      <acc value="0.4527923402" flag="0"/>
      <vel value="0.1245409264" flag="0"/>
      <psa03 value="0.6671017296" flag="0"/>
      <psa10 value="0.1071290208" flag="0"/>
      <psa30 value="0.0078282608" flag="0"/>
    </comp>
    <comp name="00.HNN">
      <acc value="0.4391734795" flag="0"/>
      <vel value="0.1686589934" flag="0"/>
      <psa03 value="0.7002080555" flag="0"/>
      <psa10 value="0.2152387153" flag="0"/>
      <psa30 value="0.0081080904" flag="0"/>
    </comp>
    <comp name="00.HNZ">
      <acc value="0.3395614896" flag="0"/>
      <vel value="0.1115891485" flag="0"/>
      <psa03 value="0.3504243891" flag="0"/>
      <psa10 value="0.0466323130" flag="0"/>
      <psa30 value="0.0038050309" flag="0"/>
    </comp>
  </station>
  <station code="TNSA" name="TNSA" netid="HL" insttype="CMG-5" lat="37.5394" lon="25.1631">
    <comp name="00.HNE">
      <acc value="0.0319820565" flag="0"/>
      <vel value="0.0059866140" flag="0"/>
      <psa03 value="0.0199135464" flag="0"/>
      <psa10 value="0.0018883033" flag="0"/>
      <psa30 value="0.0003151859" flag="0"/>
    </comp>
    <comp name="00.HNN">
      <acc value="0.0383495129" flag="0"/>
      <vel value="0.0109517681" flag="0"/>
      <psa03 value="0.0608873969" flag="0"/>
      <psa10 value="0.0054265213" flag="0"/>
      <psa30 value="0.0006479098" flag="0"/>
    </comp>
    <comp name="00.HNZ">
      <acc value="0.0215627626" flag="0"/>
      <vel value="0.0081462859" flag="0"/>
      <psa03 value="0.0302998433" flag="0"/>
      <psa10 value="0.0050550361" flag="0"/>
      <psa30 value="0.0006343804" flag="0"/>
    </comp>
  </station>
</stationlist>
