<?xml version="1.0" encoding="UTF-8" standalone="yes"?>
<!DOCTYPE earthquake SYSTEM "stationlist.dtd">
<stationlist created="" xmlns="ch.ethz.sed.shakemap.usgs.xml">
  <station code="APMY" name="APMY" netid="KO" insttype="CMG-6T" lat="37.4717" lon="29.3018">
    <comp name="--.HHE">
      <acc value="0.0224391383" flag="0"/>
      <vel value="0.0102175096" flag="0"/>
      <psa03 value="0.0354846764" flag="0"/>
      <psa10 value="0.0108057026" flag="0"/>
      <psa30 value="0.0008231329" flag="0"/>
    </comp>
    <comp name="--.HHN">
      <acc value="0.0339690862" flag="0"/>
      <vel value="0.0097958174" flag="0"/>
      <psa03 value="0.0354519335" flag="0"/>
      <psa10 value="0.0071698710" flag="0"/>
      <psa30 value="0.0010113302" flag="0"/>
    </comp>
    <comp name="--.HHZ">
      <acc value="0.0219794217" flag="0"/>
      <vel value="0.0094980263" flag="0"/>
      <psa03 value="0.0260486775" flag="0"/>
      <psa10 value="0.0158032052" flag="0"/>
      <psa30 value="0.0012417282" flag="0"/>
    </comp>
  </station>
  <station code="CAME" name="CAME" netid="KO" insttype="CMG-5T" lat="36.9435" lon="29.3023">
    <comp name="--.HNZ">
      <acc value="0.0737198785" flag="0"/>
      <vel value="0.0279189913" flag="0"/>
      <psa03 value="0.2091159542" flag="0"/>
      <psa10 value="0.0194987041" flag="0"/>
      <psa30 value="0.0014654075" flag="0"/>
    </comp>
    <comp name="--.HNE">
      <acc value="0.1545054154" flag="0"/>
      <vel value="0.0398682345" flag="0"/>
      <psa03 value="0.2907214681" flag="0"/>
      <psa10 value="0.0268532609" flag="0"/>
      <psa30 value="0.0016311623" flag="0"/>
    </comp>
    <comp name="--.HNN">
      <acc value="0.1389037085" flag="0"/>
      <vel value="0.0439764699" flag="0"/>
      <psa03 value="0.3799889624" flag="0"/>
      <psa10 value="0.0292869048" flag="0"/>
      <psa30 value="0.0019513264" flag="0"/>
    </comp>
  </station>
  <station code="DALY" name="DALY" netid="KO" insttype="CMG-3T" lat="36.8162" lon="28.6532">
    <comp name="--.HHE">
      <acc value="0.0273308692" flag="0"/>
      <vel value="0.0106813360" flag="0"/>
      <psa03 value="0.0310771595" flag="0"/>
      <psa10 value="0.0157720615" flag="0"/>
      <psa30 value="0.0017094190" flag="0"/>
    </comp>
    <comp name="--.HHN">
      <acc value="0.0242170923" flag="0"/>
      <vel value="0.0146812392" flag="0"/>
      <psa03 value="0.0371981681" flag="0"/>
      <psa10 value="0.0176627974" flag="0"/>
      <psa30 value="0.0021810523" flag="0"/>
    </comp>
    <comp name="--.HHZ">
      <acc value="0.0105254795" flag="0"/>
      <vel value="0.0105804216" flag="0"/>
      <psa03 value="0.0115168263" flag="0"/>
      <psa10 value="0.0133576978" flag="0"/>
      <psa30 value="0.0032734994" flag="0"/>
    </comp>
  </station>
  <station code="ELL" name="ELL" netid="KO" insttype="CMG-3T" lat="36.7483" lon="29.9085">
    <comp name="--.HHE">
      <acc value="0.0074914097" flag="0"/>
      <vel value="0.0026631633" flag="0"/>
      <psa03 value="0.0173145822" flag="0"/>
      <psa10 value="0.0038506242" flag="0"/>
      <psa30 value="0.0006035679" flag="0"/>
    </comp>
    <comp name="--.HHN">
      <acc value="0.0071930183" flag="0"/>
      <vel value="0.0031799833" flag="0"/>
      <psa03 value="0.0217034280" flag="0"/>
      <psa10 value="0.0029627403" flag="0"/>
      <psa30 value="0.0003440580" flag="0"/>
    </comp>
    <comp name="--.HHZ">
      <acc value="0.0035861605" flag="0"/>
      <vel value="0.0017146365" flag="0"/>
      <psa03 value="0.0110329708" flag="0"/>
      <psa10 value="0.0037535441" flag="0"/>
      <psa30 value="0.0002867977" flag="0"/>
    </comp>
  </station>
  <station code="FETI" name="FETI" netid="KO" insttype="CMG-5T" lat="36.6903" lon="29.096">
    <comp name="--.HNE">
      <acc value="0.1281431097" flag="0"/>
      <vel value="0.0770170737" flag="0"/>
      <psa03 value="0.2262987437" flag="0"/>
      <psa10 value="0.0497908530" flag="0"/>
      <psa30 value="0.0032837335" flag="0"/>
    </comp>
    <comp name="--.HNN">
      <acc value="0.0036365969" flag="0"/>
      <vel value="0.0076027083" flag="0"/>
      <psa03 value="0.0040188068" flag="0"/>
      <psa10 value="0.0023704176" flag="0"/>
      <psa30 value="0.0021360097" flag="0"/>
    </comp>
    <comp name="--.HNZ">
      <acc value="0.0644981424" flag="0"/>
      <vel value="0.0268843287" flag="0"/>
      <psa03 value="0.0873164041" flag="0"/>
      <psa10 value="0.0198584752" flag="0"/>
      <psa30 value="0.0012521413" flag="0"/>
    </comp>
  </station>
  <station code="FETY" name="FETY" netid="KO" insttype="CMG-3ESP" lat="36.6353" lon="29.0835">
    <comp name="--.HHZ">
      <acc value="0.0291369873" flag="0"/>
      <vel value="0.0143760686" flag="0"/>
      <psa03 value="0.0436667257" flag="0"/>
      <psa10 value="0.0174608871" flag="0"/>
      <psa30 value="0.0009487616" flag="0"/>
    </comp>
    <comp name="--.HHE">
      <acc value="0.0391816397" flag="0"/>
      <vel value="0.0320870393" flag="0"/>
      <psa03 value="0.1073555693" flag="0"/>
      <psa10 value="0.0239544431" flag="0"/>
      <psa30 value="0.0019126730" flag="0"/>
    </comp>
    <comp name="--.HHN">
      <acc value="0.0445117944" flag="0"/>
      <vel value="0.0227825622" flag="0"/>
      <psa03 value="0.0761800778" flag="0"/>
      <psa10 value="0.0145137167" flag="0"/>
      <psa30 value="0.0015097597" flag="0"/>
    </comp>
  </station>
  <station code="MLSB" name="MLSB" netid="KO" insttype="CMG-3ESP" lat="37.2953" lon="27.7767">
    <comp name="--.HHE">
      <acc value="0.0011497241" flag="0"/>
      <vel value="0.0010371799" flag="0"/>
      <psa03 value="0.0032451991" flag="0"/>
      <psa10 value="0.0016717412" flag="0"/>
      <psa30 value="0.0001602790" flag="0"/>
    </comp>
    <comp name="--.HHN">
      <acc value="0.0014675081" flag="0"/>
      <vel value="0.0014958612" flag="0"/>
      <psa03 value="0.0019554498" flag="0"/>
      <psa10 value="0.0035854329" flag="0"/>
      <psa30 value="0.0003261869" flag="0"/>
    </comp>
    <comp name="--.HHZ">
      <acc value="0.0010607058" flag="0"/>
      <vel value="0.0011822529" flag="0"/>
      <psa03 value="0.0025065564" flag="0"/>
      <psa10 value="0.0022687733" flag="0"/>
      <psa30 value="0.0001849321" flag="0"/>
    </comp>
  </station>
  <station code="YER" name="YER" netid="KO" insttype="CMG-3T" lat="37.1336" lon="28.284">
    <comp name="--.HHZ">
      <acc value="0.0046477402" flag="0"/>
      <vel value="0.0061435730" flag="0"/>
      <psa03 value="0.0072688703" flag="0"/>
      <psa10 value="0.0072958729" flag="0"/>
      <psa30 value="0.0010998456" flag="0"/>
    </comp>
    <comp name="--.HHE">
      <acc value="0.0067136150" flag="0"/>
      <vel value="0.0043826313" flag="0"/>
      <psa03 value="0.0085181307" flag="0"/>
      <psa10 value="0.0078765918" flag="0"/>
      <psa30 value="0.0008349310" flag="0"/>
    </comp>
    <comp name="--.HHN">
      <acc value="0.0073335933" flag="0"/>
      <vel value="0.0041608732" flag="0"/>
      <psa03 value="0.0095837655" flag="0"/>
      <psa10 value="0.0078330773" flag="0"/>
      <psa30 value="0.0010564223" flag="0"/>
    </comp>
  </station>
</stationlist>
