<?xml version="1.0" encoding="UTF-8" standalone="yes"?>
<!DOCTYPE earthquake SYSTEM "stationlist.dtd">
<stationlist created="" xmlns="ch.ethz.sed.shakemap.usgs.xml">
  <station code="PUK" name="PUK" netid="AC" source="INGV" insttype="" lat="42.0426" lon="19.8926">
    <comp name="--.HHE">
      <acc value="0.0192529075" flag="0"/>
      <vel value="0.0048991555" flag="0"/>
      <psa03 value="0.0232054513" flag="0"/>
      <psa10 value="0.0011976810" flag="0"/>
      <psa30 value="0.0001475417" flag="0"/>
    </comp>
    <comp name="--.HHN">
      <acc value="0.0181196022" flag="0"/>
      <vel value="0.0044961106" flag="0"/>
      <psa03 value="0.0204205257" flag="0"/>
      <psa10 value="0.0013205309" flag="0"/>
      <psa30 value="0.0001914089" flag="0"/>
    </comp>
    <comp name="--.HHZ">
      <acc value="0.0113723212" flag="0"/>
      <vel value="0.0023069015" flag="0"/>
      <psa03 value="0.0097385740" flag="0"/>
      <psa10 value="0.0009478475" flag="0"/>
      <psa30 value="0.0001239401" flag="0"/>
    </comp>
  </station>
  <station code="PDG" name="PDG" netid="MN" source="INGV" insttype="" lat="42.4297" lon="19.2608">
    <comp name="--.HHE">
      <acc value="0.0445017178" flag="0"/>
      <vel value="0.0069144027" flag="0"/>
      <psa03 value="0.0312518988" flag="0"/>
      <psa10 value="0.0034194851" flag="0"/>
      <psa30 value="0.0001732665" flag="0"/>
    </comp>
    <comp name="--.HHN">
      <acc value="0.0527554225" flag="0"/>
      <vel value="0.0098711389" flag="0"/>
      <psa03 value="0.0701453380" flag="0"/>
      <psa10 value="0.0030019198" flag="0"/>
      <psa30 value="0.0002995375" flag="0"/>
    </comp>
    <comp name="--.HHZ">
      <acc value="0.0312446141" flag="0"/>
      <vel value="0.0049857861" flag="0"/>
      <psa03 value="0.0281778157" flag="0"/>
      <psa10 value="0.0020366078" flag="0"/>
      <psa30 value="0.0002083610" flag="0"/>
    </comp>
  </station>
</stationlist>
