<stationlist created="1778136233">
	<station code="S2114" name="S2114" netid="S2" source="IceSMN Icelandic Strong Motion Network (IceSMN)" insttype="" lat="63.7515" lon="-20.2168">
		<comp name="00.HN1" depth="0.0">
			<acc value="0.129799408800506" flag="0"/>
			<vel value="0.0781593174468955" flag="0"/>
			<psa03 value="0.17467074816337" flag="0"/>
			<psa10 value="0.0906304313214409" flag="0"/>
			<psa30 value="0.0358798968670673" flag="0"/>
		</comp>
		<comp name="00.HN2" depth="0.0">
			<acc value="0.108557978858723" flag="0"/>
			<vel value="0.0704802695187549" flag="0"/>
			<psa03 value="0.200356835156882" flag="0"/>
			<psa10 value="0.0930294577450212" flag="0"/>
			<psa30 value="0.0158224881621798" flag="0"/>
		</comp>
		<comp name="00.HNZ" depth="0.0">
			<acc value="0.0398242166003489" flag="0"/>
			<vel value="0.0318347637726818" flag="0"/>
			<psa03 value="0.0983035225426711" flag="0"/>
			<psa10 value="0.0311107953125012" flag="0"/>
			<psa30 value="0.0212752093782297" flag="0"/>
		</comp>
	</station>
	<station code="S2119" name="S2119" netid="S2" source="IceSMN Icelandic Strong Motion Network (IceSMN)" insttype="" lat="64.1301" lon="-20.32">
		<comp name="00.HN1" depth="0.0">
			<acc value="0.0508531836484345" flag="0"/>
			<vel value="0.0285768852518844" flag="0"/>
			<psa03 value="0.153214180937762" flag="0"/>
			<psa10 value="0.0227081649294861" flag="0"/>
			<psa30 value="0.0164828552415873" flag="0"/>
		</comp>
		<comp name="00.HN2" depth="0.0">
			<acc value="0.0466535103776465" flag="0"/>
			<vel value="0.0413288274355949" flag="0"/>
			<psa03 value="0.0839211947838744" flag="0"/>
			<psa10 value="0.0509290713011191" flag="0"/>
			<psa30 value="0.0229208850627966" flag="0"/>
		</comp>
		<comp name="00.HNZ" depth="0.0">
			<acc value="0.0335102552928662" flag="0"/>
			<vel value="0.0230276453096285" flag="0"/>
			<psa03 value="0.0418040557718762" flag="0"/>
			<psa10 value="0.0225597413471343" flag="0"/>
			<psa30 value="0.00518671026078439" flag="0"/>
		</comp>
	</station>
	<station code="S2405" name="S2405" netid="S2" source="IceSMN Icelandic Strong Motion Network (IceSMN)" insttype="" lat="64.0447" lon="-21.9848">
		<comp name="00.HN1" depth="0.0">
			<acc value="0.451116568768493" flag="0"/>
			<vel value="0.297402229368817" flag="0"/>
			<psa03 value="0.968352231914138" flag="0"/>
			<psa10 value="0.312346191402327" flag="0"/>
			<psa30 value="0.0465810290978203" flag="0"/>
		</comp>
		<comp name="00.HN2" depth="0.0">
			<acc value="0.45030582961456" flag="0"/>
			<vel value="0.250223669646084" flag="0"/>
			<psa03 value="0.735686568958445" flag="0"/>
			<psa10 value="0.471131770168122" flag="0"/>
			<psa30 value="0.0600743929669667" flag="0"/>
		</comp>
		<comp name="00.HNZ" depth="0.0">
			<acc value="0.438614637468714" flag="0"/>
			<vel value="0.092803941379542" flag="0"/>
			<psa03 value="0.273077402537921" flag="0"/>
			<psa10 value="0.110325821044059" flag="0"/>
			<psa30 value="0.0274599740885176" flag="0"/>
		</comp>
	</station>
	<station code="S2602" name="S2602" netid="S2" source="IceSMN Icelandic Strong Motion Network (IceSMN)" insttype="" lat="63.8464" lon="-22.4268">
		<comp name="00.HN1" depth="0.0">
			<acc value="5.51051512262383" flag="0"/>
			<vel value="5.85975455718521" flag="0"/>
			<psa03 value="9.2200701177206" flag="0"/>
			<psa10 value="5.18129235517375" flag="0"/>
			<psa30 value="0.582133123461003" flag="0"/>
		</comp>
		<comp name="00.HN2" depth="0.0">
			<acc value="7.03477419528363" flag="0"/>
			<vel value="6.78227418059945" flag="0"/>
			<psa03 value="15.9966330317635" flag="0"/>
			<psa10 value="7.09042442582014" flag="0"/>
			<psa30 value="0.55689230471454" flag="0"/>
		</comp>
		<comp name="00.HNZ" depth="0.0">
			<acc value="4.39491622064764" flag="0"/>
			<vel value="2.20303031752081" flag="0"/>
			<psa03 value="7.03446666553985" flag="0"/>
			<psa10 value="1.64277970609455" flag="0"/>
			<psa30 value="0.266476266077998" flag="0"/>
		</comp>
	</station>
	<station code="S2604" name="S2604" netid="S2" source="IceSMN Icelandic Strong Motion Network (IceSMN)" insttype="" lat="63.9843" lon="-21.6486">
		<comp name="00.HN1" depth="0.0">
			<acc value="0.145887980820547" flag="0"/>
			<vel value="0.180316554685048" flag="0"/>
			<psa03 value="0.384094319363527" flag="0"/>
			<psa10 value="0.339475398579053" flag="0"/>
			<psa30 value="0.0683138721254444" flag="0"/>
		</comp>
		<comp name="00.HN2" depth="0.0">
			<acc value="0.128558765337621" flag="0"/>
			<vel value="0.131775463006676" flag="0"/>
			<psa03 value="0.245101799291485" flag="0"/>
			<psa10 value="0.250934013147016" flag="0"/>
			<psa30 value="0.0171022529403239" flag="0"/>
		</comp>
		<comp name="00.HNZ" depth="0.0">
			<acc value="0.156533282416009" flag="0"/>
			<vel value="0.0892166410600696" flag="0"/>
			<psa03 value="0.271002056723056" flag="0"/>
			<psa10 value="0.0975503372309869" flag="0"/>
			<psa30 value="0.027486444175351" flag="0"/>
		</comp>
	</station>
</stationlist>
