<?xml version="1.0" encoding="UTF-8" standalone="yes"?>
<!DOCTYPE earthquake SYSTEM "stationlist.dtd">
<stationlist created="" xmlns="ch.ethz.sed.shakemap.usgs.xml">
  <station code="ASB" name="ASB" netid="VI" source="ODC" insttype="STS-2.5" lat="64.7482" lon="-21.3254">
    <comp name="--.HHE">
      <acc value="0.0735271995" flag="0"/>
      <vel value="0.0387838839" flag="0"/>
      <psa03 value="0.1060390865" flag="0"/>
      <psa10 value="0.0639150918" flag="0"/>
      <psa30 value="0.0258352525" flag="0"/>
    </comp>
    <comp name="--.HHN">
      <acc value="0.0654260193" flag="0"/>
      <vel value="0.0328116440" flag="0"/>
      <psa03 value="0.1231075683" flag="0"/>
      <psa10 value="0.0370562153" flag="0"/>
      <psa30 value="0.0205084226" flag="0"/>
    </comp>
    <comp name="--.HHZ">
      <acc value="0.0516055042" flag="0"/>
      <vel value="0.0169014555" flag="0"/>
      <psa03 value="0.0670521567" flag="0"/>
      <psa10 value="0.0237622934" flag="0"/>
      <psa30 value="0.0045243920" flag="0"/>
    </comp>
  </station>
</stationlist>
