<?xml version="1.0" encoding="UTF-8" standalone="yes"?>
<!DOCTYPE earthquake SYSTEM "stationlist.dtd">
<stationlist created="" xmlns="ch.ethz.sed.shakemap.usgs.xml">
  <station code="BALB" name="BALB" netid="KO" insttype="120s," lat="39.6507" lon="27.8642">
    <comp name="--.HHE">
      <acc value="0.1388770333" flag="0"/>
      <vel value="0.0328985599" flag="0"/>
      <psa03 value="0.1347023558" flag="0"/>
      <psa10 value="0.0099463252" flag="0"/>
      <psa30 value="0.0007553830" flag="0"/>
    </comp>
    <comp name="--.HHN">
      <acc value="0.1445885343" flag="0"/>
      <vel value="0.0310723679" flag="0"/>
      <psa03 value="0.1115165080" flag="0"/>
      <psa10 value="0.0104632450" flag="0"/>
      <psa30 value="0.0006640043" flag="0"/>
    </comp>
    <comp name="--.HHZ">
      <acc value="0.0946982461" flag="0"/>
      <vel value="0.0198202430" flag="0"/>
      <psa03 value="0.0766274022" flag="0"/>
      <psa10 value="0.0086611194" flag="0"/>
      <psa30 value="0.0005662708" flag="0"/>
    </comp>
  </station>
  <station code="DST" name="DST" netid="KO" insttype="100" lat="39.6041" lon="28.6267">
    <comp name="--.HNN">
      <acc value="0.0093475988" flag="0"/>
      <vel value="0.0029215177" flag="0"/>
      <psa03 value="0.0144713153" flag="0"/>
      <psa10 value="0.0015833752" flag="0"/>
      <psa30 value="0.0001723690" flag="0"/>
    </comp>
    <comp name="--.HNE">
      <acc value="0.0105221674" flag="0"/>
      <vel value="0.0020509563" flag="0"/>
      <psa03 value="0.0161762257" flag="0"/>
      <psa10 value="0.0015495911" flag="0"/>
      <psa30 value="0.0000927562" flag="0"/>
    </comp>
    <comp name="--.HNZ">
      <acc value="0.0108586495" flag="0"/>
      <vel value="0.0027573267" flag="0"/>
      <psa03 value="0.0158736766" flag="0"/>
      <psa10 value="0.0010954681" flag="0"/>
      <psa30 value="0.0000972928" flag="0"/>
    </comp>
  </station>
  <station code="EDC" name="EDC" netid="KO" insttype="120s," lat="40.3465" lon="27.8618">
    <comp name="--.HHE">
      <acc value="0.0744835884" flag="0"/>
      <vel value="0.0143915857" flag="0"/>
      <psa03 value="0.0859134325" flag="0"/>
      <psa10 value="0.0120780422" flag="0"/>
      <psa30 value="0.0009560726" flag="0"/>
    </comp>
    <comp name="--.HHN">
      <acc value="0.1021303697" flag="0"/>
      <vel value="0.0328918417" flag="0"/>
      <psa03 value="0.1635029156" flag="0"/>
      <psa10 value="0.0159490410" flag="0"/>
      <psa30 value="0.0009921651" flag="0"/>
    </comp>
    <comp name="--.HHZ">
      <acc value="0.0480105053" flag="0"/>
      <vel value="0.0093720540" flag="0"/>
      <psa03 value="0.0435298174" flag="0"/>
      <psa10 value="0.0045849679" flag="0"/>
      <psa30 value="0.0002817246" flag="0"/>
    </comp>
  </station>
  <station code="GEML" name="GEML" netid="KO" insttype="120s," lat="40.4646" lon="29.2116">
    <comp name="--.HHE">
      <acc value="0.0485108713" flag="0"/>
      <vel value="0.0083973250" flag="0"/>
      <psa03 value="0.0288471197" flag="0"/>
      <psa10 value="0.0051151692" flag="0"/>
      <psa30 value="0.0002948463" flag="0"/>
    </comp>
    <comp name="--.HHN">
      <acc value="0.0609377122" flag="0"/>
      <vel value="0.0124333766" flag="0"/>
      <psa03 value="0.0478447013" flag="0"/>
      <psa10 value="0.0065016741" flag="0"/>
      <psa30 value="0.0005142321" flag="0"/>
    </comp>
    <comp name="--.HHZ">
      <acc value="0.0337660266" flag="0"/>
      <vel value="0.0079713123" flag="0"/>
      <psa03 value="0.0282779447" flag="0"/>
      <psa10 value="0.0041505713" flag="0"/>
      <psa30 value="0.0003293027" flag="0"/>
    </comp>
  </station>
  <station code="GONE" name="GONE" netid="KO" insttype="100" lat="40.0466" lon="27.686">
    <comp name="--.HNN">
      <acc value="0.1289559884" flag="0"/>
      <vel value="0.0490713198" flag="0"/>
      <psa03 value="0.2692992634" flag="0"/>
      <psa10 value="0.0273647394" flag="0"/>
      <psa30 value="0.0017582982" flag="0"/>
    </comp>
    <comp name="--.HNE">
      <acc value="0.0831766566" flag="0"/>
      <vel value="0.0321520318" flag="0"/>
      <psa03 value="0.1375567967" flag="0"/>
      <psa10 value="0.0244270121" flag="0"/>
      <psa30 value="0.0018030452" flag="0"/>
    </comp>
    <comp name="--.HNZ">
      <acc value="0.0578206248" flag="0"/>
      <vel value="0.0116482221" flag="0"/>
      <psa03 value="0.0583831136" flag="0"/>
      <psa10 value="0.0098919249" flag="0"/>
      <psa30 value="0.0004668673" flag="0"/>
    </comp>
  </station>
  <station code="IZI" name="IZI" netid="KO" insttype="100" lat="40.3368" lon="29.4728">
    <comp name="--.HNZ">
      <acc value="0.0074607606" flag="0"/>
      <vel value="0.0027017039" flag="0"/>
      <psa03 value="0.0145673973" flag="0"/>
      <psa10 value="0.0020278209" flag="0"/>
      <psa30 value="0.0002381744" flag="0"/>
    </comp>
    <comp name="--.HNE">
      <acc value="0.0116138508" flag="0"/>
      <vel value="0.0031483432" flag="0"/>
      <psa03 value="0.0110555060" flag="0"/>
      <psa10 value="0.0022584438" flag="0"/>
      <psa30 value="0.0001820283" flag="0"/>
    </comp>
    <comp name="--.HNN">
      <acc value="0.0127321971" flag="0"/>
      <vel value="0.0054430315" flag="0"/>
      <psa03 value="0.0194651468" flag="0"/>
      <psa10 value="0.0040210040" flag="0"/>
      <psa30 value="0.0004437847" flag="0"/>
    </comp>
  </station>
  <station code="KCTX" name="KCTX" netid="KO" insttype="30s," lat="40.2627" lon="28.3353">
    <comp name="--.HHE">
      <acc value="0.0770709577" flag="0"/>
      <vel value="0.0134280761" flag="0"/>
      <psa03 value="0.0579023717" flag="0"/>
      <psa10 value="0.0077181264" flag="0"/>
      <psa30 value="0.0004620646" flag="0"/>
    </comp>
    <comp name="--.HHZ">
      <acc value="0.0965814228" flag="0"/>
      <vel value="0.0178076752" flag="0"/>
      <psa03 value="0.0238003029" flag="0"/>
      <psa10 value="0.0092291779" flag="0"/>
      <psa30 value="0.0007945520" flag="0"/>
    </comp>
    <comp name="--.HHN">
      <acc value="0.0979797578" flag="0"/>
      <vel value="0.0125463301" flag="0"/>
      <psa03 value="0.0495829612" flag="0"/>
      <psa10 value="0.0064213561" flag="0"/>
      <psa30 value="0.0005030730" flag="0"/>
    </comp>
  </station>
  <station code="KRBG" name="KRBG" netid="KO" insttype="30s," lat="40.3932" lon="27.2977">
    <comp name="--.HHE">
      <acc value="0.0137901173" flag="0"/>
      <vel value="0.0045772641" flag="0"/>
      <psa03 value="0.0204524810" flag="0"/>
      <psa10 value="0.0022668259" flag="0"/>
      <psa30 value="0.0001617293" flag="0"/>
    </comp>
    <comp name="--.HHN">
      <acc value="0.0185109946" flag="0"/>
      <vel value="0.0030985922" flag="0"/>
      <psa03 value="0.0196599821" flag="0"/>
      <psa10 value="0.0017346805" flag="0"/>
      <psa30 value="0.0001600892" flag="0"/>
    </comp>
    <comp name="--.HHZ">
      <acc value="0.0141629506" flag="0"/>
      <vel value="0.0027380686" flag="0"/>
      <psa03 value="0.0103260227" flag="0"/>
      <psa10 value="0.0009192739" flag="0"/>
      <psa30 value="0.0000829906" flag="0"/>
    </comp>
  </station>
  <station code="MDNY" name="MDNY" netid="KO" insttype="30s," lat="40.371" lon="28.8847">
    <comp name="--.HHE">
      <acc value="0.0820443270" flag="0"/>
      <vel value="0.0167359509" flag="0"/>
      <psa03 value="0.0966861993" flag="0"/>
      <psa10 value="0.0050993298" flag="0"/>
      <psa30 value="0.0003690260" flag="0"/>
    </comp>
    <comp name="--.HHZ">
      <acc value="0.0615073795" flag="0"/>
      <vel value="0.0098167340" flag="0"/>
      <psa03 value="0.0160748706" flag="0"/>
      <psa10 value="0.0029627694" flag="0"/>
      <psa30 value="0.0001732576" flag="0"/>
    </comp>
    <comp name="--.HHN">
      <acc value="0.0964873663" flag="0"/>
      <vel value="0.0186105000" flag="0"/>
      <psa03 value="0.0877017485" flag="0"/>
      <psa10 value="0.0047845659" flag="0"/>
      <psa30 value="0.0003214621" flag="0"/>
    </comp>
  </station>
  <station code="MRMT" name="MRMT" netid="KO" insttype="120s," lat="40.609" lon="27.5832">
    <comp name="--.HHE">
      <acc value="0.0000114599" flag="0"/>
      <vel value="0.0000011632" flag="0"/>
      <psa03 value="0.0000042264" flag="0"/>
      <psa10 value="0.0000012143" flag="0"/>
      <psa30 value="0.0000002999" flag="0"/>
    </comp>
    <comp name="--.HHN">
      <acc value="0.0150203321" flag="0"/>
      <vel value="0.0056257777" flag="0"/>
      <psa03 value="0.0373997644" flag="0"/>
      <psa10 value="0.0019860709" flag="0"/>
      <psa30 value="0.0001622623" flag="0"/>
    </comp>
    <comp name="--.HHZ">
      <acc value="0.0000105470" flag="0"/>
      <vel value="0.0000008291" flag="0"/>
      <psa03 value="0.0000034268" flag="0"/>
      <psa10 value="0.0000006720" flag="0"/>
      <psa30 value="0.0000001737" flag="0"/>
    </comp>
  </station>
  <station code="ORLT" name="ORLT" netid="KO" insttype="100" lat="40.0452" lon="28.8914">
    <comp name="--.HNN">
      <acc value="0.0177576855" flag="0"/>
      <vel value="0.0028896778" flag="0"/>
      <psa03 value="0.0154945515" flag="0"/>
      <psa10 value="0.0011144363" flag="0"/>
      <psa30 value="0.0001414356" flag="0"/>
    </comp>
    <comp name="--.HNE">
      <acc value="0.0147927010" flag="0"/>
      <vel value="0.0027556732" flag="0"/>
      <psa03 value="0.0133376847" flag="0"/>
      <psa10 value="0.0009128269" flag="0"/>
      <psa30 value="0.0000781811" flag="0"/>
    </comp>
    <comp name="--.HNZ">
      <acc value="0.0059725736" flag="0"/>
      <vel value="0.0008689865" flag="0"/>
      <psa03 value="0.0036136703" flag="0"/>
      <psa10 value="0.0007474408" flag="0"/>
      <psa30 value="0.0000525897" flag="0"/>
    </comp>
  </station>
  <station code="TVSB" name="TVSB" netid="KO" insttype="120" lat="39.4497" lon="29.4615">
    <comp name="--.HHE">
      <acc value="0.0098790906" flag="0"/>
      <vel value="0.0052790320" flag="0"/>
      <psa03 value="0.0233853424" flag="0"/>
      <psa10 value="0.0024998079" flag="0"/>
      <psa30 value="0.0001862337" flag="0"/>
    </comp>
    <comp name="--.HHN">
      <acc value="0.0075997239" flag="0"/>
      <vel value="0.0039247487" flag="0"/>
      <psa03 value="0.0189951687" flag="0"/>
      <psa10 value="0.0016310773" flag="0"/>
      <psa30 value="0.0001804040" flag="0"/>
    </comp>
    <comp name="--.HHZ">
      <acc value="0.0043563228" flag="0"/>
      <vel value="0.0019890171" flag="0"/>
      <psa03 value="0.0111870377" flag="0"/>
      <psa10 value="0.0011677105" flag="0"/>
      <psa30 value="0.0000867161" flag="0"/>
    </comp>
  </station>
  <station code="YLV" name="YLV" netid="KO" insttype="120s," lat="40.5658" lon="29.3708">
    <comp name="--.HHE">
      <acc value="0.0160698511" flag="0"/>
      <vel value="0.0064752538" flag="0"/>
      <psa03 value="0.0197626592" flag="0"/>
      <psa10 value="0.0050033745" flag="0"/>
      <psa30 value="0.0003962572" flag="0"/>
    </comp>
    <comp name="--.HHN">
      <acc value="0.0151310092" flag="0"/>
      <vel value="0.0053648438" flag="0"/>
      <psa03 value="0.0176496762" flag="0"/>
      <psa10 value="0.0059873341" flag="0"/>
      <psa30 value="0.0002966906" flag="0"/>
    </comp>
    <comp name="--.HHZ">
      <acc value="0.0115660997" flag="0"/>
      <vel value="0.0045451203" flag="0"/>
      <psa03 value="0.0100978313" flag="0"/>
      <psa10 value="0.0033105905" flag="0"/>
      <psa30 value="0.0002521186" flag="0"/>
    </comp>
  </station>
</stationlist>
