<stationlist created="1778135901">
	<station code="MYT1" name="MYT1" netid="HI" source="ITSAK Strong Motion Network" insttype="" lat="39.085" lon="26.5694">
		<comp name="--.HNE" depth="0.0">
			<acc value="0.0258301139939907" flag="0"/>
			<vel value="0.0158481413982434" flag="0"/>
			<psa03 value="0.095740113145802" flag="0"/>
			<psa10 value="0.0190203450045035" flag="0"/>
			<psa30 value="0.00140580083574101" flag="0"/>
		</comp>
		<comp name="--.HNN" depth="0.0">
			<acc value="0.0230851560245943" flag="0"/>
			<vel value="0.0160043461319929" flag="0"/>
			<psa03 value="0.0804767530650993" flag="0"/>
			<psa10 value="0.014390063271082" flag="0"/>
			<psa30 value="0.00118566427360778" flag="0"/>
		</comp>
		<comp name="--.HNZ" depth="0.0">
			<acc value="0.0127595662556526" flag="0"/>
			<vel value="0.00812265837500153" flag="0"/>
			<psa03 value="0.049308375813095" flag="0"/>
			<psa10 value="0.0135484700196572" flag="0"/>
			<psa30 value="0.000603619830600729" flag="0"/>
		</comp>
	</station>
	<station code="SFL1" name="SFL1" netid="HI" source="ITSAK Strong Motion Network" insttype="" lat="41.189954" lon="26.304374">
		<comp name="--.HNE" depth="0.0">
			<acc value="0.00927318395483528" flag="0"/>
			<vel value="0.0056541222256405" flag="0"/>
			<psa03 value="0.0385286174359928" flag="0"/>
			<psa10 value="0.00338128891566959" flag="0"/>
			<psa30 value="0.000350910798201419" flag="0"/>
		</comp>
		<comp name="--.HNN" depth="0.0">
			<acc value="0.00772102209225744" flag="0"/>
			<vel value="0.00490068239652193" flag="0"/>
			<psa03 value="0.0211320600515157" flag="0"/>
			<psa10 value="0.00460335823115576" flag="0"/>
			<psa30 value="0.00033516933874043" flag="0"/>
		</comp>
		<comp name="--.HNZ" depth="0.0">
			<acc value="0.00356871080025138" flag="0"/>
			<vel value="0.00174538863510757" flag="0"/>
			<psa03 value="0.0137120008006644" flag="0"/>
			<psa10 value="0.000970476340077024" flag="0"/>
			<psa30 value="0.000110109924450371" flag="0"/>
		</comp>
	</station>
	<station code="PRK" name="PRK" netid="HL" source="National Observatory of Athens Seismic Network" insttype="" lat="39.24565" lon="26.26499">
		<comp name="--.HNE" depth="0.0">
			<acc value="0.0210862104640292" flag="0"/>
			<vel value="0.0112324177257637" flag="0"/>
			<psa03 value="0.0535050861159638" flag="0"/>
			<psa10 value="0.0163675486447807" flag="0"/>
			<psa30 value="0.000631020604100707" flag="0"/>
		</comp>
		<comp name="--.HNN" depth="0.0">
			<acc value="0.0172781400446103" flag="0"/>
			<vel value="0.0097067448526544" flag="0"/>
			<psa03 value="0.0398804491756801" flag="0"/>
			<psa10 value="0.0120956584655308" flag="0"/>
			<psa30 value="0.000677907720561003" flag="0"/>
		</comp>
		<comp name="--.HNZ" depth="0.0">
			<acc value="0.0130318368357353" flag="0"/>
			<vel value="0.00631265418753508" flag="0"/>
			<psa03 value="0.02429274469178" flag="0"/>
			<psa10 value="0.00676887262333225" flag="0"/>
			<psa30 value="0.000403904334804825" flag="0"/>
		</comp>
	</station>
	<station code="AKS" name="AKS" netid="KO" source="Bogazici University Kandilli Observatory And Earthquake Research Institute (KOERI)" insttype="" lat="38.8785" lon="27.8129">
		<comp name="--.HNE" depth="0.0">
			<acc value="0.031535492897734" flag="0"/>
			<vel value="0.0125555894679115" flag="0"/>
			<psa03 value="0.0599992990751024" flag="0"/>
			<psa10 value="0.0054160441111418" flag="0"/>
			<psa30 value="0.000358385075012357" flag="0"/>
		</comp>
		<comp name="--.HNN" depth="0.0">
			<acc value="0.0355363264907306" flag="0"/>
			<vel value="0.0155118386884542" flag="0"/>
			<psa03 value="0.0685450605391923" flag="0"/>
			<psa10 value="0.00492074788387753" flag="0"/>
			<psa30 value="0.000386125243115685" flag="0"/>
		</comp>
		<comp name="--.HNZ" depth="0.0">
			<acc value="0.0186161487131415" flag="0"/>
			<vel value="0.00668660786254729" flag="0"/>
			<psa03 value="0.03391459261665" flag="0"/>
			<psa10 value="0.00244829354615183" flag="0"/>
			<psa30 value="0.000460397306102016" flag="0"/>
		</comp>
	</station>
	<station code="ALT" name="ALT" netid="KO" source="Bogazici University Kandilli Observatory And Earthquake Research Institute (KOERI)" insttype="" lat="39.0541" lon="30.1104">
		<comp name="--.HNE" depth="0.0">
			<acc value="0.0146559751931761" flag="0"/>
			<vel value="0.00361656460968718" flag="0"/>
			<psa03 value="0.0280981057562747" flag="0"/>
			<psa10 value="0.00530329375046375" flag="0"/>
			<psa30 value="0.00132571158209939" flag="0"/>
		</comp>
		<comp name="--.HNN" depth="0.0">
			<acc value="0.012245503843003" flag="0"/>
			<vel value="0.00370578829841875" flag="0"/>
			<psa03 value="0.0316774822857364" flag="0"/>
			<psa10 value="0.00302815254392463" flag="0"/>
			<psa30 value="0.00136866410045293" flag="0"/>
		</comp>
		<comp name="--.HNZ" depth="0.0">
			<acc value="0.00870930028155474" flag="0"/>
			<vel value="0.00249907634527065" flag="0"/>
			<psa03 value="0.00988802766263806" flag="0"/>
			<psa10 value="0.00428048690717006" flag="0"/>
			<psa30 value="0.00254985835517531" flag="0"/>
		</comp>
	</station>
	<station code="BIGA" name="BIGA" netid="KO" source="Bogazici University Kandilli Observatory And Earthquake Research Institute (KOERI)" insttype="" lat="40.28134" lon="27.15048">
		<comp name="--.HNE" depth="0.0">
			<acc value="0.213521721567104" flag="0"/>
			<vel value="0.0544385817530559" flag="0"/>
			<psa03 value="0.328676249817824" flag="0"/>
			<psa10 value="0.0186400506992382" flag="0"/>
			<psa30 value="0.00238341734655534" flag="0"/>
		</comp>
		<comp name="--.HNN" depth="0.0">
			<acc value="0.223652109401369" flag="0"/>
			<vel value="0.101442206873645" flag="0"/>
			<psa03 value="0.715383141619547" flag="0"/>
			<psa10 value="0.0206333160040822" flag="0"/>
			<psa30 value="0.00217089186511855" flag="0"/>
		</comp>
		<comp name="--.HNZ" depth="0.0">
			<acc value="0.143630795660897" flag="0"/>
			<vel value="0.0513673408083881" flag="0"/>
			<psa03 value="0.217312897544946" flag="0"/>
			<psa10 value="0.0139931251198645" flag="0"/>
			<psa30 value="0.0024697698053286" flag="0"/>
		</comp>
	</station>
	<station code="BOTS" name="BOTS" netid="KO" source="Bogazici University Kandilli Observatory And Earthquake Research Institute (KOERI)" insttype="" lat="40.9902" lon="27.981">
		<comp name="--.HNE" depth="0.0">
			<acc value="0.0208708889491882" flag="0"/>
			<vel value="0.0166199753225388" flag="0"/>
			<psa03 value="0.0528852882227972" flag="0"/>
			<psa10 value="0.0158655864668392" flag="0"/>
			<psa30 value="0.000896633820630166" flag="0"/>
		</comp>
		<comp name="--.HNN" depth="0.0">
			<acc value="0.0512371541880511" flag="0"/>
			<vel value="0.0182447925960802" flag="0"/>
			<psa03 value="0.105681092032358" flag="0"/>
			<psa10 value="0.0133246765529875" flag="0"/>
			<psa30 value="0.000875604983519578" flag="0"/>
		</comp>
		<comp name="--.HNZ" depth="0.0">
			<acc value="0.00815102856022505" flag="0"/>
			<vel value="0.00290239393760152" flag="0"/>
			<psa03 value="0.0140937950847556" flag="0"/>
			<psa10 value="0.00323754607089814" flag="0"/>
			<psa30 value="0.000300220206408603" flag="0"/>
		</comp>
	</station>
	<station code="BRGA" name="BRGA" netid="KO" source="Bogazici University Kandilli Observatory And Earthquake Research Institute (KOERI)" insttype="" lat="40.8846" lon="29.065">
		<comp name="--.HNE" depth="0.0">
			<acc value="0.00534411040293578" flag="0"/>
			<vel value="0.00242192212163003" flag="0"/>
			<psa03 value="0.010201223108966" flag="0"/>
			<psa10 value="0.00166306782000116" flag="0"/>
			<psa30 value="0.000485005519742066" flag="0"/>
		</comp>
		<comp name="--.HNN" depth="0.0">
			<acc value="0.00670339481116342" flag="0"/>
			<vel value="0.00241903642444372" flag="0"/>
			<psa03 value="0.00796411277805237" flag="0"/>
			<psa10 value="0.00248453473351263" flag="0"/>
			<psa30 value="0.000304694427070431" flag="0"/>
		</comp>
		<comp name="--.HNZ" depth="0.0">
			<acc value="0.00563219021181134" flag="0"/>
			<vel value="0.00201727162650782" flag="0"/>
			<psa03 value="0.00581648686037533" flag="0"/>
			<psa10 value="0.00121206637728898" flag="0"/>
			<psa30 value="0.000271585194172909" flag="0"/>
		</comp>
	</station>
	<station code="CANM" name="CANM" netid="KO" source="Bogazici University Kandilli Observatory And Earthquake Research Institute (KOERI)" insttype="" lat="40.0113" lon="27.0529">
		<comp name="--.HNE" depth="0.0">
			<acc value="0.305935049085341" flag="0"/>
			<vel value="0.0805263888969111" flag="0"/>
			<psa03 value="0.342591076076107" flag="0"/>
			<psa10 value="0.0330519628730497" flag="0"/>
			<psa30 value="0.002127939346765" flag="0"/>
		</comp>
		<comp name="--.HNN" depth="0.0">
			<acc value="0.216183676253663" flag="0"/>
			<vel value="0.0950371148540188" flag="0"/>
			<psa03 value="0.59077609618766" flag="0"/>
			<psa10 value="0.0322908979384729" flag="0"/>
			<psa30 value="0.00226708760934783" flag="0"/>
		</comp>
		<comp name="--.HNZ" depth="0.0">
			<acc value="0.226958178453044" flag="0"/>
			<vel value="0.0782952413223638" flag="0"/>
			<psa03 value="0.590060220881768" flag="0"/>
			<psa10 value="0.0178507981744919" flag="0"/>
			<psa30 value="0.00189438502821763" flag="0"/>
		</comp>
	</station>
	<station code="DST" name="DST" netid="KO" source="Bogazici University Kandilli Observatory And Earthquake Research Institute (KOERI)" insttype="" lat="39.6041" lon="28.6267">
		<comp name="--.HNE" depth="0.0">
			<acc value="0.0629855268095947" flag="0"/>
			<vel value="0.0130431747357802" flag="0"/>
			<psa03 value="0.101967488883041" flag="0"/>
			<psa10 value="0.00976095979584216" flag="0"/>
			<psa30 value="0.000718559838289444" flag="0"/>
		</comp>
		<comp name="--.HNN" depth="0.0">
			<acc value="0.0545420932261694" flag="0"/>
			<vel value="0.0185300465025508" flag="0"/>
			<psa03 value="0.0916767813608388" flag="0"/>
			<psa10 value="0.00998243371860261" flag="0"/>
			<psa30 value="0.00112660876264808" flag="0"/>
		</comp>
		<comp name="--.HNZ" depth="0.0">
			<acc value="0.0545556715221336" flag="0"/>
			<vel value="0.0171358467669496" flag="0"/>
			<psa03 value="0.100848933717585" flag="0"/>
			<psa10 value="0.00690595959153024" flag="0"/>
			<psa30 value="0.000657710437288595" flag="0"/>
		</comp>
	</station>
	<station code="ENZZ" name="ENZZ" netid="KO" source="Bogazici University Kandilli Observatory And Earthquake Research Institute (KOERI)" insttype="" lat="40.607" lon="26.1406">
		<comp name="--.HNE" depth="0.0">
			<acc value="0.074712553777402" flag="0"/>
			<vel value="0.0416924419645377" flag="0"/>
			<psa03 value="0.132078993937138" flag="0"/>
			<psa10 value="0.0317190925378914" flag="0"/>
			<psa30 value="0.0017346553505904" flag="0"/>
		</comp>
		<comp name="--.HNN" depth="0.0">
			<acc value="0.06459030758431" flag="0"/>
			<vel value="0.0289606024931979" flag="0"/>
			<psa03 value="0.139595684649008" flag="0"/>
			<psa10 value="0.0291258342422964" flag="0"/>
			<psa30 value="0.00311584726889644" flag="0"/>
		</comp>
		<comp name="--.HNZ" depth="0.0">
			<acc value="0.0726153500817087" flag="0"/>
			<vel value="0.0136690400599845" flag="0"/>
			<psa03 value="0.0860392633269366" flag="0"/>
			<psa10 value="0.00759454215138545" flag="0"/>
			<psa30 value="0.00158342669222064" flag="0"/>
		</comp>
	</station>
	<station code="EZNE" name="EZNE" netid="KO" source="Bogazici University Kandilli Observatory And Earthquake Research Institute (KOERI)" insttype="" lat="39.756" lon="26.3655">
		<comp name="--.HNE" depth="0.0">
			<acc value="0.0632830859952497" flag="0"/>
			<vel value="0.0230490010582931" flag="0"/>
			<psa03 value="0.149394227898409" flag="0"/>
			<psa10 value="0.0167836965466461" flag="0"/>
			<psa30 value="0.00172391722100201" flag="0"/>
		</comp>
		<comp name="--.HNN" depth="0.0">
			<acc value="0.090809726157976" flag="0"/>
			<vel value="0.0308233387650966" flag="0"/>
			<psa03 value="0.177358107034829" flag="0"/>
			<psa10 value="0.018007843319722" flag="0"/>
			<psa30 value="0.00181116452390764" flag="0"/>
		</comp>
		<comp name="--.HNZ" depth="0.0">
			<acc value="0.0446655452785102" flag="0"/>
			<vel value="0.0145471280241653" flag="0"/>
			<psa03 value="0.0690372248119933" flag="0"/>
			<psa10 value="0.00905224324300874" flag="0"/>
			<psa30 value="0.00142235474839486" flag="0"/>
		</comp>
	</station>
	<station code="FOCM" name="FOCM" netid="KO" source="Bogazici University Kandilli Observatory And Earthquake Research Institute (KOERI)" insttype="" lat="38.7131" lon="26.7309">
		<comp name="--.HNE" depth="0.0">
			<acc value="0.00820528786609304" flag="0"/>
			<vel value="0.0037407263949981" flag="0"/>
			<psa03 value="0.0368228360468377" flag="0"/>
			<psa10 value="0.00228722160232605" flag="0"/>
			<psa30 value="0.000278743947231833" flag="0"/>
		</comp>
		<comp name="--.HNN" depth="0.0">
			<acc value="0.0127822875067532" flag="0"/>
			<vel value="0.00638140846405612" flag="0"/>
			<psa03 value="0.0477846766683142" flag="0"/>
			<psa10 value="0.00345901999365859" flag="0"/>
			<psa30 value="0.000352121166085799" flag="0"/>
		</comp>
		<comp name="--.HNZ" depth="0.0">
			<acc value="0.00645402106213001" flag="0"/>
			<vel value="0.00299334698474233" flag="0"/>
			<psa03 value="0.0166888430686154" flag="0"/>
			<psa10 value="0.000914083281211292" flag="0"/>
			<psa30 value="0.000312748024261719" flag="0"/>
		</comp>
	</station>
	<station code="GOMA" name="GOMA" netid="KO" source="Bogazici University Kandilli Observatory And Earthquake Research Institute (KOERI)" insttype="" lat="38.7077" lon="27.9175">
		<comp name="--.HNE" depth="0.0">
			<acc value="0.0319204618597626" flag="0"/>
			<vel value="0.0146822832776856" flag="0"/>
			<psa03 value="0.0794174167474324" flag="0"/>
			<psa10 value="0.00580261677632366" flag="0"/>
			<psa30 value="0.000470688013624219" flag="0"/>
		</comp>
		<comp name="--.HNN" depth="0.0">
			<acc value="0.0286264995563704" flag="0"/>
			<vel value="0.0138843299438395" flag="0"/>
			<psa03 value="0.10304130184188" flag="0"/>
			<psa10 value="0.00467511316954322" flag="0"/>
			<psa30 value="0.000467108637094757" flag="0"/>
		</comp>
		<comp name="--.HNZ" depth="0.0">
			<acc value="0.0228558172970906" flag="0"/>
			<vel value="0.0075041965777373" flag="0"/>
			<psa03 value="0.0406259236093908" flag="0"/>
			<psa10 value="0.00223487322058267" flag="0"/>
			<psa30 value="0.00036062218534327" flag="0"/>
		</comp>
	</station>
	<station code="GONE" name="GONE" netid="KO" source="Bogazici University Kandilli Observatory And Earthquake Research Institute (KOERI)" insttype="" lat="40.0466" lon="27.686">
		<comp name="--.HNE" depth="0.0">
			<acc value="0.517444272333384" flag="0"/>
			<vel value="0.203217889805483" flag="0"/>
			<psa03 value="0.870951794031278" flag="0"/>
			<psa10 value="0.153348544119332" flag="0"/>
			<psa30 value="0.011423132771711" flag="0"/>
		</comp>
		<comp name="--.HNN" depth="0.0">
			<acc value="0.795839969393037" flag="0"/>
			<vel value="0.310878059971188" flag="0"/>
			<psa03 value="1.71671372573647" flag="0"/>
			<psa10 value="0.171956380429805" flag="0"/>
			<psa30 value="0.0110302961976025" flag="0"/>
		</comp>
		<comp name="--.HNZ" depth="0.0">
			<acc value="0.277676165825137" flag="0"/>
			<vel value="0.0748523976187265" flag="0"/>
			<psa03 value="0.370554955212527" flag="0"/>
			<psa10 value="0.0622301454970895" flag="0"/>
			<psa30 value="0.00312569055435246" flag="0"/>
		</comp>
	</station>
	<station code="GORD" name="GORD" netid="KO" source="Bogazici University Kandilli Observatory And Earthquake Research Institute (KOERI)" insttype="" lat="38.9088" lon="28.1769">
		<comp name="--.HNE" depth="0.0">
			<acc value="0.0371957072964997" flag="0"/>
			<vel value="0.0221402728363499" flag="0"/>
			<psa03 value="0.076553915523863" flag="0"/>
			<psa10 value="0.0260090921292676" flag="0"/>
			<psa30 value="0.00233822771787088" flag="0"/>
		</comp>
		<comp name="--.HNN" depth="0.0">
			<acc value="0.0535951358900364" flag="0"/>
			<vel value="0.0454031832121056" flag="0"/>
			<psa03 value="0.0971800727748863" flag="0"/>
			<psa10 value="0.0356130067798796" flag="0"/>
			<psa30 value="0.00220086914355279" flag="0"/>
		</comp>
		<comp name="--.HNZ" depth="0.0">
			<acc value="0.0360015356498966" flag="0"/>
			<vel value="0.016878687665792" flag="0"/>
			<psa03 value="0.0793726745408141" flag="0"/>
			<psa10 value="0.0165179278393336" flag="0"/>
			<psa30 value="0.00114987471008958" flag="0"/>
		</comp>
	</station>
	<station code="GPA" name="GPA" netid="KO" source="Bogazici University Kandilli Observatory And Earthquake Research Institute (KOERI)" insttype="" lat="40.2911" lon="30.3171">
		<comp name="--.HNE" depth="0.0">
			<acc value="0.00511725890601173" flag="0"/>
			<vel value="0.00268130773316136" flag="0"/>
			<psa03 value="0.0112750360678045" flag="0"/>
			<psa10 value="0.00470732755830837" flag="0"/>
			<psa30 value="0.000422813852542668" flag="0"/>
		</comp>
		<comp name="--.HNN" depth="0.0">
			<acc value="0.00473632590719837" flag="0"/>
			<vel value="0.00270638406845751" flag="0"/>
			<psa03 value="0.00827730822438028" flag="0"/>
			<psa10 value="0.00511806101506411" flag="0"/>
			<psa30 value="0.000468450903293305" flag="0"/>
		</comp>
		<comp name="--.HNZ" depth="0.0">
			<acc value="0.00199214658501595" flag="0"/>
			<vel value="0.00137407604941609" flag="0"/>
			<psa03 value="0.00246082136400495" flag="0"/>
			<psa10 value="0.00264560667733841" flag="0"/>
			<psa30 value="0.000591939393559735" flag="0"/>
		</comp>
	</station>
	<station code="HVHR" name="HVHR" netid="KO" source="Bogazici University Kandilli Observatory And Earthquake Research Institute (KOERI)" insttype="" lat="40.9699" lon="28.8445">
		<comp name="--.HNE" depth="0.0">
			<acc value="0.0216546752578764" flag="0"/>
			<vel value="0.0125860029652909" flag="0"/>
			<psa03 value="0.0471582857756584" flag="0"/>
			<psa10 value="0.0122454945293548" flag="0"/>
			<psa30 value="0.00119059011811221" flag="0"/>
		</comp>
		<comp name="--.HNN" depth="0.0">
			<acc value="0.0281451165896277" flag="0"/>
			<vel value="0.0120199200879828" flag="0"/>
			<psa03 value="0.0521246707102866" flag="0"/>
			<psa10 value="0.0108562490138575" flag="0"/>
			<psa30 value="0.000940928605182255" flag="0"/>
		</comp>
		<comp name="--.HNZ" depth="0.0">
			<acc value="0.0442263494057748" flag="0"/>
			<vel value="0.00836478434380793" flag="0"/>
			<psa03 value="0.0388809775512782" flag="0"/>
			<psa10 value="0.00382948546445788" flag="0"/>
			<psa30 value="0.000262636752849255" flag="0"/>
		</comp>
	</station>
	<station code="HYBA" name="HYBA" netid="KO" source="Bogazici University Kandilli Observatory And Earthquake Research Institute (KOERI)" insttype="" lat="40.8748" lon="29.0861">
		<comp name="--.HNE" depth="0.0">
			<acc value="0.00426972859143006" flag="0"/>
			<vel value="0.00158399366672427" flag="0"/>
			<psa03 value="0.00648761995964941" flag="0"/>
			<psa10 value="0.00174763059050969" flag="0"/>
			<psa30 value="0.000267558395577265" flag="0"/>
		</comp>
		<comp name="--.HNN" depth="0.0">
			<acc value="0.00603427003593012" flag="0"/>
			<vel value="0.00234897210389418" flag="0"/>
			<psa03 value="0.00979854324940151" flag="0"/>
			<psa10 value="0.00215031045007414" flag="0"/>
			<psa30 value="0.000296640829879142" flag="0"/>
		</comp>
		<comp name="--.HNZ" depth="0.0">
			<acc value="0.0045678051241084" flag="0"/>
			<vel value="0.00154420736250437" flag="0"/>
			<psa03 value="0.00751669071186965" flag="0"/>
			<psa10 value="0.00130870954358445" flag="0"/>
			<psa30 value="0.000327512952445749" flag="0"/>
		</comp>
	</station>
	<station code="IZI" name="IZI" netid="KO" source="Bogazici University Kandilli Observatory And Earthquake Research Institute (KOERI)" insttype="" lat="40.3483" lon="29.4612">
		<comp name="--.HNE" depth="0.0">
			<acc value="0.0723483311108839" flag="0"/>
			<vel value="0.0198651891900703" flag="0"/>
			<psa03 value="0.0708269130767242" flag="0"/>
