<?xml version="1.0" encoding="UTF-8" standalone="yes"?>
<!DOCTYPE earthquake SYSTEM "stationlist.dtd">
<stationlist created="" xmlns="ch.ethz.sed.shakemap.usgs.xml">
  <station code="BNN" name="BNN" netid="KO" insttype="CMG-3T" lat="38.8521" lon="35.8472">
    <comp name="--.HHZ">
      <acc value="0.0150058411" flag="0"/>
      <vel value="0.0086775949" flag="0"/>
      <psa03 value="0.0586396110" flag="0"/>
      <psa10 value="0.0169801801" flag="0"/>
      <psa30 value="0.0011900514" flag="0"/>
    </comp>
    <comp name="--.HHE">
      <acc value="0.0236827952" flag="0"/>
      <vel value="0.0155591193" flag="0"/>
      <psa03 value="0.0953867272" flag="0"/>
      <psa10 value="0.0302358937" flag="0"/>
      <psa30 value="0.0014221544" flag="0"/>
    </comp>
  </station>
  <station code="CEYT" name="CEYT" netid="KO" insttype="CMG-3ESP" lat="37.0105" lon="35.7478">
    <comp name="--.HHN">
      <acc value="0.0146096412" flag="0"/>
      <vel value="0.0102937621" flag="0"/>
      <psa03 value="0.0493231920" flag="0"/>
      <psa10 value="0.0109355964" flag="0"/>
      <psa30 value="0.0017534718" flag="0"/>
    </comp>
    <comp name="--.HHZ">
      <acc value="0.0104922987" flag="0"/>
      <vel value="0.0094428718" flag="0"/>
      <psa03 value="0.0239570072" flag="0"/>
      <psa10 value="0.0119817910" flag="0"/>
      <psa30 value="0.0021427116" flag="0"/>
    </comp>
  </station>
  <station code="CMRD" name="CMRD" netid="KO" insttype="CMG-5T" lat="37.6623" lon="34.9902">
    <comp name="--.HNE">
      <acc value="0.0181997678" flag="0"/>
      <vel value="0.0122716742" flag="0"/>
      <psa03 value="0.0554251237" flag="0"/>
      <psa10 value="0.0098395093" flag="0"/>
      <psa30 value="0.0010299260" flag="0"/>
    </comp>
    <comp name="--.HNN">
      <acc value="0.0164921669" flag="0"/>
      <vel value="0.0114221979" flag="0"/>
      <psa03 value="0.0519682181" flag="0"/>
      <psa10 value="0.0174075376" flag="0"/>
      <psa30 value="0.0010103092" flag="0"/>
    </comp>
    <comp name="--.HNZ">
      <acc value="0.0128840726" flag="0"/>
      <vel value="0.0106936528" flag="0"/>
      <psa03 value="0.0516544440" flag="0"/>
      <psa10 value="0.0092089794" flag="0"/>
      <psa30 value="0.0010775768" flag="0"/>
    </comp>
  </station>
  <station code="GAZ" name="GAZ" netid="KO" insttype="CMG-3T" lat="37.1721" lon="37.2096">
    <comp name="--.HHE">
      <acc value="0.0331474976" flag="0"/>
      <vel value="0.0239922568" flag="0"/>
      <psa03 value="0.0719065122" flag="0"/>
      <psa10 value="0.0410985976" flag="0"/>
      <psa30 value="0.0031971543" flag="0"/>
    </comp>
    <comp name="--.HHN">
      <acc value="0.0470107907" flag="0"/>
      <vel value="0.0247387188" flag="0"/>
      <psa03 value="0.0918558622" flag="0"/>
      <psa10 value="0.0282210594" flag="0"/>
      <psa30 value="0.0034881166" flag="0"/>
    </comp>
  </station>
  <station code="SARI" name="SARI" netid="KO" insttype="CMG-3T" lat="38.4072" lon="36.4181">
    <comp name="--.HHZ">
      <acc value="0.2800810528" flag="0"/>
      <vel value="0.1117823286" flag="0"/>
      <psa03 value="0.5826811368" flag="0"/>
      <psa10 value="0.0920225872" flag="0"/>
      <psa30 value="0.0049039993" flag="0"/>
    </comp>
  </station>
  <station code="ANDN" name="ANDN" netid="TU" insttype="T" lat="37.58" lon="36.3452">
    <comp name="--.HHN">
      <acc value="0.4693987448" flag="0"/>
      <vel value="0.2168538171" flag="0"/>
      <psa03 value="0.7910920911" flag="0"/>
      <psa10 value="0.3027261182" flag="0"/>
      <psa30 value="0.0125832882" flag="0"/>
    </comp>
    <comp name="--.HHZ">
      <acc value="0.1635903661" flag="0"/>
      <vel value="0.1283234555" flag="0"/>
      <psa03 value="0.3244786038" flag="0"/>
      <psa10 value="0.2482818670" flag="0"/>
      <psa30 value="0.0075405276" flag="0"/>
    </comp>
    <comp name="--.HHE">
      <acc value="0.2996926890" flag="0"/>
      <vel value="0.2443066877" flag="0"/>
      <psa03 value="0.5665126975" flag="0"/>
      <psa10 value="0.4161072460" flag="0"/>
      <psa30 value="0.0291570303" flag="0"/>
    </comp>
  </station>
</stationlist>
