<stationlist xmlns:esm="https://esm-db.eu/esmws/shakemap/1/" created="1781229257">
	<station code="BERA1" name="BERA1" netid="AC" source="Albanian Seismological Network (AC)" insttype="" lat="40.708161" lon="19.945463" esm:processing="manual (Paolucci et al 2011)" esm:quality="good">
		<comp name="00.HNE" depth="None">
			<acc value="0.0189109943172484" flag="0"/>
			<vel value="0.00881625356755098" flag="0"/>
			<psa03 value="0.0584333218434629" flag="0"/>
			<psa10 value="0.00922539558262145" flag="0"/>
			<psa30 value="0.000527063193963241" flag="0"/>
		</comp>
		<comp name="00.HNN" depth="None">
			<acc value="0.0154806529722243" flag="0"/>
			<vel value="0.00914708016027566" flag="0"/>
			<psa03 value="0.0487242630072979" flag="0"/>
			<psa10 value="0.00943881590819061" flag="0"/>
			<psa30 value="0.000391046885843695" flag="0"/>
		</comp>
		<comp name="00.HNZ" depth="None">
			<acc value="0.010769709501227" flag="0"/>
			<vel value="0.00521275960235463" flag="0"/>
			<psa03 value="0.0201787351848406" flag="0"/>
			<psa10 value="0.00445766604537841" flag="0"/>
			<psa30 value="0.000302009894673334" flag="0"/>
		</comp>
	</station>
	<station code="DURR" name="DURR" netid="AC" source="Albanian Seismological Network (AC)" insttype="" lat="41.3199" lon="19.4573" esm:processing="manual (Paolucci et al 2011)" esm:quality="bad">
		<comp name="00.HNE" depth="None">
			<acc value="0.0835111057820997" flag="0"/>
			<vel value="0.0882941540063557" flag="0"/>
			<psa03 value="0.224068970744305" flag="0"/>
			<psa10 value="0.102103505191161" flag="0"/>
			<psa30 value="0.0078804448516762" flag="0"/>
		</comp>
		<comp name="00.HNN" depth="None">
			<acc value="0.103383159429793" flag="0"/>
			<vel value="0.0896022030335831" flag="0"/>
			<psa03 value="0.368452071501468" flag="0"/>
			<psa10 value="0.0973961776328525" flag="0"/>
			<psa30 value="0.00938959948091051" flag="0"/>
		</comp>
		<comp name="00.HNZ" depth="None">
			<acc value="0.0624559961323416" flag="0"/>
			<vel value="0.0466400473948339" flag="0"/>
			<psa03 value="0.231809372489266" flag="0"/>
			<psa10 value="0.0417337406452592" flag="0"/>
			<psa30 value="0.00606883290570238" flag="0"/>
		</comp>
	</station>
	<station code="FIER" name="FIER" netid="AC" source="Albanian Seismological Network (AC)" insttype="" lat="40.7174" lon="19.5669" esm:processing="manual (Paolucci et al 2011)" esm:quality="good">
		<comp name="00.HNE" depth="None">
			<acc value="0.0247410969854827" flag="0"/>
			<vel value="0.0136207329924166" flag="0"/>
			<psa03 value="0.0869788496659203" flag="0"/>
			<psa10 value="0.0171179208300846" flag="0"/>
			<psa30 value="0.00095166673477064" flag="0"/>
		</comp>
		<comp name="00.HNN" depth="None">
			<acc value="0.0259604213127948" flag="0"/>
			<vel value="0.0119631279849157" flag="0"/>
			<psa03 value="0.0556593050331301" flag="0"/>
			<psa10 value="0.0149072084010758" flag="0"/>
			<psa30 value="0.00115569119694996" flag="0"/>
		</comp>
		<comp name="00.HNZ" depth="None">
			<acc value="0.00913002701262233" flag="0"/>
			<vel value="0.00554299216463223" flag="0"/>
			<psa03 value="0.026174190871689" flag="0"/>
			<psa10 value="0.00700662955642136" flag="0"/>
			<psa30 value="0.000551671407603291" flag="0"/>
		</comp>
	</station>
	<station code="KBN" name="KBN" netid="AC" source="Albanian Seismological Network (AC)" insttype="" lat="40.6236" lon="20.7874" esm:processing="manual (Paolucci et al 2011)" esm:quality="good">
		<comp name="00.HNE" depth="0.0">
			<acc value="0.00418973597263429" flag="0"/>
			<vel value="0.00298620611837608" flag="0"/>
			<psa03 value="0.00944060559645534" flag="0"/>
			<psa10 value="0.00386169985322303" flag="0"/>
			<psa30 value="0.000664421768281335" flag="0"/>
		</comp>
		<comp name="00.HNN" depth="0.0">
			<acc value="0.0045205635481751" flag="0"/>
			<vel value="0.00558767949623366" flag="0"/>
			<psa03 value="0.0124383334398795" flag="0"/>
			<psa10 value="0.007554274165429" flag="0"/>
			<psa30 value="0.000528405460161789" flag="0"/>
		</comp>
		<comp name="00.HNZ" depth="0.0">
			<acc value="0.00269321446378866" flag="0"/>
			<vel value="0.00307675130316179" flag="0"/>
			<psa03 value="0.00854576146408991" flag="0"/>
			<psa10 value="0.00381740506867095" flag="0"/>
			<psa30 value="0.000455028241307824" flag="0"/>
		</comp>
	</station>
	<station code="LACI" name="LACI" netid="AC" source="Albanian Seismological Network (AC)" insttype="" lat="41.636682" lon="19.717809" esm:processing="manual (Paolucci et al 2011)" esm:quality="good">
		<comp name="00.HNE" depth="0.0">
			<acc value="0.0964700429075275" flag="0"/>
			<vel value="0.0297668035357918" flag="0"/>
			<psa03 value="0.198610655178508" flag="0"/>
			<psa10 value="0.0166105442070334" flag="0"/>
			<psa30 value="0.00151497111609468" flag="0"/>
		</comp>
		<comp name="00.HNN" depth="0.0">
			<acc value="0.0927382693034629" flag="0"/>
			<vel value="0.0293605191322699" flag="0"/>
			<psa03 value="0.153331542080817" flag="0"/>
			<psa10 value="0.0223326250114442" flag="0"/>
			<psa30 value="0.000912741015012744" flag="0"/>
		</comp>
		<comp name="00.HNZ" depth="0.0">
			<acc value="0.0794266485725042" flag="0"/>
			<vel value="0.0261332051560104" flag="0"/>
			<psa03 value="0.136821667838675" flag="0"/>
			<psa10 value="0.0207782807535254" flag="0"/>
			<psa30 value="0.00100312027238165" flag="0"/>
		</comp>
	</station>
	<station code="POGR" name="POGR" netid="AC" source="Albanian Seismological Network (AC)" insttype="" lat="40.8996" lon="20.679" esm:processing="manual (Paolucci et al 2011)" esm:quality="bad">
		<comp name="00.HNE" depth="None">
			<acc value="0.0333941966987776" flag="0"/>
			<vel value="0.0306827725775777" flag="0"/>
			<psa03 value="0.109394695181674" flag="0"/>
			<psa10 value="0.0479430640797429" flag="0"/>
			<psa30 value="0.00291092796258476" flag="0"/>
		</comp>
		<comp name="00.HNN" depth="None">
			<acc value="0.03749576223871" flag="0"/>
			<vel value="0.0316977310191434" flag="0"/>
			<psa03 value="0.138029707417368" flag="0"/>
			<psa10 value="0.0487524505974674" flag="0"/>
			<psa30 value="0.00329660578363426" flag="0"/>
		</comp>
		<comp name="00.HNZ" depth="None">
			<acc value="0.0172030346550901" flag="0"/>
			<vel value="0.0155021552068517" flag="0"/>
			<psa03 value="0.0479636454947873" flag="0"/>
			<psa10 value="0.0224896701566743" flag="0"/>
			<psa30 value="0.00104383568040428" flag="0"/>
		</comp>
	</station>
	<station code="TIR1" name="TIR1" netid="AC" source="Albanian Seismological Network (AC)" insttype="" lat="41.3357" lon="19.8078" esm:processing="manual (Paolucci et al 2011)" esm:quality="good">
		<comp name="00.HNE" depth="None">
			<acc value="0.125707519792957" flag="0"/>
			<vel value="0.0438693232001602" flag="0"/>
			<psa03 value="0.184561602300371" flag="0"/>
			<psa10 value="0.0517765763427964" flag="0"/>
			<psa30 value="0.00265634480692679" flag="0"/>
		</comp>
		<comp name="00.HNN" depth="None">
			<acc value="0.0983838817451382" flag="0"/>
			<vel value="0.0424635703842828" flag="0"/>
			<psa03 value="0.206977447816125" flag="0"/>
			<psa10 value="0.0775118461675602" flag="0"/>
			<psa30 value="0.00299414846689475" flag="0"/>
		</comp>
		<comp name="00.HNZ" depth="None">
			<acc value="0.0599053493995104" flag="0"/>
			<vel value="0.0214503825561932" flag="0"/>
			<psa03 value="0.0773592752429919" flag="0"/>
			<psa10 value="0.0237742189086849" flag="0"/>
			<psa30 value="0.00138432387276933" flag="0"/>
		</comp>
	</station>
</stationlist>
