<?xml version="1.0" encoding="UTF-8" standalone="yes"?>
<!DOCTYPE earthquake SYSTEM "stationlist.dtd">
<stationlist created="" xmlns="ch.ethz.sed.shakemap.usgs.xml">
  <station code="PUK" name="PUK" netid="AC" source="INGV" insttype="" lat="42.0426" lon="19.8926">
    <comp name="--.HHE">
      <acc value="0.5285599947" flag="0"/>
      <vel value="0.0777804729" flag="0"/>
      <psa03 value="0.4066503814" flag="0"/>
      <psa10 value="0.0219653432" flag="0"/>
      <psa30 value="0.0015087379" flag="0"/>
    </comp>
    <comp name="--.HHN">
      <acc value="0.0000000000" flag="0"/>
      <vel value="497358089990816337472609907503996522201735313283636315357318639255274665621158290535049972152061791108788827720559913333804926966739120909881916006218237885666265642009484518861307904.0000000000" flag="0"/>
    </comp>
    <comp name="--.HHZ">
      <acc value="15221261192996757164478169193475952670947018372997726196020234054669006177113466181383922286583586036869069096120686495601797269960928529978269353103341886559936065239983014625105069605830971621376.0000000000" flag="0"/>
      <vel value="0.0000000000" flag="0"/>
    </comp>
  </station>
  <station code="PDG" name="PDG" netid="MN" source="INGV" insttype="" lat="42.4297" lon="19.2608">
    <comp name="--.HHE">
      <acc value="0.4888204100" flag="0"/>
      <vel value="0.0495375185" flag="0"/>
      <psa03 value="0.1509470516" flag="0"/>
      <psa10 value="0.0303086071" flag="0"/>
      <psa30 value="0.0034753596" flag="0"/>
    </comp>
    <comp name="--.HHN">
      <acc value="0.3763950028" flag="0"/>
      <vel value="0.0603748222" flag="0"/>
      <psa03 value="0.1397458210" flag="0"/>
      <psa10 value="0.0443073867" flag="0"/>
      <psa30 value="0.0070350786" flag="0"/>
    </comp>
    <comp name="--.HHZ">
      <acc value="0.2458938990" flag="0"/>
      <vel value="0.0327172793" flag="0"/>
      <psa03 value="0.1071846964" flag="0"/>
      <psa10 value="0.0111550019" flag="0"/>
      <psa30 value="0.0024235857" flag="0"/>
    </comp>
  </station>
  <station code="TIR" name="TIR" netid="MN" source="INGV" insttype="" lat="41.3472" lon="19.8631">
    <comp name="--.HHE">
      <acc value="0.0830631008" flag="0"/>
      <vel value="0.0405283822" flag="0"/>
      <psa03 value="0.3621855719" flag="0"/>
      <psa10 value="0.0331763910" flag="0"/>
      <psa30 value="0.0015679998" flag="0"/>
    </comp>
    <comp name="--.HHN">
      <acc value="0.0724385431" flag="0"/>
      <vel value="0.0355812511" flag="0"/>
      <psa03 value="0.1221597433" flag="0"/>
      <psa10 value="0.0234181397" flag="0"/>
      <psa30 value="0.0015708139" flag="0"/>
    </comp>
    <comp name="--.HHZ">
      <acc value="0.0624351931" flag="0"/>
      <vel value="0.0205553065" flag="0"/>
      <psa03 value="0.0670904543" flag="0"/>
      <psa10 value="0.0294107594" flag="0"/>
      <psa30 value="0.0017162507" flag="0"/>
    </comp>
  </station>
</stationlist>
