<?xml version="1.0" encoding="UTF-8" standalone="yes"?>
<!DOCTYPE earthquake SYSTEM "stationlist.dtd">
<stationlist created="" xmlns="ch.ethz.sed.shakemap.usgs.xml">
  <station code="GVD" name="GVD" netid="GE" insttype="STS-2/N" lat="34.8391" lon="24.0874">
    <comp name="--.HHE">
      <acc value="0.3633963984" flag="0"/>
      <vel value="0.0497605569" flag="0"/>
      <psa03 value="0.1457017565" flag="0"/>
      <psa10 value="0.0473954729" flag="0"/>
      <psa30 value="0.0120823774" flag="0"/>
    </comp>
    <comp name="--.HHN">
      <acc value="0.0347680741" flag="0"/>
      <vel value="0.0183254871" flag="0"/>
      <psa03 value="0.1422687949" flag="0"/>
      <psa10 value="0.0284141260" flag="0"/>
      <psa30 value="0.0011344364" flag="0"/>
    </comp>
    <comp name="--.HHZ">
      <acc value="0.0165748721" flag="0"/>
      <vel value="0.0084142693" flag="0"/>
      <psa03 value="0.0459064027" flag="0"/>
      <psa10 value="0.0155036331" flag="0"/>
      <psa30 value="0.0006334861" flag="0"/>
    </comp>
  </station>
  <station code="IMMV" name="IMMV" netid="GE" insttype="STS-2/N" lat="35.4606" lon="23.9811">
    <comp name="--.HHZ">
      <acc value="0.0140284425" flag="0"/>
      <vel value="0.0067227697" flag="0"/>
      <psa03 value="0.0483865385" flag="0"/>
      <psa10 value="0.0117620714" flag="0"/>
      <psa30 value="0.0008347562" flag="0"/>
    </comp>
    <comp name="--.HHE">
      <acc value="0.0127644978" flag="0"/>
      <vel value="0.0116844679" flag="0"/>
      <psa03 value="0.0492849814" flag="0"/>
      <psa10 value="0.0180983669" flag="0"/>
      <psa30 value="0.0010512890" flag="0"/>
    </comp>
    <comp name="--.HHN">
      <acc value="0.0164084141" flag="0"/>
      <vel value="0.0103561237" flag="0"/>
      <psa03 value="0.0559262311" flag="0"/>
      <psa10 value="0.0105006899" flag="0"/>
      <psa30 value="0.0009023645" flag="0"/>
    </comp>
  </station>
  <station code="CHAN" name="CHAN" netid="HC" insttype="120" lat="35.5193" lon="24.0428">
    <comp name="--.HHN">
      <acc value="0.0308858503" flag="0"/>
      <vel value="0.0243224932" flag="0"/>
      <psa03 value="0.0655740174" flag="0"/>
      <psa10 value="0.0537083818" flag="0"/>
      <psa30 value="0.0025284670" flag="0"/>
    </comp>
    <comp name="--.HHE">
      <acc value="0.0280955381" flag="0"/>
      <vel value="0.0287589920" flag="0"/>
      <psa03 value="0.0713111671" flag="0"/>
      <psa10 value="0.0617827842" flag="0"/>
      <psa30 value="0.0036406657" flag="0"/>
    </comp>
    <comp name="--.HHZ">
      <acc value="0.0190242573" flag="0"/>
      <vel value="0.0120614212" flag="0"/>
      <psa03 value="0.0481418754" flag="0"/>
      <psa10 value="0.0184898113" flag="0"/>
      <psa30 value="0.0021873142" flag="0"/>
    </comp>
  </station>
  <station code="DEYA" name="DEYA" netid="HC" insttype="DC" lat="35.4825" lon="24.014">
    <comp name="--.HNN">
      <acc value="0.0027837119" flag="0"/>
      <vel value="0.0024368212" flag="0"/>
      <psa03 value="0.0076369142" flag="0"/>
      <psa10 value="0.0039940850" flag="0"/>
      <psa30 value="0.0002031587" flag="0"/>
    </comp>
    <comp name="--.HNE">
      <acc value="0.0037990607" flag="0"/>
      <vel value="0.0029275795" flag="0"/>
      <psa03 value="0.0094293007" flag="0"/>
      <psa10 value="0.0041290173" flag="0"/>
      <psa30 value="0.0003156267" flag="0"/>
    </comp>
    <comp name="--.HNZ">
      <acc value="0.0017393758" flag="0"/>
      <vel value="0.0011578166" flag="0"/>
      <psa03 value="0.0058979583" flag="0"/>
      <psa10 value="0.0016775212" flag="0"/>
      <psa30 value="0.0001303263" flag="0"/>
    </comp>
  </station>
  <station code="GVDS" name="GVDS" netid="HC" insttype="60" lat="34.8389" lon="24.0585">
    <comp name="--.HHZ">
      <acc value="0.0155861691" flag="0"/>
      <vel value="0.0079373522" flag="0"/>
      <psa03 value="0.0329488550" flag="0"/>
      <psa10 value="0.0084740138" flag="0"/>
      <psa30 value="0.0007016382" flag="0"/>
    </comp>
    <comp name="--.HHN">
      <acc value="0.0239811028" flag="0"/>
      <vel value="0.0170296168" flag="0"/>
      <psa03 value="0.0927774884" flag="0"/>
      <psa10 value="0.0250759515" flag="0"/>
      <psa30 value="0.0009187918" flag="0"/>
    </comp>
    <comp name="--.HHE">
      <acc value="0.0247399666" flag="0"/>
      <vel value="0.0130495371" flag="0"/>
      <psa03 value="0.0743148561" flag="0"/>
      <psa10 value="0.0154382719" flag="0"/>
      <psa30 value="0.0008753821" flag="0"/>
    </comp>
  </station>
  <station code="IMOD" name="IMOD" netid="HC" insttype="120" lat="34.9731" lon="24.7995">
    <comp name="--.HHE">
      <acc value="0.1890806889" flag="0"/>
      <vel value="0.1216804950" flag="0"/>
      <psa03 value="0.6507939455" flag="0"/>
      <psa10 value="0.0910706829" flag="0"/>
      <psa30 value="0.0053075029" flag="0"/>
    </comp>
    <comp name="--.HHZ">
      <acc value="0.1273664251" flag="0"/>
      <vel value="0.1135013291" flag="0"/>
      <psa03 value="0.2781541003" flag="0"/>
      <psa10 value="0.1130431822" flag="0"/>
      <psa30 value="0.0058021014" flag="0"/>
    </comp>
    <comp name="--.HHN">
      <acc value="0.1854117606" flag="0"/>
      <vel value="0.1352804189" flag="0"/>
      <psa03 value="0.5273881179" flag="0"/>
      <psa10 value="0.1184651850" flag="0"/>
      <psa30 value="0.0052860273" flag="0"/>
    </comp>
  </station>
  <station code="IPPL" name="IPPL" netid="HC" insttype="60" lat="35.3486" lon="24.4632">
    <comp name="--.HHZ">
      <acc value="0.0295122761" flag="0"/>
      <vel value="0.0143814294" flag="0"/>
      <psa03 value="0.0821722974" flag="0"/>
      <psa10 value="0.0149611376" flag="0"/>
      <psa30 value="0.0007229884" flag="0"/>
    </comp>
    <comp name="--.HHN">
      <acc value="0.0315084706" flag="0"/>
      <vel value="0.0198354284" flag="0"/>
      <psa03 value="0.1503283436" flag="0"/>
      <psa10 value="0.0476325432" flag="0"/>
      <psa30 value="0.0021786226" flag="0"/>
    </comp>
    <comp name="--.HHE">
      <acc value="0.0331173432" flag="0"/>
      <vel value="0.0227696032" flag="0"/>
      <psa03 value="0.1295352930" flag="0"/>
      <psa10 value="0.0313736019" flag="0"/>
      <psa30 value="0.0016354420" flag="0"/>
    </comp>
  </station>
  <station code="KNSS" name="KNSS" netid="HC" insttype="60" lat="35.3042" lon="25.1802">
    <comp name="--.HHN">
      <acc value="0.1547233644" flag="0"/>
      <vel value="0.0532784813" flag="0"/>
      <psa03 value="0.3210079851" flag="0"/>
      <psa10 value="0.0248304085" flag="0"/>
      <psa30 value="0.0023115266" flag="0"/>
    </comp>
    <comp name="--.HHE">
      <acc value="0.1123665599" flag="0"/>
      <vel value="0.0494989439" flag="0"/>
      <psa03 value="0.3427884530" flag="0"/>
      <psa10 value="0.0387388492" flag="0"/>
      <psa30 value="0.0024198134" flag="0"/>
    </comp>
    <comp name="--.HHZ">
      <acc value="0.0907781166" flag="0"/>
      <vel value="0.0430325138" flag="0"/>
      <psa03 value="0.2532299999" flag="0"/>
      <psa10 value="0.0139142360" flag="0"/>
      <psa30 value="0.0011667713" flag="0"/>
    </comp>
  </station>
  <station code="PFKS" name="PFKS" netid="HC" insttype="120" lat="35.0429" lon="25.4733">
    <comp name="--.HHN">
      <acc value="1.4820252310" flag="0"/>
      <vel value="0.4667617407" flag="0"/>
      <psa03 value="2.3723110990" flag="0"/>
      <psa10 value="0.1266756581" flag="0"/>
      <psa30 value="0.0099043696" flag="0"/>
    </comp>
    <comp name="--.HHE">
      <acc value="13.6716719136" flag="0"/>
      <vel value="0.5635167648" flag="0"/>
      <psa03 value="3.7683973590" flag="0"/>
      <psa10 value="0.1697582464" flag="0"/>
      <psa30 value="0.0237195172" flag="0"/>
    </comp>
    <comp name="--.HHZ">
      <acc value="0.8476925393" flag="0"/>
      <vel value="0.2399424693" flag="0"/>
      <psa03 value="1.3018162766" flag="0"/>
      <psa10 value="0.0503016360" flag="0"/>
      <psa30 value="0.0056058834" flag="0"/>
    </comp>
  </station>
  <station code="STIA" name="STIA" netid="HC" insttype="120" lat="35.2021" lon="26.0909">
    <comp name="--.HHZ">
      <acc value="0.0494422003" flag="0"/>
      <vel value="0.0232408911" flag="0"/>
      <psa03 value="0.1213188961" flag="0"/>
      <psa10 value="0.0140153017" flag="0"/>
      <psa30 value="0.0008330795" flag="0"/>
    </comp>
    <comp name="--.HHE">
      <acc value="0.0592015062" flag="0"/>
      <vel value="0.0370475826" flag="0"/>
      <psa03 value="0.1971196344" flag="0"/>
      <psa10 value="0.0375698005" flag="0"/>
      <psa30 value="0.0014184238" flag="0"/>
    </comp>
    <comp name="--.HHN">
      <acc value="0.0595523793" flag="0"/>
      <vel value="0.0220318767" flag="0"/>
      <psa03 value="0.1428402291" flag="0"/>
      <psa10 value="0.0240246987" flag="0"/>
      <psa30 value="0.0010734093" flag="0"/>
    </comp>
  </station>
  <station code="GVD" name="GVD" netid="HL" insttype="120" lat="34.8391" lon="24.0874">
    <comp name="--.HHZ">
      <acc value="0.0164012480" flag="0"/>
      <vel value="0.0082734811" flag="0"/>
      <psa03 value="0.0445849437" flag="0"/>
      <psa10 value="0.0153752245" flag="0"/>
      <psa30 value="0.0006323340" flag="0"/>
    </comp>
    <comp name="--.HHN">
      <acc value="0.0339582012" flag="0"/>
      <vel value="0.0178226923" flag="0"/>
      <psa03 value="0.1382471479" flag="0"/>
      <psa10 value="0.0282209112" flag="0"/>
      <psa30 value="0.0011254125" flag="0"/>
    </comp>
    <comp name="--.HHE">
      <acc value="0.3850679342" flag="0"/>
      <vel value="0.0512373322" flag="0"/>
      <psa03 value="0.1419678670" flag="0"/>
      <psa10 value="0.0471040178" flag="0"/>
      <psa30 value="0.0120873472" flag="0"/>
    </comp>
  </station>
  <station code="IACM" name="IACM" netid="HL" insttype="120" lat="35.3058" lon="25.0709">
    <comp name="--.HHZ">
      <acc value="0.2082331286" flag="0"/>
      <vel value="0.0801569396" flag="0"/>
      <psa03 value="0.4208740535" flag="0"/>
      <psa10 value="0.0698959825" flag="0"/>
      <psa30 value="0.0033111921" flag="0"/>
    </comp>
    <comp name="--.HHE">
      <acc value="0.3304866807" flag="0"/>
      <vel value="0.1743393009" flag="0"/>
      <psa03 value="1.1368912247" flag="0"/>
      <psa10 value="0.2372380971" flag="0"/>
      <psa30 value="0.0080283482" flag="0"/>
    </comp>
    <comp name="--.HHN">
      <acc value="0.2955805580" flag="0"/>
      <vel value="0.1776059835" flag="0"/>
      <psa03 value="0.7662243499" flag="0"/>
      <psa10 value="0.1105417541" flag="0"/>
      <psa30 value="0.0055037902" flag="0"/>
    </comp>
  </station>
  <station code="IDI" name="IDI" netid="HL" insttype="120" lat="35.288" lon="24.89">
    <comp name="--.HHE">
      <acc value="0.0570612704" flag="0"/>
      <vel value="0.0227094879" flag="0"/>
      <psa03 value="0.0900237211" flag="0"/>
      <psa10 value="0.0132027393" flag="0"/>
      <psa30 value="0.0007163805" flag="0"/>
    </comp>
    <comp name="--.HHN">
      <acc value="0.0418424919" flag="0"/>
      <vel value="0.0178888494" flag="0"/>
      <psa03 value="0.1245300034" flag="0"/>
      <psa10 value="0.0141682219" flag="0"/>
      <psa30 value="0.0007295453" flag="0"/>
    </comp>
    <comp name="--.HHZ">
      <acc value="0.0400771543" flag="0"/>
      <vel value="0.0186601835" flag="0"/>
      <psa03 value="0.1649729792" flag="0"/>
      <psa10 value="0.0097250182" flag="0"/>
      <psa30 value="0.0006717330" flag="0"/>
    </comp>
  </station>
  <station code="IMMV" name="IMMV" netid="HL" insttype="120" lat="35.4606" lon="23.9811">
    <comp name="--.HHE">
      <acc value="0.0124098301" flag="0"/>
      <vel value="0.0115125790" flag="0"/>
      <psa03 value="0.0479039867" flag="0"/>
      <psa10 value="0.0179556148" flag="0"/>
      <psa30 value="0.0010470903" flag="0"/>
    </comp>
    <comp name="--.HHN">
      <acc value="0.0159440212" flag="0"/>
      <vel value="0.0101750706" flag="0"/>
      <psa03 value="0.0543618418" flag="0"/>
      <psa10 value="0.0104138095" flag="0"/>
      <psa30 value="0.0009005758" flag="0"/>
    </comp>
    <comp name="--.HHZ">
      <acc value="0.0135939435" flag="0"/>
      <vel value="0.0065956038" flag="0"/>
      <psa03 value="0.0470095576" flag="0"/>
      <psa10 value="0.0116904524" flag="0"/>
      <psa30 value="0.0008314729" flag="0"/>
    </comp>
  </station>
  <station code="KSTE" name="KSTE" netid="HL" insttype="60" lat="35.1801" lon="25.3372">
    <comp name="--.HHZ">
      <acc value="0.2998820259" flag="0"/>
      <vel value="0.0893317813" flag="0"/>
      <psa03 value="0.3328751965" flag="0"/>
      <psa10 value="0.0288545190" flag="0"/>
      <psa30 value="0.0027014951" flag="0"/>
    </comp>
    <comp name="--.HHN">
      <acc value="0.5948101308" flag="0"/>
      <vel value="0.1549478170" flag="0"/>
      <psa03 value="0.5983270411" flag="0"/>
      <psa10 value="0.0462115292" flag="0"/>
      <psa30 value="0.0038192879" flag="0"/>
    </comp>
    <comp name="--.HHE">
      <acc value="0.4106792626" flag="0"/>
      <vel value="0.1228328050" flag="0"/>
      <psa03 value="0.4838231489" flag="0"/>
      <psa10 value="0.0492884588" flag="0"/>
      <psa30 value="0.0053649538" flag="0"/>
    </comp>
  </station>
  <station code="NPS" name="NPS" netid="HL" insttype="CMG3ESPC-120s" lat="35.2613" lon="25.6104">
    <comp name="--.HHN">
      <acc value="0.0993437071" flag="0"/>
      <vel value="0.0465805077" flag="0"/>
      <psa03 value="0.1343680820" flag="0"/>
      <psa10 value="0.0322057243" flag="0"/>
      <psa30 value="0.0013996120" flag="0"/>
    </comp>
    <comp name="--.HHE">
      <acc value="0.0593977136" flag="0"/>
      <vel value="0.0203249579" flag="0"/>
      <psa03 value="0.1466296418" flag="0"/>
      <psa10 value="0.0181005633" flag="0"/>
      <psa30 value="0.0007142674" flag="0"/>
    </comp>
    <comp name="--.HHZ">
      <acc value="0.0797617104" flag="0"/>
      <vel value="0.0222605083" flag="0"/>
      <psa03 value="0.1491725841" flag="0"/>
      <psa10 value="0.0203889125" flag="0"/>
      <psa30 value="0.0009267524" flag="0"/>
    </comp>
  </station>
  <station code="SIVA" name="SIVA" netid="HL" insttype="60" lat="35.0178" lon="24.812">
    <comp name="--.HHN">
      <acc value="0.1703434684" flag="0"/>
      <vel value="0.1157091262" flag="0"/>
      <psa03 value="0.4518017372" flag="0"/>
      <psa10 value="0.0888440983" flag="0"/>
      <psa30 value="0.0043230438" flag="0"/>
    </comp>
    <comp name="--.HHE">
      <acc value="0.2435936612" flag="0"/>
      <vel value="0.1140767642" flag="0"/>
      <psa03 value="0.6874209483" flag="0"/>
      <psa10 value="0.0699615551" flag="0"/>
      <psa30 value="0.0040597180" flag="0"/>
    </comp>
    <comp name="--.HHZ">
      <acc value="0.1265969085" flag="0"/>
      <vel value="0.0784976601" flag="0"/>
      <psa03 value="0.3811993910" flag="0"/>
      <psa10 value="0.0671456405" flag="0"/>
      <psa30 value="0.0032700269" flag="0"/>
    </comp>
  </station>
  <station code="VAM" name="VAM" netid="HL" insttype="CMG3ESPC-120s" lat="35.407" lon="24.1997">
    <comp name="--.HHZ">
      <acc value="0.0141306801" flag="0"/>
      <vel value="0.0086329161" flag="0"/>
      <psa03 value="0.0503831663" flag="0"/>
      <psa10 value="0.0084828678" flag="0"/>
      <psa30 value="0.0010829453" flag="0"/>
    </comp>
    <comp name="--.HHN">
      <acc value="0.0276112149" flag="0"/>
      <vel value="0.0153913294" flag="0"/>
      <psa03 value="0.0825276430" flag="0"/>
      <psa10 value="0.0255224965" flag="0"/>
      <psa30 value="0.0015655560" flag="0"/>
    </comp>
    <comp name="--.HHE">
      <acc value="0.0258345772" flag="0"/>
      <vel value="0.0129714230" flag="0"/>
      <psa03 value="0.0511402641" flag="0"/>
      <psa10 value="0.0120789298" flag="0"/>
      <psa30 value="0.0009077279" flag="0"/>
    </comp>
  </station>
  <station code="IDI" name="IDI" netid="MN" insttype="" lat="35.288" lon="24.89">
    <comp name="--.HHE">
      <acc value="0.0625295446" flag="0"/>
      <vel value="0.0228409488" flag="0"/>
      <psa03 value="0.0904569991" flag="0"/>
      <psa10 value="0.0132026470" flag="0"/>
      <psa30 value="0.0007124467" flag="0"/>
    </comp>
    <comp name="--.HHN">
      <acc value="0.0431293972" flag="0"/>
      <vel value="0.0181349962" flag="0"/>
      <psa03 value="0.1254681181" flag="0"/>
      <psa10 value="0.0141065005" flag="0"/>
      <psa30 value="0.0007262128" flag="0"/>
    </comp>
    <comp name="--.HHZ">
      <acc value="0.0405683043" flag="0"/>
      <vel value="0.0189899973" flag="0"/>
      <psa03 value="0.1668726335" flag="0"/>
      <psa10 value="0.0096742523" flag="0"/>
      <psa30 value="0.0006711234" flag="0"/>
    </comp>
  </station>
</stationlist>
