<stationlist xmlns:esm="https://esm-db.eu/esmws/shakemap/1/" created="1780710864">
	<station code="KOS2" name="KOS2" netid="HI" source="ITSAK Strong Motion Network" insttype="" lat="36.8941" lon="27.2888" esm:processing="automatic (Paolucci et al 2011)" esm:quality="best">
		<comp name="--.HNE" depth="0.0">
			<acc value="0.193307895593831" flag="0"/>
			<vel value="0.121542196660036" flag="0"/>
			<psa03 value="0.578749714328218" flag="0"/>
			<psa10 value="0.11122383303308" flag="0"/>
			<psa30 value="0.0232464632974391" flag="0"/>
		</comp>
		<comp name="--.HNN" depth="0.0">
			<acc value="0.267323378984436" flag="0"/>
			<vel value="0.203807274737104" flag="0"/>
			<psa03 value="0.894122481226256" flag="0"/>
			<psa10 value="0.118876132460362" flag="0"/>
			<psa30 value="0.0268059290945792" flag="0"/>
		</comp>
		<comp name="--.HNZ" depth="0.0">
			<acc value="0.232927060833656" flag="0"/>
			<vel value="0.0605261298008137" flag="0"/>
			<psa03 value="0.287060433011534" flag="0"/>
			<psa10 value="0.0610260864287254" flag="0"/>
			<psa30 value="0.0157711430941626" flag="0"/>
		</comp>
	</station>
	<station code="KRL1" name="KRL1" netid="HI" source="ITSAK Strong Motion Network" insttype="" lat="37.7951" lon="26.7065" esm:processing="manual (Paolucci et al 2011)" esm:quality="best">
		<comp name="--.HNE" depth="0.0">
			<acc value="0.0171679256091511" flag="0"/>
			<vel value="0.016843627640145" flag="0"/>
			<psa03 value="0.0456178448752281" flag="0"/>
			<psa10 value="0.0191032479964422" flag="0"/>
			<psa30 value="0.00521826735127747" flag="0"/>
		</comp>
		<comp name="--.HNN" depth="0.0">
			<acc value="0.0188355789772303" flag="0"/>
			<vel value="0.0159024152829724" flag="0"/>
			<psa03 value="0.0381810787882746" flag="0"/>
			<psa10 value="0.0407241165229956" flag="0"/>
			<psa30 value="0.00248446270846142" flag="0"/>
		</comp>
		<comp name="--.HNZ" depth="0.0">
			<acc value="0.00676580794048483" flag="0"/>
			<vel value="0.00947893444172385" flag="0"/>
			<psa03 value="0.0184619612956011" flag="0"/>
			<psa10 value="0.0174005770778313" flag="0"/>
			<psa30 value="0.00358482789392089" flag="0"/>
		</comp>
	</station>
	<station code="NAX1" name="NAX1" netid="HI" source="ITSAK Strong Motion Network" insttype="" lat="37.101394" lon="25.374103" esm:processing="manual (Paolucci et al 2011)" esm:quality="bad">
		<comp name="--.HNE" depth="0.0">
			<acc value="0.00114977612497443" flag="0"/>
			<vel value="0.000799030966235786" flag="0"/>
			<psa03 value="0.00182635210665748" flag="0"/>
			<psa10 value="0.00151265790147431" flag="0"/>
			<psa30 value="0.000259180737160097" flag="0"/>
		</comp>
		<comp name="--.HNN" depth="0.0">
			<acc value="0.00166606259521715" flag="0"/>
			<vel value="0.000820418069410811" flag="0"/>
			<psa03 value="0.00484792889890484" flag="0"/>
			<psa10 value="0.000772003465658953" flag="0"/>
			<psa30 value="0.000133084441191284" flag="0"/>
		</comp>
		<comp name="--.HNZ" depth="0.0">
			<acc value="0.0015708060028935" flag="0"/>
			<vel value="0.00123660252452883" flag="0"/>
			<psa03 value="0.00286858065439145" flag="0"/>
			<psa10 value="0.00088287235314765" flag="0"/>
			<psa30 value="0.000321869264967589" flag="0"/>
		</comp>
	</station>
	<station code="RDI1" name="RDI1" netid="HI" source="ITSAK Strong Motion Network" insttype="" lat="36.4514" lon="28.224" esm:processing="manual (Paolucci et al 2011)" esm:quality="good">
		<comp name="--.HNE" depth="0.0">
			<acc value="0.0509450620785586" flag="0"/>
			<vel value="0.037520197512395" flag="0"/>
			<psa03 value="0.132884353656267" flag="0"/>
			<psa10 value="0.0868741529024335" flag="0"/>
			<psa30 value="0.0105922699948097" flag="0"/>
		</comp>
		<comp name="--.HNN" depth="0.0">
			<acc value="0.0405899479446292" flag="0"/>
			<vel value="0.0361471158525088" flag="0"/>
			<psa03 value="0.114495306736157" flag="0"/>
			<psa10 value="0.0491269428668624" flag="0"/>
			<psa30 value="0.00874620654973976" flag="0"/>
		</comp>
		<comp name="--.HNZ" depth="0.0">
			<acc value="0.0344885508061389" flag="0"/>
			<vel value="0.0293264267855599" flag="0"/>
			<psa03 value="0.108768304289019" flag="0"/>
			<psa10 value="0.0383472030263222" flag="0"/>
			<psa30 value="0.00359951052243996" flag="0"/>
		</comp>
	</station>
	<station code="RGE1" name="RGE1" netid="HI" source="ITSAK Strong Motion Network" insttype="" lat="36.0269" lon="27.9306" esm:processing="manual (Paolucci et al 2011)" esm:quality="best">
		<comp name="--.HNE" depth="0.0">
			<acc value="0.0400949448159695" flag="0"/>
			<vel value="0.0260030858546196" flag="0"/>
			<psa03 value="0.063712902224419" flag="0"/>
			<psa10 value="0.022481616559483" flag="0"/>
			<psa30 value="0.00240623587193065" flag="0"/>
		</comp>
		<comp name="--.HNN" depth="0.0">
			<acc value="0.0335737015275362" flag="0"/>
			<vel value="0.0350662956006811" flag="0"/>
			<psa03 value="0.108007686776508" flag="0"/>
			<psa10 value="0.0571040308848341" flag="0"/>
			<psa30 value="0.00369570626666925" flag="0"/>
		</comp>
		<comp name="--.HNZ" depth="0.0">
			<acc value="0.0191057598570444" flag="0"/>
			<vel value="0.0217318132034673" flag="0"/>
			<psa03 value="0.0586570328765543" flag="0"/>
			<psa10 value="0.0261460032815195" flag="0"/>
			<psa30 value="0.00260847064584524" flag="0"/>
		</comp>
	</station>
	<station code="RKL1" name="RKL1" netid="HI" source="ITSAK Strong Motion Network" insttype="" lat="36.336699" lon="28.171224" esm:processing="manual (Paolucci et al 2011)" esm:quality="good">
		<comp name="--.HNE" depth="0.0">
			<acc value="0.0610452271813979" flag="0"/>
			<vel value="0.0426344111957142" flag="0"/>
			<psa03 value="0.169877128526051" flag="0"/>
			<psa10 value="0.111127879176608" flag="0"/>
			<psa30 value="0.0041963771560585" flag="0"/>
		</comp>
		<comp name="--.HNN" depth="0.0">
			<acc value="0.0735735254339034" flag="0"/>
			<vel value="0.0741763007872571" flag="0"/>
			<psa03 value="0.180374636434431" flag="0"/>
			<psa10 value="0.0858683958598054" flag="0"/>
			<psa30 value="0.00460216778769633" flag="0"/>
		</comp>
		<comp name="--.HNZ" depth="0.0">
			<acc value="0.0364465588073682" flag="0"/>
			<vel value="0.0226560586300889" flag="0"/>
			<psa03 value="0.0981924526847534" flag="0"/>
			<psa10 value="0.022245277390453" flag="0"/>
			<psa30 value="0.00218293148349751" flag="0"/>
		</comp>
	</station>
	<station code="RKT1" name="RKT1" netid="HI" source="ITSAK Strong Motion Network" insttype="" lat="35.954336" lon="27.767327" esm:processing="automatic (Paolucci et al 2011)" esm:quality="best">
		<comp name="--.HNE" depth="0.0">
			<acc value="0.0211053112851647" flag="0"/>
			<vel value="0.0104613427647615" flag="0"/>
			<psa03 value="0.0505392333928452" flag="0"/>
			<psa10 value="0.0146265914398993" flag="0"/>
			<psa30 value="0.00163028633180178" flag="0"/>
		</comp>
		<comp name="--.HNN" depth="0.0">
			<acc value="0.0176392440870401" flag="0"/>
			<vel value="0.0113678150626586" flag="0"/>
			<psa03 value="0.0505143307014975" flag="0"/>
			<psa10 value="0.0219743294414811" flag="0"/>
			<psa30 value="0.00228434257648472" flag="0"/>
		</comp>
		<comp name="--.HNZ" depth="0.0">
			<acc value="0.00911487355405277" flag="0"/>
			<vel value="0.00619027080325153" flag="0"/>
			<psa03 value="0.0189486927578998" flag="0"/>
			<psa10 value="0.00603138720605189" flag="0"/>
			<psa30 value="0.00175069597501637" flag="0"/>
		</comp>
	</station>
	<station code="RLN1" name="RLN1" netid="HI" source="ITSAK Strong Motion Network" insttype="" lat="36.089085" lon="28.086909" esm:processing="automatic (Paolucci et al 2011)" esm:quality="best">
		<comp name="--.HNE" depth="0.0">
			<acc value="0.0198757494387627" flag="0"/>
			<vel value="0.00964033523676018" flag="0"/>
			<psa03 value="0.047434600642829" flag="0"/>
			<psa10 value="0.0120439341015257" flag="0"/>
			<psa30 value="0.00403353428518417" flag="0"/>
		</comp>
		<comp name="--.HNN" depth="0.0">
			<acc value="0.0125710722060518" flag="0"/>
			<vel value="0.0114602164518247" flag="0"/>
			<psa03 value="0.0525294641942016" flag="0"/>
			<psa10 value="0.0162558774971045" flag="0"/>
			<psa30 value="0.00236018218381984" flag="0"/>
		</comp>
		<comp name="--.HNZ" depth="0.0">
			<acc value="0.010925803141531" flag="0"/>
			<vel value="0.00866158243638848" flag="0"/>
			<psa03 value="0.0317513924364212" flag="0"/>
			<psa10 value="0.00647861886420434" flag="0"/>
			<psa30 value="0.00171149139873893" flag="0"/>
		</comp>
	</station>
	<station code="RPN1" name="RPN1" netid="HI" source="ITSAK Strong Motion Network" insttype="" lat="36.448678" lon="28.218047" esm:processing="manual (Paolucci et al 2011)" esm:quality="good">
		<comp name="--.HNE" depth="0.0">
			<acc value="0.0461305243368317" flag="0"/>
			<vel value="0.0382330694706378" flag="0"/>
			<psa03 value="0.0938425291069981" flag="0"/>
			<psa10 value="0.0555518862898322" flag="0"/>
			<psa30 value="0.00905635827262259" flag="0"/>
		</comp>
		<comp name="--.HNN" depth="0.0">
			<acc value="0.0590018485387943" flag="0"/>
			<vel value="0.0490090257436757" flag="0"/>
			<psa03 value="0.195350878536971" flag="0"/>
			<psa10 value="0.0479656474887429" flag="0"/>
			<psa30 value="0.00718149573884774" flag="0"/>
		</comp>
		<comp name="--.HNZ" depth="0.0">
			<acc value="0.040930594831251" flag="0"/>
			<vel value="0.0242374357577645" flag="0"/>
			<psa03 value="0.106789355520708" flag="0"/>
			<psa10 value="0.0469206557631697" flag="0"/>
			<psa30 value="0.00346034943950118" flag="0"/>
		</comp>
	</station>
	<station code="RSO1" name="RSO1" netid="HI" source="ITSAK Strong Motion Network" insttype="" lat="36.3632" lon="28.0016" esm:processing="automatic (Paolucci et al 2011)" esm:quality="best">
		<comp name="--.HNE" depth="0.0">
			<acc value="0.0891437970303735" flag="0"/>
			<vel value="0.0414551995867332" flag="0"/>
			<psa03 value="0.314846940397946" flag="0"/>
			<psa10 value="0.0912352863899637" flag="0"/>
			<psa30 value="0.00432001742995319" flag="0"/>
		</comp>
		<comp name="--.HNN" depth="0.0">
			<acc value="0.0928117076870008" flag="0"/>
			<vel value="0.072116639224323" flag="0"/>
			<psa03 value="0.368107176960564" flag="0"/>
			<psa10 value="0.106063963717061" flag="0"/>
			<psa30 value="0.0066599516057752" flag="0"/>
		</comp>
		<comp name="--.HNZ" depth="0.0">
			<acc value="0.0361768286363385" flag="0"/>
			<vel value="0.0257956069328724" flag="0"/>
			<psa03 value="0.10628670763942" flag="0"/>
			<psa10 value="0.0361926763371829" flag="0"/>
			<psa30 value="0.00360250989860058" flag="0"/>
		</comp>
	</station>
	<station code="KLNA" name="KLNA" netid="HL" source="National Observatory of Athens Seismic Network" insttype="" lat="36.95708" lon="26.97274" esm:processing="manual (Paolucci et al 2011)" esm:quality="best">
		<comp name="00.HNE" depth="0.0">
			<acc value="0.0977018501862263" flag="0"/>
			<vel value="0.0304035688584026" flag="0"/>
			<psa03 value="0.165054000214805" flag="0"/>
			<psa10 value="0.00862942939046607" flag="0"/>
			<psa30 value="0.00102056973296278" flag="0"/>
		</comp>
		<comp name="00.HNN" depth="0.0">
			<acc value="0.0869042115214265" flag="0"/>
			<vel value="0.0227140531799628" flag="0"/>
			<psa03 value="0.140669497607846" flag="0"/>
			<psa10 value="0.00746568459632482" flag="0"/>
			<psa30 value="0.00134271362061434" flag="0"/>
		</comp>
		<comp name="00.HNZ" depth="0.0">
			<acc value="0.108564307642444" flag="0"/>
			<vel value="0.0294514569648781" flag="0"/>
			<psa03 value="0.0650999106295854" flag="0"/>
			<psa10 value="0.00620126983729246" flag="0"/>
			<psa30 value="0.00191093964466639" flag="0"/>
		</comp>
	</station>
	<station code="NISR" name="NISR" netid="HL" source="National Observatory of Athens Seismic Network" insttype="" lat="36.6106" lon="27.131" esm:processing="manual (Paolucci et al 2011)" esm:quality="best">
		<comp name="00.HNE" depth="0.0">
			<acc value="0.0606321167011052" flag="0"/>
			<vel value="0.0235473420598147" flag="0"/>
			<psa03 value="0.115032213215577" flag="0"/>
			<psa10 value="0.0204360028728956" flag="0"/>
			<psa30 value="0.00536951221625879" flag="0"/>
		</comp>
		<comp name="00.HNN" depth="0.0">
			<acc value="0.0435150218980463" flag="0"/>
			<vel value="0.0148939025051313" flag="0"/>
			<psa03 value="0.0540485855948723" flag="0"/>
			<psa10 value="0.010397193973954" flag="0"/>
			<psa30 value="0.00527197420583096" flag="0"/>
		</comp>
		<comp name="00.HNZ" depth="0.0">
			<acc value="0.0281597741586713" flag="0"/>
			<vel value="0.0146094178914148" flag="0"/>
			<psa03 value="0.0493506538999538" flag="0"/>
			<psa10 value="0.0182413976382694" flag="0"/>
			<psa30 value="0.00209304042560275" flag="0"/>
		</comp>
	</station>
	<station code="RODB" name="RODB" netid="HL" source="National Observatory of Athens Seismic Network" insttype="" lat="36.4471" lon="28.22116" esm:processing="manual (Paolucci et al 2011)" esm:quality="good">
		<comp name="00.HNE" depth="0.0">
			<acc value="0.0463653287041199" flag="0"/>
			<vel value="0.040899712292278" flag="0"/>
			<psa03 value="0.118790558571512" flag="0"/>
			<psa10 value="0.0518168443287529" flag="0"/>
			<psa30 value="0.00679097212052129" flag="0"/>
		</comp>
		<comp name="00.HNN" depth="0.0">
			<acc value="0.0465213391595178" flag="0"/>
			<vel value="0.0322368654981543" flag="0"/>
			<psa03 value="0.111676547719206" flag="0"/>
			<psa10 value="0.0566328954491437" flag="0"/>
			<psa30 value="0.00534758853501584" flag="0"/>
		</comp>
		<comp name="00.HNZ" depth="0.0">
			<acc value="0.0287604443257359" flag="0"/>
			<vel value="0.0218738767291401" flag="0"/>
			<psa03 value="0.0931532741792418" flag="0"/>
			<psa10 value="0.0289687890970662" flag="0"/>
			<psa30 value="0.00304470716037339" flag="0"/>
		</comp>
	</station>
</stationlist>
