<?xml version="1.0" encoding="UTF-8" standalone="yes"?>
<!DOCTYPE earthquake SYSTEM "stationlist.dtd">
<stationlist created="" xmlns="ch.ethz.sed.shakemap.usgs.xml">
  <station code="KOSK" name="KOSK" netid="HC" source="NOA" insttype="120" lat="36.7516" lon="26.9785">
    <comp name="--.HHE">
      <acc value="0.1185615162" flag="0"/>
      <vel value="0.0513125597" flag="0"/>
      <psa03 value="0.3206356415" flag="0"/>
      <psa10 value="0.0402909864" flag="0"/>
      <psa30 value="0.0041747425" flag="0"/>
    </comp>
    <comp name="--.HHN">
      <acc value="0.1568605528" flag="0"/>
      <vel value="0.0601601424" flag="0"/>
      <psa03 value="0.4052913936" flag="0"/>
      <psa10 value="0.0328861270" flag="0"/>
      <psa30 value="0.0044500506" flag="0"/>
    </comp>
    <comp name="--.HHZ">
      <acc value="0.0870695663" flag="0"/>
      <vel value="0.0303843039" flag="0"/>
      <psa03 value="0.2154990183" flag="0"/>
      <psa10 value="0.0222149372" flag="0"/>
      <psa30 value="0.0018336649" flag="0"/>
    </comp>
  </station>
  <station code="ARG" name="ARG" netid="HL" source="NOA" insttype="LE3D20_DR24" lat="36.2136" lon="28.1212">
    <comp name="--.HHE">
      <acc value="0.0279133686" flag="0"/>
      <vel value="0.0222359968" flag="0"/>
      <psa03 value="0.1389995130" flag="0"/>
      <psa10 value="0.0273319364" flag="0"/>
      <psa30 value="0.0022874525" flag="0"/>
    </comp>
    <comp name="--.HHN">
      <acc value="0.0264826227" flag="0"/>
      <vel value="0.0290493390" flag="0"/>
      <psa03 value="0.1020240417" flag="0"/>
      <psa10 value="0.0309109074" flag="0"/>
      <psa30 value="0.0043299448" flag="0"/>
    </comp>
    <comp name="--.HHZ">
      <acc value="0.0236164047" flag="0"/>
      <vel value="0.0236608087" flag="0"/>
      <psa03 value="0.0523607798" flag="0"/>
      <psa10 value="0.0322875758" flag="0"/>
      <psa30 value="0.0031617930" flag="0"/>
    </comp>
  </station>
  <station code="SMG" name="SMG" netid="HL" source="NOA" insttype="120P," lat="37.7043" lon="26.8377">
    <comp name="--.HHE">
      <acc value="0.0245862131" flag="0"/>
      <vel value="0.0136685724" flag="0"/>
      <psa03 value="0.0739474753" flag="0"/>
      <psa10 value="0.0117642259" flag="0"/>
      <psa30 value="0.0011793685" flag="0"/>
    </comp>
    <comp name="--.HHN">
      <acc value="0.0160968188" flag="0"/>
      <vel value="0.0090659411" flag="0"/>
      <psa03 value="0.0350083470" flag="0"/>
      <psa10 value="0.0094416355" flag="0"/>
      <psa30 value="0.0013829498" flag="0"/>
    </comp>
    <comp name="--.HHZ">
      <acc value="0.0107256046" flag="0"/>
      <vel value="0.0093792952" flag="0"/>
      <psa03 value="0.0252906195" flag="0"/>
      <psa10 value="0.0066704794" flag="0"/>
      <psa30 value="0.0027363758" flag="0"/>
    </comp>
  </station>
  <station code="AYDN" name="AYDN" netid="TU" source="ODC" insttype="T" lat="37.6608" lon="27.8792">
    <comp name="--.HHE">
      <acc value="0.0905556088" flag="0"/>
      <vel value="0.0635679256" flag="0"/>
      <psa03 value="0.2032611528" flag="0"/>
      <psa10 value="0.0694099438" flag="0"/>
      <psa30 value="0.0064847487" flag="0"/>
    </comp>
    <comp name="--.HHN">
      <acc value="0.1010785347" flag="0"/>
      <vel value="0.0778701972" flag="0"/>
      <psa03 value="0.2000195310" flag="0"/>
      <psa10 value="0.0996679955" flag="0"/>
      <psa30 value="0.0170330470" flag="0"/>
    </comp>
    <comp name="--.HHZ">
      <acc value="0.0547646818" flag="0"/>
      <vel value="0.0450451912" flag="0"/>
      <psa03 value="0.0945292537" flag="0"/>
      <psa10 value="0.0697167022" flag="0"/>
      <psa30 value="0.0151869813" flag="0"/>
    </comp>
  </station>
</stationlist>
