<?xml version="1.0" encoding="UTF-8" standalone="yes"?>
<!DOCTYPE earthquake SYSTEM "stationlist.dtd">
<stationlist created="" xmlns="ch.ethz.sed.shakemap.usgs.xml">
  <station code="KTHA" name="KTHA" netid="GE" insttype="STS-2/N" lat="36.2566" lon="23.0621">
    <comp name="--.HHE">
      <acc value="0.0120467546" flag="0"/>
      <vel value="0.0054416268" flag="0"/>
      <psa03 value="0.0150157025" flag="0"/>
      <psa10 value="0.0113784637" flag="0"/>
      <psa30 value="0.0004773492" flag="0"/>
    </comp>
    <comp name="--.HHZ">
      <acc value="0.0080857980" flag="0"/>
      <vel value="0.0024334689" flag="0"/>
      <psa03 value="0.0110144589" flag="0"/>
      <psa10 value="0.0022248431" flag="0"/>
      <psa30 value="0.0002744005" flag="0"/>
    </comp>
    <comp name="--.HHN">
      <acc value="0.0088378538" flag="0"/>
      <vel value="0.0033509635" flag="0"/>
      <psa03 value="0.0168724500" flag="0"/>
      <psa10 value="0.0041792569" flag="0"/>
      <psa30 value="0.0002420857" flag="0"/>
    </comp>
  </station>
  <station code="KTHR" name="KTHR" netid="HC" insttype="120s" lat="36.2447" lon="22.9939">
    <comp name="--.HHZ">
      <acc value="0.0205653075" flag="0"/>
      <vel value="0.0079309565" flag="0"/>
      <psa03 value="0.0594472736" flag="0"/>
      <psa10 value="0.0029811334" flag="0"/>
      <psa30 value="0.0002408627" flag="0"/>
    </comp>
    <comp name="--.HHN">
      <acc value="0.0383705087" flag="0"/>
      <vel value="0.0132104928" flag="0"/>
      <psa03 value="0.1271198508" flag="0"/>
      <psa10 value="0.0086145319" flag="0"/>
      <psa30 value="0.0005792783" flag="0"/>
    </comp>
    <comp name="--.HHE">
      <acc value="0.0450866400" flag="0"/>
      <vel value="0.0181648656" flag="0"/>
      <psa03 value="0.1139921403" flag="0"/>
      <psa10 value="0.0088438541" flag="0"/>
      <psa30 value="0.0007195238" flag="0"/>
    </comp>
  </station>
  <station code="NPS1" name="NPS1" netid="HI" insttype="CMG-5TD,ACCELEROMETER,GURALP" lat="36.5126" lon="23.0625">
    <comp name="--.HNN">
      <acc value="0.0081867089" flag="0"/>
      <vel value="0.0059726119" flag="0"/>
      <psa03 value="0.0271017771" flag="0"/>
      <psa10 value="0.0056827256" flag="0"/>
      <psa30 value="0.0003441221" flag="0"/>
    </comp>
    <comp name="--.HNZ">
      <acc value="0.0088059431" flag="0"/>
      <vel value="0.0029132390" flag="0"/>
      <psa03 value="0.0234002848" flag="0"/>
      <psa10 value="0.0031248999" flag="0"/>
      <psa30 value="0.0001841358" flag="0"/>
    </comp>
    <comp name="--.HNE">
      <acc value="0.0088439308" flag="0"/>
      <vel value="0.0055203949" flag="0"/>
      <psa03 value="0.0259903374" flag="0"/>
      <psa10 value="0.0069840609" flag="0"/>
      <psa30 value="0.0003349849" flag="0"/>
    </comp>
  </station>
  <station code="ANKY" name="ANKY" netid="HL" insttype="60" lat="35.867" lon="23.3012">
    <comp name="--.HHZ">
      <acc value="0.0045285518" flag="0"/>
      <vel value="0.0030692520" flag="0"/>
      <psa03 value="0.0104806001" flag="0"/>
      <psa10 value="0.0024187897" flag="0"/>
      <psa30 value="0.0001805442" flag="0"/>
    </comp>
    <comp name="--.HHN">
      <acc value="0.0057112995" flag="0"/>
      <vel value="0.0046306144" flag="0"/>
      <psa03 value="0.0158048776" flag="0"/>
      <psa10 value="0.0054683228" flag="0"/>
      <psa30 value="0.0003887660" flag="0"/>
    </comp>
    <comp name="--.HHE">
      <acc value="0.0057925472" flag="0"/>
      <vel value="0.0063857963" flag="0"/>
      <psa03 value="0.0108874552" flag="0"/>
      <psa10 value="0.0108029666" flag="0"/>
      <psa30 value="0.0003765460" flag="0"/>
    </comp>
  </station>
  <station code="KTHA" name="KTHA" netid="HL" insttype="120" lat="36.2566" lon="23.0621">
    <comp name="--.HHZ">
      <acc value="0.0078367450" flag="0"/>
      <vel value="0.0023831804" flag="0"/>
      <psa03 value="0.0107360527" flag="0"/>
      <psa10 value="0.0022075181" flag="0"/>
      <psa30 value="0.0002740255" flag="0"/>
    </comp>
    <comp name="--.HHN">
      <acc value="0.0085251808" flag="0"/>
      <vel value="0.0032673074" flag="0"/>
      <psa03 value="0.0163847921" flag="0"/>
      <psa10 value="0.0041534912" flag="0"/>
      <psa30 value="0.0002412621" flag="0"/>
    </comp>
    <comp name="--.HHE">
      <acc value="0.0114850689" flag="0"/>
      <vel value="0.0053715423" flag="0"/>
      <psa03 value="0.0147268798" flag="0"/>
      <psa10 value="0.0113022971" flag="0"/>
      <psa30 value="0.0004764335" flag="0"/>
    </comp>
  </station>
</stationlist>
