<?xml version="1.0" encoding="UTF-8" standalone="yes"?>
<!DOCTYPE earthquake SYSTEM "stationlist.dtd">
<stationlist created="" xmlns="ch.ethz.sed.shakemap.usgs.xml">
  <station code="GVD" name="GVD" netid="GE" insttype="STS-2/N" lat="34.8391" lon="24.0874">
    <comp name="--.HHZ">
      <acc value="0.7981953259" flag="0"/>
      <vel value="0.1771912297" flag="0"/>
      <psa03 value="0.7437989892" flag="0"/>
      <psa10 value="0.0522289597" flag="0"/>
      <psa30 value="0.0027611372" flag="0"/>
    </comp>
    <comp name="--.HHE">
      <acc value="1.1103556435" flag="0"/>
      <vel value="0.2538902631" flag="0"/>
      <psa03 value="1.5924987306" flag="0"/>
      <psa10 value="0.0709983672" flag="0"/>
      <psa30 value="0.0057349213" flag="0"/>
    </comp>
    <comp name="--.HHN">
      <acc value="1.0499666158" flag="0"/>
      <vel value="0.3943064060" flag="0"/>
      <psa03 value="1.8341379357" flag="0"/>
      <psa10 value="0.1074214870" flag="0"/>
      <psa30 value="0.0087245933" flag="0"/>
    </comp>
  </station>
  <station code="IMMV" name="IMMV" netid="GE" insttype="STS-2/N" lat="35.4606" lon="23.9811">
    <comp name="--.HHE">
      <acc value="0.0251362734" flag="0"/>
      <vel value="0.0111954770" flag="0"/>
      <psa03 value="0.0866631542" flag="0"/>
      <psa10 value="0.0086837804" flag="0"/>
      <psa30 value="0.0007006325" flag="0"/>
    </comp>
    <comp name="--.HHN">
      <acc value="0.0248293698" flag="0"/>
      <vel value="0.0104248806" flag="0"/>
      <psa03 value="0.1204711372" flag="0"/>
      <psa10 value="0.0076439561" flag="0"/>
      <psa30 value="0.0005071394" flag="0"/>
    </comp>
    <comp name="--.HHZ">
      <acc value="0.0179647228" flag="0"/>
      <vel value="0.0091740944" flag="0"/>
      <psa03 value="0.0692850605" flag="0"/>
      <psa10 value="0.0097576664" flag="0"/>
      <psa30 value="0.0004874677" flag="0"/>
    </comp>
  </station>
  <station code="CHAN" name="CHAN" netid="HC" insttype="120" lat="35.5193" lon="24.0428">
    <comp name="--.HHE">
      <acc value="0.0282843271" flag="0"/>
      <vel value="0.0163807995" flag="0"/>
      <psa03 value="0.0767782078" flag="0"/>
      <psa10 value="0.0198372674" flag="0"/>
      <psa30 value="0.0009974222" flag="0"/>
    </comp>
    <comp name="--.HHN">
      <acc value="0.0227632451" flag="0"/>
      <vel value="0.0190205999" flag="0"/>
      <psa03 value="0.0703116799" flag="0"/>
      <psa10 value="0.0142887957" flag="0"/>
      <psa30 value="0.0012540689" flag="0"/>
    </comp>
    <comp name="--.HHZ">
      <acc value="0.0167921582" flag="0"/>
      <vel value="0.0110485734" flag="0"/>
      <psa03 value="0.0484278808" flag="0"/>
      <psa10 value="0.0108836868" flag="0"/>
      <psa30 value="0.0007998530" flag="0"/>
    </comp>
  </station>
  <station code="GVDS" name="GVDS" netid="HC" insttype="60" lat="34.8389" lon="24.0585">
    <comp name="--.HHZ">
      <acc value="0.8558718245" flag="0"/>
      <vel value="0.1326311839" flag="0"/>
      <psa03 value="0.6699222262" flag="0"/>
      <psa10 value="0.0371372265" flag="0"/>
      <psa30 value="0.0041962270" flag="0"/>
    </comp>
    <comp name="--.HHE">
      <acc value="1.7854642001" flag="0"/>
      <vel value="0.2478801256" flag="0"/>
      <psa03 value="0.8312677172" flag="0"/>
      <psa10 value="0.0421286874" flag="0"/>
      <psa30 value="0.0043737814" flag="0"/>
    </comp>
    <comp name="--.HHN">
      <acc value="1.4641583499" flag="0"/>
      <vel value="0.2730172362" flag="0"/>
      <psa03 value="1.7746616994" flag="0"/>
      <psa10 value="0.0827539815" flag="0"/>
      <psa30 value="0.0078598306" flag="0"/>
    </comp>
  </station>
  <station code="IMOD" name="IMOD" netid="HC" insttype="120" lat="34.9731" lon="24.7995">
    <comp name="--.HHE">
      <acc value="0.0144240665" flag="0"/>
      <vel value="0.0098731146" flag="0"/>
      <psa03 value="0.0335681995" flag="0"/>
      <psa10 value="0.0107429748" flag="0"/>
      <psa30 value="0.0005228194" flag="0"/>
    </comp>
    <comp name="--.HHN">
      <acc value="0.0209591255" flag="0"/>
      <vel value="0.0122311251" flag="0"/>
      <psa03 value="0.0580316663" flag="0"/>
      <psa10 value="0.0188483480" flag="0"/>
      <psa30 value="0.0007096287" flag="0"/>
    </comp>
    <comp name="--.HHZ">
      <acc value="0.0121036569" flag="0"/>
      <vel value="0.0046874421" flag="0"/>
      <psa03 value="0.0293411948" flag="0"/>
      <psa10 value="0.0039328120" flag="0"/>
      <psa30 value="0.0002337751" flag="0"/>
    </comp>
  </station>
  <station code="IPPL" name="IPPL" netid="HC" insttype="60" lat="35.3486" lon="24.4632">
    <comp name="--.HHE">
      <acc value="0.0000000000" flag="0"/>
      <vel value="-100.0000000000" flag="0"/>
      <psa03 value="0.0000000000" flag="0"/>
      <psa10 value="0.0000000000" flag="0"/>
      <psa30 value="0.0000000000" flag="0"/>
    </comp>
    <comp name="--.HHZ">
      <acc value="0.0163988386" flag="0"/>
      <vel value="0.0077722773" flag="0"/>
      <psa03 value="0.0493401624" flag="0"/>
      <psa10 value="0.0056098140" flag="0"/>
      <psa30 value="0.0003389441" flag="0"/>
    </comp>
    <comp name="--.HHN">
      <acc value="0.0000000000" flag="0"/>
      <vel value="-100.0000000000" flag="0"/>
      <psa03 value="0.0000000000" flag="0"/>
      <psa10 value="0.0000000000" flag="0"/>
      <psa30 value="0.0000000000" flag="0"/>
    </comp>
  </station>
  <station code="KNDR" name="KNDR" netid="HC" insttype="120" lat="35.2348" lon="23.6248">
    <comp name="--.HHE">
      <acc value="0.0342277995" flag="0"/>
      <vel value="0.0167475278" flag="0"/>
      <psa03 value="0.0869065394" flag="0"/>
      <psa10 value="0.0141305089" flag="0"/>
      <psa30 value="0.0006977069" flag="0"/>
    </comp>
    <comp name="--.HHN">
      <acc value="0.0414624075" flag="0"/>
      <vel value="0.0208048246" flag="0"/>
      <psa03 value="0.1587804717" flag="0"/>
      <psa10 value="0.0184813532" flag="0"/>
      <psa30 value="0.0007352282" flag="0"/>
    </comp>
    <comp name="--.HHZ">
      <acc value="0.0275351295" flag="0"/>
      <vel value="0.0102735512" flag="0"/>
      <psa03 value="0.0647840843" flag="0"/>
      <psa10 value="0.0065745360" flag="0"/>
      <psa30 value="0.0003529312" flag="0"/>
    </comp>
  </station>
  <station code="GVD" name="GVD" netid="HL" insttype="120" lat="34.8391" lon="24.0874">
    <comp name="--.HHN">
      <acc value="1.1004660356" flag="0"/>
      <vel value="0.3881969190" flag="0"/>
      <psa03 value="1.7801668809" flag="0"/>
      <psa10 value="0.1051179402" flag="0"/>
      <psa30 value="0.0085813285" flag="0"/>
    </comp>
    <comp name="--.HHE">
      <acc value="1.0875212647" flag="0"/>
      <vel value="0.2498995561" flag="0"/>
      <psa03 value="1.5497270167" flag="0"/>
      <psa10 value="0.0694027015" flag="0"/>
      <psa30 value="0.0055781847" flag="0"/>
    </comp>
    <comp name="--.HHZ">
      <acc value="0.7930244027" flag="0"/>
      <vel value="0.1718659580" flag="0"/>
      <psa03 value="0.7225365178" flag="0"/>
      <psa10 value="0.0514913715" flag="0"/>
      <psa30 value="0.0027632560" flag="0"/>
    </comp>
  </station>
  <station code="IDI" name="IDI" netid="HL" insttype="120" lat="35.288" lon="24.89">
    <comp name="--.HHZ">
      <acc value="0.0033557382" flag="0"/>
      <vel value="0.0020547624" flag="0"/>
      <psa03 value="0.0091209981" flag="0"/>
      <psa10 value="0.0027482413" flag="0"/>
      <psa30 value="0.0002867334" flag="0"/>
    </comp>
    <comp name="--.HHN">
      <acc value="0.0049380877" flag="0"/>
      <vel value="0.0034514762" flag="0"/>
      <psa03 value="0.0126905629" flag="0"/>
      <psa10 value="0.0024732440" flag="0"/>
      <psa30 value="0.0003185659" flag="0"/>
    </comp>
    <comp name="--.HHE">
      <acc value="0.0045826164" flag="0"/>
      <vel value="0.0030994548" flag="0"/>
      <psa03 value="0.0150402791" flag="0"/>
      <psa10 value="0.0048926320" flag="0"/>
      <psa30 value="0.0002426212" flag="0"/>
    </comp>
  </station>
  <station code="IMMV" name="IMMV" netid="HL" insttype="120" lat="35.4606" lon="23.9811">
    <comp name="--.HHE">
      <acc value="0.0250600461" flag="0"/>
      <vel value="0.0109068134" flag="0"/>
      <psa03 value="0.0840216327" flag="0"/>
      <psa10 value="0.0086113024" flag="0"/>
      <psa30 value="0.0006953748" flag="0"/>
    </comp>
    <comp name="--.HHZ">
      <acc value="0.0174619220" flag="0"/>
      <vel value="0.0089539283" flag="0"/>
      <psa03 value="0.0673157921" flag="0"/>
      <psa10 value="0.0096912300" flag="0"/>
      <psa30 value="0.0004853722" flag="0"/>
    </comp>
    <comp name="--.HHN">
      <acc value="0.0242524446" flag="0"/>
      <vel value="0.0101813968" flag="0"/>
      <psa03 value="0.1171938099" flag="0"/>
      <psa10 value="0.0075657404" flag="0"/>
      <psa30 value="0.0005028534" flag="0"/>
    </comp>
  </station>
  <station code="SIVA" name="SIVA" netid="HL" insttype="60" lat="35.0178" lon="24.812">
    <comp name="--.HHN">
      <acc value="0.0199662406" flag="0"/>
      <vel value="0.0119335938" flag="0"/>
      <psa03 value="0.0489691419" flag="0"/>
      <psa10 value="0.0122313727" flag="0"/>
      <psa30 value="0.0007336124" flag="0"/>
    </comp>
    <comp name="--.HHZ">
      <acc value="0.0148538925" flag="0"/>
      <vel value="0.0073000670" flag="0"/>
      <psa03 value="0.0436809805" flag="0"/>
      <psa10 value="0.0056162342" flag="0"/>
      <psa30 value="0.0003196835" flag="0"/>
    </comp>
    <comp name="--.HHE">
      <acc value="0.0271680705" flag="0"/>
      <vel value="0.0176584446" flag="0"/>
      <psa03 value="0.1071700972" flag="0"/>
      <psa10 value="0.0174352418" flag="0"/>
      <psa30 value="0.0008521437" flag="0"/>
    </comp>
  </station>
  <station code="VAM" name="VAM" netid="HL" insttype="CMG3ESPC-120s" lat="35.407" lon="24.1997">
    <comp name="--.HHZ">
      <acc value="0.0161960741" flag="0"/>
      <vel value="0.0074189622" flag="0"/>
      <psa03 value="0.0475810236" flag="0"/>
      <psa10 value="0.0076827689" flag="0"/>
      <psa30 value="0.0004908313" flag="0"/>
    </comp>
    <comp name="--.HHE">
      <acc value="0.0169804605" flag="0"/>
      <vel value="0.0096133028" flag="0"/>
      <psa03 value="0.0769548974" flag="0"/>
      <psa10 value="0.0107814030" flag="0"/>
      <psa30 value="0.0006169624" flag="0"/>
    </comp>
    <comp name="--.HHN">
      <acc value="0.0271667889" flag="0"/>
      <vel value="0.0118306155" flag="0"/>
      <psa03 value="0.1031388134" flag="0"/>
      <psa10 value="0.0096434683" flag="0"/>
      <psa30 value="0.0008233856" flag="0"/>
    </comp>
  </station>
  <station code="IDI" name="IDI" netid="MN" insttype="" lat="35.288" lon="24.89">
    <comp name="--.HHN">
      <acc value="0.0049710388" flag="0"/>
      <vel value="0.0034557723" flag="0"/>
      <psa03 value="0.0128627225" flag="0"/>
      <psa10 value="0.0024691751" flag="0"/>
      <psa30 value="0.0003164596" flag="0"/>
    </comp>
    <comp name="--.HHZ">
      <acc value="0.0034954344" flag="0"/>
      <vel value="0.0020586576" flag="0"/>
      <psa03 value="0.0092173756" flag="0"/>
      <psa10 value="0.0027322106" flag="0"/>
      <psa30 value="0.0002839933" flag="0"/>
    </comp>
    <comp name="--.HHE">
      <acc value="0.0046511532" flag="0"/>
      <vel value="0.0031086835" flag="0"/>
      <psa03 value="0.0152678973" flag="0"/>
      <psa10 value="0.0048564723" flag="0"/>
      <psa30 value="0.0002408815" flag="0"/>
    </comp>
  </station>
</stationlist>
