<?xml version="1.0" encoding="UTF-8" standalone="yes"?>
<!DOCTYPE earthquake SYSTEM "stationlist.dtd">
<stationlist created="" xmlns="ch.ethz.sed.shakemap.usgs.xml">
  <station code="CEYT" name="CEYT" netid="KO" insttype="CMG-3ESP" lat="37.0105" lon="35.7478">
    <comp name="--.HHZ">
      <acc value="0.0531379577" flag="0"/>
      <vel value="0.0211505900" flag="0"/>
      <psa03 value="0.0877980507" flag="0"/>
      <psa10 value="0.0123532497" flag="0"/>
      <psa30 value="0.0019529909" flag="0"/>
    </comp>
    <comp name="--.HHN">
      <acc value="0.0659278720" flag="0"/>
      <vel value="0.0354369045" flag="0"/>
      <psa03 value="0.1983313335" flag="0"/>
      <psa10 value="0.0315310234" flag="0"/>
      <psa30 value="0.0029711410" flag="0"/>
    </comp>
    <comp name="--.HHE">
      <acc value="0.0825799394" flag="0"/>
      <vel value="0.0346054533" flag="0"/>
      <psa03 value="0.1917119899" flag="0"/>
      <psa10 value="0.0190814390" flag="0"/>
      <psa30 value="0.0015972775" flag="0"/>
    </comp>
  </station>
</stationlist>
