<?xml version="1.0" encoding="UTF-8" standalone="yes"?>
<!DOCTYPE earthquake SYSTEM "stationlist.dtd">
<stationlist created="" xmlns="ch.ethz.sed.shakemap.usgs.xml">
  <station code="OEM4" name="OEM4" netid="3D" insttype="" lat="38.4095" lon="14.9422">
    <comp name="--.HHE">
      <acc value="0.0079211549" flag="0"/>
      <vel value="0.0042413655" flag="0"/>
      <psa03 value="0.0161532388" flag="0"/>
      <psa10 value="0.0049072487" flag="0"/>
      <psa30 value="0.0009439235" flag="0"/>
    </comp>
    <comp name="--.HHZ">
      <acc value="0.0093185136" flag="0"/>
      <vel value="0.0021073862" flag="0"/>
      <psa03 value="0.0054788123" flag="0"/>
      <psa10 value="0.0028510866" flag="0"/>
      <psa30 value="0.0007820592" flag="0"/>
    </comp>
    <comp name="--.HHN">
      <acc value="0.0076838063" flag="0"/>
      <vel value="0.0040796677" flag="0"/>
      <psa03 value="0.0102950968" flag="0"/>
      <psa10 value="0.0103695226" flag="0"/>
      <psa30 value="0.0010353852" flag="0"/>
    </comp>
  </station>
  <station code="OEM5" name="OEM5" netid="3D" insttype="" lat="38.4223" lon="14.9661">
    <comp name="--.HHE">
      <acc value="0.0051687502" flag="0"/>
      <vel value="0.0058505899" flag="0"/>
      <psa03 value="0.0117314648" flag="0"/>
      <psa10 value="0.0075923691" flag="0"/>
      <psa30 value="0.0024151044" flag="0"/>
    </comp>
    <comp name="--.HHN">
      <acc value="0.0053106600" flag="0"/>
      <vel value="0.0046904446" flag="0"/>
      <psa03 value="0.0121739499" flag="0"/>
      <psa10 value="0.0083579915" flag="0"/>
      <psa30 value="0.0012608797" flag="0"/>
    </comp>
    <comp name="--.HHZ">
      <acc value="0.0039292038" flag="0"/>
      <vel value="0.0031494598" flag="0"/>
      <psa03 value="0.0101349507" flag="0"/>
      <psa10 value="0.0051305051" flag="0"/>
      <psa30 value="0.0006088686" flag="0"/>
    </comp>
  </station>
  <station code="OEM9" name="OEM9" netid="3D" insttype="" lat="38.3879" lon="14.9908">
    <comp name="--.HHE">
      <acc value="0.0047145151" flag="0"/>
      <vel value="0.0041143646" flag="0"/>
      <psa03 value="0.0175890613" flag="0"/>
      <psa10 value="0.0045857154" flag="0"/>
      <psa30 value="0.0008731048" flag="0"/>
    </comp>
    <comp name="--.HHZ">
      <acc value="0.0034648433" flag="0"/>
      <vel value="0.0018068380" flag="0"/>
      <psa03 value="0.0074224568" flag="0"/>
      <psa10 value="0.0022363603" flag="0"/>
      <psa30 value="0.0003819483" flag="0"/>
    </comp>
    <comp name="--.HHN">
      <acc value="0.0041598640" flag="0"/>
      <vel value="0.0032446032" flag="0"/>
      <psa03 value="0.0132790394" flag="0"/>
      <psa10 value="0.0037007690" flag="0"/>
      <psa30 value="0.0004606622" flag="0"/>
    </comp>
  </station>
  <station code="CS2FF" name="CS2FF" netid="7C" insttype="" lat="39.2933" lon="16.2584">
    <comp name="--.HH1">
      <acc value="0.0207891593" flag="0"/>
      <vel value="0.0127305483" flag="0"/>
      <psa03 value="0.0498266453" flag="0"/>
      <psa10 value="0.0086000379" flag="0"/>
      <psa30 value="0.0006554802" flag="0"/>
    </comp>
    <comp name="--.HHZ">
      <acc value="0.0105099777" flag="0"/>
      <vel value="0.0055974770" flag="0"/>
      <psa03 value="0.0190983560" flag="0"/>
      <psa10 value="0.0052149344" flag="0"/>
      <psa30 value="0.0004413827" flag="0"/>
    </comp>
    <comp name="--.HH2">
      <acc value="0.0185904616" flag="0"/>
      <vel value="0.0133279286" flag="0"/>
      <psa03 value="0.0506640403" flag="0"/>
      <psa10 value="0.0129105570" flag="0"/>
      <psa30 value="0.0009601010" flag="0"/>
    </comp>
  </station>
  <station code="MARCO" name="MARCO" netid="GE" insttype="VBB" lat="40.2972" lon="15.8063">
    <comp name="--.HHE">
      <acc value="0.0102089559" flag="0"/>
      <vel value="0.0067052962" flag="0"/>
      <psa03 value="0.0375464201" flag="0"/>
      <psa10 value="0.0105204210" flag="0"/>
      <psa30 value="0.0008966631" flag="0"/>
    </comp>
    <comp name="--.HHN">
      <acc value="0.0199054540" flag="0"/>
      <vel value="0.0147121558" flag="0"/>
      <psa03 value="0.0441733799" flag="0"/>
      <psa10 value="0.0094946288" flag="0"/>
      <psa30 value="0.0012028199" flag="0"/>
    </comp>
    <comp name="--.HHZ">
      <acc value="0.0088487838" flag="0"/>
      <vel value="0.0055145185" flag="0"/>
      <psa03 value="0.0218230977" flag="0"/>
      <psa10 value="0.0041444372" flag="0"/>
      <psa30 value="0.0005898316" flag="0"/>
    </comp>
  </station>
  <station code="BULG" name="BULG" netid="IV" insttype="" lat="40.0783" lon="15.3776">
    <comp name="--.HHN">
      <acc value="0.0580632112" flag="0"/>
      <vel value="0.0468844930" flag="0"/>
      <psa03 value="0.1204836472" flag="0"/>
      <psa10 value="0.0506866418" flag="0"/>
      <psa30 value="0.0019837284" flag="0"/>
    </comp>
    <comp name="--.HHZ">
      <acc value="0.0200999850" flag="0"/>
      <vel value="0.0137404807" flag="0"/>
      <psa03 value="0.0441683179" flag="0"/>
      <psa10 value="0.0174602464" flag="0"/>
      <psa30 value="0.0010569523" flag="0"/>
    </comp>
    <comp name="--.HHE">
      <acc value="0.0327163972" flag="0"/>
      <vel value="0.0160695967" flag="0"/>
      <psa03 value="0.0941881561" flag="0"/>
      <psa10 value="0.0142218993" flag="0"/>
      <psa30 value="0.0011566844" flag="0"/>
    </comp>
  </station>
  <station code="CAR1" name="CAR1" netid="IV" insttype="" lat="39.2534" lon="16.2114">
    <comp name="--.HHE">
      <acc value="0.0963388974" flag="0"/>
      <vel value="0.0315989857" flag="0"/>
      <psa03 value="0.1434321262" flag="0"/>
      <psa10 value="0.0268208248" flag="0"/>
      <psa30 value="0.0013966866" flag="0"/>
    </comp>
    <comp name="--.HHN">
      <acc value="0.0679907254" flag="0"/>
      <vel value="0.0397413504" flag="0"/>
      <psa03 value="0.1177185927" flag="0"/>
      <psa10 value="0.0286728259" flag="0"/>
      <psa30 value="0.0018463626" flag="0"/>
    </comp>
    <comp name="--.HHZ">
      <acc value="0.0393815402" flag="0"/>
      <vel value="0.0156628038" flag="0"/>
      <psa03 value="0.0824542699" flag="0"/>
      <psa10 value="0.0096575436" flag="0"/>
      <psa30 value="0.0005991486" flag="0"/>
    </comp>
  </station>
  <station code="CDRU" name="CDRU" netid="IV" insttype="" lat="40.4896" lon="15.3046">
    <comp name="--.HHE">
      <acc value="0.0299375256" flag="0"/>
      <vel value="0.0089706685" flag="0"/>
      <psa03 value="0.0514522029" flag="0"/>
      <psa10 value="0.0065779666" flag="0"/>
      <psa30 value="0.0005090846" flag="0"/>
    </comp>
    <comp name="--.HHN">
      <acc value="0.0112211059" flag="0"/>
      <vel value="0.0051481798" flag="0"/>
      <psa03 value="0.0276249846" flag="0"/>
      <psa10 value="0.0040034286" flag="0"/>
      <psa30 value="0.0003671616" flag="0"/>
    </comp>
    <comp name="--.HHZ">
      <acc value="0.0099636122" flag="0"/>
      <vel value="0.0041517386" flag="0"/>
      <psa03 value="0.0206214822" flag="0"/>
      <psa10 value="0.0033294153" flag="0"/>
      <psa30 value="0.0002407098" flag="0"/>
    </comp>
  </station>
  <station code="CELI" name="CELI" netid="IV" insttype="" lat="39.4027" lon="16.5088">
    <comp name="--.HHE">
      <acc value="0.0144209114" flag="0"/>
      <vel value="0.0073721596" flag="0"/>
      <psa03 value="0.0273821651" flag="0"/>
      <psa10 value="0.0061369739" flag="0"/>
      <psa30 value="0.0005015011" flag="0"/>
    </comp>
    <comp name="--.HHN">
      <acc value="0.0109246876" flag="0"/>
      <vel value="0.0084788820" flag="0"/>
      <psa03 value="0.0390252148" flag="0"/>
      <psa10 value="0.0098625025" flag="0"/>
      <psa30 value="0.0008415850" flag="0"/>
    </comp>
    <comp name="--.HHZ">
      <acc value="0.0063881341" flag="0"/>
      <vel value="0.0055250766" flag="0"/>
      <psa03 value="0.0159811640" flag="0"/>
      <psa10 value="0.0064248939" flag="0"/>
      <psa30 value="0.0003941840" flag="0"/>
    </comp>
  </station>
  <station code="CMPR" name="CMPR" netid="IV" insttype="" lat="40.3181" lon="15.303">
    <comp name="--.HHE">
      <acc value="0.0230174460" flag="0"/>
      <vel value="0.0114096363" flag="0"/>
      <psa03 value="0.0980591093" flag="0"/>
      <psa10 value="0.0074056907" flag="0"/>
      <psa30 value="0.0007692638" flag="0"/>
    </comp>
    <comp name="--.HHN">
      <acc value="0.0175067948" flag="0"/>
      <vel value="0.0073163267" flag="0"/>
      <psa03 value="0.0535123400" flag="0"/>
      <psa10 value="0.0047244455" flag="0"/>
      <psa30 value="0.0004529750" flag="0"/>
    </comp>
    <comp name="--.HHZ">
      <acc value="0.0100703015" flag="0"/>
      <vel value="0.0057054338" flag="0"/>
      <psa03 value="0.0448596295" flag="0"/>
      <psa10 value="0.0024244877" flag="0"/>
      <psa30 value="0.0005145332" flag="0"/>
    </comp>
  </station>
  <station code="GRIS" name="GRIS" netid="IV" insttype="" lat="39.7405" lon="15.8531">
    <comp name="--.HNE">
      <acc value="0.0741703983" flag="0"/>
      <vel value="0.0263975545" flag="0"/>
      <psa03 value="0.1434059480" flag="0"/>
      <psa10 value="0.0286693904" flag="0"/>
      <psa30 value="0.0014925538" flag="0"/>
    </comp>
    <comp name="--.HNZ">
      <acc value="0.0334050129" flag="0"/>
      <vel value="0.0097323736" flag="0"/>
      <psa03 value="0.0556774063" flag="0"/>
      <psa10 value="0.0086282393" flag="0"/>
      <psa30 value="0.0005789171" flag="0"/>
    </comp>
    <comp name="--.HNN">
      <acc value="0.0990693692" flag="0"/>
      <vel value="0.0188809674" flag="0"/>
      <psa03 value="0.1318537646" flag="0"/>
      <psa10 value="0.0109171840" flag="0"/>
      <psa30 value="0.0010339927" flag="0"/>
    </comp>
  </station>
  <station code="IFIL" name="IFIL" netid="IV" insttype="" lat="38.5642" lon="14.5753">
    <comp name="--.HHZ">
      <acc value="0.0296837647" flag="0"/>
      <vel value="0.0100428997" flag="0"/>
      <psa03 value="0.0580489717" flag="0"/>
      <psa10 value="0.0070298829" flag="0"/>
      <psa30 value="0.0006112721" flag="0"/>
    </comp>
    <comp name="--.HHE">
      <acc value="0.0631469748" flag="0"/>
      <vel value="0.0173546539" flag="0"/>
      <psa03 value="0.1401902603" flag="0"/>
      <psa10 value="0.0134178040" flag="0"/>
      <psa30 value="0.0010411074" flag="0"/>
    </comp>
    <comp name="--.HHN">
      <acc value="0.0282240040" flag="0"/>
      <vel value="0.0090429009" flag="0"/>
      <psa03 value="0.0651104539" flag="0"/>
      <psa10 value="0.0070275753" flag="0"/>
      <psa30 value="0.0006750640" flag="0"/>
    </comp>
  </station>
  <station code="ILOS" name="ILOS" netid="IV" insttype="" lat="38.4457" lon="14.9483">
    <comp name="--.HHZ">
      <acc value="0.0042008105" flag="0"/>
      <vel value="0.0021417627" flag="0"/>
      <psa03 value="0.0132916811" flag="0"/>
      <psa10 value="0.0024874723" flag="0"/>
      <psa30 value="0.0003867233" flag="0"/>
    </comp>
    <comp name="--.HHE">
      <acc value="0.0051414743" flag="0"/>
      <vel value="0.0040195821" flag="0"/>
      <psa03 value="0.0158427206" flag="0"/>
      <psa10 value="0.0082459529" flag="0"/>
      <psa30 value="0.0007591621" flag="0"/>
    </comp>
    <comp name="--.HHN">
      <acc value="0.0084500171" flag="0"/>
      <vel value="0.0071677120" flag="0"/>
      <psa03 value="0.0246223253" flag="0"/>
      <psa10 value="0.0120741378" flag="0"/>
      <psa30 value="0.0007400012" flag="0"/>
    </comp>
  </station>
  <station code="IST3" name="IST3" netid="IV" insttype="" lat="38.7992" lon="15.2304">
    <comp name="--.HHE">
      <acc value="0.2165636180" flag="0"/>
      <vel value="0.0449128620" flag="0"/>
      <psa03 value="0.1002855535" flag="0"/>
      <psa10 value="0.0253216660" flag="0"/>
      <psa30 value="0.0015223706" flag="0"/>
    </comp>
    <comp name="--.HHN">
      <acc value="0.3202960568" flag="0"/>
      <vel value="0.0586129097" flag="0"/>
      <psa03 value="0.2124580551" flag="0"/>
      <psa10 value="0.0286554625" flag="0"/>
      <psa30 value="0.0015208064" flag="0"/>
    </comp>
    <comp name="--.HHZ">
      <acc value="0.1594261214" flag="0"/>
      <vel value="0.0310142621" flag="0"/>
      <psa03 value="0.1130727511" flag="0"/>
      <psa10 value="0.0156425201" flag="0"/>
      <psa30 value="0.0013437244" flag="0"/>
    </comp>
  </station>
  <station code="ISTR" name="ISTR" netid="IV" insttype="" lat="38.7866" lon="15.1918">
    <comp name="--.HHE">
      <acc value="0.0915903197" flag="0"/>
      <vel value="0.0257794790" flag="0"/>
      <psa03 value="0.1285313023" flag="0"/>
      <psa10 value="0.0192513519" flag="0"/>
      <psa30 value="0.0009998493" flag="0"/>
    </comp>
    <comp name="--.HHN">
      <acc value="0.0865553629" flag="0"/>
      <vel value="0.0321503264" flag="0"/>
      <psa03 value="0.1624971114" flag="0"/>
      <psa10 value="0.0137064458" flag="0"/>
      <psa30 value="0.0019475594" flag="0"/>
    </comp>
    <comp name="--.HHZ">
      <acc value="0.0692682646" flag="0"/>
      <vel value="0.0193059179" flag="0"/>
      <psa03 value="0.1239608297" flag="0"/>
      <psa10 value="0.0077419249" flag="0"/>
      <psa30 value="0.0006700894" flag="0"/>
    </comp>
  </station>
  <station code="IVCR" name="IVCR" netid="IV" insttype="" lat="38.4096" lon="14.961">
    <comp name="--.HHN">
      <acc value="0.0045227509" flag="0"/>
      <vel value="0.0025240683" flag="0"/>
      <psa03 value="0.0088017967" flag="0"/>
      <psa10 value="0.0029470468" flag="0"/>
      <psa30 value="0.0005736195" flag="0"/>
    </comp>
    <comp name="--.HHZ">
      <acc value="0.0029402364" flag="0"/>
      <vel value="0.0015487798" flag="0"/>
      <psa03 value="0.0068620180" flag="0"/>
      <psa10 value="0.0026375954" flag="0"/>
      <psa30 value="0.0007527180" flag="0"/>
    </comp>
    <comp name="--.HHE">
      <acc value="0.0054135917" flag="0"/>
      <vel value="0.0030190372" flag="0"/>
      <psa03 value="0.0119693884" flag="0"/>
      <psa10 value="0.0025554978" flag="0"/>
      <psa30 value="0.0010072261" flag="0"/>
    </comp>
  </station>
  <station code="IVLT" name="IVLT" netid="IV" insttype="" lat="38.3961" lon="14.9482">
    <comp name="--.HHE">
      <acc value="0.0044360309" flag="0"/>
      <vel value="0.0051404873" flag="0"/>
      <psa03 value="0.0077690749" flag="0"/>
      <psa10 value="0.0116471019" flag="0"/>
      <psa30 value="0.0005804196" flag="0"/>
    </comp>
    <comp name="--.HHZ">
      <acc value="0.0029954579" flag="0"/>
      <vel value="0.0024767089" flag="0"/>
      <psa03 value="0.0096537590" flag="0"/>
      <psa10 value="0.0027814157" flag="0"/>
      <psa30 value="0.0006857697" flag="0"/>
    </comp>
    <comp name="--.HHN">
      <acc value="0.0044846123" flag="0"/>
      <vel value="0.0045081932" flag="0"/>
      <psa03 value="0.0091489523" flag="0"/>
      <psa10 value="0.0076578756" flag="0"/>
      <psa30 value="0.0005947084" flag="0"/>
    </comp>
  </station>
  <station code="IVPL" name="IVPL" netid="IV" insttype="" lat="38.3763" lon="14.9801">
    <comp name="--.HHE">
      <acc value="0.0056035998" flag="0"/>
      <vel value="0.0042187434" flag="0"/>
      <psa03 value="0.0166584131" flag="0"/>
      <psa10 value="0.0136556822" flag="0"/>
      <psa30 value="0.0008887317" flag="0"/>
    </comp>
    <comp name="--.HHN">
      <acc value="0.0073551350" flag="0"/>
      <vel value="0.0055921105" flag="0"/>
      <psa03 value="0.0124782984" flag="0"/>
      <psa10 value="0.0090178531" flag="0"/>
      <psa30 value="0.0009536193" flag="0"/>
    </comp>
    <comp name="--.HHZ">
      <acc value="0.0034839436" flag="0"/>
      <vel value="0.0021554370" flag="0"/>
      <psa03 value="0.0096109509" flag="0"/>
      <psa10 value="0.0028115660" flag="0"/>
      <psa30 value="0.0003122048" flag="0"/>
    </comp>
  </station>
  <station code="MCEL" name="MCEL" netid="IV" insttype="" lat="40.3249" lon="15.8019">
    <comp name="--.HHE">
      <acc value="0.0120365343" flag="0"/>
      <vel value="0.0073964341" flag="0"/>
      <psa03 value="0.0236841959" flag="0"/>
      <psa10 value="0.0056905690" flag="0"/>
      <psa30 value="0.0006623060" flag="0"/>
    </comp>
    <comp name="--.HHN">
      <acc value="0.0073624085" flag="0"/>
      <vel value="0.0053028837" flag="0"/>
      <psa03 value="0.0224117157" flag="0"/>
      <psa10 value="0.0070238052" flag="0"/>
      <psa30 value="0.0007206832" flag="0"/>
    </comp>
    <comp name="--.HHZ">
      <acc value="0.0055045172" flag="0"/>
      <vel value="0.0029231231" flag="0"/>
      <psa03 value="0.0122833164" flag="0"/>
      <psa10 value="0.0038106490" flag="0"/>
      <psa30 value="0.0005395134" flag="0"/>
    </comp>
  </station>
  <station code="MILZ" name="MILZ" netid="IV" insttype="" lat="38.2713" lon="15.2313">
    <comp name="--.HHE">
      <acc value="0.0124565650" flag="0"/>
      <vel value="0.0071097218" flag="0"/>
      <psa03 value="0.0265085481" flag="0"/>
      <psa10 value="0.0111885348" flag="0"/>
      <psa30 value="0.0009936127" flag="0"/>
    </comp>
    <comp name="--.HHN">
      <acc value="0.0090875482" flag="0"/>
      <vel value="0.0050298146" flag="0"/>
      <psa03 value="0.0222002816" flag="0"/>
      <psa10 value="0.0067646699" flag="0"/>
      <psa30 value="0.0010778080" flag="0"/>
    </comp>
    <comp name="--.HHZ">
      <acc value="0.0111392413" flag="0"/>
      <vel value="0.0069156919" flag="0"/>
      <psa03 value="0.0196480125" flag="0"/>
      <psa10 value="0.0101656367" flag="0"/>
      <psa30 value="0.0006734648" flag="0"/>
    </comp>
  </station>
  <station code="MMN" name="MMN" netid="IV" insttype="" lat="39.891" lon="15.9904">
    <comp name="--.HHZ">
      <acc value="0.0294250258" flag="0"/>
      <vel value="0.0101547025" flag="0"/>
      <psa03 value="0.0499627443" flag="0"/>
      <psa10 value="0.0081027404" flag="0"/>
      <psa30 value="0.0005433067" flag="0"/>
    </comp>
    <comp name="--.HHN">
      <acc value="0.0935195495" flag="0"/>
      <vel value="0.0253648170" flag="0"/>
      <psa03 value="0.1718013563" flag="0"/>
      <psa10 value="0.0198427381" flag="0"/>
      <psa30 value="0.0010721579" flag="0"/>
    </comp>
    <comp name="--.HHE">
      <acc value="0.0691946680" flag="0"/>
      <vel value="0.0207547256" flag="0"/>
      <psa03 value="0.1168074156" flag="0"/>
      <psa10 value="0.0175336449" flag="0"/>
      <psa30 value="0.0009407685" flag="0"/>
    </comp>
  </station>
  <station code="MSRU" name="MSRU" netid="IV" insttype="" lat="38.2639" lon="15.5083">
    <comp name="--.HHE">
      <acc value="0.0204050897" flag="0"/>
      <vel value="0.0075148796" flag="0"/>
      <psa03 value="0.0252782322" flag="0"/>
      <psa10 value="0.0079146801" flag="0"/>
      <psa30 value="0.0008945687" flag="0"/>
    </comp>
    <comp name="--.HHN">
      <acc value="0.0124002883" flag="0"/>
      <vel value="0.0056324038" flag="0"/>
      <psa03 value="0.0195473189" flag="0"/>
      <psa10 value="0.0059908791" flag="0"/>
      <psa30 value="0.0004203832" flag="0"/>
    </comp>
    <comp name="--.HHZ">
      <acc value="0.0109988068" flag="0"/>
      <vel value="0.0038666560" flag="0"/>
      <psa03 value="0.0145391150" flag="0"/>
      <psa10 value="0.0036046460" flag="0"/>
      <psa30 value="0.0002290951" flag="0"/>
    </comp>
  </station>
  <station code="MTSN" name="MTSN" netid="IV" insttype="" lat="40.2663" lon="15.7515">
    <comp name="--.HHE">
      <acc value="0.0194166484" flag="0"/>
      <vel value="0.0100669012" flag="0"/>
      <psa03 value="0.0441574060" flag="0"/>
      <psa10 value="0.0130051992" flag="0"/>
      <psa30 value="0.0006602075" flag="0"/>
    </comp>
    <comp name="--.HHN">
      <acc value="0.0134424201" flag="0"/>
      <vel value="0.0089308149" flag="0"/>
      <psa03 value="0.0582214689" flag="0"/>
      <psa10 value="0.0102907882" flag="0"/>
      <psa30 value="0.0008023048" flag="0"/>
    </comp>
