<?xml version="1.0" encoding="UTF-8" standalone="yes"?>
<!DOCTYPE earthquake SYSTEM "stationlist.dtd">
<stationlist created="" xmlns="ch.ethz.sed.shakemap.usgs.xml">
  <station code="OEM4" name="OEM4" netid="3D" insttype="" lat="38.4095" lon="14.9422">
    <comp name="--.HHE">
      <acc value="0.0079211486" flag="0"/>
      <vel value="0.0042413666" flag="0"/>
      <psa03 value="0.0161532388" flag="0"/>
      <psa10 value="0.0049072487" flag="0"/>
      <psa30 value="0.0009439047" flag="0"/>
    </comp>
    <comp name="--.HHZ">
      <acc value="0.0093185103" flag="0"/>
      <vel value="0.0021073868" flag="0"/>
      <psa03 value="0.0054788123" flag="0"/>
      <psa10 value="0.0028510866" flag="0"/>
      <psa30 value="0.0007819988" flag="0"/>
    </comp>
    <comp name="--.HHN">
      <acc value="0.0076838047" flag="0"/>
      <vel value="0.0040796678" flag="0"/>
      <psa03 value="0.0102950968" flag="0"/>
      <psa10 value="0.0103695226" flag="0"/>
      <psa30 value="0.0010353976" flag="0"/>
    </comp>
  </station>
  <station code="OEM5" name="OEM5" netid="3D" insttype="" lat="38.4223" lon="14.9661">
    <comp name="--.HHE">
      <acc value="0.0051687508" flag="0"/>
      <vel value="0.0058505992" flag="0"/>
      <psa03 value="0.0117314648" flag="0"/>
      <psa10 value="0.0075923691" flag="0"/>
      <psa30 value="0.0024151280" flag="0"/>
    </comp>
    <comp name="--.HHN">
      <acc value="0.0053106605" flag="0"/>
      <vel value="0.0046904409" flag="0"/>
      <psa03 value="0.0121739499" flag="0"/>
      <psa10 value="0.0083579915" flag="0"/>
      <psa30 value="0.0012610659" flag="0"/>
    </comp>
    <comp name="--.HHZ">
      <acc value="0.0039292040" flag="0"/>
      <vel value="0.0031494591" flag="0"/>
      <psa03 value="0.0101349507" flag="0"/>
      <psa10 value="0.0051305051" flag="0"/>
      <psa30 value="0.0006088603" flag="0"/>
    </comp>
  </station>
  <station code="OEM9" name="OEM9" netid="3D" insttype="" lat="38.3879" lon="14.9908">
    <comp name="--.HHE">
      <acc value="0.0047145139" flag="0"/>
      <vel value="0.0041143653" flag="0"/>
      <psa03 value="0.0175890613" flag="0"/>
      <psa10 value="0.0045857154" flag="0"/>
      <psa30 value="0.0008730705" flag="0"/>
    </comp>
    <comp name="--.HHN">
      <acc value="0.0041598662" flag="0"/>
      <vel value="0.0032446029" flag="0"/>
      <psa03 value="0.0132790394" flag="0"/>
      <psa10 value="0.0037007698" flag="0"/>
      <psa30 value="0.0004606436" flag="0"/>
    </comp>
    <comp name="--.HHZ">
      <acc value="0.0034648424" flag="0"/>
      <vel value="0.0018068379" flag="0"/>
      <psa03 value="0.0074224568" flag="0"/>
      <psa10 value="0.0022363603" flag="0"/>
      <psa30 value="0.0003820412" flag="0"/>
    </comp>
  </station>
  <station code="CS2FF" name="CS2FF" netid="7C" insttype="" lat="39.2933" lon="16.2584">
    <comp name="--.HH1">
      <acc value="0.0207891592" flag="0"/>
      <vel value="0.0127305560" flag="0"/>
      <psa03 value="0.0498266453" flag="0"/>
      <psa10 value="0.0086000379" flag="0"/>
      <psa30 value="0.0006554154" flag="0"/>
    </comp>
    <comp name="--.HH2">
      <acc value="0.0185904618" flag="0"/>
      <vel value="0.0133279301" flag="0"/>
      <psa03 value="0.0506640403" flag="0"/>
      <psa10 value="0.0129105570" flag="0"/>
      <psa30 value="0.0009601997" flag="0"/>
    </comp>
    <comp name="--.HHZ">
      <acc value="0.0105099776" flag="0"/>
      <vel value="0.0055974750" flag="0"/>
      <psa03 value="0.0190983560" flag="0"/>
      <psa10 value="0.0052149345" flag="0"/>
      <psa30 value="0.0004413082" flag="0"/>
    </comp>
  </station>
  <station code="MARCO" name="MARCO" netid="GE" insttype="VBB" lat="40.2972" lon="15.8063">
    <comp name="--.HHE">
      <acc value="0.0102089559" flag="0"/>
      <vel value="0.0067052954" flag="0"/>
      <psa03 value="0.0375464201" flag="0"/>
      <psa10 value="0.0105204210" flag="0"/>
      <psa30 value="0.0008966310" flag="0"/>
    </comp>
    <comp name="--.HHZ">
      <acc value="0.0088487843" flag="0"/>
      <vel value="0.0055145184" flag="0"/>
      <psa03 value="0.0218230977" flag="0"/>
      <psa10 value="0.0041444372" flag="0"/>
      <psa30 value="0.0005898139" flag="0"/>
    </comp>
    <comp name="--.HHN">
      <acc value="0.0199054545" flag="0"/>
      <vel value="0.0147121560" flag="0"/>
      <psa03 value="0.0441733799" flag="0"/>
      <psa10 value="0.0094946288" flag="0"/>
      <psa30 value="0.0012028081" flag="0"/>
    </comp>
  </station>
  <station code="BULG" name="BULG" netid="IV" insttype="" lat="40.0783" lon="15.3776">
    <comp name="--.HHE">
      <acc value="0.0327163969" flag="0"/>
      <vel value="0.0160695983" flag="0"/>
      <psa03 value="0.0941881562" flag="0"/>
      <psa10 value="0.0142218995" flag="0"/>
      <psa30 value="0.0011568733" flag="0"/>
    </comp>
    <comp name="--.HHN">
      <acc value="0.0580632109" flag="0"/>
      <vel value="0.0468844935" flag="0"/>
      <psa03 value="0.1204836472" flag="0"/>
      <psa10 value="0.0506866415" flag="0"/>
      <psa30 value="0.0019839275" flag="0"/>
    </comp>
    <comp name="--.HHZ">
      <acc value="0.0200999852" flag="0"/>
      <vel value="0.0137404807" flag="0"/>
      <psa03 value="0.0441683179" flag="0"/>
      <psa10 value="0.0174602465" flag="0"/>
      <psa30 value="0.0010569598" flag="0"/>
    </comp>
  </station>
  <station code="CAR1" name="CAR1" netid="IV" insttype="" lat="39.2534" lon="16.2114">
    <comp name="--.HHZ">
      <acc value="0.0393815404" flag="0"/>
      <vel value="0.0156628045" flag="0"/>
      <psa03 value="0.0824542699" flag="0"/>
      <psa10 value="0.0096575435" flag="0"/>
      <psa30 value="0.0005989993" flag="0"/>
    </comp>
    <comp name="--.HHE">
      <acc value="0.0963388973" flag="0"/>
      <vel value="0.0315989858" flag="0"/>
      <psa03 value="0.1434321262" flag="0"/>
      <psa10 value="0.0268208248" flag="0"/>
      <psa30 value="0.0013966175" flag="0"/>
    </comp>
    <comp name="--.HHN">
      <acc value="0.0679907249" flag="0"/>
      <vel value="0.0397413504" flag="0"/>
      <psa03 value="0.1177185927" flag="0"/>
      <psa10 value="0.0286728249" flag="0"/>
      <psa30 value="0.0018464732" flag="0"/>
    </comp>
  </station>
  <station code="CELI" name="CELI" netid="IV" insttype="" lat="39.4027" lon="16.5088">
    <comp name="--.HHE">
      <acc value="0.0144209116" flag="0"/>
      <vel value="0.0073721599" flag="0"/>
      <psa03 value="0.0273821651" flag="0"/>
      <psa10 value="0.0061369740" flag="0"/>
      <psa30 value="0.0005016296" flag="0"/>
    </comp>
    <comp name="--.HHN">
      <acc value="0.0109246873" flag="0"/>
      <vel value="0.0084788819" flag="0"/>
      <psa03 value="0.0390252148" flag="0"/>
      <psa10 value="0.0098625025" flag="0"/>
      <psa30 value="0.0008415327" flag="0"/>
    </comp>
    <comp name="--.HHZ">
      <acc value="0.0063881347" flag="0"/>
      <vel value="0.0055250768" flag="0"/>
      <psa03 value="0.0159811640" flag="0"/>
      <psa10 value="0.0064248939" flag="0"/>
      <psa30 value="0.0003941060" flag="0"/>
    </comp>
  </station>
  <station code="CET2" name="CET2" netid="IV" insttype="" lat="39.5288" lon="15.9546">
    <comp name="--.HHE">
      <acc value="0.1870122738" flag="0"/>
      <vel value="0.0574543417" flag="0"/>
      <psa03 value="0.2227267961" flag="0"/>
      <psa10 value="0.0502779014" flag="0"/>
      <psa30 value="0.0025654480" flag="0"/>
    </comp>
    <comp name="--.HHN">
      <acc value="0.2623357023" flag="0"/>
      <vel value="0.0675530469" flag="0"/>
      <psa03 value="0.3497040762" flag="0"/>
      <psa10 value="0.0594359931" flag="0"/>
      <psa30 value="0.0027096544" flag="0"/>
    </comp>
    <comp name="--.HHZ">
      <acc value="0.1565689888" flag="0"/>
      <vel value="0.0355947911" flag="0"/>
      <psa03 value="0.1529818161" flag="0"/>
      <psa10 value="0.0141941018" flag="0"/>
      <psa30 value="0.0009462994" flag="0"/>
    </comp>
  </station>
  <station code="CMPR" name="CMPR" netid="IV" insttype="" lat="40.3181" lon="15.303">
    <comp name="--.HHN">
      <acc value="0.0175067949" flag="0"/>
      <vel value="0.0073163272" flag="0"/>
      <psa03 value="0.0535123400" flag="0"/>
      <psa10 value="0.0047244455" flag="0"/>
      <psa30 value="0.0004529313" flag="0"/>
    </comp>
    <comp name="--.HHZ">
      <acc value="0.0100703015" flag="0"/>
      <vel value="0.0057054339" flag="0"/>
      <psa03 value="0.0448596295" flag="0"/>
      <psa10 value="0.0024244877" flag="0"/>
      <psa30 value="0.0005145003" flag="0"/>
    </comp>
    <comp name="--.HHE">
      <acc value="0.0230174460" flag="0"/>
      <vel value="0.0114096362" flag="0"/>
      <psa03 value="0.0980591093" flag="0"/>
      <psa10 value="0.0074056907" flag="0"/>
      <psa30 value="0.0007692873" flag="0"/>
    </comp>
  </station>
  <station code="GIZZ" name="GIZZ" netid="IV" insttype="" lat="38.9798" lon="16.2078">
    <comp name="--.HHE">
      <acc value="0.0988051126" flag="0"/>
      <vel value="0.0226056940" flag="0"/>
      <psa03 value="0.0821055628" flag="0"/>
      <psa10 value="0.0137487456" flag="0"/>
      <psa30 value="0.0009041175" flag="0"/>
    </comp>
    <comp name="--.HHN">
      <acc value="0.1116454949" flag="0"/>
      <vel value="0.0284190916" flag="0"/>
      <psa03 value="0.0730156469" flag="0"/>
      <psa10 value="0.0095956360" flag="0"/>
      <psa30 value="0.0007805805" flag="0"/>
    </comp>
    <comp name="--.HHZ">
      <acc value="0.0646210768" flag="0"/>
      <vel value="0.0119805459" flag="0"/>
      <psa03 value="0.0409536835" flag="0"/>
      <psa10 value="0.0091066172" flag="0"/>
      <psa30 value="0.0005189095" flag="0"/>
    </comp>
  </station>
  <station code="GRIS" name="GRIS" netid="IV" insttype="" lat="39.7405" lon="15.8531">
    <comp name="--.HNE">
      <acc value="0.0741704010" flag="0"/>
      <vel value="0.0263975531" flag="0"/>
      <psa03 value="0.1434059480" flag="0"/>
      <psa10 value="0.0286693936" flag="0"/>
      <psa30 value="0.0014926582" flag="0"/>
    </comp>
    <comp name="--.HNN">
      <acc value="0.0990693657" flag="0"/>
      <vel value="0.0188809636" flag="0"/>
      <psa03 value="0.1318537646" flag="0"/>
      <psa10 value="0.0109171842" flag="0"/>
      <psa30 value="0.0010337658" flag="0"/>
    </comp>
    <comp name="--.HNZ">
      <acc value="0.0334050158" flag="0"/>
      <vel value="0.0097323703" flag="0"/>
      <psa03 value="0.0556774063" flag="0"/>
      <psa10 value="0.0086282365" flag="0"/>
      <psa30 value="0.0005784580" flag="0"/>
    </comp>
  </station>
  <station code="IACL" name="IACL" netid="IV" insttype="" lat="38.533" lon="14.355">
    <comp name="--.HHE">
      <acc value="0.0428075332" flag="0"/>
      <vel value="0.0158371237" flag="0"/>
      <psa03 value="0.0753377344" flag="0"/>
      <psa10 value="0.0066266710" flag="0"/>
      <psa30 value="0.0006797755" flag="0"/>
    </comp>
    <comp name="--.HHZ">
      <acc value="0.0211320233" flag="0"/>
      <vel value="0.0048972975" flag="0"/>
      <psa03 value="0.0271228439" flag="0"/>
      <psa10 value="0.0028783497" flag="0"/>
      <psa30 value="0.0004518494" flag="0"/>
    </comp>
    <comp name="--.HHN">
      <acc value="0.0367815114" flag="0"/>
      <vel value="0.0091232195" flag="0"/>
      <psa03 value="0.0506563194" flag="0"/>
      <psa10 value="0.0079171743" flag="0"/>
      <psa30 value="0.0008290074" flag="0"/>
    </comp>
  </station>
  <station code="IFIL" name="IFIL" netid="IV" insttype="" lat="38.5642" lon="14.5753">
    <comp name="--.HHE">
      <acc value="0.0631469749" flag="0"/>
      <vel value="0.0173546655" flag="0"/>
      <psa03 value="0.1401902603" flag="0"/>
      <psa10 value="0.0134178041" flag="0"/>
      <psa30 value="0.0010406472" flag="0"/>
    </comp>
    <comp name="--.HHN">
      <acc value="0.0282240038" flag="0"/>
      <vel value="0.0090428990" flag="0"/>
      <psa03 value="0.0651104539" flag="0"/>
      <psa10 value="0.0070275754" flag="0"/>
      <psa30 value="0.0006750396" flag="0"/>
    </comp>
    <comp name="--.HHZ">
      <acc value="0.0296837650" flag="0"/>
      <vel value="0.0100428921" flag="0"/>
      <psa03 value="0.0580489717" flag="0"/>
      <psa10 value="0.0070298829" flag="0"/>
      <psa30 value="0.0006113570" flag="0"/>
    </comp>
  </station>
  <station code="ILOS" name="ILOS" netid="IV" insttype="" lat="38.4457" lon="14.9483">
    <comp name="--.HHZ">
      <acc value="0.0042008108" flag="0"/>
      <vel value="0.0021417642" flag="0"/>
      <psa03 value="0.0132916811" flag="0"/>
      <psa10 value="0.0024874723" flag="0"/>
      <psa30 value="0.0003867580" flag="0"/>
    </comp>
    <comp name="--.HHE">
      <acc value="0.0051414743" flag="0"/>
      <vel value="0.0040195800" flag="0"/>
      <psa03 value="0.0158427206" flag="0"/>
      <psa10 value="0.0082459529" flag="0"/>
      <psa30 value="0.0007591537" flag="0"/>
    </comp>
    <comp name="--.HHN">
      <acc value="0.0084500170" flag="0"/>
      <vel value="0.0071677126" flag="0"/>
      <psa03 value="0.0246223253" flag="0"/>
      <psa10 value="0.0120741377" flag="0"/>
      <psa30 value="0.0007399624" flag="0"/>
    </comp>
  </station>
  <station code="IST3" name="IST3" netid="IV" insttype="" lat="38.7992" lon="15.2304">
    <comp name="--.HHE">
      <acc value="0.2165636293" flag="0"/>
      <vel value="0.0449128619" flag="0"/>
      <psa03 value="0.1002855535" flag="0"/>
      <psa10 value="0.0253216601" flag="0"/>
      <psa30 value="0.0015223631" flag="0"/>
    </comp>
    <comp name="--.HHZ">
      <acc value="0.1594261191" flag="0"/>
      <vel value="0.0310142620" flag="0"/>
      <psa03 value="0.1130727511" flag="0"/>
      <psa10 value="0.0156425259" flag="0"/>
      <psa30 value="0.0013436482" flag="0"/>
    </comp>
    <comp name="--.HHN">
      <acc value="0.3202960511" flag="0"/>
      <vel value="0.0586129092" flag="0"/>
      <psa03 value="0.2124580551" flag="0"/>
      <psa10 value="0.0286554400" flag="0"/>
      <psa30 value="0.0015208270" flag="0"/>
    </comp>
  </station>
  <station code="ISTR" name="ISTR" netid="IV" insttype="" lat="38.7866" lon="15.1918">
    <comp name="--.HHE">
      <acc value="0.0915903202" flag="0"/>
      <vel value="0.0257794796" flag="0"/>
      <psa03 value="0.1285313023" flag="0"/>
      <psa10 value="0.0192513466" flag="0"/>
      <psa30 value="0.0009998484" flag="0"/>
    </comp>
    <comp name="--.HHN">
      <acc value="0.0865553636" flag="0"/>
      <vel value="0.0321503482" flag="0"/>
      <psa03 value="0.1624971114" flag="0"/>
      <psa10 value="0.0137064240" flag="0"/>
      <psa30 value="0.0019475586" flag="0"/>
    </comp>
    <comp name="--.HHZ">
      <acc value="0.0692682649" flag="0"/>
      <vel value="0.0193059109" flag="0"/>
      <psa03 value="0.1239608297" flag="0"/>
      <psa10 value="0.0077419229" flag="0"/>
      <psa30 value="0.0006699679" flag="0"/>
    </comp>
  </station>
  <station code="IVCR" name="IVCR" netid="IV" insttype="" lat="38.4096" lon="14.961">
    <comp name="--.HHE">
      <acc value="0.0054135911" flag="0"/>
      <vel value="0.0030190350" flag="0"/>
      <psa03 value="0.0119693884" flag="0"/>
      <psa10 value="0.0025554977" flag="0"/>
      <psa30 value="0.0010071100" flag="0"/>
    </comp>
    <comp name="--.HHN">
      <acc value="0.0045227514" flag="0"/>
      <vel value="0.0025240660" flag="0"/>
      <psa03 value="0.0088017967" flag="0"/>
      <psa10 value="0.0029470468" flag="0"/>
      <psa30 value="0.0005736257" flag="0"/>
    </comp>
    <comp name="--.HHZ">
      <acc value="0.0029402365" flag="0"/>
      <vel value="0.0015487792" flag="0"/>
      <psa03 value="0.0068620180" flag="0"/>
      <psa10 value="0.0026375972" flag="0"/>
      <psa30 value="0.0007526661" flag="0"/>
    </comp>
  </station>
  <station code="IVGP" name="IVGP" netid="IV" insttype="" lat="38.3968" lon="14.9608">
    <comp name="--.HHN">
      <acc value="0.0037309552" flag="0"/>
      <vel value="0.0018871110" flag="0"/>
      <psa03 value="0.0109234659" flag="0"/>
      <psa10 value="0.0025153984" flag="0"/>
      <psa30 value="0.0003539284" flag="0"/>
    </comp>
    <comp name="--.HHE">
      <acc value="0.0051435490" flag="0"/>
      <vel value="0.0020786299" flag="0"/>
      <psa03 value="0.0116862805" flag="0"/>
      <psa10 value="0.0039455044" flag="0"/>
      <psa30 value="0.0005244031" flag="0"/>
    </comp>
    <comp name="--.HHZ">
      <acc value="0.0032266512" flag="0"/>
      <vel value="0.0013190491" flag="0"/>
      <psa03 value="0.0082862934" flag="0"/>
      <psa10 value="0.0014529021" flag="0"/>
      <psa30 value="0.0004457595" flag="0"/>
    </comp>
  </station>
  <station code="IVLT" name="IVLT" netid="IV" insttype="" lat="38.3961" lon="14.9482">
    <comp name="--.HHE">
      <acc value="0.0044360302" flag="0"/>
      <vel value="0.0051404869" flag="0"/>
      <psa03 value="0.0077690749" flag="0"/>
      <psa10 value="0.0116471019" flag="0"/>
      <psa30 value="0.0005805762" flag="0"/>
    </comp>
    <comp name="--.HHN">
      <acc value="0.0044846118" flag="0"/>
      <vel value="0.0045081938" flag="0"/>
      <psa03 value="0.0091489523" flag="0"/>
      <psa10 value="0.0076578757" flag="0"/>
      <psa30 value="0.0005946780" flag="0"/>
    </comp>
    <comp name="--.HHZ">
      <acc value="0.0029954578" flag="0"/>
      <vel value="0.0024767069" flag="0"/>
      <psa03 value="0.0096537590" flag="0"/>
      <psa10 value="0.0027814134" flag="0"/>
      <psa30 value="0.0006857460" flag="0"/>
    </comp>
  </station>
  <station code="IVPL" name="IVPL" netid="IV" insttype="" lat="38.3763" lon="14.9801">
    <comp name="--.HHE">
      <acc value="0.0056035995" flag="0"/>
      <vel value="0.0042187438" flag="0"/>
      <psa03 value="0.0166584131" flag="0"/>
      <psa10 value="0.0136556822" flag="0"/>
      <psa30 value="0.0008886655" flag="0"/>
    </comp>
    <comp name="--.HHN">
      <acc value="0.0073551373" flag="0"/>
      <vel value="0.0055921114" flag="0"/>
      <psa03 value="0.0124782984" flag="0"/>
      <psa10 value="0.0090178531" flag="0"/>
      <psa30 value="0.0009536023" flag="0"/>
    </comp>
    <comp name="--.HHZ">
      <acc value="0.0034839430" flag="0"/>
      <vel value="0.0021554368" flag="0"/>
      <psa03 value="0.0096109509" flag="0"/>
      <psa10 value="0.0028115660" flag="0"/>
      <psa30 value="0.0003121910" flag="0"/>
    </comp>
  </station>
  <station code="IVUG" name="IVUG" netid="IV" insttype="" lat="38.396" lon="14.986">
    <comp name="--.HHE">
      <acc value="0.0462896051" flag="0"/>
      <vel value="0.0046449701" flag="0"/>
      <psa03 value="0.0274176832" flag="0"/>
      <psa10 value="0.0051416066" flag="0"/>
      <psa30 value="0.0009440792" flag="0"/>
    </comp>
    <comp name="--.HHN">
      <acc value="0.0208335979" flag="0"/>
      <vel value="0.0042173322" flag="0"/>
      <psa03 value="0.0141258683" flag="0"/>
      <psa10 value="0.0032716212" flag="0"/>
      <psa30 value="0.0004789967" flag="0"/>
    </comp>
    <comp name="--.HHZ">
      <acc value="0.0488785597" flag="0"/>
      <vel value="0.0025447568" flag="0"/>
      <psa03 value="0.0059055190" flag="0"/>
      <psa10 value="0.0027641362" flag="0"/>
      <psa30 value="0.0002562768" flag="0"/>
    </comp>
  </station>
  <station code="MCEL" name="MCEL" netid="IV" insttype="" lat="40.3249" lon="15.8019">
    <comp name="--.HHE">
      <acc value="0.0120365339" flag="0"/>
      <vel value="0.0073964363" flag="0"/>
      <psa03 value="0.0236841959" flag="0"/>
      <psa10 value="0.0056905690" flag="0"/>
      <psa30 value="0.0006623429" flag="0"/>
    </comp>
    <comp name="--.HHN">
      <acc value="0.0073624085" flag="0"/>
      <vel value="0.0053028835" flag="0"/>
      <psa03 value="0.0224117157" flag="0"/>
      <psa10 value="0.0070238052" flag="0"/>
      <psa30 value="0.0007207523" flag="0"/>
    </comp>
