<?xml version="1.0" encoding="UTF-8" standalone="yes"?>
<!DOCTYPE earthquake SYSTEM "stationlist.dtd">
<stationlist created="" xmlns="ch.ethz.sed.shakemap.usgs.xml">
  <station code="DYBB" name="DYBB" netid="KO" insttype="CMG-3T" lat="37.9532" lon="40.1393">
    <comp name="--.HHN">
      <acc value="0.0095064592" flag="0"/>
      <vel value="0.0089657632" flag="0"/>
      <psa03 value="0.0211721961" flag="0"/>
      <psa10 value="0.0143600880" flag="0"/>
      <psa30 value="0.0042978173" flag="0"/>
    </comp>
    <comp name="--.HHZ">
      <acc value="0.0068065813" flag="0"/>
      <vel value="0.0062664139" flag="0"/>
      <psa03 value="0.0171356509" flag="0"/>
      <psa10 value="0.0131430300" flag="0"/>
      <psa30 value="0.0024209832" flag="0"/>
    </comp>
  </station>
  <station code="ERZN" name="ERZN" netid="KO" insttype="CMG-3ESP" lat="39.5867" lon="39.722">
    <comp name="--.HHE">
      <acc value="0.0670318113" flag="0"/>
      <vel value="0.0333504289" flag="0"/>
      <psa03 value="0.1383189314" flag="0"/>
      <psa10 value="0.0720907954" flag="0"/>
      <psa30 value="0.0084106159" flag="0"/>
    </comp>
  </station>
  <station code="RFHY" name="RFHY" netid="KO" insttype="CMG-5T" lat="39.927" lon="38.833">
    <comp name="--.HNN">
      <acc value="0.0203482487" flag="0"/>
      <vel value="0.0215645633" flag="0"/>
      <psa03 value="0.0491942723" flag="0"/>
      <psa10 value="0.0542149042" flag="0"/>
      <psa30 value="0.0137009413" flag="0"/>
    </comp>
    <comp name="--.HNE">
      <acc value="0.0018263981" flag="0"/>
      <vel value="0.0021395852" flag="0"/>
      <psa03 value="0.0026427056" flag="0"/>
      <psa10 value="0.0043641168" flag="0"/>
      <psa30 value="0.0010577573" flag="0"/>
    </comp>
    <comp name="--.HNZ">
      <acc value="0.0094543580" flag="0"/>
      <vel value="0.0157529599" flag="0"/>
      <psa03 value="0.0264562726" flag="0"/>
      <psa10 value="0.0266383715" flag="0"/>
      <psa30 value="0.0041132808" flag="0"/>
    </comp>
  </station>
  <station code="VRTB" name="VRTB" netid="KO" insttype="CMG-3ESPC" lat="39.1603" lon="41.4558">
    <comp name="--.HHE">
      <acc value="0.0107597286" flag="0"/>
      <vel value="0.0182055383" flag="0"/>
      <psa03 value="0.0142758457" flag="0"/>
      <psa10 value="0.0396262348" flag="0"/>
      <psa30 value="0.0137759786" flag="0"/>
    </comp>
    <comp name="--.HHN">
      <acc value="0.0240368546" flag="0"/>
      <vel value="0.0673396336" flag="0"/>
      <psa03 value="0.0318187925" flag="0"/>
      <psa10 value="0.0517213574" flag="0"/>
      <psa30 value="0.0320455342" flag="0"/>
    </comp>
    <comp name="--.HHZ">
      <acc value="0.0261234486" flag="0"/>
      <vel value="0.0485491972" flag="0"/>
      <psa03 value="0.0377820457" flag="0"/>
      <psa10 value="0.1089159570" flag="0"/>
      <psa30 value="0.0190758365" flag="0"/>
    </comp>
  </station>
</stationlist>
