<?xml version="1.0" encoding="UTF-8" standalone="yes"?>
<!DOCTYPE earthquake SYSTEM "stationlist.dtd">
<stationlist created="" xmlns="ch.ethz.sed.shakemap.usgs.xml">
  <station code="APE" name="APE" netid="GE" insttype="STS-2/N" lat="37.0727" lon="25.523">
    <comp name="--.HHN">
      <acc value="0.1517751233" flag="0"/>
      <vel value="0.0274114028" flag="0"/>
      <psa03 value="0.1552735229" flag="0"/>
      <psa10 value="0.0057939469" flag="0"/>
      <psa30 value="0.0011354476" flag="0"/>
    </comp>
    <comp name="--.HHE">
      <acc value="0.1315774121" flag="0"/>
      <vel value="0.0260935167" flag="0"/>
      <psa03 value="0.1312160943" flag="0"/>
      <psa10 value="0.0050146647" flag="0"/>
      <psa30 value="0.0017169311" flag="0"/>
    </comp>
    <comp name="--.HHZ">
      <acc value="0.0680172578" flag="0"/>
      <vel value="0.0110543847" flag="0"/>
      <psa03 value="0.0473546581" flag="0"/>
      <psa10 value="0.0065803082" flag="0"/>
      <psa30 value="0.0010260198" flag="0"/>
    </comp>
  </station>
  <station code="THERA" name="THERA" netid="GE" insttype="STS-2/N" lat="36.367" lon="25.4753">
    <comp name="--.HHE">
      <acc value="0.3503960758" flag="0"/>
      <vel value="0.0833937032" flag="0"/>
      <psa03 value="0.3223650276" flag="0"/>
      <psa10 value="0.0296983845" flag="0"/>
      <psa30 value="0.0023270362" flag="0"/>
    </comp>
    <comp name="--.HHN">
      <acc value="0.3592836693" flag="0"/>
      <vel value="0.0694250397" flag="0"/>
      <psa03 value="0.2359108639" flag="0"/>
      <psa10 value="0.0142285418" flag="0"/>
      <psa30 value="0.0012689965" flag="0"/>
    </comp>
    <comp name="--.HHZ">
      <acc value="0.2864989459" flag="0"/>
      <vel value="0.0574510640" flag="0"/>
      <psa03 value="0.1852203948" flag="0"/>
      <psa10 value="0.0133976116" flag="0"/>
      <psa30 value="0.0017049531" flag="0"/>
    </comp>
  </station>
</stationlist>
