<?xml version="1.0" encoding="UTF-8" standalone="yes"?>
<!DOCTYPE earthquake SYSTEM "stationlist.dtd">
<stationlist created="" xmlns="ch.ethz.sed.shakemap.usgs.xml">
  <station code="APE" name="APE" netid="GE" insttype="STS-2/N" lat="37.0727" lon="25.523">
    <comp name="--.HHN">
      <acc value="0.1517751233" flag="0"/>
      <vel value="0.0274114028" flag="0"/>
      <psa03 value="0.1552735229" flag="0"/>
      <psa10 value="0.0057939469" flag="0"/>
      <psa30 value="0.0011354476" flag="0"/>
    </comp>
    <comp name="--.HHE">
      <acc value="0.1315774121" flag="0"/>
      <vel value="0.0260935167" flag="0"/>
      <psa03 value="0.1312160943" flag="0"/>
      <psa10 value="0.0050146647" flag="0"/>
      <psa30 value="0.0017169311" flag="0"/>
    </comp>
    <comp name="--.HHZ">
      <acc value="0.0680172578" flag="0"/>
      <vel value="0.0110543847" flag="0"/>
      <psa03 value="0.0473546581" flag="0"/>
      <psa10 value="0.0065803082" flag="0"/>
      <psa30 value="0.0010260198" flag="0"/>
    </comp>
  </station>
  <station code="THERA" name="THERA" netid="GE" insttype="STS-2/N" lat="36.367" lon="25.4753">
    <comp name="--.HHE">
      <acc value="0.3503960758" flag="0"/>
      <vel value="0.0833937032" flag="0"/>
      <psa03 value="0.3223650276" flag="0"/>
      <psa10 value="0.0296983845" flag="0"/>
      <psa30 value="0.0023270362" flag="0"/>
    </comp>
    <comp name="--.HHN">
      <acc value="0.3592836693" flag="0"/>
      <vel value="0.0694250397" flag="0"/>
      <psa03 value="0.2359108639" flag="0"/>
      <psa10 value="0.0142285418" flag="0"/>
      <psa30 value="0.0012689965" flag="0"/>
    </comp>
    <comp name="--.HHZ">
      <acc value="0.2864989459" flag="0"/>
      <vel value="0.0574510640" flag="0"/>
      <psa03 value="0.1852203948" flag="0"/>
      <psa10 value="0.0133976116" flag="0"/>
      <psa30 value="0.0017049531" flag="0"/>
    </comp>
  </station>
  <station code="SNT1" name="SNT1" netid="HA" insttype="30" lat="36.4159" lon="25.4282">
    <comp name="--.HHE">
      <acc value="0.3477910618" flag="0"/>
      <vel value="0.0768449894" flag="0"/>
      <psa03 value="0.1623837069" flag="0"/>
      <psa10 value="0.0519483652" flag="0"/>
      <psa30 value="0.0046112084" flag="0"/>
    </comp>
    <comp name="--.HHZ">
      <acc value="0.2619298307" flag="0"/>
      <vel value="0.0627750891" flag="0"/>
      <psa03 value="0.2471231099" flag="0"/>
      <psa10 value="0.0194387971" flag="0"/>
      <psa30 value="0.0023816078" flag="0"/>
    </comp>
    <comp name="--.HHN">
      <acc value="0.2301252530" flag="0"/>
      <vel value="0.0576307472" flag="0"/>
      <psa03 value="0.2792324985" flag="0"/>
      <psa10 value="0.0340593285" flag="0"/>
      <psa30 value="0.0036406180" flag="0"/>
    </comp>
  </station>
  <station code="NAX1" name="NAX1" netid="HI" insttype="CMG-5TD,ACCELEROMETER,GURALP" lat="37.1014" lon="25.3741">
    <comp name="--.HNZ">
      <acc value="0.1195609092" flag="0"/>
      <vel value="0.0162254386" flag="0"/>
      <psa03 value="0.0592319971" flag="0"/>
      <psa10 value="0.0068647003" flag="0"/>
      <psa30 value="0.0009562233" flag="0"/>
    </comp>
    <comp name="--.HNE">
      <acc value="0.1509144925" flag="0"/>
      <vel value="0.0290489584" flag="0"/>
      <psa03 value="0.2128048073" flag="0"/>
      <psa10 value="0.0119554527" flag="0"/>
      <psa30 value="0.0011750223" flag="0"/>
    </comp>
    <comp name="--.HNN">
      <acc value="0.2308126003" flag="0"/>
      <vel value="0.0312749351" flag="0"/>
      <psa03 value="0.0735961546" flag="0"/>
      <psa10 value="0.0060435486" flag="0"/>
      <psa30 value="0.0007512020" flag="0"/>
    </comp>
  </station>
  <station code="APE" name="APE" netid="HL" insttype="120" lat="37.0727" lon="25.523">
    <comp name="--.HHE">
      <acc value="0.1177265958" flag="0"/>
      <vel value="0.0243405691" flag="0"/>
      <psa03 value="0.1272733789" flag="0"/>
      <psa10 value="0.0049575474" flag="0"/>
      <psa30 value="0.0017136255" flag="0"/>
    </comp>
    <comp name="--.HHN">
      <acc value="0.1335232344" flag="0"/>
      <vel value="0.0246929053" flag="0"/>
      <psa03 value="0.1515916240" flag="0"/>
      <psa10 value="0.0056180344" flag="0"/>
      <psa30 value="0.0011255831" flag="0"/>
    </comp>
    <comp name="--.HHZ">
      <acc value="0.0624253559" flag="0"/>
      <vel value="0.0107225106" flag="0"/>
      <psa03 value="0.0462954479" flag="0"/>
      <psa10 value="0.0065186241" flag="0"/>
      <psa30 value="0.0010221832" flag="0"/>
    </comp>
  </station>
  <station code="MHLO" name="MHLO" netid="HL" insttype="20" lat="36.6898" lon="24.4017">
    <comp name="--.HHE">
      <acc value="0.0746523162" flag="0"/>
      <vel value="0.0318881899" flag="0"/>
      <psa03 value="0.1433205691" flag="0"/>
      <psa10 value="0.0392640938" flag="0"/>
      <psa30 value="0.0029296890" flag="0"/>
    </comp>
    <comp name="--.HHN">
      <acc value="0.0684940773" flag="0"/>
      <vel value="0.0280668833" flag="0"/>
      <psa03 value="0.1152594447" flag="0"/>
      <psa10 value="0.0480693279" flag="0"/>
      <psa30 value="0.0024845539" flag="0"/>
    </comp>
    <comp name="--.HHZ">
      <acc value="0.0314921614" flag="0"/>
      <vel value="0.0200570174" flag="0"/>
      <psa03 value="0.0553689987" flag="0"/>
      <psa10 value="0.0267151331" flag="0"/>
      <psa30 value="0.0019122493" flag="0"/>
    </comp>
  </station>
  <station code="SAP3" name="SAP3" netid="HL" insttype="LE3D20_SMART24" lat="36.4356" lon="25.3454">
    <comp name="--.HHE">
      <acc value="0.9788675236" flag="0"/>
      <vel value="0.3114796920" flag="0"/>
      <psa03 value="1.3262576728" flag="0"/>
      <psa10 value="0.1894482636" flag="0"/>
      <psa30 value="0.0164853400" flag="0"/>
    </comp>
    <comp name="--.HHZ">
      <acc value="1.1511733359" flag="0"/>
      <vel value="0.2597314200" flag="0"/>
      <psa03 value="0.8611238879" flag="0"/>
      <psa10 value="0.0792153821" flag="0"/>
      <psa30 value="0.0076353528" flag="0"/>
    </comp>
    <comp name="--.HHN">
      <acc value="1.0916953987" flag="0"/>
      <vel value="0.3437886612" flag="0"/>
      <psa03 value="0.8628429611" flag="0"/>
      <psa10 value="0.1395316877" flag="0"/>
      <psa30 value="0.0155736244" flag="0"/>
    </comp>
  </station>
  <station code="THERA" name="THERA" netid="HL" insttype="120" lat="36.367" lon="25.4753">
    <comp name="--.HHE">
      <acc value="0.3527186701" flag="0"/>
      <vel value="0.0820444918" flag="0"/>
      <psa03 value="0.3128448832" flag="0"/>
      <psa10 value="0.0293625206" flag="0"/>
      <psa30 value="0.0023027954" flag="0"/>
    </comp>
    <comp name="--.HHN">
      <acc value="0.3590081821" flag="0"/>
      <vel value="0.0672800324" flag="0"/>
      <psa03 value="0.2289440855" flag="0"/>
      <psa10 value="0.0140222003" flag="0"/>
      <psa30 value="0.0012633049" flag="0"/>
    </comp>
    <comp name="--.HHZ">
      <acc value="0.2830008541" flag="0"/>
      <vel value="0.0559907317" flag="0"/>
      <psa03 value="0.1796470555" flag="0"/>
      <psa10 value="0.0131871554" flag="0"/>
      <psa30 value="0.0016986964" flag="0"/>
    </comp>
  </station>
  <station code="THRA" name="THRA" netid="HL" insttype="CMG-5" lat="36.415" lon="25.4324">
    <comp name="00.HNE">
      <acc value="1.0467663470" flag="0"/>
      <vel value="0.2937834170" flag="0"/>
      <psa03 value="1.3902455269" flag="0"/>
      <psa10 value="0.1625040075" flag="0"/>
      <psa30 value="0.0101218857" flag="0"/>
    </comp>
    <comp name="00.HNZ">
      <acc value="0.6803675480" flag="0"/>
      <vel value="0.1677732646" flag="0"/>
      <psa03 value="0.6367113267" flag="0"/>
      <psa10 value="0.0589775803" flag="0"/>
      <psa30 value="0.0042092939" flag="0"/>
    </comp>
    <comp name="00.HNN">
      <acc value="0.8218464264" flag="0"/>
      <vel value="0.2273407690" flag="0"/>
      <psa03 value="1.0323358401" flag="0"/>
      <psa10 value="0.1201224196" flag="0"/>
      <psa30 value="0.0083165093" flag="0"/>
    </comp>
  </station>
  <station code="TNSA" name="TNSA" netid="HL" insttype="CMG-5" lat="37.5394" lon="25.1631">
    <comp name="00.HNE">
      <acc value="0.0526924053" flag="0"/>
      <vel value="0.0163975689" flag="0"/>
      <psa03 value="0.1024526143" flag="0"/>
      <psa10 value="0.0033686455" flag="0"/>
      <psa30 value="0.0008361198" flag="0"/>
    </comp>
    <comp name="00.HNN">
      <acc value="0.0635258463" flag="0"/>
      <vel value="0.0188678147" flag="0"/>
      <psa03 value="0.1133217466" flag="0"/>
      <psa10 value="0.0068630668" flag="0"/>
      <psa30 value="0.0009024041" flag="0"/>
    </comp>
    <comp name="00.HNZ">
      <acc value="0.0362338288" flag="0"/>
      <vel value="0.0129766425" flag="0"/>
      <psa03 value="0.1072487432" flag="0"/>
      <psa10 value="0.0057579253" flag="0"/>
      <psa30 value="0.0007924056" flag="0"/>
    </comp>
  </station>
  <station code="CMBO" name="CMBO" netid="HT" insttype="120P," lat="36.4709" lon="25.4056">
    <comp name="--.HHZ">
      <acc value="1.2594637496" flag="0"/>
      <vel value="0.3135584580" flag="0"/>
      <psa03 value="1.6741988518" flag="0"/>
      <psa10 value="0.0815450626" flag="0"/>
      <psa30 value="0.0096184253" flag="0"/>
    </comp>
    <comp name="--.HHN">
      <acc value="1.5985301128" flag="0"/>
      <vel value="0.4279953373" flag="0"/>
      <psa03 value="1.7089401395" flag="0"/>
      <psa10 value="0.2157552022" flag="0"/>
      <psa30 value="0.0128502049" flag="0"/>
    </comp>
    <comp name="--.HHE">
      <acc value="1.0638339102" flag="0"/>
      <vel value="0.2981986065" flag="0"/>
      <psa03 value="1.5544368506" flag="0"/>
      <psa10 value="0.1692884114" flag="0"/>
      <psa30 value="0.0137505840" flag="0"/>
    </comp>
  </station>
</stationlist>
