<stationlist created="1738524753">
	<station code="BODA" name="BODA" netid="KO" source="Bogazici University Kandilli Observatory And Earthquake Research Institute (KOERI)" insttype="" lat="37.0348" lon="27.4304">
		<comp name=".HNE" depth="0.0">
			<acc value="0.004388817083787" flag="0"/>
			<vel value="0.00145551986211" flag="0"/>
			<psa03 value="0.0108422162904977" flag="0"/>
			<psa10 value="0.00116440139369219" flag="0"/>
			<psa30 value="0.000175096976919643" flag="0"/>
		</comp>
		<comp name=".HNN" depth="0.0">
			<acc value="0.0055952938757118" flag="0"/>
			<vel value="0.0020538837922" flag="0"/>
			<psa03 value="0.0169639180471653" flag="0"/>
			<psa10 value="0.00145222030403226" flag="0"/>
			<psa30 value="0.00020726606108833" flag="0"/>
		</comp>
		<comp name=".HNZ" depth="0.0">
			<acc value="0.0090678495854844" flag="0"/>
			<vel value="0.00131414726231" flag="0"/>
			<psa03 value="0.00412911533050122" flag="0"/>
			<psa10 value="0.000674113777824951" flag="0"/>
			<psa30 value="0.000201634086435306" flag="0"/>
		</comp>
	</station>
	<station code="BODM" name="BODM" netid="KO" source="Bogazici University Kandilli Observatory And Earthquake Research Institute (KOERI)" insttype="" lat="37.031" lon="27.4247">
		<comp name=".HNE" depth="0.0">
			<acc value="0.0059014633307802" flag="0"/>
			<vel value="0.00320634637429" flag="0"/>
			<psa03 value="0.0149731911191551" flag="0"/>
			<psa10 value="0.00146279846571761" flag="0"/>
			<psa30 value="0.000209614797410059" flag="0"/>
		</comp>
		<comp name=".HNN" depth="0.0">
			<acc value="0.0056470745887506" flag="0"/>
			<vel value="0.00361554393884" flag="0"/>
			<psa03 value="0.0147473376158353" flag="0"/>
			<psa10 value="0.00208230223917968" flag="0"/>
			<psa30 value="0.000278650855084904" flag="0"/>
		</comp>
		<comp name=".HNZ" depth="0.0">
			<acc value="0.0012725101163214" flag="0"/>
			<vel value="0.000806772681028" flag="0"/>
			<psa03 value="0.00247855790974682" flag="0"/>
			<psa10 value="0.000562064148054775" flag="0"/>
			<psa30 value="0.00018877624247879" flag="0"/>
		</comp>
	</station>
	<station code="CESE" name="CESE" netid="KO" source="Bogazici University Kandilli Observatory And Earthquake Research Institute (KOERI)" insttype="" lat="38.3306" lon="26.2997">
		<comp name=".HNE" depth="0.0">
			<acc value="0.0012836992371474" flag="0"/>
			<vel value="0.00102728926456" flag="0"/>
			<psa03 value="0.00225481229342636" flag="0"/>
			<psa10 value="0.00123433239346246" flag="0"/>
			<psa30 value="0.000616751117153433" flag="0"/>
		</comp>
		<comp name=".HNN" depth="0.0">
			<acc value="0.001679717521782" flag="0"/>
			<vel value="0.00164375271023" flag="0"/>
			<psa03 value="0.00607119255129085" flag="0"/>
			<psa10 value="0.00151479519149663" flag="0"/>
			<psa30 value="0.000736747295475084" flag="0"/>
		</comp>
		<comp name=".HNZ" depth="0.0">
			<acc value="0.00075463117512024" flag="0"/>
			<vel value="0.000836573127878" flag="0"/>
			<psa03 value="0.00179825486774567" flag="0"/>
			<psa10 value="0.000711631907746082" flag="0"/>
			<psa30 value="0.000397619517424985" flag="0"/>
		</comp>
	</station>
	<station code="DATC" name="DATC" netid="KO" source="Bogazici University Kandilli Observatory And Earthquake Research Institute (KOERI)" insttype="" lat="36.7584" lon="27.6602">
		<comp name=".HNE" depth="0.0">
			<acc value="0.003788554140402" flag="0"/>
			<vel value="0.00265378902465" flag="0"/>
			<psa03 value="0.00670316670816246" flag="0"/>
			<psa10 value="0.00367614141695179" flag="0"/>
			<psa30 value="0.000759561358880157" flag="0"/>
		</comp>
		<comp name=".HNN" depth="0.0">
			<acc value="0.0037267567601436" flag="0"/>
			<vel value="0.00213562228921" flag="0"/>
			<psa03 value="0.00895649827199217" flag="0"/>
			<psa10 value="0.00387639319827419" flag="0"/>
			<psa30 value="0.000577865832860521" flag="0"/>
		</comp>
		<comp name=".HNZ" depth="0.0">
			<acc value="0.0099834479267364" flag="0"/>
			<vel value="0.0023173917266" flag="0"/>
			<psa03 value="0.00767831594243092" flag="0"/>
			<psa10 value="0.00286598298230804" flag="0"/>
			<psa30 value="0.000473215046089452" flag="0"/>
		</comp>
	</station>
	<station code="DIDI" name="DIDI" netid="KO" source="Bogazici University Kandilli Observatory And Earthquake Research Institute (KOERI)" insttype="" lat="37.3767" lon="27.2398">
		<comp name=".HNE" depth="0.0">
			<acc value="0.010262587730808" flag="0"/>
			<vel value="0.00423081303007" flag="0"/>
			<psa03 value="0.0277711495982192" flag="0"/>
			<psa10 value="0.00371624141713242" flag="0"/>
			<psa30 value="0.00162942002441538" flag="0"/>
		</comp>
		<comp name=".HNN" depth="0.0">
			<acc value="0.011454688550484" flag="0"/>
			<vel value="0.00537533836142" flag="0"/>
			<psa03 value="0.0298447843621562" flag="0"/>
			<psa10 value="0.00400217512446095" flag="0"/>
			<psa30 value="0.00109856944150261" flag="0"/>
		</comp>
		<comp name=".HNZ" depth="0.0">
			<acc value="0.023232737715678" flag="0"/>
			<vel value="0.00347249433671" flag="0"/>
			<psa03 value="0.0182586275132278" flag="0"/>
			<psa10 value="0.0025176008412003" flag="0"/>
			<psa30 value="0.000458756223680658" flag="0"/>
		</comp>
	</station>
	<station code="GMLD" name="GMLD" netid="KO" source="Bogazici University Kandilli Observatory And Earthquake Research Institute (KOERI)" insttype="" lat="38.0766" lon="26.9157">
		<comp name=".HNE" depth="0.0">
			<acc value="0.011353720844748" flag="0"/>
			<vel value="0.00414249715909" flag="0"/>
			<psa03 value="0.0247574707900862" flag="0"/>
			<psa10 value="0.0025974178474358" flag="0"/>
			<psa30 value="0.000468098717577638" flag="0"/>
		</comp>
		<comp name=".HNN" depth="0.0">
			<acc value="0.011154977464932" flag="0"/>
			<vel value="0.00397337457362" flag="0"/>
			<psa03 value="0.021360925473162" flag="0"/>
			<psa10 value="0.00309054035813282" flag="0"/>
			<psa30 value="0.000619271492448114" flag="0"/>
		</comp>
		<comp name=".HNZ" depth="0.0">
			<acc value="0.00658370204904" flag="0"/>
			<vel value="0.0026017777107" flag="0"/>
			<psa03 value="0.0136437033075686" flag="0"/>
			<psa10 value="0.000915238169098163" flag="0"/>
			<psa30 value="0.000515462376018965" flag="0"/>
		</comp>
	</station>
	<station code="KUSD" name="KUSD" netid="KO" source="Bogazici University Kandilli Observatory And Earthquake Research Institute (KOERI)" insttype="" lat="37.8606" lon="27.2868">
		<comp name=".HNE" depth="0.0">
			<acc value="0.001875610404294" flag="0"/>
			<vel value="0.00102497445684" flag="0"/>
			<psa03 value="0.0063293366052154" flag="0"/>
			<psa10 value="0.00153932826200601" flag="0"/>
			<psa30 value="0.000438557646041715" flag="0"/>
		</comp>
		<comp name=".HNN" depth="0.0">
			<acc value="0.0024982120728174" flag="0"/>
			<vel value="0.00152320069228" flag="0"/>
			<psa03 value="0.00496536604049084" flag="0"/>
			<psa10 value="0.00146022216223737" flag="0"/>
			<psa30 value="0.000401586863575569" flag="0"/>
		</comp>
		<comp name=".HNZ" depth="0.0">
			<acc value="0.00096352263144252" flag="0"/>
			<vel value="0.00073190198563" flag="0"/>
			<psa03 value="0.00273308111831539" flag="0"/>
			<psa10 value="0.000998001933041876" flag="0"/>
			<psa30 value="0.000280592806646477" flag="0"/>
		</comp>
	</station>
	<station code="YKAV" name="YKAV" netid="KO" source="Bogazici University Kandilli Observatory And Earthquake Research Institute (KOERI)" insttype="" lat="37.1246" lon="27.2801">
		<comp name=".HNE" depth="0.0">
			<acc value="0.0077697029045352" flag="0"/>
			<vel value="0.00283659988117" flag="0"/>
			<psa03 value="0.0228962016568359" flag="0"/>
			<psa10 value="0.00282669748921081" flag="0"/>
			<psa30 value="0.000515608687795178" flag="0"/>
		</comp>
		<comp name=".HNN" depth="0.0">
			<acc value="0.0043033760635038" flag="0"/>
			<vel value="0.00205248198934" flag="0"/>
			<psa03 value="0.0181842697227866" flag="0"/>
			<psa10 value="0.00255881396199199" flag="0"/>
			<psa30 value="0.00031406523236374" flag="0"/>
		</comp>
		<comp name=".HNZ" depth="0.0">
			<acc value="0.0033185217304992" flag="0"/>
			<vel value="0.00160471744404" flag="0"/>
			<psa03 value="0.0113704889161487" flag="0"/>
			<psa10 value="0.00122804135171148" flag="0"/>
			<psa30 value="0.000395567923183655" flag="0"/>
		</comp>
	</station>
</stationlist>
