<stationlist created="1778138851">
	<station code="ROD3" name="ROD3" netid="CL" source="Corinth Riff Laboratory (CRLNET)" insttype="" lat="38.30811" lon="21.89204">
		<comp name="00.HNE" depth="0.0">
			<acc value="0.0312865549310777" flag="0"/>
			<vel value="0.0158897772868605" flag="0"/>
			<psa03 value="0.132504246506158" flag="0"/>
			<psa10 value="0.0127377131859947" flag="0"/>
			<psa30 value="0.000999016492439236" flag="0"/>
		</comp>
		<comp name="00.HNN" depth="0.0">
			<acc value="0.0276885642961582" flag="0"/>
			<vel value="0.0167738415443688" flag="0"/>
			<psa03 value="0.119197708763193" flag="0"/>
			<psa10 value="0.0178454427980076" flag="0"/>
			<psa30 value="0.00128516159398322" flag="0"/>
		</comp>
		<comp name="00.HNZ" depth="0.0">
			<acc value="0.028053471803279" flag="0"/>
			<vel value="0.0107477332654042" flag="0"/>
			<psa03 value="0.0433824441865345" flag="0"/>
			<psa10 value="0.00675099565781245" flag="0"/>
			<psa30 value="0.000770136017729473" flag="0"/>
		</comp>
	</station>
	<station code="AIGS" name="AIGS" netid="HA" source="Hellenic Seismological Network, University of Athens, Seismological Laboratory (HA)" insttype="" lat="38.25001" lon="22.0878">
		<comp name="--.HNE" depth="0.0">
			<acc value="0.0139119460870933" flag="0"/>
			<vel value="0.00989641152578147" flag="0"/>
			<psa03 value="0.0466161662170948" flag="0"/>
			<psa10 value="0.0088858817710435" flag="0"/>
			<psa30 value="0.00214839148706012" flag="0"/>
		</comp>
		<comp name="--.HNN" depth="0.0">
			<acc value="0.0127620079817765" flag="0"/>
			<vel value="0.00792683921625643" flag="0"/>
			<psa03 value="0.0395765566484587" flag="0"/>
			<psa10 value="0.00964408356069235" flag="0"/>
			<psa30 value="0.00244378063847439" flag="0"/>
		</comp>
		<comp name="--.HNZ" depth="0.0">
			<acc value="0.0151796549901672" flag="0"/>
			<vel value="0.00584554099917515" flag="0"/>
			<psa03 value="0.0294327440456787" flag="0"/>
			<psa10 value="0.0100611993175732" flag="0"/>
			<psa30 value="0.001231455223697" flag="0"/>
		</comp>
	</station>
	<station code="DRES" name="DRES" netid="HA" source="Hellenic Seismological Network, University of Athens, Seismological Laboratory (HA)" insttype="" lat="38.319719" lon="21.853176">
		<comp name="--.HNE" depth="0.0">
			<acc value="0.0151753837142201" flag="0"/>
			<vel value="0.0102969552456093" flag="0"/>
			<psa03 value="0.0708993946536923" flag="0"/>
			<psa10 value="0.0138093204247218" flag="0"/>
			<psa30 value="0.00142996368640939" flag="0"/>
		</comp>
		<comp name="--.HNN" depth="0.0">
			<acc value="0.022624528749667" flag="0"/>
			<vel value="0.0188021709994509" flag="0"/>
			<psa03 value="0.0848624081763337" flag="0"/>
			<psa10 value="0.0179346593331699" flag="0"/>
			<psa30 value="0.00150025313440919" flag="0"/>
		</comp>
		<comp name="--.HNZ" depth="0.0">
			<acc value="0.0107367011030315" flag="0"/>
			<vel value="0.00616014041915285" flag="0"/>
			<psa03 value="0.0255656779756819" flag="0"/>
			<psa10 value="0.00729615145921032" flag="0"/>
			<psa30 value="0.00104287450198644" flag="0"/>
		</comp>
	</station>
	<station code="KIAS" name="KIAS" netid="HA" source="Hellenic Seismological Network, University of Athens, Seismological Laboratory (HA)" insttype="" lat="37.9875" lon="22.7543">
		<comp name="--.HNE" depth="0.0">
			<acc value="0.0830695711635554" flag="0"/>
			<vel value="0.0401403646288891" flag="0"/>
			<psa03 value="0.178238911619798" flag="0"/>
			<psa10 value="0.0424365549635538" flag="0"/>
			<psa30 value="0.00449858675928002" flag="0"/>
		</comp>
		<comp name="--.HNN" depth="0.0">
			<acc value="0.0861578861510175" flag="0"/>
			<vel value="0.0254385698859199" flag="0"/>
			<psa03 value="0.136836887689061" flag="0"/>
			<psa10 value="0.0329887753444685" flag="0"/>
			<psa30 value="0.00470917695987999" flag="0"/>
		</comp>
		<comp name="--.HNZ" depth="0.0">
			<acc value="0.0371999784193125" flag="0"/>
			<vel value="0.0166340470500145" flag="0"/>
			<psa03 value="0.0661515697170289" flag="0"/>
			<psa10 value="0.022600679059079" flag="0"/>
			<psa30 value="0.00329626419465834" flag="0"/>
		</comp>
	</station>
	<station code="LTRS" name="LTRS" netid="HA" source="Hellenic Seismological Network, University of Athens, Seismological Laboratory (HA)" insttype="" lat="37.97528" lon="22.9765">
		<comp name="--.HNE" depth="0.0">
			<acc value="0.0484478257943201" flag="0"/>
			<vel value="0.0340331300324201" flag="0"/>
			<psa03 value="0.244599557686746" flag="0"/>
			<psa10 value="0.0463749158604005" flag="0"/>
			<psa30 value="0.00376127458265008" flag="0"/>
		</comp>
		<comp name="--.HNN" depth="0.0">
			<acc value="0.0870201906745406" flag="0"/>
			<vel value="0.0539512452108732" flag="0"/>
			<psa03 value="0.186773602001143" flag="0"/>
			<psa10 value="0.042268172558956" flag="0"/>
			<psa30 value="0.00342628259940598" flag="0"/>
		</comp>
		<comp name="--.HNZ" depth="0.0">
			<acc value="0.0257858825289435" flag="0"/>
			<vel value="0.019131554740926" flag="0"/>
			<psa03 value="0.0663839340682697" flag="0"/>
			<psa10 value="0.043067222992194" flag="0"/>
			<psa30 value="0.00179755407913601" flag="0"/>
		</comp>
	</station>
	<station code="ABEA" name="ABEA" netid="HC" source="Seismological Network of Crete (HC)" insttype="" lat="35.5163" lon="24.0113">
		<comp name="--.HNE" depth="0.0">
			<acc value="0.103773048401468" flag="0"/>
			<vel value="0.0607589771200579" flag="0"/>
			<psa03 value="0.255282348702816" flag="0"/>
			<psa10 value="0.0929550453156657" flag="0"/>
			<psa30 value="0.00788738666731418" flag="0"/>
		</comp>
		<comp name="--.HNN" depth="0.0">
			<acc value="0.134144793964171" flag="0"/>
			<vel value="0.0710558752790217" flag="0"/>
			<psa03 value="0.344825405490962" flag="0"/>
			<psa10 value="0.0867002609667629" flag="0"/>
			<psa30 value="0.00883963058214297" flag="0"/>
		</comp>
		<comp name="--.HNZ" depth="0.0">
			<acc value="0.0932779019721547" flag="0"/>
			<vel value="0.0344342902737731" flag="0"/>
			<psa03 value="0.096420126943567" flag="0"/>
			<psa10 value="0.0940893154553444" flag="0"/>
			<psa30 value="0.00312972587064726" flag="0"/>
		</comp>
	</station>
	<station code="ATEI" name="ATEI" netid="HC" source="Seismological Network of Crete (HC)" insttype="" lat="35.5193" lon="24.0432">
		<comp name="--.HNE" depth="0.0">
			<acc value="0.0969939099385142" flag="0"/>
			<vel value="0.0639986242827547" flag="0"/>
			<psa03 value="0.239904600835821" flag="0"/>
			<psa10 value="0.0675166376458466" flag="0"/>
			<psa30 value="0.00454395851496434" flag="0"/>
		</comp>
		<comp name="--.HNN" depth="0.0">
			<acc value="0.0883311223830092" flag="0"/>
			<vel value="0.0734386473045316" flag="0"/>
			<psa03 value="0.254408144957513" flag="0"/>
			<psa10 value="0.0669118575820259" flag="0"/>
			<psa30 value="0.00494895159376924" flag="0"/>
		</comp>
		<comp name="--.HNZ" depth="0.0">
			<acc value="0.0695670993523463" flag="0"/>
			<vel value="0.0322941069086752" flag="0"/>
			<psa03 value="0.121734491395954" flag="0"/>
			<psa10 value="0.0328210079806856" flag="0"/>
			<psa30 value="0.0022411686747604" flag="0"/>
		</comp>
	</station>
	<station code="G0LD" name="G0LD" netid="HC" source="Seismological Network of Crete (HC)" insttype="" lat="35.4955" lon="24.0306">
		<comp name="--.HNE" depth="0.0">
			<acc value="0.144806927220168" flag="0"/>
			<vel value="0.0973887442381723" flag="0"/>
			<psa03 value="0.428312915295154" flag="0"/>
			<psa10 value="0.144056268020708" flag="0"/>
			<psa30 value="0.00839748129190168" flag="0"/>
		</comp>
		<comp name="--.HNN" depth="0.0">
			<acc value="0.145074724390252" flag="0"/>
			<vel value="0.129039022765526" flag="0"/>
			<psa03 value="0.404564300399214" flag="0"/>
			<psa10 value="0.222888515270169" flag="0"/>
			<psa30 value="0.0104409999983546" flag="0"/>
		</comp>
		<comp name="--.HNZ" depth="0.0">
			<acc value="0.0885849483344615" flag="0"/>
			<vel value="0.0739460806118063" flag="0"/>
			<psa03 value="0.20531676789485" flag="0"/>
			<psa10 value="0.14498058425204" flag="0"/>
			<psa30 value="0.00559367555355169" flag="0"/>
		</comp>
	</station>
	<station code="LENT" name="LENT" netid="HC" source="Seismological Network of Crete (HC)" insttype="" lat="35.5074" lon="24.0402">
		<comp name="--.HNE" depth="0.0">
			<acc value="0.0904598387250115" flag="0"/>
			<vel value="0.0685795038023853" flag="0"/>
			<psa03 value="0.248275967897851" flag="0"/>
			<psa10 value="0.0722974618521283" flag="0"/>
			<psa30 value="0.005412099775028" flag="0"/>
		</comp>
		<comp name="--.HNN" depth="0.0">
			<acc value="0.0918583918114284" flag="0"/>
			<vel value="0.0668501818751477" flag="0"/>
			<psa03 value="0.201933147913417" flag="0"/>
			<psa10 value="0.0943839874760088" flag="0"/>
			<psa30 value="0.00479755114756294" flag="0"/>
		</comp>
		<comp name="--.HNZ" depth="0.0">
			<acc value="0.072597251065811" flag="0"/>
			<vel value="0.0359598716988834" flag="0"/>
			<psa03 value="0.197185895931134" flag="0"/>
			<psa10 value="0.0621964752112384" flag="0"/>
			<psa30 value="0.00265304116762354" flag="0"/>
		</comp>
	</station>
	<station code="MULT" name="MULT" netid="HC" source="Seismological Network of Crete (HC)" insttype="" lat="35.5091" lon="24.0118">
		<comp name="--.HNE" depth="0.0">
			<acc value="0.125728918576214" flag="0"/>
			<vel value="0.0605793369320346" flag="0"/>
			<psa03 value="0.204896135863351" flag="0"/>
			<psa10 value="0.0878845219184112" flag="0"/>
			<psa30 value="0.00662604477627652" flag="0"/>
		</comp>
		<comp name="--.HNN" depth="0.0">
			<acc value="0.123610852120048" flag="0"/>
			<vel value="0.0785162056924795" flag="0"/>
			<psa03 value="0.284990337544703" flag="0"/>
			<psa10 value="0.0988481107023289" flag="0"/>
			<psa30 value="0.00882256945192461" flag="0"/>
		</comp>
		<comp name="--.HNZ" depth="0.0">
			<acc value="0.118322386626409" flag="0"/>
			<vel value="0.0499175262321657" flag="0"/>
			<psa03 value="0.144151309733453" flag="0"/>
			<psa10 value="0.108336089234043" flag="0"/>
			<psa30 value="0.00466991519228054" flag="0"/>
		</comp>
	</station>
	<station code="NERO" name="NERO" netid="HC" source="Seismological Network of Crete (HC)" insttype="" lat="35.474" lon="24.0423">
		<comp name="--.HNE" depth="0.0">
			<acc value="0.0503920049733927" flag="0"/>
			<vel value="0.0316196643755305" flag="0"/>
			<psa03 value="0.143182870578961" flag="0"/>
			<psa10 value="0.0496394958730661" flag="0"/>
			<psa30 value="0.00463173266290094" flag="0"/>
		</comp>
		<comp name="--.HNN" depth="0.0">
			<acc value="0.05207289693231" flag="0"/>
			<vel value="0.0347123708074306" flag="0"/>
			<psa03 value="0.158387554898147" flag="0"/>
			<psa10 value="0.0543737719953474" flag="0"/>
			<psa30 value="0.00392670429155408" flag="0"/>
		</comp>
		<comp name="--.HNZ" depth="0.0">
			<acc value="0.0508285871488587" flag="0"/>
			<vel value="0.0289957589431905" flag="0"/>
			<psa03 value="0.117839795891504" flag="0"/>
			<psa10 value="0.0441401615688982" flag="0"/>
			<psa30 value="0.00200220242774955" flag="0"/>
		</comp>
	</station>
	<station code="PASK" name="PASK" netid="HC" source="Seismological Network of Crete (HC)" insttype="" lat="35.4996" lon="24.0121">
		<comp name="--.HNE" depth="0.0">
			<acc value="0.167715229792152" flag="0"/>
			<vel value="0.105795193001374" flag="0"/>
			<psa03 value="0.297995553243125" flag="0"/>
			<psa10 value="0.0954063727038252" flag="0"/>
			<psa30 value="0.00915730996016019" flag="0"/>
		</comp>
		<comp name="--.HNN" depth="0.0">
			<acc value="0.152788899254108" flag="0"/>
			<vel value="0.142038103244711" flag="0"/>
			<psa03 value="0.262667879624775" flag="0"/>
			<psa10 value="0.144023205830572" flag="0"/>
			<psa30 value="0.00805229425832214" flag="0"/>
		</comp>
		<comp name="--.HNZ" depth="0.0">
			<acc value="0.0850254522574431" flag="0"/>
			<vel value="0.0487777690313365" flag="0"/>
			<psa03 value="0.268498974239332" flag="0"/>
			<psa10 value="0.0493307791721794" flag="0"/>
			<psa30 value="0.00394565138004004" flag="0"/>
		</comp>
	</station>
	<station code="POLY" name="POLY" netid="HC" source="Seismological Network of Crete (HC)" insttype="" lat="35.5226" lon="24.0602">
		<comp name="--.HNE" depth="0.0">
			<acc value="0.083262606604249" flag="0"/>
			<vel value="0.0384505128157881" flag="0"/>
			<psa03 value="0.281968137338401" flag="0"/>
			<psa10 value="0.0446306378108599" flag="0"/>
			<psa30 value="0.00564154622474113" flag="0"/>
		</comp>
		<comp name="--.HNN" depth="0.0">
			<acc value="0.0924881743842446" flag="0"/>
			<vel value="0.0576233224228622" flag="0"/>
			<psa03 value="0.257307149502343" flag="0"/>
			<psa10 value="0.0568134661133691" flag="0"/>
			<psa30 value="0.00625450057995833" flag="0"/>
		</comp>
		<comp name="--.HNZ" depth="0.0">
			<acc value="0.0521852876103006" flag="0"/>
			<vel value="0.0222782843427374" flag="0"/>
			<psa03 value="0.141603693049629" flag="0"/>
			<psa10 value="0.0348213267420021" flag="0"/>
			<psa30 value="0.00182601908980513" flag="0"/>
		</comp>
	</station>
	<station code="ARG2" name="ARG2" netid="HI" source="ITSAK Strong Motion Network" insttype="" lat="38.1783" lon="20.4878">
		<comp name="--.HNE" depth="0.0">
			<acc value="0.0476383948324924" flag="0"/>
			<vel value="0.0192361330909844" flag="0"/>
			<psa03 value="0.0788258937038186" flag="0"/>
			<psa10 value="0.00928624704328504" flag="0"/>
			<psa30 value="0.000729400662964477" flag="0"/>
		</comp>
		<comp name="--.HNN" depth="0.0">
			<acc value="0.0520087454615783" flag="0"/>
			<vel value="0.0215501649268844" flag="0"/>
			<psa03 value="0.0798151363195301" flag="0"/>
			<psa10 value="0.00747045550602626" flag="0"/>
			<psa30 value="0.000702585657435747" flag="0"/>
		</comp>
		<comp name="--.HNZ" depth="0.0">
			<acc value="0.0587611578661803" flag="0"/>
			<vel value="0.0269113348142945" flag="0"/>
			<psa03 value="0.153819804390253" flag="0"/>
			<psa10 value="0.0124697982504395" flag="0"/>
			<psa30 value="0.000888316867464005" flag="0"/>
		</comp>
	</station>
	<station code="ARS1" name="ARS1" netid="HI" source="ITSAK Strong Motion Network" insttype="" lat="37.6349" lon="22.7293">
		<comp name="--.HNE" depth="0.0">
			<acc value="0.0585018332279301" flag="0"/>
			<vel value="0.0332128527064965" flag="0"/>
			<psa03 value="0.204074852290875" flag="0"/>
			<psa10 value="0.0324314059214575" flag="0"/>
			<psa30 value="0.00212918708986198" flag="0"/>
		</comp>
		<comp name="--.HNN" depth="0.0">
			<acc value="0.0663708800669059" flag="0"/>
			<vel value="0.0444569381822982" flag="0"/>
			<psa03 value="0.180067053558795" flag="0"/>
			<psa10 value="0.0385590643487885" flag="0"/>
			<psa30 value="0.00270414226115501" flag="0"/>
		</comp>
		<comp name="--.HNZ" depth="0.0">
			<acc value="0.0311135603476712" flag="0"/>
			<vel value="0.0193410441858768" flag="0"/>
			<psa03 value="0.0999298177765977" flag="0"/>
			<psa10 value="0.0103955780310331" flag="0"/>
			<psa30 value="0.00240051985599052" flag="0"/>
		</comp>
	</station>
	<station code="ATH5" name="ATH5" netid="HI" source="ITSAK Strong Motion Network" insttype="" lat="37.975421" lon="23.737098">
		<comp name="--.HNE" depth="0.0">
			<acc value="0.0237039124518797" flag="0"/>
			<vel value="0.00852444528359782" flag="0"/>
			<psa03 value="0.0546869664933195" flag="0"/>
			<psa10 value="0.00742909495357167" flag="0"/>
			<psa30 value="0.00111478530738972" flag="0"/>
		</comp>
		<comp name="--.HNN" depth="0.0">
			<acc value="0.0171529629734349" flag="0"/>
			<vel value="0.0073873490215262" flag="0"/>
			<psa03 value="0.0555383406006254" flag="0"/>
			<psa10 value="0.00987436475322206" flag="0"/>
			<psa30 value="0.00103763457153155" flag="0"/>
		</comp>
		<comp name="--.HNZ" depth="0.0">
			<acc value="0.00843805530439533" flag="0"/>
			<vel value="0.00475139778789874" flag="0"/>
			<psa03 value="0.0215346648471249" flag="0"/>
			<psa10 value="0.00436370610536107" flag="0"/>
			<psa30 value="0.000485330640355569" flag="0"/>
		</comp>
	</station>
	<station code="CH01" name="CH01" netid="HI" source="ITSAK Strong Motion Network" insttype="" lat="35.517" lon="24.0208">
		<comp name="--.HNE" depth="0.0">
			<acc value="0.0792534595007468" flag="0"/>
			<vel value="0.0448308407662176" flag="0"/>
			<psa03 value="0.186640113991451" flag="0"/>
			<psa10 value="0.0848663819814097" flag="0"/>
			<psa30 value="0.00736143182541411" flag="0"/>
		</comp>
		<comp name="--.HNN" depth="0.0">
			<acc value="0.0770511467427268" flag="0"/>
			<vel value="0.0768147737763488" flag="0"/>
			<psa03 value="0.226326097159954" flag="0"/>
			<psa10 value="0.0833300402063364" flag="0"/>
			<psa30 value="0.0068051166389061" flag="0"/>
		</comp>
		<comp name="--.HNZ" depth="0.0">
			<acc value="0.0543142423144092" flag="0"/>
			<vel value="0.032244381638248" flag="0"/>
			<psa03 value="0.0987674282740061" flag="0"/>
			<psa10 value="0.0454568550436422" flag="0"/>
			<psa30 value="0.00325905027108631" flag="0"/>
		</comp>
	</station>
	<station code="KLV1" name="KLV1" netid="HI" source="ITSAK Strong Motion Network" insttype="" lat="38.03256" lon="22.10797">
		<comp name="--.HNE" depth="0.0">
			<acc value="0.023928657841665" flag="0"/>
			<vel value="0.0141690341245868" flag="0"/>
			<psa03 value="0.150924706354597" flag="0"/>
			<psa10 value="0.0226203641131005" flag="0"/>
			<psa30 value="0.0016536328783967" flag="0"/>
		</comp>
		<comp name="--.HNN" depth="0.0">
			<acc value="0.0260418131292474" flag="0"/>
			<vel value="0.0123358901085639" flag="0"/>
			<psa03 value="0.0838647327101433" flag="0"/>
			<psa10 value="0.0156793330538465" flag="0"/>
			<psa30 value="0.00161943030014213" flag="0"/>
		</comp>
		<comp name="--.HNZ" depth="0.0">
			<acc value="0.0108310183717021" flag="0"/>
			<vel value="0.00767586447792184" flag="0"/>
			<psa03 value="0.0347030254676162" flag="0"/>
			<psa10 value="0.00953195300759237" flag="0"/>
			<psa30 value="0.00103590997811711" flag="0"/>
		</comp>
	</station>
	<station code="LAM2" name="LAM2" netid="HI" source="ITSAK Strong Motion Network" insttype="" lat="38.90203" lon="22.431301">
		<comp name="--.HNE" depth="0.0">
			<acc value="0.00902713838058629" flag="0"/>
			<vel value="0.00524444921424566" flag="0"/>
			<psa03 value="0.0312777516850514" flag="0"/>
			<psa10 value="0.00482407582135587" flag="0"/>
			<psa30 value="0.000918478865552392" flag="0"/>
		</comp>
		<comp name="--.HNN" depth="0.0">
			<acc value="0.0134951552721945" flag="0"/>
			<vel value="0.00665638247348872" flag="0"/>
			<psa03 value="0.0220169090329957" flag="0"/>
			<psa10 value="0.00713827115667628" flag="0"/>
			<psa30 value="0.000956524094191456" flag="0"/>
		</comp>
		<comp name="--.HNZ" depth="0.0">
			<acc value="0.00702088605012937" flag="0"/>
			<vel value="0.00340869645062049" flag="0"/>
			<psa03 value="0.0174022296352148" flag="0"/>
			<psa10 value="0.00374608964442953" flag="0"/>
			<psa30 value="0.000383673515445893" flag="0"/>
		</comp>
	</station>
	<station code="MSL1" name="MSL1" netid="HI" source="ITSAK Strong Motion Network" insttype="" lat="38.3727" lon="21.4243">
		<comp name="--.HNE" depth="0.0">
			<acc value="0.0272261455474613" flag="0"/>
			<vel value="0.023957587523849" flag="0"/>
			<psa03 value="0.103878183503277" flag="0"/>
			<psa10 value="0.0382690426362545" flag="0"/>
			<psa30 value="0.00356459697038823" flag="0"/>
		</comp>
		<comp name="--.HNN" depth="0.0">
			<acc value="0.0257255134264413" flag="0"/>
			<vel value="0.0210117034033514" flag="0"/>
			<psa03 value="0.070088017987405" flag="0"/>
			<psa10 value="0.0348165564260118" flag="0"/>
			<psa30 value="0.00314269693824841" flag="0"/>
		</comp>
		<comp name="--.HNZ" depth="0.0">
			<acc value="0.0342058656212845" flag="0"/>
			<vel value="0.0262539591687423" flag="0"/>
			<psa03 value="0.0810817983543227" flag="0"/>
			<psa10 value="0.0241213072932381" flag="0"/>
			<psa30 value="0.00102608984841742" flag="0"/>
		</comp>
	</station>
