<?xml version="1.0" encoding="UTF-8" standalone="yes"?>
<!DOCTYPE earthquake SYSTEM "stationlist.dtd">
<stationlist created="" xmlns="ch.ethz.sed.shakemap.usgs.xml">
  <station code="IMMV" name="IMMV" netid="GE" insttype="STS-2/N" lat="35.4606" lon="23.9811">
    <comp name="--.HHE">
      <acc value="0.0682590984" flag="0"/>
      <vel value="0.0363908309" flag="0"/>
      <psa03 value="0.2060504455" flag="0"/>
      <psa10 value="0.0447776392" flag="0"/>
      <psa30 value="0.0036764629" flag="0"/>
    </comp>
    <comp name="--.HHN">
      <acc value="0.0779114955" flag="0"/>
      <vel value="0.0711198322" flag="0"/>
      <psa03 value="0.2091475834" flag="0"/>
      <psa10 value="0.0679088919" flag="0"/>
      <psa30 value="0.0041677316" flag="0"/>
    </comp>
    <comp name="--.HHZ">
      <acc value="0.0544638419" flag="0"/>
      <vel value="0.0315091931" flag="0"/>
      <psa03 value="0.1328869666" flag="0"/>
      <psa10 value="0.0301126682" flag="0"/>
      <psa30 value="0.0019391798" flag="0"/>
    </comp>
  </station>
</stationlist>
