<?xml version="1.0" encoding="UTF-8" standalone="yes"?>
<!DOCTYPE earthquake SYSTEM "stationlist.dtd">
<stationlist created="" xmlns="ch.ethz.sed.shakemap.usgs.xml">
  <station code="IMMV" name="IMMV" netid="GE" insttype="STS-2/N" lat="35.4606" lon="23.9811">
    <comp name="--.HHE">
      <acc value="0.0683492103" flag="0"/>
      <vel value="0.0361204294" flag="0"/>
      <psa03 value="0.2061196207" flag="0"/>
      <psa10 value="0.0447708438" flag="0"/>
      <psa30 value="0.0038576375" flag="0"/>
    </comp>
    <comp name="--.HHN">
      <acc value="0.0780066592" flag="0"/>
      <vel value="0.0708711077" flag="0"/>
      <psa03 value="0.2091568190" flag="0"/>
      <psa10 value="0.0678246992" flag="0"/>
      <psa30 value="0.0040946426" flag="0"/>
    </comp>
    <comp name="--.HHZ">
      <acc value="0.0544090669" flag="0"/>
      <vel value="0.0316684939" flag="0"/>
      <psa03 value="0.1328333131" flag="0"/>
      <psa10 value="0.0300935165" flag="0"/>
      <psa30 value="0.0020274016" flag="0"/>
    </comp>
  </station>
</stationlist>
