<stationlist created="1631873553">
	<station code="LMS2" name="LMS2" netid="HI" source="ITSAK Strong Motion Network" insttype="" lat="40.834985" lon="21.141815">
		<comp name="--.HNE" depth="0.0">
			<acc value="-0.004071738" flag="0"/>
			<vel value="-0.002264" flag="0"/>
			<psa03 value="0.0117672003406" flag="0"/>
			<psa10 value="0.00178387177787" flag="0"/>
			<psa30 value="0.000381203600388" flag="0"/>
		</comp>
		<comp name="--.HNN" depth="0.0">
			<acc value="-0.005789316" flag="0"/>
			<vel value="0.002828" flag="0"/>
			<psa03 value="0.010201223109" flag="0"/>
			<psa10 value="0.00250869552509" flag="0"/>
			<psa30 value="0.000633102223649" flag="0"/>
		</comp>
		<comp name="--.HNZ" depth="0.0">
			<acc value="0.00261936" flag="0"/>
			<vel value="0.001283" flag="0"/>
			<psa03 value="0.00586122906699" flag="0"/>
			<psa10 value="0.00189662213855" flag="0"/>
			<psa30 value="0.000344962413027" flag="0"/>
		</comp>
	</station>
</stationlist>
