<?xml version="1.0" encoding="UTF-8" standalone="yes"?>
<!DOCTYPE earthquake SYSTEM "stationlist.dtd">
<stationlist created="" xmlns="ch.ethz.sed.shakemap.usgs.xml">
  <station code="PHP" name="PHP" netid="AC" insttype="" lat="41.6847" lon="20.4408">
    <comp name="--.HHE">
      <acc value="0.0859706176" flag="0"/>
      <vel value="0.0188493449" flag="0"/>
      <psa03 value="0.0474566016" flag="0"/>
      <psa10 value="0.0228242563" flag="0"/>
      <psa30 value="0.0017334401" flag="0"/>
    </comp>
    <comp name="--.HHN">
      <acc value="0.0303674575" flag="0"/>
      <vel value="0.0113972731" flag="0"/>
      <psa03 value="0.0534771056" flag="0"/>
      <psa10 value="0.0116988954" flag="0"/>
      <psa30 value="0.0017270264" flag="0"/>
    </comp>
    <comp name="--.HHZ">
      <acc value="0.0162644359" flag="0"/>
      <vel value="0.0086601681" flag="0"/>
      <psa03 value="0.0214892331" flag="0"/>
      <psa10 value="0.0111964632" flag="0"/>
      <psa30 value="0.0009918809" flag="0"/>
    </comp>
  </station>
  <station code="VLO" name="VLO" netid="AC" insttype="" lat="40.4686" lon="19.4955">
    <comp name="--.HHE">
      <acc value="0.0251362144" flag="0"/>
      <vel value="0.0072804321" flag="0"/>
      <psa03 value="0.0257376928" flag="0"/>
      <psa10 value="0.0096274227" flag="0"/>
      <psa30 value="0.0018574951" flag="0"/>
    </comp>
    <comp name="--.HHN">
      <acc value="0.0340429145" flag="0"/>
      <vel value="0.0095612802" flag="0"/>
      <psa03 value="0.0293794339" flag="0"/>
      <psa10 value="0.0090039144" flag="0"/>
      <psa30 value="0.0011605871" flag="0"/>
    </comp>
    <comp name="--.HHZ">
      <acc value="0.0128806455" flag="0"/>
      <vel value="0.0035304362" flag="0"/>
      <psa03 value="0.0164845568" flag="0"/>
      <psa10 value="0.0039745980" flag="0"/>
      <psa30 value="0.0009845107" flag="0"/>
    </comp>
  </station>
  <station code="PDG" name="PDG" netid="MN" insttype="" lat="42.4297" lon="19.2608">
    <comp name="--.HHE">
      <acc value="0.0276608348" flag="0"/>
      <vel value="0.0115181285" flag="0"/>
      <psa03 value="0.0555287444" flag="0"/>
      <psa10 value="0.0076310891" flag="0"/>
      <psa30 value="0.0011004002" flag="0"/>
    </comp>
    <comp name="--.HHN">
      <acc value="0.0216901511" flag="0"/>
      <vel value="0.0098564464" flag="0"/>
      <psa03 value="0.0368707164" flag="0"/>
      <psa10 value="0.0054095070" flag="0"/>
      <psa30 value="0.0007464907" flag="0"/>
    </comp>
    <comp name="--.HHZ">
      <acc value="0.0188973313" flag="0"/>
      <vel value="0.0059272872" flag="0"/>
      <psa03 value="0.0340846202" flag="0"/>
      <psa10 value="0.0054410359" flag="0"/>
      <psa30 value="0.0012881926" flag="0"/>
    </comp>
  </station>
  <station code="TIR" name="TIR" netid="MN" insttype="" lat="41.3472" lon="19.8631">
    <comp name="--.HHE">
      <acc value="0.1175340016" flag="0"/>
      <vel value="0.0352740957" flag="0"/>
      <psa03 value="0.1005042363" flag="0"/>
      <psa10 value="0.0186073081" flag="0"/>
      <psa30 value="0.0018125224" flag="0"/>
    </comp>
    <comp name="--.HHN">
      <acc value="0.0830584624" flag="0"/>
      <vel value="0.0263230990" flag="0"/>
      <psa03 value="0.1070460505" flag="0"/>
      <psa10 value="0.0197355062" flag="0"/>
      <psa30 value="0.0018023471" flag="0"/>
    </comp>
    <comp name="--.HHZ">
      <acc value="0.0622457405" flag="0"/>
      <vel value="0.0149462689" flag="0"/>
      <psa03 value="0.0713144557" flag="0"/>
      <psa10 value="0.0106288902" flag="0"/>
      <psa30 value="0.0016607861" flag="0"/>
    </comp>
  </station>
</stationlist>
