<?xml version="1.0" encoding="UTF-8" standalone="yes"?>
<!DOCTYPE earthquake SYSTEM "stationlist.dtd">
<stationlist created="" xmlns="ch.ethz.sed.shakemap.usgs.xml">
  <station code="ATAL" name="ATAL" netid="HA" insttype="120" lat="38.6926" lon="23.0213">
    <comp name="--.HHZ">
      <acc value="0.0278915091" flag="0"/>
      <vel value="0.0129020807" flag="0"/>
      <psa03 value="0.0453415213" flag="0"/>
      <psa10 value="0.0102350979" flag="0"/>
      <psa30 value="0.0016578734" flag="0"/>
    </comp>
    <comp name="--.HHE">
      <acc value="0.0504852549" flag="0"/>
      <vel value="0.0167465925" flag="0"/>
      <psa03 value="0.0558407257" flag="0"/>
      <psa10 value="0.0149467975" flag="0"/>
      <psa30 value="0.0017645404" flag="0"/>
    </comp>
    <comp name="--.HHN">
      <acc value="0.0547373692" flag="0"/>
      <vel value="0.0213902594" flag="0"/>
      <psa03 value="0.0685644234" flag="0"/>
      <psa10 value="0.0150548072" flag="0"/>
      <psa30 value="0.0013528787" flag="0"/>
    </comp>
  </station>
  <station code="ATHU" name="ATHU" netid="HA" insttype="60" lat="37.9665" lon="23.7845">
    <comp name="--.HHZ">
      <acc value="0.0156128585" flag="0"/>
      <vel value="0.0055284495" flag="0"/>
      <psa03 value="0.0164703778" flag="0"/>
      <psa10 value="0.0061860930" flag="0"/>
      <psa30 value="0.0014029583" flag="0"/>
    </comp>
    <comp name="--.HHN">
      <acc value="0.0241519984" flag="0"/>
      <vel value="0.0063547470" flag="0"/>
      <psa03 value="0.0202658649" flag="0"/>
      <psa10 value="0.0073209538" flag="0"/>
      <psa30 value="0.0013603214" flag="0"/>
    </comp>
    <comp name="--.HHE">
      <acc value="0.0225310041" flag="0"/>
      <vel value="0.0067577424" flag="0"/>
      <psa03 value="0.0206008373" flag="0"/>
      <psa10 value="0.0052502587" flag="0"/>
      <psa30 value="0.0002869063" flag="0"/>
    </comp>
  </station>
  <station code="AXAR" name="AXAR" netid="HA" insttype="30" lat="38.7664" lon="22.659">
    <comp name="--.HHE">
      <acc value="0.0101943744" flag="0"/>
      <vel value="0.0042039470" flag="0"/>
      <psa03 value="0.0324584575" flag="0"/>
      <psa10 value="0.0022920653" flag="0"/>
      <psa30 value="0.0003194204" flag="0"/>
    </comp>
    <comp name="--.HHN">
      <acc value="0.0081764689" flag="0"/>
      <vel value="0.0039146583" flag="0"/>
      <psa03 value="0.0116281036" flag="0"/>
      <psa10 value="0.0029632313" flag="0"/>
      <psa30 value="0.0002244456" flag="0"/>
    </comp>
    <comp name="--.HHZ">
      <acc value="0.0045841130" flag="0"/>
      <vel value="0.0021639512" flag="0"/>
      <psa03 value="0.0139873163" flag="0"/>
      <psa10 value="0.0015983323" flag="0"/>
      <psa30 value="0.0001381810" flag="0"/>
    </comp>
  </station>
  <station code="DOMV" name="DOMV" netid="HA" insttype="60" lat="38.2569" lon="22.9795">
    <comp name="--.HHE">
      <acc value="0.3465181426" flag="0"/>
      <vel value="0.0639063427" flag="0"/>
      <psa03 value="0.2314846995" flag="0"/>
      <psa10 value="0.0127825965" flag="0"/>
      <psa30 value="0.0014450256" flag="0"/>
    </comp>
    <comp name="--.HHZ">
      <acc value="0.2449396648" flag="0"/>
      <vel value="0.0484326736" flag="0"/>
      <psa03 value="0.1096171084" flag="0"/>
      <psa10 value="0.0105919573" flag="0"/>
      <psa30 value="0.0013977935" flag="0"/>
    </comp>
    <comp name="--.HHN">
      <acc value="0.4658637546" flag="0"/>
      <vel value="0.0841713605" flag="0"/>
      <psa03 value="0.3276342521" flag="0"/>
      <psa10 value="0.0180565572" flag="0"/>
      <psa30 value="0.0013276570" flag="0"/>
    </comp>
  </station>
  <station code="EPID" name="EPID" netid="HA" insttype="30" lat="37.6144" lon="23.1189">
    <comp name="--.HHE">
      <acc value="0.0467241607" flag="0"/>
      <vel value="0.0169588688" flag="0"/>
      <psa03 value="0.1443025304" flag="0"/>
      <psa10 value="0.0081133420" flag="0"/>
      <psa30 value="0.0005055323" flag="0"/>
    </comp>
    <comp name="--.HHN">
      <acc value="0.0385779874" flag="0"/>
      <vel value="0.0120547629" flag="0"/>
      <psa03 value="0.0890173506" flag="0"/>
      <psa10 value="0.0082011519" flag="0"/>
      <psa30 value="0.0008211548" flag="0"/>
    </comp>
    <comp name="--.HHZ">
      <acc value="0.0280427390" flag="0"/>
      <vel value="0.0107423251" flag="0"/>
      <psa03 value="0.0539208831" flag="0"/>
      <psa10 value="0.0086813705" flag="0"/>
      <psa30 value="0.0005669643" flag="0"/>
    </comp>
  </station>
  <station code="KALE" name="KALE" netid="HA" insttype="40," lat="38.3911" lon="22.1398">
    <comp name="--.HHE">
      <acc value="0.0063497044" flag="0"/>
      <vel value="0.0040255694" flag="0"/>
      <psa03 value="0.0186509480" flag="0"/>
      <psa10 value="0.0038240614" flag="0"/>
      <psa30 value="0.0005426545" flag="0"/>
    </comp>
    <comp name="--.HHN">
      <acc value="0.0063470112" flag="0"/>
      <vel value="0.0034215045" flag="0"/>
      <psa03 value="0.0220555515" flag="0"/>
      <psa10 value="0.0032771033" flag="0"/>
      <psa30 value="0.0005042748" flag="0"/>
    </comp>
    <comp name="--.HHZ">
      <acc value="0.0042095415" flag="0"/>
      <vel value="0.0023541795" flag="0"/>
      <psa03 value="0.0090355713" flag="0"/>
      <psa10 value="0.0023878438" flag="0"/>
      <psa30 value="0.0005226506" flag="0"/>
    </comp>
  </station>
  <station code="KARY" name="KARY" netid="HA" insttype="60" lat="38.0321" lon="24.437">
    <comp name="--.HHZ">
      <acc value="0.0243457222" flag="0"/>
      <vel value="0.0056727962" flag="0"/>
      <psa03 value="0.0200205890" flag="0"/>
      <psa10 value="0.0027656325" flag="0"/>
      <psa30 value="0.0006834861" flag="0"/>
    </comp>
    <comp name="--.HHE">
      <acc value="0.0170727433" flag="0"/>
      <vel value="0.0038363664" flag="0"/>
      <psa03 value="0.0131269614" flag="0"/>
      <psa10 value="0.0025844422" flag="0"/>
      <psa30 value="0.0005056804" flag="0"/>
    </comp>
    <comp name="--.HHN">
      <acc value="0.0266964477" flag="0"/>
      <vel value="0.0054570113" flag="0"/>
      <psa03 value="0.0197059371" flag="0"/>
      <psa10 value="0.0067994500" flag="0"/>
      <psa30 value="0.0003087087" flag="0"/>
    </comp>
  </station>
  <station code="LOUT" name="LOUT" netid="HA" insttype="30" lat="37.9879" lon="22.9743">
    <comp name="--.HHE">
      <acc value="0.1558590101" flag="0"/>
      <vel value="0.0478245657" flag="0"/>
      <psa03 value="0.2041538413" flag="0"/>
      <psa10 value="0.0265764431" flag="0"/>
      <psa30 value="0.0026357672" flag="0"/>
    </comp>
    <comp name="--.HHZ">
      <acc value="0.0752344045" flag="0"/>
      <vel value="0.0221962402" flag="0"/>
      <psa03 value="0.1063252669" flag="0"/>
      <psa10 value="0.0080755743" flag="0"/>
      <psa30 value="0.0019078506" flag="0"/>
    </comp>
    <comp name="--.HHN">
      <acc value="0.1315900974" flag="0"/>
      <vel value="0.0386310122" flag="0"/>
      <psa03 value="0.2524860593" flag="0"/>
      <psa10 value="0.0238393479" flag="0"/>
      <psa30 value="0.0034403189" flag="0"/>
    </comp>
  </station>
  <station code="MDRA" name="MDRA" netid="HA" insttype="60" lat="38.0606" lon="23.4662">
    <comp name="--.HHN">
      <acc value="0.0672240224" flag="0"/>
      <vel value="0.0188780673" flag="0"/>
      <psa03 value="0.1074466316" flag="0"/>
      <psa10 value="0.0222587413" flag="0"/>
      <psa30 value="0.0016337933" flag="0"/>
    </comp>
    <comp name="--.HHE">
      <acc value="0.0405581197" flag="0"/>
      <vel value="0.0194012979" flag="0"/>
      <psa03 value="0.0829247583" flag="0"/>
      <psa10 value="0.0223704857" flag="0"/>
      <psa30 value="0.0009452286" flag="0"/>
    </comp>
    <comp name="--.HHZ">
      <acc value="0.0560613363" flag="0"/>
      <vel value="0.0179998275" flag="0"/>
      <psa03 value="0.0555038762" flag="0"/>
      <psa10 value="0.0203119758" flag="0"/>
      <psa30 value="0.0019521553" flag="0"/>
    </comp>
  </station>
  <station code="MRKA" name="MRKA" netid="HA" insttype="30" lat="38.7047" lon="23.5863">
    <comp name="--.HHE">
      <acc value="0.0360945388" flag="0"/>
      <vel value="0.0113167785" flag="0"/>
      <psa03 value="0.0327856417" flag="0"/>
      <psa10 value="0.0081420272" flag="0"/>
      <psa30 value="0.0006049942" flag="0"/>
    </comp>
    <comp name="--.HHN">
      <acc value="0.0238870310" flag="0"/>
      <vel value="0.0154276934" flag="0"/>
      <psa03 value="0.0402872004" flag="0"/>
      <psa10 value="0.0200576229" flag="0"/>
      <psa30 value="0.0014328821" flag="0"/>
    </comp>
    <comp name="--.HHZ">
      <acc value="0.0200677804" flag="0"/>
      <vel value="0.0070715382" flag="0"/>
      <psa03 value="0.0211454267" flag="0"/>
      <psa10 value="0.0066471491" flag="0"/>
      <psa30 value="0.0009427275" flag="0"/>
    </comp>
  </station>
  <station code="MRTH" name="MRTH" netid="HA" insttype="S100," lat="38.1225" lon="23.9409">
    <comp name="--.HHN">
      <acc value="0.0452098329" flag="0"/>
      <vel value="0.0160068705" flag="0"/>
      <psa03 value="0.0583315321" flag="0"/>
      <psa10 value="0.0077519417" flag="0"/>
      <psa30 value="0.0006300474" flag="0"/>
    </comp>
    <comp name="--.HHE">
      <acc value="0.0689151062" flag="0"/>
      <vel value="0.0278309979" flag="0"/>
      <psa03 value="0.0734500992" flag="0"/>
      <psa10 value="0.0321935233" flag="0"/>
      <psa30 value="0.0015288118" flag="0"/>
    </comp>
    <comp name="--.HHZ">
      <acc value="0.0420935402" flag="0"/>
      <vel value="0.0103035251" flag="0"/>
      <psa03 value="0.0320492443" flag="0"/>
      <psa10 value="0.0086561513" flag="0"/>
      <psa30 value="0.0013602332" flag="0"/>
    </comp>
  </station>
  <station code="STFN" name="STFN" netid="HA" insttype="1s-100Hz," lat="38.1766" lon="23.544">
    <comp name="--.HHE">
      <acc value="0.1660080515" flag="0"/>
      <vel value="0.0547918260" flag="0"/>
      <psa03 value="0.1855083120" flag="0"/>
      <psa10 value="0.0251540958" flag="0"/>
      <psa30 value="0.0033604227" flag="0"/>
    </comp>
    <comp name="--.HHN">
      <acc value="0.3138630467" flag="0"/>
      <vel value="0.0485023189" flag="0"/>
      <psa03 value="0.2463573016" flag="0"/>
      <psa10 value="0.0376506684" flag="0"/>
      <psa30 value="0.0036315435" flag="0"/>
    </comp>
    <comp name="--.HHZ">
      <acc value="0.1325211318" flag="0"/>
      <vel value="0.0512294800" flag="0"/>
      <psa03 value="0.1811166137" flag="0"/>
      <psa10 value="0.0381754271" flag="0"/>
      <psa30 value="0.0048112088" flag="0"/>
    </comp>
  </station>
  <station code="THAL" name="THAL" netid="HA" insttype="30" lat="38.0357" lon="22.6634">
    <comp name="--.HHN">
      <acc value="0.0862299585" flag="0"/>
      <vel value="0.0219576570" flag="0"/>
      <psa03 value="0.1740725001" flag="0"/>
      <psa10 value="0.0079391966" flag="0"/>
      <psa30 value="0.0008046482" flag="0"/>
    </comp>
    <comp name="--.HHE">
      <acc value="0.0604117845" flag="0"/>
      <vel value="0.0203701518" flag="0"/>
      <psa03 value="0.0918529450" flag="0"/>
      <psa10 value="0.0140602405" flag="0"/>
      <psa30 value="0.0014092976" flag="0"/>
    </comp>
    <comp name="--.HHZ">
      <acc value="0.0352129806" flag="0"/>
      <vel value="0.0130358742" flag="0"/>
      <psa03 value="0.0429955902" flag="0"/>
      <psa10 value="0.0057450163" flag="0"/>
      <psa30 value="0.0006330169" flag="0"/>
    </comp>
  </station>
  <station code="ATH" name="ATH" netid="HL" insttype="DR24" lat="37.9738" lon="23.7177">
    <comp name="--.HHN">
      <acc value="0.0701789766" flag="0"/>
      <vel value="0.0260407928" flag="0"/>
      <psa03 value="0.1666023888" flag="0"/>
      <psa10 value="0.0145468500" flag="0"/>
      <psa30 value="0.0035636881" flag="0"/>
    </comp>
    <comp name="--.HHE">
      <acc value="0.0781666954" flag="0"/>
      <vel value="0.0299087560" flag="0"/>
      <psa03 value="0.1623516467" flag="0"/>
      <psa10 value="0.0140401779" flag="0"/>
      <psa30 value="0.0013804115" flag="0"/>
    </comp>
    <comp name="--.HHZ">
      <acc value="0.0576267437" flag="0"/>
      <vel value="0.0167278152" flag="0"/>
      <psa03 value="0.0763725974" flag="0"/>
      <psa10 value="0.0161896140" flag="0"/>
      <psa30 value="0.0018288774" flag="0"/>
    </comp>
  </station>
  <station code="KLV" name="KLV" netid="HL" insttype="120" lat="38.0435" lon="22.1504">
    <comp name="--.HHN">
      <acc value="0.0037027937" flag="0"/>
      <vel value="0.0027019529" flag="0"/>
      <psa03 value="0.0079924212" flag="0"/>
      <psa10 value="0.0051738765" flag="0"/>
      <psa30 value="0.0003914274" flag="0"/>
    </comp>
    <comp name="--.HHZ">
      <acc value="0.0032301474" flag="0"/>
      <vel value="0.0019159910" flag="0"/>
      <psa03 value="0.0071531104" flag="0"/>
      <psa10 value="0.0023474890" flag="0"/>
      <psa30 value="0.0002672710" flag="0"/>
    </comp>
    <comp name="--.HHE">
      <acc value="0.0031193068" flag="0"/>
      <vel value="0.0020716530" flag="0"/>
      <psa03 value="0.0079645416" flag="0"/>
      <psa10 value="0.0018535560" flag="0"/>
      <psa30 value="0.0002630378" flag="0"/>
    </comp>
  </station>
  <station code="LKR" name="LKR" netid="HL" insttype="30" lat="38.6496" lon="22.9989">
    <comp name="--.HHZ">
      <acc value="0.1229710572" flag="0"/>
      <vel value="0.0296636075" flag="0"/>
      <psa03 value="0.0990726181" flag="0"/>
      <psa10 value="0.0103647228" flag="0"/>
      <psa30 value="0.0015660558" flag="0"/>
    </comp>
    <comp name="--.HHN">
      <acc value="0.1872439939" flag="0"/>
      <vel value="0.0496595615" flag="0"/>
      <psa03 value="0.1434871721" flag="0"/>
      <psa10 value="0.0120518967" flag="0"/>
      <psa30 value="0.0012185556" flag="0"/>
    </comp>
    <comp name="--.HHE">
      <acc value="0.2443013176" flag="0"/>
      <vel value="0.0541763297" flag="0"/>
      <psa03 value="0.1777619510" flag="0"/>
      <psa10 value="0.0145150771" flag="0"/>
      <psa30 value="0.0015361078" flag="0"/>
    </comp>
  </station>
  <station code="NEO" name="NEO" netid="HL" insttype="120" lat="39.3057" lon="23.2219">
    <comp name="--.HHN">
      <acc value="0.0153339978" flag="0"/>
      <vel value="0.0081725866" flag="0"/>
      <psa03 value="0.0340728922" flag="0"/>
      <psa10 value="0.0065687628" flag="0"/>
      <psa30 value="0.0003627830" flag="0"/>
    </comp>
    <comp name="--.HHE">
      <acc value="0.0171116678" flag="0"/>
      <vel value="0.0077960806" flag="0"/>
      <psa03 value="0.0396086638" flag="0"/>
      <psa10 value="0.0045936187" flag="0"/>
      <psa30 value="0.0006931114" flag="0"/>
    </comp>
    <comp name="--.HHZ">
      <acc value="0.0096509253" flag="0"/>
      <vel value="0.0053367620" flag="0"/>
      <psa03 value="0.0310051573" flag="0"/>
      <psa10 value="0.0031191355" flag="0"/>
      <psa30 value="0.0005370739" flag="0"/>
    </comp>
  </station>
  <station code="NOAC" name="NOAC" netid="HL" insttype="CMG-5" lat="37.9738" lon="23.7177">
    <comp name="00.HNN">
      <acc value="0.0651954859" flag="0"/>
      <vel value="0.0256084713" flag="0"/>
      <psa03 value="0.1687449656" flag="0"/>
      <psa10 value="0.0146248145" flag="0"/>
      <psa30 value="0.0036407041" flag="0"/>
    </comp>
    <comp name="00.HNE">
      <acc value="0.0804673491" flag="0"/>
      <vel value="0.0312384842" flag="0"/>
      <psa03 value="0.1708455397" flag="0"/>
      <psa10 value="0.0144508147" flag="0"/>
      <psa30 value="0.0012892469" flag="0"/>
    </comp>
    <comp name="00.HNZ">
      <acc value="0.0586550341" flag="0"/>
      <vel value="0.0179576638" flag="0"/>
      <psa03 value="0.0802241090" flag="0"/>
      <psa10 value="0.0162130364" flag="0"/>
      <psa30 value="0.0018017275" flag="0"/>
    </comp>
  </station>
  <station code="PTL" name="PTL" netid="HL" insttype="120" lat="38.0473" lon="23.8638">
    <comp name="--.HHE">
      <acc value="0.0218678728" flag="0"/>
      <vel value="0.0074955788" flag="0"/>
      <psa03 value="0.0299235495" flag="0"/>
      <psa10 value="0.0086099889" flag="0"/>
      <psa30 value="0.0021986845" flag="0"/>
    </comp>
    <comp name="--.HHN">
      <acc value="0.0006291194" flag="0"/>
      <vel value="0.0001535433" flag="0"/>
      <psa03 value="0.0001214354" flag="0"/>
      <psa10 value="0.0000986849" flag="0"/>
      <psa30 value="0.0000747213" flag="0"/>
    </comp>
    <comp name="--.HHZ">
      <acc value="0.0214933030" flag="0"/>
      <vel value="0.0061971295" flag="0"/>
      <psa03 value="0.0204507753" flag="0"/>
      <psa10 value="0.0103539031" flag="0"/>
      <psa30 value="0.0018876590" flag="0"/>
    </comp>
  </station>
  <station code="THI1" name="THI1" netid="HL" insttype="LE3D20_SMART24" lat="38.3878" lon="23.3945">
    <comp name="--.HHE">
      <acc value="2.5595933849" flag="0"/>
      <vel value="0.6221487245" flag="0"/>
      <psa03 value="2.2987709589" flag="0"/>
      <psa10 value="0.2214226779" flag="0"/>
      <psa30 value="0.0121762473" flag="0"/>
    </comp>
    <comp name="--.HHN">
      <acc value="2.5708426582" flag="0"/>
      <vel value="0.6715832011" flag="0"/>
      <psa03 value="2.5715493834" flag="0"/>
      <psa10 value="0.2522777160" flag="0"/>
      <psa30 value="0.0203988272" flag="0"/>
    </comp>
    <comp name="--.HHZ">
      <acc value="2.5417699608" flag="0"/>
      <vel value="0.5588232360" flag="0"/>
      <psa03 value="2.2428907018" flag="0"/>
      <psa10 value="0.3368713637" flag="0"/>
      <psa30 value="0.0187594770" flag="0"/>
    </comp>
  </station>
  <station code="THVA" name="THVA" netid="HL" insttype="LE3D20_SMART24" lat="38.3298" lon="23.336">
    <comp name="--.HHZ">
      <acc value="2.7267822118" flag="0"/>
      <vel value="1.3115044254" flag="0"/>
      <psa03 value="7.5406550494" flag="0"/>
      <psa10 value="1.1218072781" flag="0"/>
      <psa30 value="0.0829565269" flag="0"/>
    </comp>
    <comp name="--.HHN">
      <acc value="6.9058674469" flag="0"/>
      <vel value="1.3280097477" flag="0"/>
      <psa03 value="10.2656934196" flag="0"/>
      <psa10 value="1.0348987407" flag="0"/>
      <psa30 value="0.3180407287" flag="0"/>
    </comp>
    <comp name="--.HHE">
      <acc value="2.8926745917" flag="0"/>
      <vel value="1.5246910720" flag="0"/>
      <psa03 value="5.0198399765" flag="0"/>
      <psa10 value="0.8201916342" flag="0"/>
      <psa30 value="0.1831645705" flag="0"/>
    </comp>
  </station>
  <station code="DSF" name="DSF" netid="HP" insttype="120P," lat="38.4112" lon="22.5271">
    <comp name="--.HHN">
      <acc value="0.0792094803" flag="0"/>
      <vel value="0.0197276590" flag="0"/>
      <psa03 value="0.0880666641" flag="0"/>
      <psa10 value="0.0065965651" flag="0"/>
      <psa30 value="0.0006304188" flag="0"/>
    </comp>
    <comp name="--.HHE">
      <acc value="0.0586212850" flag="0"/>
      <vel value="0.0136940345" flag="0"/>
      <psa03 value="0.0854967569" flag="0"/>
      <psa10 value="0.0046020076" flag="0"/>
      <psa30 value="0.0005622118" flag="0"/>
    </comp>
    <comp name="--.HHZ">
      <acc value="0.0373034336" flag="0"/>
      <vel value="0.0103664579" flag="0"/>
      <psa03 value="0.0413505777" flag="0"/>
      <psa10 value="0.0043591285" flag="0"/>
      <psa30 value="0.0005975906" flag="0"/>
    </comp>
  </station>
  <station code="LTK" name="LTK" netid="HP" insttype="120s" lat="38.0228" lon="22.9673">
    <comp name="--.HHE">
      <acc value="0.0450938076" flag="0"/>
      <vel value="0.0198295617" flag="0"/>
      <psa03 value="0.0781165593" flag="0"/>
      <psa10 value="0.0193114270" flag="0"/>
      <psa30 value="0.0018370713" flag="0"/>
    </comp>
    <comp name="--.HHN">
      <acc value="0.0498043473" flag="0"/>
      <vel value="0.0218392058" flag="0"/>
      <psa03 value="0.1301987978" flag="0"/>
