<stationlist created="1675692151">
	<station code="ARPRA" name="ARPRA" netid="KO" source="Bogazici University Kandilli Observatory And Earthquake Research Institute (KOERI)" insttype="" lat="39.0929" lon="38.3356">
		<comp name=".HNE" depth="0.0">
			<acc value="0.042211180843" flag="0"/>
			<vel value="0.0170571573356" flag="0"/>
			<psa03 value="0.095525119737" flag="0"/>
			<psa10 value="0.0129405284965" flag="0"/>
			<psa30 value="0.0010571153412" flag="0"/>
		</comp>
		<comp name=".HNN" depth="0.0">
			<acc value="0.0328644424981" flag="0"/>
			<vel value="0.0176771807894" flag="0"/>
			<psa03 value="0.134318054162" flag="0"/>
			<psa10 value="0.0123290786159" flag="0"/>
			<psa30 value="0.000866383018622" flag="0"/>
		</comp>
		<comp name=".HNZ" depth="0.0">
			<acc value="0.0210806424512" flag="0"/>
			<vel value="0.00816525887409" flag="0"/>
			<psa03 value="0.0566279231972" flag="0"/>
			<psa10 value="0.00861018600755" flag="0"/>
			<psa30 value="0.000712727735549" flag="0"/>
		</comp>
	</station>
	<station code="TUNC" name="TUNC" netid="KO" source="Bogazici University Kandilli Observatory And Earthquake Research Institute (KOERI)" insttype="" lat="39.6942" lon="37.5388">
		<comp name=".HNE" depth="0.0">
			<acc value="0.0165984511505" flag="0"/>
			<vel value="0.0125022276676" flag="0"/>
			<psa03 value="0.0265318513549" flag="0"/>
			<psa10 value="0.0194852426767" flag="0"/>
			<psa30 value="0.00135016142074" flag="0"/>
		</comp>
		<comp name=".HNN" depth="0.0">
			<acc value="0.0285436538319" flag="0"/>
			<vel value="0.0087772142156" flag="0"/>
			<psa03 value="0.0368052845236" flag="0"/>
			<psa10 value="0.0109329389411" flag="0"/>
			<psa30 value="0.000902960129177" flag="0"/>
		</comp>
		<comp name=".HNZ" depth="0.0">
			<acc value="0.00763273228605" flag="0"/>
			<vel value="0.00465424294527" flag="0"/>
			<psa03 value="0.0184772709035" flag="0"/>
			<psa10 value="0.0104158209345" flag="0"/>
			<psa30 value="0.00116487206289" flag="0"/>
		</comp>
	</station>
</stationlist>
