<?xml version="1.0" encoding="UTF-8" standalone="yes"?>
<!DOCTYPE earthquake SYSTEM "stationlist.dtd">
<stationlist created="" xmlns="ch.ethz.sed.shakemap.usgs.xml">
  <station code="AMRR" name="AMRR" netid="RO" insttype="330" lat="44.6102" lon="27.3351">
    <comp name="--.HHE">
      <acc value="0.0835653411" flag="0"/>
      <vel value="0.0308668703" flag="0"/>
      <psa03 value="0.0794875874" flag="0"/>
      <psa10 value="0.0130921989" flag="0"/>
      <psa30 value="0.0010575890" flag="0"/>
    </comp>
    <comp name="--.HHN">
      <acc value="0.0925966770" flag="0"/>
      <vel value="0.0439324902" flag="0"/>
      <psa03 value="0.2345486114" flag="0"/>
      <psa10 value="0.0165347370" flag="0"/>
      <psa30 value="0.0013024977" flag="0"/>
    </comp>
    <comp name="--.HHZ">
      <acc value="0.0565052593" flag="0"/>
      <vel value="0.0105375798" flag="0"/>
      <psa03 value="0.0522345966" flag="0"/>
      <psa10 value="0.0029255288" flag="0"/>
      <psa30 value="0.0002197640" flag="0"/>
    </comp>
  </station>
  <station code="BAC" name="BAC" netid="RO" insttype="2.5V" lat="46.5669" lon="26.9124">
    <comp name="--.HNE">
      <acc value="0.1858023449" flag="0"/>
      <vel value="0.0596842560" flag="0"/>
      <psa03 value="0.2679459162" flag="0"/>
      <psa10 value="0.0159590739" flag="0"/>
      <psa30 value="0.0014331540" flag="0"/>
    </comp>
    <comp name="--.HNZ">
      <acc value="0.2762982199" flag="0"/>
      <vel value="0.0372076102" flag="0"/>
      <psa03 value="0.0792634919" flag="0"/>
      <psa10 value="0.0060292255" flag="0"/>
      <psa30 value="0.0004670684" flag="0"/>
    </comp>
    <comp name="--.HNN">
      <acc value="0.1464327152" flag="0"/>
      <vel value="0.0436463749" flag="0"/>
      <psa03 value="0.1546942190" flag="0"/>
      <psa10 value="0.0092664645" flag="0"/>
      <psa30 value="0.0007985201" flag="0"/>
    </comp>
  </station>
  <station code="BISRR" name="BISRR" netid="RO" insttype="CMG40T.1to100/Basalt" lat="45.5481" lon="26.7099">
    <comp name="--.HHE">
      <acc value="0.3130328242" flag="0"/>
      <vel value="0.0877858362" flag="0"/>
      <psa03 value="0.6016152748" flag="0"/>
      <psa10 value="0.0541126397" flag="0"/>
      <psa30 value="0.0029105974" flag="0"/>
    </comp>
    <comp name="--.HHN">
      <acc value="0.2857011081" flag="0"/>
      <vel value="0.1010851355" flag="0"/>
      <psa03 value="0.7776382919" flag="0"/>
      <psa10 value="0.0619157392" flag="0"/>
      <psa30 value="0.0035128356" flag="0"/>
    </comp>
    <comp name="--.HHZ">
      <acc value="0.2181045178" flag="0"/>
      <vel value="0.0663259312" flag="0"/>
      <psa03 value="0.4343484213" flag="0"/>
      <psa10 value="0.0270058797" flag="0"/>
      <psa30 value="0.0020313076" flag="0"/>
    </comp>
  </station>
  <station code="BOSR" name="BOSR" netid="RO" insttype="Seismometer/Basalt" lat="46.0749" lon="25.6611">
    <comp name="--.HHE">
      <acc value="0.0414138484" flag="0"/>
      <vel value="0.0175471639" flag="0"/>
      <psa03 value="0.1166743917" flag="0"/>
      <psa10 value="0.0091314893" flag="0"/>
      <psa30 value="0.0005563673" flag="0"/>
    </comp>
    <comp name="--.HHN">
      <acc value="0.0363812206" flag="0"/>
      <vel value="0.0216773424" flag="0"/>
      <psa03 value="0.0776642531" flag="0"/>
      <psa10 value="0.0168596181" flag="0"/>
      <psa30 value="0.0012088300" flag="0"/>
    </comp>
    <comp name="--.HHZ">
      <acc value="0.0365439210" flag="0"/>
      <vel value="0.0114028612" flag="0"/>
      <psa03 value="0.0446944867" flag="0"/>
      <psa10 value="0.0054402275" flag="0"/>
      <psa30 value="0.0004072693" flag="0"/>
    </comp>
  </station>
  <station code="CFR" name="CFR" netid="RO" insttype="CMG3T_100sec/Quanterra" lat="45.178" lon="28.1362">
    <comp name="--.HHN">
      <acc value="0.2019452720" flag="0"/>
      <vel value="0.0477810487" flag="0"/>
      <psa03 value="0.1315521393" flag="0"/>
      <psa10 value="0.0048635602" flag="0"/>
      <psa30 value="0.0006643954" flag="0"/>
    </comp>
    <comp name="--.HHZ">
      <acc value="0.1050499815" flag="0"/>
      <vel value="0.0160971807" flag="0"/>
      <psa03 value="0.0633558664" flag="0"/>
      <psa10 value="0.0034103860" flag="0"/>
      <psa30 value="0.0003543778" flag="0"/>
    </comp>
    <comp name="--.HHE">
      <acc value="0.1709874981" flag="0"/>
      <vel value="0.0361845350" flag="0"/>
      <psa03 value="0.0843309138" flag="0"/>
      <psa10 value="0.0049530438" flag="0"/>
      <psa30 value="0.0003779514" flag="0"/>
    </comp>
  </station>
  <station code="DOPR" name="DOPR" netid="RO" insttype="330" lat="45.9675" lon="25.3886">
    <comp name="--.HHE">
      <acc value="0.1702409491" flag="0"/>
      <vel value="0.0280352047" flag="0"/>
      <psa03 value="0.0536297838" flag="0"/>
      <psa10 value="0.0089044565" flag="0"/>
      <psa30 value="0.0004477627" flag="0"/>
    </comp>
    <comp name="--.HHN">
      <acc value="0.0778248621" flag="0"/>
      <vel value="0.0184540739" flag="0"/>
      <psa03 value="0.0757037242" flag="0"/>
      <psa10 value="0.0061297045" flag="0"/>
      <psa30 value="0.0002867037" flag="0"/>
    </comp>
    <comp name="--.HHZ">
      <acc value="0.0750201088" flag="0"/>
      <vel value="0.0213435440" flag="0"/>
      <psa03 value="0.0589836975" flag="0"/>
      <psa10 value="0.0032260378" flag="0"/>
      <psa30 value="0.0003835083" flag="0"/>
    </comp>
  </station>
  <station code="GISR" name="GISR" netid="RO" insttype="2.5V" lat="45.4411" lon="28.0541">
    <comp name="--.HNE">
      <acc value="0.1787375917" flag="0"/>
      <vel value="0.0406550431" flag="0"/>
      <psa03 value="0.1605582007" flag="0"/>
      <psa10 value="0.0114771075" flag="0"/>
      <psa30 value="0.0011839854" flag="0"/>
    </comp>
    <comp name="--.HNN">
      <acc value="0.1548168764" flag="0"/>
      <vel value="0.0490259419" flag="0"/>
      <psa03 value="0.2940151976" flag="0"/>
      <psa10 value="0.0184482533" flag="0"/>
      <psa30 value="0.0014985092" flag="0"/>
    </comp>
    <comp name="--.HNZ">
      <acc value="0.3758935959" flag="0"/>
      <vel value="0.0777406351" flag="0"/>
      <psa03 value="0.1357806083" flag="0"/>
      <psa10 value="0.0072162540" flag="0"/>
      <psa30 value="0.0010557092" flag="0"/>
    </comp>
  </station>
  <station code="ISR" name="ISR" netid="RO" insttype="CMG3ESP/Quanterra" lat="45.1187" lon="26.5432">
    <comp name="--.HHE">
      <acc value="0.1031350236" flag="0"/>
      <vel value="0.0338218155" flag="0"/>
      <psa03 value="0.1834836665" flag="0"/>
      <psa10 value="0.0251689977" flag="0"/>
      <psa30 value="0.0011339664" flag="0"/>
    </comp>
    <comp name="--.HHN">
      <acc value="0.1456040671" flag="0"/>
      <vel value="0.0529448140" flag="0"/>
      <psa03 value="0.3572658782" flag="0"/>
      <psa10 value="0.0215517001" flag="0"/>
      <psa30 value="0.0012833354" flag="0"/>
    </comp>
    <comp name="--.HHZ">
      <acc value="0.0657520367" flag="0"/>
      <vel value="0.0250664217" flag="0"/>
      <psa03 value="0.1297302469" flag="0"/>
      <psa10 value="0.0075755292" flag="0"/>
      <psa30 value="0.0006450254" flag="0"/>
    </comp>
  </station>
  <station code="IZVR" name="IZVR" netid="RO" insttype="CMG40T.1to100/Quanterra" lat="45.5442" lon="27.7655">
    <comp name="--.HHE">
      <acc value="0.1073713633" flag="0"/>
      <vel value="0.0230108424" flag="0"/>
      <psa03 value="0.0886657131" flag="0"/>
      <psa10 value="0.0053562481" flag="0"/>
      <psa30 value="0.0004692300" flag="0"/>
    </comp>
    <comp name="--.HHN">
      <acc value="0.0956753934" flag="0"/>
      <vel value="0.0219192371" flag="0"/>
      <psa03 value="0.0954197578" flag="0"/>
      <psa10 value="0.0061048372" flag="0"/>
      <psa30 value="0.0004944953" flag="0"/>
    </comp>
    <comp name="--.HHZ">
      <acc value="0.1167922075" flag="0"/>
      <vel value="0.0174984157" flag="0"/>
      <psa03 value="0.0284875247" flag="0"/>
      <psa10 value="0.0030936593" flag="0"/>
      <psa30 value="0.0002603178" flag="0"/>
    </comp>
  </station>
  <station code="MLR" name="MLR" netid="RO" insttype="330HR" lat="45.4909" lon="25.945">
    <comp name="--.HHN">
      <acc value="0.0258451879" flag="0"/>
      <vel value="0.0156746705" flag="0"/>
      <psa03 value="0.0873882667" flag="0"/>
      <psa10 value="0.0085047418" flag="0"/>
      <psa30 value="0.0009135192" flag="0"/>
    </comp>
    <comp name="--.HHE">
      <acc value="0.0265704893" flag="0"/>
      <vel value="0.0202814364" flag="0"/>
      <psa03 value="0.0627876496" flag="0"/>
      <psa10 value="0.0151600062" flag="0"/>
      <psa30 value="0.0013158591" flag="0"/>
    </comp>
    <comp name="--.HHZ">
      <acc value="0.0259718765" flag="0"/>
      <vel value="0.0082849130" flag="0"/>
      <psa03 value="0.0561843856" flag="0"/>
      <psa10 value="0.0061250064" flag="0"/>
      <psa30 value="0.0004214356" flag="0"/>
    </comp>
  </station>
  <station code="NARR" name="NARR" netid="RO" insttype="OBS-SIO/Centaur" lat="45.8165" lon="26.7368">
    <comp name="--.HHE">
      <acc value="0.2021554982" flag="0"/>
      <vel value="0.0651275932" flag="0"/>
      <psa03 value="0.4275976237" flag="0"/>
      <psa10 value="0.0205259300" flag="0"/>
      <psa30 value="0.0021230944" flag="0"/>
    </comp>
    <comp name="--.HHZ">
      <acc value="0.1382780644" flag="0"/>
      <vel value="0.0343745350" flag="0"/>
      <psa03 value="0.2540556156" flag="0"/>
      <psa10 value="0.0084924412" flag="0"/>
      <psa30 value="0.0007762655" flag="0"/>
    </comp>
    <comp name="--.HHN">
      <acc value="0.2527091407" flag="0"/>
      <vel value="0.0873080564" flag="0"/>
      <psa03 value="0.6774107454" flag="0"/>
      <psa10 value="0.0230612367" flag="0"/>
      <psa30 value="0.0022364346" flag="0"/>
    </comp>
  </station>
  <station code="NEGRR" name="NEGRR" netid="RO" insttype="CMG40T.1to100/Quanterra" lat="45.5373" lon="27.8771">
    <comp name="--.HHE">
      <acc value="0.2289081837" flag="0"/>
      <vel value="0.0311343764" flag="0"/>
      <psa03 value="0.0979103590" flag="0"/>
      <psa10 value="0.0057133508" flag="0"/>
      <psa30 value="0.0004534938" flag="0"/>
    </comp>
    <comp name="--.HHN">
      <acc value="0.2019935622" flag="0"/>
      <vel value="0.0382817104" flag="0"/>
      <psa03 value="0.0809107304" flag="0"/>
      <psa10 value="0.0065168033" flag="0"/>
      <psa30 value="0.0006828565" flag="0"/>
    </comp>
    <comp name="--.HHZ">
      <acc value="0.1921089955" flag="0"/>
      <vel value="0.0249272605" flag="0"/>
      <psa03 value="0.0754241418" flag="0"/>
      <psa10 value="0.0038131762" flag="0"/>
      <psa30 value="0.0003333566" flag="0"/>
    </comp>
  </station>
  <station code="NEHR" name="NEHR" netid="RO" insttype="Seismometer/Basalt" lat="45.4272" lon="26.2952">
    <comp name="--.HHE">
      <acc value="0.0112636557" flag="0"/>
      <vel value="0.0053731596" flag="0"/>
      <psa03 value="0.0381303300" flag="0"/>
      <psa10 value="0.0022945528" flag="0"/>
      <psa30 value="0.0001745988" flag="0"/>
    </comp>
    <comp name="--.HHN">
      <acc value="0.0149108975" flag="0"/>
      <vel value="0.0043206935" flag="0"/>
      <psa03 value="0.0246836138" flag="0"/>
      <psa10 value="0.0017873340" flag="0"/>
      <psa30 value="0.0001471453" flag="0"/>
    </comp>
    <comp name="--.HHZ">
      <acc value="0.0057234561" flag="0"/>
      <vel value="0.0024161432" flag="0"/>
      <psa03 value="0.0167995220" flag="0"/>
      <psa10 value="0.0006743134" flag="0"/>
      <psa30 value="0.0000561724" flag="0"/>
    </comp>
  </station>
  <station code="ODBI" name="ODBI" netid="RO" insttype="200" lat="45.7633" lon="27.0558">
    <comp name="--.HNZ">
      <acc value="0.4285723488" flag="0"/>
      <vel value="0.1127282290" flag="0"/>
      <psa03 value="0.2647672708" flag="0"/>
      <psa10 value="0.0150460265" flag="0"/>
      <psa30 value="0.0017772461" flag="0"/>
    </comp>
    <comp name="--.HNE">
      <acc value="0.2455303844" flag="0"/>
      <vel value="0.0547570150" flag="0"/>
      <psa03 value="0.1985491507" flag="0"/>
      <psa10 value="0.0164561997" flag="0"/>
      <psa30 value="0.0018279380" flag="0"/>
    </comp>
    <comp name="--.HNN">
      <acc value="0.2109349413" flag="0"/>
      <vel value="0.0445566320" flag="0"/>
      <psa03 value="0.2814612096" flag="0"/>
      <psa10 value="0.0095811649" flag="0"/>
      <psa30 value="0.0008200944" flag="0"/>
    </comp>
  </station>
  <station code="ONER" name="ONER" netid="RO" insttype="CMG40T.1to100/obsidian" lat="46.3349" lon="26.394">
    <comp name="--.HHE">
      <acc value="0.0189927402" flag="0"/>
      <vel value="0.0078317166" flag="0"/>
      <psa03 value="0.0283927562" flag="0"/>
      <psa10 value="0.0046745586" flag="0"/>
      <psa30 value="0.0003193283" flag="0"/>
    </comp>
    <comp name="--.HHZ">
      <acc value="0.0151105613" flag="0"/>
      <vel value="0.0033430768" flag="0"/>
      <psa03 value="0.0251461359" flag="0"/>
      <psa10 value="0.0024336713" flag="0"/>
      <psa30 value="0.0001236960" flag="0"/>
    </comp>
    <comp name="--.HHN">
      <acc value="0.0144419677" flag="0"/>
      <vel value="0.0059828647" flag="0"/>
      <psa03 value="0.0341000978" flag="0"/>
      <psa10 value="0.0047383259" flag="0"/>
      <psa30 value="0.0001582443" flag="0"/>
    </comp>
  </station>
  <station code="PANC" name="PANC" netid="RO" insttype="Seismometer/Basalt" lat="45.8723" lon="27.1477">
    <comp name="--.HHE">
      <acc value="0.1465862717" flag="0"/>
      <vel value="0.0457013483" flag="0"/>
      <psa03 value="0.2387562658" flag="0"/>
      <psa10 value="0.0121194545" flag="0"/>
      <psa30 value="0.0008818315" flag="0"/>
    </comp>
    <comp name="--.HHN">
      <acc value="0.1636028470" flag="0"/>
      <vel value="0.0297469972" flag="0"/>
      <psa03 value="0.1271280242" flag="0"/>
      <psa10 value="0.0102643919" flag="0"/>
      <psa30 value="0.0004681894" flag="0"/>
    </comp>
    <comp name="--.HHZ">
      <acc value="0.2966856043" flag="0"/>
      <vel value="0.0471387512" flag="0"/>
      <psa03 value="0.0963072104" flag="0"/>
      <psa10 value="0.0059604781" flag="0"/>
      <psa30 value="0.0007303895" flag="0"/>
    </comp>
  </station>
  <station code="PGOR" name="PGOR" netid="RO" insttype="CMG40T.1to100/Quanterra" lat="44.9199" lon="26.9768">
    <comp name="--.HHE">
      <acc value="0.1497115945" flag="0"/>
      <vel value="0.0471395324" flag="0"/>
      <psa03 value="0.1646505203" flag="0"/>
      <psa10 value="0.0102735767" flag="0"/>
      <psa30 value="0.0011686043" flag="0"/>
    </comp>
    <comp name="--.HHZ">
      <acc value="0.1360939126" flag="0"/>
      <vel value="0.0194679034" flag="0"/>
      <psa03 value="0.0629088927" flag="0"/>
      <psa10 value="0.0041148949" flag="0"/>
      <psa30 value="0.0002730982" flag="0"/>
    </comp>
    <comp name="--.HHN">
      <acc value="0.0987932829" flag="0"/>
      <vel value="0.0370581247" flag="0"/>
      <psa03 value="0.1291447856" flag="0"/>
      <psa10 value="0.0104964009" flag="0"/>
      <psa30 value="0.0015700641" flag="0"/>
    </comp>
  </station>
  <station code="PLOR" name="PLOR" netid="RO" insttype="MBB2/Quanterra" lat="45.8512" lon="26.6498">
    <comp name="--.HHE">
      <acc value="0.1227233857" flag="0"/>
      <vel value="0.0319206106" flag="0"/>
      <psa03 value="0.1593780639" flag="0"/>
      <psa10 value="0.0215290214" flag="0"/>
      <psa30 value="0.0011907227" flag="0"/>
    </comp>
    <comp name="--.HHN">
      <acc value="0.1462370202" flag="0"/>
      <vel value="0.0438168575" flag="0"/>
      <psa03 value="0.2682409353" flag="0"/>
      <psa10 value="0.0201345356" flag="0"/>
      <psa30 value="0.0010688557" flag="0"/>
    </comp>
    <comp name="--.HHZ">
      <acc value="0.0752166546" flag="0"/>
      <vel value="0.0220027163" flag="0"/>
      <psa03 value="0.1072587888" flag="0"/>
      <psa10 value="0.0073572139" flag="0"/>
      <psa30 value="0.0006745149" flag="0"/>
    </comp>
  </station>
  <station code="PLOR4" name="PLOR4" netid="RO" insttype="MBB2/Quanterra" lat="45.8512" lon="26.6498">
    <comp name="--.HHE">
      <acc value="0.1227233857" flag="0"/>
      <vel value="0.0319206106" flag="0"/>
      <psa03 value="0.1593780639" flag="0"/>
      <psa10 value="0.0215290214" flag="0"/>
      <psa30 value="0.0011907227" flag="0"/>
    </comp>
    <comp name="--.HHN">
      <acc value="0.1462370202" flag="0"/>
      <vel value="0.0438168575" flag="0"/>
      <psa03 value="0.2682409353" flag="0"/>
      <psa10 value="0.0201345356" flag="0"/>
      <psa30 value="0.0010688557" flag="0"/>
    </comp>
    <comp name="--.HHZ">
      <acc value="0.0752166546" flag="0"/>
      <vel value="0.0220027163" flag="0"/>
      <psa03 value="0.1072587888" flag="0"/>
      <psa10 value="0.0073572139" flag="0"/>
      <psa30 value="0.0006745149" flag="0"/>
    </comp>
  </station>
  <station code="SCHLR" name="SCHLR" netid="RO" insttype="CMG40T.1to100/Quanterra" lat="45.4702" lon="27.8314">
    <comp name="--.HHN">
      <acc value="0.1123350632" flag="0"/>
      <vel value="0.0228723963" flag="0"/>
      <psa03 value="0.0934860729" flag="0"/>
      <psa10 value="0.0070721982" flag="0"/>
      <psa30 value="0.0005194224" flag="0"/>
    </comp>
    <comp name="--.HHZ">
      <acc value="0.1477135478" flag="0"/>
      <vel value="0.0209350997" flag="0"/>
      <psa03 value="0.0294750133" flag="0"/>
      <psa10 value="0.0042869595" flag="0"/>
      <psa30 value="0.0003075798" flag="0"/>
    </comp>
    <comp name="--.HHE">
      <acc value="0.1047730578" flag="0"/>
      <vel value="0.0172335265" flag="0"/>
      <psa03 value="0.0420524395" flag="0"/>
      <psa10 value="0.0038590915" flag="0"/>
      <psa30 value="0.0003496474" flag="0"/>
    </comp>
  </station>
  <station code="SCTR" name="SCTR" netid="RO" insttype="MBB2/Basalt" lat="45.6741" lon="27.9949">
    <comp name="--.HHE">
      <acc value="0.0950545763" flag="0"/>
      <vel value="0.0202955086" flag="0"/>
      <psa03 value="0.0736154020" flag="0"/>
      <psa10 value="0.0063155410" flag="0"/>
      <psa30 value="0.0004164770" flag="0"/>
    </comp>
    <comp name="--.HHN">
      <acc value="0.1783140851" flag="0"/>
      <vel value="0.0391674933" flag="0"/>
      <psa03 value="0.1709083095" flag="0"/>
      <psa10 value="0.0100588669" flag="0"/>
      <psa30 value="0.0006690886" flag="0"/>
    </comp>
    <comp name="--.HHZ">
      <acc value="0.1545151968" flag="0"/>
      <vel value="0.0333601084" flag="0"/>
      <psa03 value="0.0805167977" flag="0"/>
      <psa10 value="0.0077780019" flag="0"/>
      <psa30 value="0.0006942321" flag="0"/>
    </comp>
  </station>
  <station code="SULR" name="SULR" netid="RO" insttype="330" lat="44.6777" lon="26.2526">
    <comp name="--.HHE">
      <acc value="0.2024557219" flag="0"/>
      <vel value="0.0838870964" flag="0"/>
      <psa03 value="0.4192391324" flag="0"/>
      <psa10 value="0.0258951151" flag="0"/>
      <psa30 value="0.0027051742" flag="0"/>
    </comp>
    <comp name="--.HHN">
      <acc value="0.1747027977" flag="0"/>
      <vel value="0.0731503665" flag="0"/>
      <psa03 value="0.1904249823" flag="0"/>
      <psa10 value="0.0263219035" flag="0"/>
      <psa30 value="0.0017881784" flag="0"/>
    </comp>
    <comp name="--.HHZ">
      <acc value="0.1231501325" flag="0"/>
      <vel value="0.0225059678" flag="0"/>
      <psa03 value="0.1200212061" flag="0"/>
      <psa10 value="0.0064469741" flag="0"/>
      <psa30 value="0.0006100479" flag="0"/>
    </comp>
  </station>
  <station code="TESR" name="TESR" netid="RO" insttype="330" lat="46.5118" lon="26.6489">
    <comp name="--.HHN">
      <acc value="0.1029073781" flag="0"/>
      <vel value="0.0234032949" flag="0"/>
      <psa03 value="0.0837686237" flag="0"/>
      <psa10 value="0.0045623460" flag="0"/>
