<?xml version="1.0" encoding="UTF-8" standalone="yes"?>
<!DOCTYPE earthquake SYSTEM "stationlist.dtd">
<stationlist created="" xmlns="ch.ethz.sed.shakemap.usgs.xml">
  <station code="BAC" name="BAC" netid="RO" insttype="2.5V" lat="46.5669" lon="26.9124">
    <comp name="--.HNN">
      <acc value="0.1464327151" flag="0"/>
      <vel value="0.0436463747" flag="0"/>
      <psa03 value="0.1546942190" flag="0"/>
      <psa10 value="0.0092664645" flag="0"/>
      <psa30 value="0.0007985263" flag="0"/>
    </comp>
    <comp name="--.HNZ">
      <acc value="0.2762982199" flag="0"/>
      <vel value="0.0372076098" flag="0"/>
      <psa03 value="0.0792634919" flag="0"/>
      <psa10 value="0.0060292255" flag="0"/>
      <psa30 value="0.0004662622" flag="0"/>
    </comp>
    <comp name="--.HNE">
      <acc value="0.1858023449" flag="0"/>
      <vel value="0.0596842561" flag="0"/>
      <psa03 value="0.2679459162" flag="0"/>
      <psa10 value="0.0159590739" flag="0"/>
      <psa30 value="0.0014331304" flag="0"/>
    </comp>
  </station>
  <station code="BISRR" name="BISRR" netid="RO" insttype="CMG40T.1to100/Basalt" lat="45.5481" lon="26.7099">
    <comp name="--.HHN">
      <acc value="0.2857011076" flag="0"/>
      <vel value="0.1010845658" flag="0"/>
      <psa03 value="0.7776382928" flag="0"/>
      <psa10 value="0.0619157401" flag="0"/>
      <psa30 value="0.0035109934" flag="0"/>
    </comp>
    <comp name="--.HHE">
      <acc value="0.3130328238" flag="0"/>
      <vel value="0.0877857910" flag="0"/>
      <psa03 value="0.6016152749" flag="0"/>
      <psa10 value="0.0541126398" flag="0"/>
      <psa30 value="0.0029103271" flag="0"/>
    </comp>
    <comp name="--.HHZ">
      <acc value="0.2181045185" flag="0"/>
      <vel value="0.0663259463" flag="0"/>
      <psa03 value="0.4343484212" flag="0"/>
      <psa10 value="0.0270058797" flag="0"/>
      <psa30 value="0.0020312358" flag="0"/>
    </comp>
  </station>
  <station code="BOSR" name="BOSR" netid="RO" insttype="Seismometer/Basalt" lat="46.0749" lon="25.6611">
    <comp name="--.HHN">
      <acc value="0.0363812205" flag="0"/>
      <vel value="0.0216773421" flag="0"/>
      <psa03 value="0.0776642531" flag="0"/>
      <psa10 value="0.0168596181" flag="0"/>
      <psa30 value="0.0012088192" flag="0"/>
    </comp>
    <comp name="--.HHZ">
      <acc value="0.0365439210" flag="0"/>
      <vel value="0.0114028618" flag="0"/>
      <psa03 value="0.0446944867" flag="0"/>
      <psa10 value="0.0054402275" flag="0"/>
      <psa30 value="0.0004072794" flag="0"/>
    </comp>
    <comp name="--.HHE">
      <acc value="0.0414138485" flag="0"/>
      <vel value="0.0175471637" flag="0"/>
      <psa03 value="0.1166743917" flag="0"/>
      <psa10 value="0.0091314893" flag="0"/>
      <psa30 value="0.0005563740" flag="0"/>
    </comp>
  </station>
  <station code="CFR" name="CFR" netid="RO" insttype="CMG3T_100sec/Quanterra" lat="45.178" lon="28.1362">
    <comp name="--.HHZ">
      <acc value="0.1050499815" flag="0"/>
      <vel value="0.0160971808" flag="0"/>
      <psa03 value="0.0633558664" flag="0"/>
      <psa10 value="0.0034103860" flag="0"/>
      <psa30 value="0.0003543688" flag="0"/>
    </comp>
    <comp name="--.HHE">
      <acc value="0.1709874980" flag="0"/>
      <vel value="0.0361845350" flag="0"/>
      <psa03 value="0.0843309138" flag="0"/>
      <psa10 value="0.0049530438" flag="0"/>
      <psa30 value="0.0003779521" flag="0"/>
    </comp>
    <comp name="--.HHN">
      <acc value="0.2019452723" flag="0"/>
      <vel value="0.0477810486" flag="0"/>
      <psa03 value="0.1315521393" flag="0"/>
      <psa10 value="0.0048635602" flag="0"/>
      <psa30 value="0.0006643954" flag="0"/>
    </comp>
  </station>
  <station code="DOPR" name="DOPR" netid="RO" insttype="330" lat="45.9675" lon="25.3886">
    <comp name="--.HHE">
      <acc value="0.1702409493" flag="0"/>
      <vel value="0.0280352043" flag="0"/>
      <psa03 value="0.0536297838" flag="0"/>
      <psa10 value="0.0089044565" flag="0"/>
      <psa30 value="0.0004477576" flag="0"/>
    </comp>
    <comp name="--.HHN">
      <acc value="0.0778248620" flag="0"/>
      <vel value="0.0184540741" flag="0"/>
      <psa03 value="0.0757037242" flag="0"/>
      <psa10 value="0.0061297045" flag="0"/>
      <psa30 value="0.0002867070" flag="0"/>
    </comp>
    <comp name="--.HHZ">
      <acc value="0.0750201087" flag="0"/>
      <vel value="0.0213435441" flag="0"/>
      <psa03 value="0.0589836975" flag="0"/>
      <psa10 value="0.0032260379" flag="0"/>
      <psa30 value="0.0003835626" flag="0"/>
    </comp>
  </station>
  <station code="GISR" name="GISR" netid="RO" insttype="2.5V" lat="45.4411" lon="28.0541">
    <comp name="--.HNE">
      <acc value="0.1787375920" flag="0"/>
      <vel value="0.0406550492" flag="0"/>
      <psa03 value="0.1605582007" flag="0"/>
      <psa10 value="0.0114771071" flag="0"/>
      <psa30 value="0.0011842234" flag="0"/>
    </comp>
    <comp name="--.HNN">
      <acc value="0.1548168754" flag="0"/>
      <vel value="0.0490259407" flag="0"/>
      <psa03 value="0.2940151976" flag="0"/>
      <psa10 value="0.0184482539" flag="0"/>
      <psa30 value="0.0014981637" flag="0"/>
    </comp>
    <comp name="--.HNZ">
      <acc value="0.3758935938" flag="0"/>
      <vel value="0.0777406378" flag="0"/>
      <psa03 value="0.1357806083" flag="0"/>
      <psa10 value="0.0072160468" flag="0"/>
      <psa30 value="0.0010560296" flag="0"/>
    </comp>
  </station>
  <station code="ISR" name="ISR" netid="RO" insttype="CMG3ESP/Quanterra" lat="45.1187" lon="26.5432">
    <comp name="--.HHN">
      <acc value="0.1456040672" flag="0"/>
      <vel value="0.0529448088" flag="0"/>
      <psa03 value="0.3572658782" flag="0"/>
      <psa10 value="0.0215517001" flag="0"/>
      <psa30 value="0.0012834180" flag="0"/>
    </comp>
    <comp name="--.HHZ">
      <acc value="0.0657520370" flag="0"/>
      <vel value="0.0250664229" flag="0"/>
      <psa03 value="0.1297302469" flag="0"/>
      <psa10 value="0.0075755292" flag="0"/>
      <psa30 value="0.0006450094" flag="0"/>
    </comp>
    <comp name="--.HHE">
      <acc value="0.1031350236" flag="0"/>
      <vel value="0.0338218153" flag="0"/>
      <psa03 value="0.1834836665" flag="0"/>
      <psa10 value="0.0251689977" flag="0"/>
      <psa30 value="0.0011339000" flag="0"/>
    </comp>
  </station>
  <station code="IZVR" name="IZVR" netid="RO" insttype="CMG40T.1to100/Quanterra" lat="45.5442" lon="27.7655">
    <comp name="--.HHN">
      <acc value="0.0956753935" flag="0"/>
      <vel value="0.0219192375" flag="0"/>
      <psa03 value="0.0954197578" flag="0"/>
      <psa10 value="0.0061048372" flag="0"/>
      <psa30 value="0.0004944759" flag="0"/>
    </comp>
    <comp name="--.HHZ">
      <acc value="0.1167922075" flag="0"/>
      <vel value="0.0174984129" flag="0"/>
      <psa03 value="0.0284875247" flag="0"/>
      <psa10 value="0.0030936468" flag="0"/>
      <psa30 value="0.0002601530" flag="0"/>
    </comp>
    <comp name="--.HHE">
      <acc value="0.1073713631" flag="0"/>
      <vel value="0.0230108428" flag="0"/>
      <psa03 value="0.0886657131" flag="0"/>
      <psa10 value="0.0053562481" flag="0"/>
      <psa30 value="0.0004692279" flag="0"/>
    </comp>
  </station>
  <station code="MLR" name="MLR" netid="RO" insttype="330HR" lat="45.4909" lon="25.945">
    <comp name="--.HHE">
      <acc value="0.0265704894" flag="0"/>
      <vel value="0.0202814361" flag="0"/>
      <psa03 value="0.0627876496" flag="0"/>
      <psa10 value="0.0151600062" flag="0"/>
      <psa30 value="0.0013158772" flag="0"/>
    </comp>
    <comp name="--.HHN">
      <acc value="0.0258451878" flag="0"/>
      <vel value="0.0156746706" flag="0"/>
      <psa03 value="0.0873882667" flag="0"/>
      <psa10 value="0.0085047418" flag="0"/>
      <psa30 value="0.0009135353" flag="0"/>
    </comp>
    <comp name="--.HHZ">
      <acc value="0.0259718765" flag="0"/>
      <vel value="0.0082849129" flag="0"/>
      <psa03 value="0.0561843856" flag="0"/>
      <psa10 value="0.0061250064" flag="0"/>
      <psa30 value="0.0004214469" flag="0"/>
    </comp>
  </station>
  <station code="NARR" name="NARR" netid="RO" insttype="OBS-SIO/Centaur" lat="45.8165" lon="26.7368">
    <comp name="--.HHE">
      <acc value="0.2021554979" flag="0"/>
      <vel value="0.0651275929" flag="0"/>
      <psa03 value="0.4275976237" flag="0"/>
      <psa10 value="0.0205259300" flag="0"/>
      <psa30 value="0.0021231076" flag="0"/>
    </comp>
    <comp name="--.HHN">
      <acc value="0.2527091408" flag="0"/>
      <vel value="0.0873080574" flag="0"/>
      <psa03 value="0.6774107454" flag="0"/>
      <psa10 value="0.0230612367" flag="0"/>
      <psa30 value="0.0022364270" flag="0"/>
    </comp>
    <comp name="--.HHZ">
      <acc value="0.1382780641" flag="0"/>
      <vel value="0.0343745363" flag="0"/>
      <psa03 value="0.2540556156" flag="0"/>
      <psa10 value="0.0084924412" flag="0"/>
      <psa30 value="0.0007762706" flag="0"/>
    </comp>
  </station>
  <station code="NEGRR" name="NEGRR" netid="RO" insttype="CMG40T.1to100/Quanterra" lat="45.5373" lon="27.8771">
    <comp name="--.HHE">
      <acc value="0.2289081837" flag="0"/>
      <vel value="0.0311343789" flag="0"/>
      <psa03 value="0.0979103590" flag="0"/>
      <psa10 value="0.0057133509" flag="0"/>
      <psa30 value="0.0004534863" flag="0"/>
    </comp>
    <comp name="--.HHZ">
      <acc value="0.1921089954" flag="0"/>
      <vel value="0.0249272608" flag="0"/>
      <psa03 value="0.0754241418" flag="0"/>
      <psa10 value="0.0038131796" flag="0"/>
      <psa30 value="0.0003333815" flag="0"/>
    </comp>
    <comp name="--.HHN">
      <acc value="0.2019935623" flag="0"/>
      <vel value="0.0382817095" flag="0"/>
      <psa03 value="0.0809107304" flag="0"/>
      <psa10 value="0.0065168033" flag="0"/>
      <psa30 value="0.0006828582" flag="0"/>
    </comp>
  </station>
  <station code="NEHR" name="NEHR" netid="RO" insttype="Seismometer/Basalt" lat="45.4272" lon="26.2952">
    <comp name="--.HHN">
      <acc value="0.0149108975" flag="0"/>
      <vel value="0.0043206938" flag="0"/>
      <psa03 value="0.0246836138" flag="0"/>
      <psa10 value="0.0017873340" flag="0"/>
      <psa30 value="0.0001471506" flag="0"/>
    </comp>
    <comp name="--.HHE">
      <acc value="0.0112636557" flag="0"/>
      <vel value="0.0053731596" flag="0"/>
      <psa03 value="0.0381303300" flag="0"/>
      <psa10 value="0.0022945528" flag="0"/>
      <psa30 value="0.0001745896" flag="0"/>
    </comp>
    <comp name="--.HHZ">
      <acc value="0.0057234561" flag="0"/>
      <vel value="0.0024161432" flag="0"/>
      <psa03 value="0.0167995220" flag="0"/>
      <psa10 value="0.0006743134" flag="0"/>
      <psa30 value="0.0000561738" flag="0"/>
    </comp>
  </station>
  <station code="ODBI" name="ODBI" netid="RO" insttype="200" lat="45.7633" lon="27.0558">
    <comp name="--.HNE">
      <acc value="0.2455303838" flag="0"/>
      <vel value="0.0547570139" flag="0"/>
      <psa03 value="0.1985491507" flag="0"/>
      <psa10 value="0.0164561996" flag="0"/>
      <psa30 value="0.0018293129" flag="0"/>
    </comp>
    <comp name="--.HNN">
      <acc value="0.2109349416" flag="0"/>
      <vel value="0.0445566311" flag="0"/>
      <psa03 value="0.2814612096" flag="0"/>
      <psa10 value="0.0095811649" flag="0"/>
      <psa30 value="0.0008195272" flag="0"/>
    </comp>
    <comp name="--.HNZ">
      <acc value="0.4285723492" flag="0"/>
      <vel value="0.1127282289" flag="0"/>
      <psa03 value="0.2647672708" flag="0"/>
      <psa10 value="0.0150460312" flag="0"/>
      <psa30 value="0.0017784549" flag="0"/>
    </comp>
  </station>
  <station code="ONER" name="ONER" netid="RO" insttype="CMG40T.1to100/obsidian" lat="46.3349" lon="26.394">
    <comp name="--.HHE">
      <acc value="0.0189927401" flag="0"/>
      <vel value="0.0078317160" flag="0"/>
      <psa03 value="0.0283927562" flag="0"/>
      <psa10 value="0.0046745586" flag="0"/>
      <psa30 value="0.0003193295" flag="0"/>
    </comp>
    <comp name="--.HHN">
      <acc value="0.0144419678" flag="0"/>
      <vel value="0.0059828627" flag="0"/>
      <psa03 value="0.0341000978" flag="0"/>
      <psa10 value="0.0047383259" flag="0"/>
      <psa30 value="0.0001582428" flag="0"/>
    </comp>
    <comp name="--.HHZ">
      <acc value="0.0151105613" flag="0"/>
      <vel value="0.0033430768" flag="0"/>
      <psa03 value="0.0251461359" flag="0"/>
      <psa10 value="0.0024336713" flag="0"/>
      <psa30 value="0.0001236959" flag="0"/>
    </comp>
  </station>
  <station code="PANC" name="PANC" netid="RO" insttype="Seismometer/Basalt" lat="45.8723" lon="27.1477">
    <comp name="--.HHE">
      <acc value="0.1465862716" flag="0"/>
      <vel value="0.0457013490" flag="0"/>
      <psa03 value="0.2387562658" flag="0"/>
      <psa10 value="0.0121194544" flag="0"/>
      <psa30 value="0.0008818134" flag="0"/>
    </comp>
    <comp name="--.HHN">
      <acc value="0.1636028470" flag="0"/>
      <vel value="0.0297469961" flag="0"/>
      <psa03 value="0.1271280242" flag="0"/>
      <psa10 value="0.0102643919" flag="0"/>
      <psa30 value="0.0004682499" flag="0"/>
    </comp>
    <comp name="--.HHZ">
      <acc value="0.2966856046" flag="0"/>
      <vel value="0.0471387523" flag="0"/>
      <psa03 value="0.0963072104" flag="0"/>
      <psa10 value="0.0059604828" flag="0"/>
      <psa30 value="0.0007304201" flag="0"/>
    </comp>
  </station>
  <station code="PGOR" name="PGOR" netid="RO" insttype="CMG40T.1to100/Quanterra" lat="44.9199" lon="26.9768">
    <comp name="--.HHE">
      <acc value="0.1497115947" flag="0"/>
      <vel value="0.0471395679" flag="0"/>
      <psa03 value="0.1646505202" flag="0"/>
      <psa10 value="0.0102735767" flag="0"/>
      <psa30 value="0.0011683347" flag="0"/>
    </comp>
    <comp name="--.HHN">
      <acc value="0.0987932832" flag="0"/>
      <vel value="0.0370581345" flag="0"/>
      <psa03 value="0.1291447856" flag="0"/>
      <psa10 value="0.0104964008" flag="0"/>
      <psa30 value="0.0015699515" flag="0"/>
    </comp>
    <comp name="--.HHZ">
      <acc value="0.1360939124" flag="0"/>
      <vel value="0.0194678961" flag="0"/>
      <psa03 value="0.0629088927" flag="0"/>
      <psa10 value="0.0041148950" flag="0"/>
      <psa30 value="0.0002731679" flag="0"/>
    </comp>
  </station>
  <station code="PLOR" name="PLOR" netid="RO" insttype="MBB2/Quanterra" lat="45.8512" lon="26.6498">
    <comp name="--.HHN">
      <acc value="0.1462370200" flag="0"/>
      <vel value="0.0438168568" flag="0"/>
      <psa03 value="0.2682409353" flag="0"/>
      <psa10 value="0.0201345356" flag="0"/>
      <psa30 value="0.0010688735" flag="0"/>
    </comp>
    <comp name="--.HHZ">
      <acc value="0.0752166546" flag="0"/>
      <vel value="0.0220027162" flag="0"/>
      <psa03 value="0.1072587888" flag="0"/>
      <psa10 value="0.0073572139" flag="0"/>
      <psa30 value="0.0006745292" flag="0"/>
    </comp>
    <comp name="--.HHE">
      <acc value="0.1227233858" flag="0"/>
      <vel value="0.0319206102" flag="0"/>
      <psa03 value="0.1593780639" flag="0"/>
      <psa10 value="0.0215290214" flag="0"/>
      <psa30 value="0.0011907430" flag="0"/>
    </comp>
  </station>
  <station code="PLOR4" name="PLOR4" netid="RO" insttype="MBB2/Quanterra" lat="45.8512" lon="26.6498">
    <comp name="--.HHN">
      <acc value="0.1462370200" flag="0"/>
      <vel value="0.0438168568" flag="0"/>
      <psa03 value="0.2682409353" flag="0"/>
      <psa10 value="0.0201345356" flag="0"/>
      <psa30 value="0.0010688735" flag="0"/>
    </comp>
    <comp name="--.HHZ">
      <acc value="0.0752166546" flag="0"/>
      <vel value="0.0220027162" flag="0"/>
      <psa03 value="0.1072587888" flag="0"/>
      <psa10 value="0.0073572139" flag="0"/>
      <psa30 value="0.0006745292" flag="0"/>
    </comp>
    <comp name="--.HHE">
      <acc value="0.1227233858" flag="0"/>
      <vel value="0.0319206102" flag="0"/>
      <psa03 value="0.1593780639" flag="0"/>
      <psa10 value="0.0215290214" flag="0"/>
      <psa30 value="0.0011907430" flag="0"/>
    </comp>
  </station>
  <station code="SCHLR" name="SCHLR" netid="RO" insttype="CMG40T.1to100/Quanterra" lat="45.4702" lon="27.8314">
    <comp name="--.HHE">
      <acc value="0.1047730582" flag="0"/>
      <vel value="0.0172335220" flag="0"/>
      <psa03 value="0.0420524395" flag="0"/>
      <psa10 value="0.0038590916" flag="0"/>
      <psa30 value="0.0003496085" flag="0"/>
    </comp>
    <comp name="--.HHN">
      <acc value="0.1123350633" flag="0"/>
      <vel value="0.0228723953" flag="0"/>
      <psa03 value="0.0934860729" flag="0"/>
      <psa10 value="0.0070721981" flag="0"/>
      <psa30 value="0.0005194089" flag="0"/>
    </comp>
    <comp name="--.HHZ">
      <acc value="0.1477135477" flag="0"/>
      <vel value="0.0209351001" flag="0"/>
      <psa03 value="0.0294750133" flag="0"/>
      <psa10 value="0.0042869683" flag="0"/>
      <psa30 value="0.0003076023" flag="0"/>
    </comp>
  </station>
  <station code="SCTR" name="SCTR" netid="RO" insttype="MBB2/Basalt" lat="45.6741" lon="27.9949">
    <comp name="--.HHN">
      <acc value="0.1783140850" flag="0"/>
      <vel value="0.0391674938" flag="0"/>
      <psa03 value="0.1709083095" flag="0"/>
      <psa10 value="0.0100588670" flag="0"/>
      <psa30 value="0.0006690807" flag="0"/>
    </comp>
    <comp name="--.HHE">
      <acc value="0.0950545762" flag="0"/>
      <vel value="0.0202955085" flag="0"/>
      <psa03 value="0.0736154020" flag="0"/>
      <psa10 value="0.0063155410" flag="0"/>
      <psa30 value="0.0004164454" flag="0"/>
    </comp>
    <comp name="--.HHZ">
      <acc value="0.1545151969" flag="0"/>
      <vel value="0.0333601085" flag="0"/>
      <psa03 value="0.0805167977" flag="0"/>
      <psa10 value="0.0077780065" flag="0"/>
      <psa30 value="0.0006942205" flag="0"/>
    </comp>
  </station>
  <station code="SULR" name="SULR" netid="RO" insttype="330" lat="44.6777" lon="26.2526">
    <comp name="--.HHN">
      <acc value="0.1747027983" flag="0"/>
      <vel value="0.0731503678" flag="0"/>
      <psa03 value="0.1904249823" flag="0"/>
      <psa10 value="0.0263219036" flag="0"/>
      <psa30 value="0.0017882655" flag="0"/>
    </comp>
    <comp name="--.HHZ">
      <acc value="0.1231501327" flag="0"/>
      <vel value="0.0225059695" flag="0"/>
      <psa03 value="0.1200212061" flag="0"/>
      <psa10 value="0.0064469741" flag="0"/>
      <psa30 value="0.0006100161" flag="0"/>
    </comp>
    <comp name="--.HHE">
      <acc value="0.2024557213" flag="0"/>
      <vel value="0.0838870957" flag="0"/>
      <psa03 value="0.4192391324" flag="0"/>
      <psa10 value="0.0258951151" flag="0"/>
      <psa30 value="0.0027051250" flag="0"/>
    </comp>
  </station>
  <station code="TESR" name="TESR" netid="RO" insttype="330" lat="46.5118" lon="26.6489">
    <comp name="--.HHE">
      <acc value="0.0792435119" flag="0"/>
      <vel value="0.0148924755" flag="0"/>
      <psa03 value="0.0767083601" flag="0"/>
      <psa10 value="0.0039351453" flag="0"/>
      <psa30 value="0.0004136702" flag="0"/>
    </comp>
    <comp name="--.HHZ">
      <acc value="0.0801946469" flag="0"/>
      <vel value="0.0127450527" flag="0"/>
      <psa03 value="0.0244792694" flag="0"/>
      <psa10 value="0.0023707630" flag="0"/>
      <psa30 value="0.0001598650" flag="0"/>
    </comp>
    <comp name="--.HHN">
      <acc value="0.1029073781" flag="0"/>
      <vel value="0.0234032949" flag="0"/>
      <psa03 value="0.0837686237" flag="0"/>
      <psa10 value="0.0045623460" flag="0"/>
      <psa30 value="0.0004517935" flag="0"/>
    </comp>
  </station>
  <station code="TUDR" name="TUDR" netid="RO" insttype="CMG40T.1to100/Quanterra" lat="45.5939" lon="27.6687">
    <comp name="--.HHE">
      <acc value="0.1538852707" flag="0"/>
      <vel value="0.0321937621" flag="0"/>
      <psa03 value="0.1251195940" flag="0"/>
