<?xml version="1.0" encoding="UTF-8" standalone="yes"?>
<!DOCTYPE earthquake SYSTEM "stationlist.dtd">
<stationlist created="" xmlns="ch.ethz.sed.shakemap.usgs.xml">
  <station code="KBN" name="KBN" netid="AC" insttype="" lat="40.6236" lon="20.7874">
    <comp name="--.HHE">
      <acc value="0.0243342875" flag="0"/>
      <vel value="0.0178945113" flag="0"/>
      <psa03 value="0.0696605570" flag="0"/>
      <psa10 value="0.0230914088" flag="0"/>
      <psa30 value="0.0040566720" flag="0"/>
    </comp>
    <comp name="--.HHN">
      <acc value="0.0266532585" flag="0"/>
      <vel value="0.0160160420" flag="0"/>
      <psa03 value="0.0596658343" flag="0"/>
      <psa10 value="0.0188361309" flag="0"/>
      <psa30 value="0.0039102642" flag="0"/>
    </comp>
    <comp name="--.HHZ">
      <acc value="0.0201607055" flag="0"/>
      <vel value="0.0155457971" flag="0"/>
      <psa03 value="0.0272318980" flag="0"/>
      <psa10 value="0.0241671269" flag="0"/>
      <psa30 value="0.0035197082" flag="0"/>
    </comp>
  </station>
  <station code="SRN" name="SRN" netid="AC" insttype="" lat="39.88" lon="20.0005">
    <comp name="--.HHN">
      <acc value="0.0050029156" flag="0"/>
      <vel value="0.0016734480" flag="0"/>
      <psa03 value="0.0096101597" flag="0"/>
      <psa10 value="0.0020103684" flag="0"/>
      <psa30 value="0.0003237115" flag="0"/>
    </comp>
    <comp name="--.HHE">
      <acc value="0.0033883099" flag="0"/>
      <vel value="0.0015424378" flag="0"/>
      <psa03 value="0.0071667678" flag="0"/>
      <psa10 value="0.0018586679" flag="0"/>
      <psa30 value="0.0002932935" flag="0"/>
    </comp>
    <comp name="--.HHZ">
      <acc value="0.0037311410" flag="0"/>
      <vel value="0.0015929346" flag="0"/>
      <psa03 value="0.0095553315" flag="0"/>
      <psa10 value="0.0018339169" flag="0"/>
      <psa30 value="0.0002497047" flag="0"/>
    </comp>
  </station>
  <station code="KEK" name="KEK" netid="MN" insttype="" lat="39.7127" lon="19.7962">
    <comp name="--.HHE">
      <acc value="0.0059528435" flag="0"/>
      <vel value="0.0026379098" flag="0"/>
      <psa03 value="0.0098865754" flag="0"/>
      <psa10 value="0.0040307812" flag="0"/>
      <psa30 value="0.0003457754" flag="0"/>
    </comp>
    <comp name="--.HHN">
      <acc value="0.0042000503" flag="0"/>
      <vel value="0.0021784583" flag="0"/>
      <psa03 value="0.0084823043" flag="0"/>
      <psa10 value="0.0038683439" flag="0"/>
      <psa30 value="0.0003537982" flag="0"/>
    </comp>
    <comp name="--.HHZ">
      <acc value="0.0039223880" flag="0"/>
      <vel value="0.0018223396" flag="0"/>
      <psa03 value="0.0067750624" flag="0"/>
      <psa10 value="0.0022870418" flag="0"/>
      <psa30 value="0.0002592160" flag="0"/>
    </comp>
  </station>
</stationlist>
