<?xml version="1.0" encoding="UTF-8" standalone="yes"?>
<!DOCTYPE earthquake SYSTEM "stationlist.dtd">
<stationlist created="" xmlns="ch.ethz.sed.shakemap.usgs.xml">
  <station code="KBN" name="KBN" netid="AC" insttype="" lat="40.6236" lon="20.7874">
    <comp name="--.HHE">
      <acc value="0.0243342875" flag="0"/>
      <vel value="0.0178945113" flag="0"/>
      <psa03 value="0.0696605570" flag="0"/>
      <psa10 value="0.0230914088" flag="0"/>
      <psa30 value="0.0040566720" flag="0"/>
    </comp>
    <comp name="--.HHN">
      <acc value="0.0266532585" flag="0"/>
      <vel value="0.0160160420" flag="0"/>
      <psa03 value="0.0596658343" flag="0"/>
      <psa10 value="0.0188361309" flag="0"/>
      <psa30 value="0.0039102642" flag="0"/>
    </comp>
    <comp name="--.HHZ">
      <acc value="0.0201607055" flag="0"/>
      <vel value="0.0155457971" flag="0"/>
      <psa03 value="0.0272318980" flag="0"/>
      <psa10 value="0.0241671269" flag="0"/>
      <psa30 value="0.0035197082" flag="0"/>
    </comp>
  </station>
  <station code="SRN" name="SRN" netid="AC" insttype="" lat="39.88" lon="20.0005">
    <comp name="--.HHN">
      <acc value="0.0050029156" flag="0"/>
      <vel value="0.0016734480" flag="0"/>
      <psa03 value="0.0096101597" flag="0"/>
      <psa10 value="0.0020103684" flag="0"/>
      <psa30 value="0.0003237115" flag="0"/>
    </comp>
    <comp name="--.HHE">
      <acc value="0.0033883099" flag="0"/>
      <vel value="0.0015424378" flag="0"/>
      <psa03 value="0.0071667678" flag="0"/>
      <psa10 value="0.0018586679" flag="0"/>
      <psa30 value="0.0002932935" flag="0"/>
    </comp>
    <comp name="--.HHZ">
      <acc value="0.0037311410" flag="0"/>
      <vel value="0.0015929346" flag="0"/>
      <psa03 value="0.0095553315" flag="0"/>
      <psa10 value="0.0018339169" flag="0"/>
      <psa30 value="0.0002497047" flag="0"/>
    </comp>
  </station>
  <station code="LMS2" name="LMS2" netid="HI" insttype="CMG-5TD,ACCELEROMETER,GURALP" lat="40.835" lon="21.1418">
    <comp name="--.HNE">
      <acc value="0.0270306319" flag="0"/>
      <vel value="0.0117022696" flag="0"/>
      <psa03 value="0.0683520025" flag="0"/>
      <psa10 value="0.0054115488" flag="0"/>
      <psa30 value="0.0007125556" flag="0"/>
    </comp>
    <comp name="--.HNN">
      <acc value="0.0365264493" flag="0"/>
      <vel value="0.0121170094" flag="0"/>
      <psa03 value="0.0946232635" flag="0"/>
      <psa10 value="0.0068129665" flag="0"/>
      <psa30 value="0.0007037988" flag="0"/>
    </comp>
    <comp name="--.HNZ">
      <acc value="0.0096165827" flag="0"/>
      <vel value="0.0038390322" flag="0"/>
      <psa03 value="0.0186186608" flag="0"/>
      <psa10 value="0.0056512806" flag="0"/>
      <psa30 value="0.0007755851" flag="0"/>
    </comp>
  </station>
  <station code="JAN" name="JAN" netid="HL" insttype="CMG3EPSC60_DR24" lat="39.6562" lon="20.8487">
    <comp name="--.HHE">
      <acc value="0.0300357397" flag="0"/>
      <vel value="0.0116602900" flag="0"/>
      <psa03 value="0.0802026120" flag="0"/>
      <psa10 value="0.0154774615" flag="0"/>
      <psa30 value="0.0010980374" flag="0"/>
    </comp>
    <comp name="--.HHN">
      <acc value="0.0311590086" flag="0"/>
      <vel value="0.0103405351" flag="0"/>
      <psa03 value="0.0588639190" flag="0"/>
      <psa10 value="0.0123366407" flag="0"/>
      <psa30 value="0.0015638996" flag="0"/>
    </comp>
    <comp name="--.HHZ">
      <acc value="0.0172900573" flag="0"/>
      <vel value="0.0097249904" flag="0"/>
      <psa03 value="0.0450269159" flag="0"/>
      <psa10 value="0.0158021442" flag="0"/>
      <psa30 value="0.0013394984" flag="0"/>
    </comp>
  </station>
  <station code="KEK" name="KEK" netid="HL" insttype="120" lat="39.7127" lon="19.7962">
    <comp name="--.HHN">
      <acc value="0.0042000533" flag="0"/>
      <vel value="0.0021784605" flag="0"/>
      <psa03 value="0.0084823102" flag="0"/>
      <psa10 value="0.0038683466" flag="0"/>
      <psa30 value="0.0003538604" flag="0"/>
    </comp>
    <comp name="--.HHZ">
      <acc value="0.0039223909" flag="0"/>
      <vel value="0.0018223416" flag="0"/>
      <psa03 value="0.0067750671" flag="0"/>
      <psa10 value="0.0022870434" flag="0"/>
      <psa30 value="0.0002592364" flag="0"/>
    </comp>
    <comp name="--.HHE">
      <acc value="0.0059528477" flag="0"/>
      <vel value="0.0026379128" flag="0"/>
      <psa03 value="0.0098865822" flag="0"/>
      <psa10 value="0.0040307840" flag="0"/>
      <psa30 value="0.0003457916" flag="0"/>
    </comp>
  </station>
  <station code="KZN" name="KZN" netid="HL" insttype="120" lat="40.3033" lon="21.7821">
    <comp name="--.HHE">
      <acc value="0.0169931322" flag="0"/>
      <vel value="0.0082902676" flag="0"/>
      <psa03 value="0.0353704713" flag="0"/>
      <psa10 value="0.0062809822" flag="0"/>
      <psa30 value="0.0015523552" flag="0"/>
    </comp>
    <comp name="--.HHZ">
      <acc value="0.0088158719" flag="0"/>
      <vel value="0.0041443618" flag="0"/>
      <psa03 value="0.0290458417" flag="0"/>
      <psa10 value="0.0044704319" flag="0"/>
      <psa30 value="0.0016017060" flag="0"/>
    </comp>
    <comp name="--.HHN">
      <acc value="0.0128084094" flag="0"/>
      <vel value="0.0062413367" flag="0"/>
      <psa03 value="0.0324486120" flag="0"/>
      <psa10 value="0.0060133739" flag="0"/>
      <psa30 value="0.0009566762" flag="0"/>
    </comp>
  </station>
  <station code="TETR" name="TETR" netid="HL" insttype="60" lat="39.3445" lon="21.2747">
    <comp name="--.HHE">
      <acc value="0.0114382343" flag="0"/>
      <vel value="0.0073089666" flag="0"/>
      <psa03 value="0.0272201586" flag="0"/>
      <psa10 value="0.0079782884" flag="0"/>
      <psa30 value="0.0009960046" flag="0"/>
    </comp>
    <comp name="--.HHN">
      <acc value="0.0088883601" flag="0"/>
      <vel value="0.0067095243" flag="0"/>
      <psa03 value="0.0222406050" flag="0"/>
      <psa10 value="0.0090670156" flag="0"/>
      <psa30 value="0.0014140554" flag="0"/>
    </comp>
    <comp name="--.HHZ">
      <acc value="0.0040764958" flag="0"/>
      <vel value="0.0034188313" flag="0"/>
      <psa03 value="0.0114658646" flag="0"/>
      <psa10 value="0.0039338620" flag="0"/>
      <psa30 value="0.0009912241" flag="0"/>
    </comp>
  </station>
  <station code="KSTR" name="KSTR" netid="HP" insttype="Compact," lat="39.2492" lon="20.576">
    <comp name="--.HHN">
      <acc value="0.0026939757" flag="0"/>
      <vel value="0.0023570008" flag="0"/>
      <psa03 value="0.0077511195" flag="0"/>
      <psa10 value="0.0052902314" flag="0"/>
      <psa30 value="0.0005323264" flag="0"/>
    </comp>
    <comp name="--.HHZ">
      <acc value="0.0026783317" flag="0"/>
      <vel value="0.0018234958" flag="0"/>
      <psa03 value="0.0052244319" flag="0"/>
      <psa10 value="0.0030741007" flag="0"/>
      <psa30 value="0.0005580717" flag="0"/>
    </comp>
    <comp name="--.HHE">
      <acc value="0.0040298142" flag="0"/>
      <vel value="0.0023844731" flag="0"/>
      <psa03 value="0.0137363921" flag="0"/>
      <psa10 value="0.0050212307" flag="0"/>
      <psa30 value="0.0009340349" flag="0"/>
    </comp>
  </station>
  <station code="PRMD" name="PRMD" netid="HP" insttype="120P," lat="39.5299" lon="21.0965">
    <comp name="--.HHN">
      <acc value="0.0063112227" flag="0"/>
      <vel value="0.0056312838" flag="0"/>
      <psa03 value="0.0169696891" flag="0"/>
      <psa10 value="0.0084700917" flag="0"/>
      <psa30 value="0.0013773382" flag="0"/>
    </comp>
    <comp name="--.HHE">
      <acc value="0.0078464323" flag="0"/>
      <vel value="0.0067522857" flag="0"/>
      <psa03 value="0.0245948288" flag="0"/>
      <psa10 value="0.0114132926" flag="0"/>
      <psa30 value="0.0015153823" flag="0"/>
    </comp>
    <comp name="--.HHZ">
      <acc value="0.0040863200" flag="0"/>
      <vel value="0.0048535283" flag="0"/>
      <psa03 value="0.0142327472" flag="0"/>
      <psa10 value="0.0080447255" flag="0"/>
      <psa30 value="0.0016885020" flag="0"/>
    </comp>
  </station>
  <station code="KPRO" name="KPRO" netid="HT" insttype="100" lat="39.9549" lon="21.3632">
    <comp name="--.HHN">
      <acc value="0.0178383153" flag="0"/>
      <vel value="0.0123526617" flag="0"/>
      <psa03 value="0.0928879560" flag="0"/>
      <psa10 value="0.0128007236" flag="0"/>
      <psa30 value="0.0020160477" flag="0"/>
    </comp>
    <comp name="--.HHE">
      <acc value="0.0215771503" flag="0"/>
      <vel value="0.0105558502" flag="0"/>
      <psa03 value="0.0577271364" flag="0"/>
      <psa10 value="0.0129423412" flag="0"/>
      <psa30 value="0.0019444615" flag="0"/>
    </comp>
    <comp name="--.HHZ">
      <acc value="0.0081616857" flag="0"/>
      <vel value="0.0097704338" flag="0"/>
      <psa03 value="0.0227762088" flag="0"/>
      <psa10 value="0.0170966437" flag="0"/>
      <psa30 value="0.0012994498" flag="0"/>
    </comp>
  </station>
  <station code="KEK" name="KEK" netid="MN" insttype="" lat="39.7127" lon="19.7962">
    <comp name="--.HHE">
      <acc value="0.0059528435" flag="0"/>
      <vel value="0.0026379098" flag="0"/>
      <psa03 value="0.0098865754" flag="0"/>
      <psa10 value="0.0040307812" flag="0"/>
      <psa30 value="0.0003457754" flag="0"/>
    </comp>
    <comp name="--.HHN">
      <acc value="0.0042000503" flag="0"/>
      <vel value="0.0021784583" flag="0"/>
      <psa03 value="0.0084823043" flag="0"/>
      <psa10 value="0.0038683439" flag="0"/>
      <psa30 value="0.0003537982" flag="0"/>
    </comp>
    <comp name="--.HHZ">
      <acc value="0.0039223880" flag="0"/>
      <vel value="0.0018223396" flag="0"/>
      <psa03 value="0.0067750624" flag="0"/>
      <psa10 value="0.0022870418" flag="0"/>
      <psa30 value="0.0002592160" flag="0"/>
    </comp>
  </station>
</stationlist>
