<?xml version="1.0" encoding="UTF-8" standalone="yes"?>
<!DOCTYPE earthquake SYSTEM "stationlist.dtd">
<stationlist created="" xmlns="ch.ethz.sed.shakemap.usgs.xml">
  <station code="ARPRA" name="ARPRA" netid="KO" insttype="CMG-5T" lat="39.0929" lon="38.3356">
    <comp name="--.HNE">
      <acc value="0.0241523843" flag="0"/>
      <vel value="0.0142491376" flag="0"/>
      <psa03 value="0.0673320832" flag="0"/>
      <psa10 value="0.0278451854" flag="0"/>
      <psa30 value="0.0009298852" flag="0"/>
    </comp>
    <comp name="--.HNZ">
      <acc value="0.0117911840" flag="0"/>
      <vel value="0.0058945817" flag="0"/>
      <psa03 value="0.0297582309" flag="0"/>
      <psa10 value="0.0066989893" flag="0"/>
      <psa30 value="0.0004620112" flag="0"/>
    </comp>
    <comp name="--.HNN">
      <acc value="0.0216319178" flag="0"/>
      <vel value="0.0107222786" flag="0"/>
      <psa03 value="0.0697351099" flag="0"/>
      <psa10 value="0.0114144238" flag="0"/>
      <psa30 value="0.0004895114" flag="0"/>
    </comp>
  </station>
  <station code="DARE" name="DARE" netid="KO" insttype="CMG-3ESP" lat="38.5712" lon="37.4832">
    <comp name="--.HHE">
      <acc value="0.0088056617" flag="0"/>
      <vel value="0.0041781943" flag="0"/>
      <psa03 value="0.0229402950" flag="0"/>
      <psa10 value="0.0029273528" flag="0"/>
      <psa30 value="0.0002042610" flag="0"/>
    </comp>
    <comp name="--.HHZ">
      <acc value="0.0063810357" flag="0"/>
      <vel value="0.0033180853" flag="0"/>
      <psa03 value="0.0205685367" flag="0"/>
      <psa10 value="0.0028825638" flag="0"/>
      <psa30 value="0.0003009694" flag="0"/>
    </comp>
    <comp name="--.HHN">
      <acc value="0.0078312834" flag="0"/>
      <vel value="0.0037402298" flag="0"/>
      <psa03 value="0.0188329275" flag="0"/>
      <psa10 value="0.0033022602" flag="0"/>
      <psa30 value="0.0002176126" flag="0"/>
    </comp>
  </station>
</stationlist>
