<?xml version="1.0" encoding="UTF-8" standalone="yes"?>
<!DOCTYPE earthquake SYSTEM "stationlist.dtd">
<stationlist created="" xmlns="ch.ethz.sed.shakemap.usgs.xml">
  <station code="DYBB" name="DYBB" netid="KO" insttype="CMG-3T" lat="37.9532" lon="40.1393">
    <comp name="--.HHN">
      <acc value="0.0197581191" flag="0"/>
      <vel value="0.0145517667" flag="0"/>
      <psa03 value="0.0374431790" flag="0"/>
      <psa10 value="0.0171503687" flag="0"/>
      <psa30 value="0.0098310713" flag="0"/>
    </comp>
    <comp name="--.HHE">
      <acc value="0.0174764236" flag="0"/>
      <vel value="0.0191595259" flag="0"/>
      <psa03 value="0.0333778686" flag="0"/>
      <psa10 value="0.0207925763" flag="0"/>
      <psa30 value="0.0037700378" flag="0"/>
    </comp>
    <comp name="--.HHZ">
      <acc value="0.0086371844" flag="0"/>
      <vel value="0.0088643153" flag="0"/>
      <psa03 value="0.0309875634" flag="0"/>
      <psa10 value="0.0106164927" flag="0"/>
      <psa30 value="0.0044955089" flag="0"/>
    </comp>
  </station>
  <station code="SINE" name="SINE" netid="KO" insttype="CMG-6T" lat="39.1636" lon="39.3871">
    <comp name="--.HHE">
      <acc value="0.0056458912" flag="0"/>
      <vel value="0.0035300407" flag="0"/>
      <psa03 value="0.0178978769" flag="0"/>
      <psa10 value="0.0051477772" flag="0"/>
      <psa30 value="0.0002390784" flag="0"/>
    </comp>
    <comp name="--.HHN">
      <acc value="0.0056877380" flag="0"/>
      <vel value="0.0037616161" flag="0"/>
      <psa03 value="0.0158258143" flag="0"/>
      <psa10 value="0.0058342339" flag="0"/>
      <psa30 value="0.0002234495" flag="0"/>
    </comp>
    <comp name="--.HHZ">
      <acc value="0.0050564155" flag="0"/>
      <vel value="0.0029165885" flag="0"/>
      <psa03 value="0.0123999745" flag="0"/>
      <psa10 value="0.0046197095" flag="0"/>
      <psa30 value="0.0002511914" flag="0"/>
    </comp>
  </station>
</stationlist>
