<?xml version="1.0" encoding="UTF-8" standalone="yes"?>
<!DOCTYPE earthquake SYSTEM "stationlist.dtd">
<stationlist created="" xmlns="ch.ethz.sed.shakemap.usgs.xml">
  <station code="APE" name="APE" netid="GE" insttype="STS-2/N" lat="37.0727" lon="25.523">
    <comp name="--.HHE">
      <acc value="0.1845354049" flag="0"/>
      <vel value="0.0502955904" flag="0"/>
      <psa03 value="0.3212633804" flag="0"/>
      <psa10 value="0.0170770085" flag="0"/>
      <psa30 value="0.0031532167" flag="0"/>
    </comp>
    <comp name="--.HHZ">
      <acc value="0.0979002120" flag="0"/>
      <vel value="0.0219739031" flag="0"/>
      <psa03 value="0.1336330706" flag="0"/>
      <psa10 value="0.0153749209" flag="0"/>
      <psa30 value="0.0026080917" flag="0"/>
    </comp>
    <comp name="--.HHN">
      <acc value="0.1657301170" flag="0"/>
      <vel value="0.0437035964" flag="0"/>
      <psa03 value="0.2115520017" flag="0"/>
      <psa10 value="0.0147995555" flag="0"/>
      <psa30 value="0.0040389895" flag="0"/>
    </comp>
  </station>
  <station code="THERA" name="THERA" netid="GE" insttype="STS-2/N" lat="36.367" lon="25.4753">
    <comp name="--.HHZ">
      <acc value="0.1010440258" flag="0"/>
      <vel value="0.0325108801" flag="0"/>
      <psa03 value="0.1210737095" flag="0"/>
      <psa10 value="0.0109386582" flag="0"/>
      <psa30 value="0.0027212460" flag="0"/>
    </comp>
    <comp name="--.HHE">
      <acc value="0.1367420997" flag="0"/>
      <vel value="0.0386142285" flag="0"/>
      <psa03 value="0.0874585536" flag="0"/>
      <psa10 value="0.0266588257" flag="0"/>
      <psa30 value="0.0029477236" flag="0"/>
    </comp>
    <comp name="--.HHN">
      <acc value="0.0956814405" flag="0"/>
      <vel value="0.0305289698" flag="0"/>
      <psa03 value="0.1294095006" flag="0"/>
      <psa10 value="0.0193218883" flag="0"/>
      <psa30 value="0.0015311696" flag="0"/>
    </comp>
  </station>
  <station code="SERI" name="SERI" netid="HA" insttype="30" lat="37.1609" lon="24.4853">
    <comp name="--.HHN">
      <acc value="0.0340071090" flag="0"/>
      <vel value="0.0113583005" flag="0"/>
      <psa03 value="0.0492429400" flag="0"/>
      <psa10 value="0.0115411857" flag="0"/>
      <psa30 value="0.0014038652" flag="0"/>
    </comp>
    <comp name="--.HHE">
      <acc value="0.0226463359" flag="0"/>
      <vel value="0.0099481467" flag="0"/>
      <psa03 value="0.0475871407" flag="0"/>
      <psa10 value="0.0083560964" flag="0"/>
      <psa30 value="0.0012337603" flag="0"/>
    </comp>
    <comp name="--.HHZ">
      <acc value="0.0208917705" flag="0"/>
      <vel value="0.0084948955" flag="0"/>
      <psa03 value="0.0301245866" flag="0"/>
      <psa10 value="0.0082574072" flag="0"/>
      <psa30 value="0.0016820522" flag="0"/>
    </comp>
  </station>
  <station code="SNT5" name="SNT5" netid="HA" insttype="1s-100Hz," lat="36.4037" lon="25.3953">
    <comp name="--.HHZ">
      <acc value="0.2496577807" flag="0"/>
      <vel value="0.0448946937" flag="0"/>
      <psa03 value="0.1268882769" flag="0"/>
      <psa10 value="0.0239134146" flag="0"/>
      <psa30 value="0.0024805147" flag="0"/>
    </comp>
    <comp name="--.HHE">
      <acc value="0.6682837541" flag="0"/>
      <vel value="0.1255192134" flag="0"/>
      <psa03 value="0.6840900901" flag="0"/>
      <psa10 value="0.0607240331" flag="0"/>
      <psa30 value="0.0079007579" flag="0"/>
    </comp>
    <comp name="--.HHN">
      <acc value="0.2645932333" flag="0"/>
      <vel value="0.0700189639" flag="0"/>
      <psa03 value="0.4259206154" flag="0"/>
      <psa10 value="0.0271348598" flag="0"/>
      <psa30 value="0.0059354439" flag="0"/>
    </comp>
  </station>
  <station code="NAX1" name="NAX1" netid="HI" insttype="CMG-5TD,ACCELEROMETER,GURALP" lat="37.1014" lon="25.3741">
    <comp name="--.HNE">
      <acc value="0.1553811890" flag="0"/>
      <vel value="0.0474675078" flag="0"/>
      <psa03 value="0.1451164196" flag="0"/>
      <psa10 value="0.0250540402" flag="0"/>
      <psa30 value="0.0034219401" flag="0"/>
    </comp>
    <comp name="--.HNZ">
      <acc value="0.0797240578" flag="0"/>
      <vel value="0.0236768953" flag="0"/>
      <psa03 value="0.1086591973" flag="0"/>
      <psa10 value="0.0147292507" flag="0"/>
      <psa30 value="0.0038150078" flag="0"/>
    </comp>
    <comp name="--.HNN">
      <acc value="0.1004567064" flag="0"/>
      <vel value="0.0329332651" flag="0"/>
      <psa03 value="0.1372158777" flag="0"/>
      <psa10 value="0.0183998653" flag="0"/>
      <psa30 value="0.0019198281" flag="0"/>
    </comp>
  </station>
  <station code="SFR2" name="SFR2" netid="HI" insttype="unknown" lat="36.3998" lon="25.4382">
    <comp name="--.HNN">
      <acc value="0.3811915390" flag="0"/>
      <vel value="0.0972700090" flag="0"/>
      <psa03 value="0.5709373265" flag="0"/>
      <psa10 value="0.1263544177" flag="0"/>
      <psa30 value="0.0078166573" flag="0"/>
    </comp>
    <comp name="--.HNE">
      <acc value="0.2666678838" flag="0"/>
      <vel value="0.0798364448" flag="0"/>
      <psa03 value="0.4591298258" flag="0"/>
      <psa10 value="0.0792386418" flag="0"/>
      <psa30 value="0.0062383441" flag="0"/>
    </comp>
    <comp name="--.HNZ">
      <acc value="0.2401807761" flag="0"/>
      <vel value="0.0777477640" flag="0"/>
      <psa03 value="0.2960317052" flag="0"/>
      <psa10 value="0.0601988490" flag="0"/>
      <psa30 value="0.0054277890" flag="0"/>
    </comp>
  </station>
  <station code="AMGA" name="AMGA" netid="HL" insttype="SMART24" lat="36.8316" lon="25.8938">
    <comp name="--.HHE">
      <acc value="1.1789247767" flag="0"/>
      <vel value="0.4530961079" flag="0"/>
      <psa03 value="1.6284722574" flag="0"/>
      <psa10 value="0.2256804458" flag="0"/>
      <psa30 value="0.0270146316" flag="0"/>
    </comp>
    <comp name="--.HHN">
      <acc value="0.7062831391" flag="0"/>
      <vel value="0.2523893839" flag="0"/>
      <psa03 value="0.7526971612" flag="0"/>
      <psa10 value="0.1029774541" flag="0"/>
      <psa30 value="0.0141957438" flag="0"/>
    </comp>
    <comp name="--.HHZ">
      <acc value="0.6123955471" flag="0"/>
      <vel value="0.1694822999" flag="0"/>
      <psa03 value="0.6799220068" flag="0"/>
      <psa10 value="0.0610482108" flag="0"/>
      <psa30 value="0.0238561525" flag="0"/>
    </comp>
  </station>
  <station code="APE" name="APE" netid="HL" insttype="120" lat="37.0727" lon="25.523">
    <comp name="--.HHE">
      <acc value="0.1700747677" flag="0"/>
      <vel value="0.0486792243" flag="0"/>
      <psa03 value="0.3122924646" flag="0"/>
      <psa10 value="0.0168617475" flag="0"/>
      <psa30 value="0.0031502074" flag="0"/>
    </comp>
    <comp name="--.HHN">
      <acc value="0.1482389898" flag="0"/>
      <vel value="0.0424859973" flag="0"/>
      <psa03 value="0.2045795081" flag="0"/>
      <psa10 value="0.0146870059" flag="0"/>
      <psa30 value="0.0040235895" flag="0"/>
    </comp>
    <comp name="--.HHZ">
      <acc value="0.0872273349" flag="0"/>
      <vel value="0.0208611739" flag="0"/>
      <psa03 value="0.1296624924" flag="0"/>
      <psa10 value="0.0152763770" flag="0"/>
      <psa30 value="0.0026035942" flag="0"/>
    </comp>
  </station>
  <station code="ASTA" name="ASTA" netid="HL" insttype="CMG-5" lat="36.5455" lon="26.3529">
    <comp name="00.HNN">
      <acc value="0.0560330858" flag="0"/>
      <vel value="0.0167454248" flag="0"/>
      <psa03 value="0.0982697509" flag="0"/>
      <psa10 value="0.0208482154" flag="0"/>
      <psa30 value="0.0016766412" flag="0"/>
    </comp>
    <comp name="00.HNE">
      <acc value="0.0476307199" flag="0"/>
      <vel value="0.0163391098" flag="0"/>
      <psa03 value="0.0637855448" flag="0"/>
      <psa10 value="0.0238929787" flag="0"/>
      <psa30 value="0.0013792124" flag="0"/>
    </comp>
    <comp name="00.HNZ">
      <acc value="0.0571662249" flag="0"/>
      <vel value="0.0154315800" flag="0"/>
      <psa03 value="0.0876912938" flag="0"/>
      <psa10 value="0.0106095802" flag="0"/>
      <psa30 value="0.0023858023" flag="0"/>
    </comp>
  </station>
  <station code="MHLO" name="MHLO" netid="HL" insttype="20" lat="36.6898" lon="24.4017">
    <comp name="--.HHE">
      <acc value="0.1266983293" flag="0"/>
      <vel value="0.0802511498" flag="0"/>
      <psa03 value="0.3230357606" flag="0"/>
      <psa10 value="0.1125948500" flag="0"/>
      <psa30 value="0.0050818148" flag="0"/>
    </comp>
    <comp name="--.HHN">
      <acc value="0.0734498664" flag="0"/>
      <vel value="0.0454655111" flag="0"/>
      <psa03 value="0.3418305967" flag="0"/>
      <psa10 value="0.0855221856" flag="0"/>
      <psa30 value="0.0049292587" flag="0"/>
    </comp>
    <comp name="--.HHZ">
      <acc value="0.0576909817" flag="0"/>
      <vel value="0.0492500740" flag="0"/>
      <psa03 value="0.2721077382" flag="0"/>
      <psa10 value="0.0772400859" flag="0"/>
      <psa30 value="0.0038915546" flag="0"/>
    </comp>
  </station>
  <station code="MILA" name="MILA" netid="HL" insttype="CMG-5" lat="36.7429" lon="24.4282">
    <comp name="00.HNE">
      <acc value="0.1195363971" flag="0"/>
      <vel value="0.0574196471" flag="0"/>
      <psa03 value="0.2585239987" flag="0"/>
      <psa10 value="0.0524098042" flag="0"/>
      <psa30 value="0.0073270299" flag="0"/>
    </comp>
    <comp name="00.HNN">
      <acc value="0.1976794612" flag="0"/>
      <vel value="0.1231180922" flag="0"/>
      <psa03 value="0.5606689018" flag="0"/>
      <psa10 value="0.0681253066" flag="0"/>
      <psa30 value="0.0061746377" flag="0"/>
    </comp>
    <comp name="00.HNZ">
      <acc value="0.0905232630" flag="0"/>
      <vel value="0.0509620891" flag="0"/>
      <psa03 value="0.3188900833" flag="0"/>
      <psa10 value="0.0711658871" flag="0"/>
      <psa30 value="0.0024855161" flag="0"/>
    </comp>
  </station>
  <station code="NISR" name="NISR" netid="HL" insttype="65535" lat="36.6106" lon="27.131">
    <comp name="--.HHE">
      <acc value="0.0000000000" flag="0"/>
      <vel value="-100.0000000000" flag="0"/>
      <psa03 value="0.0000000000" flag="0"/>
      <psa10 value="0.0000000000" flag="0"/>
      <psa30 value="0.0000000000" flag="0"/>
    </comp>
    <comp name="--.HHN">
      <acc value="0.0295349268" flag="0"/>
      <vel value="0.0125416426" flag="0"/>
      <psa03 value="0.0584872354" flag="0"/>
      <psa10 value="0.0132917253" flag="0"/>
      <psa30 value="0.0041110280" flag="0"/>
    </comp>
    <comp name="--.HHZ">
      <acc value="0.0206915137" flag="0"/>
      <vel value="0.0070625591" flag="0"/>
      <psa03 value="0.0418506189" flag="0"/>
      <psa10 value="0.0099414435" flag="0"/>
      <psa30 value="0.0007889117" flag="0"/>
    </comp>
  </station>
  <station code="NISR2" name="NISR2" netid="HL" insttype="120" lat="36.5744" lon="27.1767">
    <comp name="--.HHE">
      <acc value="0.0422842234" flag="0"/>
      <vel value="0.0223171785" flag="0"/>
      <psa03 value="0.1569720733" flag="0"/>
      <psa10 value="0.0471021860" flag="0"/>
      <psa30 value="0.0026405747" flag="0"/>
    </comp>
    <comp name="--.HHN">
      <acc value="0.0303961233" flag="0"/>
      <vel value="0.0271277246" flag="0"/>
      <psa03 value="0.1665781233" flag="0"/>
      <psa10 value="0.0490126088" flag="0"/>
      <psa30 value="0.0034276235" flag="0"/>
    </comp>
    <comp name="--.HHZ">
      <acc value="0.0158329495" flag="0"/>
      <vel value="0.0078367593" flag="0"/>
      <psa03 value="0.0545689346" flag="0"/>
      <psa10 value="0.0084298021" flag="0"/>
      <psa30 value="0.0013213281" flag="0"/>
    </comp>
  </station>
  <station code="SAP3" name="SAP3" netid="HL" insttype="65535" lat="36.4356" lon="25.3454">
    <comp name="--.HHE">
      <acc value="0.1405921921" flag="0"/>
      <vel value="0.0613339964" flag="0"/>
      <psa03 value="0.2720485173" flag="0"/>
      <psa10 value="0.0710608166" flag="0"/>
      <psa30 value="0.0133381487" flag="0"/>
    </comp>
    <comp name="--.HHN">
      <acc value="0.2179413611" flag="0"/>
      <vel value="0.0684125246" flag="0"/>
      <psa03 value="0.3706494843" flag="0"/>
      <psa10 value="0.0506613793" flag="0"/>
      <psa30 value="0.0086198969" flag="0"/>
    </comp>
    <comp name="--.HHZ">
      <acc value="0.1603841422" flag="0"/>
      <vel value="0.0439262347" flag="0"/>
      <psa03 value="0.1898452407" flag="0"/>
      <psa10 value="0.0323439388" flag="0"/>
      <psa30 value="0.0027774814" flag="0"/>
    </comp>
  </station>
  <station code="SMG" name="SMG" netid="HL" insttype="120" lat="37.7043" lon="26.8377">
    <comp name="--.HHE">
      <acc value="0.0155125952" flag="0"/>
      <vel value="0.0081544857" flag="0"/>
      <psa03 value="0.0575229202" flag="0"/>
      <psa10 value="0.0074417515" flag="0"/>
      <psa30 value="0.0014571479" flag="0"/>
    </comp>
    <comp name="--.HHZ">
      <acc value="0.0105016829" flag="0"/>
      <vel value="0.0041507300" flag="0"/>
      <psa03 value="0.0194505976" flag="0"/>
      <psa10 value="0.0023355126" flag="0"/>
      <psa30 value="0.0006532868" flag="0"/>
    </comp>
    <comp name="--.HHN">
      <acc value="0.0174389763" flag="0"/>
      <vel value="0.0079651011" flag="0"/>
      <psa03 value="0.0458011145" flag="0"/>
      <psa10 value="0.0051449501" flag="0"/>
      <psa30 value="0.0007693430" flag="0"/>
    </comp>
  </station>
  <station code="THERA" name="THERA" netid="HL" insttype="120" lat="36.367" lon="25.4753">
    <comp name="--.HHZ">
      <acc value="0.0993686329" flag="0"/>
      <vel value="0.0318744248" flag="0"/>
      <psa03 value="0.1172676501" flag="0"/>
      <psa10 value="0.0108614855" flag="0"/>
      <psa30 value="0.0027219838" flag="0"/>
    </comp>
    <comp name="--.HHE">
      <acc value="0.1378002383" flag="0"/>
      <vel value="0.0380694325" flag="0"/>
      <psa03 value="0.0854576058" flag="0"/>
      <psa10 value="0.0264897054" flag="0"/>
      <psa30 value="0.0029464408" flag="0"/>
    </comp>
    <comp name="--.HHN">
      <acc value="0.1856321826" flag="0"/>
      <vel value="0.0597624915" flag="0"/>
      <psa03 value="0.2527014530" flag="0"/>
      <psa10 value="0.0383578661" flag="0"/>
      <psa30 value="0.0030279372" flag="0"/>
    </comp>
  </station>
  <station code="THRA" name="THRA" netid="HL" insttype="CMG-5" lat="36.415" lon="25.4324">
    <comp name="00.HNN">
      <acc value="0.3060047074" flag="0"/>
      <vel value="0.1684468389" flag="0"/>
      <psa03 value="0.6071567133" flag="0"/>
      <psa10 value="0.2580845959" flag="0"/>
      <psa30 value="0.0120944094" flag="0"/>
    </comp>
    <comp name="00.HNZ">
      <acc value="0.2474802228" flag="0"/>
      <vel value="0.0837099737" flag="0"/>
      <psa03 value="0.5539084370" flag="0"/>
      <psa10 value="0.0636215765" flag="0"/>
      <psa30 value="0.0044251364" flag="0"/>
    </comp>
    <comp name="00.HNE">
      <acc value="0.2966617930" flag="0"/>
      <vel value="0.1109766564" flag="0"/>
      <psa03 value="0.7024558615" flag="0"/>
      <psa10 value="0.1373527731" flag="0"/>
      <psa30 value="0.0127072538" flag="0"/>
    </comp>
  </station>
  <station code="TNSA" name="TNSA" netid="HL" insttype="CMG-5" lat="37.5394" lon="25.1631">
    <comp name="00.HNE">
      <acc value="0.0484448967" flag="0"/>
      <vel value="0.0197045923" flag="0"/>
      <psa03 value="0.0759445555" flag="0"/>
      <psa10 value="0.0123811702" flag="0"/>
      <psa30 value="0.0013306908" flag="0"/>
    </comp>
    <comp name="00.HNZ">
      <acc value="0.0434799164" flag="0"/>
      <vel value="0.0234479394" flag="0"/>
      <psa03 value="0.1289327926" flag="0"/>
      <psa10 value="0.0215112701" flag="0"/>
      <psa30 value="0.0030188226" flag="0"/>
    </comp>
    <comp name="00.HNN">
      <acc value="0.0967835192" flag="0"/>
      <vel value="0.0315831414" flag="0"/>
      <psa03 value="0.1002385007" flag="0"/>
      <psa10 value="0.0121799183" flag="0"/>
      <psa30 value="0.0014177699" flag="0"/>
    </comp>
  </station>
  <station code="AKRO" name="AKRO" netid="HT" insttype="Compact," lat="36.3584" lon="25.3967">
    <comp name="--.HHE">
      <acc value="0.5433328601" flag="0"/>
      <vel value="0.1548703891" flag="0"/>
      <psa03 value="0.6180208595" flag="0"/>
      <psa10 value="0.0719181409" flag="0"/>
      <psa30 value="0.0044824165" flag="0"/>
    </comp>
    <comp name="--.HHN">
      <acc value="0.4018162640" flag="0"/>
      <vel value="0.0981553031" flag="0"/>
      <psa03 value="0.3607569067" flag="0"/>
      <psa10 value="0.1054109255" flag="0"/>
      <psa30 value="0.0058664597" flag="0"/>
    </comp>
    <comp name="--.HHZ">
      <acc value="0.3559013426" flag="0"/>
      <vel value="0.0784636555" flag="0"/>
      <psa03 value="0.2469306334" flag="0"/>
      <psa10 value="0.0486722605" flag="0"/>
      <psa30 value="0.0031136262" flag="0"/>
    </comp>
  </station>
  <station code="CMBO" name="CMBO" netid="HT" insttype="120P," lat="36.4709" lon="25.4056">
    <comp name="--.HHE">
      <acc value="0.2159542216" flag="0"/>
      <vel value="0.0648963889" flag="0"/>
      <psa03 value="0.2614493838" flag="0"/>
      <psa10 value="0.0711214320" flag="0"/>
      <psa30 value="0.0076878055" flag="0"/>
    </comp>
    <comp name="--.HHZ">
      <acc value="0.1832778494" flag="0"/>
      <vel value="0.0658865740" flag="0"/>
      <psa03 value="0.3054861589" flag="0"/>
      <psa10 value="0.0279600774" flag="0"/>
      <psa30 value="0.0042394264" flag="0"/>
    </comp>
    <comp name="--.HHN">
      <acc value="0.2112588083" flag="0"/>
      <vel value="0.0806559606" flag="0"/>
      <psa03 value="0.3665742410" flag="0"/>
      <psa10 value="0.0657798093" flag="0"/>
      <psa30 value="0.0042690982" flag="0"/>
    </comp>
  </station>
</stationlist>
