<?xml version="1.0" encoding="UTF-8" standalone="yes"?>
<!DOCTYPE earthquake SYSTEM "stationlist.dtd">
<stationlist created="" xmlns="ch.ethz.sed.shakemap.usgs.xml">
  <station code="APE" name="APE" netid="GE" insttype="STS-2/N" lat="37.0727" lon="25.523">
    <comp name="--.HHE">
      <acc value="0.1845354049" flag="0"/>
      <vel value="0.0502955904" flag="0"/>
      <psa03 value="0.3212633804" flag="0"/>
      <psa10 value="0.0170770085" flag="0"/>
      <psa30 value="0.0031532167" flag="0"/>
    </comp>
    <comp name="--.HHZ">
      <acc value="0.0979002120" flag="0"/>
      <vel value="0.0219739031" flag="0"/>
      <psa03 value="0.1336330706" flag="0"/>
      <psa10 value="0.0153749209" flag="0"/>
      <psa30 value="0.0026080917" flag="0"/>
    </comp>
    <comp name="--.HHN">
      <acc value="0.1657301170" flag="0"/>
      <vel value="0.0437035964" flag="0"/>
      <psa03 value="0.2115520017" flag="0"/>
      <psa10 value="0.0147995555" flag="0"/>
      <psa30 value="0.0040389895" flag="0"/>
    </comp>
  </station>
  <station code="THERA" name="THERA" netid="GE" insttype="STS-2/N" lat="36.367" lon="25.4753">
    <comp name="--.HHZ">
      <acc value="0.1010440258" flag="0"/>
      <vel value="0.0325108801" flag="0"/>
      <psa03 value="0.1210737095" flag="0"/>
      <psa10 value="0.0109386582" flag="0"/>
      <psa30 value="0.0027212460" flag="0"/>
    </comp>
    <comp name="--.HHE">
      <acc value="0.1367420997" flag="0"/>
      <vel value="0.0386142285" flag="0"/>
      <psa03 value="0.0874585536" flag="0"/>
      <psa10 value="0.0266588257" flag="0"/>
      <psa30 value="0.0029477236" flag="0"/>
    </comp>
    <comp name="--.HHN">
      <acc value="0.0956814405" flag="0"/>
      <vel value="0.0305289698" flag="0"/>
      <psa03 value="0.1294095006" flag="0"/>
      <psa10 value="0.0193218883" flag="0"/>
      <psa30 value="0.0015311696" flag="0"/>
    </comp>
  </station>
</stationlist>
