<stationlist created="1778118952">
	<station code="KTHA" name="KTHA" netid="GE" source="GEOFON" insttype="" lat="36.2566" lon="23.0621">
		<comp name="--.HNE" depth="0.0">
			<acc value="0.00366615009310839" flag="0"/>
			<vel value="0.00429348642338611" flag="0"/>
			<psa03 value="0.00815396789470962" flag="0"/>
			<psa10 value="0.00503415301916139" flag="0"/>
			<psa30 value="0.00129032974884708" flag="0"/>
		</comp>
		<comp name="--.HNN" depth="0.0">
			<acc value="0.00215666192458608" flag="0"/>
			<vel value="0.00628975647884548" flag="0"/>
			<psa03 value="0.0049164487374568" flag="0"/>
			<psa10 value="0.00415579420723992" flag="0"/>
			<psa30 value="0.00214968573946163" flag="0"/>
		</comp>
		<comp name="--.HNZ" depth="0.0">
			<acc value="0.00206966576590199" flag="0"/>
			<vel value="0.00570140887873735" flag="0"/>
			<psa03 value="0.00374303669479184" flag="0"/>
			<psa10 value="0.00353121775396955" flag="0"/>
			<psa30 value="0.00142617697722373" flag="0"/>
		</comp>
	</station>
	<station code="AIGS" name="AIGS" netid="HA" source="Hellenic Seismological Network, University of Athens, Seismological Laboratory (HA)" insttype="" lat="38.25001" lon="22.0878">
		<comp name="--.HNE" depth="0.0">
			<acc value="0.00704664034113548" flag="0"/>
			<vel value="0.00300927485476931" flag="0"/>
			<psa03 value="0.0136133614537961" flag="0"/>
			<psa10 value="0.00346768479522509" flag="0"/>
			<psa30 value="0.000928560887601989" flag="0"/>
		</comp>
		<comp name="--.HNN" depth="0.0">
			<acc value="0.00667140419921086" flag="0"/>
			<vel value="0.00349460173346515" flag="0"/>
			<psa03 value="0.0178670677201322" flag="0"/>
			<psa10 value="0.00267871268594519" flag="0"/>
			<psa30 value="0.000771982285870138" flag="0"/>
		</comp>
		<comp name="--.HNZ" depth="0.0">
			<acc value="0.0101363384307266" flag="0"/>
			<vel value="0.00234444450790965" flag="0"/>
			<psa03 value="0.0145348639050688" flag="0"/>
			<psa10 value="0.00360576073895288" flag="0"/>
			<psa30 value="0.000627213685245104" flag="0"/>
		</comp>
	</station>
	<station code="CORS" name="CORS" netid="HA" source="Hellenic Seismological Network, University of Athens, Seismological Laboratory (HA)" insttype="" lat="38.2562" lon="22.0748">
		<comp name="00.HNE" depth="0.0">
			<acc value="0.011591542359587" flag="0"/>
			<vel value="0.00386739967239743" flag="0"/>
			<psa03 value="0.0114697233545437" flag="0"/>
			<psa10 value="0.00828377094665763" flag="0"/>
			<psa30 value="0.000533336737193357" flag="0"/>
		</comp>
		<comp name="00.HNN" depth="0.0">
			<acc value="0.00853677967840856" flag="0"/>
			<vel value="0.00356398356798673" flag="0"/>
			<psa03 value="0.0124821302652825" flag="0"/>
			<psa10 value="0.0057093824373062" flag="0"/>
			<psa30 value="0.000514138486236612" flag="0"/>
		</comp>
		<comp name="00.HNZ" depth="0.0">
			<acc value="0.019644110446198" flag="0"/>
			<vel value="0.00300793868500614" flag="0"/>
			<psa03 value="0.00914738135972769" flag="0"/>
			<psa10 value="0.00346968484959156" flag="0"/>
			<psa30 value="0.000257925862364337" flag="0"/>
		</comp>
	</station>
	<station code="DRES" name="DRES" netid="HA" source="Hellenic Seismological Network, University of Athens, Seismological Laboratory (HA)" insttype="" lat="38.319719" lon="21.853176">
		<comp name="--.HNE" depth="0.0">
			<acc value="0.00395742566349062" flag="0"/>
			<vel value="0.00298268866696175" flag="0"/>
			<psa03 value="0.00895067171410851" flag="0"/>
			<psa10 value="0.00651170918127637" flag="0"/>
			<psa30 value="0.000612710484893893" flag="0"/>
		</comp>
		<comp name="--.HNN" depth="0.0">
			<acc value="0.00443787164079603" flag="0"/>
			<vel value="0.00303473752495628" flag="0"/>
			<psa03 value="0.00873552530024752" flag="0"/>
			<psa10 value="0.00326327094131017" flag="0"/>
			<psa30 value="0.000723800135706494" flag="0"/>
		</comp>
		<comp name="--.HNZ" depth="0.0">
			<acc value="0.00819573042449572" flag="0"/>
			<vel value="0.0019696976533892" flag="0"/>
			<psa03 value="0.00653014548070934" flag="0"/>
			<psa10 value="0.00450586442890499" flag="0"/>
			<psa30 value="0.000727831340255141" flag="0"/>
		</comp>
	</station>
	<station code="KIAS" name="KIAS" netid="HA" source="Hellenic Seismological Network, University of Athens, Seismological Laboratory (HA)" insttype="" lat="37.9875" lon="22.7543">
		<comp name="--.HNE" depth="0.0">
			<acc value="0.0277259792498318" flag="0"/>
			<vel value="0.0131236712302427" flag="0"/>
			<psa03 value="0.0737973991323526" flag="0"/>
			<psa10 value="0.0210174198009113" flag="0"/>
			<psa30 value="0.00279563436372476" flag="0"/>
		</comp>
		<comp name="--.HNN" depth="0.0">
			<acc value="0.0286130088538712" flag="0"/>
			<vel value="0.0116143250217916" flag="0"/>
			<psa03 value="0.0556996689964888" flag="0"/>
			<psa10 value="0.0192229709274906" flag="0"/>
			<psa30 value="0.00231071890711848" flag="0"/>
		</comp>
		<comp name="--.HNZ" depth="0.0">
			<acc value="0.0152034385583333" flag="0"/>
			<vel value="0.0123621907119491" flag="0"/>
			<psa03 value="0.0416109622512163" flag="0"/>
			<psa10 value="0.0136105244429521" flag="0"/>
			<psa30 value="0.00169134756430664" flag="0"/>
		</comp>
	</station>
	<station code="LTRS" name="LTRS" netid="HA" source="Hellenic Seismological Network, University of Athens, Seismological Laboratory (HA)" insttype="" lat="37.97528" lon="22.9765">
		<comp name="--.HNE" depth="0.0">
			<acc value="0.0796468121646743" flag="0"/>
			<vel value="0.049175620190857" flag="0"/>
			<psa03 value="0.215281115483799" flag="0"/>
			<psa10 value="0.0489756681477779" flag="0"/>
			<psa30 value="0.00286537106677246" flag="0"/>
		</comp>
		<comp name="--.HNN" depth="0.0">
			<acc value="0.058856843279113" flag="0"/>
			<vel value="0.0344575158224348" flag="0"/>
			<psa03 value="0.221692040176108" flag="0"/>
			<psa10 value="0.0308485610657641" flag="0"/>
			<psa30 value="0.00190373986342457" flag="0"/>
		</comp>
		<comp name="--.HNZ" depth="0.0">
			<acc value="0.0364660318585547" flag="0"/>
			<vel value="0.0208824865164949" flag="0"/>
			<psa03 value="0.116428952430108" flag="0"/>
			<psa10 value="0.0280276579447871" flag="0"/>
			<psa30 value="0.00175555754707304" flag="0"/>
		</comp>
	</station>
	<station code="ABEA" name="ABEA" netid="HC" source="Seismological Network of Crete (HC)" insttype="" lat="35.5163" lon="24.0113">
		<comp name="--.HNE" depth="0.0">
			<acc value="0.00186259757932995" flag="0"/>
			<vel value="0.0027074225400262" flag="0"/>
			<psa03 value="0.0038916064326398" flag="0"/>
			<psa10 value="0.00307361759645506" flag="0"/>
			<psa30 value="0.000937537940622715" flag="0"/>
		</comp>
		<comp name="--.HNN" depth="0.0">
			<acc value="0.00278093308313247" flag="0"/>
			<vel value="0.00307857283318486" flag="0"/>
			<psa03 value="0.00432757671978143" flag="0"/>
			<psa10 value="0.00382608220916981" flag="0"/>
			<psa30 value="0.00127272431173911" flag="0"/>
		</comp>
		<comp name="--.HNZ" depth="0.0">
			<acc value="0.00295446590639297" flag="0"/>
			<vel value="0.00247872863737043" flag="0"/>
			<psa03 value="0.00284214303063303" flag="0"/>
			<psa10 value="0.00268075891524471" flag="0"/>
			<psa30 value="0.000892452766449544" flag="0"/>
		</comp>
	</station>
	<station code="ATEI" name="ATEI" netid="HC" source="Seismological Network of Crete (HC)" insttype="" lat="35.5193" lon="24.0432">
		<comp name="--.HNE" depth="0.0">
			<acc value="0.00204133896399377" flag="0"/>
			<vel value="0.00157268750567861" flag="0"/>
			<psa03 value="0.00551203311389366" flag="0"/>
			<psa10 value="0.0017191250164093" flag="0"/>
			<psa30 value="0.00110710594450215" flag="0"/>
		</comp>
		<comp name="--.HNN" depth="0.0">
			<acc value="0.00180143338451101" flag="0"/>
			<vel value="0.00159427171490796" flag="0"/>
			<psa03 value="0.00383519612021455" flag="0"/>
			<psa10 value="0.00187442163217084" flag="0"/>
			<psa30 value="0.00099584909511484" flag="0"/>
		</comp>
		<comp name="--.HNZ" depth="0.0">
			<acc value="0.00242582337477503" flag="0"/>
			<vel value="0.00151633957671932" flag="0"/>
			<psa03 value="0.00372468814856191" flag="0"/>
			<psa10 value="0.00155909675907015" flag="0"/>
			<psa30 value="0.000832001261833939" flag="0"/>
		</comp>
	</station>
	<station code="DEYA" name="DEYA" netid="HC" source="Seismological Network of Crete (HC)" insttype="" lat="35.4825" lon="24.014">
		<comp name="--.HNE" depth="0.0">
			<acc value="0.00296914215141882" flag="0"/>
			<vel value="0.00404154801508348" flag="0"/>
			<psa03 value="0.00725607117388886" flag="0"/>
			<psa10 value="0.00908091062824432" flag="0"/>
			<psa30 value="0.0011360185889889" flag="0"/>
		</comp>
		<comp name="--.HNN" depth="0.0">
			<acc value="0.00289653579910685" flag="0"/>
			<vel value="0.00232925438458344" flag="0"/>
			<psa03 value="0.00774505799396615" flag="0"/>
			<psa10 value="0.00373567801720942" flag="0"/>
			<psa30 value="0.00102674009982775" flag="0"/>
		</comp>
		<comp name="--.HNZ" depth="0.0">
			<acc value="0.00750033969174854" flag="0"/>
			<vel value="0.00660504938563647" flag="0"/>
			<psa03 value="0.00782316017305834" flag="0"/>
			<psa10 value="0.00815089870702092" flag="0"/>
			<psa30 value="0.0056896039916867" flag="0"/>
		</comp>
	</station>
	<station code="G0LD" name="G0LD" netid="HC" source="Seismological Network of Crete (HC)" insttype="" lat="35.4955" lon="24.0306">
		<comp name="--.HNE" depth="0.0">
			<acc value="0.00469915514009167" flag="0"/>
			<vel value="0.00417708193160291" flag="0"/>
			<psa03 value="0.00821378240404191" flag="0"/>
			<psa10 value="0.0072026788608823" flag="0"/>
			<psa30 value="0.00138965570370319" flag="0"/>
		</comp>
		<comp name="--.HNN" depth="0.0">
			<acc value="0.00460772881795727" flag="0"/>
			<vel value="0.00396157547739224" flag="0"/>
			<psa03 value="0.00700709634720982" flag="0"/>
			<psa10 value="0.00759366898082092" flag="0"/>
			<psa30 value="0.00100376545286688" flag="0"/>
		</comp>
		<comp name="--.HNZ" depth="0.0">
			<acc value="0.00375337301596067" flag="0"/>
			<vel value="0.00349504640870669" flag="0"/>
			<psa03 value="0.0051600247690402" flag="0"/>
			<psa10 value="0.00449396067157802" flag="0"/>
			<psa30 value="0.00186824605379807" flag="0"/>
		</comp>
	</station>
	<station code="MULT" name="MULT" netid="HC" source="Seismological Network of Crete (HC)" insttype="" lat="35.5091" lon="24.0118">
		<comp name="--.HNE" depth="0.0">
			<acc value="0.0150221447152138" flag="0"/>
			<vel value="0.00619270211841922" flag="0"/>
			<psa03 value="0.0141102797888667" flag="0"/>
			<psa10 value="0.00674158019036975" flag="0"/>
			<psa30 value="0.00333452381250203" flag="0"/>
		</comp>
		<comp name="--.HNN" depth="0.0">
			<acc value="0.0305115713076275" flag="0"/>
			<vel value="0.0135719027643975" flag="0"/>
			<psa03 value="0.0241051020530345" flag="0"/>
			<psa10 value="0.0204885860182857" flag="0"/>
			<psa30 value="0.00910697579247022" flag="0"/>
		</comp>
		<comp name="--.HNZ" depth="0.0">
			<acc value="0.0277673446923253" flag="0"/>
			<vel value="0.0114932233741686" flag="0"/>
			<psa03 value="0.0185931991560983" flag="0"/>
			<psa10 value="0.0102806066647443" flag="0"/>
			<psa30 value="0.00563304607831462" flag="0"/>
		</comp>
	</station>
	<station code="NERO" name="NERO" netid="HC" source="Seismological Network of Crete (HC)" insttype="" lat="35.474" lon="24.0423">
		<comp name="--.HNE" depth="0.0">
			<acc value="0.00146011188193816" flag="0"/>
			<vel value="0.0013643650050859" flag="0"/>
			<psa03 value="0.00225683098183913" flag="0"/>
			<psa10 value="0.00192658993181663" flag="0"/>
			<psa30 value="0.000717639310913492" flag="0"/>
		</comp>
		<comp name="--.HNN" depth="0.0">
			<acc value="0.00270031856826072" flag="0"/>
			<vel value="0.00173336695967972" flag="0"/>
			<psa03 value="0.00314519240304216" flag="0"/>
			<psa10 value="0.00314946473033055" flag="0"/>
			<psa30 value="0.00124678769773406" flag="0"/>
		</comp>
		<comp name="--.HNZ" depth="0.0">
			<acc value="0.00152164530251624" flag="0"/>
			<vel value="0.00135604168509259" flag="0"/>
			<psa03 value="0.00186607479016995" flag="0"/>
			<psa10 value="0.00155958968234929" flag="0"/>
			<psa30 value="0.000863880977873468" flag="0"/>
		</comp>
	</station>
	<station code="PASK" name="PASK" netid="HC" source="Seismological Network of Crete (HC)" insttype="" lat="35.4996" lon="24.0121">
		<comp name="--.HNE" depth="0.0">
			<acc value="0.00342614903516083" flag="0"/>
			<vel value="0.00399830181123956" flag="0"/>
			<psa03 value="0.00611910913697746" flag="0"/>
			<psa10 value="0.0033323988019394" flag="0"/>
			<psa30 value="0.000954246339136258" flag="0"/>
		</comp>
		<comp name="--.HNN" depth="0.0">
			<acc value="0.00445203517101006" flag="0"/>
			<vel value="0.00410027567330559" flag="0"/>
			<psa03 value="0.00553935393418897" flag="0"/>
			<psa10 value="0.00351820298555453" flag="0"/>
			<psa30 value="0.00134641961035819" flag="0"/>
		</comp>
		<comp name="--.HNZ" depth="0.0">
			<acc value="0.00896422882259678" flag="0"/>
			<vel value="0.00302805904303276" flag="0"/>
			<psa03 value="0.00429873008227302" flag="0"/>
			<psa10 value="0.00208598685826536" flag="0"/>
			<psa30 value="0.00100322250023438" flag="0"/>
		</comp>
	</station>
	<station code="POLY" name="POLY" netid="HC" source="Seismological Network of Crete (HC)" insttype="" lat="35.5226" lon="24.0602">
		<comp name="--.HNE" depth="0.0">
			<acc value="0.00159593477638848" flag="0"/>
			<vel value="0.00238773296023708" flag="0"/>
			<psa03 value="0.00315724170385007" flag="0"/>
			<psa10 value="0.00179294057038997" flag="0"/>
			<psa30 value="0.00125488583836024" flag="0"/>
		</comp>
		<comp name="--.HNN" depth="0.0">
			<acc value="0.00155424179242839" flag="0"/>
			<vel value="0.00186103407398036" flag="0"/>
			<psa03 value="0.00280335823476798" flag="0"/>
			<psa10 value="0.00236006017052948" flag="0"/>
			<psa30 value="0.00109953513047178" flag="0"/>
		</comp>
		<comp name="--.HNZ" depth="0.0">
			<acc value="0.00146125461062073" flag="0"/>
			<vel value="0.00162963084325661" flag="0"/>
			<psa03 value="0.00283316522235491" flag="0"/>
			<psa10 value="0.00143118328543022" flag="0"/>
			<psa30 value="0.000861775161292868" flag="0"/>
		</comp>
	</station>
	<station code="SOUD" name="SOUD" netid="HC" source="Seismological Network of Crete (HC)" insttype="" lat="35.4878" lon="24.0678">
		<comp name="--.HNE" depth="0.0">
			<acc value="0.00621774000192404" flag="0"/>
			<vel value="0.00372589823077916" flag="0"/>
			<psa03 value="0.00577238955391894" flag="0"/>
			<psa10 value="0.00402110356587839" flag="0"/>
			<psa30 value="0.00085241839562078" flag="0"/>
		</comp>
		<comp name="--.HNN" depth="0.0">
			<acc value="0.00936183220698987" flag="0"/>
			<vel value="0.00558009158565546" flag="0"/>
			<psa03 value="0.00548706075645393" flag="0"/>
			<psa10 value="0.00347016370944171" flag="0"/>
			<psa30 value="0.00112053245894375" flag="0"/>
		</comp>
		<comp name="--.HNZ" depth="0.0">
			<acc value="0.00670989434973445" flag="0"/>
			<vel value="0.00852650462415654" flag="0"/>
			<psa03 value="0.00874801310666649" flag="0"/>
			<psa10 value="0.00693519239119409" flag="0"/>
			<psa30 value="0.00375386742529397" flag="0"/>
		</comp>
	</station>
	<station code="ART2" name="ART2" netid="HI" source="ITSAK Strong Motion Network" insttype="" lat="39.1474" lon="20.9937">
		<comp name="--.HNE" depth="0.0">
			<acc value="0.00295443903517741" flag="0"/>
			<vel value="0.000462462519324332" flag="0"/>
			<psa03 value="0.000876237571176531" flag="0"/>
			<psa10 value="0.000467275476191344" flag="0"/>
			<psa30 value="0.000174811202780266" flag="0"/>
		</comp>
		<comp name="--.HNN" depth="0.0">
			<acc value="0.00400866696371999" flag="0"/>
			<vel value="0.000580287034183772" flag="0"/>
			<psa03 value="0.00104958189944124" flag="0"/>
			<psa10 value="0.000566960507568529" flag="0"/>
			<psa30 value="0.000233523751052573" flag="0"/>
		</comp>
		<comp name="--.HNZ" depth="0.0">
			<acc value="0.00160840693534697" flag="0"/>
			<vel value="0.000431003800481723" flag="0"/>
			<psa03 value="0.000701058567342661" flag="0"/>
			<psa10 value="0.000518087152762015" flag="0"/>
			<psa30 value="0.000160570324496096" flag="0"/>
		</comp>
	</station>
	<station code="ATH5" name="ATH5" netid="HI" source="ITSAK Strong Motion Network" insttype="" lat="37.975421" lon="23.737098">
		<comp name="--.HNE" depth="0.0">
			<acc value="0.0568279819352109" flag="0"/>
			<vel value="0.0223307305062476" flag="0"/>
			<psa03 value="0.0793551891835606" flag="0"/>
			<psa10 value="0.0164951452223978" flag="0"/>
			<psa30 value="0.00167031617108273" flag="0"/>
		</comp>
		<comp name="--.HNN" depth="0.0">
			<acc value="0.0642781001617901" flag="0"/>
			<vel value="0.0224512055784336" flag="0"/>
			<psa03 value="0.055733738961787" flag="0"/>
			<psa10 value="0.018304701971674" flag="0"/>
			<psa30 value="0.00171737324671636" flag="0"/>
		</comp>
		<comp name="--.HNZ" depth="0.0">
			<acc value="0.0271099076369138" flag="0"/>
			<vel value="0.0109145516763775" flag="0"/>
			<psa03 value="0.0314692200980743" flag="0"/>
			<psa10 value="0.0154649482269408" flag="0"/>
			<psa30 value="0.000936851332634871" flag="0"/>
		</comp>
	</station>
	<station code="CH01" name="CH01" netid="HI" source="ITSAK Strong Motion Network" insttype="" lat="35.517" lon="24.0208">
		<comp name="--.HNE" depth="0.0">
			<acc value="0.00604288712364603" flag="0"/>
			<vel value="0.00172325595424982" flag="0"/>
			<psa03 value="0.00347452020897543" flag="0"/>
			<psa10 value="0.00223313699686562" flag="0"/>
			<psa30 value="0.000558224115026288" flag="0"/>
		</comp>
		<comp name="--.HNN" depth="0.0">
			<acc value="0.0041233853990096" flag="0"/>
			<vel value="0.00132116800929577" flag="0"/>
			<psa03 value="0.00292000333172316" flag="0"/>
			<psa10 value="0.00218787946752697" flag="0"/>
			<psa30 value="0.000601074818256056" flag="0"/>
		</comp>
		<comp name="--.HNZ" depth="0.0">
			<acc value="0.0107401992580832" flag="0"/>
			<vel value="0.00111665542850558" flag="0"/>
			<psa03 value="0.00238620820479309" flag="0"/>
			<psa10 value="0.0018338363264073" flag="0"/>
			<psa30 value="0.000420811079793635" flag="0"/>
		</comp>
	</station>
	<station code="DRA2" name="DRA2" netid="HI" source="ITSAK Strong Motion Network" insttype="" lat="41.1593" lon="24.1485">
		<comp name="--.HNE" depth="0.0">
			<acc value="0.00577447103056236" flag="0"/>
			<vel value="0.000603953211446864" flag="0"/>
			<psa03 value="0.00120057285888316" flag="0"/>
			<psa10 value="0.000909667292245476" flag="0"/>
			<psa30 value="9.50460489385752e-05" flag="0"/>
		</comp>
		<comp name="--.HNN" depth="0.0">
			<acc value="0.00400890205801795" flag="0"/>
			<vel value="0.000641243696376289" flag="0"/>
			<psa03 value="0.0014924287814481" flag="0"/>
			<psa10 value="0.000603949676670438" flag="0"/>
			<psa30 value="0.000101524531491323" flag="0"/>
		</comp>
		<comp name="--.HNZ" depth="0.0">
			<acc value="0.0132099882722989" flag="0"/>
			<vel value="0.00154255665922754" flag="0"/>
			<psa03 value="0.000812518587739038" flag="0"/>
			<psa10 value="0.000481694624747733" flag="0"/>
			<psa30 value="7.79396357745029e-05" flag="0"/>
		</comp>
	</station>
	<station code="SKY1" name="SKY1" netid="HI" source="ITSAK Strong Motion Network" insttype="" lat="38.904483" lon="24.564572">
		<comp name="--.HNE" depth="0.0">
			<acc value="0.0849435994384637" flag="0"/>
			<vel value="0.0323924466755879" flag="0"/>
			<psa03 value="0.157999612532188" flag="0"/>
			<psa10 value="0.016669319885638" flag="0"/>
			<psa30 value="0.0016556997861522" flag="0"/>
		</comp>
		<comp name="--.HNN" depth="0.0">
			<acc value="0.0629822737958047" flag="0"/>
			<vel value="0.0320602252605189" flag="0"/>
			<psa03 value="0.154584771732485" flag="0"/>
			<psa10 value="0.0120396841324955" flag="0"/>
			<psa30 value="0.000941855622477916" flag="0"/>
		</comp>
		<comp name="--.HNZ" depth="0.0">
			<acc value="0.0678204311831473" flag="0"/>
