<?xml version="1.0" encoding="UTF-8" standalone="yes"?>
<!DOCTYPE earthquake SYSTEM "stationlist.dtd">
<stationlist created="" xmlns="ch.ethz.sed.shakemap.usgs.xml">
  <station code="APE" name="APE" netid="GE" insttype="STS-2/N" lat="37.0727" lon="25.523">
    <comp name="--.HHE">
      <acc value="0.0450128506" flag="0"/>
      <vel value="0.0184259181" flag="0"/>
      <psa03 value="0.1347408249" flag="0"/>
      <psa10 value="0.0070061149" flag="0"/>
      <psa30 value="0.0005792792" flag="0"/>
    </comp>
    <comp name="--.HHN">
      <acc value="0.0324998105" flag="0"/>
      <vel value="0.0135970963" flag="0"/>
      <psa03 value="0.1244426756" flag="0"/>
      <psa10 value="0.0067048303" flag="0"/>
      <psa30 value="0.0006135207" flag="0"/>
    </comp>
    <comp name="--.HHZ">
      <acc value="0.0130712303" flag="0"/>
      <vel value="0.0050896899" flag="0"/>
      <psa03 value="0.0568554589" flag="0"/>
      <psa10 value="0.0041642942" flag="0"/>
      <psa30 value="0.0003184001" flag="0"/>
    </comp>
  </station>
  <station code="ACOR" name="ACOR" netid="HA" insttype="Horizon,120s,1200" lat="37.8905" lon="22.8694">
    <comp name="--.HHE">
      <acc value="0.0067523292" flag="0"/>
      <vel value="0.0044690431" flag="0"/>
      <psa03 value="0.0131417637" flag="0"/>
      <psa10 value="0.0095407828" flag="0"/>
      <psa30 value="0.0006290407" flag="0"/>
    </comp>
    <comp name="--.HHN">
      <acc value="0.0121454928" flag="0"/>
      <vel value="0.0076840746" flag="0"/>
      <psa03 value="0.0387758245" flag="0"/>
      <psa10 value="0.0148890454" flag="0"/>
      <psa30 value="0.0010774739" flag="0"/>
    </comp>
    <comp name="--.HHZ">
      <acc value="0.0074965929" flag="0"/>
      <vel value="0.0039581542" flag="0"/>
      <psa03 value="0.0111880041" flag="0"/>
      <psa10 value="0.0044005433" flag="0"/>
      <psa30 value="0.0005550858" flag="0"/>
    </comp>
  </station>
  <station code="AMPE" name="AMPE" netid="HA" insttype="1s-100Hz," lat="38.3015" lon="23.2688">
    <comp name="--.HHN">
      <acc value="0.0258565585" flag="0"/>
      <vel value="0.0153938109" flag="0"/>
      <psa03 value="0.0840590562" flag="0"/>
      <psa10 value="0.0161326761" flag="0"/>
      <psa30 value="0.0018068884" flag="0"/>
    </comp>
    <comp name="--.HHE">
      <acc value="0.0407383866" flag="0"/>
      <vel value="0.0177539848" flag="0"/>
      <psa03 value="0.1008864376" flag="0"/>
      <psa10 value="0.0160702351" flag="0"/>
      <psa30 value="0.0022215157" flag="0"/>
    </comp>
    <comp name="--.HHZ">
      <acc value="0.0147974541" flag="0"/>
      <vel value="0.0065093370" flag="0"/>
      <psa03 value="0.0203752221" flag="0"/>
      <psa10 value="0.0105885392" flag="0"/>
      <psa30 value="0.0006297197" flag="0"/>
    </comp>
  </station>
  <station code="ATAL" name="ATAL" netid="HA" insttype="120" lat="38.6926" lon="23.0213">
    <comp name="--.HHE">
      <acc value="0.0241337436" flag="0"/>
      <vel value="0.0128655045" flag="0"/>
      <psa03 value="0.0597711844" flag="0"/>
      <psa10 value="0.0206797249" flag="0"/>
      <psa30 value="0.0011266782" flag="0"/>
    </comp>
    <comp name="--.HHN">
      <acc value="0.0278732230" flag="0"/>
      <vel value="0.0169532065" flag="0"/>
      <psa03 value="0.0908123376" flag="0"/>
      <psa10 value="0.0250116959" flag="0"/>
      <psa30 value="0.0015543468" flag="0"/>
    </comp>
    <comp name="--.HHZ">
      <acc value="0.0092535195" flag="0"/>
      <vel value="0.0053518156" flag="0"/>
      <psa03 value="0.0142440201" flag="0"/>
      <psa10 value="0.0096329067" flag="0"/>
      <psa30 value="0.0004086435" flag="0"/>
    </comp>
  </station>
  <station code="ATHU" name="ATHU" netid="HA" insttype="60" lat="37.9665" lon="23.7845">
    <comp name="--.HHE">
      <acc value="0.0436346599" flag="0"/>
      <vel value="0.0096025150" flag="0"/>
      <psa03 value="0.0259769509" flag="0"/>
      <psa10 value="0.0111554413" flag="0"/>
      <psa30 value="0.0015279608" flag="0"/>
    </comp>
    <comp name="--.HHN">
      <acc value="0.0490148000" flag="0"/>
      <vel value="0.0118832913" flag="0"/>
      <psa03 value="0.0257567374" flag="0"/>
      <psa10 value="0.0149643126" flag="0"/>
      <psa30 value="0.0011212976" flag="0"/>
    </comp>
    <comp name="--.HHZ">
      <acc value="0.0405693524" flag="0"/>
      <vel value="0.0113957142" flag="0"/>
      <psa03 value="0.0294806470" flag="0"/>
      <psa10 value="0.0071511188" flag="0"/>
      <psa30 value="0.0007650552" flag="0"/>
    </comp>
  </station>
  <station code="AXAR" name="AXAR" netid="HA" insttype="Horizon,120s,1200" lat="38.7664" lon="22.659">
    <comp name="--.HHN">
      <acc value="0.0284530766" flag="0"/>
      <vel value="0.0187544903" flag="0"/>
      <psa03 value="0.1365834891" flag="0"/>
      <psa10 value="0.0195869938" flag="0"/>
      <psa30 value="0.0023995552" flag="0"/>
    </comp>
    <comp name="--.HHZ">
      <acc value="0.0124604487" flag="0"/>
      <vel value="0.0110969708" flag="0"/>
      <psa03 value="0.0464335385" flag="0"/>
      <psa10 value="0.0123178282" flag="0"/>
      <psa30 value="0.0011521316" flag="0"/>
    </comp>
    <comp name="--.HHE">
      <acc value="0.0319843869" flag="0"/>
      <vel value="0.0188343859" flag="0"/>
      <psa03 value="0.1560268084" flag="0"/>
      <psa10 value="0.0182241449" flag="0"/>
      <psa30 value="0.0030674444" flag="0"/>
    </comp>
  </station>
  <station code="DOMV" name="DOMV" netid="HA" insttype="60" lat="38.2569" lon="22.9795">
    <comp name="--.HHE">
      <acc value="0.0238585911" flag="0"/>
      <vel value="0.0047718969" flag="0"/>
      <psa03 value="0.0217231467" flag="0"/>
      <psa10 value="0.0030365179" flag="0"/>
      <psa30 value="0.0001952125" flag="0"/>
    </comp>
    <comp name="--.HHN">
      <acc value="0.0247039631" flag="0"/>
      <vel value="0.0056028297" flag="0"/>
      <psa03 value="0.0170059182" flag="0"/>
      <psa10 value="0.0045382112" flag="0"/>
      <psa30 value="0.0003088642" flag="0"/>
    </comp>
    <comp name="--.HHZ">
      <acc value="0.0225008886" flag="0"/>
      <vel value="0.0041290936" flag="0"/>
      <psa03 value="0.0129518354" flag="0"/>
      <psa10 value="0.0026201468" flag="0"/>
      <psa30 value="0.0003179406" flag="0"/>
    </comp>
  </station>
  <station code="EPID" name="EPID" netid="HA" insttype="30" lat="37.6144" lon="23.1189">
    <comp name="--.HHN">
      <acc value="0.0764864140" flag="0"/>
      <vel value="0.0464903895" flag="0"/>
      <psa03 value="0.1809138748" flag="0"/>
      <psa10 value="0.0239848981" flag="0"/>
      <psa30 value="0.0021718765" flag="0"/>
    </comp>
    <comp name="--.HHE">
      <acc value="0.0374857108" flag="0"/>
      <vel value="0.0154412033" flag="0"/>
      <psa03 value="0.0886431693" flag="0"/>
      <psa10 value="0.0210773107" flag="0"/>
      <psa30 value="0.0013096796" flag="0"/>
    </comp>
    <comp name="--.HHZ">
      <acc value="0.0207221084" flag="0"/>
      <vel value="0.0107831301" flag="0"/>
      <psa03 value="0.0362326709" flag="0"/>
      <psa10 value="0.0067216213" flag="0"/>
      <psa30 value="0.0009307543" flag="0"/>
    </comp>
  </station>
  <station code="ERTR" name="ERTR" netid="HA" insttype="Horizon,120s,1200" lat="38.4066" lon="23.7865">
    <comp name="--.HHE">
      <acc value="0.0404249277" flag="0"/>
      <vel value="0.0196372181" flag="0"/>
      <psa03 value="0.0436072926" flag="0"/>
      <psa10 value="0.0222175346" flag="0"/>
      <psa30 value="0.0018639682" flag="0"/>
    </comp>
    <comp name="--.HHZ">
      <acc value="0.0252989614" flag="0"/>
      <vel value="0.0100422359" flag="0"/>
      <psa03 value="0.0407442133" flag="0"/>
      <psa10 value="0.0111117621" flag="0"/>
      <psa30 value="0.0009190575" flag="0"/>
    </comp>
    <comp name="--.HHN">
      <acc value="0.0579145563" flag="0"/>
      <vel value="0.0321770136" flag="0"/>
      <psa03 value="0.0679884621" flag="0"/>
      <psa10 value="0.0410017367" flag="0"/>
      <psa30 value="0.0034736865" flag="0"/>
    </comp>
  </station>
  <station code="KARY" name="KARY" netid="HA" insttype="60" lat="38.0321" lon="24.437">
    <comp name="--.HHE">
      <acc value="0.9194679010" flag="0"/>
      <vel value="0.1669779939" flag="0"/>
      <psa03 value="0.6215829474" flag="0"/>
      <psa10 value="0.0295463800" flag="0"/>
      <psa30 value="0.0030798696" flag="0"/>
    </comp>
    <comp name="--.HHN">
      <acc value="1.2452818407" flag="0"/>
      <vel value="0.2555763820" flag="0"/>
      <psa03 value="0.6964106193" flag="0"/>
      <psa10 value="0.0401228741" flag="0"/>
      <psa30 value="0.0036761339" flag="0"/>
    </comp>
    <comp name="--.HHZ">
      <acc value="0.7538422203" flag="0"/>
      <vel value="0.1158689049" flag="0"/>
      <psa03 value="0.3670935375" flag="0"/>
      <psa10 value="0.0311142965" flag="0"/>
      <psa30 value="0.0031930819" flag="0"/>
    </comp>
  </station>
  <station code="LOUT" name="LOUT" netid="HA" insttype="30" lat="37.9879" lon="22.9743">
    <comp name="--.HHE">
      <acc value="0.0325721404" flag="0"/>
      <vel value="0.0151181040" flag="0"/>
      <psa03 value="0.0703852432" flag="0"/>
      <psa10 value="0.0317036320" flag="0"/>
      <psa30 value="0.0015858761" flag="0"/>
    </comp>
    <comp name="--.HHZ">
      <acc value="0.0314287528" flag="0"/>
      <vel value="0.0091759146" flag="0"/>
      <psa03 value="0.0415848045" flag="0"/>
      <psa10 value="0.0117251129" flag="0"/>
      <psa30 value="0.0009006933" flag="0"/>
    </comp>
    <comp name="--.HHN">
      <acc value="0.0489100504" flag="0"/>
      <vel value="0.0203346359" flag="0"/>
      <psa03 value="0.0582072978" flag="0"/>
      <psa10 value="0.0302182771" flag="0"/>
      <psa30 value="0.0012031494" flag="0"/>
    </comp>
  </station>
  <station code="MDRA" name="MDRA" netid="HA" insttype="60" lat="38.0606" lon="23.4662">
    <comp name="--.HHN">
      <acc value="0.0161217729" flag="0"/>
      <vel value="0.0050988361" flag="0"/>
      <psa03 value="0.0163522192" flag="0"/>
      <psa10 value="0.0040571241" flag="0"/>
      <psa30 value="0.0002980291" flag="0"/>
    </comp>
    <comp name="--.HHE">
      <acc value="0.0124751282" flag="0"/>
      <vel value="0.0029955938" flag="0"/>
      <psa03 value="0.0105884034" flag="0"/>
      <psa10 value="0.0018847990" flag="0"/>
      <psa30 value="0.0002857825" flag="0"/>
    </comp>
    <comp name="--.HHZ">
      <acc value="0.0131947462" flag="0"/>
      <vel value="0.0029574974" flag="0"/>
      <psa03 value="0.0130346949" flag="0"/>
      <psa10 value="0.0022840078" flag="0"/>
      <psa30 value="0.0003983579" flag="0"/>
    </comp>
  </station>
  <station code="MRTH" name="MRTH" netid="HA" insttype="S100," lat="38.1225" lon="23.9409">
    <comp name="--.HHZ">
      <acc value="0.3085445984" flag="0"/>
      <vel value="0.0919782857" flag="0"/>
      <psa03 value="0.4194293743" flag="0"/>
      <psa10 value="0.0225818475" flag="0"/>
      <psa30 value="0.0033641551" flag="0"/>
    </comp>
    <comp name="--.HHN">
      <acc value="0.3204567531" flag="0"/>
      <vel value="0.1024593305" flag="0"/>
      <psa03 value="0.5211492041" flag="0"/>
      <psa10 value="0.0534707914" flag="0"/>
      <psa30 value="0.0046049380" flag="0"/>
    </comp>
    <comp name="--.HHE">
      <acc value="0.2621127692" flag="0"/>
      <vel value="0.0886088444" flag="0"/>
      <psa03 value="0.2936791383" flag="0"/>
      <psa10 value="0.0375872576" flag="0"/>
      <psa30 value="0.0032796509" flag="0"/>
    </comp>
  </station>
  <station code="SERI" name="SERI" netid="HA" insttype="30" lat="37.1609" lon="24.4853">
    <comp name="--.HHN">
      <acc value="0.0306639963" flag="0"/>
      <vel value="0.0055348154" flag="0"/>
      <psa03 value="0.0330723487" flag="0"/>
      <psa10 value="0.0051823930" flag="0"/>
      <psa30 value="0.0006883316" flag="0"/>
    </comp>
    <comp name="--.HHE">
      <acc value="0.0300914664" flag="0"/>
      <vel value="0.0084639043" flag="0"/>
      <psa03 value="0.0299645706" flag="0"/>
      <psa10 value="0.0044794044" flag="0"/>
      <psa30 value="0.0006933923" flag="0"/>
    </comp>
    <comp name="--.HHZ">
      <acc value="0.0263761163" flag="0"/>
      <vel value="0.0043074027" flag="0"/>
      <psa03 value="0.0212504734" flag="0"/>
      <psa10 value="0.0027687970" flag="0"/>
      <psa30 value="0.0003122706" flag="0"/>
    </comp>
  </station>
  <station code="STFN" name="STFN" netid="HA" insttype="1s-100Hz," lat="38.1766" lon="23.544">
    <comp name="--.HHE">
      <acc value="0.0469026841" flag="0"/>
      <vel value="0.0155971166" flag="0"/>
      <psa03 value="0.0391496396" flag="0"/>
      <psa10 value="0.0169575010" flag="0"/>
      <psa30 value="0.0011405198" flag="0"/>
    </comp>
    <comp name="--.HHN">
      <acc value="0.0420374928" flag="0"/>
      <vel value="0.0142064900" flag="0"/>
      <psa03 value="0.0382187639" flag="0"/>
      <psa10 value="0.0147654154" flag="0"/>
      <psa30 value="0.0013697540" flag="0"/>
    </comp>
    <comp name="--.HHZ">
      <acc value="0.0314630945" flag="0"/>
      <vel value="0.0090232332" flag="0"/>
      <psa03 value="0.0309793676" flag="0"/>
      <psa10 value="0.0057936168" flag="0"/>
      <psa30 value="0.0010568363" flag="0"/>
    </comp>
  </station>
  <station code="THAL" name="THAL" netid="HA" insttype="30" lat="38.0357" lon="22.6634">
    <comp name="--.HHZ">
      <acc value="0.0226569184" flag="0"/>
      <vel value="0.0082321381" flag="0"/>
      <psa03 value="0.0375664134" flag="0"/>
      <psa10 value="0.0075477308" flag="0"/>
      <psa30 value="0.0006817168" flag="0"/>
    </comp>
    <comp name="--.HHN">
      <acc value="0.0375129472" flag="0"/>
      <vel value="0.0130216368" flag="0"/>
      <psa03 value="0.0869346486" flag="0"/>
      <psa10 value="0.0132736352" flag="0"/>
      <psa30 value="0.0009978706" flag="0"/>
    </comp>
    <comp name="--.HHE">
      <acc value="0.0354548992" flag="0"/>
      <vel value="0.0145159229" flag="0"/>
      <psa03 value="0.0803907405" flag="0"/>
      <psa10 value="0.0158497905" flag="0"/>
      <psa30 value="0.0012074860" flag="0"/>
    </comp>
  </station>
  <station code="THIV" name="THIV" netid="HA" insttype="25" lat="38.299" lon="23.332">
    <comp name="--.HHE">
      <acc value="0.0099934680" flag="0"/>
      <vel value="0.0042161996" flag="0"/>
      <psa03 value="0.0149772324" flag="0"/>
      <psa10 value="0.0040611912" flag="0"/>
      <psa30 value="0.0004663260" flag="0"/>
    </comp>
    <comp name="--.HHN">
      <acc value="0.0118954822" flag="0"/>
      <vel value="0.0054256636" flag="0"/>
      <psa03 value="0.0239541935" flag="0"/>
      <psa10 value="0.0070386517" flag="0"/>
      <psa30 value="0.0002877089" flag="0"/>
    </comp>
    <comp name="--.HHZ">
      <acc value="0.0104677640" flag="0"/>
      <vel value="0.0027553785" flag="0"/>
      <psa03 value="0.0151940993" flag="0"/>
      <psa10 value="0.0027941810" flag="0"/>
      <psa30 value="0.0003995529" flag="0"/>
    </comp>
  </station>
  <station code="VILL" name="VILL" netid="HA" insttype="Horizon,120s,1200" lat="38.1642" lon="23.3122">
    <comp name="--.HHE">
      <acc value="0.0440037442" flag="0"/>
      <vel value="0.0213914828" flag="0"/>
      <psa03 value="0.1392056689" flag="0"/>
      <psa10 value="0.0206101194" flag="0"/>
      <psa30 value="0.0014580682" flag="0"/>
    </comp>
    <comp name="--.HHN">
      <acc value="0.0419083407" flag="0"/>
      <vel value="0.0196972972" flag="0"/>
      <psa03 value="0.1104523327" flag="0"/>
      <psa10 value="0.0081164029" flag="0"/>
      <psa30 value="0.0007605910" flag="0"/>
    </comp>
    <comp name="--.HHZ">
      <acc value="0.0155036382" flag="0"/>
      <vel value="0.0080497340" flag="0"/>
      <psa03 value="0.0232702860" flag="0"/>
      <psa10 value="0.0065684867" flag="0"/>
      <psa30 value="0.0007945488" flag="0"/>
    </comp>
  </station>
  <station code="THNO" name="THNO" netid="HC" insttype="60" lat="37.6541" lon="25.0221">
    <comp name="--.HHE">
      <acc value="0.0000000000" flag="0"/>
      <vel value="-100.0000000000" flag="0"/>
      <psa03 value="0.0000000000" flag="0"/>
      <psa10 value="0.0000000000" flag="0"/>
      <psa30 value="0.0000000000" flag="0"/>
    </comp>
    <comp name="--.HHZ">
      <acc value="0.0910405448" flag="0"/>
      <vel value="0.0178780208" flag="0"/>
      <psa03 value="0.1164555119" flag="0"/>
      <psa10 value="0.0111096314" flag="0"/>
      <psa30 value="0.0008768459" flag="0"/>
    </comp>
    <comp name="--.HHN">
      <acc value="0.0000000000" flag="0"/>
      <vel value="-100.0000000000" flag="0"/>
      <psa03 value="0.0000000000" flag="0"/>
      <psa10 value="0.0000000000" flag="0"/>
      <psa30 value="0.0000000000" flag="0"/>
    </comp>
  </station>
  <station code="APE" name="APE" netid="HL" insttype="120" lat="37.0727" lon="25.523">
    <comp name="--.HHN">
      <acc value="0.0310667119" flag="0"/>
      <vel value="0.0131685272" flag="0"/>
      <psa03 value="0.1212426100" flag="0"/>
      <psa10 value="0.0066497582" flag="0"/>
      <psa30 value="0.0006120474" flag="0"/>
    </comp>
    <comp name="--.HHZ">
      <acc value="0.0122336865" flag="0"/>
      <vel value="0.0049764575" flag="0"/>
      <psa03 value="0.0551637196" flag="0"/>
      <psa10 value="0.0041365664" flag="0"/>
      <psa30 value="0.0003167832" flag="0"/>
    </comp>
    <comp name="--.HHE">
      <acc value="0.0432467088" flag="0"/>
      <vel value="0.0179126341" flag="0"/>
      <psa03 value="0.1317990133" flag="0"/>
      <psa10 value="0.0069557755" flag="0"/>
      <psa30 value="0.0005783831" flag="0"/>
    </comp>
  </station>
  <station code="ATH" name="ATH" netid="HL" insttype="DR24" lat="37.9738" lon="23.7177">
    <comp name="--.HHN">
      <acc value="0.0677364887" flag="0"/>
      <vel value="0.0301668027" flag="0"/>
      <psa03 value="0.0889314094" flag="0"/>
      <psa10 value="0.0248238411" flag="0"/>
      <psa30 value="0.0021410068" flag="0"/>
    </comp>
    <comp name="--.HHE">
      <acc value="0.1068003041" flag="0"/>
      <vel value="0.0256608747" flag="0"/>
      <psa03 value="0.0876076310" flag="0"/>
      <psa10 value="0.0194726869" flag="0"/>
      <psa30 value="0.0016261798" flag="0"/>
    </comp>
    <comp name="--.HHZ">
      <acc value="0.0474675021" flag="0"/>
      <vel value="0.0133852396" flag="0"/>
      <psa03 value="0.0277838441" flag="0"/>
      <psa10 value="0.0142101336" flag="0"/>
      <psa30 value="0.0013227211" flag="0"/>
    </comp>
  </station>
  <station code="ATHP" name="ATHP" netid="HL" insttype="CMG-5" lat="38.0008" lon="23.7735">
    <comp name="00.HNE">
      <acc value="0.0646595502" flag="0"/>
      <vel value="0.0256847200" flag="0"/>
      <psa03 value="0.0739771719" flag="0"/>
      <psa10 value="0.0241858159" flag="0"/>
      <psa30 value="0.0025362909" flag="0"/>
    </comp>
    <comp name="00.HNN">
      <acc value="0.0764218367" flag="0"/>
      <vel value="0.0301072182" flag="0"/>
      <psa03 value="0.0740925848" flag="0"/>
      <psa10 value="0.0323890060" flag="0"/>
      <psa30 value="0.0018686794" flag="0"/>
    </comp>
    <comp name="00.HNZ">
      <acc value="0.0562819357" flag="0"/>
      <vel value="0.0164821792" flag="0"/>
      <psa03 value="0.0498096533" flag="0"/>
      <psa10 value="0.0201078739" flag="0"/>
      <psa30 value="0.0011277954" flag="0"/>
    </comp>
  </station>
  <station code="LKR" name="LKR" netid="HL" insttype="65535" lat="38.6496" lon="22.9988">
    <comp name="--.HHE">
      <acc value="0.0252143575" flag="0"/>
      <vel value="0.0077256206" flag="0"/>
      <psa03 value="0.0328121480" flag="0"/>
      <psa10 value="0.0054807112" flag="0"/>
      <psa30 value="0.0006075387" flag="0"/>
    </comp>
    <comp name="--.HHN">
      <acc value="0.0359774797" flag="0"/>
      <vel value="0.0121056635" flag="0"/>
