<?xml version="1.0" encoding="UTF-8" standalone="yes"?>
<!DOCTYPE earthquake SYSTEM "stationlist.dtd">
<stationlist created="" xmlns="ch.ethz.sed.shakemap.usgs.xml">
  <station code="APE" name="APE" netid="GE" insttype="STS-2/N" lat="37.0727" lon="25.523">
    <comp name="--.HHE">
      <acc value="0.0450128506" flag="0"/>
      <vel value="0.0184259181" flag="0"/>
      <psa03 value="0.1347408249" flag="0"/>
      <psa10 value="0.0070061149" flag="0"/>
      <psa30 value="0.0005792792" flag="0"/>
    </comp>
    <comp name="--.HHN">
      <acc value="0.0324998105" flag="0"/>
      <vel value="0.0135970963" flag="0"/>
      <psa03 value="0.1244426756" flag="0"/>
      <psa10 value="0.0067048303" flag="0"/>
      <psa30 value="0.0006135207" flag="0"/>
    </comp>
    <comp name="--.HHZ">
      <acc value="0.0130712303" flag="0"/>
      <vel value="0.0050896899" flag="0"/>
      <psa03 value="0.0568554589" flag="0"/>
      <psa10 value="0.0041642942" flag="0"/>
      <psa30 value="0.0003184001" flag="0"/>
    </comp>
  </station>
</stationlist>
