<stationlist created="1778138286">
	<station code="KRL1" name="KRL1" netid="HI" source="ITSAK Strong Motion Network" insttype="" lat="37.7951" lon="26.7065">
		<comp name="--.HNE" depth="0.0">
			<acc value="0.0150645679505844" flag="0"/>
			<vel value="0.00859473711649108" flag="0"/>
			<psa03 value="0.0376044702782559" flag="0"/>
			<psa10 value="0.0148903154728253" flag="0"/>
			<psa30 value="0.000886889377066433" flag="0"/>
		</comp>
		<comp name="--.HNN" depth="0.0">
			<acc value="0.0119752936680701" flag="0"/>
			<vel value="0.0078557853754998" flag="0"/>
			<psa03 value="0.0250290799287221" flag="0"/>
			<psa10 value="0.0110417364608587" flag="0"/>
			<psa30 value="0.000837603976735269" flag="0"/>
		</comp>
		<comp name="--.HNZ" depth="0.0">
			<acc value="0.00704962693875685" flag="0"/>
			<vel value="0.00417003220290737" flag="0"/>
			<psa03 value="0.0205284705875222" flag="0"/>
			<psa10 value="0.00602744944518879" flag="0"/>
			<psa30 value="0.000667508437908989" flag="0"/>
		</comp>
	</station>
	<station code="KSS1" name="KSS1" netid="HI" source="ITSAK Strong Motion Network" insttype="" lat="35.4189" lon="26.9207">
		<comp name="--.HNE" depth="0.0">
			<acc value="0.0157760775598765" flag="0"/>
			<vel value="0.00714382184717836" flag="0"/>
			<psa03 value="0.0448525858469183" flag="0"/>
			<psa10 value="0.00718181200980777" flag="0"/>
			<psa30 value="0.00106255757672456" flag="0"/>
		</comp>
		<comp name="--.HNN" depth="0.0">
			<acc value="0.0135473534992799" flag="0"/>
			<vel value="0.00616022738731703" flag="0"/>
			<psa03 value="0.0494494789101117" flag="0"/>
			<psa10 value="0.00645952728699744" flag="0"/>
			<psa30 value="0.000893852338332102" flag="0"/>
		</comp>
		<comp name="--.HNZ" depth="0.0">
			<acc value="0.0118624312505569" flag="0"/>
			<vel value="0.00513104479050702" flag="0"/>
			<psa03 value="0.0174803402784139" flag="0"/>
			<psa10 value="0.00498297478514406" flag="0"/>
			<psa30 value="0.000879314916962324" flag="0"/>
		</comp>
	</station>
	<station code="NAX1" name="NAX1" netid="HI" source="ITSAK Strong Motion Network" insttype="" lat="37.101394" lon="25.374103">
		<comp name="--.HNE" depth="0.0">
			<acc value="0.00395238136160402" flag="0"/>
			<vel value="0.00237811462879292" flag="0"/>
			<psa03 value="0.0156214436981629" flag="0"/>
			<psa10 value="0.0029545472086264" flag="0"/>
			<psa30 value="0.00067534208184879" flag="0"/>
		</comp>
		<comp name="--.HNN" depth="0.0">
			<acc value="0.00582277841068016" flag="0"/>
			<vel value="0.0027631053034311" flag="0"/>
			<psa03 value="0.0183247451744287" flag="0"/>
			<psa10 value="0.00341230768926125" flag="0"/>
			<psa30 value="0.000949570196032438" flag="0"/>
		</comp>
		<comp name="--.HNZ" depth="0.0">
			<acc value="0.00345065799216115" flag="0"/>
			<vel value="0.00258580408218651" flag="0"/>
			<psa03 value="0.0121650168101395" flag="0"/>
			<psa10 value="0.00341576190246139" flag="0"/>
			<psa30 value="0.000963805514050021" flag="0"/>
		</comp>
	</station>
	<station code="RDI1" name="RDI1" netid="HI" source="ITSAK Strong Motion Network" insttype="" lat="36.4514" lon="28.224">
		<comp name="--.HNE" depth="0.0">
			<acc value="0.0155574701604031" flag="0"/>
			<vel value="0.0181803053248977" flag="0"/>
			<psa03 value="0.0352251538060751" flag="0"/>
			<psa10 value="0.0255598557150097" flag="0"/>
			<psa30 value="0.0107600044641581" flag="0"/>
		</comp>
		<comp name="--.HNN" depth="0.0">
			<acc value="0.01606023978016" flag="0"/>
			<vel value="0.0145704203641689" flag="0"/>
			<psa03 value="0.0289075191479582" flag="0"/>
			<psa10 value="0.0149823325059965" flag="0"/>
			<psa30 value="0.00956288599425779" flag="0"/>
		</comp>
		<comp name="--.HNZ" depth="0.0">
			<acc value="0.00910093315209724" flag="0"/>
			<vel value="0.00924447738261717" flag="0"/>
			<psa03 value="0.028087873704622" flag="0"/>
			<psa10 value="0.0086783673992448" flag="0"/>
			<psa30 value="0.00320570923750306" flag="0"/>
		</comp>
	</station>
	<station code="AGNA" name="AGNA" netid="HL" source="National Observatory of Athens Seismic Network" insttype="" lat="35.1895" lon="25.71853">
		<comp name="00.HNE" depth="0.0">
			<acc value="0.00561144079155043" flag="0"/>
			<vel value="0.00320654719327958" flag="0"/>
			<psa03 value="0.0178194630040461" flag="0"/>
			<psa10 value="0.00557496603287655" flag="0"/>
			<psa30 value="0.000901985897971803" flag="0"/>
		</comp>
		<comp name="00.HNN" depth="0.0">
			<acc value="0.0066789359556121" flag="0"/>
			<vel value="0.00661427653321761" flag="0"/>
			<psa03 value="0.02108636040955" flag="0"/>
			<psa10 value="0.0104662289612977" flag="0"/>
			<psa30 value="0.00145623157236101" flag="0"/>
		</comp>
		<comp name="00.HNZ" depth="0.0">
			<acc value="0.00878487927182337" flag="0"/>
			<vel value="0.00219326318851576" flag="0"/>
			<psa03 value="0.0105858646730385" flag="0"/>
			<psa10 value="0.00208299509757549" flag="0"/>
			<psa30 value="0.000673344762036502" flag="0"/>
		</comp>
	</station>
	<station code="KARP" name="KARP" netid="HL" source="National Observatory of Athens Seismic Network" insttype="" lat="35.5471" lon="27.16106">
		<comp name="--.HNE" depth="0.0">
			<acc value="0.0499219971621775" flag="0"/>
			<vel value="0.0257551920477756" flag="0"/>
			<psa03 value="0.12816807383923" flag="0"/>
			<psa10 value="0.0211578253520858" flag="0"/>
			<psa30 value="0.00101490900357588" flag="0"/>
		</comp>
		<comp name="--.HNN" depth="0.0">
			<acc value="0.0718796290081947" flag="0"/>
			<vel value="0.0535294068177987" flag="0"/>
			<psa03 value="0.124827894235328" flag="0"/>
			<psa10 value="0.0756293400725613" flag="0"/>
			<psa30 value="0.00315725811118859" flag="0"/>
		</comp>
		<comp name="--.HNZ" depth="0.0">
			<acc value="0.0373887841245536" flag="0"/>
			<vel value="0.0216706701533848" flag="0"/>
			<psa03 value="0.0650547262232113" flag="0"/>
			<psa10 value="0.0238113042570296" flag="0"/>
			<psa30 value="0.00129963099000898" flag="0"/>
		</comp>
	</station>
	<station code="KLNA" name="KLNA" netid="HL" source="National Observatory of Athens Seismic Network" insttype="" lat="36.95708" lon="26.97274">
		<comp name="00.HNE" depth="0.0">
			<acc value="0.104577593365024" flag="0"/>
			<vel value="0.0435364195956884" flag="0"/>
			<psa03 value="0.345319563226381" flag="0"/>
			<psa10 value="0.0110002427745903" flag="0"/>
			<psa30 value="0.00190222976338804" flag="0"/>
		</comp>
		<comp name="00.HNN" depth="0.0">
			<acc value="0.0690365094851506" flag="0"/>
			<vel value="0.0234318319357003" flag="0"/>
			<psa03 value="0.148490170078155" flag="0"/>
			<psa10 value="0.00833038090934451" flag="0"/>
			<psa30 value="0.00136278767382746" flag="0"/>
		</comp>
		<comp name="00.HNZ" depth="0.0">
			<acc value="0.119857548651319" flag="0"/>
			<vel value="0.0266892130606853" flag="0"/>
			<psa03 value="0.114461978377856" flag="0"/>
			<psa10 value="0.00557253587188367" flag="0"/>
			<psa30 value="0.0015423171709453" flag="0"/>
		</comp>
	</station>
	<station code="NISR" name="NISR" netid="HL" source="National Observatory of Athens Seismic Network" insttype="" lat="36.6106" lon="27.131">
		<comp name="--.HNE" depth="0.0">
			<acc value="1.30963559520167" flag="0"/>
			<vel value="0.647444678853923" flag="0"/>
			<psa03 value="3.41920383880854" flag="0"/>
			<psa10 value="0.214946329139231" flag="0"/>
			<psa30 value="0.01540813071304" flag="0"/>
		</comp>
		<comp name="--.HNN" depth="0.0">
			<acc value="0.860977258401511" flag="0"/>
			<vel value="0.233717357083914" flag="0"/>
			<psa03 value="1.73728908687397" flag="0"/>
			<psa10 value="0.0597064377583856" flag="0"/>
			<psa30 value="0.0175366933865276" flag="0"/>
		</comp>
		<comp name="--.HNZ" depth="0.0">
			<acc value="0.41256535273998" flag="0"/>
			<vel value="0.125357994354236" flag="0"/>
			<psa03 value="0.490996859463575" flag="0"/>
			<psa10 value="0.0701775589187732" flag="0"/>
			<psa30 value="0.00420395765823052" flag="0"/>
		</comp>
	</station>
	<station code="RODB" name="RODB" netid="HL" source="National Observatory of Athens Seismic Network" insttype="" lat="36.4471" lon="28.22116">
		<comp name="00.HNE" depth="0.0">
			<acc value="0.0204833046079266" flag="0"/>
			<vel value="0.0174297389528822" flag="0"/>
			<psa03 value="0.0381905481655707" flag="0"/>
			<psa10 value="0.0179578227426236" flag="0"/>
			<psa30 value="0.00689334248344507" flag="0"/>
		</comp>
		<comp name="00.HNN" depth="0.0">
			<acc value="0.0135420427012776" flag="0"/>
			<vel value="0.0142395299676035" flag="0"/>
			<psa03 value="0.0394656638857218" flag="0"/>
			<psa10 value="0.0131846049778845" flag="0"/>
			<psa30 value="0.0109954717293513" flag="0"/>
		</comp>
		<comp name="00.HNZ" depth="0.0">
			<acc value="0.0109779234735739" flag="0"/>
			<vel value="0.00939156677244714" flag="0"/>
			<psa03 value="0.0286804155617924" flag="0"/>
			<psa10 value="0.0149480467972276" flag="0"/>
			<psa30 value="0.00306598164790283" flag="0"/>
		</comp>
	</station>
	<station code="SMG" name="SMG" netid="HL" source="National Observatory of Athens Seismic Network" insttype="" lat="37.70425" lon="26.83772">
		<comp name="00.HNE" depth="0.0">
			<acc value="0.0136281602142778" flag="0"/>
			<vel value="0.00756891012121975" flag="0"/>
			<psa03 value="0.0484413496268951" flag="0"/>
			<psa10 value="0.00515753244247377" flag="0"/>
			<psa30 value="0.00102443734311385" flag="0"/>
		</comp>
		<comp name="00.HNN" depth="0.0">
			<acc value="0.0132857846620271" flag="0"/>
			<vel value="0.00714984203212309" flag="0"/>
			<psa03 value="0.05161448170622" flag="0"/>
			<psa10 value="0.004881708701727" flag="0"/>
			<psa30 value="0.000481808479945168" flag="0"/>
		</comp>
		<comp name="00.HNZ" depth="0.0">
			<acc value="0.00591140217149387" flag="0"/>
			<vel value="0.0039638282408965" flag="0"/>
			<psa03 value="0.0192572340305997" flag="0"/>
			<psa10 value="0.00353669546059255" flag="0"/>
			<psa30 value="0.000734374065342853" flag="0"/>
		</comp>
	</station>
	<station code="THRA" name="THRA" netid="HL" source="National Observatory of Athens Seismic Network" insttype="" lat="36.41502" lon="25.43244">
		<comp name="00.HNE" depth="0.0">
			<acc value="0.0461374302770542" flag="0"/>
			<vel value="0.0233879213505298" flag="0"/>
			<psa03 value="0.10211565007747" flag="0"/>
			<psa10 value="0.0318165901929428" flag="0"/>
			<psa30 value="0.00368950941189" flag="0"/>
		</comp>
		<comp name="00.HNN" depth="0.0">
			<acc value="0.0343307262129422" flag="0"/>
			<vel value="0.0286092939742713" flag="0"/>
			<psa03 value="0.1108126220422" flag="0"/>
			<psa10 value="0.0283843834511063" flag="0"/>
			<psa30 value="0.00290750469125178" flag="0"/>
		</comp>
		<comp name="00.HNZ" depth="0.0">
			<acc value="0.0389173759519169" flag="0"/>
			<vel value="0.0198761306008934" flag="0"/>
			<psa03 value="0.119201146490818" flag="0"/>
			<psa10 value="0.0129460704261348" flag="0"/>
			<psa30 value="0.00108950290338857" flag="0"/>
		</comp>
	</station>
	<station code="CAME" name="CAME" netid="KO" source="Bogazici University Kandilli Observatory And Earthquake Research Institute (KOERI)" insttype="" lat="36.9435" lon="29.3023">
		<comp name="--.HNE" depth="0.0">
			<acc value="0.00333858920174409" flag="0"/>
			<vel value="0.00239517697176596" flag="0"/>
			<psa03 value="0.00835489071008055" flag="0"/>
			<psa10 value="0.0023238477716337" flag="0"/>
			<psa30 value="0.000650281359199748" flag="0"/>
		</comp>
		<comp name="--.HNN" depth="0.0">
			<acc value="0.00292976815320381" flag="0"/>
			<vel value="0.00177134722455118" flag="0"/>
			<psa03 value="0.00886198810489488" flag="0"/>
			<psa10 value="0.00170887687657997" flag="0"/>
			<psa30 value="0.000685106426607326" flag="0"/>
		</comp>
		<comp name="--.HNZ" depth="0.0">
			<acc value="0.00185826994728792" flag="0"/>
			<vel value="0.00180675842097154" flag="0"/>
			<psa03 value="0.0055529355630422" flag="0"/>
			<psa10 value="0.00166626995252067" flag="0"/>
			<psa30 value="0.000915076035962707" flag="0"/>
		</comp>
	</station>
</stationlist>
