<?xml version="1.0" encoding="UTF-8" standalone="yes"?>
<!DOCTYPE earthquake SYSTEM "stationlist.dtd">
<stationlist created="" xmlns="ch.ethz.sed.shakemap.usgs.xml">
  <station code="KARP" name="KARP" netid="GE" insttype="STS-2/N" lat="35.5471" lon="27.1611">
    <comp name="--.HHN">
      <acc value="0.0900831955" flag="0"/>
      <vel value="0.0640798580" flag="0"/>
      <psa03 value="0.1397360728" flag="0"/>
      <psa10 value="0.0861071525" flag="0"/>
      <psa30 value="0.0036169769" flag="0"/>
    </comp>
    <comp name="--.HHZ">
      <acc value="0.0483207270" flag="0"/>
      <vel value="0.0272286200" flag="0"/>
      <psa03 value="0.0818876854" flag="0"/>
      <psa10 value="0.0300047874" flag="0"/>
      <psa30 value="0.0015402896" flag="0"/>
    </comp>
    <comp name="--.HHE">
      <acc value="0.0695504395" flag="0"/>
      <vel value="0.0343879509" flag="0"/>
      <psa03 value="0.1546835165" flag="0"/>
      <psa10 value="0.0314220261" flag="0"/>
      <psa30 value="0.0013113200" flag="0"/>
    </comp>
  </station>
  <station code="ARG" name="ARG" netid="HL" insttype="LE3D20_DR24" lat="36.2136" lon="28.1212">
    <comp name="--.HHN">
      <acc value="0.0249717295" flag="0"/>
      <vel value="0.0171935798" flag="0"/>
      <psa03 value="0.0470343074" flag="0"/>
      <psa10 value="0.0123292824" flag="0"/>
      <psa30 value="0.0013960238" flag="0"/>
    </comp>
    <comp name="--.HHZ">
      <acc value="0.0210593207" flag="0"/>
      <vel value="0.0127613177" flag="0"/>
      <psa03 value="0.0478220516" flag="0"/>
      <psa10 value="0.0093405007" flag="0"/>
      <psa30 value="0.0028665807" flag="0"/>
    </comp>
    <comp name="--.HHE">
      <acc value="0.0468953248" flag="0"/>
      <vel value="0.0320002644" flag="0"/>
      <psa03 value="0.1371445499" flag="0"/>
      <psa10 value="0.0224794146" flag="0"/>
      <psa30 value="0.0049951494" flag="0"/>
    </comp>
  </station>
  <station code="KARP" name="KARP" netid="HL" insttype="120" lat="35.5471" lon="27.1611">
    <comp name="--.HHN">
      <acc value="0.0845323655" flag="0"/>
      <vel value="0.0632446040" flag="0"/>
      <psa03 value="0.1372521506" flag="0"/>
      <psa10 value="0.0855206950" flag="0"/>
      <psa30 value="0.0035937692" flag="0"/>
    </comp>
    <comp name="--.HHE">
      <acc value="0.0678353074" flag="0"/>
      <vel value="0.0334517873" flag="0"/>
      <psa03 value="0.1506735721" flag="0"/>
      <psa10 value="0.0311483808" flag="0"/>
      <psa30 value="0.0013040118" flag="0"/>
    </comp>
    <comp name="--.HHZ">
      <acc value="0.0463729062" flag="0"/>
      <vel value="0.0265720003" flag="0"/>
      <psa03 value="0.0799250019" flag="0"/>
      <psa10 value="0.0297801158" flag="0"/>
      <psa30 value="0.0015341413" flag="0"/>
    </comp>
  </station>
  <station code="KLNA" name="KLNA" netid="HL" insttype="CMG-5" lat="36.9571" lon="26.9727">
    <comp name="00.HNE">
      <acc value="0.1056128793" flag="0"/>
      <vel value="0.0448339870" flag="0"/>
      <psa03 value="0.3422858336" flag="0"/>
      <psa10 value="0.0110468653" flag="0"/>
      <psa30 value="0.0017860288" flag="0"/>
    </comp>
    <comp name="00.HNN">
      <acc value="0.0696871813" flag="0"/>
      <vel value="0.0238371696" flag="0"/>
      <psa03 value="0.1471563036" flag="0"/>
      <psa10 value="0.0083461712" flag="0"/>
      <psa30 value="0.0012755393" flag="0"/>
    </comp>
    <comp name="00.HNZ">
      <acc value="0.1217624693" flag="0"/>
      <vel value="0.0262871234" flag="0"/>
      <psa03 value="0.1133293376" flag="0"/>
      <psa10 value="0.0054806054" flag="0"/>
      <psa30 value="0.0013089493" flag="0"/>
    </comp>
  </station>
  <station code="NISR" name="NISR" netid="HL" insttype="65535" lat="36.6106" lon="27.131">
    <comp name="--.HHE">
      <acc value="1.4540753583" flag="0"/>
      <vel value="0.7040264220" flag="0"/>
      <psa03 value="3.7210054773" flag="0"/>
      <psa10 value="0.2236632815" flag="0"/>
      <psa30 value="0.0168126067" flag="0"/>
    </comp>
    <comp name="--.HHN">
      <acc value="0.8610531999" flag="0"/>
      <vel value="0.2465857128" flag="0"/>
      <psa03 value="1.4585938366" flag="0"/>
      <psa10 value="0.0949370574" flag="0"/>
      <psa30 value="0.1201546694" flag="0"/>
    </comp>
    <comp name="--.HHZ">
      <acc value="0.4885347372" flag="0"/>
      <vel value="0.1457476590" flag="0"/>
      <psa03 value="0.6459637965" flag="0"/>
      <psa10 value="0.0681194029" flag="0"/>
      <psa30 value="0.0038465062" flag="0"/>
    </comp>
  </station>
</stationlist>
