<?xml version="1.0" encoding="UTF-8" standalone="yes"?>
<!DOCTYPE earthquake SYSTEM "stationlist.dtd">
<stationlist created="" xmlns="ch.ethz.sed.shakemap.usgs.xml">
  <station code="KARP" name="KARP" netid="GE" insttype="STS-2/N" lat="35.5471" lon="27.1611">
    <comp name="--.HHE">
      <acc value="0.0561706609" flag="0"/>
      <vel value="0.0235682680" flag="0"/>
      <psa03 value="0.0854241692" flag="0"/>
      <psa10 value="0.0341758120" flag="0"/>
      <psa30 value="0.0011136239" flag="0"/>
    </comp>
    <comp name="--.HHZ">
      <acc value="0.0455176162" flag="0"/>
      <vel value="0.0226286114" flag="0"/>
      <psa03 value="0.0933134902" flag="0"/>
      <psa10 value="0.0262175007" flag="0"/>
      <psa30 value="0.0015830978" flag="0"/>
    </comp>
    <comp name="--.HHN">
      <acc value="0.0817839397" flag="0"/>
      <vel value="0.0565317402" flag="0"/>
      <psa03 value="0.1236970959" flag="0"/>
      <psa10 value="0.0556148381" flag="0"/>
      <psa30 value="0.0030630164" flag="0"/>
    </comp>
  </station>
  <station code="ARG" name="ARG" netid="HL" insttype="LE3D20_DR24" lat="36.2136" lon="28.1212">
    <comp name="--.HHN">
      <acc value="0.0159348081" flag="0"/>
      <vel value="0.0079438397" flag="0"/>
      <psa03 value="0.0319467474" flag="0"/>
      <psa10 value="0.0108651856" flag="0"/>
      <psa30 value="0.0014411003" flag="0"/>
    </comp>
    <comp name="--.HHE">
      <acc value="0.0260642150" flag="0"/>
      <vel value="0.0256028048" flag="0"/>
      <psa03 value="0.0553150367" flag="0"/>
      <psa10 value="0.0277128858" flag="0"/>
      <psa30 value="0.0045800082" flag="0"/>
    </comp>
    <comp name="--.HHZ">
      <acc value="0.0157996607" flag="0"/>
      <vel value="0.0104713401" flag="0"/>
      <psa03 value="0.0220495011" flag="0"/>
      <psa10 value="0.0131480593" flag="0"/>
      <psa30 value="0.0024480626" flag="0"/>
    </comp>
  </station>
  <station code="KARP" name="KARP" netid="HL" insttype="120" lat="35.5471" lon="27.1611">
    <comp name="--.HHE">
      <acc value="0.0531489863" flag="0"/>
      <vel value="0.0228548105" flag="0"/>
      <psa03 value="0.0838089378" flag="0"/>
      <psa10 value="0.0339335423" flag="0"/>
      <psa30 value="0.0010999661" flag="0"/>
    </comp>
    <comp name="--.HHZ">
      <acc value="0.0444338744" flag="0"/>
      <vel value="0.0222035371" flag="0"/>
      <psa03 value="0.0910722655" flag="0"/>
      <psa10 value="0.0260499439" flag="0"/>
      <psa30 value="0.0015693365" flag="0"/>
    </comp>
    <comp name="--.HHN">
      <acc value="0.0777961229" flag="0"/>
      <vel value="0.0554712069" flag="0"/>
      <psa03 value="0.1208581817" flag="0"/>
      <psa10 value="0.0552042113" flag="0"/>
      <psa30 value="0.0030382201" flag="0"/>
    </comp>
  </station>
  <station code="NISR" name="NISR" netid="HL" insttype="65535" lat="36.6106" lon="27.131">
    <comp name="--.HHZ">
      <acc value="0.1916905554" flag="0"/>
      <vel value="0.0530047368" flag="0"/>
      <psa03 value="0.4338224944" flag="0"/>
      <psa10 value="0.0404106857" flag="0"/>
      <psa30 value="0.0021337729" flag="0"/>
    </comp>
    <comp name="--.HHE">
      <acc value="0.7788432000" flag="0"/>
      <vel value="0.2463591607" flag="0"/>
      <psa03 value="1.8647398163" flag="0"/>
      <psa10 value="0.0622392037" flag="0"/>
      <psa30 value="0.0056656372" flag="0"/>
    </comp>
    <comp name="--.HHN">
      <acc value="0.4941369748" flag="0"/>
      <vel value="0.1366705726" flag="0"/>
      <psa03 value="0.7388916427" flag="0"/>
      <psa10 value="0.0832100926" flag="0"/>
      <psa30 value="0.0725326398" flag="0"/>
    </comp>
  </station>
</stationlist>
