<stationlist created="1778138289">
	<station code="KRL1" name="KRL1" netid="HI" source="ITSAK Strong Motion Network" insttype="" lat="37.7951" lon="26.7065">
		<comp name="--.HNE" depth="0.0">
			<acc value="0.00604342557616537" flag="0"/>
			<vel value="0.00688837152110014" flag="0"/>
			<psa03 value="0.0103563592350659" flag="0"/>
			<psa10 value="0.0124252593624437" flag="0"/>
			<psa30 value="0.000795721254295772" flag="0"/>
		</comp>
		<comp name="--.HNN" depth="0.0">
			<acc value="0.00501227341027614" flag="0"/>
			<vel value="0.00550314157617017" flag="0"/>
			<psa03 value="0.0103643083293617" flag="0"/>
			<psa10 value="0.00782549715078186" flag="0"/>
			<psa30 value="0.0010659672817686" flag="0"/>
		</comp>
		<comp name="--.HNZ" depth="0.0">
			<acc value="0.00263308400511499" flag="0"/>
			<vel value="0.00212313561412536" flag="0"/>
			<psa03 value="0.00615678676317268" flag="0"/>
			<psa10 value="0.00499373565423861" flag="0"/>
			<psa30 value="0.000585434511331949" flag="0"/>
		</comp>
	</station>
	<station code="KSS1" name="KSS1" netid="HI" source="ITSAK Strong Motion Network" insttype="" lat="35.4189" lon="26.9207">
		<comp name="--.HNE" depth="0.0">
			<acc value="0.0199325157759842" flag="0"/>
			<vel value="0.00573798551629844" flag="0"/>
			<psa03 value="0.0594204311037836" flag="0"/>
			<psa10 value="0.00427001927405926" flag="0"/>
			<psa30 value="0.000581499511073292" flag="0"/>
		</comp>
		<comp name="--.HNN" depth="0.0">
			<acc value="0.0150265784245764" flag="0"/>
			<vel value="0.00759932085554787" flag="0"/>
			<psa03 value="0.0653224522919976" flag="0"/>
			<psa10 value="0.00661134812562148" flag="0"/>
			<psa30 value="0.000633098710517327" flag="0"/>
		</comp>
		<comp name="--.HNZ" depth="0.0">
			<acc value="0.00914082383724986" flag="0"/>
			<vel value="0.00439667897475232" flag="0"/>
			<psa03 value="0.0163625149259078" flag="0"/>
			<psa10 value="0.00554538501081091" flag="0"/>
			<psa30 value="0.000582028348188366" flag="0"/>
		</comp>
	</station>
	<station code="NISR" name="NISR" netid="HL" source="National Observatory of Athens Seismic Network" insttype="" lat="36.6106" lon="27.131">
		<comp name="--.HNE" depth="0.0">
			<acc value="0.680547181024378" flag="0"/>
			<vel value="0.231042989370057" flag="0"/>
			<psa03 value="1.69028997341332" flag="0"/>
			<psa10 value="0.0610352145334463" flag="0"/>
			<psa30 value="0.00727245759794006" flag="0"/>
		</comp>
		<comp name="--.HNN" depth="0.0">
			<acc value="0.495943037616587" flag="0"/>
			<vel value="0.118699603532" flag="0"/>
			<psa03 value="0.844878635728745" flag="0"/>
			<psa10 value="0.0440343595603366" flag="0"/>
			<psa30 value="0.0113191948411043" flag="0"/>
		</comp>
		<comp name="--.HNZ" depth="0.0">
			<acc value="0.178383364393821" flag="0"/>
			<vel value="0.0461636789916153" flag="0"/>
			<psa03 value="0.358739389724182" flag="0"/>
			<psa10 value="0.0409999360447044" flag="0"/>
			<psa30 value="0.00250817802948546" flag="0"/>
		</comp>
	</station>
	<station code="CAME" name="CAME" netid="KO" source="Bogazici University Kandilli Observatory And Earthquake Research Institute (KOERI)" insttype="" lat="36.9435" lon="29.3023">
		<comp name="--.HNE" depth="0.0">
			<acc value="0.00170133533466377" flag="0"/>
			<vel value="0.00185779868145315" flag="0"/>
			<psa03 value="0.00394193170654553" flag="0"/>
			<psa10 value="0.00204148125373719" flag="0"/>
			<psa30 value="0.000500901307252063" flag="0"/>
		</comp>
		<comp name="--.HNN" depth="0.0">
			<acc value="0.0013944611665663" flag="0"/>
			<vel value="0.00137002402378068" flag="0"/>
			<psa03 value="0.00495563232279286" flag="0"/>
			<psa10 value="0.00188566593173731" flag="0"/>
			<psa30 value="0.000500330644451109" flag="0"/>
		</comp>
		<comp name="--.HNZ" depth="0.0">
			<acc value="0.00141710090892948" flag="0"/>
			<vel value="0.00157503912538602" flag="0"/>
			<psa03 value="0.00335768466971261" flag="0"/>
			<psa10 value="0.00133317698830613" flag="0"/>
			<psa30 value="0.000706502271059089" flag="0"/>
		</comp>
	</station>
</stationlist>
