<?xml version="1.0" encoding="UTF-8" standalone="yes"?>
<!DOCTYPE earthquake SYSTEM "stationlist.dtd">
<stationlist created="" xmlns="ch.ethz.sed.shakemap.usgs.xml">
  <station code="MALA" name="MALA" netid="CL" source="RESIF" insttype="30" lat="38.3935" lon="21.8726">
    <comp name="00.HH2">
      <acc value="0.0054530092" flag="0"/>
      <vel value="0.0054772224" flag="0"/>
      <psa03 value="0.0097696110" flag="0"/>
      <psa10 value="0.0051935026" flag="0"/>
      <psa30 value="0.0022712403" flag="0"/>
    </comp>
    <comp name="00.HH3">
      <acc value="0.0052196445" flag="0"/>
      <vel value="0.0060672518" flag="0"/>
      <psa03 value="0.0111162697" flag="0"/>
      <psa10 value="0.0060278739" flag="0"/>
      <psa30 value="0.0030983596" flag="0"/>
    </comp>
    <comp name="00.HHZ">
      <acc value="0.0022887700" flag="0"/>
      <vel value="0.0034725060" flag="0"/>
      <psa03 value="0.0053611209" flag="0"/>
      <psa10 value="0.0055390325" flag="0"/>
      <psa30 value="0.0010855896" flag="0"/>
    </comp>
  </station>
  <station code="MG00" name="MG00" netid="CL" source="RESIF" insttype="40" lat="38.4145" lon="21.9467">
    <comp name="00.HHE">
      <acc value="0.0118657560" flag="0"/>
      <vel value="0.0078559720" flag="0"/>
      <psa03 value="0.0471274327" flag="0"/>
      <psa10 value="0.0081527088" flag="0"/>
      <psa30 value="0.0010098581" flag="0"/>
    </comp>
    <comp name="00.HHN">
      <acc value="0.0112131895" flag="0"/>
      <vel value="0.0093088572" flag="0"/>
      <psa03 value="0.0333697508" flag="0"/>
      <psa10 value="0.0108546787" flag="0"/>
      <psa30 value="0.0010007078" flag="0"/>
    </comp>
    <comp name="00.HHZ">
      <acc value="0.0070734742" flag="0"/>
      <vel value="0.0029761245" flag="0"/>
      <psa03 value="0.0114767370" flag="0"/>
      <psa10 value="0.0033215133" flag="0"/>
      <psa30 value="0.0005553954" flag="0"/>
    </comp>
  </station>
  <station code="MG02" name="MG02" netid="CL" source="RESIF" insttype="40" lat="38.415" lon="21.947">
    <comp name="02.HHE">
      <acc value="0.0094328108" flag="0"/>
      <vel value="0.0075312156" flag="0"/>
      <psa03 value="0.0212366123" flag="0"/>
      <psa10 value="0.0090358376" flag="0"/>
      <psa30 value="0.0011011298" flag="0"/>
    </comp>
    <comp name="02.HHN">
      <acc value="0.0075728454" flag="0"/>
      <vel value="0.0055634460" flag="0"/>
      <psa03 value="0.0181380018" flag="0"/>
      <psa10 value="0.0069079934" flag="0"/>
      <psa30 value="0.0006359499" flag="0"/>
    </comp>
    <comp name="02.HHZ">
      <acc value="0.0073725406" flag="0"/>
      <vel value="0.0042077589" flag="0"/>
      <psa03 value="0.0181032969" flag="0"/>
      <psa10 value="0.0039202717" flag="0"/>
      <psa30 value="0.0004659354" flag="0"/>
    </comp>
  </station>
  <station code="MG03" name="MG03" netid="CL" source="RESIF" insttype="40" lat="38.4141" lon="21.946">
    <comp name="03.HHE">
      <acc value="0.0070852059" flag="0"/>
      <vel value="0.0056279812" flag="0"/>
      <psa03 value="0.0242898334" flag="0"/>
      <psa10 value="0.0073052040" flag="0"/>
      <psa30 value="0.0010023324" flag="0"/>
    </comp>
    <comp name="03.HHN">
      <acc value="0.0040980876" flag="0"/>
      <vel value="0.0037442118" flag="0"/>
      <psa03 value="0.0085527636" flag="0"/>
      <psa10 value="0.0039661581" flag="0"/>
      <psa30 value="0.0004287308" flag="0"/>
    </comp>
    <comp name="03.HHZ">
      <acc value="0.0046417940" flag="0"/>
      <vel value="0.0020508447" flag="0"/>
      <psa03 value="0.0088712770" flag="0"/>
      <psa10 value="0.0029623410" flag="0"/>
      <psa30 value="0.0005596941" flag="0"/>
    </comp>
  </station>
  <station code="MG04" name="MG04" netid="CL" source="RESIF" insttype="40" lat="38.4142" lon="21.9481">
    <comp name="04.HHE">
      <acc value="0.0102895104" flag="0"/>
      <vel value="0.0069080824" flag="0"/>
      <psa03 value="0.0307609564" flag="0"/>
      <psa10 value="0.0085831448" flag="0"/>
      <psa30 value="0.0010320997" flag="0"/>
    </comp>
    <comp name="04.HHN">
      <acc value="0.0091658213" flag="0"/>
      <vel value="0.0076550397" flag="0"/>
      <psa03 value="0.0355511236" flag="0"/>
      <psa10 value="0.0078756532" flag="0"/>
      <psa30 value="0.0008646810" flag="0"/>
    </comp>
    <comp name="04.HHZ">
      <acc value="0.0067642997" flag="0"/>
      <vel value="0.0023024234" flag="0"/>
      <psa03 value="0.0096814523" flag="0"/>
      <psa10 value="0.0033995798" flag="0"/>
      <psa30 value="0.0005364366" flag="0"/>
    </comp>
  </station>
  <station code="MG05" name="MG05" netid="CL" source="RESIF" insttype="30" lat="38.4155" lon="21.9458">
    <comp name="05.HHE">
      <acc value="0.0146235306" flag="0"/>
      <vel value="0.0114696947" flag="0"/>
      <psa03 value="0.0467766373" flag="0"/>
      <psa10 value="0.0150925804" flag="0"/>
      <psa30 value="0.0021850166" flag="0"/>
    </comp>
    <comp name="05.HHN">
      <acc value="0.0240554724" flag="0"/>
      <vel value="0.0197788145" flag="0"/>
      <psa03 value="0.0616829321" flag="0"/>
      <psa10 value="0.0259742810" flag="0"/>
      <psa30 value="0.0021448738" flag="0"/>
    </comp>
    <comp name="05.HHZ">
      <acc value="0.0087045668" flag="0"/>
      <vel value="0.0037714123" flag="0"/>
      <psa03 value="0.0246774725" flag="0"/>
      <psa10 value="0.0052160785" flag="0"/>
      <psa30 value="0.0004585511" flag="0"/>
    </comp>
  </station>
  <station code="MG06" name="MG06" netid="CL" source="RESIF" insttype="40" lat="38.4129" lon="21.9462">
    <comp name="06.HHE">
      <acc value="0.0033533460" flag="0"/>
      <vel value="0.0015607465" flag="0"/>
      <psa03 value="0.0062811788" flag="0"/>
      <psa10 value="0.0017748974" flag="0"/>
      <psa30 value="0.0002229123" flag="0"/>
    </comp>
    <comp name="06.HHN">
      <acc value="0.0046618155" flag="0"/>
      <vel value="0.0037221915" flag="0"/>
      <psa03 value="0.0119000947" flag="0"/>
      <psa10 value="0.0063567092" flag="0"/>
      <psa30 value="0.0009411724" flag="0"/>
    </comp>
    <comp name="06.HHZ">
      <acc value="0.0029949102" flag="0"/>
      <vel value="0.0017839176" flag="0"/>
      <psa03 value="0.0053989604" flag="0"/>
      <psa10 value="0.0024576135" flag="0"/>
      <psa30 value="0.0002780251" flag="0"/>
    </comp>
  </station>
  <station code="MG07" name="MG07" netid="CL" source="RESIF" insttype="40" lat="38.4155" lon="21.9488">
    <comp name="07.HHE">
      <acc value="0.0088503296" flag="0"/>
      <vel value="0.0083721653" flag="0"/>
      <psa03 value="0.0240151259" flag="0"/>
      <psa10 value="0.0121123334" flag="0"/>
      <psa30 value="0.0010777615" flag="0"/>
    </comp>
    <comp name="07.HHN">
      <acc value="0.0098297891" flag="0"/>
      <vel value="0.0087604288" flag="0"/>
      <psa03 value="0.0290800324" flag="0"/>
      <psa10 value="0.0112945025" flag="0"/>
      <psa30 value="0.0009630168" flag="0"/>
    </comp>
    <comp name="07.HHZ">
      <acc value="0.0057795497" flag="0"/>
      <vel value="0.0037916187" flag="0"/>
      <psa03 value="0.0116488719" flag="0"/>
      <psa10 value="0.0045717745" flag="0"/>
      <psa30 value="0.0004012603" flag="0"/>
    </comp>
  </station>
  <station code="PSAM" name="PSAM" netid="CL" source="RESIF" insttype="30" lat="38.3322" lon="22.1843">
    <comp name="00.HHE">
      <acc value="0.0056762788" flag="0"/>
      <vel value="0.0062840696" flag="0"/>
      <psa03 value="0.0155731306" flag="0"/>
      <psa10 value="0.0104881306" flag="0"/>
      <psa30 value="0.0009053860" flag="0"/>
    </comp>
    <comp name="00.HHN">
      <acc value="0.0044908039" flag="0"/>
      <vel value="0.0053029578" flag="0"/>
      <psa03 value="0.0104587315" flag="0"/>
      <psa10 value="0.0064079547" flag="0"/>
      <psa30 value="0.0009981655" flag="0"/>
    </comp>
    <comp name="00.HHZ">
      <acc value="0.0025857952" flag="0"/>
      <vel value="0.0017102875" flag="0"/>
      <psa03 value="0.0052635631" flag="0"/>
      <psa10 value="0.0027217840" flag="0"/>
      <psa30 value="0.0002940581" flag="0"/>
    </comp>
  </station>
  <station code="ROD3" name="ROD3" netid="CL" source="RESIF" insttype="30" lat="38.3081" lon="21.892">
    <comp name="00.HHE">
      <acc value="0.0175436917" flag="0"/>
      <vel value="0.0102531572" flag="0"/>
      <psa03 value="0.0527897221" flag="0"/>
      <psa10 value="0.0120716409" flag="0"/>
      <psa30 value="0.0016354193" flag="0"/>
    </comp>
    <comp name="00.HHN">
      <acc value="0.0164413701" flag="0"/>
      <vel value="0.0144366864" flag="0"/>
      <psa03 value="0.0486476730" flag="0"/>
      <psa10 value="0.0175183067" flag="0"/>
      <psa30 value="0.0014214442" flag="0"/>
    </comp>
    <comp name="00.HHZ">
      <acc value="0.0084727771" flag="0"/>
      <vel value="0.0066336955" flag="0"/>
      <psa03 value="0.0163006049" flag="0"/>
      <psa10 value="0.0107775839" flag="0"/>
      <psa30 value="0.0011780308" flag="0"/>
    </comp>
  </station>
  <station code="TRIZ" name="TRIZ" netid="CL" source="RESIF" insttype="generation" lat="38.3654" lon="22.0727">
    <comp name="00.HH2">
      <acc value="0.0028239557" flag="0"/>
      <vel value="0.0030736218" flag="0"/>
      <psa03 value="0.0082070118" flag="0"/>
      <psa10 value="0.0047783874" flag="0"/>
      <psa30 value="0.0005080036" flag="0"/>
    </comp>
    <comp name="00.HH3">
      <acc value="0.0045234252" flag="0"/>
      <vel value="0.0027812206" flag="0"/>
      <psa03 value="0.0139871585" flag="0"/>
      <psa10 value="0.0045376192" flag="0"/>
      <psa30 value="0.0004319507" flag="0"/>
    </comp>
    <comp name="00.HHZ">
      <acc value="0.0021806241" flag="0"/>
      <vel value="0.0016417051" flag="0"/>
      <psa03 value="0.0048019185" flag="0"/>
      <psa10 value="0.0029091918" flag="0"/>
      <psa30 value="0.0002299516" flag="0"/>
    </comp>
  </station>
</stationlist>
