<stationlist xmlns:esm="https://esm-db.eu/esmws/shakemap/1/" created="1781920447">
	<station code="KLV1" name="KLV1" netid="HI" source="ITSAK Strong Motion Network" insttype="" lat="38.03256" lon="22.10797" esm:processing="manual (Paolucci et al 2011)" esm:quality="bad">
		<comp name="--.HNE" depth="0.0">
			<acc value="0.0116655455459222" flag="0"/>
			<vel value="0.0102458736800864" flag="0"/>
			<psa03 value="0.0421293768019643" flag="0"/>
			<psa10 value="0.0147003897661695" flag="0"/>
			<psa30 value="0.00150457800424306" flag="0"/>
		</comp>
		<comp name="--.HNN" depth="0.0">
			<acc value="0.0178314438934407" flag="0"/>
			<vel value="0.0115564542391703" flag="0"/>
			<psa03 value="0.0336818875097479" flag="0"/>
			<psa10 value="0.015301025805368" flag="0"/>
			<psa30 value="0.000941508932845694" flag="0"/>
		</comp>
		<comp name="--.HNZ" depth="0.0">
			<acc value="0.00576483898562783" flag="0"/>
			<vel value="0.00411297050214894" flag="0"/>
			<psa03 value="0.00996442897470977" flag="0"/>
			<psa10 value="0.00674666224576517" flag="0"/>
			<psa30 value="0.000701006334064718" flag="0"/>
		</comp>
	</station>
	<station code="KRI1" name="KRI1" netid="HI" source="ITSAK Strong Motion Network" insttype="" lat="37.6621" lon="20.8172" esm:processing="manual (Paolucci et al 2011)" esm:quality="bad">
		<comp name="--.HNE" depth="0.0">
			<acc value="0.111146753740891" flag="0"/>
			<vel value="0.0485741401855127" flag="0"/>
			<psa03 value="0.19623931822774" flag="0"/>
			<psa10 value="0.0455310117209519" flag="0"/>
			<psa30 value="0.0146034088181377" flag="0"/>
		</comp>
		<comp name="--.HNN" depth="0.0">
			<acc value="0.106498873729932" flag="0"/>
			<vel value="0.047028941015754" flag="0"/>
			<psa03 value="0.213688778808866" flag="0"/>
			<psa10 value="0.0747937571155002" flag="0"/>
			<psa30 value="0.00941510253868292" flag="0"/>
		</comp>
		<comp name="--.HNZ" depth="0.0">
			<acc value="0.0866762950342914" flag="0"/>
			<vel value="0.0373393948785343" flag="0"/>
			<psa03 value="0.153599995320527" flag="0"/>
			<psa10 value="0.0282479921484459" flag="0"/>
			<psa30 value="0.0102956291649305" flag="0"/>
		</comp>
	</station>
	<station code="MSL1" name="MSL1" netid="HI" source="ITSAK Strong Motion Network" insttype="" lat="38.3727" lon="21.4243" esm:processing="manual (Paolucci et al 2011)" esm:quality="bad">
		<comp name="--.HNE" depth="0.0">
			<acc value="0.0136402177634582" flag="0"/>
			<vel value="0.0203115534656267" flag="0"/>
			<psa03 value="0.0418787053947024" flag="0"/>
			<psa10 value="0.03970826095165" flag="0"/>
			<psa30 value="0.00578337762747781" flag="0"/>
		</comp>
		<comp name="--.HNN" depth="0.0">
			<acc value="0.0209895571430857" flag="0"/>
			<vel value="0.0233293990615627" flag="0"/>
			<psa03 value="0.0514087954043943" flag="0"/>
			<psa10 value="0.0525134804857994" flag="0"/>
			<psa30 value="0.00584467445054484" flag="0"/>
		</comp>
		<comp name="--.HNZ" depth="0.0">
			<acc value="0.0080760136076391" flag="0"/>
			<vel value="0.00841330446537718" flag="0"/>
			<psa03 value="0.0188812111929107" flag="0"/>
			<psa10 value="0.0137394368083389" flag="0"/>
			<psa30 value="0.00185411704226118" flag="0"/>
		</comp>
	</station>
	<station code="PYL1" name="PYL1" netid="HI" source="ITSAK Strong Motion Network" insttype="" lat="36.914188" lon="21.695161" esm:processing="manual (Paolucci et al 2011)" esm:quality="good">
		<comp name="--.HNE" depth="0.0">
			<acc value="0.0886959324801529" flag="0"/>
			<vel value="0.0540917714305906" flag="0"/>
			<psa03 value="0.37668463751923" flag="0"/>
			<psa10 value="0.0188212566360422" flag="0"/>
			<psa30 value="0.00170691518248707" flag="0"/>
		</comp>
		<comp name="--.HNN" depth="0.0">
			<acc value="0.0433891373602202" flag="0"/>
			<vel value="0.0245678078461996" flag="0"/>
			<psa03 value="0.16438286711553" flag="0"/>
			<psa10 value="0.0159380688415608" flag="0"/>
			<psa30 value="0.00148230930526334" flag="0"/>
		</comp>
		<comp name="--.HNZ" depth="0.0">
			<acc value="0.0330362283836621" flag="0"/>
			<vel value="0.0187199521063178" flag="0"/>
			<psa03 value="0.094674509204263" flag="0"/>
			<psa10 value="0.00553684806901113" flag="0"/>
			<psa30 value="0.000562856959257859" flag="0"/>
		</comp>
	</station>
	<station code="LXRA" name="LXRA" netid="HL" source="National Observatory of Athens Seismic Network" insttype="" lat="38.20006" lon="20.43718" esm:processing="manual (Paolucci et al 2011)" esm:quality="bad">
		<comp name="00.HNE" depth="0.0">
			<acc value="0.0409395870296185" flag="0"/>
			<vel value="0.0315397471196338" flag="0"/>
			<psa03 value="0.0935559540388062" flag="0"/>
			<psa10 value="0.035709649946175" flag="0"/>
			<psa30 value="0.00694712242161905" flag="0"/>
		</comp>
		<comp name="00.HNN" depth="0.0">
			<acc value="0.0400398351246988" flag="0"/>
			<vel value="0.0284599002778526" flag="0"/>
			<psa03 value="0.0991487298660902" flag="0"/>
			<psa10 value="0.0553362663013461" flag="0"/>
			<psa30 value="0.00706703153535602" flag="0"/>
		</comp>
		<comp name="00.HNZ" depth="0.0">
			<acc value="0.0265707235693135" flag="0"/>
			<vel value="0.0166542045927659" flag="0"/>
			<psa03 value="0.0447422066182718" flag="0"/>
			<psa10 value="0.0252762147848603" flag="0"/>
			<psa30 value="0.00351539517399761" flag="0"/>
		</comp>
	</station>
	<station code="ZARA" name="ZARA" netid="HL" source="National Observatory of Athens Seismic Network" insttype="" lat="37.4865" lon="21.6491" esm:processing="manual (Paolucci et al 2011)" esm:quality="good">
		<comp name="00.HNE" depth="0.0">
			<acc value="0.086192007501943" flag="0"/>
			<vel value="0.0479011976827754" flag="0"/>
			<psa03 value="0.320571382114079" flag="0"/>
			<psa10 value="0.0377679156890657" flag="0"/>
			<psa30 value="0.00347553044516916" flag="0"/>
		</comp>
		<comp name="00.HNN" depth="0.0">
			<acc value="0.0959824717095244" flag="0"/>
			<vel value="0.0414214040242184" flag="0"/>
			<psa03 value="0.383624038209579" flag="0"/>
			<psa10 value="0.0407229651964457" flag="0"/>
			<psa30 value="0.00279620877677721" flag="0"/>
		</comp>
		<comp name="00.HNZ" depth="0.0">
			<acc value="0.0427817353828928" flag="0"/>
			<vel value="0.0194124718981475" flag="0"/>
			<psa03 value="0.114377431110074" flag="0"/>
			<psa10 value="0.0256405273090967" flag="0"/>
			<psa30 value="0.00124674842429577" flag="0"/>
		</comp>
	</station>
	<station code="FSK" name="FSK" netid="HP" source="University of Patras, Seismological Laboratory (PSLNET)" insttype="" lat="38.4593" lon="20.5623" esm:processing="manual (Paolucci et al 2011)" esm:quality="bad">
		<comp name="--.HNE" depth="0.0">
			<acc value="0.020542841818956" flag="0"/>
			<vel value="0.0123474965827288" flag="0"/>
			<psa03 value="0.0268741084027904" flag="0"/>
			<psa10 value="0.0166770416471624" flag="0"/>
			<psa30 value="0.00356658751891922" flag="0"/>
		</comp>
		<comp name="--.HNN" depth="0.0">
			<acc value="0.00695764214111543" flag="0"/>
			<vel value="0.00620450415104669" flag="0"/>
			<psa03 value="0.0220650971210611" flag="0"/>
			<psa10 value="0.0106784255182836" flag="0"/>
			<psa30 value="0.00140102624861309" flag="0"/>
		</comp>
		<comp name="--.HNZ" depth="0.0">
			<acc value="0.00811895920795048" flag="0"/>
			<vel value="0.00699863474339848" flag="0"/>
			<psa03 value="0.0166177753252261" flag="0"/>
			<psa10 value="0.0075696894235242" flag="0"/>
			<psa30 value="0.000987947530008601" flag="0"/>
		</comp>
	</station>
</stationlist>
