<?xml version="1.0" encoding="UTF-8" standalone="yes"?>
<!DOCTYPE earthquake SYSTEM "stationlist.dtd">
<stationlist created="" xmlns="ch.ethz.sed.shakemap.usgs.xml">
  <station code="AKDM" name="AKDM" netid="KO" insttype="CMG-3ESP" lat="38.3285" lon="42.98">
    <comp name="--.HHN">
      <acc value="0.0775396255" flag="0"/>
      <vel value="0.0269260331" flag="0"/>
      <psa03 value="0.1511977431" flag="0"/>
      <psa10 value="0.0129817862" flag="0"/>
      <psa30 value="0.0030979693" flag="0"/>
    </comp>
    <comp name="--.HHE">
      <acc value="0.0590088652" flag="0"/>
      <vel value="0.0199402097" flag="0"/>
      <psa03 value="0.0773306873" flag="0"/>
      <psa10 value="0.0132033475" flag="0"/>
      <psa30 value="0.0019123504" flag="0"/>
    </comp>
    <comp name="--.HHZ">
      <acc value="0.0492206194" flag="0"/>
      <vel value="0.0169226299" flag="0"/>
      <psa03 value="0.0698163278" flag="0"/>
      <psa10 value="0.0126398901" flag="0"/>
      <psa30 value="0.0015320292" flag="0"/>
    </comp>
  </station>
  <station code="GURO" name="GURO" netid="KO" insttype="CMG-3T" lat="38.5509" lon="42.0322">
    <comp name="--.HHN">
      <acc value="0.0901580477" flag="0"/>
      <vel value="0.0390153416" flag="0"/>
      <psa03 value="0.2088302124" flag="0"/>
      <psa10 value="0.0272032045" flag="0"/>
      <psa30 value="0.0019804229" flag="0"/>
    </comp>
    <comp name="--.HHZ">
      <acc value="0.0664606256" flag="0"/>
      <vel value="0.0270921781" flag="0"/>
      <psa03 value="0.1600655815" flag="0"/>
      <psa10 value="0.0227687541" flag="0"/>
      <psa30 value="0.0013175881" flag="0"/>
    </comp>
    <comp name="--.HHE">
      <acc value="0.0937886476" flag="0"/>
      <vel value="0.0469634486" flag="0"/>
      <psa03 value="0.3036809160" flag="0"/>
      <psa10 value="0.0436024865" flag="0"/>
      <psa30 value="0.0024459972" flag="0"/>
    </comp>
  </station>
  <station code="MLAZ" name="MLAZ" netid="KO" insttype="CMG-3T" lat="39.141" lon="42.5496">
    <comp name="--.HHZ">
      <acc value="0.0152784413" flag="0"/>
      <vel value="0.0106934523" flag="0"/>
      <psa03 value="0.0347929969" flag="0"/>
      <psa10 value="0.0103118282" flag="0"/>
      <psa30 value="0.0010912222" flag="0"/>
    </comp>
    <comp name="--.HHN">
      <acc value="0.0240079869" flag="0"/>
      <vel value="0.0160168574" flag="0"/>
      <psa03 value="0.0557332611" flag="0"/>
      <psa10 value="0.0263670282" flag="0"/>
      <psa30 value="0.0013920302" flag="0"/>
    </comp>
    <comp name="--.HHE">
      <acc value="0.0211454841" flag="0"/>
      <vel value="0.0236204446" flag="0"/>
      <psa03 value="0.0720620839" flag="0"/>
      <psa10 value="0.0370869810" flag="0"/>
      <psa30 value="0.0021599367" flag="0"/>
    </comp>
  </station>
  <station code="SVAN" name="SVAN" netid="KO" insttype="CMG-3T" lat="38.1511" lon="41.1984">
    <comp name="--.HHZ">
      <acc value="0.0034862306" flag="0"/>
      <vel value="0.0028163315" flag="0"/>
      <psa03 value="0.0062205583" flag="0"/>
      <psa10 value="0.0036422578" flag="0"/>
      <psa30 value="0.0011224327" flag="0"/>
    </comp>
    <comp name="--.HHE">
      <acc value="0.0059253067" flag="0"/>
      <vel value="0.0023451831" flag="0"/>
      <psa03 value="0.0090718093" flag="0"/>
      <psa10 value="0.0023242279" flag="0"/>
      <psa30 value="0.0005500929" flag="0"/>
    </comp>
  </station>
  <station code="VANB" name="VANB" netid="KO" insttype="CMG-3T" lat="38.509" lon="43.4056">
    <comp name="--.HHN">
      <acc value="0.0051234803" flag="0"/>
      <vel value="0.0048291087" flag="0"/>
      <psa03 value="0.0138515359" flag="0"/>
      <psa10 value="0.0068029673" flag="0"/>
      <psa30 value="0.0005202409" flag="0"/>
    </comp>
    <comp name="--.HHE">
      <acc value="0.0051983381" flag="0"/>
      <vel value="0.0067545302" flag="0"/>
      <psa03 value="0.0113083106" flag="0"/>
      <psa10 value="0.0119006819" flag="0"/>
      <psa30 value="0.0012313425" flag="0"/>
    </comp>
    <comp name="--.HHZ">
      <acc value="0.0036664734" flag="0"/>
      <vel value="0.0034320922" flag="0"/>
      <psa03 value="0.0089076459" flag="0"/>
      <psa10 value="0.0082667625" flag="0"/>
      <psa30 value="0.0010327270" flag="0"/>
    </comp>
  </station>
</stationlist>
