<?xml version="1.0" encoding="UTF-8" standalone="yes"?>
<!DOCTYPE earthquake SYSTEM "stationlist.dtd">
<stationlist created="" xmlns="ch.ethz.sed.shakemap.usgs.xml">
  <station code="ANDN" name="ANDN" netid="TU" insttype="T" lat="37.58" lon="36.3452">
    <comp name="--.HHE">
      <acc value="0.0514458455" flag="0"/>
      <vel value="0.0218095180" flag="0"/>
      <psa03 value="0.0519508377" flag="0"/>
      <psa10 value="0.0212238066" flag="0"/>
      <psa30 value="0.0010020030" flag="0"/>
    </comp>
    <comp name="--.HHZ">
      <acc value="0.0275685284" flag="0"/>
      <vel value="0.0117269467" flag="0"/>
      <psa03 value="0.0273346653" flag="0"/>
      <psa10 value="0.0131614813" flag="0"/>
      <psa30 value="0.0010284000" flag="0"/>
    </comp>
    <comp name="--.HHN">
      <acc value="0.0836376933" flag="0"/>
      <vel value="0.0284912619" flag="0"/>
      <psa03 value="0.1032084425" flag="0"/>
      <psa10 value="0.0197681418" flag="0"/>
      <psa30 value="0.0017860905" flag="0"/>
    </comp>
  </station>
</stationlist>
