<?xml version="1.0" encoding="UTF-8" standalone="yes"?>
<!DOCTYPE earthquake SYSTEM "stationlist.dtd">
<stationlist created="" xmlns="ch.ethz.sed.shakemap.usgs.xml">
  <station code="GNEF" name="GNEF" netid="FR" insttype="TRILLIUM-120PH" lat="46.1047" lon="0.328908">
    <comp name="00.HHN">
      <acc value="0.1927420251" flag="0"/>
      <vel value="0.0773399082" flag="0"/>
      <psa03 value="0.3216032490" flag="0"/>
      <psa10 value="0.0888411393" flag="0"/>
      <psa30 value="0.0232723643" flag="0"/>
    </comp>
    <comp name="00.HHZ">
      <acc value="0.1385744868" flag="0"/>
      <vel value="0.0526489411" flag="0"/>
      <psa03 value="0.2619912287" flag="0"/>
      <psa10 value="0.0512005491" flag="0"/>
      <psa30 value="0.0144207924" flag="0"/>
    </comp>
    <comp name="00.HHE">
      <acc value="0.2615504190" flag="0"/>
      <vel value="0.0846868772" flag="0"/>
      <psa03 value="0.5669866237" flag="0"/>
      <psa10 value="0.0581015945" flag="0"/>
      <psa30 value="0.0162487335" flag="0"/>
    </comp>
  </station>
</stationlist>
