<stationlist xmlns:esm="https://esm-db.eu/esmws/shakemap/1/" created="1782352432">
	<station code="BOUF" name="BOUF" netid="FR" source="RESIF and other broad-band and accelerometric permanent networks in metropolitan France (RESIF)" insttype="" lat="47.160519" lon="-1.638081" esm:processing="manual (Paolucci et al 2011)" esm:quality="best">
		<comp name="00.HNE" depth="0.0">
			<acc value="0.229941104658153" flag="0"/>
			<vel value="0.095531654550097" flag="0"/>
			<psa03 value="0.497391324735192" flag="0"/>
			<psa10 value="0.119411592931889" flag="0"/>
			<psa30 value="0.0102637524232276" flag="0"/>
		</comp>
		<comp name="00.HNN" depth="0.0">
			<acc value="0.258664846283444" flag="0"/>
			<vel value="0.0834478356468372" flag="0"/>
			<psa03 value="0.421810734557508" flag="0"/>
			<psa10 value="0.0535834446403387" flag="0"/>
			<psa30 value="0.0104835394830545" flag="0"/>
		</comp>
		<comp name="00.HNZ" depth="0.0">
			<acc value="0.209018827010272" flag="0"/>
			<vel value="0.0741117190033511" flag="0"/>
			<psa03 value="0.372246909530864" flag="0"/>
			<psa10 value="0.0722236644635072" flag="0"/>
			<psa30 value="0.00723498011526802" flag="0"/>
		</comp>
	</station>
	<station code="CHIF" name="CHIF" netid="FR" source="RESIF and other broad-band and accelerometric permanent networks in metropolitan France (RESIF)" insttype="" lat="46.13346" lon="-0.40767" esm:processing="manual (Paolucci et al 2011)" esm:quality="good">
		<comp name="00.HNE" depth="0.0">
			<acc value="5.24144239418159" flag="0"/>
			<vel value="0.674704074536903" flag="0"/>
			<psa03 value="2.78881407857755" flag="0"/>
			<psa10 value="0.674072714010708" flag="0"/>
			<psa30 value="0.0463462235433309" flag="0"/>
		</comp>
		<comp name="00.HNN" depth="0.0">
			<acc value="6.10535963885374" flag="0"/>
			<vel value="1.02147998493791" flag="0"/>
			<psa03 value="3.51647161565505" flag="0"/>
			<psa10 value="0.385364158484068" flag="0"/>
			<psa30 value="0.0899632529571748" flag="0"/>
		</comp>
		<comp name="00.HNZ" depth="0.0">
			<acc value="1.77632030017608" flag="0"/>
			<vel value="0.361322470286158" flag="0"/>
			<psa03 value="0.946990650149358" flag="0"/>
			<psa10 value="0.697893632028877" flag="0"/>
			<psa30 value="0.0233299654957313" flag="0"/>
		</comp>
	</station>
	<station code="PYHE" name="PYHE" netid="FR" source="RESIF and other broad-band and accelerometric permanent networks in metropolitan France (RESIF)" insttype="" lat="43.3775" lon="-1.7495" esm:processing="manual (Paolucci et al 2011)" esm:quality="best">
		<comp name="00.HNE" depth="0.0">
			<acc value="0.0170313231017073" flag="0"/>
			<vel value="0.0123357004972063" flag="0"/>
			<psa03 value="0.0509226181650071" flag="0"/>
			<psa10 value="0.0173759098187647" flag="0"/>
			<psa30 value="0.0021235292150547" flag="0"/>
		</comp>
		<comp name="00.HNN" depth="0.0">
			<acc value="0.0147313006475635" flag="0"/>
			<vel value="0.0131290876838227" flag="0"/>
			<psa03 value="0.0493184962751787" flag="0"/>
			<psa10 value="0.0260162253222313" flag="0"/>
			<psa30 value="0.00415375183233877" flag="0"/>
		</comp>
		<comp name="00.HNZ" depth="0.0">
			<acc value="0.0107318144073088" flag="0"/>
			<vel value="0.00730522140471566" flag="0"/>
			<psa03 value="0.0252549230147139" flag="0"/>
			<psa10 value="0.00756485300937484" flag="0"/>
			<psa30 value="0.0028918396951888" flag="0"/>
		</comp>
	</station>
	<station code="OCLD" name="OCLD" netid="RA" source="Reseau Accelerometrique Permanent (French Accelerometrique Network) (RAP)" insttype="" lat="45.77044" lon="3.08852" esm:processing="manual (Paolucci et al 2011)" esm:quality="good">
		<comp name="00.HNE" depth="0.0">
			<acc value="0.152843982965454" flag="0"/>
			<vel value="0.133087229279999" flag="0"/>
			<psa03 value="0.378703920609614" flag="0"/>
			<psa10 value="0.227740631699036" flag="0"/>
			<psa30 value="0.00945645894400475" flag="0"/>
		</comp>
		<comp name="00.HNN" depth="0.0">
			<acc value="0.126698530926889" flag="0"/>
			<vel value="0.155122582768023" flag="0"/>
			<psa03 value="0.603297673845219" flag="0"/>
			<psa10 value="0.240219883388461" flag="0"/>
			<psa30 value="0.0252625735214912" flag="0"/>
		</comp>
		<comp name="00.HNZ" depth="0.0">
			<acc value="0.0565318942057671" flag="0"/>
			<vel value="0.0530436910419442" flag="0"/>
			<psa03 value="0.209574633290898" flag="0"/>
			<psa10 value="0.0686464524904589" flag="0"/>
			<psa30 value="0.00798209710808973" flag="0"/>
		</comp>
	</station>
	<station code="OCMD" name="OCMD" netid="RA" source="Reseau Accelerometrique Permanent (French Accelerometrique Network) (RAP)" insttype="" lat="45.5752" lon="2.8099" esm:processing="manual (Paolucci et al 2011)" esm:quality="good">
		<comp name="00.HNE" depth="0.0">
			<acc value="0.142550176919647" flag="0"/>
			<vel value="0.100000683130794" flag="0"/>
			<psa03 value="0.25697048136647" flag="0"/>
			<psa10 value="0.226527996368125" flag="0"/>
			<psa30 value="0.0130752295031002" flag="0"/>
		</comp>
		<comp name="00.HNN" depth="0.0">
			<acc value="0.12296053847558" flag="0"/>
			<vel value="0.125322000175431" flag="0"/>
			<psa03 value="0.20132277414595" flag="0"/>
			<psa10 value="0.256250395331021" flag="0"/>
			<psa30 value="0.0245120804716887" flag="0"/>
		</comp>
		<comp name="00.HNZ" depth="0.0">
			<acc value="0.0936494606850863" flag="0"/>
			<vel value="0.060003769012922" flag="0"/>
			<psa03 value="0.238624870226629" flag="0"/>
			<psa10 value="0.148128872811033" flag="0"/>
			<psa30 value="0.00639809592580189" flag="0"/>
		</comp>
	</station>
	<station code="OCMN" name="OCMN" netid="RA" source="Reseau Accelerometrique Permanent (French Accelerometrique Network) (RAP)" insttype="" lat="46.3284" lon="2.5889" esm:processing="manual (Paolucci et al 2011)" esm:quality="good">
		<comp name="00.HNE" depth="0.0">
			<acc value="0.0789844549737399" flag="0"/>
			<vel value="0.0590516904363732" flag="0"/>
			<psa03 value="0.17037101541034" flag="0"/>
			<psa10 value="0.0831490007132255" flag="0"/>
			<psa30 value="0.00616725980069014" flag="0"/>
		</comp>
		<comp name="00.HNN" depth="0.0">
			<acc value="0.0996118735047181" flag="0"/>
			<vel value="0.0709379129999282" flag="0"/>
			<psa03 value="0.196420241043467" flag="0"/>
			<psa10 value="0.0707520069731807" flag="0"/>
			<psa30 value="0.0298379332833106" flag="0"/>
		</comp>
		<comp name="00.HNZ" depth="0.0">
			<acc value="0.0538630520010802" flag="0"/>
			<vel value="0.0361743507833052" flag="0"/>
			<psa03 value="0.133164113135707" flag="0"/>
			<psa10 value="0.0641976452787708" flag="0"/>
			<psa30 value="0.00442554567068275" flag="0"/>
		</comp>
	</station>
	<station code="OCOR" name="OCOR" netid="RA" source="Reseau Accelerometrique Permanent (French Accelerometrique Network) (RAP)" insttype="" lat="45.7975" lon="3.0279" esm:processing="manual (Paolucci et al 2011)" esm:quality="good">
		<comp name="00.HNE" depth="0.0">
			<acc value="0.0618803553591197" flag="0"/>
			<vel value="0.0380983286396667" flag="0"/>
			<psa03 value="0.156385995221296" flag="0"/>
			<psa10 value="0.0458455420422448" flag="0"/>
			<psa30 value="0.00269396096169249" flag="0"/>
		</comp>
		<comp name="00.HNN" depth="0.0">
			<acc value="0.0696875300238053" flag="0"/>
			<vel value="0.0587787750766706" flag="0"/>
			<psa03 value="0.192403058258531" flag="0"/>
			<psa10 value="0.107938885421513" flag="0"/>
			<psa30 value="0.00569223041567986" flag="0"/>
		</comp>
		<comp name="00.HNZ" depth="0.0">
			<acc value="0.0329811742128974" flag="0"/>
			<vel value="0.023480455488024" flag="0"/>
			<psa03 value="0.0867594244695618" flag="0"/>
			<psa10 value="0.0448903425150537" flag="0"/>
			<psa30 value="0.00173408018680399" flag="0"/>
		</comp>
	</station>
	<station code="OCSF" name="OCSF" netid="RA" source="Reseau Accelerometrique Permanent (French Accelerometrique Network) (RAP)" insttype="" lat="45.033013" lon="3.09496" esm:processing="manual (Paolucci et al 2011)" esm:quality="good">
		<comp name="00.HNE" depth="0.0">
			<acc value="0.0324905111659224" flag="0"/>
			<vel value="0.0201757628084852" flag="0"/>
			<psa03 value="0.108860273958681" flag="0"/>
			<psa10 value="0.0228345051738874" flag="0"/>
			<psa30 value="0.00461311434617598" flag="0"/>
		</comp>
		<comp name="00.HNN" depth="0.0">
			<acc value="0.0316869939275309" flag="0"/>
			<vel value="0.0234447062507033" flag="0"/>
			<psa03 value="0.118611826201336" flag="0"/>
			<psa10 value="0.0287464568116891" flag="0"/>
			<psa30 value="0.00349343954822404" flag="0"/>
		</comp>
		<comp name="00.HNZ" depth="0.0">
			<acc value="0.042402027529989" flag="0"/>
			<vel value="0.0212612935311217" flag="0"/>
			<psa03 value="0.151699945210392" flag="0"/>
			<psa10 value="0.0178950604599203" flag="0"/>
			<psa30 value="0.00568628543850846" flag="0"/>
		</comp>
	</station>
	<station code="OCSJ" name="OCSJ" netid="RA" source="Reseau Accelerometrique Permanent (French Accelerometrique Network) (RAP)" insttype="" lat="46.0512" lon="2.7334" esm:processing="manual (Paolucci et al 2011)" esm:quality="good">
		<comp name="00.HNE" depth="0.0">
			<acc value="0.0752880440224663" flag="0"/>
			<vel value="0.0293989707447542" flag="0"/>
			<psa03 value="0.11526262516636" flag="0"/>
			<psa10 value="0.0333971736488396" flag="0"/>
			<psa30 value="0.00568879477138628" flag="0"/>
		</comp>
		<comp name="00.HNN" depth="0.0">
			<acc value="0.0887894108568609" flag="0"/>
			<vel value="0.0719377313147146" flag="0"/>
			<psa03 value="0.193788920898111" flag="0"/>
			<psa10 value="0.0848078181015389" flag="0"/>
			<psa30 value="0.00923902370663621" flag="0"/>
		</comp>
		<comp name="00.HNZ" depth="0.0">
			<acc value="0.0514215194639414" flag="0"/>
			<vel value="0.0344082780933877" flag="0"/>
			<psa03 value="0.167815627378377" flag="0"/>
			<psa10 value="0.0600838365093969" flag="0"/>
			<psa30 value="0.006789689783645" flag="0"/>
		</comp>
	</station>
	<station code="PYMO" name="PYMO" netid="RA" source="Reseau Accelerometrique Permanent (French Accelerometrique Network) (RAP)" insttype="" lat="43.42" lon="-0.665" esm:processing="manual (Paolucci et al 2011)" esm:quality="good">
		<comp name="00.HNE" depth="0.0">
			<acc value="0.030789939133682" flag="0"/>
			<vel value="0.0286894886997407" flag="0"/>
			<psa03 value="0.120913530761539" flag="0"/>
			<psa10 value="0.0306597979361308" flag="0"/>
			<psa30 value="0.00681369554056469" flag="0"/>
		</comp>
		<comp name="00.HNN" depth="0.0">
			<acc value="0.0293375047096613" flag="0"/>
			<vel value="0.0359705969349225" flag="0"/>
			<psa03 value="0.110154870136044" flag="0"/>
			<psa10 value="0.0360983838407533" flag="0"/>
			<psa30 value="0.00918493845708487" flag="0"/>
		</comp>
		<comp name="00.HNZ" depth="0.0">
			<acc value="0.0173014419624141" flag="0"/>
			<vel value="0.0200852740299461" flag="0"/>
			<psa03 value="0.0576179158622783" flag="0"/>
			<psa10 value="0.0251458076613651" flag="0"/>
			<psa30 value="0.00453347698725524" flag="0"/>
		</comp>
	</station>
	<station code="PYPC" name="PYPC" netid="RA" source="Reseau Accelerometrique Permanent (French Accelerometrique Network) (RAP)" insttype="" lat="43.295" lon="-0.37523" esm:processing="manual (Paolucci et al 2011)" esm:quality="good">
		<comp name="00.HNE" depth="0.0">
			<acc value="0.0382980604903284" flag="0"/>
			<vel value="0.027665362815801" flag="0"/>
			<psa03 value="0.107022735564355" flag="0"/>
			<psa10 value="0.0439074624038507" flag="0"/>
			<psa30 value="0.00560274032071998" flag="0"/>
		</comp>
		<comp name="00.HNN" depth="0.0">
			<acc value="0.0434735871599333" flag="0"/>
			<vel value="0.0337898766023407" flag="0"/>
			<psa03 value="0.132842279315574" flag="0"/>
			<psa10 value="0.0297820035365688" flag="0"/>
			<psa30 value="0.0051978501654107" flag="0"/>
		</comp>
		<comp name="00.HNZ" depth="0.0">
			<acc value="0.016087376774723" flag="0"/>
			<vel value="0.0136935118036214" flag="0"/>
			<psa03 value="0.0325590292717418" flag="0"/>
			<psa10 value="0.0268188103645531" flag="0"/>
			<psa30 value="0.00536246773716691" flag="0"/>
		</comp>
	</station>
	<station code="QUIF" name="QUIF" netid="RA" source="Reseau Accelerometrique Permanent (French Accelerometrique Network) (RAP)" insttype="" lat="47.91" lon="-3.16" esm:processing="manual (Paolucci et al 2011)" esm:quality="good">
		<comp name="--.HNE" depth="0.0">
			<acc value="0.0781286556902292" flag="0"/>
			<vel value="0.0422787773621034" flag="0"/>
			<psa03 value="0.193627931066973" flag="0"/>
			<psa10 value="0.0650918095130835" flag="0"/>
			<psa30 value="0.00276063996218352" flag="0"/>
		</comp>
		<comp name="--.HNN" depth="0.0">
			<acc value="0.0839279256309868" flag="0"/>
			<vel value="0.0512472921227655" flag="0"/>
			<psa03 value="0.249397854717004" flag="0"/>
			<psa10 value="0.100595013926168" flag="0"/>
			<psa30 value="0.003931377101104" flag="0"/>
		</comp>
		<comp name="--.HNZ" depth="0.0">
			<acc value="0.0509328219136429" flag="0"/>
			<vel value="0.0461448619909016" flag="0"/>
			<psa03 value="0.132000536054148" flag="0"/>
			<psa10 value="0.0381682322080513" flag="0"/>
			<psa30 value="0.00408780996401491" flag="0"/>
		</comp>
	</station>
	<station code="SMFF" name="SMFF" netid="RA" source="Reseau Accelerometrique Permanent (French Accelerometrique Network) (RAP)" insttype="" lat="46.6" lon="-0.13" esm:processing="manual (Paolucci et al 2011)" esm:quality="good">
		<comp name="00.HNE" depth="0.0">
			<acc value="1.73160359361471" flag="0"/>
			<vel value="0.278764437064129" flag="0"/>
			<psa03 value="0.437171543802697" flag="0"/>
			<psa10 value="0.0679780007089886" flag="0"/>
			<psa30 value="0.0153463182849449" flag="0"/>
		</comp>
		<comp name="00.HNN" depth="0.0">
			<acc value="1.21509284771669" flag="0"/>
			<vel value="0.136708689088828" flag="0"/>
			<psa03 value="0.47157036422021" flag="0"/>
			<psa10 value="0.0618232129842524" flag="0"/>
			<psa30 value="0.00923771778681395" flag="0"/>
		</comp>
		<comp name="00.HNZ" depth="0.0">
			<acc value="0.718600996134223" flag="0"/>
			<vel value="0.105550140091911" flag="0"/>
			<psa03 value="0.373693713707729" flag="0"/>
			<psa10 value="0.0677375647813035" flag="0"/>
			<psa30 value="0.0189917064406941" flag="0"/>
		</comp>
	</station>
	<station code="UBQP" name="UBQP" netid="RA" source="Reseau Accelerometrique Permanent (French Accelerometrique Network) (RAP)" insttype="" lat="47.972693" lon="-4.093827" esm:processing="manual (Paolucci et al 2011)" esm:quality="good">
		<comp name="00.HNE" depth="0.0">
			<acc value="0.187543306383113" flag="0"/>
			<vel value="0.0797162474413727" flag="0"/>
			<psa03 value="0.643411622862902" flag="0"/>
			<psa10 value="0.0650448113997096" flag="0"/>
			<psa30 value="0.00528068148590032" flag="0"/>
		</comp>
		<comp name="00.HNN" depth="0.0">
			<acc value="0.170078534499577" flag="0"/>
			<vel value="0.0755687221633329" flag="0"/>
			<psa03 value="0.606170864177075" flag="0"/>
			<psa10 value="0.0581105232869045" flag="0"/>
			<psa30 value="0.00456773675682379" flag="0"/>
		</comp>
		<comp name="00.HNZ" depth="0.0">
			<acc value="0.0718288372121215" flag="0"/>
			<vel value="0.0507951090409289" flag="0"/>
			<psa03 value="0.185148348502697" flag="0"/>
			<psa10 value="0.0619366467490273" flag="0"/>
			<psa30 value="0.0065224529138418" flag="0"/>
		</comp>
	</station>
	<station code="UBVA" name="UBVA" netid="RA" source="Reseau Accelerometrique Permanent (French Accelerometrique Network) (RAP)" insttype="" lat="47.64474" lon="-2.745401" esm:processing="manual (Paolucci et al 2011)" esm:quality="good">
		<comp name="00.HNE" depth="0.0">
			<acc value="0.144399197594897" flag="0"/>
			<vel value="0.102291049355954" flag="0"/>
			<psa03 value="0.336349510671077" flag="0"/>
			<psa10 value="0.0770447063336487" flag="0"/>
			<psa30 value="0.00438284117505144" flag="0"/>
		</comp>
		<comp name="00.HNN" depth="0.0">
			<acc value="0.152224381653495" flag="0"/>
			<vel value="0.0920874721055963" flag="0"/>
			<psa03 value="0.386619028280065" flag="0"/>
			<psa10 value="0.114979864351557" flag="0"/>
			<psa30 value="0.0059539494199216" flag="0"/>
		</comp>
		<comp name="00.HNZ" depth="0.0">
			<acc value="0.0940462345916992" flag="0"/>
			<vel value="0.0923433823312818" flag="0"/>
			<psa03 value="0.204256572662385" flag="0"/>
			<psa10 value="0.11007575447868" flag="0"/>
			<psa30 value="0.00747442514396975" flag="0"/>
		</comp>
	</station>
	<station code="UNIO" name="UNIO" netid="RA" source="Reseau Accelerometrique Permanent (French Accelerometrique Network) (RAP)" insttype="" lat="45.8986" lon="-1.2028" esm:processing="manual (Paolucci et al 2011)" esm:quality="good">
		<comp name="00.HNE" depth="0.0">
			<acc value="1.28541347603745" flag="0"/>
			<vel value="0.630228463278608" flag="0"/>
			<psa03 value="8.25882910687928" flag="0"/>
			<psa10 value="0.195313163538422" flag="0"/>
			<psa30 value="0.0209731560353391" flag="0"/>
		</comp>
		<comp name="00.HNN" depth="0.0">
			<acc value="1.3703568635186" flag="0"/>
			<vel value="0.712835982052222" flag="0"/>
			<psa03 value="8.58024506580871" flag="0"/>
			<psa10 value="0.206571634357061" flag="0"/>
			<psa30 value="0.041574097413244" flag="0"/>
		</comp>
		<comp name="00.HNZ" depth="0.0">
			<acc value="0.280757545224981" flag="0"/>
			<vel value="0.0825870918820755" flag="0"/>
			<psa03 value="0.42120236092238" flag="0"/>
			<psa10 value="0.12273111783422" flag="0"/>
			<psa30 value="0.0293856366542078" flag="0"/>
		</comp>
	</station>
</stationlist>
