<?xml version="1.0" encoding="UTF-8" standalone="yes"?>
<!DOCTYPE earthquake SYSTEM "stationlist.dtd">
<stationlist created="" xmlns="ch.ethz.sed.shakemap.usgs.xml">
  <station code="LEHL" name="LEHL" netid="RO" insttype="Seismometer/Basalt" lat="44.4739" lon="26.8194">
    <comp name="--.HHE">
      <acc value="0.0109271321" flag="0"/>
      <vel value="0.0033233974" flag="0"/>
      <psa03 value="0.0109528603" flag="0"/>
      <psa10 value="0.0009393002" flag="0"/>
      <psa30 value="0.0001265657" flag="0"/>
    </comp>
    <comp name="--.HHN">
      <acc value="0.0141903409" flag="0"/>
      <vel value="0.0047846515" flag="0"/>
      <psa03 value="0.0167967911" flag="0"/>
      <psa10 value="0.0014010798" flag="0"/>
      <psa30 value="0.0001230716" flag="0"/>
    </comp>
    <comp name="--.HHZ">
      <acc value="0.0181589417" flag="0"/>
      <vel value="0.0025895664" flag="0"/>
      <psa03 value="0.0049212502" flag="0"/>
      <psa10 value="0.0006728378" flag="0"/>
      <psa30 value="0.0000488259" flag="0"/>
    </comp>
  </station>
  <station code="MLR" name="MLR" netid="RO" insttype="330HR" lat="45.4909" lon="25.945">
    <comp name="--.HHE">
      <acc value="0.0403100360" flag="0"/>
      <vel value="0.0175962557" flag="0"/>
      <psa03 value="0.0743286242" flag="0"/>
      <psa10 value="0.0148486330" flag="0"/>
      <psa30 value="0.0015557513" flag="0"/>
    </comp>
    <comp name="--.HHN">
      <acc value="0.0390338473" flag="0"/>
      <vel value="0.0257730725" flag="0"/>
      <psa03 value="0.0773661828" flag="0"/>
      <psa10 value="0.0189225552" flag="0"/>
      <psa30 value="0.0019099705" flag="0"/>
    </comp>
    <comp name="--.HHZ">
      <acc value="0.0062197559" flag="0"/>
      <vel value="0.0030126633" flag="0"/>
      <psa03 value="0.0059404546" flag="0"/>
      <psa10 value="0.0018167647" flag="0"/>
      <psa30 value="0.0001260435" flag="0"/>
    </comp>
  </station>
  <station code="PLOR" name="PLOR" netid="RO" insttype="330" lat="45.8512" lon="26.6498">
    <comp name="--.HHZ">
      <acc value="0.0046800297" flag="0"/>
      <vel value="0.0019688742" flag="0"/>
      <psa03 value="0.0158976294" flag="0"/>
      <psa10 value="0.0011248859" flag="0"/>
      <psa30 value="0.0000765124" flag="0"/>
    </comp>
    <comp name="--.HHE">
      <acc value="0.0098704996" flag="0"/>
      <vel value="0.0041761584" flag="0"/>
      <psa03 value="0.0360997828" flag="0"/>
      <psa10 value="0.0030018520" flag="0"/>
      <psa30 value="0.0001482611" flag="0"/>
    </comp>
    <comp name="--.HHN">
      <acc value="0.0091816528" flag="0"/>
      <vel value="0.0039559428" flag="0"/>
      <psa03 value="0.0365494148" flag="0"/>
      <psa10 value="0.0019771462" flag="0"/>
      <psa30 value="0.0001654933" flag="0"/>
    </comp>
  </station>
  <station code="PLOR4" name="PLOR4" netid="RO" insttype="330" lat="45.8512" lon="26.6498">
    <comp name="--.HHE">
      <acc value="0.0098704996" flag="0"/>
      <vel value="0.0041761584" flag="0"/>
      <psa03 value="0.0360997828" flag="0"/>
      <psa10 value="0.0030018520" flag="0"/>
      <psa30 value="0.0001482611" flag="0"/>
    </comp>
    <comp name="--.HHZ">
      <acc value="0.0046800297" flag="0"/>
      <vel value="0.0019688742" flag="0"/>
      <psa03 value="0.0158976294" flag="0"/>
      <psa10 value="0.0011248859" flag="0"/>
      <psa30 value="0.0000765124" flag="0"/>
    </comp>
    <comp name="--.HHN">
      <acc value="0.0091816528" flag="0"/>
      <vel value="0.0039559428" flag="0"/>
      <psa03 value="0.0365494148" flag="0"/>
      <psa10 value="0.0019771462" flag="0"/>
      <psa30 value="0.0001654933" flag="0"/>
    </comp>
  </station>
  <station code="SULR" name="SULR" netid="RO" insttype="330" lat="44.6777" lon="26.2526">
    <comp name="--.HHE">
      <acc value="0.0332206309" flag="0"/>
      <vel value="0.0172244888" flag="0"/>
      <psa03 value="0.0447402556" flag="0"/>
      <psa10 value="0.0100516536" flag="0"/>
      <psa30 value="0.0005770652" flag="0"/>
    </comp>
    <comp name="--.HHN">
      <acc value="0.0265606581" flag="0"/>
      <vel value="0.0096874154" flag="0"/>
      <psa03 value="0.0453456665" flag="0"/>
      <psa10 value="0.0044988930" flag="0"/>
      <psa30 value="0.0004930648" flag="0"/>
    </comp>
    <comp name="--.HHZ">
      <acc value="0.0358742161" flag="0"/>
      <vel value="0.0114269074" flag="0"/>
      <psa03 value="0.0263061478" flag="0"/>
      <psa10 value="0.0020759545" flag="0"/>
      <psa30 value="0.0002338557" flag="0"/>
    </comp>
  </station>
  <station code="TESR" name="TESR" netid="RO" insttype="330" lat="46.5118" lon="26.6489">
    <comp name="--.HHN">
      <acc value="0.0066043955" flag="0"/>
      <vel value="0.0037975358" flag="0"/>
      <psa03 value="0.0158502565" flag="0"/>
      <psa10 value="0.0019500421" flag="0"/>
      <psa30 value="0.0002068824" flag="0"/>
    </comp>
    <comp name="--.HHE">
      <acc value="0.0075213770" flag="0"/>
      <vel value="0.0036478220" flag="0"/>
      <psa03 value="0.0215935653" flag="0"/>
      <psa10 value="0.0023887643" flag="0"/>
      <psa30 value="0.0001556507" flag="0"/>
    </comp>
    <comp name="--.HHZ">
      <acc value="0.0066564656" flag="0"/>
      <vel value="0.0010644330" flag="0"/>
      <psa03 value="0.0050619180" flag="0"/>
      <psa10 value="0.0006778793" flag="0"/>
      <psa30 value="0.0000665076" flag="0"/>
    </comp>
  </station>
  <station code="VOIR" name="VOIR" netid="RO" insttype="330" lat="45.4371" lon="25.0495">
    <comp name="--.HHE">
      <acc value="0.0070540467" flag="0"/>
      <vel value="0.0024098125" flag="0"/>
      <psa03 value="0.0071179995" flag="0"/>
      <psa10 value="0.0009696861" flag="0"/>
      <psa30 value="0.0001020051" flag="0"/>
    </comp>
    <comp name="--.HHZ">
      <acc value="0.0029956262" flag="0"/>
      <vel value="0.0011960372" flag="0"/>
      <psa03 value="0.0061171686" flag="0"/>
      <psa10 value="0.0006560074" flag="0"/>
      <psa30 value="0.0000488867" flag="0"/>
    </comp>
    <comp name="--.HHN">
      <acc value="0.0058178056" flag="0"/>
      <vel value="0.0017520595" flag="0"/>
      <psa03 value="0.0093312514" flag="0"/>
      <psa10 value="0.0006995649" flag="0"/>
      <psa30 value="0.0000619156" flag="0"/>
    </comp>
  </station>
  <station code="VRI" name="VRI" netid="RO" insttype="Linear" lat="45.8657" lon="26.7277">
    <comp name="--.HHN">
      <acc value="0.0306131917" flag="0"/>
      <vel value="0.0108123990" flag="0"/>
      <psa03 value="0.0823553768" flag="0"/>
      <psa10 value="0.0039489247" flag="0"/>
      <psa30 value="0.0003336662" flag="0"/>
    </comp>
    <comp name="--.HHE">
      <acc value="0.0625125765" flag="0"/>
      <vel value="0.0277789700" flag="0"/>
      <psa03 value="0.2189090300" flag="0"/>
      <psa10 value="0.0069732065" flag="0"/>
      <psa30 value="0.0007151408" flag="0"/>
    </comp>
    <comp name="--.HHZ">
      <acc value="0.0075165895" flag="0"/>
      <vel value="0.0031200480" flag="0"/>
      <psa03 value="0.0345952181" flag="0"/>
      <psa10 value="0.0029270967" flag="0"/>
      <psa30 value="0.0001336262" flag="0"/>
    </comp>
  </station>
</stationlist>
