<stationlist created="1778138893">
	<station code="KUBB" name="KUBB" netid="BS" source="National Seismic Network of Bulgaria (BS)" insttype="" lat="43.8024" lon="26.4941">
		<comp name="--.HNE" depth="0.0">
			<acc value="0.0224785300418615" flag="0"/>
			<vel value="0.00596547842188742" flag="0"/>
			<psa03 value="0.0272169904920267" flag="0"/>
			<psa10 value="0.00141073376668838" flag="0"/>
			<psa30 value="0.000108255869336693" flag="0"/>
		</comp>
		<comp name="--.HNN" depth="0.0">
			<acc value="0.0160519391506674" flag="0"/>
			<vel value="0.00387778713718556" flag="0"/>
			<psa03 value="0.0296035340055067" flag="0"/>
			<psa10 value="0.00203043325623721" flag="0"/>
			<psa30 value="0.000201885170776804" flag="0"/>
		</comp>
		<comp name="--.HNZ" depth="0.0">
			<acc value="0.0064548592958436" flag="0"/>
			<vel value="0.00181545709830696" flag="0"/>
			<psa03 value="0.00593586587824683" flag="0"/>
			<psa10 value="0.00107137062148453" flag="0"/>
			<psa30 value="8.89321738722642e-05" flag="0"/>
		</comp>
	</station>
	<station code="RAZG" name="RAZG" netid="BS" source="National Seismic Network of Bulgaria (BS)" insttype="" lat="43.5662" lon="26.5079">
		<comp name="--.HNE" depth="0.0">
			<acc value="0.0100263595215621" flag="0"/>
			<vel value="0.00241037567803732" flag="0"/>
			<psa03 value="0.00524693287000242" flag="0"/>
			<psa10 value="0.00146501826120695" flag="0"/>
			<psa30 value="8.59940169942166e-05" flag="0"/>
		</comp>
		<comp name="--.HNN" depth="0.0">
			<acc value="0.00840954205537652" flag="0"/>
			<vel value="0.00218482857727144" flag="0"/>
			<psa03 value="0.00442494059153665" flag="0"/>
			<psa10 value="0.00159220946043766" flag="0"/>
			<psa30 value="0.000178743767980569" flag="0"/>
		</comp>
		<comp name="--.HNZ" depth="0.0">
			<acc value="0.00484398278211259" flag="0"/>
			<vel value="0.00114095678573931" flag="0"/>
			<psa03 value="0.00401884500480165" flag="0"/>
			<psa10 value="0.000512372594512677" flag="0"/>
			<psa30 value="8.5844573500227e-05" flag="0"/>
		</comp>
	</station>
	<station code="RUSAM" name="RUSAM" netid="BS" source="National Seismic Network of Bulgaria (BS)" insttype="" lat="43.8462" lon="25.9612">
		<comp name="--.HNE" depth="0.0">
			<acc value="0.00860872637322736" flag="0"/>
			<vel value="0.00494731856519691" flag="0"/>
			<psa03 value="0.0204361519718697" flag="0"/>
			<psa10 value="0.00319437770559638" flag="0"/>
			<psa30 value="0.000219873133224529" flag="0"/>
		</comp>
		<comp name="--.HNN" depth="0.0">
			<acc value="0.00702898177441539" flag="0"/>
			<vel value="0.0031399609351679" flag="0"/>
			<psa03 value="0.0206227320402096" flag="0"/>
			<psa10 value="0.00303003549060415" flag="0"/>
			<psa30 value="0.000374635286499122" flag="0"/>
		</comp>
		<comp name="--.HNZ" depth="0.0">
			<acc value="0.00785761884527989" flag="0"/>
			<vel value="0.00252634211815976" flag="0"/>
			<psa03 value="0.0107768571430756" flag="0"/>
			<psa10 value="0.000953895612779381" flag="0"/>
			<psa30 value="0.000130279580903688" flag="0"/>
		</comp>
	</station>
	<station code="SILAM" name="SILAM" netid="BS" source="National Seismic Network of Bulgaria (BS)" insttype="" lat="44.1046" lon="27.2665">
		<comp name="--.HNE" depth="0.0">
			<acc value="0.000873782653855926" flag="0"/>
			<vel value="0.000499852900242675" flag="0"/>
			<psa03 value="0.0123782705205186" flag="0"/>
			<psa10 value="0.00109907124557645" flag="0"/>
			<psa30 value="0.000884479634103482" flag="0"/>
		</comp>
		<comp name="--.HNN" depth="0.0">
			<acc value="0.00213065539529402" flag="0"/>
			<vel value="0.00107172328362411" flag="0"/>
			<psa03 value="0.0474842028872393" flag="0"/>
			<psa10 value="0.00129256367287651" flag="0"/>
			<psa30 value="0.000117750808225484" flag="0"/>
		</comp>
		<comp name="--.HNZ" depth="0.0">
			<acc value="0.000308997236719055" flag="0"/>
			<vel value="0.000216739920321842" flag="0"/>
			<psa03 value="0.00687833911974672" flag="0"/>
			<psa10 value="0.000420856805480486" flag="0"/>
			<psa30 value="4.71031170953188e-05" flag="0"/>
		</comp>
	</station>
	<station code="HUMR" name="HUMR" netid="RO" source="Romanian Seismic Network (NIEP)" insttype="" lat="44.5281" lon="24.9804">
		<comp name="--.HNE" depth="0.0">
			<acc value="0.105896822897391" flag="0"/>
			<vel value="0.0375022601224733" flag="0"/>
			<psa03 value="0.20261644317844" flag="0"/>
			<psa10 value="0.0164593809782035" flag="0"/>
			<psa30 value="0.000990898558831754" flag="0"/>
		</comp>
		<comp name="--.HNN" depth="0.0">
			<acc value="0.06107299575844" flag="0"/>
			<vel value="0.0229380687620966" flag="0"/>
			<psa03 value="0.109619668015238" flag="0"/>
			<psa10 value="0.00915333730118711" flag="0"/>
			<psa30 value="0.000917231699598567" flag="0"/>
		</comp>
		<comp name="--.HNZ" depth="0.0">
			<acc value="0.0496885665356627" flag="0"/>
			<vel value="0.0112877584666602" flag="0"/>
			<psa03 value="0.0223490039493188" flag="0"/>
			<psa10 value="0.00220044983150274" flag="0"/>
			<psa30 value="0.000207049653523385" flag="0"/>
		</comp>
	</station>
	<station code="LEHL" name="LEHL" netid="RO" source="Romanian Seismic Network (NIEP)" insttype="" lat="44.4739" lon="26.8194">
		<comp name="--.HNE" depth="0.0">
			<acc value="0.0327700734583119" flag="0"/>
			<vel value="0.00965333804164759" flag="0"/>
			<psa03 value="0.0319363239580437" flag="0"/>
			<psa10 value="0.00293326290802324" flag="0"/>
			<psa30 value="0.000388898627208577" flag="0"/>
		</comp>
		<comp name="--.HNN" depth="0.0">
			<acc value="0.0417463614088221" flag="0"/>
			<vel value="0.0138571241001421" flag="0"/>
			<psa03 value="0.0508248564806822" flag="0"/>
			<psa10 value="0.00442166525737029" flag="0"/>
			<psa30 value="0.000400586484805389" flag="0"/>
		</comp>
		<comp name="--.HNZ" depth="0.0">
			<acc value="0.0504381707620605" flag="0"/>
			<vel value="0.00758206860223183" flag="0"/>
			<psa03 value="0.0147776260806118" flag="0"/>
			<psa10 value="0.00204814614838248" flag="0"/>
			<psa30 value="0.000165045021964433" flag="0"/>
		</comp>
	</station>
	<station code="LEOM" name="LEOM" netid="RO" source="Romanian Seismic Network (NIEP)" insttype="" lat="46.4733" lon="28.2467">
		<comp name="--.HNE" depth="0.0">
			<acc value="0.107628293505713" flag="0"/>
			<vel value="0.0433998204990911" flag="0"/>
			<psa03 value="0.244701585279177" flag="0"/>
			<psa10 value="0.013692134536733" flag="0"/>
			<psa30 value="0.00100689607692512" flag="0"/>
		</comp>
		<comp name="--.HNN" depth="0.0">
			<acc value="0.125000317192774" flag="0"/>
			<vel value="0.0551462821937788" flag="0"/>
			<psa03 value="0.358011258155653" flag="0"/>
			<psa10 value="0.0158248858210244" flag="0"/>
			<psa30 value="0.00116399856752561" flag="0"/>
		</comp>
		<comp name="--.HNZ" depth="0.0">
			<acc value="0.0781686622698033" flag="0"/>
			<vel value="0.0202505705566662" flag="0"/>
			<psa03 value="0.196649672909055" flag="0"/>
			<psa10 value="0.00633194149129462" flag="0"/>
			<psa30 value="0.000698956198251989" flag="0"/>
		</comp>
	</station>
	<station code="LOT" name="LOT" netid="RO" source="Romanian Seismic Network (NIEP)" insttype="" lat="45.446" lon="23.7698">
		<comp name="--.HNE" depth="0.0">
			<acc value="0.0120462647697302" flag="0"/>
			<vel value="0.0030796599283623" flag="0"/>
			<psa03 value="0.0101939396213911" flag="0"/>
			<psa10 value="0.000918925425080553" flag="0"/>
			<psa30 value="0.000121970905494515" flag="0"/>
		</comp>
		<comp name="--.HNN" depth="0.0">
			<acc value="0.0144839751982163" flag="0"/>
			<vel value="0.00286066385346053" flag="0"/>
			<psa03 value="0.00817455324277296" flag="0"/>
			<psa10 value="0.00148012297275981" flag="0"/>
			<psa30 value="5.74176057177813e-05" flag="0"/>
		</comp>
		<comp name="--.HNZ" depth="0.0">
			<acc value="0.0114921442657309" flag="0"/>
			<vel value="0.00261892178991908" flag="0"/>
			<psa03 value="0.0046600694489114" flag="0"/>
			<psa10 value="0.000591826998604301" flag="0"/>
			<psa30 value="4.94951180015543e-05" flag="0"/>
		</comp>
	</station>
	<station code="MLR" name="MLR" netid="RO" source="Romanian Seismic Network (NIEP)" insttype="" lat="45.4909" lon="25.945">
		<comp name="--.HNE" depth="0.0">
			<acc value="0.00397007465475654" flag="0"/>
			<vel value="0.00185795113178399" flag="0"/>
			<psa03 value="0.00751645495950072" flag="0"/>
			<psa10 value="0.001478457745259" flag="0"/>
			<psa30 value="0.000165043407274124" flag="0"/>
		</comp>
		<comp name="--.HNN" depth="0.0">
			<acc value="0.00378932592640004" flag="0"/>
			<vel value="0.00260339294176568" flag="0"/>
			<psa03 value="0.00769897095652604" flag="0"/>
			<psa10 value="0.00192625170628463" flag="0"/>
			<psa30 value="0.000195003699288013" flag="0"/>
		</comp>
		<comp name="--.HNZ" depth="0.0">
			<acc value="0.00603085273224823" flag="0"/>
			<vel value="0.00300161557695354" flag="0"/>
			<psa03 value="0.00590315537800666" flag="0"/>
			<psa10 value="0.00183012451801912" flag="0"/>
			<psa30 value="0.000140883226051516" flag="0"/>
		</comp>
	</station>
	<station code="OTISU" name="OTISU" netid="RO" source="Romanian Seismic Network (NIEP)" insttype="" lat="44.4278" lon="24.3755">
		<comp name="--.HNE" depth="0.0">
			<acc value="0.0393886360528995" flag="0"/>
			<vel value="0.00938607251105937" flag="0"/>
			<psa03 value="0.0300456700657012" flag="0"/>
			<psa10 value="0.005925506910748" flag="0"/>
			<psa30 value="0.000293442017218391" flag="0"/>
		</comp>
		<comp name="--.HNN" depth="0.0">
			<acc value="0.0295969200125406" flag="0"/>
			<vel value="0.00759299488450963" flag="0"/>
			<psa03 value="0.0268038823964796" flag="0"/>
			<psa10 value="0.00571316315650815" flag="0"/>
			<psa30 value="0.000488614295382219" flag="0"/>
		</comp>
		<comp name="--.HNZ" depth="0.0">
			<acc value="0.0480695596673832" flag="0"/>
			<vel value="0.00648622611870383" flag="0"/>
			<psa03 value="0.0132257511410942" flag="0"/>
			<psa10 value="0.00162321487376794" flag="0"/>
			<psa30 value="9.4873075240276e-05" flag="0"/>
		</comp>
	</station>
	<station code="PLOR" name="PLOR" netid="RO" source="Romanian Seismic Network (NIEP)" insttype="" lat="45.8512" lon="26.6498">
		<comp name="--.HNE" depth="0.0">
			<acc value="0.0180293787680785" flag="0"/>
			<vel value="0.00727712955939357" flag="0"/>
			<psa03 value="0.0593341962243973" flag="0"/>
			<psa10 value="0.00551273675426866" flag="0"/>
			<psa30 value="0.000298068339314522" flag="0"/>
		</comp>
		<comp name="--.HNN" depth="0.0">
			<acc value="0.0181265946058269" flag="0"/>
			<vel value="0.0075948050429801" flag="0"/>
			<psa03 value="0.0745208480987611" flag="0"/>
			<psa10 value="0.00354579426646878" flag="0"/>
			<psa30 value="0.000350906136434402" flag="0"/>
		</comp>
		<comp name="--.HNZ" depth="0.0">
			<acc value="0.00947784547966802" flag="0"/>
			<vel value="0.00400891816314901" flag="0"/>
			<psa03 value="0.0333080398274984" flag="0"/>
			<psa10 value="0.00236232344546122" flag="0"/>
			<psa30 value="0.00013909065938596" flag="0"/>
		</comp>
	</station>
	<station code="PLOR4" name="PLOR4" netid="RO" source="Romanian Seismic Network (NIEP)" insttype="" lat="45.8512" lon="26.6498">
		<comp name="--.HNE" depth="0.0">
			<acc value="0.0180293776137651" flag="0"/>
			<vel value="0.00727695980991003" flag="0"/>
			<psa03 value="0.0593341962243973" flag="0"/>
			<psa10 value="0.0055127381605878" flag="0"/>
			<psa30 value="0.000298120243794516" flag="0"/>
		</comp>
		<comp name="--.HNN" depth="0.0">
			<acc value="0.0181265973313675" flag="0"/>
			<vel value="0.00759489938965611" flag="0"/>
			<psa03 value="0.0745208480987611" flag="0"/>
			<psa10 value="0.00354579567281209" flag="0"/>
			<psa30 value="0.000350854284041048" flag="0"/>
		</comp>
		<comp name="--.HNZ" depth="0.0">
			<acc value="0.00947784586237332" flag="0"/>
			<vel value="0.00400887585360884" flag="0"/>
			<psa03 value="0.0333080398274984" flag="0"/>
			<psa10 value="0.00236232344546122" flag="0"/>
			<psa30 value="0.000139115556868704" flag="0"/>
		</comp>
	</station>
	<station code="SULR" name="SULR" netid="RO" source="Romanian Seismic Network (NIEP)" insttype="" lat="44.6777" lon="26.2526">
		<comp name="--.HNE" depth="0.0">
			<acc value="0.0381560691222927" flag="0"/>
			<vel value="0.0179320051615915" flag="0"/>
			<psa03 value="0.0411869784352049" flag="0"/>
			<psa10 value="0.00977585135215763" flag="0"/>
			<psa30 value="0.000594083938479848" flag="0"/>
		</comp>
		<comp name="--.HNN" depth="0.0">
			<acc value="0.0397520375941973" flag="0"/>
			<vel value="0.0119810610869027" flag="0"/>
			<psa03 value="0.042925096181141" flag="0"/>
			<psa10 value="0.00461472148391112" flag="0"/>
			<psa30 value="0.000506751955248036" flag="0"/>
		</comp>
		<comp name="--.HNZ" depth="0.0">
			<acc value="0.0351444024805175" flag="0"/>
			<vel value="0.0119032230805133" flag="0"/>
			<psa03 value="0.0280660337161374" flag="0"/>
			<psa10 value="0.00217760824023312" flag="0"/>
			<psa30 value="0.000231995446684634" flag="0"/>
		</comp>
	</station>
	<station code="TESR" name="TESR" netid="RO" source="Romanian Seismic Network (NIEP)" insttype="" lat="46.5118" lon="26.6489">
		<comp name="--.HNE" depth="0.0">
			<acc value="0.00764104892706463" flag="0"/>
			<vel value="0.00366697191060311" flag="0"/>
			<psa03 value="0.0217928447106534" flag="0"/>
			<psa10 value="0.00241822347668929" flag="0"/>
			<psa30 value="0.000169545359152034" flag="0"/>
		</comp>
		<comp name="--.HNN" depth="0.0">
			<acc value="0.00621463941066604" flag="0"/>
			<vel value="0.0037272197583736" flag="0"/>
			<psa03 value="0.015791678933733" flag="0"/>
			<psa10 value="0.00199644475466877" flag="0"/>
			<psa30 value="0.000231551068288487" flag="0"/>
		</comp>
		<comp name="--.HNZ" depth="0.0">
			<acc value="0.00635770655565922" flag="0"/>
			<vel value="0.00108450305125243" flag="0"/>
			<psa03 value="0.00495696151241039" flag="0"/>
			<psa10 value="0.00069895319675014" flag="0"/>
			<psa30 value="8.56696400369028e-05" flag="0"/>
		</comp>
	</station>
	<station code="VOIR" name="VOIR" netid="RO" source="Romanian Seismic Network (NIEP)" insttype="" lat="45.4371" lon="25.0495">
		<comp name="--.HNE" depth="0.0">
			<acc value="0.0058135011624396" flag="0"/>
			<vel value="0.00232620011135645" flag="0"/>
			<psa03 value="0.00965205411476875" flag="0"/>
			<psa10 value="0.000567084207169081" flag="0"/>
			<psa30 value="7.43055669103672e-05" flag="0"/>
		</comp>
		<comp name="--.HNN" depth="0.0">
			<acc value="0.00674309321582701" flag="0"/>
			<vel value="0.00190751872984645" flag="0"/>
			<psa03 value="0.00616864562168189" flag="0"/>
			<psa10 value="0.000957439831938798" flag="0"/>
			<psa30 value="8.27833485739811e-05" flag="0"/>
		</comp>
		<comp name="--.HNZ" depth="0.0">
			<acc value="0.00291780443703811" flag="0"/>
			<vel value="0.00118914917980691" flag="0"/>
			<psa03 value="0.0061697426995591" flag="0"/>
			<psa10 value="0.000644088937263566" flag="0"/>
			<psa30 value="6.49340541667093e-05" flag="0"/>
		</comp>
	</station>
</stationlist>
