<?xml version="1.0" encoding="UTF-8" standalone="yes"?>
<!DOCTYPE earthquake SYSTEM "stationlist.dtd">
<stationlist created="" xmlns="ch.ethz.sed.shakemap.usgs.xml">
  <station code="LEHL" name="LEHL" netid="RO" insttype="Seismometer/Basalt" lat="44.4739" lon="26.8194">
    <comp name="--.HHZ">
      <acc value="0.0181589419" flag="0"/>
      <vel value="0.0025895663" flag="0"/>
      <psa03 value="0.0049212502" flag="0"/>
      <psa10 value="0.0006728347" flag="0"/>
      <psa30 value="0.0000488245" flag="0"/>
    </comp>
    <comp name="--.HHN">
      <acc value="0.0141903410" flag="0"/>
      <vel value="0.0047846511" flag="0"/>
      <psa03 value="0.0167967911" flag="0"/>
      <psa10 value="0.0014010798" flag="0"/>
      <psa30 value="0.0001230844" flag="0"/>
    </comp>
    <comp name="--.HHE">
      <acc value="0.0109271321" flag="0"/>
      <vel value="0.0033233975" flag="0"/>
      <psa03 value="0.0109528603" flag="0"/>
      <psa10 value="0.0009393002" flag="0"/>
      <psa30 value="0.0001265619" flag="0"/>
    </comp>
  </station>
  <station code="MLR" name="MLR" netid="RO" insttype="330HR" lat="45.4909" lon="25.945">
    <comp name="--.HHE">
      <acc value="0.0403100358" flag="0"/>
      <vel value="0.0175962545" flag="0"/>
      <psa03 value="0.0743286242" flag="0"/>
      <psa10 value="0.0148486330" flag="0"/>
      <psa30 value="0.0015557831" flag="0"/>
    </comp>
    <comp name="--.HHN">
      <acc value="0.0390338475" flag="0"/>
      <vel value="0.0257730729" flag="0"/>
      <psa03 value="0.0773661828" flag="0"/>
      <psa10 value="0.0189225552" flag="0"/>
      <psa30 value="0.0019099932" flag="0"/>
    </comp>
    <comp name="--.HHZ">
      <acc value="0.0062197559" flag="0"/>
      <vel value="0.0030126633" flag="0"/>
      <psa03 value="0.0059404546" flag="0"/>
      <psa10 value="0.0018167649" flag="0"/>
      <psa30 value="0.0001260352" flag="0"/>
    </comp>
  </station>
  <station code="PLOR" name="PLOR" netid="RO" insttype="330" lat="45.8512" lon="26.6498">
    <comp name="--.HHE">
      <acc value="0.0098704996" flag="0"/>
      <vel value="0.0041761585" flag="0"/>
      <psa03 value="0.0360997828" flag="0"/>
      <psa10 value="0.0030018520" flag="0"/>
      <psa30 value="0.0001482611" flag="0"/>
    </comp>
    <comp name="--.HHZ">
      <acc value="0.0046800297" flag="0"/>
      <vel value="0.0019688742" flag="0"/>
      <psa03 value="0.0158976294" flag="0"/>
      <psa10 value="0.0011248859" flag="0"/>
      <psa30 value="0.0000765123" flag="0"/>
    </comp>
    <comp name="--.HHN">
      <acc value="0.0091816528" flag="0"/>
      <vel value="0.0039559430" flag="0"/>
      <psa03 value="0.0365494148" flag="0"/>
      <psa10 value="0.0019771462" flag="0"/>
      <psa30 value="0.0001654897" flag="0"/>
    </comp>
  </station>
  <station code="PLOR4" name="PLOR4" netid="RO" insttype="330" lat="45.8512" lon="26.6498">
    <comp name="--.HHN">
      <acc value="0.0091816528" flag="0"/>
      <vel value="0.0039559430" flag="0"/>
      <psa03 value="0.0365494148" flag="0"/>
      <psa10 value="0.0019771462" flag="0"/>
      <psa30 value="0.0001654897" flag="0"/>
    </comp>
    <comp name="--.HHE">
      <acc value="0.0098704996" flag="0"/>
      <vel value="0.0041761585" flag="0"/>
      <psa03 value="0.0360997828" flag="0"/>
      <psa10 value="0.0030018520" flag="0"/>
      <psa30 value="0.0001482611" flag="0"/>
    </comp>
    <comp name="--.HHZ">
      <acc value="0.0046800297" flag="0"/>
      <vel value="0.0019688742" flag="0"/>
      <psa03 value="0.0158976294" flag="0"/>
      <psa10 value="0.0011248859" flag="0"/>
      <psa30 value="0.0000765123" flag="0"/>
    </comp>
  </station>
  <station code="SULR" name="SULR" netid="RO" insttype="330" lat="44.6777" lon="26.2526">
    <comp name="--.HHE">
      <acc value="0.0332206309" flag="0"/>
      <vel value="0.0172244887" flag="0"/>
      <psa03 value="0.0447402556" flag="0"/>
      <psa10 value="0.0100516536" flag="0"/>
      <psa30 value="0.0005770574" flag="0"/>
    </comp>
    <comp name="--.HHZ">
      <acc value="0.0358742162" flag="0"/>
      <vel value="0.0114269069" flag="0"/>
      <psa03 value="0.0263061478" flag="0"/>
      <psa10 value="0.0020759529" flag="0"/>
      <psa30 value="0.0002337913" flag="0"/>
    </comp>
    <comp name="--.HHN">
      <acc value="0.0265606582" flag="0"/>
      <vel value="0.0096874146" flag="0"/>
      <psa03 value="0.0453456665" flag="0"/>
      <psa10 value="0.0044988931" flag="0"/>
      <psa30 value="0.0004930653" flag="0"/>
    </comp>
  </station>
  <station code="TESR" name="TESR" netid="RO" insttype="330" lat="46.5118" lon="26.6489">
    <comp name="--.HHE">
      <acc value="0.0075213772" flag="0"/>
      <vel value="0.0036478222" flag="0"/>
      <psa03 value="0.0215935653" flag="0"/>
      <psa10 value="0.0023887643" flag="0"/>
      <psa30 value="0.0001556450" flag="0"/>
    </comp>
    <comp name="--.HHN">
      <acc value="0.0066043956" flag="0"/>
      <vel value="0.0037975365" flag="0"/>
      <psa03 value="0.0158502565" flag="0"/>
      <psa10 value="0.0019500421" flag="0"/>
      <psa30 value="0.0002069049" flag="0"/>
    </comp>
    <comp name="--.HHZ">
      <acc value="0.0066564656" flag="0"/>
      <vel value="0.0010644332" flag="0"/>
      <psa03 value="0.0050619180" flag="0"/>
      <psa10 value="0.0006778793" flag="0"/>
      <psa30 value="0.0000665091" flag="0"/>
    </comp>
  </station>
  <station code="VOIR" name="VOIR" netid="RO" insttype="330" lat="45.4371" lon="25.0495">
    <comp name="--.HHN">
      <acc value="0.0058178056" flag="0"/>
      <vel value="0.0017520596" flag="0"/>
      <psa03 value="0.0093312514" flag="0"/>
      <psa10 value="0.0006995649" flag="0"/>
      <psa30 value="0.0000619168" flag="0"/>
    </comp>
    <comp name="--.HHE">
      <acc value="0.0070540467" flag="0"/>
      <vel value="0.0024098125" flag="0"/>
      <psa03 value="0.0071179995" flag="0"/>
      <psa10 value="0.0009696861" flag="0"/>
      <psa30 value="0.0001020068" flag="0"/>
    </comp>
    <comp name="--.HHZ">
      <acc value="0.0029956261" flag="0"/>
      <vel value="0.0011960372" flag="0"/>
      <psa03 value="0.0061171686" flag="0"/>
      <psa10 value="0.0006560074" flag="0"/>
      <psa30 value="0.0000488868" flag="0"/>
    </comp>
  </station>
  <station code="VRI" name="VRI" netid="RO" insttype="Linear" lat="45.8657" lon="26.7277">
    <comp name="--.HHZ">
      <acc value="0.0075165895" flag="0"/>
      <vel value="0.0031200480" flag="0"/>
      <psa03 value="0.0345952181" flag="0"/>
      <psa10 value="0.0029270967" flag="0"/>
      <psa30 value="0.0001336265" flag="0"/>
    </comp>
    <comp name="--.HHE">
      <acc value="0.0625125765" flag="0"/>
      <vel value="0.0277789700" flag="0"/>
      <psa03 value="0.2189090300" flag="0"/>
      <psa10 value="0.0069732065" flag="0"/>
      <psa30 value="0.0007151409" flag="0"/>
    </comp>
    <comp name="--.HHN">
      <acc value="0.0306131917" flag="0"/>
      <vel value="0.0108123990" flag="0"/>
      <psa03 value="0.0823553768" flag="0"/>
      <psa10 value="0.0039489247" flag="0"/>
      <psa30 value="0.0003336673" flag="0"/>
    </comp>
  </station>
</stationlist>
