<?xml version="1.0" encoding="UTF-8" standalone="yes"?>
<!DOCTYPE earthquake SYSTEM "stationlist.dtd">
<stationlist created="" xmlns="ch.ethz.sed.shakemap.usgs.xml">
  <station code="ZKR" name="ZKR" netid="GE" source="GFZ" insttype="STS-2/N" lat="35.1147" lon="26.2169">
    <comp name="--.HHE">
      <acc value="0.0136968412" flag="0"/>
      <vel value="0.0074511502" flag="0"/>
      <psa03 value="0.0481014060" flag="0"/>
      <psa10 value="0.0069483054" flag="0"/>
      <psa30 value="0.0005508977" flag="0"/>
    </comp>
    <comp name="--.HHN">
      <acc value="0.0054860161" flag="0"/>
      <vel value="0.0035572894" flag="0"/>
      <psa03 value="0.0175301646" flag="0"/>
      <psa10 value="0.0034529131" flag="0"/>
      <psa30 value="0.0002434043" flag="0"/>
    </comp>
    <comp name="--.HHZ">
      <acc value="0.0179847624" flag="0"/>
      <vel value="0.0068728065" flag="0"/>
      <psa03 value="0.0182059191" flag="0"/>
      <psa10 value="0.0057527389" flag="0"/>
      <psa30 value="0.0003945077" flag="0"/>
    </comp>
  </station>
  <station code="HRKL" name="HRKL" netid="HC" source="NOA" insttype="120" lat="35.3115" lon="25.1016">
    <comp name="--.HHE">
      <acc value="0.1079229889" flag="0"/>
      <vel value="0.0596305922" flag="0"/>
      <psa03 value="0.2478079950" flag="0"/>
      <psa10 value="0.1045784058" flag="0"/>
      <psa30 value="0.0029574112" flag="0"/>
    </comp>
    <comp name="--.HHN">
      <acc value="0.1554673386" flag="0"/>
      <vel value="0.0792044993" flag="0"/>
      <psa03 value="0.4728411125" flag="0"/>
      <psa10 value="0.0525193663" flag="0"/>
      <psa30 value="0.0022575543" flag="0"/>
    </comp>
    <comp name="--.HHZ">
      <acc value="0.0938137215" flag="0"/>
      <vel value="0.0591305789" flag="0"/>
      <psa03 value="0.3614577058" flag="0"/>
      <psa10 value="0.0335766177" flag="0"/>
      <psa30 value="0.0023614929" flag="0"/>
    </comp>
  </station>
  <station code="KSTL" name="KSTL" netid="HC" source="NOA" insttype="120" lat="35.2092" lon="25.3374">
    <comp name="--.HHE">
      <acc value="0.0673576786" flag="0"/>
      <vel value="0.0280399567" flag="0"/>
      <psa03 value="0.1383312380" flag="0"/>
      <psa10 value="0.0100980618" flag="0"/>
      <psa30 value="0.0010394595" flag="0"/>
    </comp>
    <comp name="--.HHN">
      <acc value="0.1036411163" flag="0"/>
      <vel value="0.0498502531" flag="0"/>
      <psa03 value="0.3037507215" flag="0"/>
      <psa10 value="0.0483858112" flag="0"/>
      <psa30 value="0.0025934290" flag="0"/>
    </comp>
    <comp name="--.HHZ">
      <acc value="0.0000000000" flag="0"/>
      <vel value="-100.0000000000" flag="0"/>
      <psa03 value="0.0000000000" flag="0"/>
      <psa10 value="0.0000000000" flag="0"/>
      <psa30 value="0.0000000000" flag="0"/>
    </comp>
  </station>
  <station code="TMBK" name="TMBK" netid="HC" source="NOA" insttype="120" lat="35.0724" lon="24.7662">
    <comp name="--.HHE">
      <acc value="0.0352209856" flag="0"/>
      <vel value="0.0223890623" flag="0"/>
      <psa03 value="0.0941948259" flag="0"/>
      <psa10 value="0.0287946607" flag="0"/>
      <psa30 value="0.0021239827" flag="0"/>
    </comp>
    <comp name="--.HHN">
      <acc value="0.0468884953" flag="0"/>
      <vel value="0.0336472560" flag="0"/>
      <psa03 value="0.1461859645" flag="0"/>
      <psa10 value="0.0312232284" flag="0"/>
      <psa30 value="0.0021502490" flag="0"/>
    </comp>
    <comp name="--.HHZ">
      <acc value="0.0778052196" flag="0"/>
      <vel value="0.0216964226" flag="0"/>
      <psa03 value="0.1125979258" flag="0"/>
      <psa10 value="0.0180847711" flag="0"/>
      <psa30 value="0.0029189727" flag="0"/>
    </comp>
  </station>
  <station code="IACM" name="IACM" netid="HL" source="NOA" insttype="120" lat="35.3058" lon="25.0709">
    <comp name="--.HHE">
      <acc value="0.0805578261" flag="0"/>
      <vel value="0.0514295068" flag="0"/>
      <psa03 value="0.2701721175" flag="0"/>
      <psa10 value="0.0521592045" flag="0"/>
      <psa30 value="0.0024422963" flag="0"/>
    </comp>
    <comp name="--.HHN">
      <acc value="0.0874558713" flag="0"/>
      <vel value="0.0544182718" flag="0"/>
      <psa03 value="0.3478402282" flag="0"/>
      <psa10 value="0.0390283309" flag="0"/>
      <psa30 value="0.0023576476" flag="0"/>
    </comp>
    <comp name="--.HHZ">
      <acc value="0.0701540179" flag="0"/>
      <vel value="0.0280661832" flag="0"/>
      <psa03 value="0.2189471585" flag="0"/>
      <psa10 value="0.0231015244" flag="0"/>
      <psa30 value="0.0010002410" flag="0"/>
    </comp>
  </station>
  <station code="IDI" name="IDI" netid="HL" source="NOA" insttype="120" lat="35.288" lon="24.89">
    <comp name="--.HHE">
      <acc value="0.0189071168" flag="0"/>
      <vel value="0.0078322840" flag="0"/>
      <psa03 value="0.0476386920" flag="0"/>
      <psa10 value="0.0080332739" flag="0"/>
      <psa30 value="0.0004496689" flag="0"/>
    </comp>
    <comp name="--.HHN">
      <acc value="0.0292560537" flag="0"/>
      <vel value="0.0127216455" flag="0"/>
      <psa03 value="0.0992630255" flag="0"/>
      <psa10 value="0.0119855009" flag="0"/>
      <psa30 value="0.0006717024" flag="0"/>
    </comp>
    <comp name="--.HHZ">
      <acc value="0.0381647157" flag="0"/>
      <vel value="0.0119112728" flag="0"/>
      <psa03 value="0.0488152812" flag="0"/>
      <psa10 value="0.0080390687" flag="0"/>
      <psa30 value="0.0005636255" flag="0"/>
    </comp>
  </station>
  <station code="ZKR" name="ZKR" netid="HL" source="NOA" insttype="120" lat="35.1147" lon="26.2169">
    <comp name="--.HHE">
      <acc value="0.0134434787" flag="0"/>
      <vel value="0.0072538912" flag="0"/>
      <psa03 value="0.0467816948" flag="0"/>
      <psa10 value="0.0068953255" flag="0"/>
      <psa30 value="0.0005456238" flag="0"/>
    </comp>
  </station>
  <station code="IDI" name="IDI" netid="MN" source="INGV" insttype="" lat="35.288" lon="24.89">
    <comp name="--.HHE">
      <acc value="0.0183395367" flag="0"/>
      <vel value="0.0074789449" flag="0"/>
      <psa03 value="0.0456884075" flag="0"/>
      <psa10 value="0.0075583164" flag="0"/>
      <psa30 value="0.0004259462" flag="0"/>
    </comp>
    <comp name="--.HHN">
      <acc value="0.0280929193" flag="0"/>
      <vel value="0.0123543340" flag="0"/>
      <psa03 value="0.0965387377" flag="0"/>
      <psa10 value="0.0114355363" flag="0"/>
      <psa30 value="0.0006412376" flag="0"/>
    </comp>
    <comp name="--.HHZ">
      <acc value="0.0372437281" flag="0"/>
      <vel value="0.0116824846" flag="0"/>
      <psa03 value="0.0474119253" flag="0"/>
      <psa10 value="0.0076605303" flag="0"/>
      <psa30 value="0.0005375365" flag="0"/>
    </comp>
  </station>
</stationlist>
