<stationlist xmlns:esm="https://esm-db.eu/esmws/shakemap/1/" created="1783994023">
	<station code="IMMV" name="IMMV" netid="GE" source="GEOFON" insttype="" lat="35.4606" lon="23.9811" esm:processing="manual (Paolucci et al 2011)" esm:quality="best">
		<comp name="--.HNE" depth="0.0">
			<acc value="0.00424606674348276" flag="0"/>
			<vel value="0.00206277726896641" flag="0"/>
			<psa03 value="0.0192838910524751" flag="0"/>
			<psa10 value="0.0025811778998081" flag="0"/>
			<psa30 value="0.000174047183745077" flag="0"/>
		</comp>
		<comp name="--.HNN" depth="0.0">
			<acc value="0.00530517573220898" flag="0"/>
			<vel value="0.00225036642015544" flag="0"/>
			<psa03 value="0.0238475961275388" flag="0"/>
			<psa10 value="0.00202145289501352" flag="0"/>
			<psa30 value="0.00018433789126728" flag="0"/>
		</comp>
		<comp name="--.HNZ" depth="0.0">
			<acc value="0.00593091615737659" flag="0"/>
			<vel value="0.00253974334197052" flag="0"/>
			<psa03 value="0.0293508875415863" flag="0"/>
			<psa10 value="0.00206977447816125" flag="0"/>
			<psa30 value="0.000107381295883852" flag="0"/>
		</comp>
	</station>
	<station code="CH01" name="CH01" netid="HI" source="ITSAK Strong Motion Network" insttype="" lat="35.517" lon="24.0208" esm:processing="manual (Paolucci et al 2011)" esm:quality="best">
		<comp name="--.HNE" depth="0.0">
			<acc value="0.00373538548047664" flag="0"/>
			<vel value="0.00182024298801365" flag="0"/>
			<psa03 value="0.0150144894278849" flag="0"/>
			<psa10 value="0.00350603858597311" flag="0"/>
			<psa30 value="0.000200863540598959" flag="0"/>
		</comp>
		<comp name="--.HNN" depth="0.0">
			<acc value="0.00484881545977575" flag="0"/>
			<vel value="0.00206429868675854" flag="0"/>
			<psa03 value="0.0105176134069195" flag="0"/>
			<psa10 value="0.00314543602594778" flag="0"/>
			<psa30 value="0.000285797708737425" flag="0"/>
		</comp>
		<comp name="--.HNZ" depth="0.0">
			<acc value="0.00425085439093438" flag="0"/>
			<vel value="0.00122869282890493" flag="0"/>
			<psa03 value="0.00812950924321497" flag="0"/>
			<psa10 value="0.00286907834361044" flag="0"/>
			<psa30 value="0.000122152649305125" flag="0"/>
		</comp>
	</station>
	<station code="AGNA" name="AGNA" netid="HL" source="National Observatory of Athens Seismic Network" insttype="" lat="35.1895" lon="25.71853" esm:processing="manual (Paolucci et al 2011)" esm:quality="best">
		<comp name="00.HNE" depth="0.0">
			<acc value="0.0592096239685068" flag="0"/>
			<vel value="0.0237782413595658" flag="0"/>
			<psa03 value="0.151760959668972" flag="0"/>
			<psa10 value="0.00717290892003037" flag="0"/>
			<psa30 value="0.00070499498370558" flag="0"/>
		</comp>
		<comp name="00.HNN" depth="0.0">
			<acc value="0.0649912134624277" flag="0"/>
			<vel value="0.0273290288608793" flag="0"/>
			<psa03 value="0.124783151688222" flag="0"/>
			<psa10 value="0.0181291247155306" flag="0"/>
			<psa30 value="0.00145584550512169" flag="0"/>
		</comp>
		<comp name="00.HNZ" depth="0.0">
			<acc value="0.0955098695199199" flag="0"/>
			<vel value="0.0205670375284225" flag="0"/>
			<psa03 value="0.0728756714057698" flag="0"/>
			<psa10 value="0.00503333827772635" flag="0"/>
			<psa30 value="0.000405968976785451" flag="0"/>
		</comp>
	</station>
	<station code="HERG" name="HERG" netid="HL" source="National Observatory of Athens Seismic Network" insttype="" lat="35.32622" lon="25.06586" esm:processing="manual (Paolucci et al 2011)" esm:quality="good">
		<comp name="00.HNE" depth="0.0">
			<acc value="0.0379647633043729" flag="0"/>
			<vel value="0.0235829381995267" flag="0"/>
			<psa03 value="0.121617744078676" flag="0"/>
			<psa10 value="0.0497175310424306" flag="0"/>
			<psa30 value="0.00207046215795666" flag="0"/>
		</comp>
		<comp name="00.HNN" depth="0.0">
			<acc value="0.0567268749018924" flag="0"/>
			<vel value="0.0276691136796077" flag="0"/>
			<psa03 value="0.112023733522562" flag="0"/>
			<psa10 value="0.0328358364630157" flag="0"/>
			<psa30 value="0.00148250956314945" flag="0"/>
		</comp>
		<comp name="00.HNZ" depth="0.0">
			<acc value="0.0429923673592457" flag="0"/>
			<vel value="0.0204875718528932" flag="0"/>
			<psa03 value="0.0699203089606509" flag="0"/>
			<psa10 value="0.0228892344244461" flag="0"/>
			<psa30 value="0.00111975709507873" flag="0"/>
		</comp>
	</station>
	<station code="IACM" name="IACM" netid="HL" source="National Observatory of Athens Seismic Network" insttype="" lat="35.3058" lon="25.0709" esm:processing="manual (Paolucci et al 2011)" esm:quality="good">
		<comp name="--.HNE" depth="0.0">
			<acc value="0.0787118408150404" flag="0"/>
			<vel value="0.0530495091187064" flag="0"/>
			<psa03 value="0.263442112568384" flag="0"/>
			<psa10 value="0.0532383042330154" flag="0"/>
			<psa30 value="0.00250243161615994" flag="0"/>
		</comp>
		<comp name="--.HNN" depth="0.0">
			<acc value="0.0880888476265379" flag="0"/>
			<vel value="0.0563415124183923" flag="0"/>
			<psa03 value="0.355924253648352" flag="0"/>
			<psa10 value="0.0386572665181868" flag="0"/>
			<psa30 value="0.00255388515377095" flag="0"/>
		</comp>
		<comp name="--.HNZ" depth="0.0">
			<acc value="0.0714757835935097" flag="0"/>
			<vel value="0.0284908187914711" flag="0"/>
			<psa03 value="0.217357639751564" flag="0"/>
			<psa10 value="0.0231701991193382" flag="0"/>
			<psa30 value="0.00099282956485945" flag="0"/>
		</comp>
	</station>
	<station code="IMMV" name="IMMV" netid="HL" source="National Observatory of Athens Seismic Network" insttype="" lat="35.4606" lon="23.9811" esm:processing="manual (Paolucci et al 2011)" esm:quality="best">
		<comp name="--.HNE" depth="0.0">
			<acc value="0.00415983606606546" flag="0"/>
			<vel value="0.00202088989407158" flag="0"/>
			<psa03 value="0.0188812111929107" flag="0"/>
			<psa10 value="0.00252882951806472" flag="0"/>
			<psa30 value="0.000170467807215615" flag="0"/>
		</comp>
		<comp name="--.HNN" depth="0.0">
			<acc value="0.00519750417020199" flag="0"/>
			<vel value="0.00220468243758165" flag="0"/>
			<psa03 value="0.0233554318547379" flag="0"/>
			<psa10 value="0.00198118490905707" flag="0"/>
			<psa30 value="0.000180758514737818" flag="0"/>
		</comp>
		<comp name="--.HNZ" depth="0.0">
			<acc value="0.00581053174765054" flag="0"/>
			<vel value="0.00248822581591955" flag="0"/>
			<psa03 value="0.0287692388555487" flag="0"/>
			<psa10 value="0.00202950649220481" flag="0"/>
			<psa30 value="0.000105144185552939" flag="0"/>
		</comp>
	</station>
	<station code="ZKR" name="ZKR" netid="HL" source="National Observatory of Athens Seismic Network" insttype="" lat="35.1147" lon="26.21691" esm:processing="manual (Paolucci et al 2011)" esm:quality="best">
		<comp name="00.HNE" depth="0.0">
			<acc value="0.0133650784822592" flag="0"/>
			<vel value="0.0069663981335685" flag="0"/>
			<psa03 value="0.0467108637094757" flag="0"/>
			<psa10 value="0.00697844196625185" flag="0"/>
			<psa30 value="0.000588360017030273" flag="0"/>
		</comp>
		<comp name="00.HNN" depth="0.0">
			<acc value="0.011295494102463" flag="0"/>
			<vel value="0.00691799762919209" flag="0"/>
			<psa03 value="0.0311853180129354" flag="0"/>
			<psa10 value="0.00711535311850376" flag="0"/>
			<psa30 value="0.00053511679115453" flag="0"/>
		</comp>
		<comp name="00.HNZ" depth="0.0">
			<acc value="0.0172210443380555" flag="0"/>
			<vel value="0.00656899897284656" flag="0"/>
			<psa03 value="0.0174942027877443" flag="0"/>
			<psa10 value="0.0055972500479458" flag="0"/>
			<psa30 value="0.000406259236093907" flag="0"/>
		</comp>
	</station>
	<station code="KARP" name="KARP" netid="GE" source="GEOFON" insttype="" lat="35.5471" lon="27.16106" esm:processing="discarded" esm:quality="bad">
		<comp name="--.HNE" depth="0.0">
			<acc value="0" flag="1"/>
			<vel value="0" flag="1"/>
			<psa03 value="0" flag="1"/>
			<psa10 value="0" flag="1"/>
			<psa30 value="0" flag="1"/>
		</comp>
		<comp name="--.HNN" depth="0.0">
			<acc value="0" flag="1"/>
			<vel value="0" flag="1"/>
			<psa03 value="0" flag="1"/>
			<psa10 value="0" flag="1"/>
			<psa30 value="0" flag="1"/>
		</comp>
		<comp name="--.HNZ" depth="0.0">
			<acc value="0" flag="1"/>
			<vel value="0" flag="1"/>
			<psa03 value="0" flag="1"/>
			<psa10 value="0" flag="1"/>
			<psa30 value="0" flag="1"/>
		</comp>
	</station>
	<station code="NAX1" name="NAX1" netid="HI" source="ITSAK Strong Motion Network" insttype="" lat="37.101394" lon="25.374103" esm:processing="discarded" esm:quality="bad">
		<comp name="--.HNE" depth="0.0">
			<acc value="0" flag="1"/>
			<vel value="0" flag="1"/>
			<psa03 value="0" flag="1"/>
			<psa10 value="0" flag="1"/>
			<psa30 value="0" flag="1"/>
		</comp>
		<comp name="--.HNN" depth="0.0">
			<acc value="0" flag="1"/>
			<vel value="0" flag="1"/>
			<psa03 value="0" flag="1"/>
			<psa10 value="0" flag="1"/>
			<psa30 value="0" flag="1"/>
		</comp>
		<comp name="--.HNZ" depth="0.0">
			<acc value="0" flag="1"/>
			<vel value="0" flag="1"/>
			<psa03 value="0" flag="1"/>
			<psa10 value="0" flag="1"/>
			<psa30 value="0" flag="1"/>
		</comp>
	</station>
	<station code="SIT2" name="SIT2" netid="HI" source="ITSAK Strong Motion Network" insttype="" lat="35.2059" lon="26.107" esm:processing="discarded" esm:quality="best">
		<comp name="--.HNE" depth="0.0">
			<acc value="0" flag="1"/>
			<vel value="0" flag="1"/>
			<psa03 value="0" flag="1"/>
			<psa10 value="0" flag="1"/>
			<psa30 value="0" flag="1"/>
		</comp>
		<comp name="--.HNN" depth="0.0">
			<acc value="0" flag="1"/>
			<vel value="0" flag="1"/>
			<psa03 value="0" flag="1"/>
			<psa10 value="0" flag="1"/>
			<psa30 value="0" flag="1"/>
		</comp>
		<comp name="--.HNZ" depth="0.0">
			<acc value="0" flag="1"/>
			<vel value="0" flag="1"/>
			<psa03 value="0" flag="1"/>
			<psa10 value="0" flag="1"/>
			<psa30 value="0" flag="1"/>
		</comp>
	</station>
	<station code="AMGA" name="AMGA" netid="HL" source="National Observatory of Athens Seismic Network" insttype="" lat="36.831561" lon="25.893836" esm:processing="discarded" esm:quality="bad">
		<comp name="00.HNE" depth="0.0">
			<acc value="0" flag="1"/>
			<vel value="0" flag="1"/>
			<psa03 value="0" flag="1"/>
			<psa10 value="0" flag="1"/>
			<psa30 value="0" flag="1"/>
		</comp>
		<comp name="00.HNN" depth="0.0">
			<acc value="0" flag="1"/>
			<vel value="0" flag="1"/>
			<psa03 value="0" flag="1"/>
			<psa10 value="0" flag="1"/>
			<psa30 value="0" flag="1"/>
		</comp>
		<comp name="00.HNZ" depth="0.0">
			<acc value="0" flag="1"/>
			<vel value="0" flag="1"/>
			<psa03 value="0" flag="1"/>
			<psa10 value="0" flag="1"/>
			<psa30 value="0" flag="1"/>
		</comp>
	</station>
	<station code="ANKY" name="ANKY" netid="HL" source="National Observatory of Athens Seismic Network" insttype="" lat="35.86704" lon="23.30117" esm:processing="discarded" esm:quality="bad">
		<comp name="00.HNE" depth="0.0">
			<acc value="0" flag="1"/>
			<vel value="0" flag="1"/>
			<psa03 value="0" flag="1"/>
			<psa10 value="0" flag="1"/>
			<psa30 value="0" flag="1"/>
		</comp>
		<comp name="00.HNN" depth="0.0">
			<acc value="0" flag="1"/>
			<vel value="0" flag="1"/>
			<psa03 value="0" flag="1"/>
			<psa10 value="0" flag="1"/>
			<psa30 value="0" flag="1"/>
		</comp>
		<comp name="00.HNZ" depth="0.0">
			<acc value="0" flag="1"/>
			<vel value="0" flag="1"/>
			<psa03 value="0" flag="1"/>
			<psa10 value="0" flag="1"/>
			<psa30 value="0" flag="1"/>
		</comp>
	</station>
	<station code="ASTA" name="ASTA" netid="HL" source="National Observatory of Athens Seismic Network" insttype="" lat="36.54552" lon="26.35295" esm:processing="automatic (Paolucci et al 2011)" esm:quality="bad">
		<comp name="00.HNE" depth="0.0">
			<acc value="0" flag="1"/>
			<vel value="0" flag="1"/>
			<psa03 value="0" flag="1"/>
			<psa10 value="0" flag="1"/>
			<psa30 value="0" flag="1"/>
		</comp>
		<comp name="00.HNN" depth="0.0">
			<acc value="0" flag="1"/>
			<vel value="0" flag="1"/>
			<psa03 value="0" flag="1"/>
			<psa10 value="0" flag="1"/>
			<psa30 value="0" flag="1"/>
		</comp>
		<comp name="00.HNZ" depth="0.0">
			<acc value="0" flag="1"/>
			<vel value="0" flag="1"/>
			<psa03 value="0" flag="1"/>
			<psa10 value="0" flag="1"/>
			<psa30 value="0" flag="1"/>
		</comp>
	</station>
	<station code="GVD" name="GVD" netid="HL" source="National Observatory of Athens Seismic Network" insttype="" lat="34.83914" lon="24.08738" esm:processing="discarded" esm:quality="bad">
		<comp name="00.HNE" depth="1.0">
			<acc value="0" flag="1"/>
			<vel value="0" flag="1"/>
			<psa03 value="0" flag="1"/>
			<psa10 value="0" flag="1"/>
			<psa30 value="0" flag="1"/>
		</comp>
		<comp name="00.HNN" depth="1.0">
			<acc value="0" flag="1"/>
			<vel value="0" flag="1"/>
			<psa03 value="0" flag="1"/>
			<psa10 value="0" flag="1"/>
			<psa30 value="0" flag="1"/>
		</comp>
		<comp name="00.HNZ" depth="1.0">
			<acc value="0" flag="1"/>
			<vel value="0" flag="1"/>
			<psa03 value="0" flag="1"/>
			<psa10 value="0" flag="1"/>
			<psa30 value="0" flag="1"/>
		</comp>
	</station>
	<station code="KARP" name="KARP" netid="HL" source="National Observatory of Athens Seismic Network" insttype="" lat="35.5471" lon="27.16106" esm:processing="discarded" esm:quality="bad">
		<comp name="--.HNE" depth="0.0">
			<acc value="0" flag="1"/>
			<vel value="0" flag="1"/>
			<psa03 value="0" flag="1"/>
			<psa10 value="0" flag="1"/>
			<psa30 value="0" flag="1"/>
		</comp>
		<comp name="--.HNN" depth="0.0">
			<acc value="0" flag="1"/>
			<vel value="0" flag="1"/>
			<psa03 value="0" flag="1"/>
			<psa10 value="0" flag="1"/>
			<psa30 value="0" flag="1"/>
		</comp>
		<comp name="--.HNZ" depth="0.0">
			<acc value="0" flag="1"/>
			<vel value="0" flag="1"/>
			<psa03 value="0" flag="1"/>
			<psa10 value="0" flag="1"/>
			<psa30 value="0" flag="1"/>
		</comp>
	</station>
	<station code="NISR" name="NISR" netid="HL" source="National Observatory of Athens Seismic Network" insttype="" lat="36.6106" lon="27.131" esm:processing="automatic (Paolucci et al 2011)" esm:quality="bad">
		<comp name="00.HNE" depth="0.0">
			<acc value="0" flag="1"/>
			<vel value="0" flag="1"/>
			<psa03 value="0" flag="1"/>
			<psa10 value="0" flag="1"/>
			<psa30 value="0" flag="1"/>
		</comp>
		<comp name="00.HNN" depth="0.0">
			<acc value="0" flag="1"/>
			<vel value="0" flag="1"/>
			<psa03 value="0" flag="1"/>
			<psa10 value="0" flag="1"/>
			<psa30 value="0" flag="1"/>
		</comp>
		<comp name="00.HNZ" depth="0.0">
			<acc value="0" flag="1"/>
			<vel value="0" flag="1"/>
			<psa03 value="0" flag="1"/>
			<psa10 value="0" flag="1"/>
			<psa30 value="0" flag="1"/>
		</comp>
	</station>
</stationlist>
