<?xml version="1.0" encoding="UTF-8" standalone="yes"?>
<!DOCTYPE earthquake SYSTEM "stationlist.dtd">
<stationlist created="" xmlns="ch.ethz.sed.shakemap.usgs.xml">
  <station code="AGRB" name="AGRB" netid="KO" insttype="CMG-3T" lat="39.5755" lon="42.992">
    <comp name="--.HHE">
      <acc value="0.0147609840" flag="0"/>
      <vel value="0.0093572736" flag="0"/>
      <psa03 value="0.0401509565" flag="0"/>
      <psa10 value="0.0198564411" flag="0"/>
      <psa30 value="0.0006405378" flag="0"/>
    </comp>
    <comp name="--.HHZ">
      <acc value="0.0123462538" flag="0"/>
      <vel value="0.0079893901" flag="0"/>
      <psa03 value="0.0474015910" flag="0"/>
      <psa10 value="0.0080101850" flag="0"/>
      <psa30 value="0.0004706843" flag="0"/>
    </comp>
    <comp name="--.HHN">
      <acc value="0.0265134808" flag="0"/>
      <vel value="0.0170775960" flag="0"/>
      <psa03 value="0.0951204490" flag="0"/>
      <psa10 value="0.0166199854" flag="0"/>
      <psa30 value="0.0008046508" flag="0"/>
    </comp>
  </station>
  <station code="KARS" name="KARS" netid="KO" insttype="CMG-3T" lat="40.6152" lon="43.0937">
    <comp name="--.HHN">
      <acc value="0.0353116703" flag="0"/>
      <vel value="0.0116879964" flag="0"/>
      <psa03 value="0.0546653496" flag="0"/>
      <psa10 value="0.0142657836" flag="0"/>
      <psa30 value="0.0046544888" flag="0"/>
    </comp>
    <comp name="--.HHZ">
      <acc value="0.0172737249" flag="0"/>
      <vel value="0.0076693385" flag="0"/>
      <psa03 value="0.0244128790" flag="0"/>
      <psa10 value="0.0128280073" flag="0"/>
      <psa30 value="0.0031950914" flag="0"/>
    </comp>
  </station>
  <station code="KOPR" name="KOPR" netid="KO" insttype="CMG-3T" lat="39.9917" lon="41.8535">
    <comp name="--.HHN">
      <acc value="0.0501188231" flag="0"/>
      <vel value="0.0222729676" flag="0"/>
      <psa03 value="0.0675370477" flag="0"/>
      <psa10 value="0.0346860842" flag="0"/>
      <psa30 value="0.0018928884" flag="0"/>
    </comp>
    <comp name="--.HHE">
      <acc value="0.0388376479" flag="0"/>
      <vel value="0.0296143509" flag="0"/>
      <psa03 value="0.1071725264" flag="0"/>
      <psa10 value="0.0375997942" flag="0"/>
      <psa30 value="0.0036158625" flag="0"/>
    </comp>
    <comp name="--.HHZ">
      <acc value="0.0765472156" flag="0"/>
      <vel value="0.0212559663" flag="0"/>
      <psa03 value="0.0831337793" flag="0"/>
      <psa10 value="0.0244110100" flag="0"/>
      <psa30 value="0.0028167669" flag="0"/>
    </comp>
  </station>
</stationlist>
