<?xml version="1.0" encoding="UTF-8" standalone="yes"?>
<!DOCTYPE earthquake SYSTEM "stationlist.dtd">
<stationlist created="" xmlns="ch.ethz.sed.shakemap.usgs.xml">
  <station code="IMOD" name="IMOD" netid="HC" insttype="120" commtype="DIG" lat="34.9731" lon="24.7995">
    <comp name="--.HHE">
      <acc value="0.0075807269" flag="0"/>
      <vel value="0.0079483822" flag="0"/>
      <psa03 value="0.0144622520" flag="0"/>
      <psa10 value="0.0157366006" flag="0"/>
      <psa30 value="0.0020830908" flag="0"/>
    </comp>
    <comp name="--.HHN">
      <acc value="0.0085816969" flag="0"/>
      <vel value="0.0071773139" flag="0"/>
      <psa03 value="0.0345166989" flag="0"/>
      <psa10 value="0.0139129716" flag="0"/>
      <psa30 value="0.0021417973" flag="0"/>
    </comp>
    <comp name="--.HHZ">
      <acc value="0.0047956336" flag="0"/>
      <vel value="0.0047913352" flag="0"/>
      <psa03 value="0.0118579708" flag="0"/>
      <psa10 value="0.0070918361" flag="0"/>
      <psa30 value="0.0014477899" flag="0"/>
    </comp>
  </station>
  <station code="PFKS" name="PFKS" netid="HC" insttype="120" commtype="DIG" lat="35.0429" lon="25.4733">
    <comp name="--.HHZ">
      <acc value="0.0049919105" flag="0"/>
      <vel value="0.0029240844" flag="0"/>
      <psa03 value="0.0111795587" flag="0"/>
      <psa10 value="0.0049935074" flag="0"/>
      <psa30 value="0.0014244067" flag="0"/>
    </comp>
    <comp name="--.HHE">
      <acc value="0.0066697026" flag="0"/>
      <vel value="0.0050384882" flag="0"/>
      <psa03 value="0.0205569673" flag="0"/>
      <psa10 value="0.0068136752" flag="0"/>
      <psa30 value="0.0010928007" flag="0"/>
    </comp>
    <comp name="--.HHN">
      <acc value="0.0074268941" flag="0"/>
      <vel value="0.0054686719" flag="0"/>
      <psa03 value="0.0174068944" flag="0"/>
      <psa10 value="0.0090611492" flag="0"/>
      <psa30 value="0.0016178612" flag="0"/>
    </comp>
  </station>
  <station code="SIVA" name="SIVA" netid="HL" insttype="60" commtype="DIG" lat="35.0178" lon="24.812">
    <comp name="--.HHE">
      <acc value="0.0099277429" flag="0"/>
      <vel value="0.0115779179" flag="0"/>
      <psa03 value="0.0296255250" flag="0"/>
      <psa10 value="0.0196033197" flag="0"/>
      <psa30 value="0.0027902311" flag="0"/>
    </comp>
    <comp name="--.HHN">
      <acc value="0.0071179685" flag="0"/>
      <vel value="0.0086105702" flag="0"/>
      <psa03 value="0.0164889403" flag="0"/>
      <psa10 value="0.0120595655" flag="0"/>
      <psa30 value="0.0024401921" flag="0"/>
    </comp>
    <comp name="--.HHZ">
      <acc value="0.0053400894" flag="0"/>
      <vel value="0.0055614742" flag="0"/>
      <psa03 value="0.0137925758" flag="0"/>
      <psa10 value="0.0073301635" flag="0"/>
      <psa30 value="0.0020904576" flag="0"/>
    </comp>
  </station>
</stationlist>
