<stationlist xmlns:esm="https://esm-db.eu/esmws/shakemap/1/" created="1782266052">
	<station code="GOR1" name="GOR1" netid="HI" source="ITSAK Strong Motion Network" insttype="" lat="35.0582" lon="24.9628" esm:processing="automatic (Paolucci et al 2011)" esm:quality="best">
		<comp name="--.HNE" depth="0.0">
			<acc value="0.00905401013269072" flag="0"/>
			<vel value="0.0110915951104189" flag="0"/>
			<psa03 value="0.0144466041520415" flag="0"/>
			<psa10 value="0.0185194862000718" flag="0"/>
			<psa30 value="0.00457988172802092" flag="0"/>
		</comp>
		<comp name="--.HNN" depth="0.0">
			<acc value="0.0069353270436944" flag="0"/>
			<vel value="0.0119972597812845" flag="0"/>
			<psa03 value="0.0186158946699931" flag="0"/>
			<psa10 value="0.0173561422592451" flag="0"/>
			<psa30 value="0.00532497733694827" flag="0"/>
		</comp>
		<comp name="--.HNZ" depth="0.0">
			<acc value="0.0150766629961111" flag="0"/>
			<vel value="0.00818288486995047" flag="0"/>
			<psa03 value="0.0159703665521556" flag="0"/>
			<psa10 value="0.0114734547475682" flag="0"/>
			<psa30 value="0.0032278590381531" flag="0"/>
		</comp>
	</station>
	<station code="SIT2" name="SIT2" netid="HI" source="ITSAK Strong Motion Network" insttype="" lat="35.2059" lon="26.107" esm:processing="manual (Paolucci et al 2011)" esm:quality="good">
		<comp name="--.HNE" depth="0.0">
			<acc value="0.0149253438580948" flag="0"/>
			<vel value="0.0118217239287907" flag="0"/>
			<psa03 value="0.0335874776097195" flag="0"/>
			<psa10 value="0.0157598283862854" flag="0"/>
			<psa30 value="0.0016905284475463" flag="0"/>
		</comp>
		<comp name="--.HNN" depth="0.0">
			<acc value="0.0141905601091999" flag="0"/>
			<vel value="0.010969489688569" flag="0"/>
			<psa03 value="0.0289789014808354" flag="0"/>
			<psa10 value="0.0146924608034214" flag="0"/>
			<psa30 value="0.00145862120982994" flag="0"/>
		</comp>
		<comp name="--.HNZ" depth="0.0">
			<acc value="0.00785621421858629" flag="0"/>
			<vel value="0.00344964441196592" flag="0"/>
			<psa03 value="0.0126970689830895" flag="0"/>
			<psa10 value="0.00357249861362524" flag="0"/>
			<psa30 value="0.000764258805478408" flag="0"/>
		</comp>
	</station>
	<station code="SIVA" name="SIVA" netid="HL" source="National Observatory of Athens Seismic Network" insttype="" lat="35.01777" lon="24.81204" esm:processing="automatic (Paolucci et al 2011)" esm:quality="best">
		<comp name="00.HNE" depth="0.0">
			<acc value="0.00916874101939536" flag="0"/>
			<vel value="0.0114355146783204" flag="0"/>
			<psa03 value="0.0274189569963357" flag="0"/>
			<psa10 value="0.0182969670842725" flag="0"/>
			<psa30 value="0.00304999579725296" flag="0"/>
		</comp>
		<comp name="00.HNN" depth="0.0">
			<acc value="0.00718933826243663" flag="0"/>
			<vel value="0.0105571505215847" flag="0"/>
			<psa03 value="0.0179837902961806" flag="0"/>
			<psa10 value="0.0140378961917283" flag="0"/>
			<psa30 value="0.0033567994548229" flag="0"/>
		</comp>
		<comp name="00.HNZ" depth="0.0">
			<acc value="0.00513467791990511" flag="0"/>
			<vel value="0.00681007813905818" flag="0"/>
			<psa03 value="0.013581397096737" flag="0"/>
			<psa10 value="0.00732446817882022" flag="0"/>
			<psa30 value="0.00233273057361872" flag="0"/>
		</comp>
	</station>
</stationlist>
