<stationlist created="1775808285">
	<station code="ATEI" name="ATEI" netid="HC" source="Seismological Network of Crete (HC)" insttype="" lat="35.5193" lon="24.0432">
		<comp name="--.HNE" depth="0.0">
			<acc value="0.00340082588606871" flag="0"/>
			<vel value="0.00351008675183532" flag="0"/>
			<psa03 value="0.00409489984774735" flag="0"/>
			<psa10 value="0.00503662021387072" flag="0"/>
			<psa30 value="0.0018322251259225" flag="0"/>
		</comp>
		<comp name="--.HNN" depth="0.0">
			<acc value="0.00285666411054318" flag="0"/>
			<vel value="0.00395602211982729" flag="0"/>
			<psa03 value="0.00536779927525403" flag="0"/>
			<psa10 value="0.00532797279579939" flag="0"/>
			<psa30 value="0.00240658213258872" flag="0"/>
		</comp>
		<comp name="--.HNZ" depth="0.0">
			<acc value="0.00560796876519249" flag="0"/>
			<vel value="0.002293253416683" flag="0"/>
			<psa03 value="0.00452970534418591" flag="0"/>
			<psa10 value="0.00301607050299372" flag="0"/>
			<psa30 value="0.0010765550664897" flag="0"/>
		</comp>
	</station>
	<station code="G0LD" name="G0LD" netid="HC" source="Seismological Network of Crete (HC)" insttype="" lat="35.4955" lon="24.0306">
		<comp name="--.HNE" depth="0.0">
			<acc value="0.00558326714988201" flag="0"/>
			<vel value="0.00218571926245467" flag="0"/>
			<psa03 value="0.00226878261993271" flag="0"/>
			<psa10 value="0.00230447984798013" flag="0"/>
			<psa30 value="0.0015011291299377" flag="0"/>
		</comp>
		<comp name="--.HNN" depth="0.0">
			<acc value="0.00649633068705207" flag="0"/>
			<vel value="0.00189795226600667" flag="0"/>
			<psa03 value="0.00163860708483375" flag="0"/>
			<psa10 value="0.0015536008871841" flag="0"/>
			<psa30 value="0.00106680483725153" flag="0"/>
		</comp>
		<comp name="--.HNZ" depth="0.0">
			<acc value="0.00817276840861746" flag="0"/>
			<vel value="0.00334095226903436" flag="0"/>
			<psa03 value="0.00282062891011403" flag="0"/>
			<psa10 value="0.00222504630464772" flag="0"/>
			<psa30 value="0.00160913951426224" flag="0"/>
		</comp>
	</station>
	<station code="MULT" name="MULT" netid="HC" source="Seismological Network of Crete (HC)" insttype="" lat="35.5091" lon="24.0118">
		<comp name="--.HNE" depth="0.0">
			<acc value="0.054600306522333" flag="0"/>
			<vel value="0.00333992622554016" flag="0"/>
			<psa03 value="0.0034004840544424" flag="0"/>
			<psa10 value="0.00110363682146055" flag="0"/>
			<psa30 value="0.000940312395248038" flag="0"/>
		</comp>
		<comp name="--.HNN" depth="0.0">
			<acc value="0.0301721549457791" flag="0"/>
			<vel value="0.00176616679359036" flag="0"/>
			<psa03 value="0.00233415332411896" flag="0"/>
			<psa10 value="0.00119447311235652" flag="0"/>
			<psa30 value="0.000623615686478682" flag="0"/>
		</comp>
		<comp name="--.HNZ" depth="0.0">
			<acc value="0.0661521466974565" flag="0"/>
			<vel value="0.00501734287807732" flag="0"/>
			<psa03 value="0.00677783246167838" flag="0"/>
			<psa10 value="0.00348455364707782" flag="0"/>
			<psa30 value="0.00188639121416001" flag="0"/>
		</comp>
	</station>
	<station code="TEFL" name="TEFL" netid="HC" source="Seismological Network of Crete (HC)" insttype="" lat="35.093273" lon="25.163418">
		<comp name="--.HNE" depth="0.0">
			<acc value="0.220878005822996" flag="0"/>
			<vel value="0.174518215841386" flag="0"/>
			<psa03 value="0.387842109302978" flag="0"/>
			<psa10 value="0.197762840817634" flag="0"/>
			<psa30 value="0.0853724688404076" flag="0"/>
		</comp>
		<comp name="--.HNN" depth="0.0">
			<acc value="0.220021443507902" flag="0"/>
			<vel value="0.184268101359704" flag="0"/>
			<psa03 value="0.33387903451411" flag="0"/>
			<psa10 value="0.221355173693902" flag="0"/>
			<psa30 value="0.0876504464119087" flag="0"/>
		</comp>
		<comp name="--.HNZ" depth="0.0">
			<acc value="0.218524845218853" flag="0"/>
			<vel value="0.121267151551326" flag="0"/>
			<psa03 value="0.326236986599274" flag="0"/>
			<psa10 value="0.164515193324159" flag="0"/>
			<psa30 value="0.0695958303822042" flag="0"/>
		</comp>
	</station>
	<station code="CH01" name="CH01" netid="HI" source="ITSAK Strong Motion Network" insttype="" lat="35.517" lon="24.0208">
		<comp name="--.HNE" depth="0.0">
			<acc value="0.00492057593895713" flag="0"/>
			<vel value="0.00623346653243663" flag="0"/>
			<psa03 value="0.00369903150101637" flag="0"/>
			<psa10 value="0.00662669554855795" flag="0"/>
			<psa30 value="0.00255486049696932" flag="0"/>
		</comp>
		<comp name="--.HNN" depth="0.0">
			<acc value="0.00527146109037661" flag="0"/>
			<vel value="0.00575416053067665" flag="0"/>
			<psa03 value="0.0045019284389981" flag="0"/>
			<psa10 value="0.00561240898205078" flag="0"/>
			<psa30 value="0.00232104646627062" flag="0"/>
		</comp>
		<comp name="--.HNZ" depth="0.0">
			<acc value="0.00900160268422318" flag="0"/>
			<vel value="0.0027734733892156" flag="0"/>
			<psa03 value="0.00233394790686524" flag="0"/>
			<psa10 value="0.00580556505894292" flag="0"/>
			<psa30 value="0.000765799272110096" flag="0"/>
		</comp>
	</station>
	<station code="CH02" name="CH02" netid="HI" source="ITSAK Strong Motion Network" insttype="" lat="35.5145" lon="24.0315">
		<comp name="--.HNE" depth="0.0">
			<acc value="0.00297916751777341" flag="0"/>
			<vel value="0.00520741636402508" flag="0"/>
			<psa03 value="0.00477775530492428" flag="0"/>
			<psa10 value="0.00714145652394626" flag="0"/>
			<psa30 value="0.0019329676329525" flag="0"/>
		</comp>
		<comp name="--.HNN" depth="0.0">
			<acc value="0.00349998190020951" flag="0"/>
			<vel value="0.00624418674287741" flag="0"/>
			<psa03 value="0.00431534218534534" flag="0"/>
			<psa10 value="0.0059823086423379" flag="0"/>
			<psa30 value="0.00226383767646906" flag="0"/>
		</comp>
		<comp name="--.HNZ" depth="0.0">
			<acc value="0.00657349883025592" flag="0"/>
			<vel value="0.00233583324325269" flag="0"/>
			<psa03 value="0.00265333755444524" flag="0"/>
			<psa10 value="0.00368487808946398" flag="0"/>
			<psa30 value="0.000906283682679501" flag="0"/>
		</comp>
	</station>
	<station code="GOR1" name="GOR1" netid="HI" source="ITSAK Strong Motion Network" insttype="" lat="35.0582" lon="24.9628">
		<comp name="--.HNE" depth="0.0">
			<acc value="0.00905401013269072" flag="0"/>
			<vel value="0.0110915951104189" flag="0"/>
			<psa03 value="0.0144466041520415" flag="0"/>
			<psa10 value="0.0185194862000718" flag="0"/>
			<psa30 value="0.00457988172802092" flag="0"/>
		</comp>
		<comp name="--.HNN" depth="0.0">
			<acc value="0.0069353270436944" flag="0"/>
			<vel value="0.0119972597812845" flag="0"/>
			<psa03 value="0.0186158946699931" flag="0"/>
			<psa10 value="0.0173561422592451" flag="0"/>
			<psa30 value="0.00532497733694827" flag="0"/>
		</comp>
		<comp name="--.HNZ" depth="0.0">
			<acc value="0.0150766629961111" flag="0"/>
			<vel value="0.00818288486995047" flag="0"/>
			<psa03 value="0.0159703665521556" flag="0"/>
			<psa10 value="0.0114734547475682" flag="0"/>
			<psa30 value="0.0032278590381531" flag="0"/>
		</comp>
	</station>
	<station code="RTH1" name="RTH1" netid="HI" source="ITSAK Strong Motion Network" insttype="" lat="35.365393" lon="24.471773">
		<comp name="--.HNE" depth="0.0">
			<acc value="0.00347845869134999" flag="0"/>
			<vel value="0.00337634922251583" flag="0"/>
			<psa03 value="0.00761663477300654" flag="0"/>
			<psa10 value="0.0044417661202064" flag="0"/>
			<psa30 value="0.00191097680116782" flag="0"/>
		</comp>
		<comp name="--.HNN" depth="0.0">
			<acc value="0.00316330439687089" flag="0"/>
			<vel value="0.00252839625176844" flag="0"/>
			<psa03 value="0.00736543258521943" flag="0"/>
			<psa10 value="0.00314174648466072" flag="0"/>
			<psa30 value="0.00158875837244495" flag="0"/>
		</comp>
		<comp name="--.HNZ" depth="0.0">
			<acc value="0.00523282498137121" flag="0"/>
			<vel value="0.00297132303733288" flag="0"/>
			<psa03 value="0.00423916168303177" flag="0"/>
			<psa10 value="0.0027372257027692" flag="0"/>
			<psa30 value="0.00136577683017878" flag="0"/>
		</comp>
	</station>
	<station code="SIT2" name="SIT2" netid="HI" source="ITSAK Strong Motion Network" insttype="" lat="35.2059" lon="26.107">
		<comp name="--.HNE" depth="0.0">
			<acc value="0.0139161213182749" flag="0"/>
			<vel value="0.0117869662252412" flag="0"/>
			<psa03 value="0.0271383680961982" flag="0"/>
			<psa10 value="0.0156033802098615" flag="0"/>
			<psa30 value="0.000952225580271412" flag="0"/>
		</comp>
		<comp name="--.HNN" depth="0.0">
			<acc value="0.013561669569901" flag="0"/>
			<vel value="0.0111331308223294" flag="0"/>
			<psa03 value="0.0249858791502027" flag="0"/>
			<psa10 value="0.0146389091308859" flag="0"/>
			<psa30 value="0.000865648907491736" flag="0"/>
		</comp>
		<comp name="--.HNZ" depth="0.0">
			<acc value="0.00289689350323653" flag="0"/>
			<vel value="0.0031665187755185" flag="0"/>
			<psa03 value="0.00879232528694143" flag="0"/>
			<psa10 value="0.00355937696313029" flag="0"/>
			<psa30 value="0.000383524182636527" flag="0"/>
		</comp>
	</station>
	<station code="CHNB" name="CHNB" netid="HL" source="National Observatory of Athens Seismic Network" insttype="" lat="35.48765" lon="24.06605">
		<comp name="00.HNE" depth="0.0">
			<acc value="0.00651619749967261" flag="0"/>
			<vel value="0.00578881008694236" flag="0"/>
			<psa03 value="0.00896193027243934" flag="0"/>
			<psa10 value="0.0102218758991119" flag="0"/>
			<psa30 value="0.001659675153667" flag="0"/>
		</comp>
		<comp name="00.HNN" depth="0.0">
			<acc value="0.00637347499948078" flag="0"/>
			<vel value="0.00856068733008148" flag="0"/>
			<psa03 value="0.0085633068603863" flag="0"/>
			<psa10 value="0.0126552517858221" flag="0"/>
			<psa30 value="0.0025179647194718" flag="0"/>
		</comp>
		<comp name="00.HNZ" depth="0.0">
			<acc value="0.0179353635908848" flag="0"/>
			<vel value="0.00368110648849428" flag="0"/>
			<psa03 value="0.00723283981722429" flag="0"/>
			<psa10 value="0.00372944440113841" flag="0"/>
			<psa30 value="0.00136086910923302" flag="0"/>
		</comp>
	</station>
	<station code="HERG" name="HERG" netid="HL" source="National Observatory of Athens Seismic Network" insttype="" lat="35.32622" lon="25.06586">
		<comp name="00.HNE" depth="0.0">
			<acc value="0.00969066986372523" flag="0"/>
			<vel value="0.0167138103397585" flag="0"/>
			<psa03 value="0.0147689314942293" flag="0"/>
			<psa10 value="0.0274904798593744" flag="0"/>
			<psa30 value="0.00460048309276023" flag="0"/>
		</comp>
		<comp name="00.HNN" depth="0.0">
			<acc value="0.0088489607802331" flag="0"/>
			<vel value="0.0197099585441873" flag="0"/>
			<psa03 value="0.0136555973246379" flag="0"/>
			<psa10 value="0.0281415923673826" flag="0"/>
			<psa30 value="0.00345816325301039" flag="0"/>
		</comp>
		<comp name="00.HNZ" depth="0.0">
			<acc value="0.015063928195007" flag="0"/>
			<vel value="0.00619604893442161" flag="0"/>
			<psa03 value="0.0106759630895348" flag="0"/>
			<psa10 value="0.0116544904902977" flag="0"/>
			<psa30 value="0.00162763136425655" flag="0"/>
		</comp>
	</station>
	<station code="IACM" name="IACM" netid="HL" source="National Observatory of Athens Seismic Network" insttype="" lat="35.3058" lon="25.0709">
		<comp name="--.HNE" depth="0.0">
			<acc value="0.0147762341139073" flag="0"/>
			<vel value="0.0163225210078984" flag="0"/>
			<psa03 value="0.0254912980483909" flag="0"/>
			<psa10 value="0.0478148725006399" flag="0"/>
			<psa30 value="0.00340402758345463" flag="0"/>
		</comp>
		<comp name="--.HNN" depth="0.0">
			<acc value="0.0136390876827326" flag="0"/>
			<vel value="0.017625062038446" flag="0"/>
			<psa03 value="0.0241364140231403" flag="0"/>
			<psa10 value="0.0320308456363242" flag="0"/>
			<psa30 value="0.00358365781640932" flag="0"/>
		</comp>
		<comp name="--.HNZ" depth="0.0">
			<acc value="0.0126130770180854" flag="0"/>
			<vel value="0.00824158944632975" flag="0"/>
			<psa03 value="0.0171973410623619" flag="0"/>
			<psa10 value="0.0120562086646552" flag="0"/>
			<psa30 value="0.0018123319330961" flag="0"/>
		</comp>
	</station>
	<station code="IMMV" name="IMMV" netid="HL" source="National Observatory of Athens Seismic Network" insttype="" lat="35.4606" lon="23.9811">
		<comp name="--.HNE" depth="0.0">
			<acc value="0.00174828934904893" flag="0"/>
			<vel value="0.0035056707671365" flag="0"/>
			<psa03 value="0.00428660818550471" flag="0"/>
			<psa10 value="0.00498949646715377" flag="0"/>
			<psa30 value="0.00186878442279649" flag="0"/>
		</comp>
		<comp name="--.HNN" depth="0.0">
			<acc value="0.00139099703139348" flag="0"/>
			<vel value="0.00289355163486751" flag="0"/>
			<psa03 value="0.00611565057454484" flag="0"/>
			<psa10 value="0.00411630455997532" flag="0"/>
			<psa30 value="0.00156081506300451" flag="0"/>
		</comp>
		<comp name="--.HNZ" depth="0.0">
			<acc value="0.00133165995053237" flag="0"/>
			<vel value="0.00219281577191327" flag="0"/>
			<psa03 value="0.00492268580429608" flag="0"/>
			<psa10 value="0.0026887591327218" flag="0"/>
			<psa30 value="0.00103376764869992" flag="0"/>
		</comp>
	</station>
	<station code="SIVA" name="SIVA" netid="HL" source="National Observatory of Athens Seismic Network" insttype="" lat="35.01777" lon="24.81204">
		<comp name="00.HNE" depth="0.0">
			<acc value="0.00916874101939536" flag="0"/>
			<vel value="0.0114355146783204" flag="0"/>
			<psa03 value="0.0274189569963357" flag="0"/>
			<psa10 value="0.0182969670842725" flag="0"/>
			<psa30 value="0.00304999579725296" flag="0"/>
		</comp>
		<comp name="00.HNN" depth="0.0">
			<acc value="0.00718933826243663" flag="0"/>
			<vel value="0.0105571505215847" flag="0"/>
			<psa03 value="0.0179837902961806" flag="0"/>
			<psa10 value="0.0140378961917283" flag="0"/>
			<psa30 value="0.0033567994548229" flag="0"/>
		</comp>
		<comp name="00.HNZ" depth="0.0">
			<acc value="0.00513467791990511" flag="0"/>
			<vel value="0.00681007813905818" flag="0"/>
			<psa03 value="0.013581397096737" flag="0"/>
			<psa10 value="0.00732446817882022" flag="0"/>
			<psa30 value="0.00233273057361872" flag="0"/>
		</comp>
	</station>
</stationlist>
