<?xml version="1.0" encoding="UTF-8" standalone="yes"?>
<!DOCTYPE earthquake SYSTEM "stationlist.dtd">
<stationlist created="" xmlns="ch.ethz.sed.shakemap.usgs.xml">
  <station code="KALE" name="KALE" netid="HA" insttype="40," lat="38.3911" lon="22.1398">
    <comp name="--.HHZ">
      <acc value="0.1008973061" flag="0"/>
      <vel value="0.0232565097" flag="0"/>
      <psa03 value="0.0907453382" flag="0"/>
      <psa10 value="0.0240649196" flag="0"/>
      <psa30 value="0.0015891370" flag="0"/>
    </comp>
    <comp name="--.HHE">
      <acc value="0.1192680139" flag="0"/>
      <vel value="0.0329845975" flag="0"/>
      <psa03 value="0.1123619429" flag="0"/>
      <psa10 value="0.0178289329" flag="0"/>
      <psa30 value="0.0015917107" flag="0"/>
    </comp>
    <comp name="--.HHN">
      <acc value="0.1280442700" flag="0"/>
      <vel value="0.0284352114" flag="0"/>
      <psa03 value="0.1759966163" flag="0"/>
      <psa10 value="0.0185132441" flag="0"/>
      <psa30 value="0.0024432187" flag="0"/>
    </comp>
  </station>
  <station code="LAKA" name="LAKA" netid="HA" insttype="120s" lat="38.2401" lon="21.9785">
    <comp name="--.HHE">
      <acc value="0.0897199371" flag="0"/>
      <vel value="0.0157989260" flag="0"/>
      <psa03 value="0.0731841038" flag="0"/>
      <psa10 value="0.0095830096" flag="0"/>
      <psa30 value="0.0012138137" flag="0"/>
    </comp>
    <comp name="--.HHZ">
      <acc value="0.0754634448" flag="0"/>
      <vel value="0.0148997875" flag="0"/>
      <psa03 value="0.0674363856" flag="0"/>
      <psa10 value="0.0113863517" flag="0"/>
      <psa30 value="0.0022725849" flag="0"/>
    </comp>
    <comp name="--.HHN">
      <acc value="0.1050245389" flag="0"/>
      <vel value="0.0231219969" flag="0"/>
      <psa03 value="0.1110960854" flag="0"/>
      <psa10 value="0.0096227162" flag="0"/>
      <psa30 value="0.0030085081" flag="0"/>
    </comp>
  </station>
  <station code="KLV1" name="KLV1" netid="HI" insttype="CMG-5TD,ACCELEROMETER,GURALP" lat="38.0326" lon="22.108">
    <comp name="--.HNN">
      <acc value="0.0390699477" flag="0"/>
      <vel value="0.0137332913" flag="0"/>
      <psa03 value="0.0760595689" flag="0"/>
      <psa10 value="0.0063122182" flag="0"/>
      <psa30 value="0.0009486732" flag="0"/>
    </comp>
    <comp name="--.HNZ">
      <acc value="0.0267282655" flag="0"/>
      <vel value="0.0059889664" flag="0"/>
      <psa03 value="0.0356565311" flag="0"/>
      <psa10 value="0.0038200551" flag="0"/>
      <psa30 value="0.0010196552" flag="0"/>
    </comp>
    <comp name="--.HNE">
      <acc value="0.0424964675" flag="0"/>
      <vel value="0.0123372951" flag="0"/>
      <psa03 value="0.0816288555" flag="0"/>
      <psa10 value="0.0066418445" flag="0"/>
      <psa30 value="0.0007823904" flag="0"/>
    </comp>
  </station>
  <station code="MSL1" name="MSL1" netid="HI" insttype="CMG-5TD,ACCELEROMETER,GURALP" lat="38.3727" lon="21.4243">
    <comp name="--.HNN">
      <acc value="0.0196578624" flag="0"/>
      <vel value="0.0092341887" flag="0"/>
      <psa03 value="0.0568752765" flag="0"/>
      <psa10 value="0.0120132384" flag="0"/>
      <psa30 value="0.0006272904" flag="0"/>
    </comp>
    <comp name="--.HNE">
      <acc value="0.0241831630" flag="0"/>
      <vel value="0.0103026588" flag="0"/>
      <psa03 value="0.1059001880" flag="0"/>
      <psa10 value="0.0141724052" flag="0"/>
      <psa30 value="0.0011125502" flag="0"/>
    </comp>
    <comp name="--.HNZ">
      <acc value="0.0118953460" flag="0"/>
      <vel value="0.0061484456" flag="0"/>
      <psa03 value="0.0333035582" flag="0"/>
      <psa10 value="0.0077006097" flag="0"/>
      <psa30 value="0.0004042083" flag="0"/>
    </comp>
  </station>
  <station code="EVR" name="EVR" netid="HL" insttype="DR24" lat="38.9166" lon="21.8105">
    <comp name="--.HHN">
      <acc value="0.0147809479" flag="0"/>
      <vel value="0.0070882676" flag="0"/>
      <psa03 value="0.0168307658" flag="0"/>
      <psa10 value="0.0055287308" flag="0"/>
      <psa30 value="0.0007118613" flag="0"/>
    </comp>
    <comp name="--.HHZ">
      <acc value="0.0094266454" flag="0"/>
      <vel value="0.0055627197" flag="0"/>
      <psa03 value="0.0130379134" flag="0"/>
      <psa10 value="0.0059141523" flag="0"/>
      <psa30 value="0.0006539524" flag="0"/>
    </comp>
    <comp name="--.HHE">
      <acc value="0.0168431283" flag="0"/>
      <vel value="0.0075633918" flag="0"/>
      <psa03 value="0.0280046427" flag="0"/>
      <psa10 value="0.0091930025" flag="0"/>
      <psa30 value="0.0008801464" flag="0"/>
    </comp>
  </station>
  <station code="KLV" name="KLV" netid="HL" insttype="120" lat="38.0435" lon="22.1504">
    <comp name="--.HHE">
      <acc value="0.0160813215" flag="0"/>
      <vel value="0.0035616793" flag="0"/>
      <psa03 value="0.0179118316" flag="0"/>
      <psa10 value="0.0024242682" flag="0"/>
      <psa30 value="0.0002941754" flag="0"/>
    </comp>
    <comp name="--.HHN">
      <acc value="0.0247403020" flag="0"/>
      <vel value="0.0045368305" flag="0"/>
      <psa03 value="0.0169677032" flag="0"/>
      <psa10 value="0.0024904476" flag="0"/>
      <psa30 value="0.0006047199" flag="0"/>
    </comp>
    <comp name="--.HHZ">
      <acc value="0.0167722987" flag="0"/>
      <vel value="0.0029658292" flag="0"/>
      <psa03 value="0.0123363205" flag="0"/>
      <psa10 value="0.0019008659" flag="0"/>
      <psa30 value="0.0008843806" flag="0"/>
    </comp>
  </station>
  <station code="LKR" name="LKR" netid="HL" insttype="30" lat="38.6496" lon="22.9989">
    <comp name="--.HHZ">
      <acc value="0.0035485945" flag="0"/>
      <vel value="0.0015690615" flag="0"/>
      <psa03 value="0.0049123634" flag="0"/>
      <psa10 value="0.0016176729" flag="0"/>
      <psa30 value="0.0002426947" flag="0"/>
    </comp>
    <comp name="--.HHN">
      <acc value="0.0084190110" flag="0"/>
      <vel value="0.0025018508" flag="0"/>
      <psa03 value="0.0094936245" flag="0"/>
      <psa10 value="0.0024206664" flag="0"/>
      <psa30 value="0.0002481434" flag="0"/>
    </comp>
    <comp name="--.HHE">
      <acc value="0.0102568778" flag="0"/>
      <vel value="0.0024783711" flag="0"/>
      <psa03 value="0.0067776449" flag="0"/>
      <psa10 value="0.0017052416" flag="0"/>
      <psa30 value="0.0002437125" flag="0"/>
    </comp>
  </station>
  <station code="PATC" name="PATC" netid="HL" insttype="CMG-5" lat="38.2693" lon="21.76">
    <comp name="00.HNZ">
      <acc value="0.1625463626" flag="0"/>
      <vel value="0.0316836436" flag="0"/>
      <psa03 value="0.2042202340" flag="0"/>
      <psa10 value="0.0224050423" flag="0"/>
      <psa30 value="0.0026724579" flag="0"/>
    </comp>
    <comp name="00.HNE">
      <acc value="0.1090810824" flag="0"/>
      <vel value="0.0395655844" flag="0"/>
      <psa03 value="0.2299702533" flag="0"/>
      <psa10 value="0.0292867769" flag="0"/>
      <psa30 value="0.0036649586" flag="0"/>
    </comp>
    <comp name="00.HNN">
      <acc value="0.1902236946" flag="0"/>
      <vel value="0.0801793095" flag="0"/>
      <psa03 value="0.3550405053" flag="0"/>
      <psa10 value="0.0392873430" flag="0"/>
      <psa30 value="0.0061142041" flag="0"/>
    </comp>
  </station>
  <station code="PATG" name="PATG" netid="HL" insttype="CMG-5" lat="38.2386" lon="21.7266">
    <comp name="00.HNN">
      <acc value="0.0978370350" flag="0"/>
      <vel value="0.0409073207" flag="0"/>
      <psa03 value="0.1690473548" flag="0"/>
      <psa10 value="0.0279617943" flag="0"/>
      <psa30 value="0.0053486290" flag="0"/>
    </comp>
    <comp name="00.HNE">
      <acc value="0.1279258222" flag="0"/>
      <vel value="0.0391362283" flag="0"/>
      <psa03 value="0.2100685763" flag="0"/>
      <psa10 value="0.0293980573" flag="0"/>
      <psa30 value="0.0036309014" flag="0"/>
    </comp>
    <comp name="00.HNZ">
      <acc value="0.0622073097" flag="0"/>
      <vel value="0.0200416850" flag="0"/>
      <psa03 value="0.0799948250" flag="0"/>
      <psa10 value="0.0221593597" flag="0"/>
      <psa30 value="0.0026264527" flag="0"/>
    </comp>
  </station>
  <station code="RIOA" name="RIOA" netid="HL" insttype="CMG-5" lat="38.2959" lon="21.7912">
    <comp name="00.HNN">
      <acc value="0.1668461486" flag="0"/>
      <vel value="0.0606321512" flag="0"/>
      <psa03 value="0.2188027354" flag="0"/>
      <psa10 value="0.0152145674" flag="0"/>
      <psa30 value="0.0022989642" flag="0"/>
    </comp>
    <comp name="00.HNE">
      <acc value="0.2487852750" flag="0"/>
      <vel value="0.0585141694" flag="0"/>
      <psa03 value="0.2392096105" flag="0"/>
      <psa10 value="0.0243941577" flag="0"/>
      <psa30 value="0.0034687163" flag="0"/>
    </comp>
    <comp name="00.HNZ">
      <acc value="0.1381809707" flag="0"/>
      <vel value="0.0293778431" flag="0"/>
      <psa03 value="0.1130024650" flag="0"/>
      <psa10 value="0.0125505346" flag="0"/>
      <psa30 value="0.0025364997" flag="0"/>
    </comp>
  </station>
  <station code="RLS" name="RLS" netid="HL" insttype="CMG3ESPC-120s" lat="38.0559" lon="21.4647">
    <comp name="--.HHE">
      <acc value="0.0210111925" flag="0"/>
      <vel value="0.0059314466" flag="0"/>
      <psa03 value="0.0392426447" flag="0"/>
      <psa10 value="0.0026473379" flag="0"/>
      <psa30 value="0.0002587515" flag="0"/>
    </comp>
    <comp name="--.HHZ">
      <acc value="0.0080324588" flag="0"/>
      <vel value="0.0026923661" flag="0"/>
      <psa03 value="0.0216184563" flag="0"/>
      <psa10 value="0.0017832689" flag="0"/>
      <psa30 value="0.0005278759" flag="0"/>
    </comp>
    <comp name="--.HHN">
      <acc value="0.0231161922" flag="0"/>
      <vel value="0.0080842702" flag="0"/>
      <psa03 value="0.0429498395" flag="0"/>
      <psa10 value="0.0026167828" flag="0"/>
      <psa30 value="0.0003117651" flag="0"/>
    </comp>
  </station>
  <station code="AMT" name="AMT" netid="HP" insttype="CMG-3T," lat="37.5324" lon="21.7089">
    <comp name="00.HHE">
      <acc value="0.0091477934" flag="0"/>
      <vel value="0.0045239001" flag="0"/>
      <psa03 value="0.0319347738" flag="0"/>
      <psa10 value="0.0032184223" flag="0"/>
      <psa30 value="0.0002918148" flag="0"/>
    </comp>
    <comp name="00.HHZ">
      <acc value="0.0060764460" flag="0"/>
      <vel value="0.0034364785" flag="0"/>
      <psa03 value="0.0259407592" flag="0"/>
      <psa10 value="0.0017896515" flag="0"/>
      <psa30 value="0.0001424725" flag="0"/>
    </comp>
    <comp name="00.HHN">
      <acc value="0.0154440773" flag="0"/>
      <vel value="0.0071419306" flag="0"/>
      <psa03 value="0.0346064729" flag="0"/>
      <psa10 value="0.0033412793" flag="0"/>
      <psa30 value="0.0002723978" flag="0"/>
    </comp>
  </station>
  <station code="ANX" name="ANX" netid="HP" insttype="120" lat="38.5933" lon="21.9209">
    <comp name="--.HHN">
      <acc value="0.0995001771" flag="0"/>
      <vel value="0.0511324126" flag="0"/>
      <psa03 value="0.2255552316" flag="0"/>
      <psa10 value="0.0288227502" flag="0"/>
      <psa30 value="0.0018424974" flag="0"/>
    </comp>
    <comp name="--.HHE">
      <acc value="0.1492389195" flag="0"/>
      <vel value="0.0461785809" flag="0"/>
      <psa03 value="0.2174710992" flag="0"/>
      <psa10 value="0.0222244994" flag="0"/>
      <psa30 value="0.0021791905" flag="0"/>
    </comp>
    <comp name="--.HHZ">
      <acc value="0.0798232281" flag="0"/>
      <vel value="0.0220593266" flag="0"/>
      <psa03 value="0.1426078105" flag="0"/>
      <psa10 value="0.0180320296" flag="0"/>
      <psa30 value="0.0017833102" flag="0"/>
    </comp>
  </station>
  <station code="AXS" name="AXS" netid="HP" insttype="40," lat="38.1962" lon="21.3763">
    <comp name="--.HHE">
      <acc value="0.0109486575" flag="0"/>
      <vel value="0.0026140181" flag="0"/>
      <psa03 value="0.0232731856" flag="0"/>
      <psa10 value="0.0009168456" flag="0"/>
      <psa30 value="0.0000904680" flag="0"/>
    </comp>
    <comp name="--.HHZ">
      <acc value="0.0082331555" flag="0"/>
      <vel value="0.0024141750" flag="0"/>
      <psa03 value="0.0128356735" flag="0"/>
      <psa10 value="0.0008372599" flag="0"/>
      <psa30 value="0.0000915871" flag="0"/>
    </comp>
    <comp name="--.HHN">
      <acc value="0.0126926780" flag="0"/>
      <vel value="0.0042713672" flag="0"/>
      <psa03 value="0.0325979592" flag="0"/>
      <psa10 value="0.0026421400" flag="0"/>
      <psa30 value="0.0001327862" flag="0"/>
    </comp>
  </station>
  <station code="DRO" name="DRO" netid="HP" insttype="120P," lat="37.952" lon="21.71">
    <comp name="--.HHZ">
      <acc value="0.0359763697" flag="0"/>
      <vel value="0.0106674933" flag="0"/>
      <psa03 value="0.0578249698" flag="0"/>
      <psa10 value="0.0034834750" flag="0"/>
      <psa30 value="0.0005749172" flag="0"/>
    </comp>
    <comp name="--.HHE">
      <acc value="0.0661686234" flag="0"/>
      <vel value="0.0181915552" flag="0"/>
      <psa03 value="0.1242400782" flag="0"/>
      <psa10 value="0.0069636206" flag="0"/>
      <psa30 value="0.0008483963" flag="0"/>
    </comp>
    <comp name="--.HHN">
      <acc value="0.0457906291" flag="0"/>
      <vel value="0.0122445492" flag="0"/>
      <psa03 value="0.0927301749" flag="0"/>
      <psa10 value="0.0050908828" flag="0"/>
      <psa30 value="0.0006774175" flag="0"/>
    </comp>
  </station>
  <station code="EFP" name="EFP" netid="HP" insttype="40," lat="38.4269" lon="21.9058">
    <comp name="--.HHN">
      <acc value="0.1249099897" flag="0"/>
      <vel value="0.0341951034" flag="0"/>
      <psa03 value="0.0936908112" flag="0"/>
      <psa10 value="0.0106902240" flag="0"/>
      <psa30 value="0.0010805936" flag="0"/>
    </comp>
    <comp name="--.HHE">
      <acc value="0.1715107608" flag="0"/>
      <vel value="0.0325215603" flag="0"/>
      <psa03 value="0.1618848694" flag="0"/>
      <psa10 value="0.0126853741" flag="0"/>
      <psa30 value="0.0015480101" flag="0"/>
    </comp>
    <comp name="--.HHZ">
      <acc value="0.0835340543" flag="0"/>
      <vel value="0.0242135933" flag="0"/>
      <psa03 value="0.1023035321" flag="0"/>
      <psa10 value="0.0093216369" flag="0"/>
      <psa30 value="0.0010127442" flag="0"/>
    </comp>
  </station>
  <station code="GUR" name="GUR" netid="HP" insttype="40," lat="37.9363" lon="22.3423">
    <comp name="--.HHN">
      <acc value="0.0149964652" flag="0"/>
      <vel value="0.0061321820" flag="0"/>
      <psa03 value="0.0479362172" flag="0"/>
      <psa10 value="0.0032325271" flag="0"/>
      <psa30 value="0.0003532891" flag="0"/>
    </comp>
    <comp name="--.HHZ">
      <acc value="0.0089901843" flag="0"/>
      <vel value="0.0030397834" flag="0"/>
      <psa03 value="0.0166860089" flag="0"/>
      <psa10 value="0.0018788962" flag="0"/>
      <psa30 value="0.0003692309" flag="0"/>
    </comp>
    <comp name="--.HHE">
      <acc value="0.0153219973" flag="0"/>
      <vel value="0.0053680467" flag="0"/>
      <psa03 value="0.0434153454" flag="0"/>
      <psa10 value="0.0032393105" flag="0"/>
      <psa30 value="0.0001959135" flag="0"/>
    </comp>
  </station>
  <station code="PLEV" name="PLEV" netid="HP" insttype="Compact," lat="38.4124" lon="21.4073">
    <comp name="--.HHN">
      <acc value="0.0120597141" flag="0"/>
      <vel value="0.0040897335" flag="0"/>
      <psa03 value="0.0204366580" flag="0"/>
      <psa10 value="0.0034890461" flag="0"/>
      <psa30 value="0.0002553050" flag="0"/>
    </comp>
    <comp name="--.HHE">
      <acc value="0.0118724116" flag="0"/>
      <vel value="0.0039726530" flag="0"/>
      <psa03 value="0.0152231346" flag="0"/>
      <psa10 value="0.0018893438" flag="0"/>
      <psa30 value="0.0002509578" flag="0"/>
    </comp>
    <comp name="--.HHZ">
      <acc value="0.0069039617" flag="0"/>
      <vel value="0.0023564207" flag="0"/>
      <psa03 value="0.0139655498" flag="0"/>
      <psa10 value="0.0015687205" flag="0"/>
      <psa30 value="0.0002258267" flag="0"/>
    </comp>
  </station>
  <station code="PVO" name="PVO" netid="HP" insttype="120P," lat="38.616" lon="21.525">
    <comp name="--.HHZ">
      <acc value="0.0067784227" flag="0"/>
      <vel value="0.0037027372" flag="0"/>
      <psa03 value="0.0188016423" flag="0"/>
      <psa10 value="0.0037972886" flag="0"/>
      <psa30 value="0.0006576501" flag="0"/>
    </comp>
    <comp name="--.HHE">
      <acc value="0.1124931720" flag="0"/>
      <vel value="0.0112689739" flag="0"/>
      <psa03 value="0.0295150792" flag="0"/>
      <psa10 value="0.0039970679" flag="0"/>
      <psa30 value="0.0004481573" flag="0"/>
    </comp>
    <comp name="--.HHN">
      <acc value="0.0121724645" flag="0"/>
      <vel value="0.0047991768" flag="0"/>
      <psa03 value="0.0383324015" flag="0"/>
      <psa10 value="0.0032786738" flag="0"/>
      <psa30 value="0.0010461757" flag="0"/>
    </comp>
  </station>
  <station code="SERG" name="SERG" netid="HP" insttype="2000" lat="38.4133" lon="22.0566">
    <comp name="00.HHE">
      <acc value="0.6233652865" flag="0"/>
      <vel value="0.1334988665" flag="0"/>
      <psa03 value="0.4271630387" flag="0"/>
      <psa10 value="0.0589139039" flag="0"/>
      <psa30 value="0.0061664487" flag="0"/>
    </comp>
    <comp name="00.HHN">
      <acc value="0.5959883106" flag="0"/>
      <vel value="0.1910846786" flag="0"/>
      <psa03 value="0.6478579490" flag="0"/>
      <psa10 value="0.0787173073" flag="0"/>
      <psa30 value="0.0055575020" flag="0"/>
    </comp>
    <comp name="00.HHZ">
      <acc value="0.3297656887" flag="0"/>
      <vel value="0.0932757735" flag="0"/>
      <psa03 value="0.2472913414" flag="0"/>
      <psa10 value="0.0472500607" flag="0"/>
      <psa30 value="0.0038173410" flag="0"/>
    </comp>
  </station>
  <station code="UPR" name="UPR" netid="HP" insttype="120" lat="0" lon="0">
    <comp name="--.HHE">
      <acc value="0.2523882648" flag="0"/>
      <vel value="0.0653676732" flag="0"/>
      <psa03 value="0.2722736132" flag="0"/>
      <psa10 value="0.0241545367" flag="0"/>
      <psa30 value="0.0029117801" flag="0"/>
    </comp>
    <comp name="--.HHN">
      <acc value="0.2234257023" flag="0"/>
      <vel value="0.0612329480" flag="0"/>
      <psa03 value="0.2399328191" flag="0"/>
      <psa10 value="0.0420143610" flag="0"/>
      <psa30 value="0.0044295393" flag="0"/>
    </comp>
    <comp name="--.HHZ">
      <acc value="0.1443299756" flag="0"/>
      <vel value="0.0378595468" flag="0"/>
      <psa03 value="0.1753815832" flag="0"/>
      <psa10 value="0.0351763432" flag="0"/>
      <psa30 value="0.0023172900" flag="0"/>
    </comp>
  </station>
  <station code="KLV" name="KLV" netid="MN" insttype="" lat="38.0437" lon="22.1504">
    <comp name="--.HHE">
      <acc value="0.0182907784" flag="0"/>
      <vel value="0.0036883821" flag="0"/>
      <psa03 value="0.0184398118" flag="0"/>
      <psa10 value="0.0024432858" flag="0"/>
      <psa30 value="0.0002948036" flag="0"/>
    </comp>
    <comp name="--.HHN">
      <acc value="0.0259921539" flag="0"/>
      <vel value="0.0046867481" flag="0"/>
      <psa03 value="0.0173790926" flag="0"/>
      <psa10 value="0.0025062526" flag="0"/>
      <psa30 value="0.0006063784" flag="0"/>
    </comp>
    <comp name="--.HHZ">
      <acc value="0.0176685283" flag="0"/>
      <vel value="0.0030636525" flag="0"/>
      <psa03 value="0.0127385895" flag="0"/>
      <psa10 value="0.0019325534" flag="0"/>
      <psa30 value="0.0008855798" flag="0"/>
    </comp>
  </station>
</stationlist>
