<?xml version="1.0" encoding="UTF-8" standalone="yes"?>
<!DOCTYPE earthquake SYSTEM "stationlist.dtd">
<stationlist created="" xmlns="ch.ethz.sed.shakemap.usgs.xml">
  <station code="AKDM" name="AKDM" netid="KO" insttype="CMG-3ESP" lat="38.3285" lon="42.98">
    <comp name="--.HHE">
      <acc value="0.0033889387" flag="0"/>
      <vel value="0.0036253390" flag="0"/>
      <psa03 value="0.0059227019" flag="0"/>
      <psa10 value="0.0040378809" flag="0"/>
      <psa30 value="0.0008413976" flag="0"/>
    </comp>
    <comp name="--.HHN">
      <acc value="0.0026641611" flag="0"/>
      <vel value="0.0038794161" flag="0"/>
      <psa03 value="0.0128709005" flag="0"/>
      <psa10 value="0.0038157370" flag="0"/>
      <psa30 value="0.0022979599" flag="0"/>
    </comp>
    <comp name="--.HHZ">
      <acc value="0.0025771949" flag="0"/>
      <vel value="0.0025452296" flag="0"/>
      <psa03 value="0.0057605065" flag="0"/>
      <psa10 value="0.0021400237" flag="0"/>
      <psa30 value="0.0009092359" flag="0"/>
    </comp>
  </station>
  <station code="GURO" name="GURO" netid="KO" insttype="CMG-3T" lat="38.5509" lon="42.0322">
    <comp name="--.HHN">
      <acc value="0.0036170890" flag="0"/>
      <vel value="0.0032077155" flag="0"/>
      <psa03 value="0.0101198729" flag="0"/>
      <psa10 value="0.0034869761" flag="0"/>
      <psa30 value="0.0004103638" flag="0"/>
    </comp>
    <comp name="--.HHZ">
      <acc value="0.0034942898" flag="0"/>
      <vel value="0.0026585942" flag="0"/>
      <psa03 value="0.0089886547" flag="0"/>
      <psa10 value="0.0033008170" flag="0"/>
      <psa30 value="0.0006200106" flag="0"/>
    </comp>
    <comp name="--.HHE">
      <acc value="0.0049460735" flag="0"/>
      <vel value="0.0039987981" flag="0"/>
      <psa03 value="0.0131892919" flag="0"/>
      <psa10 value="0.0046937273" flag="0"/>
      <psa30 value="0.0005830310" flag="0"/>
    </comp>
  </station>
  <station code="SIRT" name="SIRT" netid="KO" insttype="CMG-3T" lat="37.501" lon="42.4392">
    <comp name="--.HHE">
      <acc value="0.0246252989" flag="0"/>
      <vel value="0.0177625931" flag="0"/>
      <psa03 value="0.0744211081" flag="0"/>
      <psa10 value="0.0331725950" flag="0"/>
      <psa30 value="0.0030877589" flag="0"/>
    </comp>
    <comp name="--.HHN">
      <acc value="0.0262459424" flag="0"/>
      <vel value="0.0165019572" flag="0"/>
      <psa03 value="0.0566122441" flag="0"/>
      <psa10 value="0.0378010179" flag="0"/>
      <psa30 value="0.0024341906" flag="0"/>
    </comp>
  </station>
  <station code="SVAN" name="SVAN" netid="KO" insttype="CMG-3T" lat="38.1511" lon="41.1984">
    <comp name="--.HHE">
      <acc value="0.0028099571" flag="0"/>
      <vel value="0.0021324914" flag="0"/>
      <psa03 value="0.0081527585" flag="0"/>
      <psa10 value="0.0026128888" flag="0"/>
      <psa30 value="0.0009219795" flag="0"/>
    </comp>
    <comp name="--.HHZ">
      <acc value="0.0029942048" flag="0"/>
      <vel value="0.0034013521" flag="0"/>
      <psa03 value="0.0053612659" flag="0"/>
      <psa10 value="0.0035515751" flag="0"/>
      <psa30 value="0.0009721104" flag="0"/>
    </comp>
    <comp name="--.HHN">
      <acc value="0.0034536052" flag="0"/>
      <vel value="0.0023425866" flag="0"/>
      <psa03 value="0.0086245548" flag="0"/>
      <psa10 value="0.0052182852" flag="0"/>
      <psa30 value="0.0015284192" flag="0"/>
    </comp>
  </station>
</stationlist>
