<?xml version="1.0" encoding="UTF-8" standalone="yes"?>
<!DOCTYPE earthquake SYSTEM "stationlist.dtd">
<stationlist created="" xmlns="ch.ethz.sed.shakemap.usgs.xml">
  <station code="ARPRA" name="ARPRA" netid="KO" insttype="CMG-5T" lat="39.0929" lon="38.3356">
    <comp name="--.HNE">
      <acc value="0.0080342362" flag="0"/>
      <vel value="0.0033912460" flag="0"/>
      <psa03 value="0.0138948645" flag="0"/>
      <psa10 value="0.0019070020" flag="0"/>
      <psa30 value="0.0002966527" flag="0"/>
    </comp>
    <comp name="--.HNZ">
      <acc value="0.0044278928" flag="0"/>
      <vel value="0.0011664695" flag="0"/>
      <psa03 value="0.0061007580" flag="0"/>
      <psa10 value="0.0017817282" flag="0"/>
      <psa30 value="0.0002256935" flag="0"/>
    </comp>
    <comp name="--.HNN">
      <acc value="0.0064662115" flag="0"/>
      <vel value="0.0024457979" flag="0"/>
      <psa03 value="0.0189087498" flag="0"/>
      <psa10 value="0.0019821752" flag="0"/>
      <psa30 value="0.0002634643" flag="0"/>
    </comp>
  </station>
  <station code="SVRC" name="SVRC" netid="KO" insttype="CMG-3T" lat="38.3775" lon="39.306">
    <comp name="--.HHN">
      <acc value="0.0027866709" flag="0"/>
      <vel value="0.0011288723" flag="0"/>
      <psa03 value="0.0075984566" flag="0"/>
      <psa10 value="0.0008262897" flag="0"/>
      <psa30 value="0.0000749137" flag="0"/>
    </comp>
    <comp name="--.HHZ">
      <acc value="0.0021499180" flag="0"/>
      <vel value="0.0007179952" flag="0"/>
      <psa03 value="0.0053004508" flag="0"/>
      <psa10 value="0.0006792758" flag="0"/>
      <psa30 value="0.0000567151" flag="0"/>
    </comp>
  </station>
  <station code="URFA" name="URFA" netid="KO" insttype="CMG-3ESP" lat="37.4409" lon="38.8213">
    <comp name="--.HHZ">
      <acc value="0.0073137705" flag="0"/>
      <vel value="0.0024873335" flag="0"/>
      <psa03 value="0.0146412599" flag="0"/>
      <psa10 value="0.0012916901" flag="0"/>
      <psa30 value="0.0000936903" flag="0"/>
    </comp>
    <comp name="--.HHE">
      <acc value="0.0081742936" flag="0"/>
      <vel value="0.0041644854" flag="0"/>
      <psa03 value="0.0211335009" flag="0"/>
      <psa10 value="0.0030865291" flag="0"/>
      <psa30 value="0.0001712884" flag="0"/>
    </comp>
    <comp name="--.HHN">
      <acc value="0.0093402219" flag="0"/>
      <vel value="0.0038008800" flag="0"/>
      <psa03 value="0.0092838881" flag="0"/>
      <psa10 value="0.0029662834" flag="0"/>
      <psa30 value="0.0002411678" flag="0"/>
    </comp>
  </station>
</stationlist>
