<stationlist xmlns:esm="https://esm-db.eu/esmws/shakemap/1/" created="1783475654">
	<station code="KARP" name="KARP" netid="GE" source="GEOFON" insttype="" lat="35.5471" lon="27.16106" esm:processing="manual (Paolucci et al 2011)" esm:quality="good">
		<comp name="--.HNE" depth="0.0">
			<acc value="0.129189921658198" flag="0"/>
			<vel value="0.0633228525040399" flag="0"/>
			<psa03 value="0.455296694547533" flag="0"/>
			<psa10 value="0.0447377323976099" flag="0"/>
			<psa30 value="0.0026174190871689" flag="0"/>
		</comp>
		<comp name="--.HNN" depth="0.0">
			<acc value="0.170398065053852" flag="0"/>
			<vel value="0.0747778033141102" flag="0"/>
			<psa03 value="0.41319427811974" flag="0"/>
			<psa10 value="0.0471779723465705" flag="0"/>
			<psa30 value="0.00282591777001004" flag="0"/>
		</comp>
		<comp name="--.HNZ" depth="0.0">
			<acc value="0.094948681029032" flag="0"/>
			<vel value="0.0580052026433699" flag="0"/>
			<psa03 value="0.327333983619276" flag="0"/>
			<psa10 value="0.0259486901503329" flag="0"/>
			<psa30 value="0.00215612693693452" flag="0"/>
		</comp>
	</station>
	<station code="RDI1" name="RDI1" netid="HI" source="ITSAK Strong Motion Network" insttype="" lat="36.4514" lon="28.224" esm:processing="manual (Paolucci et al 2011)" esm:quality="good">
		<comp name="--.HNE" depth="0.0">
			<acc value="0.0049065869717273" flag="0"/>
			<vel value="0.00479164930933957" flag="0"/>
			<psa03 value="0.0145919718548341" flag="0"/>
			<psa10 value="0.00625778267237237" flag="0"/>
			<psa30 value="0.00122955332687287" flag="0"/>
		</comp>
		<comp name="--.HNN" depth="0.0">
			<acc value="0.00479229862805126" flag="0"/>
			<vel value="0.00457009894182402" flag="0"/>
			<psa03 value="0.0154479686646018" flag="0"/>
			<psa10 value="0.00555676326455881" flag="0"/>
			<psa30 value="0.000822160245331279" flag="0"/>
		</comp>
		<comp name="--.HNZ" depth="0.0">
			<acc value="0.00394722478568288" flag="0"/>
			<vel value="0.00277660560493966" flag="0"/>
			<psa03 value="0.0127603427059271" flag="0"/>
			<psa10 value="0.00426730221908908" flag="0"/>
			<psa30 value="0.000417585866139293" flag="0"/>
		</comp>
	</station>
	<station code="RGE1" name="RGE1" netid="HI" source="ITSAK Strong Motion Network" insttype="" lat="36.0269" lon="27.9306" esm:processing="manual (Paolucci et al 2011)" esm:quality="good">
		<comp name="--.HNE" depth="0.0">
			<acc value="0.00763958303056912" flag="0"/>
			<vel value="0.00379858198340921" flag="0"/>
			<psa03 value="0.0238919837683216" flag="0"/>
			<psa10 value="0.00559944390443749" flag="0"/>
			<psa30 value="0.000508486653497454" flag="0"/>
		</comp>
		<comp name="--.HNN" depth="0.0">
			<acc value="0.00919560107235804" flag="0"/>
			<vel value="0.00618551841143342" flag="0"/>
			<psa03 value="0.0325234409766643" flag="0"/>
			<psa10 value="0.00760495207201609" flag="0"/>
			<psa30 value="0.000511871304793909" flag="0"/>
		</comp>
		<comp name="--.HNZ" depth="0.0">
			<acc value="0.00611620617297938" flag="0"/>
			<vel value="0.00323954275887303" flag="0"/>
			<psa03 value="0.0174954402370465" flag="0"/>
			<psa10 value="0.00312581964833608" flag="0"/>
			<psa30 value="0.000448041659727488" flag="0"/>
		</comp>
	</station>
	<station code="SIT2" name="SIT2" netid="HI" source="ITSAK Strong Motion Network" insttype="" lat="35.2059" lon="26.107" esm:processing="manual (Paolucci et al 2011)" esm:quality="good">
		<comp name="--.HNE" depth="0.0">
			<acc value="0.172482526616652" flag="0"/>
			<vel value="0.109078074997993" flag="0"/>
			<psa03 value="0.456281023093135" flag="0"/>
			<psa10 value="0.0635146942491" flag="0"/>
			<psa30 value="0.00450151340786432" flag="0"/>
		</comp>
		<comp name="--.HNN" depth="0.0">
			<acc value="0.151477904811846" flag="0"/>
			<vel value="0.0983779991125969" flag="0"/>
			<psa03 value="0.598113818073057" flag="0"/>
			<psa10 value="0.0483578243350943" flag="0"/>
			<psa30 value="0.00332703048413469" flag="0"/>
		</comp>
		<comp name="--.HNZ" depth="0.0">
			<acc value="0.0826072405407766" flag="0"/>
			<vel value="0.0461976902772094" flag="0"/>
			<psa03 value="0.225948143422272" flag="0"/>
			<psa10 value="0.0225259113440351" flag="0"/>
			<psa30 value="0.00146441242261603" flag="0"/>
		</comp>
	</station>
	<station code="AGNA" name="AGNA" netid="HL" source="National Observatory of Athens Seismic Network" insttype="" lat="35.1895" lon="25.71853" esm:processing="manual (Paolucci et al 2011)" esm:quality="good">
		<comp name="00.HNE" depth="0.0">
			<acc value="0.0177224957500607" flag="0"/>
			<vel value="0.0125357758227778" flag="0"/>
			<psa03 value="0.0621318242617635" flag="0"/>
			<psa10 value="0.00973127121145915" flag="0"/>
			<psa30 value="0.000731807020290238" flag="0"/>
		</comp>
		<comp name="00.HNN" depth="0.0">
			<acc value="0.0252351314941871" flag="0"/>
			<vel value="0.0223255472221558" flag="0"/>
			<psa03 value="0.0613724718750612" flag="0"/>
			<psa10 value="0.0371633531397572" flag="0"/>
			<psa30 value="0.00176081581207258" flag="0"/>
		</comp>
		<comp name="00.HNZ" depth="0.0">
			<acc value="0.0114911408284735" flag="0"/>
			<vel value="0.00413845022247468" flag="0"/>
			<psa03 value="0.028703677519432" flag="0"/>
			<psa10 value="0.00491335376682356" flag="0"/>
			<psa30 value="0.000517796801496884" flag="0"/>
		</comp>
	</station>
	<station code="IACM" name="IACM" netid="HL" source="National Observatory of Athens Seismic Network" insttype="" lat="35.3058" lon="25.0709" esm:processing="manual (Paolucci et al 2011)" esm:quality="good">
		<comp name="--.HNE" depth="0.0">
			<acc value="0.0305036716869064" flag="0"/>
			<vel value="0.0206431251731587" flag="0"/>
			<psa03 value="0.0688582559855202" flag="0"/>
			<psa10 value="0.0408196573640479" flag="0"/>
			<psa30 value="0.00193331074797552" flag="0"/>
		</comp>
		<comp name="--.HNN" depth="0.0">
			<acc value="0.0227631600828239" flag="0"/>
			<vel value="0.0165561940362923" flag="0"/>
			<psa03 value="0.0766881421437178" flag="0"/>
			<psa10 value="0.0267419694736748" flag="0"/>
			<psa30 value="0.00172436464306819" flag="0"/>
		</comp>
		<comp name="--.HNZ" depth="0.0">
			<acc value="0.0176351197551205" flag="0"/>
			<vel value="0.0103448531730796" flag="0"/>
			<psa03 value="0.0385677821049503" flag="0"/>
			<psa10 value="0.0102119612385543" flag="0"/>
			<psa30 value="0.000680081540597731" flag="0"/>
		</comp>
	</station>
	<station code="KARP" name="KARP" netid="HL" source="National Observatory of Athens Seismic Network" insttype="" lat="35.5471" lon="27.16106" esm:processing="manual (Paolucci et al 2011)" esm:quality="good">
		<comp name="--.HNE" depth="0.0">
			<acc value="0.126573240900104" flag="0"/>
			<vel value="0.0620620607272532" flag="0"/>
			<psa03 value="0.446079799984169" flag="0"/>
			<psa10 value="0.043819622317803" flag="0"/>
			<psa30 value="0.00254851608897676" flag="0"/>
		</comp>
		<comp name="--.HNN" depth="0.0">
			<acc value="0.166956924773247" flag="0"/>
			<vel value="0.0732475866924345" flag="0"/>
			<psa03 value="0.404782743275505" flag="0"/>
			<psa10 value="0.0462236210794027" flag="0"/>
			<psa30 value="0.00278072814132559" flag="0"/>
		</comp>
		<comp name="--.HNZ" depth="0.0">
			<acc value="0.0930246212302021" flag="0"/>
			<vel value="0.0568581428202022" flag="0"/>
			<psa03 value="0.320712137039772" flag="0"/>
			<psa10 value="0.0254171527357078" flag="0"/>
			<psa30 value="0.00210556824345587" flag="0"/>
		</comp>
	</station>
	<station code="KLNA" name="KLNA" netid="HL" source="National Observatory of Athens Seismic Network" insttype="" lat="36.95708" lon="26.97274" esm:processing="automatic (Paolucci et al 2011)" esm:quality="good">
		<comp name="00.HNE" depth="0.0">
			<acc value="0.0190864786463115" flag="0"/>
			<vel value="0.0090266564307791" flag="0"/>
			<psa03 value="0.0144069905310835" flag="0"/>
			<psa10 value="0.00103891403767627" flag="0"/>
			<psa30 value="0.000196418287054213" flag="0"/>
		</comp>
		<comp name="00.HNN" depth="0.0">
			<acc value="0.0138700737534429" flag="0"/>
			<vel value="0.0084937135681161" flag="0"/>
			<psa03 value="0.011856684753842" flag="0"/>
			<psa10 value="0.000958378065763381" flag="0"/>
			<psa30 value="0.000132436931590084" flag="0"/>
		</comp>
		<comp name="00.HNZ" depth="0.0">
			<acc value="0.0195652661488306" flag="0"/>
			<vel value="0.00708542582420754" flag="0"/>
			<psa03 value="0.00416102521549927" flag="0"/>
			<psa10 value="0.000624153782324891" flag="0"/>
			<psa30 value="0.000125725600597344" flag="0"/>
		</comp>
	</station>
	<station code="ZKR" name="ZKR" netid="HL" source="National Observatory of Athens Seismic Network" insttype="" lat="35.1147" lon="26.21691" esm:processing="manual (Paolucci et al 2011)" esm:quality="good">
		<comp name="00.HNE" depth="0.0">
			<acc value="0.0592226003044581" flag="0"/>
			<vel value="0.0414009788443647" flag="0"/>
			<psa03 value="0.120088082563441" flag="0"/>
			<psa10 value="0.0321821743763905" flag="0"/>
			<psa30 value="0.00152884120014635" flag="0"/>
		</comp>
		<comp name="00.HNN" depth="0.0">
			<acc value="0.0693240372141539" flag="0"/>
			<vel value="0.0258196306248183" flag="0"/>
			<psa03 value="0.161698334718434" flag="0"/>
			<psa10 value="0.0172185907949757" flag="0"/>
			<psa30 value="0.00193241590384316" flag="0"/>
		</comp>
		<comp name="00.HNZ" depth="0.0">
			<acc value="0.0364798387850749" flag="0"/>
			<vel value="0.0134627517292403" flag="0"/>
			<psa03 value="0.0553013673801839" flag="0"/>
			<psa10 value="0.0120038866136161" flag="0"/>
			<psa30 value="0.000766881421437178" flag="0"/>
		</comp>
	</station>
	<station code="KSS1" name="KSS1" netid="HI" source="ITSAK Strong Motion Network" insttype="" lat="35.4189" lon="26.9207" esm:processing="discarded" esm:quality="good">
		<comp name="--.HNE" depth="0.0">
			<acc value="0" flag="1"/>
			<vel value="0" flag="1"/>
			<psa03 value="0" flag="1"/>
			<psa10 value="0" flag="1"/>
			<psa30 value="0" flag="1"/>
		</comp>
		<comp name="--.HNN" depth="0.0">
			<acc value="0" flag="1"/>
			<vel value="0" flag="1"/>
			<psa03 value="0" flag="1"/>
			<psa10 value="0" flag="1"/>
			<psa30 value="0" flag="1"/>
		</comp>
		<comp name="--.HNZ" depth="0.0">
			<acc value="0" flag="1"/>
			<vel value="0" flag="1"/>
			<psa03 value="0" flag="1"/>
			<psa10 value="0" flag="1"/>
			<psa30 value="0" flag="1"/>
		</comp>
	</station>
	<station code="ASTA" name="ASTA" netid="HL" source="National Observatory of Athens Seismic Network" insttype="" lat="36.54552" lon="26.35295" esm:processing="automatic (Paolucci et al 2011)" esm:quality="bad">
		<comp name="00.HNE" depth="0.0">
			<acc value="0" flag="1"/>
			<vel value="0" flag="1"/>
			<psa03 value="0" flag="1"/>
			<psa10 value="0" flag="1"/>
			<psa30 value="0" flag="1"/>
		</comp>
		<comp name="00.HNN" depth="0.0">
			<acc value="0" flag="1"/>
			<vel value="0" flag="1"/>
			<psa03 value="0" flag="1"/>
			<psa10 value="0" flag="1"/>
			<psa30 value="0" flag="1"/>
		</comp>
		<comp name="00.HNZ" depth="0.0">
			<acc value="0" flag="1"/>
			<vel value="0" flag="1"/>
			<psa03 value="0" flag="1"/>
			<psa10 value="0" flag="1"/>
			<psa30 value="0" flag="1"/>
		</comp>
	</station>
	<station code="RODB" name="RODB" netid="HL" source="National Observatory of Athens Seismic Network" insttype="" lat="36.4471" lon="28.22116" esm:processing="automatic (Paolucci et al 2011)" esm:quality="bad">
		<comp name="00.HNE" depth="0.0">
			<acc value="0" flag="1"/>
			<vel value="0" flag="1"/>
			<psa03 value="0" flag="1"/>
			<psa10 value="0" flag="1"/>
			<psa30 value="0" flag="1"/>
		</comp>
		<comp name="00.HNN" depth="0.0">
			<acc value="0" flag="1"/>
			<vel value="0" flag="1"/>
			<psa03 value="0" flag="1"/>
			<psa10 value="0" flag="1"/>
			<psa30 value="0" flag="1"/>
		</comp>
		<comp name="00.HNZ" depth="0.0">
			<acc value="0" flag="1"/>
			<vel value="0" flag="1"/>
			<psa03 value="0" flag="1"/>
			<psa10 value="0" flag="1"/>
			<psa30 value="0" flag="1"/>
		</comp>
	</station>
	<station code="THRA" name="THRA" netid="HL" source="National Observatory of Athens Seismic Network" insttype="" lat="36.41502" lon="25.43244" esm:processing="automatic (Paolucci et al 2011)" esm:quality="bad">
		<comp name="00.HNE" depth="0.0">
			<acc value="0" flag="1"/>
			<vel value="0" flag="1"/>
			<psa03 value="0" flag="1"/>
			<psa10 value="0" flag="1"/>
			<psa30 value="0" flag="1"/>
		</comp>
		<comp name="00.HNN" depth="0.0">
			<acc value="0" flag="1"/>
			<vel value="0" flag="1"/>
			<psa03 value="0" flag="1"/>
			<psa10 value="0" flag="1"/>
			<psa30 value="0" flag="1"/>
		</comp>
		<comp name="00.HNZ" depth="0.0">
			<acc value="0" flag="1"/>
			<vel value="0" flag="1"/>
			<psa03 value="0" flag="1"/>
			<psa10 value="0" flag="1"/>
			<psa30 value="0" flag="1"/>
		</comp>
	</station>
</stationlist>
