<?xml version="1.0" encoding="UTF-8" standalone="yes"?>
<!DOCTYPE earthquake SYSTEM "stationlist.dtd">
<stationlist created="" xmlns="ch.ethz.sed.shakemap.usgs.xml">
  <station code="ZKR" name="ZKR" netid="GE" source="GFZ" insttype="STS-2/N" lat="35.1147" lon="26.2169">
    <comp name="--.HHE">
      <acc value="0.0657804506" flag="0"/>
      <vel value="0.0410270901" flag="0"/>
      <psa03 value="0.1308349964" flag="0"/>
      <psa10 value="0.0315147219" flag="0"/>
      <psa30 value="0.0013731984" flag="0"/>
    </comp>
    <comp name="--.HHN">
      <acc value="0.0359611911" flag="0"/>
      <vel value="0.0140238587" flag="0"/>
      <psa03 value="0.0815382376" flag="0"/>
      <psa10 value="0.0102534550" flag="0"/>
      <psa30 value="0.0009931365" flag="0"/>
    </comp>
    <comp name="--.HHZ">
      <acc value="0.0397535389" flag="0"/>
      <vel value="0.0138766805" flag="0"/>
      <psa03 value="0.0581121516" flag="0"/>
      <psa10 value="0.0123959644" flag="0"/>
      <psa30 value="0.0007614236" flag="0"/>
    </comp>
  </station>
  <station code="FRMA" name="FRMA" netid="HC" source="NOA" insttype="60" lat="35.0187" lon="25.8555">
    <comp name="--.HHE">
      <acc value="0.0300572055" flag="0"/>
      <vel value="0.0136549830" flag="0"/>
      <psa03 value="0.0575549104" flag="0"/>
      <psa10 value="0.0142441906" flag="0"/>
      <psa30 value="0.0005875548" flag="0"/>
    </comp>
    <comp name="--.HHN">
      <acc value="0.0256561019" flag="0"/>
      <vel value="0.0109259409" flag="0"/>
      <psa03 value="0.0698437918" flag="0"/>
      <psa10 value="0.0126745526" flag="0"/>
      <psa30 value="0.0008044602" flag="0"/>
    </comp>
    <comp name="--.HHZ">
      <acc value="0.0226308032" flag="0"/>
      <vel value="0.0074661717" flag="0"/>
      <psa03 value="0.0456029184" flag="0"/>
      <psa10 value="0.0106490252" flag="0"/>
      <psa30 value="0.0003812239" flag="0"/>
    </comp>
  </station>
  <station code="STIA" name="STIA" netid="HC" source="NOA" insttype="120" lat="35.2021" lon="26.0909">
    <comp name="--.HHE">
      <acc value="0.0511257467" flag="0"/>
      <vel value="0.0328133410" flag="0"/>
      <psa03 value="0.1141077518" flag="0"/>
      <psa10 value="0.0250801261" flag="0"/>
      <psa30 value="0.0019343453" flag="0"/>
    </comp>
    <comp name="--.HHN">
      <acc value="0.0545566840" flag="0"/>
      <vel value="0.0303754657" flag="0"/>
      <psa03 value="0.1763674505" flag="0"/>
      <psa10 value="0.0311709482" flag="0"/>
      <psa30 value="0.0029801160" flag="0"/>
    </comp>
    <comp name="--.HHZ">
      <acc value="0.0431917649" flag="0"/>
      <vel value="0.0231357446" flag="0"/>
      <psa03 value="0.0947148074" flag="0"/>
      <psa10 value="0.0161374884" flag="0"/>
      <psa30 value="0.0010922461" flag="0"/>
    </comp>
  </station>
  <station code="NPS" name="NPS" netid="HL" source="NOA" insttype="120" lat="35.2613" lon="25.6104">
    <comp name="--.HHE">
      <acc value="0.0185712676" flag="0"/>
      <vel value="0.0128671376" flag="0"/>
      <psa03 value="0.0409014847" flag="0"/>
      <psa10 value="0.0217152486" flag="0"/>
      <psa30 value="0.0010840410" flag="0"/>
    </comp>
    <comp name="--.HHN">
      <acc value="0.0150181329" flag="0"/>
      <vel value="0.0112328183" flag="0"/>
      <psa03 value="0.0411335342" flag="0"/>
      <psa10 value="0.0159286187" flag="0"/>
      <psa30 value="0.0010510293" flag="0"/>
    </comp>
    <comp name="--.HHZ">
      <acc value="0.0143666778" flag="0"/>
      <vel value="0.0066709306" flag="0"/>
      <psa03 value="0.0275546850" flag="0"/>
      <psa10 value="0.0070994498" flag="0"/>
      <psa30 value="0.0005682352" flag="0"/>
    </comp>
  </station>
  <station code="ZKR" name="ZKR" netid="HL" source="NOA" insttype="120" lat="35.1147" lon="26.2169">
    <comp name="--.HHE">
      <acc value="0.0642546615" flag="0"/>
      <vel value="0.0402764288" flag="0"/>
      <psa03 value="0.1271157693" flag="0"/>
      <psa10 value="0.0311749441" flag="0"/>
      <psa30 value="0.0013538549" flag="0"/>
    </comp>
  </station>
</stationlist>
