<?xml version="1.0" encoding="UTF-8" standalone="yes"?>
<!DOCTYPE earthquake SYSTEM "stationlist.dtd">
<stationlist created="" xmlns="ch.ethz.sed.shakemap.usgs.xml">
  <station code="ADVT" name="ADVT" netid="KO" insttype="120SN" lat="40.4332" lon="29.7383">
    <comp name="--.HHE">
      <acc value="0.0087428206" flag="0"/>
      <vel value="0.0047722035" flag="0"/>
      <psa03 value="0.0180383764" flag="0"/>
      <psa10 value="0.0036498333" flag="0"/>
      <psa30 value="0.0003536923" flag="0"/>
    </comp>
    <comp name="--.HHN">
      <acc value="0.0106577603" flag="0"/>
      <vel value="0.0046629610" flag="0"/>
      <psa03 value="0.0276194500" flag="0"/>
      <psa10 value="0.0069138063" flag="0"/>
      <psa30 value="0.0003511047" flag="0"/>
    </comp>
    <comp name="--.HHZ">
      <acc value="0.0051541410" flag="0"/>
      <vel value="0.0027923421" flag="0"/>
      <psa03 value="0.0144843113" flag="0"/>
      <psa10 value="0.0028650071" flag="0"/>
      <psa30 value="0.0002027866" flag="0"/>
    </comp>
  </station>
  <station code="ARMT" name="ARMT" netid="KO" insttype="120s," lat="40.5683" lon="28.866">
    <comp name="--.HHE">
      <acc value="0.0334569169" flag="0"/>
      <vel value="0.0121429500" flag="0"/>
      <psa03 value="0.0496694760" flag="0"/>
      <psa10 value="0.0070500961" flag="0"/>
      <psa30 value="0.0004853064" flag="0"/>
    </comp>
    <comp name="--.HHN">
      <acc value="0.0386235872" flag="0"/>
      <vel value="0.0078057871" flag="0"/>
      <psa03 value="0.0409109523" flag="0"/>
      <psa10 value="0.0059716823" flag="0"/>
      <psa30 value="0.0006023922" flag="0"/>
    </comp>
    <comp name="--.HHZ">
      <acc value="0.0283947134" flag="0"/>
      <vel value="0.0067669389" flag="0"/>
      <psa03 value="0.0245903663" flag="0"/>
      <psa10 value="0.0030228157" flag="0"/>
      <psa30 value="0.0007447281" flag="0"/>
    </comp>
  </station>
  <station code="BGKT" name="BGKT" netid="KO" insttype="120s," lat="41.181" lon="28.773">
    <comp name="--.HHE">
      <acc value="0.0096514404" flag="0"/>
      <vel value="0.0042223401" flag="0"/>
      <psa03 value="0.0213146961" flag="0"/>
      <psa10 value="0.0043096646" flag="0"/>
      <psa30 value="0.0003659753" flag="0"/>
    </comp>
    <comp name="--.HHZ">
      <acc value="0.0073536971" flag="0"/>
      <vel value="0.0034388118" flag="0"/>
      <psa03 value="0.0172487113" flag="0"/>
      <psa10 value="0.0025905528" flag="0"/>
      <psa30 value="0.0002719501" flag="0"/>
    </comp>
    <comp name="--.HHN">
      <acc value="0.0095415582" flag="0"/>
      <vel value="0.0045760355" flag="0"/>
      <psa03 value="0.0254947911" flag="0"/>
      <psa10 value="0.0055489062" flag="0"/>
      <psa30 value="0.0002663595" flag="0"/>
    </comp>
  </station>
  <station code="BRGA" name="BRGA" netid="KO" insttype="CMG-5T" lat="40.8846" lon="29.065">
    <comp name="--.HNZ">
      <acc value="0.0209230220" flag="0"/>
      <vel value="0.0061851585" flag="0"/>
      <psa03 value="0.0293838425" flag="0"/>
      <psa10 value="0.0020220180" flag="0"/>
      <psa30 value="0.0003238909" flag="0"/>
    </comp>
    <comp name="--.HNE">
      <acc value="0.0257739094" flag="0"/>
      <vel value="0.0089195427" flag="0"/>
      <psa03 value="0.0518579940" flag="0"/>
      <psa10 value="0.0040269417" flag="0"/>
      <psa30 value="0.0003687226" flag="0"/>
    </comp>
    <comp name="--.HNN">
      <acc value="0.0232827828" flag="0"/>
      <vel value="0.0093007049" flag="0"/>
      <psa03 value="0.0441622658" flag="0"/>
      <psa10 value="0.0047820478" flag="0"/>
      <psa30 value="0.0004206437" flag="0"/>
    </comp>
  </station>
  <station code="DST" name="DST" netid="KO" insttype="CMG-5T" lat="39.6041" lon="28.6267">
    <comp name="--.HNN">
      <acc value="0.0570826545" flag="0"/>
      <vel value="0.0191364468" flag="0"/>
      <psa03 value="0.1079480296" flag="0"/>
      <psa10 value="0.0118159038" flag="0"/>
      <psa30 value="0.0013460022" flag="0"/>
    </comp>
    <comp name="--.HNZ">
      <acc value="0.0599074663" flag="0"/>
      <vel value="0.0165835407" flag="0"/>
      <psa03 value="0.0838145728" flag="0"/>
      <psa10 value="0.0083605672" flag="0"/>
      <psa30 value="0.0011957168" flag="0"/>
    </comp>
    <comp name="--.HNE">
      <acc value="0.0909749572" flag="0"/>
      <vel value="0.0352093079" flag="0"/>
      <psa03 value="0.1479245605" flag="0"/>
      <psa10 value="0.0172360810" flag="0"/>
      <psa30 value="0.0013107892" flag="0"/>
    </comp>
  </station>
  <station code="EDC" name="EDC" netid="KO" insttype="120s," lat="40.3465" lon="27.8618">
    <comp name="--.HHZ">
      <acc value="0.0408895200" flag="0"/>
      <vel value="0.0075876937" flag="0"/>
      <psa03 value="0.0232377858" flag="0"/>
      <psa10 value="0.0048497471" flag="0"/>
      <psa30 value="0.0004889870" flag="0"/>
    </comp>
    <comp name="--.HHN">
      <acc value="0.0822719514" flag="0"/>
      <vel value="0.0202724443" flag="0"/>
      <psa03 value="0.1178222610" flag="0"/>
      <psa10 value="0.0130762706" flag="0"/>
      <psa30 value="0.0013659327" flag="0"/>
    </comp>
    <comp name="--.HHE">
      <acc value="0.0730844765" flag="0"/>
      <vel value="0.0193754614" flag="0"/>
      <psa03 value="0.0440335314" flag="0"/>
      <psa10 value="0.0095137282" flag="0"/>
      <psa30 value="0.0006053511" flag="0"/>
    </comp>
  </station>
  <station code="GEML" name="GEML" netid="KO" insttype="120s," lat="40.4646" lon="29.2116">
    <comp name="--.HHN">
      <acc value="0.1421106628" flag="0"/>
      <vel value="0.0446409690" flag="0"/>
      <psa03 value="0.1612297171" flag="0"/>
      <psa10 value="0.0102174198" flag="0"/>
      <psa30 value="0.0010623477" flag="0"/>
    </comp>
    <comp name="--.HHZ">
      <acc value="0.0760831678" flag="0"/>
      <vel value="0.0182408976" flag="0"/>
      <psa03 value="0.0793826128" flag="0"/>
      <psa10 value="0.0051012835" flag="0"/>
      <psa30 value="0.0004433001" flag="0"/>
    </comp>
    <comp name="--.HHE">
      <acc value="0.1679780366" flag="0"/>
      <vel value="0.0516658615" flag="0"/>
      <psa03 value="0.1931510627" flag="0"/>
      <psa10 value="0.0149952973" flag="0"/>
      <psa30 value="0.0012689685" flag="0"/>
    </comp>
  </station>
  <station code="GONE" name="GONE" netid="KO" insttype="CMG-5T" lat="40.0466" lon="27.686">
    <comp name="--.HNN">
      <acc value="0.0281677352" flag="0"/>
      <vel value="0.0059895284" flag="0"/>
      <psa03 value="0.0208147800" flag="0"/>
      <psa10 value="0.0056901877" flag="0"/>
      <psa30 value="0.0010773440" flag="0"/>
    </comp>
    <comp name="--.HNE">
      <acc value="0.0224325120" flag="0"/>
      <vel value="0.0059182081" flag="0"/>
      <psa03 value="0.0186665307" flag="0"/>
      <psa10 value="0.0058230593" flag="0"/>
      <psa30 value="0.0005479304" flag="0"/>
    </comp>
    <comp name="--.HNZ">
      <acc value="0.0195580362" flag="0"/>
      <vel value="0.0034038348" flag="0"/>
      <psa03 value="0.0128518028" flag="0"/>
      <psa10 value="0.0020929390" flag="0"/>
      <psa30 value="0.0003971464" flag="0"/>
    </comp>
  </station>
  <station code="HRTX" name="HRTX" netid="KO" insttype="-3ESP," lat="40.801" lon="29.673">
    <comp name="--.HHN">
      <acc value="0.0010620296" flag="0"/>
      <vel value="0.0006725188" flag="0"/>
      <psa03 value="0.0018120528" flag="0"/>
      <psa10 value="0.0003192965" flag="0"/>
      <psa30 value="0.0000384345" flag="0"/>
    </comp>
    <comp name="--.HHZ">
      <acc value="0.0004246170" flag="0"/>
      <vel value="0.0001850391" flag="0"/>
      <psa03 value="0.0008549677" flag="0"/>
      <psa10 value="0.0001579663" flag="0"/>
      <psa30 value="0.0000113966" flag="0"/>
    </comp>
    <comp name="--.HHE">
      <acc value="0.0008800616" flag="0"/>
      <vel value="0.0003826697" flag="0"/>
      <psa03 value="0.0020754239" flag="0"/>
      <psa10 value="0.0003104508" flag="0"/>
      <psa30 value="0.0000323660" flag="0"/>
    </comp>
  </station>
  <station code="HYBA" name="HYBA" netid="KO" insttype="CMG-5T" lat="40.8754" lon="29.0854">
    <comp name="--.HNN">
      <acc value="0.0245102870" flag="0"/>
      <vel value="0.0104719396" flag="0"/>
      <psa03 value="0.0670650773" flag="0"/>
      <psa10 value="0.0044752005" flag="0"/>
      <psa30 value="0.0004216891" flag="0"/>
    </comp>
    <comp name="--.HNZ">
      <acc value="0.0160220552" flag="0"/>
      <vel value="0.0043771850" flag="0"/>
      <psa03 value="0.0198161490" flag="0"/>
      <psa10 value="0.0017390280" flag="0"/>
      <psa30 value="0.0002540654" flag="0"/>
    </comp>
  </station>
  <station code="ISK" name="ISK" netid="KO" insttype="120s," lat="41.0615" lon="29.0592">
    <comp name="--.HHN">
      <acc value="0.0104534203" flag="0"/>
      <vel value="0.0041444372" flag="0"/>
      <psa03 value="0.0178710365" flag="0"/>
      <psa10 value="0.0035065243" flag="0"/>
      <psa30 value="0.0003092391" flag="0"/>
    </comp>
    <comp name="--.HHE">
      <acc value="0.0163245599" flag="0"/>
      <vel value="0.0041150657" flag="0"/>
      <psa03 value="0.0155534173" flag="0"/>
      <psa10 value="0.0037732574" flag="0"/>
      <psa30 value="0.0002364002" flag="0"/>
    </comp>
    <comp name="--.HHZ">
      <acc value="0.0152593832" flag="0"/>
      <vel value="0.0052647537" flag="0"/>
      <psa03 value="0.0237165279" flag="0"/>
      <psa10 value="0.0025801442" flag="0"/>
      <psa30 value="0.0002255532" flag="0"/>
    </comp>
  </station>
  <station code="IZI" name="IZI" netid="KO" insttype="CMG-5T" lat="40.3483" lon="29.4612">
    <comp name="--.HNE">
      <acc value="0.0193505688" flag="0"/>
      <vel value="0.0086577459" flag="0"/>
      <psa03 value="0.0374479964" flag="0"/>
      <psa10 value="0.0079918012" flag="0"/>
      <psa30 value="0.0004844939" flag="0"/>
    </comp>
    <comp name="--.HNN">
      <acc value="0.0198832827" flag="0"/>
      <vel value="0.0070962938" flag="0"/>
      <psa03 value="0.0424187115" flag="0"/>
      <psa10 value="0.0072502661" flag="0"/>
      <psa30 value="0.0005691934" flag="0"/>
    </comp>
    <comp name="--.HNZ">
      <acc value="0.0132023526" flag="0"/>
      <vel value="0.0051247862" flag="0"/>
      <psa03 value="0.0245193133" flag="0"/>
      <psa10 value="0.0048467509" flag="0"/>
      <psa30 value="0.0004491825" flag="0"/>
    </comp>
  </station>
  <station code="KAVV" name="KAVV" netid="KO" insttype="CMG-3ESPC" lat="41.0638" lon="29.06">
    <comp name="--.HHE">
      <acc value="0.0459856655" flag="0"/>
      <vel value="0.0102530534" flag="0"/>
      <psa03 value="0.0435066231" flag="0"/>
      <psa10 value="0.0045182586" flag="0"/>
      <psa30 value="0.0003301457" flag="0"/>
    </comp>
    <comp name="--.HHN">
      <acc value="0.0373863426" flag="0"/>
      <vel value="0.0100516034" flag="0"/>
      <psa03 value="0.0506603467" flag="0"/>
      <psa10 value="0.0045875172" flag="0"/>
      <psa30 value="0.0003154684" flag="0"/>
    </comp>
    <comp name="--.HHZ">
      <acc value="0.0277219816" flag="0"/>
      <vel value="0.0098410684" flag="0"/>
      <psa03 value="0.0452775526" flag="0"/>
      <psa10 value="0.0027765405" flag="0"/>
      <psa30 value="0.0002857374" flag="0"/>
    </comp>
  </station>
  <station code="KCTX" name="KCTX" netid="KO" insttype="30s," lat="40.2627" lon="28.3353">
    <comp name="--.HHN">
      <acc value="0.1248988602" flag="0"/>
      <vel value="0.0361259865" flag="0"/>
      <psa03 value="0.2651237087" flag="0"/>
      <psa10 value="0.0242465675" flag="0"/>
      <psa30 value="0.0024947182" flag="0"/>
    </comp>
    <comp name="--.HHZ">
      <acc value="0.1559888864" flag="0"/>
      <vel value="0.0495853323" flag="0"/>
      <psa03 value="0.2030007149" flag="0"/>
      <psa10 value="0.0142556711" flag="0"/>
      <psa30 value="0.0012226416" flag="0"/>
    </comp>
    <comp name="--.HHE">
      <acc value="0.1750203864" flag="0"/>
      <vel value="0.0627486222" flag="0"/>
      <psa03 value="0.3117963778" flag="0"/>
      <psa10 value="0.0259372562" flag="0"/>
      <psa30 value="0.0014098988" flag="0"/>
    </comp>
  </station>
  <station code="MDNY" name="MDNY" netid="KO" insttype="30s," lat="40.371" lon="28.8847">
    <comp name="--.HHE">
      <acc value="0.3287453951" flag="0"/>
      <vel value="0.0914342190" flag="0"/>
      <psa03 value="0.4733906097" flag="0"/>
      <psa10 value="0.0236079811" flag="0"/>
      <psa30 value="0.0026621255" flag="0"/>
    </comp>
    <comp name="--.HHN">
      <acc value="0.6873735671" flag="0"/>
      <vel value="0.2532869662" flag="0"/>
      <psa03 value="2.1666253143" flag="0"/>
      <psa10 value="0.0641404182" flag="0"/>
      <psa30 value="0.0062269107" flag="0"/>
    </comp>
    <comp name="--.HHZ">
      <acc value="0.3770012786" flag="0"/>
      <vel value="0.0827970483" flag="0"/>
      <psa03 value="0.3575110196" flag="0"/>
      <psa10 value="0.0204092640" flag="0"/>
      <psa30 value="0.0017497019" flag="0"/>
    </comp>
  </station>
  <station code="ORLT" name="ORLT" netid="KO" insttype="CMG-5T" lat="40.0452" lon="28.8914">
    <comp name="--.HNN">
      <acc value="0.4712661794" flag="0"/>
      <vel value="0.1788823814" flag="0"/>
      <psa03 value="1.1811969544" flag="0"/>
      <psa10 value="0.1638326365" flag="0"/>
      <psa30 value="0.0130487218" flag="0"/>
    </comp>
    <comp name="--.HNE">
      <acc value="0.5723716284" flag="0"/>
      <vel value="0.1831765538" flag="0"/>
      <psa03 value="1.6386417631" flag="0"/>
      <psa10 value="0.0963793707" flag="0"/>
      <psa30 value="0.0068194449" flag="0"/>
    </comp>
    <comp name="--.HNZ">
      <acc value="0.3754026562" flag="0"/>
      <vel value="0.0719342610" flag="0"/>
      <psa03 value="0.3672253315" flag="0"/>
      <psa10 value="0.0377902393" flag="0"/>
      <psa30 value="0.0064419570" flag="0"/>
    </comp>
  </station>
  <station code="SMAA" name="SMAA" netid="KO" insttype="CMG-5T" lat="39.1005" lon="28.9805">
    <comp name="--.HNE">
      <acc value="0.0853719334" flag="0"/>
      <vel value="0.0473060608" flag="0"/>
      <psa03 value="0.2022354214" flag="0"/>
      <psa10 value="0.0499290914" flag="0"/>
      <psa30 value="0.0030014011" flag="0"/>
    </comp>
    <comp name="--.HNN">
      <acc value="0.0620633590" flag="0"/>
      <vel value="0.0368208698" flag="0"/>
      <psa03 value="0.2087418656" flag="0"/>
      <psa10 value="0.0516293500" flag="0"/>
      <psa30 value="0.0034602880" flag="0"/>
    </comp>
    <comp name="--.HNZ">
      <acc value="0.0507785948" flag="0"/>
      <vel value="0.0172700863" flag="0"/>
      <psa03 value="0.0797710774" flag="0"/>
      <psa10 value="0.0213261827" flag="0"/>
      <psa30 value="0.0012823825" flag="0"/>
    </comp>
  </station>
  <station code="TUZL" name="TUZL" netid="KO" insttype="CMG-5T" lat="40.8128" lon="29.2657">
    <comp name="--.HNE">
      <acc value="0.0587720317" flag="0"/>
      <vel value="0.0184096439" flag="0"/>
      <psa03 value="0.0611805488" flag="0"/>
      <psa10 value="0.0050617913" flag="0"/>
      <psa30 value="0.0004943410" flag="0"/>
    </comp>
    <comp name="--.HNN">
      <acc value="0.1000615905" flag="0"/>
      <vel value="0.0355804494" flag="0"/>
      <psa03 value="0.1101968051" flag="0"/>
      <psa10 value="0.0091650499" flag="0"/>
      <psa30 value="0.0008273029" flag="0"/>
    </comp>
    <comp name="--.HNZ">
      <acc value="0.0325001413" flag="0"/>
      <vel value="0.0061548211" flag="0"/>
      <psa03 value="0.0210263044" flag="0"/>
      <psa10 value="0.0019771523" flag="0"/>
      <psa30 value="0.0002971679" flag="0"/>
    </comp>
  </station>
  <station code="TVSB" name="TVSB" netid="KO" insttype="120" lat="39.4497" lon="29.4615">
    <comp name="--.HHZ">
      <acc value="0.0089915875" flag="0"/>
      <vel value="0.0020861573" flag="0"/>
      <psa03 value="0.0110350673" flag="0"/>
      <psa10 value="0.0015421236" flag="0"/>
      <psa30 value="0.0002245829" flag="0"/>
    </comp>
    <comp name="--.HHN">
      <acc value="0.0181925018" flag="0"/>
      <vel value="0.0048784156" flag="0"/>
      <psa03 value="0.0193435586" flag="0"/>
      <psa10 value="0.0021426043" flag="0"/>
      <psa30 value="0.0003574022" flag="0"/>
    </comp>
    <comp name="--.HHE">
      <acc value="0.0124644942" flag="0"/>
      <vel value="0.0040665822" flag="0"/>
      <psa03 value="0.0175810642" flag="0"/>
      <psa10 value="0.0029776129" flag="0"/>
      <psa30 value="0.0002520800" flag="0"/>
    </comp>
  </station>
  <station code="YENI" name="YENI" netid="KO" insttype="CMG-5T" lat="39.9364" lon="27.2422">
    <comp name="--.HNN">
      <acc value="0.0403085882" flag="0"/>
      <vel value="0.0117697523" flag="0"/>
      <psa03 value="0.0401558910" flag="0"/>
      <psa10 value="0.0100318887" flag="0"/>
      <psa30 value="0.0005215532" flag="0"/>
    </comp>
    <comp name="--.HNZ">
      <acc value="0.0257730974" flag="0"/>
      <vel value="0.0098000120" flag="0"/>
      <psa03 value="0.0349985988" flag="0"/>
      <psa10 value="0.0045131145" flag="0"/>
      <psa30 value="0.0015642327" flag="0"/>
    </comp>
    <comp name="--.HNE">
      <acc value="0.0430565298" flag="0"/>
      <vel value="0.0200768369" flag="0"/>
      <psa03 value="0.0752062091" flag="0"/>
      <psa10 value="0.0153022571" flag="0"/>
      <psa30 value="0.0009454082" flag="0"/>
    </comp>
  </station>
  <station code="YLV" name="YLV" netid="KO" insttype="120s," lat="40.5658" lon="29.3708">
    <comp name="--.HHE">
      <acc value="0.0286444021" flag="0"/>
      <vel value="0.0117830416" flag="0"/>
      <psa03 value="0.0489177892" flag="0"/>
      <psa10 value="0.0128942203" flag="0"/>
      <psa30 value="0.0005060279" flag="0"/>
    </comp>
    <comp name="--.HHZ">
      <acc value="0.0150688321" flag="0"/>
      <vel value="0.0055587082" flag="0"/>
      <psa03 value="0.0383575392" flag="0"/>
      <psa10 value="0.0070125374" flag="0"/>
      <psa30 value="0.0002643547" flag="0"/>
    </comp>
    <comp name="--.HHN">
      <acc value="0.0301882853" flag="0"/>
      <vel value="0.0119473728" flag="0"/>
      <psa03 value="0.0961344408" flag="0"/>
      <psa10 value="0.0056631711" flag="0"/>
      <psa30 value="0.0003972405" flag="0"/>
    </comp>
  </station>
</stationlist>
