<stationlist created="1778138729">
	<station code="MYT1" name="MYT1" netid="HI" source="ITSAK Strong Motion Network" insttype="" lat="39.085" lon="26.5694">
		<comp name="--.HNE" depth="0.0">
			<acc value="0.0096342066576174" flag="0"/>
			<vel value="0.00789142577575885" flag="0"/>
			<psa03 value="0.0307709681131034" flag="0"/>
			<psa10 value="0.0125278389703683" flag="0"/>
			<psa30 value="0.000860866715695237" flag="0"/>
		</comp>
		<comp name="--.HNN" depth="0.0">
			<acc value="0.00723123777622144" flag="0"/>
			<vel value="0.00761920468086621" flag="0"/>
			<psa03 value="0.0223000449768834" flag="0"/>
			<psa10 value="0.0127491308173632" flag="0"/>
			<psa30 value="0.000828074230855785" flag="0"/>
		</comp>
		<comp name="--.HNZ" depth="0.0">
			<acc value="0.00496065474557245" flag="0"/>
			<vel value="0.00366868845731808" flag="0"/>
			<psa03 value="0.0199014147252298" flag="0"/>
			<psa10 value="0.00612927244044887" flag="0"/>
			<psa30 value="0.000437976878402208" flag="0"/>
		</comp>
	</station>
	<station code="ALT" name="ALT" netid="KO" source="Bogazici University Kandilli Observatory And Earthquake Research Institute (KOERI)" insttype="" lat="39.0541" lon="30.1104">
		<comp name="--.HNE" depth="0.0">
			<acc value="0.0177419460393194" flag="0"/>
			<vel value="0.0032465007842952" flag="0"/>
			<psa03 value="0.0171536688984634" flag="0"/>
			<psa10 value="0.0035990020881022" flag="0"/>
			<psa30 value="0.000500315487196412" flag="0"/>
		</comp>
		<comp name="--.HNN" depth="0.0">
			<acc value="0.01066092922048" flag="0"/>
			<vel value="0.00277800929267029" flag="0"/>
			<psa03 value="0.0106790238391847" flag="0"/>
			<psa10 value="0.00236149862519493" flag="0"/>
			<psa30 value="0.000732499409909653" flag="0"/>
		</comp>
		<comp name="--.HNZ" depth="0.0">
			<acc value="0.00608768367784127" flag="0"/>
			<vel value="0.00226980732584654" flag="0"/>
			<psa03 value="0.0136193696643228" flag="0"/>
			<psa10 value="0.002483438890638" flag="0"/>
			<psa30 value="0.000840643917700763" flag="0"/>
		</comp>
	</station>
	<station code="AVCI" name="AVCI" netid="KO" source="Bogazici University Kandilli Observatory And Earthquake Research Institute (KOERI)" insttype="" lat="40.9958" lon="28.7225">
		<comp name="--.HNE" depth="0.0">
			<acc value="0.0402288145199569" flag="0"/>
			<vel value="0.0244279535748491" flag="0"/>
			<psa03 value="0.12650697421637" flag="0"/>
			<psa10 value="0.0181802987305502" flag="0"/>
			<psa30 value="0.00128044982351485" flag="0"/>
		</comp>
		<comp name="--.HNN" depth="0.0">
			<acc value="0.0246039333123371" flag="0"/>
			<vel value="0.0100326879881043" flag="0"/>
			<psa03 value="0.0655415449307199" flag="0"/>
			<psa10 value="0.0150628578403961" flag="0"/>
			<psa30 value="0.000993652491268216" flag="0"/>
		</comp>
		<comp name="--.HNZ" depth="0.0">
			<acc value="0.0234168719173295" flag="0"/>
			<vel value="0.0116801030354856" flag="0"/>
			<psa03 value="0.0971136416355131" flag="0"/>
			<psa10 value="0.00606016098717965" flag="0"/>
			<psa30 value="0.000533503362812795" flag="0"/>
		</comp>
	</station>
	<station code="BIGA" name="BIGA" netid="KO" source="Bogazici University Kandilli Observatory And Earthquake Research Institute (KOERI)" insttype="" lat="40.28134" lon="27.15048">
		<comp name="--.HNE" depth="0.0">
			<acc value="0.044964546154704" flag="0"/>
			<vel value="0.0134755109285513" flag="0"/>
			<psa03 value="0.0767560638791003" flag="0"/>
			<psa10 value="0.00698926722341299" flag="0"/>
			<psa30 value="0.00064238114834632" flag="0"/>
		</comp>
		<comp name="--.HNN" depth="0.0">
			<acc value="0.0564737444790761" flag="0"/>
			<vel value="0.0149744717573327" flag="0"/>
			<psa03 value="0.0652070540222082" flag="0"/>
			<psa10 value="0.00994720957879668" flag="0"/>
			<psa30 value="0.000908172870329589" flag="0"/>
		</comp>
		<comp name="--.HNZ" depth="0.0">
			<acc value="0.0212079633688753" flag="0"/>
			<vel value="0.00559165322327461" flag="0"/>
			<psa03 value="0.0295820560201756" flag="0"/>
			<psa10 value="0.00396922544170445" flag="0"/>
			<psa30 value="0.000535366402896229" flag="0"/>
		</comp>
	</station>
	<station code="BOTS" name="BOTS" netid="KO" source="Bogazici University Kandilli Observatory And Earthquake Research Institute (KOERI)" insttype="" lat="40.9902" lon="27.981">
		<comp name="--.HNE" depth="0.0">
			<acc value="0.0219835087532565" flag="0"/>
			<vel value="0.00886994295024765" flag="0"/>
			<psa03 value="0.0817514833429972" flag="0"/>
			<psa10 value="0.00813594459140943" flag="0"/>
			<psa30 value="0.000663154764080518" flag="0"/>
		</comp>
		<comp name="--.HNN" depth="0.0">
			<acc value="0.0266243786006327" flag="0"/>
			<vel value="0.0132538137538797" flag="0"/>
			<psa03 value="0.0624322191614768" flag="0"/>
			<psa10 value="0.0175733060202694" flag="0"/>
			<psa30 value="0.00114327865326696" flag="0"/>
		</comp>
		<comp name="--.HNZ" depth="0.0">
			<acc value="0.0103102946482321" flag="0"/>
			<vel value="0.0047936490570922" flag="0"/>
			<psa03 value="0.0198516523141267" flag="0"/>
			<psa10 value="0.0029053462930586" flag="0"/>
			<psa30 value="0.000361427119856181" flag="0"/>
		</comp>
	</station>
	<station code="BRGA" name="BRGA" netid="KO" source="Bogazici University Kandilli Observatory And Earthquake Research Institute (KOERI)" insttype="" lat="40.8846" lon="29.065">
		<comp name="--.HNE" depth="0.0">
			<acc value="0.0258054048359613" flag="0"/>
			<vel value="0.00896639989718982" flag="0"/>
			<psa03 value="0.0518216204282147" flag="0"/>
			<psa10 value="0.00405943251122673" flag="0"/>
			<psa30 value="0.000409310969009788" flag="0"/>
		</comp>
		<comp name="--.HNN" depth="0.0">
			<acc value="0.0230863084007367" flag="0"/>
			<vel value="0.00950873314664753" flag="0"/>
			<psa03 value="0.0442104808107245" flag="0"/>
			<psa10 value="0.00481283773313832" flag="0"/>
			<psa30 value="0.000474676549159031" flag="0"/>
		</comp>
		<comp name="--.HNZ" depth="0.0">
			<acc value="0.0209910002501344" flag="0"/>
			<vel value="0.0063657079885988" flag="0"/>
			<psa03 value="0.0295672243085212" flag="0"/>
			<psa10 value="0.00203575790584423" flag="0"/>
			<psa30 value="0.000396052356316348" flag="0"/>
		</comp>
	</station>
	<station code="BUYA" name="BUYA" netid="KO" source="Bogazici University Kandilli Observatory And Earthquake Research Institute (KOERI)" insttype="" lat="40.8694" lon="29.1278">
		<comp name="--.HNE" depth="0.0">
			<acc value="0.0463891359820711" flag="0"/>
			<vel value="0.0166971640464594" flag="0"/>
			<psa03 value="0.000637011884784875" flag="0"/>
			<psa10 value="0.00050683482532154" flag="0"/>
			<psa30 value="0.000320451723145518" flag="0"/>
		</comp>
		<comp name="--.HNN" depth="0.0">
			<acc value="0.045367117382776" flag="0"/>
			<vel value="0.0140893231410347" flag="0"/>
			<psa03 value="0.000732569036917284" flag="0"/>
			<psa10 value="0.000423779450263687" flag="0"/>
			<psa30 value="0.000323995864177437" flag="0"/>
		</comp>
		<comp name="--.HNZ" depth="0.0">
			<acc value="0.0482547165935563" flag="0"/>
			<vel value="0.0156506575823338" flag="0"/>
			<psa03 value="0.000758194676546262" flag="0"/>
			<psa10 value="0.000358088223540509" flag="0"/>
			<psa30 value="0.000281208628691683" flag="0"/>
		</comp>
	</station>
	<station code="CANM" name="CANM" netid="KO" source="Bogazici University Kandilli Observatory And Earthquake Research Institute (KOERI)" insttype="" lat="40.0113" lon="27.0529">
		<comp name="--.HNE" depth="0.0">
			<acc value="0.022282077983887" flag="0"/>
			<vel value="0.00800018823874355" flag="0"/>
			<psa03 value="0.0337756280946052" flag="0"/>
			<psa10 value="0.00655535738527457" flag="0"/>
			<psa30 value="0.000486556086120181" flag="0"/>
		</comp>
		<comp name="--.HNN" depth="0.0">
			<acc value="0.0329506078085846" flag="0"/>
			<vel value="0.0123638060991222" flag="0"/>
			<psa03 value="0.0553663187887452" flag="0"/>
			<psa10 value="0.00902845871609967" flag="0"/>
			<psa30 value="0.00058751183644226" flag="0"/>
		</comp>
		<comp name="--.HNZ" depth="0.0">
			<acc value="0.0254632751367729" flag="0"/>
			<vel value="0.00656585757250347" flag="0"/>
			<psa03 value="0.0444803007682933" flag="0"/>
			<psa10 value="0.00620354329803541" flag="0"/>
			<psa30 value="0.000312559689920495" flag="0"/>
		</comp>
	</station>
	<station code="CTYL" name="CTYL" netid="KO" source="Bogazici University Kandilli Observatory And Earthquake Research Institute (KOERI)" insttype="" lat="41.476" lon="28.2897">
		<comp name="--.HNE" depth="0.0">
			<acc value="0.0166219739837428" flag="0"/>
			<vel value="0.00941104372472885" flag="0"/>
			<psa03 value="0.0479079236647576" flag="0"/>
			<psa10 value="0.0078775993523005" flag="0"/>
			<psa30 value="0.000938204234758385" flag="0"/>
		</comp>
		<comp name="--.HNN" depth="0.0">
			<acc value="0.0209410839856421" flag="0"/>
			<vel value="0.0105028626820222" flag="0"/>
			<psa03 value="0.0306535228329547" flag="0"/>
			<psa10 value="0.00727800025678683" flag="0"/>
			<psa30 value="0.000456414349795091" flag="0"/>
		</comp>
		<comp name="--.HNZ" depth="0.0">
			<acc value="0.0134842527416262" flag="0"/>
			<vel value="0.00590569238444848" flag="0"/>
			<psa03 value="0.0425298668741349" flag="0"/>
			<psa10 value="0.00347503762606463" flag="0"/>
			<psa30 value="0.000580329798169901" flag="0"/>
		</comp>
	</station>
	<station code="DST" name="DST" netid="KO" source="Bogazici University Kandilli Observatory And Earthquake Research Institute (KOERI)" insttype="" lat="39.6041" lon="28.6267">
		<comp name="--.HNE" depth="0.0">
			<acc value="0.0896774321488489" flag="0"/>
			<vel value="0.0356853606053484" flag="0"/>
			<psa03 value="0.147552941325052" flag="0"/>
			<psa10 value="0.0172769538884002" flag="0"/>
			<psa30 value="0.00139204773716386" flag="0"/>
		</comp>
		<comp name="--.HNN" depth="0.0">
			<acc value="0.0533140810362657" flag="0"/>
			<vel value="0.019183516861483" flag="0"/>
			<psa03 value="0.109189045738478" flag="0"/>
			<psa10 value="0.0118700332064483" flag="0"/>
			<psa30 value="0.00155107462607952" flag="0"/>
		</comp>
		<comp name="--.HNZ" depth="0.0">
			<acc value="0.0530846438987989" flag="0"/>
			<vel value="0.0168163819796764" flag="0"/>
			<psa03 value="0.085885137385635" flag="0"/>
			<psa10 value="0.00835592103877781" flag="0"/>
			<psa30 value="0.00133265276087233" flag="0"/>
		</comp>
	</station>
	<station code="EDC" name="EDC" netid="KO" source="Bogazici University Kandilli Observatory And Earthquake Research Institute (KOERI)" insttype="" lat="40.3465" lon="27.8618">
		<comp name="--.HNE" depth="0.0">
			<acc value="0.0723827042982321" flag="0"/>
			<vel value="0.0204187005552804" flag="0"/>
			<psa03 value="0.0471388779276648" flag="0"/>
			<psa10 value="0.00957360982965969" flag="0"/>
			<psa30 value="0.000651382577981602" flag="0"/>
		</comp>
		<comp name="--.HNN" depth="0.0">
			<acc value="0.0799181414441926" flag="0"/>
			<vel value="0.0199098961874856" flag="0"/>
			<psa03 value="0.121265970775354" flag="0"/>
			<psa10 value="0.0129724534238692" flag="0"/>
			<psa30 value="0.00146005578403025" flag="0"/>
		</comp>
		<comp name="--.HNZ" depth="0.0">
			<acc value="0.0410617542461202" flag="0"/>
			<vel value="0.00787619675273023" flag="0"/>
			<psa03 value="0.0237749760171556" flag="0"/>
			<psa10 value="0.00496617039065129" flag="0"/>
			<psa30 value="0.000537862401576355" flag="0"/>
		</comp>
	</station>
	<station code="ENZZ" name="ENZZ" netid="KO" source="Bogazici University Kandilli Observatory And Earthquake Research Institute (KOERI)" insttype="" lat="40.607" lon="26.1406">
		<comp name="--.HNE" depth="0.0">
			<acc value="0.0316130707538436" flag="0"/>
			<vel value="0.00948629166911837" flag="0"/>
			<psa03 value="0.0281684024767533" flag="0"/>
			<psa10 value="0.0122344804742918" flag="0"/>
			<psa30 value="0.000997424928674289" flag="0"/>
		</comp>
		<comp name="--.HNN" depth="0.0">
			<acc value="0.0316514373058118" flag="0"/>
			<vel value="0.0129372806873599" flag="0"/>
			<psa03 value="0.0234230360362015" flag="0"/>
			<psa10 value="0.0147629307842228" flag="0"/>
			<psa30 value="0.00130674583633251" flag="0"/>
		</comp>
		<comp name="--.HNZ" depth="0.0">
			<acc value="0.0266018877851287" flag="0"/>
			<vel value="0.00414428272384457" flag="0"/>
			<psa03 value="0.0125190272407764" flag="0"/>
			<psa10 value="0.00462455088506849" flag="0"/>
			<psa30 value="0.000852036651579279" flag="0"/>
		</comp>
	</station>
	<station code="EZNE" name="EZNE" netid="KO" source="Bogazici University Kandilli Observatory And Earthquake Research Institute (KOERI)" insttype="" lat="39.756" lon="26.3655">
		<comp name="--.HNE" depth="0.0">
			<acc value="0.00422007207476023" flag="0"/>
			<vel value="0.00216226942256284" flag="0"/>
			<psa03 value="0.0113263219278218" flag="0"/>
			<psa10 value="0.00158891346084292" flag="0"/>
			<psa30 value="0.000414607934491004" flag="0"/>
		</comp>
		<comp name="--.HNN" depth="0.0">
			<acc value="0.0059791941082441" flag="0"/>
			<vel value="0.00252283596348441" flag="0"/>
			<psa03 value="0.0186958491853299" flag="0"/>
			<psa10 value="0.00286310208833509" flag="0"/>
			<psa30 value="0.000391078823719359" flag="0"/>
		</comp>
		<comp name="--.HNZ" depth="0.0">
			<acc value="0.00377460251476681" flag="0"/>
			<vel value="0.00179626365603364" flag="0"/>
			<psa03 value="0.0109358481441868" flag="0"/>
			<psa10 value="0.00173264149774709" flag="0"/>
			<psa30 value="0.000384433722055821" flag="0"/>
		</comp>
	</station>
	<station code="GOMA" name="GOMA" netid="KO" source="Bogazici University Kandilli Observatory And Earthquake Research Institute (KOERI)" insttype="" lat="38.7077" lon="27.9175">
		<comp name="--.HNE" depth="0.0">
			<acc value="0.0331483023212985" flag="0"/>
			<vel value="0.0156381152450754" flag="0"/>
			<psa03 value="0.0754871673209712" flag="0"/>
			<psa10 value="0.00851370336608058" flag="0"/>
			<psa30 value="0.000792918829065635" flag="0"/>
		</comp>
		<comp name="--.HNN" depth="0.0">
			<acc value="0.0318424203991103" flag="0"/>
			<vel value="0.021565107724991" flag="0"/>
			<psa03 value="0.0752835236221289" flag="0"/>
			<psa10 value="0.0131111563622494" flag="0"/>
			<psa30 value="0.000994384831446639" flag="0"/>
		</comp>
		<comp name="--.HNZ" depth="0.0">
			<acc value="0.0190516999140543" flag="0"/>
			<vel value="0.00804288777786278" flag="0"/>
			<psa03 value="0.0310932030012578" flag="0"/>
			<psa10 value="0.00319402072882169" flag="0"/>
			<psa30 value="0.000651508888434428" flag="0"/>
		</comp>
	</station>
	<station code="GONE" name="GONE" netid="KO" source="Bogazici University Kandilli Observatory And Earthquake Research Institute (KOERI)" insttype="" lat="40.0466" lon="27.686">
		<comp name="--.HNE" depth="0.0">
			<acc value="0.0225385816137266" flag="0"/>
			<vel value="0.00630868666058276" flag="0"/>
			<psa03 value="0.0186735091637606" flag="0"/>
			<psa10 value="0.00581956895537186" flag="0"/>
			<psa30 value="0.000691316369233681" flag="0"/>
		</comp>
		<comp name="--.HNN" depth="0.0">
			<acc value="0.028614561919483" flag="0"/>
			<vel value="0.00637832273147333" flag="0"/>
			<psa03 value="0.0206735036327224" flag="0"/>
			<psa10 value="0.00569817669499265" flag="0"/>
			<psa30 value="0.00125047335855656" flag="0"/>
		</comp>
		<comp name="--.HNZ" depth="0.0">
			<acc value="0.0184679919497252" flag="0"/>
			<vel value="0.00359947262308596" flag="0"/>
			<psa03 value="0.0130355354152269" flag="0"/>
			<psa10 value="0.00210453558702742" flag="0"/>
			<psa30 value="0.00044573864258083" flag="0"/>
		</comp>
	</station>
	<station code="GORD" name="GORD" netid="KO" source="Bogazici University Kandilli Observatory And Earthquake Research Institute (KOERI)" insttype="" lat="38.9088" lon="28.1769">
		<comp name="--.HNE" depth="0.0">
			<acc value="0.0107528016956285" flag="0"/>
			<vel value="0.00783577045269504" flag="0"/>
			<psa03 value="0.0362035597665036" flag="0"/>
			<psa10 value="0.0123325522835754" flag="0"/>
			<psa30 value="0.0013989852800777" flag="0"/>
		</comp>
		<comp name="--.HNN" depth="0.0">
			<acc value="0.0120113151957396" flag="0"/>
			<vel value="0.0100234605163623" flag="0"/>
			<psa03 value="0.0372868711138877" flag="0"/>
			<psa10 value="0.0116356417416807" flag="0"/>
			<psa30 value="0.000801206044717899" flag="0"/>
		</comp>
		<comp name="--.HNZ" depth="0.0">
			<acc value="0.00956527780606299" flag="0"/>
			<vel value="0.00615171552322461" flag="0"/>
			<psa03 value="0.0273688312799345" flag="0"/>
			<psa10 value="0.00535581042114047" flag="0"/>
			<psa30 value="0.00056442890105964" flag="0"/>
		</comp>
	</station>
	<station code="HVHR" name="HVHR" netid="KO" source="Bogazici University Kandilli Observatory And Earthquake Research Institute (KOERI)" insttype="" lat="40.9699" lon="28.8445">
		<comp name="--.HNE" depth="0.0">
			<acc value="0.0662712546133716" flag="0"/>
			<vel value="0.0344182724708605" flag="0"/>
			<psa03 value="0.104166775537699" flag="0"/>
			<psa10 value="0.0355827734341191" flag="0"/>
			<psa30 value="0.0015889240084159" flag="0"/>
		</comp>
		<comp name="--.HNN" depth="0.0">
			<acc value="0.113197755687685" flag="0"/>
			<vel value="0.060283862504504" flag="0"/>
			<psa03 value="0.185808558904964" flag="0"/>
			<psa10 value="0.0281090045836188" flag="0"/>
			<psa30 value="0.00224701656215328" flag="0"/>
		</comp>
		<comp name="--.HNZ" depth="0.0">
			<acc value="0.0517329029080531" flag="0"/>
			<vel value="0.0225283856285408" flag="0"/>
			<psa03 value="0.134838526140397" flag="0"/>
			<psa10 value="0.0103162790278643" flag="0"/>
			<psa30 value="0.000694995675468225" flag="0"/>
		</comp>
	</station>
	<station code="IZI" name="IZI" netid="KO" source="Bogazici University Kandilli Observatory And Earthquake Research Institute (KOERI)" insttype="" lat="40.3483" lon="29.4612">
		<comp name="--.HNE" depth="0.0">
			<acc value="0.0192648298270524" flag="0"/>
			<vel value="0.00871072419992889" flag="0"/>
			<psa03 value="0.0384434659618023" flag="0"/>
			<psa10 value="0.00797360664980956" flag="0"/>
			<psa30 value="0.000530707448432771" flag="0"/>
		</comp>
		<comp name="--.HNN" depth="0.0">
			<acc value="0.0198259243339403" flag="0"/>
			<vel value="0.00711824030024259" flag="0"/>
			<psa03 value="0.0419729810248528" flag="0"/>
			<psa10 value="0.00729241714934541" flag="0"/>
			<psa30 value="0.000650713575331713" flag="0"/>
		</comp>
		<comp name="--.HNZ" depth="0.0">
			<acc value="0.0133334643338177" flag="0"/>
			<vel value="0.00521979258934218" flag="0"/>
			<psa03 value="0.0248284051766725" flag="0"/>
			<psa10 value="0.00485774508303093" flag="0"/>
			<psa30 value="0.000542307331448372" flag="0"/>
		</comp>
	</station>
	<station code="KAVV" name="KAVV" netid="KO" source="Bogazici University Kandilli Observatory And Earthquake Research Institute (KOERI)" insttype="" lat="41.0638" lon="29.06">
		<comp name="--.HNE" depth="0.0">
			<acc value="0.0444683517905219" flag="0"/>
			<vel value="0.0101520265338665" flag="0"/>
			<psa03 value="0.042627498341726" flag="0"/>
			<psa10 value="0.00425384023353614" flag="0"/>
			<psa30 value="0.000453731151212391" flag="0"/>
		</comp>
		<comp name="--.HNN" depth="0.0">
			<acc value="0.0365778822267621" flag="0"/>
			<vel value="0.010268417446775" flag="0"/>
			<psa03 value="0.0497447380532237" flag="0"/>
			<psa10 value="0.00463118741845181" flag="0"/>
			<psa30 value="0.000481681284021703" flag="0"/>
		</comp>
		<comp name="--.HNZ" depth="0.0">
			<acc value="0.0268776295803208" flag="0"/>
			<vel value="0.00966893768413547" flag="0"/>
			<psa03 value="0.0441215895054137" flag="0"/>
			<psa10 value="0.002772572497445" flag="0"/>
			<psa30 value="0.000503393086903176" flag="0"/>
		</comp>
	</station>
	<station code="KCTX" name="KCTX" netid="KO" source="Bogazici University Kandilli Observatory And Earthquake Research Institute (KOERI)" insttype="" lat="40.2626" lon="28.3353">
		<comp name="--.HNE" depth="0.0">
