<?xml version="1.0" encoding="UTF-8" standalone="yes"?>
<!DOCTYPE earthquake SYSTEM "stationlist.dtd">
<stationlist created="" xmlns="ch.ethz.sed.shakemap.usgs.xml">
  <station code="GIL" name="GIL" netid="VI" insttype="CMG-3ESP" lat="66.0773" lon="-16.3513">
    <comp name="--.HHZ">
      <acc value="0.0651715443" flag="0"/>
      <vel value="0.0113411005" flag="0"/>
      <psa03 value="0.0595456581" flag="0"/>
      <psa10 value="0.0144465893" flag="0"/>
      <psa30 value="0.0015187958" flag="0"/>
    </comp>
    <comp name="--.HHN">
      <acc value="0.0870570558" flag="0"/>
      <vel value="0.0392394187" flag="0"/>
      <psa03 value="0.1148711998" flag="0"/>
      <psa10 value="0.0412064635" flag="0"/>
      <psa30 value="0.0063767523" flag="0"/>
    </comp>
    <comp name="--.HHE">
      <acc value="0.0881855462" flag="0"/>
      <vel value="0.0393511974" flag="0"/>
      <psa03 value="0.1903301450" flag="0"/>
      <psa10 value="0.0426591512" flag="0"/>
      <psa30 value="0.0057554990" flag="0"/>
    </comp>
  </station>
</stationlist>
