<?xml version="1.0" encoding="UTF-8" standalone="yes"?>
<!DOCTYPE earthquake SYSTEM "stationlist.dtd">
<stationlist created="" xmlns="ch.ethz.sed.shakemap.usgs.xml">
  <station code="APE" name="APE" netid="GE" insttype="STS-2/N" lat="37.0727" lon="25.523">
    <comp name="--.HHE">
      <acc value="0.1694958679" flag="0"/>
      <vel value="0.0296862499" flag="0"/>
      <psa03 value="0.0829051723" flag="0"/>
      <psa10 value="0.0092320303" flag="0"/>
      <psa30 value="0.0006595952" flag="0"/>
    </comp>
    <comp name="--.HHZ">
      <acc value="0.0767688249" flag="0"/>
      <vel value="0.0096998721" flag="0"/>
      <psa03 value="0.0449182323" flag="0"/>
      <psa10 value="0.0039569138" flag="0"/>
      <psa30 value="0.0005813297" flag="0"/>
    </comp>
    <comp name="--.HHN">
      <acc value="0.1888660007" flag="0"/>
      <vel value="0.0220599135" flag="0"/>
      <psa03 value="0.0720936603" flag="0"/>
      <psa10 value="0.0062928528" flag="0"/>
      <psa30 value="0.0008752207" flag="0"/>
    </comp>
  </station>
  <station code="NAX1" name="NAX1" netid="HI" insttype="CMG-5TD,ACCELEROMETER,GURALP" lat="37.1014" lon="25.3741">
    <comp name="--.HNZ">
      <acc value="0.0622555502" flag="0"/>
      <vel value="0.0144984623" flag="0"/>
      <psa03 value="0.0648811215" flag="0"/>
      <psa10 value="0.0064216898" flag="0"/>
      <psa30 value="0.0006525921" flag="0"/>
    </comp>
    <comp name="--.HNN">
      <acc value="0.1602044395" flag="0"/>
      <vel value="0.0195969082" flag="0"/>
      <psa03 value="0.0537144636" flag="0"/>
      <psa10 value="0.0057624321" flag="0"/>
      <psa30 value="0.0007886002" flag="0"/>
    </comp>
    <comp name="--.HNE">
      <acc value="0.1035194749" flag="0"/>
      <vel value="0.0222814694" flag="0"/>
      <psa03 value="0.0624664499" flag="0"/>
      <psa10 value="0.0066205672" flag="0"/>
      <psa30 value="0.0005367185" flag="0"/>
    </comp>
  </station>
  <station code="AMGA" name="AMGA" netid="HL" insttype="SMART24" lat="36.8316" lon="25.8938">
    <comp name="--.HHE">
      <acc value="0.7174539915" flag="0"/>
      <vel value="0.0920382475" flag="0"/>
      <psa03 value="0.3322947276" flag="0"/>
      <psa10 value="0.0211863876" flag="0"/>
      <psa30 value="0.0023261160" flag="0"/>
    </comp>
    <comp name="--.HHN">
      <acc value="0.7578578072" flag="0"/>
      <vel value="0.1062123708" flag="0"/>
      <psa03 value="0.4316431312" flag="0"/>
      <psa10 value="0.0677036672" flag="0"/>
      <psa30 value="0.0037970517" flag="0"/>
    </comp>
    <comp name="--.HHZ">
      <acc value="0.4282105369" flag="0"/>
      <vel value="0.0912516603" flag="0"/>
      <psa03 value="0.2705055360" flag="0"/>
      <psa10 value="0.0297384275" flag="0"/>
      <psa30 value="0.0024505344" flag="0"/>
    </comp>
  </station>
  <station code="APE" name="APE" netid="HL" insttype="120" lat="37.0727" lon="25.523">
    <comp name="--.HHN">
      <acc value="0.1499173846" flag="0"/>
      <vel value="0.0213541023" flag="0"/>
      <psa03 value="0.0699723567" flag="0"/>
      <psa10 value="0.0062172467" flag="0"/>
      <psa30 value="0.0008634825" flag="0"/>
    </comp>
    <comp name="--.HHE">
      <acc value="0.1463440308" flag="0"/>
      <vel value="0.0268782155" flag="0"/>
      <psa03 value="0.0800910750" flag="0"/>
      <psa10 value="0.0089755700" flag="0"/>
      <psa30 value="0.0006577152" flag="0"/>
    </comp>
    <comp name="--.HHZ">
      <acc value="0.0655283033" flag="0"/>
      <vel value="0.0091702686" flag="0"/>
      <psa03 value="0.0433496628" flag="0"/>
      <psa10 value="0.0039260850" flag="0"/>
      <psa30 value="0.0005771021" flag="0"/>
    </comp>
  </station>
  <station code="TNSA" name="TNSA" netid="HL" insttype="CMG-5" lat="37.5394" lon="25.1631">
    <comp name="00.HNN">
      <acc value="0.0462505615" flag="0"/>
      <vel value="0.0126501201" flag="0"/>
      <psa03 value="0.0993748265" flag="0"/>
      <psa10 value="0.0050236480" flag="0"/>
      <psa30 value="0.0002670746" flag="0"/>
    </comp>
    <comp name="00.HNE">
      <acc value="0.0363888892" flag="0"/>
      <vel value="0.0096334315" flag="0"/>
      <psa03 value="0.0603386968" flag="0"/>
      <psa10 value="0.0044890196" flag="0"/>
      <psa30 value="0.0003124218" flag="0"/>
    </comp>
    <comp name="00.HNZ">
      <acc value="0.0421543308" flag="0"/>
      <vel value="0.0075472427" flag="0"/>
      <psa03 value="0.0496943128" flag="0"/>
      <psa10 value="0.0022536187" flag="0"/>
      <psa30 value="0.0004434255" flag="0"/>
    </comp>
  </station>
</stationlist>
