<?xml version="1.0" encoding="UTF-8" standalone="yes"?>
<!DOCTYPE earthquake SYSTEM "stationlist.dtd">
<stationlist created="" xmlns="ch.ethz.sed.shakemap.usgs.xml">
  <station code="AKS" name="AKS" netid="KO" insttype="CMG-5T" commtype="DIG" lat="38.8785" lon="27.8129">
    <comp name="--.HNE">
      <acc value="0.0630281208" flag="0"/>
      <vel value="0.0231287038" flag="0"/>
      <psa03 value="0.1533633713" flag="0"/>
      <psa10 value="0.0155968930" flag="0"/>
      <psa30 value="0.0013934499" flag="0"/>
    </comp>
    <comp name="--.HNN">
      <acc value="0.0600968688" flag="0"/>
      <vel value="0.0191916888" flag="0"/>
      <psa03 value="0.1488025519" flag="0"/>
      <psa10 value="0.0113385387" flag="0"/>
      <psa30 value="0.0020193356" flag="0"/>
    </comp>
    <comp name="--.HNZ">
      <acc value="0.0355776294" flag="0"/>
      <vel value="0.0085004748" flag="0"/>
      <psa03 value="0.0525187589" flag="0"/>
      <psa10 value="0.0056506236" flag="0"/>
      <psa30 value="0.0012684425" flag="0"/>
    </comp>
  </station>
  <station code="BALB" name="BALB" netid="KO" insttype="CMG-5T" commtype="DIG" lat="39.6507" lon="27.8642">
    <comp name="--.HNE">
      <acc value="0.0707769139" flag="0"/>
      <vel value="0.0297880917" flag="0"/>
      <psa03 value="0.1735704978" flag="0"/>
      <psa10 value="0.0183516322" flag="0"/>
      <psa30 value="0.0011996354" flag="0"/>
    </comp>
    <comp name="--.HNN">
      <acc value="0.1075373943" flag="0"/>
      <vel value="0.0313930892" flag="0"/>
      <psa03 value="0.2481170770" flag="0"/>
      <psa10 value="0.0258554367" flag="0"/>
      <psa30 value="0.0019681542" flag="0"/>
    </comp>
    <comp name="--.HNZ">
      <acc value="0.0490946508" flag="0"/>
      <vel value="0.0151158873" flag="0"/>
      <psa03 value="0.0898546045" flag="0"/>
      <psa10 value="0.0107601554" flag="0"/>
      <psa30 value="0.0017136871" flag="0"/>
    </comp>
  </station>
  <station code="DKL" name="DKL" netid="KO" insttype="CMG-3ESPC" commtype="DIG" lat="39.0713" lon="26.9053">
    <comp name="--.HHZ">
      <acc value="0.0095571032" flag="0"/>
      <vel value="0.0029199869" flag="0"/>
      <psa03 value="0.0175986414" flag="0"/>
      <psa10 value="0.0016311677" flag="0"/>
      <psa30 value="0.0003858968" flag="0"/>
    </comp>
    <comp name="--.HHN">
      <acc value="0.0123278265" flag="0"/>
      <vel value="0.0067803714" flag="0"/>
      <psa03 value="0.0318181902" flag="0"/>
      <psa10 value="0.0049456282" flag="0"/>
      <psa30 value="0.0003368246" flag="0"/>
    </comp>
  </station>
  <station code="DST" name="DST" netid="KO" insttype="CMG-5T" commtype="DIG" lat="39.6041" lon="28.6267">
    <comp name="--.HNZ">
      <acc value="0.0406769306" flag="0"/>
      <vel value="0.0127722526" flag="0"/>
      <psa03 value="0.0782371547" flag="0"/>
      <psa10 value="0.0072283379" flag="0"/>
      <psa30 value="0.0012503681" flag="0"/>
    </comp>
    <comp name="--.HNN">
      <acc value="0.0542462541" flag="0"/>
      <vel value="0.0178287008" flag="0"/>
      <psa03 value="0.0718519103" flag="0"/>
      <psa10 value="0.0099910693" flag="0"/>
      <psa30 value="0.0009812576" flag="0"/>
    </comp>
    <comp name="--.HNE">
      <acc value="0.0569579764" flag="0"/>
      <vel value="0.0178588627" flag="0"/>
      <psa03 value="0.1037777881" flag="0"/>
      <psa10 value="0.0127188147" flag="0"/>
      <psa30 value="0.0009772568" flag="0"/>
    </comp>
  </station>
  <station code="GOMA" name="GOMA" netid="KO" insttype="CMG-5T" commtype="DIG" lat="38.7077" lon="27.9175">
    <comp name="--.HNE">
      <acc value="0.0483659146" flag="0"/>
      <vel value="0.0264449987" flag="0"/>
      <psa03 value="0.1465786480" flag="0"/>
      <psa10 value="0.0133305604" flag="0"/>
      <psa30 value="0.0007540585" flag="0"/>
    </comp>
    <comp name="--.HNZ">
      <acc value="0.0326130819" flag="0"/>
      <vel value="0.0106258692" flag="0"/>
      <psa03 value="0.0499060266" flag="0"/>
      <psa10 value="0.0053689787" flag="0"/>
      <psa30 value="0.0010268053" flag="0"/>
    </comp>
    <comp name="--.HNN">
      <acc value="0.0325218459" flag="0"/>
      <vel value="0.0192425369" flag="0"/>
      <psa03 value="0.0764491701" flag="0"/>
      <psa10 value="0.0134998602" flag="0"/>
      <psa30 value="0.0011402716" flag="0"/>
    </comp>
  </station>
  <station code="GONE" name="GONE" netid="KO" insttype="CMG-5T" commtype="DIG" lat="40.0466" lon="27.686">
    <comp name="--.HNZ">
      <acc value="0.0273195528" flag="0"/>
      <vel value="0.0070896013" flag="0"/>
      <psa03 value="0.0460867990" flag="0"/>
      <psa10 value="0.0032597878" flag="0"/>
      <psa30 value="0.0003032831" flag="0"/>
    </comp>
    <comp name="--.HNE">
      <acc value="0.0276898507" flag="0"/>
      <vel value="0.0140323974" flag="0"/>
      <psa03 value="0.0655224090" flag="0"/>
      <psa10 value="0.0144100509" flag="0"/>
      <psa30 value="0.0007634881" flag="0"/>
    </comp>
    <comp name="--.HNN">
      <acc value="0.0588447971" flag="0"/>
      <vel value="0.0189204595" flag="0"/>
      <psa03 value="0.1477398360" flag="0"/>
      <psa10 value="0.0075189663" flag="0"/>
      <psa30 value="0.0007377337" flag="0"/>
    </comp>
  </station>
  <station code="GORD" name="GORD" netid="KO" insttype="CMG-5T" commtype="DIG" lat="38.9088" lon="28.1769">
    <comp name="--.HNN">
      <acc value="0.0292419873" flag="0"/>
      <vel value="0.0208426518" flag="0"/>
      <psa03 value="0.0454861434" flag="0"/>
      <psa10 value="0.0312847448" flag="0"/>
      <psa30 value="0.0021466079" flag="0"/>
    </comp>
    <comp name="--.HNE">
      <acc value="0.0239495171" flag="0"/>
      <vel value="0.0182544206" flag="0"/>
      <psa03 value="0.0340682998" flag="0"/>
      <psa10 value="0.0259041300" flag="0"/>
      <psa30 value="0.0038983398" flag="0"/>
    </comp>
    <comp name="--.HNZ">
      <acc value="0.0238955710" flag="0"/>
      <vel value="0.0118225764" flag="0"/>
      <psa03 value="0.0269588596" flag="0"/>
      <psa10 value="0.0115866392" flag="0"/>
      <psa30 value="0.0018591682" flag="0"/>
    </comp>
  </station>
  <station code="KCTX" name="KCTX" netid="KO" insttype="CMG-3ESP" commtype="DIG" lat="40.2626" lon="28.3353">
    <comp name="--.HHE">
      <acc value="0.0221245781" flag="0"/>
      <vel value="0.0150820965" flag="0"/>
      <psa03 value="0.0507861206" flag="0"/>
      <psa10 value="0.0194055104" flag="0"/>
      <psa30 value="0.0010314836" flag="0"/>
    </comp>
    <comp name="--.HHZ">
      <acc value="0.0185391433" flag="0"/>
      <vel value="0.0090264560" flag="0"/>
      <psa03 value="0.0453392972" flag="0"/>
      <psa10 value="0.0040782641" flag="0"/>
      <psa30 value="0.0003304075" flag="0"/>
    </comp>
    <comp name="--.HHN">
      <acc value="0.0376862281" flag="0"/>
      <vel value="0.0131697023" flag="0"/>
      <psa03 value="0.0456536361" flag="0"/>
      <psa10 value="0.0104112387" flag="0"/>
      <psa30 value="0.0005960673" flag="0"/>
    </comp>
  </station>
  <station code="KULA" name="KULA" netid="KO" insttype="CMG-3T" commtype="DIG" lat="38.5145" lon="28.6607">
    <comp name="--.HHN">
      <acc value="0.0279024771" flag="0"/>
      <vel value="0.0058152446" flag="0"/>
      <psa03 value="0.0154339568" flag="0"/>
      <psa10 value="0.0035038965" flag="0"/>
      <psa30 value="0.0002993821" flag="0"/>
    </comp>
    <comp name="--.HHE">
      <acc value="0.0234709063" flag="0"/>
      <vel value="0.0057342623" flag="0"/>
      <psa03 value="0.0102226274" flag="0"/>
      <psa10 value="0.0054148219" flag="0"/>
      <psa30 value="0.0003770508" flag="0"/>
    </comp>
    <comp name="--.HHZ">
      <acc value="0.0128174006" flag="0"/>
      <vel value="0.0052156335" flag="0"/>
      <psa03 value="0.0120113755" flag="0"/>
      <psa10 value="0.0053298418" flag="0"/>
      <psa30 value="0.0003728853" flag="0"/>
    </comp>
  </station>
  <station code="ORLT" name="ORLT" netid="KO" insttype="CMG-5T" commtype="DIG" lat="40.0452" lon="28.8914">
    <comp name="--.HNE">
      <acc value="0.0568448092" flag="0"/>
      <vel value="0.0288106281" flag="0"/>
      <psa03 value="0.1703796991" flag="0"/>
      <psa10 value="0.0254125200" flag="0"/>
      <psa30 value="0.0011118840" flag="0"/>
    </comp>
    <comp name="--.HNN">
      <acc value="0.0771066987" flag="0"/>
      <vel value="0.0403867545" flag="0"/>
      <psa03 value="0.2020881734" flag="0"/>
      <psa10 value="0.0394900263" flag="0"/>
      <psa30 value="0.0017728995" flag="0"/>
    </comp>
    <comp name="--.HNZ">
      <acc value="0.0240496909" flag="0"/>
      <vel value="0.0164199098" flag="0"/>
      <psa03 value="0.0599361422" flag="0"/>
      <psa10 value="0.0178769213" flag="0"/>
      <psa30 value="0.0017067792" flag="0"/>
    </comp>
  </station>
  <station code="SHAP" name="SHAP" netid="KO" insttype="CMG-5T" commtype="DIG" lat="39.0231" lon="29.222">
    <comp name="--.HNN">
      <acc value="0.0415845075" flag="0"/>
      <vel value="0.0134803667" flag="0"/>
      <psa03 value="0.0521777464" flag="0"/>
      <psa10 value="0.0080037348" flag="0"/>
      <psa30 value="0.0006220651" flag="0"/>
    </comp>
    <comp name="--.HNE">
      <acc value="0.0310339326" flag="0"/>
      <vel value="0.0074056161" flag="0"/>
      <psa03 value="0.0362857093" flag="0"/>
      <psa10 value="0.0046207545" flag="0"/>
      <psa30 value="0.0003762652" flag="0"/>
    </comp>
    <comp name="--.HNZ">
      <acc value="0.0253765664" flag="0"/>
      <vel value="0.0066090306" flag="0"/>
      <psa03 value="0.0227668940" flag="0"/>
      <psa10 value="0.0042994085" flag="0"/>
      <psa30 value="0.0003472582" flag="0"/>
    </comp>
  </station>
  <station code="SIMA" name="SIMA" netid="KO" insttype="CMG-6T" commtype="DIG" lat="39.0833" lon="28.9825">
    <comp name="--.HHE">
      <acc value="0.0457243408" flag="0"/>
      <vel value="0.0102370782" flag="0"/>
      <psa03 value="0.0481722422" flag="0"/>
      <psa10 value="0.0034651838" flag="0"/>
      <psa30 value="0.0007462712" flag="0"/>
    </comp>
    <comp name="--.HHN">
      <acc value="0.0426372581" flag="0"/>
      <vel value="0.0098208404" flag="0"/>
      <psa03 value="0.0533487592" flag="0"/>
      <psa10 value="0.0038664312" flag="0"/>
      <psa30 value="0.0006226253" flag="0"/>
    </comp>
    <comp name="--.HHZ">
      <acc value="0.0230995762" flag="0"/>
      <vel value="0.0059794854" flag="0"/>
      <psa03 value="0.0219436017" flag="0"/>
      <psa10 value="0.0028097411" flag="0"/>
      <psa30 value="0.0004942961" flag="0"/>
    </comp>
  </station>
  <station code="SOMA" name="SOMA" netid="KO" insttype="CMG-5T" commtype="DIG" lat="39.1564" lon="27.5341">
    <comp name="--.HNE">
      <acc value="0.0954421124" flag="0"/>
      <vel value="0.0210694777" flag="0"/>
      <psa03 value="0.1280889760" flag="0"/>
      <psa10 value="0.0081165512" flag="0"/>
      <psa30 value="0.0011335925" flag="0"/>
    </comp>
    <comp name="--.HNN">
      <acc value="0.0771860363" flag="0"/>
      <vel value="0.0314619431" flag="0"/>
      <psa03 value="0.1491069944" flag="0"/>
      <psa10 value="0.0152210387" flag="0"/>
      <psa30 value="0.0013608217" flag="0"/>
    </comp>
    <comp name="--.HNZ">
      <acc value="0.0659768204" flag="0"/>
      <vel value="0.0173819331" flag="0"/>
      <psa03 value="0.0799230912" flag="0"/>
      <psa10 value="0.0060369168" flag="0"/>
      <psa30 value="0.0010094599" flag="0"/>
    </comp>
  </station>
  <station code="SUSR" name="SUSR" netid="KO" insttype="CMG-5T" commtype="DIG" lat="39.9627" lon="28.0835">
    <comp name="--.HNE">
      <acc value="0.0473439570" flag="0"/>
      <vel value="0.0168843075" flag="0"/>
      <psa03 value="0.0753346400" flag="0"/>
      <psa10 value="0.0048625514" flag="0"/>
      <psa30 value="0.0004330270" flag="0"/>
    </comp>
    <comp name="--.HNN">
      <acc value="0.0552733922" flag="0"/>
      <vel value="0.0183683694" flag="0"/>
      <psa03 value="0.0952443466" flag="0"/>
      <psa10 value="0.0037874298" flag="0"/>
      <psa30 value="0.0006600366" flag="0"/>
    </comp>
    <comp name="--.HNZ">
      <acc value="0.0347655287" flag="0"/>
      <vel value="0.0098914307" flag="0"/>
      <psa03 value="0.0519595388" flag="0"/>
      <psa10 value="0.0039611418" flag="0"/>
      <psa30 value="0.0009967865" flag="0"/>
    </comp>
  </station>
  <station code="TVSB" name="TVSB" netid="KO" insttype="CMG-3T" commtype="DIG" lat="39.4497" lon="29.4615">
    <comp name="--.HHN">
      <acc value="0.0246034495" flag="0"/>
      <vel value="0.0093622908" flag="0"/>
      <psa03 value="0.0570290365" flag="0"/>
      <psa10 value="0.0058477755" flag="0"/>
      <psa30 value="0.0004343462" flag="0"/>
    </comp>
    <comp name="--.HHE">
      <acc value="0.0347062917" flag="0"/>
      <vel value="0.0147111078" flag="0"/>
      <psa03 value="0.0665843537" flag="0"/>
      <psa10 value="0.0101511178" flag="0"/>
      <psa30 value="0.0005102451" flag="0"/>
    </comp>
    <comp name="--.HHZ">
      <acc value="0.0125475962" flag="0"/>
      <vel value="0.0045128478" flag="0"/>
      <psa03 value="0.0326963068" flag="0"/>
      <psa10 value="0.0027692182" flag="0"/>
      <psa30 value="0.0005962272" flag="0"/>
    </comp>
  </station>
  <station code="YAYO" name="YAYO" netid="KO" insttype="CMG-6T" commtype="DIG" lat="39.6113" lon="27.0726">
    <comp name="--.HHZ">
      <acc value="0.0192372931" flag="0"/>
      <vel value="0.0097289239" flag="0"/>
      <psa03 value="0.0636668186" flag="0"/>
      <psa10 value="0.0046091640" flag="0"/>
      <psa30 value="0.0004639328" flag="0"/>
    </comp>
    <comp name="--.HHN">
      <acc value="0.0282092041" flag="0"/>
      <vel value="0.0118601773" flag="0"/>
      <psa03 value="0.0953614307" flag="0"/>
      <psa10 value="0.0046902444" flag="0"/>
      <psa30 value="0.0004026322" flag="0"/>
    </comp>
    <comp name="--.HHE">
      <acc value="0.0390657677" flag="0"/>
      <vel value="0.0152688352" flag="0"/>
      <psa03 value="0.0871272939" flag="0"/>
      <psa10 value="0.0134344423" flag="0"/>
      <psa30 value="0.0006542341" flag="0"/>
    </comp>
  </station>
  <station code="YENI" name="YENI" netid="KO" insttype="CMG-5T" commtype="DIG" lat="39.9364" lon="27.2422">
    <comp name="--.HNN">
      <acc value="0.0607201815" flag="0"/>
      <vel value="0.0275065478" flag="0"/>
      <psa03 value="0.1476210243" flag="0"/>
      <psa10 value="0.0111770036" flag="0"/>
      <psa30 value="0.0009925715" flag="0"/>
    </comp>
    <comp name="--.HNE">
      <acc value="0.0575377696" flag="0"/>
      <vel value="0.0182426017" flag="0"/>
      <psa03 value="0.0980637003" flag="0"/>
      <psa10 value="0.0112664618" flag="0"/>
      <psa30 value="0.0006122616" flag="0"/>
    </comp>
    <comp name="--.HNZ">
      <acc value="0.0257343111" flag="0"/>
      <vel value="0.0095281853" flag="0"/>
      <psa03 value="0.0565720160" flag="0"/>
      <psa10 value="0.0032636599" flag="0"/>
      <psa30 value="0.0005438928" flag="0"/>
    </comp>
  </station>
</stationlist>
