<?xml version="1.0" encoding="UTF-8" standalone="yes"?>
<!DOCTYPE earthquake SYSTEM "stationlist.dtd">
<stationlist created="" xmlns="ch.ethz.sed.shakemap.usgs.xml">
  <station code="SVRC" name="SVRC" netid="KO" insttype="CMG-3T" lat="38.3775" lon="39.306">
    <comp name="--.HHE">
      <acc value="0.0203519662" flag="0"/>
      <vel value="0.0074001435" flag="0"/>
      <psa03 value="0.0474938925" flag="0"/>
      <psa10 value="0.0048192266" flag="0"/>
      <psa30 value="0.0007331307" flag="0"/>
    </comp>
    <comp name="--.HHZ">
      <acc value="0.0106932952" flag="0"/>
      <vel value="0.0047585196" flag="0"/>
      <psa03 value="0.0238683558" flag="0"/>
      <psa10 value="0.0058417496" flag="0"/>
      <psa30 value="0.0004298382" flag="0"/>
    </comp>
    <comp name="--.HHN">
      <acc value="0.0132619361" flag="0"/>
      <vel value="0.0056729778" flag="0"/>
      <psa03 value="0.0389812362" flag="0"/>
      <psa10 value="0.0048373456" flag="0"/>
      <psa30 value="0.0004226531" flag="0"/>
    </comp>
  </station>
  <station code="URFA" name="URFA" netid="KO" insttype="CMG-3ESP" lat="37.4409" lon="38.8213">
    <comp name="--.HHE">
      <acc value="0.0727495412" flag="0"/>
      <vel value="0.0148792424" flag="0"/>
      <psa03 value="0.0308793177" flag="0"/>
      <psa10 value="0.0050734764" flag="0"/>
      <psa30 value="0.0008089155" flag="0"/>
    </comp>
    <comp name="--.HHZ">
      <acc value="0.0255609193" flag="0"/>
      <vel value="0.0054346126" flag="0"/>
      <psa03 value="0.0144733209" flag="0"/>
      <psa10 value="0.0055448477" flag="0"/>
      <psa30 value="0.0003522012" flag="0"/>
    </comp>
  </station>
</stationlist>
