<?xml version="1.0" encoding="UTF-8" standalone="yes"?>
<!DOCTYPE earthquake SYSTEM "stationlist.dtd">
<stationlist created="" xmlns="ch.ethz.sed.shakemap.usgs.xml">
  <station code="PE01" name="PE01" netid="Z3" source="GFZ" insttype="CMG-3ESP/60" lat="38.017" lon="22.0283">
    <comp name="--.HHE">
      <acc value="0.0485314053" flag="0"/>
      <vel value="0.0397289199" flag="0"/>
      <psa03 value="0.1345491884" flag="0"/>
      <psa10 value="0.0549524204" flag="0"/>
      <psa30 value="0.0114575452" flag="0"/>
    </comp>
    <comp name="--.HHN">
      <acc value="0.0550712563" flag="0"/>
      <vel value="0.0386381642" flag="0"/>
      <psa03 value="0.1565629212" flag="0"/>
      <psa10 value="0.0473770196" flag="0"/>
      <psa30 value="0.0079173265" flag="0"/>
    </comp>
    <comp name="--.HHZ">
      <acc value="0.0356648584" flag="0"/>
      <vel value="0.0329914266" flag="0"/>
      <psa03 value="0.1167905992" flag="0"/>
      <psa10 value="0.0426027313" flag="0"/>
      <psa30 value="0.0138048523" flag="0"/>
    </comp>
  </station>
  <station code="PE02" name="PE02" netid="Z3" source="GFZ" insttype="CMG-3ESP/60" lat="37.8958" lon="22.4907">
    <comp name="--.HHE">
      <acc value="0.0273179932" flag="0"/>
      <vel value="0.0460133596" flag="0"/>
      <psa03 value="0.0716968132" flag="0"/>
      <psa10 value="0.0565006976" flag="0"/>
      <psa30 value="0.0213571770" flag="0"/>
    </comp>
    <comp name="--.HHN">
      <acc value="0.0205692516" flag="0"/>
      <vel value="0.0279188656" flag="0"/>
      <psa03 value="0.0621687751" flag="0"/>
      <psa10 value="0.0427069074" flag="0"/>
      <psa30 value="0.0113184475" flag="0"/>
    </comp>
    <comp name="--.HHZ">
      <acc value="0.0172989650" flag="0"/>
      <vel value="0.0304457017" flag="0"/>
      <psa03 value="0.0418983738" flag="0"/>
      <psa10 value="0.0419148833" flag="0"/>
      <psa30 value="0.0094605672" flag="0"/>
    </comp>
  </station>
  <station code="PE03" name="PE03" netid="Z3" source="GFZ" insttype="CMG-3ESP/60" lat="37.3784" lon="21.7722">
    <comp name="--.HHE">
      <acc value="0.2743926248" flag="0"/>
      <vel value="0.1412481892" flag="0"/>
      <psa03 value="0.4533558671" flag="0"/>
      <psa10 value="0.1589913629" flag="0"/>
      <psa30 value="0.0241240264" flag="0"/>
    </comp>
    <comp name="--.HHN">
      <acc value="0.3250159755" flag="0"/>
      <vel value="0.1268548267" flag="0"/>
      <psa03 value="0.4796874656" flag="0"/>
      <psa10 value="0.1587641485" flag="0"/>
      <psa30 value="0.0163011209" flag="0"/>
    </comp>
    <comp name="--.HHZ">
      <acc value="0.1892242075" flag="0"/>
      <vel value="0.0860461112" flag="0"/>
      <psa03 value="0.3196308921" flag="0"/>
      <psa10 value="0.1679919697" flag="0"/>
      <psa30 value="0.0189902775" flag="0"/>
    </comp>
  </station>
  <station code="PE05" name="PE05" netid="Z3" source="GFZ" insttype="CMG-3ESP/60" lat="37.5128" lon="22.4553">
    <comp name="--.HHE">
      <acc value="0.0443593835" flag="0"/>
      <vel value="0.0377728447" flag="0"/>
      <psa03 value="0.0634564455" flag="0"/>
      <psa10 value="0.0691738564" flag="0"/>
      <psa30 value="0.0101373723" flag="0"/>
    </comp>
    <comp name="--.HHN">
      <acc value="0.0427853596" flag="0"/>
      <vel value="0.0353337448" flag="0"/>
      <psa03 value="0.0867276143" flag="0"/>
      <psa10 value="0.0524428828" flag="0"/>
      <psa30 value="0.0094601204" flag="0"/>
    </comp>
    <comp name="--.HHZ">
      <acc value="0.0274093322" flag="0"/>
      <vel value="0.0287951471" flag="0"/>
      <psa03 value="0.0478262042" flag="0"/>
      <psa10 value="0.0567475643" flag="0"/>
      <psa30 value="0.0123160839" flag="0"/>
    </comp>
  </station>
  <station code="PE06" name="PE06" netid="Z3" source="GFZ" insttype="CMG-3ESP/60" lat="37.1787" lon="21.9252">
    <comp name="--.HHE">
      <acc value="0.1875519670" flag="0"/>
      <vel value="0.1237878327" flag="0"/>
      <psa03 value="0.2659010406" flag="0"/>
      <psa10 value="0.1375703533" flag="0"/>
      <psa30 value="0.0187458177" flag="0"/>
    </comp>
    <comp name="--.HHN">
      <acc value="0.1652757932" flag="0"/>
      <vel value="0.1204717340" flag="0"/>
      <psa03 value="0.4544236469" flag="0"/>
      <psa10 value="0.1936622954" flag="0"/>
      <psa30 value="0.0159588103" flag="0"/>
    </comp>
    <comp name="--.HHZ">
      <acc value="0.1079772770" flag="0"/>
      <vel value="0.0858588486" flag="0"/>
      <psa03 value="0.2840823817" flag="0"/>
      <psa10 value="0.1344229101" flag="0"/>
      <psa30 value="0.0165320987" flag="0"/>
    </comp>
  </station>
  <station code="PE07" name="PE07" netid="Z3" source="GFZ" insttype="CMG-3ESP/60" lat="37.1478" lon="22.8195">
    <comp name="--.HHE">
      <acc value="0.0196227519" flag="0"/>
      <vel value="0.0235018670" flag="0"/>
      <psa03 value="0.0509210195" flag="0"/>
      <psa10 value="0.0352165732" flag="0"/>
      <psa30 value="0.0085338564" flag="0"/>
    </comp>
    <comp name="--.HHN">
      <acc value="0.0251640942" flag="0"/>
      <vel value="0.0340441804" flag="0"/>
      <psa03 value="0.0884210303" flag="0"/>
      <psa10 value="0.0518716533" flag="0"/>
      <psa30 value="0.0067230445" flag="0"/>
    </comp>
    <comp name="--.HHZ">
      <acc value="0.0149454086" flag="0"/>
      <vel value="0.0222456624" flag="0"/>
      <psa03 value="0.0334468159" flag="0"/>
      <psa10 value="0.0300650412" flag="0"/>
      <psa30 value="0.0061233244" flag="0"/>
    </comp>
  </station>
  <station code="PE08" name="PE08" netid="Z3" source="GFZ" insttype="CMG-3ESP/60" lat="36.8311" lon="22.442">
    <comp name="--.HHE">
      <acc value="0.1389310561" flag="0"/>
      <vel value="0.1036860016" flag="0"/>
      <psa03 value="0.4007108982" flag="0"/>
      <psa10 value="0.1539422942" flag="0"/>
      <psa30 value="0.0126646557" flag="0"/>
    </comp>
    <comp name="--.HHN">
      <acc value="0.1147577952" flag="0"/>
      <vel value="0.0930161396" flag="0"/>
      <psa03 value="0.3436852468" flag="0"/>
      <psa10 value="0.1791576652" flag="0"/>
      <psa30 value="0.0109311562" flag="0"/>
    </comp>
    <comp name="--.HHZ">
      <acc value="0.0592007389" flag="0"/>
      <vel value="0.0523612092" flag="0"/>
      <psa03 value="0.2119286546" flag="0"/>
      <psa10 value="0.1205995219" flag="0"/>
      <psa30 value="0.0092386681" flag="0"/>
    </comp>
  </station>
  <station code="PE09" name="PE09" netid="Z3" source="GFZ" insttype="CMG-3ESP/60" lat="36.7921" lon="21.8879">
    <comp name="--.HHE">
      <acc value="0.1250008261" flag="0"/>
      <vel value="0.0991360010" flag="0"/>
      <psa03 value="0.4105871769" flag="0"/>
      <psa10 value="0.1188424211" flag="0"/>
      <psa30 value="0.0103458873" flag="0"/>
    </comp>
    <comp name="--.HHN">
      <acc value="0.1325811636" flag="0"/>
      <vel value="0.0928341754" flag="0"/>
      <psa03 value="0.3630560447" flag="0"/>
      <psa10 value="0.1182618177" flag="0"/>
      <psa30 value="0.0092135578" flag="0"/>
    </comp>
    <comp name="--.HHZ">
      <acc value="0.0650539132" flag="0"/>
      <vel value="0.0372682172" flag="0"/>
      <psa03 value="0.1799239422" flag="0"/>
      <psa10 value="0.0473787566" flag="0"/>
      <psa30 value="0.0111018974" flag="0"/>
    </comp>
  </station>
</stationlist>
