<stationlist created="1729182677">
	<station code="ARPRA" name="ARPRA" netid="KO" source="Bogazici University Kandilli Observatory And Earthquake Research Institute (KOERI)" insttype="" lat="39.0929" lon="38.3356">
		<comp name=".HNE" depth="0.0">
			<acc value="0.091280063046984" flag="0"/>
			<vel value="0.0561337137863" flag="0"/>
			<psa03 value="0.19785544028521" flag="0"/>
			<psa10 value="0.0609977082987164" flag="0"/>
			<psa30 value="0.00590364442079467" flag="0"/>
		</comp>
		<comp name=".HNN" depth="0.0">
			<acc value="0.078705934383564" flag="0"/>
			<vel value="0.0702942692016" flag="0"/>
			<psa03 value="0.264189897117613" flag="0"/>
			<psa10 value="0.0846682563566276" flag="0"/>
			<psa30 value="0.00554157460211689" flag="0"/>
		</comp>
		<comp name=".HNZ" depth="0.0">
			<acc value="0.049598008909926" flag="0"/>
			<vel value="0.0225287599016" flag="0"/>
			<psa03 value="0.106150031918753" flag="0"/>
			<psa10 value="0.0313096803626666" flag="0"/>
			<psa30 value="0.00391672279699676" flag="0"/>
		</comp>
	</station>
	<station code="GUMT" name="GUMT" netid="KO" source="Bogazici University Kandilli Observatory And Earthquake Research Institute (KOERI)" insttype="" lat="40.4665" lon="39.478">
		<comp name=".HNE" depth="0.0">
			<acc value="0.0083028829213182" flag="0"/>
			<vel value="0.00646358570184" flag="0"/>
			<psa03 value="0.0126507104433193" flag="0"/>
			<psa10 value="0.014250574655652" flag="0"/>
			<psa30 value="0.00132363518433395" flag="0"/>
		</comp>
		<comp name=".HNN" depth="0.0">
			<acc value="0.0066876952614258" flag="0"/>
			<vel value="0.00566061927411" flag="0"/>
			<psa03 value="0.0197040240448821" flag="0"/>
			<psa10 value="0.00802757835015944" flag="0"/>
			<psa30 value="0.00129049725994163" flag="0"/>
		</comp>
		<comp name=".HNZ" depth="0.0">
			<acc value="0.0078486441659154" flag="0"/>
			<vel value="0.00747892555622" flag="0"/>
			<psa03 value="0.0164479346470317" flag="0"/>
			<psa10 value="0.0127031771481502" flag="0"/>
			<psa30 value="0.00216549491174188" flag="0"/>
		</comp>
	</station>
	<station code="KOZK" name="KOZK" netid="KO" source="Bogazici University Kandilli Observatory And Earthquake Research Institute (KOERI)" insttype="" lat="39.2101" lon="34.868">
		<comp name=".HNE" depth="0.0">
			<acc value="0.04684106855409" flag="0"/>
			<vel value="0.0401327500701" flag="0"/>
			<psa03 value="0.0989688374499593" flag="0"/>
			<psa10 value="0.052595854217317" flag="0"/>
			<psa30 value="0.00491082865161298" flag="0"/>
		</comp>
		<comp name=".HNN" depth="0.0">
			<acc value="0.032835249247416" flag="0"/>
			<vel value="0.0411947751326" flag="0"/>
			<psa03 value="0.0919759262871916" flag="0"/>
			<psa10 value="0.0748651444482492" flag="0"/>
			<psa30 value="0.00436738640124849" flag="0"/>
		</comp>
		<comp name=".HNZ" depth="0.0">
			<acc value="0.026043202429224" flag="0"/>
			<vel value="0.0196344534747" flag="0"/>
			<psa03 value="0.0674026578035585" flag="0"/>
			<psa10 value="0.021019493688281" flag="0"/>
			<psa30 value="0.00204039787467847" flag="0"/>
		</comp>
	</station>
	<station code="TUNC" name="TUNC" netid="KO" source="Bogazici University Kandilli Observatory And Earthquake Research Institute (KOERI)" insttype="" lat="39.6942" lon="37.5388">
		<comp name=".HNE" depth="0.0">
			<acc value="1.9542494234562" flag="0"/>
			<vel value="0.556584824113" flag="0"/>
			<psa03 value="3.77545477201415" flag="0"/>
			<psa10 value="0.440122165935122" flag="0"/>
			<psa30 value="0.0478971729527658" flag="0"/>
		</comp>
		<comp name=".HNN" depth="0.0">
			<acc value="1.7423168668506" flag="0"/>
			<vel value="0.606607918525" flag="0"/>
			<psa03 value="3.96535468528902" flag="0"/>
			<psa10 value="0.632628928563364" flag="0"/>
			<psa30 value="0.071838058918884" flag="0"/>
		</comp>
		<comp name=".HNZ" depth="0.0">
			<acc value="1.2991580572164" flag="0"/>
			<vel value="0.427955878765" flag="0"/>
			<psa03 value="1.98842622347812" flag="0"/>
			<psa10 value="0.363913817504247" flag="0"/>
			<psa30 value="0.0400446627623571" flag="0"/>
		</comp>
	</station>
</stationlist>
