<?xml version="1.0" encoding="UTF-8" standalone="yes"?>
<!DOCTYPE earthquake SYSTEM "stationlist.dtd">
<stationlist created="" xmlns="ch.ethz.sed.shakemap.usgs.xml">
  <station code="ARPRA" name="ARPRA" netid="KO" insttype="CMG-5T" lat="39.0929" lon="38.3356">
    <comp name="--.HNN">
      <acc value="0.0790080139" flag="0"/>
      <vel value="0.0721188179" flag="0"/>
      <psa03 value="0.2662488285" flag="0"/>
      <psa10 value="0.0845442939" flag="0"/>
      <psa30 value="0.0056311816" flag="0"/>
    </comp>
    <comp name="--.HNZ">
      <acc value="0.0494159182" flag="0"/>
      <vel value="0.0231372748" flag="0"/>
      <psa03 value="0.1045966475" flag="0"/>
      <psa10 value="0.0308488928" flag="0"/>
      <psa30 value="0.0032383493" flag="0"/>
    </comp>
    <comp name="--.HNE">
      <acc value="0.0915078631" flag="0"/>
      <vel value="0.0557429149" flag="0"/>
      <psa03 value="0.1927092187" flag="0"/>
      <psa10 value="0.0608688228" flag="0"/>
      <psa30 value="0.0046573798" flag="0"/>
    </comp>
  </station>
  <station code="CAYL" name="CAYL" netid="KO" insttype="CMG-6T" lat="40.3745" lon="36.159">
    <comp name="--.HHE">
      <acc value="0.0444634643" flag="0"/>
      <vel value="0.0308455305" flag="0"/>
      <psa03 value="0.1464386139" flag="0"/>
      <psa10 value="0.0263226698" flag="0"/>
      <psa30 value="0.0013227695" flag="0"/>
    </comp>
    <comp name="--.HHZ">
      <acc value="0.0332782279" flag="0"/>
      <vel value="0.0235815965" flag="0"/>
      <psa03 value="0.0671159444" flag="0"/>
      <psa10 value="0.0213922964" flag="0"/>
      <psa30 value="0.0013053361" flag="0"/>
    </comp>
    <comp name="--.HHN">
      <acc value="0.0436650342" flag="0"/>
      <vel value="0.0315234143" flag="0"/>
      <psa03 value="0.1333725289" flag="0"/>
      <psa10 value="0.0446044190" flag="0"/>
      <psa30 value="0.0012592762" flag="0"/>
    </comp>
  </station>
  <station code="DARE" name="DARE" netid="KO" insttype="CMG-3ESP" lat="38.5712" lon="37.4832">
    <comp name="--.HHE">
      <acc value="0.0279946125" flag="0"/>
      <vel value="0.0155890543" flag="0"/>
      <psa03 value="0.0642485338" flag="0"/>
      <psa10 value="0.0229780591" flag="0"/>
      <psa30 value="0.0016302217" flag="0"/>
    </comp>
    <comp name="--.HHN">
      <acc value="0.0170537431" flag="0"/>
      <vel value="0.0105053158" flag="0"/>
      <psa03 value="0.0540472398" flag="0"/>
      <psa10 value="0.0161199269" flag="0"/>
      <psa30 value="0.0011753143" flag="0"/>
    </comp>
    <comp name="--.HHZ">
      <acc value="0.0223645110" flag="0"/>
      <vel value="0.0123108900" flag="0"/>
      <psa03 value="0.0750756898" flag="0"/>
      <psa10 value="0.0193954561" flag="0"/>
      <psa30 value="0.0022019449" flag="0"/>
    </comp>
  </station>
  <station code="RFHY" name="RFHY" netid="KO" insttype="CMG-5T" lat="39.927" lon="38.833">
    <comp name="--.HNE">
      <acc value="0.0025852360" flag="0"/>
      <vel value="0.0063717058" flag="0"/>
      <psa03 value="0.0027979099" flag="0"/>
      <psa10 value="0.0026442944" flag="0"/>
      <psa30 value="0.0048529222" flag="0"/>
    </comp>
    <comp name="--.HNZ">
      <acc value="0.0239270968" flag="0"/>
      <vel value="0.0210994737" flag="0"/>
      <psa03 value="0.0457570823" flag="0"/>
      <psa10 value="0.0367954564" flag="0"/>
      <psa30 value="0.0040078940" flag="0"/>
    </comp>
    <comp name="--.HNN">
      <acc value="0.0299343988" flag="0"/>
      <vel value="0.0311372732" flag="0"/>
      <psa03 value="0.0765597496" flag="0"/>
      <psa10 value="0.0443066428" flag="0"/>
      <psa30 value="0.0210451650" flag="0"/>
    </comp>
  </station>
  <station code="RSDY" name="RSDY" netid="KO" insttype="CMG-3T" lat="40.3971" lon="37.3273">
    <comp name="--.HHZ">
      <acc value="0.0295861589" flag="0"/>
      <vel value="0.0136360071" flag="0"/>
      <psa03 value="0.0624218498" flag="0"/>
      <psa10 value="0.0136704248" flag="0"/>
      <psa30 value="0.0016039403" flag="0"/>
    </comp>
    <comp name="--.HHE">
      <acc value="0.0330318881" flag="0"/>
      <vel value="0.0271724468" flag="0"/>
      <psa03 value="0.0792435921" flag="0"/>
      <psa10 value="0.0332543166" flag="0"/>
      <psa30 value="0.0032609509" flag="0"/>
    </comp>
    <comp name="--.HHN">
      <acc value="0.0313540669" flag="0"/>
      <vel value="0.0238051788" flag="0"/>
      <psa03 value="0.0891293402" flag="0"/>
      <psa10 value="0.0363870776" flag="0"/>
      <psa30 value="0.0038957051" flag="0"/>
    </comp>
  </station>
  <station code="SVSK" name="SVSK" netid="KO" insttype="CMG-3T" lat="39.9157" lon="36.9925">
    <comp name="--.HHN">
      <acc value="0.6083621904" flag="0"/>
      <vel value="0.1563734304" flag="0"/>
      <psa03 value="0.7352807900" flag="0"/>
      <psa10 value="0.0908057975" flag="0"/>
      <psa30 value="0.0051652995" flag="0"/>
    </comp>
    <comp name="--.HHZ">
      <acc value="0.2845779244" flag="0"/>
      <vel value="0.1045125603" flag="0"/>
      <psa03 value="0.3977334498" flag="0"/>
      <psa10 value="0.0969206024" flag="0"/>
      <psa30 value="0.0060442658" flag="0"/>
    </comp>
    <comp name="--.HHE">
      <acc value="1.3396862189" flag="0"/>
      <vel value="0.2794503752" flag="0"/>
      <psa03 value="2.0070492440" flag="0"/>
      <psa10 value="0.1102842265" flag="0"/>
      <psa30 value="0.0107599969" flag="0"/>
    </comp>
  </station>
  <station code="TOKT" name="TOKT" netid="KO" insttype="CMG-3T" lat="40.3173" lon="36.5443">
    <comp name="--.HHZ">
      <acc value="0.0000593987" flag="0"/>
      <vel value="0.0000061201" flag="0"/>
      <psa03 value="0.0000220463" flag="0"/>
      <psa10 value="0.0000052233" flag="0"/>
      <psa30 value="0.0000015579" flag="0"/>
    </comp>
    <comp name="--.HHE">
      <acc value="0.0229440791" flag="0"/>
      <vel value="0.0206750438" flag="0"/>
      <psa03 value="0.0536967863" flag="0"/>
      <psa10 value="0.0215394410" flag="0"/>
      <psa30 value="0.0015805609" flag="0"/>
    </comp>
    <comp name="--.HHN">
      <acc value="0.0293216443" flag="0"/>
      <vel value="0.0243912615" flag="0"/>
      <psa03 value="0.0667043527" flag="0"/>
      <psa10 value="0.0379133306" flag="0"/>
      <psa30 value="0.0028038911" flag="0"/>
    </comp>
  </station>
  <station code="TUNC" name="TUNC" netid="KO" insttype="CMG-5T" lat="39.6942" lon="37.5388">
    <comp name="--.HNN">
      <acc value="1.7786159480" flag="0"/>
      <vel value="0.5812753945" flag="0"/>
      <psa03 value="4.0113014096" flag="0"/>
      <psa10 value="0.6320763773" flag="0"/>
      <psa30 value="0.0615319770" flag="0"/>
    </comp>
    <comp name="--.HNE">
      <acc value="1.9589785795" flag="0"/>
      <vel value="0.5612397374" flag="0"/>
      <psa03 value="3.7610554568" flag="0"/>
      <psa10 value="0.4413407606" flag="0"/>
      <psa30 value="0.0443318451" flag="0"/>
    </comp>
    <comp name="--.HNZ">
      <acc value="1.7781116169" flag="0"/>
      <vel value="0.4099667624" flag="0"/>
      <psa03 value="2.0013065652" flag="0"/>
      <psa10 value="0.3618928062" flag="0"/>
      <psa30 value="0.0340416277" flag="0"/>
    </comp>
  </station>
</stationlist>
