<?xml version="1.0" encoding="UTF-8" standalone="yes"?>
<!DOCTYPE earthquake SYSTEM "stationlist.dtd">
<stationlist created="" xmlns="ch.ethz.sed.shakemap.usgs.xml">
  <station code="ALT" name="ALT" netid="KO" insttype="CMG-5T" commtype="DIG" lat="39.0541" lon="30.1104">
    <comp name="--.HNE">
      <acc value="0.1595172995" flag="0"/>
      <vel value="0.0723445533" flag="0"/>
      <psa03 value="0.4934182754" flag="0"/>
      <psa10 value="0.0485958559" flag="0"/>
      <psa30 value="0.0123227650" flag="0"/>
    </comp>
    <comp name="--.HNZ">
      <acc value="0.1358955319" flag="0"/>
      <vel value="0.0760746876" flag="0"/>
      <psa03 value="0.1513193107" flag="0"/>
      <psa10 value="0.0860525448" flag="0"/>
      <psa30 value="0.0136481503" flag="0"/>
    </comp>
    <comp name="--.HNN">
      <acc value="0.2492605871" flag="0"/>
      <vel value="0.1009817643" flag="0"/>
      <psa03 value="0.5501152077" flag="0"/>
      <psa10 value="0.0427001012" flag="0"/>
      <psa30 value="0.0219937170" flag="0"/>
    </comp>
  </station>
  <station code="ARMT" name="ARMT" netid="KO" insttype="CMG-5T" commtype="DIG" lat="40.5683" lon="28.866">
    <comp name="--.HNE">
      <acc value="0.3852706160" flag="0"/>
      <vel value="0.2503813864" flag="0"/>
      <psa03 value="0.6654343895" flag="0"/>
      <psa10 value="0.3270543629" flag="0"/>
      <psa30 value="0.0388478573" flag="0"/>
    </comp>
    <comp name="--.HNN">
      <acc value="0.3200617566" flag="0"/>
      <vel value="0.1592067442" flag="0"/>
      <psa03 value="0.5570951363" flag="0"/>
      <psa10 value="0.1713985724" flag="0"/>
      <psa30 value="0.0173964334" flag="0"/>
    </comp>
    <comp name="--.HNZ">
      <acc value="0.1588134664" flag="0"/>
      <vel value="0.0924729219" flag="0"/>
      <psa03 value="0.4122528468" flag="0"/>
      <psa10 value="0.0733693018" flag="0"/>
      <psa30 value="0.0219075337" flag="0"/>
    </comp>
  </station>
  <station code="BABD" name="BABD" netid="KO" insttype="CMG-6T" commtype="DIG" lat="37.802" lon="28.8531">
    <comp name="--.HHZ">
      <acc value="0.0265378553" flag="0"/>
      <vel value="0.0294064852" flag="0"/>
      <psa03 value="0.0503016935" flag="0"/>
      <psa10 value="0.0256947305" flag="0"/>
      <psa30 value="0.0080449066" flag="0"/>
    </comp>
    <comp name="--.HHE">
      <acc value="0.0262873127" flag="0"/>
      <vel value="0.0294379079" flag="0"/>
      <psa03 value="0.0605714531" flag="0"/>
      <psa10 value="0.0484557392" flag="0"/>
      <psa30 value="0.0093550561" flag="0"/>
    </comp>
    <comp name="--.HHN">
      <acc value="0.0289782238" flag="0"/>
      <vel value="0.0296045944" flag="0"/>
      <psa03 value="0.0630551408" flag="0"/>
      <psa10 value="0.0412766335" flag="0"/>
      <psa30 value="0.0071688564" flag="0"/>
    </comp>
  </station>
  <station code="BALB" name="BALB" netid="KO" insttype="CMG-5T" commtype="DIG" lat="39.6507" lon="27.8642">
    <comp name="--.HNE">
      <acc value="0.8813257495" flag="0"/>
      <vel value="0.4950919191" flag="0"/>
      <psa03 value="1.4384447903" flag="0"/>
      <psa10 value="0.3348901592" flag="0"/>
      <psa30 value="0.0349028474" flag="0"/>
    </comp>
    <comp name="--.HNN">
      <acc value="0.7844211544" flag="0"/>
      <vel value="0.4067916859" flag="0"/>
      <psa03 value="2.4627135459" flag="0"/>
      <psa10 value="0.3685936854" flag="0"/>
      <psa30 value="0.0392562157" flag="0"/>
    </comp>
    <comp name="--.HNZ">
      <acc value="0.2995614095" flag="0"/>
      <vel value="0.1223753261" flag="0"/>
      <psa03 value="0.7575068868" flag="0"/>
      <psa10 value="0.1599353118" flag="0"/>
      <psa30 value="0.0204748809" flag="0"/>
    </comp>
  </station>
  <station code="ESKT" name="ESKT" netid="KO" insttype="CMG-5T" commtype="DIG" lat="39.5212" lon="30.8492">
    <comp name="--.HNN">
      <acc value="0.1642648388" flag="0"/>
      <vel value="0.1528266955" flag="0"/>
      <psa03 value="0.5719581274" flag="0"/>
      <psa10 value="0.1318746037" flag="0"/>
      <psa30 value="0.0196312298" flag="0"/>
    </comp>
    <comp name="--.HNZ">
      <acc value="0.0867449767" flag="0"/>
      <vel value="0.0727982093" flag="0"/>
      <psa03 value="0.1633508575" flag="0"/>
      <psa10 value="0.0665774480" flag="0"/>
      <psa30 value="0.0265134393" flag="0"/>
    </comp>
    <comp name="--.HNE">
      <acc value="0.1448840823" flag="0"/>
      <vel value="0.1016423817" flag="0"/>
      <psa03 value="0.5210209075" flag="0"/>
      <psa10 value="0.0932444639" flag="0"/>
      <psa30 value="0.0152138733" flag="0"/>
    </comp>
  </station>
  <station code="ESKY" name="ESKY" netid="KO" insttype="CMG-5T" commtype="DIG" lat="40.5918" lon="28.9071">
    <comp name="--.HNE">
      <acc value="0.4368798654" flag="0"/>
      <vel value="0.5071324893" flag="0"/>
      <psa03 value="1.0350854046" flag="0"/>
      <psa10 value="0.6730860377" flag="0"/>
      <psa30 value="0.0479715240" flag="0"/>
    </comp>
    <comp name="--.HNZ">
      <acc value="0.2534491537" flag="0"/>
      <vel value="0.1800969883" flag="0"/>
      <psa03 value="0.6677166536" flag="0"/>
      <psa10 value="0.2445128490" flag="0"/>
      <psa30 value="0.0337107113" flag="0"/>
    </comp>
    <comp name="--.HNN">
      <acc value="0.4521573461" flag="0"/>
      <vel value="0.3852565926" flag="0"/>
      <psa03 value="0.8615035633" flag="0"/>
      <psa10 value="0.4782060228" flag="0"/>
      <psa30 value="0.0444489057" flag="0"/>
    </comp>
  </station>
  <station code="GEML" name="GEML" netid="KO" insttype="CMG-3T" commtype="DIG" lat="40.4646" lon="29.2116">
    <comp name="--.HHN">
      <acc value="0.3169602107" flag="0"/>
      <vel value="0.2308846295" flag="0"/>
      <psa03 value="0.6960007085" flag="0"/>
      <psa10 value="0.1628004137" flag="0"/>
      <psa30 value="0.0173487731" flag="0"/>
    </comp>
    <comp name="--.HHZ">
      <acc value="0.1872544351" flag="0"/>
      <vel value="0.1288533909" flag="0"/>
      <psa03 value="0.2856519630" flag="0"/>
      <psa10 value="0.1048743255" flag="0"/>
      <psa30 value="0.0172652173" flag="0"/>
    </comp>
  </station>
  <station code="GOMA" name="GOMA" netid="KO" insttype="CMG-5T" commtype="DIG" lat="38.7077" lon="27.9175">
    <comp name="--.HNN">
      <acc value="0.6112751451" flag="0"/>
      <vel value="0.4517801831" flag="0"/>
      <psa03 value="1.1809732318" flag="0"/>
      <psa10 value="0.2991241514" flag="0"/>
      <psa30 value="0.0310225055" flag="0"/>
    </comp>
    <comp name="--.HNZ">
      <acc value="0.2578090547" flag="0"/>
      <vel value="0.1961388705" flag="0"/>
      <psa03 value="0.6577848548" flag="0"/>
      <psa10 value="0.3467170289" flag="0"/>
      <psa30 value="0.0511740870" flag="0"/>
    </comp>
    <comp name="--.HNE">
      <acc value="0.5888793916" flag="0"/>
      <vel value="0.3293385818" flag="0"/>
      <psa03 value="1.8422204314" flag="0"/>
      <psa10 value="0.2899682766" flag="0"/>
      <psa30 value="0.0523697954" flag="0"/>
    </comp>
  </station>
  <station code="GONE" name="GONE" netid="KO" insttype="CMG-5T" commtype="DIG" lat="40.0466" lon="27.686">
    <comp name="--.HNE">
      <acc value="0.4942152618" flag="0"/>
      <vel value="0.4963440052" flag="0"/>
      <psa03 value="1.2233757866" flag="0"/>
      <psa10 value="0.4356198370" flag="0"/>
      <psa30 value="0.0492082554" flag="0"/>
    </comp>
    <comp name="--.HNN">
      <acc value="0.7114571350" flag="0"/>
      <vel value="0.6860402562" flag="0"/>
      <psa03 value="1.8591333625" flag="0"/>
      <psa10 value="1.1036721053" flag="0"/>
      <psa30 value="0.0986201281" flag="0"/>
    </comp>
    <comp name="--.HNZ">
      <acc value="0.2232011921" flag="0"/>
      <vel value="0.1528189067" flag="0"/>
      <psa03 value="0.4241003265" flag="0"/>
      <psa10 value="0.1983103641" flag="0"/>
      <psa30 value="0.0313616857" flag="0"/>
    </comp>
  </station>
  <station code="GORD" name="GORD" netid="KO" insttype="CMG-5T" commtype="DIG" lat="38.9088" lon="28.1769">
    <comp name="--.HNN">
      <acc value="0.5261537828" flag="0"/>
      <vel value="0.4452255839" flag="0"/>
      <psa03 value="0.9810427302" flag="0"/>
      <psa10 value="0.8178165331" flag="0"/>
      <psa30 value="0.1233416878" flag="0"/>
    </comp>
    <comp name="--.HNZ">
      <acc value="0.4189721200" flag="0"/>
      <vel value="0.2747269101" flag="0"/>
      <psa03 value="0.6925690884" flag="0"/>
      <psa10 value="0.3312814683" flag="0"/>
      <psa30 value="0.0400346204" flag="0"/>
    </comp>
    <comp name="--.HNE">
      <acc value="0.5333946576" flag="0"/>
      <vel value="0.5183085363" flag="0"/>
      <psa03 value="0.9125772234" flag="0"/>
      <psa10 value="0.6621230670" flag="0"/>
      <psa30 value="0.0995485844" flag="0"/>
    </comp>
  </station>
  <station code="GPA" name="GPA" netid="KO" insttype="CMG-5T" commtype="DIG" lat="40.2911" lon="30.3171">
    <comp name="--.HNE">
      <acc value="0.1331977500" flag="0"/>
      <vel value="0.1086193093" flag="0"/>
      <psa03 value="0.4805985028" flag="0"/>
      <psa10 value="0.2345828127" flag="0"/>
      <psa30 value="0.0305980404" flag="0"/>
    </comp>
    <comp name="--.HNZ">
      <acc value="0.0566231054" flag="0"/>
      <vel value="0.0324030730" flag="0"/>
      <psa03 value="0.1147029486" flag="0"/>
      <psa10 value="0.0505392948" flag="0"/>
      <psa30 value="0.0060042672" flag="0"/>
    </comp>
  </station>
  <station code="KCTX" name="KCTX" netid="KO" insttype="CMG-3ESP" commtype="DIG" lat="40.2626" lon="28.3353">
    <comp name="--.HHZ">
      <acc value="0.2730956247" flag="0"/>
      <vel value="0.2115816447" flag="0"/>
      <psa03 value="0.7042339391" flag="0"/>
      <psa10 value="0.2877013302" flag="0"/>
      <psa30 value="0.0247562679" flag="0"/>
    </comp>
    <comp name="--.HHE">
      <acc value="0.5601304050" flag="0"/>
      <vel value="0.3112251754" flag="0"/>
      <psa03 value="1.0261224079" flag="0"/>
      <psa10 value="0.6560028813" flag="0"/>
      <psa30 value="0.0554196558" flag="0"/>
    </comp>
    <comp name="--.HHN">
      <acc value="0.9552694597" flag="0"/>
      <vel value="0.3002015000" flag="0"/>
      <psa03 value="1.3762874268" flag="0"/>
      <psa10 value="0.5888592604" flag="0"/>
      <psa30 value="0.0515351237" flag="0"/>
    </comp>
  </station>
  <station code="KOUK" name="KOUK" netid="KO" insttype="SA10" commtype="DIG" lat="40.6572" lon="29.1918">
    <comp name="--.HNE">
      <acc value="0.4612979226" flag="0"/>
      <vel value="0.4901546706" flag="0"/>
      <psa03 value="0.7860928561" flag="0"/>
      <psa10 value="0.9935396263" flag="0"/>
      <psa30 value="0.1412358425" flag="0"/>
    </comp>
    <comp name="--.HNZ">
      <acc value="0.4581905435" flag="0"/>
      <vel value="0.2623780576" flag="0"/>
      <psa03 value="1.8507227440" flag="0"/>
      <psa10 value="0.3631368033" flag="0"/>
      <psa30 value="0.0265544080" flag="0"/>
    </comp>
    <comp name="--.HNN">
      <acc value="0.5884081412" flag="0"/>
      <vel value="0.7171149543" flag="0"/>
      <psa03 value="1.3379246588" flag="0"/>
      <psa10 value="1.3610083414" flag="0"/>
      <psa30 value="0.1400442286" flag="0"/>
    </comp>
  </station>
  <station code="MDNY" name="MDNY" netid="KO" insttype="CMG-5T" commtype="DIG" lat="40.3709" lon="28.8846">
    <comp name="--.HNZ">
      <acc value="0.4107192197" flag="0"/>
      <vel value="0.1835421411" flag="0"/>
      <psa03 value="0.4777802484" flag="0"/>
      <psa10 value="0.3015164192" flag="0"/>
      <psa30 value="0.0184636185" flag="0"/>
    </comp>
    <comp name="--.HNN">
      <acc value="1.3509930552" flag="0"/>
      <vel value="0.5084423834" flag="0"/>
      <psa03 value="3.1575183264" flag="0"/>
      <psa10 value="0.4232678904" flag="0"/>
      <psa30 value="0.0411944652" flag="0"/>
    </comp>
    <comp name="--.HNE">
      <acc value="0.8425189011" flag="0"/>
      <vel value="0.3776339891" flag="0"/>
      <psa03 value="2.0636142461" flag="0"/>
      <psa10 value="0.5617481900" flag="0"/>
      <psa30 value="0.0629094690" flag="0"/>
    </comp>
  </station>
  <station code="ORLT" name="ORLT" netid="KO" insttype="CMG-5T" commtype="DIG" lat="40.0452" lon="28.8914">
    <comp name="--.HNZ">
      <acc value="0.2108516631" flag="0"/>
      <vel value="0.2288997797" flag="0"/>
      <psa03 value="0.4374057839" flag="0"/>
      <psa10 value="0.2314411472" flag="0"/>
      <psa30 value="0.0375066736" flag="0"/>
    </comp>
    <comp name="--.HNN">
      <acc value="0.5977939188" flag="0"/>
      <vel value="0.3460084458" flag="0"/>
      <psa03 value="1.1568766621" flag="0"/>
      <psa10 value="0.4973110127" flag="0"/>
      <psa30 value="0.0331392023" flag="0"/>
    </comp>
    <comp name="--.HNE">
      <acc value="0.7849975726" flag="0"/>
      <vel value="0.6580534673" flag="0"/>
      <psa03 value="1.9840409376" flag="0"/>
      <psa10 value="0.5907200897" flag="0"/>
      <psa30 value="0.0335758621" flag="0"/>
    </comp>
  </station>
  <station code="OSMT" name="OSMT" netid="KO" insttype="CMG-5T" commtype="DIG" lat="40.6009" lon="29.7">
    <comp name="--.HNN">
      <acc value="0.1226103676" flag="0"/>
      <vel value="0.0922585612" flag="0"/>
      <psa03 value="0.4070990029" flag="0"/>
      <psa10 value="0.1584251386" flag="0"/>
      <psa30 value="0.0193882345" flag="0"/>
    </comp>
    <comp name="--.HNZ">
      <acc value="0.0783361517" flag="0"/>
      <vel value="0.1003602633" flag="0"/>
      <psa03 value="0.2088666837" flag="0"/>
      <psa10 value="0.0704216976" flag="0"/>
      <psa30 value="0.0407704978" flag="0"/>
    </comp>
  </station>
  <station code="SHAP" name="SHAP" netid="KO" insttype="CMG-5T" commtype="DIG" lat="39.0231" lon="29.222">
    <comp name="--.HNE">
      <acc value="3.7737214513" flag="0"/>
      <vel value="1.5416176737" flag="0"/>
      <psa03 value="7.7070125363" flag="0"/>
      <psa10 value="0.4622416217" flag="0"/>
      <psa30 value="0.0595232231" flag="0"/>
    </comp>
    <comp name="--.HNN">
      <acc value="5.3185445053" flag="0"/>
      <vel value="1.3876117436" flag="0"/>
      <psa03 value="8.1291561175" flag="0"/>
      <psa10 value="0.6521394394" flag="0"/>
      <psa30 value="0.0572171584" flag="0"/>
    </comp>
    <comp name="--.HNZ">
      <acc value="1.9931381379" flag="0"/>
      <vel value="0.6758003756" flag="0"/>
      <psa03 value="1.9620808339" flag="0"/>
      <psa10 value="0.3364357121" flag="0"/>
      <psa30 value="0.0392736184" flag="0"/>
    </comp>
  </station>
  <station code="SMAA" name="SMAA" netid="KO" insttype="CMG-5T" commtype="DIG" lat="39.1005" lon="28.9805">
    <comp name="--.HNE">
      <acc value="4.2568821345" flag="0"/>
      <vel value="2.9182170957" flag="0"/>
      <psa03 value="9.6267419927" flag="0"/>
      <psa10 value="3.7946361543" flag="0"/>
      <psa30 value="0.5423476148" flag="0"/>
    </comp>
    <comp name="--.HNN">
      <acc value="3.8777428495" flag="0"/>
      <vel value="4.0096162084" flag="0"/>
      <psa03 value="8.2782995263" flag="0"/>
      <psa10 value="5.1440632068" flag="0"/>
      <psa30 value="0.6896179638" flag="0"/>
    </comp>
    <comp name="--.HNZ">
      <acc value="5.1142241784" flag="0"/>
      <vel value="1.1816114337" flag="0"/>
      <psa03 value="3.1871360457" flag="0"/>
      <psa10 value="2.2980801343" flag="0"/>
      <psa30 value="0.1025622333" flag="0"/>
    </comp>
  </station>
  <station code="SOMA" name="SOMA" netid="KO" insttype="CMG-5T" commtype="DIG" lat="39.1564" lon="27.5341">
    <comp name="--.HNE">
      <acc value="0.4258676750" flag="0"/>
      <vel value="0.2814950941" flag="0"/>
      <psa03 value="0.7808347452" flag="0"/>
      <psa10 value="0.3419012916" flag="0"/>
      <psa30 value="0.0517279571" flag="0"/>
    </comp>
    <comp name="--.HNN">
      <acc value="0.3258651417" flag="0"/>
      <vel value="0.3098479168" flag="0"/>
      <psa03 value="0.7679058203" flag="0"/>
      <psa10 value="0.4516372742" flag="0"/>
      <psa30 value="0.0309138674" flag="0"/>
    </comp>
    <comp name="--.HNZ">
      <acc value="0.3222568469" flag="0"/>
      <vel value="0.1732241614" flag="0"/>
      <psa03 value="0.8850645420" flag="0"/>
      <psa10 value="0.2455433903" flag="0"/>
      <psa30 value="0.0437206664" flag="0"/>
    </comp>
  </station>
  <station code="SUSR" name="SUSR" netid="KO" insttype="CMG-5T" commtype="DIG" lat="39.9627" lon="28.0835">
    <comp name="--.HNN">
      <acc value="0.5657918897" flag="0"/>
      <vel value="0.5770651542" flag="0"/>
      <psa03 value="1.3814474654" flag="0"/>
      <psa10 value="0.6318787101" flag="0"/>
      <psa30 value="0.0618973643" flag="0"/>
    </comp>
    <comp name="--.HNZ">
      <acc value="0.3923364542" flag="0"/>
      <vel value="0.1784044986" flag="0"/>
      <psa03 value="1.1562973727" flag="0"/>
      <psa10 value="0.1754551828" flag="0"/>
      <psa30 value="0.0139549433" flag="0"/>
    </comp>
    <comp name="--.HNE">
      <acc value="0.6006828026" flag="0"/>
      <vel value="0.2972029777" flag="0"/>
      <psa03 value="1.3356414047" flag="0"/>
      <psa10 value="0.2396912457" flag="0"/>
      <psa30 value="0.0249996269" flag="0"/>
    </comp>
  </station>
  <station code="TVSB" name="TVSB" netid="KO" insttype="CMG-3T" commtype="DIG" lat="39.4497" lon="29.4615">
    <comp name="--.HHN">
      <acc value="1.0643613821" flag="0"/>
      <vel value="0.5966761604" flag="0"/>
      <psa03 value="1.9926330312" flag="0"/>
      <psa10 value="0.5617969740" flag="0"/>
      <psa30 value="0.0627616487" flag="0"/>
    </comp>
    <comp name="--.HHZ">
      <acc value="0.6120564537" flag="0"/>
      <vel value="0.4393885577" flag="0"/>
      <psa03 value="1.0046748178" flag="0"/>
      <psa10 value="0.7103097217" flag="0"/>
      <psa30 value="0.0615334154" flag="0"/>
    </comp>
  </station>
  <station code="YAYO" name="YAYO" netid="KO" insttype="CMG-6T" commtype="DIG" lat="39.6113" lon="27.0726">
    <comp name="--.HHN">
      <acc value="0.1172214501" flag="0"/>
      <vel value="0.1249478480" flag="0"/>
      <psa03 value="0.5335920939" flag="0"/>
      <psa10 value="0.1731965285" flag="0"/>
      <psa30 value="0.0351014712" flag="0"/>
    </comp>
    <comp name="--.HHE">
      <acc value="0.1840332750" flag="0"/>
      <vel value="0.1509367527" flag="0"/>
      <psa03 value="0.3147767623" flag="0"/>
      <psa10 value="0.1222383692" flag="0"/>
      <psa30 value="0.0216080191" flag="0"/>
    </comp>
    <comp name="--.HHZ">
      <acc value="0.0966238211" flag="0"/>
      <vel value="0.0929728079" flag="0"/>
      <psa03 value="0.2678039658" flag="0"/>
      <psa10 value="0.0842187187" flag="0"/>
      <psa30 value="0.0287839927" flag="0"/>
    </comp>
  </station>
</stationlist>
