<?xml version="1.0" encoding="UTF-8" standalone="yes"?>
<!DOCTYPE earthquake SYSTEM "stationlist.dtd">
<stationlist created="" xmlns="ch.ethz.sed.shakemap.usgs.xml">
  <station code="ALT" name="ALT" netid="KO" insttype="CMG-5T" commtype="DIG" lat="39.0541" lon="30.1104">
    <comp name="--.HNE">
      <acc value="0.1595172998" flag="0"/>
      <vel value="0.0723445533" flag="0"/>
      <psa03 value="0.4934182754" flag="0"/>
      <psa10 value="0.0485958558" flag="0"/>
      <psa30 value="0.0123228196" flag="0"/>
    </comp>
    <comp name="--.HNZ">
      <acc value="0.1358955299" flag="0"/>
      <vel value="0.0760746824" flag="0"/>
      <psa03 value="0.1513193107" flag="0"/>
      <psa10 value="0.0860525449" flag="0"/>
      <psa30 value="0.0136481972" flag="0"/>
    </comp>
    <comp name="--.HNN">
      <acc value="0.2492605867" flag="0"/>
      <vel value="0.1009817717" flag="0"/>
      <psa03 value="0.5501152077" flag="0"/>
      <psa10 value="0.0427001013" flag="0"/>
      <psa30 value="0.0219934839" flag="0"/>
    </comp>
  </station>
  <station code="ARMT" name="ARMT" netid="KO" insttype="CMG-5T" commtype="DIG" lat="40.5683" lon="28.866">
    <comp name="--.HNE">
      <acc value="0.3852706164" flag="0"/>
      <vel value="0.2503813873" flag="0"/>
      <psa03 value="0.6654343895" flag="0"/>
      <psa10 value="0.3270543630" flag="0"/>
      <psa30 value="0.0388478560" flag="0"/>
    </comp>
    <comp name="--.HNZ">
      <acc value="0.1588134665" flag="0"/>
      <vel value="0.0924729213" flag="0"/>
      <psa03 value="0.4122528468" flag="0"/>
      <psa10 value="0.0733693018" flag="0"/>
      <psa30 value="0.0219075232" flag="0"/>
    </comp>
    <comp name="--.HNN">
      <acc value="0.3200617569" flag="0"/>
      <vel value="0.1592067442" flag="0"/>
      <psa03 value="0.5570951363" flag="0"/>
      <psa10 value="0.1713985725" flag="0"/>
      <psa30 value="0.0173964572" flag="0"/>
    </comp>
  </station>
  <station code="BABD" name="BABD" netid="KO" insttype="CMG-6T" commtype="DIG" lat="37.802" lon="28.8531">
    <comp name="--.HHZ">
      <acc value="0.0265378560" flag="0"/>
      <vel value="0.0294064805" flag="0"/>
      <psa03 value="0.0503016935" flag="0"/>
      <psa10 value="0.0256947306" flag="0"/>
      <psa30 value="0.0080449074" flag="0"/>
    </comp>
    <comp name="--.HHE">
      <acc value="0.0262873172" flag="0"/>
      <vel value="0.0294379212" flag="0"/>
      <psa03 value="0.0605714531" flag="0"/>
      <psa10 value="0.0484557392" flag="0"/>
      <psa30 value="0.0093550559" flag="0"/>
    </comp>
    <comp name="--.HHN">
      <acc value="0.0289782233" flag="0"/>
      <vel value="0.0296045911" flag="0"/>
      <psa03 value="0.0630551408" flag="0"/>
      <psa10 value="0.0412766335" flag="0"/>
      <psa30 value="0.0071688560" flag="0"/>
    </comp>
  </station>
  <station code="BALB" name="BALB" netid="KO" insttype="CMG-5T" commtype="DIG" lat="39.6507" lon="27.8642">
    <comp name="--.HNE">
      <acc value="0.8813257496" flag="0"/>
      <vel value="0.4950919193" flag="0"/>
      <psa03 value="1.4384447903" flag="0"/>
      <psa10 value="0.3348901592" flag="0"/>
      <psa30 value="0.0349028891" flag="0"/>
    </comp>
    <comp name="--.HNZ">
      <acc value="0.2995614094" flag="0"/>
      <vel value="0.1223753256" flag="0"/>
      <psa03 value="0.7575068868" flag="0"/>
      <psa10 value="0.1599353118" flag="0"/>
      <psa30 value="0.0204748744" flag="0"/>
    </comp>
    <comp name="--.HNN">
      <acc value="0.7844211543" flag="0"/>
      <vel value="0.4067916859" flag="0"/>
      <psa03 value="2.4627135459" flag="0"/>
      <psa10 value="0.3685936854" flag="0"/>
      <psa30 value="0.0392562282" flag="0"/>
    </comp>
  </station>
  <station code="BRGA" name="BRGA" netid="KO" insttype="CMG-5T" commtype="DIG" lat="40.8846" lon="29.065">
    <comp name="--.HNN">
      <acc value="0.1035394070" flag="0"/>
      <vel value="0.0750414307" flag="0"/>
      <psa03 value="0.1894346701" flag="0"/>
      <psa10 value="0.1165867567" flag="0"/>
      <psa30 value="0.0137235557" flag="0"/>
    </comp>
    <comp name="--.HNE">
      <acc value="0.0762660248" flag="0"/>
      <vel value="0.0840461906" flag="0"/>
      <psa03 value="0.1925234284" flag="0"/>
      <psa10 value="0.0800789872" flag="0"/>
      <psa30 value="0.0225745197" flag="0"/>
    </comp>
  </station>
  <station code="ESKT" name="ESKT" netid="KO" insttype="CMG-5T" commtype="DIG" lat="39.5212" lon="30.8492">
    <comp name="--.HNE">
      <acc value="0.1448838403" flag="0"/>
      <vel value="0.1016423858" flag="0"/>
      <psa03 value="0.5210209075" flag="0"/>
      <psa10 value="0.0932444639" flag="0"/>
      <psa30 value="0.0152138256" flag="0"/>
    </comp>
    <comp name="--.HNN">
      <acc value="0.1642643908" flag="0"/>
      <vel value="0.1528266923" flag="0"/>
      <psa03 value="0.5719581274" flag="0"/>
      <psa10 value="0.1318746037" flag="0"/>
      <psa30 value="0.0196311845" flag="0"/>
    </comp>
    <comp name="--.HNZ">
      <acc value="0.0867449887" flag="0"/>
      <vel value="0.0727982116" flag="0"/>
      <psa03 value="0.1633508576" flag="0"/>
      <psa10 value="0.0665774480" flag="0"/>
      <psa30 value="0.0265134496" flag="0"/>
    </comp>
  </station>
  <station code="ESKY" name="ESKY" netid="KO" insttype="CMG-5T" commtype="DIG" lat="40.5918" lon="28.9071">
    <comp name="--.HNE">
      <acc value="0.4368798375" flag="0"/>
      <vel value="0.5071324906" flag="0"/>
      <psa03 value="1.0350854046" flag="0"/>
      <psa10 value="0.6730860376" flag="0"/>
      <psa30 value="0.0479715762" flag="0"/>
    </comp>
    <comp name="--.HNZ">
      <acc value="0.2534491303" flag="0"/>
      <vel value="0.1800969878" flag="0"/>
      <psa03 value="0.6677166536" flag="0"/>
      <psa10 value="0.2445128490" flag="0"/>
      <psa30 value="0.0337108532" flag="0"/>
    </comp>
    <comp name="--.HNN">
      <acc value="0.4521573737" flag="0"/>
      <vel value="0.3852565941" flag="0"/>
      <psa03 value="0.8615035633" flag="0"/>
      <psa10 value="0.4782060228" flag="0"/>
      <psa30 value="0.0444488449" flag="0"/>
    </comp>
  </station>
  <station code="GEML" name="GEML" netid="KO" insttype="CMG-3T" commtype="DIG" lat="40.4646" lon="29.2116">
    <comp name="--.HHZ">
      <acc value="0.1872544351" flag="0"/>
      <vel value="0.1288533904" flag="0"/>
      <psa03 value="0.2856519630" flag="0"/>
      <psa10 value="0.1048743255" flag="0"/>
      <psa30 value="0.0172652131" flag="0"/>
    </comp>
    <comp name="--.HHN">
      <acc value="0.3169602107" flag="0"/>
      <vel value="0.2308846292" flag="0"/>
      <psa03 value="0.6960007085" flag="0"/>
      <psa10 value="0.1628004137" flag="0"/>
      <psa30 value="0.0173487779" flag="0"/>
    </comp>
  </station>
  <station code="GOMA" name="GOMA" netid="KO" insttype="CMG-5T" commtype="DIG" lat="38.7077" lon="27.9175">
    <comp name="--.HNE">
      <acc value="0.5888793906" flag="0"/>
      <vel value="0.3293385809" flag="0"/>
      <psa03 value="1.8422204314" flag="0"/>
      <psa10 value="0.2899682767" flag="0"/>
      <psa30 value="0.0523697865" flag="0"/>
    </comp>
    <comp name="--.HNN">
      <acc value="0.6112751444" flag="0"/>
      <vel value="0.4517801840" flag="0"/>
      <psa03 value="1.1809732318" flag="0"/>
      <psa10 value="0.2991241515" flag="0"/>
      <psa30 value="0.0310225779" flag="0"/>
    </comp>
    <comp name="--.HNZ">
      <acc value="0.2578090561" flag="0"/>
      <vel value="0.1961388715" flag="0"/>
      <psa03 value="0.6577848548" flag="0"/>
      <psa10 value="0.3467170290" flag="0"/>
      <psa30 value="0.0511743143" flag="0"/>
    </comp>
  </station>
  <station code="GONE" name="GONE" netid="KO" insttype="CMG-5T" commtype="DIG" lat="40.0466" lon="27.686">
    <comp name="--.HNE">
      <acc value="0.4942152616" flag="0"/>
      <vel value="0.4963440048" flag="0"/>
      <psa03 value="1.2233757866" flag="0"/>
      <psa10 value="0.4356198370" flag="0"/>
      <psa30 value="0.0492082561" flag="0"/>
    </comp>
    <comp name="--.HNN">
      <acc value="0.7114571352" flag="0"/>
      <vel value="0.6860402559" flag="0"/>
      <psa03 value="1.8591333625" flag="0"/>
      <psa10 value="1.1036721053" flag="0"/>
      <psa30 value="0.0986201300" flag="0"/>
    </comp>
    <comp name="--.HNZ">
      <acc value="0.2232011919" flag="0"/>
      <vel value="0.1528189071" flag="0"/>
      <psa03 value="0.4241003264" flag="0"/>
      <psa10 value="0.1983103641" flag="0"/>
      <psa30 value="0.0313617027" flag="0"/>
    </comp>
  </station>
  <station code="GORD" name="GORD" netid="KO" insttype="CMG-5T" commtype="DIG" lat="38.9088" lon="28.1769">
    <comp name="--.HNE">
      <acc value="0.5333946575" flag="0"/>
      <vel value="0.5183085390" flag="0"/>
      <psa03 value="0.9125772234" flag="0"/>
      <psa10 value="0.6621230668" flag="0"/>
      <psa30 value="0.0995485523" flag="0"/>
    </comp>
    <comp name="--.HNZ">
      <acc value="0.4189721199" flag="0"/>
      <vel value="0.2747269083" flag="0"/>
      <psa03 value="0.6925690884" flag="0"/>
      <psa10 value="0.3312814683" flag="0"/>
      <psa30 value="0.0400346505" flag="0"/>
    </comp>
    <comp name="--.HNN">
      <acc value="0.5261537828" flag="0"/>
      <vel value="0.4452255833" flag="0"/>
      <psa03 value="0.9810427302" flag="0"/>
      <psa10 value="0.8178165333" flag="0"/>
      <psa30 value="0.1233416657" flag="0"/>
    </comp>
  </station>
  <station code="GPA" name="GPA" netid="KO" insttype="CMG-5T" commtype="DIG" lat="40.2911" lon="30.3171">
    <comp name="--.HNE">
      <acc value="0.1331977496" flag="0"/>
      <vel value="0.1086193050" flag="0"/>
      <psa03 value="0.4805985028" flag="0"/>
      <psa10 value="0.2345828127" flag="0"/>
      <psa30 value="0.0305980362" flag="0"/>
    </comp>
    <comp name="--.HNZ">
      <acc value="0.0566231054" flag="0"/>
      <vel value="0.0324030765" flag="0"/>
      <psa03 value="0.1147029486" flag="0"/>
      <psa10 value="0.0505392946" flag="0"/>
      <psa30 value="0.0060058232" flag="0"/>
    </comp>
  </station>
  <station code="IZI" name="IZI" netid="KO" insttype="CMG-5T" commtype="DIG" lat="40.3483" lon="29.4612">
    <comp name="--.HNZ">
      <acc value="0.1668991922" flag="0"/>
      <vel value="0.2294528299" flag="0"/>
      <psa03 value="0.3727736419" flag="0"/>
      <psa10 value="0.2356155941" flag="0"/>
      <psa30 value="0.0350189876" flag="0"/>
    </comp>
  </station>
  <station code="KCTX" name="KCTX" netid="KO" insttype="CMG-3ESP" commtype="DIG" lat="40.2626" lon="28.3353">
    <comp name="--.HHE">
      <acc value="0.5601304050" flag="0"/>
      <vel value="0.3112251758" flag="0"/>
      <psa03 value="1.0261224079" flag="0"/>
      <psa10 value="0.6560028813" flag="0"/>
      <psa30 value="0.0554196561" flag="0"/>
    </comp>
    <comp name="--.HHN">
      <acc value="0.9552694598" flag="0"/>
      <vel value="0.3002015005" flag="0"/>
      <psa03 value="1.3762874268" flag="0"/>
      <psa10 value="0.5888592604" flag="0"/>
      <psa30 value="0.0515351084" flag="0"/>
    </comp>
    <comp name="--.HHZ">
      <acc value="0.2730956247" flag="0"/>
      <vel value="0.2115816425" flag="0"/>
      <psa03 value="0.7042339391" flag="0"/>
      <psa10 value="0.2877013302" flag="0"/>
      <psa30 value="0.0247562742" flag="0"/>
    </comp>
  </station>
  <station code="KOUK" name="KOUK" netid="KO" insttype="SA10" commtype="DIG" lat="40.6572" lon="29.1918">
    <comp name="--.HNE">
      <acc value="0.4612979228" flag="0"/>
      <vel value="0.4901546774" flag="0"/>
      <psa03 value="0.7860928561" flag="0"/>
      <psa10 value="0.9935396262" flag="0"/>
      <psa30 value="0.1412358730" flag="0"/>
    </comp>
    <comp name="--.HNZ">
      <acc value="0.4581905435" flag="0"/>
      <vel value="0.2623780562" flag="0"/>
      <psa03 value="1.8507227439" flag="0"/>
      <psa10 value="0.3631367897" flag="0"/>
      <psa30 value="0.0265548544" flag="0"/>
    </comp>
    <comp name="--.HNN">
      <acc value="0.5884081413" flag="0"/>
      <vel value="0.7171149457" flag="0"/>
      <psa03 value="1.3379246588" flag="0"/>
      <psa10 value="1.3610083415" flag="0"/>
      <psa30 value="0.1400443549" flag="0"/>
    </comp>
  </station>
  <station code="MDNY" name="MDNY" netid="KO" insttype="CMG-5T" commtype="DIG" lat="40.3709" lon="28.8846">
    <comp name="--.HNE">
      <acc value="0.8425189013" flag="0"/>
      <vel value="0.3776339891" flag="0"/>
      <psa03 value="2.0636142461" flag="0"/>
      <psa10 value="0.5617481901" flag="0"/>
      <psa30 value="0.0629094839" flag="0"/>
    </comp>
    <comp name="--.HNN">
      <acc value="1.3509930553" flag="0"/>
      <vel value="0.5084423832" flag="0"/>
      <psa03 value="3.1575183264" flag="0"/>
      <psa10 value="0.4232678904" flag="0"/>
      <psa30 value="0.0411944726" flag="0"/>
    </comp>
    <comp name="--.HNZ">
      <acc value="0.4107192196" flag="0"/>
      <vel value="0.1835421407" flag="0"/>
      <psa03 value="0.4777802484" flag="0"/>
      <psa10 value="0.3015164192" flag="0"/>
      <psa30 value="0.0184635299" flag="0"/>
    </comp>
  </station>
  <station code="ORLT" name="ORLT" netid="KO" insttype="CMG-5T" commtype="DIG" lat="40.0452" lon="28.8914">
    <comp name="--.HNE">
      <acc value="0.7849975727" flag="0"/>
      <vel value="0.6580534690" flag="0"/>
      <psa03 value="1.9840409376" flag="0"/>
      <psa10 value="0.5907200898" flag="0"/>
      <psa30 value="0.0335760381" flag="0"/>
    </comp>
    <comp name="--.HNZ">
      <acc value="0.2108516631" flag="0"/>
      <vel value="0.2288997811" flag="0"/>
      <psa03 value="0.4374057839" flag="0"/>
      <psa10 value="0.2314411471" flag="0"/>
      <psa30 value="0.0375064671" flag="0"/>
    </comp>
    <comp name="--.HNN">
      <acc value="0.5977939189" flag="0"/>
      <vel value="0.3460084537" flag="0"/>
      <psa03 value="1.1568766620" flag="0"/>
      <psa10 value="0.4973110123" flag="0"/>
      <psa30 value="0.0331388563" flag="0"/>
    </comp>
  </station>
  <station code="OSMT" name="OSMT" netid="KO" insttype="CMG-5T" commtype="DIG" lat="40.6009" lon="29.7">
    <comp name="--.HNN">
      <acc value="0.1226104536" flag="0"/>
      <vel value="0.0922585621" flag="0"/>
      <psa03 value="0.4070990029" flag="0"/>
      <psa10 value="0.1584251386" flag="0"/>
      <psa30 value="0.0193882019" flag="0"/>
    </comp>
    <comp name="--.HNZ">
      <acc value="0.0783359503" flag="0"/>
      <vel value="0.1003602618" flag="0"/>
      <psa03 value="0.2088666837" flag="0"/>
      <psa10 value="0.0704216976" flag="0"/>
      <psa30 value="0.0407704397" flag="0"/>
    </comp>
  </station>
  <station code="SHAP" name="SHAP" netid="KO" insttype="CMG-5T" commtype="DIG" lat="39.0231" lon="29.222">
    <comp name="--.HNE">
      <acc value="3.7737214511" flag="0"/>
      <vel value="1.5416176747" flag="0"/>
      <psa03 value="7.7070125362" flag="0"/>
      <psa10 value="0.4622416213" flag="0"/>
      <psa30 value="0.0595238516" flag="0"/>
    </comp>
    <comp name="--.HNN">
      <acc value="5.3185445052" flag="0"/>
      <vel value="1.3876117435" flag="0"/>
      <psa03 value="8.1291561175" flag="0"/>
      <psa10 value="0.6521394384" flag="0"/>
      <psa30 value="0.0572171236" flag="0"/>
    </comp>
    <comp name="--.HNZ">
      <acc value="1.9931381378" flag="0"/>
      <vel value="0.6758003761" flag="0"/>
      <psa03 value="1.9620808339" flag="0"/>
      <psa10 value="0.3364357118" flag="0"/>
      <psa30 value="0.0392730686" flag="0"/>
    </comp>
  </station>
  <station code="SMAA" name="SMAA" netid="KO" insttype="CMG-5T" commtype="DIG" lat="39.1005" lon="28.9805">
    <comp name="--.HNE">
      <acc value="4.2568821351" flag="0"/>
      <vel value="2.9182170940" flag="0"/>
      <psa03 value="9.6267419927" flag="0"/>
      <psa10 value="3.7946361553" flag="0"/>
      <psa30 value="0.5423478261" flag="0"/>
    </comp>
    <comp name="--.HNN">
      <acc value="3.8777428495" flag="0"/>
      <vel value="4.0096162082" flag="0"/>
      <psa03 value="8.2782995263" flag="0"/>
      <psa10 value="5.1440632098" flag="0"/>
      <psa30 value="0.6896169593" flag="0"/>
    </comp>
    <comp name="--.HNZ">
      <acc value="5.1142241780" flag="0"/>
      <vel value="1.1816114357" flag="0"/>
      <psa03 value="3.1871360461" flag="0"/>
      <psa10 value="2.2980801340" flag="0"/>
      <psa30 value="0.1025600728" flag="0"/>
    </comp>
  </station>
  <station code="SOMA" name="SOMA" netid="KO" insttype="CMG-5T" commtype="DIG" lat="39.1564" lon="27.5341">
    <comp name="--.HNE">
      <acc value="0.4258676751" flag="0"/>
      <vel value="0.2814950928" flag="0"/>
      <psa03 value="0.7808347452" flag="0"/>
      <psa10 value="0.3419012916" flag="0"/>
      <psa30 value="0.0517278761" flag="0"/>
    </comp>
    <comp name="--.HNN">
      <acc value="0.3258651419" flag="0"/>
      <vel value="0.3098479171" flag="0"/>
      <psa03 value="0.7679058203" flag="0"/>
      <psa10 value="0.4516372742" flag="0"/>
      <psa30 value="0.0309138518" flag="0"/>
    </comp>
    <comp name="--.HNZ">
      <acc value="0.3222568469" flag="0"/>
      <vel value="0.1732241604" flag="0"/>
      <psa03 value="0.8850645420" flag="0"/>
      <psa10 value="0.2455433903" flag="0"/>
      <psa30 value="0.0437206276" flag="0"/>
    </comp>
  </station>
  <station code="SUSR" name="SUSR" netid="KO" insttype="CMG-5T" commtype="DIG" lat="39.9627" lon="28.0835">
    <comp name="--.HNE">
      <acc value="0.6006828023" flag="0"/>
      <vel value="0.2972029763" flag="0"/>
      <psa03 value="1.3356414047" flag="0"/>
      <psa10 value="0.2396912457" flag="0"/>
      <psa30 value="0.0249997621" flag="0"/>
    </comp>
    <comp name="--.HNN">
      <acc value="0.5657918896" flag="0"/>
      <vel value="0.5770651537" flag="0"/>
      <psa03 value="1.3814474654" flag="0"/>
      <psa10 value="0.6318787102" flag="0"/>
      <psa30 value="0.0618973176" flag="0"/>
    </comp>
    <comp name="--.HNZ">
      <acc value="0.3923364542" flag="0"/>
      <vel value="0.1784044989" flag="0"/>
      <psa03 value="1.1562973727" flag="0"/>
      <psa10 value="0.1754551828" flag="0"/>
      <psa30 value="0.0139549608" flag="0"/>
    </comp>
  </station>
  <station code="TVSB" name="TVSB" netid="KO" insttype="CMG-3T" commtype="DIG" lat="39.4497" lon="29.4615">
    <comp name="--.HHN">
      <acc value="1.0643613821" flag="0"/>
      <vel value="0.5966761605" flag="0"/>
      <psa03 value="1.9926330312" flag="0"/>
      <psa10 value="0.5617969740" flag="0"/>
      <psa30 value="0.0627616344" flag="0"/>
    </comp>
    <comp name="--.HHZ">
      <acc value="0.6120564537" flag="0"/>
      <vel value="0.4393885577" flag="0"/>
      <psa03 value="1.0046748178" flag="0"/>
      <psa10 value="0.7103097216" flag="0"/>
      <psa30 value="0.0615334163" flag="0"/>
    </comp>
  </station>
  <station code="TZLA" name="TZLA" netid="KO" insttype="SA10" commtype="DIG" lat="40.8123" lon="29.2968">
    <comp name="--.HNE">
      <acc value="0.0740183347" flag="0"/>
      <vel value="0.1348755745" flag="0"/>
      <psa03 value="0.0908848857" flag="0"/>
      <psa10 value="0.3972195033" flag="0"/>
      <psa30 value="0.0196978552" flag="0"/>
    </comp>
    <comp name="--.HNN">
      <acc value="0.1074132703" flag="0"/>
      <vel value="0.1890215048" flag="0"/>
      <psa03 value="0.1423738463" flag="0"/>
      <psa10 value="0.6370415256" flag="0"/>
      <psa30 value="0.0363460229" flag="0"/>
    </comp>
    <comp name="--.HNZ">
      <acc value="0.0742918375" flag="0"/>
      <vel value="0.0508017104" flag="0"/>
      <psa03 value="0.0974117294" flag="0"/>
      <psa10 value="0.0586139642" flag="0"/>
      <psa30 value="0.0164019523" flag="0"/>
    </comp>
  </station>
  <station code="YAYO" name="YAYO" netid="KO" insttype="CMG-6T" commtype="DIG" lat="39.6113" lon="27.0726">
    <comp name="--.HHE">
      <acc value="0.1840332752" flag="0"/>
