<?xml version="1.0" encoding="UTF-8" standalone="yes"?>
<!DOCTYPE earthquake SYSTEM "stationlist.dtd">
<stationlist created="" xmlns="ch.ethz.sed.shakemap.usgs.xml">
  <station code="BCI" name="BCI" netid="AC" insttype="" lat="42.3666" lon="20.0675">
    <comp name="--.HHZ">
      <acc value="0.0385743770" flag="0"/>
      <vel value="0.0129161139" flag="0"/>
      <psa03 value="0.0574949167" flag="0"/>
      <psa10 value="0.0109884320" flag="0"/>
      <psa30 value="0.0007169517" flag="0"/>
    </comp>
    <comp name="--.HHN">
      <acc value="0.0577003902" flag="0"/>
      <vel value="0.0175320879" flag="0"/>
      <psa03 value="0.0803237440" flag="0"/>
      <psa10 value="0.0215476643" flag="0"/>
      <psa30 value="0.0012224000" flag="0"/>
    </comp>
    <comp name="--.HHE">
      <acc value="0.0615900074" flag="0"/>
      <vel value="0.0153220598" flag="0"/>
      <psa03 value="0.1019199244" flag="0"/>
      <psa10 value="0.0148496682" flag="0"/>
      <psa30 value="0.0010005079" flag="0"/>
    </comp>
  </station>
  <station code="PUK" name="PUK" netid="AC" insttype="" lat="42.0426" lon="19.8926">
    <comp name="--.HHN">
      <acc value="0.1346861825" flag="0"/>
      <vel value="0.0270994373" flag="0"/>
      <psa03 value="0.1613471673" flag="0"/>
      <psa10 value="0.0058282148" flag="0"/>
      <psa30 value="0.0006106698" flag="0"/>
    </comp>
    <comp name="--.HHZ">
      <acc value="0.0337067949" flag="0"/>
      <vel value="0.0070418191" flag="0"/>
      <psa03 value="0.0350550767" flag="0"/>
      <psa10 value="0.0047194663" flag="0"/>
      <psa30 value="0.0002067528" flag="0"/>
    </comp>
    <comp name="--.HHE">
      <acc value="0.0719723013" flag="0"/>
      <vel value="0.0202646135" flag="0"/>
      <psa03 value="0.1367477006" flag="0"/>
      <psa10 value="0.0097972614" flag="0"/>
      <psa30 value="0.0009538352" flag="0"/>
    </comp>
  </station>
  <station code="LMS2" name="LMS2" netid="HI" insttype="CMG-5TD,ACCELEROMETER,GURALP" lat="40.835" lon="21.1418">
    <comp name="--.HNZ">
      <acc value="0.0058439895" flag="0"/>
      <vel value="0.0014743664" flag="0"/>
      <psa03 value="0.0067458989" flag="0"/>
      <psa10 value="0.0012402608" flag="0"/>
      <psa30 value="0.0001240607" flag="0"/>
    </comp>
    <comp name="--.HNN">
      <acc value="0.0121385559" flag="0"/>
      <vel value="0.0037070414" flag="0"/>
      <psa03 value="0.0198953499" flag="0"/>
      <psa10 value="0.0023390969" flag="0"/>
      <psa30 value="0.0003758433" flag="0"/>
    </comp>
    <comp name="--.HNE">
      <acc value="0.0103673608" flag="0"/>
      <vel value="0.0034955351" flag="0"/>
      <psa03 value="0.0129405090" flag="0"/>
      <psa10 value="0.0016145613" flag="0"/>
      <psa30 value="0.0001976010" flag="0"/>
    </comp>
  </station>
  <station code="TIR" name="TIR" netid="MN" insttype="" lat="41.3472" lon="19.8631">
    <comp name="--.HHE">
      <acc value="0.2336588544" flag="0"/>
      <vel value="0.0520568852" flag="0"/>
      <psa03 value="0.2030019229" flag="0"/>
      <psa10 value="0.0391115364" flag="0"/>
      <psa30 value="0.0030937325" flag="0"/>
    </comp>
    <comp name="--.HHN">
      <acc value="0.3756636690" flag="0"/>
      <vel value="0.0513056278" flag="0"/>
      <psa03 value="0.1804544278" flag="0"/>
      <psa10 value="0.0168742641" flag="0"/>
      <psa30 value="0.0026042299" flag="0"/>
    </comp>
    <comp name="--.HHZ">
      <acc value="0.2154766136" flag="0"/>
      <vel value="0.0331706415" flag="0"/>
      <psa03 value="0.1437598296" flag="0"/>
      <psa10 value="0.0277583348" flag="0"/>
      <psa30 value="0.0031290961" flag="0"/>
    </comp>
  </station>
</stationlist>
