<?xml version="1.0" encoding="UTF-8" standalone="yes"?>
<!DOCTYPE earthquake SYSTEM "stationlist.dtd">
<stationlist created="" xmlns="ch.ethz.sed.shakemap.usgs.xml">
  <station code="BCI" name="BCI" netid="AC" insttype="" lat="42.3666" lon="20.0675">
    <comp name="--.HHE">
      <acc value="0.0615900050" flag="0"/>
      <vel value="0.0153220595" flag="0"/>
      <psa03 value="0.1019199244" flag="0"/>
      <psa10 value="0.0148496683" flag="0"/>
      <psa30 value="0.0010001911" flag="0"/>
    </comp>
    <comp name="--.HHN">
      <acc value="0.0577003842" flag="0"/>
      <vel value="0.0175320889" flag="0"/>
      <psa03 value="0.0803237440" flag="0"/>
      <psa10 value="0.0215476643" flag="0"/>
      <psa30 value="0.0012224930" flag="0"/>
    </comp>
    <comp name="--.HHZ">
      <acc value="0.0385743749" flag="0"/>
      <vel value="0.0129161118" flag="0"/>
      <psa03 value="0.0574949167" flag="0"/>
      <psa10 value="0.0109884321" flag="0"/>
      <psa30 value="0.0007166211" flag="0"/>
    </comp>
  </station>
  <station code="PUK" name="PUK" netid="AC" insttype="" lat="42.0426" lon="19.8926">
    <comp name="--.HHE">
      <acc value="0.0719723014" flag="0"/>
      <vel value="0.0202646134" flag="0"/>
      <psa03 value="0.1367477006" flag="0"/>
      <psa10 value="0.0097972614" flag="0"/>
      <psa30 value="0.0009538468" flag="0"/>
    </comp>
    <comp name="--.HHN">
      <acc value="0.1346861830" flag="0"/>
      <vel value="0.0270994393" flag="0"/>
      <psa03 value="0.1613471673" flag="0"/>
      <psa10 value="0.0058282148" flag="0"/>
      <psa30 value="0.0006104198" flag="0"/>
    </comp>
    <comp name="--.HHZ">
      <acc value="0.0337067948" flag="0"/>
      <vel value="0.0070418190" flag="0"/>
      <psa03 value="0.0350550767" flag="0"/>
      <psa10 value="0.0047194664" flag="0"/>
      <psa30 value="0.0002067375" flag="0"/>
    </comp>
  </station>
  <station code="LMS2" name="LMS2" netid="HI" insttype="CMG-5TD,ACCELEROMETER,GURALP" lat="40.835" lon="21.1418">
    <comp name="--.HNE">
      <acc value="0.0103673608" flag="0"/>
      <vel value="0.0034955351" flag="0"/>
      <psa03 value="0.0129405090" flag="0"/>
      <psa10 value="0.0016145613" flag="0"/>
      <psa30 value="0.0001976083" flag="0"/>
    </comp>
    <comp name="--.HNN">
      <acc value="0.0121385555" flag="0"/>
      <vel value="0.0037070409" flag="0"/>
      <psa03 value="0.0198953499" flag="0"/>
      <psa10 value="0.0023390969" flag="0"/>
      <psa30 value="0.0003759307" flag="0"/>
    </comp>
    <comp name="--.HNZ">
      <acc value="0.0058439906" flag="0"/>
      <vel value="0.0014743661" flag="0"/>
      <psa03 value="0.0067458989" flag="0"/>
      <psa10 value="0.0012402608" flag="0"/>
      <psa30 value="0.0001240901" flag="0"/>
    </comp>
  </station>
  <station code="BARME" name="BARME" netid="ME" insttype="CMG-5" lat="42.1055" lon="19.0889">
    <comp name="--.HNE">
      <acc value="0.0990949398" flag="0"/>
      <vel value="0.0175974579" flag="0"/>
      <psa03 value="0.0823219632" flag="0"/>
      <psa10 value="0.0184569042" flag="0"/>
      <psa30 value="0.0008070011" flag="0"/>
    </comp>
    <comp name="--.HNN">
      <acc value="0.0809580944" flag="0"/>
      <vel value="0.0189531791" flag="0"/>
      <psa03 value="0.1028955782" flag="0"/>
      <psa10 value="0.0145593433" flag="0"/>
      <psa30 value="0.0008498885" flag="0"/>
    </comp>
    <comp name="--.HNZ">
      <acc value="0.0346783781" flag="0"/>
      <vel value="0.0066662342" flag="0"/>
      <psa03 value="0.0327687088" flag="0"/>
      <psa10 value="0.0073733865" flag="0"/>
      <psa30 value="0.0004766445" flag="0"/>
    </comp>
  </station>
  <station code="PDG" name="PDG" netid="MN" insttype="" lat="42.4297" lon="19.2608">
    <comp name="--.HHE">
      <acc value="0.0388129104" flag="0"/>
      <vel value="0.0082912636" flag="0"/>
      <psa03 value="0.0592848572" flag="0"/>
      <psa10 value="0.0056074650" flag="0"/>
      <psa30 value="0.0006305829" flag="0"/>
    </comp>
    <comp name="--.HHN">
      <acc value="0.0343787534" flag="0"/>
      <vel value="0.0086596378" flag="0"/>
      <psa03 value="0.0486983570" flag="0"/>
      <psa10 value="0.0053871893" flag="0"/>
      <psa30 value="0.0004216450" flag="0"/>
    </comp>
    <comp name="--.HHZ">
      <acc value="0.0303947357" flag="0"/>
      <vel value="0.0089016367" flag="0"/>
      <psa03 value="0.0432206507" flag="0"/>
      <psa10 value="0.0032155238" flag="0"/>
      <psa30 value="0.0003425226" flag="0"/>
    </comp>
  </station>
  <station code="TIR" name="TIR" netid="MN" insttype="" lat="41.3472" lon="19.8631">
    <comp name="--.HHE">
      <acc value="0.2336588546" flag="0"/>
      <vel value="0.0520568860" flag="0"/>
      <psa03 value="0.2030019229" flag="0"/>
      <psa10 value="0.0391115364" flag="0"/>
      <psa30 value="0.0030941513" flag="0"/>
    </comp>
    <comp name="--.HHN">
      <acc value="0.3756636689" flag="0"/>
      <vel value="0.0513056273" flag="0"/>
      <psa03 value="0.1804544278" flag="0"/>
      <psa10 value="0.0168742645" flag="0"/>
      <psa30 value="0.0026042085" flag="0"/>
    </comp>
    <comp name="--.HHZ">
      <acc value="0.2154766137" flag="0"/>
      <vel value="0.0331706404" flag="0"/>
      <psa03 value="0.1437598296" flag="0"/>
      <psa10 value="0.0277583348" flag="0"/>
      <psa30 value="0.0031292138" flag="0"/>
    </comp>
  </station>
</stationlist>
