<?xml version="1.0" encoding="UTF-8" standalone="yes"?>
<!DOCTYPE earthquake SYSTEM "stationlist.dtd">
<stationlist created="" xmlns="ch.ethz.sed.shakemap.usgs.xml">
  <station code="BCI" name="BCI" netid="AC" insttype="" lat="42.3666" lon="20.0675">
    <comp name="--.HHZ">
      <acc value="0.0385743775" flag="0"/>
      <vel value="0.0129161134" flag="0"/>
      <psa03 value="0.0574949167" flag="0"/>
      <psa10 value="0.0109884320" flag="0"/>
      <psa30 value="0.0007168247" flag="0"/>
    </comp>
    <comp name="--.HHN">
      <acc value="0.0577003915" flag="0"/>
      <vel value="0.0175320860" flag="0"/>
      <psa03 value="0.0803237440" flag="0"/>
      <psa10 value="0.0215476643" flag="0"/>
      <psa30 value="0.0012225166" flag="0"/>
    </comp>
    <comp name="--.HHE">
      <acc value="0.0615900050" flag="0"/>
      <vel value="0.0153220594" flag="0"/>
      <psa03 value="0.1019199244" flag="0"/>
      <psa10 value="0.0148496683" flag="0"/>
      <psa30 value="0.0010004917" flag="0"/>
    </comp>
  </station>
  <station code="PUK" name="PUK" netid="AC" insttype="" lat="42.0426" lon="19.8926">
    <comp name="--.HHE">
      <acc value="0.0719723013" flag="0"/>
      <vel value="0.0202646151" flag="0"/>
      <psa03 value="0.1367477006" flag="0"/>
      <psa10 value="0.0097972614" flag="0"/>
      <psa30 value="0.0009538603" flag="0"/>
    </comp>
    <comp name="--.HHN">
      <acc value="0.1346861827" flag="0"/>
      <vel value="0.0270994374" flag="0"/>
      <psa03 value="0.1613471673" flag="0"/>
      <psa10 value="0.0058282148" flag="0"/>
      <psa30 value="0.0006106654" flag="0"/>
    </comp>
    <comp name="--.HHZ">
      <acc value="0.0337067948" flag="0"/>
      <vel value="0.0070418192" flag="0"/>
      <psa03 value="0.0350550767" flag="0"/>
      <psa10 value="0.0047194663" flag="0"/>
      <psa30 value="0.0002067501" flag="0"/>
    </comp>
  </station>
  <station code="LMS2" name="LMS2" netid="HI" insttype="CMG-5TD,ACCELEROMETER,GURALP" lat="40.835" lon="21.1418">
    <comp name="--.HNE">
      <acc value="0.0103673606" flag="0"/>
      <vel value="0.0034955351" flag="0"/>
      <psa03 value="0.0129405090" flag="0"/>
      <psa10 value="0.0016145613" flag="0"/>
      <psa30 value="0.0001975831" flag="0"/>
    </comp>
    <comp name="--.HNN">
      <acc value="0.0121385570" flag="0"/>
      <vel value="0.0037070417" flag="0"/>
      <psa03 value="0.0198953499" flag="0"/>
      <psa10 value="0.0023390969" flag="0"/>
      <psa30 value="0.0003757589" flag="0"/>
    </comp>
    <comp name="--.HNZ">
      <acc value="0.0058439874" flag="0"/>
      <vel value="0.0014743674" flag="0"/>
      <psa03 value="0.0067458989" flag="0"/>
      <psa10 value="0.0012402608" flag="0"/>
      <psa30 value="0.0001239777" flag="0"/>
    </comp>
  </station>
  <station code="BARME" name="BARME" netid="ME" insttype="CMG-5" lat="42.1055" lon="19.0889">
    <comp name="--.HNZ">
      <acc value="0.0346784350" flag="0"/>
      <vel value="0.0066662384" flag="0"/>
      <psa03 value="0.0327687088" flag="0"/>
      <psa10 value="0.0073733865" flag="0"/>
      <psa30 value="0.0004766505" flag="0"/>
    </comp>
    <comp name="--.HNE">
      <acc value="0.0990949517" flag="0"/>
      <vel value="0.0175974563" flag="0"/>
      <psa03 value="0.0823219632" flag="0"/>
      <psa10 value="0.0184569042" flag="0"/>
      <psa30 value="0.0008070372" flag="0"/>
    </comp>
    <comp name="--.HNN">
      <acc value="0.0809579761" flag="0"/>
      <vel value="0.0189531780" flag="0"/>
      <psa03 value="0.1028955782" flag="0"/>
      <psa10 value="0.0145593433" flag="0"/>
      <psa30 value="0.0008499084" flag="0"/>
    </comp>
  </station>
  <station code="TIR" name="TIR" netid="MN" insttype="" lat="41.3472" lon="19.8631">
    <comp name="--.HHE">
      <acc value="0.2336588542" flag="0"/>
      <vel value="0.0520568860" flag="0"/>
      <psa03 value="0.2030019229" flag="0"/>
      <psa10 value="0.0391115364" flag="0"/>
      <psa30 value="0.0030929348" flag="0"/>
    </comp>
    <comp name="--.HHN">
      <acc value="0.3756636690" flag="0"/>
      <vel value="0.0513056271" flag="0"/>
      <psa03 value="0.1804544278" flag="0"/>
      <psa10 value="0.0168742639" flag="0"/>
      <psa30 value="0.0026041792" flag="0"/>
    </comp>
    <comp name="--.HHZ">
      <acc value="0.2154766133" flag="0"/>
      <vel value="0.0331706419" flag="0"/>
      <psa03 value="0.1437598296" flag="0"/>
      <psa10 value="0.0277583351" flag="0"/>
      <psa30 value="0.0031290258" flag="0"/>
    </comp>
  </station>
</stationlist>
