<?xml version="1.0" encoding="UTF-8" standalone="yes"?>
<!DOCTYPE earthquake SYSTEM "stationlist.dtd">
<stationlist created="" xmlns="ch.ethz.sed.shakemap.usgs.xml">
  <station code="KARS" name="KARS" netid="KO" insttype="120s," lat="40.6152" lon="43.0937">
    <comp name="--.HHN">
      <acc value="0.0000092289" flag="0"/>
      <vel value="0.0000017686" flag="0"/>
      <psa03 value="0.0000038123" flag="0"/>
      <psa10 value="0.0000016584" flag="0"/>
      <psa30 value="0.0000003939" flag="0"/>
    </comp>
    <comp name="--.HHZ">
      <acc value="0.0025243486" flag="0"/>
      <vel value="0.0010154026" flag="0"/>
      <psa03 value="0.0020913360" flag="0"/>
      <psa10 value="0.0015650895" flag="0"/>
      <psa30 value="0.0001729480" flag="0"/>
    </comp>
    <comp name="--.HHE">
      <acc value="0.0046489772" flag="0"/>
      <vel value="0.0017176411" flag="0"/>
      <psa03 value="0.0055544727" flag="0"/>
      <psa10 value="0.0022249518" flag="0"/>
      <psa30 value="0.0002623121" flag="0"/>
    </comp>
  </station>
</stationlist>
