<?xml version="1.0" encoding="UTF-8" standalone="yes"?>
<!DOCTYPE earthquake SYSTEM "stationlist.dtd">
<stationlist created="" xmlns="ch.ethz.sed.shakemap.usgs.xml">
  <station code="ZKR" name="ZKR" netid="GE" insttype="STS-2/N" lat="35.1147" lon="26.2169">
    <comp name="--.HHE">
      <acc value="0.0175030564" flag="0"/>
      <vel value="0.0115705722" flag="0"/>
      <psa03 value="0.0570747778" flag="0"/>
      <psa10 value="0.0185412984" flag="0"/>
      <psa30 value="0.0011850594" flag="0"/>
    </comp>
    <comp name="--.HHN">
      <acc value="0.0103163877" flag="0"/>
      <vel value="0.0053098972" flag="0"/>
      <psa03 value="0.0271617652" flag="0"/>
      <psa10 value="0.0069093827" flag="0"/>
      <psa30 value="0.0004687910" flag="0"/>
    </comp>
    <comp name="--.HHZ">
      <acc value="0.0122499955" flag="0"/>
      <vel value="0.0062489801" flag="0"/>
      <psa03 value="0.0285840429" flag="0"/>
      <psa10 value="0.0078610550" flag="0"/>
      <psa30 value="0.0003939854" flag="0"/>
    </comp>
  </station>
  <station code="GVDS" name="GVDS" netid="HC" insttype="60" lat="34.8389" lon="24.0585">
    <comp name="--.HHE">
      <acc value="0.0149202971" flag="0"/>
      <vel value="0.0045594705" flag="0"/>
      <psa03 value="0.0347453866" flag="0"/>
      <psa10 value="0.0042010813" flag="0"/>
      <psa30 value="0.0004203407" flag="0"/>
    </comp>
    <comp name="--.HHZ">
      <acc value="0.0086244856" flag="0"/>
      <vel value="0.0023263254" flag="0"/>
      <psa03 value="0.0115238051" flag="0"/>
      <psa10 value="0.0021561573" flag="0"/>
      <psa30 value="0.0002369555" flag="0"/>
    </comp>
    <comp name="--.HHN">
      <acc value="0.0133166503" flag="0"/>
      <vel value="0.0051649795" flag="0"/>
      <psa03 value="0.0388702185" flag="0"/>
      <psa10 value="0.0037845657" flag="0"/>
      <psa30 value="0.0004287334" flag="0"/>
    </comp>
  </station>
  <station code="IMOD" name="IMOD" netid="HC" insttype="120" lat="34.9731" lon="24.7995">
    <comp name="--.HHE">
      <acc value="0.0472270350" flag="0"/>
      <vel value="0.0220309842" flag="0"/>
      <psa03 value="0.1559413453" flag="0"/>
      <psa10 value="0.0285238643" flag="0"/>
      <psa30 value="0.0009135972" flag="0"/>
    </comp>
    <comp name="--.HHZ">
      <acc value="0.0377207309" flag="0"/>
      <vel value="0.0156595577" flag="0"/>
      <psa03 value="0.0811569843" flag="0"/>
      <psa10 value="0.0129153338" flag="0"/>
      <psa30 value="0.0005055381" flag="0"/>
    </comp>
    <comp name="--.HHN">
      <acc value="0.0521033260" flag="0"/>
      <vel value="0.0288772355" flag="0"/>
      <psa03 value="0.1456008018" flag="0"/>
      <psa10 value="0.0131634572" flag="0"/>
      <psa30 value="0.0009172660" flag="0"/>
    </comp>
  </station>
  <station code="IPPL" name="IPPL" netid="HC" insttype="60" lat="35.3486" lon="24.4632">
    <comp name="--.HHN">
      <acc value="0.0000000000" flag="0"/>
      <vel value="-100.0000000000" flag="0"/>
      <psa03 value="0.0000000000" flag="0"/>
      <psa10 value="0.0000000000" flag="0"/>
      <psa30 value="0.0000000000" flag="0"/>
    </comp>
    <comp name="--.HHZ">
      <acc value="0.0109421750" flag="0"/>
      <vel value="0.0045323441" flag="0"/>
      <psa03 value="0.0231619964" flag="0"/>
      <psa10 value="0.0046853559" flag="0"/>
      <psa30 value="0.0003111059" flag="0"/>
    </comp>
    <comp name="--.HHE">
      <acc value="0.0000000000" flag="0"/>
      <vel value="-100.0000000000" flag="0"/>
      <psa03 value="0.0000000000" flag="0"/>
      <psa10 value="0.0000000000" flag="0"/>
      <psa30 value="0.0000000000" flag="0"/>
    </comp>
  </station>
  <station code="KNSS" name="KNSS" netid="HC" insttype="60" lat="35.3042" lon="25.1802">
    <comp name="--.HHZ">
      <acc value="0.0190325846" flag="0"/>
      <vel value="0.0091633994" flag="0"/>
      <psa03 value="0.0491747301" flag="0"/>
      <psa10 value="0.0041213212" flag="0"/>
      <psa30 value="0.0008505457" flag="0"/>
    </comp>
    <comp name="--.HHE">
      <acc value="0.0251353029" flag="0"/>
      <vel value="0.0119107954" flag="0"/>
      <psa03 value="0.0845833538" flag="0"/>
      <psa10 value="0.0090167363" flag="0"/>
      <psa30 value="0.0006189257" flag="0"/>
    </comp>
    <comp name="--.HHN">
      <acc value="0.0230916850" flag="0"/>
      <vel value="0.0120183278" flag="0"/>
      <psa03 value="0.0803175308" flag="0"/>
      <psa10 value="0.0092584766" flag="0"/>
      <psa30 value="0.0007848910" flag="0"/>
    </comp>
  </station>
  <station code="PFKS" name="PFKS" netid="HC" insttype="120" lat="35.0429" lon="25.4733">
    <comp name="--.HHE">
      <acc value="0.2686940354" flag="0"/>
      <vel value="0.0842864152" flag="0"/>
      <psa03 value="0.3168816656" flag="0"/>
      <psa10 value="0.0292959206" flag="0"/>
      <psa30 value="0.0017628241" flag="0"/>
    </comp>
    <comp name="--.HHZ">
      <acc value="0.1739486609" flag="0"/>
      <vel value="0.0621667471" flag="0"/>
      <psa03 value="0.2621716691" flag="0"/>
      <psa10 value="0.0121296847" flag="0"/>
      <psa30 value="0.0015623787" flag="0"/>
    </comp>
    <comp name="--.HHN">
      <acc value="0.1751428769" flag="0"/>
      <vel value="0.0697949002" flag="0"/>
      <psa03 value="0.4289106078" flag="0"/>
      <psa10 value="0.0356562189" flag="0"/>
      <psa30 value="0.0027475997" flag="0"/>
    </comp>
  </station>
  <station code="STIA" name="STIA" netid="HC" insttype="120" lat="35.2021" lon="26.0909">
    <comp name="--.HHN">
      <acc value="0.0224428526" flag="0"/>
      <vel value="0.0123789130" flag="0"/>
      <psa03 value="0.0704960025" flag="0"/>
      <psa10 value="0.0127294967" flag="0"/>
      <psa30 value="0.0008811306" flag="0"/>
    </comp>
    <comp name="--.HHE">
      <acc value="0.0207831274" flag="0"/>
      <vel value="0.0112035073" flag="0"/>
      <psa03 value="0.0519784457" flag="0"/>
      <psa10 value="0.0146267721" flag="0"/>
      <psa30 value="0.0009622788" flag="0"/>
    </comp>
    <comp name="--.HHZ">
      <acc value="0.0201466467" flag="0"/>
      <vel value="0.0094559585" flag="0"/>
      <psa03 value="0.0485578755" flag="0"/>
      <psa10 value="0.0055801315" flag="0"/>
      <psa30 value="0.0004673737" flag="0"/>
    </comp>
  </station>
  <station code="TEFL" name="TEFL" netid="HC" insttype="GEOtiny," lat="35.0933" lon="25.1634">
    <comp name="--.HHN">
      <acc value="0.1413326705" flag="0"/>
      <vel value="0.0587750250" flag="0"/>
      <psa03 value="0.2576184007" flag="0"/>
      <psa10 value="0.0343541920" flag="0"/>
      <psa30 value="0.0021184796" flag="0"/>
    </comp>
    <comp name="--.HHE">
      <acc value="0.1634017460" flag="0"/>
      <vel value="0.0477468856" flag="0"/>
      <psa03 value="0.2191867857" flag="0"/>
      <psa10 value="0.0366157596" flag="0"/>
      <psa30 value="0.0014410026" flag="0"/>
    </comp>
    <comp name="--.HHZ">
      <acc value="0.0698798035" flag="0"/>
      <vel value="0.0228225691" flag="0"/>
      <psa03 value="0.1096592897" flag="0"/>
      <psa10 value="0.0139716998" flag="0"/>
      <psa30 value="0.0008588849" flag="0"/>
    </comp>
  </station>
  <station code="IACM" name="IACM" netid="HL" insttype="120" lat="35.3058" lon="25.0709">
    <comp name="--.HHE">
      <acc value="0.0743524329" flag="0"/>
      <vel value="0.0352448883" flag="0"/>
      <psa03 value="0.1659442461" flag="0"/>
      <psa10 value="0.0526888524" flag="0"/>
      <psa30 value="0.0024994282" flag="0"/>
    </comp>
    <comp name="--.HHN">
      <acc value="0.0629346049" flag="0"/>
      <vel value="0.0343437089" flag="0"/>
      <psa03 value="0.1466155518" flag="0"/>
      <psa10 value="0.0382431380" flag="0"/>
      <psa30 value="0.0021299154" flag="0"/>
    </comp>
    <comp name="--.HHZ">
      <acc value="0.0441531641" flag="0"/>
      <vel value="0.0184053095" flag="0"/>
      <psa03 value="0.0743236105" flag="0"/>
      <psa10 value="0.0207832030" flag="0"/>
      <psa30 value="0.0009077251" flag="0"/>
    </comp>
  </station>
  <station code="IDI" name="IDI" netid="HL" insttype="120" lat="35.288" lon="24.89">
    <comp name="--.HHZ">
      <acc value="0.0096913843" flag="0"/>
      <vel value="0.0058418954" flag="0"/>
      <psa03 value="0.0348784829" flag="0"/>
      <psa10 value="0.0040487892" flag="0"/>
      <psa30 value="0.0004530034" flag="0"/>
    </comp>
    <comp name="--.HHE">
      <acc value="0.0137996369" flag="0"/>
      <vel value="0.0058968052" flag="0"/>
      <psa03 value="0.0285227632" flag="0"/>
      <psa10 value="0.0034702598" flag="0"/>
      <psa30 value="0.0005060569" flag="0"/>
    </comp>
    <comp name="--.HHN">
      <acc value="0.0131268503" flag="0"/>
      <vel value="0.0050856029" flag="0"/>
      <psa03 value="0.0312353301" flag="0"/>
      <psa10 value="0.0044392921" flag="0"/>
      <psa30 value="0.0003469225" flag="0"/>
    </comp>
  </station>
  <station code="KSTE" name="KSTE" netid="HL" insttype="60" lat="35.1801" lon="25.3372">
    <comp name="--.HHE">
      <acc value="0.0508789589" flag="0"/>
      <vel value="0.0151774703" flag="0"/>
      <psa03 value="0.0564410375" flag="0"/>
      <psa10 value="0.0064372479" flag="0"/>
      <psa30 value="0.0004973906" flag="0"/>
    </comp>
    <comp name="--.HHN">
      <acc value="0.1293288590" flag="0"/>
      <vel value="0.0181347623" flag="0"/>
      <psa03 value="0.0598046763" flag="0"/>
      <psa10 value="0.0210449540" flag="0"/>
      <psa30 value="0.0043049325" flag="0"/>
    </comp>
    <comp name="--.HHZ">
      <acc value="0.0377261764" flag="0"/>
      <vel value="0.0109483914" flag="0"/>
      <psa03 value="0.0381752583" flag="0"/>
      <psa10 value="0.0059609226" flag="0"/>
      <psa30 value="0.0006151763" flag="0"/>
    </comp>
  </station>
  <station code="SIVA" name="SIVA" netid="HL" insttype="60" lat="35.0178" lon="24.812">
    <comp name="--.HHE">
      <acc value="0.0679781398" flag="0"/>
      <vel value="0.0370368884" flag="0"/>
      <psa03 value="0.2126229421" flag="0"/>
      <psa10 value="0.0192823971" flag="0"/>
      <psa30 value="0.0012205328" flag="0"/>
    </comp>
    <comp name="--.HHN">
      <acc value="0.0611295586" flag="0"/>
      <vel value="0.0277272561" flag="0"/>
      <psa03 value="0.1330932696" flag="0"/>
      <psa10 value="0.0188633295" flag="0"/>
      <psa30 value="0.0010740674" flag="0"/>
    </comp>
    <comp name="--.HHZ">
      <acc value="0.0507553524" flag="0"/>
      <vel value="0.0205623641" flag="0"/>
      <psa03 value="0.1059245671" flag="0"/>
      <psa10 value="0.0209357484" flag="0"/>
      <psa30 value="0.0008560459" flag="0"/>
    </comp>
  </station>
  <station code="ZKR" name="ZKR" netid="HL" insttype="120" lat="35.1147" lon="26.2169">
    <comp name="--.HHE">
      <acc value="0.0172000129" flag="0"/>
      <vel value="0.0114557140" flag="0"/>
      <psa03 value="0.0557112002" flag="0"/>
      <psa10 value="0.0183836185" flag="0"/>
      <psa30 value="0.0011785553" flag="0"/>
    </comp>
    <comp name="--.HHN">
      <acc value="0.0100304405" flag="0"/>
      <vel value="0.0052001269" flag="0"/>
      <psa03 value="0.0264911514" flag="0"/>
      <psa10 value="0.0068486946" flag="0"/>
      <psa30 value="0.0004655204" flag="0"/>
    </comp>
    <comp name="--.HHZ">
      <acc value="0.0118965540" flag="0"/>
      <vel value="0.0061824012" flag="0"/>
      <psa03 value="0.0279043340" flag="0"/>
      <psa10 value="0.0078188742" flag="0"/>
      <psa30 value="0.0003935461" flag="0"/>
    </comp>
  </station>
  <station code="IDI" name="IDI" netid="MN" insttype="" lat="35.288" lon="24.89">
    <comp name="--.HHE">
      <acc value="0.0142543366" flag="0"/>
      <vel value="0.0059766616" flag="0"/>
      <psa03 value="0.0289367096" flag="0"/>
      <psa10 value="0.0034451715" flag="0"/>
      <psa30 value="0.0005021940" flag="0"/>
    </comp>
    <comp name="--.HHZ">
      <acc value="0.0098956196" flag="0"/>
      <vel value="0.0058469947" flag="0"/>
      <psa03 value="0.0353006401" flag="0"/>
      <psa10 value="0.0040225304" flag="0"/>
      <psa30 value="0.0004489017" flag="0"/>
    </comp>
    <comp name="--.HHN">
      <acc value="0.0133477341" flag="0"/>
      <vel value="0.0051234356" flag="0"/>
      <psa03 value="0.0316510963" flag="0"/>
      <psa10 value="0.0044135487" flag="0"/>
      <psa30 value="0.0003448035" flag="0"/>
    </comp>
  </station>
</stationlist>
