<stationlist created="1775820631">
	<station code="ABEA" name="ABEA" netid="HC" source="Seismological Network of Crete (HC)" insttype="" lat="35.5163" lon="24.0113">
		<comp name="--.HNE" depth="0.0">
			<acc value="0.00736095476116263" flag="0"/>
			<vel value="0.00796927020086215" flag="0"/>
			<psa03 value="0.0190512216853345" flag="0"/>
			<psa10 value="0.0110849046330151" flag="0"/>
			<psa30 value="0.00335619233127171" flag="0"/>
		</comp>
		<comp name="--.HNN" depth="0.0">
			<acc value="0.00690082904048987" flag="0"/>
			<vel value="0.00553129896994929" flag="0"/>
			<psa03 value="0.018479872638348" flag="0"/>
			<psa10 value="0.0101619572422824" flag="0"/>
			<psa30 value="0.0012176142026302" flag="0"/>
		</comp>
		<comp name="--.HNZ" depth="0.0">
			<acc value="0.00465739196284903" flag="0"/>
			<vel value="0.00411857434450662" flag="0"/>
			<psa03 value="0.00700089346231309" flag="0"/>
			<psa10 value="0.00585004488051324" flag="0"/>
			<psa30 value="0.000961717771580424" flag="0"/>
		</comp>
	</station>
	<station code="ATEI" name="ATEI" netid="HC" source="Seismological Network of Crete (HC)" insttype="" lat="35.5193" lon="24.0432">
		<comp name="--.HNE" depth="0.0">
			<acc value="0.0043085982805882" flag="0"/>
			<vel value="0.00444403709105092" flag="0"/>
			<psa03 value="0.0127735896772133" flag="0"/>
			<psa10 value="0.00724708508382382" flag="0"/>
			<psa30 value="0.00209192212123973" flag="0"/>
		</comp>
		<comp name="--.HNN" depth="0.0">
			<acc value="0.00538452373901942" flag="0"/>
			<vel value="0.00514047941657522" flag="0"/>
			<psa03 value="0.0128983088767265" flag="0"/>
			<psa10 value="0.00562750795101671" flag="0"/>
			<psa30 value="0.0018302629126037" flag="0"/>
		</comp>
		<comp name="--.HNZ" depth="0.0">
			<acc value="0.0047765845350533" flag="0"/>
			<vel value="0.00314371619503487" flag="0"/>
			<psa03 value="0.00837013065195474" flag="0"/>
			<psa10 value="0.00499575985083311" flag="0"/>
			<psa30 value="0.000890280539217475" flag="0"/>
		</comp>
	</station>
	<station code="DEYA" name="DEYA" netid="HC" source="Seismological Network of Crete (HC)" insttype="" lat="35.4825" lon="24.014">
		<comp name="--.HNE" depth="0.0">
			<acc value="0.011495486953301" flag="0"/>
			<vel value="0.0123598834550418" flag="0"/>
			<psa03 value="0.0262688339313278" flag="0"/>
			<psa10 value="0.0149626512022131" flag="0"/>
			<psa30 value="0.00145616792231264" flag="0"/>
		</comp>
		<comp name="--.HNN" depth="0.0">
			<acc value="0.0093586388214295" flag="0"/>
			<vel value="0.00580214847359658" flag="0"/>
			<psa03 value="0.0248839895880391" flag="0"/>
			<psa10 value="0.0131377362480461" flag="0"/>
			<psa30 value="0.00084172263499157" flag="0"/>
		</comp>
		<comp name="--.HNZ" depth="0.0">
			<acc value="0.00760263858771856" flag="0"/>
			<vel value="0.00613542417802941" flag="0"/>
			<psa03 value="0.012097362588813" flag="0"/>
			<psa10 value="0.00529733092218992" flag="0"/>
			<psa30 value="0.0014399840377074" flag="0"/>
		</comp>
	</station>
	<station code="G0LD" name="G0LD" netid="HC" source="Seismological Network of Crete (HC)" insttype="" lat="35.4955" lon="24.0306">
		<comp name="--.HNE" depth="0.0">
			<acc value="0.016555428109684" flag="0"/>
			<vel value="0.0208054834363387" flag="0"/>
			<psa03 value="0.0422437437531977" flag="0"/>
			<psa10 value="0.0298174396340462" flag="0"/>
			<psa30 value="0.00301829578061711" flag="0"/>
		</comp>
		<comp name="--.HNN" depth="0.0">
			<acc value="0.0174791386042325" flag="0"/>
			<vel value="0.0183180051446135" flag="0"/>
			<psa03 value="0.0328737037632073" flag="0"/>
			<psa10 value="0.0403887993096404" flag="0"/>
			<psa30 value="0.00296842935221011" flag="0"/>
		</comp>
		<comp name="--.HNZ" depth="0.0">
			<acc value="0.00851545648874026" flag="0"/>
			<vel value="0.00785833436980735" flag="0"/>
			<psa03 value="0.0189232040902152" flag="0"/>
			<psa10 value="0.0128013999049188" flag="0"/>
			<psa30 value="0.00264472999204984" flag="0"/>
		</comp>
	</station>
	<station code="MULT" name="MULT" netid="HC" source="Seismological Network of Crete (HC)" insttype="" lat="35.5091" lon="24.0118">
		<comp name="--.HNE" depth="0.0">
			<acc value="0.0130126591277161" flag="0"/>
			<vel value="0.00711929756291889" flag="0"/>
			<psa03 value="0.0168772208976537" flag="0"/>
			<psa10 value="0.00890231160944211" flag="0"/>
			<psa30 value="0.00257916544038744" flag="0"/>
		</comp>
		<comp name="--.HNN" depth="0.0">
			<acc value="0.0101628348984027" flag="0"/>
			<vel value="0.00576922725769074" flag="0"/>
			<psa03 value="0.016597654200615" flag="0"/>
			<psa10 value="0.00907661940649612" flag="0"/>
			<psa30 value="0.00207442283699905" flag="0"/>
		</comp>
		<comp name="--.HNZ" depth="0.0">
			<acc value="0.018240507939341" flag="0"/>
			<vel value="0.00774563988357871" flag="0"/>
			<psa03 value="0.0130998430607495" flag="0"/>
			<psa10 value="0.00890726006226408" flag="0"/>
			<psa30 value="0.00521664266032458" flag="0"/>
		</comp>
	</station>
	<station code="NERO" name="NERO" netid="HC" source="Seismological Network of Crete (HC)" insttype="" lat="35.474" lon="24.0423">
		<comp name="--.HNE" depth="0.0">
			<acc value="0.00657447644708559" flag="0"/>
			<vel value="0.00453357528243392" flag="0"/>
			<psa03 value="0.0114269653136945" flag="0"/>
			<psa10 value="0.00450873805675746" flag="0"/>
			<psa30 value="0.00151508672122738" flag="0"/>
		</comp>
		<comp name="--.HNN" depth="0.0">
			<acc value="0.00454191747966301" flag="0"/>
			<vel value="0.00396951209620803" flag="0"/>
			<psa03 value="0.010251906352041" flag="0"/>
			<psa10 value="0.0093362641066795" flag="0"/>
			<psa30 value="0.00137178993684898" flag="0"/>
		</comp>
		<comp name="--.HNZ" depth="0.0">
			<acc value="0.00437582549183769" flag="0"/>
			<vel value="0.0029310717693437" flag="0"/>
			<psa03 value="0.00830905043382932" flag="0"/>
			<psa10 value="0.00593268535502208" flag="0"/>
			<psa30 value="0.000851555994738041" flag="0"/>
		</comp>
	</station>
	<station code="PASK" name="PASK" netid="HC" source="Seismological Network of Crete (HC)" insttype="" lat="35.4996" lon="24.0121">
		<comp name="--.HNE" depth="0.0">
			<acc value="0.00970868190994011" flag="0"/>
			<vel value="0.00756303665937947" flag="0"/>
			<psa03 value="0.0207899918182802" flag="0"/>
			<psa10 value="0.0104354037942899" flag="0"/>
			<psa30 value="0.00199877470067891" flag="0"/>
		</comp>
		<comp name="--.HNN" depth="0.0">
			<acc value="0.00871893405886091" flag="0"/>
			<vel value="0.0086147015874111" flag="0"/>
			<psa03 value="0.0152875088161757" flag="0"/>
			<psa10 value="0.00712916977251741" flag="0"/>
			<psa30 value="0.00212182806069529" flag="0"/>
		</comp>
		<comp name="--.HNZ" depth="0.0">
			<acc value="0.0105550584526753" flag="0"/>
			<vel value="0.00549238369984869" flag="0"/>
			<psa03 value="0.0230985978770971" flag="0"/>
			<psa10 value="0.00738179166370922" flag="0"/>
			<psa30 value="0.00112003607189254" flag="0"/>
		</comp>
	</station>
	<station code="POLY" name="POLY" netid="HC" source="Seismological Network of Crete (HC)" insttype="" lat="35.5226" lon="24.0602">
		<comp name="--.HNE" depth="0.0">
			<acc value="0.0043140508391596" flag="0"/>
			<vel value="0.00401128365771144" flag="0"/>
			<psa03 value="0.0120515040821707" flag="0"/>
			<psa10 value="0.00483953950199438" flag="0"/>
			<psa30 value="0.00159673160896419" flag="0"/>
		</comp>
		<comp name="--.HNN" depth="0.0">
			<acc value="0.00476222514930943" flag="0"/>
			<vel value="0.00502819463969683" flag="0"/>
			<psa03 value="0.0118299516449807" flag="0"/>
			<psa10 value="0.00805383196435832" flag="0"/>
			<psa30 value="0.00140668037317076" flag="0"/>
		</comp>
		<comp name="--.HNZ" depth="0.0">
			<acc value="0.0044907222012486" flag="0"/>
			<vel value="0.00249012981083833" flag="0"/>
			<psa03 value="0.00733781747461544" flag="0"/>
			<psa10 value="0.00305010541389058" flag="0"/>
			<psa30 value="0.000928627141991302" flag="0"/>
		</comp>
	</station>
	<station code="SOUD" name="SOUD" netid="HC" source="Seismological Network of Crete (HC)" insttype="" lat="35.4878" lon="24.0678">
		<comp name="--.HNE" depth="0.0">
			<acc value="0.0121806129911448" flag="0"/>
			<vel value="0.00785697251004486" flag="0"/>
			<psa03 value="0.0241101388450213" flag="0"/>
			<psa10 value="0.0135693729668739" flag="0"/>
			<psa30 value="0.00113857469581694" flag="0"/>
		</comp>
		<comp name="--.HNN" depth="0.0">
			<acc value="0.0147315758039532" flag="0"/>
			<vel value="0.00878342405652105" flag="0"/>
			<psa03 value="0.0220798897676661" flag="0"/>
			<psa10 value="0.0116628891716656" flag="0"/>
			<psa30 value="0.00162146960190245" flag="0"/>
		</comp>
		<comp name="--.HNZ" depth="0.0">
			<acc value="0.00578535056888027" flag="0"/>
			<vel value="0.00532635311055317" flag="0"/>
			<psa03 value="0.00811364230669679" flag="0"/>
			<psa10 value="0.00361138142379685" flag="0"/>
			<psa30 value="0.00378885474302982" flag="0"/>
		</comp>
	</station>
	<station code="KSS1" name="KSS1" netid="HI" source="ITSAK Strong Motion Network" insttype="" lat="35.4189" lon="26.9207">
		<comp name="--.HNE" depth="0.0">
			<acc value="0.00241737178364875" flag="0"/>
			<vel value="0.00112901244257237" flag="0"/>
			<psa03 value="0.00923499198120774" flag="0"/>
			<psa10 value="0.00166787447287161" flag="0"/>
			<psa30 value="0.000180833424639438" flag="0"/>
		</comp>
		<comp name="--.HNN" depth="0.0">
			<acc value="0.00236878524140346" flag="0"/>
			<vel value="0.00154499299873624" flag="0"/>
			<psa03 value="0.00869397697497535" flag="0"/>
			<psa10 value="0.00284524106138344" flag="0"/>
			<psa30 value="0.000283546127289213" flag="0"/>
		</comp>
		<comp name="--.HNZ" depth="0.0">
			<acc value="0.0017966087226423" flag="0"/>
			<vel value="0.00112657301751701" flag="0"/>
			<psa03 value="0.00326309604690992" flag="0"/>
			<psa10 value="0.0012733831444483" flag="0"/>
			<psa30 value="0.000276843443686279" flag="0"/>
		</comp>
	</station>
	<station code="IACM" name="IACM" netid="HL" source="National Observatory of Athens Seismic Network" insttype="" lat="35.3058" lon="25.0709">
		<comp name="--.HNE" depth="0.0">
			<acc value="0.169903816505543" flag="0"/>
			<vel value="0.141441987606582" flag="0"/>
			<psa03 value="0.26531801351634" flag="0"/>
			<psa10 value="0.178622262848386" flag="0"/>
			<psa30 value="0.0158577471645941" flag="0"/>
		</comp>
		<comp name="--.HNN" depth="0.0">
			<acc value="0.172747442115242" flag="0"/>
			<vel value="0.0896358468861612" flag="0"/>
			<psa03 value="0.475115932433218" flag="0"/>
			<psa10 value="0.11206895901873" flag="0"/>
			<psa30 value="0.0144939901557193" flag="0"/>
		</comp>
		<comp name="--.HNZ" depth="0.0">
			<acc value="0.141749808030829" flag="0"/>
			<vel value="0.05771692837384" flag="0"/>
			<psa03 value="0.207526268430186" flag="0"/>
			<psa10 value="0.0604338884484701" flag="0"/>
			<psa30 value="0.00874323919670928" flag="0"/>
		</comp>
	</station>
	<station code="IMMV" name="IMMV" netid="HL" source="National Observatory of Athens Seismic Network" insttype="" lat="35.4606" lon="23.9811">
		<comp name="--.HNE" depth="0.0">
			<acc value="0.00642572730759042" flag="0"/>
			<vel value="0.00594581914936662" flag="0"/>
			<psa03 value="0.0225161139778637" flag="0"/>
			<psa10 value="0.00806833886287215" flag="0"/>
			<psa30 value="0.000756966968262219" flag="0"/>
		</comp>
		<comp name="--.HNN" depth="0.0">
			<acc value="0.00637241373383459" flag="0"/>
			<vel value="0.00439255983386362" flag="0"/>
			<psa03 value="0.0208752709050738" flag="0"/>
			<psa10 value="0.00649482134378525" flag="0"/>
			<psa30 value="0.00100513168920599" flag="0"/>
		</comp>
		<comp name="--.HNZ" depth="0.0">
			<acc value="0.00531301856591797" flag="0"/>
			<vel value="0.00297201541340499" flag="0"/>
			<psa03 value="0.0161810419667199" flag="0"/>
			<psa10 value="0.00339134801953681" flag="0"/>
			<psa30 value="0.000882441999120107" flag="0"/>
		</comp>
	</station>
	<station code="SIVA" name="SIVA" netid="HL" source="National Observatory of Athens Seismic Network" insttype="" lat="35.01777" lon="24.81204">
		<comp name="00.HNE" depth="0.0">
			<acc value="0.0515402918962243" flag="0"/>
			<vel value="0.021706178533513" flag="0"/>
			<psa03 value="0.152855532179029" flag="0"/>
			<psa10 value="0.0218828290050257" flag="0"/>
			<psa30 value="0.00254526944494056" flag="0"/>
		</comp>
		<comp name="00.HNN" depth="0.0">
			<acc value="0.0688653012872787" flag="0"/>
			<vel value="0.0411033979635263" flag="0"/>
			<psa03 value="0.123288927702909" flag="0"/>
			<psa10 value="0.0261782379297929" flag="0"/>
			<psa30 value="0.0023176560333392" flag="0"/>
		</comp>
		<comp name="00.HNZ" depth="0.0">
			<acc value="0.0372952779537161" flag="0"/>
			<vel value="0.0133855780796879" flag="0"/>
			<psa03 value="0.0683078740196767" flag="0"/>
			<psa10 value="0.00985280645009099" flag="0"/>
			<psa30 value="0.00208329946670077" flag="0"/>
		</comp>
	</station>
</stationlist>
