<?xml version="1.0" encoding="UTF-8" standalone="yes"?>
<!DOCTYPE earthquake SYSTEM "stationlist.dtd">
<stationlist created="" xmlns="ch.ethz.sed.shakemap.usgs.xml">
  <station code="ZKR" name="ZKR" netid="GE" insttype="STS-2/N" lat="35.1147" lon="26.2169">
    <comp name="--.HHE">
      <acc value="0.0110202469" flag="0"/>
      <vel value="0.0063982943" flag="0"/>
      <psa03 value="0.0228967581" flag="0"/>
      <psa10 value="0.0072456156" flag="0"/>
      <psa30 value="0.0017145742" flag="0"/>
    </comp>
    <comp name="--.HHN">
      <acc value="0.0066968322" flag="0"/>
      <vel value="0.0033002850" flag="0"/>
      <psa03 value="0.0226325722" flag="0"/>
      <psa10 value="0.0033281660" flag="0"/>
      <psa30 value="0.0006291798" flag="0"/>
    </comp>
    <comp name="--.HHZ">
      <acc value="0.0062712373" flag="0"/>
      <vel value="0.0036652727" flag="0"/>
      <psa03 value="0.0185585287" flag="0"/>
      <psa10 value="0.0055954254" flag="0"/>
      <psa30 value="0.0017621502" flag="0"/>
    </comp>
  </station>
  <station code="IMOD" name="IMOD" netid="HC" insttype="120" lat="34.9731" lon="24.7995">
    <comp name="--.HHE">
      <acc value="0.0208942790" flag="0"/>
      <vel value="0.0163551113" flag="0"/>
      <psa03 value="0.0777476459" flag="0"/>
      <psa10 value="0.0121314257" flag="0"/>
      <psa30 value="0.0017378979" flag="0"/>
    </comp>
    <comp name="--.HHN">
      <acc value="0.0287249735" flag="0"/>
      <vel value="0.0214118118" flag="0"/>
      <psa03 value="0.0883924384" flag="0"/>
      <psa10 value="0.0274874270" flag="0"/>
      <psa30 value="0.0017919378" flag="0"/>
    </comp>
    <comp name="--.HHZ">
      <acc value="0.0188731517" flag="0"/>
      <vel value="0.0083878821" flag="0"/>
      <psa03 value="0.0389585254" flag="0"/>
      <psa10 value="0.0072670301" flag="0"/>
      <psa30 value="0.0012062191" flag="0"/>
    </comp>
  </station>
  <station code="KNSS" name="KNSS" netid="HC" insttype="60" lat="35.3042" lon="25.1802">
    <comp name="--.HHN">
      <acc value="0.0000000000" flag="0"/>
      <vel value="-100.0000000000" flag="0"/>
      <psa03 value="0.0000000000" flag="0"/>
      <psa10 value="0.0000000000" flag="0"/>
      <psa30 value="0.0000000000" flag="0"/>
    </comp>
    <comp name="--.HHE">
      <acc value="0.1774358675" flag="0"/>
      <vel value="0.0628801867" flag="0"/>
      <psa03 value="0.4170015844" flag="0"/>
      <psa10 value="0.0502837608" flag="0"/>
      <psa30 value="0.0062650051" flag="0"/>
    </comp>
    <comp name="--.HHZ">
      <acc value="0.1451329364" flag="0"/>
      <vel value="0.0378466025" flag="0"/>
      <psa03 value="0.2017399202" flag="0"/>
      <psa10 value="0.0213873592" flag="0"/>
      <psa30 value="0.0084976217" flag="0"/>
    </comp>
  </station>
  <station code="PFKS" name="PFKS" netid="HC" insttype="120" lat="35.0429" lon="25.4733">
    <comp name="--.HHE">
      <acc value="0.3777628783" flag="0"/>
      <vel value="0.1482804346" flag="0"/>
      <psa03 value="0.8504142301" flag="0"/>
      <psa10 value="0.0852463152" flag="0"/>
      <psa30 value="0.0065840810" flag="0"/>
    </comp>
    <comp name="--.HHZ">
      <acc value="0.2472318160" flag="0"/>
      <vel value="0.0707964206" flag="0"/>
      <psa03 value="0.3055525945" flag="0"/>
      <psa10 value="0.0470232436" flag="0"/>
      <psa30 value="0.0068989581" flag="0"/>
    </comp>
    <comp name="--.HHN">
      <acc value="0.6691298700" flag="0"/>
      <vel value="0.1965281472" flag="0"/>
      <psa03 value="0.9982811872" flag="0"/>
      <psa10 value="0.0687065043" flag="0"/>
      <psa30 value="0.0041084537" flag="0"/>
    </comp>
  </station>
  <station code="STIA" name="STIA" netid="HC" insttype="120" lat="35.2021" lon="26.0909">
    <comp name="--.HHE">
      <acc value="0.0163710529" flag="0"/>
      <vel value="0.0104502581" flag="0"/>
      <psa03 value="0.0620364478" flag="0"/>
      <psa10 value="0.0120543984" flag="0"/>
      <psa30 value="0.0013454549" flag="0"/>
    </comp>
    <comp name="--.HHN">
      <acc value="0.0160964340" flag="0"/>
      <vel value="0.0100289043" flag="0"/>
      <psa03 value="0.0359586657" flag="0"/>
      <psa10 value="0.0115375408" flag="0"/>
      <psa30 value="0.0009627198" flag="0"/>
    </comp>
    <comp name="--.HHZ">
      <acc value="0.0179928211" flag="0"/>
      <vel value="0.0065726396" flag="0"/>
      <psa03 value="0.0386934249" flag="0"/>
      <psa10 value="0.0049159428" flag="0"/>
      <psa30 value="0.0014356529" flag="0"/>
    </comp>
  </station>
  <station code="IACM" name="IACM" netid="HL" insttype="120" lat="35.3058" lon="25.0709">
    <comp name="--.HHE">
      <acc value="0.1700927928" flag="0"/>
      <vel value="0.1425990999" flag="0"/>
      <psa03 value="0.2579933996" flag="0"/>
      <psa10 value="0.1765332840" flag="0"/>
      <psa30 value="0.0145971145" flag="0"/>
    </comp>
    <comp name="--.HHN">
      <acc value="0.1692758636" flag="0"/>
      <vel value="0.0900360576" flag="0"/>
      <psa03 value="0.4627896165" flag="0"/>
      <psa10 value="0.1205578812" flag="0"/>
      <psa30 value="0.0125196738" flag="0"/>
    </comp>
    <comp name="--.HHZ">
      <acc value="0.1433003217" flag="0"/>
      <vel value="0.0587782469" flag="0"/>
      <psa03 value="0.2118898183" flag="0"/>
      <psa10 value="0.0617926582" flag="0"/>
      <psa30 value="0.0083611046" flag="0"/>
    </comp>
  </station>
  <station code="IDI" name="IDI" netid="HL" insttype="120" lat="35.288" lon="24.89">
    <comp name="--.HHE">
      <acc value="0.0256651550" flag="0"/>
      <vel value="0.0058799409" flag="0"/>
      <psa03 value="0.0291919793" flag="0"/>
      <psa10 value="0.0065340652" flag="0"/>
      <psa30 value="0.0017732368" flag="0"/>
    </comp>
    <comp name="--.HHN">
      <acc value="0.0352875048" flag="0"/>
      <vel value="0.0078785088" flag="0"/>
      <psa03 value="0.0385021726" flag="0"/>
      <psa10 value="0.0058671566" flag="0"/>
      <psa30 value="0.0011569815" flag="0"/>
    </comp>
    <comp name="--.HHZ">
      <acc value="0.0163371364" flag="0"/>
      <vel value="0.0068429085" flag="0"/>
      <psa03 value="0.0281125187" flag="0"/>
      <psa10 value="0.0057735335" flag="0"/>
      <psa30 value="0.0025663305" flag="0"/>
    </comp>
  </station>
  <station code="NPS" name="NPS" netid="HL" insttype="CMG3ESPC-120s" lat="35.2613" lon="25.6104">
    <comp name="--.HHZ">
      <acc value="0.0615345302" flag="0"/>
      <vel value="0.0176327687" flag="0"/>
      <psa03 value="0.0409056816" flag="0"/>
      <psa10 value="0.0239580382" flag="0"/>
      <psa30 value="0.0031755140" flag="0"/>
    </comp>
    <comp name="--.HHE">
      <acc value="0.0204636928" flag="0"/>
      <vel value="0.0078849475" flag="0"/>
      <psa03 value="0.0296884800" flag="0"/>
      <psa10 value="0.0086487088" flag="0"/>
      <psa30 value="0.0006957616" flag="0"/>
    </comp>
    <comp name="--.HHN">
      <acc value="0.0734533566" flag="0"/>
      <vel value="0.0174417689" flag="0"/>
      <psa03 value="0.0512264640" flag="0"/>
      <psa10 value="0.0211638403" flag="0"/>
      <psa30 value="0.0017924143" flag="0"/>
    </comp>
  </station>
  <station code="SIVA" name="SIVA" netid="HL" insttype="60" lat="35.0178" lon="24.812">
    <comp name="--.HHE">
      <acc value="0.0554936652" flag="0"/>
      <vel value="0.0233969822" flag="0"/>
      <psa03 value="0.1618043039" flag="0"/>
      <psa10 value="0.0234664975" flag="0"/>
      <psa30 value="0.0024042069" flag="0"/>
    </comp>
    <comp name="--.HHN">
      <acc value="0.0691464256" flag="0"/>
      <vel value="0.0367390182" flag="0"/>
      <psa03 value="0.1121263758" flag="0"/>
      <psa10 value="0.0223631330" flag="0"/>
      <psa30 value="0.0017012311" flag="0"/>
    </comp>
    <comp name="--.HHZ">
      <acc value="0.0375919541" flag="0"/>
      <vel value="0.0132814170" flag="0"/>
      <psa03 value="0.0680937545" flag="0"/>
      <psa10 value="0.0101629816" flag="0"/>
      <psa30 value="0.0018028985" flag="0"/>
    </comp>
  </station>
  <station code="ZKR" name="ZKR" netid="HL" insttype="120" lat="35.1147" lon="26.2169">
    <comp name="--.HHE">
      <acc value="0.0108098658" flag="0"/>
      <vel value="0.0062669757" flag="0"/>
      <psa03 value="0.0223312122" flag="0"/>
      <psa10 value="0.0072027901" flag="0"/>
      <psa30 value="0.0017158641" flag="0"/>
    </comp>
    <comp name="--.HHN">
      <acc value="0.0065085361" flag="0"/>
      <vel value="0.0032510050" flag="0"/>
      <psa03 value="0.0220071442" flag="0"/>
      <psa10 value="0.0033059891" flag="0"/>
      <psa30 value="0.0006295755" flag="0"/>
    </comp>
    <comp name="--.HHZ">
      <acc value="0.0060973497" flag="0"/>
      <vel value="0.0036191463" flag="0"/>
      <psa03 value="0.0180794940" flag="0"/>
      <psa10 value="0.0055491736" flag="0"/>
      <psa30 value="0.0017629301" flag="0"/>
    </comp>
  </station>
  <station code="IDI" name="IDI" netid="MN" insttype="" lat="35.288" lon="24.89">
    <comp name="--.HHZ">
      <acc value="0.0196301402" flag="0"/>
      <vel value="0.0071243515" flag="0"/>
      <psa03 value="0.0285473241" flag="0"/>
      <psa10 value="0.0057356564" flag="0"/>
      <psa30 value="0.0025371186" flag="0"/>
    </comp>
    <comp name="--.HHE">
      <acc value="0.0297165205" flag="0"/>
      <vel value="0.0061759951" flag="0"/>
      <psa03 value="0.0296206897" flag="0"/>
      <psa10 value="0.0064849414" flag="0"/>
      <psa30 value="0.0017526952" flag="0"/>
    </comp>
    <comp name="--.HHN">
      <acc value="0.0392485331" flag="0"/>
      <vel value="0.0078719008" flag="0"/>
      <psa03 value="0.0388769634" flag="0"/>
      <psa10 value="0.0058151792" flag="0"/>
      <psa30 value="0.0011442952" flag="0"/>
    </comp>
  </station>
</stationlist>
