<?xml version="1.0" encoding="UTF-8" standalone="yes"?>
<!DOCTYPE earthquake SYSTEM "stationlist.dtd">
<stationlist created="" xmlns="ch.ethz.sed.shakemap.usgs.xml">
  <station code="CEYT" name="CEYT" netid="KO" insttype="CMG-3ESP" lat="37.0105" lon="35.7478">
    <comp name="--.HHE">
      <acc value="0.0265881970" flag="0"/>
      <vel value="0.0097611719" flag="0"/>
      <psa03 value="0.0588729476" flag="0"/>
      <psa10 value="0.0069288234" flag="0"/>
      <psa30 value="0.0005772400" flag="0"/>
    </comp>
    <comp name="--.HHN">
      <acc value="0.0211945718" flag="0"/>
      <vel value="0.0065534665" flag="0"/>
      <psa03 value="0.0376963945" flag="0"/>
      <psa10 value="0.0047518196" flag="0"/>
      <psa30 value="0.0011128646" flag="0"/>
    </comp>
    <comp name="--.HHZ">
      <acc value="0.0150265378" flag="0"/>
      <vel value="0.0062528627" flag="0"/>
      <psa03 value="0.0292988415" flag="0"/>
      <psa10 value="0.0062161001" flag="0"/>
      <psa30 value="0.0006205115" flag="0"/>
    </comp>
  </station>
  <station code="GAZ" name="GAZ" netid="KO" insttype="CMG-3T" lat="37.1721" lon="37.2096">
    <comp name="--.HHZ">
      <acc value="0.0564843366" flag="0"/>
      <vel value="0.0242116305" flag="0"/>
      <psa03 value="0.1537354055" flag="0"/>
      <psa10 value="0.0178417675" flag="0"/>
      <psa30 value="0.0012490502" flag="0"/>
    </comp>
    <comp name="--.HHE">
      <acc value="0.1189983688" flag="0"/>
      <vel value="0.0355161290" flag="0"/>
      <psa03 value="0.1325251775" flag="0"/>
      <psa10 value="0.0219274424" flag="0"/>
      <psa30 value="0.0011416017" flag="0"/>
    </comp>
    <comp name="--.HHN">
      <acc value="0.0768844153" flag="0"/>
      <vel value="0.0274247327" flag="0"/>
      <psa03 value="0.1573051907" flag="0"/>
      <psa10 value="0.0177488897" flag="0"/>
      <psa30 value="0.0018332854" flag="0"/>
    </comp>
  </station>
  <station code="KHMN" name="KHMN" netid="KO" insttype="CMG-5T" lat="37.3916" lon="37.1574">
    <comp name="--.HNZ">
      <acc value="0.0989083189" flag="0"/>
      <vel value="0.0166748153" flag="0"/>
      <psa03 value="0.0594636594" flag="0"/>
      <psa10 value="0.0111694545" flag="0"/>
      <psa30 value="0.0012507630" flag="0"/>
    </comp>
    <comp name="--.HNE">
      <acc value="0.2419797833" flag="0"/>
      <vel value="0.0514755996" flag="0"/>
      <psa03 value="0.2108216966" flag="0"/>
      <psa10 value="0.0260222760" flag="0"/>
      <psa30 value="0.0019228498" flag="0"/>
    </comp>
    <comp name="--.HNN">
      <acc value="0.1988635375" flag="0"/>
      <vel value="0.0563294877" flag="0"/>
      <psa03 value="0.2092907490" flag="0"/>
      <psa10 value="0.0296831226" flag="0"/>
      <psa30 value="0.0024405698" flag="0"/>
    </comp>
  </station>
  <station code="KMRS" name="KMRS" netid="KO" insttype="CMG-3T" lat="37.5053" lon="36.9">
    <comp name="--.HHZ">
      <acc value="0.0630293403" flag="0"/>
      <vel value="0.0253715109" flag="0"/>
      <psa03 value="0.1319171990" flag="0"/>
      <psa10 value="0.0111439499" flag="0"/>
      <psa30 value="0.0009786062" flag="0"/>
    </comp>
  </station>
  <station code="TAHT" name="TAHT" netid="KO" insttype="CMG-3ESPC" lat="36.3755" lon="36.1855">
    <comp name="--.HHN">
      <acc value="0.3317233852" flag="0"/>
      <vel value="0.0782069030" flag="0"/>
      <psa03 value="0.3892255867" flag="0"/>
      <psa10 value="0.0361510251" flag="0"/>
      <psa30 value="0.0018852204" flag="0"/>
    </comp>
    <comp name="--.HHZ">
      <acc value="0.2618904731" flag="0"/>
      <vel value="0.0550697180" flag="0"/>
      <psa03 value="0.2670856048" flag="0"/>
      <psa10 value="0.0289950714" flag="0"/>
      <psa30 value="0.0015663222" flag="0"/>
    </comp>
  </station>
  <station code="ANDN" name="ANDN" netid="TU" insttype="T" lat="37.58" lon="36.3452">
    <comp name="--.HHE">
      <acc value="0.3531741881" flag="0"/>
      <vel value="0.1140852681" flag="0"/>
      <psa03 value="0.2453013886" flag="0"/>
      <psa10 value="0.0717707978" flag="0"/>
      <psa30 value="0.0057048386" flag="0"/>
    </comp>
    <comp name="--.HHZ">
      <acc value="0.1905923981" flag="0"/>
      <vel value="0.0582079957" flag="0"/>
      <psa03 value="0.1182124201" flag="0"/>
      <psa10 value="0.0574213678" flag="0"/>
      <psa30 value="0.0033159373" flag="0"/>
    </comp>
    <comp name="--.HHN">
      <acc value="0.4218554617" flag="0"/>
      <vel value="0.1272998892" flag="0"/>
      <psa03 value="0.4860755455" flag="0"/>
      <psa10 value="0.0544306146" flag="0"/>
      <psa30 value="0.0036120130" flag="0"/>
    </comp>
  </station>
</stationlist>
