<stationlist created="1778069525">
	<station code="IMMV" name="IMMV" netid="GE" source="GEOFON" insttype="" lat="35.4606" lon="23.9811">
		<comp name="--.HNE" depth="0.0">
			<acc value="0.0492122038498883" flag="0"/>
			<vel value="0.0264966566560816" flag="0"/>
			<psa03 value="0.216015373553016" flag="0"/>
			<psa10 value="0.0516718795793097" flag="0"/>
			<psa30 value="0.00683616174920574" flag="0"/>
		</comp>
		<comp name="--.HNN" depth="0.0">
			<acc value="0.0479922663518447" flag="0"/>
			<vel value="0.0334272887942942" flag="0"/>
			<psa03 value="0.165546164487606" flag="0"/>
			<psa10 value="0.0457847000324775" flag="0"/>
			<psa30 value="0.00659276414520234" flag="0"/>
		</comp>
		<comp name="--.HNZ" depth="0.0">
			<acc value="0.0253707934995988" flag="0"/>
			<vel value="0.0168201358953492" flag="0"/>
			<psa03 value="0.117224581339872" flag="0"/>
			<psa10 value="0.0227353048710086" flag="0"/>
			<psa30 value="0.00365588570277898" flag="0"/>
		</comp>
	</station>
	<station code="KTHA" name="KTHA" netid="GE" source="GEOFON" insttype="" lat="36.2566" lon="23.0621">
		<comp name="--.HNE" depth="0.0">
			<acc value="0.0316785475137058" flag="0"/>
			<vel value="0.0250084371507976" flag="0"/>
			<psa03 value="0.0474714812219863" flag="0"/>
			<psa10 value="0.052879919158003" flag="0"/>
			<psa30 value="0.00801646115979575" flag="0"/>
		</comp>
		<comp name="--.HNN" depth="0.0">
			<acc value="0.0175379292989485" flag="0"/>
			<vel value="0.0129865967377459" flag="0"/>
			<psa03 value="0.0378966490056762" flag="0"/>
			<psa10 value="0.0344130207983775" flag="0"/>
			<psa30 value="0.00517980526019732" flag="0"/>
		</comp>
		<comp name="--.HNZ" depth="0.0">
			<acc value="0.0124488851463712" flag="0"/>
			<vel value="0.00787519968461928" flag="0"/>
			<psa03 value="0.0231764630282648" flag="0"/>
			<psa10 value="0.0166065174084377" flag="0"/>
			<psa30 value="0.00507868787324003" flag="0"/>
		</comp>
	</station>
	<station code="XLKS" name="XLKS" netid="HA" source="Hellenic Seismological Network, University of Athens, Seismological Laboratory (HA)" insttype="" lat="38.0772" lon="22.6361">
		<comp name="--.HNE" depth="0.0">
			<acc value="0.0789334193324399" flag="0"/>
			<vel value="0.0914591304566993" flag="0"/>
			<psa03 value="0.133689713375396" flag="0"/>
			<psa10 value="0.18891725611466" flag="0"/>
			<psa30 value="0.0181541503353638" flag="0"/>
		</comp>
		<comp name="--.HNN" depth="0.0">
			<acc value="0.0704005432547411" flag="0"/>
			<vel value="0.0926739544649609" flag="0"/>
			<psa03 value="0.142996092351997" flag="0"/>
			<psa10 value="0.151117697697345" flag="0"/>
			<psa30 value="0.0184512385873091" flag="0"/>
		</comp>
		<comp name="--.HNZ" depth="0.0">
			<acc value="0.0503586281254779" flag="0"/>
			<vel value="0.0307611993372175" flag="0"/>
			<psa03 value="0.100490996064638" flag="0"/>
			<psa10 value="0.0992001834037012" flag="0"/>
			<psa30 value="0.00866432831162832" flag="0"/>
		</comp>
	</station>
	<station code="ARG2" name="ARG2" netid="HI" source="ITSAK Strong Motion Network" insttype="" lat="38.1783" lon="20.4878">
		<comp name="--.HNE" depth="0.0">
			<acc value="0.104454411159565" flag="0"/>
			<vel value="0.0674060220635572" flag="0"/>
			<psa03 value="0.264515925527223" flag="0"/>
			<psa10 value="0.142125856433271" flag="0"/>
			<psa30 value="0.00823211859569582" flag="0"/>
		</comp>
		<comp name="--.HNN" depth="0.0">
			<acc value="0.106550053868907" flag="0"/>
			<vel value="0.0595107149478797" flag="0"/>
			<psa03 value="0.233196380894432" flag="0"/>
			<psa10 value="0.0930593155453434" flag="0"/>
			<psa30 value="0.00678873501019037" flag="0"/>
		</comp>
		<comp name="--.HNZ" depth="0.0">
			<acc value="0.0651862127442589" flag="0"/>
			<vel value="0.0294225374237119" flag="0"/>
			<psa03 value="0.131497345251101" flag="0"/>
			<psa10 value="0.0494893547404704" flag="0"/>
			<psa30 value="0.00927282232163682" flag="0"/>
		</comp>
	</station>
	<station code="CH01" name="CH01" netid="HI" source="ITSAK Strong Motion Network" insttype="" lat="35.517" lon="24.0208">
		<comp name="--.HNE" depth="0.0">
			<acc value="0.0377448178103159" flag="0"/>
			<vel value="0.0390079542017988" flag="0"/>
			<psa03 value="0.206037861477141" flag="0"/>
			<psa10 value="0.0513537624902538" flag="0"/>
			<psa30 value="0.011898295005997" flag="0"/>
		</comp>
		<comp name="--.HNN" depth="0.0">
			<acc value="0.0389258766458994" flag="0"/>
			<vel value="0.0352150384897419" flag="0"/>
			<psa03 value="0.211988574957372" flag="0"/>
			<psa10 value="0.0636878465887127" flag="0"/>
			<psa30 value="0.0112804051325987" flag="0"/>
		</comp>
		<comp name="--.HNZ" depth="0.0">
			<acc value="0.025822516717635" flag="0"/>
			<vel value="0.0268602474284194" flag="0"/>
			<psa03 value="0.0725718591348368" flag="0"/>
			<psa10 value="0.0595684316253685" flag="0"/>
			<psa30 value="0.0057757714523527" flag="0"/>
		</comp>
	</station>
	<station code="KLV1" name="KLV1" netid="HI" source="ITSAK Strong Motion Network" insttype="" lat="38.03256" lon="22.10797">
		<comp name="--.HNE" depth="0.0">
			<acc value="0.038222982558146" flag="0"/>
			<vel value="0.031326111232258" flag="0"/>
			<psa03 value="0.0974932682212142" flag="0"/>
			<psa10 value="0.0575630859247375" flag="0"/>
			<psa30 value="0.00411270363235154" flag="0"/>
		</comp>
		<comp name="--.HNN" depth="0.0">
			<acc value="0.0345309389656689" flag="0"/>
			<vel value="0.0403248577106257" flag="0"/>
			<psa03 value="0.0913635859145109" flag="0"/>
			<psa10 value="0.0986565655932892" flag="0"/>
			<psa30 value="0.00459323493143178" flag="0"/>
		</comp>
		<comp name="--.HNZ" depth="0.0">
			<acc value="0.0199898819833574" flag="0"/>
			<vel value="0.0196913665098479" flag="0"/>
			<psa03 value="0.0294851141614411" flag="0"/>
			<psa10 value="0.0311150727485447" flag="0"/>
			<psa30 value="0.00325991717420728" flag="0"/>
		</comp>
	</station>
	<station code="MSL1" name="MSL1" netid="HI" source="ITSAK Strong Motion Network" insttype="" lat="38.3727" lon="21.4243">
		<comp name="--.HNE" depth="0.0">
			<acc value="0.106917559598121" flag="0"/>
			<vel value="0.129034552441976" flag="0"/>
			<psa03 value="0.195389216301993" flag="0"/>
			<psa10 value="0.225955749597397" flag="0"/>
			<psa30 value="0.0221084665562866" flag="0"/>
		</comp>
		<comp name="--.HNN" depth="0.0">
			<acc value="0.151964211166009" flag="0"/>
			<vel value="0.180409392195863" flag="0"/>
			<psa03 value="0.207782807535254" flag="0"/>
			<psa10 value="0.238603923986317" flag="0"/>
			<psa30 value="0.0176780932569453" flag="0"/>
		</comp>
		<comp name="--.HNZ" depth="0.0">
			<acc value="0.0541972587989858" flag="0"/>
			<vel value="0.0610664531723462" flag="0"/>
			<psa03 value="0.0788357680613948" flag="0"/>
			<psa10 value="0.163822247266603" flag="0"/>
			<psa30 value="0.00577532403028652" flag="0"/>
		</comp>
	</station>
	<station code="VAS2" name="VAS2" netid="HI" source="ITSAK Strong Motion Network" insttype="" lat="38.630558" lon="20.608081">
		<comp name="--.HNE" depth="0.0">
			<acc value="0.161416024577086" flag="0"/>
			<vel value="0.2153328308633" flag="0"/>
			<psa03 value="0.217760319611129" flag="0"/>
			<psa10 value="0.311392335401186" flag="0"/>
			<psa30 value="0.0175085202938621" flag="0"/>
		</comp>
		<comp name="--.HNN" depth="0.0">
			<acc value="0.154803526465634" flag="0"/>
			<vel value="0.161528119291309" flag="0"/>
			<psa03 value="0.309347616558731" flag="0"/>
			<psa10 value="0.383931085303125" flag="0"/>
			<psa30 value="0.0226681915610812" flag="0"/>
		</comp>
		<comp name="--.HNZ" depth="0.0">
			<acc value="0.110535358525138" flag="0"/>
			<vel value="0.0867828580913789" flag="0"/>
			<psa03 value="0.170065127356051" flag="0"/>
			<psa10 value="0.146478825715163" flag="0"/>
			<psa30 value="0.00831310198967489" flag="0"/>
		</comp>
	</station>
	<station code="DLFA" name="DLFA" netid="HL" source="National Observatory of Athens Seismic Network" insttype="" lat="38.47836" lon="22.49583">
		<comp name="00.HNE" depth="0.0">
			<acc value="0.0162789527583243" flag="0"/>
			<vel value="0.0146275512991507" flag="0"/>
			<psa03 value="0.0317669666989729" flag="0"/>
			<psa10 value="0.0230292611684907" flag="0"/>
			<psa30 value="0.00168812345570739" flag="0"/>
		</comp>
		<comp name="00.HNN" depth="0.0">
			<acc value="0.0162219381515249" flag="0"/>
			<vel value="0.0181653541805404" flag="0"/>
			<psa03 value="0.0354358276416712" flag="0"/>
			<psa10 value="0.0337647062244788" flag="0"/>
			<psa30 value="0.00333239954892888" flag="0"/>
		</comp>
		<comp name="00.HNZ" depth="0.0">
			<acc value="0.012637111447142" flag="0"/>
			<vel value="0.0120852384424664" flag="0"/>
			<psa03 value="0.0208946104907329" flag="0"/>
			<psa10 value="0.017101813635702" flag="0"/>
			<psa30 value="0.00188588400896015" flag="0"/>
		</comp>
	</station>
	<station code="IACM" name="IACM" netid="HL" source="National Observatory of Athens Seismic Network" insttype="" lat="35.3058" lon="25.0709">
		<comp name="--.HNE" depth="0.0">
			<acc value="0.105047347425269" flag="0"/>
			<vel value="0.0835483937867291" flag="0"/>
			<psa03 value="0.389033486545873" flag="0"/>
			<psa10 value="0.192319900927979" flag="0"/>
			<psa30 value="0.00934530469635842" flag="0"/>
		</comp>
		<comp name="--.HNN" depth="0.0">
			<acc value="0.111215792731168" flag="0"/>
			<vel value="0.079638078651164" flag="0"/>
			<psa03 value="0.557935316529849" flag="0"/>
			<psa10 value="0.13855811287753" flag="0"/>
			<psa30 value="0.0155998177595266" flag="0"/>
		</comp>
		<comp name="--.HNZ" depth="0.0">
			<acc value="0.0804970219449446" flag="0"/>
			<vel value="0.0372954405474444" flag="0"/>
			<psa03 value="0.263352628155148" flag="0"/>
			<psa10 value="0.0443874009197889" flag="0"/>
			<psa30 value="0.00316193174171326" flag="0"/>
		</comp>
	</station>
	<station code="KTHA" name="KTHA" netid="HL" source="National Observatory of Athens Seismic Network" insttype="" lat="36.2566" lon="23.0621">
		<comp name="--.HNE" depth="0.0">
			<acc value="0.268781864685087" flag="0"/>
			<vel value="0.199398522266386" flag="0"/>
			<psa03 value="0.424026381333347" flag="0"/>
			<psa10 value="0.335238337894501" flag="0"/>
			<psa30 value="0.0208470260131576" flag="0"/>
		</comp>
		<comp name="--.HNN" depth="0.0">
			<acc value="0.147272157990781" flag="0"/>
			<vel value="0.108073032771704" flag="0"/>
			<psa03 value="0.322591432599078" flag="0"/>
			<psa10 value="0.229021686562601" flag="0"/>
			<psa30 value="0.0119779943166772" flag="0"/>
		</comp>
		<comp name="--.HNZ" depth="0.0">
			<acc value="0.102821157763104" flag="0"/>
			<vel value="0.0562769969356339" flag="0"/>
			<psa03 value="0.193354662964048" flag="0"/>
			<psa10 value="0.105644250913035" flag="0"/>
			<psa30 value="0.0106325235191901" flag="0"/>
		</comp>
	</station>
	<station code="MNVA" name="MNVA" netid="HL" source="National Observatory of Athens Seismic Network" insttype="" lat="36.68709" lon="23.03734">
		<comp name="00.HNE" depth="0.0">
			<acc value="0.00955716129079215" flag="0"/>
			<vel value="0.0115703676816993" flag="0"/>
			<psa03 value="0.0194181176723299" flag="0"/>
			<psa10 value="0.0208467363296514" flag="0"/>
			<psa30 value="0.00464021424838096" flag="0"/>
		</comp>
		<comp name="00.HNN" depth="0.0">
			<acc value="0.0135313211737306" flag="0"/>
			<vel value="0.0127163487856334" flag="0"/>
			<psa03 value="0.0280533635496564" flag="0"/>
			<psa10 value="0.0142266794384119" flag="0"/>
			<psa30 value="0.00458160195771103" flag="0"/>
		</comp>
		<comp name="00.HNZ" depth="0.0">
			<acc value="0.0112211512046693" flag="0"/>
			<vel value="0.010581462109206" flag="0"/>
			<psa03 value="0.0211630637304425" flag="0"/>
			<psa10 value="0.0157125681202047" flag="0"/>
			<psa30 value="0.00497220142148854" flag="0"/>
		</comp>
	</station>
	<station code="PATC" name="PATC" netid="HL" source="National Observatory of Athens Seismic Network" insttype="" lat="38.26933" lon="21.76001">
		<comp name="00.HNE" depth="0.0">
			<acc value="0.103684315327131" flag="0"/>
			<vel value="0.1021557862815" flag="0"/>
			<psa03 value="0.183622015961387" flag="0"/>
			<psa10 value="0.124283111855971" flag="0"/>
			<psa30 value="0.0322143887651557" flag="0"/>
		</comp>
		<comp name="00.HNN" depth="0.0">
			<acc value="0.0731340439332542" flag="0"/>
			<vel value="0.0822431402433223" flag="0"/>
			<psa03 value="0.158879575701483" flag="0"/>
			<psa10 value="0.148021089577295" flag="0"/>
			<psa30 value="0.0238990496651499" flag="0"/>
		</comp>
		<comp name="00.HNZ" depth="0.0">
			<acc value="0.0619033901304191" flag="0"/>
			<vel value="0.0557426907421332" flag="0"/>
			<psa03 value="0.103846661561009" flag="0"/>
			<psa10 value="0.0700300543768528" flag="0"/>
			<psa30 value="0.00924866153006295" flag="0"/>
		</comp>
	</station>
	<station code="PATG" name="PATG" netid="HL" source="National Observatory of Athens Seismic Network" insttype="" lat="38.23865" lon="21.72657">
		<comp name="00.HNE" depth="0.0">
			<acc value="0.0856057796806103" flag="0"/>
			<vel value="0.109696405549447" flag="0"/>
			<psa03 value="0.258028305567573" flag="0"/>
			<psa10 value="0.128652188332245" flag="0"/>
			<psa30 value="0.0307553454073338" flag="0"/>
		</comp>
		<comp name="00.HNN" depth="0.0">
			<acc value="0.118737885944272" flag="0"/>
			<vel value="0.0988497561360694" flag="0"/>
			<psa03 value="0.148991548038845" flag="0"/>
			<psa10 value="0.164510829826459" flag="0"/>
			<psa30 value="0.0414706564703437" flag="0"/>
		</comp>
		<comp name="00.HNZ" depth="0.0">
			<acc value="0.0561133574086232" flag="0"/>
			<vel value="0.06278568841543" flag="0"/>
			<psa03 value="0.0930637897660053" flag="0"/>
			<psa10 value="0.111349034766761" flag="0"/>
			<psa30 value="0.0169362674712144" flag="0"/>
		</comp>
	</station>
	<station code="RIOA" name="RIOA" netid="HL" source="National Observatory of Athens Seismic Network" insttype="" lat="38.29585" lon="21.79118">
		<comp name="00.HNE" depth="0.0">
			<acc value="0.0339355839494383" flag="0"/>
			<vel value="0.0347570468738472" flag="0"/>
			<psa03 value="0.0932427585924783" flag="0"/>
			<psa10 value="0.0841359298573953" flag="0"/>
			<psa30 value="0.0148745465902444" flag="0"/>
		</comp>
		<comp name="00.HNN" depth="0.0">
			<acc value="0.0491639190241589" flag="0"/>
			<vel value="0.0502946709547762" flag="0"/>
			<psa03 value="0.0962404864359026" flag="0"/>
			<psa10 value="0.075554822050077" flag="0"/>
			<psa30 value="0.0164145733420454" flag="0"/>
		</comp>
		<comp name="00.HNZ" depth="0.0">
			<acc value="0.0403449659658583" flag="0"/>
			<vel value="0.0288340611605624" flag="0"/>
			<psa03 value="0.0607599165876131" flag="0"/>
			<psa10 value="0.0374250661479196" flag="0"/>
			<psa30 value="0.010225831322606" flag="0"/>
		</comp>
	</station>
	<station code="LTHK" name="LTHK" netid="HP" source="University of Patras, Seismological Laboratory (PSLNET)" insttype="" lat="37.7095" lon="20.8367">
		<comp name="--.HNE" depth="0.0">
			<acc value="0.0996508107549708" flag="0"/>
			<vel value="0.0529352002909847" flag="0"/>
			<psa03 value="0.143622483244652" flag="0"/>
			<psa10 value="0.0735897443354025" flag="0"/>
			<psa30 value="0.00970905883616497" flag="0"/>
		</comp>
		<comp name="--.HNN" depth="0.0">
			<acc value="0.0930894739123767" flag="0"/>
			<vel value="0.0571090343950719" flag="0"/>
			<psa03 value="0.13928248920268" flag="0"/>
			<psa10 value="0.0581429449225103" flag="0"/>
			<psa30 value="0.00691848740938336" flag="0"/>
		</comp>
		<comp name="--.HNZ" depth="0.0">
			<acc value="0.0507242567059389" flag="0"/>
			<vel value="0.0309119539823331" flag="0"/>
			<psa03 value="0.132123736143756" flag="0"/>
			<psa10 value="0.0515510756214403" flag="0"/>
			<psa30 value="0.00736814658589699" flag="0"/>
		</comp>
	</station>
	<station code="PVO" name="PVO" netid="HP" source="University of Patras, Seismological Laboratory (PSLNET)" insttype="" lat="38.616" lon="21.525">
		<comp name="--.HNE" depth="0.0">
			<acc value="0.0672124663000392" flag="0"/>
			<vel value="0.0368225245099366" flag="0"/>
			<psa03 value="0.16129565485887" flag="0"/>
			<psa10 value="0.0315620473926613" flag="0"/>
			<psa30 value="0.00463618744978532" flag="0"/>
		</comp>
		<comp name="--.HNN" depth="0.0">
			<acc value="0.085435498822254" flag="0"/>
			<vel value="0.0575426124676187" flag="0"/>
			<psa03 value="0.204561368658738" flag="0"/>
			<psa10 value="0.0549094256502078" flag="0"/>
			<psa30 value="0.00903479378242761" flag="0"/>
		</comp>
		<comp name="--.HNZ" depth="0.0">
			<acc value="0.0476784077057336" flag="0"/>
			<vel value="0.0230713463449044" flag="0"/>
			<psa03 value="0.0719902104487993" flag="0"/>
			<psa10 value="0.0312076891162445" flag="0"/>
			<psa30 value="0.00520396605177119" flag="0"/>
		</comp>
	</station>
	<station code="SERG" name="SERG" netid="HP" source="University of Patras, Seismological Laboratory (PSLNET)" insttype="" lat="38.4133" lon="22.0566">
		<comp name="--.HNE" depth="0.0">
			<acc value="0.0428004564617338" flag="0"/>
			<vel value="0.0356474308735066" flag="0"/>
			<psa03 value="0.0956140955432467" flag="0"/>
			<psa10 value="0.0393901438625941" flag="0"/>
			<psa30 value="0.00401427077779134" flag="0"/>
		</comp>
		<comp name="--.HNN" depth="0.0">
			<acc value="0.0565832507325425" flag="0"/>
			<vel value="0.0382313656556619" flag="0"/>
			<psa03 value="0.0757932980113524" flag="0"/>
			<psa10 value="0.0394062510569767" flag="0"/>
			<psa30 value="0.00540888535808287" flag="0"/>
		</comp>
		<comp name="--.HNZ" depth="0.0">
			<acc value="0.0293008357018498" flag="0"/>
			<vel value="0.0222951327371057" flag="0"/>
			<psa03 value="0.0661737235884239" flag="0"/>
			<psa10 value="0.0303056862308202" flag="0"/>
			<psa30 value="0.00439457953404665" flag="0"/>
		</comp>
	</station>
	<station code="VALY" name="VALY" netid="HP" source="University of Patras, Seismological Laboratory (PSLNET)" insttype="" lat="37.1641" lon="21.9836">
		<comp name="--.HNE" depth="0.0">
			<acc value="0.0258397935355648" flag="0"/>
			<vel value="0.02386618033919" flag="0"/>
			<psa03 value="0.0450557555562195" flag="0"/>
			<psa10 value="0.0327128845680753" flag="0"/>
			<psa30 value="0.0059442283593017" flag="0"/>
		</comp>
		<comp name="--.HNN" depth="0.0">
			<acc value="0.0282749089841072" flag="0"/>
			<vel value="0.0295964027269614" flag="0"/>
			<psa03 value="0.0562425122486115" flag="0"/>
			<psa10 value="0.0385854585972773" flag="0"/>
			<psa30 value="0.0103160125518633" flag="0"/>
		</comp>
		<comp name="--.HNZ" depth="0.0">
			<acc value="0.0253077721815804" flag="0"/>
			<vel value="0.0211991405911188" flag="0"/>
			<psa03 value="0.0298787058801058" flag="0"/>
			<psa10 value="0.0453839689650462" flag="0"/>
			<psa30 value="0.00464995970365995" flag="0"/>
		</comp>
	</station>
</stationlist>
