<stationlist created="1778637326">
	<station code="ARPRA" name="ARPRA" netid="KO" source="Bogazici University Kandilli Observatory And Earthquake Research Institute (KOERI)" insttype="" lat="39.0929" lon="38.3356">
		<comp name="--.HNE" depth="0.0">
			<acc value="0.0794091110443934" flag="0"/>
			<vel value="0.032245755824509" flag="0"/>
			<psa03 value="0.171774337540363" flag="0"/>
			<psa10 value="0.0377696595545996" flag="0"/>
			<psa30 value="0.00245020002205893" flag="0"/>
		</comp>
		<comp name="--.HNN" depth="0.0">
			<acc value="0.0598947559550962" flag="0"/>
			<vel value="0.0378628234615629" flag="0"/>
			<psa03 value="0.188276534896349" flag="0"/>
			<psa10 value="0.0462648460690786" flag="0"/>
			<psa30 value="0.00245655044274442" flag="0"/>
		</comp>
		<comp name="--.HNZ" depth="0.0">
			<acc value="0.0322087896023483" flag="0"/>
			<vel value="0.0234481913600286" flag="0"/>
			<psa03 value="0.0842736973021047" flag="0"/>
			<psa10 value="0.0261178195523653" flag="0"/>
			<psa30 value="0.0015226113863651" flag="0"/>
		</comp>
	</station>
	<station code="KHMN" name="KHMN" netid="KO" source="Bogazici University Kandilli Observatory And Earthquake Research Institute (KOERI)" insttype="" lat="37.3916" lon="37.1574">
		<comp name="--.HNE" depth="0.0">
			<acc value="0.0526094923964405" flag="0"/>
			<vel value="0.016702719920605" flag="0"/>
			<psa03 value="0.0688741459072733" flag="0"/>
			<psa10 value="0.0152760153985517" flag="0"/>
			<psa30 value="0.00253945885168471" flag="0"/>
		</comp>
		<comp name="--.HNN" depth="0.0">
			<acc value="0.0413922720191994" flag="0"/>
			<vel value="0.0178794492766604" flag="0"/>
			<psa03 value="0.0847992060730637" flag="0"/>
			<psa10 value="0.0229823005896313" flag="0"/>
			<psa30 value="0.00213188851881783" flag="0"/>
		</comp>
		<comp name="--.HNZ" depth="0.0">
			<acc value="0.0283569660241918" flag="0"/>
			<vel value="0.0104546841283503" flag="0"/>
			<psa03 value="0.0405641012351479" flag="0"/>
			<psa10 value="0.0110502176476857" flag="0"/>
			<psa30 value="0.00132776722889472" flag="0"/>
		</comp>
	</station>
	<station code="RFHY" name="RFHY" netid="KO" source="Bogazici University Kandilli Observatory And Earthquake Research Institute (KOERI)" insttype="" lat="39.927" lon="38.833">
		<comp name="--.HNE" depth="0.0">
			<acc value="0.00106736427586612" flag="0"/>
			<vel value="0.00075967830661317" flag="0"/>
			<psa03 value="0.00161583002258167" flag="0"/>
			<psa10 value="0.00113364994249573" flag="0"/>
			<psa30 value="0.000481116611195515" flag="0"/>
		</comp>
		<comp name="--.HNN" depth="0.0">
			<acc value="0.00702994118195" flag="0"/>
			<vel value="0.00834806149439656" flag="0"/>
			<psa03 value="0.0267958610317977" flag="0"/>
			<psa10 value="0.01970529412902" flag="0"/>
			<psa30 value="0.00165014014702058" flag="0"/>
		</comp>
		<comp name="--.HNZ" depth="0.0">
			<acc value="0.00515812349097197" flag="0"/>
			<vel value="0.0055155755135654" flag="0"/>
			<psa03 value="0.0119568767197982" flag="0"/>
			<psa10 value="0.0109962646985664" flag="0"/>
			<psa30 value="0.000879196784136561" flag="0"/>
		</comp>
	</station>
	<station code="TUNC" name="TUNC" netid="KO" source="Bogazici University Kandilli Observatory And Earthquake Research Institute (KOERI)" insttype="" lat="39.6942" lon="37.5388">
		<comp name="--.HNE" depth="0.0">
			<acc value="0.0283486985873268" flag="0"/>
			<vel value="0.0240572291522148" flag="0"/>
			<psa03 value="0.0836891533706954" flag="0"/>
			<psa10 value="0.0276089764592041" flag="0"/>
			<psa30 value="0.0022650050454665" flag="0"/>
		</comp>
		<comp name="--.HNN" depth="0.0">
			<acc value="0.0246829378109353" flag="0"/>
			<vel value="0.0182182288429745" flag="0"/>
			<psa03 value="0.0717571441836107" flag="0"/>
			<psa10 value="0.0242462843223567" flag="0"/>
			<psa30 value="0.00144076523529269" flag="0"/>
		</comp>
		<comp name="--.HNZ" depth="0.0">
			<acc value="0.0131507120278667" flag="0"/>
			<vel value="0.0101126225079991" flag="0"/>
			<psa03 value="0.0469515061402965" flag="0"/>
			<psa10 value="0.0150367926762239" flag="0"/>
			<psa30 value="0.00126566634418288" flag="0"/>
		</comp>
	</station>
</stationlist>
