<?xml version="1.0" encoding="UTF-8" standalone="yes"?>
<!DOCTYPE earthquake SYSTEM "stationlist.dtd">
<stationlist created="" xmlns="ch.ethz.sed.shakemap.usgs.xml">
  <station code="ARPRA" name="ARPRA" netid="KO" insttype="CMG-5T" lat="39.0929" lon="38.3356">
    <comp name="--.HNZ">
      <acc value="0.0320773243" flag="0"/>
      <vel value="0.0232634652" flag="0"/>
      <psa03 value="0.0848613062" flag="0"/>
      <psa10 value="0.0261455869" flag="0"/>
      <psa30 value="0.0013799693" flag="0"/>
    </comp>
    <comp name="--.HNE">
      <acc value="0.0796846015" flag="0"/>
      <vel value="0.0319852462" flag="0"/>
      <psa03 value="0.1709945594" flag="0"/>
      <psa10 value="0.0376958020" flag="0"/>
      <psa30 value="0.0021554334" flag="0"/>
    </comp>
    <comp name="--.HNN">
      <acc value="0.0598288861" flag="0"/>
      <vel value="0.0382707171" flag="0"/>
      <psa03 value="0.1863607816" flag="0"/>
      <psa10 value="0.0463332392" flag="0"/>
      <psa30 value="0.0021905031" flag="0"/>
    </comp>
  </station>
  <station code="DARE" name="DARE" netid="KO" insttype="CMG-3ESP" lat="38.5712" lon="37.4832">
    <comp name="--.HHN">
      <acc value="0.0264710130" flag="0"/>
      <vel value="0.0207703595" flag="0"/>
      <psa03 value="0.0492921634" flag="0"/>
      <psa10 value="0.0300447009" flag="0"/>
      <psa30 value="0.0017314120" flag="0"/>
    </comp>
    <comp name="--.HHE">
      <acc value="0.0260353102" flag="0"/>
      <vel value="0.0142683744" flag="0"/>
      <psa03 value="0.0765842908" flag="0"/>
      <psa10 value="0.0217522864" flag="0"/>
      <psa30 value="0.0017562190" flag="0"/>
    </comp>
    <comp name="--.HHZ">
      <acc value="0.0256711820" flag="0"/>
      <vel value="0.0154864831" flag="0"/>
      <psa03 value="0.0772653022" flag="0"/>
      <psa10 value="0.0132542419" flag="0"/>
      <psa30 value="0.0014607366" flag="0"/>
    </comp>
  </station>
  <station code="GAZ" name="GAZ" netid="KO" insttype="CMG-3T" lat="37.1721" lon="37.2096">
    <comp name="--.HHN">
      <acc value="0.0178922781" flag="0"/>
      <vel value="0.0165958882" flag="0"/>
      <psa03 value="0.0571639936" flag="0"/>
      <psa10 value="0.0216725244" flag="0"/>
      <psa30 value="0.0019493710" flag="0"/>
    </comp>
    <comp name="--.HHE">
      <acc value="0.0295025016" flag="0"/>
      <vel value="0.0203249866" flag="0"/>
      <psa03 value="0.0788319623" flag="0"/>
      <psa10 value="0.0231595153" flag="0"/>
      <psa30 value="0.0013478745" flag="0"/>
    </comp>
    <comp name="--.HHZ">
      <acc value="0.0165800172" flag="0"/>
      <vel value="0.0093760227" flag="0"/>
      <psa03 value="0.0465637381" flag="0"/>
      <psa10 value="0.0103761947" flag="0"/>
      <psa30 value="0.0010911549" flag="0"/>
    </comp>
  </station>
  <station code="KMRS" name="KMRS" netid="KO" insttype="CMG-3T" lat="37.5087" lon="36.9">
    <comp name="--.HHE">
      <acc value="0.0277310541" flag="0"/>
      <vel value="0.0155808034" flag="0"/>
      <psa03 value="0.0575293831" flag="0"/>
      <psa10 value="0.0244908876" flag="0"/>
      <psa30 value="0.0017240263" flag="0"/>
    </comp>
    <comp name="--.HHN">
      <acc value="0.0273703128" flag="0"/>
      <vel value="0.0262053486" flag="0"/>
      <psa03 value="0.0548515632" flag="0"/>
      <psa10 value="0.0361412848" flag="0"/>
      <psa30 value="0.0023795807" flag="0"/>
    </comp>
    <comp name="--.HHZ">
      <acc value="0.0328369198" flag="0"/>
      <vel value="0.0191763561" flag="0"/>
      <psa03 value="0.0665874425" flag="0"/>
      <psa10 value="0.0163875586" flag="0"/>
      <psa30 value="0.0016979811" flag="0"/>
    </comp>
  </station>
  <station code="SARI" name="SARI" netid="KO" insttype="CMG-3T" lat="38.4072" lon="36.4181">
    <comp name="--.HHN">
      <acc value="0.0199891170" flag="0"/>
      <vel value="0.0170547918" flag="0"/>
      <psa03 value="0.0448645771" flag="0"/>
      <psa10 value="0.0162016290" flag="0"/>
      <psa30 value="0.0011636313" flag="0"/>
    </comp>
    <comp name="--.HHE">
      <acc value="0.0198273573" flag="0"/>
      <vel value="0.0217708034" flag="0"/>
      <psa03 value="0.0376835675" flag="0"/>
      <psa10 value="0.0277567557" flag="0"/>
      <psa30 value="0.0014575060" flag="0"/>
    </comp>
    <comp name="--.HHZ">
      <acc value="0.0136557474" flag="0"/>
      <vel value="0.0164032364" flag="0"/>
      <psa03 value="0.0352594308" flag="0"/>
      <psa10 value="0.0290304534" flag="0"/>
      <psa30 value="0.0020157485" flag="0"/>
    </comp>
  </station>
  <station code="SVRC" name="SVRC" netid="KO" insttype="CMG-3T" lat="38.3775" lon="39.306">
    <comp name="--.HHN">
      <acc value="0.0721139884" flag="0"/>
      <vel value="0.0302498999" flag="0"/>
      <psa03 value="0.2093875280" flag="0"/>
      <psa10 value="0.0220716125" flag="0"/>
      <psa30 value="0.0013770583" flag="0"/>
    </comp>
    <comp name="--.HHE">
      <acc value="0.0890617279" flag="0"/>
      <vel value="0.0500378574" flag="0"/>
      <psa03 value="0.2994065798" flag="0"/>
      <psa10 value="0.0347975404" flag="0"/>
      <psa30 value="0.0022056558" flag="0"/>
    </comp>
  </station>
  <station code="URFA" name="URFA" netid="KO" insttype="CMG-3ESP" lat="37.4409" lon="38.8213">
    <comp name="--.HHE">
      <acc value="0.1202093903" flag="0"/>
      <vel value="0.0530573892" flag="0"/>
      <psa03 value="0.2555026376" flag="0"/>
      <psa10 value="0.0386866666" flag="0"/>
      <psa30 value="0.0034226322" flag="0"/>
    </comp>
    <comp name="--.HHN">
      <acc value="0.1133829508" flag="0"/>
      <vel value="0.0354015504" flag="0"/>
      <psa03 value="0.2098154392" flag="0"/>
      <psa10 value="0.0280669716" flag="0"/>
      <psa30 value="0.0025106507" flag="0"/>
    </comp>
    <comp name="--.HHZ">
      <acc value="0.0717777194" flag="0"/>
      <vel value="0.0255824041" flag="0"/>
      <psa03 value="0.1110484184" flag="0"/>
      <psa10 value="0.0201761897" flag="0"/>
      <psa30 value="0.0021627927" flag="0"/>
    </comp>
  </station>
</stationlist>
