<?xml version="1.0" encoding="UTF-8" standalone="yes"?>
<!DOCTYPE earthquake SYSTEM "stationlist.dtd">
<stationlist created="" xmlns="ch.ethz.sed.shakemap.usgs.xml">
  <station code="ARPRA" name="ARPRA" netid="KO" insttype="CMG-5T" lat="39.0929" lon="38.3356">
    <comp name="--.HNN">
      <acc value="0.0598288826" flag="0"/>
      <vel value="0.0382707327" flag="0"/>
      <psa03 value="0.1863607816" flag="0"/>
      <psa10 value="0.0463332392" flag="0"/>
      <psa30 value="0.0021905521" flag="0"/>
    </comp>
    <comp name="--.HNE">
      <acc value="0.0796846014" flag="0"/>
      <vel value="0.0319852435" flag="0"/>
      <psa03 value="0.1709945594" flag="0"/>
      <psa10 value="0.0376958016" flag="0"/>
      <psa30 value="0.0021554453" flag="0"/>
    </comp>
    <comp name="--.HNZ">
      <acc value="0.0320773258" flag="0"/>
      <vel value="0.0232634625" flag="0"/>
      <psa03 value="0.0848613062" flag="0"/>
      <psa10 value="0.0261455868" flag="0"/>
      <psa30 value="0.0013799673" flag="0"/>
    </comp>
  </station>
  <station code="KMRS" name="KMRS" netid="KO" insttype="CMG-3T" lat="37.5087" lon="36.9">
    <comp name="--.HHE">
      <acc value="0.0277310545" flag="0"/>
      <vel value="0.0155808027" flag="0"/>
      <psa03 value="0.0575293831" flag="0"/>
      <psa10 value="0.0244908876" flag="0"/>
      <psa30 value="0.0017239955" flag="0"/>
    </comp>
    <comp name="--.HHZ">
      <acc value="0.0328369199" flag="0"/>
      <vel value="0.0191763569" flag="0"/>
      <psa03 value="0.0665874425" flag="0"/>
      <psa10 value="0.0163875653" flag="0"/>
      <psa30 value="0.0016979838" flag="0"/>
    </comp>
    <comp name="--.HHN">
      <acc value="0.0273703129" flag="0"/>
      <vel value="0.0262053504" flag="0"/>
      <psa03 value="0.0548515632" flag="0"/>
      <psa10 value="0.0361412848" flag="0"/>
      <psa30 value="0.0023796227" flag="0"/>
    </comp>
  </station>
  <station code="SINE" name="SINE" netid="KO" insttype="CMG-6T" lat="39.1636" lon="39.3871">
    <comp name="--.HHE">
      <acc value="0.0153662346" flag="0"/>
      <vel value="0.0087057621" flag="0"/>
      <psa03 value="0.0623925314" flag="0"/>
      <psa10 value="0.0105594484" flag="0"/>
      <psa30 value="0.0004321284" flag="0"/>
    </comp>
    <comp name="--.HHZ">
      <acc value="0.0154000840" flag="0"/>
      <vel value="0.0096636069" flag="0"/>
      <psa03 value="0.0301359120" flag="0"/>
      <psa10 value="0.0118787638" flag="0"/>
      <psa30 value="0.0004704595" flag="0"/>
    </comp>
    <comp name="--.HHN">
      <acc value="0.0154892624" flag="0"/>
      <vel value="0.0085422469" flag="0"/>
      <psa03 value="0.0514239767" flag="0"/>
      <psa10 value="0.0071083614" flag="0"/>
      <psa30 value="0.0003982896" flag="0"/>
    </comp>
  </station>
  <station code="SVRC" name="SVRC" netid="KO" insttype="CMG-3T" lat="38.3775" lon="39.306">
    <comp name="--.HHE">
      <acc value="0.0890617278" flag="0"/>
      <vel value="0.0500378578" flag="0"/>
      <psa03 value="0.2994065798" flag="0"/>
      <psa10 value="0.0347975405" flag="0"/>
      <psa30 value="0.0022056177" flag="0"/>
    </comp>
    <comp name="--.HHN">
      <acc value="0.0721139883" flag="0"/>
      <vel value="0.0302498991" flag="0"/>
      <psa03 value="0.2093875280" flag="0"/>
      <psa10 value="0.0220716125" flag="0"/>
      <psa30 value="0.0013769661" flag="0"/>
    </comp>
  </station>
  <station code="URFA" name="URFA" netid="KO" insttype="CMG-3ESP" lat="37.4409" lon="38.8213">
    <comp name="--.HHZ">
      <acc value="0.0717777193" flag="0"/>
      <vel value="0.0255824089" flag="0"/>
      <psa03 value="0.1110484184" flag="0"/>
      <psa10 value="0.0201761897" flag="0"/>
      <psa30 value="0.0021628050" flag="0"/>
    </comp>
    <comp name="--.HHE">
      <acc value="0.1202093904" flag="0"/>
      <vel value="0.0530573870" flag="0"/>
      <psa03 value="0.2555026376" flag="0"/>
      <psa10 value="0.0386866666" flag="0"/>
      <psa30 value="0.0034225976" flag="0"/>
    </comp>
  </station>
</stationlist>
