<?xml version="1.0" encoding="UTF-8" standalone="yes"?>
<!DOCTYPE earthquake SYSTEM "stationlist.dtd">
<stationlist created="" xmlns="ch.ethz.sed.shakemap.usgs.xml">
  <station code="CEYT" name="CEYT" netid="KO" insttype="CMG-3ESP" lat="37.0105" lon="35.7478">
    <comp name="--.HHZ">
      <acc value="0.0056190485" flag="0"/>
      <vel value="0.0026669985" flag="0"/>
      <psa03 value="0.0136040632" flag="0"/>
      <psa10 value="0.0033155556" flag="0"/>
      <psa30 value="0.0002511114" flag="0"/>
    </comp>
    <comp name="--.HHN">
      <acc value="0.0104916339" flag="0"/>
      <vel value="0.0063600042" flag="0"/>
      <psa03 value="0.0252245784" flag="0"/>
      <psa10 value="0.0079182836" flag="0"/>
      <psa30 value="0.0004249541" flag="0"/>
    </comp>
    <comp name="--.HHE">
      <acc value="0.0112282224" flag="0"/>
      <vel value="0.0062718591" flag="0"/>
      <psa03 value="0.0283333724" flag="0"/>
      <psa10 value="0.0045460069" flag="0"/>
      <psa30 value="0.0003378392" flag="0"/>
    </comp>
  </station>
  <station code="GAZ" name="GAZ" netid="KO" insttype="CMG-3T" lat="37.1721" lon="37.2096">
    <comp name="--.HHE">
      <acc value="0.0860456183" flag="0"/>
      <vel value="0.0372042852" flag="0"/>
      <psa03 value="0.1861095035" flag="0"/>
      <psa10 value="0.0440862691" flag="0"/>
      <psa30 value="0.0021187024" flag="0"/>
    </comp>
    <comp name="--.HHZ">
      <acc value="0.0783420528" flag="0"/>
      <vel value="0.0323572223" flag="0"/>
      <psa03 value="0.2279032650" flag="0"/>
      <psa10 value="0.0305869065" flag="0"/>
      <psa30 value="0.0017048144" flag="0"/>
    </comp>
    <comp name="--.HHN">
      <acc value="0.0931844029" flag="0"/>
      <vel value="0.0307079984" flag="0"/>
      <psa03 value="0.1454833329" flag="0"/>
      <psa10 value="0.0477111365" flag="0"/>
      <psa30 value="0.0027361583" flag="0"/>
    </comp>
  </station>
</stationlist>
