<?xml version="1.0" encoding="UTF-8" standalone="yes"?>
<!DOCTYPE earthquake SYSTEM "stationlist.dtd">
<stationlist created="" xmlns="ch.ethz.sed.shakemap.usgs.xml">
  <station code="APE" name="APE" netid="GE" insttype="STS-2/N" lat="37.0727" lon="25.523">
    <comp name="--.HHE">
      <acc value="0.7078774511" flag="0"/>
      <vel value="0.1439426969" flag="0"/>
      <psa03 value="0.7409371053" flag="0"/>
      <psa10 value="0.0704737837" flag="0"/>
      <psa30 value="0.0553259970" flag="0"/>
    </comp>
    <comp name="--.HHZ">
      <acc value="0.3728248780" flag="0"/>
      <vel value="0.1586206425" flag="0"/>
      <psa03 value="0.4702274352" flag="0"/>
      <psa10 value="0.0713210674" flag="0"/>
      <psa30 value="0.0574786659" flag="0"/>
    </comp>
    <comp name="--.HHN">
      <acc value="1.0246911418" flag="0"/>
      <vel value="0.2479521332" flag="0"/>
      <psa03 value="0.9899838348" flag="0"/>
      <psa10 value="0.0844415977" flag="0"/>
      <psa30 value="0.0499247496" flag="0"/>
    </comp>
  </station>
  <station code="THERA" name="THERA" netid="GE" insttype="STS-2/N" lat="36.367" lon="25.4753">
    <comp name="--.HHE">
      <acc value="0.5356264683" flag="0"/>
      <vel value="0.1662861582" flag="0"/>
      <psa03 value="0.7325035479" flag="0"/>
      <psa10 value="0.0865959927" flag="0"/>
      <psa30 value="0.0202617584" flag="0"/>
    </comp>
    <comp name="--.HHZ">
      <acc value="0.4057666012" flag="0"/>
      <vel value="0.0986665542" flag="0"/>
      <psa03 value="0.4147722766" flag="0"/>
      <psa10 value="0.0634237577" flag="0"/>
      <psa30 value="0.0114750306" flag="0"/>
    </comp>
    <comp name="--.HHN">
      <acc value="0.2708373661" flag="0"/>
      <vel value="0.0994568490" flag="0"/>
      <psa03 value="0.6892834631" flag="0"/>
      <psa10 value="0.0510191713" flag="0"/>
      <psa30 value="0.0083981417" flag="0"/>
    </comp>
  </station>
  <station code="IDI" name="IDI" netid="MN" insttype="" lat="35.288" lon="24.89">
    <comp name="--.HHE">
      <acc value="0.0499234037" flag="0"/>
      <vel value="0.0186693031" flag="0"/>
      <psa03 value="0.1086790104" flag="0"/>
      <psa10 value="0.0177366734" flag="0"/>
      <psa30 value="0.0023829321" flag="0"/>
    </comp>
    <comp name="--.HHZ">
      <acc value="0.0286996071" flag="0"/>
      <vel value="0.0143976832" flag="0"/>
      <psa03 value="0.0641419170" flag="0"/>
      <psa10 value="0.0149825782" flag="0"/>
      <psa30 value="0.0014821603" flag="0"/>
    </comp>
    <comp name="--.HHN">
      <acc value="0.0372572324" flag="0"/>
      <vel value="0.0202110930" flag="0"/>
      <psa03 value="0.0871735979" flag="0"/>
      <psa10 value="0.0194880458" flag="0"/>
      <psa30 value="0.0026030362" flag="0"/>
    </comp>
  </station>
</stationlist>
