<?xml version="1.0" encoding="UTF-8" standalone="yes"?>
<!DOCTYPE earthquake SYSTEM "stationlist.dtd">
<stationlist created="" xmlns="ch.ethz.sed.shakemap.usgs.xml">
  <station code="DARE" name="DARE" netid="KO" insttype="CMG-3ESP" lat="38.5712" lon="37.4832">
    <comp name="--.HHE">
      <acc value="0.0238728515" flag="0"/>
      <vel value="0.0068362747" flag="0"/>
      <psa03 value="0.0314567310" flag="0"/>
      <psa10 value="0.0061852956" flag="0"/>
      <psa30 value="0.0004773622" flag="0"/>
    </comp>
    <comp name="--.HHZ">
      <acc value="0.0151952494" flag="0"/>
      <vel value="0.0046582999" flag="0"/>
      <psa03 value="0.0196931996" flag="0"/>
      <psa10 value="0.0075553356" flag="0"/>
      <psa30 value="0.0006111441" flag="0"/>
    </comp>
    <comp name="--.HHN">
      <acc value="0.0165386500" flag="0"/>
      <vel value="0.0058054914" flag="0"/>
      <psa03 value="0.0276197382" flag="0"/>
      <psa10 value="0.0062296085" flag="0"/>
      <psa30 value="0.0003951966" flag="0"/>
    </comp>
  </station>
  <station code="GAZ" name="GAZ" netid="KO" insttype="CMG-3T" lat="37.1721" lon="37.2096">
    <comp name="--.HHE">
      <acc value="0.0464509487" flag="0"/>
      <vel value="0.0117595187" flag="0"/>
      <psa03 value="0.0630418775" flag="0"/>
      <psa10 value="0.0093321667" flag="0"/>
      <psa30 value="0.0013862522" flag="0"/>
    </comp>
    <comp name="--.HHN">
      <acc value="0.0206956549" flag="0"/>
      <vel value="0.0083240131" flag="0"/>
      <psa03 value="0.0623531017" flag="0"/>
      <psa10 value="0.0081008511" flag="0"/>
      <psa30 value="0.0006086338" flag="0"/>
    </comp>
    <comp name="--.HHZ">
      <acc value="0.0201323772" flag="0"/>
      <vel value="0.0062151210" flag="0"/>
      <psa03 value="0.0388726752" flag="0"/>
      <psa10 value="0.0050097974" flag="0"/>
      <psa30 value="0.0006114894" flag="0"/>
    </comp>
  </station>
  <station code="KMRS" name="KMRS" netid="KO" insttype="CMG-3T" lat="37.5053" lon="36.9">
    <comp name="--.HHE">
      <acc value="0.0218270894" flag="0"/>
      <vel value="0.0114502039" flag="0"/>
      <psa03 value="0.0456413129" flag="0"/>
      <psa10 value="0.0077362934" flag="0"/>
      <psa30 value="0.0005173387" flag="0"/>
    </comp>
    <comp name="--.HHZ">
      <acc value="0.0133953456" flag="0"/>
      <vel value="0.0049872871" flag="0"/>
      <psa03 value="0.0332972883" flag="0"/>
      <psa10 value="0.0049281289" flag="0"/>
      <psa30 value="0.0003768115" flag="0"/>
    </comp>
    <comp name="--.HHN">
      <acc value="0.0259246803" flag="0"/>
      <vel value="0.0148086654" flag="0"/>
      <psa03 value="0.0722712849" flag="0"/>
      <psa10 value="0.0142353387" flag="0"/>
      <psa30 value="0.0007150170" flag="0"/>
    </comp>
  </station>
  <station code="ANDN" name="ANDN" netid="TU" insttype="T" lat="37.58" lon="36.3452">
    <comp name="--.HHZ">
      <acc value="0.0350364402" flag="0"/>
      <vel value="0.0206377176" flag="0"/>
      <psa03 value="0.0851682450" flag="0"/>
      <psa10 value="0.0157688486" flag="0"/>
      <psa30 value="0.0008957355" flag="0"/>
    </comp>
    <comp name="--.HHN">
      <acc value="0.0890298018" flag="0"/>
      <vel value="0.0273210385" flag="0"/>
      <psa03 value="0.1055599364" flag="0"/>
      <psa10 value="0.0281897208" flag="0"/>
      <psa30 value="0.0019770193" flag="0"/>
    </comp>
    <comp name="--.HHE">
      <acc value="0.0637019967" flag="0"/>
      <vel value="0.0213044357" flag="0"/>
      <psa03 value="0.1012110530" flag="0"/>
      <psa10 value="0.0185960827" flag="0"/>
      <psa30 value="0.0013393480" flag="0"/>
    </comp>
  </station>
</stationlist>
