<?xml version="1.0" encoding="UTF-8" standalone="yes"?>
<!DOCTYPE earthquake SYSTEM "stationlist.dtd">
<stationlist created="" xmlns="ch.ethz.sed.shakemap.usgs.xml">
  <station code="AKDM" name="AKDM" netid="KO" insttype="CMG-3ESP" lat="38.3285" lon="42.98">
    <comp name="--.HHE">
      <acc value="0.0026567634" flag="0"/>
      <vel value="0.0029134290" flag="0"/>
      <psa03 value="0.0057109191" flag="0"/>
      <psa10 value="0.0043278613" flag="0"/>
      <psa30 value="0.0008341429" flag="0"/>
    </comp>
    <comp name="--.HHZ">
      <acc value="0.0020896273" flag="0"/>
      <vel value="0.0019147453" flag="0"/>
      <psa03 value="0.0061658783" flag="0"/>
      <psa10 value="0.0026020081" flag="0"/>
      <psa30 value="0.0004582382" flag="0"/>
    </comp>
    <comp name="--.HHN">
      <acc value="0.0026017159" flag="0"/>
      <vel value="0.0028785608" flag="0"/>
      <psa03 value="0.0054685393" flag="0"/>
      <psa10 value="0.0058088731" flag="0"/>
      <psa30 value="0.0004821601" flag="0"/>
    </comp>
  </station>
  <station code="MLAZ" name="MLAZ" netid="KO" insttype="CMG-3T" lat="39.141" lon="42.5496">
    <comp name="--.HHZ">
      <acc value="0.0057294218" flag="0"/>
      <vel value="0.0018625127" flag="0"/>
      <psa03 value="0.0091227497" flag="0"/>
      <psa10 value="0.0020844886" flag="0"/>
      <psa30 value="0.0001532147" flag="0"/>
    </comp>
  </station>
  <station code="VANB" name="VANB" netid="KO" insttype="CMG-3T" lat="38.509" lon="43.4056">
    <comp name="--.HHZ">
      <acc value="0.0064875918" flag="0"/>
      <vel value="0.0078680753" flag="0"/>
      <psa03 value="0.0124586579" flag="0"/>
      <psa10 value="0.0141436730" flag="0"/>
      <psa30 value="0.0018802150" flag="0"/>
    </comp>
    <comp name="--.HHE">
      <acc value="0.0081274525" flag="0"/>
      <vel value="0.0134050311" flag="0"/>
      <psa03 value="0.0196623423" flag="0"/>
      <psa10 value="0.0214055504" flag="0"/>
      <psa30 value="0.0022807164" flag="0"/>
    </comp>
    <comp name="--.HHN">
      <acc value="0.0080717257" flag="0"/>
      <vel value="0.0102448497" flag="0"/>
      <psa03 value="0.0150935043" flag="0"/>
      <psa10 value="0.0159839330" flag="0"/>
      <psa30 value="0.0016212130" flag="0"/>
    </comp>
  </station>
</stationlist>
