<?xml version="1.0" encoding="UTF-8" standalone="yes"?>
<!DOCTYPE earthquake SYSTEM "stationlist.dtd">
<stationlist created="" xmlns="ch.ethz.sed.shakemap.usgs.xml">
  <station code="KMRS" name="KMRS" netid="KO" insttype="CMG-3T" lat="37.5053" lon="36.9">
    <comp name="--.HHN">
      <acc value="0.0378013856" flag="0"/>
      <vel value="0.0170680491" flag="0"/>
      <psa03 value="0.0651560710" flag="0"/>
      <psa10 value="0.0134505443" flag="0"/>
      <psa30 value="0.0010271435" flag="0"/>
    </comp>
    <comp name="--.HHE">
      <acc value="0.0189435760" flag="0"/>
      <vel value="0.0099393399" flag="0"/>
      <psa03 value="0.0504704075" flag="0"/>
      <psa10 value="0.0077042671" flag="0"/>
      <psa30 value="0.0012188716" flag="0"/>
    </comp>
    <comp name="--.HHZ">
      <acc value="0.0141100267" flag="0"/>
      <vel value="0.0075929287" flag="0"/>
      <psa03 value="0.0310245256" flag="0"/>
      <psa10 value="0.0062470450" flag="0"/>
      <psa30 value="0.0008311652" flag="0"/>
    </comp>
  </station>
  <station code="SARI" name="SARI" netid="KO" insttype="CMG-3T" lat="38.4072" lon="36.4181">
    <comp name="--.HHE">
      <acc value="0.0182565065" flag="0"/>
      <vel value="0.0073230791" flag="0"/>
      <psa03 value="0.0544981276" flag="0"/>
      <psa10 value="0.0072140221" flag="0"/>
      <psa30 value="0.0006370088" flag="0"/>
    </comp>
    <comp name="--.HHZ">
      <acc value="0.0085945373" flag="0"/>
      <vel value="0.0040321228" flag="0"/>
      <psa03 value="0.0216827180" flag="0"/>
      <psa10 value="0.0051327922" flag="0"/>
      <psa30 value="0.0005080225" flag="0"/>
    </comp>
  </station>
  <station code="URFA" name="URFA" netid="KO" insttype="CMG-3ESP" lat="37.4409" lon="38.8213">
    <comp name="--.HHE">
      <acc value="0.0413444957" flag="0"/>
      <vel value="0.0171589863" flag="0"/>
      <psa03 value="0.0637743734" flag="0"/>
      <psa10 value="0.0159729725" flag="0"/>
      <psa30 value="0.0013008780" flag="0"/>
    </comp>
  </station>
  <station code="ANDN" name="ANDN" netid="TU" insttype="T" lat="37.58" lon="36.3452">
    <comp name="--.HHN">
      <acc value="0.0843129393" flag="0"/>
      <vel value="0.0263683812" flag="0"/>
      <psa03 value="0.2015571730" flag="0"/>
      <psa10 value="0.0254138388" flag="0"/>
      <psa30 value="0.0015139143" flag="0"/>
    </comp>
    <comp name="--.HHE">
      <acc value="0.0536242991" flag="0"/>
      <vel value="0.0229965379" flag="0"/>
      <psa03 value="0.0897394926" flag="0"/>
      <psa10 value="0.0207626081" flag="0"/>
      <psa30 value="0.0016748988" flag="0"/>
    </comp>
    <comp name="--.HHZ">
      <acc value="0.0260863498" flag="0"/>
      <vel value="0.0129382863" flag="0"/>
      <psa03 value="0.0821304492" flag="0"/>
      <psa10 value="0.0163886114" flag="0"/>
      <psa30 value="0.0013269361" flag="0"/>
    </comp>
  </station>
</stationlist>
