<?xml version="1.0" encoding="UTF-8" standalone="yes"?>
<!DOCTYPE earthquake SYSTEM "stationlist.dtd">
<stationlist created="" xmlns="ch.ethz.sed.shakemap.usgs.xml">
  <station code="GAZ" name="GAZ" netid="KO" insttype="CMG-3T" lat="37.1721" lon="37.2096">
    <comp name="--.HHZ">
      <acc value="0.0067837825" flag="0"/>
      <vel value="0.0034323397" flag="0"/>
      <psa03 value="0.0187329164" flag="0"/>
      <psa10 value="0.0034437486" flag="0"/>
      <psa30 value="0.0002039212" flag="0"/>
    </comp>
    <comp name="--.HHE">
      <acc value="0.0137619928" flag="0"/>
      <vel value="0.0070068370" flag="0"/>
      <psa03 value="0.0258749895" flag="0"/>
      <psa10 value="0.0078948090" flag="0"/>
      <psa30 value="0.0006289657" flag="0"/>
    </comp>
    <comp name="--.HHN">
      <acc value="0.0114677421" flag="0"/>
      <vel value="0.0059103828" flag="0"/>
      <psa03 value="0.0366633009" flag="0"/>
      <psa10 value="0.0054999793" flag="0"/>
      <psa30 value="0.0003709365" flag="0"/>
    </comp>
  </station>
  <station code="KMRS" name="KMRS" netid="KO" insttype="CMG-3T" lat="37.5053" lon="36.9">
    <comp name="--.HHN">
      <acc value="0.0317323998" flag="0"/>
      <vel value="0.0142698601" flag="0"/>
      <psa03 value="0.0668637823" flag="0"/>
      <psa10 value="0.0060298841" flag="0"/>
      <psa30 value="0.0004370557" flag="0"/>
    </comp>
    <comp name="--.HHE">
      <acc value="0.0186295010" flag="0"/>
      <vel value="0.0102241077" flag="0"/>
      <psa03 value="0.0589697030" flag="0"/>
      <psa10 value="0.0078929438" flag="0"/>
      <psa30 value="0.0006283377" flag="0"/>
    </comp>
    <comp name="--.HHZ">
      <acc value="0.0151914621" flag="0"/>
      <vel value="0.0082174596" flag="0"/>
      <psa03 value="0.0473335038" flag="0"/>
      <psa10 value="0.0041237037" flag="0"/>
      <psa30 value="0.0003071473" flag="0"/>
    </comp>
  </station>
  <station code="SARI" name="SARI" netid="KO" insttype="CMG-3T" lat="38.4072" lon="36.4181">
    <comp name="--.HHE">
      <acc value="0.1600344571" flag="0"/>
      <vel value="0.0359843444" flag="0"/>
      <psa03 value="0.1105016541" flag="0"/>
      <psa10 value="0.0170470826" flag="0"/>
      <psa30 value="0.0012957382" flag="0"/>
    </comp>
    <comp name="--.HHN">
      <acc value="0.1566202441" flag="0"/>
      <vel value="0.0293422795" flag="0"/>
      <psa03 value="0.1358792968" flag="0"/>
      <psa10 value="0.0140928758" flag="0"/>
      <psa30 value="0.0012730072" flag="0"/>
    </comp>
    <comp name="--.HHZ">
      <acc value="0.1023778793" flag="0"/>
      <vel value="0.0187902115" flag="0"/>
      <psa03 value="0.1033266485" flag="0"/>
      <psa10 value="0.0114289273" flag="0"/>
      <psa30 value="0.0005184869" flag="0"/>
    </comp>
  </station>
</stationlist>
