<stationlist xmlns:esm="https://esm-db.eu/esmws/shakemap/1/" created="1784771601">
	<station code="MK07" name="MK07" netid="CR" source="Croatian Seismograph Network (CSN)" insttype="" lat="43.515096" lon="16.247314" esm:processing="automatic (Paolucci et al 2011)" esm:quality="best">
		<comp name="--.HNE" depth="0.0">
			<acc value="0.0355737159026115" flag="0"/>
			<vel value="0.0119657120926345" flag="0"/>
			<psa03 value="0.120895977515184" flag="0"/>
			<psa10 value="0.00531742522207439" flag="0"/>
			<psa30 value="0.000560436969948777" flag="0"/>
		</comp>
		<comp name="--.HNN" depth="0.0">
			<acc value="0.0394238924665136" flag="0"/>
			<vel value="0.014781149745771" flag="0"/>
			<psa03 value="0.161267422758632" flag="0"/>
			<psa10 value="0.0075445533833849" flag="0"/>
			<psa30 value="0.000467860837234325" flag="0"/>
		</comp>
		<comp name="--.HNZ" depth="0.0">
			<acc value="0.0437898755194346" flag="0"/>
			<vel value="0.0108324987119512" flag="0"/>
			<psa03 value="0.0329343926793814" flag="0"/>
			<psa10 value="0.00423917488703147" flag="0"/>
			<psa30 value="0.000456994336131957" flag="0"/>
		</comp>
	</station>
	<station code="MK08" name="MK08" netid="CR" source="Croatian Seismograph Network (CSN)" insttype="" lat="43.508051" lon="16.440016" esm:processing="automatic (Paolucci et al 2011)" esm:quality="best">
		<comp name="--.HNE" depth="0.0">
			<acc value="0.0639925675186596" flag="0"/>
			<vel value="0.00962750028579743" flag="0"/>
			<psa03 value="0.0387627006511807" flag="0"/>
			<psa10 value="0.00525383788472536" flag="0"/>
			<psa30 value="0.000440844307938516" flag="0"/>
		</comp>
		<comp name="--.HNN" depth="0.0">
			<acc value="0.0527417621729004" flag="0"/>
			<vel value="0.0132682381454144" flag="0"/>
			<psa03 value="0.0592790988243704" flag="0"/>
			<psa10 value="0.00601071161764562" flag="0"/>
			<psa30 value="0.000440445219000832" flag="0"/>
		</comp>
		<comp name="--.HNZ" depth="0.0">
			<acc value="0.0316338523055363" flag="0"/>
			<vel value="0.00666099350938777" flag="0"/>
			<psa03 value="0.0197658549638022" flag="0"/>
			<psa10 value="0.0033813857189589" flag="0"/>
			<psa30 value="0.000706471331508531" flag="0"/>
		</comp>
	</station>
	<station code="MK22" name="MK22" netid="CR" source="Croatian Seismograph Network (CSN)" insttype="" lat="43.517083073" lon="16.251390509" esm:processing="automatic (Paolucci et al 2011)" esm:quality="best">
		<comp name="--.HNE" depth="0.0">
			<acc value="0.0889303353988481" flag="0"/>
			<vel value="0.0291232418620946" flag="0"/>
			<psa03 value="0.154833819480656" flag="0"/>
			<psa10 value="0.00652574448604551" flag="0"/>
			<psa30 value="0.000667302226330878" flag="0"/>
		</comp>
		<comp name="--.HNN" depth="0.0">
			<acc value="0.0744710122671248" flag="0"/>
			<vel value="0.0248921970786836" flag="0"/>
			<psa03 value="0.16182099067979" flag="0"/>
			<psa10 value="0.00602831528380211" flag="0"/>
			<psa30 value="0.000691552634884763" flag="0"/>
		</comp>
		<comp name="--.HNZ" depth="0.0">
			<acc value="0.0464605552237897" flag="0"/>
			<vel value="0.00942662282571339" flag="0"/>
			<psa03 value="0.0171422723101606" flag="0"/>
			<psa10 value="0.00355743597517436" flag="0"/>
			<psa30 value="0.000484780030964541" flag="0"/>
		</comp>
	</station>
	<station code="MK33" name="MK33" netid="CR" source="Croatian Seismograph Network (CSN)" insttype="" lat="42.836909" lon="17.696755" esm:processing="automatic (Paolucci et al 2011)" esm:quality="good">
		<comp name="--.HNE" depth="0.0">
			<acc value="0.599522500443058" flag="0"/>
			<vel value="0.28432536507281" flag="0"/>
			<psa03 value="2.72297088345738" flag="0"/>
			<psa10 value="0.17102830978616" flag="0"/>
			<psa30 value="0.0119654893216106" flag="0"/>
		</comp>
		<comp name="--.HNN" depth="0.0">
			<acc value="1.00709765542213" flag="0"/>
			<vel value="0.447740683558831" flag="0"/>
			<psa03 value="2.31543105261036" flag="0"/>
			<psa10 value="0.17502815975659" flag="0"/>
			<psa30 value="0.0140533709668562" flag="0"/>
		</comp>
		<comp name="--.HNZ" depth="0.0">
			<acc value="0.977894758508599" flag="0"/>
			<vel value="0.272674641933342" flag="0"/>
			<psa03 value="1.00276334481695" flag="0"/>
			<psa10 value="0.0423916119862468" flag="0"/>
			<psa30 value="0.00609851441331659" flag="0"/>
		</comp>
	</station>
	<station code="MK36" name="MK36" netid="CR" source="Croatian Seismograph Network (CSN)" insttype="" lat="42.581098" lon="18.217561" esm:processing="automatic (Paolucci et al 2011)" esm:quality="best">
		<comp name="--.HNE" depth="0.0">
			<acc value="0.155728227362549" flag="0"/>
			<vel value="0.0440897337658936" flag="0"/>
			<psa03 value="0.0904403558130477" flag="0"/>
			<psa10 value="0.0157818948480802" flag="0"/>
			<psa30 value="0.00138350446288078" flag="0"/>
		</comp>
		<comp name="--.HNN" depth="0.0">
			<acc value="0.164805210494814" flag="0"/>
			<vel value="0.0339753983136959" flag="0"/>
			<psa03 value="0.0697009819313116" flag="0"/>
			<psa10 value="0.0121878920755349" flag="0"/>
			<psa30 value="0.00122262557627743" flag="0"/>
		</comp>
		<comp name="--.HNZ" depth="0.0">
			<acc value="0.159582490022239" flag="0"/>
			<vel value="0.0268359445834415" flag="0"/>
			<psa03 value="0.0531029553101735" flag="0"/>
			<psa10 value="0.0162238653764586" flag="0"/>
			<psa30 value="0.00131446270170294" flag="0"/>
		</comp>
	</station>
	<station code="PM32" name="PM32" netid="CR" source="Croatian Seismograph Network (CSN)" insttype="" lat="43.09579" lon="17.61774" esm:processing="automatic (Paolucci et al 2011)" esm:quality="best">
		<comp name="--.HNE" depth="0.0">
			<acc value="0.106173199930356" flag="0"/>
			<vel value="0.0310627935656727" flag="0"/>
			<psa03 value="0.167667419643682" flag="0"/>
			<psa10 value="0.0185824434956837" flag="0"/>
			<psa30 value="0.00116220803224498" flag="0"/>
		</comp>
		<comp name="--.HNN" depth="0.0">
			<acc value="0.100097131080623" flag="0"/>
			<vel value="0.0184425396240474" flag="0"/>
			<psa03 value="0.081626459435669" flag="0"/>
			<psa10 value="0.00675558971216371" flag="0"/>
			<psa30 value="0.000761325694507535" flag="0"/>
		</comp>
		<comp name="--.HNZ" depth="0.0">
			<acc value="0.0768049546949715" flag="0"/>
			<vel value="0.0215786906690677" flag="0"/>
			<psa03 value="0.109588436779438" flag="0"/>
			<psa10 value="0.0122115355167969" flag="0"/>
			<psa30 value="0.00107239906200813" flag="0"/>
		</comp>
	</station>
	<station code="MNG" name="MNG" netid="IT" source="Italian Strong Motion Network (RAN)" insttype="" lat="41.7032" lon="15.959" esm:processing="automatic (Paolucci et al 2011)" esm:quality="best">
		<comp name="--.HNE" depth="0.0">
			<acc value="0.0217549867967417" flag="0"/>
			<vel value="0.00967314903577795" flag="0"/>
			<psa03 value="0.0690446832464113" flag="0"/>
			<psa10 value="0.00723517148210231" flag="0"/>
			<psa30 value="0.00073398258107713" flag="0"/>
		</comp>
		<comp name="--.HNN" depth="0.0">
			<acc value="0.0128059424247313" flag="0"/>
			<vel value="0.00949333866105629" flag="0"/>
			<psa03 value="0.038582727791362" flag="0"/>
			<psa10 value="0.00846602364501739" flag="0"/>
			<psa30 value="0.000477460952361504" flag="0"/>
		</comp>
		<comp name="--.HNZ" depth="0.0">
			<acc value="0.0159782861040675" flag="0"/>
			<vel value="0.00673544647256839" flag="0"/>
			<psa03 value="0.0410711817017208" flag="0"/>
			<psa10 value="0.00478377049506777" flag="0"/>
			<psa30 value="0.000439917319446744" flag="0"/>
		</comp>
	</station>
	<station code="RDG" name="RDG" netid="IT" source="Italian Strong Motion Network (RAN)" insttype="" lat="41.9263" lon="15.8791" esm:processing="automatic (Paolucci et al 2011)" esm:quality="good">
		<comp name="--.HGE" depth="0.0">
			<acc value="0.0979968222041334" flag="0"/>
			<vel value="0.0179924048912008" flag="0"/>
			<psa03 value="0.0607202411679779" flag="0"/>
			<psa10 value="0.00672525957794117" flag="0"/>
			<psa30 value="0.000489173082399305" flag="0"/>
		</comp>
		<comp name="--.HGN" depth="0.0">
			<acc value="0.0788050822502744" flag="0"/>
			<vel value="0.015781451157058" flag="0"/>
			<psa03 value="0.0686850760908688" flag="0"/>
			<psa10 value="0.00884830896954398" flag="0"/>
			<psa30 value="0.000378842440202401" flag="0"/>
		</comp>
		<comp name="--.HGZ" depth="0.0">
			<acc value="0.0314614516396314" flag="0"/>
			<vel value="0.00551093099132417" flag="0"/>
			<psa03 value="0.0201813890013095" flag="0"/>
			<psa10 value="0.00389601004466983" flag="0"/>
			<psa30 value="0.000308131011125592" flag="0"/>
		</comp>
	</station>
	<station code="VIE" name="VIE" netid="IT" source="Italian Strong Motion Network (RAN)" insttype="" lat="41.877" lon="16.1653" esm:processing="automatic (Paolucci et al 2011)" esm:quality="best">
		<comp name="--.HNE" depth="0.0">
			<acc value="0.0442354702742418" flag="0"/>
			<vel value="0.0137951518360737" flag="0"/>
			<psa03 value="0.0996517264378112" flag="0"/>
			<psa10 value="0.011038726886481" flag="0"/>
			<psa30 value="0.000701208222436718" flag="0"/>
		</comp>
		<comp name="--.HNN" depth="0.0">
			<acc value="0.0422672989019489" flag="0"/>
			<vel value="0.016692398533297" flag="0"/>
			<psa03 value="0.117044066094956" flag="0"/>
			<psa10 value="0.0109396528233105" flag="0"/>
			<psa30 value="0.000783145317033775" flag="0"/>
		</comp>
		<comp name="--.HNZ" depth="0.0">
			<acc value="0.0261393743585362" flag="0"/>
			<vel value="0.0100530825483692" flag="0"/>
			<psa03 value="0.0760385267625536" flag="0"/>
			<psa10 value="0.00596613147693009" flag="0"/>
			<psa30 value="0.000432877087440926" flag="0"/>
		</comp>
	</station>
	<station code="VSD" name="VSD" netid="IT" source="Italian Strong Motion Network (RAN)" insttype="" lat="41.8807" lon="16.1703" esm:processing="automatic (Paolucci et al 2011)" esm:quality="best">
		<comp name="--.HGE" depth="0.0">
			<acc value="0.0243380844077219" flag="0"/>
			<vel value="0.0115664752525722" flag="0"/>
			<psa03 value="0.067046655053516" flag="0"/>
			<psa10 value="0.0100396335139483" flag="0"/>
			<psa30 value="0.000615581039639427" flag="0"/>
		</comp>
		<comp name="--.HGN" depth="0.0">
			<acc value="0.0323032199530501" flag="0"/>
			<vel value="0.0147315017832594" flag="0"/>
			<psa03 value="0.113580774168863" flag="0"/>
			<psa10 value="0.0103946751587148" flag="0"/>
			<psa30 value="0.000674411551455443" flag="0"/>
		</comp>
		<comp name="--.HGZ" depth="0.0">
			<acc value="0.0146702791298236" flag="0"/>
			<vel value="0.00605872563726392" flag="0"/>
			<psa03 value="0.0424221826572371" flag="0"/>
			<psa10 value="0.00605602680705453" flag="0"/>
			<psa30 value="0.000474107448958361" flag="0"/>
		</comp>
	</station>
	<station code="BARME" name="BARME" netid="ME" source="Montenegrin Seismic Network (ME)" insttype="" lat="42.10554" lon="19.088928" esm:processing="automatic (Paolucci et al 2011)" esm:quality="best">
		<comp name="--.HNE" depth="0.0">
			<acc value="0.0748864871192296" flag="0"/>
			<vel value="0.033140637906625" flag="0"/>
			<psa03 value="0.175672345764085" flag="0"/>
			<psa10 value="0.0349307477406066" flag="0"/>
			<psa30 value="0.00133342697882656" flag="0"/>
		</comp>
		<comp name="--.HNN" depth="0.0">
			<acc value="0.076352372578297" flag="0"/>
			<vel value="0.0295436359863948" flag="0"/>
			<psa03 value="0.154532330758507" flag="0"/>
			<psa10 value="0.0433539107338161" flag="0"/>
			<psa30 value="0.00189782592998715" flag="0"/>
		</comp>
		<comp name="--.HNZ" depth="0.0">
			<acc value="0.0266313697630685" flag="0"/>
			<vel value="0.0112197171232888" flag="0"/>
			<psa03 value="0.0438343465186624" flag="0"/>
			<psa10 value="0.0189636993770147" flag="0"/>
			<psa30 value="0.000667879972937089" flag="0"/>
		</comp>
	</station>
	<station code="BRY" name="BRY" netid="ME" source="Montenegrin Seismic Network (ME)" insttype="" lat="42.901505" lon="18.509272" esm:processing="automatic (Paolucci et al 2011)" esm:quality="best">
		<comp name="--.HNE" depth="0.0">
			<acc value="0.0703375728526324" flag="0"/>
			<vel value="0.020546894154816" flag="0"/>
			<psa03 value="0.0870159154190112" flag="0"/>
			<psa10 value="0.0162698096700425" flag="0"/>
			<psa30 value="0.000861262939859573" flag="0"/>
		</comp>
		<comp name="--.HNN" depth="0.0">
			<acc value="0.0759764832171999" flag="0"/>
			<vel value="0.0175275911864831" flag="0"/>
			<psa03 value="0.0658226989724325" flag="0"/>
			<psa10 value="0.0131112041779303" flag="0"/>
			<psa30 value="0.000601729653303062" flag="0"/>
		</comp>
		<comp name="--.HNZ" depth="0.0">
			<acc value="0.0421112494763523" flag="0"/>
			<vel value="0.0126802338943" flag="0"/>
			<psa03 value="0.0574509516769273" flag="0"/>
			<psa10 value="0.00857920801792662" flag="0"/>
			<psa30 value="0.000910433436747009" flag="0"/>
		</comp>
	</station>
	<station code="BUM" name="BUM" netid="ME" source="Montenegrin Seismic Network (ME)" insttype="" lat="42.300733" lon="18.893571" esm:processing="automatic (Paolucci et al 2011)" esm:quality="best">
		<comp name="--.HNE" depth="0.0">
			<acc value="0.0520904409754201" flag="0"/>
			<vel value="0.012836759266738" flag="0"/>
			<psa03 value="0.0517888317976068" flag="0"/>
			<psa10 value="0.0108885425625066" flag="0"/>
			<psa30 value="0.000441771400603855" flag="0"/>
		</comp>
		<comp name="--.HNN" depth="0.0">
			<acc value="0.0415171188202876" flag="0"/>
			<vel value="0.0131026373329416" flag="0"/>
			<psa03 value="0.049632131635139" flag="0"/>
			<psa10 value="0.00902188171788671" flag="0"/>
			<psa30 value="0.000440357556943651" flag="0"/>
		</comp>
		<comp name="--.HNZ" depth="0.0">
			<acc value="0.0196974068871551" flag="0"/>
			<vel value="0.00731046756322756" flag="0"/>
			<psa03 value="0.029252372721963" flag="0"/>
			<psa10 value="0.00440368375368652" flag="0"/>
			<psa30 value="0.000292001218647668" flag="0"/>
		</comp>
	</station>
	<station code="CEVME" name="CEVME" netid="ME" source="Montenegrin Seismic Network (ME)" insttype="" lat="42.546741" lon="18.917674" esm:processing="automatic (Paolucci et al 2011)" esm:quality="good">
		<comp name="--.HNE" depth="0.0">
			<acc value="0.0638622039176794" flag="0"/>
			<vel value="0.0147773057510058" flag="0"/>
			<psa03 value="0.0313638615560689" flag="0"/>
			<psa10 value="0.00454457871228605" flag="0"/>
			<psa30 value="0.0003191503608951" flag="0"/>
		</comp>
		<comp name="--.HNN" depth="0.0">
			<acc value="0.0415293976669118" flag="0"/>
			<vel value="0.0109135623071935" flag="0"/>
			<psa03 value="0.0377689889893266" flag="0"/>
			<psa10 value="0.00446552394404564" flag="0"/>
			<psa30 value="0.000322032218470688" flag="0"/>
		</comp>
		<comp name="--.HNZ" depth="0.0">
			<acc value="0.0317448249406024" flag="0"/>
			<vel value="0.0081107995646432" flag="0"/>
			<psa03 value="0.0364747626281819" flag="0"/>
			<psa10 value="0.0032086595892005" flag="0"/>
			<psa30 value="0.000293475092326232" flag="0"/>
		</comp>
	</station>
	<station code="HCY" name="HCY" netid="ME" source="Montenegrin Seismic Network (ME)" insttype="" lat="42.44736" lon="18.493828" esm:processing="automatic (Paolucci et al 2011)" esm:quality="good">
		<comp name="--.HNE" depth="0.0">
			<acc value="0.235399140244445" flag="0"/>
			<vel value="0.0334664408296006" flag="0"/>
			<psa03 value="0.0964969757843964" flag="0"/>
			<psa10 value="0.0128022793381758" flag="0"/>
			<psa30 value="0.000610378872104693" flag="0"/>
		</comp>
		<comp name="--.HNN" depth="0.0">
			<acc value="0.218378772816412" flag="0"/>
			<vel value="0.0333803237029191" flag="0"/>
			<psa03 value="0.0859784977368478" flag="0"/>
			<psa10 value="0.0124838907464942" flag="0"/>
			<psa30 value="0.000620603559856743" flag="0"/>
		</comp>
		<comp name="--.HNZ" depth="0.0">
			<acc value="0.0758205317151897" flag="0"/>
			<vel value="0.017151247578309" flag="0"/>
			<psa03 value="0.0595224430697324" flag="0"/>
			<psa10 value="0.00984459340599839" flag="0"/>
			<psa30 value="0.00102443505129448" flag="0"/>
		</comp>
	</station>
	<station code="KOLME" name="KOLME" netid="ME" source="Montenegrin Seismic Network (ME)" insttype="" lat="42.8505" lon="19.5152" esm:processing="automatic (Paolucci et al 2011)" esm:quality="best">
		<comp name="--.HNE" depth="0.0">
			<acc value="0.0122756663831729" flag="0"/>
			<vel value="0.00520980646930064" flag="0"/>
			<psa03 value="0.0245107591341667" flag="0"/>
			<psa10 value="0.00375264789138076" flag="0"/>
			<psa30 value="0.000540972243006145" flag="0"/>
		</comp>
		<comp name="--.HNN" depth="0.0">
			<acc value="0.00766628624449743" flag="0"/>
			<vel value="0.00485597676426831" flag="0"/>
			<psa03 value="0.0170537247776545" flag="0"/>
			<psa10 value="0.006271512331913" flag="0"/>
			<psa30 value="0.000302620958611655" flag="0"/>
		</comp>
		<comp name="--.HNZ" depth="0.0">
			<acc value="0.00721100197419674" flag="0"/>
			<vel value="0.00307922725765429" flag="0"/>
			<psa03 value="0.0134767313089755" flag="0"/>
			<psa10 value="0.00431428205001241" flag="0"/>
			<psa30 value="0.000720788217431959" flag="0"/>
		</comp>
	</station>
	<station code="NKME" name="NKME" netid="ME" source="Montenegrin Seismic Network (ME)" insttype="" lat="42.766996" lon="18.952958" esm:processing="automatic (Paolucci et al 2011)" esm:quality="best">
		<comp name="--.HNE" depth="0.0">
			<acc value="0.0293356850237774" flag="0"/>
			<vel value="0.00719626034311326" flag="0"/>
			<psa03 value="0.024495492497827" flag="0"/>
			<psa10 value="0.0052730288435322" flag="0"/>
			<psa30 value="0.000626394672656211" flag="0"/>
		</comp>
		<comp name="--.HNN" depth="0.0">
			<acc value="0.0335501985396911" flag="0"/>
			<vel value="0.00840636726726029" flag="0"/>
			<psa03 value="0.0214840924865221" flag="0"/>
			<psa10 value="0.00906378324365715" flag="0"/>
			<psa30 value="0.000373597769852063" flag="0"/>
		</comp>
		<comp name="--.HNZ" depth="0.0">
			<acc value="0.0284631791753277" flag="0"/>
			<vel value="0.00754211262798583" flag="0"/>
			<psa03 value="0.0212728063544361" flag="0"/>
			<psa10 value="0.00736930005496199" flag="0"/>
			<psa30 value="0.000805382102611687" flag="0"/>
		</comp>
	</station>
	<station code="ULC" name="ULC" netid="ME" source="Montenegrin Seismic Network (ME)" insttype="" lat="41.963622" lon="19.244524" esm:processing="manual (Paolucci et al 2011)" esm:quality="best">
		<comp name="--.HNE" depth="0.0">
			<acc value="0.0161218223445273" flag="0"/>
			<vel value="0.00949502449772356" flag="0"/>
			<psa03 value="0.0186494007958595" flag="0"/>
			<psa10 value="0.0115858712571103" flag="0"/>
			<psa30 value="0.000486592598954941" flag="0"/>
		</comp>
		<comp name="--.HNN" depth="0.0">
			<acc value="0.0145045104836017" flag="0"/>
			<vel value="0.00605208127158458" flag="0"/>
			<psa03 value="0.028003055585834" flag="0"/>
			<psa10 value="0.00970590078079263" flag="0"/>
			<psa30 value="0.000497497956798044" flag="0"/>
		</comp>
		<comp name="--.HNZ" depth="0.0">
			<acc value="0.00797943841329184" flag="0"/>
			<vel value="0.00378072740293885" flag="0"/>
			<psa03 value="0.0122081720127312" flag="0"/>
			<psa10 value="0.00570623926034623" flag="0"/>
			<psa30 value="0.000427475479610917" flag="0"/>
		</comp>
	</station>
	<station code="MK21" name="MK21" netid="CR" source="Croatian Seismograph Network (CSN)" insttype="" lat="43.700776" lon="16.635203" esm:processing="automatic (Paolucci et al 2011)" esm:quality="bad">
		<comp name="--.HNE" depth="0.0">
			<acc value="0" flag="1"/>
			<vel value="0" flag="1"/>
			<psa03 value="0" flag="1"/>
			<psa10 value="0" flag="1"/>
			<psa30 value="0" flag="1"/>
		</comp>
		<comp name="--.HNN" depth="0.0">
			<acc value="0" flag="1"/>
			<vel value="0" flag="1"/>
			<psa03 value="0" flag="1"/>
			<psa10 value="0" flag="1"/>
			<psa30 value="0" flag="1"/>
		</comp>
		<comp name="--.HNZ" depth="0.0">
			<acc value="0" flag="1"/>
			<vel value="0" flag="1"/>
			<psa03 value="0" flag="1"/>
			<psa10 value="0" flag="1"/>
			<psa30 value="0" flag="1"/>
		</comp>
	</station>
