<?xml version="1.0" encoding="UTF-8" standalone="yes"?>
<!DOCTYPE earthquake SYSTEM "stationlist.dtd">
<stationlist created="" xmlns="ch.ethz.sed.shakemap.usgs.xml">
  <station code="7422" name="7422" netid="CR" insttype="" commtype="DIG" lat="42.5305" lon="18.2909">
    <comp name="--.HHE">
      <acc value="0.1053306649" flag="0"/>
      <vel value="0.0244129994" flag="0"/>
      <psa03 value="0.0890012534" flag="0"/>
      <psa10 value="0.0115942035" flag="0"/>
      <psa30 value="0.0008715323" flag="0"/>
    </comp>
    <comp name="--.HHN">
      <acc value="0.1386816855" flag="0"/>
      <vel value="0.0301803524" flag="0"/>
      <psa03 value="0.1039395840" flag="0"/>
      <psa10 value="0.0122043389" flag="0"/>
      <psa30 value="0.0009199763" flag="0"/>
    </comp>
    <comp name="--.HHZ">
      <acc value="0.1677895977" flag="0"/>
      <vel value="0.0298625703" flag="0"/>
      <psa03 value="0.1024925759" flag="0"/>
      <psa10 value="0.0125990120" flag="0"/>
      <psa30 value="0.0006537527" flag="0"/>
    </comp>
  </station>
  <station code="HVAR" name="HVAR" netid="CR" insttype="120" commtype="DIG" lat="43.1776" lon="16.4488">
    <comp name="--.HHE">
      <acc value="0.0413972263" flag="0"/>
      <vel value="0.0088585601" flag="0"/>
      <psa03 value="0.0543905812" flag="0"/>
      <psa10 value="0.0058874587" flag="0"/>
      <psa30 value="0.0004342722" flag="0"/>
    </comp>
  </station>
  <station code="MK33" name="MK33" netid="CR" insttype="Episensor-ES-T" commtype="DIG" lat="42.8369" lon="17.6968">
    <comp name="--.HNN">
      <acc value="1.0098684012" flag="0"/>
      <vel value="0.4483419298" flag="0"/>
      <psa03 value="2.3234732546" flag="0"/>
      <psa10 value="0.1748125857" flag="0"/>
      <psa30 value="0.0138738734" flag="0"/>
    </comp>
    <comp name="--.HNE">
      <acc value="0.5988940260" flag="0"/>
      <vel value="0.2856199928" flag="0"/>
      <psa03 value="2.7305269988" flag="0"/>
      <psa10 value="0.1709371476" flag="0"/>
      <psa30 value="0.0112870354" flag="0"/>
    </comp>
    <comp name="--.HNZ">
      <acc value="0.9780366347" flag="0"/>
      <vel value="0.2692583187" flag="0"/>
      <psa03 value="0.9996847545" flag="0"/>
      <psa10 value="0.0423276250" flag="0"/>
      <psa30 value="0.0057520137" flag="0"/>
    </comp>
  </station>
  <station code="MK36" name="MK36" netid="CR" insttype="Episensor-ES-T" commtype="DIG" lat="42.5811" lon="18.2176">
    <comp name="--.HNE">
      <acc value="0.1574609342" flag="0"/>
      <vel value="0.0434959250" flag="0"/>
      <psa03 value="0.0905120106" flag="0"/>
      <psa10 value="0.0157765805" flag="0"/>
      <psa30 value="0.0013996158" flag="0"/>
    </comp>
    <comp name="--.HNN">
      <acc value="0.1665430108" flag="0"/>
      <vel value="0.0336731393" flag="0"/>
      <psa03 value="0.0696322029" flag="0"/>
      <psa10 value="0.0121945043" flag="0"/>
      <psa30 value="0.0011588334" flag="0"/>
    </comp>
    <comp name="--.HNZ">
      <acc value="0.1644362547" flag="0"/>
      <vel value="0.0258918357" flag="0"/>
      <psa03 value="0.0529513077" flag="0"/>
      <psa10 value="0.0162122798" flag="0"/>
      <psa30 value="0.0011645054" flag="0"/>
    </comp>
  </station>
  <station code="PM32" name="PM32" netid="CR" insttype="Episensor-ES-T" commtype="DIG" lat="43.0958" lon="17.6177">
    <comp name="--.HNE">
      <acc value="0.1059542557" flag="0"/>
      <vel value="0.0307530669" flag="0"/>
      <psa03 value="0.1681724755" flag="0"/>
      <psa10 value="0.0185705483" flag="0"/>
      <psa30 value="0.0011442003" flag="0"/>
    </comp>
    <comp name="--.HNN">
      <acc value="0.0998294029" flag="0"/>
      <vel value="0.0180663164" flag="0"/>
      <psa03 value="0.0817583178" flag="0"/>
      <psa10 value="0.0067098353" flag="0"/>
      <psa30 value="0.0006684334" flag="0"/>
    </comp>
    <comp name="--.HNZ">
      <acc value="0.0768533934" flag="0"/>
      <vel value="0.0220669776" flag="0"/>
      <psa03 value="0.1091644761" flag="0"/>
      <psa10 value="0.0121092519" flag="0"/>
      <psa30 value="0.0009254851" flag="0"/>
    </comp>
  </station>
  <station code="CEVME" name="CEVME" netid="ME" insttype="CMG-5" commtype="DIG" lat="42.5467" lon="18.9177">
    <comp name="--.HNE">
      <acc value="0.0641981671" flag="0"/>
      <vel value="0.0147058109" flag="0"/>
      <psa03 value="0.0313300161" flag="0"/>
      <psa10 value="0.0046127036" flag="0"/>
      <psa30 value="0.0003795270" flag="0"/>
    </comp>
    <comp name="--.HNZ">
      <acc value="0.0314498827" flag="0"/>
      <vel value="0.0081895203" flag="0"/>
      <psa03 value="0.0364530729" flag="0"/>
      <psa10 value="0.0032855385" flag="0"/>
      <psa30 value="0.0004363534" flag="0"/>
    </comp>
    <comp name="--.HNN">
      <acc value="0.0408528617" flag="0"/>
      <vel value="0.0111575758" flag="0"/>
      <psa03 value="0.0379464717" flag="0"/>
      <psa10 value="0.0045759663" flag="0"/>
      <psa30 value="0.0004808745" flag="0"/>
    </comp>
  </station>
  <station code="DAGME" name="DAGME" netid="ME" insttype="CMG-5" commtype="DIG" lat="42.5684" lon="19.0677">
    <comp name="--.HNN">
      <acc value="0.0976526831" flag="0"/>
      <vel value="0.0538902257" flag="0"/>
      <psa03 value="0.2005610687" flag="0"/>
      <psa10 value="0.0208510479" flag="0"/>
      <psa30 value="0.0016776211" flag="0"/>
    </comp>
    <comp name="--.HNE">
      <acc value="0.1345277025" flag="0"/>
      <vel value="0.0542113321" flag="0"/>
      <psa03 value="0.1857639965" flag="0"/>
      <psa10 value="0.0269640392" flag="0"/>
      <psa30 value="0.0017063914" flag="0"/>
    </comp>
    <comp name="--.HNZ">
      <acc value="0.0051396192" flag="0"/>
      <vel value="0.0014259894" flag="0"/>
      <psa03 value="0.0066133969" flag="0"/>
      <psa10 value="0.0007237673" flag="0"/>
      <psa30 value="0.0000671156" flag="0"/>
    </comp>
  </station>
</stationlist>
