<?xml version="1.0" encoding="UTF-8" standalone="yes"?>
<!DOCTYPE earthquake SYSTEM "stationlist.dtd">
<stationlist created="" xmlns="ch.ethz.sed.shakemap.usgs.xml">
  <station code="APE" name="APE" netid="GE" insttype="STS-2/N" lat="37.0727" lon="25.523">
    <comp name="--.HHZ">
      <acc value="0.1028466620" flag="0"/>
      <vel value="0.0387266589" flag="0"/>
      <psa03 value="0.1245182197" flag="0"/>
      <psa10 value="0.0324418240" flag="0"/>
      <psa30 value="0.0043726985" flag="0"/>
    </comp>
    <comp name="--.HHE">
      <acc value="0.1613412950" flag="0"/>
      <vel value="0.0656428553" flag="0"/>
      <psa03 value="0.2462133659" flag="0"/>
      <psa10 value="0.0488053647" flag="0"/>
      <psa30 value="0.0111945860" flag="0"/>
    </comp>
    <comp name="--.HHN">
      <acc value="0.1545727507" flag="0"/>
      <vel value="0.0570637029" flag="0"/>
      <psa03 value="0.1930744605" flag="0"/>
      <psa10 value="0.0398788237" flag="0"/>
      <psa30 value="0.0096003054" flag="0"/>
    </comp>
  </station>
  <station code="SNT5" name="SNT5" netid="HA" insttype="1s-100Hz," lat="36.4037" lon="25.3953">
    <comp name="--.HHZ">
      <acc value="0.2471453147" flag="0"/>
      <vel value="0.0708426563" flag="0"/>
      <psa03 value="0.1345064188" flag="0"/>
      <psa10 value="0.0544812098" flag="0"/>
      <psa30 value="0.0118282885" flag="0"/>
    </comp>
    <comp name="--.HHN">
      <acc value="0.4048426308" flag="0"/>
      <vel value="0.1346218770" flag="0"/>
      <psa03 value="0.4773995617" flag="0"/>
      <psa10 value="0.0896410880" flag="0"/>
      <psa30 value="0.0682634241" flag="0"/>
    </comp>
    <comp name="--.HHE">
      <acc value="0.5234105233" flag="0"/>
      <vel value="0.1597141687" flag="0"/>
      <psa03 value="0.6600040413" flag="0"/>
      <psa10 value="0.1883532712" flag="0"/>
      <psa30 value="0.0394300699" flag="0"/>
    </comp>
  </station>
  <station code="IMOD" name="IMOD" netid="HC" insttype="120" lat="34.9731" lon="24.7995">
    <comp name="--.HHZ">
      <acc value="0.1247301934" flag="0"/>
      <vel value="0.0426665098" flag="0"/>
      <psa03 value="0.1608989982" flag="0"/>
      <psa10 value="0.0521112915" flag="0"/>
      <psa30 value="0.0051371602" flag="0"/>
    </comp>
    <comp name="--.HHE">
      <acc value="0.2248650898" flag="0"/>
      <vel value="0.2194573563" flag="0"/>
      <psa03 value="0.6069263548" flag="0"/>
      <psa10 value="0.2837202731" flag="0"/>
      <psa30 value="0.0423667426" flag="0"/>
    </comp>
    <comp name="--.HHN">
      <acc value="0.3291932446" flag="0"/>
      <vel value="0.2685016068" flag="0"/>
      <psa03 value="0.8780143026" flag="0"/>
      <psa10 value="0.5056056875" flag="0"/>
      <psa30 value="0.0403531134" flag="0"/>
    </comp>
  </station>
  <station code="IPPL" name="IPPL" netid="HC" insttype="60" lat="35.3486" lon="24.4632">
    <comp name="--.HHE">
      <acc value="0.1794576489" flag="0"/>
      <vel value="0.1085964922" flag="0"/>
      <psa03 value="0.7557212025" flag="0"/>
      <psa10 value="0.1500754153" flag="0"/>
      <psa30 value="0.0322221361" flag="0"/>
    </comp>
    <comp name="--.HHN">
      <acc value="0.2269979612" flag="0"/>
      <vel value="0.1112366998" flag="0"/>
      <psa03 value="0.8955927788" flag="0"/>
      <psa10 value="0.2002988306" flag="0"/>
      <psa30 value="0.0127583694" flag="0"/>
    </comp>
    <comp name="--.HHZ">
      <acc value="0.1364402039" flag="0"/>
      <vel value="0.0727344682" flag="0"/>
      <psa03 value="0.5348595546" flag="0"/>
      <psa10 value="0.0499366508" flag="0"/>
      <psa30 value="0.0115788014" flag="0"/>
    </comp>
  </station>
  <station code="KNSS" name="KNSS" netid="HC" insttype="60" lat="35.3042" lon="25.1802">
    <comp name="--.HHE">
      <acc value="0.7819112986" flag="0"/>
      <vel value="0.2930192248" flag="0"/>
      <psa03 value="1.6087070416" flag="0"/>
      <psa10 value="0.3423510389" flag="0"/>
      <psa30 value="0.0329572195" flag="0"/>
    </comp>
    <comp name="--.HHZ">
      <acc value="0.5179941456" flag="0"/>
      <vel value="0.1630365355" flag="0"/>
      <psa03 value="0.9904991597" flag="0"/>
      <psa10 value="0.1170121671" flag="0"/>
      <psa30 value="0.0123176304" flag="0"/>
    </comp>
    <comp name="--.HHN">
      <acc value="0.6808220914" flag="0"/>
      <vel value="0.2766683735" flag="0"/>
      <psa03 value="1.6861040615" flag="0"/>
      <psa10 value="0.2052100780" flag="0"/>
      <psa30 value="0.0270198104" flag="0"/>
    </comp>
  </station>
  <station code="PFKS" name="PFKS" netid="HC" insttype="120" lat="35.0429" lon="25.4733">
    <comp name="--.HHZ">
      <acc value="0.4330005415" flag="0"/>
      <vel value="0.1787067037" flag="0"/>
      <psa03 value="0.7166843336" flag="0"/>
      <psa10 value="0.2008784402" flag="0"/>
      <psa30 value="0.0238881386" flag="0"/>
    </comp>
    <comp name="--.HHE">
      <acc value="0.5615578162" flag="0"/>
      <vel value="0.3098906454" flag="0"/>
      <psa03 value="1.3859405598" flag="0"/>
      <psa10 value="0.4670794431" flag="0"/>
      <psa30 value="0.0288712258" flag="0"/>
    </comp>
    <comp name="--.HHN">
      <acc value="0.7141534132" flag="0"/>
      <vel value="0.4194510183" flag="0"/>
      <psa03 value="1.1817632405" flag="0"/>
      <psa10 value="0.4748809803" flag="0"/>
      <psa30 value="0.0289432286" flag="0"/>
    </comp>
  </station>
  <station code="STIA" name="STIA" netid="HC" insttype="120" lat="35.2021" lon="26.0909">
    <comp name="--.HHE">
      <acc value="1.0754197805" flag="0"/>
      <vel value="0.6418001600" flag="0"/>
      <psa03 value="2.5409899831" flag="0"/>
      <psa10 value="0.6647325573" flag="0"/>
      <psa30 value="0.0695139934" flag="0"/>
    </comp>
    <comp name="--.HHN">
      <acc value="1.0711390982" flag="0"/>
      <vel value="0.5061968884" flag="0"/>
      <psa03 value="2.1219120653" flag="0"/>
      <psa10 value="0.4876213623" flag="0"/>
      <psa30 value="0.0386917618" flag="0"/>
    </comp>
    <comp name="--.HHZ">
      <acc value="0.8630247976" flag="0"/>
      <vel value="0.2578065033" flag="0"/>
      <psa03 value="0.9770542031" flag="0"/>
      <psa10 value="0.2260723367" flag="0"/>
      <psa30 value="0.0219445943" flag="0"/>
    </comp>
  </station>
  <station code="TEFL" name="TEFL" netid="HC" insttype="GEOtiny," lat="35.0933" lon="25.1634">
    <comp name="--.HHE">
      <acc value="1.1634680990" flag="0"/>
      <vel value="0.6944082792" flag="0"/>
      <psa03 value="2.7659269760" flag="0"/>
      <psa10 value="0.6596923969" flag="0"/>
      <psa30 value="0.0518176961" flag="0"/>
    </comp>
    <comp name="--.HHN">
      <acc value="1.3387461763" flag="0"/>
      <vel value="0.6593865650" flag="0"/>
      <psa03 value="2.1469453278" flag="0"/>
      <psa10 value="1.0666762447" flag="0"/>
      <psa30 value="0.0641885295" flag="0"/>
    </comp>
    <comp name="--.HHZ">
      <acc value="0.6442027759" flag="0"/>
      <vel value="0.2755896279" flag="0"/>
      <psa03 value="1.7820315843" flag="0"/>
      <psa10 value="0.3236381075" flag="0"/>
      <psa30 value="0.0222201775" flag="0"/>
    </comp>
  </station>
  <station code="NAX1" name="NAX1" netid="HI" insttype="CMG-5TD,ACCELEROMETER,GURALP" lat="37.1014" lon="25.3741">
    <comp name="--.HNE">
      <acc value="0.0736301590" flag="0"/>
      <vel value="0.0372642290" flag="0"/>
      <psa03 value="0.1606101435" flag="0"/>
      <psa10 value="0.0294863985" flag="0"/>
      <psa30 value="0.0070751421" flag="0"/>
    </comp>
    <comp name="--.HNZ">
      <acc value="0.0389174021" flag="0"/>
      <vel value="0.0276251794" flag="0"/>
      <psa03 value="0.0916805743" flag="0"/>
      <psa10 value="0.0158040683" flag="0"/>
      <psa30 value="0.0032966747" flag="0"/>
    </comp>
    <comp name="--.HNN">
      <acc value="0.0552440091" flag="0"/>
      <vel value="0.0304604994" flag="0"/>
      <psa03 value="0.1049948203" flag="0"/>
      <psa10 value="0.0287707967" flag="0"/>
      <psa30 value="0.0051639055" flag="0"/>
    </comp>
  </station>
  <station code="APE" name="APE" netid="HL" insttype="120" lat="37.0727" lon="25.523">
    <comp name="--.HHE">
      <acc value="0.1551822203" flag="0"/>
      <vel value="0.0649012586" flag="0"/>
      <psa03 value="0.2406504045" flag="0"/>
      <psa10 value="0.0484895688" flag="0"/>
      <psa30 value="0.0111663260" flag="0"/>
    </comp>
    <comp name="--.HHN">
      <acc value="0.1477667282" flag="0"/>
      <vel value="0.0557455761" flag="0"/>
      <psa03 value="0.1884948072" flag="0"/>
      <psa10 value="0.0395453801" flag="0"/>
      <psa30 value="0.0095690381" flag="0"/>
    </comp>
    <comp name="--.HHZ">
      <acc value="0.0995175946" flag="0"/>
      <vel value="0.0377050435" flag="0"/>
      <psa03 value="0.1218725675" flag="0"/>
      <psa10 value="0.0321494236" flag="0"/>
      <psa30 value="0.0043648463" flag="0"/>
    </comp>
  </station>
  <station code="ARG" name="ARG" netid="HL" insttype="LE3D20_DR24" lat="36.2136" lon="28.1212">
    <comp name="--.HHE">
      <acc value="0.3783998263" flag="0"/>
      <vel value="0.1460639077" flag="0"/>
      <psa03 value="0.7581230941" flag="0"/>
      <psa10 value="0.0791859708" flag="0"/>
      <psa30 value="0.0157299634" flag="0"/>
    </comp>
    <comp name="--.HHN">
      <acc value="0.2592491016" flag="0"/>
      <vel value="0.1101673894" flag="0"/>
      <psa03 value="0.3629482660" flag="0"/>
      <psa10 value="0.0817381114" flag="0"/>
      <psa30 value="0.0226066709" flag="0"/>
    </comp>
    <comp name="--.HHZ">
      <acc value="0.1974224057" flag="0"/>
      <vel value="0.0687536365" flag="0"/>
      <psa03 value="0.2968072495" flag="0"/>
      <psa10 value="0.0596346351" flag="0"/>
      <psa30 value="0.0078890392" flag="0"/>
    </comp>
  </station>
  <station code="IACM" name="IACM" netid="HL" insttype="120" lat="35.3058" lon="25.0709">
    <comp name="--.HHE">
      <acc value="1.8766333739" flag="0"/>
      <vel value="0.9619148980" flag="0"/>
      <psa03 value="7.4048326317" flag="0"/>
      <psa10 value="1.3748545407" flag="0"/>
      <psa30 value="0.0766514942" flag="0"/>
    </comp>
    <comp name="--.HHN">
      <acc value="2.0486249609" flag="0"/>
      <vel value="1.1030053723" flag="0"/>
      <psa03 value="6.7516937247" flag="0"/>
      <psa10 value="1.5553181303" flag="0"/>
      <psa30 value="0.0774691032" flag="0"/>
    </comp>
    <comp name="--.HHZ">
      <acc value="1.0138164233" flag="0"/>
      <vel value="0.4511977969" flag="0"/>
      <psa03 value="2.5961569592" flag="0"/>
      <psa10 value="0.5289925832" flag="0"/>
      <psa30 value="0.0217641983" flag="0"/>
    </comp>
  </station>
  <station code="KLNA" name="KLNA" netid="HL" insttype="CMG-5" lat="36.9571" lon="26.9727">
    <comp name="00.HNE">
      <acc value="0.1229764638" flag="0"/>
      <vel value="0.0601673768" flag="0"/>
      <psa03 value="0.3278037190" flag="0"/>
      <psa10 value="0.0195045052" flag="0"/>
      <psa30 value="0.0049879264" flag="0"/>
    </comp>
    <comp name="00.HNN">
      <acc value="0.1014457040" flag="0"/>
      <vel value="0.0474402608" flag="0"/>
      <psa03 value="0.2481998175" flag="0"/>
      <psa10 value="0.0226920679" flag="0"/>
      <psa30 value="0.0070409745" flag="0"/>
    </comp>
    <comp name="00.HNZ">
      <acc value="0.1404919737" flag="0"/>
      <vel value="0.0365550972" flag="0"/>
      <psa03 value="0.1126859974" flag="0"/>
      <psa10 value="0.0106399839" flag="0"/>
      <psa30 value="0.0033781814" flag="0"/>
    </comp>
  </station>
  <station code="NISR" name="NISR" netid="HL" insttype="65535" lat="36.6106" lon="27.131">
    <comp name="--.HHN">
      <acc value="0.2666351801" flag="0"/>
      <vel value="0.1187829617" flag="0"/>
      <psa03 value="0.4471300873" flag="0"/>
      <psa10 value="0.0798491752" flag="0"/>
      <psa30 value="0.0264597214" flag="0"/>
    </comp>
    <comp name="--.HHZ">
      <acc value="0.1209378748" flag="0"/>
      <vel value="0.0541515710" flag="0"/>
      <psa03 value="0.2602819904" flag="0"/>
      <psa10 value="0.0486497588" flag="0"/>
      <psa30 value="0.0118111736" flag="0"/>
    </comp>
    <comp name="--.HHE">
      <acc value="0.3694484515" flag="0"/>
      <vel value="0.1384068224" flag="0"/>
      <psa03 value="0.7576976462" flag="0"/>
      <psa10 value="0.1068537118" flag="0"/>
      <psa30 value="0.0354801902" flag="0"/>
    </comp>
  </station>
  <station code="NISR2" name="NISR2" netid="HL" insttype="120" lat="36.5744" lon="27.1767">
    <comp name="--.HHN">
      <acc value="0.5680440335" flag="0"/>
      <vel value="0.4009081429" flag="0"/>
      <psa03 value="1.2708732053" flag="0"/>
      <psa10 value="0.3033832065" flag="0"/>
      <psa30 value="0.0343923688" flag="0"/>
    </comp>
    <comp name="--.HHE">
      <acc value="0.3762724330" flag="0"/>
      <vel value="0.3201364627" flag="0"/>
      <psa03 value="1.0212325399" flag="0"/>
      <psa10 value="0.2696988117" flag="0"/>
      <psa30 value="0.0314095688" flag="0"/>
    </comp>
    <comp name="--.HHZ">
      <acc value="0.2094090748" flag="0"/>
      <vel value="0.0922982685" flag="0"/>
      <psa03 value="0.4292340712" flag="0"/>
      <psa10 value="0.0925986534" flag="0"/>
      <psa30 value="0.0117554985" flag="0"/>
    </comp>
  </station>
  <station code="NPS" name="NPS" netid="HL" insttype="CMG3ESPC-120s" lat="35.2613" lon="25.6104">
    <comp name="--.HHE">
      <acc value="0.4958837103" flag="0"/>
      <vel value="0.2611939212" flag="0"/>
      <psa03 value="1.3464265142" flag="0"/>
      <psa10 value="0.1487519337" flag="0"/>
      <psa30 value="0.0126918934" flag="0"/>
    </comp>
    <comp name="--.HHN">
      <acc value="1.0494278507" flag="0"/>
      <vel value="0.4016560658" flag="0"/>
      <psa03 value="2.0755532034" flag="0"/>
      <psa10 value="0.3126331870" flag="0"/>
      <psa30 value="0.0306378230" flag="0"/>
    </comp>
    <comp name="--.HHZ">
      <acc value="0.8041709119" flag="0"/>
      <vel value="0.3027712934" flag="0"/>
      <psa03 value="2.0780459538" flag="0"/>
      <psa10 value="0.1787460737" flag="0"/>
      <psa30 value="0.0153767444" flag="0"/>
    </comp>
  </station>
  <station code="RODB" name="RODB" netid="HL" insttype="CMG-5" lat="36.4471" lon="28.2212">
    <comp name="00.HNE">
      <acc value="0.1342762880" flag="0"/>
      <vel value="0.1099609398" flag="0"/>
      <psa03 value="0.4015662337" flag="0"/>
      <psa10 value="0.0872528599" flag="0"/>
      <psa30 value="0.0387711439" flag="0"/>
    </comp>
    <comp name="00.HNN">
      <acc value="0.1451194146" flag="0"/>
      <vel value="0.1010146405" flag="0"/>
      <psa03 value="0.5094732649" flag="0"/>
      <psa10 value="0.0782669403" flag="0"/>
      <psa30 value="0.0435160037" flag="0"/>
    </comp>
    <comp name="00.HNZ">
      <acc value="0.1241559923" flag="0"/>
      <vel value="0.0553280405" flag="0"/>
      <psa03 value="0.2315503433" flag="0"/>
      <psa10 value="0.0544533642" flag="0"/>
      <psa30 value="0.0113078205" flag="0"/>
    </comp>
  </station>
  <station code="SIVA" name="SIVA" netid="HL" insttype="60" lat="35.0178" lon="24.812">
    <comp name="--.HHN">
      <acc value="0.2151098344" flag="0"/>
      <vel value="0.1937853553" flag="0"/>
      <psa03 value="0.4301840202" flag="0"/>
      <psa10 value="0.3584466687" flag="0"/>
      <psa30 value="0.0308025755" flag="0"/>
    </comp>
    <comp name="--.HHE">
      <acc value="0.3141399342" flag="0"/>
      <vel value="0.2586710817" flag="0"/>
      <psa03 value="1.0631301400" flag="0"/>
      <psa10 value="0.3440084721" flag="0"/>
      <psa30 value="0.0437548141" flag="0"/>
    </comp>
    <comp name="--.HHZ">
      <acc value="0.1147830922" flag="0"/>
      <vel value="0.1250368243" flag="0"/>
      <psa03 value="0.3174964222" flag="0"/>
      <psa10 value="0.1437316029" flag="0"/>
      <psa30 value="0.0223795704" flag="0"/>
    </comp>
  </station>
  <station code="THERA" name="THERA" netid="HL" insttype="120" lat="36.367" lon="25.4753">
    <comp name="--.HHE">
      <acc value="0.3666632842" flag="0"/>
      <vel value="0.1294940723" flag="0"/>
      <psa03 value="0.3430455239" flag="0"/>
      <psa10 value="0.0984427387" flag="0"/>
      <psa30 value="0.0152443870" flag="0"/>
    </comp>
    <comp name="--.HHN">
      <acc value="0.1950618857" flag="0"/>
      <vel value="0.0837175723" flag="0"/>
      <psa03 value="0.2668592019" flag="0"/>
      <psa10 value="0.0257678825" flag="0"/>
      <psa30 value="0.0067662274" flag="0"/>
    </comp>
    <comp name="--.HHZ">
      <acc value="0.2725559509" flag="0"/>
      <vel value="0.0822392985" flag="0"/>
      <psa03 value="0.2498587391" flag="0"/>
      <psa10 value="0.0485839627" flag="0"/>
      <psa30 value="0.0097562092" flag="0"/>
    </comp>
  </station>
  <station code="THRA" name="THRA" netid="HL" insttype="CMG-5" lat="36.415" lon="25.4324">
    <comp name="00.HNZ">
      <acc value="0.3335986584" flag="0"/>
      <vel value="0.1335191700" flag="0"/>
      <psa03 value="0.5985836159" flag="0"/>
      <psa10 value="0.1257485009" flag="0"/>
      <psa30 value="0.0131401880" flag="0"/>
    </comp>
    <comp name="00.HNN">
      <acc value="0.6020991327" flag="0"/>
      <vel value="0.2637397760" flag="0"/>
      <psa03 value="0.6442766814" flag="0"/>
      <psa10 value="0.3112980510" flag="0"/>
      <psa30 value="0.0464033481" flag="0"/>
    </comp>
    <comp name="00.HNE">
      <acc value="0.7044880605" flag="0"/>
      <vel value="0.3590163089" flag="0"/>
      <psa03 value="0.8980724602" flag="0"/>
      <psa10 value="0.4947087319" flag="0"/>
      <psa30 value="0.0761327849" flag="0"/>
    </comp>
  </station>
  <station code="ZKR" name="ZKR" netid="HL" insttype="120" lat="35.1147" lon="26.2169">
    <comp name="--.HHE">
      <acc value="0.7027863346" flag="0"/>
      <vel value="0.3513241928" flag="0"/>
      <psa03 value="2.4733537687" flag="0"/>
      <psa10 value="0.6936021178" flag="0"/>
      <psa30 value="0.0488590642" flag="0"/>
    </comp>
    <comp name="--.HHZ">
      <acc value="0.3152676498" flag="0"/>
      <vel value="0.1922731734" flag="0"/>
      <psa03 value="0.4608742493" flag="0"/>
      <psa10 value="0.2383602167" flag="0"/>
      <psa30 value="0.0334230740" flag="0"/>
    </comp>
    <comp name="--.HHN">
      <acc value="0.3001201518" flag="0"/>
      <vel value="0.1486637588" flag="0"/>
      <psa03 value="0.7608722810" flag="0"/>
      <psa10 value="0.2598024683" flag="0"/>
      <psa30 value="0.0141939804" flag="0"/>
    </comp>
  </station>
  <station code="CMBO" name="CMBO" netid="HT" insttype="120P," lat="36.4709" lon="25.4056">
    <comp name="--.HHE">
      <acc value="1.4055971982" flag="0"/>
      <vel value="0.5721144756" flag="0"/>
      <psa03 value="2.5190049683" flag="0"/>
      <psa10 value="0.3245248839" flag="0"/>
      <psa30 value="0.0754443573" flag="0"/>
    </comp>
    <comp name="--.HHN">
      <acc value="1.0401658511" flag="0"/>
      <vel value="0.5284501599" flag="0"/>
      <psa03 value="1.8616240884" flag="0"/>
      <psa10 value="0.3301504332" flag="0"/>
      <psa30 value="0.0602823520" flag="0"/>
    </comp>
    <comp name="--.HHZ">
      <acc value="0.9750601139" flag="0"/>
      <vel value="0.3299530626" flag="0"/>
      <psa03 value="2.1974851705" flag="0"/>
      <psa10 value="0.0822866034" flag="0"/>
      <psa30 value="0.0183748862" flag="0"/>
    </comp>
  </station>
</stationlist>
