<stationlist created="1778070021">
	<station code="NAX1" name="NAX1" netid="HI" source="ITSAK Strong Motion Network" insttype="" lat="37.101394" lon="25.374103">
		<comp name="--.HNE" depth="0.0">
			<acc value="0.0615611595871079" flag="0"/>
			<vel value="0.0119440783386359" flag="0"/>
			<psa03 value="0.0356937577654328" flag="0"/>
			<psa10 value="0.00459275112222468" flag="0"/>
			<psa30 value="0.00032792763505458" flag="0"/>
		</comp>
		<comp name="--.HNN" depth="0.0">
			<acc value="0.0698324774493055" flag="0"/>
			<vel value="0.0153552608927618" flag="0"/>
			<psa03 value="0.0310610784773489" flag="0"/>
			<psa10 value="0.00516842082002505" flag="0"/>
			<psa30 value="0.000578445923372368" flag="0"/>
		</comp>
		<comp name="--.HNZ" depth="0.0">
			<acc value="0.0313943453504757" flag="0"/>
			<vel value="0.00776798566492455" flag="0"/>
			<psa03 value="0.0417519064839144" flag="0"/>
			<psa10 value="0.00282131424197291" flag="0"/>
			<psa30 value="0.000255018143700278" flag="0"/>
		</comp>
	</station>
	<station code="IACM" name="IACM" netid="HL" source="National Observatory of Athens Seismic Network" insttype="" lat="35.3058" lon="25.0709">
		<comp name="--.HNE" depth="0.0">
			<acc value="0.0285920428169349" flag="0"/>
			<vel value="0.0111272199029026" flag="0"/>
			<psa03 value="0.0777435928396634" flag="0"/>
			<psa10 value="0.0186002703016125" flag="0"/>
			<psa30 value="0.00091692855451805" flag="0"/>
		</comp>
		<comp name="--.HNN" depth="0.0">
			<acc value="0.0297718532626044" flag="0"/>
			<vel value="0.0198653341716931" flag="0"/>
			<psa03 value="0.0863459127011913" flag="0"/>
			<psa10 value="0.0126430119124767" flag="0"/>
			<psa30 value="0.00114398286658381" flag="0"/>
		</comp>
		<comp name="--.HNZ" depth="0.0">
			<acc value="0.0217136519586599" flag="0"/>
			<vel value="0.00726705100304984" flag="0"/>
			<psa03 value="0.0364426615432869" flag="0"/>
			<psa10 value="0.00557230476283857" flag="0"/>
			<psa30 value="0.000344214547316178" flag="0"/>
		</comp>
	</station>
	<station code="IMMV" name="IMMV" netid="HL" source="National Observatory of Athens Seismic Network" insttype="" lat="35.4606" lon="23.9811">
		<comp name="--.HNE" depth="0.0">
			<acc value="0.00530328591257847" flag="0"/>
			<vel value="0.00265224245911754" flag="0"/>
			<psa03 value="0.0196006109442964" flag="0"/>
			<psa10 value="0.00269477828146071" flag="0"/>
			<psa30 value="0.000201387663860825" flag="0"/>
		</comp>
		<comp name="--.HNN" depth="0.0">
			<acc value="0.00554540655048468" flag="0"/>
			<vel value="0.00289014466754881" flag="0"/>
			<psa03 value="0.0264767148899312" flag="0"/>
			<psa10 value="0.00331468192516014" flag="0"/>
			<psa30 value="0.000158501385355379" flag="0"/>
		</comp>
		<comp name="--.HNZ" depth="0.0">
			<acc value="0.00452482883621756" flag="0"/>
			<vel value="0.0021063883839065" flag="0"/>
			<psa03 value="0.0181199829120095" flag="0"/>
			<psa10 value="0.00135444324084228" flag="0"/>
			<psa30 value="0.000111265678096703" flag="0"/>
		</comp>
	</station>
	<station code="THRA" name="THRA" netid="HL" source="National Observatory of Athens Seismic Network" insttype="" lat="36.41502" lon="25.43244">
		<comp name="00.HNE" depth="0.0">
			<acc value="1.04893527362824" flag="0"/>
			<vel value="0.383616213311409" flag="0"/>
			<psa03 value="2.07843385270972" flag="0"/>
			<psa10 value="0.488406224514515" flag="0"/>
			<psa30 value="0.022817948243761" flag="0"/>
		</comp>
		<comp name="00.HNN" depth="0.0">
			<acc value="0.93096381611008" flag="0"/>
			<vel value="0.369448866025478" flag="0"/>
			<psa03 value="2.02957111579438" flag="0"/>
			<psa10 value="0.495664215319714" flag="0"/>
			<psa30 value="0.0217170136455665" flag="0"/>
		</comp>
		<comp name="00.HNZ" depth="0.0">
			<acc value="0.811674785839907" flag="0"/>
			<vel value="0.258785862954321" flag="0"/>
			<psa03 value="1.34613784169014" flag="0"/>
			<psa10 value="0.125498268644539" flag="0"/>
			<psa30 value="0.00892845396627853" flag="0"/>
		</comp>
	</station>
	<station code="TNSA" name="TNSA" netid="HL" source="National Observatory of Athens Seismic Network" insttype="" lat="37.53942" lon="25.1631">
		<comp name="00.HNE" depth="0.0">
			<acc value="0.0236868255952725" flag="0"/>
			<vel value="0.00783554212985535" flag="0"/>
			<psa03 value="0.0260813996397232" flag="0"/>
			<psa10 value="0.00297087602470719" flag="0"/>
			<psa30 value="0.000228693352937371" flag="0"/>
		</comp>
		<comp name="00.HNN" depth="0.0">
			<acc value="0.0442372294171552" flag="0"/>
			<vel value="0.0109201208398443" flag="0"/>
			<psa03 value="0.0312268290408357" flag="0"/>
			<psa10 value="0.00272786367632978" flag="0"/>
			<psa30 value="0.000404328816049522" flag="0"/>
		</comp>
		<comp name="00.HNZ" depth="0.0">
			<acc value="0.0225976818300847" flag="0"/>
			<vel value="0.00705964231760087" flag="0"/>
			<psa03 value="0.023510234520975" flag="0"/>
			<psa10 value="0.00544974242492041" flag="0"/>
			<psa30 value="0.000386095941544793" flag="0"/>
		</comp>
	</station>
</stationlist>
