<?xml version="1.0" encoding="UTF-8" standalone="yes"?>
<!DOCTYPE earthquake SYSTEM "stationlist.dtd">
<stationlist created="" xmlns="ch.ethz.sed.shakemap.usgs.xml">
  <station code="THERA" name="THERA" netid="GE" insttype="STS-2/N" lat="36.367" lon="25.4753">
    <comp name="--.HHE">
      <acc value="0.4551330774" flag="0"/>
      <vel value="0.0872533796" flag="0"/>
      <psa03 value="0.3152148728" flag="0"/>
      <psa10 value="0.0687559190" flag="0"/>
      <psa30 value="0.0050904982" flag="0"/>
    </comp>
    <comp name="--.HHN">
      <acc value="0.2324156745" flag="0"/>
      <vel value="0.0762802595" flag="0"/>
      <psa03 value="0.3096663059" flag="0"/>
      <psa10 value="0.0303945151" flag="0"/>
      <psa30 value="0.0016629279" flag="0"/>
    </comp>
    <comp name="--.HHZ">
      <acc value="0.2448139649" flag="0"/>
      <vel value="0.0806515445" flag="0"/>
      <psa03 value="0.4515088838" flag="0"/>
      <psa10 value="0.0298246569" flag="0"/>
      <psa30 value="0.0015768765" flag="0"/>
    </comp>
  </station>
  <station code="MHLO" name="MHLO" netid="HL" insttype="20" lat="36.6898" lon="24.4017">
    <comp name="--.HHE">
      <acc value="0.0398930237" flag="0"/>
      <vel value="0.0236339343" flag="0"/>
      <psa03 value="0.1991963674" flag="0"/>
      <psa10 value="0.0359662166" flag="0"/>
      <psa30 value="0.0018310697" flag="0"/>
    </comp>
    <comp name="--.HHZ">
      <acc value="0.0205437085" flag="0"/>
      <vel value="0.0112515359" flag="0"/>
      <psa03 value="0.0466765626" flag="0"/>
      <psa10 value="0.0137974609" flag="0"/>
      <psa30 value="0.0008448060" flag="0"/>
    </comp>
    <comp name="--.HHN">
      <acc value="0.0533532666" flag="0"/>
      <vel value="0.0224209135" flag="0"/>
      <psa03 value="0.1088202128" flag="0"/>
      <psa10 value="0.0236405903" flag="0"/>
      <psa30 value="0.0010808177" flag="0"/>
    </comp>
  </station>
  <station code="SAP3" name="SAP3" netid="HL" insttype="LE3D20_SMART24" lat="36.4356" lon="25.3454">
    <comp name="--.HHN">
      <acc value="2.4584830080" flag="0"/>
      <vel value="0.8184062287" flag="0"/>
      <psa03 value="5.0059747353" flag="0"/>
      <psa10 value="0.3967528256" flag="0"/>
      <psa30 value="0.0220901952" flag="0"/>
    </comp>
    <comp name="--.HHE">
      <acc value="2.0863098778" flag="0"/>
      <vel value="0.7060935225" flag="0"/>
      <psa03 value="3.9089267679" flag="0"/>
      <psa10 value="0.3076154523" flag="0"/>
      <psa30 value="0.0218292461" flag="0"/>
    </comp>
    <comp name="--.HHZ">
      <acc value="2.4889400540" flag="0"/>
      <vel value="0.6325556868" flag="0"/>
      <psa03 value="3.8119754105" flag="0"/>
      <psa10 value="0.1538458373" flag="0"/>
      <psa30 value="0.0129914770" flag="0"/>
    </comp>
  </station>
  <station code="THERA" name="THERA" netid="HL" insttype="120" lat="36.367" lon="25.4753">
    <comp name="--.HHN">
      <acc value="0.2258283221" flag="0"/>
      <vel value="0.0741020643" flag="0"/>
      <psa03 value="0.3004709801" flag="0"/>
      <psa10 value="0.0301393680" flag="0"/>
      <psa30 value="0.0016454413" flag="0"/>
    </comp>
    <comp name="--.HHZ">
      <acc value="0.2357096756" flag="0"/>
      <vel value="0.0783812941" flag="0"/>
      <psa03 value="0.4393143902" flag="0"/>
      <psa10 value="0.0294286885" flag="0"/>
      <psa30 value="0.0015689799" flag="0"/>
    </comp>
    <comp name="--.HHE">
      <acc value="0.4440706164" flag="0"/>
      <vel value="0.0857146987" flag="0"/>
      <psa03 value="0.3073876326" flag="0"/>
      <psa10 value="0.0680107118" flag="0"/>
      <psa30 value="0.0050599693" flag="0"/>
    </comp>
  </station>
  <station code="THRA" name="THRA" netid="HL" insttype="CMG-5" lat="36.415" lon="25.4324">
    <comp name="00.HNE">
      <acc value="1.0498425876" flag="0"/>
      <vel value="0.3847878568" flag="0"/>
      <psa03 value="2.0854325154" flag="0"/>
      <psa10 value="0.4880174547" flag="0"/>
      <psa30 value="0.0220578318" flag="0"/>
    </comp>
    <comp name="00.HNN">
      <acc value="0.9263981634" flag="0"/>
      <vel value="0.3703542808" flag="0"/>
      <psa03 value="2.0264589729" flag="0"/>
      <psa10 value="0.4949681276" flag="0"/>
      <psa30 value="0.0207088911" flag="0"/>
    </comp>
    <comp name="00.HNZ">
      <acc value="0.8091701843" flag="0"/>
      <vel value="0.2578518574" flag="0"/>
      <psa03 value="1.3437306468" flag="0"/>
      <psa10 value="0.1254504071" flag="0"/>
      <psa30 value="0.0090451234" flag="0"/>
    </comp>
  </station>
  <station code="THT1" name="THT1" netid="HT" insttype="30" lat="36.3858" lon="25.4296">
    <comp name="--.HHN">
      <acc value="0.5767269901" flag="0"/>
      <vel value="0.1109919587" flag="0"/>
      <psa03 value="0.4009506553" flag="0"/>
      <psa10 value="0.0481394647" flag="0"/>
      <psa30 value="0.0029585796" flag="0"/>
    </comp>
    <comp name="--.HHE">
      <acc value="0.7789281257" flag="0"/>
      <vel value="0.2062053276" flag="0"/>
      <psa03 value="0.5759164113" flag="0"/>
      <psa10 value="0.0510223960" flag="0"/>
      <psa30 value="0.0051651080" flag="0"/>
    </comp>
    <comp name="--.HHZ">
      <acc value="0.5805685737" flag="0"/>
      <vel value="0.0608013342" flag="0"/>
      <psa03 value="0.2741992257" flag="0"/>
      <psa10 value="0.0165057455" flag="0"/>
      <psa30 value="0.0015836281" flag="0"/>
    </comp>
  </station>
</stationlist>
