<?xml version="1.0" encoding="UTF-8" standalone="yes"?>
<!DOCTYPE earthquake SYSTEM "stationlist.dtd">
<stationlist created="" xmlns="ch.ethz.sed.shakemap.usgs.xml">
  <station code="GIL" name="GIL" netid="VI" source="ODC" insttype="CMG-3ESP" lat="66.0773" lon="-16.3513">
    <comp name="--.HHN">
      <acc value="0.2229177541" flag="0"/>
      <vel value="0.0981327672" flag="0"/>
      <psa03 value="0.3092460508" flag="0"/>
      <psa10 value="0.0670938084" flag="0"/>
      <psa30 value="0.0043810342" flag="0"/>
    </comp>
    <comp name="--.HHE">
      <acc value="0.0809272777" flag="0"/>
      <vel value="0.0450594948" flag="0"/>
      <psa03 value="0.1627710810" flag="0"/>
      <psa10 value="0.0379551201" flag="0"/>
      <psa30 value="0.0015917858" flag="0"/>
    </comp>
    <comp name="--.HHZ">
      <acc value="0.0796042051" flag="0"/>
      <vel value="0.0293405235" flag="0"/>
      <psa03 value="0.0963149750" flag="0"/>
      <psa10 value="0.0179868052" flag="0"/>
      <psa30 value="0.0011114513" flag="0"/>
    </comp>
  </station>
</stationlist>
