<?xml version="1.0" encoding="UTF-8" standalone="yes"?>
<!DOCTYPE earthquake SYSTEM "stationlist.dtd">
<stationlist created="" xmlns="ch.ethz.sed.shakemap.usgs.xml">
  <station code="CANT" name="CANT" netid="KO" insttype="CMG-3ESP" lat="40.6062" lon="33.6193">
    <comp name="--.HHE">
      <acc value="0.0087210152" flag="0"/>
      <vel value="0.0040630926" flag="0"/>
      <psa03 value="0.0185482146" flag="0"/>
      <psa10 value="0.0053301110" flag="0"/>
      <psa30 value="0.0005713915" flag="0"/>
    </comp>
    <comp name="--.HHN">
      <acc value="0.0079583072" flag="0"/>
      <vel value="0.0038270373" flag="0"/>
      <psa03 value="0.0163213168" flag="0"/>
      <psa10 value="0.0043179210" flag="0"/>
      <psa30 value="0.0002437631" flag="0"/>
    </comp>
    <comp name="--.HHZ">
      <acc value="0.0066723468" flag="0"/>
      <vel value="0.0031061468" flag="0"/>
      <psa03 value="0.0095760363" flag="0"/>
      <psa10 value="0.0037416627" flag="0"/>
      <psa30 value="0.0003543150" flag="0"/>
    </comp>
  </station>
  <station code="CORM" name="CORM" netid="KO" insttype="CMG-3ESP" lat="40.1785" lon="34.6302">
    <comp name="--.HHN">
      <acc value="0.0470614155" flag="0"/>
      <vel value="0.0212369685" flag="0"/>
      <psa03 value="0.1234913260" flag="0"/>
      <psa10 value="0.0127387687" flag="0"/>
      <psa30 value="0.0010298359" flag="0"/>
    </comp>
    <comp name="--.HHZ">
      <acc value="0.0206395990" flag="0"/>
      <vel value="0.0063985219" flag="0"/>
      <psa03 value="0.0303414863" flag="0"/>
      <psa10 value="0.0034486840" flag="0"/>
      <psa30 value="0.0005274445" flag="0"/>
    </comp>
    <comp name="--.HHE">
      <acc value="0.0372292841" flag="0"/>
      <vel value="0.0132444997" flag="0"/>
      <psa03 value="0.0714970978" flag="0"/>
      <psa10 value="0.0097576404" flag="0"/>
      <psa30 value="0.0009148817" flag="0"/>
    </comp>
  </station>
  <station code="DIKM" name="DIKM" netid="KO" insttype="CMG-3T" lat="41.6497" lon="35.2578">
    <comp name="--.HHZ">
      <acc value="0.0106422901" flag="0"/>
      <vel value="0.0042103811" flag="0"/>
      <psa03 value="0.0180421985" flag="0"/>
      <psa10 value="0.0049208939" flag="0"/>
      <psa30 value="0.0002922704" flag="0"/>
    </comp>
    <comp name="--.HHN">
      <acc value="0.0229948820" flag="0"/>
      <vel value="0.0099716749" flag="0"/>
      <psa03 value="0.0396286946" flag="0"/>
      <psa10 value="0.0042265697" flag="0"/>
      <psa30 value="0.0004355919" flag="0"/>
    </comp>
    <comp name="--.HHE">
      <acc value="0.0165628166" flag="0"/>
      <vel value="0.0063945339" flag="0"/>
      <psa03 value="0.0436108779" flag="0"/>
      <psa10 value="0.0046158856" flag="0"/>
      <psa30 value="0.0003585005" flag="0"/>
    </comp>
  </station>
  <station code="KVT" name="KVT" netid="KO" insttype="CMG-3T" lat="41.0807" lon="36.0463">
    <comp name="--.HHE">
      <acc value="0.0086619066" flag="0"/>
      <vel value="0.0034431803" flag="0"/>
      <psa03 value="0.0155009795" flag="0"/>
      <psa10 value="0.0042952699" flag="0"/>
      <psa30 value="0.0001979934" flag="0"/>
    </comp>
    <comp name="--.HHN">
      <acc value="0.0102001412" flag="0"/>
      <vel value="0.0037639569" flag="0"/>
      <psa03 value="0.0242954198" flag="0"/>
      <psa10 value="0.0024464764" flag="0"/>
      <psa30 value="0.0002884889" flag="0"/>
    </comp>
    <comp name="--.HHZ">
      <acc value="0.0083191988" flag="0"/>
      <vel value="0.0030072358" flag="0"/>
      <psa03 value="0.0127811757" flag="0"/>
      <psa10 value="0.0049125060" flag="0"/>
      <psa30 value="0.0002375796" flag="0"/>
    </comp>
  </station>
  <station code="TOS" name="TOS" netid="KO" insttype="CMG-5T" lat="41.0362" lon="34.0226">
    <comp name="--.HNE">
      <acc value="0.0090960896" flag="0"/>
      <vel value="0.0032448977" flag="0"/>
      <psa03 value="0.0164896067" flag="0"/>
      <psa10 value="0.0033331171" flag="0"/>
      <psa30 value="0.0003481338" flag="0"/>
    </comp>
    <comp name="--.HNZ">
      <acc value="0.0070583910" flag="0"/>
      <vel value="0.0025920032" flag="0"/>
      <psa03 value="0.0121563499" flag="0"/>
      <psa10 value="0.0022470651" flag="0"/>
      <psa30 value="0.0003229713" flag="0"/>
    </comp>
    <comp name="--.HNN">
      <acc value="0.0077619916" flag="0"/>
      <vel value="0.0047399640" flag="0"/>
      <psa03 value="0.0173782283" flag="0"/>
      <psa10 value="0.0047283691" flag="0"/>
      <psa30 value="0.0005487677" flag="0"/>
    </comp>
  </station>
</stationlist>
