<?xml version="1.0" encoding="UTF-8" standalone="yes"?>
<!DOCTYPE earthquake SYSTEM "stationlist.dtd">
<stationlist created="" xmlns="ch.ethz.sed.shakemap.usgs.xml">
  <station code="CANT" name="CANT" netid="KO" insttype="CMG-3ESP" lat="40.6062" lon="33.6193">
    <comp name="--.HHE">
      <acc value="0.0087210152" flag="0"/>
      <vel value="0.0040630943" flag="0"/>
      <psa03 value="0.0185482146" flag="0"/>
      <psa10 value="0.0053301110" flag="0"/>
      <psa30 value="0.0005713668" flag="0"/>
    </comp>
    <comp name="--.HHN">
      <acc value="0.0079583072" flag="0"/>
      <vel value="0.0038270378" flag="0"/>
      <psa03 value="0.0163213168" flag="0"/>
      <psa10 value="0.0043179210" flag="0"/>
      <psa30 value="0.0002437680" flag="0"/>
    </comp>
    <comp name="--.HHZ">
      <acc value="0.0066723466" flag="0"/>
      <vel value="0.0031061509" flag="0"/>
      <psa03 value="0.0095760362" flag="0"/>
      <psa10 value="0.0037416627" flag="0"/>
      <psa30 value="0.0003543124" flag="0"/>
    </comp>
  </station>
  <station code="CORM" name="CORM" netid="KO" insttype="CMG-3ESP" lat="40.1785" lon="34.6302">
    <comp name="--.HHE">
      <acc value="0.0372292840" flag="0"/>
      <vel value="0.0132445019" flag="0"/>
      <psa03 value="0.0714970978" flag="0"/>
      <psa10 value="0.0097576405" flag="0"/>
      <psa30 value="0.0009148303" flag="0"/>
    </comp>
    <comp name="--.HHN">
      <acc value="0.0470614154" flag="0"/>
      <vel value="0.0212369667" flag="0"/>
      <psa03 value="0.1234913260" flag="0"/>
      <psa10 value="0.0127387687" flag="0"/>
      <psa30 value="0.0010299154" flag="0"/>
    </comp>
    <comp name="--.HHZ">
      <acc value="0.0206395988" flag="0"/>
      <vel value="0.0063985245" flag="0"/>
      <psa03 value="0.0303414863" flag="0"/>
      <psa10 value="0.0034486840" flag="0"/>
      <psa30 value="0.0005274471" flag="0"/>
    </comp>
  </station>
  <station code="DIKM" name="DIKM" netid="KO" insttype="CMG-3T" lat="41.6497" lon="35.2578">
    <comp name="--.HHE">
      <acc value="0.0165628166" flag="0"/>
      <vel value="0.0063945329" flag="0"/>
      <psa03 value="0.0436108779" flag="0"/>
      <psa10 value="0.0046158855" flag="0"/>
      <psa30 value="0.0003584566" flag="0"/>
    </comp>
    <comp name="--.HHZ">
      <acc value="0.0106422903" flag="0"/>
      <vel value="0.0042103818" flag="0"/>
      <psa03 value="0.0180421985" flag="0"/>
      <psa10 value="0.0049208940" flag="0"/>
      <psa30 value="0.0002922340" flag="0"/>
    </comp>
    <comp name="--.HHN">
      <acc value="0.0229948821" flag="0"/>
      <vel value="0.0099716752" flag="0"/>
      <psa03 value="0.0396286946" flag="0"/>
      <psa10 value="0.0042265695" flag="0"/>
      <psa30 value="0.0004356079" flag="0"/>
    </comp>
  </station>
  <station code="KVT" name="KVT" netid="KO" insttype="CMG-3T" lat="41.0807" lon="36.0463">
    <comp name="--.HHE">
      <acc value="0.0086619067" flag="0"/>
      <vel value="0.0034431801" flag="0"/>
      <psa03 value="0.0155009795" flag="0"/>
      <psa10 value="0.0042952699" flag="0"/>
      <psa30 value="0.0001979745" flag="0"/>
    </comp>
    <comp name="--.HHN">
      <acc value="0.0102001410" flag="0"/>
      <vel value="0.0037639558" flag="0"/>
      <psa03 value="0.0242954198" flag="0"/>
      <psa10 value="0.0024464764" flag="0"/>
      <psa30 value="0.0002884855" flag="0"/>
    </comp>
    <comp name="--.HHZ">
      <acc value="0.0083191983" flag="0"/>
      <vel value="0.0030072363" flag="0"/>
      <psa03 value="0.0127811757" flag="0"/>
      <psa10 value="0.0049125060" flag="0"/>
      <psa30 value="0.0002376120" flag="0"/>
    </comp>
  </station>
  <station code="TOS" name="TOS" netid="KO" insttype="CMG-5T" lat="41.0362" lon="34.0226">
    <comp name="--.HNE">
      <acc value="0.0090960947" flag="0"/>
      <vel value="0.0032449042" flag="0"/>
      <psa03 value="0.0164896067" flag="0"/>
      <psa10 value="0.0033331160" flag="0"/>
      <psa30 value="0.0003479203" flag="0"/>
    </comp>
    <comp name="--.HNZ">
      <acc value="0.0070583915" flag="0"/>
      <vel value="0.0025919963" flag="0"/>
      <psa03 value="0.0121563499" flag="0"/>
      <psa10 value="0.0022470651" flag="0"/>
      <psa30 value="0.0003232356" flag="0"/>
    </comp>
    <comp name="--.HNN">
      <acc value="0.0077619966" flag="0"/>
      <vel value="0.0047399774" flag="0"/>
      <psa03 value="0.0173782283" flag="0"/>
      <psa10 value="0.0047283655" flag="0"/>
      <psa30 value="0.0005482232" flag="0"/>
    </comp>
  </station>
</stationlist>
