<?xml version="1.0" encoding="UTF-8" standalone="yes"?>
<!DOCTYPE earthquake SYSTEM "stationlist.dtd">
<stationlist created="" xmlns="ch.ethz.sed.shakemap.usgs.xml">
  <station code="AKS" name="AKS" netid="KO" insttype="CMG-5T" commtype="DIG" lat="38.8785" lon="27.8129">
    <comp name="--.HNE">
      <acc value="0.0770703486" flag="0"/>
      <vel value="0.0409405567" flag="0"/>
      <psa03 value="0.2078441885" flag="0"/>
      <psa10 value="0.0201753526" flag="0"/>
      <psa30 value="0.0013560118" flag="0"/>
    </comp>
    <comp name="--.HNZ">
      <acc value="0.0396169666" flag="0"/>
      <vel value="0.0100740886" flag="0"/>
      <psa03 value="0.0692526177" flag="0"/>
      <psa10 value="0.0072471221" flag="0"/>
      <psa30 value="0.0013242453" flag="0"/>
    </comp>
    <comp name="--.HNN">
      <acc value="0.0771361545" flag="0"/>
      <vel value="0.0291393349" flag="0"/>
      <psa03 value="0.2112714422" flag="0"/>
      <psa10 value="0.0205920232" flag="0"/>
      <psa30 value="0.0025133855" flag="0"/>
    </comp>
  </station>
  <station code="BALB" name="BALB" netid="KO" insttype="CMG-5T" commtype="DIG" lat="39.6507" lon="27.8642">
    <comp name="--.HNZ">
      <acc value="0.0328817335" flag="0"/>
      <vel value="0.0137270483" flag="0"/>
      <psa03 value="0.0553079620" flag="0"/>
      <psa10 value="0.0082174734" flag="0"/>
      <psa30 value="0.0010712492" flag="0"/>
    </comp>
    <comp name="--.HNN">
      <acc value="0.0450686509" flag="0"/>
      <vel value="0.0206466484" flag="0"/>
      <psa03 value="0.0553996872" flag="0"/>
      <psa10 value="0.0328168264" flag="0"/>
      <psa30 value="0.0016929554" flag="0"/>
    </comp>
    <comp name="--.HNE">
      <acc value="0.0500057405" flag="0"/>
      <vel value="0.0185530876" flag="0"/>
      <psa03 value="0.0702968698" flag="0"/>
      <psa10 value="0.0160310279" flag="0"/>
      <psa30 value="0.0015204598" flag="0"/>
    </comp>
  </station>
  <station code="DST" name="DST" netid="KO" insttype="CMG-5T" commtype="DIG" lat="39.6041" lon="28.6267">
    <comp name="--.HNE">
      <acc value="0.0503858996" flag="0"/>
      <vel value="0.0120367725" flag="0"/>
      <psa03 value="0.0752582380" flag="0"/>
      <psa10 value="0.0101691698" flag="0"/>
      <psa30 value="0.0011016843" flag="0"/>
    </comp>
    <comp name="--.HNZ">
      <acc value="0.0474214076" flag="0"/>
      <vel value="0.0088760744" flag="0"/>
      <psa03 value="0.0531574322" flag="0"/>
      <psa10 value="0.0044893930" flag="0"/>
      <psa30 value="0.0008228296" flag="0"/>
    </comp>
    <comp name="--.HNN">
      <acc value="0.0493237269" flag="0"/>
      <vel value="0.0119524251" flag="0"/>
      <psa03 value="0.0504153248" flag="0"/>
      <psa10 value="0.0108726541" flag="0"/>
      <psa30 value="0.0011392604" flag="0"/>
    </comp>
  </station>
  <station code="GOMA" name="GOMA" netid="KO" insttype="CMG-5T" commtype="DIG" lat="38.7077" lon="27.9175">
    <comp name="--.HNN">
      <acc value="0.0640381466" flag="0"/>
      <vel value="0.0366651827" flag="0"/>
      <psa03 value="0.1495489541" flag="0"/>
      <psa10 value="0.0201531688" flag="0"/>
      <psa30 value="0.0014698938" flag="0"/>
    </comp>
    <comp name="--.HNE">
      <acc value="0.0710463317" flag="0"/>
      <vel value="0.0401271554" flag="0"/>
      <psa03 value="0.1975151276" flag="0"/>
      <psa10 value="0.0311133524" flag="0"/>
      <psa30 value="0.0014442165" flag="0"/>
    </comp>
    <comp name="--.HNZ">
      <acc value="0.0456716694" flag="0"/>
      <vel value="0.0138287703" flag="0"/>
      <psa03 value="0.0828777462" flag="0"/>
      <psa10 value="0.0082387820" flag="0"/>
      <psa30 value="0.0009246994" flag="0"/>
    </comp>
  </station>
  <station code="GONE" name="GONE" netid="KO" insttype="CMG-5T" commtype="DIG" lat="40.0466" lon="27.686">
    <comp name="--.HNN">
      <acc value="0.0234111278" flag="0"/>
      <vel value="0.0088967978" flag="0"/>
      <psa03 value="0.0499720607" flag="0"/>
      <psa10 value="0.0113082665" flag="0"/>
      <psa30 value="0.0011405120" flag="0"/>
    </comp>
    <comp name="--.HNE">
      <acc value="0.0188339185" flag="0"/>
      <vel value="0.0094556731" flag="0"/>
      <psa03 value="0.0324977745" flag="0"/>
      <psa10 value="0.0127501816" flag="0"/>
      <psa30 value="0.0007963749" flag="0"/>
    </comp>
    <comp name="--.HNZ">
      <acc value="0.0177982322" flag="0"/>
      <vel value="0.0060757040" flag="0"/>
      <psa03 value="0.0177360656" flag="0"/>
      <psa10 value="0.0041895141" flag="0"/>
      <psa30 value="0.0003604879" flag="0"/>
    </comp>
  </station>
  <station code="KCTX" name="KCTX" netid="KO" insttype="CMG-3ESP" commtype="DIG" lat="40.2626" lon="28.3353">
    <comp name="--.HHZ">
      <acc value="0.0168247040" flag="0"/>
      <vel value="0.0044610313" flag="0"/>
      <psa03 value="0.0167316093" flag="0"/>
      <psa10 value="0.0048620235" flag="0"/>
      <psa30 value="0.0003218039" flag="0"/>
    </comp>
    <comp name="--.HHN">
      <acc value="0.0236478908" flag="0"/>
      <vel value="0.0071729065" flag="0"/>
      <psa03 value="0.0351650423" flag="0"/>
      <psa10 value="0.0072267989" flag="0"/>
      <psa30 value="0.0005512268" flag="0"/>
    </comp>
    <comp name="--.HHE">
      <acc value="0.0208821337" flag="0"/>
      <vel value="0.0140103906" flag="0"/>
      <psa03 value="0.0229840919" flag="0"/>
      <psa10 value="0.0171532744" flag="0"/>
      <psa30 value="0.0010015326" flag="0"/>
    </comp>
  </station>
  <station code="KULA" name="KULA" netid="KO" insttype="CMG-3T" commtype="DIG" lat="38.5145" lon="28.6607">
    <comp name="--.HHN">
      <acc value="0.0453925757" flag="0"/>
      <vel value="0.0115808180" flag="0"/>
      <psa03 value="0.0483643827" flag="0"/>
      <psa10 value="0.0058515047" flag="0"/>
      <psa30 value="0.0004399265" flag="0"/>
    </comp>
    <comp name="--.HHZ">
      <acc value="0.0516142615" flag="0"/>
      <vel value="0.0112392927" flag="0"/>
      <psa03 value="0.0347511429" flag="0"/>
      <psa10 value="0.0061946207" flag="0"/>
      <psa30 value="0.0005134000" flag="0"/>
    </comp>
    <comp name="--.HHE">
      <acc value="0.0856993251" flag="0"/>
      <vel value="0.0261227737" flag="0"/>
      <psa03 value="0.0553415995" flag="0"/>
      <psa10 value="0.0119745292" flag="0"/>
      <psa30 value="0.0007513772" flag="0"/>
    </comp>
  </station>
  <station code="ORLT" name="ORLT" netid="KO" insttype="CMG-5T" commtype="DIG" lat="40.0452" lon="28.8914">
    <comp name="--.HNE">
      <acc value="0.0314657038" flag="0"/>
      <vel value="0.0195939993" flag="0"/>
      <psa03 value="0.0843039776" flag="0"/>
      <psa10 value="0.0258283654" flag="0"/>
      <psa30 value="0.0015935231" flag="0"/>
    </comp>
    <comp name="--.HNN">
      <acc value="0.0534844222" flag="0"/>
      <vel value="0.0409278716" flag="0"/>
      <psa03 value="0.1755365285" flag="0"/>
      <psa10 value="0.0358936807" flag="0"/>
      <psa30 value="0.0022084446" flag="0"/>
    </comp>
    <comp name="--.HNZ">
      <acc value="0.0177310121" flag="0"/>
      <vel value="0.0088125574" flag="0"/>
      <psa03 value="0.0316276391" flag="0"/>
      <psa10 value="0.0171580127" flag="0"/>
      <psa30 value="0.0012967681" flag="0"/>
    </comp>
  </station>
  <station code="SHAP" name="SHAP" netid="KO" insttype="CMG-5T" commtype="DIG" lat="39.0231" lon="29.222">
    <comp name="--.HNN">
      <acc value="0.0511794580" flag="0"/>
      <vel value="0.0184318150" flag="0"/>
      <psa03 value="0.0716513930" flag="0"/>
      <psa10 value="0.0132981883" flag="0"/>
      <psa30 value="0.0008747904" flag="0"/>
    </comp>
    <comp name="--.HNE">
      <acc value="0.0620442380" flag="0"/>
      <vel value="0.0159845664" flag="0"/>
      <psa03 value="0.0758114420" flag="0"/>
      <psa10 value="0.0070407512" flag="0"/>
      <psa30 value="0.0005298449" flag="0"/>
    </comp>
    <comp name="--.HNZ">
      <acc value="0.0306531895" flag="0"/>
      <vel value="0.0079259457" flag="0"/>
      <psa03 value="0.0378027110" flag="0"/>
      <psa10 value="0.0055052990" flag="0"/>
      <psa30 value="0.0004592249" flag="0"/>
    </comp>
  </station>
  <station code="SIMA" name="SIMA" netid="KO" insttype="CMG-6T" commtype="DIG" lat="39.0833" lon="28.9825">
    <comp name="--.HHZ">
      <acc value="0.0331987718" flag="0"/>
      <vel value="0.0079449159" flag="0"/>
      <psa03 value="0.0503997571" flag="0"/>
      <psa10 value="0.0058514469" flag="0"/>
      <psa30 value="0.0005877761" flag="0"/>
    </comp>
    <comp name="--.HHN">
      <acc value="0.0567528887" flag="0"/>
      <vel value="0.0257149546" flag="0"/>
      <psa03 value="0.1588472287" flag="0"/>
      <psa10 value="0.0127901919" flag="0"/>
      <psa30 value="0.0007012338" flag="0"/>
    </comp>
    <comp name="--.HHE">
      <acc value="0.0628969133" flag="0"/>
      <vel value="0.0222471737" flag="0"/>
      <psa03 value="0.1127048445" flag="0"/>
      <psa10 value="0.0062120122" flag="0"/>
      <psa30 value="0.0007086351" flag="0"/>
    </comp>
  </station>
  <station code="SMAA" name="SMAA" netid="KO" insttype="CMG-5T" commtype="DIG" lat="39.1005" lon="28.9805">
    <comp name="--.HNN">
      <acc value="0.0571101062" flag="0"/>
      <vel value="0.0313710766" flag="0"/>
      <psa03 value="0.2107242760" flag="0"/>
      <psa10 value="0.0389496456" flag="0"/>
      <psa30 value="0.0032644586" flag="0"/>
    </comp>
    <comp name="--.HNE">
      <acc value="0.0590973051" flag="0"/>
      <vel value="0.0323848270" flag="0"/>
      <psa03 value="0.1989674013" flag="0"/>
      <psa10 value="0.0409007242" flag="0"/>
      <psa30 value="0.0031749850" flag="0"/>
    </comp>
    <comp name="--.HNZ">
      <acc value="0.0243528023" flag="0"/>
      <vel value="0.0142043133" flag="0"/>
      <psa03 value="0.0367419769" flag="0"/>
      <psa10 value="0.0332058463" flag="0"/>
      <psa30 value="0.0012463512" flag="0"/>
    </comp>
  </station>
  <station code="SOMA" name="SOMA" netid="KO" insttype="CMG-5T" commtype="DIG" lat="39.1564" lon="27.5341">
    <comp name="--.HNN">
      <acc value="0.0603507841" flag="0"/>
      <vel value="0.0225594237" flag="0"/>
      <psa03 value="0.1090111778" flag="0"/>
      <psa10 value="0.0246839601" flag="0"/>
      <psa30 value="0.0019914056" flag="0"/>
    </comp>
    <comp name="--.HNZ">
      <acc value="0.0483678014" flag="0"/>
      <vel value="0.0147696195" flag="0"/>
      <psa03 value="0.0513292443" flag="0"/>
      <psa10 value="0.0113288665" flag="0"/>
      <psa30 value="0.0013760484" flag="0"/>
    </comp>
    <comp name="--.HNE">
      <acc value="0.0551026878" flag="0"/>
      <vel value="0.0210762921" flag="0"/>
      <psa03 value="0.1057906596" flag="0"/>
      <psa10 value="0.0204418349" flag="0"/>
      <psa30 value="0.0015852531" flag="0"/>
    </comp>
  </station>
  <station code="SUSR" name="SUSR" netid="KO" insttype="CMG-5T" commtype="DIG" lat="39.9627" lon="28.0835">
    <comp name="--.HNE">
      <acc value="0.0336554864" flag="0"/>
      <vel value="0.0099195644" flag="0"/>
      <psa03 value="0.0382193642" flag="0"/>
      <psa10 value="0.0053638325" flag="0"/>
      <psa30 value="0.0004754197" flag="0"/>
    </comp>
    <comp name="--.HNN">
      <acc value="0.0282485874" flag="0"/>
      <vel value="0.0078334219" flag="0"/>
      <psa03 value="0.0364296796" flag="0"/>
      <psa10 value="0.0038832191" flag="0"/>
      <psa30 value="0.0004524452" flag="0"/>
    </comp>
    <comp name="--.HNZ">
      <acc value="0.0367882456" flag="0"/>
      <vel value="0.0070002696" flag="0"/>
      <psa03 value="0.0216427960" flag="0"/>
      <psa10 value="0.0037412567" flag="0"/>
      <psa30 value="0.0007649285" flag="0"/>
    </comp>
  </station>
  <station code="TVSB" name="TVSB" netid="KO" insttype="CMG-3T" commtype="DIG" lat="39.4497" lon="29.4615">
    <comp name="--.HHE">
      <acc value="0.0485523219" flag="0"/>
      <vel value="0.0265324791" flag="0"/>
      <psa03 value="0.1377525853" flag="0"/>
      <psa10 value="0.0152045231" flag="0"/>
      <psa30 value="0.0008950067" flag="0"/>
    </comp>
    <comp name="--.HHN">
      <acc value="0.0256429492" flag="0"/>
      <vel value="0.0140829068" flag="0"/>
      <psa03 value="0.0944868285" flag="0"/>
      <psa10 value="0.0046861953" flag="0"/>
      <psa30 value="0.0007214306" flag="0"/>
    </comp>
    <comp name="--.HHZ">
      <acc value="0.0167961501" flag="0"/>
      <vel value="0.0055327893" flag="0"/>
      <psa03 value="0.0365684188" flag="0"/>
      <psa10 value="0.0069419136" flag="0"/>
      <psa30 value="0.0006008019" flag="0"/>
    </comp>
  </station>
  <station code="YAYO" name="YAYO" netid="KO" insttype="CMG-6T" commtype="DIG" lat="39.6113" lon="27.0726">
    <comp name="--.HHN">
      <acc value="0.0147664543" flag="0"/>
      <vel value="0.0085776878" flag="0"/>
      <psa03 value="0.0397852695" flag="0"/>
      <psa10 value="0.0073716485" flag="0"/>
      <psa30 value="0.0004069058" flag="0"/>
    </comp>
    <comp name="--.HHZ">
      <acc value="0.0186278243" flag="0"/>
      <vel value="0.0088024052" flag="0"/>
      <psa03 value="0.0290968299" flag="0"/>
      <psa10 value="0.0052373268" flag="0"/>
      <psa30 value="0.0004956002" flag="0"/>
    </comp>
    <comp name="--.HHE">
      <acc value="0.0125498643" flag="0"/>
      <vel value="0.0098926461" flag="0"/>
      <psa03 value="0.0225883771" flag="0"/>
      <psa10 value="0.0081594265" flag="0"/>
      <psa30 value="0.0005812035" flag="0"/>
    </comp>
  </station>
  <station code="YENI" name="YENI" netid="KO" insttype="CMG-5T" commtype="DIG" lat="39.9364" lon="27.2422">
    <comp name="--.HNE">
      <acc value="0.0256849701" flag="0"/>
      <vel value="0.0068163813" flag="0"/>
      <psa03 value="0.0498299286" flag="0"/>
      <psa10 value="0.0081256136" flag="0"/>
      <psa30 value="0.0008096227" flag="0"/>
    </comp>
    <comp name="--.HNN">
      <acc value="0.0362001328" flag="0"/>
      <vel value="0.0125937647" flag="0"/>
      <psa03 value="0.0665049926" flag="0"/>
      <psa10 value="0.0136682055" flag="0"/>
      <psa30 value="0.0006647777" flag="0"/>
    </comp>
    <comp name="--.HNZ">
      <acc value="0.0234478263" flag="0"/>
      <vel value="0.0053999363" flag="0"/>
      <psa03 value="0.0194996980" flag="0"/>
      <psa10 value="0.0043544085" flag="0"/>
      <psa30 value="0.0003653815" flag="0"/>
    </comp>
  </station>
</stationlist>
