<?xml version="1.0" encoding="UTF-8" standalone="yes"?>
<!DOCTYPE earthquake SYSTEM "stationlist.dtd">
<stationlist created="" xmlns="ch.ethz.sed.shakemap.usgs.xml">
  <station code="ANDN" name="ANDN" netid="TU" insttype="T" lat="37.58" lon="36.3452">
    <comp name="--.HHN">
      <acc value="0.0229848156" flag="0"/>
      <vel value="0.0097361698" flag="0"/>
      <psa03 value="0.0437217238" flag="0"/>
      <psa10 value="0.0137406775" flag="0"/>
      <psa30 value="0.0006464471" flag="0"/>
    </comp>
    <comp name="--.HHZ">
      <acc value="0.0075855378" flag="0"/>
      <vel value="0.0070322839" flag="0"/>
      <psa03 value="0.0195231762" flag="0"/>
      <psa10 value="0.0092412711" flag="0"/>
      <psa30 value="0.0007130577" flag="0"/>
    </comp>
  </station>
</stationlist>
