<?xml version="1.0" encoding="UTF-8" standalone="yes"?>
<!DOCTYPE earthquake SYSTEM "stationlist.dtd">
<stationlist created="" xmlns="ch.ethz.sed.shakemap.usgs.xml">
  <station code="KARP" name="KARP" netid="GE" insttype="STS-2/N" lat="35.5471" lon="27.1611">
    <comp name="--.HHE">
      <acc value="0.0407602775" flag="0"/>
      <vel value="0.0192228153" flag="0"/>
      <psa03 value="0.0820026979" flag="0"/>
      <psa10 value="0.0306798583" flag="0"/>
      <psa30 value="0.0009595646" flag="0"/>
    </comp>
    <comp name="--.HHZ">
      <acc value="0.0284398713" flag="0"/>
      <vel value="0.0197672150" flag="0"/>
      <psa03 value="0.0650282492" flag="0"/>
      <psa10 value="0.0247999648" flag="0"/>
      <psa30 value="0.0015820779" flag="0"/>
    </comp>
    <comp name="--.HHN">
      <acc value="0.0598509420" flag="0"/>
      <vel value="0.0413481456" flag="0"/>
      <psa03 value="0.0946412604" flag="0"/>
      <psa10 value="0.0546444648" flag="0"/>
      <psa30 value="0.0029129319" flag="0"/>
    </comp>
  </station>
  <station code="ARG" name="ARG" netid="HL" insttype="LE3D20_DR24" lat="36.2136" lon="28.1212">
    <comp name="--.HHZ">
      <acc value="0.0132690643" flag="0"/>
      <vel value="0.0084281040" flag="0"/>
      <psa03 value="0.0210213865" flag="0"/>
      <psa10 value="0.0180449979" flag="0"/>
      <psa30 value="0.0017418598" flag="0"/>
    </comp>
    <comp name="--.HHN">
      <acc value="0.0173335944" flag="0"/>
      <vel value="0.0090294416" flag="0"/>
      <psa03 value="0.0465388623" flag="0"/>
      <psa10 value="0.0119331523" flag="0"/>
      <psa30 value="0.0015494313" flag="0"/>
    </comp>
    <comp name="--.HHE">
      <acc value="0.0241456893" flag="0"/>
      <vel value="0.0201931929" flag="0"/>
      <psa03 value="0.0443136730" flag="0"/>
      <psa10 value="0.0187518144" flag="0"/>
      <psa30 value="0.0036708463" flag="0"/>
    </comp>
  </station>
  <station code="KARP" name="KARP" netid="HL" insttype="120" lat="35.5471" lon="27.1611">
    <comp name="--.HHN">
      <acc value="0.0588833554" flag="0"/>
      <vel value="0.0406381469" flag="0"/>
      <psa03 value="0.0925227400" flag="0"/>
      <psa10 value="0.0542566103" flag="0"/>
      <psa30 value="0.0029001362" flag="0"/>
    </comp>
    <comp name="--.HHZ">
      <acc value="0.0272785485" flag="0"/>
      <vel value="0.0194374424" flag="0"/>
      <psa03 value="0.0634753355" flag="0"/>
      <psa10 value="0.0246597587" flag="0"/>
      <psa30 value="0.0015733004" flag="0"/>
    </comp>
    <comp name="--.HHE">
      <acc value="0.0398546360" flag="0"/>
      <vel value="0.0189666698" flag="0"/>
      <psa03 value="0.0795674714" flag="0"/>
      <psa10 value="0.0305095368" flag="0"/>
      <psa30 value="0.0009518374" flag="0"/>
    </comp>
  </station>
  <station code="NISR" name="NISR" netid="HL" insttype="65535" lat="36.6106" lon="27.131">
    <comp name="--.HHE">
      <acc value="0.7980469954" flag="0"/>
      <vel value="0.2856059572" flag="0"/>
      <psa03 value="2.1455724759" flag="0"/>
      <psa10 value="0.0588545421" flag="0"/>
      <psa30 value="0.0064062226" flag="0"/>
    </comp>
    <comp name="--.HHZ">
      <acc value="0.2779097185" flag="0"/>
      <vel value="0.0708502470" flag="0"/>
      <psa03 value="0.4507744255" flag="0"/>
      <psa10 value="0.0318961667" flag="0"/>
      <psa30 value="0.0022976575" flag="0"/>
    </comp>
    <comp name="--.HHN">
      <acc value="0.6304093473" flag="0"/>
      <vel value="0.1412079976" flag="0"/>
      <psa03 value="0.3841747922" flag="0"/>
      <psa10 value="0.0869320962" flag="0"/>
      <psa30 value="0.0793877979" flag="0"/>
    </comp>
  </station>
</stationlist>
