<stationlist created="1778138325">
	<station code="KSS1" name="KSS1" netid="HI" source="ITSAK Strong Motion Network" insttype="" lat="35.4189" lon="26.9207">
		<comp name="--.HNE" depth="0.0">
			<acc value="0.0101680227044693" flag="0"/>
			<vel value="0.00363600553712458" flag="0"/>
			<psa03 value="0.0167172623844894" flag="0"/>
			<psa10 value="0.0040227424244443" flag="0"/>
			<psa30 value="0.000628916089688341" flag="0"/>
		</comp>
		<comp name="--.HNN" depth="0.0">
			<acc value="0.00963205289173672" flag="0"/>
			<vel value="0.00376561652559167" flag="0"/>
			<psa03 value="0.0275831709997295" flag="0"/>
			<psa10 value="0.00465600281232478" flag="0"/>
			<psa30 value="0.000576114623099296" flag="0"/>
		</comp>
		<comp name="--.HNZ" depth="0.0">
			<acc value="0.00773632004174702" flag="0"/>
			<vel value="0.00370066591118575" flag="0"/>
			<psa03 value="0.00846529776359223" flag="0"/>
			<psa10 value="0.00545065139138891" flag="0"/>
			<psa30 value="0.000529124062290412" flag="0"/>
		</comp>
	</station>
	<station code="AGNA" name="AGNA" netid="HL" source="National Observatory of Athens Seismic Network" insttype="" lat="35.1895" lon="25.71853">
		<comp name="00.HNE" depth="0.0">
			<acc value="0.00337123782822927" flag="0"/>
			<vel value="0.00196332028787711" flag="0"/>
			<psa03 value="0.0080813178997538" flag="0"/>
			<psa10 value="0.00182788292420859" flag="0"/>
			<psa30 value="0.000530616556993466" flag="0"/>
		</comp>
		<comp name="00.HNN" depth="0.0">
			<acc value="0.00489963659813561" flag="0"/>
			<vel value="0.00443009556078434" flag="0"/>
			<psa03 value="0.0124609088073796" flag="0"/>
			<psa10 value="0.00671244169756392" flag="0"/>
			<psa30 value="0.0010581771823805" flag="0"/>
		</comp>
		<comp name="00.HNZ" depth="0.0">
			<acc value="0.00962342291637267" flag="0"/>
			<vel value="0.00151964044670106" flag="0"/>
			<psa03 value="0.00515776355151887" flag="0"/>
			<psa10 value="0.00164733119792035" flag="0"/>
			<psa30 value="0.000573312458304595" flag="0"/>
		</comp>
	</station>
	<station code="KARP" name="KARP" netid="HL" source="National Observatory of Athens Seismic Network" insttype="" lat="35.5471" lon="27.16106">
		<comp name="--.HNE" depth="0.0">
			<acc value="0.0332985689708823" flag="0"/>
			<vel value="0.0136830929550181" flag="0"/>
			<psa03 value="0.069518454214775" flag="0"/>
			<psa10 value="0.0197031752386727" flag="0"/>
			<psa30 value="0.000855493390986604" flag="0"/>
		</comp>
		<comp name="--.HNN" depth="0.0">
			<acc value="0.0466365900332718" flag="0"/>
			<vel value="0.0350982316247243" flag="0"/>
			<psa03 value="0.0767682834388096" flag="0"/>
			<psa10 value="0.0496004820383644" flag="0"/>
			<psa30 value="0.00257251520817534" flag="0"/>
		</comp>
		<comp name="--.HNZ" depth="0.0">
			<acc value="0.0219779598449497" flag="0"/>
			<vel value="0.0159371409747877" flag="0"/>
			<psa03 value="0.0530534520309779" flag="0"/>
			<psa10 value="0.0198327819494513" flag="0"/>
			<psa30 value="0.00129551186297069" flag="0"/>
		</comp>
	</station>
	<station code="KLNA" name="KLNA" netid="HL" source="National Observatory of Athens Seismic Network" insttype="" lat="36.95708" lon="26.97274">
		<comp name="00.HNE" depth="0.0">
			<acc value="0.026737043881357" flag="0"/>
			<vel value="0.0127031080832979" flag="0"/>
			<psa03 value="0.0555960319226359" flag="0"/>
			<psa10 value="0.00635271880517353" flag="0"/>
			<psa30 value="0.00185373925946199" flag="0"/>
		</comp>
		<comp name="00.HNN" depth="0.0">
			<acc value="0.0257232715378993" flag="0"/>
			<vel value="0.00914351724396346" flag="0"/>
			<psa03 value="0.0434180793596774" flag="0"/>
			<psa10 value="0.00680957172571539" flag="0"/>
			<psa30 value="0.000894332682649027" flag="0"/>
		</comp>
		<comp name="00.HNZ" depth="0.0">
			<acc value="0.0254462724593908" flag="0"/>
			<vel value="0.008265936147097" flag="0"/>
			<psa03 value="0.0198481468735567" flag="0"/>
			<psa10 value="0.00255270363533926" flag="0"/>
			<psa30 value="0.000953007402898372" flag="0"/>
		</comp>
	</station>
	<station code="NISR" name="NISR" netid="HL" source="National Observatory of Athens Seismic Network" insttype="" lat="36.6106" lon="27.131">
		<comp name="--.HNE" depth="0.0">
			<acc value="0.709338848270398" flag="0"/>
			<vel value="0.258042205554228" flag="0"/>
			<psa03 value="1.98807186666925" flag="0"/>
			<psa10 value="0.0564126133089706" flag="0"/>
			<psa30 value="0.00663738011052134" flag="0"/>
		</comp>
		<comp name="--.HNN" depth="0.0">
			<acc value="0.600315298370596" flag="0"/>
			<vel value="0.143354093528522" flag="0"/>
			<psa03 value="0.578416858946804" flag="0"/>
			<psa10 value="0.0489288387955198" flag="0"/>
			<psa30 value="0.0112225192701762" flag="0"/>
		</comp>
		<comp name="--.HNZ" depth="0.0">
			<acc value="0.226956303461862" flag="0"/>
			<vel value="0.0582758784506283" flag="0"/>
			<psa03 value="0.347441953824097" flag="0"/>
			<psa10 value="0.0333617488021166" flag="0"/>
			<psa30 value="0.00330563981574774" flag="0"/>
		</comp>
	</station>
	<station code="RODB" name="RODB" netid="HL" source="National Observatory of Athens Seismic Network" insttype="" lat="36.4471" lon="28.22116">
		<comp name="00.HNE" depth="0.0">
			<acc value="0.0107412702003047" flag="0"/>
			<vel value="0.0135503944188427" flag="0"/>
			<psa03 value="0.0246379446429267" flag="0"/>
			<psa10 value="0.0163315800120076" flag="0"/>
			<psa30 value="0.00460364288541426" flag="0"/>
		</comp>
		<comp name="00.HNN" depth="0.0">
			<acc value="0.00858414974602826" flag="0"/>
			<vel value="0.010239657240792" flag="0"/>
			<psa03 value="0.0207606721676444" flag="0"/>
			<psa10 value="0.0133273909992365" flag="0"/>
			<psa30 value="0.00553534668954833" flag="0"/>
		</comp>
		<comp name="00.HNZ" depth="0.0">
			<acc value="0.0148044009553053" flag="0"/>
			<vel value="0.005642925280561" flag="0"/>
			<psa03 value="0.0171075174036555" flag="0"/>
			<psa10 value="0.00944549946797758" flag="0"/>
			<psa30 value="0.00141421253880699" flag="0"/>
		</comp>
	</station>
	<station code="SMG" name="SMG" netid="HL" source="National Observatory of Athens Seismic Network" insttype="" lat="37.70425" lon="26.83772">
		<comp name="00.HNE" depth="0.0">
			<acc value="0.0033740661425471" flag="0"/>
			<vel value="0.00253710534555647" flag="0"/>
			<psa03 value="0.0135015024811834" flag="0"/>
			<psa10 value="0.00394199066878513" flag="0"/>
			<psa30 value="0.000885569706313093" flag="0"/>
		</comp>
		<comp name="00.HNN" depth="0.0">
			<acc value="0.00325904214128284" flag="0"/>
			<vel value="0.00247224944295918" flag="0"/>
			<psa03 value="0.00815096248731386" flag="0"/>
			<psa10 value="0.00378651802573502" flag="0"/>
			<psa30 value="0.000571297585243229" flag="0"/>
		</comp>
		<comp name="00.HNZ" depth="0.0">
			<acc value="0.00187911475371927" flag="0"/>
			<vel value="0.00166265228552354" flag="0"/>
			<psa03 value="0.00337082551418945" flag="0"/>
			<psa10 value="0.00220323579730681" flag="0"/>
			<psa30 value="0.000608026372514045" flag="0"/>
		</comp>
	</station>
	<station code="THRA" name="THRA" netid="HL" source="National Observatory of Athens Seismic Network" insttype="" lat="36.41502" lon="25.43244">
		<comp name="00.HNE" depth="0.0">
			<acc value="0.0211257035785534" flag="0"/>
			<vel value="0.0150423124755065" flag="0"/>
			<psa03 value="0.0421933628115575" flag="0"/>
			<psa10 value="0.0289173106298986" flag="0"/>
			<psa30 value="0.00240173701995926" flag="0"/>
		</comp>
		<comp name="00.HNN" depth="0.0">
			<acc value="0.0166198461230027" flag="0"/>
			<vel value="0.0107362860156763" flag="0"/>
			<psa03 value="0.0489267619911014" flag="0"/>
			<psa10 value="0.0218172484106424" flag="0"/>
			<psa30 value="0.00209236527559738" flag="0"/>
		</comp>
		<comp name="00.HNZ" depth="0.0">
			<acc value="0.0157689232102487" flag="0"/>
			<vel value="0.0063987789207422" flag="0"/>
			<psa03 value="0.0307487739345283" flag="0"/>
			<psa10 value="0.00694675721980936" flag="0"/>
			<psa30 value="0.000760926605570868" flag="0"/>
		</comp>
	</station>
	<station code="CAME" name="CAME" netid="KO" source="Bogazici University Kandilli Observatory And Earthquake Research Institute (KOERI)" insttype="" lat="36.9435" lon="29.3023">
		<comp name="--.HNE" depth="0.0">
			<acc value="0.00176693941439765" flag="0"/>
			<vel value="0.00159859029872954" flag="0"/>
			<psa03 value="0.0052539424489651" flag="0"/>
			<psa10 value="0.00330607580817116" flag="0"/>
			<psa30 value="0.00038413414491841" flag="0"/>
		</comp>
		<comp name="--.HNN" depth="0.0">
			<acc value="0.00170262232762081" flag="0"/>
			<vel value="0.00119829996807041" flag="0"/>
			<psa03 value="0.00599228628248706" flag="0"/>
			<psa10 value="0.00199975833355076" flag="0"/>
			<psa30 value="0.000452793641189196" flag="0"/>
		</comp>
		<comp name="--.HNZ" depth="0.0">
			<acc value="0.00134380875819893" flag="0"/>
			<vel value="0.00141383311919915" flag="0"/>
			<psa03 value="0.00308226928938096" flag="0"/>
			<psa10 value="0.00150300417602573" flag="0"/>
			<psa30 value="0.000499821496139582" flag="0"/>
		</comp>
	</station>
</stationlist>
