<?xml version="1.0" encoding="UTF-8" standalone="yes"?>
<!DOCTYPE earthquake SYSTEM "stationlist.dtd">
<stationlist created="" xmlns="ch.ethz.sed.shakemap.usgs.xml">
  <station code="BNN" name="BNN" netid="KO" insttype="CMG-3T" lat="38.8521" lon="35.8472">
    <comp name="--.HHE">
      <acc value="0.0190191558" flag="0"/>
      <vel value="0.0153717936" flag="0"/>
      <psa03 value="0.0684335947" flag="0"/>
      <psa10 value="0.0157980867" flag="0"/>
      <psa30 value="0.0023683879" flag="0"/>
    </comp>
    <comp name="--.HHN">
      <acc value="0.0221383682" flag="0"/>
      <vel value="0.0136388760" flag="0"/>
      <psa03 value="0.0779757413" flag="0"/>
      <psa10 value="0.0187223160" flag="0"/>
      <psa30 value="0.0019147547" flag="0"/>
    </comp>
    <comp name="--.HHZ">
      <acc value="0.0155828801" flag="0"/>
      <vel value="0.0103765068" flag="0"/>
      <psa03 value="0.0346008931" flag="0"/>
      <psa10 value="0.0141925627" flag="0"/>
      <psa30 value="0.0035939882" flag="0"/>
    </comp>
  </station>
  <station code="KOZK" name="KOZK" netid="KO" insttype="CMG-5T" lat="39.2101" lon="34.868">
    <comp name="--.HNZ">
      <acc value="0.0546491671" flag="0"/>
      <vel value="0.0211062441" flag="0"/>
      <psa03 value="0.0964466937" flag="0"/>
      <psa10 value="0.0137672602" flag="0"/>
      <psa30 value="0.0033450256" flag="0"/>
    </comp>
    <comp name="--.HNN">
      <acc value="0.0994377856" flag="0"/>
      <vel value="0.0332136505" flag="0"/>
      <psa03 value="0.1517043222" flag="0"/>
      <psa10 value="0.0294152584" flag="0"/>
      <psa30 value="0.0135720236" flag="0"/>
    </comp>
    <comp name="--.HNE">
      <acc value="0.0633703256" flag="0"/>
      <vel value="0.0323072183" flag="0"/>
      <psa03 value="0.1247167453" flag="0"/>
      <psa10 value="0.0481087272" flag="0"/>
      <psa30 value="0.0095000008" flag="0"/>
    </comp>
  </station>
</stationlist>
