<?xml version="1.0" encoding="UTF-8" standalone="yes"?>
<!DOCTYPE earthquake SYSTEM "stationlist.dtd">
<stationlist created="" xmlns="ch.ethz.sed.shakemap.usgs.xml">
  <station code="BNN" name="BNN" netid="KO" insttype="CMG-3T" lat="38.8521" lon="35.8472">
    <comp name="--.HHN">
      <acc value="0.0221383683" flag="0"/>
      <vel value="0.0136388845" flag="0"/>
      <psa03 value="0.0779757413" flag="0"/>
      <psa10 value="0.0187223164" flag="0"/>
      <psa30 value="0.0019146768" flag="0"/>
    </comp>
    <comp name="--.HHE">
      <acc value="0.0190191563" flag="0"/>
      <vel value="0.0153717888" flag="0"/>
      <psa03 value="0.0684335947" flag="0"/>
      <psa10 value="0.0157980867" flag="0"/>
      <psa30 value="0.0023691348" flag="0"/>
    </comp>
    <comp name="--.HHZ">
      <acc value="0.0155828802" flag="0"/>
      <vel value="0.0103765010" flag="0"/>
      <psa03 value="0.0346008931" flag="0"/>
      <psa10 value="0.0141925589" flag="0"/>
      <psa30 value="0.0035941254" flag="0"/>
    </comp>
  </station>
  <station code="CMRD" name="CMRD" netid="KO" insttype="CMG-5T" lat="37.6623" lon="34.9902">
    <comp name="--.HNZ">
      <acc value="0.0047057217" flag="0"/>
      <vel value="0.0025790253" flag="0"/>
      <psa03 value="0.0138718587" flag="0"/>
      <psa10 value="0.0039540443" flag="0"/>
      <psa30 value="0.0007433848" flag="0"/>
    </comp>
    <comp name="--.HNE">
      <acc value="0.0049238084" flag="0"/>
      <vel value="0.0033762704" flag="0"/>
      <psa03 value="0.0112058288" flag="0"/>
      <psa10 value="0.0040953865" flag="0"/>
      <psa30 value="0.0011609021" flag="0"/>
    </comp>
    <comp name="--.HNN">
      <acc value="0.0040853630" flag="0"/>
      <vel value="0.0024921204" flag="0"/>
      <psa03 value="0.0122495771" flag="0"/>
      <psa10 value="0.0041445126" flag="0"/>
      <psa30 value="0.0006763090" flag="0"/>
    </comp>
  </station>
  <station code="KOZK" name="KOZK" netid="KO" insttype="CMG-5T" lat="39.2101" lon="34.868">
    <comp name="--.HNN">
      <acc value="0.0994377902" flag="0"/>
      <vel value="0.0332136607" flag="0"/>
      <psa03 value="0.1517043222" flag="0"/>
      <psa10 value="0.0294152535" flag="0"/>
      <psa30 value="0.0135719931" flag="0"/>
    </comp>
    <comp name="--.HNZ">
      <acc value="0.0546491644" flag="0"/>
      <vel value="0.0211062456" flag="0"/>
      <psa03 value="0.0964466937" flag="0"/>
      <psa10 value="0.0137672602" flag="0"/>
      <psa30 value="0.0033452719" flag="0"/>
    </comp>
    <comp name="--.HNE">
      <acc value="0.0633703284" flag="0"/>
      <vel value="0.0323072190" flag="0"/>
      <psa03 value="0.1247167453" flag="0"/>
      <psa10 value="0.0481087272" flag="0"/>
      <psa30 value="0.0094998241" flag="0"/>
    </comp>
  </station>
  <station code="SARI" name="SARI" netid="KO" insttype="CMG-3T" lat="38.4072" lon="36.4181">
    <comp name="--.HHE">
      <acc value="0.0177090592" flag="0"/>
      <vel value="0.0081933049" flag="0"/>
      <psa03 value="0.0326910683" flag="0"/>
      <psa10 value="0.0080247442" flag="0"/>
      <psa30 value="0.0006901034" flag="0"/>
    </comp>
    <comp name="--.HHZ">
      <acc value="0.0129778165" flag="0"/>
      <vel value="0.0078735227" flag="0"/>
      <psa03 value="0.0360316063" flag="0"/>
      <psa10 value="0.0074240690" flag="0"/>
      <psa30 value="0.0007727259" flag="0"/>
    </comp>
    <comp name="--.HHN">
      <acc value="0.0130658347" flag="0"/>
      <vel value="0.0081592327" flag="0"/>
      <psa03 value="0.0292389497" flag="0"/>
      <psa10 value="0.0081529423" flag="0"/>
      <psa30 value="0.0009021780" flag="0"/>
    </comp>
  </station>
  <station code="YOZ" name="YOZ" netid="KO" insttype="CMG-3T" lat="39.6376" lon="35.3152">
    <comp name="--.HHZ">
      <acc value="0.0300833235" flag="0"/>
      <vel value="0.0112459216" flag="0"/>
      <psa03 value="0.0645643976" flag="0"/>
      <psa10 value="0.0045491028" flag="0"/>
      <psa30 value="0.0030256378" flag="0"/>
    </comp>
    <comp name="--.HHN">
      <acc value="0.0422410669" flag="0"/>
      <vel value="0.0145836012" flag="0"/>
      <psa03 value="0.1352098839" flag="0"/>
      <psa10 value="0.0101250034" flag="0"/>
      <psa30 value="0.0029607016" flag="0"/>
    </comp>
    <comp name="--.HHE">
      <acc value="0.0455558820" flag="0"/>
      <vel value="0.0193782876" flag="0"/>
      <psa03 value="0.1694144650" flag="0"/>
      <psa10 value="0.0103595574" flag="0"/>
      <psa30 value="0.0010034150" flag="0"/>
    </comp>
  </station>
</stationlist>
