<?xml version="1.0" encoding="UTF-8" standalone="yes"?>
<!DOCTYPE earthquake SYSTEM "stationlist.dtd">
<stationlist created="" xmlns="ch.ethz.sed.shakemap.usgs.xml">
  <station code="BNN" name="BNN" netid="KO" insttype="CMG-3T" lat="38.8521" lon="35.8472">
    <comp name="--.HHZ">
      <acc value="0.0155828802" flag="0"/>
      <vel value="0.0103765003" flag="0"/>
      <psa03 value="0.0346008931" flag="0"/>
      <psa10 value="0.0141925706" flag="0"/>
      <psa30 value="0.0035937783" flag="0"/>
    </comp>
    <comp name="--.HHE">
      <acc value="0.0190191557" flag="0"/>
      <vel value="0.0153718027" flag="0"/>
      <psa03 value="0.0684335947" flag="0"/>
      <psa10 value="0.0157980866" flag="0"/>
      <psa30 value="0.0023682713" flag="0"/>
    </comp>
    <comp name="--.HHN">
      <acc value="0.0221383682" flag="0"/>
      <vel value="0.0136388841" flag="0"/>
      <psa03 value="0.0779757413" flag="0"/>
      <psa10 value="0.0187223190" flag="0"/>
      <psa30 value="0.0019148206" flag="0"/>
    </comp>
  </station>
  <station code="KOZK" name="KOZK" netid="KO" insttype="CMG-5T" lat="39.2101" lon="34.868">
    <comp name="--.HNE">
      <acc value="0.0633703251" flag="0"/>
      <vel value="0.0323072121" flag="0"/>
      <psa03 value="0.1247167453" flag="0"/>
      <psa10 value="0.0481087273" flag="0"/>
      <psa30 value="0.0094998939" flag="0"/>
    </comp>
    <comp name="--.HNN">
      <acc value="0.0994377853" flag="0"/>
      <vel value="0.0332136512" flag="0"/>
      <psa03 value="0.1517043222" flag="0"/>
      <psa10 value="0.0294152583" flag="0"/>
      <psa30 value="0.0135723919" flag="0"/>
    </comp>
    <comp name="--.HNZ">
      <acc value="0.0546491660" flag="0"/>
      <vel value="0.0211062464" flag="0"/>
      <psa03 value="0.0964466937" flag="0"/>
      <psa10 value="0.0137672602" flag="0"/>
      <psa30 value="0.0033449597" flag="0"/>
    </comp>
  </station>
</stationlist>
