<stationlist created="1678266043">
	<station code="CMRD" name="CMRD" netid="KO" source="Bogazici University Kandilli Observatory And Earthquake Research Institute (KOERI)" insttype="" lat="37.6623" lon="34.9902">
		<comp name=".HNE" depth="0.0">
			<acc value="0.00492524344697" flag="0"/>
			<vel value="0.00331400498994" flag="0"/>
			<psa03 value="0.011077729939" flag="0"/>
			<psa10 value="0.0041046276927" flag="0"/>
			<psa30 value="0.00121019204428" flag="0"/>
		</comp>
		<comp name=".HNN" depth="0.0">
			<acc value="0.00408612427805" flag="0"/>
			<vel value="0.00248071394985" flag="0"/>
			<psa03 value="0.0122148664666" flag="0"/>
			<psa10 value="0.00416833175653" flag="0"/>
			<psa30 value="0.000722533385122" flag="0"/>
		</comp>
		<comp name=".HNZ" depth="0.0">
			<acc value="0.00471118779698" flag="0"/>
			<vel value="0.00258797794269" flag="0"/>
			<psa03 value="0.0138713199485" flag="0"/>
			<psa10 value="0.00395356581058" flag="0"/>
			<psa30 value="0.000812432673843" flag="0"/>
		</comp>
	</station>
	<station code="KOZK" name="KOZK" netid="KO" source="Bogazici University Kandilli Observatory And Earthquake Research Institute (KOERI)" insttype="" lat="39.2101" lon="34.868">
		<comp name=".HNE" depth="0.0">
			<acc value="0.063572315714" flag="0"/>
			<vel value="0.0326216322798" flag="0"/>
			<psa03 value="0.125479729083" flag="0"/>
			<psa10 value="0.0483257313426" flag="0"/>
			<psa30 value="0.0104698410756" flag="0"/>
		</comp>
		<comp name=".HNN" depth="0.0">
			<acc value="0.0996606682868" flag="0"/>
			<vel value="0.0338520207839" flag="0"/>
			<psa03 value="0.15542680668" flag="0"/>
			<psa10 value="0.029543849635" flag="0"/>
			<psa30 value="0.0158354740224" flag="0"/>
		</comp>
		<comp name=".HNZ" depth="0.0">
			<acc value="0.054509936607" flag="0"/>
			<vel value="0.0209459925033" flag="0"/>
			<psa03 value="0.0995553033835" flag="0"/>
			<psa10 value="0.0138606210106" flag="0"/>
			<psa30 value="0.00398536776105" flag="0"/>
		</comp>
	</station>
</stationlist>
