<?xml version="1.0" encoding="UTF-8" standalone="yes"?>
<!DOCTYPE earthquake SYSTEM "stationlist.dtd">
<stationlist created="" xmlns="ch.ethz.sed.shakemap.usgs.xml">
  <station code="ACOR" name="ACOR" netid="HA" insttype="Horizon,120s,1200" lat="37.8905" lon="22.8694">
    <comp name="--.HHE">
      <acc value="0.0307203568" flag="0"/>
      <vel value="0.0299643701" flag="0"/>
      <psa03 value="0.0612556671" flag="0"/>
      <psa10 value="0.0577556069" flag="0"/>
      <psa30 value="0.0072408648" flag="0"/>
    </comp>
    <comp name="--.HHN">
      <acc value="0.0406690985" flag="0"/>
      <vel value="0.0316111984" flag="0"/>
      <psa03 value="0.1341946661" flag="0"/>
      <psa10 value="0.0395190531" flag="0"/>
      <psa30 value="0.0113917936" flag="0"/>
    </comp>
    <comp name="--.HHZ">
      <acc value="0.0289415814" flag="0"/>
      <vel value="0.0275995379" flag="0"/>
      <psa03 value="0.0912849824" flag="0"/>
      <psa10 value="0.0401736609" flag="0"/>
      <psa30 value="0.0051311771" flag="0"/>
    </comp>
  </station>
  <station code="AIGS" name="AIGS" netid="HA" insttype="DC" lat="38.25" lon="22.0878">
    <comp name="--.HNE">
      <acc value="0.2014048597" flag="0"/>
      <vel value="0.0968846819" flag="0"/>
      <psa03 value="0.4665001579" flag="0"/>
      <psa10 value="0.0848473292" flag="0"/>
      <psa30 value="0.0100817456" flag="0"/>
    </comp>
    <comp name="--.HNN">
      <acc value="0.1313016055" flag="0"/>
      <vel value="0.0578898893" flag="0"/>
      <psa03 value="0.3813599464" flag="0"/>
      <psa10 value="0.0894728831" flag="0"/>
      <psa30 value="0.0108872948" flag="0"/>
    </comp>
    <comp name="--.HNZ">
      <acc value="0.0965410336" flag="0"/>
      <vel value="0.0326384814" flag="0"/>
      <psa03 value="0.1717537970" flag="0"/>
      <psa10 value="0.0628130010" flag="0"/>
      <psa30 value="0.0075696350" flag="0"/>
    </comp>
  </station>
  <station code="AMPE" name="AMPE" netid="HA" insttype="1s-100Hz," lat="38.3015" lon="23.2688">
    <comp name="--.HHN">
      <acc value="0.4549327216" flag="0"/>
      <vel value="0.3887998840" flag="0"/>
      <psa03 value="0.9855513499" flag="0"/>
      <psa10 value="0.4894137492" flag="0"/>
      <psa30 value="0.0374500046" flag="0"/>
    </comp>
    <comp name="--.HHE">
      <acc value="0.4042245463" flag="0"/>
      <vel value="0.2914442877" flag="0"/>
      <psa03 value="0.8023475519" flag="0"/>
      <psa10 value="0.3960240421" flag="0"/>
      <psa30 value="0.0296242382" flag="0"/>
    </comp>
    <comp name="--.HHZ">
      <acc value="0.2397207635" flag="0"/>
      <vel value="0.1810315907" flag="0"/>
      <psa03 value="0.6150948671" flag="0"/>
      <psa10 value="0.1542293997" flag="0"/>
      <psa30 value="0.0298454898" flag="0"/>
    </comp>
  </station>
  <station code="ATAL" name="ATAL" netid="HA" insttype="120" lat="38.6926" lon="23.0213">
    <comp name="--.HHZ">
      <acc value="0.7812045853" flag="0"/>
      <vel value="0.2254119502" flag="0"/>
      <psa03 value="0.5234943914" flag="0"/>
      <psa10 value="0.1504795950" flag="0"/>
      <psa30 value="0.0171402962" flag="0"/>
    </comp>
    <comp name="--.HHN">
      <acc value="0.9364612268" flag="0"/>
      <vel value="0.2476954567" flag="0"/>
      <psa03 value="0.5935864306" flag="0"/>
      <psa10 value="0.1516190896" flag="0"/>
      <psa30 value="0.0441025534" flag="0"/>
    </comp>
    <comp name="--.HHE">
      <acc value="0.7335950309" flag="0"/>
      <vel value="0.3661444639" flag="0"/>
      <psa03 value="0.6991531405" flag="0"/>
      <psa10 value="0.2430250144" flag="0"/>
      <psa30 value="0.0724212783" flag="0"/>
    </comp>
  </station>
  <station code="ATHU" name="ATHU" netid="HA" insttype="60s," lat="37.9665" lon="23.7845">
    <comp name="--.HHE">
      <acc value="0.0284381615" flag="0"/>
      <vel value="0.0218301358" flag="0"/>
      <psa03 value="0.0503561889" flag="0"/>
      <psa10 value="0.0240864753" flag="0"/>
      <psa30 value="0.0035799046" flag="0"/>
    </comp>
    <comp name="--.HHN">
      <acc value="0.0187019466" flag="0"/>
      <vel value="0.0200614591" flag="0"/>
      <psa03 value="0.0467746452" flag="0"/>
      <psa10 value="0.0318398401" flag="0"/>
      <psa30 value="0.0041894705" flag="0"/>
    </comp>
    <comp name="--.HHZ">
      <acc value="0.0219813418" flag="0"/>
      <vel value="0.0188605499" flag="0"/>
      <psa03 value="0.0463153727" flag="0"/>
      <psa10 value="0.0231563083" flag="0"/>
      <psa30 value="0.0041720270" flag="0"/>
    </comp>
  </station>
  <station code="DOMV" name="DOMV" netid="HA" insttype="60" lat="38.2569" lon="22.9795">
    <comp name="--.HHE">
      <acc value="0.9871872963" flag="0"/>
      <vel value="0.3373067884" flag="0"/>
      <psa03 value="1.7970101644" flag="0"/>
      <psa10 value="0.0941024965" flag="0"/>
      <psa30 value="0.0200343671" flag="0"/>
    </comp>
    <comp name="--.HHZ">
      <acc value="0.3840825340" flag="0"/>
      <vel value="0.1304635520" flag="0"/>
      <psa03 value="0.6924709653" flag="0"/>
      <psa10 value="0.0621973698" flag="0"/>
      <psa30 value="0.0130888992" flag="0"/>
    </comp>
    <comp name="--.HHN">
      <acc value="0.7682603433" flag="0"/>
      <vel value="0.2331681897" flag="0"/>
      <psa03 value="0.9838105781" flag="0"/>
      <psa10 value="0.1015631307" flag="0"/>
      <psa30 value="0.0094253682" flag="0"/>
    </comp>
  </station>
  <station code="DRES" name="DRES" netid="HA" insttype="DC" lat="38.3197" lon="21.8532">
    <comp name="--.HNE">
      <acc value="0.0784722106" flag="0"/>
      <vel value="0.0543299932" flag="0"/>
      <psa03 value="0.1642311151" flag="0"/>
      <psa10 value="0.1103895960" flag="0"/>
      <psa30 value="0.0080841276" flag="0"/>
    </comp>
    <comp name="--.HNN">
      <acc value="0.0621556666" flag="0"/>
      <vel value="0.0381300226" flag="0"/>
      <psa03 value="0.1654605065" flag="0"/>
      <psa10 value="0.0615681498" flag="0"/>
      <psa30 value="0.0078845997" flag="0"/>
    </comp>
    <comp name="--.HNZ">
      <acc value="0.0420504842" flag="0"/>
      <vel value="0.0239832811" flag="0"/>
      <psa03 value="0.0913745826" flag="0"/>
      <psa10 value="0.0341920868" flag="0"/>
      <psa30 value="0.0037688730" flag="0"/>
    </comp>
  </station>
  <station code="EPID" name="EPID" netid="HA" insttype="30" lat="37.6144" lon="23.1189">
    <comp name="--.HHZ">
      <acc value="0.0395514341" flag="0"/>
      <vel value="0.0388747192" flag="0"/>
      <psa03 value="0.1012082072" flag="0"/>
      <psa10 value="0.0481366939" flag="0"/>
      <psa30 value="0.0103389801" flag="0"/>
    </comp>
    <comp name="--.HHN">
      <acc value="0.0506650183" flag="0"/>
      <vel value="0.0367708920" flag="0"/>
      <psa03 value="0.1548677762" flag="0"/>
      <psa10 value="0.0657983665" flag="0"/>
      <psa30 value="0.0069789710" flag="0"/>
    </comp>
    <comp name="--.HHE">
      <acc value="0.0580825712" flag="0"/>
      <vel value="0.0415044159" flag="0"/>
      <psa03 value="0.1228108784" flag="0"/>
      <psa10 value="0.0417845749" flag="0"/>
      <psa30 value="0.0051843159" flag="0"/>
    </comp>
  </station>
  <station code="ERTR" name="ERTR" netid="HA" insttype="Horizon,120s,1200" lat="38.4066" lon="23.7865">
    <comp name="--.HHE">
      <acc value="0.1039695351" flag="0"/>
      <vel value="0.0514949033" flag="0"/>
      <psa03 value="0.2857824708" flag="0"/>
      <psa10 value="0.0451232304" flag="0"/>
      <psa30 value="0.0062556478" flag="0"/>
    </comp>
    <comp name="--.HHZ">
      <acc value="0.0679532070" flag="0"/>
      <vel value="0.0598876697" flag="0"/>
      <psa03 value="0.1594839403" flag="0"/>
      <psa10 value="0.0318352343" flag="0"/>
      <psa30 value="0.0107693060" flag="0"/>
    </comp>
    <comp name="--.HHN">
      <acc value="0.1551360388" flag="0"/>
      <vel value="0.0688727337" flag="0"/>
      <psa03 value="0.5218663529" flag="0"/>
      <psa10 value="0.0585726024" flag="0"/>
      <psa30 value="0.0068233973" flag="0"/>
    </comp>
  </station>
  <station code="KALE" name="KALE" netid="HA" insttype="40," lat="38.3911" lon="22.1398">
    <comp name="--.HHN">
      <acc value="0.3264852243" flag="0"/>
      <vel value="0.1805995400" flag="0"/>
      <psa03 value="0.8004423335" flag="0"/>
      <psa10 value="0.0916844301" flag="0"/>
      <psa30 value="0.0119185001" flag="0"/>
    </comp>
    <comp name="--.HHZ">
      <acc value="0.1789908434" flag="0"/>
      <vel value="0.0924078038" flag="0"/>
      <psa03 value="0.4738197435" flag="0"/>
      <psa10 value="0.0636058820" flag="0"/>
      <psa30 value="0.0053322087" flag="0"/>
    </comp>
    <comp name="--.HHE">
      <acc value="0.3390950432" flag="0"/>
      <vel value="0.1615272183" flag="0"/>
      <psa03 value="1.0807003969" flag="0"/>
      <psa10 value="0.1159990160" flag="0"/>
      <psa30 value="0.0138852219" flag="0"/>
    </comp>
  </station>
  <station code="KIAS" name="KIAS" netid="HA" insttype="DC" lat="37.9875" lon="22.7543">
    <comp name="--.HNZ">
      <acc value="0.1597849133" flag="0"/>
      <vel value="0.0607108095" flag="0"/>
      <psa03 value="0.2533375377" flag="0"/>
      <psa10 value="0.0848783709" flag="0"/>
      <psa30 value="0.0157247966" flag="0"/>
    </comp>
    <comp name="--.HNN">
      <acc value="0.3089033077" flag="0"/>
      <vel value="0.1567758626" flag="0"/>
      <psa03 value="0.5667100265" flag="0"/>
      <psa10 value="0.2062851661" flag="0"/>
      <psa30 value="0.0296162026" flag="0"/>
    </comp>
    <comp name="--.HNE">
      <acc value="0.3016474098" flag="0"/>
      <vel value="0.1715828597" flag="0"/>
      <psa03 value="0.7482383603" flag="0"/>
      <psa10 value="0.3262544623" flag="0"/>
      <psa30 value="0.0374496671" flag="0"/>
    </comp>
  </station>
  <station code="LAKA" name="LAKA" netid="HA" insttype="120s," lat="38.2401" lon="21.9785">
    <comp name="--.HHN">
      <acc value="0.0121306144" flag="0"/>
      <vel value="0.0108943986" flag="0"/>
      <psa03 value="0.0400197548" flag="0"/>
      <psa10 value="0.0121167279" flag="0"/>
      <psa30 value="0.0038295888" flag="0"/>
    </comp>
    <comp name="--.HHE">
      <acc value="0.0110812262" flag="0"/>
      <vel value="0.0099661401" flag="0"/>
      <psa03 value="0.0389844266" flag="0"/>
      <psa10 value="0.0170572463" flag="0"/>
      <psa30 value="0.0027777820" flag="0"/>
    </comp>
    <comp name="--.HHZ">
      <acc value="0.0093549215" flag="0"/>
      <vel value="0.0088529460" flag="0"/>
      <psa03 value="0.0220019355" flag="0"/>
      <psa10 value="0.0174568899" flag="0"/>
      <psa30 value="0.0019010798" flag="0"/>
    </comp>
  </station>
  <station code="LOUT" name="LOUT" netid="HA" insttype="30" lat="37.9879" lon="22.9743">
    <comp name="--.HHE">
      <acc value="0.3142128655" flag="0"/>
      <vel value="0.1202361403" flag="0"/>
      <psa03 value="0.7110130263" flag="0"/>
      <psa10 value="0.1300122322" flag="0"/>
      <psa30 value="0.0127793206" flag="0"/>
    </comp>
    <comp name="--.HHZ">
      <acc value="0.1316077787" flag="0"/>
      <vel value="0.0694130321" flag="0"/>
      <psa03 value="0.2206299893" flag="0"/>
      <psa10 value="0.0696895473" flag="0"/>
      <psa30 value="0.0086560569" flag="0"/>
    </comp>
    <comp name="--.HHN">
      <acc value="0.2426581629" flag="0"/>
      <vel value="0.1281610194" flag="0"/>
      <psa03 value="0.6990336275" flag="0"/>
      <psa10 value="0.2044533261" flag="0"/>
      <psa30 value="0.0186758258" flag="0"/>
    </comp>
  </station>
  <station code="LTRS" name="LTRS" netid="HA" insttype="DC" lat="37.9753" lon="22.9765">
    <comp name="--.HNE">
      <acc value="0.2246859691" flag="0"/>
      <vel value="0.1706310395" flag="0"/>
      <psa03 value="0.5943235758" flag="0"/>
      <psa10 value="0.1467491512" flag="0"/>
      <psa30 value="0.0199220403" flag="0"/>
    </comp>
    <comp name="--.HNN">
      <acc value="0.2134368331" flag="0"/>
      <vel value="0.1255738672" flag="0"/>
      <psa03 value="0.6728973346" flag="0"/>
      <psa10 value="0.1706884824" flag="0"/>
      <psa30 value="0.0207427549" flag="0"/>
    </comp>
    <comp name="--.HNZ">
      <acc value="0.1628587532" flag="0"/>
      <vel value="0.1270292775" flag="0"/>
      <psa03 value="0.2894784003" flag="0"/>
      <psa10 value="0.1207376319" flag="0"/>
      <psa30 value="0.0166024394" flag="0"/>
    </comp>
  </station>
  <station code="MDRA" name="MDRA" netid="HA" insttype="60" lat="38.0606" lon="23.4662">
    <comp name="--.HHE">
      <acc value="0.0625262929" flag="0"/>
      <vel value="0.0279606603" flag="0"/>
      <psa03 value="0.1285448320" flag="0"/>
      <psa10 value="0.0275133272" flag="0"/>
      <psa30 value="0.0056512304" flag="0"/>
    </comp>
    <comp name="--.HHZ">
      <acc value="0.0607654293" flag="0"/>
      <vel value="0.0272918414" flag="0"/>
      <psa03 value="0.1803157360" flag="0"/>
      <psa10 value="0.0276334936" flag="0"/>
      <psa30 value="0.0082956261" flag="0"/>
    </comp>
    <comp name="--.HHN">
      <acc value="0.0628843673" flag="0"/>
      <vel value="0.0400941758" flag="0"/>
      <psa03 value="0.1383477575" flag="0"/>
      <psa10 value="0.0198929765" flag="0"/>
      <psa30 value="0.0075999110" flag="0"/>
    </comp>
  </station>
  <station code="MRKA" name="MRKA" netid="HA" insttype="Horizon,120s,1200" lat="38.7047" lon="23.5863">
    <comp name="--.HHZ">
      <acc value="0.1311045502" flag="0"/>
      <vel value="0.0663063808" flag="0"/>
      <psa03 value="0.3011074356" flag="0"/>
      <psa10 value="0.0421875030" flag="0"/>
      <psa30 value="0.0114306533" flag="0"/>
    </comp>
    <comp name="--.HHN">
      <acc value="0.2353033477" flag="0"/>
      <vel value="0.1017887884" flag="0"/>
      <psa03 value="0.6870345153" flag="0"/>
      <psa10 value="0.0878282088" flag="0"/>
      <psa30 value="0.0084624832" flag="0"/>
    </comp>
    <comp name="--.HHE">
      <acc value="0.2586239316" flag="0"/>
      <vel value="0.0660203672" flag="0"/>
      <psa03 value="0.3454377895" flag="0"/>
      <psa10 value="0.0420770353" flag="0"/>
      <psa30 value="0.0075901107" flag="0"/>
    </comp>
  </station>
  <station code="MRTH" name="MRTH" netid="HA" insttype="S100," lat="38.1225" lon="23.9409">
    <comp name="--.HHZ">
      <acc value="0.1203036398" flag="0"/>
      <vel value="0.0753483168" flag="0"/>
      <psa03 value="0.3083647775" flag="0"/>
      <psa10 value="0.0802557225" flag="0"/>
      <psa30 value="0.0074864350" flag="0"/>
    </comp>
    <comp name="--.HHE">
      <acc value="0.2395053938" flag="0"/>
      <vel value="0.1552898333" flag="0"/>
      <psa03 value="0.5266701832" flag="0"/>
      <psa10 value="0.1820732642" flag="0"/>
      <psa30 value="0.0101959980" flag="0"/>
    </comp>
    <comp name="--.HHN">
      <acc value="0.1503794068" flag="0"/>
      <vel value="0.1214929656" flag="0"/>
      <psa03 value="0.3573441981" flag="0"/>
      <psa10 value="0.0850779713" flag="0"/>
      <psa30 value="0.0132253118" flag="0"/>
    </comp>
  </station>
  <station code="PSAH" name="PSAH" netid="HA" insttype="25" lat="38.5694" lon="23.6473">
    <comp name="--.HHZ">
      <acc value="0.0186859208" flag="0"/>
      <vel value="0.0108972755" flag="0"/>
      <psa03 value="0.0398122676" flag="0"/>
      <psa10 value="0.0093903894" flag="0"/>
      <psa30 value="0.0050214266" flag="0"/>
    </comp>
    <comp name="--.HHN">
      <acc value="0.0278258617" flag="0"/>
      <vel value="0.0206696712" flag="0"/>
      <psa03 value="0.0602572010" flag="0"/>
      <psa10 value="0.0107788712" flag="0"/>
      <psa30 value="0.0023378949" flag="0"/>
    </comp>
    <comp name="--.HHE">
      <acc value="0.0281547431" flag="0"/>
      <vel value="0.0177942817" flag="0"/>
      <psa03 value="0.0706490694" flag="0"/>
      <psa10 value="0.0153458725" flag="0"/>
      <psa30 value="0.0027786805" flag="0"/>
    </comp>
  </station>
  <station code="STFN" name="STFN" netid="HA" insttype="1s-100Hz," lat="38.1766" lon="23.544">
    <comp name="--.HHZ">
      <acc value="0.1093617977" flag="0"/>
      <vel value="0.0944259018" flag="0"/>
      <psa03 value="0.2347930319" flag="0"/>
      <psa10 value="0.1293174965" flag="0"/>
      <psa30 value="0.0220573193" flag="0"/>
    </comp>
    <comp name="--.HHN">
      <acc value="0.1381071134" flag="0"/>
      <vel value="0.0993491445" flag="0"/>
      <psa03 value="0.2998156043" flag="0"/>
      <psa10 value="0.1224464918" flag="0"/>
      <psa30 value="0.0249778352" flag="0"/>
    </comp>
    <comp name="--.HHE">
      <acc value="0.1501934612" flag="0"/>
      <vel value="0.1375629580" flag="0"/>
      <psa03 value="0.4736802992" flag="0"/>
      <psa10 value="0.1277038435" flag="0"/>
      <psa30 value="0.0131901164" flag="0"/>
    </comp>
  </station>
  <station code="THAL" name="THAL" netid="HA" insttype="30" lat="38.0357" lon="22.6634">
    <comp name="--.HHE">
      <acc value="0.3113818655" flag="0"/>
      <vel value="0.1642181411" flag="0"/>
      <psa03 value="0.6562459979" flag="0"/>
      <psa10 value="0.1024118296" flag="0"/>
      <psa30 value="0.0175501807" flag="0"/>
    </comp>
    <comp name="--.HHZ">
      <acc value="0.1812968677" flag="0"/>
      <vel value="0.0686462388" flag="0"/>
      <psa03 value="0.4397992303" flag="0"/>
      <psa10 value="0.0608771521" flag="0"/>
      <psa30 value="0.0150815472" flag="0"/>
    </comp>
    <comp name="--.HHN">
      <acc value="0.3176410556" flag="0"/>
      <vel value="0.1252756488" flag="0"/>
      <psa03 value="0.5796132433" flag="0"/>
      <psa10 value="0.1186961242" flag="0"/>
      <psa30 value="0.0266202517" flag="0"/>
    </comp>
  </station>
  <station code="THIV" name="THIV" netid="HA" insttype="25" lat="38.299" lon="23.332">
    <comp name="--.HHN">
      <acc value="0.1797128118" flag="0"/>
      <vel value="0.1004388504" flag="0"/>
      <psa03 value="0.3084978769" flag="0"/>
      <psa10 value="0.1953669783" flag="0"/>
      <psa30 value="0.0089447114" flag="0"/>
    </comp>
    <comp name="--.HHZ">
      <acc value="0.0880700310" flag="0"/>
      <vel value="0.0725121275" flag="0"/>
      <psa03 value="0.2487626449" flag="0"/>
      <psa10 value="0.1006042089" flag="0"/>
      <psa30 value="0.0110656592" flag="0"/>
    </comp>
    <comp name="--.HHE">
      <acc value="0.1150421851" flag="0"/>
      <vel value="0.0783672466" flag="0"/>
      <psa03 value="0.1930918278" flag="0"/>
      <psa10 value="0.1488993168" flag="0"/>
      <psa30 value="0.0142723860" flag="0"/>
    </comp>
  </station>
  <station code="ARS1" name="ARS1" netid="HI" insttype="CMG-5TD,ACCELEROMETER,GURALP" lat="37.6349" lon="22.7293">
    <comp name="--.HNZ">
      <acc value="0.0340177096" flag="0"/>
      <vel value="0.0229669250" flag="0"/>
      <psa03 value="0.1097338405" flag="0"/>
      <psa10 value="0.0289312599" flag="0"/>
      <psa30 value="0.0054331550" flag="0"/>
    </comp>
    <comp name="--.HNE">
      <acc value="0.0757970777" flag="0"/>
      <vel value="0.0617259601" flag="0"/>
      <psa03 value="0.1890609878" flag="0"/>
      <psa10 value="0.0516609967" flag="0"/>
      <psa30 value="0.0062984994" flag="0"/>
    </comp>
    <comp name="--.HNN">
      <acc value="0.0807982209" flag="0"/>
      <vel value="0.0586199999" flag="0"/>
      <psa03 value="0.2226640939" flag="0"/>
      <psa10 value="0.0904508581" flag="0"/>
      <psa30 value="0.0066224780" flag="0"/>
    </comp>
  </station>
  <station code="ATH5" name="ATH5" netid="HI" insttype="CMG-5TD,ACCELEROMETER,GURALP" lat="37.9754" lon="23.7371">
    <comp name="--.HNN">
      <acc value="0.1172672470" flag="0"/>
      <vel value="0.0926516509" flag="0"/>
      <psa03 value="0.2997523388" flag="0"/>
      <psa10 value="0.1214501592" flag="0"/>
      <psa30 value="0.0161251432" flag="0"/>
    </comp>
    <comp name="--.HNE">
      <acc value="0.1518823183" flag="0"/>
