<stationlist created="1686236450">
	<station code="LAM2" name="LAM2" netid="HI" source="ITSAK Strong Motion Network" insttype="" lat="38.90203" lon="22.431301">
		<comp name=".HNE" depth="0.0">
			<acc value="0.349759641724" flag="0"/>
			<vel value="0.174951522641" flag="0"/>
			<psa03 value="0.958913606652" flag="0"/>
			<psa10 value="0.124137716014" flag="0"/>
			<psa30 value="0.0102078795553" flag="0"/>
		</comp>
		<comp name=".HNN" depth="0.0">
			<acc value="0.312807321137" flag="0"/>
			<vel value="0.16957467141" flag="0"/>
			<psa03 value="0.643110227896" flag="0"/>
			<psa10 value="0.183992768618" flag="0"/>
			<psa30 value="0.0199034035028" flag="0"/>
		</comp>
		<comp name=".HNZ" depth="0.0">
			<acc value="0.139630791061" flag="0"/>
			<vel value="0.0678695465935" flag="0"/>
			<psa03 value="0.25124970656" flag="0"/>
			<psa10 value="0.0779590619054" flag="0"/>
			<psa30 value="0.00633112440594" flag="0"/>
		</comp>
	</station>
	<station code="DLFA" name="DLFA" netid="HL" source="National Observatory of Athens Seismic Network" insttype="" lat="38.47836" lon="22.49583">
		<comp name="00.HNE" depth="0.0">
			<acc value="0.929661776718" flag="0"/>
			<vel value="0.332450400913" flag="0"/>
			<psa03 value="1.72729775833" flag="0"/>
			<psa10 value="0.284128302105" flag="0"/>
			<psa30 value="0.0214998959293" flag="0"/>
		</comp>
		<comp name="00.HNN" depth="0.0">
			<acc value="0.939860767004" flag="0"/>
			<vel value="0.356717147251" flag="0"/>
			<psa03 value="1.34230033748" flag="0"/>
			<psa10 value="0.27908466799" flag="0"/>
			<psa30 value="0.0242384106757" flag="0"/>
		</comp>
		<comp name="00.HNZ" depth="0.0">
			<acc value="0.685624724975" flag="0"/>
			<vel value="0.252519967623" flag="0"/>
			<psa03 value="1.53136861232" flag="0"/>
			<psa10 value="0.212758884232" flag="0"/>
			<psa30 value="0.0138877291606" flag="0"/>
		</comp>
	</station>
</stationlist>
