<?xml version="1.0" encoding="UTF-8" standalone="yes"?>
<!DOCTYPE earthquake SYSTEM "stationlist.dtd">
<stationlist created="" xmlns="ch.ethz.sed.shakemap.usgs.xml">
  <station code="KLV" name="KLV" netid="MN" insttype="" lat="38.0437" lon="22.1504">
    <comp name="--.HHZ">
      <acc value="0.0264635449" flag="0"/>
      <vel value="0.0207485682" flag="0"/>
      <psa03 value="0.0713694186" flag="0"/>
      <psa10 value="0.0245248365" flag="0"/>
      <psa30 value="0.0062446243" flag="0"/>
    </comp>
    <comp name="--.HHE">
      <acc value="0.0469845374" flag="0"/>
      <vel value="0.0399145001" flag="0"/>
      <psa03 value="0.1041492833" flag="0"/>
      <psa10 value="0.0278970041" flag="0"/>
      <psa30 value="0.0094024998" flag="0"/>
    </comp>
    <comp name="--.HHN">
      <acc value="0.0363115250" flag="0"/>
      <vel value="0.0297673052" flag="0"/>
      <psa03 value="0.0896460219" flag="0"/>
      <psa10 value="0.0414075305" flag="0"/>
      <psa30 value="0.0068882936" flag="0"/>
    </comp>
  </station>
  <station code="THL" name="THL" netid="MN" insttype="" lat="39.5647" lon="22.0144">
    <comp name="--.HHE">
      <acc value="0.0070879186" flag="0"/>
      <vel value="0.0066978462" flag="0"/>
      <psa03 value="0.0214409827" flag="0"/>
      <psa10 value="0.0198090092" flag="0"/>
      <psa30 value="0.0025403136" flag="0"/>
    </comp>
    <comp name="--.HHN">
      <acc value="0.0075302030" flag="0"/>
      <vel value="0.0082417655" flag="0"/>
      <psa03 value="0.0253136011" flag="0"/>
      <psa10 value="0.0152940962" flag="0"/>
      <psa30 value="0.0021326388" flag="0"/>
    </comp>
    <comp name="--.HHZ">
      <acc value="0.0066802821" flag="0"/>
      <vel value="0.0067338392" flag="0"/>
      <psa03 value="0.0185910475" flag="0"/>
      <psa10 value="0.0100011441" flag="0"/>
      <psa30 value="0.0012761214" flag="0"/>
    </comp>
  </station>
</stationlist>
