<?xml version="1.0" encoding="UTF-8" standalone="yes"?>
<!DOCTYPE earthquake SYSTEM "stationlist.dtd">
<stationlist created="" xmlns="ch.ethz.sed.shakemap.usgs.xml">
  <station code="LTVH" name="LTVH" netid="HU" insttype="" lat="47.3849" lon="21.9007">
    <comp name="--.HHN">
      <acc value="0.0783246649" flag="0"/>
      <vel value="0.0368550320" flag="0"/>
      <psa03 value="0.1685297511" flag="0"/>
      <psa10 value="0.0171972861" flag="0"/>
      <psa30 value="0.0014687362" flag="0"/>
    </comp>
    <comp name="--.HHZ">
      <acc value="0.0147966082" flag="0"/>
      <vel value="0.0075283661" flag="0"/>
      <psa03 value="0.0451274014" flag="0"/>
      <psa10 value="0.0046231784" flag="0"/>
      <psa30 value="0.0010634928" flag="0"/>
    </comp>
    <comp name="--.HHE">
      <acc value="0.0629015759" flag="0"/>
      <vel value="0.0227000613" flag="0"/>
      <psa03 value="0.1043563186" flag="0"/>
      <psa10 value="0.0116511197" flag="0"/>
      <psa30 value="0.0014084835" flag="0"/>
    </comp>
  </station>
  <station code="BZS" name="BZS" netid="MN" insttype="" lat="45.6188" lon="21.6401">
    <comp name="--.HHE">
      <acc value="0.0820487676" flag="0"/>
      <vel value="0.0478266973" flag="0"/>
      <psa03 value="0.2027067741" flag="0"/>
      <psa10 value="0.0181226253" flag="0"/>
      <psa30 value="0.0021488484" flag="0"/>
    </comp>
    <comp name="--.HHN">
      <acc value="0.0628249644" flag="0"/>
      <vel value="0.0191828423" flag="0"/>
      <psa03 value="0.1013311785" flag="0"/>
      <psa10 value="0.0123119122" flag="0"/>
      <psa30 value="0.0008290426" flag="0"/>
    </comp>
    <comp name="--.HHZ">
      <acc value="0.0711475585" flag="0"/>
      <vel value="0.0134122670" flag="0"/>
      <psa03 value="0.0501771241" flag="0"/>
      <psa10 value="0.0076992749" flag="0"/>
      <psa30 value="0.0006502147" flag="0"/>
    </comp>
  </station>
</stationlist>
