<?xml version="1.0" encoding="UTF-8" standalone="yes"?>
<!DOCTYPE earthquake SYSTEM "stationlist.dtd">
<stationlist created="" xmlns="ch.ethz.sed.shakemap.usgs.xml">
  <station code="BZS" name="BZS" netid="MN" insttype="" lat="45.6188" lon="21.6401">
    <comp name="--.HHZ">
      <acc value="0.0711475584" flag="0"/>
      <vel value="0.0134122659" flag="0"/>
      <psa03 value="0.0501771241" flag="0"/>
      <psa10 value="0.0076992750" flag="0"/>
      <psa30 value="0.0006502179" flag="0"/>
    </comp>
    <comp name="--.HHE">
      <acc value="0.0820487676" flag="0"/>
      <vel value="0.0478266968" flag="0"/>
      <psa03 value="0.2027067741" flag="0"/>
      <psa10 value="0.0181226253" flag="0"/>
      <psa30 value="0.0021488366" flag="0"/>
    </comp>
    <comp name="--.HHN">
      <acc value="0.0628249640" flag="0"/>
      <vel value="0.0191828421" flag="0"/>
      <psa03 value="0.1013311785" flag="0"/>
      <psa10 value="0.0123119123" flag="0"/>
      <psa30 value="0.0008290450" flag="0"/>
    </comp>
  </station>
  <station code="BANR" name="BANR" netid="RO" insttype="330" lat="45.3828" lon="21.137">
    <comp name="--.HHN">
      <acc value="0.2674664093" flag="0"/>
      <vel value="0.1600654828" flag="0"/>
      <psa03 value="1.0457810582" flag="0"/>
      <psa10 value="0.2100919539" flag="0"/>
      <psa30 value="0.0170842622" flag="0"/>
    </comp>
    <comp name="--.HHE">
      <acc value="0.2936761372" flag="0"/>
      <vel value="0.2527646146" flag="0"/>
      <psa03 value="0.7322391443" flag="0"/>
      <psa10 value="0.4054659893" flag="0"/>
      <psa30 value="0.0260879791" flag="0"/>
    </comp>
    <comp name="--.HHZ">
      <acc value="0.1230977905" flag="0"/>
      <vel value="0.0701849921" flag="0"/>
      <psa03 value="0.2203929507" flag="0"/>
      <psa10 value="0.1076870102" flag="0"/>
      <psa30 value="0.0077873074" flag="0"/>
    </comp>
  </station>
  <station code="BORR" name="BORR" netid="RO" insttype="CMG40T.1to100/Quanterra" lat="47.0902" lon="21.7856">
    <comp name="--.HHZ">
      <acc value="0.0767058481" flag="0"/>
      <vel value="0.0286734800" flag="0"/>
      <psa03 value="0.1172280081" flag="0"/>
      <psa10 value="0.0198690777" flag="0"/>
      <psa30 value="0.0013212821" flag="0"/>
    </comp>
    <comp name="--.HHE">
      <acc value="0.1856946831" flag="0"/>
      <vel value="0.0756740074" flag="0"/>
      <psa03 value="0.2870268731" flag="0"/>
      <psa10 value="0.0412995315" flag="0"/>
      <psa30 value="0.0027821333" flag="0"/>
    </comp>
  </station>
  <station code="BZS" name="BZS" netid="RO" insttype="w/attenuator" lat="45.6188" lon="21.6401">
    <comp name="--.HHE">
      <acc value="0.0607015065" flag="0"/>
      <vel value="0.0359027570" flag="0"/>
      <psa03 value="0.1514675943" flag="0"/>
      <psa10 value="0.0135641648" flag="0"/>
      <psa30 value="0.0016141954" flag="0"/>
    </comp>
    <comp name="--.HHN">
      <acc value="0.0477514244" flag="0"/>
      <vel value="0.0143376777" flag="0"/>
      <psa03 value="0.0761554607" flag="0"/>
      <psa10 value="0.0092582229" flag="0"/>
      <psa30 value="0.0006203184" flag="0"/>
    </comp>
    <comp name="--.HHZ">
      <acc value="0.0546547188" flag="0"/>
      <vel value="0.0097294076" flag="0"/>
      <psa03 value="0.0375013035" flag="0"/>
      <psa10 value="0.0057758974" flag="0"/>
      <psa30 value="0.0004785995" flag="0"/>
    </comp>
  </station>
  <station code="DEV" name="DEV" netid="RO" insttype="CMG40T.1to100/Quanterra" lat="45.887" lon="22.898">
    <comp name="--.HHE">
      <acc value="0.0699176185" flag="0"/>
      <vel value="0.0224853652" flag="0"/>
      <psa03 value="0.1080092913" flag="0"/>
      <psa10 value="0.0144943861" flag="0"/>
      <psa30 value="0.0009628654" flag="0"/>
    </comp>
    <comp name="--.HHN">
      <acc value="0.0552142577" flag="0"/>
      <vel value="0.0239779488" flag="0"/>
      <psa03 value="0.0992699402" flag="0"/>
      <psa10 value="0.0311709439" flag="0"/>
      <psa30 value="0.0011966136" flag="0"/>
    </comp>
    <comp name="--.HHZ">
      <acc value="0.0468843744" flag="0"/>
      <vel value="0.0137292205" flag="0"/>
      <psa03 value="0.0516952194" flag="0"/>
      <psa10 value="0.0102995739" flag="0"/>
      <psa30 value="0.0007300201" flag="0"/>
    </comp>
  </station>
  <station code="DRGR" name="DRGR" netid="RO" insttype="330" lat="46.7917" lon="22.7111">
    <comp name="--.HHE">
      <acc value="0.2463779180" flag="0"/>
      <vel value="0.0631602433" flag="0"/>
      <psa03 value="0.2378657126" flag="0"/>
      <psa10 value="0.0176501586" flag="0"/>
      <psa30 value="0.0012939198" flag="0"/>
    </comp>
    <comp name="--.HHN">
      <acc value="0.1657585425" flag="0"/>
      <vel value="0.0462837849" flag="0"/>
      <psa03 value="0.2722229790" flag="0"/>
      <psa10 value="0.0132276490" flag="0"/>
      <psa30 value="0.0010685998" flag="0"/>
    </comp>
    <comp name="--.HHZ">
      <acc value="0.1801519382" flag="0"/>
      <vel value="0.0548455427" flag="0"/>
      <psa03 value="0.1209116606" flag="0"/>
      <psa10 value="0.0216484348" flag="0"/>
      <psa30 value="0.0009251284" flag="0"/>
    </comp>
  </station>
  <station code="JIMR" name="JIMR" netid="RO" insttype="200" lat="45.7818" lon="20.7024">
    <comp name="--.HNE">
      <acc value="0.1393929642" flag="0"/>
      <vel value="0.0531815914" flag="0"/>
      <psa03 value="0.3478700517" flag="0"/>
      <psa10 value="0.0220903757" flag="0"/>
      <psa30 value="0.0027140073" flag="0"/>
    </comp>
    <comp name="--.HNN">
      <acc value="0.1774973265" flag="0"/>
      <vel value="0.0925617688" flag="0"/>
      <psa03 value="0.2286687123" flag="0"/>
      <psa10 value="0.0958353712" flag="0"/>
      <psa30 value="0.0057117040" flag="0"/>
    </comp>
    <comp name="--.HNZ">
      <acc value="0.0677752316" flag="0"/>
      <vel value="0.0123630644" flag="0"/>
      <psa03 value="0.0375948461" flag="0"/>
      <psa10 value="0.0100298824" flag="0"/>
      <psa30 value="0.0024909234" flag="0"/>
    </comp>
  </station>
  <station code="SNMR" name="SNMR" netid="RO" insttype="200" lat="46.0713" lon="20.6017">
    <comp name="--.HNE">
      <acc value="0.0930223081" flag="0"/>
      <vel value="0.0554207838" flag="0"/>
      <psa03 value="0.1381184567" flag="0"/>
      <psa10 value="0.0339457894" flag="0"/>
      <psa30 value="0.0029944714" flag="0"/>
    </comp>
    <comp name="--.HNN">
      <acc value="0.1154648918" flag="0"/>
      <vel value="0.0314850486" flag="0"/>
      <psa03 value="0.1801646319" flag="0"/>
      <psa10 value="0.0300488957" flag="0"/>
      <psa30 value="0.0042734962" flag="0"/>
    </comp>
    <comp name="--.HNZ">
      <acc value="0.1088727457" flag="0"/>
      <vel value="0.0238199788" flag="0"/>
      <psa03 value="0.0600249760" flag="0"/>
      <psa10 value="0.0183311708" flag="0"/>
      <psa30 value="0.0009468500" flag="0"/>
    </comp>
  </station>
  <station code="SURR" name="SURR" netid="RO" insttype="Linear" lat="45.754" lon="22.1246">
    <comp name="--.HHZ">
      <acc value="0.1015718139" flag="0"/>
      <vel value="0.0225351300" flag="0"/>
      <psa03 value="0.0724221379" flag="0"/>
      <psa10 value="0.0130183771" flag="0"/>
      <psa30 value="0.0008265124" flag="0"/>
    </comp>
    <comp name="--.HHE">
      <acc value="0.1798217591" flag="0"/>
      <vel value="0.0269539080" flag="0"/>
      <psa03 value="0.0614994385" flag="0"/>
      <psa10 value="0.0120101514" flag="0"/>
      <psa30 value="0.0010838015" flag="0"/>
    </comp>
    <comp name="--.HHN">
      <acc value="0.2005755895" flag="0"/>
      <vel value="0.0289303379" flag="0"/>
      <psa03 value="0.1130935389" flag="0"/>
      <psa10 value="0.0090382616" flag="0"/>
      <psa30 value="0.0011734269" flag="0"/>
    </comp>
  </station>
  <station code="TIM" name="TIM" netid="RO" insttype="2.5V" lat="45.7365" lon="21.2211">
    <comp name="--.HNN">
      <acc value="0.0951058428" flag="0"/>
      <vel value="0.0349891516" flag="0"/>
      <psa03 value="0.1936002381" flag="0"/>
      <psa10 value="0.0306339346" flag="0"/>
      <psa30 value="0.0044866725" flag="0"/>
    </comp>
    <comp name="--.HNZ">
      <acc value="0.1196605574" flag="0"/>
      <vel value="0.0152115211" flag="0"/>
      <psa03 value="0.0546541537" flag="0"/>
      <psa10 value="0.0087502633" flag="0"/>
      <psa30 value="0.0010930405" flag="0"/>
    </comp>
    <comp name="--.HNE">
      <acc value="0.1000668230" flag="0"/>
      <vel value="0.0438192726" flag="0"/>
      <psa03 value="0.2214962159" flag="0"/>
      <psa10 value="0.0382661539" flag="0"/>
      <psa30 value="0.0035051593" flag="0"/>
    </comp>
  </station>
</stationlist>
