<?xml version="1.0" encoding="UTF-8" standalone="yes"?>
<!DOCTYPE earthquake SYSTEM "stationlist.dtd">
<stationlist created="" xmlns="ch.ethz.sed.shakemap.usgs.xml">
  <station code="LTVH" name="LTVH" netid="HU" insttype="" lat="47.3849" lon="21.9007">
    <comp name="--.HHE">
      <acc value="0.0629015760" flag="0"/>
      <vel value="0.0227000616" flag="0"/>
      <psa03 value="0.1043563186" flag="0"/>
      <psa10 value="0.0116511197" flag="0"/>
      <psa30 value="0.0014084433" flag="0"/>
    </comp>
    <comp name="--.HHN">
      <acc value="0.0783246649" flag="0"/>
      <vel value="0.0368550318" flag="0"/>
      <psa03 value="0.1685297511" flag="0"/>
      <psa10 value="0.0171972861" flag="0"/>
      <psa30 value="0.0014687373" flag="0"/>
    </comp>
    <comp name="--.HHZ">
      <acc value="0.0147966082" flag="0"/>
      <vel value="0.0075283662" flag="0"/>
      <psa03 value="0.0451274014" flag="0"/>
      <psa10 value="0.0046231778" flag="0"/>
      <psa30 value="0.0010589232" flag="0"/>
    </comp>
  </station>
  <station code="BZS" name="BZS" netid="MN" insttype="" lat="45.6188" lon="21.6401">
    <comp name="--.HHZ">
      <acc value="0.0711475584" flag="0"/>
      <vel value="0.0134122664" flag="0"/>
      <psa03 value="0.0501771241" flag="0"/>
      <psa10 value="0.0076992748" flag="0"/>
      <psa30 value="0.0006502177" flag="0"/>
    </comp>
    <comp name="--.HHN">
      <acc value="0.0628249644" flag="0"/>
      <vel value="0.0191828419" flag="0"/>
      <psa03 value="0.1013311785" flag="0"/>
      <psa10 value="0.0123119122" flag="0"/>
      <psa30 value="0.0008290431" flag="0"/>
    </comp>
    <comp name="--.HHE">
      <acc value="0.0820487677" flag="0"/>
      <vel value="0.0478266973" flag="0"/>
      <psa03 value="0.2027067741" flag="0"/>
      <psa10 value="0.0181226254" flag="0"/>
      <psa30 value="0.0021488637" flag="0"/>
    </comp>
  </station>
  <station code="BANR" name="BANR" netid="RO" insttype="330" lat="45.3828" lon="21.137">
    <comp name="--.HHE">
      <acc value="0.2936761373" flag="0"/>
      <vel value="0.2527646230" flag="0"/>
      <psa03 value="0.7322391443" flag="0"/>
      <psa10 value="0.4054659893" flag="0"/>
      <psa30 value="0.0260875758" flag="0"/>
    </comp>
    <comp name="--.HHN">
      <acc value="0.2674664088" flag="0"/>
      <vel value="0.1600654729" flag="0"/>
      <psa03 value="1.0457810582" flag="0"/>
      <psa10 value="0.2100919539" flag="0"/>
      <psa30 value="0.0170839203" flag="0"/>
    </comp>
    <comp name="--.HHZ">
      <acc value="0.1230977880" flag="0"/>
      <vel value="0.0701849830" flag="0"/>
      <psa03 value="0.2203929508" flag="0"/>
      <psa10 value="0.1076870103" flag="0"/>
      <psa30 value="0.0077873040" flag="0"/>
    </comp>
  </station>
  <station code="BZS" name="BZS" netid="RO" insttype="w/attenuator" lat="45.6188" lon="21.6401">
    <comp name="--.HHN">
      <acc value="0.0477514242" flag="0"/>
      <vel value="0.0143376773" flag="0"/>
      <psa03 value="0.0761554607" flag="0"/>
      <psa10 value="0.0092582229" flag="0"/>
      <psa30 value="0.0006203175" flag="0"/>
    </comp>
    <comp name="--.HHZ">
      <acc value="0.0546547188" flag="0"/>
      <vel value="0.0097294089" flag="0"/>
      <psa03 value="0.0375013035" flag="0"/>
      <psa10 value="0.0057758972" flag="0"/>
      <psa30 value="0.0004785992" flag="0"/>
    </comp>
  </station>
  <station code="DEV" name="DEV" netid="RO" insttype="CMG40T.1to100/Quanterra" lat="45.887" lon="22.898">
    <comp name="--.HHE">
      <acc value="0.0699176196" flag="0"/>
      <vel value="0.0224853606" flag="0"/>
      <psa03 value="0.1080092913" flag="0"/>
      <psa10 value="0.0144943861" flag="0"/>
      <psa30 value="0.0009628542" flag="0"/>
    </comp>
    <comp name="--.HHN">
      <acc value="0.0552142549" flag="0"/>
      <vel value="0.0239779489" flag="0"/>
      <psa03 value="0.0992699402" flag="0"/>
      <psa10 value="0.0311709439" flag="0"/>
      <psa30 value="0.0011966190" flag="0"/>
    </comp>
    <comp name="--.HHZ">
      <acc value="0.0468843753" flag="0"/>
      <vel value="0.0137292177" flag="0"/>
      <psa03 value="0.0516952194" flag="0"/>
      <psa10 value="0.0102995739" flag="0"/>
      <psa30 value="0.0007300257" flag="0"/>
    </comp>
  </station>
  <station code="DRGR" name="DRGR" netid="RO" insttype="330" lat="46.7917" lon="22.7111">
    <comp name="--.HHE">
      <acc value="0.2463779193" flag="0"/>
      <vel value="0.0631602433" flag="0"/>
      <psa03 value="0.2378657126" flag="0"/>
      <psa10 value="0.0176501586" flag="0"/>
      <psa30 value="0.0012939201" flag="0"/>
    </comp>
    <comp name="--.HHN">
      <acc value="0.1657585433" flag="0"/>
      <vel value="0.0462837846" flag="0"/>
      <psa03 value="0.2722229790" flag="0"/>
      <psa10 value="0.0132276490" flag="0"/>
      <psa30 value="0.0010686017" flag="0"/>
    </comp>
    <comp name="--.HHZ">
      <acc value="0.1801519383" flag="0"/>
      <vel value="0.0548455426" flag="0"/>
      <psa03 value="0.1209116606" flag="0"/>
      <psa10 value="0.0216484348" flag="0"/>
      <psa30 value="0.0009251298" flag="0"/>
    </comp>
  </station>
  <station code="GZR" name="GZR" netid="RO" insttype="330" lat="45.3933" lon="22.7767">
    <comp name="--.HHE">
      <acc value="0.2363238710" flag="0"/>
      <vel value="0.0669904734" flag="0"/>
      <psa03 value="0.3179724270" flag="0"/>
      <psa10 value="0.0164896563" flag="0"/>
      <psa30 value="0.0014108047" flag="0"/>
    </comp>
    <comp name="--.HHN">
      <acc value="0.1215125809" flag="0"/>
      <vel value="0.0498310408" flag="0"/>
      <psa03 value="0.3334162563" flag="0"/>
      <psa10 value="0.0333378788" flag="0"/>
      <psa30 value="0.0016890461" flag="0"/>
    </comp>
    <comp name="--.HHZ">
      <acc value="0.0844544472" flag="0"/>
      <vel value="0.0320103472" flag="0"/>
      <psa03 value="0.0895106665" flag="0"/>
      <psa10 value="0.0113656481" flag="0"/>
      <psa30 value="0.0006771012" flag="0"/>
    </comp>
  </station>
  <station code="JIMR" name="JIMR" netid="RO" insttype="200" lat="45.7818" lon="20.7024">
    <comp name="--.HNZ">
      <acc value="0.0677752329" flag="0"/>
      <vel value="0.0123631266" flag="0"/>
      <psa03 value="0.0375948461" flag="0"/>
      <psa10 value="0.0100298828" flag="0"/>
      <psa30 value="0.0034186577" flag="0"/>
    </comp>
    <comp name="--.HNN">
      <acc value="0.1774973249" flag="0"/>
      <vel value="0.0925617675" flag="0"/>
      <psa03 value="0.2286687123" flag="0"/>
      <psa10 value="0.0958353717" flag="0"/>
      <psa30 value="0.0057117188" flag="0"/>
    </comp>
    <comp name="--.HNE">
      <acc value="0.1393929678" flag="0"/>
      <vel value="0.0531815839" flag="0"/>
      <psa03 value="0.3478700517" flag="0"/>
      <psa10 value="0.0220903756" flag="0"/>
      <psa30 value="0.0027155164" flag="0"/>
    </comp>
  </station>
  <station code="MARR" name="MARR" netid="RO" insttype="CMG40T.1to100/obsidian" lat="46.676" lon="23.1189">
    <comp name="--.HHZ">
      <acc value="0.3371257907" flag="0"/>
      <vel value="0.0838570890" flag="0"/>
      <psa03 value="0.4229267077" flag="0"/>
      <psa10 value="0.0153483238" flag="0"/>
      <psa30 value="0.0014027657" flag="0"/>
    </comp>
    <comp name="--.HHE">
      <acc value="0.2267155416" flag="0"/>
      <vel value="0.0421384193" flag="0"/>
      <psa03 value="0.1879308156" flag="0"/>
      <psa10 value="0.0104341215" flag="0"/>
      <psa30 value="0.0006994029" flag="0"/>
    </comp>
    <comp name="--.HHN">
      <acc value="0.5341019778" flag="0"/>
      <vel value="0.1129398553" flag="0"/>
      <psa03 value="0.4883902603" flag="0"/>
      <psa10 value="0.0238818554" flag="0"/>
      <psa30 value="0.0021306249" flag="0"/>
    </comp>
  </station>
  <station code="MDVR" name="MDVR" netid="RO" insttype="CMG40T.1to100/Quanterra" lat="44.7815" lon="21.7128">
    <comp name="--.HHZ">
      <acc value="0.0097803380" flag="0"/>
      <vel value="0.0045640911" flag="0"/>
      <psa03 value="0.0120844430" flag="0"/>
      <psa10 value="0.0067823465" flag="0"/>
      <psa30 value="0.0004243846" flag="0"/>
    </comp>
    <comp name="--.HHE">
      <acc value="0.0212246417" flag="0"/>
      <vel value="0.0073787761" flag="0"/>
      <psa03 value="0.0164044779" flag="0"/>
      <psa10 value="0.0054916824" flag="0"/>
      <psa30 value="0.0008061881" flag="0"/>
    </comp>
    <comp name="--.HHN">
      <acc value="0.0181889346" flag="0"/>
      <vel value="0.0071899700" flag="0"/>
      <psa03 value="0.0229447945" flag="0"/>
      <psa10 value="0.0074987334" flag="0"/>
      <psa30 value="0.0003211422" flag="0"/>
    </comp>
  </station>
  <station code="SNMR" name="SNMR" netid="RO" insttype="200" lat="46.0713" lon="20.6017">
    <comp name="--.HNE">
      <acc value="0.0930223075" flag="0"/>
      <vel value="0.0554207759" flag="0"/>
      <psa03 value="0.1381184567" flag="0"/>
      <psa10 value="0.0339457895" flag="0"/>
      <psa30 value="0.0029938999" flag="0"/>
    </comp>
    <comp name="--.HNN">
      <acc value="0.1154648875" flag="0"/>
      <vel value="0.0314850070" flag="0"/>
      <psa03 value="0.1801646319" flag="0"/>
      <psa10 value="0.0300488957" flag="0"/>
      <psa30 value="0.0042890288" flag="0"/>
    </comp>
    <comp name="--.HNZ">
      <acc value="0.1088727405" flag="0"/>
      <vel value="0.0238199865" flag="0"/>
      <psa03 value="0.0600249761" flag="0"/>
      <psa10 value="0.0183311700" flag="0"/>
      <psa30 value="0.0009474845" flag="0"/>
    </comp>
  </station>
  <station code="SURR" name="SURR" netid="RO" insttype="Linear" lat="45.754" lon="22.1246">
    <comp name="--.HHN">
      <acc value="0.2005755886" flag="0"/>
      <vel value="0.0289303389" flag="0"/>
      <psa03 value="0.1130935389" flag="0"/>
      <psa10 value="0.0090382616" flag="0"/>
      <psa30 value="0.0011734712" flag="0"/>
    </comp>
    <comp name="--.HHE">
      <acc value="0.1798217575" flag="0"/>
      <vel value="0.0269539083" flag="0"/>
      <psa03 value="0.0614994385" flag="0"/>
      <psa10 value="0.0120101514" flag="0"/>
      <psa30 value="0.0010837923" flag="0"/>
    </comp>
    <comp name="--.HHZ">
      <acc value="0.1015718138" flag="0"/>
      <vel value="0.0225351299" flag="0"/>
      <psa03 value="0.0724221379" flag="0"/>
      <psa10 value="0.0130183771" flag="0"/>
      <psa30 value="0.0008264980" flag="0"/>
    </comp>
  </station>
  <station code="TIM" name="TIM" netid="RO" insttype="2.5V" lat="45.7365" lon="21.2211">
    <comp name="--.HNE">
      <acc value="0.1000668300" flag="0"/>
      <vel value="0.0438192675" flag="0"/>
      <psa03 value="0.2214962159" flag="0"/>
      <psa10 value="0.0382661550" flag="0"/>
      <psa30 value="0.0035075520" flag="0"/>
    </comp>
    <comp name="--.HNZ">
      <acc value="0.1196605438" flag="0"/>
      <vel value="0.0152115326" flag="0"/>
      <psa03 value="0.0546541537" flag="0"/>
      <psa10 value="0.0087502630" flag="0"/>
      <psa30 value="0.0010935203" flag="0"/>
    </comp>
    <comp name="--.HNN">
      <acc value="0.0951058739" flag="0"/>
      <vel value="0.0349891776" flag="0"/>
      <psa03 value="0.1936002381" flag="0"/>
      <psa10 value="0.0306339332" flag="0"/>
      <psa30 value="0.0044867349" flag="0"/>
    </comp>
  </station>
</stationlist>
