<stationlist created="1778069562">
	<station code="IMMV" name="IMMV" netid="GE" source="GEOFON" insttype="" lat="35.4606" lon="23.9811">
		<comp name="--.HNE" depth="0.0">
			<acc value="0.000554479682124664" flag="0"/>
			<vel value="0.000617479512081684" flag="0"/>
			<psa03 value="0.00125278178531161" flag="0"/>
			<psa10 value="0.00138119191830605" flag="0"/>
			<psa30 value="0.000176284294075991" flag="0"/>
		</comp>
		<comp name="--.HNN" depth="0.0">
			<acc value="0.000473020845914766" flag="0"/>
			<vel value="0.000757941909815984" flag="0"/>
			<psa03 value="0.00134226619854815" flag="0"/>
			<psa10 value="0.00109931601661094" flag="0"/>
			<psa30 value="0.000251003779128504" flag="0"/>
		</comp>
		<comp name="--.HNZ" depth="0.0">
			<acc value="0.000433950886845664" flag="0"/>
			<vel value="0.000502298272848022" flag="0"/>
			<psa03 value="0.00102907075222025" flag="0"/>
			<psa10 value="0.000817440114915825" flag="0"/>
			<psa30 value="8.232566017762e-05" flag="0"/>
		</comp>
	</station>
	<station code="KARP" name="KARP" netid="GE" source="GEOFON" insttype="" lat="35.5471" lon="27.16106">
		<comp name="--.HNE" depth="0.0">
			<acc value="0.00975336457988393" flag="0"/>
			<vel value="0.00100176942158632" flag="0"/>
			<psa03 value="0.00102907075222025" flag="0"/>
			<psa10 value="0.000881868892446136" flag="0"/>
			<psa30 value="0.000182100780936366" flag="0"/>
		</comp>
		<comp name="--.HNN" depth="0.0">
			<acc value="0.011148516345616" flag="0"/>
			<vel value="0.000946516119816372" flag="0"/>
			<psa03 value="0.000894844132365435" flag="0"/>
			<psa10 value="0.00111139641239787" flag="0"/>
			<psa30 value="0.000158834833494865" flag="0"/>
		</comp>
		<comp name="--.HNZ" depth="0.0">
			<acc value="0.00461321446295967" flag="0"/>
			<vel value="0.000587265030801105" flag="0"/>
			<psa03 value="0.00111855516545679" flag="0"/>
			<psa10 value="0.000599992990751024" flag="0"/>
			<psa30 value="0.000146307015641749" flag="0"/>
		</comp>
	</station>
</stationlist>
