<?xml version="1.0" encoding="UTF-8" standalone="yes"?>
<!DOCTYPE earthquake SYSTEM "stationlist.dtd">
<stationlist created="" xmlns="ch.ethz.sed.shakemap.usgs.xml">
  <station code="BAC" name="BAC" netid="RO" insttype="2.5V" lat="46.5669" lon="26.9124">
    <comp name="--.HNE">
      <acc value="0.0206482039" flag="0"/>
      <vel value="0.0108516502" flag="0"/>
      <psa03 value="0.0717974753" flag="0"/>
      <psa10 value="0.0065761378" flag="0"/>
      <psa30 value="0.0006235359" flag="0"/>
    </comp>
    <comp name="--.HNN">
      <acc value="0.0252384288" flag="0"/>
      <vel value="0.0131073440" flag="0"/>
      <psa03 value="0.0501182709" flag="0"/>
      <psa10 value="0.0100745421" flag="0"/>
      <psa30 value="0.0006270887" flag="0"/>
    </comp>
    <comp name="--.HNZ">
      <acc value="0.0406185858" flag="0"/>
      <vel value="0.0105637837" flag="0"/>
      <psa03 value="0.0349961974" flag="0"/>
      <psa10 value="0.0036431540" flag="0"/>
      <psa30 value="0.0003591848" flag="0"/>
    </comp>
  </station>
  <station code="BIR" name="BIR" netid="RO" insttype="MBB2/Quanterra" lat="46.2334" lon="27.6436">
    <comp name="--.HHE">
      <acc value="0.2230404677" flag="0"/>
      <vel value="0.0476560899" flag="0"/>
      <psa03 value="0.1999990931" flag="0"/>
      <psa10 value="0.0094987911" flag="0"/>
      <psa30 value="0.0011309204" flag="0"/>
    </comp>
    <comp name="--.HHN">
      <acc value="0.1470018344" flag="0"/>
      <vel value="0.0298615452" flag="0"/>
      <psa03 value="0.1117746788" flag="0"/>
      <psa10 value="0.0182334201" flag="0"/>
      <psa30 value="0.0009644769" flag="0"/>
    </comp>
    <comp name="--.HHZ">
      <acc value="0.1151806660" flag="0"/>
      <vel value="0.0368755380" flag="0"/>
      <psa03 value="0.1529489919" flag="0"/>
      <psa10 value="0.0066370335" flag="0"/>
      <psa30 value="0.0008053430" flag="0"/>
    </comp>
  </station>
  <station code="BISRR" name="BISRR" netid="RO" insttype="CMG40T.1to100/Basalt" lat="45.5481" lon="26.7099">
    <comp name="--.HHE">
      <acc value="0.0998467888" flag="0"/>
      <vel value="0.0398449666" flag="0"/>
      <psa03 value="0.2240348457" flag="0"/>
      <psa10 value="0.0317507488" flag="0"/>
      <psa30 value="0.0020512842" flag="0"/>
    </comp>
    <comp name="--.HHZ">
      <acc value="0.0927339702" flag="0"/>
      <vel value="0.0265273864" flag="0"/>
      <psa03 value="0.1307575843" flag="0"/>
      <psa10 value="0.0214584556" flag="0"/>
      <psa30 value="0.0011198237" flag="0"/>
    </comp>
  </station>
  <station code="BOSR" name="BOSR" netid="RO" insttype="Seismometer/Basalt" lat="46.0749" lon="25.6611">
    <comp name="--.HHE">
      <acc value="0.0193863980" flag="0"/>
      <vel value="0.0074309154" flag="0"/>
      <psa03 value="0.0403240829" flag="0"/>
      <psa10 value="0.0066234195" flag="0"/>
      <psa30 value="0.0005016892" flag="0"/>
    </comp>
    <comp name="--.HHN">
      <acc value="0.0194716976" flag="0"/>
      <vel value="0.0098733060" flag="0"/>
      <psa03 value="0.0397844807" flag="0"/>
      <psa10 value="0.0082031911" flag="0"/>
      <psa30 value="0.0006645417" flag="0"/>
    </comp>
    <comp name="--.HHZ">
      <acc value="0.0352562805" flag="0"/>
      <vel value="0.0106624214" flag="0"/>
      <psa03 value="0.0377783259" flag="0"/>
      <psa10 value="0.0035013508" flag="0"/>
      <psa30 value="0.0003765736" flag="0"/>
    </comp>
  </station>
  <station code="COPR" name="COPR" netid="RO" insttype="200" lat="45.8442" lon="26.1687">
    <comp name="--.HNE">
      <acc value="0.0192148795" flag="0"/>
      <vel value="0.0137113697" flag="0"/>
      <psa03 value="0.0798525074" flag="0"/>
      <psa10 value="0.0195090031" flag="0"/>
      <psa30 value="0.0007989745" flag="0"/>
    </comp>
    <comp name="--.HNN">
      <acc value="0.0152448833" flag="0"/>
      <vel value="0.0111866788" flag="0"/>
      <psa03 value="0.0599815158" flag="0"/>
      <psa10 value="0.0115376539" flag="0"/>
      <psa30 value="0.0007966895" flag="0"/>
    </comp>
    <comp name="--.HNZ">
      <acc value="0.0134831947" flag="0"/>
      <vel value="0.0079917861" flag="0"/>
      <psa03 value="0.0397211315" flag="0"/>
      <psa10 value="0.0057164260" flag="0"/>
      <psa30 value="0.0003818577" flag="0"/>
    </comp>
  </station>
  <station code="DOPR" name="DOPR" netid="RO" insttype="330" lat="45.9675" lon="25.3886">
    <comp name="--.HHE">
      <acc value="0.0138609392" flag="0"/>
      <vel value="0.0063567994" flag="0"/>
      <psa03 value="0.0160457306" flag="0"/>
      <psa10 value="0.0062951224" flag="0"/>
      <psa30 value="0.0006219846" flag="0"/>
    </comp>
    <comp name="--.HHN">
      <acc value="0.0126197315" flag="0"/>
      <vel value="0.0044769466" flag="0"/>
      <psa03 value="0.0121901022" flag="0"/>
      <psa10 value="0.0027983866" flag="0"/>
      <psa30 value="0.0002929220" flag="0"/>
    </comp>
    <comp name="--.HHZ">
      <acc value="0.0152400078" flag="0"/>
      <vel value="0.0038521056" flag="0"/>
      <psa03 value="0.0129739864" flag="0"/>
      <psa10 value="0.0023208759" flag="0"/>
      <psa30 value="0.0002864612" flag="0"/>
    </comp>
  </station>
  <station code="GISR" name="GISR" netid="RO" insttype="2.5V" lat="45.4411" lon="28.0541">
    <comp name="--.HNZ">
      <acc value="0.0843598265" flag="0"/>
      <vel value="0.0213982760" flag="0"/>
      <psa03 value="0.1015442242" flag="0"/>
      <psa10 value="0.0114645331" flag="0"/>
      <psa30 value="0.0006575244" flag="0"/>
    </comp>
    <comp name="--.HNN">
      <acc value="0.0870316380" flag="0"/>
      <vel value="0.0413413806" flag="0"/>
      <psa03 value="0.1797097941" flag="0"/>
      <psa10 value="0.0459613823" flag="0"/>
      <psa30 value="0.0034014819" flag="0"/>
    </comp>
    <comp name="--.HNE">
      <acc value="0.1453271292" flag="0"/>
      <vel value="0.0504692655" flag="0"/>
      <psa03 value="0.3573846130" flag="0"/>
      <psa10 value="0.0281360619" flag="0"/>
      <psa30 value="0.0029744464" flag="0"/>
    </comp>
  </station>
  <station code="MLR" name="MLR" netid="RO" insttype="330HR" lat="45.4909" lon="25.945">
    <comp name="--.HHE">
      <acc value="0.0162126938" flag="0"/>
      <vel value="0.0125815835" flag="0"/>
      <psa03 value="0.0454253428" flag="0"/>
      <psa10 value="0.0090376497" flag="0"/>
      <psa30 value="0.0006660704" flag="0"/>
    </comp>
    <comp name="--.HHN">
      <acc value="0.0127024422" flag="0"/>
      <vel value="0.0087250114" flag="0"/>
      <psa03 value="0.0266392892" flag="0"/>
      <psa10 value="0.0040569047" flag="0"/>
      <psa30 value="0.0007728217" flag="0"/>
    </comp>
    <comp name="--.HHZ">
      <acc value="0.0189371586" flag="0"/>
      <vel value="0.0130989552" flag="0"/>
      <psa03 value="0.0422725956" flag="0"/>
      <psa10 value="0.0072998054" flag="0"/>
      <psa30 value="0.0004293174" flag="0"/>
    </comp>
  </station>
  <station code="MTUR" name="MTUR" netid="RO" insttype="200" lat="45.2349" lon="25.0739">
    <comp name="--.HNE">
      <acc value="0.0123046828" flag="0"/>
      <vel value="0.0059812488" flag="0"/>
      <psa03 value="0.0227400693" flag="0"/>
      <psa10 value="0.0119644783" flag="0"/>
      <psa30 value="0.0009325729" flag="0"/>
    </comp>
    <comp name="--.HNZ">
      <acc value="0.0109413599" flag="0"/>
      <vel value="0.0029632099" flag="0"/>
      <psa03 value="0.0156594313" flag="0"/>
      <psa10 value="0.0026995611" flag="0"/>
      <psa30 value="0.0001703668" flag="0"/>
    </comp>
    <comp name="--.HNN">
      <acc value="0.0158063550" flag="0"/>
      <vel value="0.0085091010" flag="0"/>
      <psa03 value="0.0356003542" flag="0"/>
      <psa10 value="0.0085695331" flag="0"/>
      <psa30 value="0.0009790546" flag="0"/>
    </comp>
  </station>
  <station code="NEGRR" name="NEGRR" netid="RO" insttype="CMG40T.1to100/Quanterra" lat="45.5373" lon="27.8771">
    <comp name="--.HHE">
      <acc value="0.0954492608" flag="0"/>
      <vel value="0.0207560219" flag="0"/>
      <psa03 value="0.1015325721" flag="0"/>
      <psa10 value="0.0121599893" flag="0"/>
      <psa30 value="0.0008521194" flag="0"/>
    </comp>
    <comp name="--.HHN">
      <acc value="0.1177821300" flag="0"/>
      <vel value="0.0217643631" flag="0"/>
      <psa03 value="0.0793157723" flag="0"/>
      <psa10 value="0.0232638183" flag="0"/>
      <psa30 value="0.0012212430" flag="0"/>
    </comp>
    <comp name="--.HHZ">
      <acc value="0.0479311441" flag="0"/>
      <vel value="0.0086483932" flag="0"/>
      <psa03 value="0.0514609137" flag="0"/>
      <psa10 value="0.0031646061" flag="0"/>
      <psa30 value="0.0003793154" flag="0"/>
    </comp>
  </station>
  <station code="NEHR" name="NEHR" netid="RO" insttype="Seismometer/Basalt" lat="45.4272" lon="26.2952">
    <comp name="--.HHZ">
      <acc value="0.0550749473" flag="0"/>
      <vel value="0.0145398322" flag="0"/>
      <psa03 value="0.0806596238" flag="0"/>
      <psa10 value="0.0080293276" flag="0"/>
      <psa30 value="0.0003458206" flag="0"/>
    </comp>
    <comp name="--.HHE">
      <acc value="0.0500313472" flag="0"/>
      <vel value="0.0236545079" flag="0"/>
      <psa03 value="0.2030546905" flag="0"/>
      <psa10 value="0.0178311087" flag="0"/>
      <psa30 value="0.0012305632" flag="0"/>
    </comp>
    <comp name="--.HHN">
      <acc value="0.0516623780" flag="0"/>
      <vel value="0.0269251865" flag="0"/>
      <psa03 value="0.1536555173" flag="0"/>
      <psa10 value="0.0170399183" flag="0"/>
      <psa30 value="0.0009096489" flag="0"/>
    </comp>
  </station>
  <station code="ODBI" name="ODBI" netid="RO" insttype="PBB.1to100/Quanterra" lat="45.7633" lon="27.0558">
    <comp name="--.HHE">
      <acc value="0.6813179873" flag="0"/>
      <vel value="0.1255440001" flag="0"/>
      <psa03 value="0.3474278432" flag="0"/>
      <psa10 value="0.0234503590" flag="0"/>
      <psa30 value="0.0021970295" flag="0"/>
    </comp>
    <comp name="--.HHN">
      <acc value="0.6511721639" flag="0"/>
      <vel value="0.1280051391" flag="0"/>
      <psa03 value="0.6219071255" flag="0"/>
      <psa10 value="0.0415510972" flag="0"/>
      <psa30 value="0.0039398215" flag="0"/>
    </comp>
    <comp name="--.HHZ">
      <acc value="0.0003015361" flag="0"/>
      <vel value="0.0000304338" flag="0"/>
      <psa03 value="0.0000840141" flag="0"/>
      <psa10 value="0.0000129375" flag="0"/>
      <psa30 value="0.0000019703" flag="0"/>
    </comp>
  </station>
  <station code="ODSR" name="ODSR" netid="RO" insttype="CMG40T.1to100/Quanterra" lat="46.2969" lon="25.2919">
    <comp name="--.HHE">
      <acc value="0.0034444146" flag="0"/>
      <vel value="0.0020882914" flag="0"/>
      <psa03 value="0.0053746713" flag="0"/>
      <psa10 value="0.0022219542" flag="0"/>
      <psa30 value="0.0004227427" flag="0"/>
    </comp>
    <comp name="--.HHN">
      <acc value="0.0026454718" flag="0"/>
      <vel value="0.0019082057" flag="0"/>
      <psa03 value="0.0072532021" flag="0"/>
      <psa10 value="0.0030423153" flag="0"/>
      <psa30 value="0.0001825396" flag="0"/>
    </comp>
    <comp name="--.HHZ">
      <acc value="0.0024305497" flag="0"/>
      <vel value="0.0009839708" flag="0"/>
      <psa03 value="0.0034807180" flag="0"/>
      <psa10 value="0.0016596208" flag="0"/>
      <psa30 value="0.0001967976" flag="0"/>
    </comp>
  </station>
  <station code="ONER" name="ONER" netid="RO" insttype="CMG40T.1to100/obsidian" lat="46.3349" lon="26.394">
    <comp name="--.HHE">
      <acc value="0.0087881476" flag="0"/>
      <vel value="0.0025636369" flag="0"/>
      <psa03 value="0.0062693675" flag="0"/>
      <psa10 value="0.0018214553" flag="0"/>
      <psa30 value="0.0001080204" flag="0"/>
    </comp>
    <comp name="--.HHN">
      <acc value="0.0067040109" flag="0"/>
      <vel value="0.0017058561" flag="0"/>
      <psa03 value="0.0053860847" flag="0"/>
      <psa10 value="0.0012971029" flag="0"/>
      <psa30 value="0.0001044587" flag="0"/>
    </comp>
    <comp name="--.HHZ">
      <acc value="0.0094268780" flag="0"/>
      <vel value="0.0036306083" flag="0"/>
      <psa03 value="0.0192053580" flag="0"/>
      <psa10 value="0.0029010436" flag="0"/>
      <psa30 value="0.0001380792" flag="0"/>
    </comp>
  </station>
  <station code="PANC" name="PANC" netid="RO" insttype="Seismometer/Basalt" lat="45.8723" lon="27.1477">
    <comp name="--.HHE">
      <acc value="0.1094134304" flag="0"/>
      <vel value="0.0165676642" flag="0"/>
      <psa03 value="0.1390486971" flag="0"/>
      <psa10 value="0.0087332900" flag="0"/>
      <psa30 value="0.0006283248" flag="0"/>
    </comp>
    <comp name="--.HHN">
      <acc value="0.2755026332" flag="0"/>
      <vel value="0.0697765184" flag="0"/>
      <psa03 value="0.0737581372" flag="0"/>
      <psa10 value="0.0539230089" flag="0"/>
      <psa30 value="0.0202813559" flag="0"/>
    </comp>
    <comp name="--.HHZ">
      <acc value="0.2776640229" flag="0"/>
      <vel value="0.0628118816" flag="0"/>
      <psa03 value="0.2603525006" flag="0"/>
      <psa10 value="0.0127360514" flag="0"/>
      <psa30 value="0.0010253259" flag="0"/>
    </comp>
  </station>
  <station code="PGOR" name="PGOR" netid="RO" insttype="CMG40T.1to100/Quanterra" lat="44.9199" lon="26.9768">
    <comp name="--.HHE">
      <acc value="0.1500186337" flag="0"/>
      <vel value="0.0373999363" flag="0"/>
      <psa03 value="0.1404047094" flag="0"/>
      <psa10 value="0.0220283792" flag="0"/>
      <psa30 value="0.0018571254" flag="0"/>
    </comp>
    <comp name="--.HHN">
      <acc value="0.1672839427" flag="0"/>
      <vel value="0.0372917012" flag="0"/>
      <psa03 value="0.1345093389" flag="0"/>
      <psa10 value="0.0206999935" flag="0"/>
      <psa30 value="0.0022524995" flag="0"/>
    </comp>
    <comp name="--.HHZ">
      <acc value="0.1791416862" flag="0"/>
      <vel value="0.0201708172" flag="0"/>
      <psa03 value="0.0301207153" flag="0"/>
      <psa10 value="0.0052572659" flag="0"/>
      <psa30 value="0.0004477553" flag="0"/>
    </comp>
  </station>
  <station code="PLAR" name="PLAR" netid="RO" insttype="200" lat="44.9142" lon="26.0274">
    <comp name="--.HNZ">
      <acc value="0.0342105711" flag="0"/>
      <vel value="0.0063086730" flag="0"/>
      <psa03 value="0.0356276694" flag="0"/>
      <psa10 value="0.0038280531" flag="0"/>
      <psa30 value="0.0004454298" flag="0"/>
    </comp>
    <comp name="--.HNN">
      <acc value="0.0743376275" flag="0"/>
      <vel value="0.0342689321" flag="0"/>
      <psa03 value="0.1716246602" flag="0"/>
      <psa10 value="0.0146366002" flag="0"/>
      <psa30 value="0.0018679601" flag="0"/>
    </comp>
    <comp name="--.HNE">
      <acc value="0.0713721255" flag="0"/>
      <vel value="0.0360685844" flag="0"/>
      <psa03 value="0.2090326864" flag="0"/>
      <psa10 value="0.0264241146" flag="0"/>
      <psa30 value="0.0016097106" flag="0"/>
    </comp>
  </station>
  <station code="SAHR" name="SAHR" netid="RO" insttype="Seismometer/Basalt" lat="45.7266" lon="26.6855">
    <comp name="--.HHE">
      <acc value="0.0000046363" flag="0"/>
      <vel value="-100.0000000000" flag="0"/>
      <psa03 value="0.0000000662" flag="0"/>
      <psa10 value="0.0000000708" flag="0"/>
      <psa30 value="0.0000000965" flag="0"/>
    </comp>
    <comp name="--.HHZ">
      <acc value="0.0956290426" flag="0"/>
      <vel value="0.0424581811" flag="0"/>
      <psa03 value="0.2476768861" flag="0"/>
      <psa10 value="0.0139864953" flag="0"/>
      <psa30 value="0.0011608668" flag="0"/>
    </comp>
    <comp name="--.HHN">
      <acc value="0.0977289762" flag="0"/>
      <vel value="0.0445963827" flag="0"/>
      <psa03 value="0.2992224973" flag="0"/>
      <psa10 value="0.0186494109" flag="0"/>
      <psa30 value="0.0022279307" flag="0"/>
    </comp>
  </station>
  <station code="SCHL" name="SCHL" netid="RO" insttype="CMG40T.1to100/Quanterra" lat="45.5007" lon="27.8302">
    <comp name="--.HHE">
      <acc value="0.0678853251" flag="0"/>
      <vel value="0.0430799560" flag="0"/>
      <psa03 value="0.1302481670" flag="0"/>
      <psa10 value="0.0213716794" flag="0"/>
      <psa30 value="0.0016967955" flag="0"/>
    </comp>
    <comp name="--.HHN">
      <acc value="0.0702369368" flag="0"/>
      <vel value="0.0416066572" flag="0"/>
      <psa03 value="0.2180789454" flag="0"/>
      <psa10 value="0.0327596699" flag="0"/>
      <psa30 value="0.0025719040" flag="0"/>
    </comp>
    <comp name="--.HHZ">
      <acc value="0.0839949731" flag="0"/>
      <vel value="0.0139037293" flag="0"/>
      <psa03 value="0.0444958368" flag="0"/>
      <psa10 value="0.0041556311" flag="0"/>
      <psa30 value="0.0003608669" flag="0"/>
    </comp>
  </station>
  <station code="SCHLR" name="SCHLR" netid="RO" insttype="CMG40T.1to100/Quanterra" lat="45.4702" lon="27.8314">
    <comp name="--.HHZ">
      <acc value="0.0620054095" flag="0"/>
      <vel value="0.0074324327" flag="0"/>
      <psa03 value="0.0196999198" flag="0"/>
      <psa10 value="0.0032081654" flag="0"/>
      <psa30 value="0.0002555512" flag="0"/>
    </comp>
    <comp name="--.HHE">
      <acc value="0.1316651454" flag="0"/>
      <vel value="0.0204613732" flag="0"/>
      <psa03 value="0.0629067557" flag="0"/>
      <psa10 value="0.0114225787" flag="0"/>
      <psa30 value="0.0007186821" flag="0"/>
    </comp>
    <comp name="--.HHN">
      <acc value="0.1062297631" flag="0"/>
      <vel value="0.0286666377" flag="0"/>
      <psa03 value="0.1461204281" flag="0"/>
      <psa10 value="0.0145498423" flag="0"/>
      <psa30 value="0.0014245963" flag="0"/>
    </comp>
  </station>
  <station code="SCTR" name="SCTR" netid="RO" insttype="MBB2/Basalt" lat="45.6741" lon="27.9949">
    <comp name="--.HHN">
      <acc value="0.0789222004" flag="0"/>
      <vel value="0.0346460869" flag="0"/>
      <psa03 value="0.1300806252" flag="0"/>
      <psa10 value="0.0237281604" flag="0"/>
      <psa30 value="0.0011837973" flag="0"/>
    </comp>
    <comp name="--.HHZ">
      <acc value="0.0473904731" flag="0"/>
      <vel value="0.0156243052" flag="0"/>
      <psa03 value="0.0603871156" flag="0"/>
      <psa10 value="0.0090910374" flag="0"/>
      <psa30 value="0.0005990086" flag="0"/>
    </comp>
    <comp name="--.HHE">
      <acc value="0.1116627302" flag="0"/>
      <vel value="0.0265331063" flag="0"/>
      <psa03 value="0.1868731215" flag="0"/>
      <psa10 value="0.0179018817" flag="0"/>
      <psa30 value="0.0015065915" flag="0"/>
    </comp>
  </station>
  <station code="SULR" name="SULR" netid="RO" insttype="330" lat="44.6777" lon="26.2526">
    <comp name="--.HHE">
      <acc value="0.0594465263" flag="0"/>
      <vel value="0.0327890486" flag="0"/>
      <psa03 value="0.0919675785" flag="0"/>
      <psa10 value="0.0212264942" flag="0"/>
      <psa30 value="0.0018068841" flag="0"/>
    </comp>
    <comp name="--.HHN">
      <acc value="0.0596495821" flag="0"/>
      <vel value="0.0406297864" flag="0"/>
      <psa03 value="0.1600244325" flag="0"/>
      <psa10 value="0.0245676060" flag="0"/>
      <psa30 value="0.0021200890" flag="0"/>
    </comp>
    <comp name="--.HHZ">
      <acc value="0.0694836796" flag="0"/>
      <vel value="0.0189537146" flag="0"/>
      <psa03 value="0.0698717242" flag="0"/>
      <psa10 value="0.0049344594" flag="0"/>
      <psa30 value="0.0004159219" flag="0"/>
    </comp>
  </station>
  <station code="TATR" name="TATR" netid="RO" insttype="MBB2/Basalt" lat="45.5977" lon="28.0498">
    <comp name="--.HHN">
      <acc value="0.1088913832" flag="0"/>
      <vel value="0.0282630534" flag="0"/>
      <psa03 value="0.1544841219" flag="0"/>
      <psa10 value="0.0202360483" flag="0"/>
      <psa30 value="0.0023206019" flag="0"/>
    </comp>
    <comp name="--.HHE">
      <acc value="0.1353007307" flag="0"/>
      <vel value="0.0689338174" flag="0"/>
      <psa03 value="0.1880417455" flag="0"/>
      <psa10 value="0.0341124576" flag="0"/>
