<?xml version="1.0" encoding="UTF-8" standalone="yes"?>
<!DOCTYPE earthquake SYSTEM "stationlist.dtd">
<stationlist created="" xmlns="ch.ethz.sed.shakemap.usgs.xml">
  <station code="JMIC" name="JMIC" netid="NO" insttype="STS-2" commtype="DIG" lat="70.9866" lon="-8.5057">
    <comp name="00.HHN">
      <acc value="0.1718185976" flag="0"/>
      <vel value="0.0587482410" flag="0"/>
      <psa03 value="0.2383406725" flag="0"/>
      <psa10 value="0.0439759599" flag="0"/>
      <psa30 value="0.0039506879" flag="0"/>
    </comp>
    <comp name="00.HHZ">
      <acc value="0.1243084614" flag="0"/>
      <vel value="0.0370519858" flag="0"/>
      <psa03 value="0.1462547277" flag="0"/>
      <psa10 value="0.0225396509" flag="0"/>
      <psa30 value="0.0020694728" flag="0"/>
    </comp>
    <comp name="00.HHE">
      <acc value="0.2029600192" flag="0"/>
      <vel value="0.0588367978" flag="0"/>
      <psa03 value="0.1755521945" flag="0"/>
      <psa10 value="0.0311745443" flag="0"/>
      <psa30 value="0.0035434859" flag="0"/>
    </comp>
  </station>
  <station code="JMI" name="JMI" netid="NS" insttype="" commtype="DIG" lat="70.9268" lon="-8.72667">
    <comp name="00.HHZ">
      <acc value="0.2670265329" flag="0"/>
      <vel value="0.0472741643" flag="0"/>
      <psa03 value="0.2254579685" flag="0"/>
      <psa10 value="0.0236126869" flag="0"/>
      <psa30 value="0.0011428610" flag="0"/>
    </comp>
    <comp name="00.HHN">
      <acc value="0.3844797625" flag="0"/>
      <vel value="0.0670222040" flag="0"/>
      <psa03 value="0.1554463238" flag="0"/>
      <psa10 value="0.0297480307" flag="0"/>
      <psa30 value="0.0024096118" flag="0"/>
    </comp>
    <comp name="00.HHE">
      <acc value="0.4399120212" flag="0"/>
      <vel value="0.1151051769" flag="0"/>
      <psa03 value="0.3693819065" flag="0"/>
      <psa10 value="0.0396419481" flag="0"/>
      <psa30 value="0.0050702044" flag="0"/>
    </comp>
  </station>
  <station code="JNE" name="JNE" netid="NS" insttype="" commtype="DIG" lat="70.9883" lon="-8.29267">
    <comp name="00.HHE">
      <acc value="1.1046782346" flag="0"/>
      <vel value="0.3381238039" flag="0"/>
      <psa03 value="0.8503709595" flag="0"/>
      <psa10 value="0.1262263925" flag="0"/>
      <psa30 value="0.0100344564" flag="0"/>
    </comp>
    <comp name="00.HHN">
      <acc value="0.3874323724" flag="0"/>
      <vel value="0.1273733600" flag="0"/>
      <psa03 value="0.4294369199" flag="0"/>
      <psa10 value="0.0783556232" flag="0"/>
      <psa30 value="0.0047338255" flag="0"/>
    </comp>
    <comp name="00.HHZ">
      <acc value="0.6061700420" flag="0"/>
      <vel value="0.0969658292" flag="0"/>
      <psa03 value="0.4721194091" flag="0"/>
      <psa10 value="0.0271480261" flag="0"/>
      <psa30 value="0.0025229678" flag="0"/>
    </comp>
  </station>
  <station code="JNW" name="JNW" netid="NS" insttype="" commtype="DIG" lat="71.0273" lon="-8.42367">
    <comp name="00.HHN">
      <acc value="0.2787808508" flag="0"/>
      <vel value="0.1357875495" flag="0"/>
      <psa03 value="0.5437815505" flag="0"/>
      <psa10 value="0.0872218778" flag="0"/>
      <psa30 value="0.0059023563" flag="0"/>
    </comp>
    <comp name="00.HHZ">
      <acc value="0.1662510033" flag="0"/>
      <vel value="0.0538159947" flag="0"/>
      <psa03 value="0.3057640211" flag="0"/>
      <psa10 value="0.0327279242" flag="0"/>
      <psa30 value="0.0021599418" flag="0"/>
    </comp>
    <comp name="00.HHE">
      <acc value="0.2331931805" flag="0"/>
      <vel value="0.0921042055" flag="0"/>
      <psa03 value="0.3353696741" flag="0"/>
      <psa10 value="0.1066235121" flag="0"/>
      <psa30 value="0.0062102405" flag="0"/>
    </comp>
  </station>
</stationlist>
