<?xml version="1.0" encoding="UTF-8" standalone="yes"?>
<!DOCTYPE earthquake SYSTEM "stationlist.dtd">
<stationlist created="" xmlns="ch.ethz.sed.shakemap.usgs.xml">
  <station code="PHP" name="PHP" netid="AC" insttype="" lat="41.6847" lon="20.4408">
    <comp name="--.HHE">
      <acc value="0.0726217020" flag="0"/>
      <vel value="0.0055056936" flag="0"/>
      <psa03 value="0.0129584049" flag="0"/>
      <psa10 value="0.0016924698" flag="0"/>
      <psa30 value="0.0003368741" flag="0"/>
    </comp>
    <comp name="--.HHZ">
      <acc value="0.0010826100" flag="0"/>
      <vel value="0.0006115522" flag="0"/>
      <psa03 value="0.0019972842" flag="0"/>
      <psa10 value="0.0012480994" flag="0"/>
      <psa30 value="0.0000828569" flag="0"/>
    </comp>
    <comp name="--.HHN">
      <acc value="0.0030870317" flag="0"/>
      <vel value="0.0012315695" flag="0"/>
      <psa03 value="0.0030704153" flag="0"/>
      <psa10 value="0.0016108749" flag="0"/>
      <psa30 value="0.0002071298" flag="0"/>
    </comp>
  </station>
  <station code="PUK" name="PUK" netid="AC" insttype="" lat="42.0426" lon="19.8926">
    <comp name="--.HHE">
      <acc value="0.0015480556" flag="0"/>
      <vel value="0.0006313830" flag="0"/>
      <psa03 value="0.0059038433" flag="0"/>
      <psa10 value="0.0008485905" flag="0"/>
      <psa30 value="0.0000643213" flag="0"/>
    </comp>
    <comp name="--.HHZ">
      <acc value="0.0012344895" flag="0"/>
      <vel value="0.0003466471" flag="0"/>
      <psa03 value="0.0019280056" flag="0"/>
      <psa10 value="0.0003089375" flag="0"/>
      <psa30 value="0.0000166398" flag="0"/>
    </comp>
    <comp name="--.HHN">
      <acc value="0.0015448607" flag="0"/>
      <vel value="0.0005326236" flag="0"/>
      <psa03 value="0.0038661967" flag="0"/>
      <psa10 value="0.0005111843" flag="0"/>
      <psa30 value="0.0000554377" flag="0"/>
    </comp>
  </station>
  <station code="TIR" name="TIR" netid="MN" insttype="" lat="41.3472" lon="19.8631">
    <comp name="--.HHE">
      <acc value="0.0184146581" flag="0"/>
      <vel value="0.0094563127" flag="0"/>
      <psa03 value="0.0364322252" flag="0"/>
      <psa10 value="0.0097058895" flag="0"/>
      <psa30 value="0.0008062385" flag="0"/>
    </comp>
    <comp name="--.HHN">
      <acc value="0.0228686102" flag="0"/>
      <vel value="0.0084702588" flag="0"/>
      <psa03 value="0.0344372321" flag="0"/>
      <psa10 value="0.0083246107" flag="0"/>
      <psa30 value="0.0005138643" flag="0"/>
    </comp>
    <comp name="--.HHZ">
      <acc value="0.0197154657" flag="0"/>
      <vel value="0.0071906358" flag="0"/>
      <psa03 value="0.0238856684" flag="0"/>
      <psa10 value="0.0102871189" flag="0"/>
      <psa30 value="0.0009027729" flag="0"/>
    </comp>
  </station>
</stationlist>
