<?xml version="1.0" encoding="UTF-8" standalone="yes"?>
<!DOCTYPE earthquake SYSTEM "stationlist.dtd">
<stationlist created="" xmlns="ch.ethz.sed.shakemap.usgs.xml">
  <station code="PUK" name="PUK" netid="AC" insttype="" lat="42.0426" lon="19.8926">
    <comp name="--.HHE">
      <acc value="0.0015480554" flag="0"/>
      <vel value="0.0006313830" flag="0"/>
      <psa03 value="0.0059038433" flag="0"/>
      <psa10 value="0.0008485905" flag="0"/>
      <psa30 value="0.0000643486" flag="0"/>
    </comp>
    <comp name="--.HHN">
      <acc value="0.0015448603" flag="0"/>
      <vel value="0.0005326235" flag="0"/>
      <psa03 value="0.0038661967" flag="0"/>
      <psa10 value="0.0005111843" flag="0"/>
      <psa30 value="0.0000554384" flag="0"/>
    </comp>
    <comp name="--.HHZ">
      <acc value="0.0012344891" flag="0"/>
      <vel value="0.0003466473" flag="0"/>
      <psa03 value="0.0019280056" flag="0"/>
      <psa10 value="0.0003089375" flag="0"/>
      <psa30 value="0.0000166406" flag="0"/>
    </comp>
  </station>
  <station code="TIR" name="TIR" netid="MN" insttype="" lat="41.3472" lon="19.8631">
    <comp name="--.HHE">
      <acc value="0.0184146576" flag="0"/>
      <vel value="0.0094563124" flag="0"/>
      <psa03 value="0.0364322252" flag="0"/>
      <psa10 value="0.0097058899" flag="0"/>
      <psa30 value="0.0008062313" flag="0"/>
    </comp>
    <comp name="--.HHN">
      <acc value="0.0228686098" flag="0"/>
      <vel value="0.0084702595" flag="0"/>
      <psa03 value="0.0344372321" flag="0"/>
      <psa10 value="0.0083246107" flag="0"/>
      <psa30 value="0.0005138718" flag="0"/>
    </comp>
    <comp name="--.HHZ">
      <acc value="0.0197154660" flag="0"/>
      <vel value="0.0071906360" flag="0"/>
      <psa03 value="0.0238856684" flag="0"/>
      <psa10 value="0.0102871187" flag="0"/>
      <psa30 value="0.0009027107" flag="0"/>
    </comp>
  </station>
</stationlist>
