<stationlist created="1778138983">
	<station code="MESG" name="MESG" netid="IV" source="Italian National Seismic Network (INSN)" insttype="" lat="40.589408" lon="17.850423">
		<comp name="--.HNE" depth="0.0">
			<acc value="0.00567764938961332" flag="0"/>
			<vel value="0.00155884074392404" flag="0"/>
			<psa03 value="0.00610060205161527" flag="0"/>
			<psa10 value="0.00136004646359092" flag="0"/>
			<psa30 value="0.000161005210075623" flag="0"/>
		</comp>
		<comp name="--.HNN" depth="0.0">
			<acc value="0.0053528942145092" flag="0"/>
			<vel value="0.00140274578831291" flag="0"/>
			<psa03 value="0.00666531654451977" flag="0"/>
			<psa10 value="0.00133016624198571" flag="0"/>
			<psa30 value="0.000110476940951171" flag="0"/>
		</comp>
		<comp name="--.HNZ" depth="0.0">
			<acc value="0.00468271332916594" flag="0"/>
			<vel value="0.0008797663824116" flag="0"/>
			<psa03 value="0.00365605957881484" flag="0"/>
			<psa10 value="0.000682491071057571" flag="0"/>
			<psa30 value="0.000127682872426027" flag="0"/>
		</comp>
	</station>
</stationlist>
