<?xml version="1.0" encoding="UTF-8" standalone="yes"?>
<!DOCTYPE earthquake SYSTEM "stationlist.dtd">
<stationlist created="" xmlns="ch.ethz.sed.shakemap.usgs.xml">
  <station code="LSK" name="LSK" netid="AC" insttype="" lat="40.1499" lon="20.5987">
    <comp name="--.HHE">
      <acc value="1.2077882428" flag="0"/>
      <vel value="0.0430717230" flag="0"/>
      <psa03 value="0.0741086748" flag="0"/>
      <psa10 value="0.0329262962" flag="0"/>
      <psa30 value="0.0051395804" flag="0"/>
    </comp>
    <comp name="--.HHN">
      <acc value="0.0607785736" flag="0"/>
      <vel value="0.0165209392" flag="0"/>
      <psa03 value="0.0401587914" flag="0"/>
      <psa10 value="0.0287205444" flag="0"/>
      <psa30 value="0.0021576748" flag="0"/>
    </comp>
    <comp name="--.HHZ">
      <acc value="0.0186545059" flag="0"/>
      <vel value="0.0116950844" flag="0"/>
      <psa03 value="0.0315056115" flag="0"/>
      <psa10 value="0.0138965253" flag="0"/>
      <psa30 value="0.0021114562" flag="0"/>
    </comp>
  </station>
  <station code="SRN" name="SRN" netid="AC" insttype="" lat="39.88" lon="20.0005">
    <comp name="--.HHZ">
      <acc value="0.0045304753" flag="0"/>
      <vel value="0.0025431476" flag="0"/>
      <psa03 value="0.0111982230" flag="0"/>
      <psa10 value="0.0033106057" flag="0"/>
      <psa30 value="0.0003223879" flag="0"/>
    </comp>
    <comp name="--.HHE">
      <acc value="0.0060140847" flag="0"/>
      <vel value="0.0030442180" flag="0"/>
      <psa03 value="0.0118164917" flag="0"/>
      <psa10 value="0.0023902175" flag="0"/>
      <psa30 value="0.0003975278" flag="0"/>
    </comp>
    <comp name="--.HHN">
      <acc value="0.0054486114" flag="0"/>
      <vel value="0.0024243189" flag="0"/>
      <psa03 value="0.0127403765" flag="0"/>
      <psa10 value="0.0020780305" flag="0"/>
      <psa30 value="0.0002599652" flag="0"/>
    </comp>
  </station>
  <station code="KEK" name="KEK" netid="MN" insttype="" lat="39.7127" lon="19.7962">
    <comp name="--.HHE">
      <acc value="0.0326898328" flag="0"/>
      <vel value="0.0144661397" flag="0"/>
      <psa03 value="0.0959404172" flag="0"/>
      <psa10 value="0.0150118040" flag="0"/>
      <psa30 value="0.0008821023" flag="0"/>
    </comp>
    <comp name="--.HHN">
      <acc value="0.0224727319" flag="0"/>
      <vel value="0.0113307708" flag="0"/>
      <psa03 value="0.0447393269" flag="0"/>
      <psa10 value="0.0122125713" flag="0"/>
      <psa30 value="0.0009253090" flag="0"/>
    </comp>
    <comp name="--.HHZ">
      <acc value="0.0215508277" flag="0"/>
      <vel value="0.0103717209" flag="0"/>
      <psa03 value="0.0390951665" flag="0"/>
      <psa10 value="0.0083083052" flag="0"/>
      <psa30 value="0.0004900543" flag="0"/>
    </comp>
  </station>
</stationlist>
