<stationlist created="1741951777">
	<station code="BODA" name="BODA" netid="KO" source="Bogazici University Kandilli Observatory And Earthquake Research Institute (KOERI)" insttype="" lat="37.0348" lon="27.4304">
		<comp name=".HNE" depth="0.0">
			<acc value="0.0037028189532408" flag="0"/>
			<vel value="0.00150531107769" flag="0"/>
			<psa03 value="0.0121298738571077" flag="0"/>
			<psa10 value="0.000796727681641377" flag="0"/>
			<psa30 value="0.000129860842226804" flag="0"/>
		</comp>
		<comp name=".HNN" depth="0.0">
			<acc value="0.0032968031954304" flag="0"/>
			<vel value="0.00145655722234" flag="0"/>
			<psa03 value="0.0107658818066386" flag="0"/>
			<psa10 value="0.00110679078039381" flag="0"/>
			<psa30 value="0.000172927653525239" flag="0"/>
		</comp>
		<comp name=".HNZ" depth="0.0">
			<acc value="0.0053996919117042" flag="0"/>
			<vel value="0.000818195723265" flag="0"/>
			<psa03 value="0.00229023651510518" flag="0"/>
			<psa10 value="0.000700207186071233" flag="0"/>
			<psa30 value="0.000163296077980318" flag="0"/>
		</comp>
	</station>
	<station code="BODM" name="BODM" netid="KO" source="Bogazici University Kandilli Observatory And Earthquake Research Institute (KOERI)" insttype="" lat="37.031" lon="27.4247">
		<comp name=".HNE" depth="0.0">
			<acc value="0.0041070667119318" flag="0"/>
			<vel value="0.00220954312936" flag="0"/>
			<psa03 value="0.00847248378653393" flag="0"/>
			<psa10 value="0.000954642673986277" flag="0"/>
			<psa30 value="0.000164952281445611" flag="0"/>
		</comp>
		<comp name=".HNN" depth="0.0">
			<acc value="0.0046114286096976" flag="0"/>
			<vel value="0.00310069868226" flag="0"/>
			<psa03 value="0.0112135514365064" flag="0"/>
			<psa10 value="0.00159639215939594" flag="0"/>
			<psa30 value="0.000220123410220649" flag="0"/>
		</comp>
		<comp name=".HNZ" depth="0.0">
			<acc value="0.0044439524495808" flag="0"/>
			<vel value="0.000658990214595" flag="0"/>
			<psa03 value="0.0026952937843593" flag="0"/>
			<psa10 value="0.000486441179420936" flag="0"/>
			<psa30 value="0.000230068548204031" flag="0"/>
		</comp>
	</station>
	<station code="CESE" name="CESE" netid="KO" source="Bogazici University Kandilli Observatory And Earthquake Research Institute (KOERI)" insttype="" lat="38.3306" lon="26.2997">
		<comp name=".HNE" depth="0.0">
			<acc value="0.052214707922502" flag="0"/>
			<vel value="0.0030748676987" flag="0"/>
			<psa03 value="0.00359178839408332" flag="0"/>
			<psa10 value="0.00108859645011173" flag="0"/>
			<psa30 value="0.000430909951919316" flag="0"/>
		</comp>
		<comp name=".HNN" depth="0.0">
			<acc value="0.050816986767546" flag="0"/>
			<vel value="0.0037555236363" flag="0"/>
			<psa03 value="0.0051702588454119" flag="0"/>
			<psa10 value="0.00148990467543682" flag="0"/>
			<psa30 value="0.000718817722314818" flag="0"/>
		</comp>
		<comp name=".HNZ" depth="0.0">
			<acc value="0.010286508900654" flag="0"/>
			<vel value="0.00126348199187" flag="0"/>
			<psa03 value="0.00325744723520482" flag="0"/>
			<psa10 value="0.000767063919688639" flag="0"/>
			<psa30 value="0.000409123664934828" flag="0"/>
		</comp>
	</station>
	<station code="DATC" name="DATC" netid="KO" source="Bogazici University Kandilli Observatory And Earthquake Research Institute (KOERI)" insttype="" lat="36.7584" lon="27.6602">
		<comp name=".HNE" depth="0.0">
			<acc value="0.28047343801986" flag="0"/>
			<vel value="0.0260582857856" flag="0"/>
			<psa03 value="0.0331623322584108" flag="0"/>
			<psa10 value="0.00575049828604229" flag="0"/>
			<psa30 value="0.000675366302201189" flag="0"/>
		</comp>
		<comp name=".HNN" depth="0.0">
			<acc value="0.27067265444184" flag="0"/>
			<vel value="0.0226299601536" flag="0"/>
			<psa03 value="0.0351726581409964" flag="0"/>
			<psa10 value="0.0115914394384777" flag="0"/>
			<psa30 value="0.000728092295041062" flag="0"/>
		</comp>
		<comp name=".HNZ" depth="0.0">
			<acc value="0.30712969094994" flag="0"/>
			<vel value="0.0413668750082" flag="0"/>
			<psa03 value="0.041273874816662" flag="0"/>
			<psa10 value="0.00909326019634981" flag="0"/>
			<psa30 value="0.000898448892831018" flag="0"/>
		</comp>
	</station>
	<station code="DIDI" name="DIDI" netid="KO" source="Bogazici University Kandilli Observatory And Earthquake Research Institute (KOERI)" insttype="" lat="37.3767" lon="27.2398">
		<comp name=".HNE" depth="0.0">
			<acc value="0.011705025104976" flag="0"/>
			<vel value="0.00362457076399" flag="0"/>
			<psa03 value="0.0175266662639351" flag="0"/>
			<psa10 value="0.00362004051304351" flag="0"/>
			<psa30 value="0.00122041407560828" flag="0"/>
		</comp>
		<comp name=".HNN" depth="0.0">
			<acc value="0.0159843761247" flag="0"/>
			<vel value="0.00657608190142" flag="0"/>
			<psa03 value="0.0371620685754824" flag="0"/>
			<psa10 value="0.00351123174249747" flag="0"/>
			<psa30 value="0.00107119658651765" flag="0"/>
		</comp>
		<comp name=".HNZ" depth="0.0">
			<acc value="0.02970964033026" flag="0"/>
			<vel value="0.00494810627549" flag="0"/>
			<psa03 value="0.0227354175681708" flag="0"/>
			<psa10 value="0.00246340928252355" flag="0"/>
			<psa30 value="0.000530188872410353" flag="0"/>
		</comp>
	</station>
	<station code="GMLD" name="GMLD" netid="KO" source="Bogazici University Kandilli Observatory And Earthquake Research Institute (KOERI)" insttype="" lat="38.0766" lon="26.9157">
		<comp name=".HNE" depth="0.0">
			<acc value="0.011393831691846" flag="0"/>
			<vel value="0.00564447871277" flag="0"/>
			<psa03 value="0.0179936099570955" flag="0"/>
			<psa10 value="0.00340561583970938" flag="0"/>
			<psa30 value="0.000383939887258464" flag="0"/>
		</comp>
		<comp name=".HNN" depth="0.0">
			<acc value="0.010737417013908" flag="0"/>
			<vel value="0.00481348214956" flag="0"/>
			<psa03 value="0.0225796077673458" flag="0"/>
			<psa10 value="0.00452931098213818" flag="0"/>
			<psa30 value="0.000419329262880829" flag="0"/>
		</comp>
		<comp name=".HNZ" depth="0.0">
			<acc value="0.006179143373592" flag="0"/>
			<vel value="0.00288212787379" flag="0"/>
			<psa03 value="0.011677829588502" flag="0"/>
			<psa10 value="0.00202504274289492" flag="0"/>
			<psa30 value="0.000335535613004263" flag="0"/>
		</comp>
	</station>
	<station code="KUSD" name="KUSD" netid="KO" source="Bogazici University Kandilli Observatory And Earthquake Research Institute (KOERI)" insttype="" lat="37.8606" lon="27.2868">
		<comp name=".HNE" depth="0.0">
			<acc value="0.003432913080945" flag="0"/>
			<vel value="0.00140530083576" flag="0"/>
			<psa03 value="0.00544212386034272" flag="0"/>
			<psa10 value="0.00174484211066251" flag="0"/>
			<psa30 value="0.00035038466959788" flag="0"/>
		</comp>
		<comp name=".HNN" depth="0.0">
			<acc value="0.0092744118410394" flag="0"/>
			<vel value="0.00147013395195" flag="0"/>
			<psa03 value="0.00568376844885208" flag="0"/>
			<psa10 value="0.00237568886210203" flag="0"/>
			<psa30 value="0.000374717687791078" flag="0"/>
		</comp>
		<comp name=".HNZ" depth="0.0">
			<acc value="0.0022266614178612" flag="0"/>
			<vel value="0.00104700327772" flag="0"/>
			<psa03 value="0.00268370284724814" flag="0"/>
			<psa10 value="0.000827835054853024" flag="0"/>
			<psa30 value="0.000446876009592295" flag="0"/>
		</comp>
	</station>
	<station code="YKAV" name="YKAV" netid="KO" source="Bogazici University Kandilli Observatory And Earthquake Research Institute (KOERI)" insttype="" lat="37.1246" lon="27.2801">
		<comp name=".HNE" depth="0.0">
			<acc value="0.008223828126033" flag="0"/>
			<vel value="0.00207360669712" flag="0"/>
			<psa03 value="0.0187792349175531" flag="0"/>
			<psa10 value="0.00254819302403186" flag="0"/>
			<psa30 value="0.00075460946833996" flag="0"/>
		</comp>
		<comp name=".HNN" depth="0.0">
			<acc value="0.011422742790942" flag="0"/>
			<vel value="0.00260192745105" flag="0"/>
			<psa03 value="0.00953931552657063" flag="0"/>
			<psa10 value="0.00195794048519948" flag="0"/>
			<psa30 value="0.000422831994919539" flag="0"/>
		</comp>
		<comp name=".HNZ" depth="0.0">
			<acc value="0.01171533035541" flag="0"/>
			<vel value="0.00263166397919" flag="0"/>
			<psa03 value="0.00897524560765733" flag="0"/>
			<psa10 value="0.0017709478244147" flag="0"/>
			<psa30 value="0.000365934501781618" flag="0"/>
		</comp>
	</station>
</stationlist>
