<?xml version="1.0" encoding="UTF-8" standalone="yes"?>
<!DOCTYPE earthquake SYSTEM "stationlist.dtd">
<stationlist created="" xmlns="ch.ethz.sed.shakemap.usgs.xml">
  <station code="ARG" name="ARG" netid="HL" insttype="LE3D20_DR24" lat="36.2136" lon="28.1212">
    <comp name="--.HHN">
      <acc value="0.0201537850" flag="0"/>
      <vel value="0.0115737744" flag="0"/>
      <psa03 value="0.0512619919" flag="0"/>
      <psa10 value="0.0093949736" flag="0"/>
      <psa30 value="0.0014760498" flag="0"/>
    </comp>
    <comp name="--.HHZ">
      <acc value="0.0133562337" flag="0"/>
      <vel value="0.0054796700" flag="0"/>
      <psa03 value="0.0166752848" flag="0"/>
      <psa10 value="0.0078679524" flag="0"/>
      <psa30 value="0.0008943493" flag="0"/>
    </comp>
    <comp name="--.HHE">
      <acc value="0.0269776061" flag="0"/>
      <vel value="0.0112993494" flag="0"/>
      <psa03 value="0.0452420036" flag="0"/>
      <psa10 value="0.0128822899" flag="0"/>
      <psa30 value="0.0013504854" flag="0"/>
    </comp>
  </station>
  <station code="APMY" name="APMY" netid="KO" insttype="30s," lat="37.4718" lon="29.3018">
    <comp name="--.HHE">
      <acc value="0.1201423688" flag="0"/>
      <vel value="0.0457783786" flag="0"/>
      <psa03 value="0.2982787414" flag="0"/>
      <psa10 value="0.0532327861" flag="0"/>
      <psa30 value="0.0047318174" flag="0"/>
    </comp>
    <comp name="--.HHN">
      <acc value="0.1437546307" flag="0"/>
      <vel value="0.0754775160" flag="0"/>
      <psa03 value="0.3753601220" flag="0"/>
      <psa10 value="0.0475666747" flag="0"/>
      <psa30 value="0.0047615259" flag="0"/>
    </comp>
    <comp name="--.HHZ">
      <acc value="0.0899443704" flag="0"/>
      <vel value="0.0756081971" flag="0"/>
      <psa03 value="0.3096947212" flag="0"/>
      <psa10 value="0.1042344429" flag="0"/>
      <psa30 value="0.0072790747" flag="0"/>
    </comp>
  </station>
  <station code="AYDB" name="AYDB" netid="KO" insttype="30s," lat="37.9467" lon="27.8908">
    <comp name="--.HHZ">
      <acc value="0.0173336973" flag="0"/>
      <vel value="0.0131392969" flag="0"/>
      <psa03 value="0.0430124837" flag="0"/>
      <psa10 value="0.0099192663" flag="0"/>
      <psa30 value="0.0025345458" flag="0"/>
    </comp>
    <comp name="--.HHE">
      <acc value="0.0293609961" flag="0"/>
      <vel value="0.0247473081" flag="0"/>
      <psa03 value="0.0793939218" flag="0"/>
      <psa10 value="0.0426077297" flag="0"/>
      <psa30 value="0.0044811224" flag="0"/>
    </comp>
    <comp name="--.HHN">
      <acc value="0.0294231685" flag="0"/>
      <vel value="0.0185836378" flag="0"/>
      <psa03 value="0.0883451389" flag="0"/>
      <psa10 value="0.0126571292" flag="0"/>
      <psa30 value="0.0033236516" flag="0"/>
    </comp>
  </station>
  <station code="BABD" name="BABD" netid="KO" insttype="30s," lat="37.802" lon="28.8534">
    <comp name="--.HHN">
      <acc value="0.0897656567" flag="0"/>
      <vel value="0.0560095981" flag="0"/>
      <psa03 value="0.1811438680" flag="0"/>
      <psa10 value="0.0467896452" flag="0"/>
      <psa30 value="0.0069275619" flag="0"/>
    </comp>
    <comp name="--.HHE">
      <acc value="0.1041156530" flag="0"/>
      <vel value="0.0723315224" flag="0"/>
      <psa03 value="0.3118042779" flag="0"/>
      <psa10 value="0.1074410242" flag="0"/>
      <psa30 value="0.0036698120" flag="0"/>
    </comp>
    <comp name="--.HHZ">
      <acc value="0.0922902144" flag="0"/>
      <vel value="0.0352093547" flag="0"/>
      <psa03 value="0.1463800407" flag="0"/>
      <psa10 value="0.0353899325" flag="0"/>
      <psa30 value="0.0046233017" flag="0"/>
    </comp>
  </station>
  <station code="BAKL" name="BAKL" netid="KO" insttype="30s," lat="37.9793" lon="29.6135">
    <comp name="--.HHE">
      <acc value="0.0125788650" flag="0"/>
      <vel value="0.0136575993" flag="0"/>
      <psa03 value="0.0401901225" flag="0"/>
      <psa10 value="0.0251099145" flag="0"/>
      <psa30 value="0.0026464418" flag="0"/>
    </comp>
    <comp name="--.HHN">
      <acc value="0.0102345883" flag="0"/>
      <vel value="0.0096365389" flag="0"/>
      <psa03 value="0.0281814528" flag="0"/>
      <psa10 value="0.0156178220" flag="0"/>
      <psa30 value="0.0023650431" flag="0"/>
    </comp>
    <comp name="--.HHZ">
      <acc value="0.0084042175" flag="0"/>
      <vel value="0.0089442752" flag="0"/>
      <psa03 value="0.0190946830" flag="0"/>
      <psa10 value="0.0173026184" flag="0"/>
      <psa30 value="0.0020292906" flag="0"/>
    </comp>
  </station>
  <station code="FETI" name="FETI" netid="KO" insttype="CMG-5T" lat="36.6903" lon="29.096">
    <comp name="--.HNZ">
      <acc value="0.1737556399" flag="0"/>
      <vel value="0.0318817349" flag="0"/>
      <psa03 value="0.1922114471" flag="0"/>
      <psa10 value="0.0249776911" flag="0"/>
      <psa30 value="0.0065564450" flag="0"/>
    </comp>
    <comp name="--.HNN">
      <acc value="0.0163751423" flag="0"/>
      <vel value="0.0888292869" flag="0"/>
      <psa03 value="0.0162202673" flag="0"/>
      <psa10 value="0.0202578191" flag="0"/>
      <psa30 value="0.0266494258" flag="0"/>
    </comp>
    <comp name="--.HNE">
      <acc value="0.3454509928" flag="0"/>
      <vel value="0.0454672159" flag="0"/>
      <psa03 value="0.2104418651" flag="0"/>
      <psa10 value="0.0410230753" flag="0"/>
      <psa30 value="0.0033026668" flag="0"/>
    </comp>
  </station>
  <station code="FETY" name="FETY" netid="KO" insttype="120s," lat="36.6353" lon="29.0835">
    <comp name="--.HHE">
      <acc value="0.2027493351" flag="0"/>
      <vel value="0.0350605280" flag="0"/>
      <psa03 value="0.1186887001" flag="0"/>
      <psa10 value="0.0250721073" flag="0"/>
      <psa30 value="0.0079583111" flag="0"/>
    </comp>
  </station>
  <station code="SERH" name="SERH" netid="KO" insttype="30s," lat="37.582" lon="29.2588">
    <comp name="--.HHZ">
      <acc value="0.0899314554" flag="0"/>
      <vel value="0.0678840057" flag="0"/>
      <psa03 value="0.2511655522" flag="0"/>
      <psa10 value="0.1036399326" flag="0"/>
      <psa30 value="0.0063944519" flag="0"/>
    </comp>
    <comp name="--.HHE">
      <acc value="0.1914384256" flag="0"/>
      <vel value="0.0744982640" flag="0"/>
      <psa03 value="0.4161579536" flag="0"/>
      <psa10 value="0.1029142576" flag="0"/>
      <psa30 value="0.0045032193" flag="0"/>
    </comp>
    <comp name="--.HHN">
      <acc value="0.1649008784" flag="0"/>
      <vel value="0.0723072204" flag="0"/>
      <psa03 value="0.3811061394" flag="0"/>
      <psa10 value="0.0620185059" flag="0"/>
      <psa30 value="0.0055354360" flag="0"/>
    </comp>
  </station>
  <station code="AYDN" name="AYDN" netid="TU" insttype="T" lat="37.6608" lon="27.8792">
    <comp name="--.HHN">
      <acc value="0.0402707234" flag="0"/>
      <vel value="0.0349429590" flag="0"/>
      <psa03 value="0.0955039173" flag="0"/>
      <psa10 value="0.0450563654" flag="0"/>
      <psa30 value="0.0065499658" flag="0"/>
    </comp>
    <comp name="--.HHZ">
      <acc value="0.0431073966" flag="0"/>
      <vel value="0.0216339506" flag="0"/>
      <psa03 value="0.0826943571" flag="0"/>
      <psa10 value="0.0252037217" flag="0"/>
      <psa30 value="0.0092770410" flag="0"/>
    </comp>
    <comp name="--.HHE">
      <acc value="0.0519121218" flag="0"/>
      <vel value="0.0334393840" flag="0"/>
      <psa03 value="0.0854028597" flag="0"/>
      <psa10 value="0.0323147473" flag="0"/>
      <psa30 value="0.0118821445" flag="0"/>
    </comp>
  </station>
</stationlist>
