<?xml version="1.0" encoding="UTF-8" standalone="yes"?>
<!DOCTYPE earthquake SYSTEM "stationlist.dtd">
<stationlist created="" xmlns="ch.ethz.sed.shakemap.usgs.xml">
  <station code="KBN" name="KBN" netid="AC" insttype="" lat="40.6236" lon="20.7874">
    <comp name="--.HHN">
      <acc value="0.0063786414" flag="0"/>
      <vel value="0.0045547084" flag="0"/>
      <psa03 value="0.0192199871" flag="0"/>
      <psa10 value="0.0099580155" flag="0"/>
      <psa30 value="0.0007113401" flag="0"/>
    </comp>
    <comp name="--.HHE">
      <acc value="0.0071862083" flag="0"/>
      <vel value="0.0074031677" flag="0"/>
      <psa03 value="0.0195836245" flag="0"/>
      <psa10 value="0.0128866344" flag="0"/>
      <psa30 value="0.0005818397" flag="0"/>
    </comp>
    <comp name="--.HHZ">
      <acc value="0.0054361779" flag="0"/>
      <vel value="0.0047666520" flag="0"/>
      <psa03 value="0.0114087757" flag="0"/>
      <psa10 value="0.0094844116" flag="0"/>
      <psa30 value="0.0005613664" flag="0"/>
    </comp>
  </station>
  <station code="KEK" name="KEK" netid="MN" insttype="" lat="39.7127" lon="19.7962">
    <comp name="--.HHE">
      <acc value="0.0303100972" flag="0"/>
      <vel value="0.0229780774" flag="0"/>
      <psa03 value="0.0874617447" flag="0"/>
      <psa10 value="0.0317568765" flag="0"/>
      <psa30 value="0.0013277957" flag="0"/>
    </comp>
    <comp name="--.HHN">
      <acc value="0.0332686871" flag="0"/>
      <vel value="0.0188108384" flag="0"/>
      <psa03 value="0.0809493022" flag="0"/>
      <psa10 value="0.0212786035" flag="0"/>
      <psa30 value="0.0026512550" flag="0"/>
    </comp>
    <comp name="--.HHZ">
      <acc value="0.0212891375" flag="0"/>
      <vel value="0.0189005481" flag="0"/>
      <psa03 value="0.0531225162" flag="0"/>
      <psa10 value="0.0194089835" flag="0"/>
      <psa30 value="0.0015507393" flag="0"/>
    </comp>
  </station>
  <station code="THL" name="THL" netid="MN" insttype="" lat="39.5647" lon="22.0144">
    <comp name="--.HHZ">
      <acc value="0.0038014163" flag="0"/>
      <vel value="0.0025098666" flag="0"/>
      <psa03 value="0.0097563696" flag="0"/>
      <psa10 value="0.0029870805" flag="0"/>
      <psa30 value="0.0003762627" flag="0"/>
    </comp>
    <comp name="--.HHE">
      <acc value="0.0056219382" flag="0"/>
      <vel value="0.0042819651" flag="0"/>
      <psa03 value="0.0215632720" flag="0"/>
      <psa10 value="0.0032903214" flag="0"/>
      <psa30 value="0.0004693559" flag="0"/>
    </comp>
    <comp name="--.HHN">
      <acc value="0.0061518224" flag="0"/>
      <vel value="0.0056655643" flag="0"/>
      <psa03 value="0.0155317560" flag="0"/>
      <psa10 value="0.0068003039" flag="0"/>
      <psa30 value="0.0009226821" flag="0"/>
    </comp>
  </station>
</stationlist>
