<?xml version="1.0" encoding="UTF-8" standalone="yes"?>
<!DOCTYPE earthquake SYSTEM "stationlist.dtd">
<stationlist created="" xmlns="ch.ethz.sed.shakemap.usgs.xml">
  <station code="KBN" name="KBN" netid="AC" insttype="" lat="40.6236" lon="20.7874">
    <comp name="--.HHE">
      <acc value="0.0071862081" flag="0"/>
      <vel value="0.0074031669" flag="0"/>
      <psa03 value="0.0195836245" flag="0"/>
      <psa10 value="0.0128866344" flag="0"/>
      <psa30 value="0.0005818356" flag="0"/>
    </comp>
    <comp name="--.HHN">
      <acc value="0.0063786412" flag="0"/>
      <vel value="0.0045547035" flag="0"/>
      <psa03 value="0.0192199871" flag="0"/>
      <psa10 value="0.0099580155" flag="0"/>
      <psa30 value="0.0007113823" flag="0"/>
    </comp>
    <comp name="--.HHZ">
      <acc value="0.0054361776" flag="0"/>
      <vel value="0.0047666517" flag="0"/>
      <psa03 value="0.0114087757" flag="0"/>
      <psa10 value="0.0094844116" flag="0"/>
      <psa30 value="0.0005612153" flag="0"/>
    </comp>
  </station>
  <station code="ART2" name="ART2" netid="HI" insttype="CMG-5TD,ACCELEROMETER,GURALP" lat="39.1474" lon="20.9937">
    <comp name="--.HNN">
      <acc value="0.0357657400" flag="0"/>
      <vel value="0.0153556405" flag="0"/>
      <psa03 value="0.0659980253" flag="0"/>
      <psa10 value="0.0083931511" flag="0"/>
      <psa30 value="0.0009649742" flag="0"/>
    </comp>
    <comp name="--.HNE">
      <acc value="0.0293132423" flag="0"/>
      <vel value="0.0147516559" flag="0"/>
      <psa03 value="0.0882421188" flag="0"/>
      <psa10 value="0.0169685909" flag="0"/>
      <psa30 value="0.0010524960" flag="0"/>
    </comp>
    <comp name="--.HNZ">
      <acc value="0.0251873735" flag="0"/>
      <vel value="0.0090671365" flag="0"/>
      <psa03 value="0.0603914628" flag="0"/>
      <psa10 value="0.0095219195" flag="0"/>
      <psa30 value="0.0006695206" flag="0"/>
    </comp>
  </station>
  <station code="KRK1" name="KRK1" netid="HI" insttype="CMG-5TD,ACCELEROMETER,GURALP" lat="39.6189" lon="19.9202">
    <comp name="--.HNE">
      <acc value="0.1179649543" flag="0"/>
      <vel value="0.0642340561" flag="0"/>
      <psa03 value="0.2904315398" flag="0"/>
      <psa10 value="0.0325453529" flag="0"/>
      <psa30 value="0.0028026411" flag="0"/>
    </comp>
    <comp name="--.HNN">
      <acc value="0.1091946331" flag="0"/>
      <vel value="0.0477867370" flag="0"/>
      <psa03 value="0.1963752604" flag="0"/>
      <psa10 value="0.0484858959" flag="0"/>
      <psa30 value="0.0032598605" flag="0"/>
    </comp>
    <comp name="--.HNZ">
      <acc value="0.0526517600" flag="0"/>
      <vel value="0.0234160785" flag="0"/>
      <psa03 value="0.1450767121" flag="0"/>
      <psa10 value="0.0124901969" flag="0"/>
      <psa30 value="0.0015071172" flag="0"/>
    </comp>
  </station>
  <station code="VAS2" name="VAS2" netid="HI" insttype="CMG-5TD,ACCELEROMETER,GURALP" lat="38.6306" lon="20.6081">
    <comp name="--.HNE">
      <acc value="0.0721606199" flag="0"/>
      <vel value="0.0388239904" flag="0"/>
      <psa03 value="0.1758692415" flag="0"/>
      <psa10 value="0.0707630450" flag="0"/>
      <psa30 value="0.0038406056" flag="0"/>
    </comp>
    <comp name="--.HNN">
      <acc value="0.0759177664" flag="0"/>
      <vel value="0.0371358887" flag="0"/>
      <psa03 value="0.2197975398" flag="0"/>
      <psa10 value="0.0580224678" flag="0"/>
      <psa30 value="0.0032381353" flag="0"/>
    </comp>
    <comp name="--.HNZ">
      <acc value="0.0343990655" flag="0"/>
      <vel value="0.0216547225" flag="0"/>
      <psa03 value="0.0872943717" flag="0"/>
      <psa10 value="0.0266780443" flag="0"/>
      <psa30 value="0.0010860498" flag="0"/>
    </comp>
  </station>
  <station code="JAN" name="JAN" netid="HL" insttype="CMG3EPSC60_DR24" lat="39.6562" lon="20.8487">
    <comp name="--.HHE">
      <acc value="1.2290612143" flag="0"/>
      <vel value="0.4270867708" flag="0"/>
      <psa03 value="2.9181122902" flag="0"/>
      <psa10 value="0.1692961659" flag="0"/>
      <psa30 value="0.0109700745" flag="0"/>
    </comp>
    <comp name="--.HHN">
      <acc value="1.3110268455" flag="0"/>
      <vel value="0.5664226685" flag="0"/>
      <psa03 value="3.4198525697" flag="0"/>
      <psa10 value="0.2428097300" flag="0"/>
      <psa30 value="0.0295152775" flag="0"/>
    </comp>
    <comp name="--.HHZ">
      <acc value="0.8110566913" flag="0"/>
      <vel value="0.1622707098" flag="0"/>
      <psa03 value="0.7049312112" flag="0"/>
      <psa10 value="0.0581237209" flag="0"/>
      <psa30 value="0.0051506213" flag="0"/>
    </comp>
  </station>
  <station code="KEK" name="KEK" netid="HL" insttype="120" lat="39.7127" lon="19.7962">
    <comp name="--.HHN">
      <acc value="0.0332687101" flag="0"/>
      <vel value="0.0188108518" flag="0"/>
      <psa03 value="0.0809493583" flag="0"/>
      <psa10 value="0.0212786182" flag="0"/>
      <psa30 value="0.0026512536" flag="0"/>
    </comp>
    <comp name="--.HHE">
      <acc value="0.0303101182" flag="0"/>
      <vel value="0.0229780933" flag="0"/>
      <psa03 value="0.0874618053" flag="0"/>
      <psa10 value="0.0317568985" flag="0"/>
      <psa30 value="0.0013277743" flag="0"/>
    </comp>
    <comp name="--.HHZ">
      <acc value="0.0212891522" flag="0"/>
      <vel value="0.0189005614" flag="0"/>
      <psa03 value="0.0531225530" flag="0"/>
      <psa10 value="0.0194089970" flag="0"/>
      <psa30 value="0.0015507672" flag="0"/>
    </comp>
  </station>
  <station code="KZN" name="KZN" netid="HL" insttype="120" lat="40.3033" lon="21.7821">
    <comp name="--.HHE">
      <acc value="0.0095985025" flag="0"/>
      <vel value="0.0059575585" flag="0"/>
      <psa03 value="0.0316227030" flag="0"/>
      <psa10 value="0.0081838607" flag="0"/>
      <psa30 value="0.0004570256" flag="0"/>
    </comp>
    <comp name="--.HHZ">
      <acc value="0.0038999906" flag="0"/>
      <vel value="0.0027322287" flag="0"/>
      <psa03 value="0.0145538564" flag="0"/>
      <psa10 value="0.0044890069" flag="0"/>
      <psa30 value="0.0003408530" flag="0"/>
    </comp>
    <comp name="--.HHN">
      <acc value="0.0077377999" flag="0"/>
      <vel value="0.0044895492" flag="0"/>
      <psa03 value="0.0275341632" flag="0"/>
      <psa10 value="0.0078628627" flag="0"/>
      <psa30 value="0.0004597210" flag="0"/>
    </comp>
  </station>
  <station code="TETR" name="TETR" netid="HL" insttype="60" lat="39.3445" lon="21.2747">
    <comp name="--.HHE">
      <acc value="0.1193114018" flag="0"/>
      <vel value="0.0487861687" flag="0"/>
      <psa03 value="0.3225280731" flag="0"/>
      <psa10 value="0.0329444819" flag="0"/>
      <psa30 value="0.0024456012" flag="0"/>
    </comp>
    <comp name="--.HHZ">
      <acc value="0.0531009601" flag="0"/>
      <vel value="0.0181851393" flag="0"/>
      <psa03 value="0.0771107022" flag="0"/>
      <psa10 value="0.0172199088" flag="0"/>
      <psa30 value="0.0014632004" flag="0"/>
    </comp>
    <comp name="--.HHN">
      <acc value="0.1245190802" flag="0"/>
      <vel value="0.0355840970" flag="0"/>
      <psa03 value="0.1824163347" flag="0"/>
      <psa10 value="0.0351390070" flag="0"/>
      <psa30 value="0.0029301629" flag="0"/>
    </comp>
  </station>
  <station code="THL" name="THL" netid="HL" insttype="120" lat="39.5647" lon="22.0144">
    <comp name="--.HHZ">
      <acc value="0.0038014163" flag="0"/>
      <vel value="0.0025098666" flag="0"/>
      <psa03 value="0.0097563696" flag="0"/>
      <psa10 value="0.0029870805" flag="0"/>
      <psa30 value="0.0003762626" flag="0"/>
    </comp>
    <comp name="--.HHN">
      <acc value="0.0061518224" flag="0"/>
      <vel value="0.0056655643" flag="0"/>
      <psa03 value="0.0155317560" flag="0"/>
      <psa10 value="0.0068003039" flag="0"/>
      <psa30 value="0.0009226821" flag="0"/>
    </comp>
    <comp name="--.HHE">
      <acc value="0.0056219382" flag="0"/>
      <vel value="0.0042819651" flag="0"/>
      <psa03 value="0.0215632720" flag="0"/>
      <psa10 value="0.0032903214" flag="0"/>
      <psa30 value="0.0004693560" flag="0"/>
    </comp>
  </station>
  <station code="AMPL" name="AMPL" netid="HP" insttype="Compact," lat="38.9224" lon="21.2135">
    <comp name="--.HHE">
      <acc value="0.0194975587" flag="0"/>
      <vel value="0.0080399272" flag="0"/>
      <psa03 value="0.0599266429" flag="0"/>
      <psa10 value="0.0078771945" flag="0"/>
      <psa30 value="0.0008656121" flag="0"/>
    </comp>
    <comp name="--.HHN">
      <acc value="0.0177759374" flag="0"/>
      <vel value="0.0083109347" flag="0"/>
      <psa03 value="0.0411526807" flag="0"/>
      <psa10 value="0.0098067611" flag="0"/>
      <psa30 value="0.0004890667" flag="0"/>
    </comp>
    <comp name="--.HHZ">
      <acc value="0.0140018787" flag="0"/>
      <vel value="0.0065748577" flag="0"/>
      <psa03 value="0.0368957785" flag="0"/>
      <psa10 value="0.0077717745" flag="0"/>
      <psa30 value="0.0005666443" flag="0"/>
    </comp>
  </station>
  <station code="KSTR" name="KSTR" netid="HP" insttype="Compact," lat="39.2492" lon="20.576">
    <comp name="--.HHE">
      <acc value="0.0994477451" flag="0"/>
      <vel value="0.0345427308" flag="0"/>
      <psa03 value="0.1645961974" flag="0"/>
      <psa10 value="0.0386001016" flag="0"/>
      <psa30 value="0.0024946316" flag="0"/>
    </comp>
    <comp name="--.HHZ">
      <acc value="0.0679690807" flag="0"/>
      <vel value="0.0183000405" flag="0"/>
      <psa03 value="0.1010651002" flag="0"/>
      <psa10 value="0.0104614020" flag="0"/>
      <psa30 value="0.0015693978" flag="0"/>
    </comp>
    <comp name="--.HHN">
      <acc value="0.0834371477" flag="0"/>
      <vel value="0.0248846794" flag="0"/>
      <psa03 value="0.1582344001" flag="0"/>
      <psa10 value="0.0188267244" flag="0"/>
      <psa30 value="0.0026377517" flag="0"/>
    </comp>
  </station>
  <station code="PDO" name="PDO" netid="HP" insttype="120s" lat="38.5986" lon="21.1833">
    <comp name="--.HHE">
      <acc value="0.0192777076" flag="0"/>
      <vel value="0.0107841933" flag="0"/>
      <psa03 value="0.0384794154" flag="0"/>
      <psa10 value="0.0138818598" flag="0"/>
      <psa30 value="0.0012447595" flag="0"/>
    </comp>
    <comp name="--.HHN">
      <acc value="0.0158463789" flag="0"/>
      <vel value="0.0079040588" flag="0"/>
      <psa03 value="0.0611209477" flag="0"/>
      <psa10 value="0.0104953438" flag="0"/>
      <psa30 value="0.0009156302" flag="0"/>
    </comp>
    <comp name="--.HHZ">
      <acc value="0.0118432594" flag="0"/>
      <vel value="0.0043346561" flag="0"/>
      <psa03 value="0.0175010780" flag="0"/>
      <psa10 value="0.0041818796" flag="0"/>
      <psa30 value="0.0004734160" flag="0"/>
    </comp>
  </station>
  <station code="EVGI" name="EVGI" netid="HT" insttype="30" lat="38.621" lon="20.656">
    <comp name="--.HHZ">
      <acc value="0.0256040424" flag="0"/>
      <vel value="0.0105029312" flag="0"/>
      <psa03 value="0.0442586058" flag="0"/>
      <psa10 value="0.0043672399" flag="0"/>
      <psa30 value="0.0004402713" flag="0"/>
    </comp>
    <comp name="--.HHN">
      <acc value="0.0364873100" flag="0"/>
      <vel value="0.0126453690" flag="0"/>
      <psa03 value="0.0768541814" flag="0"/>
      <psa10 value="0.0101593205" flag="0"/>
      <psa30 value="0.0009405557" flag="0"/>
    </comp>
    <comp name="--.HHE">
      <acc value="0.0371042744" flag="0"/>
      <vel value="0.0119981713" flag="0"/>
      <psa03 value="0.0606525008" flag="0"/>
      <psa10 value="0.0082906120" flag="0"/>
      <psa30 value="0.0008092109" flag="0"/>
    </comp>
  </station>
  <station code="KPRO" name="KPRO" netid="HT" insttype="100" lat="39.9549" lon="21.3632">
    <comp name="--.HHN">
      <acc value="0.0255366360" flag="0"/>
      <vel value="0.0140959210" flag="0"/>
      <psa03 value="0.0897351467" flag="0"/>
      <psa10 value="0.0184434663" flag="0"/>
      <psa30 value="0.0018019530" flag="0"/>
    </comp>
    <comp name="--.HHE">
      <acc value="0.0327175361" flag="0"/>
      <vel value="0.0212963197" flag="0"/>
      <psa03 value="0.1185261258" flag="0"/>
      <psa10 value="0.0227803839" flag="0"/>
      <psa30 value="0.0032313529" flag="0"/>
    </comp>
    <comp name="--.HHZ">
      <acc value="0.0182350511" flag="0"/>
      <vel value="0.0099255844" flag="0"/>
      <psa03 value="0.0487514566" flag="0"/>
      <psa10 value="0.0162245636" flag="0"/>
      <psa30 value="0.0011864149" flag="0"/>
    </comp>
  </station>
  <station code="LKD2" name="LKD2" netid="HT" insttype="100" lat="38.7889" lon="20.6578">
    <comp name="--.HHZ">
      <acc value="0.0238591716" flag="0"/>
      <vel value="0.0066977452" flag="0"/>
      <psa03 value="0.0339656440" flag="0"/>
      <psa10 value="0.0058508521" flag="0"/>
      <psa30 value="0.0004737698" flag="0"/>
    </comp>
    <comp name="--.HHN">
      <acc value="0.0336258299" flag="0"/>
      <vel value="0.0114334350" flag="0"/>
      <psa03 value="0.0487250805" flag="0"/>
      <psa10 value="0.0098243785" flag="0"/>
      <psa30 value="0.0006944615" flag="0"/>
    </comp>
    <comp name="--.HHE">
      <acc value="0.0372775811" flag="0"/>
      <vel value="0.0109347436" flag="0"/>
      <psa03 value="0.0713387311" flag="0"/>
      <psa10 value="0.0108176466" flag="0"/>
      <psa30 value="0.0009754613" flag="0"/>
    </comp>
  </station>
  <station code="NEST" name="NEST" netid="HT" insttype="120P," lat="40.4147" lon="21.0489">
    <comp name="--.HHE">
      <acc value="0.0192446627" flag="0"/>
      <vel value="0.0095132341" flag="0"/>
      <psa03 value="0.0611751242" flag="0"/>
      <psa10 value="0.0115579787" flag="0"/>
      <psa30 value="0.0006572956" flag="0"/>
    </comp>
    <comp name="--.HHN">
      <acc value="0.0154623212" flag="0"/>
      <vel value="0.0075310714" flag="0"/>
      <psa03 value="0.0387498253" flag="0"/>
      <psa10 value="0.0053739784" flag="0"/>
      <psa30 value="0.0005114961" flag="0"/>
    </comp>
    <comp name="--.HHZ">
      <acc value="0.0161555212" flag="0"/>
      <vel value="0.0080799861" flag="0"/>
      <psa03 value="0.0528071977" flag="0"/>
      <psa10 value="0.0062474578" flag="0"/>
      <psa30 value="0.0007088684" flag="0"/>
    </comp>
  </station>
  <station code="NYDR" name="NYDR" netid="HT" insttype="1s-100Hz," lat="38.7135" lon="20.6983">
    <comp name="--.HHN">
      <acc value="0.0307084485" flag="0"/>
      <vel value="0.0111314127" flag="0"/>
      <psa03 value="0.0580497063" flag="0"/>
      <psa10 value="0.0083566407" flag="0"/>
      <psa30 value="0.0009089939" flag="0"/>
    </comp>
    <comp name="--.HHE">
      <acc value="0.0181158847" flag="0"/>
      <vel value="0.0085361921" flag="0"/>
      <psa03 value="0.0493171523" flag="0"/>
      <psa10 value="0.0101211384" flag="0"/>
      <psa30 value="0.0011187353" flag="0"/>
    </comp>
    <comp name="--.HHZ">
      <acc value="0.0125166891" flag="0"/>
      <vel value="0.0068415354" flag="0"/>
      <psa03 value="0.0450395323" flag="0"/>
      <psa10 value="0.0065909486" flag="0"/>
      <psa30 value="0.0004246025" flag="0"/>
    </comp>
  </station>
  <station code="TSLK" name="TSLK" netid="HT" insttype="1s-100Hz," lat="38.8249" lon="20.6554">
    <comp name="--.HHE">
      <acc value="0.0274563985" flag="0"/>
      <vel value="0.0125135786" flag="0"/>
      <psa03 value="0.0632920733" flag="0"/>
      <psa10 value="0.0105773467" flag="0"/>
      <psa30 value="0.0018062633" flag="0"/>
    </comp>
    <comp name="--.HHN">
      <acc value="0.0350803493" flag="0"/>
      <vel value="0.0203715993" flag="0"/>
      <psa03 value="0.1212911947" flag="0"/>
      <psa10 value="0.0161069076" flag="0"/>
      <psa30 value="0.0017224376" flag="0"/>
    </comp>
    <comp name="--.HHZ">
      <acc value="0.0191603721" flag="0"/>
      <vel value="0.0073844428" flag="0"/>
      <psa03 value="0.0384126967" flag="0"/>
      <psa10 value="0.0076225740" flag="0"/>
      <psa30 value="0.0009511792" flag="0"/>
    </comp>
  </station>
  <station code="KEK" name="KEK" netid="MN" insttype="" lat="39.7127" lon="19.7962">
    <comp name="--.HHE">
      <acc value="0.0303100972" flag="0"/>
      <vel value="0.0229780774" flag="0"/>
      <psa03 value="0.0874617447" flag="0"/>
      <psa10 value="0.0317568765" flag="0"/>
      <psa30 value="0.0013277734" flag="0"/>
    </comp>
    <comp name="--.HHN">
      <acc value="0.0332686870" flag="0"/>
      <vel value="0.0188108388" flag="0"/>
      <psa03 value="0.0809493022" flag="0"/>
      <psa10 value="0.0212786035" flag="0"/>
      <psa30 value="0.0026512517" flag="0"/>
    </comp>
    <comp name="--.HHZ">
      <acc value="0.0212891375" flag="0"/>
      <vel value="0.0189005483" flag="0"/>
      <psa03 value="0.0531225162" flag="0"/>
      <psa10 value="0.0194089835" flag="0"/>
      <psa30 value="0.0015507662" flag="0"/>
    </comp>
  </station>
  <station code="THL" name="THL" netid="MN" insttype="" lat="39.5647" lon="22.0144">
    <comp name="--.HHE">
      <acc value="0.0056219382" flag="0"/>
      <vel value="0.0042819651" flag="0"/>
      <psa03 value="0.0215632720" flag="0"/>
      <psa10 value="0.0032903214" flag="0"/>
      <psa30 value="0.0004693560" flag="0"/>
    </comp>
    <comp name="--.HHN">
      <acc value="0.0061518224" flag="0"/>
      <vel value="0.0056655643" flag="0"/>
      <psa03 value="0.0155317560" flag="0"/>
      <psa10 value="0.0068003039" flag="0"/>
      <psa30 value="0.0009226821" flag="0"/>
    </comp>
    <comp name="--.HHZ">
      <acc value="0.0038014163" flag="0"/>
      <vel value="0.0025098666" flag="0"/>
      <psa03 value="0.0097563696" flag="0"/>
      <psa10 value="0.0029870805" flag="0"/>
      <psa30 value="0.0003762626" flag="0"/>
    </comp>
  </station>
</stationlist>
