<?xml version="1.0" encoding="UTF-8" standalone="yes"?>
<!DOCTYPE earthquake SYSTEM "stationlist.dtd">
<stationlist created="" xmlns="ch.ethz.sed.shakemap.usgs.xml">
  <station code="KBN" name="KBN" netid="AC" insttype="" lat="40.6236" lon="20.7874">
    <comp name="--.HHN">
      <acc value="0.0063786414" flag="0"/>
      <vel value="0.0045547084" flag="0"/>
      <psa03 value="0.0192199871" flag="0"/>
      <psa10 value="0.0099580155" flag="0"/>
      <psa30 value="0.0007113401" flag="0"/>
    </comp>
    <comp name="--.HHE">
      <acc value="0.0071862083" flag="0"/>
      <vel value="0.0074031677" flag="0"/>
      <psa03 value="0.0195836245" flag="0"/>
      <psa10 value="0.0128866344" flag="0"/>
      <psa30 value="0.0005818397" flag="0"/>
    </comp>
    <comp name="--.HHZ">
      <acc value="0.0054361779" flag="0"/>
      <vel value="0.0047666520" flag="0"/>
      <psa03 value="0.0114087757" flag="0"/>
      <psa10 value="0.0094844116" flag="0"/>
      <psa30 value="0.0005613664" flag="0"/>
    </comp>
  </station>
  <station code="ART2" name="ART2" netid="HI" insttype="CMG-5TD,ACCELEROMETER,GURALP" lat="39.1474" lon="20.9937">
    <comp name="--.HNZ">
      <acc value="0.0251873732" flag="0"/>
      <vel value="0.0090671363" flag="0"/>
      <psa03 value="0.0603914628" flag="0"/>
      <psa10 value="0.0095219199" flag="0"/>
      <psa30 value="0.0006695243" flag="0"/>
    </comp>
    <comp name="--.HNN">
      <acc value="0.0357657399" flag="0"/>
      <vel value="0.0153556406" flag="0"/>
      <psa03 value="0.0659980253" flag="0"/>
      <psa10 value="0.0083931511" flag="0"/>
      <psa30 value="0.0009649989" flag="0"/>
    </comp>
    <comp name="--.HNE">
      <acc value="0.0293132420" flag="0"/>
      <vel value="0.0147516560" flag="0"/>
      <psa03 value="0.0882421188" flag="0"/>
      <psa10 value="0.0169685907" flag="0"/>
      <psa30 value="0.0010524706" flag="0"/>
    </comp>
  </station>
  <station code="KRK1" name="KRK1" netid="HI" insttype="CMG-5TD,ACCELEROMETER,GURALP" lat="39.6189" lon="19.9202">
    <comp name="--.HNE">
      <acc value="0.1179649542" flag="0"/>
      <vel value="0.0642340563" flag="0"/>
      <psa03 value="0.2904315398" flag="0"/>
      <psa10 value="0.0325453529" flag="0"/>
      <psa30 value="0.0028026993" flag="0"/>
    </comp>
    <comp name="--.HNN">
      <acc value="0.1091946331" flag="0"/>
      <vel value="0.0477867367" flag="0"/>
      <psa03 value="0.1963752604" flag="0"/>
      <psa10 value="0.0484858959" flag="0"/>
      <psa30 value="0.0032598664" flag="0"/>
    </comp>
    <comp name="--.HNZ">
      <acc value="0.0526517599" flag="0"/>
      <vel value="0.0234160782" flag="0"/>
      <psa03 value="0.1450767121" flag="0"/>
      <psa10 value="0.0124901970" flag="0"/>
      <psa30 value="0.0015071195" flag="0"/>
    </comp>
  </station>
  <station code="VAS2" name="VAS2" netid="HI" insttype="CMG-5TD,ACCELEROMETER,GURALP" lat="38.6306" lon="20.6081">
    <comp name="--.HNZ">
      <acc value="0.0343990653" flag="0"/>
      <vel value="0.0216547227" flag="0"/>
      <psa03 value="0.0872943717" flag="0"/>
      <psa10 value="0.0266780443" flag="0"/>
      <psa30 value="0.0010860406" flag="0"/>
    </comp>
    <comp name="--.HNE">
      <acc value="0.0721606197" flag="0"/>
      <vel value="0.0388239906" flag="0"/>
      <psa03 value="0.1758692415" flag="0"/>
      <psa10 value="0.0707630450" flag="0"/>
      <psa30 value="0.0038405997" flag="0"/>
    </comp>
    <comp name="--.HNN">
      <acc value="0.0759177668" flag="0"/>
      <vel value="0.0371358888" flag="0"/>
      <psa03 value="0.2197975398" flag="0"/>
      <psa10 value="0.0580224678" flag="0"/>
      <psa30 value="0.0032381363" flag="0"/>
    </comp>
  </station>
  <station code="EVR" name="EVR" netid="HL" insttype="DR24" lat="38.9166" lon="21.8105">
    <comp name="--.HHE">
      <acc value="0.0055762390" flag="0"/>
      <vel value="0.0031474126" flag="0"/>
      <psa03 value="0.0184275331" flag="0"/>
      <psa10 value="0.0055693060" flag="0"/>
      <psa30 value="0.0006174087" flag="0"/>
    </comp>
    <comp name="--.HHZ">
      <acc value="0.0064998520" flag="0"/>
      <vel value="0.0036214769" flag="0"/>
      <psa03 value="0.0103217035" flag="0"/>
      <psa10 value="0.0041397235" flag="0"/>
      <psa30 value="0.0006313937" flag="0"/>
    </comp>
    <comp name="--.HHN">
      <acc value="0.0072916635" flag="0"/>
      <vel value="0.0041765196" flag="0"/>
      <psa03 value="0.0151672572" flag="0"/>
      <psa10 value="0.0062721303" flag="0"/>
      <psa30 value="0.0007282158" flag="0"/>
    </comp>
  </station>
  <station code="JAN" name="JAN" netid="HL" insttype="CMG3EPSC60_DR24" lat="39.6562" lon="20.8487">
    <comp name="--.HHE">
      <acc value="1.2290612143" flag="0"/>
      <vel value="0.4270867710" flag="0"/>
      <psa03 value="2.9181122902" flag="0"/>
      <psa10 value="0.1692961657" flag="0"/>
      <psa30 value="0.0109700699" flag="0"/>
    </comp>
    <comp name="--.HHN">
      <acc value="1.3110268455" flag="0"/>
      <vel value="0.5664226686" flag="0"/>
      <psa03 value="3.4198525697" flag="0"/>
      <psa10 value="0.2428097300" flag="0"/>
      <psa30 value="0.0295152828" flag="0"/>
    </comp>
    <comp name="--.HHZ">
      <acc value="0.8110566914" flag="0"/>
      <vel value="0.1622707099" flag="0"/>
      <psa03 value="0.7049312112" flag="0"/>
      <psa10 value="0.0581237209" flag="0"/>
      <psa30 value="0.0051506211" flag="0"/>
    </comp>
  </station>
  <station code="KEK" name="KEK" netid="HL" insttype="120" lat="39.7127" lon="19.7962">
    <comp name="--.HHN">
      <acc value="0.0332687101" flag="0"/>
      <vel value="0.0188108517" flag="0"/>
      <psa03 value="0.0809493583" flag="0"/>
      <psa10 value="0.0212786182" flag="0"/>
      <psa30 value="0.0026512559" flag="0"/>
    </comp>
    <comp name="--.HHE">
      <acc value="0.0303101182" flag="0"/>
      <vel value="0.0229780933" flag="0"/>
      <psa03 value="0.0874618053" flag="0"/>
      <psa10 value="0.0317568985" flag="0"/>
      <psa30 value="0.0013277888" flag="0"/>
    </comp>
    <comp name="--.HHZ">
      <acc value="0.0212891522" flag="0"/>
      <vel value="0.0189005612" flag="0"/>
      <psa03 value="0.0531225530" flag="0"/>
      <psa10 value="0.0194089970" flag="0"/>
      <psa30 value="0.0015507503" flag="0"/>
    </comp>
  </station>
  <station code="KZN" name="KZN" netid="HL" insttype="120" lat="40.3033" lon="21.7821">
    <comp name="--.HHN">
      <acc value="0.0077378000" flag="0"/>
      <vel value="0.0044895492" flag="0"/>
      <psa03 value="0.0275341632" flag="0"/>
      <psa10 value="0.0078628627" flag="0"/>
      <psa30 value="0.0004597177" flag="0"/>
    </comp>
    <comp name="--.HHZ">
      <acc value="0.0038999905" flag="0"/>
      <vel value="0.0027322286" flag="0"/>
      <psa03 value="0.0145538564" flag="0"/>
      <psa10 value="0.0044890069" flag="0"/>
      <psa30 value="0.0003408528" flag="0"/>
    </comp>
    <comp name="--.HHE">
      <acc value="0.0095985026" flag="0"/>
      <vel value="0.0059575586" flag="0"/>
      <psa03 value="0.0316227030" flag="0"/>
      <psa10 value="0.0081838607" flag="0"/>
      <psa30 value="0.0004570292" flag="0"/>
    </comp>
  </station>
  <station code="TETR" name="TETR" netid="HL" insttype="60" lat="39.3445" lon="21.2747">
    <comp name="--.HHE">
      <acc value="0.1193114018" flag="0"/>
      <vel value="0.0487861687" flag="0"/>
      <psa03 value="0.3225280731" flag="0"/>
      <psa10 value="0.0329444819" flag="0"/>
      <psa30 value="0.0024456012" flag="0"/>
    </comp>
    <comp name="--.HHN">
      <acc value="0.1245190802" flag="0"/>
      <vel value="0.0355840970" flag="0"/>
      <psa03 value="0.1824163347" flag="0"/>
      <psa10 value="0.0351390070" flag="0"/>
      <psa30 value="0.0029301622" flag="0"/>
    </comp>
    <comp name="--.HHZ">
      <acc value="0.0531009601" flag="0"/>
      <vel value="0.0181851393" flag="0"/>
      <psa03 value="0.0771107022" flag="0"/>
      <psa10 value="0.0172199088" flag="0"/>
      <psa30 value="0.0014632006" flag="0"/>
    </comp>
  </station>
  <station code="THL" name="THL" netid="HL" insttype="120" lat="39.5647" lon="22.0144">
    <comp name="--.HHE">
      <acc value="0.0056219382" flag="0"/>
      <vel value="0.0042819652" flag="0"/>
      <psa03 value="0.0215632720" flag="0"/>
      <psa10 value="0.0032903214" flag="0"/>
      <psa30 value="0.0004693570" flag="0"/>
    </comp>
    <comp name="--.HHN">
      <acc value="0.0061518224" flag="0"/>
      <vel value="0.0056655643" flag="0"/>
      <psa03 value="0.0155317560" flag="0"/>
      <psa10 value="0.0068003039" flag="0"/>
      <psa30 value="0.0009226822" flag="0"/>
    </comp>
    <comp name="--.HHZ">
      <acc value="0.0038014163" flag="0"/>
      <vel value="0.0025098665" flag="0"/>
      <psa03 value="0.0097563696" flag="0"/>
      <psa10 value="0.0029870805" flag="0"/>
      <psa30 value="0.0003762625" flag="0"/>
    </comp>
  </station>
  <station code="AMPL" name="AMPL" netid="HP" insttype="Compact," lat="38.9224" lon="21.2135">
    <comp name="--.HHE">
      <acc value="0.0194975588" flag="0"/>
      <vel value="0.0080399272" flag="0"/>
      <psa03 value="0.0599266429" flag="0"/>
      <psa10 value="0.0078771945" flag="0"/>
      <psa30 value="0.0008656145" flag="0"/>
    </comp>
    <comp name="--.HHN">
      <acc value="0.0177759374" flag="0"/>
      <vel value="0.0083109347" flag="0"/>
      <psa03 value="0.0411526807" flag="0"/>
      <psa10 value="0.0098067611" flag="0"/>
      <psa30 value="0.0004890644" flag="0"/>
    </comp>
    <comp name="--.HHZ">
      <acc value="0.0140018787" flag="0"/>
      <vel value="0.0065748577" flag="0"/>
      <psa03 value="0.0368957785" flag="0"/>
      <psa10 value="0.0077717745" flag="0"/>
      <psa30 value="0.0005666427" flag="0"/>
    </comp>
  </station>
  <station code="KSTR" name="KSTR" netid="HP" insttype="Compact," lat="39.2492" lon="20.576">
    <comp name="--.HHE">
      <acc value="0.0994477451" flag="0"/>
      <vel value="0.0345427307" flag="0"/>
      <psa03 value="0.1645961974" flag="0"/>
      <psa10 value="0.0386001016" flag="0"/>
      <psa30 value="0.0024946304" flag="0"/>
    </comp>
    <comp name="--.HHN">
      <acc value="0.0834371477" flag="0"/>
      <vel value="0.0248846796" flag="0"/>
      <psa03 value="0.1582344001" flag="0"/>
      <psa10 value="0.0188267242" flag="0"/>
      <psa30 value="0.0026377616" flag="0"/>
    </comp>
    <comp name="--.HHZ">
      <acc value="0.0679690807" flag="0"/>
      <vel value="0.0183000404" flag="0"/>
      <psa03 value="0.1010651002" flag="0"/>
      <psa10 value="0.0104614020" flag="0"/>
      <psa30 value="0.0015693922" flag="0"/>
    </comp>
  </station>
  <station code="PDO" name="PDO" netid="HP" insttype="120s" lat="38.5986" lon="21.1833">
    <comp name="--.HHE">
      <acc value="0.0192777076" flag="0"/>
      <vel value="0.0107841933" flag="0"/>
      <psa03 value="0.0384794154" flag="0"/>
      <psa10 value="0.0138818598" flag="0"/>
      <psa30 value="0.0012447594" flag="0"/>
    </comp>
    <comp name="--.HHN">
      <acc value="0.0158463788" flag="0"/>
      <vel value="0.0079040589" flag="0"/>
      <psa03 value="0.0611209477" flag="0"/>
      <psa10 value="0.0104953438" flag="0"/>
      <psa30 value="0.0009156306" flag="0"/>
    </comp>
    <comp name="--.HHZ">
      <acc value="0.0118432593" flag="0"/>
      <vel value="0.0043346560" flag="0"/>
      <psa03 value="0.0175010780" flag="0"/>
      <psa10 value="0.0041818796" flag="0"/>
      <psa30 value="0.0004734157" flag="0"/>
    </comp>
  </station>
  <station code="EVGI" name="EVGI" netid="HT" insttype="30" lat="38.621" lon="20.656">
    <comp name="--.HHN">
      <acc value="0.0364873100" flag="0"/>
      <vel value="0.0126453691" flag="0"/>
      <psa03 value="0.0768541814" flag="0"/>
      <psa10 value="0.0101593205" flag="0"/>
      <psa30 value="0.0009405642" flag="0"/>
    </comp>
    <comp name="--.HHE">
      <acc value="0.0371042744" flag="0"/>
      <vel value="0.0119981708" flag="0"/>
      <psa03 value="0.0606525008" flag="0"/>
      <psa10 value="0.0082906120" flag="0"/>
      <psa30 value="0.0008092147" flag="0"/>
    </comp>
    <comp name="--.HHZ">
      <acc value="0.0256040424" flag="0"/>
      <vel value="0.0105029329" flag="0"/>
      <psa03 value="0.0442586058" flag="0"/>
      <psa10 value="0.0043672399" flag="0"/>
      <psa30 value="0.0004402737" flag="0"/>
    </comp>
  </station>
  <station code="KPRO" name="KPRO" netid="HT" insttype="100" lat="39.9549" lon="21.3632">
    <comp name="--.HHE">
      <acc value="0.0327175362" flag="0"/>
      <vel value="0.0212963197" flag="0"/>
      <psa03 value="0.1185261258" flag="0"/>
      <psa10 value="0.0227803839" flag="0"/>
      <psa30 value="0.0032313582" flag="0"/>
    </comp>
    <comp name="--.HHN">
      <acc value="0.0255366361" flag="0"/>
      <vel value="0.0140959204" flag="0"/>
      <psa03 value="0.0897351467" flag="0"/>
      <psa10 value="0.0184434663" flag="0"/>
      <psa30 value="0.0018019518" flag="0"/>
    </comp>
    <comp name="--.HHZ">
      <acc value="0.0182350512" flag="0"/>
      <vel value="0.0099255847" flag="0"/>
      <psa03 value="0.0487514566" flag="0"/>
      <psa10 value="0.0162245636" flag="0"/>
      <psa30 value="0.0011864116" flag="0"/>
    </comp>
  </station>
  <station code="LKD2" name="LKD2" netid="HT" insttype="100" lat="38.7889" lon="20.6578">
    <comp name="--.HHE">
      <acc value="0.0372775811" flag="0"/>
      <vel value="0.0109347436" flag="0"/>
      <psa03 value="0.0713387311" flag="0"/>
      <psa10 value="0.0108176466" flag="0"/>
      <psa30 value="0.0009754650" flag="0"/>
    </comp>
    <comp name="--.HHN">
      <acc value="0.0336258299" flag="0"/>
      <vel value="0.0114334350" flag="0"/>
      <psa03 value="0.0487250805" flag="0"/>
      <psa10 value="0.0098243785" flag="0"/>
      <psa30 value="0.0006944612" flag="0"/>
    </comp>
    <comp name="--.HHZ">
      <acc value="0.0238591716" flag="0"/>
      <vel value="0.0066977450" flag="0"/>
      <psa03 value="0.0339656440" flag="0"/>
      <psa10 value="0.0058508521" flag="0"/>
      <psa30 value="0.0004737707" flag="0"/>
    </comp>
  </station>
  <station code="NEST" name="NEST" netid="HT" insttype="120P," lat="40.4147" lon="21.0489">
    <comp name="--.HHZ">
      <acc value="0.0161555213" flag="0"/>
      <vel value="0.0080799866" flag="0"/>
      <psa03 value="0.0528071977" flag="0"/>
      <psa10 value="0.0062474578" flag="0"/>
      <psa30 value="0.0007088668" flag="0"/>
    </comp>
    <comp name="--.HHN">
      <acc value="0.0154623211" flag="0"/>
      <vel value="0.0075310713" flag="0"/>
      <psa03 value="0.0387498253" flag="0"/>
      <psa10 value="0.0053739784" flag="0"/>
      <psa30 value="0.0005114952" flag="0"/>
    </comp>
    <comp name="--.HHE">
      <acc value="0.0192446627" flag="0"/>
      <vel value="0.0095132340" flag="0"/>
      <psa03 value="0.0611751242" flag="0"/>
      <psa10 value="0.0115579787" flag="0"/>
      <psa30 value="0.0006572905" flag="0"/>
    </comp>
  </station>
  <station code="NYDR" name="NYDR" netid="HT" insttype="1s-100Hz," lat="38.7135" lon="20.6983">
    <comp name="--.HHZ">
      <acc value="0.0125166890" flag="0"/>
      <vel value="0.0068415114" flag="0"/>
      <psa03 value="0.0450395323" flag="0"/>
      <psa10 value="0.0065909487" flag="0"/>
      <psa30 value="0.0004245867" flag="0"/>
    </comp>
    <comp name="--.HHN">
      <acc value="0.0307084485" flag="0"/>
      <vel value="0.0111314306" flag="0"/>
      <psa03 value="0.0580497063" flag="0"/>
      <psa10 value="0.0083566407" flag="0"/>
      <psa30 value="0.0009090010" flag="0"/>
    </comp>
    <comp name="--.HHE">
      <acc value="0.0181158858" flag="0"/>
      <vel value="0.0085366829" flag="0"/>
      <psa03 value="0.0493171512" flag="0"/>
      <psa10 value="0.0101211373" flag="0"/>
      <psa30 value="0.0011187575" flag="0"/>
    </comp>
  </station>
  <station code="TSLK" name="TSLK" netid="HT" insttype="1s-100Hz," lat="38.8249" lon="20.6554">
    <comp name="--.HHN">
      <acc value="0.0350803495" flag="0"/>
      <vel value="0.0203715330" flag="0"/>
      <psa03 value="0.1212911945" flag="0"/>
      <psa10 value="0.0161069075" flag="0"/>
      <psa30 value="0.0017224392" flag="0"/>
    </comp>
    <comp name="--.HHZ">
      <acc value="0.0191603722" flag="0"/>
      <vel value="0.0073844175" flag="0"/>
      <psa03 value="0.0384126966" flag="0"/>
      <psa10 value="0.0076225741" flag="0"/>
      <psa30 value="0.0009511846" flag="0"/>
    </comp>
    <comp name="--.HHE">
      <acc value="0.0274563980" flag="0"/>
      <vel value="0.0125138199" flag="0"/>
      <psa03 value="0.0632920728" flag="0"/>
      <psa10 value="0.0105773472" flag="0"/>
      <psa30 value="0.0018062474" flag="0"/>
    </comp>
  </station>
  <station code="KEK" name="KEK" netid="MN" insttype="" lat="39.7127" lon="19.7962">
    <comp name="--.HHE">
      <acc value="0.0303100972" flag="0"/>
      <vel value="0.0229780774" flag="0"/>
      <psa03 value="0.0874617447" flag="0"/>
      <psa10 value="0.0317568765" flag="0"/>
      <psa30 value="0.0013277957" flag="0"/>
    </comp>
    <comp name="--.HHN">
      <acc value="0.0332686871" flag="0"/>
      <vel value="0.0188108384" flag="0"/>
      <psa03 value="0.0809493022" flag="0"/>
      <psa10 value="0.0212786035" flag="0"/>
      <psa30 value="0.0026512550" flag="0"/>
    </comp>
    <comp name="--.HHZ">
      <acc value="0.0212891375" flag="0"/>
      <vel value="0.0189005481" flag="0"/>
      <psa03 value="0.0531225162" flag="0"/>
      <psa10 value="0.0194089835" flag="0"/>
      <psa30 value="0.0015507393" flag="0"/>
    </comp>
  </station>
  <station code="THL" name="THL" netid="MN" insttype="" lat="39.5647" lon="22.0144">
    <comp name="--.HHZ">
      <acc value="0.0038014163" flag="0"/>
      <vel value="0.0025098666" flag="0"/>
      <psa03 value="0.0097563696" flag="0"/>
      <psa10 value="0.0029870805" flag="0"/>
      <psa30 value="0.0003762627" flag="0"/>
    </comp>
    <comp name="--.HHE">
      <acc value="0.0056219382" flag="0"/>
      <vel value="0.0042819651" flag="0"/>
      <psa03 value="0.0215632720" flag="0"/>
      <psa10 value="0.0032903214" flag="0"/>
      <psa30 value="0.0004693559" flag="0"/>
    </comp>
    <comp name="--.HHN">
      <acc value="0.0061518224" flag="0"/>
      <vel value="0.0056655643" flag="0"/>
      <psa03 value="0.0155317560" flag="0"/>
      <psa10 value="0.0068003039" flag="0"/>
      <psa30 value="0.0009226821" flag="0"/>
    </comp>
  </station>
</stationlist>
