<?xml version="1.0" encoding="UTF-8" standalone="yes"?>
<!DOCTYPE earthquake SYSTEM "stationlist.dtd">
<stationlist created="" xmlns="ch.ethz.sed.shakemap.usgs.xml">
  <station code="AGRP" name="AGRP" netid="CL" insttype="CMG40-T" commtype="DIG" lat="38.3959" lon="21.7228">
    <comp name="00.HHZ">
      <acc value="0.0110412421" flag="0"/>
      <vel value="0.0060261960" flag="0"/>
      <psa03 value="0.0407643859" flag="0"/>
      <psa10 value="0.0038441509" flag="0"/>
      <psa30 value="0.0003132567" flag="0"/>
    </comp>
    <comp name="00.HHE">
      <acc value="0.0265492431" flag="0"/>
      <vel value="0.0108492860" flag="0"/>
      <psa03 value="0.0583181625" flag="0"/>
      <psa10 value="0.0070273314" flag="0"/>
      <psa30 value="0.0003480553" flag="0"/>
    </comp>
    <comp name="00.HHN">
      <acc value="0.0220981296" flag="0"/>
      <vel value="0.0123308076" flag="0"/>
      <psa03 value="0.0677705599" flag="0"/>
      <psa10 value="0.0089808967" flag="0"/>
      <psa30 value="0.0008025860" flag="0"/>
    </comp>
  </station>
  <station code="ATHR" name="ATHR" netid="HA" insttype="GEOtiny," commtype="DIG" lat="38.3172" lon="20.4165">
    <comp name="--.HHE">
      <acc value="0.0217804086" flag="0"/>
      <vel value="0.0105543534" flag="0"/>
      <psa03 value="0.0480884100" flag="0"/>
      <psa10 value="0.0108580516" flag="0"/>
      <psa30 value="0.0006792498" flag="0"/>
    </comp>
    <comp name="--.HHN">
      <acc value="0.0211768854" flag="0"/>
      <vel value="0.0157168006" flag="0"/>
      <psa03 value="0.0795708586" flag="0"/>
      <psa10 value="0.0157176276" flag="0"/>
      <psa30 value="0.0011327732" flag="0"/>
    </comp>
    <comp name="--.HHZ">
      <acc value="0.0147819302" flag="0"/>
      <vel value="0.0070464439" flag="0"/>
      <psa03 value="0.0403630167" flag="0"/>
      <psa10 value="0.0063458672" flag="0"/>
      <psa30 value="0.0004681206" flag="0"/>
    </comp>
  </station>
  <station code="HAVD" name="HAVD" netid="HA" insttype="GEOtiny," commtype="DIG" lat="38.2036" lon="20.3848">
    <comp name="--.HHE">
      <acc value="0.0318998148" flag="0"/>
      <vel value="0.0152991209" flag="0"/>
      <psa03 value="0.0675402576" flag="0"/>
      <psa10 value="0.0120958395" flag="0"/>
      <psa30 value="0.0006569954" flag="0"/>
    </comp>
    <comp name="--.HHN">
      <acc value="0.0247706748" flag="0"/>
      <vel value="0.0113633110" flag="0"/>
      <psa03 value="0.0515818897" flag="0"/>
      <psa10 value="0.0079892698" flag="0"/>
      <psa30 value="0.0010604307" flag="0"/>
    </comp>
    <comp name="--.HHZ">
      <acc value="0.0168538430" flag="0"/>
      <vel value="0.0076960551" flag="0"/>
      <psa03 value="0.0595130340" flag="0"/>
      <psa10 value="0.0062058447" flag="0"/>
      <psa30 value="0.0003793617" flag="0"/>
    </comp>
  </station>
  <station code="AGR3" name="AGR3" netid="HI" insttype="unknown" commtype="DIG" lat="38.5893" lon="21.4162">
    <comp name="--.HNE">
      <acc value="0.1631382887" flag="0"/>
      <vel value="0.0673053762" flag="0"/>
      <psa03 value="0.3168677726" flag="0"/>
      <psa10 value="0.0586674962" flag="0"/>
      <psa30 value="0.0072644149" flag="0"/>
    </comp>
    <comp name="--.HNN">
      <acc value="0.2198681622" flag="0"/>
      <vel value="0.0977843698" flag="0"/>
      <psa03 value="0.6090547966" flag="0"/>
      <psa10 value="0.0742562780" flag="0"/>
      <psa30 value="0.0047890890" flag="0"/>
    </comp>
    <comp name="--.HNZ">
      <acc value="0.0634994196" flag="0"/>
      <vel value="0.0321127622" flag="0"/>
      <psa03 value="0.2334396313" flag="0"/>
      <psa10 value="0.0384106822" flag="0"/>
      <psa30 value="0.0027175469" flag="0"/>
    </comp>
  </station>
  <station code="ART2" name="ART2" netid="HI" insttype="CMG-5TD,ACCELEROMETER,GURALP" commtype="DIG" lat="39.1474" lon="20.9937">
    <comp name="--.HNE">
      <acc value="0.0249036647" flag="0"/>
      <vel value="0.0059547790" flag="0"/>
      <psa03 value="0.0238971544" flag="0"/>
      <psa10 value="0.0060647858" flag="0"/>
      <psa30 value="0.0004436060" flag="0"/>
    </comp>
    <comp name="--.HNN">
      <acc value="0.0207856625" flag="0"/>
      <vel value="0.0060529936" flag="0"/>
      <psa03 value="0.0274820347" flag="0"/>
      <psa10 value="0.0038902789" flag="0"/>
      <psa30 value="0.0005302786" flag="0"/>
    </comp>
    <comp name="--.HNZ">
      <acc value="0.0146598796" flag="0"/>
      <vel value="0.0039529913" flag="0"/>
      <psa03 value="0.0248514375" flag="0"/>
      <psa10 value="0.0037091847" flag="0"/>
      <psa30 value="0.0007073586" flag="0"/>
    </comp>
  </station>
  <station code="AST1" name="AST1" netid="HI" insttype="unknown" commtype="DIG" lat="38.5416" lon="21.0895">
    <comp name="--.HNE">
      <acc value="0.0893546282" flag="0"/>
      <vel value="0.0241196525" flag="0"/>
      <psa03 value="0.1460944808" flag="0"/>
      <psa10 value="0.0259523029" flag="0"/>
      <psa30 value="0.0012794722" flag="0"/>
    </comp>
    <comp name="--.HNN">
      <acc value="0.0825985525" flag="0"/>
      <vel value="0.0235499116" flag="0"/>
      <psa03 value="0.1120377227" flag="0"/>
      <psa10 value="0.0238314233" flag="0"/>
      <psa30 value="0.0013723867" flag="0"/>
    </comp>
    <comp name="--.HNZ">
      <acc value="0.0451055755" flag="0"/>
      <vel value="0.0146037796" flag="0"/>
      <psa03 value="0.1075167684" flag="0"/>
      <psa10 value="0.0221898453" flag="0"/>
      <psa30 value="0.0012929384" flag="0"/>
    </comp>
  </station>
  <station code="LEF2" name="LEF2" netid="HI" insttype="unknown" commtype="DIG" lat="38.8301" lon="20.7083">
    <comp name="--.HNE">
      <acc value="8.6184401275" flag="0"/>
      <vel value="2.4007115233" flag="0"/>
      <psa03 value="11.1237290464" flag="0"/>
      <psa10 value="0.4587166924" flag="0"/>
      <psa30 value="0.0452992698" flag="0"/>
    </comp>
    <comp name="--.HNN">
      <acc value="11.4201533269" flag="0"/>
      <vel value="5.7063883886" flag="0"/>
      <psa03 value="26.9159213443" flag="0"/>
      <psa10 value="1.5586142117" flag="0"/>
      <psa30 value="0.1497498462" flag="0"/>
    </comp>
    <comp name="--.HNZ">
      <acc value="4.3759996427" flag="0"/>
      <vel value="1.2170975761" flag="0"/>
      <psa03 value="2.9522828078" flag="0"/>
      <psa10 value="0.1957331724" flag="0"/>
      <psa30 value="0.0178272263" flag="0"/>
    </comp>
  </station>
  <station code="MSL1" name="MSL1" netid="HI" insttype="CMG-5TD,ACCELEROMETER,GURALP" commtype="DIG" lat="38.3727" lon="21.4243">
    <comp name="--.HNN">
      <acc value="0.1833697592" flag="0"/>
      <vel value="0.0737811836" flag="0"/>
      <psa03 value="0.3681440828" flag="0"/>
      <psa10 value="0.0669055010" flag="0"/>
      <psa30 value="0.0029229743" flag="0"/>
    </comp>
    <comp name="--.HNZ">
      <acc value="0.1029132966" flag="0"/>
      <vel value="0.0349501429" flag="0"/>
      <psa03 value="0.1676717196" flag="0"/>
      <psa10 value="0.0320469918" flag="0"/>
      <psa30 value="0.0013517704" flag="0"/>
    </comp>
    <comp name="--.HNE">
      <acc value="0.1511843987" flag="0"/>
      <vel value="0.0814681546" flag="0"/>
      <psa03 value="0.5303561944" flag="0"/>
      <psa10 value="0.1054554526" flag="0"/>
      <psa30 value="0.0036916893" flag="0"/>
    </comp>
  </station>
  <station code="PRE2" name="PRE2" netid="HI" insttype="unknown" commtype="DIG" lat="38.9577" lon="20.7548">
    <comp name="--.HNE">
      <acc value="0.9163963140" flag="0"/>
      <vel value="0.2825861966" flag="0"/>
      <psa03 value="1.6704385371" flag="0"/>
      <psa10 value="0.1952100594" flag="0"/>
      <psa30 value="0.0121235790" flag="0"/>
    </comp>
    <comp name="--.HNN">
      <acc value="0.5075998290" flag="0"/>
      <vel value="0.1621513476" flag="0"/>
      <psa03 value="0.9457321735" flag="0"/>
      <psa10 value="0.1742333513" flag="0"/>
      <psa30 value="0.0107041266" flag="0"/>
    </comp>
    <comp name="--.HNZ">
      <acc value="0.4618763759" flag="0"/>
      <vel value="0.0917672236" flag="0"/>
      <psa03 value="0.4743035309" flag="0"/>
      <psa10 value="0.0934069928" flag="0"/>
      <psa30 value="0.0045489388" flag="0"/>
    </comp>
  </station>
  <station code="VAS2" name="VAS2" netid="HI" insttype="CMG-5TD,ACCELEROMETER,GURALP" commtype="DIG" lat="38.6306" lon="20.6081">
    <comp name="--.HNN">
      <acc value="0.5126616624" flag="0"/>
      <vel value="0.2681021187" flag="0"/>
      <psa03 value="1.3785432266" flag="0"/>
      <psa10 value="0.4409213895" flag="0"/>
      <psa30 value="0.0190546389" flag="0"/>
    </comp>
    <comp name="--.HNE">
      <acc value="0.5211167878" flag="0"/>
      <vel value="0.2998638091" flag="0"/>
      <psa03 value="1.0286410085" flag="0"/>
      <psa10 value="0.4045461128" flag="0"/>
      <psa30 value="0.0216706654" flag="0"/>
    </comp>
    <comp name="--.HNZ">
      <acc value="0.2867837600" flag="0"/>
      <vel value="0.2132570467" flag="0"/>
      <psa03 value="0.7191545805" flag="0"/>
      <psa10 value="0.2438586328" flag="0"/>
      <psa30 value="0.0091045220" flag="0"/>
    </comp>
  </station>
  <station code="VSK1" name="VSK1" netid="HI" insttype="unknown" commtype="DIG" lat="38.4091" lon="20.564">
    <comp name="--.HNE">
      <acc value="0.0354313611" flag="0"/>
      <vel value="0.0148367234" flag="0"/>
      <psa03 value="0.0961723249" flag="0"/>
      <psa10 value="0.0167973180" flag="0"/>
      <psa30 value="0.0014249440" flag="0"/>
    </comp>
    <comp name="--.HNN">
      <acc value="0.0456026284" flag="0"/>
      <vel value="0.0187339013" flag="0"/>
      <psa03 value="0.1085432097" flag="0"/>
      <psa10 value="0.0200587753" flag="0"/>
      <psa30 value="0.0016838227" flag="0"/>
    </comp>
    <comp name="--.HNZ">
      <acc value="0.0343321107" flag="0"/>
      <vel value="0.0121748768" flag="0"/>
      <psa03 value="0.0743939430" flag="0"/>
      <psa10 value="0.0164473198" flag="0"/>
      <psa30 value="0.0009915526" flag="0"/>
    </comp>
  </station>
  <station code="ARTB" name="ARTB" netid="HL" insttype="CMG-5" commtype="DIG" lat="39.157" lon="20.9785">
    <comp name="00.HNZ">
      <acc value="0.0478671531" flag="0"/>
      <vel value="0.0087786990" flag="0"/>
      <psa03 value="0.0342231482" flag="0"/>
      <psa10 value="0.0037009614" flag="0"/>
      <psa30 value="0.0005736352" flag="0"/>
    </comp>
    <comp name="00.HNE">
      <acc value="0.0580802297" flag="0"/>
      <vel value="0.0175120260" flag="0"/>
      <psa03 value="0.1194375240" flag="0"/>
      <psa10 value="0.0080915116" flag="0"/>
      <psa30 value="0.0006082641" flag="0"/>
    </comp>
    <comp name="00.HNN">
      <acc value="0.0542908596" flag="0"/>
      <vel value="0.0167955802" flag="0"/>
      <psa03 value="0.1299857414" flag="0"/>
      <psa10 value="0.0067214851" flag="0"/>
      <psa30 value="0.0006376783" flag="0"/>
    </comp>
  </station>
  <station code="EVR" name="EVR" netid="HL" insttype="DR24" commtype="DIG" lat="38.9166" lon="21.8105">
    <comp name="--.HHE">
      <acc value="0.0104310920" flag="0"/>
      <vel value="0.0042713662" flag="0"/>
      <psa03 value="0.0250765479" flag="0"/>
      <psa10 value="0.0045701039" flag="0"/>
      <psa30 value="0.0004025692" flag="0"/>
    </comp>
    <comp name="--.HHN">
      <acc value="0.0068441405" flag="0"/>
      <vel value="0.0058100417" flag="0"/>
      <psa03 value="0.0155101486" flag="0"/>
      <psa10 value="0.0071563009" flag="0"/>
      <psa30 value="0.0006152600" flag="0"/>
    </comp>
    <comp name="--.HHZ">
      <acc value="0.0044203298" flag="0"/>
      <vel value="0.0032013490" flag="0"/>
      <psa03 value="0.0103351213" flag="0"/>
      <psa10 value="0.0060720854" flag="0"/>
      <psa30 value="0.0003220878" flag="0"/>
    </comp>
  </station>
  <station code="JAN" name="JAN" netid="HL" insttype="CMG3EPSC60_DR24" commtype="DIG" lat="39.6562" lon="20.8487">
    <comp name="--.HHE">
      <acc value="0.0171921763" flag="0"/>
      <vel value="0.0156794894" flag="0"/>
      <psa03 value="0.0403626115" flag="0"/>
      <psa10 value="0.0241458519" flag="0"/>
      <psa30 value="0.0019305930" flag="0"/>
    </comp>
    <comp name="--.HHN">
      <acc value="0.0103672497" flag="0"/>
      <vel value="0.0054480914" flag="0"/>
      <psa03 value="0.0312217203" flag="0"/>
      <psa10 value="0.0076549224" flag="0"/>
      <psa30 value="0.0004514251" flag="0"/>
    </comp>
    <comp name="--.HHZ">
      <acc value="0.0000627856" flag="0"/>
      <vel value="0.0000070644" flag="0"/>
      <psa03 value="0.0000145092" flag="0"/>
      <psa10 value="0.0000053616" flag="0"/>
      <psa30 value="0.0000015430" flag="0"/>
    </comp>
  </station>
  <station code="ORTH" name="ORTH" netid="HL" insttype="30" commtype="DIG" lat="37.8511" lon="20.6963">
    <comp name="--.HHE">
      <acc value="0.0211561530" flag="0"/>
      <vel value="0.0115032032" flag="0"/>
      <psa03 value="0.0782000056" flag="0"/>
      <psa10 value="0.0090026687" flag="0"/>
      <psa30 value="0.0007718573" flag="0"/>
    </comp>
    <comp name="--.HHZ">
      <acc value="0.0134069334" flag="0"/>
      <vel value="0.0063257713" flag="0"/>
      <psa03 value="0.0298092876" flag="0"/>
      <psa10 value="0.0064703152" flag="0"/>
      <psa30 value="0.0003515300" flag="0"/>
    </comp>
    <comp name="--.HHN">
      <acc value="0.0239907959" flag="0"/>
      <vel value="0.0125753771" flag="0"/>
      <psa03 value="0.0543914392" flag="0"/>
      <psa10 value="0.0130801131" flag="0"/>
      <psa30 value="0.0006577094" flag="0"/>
    </comp>
  </station>
  <station code="RLS" name="RLS" netid="HL" insttype="CMG3ESPC-120s" commtype="DIG" lat="38.0559" lon="21.4647">
    <comp name="--.HHE">
      <acc value="0.0106374065" flag="0"/>
      <vel value="0.0046330930" flag="0"/>
      <psa03 value="0.0298093349" flag="0"/>
      <psa10 value="0.0032184754" flag="0"/>
      <psa30 value="0.0003262025" flag="0"/>
    </comp>
    <comp name="--.HHN">
      <acc value="0.0097777913" flag="0"/>
      <vel value="0.0051205835" flag="0"/>
      <psa03 value="0.0332827200" flag="0"/>
      <psa10 value="0.0055810558" flag="0"/>
      <psa30 value="0.0004140073" flag="0"/>
    </comp>
    <comp name="--.HHZ">
      <acc value="0.0056781094" flag="0"/>
      <vel value="0.0025434154" flag="0"/>
      <psa03 value="0.0219266731" flag="0"/>
      <psa10 value="0.0021123638" flag="0"/>
      <psa30 value="0.0002210434" flag="0"/>
    </comp>
  </station>
  <station code="TETR" name="TETR" netid="HL" insttype="60" commtype="DIG" lat="39.3445" lon="21.2747">
    <comp name="--.HHE">
      <acc value="0.0336860638" flag="0"/>
      <vel value="0.0141260824" flag="0"/>
      <psa03 value="0.0907805317" flag="0"/>
      <psa10 value="0.0084956567" flag="0"/>
      <psa30 value="0.0006937001" flag="0"/>
    </comp>
    <comp name="--.HHN">
      <acc value="0.0272549830" flag="0"/>
      <vel value="0.0099673561" flag="0"/>
      <psa03 value="0.0551916486" flag="0"/>
      <psa10 value="0.0096086133" flag="0"/>
      <psa30 value="0.0005996208" flag="0"/>
    </comp>
    <comp name="--.HHZ">
      <acc value="0.0133732002" flag="0"/>
      <vel value="0.0049656718" flag="0"/>
      <psa03 value="0.0230779932" flag="0"/>
      <psa10 value="0.0101395773" flag="0"/>
      <psa30 value="0.0006885312" flag="0"/>
    </comp>
  </station>
  <station code="AMPL" name="AMPL" netid="HP" insttype="Compact," commtype="DIG" lat="38.9224" lon="21.2135">
    <comp name="--.HHN">
      <acc value="0.1080907307" flag="0"/>
      <vel value="0.0286949930" flag="0"/>
      <psa03 value="0.1021825738" flag="0"/>
      <psa10 value="0.0410830589" flag="0"/>
      <psa30 value="0.0018075908" flag="0"/>
    </comp>
    <comp name="--.HHE">
      <acc value="0.1041109304" flag="0"/>
      <vel value="0.0233798026" flag="0"/>
      <psa03 value="0.0975402343" flag="0"/>
      <psa10 value="0.0109671731" flag="0"/>
      <psa30 value="0.0009828117" flag="0"/>
    </comp>
    <comp name="--.HHZ">
      <acc value="0.0602670047" flag="0"/>
      <vel value="0.0169036710" flag="0"/>
      <psa03 value="0.0596437351" flag="0"/>
      <psa10 value="0.0122476300" flag="0"/>
      <psa30 value="0.0008805363" flag="0"/>
    </comp>
  </station>
  <station code="ANX" name="ANX" netid="HP" insttype="120" commtype="DIG" lat="38.5933" lon="21.9209">
    <comp name="--.HHE">
      <acc value="0.0145181471" flag="0"/>
      <vel value="0.0080770577" flag="0"/>
      <psa03 value="0.0484130194" flag="0"/>
      <psa10 value="0.0139182216" flag="0"/>
      <psa30 value="0.0005284274" flag="0"/>
    </comp>
    <comp name="--.HHZ">
      <acc value="0.0072795842" flag="0"/>
      <vel value="0.0059093126" flag="0"/>
      <psa03 value="0.0215032725" flag="0"/>
      <psa10 value="0.0062359126" flag="0"/>
      <psa30 value="0.0002507861" flag="0"/>
    </comp>
    <comp name="--.HHN">
      <acc value="0.0187494158" flag="0"/>
      <vel value="0.0141809432" flag="0"/>
      <psa03 value="0.0414148681" flag="0"/>
      <psa10 value="0.0090767500" flag="0"/>
      <psa30 value="0.0007324533" flag="0"/>
    </comp>
  </station>
  <station code="AXS" name="AXS" netid="HP" insttype="Compact," commtype="DIG" lat="38.1962" lon="21.3763">
    <comp name="--.HHE">
      <acc value="0.0170646829" flag="0"/>
      <vel value="0.0056674870" flag="0"/>
      <psa03 value="0.0393447852" flag="0"/>
      <psa10 value="0.0040833661" flag="0"/>
      <psa30 value="0.0003464066" flag="0"/>
    </comp>
    <comp name="--.HHN">
      <acc value="0.0180999159" flag="0"/>
      <vel value="0.0070080662" flag="0"/>
      <psa03 value="0.0512118937" flag="0"/>
      <psa10 value="0.0048907216" flag="0"/>
      <psa30 value="0.0002853332" flag="0"/>
    </comp>
    <comp name="--.HHZ">
      <acc value="0.0134851386" flag="0"/>
      <vel value="0.0034823655" flag="0"/>
      <psa03 value="0.0204116899" flag="0"/>
      <psa10 value="0.0022069326" flag="0"/>
      <psa30 value="0.0002137865" flag="0"/>
    </comp>
  </station>
  <station code="EFP" name="EFP" netid="HP" insttype="40," commtype="DIG" lat="38.4269" lon="21.9058">
    <comp name="--.HHE">
      <acc value="0.0224363176" flag="0"/>
      <vel value="0.0093228521" flag="0"/>
      <psa03 value="0.0427637593" flag="0"/>
      <psa10 value="0.0093743853" flag="0"/>
      <psa30 value="0.0007820891" flag="0"/>
    </comp>
    <comp name="--.HHN">
      <acc value="0.0243216168" flag="0"/>
      <vel value="0.0126006215" flag="0"/>
      <psa03 value="0.0420802316" flag="0"/>
      <psa10 value="0.0093122883" flag="0"/>
      <psa30 value="0.0010773640" flag="0"/>
    </comp>
    <comp name="--.HHZ">
      <acc value="0.0111120118" flag="0"/>
      <vel value="0.0071136479" flag="0"/>
      <psa03 value="0.0270939569" flag="0"/>
      <psa10 value="0.0047709159" flag="0"/>
      <psa30 value="0.0004017864" flag="0"/>
    </comp>
  </station>
  <station code="FSK" name="FSK" netid="HP" insttype="40," commtype="DIG" lat="38.4593" lon="20.5623">
    <comp name="--.HHZ">
      <acc value="0.0289057855" flag="0"/>
      <vel value="0.0171694386" flag="0"/>
      <psa03 value="0.0708933559" flag="0"/>
      <psa10 value="0.0099997490" flag="0"/>
      <psa30 value="0.0008825669" flag="0"/>
    </comp>
    <comp name="--.HHN">
      <acc value="0.0360572016" flag="0"/>
      <vel value="0.0133430367" flag="0"/>
      <psa03 value="0.0653842359" flag="0"/>
      <psa10 value="0.0227129001" flag="0"/>
      <psa30 value="0.0011557248" flag="0"/>
    </comp>
  </station>
  <station code="KSTR" name="KSTR" netid="HP" insttype="Compact," commtype="DIG" lat="39.2492" lon="20.576">
    <comp name="--.HHZ">
      <acc value="0.0360916931" flag="0"/>
      <vel value="0.0111176926" flag="0"/>
      <psa03 value="0.0634654255" flag="0"/>
      <psa10 value="0.0129642398" flag="0"/>
