<?xml version="1.0" encoding="UTF-8" standalone="yes"?>
<!DOCTYPE earthquake SYSTEM "stationlist.dtd">
<stationlist created="" xmlns="ch.ethz.sed.shakemap.usgs.xml">
  <station code="AGRP" name="AGRP" netid="CL" insttype="CMG40-T" commtype="DIG" lat="38.3959" lon="21.7228">
    <comp name="00.HHZ">
      <acc value="0.0110412421" flag="0"/>
      <vel value="0.0060261960" flag="0"/>
      <psa03 value="0.0407643859" flag="0"/>
      <psa10 value="0.0038441509" flag="0"/>
      <psa30 value="0.0003132567" flag="0"/>
    </comp>
    <comp name="00.HHE">
      <acc value="0.0265492431" flag="0"/>
      <vel value="0.0108492860" flag="0"/>
      <psa03 value="0.0583181625" flag="0"/>
      <psa10 value="0.0070273314" flag="0"/>
      <psa30 value="0.0003480553" flag="0"/>
    </comp>
    <comp name="00.HHN">
      <acc value="0.0220981296" flag="0"/>
      <vel value="0.0123308076" flag="0"/>
      <psa03 value="0.0677705599" flag="0"/>
      <psa10 value="0.0089808967" flag="0"/>
      <psa30 value="0.0008025860" flag="0"/>
    </comp>
  </station>
</stationlist>
