<stationlist created="1775820621">
	<station code="RDI1" name="RDI1" netid="HI" source="ITSAK Strong Motion Network" insttype="" lat="36.4514" lon="28.224">
		<comp name="--.HNE" depth="0.0">
			<acc value="0.00446346057767999" flag="0"/>
			<vel value="0.00593312990282872" flag="0"/>
			<psa03 value="0.00962146159336531" flag="0"/>
			<psa10 value="0.0119887407577211" flag="0"/>
			<psa30 value="0.00134092070441416" flag="0"/>
		</comp>
		<comp name="--.HNN" depth="0.0">
			<acc value="0.00424841072001192" flag="0"/>
			<vel value="0.00657026917985332" flag="0"/>
			<psa03 value="0.0094861342692327" flag="0"/>
			<psa10 value="0.0108216896963252" flag="0"/>
			<psa30 value="0.0023048316421185" flag="0"/>
		</comp>
		<comp name="--.HNZ" depth="0.0">
			<acc value="0.0026401956285439" flag="0"/>
			<vel value="0.00350464643421463" flag="0"/>
			<psa03 value="0.00585796944194126" flag="0"/>
			<psa10 value="0.00728732103051697" flag="0"/>
			<psa30 value="0.000776568006321123" flag="0"/>
		</comp>
	</station>
	<station code="AKS" name="AKS" netid="KO" source="Bogazici University Kandilli Observatory And Earthquake Research Institute (KOERI)" insttype="" lat="38.8785" lon="27.8129">
		<comp name="--.HNE" depth="0.0">
			<acc value="0.00317827749038374" flag="0"/>
			<vel value="0.00171436965511606" flag="0"/>
			<psa03 value="0.00606470253802583" flag="0"/>
			<psa10 value="0.00134819122511593" flag="0"/>
			<psa30 value="0.000390808753745069" flag="0"/>
		</comp>
		<comp name="--.HNN" depth="0.0">
			<acc value="0.00267340782625982" flag="0"/>
			<vel value="0.00171574012035531" flag="0"/>
			<psa03 value="0.0103673235030416" flag="0"/>
			<psa10 value="0.001605948261189" flag="0"/>
			<psa30 value="0.000496367048548884" flag="0"/>
		</comp>
		<comp name="--.HNZ" depth="0.0">
			<acc value="0.00160109297497984" flag="0"/>
			<vel value="0.00116021455863323" flag="0"/>
			<psa03 value="0.00445725881318724" flag="0"/>
			<psa10 value="0.00138237075496549" flag="0"/>
			<psa30 value="0.000501093247050049" flag="0"/>
		</comp>
	</station>
	<station code="ALT" name="ALT" netid="KO" source="Bogazici University Kandilli Observatory And Earthquake Research Institute (KOERI)" insttype="" lat="39.0541" lon="30.1104">
		<comp name="--.HNE" depth="0.0">
			<acc value="0.0035300496477681" flag="0"/>
			<vel value="0.00185231537188268" flag="0"/>
			<psa03 value="0.00877223215899151" flag="0"/>
			<psa10 value="0.00237207221626657" flag="0"/>
			<psa30 value="0.000571145023056814" flag="0"/>
		</comp>
		<comp name="--.HNN" depth="0.0">
			<acc value="0.00365024517766785" flag="0"/>
			<vel value="0.00187895198260758" flag="0"/>
			<psa03 value="0.0121442276725553" flag="0"/>
			<psa10 value="0.00259705172942964" flag="0"/>
			<psa30 value="0.000492607997447279" flag="0"/>
		</comp>
		<comp name="--.HNZ" depth="0.0">
			<acc value="0.00317155002692725" flag="0"/>
			<vel value="0.00181502210619299" flag="0"/>
			<psa03 value="0.00928167150582024" flag="0"/>
			<psa10 value="0.00249544343587882" flag="0"/>
			<psa30 value="0.000631067430121908" flag="0"/>
		</comp>
	</station>
	<station code="BASM" name="BASM" netid="KO" source="Bogazici University Kandilli Observatory And Earthquake Research Institute (KOERI)" insttype="" lat="37.9194" lon="30.035">
		<comp name="--.HNE" depth="0.0">
			<acc value="0.0677027154428861" flag="0"/>
			<vel value="0.0228907177010916" flag="0"/>
			<psa03 value="0.163010142372135" flag="0"/>
			<psa10 value="0.0144155312081909" flag="0"/>
			<psa30 value="0.0011109595331168" flag="0"/>
		</comp>
		<comp name="--.HNN" depth="0.0">
			<acc value="0.0860282707194061" flag="0"/>
			<vel value="0.0243156612585034" flag="0"/>
			<psa03 value="0.133993855602206" flag="0"/>
			<psa10 value="0.0121565390610486" flag="0"/>
			<psa30 value="0.00163472516751784" flag="0"/>
		</comp>
		<comp name="--.HNZ" depth="0.0">
			<acc value="0.0466025885198234" flag="0"/>
			<vel value="0.0117459797450459" flag="0"/>
			<psa03 value="0.0781950446211862" flag="0"/>
			<psa10 value="0.00736572700576932" flag="0"/>
			<psa30 value="0.000586816946658548" flag="0"/>
		</comp>
	</station>
	<station code="GOMA" name="GOMA" netid="KO" source="Bogazici University Kandilli Observatory And Earthquake Research Institute (KOERI)" insttype="" lat="38.7077" lon="27.9175">
		<comp name="--.HNE" depth="0.0">
			<acc value="0.00737547819707589" flag="0"/>
			<vel value="0.00389517302199915" flag="0"/>
			<psa03 value="0.0127805211259478" flag="0"/>
			<psa10 value="0.00328252284165493" flag="0"/>
			<psa30 value="0.000418809879515717" flag="0"/>
		</comp>
		<comp name="--.HNN" depth="0.0">
			<acc value="0.00359641166094937" flag="0"/>
			<vel value="0.00206505857220314" flag="0"/>
			<psa03 value="0.00743832217942374" flag="0"/>
			<psa10 value="0.00322469026052682" flag="0"/>
			<psa30 value="0.000629093861880023" flag="0"/>
		</comp>
		<comp name="--.HNZ" depth="0.0">
			<acc value="0.0028709986506127" flag="0"/>
			<vel value="0.00143823230273163" flag="0"/>
			<psa03 value="0.00483919101534511" flag="0"/>
			<psa10 value="0.00189405594066165" flag="0"/>
			<psa30 value="0.00026856625473791" flag="0"/>
		</comp>
	</station>
	<station code="GORD" name="GORD" netid="KO" source="Bogazici University Kandilli Observatory And Earthquake Research Institute (KOERI)" insttype="" lat="38.9088" lon="28.1769">
		<comp name="--.HNE" depth="0.0">
			<acc value="0.00387765095422609" flag="0"/>
			<vel value="0.00506555409431764" flag="0"/>
			<psa03 value="0.00730095370441594" flag="0"/>
			<psa10 value="0.0112289207358761" flag="0"/>
			<psa30 value="0.000878061188078457" flag="0"/>
		</comp>
		<comp name="--.HNN" depth="0.0">
			<acc value="0.00298669184970778" flag="0"/>
			<vel value="0.00390849884690429" flag="0"/>
			<psa03 value="0.00805565343916895" flag="0"/>
			<psa10 value="0.00759738453945522" flag="0"/>
			<psa30 value="0.00104793764989357" flag="0"/>
		</comp>
		<comp name="--.HNZ" depth="0.0">
			<acc value="0.00296987136518409" flag="0"/>
			<vel value="0.00244980004511957" flag="0"/>
			<psa03 value="0.00481944882212985" flag="0"/>
			<psa10 value="0.0027770831087524" flag="0"/>
			<psa30 value="0.000512466708822609" flag="0"/>
		</comp>
	</station>
	<station code="KHL" name="KHL" netid="KO" source="Bogazici University Kandilli Observatory And Earthquake Research Institute (KOERI)" insttype="" lat="38.3231" lon="29.5286">
		<comp name="--.HNE" depth="0.0">
			<acc value="0.0393357566005967" flag="0"/>
			<vel value="0.0114185323899745" flag="0"/>
			<psa03 value="0.0724193286751202" flag="0"/>
			<psa10 value="0.00916042058290847" flag="0"/>
			<psa30 value="0.00104483952799255" flag="0"/>
		</comp>
		<comp name="--.HNN" depth="0.0">
			<acc value="0.0428155127679607" flag="0"/>
			<vel value="0.0147947305015576" flag="0"/>
			<psa03 value="0.0757090257680986" flag="0"/>
			<psa10 value="0.00517453747522667" flag="0"/>
			<psa30 value="0.00101238227368876" flag="0"/>
		</comp>
		<comp name="--.HNZ" depth="0.0">
			<acc value="0.0319100615790747" flag="0"/>
			<vel value="0.00922014967097043" flag="0"/>
			<psa03 value="0.0533589670614372" flag="0"/>
			<psa10 value="0.00503423739975953" flag="0"/>
			<psa30 value="0.000878567471618081" flag="0"/>
		</comp>
	</station>
	<station code="NAZL" name="NAZL" netid="KO" source="Bogazici University Kandilli Observatory And Earthquake Research Institute (KOERI)" insttype="" lat="37.9641" lon="28.2922">
		<comp name="--.HNE" depth="0.0">
			<acc value="0.0302486062474853" flag="0"/>
			<vel value="0.0138593388195956" flag="0"/>
			<psa03 value="0.0615467438364414" flag="0"/>
			<psa10 value="0.00464651421499814" flag="0"/>
			<psa30 value="0.00049753879283794" flag="0"/>
		</comp>
		<comp name="--.HNN" depth="0.0">
			<acc value="0.036896392170818" flag="0"/>
			<vel value="0.0125146444922382" flag="0"/>
			<psa03 value="0.0503273339389341" flag="0"/>
			<psa10 value="0.00894031756464289" flag="0"/>
			<psa30 value="0.000364404973374287" flag="0"/>
		</comp>
		<comp name="--.HNZ" depth="0.0">
			<acc value="0.0157226543108066" flag="0"/>
			<vel value="0.00503555576296897" flag="0"/>
			<psa03 value="0.0182424858188904" flag="0"/>
			<psa10 value="0.00407063122182377" flag="0"/>
			<psa30 value="0.000263147588486484" flag="0"/>
		</comp>
	</station>
	<station code="ODEM" name="ODEM" netid="KO" source="Bogazici University Kandilli Observatory And Earthquake Research Institute (KOERI)" insttype="" lat="38.2762" lon="28.0747">
		<comp name="--.HNE" depth="0.0">
			<acc value="0.00661441187951469" flag="0"/>
			<vel value="0.00409180764021157" flag="0"/>
			<psa03 value="0.0120125535852078" flag="0"/>
			<psa10 value="0.00551714704639767" flag="0"/>
			<psa30 value="0.000317989659004086" flag="0"/>
		</comp>
		<comp name="--.HNN" depth="0.0">
			<acc value="0.0118676227955965" flag="0"/>
			<vel value="0.00584554631919507" flag="0"/>
			<psa03 value="0.0242357825849642" flag="0"/>
			<psa10 value="0.00397700767599069" flag="0"/>
			<psa30 value="0.000436103967872562" flag="0"/>
		</comp>
		<comp name="--.HNZ" depth="0.0">
			<acc value="0.00741999845416978" flag="0"/>
			<vel value="0.00334348748066823" flag="0"/>
			<psa03 value="0.0117548789634727" flag="0"/>
			<psa10 value="0.003837361315731" flag="0"/>
			<psa30 value="0.000356240838790651" flag="0"/>
		</comp>
	</station>
	<station code="SHAP" name="SHAP" netid="KO" source="Bogazici University Kandilli Observatory And Earthquake Research Institute (KOERI)" insttype="" lat="39.0231" lon="29.222">
		<comp name="--.HNE" depth="0.0">
			<acc value="0.00990822382246883" flag="0"/>
			<vel value="0.00714743452181472" flag="0"/>
			<psa03 value="0.047717895451599" flag="0"/>
			<psa10 value="0.00705929233098857" flag="0"/>
			<psa30 value="0.000601340512941862" flag="0"/>
		</comp>
		<comp name="--.HNN" depth="0.0">
			<acc value="0.0123133996529685" flag="0"/>
			<vel value="0.00709781147763426" flag="0"/>
			<psa03 value="0.0379176498790419" flag="0"/>
			<psa10 value="0.00710124682898778" flag="0"/>
			<psa30 value="0.000713646546412424" flag="0"/>
		</comp>
		<comp name="--.HNZ" depth="0.0">
			<acc value="0.0108861917595701" flag="0"/>
			<vel value="0.00497650803842655" flag="0"/>
			<psa03 value="0.0159165921565277" flag="0"/>
			<psa10 value="0.00310410805380117" flag="0"/>
			<psa30 value="0.000351486695726902" flag="0"/>
		</comp>
	</station>
	<station code="SMAA" name="SMAA" netid="KO" source="Bogazici University Kandilli Observatory And Earthquake Research Institute (KOERI)" insttype="" lat="39.1005" lon="28.9805">
		<comp name="--.HNE" depth="0.0">
			<acc value="0.0267330338027811" flag="0"/>
			<vel value="0.0289485378078177" flag="0"/>
			<psa03 value="0.0490538849959556" flag="0"/>
			<psa10 value="0.0318873198784484" flag="0"/>
			<psa30 value="0.00326767459240669" flag="0"/>
		</comp>
		<comp name="--.HNN" depth="0.0">
			<acc value="0.0226436021725163" flag="0"/>
			<vel value="0.0263044571934825" flag="0"/>
			<psa03 value="0.039689246405281" flag="0"/>
			<psa10 value="0.0497695844905237" flag="0"/>
			<psa30 value="0.00332500609866991" flag="0"/>
		</comp>
		<comp name="--.HNZ" depth="0.0">
			<acc value="0.00698233770823915" flag="0"/>
			<vel value="0.00720469487406536" flag="0"/>
			<psa03 value="0.0154028354664438" flag="0"/>
			<psa10 value="0.0115697198746668" flag="0"/>
			<psa30 value="0.000773402432031359" flag="0"/>
		</comp>
	</station>
	<station code="SOMA" name="SOMA" netid="KO" source="Bogazici University Kandilli Observatory And Earthquake Research Institute (KOERI)" insttype="" lat="39.1564" lon="27.5341">
		<comp name="--.HNE" depth="0.0">
			<acc value="0.00171278039308708" flag="0"/>
			<vel value="0.00184880626445937" flag="0"/>
			<psa03 value="0.00604825418279655" flag="0"/>
			<psa10 value="0.00350825287328519" flag="0"/>
			<psa30 value="0.000206842009559866" flag="0"/>
		</comp>
		<comp name="--.HNN" depth="0.0">
			<acc value="0.00197608807186489" flag="0"/>
			<vel value="0.00165895327587209" flag="0"/>
			<psa03 value="0.00744531743448217" flag="0"/>
			<psa10 value="0.00223486515822317" flag="0"/>
			<psa30 value="0.00039803339900917" flag="0"/>
		</comp>
		<comp name="--.HNZ" depth="0.0">
			<acc value="0.0012086836095664" flag="0"/>
			<vel value="0.00108422826823023" flag="0"/>
			<psa03 value="0.00365675819280561" flag="0"/>
			<psa10 value="0.00228968769619849" flag="0"/>
			<psa30 value="0.000205967225046851" flag="0"/>
		</comp>
	</station>
</stationlist>
