<?xml version="1.0" encoding="UTF-8" standalone="yes"?>
<!DOCTYPE earthquake SYSTEM "stationlist.dtd">
<stationlist created="" xmlns="ch.ethz.sed.shakemap.usgs.xml">
  <station code="BABD" name="BABD" netid="KO" insttype="30s," lat="37.802" lon="28.8534">
    <comp name="--.HHZ">
      <acc value="0.1080095606" flag="0"/>
      <vel value="0.0201735400" flag="0"/>
      <psa03 value="0.1192668957" flag="0"/>
      <psa10 value="0.0082564059" flag="0"/>
      <psa30 value="0.0007640095" flag="0"/>
    </comp>
    <comp name="--.HHN">
      <acc value="0.1391695103" flag="0"/>
      <vel value="0.0436153709" flag="0"/>
      <psa03 value="0.2114550026" flag="0"/>
      <psa10 value="0.0197803159" flag="0"/>
      <psa30 value="0.0012111981" flag="0"/>
    </comp>
    <comp name="--.HHE">
      <acc value="0.1342674244" flag="0"/>
      <vel value="0.0407518240" flag="0"/>
      <psa03 value="0.2160119688" flag="0"/>
      <psa10 value="0.0119283230" flag="0"/>
      <psa30 value="0.0008643367" flag="0"/>
    </comp>
  </station>
  <station code="BAKL" name="BAKL" netid="KO" insttype="30s," lat="37.9793" lon="29.6135">
    <comp name="--.HHE">
      <acc value="0.0924194394" flag="0"/>
      <vel value="0.0471526308" flag="0"/>
      <psa03 value="0.2053971939" flag="0"/>
      <psa10 value="0.0482512304" flag="0"/>
      <psa30 value="0.0026323872" flag="0"/>
    </comp>
    <comp name="--.HHN">
      <acc value="0.0949613812" flag="0"/>
      <vel value="0.0523901509" flag="0"/>
      <psa03 value="0.1670313962" flag="0"/>
      <psa10 value="0.0428122976" flag="0"/>
      <psa30 value="0.0022782657" flag="0"/>
    </comp>
    <comp name="--.HHZ">
      <acc value="0.0486405026" flag="0"/>
      <vel value="0.0247744653" flag="0"/>
      <psa03 value="0.1727013706" flag="0"/>
      <psa10 value="0.0264353512" flag="0"/>
      <psa30 value="0.0020094335" flag="0"/>
    </comp>
  </station>
  <station code="SERH" name="SERH" netid="KO" insttype="30s," lat="37.582" lon="29.2588">
    <comp name="--.HHE">
      <acc value="0.1613833429" flag="0"/>
      <vel value="0.0380358984" flag="0"/>
      <psa03 value="0.1612990351" flag="0"/>
      <psa10 value="0.0204802014" flag="0"/>
      <psa30 value="0.0012507291" flag="0"/>
    </comp>
    <comp name="--.HHN">
      <acc value="0.1998911474" flag="0"/>
      <vel value="0.0488560779" flag="0"/>
      <psa03 value="0.1343664447" flag="0"/>
      <psa10 value="0.0216927543" flag="0"/>
      <psa30 value="0.0017266349" flag="0"/>
    </comp>
    <comp name="--.HHZ">
      <acc value="0.1114793867" flag="0"/>
      <vel value="0.0220273319" flag="0"/>
      <psa03 value="0.0736685058" flag="0"/>
      <psa10 value="0.0240077544" flag="0"/>
      <psa30 value="0.0014538946" flag="0"/>
    </comp>
  </station>
</stationlist>
