<?xml version="1.0" encoding="UTF-8" standalone="yes"?>
<!DOCTYPE earthquake SYSTEM "stationlist.dtd">
<stationlist created="" xmlns="ch.ethz.sed.shakemap.usgs.xml">
  <station code="CHAN" name="CHAN" netid="HC" insttype="120" commtype="DIG" lat="35.5193" lon="24.0428">
    <comp name="--.HHE">
      <acc value="0.0145831240" flag="0"/>
      <vel value="0.0136875754" flag="0"/>
      <psa03 value="0.0438666254" flag="0"/>
      <psa10 value="0.0235125963" flag="0"/>
      <psa30 value="0.0030356730" flag="0"/>
    </comp>
    <comp name="--.HHN">
      <acc value="0.0152551154" flag="0"/>
      <vel value="0.0138558312" flag="0"/>
      <psa03 value="0.0505228983" flag="0"/>
      <psa10 value="0.0300465303" flag="0"/>
      <psa30 value="0.0027932646" flag="0"/>
    </comp>
    <comp name="--.HHZ">
      <acc value="0.0145903692" flag="0"/>
      <vel value="0.0076421423" flag="0"/>
      <psa03 value="0.0426723146" flag="0"/>
      <psa10 value="0.0096180181" flag="0"/>
      <psa30 value="0.0011730063" flag="0"/>
    </comp>
  </station>
  <station code="KNDR" name="KNDR" netid="HC" insttype="120" commtype="DIG" lat="35.2348" lon="23.6248">
    <comp name="--.HHN">
      <acc value="0.0169910196" flag="0"/>
      <vel value="0.0201549354" flag="0"/>
      <psa03 value="0.0720957093" flag="0"/>
      <psa10 value="0.0227054020" flag="0"/>
      <psa30 value="0.0029458808" flag="0"/>
    </comp>
    <comp name="--.HHE">
      <acc value="0.0285746570" flag="0"/>
      <vel value="0.0231069567" flag="0"/>
      <psa03 value="0.0792121400" flag="0"/>
      <psa10 value="0.0270061999" flag="0"/>
      <psa30 value="0.0032951961" flag="0"/>
    </comp>
    <comp name="--.HHZ">
      <acc value="0.0189916844" flag="0"/>
      <vel value="0.0105439039" flag="0"/>
      <psa03 value="0.0622938455" flag="0"/>
      <psa10 value="0.0106771856" flag="0"/>
      <psa30 value="0.0009490685" flag="0"/>
    </comp>
  </station>
  <station code="CH03" name="CH03" netid="HI" insttype="unknown" commtype="DIG" lat="35.533" lon="24.0705">
    <comp name="--.HNE">
      <acc value="0.0057929575" flag="0"/>
      <vel value="0.0069827636" flag="0"/>
      <psa03 value="0.0206036313" flag="0"/>
      <psa10 value="0.0104241335" flag="0"/>
      <psa30 value="0.0010730178" flag="0"/>
    </comp>
    <comp name="--.HNN">
      <acc value="0.0048731503" flag="0"/>
      <vel value="0.0064154504" flag="0"/>
      <psa03 value="0.0125826360" flag="0"/>
      <psa10 value="0.0094899991" flag="0"/>
      <psa30 value="0.0012865607" flag="0"/>
    </comp>
    <comp name="--.HNZ">
      <acc value="0.0061544650" flag="0"/>
      <vel value="0.0028648098" flag="0"/>
      <psa03 value="0.0182182968" flag="0"/>
      <psa10 value="0.0072234287" flag="0"/>
      <psa30 value="0.0005236229" flag="0"/>
    </comp>
  </station>
  <station code="NPS1" name="NPS1" netid="HI" insttype="unknown" commtype="DIG" lat="36.5126" lon="23.0625">
    <comp name="--.HNN">
      <acc value="0.0151956444" flag="0"/>
      <vel value="0.0137573552" flag="0"/>
      <psa03 value="0.0378424837" flag="0"/>
      <psa10 value="0.0176682666" flag="0"/>
      <psa30 value="0.0008289173" flag="0"/>
    </comp>
    <comp name="--.HNE">
      <acc value="0.0161436700" flag="0"/>
      <vel value="0.0137287776" flag="0"/>
      <psa03 value="0.0452673008" flag="0"/>
      <psa10 value="0.0198695533" flag="0"/>
      <psa30 value="0.0016284562" flag="0"/>
    </comp>
    <comp name="--.HNZ">
      <acc value="0.0113589001" flag="0"/>
      <vel value="0.0050330738" flag="0"/>
      <psa03 value="0.0314036739" flag="0"/>
      <psa10 value="0.0090944651" flag="0"/>
      <psa30 value="0.0005532763" flag="0"/>
    </comp>
  </station>
  <station code="ANKY" name="ANKY" netid="HL" insttype="60" commtype="DIG" lat="35.867" lon="23.3012">
    <comp name="--.HHE">
      <acc value="0.0205353637" flag="0"/>
      <vel value="0.0121247803" flag="0"/>
      <psa03 value="0.0467941501" flag="0"/>
      <psa10 value="0.0235361613" flag="0"/>
      <psa30 value="0.0012049901" flag="0"/>
    </comp>
    <comp name="--.HHN">
      <acc value="0.0166238430" flag="0"/>
      <vel value="0.0120921534" flag="0"/>
      <psa03 value="0.0431061792" flag="0"/>
      <psa10 value="0.0102762870" flag="0"/>
      <psa30 value="0.0018301257" flag="0"/>
    </comp>
    <comp name="--.HHZ">
      <acc value="0.0159956466" flag="0"/>
      <vel value="0.0074422067" flag="0"/>
      <psa03 value="0.0339392275" flag="0"/>
      <psa10 value="0.0074050718" flag="0"/>
      <psa30 value="0.0012581117" flag="0"/>
    </comp>
  </station>
  <station code="IMMV" name="IMMV" netid="HL" insttype="120" commtype="DIG" lat="35.4606" lon="23.9811">
    <comp name="--.HHN">
      <acc value="0.0092391414" flag="0"/>
      <vel value="0.0096754290" flag="0"/>
      <psa03 value="0.0282734477" flag="0"/>
      <psa10 value="0.0087706851" flag="0"/>
      <psa30 value="0.0013820224" flag="0"/>
    </comp>
    <comp name="--.HHZ">
      <acc value="0.0059080071" flag="0"/>
      <vel value="0.0040078743" flag="0"/>
      <psa03 value="0.0134052901" flag="0"/>
      <psa10 value="0.0027140057" flag="0"/>
      <psa30 value="0.0004711729" flag="0"/>
    </comp>
  </station>
</stationlist>
