<?xml version="1.0" encoding="UTF-8" standalone="yes"?>
<!DOCTYPE earthquake SYSTEM "stationlist.dtd">
<stationlist created="" xmlns="ch.ethz.sed.shakemap.usgs.xml">
  <station code="BNN" name="BNN" netid="KO" insttype="CMG-3T" lat="38.8521" lon="35.8472">
    <comp name="--.HHE">
      <acc value="0.0094763259" flag="0"/>
      <vel value="0.0051243074" flag="0"/>
      <psa03 value="0.0219208576" flag="0"/>
      <psa10 value="0.0047266206" flag="0"/>
      <psa30 value="0.0002866974" flag="0"/>
    </comp>
    <comp name="--.HHN">
      <acc value="0.0094974185" flag="0"/>
      <vel value="0.0046362538" flag="0"/>
      <psa03 value="0.0151327535" flag="0"/>
      <psa10 value="0.0042892917" flag="0"/>
      <psa30 value="0.0004424766" flag="0"/>
    </comp>
    <comp name="--.HHZ">
      <acc value="0.0080751006" flag="0"/>
      <vel value="0.0043015031" flag="0"/>
      <psa03 value="0.0176828813" flag="0"/>
      <psa10 value="0.0020587953" flag="0"/>
      <psa30 value="0.0003887651" flag="0"/>
    </comp>
  </station>
  <station code="GAZ" name="GAZ" netid="KO" insttype="CMG-3T" lat="37.1721" lon="37.2096">
    <comp name="--.HHE">
      <acc value="0.0209336538" flag="0"/>
      <vel value="0.0067972920" flag="0"/>
      <psa03 value="0.0346146315" flag="0"/>
      <psa10 value="0.0035242772" flag="0"/>
      <psa30 value="0.0002432461" flag="0"/>
    </comp>
    <comp name="--.HHN">
      <acc value="0.0106277944" flag="0"/>
      <vel value="0.0047259303" flag="0"/>
      <psa03 value="0.0264194216" flag="0"/>
      <psa10 value="0.0028241301" flag="0"/>
      <psa30 value="0.0002576246" flag="0"/>
    </comp>
    <comp name="--.HHZ">
      <acc value="0.0160562352" flag="0"/>
      <vel value="0.0045853712" flag="0"/>
      <psa03 value="0.0223577267" flag="0"/>
      <psa10 value="0.0022365238" flag="0"/>
      <psa30 value="0.0001891449" flag="0"/>
    </comp>
  </station>
  <station code="KMRS" name="KMRS" netid="KO" insttype="CMG-3T" lat="37.5053" lon="36.9">
    <comp name="--.HHN">
      <acc value="0.0156994984" flag="0"/>
      <vel value="0.0099305161" flag="0"/>
      <psa03 value="0.0373572048" flag="0"/>
      <psa10 value="0.0070871410" flag="0"/>
      <psa30 value="0.0005221705" flag="0"/>
    </comp>
    <comp name="--.HHE">
      <acc value="0.0149627471" flag="0"/>
      <vel value="0.0059495767" flag="0"/>
      <psa03 value="0.0297901109" flag="0"/>
      <psa10 value="0.0039791565" flag="0"/>
      <psa30 value="0.0003592339" flag="0"/>
    </comp>
    <comp name="--.HHZ">
      <acc value="0.0137110561" flag="0"/>
      <vel value="0.0047839258" flag="0"/>
      <psa03 value="0.0212266776" flag="0"/>
      <psa10 value="0.0030046968" flag="0"/>
      <psa30 value="0.0004968166" flag="0"/>
    </comp>
  </station>
  <station code="SARI" name="SARI" netid="KO" insttype="CMG-3T" lat="38.4072" lon="36.4181">
    <comp name="--.HHN">
      <acc value="0.1129599261" flag="0"/>
      <vel value="0.0306968005" flag="0"/>
      <psa03 value="0.1611362453" flag="0"/>
      <psa10 value="0.0172822859" flag="0"/>
      <psa30 value="0.0009665416" flag="0"/>
    </comp>
    <comp name="--.HHZ">
      <acc value="0.0711702962" flag="0"/>
      <vel value="0.0176925071" flag="0"/>
      <psa03 value="0.0954788868" flag="0"/>
      <psa10 value="0.0089904095" flag="0"/>
      <psa30 value="0.0010946252" flag="0"/>
    </comp>
  </station>
  <station code="ANDN" name="ANDN" netid="TU" insttype="T" lat="37.58" lon="36.3452">
    <comp name="--.HHN">
      <acc value="0.0896016728" flag="0"/>
      <vel value="0.0353061927" flag="0"/>
      <psa03 value="0.1343751438" flag="0"/>
      <psa10 value="0.0162491814" flag="0"/>
      <psa30 value="0.0010421011" flag="0"/>
    </comp>
    <comp name="--.HHZ">
      <acc value="0.0295731074" flag="0"/>
      <vel value="0.0120016252" flag="0"/>
      <psa03 value="0.0511017301" flag="0"/>
      <psa10 value="0.0111659220" flag="0"/>
      <psa30 value="0.0008667612" flag="0"/>
    </comp>
    <comp name="--.HHE">
      <acc value="0.0526132969" flag="0"/>
      <vel value="0.0179926073" flag="0"/>
      <psa03 value="0.0883181910" flag="0"/>
      <psa10 value="0.0222551059" flag="0"/>
      <psa30 value="0.0013282340" flag="0"/>
    </comp>
  </station>
</stationlist>
