<?xml version="1.0" encoding="UTF-8" standalone="yes"?>
<!DOCTYPE earthquake SYSTEM "stationlist.dtd">
<stationlist created="" xmlns="ch.ethz.sed.shakemap.usgs.xml">
  <station code="ANTB" name="ANTB" netid="KO" insttype="CMG-3T" commtype="DIG" lat="36.8998" lon="30.6538">
    <comp name="--.HHN">
      <acc value="0.0159298834" flag="0"/>
      <vel value="0.0085049898" flag="0"/>
      <psa03 value="0.0333702731" flag="0"/>
      <psa10 value="0.0083608205" flag="0"/>
      <psa30 value="0.0005622007" flag="0"/>
    </comp>
    <comp name="--.HHE">
      <acc value="0.0080749597" flag="0"/>
      <vel value="0.0048651209" flag="0"/>
      <psa03 value="0.0230574700" flag="0"/>
      <psa10 value="0.0044834868" flag="0"/>
      <psa30 value="0.0005119389" flag="0"/>
    </comp>
    <comp name="--.HHZ">
      <acc value="0.0134624352" flag="0"/>
      <vel value="0.0045056424" flag="0"/>
      <psa03 value="0.0281382912" flag="0"/>
      <psa10 value="0.0041608592" flag="0"/>
      <psa30 value="0.0004020826" flag="0"/>
    </comp>
  </station>
  <station code="KEMT" name="KEMT" netid="KO" insttype="CMG-5T" commtype="DIG" lat="36.6037" lon="30.5558">
    <comp name="--.HNE">
      <acc value="0.0606345639" flag="0"/>
      <vel value="0.0240251441" flag="0"/>
      <psa03 value="0.1321983742" flag="0"/>
      <psa10 value="0.0070031360" flag="0"/>
      <psa30 value="0.0004865246" flag="0"/>
    </comp>
    <comp name="--.HNN">
      <acc value="0.1476874998" flag="0"/>
      <vel value="0.2714021586" flag="0"/>
      <psa03 value="0.2432695400" flag="0"/>
      <psa10 value="0.1794747686" flag="0"/>
      <psa30 value="0.1425709505" flag="0"/>
    </comp>
    <comp name="--.HNZ">
      <acc value="0.0417610186" flag="0"/>
      <vel value="0.0069279352" flag="0"/>
      <psa03 value="0.0359783251" flag="0"/>
      <psa10 value="0.0024288120" flag="0"/>
      <psa30 value="0.0004967721" flag="0"/>
    </comp>
  </station>
</stationlist>
