<?xml version="1.0" encoding="UTF-8" standalone="yes"?>
<!DOCTYPE earthquake SYSTEM "stationlist.dtd">
<stationlist created="" xmlns="ch.ethz.sed.shakemap.usgs.xml">
  <station code="KARP" name="KARP" netid="GE" insttype="STS-2/N" commtype="DIG" lat="35.5471" lon="27.1611">
    <comp name="--.HHE">
      <acc value="0.0962108710" flag="0"/>
      <vel value="0.0078171296" flag="0"/>
      <psa03 value="0.0249239184" flag="0"/>
      <psa10 value="0.0010635063" flag="0"/>
      <psa30 value="0.0000686261" flag="0"/>
    </comp>
    <comp name="--.HHZ">
      <acc value="0.0691825009" flag="0"/>
      <vel value="0.0071518483" flag="0"/>
      <psa03 value="0.0283166912" flag="0"/>
      <psa10 value="0.0015839505" flag="0"/>
      <psa30 value="0.0001291750" flag="0"/>
    </comp>
    <comp name="--.HHN">
      <acc value="0.0777705592" flag="0"/>
      <vel value="0.0060991749" flag="0"/>
      <psa03 value="0.0188893668" flag="0"/>
      <psa10 value="0.0013079530" flag="0"/>
      <psa30 value="0.0000791113" flag="0"/>
    </comp>
  </station>
  <station code="THERA" name="THERA" netid="GE" insttype="STS-2/N" commtype="DIG" lat="36.367" lon="25.4753">
    <comp name="--.HHN">
      <acc value="0.0733750512" flag="0"/>
      <vel value="0.0188191643" flag="0"/>
      <psa03 value="0.0663064520" flag="0"/>
      <psa10 value="0.0151990965" flag="0"/>
      <psa30 value="0.0051895466" flag="0"/>
    </comp>
    <comp name="--.HHZ">
      <acc value="0.2018810987" flag="0"/>
      <vel value="0.1097300335" flag="0"/>
      <psa03 value="0.4548200838" flag="0"/>
      <psa10 value="0.1557806120" flag="0"/>
      <psa30 value="0.0468557906" flag="0"/>
    </comp>
    <comp name="--.HHE">
      <acc value="0.3410293284" flag="0"/>
      <vel value="0.2157777171" flag="0"/>
      <psa03 value="0.9656402487" flag="0"/>
      <psa10 value="0.2827034210" flag="0"/>
      <psa30 value="0.0487847483" flag="0"/>
    </comp>
  </station>
  <station code="ZKR" name="ZKR" netid="GE" insttype="STS-2/N" commtype="DIG" lat="35.1147" lon="26.2169">
    <comp name="--.HHE">
      <acc value="1.6339532988" flag="0"/>
      <vel value="1.1347647443" flag="0"/>
      <psa03 value="4.9886454008" flag="0"/>
      <psa10 value="1.1529825212" flag="0"/>
      <psa30 value="0.1115808208" flag="0"/>
    </comp>
    <comp name="--.HHN">
      <acc value="0.7304344753" flag="0"/>
      <vel value="0.6966971342" flag="0"/>
      <psa03 value="1.9743749888" flag="0"/>
      <psa10 value="1.1286253040" flag="0"/>
      <psa30 value="0.0889931301" flag="0"/>
    </comp>
    <comp name="--.HHZ">
      <acc value="0.8525509960" flag="0"/>
      <vel value="0.4966005443" flag="0"/>
      <psa03 value="1.4238866351" flag="0"/>
      <psa10 value="0.8191538617" flag="0"/>
      <psa30 value="0.0604204371" flag="0"/>
    </comp>
  </station>
  <station code="BODA" name="BODA" netid="KO" insttype="SA10" commtype="DIG" lat="37.0348" lon="27.4304">
    <comp name="--.HNE">
      <acc value="0.0757461246" flag="0"/>
      <vel value="0.0598939772" flag="0"/>
      <psa03 value="0.1817276891" flag="0"/>
      <psa10 value="0.0359123863" flag="0"/>
      <psa30 value="0.0178205872" flag="0"/>
    </comp>
    <comp name="--.HNZ">
      <acc value="0.0309439309" flag="0"/>
      <vel value="0.0236117875" flag="0"/>
      <psa03 value="0.0800675577" flag="0"/>
      <psa10 value="0.0238564200" flag="0"/>
      <psa30 value="0.0127385295" flag="0"/>
    </comp>
    <comp name="--.HNN">
      <acc value="0.1037065070" flag="0"/>
      <vel value="0.0818984347" flag="0"/>
      <psa03 value="0.5165312612" flag="0"/>
      <psa10 value="0.0531751198" flag="0"/>
      <psa30 value="0.0192806655" flag="0"/>
    </comp>
  </station>
  <station code="BODT" name="BODT" netid="KO" insttype="CMG-3ESP" commtype="DIG" lat="37.0622" lon="27.3103">
    <comp name="--.HHE">
      <acc value="0.0876887585" flag="0"/>
      <vel value="0.0561517416" flag="0"/>
      <psa03 value="0.2672196980" flag="0"/>
      <psa10 value="0.0680972236" flag="0"/>
      <psa30 value="0.0185112395" flag="0"/>
    </comp>
    <comp name="--.HHN">
      <acc value="0.0790766365" flag="0"/>
      <vel value="0.0527958336" flag="0"/>
      <psa03 value="0.1369128914" flag="0"/>
      <psa10 value="0.0713423606" flag="0"/>
      <psa30 value="0.0217982430" flag="0"/>
    </comp>
    <comp name="--.HHZ">
      <acc value="0.0612792901" flag="0"/>
      <vel value="0.0459627532" flag="0"/>
      <psa03 value="0.1223134073" flag="0"/>
      <psa10 value="0.0396724049" flag="0"/>
      <psa30 value="0.0237843857" flag="0"/>
    </comp>
  </station>
  <station code="DAT" name="DAT" netid="KO" insttype="CMG-3T" commtype="DIG" lat="36.7308" lon="27.5767">
    <comp name="--.HHN">
      <acc value="0.2272117905" flag="0"/>
      <vel value="0.1031742499" flag="0"/>
      <psa03 value="0.4677971685" flag="0"/>
      <psa10 value="0.1377415807" flag="0"/>
      <psa30 value="0.0362189893" flag="0"/>
    </comp>
    <comp name="--.HHE">
      <acc value="0.2200027495" flag="0"/>
      <vel value="0.1262767292" flag="0"/>
      <psa03 value="0.4545861603" flag="0"/>
      <psa10 value="0.1597411142" flag="0"/>
      <psa30 value="0.0389004337" flag="0"/>
    </comp>
    <comp name="--.HHZ">
      <acc value="0.0000347404" flag="0"/>
      <vel value="0.0000029494" flag="0"/>
      <psa03 value="0.0000115321" flag="0"/>
      <psa10 value="0.0000026790" flag="0"/>
      <psa30 value="0.0000010164" flag="0"/>
    </comp>
  </station>
  <station code="YKAV" name="YKAV" netid="KO" insttype="CMG-5T" commtype="DIG" lat="37.1246" lon="27.2801">
    <comp name="--.HNE">
      <acc value="0.1001701318" flag="0"/>
      <vel value="0.0867625857" flag="0"/>
      <psa03 value="0.2990660240" flag="0"/>
      <psa10 value="0.0838928176" flag="0"/>
      <psa30 value="0.0190832799" flag="0"/>
    </comp>
    <comp name="--.HNZ">
      <acc value="0.0573886979" flag="0"/>
      <vel value="0.0640602984" flag="0"/>
      <psa03 value="0.1151516305" flag="0"/>
      <psa10 value="0.0583174010" flag="0"/>
      <psa30 value="0.0186461025" flag="0"/>
    </comp>
    <comp name="--.HNN">
      <acc value="0.0674327814" flag="0"/>
      <vel value="0.0776703502" flag="0"/>
      <psa03 value="0.2230078195" flag="0"/>
      <psa10 value="0.0627456536" flag="0"/>
      <psa30 value="0.0210104569" flag="0"/>
    </comp>
  </station>
</stationlist>
