<?xml version="1.0" encoding="UTF-8" standalone="yes"?>
<!DOCTYPE earthquake SYSTEM "stationlist.dtd">
<stationlist created="" xmlns="ch.ethz.sed.shakemap.usgs.xml">
  <station code="KARP" name="KARP" netid="GE" insttype="STS-2/N" commtype="DIG" lat="35.5471" lon="27.1611">
    <comp name="--.HHE">
      <acc value="0.0962108702" flag="0"/>
      <vel value="0.0078171296" flag="0"/>
      <psa03 value="0.0249239184" flag="0"/>
      <psa10 value="0.0010635063" flag="0"/>
      <psa30 value="0.0000686267" flag="0"/>
    </comp>
    <comp name="--.HHN">
      <acc value="0.0777705603" flag="0"/>
      <vel value="0.0060991749" flag="0"/>
      <psa03 value="0.0188893668" flag="0"/>
      <psa10 value="0.0013079530" flag="0"/>
      <psa30 value="0.0000791116" flag="0"/>
    </comp>
    <comp name="--.HHZ">
      <acc value="0.0691825008" flag="0"/>
      <vel value="0.0071518483" flag="0"/>
      <psa03 value="0.0283166912" flag="0"/>
      <psa10 value="0.0015839505" flag="0"/>
      <psa30 value="0.0001291748" flag="0"/>
    </comp>
  </station>
  <station code="THERA" name="THERA" netid="GE" insttype="STS-2/N" commtype="DIG" lat="36.367" lon="25.4753">
    <comp name="--.HHE">
      <acc value="0.3410293285" flag="0"/>
      <vel value="0.2157777148" flag="0"/>
      <psa03 value="0.9656402487" flag="0"/>
      <psa10 value="0.2827034210" flag="0"/>
      <psa30 value="0.0487847445" flag="0"/>
    </comp>
    <comp name="--.HHZ">
      <acc value="0.2018810987" flag="0"/>
      <vel value="0.1097300344" flag="0"/>
      <psa03 value="0.4548200838" flag="0"/>
      <psa10 value="0.1557806120" flag="0"/>
      <psa30 value="0.0468557951" flag="0"/>
    </comp>
    <comp name="--.HHN">
      <acc value="0.0733750513" flag="0"/>
      <vel value="0.0188191634" flag="0"/>
      <psa03 value="0.0663064520" flag="0"/>
      <psa10 value="0.0151990963" flag="0"/>
      <psa30 value="0.0051896524" flag="0"/>
    </comp>
  </station>
  <station code="ZKR" name="ZKR" netid="GE" insttype="STS-2/N" commtype="DIG" lat="35.1147" lon="26.2169">
    <comp name="--.HHE">
      <acc value="1.6339532982" flag="0"/>
      <vel value="1.1347647453" flag="0"/>
      <psa03 value="4.9886454008" flag="0"/>
      <psa10 value="1.1529825210" flag="0"/>
      <psa30 value="0.1115812897" flag="0"/>
    </comp>
    <comp name="--.HHN">
      <acc value="0.7304344759" flag="0"/>
      <vel value="0.6966971348" flag="0"/>
      <psa03 value="1.9743749888" flag="0"/>
      <psa10 value="1.1286253045" flag="0"/>
      <psa30 value="0.0889934458" flag="0"/>
    </comp>
    <comp name="--.HHZ">
      <acc value="0.8525509956" flag="0"/>
      <vel value="0.4966005472" flag="0"/>
      <psa03 value="1.4238866351" flag="0"/>
      <psa10 value="0.8191538606" flag="0"/>
      <psa30 value="0.0604203432" flag="0"/>
    </comp>
  </station>
  <station code="SNT1" name="SNT1" netid="HA" insttype="30" commtype="DIG" lat="36.4159" lon="25.4282">
    <comp name="--.HHZ">
      <acc value="0.1036711039" flag="0"/>
      <vel value="0.0524104036" flag="0"/>
      <psa03 value="0.1337926282" flag="0"/>
      <psa10 value="0.1000889348" flag="0"/>
      <psa30 value="0.0153777415" flag="0"/>
    </comp>
    <comp name="--.HHE">
      <acc value="0.0922255673" flag="0"/>
      <vel value="0.1172318446" flag="0"/>
      <psa03 value="0.1983857387" flag="0"/>
      <psa10 value="0.1856173369" flag="0"/>
      <psa30 value="0.0375506701" flag="0"/>
    </comp>
    <comp name="--.HHN">
      <acc value="0.1083056251" flag="0"/>
      <vel value="0.1046791275" flag="0"/>
      <psa03 value="0.1757678299" flag="0"/>
      <psa10 value="0.1180176816" flag="0"/>
      <psa30 value="0.0292785833" flag="0"/>
    </comp>
  </station>
  <station code="SNT5" name="SNT5" netid="HA" insttype="1s-100Hz," commtype="DIG" lat="36.4037" lon="25.3953">
    <comp name="--.HHZ">
      <acc value="0.1587984286" flag="0"/>
      <vel value="0.0777649665" flag="0"/>
      <psa03 value="0.3054786705" flag="0"/>
      <psa10 value="0.0792109790" flag="0"/>
      <psa30 value="0.0274074221" flag="0"/>
    </comp>
    <comp name="--.HHN">
      <acc value="0.2105120296" flag="0"/>
      <vel value="0.1654044791" flag="0"/>
      <psa03 value="0.5771154839" flag="0"/>
      <psa10 value="0.0973191308" flag="0"/>
      <psa30 value="0.0533637576" flag="0"/>
    </comp>
    <comp name="--.HHE">
      <acc value="0.3963749436" flag="0"/>
      <vel value="0.1680007198" flag="0"/>
      <psa03 value="0.7292376904" flag="0"/>
      <psa10 value="0.1398670303" flag="0"/>
      <psa30 value="0.0820471839" flag="0"/>
    </comp>
  </station>
  <station code="IMOD" name="IMOD" netid="HC" insttype="120" commtype="DIG" lat="34.9731" lon="24.7995">
    <comp name="--.HHE">
      <acc value="0.2787735594" flag="0"/>
      <vel value="0.3078054519" flag="0"/>
      <psa03 value="0.6753013784" flag="0"/>
      <psa10 value="0.3391428901" flag="0"/>
      <psa30 value="0.0480425056" flag="0"/>
    </comp>
    <comp name="--.HHZ">
      <acc value="0.1458828976" flag="0"/>
      <vel value="0.1438567823" flag="0"/>
      <psa03 value="0.3175401981" flag="0"/>
      <psa10 value="0.2013852674" flag="0"/>
      <psa30 value="0.0429538541" flag="0"/>
    </comp>
    <comp name="--.HHN">
      <acc value="0.2871218742" flag="0"/>
      <vel value="0.2000631176" flag="0"/>
      <psa03 value="1.2024462125" flag="0"/>
      <psa10 value="0.3806726249" flag="0"/>
      <psa30 value="0.0452878044" flag="0"/>
    </comp>
  </station>
  <station code="KNSS" name="KNSS" netid="HC" insttype="60" commtype="DIG" lat="35.3042" lon="25.1802">
    <comp name="--.HHE">
      <acc value="17.2696094528" flag="0"/>
      <vel value="1.0375454934" flag="0"/>
      <psa03 value="1.9465075133" flag="0"/>
      <psa10 value="1.0916725720" flag="0"/>
      <psa30 value="0.1890625946" flag="0"/>
    </comp>
    <comp name="--.HHZ">
      <acc value="0.2565021099" flag="0"/>
      <vel value="0.1306025930" flag="0"/>
      <psa03 value="0.5867171113" flag="0"/>
      <psa10 value="0.1855513555" flag="0"/>
      <psa30 value="0.0559293353" flag="0"/>
    </comp>
    <comp name="--.HHN">
      <acc value="0.3508789249" flag="0"/>
      <vel value="0.3838309835" flag="0"/>
      <psa03 value="0.8166605427" flag="0"/>
      <psa10 value="0.3608725361" flag="0"/>
      <psa30 value="0.1281852481" flag="0"/>
    </comp>
  </station>
  <station code="KOSP" name="KOSP" netid="HC" insttype="60" commtype="DIG" lat="36.881" lon="27.281">
    <comp name="--.HHN">
      <acc value="0.1226310858" flag="0"/>
      <vel value="0.1263372001" flag="0"/>
      <psa03 value="0.4082728089" flag="0"/>
      <psa10 value="0.1595510076" flag="0"/>
      <psa30 value="0.0889675452" flag="0"/>
    </comp>
    <comp name="--.HHZ">
      <acc value="0.0852978669" flag="0"/>
      <vel value="0.0795624677" flag="0"/>
      <psa03 value="0.1798911241" flag="0"/>
      <psa10 value="0.1182905840" flag="0"/>
      <psa30 value="0.0330542659" flag="0"/>
    </comp>
    <comp name="--.HHE">
      <acc value="0.1079324068" flag="0"/>
      <vel value="0.1341048930" flag="0"/>
      <psa03 value="0.3023211354" flag="0"/>
      <psa10 value="0.1388041039" flag="0"/>
      <psa30 value="0.0604313321" flag="0"/>
    </comp>
  </station>
  <station code="PFKS" name="PFKS" netid="HC" insttype="120" commtype="DIG" lat="35.0429" lon="25.4733">
    <comp name="--.HHN">
      <acc value="0.4896473830" flag="0"/>
      <vel value="0.5724167184" flag="0"/>
      <psa03 value="0.9743499350" flag="0"/>
      <psa10 value="0.7538401297" flag="0"/>
      <psa30 value="0.0936563407" flag="0"/>
    </comp>
    <comp name="--.HHE">
      <acc value="0.5190719662" flag="0"/>
      <vel value="0.4511783637" flag="0"/>
      <psa03 value="1.3521250191" flag="0"/>
      <psa10 value="0.7331336975" flag="0"/>
      <psa30 value="0.0489771123" flag="0"/>
    </comp>
    <comp name="--.HHZ">
      <acc value="0.2707951447" flag="0"/>
      <vel value="0.3340802959" flag="0"/>
      <psa03 value="0.7749347454" flag="0"/>
      <psa10 value="0.3865360253" flag="0"/>
      <psa30 value="0.0447492429" flag="0"/>
    </comp>
  </station>
  <station code="TEFL" name="TEFL" netid="HC" insttype="GEOtiny," commtype="DIG" lat="35.0933" lon="25.1634">
    <comp name="--.HHN">
      <acc value="0.7543874996" flag="0"/>
      <vel value="0.4373950836" flag="0"/>
      <psa03 value="1.2969368879" flag="0"/>
      <psa10 value="0.5891855431" flag="0"/>
      <psa30 value="0.1758544913" flag="0"/>
    </comp>
    <comp name="--.HHE">
      <acc value="0.7378914629" flag="0"/>
      <vel value="0.4275663685" flag="0"/>
      <psa03 value="1.4080293076" flag="0"/>
      <psa10 value="0.8360744834" flag="0"/>
      <psa30 value="0.1250377297" flag="0"/>
    </comp>
    <comp name="--.HHZ">
      <acc value="0.3377904371" flag="0"/>
      <vel value="0.2800508786" flag="0"/>
      <psa03 value="0.8174668956" flag="0"/>
      <psa10 value="0.4426366972" flag="0"/>
      <psa30 value="0.0771170214" flag="0"/>
    </comp>
  </station>
  <station code="AGN1" name="AGN1" netid="HI" insttype="unknown" commtype="DIG" lat="35.1879" lon="25.7155">
    <comp name="--.HNE">
      <acc value="0.6605135628" flag="0"/>
      <vel value="0.3788402811" flag="0"/>
      <psa03 value="1.7363170667" flag="0"/>
      <psa10 value="0.3293015563" flag="0"/>
      <psa30 value="0.1177183758" flag="0"/>
    </comp>
    <comp name="--.HNN">
      <acc value="0.7150462575" flag="0"/>
      <vel value="0.4155899923" flag="0"/>
      <psa03 value="1.6022636186" flag="0"/>
      <psa10 value="0.4829624462" flag="0"/>
      <psa30 value="0.0991539498" flag="0"/>
    </comp>
    <comp name="--.HNZ">
      <acc value="0.2513346079" flag="0"/>
      <vel value="0.1871464044" flag="0"/>
      <psa03 value="0.4846877334" flag="0"/>
      <psa10 value="0.2565802622" flag="0"/>
      <psa30 value="0.0851148567" flag="0"/>
    </comp>
  </station>
  <station code="ARK1" name="ARK1" netid="HI" insttype="unknown" commtype="DIG" lat="35.1488" lon="25.2642">
    <comp name="--.HNN">
      <acc value="0.5525884498" flag="0"/>
      <vel value="0.6565445981" flag="0"/>
      <psa03 value="0.8870111251" flag="0"/>
      <psa10 value="0.8718508575" flag="0"/>
      <psa30 value="0.2043885176" flag="0"/>
    </comp>
    <comp name="--.HNZ">
      <acc value="0.3332525104" flag="0"/>
      <vel value="0.3630917667" flag="0"/>
      <psa03 value="0.6361746835" flag="0"/>
      <psa10 value="0.4371572028" flag="0"/>
      <psa30 value="0.1797376615" flag="0"/>
    </comp>
    <comp name="--.HNE">
      <acc value="0.4444640130" flag="0"/>
      <vel value="0.8073984157" flag="0"/>
      <psa03 value="1.1394294953" flag="0"/>
      <psa10 value="1.2404359365" flag="0"/>
      <psa30 value="0.1560838189" flag="0"/>
    </comp>
  </station>
  <station code="GOR1" name="GOR1" netid="HI" insttype="unknown" commtype="DIG" lat="35.0582" lon="24.9628">
    <comp name="--.HNE">
      <acc value="0.2703630427" flag="0"/>
      <vel value="0.3533592722" flag="0"/>
      <psa03 value="0.8782570973" flag="0"/>
      <psa10 value="0.5491198624" flag="0"/>
      <psa30 value="0.2029264123" flag="0"/>
    </comp>
    <comp name="--.HNN">
      <acc value="0.2216256987" flag="0"/>
      <vel value="0.3880801186" flag="0"/>
      <psa03 value="0.5829789500" flag="0"/>
      <psa10 value="0.5924592600" flag="0"/>
      <psa30 value="0.1508192411" flag="0"/>
    </comp>
    <comp name="--.HNZ">
      <acc value="0.1667655396" flag="0"/>
      <vel value="0.3035623868" flag="0"/>
      <psa03 value="0.4507561474" flag="0"/>
      <psa10 value="0.4337231928" flag="0"/>
      <psa30 value="0.1039020899" flag="0"/>
    </comp>
  </station>
  <station code="HER1" name="HER1" netid="HI" insttype="unknown" commtype="DIG" lat="35.3177" lon="25.1022">
    <comp name="--.HNE">
      <acc value="1.1820150222" flag="0"/>
      <vel value="1.9108820251" flag="0"/>
      <psa03 value="2.5490651297" flag="0"/>
      <psa10 value="2.7239415694" flag="0"/>
      <psa30 value="0.2833242301" flag="0"/>
    </comp>
    <comp name="--.HNN">
      <acc value="1.1153070573" flag="0"/>
      <vel value="1.6958650522" flag="0"/>
      <psa03 value="2.2289903571" flag="0"/>
      <psa10 value="3.1851098767" flag="0"/>
      <psa30 value="0.1897230904" flag="0"/>
    </comp>
    <comp name="--.HNZ">
      <acc value="1.0559119808" flag="0"/>
      <vel value="1.0412260365" flag="0"/>
      <psa03 value="1.9101590990" flag="0"/>
      <psa10 value="2.1420899070" flag="0"/>
      <psa30 value="0.0787192667" flag="0"/>
    </comp>
  </station>
  <station code="HER3" name="HER3" netid="HI" insttype="unknown" commtype="DIG" lat="35.3296" lon="25.1065">
    <comp name="--.HNE">
      <acc value="1.0620804972" flag="0"/>
      <vel value="1.4696159723" flag="0"/>
      <psa03 value="3.0749193356" flag="0"/>
      <psa10 value="2.3449613937" flag="0"/>
      <psa30 value="0.1824621855" flag="0"/>
    </comp>
    <comp name="--.HNN">
      <acc value="1.2694051448" flag="0"/>
      <vel value="1.3476871892" flag="0"/>
      <psa03 value="2.4224616708" flag="0"/>
      <psa10 value="2.4805506824" flag="0"/>
      <psa30 value="0.1971742509" flag="0"/>
    </comp>
    <comp name="--.HNZ">
      <acc value="0.6724021284" flag="0"/>
      <vel value="0.5659107258" flag="0"/>
      <psa03 value="1.6960193778" flag="0"/>
      <psa10 value="1.1433221715" flag="0"/>
      <psa30 value="0.0575200121" flag="0"/>
    </comp>
  </station>
  <station code="KSS1" name="KSS1" netid="HI" insttype="CMG-5TD,ACCELEROMETER,GURALP" commtype="DIG" lat="35.4189" lon="26.9207">
    <comp name="--.HNE">
      <acc value="1.5865227768" flag="0"/>
      <vel value="1.1919198724" flag="0"/>
      <psa03 value="5.4630701134" flag="0"/>
      <psa10 value="1.7519876427" flag="0"/>
      <psa30 value="0.2069958026" flag="0"/>
    </comp>
    <comp name="--.HNN">
      <acc value="3.6316152225" flag="0"/>
      <vel value="2.4247741891" flag="0"/>
      <psa03 value="14.4148379989" flag="0"/>
      <psa10 value="1.7463845212" flag="0"/>
      <psa30 value="0.3680930859" flag="0"/>
    </comp>
    <comp name="--.HNZ">
      <acc value="1.2961712665" flag="0"/>
      <vel value="0.8169761297" flag="0"/>
      <psa03 value="1.5826913860" flag="0"/>
      <psa10 value="0.6269411241" flag="0"/>
      <psa30 value="0.1383087302" flag="0"/>
    </comp>
  </station>
  <station code="KTL1" name="KTL1" netid="HI" insttype="unknown" commtype="DIG" lat="35.2078" lon="25.3427">
    <comp name="--.HNE">
      <acc value="0.5486565826" flag="0"/>
      <vel value="0.6990419287" flag="0"/>
      <psa03 value="1.5409339865" flag="0"/>
      <psa10 value="0.6856746357" flag="0"/>
      <psa30 value="0.1339438711" flag="0"/>
    </comp>
    <comp name="--.HNN">
      <acc value="0.6783287296" flag="0"/>
      <vel value="0.4636779639" flag="0"/>
      <psa03 value="2.5983805842" flag="0"/>
      <psa10 value="0.6571878890" flag="0"/>
      <psa30 value="0.1127891239" flag="0"/>
    </comp>
    <comp name="--.HNZ">
      <acc value="0.2823243614" flag="0"/>
      <vel value="0.2977086974" flag="0"/>
      <psa03 value="0.7047977592" flag="0"/>
      <psa10 value="0.2374218436" flag="0"/>
      <psa30 value="0.0754556229" flag="0"/>
    </comp>
  </station>
  <station code="RDI1" name="RDI1" netid="HI" insttype="CMG-5TD,ACCELEROMETER,GURALP" commtype="DIG" lat="36.4514" lon="28.224">
    <comp name="--.HNZ">
      <acc value="0.2038926394" flag="0"/>
      <vel value="0.2548736303" flag="0"/>
      <psa03 value="0.5199327627" flag="0"/>
      <psa10 value="0.2878878343" flag="0"/>
      <psa30 value="0.0746875129" flag="0"/>
    </comp>
    <comp name="--.HNE">
      <acc value="0.3409051969" flag="0"/>
      <vel value="0.5058068304" flag="0"/>
      <psa03 value="0.7389118450" flag="0"/>
      <psa10 value="0.6075090488" flag="0"/>
      <psa30 value="0.2421121039" flag="0"/>
    </comp>
    <comp name="--.HNN">
      <acc value="0.5028462589" flag="0"/>
      <vel value="0.4090551981" flag="0"/>
      <psa03 value="1.6493120504" flag="0"/>
      <psa10 value="0.4683761996" flag="0"/>
      <psa30 value="0.2478712500" flag="0"/>
    </comp>
  </station>
  <station code="RPN1" name="RPN1" netid="HI" insttype="unknown" commtype="DIG" lat="36.4487" lon="28.218">
    <comp name="--.HNE">
      <acc value="0.5783314273" flag="0"/>
      <vel value="0.6366642672" flag="0"/>
      <psa03 value="1.4720948569" flag="0"/>
      <psa10 value="0.7958381992" flag="0"/>
      <psa30 value="0.2484289762" flag="0"/>
    </comp>
    <comp name="--.HNN">
      <acc value="0.5365358411" flag="0"/>
      <vel value="0.5302129186" flag="0"/>
      <psa03 value="1.1435236003" flag="0"/>
      <psa10 value="0.5999252273" flag="0"/>
      <psa30 value="0.2205485196" flag="0"/>
    </comp>
    <comp name="--.HNZ">
      <acc value="0.2846534780" flag="0"/>
      <vel value="0.2600469688" flag="0"/>
      <psa03 value="0.4765722727" flag="0"/>
      <psa10 value="0.3488320054" flag="0"/>
      <psa30 value="0.1085770857" flag="0"/>
    </comp>
  </station>
  <station code="SFR2" name="SFR2" netid="HI" insttype="unknown" commtype="DIG" lat="36.3998" lon="25.4382">
    <comp name="--.HNE">
      <acc value="0.8181382575" flag="0"/>
      <vel value="0.6341561423" flag="0"/>
      <psa03 value="2.0119153653" flag="0"/>
      <psa10 value="0.8991477079" flag="0"/>
      <psa30 value="0.0933944831" flag="0"/>
    </comp>
    <comp name="--.HNZ">
      <acc value="0.6727914122" flag="0"/>
      <vel value="0.3254973591" flag="0"/>
      <psa03 value="2.1256513948" flag="0"/>
      <psa10 value="0.4512556845" flag="0"/>
      <psa30 value="0.0436870319" flag="0"/>
    </comp>
    <comp name="--.HNN">
      <acc value="0.4077990861" flag="0"/>
      <vel value="0.1467810143" flag="0"/>
      <psa03 value="0.3008736805" flag="0"/>
      <psa10 value="0.1361476439" flag="0"/>
      <psa30 value="0.0202622490" flag="0"/>
    </comp>
  </station>
  <station code="AGNA" name="AGNA" netid="HL" insttype="CMG-5" commtype="DIG" lat="35.1895" lon="25.7185">
    <comp name="00.HNE">
      <acc value="0.4008573365" flag="0"/>
      <vel value="0.3307547312" flag="0"/>
      <psa03 value="0.7827364383" flag="0"/>
      <psa10 value="0.4020081953" flag="0"/>
      <psa30 value="0.0930519875" flag="0"/>
    </comp>
    <comp name="00.HNN">
      <acc value="0.4051096223" flag="0"/>
      <vel value="0.4529885560" flag="0"/>
      <psa03 value="0.9217341965" flag="0"/>
      <psa10 value="0.8259944148" flag="0"/>
      <psa30 value="0.1731538123" flag="0"/>
    </comp>
    <comp name="00.HNZ">
      <acc value="0.2505016613" flag="0"/>
      <vel value="0.2025457049" flag="0"/>
      <psa03 value="0.4912016997" flag="0"/>
      <psa10 value="0.3156184187" flag="0"/>
      <psa30 value="0.0906270212" flag="0"/>
    </comp>
  </station>
  <station code="AMGA" name="AMGA" netid="HL" insttype="LE3D20_SMART24" commtype="DIG" lat="36.8316" lon="25.8938">
    <comp name="--.HHN">
      <acc value="0.2733230455" flag="0"/>
      <vel value="0.0734607300" flag="0"/>
      <psa03 value="0.1593084641" flag="0"/>
      <psa10 value="0.0525121395" flag="0"/>
      <psa30 value="0.0164499455" flag="0"/>
    </comp>
    <comp name="--.HHZ">
      <acc value="0.3185597382" flag="0"/>
      <vel value="0.1158967322" flag="0"/>
      <psa03 value="0.2367736488" flag="0"/>
      <psa10 value="0.0672772285" flag="0"/>
      <psa30 value="0.0202580791" flag="0"/>
    </comp>
    <comp name="--.HHE">
      <acc value="0.2145576342" flag="0"/>
      <vel value="0.0488442880" flag="0"/>
      <psa03 value="0.1469709129" flag="0"/>
      <psa10 value="0.0285410075" flag="0"/>
      <psa30 value="0.0081857737" flag="0"/>
    </comp>
  </station>
