<?xml version="1.0" encoding="UTF-8" standalone="yes"?>
<!DOCTYPE earthquake SYSTEM "stationlist.dtd">
<stationlist created="" xmlns="ch.ethz.sed.shakemap.usgs.xml">
  <station code="KARP" name="KARP" netid="GE" insttype="STS-2/N" commtype="DIG" lat="35.5471" lon="27.1611">
    <comp name="--.HHE">
      <acc value="0.0962108710" flag="0"/>
      <vel value="0.0078171296" flag="0"/>
      <psa03 value="0.0249239184" flag="0"/>
      <psa10 value="0.0010635063" flag="0"/>
      <psa30 value="0.0000686261" flag="0"/>
    </comp>
    <comp name="--.HHZ">
      <acc value="0.0691825009" flag="0"/>
      <vel value="0.0071518483" flag="0"/>
      <psa03 value="0.0283166912" flag="0"/>
      <psa10 value="0.0015839505" flag="0"/>
      <psa30 value="0.0001291750" flag="0"/>
    </comp>
    <comp name="--.HHN">
      <acc value="0.0777705592" flag="0"/>
      <vel value="0.0060991749" flag="0"/>
      <psa03 value="0.0188893668" flag="0"/>
      <psa10 value="0.0013079530" flag="0"/>
      <psa30 value="0.0000791113" flag="0"/>
    </comp>
  </station>
  <station code="THERA" name="THERA" netid="GE" insttype="STS-2/N" commtype="DIG" lat="36.367" lon="25.4753">
    <comp name="--.HHN">
      <acc value="0.0733750512" flag="0"/>
      <vel value="0.0188191643" flag="0"/>
      <psa03 value="0.0663064520" flag="0"/>
      <psa10 value="0.0151990965" flag="0"/>
      <psa30 value="0.0051895466" flag="0"/>
    </comp>
    <comp name="--.HHZ">
      <acc value="0.2018810987" flag="0"/>
      <vel value="0.1097300335" flag="0"/>
      <psa03 value="0.4548200838" flag="0"/>
      <psa10 value="0.1557806120" flag="0"/>
      <psa30 value="0.0468557906" flag="0"/>
    </comp>
    <comp name="--.HHE">
      <acc value="0.3410293284" flag="0"/>
      <vel value="0.2157777171" flag="0"/>
      <psa03 value="0.9656402487" flag="0"/>
      <psa10 value="0.2827034210" flag="0"/>
      <psa30 value="0.0487847483" flag="0"/>
    </comp>
  </station>
  <station code="ZKR" name="ZKR" netid="GE" insttype="STS-2/N" commtype="DIG" lat="35.1147" lon="26.2169">
    <comp name="--.HHE">
      <acc value="1.6339532988" flag="0"/>
      <vel value="1.1347647443" flag="0"/>
      <psa03 value="4.9886454008" flag="0"/>
      <psa10 value="1.1529825212" flag="0"/>
      <psa30 value="0.1115808208" flag="0"/>
    </comp>
    <comp name="--.HHN">
      <acc value="0.7304344753" flag="0"/>
      <vel value="0.6966971342" flag="0"/>
      <psa03 value="1.9743749888" flag="0"/>
      <psa10 value="1.1286253040" flag="0"/>
      <psa30 value="0.0889931301" flag="0"/>
    </comp>
    <comp name="--.HHZ">
      <acc value="0.8525509960" flag="0"/>
      <vel value="0.4966005443" flag="0"/>
      <psa03 value="1.4238866351" flag="0"/>
      <psa10 value="0.8191538617" flag="0"/>
      <psa30 value="0.0604204371" flag="0"/>
    </comp>
  </station>
  <station code="IOSI" name="IOSI" netid="HA" insttype="60s," commtype="DIG" lat="36.7225" lon="25.2887">
    <comp name="--.HHN">
      <acc value="0.2083169597" flag="0"/>
      <vel value="0.1527941125" flag="0"/>
      <psa03 value="0.7682738273" flag="0"/>
      <psa10 value="0.1837315463" flag="0"/>
      <psa30 value="0.0216344615" flag="0"/>
    </comp>
    <comp name="--.HHE">
      <acc value="0.2274218799" flag="0"/>
      <vel value="0.1794750861" flag="0"/>
      <psa03 value="0.5118936283" flag="0"/>
      <psa10 value="0.2616254129" flag="0"/>
      <psa30 value="0.0253410790" flag="0"/>
    </comp>
    <comp name="--.HHZ">
      <acc value="0.1400046165" flag="0"/>
      <vel value="0.0663853424" flag="0"/>
      <psa03 value="0.3136847417" flag="0"/>
      <psa10 value="0.0632237113" flag="0"/>
      <psa30 value="0.0159910870" flag="0"/>
    </comp>
  </station>
  <station code="SNT1" name="SNT1" netid="HA" insttype="30" commtype="DIG" lat="36.4159" lon="25.4282">
    <comp name="--.HHE">
      <acc value="0.0922255674" flag="0"/>
      <vel value="0.1172318463" flag="0"/>
      <psa03 value="0.1983857387" flag="0"/>
      <psa10 value="0.1856173369" flag="0"/>
      <psa30 value="0.0375506748" flag="0"/>
    </comp>
    <comp name="--.HHN">
      <acc value="0.1083056253" flag="0"/>
      <vel value="0.1046791261" flag="0"/>
      <psa03 value="0.1757678299" flag="0"/>
      <psa10 value="0.1180176816" flag="0"/>
      <psa30 value="0.0292784986" flag="0"/>
    </comp>
    <comp name="--.HHZ">
      <acc value="0.1036711037" flag="0"/>
      <vel value="0.0524104024" flag="0"/>
      <psa03 value="0.1337926282" flag="0"/>
      <psa10 value="0.1000889348" flag="0"/>
      <psa30 value="0.0153777258" flag="0"/>
    </comp>
  </station>
  <station code="SNT5" name="SNT5" netid="HA" insttype="1s-100Hz," commtype="DIG" lat="36.4037" lon="25.3953">
    <comp name="--.HHZ">
      <acc value="0.1587984283" flag="0"/>
      <vel value="0.0777648893" flag="0"/>
      <psa03 value="0.3054786701" flag="0"/>
      <psa10 value="0.0792109794" flag="0"/>
      <psa30 value="0.0274074118" flag="0"/>
    </comp>
    <comp name="--.HHN">
      <acc value="0.2105120284" flag="0"/>
      <vel value="0.1654048598" flag="0"/>
      <psa03 value="0.5771154849" flag="0"/>
      <psa10 value="0.0973191298" flag="0"/>
      <psa30 value="0.0533637695" flag="0"/>
    </comp>
    <comp name="--.HHE">
      <acc value="0.3963749439" flag="0"/>
      <vel value="0.1680005878" flag="0"/>
      <psa03 value="0.7292376901" flag="0"/>
      <psa10 value="0.1398670306" flag="0"/>
      <psa30 value="0.0820471765" flag="0"/>
    </comp>
  </station>
  <station code="IMOD" name="IMOD" netid="HC" insttype="120" commtype="DIG" lat="34.9731" lon="24.7995">
    <comp name="--.HHE">
      <acc value="0.2787735595" flag="0"/>
      <vel value="0.3078054485" flag="0"/>
      <psa03 value="0.6753013784" flag="0"/>
      <psa10 value="0.3391428901" flag="0"/>
      <psa30 value="0.0480424988" flag="0"/>
    </comp>
    <comp name="--.HHZ">
      <acc value="0.1458828975" flag="0"/>
      <vel value="0.1438567825" flag="0"/>
      <psa03 value="0.3175401981" flag="0"/>
      <psa10 value="0.2013852674" flag="0"/>
      <psa30 value="0.0429538533" flag="0"/>
    </comp>
    <comp name="--.HHN">
      <acc value="0.2871218742" flag="0"/>
      <vel value="0.2000631182" flag="0"/>
      <psa03 value="1.2024462125" flag="0"/>
      <psa10 value="0.3806726249" flag="0"/>
      <psa30 value="0.0452878015" flag="0"/>
    </comp>
  </station>
  <station code="KNSS" name="KNSS" netid="HC" insttype="60" commtype="DIG" lat="35.3042" lon="25.1802">
    <comp name="--.HHZ">
      <acc value="0.2565021099" flag="0"/>
      <vel value="0.1306025920" flag="0"/>
      <psa03 value="0.5867171113" flag="0"/>
      <psa10 value="0.1855513554" flag="0"/>
      <psa30 value="0.0559293298" flag="0"/>
    </comp>
    <comp name="--.HHE">
      <acc value="17.2696094528" flag="0"/>
      <vel value="1.0375454865" flag="0"/>
      <psa03 value="1.9465075133" flag="0"/>
      <psa10 value="1.0916725720" flag="0"/>
      <psa30 value="0.1890625946" flag="0"/>
    </comp>
    <comp name="--.HHN">
      <acc value="0.3508789249" flag="0"/>
      <vel value="0.3838309872" flag="0"/>
      <psa03 value="0.8166605427" flag="0"/>
      <psa10 value="0.3608725361" flag="0"/>
      <psa30 value="0.1281851120" flag="0"/>
    </comp>
  </station>
  <station code="KOSP" name="KOSP" netid="HC" insttype="60" commtype="DIG" lat="36.881" lon="27.281">
    <comp name="--.HHE">
      <acc value="0.1079324069" flag="0"/>
      <vel value="0.1341048942" flag="0"/>
      <psa03 value="0.3023211354" flag="0"/>
      <psa10 value="0.1388041039" flag="0"/>
      <psa30 value="0.0600612504" flag="0"/>
    </comp>
    <comp name="--.HHZ">
      <acc value="0.0852978670" flag="0"/>
      <vel value="0.0795624654" flag="0"/>
      <psa03 value="0.1798911240" flag="0"/>
      <psa10 value="0.1182905841" flag="0"/>
      <psa30 value="0.0330542803" flag="0"/>
    </comp>
    <comp name="--.HHN">
      <acc value="0.1226310858" flag="0"/>
      <vel value="0.1263372072" flag="0"/>
      <psa03 value="0.4082728089" flag="0"/>
      <psa10 value="0.1595510077" flag="0"/>
      <psa30 value="0.0889675451" flag="0"/>
    </comp>
  </station>
  <station code="PFKS" name="PFKS" netid="HC" insttype="120" commtype="DIG" lat="35.0429" lon="25.4733">
    <comp name="--.HHN">
      <acc value="0.4896473831" flag="0"/>
      <vel value="0.5724167167" flag="0"/>
      <psa03 value="0.9743499350" flag="0"/>
      <psa10 value="0.7538401297" flag="0"/>
      <psa30 value="0.0936561973" flag="0"/>
    </comp>
    <comp name="--.HHE">
      <acc value="0.5190719659" flag="0"/>
      <vel value="0.4511783640" flag="0"/>
      <psa03 value="1.3521250191" flag="0"/>
      <psa10 value="0.7331336975" flag="0"/>
      <psa30 value="0.0489771123" flag="0"/>
    </comp>
    <comp name="--.HHZ">
      <acc value="0.2707951448" flag="0"/>
      <vel value="0.3340802944" flag="0"/>
      <psa03 value="0.7749347454" flag="0"/>
      <psa10 value="0.3865360253" flag="0"/>
      <psa30 value="0.0447490722" flag="0"/>
    </comp>
  </station>
  <station code="TEFL" name="TEFL" netid="HC" insttype="GEOtiny," commtype="DIG" lat="35.0933" lon="25.1634">
    <comp name="--.HHN">
      <acc value="0.7543875500" flag="0"/>
      <vel value="0.4373795600" flag="0"/>
      <psa03 value="1.2969369370" flag="0"/>
      <psa10 value="0.5891856043" flag="0"/>
      <psa30 value="0.1758545298" flag="0"/>
    </comp>
    <comp name="--.HHZ">
      <acc value="0.3377904087" flag="0"/>
      <vel value="0.2800473202" flag="0"/>
      <psa03 value="0.8174669051" flag="0"/>
      <psa10 value="0.4426367064" flag="0"/>
      <psa30 value="0.0771170594" flag="0"/>
    </comp>
    <comp name="--.HHE">
      <acc value="0.7378914724" flag="0"/>
      <vel value="0.4275749813" flag="0"/>
      <psa03 value="1.4080293048" flag="0"/>
      <psa10 value="0.8360744805" flag="0"/>
      <psa30 value="0.1250376571" flag="0"/>
    </comp>
  </station>
  <station code="AGN1" name="AGN1" netid="HI" insttype="unknown" commtype="DIG" lat="35.1879" lon="25.7155">
    <comp name="--.HNN">
      <acc value="0.7150462578" flag="0"/>
      <vel value="0.4155899962" flag="0"/>
      <psa03 value="1.6022636186" flag="0"/>
      <psa10 value="0.4829624463" flag="0"/>
      <psa30 value="0.0991540060" flag="0"/>
    </comp>
    <comp name="--.HNE">
      <acc value="0.6605135622" flag="0"/>
      <vel value="0.3788402798" flag="0"/>
      <psa03 value="1.7363170667" flag="0"/>
      <psa10 value="0.3293015563" flag="0"/>
      <psa30 value="0.1177186191" flag="0"/>
    </comp>
    <comp name="--.HNZ">
      <acc value="0.2513346065" flag="0"/>
      <vel value="0.1871464083" flag="0"/>
      <psa03 value="0.4846877334" flag="0"/>
      <psa10 value="0.2565802621" flag="0"/>
      <psa30 value="0.0851146763" flag="0"/>
    </comp>
  </station>
  <station code="ARK1" name="ARK1" netid="HI" insttype="unknown" commtype="DIG" lat="35.1488" lon="25.2642">
    <comp name="--.HNE">
      <acc value="0.4444640173" flag="0"/>
      <vel value="0.8073984164" flag="0"/>
      <psa03 value="1.1394294953" flag="0"/>
      <psa10 value="1.2404359365" flag="0"/>
      <psa30 value="0.1560838391" flag="0"/>
    </comp>
    <comp name="--.HNN">
      <acc value="0.5525884509" flag="0"/>
      <vel value="0.6565445994" flag="0"/>
      <psa03 value="0.8870111251" flag="0"/>
      <psa10 value="0.8718508575" flag="0"/>
      <psa30 value="0.2043884661" flag="0"/>
    </comp>
    <comp name="--.HNZ">
      <acc value="0.3332525111" flag="0"/>
      <vel value="0.3630917640" flag="0"/>
      <psa03 value="0.6361746835" flag="0"/>
      <psa10 value="0.4371572028" flag="0"/>
      <psa30 value="0.1797375737" flag="0"/>
    </comp>
  </station>
  <station code="GOR1" name="GOR1" netid="HI" insttype="unknown" commtype="DIG" lat="35.0582" lon="24.9628">
    <comp name="--.HNZ">
      <acc value="0.1667655386" flag="0"/>
      <vel value="0.3035623880" flag="0"/>
      <psa03 value="0.4507561474" flag="0"/>
      <psa10 value="0.4337231928" flag="0"/>
      <psa30 value="0.1039020985" flag="0"/>
    </comp>
    <comp name="--.HNE">
      <acc value="0.2703630431" flag="0"/>
      <vel value="0.3533592748" flag="0"/>
      <psa03 value="0.8782570973" flag="0"/>
      <psa10 value="0.5491198624" flag="0"/>
      <psa30 value="0.2029264314" flag="0"/>
    </comp>
    <comp name="--.HNN">
      <acc value="0.2216256979" flag="0"/>
      <vel value="0.3880801207" flag="0"/>
      <psa03 value="0.5829789500" flag="0"/>
      <psa10 value="0.5924592600" flag="0"/>
      <psa30 value="0.1508192424" flag="0"/>
    </comp>
  </station>
  <station code="HER1" name="HER1" netid="HI" insttype="unknown" commtype="DIG" lat="35.3177" lon="25.1022">
    <comp name="--.HNE">
      <acc value="1.1820150233" flag="0"/>
      <vel value="1.9108820280" flag="0"/>
      <psa03 value="2.5490651297" flag="0"/>
      <psa10 value="2.7239415694" flag="0"/>
      <psa30 value="0.2833243628" flag="0"/>
    </comp>
    <comp name="--.HNN">
      <acc value="1.1153070559" flag="0"/>
      <vel value="1.6958650547" flag="0"/>
      <psa03 value="2.2289903571" flag="0"/>
      <psa10 value="3.1851098767" flag="0"/>
      <psa30 value="0.1897235072" flag="0"/>
    </comp>
    <comp name="--.HNZ">
      <acc value="1.0559119801" flag="0"/>
      <vel value="1.0412260369" flag="0"/>
      <psa03 value="1.9101590990" flag="0"/>
      <psa10 value="2.1420899070" flag="0"/>
      <psa30 value="0.0787190779" flag="0"/>
    </comp>
  </station>
  <station code="HER3" name="HER3" netid="HI" insttype="unknown" commtype="DIG" lat="35.3296" lon="25.1065">
    <comp name="--.HNE">
      <acc value="1.0620804996" flag="0"/>
      <vel value="1.4696159700" flag="0"/>
      <psa03 value="3.0749193356" flag="0"/>
      <psa10 value="2.3449613937" flag="0"/>
      <psa30 value="0.1824627529" flag="0"/>
    </comp>
    <comp name="--.HNZ">
      <acc value="0.6724021267" flag="0"/>
      <vel value="0.5659107260" flag="0"/>
      <psa03 value="1.6960193778" flag="0"/>
      <psa10 value="1.1433221715" flag="0"/>
      <psa30 value="0.0575200003" flag="0"/>
    </comp>
    <comp name="--.HNN">
      <acc value="1.2694051476" flag="0"/>
      <vel value="1.3476871878" flag="0"/>
      <psa03 value="2.4224616708" flag="0"/>
      <psa10 value="2.4805506824" flag="0"/>
      <psa30 value="0.1971742937" flag="0"/>
    </comp>
  </station>
  <station code="KSS1" name="KSS1" netid="HI" insttype="CMG-5TD,ACCELEROMETER,GURALP" commtype="DIG" lat="35.4189" lon="26.9207">
    <comp name="--.HNN">
      <acc value="3.6316152201" flag="0"/>
      <vel value="2.4247741876" flag="0"/>
      <psa03 value="14.4148379989" flag="0"/>
      <psa10 value="1.7463845190" flag="0"/>
      <psa30 value="0.3680930608" flag="0"/>
    </comp>
    <comp name="--.HNE">
      <acc value="1.5865227754" flag="0"/>
      <vel value="1.1919198767" flag="0"/>
      <psa03 value="5.4630701134" flag="0"/>
      <psa10 value="1.7519876456" flag="0"/>
      <psa30 value="0.2069965309" flag="0"/>
    </comp>
    <comp name="--.HNZ">
      <acc value="1.2961712633" flag="0"/>
      <vel value="0.8169761198" flag="0"/>
      <psa03 value="1.5826913860" flag="0"/>
      <psa10 value="0.6269411231" flag="0"/>
      <psa30 value="0.1383117422" flag="0"/>
    </comp>
  </station>
  <station code="KTL1" name="KTL1" netid="HI" insttype="unknown" commtype="DIG" lat="35.2078" lon="25.3427">
    <comp name="--.HNZ">
      <acc value="0.2823243630" flag="0"/>
      <vel value="0.2977086980" flag="0"/>
      <psa03 value="0.7047977592" flag="0"/>
      <psa10 value="0.2374218436" flag="0"/>
      <psa30 value="0.0754555689" flag="0"/>
    </comp>
    <comp name="--.HNE">
      <acc value="0.5486565831" flag="0"/>
      <vel value="0.6990419289" flag="0"/>
      <psa03 value="1.5409339865" flag="0"/>
      <psa10 value="0.6856746356" flag="0"/>
      <psa30 value="0.1339438607" flag="0"/>
    </comp>
    <comp name="--.HNN">
      <acc value="0.6783287277" flag="0"/>
      <vel value="0.4636779654" flag="0"/>
      <psa03 value="2.5983805842" flag="0"/>
      <psa10 value="0.6571878891" flag="0"/>
      <psa30 value="0.1127893814" flag="0"/>
    </comp>
  </station>
  <station code="RDI1" name="RDI1" netid="HI" insttype="CMG-5TD,ACCELEROMETER,GURALP" commtype="DIG" lat="36.4514" lon="28.224">
    <comp name="--.HNE">
      <acc value="0.3409051979" flag="0"/>
      <vel value="0.5058068335" flag="0"/>
      <psa03 value="0.7389118450" flag="0"/>
      <psa10 value="0.6075090488" flag="0"/>
      <psa30 value="0.2421121005" flag="0"/>
    </comp>
    <comp name="--.HNN">
      <acc value="0.5028462581" flag="0"/>
      <vel value="0.4090551934" flag="0"/>
      <psa03 value="1.6493120504" flag="0"/>
      <psa10 value="0.4683761997" flag="0"/>
      <psa30 value="0.2471687027" flag="0"/>
    </comp>
    <comp name="--.HNZ">
      <acc value="0.2038926385" flag="0"/>
      <vel value="0.2548736257" flag="0"/>
      <psa03 value="0.5199327627" flag="0"/>
      <psa10 value="0.2878878341" flag="0"/>
      <psa30 value="0.0746877483" flag="0"/>
    </comp>
  </station>
  <station code="RPN1" name="RPN1" netid="HI" insttype="unknown" commtype="DIG" lat="36.4487" lon="28.218">
    <comp name="--.HNE">
      <acc value="0.5783314281" flag="0"/>
      <vel value="0.6366642713" flag="0"/>
      <psa03 value="1.4720948569" flag="0"/>
      <psa10 value="0.7958381991" flag="0"/>
      <psa30 value="0.2484290700" flag="0"/>
    </comp>
    <comp name="--.HNZ">
      <acc value="0.2846534766" flag="0"/>
      <vel value="0.2600469645" flag="0"/>
      <psa03 value="0.4765722727" flag="0"/>
      <psa10 value="0.3488320054" flag="0"/>
      <psa30 value="0.1085776132" flag="0"/>
    </comp>
    <comp name="--.HNN">
      <acc value="0.5365358416" flag="0"/>
      <vel value="0.5302129321" flag="0"/>
      <psa03 value="1.1435236003" flag="0"/>
      <psa10 value="0.5999252274" flag="0"/>
      <psa30 value="0.2205485133" flag="0"/>
    </comp>
  </station>
  <station code="RTH1" name="RTH1" netid="HI" insttype="unknown" commtype="DIG" lat="35.3654" lon="24.4718">
    <comp name="--.HNZ">
      <acc value="0.1619744255" flag="0"/>
      <vel value="0.1262406122" flag="0"/>
      <psa03 value="0.2854222476" flag="0"/>
      <psa10 value="0.1368054951" flag="0"/>
      <psa30 value="0.0339111548" flag="0"/>
    </comp>
    <comp name="--.HNN">
      <acc value="0.2344125000" flag="0"/>
      <vel value="0.1611913086" flag="0"/>
      <psa03 value="0.6530742607" flag="0"/>
      <psa10 value="0.1388615962" flag="0"/>
      <psa30 value="0.0496599127" flag="0"/>
    </comp>
    <comp name="--.HNE">
      <acc value="0.2100411267" flag="0"/>
      <vel value="0.1840741065" flag="0"/>
      <psa03 value="0.6498146475" flag="0"/>
      <psa10 value="0.1746706133" flag="0"/>
      <psa30 value="0.0561789856" flag="0"/>
    </comp>
  </station>
  <station code="SFR2" name="SFR2" netid="HI" insttype="unknown" commtype="DIG" lat="36.3998" lon="25.4382">
    <comp name="--.HNE">
      <acc value="0.8181382589" flag="0"/>
      <vel value="0.6341561416" flag="0"/>
      <psa03 value="2.0119153653" flag="0"/>
      <psa10 value="0.8991477084" flag="0"/>
      <psa30 value="0.0933945069" flag="0"/>
    </comp>
    <comp name="--.HNN">
      <acc value="0.4077990888" flag="0"/>
      <vel value="0.1467810124" flag="0"/>
      <psa03 value="0.3008736805" flag="0"/>
      <psa10 value="0.1361476196" flag="0"/>
      <psa30 value="0.0202630005" flag="0"/>
    </comp>
    <comp name="--.HNZ">
      <acc value="0.6727914106" flag="0"/>
      <vel value="0.3254973654" flag="0"/>
      <psa03 value="2.1256513948" flag="0"/>
      <psa10 value="0.4512556844" flag="0"/>
      <psa30 value="0.0436870452" flag="0"/>
    </comp>
  </station>
