<?xml version="1.0" encoding="UTF-8" standalone="yes"?>
<!DOCTYPE earthquake SYSTEM "stationlist.dtd">
<stationlist created="" xmlns="ch.ethz.sed.shakemap.usgs.xml">
  <station code="KARP" name="KARP" netid="GE" insttype="STS-2/N" commtype="DIG" lat="35.5471" lon="27.1611">
    <comp name="--.HHN">
      <acc value="0.0777705605" flag="0"/>
      <vel value="0.0060991749" flag="0"/>
      <psa03 value="0.0188893668" flag="0"/>
      <psa10 value="0.0013079530" flag="0"/>
      <psa30 value="0.0000791112" flag="0"/>
    </comp>
    <comp name="--.HHE">
      <acc value="0.0962108707" flag="0"/>
      <vel value="0.0078171296" flag="0"/>
      <psa03 value="0.0249239184" flag="0"/>
      <psa10 value="0.0010635063" flag="0"/>
      <psa30 value="0.0000686267" flag="0"/>
    </comp>
    <comp name="--.HHZ">
      <acc value="0.0691825005" flag="0"/>
      <vel value="0.0071518483" flag="0"/>
      <psa03 value="0.0283166912" flag="0"/>
      <psa10 value="0.0015839505" flag="0"/>
      <psa30 value="0.0001291749" flag="0"/>
    </comp>
  </station>
  <station code="THERA" name="THERA" netid="GE" insttype="STS-2/N" commtype="DIG" lat="36.367" lon="25.4753">
    <comp name="--.HHZ">
      <acc value="0.2018810985" flag="0"/>
      <vel value="0.1097300328" flag="0"/>
      <psa03 value="0.4548200838" flag="0"/>
      <psa10 value="0.1557806120" flag="0"/>
      <psa30 value="0.0468557900" flag="0"/>
    </comp>
    <comp name="--.HHE">
      <acc value="0.3410293283" flag="0"/>
      <vel value="0.2157777178" flag="0"/>
      <psa03 value="0.9656402487" flag="0"/>
      <psa10 value="0.2827034210" flag="0"/>
      <psa30 value="0.0487847518" flag="0"/>
    </comp>
    <comp name="--.HHN">
      <acc value="0.0733750516" flag="0"/>
      <vel value="0.0188191636" flag="0"/>
      <psa03 value="0.0663064520" flag="0"/>
      <psa10 value="0.0151990965" flag="0"/>
      <psa30 value="0.0051894916" flag="0"/>
    </comp>
  </station>
  <station code="ZKR" name="ZKR" netid="GE" insttype="STS-2/N" commtype="DIG" lat="35.1147" lon="26.2169">
    <comp name="--.HHN">
      <acc value="0.7304344759" flag="0"/>
      <vel value="0.6966971344" flag="0"/>
      <psa03 value="1.9743749888" flag="0"/>
      <psa10 value="1.1286253045" flag="0"/>
      <psa30 value="0.0889933150" flag="0"/>
    </comp>
    <comp name="--.HHZ">
      <acc value="0.8525509953" flag="0"/>
      <vel value="0.4966005456" flag="0"/>
      <psa03 value="1.4238866351" flag="0"/>
      <psa10 value="0.8191538603" flag="0"/>
      <psa30 value="0.0604203560" flag="0"/>
    </comp>
    <comp name="--.HHE">
      <acc value="1.6339532990" flag="0"/>
      <vel value="1.1347647517" flag="0"/>
      <psa03 value="4.9886454008" flag="0"/>
      <psa10 value="1.1529825214" flag="0"/>
      <psa30 value="0.1115812176" flag="0"/>
    </comp>
  </station>
  <station code="DAT" name="DAT" netid="KO" insttype="CMG-3T" commtype="DIG" lat="36.7308" lon="27.5767">
    <comp name="--.HHZ">
      <acc value="0.0000347404" flag="0"/>
      <vel value="0.0000029495" flag="0"/>
      <psa03 value="0.0000115321" flag="0"/>
      <psa10 value="0.0000026635" flag="0"/>
      <psa30 value="0.0000010164" flag="0"/>
    </comp>
    <comp name="--.HHN">
      <acc value="0.2272117904" flag="0"/>
      <vel value="0.1031742503" flag="0"/>
      <psa03 value="0.4677971685" flag="0"/>
      <psa10 value="0.1377415807" flag="0"/>
      <psa30 value="0.0362189837" flag="0"/>
    </comp>
    <comp name="--.HHE">
      <acc value="0.2200027496" flag="0"/>
      <vel value="0.1262767295" flag="0"/>
      <psa03 value="0.4545861603" flag="0"/>
      <psa10 value="0.1597411142" flag="0"/>
      <psa30 value="0.0389004415" flag="0"/>
    </comp>
  </station>
</stationlist>
