<?xml version="1.0" encoding="UTF-8" standalone="yes"?>
<!DOCTYPE earthquake SYSTEM "stationlist.dtd">
<stationlist created="" xmlns="ch.ethz.sed.shakemap.usgs.xml">
  <station code="MYT1" name="MYT1" netid="HI" insttype="CMG-5TD,ACCELEROMETER,GURALP" commtype="DIG" lat="39.085" lon="26.5694">
    <comp name="--.HNN">
      <acc value="0.0357229489" flag="0"/>
      <vel value="0.0382917561" flag="0"/>
      <psa03 value="0.0751003209" flag="0"/>
      <psa10 value="0.0784957134" flag="0"/>
      <psa30 value="0.0093197590" flag="0"/>
    </comp>
    <comp name="--.HNZ">
      <acc value="0.0213508705" flag="0"/>
      <vel value="0.0163899686" flag="0"/>
      <psa03 value="0.0569886050" flag="0"/>
      <psa10 value="0.0230907801" flag="0"/>
      <psa30 value="0.0042262195" flag="0"/>
    </comp>
    <comp name="--.HNE">
      <acc value="0.0441196438" flag="0"/>
      <vel value="0.0368211988" flag="0"/>
      <psa03 value="0.1206997372" flag="0"/>
      <psa10 value="0.0578409535" flag="0"/>
      <psa30 value="0.0075239396" flag="0"/>
    </comp>
  </station>
  <station code="AKS" name="AKS" netid="KO" insttype="CMG-5T" commtype="DIG" lat="38.8785" lon="27.8129">
    <comp name="--.HNN">
      <acc value="0.2129393526" flag="0"/>
      <vel value="0.1177704780" flag="0"/>
      <psa03 value="0.6639227728" flag="0"/>
      <psa10 value="0.0620115270" flag="0"/>
      <psa30 value="0.0106908955" flag="0"/>
    </comp>
    <comp name="--.HNE">
      <acc value="0.2547363758" flag="0"/>
      <vel value="0.1491939143" flag="0"/>
      <psa03 value="0.7911870307" flag="0"/>
      <psa10 value="0.1001147533" flag="0"/>
      <psa30 value="0.0076933402" flag="0"/>
    </comp>
    <comp name="--.HNZ">
      <acc value="0.1185660768" flag="0"/>
      <vel value="0.0356443403" flag="0"/>
      <psa03 value="0.1650649377" flag="0"/>
      <psa10 value="0.0246768136" flag="0"/>
      <psa30 value="0.0074333291" flag="0"/>
    </comp>
  </station>
  <station code="AYDB" name="AYDB" netid="KO" insttype="CMG-3ESPC" commtype="DIG" lat="37.9467" lon="27.8908">
    <comp name="--.HHZ">
      <acc value="0.0437681636" flag="0"/>
      <vel value="0.0194006233" flag="0"/>
      <psa03 value="0.0705460122" flag="0"/>
      <psa10 value="0.0142621339" flag="0"/>
      <psa30 value="0.0018215845" flag="0"/>
    </comp>
    <comp name="--.HHE">
      <acc value="0.0616716182" flag="0"/>
      <vel value="0.0255184119" flag="0"/>
      <psa03 value="0.1663918124" flag="0"/>
      <psa10 value="0.0184834901" flag="0"/>
      <psa30 value="0.0035966443" flag="0"/>
    </comp>
  </station>
  <station code="AYVL" name="AYVL" netid="KO" insttype="CMG-6T" commtype="DIG" lat="39.2907" lon="26.69">
    <comp name="--.HHE">
      <acc value="0.1163785389" flag="0"/>
      <vel value="0.0656740949" flag="0"/>
      <psa03 value="0.2838579346" flag="0"/>
      <psa10 value="0.0264057351" flag="0"/>
      <psa30 value="0.0018093046" flag="0"/>
    </comp>
    <comp name="--.HHN">
      <acc value="0.1432461763" flag="0"/>
      <vel value="0.0671982896" flag="0"/>
      <psa03 value="0.3253759723" flag="0"/>
      <psa10 value="0.0257084931" flag="0"/>
      <psa30 value="0.0019979547" flag="0"/>
    </comp>
    <comp name="--.HHZ">
      <acc value="0.0434855695" flag="0"/>
      <vel value="0.0213400658" flag="0"/>
      <psa03 value="0.0860360449" flag="0"/>
      <psa10 value="0.0150907794" flag="0"/>
      <psa30 value="0.0009086251" flag="0"/>
    </comp>
  </station>
  <station code="BALB" name="BALB" netid="KO" insttype="CMG-5T" commtype="DIG" lat="39.6507" lon="27.8642">
    <comp name="--.HNE">
      <acc value="0.2322994055" flag="0"/>
      <vel value="0.0986838423" flag="0"/>
      <psa03 value="0.3929416923" flag="0"/>
      <psa10 value="0.1033597751" flag="0"/>
      <psa30 value="0.0097323042" flag="0"/>
    </comp>
    <comp name="--.HNN">
      <acc value="0.2149524018" flag="0"/>
      <vel value="0.1335173186" flag="0"/>
      <psa03 value="0.4473793907" flag="0"/>
      <psa10 value="0.2299191635" flag="0"/>
      <psa30 value="0.0110870936" flag="0"/>
    </comp>
    <comp name="--.HNZ">
      <acc value="0.1446500086" flag="0"/>
      <vel value="0.0870220648" flag="0"/>
      <psa03 value="0.3232623189" flag="0"/>
      <psa10 value="0.0613765408" flag="0"/>
      <psa30 value="0.0093184498" flag="0"/>
    </comp>
  </station>
  <station code="BIGA" name="BIGA" netid="KO" insttype="CMG-5T" commtype="DIG" lat="40.2813" lon="27.1505">
    <comp name="--.HNE">
      <acc value="0.1125374964" flag="0"/>
      <vel value="0.0422080123" flag="0"/>
      <psa03 value="0.2269506460" flag="0"/>
      <psa10 value="0.0584254963" flag="0"/>
      <psa30 value="0.0056613702" flag="0"/>
    </comp>
    <comp name="--.HNN">
      <acc value="0.1105223739" flag="0"/>
      <vel value="0.0472940161" flag="0"/>
      <psa03 value="0.4194264307" flag="0"/>
      <psa10 value="0.0410068705" flag="0"/>
      <psa30 value="0.0048888450" flag="0"/>
    </comp>
    <comp name="--.HNZ">
      <acc value="0.0419772435" flag="0"/>
      <vel value="0.0145216980" flag="0"/>
      <psa03 value="0.0587005808" flag="0"/>
      <psa10 value="0.0151045144" flag="0"/>
      <psa30 value="0.0024042065" flag="0"/>
    </comp>
  </station>
  <station code="BLCB" name="BLCB" netid="KO" insttype="CMG-3T" commtype="DIG" lat="38.3853" lon="27.042">
    <comp name="--.HHE">
      <acc value="0.0551230398" flag="0"/>
      <vel value="0.0229019376" flag="0"/>
      <psa03 value="0.1332004923" flag="0"/>
      <psa10 value="0.0270697803" flag="0"/>
      <psa30 value="0.0047594170" flag="0"/>
    </comp>
    <comp name="--.HHZ">
      <acc value="0.0376982657" flag="0"/>
      <vel value="0.0149069330" flag="0"/>
      <psa03 value="0.1024984553" flag="0"/>
      <psa10 value="0.0156078486" flag="0"/>
      <psa30 value="0.0019859613" flag="0"/>
    </comp>
    <comp name="--.HHN">
      <acc value="0.0000467832" flag="0"/>
      <vel value="0.0000172899" flag="0"/>
      <psa03 value="0.0000867916" flag="0"/>
      <psa10 value="0.0000198210" flag="0"/>
      <psa30 value="0.0000028022" flag="0"/>
    </comp>
  </station>
  <station code="BMYO" name="BMYO" netid="KO" insttype="CMG-5T" commtype="DIG" lat="39.8098" lon="26.6009">
    <comp name="--.HNZ">
      <acc value="0.0334589921" flag="0"/>
      <vel value="0.0275248122" flag="0"/>
      <psa03 value="0.0928194855" flag="0"/>
      <psa10 value="0.0315693244" flag="0"/>
      <psa30 value="0.0047530681" flag="0"/>
    </comp>
    <comp name="--.HNE">
      <acc value="0.0816950999" flag="0"/>
      <vel value="0.0420580135" flag="0"/>
      <psa03 value="0.2267494108" flag="0"/>
      <psa10 value="0.0481640773" flag="0"/>
      <psa30 value="0.0051496339" flag="0"/>
    </comp>
    <comp name="--.HNN">
      <acc value="0.0857669416" flag="0"/>
      <vel value="0.0704726062" flag="0"/>
      <psa03 value="0.3149714730" flag="0"/>
      <psa10 value="0.0775124117" flag="0"/>
      <psa30 value="0.0058795967" flag="0"/>
    </comp>
  </station>
  <station code="CANM" name="CANM" netid="KO" insttype="CMG-5T" commtype="DIG" lat="40.0113" lon="27.0529">
    <comp name="--.HNN">
      <acc value="0.0779445694" flag="0"/>
      <vel value="0.0704026462" flag="0"/>
      <psa03 value="0.1723703291" flag="0"/>
      <psa10 value="0.1190245108" flag="0"/>
      <psa30 value="0.0077395892" flag="0"/>
    </comp>
    <comp name="--.HNZ">
      <acc value="0.0821485645" flag="0"/>
      <vel value="0.0463473404" flag="0"/>
      <psa03 value="0.2335552685" flag="0"/>
      <psa10 value="0.0260903705" flag="0"/>
      <psa30 value="0.0036893513" flag="0"/>
    </comp>
    <comp name="--.HNE">
      <acc value="0.0739655320" flag="0"/>
      <vel value="0.0428499860" flag="0"/>
      <psa03 value="0.1777568051" flag="0"/>
      <psa10 value="0.0517845920" flag="0"/>
      <psa30 value="0.0052888327" flag="0"/>
    </comp>
  </station>
  <station code="DKL" name="DKL" netid="KO" insttype="CMG-3ESPC" commtype="DIG" lat="39.0713" lon="26.9053">
    <comp name="--.HHN">
      <acc value="0.0268555438" flag="0"/>
      <vel value="0.0256678430" flag="0"/>
      <psa03 value="0.0559357437" flag="0"/>
      <psa10 value="0.0193134734" flag="0"/>
      <psa30 value="0.0035239754" flag="0"/>
    </comp>
    <comp name="--.HHE">
      <acc value="0.0230471211" flag="0"/>
      <vel value="0.0171159703" flag="0"/>
      <psa03 value="0.0599055568" flag="0"/>
      <psa10 value="0.0264086139" flag="0"/>
      <psa30 value="0.0048282244" flag="0"/>
    </comp>
  </station>
  <station code="DST" name="DST" netid="KO" insttype="CMG-5T" commtype="DIG" lat="39.6041" lon="28.6267">
    <comp name="--.HNE">
      <acc value="0.2256163554" flag="0"/>
      <vel value="0.1050487066" flag="0"/>
      <psa03 value="0.6716602401" flag="0"/>
      <psa10 value="0.0973259963" flag="0"/>
      <psa30 value="0.0096258201" flag="0"/>
    </comp>
    <comp name="--.HNZ">
      <acc value="0.1908018454" flag="0"/>
      <vel value="0.0770838484" flag="0"/>
      <psa03 value="0.5389398772" flag="0"/>
      <psa10 value="0.0565063969" flag="0"/>
      <psa30 value="0.0109638891" flag="0"/>
    </comp>
    <comp name="--.HNN">
      <acc value="0.2671367144" flag="0"/>
      <vel value="0.1079516316" flag="0"/>
      <psa03 value="0.4990393498" flag="0"/>
      <psa10 value="0.0666865458" flag="0"/>
      <psa30 value="0.0112247023" flag="0"/>
    </comp>
  </station>
  <station code="EDC" name="EDC" netid="KO" insttype="CMG-3T" commtype="DIG" lat="40.3465" lon="27.8618">
    <comp name="--.HHE">
      <acc value="0.1240548264" flag="0"/>
      <vel value="0.0990357981" flag="0"/>
      <psa03 value="0.2971428374" flag="0"/>
      <psa10 value="0.1210389022" flag="0"/>
      <psa30 value="0.0063288920" flag="0"/>
    </comp>
    <comp name="--.HHZ">
      <acc value="0.0477656107" flag="0"/>
      <vel value="0.0294007280" flag="0"/>
      <psa03 value="0.0969350924" flag="0"/>
      <psa10 value="0.0297244060" flag="0"/>
      <psa30 value="0.0035057222" flag="0"/>
    </comp>
    <comp name="--.HHN">
      <acc value="0.1326450087" flag="0"/>
      <vel value="0.0847472441" flag="0"/>
      <psa03 value="0.3296462846" flag="0"/>
      <psa10 value="0.0904903627" flag="0"/>
      <psa30 value="0.0055649214" flag="0"/>
    </comp>
  </station>
  <station code="GOMA" name="GOMA" netid="KO" insttype="CMG-5T" commtype="DIG" lat="38.7077" lon="27.9175">
    <comp name="--.HNZ">
      <acc value="0.1165512972" flag="0"/>
      <vel value="0.0390194246" flag="0"/>
      <psa03 value="0.1391431526" flag="0"/>
      <psa10 value="0.0172445697" flag="0"/>
      <psa30 value="0.0043050918" flag="0"/>
    </comp>
    <comp name="--.HNN">
      <acc value="0.1410972589" flag="0"/>
      <vel value="0.0745326334" flag="0"/>
      <psa03 value="0.4622828534" flag="0"/>
      <psa10 value="0.0309650910" flag="0"/>
      <psa30 value="0.0041152725" flag="0"/>
    </comp>
  </station>
  <station code="GONE" name="GONE" netid="KO" insttype="CMG-5T" commtype="DIG" lat="40.0466" lon="27.686">
    <comp name="--.HNZ">
      <acc value="0.1150267394" flag="0"/>
      <vel value="0.0377623125" flag="0"/>
      <psa03 value="0.1787053256" flag="0"/>
      <psa10 value="0.0239045300" flag="0"/>
      <psa30 value="0.0020484438" flag="0"/>
    </comp>
    <comp name="--.HNE">
      <acc value="0.1099591085" flag="0"/>
      <vel value="0.0554894353" flag="0"/>
      <psa03 value="0.2029782097" flag="0"/>
      <psa10 value="0.0935331610" flag="0"/>
      <psa30 value="0.0044516263" flag="0"/>
    </comp>
  </station>
  <station code="GORD" name="GORD" netid="KO" insttype="CMG-5T" commtype="DIG" lat="38.9088" lon="28.1769">
    <comp name="--.HNE">
      <acc value="0.1552196617" flag="0"/>
      <vel value="0.0661154540" flag="0"/>
      <psa03 value="0.3443553254" flag="0"/>
      <psa10 value="0.1119791367" flag="0"/>
      <psa30 value="0.0152319248" flag="0"/>
    </comp>
    <comp name="--.HNN">
      <acc value="0.1855598864" flag="0"/>
      <vel value="0.0790682649" flag="0"/>
      <psa03 value="0.3856165554" flag="0"/>
      <psa10 value="0.1191486461" flag="0"/>
      <psa30 value="0.0109102622" flag="0"/>
    </comp>
    <comp name="--.HNZ">
      <acc value="0.1481937307" flag="0"/>
      <vel value="0.0638704213" flag="0"/>
      <psa03 value="0.3096224359" flag="0"/>
      <psa10 value="0.0663686971" flag="0"/>
      <psa30 value="0.0102555817" flag="0"/>
    </comp>
  </station>
  <station code="KCTX" name="KCTX" netid="KO" insttype="CMG-3ESP" commtype="DIG" lat="40.2626" lon="28.3353">
    <comp name="--.HHZ">
      <acc value="0.1155994625" flag="0"/>
      <vel value="0.0609610464" flag="0"/>
      <psa03 value="0.3442176120" flag="0"/>
      <psa10 value="0.0447462749" flag="0"/>
      <psa30 value="0.0040436275" flag="0"/>
    </comp>
    <comp name="--.HHE">
      <acc value="0.0994264423" flag="0"/>
      <vel value="0.0802010509" flag="0"/>
      <psa03 value="0.2540515164" flag="0"/>
      <psa10 value="0.1431902861" flag="0"/>
      <psa30 value="0.0066337693" flag="0"/>
    </comp>
    <comp name="--.HHN">
      <acc value="0.2138989513" flag="0"/>
      <vel value="0.1219134601" flag="0"/>
      <psa03 value="0.6954161020" flag="0"/>
      <psa10 value="0.0998873182" flag="0"/>
      <psa30 value="0.0044660485" flag="0"/>
    </comp>
  </station>
  <station code="KRBG" name="KRBG" netid="KO" insttype="CMG-3ESP" commtype="DIG" lat="40.3932" lon="27.2977">
    <comp name="--.HHN">
      <acc value="0.0313410246" flag="0"/>
      <vel value="0.0220509814" flag="0"/>
      <psa03 value="0.0830630734" flag="0"/>
      <psa10 value="0.0269284607" flag="0"/>
      <psa30 value="0.0041575630" flag="0"/>
    </comp>
  </station>
  <station code="KULA" name="KULA" netid="KO" insttype="CMG-3T" commtype="DIG" lat="38.5145" lon="28.6607">
    <comp name="--.HHE">
      <acc value="0.0893182972" flag="0"/>
      <vel value="0.0319614101" flag="0"/>
      <psa03 value="0.1436288281" flag="0"/>
      <psa10 value="0.0251305658" flag="0"/>
      <psa30 value="0.0036219158" flag="0"/>
    </comp>
  </station>
  <station code="MDNY" name="MDNY" netid="KO" insttype="CMG-3ESP" commtype="DIG" lat="40.3709" lon="28.8846">
    <comp name="--.HHE">
      <acc value="0.9589961477" flag="0"/>
      <vel value="0.2843257330" flag="0"/>
      <psa03 value="3.0003846895" flag="0"/>
      <psa10 value="0.1372716289" flag="0"/>
      <psa30 value="0.0145597291" flag="0"/>
    </comp>
    <comp name="--.HHZ">
      <acc value="0.2491058872" flag="0"/>
      <vel value="0.1372086225" flag="0"/>
      <psa03 value="0.7976570275" flag="0"/>
      <psa10 value="0.0738564263" flag="0"/>
      <psa30 value="0.0089140424" flag="0"/>
    </comp>
    <comp name="--.HHN">
      <acc value="0.9513488483" flag="0"/>
      <vel value="0.2858438773" flag="0"/>
      <psa03 value="3.7460883431" flag="0"/>
      <psa10 value="0.1096105196" flag="0"/>
      <psa30 value="0.0111171941" flag="0"/>
    </comp>
  </station>
  <station code="NAZL" name="NAZL" netid="KO" insttype="CMG-5T" commtype="DIG" lat="37.9641" lon="28.2922">
    <comp name="--.HNZ">
      <acc value="0.0426674144" flag="0"/>
      <vel value="0.0156892783" flag="0"/>
      <psa03 value="0.0989267165" flag="0"/>
      <psa10 value="0.0106090591" flag="0"/>
      <psa30 value="0.0016520487" flag="0"/>
    </comp>
    <comp name="--.HNE">
      <acc value="0.0512151266" flag="0"/>
      <vel value="0.0326133441" flag="0"/>
      <psa03 value="0.1773031636" flag="0"/>
      <psa10 value="0.0230562696" flag="0"/>
      <psa30 value="0.0062973650" flag="0"/>
    </comp>
    <comp name="--.HNN">
      <acc value="0.0378354121" flag="0"/>
      <vel value="0.0236788957" flag="0"/>
      <psa03 value="0.1899048410" flag="0"/>
      <psa10 value="0.0173396773" flag="0"/>
      <psa30 value="0.0013982287" flag="0"/>
    </comp>
  </station>
  <station code="ORLT" name="ORLT" netid="KO" insttype="CMG-5T" commtype="DIG" lat="40.0452" lon="28.8914">
    <comp name="--.HNE">
      <acc value="0.4531950531" flag="0"/>
      <vel value="0.2020139700" flag="0"/>
      <psa03 value="1.2855373222" flag="0"/>
      <psa10 value="0.1577199224" flag="0"/>
      <psa30 value="0.0091312024" flag="0"/>
    </comp>
    <comp name="--.HNZ">
      <acc value="0.1033270708" flag="0"/>
      <vel value="0.0586320503" flag="0"/>
      <psa03 value="0.2385649956" flag="0"/>
      <psa10 value="0.0899857998" flag="0"/>
      <psa30 value="0.0120348376" flag="0"/>
    </comp>
  </station>
  <station code="SHAP" name="SHAP" netid="KO" insttype="CMG-5T" commtype="DIG" lat="39.0231" lon="29.222">
    <comp name="--.HNE">
      <acc value="0.1884662461" flag="0"/>
      <vel value="0.0806441155" flag="0"/>
      <psa03 value="0.5829767113" flag="0"/>
      <psa10 value="0.0366379160" flag="0"/>
      <psa30 value="0.0025288996" flag="0"/>
    </comp>
    <comp name="--.HNN">
      <acc value="0.2823783316" flag="0"/>
      <vel value="0.0822354507" flag="0"/>
      <psa03 value="0.4888976974" flag="0"/>
      <psa10 value="0.0465953281" flag="0"/>
      <psa30 value="0.0049871390" flag="0"/>
    </comp>
  </station>
  <station code="SIMA" name="SIMA" netid="KO" insttype="CMG-6T" commtype="DIG" lat="39.0833" lon="28.9825">
    <comp name="--.HHE">
      <acc value="0.1812961443" flag="0"/>
      <vel value="0.0486659613" flag="0"/>
      <psa03 value="0.2653370554" flag="0"/>
      <psa10 value="0.0219440274" flag="0"/>
      <psa30 value="0.0050422067" flag="0"/>
    </comp>
    <comp name="--.HHN">
      <acc value="0.2064458129" flag="0"/>
      <vel value="0.1040527127" flag="0"/>
      <psa03 value="0.5215962543" flag="0"/>
      <psa10 value="0.0430133802" flag="0"/>
      <psa30 value="0.0063250035" flag="0"/>
    </comp>
    <comp name="--.HHZ">
      <acc value="0.1114942685" flag="0"/>
      <vel value="0.0395634039" flag="0"/>
      <psa03 value="0.1865216770" flag="0"/>
      <psa10 value="0.0165594490" flag="0"/>
      <psa30 value="0.0027308317" flag="0"/>
    </comp>
  </station>
  <station code="SMAA" name="SMAA" netid="KO" insttype="CMG-5T" commtype="DIG" lat="39.1005" lon="28.9805">
    <comp name="--.HNZ">
      <acc value="0.0967995170" flag="0"/>
      <vel value="0.0573389350" flag="0"/>
      <psa03 value="0.1368233784" flag="0"/>
      <psa10 value="0.1666301681" flag="0"/>
      <psa30 value="0.0057682221" flag="0"/>
    </comp>
    <comp name="--.HNN">
      <acc value="0.2600369154" flag="0"/>
      <vel value="0.1857098636" flag="0"/>
      <psa03 value="0.8677261147" flag="0"/>
      <psa10 value="0.1895874002" flag="0"/>
      <psa30 value="0.0182393144" flag="0"/>
    </comp>
    <comp name="--.HNE">
      <acc value="0.2697032820" flag="0"/>
      <vel value="0.1613522321" flag="0"/>
      <psa03 value="0.4952417810" flag="0"/>
      <psa10 value="0.1479555237" flag="0"/>
      <psa30 value="0.0188759802" flag="0"/>
    </comp>
  </station>
  <station code="SOMA" name="SOMA" netid="KO" insttype="CMG-5T" commtype="DIG" lat="39.1564" lon="27.5341">
    <comp name="--.HNN">
      <acc value="0.1762839464" flag="0"/>
      <vel value="0.0731417528" flag="0"/>
      <psa03 value="0.4393688979" flag="0"/>
      <psa10 value="0.0619928391" flag="0"/>
      <psa30 value="0.0052969440" flag="0"/>
    </comp>
    <comp name="--.HNZ">
      <acc value="0.1261785725" flag="0"/>
      <vel value="0.0461379103" flag="0"/>
      <psa03 value="0.2077014045" flag="0"/>
      <psa10 value="0.0268297395" flag="0"/>
      <psa30 value="0.0110108373" flag="0"/>
    </comp>
    <comp name="--.HNE">
      <acc value="0.1271745170" flag="0"/>
      <vel value="0.0429138562" flag="0"/>
      <psa03 value="0.2387807366" flag="0"/>
      <psa10 value="0.0461247306" flag="0"/>
      <psa30 value="0.0135540240" flag="0"/>
    </comp>
  </station>
