<?xml version="1.0" encoding="UTF-8" standalone="yes"?>
<!DOCTYPE earthquake SYSTEM "stationlist.dtd">
<stationlist created="" xmlns="ch.ethz.sed.shakemap.usgs.xml">
  <station code="DARE" name="DARE" netid="KO" insttype="CMG-3ESP" lat="38.5712" lon="37.4832">
    <comp name="--.HHZ">
      <acc value="0.0149866734" flag="0"/>
      <vel value="0.0064746268" flag="0"/>
      <psa03 value="0.0374221096" flag="0"/>
      <psa10 value="0.0036281869" flag="0"/>
      <psa30 value="0.0008355337" flag="0"/>
    </comp>
    <comp name="--.HHN">
      <acc value="0.0000420691" flag="0"/>
      <vel value="0.0000083706" flag="0"/>
      <psa03 value="0.0000416526" flag="0"/>
      <psa10 value="0.0000034979" flag="0"/>
      <psa30 value="0.0000004281" flag="0"/>
    </comp>
  </station>
  <station code="GAZ" name="GAZ" netid="KO" insttype="CMG-3T" lat="37.1721" lon="37.2096">
    <comp name="--.HHZ">
      <acc value="0.0114680554" flag="0"/>
      <vel value="0.0032745304" flag="0"/>
      <psa03 value="0.0237678852" flag="0"/>
      <psa10 value="0.0025021681" flag="0"/>
      <psa30 value="0.0006404135" flag="0"/>
    </comp>
    <comp name="--.HHE">
      <acc value="0.0162773593" flag="0"/>
      <vel value="0.0061995581" flag="0"/>
      <psa03 value="0.0239459638" flag="0"/>
      <psa10 value="0.0037448061" flag="0"/>
      <psa30 value="0.0006517053" flag="0"/>
    </comp>
    <comp name="--.HHN">
      <acc value="0.0103174292" flag="0"/>
      <vel value="0.0041638003" flag="0"/>
      <psa03 value="0.0294806166" flag="0"/>
      <psa10 value="0.0040833120" flag="0"/>
      <psa30 value="0.0004011863" flag="0"/>
    </comp>
  </station>
</stationlist>
