<?xml version="1.0" encoding="UTF-8" standalone="yes"?>
<!DOCTYPE earthquake SYSTEM "stationlist.dtd">
<stationlist created="" xmlns="ch.ethz.sed.shakemap.usgs.xml">
  <station code="ARPRA" name="ARPRA" netid="KO" insttype="CMG-5T" lat="39.0929" lon="38.3356">
    <comp name="--.HNN">
      <acc value="0.2217843219" flag="0"/>
      <vel value="0.0764627874" flag="0"/>
      <psa03 value="0.4330804269" flag="0"/>
      <psa10 value="0.0196739503" flag="0"/>
      <psa30 value="0.0015546186" flag="0"/>
    </comp>
    <comp name="--.HNE">
      <acc value="0.1868741921" flag="0"/>
      <vel value="0.0506929211" flag="0"/>
      <psa03 value="0.3675672320" flag="0"/>
      <psa10 value="0.0292364086" flag="0"/>
      <psa30 value="0.0010898141" flag="0"/>
    </comp>
    <comp name="--.HNZ">
      <acc value="0.0822126449" flag="0"/>
      <vel value="0.0220837373" flag="0"/>
      <psa03 value="0.1099447746" flag="0"/>
      <psa10 value="0.0101758861" flag="0"/>
      <psa30 value="0.0008483349" flag="0"/>
    </comp>
  </station>
  <station code="KYHL" name="KYHL" netid="KO" insttype="CMG-5T" lat="40.3244" lon="37.8955">
    <comp name="--.HNE">
      <acc value="0.0209908000" flag="0"/>
      <vel value="0.0104513258" flag="0"/>
      <psa03 value="0.0732549891" flag="0"/>
      <psa10 value="0.0072045109" flag="0"/>
      <psa30 value="0.0009396692" flag="0"/>
    </comp>
    <comp name="--.HNZ">
      <acc value="0.0121597532" flag="0"/>
      <vel value="0.0066354176" flag="0"/>
      <psa03 value="0.0556127841" flag="0"/>
      <psa10 value="0.0053298696" flag="0"/>
      <psa30 value="0.0005063005" flag="0"/>
    </comp>
    <comp name="--.HNN">
      <acc value="0.0197268094" flag="0"/>
      <vel value="0.0108074917" flag="0"/>
      <psa03 value="0.0649758542" flag="0"/>
      <psa10 value="0.0064275415" flag="0"/>
      <psa30 value="0.0005804808" flag="0"/>
    </comp>
  </station>
  <station code="RSDY" name="RSDY" netid="KO" insttype="CMG-3T" lat="40.3971" lon="37.3273">
    <comp name="--.HHZ">
      <acc value="0.0168152334" flag="0"/>
      <vel value="0.0093272752" flag="0"/>
      <psa03 value="0.0450439302" flag="0"/>
      <psa10 value="0.0035652538" flag="0"/>
      <psa30 value="0.0003310303" flag="0"/>
    </comp>
    <comp name="--.HHE">
      <acc value="0.0223226995" flag="0"/>
      <vel value="0.0187739523" flag="0"/>
      <psa03 value="0.0602163571" flag="0"/>
      <psa10 value="0.0186652005" flag="0"/>
      <psa30 value="0.0009018559" flag="0"/>
    </comp>
    <comp name="--.HHN">
      <acc value="0.0199460292" flag="0"/>
      <vel value="0.0148870161" flag="0"/>
      <psa03 value="0.0394402136" flag="0"/>
      <psa10 value="0.0144180021" flag="0"/>
      <psa30 value="0.0008937040" flag="0"/>
    </comp>
  </station>
  <station code="SVSK" name="SVSK" netid="KO" insttype="CMG-3T" lat="39.9157" lon="36.9925">
    <comp name="--.HHZ">
      <acc value="0.0539188588" flag="0"/>
      <vel value="0.0239917515" flag="0"/>
      <psa03 value="0.2508542958" flag="0"/>
      <psa10 value="0.0092898445" flag="0"/>
      <psa30 value="0.0009576461" flag="0"/>
    </comp>
    <comp name="--.HHN">
      <acc value="0.0613795207" flag="0"/>
      <vel value="0.0230890013" flag="0"/>
      <psa03 value="0.2108915702" flag="0"/>
      <psa10 value="0.0103469804" flag="0"/>
      <psa30 value="0.0010775755" flag="0"/>
    </comp>
    <comp name="--.HHE">
      <acc value="0.1530974622" flag="0"/>
      <vel value="0.0638676086" flag="0"/>
      <psa03 value="0.3136929500" flag="0"/>
      <psa10 value="0.0187243235" flag="0"/>
      <psa30 value="0.0022644511" flag="0"/>
    </comp>
  </station>
  <station code="TOKT" name="TOKT" netid="KO" insttype="CMG-3T" lat="40.3173" lon="36.5443">
    <comp name="--.HHE">
      <acc value="0.0050539319" flag="0"/>
      <vel value="0.0034817019" flag="0"/>
      <psa03 value="0.0116218478" flag="0"/>
      <psa10 value="0.0045027576" flag="0"/>
      <psa30 value="0.0003844498" flag="0"/>
    </comp>
    <comp name="--.HHN">
      <acc value="0.0055923891" flag="0"/>
      <vel value="0.0039674991" flag="0"/>
      <psa03 value="0.0169083659" flag="0"/>
      <psa10 value="0.0074626541" flag="0"/>
      <psa30 value="0.0005677533" flag="0"/>
    </comp>
    <comp name="--.HHZ">
      <acc value="0.0058182371" flag="0"/>
      <vel value="0.0042264837" flag="0"/>
      <psa03 value="0.0154315354" flag="0"/>
      <psa10 value="0.0055592004" flag="0"/>
      <psa30 value="0.0005270524" flag="0"/>
    </comp>
  </station>
</stationlist>
