<?xml version="1.0" encoding="UTF-8" standalone="yes"?>
<!DOCTYPE earthquake SYSTEM "stationlist.dtd">
<stationlist created="" xmlns="ch.ethz.sed.shakemap.usgs.xml">
  <station code="ARPRA" name="ARPRA" netid="KO" insttype="CMG-5T" lat="39.0929" lon="38.3356">
    <comp name="--.HNE">
      <acc value="0.1868741920" flag="0"/>
      <vel value="0.0506929208" flag="0"/>
      <psa03 value="0.3675672320" flag="0"/>
      <psa10 value="0.0292364086" flag="0"/>
      <psa30 value="0.0010897580" flag="0"/>
    </comp>
    <comp name="--.HNZ">
      <acc value="0.0822126452" flag="0"/>
      <vel value="0.0220837381" flag="0"/>
      <psa03 value="0.1099447746" flag="0"/>
      <psa10 value="0.0101758862" flag="0"/>
      <psa30 value="0.0008483018" flag="0"/>
    </comp>
    <comp name="--.HNN">
      <acc value="0.2217843220" flag="0"/>
      <vel value="0.0764627885" flag="0"/>
      <psa03 value="0.4330804269" flag="0"/>
      <psa10 value="0.0196739504" flag="0"/>
      <psa30 value="0.0015544818" flag="0"/>
    </comp>
  </station>
  <station code="KYHL" name="KYHL" netid="KO" insttype="CMG-5T" lat="40.3244" lon="37.8955">
    <comp name="--.HNN">
      <acc value="0.0197268102" flag="0"/>
      <vel value="0.0108074911" flag="0"/>
      <psa03 value="0.0649758542" flag="0"/>
      <psa10 value="0.0064275415" flag="0"/>
      <psa30 value="0.0005805139" flag="0"/>
    </comp>
    <comp name="--.HNZ">
      <acc value="0.0121597526" flag="0"/>
      <vel value="0.0066354199" flag="0"/>
      <psa03 value="0.0556127841" flag="0"/>
      <psa10 value="0.0053298695" flag="0"/>
      <psa30 value="0.0005062398" flag="0"/>
    </comp>
    <comp name="--.HNE">
      <acc value="0.0209908004" flag="0"/>
      <vel value="0.0104513273" flag="0"/>
      <psa03 value="0.0732549891" flag="0"/>
      <psa10 value="0.0072045110" flag="0"/>
      <psa30 value="0.0009396749" flag="0"/>
    </comp>
  </station>
  <station code="RSDY" name="RSDY" netid="KO" insttype="CMG-3T" lat="40.3971" lon="37.3273">
    <comp name="--.HHE">
      <acc value="0.0223226994" flag="0"/>
      <vel value="0.0187739526" flag="0"/>
      <psa03 value="0.0602163571" flag="0"/>
      <psa10 value="0.0186652004" flag="0"/>
      <psa30 value="0.0009018299" flag="0"/>
    </comp>
    <comp name="--.HHN">
      <acc value="0.0199460291" flag="0"/>
      <vel value="0.0148870159" flag="0"/>
      <psa03 value="0.0394402136" flag="0"/>
      <psa10 value="0.0144180021" flag="0"/>
      <psa30 value="0.0008937087" flag="0"/>
    </comp>
    <comp name="--.HHZ">
      <acc value="0.0168152334" flag="0"/>
      <vel value="0.0093272757" flag="0"/>
      <psa03 value="0.0450439302" flag="0"/>
      <psa10 value="0.0035652539" flag="0"/>
      <psa30 value="0.0003310254" flag="0"/>
    </comp>
  </station>
  <station code="SVSK" name="SVSK" netid="KO" insttype="CMG-3T" lat="39.9157" lon="36.9925">
    <comp name="--.HHE">
      <acc value="0.1530974621" flag="0"/>
      <vel value="0.0638676075" flag="0"/>
      <psa03 value="0.3136929500" flag="0"/>
      <psa10 value="0.0187243238" flag="0"/>
      <psa30 value="0.0022645016" flag="0"/>
    </comp>
    <comp name="--.HHN">
      <acc value="0.0613795202" flag="0"/>
      <vel value="0.0230890013" flag="0"/>
      <psa03 value="0.2108915702" flag="0"/>
      <psa10 value="0.0103469803" flag="0"/>
      <psa30 value="0.0010775851" flag="0"/>
    </comp>
    <comp name="--.HHZ">
      <acc value="0.0539188587" flag="0"/>
      <vel value="0.0239917517" flag="0"/>
      <psa03 value="0.2508542958" flag="0"/>
      <psa10 value="0.0092898449" flag="0"/>
      <psa30 value="0.0009576497" flag="0"/>
    </comp>
  </station>
  <station code="TOKT" name="TOKT" netid="KO" insttype="CMG-3T" lat="40.3173" lon="36.5443">
    <comp name="--.HHN">
      <acc value="0.0055923888" flag="0"/>
      <vel value="0.0039674993" flag="0"/>
      <psa03 value="0.0169083659" flag="0"/>
      <psa10 value="0.0074626541" flag="0"/>
      <psa30 value="0.0005677581" flag="0"/>
    </comp>
    <comp name="--.HHZ">
      <acc value="0.0058182376" flag="0"/>
      <vel value="0.0042264837" flag="0"/>
      <psa03 value="0.0154315354" flag="0"/>
      <psa10 value="0.0055592003" flag="0"/>
      <psa30 value="0.0005270613" flag="0"/>
    </comp>
    <comp name="--.HHE">
      <acc value="0.0050539322" flag="0"/>
      <vel value="0.0034817022" flag="0"/>
      <psa03 value="0.0116218478" flag="0"/>
      <psa10 value="0.0045027576" flag="0"/>
      <psa30 value="0.0003844567" flag="0"/>
    </comp>
  </station>
</stationlist>
