<?xml version="1.0" encoding="UTF-8" standalone="yes"?>
<!DOCTYPE earthquake SYSTEM "stationlist.dtd">
<stationlist created="" xmlns="ch.ethz.sed.shakemap.usgs.xml">
  <station code="MYT1" name="MYT1" netid="HI" insttype="CMG-5TD,ACCELEROMETER,GURALP" commtype="DIG" lat="39.085" lon="26.5694">
    <comp name="--.HNE">
      <acc value="0.0301102508" flag="0"/>
      <vel value="0.0362212316" flag="0"/>
      <psa03 value="0.0682434095" flag="0"/>
      <psa10 value="0.0791391827" flag="0"/>
      <psa30 value="0.0077411772" flag="0"/>
    </comp>
    <comp name="--.HNN">
      <acc value="0.0329133272" flag="0"/>
      <vel value="0.0409469626" flag="0"/>
      <psa03 value="0.0603794926" flag="0"/>
      <psa10 value="0.0682915049" flag="0"/>
      <psa30 value="0.0054013606" flag="0"/>
    </comp>
    <comp name="--.HNZ">
      <acc value="0.0159167208" flag="0"/>
      <vel value="0.0193212613" flag="0"/>
      <psa03 value="0.0294898452" flag="0"/>
      <psa10 value="0.0353656784" flag="0"/>
      <psa30 value="0.0032480408" flag="0"/>
    </comp>
  </station>
  <station code="AKS" name="AKS" netid="KO" insttype="CMG-5T" commtype="DIG" lat="38.8785" lon="27.8129">
    <comp name="--.HNZ">
      <acc value="0.1759660749" flag="0"/>
      <vel value="0.0566849628" flag="0"/>
      <psa03 value="0.1491279908" flag="0"/>
      <psa10 value="0.0468686754" flag="0"/>
      <psa30 value="0.0062467206" flag="0"/>
    </comp>
  </station>
  <station code="AYVL" name="AYVL" netid="KO" insttype="CMG-6T" commtype="DIG" lat="39.2907" lon="26.69">
    <comp name="--.HHN">
      <acc value="0.0784082370" flag="0"/>
      <vel value="0.0337943614" flag="0"/>
      <psa03 value="0.1429636189" flag="0"/>
      <psa10 value="0.0392639249" flag="0"/>
      <psa30 value="0.0014860704" flag="0"/>
    </comp>
    <comp name="--.HHZ">
      <acc value="0.0459024168" flag="0"/>
      <vel value="0.0191201561" flag="0"/>
      <psa03 value="0.0722955399" flag="0"/>
      <psa10 value="0.0102416776" flag="0"/>
      <psa30 value="0.0004712694" flag="0"/>
    </comp>
    <comp name="--.HHE">
      <acc value="0.0693272481" flag="0"/>
      <vel value="0.0251104488" flag="0"/>
      <psa03 value="0.1473242418" flag="0"/>
      <psa10 value="0.0276365480" flag="0"/>
      <psa30 value="0.0010250563" flag="0"/>
    </comp>
  </station>
  <station code="BALB" name="BALB" netid="KO" insttype="CMG-5T" commtype="DIG" lat="39.6507" lon="27.8642">
    <comp name="--.HNZ">
      <acc value="0.0962911426" flag="0"/>
      <vel value="0.0260720160" flag="0"/>
      <psa03 value="0.1002427535" flag="0"/>
      <psa10 value="0.0338524134" flag="0"/>
      <psa30 value="0.0049557563" flag="0"/>
    </comp>
    <comp name="--.HNE">
      <acc value="0.0842547261" flag="0"/>
      <vel value="0.0440694237" flag="0"/>
      <psa03 value="0.1254401541" flag="0"/>
      <psa10 value="0.0853141348" flag="0"/>
      <psa30 value="0.0079752890" flag="0"/>
    </comp>
    <comp name="--.HNN">
      <acc value="0.1246124576" flag="0"/>
      <vel value="0.0568081293" flag="0"/>
      <psa03 value="0.1846586986" flag="0"/>
      <psa10 value="0.0725037072" flag="0"/>
      <psa30 value="0.0110492892" flag="0"/>
    </comp>
  </station>
  <station code="CANM" name="CANM" netid="KO" insttype="CMG-5T" commtype="DIG" lat="40.0113" lon="27.0529">
    <comp name="--.HNE">
      <acc value="0.0312779311" flag="0"/>
      <vel value="0.0234429248" flag="0"/>
      <psa03 value="0.0512593128" flag="0"/>
      <psa10 value="0.0379549363" flag="0"/>
      <psa30 value="0.0026872065" flag="0"/>
    </comp>
    <comp name="--.HNZ">
      <acc value="0.0272979595" flag="0"/>
      <vel value="0.0155410919" flag="0"/>
      <psa03 value="0.0573431821" flag="0"/>
      <psa10 value="0.0160062234" flag="0"/>
      <psa30 value="0.0023358709" flag="0"/>
    </comp>
    <comp name="--.HNN">
      <acc value="0.0345932012" flag="0"/>
      <vel value="0.0189740057" flag="0"/>
      <psa03 value="0.0680012728" flag="0"/>
      <psa10 value="0.0334976681" flag="0"/>
      <psa30 value="0.0045355929" flag="0"/>
    </comp>
  </station>
  <station code="DKL" name="DKL" netid="KO" insttype="CMG-3ESPC" commtype="DIG" lat="39.0713" lon="26.9053">
    <comp name="--.HHN">
      <acc value="0.0938790703" flag="0"/>
      <vel value="0.0228831804" flag="0"/>
      <psa03 value="0.0425398377" flag="0"/>
      <psa10 value="0.0273239790" flag="0"/>
      <psa30 value="0.0046718159" flag="0"/>
    </comp>
    <comp name="--.HHZ">
      <acc value="0.0203487287" flag="0"/>
      <vel value="0.0105187082" flag="0"/>
      <psa03 value="0.0286808791" flag="0"/>
      <psa10 value="0.0127734452" flag="0"/>
      <psa30 value="0.0023792126" flag="0"/>
    </comp>
    <comp name="--.HHE">
      <acc value="0.0216769151" flag="0"/>
      <vel value="0.0108262442" flag="0"/>
      <psa03 value="0.0309097292" flag="0"/>
      <psa10 value="0.0208586868" flag="0"/>
      <psa30 value="0.0017956162" flag="0"/>
    </comp>
  </station>
  <station code="DST" name="DST" netid="KO" insttype="CMG-5T" commtype="DIG" lat="39.6041" lon="28.6267">
    <comp name="--.HNZ">
      <acc value="0.1388365133" flag="0"/>
      <vel value="0.0681774357" flag="0"/>
      <psa03 value="0.3841163322" flag="0"/>
      <psa10 value="0.0407743394" flag="0"/>
      <psa30 value="0.0053786044" flag="0"/>
    </comp>
  </station>
  <station code="EDC" name="EDC" netid="KO" insttype="CMG-3T" commtype="DIG" lat="40.3465" lon="27.8618">
    <comp name="--.HHE">
      <acc value="0.0610045725" flag="0"/>
      <vel value="0.0405296803" flag="0"/>
      <psa03 value="0.0889303957" flag="0"/>
      <psa10 value="0.0496938456" flag="0"/>
      <psa30 value="0.0048575046" flag="0"/>
    </comp>
    <comp name="--.HHN">
      <acc value="0.0654042400" flag="0"/>
      <vel value="0.0470198055" flag="0"/>
      <psa03 value="0.1729297723" flag="0"/>
      <psa10 value="0.0600847301" flag="0"/>
      <psa30 value="0.0060318801" flag="0"/>
    </comp>
    <comp name="--.HHZ">
      <acc value="0.0277981307" flag="0"/>
      <vel value="0.0212653083" flag="0"/>
      <psa03 value="0.0551404337" flag="0"/>
      <psa10 value="0.0197466148" flag="0"/>
      <psa30 value="0.0035876754" flag="0"/>
    </comp>
  </station>
  <station code="GOMA" name="GOMA" netid="KO" insttype="CMG-5T" commtype="DIG" lat="38.7077" lon="27.9175">
    <comp name="--.HNE">
      <acc value="0.2546908696" flag="0"/>
      <vel value="0.1241180719" flag="0"/>
      <psa03 value="0.4391937632" flag="0"/>
      <psa10 value="0.1160429668" flag="0"/>
      <psa30 value="0.0057800052" flag="0"/>
    </comp>
    <comp name="--.HNN">
      <acc value="0.2094373248" flag="0"/>
      <vel value="0.1002774252" flag="0"/>
      <psa03 value="0.4296569645" flag="0"/>
      <psa10 value="0.0361991550" flag="0"/>
      <psa30 value="0.0081472382" flag="0"/>
    </comp>
    <comp name="--.HNZ">
      <acc value="0.1649307906" flag="0"/>
      <vel value="0.0498874946" flag="0"/>
      <psa03 value="0.2209547310" flag="0"/>
      <psa10 value="0.0279153762" flag="0"/>
      <psa30 value="0.0085315310" flag="0"/>
    </comp>
  </station>
  <station code="GONE" name="GONE" netid="KO" insttype="CMG-5T" commtype="DIG" lat="40.0466" lon="27.686">
    <comp name="--.HNE">
      <acc value="0.0727153210" flag="0"/>
      <vel value="0.0412179743" flag="0"/>
      <psa03 value="0.0856195052" flag="0"/>
      <psa10 value="0.0528375729" flag="0"/>
      <psa30 value="0.0027740620" flag="0"/>
    </comp>
    <comp name="--.HNZ">
      <acc value="0.0456739343" flag="0"/>
      <vel value="0.0175020285" flag="0"/>
      <psa03 value="0.0473556953" flag="0"/>
      <psa10 value="0.0234228005" flag="0"/>
      <psa30 value="0.0020968832" flag="0"/>
    </comp>
    <comp name="--.HNN">
      <acc value="0.1387289212" flag="0"/>
      <vel value="0.0698202823" flag="0"/>
      <psa03 value="0.2146008065" flag="0"/>
      <psa10 value="0.0715528585" flag="0"/>
      <psa30 value="0.0062897872" flag="0"/>
    </comp>
  </station>
  <station code="GORD" name="GORD" netid="KO" insttype="CMG-5T" commtype="DIG" lat="38.9088" lon="28.1769">
    <comp name="--.HNE">
      <acc value="0.3575886159" flag="0"/>
      <vel value="0.1970005312" flag="0"/>
      <psa03 value="0.5811103872" flag="0"/>
      <psa10 value="0.2150133108" flag="0"/>
      <psa30 value="0.0185590593" flag="0"/>
    </comp>
    <comp name="--.HNN">
      <acc value="0.6159211898" flag="0"/>
      <vel value="0.4048719476" flag="0"/>
      <psa03 value="1.1317050179" flag="0"/>
      <psa10 value="0.3637949930" flag="0"/>
      <psa30 value="0.0369647369" flag="0"/>
    </comp>
    <comp name="--.HNZ">
      <acc value="0.4464945363" flag="0"/>
      <vel value="0.1995515783" flag="0"/>
      <psa03 value="0.7104671474" flag="0"/>
      <psa10 value="0.1930319463" flag="0"/>
      <psa30 value="0.0380385018" flag="0"/>
    </comp>
  </station>
  <station code="KCTX" name="KCTX" netid="KO" insttype="CMG-3ESP" commtype="DIG" lat="40.2626" lon="28.3353">
    <comp name="--.HHE">
      <acc value="0.0641081139" flag="0"/>
      <vel value="0.0269097698" flag="0"/>
      <psa03 value="0.0683022483" flag="0"/>
      <psa10 value="0.0432975012" flag="0"/>
      <psa30 value="0.0031488942" flag="0"/>
    </comp>
    <comp name="--.HHN">
      <acc value="0.0793572994" flag="0"/>
      <vel value="0.0313818935" flag="0"/>
      <psa03 value="0.1232901437" flag="0"/>
      <psa10 value="0.0558949212" flag="0"/>
      <psa30 value="0.0044275745" flag="0"/>
    </comp>
    <comp name="--.HHZ">
      <acc value="0.0516579782" flag="0"/>
      <vel value="0.0285429731" flag="0"/>
      <psa03 value="0.0986520487" flag="0"/>
      <psa10 value="0.0145992162" flag="0"/>
      <psa30 value="0.0034104452" flag="0"/>
    </comp>
  </station>
  <station code="MDNY" name="MDNY" netid="KO" insttype="CMG-5T" commtype="DIG" lat="40.3709" lon="28.8846">
    <comp name="--.HNE">
      <acc value="0.2094726722" flag="0"/>
      <vel value="0.1097658327" flag="0"/>
      <psa03 value="0.6809087541" flag="0"/>
      <psa10 value="0.0855251105" flag="0"/>
      <psa30 value="0.0077871671" flag="0"/>
    </comp>
    <comp name="--.HNZ">
      <acc value="0.0872188629" flag="0"/>
      <vel value="0.0498287473" flag="0"/>
      <psa03 value="0.2190967169" flag="0"/>
      <psa10 value="0.0409166497" flag="0"/>
      <psa30 value="0.0083451697" flag="0"/>
    </comp>
    <comp name="--.HNN">
      <acc value="0.3531024069" flag="0"/>
      <vel value="0.2107899763" flag="0"/>
      <psa03 value="1.3538595649" flag="0"/>
      <psa10 value="0.1021167077" flag="0"/>
      <psa30 value="0.0071875315" flag="0"/>
    </comp>
  </station>
  <station code="NAZL" name="NAZL" netid="KO" insttype="CMG-5T" commtype="DIG" lat="37.9641" lon="28.2922">
    <comp name="--.HNN">
      <acc value="0.0459372921" flag="0"/>
      <vel value="0.0335881846" flag="0"/>
      <psa03 value="0.1607411816" flag="0"/>
      <psa10 value="0.0509350723" flag="0"/>
      <psa30 value="0.0028786380" flag="0"/>
    </comp>
    <comp name="--.HNE">
      <acc value="0.0554792623" flag="0"/>
      <vel value="0.0453842356" flag="0"/>
      <psa03 value="0.1396531113" flag="0"/>
      <psa10 value="0.0657910520" flag="0"/>
      <psa30 value="0.0042203545" flag="0"/>
    </comp>
    <comp name="--.HNZ">
      <acc value="0.0241844613" flag="0"/>
      <vel value="0.0178839883" flag="0"/>
      <psa03 value="0.0733392425" flag="0"/>
      <psa10 value="0.0162072052" flag="0"/>
      <psa30 value="0.0023661494" flag="0"/>
    </comp>
  </station>
  <station code="ORLT" name="ORLT" netid="KO" insttype="CMG-5T" commtype="DIG" lat="40.0452" lon="28.8914">
    <comp name="--.HNE">
      <acc value="0.1626074439" flag="0"/>
      <vel value="0.0880839417" flag="0"/>
      <psa03 value="0.3096081757" flag="0"/>
      <psa10 value="0.1045010589" flag="0"/>
      <psa30 value="0.0067167805" flag="0"/>
    </comp>
    <comp name="--.HNZ">
      <acc value="0.0829469845" flag="0"/>
      <vel value="0.0704522583" flag="0"/>
      <psa03 value="0.1836560213" flag="0"/>
      <psa10 value="0.1293684095" flag="0"/>
      <psa30 value="0.0068042632" flag="0"/>
    </comp>
    <comp name="--.HNN">
      <acc value="0.2244485151" flag="0"/>
      <vel value="0.1199698736" flag="0"/>
      <psa03 value="0.3912831883" flag="0"/>
      <psa10 value="0.1535381211" flag="0"/>
      <psa30 value="0.0066389913" flag="0"/>
    </comp>
  </station>
  <station code="SHAP" name="SHAP" netid="KO" insttype="CMG-5T" commtype="DIG" lat="39.0231" lon="29.222">
    <comp name="--.HNE">
      <acc value="0.5898266286" flag="0"/>
      <vel value="0.1990426599" flag="0"/>
      <psa03 value="1.8873222910" flag="0"/>
      <psa10 value="0.0702842272" flag="0"/>
      <psa30 value="0.0043604432" flag="0"/>
    </comp>
    <comp name="--.HNZ">
      <acc value="0.3156124878" flag="0"/>
      <vel value="0.0926072071" flag="0"/>
      <psa03 value="0.4418443668" flag="0"/>
      <psa10 value="0.0321472354" flag="0"/>
      <psa30 value="0.0025481196" flag="0"/>
    </comp>
    <comp name="--.HNN">
      <acc value="0.7583421398" flag="0"/>
      <vel value="0.2476490755" flag="0"/>
      <psa03 value="1.9021089167" flag="0"/>
      <psa10 value="0.0891968622" flag="0"/>
      <psa30 value="0.0059072884" flag="0"/>
    </comp>
  </station>
  <station code="SIMA" name="SIMA" netid="KO" insttype="CMG-6T" commtype="DIG" lat="39.0833" lon="28.9825">
    <comp name="--.HHE">
      <acc value="0.7520038470" flag="0"/>
      <vel value="0.1558816464" flag="0"/>
      <psa03 value="1.7399805526" flag="0"/>
      <psa10 value="0.0372552201" flag="0"/>
      <psa30 value="0.0043665767" flag="0"/>
    </comp>
    <comp name="--.HHN">
      <acc value="0.6012218748" flag="0"/>
      <vel value="0.1713579561" flag="0"/>
      <psa03 value="1.9923281583" flag="0"/>
      <psa10 value="0.0614947773" flag="0"/>
      <psa30 value="0.0084349705" flag="0"/>
    </comp>
    <comp name="--.HHZ">
      <acc value="0.3256249122" flag="0"/>
      <vel value="0.0979713859" flag="0"/>
      <psa03 value="0.5937634165" flag="0"/>
      <psa10 value="0.0233149246" flag="0"/>
      <psa30 value="0.0029108979" flag="0"/>
    </comp>
  </station>
  <station code="SMAA" name="SMAA" netid="KO" insttype="CMG-5T" commtype="DIG" lat="39.1005" lon="28.9805">
    <comp name="--.HNE">
      <acc value="0.5707793472" flag="0"/>
      <vel value="0.2507029472" flag="0"/>
      <psa03 value="2.6663977612" flag="0"/>
      <psa10 value="0.1545210026" flag="0"/>
      <psa30 value="0.0212977474" flag="0"/>
    </comp>
    <comp name="--.HNN">
      <acc value="0.5804711416" flag="0"/>
      <vel value="0.2358452240" flag="0"/>
      <psa03 value="2.2187197162" flag="0"/>
      <psa10 value="0.2484961566" flag="0"/>
      <psa30 value="0.0219991037" flag="0"/>
    </comp>
    <comp name="--.HNZ">
      <acc value="0.2280821065" flag="0"/>
      <vel value="0.0770757614" flag="0"/>
      <psa03 value="0.4646074214" flag="0"/>
      <psa10 value="0.1564602143" flag="0"/>
      <psa30 value="0.0080295286" flag="0"/>
    </comp>
  </station>
  <station code="SOMA" name="SOMA" netid="KO" insttype="CMG-5T" commtype="DIG" lat="39.1564" lon="27.5341">
    <comp name="--.HNE">
      <acc value="0.1930772806" flag="0"/>
      <vel value="0.0570114061" flag="0"/>
      <psa03 value="0.2123442585" flag="0"/>
      <psa10 value="0.0697512347" flag="0"/>
      <psa30 value="0.0028814222" flag="0"/>
    </comp>
    <comp name="--.HNN">
      <acc value="0.1293371386" flag="0"/>
      <vel value="0.0524561926" flag="0"/>
      <psa03 value="0.2188654210" flag="0"/>
      <psa10 value="0.0786109997" flag="0"/>
      <psa30 value="0.0037462493" flag="0"/>
    </comp>
    <comp name="--.HNZ">
      <acc value="0.1923510346" flag="0"/>
      <vel value="0.0385747782" flag="0"/>
      <psa03 value="0.1415437287" flag="0"/>
      <psa10 value="0.0423767432" flag="0"/>
      <psa30 value="0.0033918307" flag="0"/>
    </comp>
  </station>
  <station code="SUSR" name="SUSR" netid="KO" insttype="CMG-5T" commtype="DIG" lat="39.9627" lon="28.0835">
    <comp name="--.HNE">
      <acc value="0.0796156405" flag="0"/>
      <vel value="0.0213735206" flag="0"/>
      <psa03 value="0.0959713208" flag="0"/>
      <psa10 value="0.0202223097" flag="0"/>
      <psa30 value="0.0021503359" flag="0"/>
    </comp>
    <comp name="--.HNZ">
      <acc value="0.0871481633" flag="0"/>
      <vel value="0.0219855716" flag="0"/>
      <psa03 value="0.0971467772" flag="0"/>
      <psa10 value="0.0134598148" flag="0"/>
      <psa30 value="0.0021823420" flag="0"/>
    </comp>
    <comp name="--.HNN">
      <acc value="0.1019118562" flag="0"/>
      <vel value="0.0291369699" flag="0"/>
      <psa03 value="0.1289008624" flag="0"/>
      <psa10 value="0.0154890536" flag="0"/>
      <psa30 value="0.0015906822" flag="0"/>
    </comp>
  </station>
  <station code="TVSB" name="TVSB" netid="KO" insttype="CMG-3T" commtype="DIG" lat="39.4497" lon="29.4615">
    <comp name="--.HHZ">
      <acc value="0.0838620967" flag="0"/>
      <vel value="0.0557740179" flag="0"/>
      <psa03 value="0.1694482965" flag="0"/>
      <psa10 value="0.0543949877" flag="0"/>
      <psa30 value="0.0029597633" flag="0"/>
    </comp>
    <comp name="--.HHE">
      <acc value="0.2135078316" flag="0"/>
      <vel value="0.1106719160" flag="0"/>
      <psa03 value="0.5960689685" flag="0"/>
      <psa10 value="0.0746780856" flag="0"/>
      <psa30 value="0.0055054505" flag="0"/>
    </comp>
  </station>
  <station code="YAYO" name="YAYO" netid="KO" insttype="CMG-6T" commtype="DIG" lat="39.6113" lon="27.0726">
    <comp name="--.HHE">
      <acc value="0.0402697479" flag="0"/>
      <vel value="0.0214855905" flag="0"/>
      <psa03 value="0.0474684629" flag="0"/>
      <psa10 value="0.0239921523" flag="0"/>
      <psa30 value="0.0019891714" flag="0"/>
    </comp>
    <comp name="--.HHZ">
      <acc value="0.0253847206" flag="0"/>
      <vel value="0.0088733763" flag="0"/>
      <psa03 value="0.0501166808" flag="0"/>
      <psa10 value="0.0084912409" flag="0"/>
      <psa30 value="0.0017532813" flag="0"/>
    </comp>
    <comp name="--.HHN">
      <acc value="0.0265086144" flag="0"/>
      <vel value="0.0188512536" flag="0"/>
      <psa03 value="0.0581081439" flag="0"/>
      <psa10 value="0.0373545738" flag="0"/>
      <psa30 value="0.0036529750" flag="0"/>
    </comp>
  </station>
  <station code="YENI" name="YENI" netid="KO" insttype="CMG-5T" commtype="DIG" lat="39.9364" lon="27.2422">
    <comp name="--.HNZ">
      <acc value="0.0325534329" flag="0"/>
      <vel value="0.0103709573" flag="0"/>
      <psa03 value="0.0382434197" flag="0"/>
      <psa10 value="0.0164446049" flag="0"/>
      <psa30 value="0.0021282472" flag="0"/>
    </comp>
    <comp name="--.HNE">
      <acc value="0.0735492956" flag="0"/>
      <vel value="0.0420577628" flag="0"/>
      <psa03 value="0.1190932314" flag="0"/>
      <psa10 value="0.0564668558" flag="0"/>
      <psa30 value="0.0033966821" flag="0"/>
    </comp>
    <comp name="--.HNN">
      <acc value="0.1300967149" flag="0"/>
      <vel value="0.0465028759" flag="0"/>
      <psa03 value="0.1057154587" flag="0"/>
      <psa10 value="0.0617101561" flag="0"/>
      <psa30 value="0.0032215862" flag="0"/>
    </comp>
  </station>
</stationlist>
