<?xml version="1.0" encoding="UTF-8" standalone="yes"?>
<!DOCTYPE earthquake SYSTEM "stationlist.dtd">
<stationlist created="" xmlns="ch.ethz.sed.shakemap.usgs.xml">
  <station code="TOKT" name="TOKT" netid="KO" insttype="120s," lat="40.3173" lon="36.5445">
    <comp name="--.HHE">
      <acc value="0.0141083897" flag="0"/>
      <vel value="0.0092294870" flag="0"/>
      <psa03 value="0.0273042524" flag="0"/>
      <psa10 value="0.0125152439" flag="0"/>
      <psa30 value="0.0011766156" flag="0"/>
    </comp>
    <comp name="--.HHN">
      <acc value="0.0215047932" flag="0"/>
      <vel value="0.0098006915" flag="0"/>
      <psa03 value="0.0359346626" flag="0"/>
      <psa10 value="0.0126820262" flag="0"/>
      <psa30 value="0.0012785470" flag="0"/>
    </comp>
    <comp name="--.HHZ">
      <acc value="0.0136813679" flag="0"/>
      <vel value="0.0076301542" flag="0"/>
      <psa03 value="0.0283650985" flag="0"/>
      <psa10 value="0.0057917330" flag="0"/>
      <psa30 value="0.0010900736" flag="0"/>
    </comp>
  </station>
  <station code="YOZ" name="YOZ" netid="KO" insttype="360s," lat="39.6376" lon="35.3152">
    <comp name="--.HHE">
      <acc value="0.0011009775" flag="0"/>
      <vel value="0.0000977369" flag="0"/>
      <psa03 value="0.0005880350" flag="0"/>
      <psa10 value="0.0000451323" flag="0"/>
      <psa30 value="0.0000275756" flag="0"/>
    </comp>
    <comp name="--.HHN">
      <acc value="0.2129512685" flag="0"/>
      <vel value="0.0909660117" flag="0"/>
      <psa03 value="0.4513610089" flag="0"/>
      <psa10 value="0.0599610602" flag="0"/>
      <psa30 value="0.0034826276" flag="0"/>
    </comp>
    <comp name="--.HHZ">
      <acc value="0.2148470873" flag="0"/>
      <vel value="0.0801058442" flag="0"/>
      <psa03 value="0.5016891557" flag="0"/>
      <psa10 value="0.0320227642" flag="0"/>
      <psa30 value="0.0029023838" flag="0"/>
    </comp>
  </station>
</stationlist>
