<stationlist created="1778136121">
	<station code="TUNC" name="TUNC" netid="KO" source="Bogazici University Kandilli Observatory And Earthquake Research Institute (KOERI)" insttype="" lat="39.6942" lon="37.5388">
		<comp name="--.HNE" depth="0.0">
			<acc value="0.118069401431667" flag="0"/>
			<vel value="0.0914330962685056" flag="0"/>
			<psa03 value="0.404469547829177" flag="0"/>
			<psa10 value="0.0960109589159508" flag="0"/>
			<psa30 value="0.0220574604407418" flag="0"/>
		</comp>
		<comp name="--.HNN" depth="0.0">
			<acc value="0.150537333659947" flag="0"/>
			<vel value="0.0805994136496041" flag="0"/>
			<psa03 value="0.405990782854198" flag="0"/>
			<psa10 value="0.0933371646484429" flag="0"/>
			<psa30 value="0.0267191509482995" flag="0"/>
		</comp>
		<comp name="--.HNZ" depth="0.0">
			<acc value="0.0775810987472851" flag="0"/>
			<vel value="0.0495684377289184" flag="0"/>
			<psa03 value="0.239639258647464" flag="0"/>
			<psa10 value="0.0848124320214636" flag="0"/>
			<psa30 value="0.0182378182617399" flag="0"/>
		</comp>
	</station>
</stationlist>
