<stationlist created="1778136388">
	<station code="KSS1" name="KSS1" netid="HI" source="ITSAK Strong Motion Network" insttype="" lat="35.4189" lon="26.9207">
		<comp name="--.HNE" depth="0.0">
			<acc value="0.0015726931958354" flag="0"/>
			<vel value="0.00246248434015565" flag="0"/>
			<psa03 value="0.00567889247480756" flag="0"/>
			<psa10 value="0.00246998417120554" flag="0"/>
			<psa30 value="0.00117039472040614" flag="0"/>
		</comp>
		<comp name="--.HNN" depth="0.0">
			<acc value="0.00266109900548452" flag="0"/>
			<vel value="0.00356842349923531" flag="0"/>
			<psa03 value="0.00797820690248451" flag="0"/>
			<psa10 value="0.00333423454855152" flag="0"/>
			<psa30 value="0.00101370100688259" flag="0"/>
		</comp>
		<comp name="--.HNZ" depth="0.0">
			<acc value="0.00150637550134205" flag="0"/>
			<vel value="0.00237917561312102" flag="0"/>
			<psa03 value="0.00190720756058755" flag="0"/>
			<psa10 value="0.00308429994473268" flag="0"/>
			<psa30 value="0.00083800744096151" flag="0"/>
		</comp>
	</station>
	<station code="IACM" name="IACM" netid="HL" source="National Observatory of Athens Seismic Network" insttype="" lat="35.3058" lon="25.0709">
		<comp name="--.HNE" depth="0.0">
			<acc value="0.0212612327841567" flag="0"/>
			<vel value="0.0287297709469464" flag="0"/>
			<psa03 value="0.0263084174915438" flag="0"/>
			<psa10 value="0.0522597921742738" flag="0"/>
			<psa30 value="0.00621827187580741" flag="0"/>
		</comp>
		<comp name="--.HNN" depth="0.0">
			<acc value="0.0179886864075575" flag="0"/>
			<vel value="0.0250709360055678" flag="0"/>
			<psa03 value="0.0351226321953433" flag="0"/>
			<psa10 value="0.0430585573832262" flag="0"/>
			<psa30 value="0.00299772784342421" flag="0"/>
		</comp>
		<comp name="--.HNZ" depth="0.0">
			<acc value="0.0116109959152204" flag="0"/>
			<vel value="0.00933957828905134" flag="0"/>
			<psa03 value="0.0133779197788633" flag="0"/>
			<psa10 value="0.016195783951682" flag="0"/>
			<psa30 value="0.00104965216726466" flag="0"/>
		</comp>
	</station>
	<station code="KARP" name="KARP" netid="HL" source="National Observatory of Athens Seismic Network" insttype="" lat="35.5471" lon="27.16106">
		<comp name="--.HNE" depth="0.0">
			<acc value="0.00225573890731493" flag="0"/>
			<vel value="0.00275161571426229" flag="0"/>
			<psa03 value="0.0039980327536933" flag="0"/>
			<psa10 value="0.00472082210628628" flag="0"/>
			<psa30 value="0.00130278744910769" flag="0"/>
		</comp>
		<comp name="--.HNN" depth="0.0">
			<acc value="0.00181384070847703" flag="0"/>
			<vel value="0.00290259222559237" flag="0"/>
			<psa03 value="0.00319537378720602" flag="0"/>
			<psa10 value="0.00379530157635185" flag="0"/>
			<psa30 value="0.00136066899180879" flag="0"/>
		</comp>
		<comp name="--.HNZ" depth="0.0">
			<acc value="0.00118820081074826" flag="0"/>
			<vel value="0.00233558728994327" flag="0"/>
			<psa03 value="0.0037358256051139" flag="0"/>
			<psa10 value="0.00258304314518031" flag="0"/>
			<psa30 value="0.00125408620205523" flag="0"/>
		</comp>
	</station>
	<station code="SIVA" name="SIVA" netid="HL" source="National Observatory of Athens Seismic Network" insttype="" lat="35.01777" lon="24.81204">
		<comp name="00.HNE" depth="0.0">
			<acc value="0.00697319221552211" flag="0"/>
			<vel value="0.00679177215822178" flag="0"/>
			<psa03 value="0.0174047183745077" flag="0"/>
			<psa10 value="0.0144884213471288" flag="0"/>
			<psa30 value="0.00139819395682099" flag="0"/>
		</comp>
		<comp name="00.HNN" depth="0.0">
			<acc value="0.0067158761337319" flag="0"/>
			<vel value="0.00685624812388387" flag="0"/>
			<psa03 value="0.0140043106715191" flag="0"/>
			<psa10 value="0.00908043083317825" flag="0"/>
			<psa30 value="0.00145546398129238" flag="0"/>
		</comp>
		<comp name="00.HNZ" depth="0.0">
			<acc value="0.00356960544248522" flag="0"/>
			<vel value="0.00370973642071531" flag="0"/>
			<psa03 value="0.00684555761259558" flag="0"/>
			<psa10 value="0.00608851947661442" flag="0"/>
			<psa30 value="0.000655473326957681" flag="0"/>
		</comp>
	</station>
</stationlist>
