<?xml version="1.0" encoding="UTF-8" standalone="yes"?>
<!DOCTYPE earthquake SYSTEM "stationlist.dtd">
<stationlist created="" xmlns="ch.ethz.sed.shakemap.usgs.xml">
  <station code="ZKR" name="ZKR" netid="GE" insttype="STS-2/N" lat="35.1147" lon="26.2169">
    <comp name="--.HHE">
      <acc value="0.0110582808" flag="0"/>
      <vel value="0.0101587412" flag="0"/>
      <psa03 value="0.0343329139" flag="0"/>
      <psa10 value="0.0143115031" flag="0"/>
      <psa30 value="0.0041340654" flag="0"/>
    </comp>
    <comp name="--.HHN">
      <acc value="0.0055060359" flag="0"/>
      <vel value="0.0048172888" flag="0"/>
      <psa03 value="0.0227387817" flag="0"/>
      <psa10 value="0.0069579808" flag="0"/>
      <psa30 value="0.0011344266" flag="0"/>
    </comp>
    <comp name="--.HHZ">
      <acc value="0.0067454163" flag="0"/>
      <vel value="0.0072636966" flag="0"/>
      <psa03 value="0.0158852778" flag="0"/>
      <psa10 value="0.0085901542" flag="0"/>
      <psa30 value="0.0015542621" flag="0"/>
    </comp>
  </station>
  <station code="STIA" name="STIA" netid="HC" insttype="120" lat="35.2021" lon="26.0909">
    <comp name="--.HHE">
      <acc value="0.0093177711" flag="0"/>
      <vel value="0.0086982479" flag="0"/>
      <psa03 value="0.0201922891" flag="0"/>
      <psa10 value="0.0115052087" flag="0"/>
      <psa30 value="0.0034133116" flag="0"/>
    </comp>
    <comp name="--.HHZ">
      <acc value="0.0089905853" flag="0"/>
      <vel value="0.0061424713" flag="0"/>
      <psa03 value="0.0272054042" flag="0"/>
      <psa10 value="0.0074815259" flag="0"/>
      <psa30 value="0.0019063629" flag="0"/>
    </comp>
    <comp name="--.HHN">
      <acc value="0.0093992531" flag="0"/>
      <vel value="0.0075949327" flag="0"/>
      <psa03 value="0.0290595205" flag="0"/>
      <psa10 value="0.0169968660" flag="0"/>
      <psa30 value="0.0027979748" flag="0"/>
    </comp>
  </station>
  <station code="SIT2" name="SIT2" netid="HI" insttype="CMG-5TD,ACCELEROMETER,GURALP" lat="35.2059" lon="26.107">
    <comp name="--.HNZ">
      <acc value="0.0157457032" flag="0"/>
      <vel value="0.0090163439" flag="0"/>
      <psa03 value="0.0426777370" flag="0"/>
      <psa10 value="0.0090929979" flag="0"/>
      <psa30 value="0.0018343319" flag="0"/>
    </comp>
    <comp name="--.HNE">
      <acc value="0.0494725488" flag="0"/>
      <vel value="0.0367027679" flag="0"/>
      <psa03 value="0.0989926991" flag="0"/>
      <psa10 value="0.0346367073" flag="0"/>
      <psa30 value="0.0042537371" flag="0"/>
    </comp>
    <comp name="--.HNN">
      <acc value="0.0372492372" flag="0"/>
      <vel value="0.0290148649" flag="0"/>
      <psa03 value="0.1135536293" flag="0"/>
      <psa10 value="0.0325088748" flag="0"/>
      <psa30 value="0.0027376529" flag="0"/>
    </comp>
  </station>
  <station code="NPS" name="NPS" netid="HL" insttype="CMG3ESPC-120s" lat="35.2613" lon="25.6104">
    <comp name="--.HHN">
      <acc value="0.0028392927" flag="0"/>
      <vel value="0.0028475078" flag="0"/>
      <psa03 value="0.0104522489" flag="0"/>
      <psa10 value="0.0039614054" flag="0"/>
      <psa30 value="0.0005624281" flag="0"/>
    </comp>
    <comp name="--.HHE">
      <acc value="0.0019970506" flag="0"/>
      <vel value="0.0027667420" flag="0"/>
      <psa03 value="0.0045924194" flag="0"/>
      <psa10 value="0.0050141467" flag="0"/>
      <psa30 value="0.0005216705" flag="0"/>
    </comp>
    <comp name="--.HHZ">
      <acc value="0.0028250740" flag="0"/>
      <vel value="0.0040537910" flag="0"/>
      <psa03 value="0.0074512793" flag="0"/>
      <psa10 value="0.0067297298" flag="0"/>
      <psa30 value="0.0019923827" flag="0"/>
    </comp>
  </station>
  <station code="SIVA" name="SIVA" netid="HL" insttype="60" lat="35.0178" lon="24.812">
    <comp name="--.HHE">
      <acc value="0.0076079059" flag="0"/>
      <vel value="0.0074804058" flag="0"/>
      <psa03 value="0.0181930604" flag="0"/>
      <psa10 value="0.0152877800" flag="0"/>
      <psa30 value="0.0012596306" flag="0"/>
    </comp>
    <comp name="--.HHN">
      <acc value="0.0053511116" flag="0"/>
      <vel value="0.0046199845" flag="0"/>
      <psa03 value="0.0117313517" flag="0"/>
      <psa10 value="0.0069826937" flag="0"/>
      <psa30 value="0.0009592332" flag="0"/>
    </comp>
    <comp name="--.HHZ">
      <acc value="0.0039581940" flag="0"/>
      <vel value="0.0036397816" flag="0"/>
      <psa03 value="0.0070129322" flag="0"/>
      <psa10 value="0.0057860091" flag="0"/>
      <psa30 value="0.0005686933" flag="0"/>
    </comp>
  </station>
  <station code="ZKR" name="ZKR" netid="HL" insttype="120" lat="35.1147" lon="26.2169">
    <comp name="--.HHZ">
      <acc value="0.0066180661" flag="0"/>
      <vel value="0.0071800810" flag="0"/>
      <psa03 value="0.0154742129" flag="0"/>
      <psa10 value="0.0085421302" flag="0"/>
      <psa30 value="0.0015550881" flag="0"/>
    </comp>
    <comp name="--.HHE">
      <acc value="0.0108118024" flag="0"/>
      <vel value="0.0100567142" flag="0"/>
      <psa03 value="0.0334082779" flag="0"/>
      <psa10 value="0.0142042605" flag="0"/>
      <psa30 value="0.0041322938" flag="0"/>
    </comp>
    <comp name="--.HHN">
      <acc value="0.0054028125" flag="0"/>
      <vel value="0.0047658209" flag="0"/>
      <psa03 value="0.0221263301" flag="0"/>
      <psa10 value="0.0069065222" flag="0"/>
      <psa30 value="0.0011343379" flag="0"/>
    </comp>
  </station>
</stationlist>
