<stationlist created="1778138990">
	<station code="AGRP" name="AGRP" netid="CL" source="Corinth Riff Laboratory (CRLNET)" insttype="" lat="38.3959" lon="21.72277">
		<comp name="00.HNE" depth="0.0">
			<acc value="0.0338724348914959" flag="0"/>
			<vel value="0.0199641385053878" flag="0"/>
			<psa03 value="0.0866284001648695" flag="0"/>
			<psa10 value="0.00908199538762562" flag="0"/>
			<psa30 value="0.000918804928817075" flag="0"/>
		</comp>
		<comp name="00.HNN" depth="0.0">
			<acc value="0.0260641238171527" flag="0"/>
			<vel value="0.0149590488465652" flag="0"/>
			<psa03 value="0.0681234503441766" flag="0"/>
			<psa10 value="0.00718435983482205" flag="0"/>
			<psa30 value="0.000575363427503562" flag="0"/>
		</comp>
		<comp name="00.HNZ" depth="0.0">
			<acc value="0.0217475782243692" flag="0"/>
			<vel value="0.00589402918235282" flag="0"/>
			<psa03 value="0.0300114230053354" flag="0"/>
			<psa10 value="0.00318611965854251" flag="0"/>
			<psa30 value="0.000240362068640576" flag="0"/>
		</comp>
	</station>
	<station code="MALA" name="MALA" netid="CL" source="Corinth Riff Laboratory (CRLNET)" insttype="" lat="38.39341" lon="21.87263">
		<comp name="01.HNE" depth="0.0">
			<acc value="0.088370353567782" flag="0"/>
			<vel value="0.0375584308391345" flag="0"/>
			<psa03 value="0.151341348538299" flag="0"/>
			<psa10 value="0.0452763068332485" flag="0"/>
			<psa30 value="0.0038009922137473" flag="0"/>
		</comp>
		<comp name="01.HNN" depth="0.0">
			<acc value="0.0995839914871663" flag="0"/>
			<vel value="0.0359013129497815" flag="0"/>
			<psa03 value="0.17743952533111" flag="0"/>
			<psa10 value="0.0269956270778008" flag="0"/>
			<psa30 value="0.00416893492147668" flag="0"/>
		</comp>
		<comp name="01.HNZ" depth="0.0">
			<acc value="0.0667003814089019" flag="0"/>
			<vel value="0.0151539737272575" flag="0"/>
			<psa03 value="0.0782643981738464" flag="0"/>
			<psa10 value="0.0108306321637231" flag="0"/>
			<psa30 value="0.00344373583893178" flag="0"/>
		</comp>
	</station>
	<station code="ROD3" name="ROD3" netid="CL" source="Corinth Riff Laboratory (CRLNET)" insttype="" lat="38.30811" lon="21.89204">
		<comp name="00.HNE" depth="0.0">
			<acc value="0.122718297042458" flag="0"/>
			<vel value="0.0433840588395354" flag="0"/>
			<psa03 value="0.280894587054346" flag="0"/>
			<psa10 value="0.0118083509952884" flag="0"/>
			<psa30 value="0.00128895601200947" flag="0"/>
		</comp>
		<comp name="00.HNN" depth="0.0">
			<acc value="0.108262283910741" flag="0"/>
			<vel value="0.0471146836898877" flag="0"/>
			<psa03 value="0.328488239900551" flag="0"/>
			<psa10 value="0.0145188646160208" flag="0"/>
			<psa30 value="0.00117105434743849" flag="0"/>
		</comp>
		<comp name="00.HNZ" depth="0.0">
			<acc value="0.121709264059511" flag="0"/>
			<vel value="0.026907642361875" flag="0"/>
			<psa03 value="0.0848300310315281" flag="0"/>
			<psa10 value="0.00445972184094606" flag="0"/>
			<psa30 value="0.000453647343578475" flag="0"/>
		</comp>
	</station>
	<station code="DRES" name="DRES" netid="HA" source="Hellenic Seismological Network, University of Athens, Seismological Laboratory (HA)" insttype="" lat="38.319719" lon="21.853176">
		<comp name="--.HNE" depth="0.0">
			<acc value="0.076338019457725" flag="0"/>
			<vel value="0.024755312637138" flag="0"/>
			<psa03 value="0.171832872667728" flag="0"/>
			<psa10 value="0.0119921262945195" flag="0"/>
			<psa30 value="0.000812480489512969" flag="0"/>
		</comp>
		<comp name="--.HNN" depth="0.0">
			<acc value="0.0881919917698765" flag="0"/>
			<vel value="0.0338688559951308" flag="0"/>
			<psa03 value="0.236644572374771" flag="0"/>
			<psa10 value="0.0102537080078259" flag="0"/>
			<psa30 value="0.000952980734462715" flag="0"/>
		</comp>
		<comp name="--.HNZ" depth="0.0">
			<acc value="0.0371603868058574" flag="0"/>
			<vel value="0.0119554224033918" flag="0"/>
			<psa03 value="0.085646632002332" flag="0"/>
			<psa10 value="0.00716821501532197" flag="0"/>
			<psa30 value="0.00066617751640565" flag="0"/>
		</comp>
	</station>
	<station code="KIAS" name="KIAS" netid="HA" source="Hellenic Seismological Network, University of Athens, Seismological Laboratory (HA)" insttype="" lat="37.9875" lon="22.7543">
		<comp name="--.HNE" depth="0.0">
			<acc value="0.0299130507203433" flag="0"/>
			<vel value="0.00787070948328342" flag="0"/>
			<psa03 value="0.039244776857179" flag="0"/>
			<psa10 value="0.00777635905187083" flag="0"/>
			<psa30 value="0.000795716931093481" flag="0"/>
		</comp>
		<comp name="--.HNN" depth="0.0">
			<acc value="0.035320533320149" flag="0"/>
			<vel value="0.0103519874083056" flag="0"/>
			<psa03 value="0.0435574896366042" flag="0"/>
			<psa10 value="0.00612601488090708" flag="0"/>
			<psa30 value="0.000816394811315209" flag="0"/>
		</comp>
		<comp name="--.HNZ" depth="0.0">
			<acc value="0.0216906368334035" flag="0"/>
			<vel value="0.00407172259345788" flag="0"/>
			<psa03 value="0.0302600254114882" flag="0"/>
			<psa10 value="0.00415342217509817" flag="0"/>
			<psa30 value="0.000827302981847787" flag="0"/>
		</comp>
	</station>
	<station code="LTRS" name="LTRS" netid="HA" source="Hellenic Seismological Network, University of Athens, Seismological Laboratory (HA)" insttype="" lat="37.97528" lon="22.9765">
		<comp name="--.HNE" depth="0.0">
			<acc value="0.0114393723488413" flag="0"/>
			<vel value="0.00562440702973819" flag="0"/>
			<psa03 value="0.0350320134073051" flag="0"/>
			<psa10 value="0.00823150467178056" flag="0"/>
			<psa30 value="0.000582388788733773" flag="0"/>
		</comp>
		<comp name="--.HNN" depth="0.0">
			<acc value="0.0127991762982767" flag="0"/>
			<vel value="0.00565924020772067" flag="0"/>
			<psa03 value="0.0358891769610266" flag="0"/>
			<psa10 value="0.0057200715829165" flag="0"/>
			<psa30 value="0.000721391955342738" flag="0"/>
		</comp>
		<comp name="--.HNZ" depth="0.0">
			<acc value="0.00759494001906598" flag="0"/>
			<vel value="0.00390546425961053" flag="0"/>
			<psa03 value="0.0204497830831874" flag="0"/>
			<psa10 value="0.00579464246039411" flag="0"/>
			<psa30 value="0.000593291958931031" flag="0"/>
		</comp>
	</station>
	<station code="ARG2" name="ARG2" netid="HI" source="ITSAK Strong Motion Network" insttype="" lat="38.1783" lon="20.4878">
		<comp name="--.HNE" depth="0.0">
			<acc value="0.0181430309490101" flag="0"/>
			<vel value="0.00542428715774234" flag="0"/>
			<psa03 value="0.0262894003979114" flag="0"/>
			<psa10 value="0.00175301753505743" flag="0"/>
			<psa30 value="0.000133953535222678" flag="0"/>
		</comp>
		<comp name="--.HNN" depth="0.0">
			<acc value="0.0245176240141449" flag="0"/>
			<vel value="0.00764074086897445" flag="0"/>
			<psa03 value="0.0372765162612536" flag="0"/>
			<psa10 value="0.00265071684698392" flag="0"/>
			<psa30 value="0.000202987639643384" flag="0"/>
		</comp>
		<comp name="--.HNZ" depth="0.0">
			<acc value="0.0120365827370044" flag="0"/>
			<vel value="0.00363298880580672" flag="0"/>
			<psa03 value="0.0417599070138956" flag="0"/>
			<psa10 value="0.00148443716480075" flag="0"/>
			<psa30 value="8.67459743595748e-05" flag="0"/>
		</comp>
	</station>
	<station code="KLV1" name="KLV1" netid="HI" source="ITSAK Strong Motion Network" insttype="" lat="38.03256" lon="22.10797">
		<comp name="--.HNE" depth="0.0">
			<acc value="0.0366688169336805" flag="0"/>
			<vel value="0.0134506430988444" flag="0"/>
			<psa03 value="0.11238483036033" flag="0"/>
			<psa10 value="0.00577390030505749" flag="0"/>
			<psa30 value="0.00056324434342139" flag="0"/>
		</comp>
		<comp name="--.HNN" depth="0.0">
			<acc value="0.035074772630413" flag="0"/>
			<vel value="0.0107073955014658" flag="0"/>
			<psa03 value="0.0736710157600212" flag="0"/>
			<psa10 value="0.00572473361052079" flag="0"/>
			<psa30 value="0.000311222830526793" flag="0"/>
		</comp>
		<comp name="--.HNZ" depth="0.0">
			<acc value="0.0250447331193901" flag="0"/>
			<vel value="0.00627655857306681" flag="0"/>
			<psa03 value="0.0263953839813094" flag="0"/>
			<psa10 value="0.00241598200007471" flag="0"/>
			<psa30 value="0.000269019175366703" flag="0"/>
		</comp>
	</station>
	<station code="KRI1" name="KRI1" netid="HI" source="ITSAK Strong Motion Network" insttype="" lat="37.6621" lon="20.8172">
		<comp name="--.HNE" depth="0.0">
			<acc value="0.0107286211562193" flag="0"/>
			<vel value="0.00431251689906714" flag="0"/>
			<psa03 value="0.024297429897986" flag="0"/>
			<psa10 value="0.00297099861095028" flag="0"/>
			<psa30 value="0.000144315211216035" flag="0"/>
		</comp>
		<comp name="--.HNN" depth="0.0">
			<acc value="0.0109194927218949" flag="0"/>
			<vel value="0.00523717059622767" flag="0"/>
			<psa03 value="0.0275614742498847" flag="0"/>
			<psa10 value="0.00340034041211391" flag="0"/>
			<psa30 value="0.000192050352601734" flag="0"/>
		</comp>
		<comp name="--.HNZ" depth="0.0">
			<acc value="0.00712988757245586" flag="0"/>
			<vel value="0.0024503457291453" flag="0"/>
			<psa03 value="0.0124246407797954" flag="0"/>
			<psa10 value="0.00115672276001848" flag="0"/>
			<psa30 value="7.58561774432241e-05" flag="0"/>
		</comp>
	</station>
	<station code="LAM2" name="LAM2" netid="HI" source="ITSAK Strong Motion Network" insttype="" lat="38.90203" lon="22.431301">
		<comp name="--.HNE" depth="0.0">
			<acc value="0.0352140596947276" flag="0"/>
			<vel value="0.0127200869431849" flag="0"/>
			<psa03 value="0.0774239987517547" flag="0"/>
			<psa10 value="0.0084374505021986" flag="0"/>
			<psa30 value="0.000466293077127899" flag="0"/>
		</comp>
		<comp name="--.HNN" depth="0.0">
			<acc value="0.0506277817642381" flag="0"/>
			<vel value="0.0151110987049576" flag="0"/>
			<psa03 value="0.0777286699764116" flag="0"/>
			<psa10 value="0.00422794195540091" flag="0"/>
			<psa30 value="0.000341785454109035" flag="0"/>
		</comp>
		<comp name="--.HNZ" depth="0.0">
			<acc value="0.0252335566988573" flag="0"/>
			<vel value="0.0041543436891299" flag="0"/>
			<psa03 value="0.0245519780105634" flag="0"/>
			<psa10 value="0.00177744817690569" flag="0"/>
			<psa30 value="0.000103455746664675" flag="0"/>
		</comp>
	</station>
	<station code="MSL1" name="MSL1" netid="HI" source="ITSAK Strong Motion Network" insttype="" lat="38.3727" lon="21.4243">
		<comp name="--.HNE" depth="0.0">
			<acc value="0.0315560799891285" flag="0"/>
			<vel value="0.0221376448421638" flag="0"/>
			<psa03 value="0.112718342036881" flag="0"/>
			<psa10 value="0.0272062279040663" flag="0"/>
			<psa30 value="0.00143603471358476" flag="0"/>
		</comp>
		<comp name="--.HNN" depth="0.0">
			<acc value="0.0434383801765489" flag="0"/>
			<vel value="0.0158294736526251" flag="0"/>
			<psa03 value="0.10003236623677" flag="0"/>
			<psa10 value="0.0208713795014557" flag="0"/>
			<psa30 value="0.00123580176163568" flag="0"/>
		</comp>
		<comp name="--.HNZ" depth="0.0">
			<acc value="0.0202078938041188" flag="0"/>
			<vel value="0.00938140931247221" flag="0"/>
			<psa03 value="0.0377610405461254" flag="0"/>
			<psa10 value="0.0145419970859299" flag="0"/>
			<psa30 value="0.000766719385146676" flag="0"/>
		</comp>
	</station>
	<station code="SKY1" name="SKY1" netid="HI" source="ITSAK Strong Motion Network" insttype="" lat="38.904483" lon="24.564572">
		<comp name="--.HNE" depth="0.0">
			<acc value="0.00235932212053104" flag="0"/>
			<vel value="0.00101210023677947" flag="0"/>
			<psa03 value="0.0105484175309068" flag="0"/>
			<psa10 value="0.000532776231311331" flag="0"/>
			<psa30 value="6.93286421615072e-05" flag="0"/>
		</comp>
		<comp name="--.HNN" depth="0.0">
			<acc value="0.00320445263967284" flag="0"/>
			<vel value="0.00203845694282293" flag="0"/>
			<psa03 value="0.0117098707735635" flag="0"/>
			<psa10 value="0.000745930683778421" flag="0"/>
			<psa30 value="6.61110657315923e-05" flag="0"/>
		</comp>
		<comp name="--.HNZ" depth="0.0">
			<acc value="0.00218282187545526" flag="0"/>
			<vel value="0.00122001312529798" flag="0"/>
			<psa03 value="0.00685555961592897" flag="0"/>
			<psa10 value="0.000422125385608308" flag="0"/>
			<psa30 value="3.63978603983862e-05" flag="0"/>
		</comp>
	</station>
	<station code="VAS2" name="VAS2" netid="HI" source="ITSAK Strong Motion Network" insttype="" lat="38.630558" lon="20.608081">
		<comp name="--.HNE" depth="0.0">
			<acc value="0.0302498565364769" flag="0"/>
			<vel value="0.0123609519695373" flag="0"/>
			<psa03 value="0.0813734114223556" flag="0"/>
			<psa10 value="0.0106597305298172" flag="0"/>
			<psa30 value="0.000517005603252393" flag="0"/>
		</comp>
		<comp name="--.HNN" depth="0.0">
			<acc value="0.0400621253794429" flag="0"/>
			<vel value="0.0151650976492124" flag="0"/>
			<psa03 value="0.0898539523834887" flag="0"/>
			<psa10 value="0.0138185947890746" flag="0"/>
			<psa30 value="0.000517023625278992" flag="0"/>
		</comp>
		<comp name="--.HNZ" depth="0.0">
			<acc value="0.0143257366857521" flag="0"/>
			<vel value="0.00675227780291508" flag="0"/>
			<psa03 value="0.0340678271388351" flag="0"/>
			<psa10 value="0.00431835341348984" flag="0"/>
			<psa30 value="0.000232132200535815" flag="0"/>
		</comp>
	</station>
	<station code="ATHP" name="ATHP" netid="HL" source="National Observatory of Athens Seismic Network" insttype="" lat="38.000799" lon="23.773487">
		<comp name="00.HNE" depth="0.0">
			<acc value="0.00743622058098282" flag="0"/>
			<vel value="0.00418558442954443" flag="0"/>
			<psa03 value="0.0229762772739478" flag="0"/>
			<psa10 value="0.00222006058374122" flag="0"/>
			<psa30 value="0.000165268057572753" flag="0"/>
		</comp>
		<comp name="00.HNN" depth="0.0">
			<acc value="0.00769550147572704" flag="0"/>
			<vel value="0.00363706331955797" flag="0"/>
			<psa03 value="0.014506638076912" flag="0"/>
			<psa10 value="0.0036331795084368" flag="0"/>
			<psa30 value="0.000164300910170508" flag="0"/>
		</comp>
		<comp name="00.HNZ" depth="0.0">
			<acc value="0.00600259836219232" flag="0"/>
			<vel value="0.00266414202683954" flag="0"/>
			<psa03 value="0.0113830913135332" flag="0"/>
			<psa10 value="0.00136550893482949" flag="0"/>
			<psa30 value="0.000130930991244105" flag="0"/>
		</comp>
	</station>
	<station code="DLFA" name="DLFA" netid="HL" source="National Observatory of Athens Seismic Network" insttype="" lat="38.47836" lon="22.49583">
		<comp name="00.HNE" depth="0.0">
			<acc value="0.0574868564819612" flag="0"/>
			<vel value="0.0220969071647258" flag="0"/>
			<psa03 value="0.130133151932871" flag="0"/>
			<psa10 value="0.010133138458198" flag="0"/>
			<psa30 value="0.000690769926785126" flag="0"/>
		</comp>
		<comp name="00.HNN" depth="0.0">
			<acc value="0.0670715559943004" flag="0"/>
			<vel value="0.0208775292596386" flag="0"/>
			<psa03 value="0.107431002193105" flag="0"/>
			<psa10 value="0.0084008949555572" flag="0"/>
			<psa30 value="0.000646243175023466" flag="0"/>
		</comp>
		<comp name="00.HNZ" depth="0.0">
			<acc value="0.0414177056138629" flag="0"/>
			<vel value="0.0135046400815418" flag="0"/>
			<psa03 value="0.0790094162775412" flag="0"/>
			<psa10 value="0.0083474670412171" flag="0"/>
			<psa30 value="0.000529438510200856" flag="0"/>
		</comp>
	</station>
	<station code="ITM" name="ITM" netid="HL" source="National Observatory of Athens Seismic Network" insttype="" lat="37.17872" lon="21.92522">
		<comp name="--.HNE" depth="0.0">
			<acc value="0.00472445437522561" flag="0"/>
			<vel value="0.00224340831332489" flag="0"/>
			<psa03 value="0.0104728597911727" flag="0"/>
			<psa10 value="0.00180955862437907" flag="0"/>
			<psa30 value="0.000315023655229428" flag="0"/>
		</comp>
		<comp name="--.HNN" depth="0.0">
			<acc value="0.00440705388439982" flag="0"/>
			<vel value="0.00140173935362918" flag="0"/>
			<psa03 value="0.00700631113893313" flag="0"/>
			<psa10 value="0.00129490078082357" flag="0"/>
			<psa30 value="0.000122596689137442" flag="0"/>
		</comp>
		<comp name="--.HNZ" depth="0.0">
			<acc value="0.00715905608469192" flag="0"/>
			<vel value="0.00123280874186211" flag="0"/>
			<psa03 value="0.00592797798592063" flag="0"/>
			<psa10 value="0.00113802413851489" flag="0"/>
			<psa30 value="0.000163793051006786" flag="0"/>
		</comp>
	</station>
	<station code="JAN" name="JAN" netid="HL" source="National Observatory of Athens Seismic Network" insttype="" lat="39.65616" lon="20.84874">
		<comp name="00.HNE" depth="0.0">
			<acc value="0.00361014341255206" flag="0"/>
			<vel value="0.0013707755375582" flag="0"/>
			<psa03 value="0.00743855071017681" flag="0"/>
			<psa10 value="0.000903125042445277" flag="0"/>
			<psa30 value="0.000135984346837444" flag="0"/>
		</comp>
		<comp name="00.HNN" depth="0.0">
			<acc value="0.0029347987967438" flag="0"/>
			<vel value="0.00102040554280389" flag="0"/>
			<psa03 value="0.00552826400683117" flag="0"/>
			<psa10 value="0.000855282009796945" flag="0"/>
			<psa30 value="0.000113084743913541" flag="0"/>
		</comp>
		<comp name="00.HNZ" depth="0.0">
			<acc value="0.00215370842187922" flag="0"/>
			<vel value="0.000709579791946278" flag="0"/>
			<psa03 value="0.00344322093503201" flag="0"/>
			<psa10 value="0.00042172797646972" flag="0"/>
			<psa30 value="0.00018056916234182" flag="0"/>
		</comp>
	</station>
	<station code="LKR" name="LKR" netid="HL" source="National Observatory of Athens Seismic Network" insttype="" lat="38.64957" lon="22.998812">
		<comp name="--.HNE" depth="0.0">
			<acc value="0.0445272902804505" flag="0"/>
			<vel value="0.00992531153356084" flag="0"/>
			<psa03 value="0.0421759059259624" flag="0"/>
			<psa10 value="0.0020292952902305" flag="0"/>
			<psa30 value="0.000185428012862443" flag="0"/>
		</comp>
		<comp name="--.HNN" depth="0.0">
			<acc value="0.0390704601458145" flag="0"/>
			<vel value="0.00845077524421309" flag="0"/>
			<psa03 value="0.0327157323608784" flag="0"/>
			<psa10 value="0.0018453014218521" flag="0"/>
			<psa30 value="0.000143346670492708" flag="0"/>
		</comp>
		<comp name="--.HNZ" depth="0.0">
			<acc value="0.042728976399982" flag="0"/>
			<vel value="0.00972489768613344" flag="0"/>
			<psa03 value="0.028807838065385" flag="0"/>
			<psa10 value="0.00152926200922634" flag="0"/>
			<psa30 value="0.000149208933838894" flag="0"/>
		</comp>
	</station>
	<station code="MNVA" name="MNVA" netid="HL" source="National Observatory of Athens Seismic Network" insttype="" lat="36.68709" lon="23.03734">
		<comp name="00.HNE" depth="0.0">
			<acc value="0.00147417832808531" flag="0"/>
			<vel value="0.00060589038259373" flag="0"/>
			<psa03 value="0.0033989748398798" flag="0"/>
			<psa10 value="0.000548067810709349" flag="0"/>
			<psa30 value="8.4044597489908e-05" flag="0"/>
		</comp>
		<comp name="00.HNN" depth="0.0">
			<acc value="0.0015606515836838" flag="0"/>
			<vel value="0.000548878028818994" flag="0"/>
			<psa03 value="0.00300207419820172" flag="0"/>
			<psa10 value="0.000356471778568467" flag="0"/>
			<psa30 value="9.32843111383723e-05" flag="0"/>
		</comp>
		<comp name="00.HNZ" depth="0.0">
			<acc value="0.00173085708348558" flag="0"/>
			<vel value="0.000567570062326234" flag="0"/>
			<psa03 value="0.00328198792340553" flag="0"/>
			<psa10 value="0.000289375966612617" flag="0"/>
			<psa30 value="0.000106923339657063" flag="0"/>
		</comp>
	</station>
	<station code="NOAC" name="NOAC" netid="HL" source="National Observatory of Athens Seismic Network" insttype="" lat="37.97384" lon="23.71767">
		<comp name="00.HNE" depth="0.0">
			<acc value="0.00861224152968496" flag="0"/>
			<vel value="0.00577100510273956" flag="0"/>
			<psa03 value="0.0262738837449969" flag="0"/>
			<psa10 value="0.0029092292065338" flag="0"/>
			<psa30 value="0.000181301137914659" flag="0"/>
		</comp>
		<comp name="00.HNN" depth="0.0">
			<acc value="0.0115436552626695" flag="0"/>
			<vel value="0.00550920177536886" flag="0"/>
			<psa03 value="0.0436336926013286" flag="0"/>
			<psa10 value="0.00311058192016131" flag="0"/>
			<psa30 value="0.00016449989470633" flag="0"/>
		</comp>
		<comp name="00.HNZ" depth="0.0">
			<acc value="0.0132556948160264" flag="0"/>
			<vel value="0.00481871301003948" flag="0"/>
