<?xml version="1.0" encoding="UTF-8" standalone="yes"?>
<!DOCTYPE earthquake SYSTEM "stationlist.dtd">
<stationlist created="" xmlns="ch.ethz.sed.shakemap.usgs.xml">
  <station code="AIGS" name="AIGS" netid="HA" insttype="DC" lat="38.25" lon="22.0878">
    <comp name="--.HNZ">
      <acc value="0.0648880177" flag="0"/>
      <vel value="0.0149769073" flag="0"/>
      <psa03 value="0.0458939361" flag="0"/>
      <psa10 value="0.0086914537" flag="0"/>
      <psa30 value="0.0006587605" flag="0"/>
    </comp>
    <comp name="--.HNE">
      <acc value="0.0883694581" flag="0"/>
      <vel value="0.0212558123" flag="0"/>
      <psa03 value="0.1077759013" flag="0"/>
      <psa10 value="0.0058043462" flag="0"/>
      <psa30 value="0.0005785723" flag="0"/>
    </comp>
    <comp name="--.HNN">
      <acc value="0.0662082262" flag="0"/>
      <vel value="0.0190752838" flag="0"/>
      <psa03 value="0.1200315752" flag="0"/>
      <psa10 value="0.0101190586" flag="0"/>
      <psa30 value="0.0015330339" flag="0"/>
    </comp>
  </station>
  <station code="AMPE" name="AMPE" netid="HA" insttype="1s-100Hz," lat="38.3015" lon="23.2688">
    <comp name="--.HHN">
      <acc value="0.0084922198" flag="0"/>
      <vel value="0.0034979778" flag="0"/>
      <psa03 value="0.0114405413" flag="0"/>
      <psa10 value="0.0027272137" flag="0"/>
      <psa30 value="0.0002014502" flag="0"/>
    </comp>
    <comp name="--.HHZ">
      <acc value="0.0079530256" flag="0"/>
      <vel value="0.0021275962" flag="0"/>
      <psa03 value="0.0099743893" flag="0"/>
      <psa10 value="0.0012277665" flag="0"/>
      <psa30 value="0.0000903361" flag="0"/>
    </comp>
    <comp name="--.HHE">
      <acc value="0.0095750946" flag="0"/>
      <vel value="0.0045585674" flag="0"/>
      <psa03 value="0.0214276553" flag="0"/>
      <psa10 value="0.0033946942" flag="0"/>
      <psa30 value="0.0001789202" flag="0"/>
    </comp>
  </station>
  <station code="ATAL" name="ATAL" netid="HA" insttype="120" lat="38.6926" lon="23.0213">
    <comp name="--.HHZ">
      <acc value="0.0111099525" flag="0"/>
      <vel value="0.0046247287" flag="0"/>
      <psa03 value="0.0142799272" flag="0"/>
      <psa10 value="0.0015363166" flag="0"/>
      <psa30 value="0.0005972573" flag="0"/>
    </comp>
    <comp name="--.HHE">
      <acc value="0.0149877167" flag="0"/>
      <vel value="0.0034722091" flag="0"/>
      <psa03 value="0.0195304126" flag="0"/>
      <psa10 value="0.0011355669" flag="0"/>
      <psa30 value="0.0000944887" flag="0"/>
    </comp>
    <comp name="--.HHN">
      <acc value="0.0125773855" flag="0"/>
      <vel value="0.0028447193" flag="0"/>
      <psa03 value="0.0165868336" flag="0"/>
      <psa10 value="0.0011335658" flag="0"/>
      <psa30 value="0.0000844723" flag="0"/>
    </comp>
  </station>
  <station code="AXAR" name="AXAR" netid="HA" insttype="30" lat="38.7664" lon="22.659">
    <comp name="--.HHN">
      <acc value="0.0049584886" flag="0"/>
      <vel value="0.0021227450" flag="0"/>
      <psa03 value="0.0126505115" flag="0"/>
      <psa10 value="0.0014980614" flag="0"/>
      <psa30 value="0.0000782391" flag="0"/>
    </comp>
    <comp name="--.HHE">
      <acc value="0.0064171827" flag="0"/>
      <vel value="0.0024448943" flag="0"/>
      <psa03 value="0.0255037969" flag="0"/>
      <psa10 value="0.0008833341" flag="0"/>
      <psa30 value="0.0000823171" flag="0"/>
    </comp>
    <comp name="--.HHZ">
      <acc value="0.0039756963" flag="0"/>
      <vel value="0.0010632017" flag="0"/>
      <psa03 value="0.0062212153" flag="0"/>
      <psa10 value="0.0004625199" flag="0"/>
      <psa30 value="0.0000641244" flag="0"/>
    </comp>
  </station>
  <station code="DRES" name="DRES" netid="HA" insttype="DC" lat="38.3197" lon="21.8532">
    <comp name="--.HNE">
      <acc value="0.0761392664" flag="0"/>
      <vel value="0.0247615446" flag="0"/>
      <psa03 value="0.1682317112" flag="0"/>
      <psa10 value="0.0119552495" flag="0"/>
      <psa30 value="0.0007277384" flag="0"/>
    </comp>
    <comp name="--.HNN">
      <acc value="0.0876135520" flag="0"/>
      <vel value="0.0342245977" flag="0"/>
      <psa03 value="0.2341331101" flag="0"/>
      <psa10 value="0.0102561544" flag="0"/>
      <psa30 value="0.0009174701" flag="0"/>
    </comp>
    <comp name="--.HNZ">
      <acc value="0.0370728954" flag="0"/>
      <vel value="0.0118590079" flag="0"/>
      <psa03 value="0.0842783840" flag="0"/>
      <psa10 value="0.0071676785" flag="0"/>
      <psa30 value="0.0006245979" flag="0"/>
    </comp>
  </station>
  <station code="KALE" name="KALE" netid="HA" insttype="40," lat="38.3911" lon="22.1398">
    <comp name="--.HHE">
      <acc value="0.4403198858" flag="0"/>
      <vel value="0.1469276804" flag="0"/>
      <psa03 value="1.2856963086" flag="0"/>
      <psa10 value="0.0325040367" flag="0"/>
      <psa30 value="0.0030717986" flag="0"/>
    </comp>
    <comp name="--.HHN">
      <acc value="0.4907204039" flag="0"/>
      <vel value="0.1195070031" flag="0"/>
      <psa03 value="0.7560043299" flag="0"/>
      <psa10 value="0.0276920927" flag="0"/>
      <psa30 value="0.0026036415" flag="0"/>
    </comp>
    <comp name="--.HHZ">
      <acc value="0.1336370010" flag="0"/>
      <vel value="0.0400065870" flag="0"/>
      <psa03 value="0.1734537742" flag="0"/>
      <psa10 value="0.0069050906" flag="0"/>
      <psa30 value="0.0006895586" flag="0"/>
    </comp>
  </station>
  <station code="LAKA" name="LAKA" netid="HA" insttype="120s" lat="38.2401" lon="21.9785">
    <comp name="--.HHE">
      <acc value="0.0000319000" flag="0"/>
      <vel value="0.0000033286" flag="0"/>
      <psa03 value="0.0000104291" flag="0"/>
      <psa10 value="0.0000029484" flag="0"/>
      <psa30 value="0.0000006596" flag="0"/>
    </comp>
    <comp name="--.HHN">
      <acc value="0.0000283935" flag="0"/>
      <vel value="0.0000029673" flag="0"/>
      <psa03 value="0.0000099932" flag="0"/>
      <psa10 value="0.0000027001" flag="0"/>
      <psa30 value="0.0000006323" flag="0"/>
    </comp>
    <comp name="--.HHZ">
      <acc value="0.0222279453" flag="0"/>
      <vel value="0.0043983884" flag="0"/>
      <psa03 value="0.0269527796" flag="0"/>
      <psa10 value="0.0031558195" flag="0"/>
      <psa30 value="0.0002936639" flag="0"/>
    </comp>
  </station>
  <station code="LOUT" name="LOUT" netid="HA" insttype="30" lat="37.9879" lon="22.9743">
    <comp name="--.HHN">
      <acc value="0.0108643124" flag="0"/>
      <vel value="0.0042188576" flag="0"/>
      <psa03 value="0.0214134259" flag="0"/>
      <psa10 value="0.0042391732" flag="0"/>
      <psa30 value="0.0002478564" flag="0"/>
    </comp>
    <comp name="--.HHE">
      <acc value="0.0156766294" flag="0"/>
      <vel value="0.0050171887" flag="0"/>
      <psa03 value="0.0295989845" flag="0"/>
      <psa10 value="0.0034346576" flag="0"/>
      <psa30 value="0.0002133295" flag="0"/>
    </comp>
    <comp name="--.HHZ">
      <acc value="0.0081601618" flag="0"/>
      <vel value="0.0022998863" flag="0"/>
      <psa03 value="0.0128588467" flag="0"/>
      <psa10 value="0.0012339699" flag="0"/>
      <psa30 value="0.0000811703" flag="0"/>
    </comp>
  </station>
  <station code="MDRA" name="MDRA" netid="HA" insttype="60" lat="38.0606" lon="23.4662">
    <comp name="--.HHE">
      <acc value="0.0035949972" flag="0"/>
      <vel value="0.0017929523" flag="0"/>
      <psa03 value="0.0050415464" flag="0"/>
      <psa10 value="0.0010686270" flag="0"/>
      <psa30 value="0.0000515075" flag="0"/>
    </comp>
    <comp name="--.HHN">
      <acc value="0.0054482245" flag="0"/>
      <vel value="0.0015328906" flag="0"/>
      <psa03 value="0.0088050658" flag="0"/>
      <psa10 value="0.0011141484" flag="0"/>
      <psa30 value="0.0000786505" flag="0"/>
    </comp>
    <comp name="--.HHZ">
      <acc value="0.0031590153" flag="0"/>
      <vel value="0.0011640254" flag="0"/>
      <psa03 value="0.0061060692" flag="0"/>
      <psa10 value="0.0006296307" flag="0"/>
      <psa30 value="0.0000419255" flag="0"/>
    </comp>
  </station>
  <station code="STFN" name="STFN" netid="HA" insttype="1s-100Hz," lat="38.1766" lon="23.544">
    <comp name="--.HHE">
      <acc value="0.0082478775" flag="0"/>
      <vel value="0.0042075854" flag="0"/>
      <psa03 value="0.0171003703" flag="0"/>
      <psa10 value="0.0031389545" flag="0"/>
      <psa30 value="0.0001973540" flag="0"/>
    </comp>
    <comp name="--.HHN">
      <acc value="0.0098956217" flag="0"/>
      <vel value="0.0035810197" flag="0"/>
      <psa03 value="0.0145223797" flag="0"/>
      <psa10 value="0.0021297362" flag="0"/>
      <psa30 value="0.0001224758" flag="0"/>
    </comp>
    <comp name="--.HHZ">
      <acc value="0.0129444974" flag="0"/>
      <vel value="0.0025631451" flag="0"/>
      <psa03 value="0.0096041811" flag="0"/>
      <psa10 value="0.0020194393" flag="0"/>
      <psa30 value="0.0001155652" flag="0"/>
    </comp>
  </station>
  <station code="THAL" name="THAL" netid="HA" insttype="30" lat="38.0357" lon="22.6634">
    <comp name="--.HHZ">
      <acc value="0.0377360726" flag="0"/>
      <vel value="0.0103908695" flag="0"/>
      <psa03 value="0.0501251763" flag="0"/>
      <psa10 value="0.0032120665" flag="0"/>
      <psa30 value="0.0002661250" flag="0"/>
    </comp>
    <comp name="--.HHN">
      <acc value="0.0499106224" flag="0"/>
      <vel value="0.0138061715" flag="0"/>
      <psa03 value="0.0682935400" flag="0"/>
      <psa10 value="0.0084524101" flag="0"/>
      <psa30 value="0.0005025629" flag="0"/>
    </comp>
    <comp name="--.HHE">
      <acc value="0.0665732803" flag="0"/>
      <vel value="0.0205424990" flag="0"/>
      <psa03 value="0.0914934941" flag="0"/>
      <psa10 value="0.0074012498" flag="0"/>
      <psa30 value="0.0004901488" flag="0"/>
    </comp>
  </station>
  <station code="THIV" name="THIV" netid="HA" insttype="1s-100Hz," lat="38.299" lon="23.332">
    <comp name="--.HHE">
      <acc value="0.0263230027" flag="0"/>
      <vel value="0.0084498096" flag="0"/>
      <psa03 value="0.0226776774" flag="0"/>
      <psa10 value="0.0047640844" flag="0"/>
      <psa30 value="0.0003753164" flag="0"/>
    </comp>
    <comp name="--.HHZ">
      <acc value="0.0243019162" flag="0"/>
      <vel value="0.0055301339" flag="0"/>
      <psa03 value="0.0214800325" flag="0"/>
      <psa10 value="0.0020150946" flag="0"/>
      <psa30 value="0.0002519880" flag="0"/>
    </comp>
    <comp name="--.HHN">
      <acc value="0.0194310715" flag="0"/>
      <vel value="0.0054705414" flag="0"/>
      <psa03 value="0.0211003352" flag="0"/>
      <psa10 value="0.0046695745" flag="0"/>
      <psa30 value="0.0002139286" flag="0"/>
    </comp>
  </station>
  <station code="KLV1" name="KLV1" netid="HI" insttype="CMG-5TD,ACCELEROMETER,GURALP" lat="38.0326" lon="22.108">
    <comp name="--.HNN">
      <acc value="0.0347518023" flag="0"/>
      <vel value="0.0105686136" flag="0"/>
      <psa03 value="0.0740432933" flag="0"/>
      <psa10 value="0.0057049304" flag="0"/>
      <psa30 value="0.0003088697" flag="0"/>
    </comp>
    <comp name="--.HNZ">
      <acc value="0.0252279221" flag="0"/>
      <vel value="0.0061791669" flag="0"/>
      <psa03 value="0.0263837247" flag="0"/>
      <psa10 value="0.0024095253" flag="0"/>
      <psa30 value="0.0002652576" flag="0"/>
    </comp>
    <comp name="--.HNE">
      <acc value="0.0364604768" flag="0"/>
      <vel value="0.0133355040" flag="0"/>
      <psa03 value="0.1128225367" flag="0"/>
      <psa10 value="0.0057679777" flag="0"/>
      <psa30 value="0.0005521795" flag="0"/>
    </comp>
  </station>
  <station code="LAM2" name="LAM2" netid="HI" insttype="CMG-5TD,ACCELEROMETER,GURALP" lat="38.902" lon="22.4313">
    <comp name="--.HNZ">
      <acc value="0.0270834910" flag="0"/>
      <vel value="0.0042305748" flag="0"/>
      <psa03 value="0.0237133943" flag="0"/>
      <psa10 value="0.0017831242" flag="0"/>
      <psa30 value="0.0001154056" flag="0"/>
    </comp>
    <comp name="--.HNE">
      <acc value="0.0349531548" flag="0"/>
      <vel value="0.0126990113" flag="0"/>
      <psa03 value="0.0762425201" flag="0"/>
      <psa10 value="0.0084494907" flag="0"/>
      <psa30 value="0.0004767551" flag="0"/>
    </comp>
    <comp name="--.HNN">
      <acc value="0.0502968965" flag="0"/>
      <vel value="0.0149700024" flag="0"/>
      <psa03 value="0.0776202591" flag="0"/>
      <psa10 value="0.0042159592" flag="0"/>
      <psa30 value="0.0003527424" flag="0"/>
    </comp>
  </station>
  <station code="MSL1" name="MSL1" netid="HI" insttype="CMG-5TD,ACCELEROMETER,GURALP" lat="38.3727" lon="21.4243">
    <comp name="--.HNN">
      <acc value="0.0431239750" flag="0"/>
      <vel value="0.0161584576" flag="0"/>
      <psa03 value="0.0998633498" flag="0"/>
      <psa10 value="0.0209214152" flag="0"/>
      <psa30 value="0.0014315825" flag="0"/>
    </comp>
    <comp name="--.HNZ">
      <acc value="0.0200926832" flag="0"/>
      <vel value="0.0093960069" flag="0"/>
      <psa03 value="0.0369313798" flag="0"/>
      <psa10 value="0.0146185571" flag="0"/>
      <psa30 value="0.0009035572" flag="0"/>
    </comp>
    <comp name="--.HNE">
      <acc value="0.0317757429" flag="0"/>
      <vel value="0.0222212016" flag="0"/>
      <psa03 value="0.1149248913" flag="0"/>
      <psa10 value="0.0274226909" flag="0"/>
      <psa30 value="0.0017043273" flag="0"/>
    </comp>
  </station>
  <station code="DLFA" name="DLFA" netid="HL" insttype="CMG-5" lat="38.4784" lon="22.4958">
    <comp name="00.HNE">
      <acc value="0.0570309081" flag="0"/>
      <vel value="0.0220301011" flag="0"/>
      <psa03 value="0.1300594523" flag="0"/>
      <psa10 value="0.0101207255" flag="0"/>
      <psa30 value="0.0007033636" flag="0"/>
    </comp>
    <comp name="00.HNN">
      <acc value="0.0670222256" flag="0"/>
      <vel value="0.0208014993" flag="0"/>
      <psa03 value="0.1071712027" flag="0"/>
      <psa10 value="0.0084000549" flag="0"/>
      <psa30 value="0.0006547476" flag="0"/>
    </comp>
    <comp name="00.HNZ">
      <acc value="0.0411848918" flag="0"/>
      <vel value="0.0134530569" flag="0"/>
      <psa03 value="0.0792935918" flag="0"/>
      <psa10 value="0.0083452189" flag="0"/>
      <psa30 value="0.0005103551" flag="0"/>
    </comp>
  </station>
  <station code="EVR" name="EVR" netid="HL" insttype="DR24" lat="38.9166" lon="21.8105">
    <comp name="--.HHN">
      <acc value="0.0151003906" flag="0"/>
      <vel value="0.0048644620" flag="0"/>
      <psa03 value="0.0237643092" flag="0"/>
      <psa10 value="0.0031527504" flag="0"/>
      <psa30 value="0.0004079664" flag="0"/>
    </comp>
    <comp name="--.HHZ">
      <acc value="0.0157151203" flag="0"/>
      <vel value="0.0047652328" flag="0"/>
      <psa03 value="0.0175761144" flag="0"/>
      <psa10 value="0.0026568867" flag="0"/>
      <psa30 value="0.0001871420" flag="0"/>
    </comp>
    <comp name="--.HHE">
      <acc value="0.0229618695" flag="0"/>
      <vel value="0.0074897272" flag="0"/>
      <psa03 value="0.0309175142" flag="0"/>
      <psa10 value="0.0035379958" flag="0"/>
      <psa30 value="0.0002316365" flag="0"/>
    </comp>
  </station>
  <station code="LKR" name="LKR" netid="HL" insttype="65535" lat="38.6496" lon="22.9988">
    <comp name="--.HHN">
      <acc value="0.0406564561" flag="0"/>
      <vel value="0.0085896165" flag="0"/>
      <psa03 value="0.0334265617" flag="0"/>
      <psa10 value="0.0018759668" flag="0"/>
      <psa30 value="0.0001404754" flag="0"/>
    </comp>
    <comp name="--.HHE">
      <acc value="0.0472468452" flag="0"/>
      <vel value="0.0104008046" flag="0"/>
      <psa03 value="0.0430441268" flag="0"/>
      <psa10 value="0.0020698628" flag="0"/>
      <psa30 value="0.0001723589" flag="0"/>
    </comp>
    <comp name="--.HHZ">
      <acc value="0.0446694390" flag="0"/>
      <vel value="0.0099440944" flag="0"/>
      <psa03 value="0.0290303301" flag="0"/>
      <psa10 value="0.0015658455" flag="0"/>
      <psa30 value="0.0001603744" flag="0"/>
    </comp>
  </station>
  <station code="PATC" name="PATC" netid="HL" insttype="CMG-5" lat="38.2693" lon="21.76">
    <comp name="00.HNZ">
      <acc value="0.0509956674" flag="0"/>
      <vel value="0.0172319139" flag="0"/>
      <psa03 value="0.0925497553" flag="0"/>
      <psa10 value="0.0084210994" flag="0"/>
      <psa30 value="0.0005658042" flag="0"/>
    </comp>
    <comp name="00.HNE">
      <acc value="0.0665938528" flag="0"/>
      <vel value="0.0337320139" flag="0"/>
      <psa03 value="0.2056734176" flag="0"/>
      <psa10 value="0.0167892846" flag="0"/>
      <psa30 value="0.0013246569" flag="0"/>
    </comp>
    <comp name="00.HNN">
      <acc value="0.0744239573" flag="0"/>
      <vel value="0.0287496752" flag="0"/>
      <psa03 value="0.1818386474" flag="0"/>
      <psa10 value="0.0172585309" flag="0"/>
      <psa30 value="0.0011923436" flag="0"/>
    </comp>
  </station>
  <station code="PATG" name="PATG" netid="HL" insttype="CMG-5" lat="38.2386" lon="21.7266">
    <comp name="00.HNN">
      <acc value="0.0889966407" flag="0"/>
      <vel value="0.0526439574" flag="0"/>
      <psa03 value="0.2764841344" flag="0"/>
      <psa10 value="0.0182882289" flag="0"/>
      <psa30 value="0.0014540781" flag="0"/>
    </comp>
    <comp name="00.HNZ">
      <acc value="0.0708219006" flag="0"/>
      <vel value="0.0164498916" flag="0"/>
      <psa03 value="0.1576339317" flag="0"/>
      <psa10 value="0.0134103808" flag="0"/>
      <psa30 value="0.0007076859" flag="0"/>
    </comp>
    <comp name="00.HNE">
      <acc value="0.0815932947" flag="0"/>
      <vel value="0.0462077370" flag="0"/>
      <psa03 value="0.2350372458" flag="0"/>
      <psa10 value="0.0282052331" flag="0"/>
      <psa30 value="0.0018277501" flag="0"/>
    </comp>
  </station>
  <station code="RIOA" name="RIOA" netid="HL" insttype="CMG-5" lat="38.2959" lon="21.7912">
    <comp name="00.HNE">
      <acc value="0.0380743760" flag="0"/>
      <vel value="0.0132378707" flag="0"/>
      <psa03 value="0.1109247272" flag="0"/>
      <psa10 value="0.0093871732" flag="0"/>
      <psa30 value="0.0007524016" flag="0"/>
    </comp>
    <comp name="00.HNN">
      <acc value="0.0485155451" flag="0"/>
      <vel value="0.0212259186" flag="0"/>
      <psa03 value="0.1027116630" flag="0"/>
      <psa10 value="0.0115538043" flag="0"/>
      <psa30 value="0.0006970961" flag="0"/>
    </comp>
    <comp name="00.HNZ">
      <acc value="0.0411182691" flag="0"/>
      <vel value="0.0111662375" flag="0"/>
      <psa03 value="0.0500554658" flag="0"/>
      <psa10 value="0.0052888167" flag="0"/>
      <psa30 value="0.0004381674" flag="0"/>
    </comp>
  </station>
  <station code="RLS" name="RLS" netid="HL" insttype="CMG3ESPC-120s" lat="38.0559" lon="21.4647">
    <comp name="--.HHE">
      <acc value="0.0272606904" flag="0"/>
      <vel value="0.0113416906" flag="0"/>
      <psa03 value="0.0678654767" flag="0"/>
      <psa10 value="0.0084746680" flag="0"/>
      <psa30 value="0.0006276215" flag="0"/>
    </comp>
    <comp name="--.HHN">
      <acc value="0.0241310907" flag="0"/>
      <vel value="0.0090033068" flag="0"/>
      <psa03 value="0.0725135445" flag="0"/>
      <psa10 value="0.0041023130" flag="0"/>
      <psa30 value="0.0004326737" flag="0"/>
    </comp>
    <comp name="--.HHZ">
      <acc value="0.0248692623" flag="0"/>
      <vel value="0.0049210244" flag="0"/>
      <psa03 value="0.0170763917" flag="0"/>
      <psa10 value="0.0052452561" flag="0"/>
      <psa30 value="0.0002902130" flag="0"/>
    </comp>
  </station>
  <station code="THI1" name="THI1" netid="HL" insttype="LE3D20_SMART24" lat="38.3878" lon="23.3945">
    <comp name="--.HHE">
      <acc value="0.0586037292" flag="0"/>
      <vel value="0.0142268308" flag="0"/>
      <psa03 value="0.0488771567" flag="0"/>
      <psa10 value="0.0044190197" flag="0"/>
      <psa30 value="0.0004307630" flag="0"/>
    </comp>
    <comp name="--.HHZ">
      <acc value="0.1581104540" flag="0"/>
