<?xml version="1.0" encoding="UTF-8" standalone="yes"?>
<!DOCTYPE earthquake SYSTEM "stationlist.dtd">
<stationlist created="" xmlns="ch.ethz.sed.shakemap.usgs.xml">
  <station code="ARPRA" name="ARPRA" netid="KO" insttype="CMG-5T" lat="39.0929" lon="38.3356">
    <comp name="--.HNE">
      <acc value="0.1771261358" flag="0"/>
      <vel value="0.1173416671" flag="0"/>
      <psa03 value="0.3288015567" flag="0"/>
      <psa10 value="0.1855802407" flag="0"/>
      <psa30 value="0.0151007706" flag="0"/>
    </comp>
    <comp name="--.HNN">
      <acc value="0.1509657920" flag="0"/>
      <vel value="0.1035688313" flag="0"/>
      <psa03 value="0.4321281546" flag="0"/>
      <psa10 value="0.1354394162" flag="0"/>
      <psa30 value="0.0079894923" flag="0"/>
    </comp>
    <comp name="--.HNZ">
      <acc value="0.0768537107" flag="0"/>
      <vel value="0.0482598297" flag="0"/>
      <psa03 value="0.1662870486" flag="0"/>
      <psa10 value="0.1286484536" flag="0"/>
      <psa30 value="0.0098872801" flag="0"/>
    </comp>
  </station>
  <station code="GAZ" name="GAZ" netid="KO" insttype="CMG-3T" lat="37.1721" lon="37.2096">
    <comp name="--.HHE">
      <acc value="0.0567573241" flag="0"/>
      <vel value="0.0434374547" flag="0"/>
      <psa03 value="0.2084435380" flag="0"/>
      <psa10 value="0.0707412910" flag="0"/>
      <psa30 value="0.0102663446" flag="0"/>
    </comp>
    <comp name="--.HHN">
      <acc value="0.0583004179" flag="0"/>
      <vel value="0.0555083407" flag="0"/>
      <psa03 value="0.1842582090" flag="0"/>
      <psa10 value="0.0664140968" flag="0"/>
      <psa30 value="0.0145780281" flag="0"/>
    </comp>
  </station>
  <station code="URFA" name="URFA" netid="KO" insttype="CMG-3ESP" lat="37.4409" lon="38.8213">
    <comp name="--.HHE">
      <acc value="0.0743705801" flag="0"/>
      <vel value="0.0260466112" flag="0"/>
      <psa03 value="0.0942412875" flag="0"/>
      <psa10 value="0.0274916983" flag="0"/>
      <psa30 value="0.0084640445" flag="0"/>
    </comp>
    <comp name="--.HHZ">
      <acc value="0.0485803698" flag="0"/>
      <vel value="0.0135520707" flag="0"/>
      <psa03 value="0.0505129751" flag="0"/>
      <psa10 value="0.0187578668" flag="0"/>
      <psa30 value="0.0046077671" flag="0"/>
    </comp>
    <comp name="--.HHN">
      <acc value="0.1139045747" flag="0"/>
      <vel value="0.0222741323" flag="0"/>
      <psa03 value="0.0726093859" flag="0"/>
      <psa10 value="0.0266650760" flag="0"/>
      <psa30 value="0.0047263991" flag="0"/>
    </comp>
  </station>
</stationlist>
