<?xml version="1.0" encoding="UTF-8" standalone="yes"?>
<!DOCTYPE earthquake SYSTEM "stationlist.dtd">
<stationlist created="" xmlns="ch.ethz.sed.shakemap.usgs.xml">
  <station code="ARPRA" name="ARPRA" netid="KO" insttype="CMG-5T" lat="39.0929" lon="38.3356">
    <comp name="--.HNE">
      <acc value="0.1767235815" flag="0"/>
      <vel value="0.1173756307" flag="0"/>
      <psa03 value="0.3283845071" flag="0"/>
      <psa10 value="0.1853877312" flag="0"/>
      <psa30 value="0.0155196294" flag="0"/>
    </comp>
    <comp name="--.HNZ">
      <acc value="0.0769315953" flag="0"/>
      <vel value="0.0482301100" flag="0"/>
      <psa03 value="0.1662289975" flag="0"/>
      <psa10 value="0.1287440636" flag="0"/>
      <psa30 value="0.0119042327" flag="0"/>
    </comp>
    <comp name="--.HNN">
      <acc value="0.1509653733" flag="0"/>
      <vel value="0.1042585786" flag="0"/>
      <psa03 value="0.4319647730" flag="0"/>
      <psa10 value="0.1353471126" flag="0"/>
      <psa30 value="0.0091982166" flag="0"/>
    </comp>
  </station>
  <station code="DARE" name="DARE" netid="KO" insttype="CMG-3ESP" lat="38.5712" lon="37.4832">
    <comp name="--.HHE">
      <acc value="0.0937807419" flag="0"/>
      <vel value="0.0336144695" flag="0"/>
      <psa03 value="0.1863688619" flag="0"/>
      <psa10 value="0.0289254722" flag="0"/>
      <psa30 value="0.0066025516" flag="0"/>
    </comp>
    <comp name="--.HHZ">
      <acc value="0.0926058218" flag="0"/>
      <vel value="0.0381605314" flag="0"/>
      <psa03 value="0.2543356173" flag="0"/>
      <psa10 value="0.0347261611" flag="0"/>
      <psa30 value="0.0098689217" flag="0"/>
    </comp>
    <comp name="--.HHN">
      <acc value="0.0792733640" flag="0"/>
      <vel value="0.0372358056" flag="0"/>
      <psa03 value="0.1772842184" flag="0"/>
      <psa10 value="0.0305020479" flag="0"/>
      <psa30 value="0.0055537607" flag="0"/>
    </comp>
  </station>
  <station code="KMRS" name="KMRS" netid="KO" insttype="CMG-3T" lat="37.5053" lon="36.9">
    <comp name="--.HHE">
      <acc value="0.0399007038" flag="0"/>
      <vel value="0.0277318423" flag="0"/>
      <psa03 value="0.0913598260" flag="0"/>
      <psa10 value="0.0495885435" flag="0"/>
      <psa30 value="0.0050981194" flag="0"/>
    </comp>
    <comp name="--.HHN">
      <acc value="0.0724182562" flag="0"/>
      <vel value="0.0107643835" flag="0"/>
      <psa03 value="0.0335341586" flag="0"/>
      <psa10 value="0.0111560836" flag="0"/>
      <psa30 value="0.0025848859" flag="0"/>
    </comp>
    <comp name="--.HHZ">
      <acc value="0.0344286424" flag="0"/>
      <vel value="0.0288642477" flag="0"/>
      <psa03 value="0.0856078962" flag="0"/>
      <psa10 value="0.0164560338" flag="0"/>
      <psa30 value="0.0026952958" flag="0"/>
    </comp>
  </station>
  <station code="SARI" name="SARI" netid="KO" insttype="CMG-3T" lat="38.4072" lon="36.4181">
    <comp name="--.HHE">
      <acc value="0.3988211502" flag="0"/>
      <vel value="0.1452384268" flag="0"/>
      <psa03 value="0.6001429961" flag="0"/>
      <psa10 value="0.1582970555" flag="0"/>
      <psa30 value="0.0129483566" flag="0"/>
    </comp>
    <comp name="--.HHN">
      <acc value="0.3022426620" flag="0"/>
      <vel value="0.0982424003" flag="0"/>
      <psa03 value="0.3970218240" flag="0"/>
      <psa10 value="0.0955557192" flag="0"/>
      <psa30 value="0.0091682017" flag="0"/>
    </comp>
    <comp name="--.HHZ">
      <acc value="0.2596045595" flag="0"/>
      <vel value="0.0885529789" flag="0"/>
      <psa03 value="0.5572799686" flag="0"/>
      <psa10 value="0.0716354405" flag="0"/>
      <psa30 value="0.0135257841" flag="0"/>
    </comp>
  </station>
  <station code="TUNC" name="TUNC" netid="KO" insttype="CMG-5T" lat="39.6942" lon="37.5388">
    <comp name="--.HNN">
      <acc value="0.0528100138" flag="0"/>
      <vel value="0.0424184827" flag="0"/>
      <psa03 value="0.0955800279" flag="0"/>
      <psa10 value="0.0516779402" flag="0"/>
      <psa30 value="0.0073386765" flag="0"/>
    </comp>
    <comp name="--.HNZ">
      <acc value="0.0318407615" flag="0"/>
      <vel value="0.0299413595" flag="0"/>
      <psa03 value="0.0669108683" flag="0"/>
      <psa10 value="0.0340005866" flag="0"/>
      <psa30 value="0.0079600378" flag="0"/>
    </comp>
    <comp name="--.HNE">
      <acc value="0.0538199997" flag="0"/>
      <vel value="0.0675696555" flag="0"/>
      <psa03 value="0.0993375867" flag="0"/>
      <psa10 value="0.0949884209" flag="0"/>
      <psa30 value="0.0100549594" flag="0"/>
    </comp>
  </station>
  <station code="URFA" name="URFA" netid="KO" insttype="CMG-3ESP" lat="37.4409" lon="38.8213">
    <comp name="--.HHN">
      <acc value="0.1138955499" flag="0"/>
      <vel value="0.0223849902" flag="0"/>
      <psa03 value="0.0730588513" flag="0"/>
      <psa10 value="0.0266095426" flag="0"/>
      <psa30 value="0.0059468066" flag="0"/>
    </comp>
    <comp name="--.HHE">
      <acc value="0.0743848073" flag="0"/>
      <vel value="0.0265602013" flag="0"/>
      <psa03 value="0.0943121852" flag="0"/>
      <psa10 value="0.0274053901" flag="0"/>
      <psa30 value="0.0101777203" flag="0"/>
    </comp>
    <comp name="--.HHZ">
      <acc value="0.0486083897" flag="0"/>
      <vel value="0.0169199897" flag="0"/>
      <psa03 value="0.0505277154" flag="0"/>
      <psa10 value="0.0187439162" flag="0"/>
      <psa30 value="0.0060660131" flag="0"/>
    </comp>
  </station>
</stationlist>
