<?xml version="1.0" encoding="UTF-8" standalone="yes"?>
<!DOCTYPE earthquake SYSTEM "stationlist.dtd">
<stationlist created="" xmlns="ch.ethz.sed.shakemap.usgs.xml">
  <station code="PYL1" name="PYL1" netid="HI" insttype="CMG-5TD,ACCELEROMETER,GURALP" lat="36.9142" lon="21.6952">
    <comp name="--.HNE">
      <acc value="0.0120595032" flag="0"/>
      <vel value="0.0074718857" flag="0"/>
      <psa03 value="0.0321834278" flag="0"/>
      <psa10 value="0.0057054798" flag="0"/>
      <psa30 value="0.0008419802" flag="0"/>
    </comp>
    <comp name="--.HNZ">
      <acc value="0.0088277136" flag="0"/>
      <vel value="0.0051344757" flag="0"/>
      <psa03 value="0.0187394923" flag="0"/>
      <psa10 value="0.0052934740" flag="0"/>
      <psa30 value="0.0011232352" flag="0"/>
    </comp>
    <comp name="--.HNN">
      <acc value="0.0115723033" flag="0"/>
      <vel value="0.0074925828" flag="0"/>
      <psa03 value="0.0368366349" flag="0"/>
      <psa10 value="0.0068672957" flag="0"/>
      <psa30 value="0.0010605757" flag="0"/>
    </comp>
  </station>
  <station code="ITM" name="ITM" netid="HL" insttype="DR24" lat="37.1787" lon="21.9252">
    <comp name="--.HHN">
      <acc value="0.0098946782" flag="0"/>
      <vel value="0.0045108873" flag="0"/>
      <psa03 value="0.0224785224" flag="0"/>
      <psa10 value="0.0050059694" flag="0"/>
      <psa30 value="0.0006659284" flag="0"/>
    </comp>
    <comp name="--.HHE">
      <acc value="0.0084607718" flag="0"/>
      <vel value="0.0041579768" flag="0"/>
      <psa03 value="0.0238609578" flag="0"/>
      <psa10 value="0.0046453682" flag="0"/>
      <psa30 value="0.0009803975" flag="0"/>
    </comp>
    <comp name="--.HHZ">
      <acc value="0.0065462565" flag="0"/>
      <vel value="0.0032402088" flag="0"/>
      <psa03 value="0.0116601100" flag="0"/>
      <psa10 value="0.0071995957" flag="0"/>
      <psa30 value="0.0006873828" flag="0"/>
    </comp>
  </station>
  <station code="VLI" name="VLI" netid="HL" insttype="60" lat="36.718" lon="22.9469">
    <comp name="--.HHN">
      <acc value="0.0053025571" flag="0"/>
      <vel value="0.0054483300" flag="0"/>
      <psa03 value="0.0173203912" flag="0"/>
      <psa10 value="0.0121209091" flag="0"/>
      <psa30 value="0.0007038544" flag="0"/>
    </comp>
    <comp name="--.HHE">
      <acc value="0.0056446816" flag="0"/>
      <vel value="0.0038809023" flag="0"/>
      <psa03 value="0.0144780143" flag="0"/>
      <psa10 value="0.0088933386" flag="0"/>
      <psa30 value="0.0006498758" flag="0"/>
    </comp>
    <comp name="--.HHZ">
      <acc value="0.0048318488" flag="0"/>
      <vel value="0.0032709797" flag="0"/>
      <psa03 value="0.0139249342" flag="0"/>
      <psa10 value="0.0041327503" flag="0"/>
      <psa30 value="0.0004263713" flag="0"/>
    </comp>
  </station>
  <station code="AMT" name="AMT" netid="HP" insttype="CMG-3T," lat="37.5324" lon="21.7089">
    <comp name="00.HHZ">
      <acc value="0.0072637718" flag="0"/>
      <vel value="0.0034623418" flag="0"/>
      <psa03 value="0.0227193415" flag="0"/>
      <psa10 value="0.0031172906" flag="0"/>
      <psa30 value="0.0003048549" flag="0"/>
    </comp>
    <comp name="00.HHN">
      <acc value="0.0091344502" flag="0"/>
      <vel value="0.0058257186" flag="0"/>
      <psa03 value="0.0254758317" flag="0"/>
      <psa10 value="0.0059022756" flag="0"/>
      <psa30 value="0.0003629146" flag="0"/>
    </comp>
    <comp name="00.HHE">
      <acc value="0.0073965519" flag="0"/>
      <vel value="0.0049333885" flag="0"/>
      <psa03 value="0.0315668668" flag="0"/>
      <psa10 value="0.0056785103" flag="0"/>
      <psa30 value="0.0005589334" flag="0"/>
    </comp>
  </station>
  <station code="PYL" name="PYL" netid="HP" insttype="120s" lat="36.8955" lon="21.742">
    <comp name="--.HHE">
      <acc value="0.0186386154" flag="0"/>
      <vel value="0.0081114352" flag="0"/>
      <psa03 value="0.0651836358" flag="0"/>
      <psa10 value="0.0056020267" flag="0"/>
      <psa30 value="0.0007706672" flag="0"/>
    </comp>
    <comp name="--.HHN">
      <acc value="0.0137738043" flag="0"/>
      <vel value="0.0061769239" flag="0"/>
      <psa03 value="0.0394265067" flag="0"/>
      <psa10 value="0.0065896410" flag="0"/>
      <psa30 value="0.0005938262" flag="0"/>
    </comp>
    <comp name="--.HHZ">
      <acc value="0.0097958450" flag="0"/>
      <vel value="0.0053113666" flag="0"/>
      <psa03 value="0.0278445818" flag="0"/>
      <psa10 value="0.0041655298" flag="0"/>
      <psa30 value="0.0011324077" flag="0"/>
    </comp>
  </station>
  <station code="VLX" name="VLX" netid="HP" insttype="40," lat="37.3703" lon="22.3793">
    <comp name="--.HHE">
      <acc value="0.0053280259" flag="0"/>
      <vel value="0.0039708860" flag="0"/>
      <psa03 value="0.0124480771" flag="0"/>
      <psa10 value="0.0063945938" flag="0"/>
      <psa30 value="0.0003657573" flag="0"/>
    </comp>
    <comp name="--.HHN">
      <acc value="0.0041152969" flag="0"/>
      <vel value="0.0034310425" flag="0"/>
      <psa03 value="0.0115924308" flag="0"/>
      <psa10 value="0.0046346780" flag="0"/>
      <psa30 value="0.0003766744" flag="0"/>
    </comp>
    <comp name="--.HHZ">
      <acc value="0.0035700298" flag="0"/>
      <vel value="0.0022056497" flag="0"/>
      <psa03 value="0.0091691380" flag="0"/>
      <psa10 value="0.0023296372" flag="0"/>
      <psa30 value="0.0003124120" flag="0"/>
    </comp>
  </station>
</stationlist>
