<stationlist xmlns:esm="https://esm-db.eu/esmws/shakemap/1/" created="1784080586">
	<station code="AOL1" name="AOL1" netid="HI" source="ITSAK Strong Motion Network" insttype="" lat="37.642378" lon="21.624555" esm:processing="manual (Paolucci et al 2011)" esm:quality="good">
		<comp name="--.HNE" depth="0.0">
			<acc value="0.00616056339210893" flag="0"/>
			<vel value="0.00458424359074112" flag="0"/>
			<psa03 value="0.0155744106345193" flag="0"/>
			<psa10 value="0.00628243680560577" flag="0"/>
			<psa30 value="0.00118577803114173" flag="0"/>
		</comp>
		<comp name="--.HNN" depth="0.0">
			<acc value="0.00627525031040727" flag="0"/>
			<vel value="0.00498992701475881" flag="0"/>
			<psa03 value="0.0191092385495206" flag="0"/>
			<psa10 value="0.00883599221611951" flag="0"/>
			<psa30 value="0.000806179290838162" flag="0"/>
		</comp>
		<comp name="--.HNZ" depth="0.0">
			<acc value="0.00393246571024128" flag="0"/>
			<vel value="0.002929036589793" flag="0"/>
			<psa03 value="0.0116484747792864" flag="0"/>
			<psa10 value="0.00348681809396131" flag="0"/>
			<psa30 value="0.000592969958432934" flag="0"/>
		</comp>
	</station>
	<station code="GTH2" name="GTH2" netid="HI" source="ITSAK Strong Motion Network" insttype="" lat="36.7603" lon="22.5659" esm:processing="manual (Paolucci et al 2011)" esm:quality="good">
		<comp name="--.HNE" depth="0.0">
			<acc value="0.0238656177304098" flag="0"/>
			<vel value="0.0149870898253101" flag="0"/>
			<psa03 value="0.0851502918306045" flag="0"/>
			<psa10 value="0.0120220017111124" flag="0"/>
			<psa30 value="0.000976815542569066" flag="0"/>
		</comp>
		<comp name="--.HNN" depth="0.0">
			<acc value="0.0238212531188615" flag="0"/>
			<vel value="0.0160772733176288" flag="0"/>
			<psa03 value="0.0717339082693711" flag="0"/>
			<psa10 value="0.00966028182126045" flag="0"/>
			<psa30 value="0.00103059618860626" flag="0"/>
		</comp>
		<comp name="--.HNZ" depth="0.0">
			<acc value="0.012910775870408" flag="0"/>
			<vel value="0.00632767006209262" flag="0"/>
			<psa03 value="0.0376949788781866" flag="0"/>
			<psa10 value="0.00420932244070341" flag="0"/>
			<psa30 value="0.000422276385196427" flag="0"/>
		</comp>
	</station>
	<station code="KRI1" name="KRI1" netid="HI" source="ITSAK Strong Motion Network" insttype="" lat="37.6621" lon="20.8172" esm:processing="manual (Paolucci et al 2011)" esm:quality="good">
		<comp name="--.HNE" depth="0.0">
			<acc value="0.00178834114646464" flag="0"/>
			<vel value="0.00159258543352302" flag="0"/>
			<psa03 value="0.00596426815036885" flag="0"/>
			<psa10 value="0.00226313265580657" flag="0"/>
			<psa30 value="0.000338669961264494" flag="0"/>
		</comp>
		<comp name="--.HNN" depth="0.0">
			<acc value="0.00224392390190595" flag="0"/>
			<vel value="0.00173955455713809" flag="0"/>
			<psa03 value="0.00710962201923322" flag="0"/>
			<psa10 value="0.00272175522480096" flag="0"/>
			<psa30 value="0.000312154272438575" flag="0"/>
		</comp>
		<comp name="--.HNZ" depth="0.0">
			<acc value="0.00113447876814022" flag="0"/>
			<vel value="0.000732705871239422" flag="0"/>
			<psa03 value="0.00315170748306964" flag="0"/>
			<psa10 value="0.00116517007742427" flag="0"/>
			<psa30 value="0.000230105712124128" flag="0"/>
		</comp>
	</station>
	<station code="LEO1" name="LEO1" netid="HI" source="ITSAK Strong Motion Network" insttype="" lat="37.1689" lon="22.8637" esm:processing="automatic (Paolucci et al 2011)" esm:quality="best">
		<comp name="--.HNE" depth="0.0">
			<acc value="0.00369469778154998" flag="0"/>
			<vel value="0.0020468412630685" flag="0"/>
			<psa03 value="0.0119226309616096" flag="0"/>
			<psa10 value="0.00234962862011527" flag="0"/>
			<psa30 value="0.000526844223760672" flag="0"/>
		</comp>
		<comp name="--.HNN" depth="0.0">
			<acc value="0.00282673721910738" flag="0"/>
			<vel value="0.00194309945683437" flag="0"/>
			<psa03 value="0.00746176513866759" flag="0"/>
			<psa10 value="0.00233185853668241" flag="0"/>
			<psa30 value="0.000276698668470639" flag="0"/>
		</comp>
		<comp name="--.HNZ" depth="0.0">
			<acc value="0.00343337323817884" flag="0"/>
			<vel value="0.00142005811461576" flag="0"/>
			<psa03 value="0.00599703659714945" flag="0"/>
			<psa10 value="0.0012151553808925" flag="0"/>
			<psa30 value="0.00055154513090846" flag="0"/>
		</comp>
	</station>
	<station code="PET1" name="PET1" netid="HI" source="ITSAK Strong Motion Network" insttype="" lat="36.963862" lon="21.92538" esm:processing="automatic (Paolucci et al 2011)" esm:quality="best">
		<comp name="--.HNE" depth="0.0">
			<acc value="0.0334752724053498" flag="0"/>
			<vel value="0.0177525362516989" flag="0"/>
			<psa03 value="0.104861509060149" flag="0"/>
			<psa10 value="0.0198513475543491" flag="0"/>
			<psa30 value="0.0016226991625228" flag="0"/>
		</comp>
		<comp name="--.HNN" depth="0.0">
			<acc value="0.0373879792344517" flag="0"/>
			<vel value="0.0198048611918471" flag="0"/>
			<psa03 value="0.0905461544885316" flag="0"/>
			<psa10 value="0.0189003314291994" flag="0"/>
			<psa30 value="0.00187493628866142" flag="0"/>
		</comp>
		<comp name="--.HNZ" depth="0.0">
			<acc value="0.0136490012662641" flag="0"/>
			<vel value="0.00832551880063626" flag="0"/>
			<psa03 value="0.0666240333067785" flag="0"/>
			<psa10 value="0.00832073058257838" flag="0"/>
			<psa30 value="0.00140424677445518" flag="0"/>
		</comp>
	</station>
	<station code="PYL1" name="PYL1" netid="HI" source="ITSAK Strong Motion Network" insttype="" lat="36.914188" lon="21.695161" esm:processing="automatic (Paolucci et al 2011)" esm:quality="best">
		<comp name="--.HNE" depth="0.0">
			<acc value="0.0119729664025218" flag="0"/>
			<vel value="0.00835905644660556" flag="0"/>
			<psa03 value="0.0315297293148166" flag="0"/>
			<psa10 value="0.0057923796542381" flag="0"/>
			<psa30 value="0.00110209217486381" flag="0"/>
		</comp>
		<comp name="--.HNN" depth="0.0">
			<acc value="0.0117144577713321" flag="0"/>
			<vel value="0.00869048390978568" flag="0"/>
			<psa03 value="0.0367822803955617" flag="0"/>
			<psa10 value="0.00695784764202044" flag="0"/>
			<psa30 value="0.00117967960631839" flag="0"/>
		</comp>
		<comp name="--.HNZ" depth="0.0">
			<acc value="0.00882863179871192" flag="0"/>
			<vel value="0.00571833056876923" flag="0"/>
			<psa03 value="0.0184686570516528" flag="0"/>
			<psa10 value="0.00529209276267184" flag="0"/>
			<psa30 value="0.00124594222505624" flag="0"/>
		</comp>
	</station>
	<station code="PYR2" name="PYR2" netid="HI" source="ITSAK Strong Motion Network" insttype="" lat="37.6671" lon="21.4506" esm:processing="manual (Paolucci et al 2011)" esm:quality="good">
		<comp name="--.HNE" depth="0.0">
			<acc value="0.0072887705669961" flag="0"/>
			<vel value="0.0047095377277854" flag="0"/>
			<psa03 value="0.0268478774984551" flag="0"/>
			<psa10 value="0.0075121545183691" flag="0"/>
			<psa30 value="0.00100920570909197" flag="0"/>
		</comp>
		<comp name="--.HNN" depth="0.0">
			<acc value="0.00573783771246488" flag="0"/>
			<vel value="0.00490915380327366" flag="0"/>
			<psa03 value="0.0179983016741548" flag="0"/>
			<psa10 value="0.00827085696618275" flag="0"/>
			<psa30 value="0.00111683346390252" flag="0"/>
		</comp>
		<comp name="--.HNZ" depth="0.0">
			<acc value="0.00320763805986206" flag="0"/>
			<vel value="0.00200121328203526" flag="0"/>
			<psa03 value="0.00847745026134964" flag="0"/>
			<psa10 value="0.00317298769486257" flag="0"/>
			<psa30 value="0.000808521841854003" flag="0"/>
		</comp>
	</station>
	<station code="KIAA" name="KIAA" netid="HL" source="National Observatory of Athens Seismic Network" insttype="" lat="38.0139" lon="22.7495" esm:processing="manual (Paolucci et al 2011)" esm:quality="bad">
		<comp name="00.HNE" depth="0.0">
			<acc value="0.00531673438993859" flag="0"/>
			<vel value="0.00643495825539651" flag="0"/>
			<psa03 value="0.0115994168419417" flag="0"/>
			<psa10 value="0.0124552238474391" flag="0"/>
			<psa30 value="0.00154205444520468" flag="0"/>
		</comp>
		<comp name="00.HNN" depth="0.0">
			<acc value="0.00375271996540994" flag="0"/>
			<vel value="0.00535570778610593" flag="0"/>
			<psa03 value="0.0116078366705593" flag="0"/>
			<psa10 value="0.00903964101934476" flag="0"/>
			<psa30 value="0.00166050885472777" flag="0"/>
		</comp>
		<comp name="00.HNZ" depth="0.0">
			<acc value="0.0216799260984322" flag="0"/>
			<vel value="0.00265557916207054" flag="0"/>
			<psa03 value="0.00762286239911037" flag="0"/>
			<psa10 value="0.00452498085152908" flag="0"/>
			<psa30 value="0.000513757836016784" flag="0"/>
		</comp>
	</station>
	<station code="YDRA" name="YDRA" netid="HL" source="National Observatory of Athens Seismic Network" insttype="" lat="37.34923" lon="23.46525" esm:processing="manual (Paolucci et al 2011)" esm:quality="bad">
		<comp name="00.HNE" depth="0.0">
			<acc value="0.0943303540497098" flag="0"/>
			<vel value="0.00604572312480642" flag="0"/>
			<psa03 value="0.005098871303851" flag="0"/>
			<psa10 value="0.00298636923855504" flag="0"/>
			<psa30 value="0.000354689876671745" flag="0"/>
		</comp>
		<comp name="00.HNN" depth="0.0">
			<acc value="0.026890660637162" flag="0"/>
			<vel value="0.00219186375967386" flag="0"/>
			<psa03 value="0.00520729840850183" flag="0"/>
			<psa10 value="0.00422891983267512" flag="0"/>
			<psa30 value="0.000475831156896602" flag="0"/>
		</comp>
		<comp name="00.HNZ" depth="0.0">
			<acc value="0.155151363994009" flag="0"/>
			<vel value="0.0122613518676529" flag="0"/>
			<psa03 value="0.00570652516470338" flag="0"/>
			<psa10 value="0.00153158329581326" flag="0"/>
			<psa30 value="0.000292689441322451" flag="0"/>
		</comp>
	</station>
	<station code="ZARA" name="ZARA" netid="HL" source="National Observatory of Athens Seismic Network" insttype="" lat="37.4865" lon="21.6491" esm:processing="manual (Paolucci et al 2011)" esm:quality="bad">
		<comp name="00.HNE" depth="0.0">
			<acc value="0.0100647091789136" flag="0"/>
			<vel value="0.00507848385978274" flag="0"/>
			<psa03 value="0.0227164892309065" flag="0"/>
			<psa10 value="0.00913370287550035" flag="0"/>
			<psa30 value="0.00110061905644447" flag="0"/>
		</comp>
		<comp name="00.HNN" depth="0.0">
			<acc value="0.0097867887095866" flag="0"/>
			<vel value="0.00538216177923213" flag="0"/>
			<psa03 value="0.0366187461247072" flag="0"/>
			<psa10 value="0.00802377372312942" flag="0"/>
			<psa30 value="0.000682772730344347" flag="0"/>
		</comp>
		<comp name="00.HNZ" depth="0.0">
			<acc value="0.00437174636909082" flag="0"/>
			<vel value="0.0030187340828108" flag="0"/>
			<psa03 value="0.0117758321744421" flag="0"/>
			<psa10 value="0.00367725524073851" flag="0"/>
			<psa30 value="0.000723146134049145" flag="0"/>
		</comp>
	</station>
	<station code="PYL" name="PYL" netid="HP" source="University of Patras, Seismological Laboratory (PSLNET)" insttype="" lat="36.8955" lon="21.742" esm:processing="manual (Paolucci et al 2011)" esm:quality="best">
		<comp name="--.HNE" depth="0.0">
			<acc value="0.0184860284166127" flag="0"/>
			<vel value="0.00804328779272762" flag="0"/>
			<psa03 value="0.0615605416255882" flag="0"/>
			<psa10 value="0.00558601051455049" flag="0"/>
			<psa30 value="0.000607255956892284" flag="0"/>
		</comp>
		<comp name="--.HNN" depth="0.0">
			<acc value="0.0198001528019909" flag="0"/>
			<vel value="0.00611024646999492" flag="0"/>
			<psa03 value="0.0441762545850594" flag="0"/>
			<psa10 value="0.00664377839895188" flag="0"/>
			<psa30 value="0.000520640271113558" flag="0"/>
		</comp>
		<comp name="--.HNZ" depth="0.0">
			<acc value="0.012093320495601" flag="0"/>
			<vel value="0.00507351109472688" flag="0"/>
			<psa03 value="0.029273824663865" flag="0"/>
			<psa10 value="0.00422851011803867" flag="0"/>
			<psa30 value="0.000904033325270313" flag="0"/>
		</comp>
	</station>
	<station code="MALA" name="MALA" netid="CL" source="Corinth Riff Laboratory (CRLNET)" insttype="" lat="38.39341" lon="21.87263" esm:processing="automatic (Paolucci et al 2011)" esm:quality="bad">
		<comp name="00.HNE" depth="0.0">
			<acc value="0" flag="1"/>
			<vel value="0" flag="1"/>
			<psa03 value="0" flag="1"/>
			<psa10 value="0" flag="1"/>
			<psa30 value="0" flag="1"/>
		</comp>
		<comp name="00.HNN" depth="0.0">
			<acc value="0" flag="1"/>
			<vel value="0" flag="1"/>
			<psa03 value="0" flag="1"/>
			<psa10 value="0" flag="1"/>
			<psa30 value="0" flag="1"/>
		</comp>
		<comp name="00.HNZ" depth="0.0">
			<acc value="0" flag="1"/>
			<vel value="0" flag="1"/>
			<psa03 value="0" flag="1"/>
			<psa10 value="0" flag="1"/>
			<psa30 value="0" flag="1"/>
		</comp>
	</station>
	<station code="ROD3" name="ROD3" netid="CL" source="Corinth Riff Laboratory (CRLNET)" insttype="" lat="38.30811" lon="21.89204" esm:processing="automatic (Paolucci et al 2011)" esm:quality="bad">
		<comp name="00.HNE" depth="0.0">
			<acc value="0" flag="1"/>
			<vel value="0" flag="1"/>
			<psa03 value="0" flag="1"/>
			<psa10 value="0" flag="1"/>
			<psa30 value="0" flag="1"/>
		</comp>
		<comp name="00.HNN" depth="0.0">
			<acc value="0" flag="1"/>
			<vel value="0" flag="1"/>
			<psa03 value="0" flag="1"/>
			<psa10 value="0" flag="1"/>
			<psa30 value="0" flag="1"/>
		</comp>
		<comp name="00.HNZ" depth="0.0">
			<acc value="0" flag="1"/>
			<vel value="0" flag="1"/>
			<psa03 value="0" flag="1"/>
			<psa10 value="0" flag="1"/>
			<psa30 value="0" flag="1"/>
		</comp>
	</station>
	<station code="TRIZ" name="TRIZ" netid="CL" source="Corinth Riff Laboratory (CRLNET)" insttype="" lat="38.36543" lon="22.07272" esm:processing="automatic (Paolucci et al 2011)" esm:quality="bad">
		<comp name="00.HNE" depth="0.0">
			<acc value="0" flag="1"/>
			<vel value="0" flag="1"/>
			<psa03 value="0" flag="1"/>
			<psa10 value="0" flag="1"/>
			<psa30 value="0" flag="1"/>
		</comp>
		<comp name="00.HNN" depth="0.0">
			<acc value="0" flag="1"/>
			<vel value="0" flag="1"/>
			<psa03 value="0" flag="1"/>
			<psa10 value="0" flag="1"/>
			<psa30 value="0" flag="1"/>
		</comp>
		<comp name="00.HNZ" depth="0.0">
			<acc value="0" flag="1"/>
			<vel value="0" flag="1"/>
			<psa03 value="0" flag="1"/>
			<psa10 value="0" flag="1"/>
			<psa30 value="0" flag="1"/>
		</comp>
	</station>
	<station code="AIGS" name="AIGS" netid="HA" source="Hellenic Seismological Network, University of Athens, Seismological Laboratory (HA)" insttype="" lat="38.25001" lon="22.0878" esm:processing="automatic (Paolucci et al 2011)" esm:quality="bad">
		<comp name="--.HNE" depth="0.0">
			<acc value="0" flag="1"/>
			<vel value="0" flag="1"/>
			<psa03 value="0" flag="1"/>
			<psa10 value="0" flag="1"/>
			<psa30 value="0" flag="1"/>
		</comp>
		<comp name="--.HNN" depth="0.0">
			<acc value="0" flag="1"/>
			<vel value="0" flag="1"/>
			<psa03 value="0" flag="1"/>
			<psa10 value="0" flag="1"/>
			<psa30 value="0" flag="1"/>
		</comp>
		<comp name="--.HNZ" depth="0.0">
			<acc value="0" flag="1"/>
			<vel value="0" flag="1"/>
			<psa03 value="0" flag="1"/>
			<psa10 value="0" flag="1"/>
			<psa30 value="0" flag="1"/>
		</comp>
	</station>
	<station code="KIAS" name="KIAS" netid="HA" source="Hellenic Seismological Network, University of Athens, Seismological Laboratory (HA)" insttype="" lat="37.9875" lon="22.7543" esm:processing="automatic (Paolucci et al 2011)" esm:quality="bad">
		<comp name="--.HNE" depth="0.0">
			<acc value="0" flag="1"/>
			<vel value="0" flag="1"/>
			<psa03 value="0" flag="1"/>
			<psa10 value="0" flag="1"/>
			<psa30 value="0" flag="1"/>
		</comp>
		<comp name="--.HNN" depth="0.0">
			<acc value="0" flag="1"/>
			<vel value="0" flag="1"/>
			<psa03 value="0" flag="1"/>
			<psa10 value="0" flag="1"/>
			<psa30 value="0" flag="1"/>
		</comp>
		<comp name="--.HNZ" depth="0.0">
			<acc value="0" flag="1"/>
			<vel value="0" flag="1"/>
			<psa03 value="0" flag="1"/>
			<psa10 value="0" flag="1"/>
			<psa30 value="0" flag="1"/>
		</comp>
	</station>
	<station code="AIG2" name="AIG2" netid="HI" source="ITSAK Strong Motion Network" insttype="" lat="38.2417" lon="22.0726" esm:processing="automatic (Paolucci et al 2011)" esm:quality="bad">
		<comp name="--.HNE" depth="0.0">
			<acc value="0" flag="1"/>
			<vel value="0" flag="1"/>
			<psa03 value="0" flag="1"/>
			<psa10 value="0" flag="1"/>
			<psa30 value="0" flag="1"/>
		</comp>
		<comp name="--.HNN" depth="0.0">
			<acc value="0" flag="1"/>
			<vel value="0" flag="1"/>
			<psa03 value="0" flag="1"/>
			<psa10 value="0" flag="1"/>
			<psa30 value="0" flag="1"/>
		</comp>
		<comp name="--.HNZ" depth="0.0">
			<acc value="0" flag="1"/>
			<vel value="0" flag="1"/>
			<psa03 value="0" flag="1"/>
			<psa10 value="0" flag="1"/>
			<psa30 value="0" flag="1"/>
		</comp>
	</station>
	<station code="ARG2" name="ARG2" netid="HI" source="ITSAK Strong Motion Network" insttype="" lat="38.1783" lon="20.4878" esm:processing="automatic (Paolucci et al 2011)" esm:quality="bad">
		<comp name="--.HNE" depth="0.0">
			<acc value="0" flag="1"/>
			<vel value="0" flag="1"/>
			<psa03 value="0" flag="1"/>
			<psa10 value="0" flag="1"/>
			<psa30 value="0" flag="1"/>
		</comp>
		<comp name="--.HNN" depth="0.0">
			<acc value="0" flag="1"/>
			<vel value="0" flag="1"/>
			<psa03 value="0" flag="1"/>
			<psa10 value="0" flag="1"/>
			<psa30 value="0" flag="1"/>
		</comp>
		<comp name="--.HNZ" depth="0.0">
			<acc value="0" flag="1"/>
			<vel value="0" flag="1"/>
			<psa03 value="0" flag="1"/>
			<psa10 value="0" flag="1"/>
			<psa30 value="0" flag="1"/>
		</comp>
	</station>
	<station code="ARS1" name="ARS1" netid="HI" source="ITSAK Strong Motion Network" insttype="" lat="37.6349" lon="22.7293" esm:processing="automatic (Paolucci et al 2011)" esm:quality="bad">
		<comp name="--.HNE" depth="0.0">
			<acc value="0" flag="1"/>
			<vel value="0" flag="1"/>
			<psa03 value="0" flag="1"/>
			<psa10 value="0" flag="1"/>
			<psa30 value="0" flag="1"/>
		</comp>
		<comp name="--.HNN" depth="0.0">
			<acc value="0" flag="1"/>
			<vel value="0" flag="1"/>
			<psa03 value="0" flag="1"/>
			<psa10 value="0" flag="1"/>
			<psa30 value="0" flag="1"/>
		</comp>
		<comp name="--.HNZ" depth="0.0">
			<acc value="0" flag="1"/>
			<vel value="0" flag="1"/>
			<psa03 value="0" flag="1"/>
			<psa10 value="0" flag="1"/>
			<psa30 value="0" flag="1"/>
		</comp>
	</station>
	<station code="KLV1" name="KLV1" netid="HI" source="ITSAK Strong Motion Network" insttype="" lat="38.03256" lon="22.10797" esm:processing="automatic (Paolucci et al 2011)" esm:quality="bad">
		<comp name="--.HNE" depth="0.0">
			<acc value="0" flag="1"/>
			<vel value="0" flag="1"/>
			<psa03 value="0" flag="1"/>
			<psa10 value="0" flag="1"/>
			<psa30 value="0" flag="1"/>
		</comp>
		<comp name="--.HNN" depth="0.0">
			<acc value="0" flag="1"/>
			<vel value="0" flag="1"/>
			<psa03 value="0" flag="1"/>
			<psa10 value="0" flag="1"/>
			<psa30 value="0" flag="1"/>
		</comp>
		<comp name="--.HNZ" depth="0.0">
			<acc value="0" flag="1"/>
			<vel value="0" flag="1"/>
			<psa03 value="0" flag="1"/>
			<psa10 value="0" flag="1"/>
			<psa30 value="0" flag="1"/>
		</comp>
	</station>
	<station code="KOR2" name="KOR2" netid="HI" source="ITSAK Strong Motion Network" insttype="" lat="37.9401" lon="22.9495" esm:processing="automatic (Paolucci et al 2011)" esm:quality="bad">
		<comp name="--.HNE" depth="0.0">
			<acc value="0" flag="1"/>
			<vel value="0" flag="1"/>
			<psa03 value="0" flag="1"/>
			<psa10 value="0" flag="1"/>
			<psa30 value="0" flag="1"/>
		</comp>
		<comp name="--.HNN" depth="0.0">
			<acc value="0" flag="1"/>
			<vel value="0" flag="1"/>
			<psa03 value="0" flag="1"/>
			<psa10 value="0" flag="1"/>
			<psa30 value="0" flag="1"/>
		</comp>
		<comp name="--.HNZ" depth="0.0">
			<acc value="0" flag="1"/>
			<vel value="0" flag="1"/>
			<psa03 value="0" flag="1"/>
			<psa10 value="0" flag="1"/>
			<psa30 value="0" flag="1"/>
		</comp>
	</station>
	<station code="KYP2" name="KYP2" netid="HI" source="ITSAK Strong Motion Network" insttype="" lat="37.2497" lon="21.667" esm:processing="automatic (Paolucci et al 2011)" esm:quality="bad">
