<?xml version="1.0" encoding="UTF-8" standalone="yes"?>
<!DOCTYPE earthquake SYSTEM "stationlist.dtd">
<stationlist created="" xmlns="ch.ethz.sed.shakemap.usgs.xml">
  <station code="DUNF" name="DUNF" netid="FR" insttype="TRILLIUM-120PH" lat="43.025" lon="1.809">
    <comp name="00.HH1">
      <acc value="0.0145920970" flag="0"/>
      <vel value="0.0060494048" flag="0"/>
      <psa03 value="0.0255549162" flag="0"/>
      <psa10 value="0.0080350176" flag="0"/>
      <psa30 value="0.0005431291" flag="0"/>
    </comp>
    <comp name="00.HH2">
      <acc value="0.0138154279" flag="0"/>
      <vel value="0.0051520077" flag="0"/>
      <psa03 value="0.0360416962" flag="0"/>
      <psa10 value="0.0068173427" flag="0"/>
      <psa30 value="0.0004946108" flag="0"/>
    </comp>
    <comp name="00.HHZ">
      <acc value="0.0163653543" flag="0"/>
      <vel value="0.0045952880" flag="0"/>
      <psa03 value="0.0213066042" flag="0"/>
      <psa10 value="0.0038181168" flag="0"/>
      <psa30 value="0.0005830285" flag="0"/>
    </comp>
  </station>
  <station code="GENF" name="GENF" netid="FR" insttype="TRILLIUM-120PH" lat="42.8233" lon="1.5723">
    <comp name="00.HH1">
      <acc value="0.1326663656" flag="0"/>
      <vel value="0.0128676030" flag="0"/>
      <psa03 value="0.0477224484" flag="0"/>
      <psa10 value="0.0045183800" flag="0"/>
      <psa30 value="0.0005250041" flag="0"/>
    </comp>
    <comp name="00.HH2">
      <acc value="0.1463397085" flag="0"/>
      <vel value="0.0219372155" flag="0"/>
      <psa03 value="0.0860244006" flag="0"/>
      <psa10 value="0.0046280134" flag="0"/>
      <psa30 value="0.0006334240" flag="0"/>
    </comp>
    <comp name="00.HHZ">
      <acc value="0.0693771002" flag="0"/>
      <vel value="0.0083341367" flag="0"/>
      <psa03 value="0.0405390892" flag="0"/>
      <psa10 value="0.0048351919" flag="0"/>
      <psa30 value="0.0005613294" flag="0"/>
    </comp>
  </station>
  <station code="LATF" name="LATF" netid="FR" insttype="TRILLIUM-120PH" lat="43.235" lon="1.309">
    <comp name="00.HH1">
      <acc value="0.0249285274" flag="0"/>
      <vel value="0.0144171654" flag="0"/>
      <psa03 value="0.0519321473" flag="0"/>
      <psa10 value="0.0119400645" flag="0"/>
      <psa30 value="0.0006533782" flag="0"/>
    </comp>
    <comp name="00.HHZ">
      <acc value="0.0119667194" flag="0"/>
      <vel value="0.0048957718" flag="0"/>
      <psa03 value="0.0318337731" flag="0"/>
      <psa10 value="0.0042871294" flag="0"/>
      <psa30 value="0.0006286071" flag="0"/>
    </comp>
    <comp name="00.HH2">
      <acc value="0.0226299175" flag="0"/>
      <vel value="0.0111944412" flag="0"/>
      <psa03 value="0.0770988278" flag="0"/>
      <psa10 value="0.0076852149" flag="0"/>
      <psa30 value="0.0006183470" flag="0"/>
    </comp>
  </station>
  <station code="MELF" name="MELF" netid="FR" insttype="TRILLIUM-120PH" lat="42.8717" lon="0.7575">
    <comp name="00.HHE">
      <acc value="0.0584212534" flag="0"/>
      <vel value="0.0116376188" flag="0"/>
      <psa03 value="0.0714485862" flag="0"/>
      <psa10 value="0.0035104356" flag="0"/>
      <psa30 value="0.0002655500" flag="0"/>
    </comp>
    <comp name="00.HHN">
      <acc value="0.0729853123" flag="0"/>
      <vel value="0.0140462716" flag="0"/>
      <psa03 value="0.0862332384" flag="0"/>
      <psa10 value="0.0032972842" flag="0"/>
      <psa30 value="0.0003159531" flag="0"/>
    </comp>
    <comp name="00.HHZ">
      <acc value="0.0531249721" flag="0"/>
      <vel value="0.0084934720" flag="0"/>
      <psa03 value="0.0395560609" flag="0"/>
      <psa10 value="0.0031461647" flag="0"/>
      <psa30 value="0.0002492664" flag="0"/>
    </comp>
  </station>
  <station code="RESF" name="RESF" netid="FR" insttype="TRILLIUM-120PH" lat="42.807" lon="0.3379">
    <comp name="00.HH1">
      <acc value="0.0147843692" flag="0"/>
      <vel value="0.0065697299" flag="0"/>
      <psa03 value="0.0300017890" flag="0"/>
      <psa10 value="0.0054480897" flag="0"/>
      <psa30 value="0.0004148059" flag="0"/>
    </comp>
    <comp name="00.HH2">
      <acc value="0.0155699076" flag="0"/>
      <vel value="0.0064013887" flag="0"/>
      <psa03 value="0.0421742497" flag="0"/>
      <psa10 value="0.0039513671" flag="0"/>
      <psa30 value="0.0003680499" flag="0"/>
    </comp>
    <comp name="00.HHZ">
      <acc value="0.0141969667" flag="0"/>
      <vel value="0.0042639298" flag="0"/>
      <psa03 value="0.0262747596" flag="0"/>
      <psa10 value="0.0022019549" flag="0"/>
      <psa30 value="0.0002716564" flag="0"/>
    </comp>
  </station>
  <station code="VALC" name="VALC" netid="FR" insttype="TRILLIUM-120PH" lat="42.3876" lon="2.04036">
    <comp name="00.HHE">
      <acc value="0.0407046670" flag="0"/>
      <vel value="0.0086181434" flag="0"/>
      <psa03 value="0.0373465546" flag="0"/>
      <psa10 value="0.0023719770" flag="0"/>
      <psa30 value="0.0002301159" flag="0"/>
    </comp>
    <comp name="00.HHN">
      <acc value="0.0293999806" flag="0"/>
      <vel value="0.0073753151" flag="0"/>
      <psa03 value="0.0291676763" flag="0"/>
      <psa10 value="0.0019212911" flag="0"/>
      <psa30 value="0.0002105723" flag="0"/>
    </comp>
    <comp name="00.HHZ">
      <acc value="0.0251968862" flag="0"/>
      <vel value="0.0049105929" flag="0"/>
      <psa03 value="0.0212710989" flag="0"/>
      <psa10 value="0.0022876848" flag="0"/>
      <psa30 value="0.0002372954" flag="0"/>
    </comp>
  </station>
  <station code="PYAS" name="PYAS" netid="RA" insttype="" lat="43.0119" lon="0.797306">
    <comp name="00.HNE">
      <acc value="0.0196631178" flag="0"/>
      <vel value="0.0038530136" flag="0"/>
      <psa03 value="0.0138258462" flag="0"/>
      <psa10 value="0.0013904888" flag="0"/>
      <psa30 value="0.0001219044" flag="0"/>
    </comp>
    <comp name="00.HNN">
      <acc value="0.0262188272" flag="0"/>
      <vel value="0.0045419699" flag="0"/>
      <psa03 value="0.0259098503" flag="0"/>
      <psa10 value="0.0017573267" flag="0"/>
      <psa30 value="0.0001457793" flag="0"/>
    </comp>
    <comp name="00.HNZ">
      <acc value="0.0177066319" flag="0"/>
      <vel value="0.0033780413" flag="0"/>
      <psa03 value="0.0236240236" flag="0"/>
      <psa10 value="0.0015982489" flag="0"/>
      <psa30 value="0.0001640139" flag="0"/>
    </comp>
  </station>
  <station code="PYCA" name="PYCA" netid="RA" insttype="" lat="43.0236" lon="0.1771">
    <comp name="00.HNE">
      <acc value="0.0922363530" flag="0"/>
      <vel value="0.0113234103" flag="0"/>
      <psa03 value="0.0558992859" flag="0"/>
      <psa10 value="0.0043949435" flag="0"/>
      <psa30 value="0.0002898668" flag="0"/>
    </comp>
    <comp name="00.HNN">
      <acc value="0.0794164356" flag="0"/>
      <vel value="0.0140143741" flag="0"/>
      <psa03 value="0.0442673346" flag="0"/>
      <psa10 value="0.0041111829" flag="0"/>
      <psa30 value="0.0003847694" flag="0"/>
    </comp>
    <comp name="00.HNZ">
      <acc value="0.0461286370" flag="0"/>
      <vel value="0.0080226830" flag="0"/>
      <psa03 value="0.0280322978" flag="0"/>
      <psa10 value="0.0065949880" flag="0"/>
      <psa30 value="0.0003634391" flag="0"/>
    </comp>
  </station>
  <station code="PYFE" name="PYFE" netid="RA" insttype="" lat="42.814" lon="2.507">
    <comp name="00.HNE">
      <acc value="0.0209293256" flag="0"/>
      <vel value="0.0049010774" flag="0"/>
      <psa03 value="0.0154108561" flag="0"/>
      <psa10 value="0.0027324529" flag="0"/>
      <psa30 value="0.0001892676" flag="0"/>
    </comp>
    <comp name="00.HNN">
      <acc value="0.0156045035" flag="0"/>
      <vel value="0.0064103513" flag="0"/>
      <psa03 value="0.0268965239" flag="0"/>
      <psa10 value="0.0039965001" flag="0"/>
      <psa30 value="0.0002410588" flag="0"/>
    </comp>
    <comp name="00.HNZ">
      <acc value="0.0103792853" flag="0"/>
      <vel value="0.0037722714" flag="0"/>
      <psa03 value="0.0167127945" flag="0"/>
      <psa10 value="0.0027233638" flag="0"/>
      <psa30 value="0.0001525335" flag="0"/>
    </comp>
  </station>
  <station code="PYFO" name="PYFO" netid="RA" insttype="" lat="42.968" lon="1.607">
    <comp name="00.HNE">
      <acc value="0.1212710640" flag="0"/>
      <vel value="0.0277198418" flag="0"/>
      <psa03 value="0.1338033347" flag="0"/>
      <psa10 value="0.0058981179" flag="0"/>
      <psa30 value="0.0005771201" flag="0"/>
    </comp>
    <comp name="00.HNN">
      <acc value="0.0773605747" flag="0"/>
      <vel value="0.0210685690" flag="0"/>
      <psa03 value="0.0681933028" flag="0"/>
      <psa10 value="0.0048306985" flag="0"/>
      <psa30 value="0.0004307010" flag="0"/>
    </comp>
    <comp name="00.HNZ">
      <acc value="0.0741522415" flag="0"/>
      <vel value="0.0139361424" flag="0"/>
      <psa03 value="0.0595673939" flag="0"/>
      <psa10 value="0.0049474246" flag="0"/>
      <psa30 value="0.0004567122" flag="0"/>
    </comp>
  </station>
  <station code="PYLI" name="PYLI" netid="RA" insttype="" lat="43.0016" lon="1.13606">
    <comp name="00.HNE">
      <acc value="0.0993962164" flag="0"/>
      <vel value="0.0192733523" flag="0"/>
      <psa03 value="0.0845573270" flag="0"/>
      <psa10 value="0.0048872450" flag="0"/>
      <psa30 value="0.0003822177" flag="0"/>
    </comp>
    <comp name="00.HNN">
      <acc value="0.0505146328" flag="0"/>
      <vel value="0.0113514180" flag="0"/>
      <psa03 value="0.0379492130" flag="0"/>
      <psa10 value="0.0031836100" flag="0"/>
      <psa30 value="0.0003128756" flag="0"/>
    </comp>
    <comp name="00.HNZ">
      <acc value="0.0365765995" flag="0"/>
      <vel value="0.0060839165" flag="0"/>
      <psa03 value="0.0402349075" flag="0"/>
      <psa10 value="0.0022432750" flag="0"/>
      <psa30 value="0.0002476020" flag="0"/>
    </comp>
  </station>
  <station code="PYLL" name="PYLL" netid="RA" insttype="" lat="42.453" lon="2.065">
    <comp name="00.HNE">
      <acc value="0.0174995651" flag="0"/>
      <vel value="0.0044637684" flag="0"/>
      <psa03 value="0.0116611071" flag="0"/>
      <psa10 value="0.0020833439" flag="0"/>
      <psa30 value="0.0002072269" flag="0"/>
    </comp>
    <comp name="00.HNN">
      <acc value="0.0180766859" flag="0"/>
      <vel value="0.0029707444" flag="0"/>
      <psa03 value="0.0070926554" flag="0"/>
      <psa10 value="0.0023851237" flag="0"/>
      <psa30 value="0.0002427540" flag="0"/>
    </comp>
    <comp name="00.HNZ">
      <acc value="0.0135304945" flag="0"/>
      <vel value="0.0029398832" flag="0"/>
      <psa03 value="0.0101045647" flag="0"/>
      <psa10 value="0.0017445960" flag="0"/>
      <psa30 value="0.0002441916" flag="0"/>
    </comp>
  </station>
  <station code="PYLS" name="PYLS" netid="RA" insttype="" lat="42.8603" lon="-0.00846">
    <comp name="00.HNE">
      <acc value="0.0138541189" flag="0"/>
      <vel value="0.0029498294" flag="0"/>
      <psa03 value="0.0104946077" flag="0"/>
      <psa10 value="0.0007637778" flag="0"/>
      <psa30 value="0.0001242095" flag="0"/>
    </comp>
    <comp name="00.HNN">
      <acc value="0.0176896079" flag="0"/>
      <vel value="0.0047085539" flag="0"/>
      <psa03 value="0.0261877500" flag="0"/>
      <psa10 value="0.0017098600" flag="0"/>
      <psa30 value="0.0001408414" flag="0"/>
    </comp>
    <comp name="00.HNZ">
      <acc value="0.0136105152" flag="0"/>
      <vel value="0.0031697735" flag="0"/>
      <psa03 value="0.0172555010" flag="0"/>
      <psa10 value="0.0012957235" flag="0"/>
      <psa30 value="0.0000940076" flag="0"/>
    </comp>
  </station>
  <station code="PYPD" name="PYPD" netid="RA" insttype="" lat="42.6142" lon="2.4153">
    <comp name="00.HNE">
      <acc value="0.0282786140" flag="0"/>
      <vel value="0.0066882182" flag="0"/>
      <psa03 value="0.0312032787" flag="0"/>
      <psa10 value="0.0031404963" flag="0"/>
      <psa30 value="0.0002507810" flag="0"/>
    </comp>
    <comp name="00.HNN">
      <acc value="0.0466686461" flag="0"/>
      <vel value="0.0120035804" flag="0"/>
      <psa03 value="0.0443855773" flag="0"/>
      <psa10 value="0.0027765495" flag="0"/>
      <psa30 value="0.0004795665" flag="0"/>
    </comp>
    <comp name="00.HNZ">
      <acc value="0.0485697668" flag="0"/>
      <vel value="0.0082601044" flag="0"/>
      <psa03 value="0.0359402762" flag="0"/>
      <psa10 value="0.0022228671" flag="0"/>
      <psa30 value="0.0002337827" flag="0"/>
    </comp>
  </station>
  <station code="PYPE" name="PYPE" netid="RA" insttype="" lat="42.673" lon="2.878">
    <comp name="00.HNE">
      <acc value="0.0081460151" flag="0"/>
      <vel value="0.0034072085" flag="0"/>
      <psa03 value="0.0180333017" flag="0"/>
      <psa10 value="0.0043473539" flag="0"/>
      <psa30 value="0.0006176469" flag="0"/>
    </comp>
    <comp name="00.HNN">
      <acc value="0.0101494616" flag="0"/>
      <vel value="0.0034452121" flag="0"/>
      <psa03 value="0.0211933554" flag="0"/>
      <psa10 value="0.0039518566" flag="0"/>
      <psa30 value="0.0007862019" flag="0"/>
    </comp>
    <comp name="00.HNZ">
      <acc value="0.0089298732" flag="0"/>
      <vel value="0.0021968319" flag="0"/>
      <psa03 value="0.0063035988" flag="0"/>
      <psa10 value="0.0022751734" flag="0"/>
      <psa30 value="0.0002698855" flag="0"/>
    </comp>
  </station>
  <station code="PYPM" name="PYPM" netid="RA" insttype="" lat="42.416" lon="2.439">
    <comp name="00.HNE">
      <acc value="0.0105617146" flag="0"/>
      <vel value="0.0035203706" flag="0"/>
      <psa03 value="0.0115440539" flag="0"/>
      <psa10 value="0.0041518250" flag="0"/>
      <psa30 value="0.0001691392" flag="0"/>
    </comp>
    <comp name="00.HNN">
      <acc value="0.0132154315" flag="0"/>
      <vel value="0.0042715493" flag="0"/>
      <psa03 value="0.0098245072" flag="0"/>
      <psa10 value="0.0029253520" flag="0"/>
      <psa30 value="0.0002063378" flag="0"/>
    </comp>
    <comp name="00.HNZ">
      <acc value="0.0116155528" flag="0"/>
      <vel value="0.0041003889" flag="0"/>
      <psa03 value="0.0208303141" flag="0"/>
      <psa10 value="0.0043014225" flag="0"/>
      <psa30 value="0.0002148306" flag="0"/>
    </comp>
  </station>
</stationlist>
