<stationlist created="1775820713">
	<station code="AVIN" name="AVIN" netid="CA" source="Catalan Seismic Network (CA)" insttype="" lat="41.84381" lon="1.96546">
		<comp name="--.HNE" depth="0.0">
			<acc value="0.0698989915739921" flag="0"/>
			<vel value="0.0118853487015903" flag="0"/>
			<psa03 value="0.0175110272071261" flag="0"/>
			<psa10 value="0.00225139601893558" flag="0"/>
			<psa30 value="0.00026879582723765" flag="0"/>
		</comp>
		<comp name="--.HNN" depth="0.0">
			<acc value="0.0798221177673982" flag="0"/>
			<vel value="0.0117234905312761" flag="0"/>
			<psa03 value="0.0190766165968088" flag="0"/>
			<psa10 value="0.00194325627025374" flag="0"/>
			<psa30 value="0.000180131698465791" flag="0"/>
		</comp>
		<comp name="--.HNZ" depth="0.0">
			<acc value="0.0496784157332747" flag="0"/>
			<vel value="0.00548938825778799" flag="0"/>
			<psa03 value="0.0142410163141021" flag="0"/>
			<psa10 value="0.00163788525967254" flag="0"/>
			<psa30 value="0.000252763124524889" flag="0"/>
		</comp>
	</station>
	<station code="BAIN" name="BAIN" netid="CA" source="Catalan Seismic Network (CA)" insttype="" lat="41.396" lon="2.173">
		<comp name="--.HNE" depth="0.0">
			<acc value="0.0159478233397829" flag="0"/>
			<vel value="0.0100602113190763" flag="0"/>
			<psa03 value="0.036113837677028" flag="0"/>
			<psa10 value="0.0100690110850527" flag="0"/>
			<psa30 value="0.000937885671987735" flag="0"/>
		</comp>
		<comp name="--.HNN" depth="0.0">
			<acc value="0.0140588482012868" flag="0"/>
			<vel value="0.006813964990923" flag="0"/>
			<psa03 value="0.0236294325214533" flag="0"/>
			<psa10 value="0.00791419708920071" flag="0"/>
			<psa30 value="0.000642680126486702" flag="0"/>
		</comp>
		<comp name="--.HNZ" depth="0.0">
			<acc value="0.0163341552170627" flag="0"/>
			<vel value="0.00619661288622416" flag="0"/>
			<psa03 value="0.0191821743707292" flag="0"/>
			<psa10 value="0.00673014333897083" flag="0"/>
			<psa30 value="0.000326049151239259" flag="0"/>
		</comp>
	</station>
	<station code="BAJU" name="BAJU" netid="CA" source="Catalan Seismic Network (CA)" insttype="" lat="41.3853" lon="2.1741">
		<comp name="--.HNE" depth="0.0">
			<acc value="0.0196857500267317" flag="0"/>
			<vel value="0.0081402670035988" flag="0"/>
			<psa03 value="0.0248002496656808" flag="0"/>
			<psa10 value="0.0105273476976175" flag="0"/>
			<psa30 value="0.000757372359700845" flag="0"/>
		</comp>
		<comp name="--.HNN" depth="0.0">
			<acc value="0.0141105615656035" flag="0"/>
			<vel value="0.00806673371986759" flag="0"/>
			<psa03 value="0.0223079231029255" flag="0"/>
			<psa10 value="0.010659410821136" flag="0"/>
			<psa30 value="0.000423965689812828" flag="0"/>
		</comp>
		<comp name="--.HNZ" depth="0.0">
			<acc value="0.0145475835899127" flag="0"/>
			<vel value="0.00491845627015606" flag="0"/>
			<psa03 value="0.0143517046362295" flag="0"/>
			<psa10 value="0.00565451302124229" flag="0"/>
			<psa30 value="0.000408367755484543" flag="0"/>
		</comp>
	</station>
	<station code="BLAN" name="BLAN" netid="CA" source="Catalan Seismic Network (CA)" insttype="" lat="41.683943" lon="2.794193">
		<comp name="--.HNE" depth="0.0">
			<acc value="0.0300184573167002" flag="0"/>
			<vel value="0.00563095547410678" flag="0"/>
			<psa03 value="0.0149645811738323" flag="0"/>
			<psa10 value="0.00291499990131123" flag="0"/>
			<psa30 value="0.000295696802003678" flag="0"/>
		</comp>
		<comp name="--.HNN" depth="0.0">
			<acc value="0.0266423147040528" flag="0"/>
			<vel value="0.00506637183969294" flag="0"/>
			<psa03 value="0.0126252035452786" flag="0"/>
			<psa10 value="0.00210333058533001" flag="0"/>
			<psa30 value="0.00022029665086348" flag="0"/>
		</comp>
		<comp name="--.HNZ" depth="0.0">
			<acc value="0.0105735908780815" flag="0"/>
			<vel value="0.0033710749866183" flag="0"/>
			<psa03 value="0.0117340624803019" flag="0"/>
			<psa10 value="0.00159816907398126" flag="0"/>
			<psa30 value="0.000228881724790909" flag="0"/>
		</comp>
	</station>
	<station code="CELO" name="CELO" netid="CA" source="Catalan Seismic Network (CA)" insttype="" lat="41.6896" lon="2.492">
		<comp name="--.HNE" depth="0.0">
			<acc value="0.0114619767739939" flag="0"/>
			<vel value="0.00359771288654203" flag="0"/>
			<psa03 value="0.0145046952398771" flag="0"/>
			<psa10 value="0.00433553798935332" flag="0"/>
			<psa30 value="0.000221157150576036" flag="0"/>
		</comp>
		<comp name="--.HNN" depth="0.0">
			<acc value="0.023951674019971" flag="0"/>
			<vel value="0.00539224631047721" flag="0"/>
			<psa03 value="0.0173576576721558" flag="0"/>
			<psa10 value="0.003795124142724" flag="0"/>
			<psa30 value="0.000282320134615106" flag="0"/>
		</comp>
		<comp name="--.HNZ" depth="0.0">
			<acc value="0.0107314213875364" flag="0"/>
			<vel value="0.00282144988873277" flag="0"/>
			<psa03 value="0.00936428049387365" flag="0"/>
			<psa10 value="0.00227890127852455" flag="0"/>
			<psa30 value="0.000244180055938687" flag="0"/>
		</comp>
	</station>
	<station code="CGIR" name="CGIR" netid="CA" source="Catalan Seismic Network (CA)" insttype="" lat="41.986" lon="2.8278">
		<comp name="--.HNE" depth="0.0">
			<acc value="0.00937994110007306" flag="0"/>
			<vel value="0.00307444996467177" flag="0"/>
			<psa03 value="0.00946605676731713" flag="0"/>
			<psa10 value="0.00242947680029128" flag="0"/>
			<psa30 value="0.000142159951253312" flag="0"/>
		</comp>
		<comp name="--.HNN" depth="0.0">
			<acc value="0.0109605231059995" flag="0"/>
			<vel value="0.00455427833647362" flag="0"/>
			<psa03 value="0.0109915067792054" flag="0"/>
			<psa10 value="0.0044150057537184" flag="0"/>
			<psa30 value="0.000221050138278526" flag="0"/>
		</comp>
		<comp name="--.HNZ" depth="0.0">
			<acc value="0.00896331587059641" flag="0"/>
			<vel value="0.00161117989927516" flag="0"/>
			<psa03 value="0.00893973218732032" flag="0"/>
			<psa10 value="0.00151102314474237" flag="0"/>
			<psa30 value="0.000194728498765606" flag="0"/>
		</comp>
	</station>
	<station code="CGIS" name="CGIS" netid="CA" source="Catalan Seismic Network (CA)" insttype="" lat="41.98088" lon="2.82158">
		<comp name="--.HNE" depth="0.0">
			<acc value="0.0205599304882544" flag="0"/>
			<vel value="0.00701054886665653" flag="0"/>
			<psa03 value="0.0214874833361619" flag="0"/>
			<psa10 value="0.00303485713814104" flag="0"/>
			<psa30 value="0.000276373881329751" flag="0"/>
		</comp>
		<comp name="--.HNN" depth="0.0">
			<acc value="0.0156476882869526" flag="0"/>
			<vel value="0.00719379488340478" flag="0"/>
			<psa03 value="0.0222949248460044" flag="0"/>
			<psa10 value="0.00605827648731559" flag="0"/>
			<psa30 value="0.000330814414831261" flag="0"/>
		</comp>
		<comp name="--.HNZ" depth="0.0">
			<acc value="0.0118108286337552" flag="0"/>
			<vel value="0.00332026144608354" flag="0"/>
			<psa03 value="0.0117722668340798" flag="0"/>
			<psa10 value="0.00131137433305245" flag="0"/>
			<psa30 value="0.000268767544113921" flag="0"/>
		</comp>
	</station>
	<station code="CGRN" name="CGRN" netid="CA" source="Catalan Seismic Network (CA)" insttype="" lat="41.607" lon="2.2884">
		<comp name="--.HNE" depth="0.0">
			<acc value="0.00795643523231027" flag="0"/>
			<vel value="0.00369497952159966" flag="0"/>
			<psa03 value="0.0102710567091725" flag="0"/>
			<psa10 value="0.0035513113506962" flag="0"/>
			<psa30 value="0.00041750833496136" flag="0"/>
		</comp>
		<comp name="--.HNN" depth="0.0">
			<acc value="0.0133701914415726" flag="0"/>
			<vel value="0.00483047127440044" flag="0"/>
			<psa03 value="0.0111251432361559" flag="0"/>
			<psa10 value="0.00489897531430997" flag="0"/>
			<psa30 value="0.000363167964345207" flag="0"/>
		</comp>
		<comp name="--.HNZ" depth="0.0">
			<acc value="0.0103441119619215" flag="0"/>
			<vel value="0.00192969503297267" flag="0"/>
			<psa03 value="0.0105699502073216" flag="0"/>
			<psa10 value="0.00128662187300804" flag="0"/>
			<psa30 value="0.000230669811992912" flag="0"/>
		</comp>
	</station>
	<station code="CLLI" name="CLLI" netid="CA" source="Catalan Seismic Network (CA)" insttype="" lat="42.478105" lon="1.972973">
		<comp name="--.HNE" depth="0.0">
			<acc value="0.0442736198817095" flag="0"/>
			<vel value="0.00499036567014291" flag="0"/>
			<psa03 value="0.0127543514236143" flag="0"/>
			<psa10 value="0.0031011348099621" flag="0"/>
			<psa30 value="0.000331331063640399" flag="0"/>
		</comp>
		<comp name="--.HNN" depth="0.0">
			<acc value="0.0463241037631501" flag="0"/>
			<vel value="0.00816107513371625" flag="0"/>
			<psa03 value="0.020810726264736" flag="0"/>
			<psa10 value="0.00403130611675843" flag="0"/>
			<psa30 value="0.00032155101471812" flag="0"/>
		</comp>
		<comp name="--.HNZ" depth="0.0">
			<acc value="0.0292288317030133" flag="0"/>
			<vel value="0.00703816139286913" flag="0"/>
			<psa03 value="0.0159366976550737" flag="0"/>
			<psa10 value="0.00514788070934823" flag="0"/>
			<psa30 value="0.000450743922074059" flag="0"/>
		</comp>
	</station>
	<station code="CMON" name="CMON" netid="CA" source="Catalan Seismic Network (CA)" insttype="" lat="41.593324" lon="1.836294">
		<comp name="--.HNE" depth="0.0">
			<acc value="0.0103084110162557" flag="0"/>
			<vel value="0.0019006548069864" flag="0"/>
			<psa03 value="0.00648590426868577" flag="0"/>
			<psa10 value="0.0012533242375164" flag="0"/>
			<psa30 value="0.000372136943913045" flag="0"/>
		</comp>
		<comp name="--.HNN" depth="0.0">
			<acc value="0.0126661555600023" flag="0"/>
			<vel value="0.0018546901482647" flag="0"/>
			<psa03 value="0.00689277236755495" flag="0"/>
			<psa10 value="0.00158446730693151" flag="0"/>
			<psa30 value="0.000171810470141967" flag="0"/>
		</comp>
		<comp name="--.HNZ" depth="0.0">
			<acc value="0.00835444882852409" flag="0"/>
			<vel value="0.0016282167065903" flag="0"/>
			<psa03 value="0.00443726465013255" flag="0"/>
			<psa10 value="0.00126854708189458" flag="0"/>
			<psa30 value="0.000171632723992486" flag="0"/>
		</comp>
	</station>
	<station code="CTRM" name="CTRM" netid="CA" source="Catalan Seismic Network (CA)" insttype="" lat="42.160858" lon="0.893644">
		<comp name="--.HNE" depth="0.0">
			<acc value="0.0816680671864956" flag="0"/>
			<vel value="0.0161003066305329" flag="0"/>
			<psa03 value="0.0620013781203828" flag="0"/>
			<psa10 value="0.00511340326911449" flag="0"/>
			<psa30 value="0.000489534043809777" flag="0"/>
		</comp>
		<comp name="--.HNN" depth="0.0">
			<acc value="0.0801844703414246" flag="0"/>
			<vel value="0.0182524539267408" flag="0"/>
			<psa03 value="0.072610435085079" flag="0"/>
			<psa10 value="0.009157315377211" flag="0"/>
			<psa30 value="0.000498831170115946" flag="0"/>
		</comp>
		<comp name="--.HNZ" depth="0.0">
			<acc value="0.0735322916196977" flag="0"/>
			<vel value="0.0123180539669993" flag="0"/>
			<psa03 value="0.0341347143823207" flag="0"/>
			<psa10 value="0.00532715102261695" flag="0"/>
			<psa30 value="0.00060153813019925" flag="0"/>
		</comp>
	</station>
	<station code="FBR" name="FBR" netid="CA" source="Catalan Seismic Network (CA)" insttype="" lat="41.4183" lon="2.1239">
		<comp name="--.HNE" depth="0.0">
			<acc value="0.0207539571095782" flag="0"/>
			<vel value="0.0059389401476416" flag="0"/>
			<psa03 value="0.0167591076044588" flag="0"/>
			<psa10 value="0.00245402686411221" flag="0"/>
			<psa30 value="0.000190469297343555" flag="0"/>
		</comp>
		<comp name="--.HNN" depth="0.0">
			<acc value="0.0286294845501164" flag="0"/>
			<vel value="0.00664888403413211" flag="0"/>
			<psa03 value="0.0226891931518434" flag="0"/>
			<psa10 value="0.00406523133286618" flag="0"/>
			<psa30 value="0.00019765192159475" flag="0"/>
		</comp>
		<comp name="--.HNZ" depth="0.0">
			<acc value="0.0284552047159377" flag="0"/>
			<vel value="0.00543075790581062" flag="0"/>
			<psa03 value="0.00838183715662857" flag="0"/>
			<psa10 value="0.00137730135664369" flag="0"/>
			<psa30 value="0.000221121965953513" flag="0"/>
		</comp>
	</station>
	<station code="ILER" name="ILER" netid="CA" source="Catalan Seismic Network (CA)" insttype="" lat="41.6153" lon="0.6262">
		<comp name="--.HNE" depth="0.0">
			<acc value="0.0565344763879066" flag="0"/>
			<vel value="0.0189734776538169" flag="0"/>
			<psa03 value="0.113634673572812" flag="0"/>
			<psa10 value="0.00525922792927713" flag="0"/>
			<psa30 value="0.000574594991183064" flag="0"/>
		</comp>
		<comp name="--.HNN" depth="0.0">
			<acc value="0.048937031282813" flag="0"/>
			<vel value="0.0134369111939672" flag="0"/>
			<psa03 value="0.0485744001074697" flag="0"/>
			<psa10 value="0.00476407137760262" flag="0"/>
			<psa30 value="0.000424818428594125" flag="0"/>
		</comp>
		<comp name="--.HNZ" depth="0.0">
			<acc value="0.0332909202291191" flag="0"/>
			<vel value="0.00615852643322249" flag="0"/>
			<psa03 value="0.0241821878887873" flag="0"/>
			<psa10 value="0.00290621564752275" flag="0"/>
			<psa30 value="0.000229266307559426" flag="0"/>
		</comp>
	</station>
	<station code="LLIS" name="LLIS" netid="CA" source="Catalan Seismic Network (CA)" insttype="" lat="42.4626" lon="1.9783">
		<comp name="--.HNE" depth="0.0">
			<acc value="0.0497099590365835" flag="0"/>
			<vel value="0.0142136072502976" flag="0"/>
			<psa03 value="0.0437922968580988" flag="0"/>
			<psa10 value="0.0135363651552703" flag="0"/>
			<psa30 value="0.000611987832857325" flag="0"/>
		</comp>
		<comp name="--.HNN" depth="0.0">
			<acc value="0.0583643057463947" flag="0"/>
			<vel value="0.0185011101420388" flag="0"/>
			<psa03 value="0.0582639951204561" flag="0"/>
			<psa10 value="0.00857069776664883" flag="0"/>
			<psa30 value="0.000764832020533088" flag="0"/>
		</comp>
		<comp name="--.HNZ" depth="0.0">
			<acc value="0.0559494577221097" flag="0"/>
			<vel value="0.0109998175874651" flag="0"/>
			<psa03 value="0.032688191473937" flag="0"/>
			<psa10 value="0.00662436664427456" flag="0"/>
			<psa30 value="0.000421688481667572" flag="0"/>
		</comp>
	</station>
	<station code="MTJR" name="MTJR" netid="CA" source="Catalan Seismic Network (CA)" insttype="" lat="41.37007" lon="2.15608">
		<comp name="--.HNE" depth="0.0">
			<acc value="0.0236834412499007" flag="0"/>
			<vel value="0.00627254120036861" flag="0"/>
			<psa03 value="0.0306491006650181" flag="0"/>
			<psa10 value="0.00391267497676348" flag="0"/>
			<psa30 value="0.000366589883739173" flag="0"/>
		</comp>
		<comp name="--.HNN" depth="0.0">
			<acc value="0.0249229481374862" flag="0"/>
			<vel value="0.00925202992851381" flag="0"/>
			<psa03 value="0.0342979725931788" flag="0"/>
			<psa10 value="0.00554139709035169" flag="0"/>
			<psa30 value="0.000325747438544246" flag="0"/>
		</comp>
		<comp name="--.HNZ" depth="0.0">
			<acc value="0.0272968038453262" flag="0"/>
			<vel value="0.00495827566276131" flag="0"/>
			<psa03 value="0.0144426429521233" flag="0"/>
			<psa10 value="0.0020311068946146" flag="0"/>
			<psa30 value="0.00019636671926872" flag="0"/>
		</comp>
	</station>
	<station code="OLOS" name="OLOS" netid="CA" source="Catalan Seismic Network (CA)" insttype="" lat="42.18145" lon="2.48925">
		<comp name="--.HNE" depth="0.0">
			<acc value="0.021542932882351" flag="0"/>
			<vel value="0.00467987546008193" flag="0"/>
			<psa03 value="0.0279107265528409" flag="0"/>
			<psa10 value="0.00179774510741534" flag="0"/>
			<psa30 value="0.000209280986234099" flag="0"/>
		</comp>
		<comp name="--.HNN" depth="0.0">
			<acc value="0.0298400340478008" flag="0"/>
			<vel value="0.00628557631382747" flag="0"/>
			<psa03 value="0.0192478597116561" flag="0"/>
			<psa10 value="0.00222914321667351" flag="0"/>
			<psa30 value="0.00027511621989093" flag="0"/>
		</comp>
		<comp name="--.HNZ" depth="0.0">
			<acc value="0.0238943837965619" flag="0"/>
			<vel value="0.00343107941840844" flag="0"/>
			<psa03 value="0.0142337293730552" flag="0"/>
			<psa10 value="0.00213171387183081" flag="0"/>
			<psa30 value="0.000242980393133722" flag="0"/>
		</comp>
	</station>
	<station code="REUS" name="REUS" netid="CA" source="Catalan Seismic Network (CA)" insttype="" lat="41.134825" lon="1.185893">
		<comp name="--.HNE" depth="0.0">
			<acc value="0.0283811084936195" flag="0"/>
			<vel value="0.00642867932405632" flag="0"/>
			<psa03 value="0.0249251850253533" flag="0"/>
			<psa10 value="0.00964900857444585" flag="0"/>
			<psa30 value="0.00236739349486803" flag="0"/>
		</comp>
		<comp name="--.HNN" depth="0.0">
			<acc value="0.0244937932139429" flag="0"/>
			<vel value="0.00810590843253915" flag="0"/>
			<psa03 value="0.031265388886926" flag="0"/>
			<psa10 value="0.00721374209374658" flag="0"/>
			<psa30 value="0.00181980409475458" flag="0"/>
		</comp>
		<comp name="--.HNZ" depth="0.0">
			<acc value="0.014154123875215" flag="0"/>
			<vel value="0.00455826170847819" flag="0"/>
			<psa03 value="0.016274641917247" flag="0"/>
			<psa10 value="0.00399946932021303" flag="0"/>
			<psa30 value="0.00110611046188999" flag="0"/>
		</comp>
	</station>
	<station code="VIER" name="VIER" netid="CA" source="Catalan Seismic Network (CA)" insttype="" lat="42.706473" lon="0.786306">
		<comp name="--.HNE" depth="0.0">
			<acc value="0.0638170585960327" flag="0"/>
			<vel value="0.0165843695577585" flag="0"/>
			<psa03 value="0.0422169451029096" flag="0"/>
			<psa10 value="0.00258735335258726" flag="0"/>
			<psa30 value="0.000301758609818742" flag="0"/>
		</comp>
		<comp name="--.HNN" depth="0.0">
			<acc value="0.0653892040818606" flag="0"/>
			<vel value="0.0148374125360307" flag="0"/>
			<psa03 value="0.0463787806999038" flag="0"/>
			<psa10 value="0.0037227991953029" flag="0"/>
			<psa30 value="0.000305360046312866" flag="0"/>
		</comp>
		<comp name="--.HNZ" depth="0.0">
			<acc value="0.0421582358107889" flag="0"/>
			<vel value="0.00904288485392681" flag="0"/>
			<psa03 value="0.0318256681901668" flag="0"/>
			<psa10 value="0.00218640468233157" flag="0"/>
			<psa30 value="0.000273774854990577" flag="0"/>
		</comp>
	</station>
	<station code="VIES" name="VIES" netid="CA" source="Catalan Seismic Network (CA)" insttype="" lat="42.7016" lon="0.7969">
		<comp name="--.HNE" depth="0.0">
			<acc value="0.0918011195864942" flag="0"/>
			<vel value="0.0248359950562303" flag="0"/>
			<psa03 value="0.19845608424151" flag="0"/>
			<psa10 value="0.00504194087885305" flag="0"/>
			<psa30 value="0.00048316112163772" flag="0"/>
		</comp>
		<comp name="--.HNN" depth="0.0">
			<acc value="0.0669010818074589" flag="0"/>
			<vel value="0.0184292653623082" flag="0"/>
			<psa03 value="0.109602458541562" flag="0"/>
			<psa10 value="0.00363728673364457" flag="0"/>
			<psa30 value="0.000348332163837892" flag="0"/>
		</comp>
		<comp name="--.HNZ" depth="0.0">
			<acc value="0.0613804063275508" flag="0"/>
			<vel value="0.0126302173608744" flag="0"/>
			<psa03 value="0.064235849059759" flag="0"/>
			<psa10 value="0.00315338444311948" flag="0"/>
			<psa30 value="0.000278097641353931" flag="0"/>
		</comp>
	</station>
	<station code="EXQUE" name="EXQUE" netid="ES" source="Spanish Digital Seismic Network" insttype="" lat="42.348421" lon="2.162662">
		<comp name="--.HNE" depth="0.0">
			<acc value="0.0406206523089148" flag="0"/>
			<vel value="0.0102462392072691" flag="0"/>
			<psa03 value="0.0478991574588889" flag="0"/>
			<psa10 value="0.0032817259138628" flag="0"/>
			<psa30 value="0.000492347667701035" flag="0"/>
		</comp>
		<comp name="--.HNN" depth="0.0">
			<acc value="0.0407983443754131" flag="0"/>
			<vel value="0.0100018660282648" flag="0"/>
			<psa03 value="0.051728958039576" flag="0"/>
			<psa10 value="0.0028586927337374" flag="0"/>
			<psa30 value="0.00032369701625522" flag="0"/>
		</comp>
		<comp name="--.HNZ" depth="0.0">
			<acc value="0.0405584769512823" flag="0"/>
			<vel value="0.00678664694816932" flag="0"/>
			<psa03 value="0.0196575105469206" flag="0"/>
			<psa10 value="0.00296246140477909" flag="0"/>
			<psa30 value="0.000222115938049097" flag="0"/>
		</comp>
	</station>
	<station code="EXRIP" name="EXRIP" netid="ES" source="Spanish Digital Seismic Network" insttype="" lat="42.2" lon="2.1886">
		<comp name="--.HNE" depth="0.0">
