<stationlist xmlns:esm="https://esm-db.eu/esmws/shakemap/1/" created="1780710928">
	<station code="KAS2" name="KAS2" netid="HI" source="ITSAK Strong Motion Network" insttype="" lat="40.504878" lon="21.280507" esm:processing="manual (Paolucci et al 2011)" esm:quality="good">
		<comp name="--.HNE" depth="0.0">
			<acc value="0.0022556037069429" flag="0"/>
			<vel value="0.00196098804612577" flag="0"/>
			<psa03 value="0.00693461888967643" flag="0"/>
			<psa10 value="0.00250870197044347" flag="0"/>
			<psa30 value="0.000133121175395378" flag="0"/>
		</comp>
		<comp name="--.HNN" depth="0.0">
			<acc value="0.00179202457449371" flag="0"/>
			<vel value="0.00202344199823776" flag="0"/>
			<psa03 value="0.00532069491784236" flag="0"/>
			<psa10 value="0.00276653389429305" flag="0"/>
			<psa30 value="0.000193222682866952" flag="0"/>
		</comp>
		<comp name="--.HNZ" depth="0.0">
			<acc value="0.00120548280513685" flag="0"/>
			<vel value="0.00123861254421135" flag="0"/>
			<psa03 value="0.00388569230387848" flag="0"/>
			<psa10 value="0.00178798508586196" flag="0"/>
			<psa30 value="0.000136553915818418" flag="0"/>
		</comp>
	</station>
	<station code="LMS2" name="LMS2" netid="HI" source="ITSAK Strong Motion Network" insttype="" lat="40.834985" lon="21.141815" esm:processing="manual (Paolucci et al 2011)" esm:quality="good">
		<comp name="--.HNE" depth="0.0">
			<acc value="0.00394157397566706" flag="0"/>
			<vel value="0.00187060847666525" flag="0"/>
			<psa03 value="0.0123935912332613" flag="0"/>
			<psa10 value="0.00239594516440845" flag="0"/>
			<psa30 value="0.000171810073414163" flag="0"/>
		</comp>
		<comp name="--.HNN" depth="0.0">
			<acc value="0.00642061702782922" flag="0"/>
			<vel value="0.00283363616493789" flag="0"/>
			<psa03 value="0.0184785313333462" flag="0"/>
			<psa10 value="0.00241607915738667" flag="0"/>
			<psa30 value="0.000285007856158391" flag="0"/>
		</comp>
		<comp name="--.HNZ" depth="0.0">
			<acc value="0.00255022251942097" flag="0"/>
			<vel value="0.00121106501172999" flag="0"/>
			<psa03 value="0.00711401085230521" flag="0"/>
			<psa10 value="0.00105502123205885" flag="0"/>
			<psa30 value="0.000212972903502974" flag="0"/>
		</comp>
	</station>
	<station code="CEVME" name="CEVME" netid="ME" source="Montenegrin Seismic Network (ME)" insttype="" lat="42.546741" lon="18.917674" esm:processing="manual (Paolucci et al 2011)" esm:quality="good">
		<comp name="00.HLE" depth="0.0">
			<acc value="0.0171175347572085" flag="0"/>
			<vel value="0.00614978070920282" flag="0"/>
			<psa03 value="0.0383440710718589" flag="0"/>
			<psa10 value="0.00432880849031779" flag="0"/>
			<psa30 value="0.000434894248329601" flag="0"/>
		</comp>
		<comp name="00.HLN" depth="0.0">
			<acc value="0.0172352126879282" flag="0"/>
			<vel value="0.00470113644278059" flag="0"/>
			<psa03 value="0.0295298563680594" flag="0"/>
			<psa10 value="0.00254090991385165" flag="0"/>
			<psa30 value="0.000255477999790332" flag="0"/>
		</comp>
		<comp name="00.HLZ" depth="0.0">
			<acc value="0.0108620286879945" flag="0"/>
			<vel value="0.00515897798899069" flag="0"/>
			<psa03 value="0.0243845026069581" flag="0"/>
			<psa10 value="0.00312882250881574" flag="0"/>
			<psa30 value="0.000399547905101167" flag="0"/>
		</comp>
	</station>
	<station code="DAGME" name="DAGME" netid="ME" source="Montenegrin Seismic Network (ME)" insttype="" lat="42.5684" lon="19.0677" esm:processing="manual (Paolucci et al 2011)" esm:quality="best">
		<comp name="00.HLE" depth="0.0">
			<acc value="0.0147331189798036" flag="0"/>
			<vel value="0.00776629829648567" flag="0"/>
			<psa03 value="0.0350331477821068" flag="0"/>
			<psa10 value="0.00523886497293344" flag="0"/>
			<psa30 value="0.000458607617837285" flag="0"/>
		</comp>
		<comp name="00.HLN" depth="0.0">
			<acc value="0.0193523647674172" flag="0"/>
			<vel value="0.0089926716362389" flag="0"/>
			<psa03 value="0.0460397306102016" flag="0"/>
			<psa10 value="0.00712340671569505" flag="0"/>
			<psa30 value="0.000536906479419261" flag="0"/>
		</comp>
		<comp name="00.HLZ" depth="0.0">
			<acc value="0.00744771109385705" flag="0"/>
			<vel value="0.00404130000658623" flag="0"/>
			<psa03 value="0.0160177099693413" flag="0"/>
			<psa10 value="0.00515832900102055" flag="0"/>
			<psa30 value="0.000365991250137463" flag="0"/>
		</comp>
	</station>
</stationlist>
