<?xml version="1.0" encoding="UTF-8" standalone="yes"?>
<!DOCTYPE earthquake SYSTEM "stationlist.dtd">
<stationlist created="" xmlns="ch.ethz.sed.shakemap.usgs.xml">
  <station code="VLO" name="VLO" netid="AC" source="INGV" insttype="" lat="40.4686" lon="19.4955">
    <comp name="--.HHN">
      <acc value="0.0272818721" flag="0"/>
      <vel value="0.0119176471" flag="0"/>
      <psa03 value="0.0634283161" flag="0"/>
      <psa10 value="0.0055152737" flag="0"/>
      <psa30 value="0.0009677041" flag="0"/>
    </comp>
    <comp name="--.HHZ">
      <acc value="0.0120204594" flag="0"/>
      <vel value="0.0057614194" flag="0"/>
      <psa03 value="0.0297192392" flag="0"/>
      <psa10 value="0.0042075207" flag="0"/>
      <psa30 value="0.0005733649" flag="0"/>
    </comp>
    <comp name="--.HHE">
      <acc value="0.0254825379" flag="0"/>
      <vel value="0.0083449288" flag="0"/>
      <psa03 value="0.0344269527" flag="0"/>
      <psa10 value="0.0083473080" flag="0"/>
      <psa30 value="0.0005610589" flag="0"/>
    </comp>
  </station>
  <station code="PDG" name="PDG" netid="MN" source="INGV" insttype="" lat="42.4297" lon="19.2608">
    <comp name="--.HHZ">
      <acc value="0.0081719556" flag="0"/>
      <vel value="0.0032935245" flag="0"/>
      <psa03 value="0.0127605918" flag="0"/>
      <psa10 value="0.0020949948" flag="0"/>
      <psa30 value="0.0003563103" flag="0"/>
    </comp>
    <comp name="--.HHE">
      <acc value="0.0095182190" flag="0"/>
      <vel value="0.0037432183" flag="0"/>
      <psa03 value="0.0282077784" flag="0"/>
      <psa10 value="0.0044477171" flag="0"/>
      <psa30 value="0.0003572944" flag="0"/>
    </comp>
    <comp name="--.HHN">
      <acc value="0.0112130782" flag="0"/>
      <vel value="0.0047752676" flag="0"/>
      <psa03 value="0.0236129167" flag="0"/>
      <psa10 value="0.0029153737" flag="0"/>
      <psa30 value="0.0002427813" flag="0"/>
    </comp>
  </station>
  <station code="TIR" name="TIR" netid="MN" source="INGV" insttype="" lat="41.3472" lon="19.8631">
    <comp name="--.HHE">
      <acc value="0.5852165259" flag="0"/>
      <vel value="0.3658006440" flag="0"/>
      <psa03 value="1.4771920158" flag="0"/>
      <psa10 value="0.1522625875" flag="0"/>
      <psa30 value="0.0119961236" flag="0"/>
    </comp>
    <comp name="--.HHZ">
      <acc value="0.3145630119" flag="0"/>
      <vel value="0.1020217074" flag="0"/>
      <psa03 value="0.5165053476" flag="0"/>
      <psa10 value="0.0322687738" flag="0"/>
      <psa30 value="0.0024439617" flag="0"/>
    </comp>
    <comp name="--.HHN">
      <acc value="0.8343306516" flag="0"/>
      <vel value="0.1395377548" flag="0"/>
      <psa03 value="0.8084204087" flag="0"/>
      <psa10 value="0.0523674033" flag="0"/>
      <psa30 value="0.0040281237" flag="0"/>
    </comp>
  </station>
</stationlist>
