<?xml version="1.0" encoding="UTF-8" standalone="yes"?>
<!DOCTYPE earthquake SYSTEM "stationlist.dtd">
<stationlist created="" xmlns="ch.ethz.sed.shakemap.usgs.xml">
  <station code="KBS" name="KBS" netid="GE" insttype="" lat="78.9154" lon="11.9385">
    <comp name="20.HN1">
      <acc value="0.0261169488" flag="0"/>
      <vel value="0.0075605098" flag="0"/>
      <psa03 value="0.0313115176" flag="0"/>
      <psa10 value="0.0057515751" flag="0"/>
      <psa30 value="0.0004485793" flag="0"/>
    </comp>
    <comp name="20.HNZ">
      <acc value="0.0155795275" flag="0"/>
      <vel value="0.0051925045" flag="0"/>
      <psa03 value="0.0244662300" flag="0"/>
      <psa10 value="0.0048018786" flag="0"/>
      <psa30 value="0.0003093798" flag="0"/>
    </comp>
    <comp name="20.HN2">
      <acc value="0.0269133481" flag="0"/>
      <vel value="0.0066034442" flag="0"/>
      <psa03 value="0.0306077896" flag="0"/>
      <psa10 value="0.0038081544" flag="0"/>
      <psa30 value="0.0002710128" flag="0"/>
    </comp>
  </station>
</stationlist>
