<stationlist created="1741951775">
	<station code="BODA" name="BODA" netid="KO" source="Bogazici University Kandilli Observatory And Earthquake Research Institute (KOERI)" insttype="" lat="37.0348" lon="27.4304">
		<comp name=".HNE" depth="0.0">
			<acc value="0.00403877987781" flag="0"/>
			<vel value="0.00172983635413" flag="0"/>
			<psa03 value="0.0127403700286482" flag="0"/>
			<psa10 value="0.00225476397642258" flag="0"/>
			<psa30 value="0.000150153736010457" flag="0"/>
		</comp>
		<comp name=".HNN" depth="0.0">
			<acc value="0.0045132169107198" flag="0"/>
			<vel value="0.00161530823114" flag="0"/>
			<psa03 value="0.012007400900123" flag="0"/>
			<psa10 value="0.00173613813563015" flag="0"/>
			<psa30 value="0.000159376430302041" flag="0"/>
		</comp>
		<comp name=".HNZ" depth="0.0">
			<acc value="0.0043068093342786" flag="0"/>
			<vel value="0.00100029287755" flag="0"/>
			<psa03 value="0.00246381474558147" flag="0"/>
			<psa10 value="0.00118527937831719" flag="0"/>
			<psa30 value="0.000148487284470702" flag="0"/>
		</comp>
	</station>
	<station code="BODM" name="BODM" netid="KO" source="Bogazici University Kandilli Observatory And Earthquake Research Institute (KOERI)" insttype="" lat="37.031" lon="27.4247">
		<comp name=".HNE" depth="0.0">
			<acc value="0.0035506100836824" flag="0"/>
			<vel value="0.0023033848553" flag="0"/>
			<psa03 value="0.00982229521009148" flag="0"/>
			<psa10 value="0.0019179197090195" flag="0"/>
			<psa30 value="0.000185700778327839" flag="0"/>
		</comp>
		<comp name=".HNN" depth="0.0">
			<acc value="0.0062960458618236" flag="0"/>
			<vel value="0.00381587637053" flag="0"/>
			<psa03 value="0.0126586706060317" flag="0"/>
			<psa10 value="0.00243819847180684" flag="0"/>
			<psa30 value="0.000215202224841211" flag="0"/>
		</comp>
		<comp name=".HNZ" depth="0.0">
			<acc value="0.002177419379334" flag="0"/>
			<vel value="0.000976532828984" flag="0"/>
			<psa03 value="0.00265826952178861" flag="0"/>
			<psa10 value="0.00113665389149154" flag="0"/>
			<psa30 value="0.000175299138749443" flag="0"/>
		</comp>
	</station>
	<station code="CESE" name="CESE" netid="KO" source="Bogazici University Kandilli Observatory And Earthquake Research Institute (KOERI)" insttype="" lat="38.3306" lon="26.2997">
		<comp name=".HNE" depth="0.0">
			<acc value="0.036538810364958" flag="0"/>
			<vel value="0.00225704919884" flag="0"/>
			<psa03 value="0.00144601099295468" flag="0"/>
			<psa10 value="0.000856776659592496" flag="0"/>
			<psa30 value="0.000701817116937495" flag="0"/>
		</comp>
		<comp name=".HNN" depth="0.0">
			<acc value="0.027677586044172" flag="0"/>
			<vel value="0.00227677214652" flag="0"/>
			<psa03 value="0.0027359943972438" flag="0"/>
			<psa10 value="0.00123601637220596" flag="0"/>
			<psa30 value="0.00050394234203923" flag="0"/>
		</comp>
		<comp name=".HNZ" depth="0.0">
			<acc value="0.0047094636643206" flag="0"/>
			<vel value="0.000800907451977" flag="0"/>
			<psa03 value="0.00134922341263264" flag="0"/>
			<psa10 value="0.000820895806100049" flag="0"/>
			<psa30 value="0.000272042474604014" flag="0"/>
		</comp>
	</station>
	<station code="DATC" name="DATC" netid="KO" source="Bogazici University Kandilli Observatory And Earthquake Research Institute (KOERI)" insttype="" lat="36.7584" lon="27.6602">
		<comp name=".HNE" depth="0.0">
			<acc value="0.1881265980189" flag="0"/>
			<vel value="0.0150538469111" flag="0"/>
			<psa03 value="0.0167562272053118" flag="0"/>
			<psa10 value="0.00524019401213215" flag="0"/>
			<psa30 value="0.000715876954584497" flag="0"/>
		</comp>
		<comp name=".HNN" depth="0.0">
			<acc value="0.2076681972258" flag="0"/>
			<vel value="0.0213794019328" flag="0"/>
			<psa03 value="0.0274017266882606" flag="0"/>
			<psa10 value="0.00437502435513881" flag="0"/>
			<psa30 value="0.000663039235595695" flag="0"/>
		</comp>
		<comp name=".HNZ" depth="0.0">
			<acc value="0.18189448521768" flag="0"/>
			<vel value="0.0260596598394" flag="0"/>
			<psa03 value="0.0297742119787682" flag="0"/>
			<psa10 value="0.00629287562214042" flag="0"/>
			<psa30 value="0.000545900642405653" flag="0"/>
		</comp>
	</station>
	<station code="DIDI" name="DIDI" netid="KO" source="Bogazici University Kandilli Observatory And Earthquake Research Institute (KOERI)" insttype="" lat="37.3767" lon="27.2398">
		<comp name=".HNE" depth="0.0">
			<acc value="0.015423665087028" flag="0"/>
			<vel value="0.00364346897894" flag="0"/>
			<psa03 value="0.0209921197915632" flag="0"/>
			<psa10 value="0.00401665436488849" flag="0"/>
			<psa30 value="0.000900891242124464" flag="0"/>
		</comp>
		<comp name=".HNN" depth="0.0">
			<acc value="0.01682294024646" flag="0"/>
			<vel value="0.00503708971953" flag="0"/>
			<psa03 value="0.0301649435919639" flag="0"/>
			<psa10 value="0.0030428243065514" flag="0"/>
			<psa30 value="0.000595573360059966" flag="0"/>
		</comp>
		<comp name=".HNZ" depth="0.0">
			<acc value="0.027728666571132" flag="0"/>
			<vel value="0.00320007894694" flag="0"/>
			<psa03 value="0.0193070667588232" flag="0"/>
			<psa10 value="0.00269939905631337" flag="0"/>
			<psa30 value="0.000423757941675582" flag="0"/>
		</comp>
	</station>
	<station code="GMLD" name="GMLD" netid="KO" source="Bogazici University Kandilli Observatory And Earthquake Research Institute (KOERI)" insttype="" lat="38.0766" lon="26.9157">
		<comp name=".HNE" depth="0.0">
			<acc value="0.012817051320678" flag="0"/>
			<vel value="0.00440676863702" flag="0"/>
			<psa03 value="0.0174732655909949" flag="0"/>
			<psa10 value="0.00300392180757593" flag="0"/>
			<psa30 value="0.000406348507136035" flag="0"/>
		</comp>
		<comp name=".HNN" depth="0.0">
			<acc value="0.027789281760558" flag="0"/>
			<vel value="0.00423507937943" flag="0"/>
			<psa03 value="0.0177794903039913" flag="0"/>
			<psa10 value="0.00383335394088563" flag="0"/>
			<psa30 value="0.000407057225959983" flag="0"/>
		</comp>
		<comp name=".HNZ" depth="0.0">
			<acc value="0.010883912538678" flag="0"/>
			<vel value="0.00343972231677" flag="0"/>
			<psa03 value="0.00943090990775381" flag="0"/>
			<psa10 value="0.00378461993124588" flag="0"/>
			<psa30 value="0.000666579886814691" flag="0"/>
		</comp>
	</station>
	<station code="KUSD" name="KUSD" netid="KO" source="Bogazici University Kandilli Observatory And Earthquake Research Institute (KOERI)" insttype="" lat="37.8606" lon="27.2868">
		<comp name=".HNE" depth="0.0">
			<acc value="0.0086084845536474" flag="0"/>
			<vel value="0.0013022706853" flag="0"/>
			<psa03 value="0.00413509489328649" flag="0"/>
			<psa10 value="0.00117221632545417" flag="0"/>
			<psa30 value="0.000314141018634093" flag="0"/>
		</comp>
		<comp name=".HNN" depth="0.0">
			<acc value="0.019900153111926" flag="0"/>
			<vel value="0.00193970866278" flag="0"/>
			<psa03 value="0.00502887317724434" flag="0"/>
			<psa10 value="0.00149874705807644" flag="0"/>
			<psa30 value="0.000325127709990314" flag="0"/>
		</comp>
		<comp name=".HNZ" depth="0.0">
			<acc value="0.0046611457592268" flag="0"/>
			<vel value="0.00136232500892" flag="0"/>
			<psa03 value="0.00424084669048838" flag="0"/>
			<psa10 value="0.00124812545562286" flag="0"/>
			<psa30 value="0.000361388211028843" flag="0"/>
		</comp>
	</station>
	<station code="YKAV" name="YKAV" netid="KO" source="Bogazici University Kandilli Observatory And Earthquake Research Institute (KOERI)" insttype="" lat="37.1246" lon="27.2801">
		<comp name=".HNE" depth="0.0">
			<acc value="0.0069857772575886" flag="0"/>
			<vel value="0.00262779028374" flag="0"/>
			<psa03 value="0.0108651123385021" flag="0"/>
			<psa10 value="0.00227210559396825" flag="0"/>
			<psa30 value="0.000481858431173707" flag="0"/>
		</comp>
		<comp name=".HNN" depth="0.0">
			<acc value="0.0088795751819328" flag="0"/>
			<vel value="0.00228988042896" flag="0"/>
			<psa03 value="0.00734154493505254" flag="0"/>
			<psa10 value="0.00298332755268197" flag="0"/>
			<psa30 value="0.000378578698772706" flag="0"/>
		</comp>
		<comp name=".HNZ" depth="0.0">
			<acc value="0.0087207537961536" flag="0"/>
			<vel value="0.00168969315809" flag="0"/>
			<psa03 value="0.00680618460030019" flag="0"/>
			<psa10 value="0.00166812468475932" flag="0"/>
			<psa30 value="0.000348052405722195" flag="0"/>
		</comp>
	</station>
</stationlist>
