<?xml version="1.0" encoding="UTF-8" standalone="yes"?>
<!DOCTYPE earthquake SYSTEM "stationlist.dtd">
<stationlist created="" xmlns="ch.ethz.sed.shakemap.usgs.xml">
  <station code="THERA" name="THERA" netid="GE" insttype="STS-2/N" lat="36.367" lon="25.4753">
    <comp name="--.HHE">
      <acc value="0.1427257589" flag="0"/>
      <vel value="0.0327348412" flag="0"/>
      <psa03 value="0.1515071855" flag="0"/>
      <psa10 value="0.0115024494" flag="0"/>
      <psa30 value="0.0009240965" flag="0"/>
    </comp>
    <comp name="--.HHN">
      <acc value="0.0993232312" flag="0"/>
      <vel value="0.0241433869" flag="0"/>
      <psa03 value="0.1464497057" flag="0"/>
      <psa10 value="0.0078131279" flag="0"/>
      <psa30 value="0.0007124222" flag="0"/>
    </comp>
    <comp name="--.HHZ">
      <acc value="0.1450353346" flag="0"/>
      <vel value="0.0251072302" flag="0"/>
      <psa03 value="0.1033039443" flag="0"/>
      <psa10 value="0.0082487847" flag="0"/>
      <psa30 value="0.0009309165" flag="0"/>
    </comp>
  </station>
  <station code="SNT1" name="SNT1" netid="HA" insttype="30" lat="36.4159" lon="25.4282">
    <comp name="--.HHN">
      <acc value="0.1251724529" flag="0"/>
      <vel value="0.0637728605" flag="0"/>
      <psa03 value="0.2157928751" flag="0"/>
      <psa10 value="0.0336124007" flag="0"/>
      <psa30 value="0.0026821846" flag="0"/>
    </comp>
    <comp name="--.HHE">
      <acc value="0.1514240295" flag="0"/>
      <vel value="0.0495182861" flag="0"/>
      <psa03 value="0.1604675536" flag="0"/>
      <psa10 value="0.0250211466" flag="0"/>
      <psa30 value="0.0026967947" flag="0"/>
    </comp>
    <comp name="--.HHZ">
      <acc value="0.1335610686" flag="0"/>
      <vel value="0.0354331450" flag="0"/>
      <psa03 value="0.1777604934" flag="0"/>
      <psa10 value="0.0121494191" flag="0"/>
      <psa30 value="0.0008628053" flag="0"/>
    </comp>
  </station>
  <station code="THERA" name="THERA" netid="HL" insttype="120" lat="36.367" lon="25.4753">
    <comp name="--.HHE">
      <acc value="0.1536657382" flag="0"/>
      <vel value="0.0315233682" flag="0"/>
      <psa03 value="0.1471911852" flag="0"/>
      <psa10 value="0.0112549158" flag="0"/>
      <psa30 value="0.0009128445" flag="0"/>
    </comp>
    <comp name="--.HHN">
      <acc value="0.0999263939" flag="0"/>
      <vel value="0.0236157984" flag="0"/>
      <psa03 value="0.1423123978" flag="0"/>
      <psa10 value="0.0077847457" flag="0"/>
      <psa30 value="0.0007013891" flag="0"/>
    </comp>
    <comp name="--.HHZ">
      <acc value="0.1438832550" flag="0"/>
      <vel value="0.0244322776" flag="0"/>
      <psa03 value="0.1000061641" flag="0"/>
      <psa10 value="0.0080730582" flag="0"/>
      <psa30 value="0.0009228365" flag="0"/>
    </comp>
  </station>
  <station code="THRA" name="THRA" netid="HL" insttype="CMG-5" lat="36.415" lon="25.4324">
    <comp name="00.HNE">
      <acc value="0.5133510202" flag="0"/>
      <vel value="0.1426921234" flag="0"/>
      <psa03 value="0.8153651150" flag="0"/>
      <psa10 value="0.0664754221" flag="0"/>
      <psa30 value="0.0046739435" flag="0"/>
    </comp>
    <comp name="00.HNZ">
      <acc value="0.3860515819" flag="0"/>
      <vel value="0.1176480600" flag="0"/>
      <psa03 value="0.5098481015" flag="0"/>
      <psa10 value="0.0378709083" flag="0"/>
      <psa30 value="0.0028904145" flag="0"/>
    </comp>
    <comp name="00.HNN">
      <acc value="0.4555315938" flag="0"/>
      <vel value="0.1446970160" flag="0"/>
      <psa03 value="0.6182536912" flag="0"/>
      <psa10 value="0.1187994797" flag="0"/>
      <psa30 value="0.0046288081" flag="0"/>
    </comp>
  </station>
  <station code="CMBO" name="CMBO" netid="HT" insttype="120P," lat="36.4709" lon="25.4056">
    <comp name="--.HHE">
      <acc value="0.5883691470" flag="0"/>
      <vel value="0.1606868554" flag="0"/>
      <psa03 value="0.6423908725" flag="0"/>
      <psa10 value="0.0886906969" flag="0"/>
      <psa30 value="0.0057926364" flag="0"/>
    </comp>
    <comp name="--.HHN">
      <acc value="0.8166551991" flag="0"/>
      <vel value="0.2313252130" flag="0"/>
      <psa03 value="0.7159771907" flag="0"/>
      <psa10 value="0.0882018401" flag="0"/>
      <psa30 value="0.0065467370" flag="0"/>
    </comp>
    <comp name="--.HHZ">
      <acc value="0.5072666967" flag="0"/>
      <vel value="0.1551129627" flag="0"/>
      <psa03 value="0.8985641090" flag="0"/>
      <psa10 value="0.0332328668" flag="0"/>
      <psa30 value="0.0041219373" flag="0"/>
    </comp>
  </station>
</stationlist>
