<?xml version="1.0" encoding="UTF-8" standalone="yes"?>
<!DOCTYPE earthquake SYSTEM "stationlist.dtd">
<stationlist created="" xmlns="ch.ethz.sed.shakemap.usgs.xml">
  <station code="THERA" name="THERA" netid="GE" insttype="STS-2/N" lat="36.367" lon="25.4753">
    <comp name="--.HHE">
      <acc value="0.1427257589" flag="0"/>
      <vel value="0.0327348412" flag="0"/>
      <psa03 value="0.1515071855" flag="0"/>
      <psa10 value="0.0115024494" flag="0"/>
      <psa30 value="0.0009240965" flag="0"/>
    </comp>
    <comp name="--.HHN">
      <acc value="0.0993232312" flag="0"/>
      <vel value="0.0241433869" flag="0"/>
      <psa03 value="0.1464497057" flag="0"/>
      <psa10 value="0.0078131279" flag="0"/>
      <psa30 value="0.0007124222" flag="0"/>
    </comp>
    <comp name="--.HHZ">
      <acc value="0.1450353346" flag="0"/>
      <vel value="0.0251072302" flag="0"/>
      <psa03 value="0.1033039443" flag="0"/>
      <psa10 value="0.0082487847" flag="0"/>
      <psa30 value="0.0009309165" flag="0"/>
    </comp>
  </station>
</stationlist>
