<?xml version="1.0" encoding="UTF-8" standalone="yes"?>
<!DOCTYPE earthquake SYSTEM "stationlist.dtd">
<stationlist created="" xmlns="ch.ethz.sed.shakemap.usgs.xml">
  <station code="DYBB" name="DYBB" netid="KO" insttype="CMG-3T" lat="37.9532" lon="40.1393">
    <comp name="--.HHZ">
      <acc value="0.0183455143" flag="0"/>
      <vel value="0.0113833229" flag="0"/>
      <psa03 value="0.0427755145" flag="0"/>
      <psa10 value="0.0184753944" flag="0"/>
      <psa30 value="0.0027732318" flag="0"/>
    </comp>
    <comp name="--.HHN">
      <acc value="0.0283610556" flag="0"/>
      <vel value="0.0259232186" flag="0"/>
      <psa03 value="0.0604939578" flag="0"/>
      <psa10 value="0.0324365899" flag="0"/>
      <psa30 value="0.0037574676" flag="0"/>
    </comp>
    <comp name="--.HHE">
      <acc value="0.0282194326" flag="0"/>
      <vel value="0.0220970791" flag="0"/>
      <psa03 value="0.0506478347" flag="0"/>
      <psa10 value="0.0339595774" flag="0"/>
      <psa30 value="0.0040461705" flag="0"/>
    </comp>
  </station>
  <station code="KARO" name="KARO" netid="KO" insttype="CMG-3T" lat="39.3089" lon="41.0493">
    <comp name="--.HHE">
      <acc value="0.0236722808" flag="0"/>
      <vel value="0.0243837009" flag="0"/>
      <psa03 value="0.0560302040" flag="0"/>
      <psa10 value="0.0369581101" flag="0"/>
      <psa30 value="0.0028335272" flag="0"/>
    </comp>
    <comp name="--.HHN">
      <acc value="0.0210228308" flag="0"/>
      <vel value="0.0188503635" flag="0"/>
      <psa03 value="0.0546920994" flag="0"/>
      <psa10 value="0.0341757639" flag="0"/>
      <psa30 value="0.0021703706" flag="0"/>
    </comp>
  </station>
  <station code="SVAN" name="SVAN" netid="KO" insttype="CMG-3T" lat="38.1511" lon="41.1984">
    <comp name="--.HHZ">
      <acc value="0.0237491707" flag="0"/>
      <vel value="0.0116284898" flag="0"/>
      <psa03 value="0.0471282840" flag="0"/>
      <psa10 value="0.0062190511" flag="0"/>
      <psa30 value="0.0032230771" flag="0"/>
    </comp>
    <comp name="--.HHN">
      <acc value="0.0317125893" flag="0"/>
      <vel value="0.0179685299" flag="0"/>
      <psa03 value="0.0902291338" flag="0"/>
      <psa10 value="0.0134158995" flag="0"/>
      <psa30 value="0.0031609598" flag="0"/>
    </comp>
    <comp name="--.HHE">
      <acc value="0.0306710503" flag="0"/>
      <vel value="0.0148815735" flag="0"/>
      <psa03 value="0.0677250006" flag="0"/>
      <psa10 value="0.0120051782" flag="0"/>
      <psa30 value="0.0032262043" flag="0"/>
    </comp>
  </station>
  <station code="SVRC" name="SVRC" netid="KO" insttype="CMG-3T" lat="38.3775" lon="39.306">
    <comp name="--.HHZ">
      <acc value="0.0263612172" flag="0"/>
      <vel value="0.0201735693" flag="0"/>
      <psa03 value="0.1024263186" flag="0"/>
      <psa10 value="0.0320996259" flag="0"/>
      <psa30 value="0.0032107985" flag="0"/>
    </comp>
    <comp name="--.HHN">
      <acc value="0.0361275251" flag="0"/>
      <vel value="0.0274457737" flag="0"/>
      <psa03 value="0.1000685788" flag="0"/>
      <psa10 value="0.0338861535" flag="0"/>
      <psa30 value="0.0073179498" flag="0"/>
    </comp>
    <comp name="--.HHE">
      <acc value="0.0418348430" flag="0"/>
      <vel value="0.0276496017" flag="0"/>
      <psa03 value="0.1617754956" flag="0"/>
      <psa10 value="0.0416682817" flag="0"/>
      <psa30 value="0.0037088010" flag="0"/>
    </comp>
  </station>
</stationlist>
