<?xml version="1.0" encoding="UTF-8" standalone="yes"?>
<!DOCTYPE earthquake SYSTEM "stationlist.dtd">
<stationlist created="" xmlns="ch.ethz.sed.shakemap.usgs.xml">
  <station code="ARPRA" name="ARPRA" netid="KO" insttype="CMG-5T" lat="39.0929" lon="38.3356">
    <comp name="--.HNE">
      <acc value="0.0185567821" flag="0"/>
      <vel value="0.0204017138" flag="0"/>
      <psa03 value="0.0416248008" flag="0"/>
      <psa10 value="0.0286779016" flag="0"/>
      <psa30 value="0.0018829060" flag="0"/>
    </comp>
    <comp name="--.HNZ">
      <acc value="0.0094095322" flag="0"/>
      <vel value="0.0105526866" flag="0"/>
      <psa03 value="0.0224967043" flag="0"/>
      <psa10 value="0.0240859853" flag="0"/>
      <psa30 value="0.0016545132" flag="0"/>
    </comp>
    <comp name="--.HNN">
      <acc value="0.0127548471" flag="0"/>
      <vel value="0.0151425635" flag="0"/>
      <psa03 value="0.0489824640" flag="0"/>
      <psa10 value="0.0386506788" flag="0"/>
      <psa30 value="0.0020368088" flag="0"/>
    </comp>
  </station>
  <station code="DYBB" name="DYBB" netid="KO" insttype="CMG-3T" lat="37.9532" lon="40.1393">
    <comp name="--.HHE">
      <acc value="0.0282194335" flag="0"/>
      <vel value="0.0220970784" flag="0"/>
      <psa03 value="0.0506478347" flag="0"/>
      <psa10 value="0.0339595776" flag="0"/>
      <psa30 value="0.0040461866" flag="0"/>
    </comp>
    <comp name="--.HHN">
      <acc value="0.0283610559" flag="0"/>
      <vel value="0.0259232191" flag="0"/>
      <psa03 value="0.0604939578" flag="0"/>
      <psa10 value="0.0324365897" flag="0"/>
      <psa30 value="0.0037574004" flag="0"/>
    </comp>
    <comp name="--.HHZ">
      <acc value="0.0183455142" flag="0"/>
      <vel value="0.0113833234" flag="0"/>
      <psa03 value="0.0427755145" flag="0"/>
      <psa10 value="0.0184753944" flag="0"/>
      <psa30 value="0.0027732283" flag="0"/>
    </comp>
  </station>
  <station code="KARO" name="KARO" netid="KO" insttype="CMG-3T" lat="39.3089" lon="41.0493">
    <comp name="--.HHE">
      <acc value="0.0236722821" flag="0"/>
      <vel value="0.0243836937" flag="0"/>
      <psa03 value="0.0560302040" flag="0"/>
      <psa10 value="0.0369581095" flag="0"/>
      <psa30 value="0.0028334894" flag="0"/>
    </comp>
    <comp name="--.HHN">
      <acc value="0.0210228300" flag="0"/>
      <vel value="0.0188503641" flag="0"/>
      <psa03 value="0.0546920994" flag="0"/>
      <psa10 value="0.0341757637" flag="0"/>
      <psa30 value="0.0026013538" flag="0"/>
    </comp>
  </station>
  <station code="SVAN" name="SVAN" netid="KO" insttype="CMG-3T" lat="38.1511" lon="41.1984">
    <comp name="--.HHE">
      <acc value="0.0306710506" flag="0"/>
      <vel value="0.0148815739" flag="0"/>
      <psa03 value="0.0677250006" flag="0"/>
      <psa10 value="0.0120051778" flag="0"/>
      <psa30 value="0.0032262141" flag="0"/>
    </comp>
    <comp name="--.HHZ">
      <acc value="0.0237491700" flag="0"/>
      <vel value="0.0116284809" flag="0"/>
      <psa03 value="0.0471282840" flag="0"/>
      <psa10 value="0.0062190511" flag="0"/>
      <psa30 value="0.0032230817" flag="0"/>
    </comp>
    <comp name="--.HHN">
      <acc value="0.0317125891" flag="0"/>
      <vel value="0.0179685299" flag="0"/>
      <psa03 value="0.0902291338" flag="0"/>
      <psa10 value="0.0134158996" flag="0"/>
      <psa30 value="0.0031609530" flag="0"/>
    </comp>
  </station>
  <station code="SVRC" name="SVRC" netid="KO" insttype="CMG-3T" lat="38.3775" lon="39.306">
    <comp name="--.HHN">
      <acc value="0.0361275252" flag="0"/>
      <vel value="0.0274457741" flag="0"/>
      <psa03 value="0.1000685788" flag="0"/>
      <psa10 value="0.0338861535" flag="0"/>
      <psa30 value="0.0073178599" flag="0"/>
    </comp>
    <comp name="--.HHZ">
      <acc value="0.0263612173" flag="0"/>
      <vel value="0.0201735676" flag="0"/>
      <psa03 value="0.1024263186" flag="0"/>
      <psa10 value="0.0320996270" flag="0"/>
      <psa30 value="0.0032110364" flag="0"/>
    </comp>
    <comp name="--.HHE">
      <acc value="0.0418348435" flag="0"/>
      <vel value="0.0276496000" flag="0"/>
      <psa03 value="0.1617754956" flag="0"/>
      <psa10 value="0.0416682821" flag="0"/>
      <psa30 value="0.0037087915" flag="0"/>
    </comp>
  </station>
  <station code="VRTB" name="VRTB" netid="KO" insttype="CMG-3ESPC" lat="39.1603" lon="41.4558">
    <comp name="--.HHE">
      <acc value="0.0027863339" flag="0"/>
      <vel value="0.0046634085" flag="0"/>
      <psa03 value="0.0054185519" flag="0"/>
      <psa10 value="0.0074307021" flag="0"/>
      <psa30 value="0.0020511393" flag="0"/>
    </comp>
    <comp name="--.HHZ">
      <acc value="0.0072151657" flag="0"/>
      <vel value="0.0119124291" flag="0"/>
      <psa03 value="0.0153299563" flag="0"/>
      <psa10 value="0.0203291265" flag="0"/>
      <psa30 value="0.0041964504" flag="0"/>
    </comp>
    <comp name="--.HHN">
      <acc value="0.0080983937" flag="0"/>
      <vel value="0.0127739688" flag="0"/>
      <psa03 value="0.0130249504" flag="0"/>
      <psa10 value="0.0206481113" flag="0"/>
      <psa30 value="0.0070856984" flag="0"/>
    </comp>
  </station>
</stationlist>
