<?xml version="1.0" encoding="UTF-8" standalone="yes"?>
<!DOCTYPE earthquake SYSTEM "stationlist.dtd">
<stationlist created="" xmlns="ch.ethz.sed.shakemap.usgs.xml">
  <station code="GAZ" name="GAZ" netid="KO" insttype="CMG-3T" lat="37.1721" lon="37.2096">
    <comp name="--.HHN">
      <acc value="0.0188377970" flag="0"/>
      <vel value="0.0079999900" flag="0"/>
      <psa03 value="0.0269603319" flag="0"/>
      <psa10 value="0.0099812462" flag="0"/>
      <psa30 value="0.0008789416" flag="0"/>
    </comp>
    <comp name="--.HHZ">
      <acc value="0.0115584420" flag="0"/>
      <vel value="0.0061295002" flag="0"/>
      <psa03 value="0.0407496769" flag="0"/>
      <psa10 value="0.0050717203" flag="0"/>
      <psa30 value="0.0003477564" flag="0"/>
    </comp>
    <comp name="--.HHE">
      <acc value="0.0353858030" flag="0"/>
      <vel value="0.0102355215" flag="0"/>
      <psa03 value="0.0426873116" flag="0"/>
      <psa10 value="0.0115538045" flag="0"/>
      <psa30 value="0.0006512439" flag="0"/>
    </comp>
  </station>
  <station code="ANDN" name="ANDN" netid="TU" insttype="T" lat="37.58" lon="36.3452">
    <comp name="--.HHZ">
      <acc value="0.0486226638" flag="0"/>
      <vel value="0.0285657452" flag="0"/>
      <psa03 value="0.0971288327" flag="0"/>
      <psa10 value="0.0427241899" flag="0"/>
      <psa30 value="0.0022968661" flag="0"/>
    </comp>
    <comp name="--.HHN">
      <acc value="0.1216782897" flag="0"/>
      <vel value="0.0476531156" flag="0"/>
      <psa03 value="0.2271732506" flag="0"/>
      <psa10 value="0.0430153802" flag="0"/>
      <psa30 value="0.0017543550" flag="0"/>
    </comp>
    <comp name="--.HHE">
      <acc value="0.0816023539" flag="0"/>
      <vel value="0.0359772016" flag="0"/>
      <psa03 value="0.1415537316" flag="0"/>
      <psa10 value="0.0226943600" flag="0"/>
      <psa30 value="0.0017247903" flag="0"/>
    </comp>
  </station>
</stationlist>
