<?xml version="1.0" encoding="UTF-8" standalone="yes"?>
<!DOCTYPE earthquake SYSTEM "stationlist.dtd">
<stationlist created="" xmlns="ch.ethz.sed.shakemap.usgs.xml">
  <station code="KRI1" name="KRI1" netid="HI" insttype="CMG-5TD,ACCELEROMETER,GURALP" lat="37.6621" lon="20.8172">
    <comp name="--.HNN">
      <acc value="0.0642783479" flag="0"/>
      <vel value="0.0195934415" flag="0"/>
      <psa03 value="0.1109211870" flag="0"/>
      <psa10 value="0.0097105719" flag="0"/>
      <psa30 value="0.0005733601" flag="0"/>
    </comp>
    <comp name="--.HNZ">
      <acc value="0.0599080592" flag="0"/>
      <vel value="0.0181501083" flag="0"/>
      <psa03 value="0.0741896164" flag="0"/>
      <psa10 value="0.0047027300" flag="0"/>
      <psa30 value="0.0004368036" flag="0"/>
    </comp>
    <comp name="--.HNE">
      <acc value="0.0948878473" flag="0"/>
      <vel value="0.0221264598" flag="0"/>
      <psa03 value="0.1041453281" flag="0"/>
      <psa10 value="0.0120060555" flag="0"/>
      <psa30 value="0.0007335124" flag="0"/>
    </comp>
  </station>
  <station code="ITM" name="ITM" netid="HL" insttype="DR24" lat="37.1787" lon="21.9252">
    <comp name="--.HHN">
      <acc value="0.0124269677" flag="0"/>
      <vel value="0.0046635850" flag="0"/>
      <psa03 value="0.0189490580" flag="0"/>
      <psa10 value="0.0043250055" flag="0"/>
      <psa30 value="0.0003483276" flag="0"/>
    </comp>
    <comp name="--.HHE">
      <acc value="0.0093534379" flag="0"/>
      <vel value="0.0027575826" flag="0"/>
      <psa03 value="0.0131647028" flag="0"/>
      <psa10 value="0.0032245457" flag="0"/>
      <psa30 value="0.0004919270" flag="0"/>
    </comp>
    <comp name="--.HHZ">
      <acc value="0.0081807166" flag="0"/>
      <vel value="0.0026129334" flag="0"/>
      <psa03 value="0.0096115274" flag="0"/>
      <psa10 value="0.0036276272" flag="0"/>
      <psa30 value="0.0002803454" flag="0"/>
    </comp>
  </station>
  <station code="ORTH" name="ORTH" netid="HL" insttype="30" lat="37.8511" lon="20.6963">
    <comp name="--.HHN">
      <acc value="0.0833714597" flag="0"/>
      <vel value="0.0162322311" flag="0"/>
      <psa03 value="0.1302420817" flag="0"/>
      <psa10 value="0.0101487410" flag="0"/>
      <psa30 value="0.0008457229" flag="0"/>
    </comp>
    <comp name="--.HHZ">
      <acc value="0.0313424905" flag="0"/>
      <vel value="0.0059600853" flag="0"/>
      <psa03 value="0.0438046405" flag="0"/>
      <psa10 value="0.0045856800" flag="0"/>
      <psa30 value="0.0003162155" flag="0"/>
    </comp>
    <comp name="--.HHE">
      <acc value="0.0538559921" flag="0"/>
      <vel value="0.0147421687" flag="0"/>
      <psa03 value="0.1206631729" flag="0"/>
      <psa10 value="0.0074829798" flag="0"/>
      <psa30 value="0.0005421378" flag="0"/>
    </comp>
  </station>
  <station code="RLS" name="RLS" netid="HL" insttype="CMG3ESPC-120s" lat="38.0559" lon="21.4647">
    <comp name="--.HHN">
      <acc value="0.0484983734" flag="0"/>
      <vel value="0.0032464373" flag="0"/>
      <psa03 value="0.0153200769" flag="0"/>
      <psa10 value="0.0024720325" flag="0"/>
      <psa30 value="0.0003043295" flag="0"/>
    </comp>
    <comp name="--.HHE">
      <acc value="0.0682276809" flag="0"/>
      <vel value="0.0040578143" flag="0"/>
      <psa03 value="0.0180238953" flag="0"/>
      <psa10 value="0.0040702641" flag="0"/>
      <psa30 value="0.0003858153" flag="0"/>
    </comp>
    <comp name="--.HHZ">
      <acc value="0.0217938453" flag="0"/>
      <vel value="0.0023918579" flag="0"/>
      <psa03 value="0.0109924192" flag="0"/>
      <psa10 value="0.0026458664" flag="0"/>
      <psa30 value="0.0003828891" flag="0"/>
    </comp>
  </station>
  <station code="VLS" name="VLS" netid="HL" insttype="120P," lat="38.1768" lon="20.5886">
    <comp name="--.HHE">
      <acc value="0.0286262528" flag="0"/>
      <vel value="0.0045775668" flag="0"/>
      <psa03 value="0.0147525798" flag="0"/>
      <psa10 value="0.0021356327" flag="0"/>
      <psa30 value="0.0002571557" flag="0"/>
    </comp>
    <comp name="--.HHN">
      <acc value="0.0319511369" flag="0"/>
      <vel value="0.0062209157" flag="0"/>
      <psa03 value="0.0190675043" flag="0"/>
      <psa10 value="0.0028835402" flag="0"/>
      <psa30 value="0.0001937962" flag="0"/>
    </comp>
    <comp name="--.HHZ">
      <acc value="0.0157172582" flag="0"/>
      <vel value="0.0033059600" flag="0"/>
      <psa03 value="0.0143924022" flag="0"/>
      <psa10 value="0.0018322273" flag="0"/>
      <psa30 value="0.0001553055" flag="0"/>
    </comp>
  </station>
  <station code="AMT" name="AMT" netid="HP" insttype="CMG-3T," lat="37.5324" lon="21.7089">
    <comp name="00.HHN">
      <acc value="0.0196243196" flag="0"/>
      <vel value="0.0074531108" flag="0"/>
      <psa03 value="0.0447037210" flag="0"/>
      <psa10 value="0.0072059019" flag="0"/>
      <psa30 value="0.0005381045" flag="0"/>
    </comp>
    <comp name="00.HHE">
      <acc value="0.0149179105" flag="0"/>
      <vel value="0.0079069716" flag="0"/>
      <psa03 value="0.0473068100" flag="0"/>
      <psa10 value="0.0073353401" flag="0"/>
      <psa30 value="0.0005330443" flag="0"/>
    </comp>
    <comp name="00.HHZ">
      <acc value="0.0156744469" flag="0"/>
      <vel value="0.0046927597" flag="0"/>
      <psa03 value="0.0228324416" flag="0"/>
      <psa10 value="0.0036442120" flag="0"/>
      <psa30 value="0.0002457774" flag="0"/>
    </comp>
  </station>
  <station code="AXS" name="AXS" netid="HP" insttype="Compact," lat="38.1962" lon="21.3763">
    <comp name="--.HHN">
      <acc value="0.0032814999" flag="0"/>
      <vel value="0.0019109558" flag="0"/>
      <psa03 value="0.0063104737" flag="0"/>
      <psa10 value="0.0028345148" flag="0"/>
      <psa30 value="0.0001996726" flag="0"/>
    </comp>
    <comp name="--.HHZ">
      <acc value="0.0030086871" flag="0"/>
      <vel value="0.0012650235" flag="0"/>
      <psa03 value="0.0043057903" flag="0"/>
      <psa10 value="0.0020636210" flag="0"/>
      <psa30 value="0.0001918330" flag="0"/>
    </comp>
    <comp name="--.HHE">
      <acc value="0.0047912554" flag="0"/>
      <vel value="0.0020905754" flag="0"/>
      <psa03 value="0.0056135903" flag="0"/>
      <psa10 value="0.0019956687" flag="0"/>
      <psa30 value="0.0001795306" flag="0"/>
    </comp>
  </station>
  <station code="DRO" name="DRO" netid="HP" insttype="120P," lat="37.952" lon="21.71">
    <comp name="--.HHE">
      <acc value="0.0278289173" flag="0"/>
      <vel value="0.0148211107" flag="0"/>
      <psa03 value="0.0747364904" flag="0"/>
      <psa10 value="0.0100320628" flag="0"/>
      <psa30 value="0.0006606350" flag="0"/>
    </comp>
    <comp name="--.HHZ">
      <acc value="0.0129005191" flag="0"/>
      <vel value="0.0040297312" flag="0"/>
      <psa03 value="0.0188327058" flag="0"/>
      <psa10 value="0.0035949643" flag="0"/>
      <psa30 value="0.0002958446" flag="0"/>
    </comp>
    <comp name="--.HHN">
      <acc value="0.0287988684" flag="0"/>
      <vel value="0.0106501229" flag="0"/>
      <psa03 value="0.0632451853" flag="0"/>
      <psa10 value="0.0090264750" flag="0"/>
      <psa30 value="0.0004527692" flag="0"/>
    </comp>
  </station>
  <station code="LTHK" name="LTHK" netid="HP" insttype="40," lat="37.7095" lon="20.8367">
    <comp name="--.HHN">
      <acc value="0.1119575122" flag="0"/>
      <vel value="0.0238497121" flag="0"/>
      <psa03 value="0.1322017587" flag="0"/>
      <psa10 value="0.0065951304" flag="0"/>
      <psa30 value="0.0005762682" flag="0"/>
    </comp>
    <comp name="--.HHE">
      <acc value="0.1442711929" flag="0"/>
      <vel value="0.0307790373" flag="0"/>
      <psa03 value="0.1268019805" flag="0"/>
      <psa10 value="0.0090147814" flag="0"/>
      <psa30 value="0.0005175864" flag="0"/>
    </comp>
    <comp name="--.HHZ">
      <acc value="0.0715023412" flag="0"/>
      <vel value="0.0127064365" flag="0"/>
      <psa03 value="0.0572499167" flag="0"/>
      <psa10 value="0.0036755072" flag="0"/>
      <psa30 value="0.0002971278" flag="0"/>
    </comp>
  </station>
  <station code="VLX" name="VLX" netid="HP" insttype="40," lat="37.3703" lon="22.3793">
    <comp name="--.HHE">
      <acc value="0.0026247900" flag="0"/>
      <vel value="0.0019935997" flag="0"/>
      <psa03 value="0.0069406889" flag="0"/>
      <psa10 value="0.0027536679" flag="0"/>
      <psa30 value="0.0001716131" flag="0"/>
    </comp>
    <comp name="--.HHN">
      <acc value="0.0018621378" flag="0"/>
      <vel value="0.0014790358" flag="0"/>
      <psa03 value="0.0038957458" flag="0"/>
      <psa10 value="0.0026929126" flag="0"/>
      <psa30 value="0.0002033619" flag="0"/>
    </comp>
    <comp name="--.HHZ">
      <acc value="0.0013332220" flag="0"/>
      <vel value="0.0010988587" flag="0"/>
      <psa03 value="0.0057236638" flag="0"/>
      <psa10 value="0.0021939617" flag="0"/>
      <psa30 value="0.0001165086" flag="0"/>
    </comp>
  </station>
  <station code="DMLN" name="DMLN" netid="HT" insttype="1s-100Hz," lat="38.2385" lon="20.3734">
    <comp name="--.HHN">
      <acc value="0.0289293116" flag="0"/>
      <vel value="0.0064099134" flag="0"/>
      <psa03 value="0.0335779277" flag="0"/>
      <psa10 value="0.0065889526" flag="0"/>
      <psa30 value="0.0004689624" flag="0"/>
    </comp>
    <comp name="--.HHE">
      <acc value="0.0369765571" flag="0"/>
      <vel value="0.0079651193" flag="0"/>
      <psa03 value="0.0416405391" flag="0"/>
      <psa10 value="0.0087486827" flag="0"/>
      <psa30 value="0.0006520830" flag="0"/>
    </comp>
    <comp name="--.HHZ">
      <acc value="0.0268129586" flag="0"/>
      <vel value="0.0047488746" flag="0"/>
      <psa03 value="0.0212697552" flag="0"/>
      <psa10 value="0.0034135054" flag="0"/>
      <psa30 value="0.0002023108" flag="0"/>
    </comp>
  </station>
  <station code="PSDA" name="PSDA" netid="HT" insttype="30" lat="38.114" lon="20.5841">
    <comp name="--.HHE">
      <acc value="0.0505822250" flag="0"/>
      <vel value="0.0139485626" flag="0"/>
      <psa03 value="0.0415781816" flag="0"/>
      <psa10 value="0.0039805458" flag="0"/>
      <psa30 value="0.0005123062" flag="0"/>
    </comp>
    <comp name="--.HHN">
      <acc value="0.0482728977" flag="0"/>
      <vel value="0.0091525362" flag="0"/>
      <psa03 value="0.0397920733" flag="0"/>
      <psa10 value="0.0037301734" flag="0"/>
      <psa30 value="0.0003430353" flag="0"/>
    </comp>
    <comp name="--.HHZ">
      <acc value="0.0331837499" flag="0"/>
      <vel value="0.0060647596" flag="0"/>
      <psa03 value="0.0241724615" flag="0"/>
      <psa10 value="0.0027028925" flag="0"/>
      <psa30 value="0.0001795223" flag="0"/>
    </comp>
  </station>
  <station code="RTZL" name="RTZL" netid="HT" insttype="Compact," lat="38.076" lon="20.7715">
    <comp name="--.HHE">
      <acc value="0.0851395748" flag="0"/>
      <vel value="0.0152827205" flag="0"/>
      <psa03 value="0.0454823636" flag="0"/>
      <psa10 value="0.0039705482" flag="0"/>
      <psa30 value="0.0002890091" flag="0"/>
    </comp>
    <comp name="--.HHN">
      <acc value="0.0678893604" flag="0"/>
      <vel value="0.0118863607" flag="0"/>
      <psa03 value="0.0588892705" flag="0"/>
      <psa10 value="0.0027566789" flag="0"/>
      <psa30 value="0.0001554267" flag="0"/>
    </comp>
    <comp name="--.HHZ">
      <acc value="0.0357818870" flag="0"/>
      <vel value="0.0073662979" flag="0"/>
      <psa03 value="0.0238758912" flag="0"/>
      <psa10 value="0.0013563663" flag="0"/>
      <psa30 value="0.0001292485" flag="0"/>
    </comp>
  </station>
</stationlist>
