<stationlist created="1778069447">
	<station code="ARPRA" name="ARPRA" netid="KO" source="Bogazici University Kandilli Observatory And Earthquake Research Institute (KOERI)" insttype="" lat="39.0929" lon="38.3356">
		<comp name="--.HNE" depth="0.0">
			<acc value="0.301169711489327" flag="0"/>
			<vel value="0.0840246573022797" flag="0"/>
			<psa03 value="0.456370507506372" flag="0"/>
			<psa10 value="0.0490464068949495" flag="0"/>
			<psa30 value="0.00222413509099429" flag="0"/>
		</comp>
		<comp name="--.HNN" depth="0.0">
			<acc value="0.242723014796098" flag="0"/>
			<vel value="0.0688025340201994" flag="0"/>
			<psa03 value="0.510463835307863" flag="0"/>
			<psa10 value="0.0333700799621056" flag="0"/>
			<psa30 value="0.00271764162999383" flag="0"/>
		</comp>
		<comp name="--.HNZ" depth="0.0">
			<acc value="0.190608120729754" flag="0"/>
			<vel value="0.0414627992873092" flag="0"/>
			<psa03 value="0.177626560274539" flag="0"/>
			<psa10 value="0.0260050653306719" flag="0"/>
			<psa30 value="0.00229974942017917" flag="0"/>
		</comp>
	</station>
</stationlist>
