<?xml version="1.0" encoding="UTF-8" standalone="yes"?>
<!DOCTYPE earthquake SYSTEM "stationlist.dtd">
<stationlist created="" xmlns="ch.ethz.sed.shakemap.usgs.xml">
  <station code="ARG" name="ARG" netid="HL" insttype="LE3D20_DR24" lat="36.2136" lon="28.1212">
    <comp name="--.HHE">
      <acc value="0.0446160823" flag="0"/>
      <vel value="0.0254427525" flag="0"/>
      <psa03 value="0.1081343641" flag="0"/>
      <psa10 value="0.0276237085" flag="0"/>
      <psa30 value="0.0044455154" flag="0"/>
    </comp>
    <comp name="--.HHZ">
      <acc value="0.0220113470" flag="0"/>
      <vel value="0.0140947927" flag="0"/>
      <psa03 value="0.0346762803" flag="0"/>
      <psa10 value="0.0129473229" flag="0"/>
      <psa30 value="0.0025159292" flag="0"/>
    </comp>
    <comp name="--.HHN">
      <acc value="0.0253284579" flag="0"/>
      <vel value="0.0127608005" flag="0"/>
      <psa03 value="0.0698995327" flag="0"/>
      <psa10 value="0.0165078600" flag="0"/>
      <psa30 value="0.0015595929" flag="0"/>
    </comp>
  </station>
  <station code="NISR" name="NISR" netid="HL" insttype="0" lat="36.6106" lon="27.131">
    <comp name="--.HNN">
      <acc value="0.7743723640" flag="0"/>
      <vel value="0.1875151804" flag="0"/>
      <psa03 value="0.9747785063" flag="0"/>
      <psa10 value="0.0311321286" flag="0"/>
      <psa30 value="0.0122579410" flag="0"/>
    </comp>
    <comp name="--.HNE">
      <acc value="0.7881759759" flag="0"/>
      <vel value="0.2648590084" flag="0"/>
      <psa03 value="1.3976833679" flag="0"/>
      <psa10 value="0.0651100199" flag="0"/>
      <psa30 value="0.0136530994" flag="0"/>
    </comp>
    <comp name="--.HNZ">
      <acc value="0.2631701805" flag="0"/>
      <vel value="0.0627912648" flag="0"/>
      <psa03 value="0.4052530354" flag="0"/>
      <psa10 value="0.0313498500" flag="0"/>
      <psa30 value="0.0031008460" flag="0"/>
    </comp>
  </station>
</stationlist>
