<?xml version="1.0" encoding="UTF-8" standalone="yes"?>
<!DOCTYPE earthquake SYSTEM "stationlist.dtd">
<stationlist created="" xmlns="ch.ethz.sed.shakemap.usgs.xml">
  <station code="ARPRA" name="ARPRA" netid="KO" insttype="CMG-5T" lat="39.0929" lon="38.3356">
    <comp name="--.HNN">
      <acc value="0.0353240713" flag="0"/>
      <vel value="0.0293901256" flag="0"/>
      <psa03 value="0.0792769984" flag="0"/>
      <psa10 value="0.0447168995" flag="0"/>
      <psa30 value="0.0027989460" flag="0"/>
    </comp>
    <comp name="--.HNZ">
      <acc value="0.0140572226" flag="0"/>
      <vel value="0.0168445278" flag="0"/>
      <psa03 value="0.0290989790" flag="0"/>
      <psa10 value="0.0437159212" flag="0"/>
      <psa30 value="0.0032159138" flag="0"/>
    </comp>
    <comp name="--.HNE">
      <acc value="0.0307499157" flag="0"/>
      <vel value="0.0160659303" flag="0"/>
      <psa03 value="0.0767348001" flag="0"/>
      <psa10 value="0.0282073932" flag="0"/>
      <psa30 value="0.0058967006" flag="0"/>
    </comp>
  </station>
  <station code="DARE" name="DARE" netid="KO" insttype="CMG-3ESP" lat="38.5712" lon="37.4832">
    <comp name="--.HHE">
      <acc value="0.1520265324" flag="0"/>
      <vel value="0.0386724974" flag="0"/>
      <psa03 value="0.1382215731" flag="0"/>
      <psa10 value="0.0402316963" flag="0"/>
      <psa30 value="0.0098356117" flag="0"/>
    </comp>
    <comp name="--.HHZ">
      <acc value="0.1045078157" flag="0"/>
      <vel value="0.0342294219" flag="0"/>
      <psa03 value="0.1034322637" flag="0"/>
      <psa10 value="0.0593533303" flag="0"/>
      <psa30 value="0.0060923573" flag="0"/>
    </comp>
    <comp name="--.HHN">
      <acc value="0.1140547759" flag="0"/>
      <vel value="0.0431845213" flag="0"/>
      <psa03 value="0.0930229603" flag="0"/>
      <psa10 value="0.0493182788" flag="0"/>
      <psa30 value="0.0091738563" flag="0"/>
    </comp>
  </station>
  <station code="GAZ" name="GAZ" netid="KO" insttype="CMG-3T" lat="37.1721" lon="37.2096">
    <comp name="--.HHN">
      <acc value="0.0144180671" flag="0"/>
      <vel value="0.0101991575" flag="0"/>
      <psa03 value="0.0389843648" flag="0"/>
      <psa10 value="0.0165598472" flag="0"/>
      <psa30 value="0.0016478495" flag="0"/>
    </comp>
    <comp name="--.HHZ">
      <acc value="0.0133464080" flag="0"/>
      <vel value="0.0078010716" flag="0"/>
      <psa03 value="0.0318319271" flag="0"/>
      <psa10 value="0.0113987990" flag="0"/>
      <psa30 value="0.0012622244" flag="0"/>
    </comp>
  </station>
  <station code="KMRS" name="KMRS" netid="KO" insttype="CMG-3T" lat="37.5087" lon="36.9">
    <comp name="--.HHE">
      <acc value="0.0123639465" flag="0"/>
      <vel value="0.0129609128" flag="0"/>
      <psa03 value="0.0230507756" flag="0"/>
      <psa10 value="0.0116245805" flag="0"/>
      <psa30 value="0.0039471726" flag="0"/>
    </comp>
    <comp name="--.HHN">
      <acc value="0.0201646605" flag="0"/>
      <vel value="0.0104889676" flag="0"/>
      <psa03 value="0.0403227063" flag="0"/>
      <psa10 value="0.0125006751" flag="0"/>
      <psa30 value="0.0040798540" flag="0"/>
    </comp>
    <comp name="--.HHZ">
      <acc value="0.0106718860" flag="0"/>
      <vel value="0.0087455359" flag="0"/>
      <psa03 value="0.0226879230" flag="0"/>
      <psa10 value="0.0084443583" flag="0"/>
      <psa30 value="0.0014422011" flag="0"/>
    </comp>
  </station>
  <station code="SARI" name="SARI" netid="KO" insttype="CMG-3T" lat="38.4072" lon="36.4181">
    <comp name="--.HHE">
      <acc value="0.0403883919" flag="0"/>
      <vel value="0.0165452230" flag="0"/>
      <psa03 value="0.0582607484" flag="0"/>
      <psa10 value="0.0322667997" flag="0"/>
      <psa30 value="0.0040136941" flag="0"/>
    </comp>
    <comp name="--.HHZ">
      <acc value="0.1185269970" flag="0"/>
      <vel value="0.0168383688" flag="0"/>
      <psa03 value="0.0728358943" flag="0"/>
      <psa10 value="0.0353595372" flag="0"/>
      <psa30 value="0.0015917001" flag="0"/>
    </comp>
    <comp name="--.HHN">
      <acc value="0.0359865619" flag="0"/>
      <vel value="0.0181315141" flag="0"/>
      <psa03 value="0.0713830134" flag="0"/>
      <psa10 value="0.0370218590" flag="0"/>
      <psa30 value="0.0075732790" flag="0"/>
    </comp>
  </station>
  <station code="ANDN" name="ANDN" netid="TU" insttype="T" lat="37.58" lon="36.3452">
    <comp name="--.HHN">
      <acc value="0.0470820149" flag="0"/>
      <vel value="0.0443529562" flag="0"/>
      <psa03 value="0.0836464303" flag="0"/>
      <psa10 value="0.0954609923" flag="0"/>
      <psa30 value="0.0058697058" flag="0"/>
    </comp>
    <comp name="--.HHZ">
      <acc value="0.0225531471" flag="0"/>
      <vel value="0.0267150492" flag="0"/>
      <psa03 value="0.0436124593" flag="0"/>
      <psa10 value="0.0554369216" flag="0"/>
      <psa30 value="0.0034133668" flag="0"/>
    </comp>
    <comp name="--.HHE">
      <acc value="0.0282549067" flag="0"/>
      <vel value="0.0263217677" flag="0"/>
      <psa03 value="0.0753409609" flag="0"/>
      <psa10 value="0.0427960295" flag="0"/>
      <psa30 value="0.0064974209" flag="0"/>
    </comp>
  </station>
</stationlist>
