<?xml version="1.0" encoding="UTF-8" standalone="yes"?>
<!DOCTYPE earthquake SYSTEM "stationlist.dtd">
<stationlist created="" xmlns="ch.ethz.sed.shakemap.usgs.xml">
  <station code="ARPRA" name="ARPRA" netid="KO" insttype="CMG-5T" lat="39.0929" lon="38.3356">
    <comp name="--.HNZ">
      <acc value="0.0140571934" flag="0"/>
      <vel value="0.0168445213" flag="0"/>
      <psa03 value="0.0290989790" flag="0"/>
      <psa10 value="0.0437159213" flag="0"/>
      <psa30 value="0.0032158676" flag="0"/>
    </comp>
    <comp name="--.HNE">
      <acc value="0.0307499278" flag="0"/>
      <vel value="0.0160659197" flag="0"/>
      <psa03 value="0.0767348000" flag="0"/>
      <psa10 value="0.0282073933" flag="0"/>
      <psa30 value="0.0058966681" flag="0"/>
    </comp>
    <comp name="--.HNN">
      <acc value="0.0353240765" flag="0"/>
      <vel value="0.0293901457" flag="0"/>
      <psa03 value="0.0792769984" flag="0"/>
      <psa10 value="0.0447168995" flag="0"/>
      <psa30 value="0.0027992141" flag="0"/>
    </comp>
  </station>
  <station code="DARE" name="DARE" netid="KO" insttype="CMG-3ESP" lat="38.5712" lon="37.4832">
    <comp name="--.HHE">
      <acc value="0.1520265328" flag="0"/>
      <vel value="0.0386724992" flag="0"/>
      <psa03 value="0.1382215731" flag="0"/>
      <psa10 value="0.0402316962" flag="0"/>
      <psa30 value="0.0098355587" flag="0"/>
    </comp>
    <comp name="--.HHZ">
      <acc value="0.1045078153" flag="0"/>
      <vel value="0.0342294214" flag="0"/>
      <psa03 value="0.1034322637" flag="0"/>
      <psa10 value="0.0593533303" flag="0"/>
      <psa30 value="0.0060923736" flag="0"/>
    </comp>
    <comp name="--.HHN">
      <acc value="0.1140547760" flag="0"/>
      <vel value="0.0431845217" flag="0"/>
      <psa03 value="0.0930229603" flag="0"/>
      <psa10 value="0.0493182787" flag="0"/>
      <psa30 value="0.0091738272" flag="0"/>
    </comp>
  </station>
  <station code="GAZ" name="GAZ" netid="KO" insttype="CMG-3T" lat="37.1721" lon="37.2096">
    <comp name="--.HHZ">
      <acc value="0.0133464070" flag="0"/>
      <vel value="0.0078010717" flag="0"/>
      <psa03 value="0.0318319271" flag="0"/>
      <psa10 value="0.0113988028" flag="0"/>
      <psa30 value="0.0012622241" flag="0"/>
    </comp>
    <comp name="--.HHN">
      <acc value="0.0144180689" flag="0"/>
      <vel value="0.0101991597" flag="0"/>
      <psa03 value="0.0389843648" flag="0"/>
      <psa10 value="0.0165598472" flag="0"/>
      <psa30 value="0.0016478752" flag="0"/>
    </comp>
  </station>
  <station code="KMRS" name="KMRS" netid="KO" insttype="CMG-3T" lat="37.5087" lon="36.9">
    <comp name="--.HHE">
      <acc value="0.0123639468" flag="0"/>
      <vel value="0.0129609153" flag="0"/>
      <psa03 value="0.0230507756" flag="0"/>
      <psa10 value="0.0116245805" flag="0"/>
      <psa30 value="0.0039471798" flag="0"/>
    </comp>
    <comp name="--.HHN">
      <acc value="0.0201646603" flag="0"/>
      <vel value="0.0104889673" flag="0"/>
      <psa03 value="0.0403227063" flag="0"/>
      <psa10 value="0.0125006751" flag="0"/>
      <psa30 value="0.0040798757" flag="0"/>
    </comp>
    <comp name="--.HHZ">
      <acc value="0.0106718858" flag="0"/>
      <vel value="0.0087455431" flag="0"/>
      <psa03 value="0.0226879230" flag="0"/>
      <psa10 value="0.0084443582" flag="0"/>
      <psa30 value="0.0014421951" flag="0"/>
    </comp>
  </station>
  <station code="ANDN" name="ANDN" netid="TU" insttype="T" lat="37.58" lon="36.3452">
    <comp name="--.HHZ">
      <acc value="0.0225531475" flag="0"/>
      <vel value="0.0267150492" flag="0"/>
      <psa03 value="0.0436124593" flag="0"/>
      <psa10 value="0.0554369216" flag="0"/>
      <psa30 value="0.0034134650" flag="0"/>
    </comp>
    <comp name="--.HHN">
      <acc value="0.0470820148" flag="0"/>
      <vel value="0.0443529564" flag="0"/>
      <psa03 value="0.0836464303" flag="0"/>
      <psa10 value="0.0954609924" flag="0"/>
      <psa30 value="0.0058696932" flag="0"/>
    </comp>
    <comp name="--.HHE">
      <acc value="0.0282549071" flag="0"/>
      <vel value="0.0263217677" flag="0"/>
      <psa03 value="0.0753409609" flag="0"/>
      <psa10 value="0.0427960295" flag="0"/>
      <psa30 value="0.0064974266" flag="0"/>
    </comp>
  </station>
</stationlist>
