<?xml version="1.0" encoding="UTF-8" standalone="yes"?>
<!DOCTYPE earthquake SYSTEM "stationlist.dtd">
<stationlist created="" xmlns="ch.ethz.sed.shakemap.usgs.xml">
  <station code="EVR" name="EVR" netid="HL" insttype="DR24" lat="38.9166" lon="21.8105">
    <comp name="--.HHE">
      <acc value="0.0082362244" flag="0"/>
      <vel value="0.0036223507" flag="0"/>
      <psa03 value="0.0162947973" flag="0"/>
      <psa10 value="0.0037127887" flag="0"/>
      <psa30 value="0.0013476287" flag="0"/>
    </comp>
    <comp name="--.HHN">
      <acc value="0.0098214707" flag="0"/>
      <vel value="0.0070149526" flag="0"/>
      <psa03 value="0.0172756148" flag="0"/>
      <psa10 value="0.0044910624" flag="0"/>
      <psa30 value="0.0016970071" flag="0"/>
    </comp>
    <comp name="--.HHZ">
      <acc value="0.0076770969" flag="0"/>
      <vel value="0.0033186530" flag="0"/>
      <psa03 value="0.0166281374" flag="0"/>
      <psa10 value="0.0048499742" flag="0"/>
      <psa30 value="0.0006370761" flag="0"/>
    </comp>
  </station>
  <station code="KZN" name="KZN" netid="HL" insttype="120" lat="40.3033" lon="21.7821">
    <comp name="--.HHE">
      <acc value="0.0533431006" flag="0"/>
      <vel value="0.0235522389" flag="0"/>
      <psa03 value="0.1447798490" flag="0"/>
      <psa10 value="0.0236132748" flag="0"/>
      <psa30 value="0.0008913804" flag="0"/>
    </comp>
    <comp name="--.HHN">
      <acc value="0.0460447947" flag="0"/>
      <vel value="0.0198564196" flag="0"/>
      <psa03 value="0.1008787542" flag="0"/>
      <psa10 value="0.0122150979" flag="0"/>
      <psa30 value="0.0011707214" flag="0"/>
    </comp>
    <comp name="--.HHZ">
      <acc value="0.0273453137" flag="0"/>
      <vel value="0.0204212303" flag="0"/>
      <psa03 value="0.0497187053" flag="0"/>
      <psa10 value="0.0265276025" flag="0"/>
      <psa30 value="0.0015376986" flag="0"/>
    </comp>
  </station>
  <station code="NEO" name="NEO" netid="HL" insttype="120" lat="39.3057" lon="23.2219">
    <comp name="--.HHN">
      <acc value="0.0087462378" flag="0"/>
      <vel value="0.0045869311" flag="0"/>
      <psa03 value="0.0264983858" flag="0"/>
      <psa10 value="0.0042075063" flag="0"/>
      <psa30 value="0.0003621496" flag="0"/>
    </comp>
    <comp name="--.HHE">
      <acc value="0.0079447553" flag="0"/>
      <vel value="0.0047039634" flag="0"/>
      <psa03 value="0.0240581174" flag="0"/>
      <psa10 value="0.0023232479" flag="0"/>
      <psa30 value="0.0003406492" flag="0"/>
    </comp>
    <comp name="--.HHZ">
      <acc value="0.0045097498" flag="0"/>
      <vel value="0.0021116388" flag="0"/>
      <psa03 value="0.0082037422" flag="0"/>
      <psa10 value="0.0016431381" flag="0"/>
      <psa30 value="0.0003389503" flag="0"/>
    </comp>
  </station>
  <station code="TETR" name="TETR" netid="HL" insttype="60" lat="39.3445" lon="21.2747">
    <comp name="--.HHN">
      <acc value="0.0425102894" flag="0"/>
      <vel value="0.0142433298" flag="0"/>
      <psa03 value="0.0674588919" flag="0"/>
      <psa10 value="0.0116310712" flag="0"/>
      <psa30 value="0.0006580188" flag="0"/>
    </comp>
    <comp name="--.HHE">
      <acc value="0.0752204066" flag="0"/>
      <vel value="0.0225089961" flag="0"/>
      <psa03 value="0.1407170396" flag="0"/>
      <psa10 value="0.0194479775" flag="0"/>
      <psa30 value="0.0010198594" flag="0"/>
    </comp>
    <comp name="--.HHZ">
      <acc value="0.0205025547" flag="0"/>
      <vel value="0.0084173907" flag="0"/>
      <psa03 value="0.0550049246" flag="0"/>
      <psa10 value="0.0086014169" flag="0"/>
      <psa30 value="0.0006023080" flag="0"/>
    </comp>
  </station>
  <station code="THL" name="THL" netid="HL" insttype="120" lat="39.5647" lon="22.0144">
    <comp name="--.HHE">
      <acc value="0.1563586339" flag="0"/>
      <vel value="0.0300173450" flag="0"/>
      <psa03 value="0.1032059742" flag="0"/>
      <psa10 value="0.0242375087" flag="0"/>
      <psa30 value="0.0018168582" flag="0"/>
    </comp>
    <comp name="--.HHZ">
      <acc value="0.1159686519" flag="0"/>
      <vel value="0.0332663255" flag="0"/>
      <psa03 value="0.1450206030" flag="0"/>
      <psa10 value="0.0240166365" flag="0"/>
      <psa30 value="0.0027824190" flag="0"/>
    </comp>
    <comp name="--.HHN">
      <acc value="0.1732886037" flag="0"/>
      <vel value="0.0302508773" flag="0"/>
      <psa03 value="0.1148655342" flag="0"/>
      <psa10 value="0.0178022774" flag="0"/>
      <psa30 value="0.0036728676" flag="0"/>
    </comp>
  </station>
  <station code="AMPL" name="AMPL" netid="HP" insttype="Compact," lat="38.9224" lon="21.2135">
    <comp name="--.HHN">
      <acc value="0.0032447564" flag="0"/>
      <vel value="0.0027448995" flag="0"/>
      <psa03 value="0.0099105718" flag="0"/>
      <psa10 value="0.0027841879" flag="0"/>
      <psa30 value="0.0004918828" flag="0"/>
    </comp>
    <comp name="--.HHZ">
      <acc value="0.0034689353" flag="0"/>
      <vel value="0.0017971005" flag="0"/>
      <psa03 value="0.0041705740" flag="0"/>
      <psa10 value="0.0027865094" flag="0"/>
      <psa30 value="0.0004032587" flag="0"/>
    </comp>
    <comp name="--.HHE">
      <acc value="0.0035172540" flag="0"/>
      <vel value="0.0028433071" flag="0"/>
      <psa03 value="0.0088743458" flag="0"/>
      <psa10 value="0.0049871885" flag="0"/>
      <psa30 value="0.0005686961" flag="0"/>
    </comp>
  </station>
  <station code="PRMD" name="PRMD" netid="HP" insttype="120P," lat="39.5299" lon="21.0965">
    <comp name="--.HHN">
      <acc value="0.0116973028" flag="0"/>
      <vel value="0.0091496855" flag="0"/>
      <psa03 value="0.0256366245" flag="0"/>
      <psa10 value="0.0147547815" flag="0"/>
      <psa30 value="0.0007103927" flag="0"/>
    </comp>
    <comp name="--.HHE">
      <acc value="0.0167409268" flag="0"/>
      <vel value="0.0064814784" flag="0"/>
      <psa03 value="0.0357151442" flag="0"/>
      <psa10 value="0.0091156491" flag="0"/>
      <psa30 value="0.0005021478" flag="0"/>
    </comp>
    <comp name="--.HHZ">
      <acc value="0.0077226607" flag="0"/>
      <vel value="0.0056747217" flag="0"/>
      <psa03 value="0.0234423821" flag="0"/>
      <psa10 value="0.0076809797" flag="0"/>
      <psa30 value="0.0006740698" flag="0"/>
    </comp>
  </station>
  <station code="AGG" name="AGG" netid="HT" insttype="120P," lat="39.0211" lon="22.336">
    <comp name="--.HHE">
      <acc value="0.0160498437" flag="0"/>
      <vel value="0.0049860025" flag="0"/>
      <psa03 value="0.0275889011" flag="0"/>
      <psa10 value="0.0065778881" flag="0"/>
      <psa30 value="0.0005474344" flag="0"/>
    </comp>
    <comp name="--.HHN">
      <acc value="0.0182545154" flag="0"/>
      <vel value="0.0089584312" flag="0"/>
      <psa03 value="0.0386096053" flag="0"/>
      <psa10 value="0.0040456448" flag="0"/>
      <psa30 value="0.0005717674" flag="0"/>
    </comp>
    <comp name="--.HHZ">
      <acc value="0.0086762708" flag="0"/>
      <vel value="0.0030228523" flag="0"/>
      <psa03 value="0.0161641761" flag="0"/>
      <psa10 value="0.0044008596" flag="0"/>
      <psa30 value="0.0006241446" flag="0"/>
    </comp>
  </station>
  <station code="HORT" name="HORT" netid="HT" insttype="100" lat="40.5978" lon="23.0996">
    <comp name="--.HHE">
      <acc value="0.0023452345" flag="0"/>
      <vel value="0.0011670656" flag="0"/>
      <psa03 value="0.0060301452" flag="0"/>
      <psa10 value="0.0017491145" flag="0"/>
      <psa30 value="0.0003541273" flag="0"/>
    </comp>
    <comp name="--.HHZ">
      <acc value="0.0018460313" flag="0"/>
      <vel value="0.0008030501" flag="0"/>
      <psa03 value="0.0042487574" flag="0"/>
      <psa10 value="0.0009813743" flag="0"/>
      <psa30 value="0.0003757960" flag="0"/>
    </comp>
    <comp name="--.HHN">
      <acc value="0.0000111503" flag="0"/>
      <vel value="0.0000022386" flag="0"/>
      <psa03 value="0.0000109156" flag="0"/>
      <psa10 value="0.0000021386" flag="0"/>
      <psa30 value="0.0000004837" flag="0"/>
    </comp>
  </station>
  <station code="KPRO" name="KPRO" netid="HT" insttype="100" lat="39.9549" lon="21.3632">
    <comp name="--.HHE">
      <acc value="0.0286220555" flag="0"/>
      <vel value="0.0162511992" flag="0"/>
      <psa03 value="0.0914183505" flag="0"/>
      <psa10 value="0.0192234558" flag="0"/>
      <psa30 value="0.0012535947" flag="0"/>
    </comp>
    <comp name="--.HHZ">
      <acc value="0.0135841706" flag="0"/>
      <vel value="0.0108445787" flag="0"/>
      <psa03 value="0.0611959872" flag="0"/>
      <psa10 value="0.0155260445" flag="0"/>
      <psa30 value="0.0016162183" flag="0"/>
    </comp>
    <comp name="--.HHN">
      <acc value="0.0298542330" flag="0"/>
      <vel value="0.0145194909" flag="0"/>
      <psa03 value="0.0924959525" flag="0"/>
      <psa10 value="0.0130289941" flag="0"/>
      <psa30 value="0.0019604540" flag="0"/>
    </comp>
  </station>
  <station code="LIT" name="LIT" netid="HT" insttype="100" lat="40.1033" lon="22.4892">
    <comp name="--.HHE">
      <acc value="0.1432847552" flag="0"/>
      <vel value="0.0278702969" flag="0"/>
      <psa03 value="0.1062937813" flag="0"/>
      <psa10 value="0.0130918005" flag="0"/>
      <psa30 value="0.0010380871" flag="0"/>
    </comp>
    <comp name="--.HHZ">
      <acc value="0.0512653456" flag="0"/>
      <vel value="0.0187682896" flag="0"/>
      <psa03 value="0.0601405557" flag="0"/>
      <psa10 value="0.0086037827" flag="0"/>
      <psa30 value="0.0012598310" flag="0"/>
    </comp>
    <comp name="--.HHN">
      <acc value="0.1312738221" flag="0"/>
      <vel value="0.0360087595" flag="0"/>
      <psa03 value="0.1407053337" flag="0"/>
      <psa10 value="0.0146484430" flag="0"/>
      <psa30 value="0.0009262080" flag="0"/>
    </comp>
  </station>
  <station code="THE" name="THE" netid="HT" insttype="30s-100Hz," lat="40.6319" lon="22.9628">
    <comp name="--.HHZ">
      <acc value="0.0020772791" flag="0"/>
      <vel value="0.0010718117" flag="0"/>
      <psa03 value="0.0026288612" flag="0"/>
      <psa10 value="0.0008477862" flag="0"/>
      <psa30 value="0.0003086982" flag="0"/>
    </comp>
    <comp name="--.HHE">
      <acc value="0.0026438334" flag="0"/>
      <vel value="0.0010636266" flag="0"/>
      <psa03 value="0.0031751294" flag="0"/>
      <psa10 value="0.0011911470" flag="0"/>
      <psa30 value="0.0001819185" flag="0"/>
    </comp>
    <comp name="--.HHN">
      <acc value="0.0023223695" flag="0"/>
      <vel value="0.0009935614" flag="0"/>
      <psa03 value="0.0034342041" flag="0"/>
      <psa10 value="0.0008289996" flag="0"/>
      <psa30 value="0.0003442162" flag="0"/>
    </comp>
  </station>
  <station code="TYRN" name="TYRN" netid="HT" insttype="120P," lat="39.711" lon="22.2325">
    <comp name="--.HHN">
      <acc value="0.2819948778" flag="0"/>
      <vel value="0.0627573101" flag="0"/>
      <psa03 value="0.2509238218" flag="0"/>
      <psa10 value="0.0220045461" flag="0"/>
      <psa30 value="0.0021195571" flag="0"/>
    </comp>
    <comp name="--.HHE">
      <acc value="0.2516499655" flag="0"/>
      <vel value="0.0716528984" flag="0"/>
      <psa03 value="0.2491701266" flag="0"/>
      <psa10 value="0.0310468463" flag="0"/>
      <psa30 value="0.0035633447" flag="0"/>
    </comp>
    <comp name="--.HHZ">
      <acc value="0.3228537356" flag="0"/>
      <vel value="0.0728766826" flag="0"/>
      <psa03 value="0.1917414700" flag="0"/>
      <psa10 value="0.0303926057" flag="0"/>
      <psa30 value="0.0027776804" flag="0"/>
    </comp>
  </station>
  <station code="XOR" name="XOR" netid="HT" insttype="Compact," lat="39.366" lon="23.1918">
    <comp name="--.HHE">
      <acc value="0.0085676665" flag="0"/>
      <vel value="0.0056161038" flag="0"/>
      <psa03 value="0.0204797604" flag="0"/>
      <psa10 value="0.0048437808" flag="0"/>
      <psa30 value="0.0008563377" flag="0"/>
    </comp>
    <comp name="--.HHN">
      <acc value="0.0152324850" flag="0"/>
      <vel value="0.0085795331" flag="0"/>
      <psa03 value="0.0411044557" flag="0"/>
      <psa10 value="0.0071586969" flag="0"/>
      <psa30 value="0.0011930679" flag="0"/>
    </comp>
    <comp name="--.HHZ">
      <acc value="0.0094417538" flag="0"/>
      <vel value="0.0042482027" flag="0"/>
      <psa03 value="0.0252650657" flag="0"/>
      <psa10 value="0.0048827017" flag="0"/>
      <psa30 value="0.0011803912" flag="0"/>
    </comp>
  </station>
  <station code="THL" name="THL" netid="MN" insttype="" lat="39.5647" lon="22.0144">
    <comp name="--.HHE">
      <acc value="0.1563586339" flag="0"/>
      <vel value="0.0300173450" flag="0"/>
      <psa03 value="0.1032059742" flag="0"/>
      <psa10 value="0.0242375087" flag="0"/>
      <psa30 value="0.0018168582" flag="0"/>
    </comp>
    <comp name="--.HHN">
      <acc value="0.1732886037" flag="0"/>
      <vel value="0.0302508773" flag="0"/>
      <psa03 value="0.1148655342" flag="0"/>
      <psa10 value="0.0178022774" flag="0"/>
      <psa30 value="0.0036728676" flag="0"/>
    </comp>
    <comp name="--.HHZ">
      <acc value="0.1159686519" flag="0"/>
      <vel value="0.0332663255" flag="0"/>
      <psa03 value="0.1450206030" flag="0"/>
      <psa10 value="0.0240166365" flag="0"/>
      <psa30 value="0.0027824190" flag="0"/>
    </comp>
  </station>
</stationlist>
