<stationlist created="1778136297">
	<station code="STC" name="STC" netid="EG" source="EUROSEISTEST Strong Motion Network" insttype="" lat="40.64865" lon="23.304856">
		<comp name="--.EN1" depth="0.0">
			<acc value="0.00619476596551027" flag="0"/>
			<vel value="0.0049587145044283" flag="0"/>
			<psa03 value="0.0207505920727848" flag="0"/>
			<psa10 value="0.00511033744103755" flag="0"/>
			<psa30 value="0.000508117045676591" flag="0"/>
		</comp>
		<comp name="--.EN2" depth="0.0">
			<acc value="0.00712964949100391" flag="0"/>
			<vel value="0.00357821871259006" flag="0"/>
			<psa03 value="0.0143264607764582" flag="0"/>
			<psa10 value="0.00204948944049119" flag="0"/>
			<psa30 value="0.000481687378174223" flag="0"/>
		</comp>
		<comp name="--.EN3" depth="0.0">
			<acc value="0.00541265740133023" flag="0"/>
			<vel value="0.00267607008807263" flag="0"/>
			<psa03 value="0.00862404460791366" flag="0"/>
			<psa10 value="0.00240666357027558" flag="0"/>
			<psa30 value="0.000610746865233774" flag="0"/>
		</comp>
	</station>
	<station code="TST" name="TST" netid="EG" source="EUROSEISTEST Strong Motion Network" insttype="" lat="40.6638" lon="23.2906">
		<comp name="00.EN1" depth="0.0">
			<acc value="0.00492619513132591" flag="0"/>
			<vel value="0.00423702628417414" flag="0"/>
			<psa03 value="0.0135069624782934" flag="0"/>
			<psa10 value="0.00390755424691516" flag="0"/>
			<psa30 value="0.000646970566959919" flag="0"/>
		</comp>
		<comp name="00.EN2" depth="0.0">
			<acc value="0.00294429098844388" flag="0"/>
			<vel value="0.00134216395158438" flag="0"/>
			<psa03 value="0.00570154762142036" flag="0"/>
			<psa10 value="0.00150639463500155" flag="0"/>
			<psa30 value="0.000359817299671847" flag="0"/>
		</comp>
		<comp name="00.EN3" depth="0.0">
			<acc value="0.00529445856712718" flag="0"/>
			<vel value="0.00359608535828959" flag="0"/>
			<psa03 value="0.0133757142004235" flag="0"/>
			<psa10 value="0.00445321328477909" flag="0"/>
			<psa30 value="0.000427992440940571" flag="0"/>
		</comp>
	</station>
	<station code="DLFA" name="DLFA" netid="HL" source="National Observatory of Athens Seismic Network" insttype="" lat="38.47836" lon="22.49583">
		<comp name="00.HNE" depth="0.0">
			<acc value="0.00245059287549749" flag="0"/>
			<vel value="0.0018960632854109" flag="0"/>
			<psa03 value="0.00501112714124644" flag="0"/>
			<psa10 value="0.0036684135206321" flag="0"/>
			<psa30 value="0.000424603540807399" flag="0"/>
		</comp>
		<comp name="00.HNN" depth="0.0">
			<acc value="0.00197197945402013" flag="0"/>
			<vel value="0.00194253370958839" flag="0"/>
			<psa03 value="0.00514535376110125" flag="0"/>
			<psa10 value="0.00306439373128543" flag="0"/>
			<psa30 value="0.000354358276416712" flag="0"/>
		</comp>
		<comp name="00.HNZ" depth="0.0">
			<acc value="0.0022852049528194" flag="0"/>
			<vel value="0.00124989638489894" flag="0"/>
			<psa03 value="0.00277401681033285" flag="0"/>
			<psa10 value="0.0025086955250865" flag="0"/>
			<psa30 value="0.00028813981062167" flag="0"/>
		</comp>
	</station>
	<station code="PATC" name="PATC" netid="HL" source="National Observatory of Athens Seismic Network" insttype="" lat="38.26933" lon="21.76001">
		<comp name="00.HNE" depth="0.0">
			<acc value="0.00303008632025541" flag="0"/>
			<vel value="0.00310271186426711" flag="0"/>
			<psa03 value="0.00697978423245039" flag="0"/>
			<psa10 value="0.00531940094484633" flag="0"/>
			<psa30 value="0.00140848466434319" flag="0"/>
		</comp>
		<comp name="00.HNN" depth="0.0">
			<acc value="0.00259059840146424" flag="0"/>
			<vel value="0.00437668215926533" flag="0"/>
			<psa03 value="0.00697978423245039" flag="0"/>
			<psa10 value="0.00418384374087459" flag="0"/>
			<psa30 value="0.00137895480797514" flag="0"/>
		</comp>
		<comp name="00.HNZ" depth="0.0">
			<acc value="0.00604289722773652" flag="0"/>
			<vel value="0.00209998402250639" flag="0"/>
			<psa03 value="0.00483215831477335" flag="0"/>
			<psa10 value="0.00293956297482045" flag="0"/>
			<psa30 value="0.00061744245133215" flag="0"/>
		</comp>
	</station>
	<station code="PATG" name="PATG" netid="HL" source="National Observatory of Athens Seismic Network" insttype="" lat="38.23865" lon="21.72657">
		<comp name="00.HNE" depth="0.0">
			<acc value="0.00398701928164235" flag="0"/>
			<vel value="0.0036172096429666" flag="0"/>
			<psa03 value="0.0138700840516642" flag="0"/>
			<psa10 value="0.0038133782700753" flag="0"/>
			<psa30 value="0.00196463029260831" flag="0"/>
		</comp>
		<comp name="00.HNN" depth="0.0">
			<acc value="0.00439090962614865" flag="0"/>
			<vel value="0.0035864022930517" flag="0"/>
			<psa03 value="0.0142280217046104" flag="0"/>
			<psa10 value="0.00414760255351379" flag="0"/>
			<psa30 value="0.00178476662200286" flag="0"/>
		</comp>
		<comp name="00.HNZ" depth="0.0">
			<acc value="0.0129889038022087" flag="0"/>
			<vel value="0.00232921950261817" flag="0"/>
			<psa03 value="0.00733772188539657" flag="0"/>
			<psa10 value="0.00210198886692641" flag="0"/>
			<psa30 value="0.000989250188329988" flag="0"/>
		</comp>
	</station>
	<station code="PLG" name="PLG" netid="HL" source="National Observatory of Athens Seismic Network" insttype="" lat="40.37328" lon="23.44443">
		<comp name="--.HNE" depth="0.0">
			<acc value="0.0" flag="1"/>
			<vel value="0.0" flag="1"/>
			<psa03 value="0.0" flag="1"/>
			<psa10 value="0.0" flag="1"/>
			<psa30 value="0.0" flag="1"/>
		</comp>
		<comp name="--.HNN" depth="0.0">
			<acc value="0.0" flag="1"/>
			<vel value="0.0" flag="1"/>
			<psa03 value="0.0" flag="1"/>
			<psa10 value="0.0" flag="1"/>
			<psa30 value="0.0" flag="1"/>
		</comp>
		<comp name="--.HNZ" depth="0.0">
			<acc value="0.0" flag="1"/>
			<vel value="0.0" flag="1"/>
			<psa03 value="0.0" flag="1"/>
			<psa10 value="0.0" flag="1"/>
			<psa30 value="0.0" flag="1"/>
		</comp>
	</station>
	<station code="RIOA" name="RIOA" netid="HL" source="National Observatory of Athens Seismic Network" insttype="" lat="38.29585" lon="21.79118">
		<comp name="00.HNE" depth="0.0">
			<acc value="0.00608860548341579" flag="0"/>
			<vel value="0.00372568976486636" flag="0"/>
			<psa03 value="0.00478741610815508" flag="0"/>
			<psa10 value="0.00356774355574099" flag="0"/>
			<psa30 value="0.00160490295139741" flag="0"/>
		</comp>
		<comp name="00.HNN" depth="0.0">
			<acc value="0.0107179824636371" flag="0"/>
			<vel value="0.00308510807986808" flag="0"/>
			<psa03 value="0.00845627705085336" flag="0"/>
			<psa10 value="0.00294761657201174" flag="0"/>
			<psa30 value="0.000924821410799677" flag="0"/>
		</comp>
		<comp name="00.HNZ" depth="0.0">
			<acc value="0.0106523054155461" flag="0"/>
			<vel value="0.00211167566369918" flag="0"/>
			<psa03 value="0.0038030875625531" flag="0"/>
			<psa10 value="0.00180400577084872" flag="0"/>
			<psa30 value="0.000697978423245039" flag="0"/>
		</comp>
	</station>
	<station code="ANX" name="ANX" netid="HP" source="University of Patras, Seismological Laboratory (PSLNET)" insttype="" lat="38.5933" lon="21.9209">
		<comp name="--.HNE" depth="0.0">
			<acc value="0.00894714282811084" flag="0"/>
			<vel value="0.00522393267234701" flag="0"/>
			<psa03 value="0.0299493824370867" flag="0"/>
			<psa10 value="0.00648935910693857" flag="0"/>
			<psa30 value="0.000519453265396525" flag="0"/>
		</comp>
		<comp name="--.HNN" depth="0.0">
			<acc value="0.0150351503887914" flag="0"/>
			<vel value="0.00719591804091339" flag="0"/>
			<psa03 value="0.074370838161277" flag="0"/>
			<psa10 value="0.00521137757192645" flag="0"/>
			<psa30 value="0.000671787210939089" flag="0"/>
		</comp>
		<comp name="--.HNZ" depth="0.0">
			<acc value="0.00572387870881489" flag="0"/>
			<vel value="0.00390111888014363" flag="0"/>
			<psa03 value="0.0197889268047073" flag="0"/>
			<psa10 value="0.00294159947590209" flag="0"/>
			<psa30 value="0.000483855594723839" flag="0"/>
		</comp>
	</station>
	<station code="PDO" name="PDO" netid="HP" source="University of Patras, Seismological Laboratory (PSLNET)" insttype="" lat="38.5986" lon="21.1833">
		<comp name="--.HNE" depth="0.0">
			<acc value="0.00429052024751314" flag="0"/>
			<vel value="0.00336346494101823" flag="0"/>
			<psa03 value="0.0156164550864185" flag="0"/>
			<psa10 value="0.00318204735752139" flag="0"/>
			<psa30 value="0.000516518487649919" flag="0"/>
		</comp>
		<comp name="--.HNN" depth="0.0">
			<acc value="0.00417666311311541" flag="0"/>
			<vel value="0.00359806867836635" flag="0"/>
			<psa03 value="0.0131881444831975" flag="0"/>
			<psa10 value="0.00299540593094214" flag="0"/>
			<psa30 value="0.0003509402532779" flag="0"/>
		</comp>
		<comp name="--.HNZ" depth="0.0">
			<acc value="0.00372016724854907" flag="0"/>
			<vel value="0.00169481708057765" flag="0"/>
			<psa03 value="0.00694974814714163" flag="0"/>
			<psa10 value="0.00126275927660562" flag="0"/>
			<psa30 value="0.00035846653310683" flag="0"/>
		</comp>
	</station>
	<station code="PVO" name="PVO" netid="HP" source="University of Patras, Seismological Laboratory (PSLNET)" insttype="" lat="38.616" lon="21.525">
		<comp name="--.HNE" depth="0.0">
			<acc value="0.00223206324016702" flag="0"/>
			<vel value="0.00188245030880129" flag="0"/>
			<psa03 value="0.00786162300748551" flag="0"/>
			<psa10 value="0.00147607997055212" flag="0"/>
			<psa30 value="0.000621267301741136" flag="0"/>
		</comp>
		<comp name="--.HNN" depth="0.0">
			<acc value="0.00222001252291824" flag="0"/>
			<vel value="0.00158155919929235" flag="0"/>
			<psa03 value="0.0072803904932752" flag="0"/>
			<psa10 value="0.00178711057480597" flag="0"/>
			<psa30 value="0.000712344480992563" flag="0"/>
		</comp>
		<comp name="--.HNZ" depth="0.0">
			<acc value="0.00180149611024093" flag="0"/>
			<vel value="0.00163954728760863" flag="0"/>
			<psa03 value="0.00486060714761804" flag="0"/>
			<psa10 value="0.00182530134694298" flag="0"/>
			<psa30 value="0.000715319053043859" flag="0"/>
		</comp>
	</station>
	<station code="SERG" name="SERG" netid="HP" source="University of Patras, Seismological Laboratory (PSLNET)" insttype="" lat="38.4133" lon="22.0566">
		<comp name="--.HNE" depth="0.0">
			<acc value="0.00572363053270781" flag="0"/>
			<vel value="0.00496476130644921" flag="0"/>
			<psa03 value="0.0149903263688655" flag="0"/>
			<psa10 value="0.00579839974052759" flag="0"/>
			<psa30 value="0.000811790964668819" flag="0"/>
		</comp>
		<comp name="--.HNN" depth="0.0">
			<acc value="0.00711154639162841" flag="0"/>
			<vel value="0.0037432314382699" flag="0"/>
			<psa03 value="0.0183857726546915" flag="0"/>
			<psa10 value="0.00214253896394153" flag="0"/>
			<psa30 value="0.00065188229858671" flag="0"/>
		</comp>
		<comp name="--.HNZ" depth="0.0">
			<acc value="0.00313520956850783" flag="0"/>
			<vel value="0.00223942360262117" flag="0"/>
			<psa03 value="0.00673455680843633" flag="0"/>
			<psa10 value="0.00243319329648913" flag="0"/>
			<psa30 value="0.000457352484857964" flag="0"/>
		</comp>
	</station>
</stationlist>
