<?xml version="1.0" encoding="UTF-8" standalone="yes"?>
<!DOCTYPE earthquake SYSTEM "stationlist.dtd">
<stationlist created="" xmlns="ch.ethz.sed.shakemap.usgs.xml">
  <station code="ARMT" name="ARMT" netid="KO" insttype="CMG-3ESP" commtype="DIG" lat="40.5683" lon="28.866">
    <comp name="--.HHZ">
      <acc value="0.0163219001" flag="0"/>
      <vel value="0.0039258674" flag="0"/>
      <psa03 value="0.0284512861" flag="0"/>
      <psa10 value="0.0013062851" flag="0"/>
      <psa30 value="0.0001307815" flag="0"/>
    </comp>
    <comp name="--.HHN">
      <acc value="0.0210556098" flag="0"/>
      <vel value="0.0075275794" flag="0"/>
      <psa03 value="0.0383585992" flag="0"/>
      <psa10 value="0.0020968877" flag="0"/>
      <psa30 value="0.0001811113" flag="0"/>
    </comp>
  </station>
  <station code="BGKT" name="BGKT" netid="KO" insttype="CMG-3ESP" commtype="DIG" lat="41.181" lon="28.773">
    <comp name="--.HHE">
      <acc value="0.1040012404" flag="0"/>
      <vel value="0.0114161095" flag="0"/>
      <psa03 value="0.0314278201" flag="0"/>
      <psa10 value="0.0032398047" flag="0"/>
      <psa30 value="0.0002607330" flag="0"/>
    </comp>
    <comp name="--.HHN">
      <acc value="0.0753247117" flag="0"/>
      <vel value="0.0111242579" flag="0"/>
      <psa03 value="0.0374106531" flag="0"/>
      <psa10 value="0.0047448424" flag="0"/>
      <psa30 value="0.0002554708" flag="0"/>
    </comp>
    <comp name="--.HHZ">
      <acc value="0.0297654939" flag="0"/>
      <vel value="0.0064404998" flag="0"/>
      <psa03 value="0.0277293530" flag="0"/>
      <psa10 value="0.0033561464" flag="0"/>
      <psa30 value="0.0001514540" flag="0"/>
    </comp>
  </station>
  <station code="BIGA" name="BIGA" netid="KO" insttype="CMG-5T" commtype="DIG" lat="40.2813" lon="27.1505">
    <comp name="--.HNE">
      <acc value="0.0500292554" flag="0"/>
      <vel value="0.0110332318" flag="0"/>
      <psa03 value="0.0688222212" flag="0"/>
      <psa10 value="0.0021787215" flag="0"/>
      <psa30 value="0.0003754488" flag="0"/>
    </comp>
    <comp name="--.HNN">
      <acc value="0.0556785717" flag="0"/>
      <vel value="0.0110673523" flag="0"/>
      <psa03 value="0.0608025023" flag="0"/>
      <psa10 value="0.0034199919" flag="0"/>
      <psa30 value="0.0003194613" flag="0"/>
    </comp>
    <comp name="--.HNZ">
      <acc value="0.0527239363" flag="0"/>
      <vel value="0.0084653031" flag="0"/>
      <psa03 value="0.0157611727" flag="0"/>
      <psa10 value="0.0016706336" flag="0"/>
      <psa30 value="0.0002838505" flag="0"/>
    </comp>
  </station>
  <station code="BOTS" name="BOTS" netid="KO" insttype="CMG-5T" commtype="DIG" lat="40.9902" lon="27.981">
    <comp name="--.HNZ">
      <acc value="0.1314141081" flag="0"/>
      <vel value="0.0210183265" flag="0"/>
      <psa03 value="0.0601376999" flag="0"/>
      <psa10 value="0.0041101344" flag="0"/>
      <psa30 value="0.0003813027" flag="0"/>
    </comp>
    <comp name="--.HNE">
      <acc value="0.1259554826" flag="0"/>
      <vel value="0.0296572708" flag="0"/>
      <psa03 value="0.0801948497" flag="0"/>
      <psa10 value="0.0099940064" flag="0"/>
      <psa30 value="0.0008713668" flag="0"/>
    </comp>
    <comp name="--.HNN">
      <acc value="0.2577793894" flag="0"/>
      <vel value="0.0708788336" flag="0"/>
      <psa03 value="0.2809246109" flag="0"/>
      <psa10 value="0.0166326073" flag="0"/>
      <psa30 value="0.0013448742" flag="0"/>
    </comp>
  </station>
  <station code="BRGA" name="BRGA" netid="KO" insttype="CMG-5T" commtype="DIG" lat="40.8846" lon="29.065">
    <comp name="--.HNE">
      <acc value="0.0351700195" flag="0"/>
      <vel value="0.0086667536" flag="0"/>
      <psa03 value="0.0295237953" flag="0"/>
      <psa10 value="0.0031388733" flag="0"/>
      <psa30 value="0.0002659102" flag="0"/>
    </comp>
    <comp name="--.HNN">
      <acc value="0.0475252943" flag="0"/>
      <vel value="0.0117156692" flag="0"/>
      <psa03 value="0.0426137933" flag="0"/>
      <psa10 value="0.0036330593" flag="0"/>
      <psa30 value="0.0004050117" flag="0"/>
    </comp>
    <comp name="--.HNZ">
      <acc value="0.0233438595" flag="0"/>
      <vel value="0.0053343204" flag="0"/>
      <psa03 value="0.0219799190" flag="0"/>
      <psa10 value="0.0019144773" flag="0"/>
      <psa30 value="0.0004105336" flag="0"/>
    </comp>
  </station>
  <station code="BUYK" name="BUYK" netid="KO" insttype="ACEBOX" commtype="DIG" lat="41.0168" lon="28.5828">
    <comp name="--.HNE">
      <acc value="0.0772911279" flag="0"/>
      <vel value="0.0344966364" flag="0"/>
      <psa03 value="0.1084963384" flag="0"/>
      <psa10 value="0.0363262857" flag="0"/>
      <psa30 value="0.0022497483" flag="0"/>
    </comp>
    <comp name="--.HNN">
      <acc value="0.0556721371" flag="0"/>
      <vel value="0.0188882548" flag="0"/>
      <psa03 value="0.1060775926" flag="0"/>
      <psa10 value="0.0240443197" flag="0"/>
      <psa30 value="0.0020593623" flag="0"/>
    </comp>
    <comp name="--.HNZ">
      <acc value="0.0565334039" flag="0"/>
      <vel value="0.0139975563" flag="0"/>
      <psa03 value="0.0655716477" flag="0"/>
      <psa10 value="0.0182972482" flag="0"/>
      <psa30 value="0.0006283995" flag="0"/>
    </comp>
  </station>
  <station code="CRLU" name="CRLU" netid="KO" insttype="ACEBOX" commtype="DIG" lat="41.1428" lon="27.8215">
    <comp name="--.HNE">
      <acc value="0.4479128194" flag="0"/>
      <vel value="0.1106343376" flag="0"/>
      <psa03 value="0.4592721120" flag="0"/>
      <psa10 value="0.0861769505" flag="0"/>
      <psa30 value="0.0072676877" flag="0"/>
    </comp>
    <comp name="--.HNZ">
      <acc value="1.0420083159" flag="0"/>
      <vel value="0.1702512730" flag="0"/>
      <psa03 value="0.4240000265" flag="0"/>
      <psa10 value="0.0571770109" flag="0"/>
      <psa30 value="0.0043786830" flag="0"/>
    </comp>
  </station>
  <station code="CTYL" name="CTYL" netid="KO" insttype="CMG-3T" commtype="DIG" lat="41.476" lon="28.2897">
    <comp name="--.HHE">
      <acc value="0.0487438180" flag="0"/>
      <vel value="0.0107479987" flag="0"/>
      <psa03 value="0.0629283107" flag="0"/>
      <psa10 value="0.0032149900" flag="0"/>
      <psa30 value="0.0003418128" flag="0"/>
    </comp>
    <comp name="--.HHN">
      <acc value="0.0623340077" flag="0"/>
      <vel value="0.0153831218" flag="0"/>
      <psa03 value="0.0624234902" flag="0"/>
      <psa10 value="0.0035713564" flag="0"/>
      <psa30 value="0.0003502238" flag="0"/>
    </comp>
    <comp name="--.HHZ">
      <acc value="0.0329732166" flag="0"/>
      <vel value="0.0079123613" flag="0"/>
      <psa03 value="0.0560394122" flag="0"/>
      <psa10 value="0.0015270333" flag="0"/>
      <psa30 value="0.0001375008" flag="0"/>
    </comp>
  </station>
  <station code="EDC" name="EDC" netid="KO" insttype="CMG-3T" commtype="DIG" lat="40.3465" lon="27.8618">
    <comp name="--.HHN">
      <acc value="0.0538043723" flag="0"/>
      <vel value="0.0078188163" flag="0"/>
      <psa03 value="0.0377302247" flag="0"/>
      <psa10 value="0.0019517182" flag="0"/>
      <psa30 value="0.0001597837" flag="0"/>
    </comp>
    <comp name="--.HHZ">
      <acc value="0.0419479378" flag="0"/>
      <vel value="0.0064325838" flag="0"/>
      <psa03 value="0.0138030197" flag="0"/>
      <psa10 value="0.0007830473" flag="0"/>
      <psa30 value="0.0001265655" flag="0"/>
    </comp>
    <comp name="--.HHE">
      <acc value="0.0419266099" flag="0"/>
      <vel value="0.0079112021" flag="0"/>
      <psa03 value="0.0298292720" flag="0"/>
      <psa10 value="0.0018315033" flag="0"/>
      <psa30 value="0.0002083364" flag="0"/>
    </comp>
  </station>
  <station code="GAZK" name="GAZK" netid="KO" insttype="CMG-6T" commtype="DIG" lat="40.7479" lon="27.3275">
    <comp name="--.HHE">
      <acc value="0.0459992248" flag="0"/>
      <vel value="0.0090703457" flag="0"/>
      <psa03 value="0.0543861795" flag="0"/>
      <psa10 value="0.0045606991" flag="0"/>
      <psa30 value="0.0002525130" flag="0"/>
    </comp>
    <comp name="--.HHN">
      <acc value="0.0662616679" flag="0"/>
      <vel value="0.0134919640" flag="0"/>
      <psa03 value="0.0508325379" flag="0"/>
      <psa10 value="0.0059749394" flag="0"/>
      <psa30 value="0.0005261418" flag="0"/>
    </comp>
    <comp name="--.HHZ">
      <acc value="0.0898025734" flag="0"/>
      <vel value="0.0116598894" flag="0"/>
      <psa03 value="0.0302261773" flag="0"/>
      <psa10 value="0.0034244970" flag="0"/>
      <psa30 value="0.0002498933" flag="0"/>
    </comp>
  </station>
  <station code="GEML" name="GEML" netid="KO" insttype="CMG-3T" commtype="DIG" lat="40.4646" lon="29.2116">
    <comp name="--.HHE">
      <acc value="0.0417487409" flag="0"/>
      <vel value="0.0093621511" flag="0"/>
      <psa03 value="0.0359737404" flag="0"/>
      <psa10 value="0.0026960995" flag="0"/>
      <psa30 value="0.0001771019" flag="0"/>
    </comp>
    <comp name="--.HHZ">
      <acc value="0.0281042805" flag="0"/>
      <vel value="0.0061499524" flag="0"/>
      <psa03 value="0.0156396794" flag="0"/>
      <psa10 value="0.0015030730" flag="0"/>
      <psa30 value="0.0001564230" flag="0"/>
    </comp>
    <comp name="--.HHN">
      <acc value="0.0424727726" flag="0"/>
      <vel value="0.0123314790" flag="0"/>
      <psa03 value="0.0764842812" flag="0"/>
      <psa10 value="0.0033285931" flag="0"/>
      <psa30 value="0.0001868309" flag="0"/>
    </comp>
  </station>
  <station code="HRTX" name="HRTX" netid="KO" insttype="CMG-3ESP" commtype="DIG" lat="40.8009" lon="29.6729">
    <comp name="--.HHE">
      <acc value="0.0136295560" flag="0"/>
      <vel value="0.0042512879" flag="0"/>
      <psa03 value="0.0375554825" flag="0"/>
      <psa10 value="0.0020982406" flag="0"/>
      <psa30 value="0.0001054751" flag="0"/>
    </comp>
    <comp name="--.HHN">
      <acc value="0.0205540588" flag="0"/>
      <vel value="0.0056144948" flag="0"/>
      <psa03 value="0.0288769234" flag="0"/>
      <psa10 value="0.0026313702" flag="0"/>
      <psa30 value="0.0002520491" flag="0"/>
    </comp>
  </station>
  <station code="ISK" name="ISK" netid="KO" insttype="CMG-3T" commtype="DIG" lat="41.0615" lon="29.0592">
    <comp name="--.HHN">
      <acc value="0.0322175304" flag="0"/>
      <vel value="0.0051431782" flag="0"/>
      <psa03 value="0.0152132894" flag="0"/>
      <psa10 value="0.0027749458" flag="0"/>
      <psa30 value="0.0001446487" flag="0"/>
    </comp>
    <comp name="--.HHE">
      <acc value="0.0294320025" flag="0"/>
      <vel value="0.0059372786" flag="0"/>
      <psa03 value="0.0175530380" flag="0"/>
      <psa10 value="0.0013746752" flag="0"/>
      <psa30 value="0.0001136042" flag="0"/>
    </comp>
    <comp name="--.HHZ">
      <acc value="0.0225567042" flag="0"/>
      <vel value="0.0055236083" flag="0"/>
      <psa03 value="0.0187646823" flag="0"/>
      <psa10 value="0.0027995934" flag="0"/>
      <psa30 value="0.0001641784" flag="0"/>
    </comp>
  </station>
  <station code="IZI" name="IZI" netid="KO" insttype="CMG-5T" commtype="DIG" lat="40.3483" lon="29.4612">
    <comp name="--.HNZ">
      <acc value="0.0051330705" flag="0"/>
      <vel value="0.0021853203" flag="0"/>
      <psa03 value="0.0084887611" flag="0"/>
      <psa10 value="0.0017364383" flag="0"/>
      <psa30 value="0.0002402542" flag="0"/>
    </comp>
    <comp name="--.HNE">
      <acc value="0.0064684884" flag="0"/>
      <vel value="0.0024946612" flag="0"/>
      <psa03 value="0.0186440524" flag="0"/>
      <psa10 value="0.0013685975" flag="0"/>
      <psa30 value="0.0002524197" flag="0"/>
    </comp>
    <comp name="--.HNN">
      <acc value="0.0062052329" flag="0"/>
      <vel value="0.0024384965" flag="0"/>
      <psa03 value="0.0125340927" flag="0"/>
      <psa10 value="0.0014541439" flag="0"/>
      <psa30 value="0.0002252418" flag="0"/>
    </comp>
  </station>
  <station code="KAVV" name="KAVV" netid="KO" insttype="CMG-3ESPC" commtype="DIG" lat="41.0638" lon="29.06">
    <comp name="--.HHE">
      <acc value="0.0466173919" flag="0"/>
      <vel value="0.0114895132" flag="0"/>
      <psa03 value="0.0291529181" flag="0"/>
      <psa10 value="0.0025423811" flag="0"/>
      <psa30 value="0.0001845303" flag="0"/>
    </comp>
    <comp name="--.HHN">
      <acc value="0.0650448083" flag="0"/>
      <vel value="0.0134916127" flag="0"/>
      <psa03 value="0.0468233424" flag="0"/>
      <psa10 value="0.0027235349" flag="0"/>
      <psa30 value="0.0002011137" flag="0"/>
    </comp>
    <comp name="--.HHZ">
      <acc value="0.0367759947" flag="0"/>
      <vel value="0.0087176813" flag="0"/>
      <psa03 value="0.0245604484" flag="0"/>
      <psa10 value="0.0036775025" flag="0"/>
      <psa30 value="0.0002429253" flag="0"/>
    </comp>
  </station>
  <station code="KCTX" name="KCTX" netid="KO" insttype="CMG-3ESP" commtype="DIG" lat="40.2626" lon="28.3353">
    <comp name="--.HHZ">
      <acc value="0.0376957253" flag="0"/>
      <vel value="0.0097383235" flag="0"/>
      <psa03 value="0.0281771970" flag="0"/>
      <psa10 value="0.0017586071" flag="0"/>
      <psa30 value="0.0001586176" flag="0"/>
    </comp>
    <comp name="--.HHN">
      <acc value="0.0304127322" flag="0"/>
      <vel value="0.0096367935" flag="0"/>
      <psa03 value="0.0283079908" flag="0"/>
      <psa10 value="0.0044392179" flag="0"/>
      <psa30 value="0.0003244582" flag="0"/>
    </comp>
    <comp name="--.HHE">
      <acc value="0.0392402420" flag="0"/>
      <vel value="0.0173071195" flag="0"/>
      <psa03 value="0.0475446096" flag="0"/>
      <psa10 value="0.0081408296" flag="0"/>
      <psa30 value="0.0006860856" flag="0"/>
    </comp>
  </station>
  <station code="KOUK" name="KOUK" netid="KO" insttype="CMG-5T" commtype="DIG" lat="40.6572" lon="29.1918">
    <comp name="--.HNE">
      <acc value="0.0181160945" flag="0"/>
      <vel value="0.0098031002" flag="0"/>
      <psa03 value="0.0501251469" flag="0"/>
      <psa10 value="0.0108073650" flag="0"/>
      <psa30 value="0.0006075561" flag="0"/>
    </comp>
    <comp name="--.HNN">
      <acc value="0.0128317484" flag="0"/>
      <vel value="0.0083115871" flag="0"/>
      <psa03 value="0.0373082387" flag="0"/>
      <psa10 value="0.0104938987" flag="0"/>
      <psa30 value="0.0005960197" flag="0"/>
    </comp>
    <comp name="--.HNZ">
      <acc value="0.0103903300" flag="0"/>
      <vel value="0.0042858108" flag="0"/>
      <psa03 value="0.0394641968" flag="0"/>
      <psa10 value="0.0039602131" flag="0"/>
      <psa30 value="0.0005939042" flag="0"/>
    </comp>
  </station>
  <station code="KRBG" name="KRBG" netid="KO" insttype="CMG-3ESP" commtype="DIG" lat="40.3932" lon="27.2977">
    <comp name="--.HHN">
      <acc value="0.0531799831" flag="0"/>
      <vel value="0.0090114886" flag="0"/>
      <psa03 value="0.0438146689" flag="0"/>
      <psa10 value="0.0018199706" flag="0"/>
      <psa30 value="0.0001924668" flag="0"/>
    </comp>
    <comp name="--.HHE">
      <acc value="0.0587651602" flag="0"/>
      <vel value="0.0145176066" flag="0"/>
      <psa03 value="0.0548222188" flag="0"/>
      <psa10 value="0.0026919261" flag="0"/>
      <psa30 value="0.0002604025" flag="0"/>
    </comp>
  </station>
  <station code="KUMB" name="KUMB" netid="KO" insttype="CMG-5T" commtype="DIG" lat="40.8626" lon="27.4592">
    <comp name="--.HNZ">
      <acc value="0.0006633317" flag="0"/>
      <vel value="0.0004794213" flag="0"/>
      <psa03 value="0.0008028292" flag="0"/>
      <psa10 value="0.0006716530" flag="0"/>
      <psa30 value="0.0003443161" flag="0"/>
    </comp>
    <comp name="--.HNE">
      <acc value="0.0391471598" flag="0"/>
      <vel value="0.0064845257" flag="0"/>
      <psa03 value="0.0326670059" flag="0"/>
      <psa10 value="0.0031055830" flag="0"/>
      <psa30 value="0.0003059027" flag="0"/>
    </comp>
    <comp name="--.HNN">
      <acc value="0.0449884230" flag="0"/>
      <vel value="0.0066925293" flag="0"/>
      <psa03 value="0.0201581462" flag="0"/>
      <psa10 value="0.0033520793" flag="0"/>
      <psa30 value="0.0004304026" flag="0"/>
    </comp>
  </station>
  <station code="MAEG" name="MAEG" netid="KO" insttype="CMG-5T" commtype="DIG" lat="40.9653" lon="27.9448">
    <comp name="--.HNE">
      <acc value="0.1464905435" flag="0"/>
      <vel value="0.0310818655" flag="0"/>
      <psa03 value="0.1237769771" flag="0"/>
      <psa10 value="0.0091131098" flag="0"/>
      <psa30 value="0.0008687171" flag="0"/>
    </comp>
    <comp name="--.HNN">
      <acc value="0.1498088261" flag="0"/>
      <vel value="0.0305358770" flag="0"/>
      <psa03 value="0.0682755125" flag="0"/>
      <psa10 value="0.0057172726" flag="0"/>
      <psa30 value="0.0004772927" flag="0"/>
    </comp>
    <comp name="--.HNZ">
      <acc value="0.1346954976" flag="0"/>
      <vel value="0.0305744967" flag="0"/>
      <psa03 value="0.0623176224" flag="0"/>
      <psa10 value="0.0040718339" flag="0"/>
      <psa30 value="0.0006078768" flag="0"/>
    </comp>
  </station>
  <station code="MDNY" name="MDNY" netid="KO" insttype="CMG-5T" commtype="DIG" lat="40.3709" lon="28.8846">
    <comp name="--.HNE">
      <acc value="0.0415241761" flag="0"/>
      <vel value="0.0135581380" flag="0"/>
      <psa03 value="0.0786779016" flag="0"/>
      <psa10 value="0.0042574162" flag="0"/>
      <psa30 value="0.0003713766" flag="0"/>
    </comp>
    <comp name="--.HNN">
      <acc value="0.0716963913" flag="0"/>
      <vel value="0.0211039445" flag="0"/>
      <psa03 value="0.1534487599" flag="0"/>
      <psa10 value="0.0037731110" flag="0"/>
      <psa30 value="0.0003679583" flag="0"/>
    </comp>
    <comp name="--.HNZ">
      <acc value="0.0472598236" flag="0"/>
      <vel value="0.0105858284" flag="0"/>
      <psa03 value="0.0464811208" flag="0"/>
      <psa10 value="0.0019281707" flag="0"/>
      <psa30 value="0.0002239873" flag="0"/>
    </comp>
  </station>
  <station code="MRMT" name="MRMT" netid="KO" insttype="CMG-3T" commtype="DIG" lat="40.609" lon="27.5832">
    <comp name="--.HHN">
      <acc value="0.0000343511" flag="0"/>
      <vel value="0.0000034772" flag="0"/>
      <psa03 value="0.0000133967" flag="0"/>
      <psa10 value="0.0000041516" flag="0"/>
      <psa30 value="0.0000008627" flag="0"/>
    </comp>
    <comp name="--.HHZ">
      <acc value="0.0000294369" flag="0"/>
      <vel value="0.0000029236" flag="0"/>
      <psa03 value="0.0000104914" flag="0"/>
      <psa10 value="0.0000032632" flag="0"/>
      <psa30 value="0.0000006940" flag="0"/>
    </comp>
    <comp name="--.HHE">
      <acc value="0.0498896514" flag="0"/>
      <vel value="0.0098030828" flag="0"/>
      <psa03 value="0.0311631031" flag="0"/>
      <psa10 value="0.0012539494" flag="0"/>
      <psa30 value="0.0001039174" flag="0"/>
    </comp>
  </station>
  <station code="ORLT" name="ORLT" netid="KO" insttype="CMG-5T" commtype="DIG" lat="40.0452" lon="28.8914">
    <comp name="--.HNE">
      <acc value="0.0374208287" flag="0"/>
      <vel value="0.0212524612" flag="0"/>
      <psa03 value="0.1292784972" flag="0"/>
      <psa10 value="0.0069513614" flag="0"/>
      <psa30 value="0.0007944829" flag="0"/>
    </comp>
    <comp name="--.HNZ">
      <acc value="0.0109624788" flag="0"/>
      <vel value="0.0060016440" flag="0"/>
      <psa03 value="0.0306018828" flag="0"/>
      <psa10 value="0.0030952139" flag="0"/>
      <psa30 value="0.0003482428" flag="0"/>
    </comp>
    <comp name="--.HNN">
      <acc value="0.0290012853" flag="0"/>
      <vel value="0.0133729752" flag="0"/>
      <psa03 value="0.0651384288" flag="0"/>
      <psa10 value="0.0069620937" flag="0"/>
      <psa30 value="0.0005832202" flag="0"/>
    </comp>
  </station>
  <station code="RKY" name="RKY" netid="KO" insttype="CMG-3ESP" commtype="DIG" lat="40.6874" lon="27.1776">
    <comp name="--.HHE">
      <acc value="0.0232569640" flag="0"/>
      <vel value="0.0045655767" flag="0"/>
      <psa03 value="0.0219443544" flag="0"/>
