<?xml version="1.0" encoding="UTF-8" standalone="yes"?>
<!DOCTYPE earthquake SYSTEM "stationlist.dtd">
<stationlist created="" xmlns="ch.ethz.sed.shakemap.usgs.xml">
  <station code="BIGA" name="BIGA" netid="KO" insttype="CMG-5T" lat="40.2813" lon="27.1505">
    <comp name="--.HNN">
      <acc value="0.2201805792" flag="0"/>
      <vel value="0.0507495654" flag="0"/>
      <psa03 value="0.2723555441" flag="0"/>
      <psa10 value="0.0105501688" flag="0"/>
      <psa30 value="0.0009689313" flag="0"/>
    </comp>
    <comp name="--.HNE">
      <acc value="0.1264441770" flag="0"/>
      <vel value="0.0321916604" flag="0"/>
      <psa03 value="0.1378562459" flag="0"/>
      <psa10 value="0.0078800251" flag="0"/>
      <psa30 value="0.0009734592" flag="0"/>
    </comp>
    <comp name="--.HNZ">
      <acc value="0.1054364960" flag="0"/>
      <vel value="0.0180268436" flag="0"/>
      <psa03 value="0.0379238811" flag="0"/>
      <psa10 value="0.0034958780" flag="0"/>
      <psa30 value="0.0004951160" flag="0"/>
    </comp>
  </station>
  <station code="BUYK" name="BUYK" netid="KO" insttype="ACEBOX" lat="41.0168" lon="28.5828">
    <comp name="--.HNN">
      <acc value="0.0533223461" flag="0"/>
      <vel value="0.0131061536" flag="0"/>
      <psa03 value="0.0540741503" flag="0"/>
      <psa10 value="0.0079578062" flag="0"/>
      <psa30 value="0.0011626897" flag="0"/>
    </comp>
    <comp name="--.HNE">
      <acc value="0.0354232823" flag="0"/>
      <vel value="0.0097029298" flag="0"/>
      <psa03 value="0.0424805116" flag="0"/>
      <psa10 value="0.0097957601" flag="0"/>
      <psa30 value="0.0010327111" flag="0"/>
    </comp>
    <comp name="--.HNZ">
      <acc value="0.0284757158" flag="0"/>
      <vel value="0.0073091458" flag="0"/>
      <psa03 value="0.0276409811" flag="0"/>
      <psa10 value="0.0063170321" flag="0"/>
      <psa30 value="0.0004298673" flag="0"/>
    </comp>
  </station>
  <station code="CANM" name="CANM" netid="KO" insttype="CMG-5T" lat="40.0113" lon="27.0529">
    <comp name="--.HNN">
      <acc value="0.1126044644" flag="0"/>
      <vel value="0.0263485071" flag="0"/>
      <psa03 value="0.1143858836" flag="0"/>
      <psa10 value="0.0073162106" flag="0"/>
      <psa30 value="0.0006986546" flag="0"/>
    </comp>
    <comp name="--.HNZ">
      <acc value="0.1108800891" flag="0"/>
      <vel value="0.0247841173" flag="0"/>
      <psa03 value="0.0591940883" flag="0"/>
      <psa10 value="0.0041223197" flag="0"/>
      <psa30 value="0.0004166023" flag="0"/>
    </comp>
    <comp name="--.HNE">
      <acc value="0.0850358240" flag="0"/>
      <vel value="0.0177720464" flag="0"/>
      <psa03 value="0.0676473489" flag="0"/>
      <psa10 value="0.0071826679" flag="0"/>
      <psa30 value="0.0004760715" flag="0"/>
    </comp>
  </station>
  <station code="CRLU" name="CRLU" netid="KO" insttype="ACEBOX" lat="41.1428" lon="27.8215">
    <comp name="--.HNE">
      <acc value="0.5184580956" flag="0"/>
      <vel value="0.1636525198" flag="0"/>
      <psa03 value="0.5461851591" flag="0"/>
      <psa10 value="0.1324969770" flag="0"/>
      <psa30 value="0.0102219068" flag="0"/>
    </comp>
    <comp name="--.HNN">
      <acc value="0.2868709437" flag="0"/>
      <vel value="0.1195976364" flag="0"/>
      <psa03 value="0.6174666687" flag="0"/>
      <psa10 value="0.0975867869" flag="0"/>
      <psa30 value="0.0099465782" flag="0"/>
    </comp>
    <comp name="--.HNZ">
      <acc value="0.2934009225" flag="0"/>
      <vel value="0.0805691145" flag="0"/>
      <psa03 value="0.3576015386" flag="0"/>
      <psa10 value="0.0432376803" flag="0"/>
      <psa30 value="0.0040934545" flag="0"/>
    </comp>
  </station>
  <station code="DST" name="DST" netid="KO" insttype="CMG-5T" lat="39.6041" lon="28.6267">
    <comp name="--.HNE">
      <acc value="0.0385067159" flag="0"/>
      <vel value="0.0117311888" flag="0"/>
      <psa03 value="0.0856019044" flag="0"/>
      <psa10 value="0.0048212017" flag="0"/>
      <psa30 value="0.0003814321" flag="0"/>
    </comp>
    <comp name="--.HNN">
      <acc value="0.0343823516" flag="0"/>
      <vel value="0.0100193859" flag="0"/>
      <psa03 value="0.0515735876" flag="0"/>
      <psa10 value="0.0057172363" flag="0"/>
      <psa30 value="0.0003953034" flag="0"/>
    </comp>
    <comp name="--.HNZ">
      <acc value="0.0319250711" flag="0"/>
      <vel value="0.0084616114" flag="0"/>
      <psa03 value="0.0426850112" flag="0"/>
      <psa10 value="0.0044782624" flag="0"/>
      <psa30 value="0.0004563316" flag="0"/>
    </comp>
  </station>
  <station code="EDC" name="EDC" netid="KO" insttype="CMG-3T" lat="40.3465" lon="27.8618">
    <comp name="--.HHE">
      <acc value="0.6244632524" flag="0"/>
      <vel value="0.0994864855" flag="0"/>
      <psa03 value="0.2396392408" flag="0"/>
      <psa10 value="0.0355029319" flag="0"/>
      <psa30 value="0.0015335046" flag="0"/>
    </comp>
    <comp name="--.HHZ">
      <acc value="0.3584628141" flag="0"/>
      <vel value="0.0590662882" flag="0"/>
      <psa03 value="0.1703048461" flag="0"/>
      <psa10 value="0.0171486968" flag="0"/>
      <psa30 value="0.0014304332" flag="0"/>
    </comp>
    <comp name="--.HHN">
      <acc value="0.5700476063" flag="0"/>
      <vel value="0.0845177085" flag="0"/>
      <psa03 value="0.3200332054" flag="0"/>
      <psa10 value="0.0441976336" flag="0"/>
      <psa30 value="0.0023366818" flag="0"/>
    </comp>
  </station>
  <station code="KRBG" name="KRBG" netid="KO" insttype="CMG-5T" lat="40.3932" lon="27.2977">
    <comp name="--.HNE">
      <acc value="0.0666912442" flag="0"/>
      <vel value="0.0080167101" flag="0"/>
      <psa03 value="0.0315739322" flag="0"/>
      <psa10 value="0.0030674830" flag="0"/>
      <psa30 value="0.0002146952" flag="0"/>
    </comp>
    <comp name="--.HNN">
      <acc value="0.0470787279" flag="0"/>
      <vel value="0.0087558317" flag="0"/>
      <psa03 value="0.0392130620" flag="0"/>
      <psa10 value="0.0020777843" flag="0"/>
      <psa30 value="0.0002439971" flag="0"/>
    </comp>
    <comp name="--.HNZ">
      <acc value="0.0353635340" flag="0"/>
      <vel value="0.0056040542" flag="0"/>
      <psa03 value="0.0166506614" flag="0"/>
      <psa10 value="0.0020783893" flag="0"/>
      <psa30 value="0.0001802303" flag="0"/>
    </comp>
  </station>
  <station code="LAPK" name="LAPK" netid="KO" insttype="CMG-5T" lat="40.3151" lon="26.6425">
    <comp name="--.HNE">
      <acc value="0.0677762213" flag="0"/>
      <vel value="0.0184157961" flag="0"/>
      <psa03 value="0.1037427181" flag="0"/>
      <psa10 value="0.0126793846" flag="0"/>
      <psa30 value="0.0009340247" flag="0"/>
    </comp>
    <comp name="--.HNN">
      <acc value="0.0776224850" flag="0"/>
      <vel value="0.0238736718" flag="0"/>
      <psa03 value="0.0786665694" flag="0"/>
      <psa10 value="0.0092836473" flag="0"/>
      <psa30 value="0.0009055843" flag="0"/>
    </comp>
    <comp name="--.HNZ">
      <acc value="0.0476766724" flag="0"/>
      <vel value="0.0090403722" flag="0"/>
      <psa03 value="0.0406855420" flag="0"/>
      <psa10 value="0.0049690780" flag="0"/>
      <psa30 value="0.0005507583" flag="0"/>
    </comp>
  </station>
  <station code="MDNY" name="MDNY" netid="KO" insttype="CMG-3ESP" lat="40.3709" lon="28.8846">
    <comp name="--.HHE">
      <acc value="0.2182016749" flag="0"/>
      <vel value="0.0542272728" flag="0"/>
      <psa03 value="0.3431690129" flag="0"/>
      <psa10 value="0.0171088693" flag="0"/>
      <psa30 value="0.0012652274" flag="0"/>
    </comp>
    <comp name="--.HHN">
      <acc value="0.2198650855" flag="0"/>
      <vel value="0.0782841792" flag="0"/>
      <psa03 value="0.6291978920" flag="0"/>
      <psa10 value="0.0245721674" flag="0"/>
      <psa30 value="0.0019383961" flag="0"/>
    </comp>
    <comp name="--.HHZ">
      <acc value="0.1494019386" flag="0"/>
      <vel value="0.0305353456" flag="0"/>
      <psa03 value="0.1347796544" flag="0"/>
      <psa10 value="0.0086679479" flag="0"/>
      <psa30 value="0.0005781073" flag="0"/>
    </comp>
  </station>
  <station code="ORLT" name="ORLT" netid="KO" insttype="CMG-5T" lat="40.0452" lon="28.8914">
    <comp name="--.HNE">
      <acc value="0.0798120077" flag="0"/>
      <vel value="0.0295862950" flag="0"/>
      <psa03 value="0.1727597113" flag="0"/>
      <psa10 value="0.0125128912" flag="0"/>
      <psa30 value="0.0008758901" flag="0"/>
    </comp>
    <comp name="--.HNZ">
      <acc value="0.0242300574" flag="0"/>
      <vel value="0.0070289301" flag="0"/>
      <psa03 value="0.0347012673" flag="0"/>
      <psa10 value="0.0068116374" flag="0"/>
      <psa30 value="0.0004691554" flag="0"/>
    </comp>
    <comp name="--.HNN">
      <acc value="0.0656718801" flag="0"/>
      <vel value="0.0196594857" flag="0"/>
      <psa03 value="0.1088891486" flag="0"/>
      <psa10 value="0.0134819191" flag="0"/>
      <psa30 value="0.0010448122" flag="0"/>
    </comp>
  </station>
  <station code="SINB" name="SINB" netid="KO" insttype="CMG-5T" lat="40.9998" lon="28.5392">
    <comp name="--.HNN">
      <acc value="0.0317870198" flag="0"/>
      <vel value="0.0107524281" flag="0"/>
      <psa03 value="0.0502289902" flag="0"/>
      <psa10 value="0.0045334398" flag="0"/>
      <psa30 value="0.0007295385" flag="0"/>
    </comp>
    <comp name="--.HNZ">
      <acc value="0.0247975748" flag="0"/>
      <vel value="0.0067918574" flag="0"/>
      <psa03 value="0.0359635975" flag="0"/>
      <psa10 value="0.0026696089" flag="0"/>
      <psa30 value="0.0004691497" flag="0"/>
    </comp>
  </station>
  <station code="SLVT" name="SLVT" netid="KO" insttype="CMG-5T" lat="41.2288" lon="28.2098">
    <comp name="--.HNN">
      <acc value="0.0277900127" flag="0"/>
      <vel value="0.0111544155" flag="0"/>
      <psa03 value="0.0355510619" flag="0"/>
      <psa10 value="0.0079812099" flag="0"/>
      <psa30 value="0.0005772043" flag="0"/>
    </comp>
    <comp name="--.HNE">
      <acc value="0.0283019675" flag="0"/>
      <vel value="0.0085516633" flag="0"/>
      <psa03 value="0.0319144464" flag="0"/>
      <psa10 value="0.0059292613" flag="0"/>
      <psa30 value="0.0007573238" flag="0"/>
    </comp>
    <comp name="--.HNZ">
      <acc value="0.0208161183" flag="0"/>
      <vel value="0.0055565588" flag="0"/>
      <psa03 value="0.0231794822" flag="0"/>
      <psa10 value="0.0029269362" flag="0"/>
      <psa30 value="0.0003916161" flag="0"/>
    </comp>
  </station>
  <station code="SOMA" name="SOMA" netid="KO" insttype="CMG-5T" lat="39.1564" lon="27.5341">
    <comp name="--.HNZ">
      <acc value="0.0136134899" flag="0"/>
      <vel value="0.0040534350" flag="0"/>
      <psa03 value="0.0267629586" flag="0"/>
      <psa10 value="0.0041323058" flag="0"/>
      <psa30 value="0.0003086360" flag="0"/>
    </comp>
    <comp name="--.HNE">
      <acc value="0.0184283480" flag="0"/>
      <vel value="0.0062757985" flag="0"/>
      <psa03 value="0.0363269070" flag="0"/>
      <psa10 value="0.0058529696" flag="0"/>
      <psa30 value="0.0004972077" flag="0"/>
    </comp>
    <comp name="--.HNN">
      <acc value="0.0127836370" flag="0"/>
      <vel value="0.0063192197" flag="0"/>
      <psa03 value="0.0305330376" flag="0"/>
      <psa10 value="0.0074311679" flag="0"/>
      <psa30 value="0.0005750312" flag="0"/>
    </comp>
  </station>
  <station code="SUSR" name="SUSR" netid="KO" insttype="CMG-5T" lat="39.9627" lon="28.0835">
    <comp name="--.HNN">
      <acc value="0.0578296513" flag="0"/>
      <vel value="0.0096171474" flag="0"/>
      <psa03 value="0.0352559915" flag="0"/>
      <psa10 value="0.0032907633" flag="0"/>
      <psa30 value="0.0004038872" flag="0"/>
    </comp>
    <comp name="--.HNE">
      <acc value="0.0600300298" flag="0"/>
      <vel value="0.0099160009" flag="0"/>
      <psa03 value="0.0638811515" flag="0"/>
      <psa10 value="0.0028907337" flag="0"/>
      <psa30 value="0.0002673078" flag="0"/>
    </comp>
    <comp name="--.HNZ">
      <acc value="0.0586943489" flag="0"/>
      <vel value="0.0134831659" flag="0"/>
      <psa03 value="0.0554190603" flag="0"/>
      <psa10 value="0.0055912649" flag="0"/>
      <psa30 value="0.0003782516" flag="0"/>
    </comp>
  </station>
</stationlist>
