<?xml version="1.0" encoding="UTF-8" standalone="yes"?>
<!DOCTYPE earthquake SYSTEM "stationlist.dtd">
<stationlist created="" xmlns="ch.ethz.sed.shakemap.usgs.xml">
  <station code="BIGA" name="BIGA" netid="KO" insttype="CMG-5T" lat="40.2813" lon="27.1505">
    <comp name="--.HNN">
      <acc value="0.2201805787" flag="0"/>
      <vel value="0.0507495654" flag="0"/>
      <psa03 value="0.2723555441" flag="0"/>
      <psa10 value="0.0105501675" flag="0"/>
      <psa30 value="0.0009671544" flag="0"/>
    </comp>
    <comp name="--.HNE">
      <acc value="0.1264441743" flag="0"/>
      <vel value="0.0321916610" flag="0"/>
      <psa03 value="0.1378562459" flag="0"/>
      <psa10 value="0.0078800248" flag="0"/>
      <psa30 value="0.0009738326" flag="0"/>
    </comp>
    <comp name="--.HNZ">
      <acc value="0.1054364969" flag="0"/>
      <vel value="0.0180268418" flag="0"/>
      <psa03 value="0.0379238811" flag="0"/>
      <psa10 value="0.0034958747" flag="0"/>
      <psa30 value="0.0004951841" flag="0"/>
    </comp>
  </station>
  <station code="BUYK" name="BUYK" netid="KO" insttype="ACEBOX" lat="41.0168" lon="28.5828">
    <comp name="--.HNE">
      <acc value="0.0354232825" flag="0"/>
      <vel value="0.0097029295" flag="0"/>
      <psa03 value="0.0424805116" flag="0"/>
      <psa10 value="0.0097957601" flag="0"/>
      <psa30 value="0.0010326660" flag="0"/>
    </comp>
    <comp name="--.HNZ">
      <acc value="0.0284757162" flag="0"/>
      <vel value="0.0073091473" flag="0"/>
      <psa03 value="0.0276409811" flag="0"/>
      <psa10 value="0.0063170321" flag="0"/>
      <psa30 value="0.0004297869" flag="0"/>
    </comp>
    <comp name="--.HNN">
      <acc value="0.0533223475" flag="0"/>
      <vel value="0.0131061589" flag="0"/>
      <psa03 value="0.0540741503" flag="0"/>
      <psa10 value="0.0079578062" flag="0"/>
      <psa30 value="0.0011629040" flag="0"/>
    </comp>
  </station>
  <station code="CANM" name="CANM" netid="KO" insttype="CMG-5T" lat="40.0113" lon="27.0529">
    <comp name="--.HNE">
      <acc value="0.0850358242" flag="0"/>
      <vel value="0.0177720466" flag="0"/>
      <psa03 value="0.0676473489" flag="0"/>
      <psa10 value="0.0071826683" flag="0"/>
      <psa30 value="0.0004762255" flag="0"/>
    </comp>
    <comp name="--.HNN">
      <acc value="0.1126044647" flag="0"/>
      <vel value="0.0263485066" flag="0"/>
      <psa03 value="0.1143858836" flag="0"/>
      <psa10 value="0.0073162110" flag="0"/>
      <psa30 value="0.0006986597" flag="0"/>
    </comp>
    <comp name="--.HNZ">
      <acc value="0.1108800896" flag="0"/>
      <vel value="0.0247841171" flag="0"/>
      <psa03 value="0.0591940883" flag="0"/>
      <psa10 value="0.0041223196" flag="0"/>
      <psa30 value="0.0004165243" flag="0"/>
    </comp>
  </station>
  <station code="CRLU" name="CRLU" netid="KO" insttype="ACEBOX" lat="41.1428" lon="27.8215">
    <comp name="--.HNE">
      <acc value="0.5184580933" flag="0"/>
      <vel value="0.1636524847" flag="0"/>
      <psa03 value="0.5461851591" flag="0"/>
      <psa10 value="0.1324969775" flag="0"/>
      <psa30 value="0.0102244266" flag="0"/>
    </comp>
    <comp name="--.HNN">
      <acc value="0.2868709445" flag="0"/>
      <vel value="0.1195976305" flag="0"/>
      <psa03 value="0.6174666687" flag="0"/>
      <psa10 value="0.0975867866" flag="0"/>
      <psa30 value="0.0099482009" flag="0"/>
    </comp>
    <comp name="--.HNZ">
      <acc value="0.2934009238" flag="0"/>
      <vel value="0.0805691214" flag="0"/>
      <psa03 value="0.3576015386" flag="0"/>
      <psa10 value="0.0432376803" flag="0"/>
      <psa30 value="0.0040932257" flag="0"/>
    </comp>
  </station>
  <station code="DST" name="DST" netid="KO" insttype="CMG-5T" lat="39.6041" lon="28.6267">
    <comp name="--.HNE">
      <acc value="0.0385067159" flag="0"/>
      <vel value="0.0117311890" flag="0"/>
      <psa03 value="0.0856019044" flag="0"/>
      <psa10 value="0.0048212018" flag="0"/>
      <psa30 value="0.0003818961" flag="0"/>
    </comp>
    <comp name="--.HNN">
      <acc value="0.0343823515" flag="0"/>
      <vel value="0.0100193850" flag="0"/>
      <psa03 value="0.0515735876" flag="0"/>
      <psa10 value="0.0057172363" flag="0"/>
      <psa30 value="0.0003955516" flag="0"/>
    </comp>
    <comp name="--.HNZ">
      <acc value="0.0319250708" flag="0"/>
      <vel value="0.0084616114" flag="0"/>
      <psa03 value="0.0426850112" flag="0"/>
      <psa10 value="0.0044782624" flag="0"/>
      <psa30 value="0.0004563388" flag="0"/>
    </comp>
  </station>
  <station code="EDC" name="EDC" netid="KO" insttype="CMG-3T" lat="40.3465" lon="27.8618">
    <comp name="--.HHZ">
      <acc value="0.3584628141" flag="0"/>
      <vel value="0.0590662885" flag="0"/>
      <psa03 value="0.1703048461" flag="0"/>
      <psa10 value="0.0171487036" flag="0"/>
      <psa30 value="0.0014312373" flag="0"/>
    </comp>
    <comp name="--.HHN">
      <acc value="0.5700476052" flag="0"/>
      <vel value="0.0845177073" flag="0"/>
      <psa03 value="0.3200332054" flag="0"/>
      <psa10 value="0.0441976320" flag="0"/>
      <psa30 value="0.0023364343" flag="0"/>
    </comp>
    <comp name="--.HHE">
      <acc value="0.6244632534" flag="0"/>
      <vel value="0.0994864854" flag="0"/>
      <psa03 value="0.2396392408" flag="0"/>
      <psa10 value="0.0355029320" flag="0"/>
      <psa30 value="0.0015343443" flag="0"/>
    </comp>
  </station>
  <station code="KRBG" name="KRBG" netid="KO" insttype="CMG-5T" lat="40.3932" lon="27.2977">
    <comp name="--.HNN">
      <acc value="0.0470787278" flag="0"/>
      <vel value="0.0087558319" flag="0"/>
      <psa03 value="0.0392130620" flag="0"/>
      <psa10 value="0.0020777843" flag="0"/>
      <psa30 value="0.0002439975" flag="0"/>
    </comp>
    <comp name="--.HNZ">
      <acc value="0.0353635341" flag="0"/>
      <vel value="0.0056040543" flag="0"/>
      <psa03 value="0.0166506614" flag="0"/>
      <psa10 value="0.0020783896" flag="0"/>
      <psa30 value="0.0001802328" flag="0"/>
    </comp>
    <comp name="--.HNE">
      <acc value="0.0666912440" flag="0"/>
      <vel value="0.0080167101" flag="0"/>
      <psa03 value="0.0315739322" flag="0"/>
      <psa10 value="0.0030674833" flag="0"/>
      <psa30 value="0.0002147556" flag="0"/>
    </comp>
  </station>
  <station code="LAPK" name="LAPK" netid="KO" insttype="CMG-5T" lat="40.3151" lon="26.6425">
    <comp name="--.HNE">
      <acc value="0.0677762225" flag="0"/>
      <vel value="0.0184158069" flag="0"/>
      <psa03 value="0.1037427181" flag="0"/>
      <psa10 value="0.0126793841" flag="0"/>
      <psa30 value="0.0009358830" flag="0"/>
    </comp>
    <comp name="--.HNN">
      <acc value="0.0776224821" flag="0"/>
      <vel value="0.0238736696" flag="0"/>
      <psa03 value="0.0786665694" flag="0"/>
      <psa10 value="0.0092836473" flag="0"/>
      <psa30 value="0.0009056218" flag="0"/>
    </comp>
    <comp name="--.HNZ">
      <acc value="0.0476766798" flag="0"/>
      <vel value="0.0090403684" flag="0"/>
      <psa03 value="0.0406855420" flag="0"/>
      <psa10 value="0.0049690785" flag="0"/>
      <psa30 value="0.0005509076" flag="0"/>
    </comp>
  </station>
  <station code="MDNY" name="MDNY" netid="KO" insttype="CMG-3ESP" lat="40.3709" lon="28.8846">
    <comp name="--.HHZ">
      <acc value="0.1494019385" flag="0"/>
      <vel value="0.0305353486" flag="0"/>
      <psa03 value="0.1347796544" flag="0"/>
      <psa10 value="0.0086679479" flag="0"/>
      <psa30 value="0.0005780847" flag="0"/>
    </comp>
    <comp name="--.HHN">
      <acc value="0.2198650855" flag="0"/>
      <vel value="0.0782841698" flag="0"/>
      <psa03 value="0.6291978920" flag="0"/>
      <psa10 value="0.0245721674" flag="0"/>
      <psa30 value="0.0019383935" flag="0"/>
    </comp>
    <comp name="--.HHE">
      <acc value="0.2182016749" flag="0"/>
      <vel value="0.0542272619" flag="0"/>
      <psa03 value="0.3431690129" flag="0"/>
      <psa10 value="0.0171088692" flag="0"/>
      <psa30 value="0.0012651674" flag="0"/>
    </comp>
  </station>
  <station code="ORLT" name="ORLT" netid="KO" insttype="CMG-5T" lat="40.0452" lon="28.8914">
    <comp name="--.HNE">
      <acc value="0.0798120079" flag="0"/>
      <vel value="0.0295862952" flag="0"/>
      <psa03 value="0.1727597113" flag="0"/>
      <psa10 value="0.0125128911" flag="0"/>
      <psa30 value="0.0008756883" flag="0"/>
    </comp>
    <comp name="--.HNN">
      <acc value="0.0656718803" flag="0"/>
      <vel value="0.0196594848" flag="0"/>
      <psa03 value="0.1088891486" flag="0"/>
      <psa10 value="0.0134819191" flag="0"/>
      <psa30 value="0.0010446115" flag="0"/>
    </comp>
    <comp name="--.HNZ">
      <acc value="0.0242300585" flag="0"/>
      <vel value="0.0070289309" flag="0"/>
      <psa03 value="0.0347012673" flag="0"/>
      <psa10 value="0.0068116373" flag="0"/>
      <psa30 value="0.0004690826" flag="0"/>
    </comp>
  </station>
  <station code="SINB" name="SINB" netid="KO" insttype="CMG-5T" lat="40.9998" lon="28.5392">
    <comp name="--.HNN">
      <acc value="0.0317870190" flag="0"/>
      <vel value="0.0107524269" flag="0"/>
      <psa03 value="0.0502289902" flag="0"/>
      <psa10 value="0.0045334398" flag="0"/>
      <psa30 value="0.0007288719" flag="0"/>
    </comp>
    <comp name="--.HNZ">
      <acc value="0.0247975738" flag="0"/>
      <vel value="0.0067918565" flag="0"/>
      <psa03 value="0.0359635975" flag="0"/>
      <psa10 value="0.0026696089" flag="0"/>
      <psa30 value="0.0004713424" flag="0"/>
    </comp>
  </station>
  <station code="SLVT" name="SLVT" netid="KO" insttype="CMG-5T" lat="41.2288" lon="28.2098">
    <comp name="--.HNE">
      <acc value="0.0283019673" flag="0"/>
      <vel value="0.0085516735" flag="0"/>
      <psa03 value="0.0319144464" flag="0"/>
      <psa10 value="0.0059292613" flag="0"/>
      <psa30 value="0.0007571580" flag="0"/>
    </comp>
    <comp name="--.HNN">
      <acc value="0.0277900129" flag="0"/>
      <vel value="0.0111544101" flag="0"/>
      <psa03 value="0.0355510619" flag="0"/>
      <psa10 value="0.0079812102" flag="0"/>
      <psa30 value="0.0005772245" flag="0"/>
    </comp>
    <comp name="--.HNZ">
      <acc value="0.0208161184" flag="0"/>
      <vel value="0.0055565558" flag="0"/>
      <psa03 value="0.0231794822" flag="0"/>
      <psa10 value="0.0029269362" flag="0"/>
      <psa30 value="0.0003912847" flag="0"/>
    </comp>
  </station>
  <station code="SOMA" name="SOMA" netid="KO" insttype="CMG-5T" lat="39.1564" lon="27.5341">
    <comp name="--.HNN">
      <acc value="0.0127836378" flag="0"/>
      <vel value="0.0063192194" flag="0"/>
      <psa03 value="0.0305330376" flag="0"/>
      <psa10 value="0.0074311680" flag="0"/>
      <psa30 value="0.0005751747" flag="0"/>
    </comp>
    <comp name="--.HNE">
      <acc value="0.0184283486" flag="0"/>
      <vel value="0.0062757993" flag="0"/>
      <psa03 value="0.0363269070" flag="0"/>
      <psa10 value="0.0058529696" flag="0"/>
      <psa30 value="0.0004971477" flag="0"/>
    </comp>
    <comp name="--.HNZ">
      <acc value="0.0136134889" flag="0"/>
      <vel value="0.0040534345" flag="0"/>
      <psa03 value="0.0267629586" flag="0"/>
      <psa10 value="0.0041323058" flag="0"/>
      <psa30 value="0.0003085823" flag="0"/>
    </comp>
  </station>
  <station code="SUSR" name="SUSR" netid="KO" insttype="CMG-5T" lat="39.9627" lon="28.0835">
    <comp name="--.HNN">
      <acc value="0.0578296518" flag="0"/>
      <vel value="0.0096171475" flag="0"/>
      <psa03 value="0.0352559915" flag="0"/>
      <psa10 value="0.0032907640" flag="0"/>
      <psa30 value="0.0004035881" flag="0"/>
    </comp>
    <comp name="--.HNE">
      <acc value="0.0600300297" flag="0"/>
      <vel value="0.0099160007" flag="0"/>
      <psa03 value="0.0638811515" flag="0"/>
      <psa10 value="0.0028907317" flag="0"/>
      <psa30 value="0.0002673511" flag="0"/>
    </comp>
    <comp name="--.HNZ">
      <acc value="0.0586943487" flag="0"/>
      <vel value="0.0134831636" flag="0"/>
      <psa03 value="0.0554190603" flag="0"/>
      <psa10 value="0.0055912628" flag="0"/>
      <psa30 value="0.0003784719" flag="0"/>
    </comp>
  </station>
</stationlist>
