<stationlist created="1675692161">
	<station code="LIA" name="LIA" netid="HL" source="National Observatory of Athens Seismic Network" insttype="" lat="39.89725" lon="25.18055">
		<comp name="00.HNE" depth="0.0">
			<acc value="0.0389207460751" flag="0"/>
			<vel value="0.00408784763441" flag="0"/>
			<psa03 value="0.0151529986034" flag="0"/>
			<psa10 value="0.00404974702588" flag="0"/>
			<psa30 value="0.000278155926465" flag="0"/>
		</comp>
		<comp name="00.HNN" depth="0.0">
			<acc value="0.0116585741321" flag="0"/>
			<vel value="0.0036239740982" flag="0"/>
			<psa03 value="0.0142266025989" flag="0"/>
			<psa10 value="0.00363625822801" flag="0"/>
			<psa30 value="0.000344580196539" flag="0"/>
		</comp>
		<comp name="00.HNZ" depth="0.0">
			<acc value="0.0268142356858" flag="0"/>
			<vel value="0.00193878633624" flag="0"/>
			<psa03 value="0.0068443401227" flag="0"/>
			<psa10 value="0.00174784301258" flag="0"/>
			<psa30 value="0.00016807806143" flag="0"/>
		</comp>
	</station>
	<station code="CANM" name="CANM" netid="KO" source="Bogazici University Kandilli Observatory And Earthquake Research Institute (KOERI)" insttype="" lat="40.0113" lon="27.0529">
		<comp name=".HNE" depth="0.0">
			<acc value="0.0835278356584" flag="0"/>
			<vel value="0.0183234529723" flag="0"/>
			<psa03 value="0.0668631949835" flag="0"/>
			<psa10 value="0.00717628273727" flag="0"/>
			<psa30 value="0.00046723897312" flag="0"/>
		</comp>
		<comp name=".HNN" depth="0.0">
			<acc value="0.10958546039" flag="0"/>
			<vel value="0.0269928987615" flag="0"/>
			<psa03 value="0.117319084314" flag="0"/>
			<psa10 value="0.00733150833269" flag="0"/>
			<psa30 value="0.000648034231169" flag="0"/>
		</comp>
		<comp name=".HNZ" depth="0.0">
			<acc value="0.109264536222" flag="0"/>
			<vel value="0.025761584978" flag="0"/>
			<psa03 value="0.0608563283083" flag="0"/>
			<psa10 value="0.00413163932584" flag="0"/>
			<psa30 value="0.000411804988393" flag="0"/>
		</comp>
	</station>
	<station code="EDC" name="EDC" netid="KO" source="Bogazici University Kandilli Observatory And Earthquake Research Institute (KOERI)" insttype="" lat="40.3465" lon="27.8618">
		<comp name=".HNE" depth="0.0">
			<acc value="0.502002310429" flag="0"/>
			<vel value="0.0980101033803" flag="0"/>
			<psa03 value="0.25669312966" flag="0"/>
			<psa10 value="0.0352407507768" flag="0"/>
			<psa30 value="0.00172670240639" flag="0"/>
		</comp>
		<comp name=".HNN" depth="0.0">
			<acc value="0.501349300694" flag="0"/>
			<vel value="0.0812743646052" flag="0"/>
			<psa03 value="0.336198375659" flag="0"/>
			<psa10 value="0.0440910333145" flag="0"/>
			<psa30 value="0.00238204300699" flag="0"/>
		</comp>
		<comp name=".HNZ" depth="0.0">
			<acc value="0.338370692883" flag="0"/>
			<vel value="0.0589144605139" flag="0"/>
			<psa03 value="0.17558754848" flag="0"/>
			<psa10 value="0.0175223532699" flag="0"/>
			<psa30 value="0.00140498703183" flag="0"/>
		</comp>
	</station>
	<station code="GPA" name="GPA" netid="KO" source="Bogazici University Kandilli Observatory And Earthquake Research Institute (KOERI)" insttype="" lat="40.2911" lon="30.3171">
		<comp name=".HNE" depth="0.0">
			<acc value="0.00458136857339" flag="0"/>
			<vel value="0.0034298836546" flag="0"/>
			<psa03 value="0.0140268393655" flag="0"/>
			<psa10 value="0.00362139739981" flag="0"/>
			<psa30 value="0.000444898430671" flag="0"/>
		</comp>
		<comp name=".HNN" depth="0.0">
			<acc value="0.00451014400741" flag="0"/>
			<vel value="0.0033476249381" flag="0"/>
			<psa03 value="0.0145180685216" flag="0"/>
			<psa10 value="0.00289754952656" flag="0"/>
			<psa30 value="0.000486925381417" flag="0"/>
		</comp>
		<comp name=".HNZ" depth="0.0">
			<acc value="0.00225145336481" flag="0"/>
			<vel value="0.00158409975971" flag="0"/>
			<psa03 value="0.00634533831627" flag="0"/>
			<psa10 value="0.00203388864139" flag="0"/>
			<psa30 value="0.000396842721174" flag="0"/>
		</comp>
	</station>
	<station code="KRBN" name="KRBN" netid="KO" source="Bogazici University Kandilli Observatory And Earthquake Research Institute (KOERI)" insttype="" lat="38.5936" lon="26.5537">
		<comp name=".HNE" depth="0.0">
			<acc value="0.08872630617" flag="0"/>
			<vel value="0.216298560606" flag="0"/>
			<psa03 value="0.38526548028" flag="0"/>
			<psa10 value="0.330573448868" flag="0"/>
			<psa30 value="0.121472620298" flag="0"/>
		</comp>
		<comp name=".HNN" depth="0.0">
			<acc value="0.131248595923" flag="0"/>
			<vel value="0.32364675063" flag="0"/>
			<psa03 value="0.574594730748" flag="0"/>
			<psa10 value="0.490027621923" flag="0"/>
			<psa30 value="0.179846220596" flag="0"/>
		</comp>
		<comp name=".HNZ" depth="0.0">
			<acc value="0.108673200374" flag="0"/>
			<vel value="0.267422712372" flag="0"/>
			<psa03 value="0.476298802458" flag="0"/>
			<psa10 value="0.400022679539" flag="0"/>
			<psa30 value="0.144423260666" flag="0"/>
		</comp>
	</station>
	<station code="ORLT" name="ORLT" netid="KO" source="Bogazici University Kandilli Observatory And Earthquake Research Institute (KOERI)" insttype="" lat="40.0452" lon="28.8914">
		<comp name=".HNE" depth="0.0">
			<acc value="0.078707929422" flag="0"/>
			<vel value="0.0295901724571" flag="0"/>
			<psa03 value="0.171569511471" flag="0"/>
			<psa10 value="0.0125076870104" flag="0"/>
			<psa30 value="0.000874928063857" flag="0"/>
		</comp>
		<comp name=".HNN" depth="0.0">
			<acc value="0.0632449315264" flag="0"/>
			<vel value="0.0197027477797" flag="0"/>
			<psa03 value="0.109698725336" flag="0"/>
			<psa10 value="0.0134764999395" flag="0"/>
			<psa30 value="0.00101608189377" flag="0"/>
		</comp>
		<comp name=".HNZ" depth="0.0">
			<acc value="0.0241777072227" flag="0"/>
			<vel value="0.00711083914075" flag="0"/>
			<psa03 value="0.0353400624599" flag="0"/>
			<psa10 value="0.00678687756607" flag="0"/>
			<psa30 value="0.000463205320497" flag="0"/>
		</comp>
	</station>
</stationlist>
