<?xml version="1.0" encoding="UTF-8" standalone="yes"?>
<!DOCTYPE earthquake SYSTEM "stationlist.dtd">
<stationlist created="" xmlns="ch.ethz.sed.shakemap.usgs.xml">
  <station code="BIGA" name="BIGA" netid="KO" insttype="CMG-5T" lat="40.2813" lon="27.1505">
    <comp name="--.HNE">
      <acc value="0.1264441794" flag="0"/>
      <vel value="0.0321916592" flag="0"/>
      <psa03 value="0.1378562459" flag="0"/>
      <psa10 value="0.0078800250" flag="0"/>
      <psa30 value="0.0009731200" flag="0"/>
    </comp>
    <comp name="--.HNZ">
      <acc value="0.1054364942" flag="0"/>
      <vel value="0.0180268450" flag="0"/>
      <psa03 value="0.0379238811" flag="0"/>
      <psa10 value="0.0034958818" flag="0"/>
      <psa30 value="0.0004948496" flag="0"/>
    </comp>
    <comp name="--.HNN">
      <acc value="0.2201805794" flag="0"/>
      <vel value="0.0507495676" flag="0"/>
      <psa03 value="0.2723555441" flag="0"/>
      <psa10 value="0.0105501691" flag="0"/>
      <psa30 value="0.0009690766" flag="0"/>
    </comp>
  </station>
  <station code="BUYK" name="BUYK" netid="KO" insttype="ACEBOX" lat="41.0168" lon="28.5828">
    <comp name="--.HNN">
      <acc value="0.0533223464" flag="0"/>
      <vel value="0.0131061542" flag="0"/>
      <psa03 value="0.0540741503" flag="0"/>
      <psa10 value="0.0079578062" flag="0"/>
      <psa30 value="0.0011627341" flag="0"/>
    </comp>
    <comp name="--.HNZ">
      <acc value="0.0284757159" flag="0"/>
      <vel value="0.0073091457" flag="0"/>
      <psa03 value="0.0276409811" flag="0"/>
      <psa10 value="0.0063170321" flag="0"/>
      <psa30 value="0.0004298545" flag="0"/>
    </comp>
    <comp name="--.HNE">
      <acc value="0.0354232823" flag="0"/>
      <vel value="0.0097029298" flag="0"/>
      <psa03 value="0.0424805116" flag="0"/>
      <psa10 value="0.0097957601" flag="0"/>
      <psa30 value="0.0010327241" flag="0"/>
    </comp>
  </station>
  <station code="CANM" name="CANM" netid="KO" insttype="CMG-5T" lat="40.0113" lon="27.0529">
    <comp name="--.HNN">
      <acc value="0.1126044643" flag="0"/>
      <vel value="0.0263485073" flag="0"/>
      <psa03 value="0.1143858836" flag="0"/>
      <psa10 value="0.0073162103" flag="0"/>
      <psa30 value="0.0006986458" flag="0"/>
    </comp>
    <comp name="--.HNE">
      <acc value="0.0850358239" flag="0"/>
      <vel value="0.0177720467" flag="0"/>
      <psa03 value="0.0676473489" flag="0"/>
      <psa10 value="0.0071826678" flag="0"/>
      <psa30 value="0.0004762407" flag="0"/>
    </comp>
    <comp name="--.HNZ">
      <acc value="0.1108800888" flag="0"/>
      <vel value="0.0247841171" flag="0"/>
      <psa03 value="0.0591940883" flag="0"/>
      <psa10 value="0.0041223198" flag="0"/>
      <psa30 value="0.0004165236" flag="0"/>
    </comp>
  </station>
  <station code="DST" name="DST" netid="KO" insttype="CMG-5T" lat="39.6041" lon="28.6267">
    <comp name="--.HNZ">
      <acc value="0.0319250699" flag="0"/>
      <vel value="0.0084616130" flag="0"/>
      <psa03 value="0.0426850112" flag="0"/>
      <psa10 value="0.0044782628" flag="0"/>
      <psa30 value="0.0004559013" flag="0"/>
    </comp>
    <comp name="--.HNN">
      <acc value="0.0343823507" flag="0"/>
      <vel value="0.0100193810" flag="0"/>
      <psa03 value="0.0515735876" flag="0"/>
      <psa10 value="0.0057172361" flag="0"/>
      <psa30 value="0.0003963588" flag="0"/>
    </comp>
    <comp name="--.HNE">
      <acc value="0.0385067159" flag="0"/>
      <vel value="0.0117311917" flag="0"/>
      <psa03 value="0.0856019044" flag="0"/>
      <psa10 value="0.0048212026" flag="0"/>
      <psa30 value="0.0003807750" flag="0"/>
    </comp>
  </station>
  <station code="EDC" name="EDC" netid="KO" insttype="CMG-3T" lat="40.3465" lon="27.8618">
    <comp name="--.HHZ">
      <acc value="0.3584628144" flag="0"/>
      <vel value="0.0590662939" flag="0"/>
      <psa03 value="0.1703048461" flag="0"/>
      <psa10 value="0.0171487106" flag="0"/>
      <psa30 value="0.0014311170" flag="0"/>
    </comp>
    <comp name="--.HHN">
      <acc value="0.5700476064" flag="0"/>
      <vel value="0.0845177103" flag="0"/>
      <psa03 value="0.3200332054" flag="0"/>
      <psa10 value="0.0441976279" flag="0"/>
      <psa30 value="0.0023362299" flag="0"/>
    </comp>
    <comp name="--.HHE">
      <acc value="0.6244632517" flag="0"/>
      <vel value="0.0994864864" flag="0"/>
      <psa03 value="0.2396392408" flag="0"/>
      <psa10 value="0.0355029341" flag="0"/>
      <psa30 value="0.0015348150" flag="0"/>
    </comp>
  </station>
  <station code="KRBG" name="KRBG" netid="KO" insttype="CMG-5T" lat="40.3932" lon="27.2977">
    <comp name="--.HNE">
      <acc value="0.0666912447" flag="0"/>
      <vel value="0.0080167104" flag="0"/>
      <psa03 value="0.0315739322" flag="0"/>
      <psa10 value="0.0030674817" flag="0"/>
      <psa30 value="0.0002142984" flag="0"/>
    </comp>
    <comp name="--.HNZ">
      <acc value="0.0353635337" flag="0"/>
      <vel value="0.0056040535" flag="0"/>
      <psa03 value="0.0166506614" flag="0"/>
      <psa10 value="0.0020783873" flag="0"/>
      <psa30 value="0.0001802184" flag="0"/>
    </comp>
    <comp name="--.HNN">
      <acc value="0.0470787281" flag="0"/>
      <vel value="0.0087558304" flag="0"/>
      <psa03 value="0.0392130620" flag="0"/>
      <psa10 value="0.0020777839" flag="0"/>
      <psa30 value="0.0002439963" flag="0"/>
    </comp>
  </station>
  <station code="LAPK" name="LAPK" netid="KO" insttype="CMG-5T" lat="40.3151" lon="26.6425">
    <comp name="--.HNE">
      <acc value="0.0677762213" flag="0"/>
      <vel value="0.0184157966" flag="0"/>
      <psa03 value="0.1037427181" flag="0"/>
      <psa10 value="0.0126793845" flag="0"/>
      <psa30 value="0.0009341164" flag="0"/>
    </comp>
    <comp name="--.HNZ">
      <acc value="0.0476766729" flag="0"/>
      <vel value="0.0090403720" flag="0"/>
      <psa03 value="0.0406855420" flag="0"/>
      <psa10 value="0.0049690780" flag="0"/>
      <psa30 value="0.0005507666" flag="0"/>
    </comp>
    <comp name="--.HNN">
      <acc value="0.0776224849" flag="0"/>
      <vel value="0.0238736716" flag="0"/>
      <psa03 value="0.0786665694" flag="0"/>
      <psa10 value="0.0092836473" flag="0"/>
      <psa30 value="0.0009055919" flag="0"/>
    </comp>
  </station>
  <station code="MDNY" name="MDNY" netid="KO" insttype="CMG-3ESP" lat="40.3709" lon="28.8846">
    <comp name="--.HHN">
      <acc value="0.2198650856" flag="0"/>
      <vel value="0.0782841770" flag="0"/>
      <psa03 value="0.6291978920" flag="0"/>
      <psa10 value="0.0245721674" flag="0"/>
      <psa30 value="0.0019383204" flag="0"/>
    </comp>
    <comp name="--.HHE">
      <acc value="0.2182016749" flag="0"/>
      <vel value="0.0542272859" flag="0"/>
      <psa03 value="0.3431690130" flag="0"/>
      <psa10 value="0.0171088693" flag="0"/>
      <psa30 value="0.0012650641" flag="0"/>
    </comp>
    <comp name="--.HHZ">
      <acc value="0.1494019386" flag="0"/>
      <vel value="0.0305353459" flag="0"/>
      <psa03 value="0.1347796544" flag="0"/>
      <psa10 value="0.0086679479" flag="0"/>
      <psa30 value="0.0005780413" flag="0"/>
    </comp>
  </station>
  <station code="ORLT" name="ORLT" netid="KO" insttype="CMG-5T" lat="40.0452" lon="28.8914">
    <comp name="--.HNE">
      <acc value="0.0798120091" flag="0"/>
      <vel value="0.0295862981" flag="0"/>
      <psa03 value="0.1727597113" flag="0"/>
      <psa10 value="0.0125128907" flag="0"/>
      <psa30 value="0.0008756808" flag="0"/>
    </comp>
    <comp name="--.HNN">
      <acc value="0.0656718809" flag="0"/>
      <vel value="0.0196594862" flag="0"/>
      <psa03 value="0.1088891486" flag="0"/>
      <psa10 value="0.0134819191" flag="0"/>
      <psa30 value="0.0010447938" flag="0"/>
    </comp>
    <comp name="--.HNZ">
      <acc value="0.0242300615" flag="0"/>
      <vel value="0.0070289327" flag="0"/>
      <psa03 value="0.0347012673" flag="0"/>
      <psa10 value="0.0068116370" flag="0"/>
      <psa30 value="0.0004688883" flag="0"/>
    </comp>
  </station>
  <station code="SINB" name="SINB" netid="KO" insttype="CMG-5T" lat="40.9998" lon="28.5392">
    <comp name="--.HNZ">
      <acc value="0.0247975748" flag="0"/>
      <vel value="0.0067918574" flag="0"/>
      <psa03 value="0.0359635975" flag="0"/>
      <psa10 value="0.0026696089" flag="0"/>
      <psa30 value="0.0004689256" flag="0"/>
    </comp>
    <comp name="--.HNN">
      <acc value="0.0317870197" flag="0"/>
      <vel value="0.0107524284" flag="0"/>
      <psa03 value="0.0502289902" flag="0"/>
      <psa10 value="0.0045334398" flag="0"/>
      <psa30 value="0.0007297328" flag="0"/>
    </comp>
  </station>
  <station code="SLVT" name="SLVT" netid="KO" insttype="CMG-5T" lat="41.2288" lon="28.2098">
    <comp name="--.HNE">
      <acc value="0.0283019674" flag="0"/>
      <vel value="0.0085516705" flag="0"/>
      <psa03 value="0.0319144464" flag="0"/>
      <psa10 value="0.0059292613" flag="0"/>
      <psa30 value="0.0007572490" flag="0"/>
    </comp>
    <comp name="--.HNN">
      <acc value="0.0277900126" flag="0"/>
      <vel value="0.0111544126" flag="0"/>
      <psa03 value="0.0355510619" flag="0"/>
      <psa10 value="0.0079812101" flag="0"/>
      <psa30 value="0.0005772119" flag="0"/>
    </comp>
    <comp name="--.HNZ">
      <acc value="0.0208161185" flag="0"/>
      <vel value="0.0055565569" flag="0"/>
      <psa03 value="0.0231794822" flag="0"/>
      <psa10 value="0.0029269362" flag="0"/>
      <psa30 value="0.0003915183" flag="0"/>
    </comp>
  </station>
  <station code="SOMA" name="SOMA" netid="KO" insttype="CMG-5T" lat="39.1564" lon="27.5341">
    <comp name="--.HNZ">
      <acc value="0.0136134895" flag="0"/>
      <vel value="0.0040534349" flag="0"/>
      <psa03 value="0.0267629586" flag="0"/>
      <psa10 value="0.0041323058" flag="0"/>
      <psa30 value="0.0003086164" flag="0"/>
    </comp>
    <comp name="--.HNN">
      <acc value="0.0127836374" flag="0"/>
      <vel value="0.0063192198" flag="0"/>
      <psa03 value="0.0305330376" flag="0"/>
      <psa10 value="0.0074311679" flag="0"/>
      <psa30 value="0.0005750378" flag="0"/>
    </comp>
    <comp name="--.HNE">
      <acc value="0.0184283484" flag="0"/>
      <vel value="0.0062757987" flag="0"/>
      <psa03 value="0.0363269070" flag="0"/>
      <psa10 value="0.0058529696" flag="0"/>
      <psa30 value="0.0004972278" flag="0"/>
    </comp>
  </station>
  <station code="SUSR" name="SUSR" netid="KO" insttype="CMG-5T" lat="39.9627" lon="28.0835">
    <comp name="--.HNE">
      <acc value="0.0600300300" flag="0"/>
      <vel value="0.0099159997" flag="0"/>
      <psa03 value="0.0638811515" flag="0"/>
      <psa10 value="0.0028907295" flag="0"/>
      <psa30 value="0.0002685382" flag="0"/>
    </comp>
    <comp name="--.HNZ">
      <acc value="0.0586943486" flag="0"/>
      <vel value="0.0134831605" flag="0"/>
      <psa03 value="0.0554190603" flag="0"/>
      <psa10 value="0.0055912611" flag="0"/>
      <psa30 value="0.0003790060" flag="0"/>
    </comp>
    <comp name="--.HNN">
      <acc value="0.0578296522" flag="0"/>
      <vel value="0.0096171471" flag="0"/>
      <psa03 value="0.0352559915" flag="0"/>
      <psa10 value="0.0032907649" flag="0"/>
      <psa30 value="0.0004034562" flag="0"/>
    </comp>
  </station>
</stationlist>
