<stationlist created="1631873489">
	<station code="KRL1" name="KRL1" netid="HI" source="ITSAK Strong Motion Network" insttype="" lat="37.7951" lon="26.7065">
		<comp name="--.HNE" depth="0.0">
			<acc value="1.068243858" flag="0"/>
			<vel value="-0.337773" flag="0"/>
			<psa03 value="1.36061050326" flag="0"/>
			<psa10 value="0.106468554869" flag="0"/>
			<psa30 value="0.00766523483784" flag="0"/>
		</comp>
		<comp name="--.HNN" depth="0.0">
			<acc value="1.46029422" flag="0"/>
			<vel value="-0.505045" flag="0"/>
			<psa03 value="2.69629959744" flag="0"/>
			<psa10 value="0.205938533778" flag="0"/>
			<psa30 value="0.022269091078" flag="0"/>
		</comp>
		<comp name="--.HNZ" depth="0.0">
			<acc value="0.316996212" flag="0"/>
			<vel value="0.114736" flag="0"/>
			<psa03 value="0.738246409201" flag="0"/>
			<psa10 value="0.0845225025226" flag="0"/>
			<psa30 value="0.00521246707103" flag="0"/>
		</comp>
	</station>
	<station code="MYT1" name="MYT1" netid="HI" source="ITSAK Strong Motion Network" insttype="" lat="39.085" lon="26.5694">
		<comp name="--.HNE" depth="0.0">
			<acc value="-0.016316328" flag="0"/>
			<vel value="-0.011023" flag="0"/>
			<psa03 value="0.0638023866377" flag="0"/>
			<psa10 value="0.0181407276734" flag="0"/>
			<psa30 value="0.00128544359614" flag="0"/>
		</comp>
		<comp name="--.HNN" depth="0.0">
			<acc value="0.017014212" flag="0"/>
			<vel value="0.008838" flag="0"/>
			<psa03 value="0.0672027943406" flag="0"/>
			<psa10 value="0.0128777019089" flag="0"/>
			<psa30 value="0.000743615473996" flag="0"/>
		</comp>
		<comp name="--.HNZ" depth="0.0">
			<acc value="0.01223694" flag="0"/>
			<vel value="0.00762" flag="0"/>
			<psa03 value="0.0256820265989" flag="0"/>
			<psa10 value="0.00847238424524" flag="0"/>
			<psa30 value="0.000668895988943" flag="0"/>
		</comp>
	</station>
	<station code="NAX1" name="NAX1" netid="HI" source="ITSAK Strong Motion Network" insttype="" lat="37.101394" lon="25.374103">
		<comp name="--.HNE" depth="0.0">
			<acc value="0.010240698" flag="0"/>
			<vel value="0.004865" flag="0"/>
			<psa03 value="0.0189706956061" flag="0"/>
			<psa10 value="0.00408317377598" flag="0"/>
			<psa30 value="0.000313195446328" flag="0"/>
		</comp>
		<comp name="--.HNN" depth="0.0">
			<acc value="0.009279858" flag="0"/>
			<vel value="0.002696" flag="0"/>
			<psa03 value="0.0161966787958" flag="0"/>
			<psa10 value="0.00320533168213" flag="0"/>
			<psa30 value="0.000285007856158" flag="0"/>
		</comp>
		<comp name="--.HNZ" depth="0.0">
			<acc value="-0.00651219" flag="0"/>
			<vel value="-0.002943" flag="0"/>
			<psa03 value="0.0199102819451" flag="0"/>
			<psa10 value="0.00209796206833" flag="0"/>
			<psa30 value="0.000174942027877" flag="0"/>
		</comp>
	</station>
	<station code="KLNA" name="KLNA" netid="HL" source="National Observatory of Athens Seismic Network" insttype="" lat="36.95708" lon="26.97274">
		<comp name="--.HNE" depth="0.0">
			<acc value="-0.058558098" flag="0"/>
			<vel value="0.024751" flag="0"/>
			<psa03 value="0.206440541337" flag="0"/>
			<psa10 value="0.0124468344591" flag="0"/>
			<psa30 value="0.00102504395362" flag="0"/>
		</comp>
		<comp name="--.HNN" depth="0.0">
			<acc value="-0.034269654" flag="0"/>
			<vel value="0.015251" flag="0"/>
			<psa03 value="0.124607045432" flag="0"/>
			<psa10 value="0.0113555720397" flag="0"/>
			<psa30 value="0.000912293592947" flag="0"/>
		</comp>
		<comp name="--.HNZ" depth="0.0">
			<acc value="-0.043679664" flag="0"/>
			<vel value="-0.012604" flag="0"/>
			<psa03 value="0.0789699946812" flag="0"/>
			<psa10 value="0.00807373118427" flag="0"/>
			<psa30 value="0.000639366132575" flag="0"/>
		</comp>
	</station>
	<station code="PRK" name="PRK" netid="HL" source="National Observatory of Athens Seismic Network" insttype="" lat="39.24565" lon="26.26499">
		<comp name="--.HNE" depth="0.0">
			<acc value="0.013938096" flag="0"/>
			<vel value="0.0117" flag="0"/>
			<psa03 value="0.0639813554641" flag="0"/>
			<psa10 value="0.00977304019163" flag="0"/>
			<psa30 value="0.000848759659549" flag="0"/>
		</comp>
		<comp name="--.HNN" depth="0.0">
			<acc value="-0.012924828" flag="0"/>
			<vel value="-0.007502" flag="0"/>
			<psa03 value="0.0352121166086" flag="0"/>
			<psa10 value="0.00700260275783" flag="0"/>
			<psa30 value="0.000643392931171" flag="0"/>
		</comp>
		<comp name="--.HNZ" depth="0.0">
			<acc value="0.0179214" flag="0"/>
			<vel value="0.010446" flag="0"/>
			<psa03 value="0.0528405460162" flag="0"/>
			<psa10 value="0.00542409770833" flag="0"/>
			<psa30 value="0.000499770447926" flag="0"/>
		</comp>
	</station>
	<station code="FOCM" name="FOCM" netid="KO" source="Bogazici University Kandilli Observatory And Earthquake Research Institute (KOERI)" insttype="" lat="38.7131" lon="26.7309">
		<comp name="--.HNE" depth="0.0">
			<acc value="0.044556558" flag="0"/>
			<vel value="0.014575" flag="0"/>
			<psa03 value="0.077359275243" flag="0"/>
			<psa10 value="0.00882674252165" flag="0"/>
			<psa30 value="0.00082862566657" flag="0"/>
		</comp>
		<comp name="--.HNN" depth="0.0">
			<acc value="-0.043234434" flag="0"/>
			<vel value="0.021425" flag="0"/>
			<psa03 value="0.0884553424843" flag="0"/>
			<psa10 value="0.0104737031473" flag="0"/>
			<psa30 value="0.00069618873498" flag="0"/>
		</comp>
		<comp name="--.HNZ" depth="0.0">
			<acc value="0.03710505" flag="0"/>
			<vel value="0.014237" flag="0"/>
			<psa03 value="0.10505470114" flag="0"/>
			<psa10 value="0.00439323726785" flag="0"/>
			<psa30 value="0.000378966490057" flag="0"/>
		</comp>
	</station>
	<station code="GMLD" name="GMLD" netid="KO" source="Bogazici University Kandilli Observatory And Earthquake Research Institute (KOERI)" insttype="" lat="38.0766" lon="26.9157">
		<comp name="--.HNE" depth="0.0">
			<acc value="5.558410134" flag="0"/>
			<vel value="-1.873659" flag="0"/>
			<psa03 value="9.63952944708" flag="0"/>
			<psa10 value="1.05579840419" flag="0"/>
			<psa30 value="0.0663119770069" flag="0"/>
		</comp>
		<comp name="--.HNN" depth="0.0">
			<acc value="-4.03420914" flag="0"/>
			<vel value="1.575436" flag="0"/>
			<psa03 value="8.04769122002" flag="0"/>
			<psa10 value="0.843920342481" flag="0"/>
			<psa30 value="0.0609961554386" flag="0"/>
		</comp>
		<comp name="--.HNZ" depth="0.0">
			<acc value="-2.405485176" flag="0"/>
			<vel value="0.83652" flag="0"/>
			<psa03 value="4.93806311784" flag="0"/>
			<psa10 value="0.195658116964" flag="0"/>
			<psa30 value="0.0199688942358" flag="0"/>
		</comp>
	</station>
	<station code="GORD" name="GORD" netid="KO" source="Bogazici University Kandilli Observatory And Earthquake Research Institute (KOERI)" insttype="" lat="38.9088" lon="28.1769">
		<comp name="--.HNE" depth="0.0">
			<acc value="-0.05211588" flag="0"/>
			<vel value="0.04336" flag="0"/>
			<psa03 value="0.218655163743" flag="0"/>
			<psa10 value="0.0989344146964" flag="0"/>
			<psa30 value="0.00451985771258" flag="0"/>
		</comp>
		<comp name="--.HNN" depth="0.0">
			<acc value="0.045687636" flag="0"/>
			<vel value="0.030405" flag="0"/>
			<psa03 value="0.125233436325" flag="0"/>
			<psa10 value="0.044395454517" flag="0"/>
			<psa30 value="0.00439189500165" flag="0"/>
		</comp>
		<comp name="--.HNZ" depth="0.0">
			<acc value="0.05786358" flag="0"/>
			<vel value="0.041834" flag="0"/>
			<psa03 value="0.15677669199" flag="0"/>
			<psa10 value="0.0369056091291" flag="0"/>
			<psa30 value="0.00250869552509" flag="0"/>
		</comp>
	</station>
	<station code="KRBN" name="KRBN" netid="KO" source="Bogazici University Kandilli Observatory And Earthquake Research Institute (KOERI)" insttype="" lat="38.5936" lon="26.5537">
		<comp name="--.HNE" depth="0.0">
			<acc value="0.608477838" flag="0"/>
			<vel value="-0.176548" flag="0"/>
			<psa03 value="0.963523419524" flag="0"/>
			<psa10 value="0.103641742255" flag="0"/>
			<psa30 value="0.0091184617088" flag="0"/>
		</comp>
		<comp name="--.HNN" depth="0.0">
			<acc value="0.56112699" flag="0"/>
			<vel value="0.213272" flag="0"/>
			<psa03 value="1.1337227735" flag="0"/>
			<psa10 value="0.149982140493" flag="0"/>
			<psa30 value="0.00798782614756" flag="0"/>
		</comp>
		<comp name="--.HNZ" depth="0.0">
			<acc value="-0.282438612" flag="0"/>
			<vel value="-0.107933" flag="0"/>
			<psa03 value="0.448406394728" flag="0"/>
			<psa10 value="0.0872285111789" flag="0"/>
			<psa30 value="0.00537040706039" flag="0"/>
		</comp>
	</station>
	<station code="KUSD" name="KUSD" netid="KO" source="Bogazici University Kandilli Observatory And Earthquake Research Institute (KOERI)" insttype="" lat="37.8606" lon="27.2868">
		<comp name="--.HNE" depth="0.0">
			<acc value="-0.37778301" flag="0"/>
			<vel value="-0.163015" flag="0"/>
			<psa03 value="0.591223518254" flag="0"/>
			<psa10 value="0.0895237863784" flag="0"/>
			<psa30 value="0.00802496217905" flag="0"/>
		</comp>
		<comp name="--.HNN" depth="0.0">
			<acc value="-0.438337656" flag="0"/>
			<vel value="0.185649" flag="0"/>
			<psa03 value="0.823390828396" flag="0"/>
			<psa10 value="0.102196121559" flag="0"/>
			<psa30 value="0.00828715150984" flag="0"/>
		</comp>
		<comp name="--.HNZ" depth="0.0">
			<acc value="-0.219048264" flag="0"/>
			<vel value="0.068811" flag="0"/>
			<psa03 value="0.351852712846" flag="0"/>
			<psa10 value="0.041427703952" flag="0"/>
			<psa30 value="0.00524960310252" flag="0"/>
		</comp>
	</station>
	<station code="NAZL" name="NAZL" netid="KO" source="Bogazici University Kandilli Observatory And Earthquake Research Institute (KOERI)" insttype="" lat="37.9641" lon="28.2922">
		<comp name="--.HNE" depth="0.0">
			<acc value="-0.147128676" flag="0"/>
			<vel value="-0.08478" flag="0"/>
			<psa03 value="0.569076125978" flag="0"/>
			<psa10 value="0.0516195311976" flag="0"/>
			<psa30 value="0.00319235644221" flag="0"/>
		</comp>
		<comp name="--.HNN" depth="0.0">
			<acc value="-0.111134406" flag="0"/>
			<vel value="-0.056785" flag="0"/>
			<psa03 value="0.382724835413" flag="0"/>
			<psa10 value="0.0527832759917" flag="0"/>
			<psa30 value="0.00300891339508" flag="0"/>
		</comp>
		<comp name="--.HNZ" depth="0.0">
			<acc value="0.050334756" flag="0"/>
			<vel value="-0.032175" flag="0"/>
			<psa03 value="0.205456212791" flag="0"/>
			<psa10 value="0.0209393526974" flag="0"/>
			<psa30 value="0.00162637921057" flag="0"/>
		</comp>
	</station>
	<station code="SOMA" name="SOMA" netid="KO" source="Bogazici University Kandilli Observatory And Earthquake Research Institute (KOERI)" insttype="" lat="39.1564" lon="27.5341">
		<comp name="--.HNE" depth="0.0">
			<acc value="-0.129189732" flag="0"/>
			<vel value="-0.058116" flag="0"/>
			<psa03 value="0.317893378023" flag="0"/>
			<psa10 value="0.0234279142295" flag="0"/>
			<psa30 value="0.00180534803705" flag="0"/>
		</comp>
		<comp name="--.HNN" depth="0.0">
			<acc value="0.141006228" flag="0"/>
			<vel value="-0.054665" flag="0"/>
			<psa03 value="0.501291682951" flag="0"/>
			<psa10 value="0.0304063561957" flag="0"/>
			<psa30 value="0.00248542957764" flag="0"/>
		</comp>
		<comp name="--.HNZ" depth="0.0">
			<acc value="-0.109932132" flag="0"/>
			<vel value="-0.044274" flag="0"/>
			<psa03 value="0.223353095438" flag="0"/>
			<psa10 value="0.0155313621834" flag="0"/>
			<psa30 value="0.00189214791789" flag="0"/>
		</comp>
	</station>
</stationlist>
