<?xml version="1.0" encoding="UTF-8" standalone="yes"?>
<!DOCTYPE earthquake SYSTEM "stationlist.dtd">
<stationlist created="" xmlns="ch.ethz.sed.shakemap.usgs.xml">
  <station code="KRL1" name="KRL1" netid="HI" insttype="CMG-5TD,ACCELEROMETER,GURALP" lat="37.7951" lon="26.7065">
    <comp name="--.HNE">
      <acc value="1.0745432781" flag="0"/>
      <vel value="0.3372055793" flag="0"/>
      <psa03 value="1.3383108583" flag="0"/>
      <psa10 value="0.1061607493" flag="0"/>
      <psa30 value="0.0071067598" flag="0"/>
    </comp>
    <comp name="--.HNZ">
      <acc value="0.3226187520" flag="0"/>
      <vel value="0.1138606470" flag="0"/>
      <psa03 value="0.7180880562" flag="0"/>
      <psa10 value="0.0842144762" flag="0"/>
      <psa30 value="0.0052963342" flag="0"/>
    </comp>
    <comp name="--.HNN">
      <acc value="1.4649147695" flag="0"/>
      <vel value="0.5029933656" flag="0"/>
      <psa03 value="2.6586886320" flag="0"/>
      <psa10 value="0.2051520393" flag="0"/>
      <psa30 value="0.0222574987" flag="0"/>
    </comp>
  </station>
  <station code="EAG2" name="EAG2" netid="HL" insttype="SMART24" lat="38.5438" lon="26.1079">
    <comp name="--.HHN">
      <acc value="0.3110610421" flag="0"/>
      <vel value="0.1658551589" flag="0"/>
      <psa03 value="1.5781751846" flag="0"/>
      <psa10 value="0.0652537460" flag="0"/>
      <psa30 value="0.0068054998" flag="0"/>
    </comp>
    <comp name="--.HHE">
      <acc value="0.3477854402" flag="0"/>
      <vel value="0.1735020681" flag="0"/>
      <psa03 value="1.1652814030" flag="0"/>
      <psa10 value="0.0768537834" flag="0"/>
      <psa30 value="0.0054039903" flag="0"/>
    </comp>
    <comp name="--.HHZ">
      <acc value="0.1826463831" flag="0"/>
      <vel value="0.0548576379" flag="0"/>
      <psa03 value="0.4189376153" flag="0"/>
      <psa10 value="0.0176371423" flag="0"/>
      <psa30 value="0.0016092843" flag="0"/>
    </comp>
  </station>
  <station code="CHOS" name="CHOS" netid="HT" insttype="100" lat="38.3869" lon="26.0506">
    <comp name="--.HHZ">
      <acc value="0.0467707411" flag="0"/>
      <vel value="0.0198141687" flag="0"/>
      <psa03 value="0.0727059671" flag="0"/>
      <psa10 value="0.0149389800" flag="0"/>
      <psa30 value="0.0007598995" flag="0"/>
    </comp>
    <comp name="--.HHE">
      <acc value="0.1792158376" flag="0"/>
      <vel value="0.0595628005" flag="0"/>
      <psa03 value="0.5132168920" flag="0"/>
      <psa10 value="0.0206145962" flag="0"/>
      <psa30 value="0.0016473549" flag="0"/>
    </comp>
    <comp name="--.HHN">
      <acc value="0.1011367575" flag="0"/>
      <vel value="0.0362528390" flag="0"/>
      <psa03 value="0.2612135496" flag="0"/>
      <psa10 value="0.0154489830" flag="0"/>
      <psa30 value="0.0008498174" flag="0"/>
    </comp>
  </station>
  <station code="GMLD" name="GMLD" netid="KO" insttype="100" lat="38.0764" lon="26.8747">
    <comp name="--.HNE">
      <acc value="0.8937039030" flag="0"/>
      <vel value="0.2978436111" flag="0"/>
      <psa03 value="1.5121363464" flag="0"/>
      <psa10 value="0.1674307738" flag="0"/>
      <psa30 value="0.0105645167" flag="0"/>
    </comp>
    <comp name="--.HNN">
      <acc value="0.6588831897" flag="0"/>
      <vel value="0.2494467305" flag="0"/>
      <psa03 value="1.2757198042" flag="0"/>
      <psa10 value="0.1340819900" flag="0"/>
      <psa30 value="0.0097424441" flag="0"/>
    </comp>
    <comp name="--.HNZ">
      <acc value="0.3967950837" flag="0"/>
      <vel value="0.1316805498" flag="0"/>
      <psa03 value="0.7894538988" flag="0"/>
      <psa10 value="0.0309747014" flag="0"/>
      <psa30 value="0.0031362138" flag="0"/>
    </comp>
  </station>
  <station code="KRBN" name="KRBN" netid="KO" insttype="100" lat="38.5936" lon="26.5537">
    <comp name="--.HNN">
      <acc value="0.0897552730" flag="0"/>
      <vel value="0.0335582564" flag="0"/>
      <psa03 value="0.1794274296" flag="0"/>
      <psa10 value="0.0238956416" flag="0"/>
      <psa30 value="0.0012620656" flag="0"/>
    </comp>
    <comp name="--.HNE">
      <acc value="0.0977786581" flag="0"/>
      <vel value="0.0277179055" flag="0"/>
      <psa03 value="0.1494291087" flag="0"/>
      <psa10 value="0.0164871782" flag="0"/>
      <psa30 value="0.0013705180" flag="0"/>
    </comp>
    <comp name="--.HNZ">
      <acc value="0.0452645460" flag="0"/>
      <vel value="0.0170663402" flag="0"/>
      <psa03 value="0.0707466773" flag="0"/>
      <psa10 value="0.0138643455" flag="0"/>
      <psa30 value="0.0008616735" flag="0"/>
    </comp>
  </station>
  <station code="KUSD" name="KUSD" netid="KO" insttype="100" lat="37.86" lon="27.2815">
    <comp name="--.HNZ">
      <acc value="0.0356013243" flag="0"/>
      <vel value="0.0108020912" flag="0"/>
      <psa03 value="0.0556774877" flag="0"/>
      <psa10 value="0.0066080859" flag="0"/>
      <psa30 value="0.0007728067" flag="0"/>
    </comp>
    <comp name="--.HNN">
      <acc value="0.0699382017" flag="0"/>
      <vel value="0.0293346193" flag="0"/>
      <psa03 value="0.1284876765" flag="0"/>
      <psa10 value="0.0162495372" flag="0"/>
      <psa30 value="0.0013330177" flag="0"/>
    </comp>
    <comp name="--.HNE">
      <acc value="0.0593053029" flag="0"/>
      <vel value="0.0257473093" flag="0"/>
      <psa03 value="0.0932577823" flag="0"/>
      <psa10 value="0.0141907702" flag="0"/>
      <psa30 value="0.0013249747" flag="0"/>
    </comp>
  </station>
  <station code="AYDN" name="AYDN" netid="TU" source="ODC" insttype="T" lat="37.6608" lon="27.8792">
    <comp name="--.HHE">
      <acc value="0.0613330929" flag="0"/>
      <vel value="0.0200343612" flag="0"/>
      <psa03 value="0.1142361354" flag="0"/>
      <psa10 value="0.0121581367" flag="0"/>
      <psa30 value="0.0008396069" flag="0"/>
    </comp>
    <comp name="--.HHN">
      <acc value="0.0403342961" flag="0"/>
      <vel value="0.0180511334" flag="0"/>
      <psa03 value="0.1343700266" flag="0"/>
      <psa10 value="0.0176744776" flag="0"/>
      <psa30 value="0.0009442651" flag="0"/>
    </comp>
    <comp name="--.HHZ">
      <acc value="0.0434218845" flag="0"/>
      <vel value="0.0108171665" flag="0"/>
      <psa03 value="0.0499646099" flag="0"/>
      <psa10 value="0.0158959803" flag="0"/>
      <psa30 value="0.0008665980" flag="0"/>
    </comp>
  </station>
</stationlist>
