<?xml version="1.0" encoding="UTF-8" standalone="yes"?>
<!DOCTYPE earthquake SYSTEM "stationlist.dtd">
<stationlist created="" xmlns="ch.ethz.sed.shakemap.usgs.xml">
  <station code="LMS2" name="LMS2" netid="HI" insttype="CMG-5TD,ACCELEROMETER,GURALP" commtype="DIG" lat="40.835" lon="21.1418">
    <comp name="--.HNN">
      <acc value="0.0239879802" flag="0"/>
      <vel value="0.0077666290" flag="0"/>
      <psa03 value="0.0319849574" flag="0"/>
      <psa10 value="0.0045366058" flag="0"/>
      <psa30 value="0.0003856382" flag="0"/>
    </comp>
    <comp name="--.HNZ">
      <acc value="0.0047171399" flag="0"/>
      <vel value="0.0018507098" flag="0"/>
      <psa03 value="0.0089068414" flag="0"/>
      <psa10 value="0.0021738332" flag="0"/>
      <psa30 value="0.0002532266" flag="0"/>
    </comp>
    <comp name="--.HNE">
      <acc value="0.0103239058" flag="0"/>
      <vel value="0.0039752404" flag="0"/>
      <psa03 value="0.0240607911" flag="0"/>
      <psa10 value="0.0032805434" flag="0"/>
      <psa30 value="0.0004290754" flag="0"/>
    </comp>
  </station>
  <station code="DBR" name="DBR" netid="MA" insttype="CMG-5T;" commtype="DIG" lat="41.4947" lon="20.4986">
    <comp name="--.HNN">
      <acc value="0.0409688665" flag="0"/>
      <vel value="0.0078506265" flag="0"/>
      <psa03 value="0.0307549972" flag="0"/>
      <psa10 value="0.0054883870" flag="0"/>
      <psa30 value="0.0006683495" flag="0"/>
    </comp>
    <comp name="--.HNZ">
      <acc value="0.0146356152" flag="0"/>
      <vel value="0.0041362670" flag="0"/>
      <psa03 value="0.0171946418" flag="0"/>
      <psa10 value="0.0055350504" flag="0"/>
      <psa30 value="0.0006673957" flag="0"/>
    </comp>
    <comp name="--.HNE">
      <acc value="0.0367335253" flag="0"/>
      <vel value="0.0086738890" flag="0"/>
      <psa03 value="0.0503225625" flag="0"/>
      <psa10 value="0.0083701311" flag="0"/>
      <psa30 value="0.0004859578" flag="0"/>
    </comp>
  </station>
  <station code="TIR" name="TIR" netid="MN" insttype="" commtype="DIG" lat="41.3472" lon="19.8631">
    <comp name="--.HHE">
      <acc value="0.0815859071" flag="0"/>
      <vel value="0.0344141185" flag="0"/>
      <psa03 value="0.1664167918" flag="0"/>
      <psa10 value="0.0311171712" flag="0"/>
      <psa30 value="0.0030992346" flag="0"/>
    </comp>
    <comp name="--.HHN">
      <acc value="0.0819532672" flag="0"/>
      <vel value="0.0346906837" flag="0"/>
      <psa03 value="0.1171728240" flag="0"/>
      <psa10 value="0.0573731012" flag="0"/>
      <psa30 value="0.0067099023" flag="0"/>
    </comp>
    <comp name="--.HHZ">
      <acc value="0.0508285598" flag="0"/>
      <vel value="0.0249088768" flag="0"/>
      <psa03 value="0.1065302069" flag="0"/>
      <psa10 value="0.0344635248" flag="0"/>
      <psa30 value="0.0024665377" flag="0"/>
    </comp>
  </station>
</stationlist>
