<?xml version="1.0" encoding="UTF-8" standalone="yes"?>
<!DOCTYPE earthquake SYSTEM "stationlist.dtd">
<stationlist created="" xmlns="ch.ethz.sed.shakemap.usgs.xml">
  <station code="LMS2" name="LMS2" netid="HI" insttype="CMG-5TD,ACCELEROMETER,GURALP" commtype="DIG" lat="40.835" lon="21.1418">
    <comp name="--.HNE">
      <acc value="0.0103239034" flag="0"/>
      <vel value="0.0039752407" flag="0"/>
      <psa03 value="0.0240607911" flag="0"/>
      <psa10 value="0.0032805434" flag="0"/>
      <psa30 value="0.0004290646" flag="0"/>
    </comp>
    <comp name="--.HNN">
      <acc value="0.0239879796" flag="0"/>
      <vel value="0.0077666291" flag="0"/>
      <psa03 value="0.0319849574" flag="0"/>
      <psa10 value="0.0045366058" flag="0"/>
      <psa30 value="0.0003857563" flag="0"/>
    </comp>
    <comp name="--.HNZ">
      <acc value="0.0047171402" flag="0"/>
      <vel value="0.0018507089" flag="0"/>
      <psa03 value="0.0089068414" flag="0"/>
      <psa10 value="0.0021738331" flag="0"/>
      <psa30 value="0.0002533126" flag="0"/>
    </comp>
  </station>
  <station code="DBR" name="DBR" netid="MA" insttype="CMG-5T;" commtype="DIG" lat="41.4947" lon="20.4986">
    <comp name="--.HNN">
      <acc value="0.0409688673" flag="0"/>
      <vel value="0.0078506271" flag="0"/>
      <psa03 value="0.0307549972" flag="0"/>
      <psa10 value="0.0054883870" flag="0"/>
      <psa30 value="0.0006683050" flag="0"/>
    </comp>
    <comp name="--.HNE">
      <acc value="0.0367335260" flag="0"/>
      <vel value="0.0086738875" flag="0"/>
      <psa03 value="0.0503225625" flag="0"/>
      <psa10 value="0.0083701311" flag="0"/>
      <psa30 value="0.0004860899" flag="0"/>
    </comp>
    <comp name="--.HNZ">
      <acc value="0.0146356143" flag="0"/>
      <vel value="0.0041362674" flag="0"/>
      <psa03 value="0.0171946418" flag="0"/>
      <psa10 value="0.0055350502" flag="0"/>
      <psa30 value="0.0006674257" flag="0"/>
    </comp>
  </station>
  <station code="TIR" name="TIR" netid="MN" insttype="" commtype="DIG" lat="41.3472" lon="19.8631">
    <comp name="--.HHE">
      <acc value="0.0815859072" flag="0"/>
      <vel value="0.0344141190" flag="0"/>
      <psa03 value="0.1664167918" flag="0"/>
      <psa10 value="0.0311171713" flag="0"/>
      <psa30 value="0.0030992923" flag="0"/>
    </comp>
    <comp name="--.HHN">
      <acc value="0.0819532666" flag="0"/>
      <vel value="0.0346906832" flag="0"/>
      <psa03 value="0.1171728240" flag="0"/>
      <psa10 value="0.0573731013" flag="0"/>
      <psa30 value="0.0067098916" flag="0"/>
    </comp>
    <comp name="--.HHZ">
      <acc value="0.0508285604" flag="0"/>
      <vel value="0.0249088773" flag="0"/>
      <psa03 value="0.1065302069" flag="0"/>
      <psa10 value="0.0344635247" flag="0"/>
      <psa30 value="0.0024664959" flag="0"/>
    </comp>
  </station>
</stationlist>
