<?xml version="1.0" encoding="UTF-8" standalone="yes"?>
<!DOCTYPE earthquake SYSTEM "stationlist.dtd">
<stationlist created="" xmlns="ch.ethz.sed.shakemap.usgs.xml">
  <station code="RP05B" name="RP05B" netid="5B" insttype="Compact" commtype="DIG" lat="37.6182" lon="21.6541">
    <comp name="--.HHE">
      <acc value="0.8331283965" flag="0"/>
      <vel value="0.3873752919" flag="0"/>
      <psa03 value="3.0276465481" flag="0"/>
      <psa10 value="0.2146727955" flag="0"/>
      <psa30 value="0.0169870791" flag="0"/>
    </comp>
    <comp name="--.HHZ">
      <acc value="0.5232327595" flag="0"/>
      <vel value="0.1804137928" flag="0"/>
      <psa03 value="1.5715148351" flag="0"/>
      <psa10 value="0.1477200180" flag="0"/>
      <psa30 value="0.0087010401" flag="0"/>
    </comp>
    <comp name="--.HHN">
      <acc value="0.9914209799" flag="0"/>
      <vel value="0.4192925594" flag="0"/>
      <psa03 value="3.3104172760" flag="0"/>
      <psa10 value="0.2343362906" flag="0"/>
      <psa30 value="0.0213476273" flag="0"/>
    </comp>
  </station>
  <station code="AGRP" name="AGRP" netid="CL" insttype="CMG40-T" commtype="DIG" lat="38.3959" lon="21.7228">
    <comp name="00.HHZ">
      <acc value="0.1432897095" flag="0"/>
      <vel value="0.0576834443" flag="0"/>
      <psa03 value="0.3480845194" flag="0"/>
      <psa10 value="0.0324846055" flag="0"/>
      <psa30 value="0.0043532757" flag="0"/>
    </comp>
    <comp name="00.HHN">
      <acc value="0.1506366530" flag="0"/>
      <vel value="0.0642632969" flag="0"/>
      <psa03 value="0.3476390516" flag="0"/>
      <psa10 value="0.0391757099" flag="0"/>
      <psa30 value="0.0031429735" flag="0"/>
    </comp>
    <comp name="00.HHE">
      <acc value="0.2490733633" flag="0"/>
      <vel value="0.1240049619" flag="0"/>
      <psa03 value="0.6016955761" flag="0"/>
      <psa10 value="0.0823955039" flag="0"/>
      <psa30 value="0.0075602966" flag="0"/>
    </comp>
  </station>
  <station code="ALIK" name="ALIK" netid="CL" insttype="TRILLIUM-40" commtype="DIG" lat="38.2605" lon="22.1114">
    <comp name="02.HHN">
      <acc value="1.7481036561" flag="0"/>
      <vel value="0.3591912560" flag="0"/>
      <psa03 value="2.1596483027" flag="0"/>
      <psa10 value="0.2038914851" flag="0"/>
      <psa30 value="0.0483066694" flag="0"/>
    </comp>
    <comp name="02.HHZ">
      <acc value="2.3025603457" flag="0"/>
      <vel value="0.3201236956" flag="0"/>
      <psa03 value="1.8736347312" flag="0"/>
      <psa10 value="0.3274430073" flag="0"/>
      <psa30 value="0.0555429651" flag="0"/>
    </comp>
    <comp name="02.HHE">
      <acc value="2.6326686926" flag="0"/>
      <vel value="0.6171847403" flag="0"/>
      <psa03 value="4.8425305329" flag="0"/>
      <psa10 value="0.3842481626" flag="0"/>
      <psa30 value="0.0615535267" flag="0"/>
    </comp>
  </station>
  <station code="MALA" name="MALA" netid="CL" insttype="TRILLIUM-40" commtype="DIG" lat="38.3934" lon="21.8726">
    <comp name="01.HHN">
      <acc value="0.4108958307" flag="0"/>
      <vel value="0.1651097915" flag="0"/>
      <psa03 value="1.8254391195" flag="0"/>
      <psa10 value="0.1159812866" flag="0"/>
      <psa30 value="0.0086737245" flag="0"/>
    </comp>
    <comp name="01.HHZ">
      <acc value="0.2280952967" flag="0"/>
      <vel value="0.0683624936" flag="0"/>
      <psa03 value="0.2156979600" flag="0"/>
      <psa10 value="0.0543470706" flag="0"/>
      <psa30 value="0.0059074761" flag="0"/>
    </comp>
    <comp name="01.HHE">
      <acc value="0.4978062236" flag="0"/>
      <vel value="0.1565467545" flag="0"/>
      <psa03 value="0.7131098666" flag="0"/>
      <psa10 value="0.2175611429" flag="0"/>
      <psa30 value="0.0159245135" flag="0"/>
    </comp>
  </station>
  <station code="MG06" name="MG06" netid="CL" insttype="TRILLIUM-40" commtype="DIG" lat="38.4129" lon="21.9462">
    <comp name="06.HHN">
      <acc value="0.4623837499" flag="0"/>
      <vel value="0.0979776818" flag="0"/>
      <psa03 value="0.2441123295" flag="0"/>
      <psa10 value="0.0381725934" flag="0"/>
      <psa30 value="0.0041562191" flag="0"/>
    </comp>
    <comp name="06.HHE">
      <acc value="0.4933156051" flag="0"/>
      <vel value="0.1658847284" flag="0"/>
      <psa03 value="0.8818544544" flag="0"/>
      <psa10 value="0.0533277381" flag="0"/>
      <psa30 value="0.0072907207" flag="0"/>
    </comp>
    <comp name="06.HHZ">
      <acc value="0.2140843063" flag="0"/>
      <vel value="0.0508771258" flag="0"/>
      <psa03 value="0.1555511498" flag="0"/>
      <psa10 value="0.0288461386" flag="0"/>
      <psa30 value="0.0047043571" flag="0"/>
    </comp>
  </station>
  <station code="PANR" name="PANR" netid="CL" insttype="TRILLIUM-40" commtype="DIG" lat="38.3735" lon="22.2497">
    <comp name="01.HHE">
      <acc value="0.1874218230" flag="0"/>
      <vel value="0.0989894171" flag="0"/>
      <psa03 value="0.5540379562" flag="0"/>
      <psa10 value="0.0515225605" flag="0"/>
      <psa30 value="0.0056978195" flag="0"/>
    </comp>
    <comp name="01.HHN">
      <acc value="0.0807974141" flag="0"/>
      <vel value="0.0534696041" flag="0"/>
      <psa03 value="0.1964761455" flag="0"/>
      <psa10 value="0.0534336299" flag="0"/>
      <psa30 value="0.0057469337" flag="0"/>
    </comp>
    <comp name="01.HHZ">
      <acc value="0.0584397622" flag="0"/>
      <vel value="0.0245857050" flag="0"/>
      <psa03 value="0.0840929784" flag="0"/>
      <psa10 value="0.0383485722" flag="0"/>
      <psa30 value="0.0026415553" flag="0"/>
    </comp>
  </station>
  <station code="PSAM" name="PSAM" netid="CL" insttype="CMG40-T" commtype="DIG" lat="38.3218" lon="22.1842">
    <comp name="00.HHZ">
      <acc value="0.3421428573" flag="0"/>
      <vel value="0.0659074271" flag="0"/>
      <psa03 value="0.2369767584" flag="0"/>
      <psa10 value="0.0636329489" flag="0"/>
      <psa30 value="0.0037070655" flag="0"/>
    </comp>
    <comp name="00.HHN">
      <acc value="0.4155312654" flag="0"/>
      <vel value="0.2287345412" flag="0"/>
      <psa03 value="0.7345178761" flag="0"/>
      <psa10 value="0.1630378081" flag="0"/>
      <psa30 value="0.0109274509" flag="0"/>
    </comp>
    <comp name="00.HHE">
      <acc value="0.4259762801" flag="0"/>
      <vel value="0.1923350723" flag="0"/>
      <psa03 value="0.5347195129" flag="0"/>
      <psa10 value="0.1375658991" flag="0"/>
      <psa30 value="0.0119401488" flag="0"/>
    </comp>
  </station>
  <station code="TRIZ" name="TRIZ" netid="CL" insttype="STS-2" commtype="DIG" lat="38.3654" lon="22.0727">
    <comp name="00.HH3">
      <acc value="0.5007916650" flag="0"/>
      <vel value="0.1738102648" flag="0"/>
      <psa03 value="0.9797076986" flag="0"/>
      <psa10 value="0.1065495834" flag="0"/>
      <psa30 value="0.0074243549" flag="0"/>
    </comp>
    <comp name="00.HH2">
      <acc value="0.4722450232" flag="0"/>
      <vel value="0.1716610485" flag="0"/>
      <psa03 value="0.9928601781" flag="0"/>
      <psa10 value="0.1006021750" flag="0"/>
      <psa30 value="0.0082028067" flag="0"/>
    </comp>
    <comp name="00.HHZ">
      <acc value="0.5221417489" flag="0"/>
      <vel value="0.1292444216" flag="0"/>
      <psa03 value="0.4008824681" flag="0"/>
      <psa10 value="0.0362471655" flag="0"/>
      <psa30 value="0.0044816443" flag="0"/>
    </comp>
  </station>
  <station code="ZIRI" name="ZIRI" netid="CL" insttype="TRILLIUM-40" commtype="DIG" lat="38.3051" lon="21.9476">
    <comp name="01.HHZ">
      <acc value="1.9617059013" flag="0"/>
      <vel value="0.5140363871" flag="0"/>
      <psa03 value="2.0108384762" flag="0"/>
      <psa10 value="0.1454878576" flag="0"/>
      <psa30 value="0.0140332445" flag="0"/>
    </comp>
    <comp name="01.HHN">
      <acc value="1.4136645252" flag="0"/>
      <vel value="0.4558424831" flag="0"/>
      <psa03 value="2.4712423177" flag="0"/>
      <psa10 value="0.1484110649" flag="0"/>
      <psa30 value="0.0141437372" flag="0"/>
    </comp>
    <comp name="01.HHE">
      <acc value="1.7582077229" flag="0"/>
      <vel value="0.5318413129" flag="0"/>
      <psa03 value="1.8055389118" flag="0"/>
      <psa10 value="0.2430854304" flag="0"/>
      <psa30 value="0.0168648750" flag="0"/>
    </comp>
  </station>
  <station code="ACOR" name="ACOR" netid="HA" insttype="Horizon,120s,1200" commtype="DIG" lat="37.8905" lon="22.8694">
    <comp name="--.HHN">
      <acc value="0.0379397302" flag="0"/>
      <vel value="0.0458104985" flag="0"/>
      <psa03 value="0.1237108460" flag="0"/>
      <psa10 value="0.0649917294" flag="0"/>
      <psa30 value="0.0041415303" flag="0"/>
    </comp>
    <comp name="--.HHE">
      <acc value="0.0432225652" flag="0"/>
      <vel value="0.0366337654" flag="0"/>
      <psa03 value="0.1137681146" flag="0"/>
      <psa10 value="0.0323501405" flag="0"/>
      <psa30 value="0.0027238835" flag="0"/>
    </comp>
    <comp name="--.HHZ">
      <acc value="0.0418421948" flag="0"/>
      <vel value="0.0253259136" flag="0"/>
      <psa03 value="0.1232233482" flag="0"/>
      <psa10 value="0.0533530256" flag="0"/>
      <psa30 value="0.0039462492" flag="0"/>
    </comp>
  </station>
  <station code="AMPE" name="AMPE" netid="HA" insttype="1s-100Hz," commtype="DIG" lat="38.3015" lon="23.2688">
    <comp name="--.HHE">
      <acc value="0.0331197404" flag="0"/>
      <vel value="0.0275529600" flag="0"/>
      <psa03 value="0.1035333561" flag="0"/>
      <psa10 value="0.0736307619" flag="0"/>
      <psa30 value="0.0026745777" flag="0"/>
    </comp>
    <comp name="--.HHN">
      <acc value="0.0238714092" flag="0"/>
      <vel value="0.0170838299" flag="0"/>
      <psa03 value="0.0615922277" flag="0"/>
      <psa10 value="0.0385699547" flag="0"/>
      <psa30 value="0.0025660336" flag="0"/>
    </comp>
    <comp name="--.HHZ">
      <acc value="0.0179352963" flag="0"/>
      <vel value="0.0114125801" flag="0"/>
      <psa03 value="0.0645627366" flag="0"/>
      <psa10 value="0.0297006832" flag="0"/>
      <psa30 value="0.0010201093" flag="0"/>
    </comp>
  </station>
  <station code="ANTK" name="ANTK" netid="HA" insttype="25" commtype="DIG" lat="38.3605" lon="22.6385">
    <comp name="--.HHE">
      <acc value="0.0266538903" flag="0"/>
      <vel value="0.0096988075" flag="0"/>
      <psa03 value="0.0397416205" flag="0"/>
      <psa10 value="0.0105267014" flag="0"/>
      <psa30 value="0.0008626634" flag="0"/>
    </comp>
    <comp name="--.HHN">
      <acc value="0.0252559802" flag="0"/>
      <vel value="0.0087557449" flag="0"/>
      <psa03 value="0.0623541853" flag="0"/>
      <psa10 value="0.0080979205" flag="0"/>
      <psa30 value="0.0015670347" flag="0"/>
    </comp>
    <comp name="--.HHZ">
      <acc value="0.0204863636" flag="0"/>
      <vel value="0.0080099596" flag="0"/>
      <psa03 value="0.0262227307" flag="0"/>
      <psa10 value="0.0076016822" flag="0"/>
      <psa30 value="0.0006464614" flag="0"/>
    </comp>
  </station>
  <station code="ATAL" name="ATAL" netid="HA" insttype="120s," commtype="DIG" lat="38.6926" lon="23.0213">
    <comp name="--.HHE">
      <acc value="0.0144857749" flag="0"/>
      <vel value="0.0090675445" flag="0"/>
      <psa03 value="0.0440601748" flag="0"/>
      <psa10 value="0.0069059766" flag="0"/>
      <psa30 value="0.0008580751" flag="0"/>
    </comp>
    <comp name="--.HHZ">
      <acc value="0.0054415464" flag="0"/>
      <vel value="0.0028219254" flag="0"/>
      <psa03 value="0.0092965165" flag="0"/>
      <psa10 value="0.0037194515" flag="0"/>
      <psa30 value="0.0003455008" flag="0"/>
    </comp>
    <comp name="--.HHN">
      <acc value="0.0145771253" flag="0"/>
      <vel value="0.0102133558" flag="0"/>
      <psa03 value="0.0501340783" flag="0"/>
      <psa10 value="0.0190199070" flag="0"/>
      <psa30 value="0.0017776920" flag="0"/>
    </comp>
  </station>
  <station code="ATHR" name="ATHR" netid="HA" insttype="GEOtiny," commtype="DIG" lat="38.3172" lon="20.4165">
    <comp name="--.HHZ">
      <acc value="0.0141711621" flag="0"/>
      <vel value="0.0076776822" flag="0"/>
      <psa03 value="0.0424994931" flag="0"/>
      <psa10 value="0.0135100369" flag="0"/>
      <psa30 value="0.0011208972" flag="0"/>
    </comp>
    <comp name="--.HHE">
      <acc value="0.0195084317" flag="0"/>
      <vel value="0.0118044867" flag="0"/>
      <psa03 value="0.0527960431" flag="0"/>
      <psa10 value="0.0130577303" flag="0"/>
      <psa30 value="0.0017614478" flag="0"/>
    </comp>
    <comp name="--.HHN">
      <acc value="0.0154037800" flag="0"/>
      <vel value="0.0160143528" flag="0"/>
      <psa03 value="0.0565201495" flag="0"/>
      <psa10 value="0.0156085188" flag="0"/>
      <psa30 value="0.0019258027" flag="0"/>
    </comp>
  </station>
  <station code="AXAR" name="AXAR" netid="HA" insttype="Horizon,120s,1200" commtype="DIG" lat="38.7664" lon="22.659">
    <comp name="--.HHE">
      <acc value="0.0786297576" flag="0"/>
      <vel value="0.0525103912" flag="0"/>
      <psa03 value="0.2502092638" flag="0"/>
      <psa10 value="0.0521320088" flag="0"/>
      <psa30 value="0.0086979698" flag="0"/>
    </comp>
    <comp name="--.HHN">
      <acc value="0.0899000707" flag="0"/>
      <vel value="0.0388251541" flag="0"/>
      <psa03 value="0.1960462453" flag="0"/>
      <psa10 value="0.0548352960" flag="0"/>
      <psa30 value="0.0039065198" flag="0"/>
    </comp>
    <comp name="--.HHZ">
      <acc value="0.0554580854" flag="0"/>
      <vel value="0.0237372843" flag="0"/>
      <psa03 value="0.1025422876" flag="0"/>
      <psa10 value="0.0254911497" flag="0"/>
      <psa30 value="0.0024708714" flag="0"/>
    </comp>
  </station>
  <station code="DOMV" name="DOMV" netid="HA" insttype="60" commtype="DIG" lat="38.2569" lon="22.9795">
    <comp name="--.HHN">
      <acc value="0.1034240925" flag="0"/>
      <vel value="0.0399133529" flag="0"/>
      <psa03 value="0.1581381144" flag="0"/>
      <psa10 value="0.0343566210" flag="0"/>
      <psa30 value="0.0023534627" flag="0"/>
    </comp>
    <comp name="--.HHZ">
      <acc value="0.0600933022" flag="0"/>
      <vel value="0.0195015268" flag="0"/>
      <psa03 value="0.1589351986" flag="0"/>
      <psa10 value="0.0349034140" flag="0"/>
      <psa30 value="0.0014313794" flag="0"/>
    </comp>
    <comp name="--.HHE">
      <acc value="0.0958000810" flag="0"/>
      <vel value="0.0372735518" flag="0"/>
      <psa03 value="0.3412947709" flag="0"/>
      <psa10 value="0.0217757227" flag="0"/>
      <psa30 value="0.0013217873" flag="0"/>
    </comp>
  </station>
  <station code="EPID" name="EPID" netid="HA" insttype="30" commtype="DIG" lat="37.6144" lon="23.1189">
    <comp name="--.HHE">
      <acc value="0.0729807053" flag="0"/>
      <vel value="0.0255017025" flag="0"/>
      <psa03 value="0.1056909577" flag="0"/>
      <psa10 value="0.0222211854" flag="0"/>
      <psa30 value="0.0016647636" flag="0"/>
    </comp>
    <comp name="--.HHZ">
      <acc value="0.0430242524" flag="0"/>
      <vel value="0.0240886448" flag="0"/>
      <psa03 value="0.1057266290" flag="0"/>
      <psa10 value="0.0183932682" flag="0"/>
      <psa30 value="0.0014973585" flag="0"/>
    </comp>
    <comp name="--.HHN">
      <acc value="0.0692229910" flag="0"/>
      <vel value="0.0256552817" flag="0"/>
      <psa03 value="0.1308796873" flag="0"/>
      <psa10 value="0.0287315509" flag="0"/>
      <psa30 value="0.0021318833" flag="0"/>
    </comp>
  </station>
  <station code="HAVD" name="HAVD" netid="HA" insttype="GEOtiny," commtype="DIG" lat="38.2036" lon="20.3848">
    <comp name="--.HHE">
      <acc value="0.0285427535" flag="0"/>
      <vel value="0.0138168097" flag="0"/>
      <psa03 value="0.0667468429" flag="0"/>
      <psa10 value="0.0203653284" flag="0"/>
      <psa30 value="0.0011539224" flag="0"/>
    </comp>
    <comp name="--.HHN">
      <acc value="0.0310669007" flag="0"/>
      <vel value="0.0152977256" flag="0"/>
      <psa03 value="0.0573947533" flag="0"/>
      <psa10 value="0.0213074412" flag="0"/>
      <psa30 value="0.0018525525" flag="0"/>
    </comp>
    <comp name="--.HHZ">
      <acc value="0.0161654661" flag="0"/>
      <vel value="0.0078543881" flag="0"/>
      <psa03 value="0.0542158398" flag="0"/>
      <psa10 value="0.0100181267" flag="0"/>
      <psa30 value="0.0007078843" flag="0"/>
    </comp>
  </station>
  <station code="KALE" name="KALE" netid="HA" insttype="40," commtype="DIG" lat="38.3911" lon="22.1398">
    <comp name="--.HHZ">
      <acc value="0.1945708004" flag="0"/>
      <vel value="0.0510456032" flag="0"/>
      <psa03 value="0.2724157652" flag="0"/>
      <psa10 value="0.0331044507" flag="0"/>
      <psa30 value="0.0024273384" flag="0"/>
    </comp>
    <comp name="--.HHN">
      <acc value="0.3406619865" flag="0"/>
      <vel value="0.1227619978" flag="0"/>
      <psa03 value="0.4855118757" flag="0"/>
      <psa10 value="0.0484006140" flag="0"/>
      <psa30 value="0.0042610215" flag="0"/>
    </comp>
    <comp name="--.HHE">
      <acc value="0.3530708084" flag="0"/>
      <vel value="0.1235566547" flag="0"/>
      <psa03 value="0.5700459894" flag="0"/>
      <psa10 value="0.0807000740" flag="0"/>
      <psa30 value="0.0046214660" flag="0"/>
    </comp>
  </station>
  <station code="KIAS" name="KIAS" netid="HA" insttype="DC" commtype="DIG" lat="37.9875" lon="22.7543">
    <comp name="--.HNN">
      <acc value="0.2643092269" flag="0"/>
      <vel value="0.1116182230" flag="0"/>
      <psa03 value="0.3848994851" flag="0"/>
      <psa10 value="0.1047634650" flag="0"/>
      <psa30 value="0.0116541402" flag="0"/>
    </comp>
    <comp name="--.HNE">
      <acc value="0.2140129660" flag="0"/>
      <vel value="0.0889718992" flag="0"/>
      <psa03 value="0.3868463832" flag="0"/>
      <psa10 value="0.1786910795" flag="0"/>
      <psa30 value="0.0130677617" flag="0"/>
    </comp>
    <comp name="--.HNZ">
      <acc value="0.1212334806" flag="0"/>
      <vel value="0.0518161728" flag="0"/>
      <psa03 value="0.2697353062" flag="0"/>
      <psa10 value="0.0814294615" flag="0"/>
      <psa30 value="0.0071889194" flag="0"/>
    </comp>
  </station>
  <station code="LAKA" name="LAKA" netid="HA" insttype="120s," commtype="DIG" lat="38.2401" lon="21.9785">
    <comp name="--.HHE">
      <acc value="0.8540370135" flag="0"/>
      <vel value="0.1300894591" flag="0"/>
      <psa03 value="0.4367708132" flag="0"/>
      <psa10 value="0.1046878748" flag="0"/>
      <psa30 value="0.0082472132" flag="0"/>
    </comp>
    <comp name="--.HHZ">
      <acc value="1.1697608459" flag="0"/>
      <vel value="0.1979227832" flag="0"/>
      <psa03 value="0.7297260404" flag="0"/>
      <psa10 value="0.1687788422" flag="0"/>
      <psa30 value="0.0096967387" flag="0"/>
    </comp>
    <comp name="--.HHN">
      <acc value="0.7730705141" flag="0"/>
      <vel value="0.1148989795" flag="0"/>
      <psa03 value="0.5323303765" flag="0"/>
      <psa10 value="0.1394771805" flag="0"/>
      <psa30 value="0.0086771550" flag="0"/>
    </comp>
  </station>
  <station code="LOUT" name="LOUT" netid="HA" insttype="30" commtype="DIG" lat="37.9879" lon="22.9743">
    <comp name="--.HHZ">
      <acc value="0.0387193967" flag="0"/>
      <vel value="0.0261616406" flag="0"/>
      <psa03 value="0.1096559094" flag="0"/>
      <psa10 value="0.0208467555" flag="0"/>
      <psa30 value="0.0021427436" flag="0"/>
    </comp>
    <comp name="--.HHE">
      <acc value="0.0726649962" flag="0"/>
      <vel value="0.0438666939" flag="0"/>
      <psa03 value="0.1830328101" flag="0"/>
      <psa10 value="0.0879617813" flag="0"/>
      <psa30 value="0.0030282422" flag="0"/>
    </comp>
    <comp name="--.HHN">
      <acc value="0.0840890607" flag="0"/>
      <vel value="0.0489267146" flag="0"/>
      <psa03 value="0.1509082891" flag="0"/>
      <psa10 value="0.0601652174" flag="0"/>
      <psa30 value="0.0032590407" flag="0"/>
    </comp>
  </station>
  <station code="MDRA" name="MDRA" netid="HA" insttype="60" commtype="DIG" lat="38.0606" lon="23.4662">
