<?xml version="1.0" encoding="UTF-8" standalone="yes"?>
<!DOCTYPE earthquake SYSTEM "stationlist.dtd">
<stationlist created="" xmlns="ch.ethz.sed.shakemap.usgs.xml">
  <station code="AGRP" name="AGRP" netid="CL" insttype="CMG40-T" commtype="DIG" lat="38.3959" lon="21.7228">
    <comp name="00.HHZ">
      <acc value="0.1432897095" flag="0"/>
      <vel value="0.0576834443" flag="0"/>
      <psa03 value="0.3480845194" flag="0"/>
      <psa10 value="0.0324846055" flag="0"/>
      <psa30 value="0.0043532757" flag="0"/>
    </comp>
    <comp name="00.HHN">
      <acc value="0.1506366530" flag="0"/>
      <vel value="0.0642632969" flag="0"/>
      <psa03 value="0.3476390516" flag="0"/>
      <psa10 value="0.0391757099" flag="0"/>
      <psa30 value="0.0031429735" flag="0"/>
    </comp>
    <comp name="00.HHE">
      <acc value="0.2490733633" flag="0"/>
      <vel value="0.1240049619" flag="0"/>
      <psa03 value="0.6016955761" flag="0"/>
      <psa10 value="0.0823955039" flag="0"/>
      <psa30 value="0.0075602966" flag="0"/>
    </comp>
  </station>
  <station code="ALIK" name="ALIK" netid="CL" insttype="TRILLIUM-40" commtype="DIG" lat="38.2605" lon="22.1114">
    <comp name="02.HHN">
      <acc value="1.7481036561" flag="0"/>
      <vel value="0.3591912560" flag="0"/>
      <psa03 value="2.1596483027" flag="0"/>
      <psa10 value="0.2038914851" flag="0"/>
      <psa30 value="0.0483066694" flag="0"/>
    </comp>
    <comp name="02.HHZ">
      <acc value="2.3025603457" flag="0"/>
      <vel value="0.3201236956" flag="0"/>
      <psa03 value="1.8736347312" flag="0"/>
      <psa10 value="0.3274430073" flag="0"/>
      <psa30 value="0.0555429651" flag="0"/>
    </comp>
    <comp name="02.HHE">
      <acc value="2.6326686926" flag="0"/>
      <vel value="0.6171847403" flag="0"/>
      <psa03 value="4.8425305329" flag="0"/>
      <psa10 value="0.3842481626" flag="0"/>
      <psa30 value="0.0615535267" flag="0"/>
    </comp>
  </station>
  <station code="MALA" name="MALA" netid="CL" insttype="TRILLIUM-40" commtype="DIG" lat="38.3934" lon="21.8726">
    <comp name="01.HHN">
      <acc value="0.4108958307" flag="0"/>
      <vel value="0.1651097915" flag="0"/>
      <psa03 value="1.8254391195" flag="0"/>
      <psa10 value="0.1159812866" flag="0"/>
      <psa30 value="0.0086737245" flag="0"/>
    </comp>
    <comp name="01.HHZ">
      <acc value="0.2280952967" flag="0"/>
      <vel value="0.0683624936" flag="0"/>
      <psa03 value="0.2156979600" flag="0"/>
      <psa10 value="0.0543470706" flag="0"/>
      <psa30 value="0.0059074761" flag="0"/>
    </comp>
    <comp name="01.HHE">
      <acc value="0.4978062236" flag="0"/>
      <vel value="0.1565467545" flag="0"/>
      <psa03 value="0.7131098666" flag="0"/>
      <psa10 value="0.2175611429" flag="0"/>
      <psa30 value="0.0159245135" flag="0"/>
    </comp>
  </station>
  <station code="MG06" name="MG06" netid="CL" insttype="TRILLIUM-40" commtype="DIG" lat="38.4129" lon="21.9462">
    <comp name="06.HHN">
      <acc value="0.4623837499" flag="0"/>
      <vel value="0.0979776818" flag="0"/>
      <psa03 value="0.2441123295" flag="0"/>
      <psa10 value="0.0381725934" flag="0"/>
      <psa30 value="0.0041562191" flag="0"/>
    </comp>
    <comp name="06.HHE">
      <acc value="0.4933156051" flag="0"/>
      <vel value="0.1658847284" flag="0"/>
      <psa03 value="0.8818544544" flag="0"/>
      <psa10 value="0.0533277381" flag="0"/>
      <psa30 value="0.0072907207" flag="0"/>
    </comp>
    <comp name="06.HHZ">
      <acc value="0.2140843063" flag="0"/>
      <vel value="0.0508771258" flag="0"/>
      <psa03 value="0.1555511498" flag="0"/>
      <psa10 value="0.0288461386" flag="0"/>
      <psa30 value="0.0047043571" flag="0"/>
    </comp>
  </station>
  <station code="PANR" name="PANR" netid="CL" insttype="TRILLIUM-40" commtype="DIG" lat="38.3735" lon="22.2497">
    <comp name="01.HHE">
      <acc value="0.1874218230" flag="0"/>
      <vel value="0.0989894171" flag="0"/>
      <psa03 value="0.5540379562" flag="0"/>
      <psa10 value="0.0515225605" flag="0"/>
      <psa30 value="0.0056978195" flag="0"/>
    </comp>
    <comp name="01.HHN">
      <acc value="0.0807974141" flag="0"/>
      <vel value="0.0534696041" flag="0"/>
      <psa03 value="0.1964761455" flag="0"/>
      <psa10 value="0.0534336299" flag="0"/>
      <psa30 value="0.0057469337" flag="0"/>
    </comp>
    <comp name="01.HHZ">
      <acc value="0.0584397622" flag="0"/>
      <vel value="0.0245857050" flag="0"/>
      <psa03 value="0.0840929784" flag="0"/>
      <psa10 value="0.0383485722" flag="0"/>
      <psa30 value="0.0026415553" flag="0"/>
    </comp>
  </station>
  <station code="PSAM" name="PSAM" netid="CL" insttype="CMG40-T" commtype="DIG" lat="38.3218" lon="22.1842">
    <comp name="00.HHZ">
      <acc value="0.3421428573" flag="0"/>
      <vel value="0.0659074271" flag="0"/>
      <psa03 value="0.2369767584" flag="0"/>
      <psa10 value="0.0636329489" flag="0"/>
      <psa30 value="0.0037070655" flag="0"/>
    </comp>
    <comp name="00.HHN">
      <acc value="0.4155312654" flag="0"/>
      <vel value="0.2287345412" flag="0"/>
      <psa03 value="0.7345178761" flag="0"/>
      <psa10 value="0.1630378081" flag="0"/>
      <psa30 value="0.0109274509" flag="0"/>
    </comp>
    <comp name="00.HHE">
      <acc value="0.4259762801" flag="0"/>
      <vel value="0.1923350723" flag="0"/>
      <psa03 value="0.5347195129" flag="0"/>
      <psa10 value="0.1375658991" flag="0"/>
      <psa30 value="0.0119401488" flag="0"/>
    </comp>
  </station>
  <station code="TRIZ" name="TRIZ" netid="CL" insttype="STS-2" commtype="DIG" lat="38.3654" lon="22.0727">
    <comp name="00.HH3">
      <acc value="0.5007916650" flag="0"/>
      <vel value="0.1738102648" flag="0"/>
      <psa03 value="0.9797076986" flag="0"/>
      <psa10 value="0.1065495834" flag="0"/>
      <psa30 value="0.0074243549" flag="0"/>
    </comp>
    <comp name="00.HH2">
      <acc value="0.4722450232" flag="0"/>
      <vel value="0.1716610485" flag="0"/>
      <psa03 value="0.9928601781" flag="0"/>
      <psa10 value="0.1006021750" flag="0"/>
      <psa30 value="0.0082028067" flag="0"/>
    </comp>
    <comp name="00.HHZ">
      <acc value="0.5221417489" flag="0"/>
      <vel value="0.1292444216" flag="0"/>
      <psa03 value="0.4008824681" flag="0"/>
      <psa10 value="0.0362471655" flag="0"/>
      <psa30 value="0.0044816443" flag="0"/>
    </comp>
  </station>
  <station code="ZIRI" name="ZIRI" netid="CL" insttype="TRILLIUM-40" commtype="DIG" lat="38.3051" lon="21.9476">
    <comp name="01.HHZ">
      <acc value="1.9617059013" flag="0"/>
      <vel value="0.5140363871" flag="0"/>
      <psa03 value="2.0108384762" flag="0"/>
      <psa10 value="0.1454878576" flag="0"/>
      <psa30 value="0.0140332445" flag="0"/>
    </comp>
    <comp name="01.HHN">
      <acc value="1.4136645252" flag="0"/>
      <vel value="0.4558424831" flag="0"/>
      <psa03 value="2.4712423177" flag="0"/>
      <psa10 value="0.1484110649" flag="0"/>
      <psa30 value="0.0141437372" flag="0"/>
    </comp>
    <comp name="01.HHE">
      <acc value="1.7582077229" flag="0"/>
      <vel value="0.5318413129" flag="0"/>
      <psa03 value="1.8055389118" flag="0"/>
      <psa10 value="0.2430854304" flag="0"/>
      <psa30 value="0.0168648750" flag="0"/>
    </comp>
  </station>
  <station code="KLV" name="KLV" netid="MN" insttype="" commtype="DIG" lat="38.0437" lon="22.1504">
    <comp name="--.HHN">
      <acc value="0.9805343749" flag="0"/>
      <vel value="0.3195541927" flag="0"/>
      <psa03 value="1.8642181652" flag="0"/>
      <psa10 value="0.2471176827" flag="0"/>
      <psa30 value="0.0188738130" flag="0"/>
    </comp>
    <comp name="--.HHE">
      <acc value="1.4884190754" flag="0"/>
      <vel value="0.2579487925" flag="0"/>
      <psa03 value="0.9514914863" flag="0"/>
      <psa10 value="0.1670643982" flag="0"/>
      <psa30 value="0.0091745233" flag="0"/>
    </comp>
    <comp name="--.HHZ">
      <acc value="1.0666722256" flag="0"/>
      <vel value="0.3222867576" flag="0"/>
      <psa03 value="1.1904606417" flag="0"/>
      <psa10 value="0.1117792056" flag="0"/>
      <psa30 value="0.0076034980" flag="0"/>
    </comp>
  </station>
</stationlist>
