<stationlist created="1743973326">
	<station code="AGRP" name="AGRP" netid="CL" source="Corinth Riff Laboratory (CRLNET)" insttype="" lat="38.3959" lon="21.72277">
		<comp name="00.HNE" depth="0.0">
			<acc value="0.24835648318746" flag="0"/>
			<vel value="0.119235732403" flag="0"/>
			<psa03 value="0.598052493044503" flag="0"/>
			<psa10 value="0.0804841191777045" flag="0"/>
			<psa30 value="0.00732585446855333" flag="0"/>
		</comp>
		<comp name="00.HNN" depth="0.0">
			<acc value="0.1722557738226" flag="0"/>
			<vel value="0.0654318067366" flag="0"/>
			<psa03 value="0.3443459570629" flag="0"/>
			<psa10 value="0.0400189348080084" flag="0"/>
			<psa30 value="0.00328703379152348" flag="0"/>
		</comp>
		<comp name="00.HNZ" depth="0.0">
			<acc value="0.14518301698524" flag="0"/>
			<vel value="0.0572499599364" flag="0"/>
			<psa03 value="0.340619897729793" flag="0"/>
			<psa10 value="0.0309815411250675" flag="0"/>
			<psa30 value="0.00503456851545288" flag="0"/>
		</comp>
	</station>
	<station code="MALA" name="MALA" netid="CL" source="Corinth Riff Laboratory (CRLNET)" insttype="" lat="38.39341" lon="21.87263">
		<comp name="01.HNE" depth="0.0">
			<acc value="0.50459060909262" flag="0"/>
			<vel value="0.15557119296" flag="0"/>
			<psa03 value="0.690733341029084" flag="0"/>
			<psa10 value="0.21564657552739" flag="0"/>
			<psa30 value="0.0168841051557537" flag="0"/>
		</comp>
		<comp name="01.HNN" depth="0.0">
			<acc value="0.40952604410646" flag="0"/>
			<vel value="0.166665431205" flag="0"/>
			<psa03 value="1.82807110073689" flag="0"/>
			<psa10 value="0.123755768212353" flag="0"/>
			<psa30 value="0.00930188453751717" flag="0"/>
		</comp>
		<comp name="01.HNZ" depth="0.0">
			<acc value="0.24060150402654" flag="0"/>
			<vel value="0.0700011555434" flag="0"/>
			<psa03 value="0.220027867432997" flag="0"/>
			<psa10 value="0.0546731355770429" flag="0"/>
			<psa30 value="0.00703618944635354" flag="0"/>
		</comp>
	</station>
	<station code="TRIZ" name="TRIZ" netid="CL" source="Corinth Riff Laboratory (CRLNET)" insttype="" lat="38.36543" lon="22.07272">
		<comp name="00.HNE" depth="0.0">
			<acc value="0.0033816299144916" flag="0"/>
			<vel value="0.0229253306317" flag="0"/>
			<psa03 value="0.00445810001474717" flag="0"/>
			<psa10 value="0.00466361019130607" flag="0"/>
			<psa30 value="0.00550437838806057" flag="0"/>
		</comp>
		<comp name="00.HNN" depth="0.0">
			<acc value="0.0030962006784444" flag="0"/>
			<vel value="0.0231226854612" flag="0"/>
			<psa03 value="0.00429164432641502" flag="0"/>
			<psa10 value="0.0050329135620571" flag="0"/>
			<psa30 value="0.00550443714196032" flag="0"/>
		</comp>
		<comp name="00.HNZ" depth="0.0">
			<acc value="0.0033152945116278" flag="0"/>
			<vel value="0.0224144008468" flag="0"/>
			<psa03 value="0.00445313126111091" flag="0"/>
			<psa10 value="0.00454114301594063" flag="0"/>
			<psa30 value="0.00510300929931316" flag="0"/>
		</comp>
	</station>
	<station code="ATHU" name="ATHU" netid="HA" source="Hellenic Seismological Network, University of Athens, Seismological Laboratory (HA)" insttype="" lat="37.9665" lon="23.7845">
		<comp name=".HNE" depth="0.0">
			<acc value="0.0005948537883516" flag="0"/>
			<vel value="0.00037802890241" flag="0"/>
			<psa03 value="0.0021358600774861" flag="0"/>
			<psa10 value="0.000270664512226996" flag="0"/>
			<psa30 value="7.56202894208433e-05" flag="0"/>
		</comp>
		<comp name=".HNN" depth="0.0">
			<acc value="0.00033976396027884" flag="0"/>
			<vel value="0.000209364904205" flag="0"/>
			<psa03 value="0.00100398065267055" flag="0"/>
			<psa10 value="0.000488964159055662" flag="0"/>
			<psa30 value="5.25802182072733e-05" flag="0"/>
		</comp>
		<comp name=".HNZ" depth="0.0">
			<acc value="0.00058689411931164" flag="0"/>
			<vel value="0.000439042823506" flag="0"/>
			<psa03 value="0.00191540553204749" flag="0"/>
			<psa10 value="0.000470756732199062" flag="0"/>
			<psa30 value="3.63157195402555e-05" flag="0"/>
		</comp>
	</station>
	<station code="KIAS" name="KIAS" netid="HA" source="Hellenic Seismological Network, University of Athens, Seismological Laboratory (HA)" insttype="" lat="37.9875" lon="22.7543">
		<comp name=".HNE" depth="0.0">
			<acc value="0.21403526664624" flag="0"/>
			<vel value="0.0877905731352" flag="0"/>
			<psa03 value="0.386697200125234" flag="0"/>
			<psa10 value="0.178680556710068" flag="0"/>
			<psa30 value="0.0143675184442408" flag="0"/>
		</comp>
		<comp name=".HNN" depth="0.0">
			<acc value="0.26871731761098" flag="0"/>
			<vel value="0.113202624392" flag="0"/>
			<psa03 value="0.389606559522698" flag="0"/>
			<psa10 value="0.104919972933134" flag="0"/>
			<psa30 value="0.0127627129670962" flag="0"/>
		</comp>
		<comp name=".HNZ" depth="0.0">
			<acc value="0.11590850978106" flag="0"/>
			<vel value="0.0514864837036" flag="0"/>
			<psa03 value="0.264551483570886" flag="0"/>
			<psa10 value="0.0813827387070835" flag="0"/>
			<psa30 value="0.00796728279336855" flag="0"/>
		</comp>
	</station>
	<station code="AGR3" name="AGR3" netid="HI" source="ITSAK Strong Motion Network" insttype="" lat="38.5893" lon="21.4162">
		<comp name=".HNE" depth="0.0">
			<acc value="0.10860949852224" flag="0"/>
			<vel value="0.0815844185934" flag="0"/>
			<psa03 value="0.416774817619508" flag="0"/>
			<psa10 value="0.170867574138068" flag="0"/>
			<psa30 value="0.0140507407926022" flag="0"/>
		</comp>
		<comp name=".HNN" depth="0.0">
			<acc value="0.10864028732628" flag="0"/>
			<vel value="0.0776809346482" flag="0"/>
			<psa03 value="0.329528371303871" flag="0"/>
			<psa10 value="0.116633011364771" flag="0"/>
			<psa30 value="0.0101937561196421" flag="0"/>
		</comp>
		<comp name=".HNZ" depth="0.0">
			<acc value="0.064999507073292" flag="0"/>
			<vel value="0.0387320718764" flag="0"/>
			<psa03 value="0.149293744144318" flag="0"/>
			<psa10 value="0.0613492790886368" flag="0"/>
			<psa30 value="0.00662465760107241" flag="0"/>
		</comp>
	</station>
	<station code="AOL1" name="AOL1" netid="HI" source="ITSAK Strong Motion Network" insttype="" lat="37.642378" lon="21.624555">
		<comp name=".HNE" depth="0.0">
			<acc value="0.63240724795068" flag="0"/>
			<vel value="0.230497409576" flag="0"/>
			<psa03 value="1.24937051466617" flag="0"/>
			<psa10 value="0.123217645064462" flag="0"/>
			<psa30 value="0.0138877158263571" flag="0"/>
		</comp>
		<comp name=".HNN" depth="0.0">
			<acc value="0.66078098367804" flag="0"/>
			<vel value="0.261408440306" flag="0"/>
			<psa03 value="2.25633880470742" flag="0"/>
			<psa10 value="0.192440458235978" flag="0"/>
			<psa30 value="0.0138686112274383" flag="0"/>
		</comp>
		<comp name=".HNZ" depth="0.0">
			<acc value="0.32907188818338" flag="0"/>
			<vel value="0.11307637349" flag="0"/>
			<psa03 value="0.88470452399976" flag="0"/>
			<psa10 value="0.105041458481028" flag="0"/>
			<psa30 value="0.00641574292814688" flag="0"/>
		</comp>
	</station>
	<station code="ARG2" name="ARG2" netid="HI" source="ITSAK Strong Motion Network" insttype="" lat="38.1783" lon="20.4878">
		<comp name=".HNE" depth="0.0">
			<acc value="0.077499351073386" flag="0"/>
			<vel value="0.0341837366957" flag="0"/>
			<psa03 value="0.195188346936736" flag="0"/>
			<psa10 value="0.0202945687905822" flag="0"/>
			<psa30 value="0.00225523773176279" flag="0"/>
		</comp>
		<comp name=".HNN" depth="0.0">
			<acc value="0.090406490834574" flag="0"/>
			<vel value="0.0416287444959" flag="0"/>
			<psa03 value="0.147113047600899" flag="0"/>
			<psa10 value="0.0294701328766884" flag="0"/>
			<psa30 value="0.00287588551330058" flag="0"/>
		</comp>
		<comp name=".HNZ" depth="0.0">
			<acc value="0.058531763208846" flag="0"/>
			<vel value="0.020650487641" flag="0"/>
			<psa03 value="0.175125955401692" flag="0"/>
			<psa10 value="0.0131721063374132" flag="0"/>
			<psa30 value="0.00133473644057059" flag="0"/>
		</comp>
	</station>
	<station code="ARS1" name="ARS1" netid="HI" source="ITSAK Strong Motion Network" insttype="" lat="37.6349" lon="22.7293">
		<comp name=".HNE" depth="0.0">
			<acc value="0.13234646642748" flag="0"/>
			<vel value="0.0847271032044" flag="0"/>
			<psa03 value="0.352029945256158" flag="0"/>
			<psa10 value="0.113632280081042" flag="0"/>
			<psa30 value="0.00762740111123356" flag="0"/>
		</comp>
		<comp name=".HNN" depth="0.0">
			<acc value="0.20406418605" flag="0"/>
			<vel value="0.139738292304" flag="0"/>
			<psa03 value="0.549405145393696" flag="0"/>
			<psa10 value="0.073453850957301" flag="0"/>
			<psa30 value="0.00779608395232167" flag="0"/>
		</comp>
		<comp name=".HNZ" depth="0.0">
			<acc value="0.078074995114446" flag="0"/>
			<vel value="0.0487666230233" flag="0"/>
			<psa03 value="0.289989668725766" flag="0"/>
			<psa10 value="0.02801400329025" flag="0"/>
			<psa30 value="0.00418549601857009" flag="0"/>
		</comp>
	</station>
	<station code="ATH5" name="ATH5" netid="HI" source="ITSAK Strong Motion Network" insttype="" lat="37.975421" lon="23.737098">
		<comp name=".HNE" depth="0.0">
			<acc value="0.015750920035932" flag="0"/>
			<vel value="0.0137593073387" flag="0"/>
			<psa03 value="0.0465432395110986" flag="0"/>
			<psa10 value="0.0210851005344113" flag="0"/>
			<psa30 value="0.00158526053656461" flag="0"/>
		</comp>
		<comp name=".HNN" depth="0.0">
			<acc value="0.012939030207048" flag="0"/>
			<vel value="0.0105731302468" flag="0"/>
			<psa03 value="0.0389768163977976" flag="0"/>
			<psa10 value="0.0132032024598462" flag="0"/>
			<psa30 value="0.00176359724632826" flag="0"/>
		</comp>
		<comp name=".HNZ" depth="0.0">
			<acc value="0.0058827266182296" flag="0"/>
			<vel value="0.00518370270704" flag="0"/>
			<psa03 value="0.0155208667229237" flag="0"/>
			<psa10 value="0.00850224073173454" flag="0"/>
			<psa30 value="0.00102779944083485" flag="0"/>
		</comp>
	</station>
	<station code="GTH2" name="GTH2" netid="HI" source="ITSAK Strong Motion Network" insttype="" lat="36.7603" lon="22.5659">
		<comp name=".HNE" depth="0.0">
			<acc value="0.069789812557608" flag="0"/>
			<vel value="0.0500572661906" flag="0"/>
			<psa03 value="0.155758484901896" flag="0"/>
			<psa10 value="0.0555570766334695" flag="0"/>
			<psa30 value="0.00403365470982724" flag="0"/>
		</comp>
		<comp name=".HNN" depth="0.0">
			<acc value="0.09313048858803" flag="0"/>
			<vel value="0.0598610030518" flag="0"/>
			<psa03 value="0.227473860693365" flag="0"/>
			<psa10 value="0.0401686709773081" flag="0"/>
			<psa30 value="0.0033547730705856" flag="0"/>
		</comp>
		<comp name=".HNZ" depth="0.0">
			<acc value="0.030799575198588" flag="0"/>
			<vel value="0.0207141836059" flag="0"/>
			<psa03 value="0.100248307625057" flag="0"/>
			<psa10 value="0.0172492564285989" flag="0"/>
			<psa30 value="0.00134768834023907" flag="0"/>
		</comp>
	</station>
	<station code="KOR2" name="KOR2" netid="HI" source="ITSAK Strong Motion Network" insttype="" lat="37.9401" lon="22.9495">
		<comp name=".HNE" depth="0.0">
			<acc value="0.12338740219944" flag="0"/>
			<vel value="0.0934805311342" flag="0"/>
			<psa03 value="0.512496325367002" flag="0"/>
			<psa10 value="0.120371611528689" flag="0"/>
			<psa30 value="0.00888659035967836" flag="0"/>
		</comp>
		<comp name=".HNN" depth="0.0">
			<acc value="0.12506826098688" flag="0"/>
			<vel value="0.0938107322708" flag="0"/>
			<psa03 value="0.371765961003548" flag="0"/>
			<psa10 value="0.185927911811597" flag="0"/>
			<psa30 value="0.00826150145060445" flag="0"/>
		</comp>
		<comp name=".HNZ" depth="0.0">
			<acc value="0.072276101342292" flag="0"/>
			<vel value="0.0392105799566" flag="0"/>
			<psa03 value="0.227529656056317" flag="0"/>
			<psa10 value="0.0635472096905898" flag="0"/>
			<psa30 value="0.00305177820699383" flag="0"/>
		</comp>
	</station>
	<station code="KYP2" name="KYP2" netid="HI" source="ITSAK Strong Motion Network" insttype="" lat="37.2497" lon="21.667">
		<comp name=".HNE" depth="0.0">
			<acc value="0.15209909222058" flag="0"/>
			<vel value="0.0696659149722" flag="0"/>
			<psa03 value="0.332816922487641" flag="0"/>
			<psa10 value="0.0629892627295875" flag="0"/>
			<psa30 value="0.00329223142750602" flag="0"/>
		</comp>
		<comp name=".HNN" depth="0.0">
			<acc value="0.13829870790672" flag="0"/>
			<vel value="0.0697262354233" flag="0"/>
			<psa03 value="0.322984208618636" flag="0"/>
			<psa10 value="0.0459405508360897" flag="0"/>
			<psa30 value="0.00342677034005261" flag="0"/>
		</comp>
		<comp name=".HNZ" depth="0.0">
			<acc value="0.056429573776512" flag="0"/>
			<vel value="0.0350555746825" flag="0"/>
			<psa03 value="0.127479684486961" flag="0"/>
			<psa10 value="0.0585527788343385" flag="0"/>
			<psa30 value="0.00420301801264838" flag="0"/>
		</comp>
	</station>
	<station code="LAM2" name="LAM2" netid="HI" source="ITSAK Strong Motion Network" insttype="" lat="38.90203" lon="22.431301">
		<comp name=".HNE" depth="0.0">
			<acc value="0.02294323123716" flag="0"/>
			<vel value="0.011246724137" flag="0"/>
			<psa03 value="0.0590730018381432" flag="0"/>
			<psa10 value="0.0112226962610482" flag="0"/>
			<psa30 value="0.00141963560639313" flag="0"/>
		</comp>
		<comp name=".HNN" depth="0.0">
			<acc value="0.03278956912443" flag="0"/>
			<vel value="0.0192030018174" flag="0"/>
			<psa03 value="0.0624595647230043" flag="0"/>
			<psa10 value="0.0134957096495456" flag="0"/>
			<psa30 value="0.00149266315244167" flag="0"/>
		</comp>
		<comp name=".HNZ" depth="0.0">
			<acc value="0.019801836194634" flag="0"/>
			<vel value="0.0116398179155" flag="0"/>
			<psa03 value="0.0376013320495483" flag="0"/>
			<psa10 value="0.0114654085895627" flag="0"/>
			<psa30 value="0.00127813300337239" flag="0"/>
		</comp>
	</station>
	<station code="LEF2" name="LEF2" netid="HI" source="ITSAK Strong Motion Network" insttype="" lat="38.830093" lon="20.708346">
		<comp name=".HNE" depth="0.0">
			<acc value="0.045324737892126" flag="0"/>
			<vel value="0.0539585165697" flag="0"/>
			<psa03 value="0.176104561896467" flag="0"/>
			<psa10 value="0.110398988391316" flag="0"/>
			<psa30 value="0.00899504754442521" flag="0"/>
		</comp>
		<comp name=".HNN" depth="0.0">
			<acc value="0.057590230728054" flag="0"/>
			<vel value="0.0443035394816" flag="0"/>
			<psa03 value="0.183099754460323" flag="0"/>
			<psa10 value="0.0568532862512688" flag="0"/>
			<psa30 value="0.00658776307364832" flag="0"/>
		</comp>
		<comp name=".HNZ" depth="0.0">
			<acc value="0.021309426234756" flag="0"/>
			<vel value="0.0304115568138" flag="0"/>
			<psa03 value="0.0649059559508873" flag="0"/>
			<psa10 value="0.0513807737240986" flag="0"/>
			<psa30 value="0.00339020270929286" flag="0"/>
		</comp>
	</station>
	<station code="LXR2" name="LXR2" netid="HI" source="ITSAK Strong Motion Network" insttype="" lat="38.206718" lon="20.436386">
		<comp name=".HNE" depth="0.0">
			<acc value="0.054876700453686" flag="0"/>
			<vel value="0.0340543210421" flag="0"/>
			<psa03 value="0.1522140521839" flag="0"/>
			<psa10 value="0.0563838451531002" flag="0"/>
			<psa30 value="0.00459200211429019" flag="0"/>
		</comp>
		<comp name=".HNN" depth="0.0">
			<acc value="0.080087337416952" flag="0"/>
			<vel value="0.0438219396324" flag="0"/>
			<psa03 value="0.162110801545097" flag="0"/>
			<psa10 value="0.0709410569968718" flag="0"/>
			<psa30 value="0.00844007161332318" flag="0"/>
		</comp>
		<comp name=".HNZ" depth="0.0">
			<acc value="0.04276530446415" flag="0"/>
			<vel value="0.0231824994078" flag="0"/>
			<psa03 value="0.128878339640631" flag="0"/>
			<psa10 value="0.0304226547265701" flag="0"/>
			<psa30 value="0.00222532262503625" flag="0"/>
		</comp>
	</station>
	<station code="MSL1" name="MSL1" netid="HI" source="ITSAK Strong Motion Network" insttype="" lat="38.3727" lon="21.4243">
		<comp name=".HNE" depth="0.0">
			<acc value="0.25506979989846" flag="0"/>
			<vel value="0.162977649105" flag="0"/>
			<psa03 value="0.666256344545165" flag="0"/>
			<psa10 value="0.255685907936626" flag="0"/>
			<psa30 value="0.0161800118463602" flag="0"/>
		</comp>
		<comp name=".HNN" depth="0.0">
			<acc value="0.22299161461224" flag="0"/>
			<vel value="0.175697012447" flag="0"/>
			<psa03 value="0.544030039318849" flag="0"/>
			<psa10 value="0.25787536297719" flag="0"/>
			<psa30 value="0.0148176915993585" flag="0"/>
		</comp>
		<comp name=".HNZ" depth="0.0">
			<acc value="0.077761767748182" flag="0"/>
			<vel value="0.0592922585105" flag="0"/>
			<psa03 value="0.174886877064008" flag="0"/>
			<psa10 value="0.0851053253101559" flag="0"/>
			<psa30 value="0.00597544001025086" flag="0"/>
		</comp>
	</station>
	<station code="NMA1" name="NMA1" netid="HI" source="ITSAK Strong Motion Network" insttype="" lat="37.81873" lon="22.662702">
		<comp name=".HNE" depth="0.0">
			<acc value="0.24018686700588" flag="0"/>
			<vel value="0.138664204462" flag="0"/>
			<psa03 value="0.423523764704353" flag="0"/>
			<psa10 value="0.192989674618839" flag="0"/>
			<psa30 value="0.0101556652629724" flag="0"/>
		</comp>
		<comp name=".HNN" depth="0.0">
			<acc value="0.2142218658267" flag="0"/>
			<vel value="0.101369610183" flag="0"/>
			<psa03 value="0.67219611302574" flag="0"/>
			<psa10 value="0.104308787445217" flag="0"/>
			<psa30 value="0.0048425695464804" flag="0"/>
		</comp>
		<comp name=".HNZ" depth="0.0">
			<acc value="0.23117083509954" flag="0"/>
			<vel value="0.0984100163886" flag="0"/>
			<psa03 value="0.443173316390694" flag="0"/>
			<psa10 value="0.0938589151924339" flag="0"/>
			<psa30 value="0.00477092063343152" flag="0"/>
		</comp>
	</station>
	<station code="PET1" name="PET1" netid="HI" source="ITSAK Strong Motion Network" insttype="" lat="36.963862" lon="21.92538">
		<comp name=".HNE" depth="0.0">
			<acc value="0.18622120204962" flag="0"/>
			<vel value="0.0996816070426" flag="0"/>
			<psa03 value="0.628050188578036" flag="0"/>
			<psa10 value="0.113363477274007" flag="0"/>
			<psa30 value="0.00502131388738806" flag="0"/>
		</comp>
		<comp name=".HNN" depth="0.0">
			<acc value="0.14980004721066" flag="0"/>
			<vel value="0.0919366626663" flag="0"/>
			<psa03 value="0.459947094238447" flag="0"/>
			<psa10 value="0.0717048925972019" flag="0"/>
			<psa30 value="0.00335158890131396" flag="0"/>
		</comp>
		<comp name=".HNZ" depth="0.0">
			<acc value="0.079344403424466" flag="0"/>
			<vel value="0.0412744736654" flag="0"/>
			<psa03 value="0.237955555054216" flag="0"/>
			<psa10 value="0.0266433549915094" flag="0"/>
			<psa30 value="0.00172420265746614" flag="0"/>
		</comp>
	</station>
	<station code="PIR2" name="PIR2" netid="HI" source="ITSAK Strong Motion Network" insttype="" lat="37.9458" lon="23.6709">
		<comp name=".HNE" depth="0.0">
			<acc value="0.081919448688882" flag="0"/>
			<vel value="0.0619812720787" flag="0"/>
			<psa03 value="0.19424976392697" flag="0"/>
			<psa10 value="0.0304541999413003" flag="0"/>
			<psa30 value="0.00253182438760596" flag="0"/>
		</comp>
		<comp name=".HNN" depth="0.0">
			<acc value="0.096645376053294" flag="0"/>
			<vel value="0.0792522059311" flag="0"/>
			<psa03 value="0.534085213858885" flag="0"/>
			<psa10 value="0.0593816924956205" flag="0"/>
			<psa30 value="0.00396775117737769" flag="0"/>
		</comp>
		<comp name=".HNZ" depth="0.0">
			<acc value="0.05945450814756" flag="0"/>
			<vel value="0.0248400863378" flag="0"/>
			<psa03 value="0.199380562150283" flag="0"/>
			<psa10 value="0.0196860459789415" flag="0"/>
			<psa30 value="0.00164978439428618" flag="0"/>
		</comp>
	</station>
	<station code="PIR3" name="PIR3" netid="HI" source="ITSAK Strong Motion Network" insttype="" lat="37.9573" lon="23.6519">
		<comp name=".HNE" depth="0.0">
			<acc value="0.0187405681812" flag="0"/>
			<vel value="0.0150650551697" flag="0"/>
			<psa03 value="0.062732431757236" flag="0"/>
			<psa10 value="0.0160291037244607" flag="0"/>
			<psa30 value="0.00221710208046641" flag="0"/>
		</comp>
		<comp name=".HNN" depth="0.0">
			<acc value="0.031732988742846" flag="0"/>
			<vel value="0.014454816188" flag="0"/>
			<psa03 value="0.0985297354449691" flag="0"/>
			<psa10 value="0.0159624505590101" flag="0"/>
