<?xml version="1.0" encoding="UTF-8" standalone="yes"?>
<!DOCTYPE earthquake SYSTEM "stationlist.dtd">
<stationlist created="" xmlns="ch.ethz.sed.shakemap.usgs.xml">
  <station code="AGRP" name="AGRP" netid="CL" insttype="CMG40-T" commtype="DIG" lat="38.3959" lon="21.7228">
    <comp name="00.HHE">
      <acc value="0.2490733637" flag="0"/>
      <vel value="0.1240049574" flag="0"/>
      <psa03 value="0.6016955761" flag="0"/>
      <psa10 value="0.0823955025" flag="0"/>
      <psa30 value="0.0075602919" flag="0"/>
    </comp>
    <comp name="00.HHN">
      <acc value="0.1506366541" flag="0"/>
      <vel value="0.0642632957" flag="0"/>
      <psa03 value="0.3476390516" flag="0"/>
      <psa10 value="0.0391757127" flag="0"/>
      <psa30 value="0.0031428191" flag="0"/>
    </comp>
    <comp name="00.HHZ">
      <acc value="0.1432897090" flag="0"/>
      <vel value="0.0576834404" flag="0"/>
      <psa03 value="0.3480845194" flag="0"/>
      <psa10 value="0.0324846067" flag="0"/>
      <psa30 value="0.0043532087" flag="0"/>
    </comp>
  </station>
  <station code="ALIK" name="ALIK" netid="CL" insttype="TRILLIUM-40" commtype="DIG" lat="38.2605" lon="22.1114">
    <comp name="02.HHE">
      <acc value="2.6326686929" flag="0"/>
      <vel value="0.6171847443" flag="0"/>
      <psa03 value="4.8425305329" flag="0"/>
      <psa10 value="0.3842481636" flag="0"/>
      <psa30 value="0.0615534424" flag="0"/>
    </comp>
    <comp name="02.HHZ">
      <acc value="2.3025603459" flag="0"/>
      <vel value="0.3201236947" flag="0"/>
      <psa03 value="1.8736347312" flag="0"/>
      <psa10 value="0.3274430083" flag="0"/>
      <psa30 value="0.0555435160" flag="0"/>
    </comp>
    <comp name="02.HHN">
      <acc value="1.7481036561" flag="0"/>
      <vel value="0.3591912555" flag="0"/>
      <psa03 value="2.1596483027" flag="0"/>
      <psa10 value="0.2038914903" flag="0"/>
      <psa30 value="0.0483065023" flag="0"/>
    </comp>
  </station>
  <station code="MALA" name="MALA" netid="CL" insttype="TRILLIUM-40" commtype="DIG" lat="38.3934" lon="21.8726">
    <comp name="01.HHE">
      <acc value="0.4978062236" flag="0"/>
      <vel value="0.1565467517" flag="0"/>
      <psa03 value="0.7131098666" flag="0"/>
      <psa10 value="0.2175611474" flag="0"/>
      <psa30 value="0.0159243867" flag="0"/>
    </comp>
    <comp name="01.HHN">
      <acc value="0.4108958309" flag="0"/>
      <vel value="0.1651097878" flag="0"/>
      <psa03 value="1.8254391195" flag="0"/>
      <psa10 value="0.1159812866" flag="0"/>
      <psa30 value="0.0086733332" flag="0"/>
    </comp>
    <comp name="01.HHZ">
      <acc value="0.2280952967" flag="0"/>
      <vel value="0.0683624921" flag="0"/>
      <psa03 value="0.2156979600" flag="0"/>
      <psa10 value="0.0543470704" flag="0"/>
      <psa30 value="0.0059071860" flag="0"/>
    </comp>
  </station>
  <station code="MG06" name="MG06" netid="CL" insttype="TRILLIUM-40" commtype="DIG" lat="38.4129" lon="21.9462">
    <comp name="06.HHN">
      <acc value="0.4623837497" flag="0"/>
      <vel value="0.0979776811" flag="0"/>
      <psa03 value="0.2441123295" flag="0"/>
      <psa10 value="0.0381725934" flag="0"/>
      <psa30 value="0.0041560195" flag="0"/>
    </comp>
    <comp name="06.HHE">
      <acc value="0.4933156049" flag="0"/>
      <vel value="0.1658847265" flag="0"/>
      <psa03 value="0.8818544544" flag="0"/>
      <psa10 value="0.0533277397" flag="0"/>
      <psa30 value="0.0072907125" flag="0"/>
    </comp>
    <comp name="06.HHZ">
      <acc value="0.2140843060" flag="0"/>
      <vel value="0.0508771258" flag="0"/>
      <psa03 value="0.1555511498" flag="0"/>
      <psa10 value="0.0288461384" flag="0"/>
      <psa30 value="0.0047044691" flag="0"/>
    </comp>
  </station>
  <station code="PANR" name="PANR" netid="CL" insttype="TRILLIUM-40" commtype="DIG" lat="38.3735" lon="22.2497">
    <comp name="01.HHE">
      <acc value="0.1874218231" flag="0"/>
      <vel value="0.0989894180" flag="0"/>
      <psa03 value="0.5540379562" flag="0"/>
      <psa10 value="0.0515225609" flag="0"/>
      <psa30 value="0.0056979189" flag="0"/>
    </comp>
    <comp name="01.HHZ">
      <acc value="0.0584397620" flag="0"/>
      <vel value="0.0245857064" flag="0"/>
      <psa03 value="0.0840929785" flag="0"/>
      <psa10 value="0.0383485721" flag="0"/>
      <psa30 value="0.0026417275" flag="0"/>
    </comp>
    <comp name="01.HHN">
      <acc value="0.0807974139" flag="0"/>
      <vel value="0.0534696025" flag="0"/>
      <psa03 value="0.1964761455" flag="0"/>
      <psa10 value="0.0534336327" flag="0"/>
      <psa30 value="0.0057469820" flag="0"/>
    </comp>
  </station>
  <station code="PSAM" name="PSAM" netid="CL" insttype="CMG40-T" commtype="DIG" lat="38.3218" lon="22.1842">
    <comp name="00.HHZ">
      <acc value="0.3421428576" flag="0"/>
      <vel value="0.0659074270" flag="0"/>
      <psa03 value="0.2369767584" flag="0"/>
      <psa10 value="0.0636329488" flag="0"/>
      <psa30 value="0.0037070473" flag="0"/>
    </comp>
    <comp name="00.HHN">
      <acc value="0.4155312661" flag="0"/>
      <vel value="0.2287345432" flag="0"/>
      <psa03 value="0.7345178761" flag="0"/>
      <psa10 value="0.1630378046" flag="0"/>
      <psa30 value="0.0109271658" flag="0"/>
    </comp>
    <comp name="00.HHE">
      <acc value="0.4259762804" flag="0"/>
      <vel value="0.1923350737" flag="0"/>
      <psa03 value="0.5347195129" flag="0"/>
      <psa10 value="0.1375658914" flag="0"/>
      <psa30 value="0.0119396312" flag="0"/>
    </comp>
  </station>
  <station code="TRIZ" name="TRIZ" netid="CL" insttype="STS-2" commtype="DIG" lat="38.3654" lon="22.0727">
    <comp name="00.HH2">
      <acc value="0.4722450234" flag="0"/>
      <vel value="0.1716610490" flag="0"/>
      <psa03 value="0.9928601781" flag="0"/>
      <psa10 value="0.1006021696" flag="0"/>
      <psa30 value="0.0082025909" flag="0"/>
    </comp>
    <comp name="00.HH3">
      <acc value="0.5007916650" flag="0"/>
      <vel value="0.1738102659" flag="0"/>
      <psa03 value="0.9797076986" flag="0"/>
      <psa10 value="0.1065495853" flag="0"/>
      <psa30 value="0.0074245289" flag="0"/>
    </comp>
    <comp name="00.HHZ">
      <acc value="0.5221417488" flag="0"/>
      <vel value="0.1292444219" flag="0"/>
      <psa03 value="0.4008824681" flag="0"/>
      <psa10 value="0.0362471796" flag="0"/>
      <psa30 value="0.0044818512" flag="0"/>
    </comp>
  </station>
  <station code="ZIRI" name="ZIRI" netid="CL" insttype="TRILLIUM-40" commtype="DIG" lat="38.3051" lon="21.9476">
    <comp name="01.HHE">
      <acc value="1.7582077226" flag="0"/>
      <vel value="0.5318413131" flag="0"/>
      <psa03 value="1.8055389118" flag="0"/>
      <psa10 value="0.2430854358" flag="0"/>
      <psa30 value="0.0168646605" flag="0"/>
    </comp>
    <comp name="01.HHZ">
      <acc value="1.9617059010" flag="0"/>
      <vel value="0.5140363872" flag="0"/>
      <psa03 value="2.0108384762" flag="0"/>
      <psa10 value="0.1454878512" flag="0"/>
      <psa30 value="0.0140333038" flag="0"/>
    </comp>
    <comp name="01.HHN">
      <acc value="1.4136645255" flag="0"/>
      <vel value="0.4558424800" flag="0"/>
      <psa03 value="2.4712423177" flag="0"/>
      <psa10 value="0.1484110649" flag="0"/>
      <psa30 value="0.0141435013" flag="0"/>
    </comp>
  </station>
  <station code="KLV" name="KLV" netid="MN" insttype="" commtype="DIG" lat="38.0437" lon="22.1504">
    <comp name="--.HHE">
      <acc value="1.4884190752" flag="0"/>
      <vel value="0.2579487922" flag="0"/>
      <psa03 value="0.9514914863" flag="0"/>
      <psa10 value="0.1670643972" flag="0"/>
      <psa30 value="0.0091745608" flag="0"/>
    </comp>
    <comp name="--.HHN">
      <acc value="0.9805343750" flag="0"/>
      <vel value="0.3195541923" flag="0"/>
      <psa03 value="1.8642181652" flag="0"/>
      <psa10 value="0.2471176811" flag="0"/>
      <psa30 value="0.0188736313" flag="0"/>
    </comp>
    <comp name="--.HHZ">
      <acc value="1.0666722256" flag="0"/>
      <vel value="0.3222867578" flag="0"/>
      <psa03 value="1.1904606417" flag="0"/>
      <psa10 value="0.1117792052" flag="0"/>
      <psa30 value="0.0076036695" flag="0"/>
    </comp>
  </station>
</stationlist>
