<stationlist created="1778135648">
	<station code="S2405" name="S2405" netid="S2" source="IceSMN Icelandic Strong Motion Network (IceSMN)" insttype="" lat="64.0447" lon="-21.9848">
		<comp name="00.HN1" depth="0.0">
			<acc value="0.0673618677529907" flag="0"/>
			<vel value="0.0966662697971954" flag="0"/>
			<psa03 value="0.127265482796918" flag="0"/>
			<psa10 value="0.161309375954595" flag="0"/>
			<psa30 value="0.0123716195590667" flag="0"/>
		</comp>
		<comp name="00.HN2" depth="0.0">
			<acc value="0.0862412296552917" flag="0"/>
			<vel value="0.131201980740454" flag="0"/>
			<psa03 value="0.114149290997181" flag="0"/>
			<psa10 value="0.199527737733585" flag="0"/>
			<psa30 value="0.0212423538683637" flag="0"/>
		</comp>
		<comp name="00.HNZ" depth="0.0">
			<acc value="0.0203876758593836" flag="0"/>
			<vel value="0.0321215632579612" flag="0"/>
			<psa03 value="0.0607579051211786" flag="0"/>
			<psa10 value="0.0415968143349293" flag="0"/>
			<psa30 value="0.0112210775080035" flag="0"/>
		</comp>
	</station>
	<station code="S2602" name="S2602" netid="S2" source="IceSMN Icelandic Strong Motion Network (IceSMN)" insttype="" lat="63.8464" lon="-22.4268">
		<comp name="00.HN1" depth="0.0">
			<acc value="0.0660304155839392" flag="0"/>
			<vel value="0.106609361712053" flag="0"/>
			<psa03 value="0.0816597637254477" flag="0"/>
			<psa10 value="0.208742248149544" flag="0"/>
			<psa30 value="0.0304558275490961" flag="0"/>
		</comp>
		<comp name="00.HN2" depth="0.0">
			<acc value="0.0373486827918296" flag="0"/>
			<vel value="0.0575248942091361" flag="0"/>
			<psa03 value="0.0683196143809572" flag="0"/>
			<psa10 value="0.110024638592471" flag="0"/>
			<psa30 value="0.0186437400562725" flag="0"/>
		</comp>
		<comp name="00.HNZ" depth="0.0">
			<acc value="0.0176600977285957" flag="0"/>
			<vel value="0.041600591302213" flag="0"/>
			<psa03 value="0.0303665897625533" flag="0"/>
			<psa10 value="0.054865999603158" flag="0"/>
			<psa30 value="0.0262299942750387" flag="0"/>
		</comp>
	</station>
	<station code="S2604" name="S2604" netid="S2" source="IceSMN Icelandic Strong Motion Network (IceSMN)" insttype="" lat="63.9843" lon="-21.6486">
		<comp name="00.HN1" depth="0.0">
			<acc value="0.0535090534227523" flag="0"/>
			<vel value="0.0872079985395528" flag="0"/>
			<psa03 value="0.111249453063429" flag="0"/>
			<psa10 value="0.139487475360783" flag="0"/>
			<psa30 value="0.0250957008003307" flag="0"/>
		</comp>
		<comp name="00.HN2" depth="0.0">
			<acc value="0.0420972219168267" flag="0"/>
			<vel value="0.0686893123851174" flag="0"/>
			<psa03 value="0.143278720678906" flag="0"/>
			<psa10 value="0.128681929546278" flag="0"/>
			<psa30 value="0.0241636357222963" flag="0"/>
		</comp>
		<comp name="00.HNZ" depth="0.0">
			<acc value="0.026273832017842" flag="0"/>
			<vel value="0.0389637621134635" flag="0"/>
			<psa03 value="0.102645851867429" flag="0"/>
			<psa10 value="0.0706643486664858" flag="0"/>
			<psa30 value="0.0181027842206241" flag="0"/>
		</comp>
	</station>
</stationlist>
