<?xml version="1.0" encoding="UTF-8" standalone="yes"?>
<!DOCTYPE earthquake SYSTEM "stationlist.dtd">
<stationlist created="" xmlns="ch.ethz.sed.shakemap.usgs.xml">
  <station code="GIL" name="GIL" netid="VI" source="ODC" insttype="CMG-3ESP" lat="66.0773" lon="-16.3513">
    <comp name="--.HHE">
      <acc value="0.2484674624" flag="0"/>
      <vel value="0.2413339334" flag="0"/>
      <psa03 value="0.3998631861" flag="0"/>
      <psa10 value="0.3916296042" flag="0"/>
      <psa30 value="0.0992970684" flag="0"/>
    </comp>
    <comp name="--.HHZ">
      <acc value="0.1766453929" flag="0"/>
      <vel value="0.1294123859" flag="0"/>
      <psa03 value="0.3167535508" flag="0"/>
      <psa10 value="0.1577060447" flag="0"/>
      <psa30 value="0.0403237511" flag="0"/>
    </comp>
    <comp name="--.HHN">
      <acc value="0.5827763514" flag="0"/>
      <vel value="0.3453167472" flag="0"/>
      <psa03 value="0.6920607785" flag="0"/>
      <psa10 value="0.5113114933" flag="0"/>
      <psa30 value="0.1209747603" flag="0"/>
    </comp>
  </station>
</stationlist>
