<?xml version="1.0" encoding="UTF-8" standalone="yes"?>
<!DOCTYPE earthquake SYSTEM "stationlist.dtd">
<stationlist created="" xmlns="ch.ethz.sed.shakemap.usgs.xml">
  <station code="TASB" name="TASB" netid="KO" insttype="120s," lat="39.9839" lon="44.2384">
    <comp name="--.HHE">
      <acc value="0.0333738990" flag="0"/>
      <vel value="0.0270592164" flag="0"/>
      <psa03 value="0.1185104735" flag="0"/>
      <psa10 value="0.0257273798" flag="0"/>
      <psa30 value="0.0032170612" flag="0"/>
    </comp>
    <comp name="--.HHZ">
      <acc value="0.0315841571" flag="0"/>
      <vel value="0.0131915899" flag="0"/>
      <psa03 value="0.0712791501" flag="0"/>
      <psa10 value="0.0114110446" flag="0"/>
      <psa30 value="0.0026257136" flag="0"/>
    </comp>
    <comp name="--.HHN">
      <acc value="0.0532566571" flag="0"/>
      <vel value="0.0249551560" flag="0"/>
      <psa03 value="0.1256359974" flag="0"/>
      <psa10 value="0.0290398219" flag="0"/>
      <psa30 value="0.0042158254" flag="0"/>
    </comp>
  </station>
</stationlist>
