<?xml version="1.0" encoding="UTF-8" standalone="yes"?>
<!DOCTYPE earthquake SYSTEM "stationlist.dtd">
<stationlist created="" xmlns="ch.ethz.sed.shakemap.usgs.xml">
  <station code="KTHR" name="KTHR" netid="HC" insttype="120s" lat="36.2447" lon="22.9939">
    <comp name="--.HHE">
      <acc value="0.0576752190" flag="0"/>
      <vel value="0.0322428084" flag="0"/>
      <psa03 value="0.2192799810" flag="0"/>
      <psa10 value="0.0266258400" flag="0"/>
      <psa30 value="0.0014878777" flag="0"/>
    </comp>
    <comp name="--.HHZ">
      <acc value="0.0272887226" flag="0"/>
      <vel value="0.0117685780" flag="0"/>
      <psa03 value="0.0572980932" flag="0"/>
      <psa10 value="0.0138343361" flag="0"/>
      <psa30 value="0.0006385778" flag="0"/>
    </comp>
    <comp name="--.HHN">
      <acc value="0.0555758400" flag="0"/>
      <vel value="0.0396632599" flag="0"/>
      <psa03 value="0.1588676273" flag="0"/>
      <psa10 value="0.0330252896" flag="0"/>
      <psa30 value="0.0016508420" flag="0"/>
    </comp>
  </station>
  <station code="ITM" name="ITM" netid="HL" insttype="DR24" lat="37.1787" lon="21.9252">
    <comp name="--.HHE">
      <acc value="0.0273831576" flag="0"/>
      <vel value="0.0173869019" flag="0"/>
      <psa03 value="0.0896670247" flag="0"/>
      <psa10 value="0.0151945997" flag="0"/>
      <psa30 value="0.0014879494" flag="0"/>
    </comp>
    <comp name="--.HHZ">
      <acc value="0.0179301585" flag="0"/>
      <vel value="0.0109510943" flag="0"/>
      <psa03 value="0.0665560956" flag="0"/>
      <psa10 value="0.0152906004" flag="0"/>
      <psa30 value="0.0021099919" flag="0"/>
    </comp>
    <comp name="--.HHN">
      <acc value="0.0277480809" flag="0"/>
      <vel value="0.0175176775" flag="0"/>
      <psa03 value="0.1039932692" flag="0"/>
      <psa10 value="0.0103342927" flag="0"/>
      <psa30 value="0.0012548908" flag="0"/>
    </comp>
  </station>
  <station code="KTHA" name="KTHA" netid="HL" insttype="120" lat="36.2566" lon="23.0621">
    <comp name="--.HHN">
      <acc value="0.0107182036" flag="0"/>
      <vel value="0.0099748511" flag="0"/>
      <psa03 value="0.0240681549" flag="0"/>
      <psa10 value="0.0171185655" flag="0"/>
      <psa30 value="0.0010084899" flag="0"/>
    </comp>
    <comp name="--.HHE">
      <acc value="0.0156465271" flag="0"/>
      <vel value="0.0116439392" flag="0"/>
      <psa03 value="0.0353146409" flag="0"/>
      <psa10 value="0.0221722183" flag="0"/>
      <psa30 value="0.0011130350" flag="0"/>
    </comp>
    <comp name="--.HHZ">
      <acc value="0.0064631032" flag="0"/>
      <vel value="0.0035549681" flag="0"/>
      <psa03 value="0.0181731668" flag="0"/>
      <psa10 value="0.0047861383" flag="0"/>
      <psa30 value="0.0006426654" flag="0"/>
    </comp>
  </station>
  <station code="VLI" name="VLI" netid="HL" insttype="60" lat="36.718" lon="22.9469">
    <comp name="--.HHZ">
      <acc value="0.0156887614" flag="0"/>
      <vel value="0.0109945830" flag="0"/>
      <psa03 value="0.0509841145" flag="0"/>
      <psa10 value="0.0105591102" flag="0"/>
      <psa30 value="0.0012653710" flag="0"/>
    </comp>
    <comp name="--.HHE">
      <acc value="0.0198299860" flag="0"/>
      <vel value="0.0147007001" flag="0"/>
      <psa03 value="0.0536798992" flag="0"/>
      <psa10 value="0.0256367971" flag="0"/>
      <psa30 value="0.0022457068" flag="0"/>
    </comp>
    <comp name="--.HHN">
      <acc value="0.0247434035" flag="0"/>
      <vel value="0.0265983558" flag="0"/>
      <psa03 value="0.0792133640" flag="0"/>
      <psa10 value="0.0299348973" flag="0"/>
      <psa30 value="0.0020652502" flag="0"/>
    </comp>
  </station>
  <station code="AMT" name="AMT" netid="HP" insttype="CMG-3T," lat="37.5324" lon="21.7089">
    <comp name="00.HHN">
      <acc value="0.0250591706" flag="0"/>
      <vel value="0.0158676311" flag="0"/>
      <psa03 value="0.0837877944" flag="0"/>
      <psa10 value="0.0216526480" flag="0"/>
      <psa30 value="0.0011930090" flag="0"/>
    </comp>
    <comp name="00.HHE">
      <acc value="0.0230691602" flag="0"/>
      <vel value="0.0220567489" flag="0"/>
      <psa03 value="0.0881793292" flag="0"/>
      <psa10 value="0.0171878610" flag="0"/>
      <psa30 value="0.0020808074" flag="0"/>
    </comp>
    <comp name="00.HHZ">
      <acc value="0.0140980120" flag="0"/>
      <vel value="0.0109833625" flag="0"/>
      <psa03 value="0.0565533635" flag="0"/>
      <psa10 value="0.0138526655" flag="0"/>
      <psa30 value="0.0009306173" flag="0"/>
    </comp>
  </station>
  <station code="PYL" name="PYL" netid="HP" insttype="120s" lat="36.8955" lon="21.742">
    <comp name="--.HHN">
      <acc value="0.0591942683" flag="0"/>
      <vel value="0.0347066486" flag="0"/>
      <psa03 value="0.1359346492" flag="0"/>
      <psa10 value="0.0287246080" flag="0"/>
      <psa30 value="0.0015263960" flag="0"/>
    </comp>
    <comp name="--.HHE">
      <acc value="0.0717163052" flag="0"/>
      <vel value="0.0309350995" flag="0"/>
      <psa03 value="0.2073685399" flag="0"/>
      <psa10 value="0.0212208567" flag="0"/>
      <psa30 value="0.0014822817" flag="0"/>
    </comp>
    <comp name="--.HHZ">
      <acc value="0.0513715538" flag="0"/>
      <vel value="0.0237706465" flag="0"/>
      <psa03 value="0.0947632831" flag="0"/>
      <psa10 value="0.0143491972" flag="0"/>
      <psa30 value="0.0023289280" flag="0"/>
    </comp>
  </station>
  <station code="VLX" name="VLX" netid="HP" insttype="40," lat="37.3703" lon="22.3793">
    <comp name="--.HHE">
      <acc value="0.0140610239" flag="0"/>
      <vel value="0.0127791810" flag="0"/>
      <psa03 value="0.0437448515" flag="0"/>
      <psa10 value="0.0192789890" flag="0"/>
      <psa30 value="0.0009353295" flag="0"/>
    </comp>
    <comp name="--.HHZ">
      <acc value="0.0109586522" flag="0"/>
      <vel value="0.0080834048" flag="0"/>
      <psa03 value="0.0399703619" flag="0"/>
      <psa10 value="0.0088054949" flag="0"/>
      <psa30 value="0.0009649028" flag="0"/>
    </comp>
    <comp name="--.HHN">
      <acc value="0.0188166723" flag="0"/>
      <vel value="0.0156077161" flag="0"/>
      <psa03 value="0.0426079448" flag="0"/>
      <psa10 value="0.0209188592" flag="0"/>
      <psa30 value="0.0010864901" flag="0"/>
    </comp>
  </station>
  <station code="STRF" name="STRF" netid="HT" insttype="30s-100Hz," lat="37.2497" lon="21.013">
    <comp name="--.HHE">
      <acc value="0.0197065581" flag="0"/>
      <vel value="0.0126157581" flag="0"/>
      <psa03 value="0.0408948668" flag="0"/>
      <psa10 value="0.0189626214" flag="0"/>
      <psa30 value="0.0019428082" flag="0"/>
    </comp>
    <comp name="--.HHZ">
      <acc value="0.0104857836" flag="0"/>
      <vel value="0.0072374582" flag="0"/>
      <psa03 value="0.0300546365" flag="0"/>
      <psa10 value="0.0113051947" flag="0"/>
      <psa30 value="0.0011420336" flag="0"/>
    </comp>
    <comp name="--.HHN">
      <acc value="0.0226821401" flag="0"/>
      <vel value="0.0113767699" flag="0"/>
      <psa03 value="0.0613105675" flag="0"/>
      <psa10 value="0.0193879267" flag="0"/>
      <psa30 value="0.0017243235" flag="0"/>
    </comp>
  </station>
</stationlist>
