<?xml version="1.0" encoding="UTF-8" standalone="yes"?>
<!DOCTYPE earthquake SYSTEM "stationlist.dtd">
<stationlist created="" xmlns="ch.ethz.sed.shakemap.usgs.xml">
  <station code="KTHR" name="KTHR" netid="HC" insttype="120s" lat="36.2447" lon="22.9939">
    <comp name="--.HHE">
      <acc value="0.0576752195" flag="0"/>
      <vel value="0.0322428084" flag="0"/>
      <psa03 value="0.2192799810" flag="0"/>
      <psa10 value="0.0266258400" flag="0"/>
      <psa30 value="0.0014878758" flag="0"/>
    </comp>
    <comp name="--.HHZ">
      <acc value="0.0272887229" flag="0"/>
      <vel value="0.0117685778" flag="0"/>
      <psa03 value="0.0572980932" flag="0"/>
      <psa10 value="0.0138343361" flag="0"/>
      <psa30 value="0.0006385774" flag="0"/>
    </comp>
    <comp name="--.HHN">
      <acc value="0.0555758399" flag="0"/>
      <vel value="0.0396632599" flag="0"/>
      <psa03 value="0.1588676273" flag="0"/>
      <psa10 value="0.0330252896" flag="0"/>
      <psa30 value="0.0016508427" flag="0"/>
    </comp>
  </station>
  <station code="ITM" name="ITM" netid="HL" insttype="DR24" lat="37.1787" lon="21.9252">
    <comp name="--.HHE">
      <acc value="0.0273831597" flag="0"/>
      <vel value="0.0173869021" flag="0"/>
      <psa03 value="0.0896670247" flag="0"/>
      <psa10 value="0.0151945997" flag="0"/>
      <psa30 value="0.0014879433" flag="0"/>
    </comp>
    <comp name="--.HHZ">
      <acc value="0.0179301588" flag="0"/>
      <vel value="0.0109510943" flag="0"/>
      <psa03 value="0.0665560956" flag="0"/>
      <psa10 value="0.0152906004" flag="0"/>
      <psa30 value="0.0021099941" flag="0"/>
    </comp>
    <comp name="--.HHN">
      <acc value="0.0277480823" flag="0"/>
      <vel value="0.0175176772" flag="0"/>
      <psa03 value="0.1039932692" flag="0"/>
      <psa10 value="0.0103342927" flag="0"/>
      <psa30 value="0.0012548933" flag="0"/>
    </comp>
  </station>
  <station code="PYL" name="PYL" netid="HP" insttype="120s" lat="36.8955" lon="21.742">
    <comp name="--.HHN">
      <acc value="0.0591942685" flag="0"/>
      <vel value="0.0347066485" flag="0"/>
      <psa03 value="0.1359346492" flag="0"/>
      <psa10 value="0.0287246080" flag="0"/>
      <psa30 value="0.0015263886" flag="0"/>
    </comp>
    <comp name="--.HHE">
      <acc value="0.0717163052" flag="0"/>
      <vel value="0.0309350995" flag="0"/>
      <psa03 value="0.2073685399" flag="0"/>
      <psa10 value="0.0212208569" flag="0"/>
      <psa30 value="0.0014822843" flag="0"/>
    </comp>
    <comp name="--.HHZ">
      <acc value="0.0513715543" flag="0"/>
      <vel value="0.0237706464" flag="0"/>
      <psa03 value="0.0947632831" flag="0"/>
      <psa10 value="0.0143491972" flag="0"/>
      <psa30 value="0.0023289394" flag="0"/>
    </comp>
  </station>
  <station code="STRF" name="STRF" netid="HT" insttype="30s-100Hz," lat="37.2497" lon="21.013">
    <comp name="--.HHE">
      <acc value="0.0197065561" flag="0"/>
      <vel value="0.0126157600" flag="0"/>
      <psa03 value="0.0408948668" flag="0"/>
      <psa10 value="0.0189627431" flag="0"/>
      <psa30 value="0.0019428099" flag="0"/>
    </comp>
    <comp name="--.HHZ">
      <acc value="0.0104857842" flag="0"/>
      <vel value="0.0072374583" flag="0"/>
      <psa03 value="0.0300546365" flag="0"/>
      <psa10 value="0.0113051940" flag="0"/>
      <psa30 value="0.0011420351" flag="0"/>
    </comp>
    <comp name="--.HHN">
      <acc value="0.0226821390" flag="0"/>
      <vel value="0.0113759696" flag="0"/>
      <psa03 value="0.0613105675" flag="0"/>
      <psa10 value="0.0193890320" flag="0"/>
      <psa30 value="0.0017243210" flag="0"/>
    </comp>
  </station>
</stationlist>
