<?xml version="1.0" encoding="UTF-8" standalone="yes"?>
<!DOCTYPE earthquake SYSTEM "stationlist.dtd">
<stationlist created="" xmlns="ch.ethz.sed.shakemap.usgs.xml">
  <station code="EIL" name="EIL" netid="GE" insttype="STS-2/N" lat="29.6699" lon="34.9512">
    <comp name="--.HHE">
      <acc value="0.0089625453" flag="0"/>
      <vel value="0.0031195705" flag="0"/>
      <psa03 value="0.0108909339" flag="0"/>
      <psa10 value="0.0023566532" flag="0"/>
      <psa30 value="0.0002551959" flag="0"/>
    </comp>
    <comp name="--.HHZ">
      <acc value="0.0088223630" flag="0"/>
      <vel value="0.0024625042" flag="0"/>
      <psa03 value="0.0152337974" flag="0"/>
      <psa10 value="0.0027346864" flag="0"/>
      <psa30 value="0.0003189093" flag="0"/>
    </comp>
    <comp name="--.HHN">
      <acc value="0.0108334852" flag="0"/>
      <vel value="0.0037250656" flag="0"/>
      <psa03 value="0.0154251661" flag="0"/>
      <psa10 value="0.0026292229" flag="0"/>
      <psa30 value="0.0002268032" flag="0"/>
    </comp>
  </station>
</stationlist>
