<stationlist created="1762995872">
	<station code="AKDN" name="AKDN" netid="KO" source="Bogazici University Kandilli Observatory And Earthquake Research Institute (KOERI)" insttype="" lat="35.2977" lon="32.9677">
		<comp name="--.HNE" depth="0.0">
			<acc value="0.031417803151002" flag="0"/>
			<vel value="0.0288492770151" flag="0"/>
			<psa03 value="0.0983223467062083" flag="0"/>
			<psa10 value="0.0515157001623552" flag="0"/>
			<psa30 value="0.00567157738084574" flag="0"/>
		</comp>
		<comp name="--.HNN" depth="0.0">
			<acc value="0.03108463441356" flag="0"/>
			<vel value="0.0324352142966" flag="0"/>
			<psa03 value="0.102230428514232" flag="0"/>
			<psa10 value="0.0405342189431655" flag="0"/>
			<psa30 value="0.0118292494630719" flag="0"/>
		</comp>
		<comp name="--.HNZ" depth="0.0">
			<acc value="0.028587509364504" flag="0"/>
			<vel value="0.0217575288967" flag="0"/>
			<psa03 value="0.0617952602992134" flag="0"/>
			<psa10 value="0.0196465483624016" flag="0"/>
			<psa30 value="0.00593231215322978" flag="0"/>
		</comp>
	</station>
	<station code="AKIN" name="AKIN" netid="KO" source="Bogazici University Kandilli Observatory And Earthquake Research Institute (KOERI)" insttype="" lat="35.0157" lon="33.4662">
		<comp name="--.HNE" depth="0.0">
			<acc value="0.011095980953898" flag="0"/>
			<vel value="0.0101760186376" flag="0"/>
			<psa03 value="0.030694106250573" flag="0"/>
			<psa10 value="0.0155742201531406" flag="0"/>
			<psa30 value="0.0017644327183399" flag="0"/>
		</comp>
		<comp name="--.HNN" depth="0.0">
			<acc value="0.01581866264427" flag="0"/>
			<vel value="0.0140543434705" flag="0"/>
			<psa03 value="0.0276155715835902" flag="0"/>
			<psa10 value="0.018907490653443" flag="0"/>
			<psa30 value="0.0024323613403335" flag="0"/>
		</comp>
		<comp name="--.HNZ" depth="0.0">
			<acc value="0.007996280816175" flag="0"/>
			<vel value="0.00547206928692" flag="0"/>
			<psa03 value="0.0283579202397229" flag="0"/>
			<psa10 value="0.00396959437239721" flag="0"/>
			<psa30 value="0.00095674712980067" flag="0"/>
		</comp>
	</station>
	<station code="ALAN" name="ALAN" netid="KO" source="Bogazici University Kandilli Observatory And Earthquake Research Institute (KOERI)" insttype="" lat="36.557" lon="32.0327">
		<comp name="--.HNE" depth="0.0">
			<acc value="0.010732652001696" flag="0"/>
			<vel value="0.00606827181847" flag="0"/>
			<psa03 value="0.0196360533963349" flag="0"/>
			<psa10 value="0.00506029459469597" flag="0"/>
			<psa30 value="0.000608361186361065" flag="0"/>
		</comp>
		<comp name="--.HNN" depth="0.0">
			<acc value="0.010291688633034" flag="0"/>
			<vel value="0.00489475057726" flag="0"/>
			<psa03 value="0.0305765880489049" flag="0"/>
			<psa10 value="0.0052794764581388" flag="0"/>
			<psa30 value="0.000652969766459854" flag="0"/>
		</comp>
		<comp name="--.HNZ" depth="0.0">
			<acc value="0.0091510289319726" flag="0"/>
			<vel value="0.0029129889002" flag="0"/>
			<psa03 value="0.0104949432853585" flag="0"/>
			<psa10 value="0.00265435974455431" flag="0"/>
			<psa30 value="0.000655770889521759" flag="0"/>
		</comp>
	</station>
	<station code="BOZY" name="BOZY" netid="KO" source="Bogazici University Kandilli Observatory And Earthquake Research Institute (KOERI)" insttype="" lat="36.1069" lon="32.9763">
		<comp name="--.HNE" depth="0.0">
			<acc value="0.025742234482128" flag="0"/>
			<vel value="0.00824395576055" flag="0"/>
			<psa03 value="0.0414564832677302" flag="0"/>
			<psa10 value="0.00748893251128795" flag="0"/>
			<psa30 value="0.000610638785154107" flag="0"/>
		</comp>
		<comp name="--.HNN" depth="0.0">
			<acc value="0.02714684017839" flag="0"/>
			<vel value="0.0103439778299" flag="0"/>
			<psa03 value="0.0442044179090694" flag="0"/>
			<psa10 value="0.00605410152326964" flag="0"/>
			<psa30 value="0.000772912764176822" flag="0"/>
		</comp>
		<comp name="--.HNZ" depth="0.0">
			<acc value="0.01398021654453" flag="0"/>
			<vel value="0.00472527684012" flag="0"/>
			<psa03 value="0.0306678362811334" flag="0"/>
			<psa10 value="0.00379043867608346" flag="0"/>
			<psa30 value="0.000455312245533648" flag="0"/>
		</comp>
	</station>
	<station code="SLFK" name="SLFK" netid="KO" source="Bogazici University Kandilli Observatory And Earthquake Research Institute (KOERI)" insttype="" lat="36.3925" lon="33.9464">
		<comp name="--.HNE" depth="0.0">
			<acc value="0.012878336877258" flag="0"/>
			<vel value="0.00647734272783" flag="0"/>
			<psa03 value="0.0280763573166981" flag="0"/>
			<psa10 value="0.0097876111937162" flag="0"/>
			<psa30 value="0.000539519490517656" flag="0"/>
		</comp>
		<comp name="--.HNN" depth="0.0">
			<acc value="0.01239686723718" flag="0"/>
			<vel value="0.00595578957494" flag="0"/>
			<psa03 value="0.0336888384910507" flag="0"/>
			<psa10 value="0.00607958914920891" flag="0"/>
			<psa30 value="0.000628459184421981" flag="0"/>
		</comp>
		<comp name="--.HNZ" depth="0.0">
			<acc value="0.0065646109362042" flag="0"/>
			<vel value="0.00476619488131" flag="0"/>
			<psa03 value="0.0194723641672906" flag="0"/>
			<psa10 value="0.00367972852958193" flag="0"/>
			<psa30 value="0.000940330208929003" flag="0"/>
		</comp>
	</station>
</stationlist>
