<?xml version="1.0" encoding="UTF-8" standalone="yes"?>
<!DOCTYPE earthquake SYSTEM "stationlist.dtd">
<stationlist created="" xmlns="ch.ethz.sed.shakemap.usgs.xml">
  <station code="AKDN" name="AKDN" netid="KO" insttype="CMG-5T" commtype="DIG" lat="35.2977" lon="32.9677">
    <comp name="--.HNZ">
      <acc value="0.0289917983" flag="0"/>
      <vel value="0.0202667076" flag="0"/>
      <psa03 value="0.0607465657" flag="0"/>
      <psa10 value="0.0195327476" flag="0"/>
      <psa30 value="0.0054107656" flag="0"/>
    </comp>
    <comp name="--.HNE">
      <acc value="0.0315760788" flag="0"/>
      <vel value="0.0290431435" flag="0"/>
      <psa03 value="0.0973918886" flag="0"/>
      <psa10 value="0.0512478052" flag="0"/>
      <psa30 value="0.0051511493" flag="0"/>
    </comp>
    <comp name="--.HNN">
      <acc value="0.0310410222" flag="0"/>
      <vel value="0.0313588466" flag="0"/>
      <psa03 value="0.1007803806" flag="0"/>
      <psa10 value="0.0403561790" flag="0"/>
      <psa30 value="0.0105851753" flag="0"/>
    </comp>
  </station>
  <station code="AKIN" name="AKIN" netid="KO" insttype="CMG-5T" commtype="DIG" lat="35.0157" lon="33.4662">
    <comp name="--.HNN">
      <acc value="0.0160661009" flag="0"/>
      <vel value="0.0144093356" flag="0"/>
      <psa03 value="0.0269764279" flag="0"/>
      <psa10 value="0.0188361269" flag="0"/>
      <psa30 value="0.0021621593" flag="0"/>
    </comp>
    <comp name="--.HNE">
      <acc value="0.0111698982" flag="0"/>
      <vel value="0.0102017785" flag="0"/>
      <psa03 value="0.0304834029" flag="0"/>
      <psa10 value="0.0154324067" flag="0"/>
      <psa30 value="0.0014679266" flag="0"/>
    </comp>
  </station>
  <station code="HSY" name="HSY" netid="KO" insttype="CMG-6T" commtype="DIG" lat="35.2916" lon="33.0974">
    <comp name="--.HHE">
      <acc value="0.2383395444" flag="0"/>
      <vel value="0.0737752149" flag="0"/>
      <psa03 value="0.3267350738" flag="0"/>
      <psa10 value="0.0870468252" flag="0"/>
      <psa30 value="0.0036321716" flag="0"/>
    </comp>
    <comp name="--.HHN">
      <acc value="0.2017916104" flag="0"/>
      <vel value="0.0825158755" flag="0"/>
      <psa03 value="0.5105684775" flag="0"/>
      <psa10 value="0.0561689251" flag="0"/>
      <psa30 value="0.0045629173" flag="0"/>
    </comp>
    <comp name="--.HHZ">
      <acc value="0.0532705730" flag="0"/>
      <vel value="0.0319546820" flag="0"/>
      <psa03 value="0.0868978673" flag="0"/>
      <psa10 value="0.0448751878" flag="0"/>
      <psa30 value="0.0045374167" flag="0"/>
    </comp>
  </station>
  <station code="LEF" name="LEF" netid="KO" insttype="CMG-6T" commtype="DIG" lat="35.1118" lon="32.8433">
    <comp name="--.HHE">
      <acc value="0.1377047186" flag="0"/>
      <vel value="0.0683426868" flag="0"/>
      <psa03 value="0.1998983742" flag="0"/>
      <psa10 value="0.0960203111" flag="0"/>
      <psa30 value="0.0044228830" flag="0"/>
    </comp>
    <comp name="--.HHN">
      <acc value="0.1476983697" flag="0"/>
      <vel value="0.0912970681" flag="0"/>
      <psa03 value="0.1966604107" flag="0"/>
      <psa10 value="0.1509634129" flag="0"/>
      <psa30 value="0.0128278566" flag="0"/>
    </comp>
    <comp name="--.HHZ">
      <acc value="0.1156064283" flag="0"/>
      <vel value="0.0673911889" flag="0"/>
      <psa03 value="0.1961185144" flag="0"/>
      <psa10 value="0.1437932539" flag="0"/>
      <psa30 value="0.0090650599" flag="0"/>
    </comp>
  </station>
  <station code="LFK" name="LFK" netid="KO" insttype="CMG-6T" commtype="DIG" lat="35.2832" lon="33.5335">
    <comp name="--.HHZ">
      <acc value="0.1828381778" flag="0"/>
      <vel value="0.0893876069" flag="0"/>
      <psa03 value="0.3737635136" flag="0"/>
      <psa10 value="0.0936323009" flag="0"/>
      <psa30 value="0.0178413886" flag="0"/>
    </comp>
    <comp name="--.HHE">
      <acc value="0.2809123483" flag="0"/>
      <vel value="0.1591961584" flag="0"/>
      <psa03 value="1.0289144702" flag="0"/>
      <psa10 value="0.1285700267" flag="0"/>
      <psa30 value="0.0356329541" flag="0"/>
    </comp>
    <comp name="--.HHN">
      <acc value="0.4851321193" flag="0"/>
      <vel value="0.3711564376" flag="0"/>
      <psa03 value="1.2353825899" flag="0"/>
      <psa10 value="0.2866465667" flag="0"/>
      <psa30 value="0.0212802640" flag="0"/>
    </comp>
  </station>
</stationlist>
