<?xml version="1.0" encoding="UTF-8" standalone="yes"?>
<!DOCTYPE earthquake SYSTEM "stationlist.dtd">
<stationlist created="" xmlns="ch.ethz.sed.shakemap.usgs.xml">
  <station code="KARP" name="KARP" netid="GE" insttype="STS-2/N" commtype="DIG" lat="35.5471" lon="27.1611">
    <comp name="--.HHZ">
      <acc value="0.0097610413" flag="0"/>
      <vel value="0.0072023734" flag="0"/>
      <psa03 value="0.0220864688" flag="0"/>
      <psa10 value="0.0168389678" flag="0"/>
      <psa30 value="0.0011238245" flag="0"/>
    </comp>
    <comp name="--.HHE">
      <acc value="0.0131461893" flag="0"/>
      <vel value="0.0109345032" flag="0"/>
      <psa03 value="0.0355774793" flag="0"/>
      <psa10 value="0.0245617732" flag="0"/>
      <psa30 value="0.0015451520" flag="0"/>
    </comp>
    <comp name="--.HHN">
      <acc value="0.0197469073" flag="0"/>
      <vel value="0.0170051210" flag="0"/>
      <psa03 value="0.0363917393" flag="0"/>
      <psa10 value="0.0237872549" flag="0"/>
      <psa30 value="0.0013179062" flag="0"/>
    </comp>
  </station>
  <station code="ZKR" name="ZKR" netid="GE" insttype="STS-2/N" commtype="DIG" lat="35.1147" lon="26.2169">
    <comp name="--.HHN">
      <acc value="0.1074119009" flag="0"/>
      <vel value="0.0509299993" flag="0"/>
      <psa03 value="0.2206940230" flag="0"/>
      <psa10 value="0.0597173269" flag="0"/>
      <psa30 value="0.0041904570" flag="0"/>
    </comp>
    <comp name="--.HHE">
      <acc value="0.2140869625" flag="0"/>
      <vel value="0.0937231113" flag="0"/>
      <psa03 value="0.6012137118" flag="0"/>
      <psa10 value="0.1250854500" flag="0"/>
      <psa30 value="0.0071053479" flag="0"/>
    </comp>
    <comp name="--.HHZ">
      <acc value="0.2374122404" flag="0"/>
      <vel value="0.0658218142" flag="0"/>
      <psa03 value="0.1944893984" flag="0"/>
      <psa10 value="0.0943938043" flag="0"/>
      <psa30 value="0.0094192351" flag="0"/>
    </comp>
  </station>
  <station code="KNSS" name="KNSS" netid="HC" insttype="60" commtype="DIG" lat="35.3042" lon="25.1802">
    <comp name="--.HHN">
      <acc value="0.0521872174" flag="0"/>
      <vel value="0.0249741701" flag="0"/>
      <psa03 value="0.1394553787" flag="0"/>
      <psa10 value="0.0248981278" flag="0"/>
      <psa30 value="0.0036600878" flag="0"/>
    </comp>
    <comp name="--.HHE">
      <acc value="0.0000000000" flag="0"/>
      <vel value="-100.0000000000" flag="0"/>
      <psa03 value="0.0000000000" flag="0"/>
      <psa10 value="0.0000000000" flag="0"/>
      <psa30 value="0.0000000000" flag="0"/>
    </comp>
    <comp name="--.HHZ">
      <acc value="0.0255163810" flag="0"/>
      <vel value="0.0123700676" flag="0"/>
      <psa03 value="0.0810778082" flag="0"/>
      <psa10 value="0.0107146185" flag="0"/>
      <psa30 value="0.0020045796" flag="0"/>
    </comp>
  </station>
  <station code="PFKS" name="PFKS" netid="HC" insttype="120" commtype="DIG" lat="35.0429" lon="25.4733">
    <comp name="--.HHE">
      <acc value="0.4660665206" flag="0"/>
      <vel value="0.2644330776" flag="0"/>
      <psa03 value="1.3948196294" flag="0"/>
      <psa10 value="0.1104740359" flag="0"/>
      <psa30 value="0.0093530769" flag="0"/>
    </comp>
    <comp name="--.HHN">
      <acc value="0.3664532880" flag="0"/>
      <vel value="0.2234171872" flag="0"/>
      <psa03 value="0.6809122131" flag="0"/>
      <psa10 value="0.1820567343" flag="0"/>
      <psa30 value="0.0092923170" flag="0"/>
    </comp>
    <comp name="--.HHZ">
      <acc value="0.2672693680" flag="0"/>
      <vel value="0.0831117152" flag="0"/>
      <psa03 value="0.4646344422" flag="0"/>
      <psa10 value="0.0552391775" flag="0"/>
      <psa30 value="0.0038341340" flag="0"/>
    </comp>
  </station>
  <station code="STIA" name="STIA" netid="HC" insttype="120" commtype="DIG" lat="35.2021" lon="26.0909">
    <comp name="--.HHE">
      <acc value="0.3364462050" flag="0"/>
      <vel value="0.1114541890" flag="0"/>
      <psa03 value="0.5115397264" flag="0"/>
      <psa10 value="0.1412709337" flag="0"/>
      <psa30 value="0.0081375980" flag="0"/>
    </comp>
    <comp name="--.HHZ">
      <acc value="0.3643327537" flag="0"/>
      <vel value="0.0875769657" flag="0"/>
      <psa03 value="0.4321789499" flag="0"/>
      <psa10 value="0.0693659850" flag="0"/>
      <psa30 value="0.0091337364" flag="0"/>
    </comp>
    <comp name="--.HHN">
      <acc value="0.3773219668" flag="0"/>
      <vel value="0.1365546050" flag="0"/>
      <psa03 value="0.6682985791" flag="0"/>
      <psa10 value="0.1405834761" flag="0"/>
      <psa30 value="0.0146886868" flag="0"/>
    </comp>
  </station>
  <station code="TEFL" name="TEFL" netid="HC" insttype="GEOtiny," commtype="DIG" lat="35.0933" lon="25.1634">
    <comp name="--.HHE">
      <acc value="0.0234550569" flag="0"/>
      <vel value="0.0050417431" flag="0"/>
      <psa03 value="0.0162611006" flag="0"/>
      <psa10 value="0.0009771943" flag="0"/>
      <psa30 value="0.0000729697" flag="0"/>
    </comp>
    <comp name="--.HHN">
      <acc value="0.0122726882" flag="0"/>
      <vel value="0.0029982182" flag="0"/>
      <psa03 value="0.0097341071" flag="0"/>
      <psa10 value="0.0007588903" flag="0"/>
      <psa30 value="0.0000529709" flag="0"/>
    </comp>
    <comp name="--.HHZ">
      <acc value="0.0053271388" flag="0"/>
      <vel value="0.0011568971" flag="0"/>
      <psa03 value="0.0034656498" flag="0"/>
      <psa10 value="0.0004165756" flag="0"/>
      <psa30 value="0.0000367929" flag="0"/>
    </comp>
  </station>
  <station code="AGN1" name="AGN1" netid="HI" insttype="unknown" commtype="DIG" lat="35.1879" lon="25.7155">
    <comp name="--.HNN">
      <acc value="0.2391355672" flag="0"/>
      <vel value="0.0578880924" flag="0"/>
      <psa03 value="0.2980103554" flag="0"/>
      <psa10 value="0.0399195180" flag="0"/>
      <psa30 value="0.0042605664" flag="0"/>
    </comp>
    <comp name="--.HNE">
      <acc value="0.0163304796" flag="0"/>
      <vel value="0.0025869003" flag="0"/>
      <psa03 value="0.0076162881" flag="0"/>
      <psa10 value="0.0030840608" flag="0"/>
      <psa30 value="0.0009103357" flag="0"/>
    </comp>
    <comp name="--.HNZ">
      <acc value="0.1310554118" flag="0"/>
      <vel value="0.0279586147" flag="0"/>
      <psa03 value="0.1295681171" flag="0"/>
      <psa10 value="0.0261691171" flag="0"/>
      <psa30 value="0.0045413049" flag="0"/>
    </comp>
  </station>
  <station code="ARK1" name="ARK1" netid="HI" insttype="unknown" commtype="DIG" lat="35.1488" lon="25.2642">
    <comp name="--.HNZ">
      <acc value="0.0652488601" flag="0"/>
      <vel value="0.0469313491" flag="0"/>
      <psa03 value="0.1448641315" flag="0"/>
      <psa10 value="0.0669269563" flag="0"/>
      <psa30 value="0.0045431128" flag="0"/>
    </comp>
  </station>
  <station code="GOR1" name="GOR1" netid="HI" insttype="unknown" commtype="DIG" lat="35.0582" lon="24.9628">
    <comp name="--.HNZ">
      <acc value="0.0267114974" flag="0"/>
      <vel value="0.0226027620" flag="0"/>
      <psa03 value="0.0706747002" flag="0"/>
      <psa10 value="0.0426960599" flag="0"/>
      <psa30 value="0.0030060484" flag="0"/>
    </comp>
    <comp name="--.HNE">
      <acc value="0.0379509617" flag="0"/>
      <vel value="0.0307473521" flag="0"/>
      <psa03 value="0.1054373745" flag="0"/>
      <psa10 value="0.0501192778" flag="0"/>
      <psa30 value="0.0033549273" flag="0"/>
    </comp>
    <comp name="--.HNN">
      <acc value="0.0342030594" flag="0"/>
      <vel value="0.0304490161" flag="0"/>
      <psa03 value="0.0907789430" flag="0"/>
      <psa10 value="0.0480064405" flag="0"/>
      <psa30 value="0.0049355081" flag="0"/>
    </comp>
  </station>
  <station code="HER1" name="HER1" netid="HI" insttype="unknown" commtype="DIG" lat="35.3177" lon="25.1022">
    <comp name="--.HNN">
      <acc value="0.0903768635" flag="0"/>
      <vel value="0.1054259572" flag="0"/>
      <psa03 value="0.1630547908" flag="0"/>
      <psa10 value="0.2275500881" flag="0"/>
      <psa30 value="0.0120506295" flag="0"/>
    </comp>
    <comp name="--.HNE">
      <acc value="0.0822453173" flag="0"/>
      <vel value="0.1308746151" flag="0"/>
      <psa03 value="0.2013479795" flag="0"/>
      <psa10 value="0.2687513854" flag="0"/>
      <psa30 value="0.0121788607" flag="0"/>
    </comp>
    <comp name="--.HNZ">
      <acc value="0.0862295359" flag="0"/>
      <vel value="0.0799220792" flag="0"/>
      <psa03 value="0.1618855882" flag="0"/>
      <psa10 value="0.1348151202" flag="0"/>
      <psa30 value="0.0047630210" flag="0"/>
    </comp>
  </station>
  <station code="KSS1" name="KSS1" netid="HI" insttype="CMG-5TD,ACCELEROMETER,GURALP" commtype="DIG" lat="35.4189" lon="26.9207">
    <comp name="--.HNN">
      <acc value="0.0161184719" flag="0"/>
      <vel value="0.0089682752" flag="0"/>
      <psa03 value="0.0553366695" flag="0"/>
      <psa10 value="0.0139179061" flag="0"/>
      <psa30 value="0.0012179920" flag="0"/>
    </comp>
    <comp name="--.HNE">
      <acc value="0.0155494611" flag="0"/>
      <vel value="0.0070921002" flag="0"/>
      <psa03 value="0.0400387663" flag="0"/>
      <psa10 value="0.0130344693" flag="0"/>
      <psa30 value="0.0016060040" flag="0"/>
    </comp>
    <comp name="--.HNZ">
      <acc value="0.0105144692" flag="0"/>
      <vel value="0.0071908597" flag="0"/>
      <psa03 value="0.0151060381" flag="0"/>
      <psa10 value="0.0097204918" flag="0"/>
      <psa30 value="0.0012483524" flag="0"/>
    </comp>
  </station>
  <station code="SIT2" name="SIT2" netid="HI" insttype="CMG-5TD,ACCELEROMETER,GURALP" commtype="DIG" lat="35.2059" lon="26.107">
    <comp name="--.HNE">
      <acc value="0.6361063346" flag="0"/>
      <vel value="0.3387432432" flag="0"/>
      <psa03 value="2.7551761800" flag="0"/>
      <psa10 value="0.2051258643" flag="0"/>
      <psa30 value="0.0140554115" flag="0"/>
    </comp>
    <comp name="--.HNN">
      <acc value="0.5111089922" flag="0"/>
      <vel value="0.3294587138" flag="0"/>
      <psa03 value="1.9857312921" flag="0"/>
      <psa10 value="0.2784877471" flag="0"/>
      <psa30 value="0.0184578875" flag="0"/>
    </comp>
    <comp name="--.HNZ">
      <acc value="0.3338262518" flag="0"/>
      <vel value="0.1398658811" flag="0"/>
      <psa03 value="0.9438263322" flag="0"/>
      <psa10 value="0.0804488082" flag="0"/>
      <psa30 value="0.0110376187" flag="0"/>
    </comp>
  </station>
  <station code="IACM" name="IACM" netid="HL" insttype="120" commtype="DIG" lat="35.3058" lon="25.0709">
    <comp name="--.HHN">
      <acc value="0.1324807258" flag="0"/>
      <vel value="0.1048912816" flag="0"/>
      <psa03 value="0.3712290856" flag="0"/>
      <psa10 value="0.1521033971" flag="0"/>
      <psa30 value="0.0077793655" flag="0"/>
    </comp>
    <comp name="--.HHE">
      <acc value="0.1127777646" flag="0"/>
      <vel value="0.0983362322" flag="0"/>
      <psa03 value="0.3242544550" flag="0"/>
      <psa10 value="0.1879475505" flag="0"/>
      <psa30 value="0.0074708669" flag="0"/>
    </comp>
    <comp name="--.HHZ">
      <acc value="0.0926413695" flag="0"/>
      <vel value="0.0570426872" flag="0"/>
      <psa03 value="0.1965791664" flag="0"/>
      <psa10 value="0.0467370647" flag="0"/>
      <psa30 value="0.0033480601" flag="0"/>
    </comp>
  </station>
  <station code="IDI" name="IDI" netid="HL" insttype="120" commtype="DIG" lat="35.288" lon="24.89">
    <comp name="--.HHZ">
      <acc value="0.0115323378" flag="0"/>
      <vel value="0.0089159121" flag="0"/>
      <psa03 value="0.0329393292" flag="0"/>
      <psa10 value="0.0105069369" flag="0"/>
      <psa30 value="0.0012162190" flag="0"/>
    </comp>
    <comp name="--.HHE">
      <acc value="0.0127599140" flag="0"/>
      <vel value="0.0054998690" flag="0"/>
      <psa03 value="0.0313315339" flag="0"/>
      <psa10 value="0.0114382838" flag="0"/>
      <psa30 value="0.0010788043" flag="0"/>
    </comp>
    <comp name="--.HHN">
      <acc value="0.0208912002" flag="0"/>
      <vel value="0.0099299165" flag="0"/>
      <psa03 value="0.0438413173" flag="0"/>
      <psa10 value="0.0110725801" flag="0"/>
      <psa30 value="0.0015215426" flag="0"/>
    </comp>
  </station>
  <station code="KARP" name="KARP" netid="HL" insttype="120" commtype="DIG" lat="35.5471" lon="27.1611">
    <comp name="--.HHN">
      <acc value="0.0185392464" flag="0"/>
      <vel value="0.0168418550" flag="0"/>
      <psa03 value="0.0355707462" flag="0"/>
      <psa10 value="0.0236381674" flag="0"/>
      <psa30 value="0.0013135745" flag="0"/>
    </comp>
    <comp name="--.HHZ">
      <acc value="0.0095455366" flag="0"/>
      <vel value="0.0071509100" flag="0"/>
      <psa03 value="0.0216144751" flag="0"/>
      <psa10 value="0.0167351699" flag="0"/>
      <psa30 value="0.0011195058" flag="0"/>
    </comp>
    <comp name="--.HHE">
      <acc value="0.0126585656" flag="0"/>
      <vel value="0.0107989388" flag="0"/>
      <psa03 value="0.0346350618" flag="0"/>
      <psa10 value="0.0244231866" flag="0"/>
      <psa30 value="0.0015402043" flag="0"/>
    </comp>
  </station>
  <station code="SIVA" name="SIVA" netid="HL" insttype="60" commtype="DIG" lat="35.0178" lon="24.812">
    <comp name="--.HHE">
      <acc value="0.0418086568" flag="0"/>
      <vel value="0.0248748146" flag="0"/>
      <psa03 value="0.1005139902" flag="0"/>
      <psa10 value="0.0334896093" flag="0"/>
      <psa30 value="0.0024567721" flag="0"/>
    </comp>
    <comp name="--.HHZ">
      <acc value="0.0193924499" flag="0"/>
      <vel value="0.0136155686" flag="0"/>
      <psa03 value="0.0437486442" flag="0"/>
      <psa10 value="0.0251927423" flag="0"/>
      <psa30 value="0.0013607848" flag="0"/>
    </comp>
    <comp name="--.HHN">
      <acc value="0.0333502820" flag="0"/>
      <vel value="0.0204603074" flag="0"/>
      <psa03 value="0.0777452221" flag="0"/>
      <psa10 value="0.0316643491" flag="0"/>
      <psa30 value="0.0020852222" flag="0"/>
    </comp>
  </station>
  <station code="IDI" name="IDI" netid="MN" insttype="" commtype="DIG" lat="35.288" lon="24.89">
    <comp name="--.HHE">
      <acc value="0.0117298024" flag="0"/>
      <vel value="0.0049546474" flag="0"/>
      <psa03 value="0.0284942366" flag="0"/>
      <psa10 value="0.0101973579" flag="0"/>
      <psa30 value="0.0009578141" flag="0"/>
    </comp>
    <comp name="--.HHN">
      <acc value="0.0191878737" flag="0"/>
      <vel value="0.0088922117" flag="0"/>
      <psa03 value="0.0396615693" flag="0"/>
      <psa10 value="0.0098657730" flag="0"/>
      <psa30 value="0.0013493390" flag="0"/>
    </comp>
    <comp name="--.HHZ">
      <acc value="0.0104995243" flag="0"/>
      <vel value="0.0079734741" flag="0"/>
      <psa03 value="0.0297954652" flag="0"/>
      <psa10 value="0.0093758074" flag="0"/>
      <psa30 value="0.0010794528" flag="0"/>
    </comp>
  </station>
</stationlist>
