<?xml version="1.0" encoding="UTF-8" standalone="yes"?>
<!DOCTYPE earthquake SYSTEM "stationlist.dtd">
<stationlist created="" xmlns="ch.ethz.sed.shakemap.usgs.xml">
  <station code="ZKR" name="ZKR" netid="GE" insttype="STS-2/N" commtype="DIG" lat="35.1147" lon="26.2169">
    <comp name="--.HHN">
      <acc value="0.1074119005" flag="0"/>
      <vel value="0.0509299954" flag="0"/>
      <psa03 value="0.2206940230" flag="0"/>
      <psa10 value="0.0597173252" flag="0"/>
      <psa30 value="0.0041904154" flag="0"/>
    </comp>
    <comp name="--.HHZ">
      <acc value="0.2374122413" flag="0"/>
      <vel value="0.0658218101" flag="0"/>
      <psa03 value="0.1944893984" flag="0"/>
      <psa10 value="0.0943938032" flag="0"/>
      <psa30 value="0.0094204230" flag="0"/>
    </comp>
    <comp name="--.HHE">
      <acc value="0.2140869629" flag="0"/>
      <vel value="0.0937231151" flag="0"/>
      <psa03 value="0.6012137118" flag="0"/>
      <psa10 value="0.1250854634" flag="0"/>
      <psa30 value="0.0071077097" flag="0"/>
    </comp>
  </station>
  <station code="KNSS" name="KNSS" netid="HC" insttype="60" commtype="DIG" lat="35.3042" lon="25.1802">
    <comp name="--.HHZ">
      <acc value="0.0255163812" flag="0"/>
      <vel value="0.0123700608" flag="0"/>
      <psa03 value="0.0810778082" flag="0"/>
      <psa10 value="0.0107146187" flag="0"/>
      <psa30 value="0.0020045517" flag="0"/>
    </comp>
    <comp name="--.HHE">
      <acc value="0.0000000000" flag="0"/>
      <vel value="-100.0000000000" flag="0"/>
      <psa03 value="0.0000000000" flag="0"/>
      <psa10 value="0.0000000000" flag="0"/>
      <psa30 value="0.0000000000" flag="0"/>
    </comp>
    <comp name="--.HHN">
      <acc value="0.0521872176" flag="0"/>
      <vel value="0.0249741688" flag="0"/>
      <psa03 value="0.1394553787" flag="0"/>
      <psa10 value="0.0248981276" flag="0"/>
      <psa30 value="0.0036600713" flag="0"/>
    </comp>
  </station>
  <station code="PFKS" name="PFKS" netid="HC" insttype="120" commtype="DIG" lat="35.0429" lon="25.4733">
    <comp name="--.HHZ">
      <acc value="0.2672693681" flag="0"/>
      <vel value="0.0831117168" flag="0"/>
      <psa03 value="0.4646344422" flag="0"/>
      <psa10 value="0.0552391770" flag="0"/>
      <psa30 value="0.0038340436" flag="0"/>
    </comp>
    <comp name="--.HHN">
      <acc value="0.3664532881" flag="0"/>
      <vel value="0.2234171889" flag="0"/>
      <psa03 value="0.6809122131" flag="0"/>
      <psa10 value="0.1820567371" flag="0"/>
      <psa30 value="0.0092923452" flag="0"/>
    </comp>
    <comp name="--.HHE">
      <acc value="0.4660665206" flag="0"/>
      <vel value="0.2644330798" flag="0"/>
      <psa03 value="1.3948196294" flag="0"/>
      <psa10 value="0.1104740373" flag="0"/>
      <psa30 value="0.0093525498" flag="0"/>
    </comp>
  </station>
  <station code="STIA" name="STIA" netid="HC" insttype="120" commtype="DIG" lat="35.2021" lon="26.0909">
    <comp name="--.HHZ">
      <acc value="0.3643327539" flag="0"/>
      <vel value="0.0875769640" flag="0"/>
      <psa03 value="0.4321789499" flag="0"/>
      <psa10 value="0.0693659809" flag="0"/>
      <psa30 value="0.0091338418" flag="0"/>
    </comp>
    <comp name="--.HHE">
      <acc value="0.3364462048" flag="0"/>
      <vel value="0.1114541922" flag="0"/>
      <psa03 value="0.5115397264" flag="0"/>
      <psa10 value="0.1412709345" flag="0"/>
      <psa30 value="0.0081396599" flag="0"/>
    </comp>
    <comp name="--.HHN">
      <acc value="0.3773219670" flag="0"/>
      <vel value="0.1365545962" flag="0"/>
      <psa03 value="0.6682985791" flag="0"/>
      <psa10 value="0.1405834791" flag="0"/>
      <psa30 value="0.0146883467" flag="0"/>
    </comp>
  </station>
  <station code="TEFL" name="TEFL" netid="HC" insttype="GEOtiny," commtype="DIG" lat="35.0933" lon="25.1634">
    <comp name="--.HHN">
      <acc value="0.0122726857" flag="0"/>
      <vel value="0.0029987215" flag="0"/>
      <psa03 value="0.0097341071" flag="0"/>
      <psa10 value="0.0007588904" flag="0"/>
      <psa30 value="0.0000529103" flag="0"/>
    </comp>
    <comp name="--.HHE">
      <acc value="0.0234550573" flag="0"/>
      <vel value="0.0050422492" flag="0"/>
      <psa03 value="0.0162611006" flag="0"/>
      <psa10 value="0.0009771944" flag="0"/>
      <psa30 value="0.0000729718" flag="0"/>
    </comp>
    <comp name="--.HHZ">
      <acc value="0.0053271401" flag="0"/>
      <vel value="0.0011569193" flag="0"/>
      <psa03 value="0.0034656497" flag="0"/>
      <psa10 value="0.0004165756" flag="0"/>
      <psa30 value="0.0000367096" flag="0"/>
    </comp>
  </station>
  <station code="AGN1" name="AGN1" netid="HI" insttype="unknown" commtype="DIG" lat="35.1879" lon="25.7155">
    <comp name="--.HNN">
      <acc value="0.2391355673" flag="0"/>
      <vel value="0.0578880966" flag="0"/>
      <psa03 value="0.2980103554" flag="0"/>
      <psa10 value="0.0399195097" flag="0"/>
      <psa30 value="0.0042604836" flag="0"/>
    </comp>
    <comp name="--.HNE">
      <acc value="0.0163304797" flag="0"/>
      <vel value="0.0025869005" flag="0"/>
      <psa03 value="0.0076162881" flag="0"/>
      <psa10 value="0.0030840608" flag="0"/>
      <psa30 value="0.0009108784" flag="0"/>
    </comp>
    <comp name="--.HNZ">
      <acc value="0.1310554120" flag="0"/>
      <vel value="0.0279586134" flag="0"/>
      <psa03 value="0.1295681171" flag="0"/>
      <psa10 value="0.0261691195" flag="0"/>
      <psa30 value="0.0045417486" flag="0"/>
    </comp>
  </station>
  <station code="GOR1" name="GOR1" netid="HI" insttype="unknown" commtype="DIG" lat="35.0582" lon="24.9628">
    <comp name="--.HNZ">
      <acc value="0.0267114987" flag="0"/>
      <vel value="0.0226027633" flag="0"/>
      <psa03 value="0.0706747002" flag="0"/>
      <psa10 value="0.0426960599" flag="0"/>
      <psa30 value="0.0030060420" flag="0"/>
    </comp>
    <comp name="--.HNN">
      <acc value="0.0342030637" flag="0"/>
      <vel value="0.0304490173" flag="0"/>
      <psa03 value="0.0907789430" flag="0"/>
      <psa10 value="0.0480064403" flag="0"/>
      <psa30 value="0.0049354247" flag="0"/>
    </comp>
    <comp name="--.HNE">
      <acc value="0.0379509614" flag="0"/>
      <vel value="0.0307473486" flag="0"/>
      <psa03 value="0.1054373745" flag="0"/>
      <psa10 value="0.0501192778" flag="0"/>
      <psa30 value="0.0033549688" flag="0"/>
    </comp>
  </station>
  <station code="HER1" name="HER1" netid="HI" insttype="unknown" commtype="DIG" lat="35.3177" lon="25.1022">
    <comp name="--.HNE">
      <acc value="0.0822453167" flag="0"/>
      <vel value="0.1308746199" flag="0"/>
      <psa03 value="0.2013479795" flag="0"/>
      <psa10 value="0.2687513864" flag="0"/>
      <psa30 value="0.0121785584" flag="0"/>
    </comp>
    <comp name="--.HNZ">
      <acc value="0.0862295352" flag="0"/>
      <vel value="0.0799220872" flag="0"/>
      <psa03 value="0.1618855882" flag="0"/>
      <psa10 value="0.1348151201" flag="0"/>
      <psa30 value="0.0047627778" flag="0"/>
    </comp>
    <comp name="--.HNN">
      <acc value="0.0903768626" flag="0"/>
      <vel value="0.1054259651" flag="0"/>
      <psa03 value="0.1630547908" flag="0"/>
      <psa10 value="0.2275500881" flag="0"/>
      <psa30 value="0.0120504511" flag="0"/>
    </comp>
  </station>
  <station code="SIT2" name="SIT2" netid="HI" insttype="CMG-5TD,ACCELEROMETER,GURALP" commtype="DIG" lat="35.2059" lon="26.107">
    <comp name="--.HNE">
      <acc value="0.6361063302" flag="0"/>
      <vel value="0.3387432503" flag="0"/>
      <psa03 value="2.7551761800" flag="0"/>
      <psa10 value="0.2051258623" flag="0"/>
      <psa30 value="0.0140562517" flag="0"/>
    </comp>
    <comp name="--.HNN">
      <acc value="0.5111089904" flag="0"/>
      <vel value="0.3294586963" flag="0"/>
      <psa03 value="1.9857312921" flag="0"/>
      <psa10 value="0.2784877440" flag="0"/>
      <psa30 value="0.0184585306" flag="0"/>
    </comp>
    <comp name="--.HNZ">
      <acc value="0.3338262527" flag="0"/>
      <vel value="0.1398658863" flag="0"/>
      <psa03 value="0.9438263322" flag="0"/>
      <psa10 value="0.0804488103" flag="0"/>
      <psa30 value="0.0110385938" flag="0"/>
    </comp>
  </station>
  <station code="IACM" name="IACM" netid="HL" insttype="120" commtype="DIG" lat="35.3058" lon="25.0709">
    <comp name="--.HHN">
      <acc value="0.1324807258" flag="0"/>
      <vel value="0.1048912725" flag="0"/>
      <psa03 value="0.3712290856" flag="0"/>
      <psa10 value="0.1521033972" flag="0"/>
      <psa30 value="0.0077792706" flag="0"/>
    </comp>
    <comp name="--.HHE">
      <acc value="0.1127777647" flag="0"/>
      <vel value="0.0983362326" flag="0"/>
      <psa03 value="0.3242544550" flag="0"/>
      <psa10 value="0.1879475508" flag="0"/>
      <psa30 value="0.0074708646" flag="0"/>
    </comp>
    <comp name="--.HHZ">
      <acc value="0.0926413696" flag="0"/>
      <vel value="0.0570426927" flag="0"/>
      <psa03 value="0.1965791664" flag="0"/>
      <psa10 value="0.0467370648" flag="0"/>
      <psa30 value="0.0033480308" flag="0"/>
    </comp>
  </station>
  <station code="SIVA" name="SIVA" netid="HL" insttype="60" commtype="DIG" lat="35.0178" lon="24.812">
    <comp name="--.HHN">
      <acc value="0.0333502823" flag="0"/>
      <vel value="0.0204603051" flag="0"/>
      <psa03 value="0.0777452221" flag="0"/>
      <psa10 value="0.0316643488" flag="0"/>
      <psa30 value="0.0020851708" flag="0"/>
    </comp>
    <comp name="--.HHE">
      <acc value="0.0418086567" flag="0"/>
      <vel value="0.0248748111" flag="0"/>
      <psa03 value="0.1005139902" flag="0"/>
      <psa10 value="0.0334896090" flag="0"/>
      <psa30 value="0.0024566878" flag="0"/>
    </comp>
    <comp name="--.HHZ">
      <acc value="0.0193924498" flag="0"/>
      <vel value="0.0136155687" flag="0"/>
      <psa03 value="0.0437486442" flag="0"/>
      <psa10 value="0.0251927425" flag="0"/>
      <psa30 value="0.0013607383" flag="0"/>
    </comp>
  </station>
</stationlist>
