<stationlist created="1776587110">
	<station code="ATEI" name="ATEI" netid="HC" source="Seismological Network of Crete (HC)" insttype="" lat="35.5193" lon="24.0432">
		<comp name="--.HNE" depth="0.0">
			<acc value="0.00610674097463328" flag="0"/>
			<vel value="0.0070749070065019" flag="0"/>
			<psa03 value="0.0173899163195275" flag="0"/>
			<psa10 value="0.013036971760397" flag="0"/>
			<psa30 value="0.00151544497412545" flag="0"/>
		</comp>
		<comp name="--.HNN" depth="0.0">
			<acc value="0.00660873790483676" flag="0"/>
			<vel value="0.0106052798826437" flag="0"/>
			<psa03 value="0.0156147674746286" flag="0"/>
			<psa10 value="0.0215216688299371" flag="0"/>
			<psa30 value="0.00244704752155548" flag="0"/>
		</comp>
		<comp name="--.HNZ" depth="0.0">
			<acc value="0.00408063412230078" flag="0"/>
			<vel value="0.00464220658991151" flag="0"/>
			<psa03 value="0.0106671259155737" flag="0"/>
			<psa10 value="0.00735412514344858" flag="0"/>
			<psa30 value="0.00156061463306034" flag="0"/>
		</comp>
	</station>
	<station code="G0LD" name="G0LD" netid="HC" source="Seismological Network of Crete (HC)" insttype="" lat="35.4955" lon="24.0306">
		<comp name="--.HNE" depth="0.0">
			<acc value="0.00221852310252715" flag="0"/>
			<vel value="0.00235579615641476" flag="0"/>
			<psa03 value="0.00206354181019467" flag="0"/>
			<psa10 value="0.00210620538514505" flag="0"/>
			<psa30 value="0.00181099392779315" flag="0"/>
		</comp>
		<comp name="--.HNN" depth="0.0">
			<acc value="0.00247379221804699" flag="0"/>
			<vel value="0.00179206194817918" flag="0"/>
			<psa03 value="0.00169661922863482" flag="0"/>
			<psa10 value="0.00187715661803834" flag="0"/>
			<psa30 value="0.00094214418326167" flag="0"/>
		</comp>
		<comp name="--.HNZ" depth="0.0">
			<acc value="0.00353799659904076" flag="0"/>
			<vel value="0.00355292906681398" flag="0"/>
			<psa03 value="0.00192739802571211" flag="0"/>
			<psa10 value="0.00183546651252345" flag="0"/>
			<psa30 value="0.00232135211151812" flag="0"/>
		</comp>
	</station>
	<station code="MULT" name="MULT" netid="HC" source="Seismological Network of Crete (HC)" insttype="" lat="35.5091" lon="24.0118">
		<comp name="--.HNE" depth="0.0">
			<acc value="0.00288995131415213" flag="0"/>
			<vel value="0.00156446721570673" flag="0"/>
			<psa03 value="0.00138884607324667" flag="0"/>
			<psa10 value="0.00131489991816638" flag="0"/>
			<psa30 value="0.000743943865963366" flag="0"/>
		</comp>
		<comp name="--.HNN" depth="0.0">
			<acc value="0.00206571611452917" flag="0"/>
			<vel value="0.00160910391301131" flag="0"/>
			<psa03 value="0.0013006728331137" flag="0"/>
			<psa10 value="0.00103187136422622" flag="0"/>
			<psa30 value="0.00070296120314642" flag="0"/>
		</comp>
		<comp name="--.HNZ" depth="0.0">
			<acc value="0.00502823564210769" flag="0"/>
			<vel value="0.00427459638158963" flag="0"/>
			<psa03 value="0.00326068182448077" flag="0"/>
			<psa10 value="0.00262451808019235" flag="0"/>
			<psa30 value="0.00208708242563449" flag="0"/>
		</comp>
	</station>
	<station code="TEFL" name="TEFL" netid="HC" source="Seismological Network of Crete (HC)" insttype="" lat="35.093273" lon="25.163418">
		<comp name="--.HNE" depth="0.0">
			<acc value="0.220335285456634" flag="0"/>
			<vel value="0.138196430100088" flag="0"/>
			<psa03 value="0.324504934359314" flag="0"/>
			<psa10 value="0.182682611826474" flag="0"/>
			<psa30 value="0.0546070441153418" flag="0"/>
		</comp>
		<comp name="--.HNN" depth="0.0">
			<acc value="0.217683594665652" flag="0"/>
			<vel value="0.135370684915591" flag="0"/>
			<psa03 value="0.383493404555964" flag="0"/>
			<psa10 value="0.144836184686416" flag="0"/>
			<psa30 value="0.0620013006152125" flag="0"/>
		</comp>
		<comp name="--.HNZ" depth="0.0">
			<acc value="0.334799211304588" flag="0"/>
			<vel value="0.165034833716931" flag="0"/>
			<psa03 value="0.408415388848446" flag="0"/>
			<psa10 value="0.149659679219257" flag="0"/>
			<psa30 value="0.0685894303798098" flag="0"/>
		</comp>
	</station>
	<station code="AGN1" name="AGN1" netid="HI" source="ITSAK Strong Motion Network" insttype="" lat="35.1879" lon="25.7155">
		<comp name="--.HNE" depth="0.0">
			<acc value="0.0148792092315804" flag="0"/>
			<vel value="0.0036372519944255" flag="0"/>
			<psa03 value="0.00787362445356164" flag="0"/>
			<psa10 value="0.00315016907386591" flag="0"/>
			<psa30 value="0.00121341892471528" flag="0"/>
		</comp>
		<comp name="--.HNN" depth="0.0">
			<acc value="0.236148821878989" flag="0"/>
			<vel value="0.0580964522725691" flag="0"/>
			<psa03 value="0.300194094718832" flag="0"/>
			<psa10 value="0.0403810662974622" flag="0"/>
			<psa30 value="0.00458672134777883" flag="0"/>
		</comp>
		<comp name="--.HNZ" depth="0.0">
			<acc value="0.127977084106009" flag="0"/>
			<vel value="0.0312340828110014" flag="0"/>
			<psa03 value="0.133721858416847" flag="0"/>
			<psa10 value="0.0265774049976459" flag="0"/>
			<psa30 value="0.00576568528168673" flag="0"/>
		</comp>
	</station>
	<station code="CH01" name="CH01" netid="HI" source="ITSAK Strong Motion Network" insttype="" lat="35.517" lon="24.0208">
		<comp name="--.HNE" depth="0.0">
			<acc value="0.00707099280764262" flag="0"/>
			<vel value="0.00887632400884368" flag="0"/>
			<psa03 value="0.0152263758601736" flag="0"/>
			<psa10 value="0.0209926625358664" flag="0"/>
			<psa30 value="0.00198108665393482" flag="0"/>
		</comp>
		<comp name="--.HNN" depth="0.0">
			<acc value="0.00712900164116754" flag="0"/>
			<vel value="0.0090431331308905" flag="0"/>
			<psa03 value="0.0163319035230389" flag="0"/>
			<psa10 value="0.0212539573453651" flag="0"/>
			<psa30 value="0.00259102560106331" flag="0"/>
		</comp>
		<comp name="--.HNZ" depth="0.0">
			<acc value="0.00559672166056932" flag="0"/>
			<vel value="0.00594308999241468" flag="0"/>
			<psa03 value="0.0091183527440354" flag="0"/>
			<psa10 value="0.00969037475226944" flag="0"/>
			<psa30 value="0.00182776378871414" flag="0"/>
		</comp>
	</station>
	<station code="CH03" name="CH03" netid="HI" source="ITSAK Strong Motion Network" insttype="" lat="35.53303" lon="24.0705">
		<comp name="--.HNE" depth="0.0">
			<acc value="0.0118533680182659" flag="0"/>
			<vel value="0.00877714761398857" flag="0"/>
			<psa03 value="0.0102017799845229" flag="0"/>
			<psa10 value="0.00797680373659942" flag="0"/>
			<psa30 value="0.00274383072365275" flag="0"/>
		</comp>
		<comp name="--.HNN" depth="0.0">
			<acc value="0.0115352483947426" flag="0"/>
			<vel value="0.00775258416884071" flag="0"/>
			<psa03 value="0.0109989564914708" flag="0"/>
			<psa10 value="0.00925911774610928" flag="0"/>
			<psa30 value="0.00258012237877834" flag="0"/>
		</comp>
		<comp name="--.HNZ" depth="0.0">
			<acc value="0.00495486399419106" flag="0"/>
			<vel value="0.00285029859657599" flag="0"/>
			<psa03 value="0.00717034088531011" flag="0"/>
			<psa10 value="0.00330745261812881" flag="0"/>
			<psa30 value="0.000905895948660692" flag="0"/>
		</comp>
	</station>
	<station code="GOR1" name="GOR1" netid="HI" source="ITSAK Strong Motion Network" insttype="" lat="35.0582" lon="24.9628">
		<comp name="--.HNE" depth="0.0">
			<acc value="0.0378726741949659" flag="0"/>
			<vel value="0.0319154687941238" flag="0"/>
			<psa03 value="0.105071658398371" flag="0"/>
			<psa10 value="0.0503665077839547" flag="0"/>
			<psa30 value="0.00392724224385808" flag="0"/>
		</comp>
		<comp name="--.HNN" depth="0.0">
			<acc value="0.0342955374939914" flag="0"/>
			<vel value="0.0304562370851726" flag="0"/>
			<psa03 value="0.0881912797394624" flag="0"/>
			<psa10 value="0.0481538387054874" flag="0"/>
			<psa30 value="0.00593404560139831" flag="0"/>
		</comp>
		<comp name="--.HNZ" depth="0.0">
			<acc value="0.0263191884806755" flag="0"/>
			<vel value="0.0222296961808941" flag="0"/>
			<psa03 value="0.0704735695697843" flag="0"/>
			<psa10 value="0.042624806184218" flag="0"/>
			<psa30 value="0.00342158457985281" flag="0"/>
		</comp>
	</station>
	<station code="HER1" name="HER1" netid="HI" source="ITSAK Strong Motion Network" insttype="" lat="35.317672" lon="25.10217">
		<comp name="--.HNE" depth="0.0">
			<acc value="0.0829065167296299" flag="0"/>
			<vel value="0.128490003218672" flag="0"/>
			<psa03 value="0.204971286675129" flag="0"/>
			<psa10 value="0.269292049276648" flag="0"/>
			<psa30 value="0.0132137436790024" flag="0"/>
		</comp>
		<comp name="--.HNN" depth="0.0">
			<acc value="0.0904136307771572" flag="0"/>
			<vel value="0.105803366446876" flag="0"/>
			<psa03 value="0.164337636561895" flag="0"/>
			<psa10 value="0.22771077972161" flag="0"/>
			<psa30 value="0.012380967678346" flag="0"/>
		</comp>
		<comp name="--.HNZ" depth="0.0">
			<acc value="0.0858103392748671" flag="0"/>
			<vel value="0.0776398061252482" flag="0"/>
			<psa03 value="0.162913396379639" flag="0"/>
			<psa10 value="0.134878960069153" flag="0"/>
			<psa30 value="0.00528028437625897" flag="0"/>
		</comp>
	</station>
	<station code="HER3" name="HER3" netid="HI" source="ITSAK Strong Motion Network" insttype="" lat="35.3296" lon="25.1065">
		<comp name="--.HNE" depth="0.0">
			<acc value="0.0962062529380373" flag="0"/>
			<vel value="0.0907678217756294" flag="0"/>
			<psa03 value="0.275728161470827" flag="0"/>
			<psa10 value="0.200259516210126" flag="0"/>
			<psa30 value="0.00755605555159709" flag="0"/>
		</comp>
		<comp name="--.HNN" depth="0.0">
			<acc value="0.0829247615540869" flag="0"/>
			<vel value="0.0941099588570079" flag="0"/>
			<psa03 value="0.191599067497902" flag="0"/>
			<psa10 value="0.187202621254915" flag="0"/>
			<psa30 value="0.0103597562830107" flag="0"/>
		</comp>
		<comp name="--.HNZ" depth="0.0">
			<acc value="0.051361667075264" flag="0"/>
			<vel value="0.0451234845290737" flag="0"/>
			<psa03 value="0.103959313877672" flag="0"/>
			<psa10 value="0.0709676012552922" flag="0"/>
			<psa30 value="0.00517466404609712" flag="0"/>
		</comp>
	</station>
	<station code="KIS1" name="KIS1" netid="HI" source="ITSAK Strong Motion Network" insttype="" lat="35.493933" lon="23.658993">
		<comp name="--.HNE" depth="0.0">
			<acc value="0.00520222491096948" flag="0"/>
			<vel value="0.00691645432821473" flag="0"/>
			<psa03 value="0.0100617355510165" flag="0"/>
			<psa10 value="0.0123116362104766" flag="0"/>
			<psa30 value="0.00151740041616389" flag="0"/>
		</comp>
		<comp name="--.HNN" depth="0.0">
			<acc value="0.00675264430817265" flag="0"/>
			<vel value="0.00484059891696787" flag="0"/>
			<psa03 value="0.00903924984760673" flag="0"/>
			<psa10 value="0.00759267469618571" flag="0"/>
			<psa30 value="0.00182812902124233" flag="0"/>
		</comp>
		<comp name="--.HNZ" depth="0.0">
			<acc value="0.0095187705571869" flag="0"/>
			<vel value="0.00394493500450508" flag="0"/>
			<psa03 value="0.00768962072775951" flag="0"/>
			<psa10 value="0.00819184954482883" flag="0"/>
			<psa30 value="0.000803844031972056" flag="0"/>
		</comp>
	</station>
	<station code="KSS1" name="KSS1" netid="HI" source="ITSAK Strong Motion Network" insttype="" lat="35.4189" lon="26.9207">
		<comp name="--.HNE" depth="0.0">
			<acc value="0.0155637752008235" flag="0"/>
			<vel value="0.00969086868983433" flag="0"/>
			<psa03 value="0.0408749759957224" flag="0"/>
			<psa10 value="0.0131742599175636" flag="0"/>
			<psa30 value="0.00197901672514553" flag="0"/>
		</comp>
		<comp name="--.HNN" depth="0.0">
			<acc value="0.0158411584401128" flag="0"/>
			<vel value="0.00971878335983015" flag="0"/>
			<psa03 value="0.0554555226145449" flag="0"/>
			<psa10 value="0.0138708948162067" flag="0"/>
			<psa30 value="0.00179362027687404" flag="0"/>
		</comp>
		<comp name="--.HNZ" depth="0.0">
			<acc value="0.0105597721364715" flag="0"/>
			<vel value="0.00856702373759883" flag="0"/>
			<psa03 value="0.0149460382787679" flag="0"/>
			<psa10 value="0.00963086112228353" flag="0"/>
			<psa30 value="0.00158707701106301" flag="0"/>
		</comp>
	</station>
	<station code="RTH1" name="RTH1" netid="HI" source="ITSAK Strong Motion Network" insttype="" lat="35.365393" lon="24.471773">
		<comp name="--.HNE" depth="0.0">
			<acc value="0.0149757511917324" flag="0"/>
			<vel value="0.0097520023759644" flag="0"/>
			<psa03 value="0.032576311666605" flag="0"/>
			<psa10 value="0.0137170352487655" flag="0"/>
			<psa30 value="0.00196057300333948" flag="0"/>
		</comp>
		<comp name="--.HNN" depth="0.0">
			<acc value="0.0112197494956705" flag="0"/>
			<vel value="0.00716638635970501" flag="0"/>
			<psa03 value="0.0333180665333912" flag="0"/>
			<psa10 value="0.00956122650933217" flag="0"/>
			<psa30 value="0.00254380497292844" flag="0"/>
		</comp>
		<comp name="--.HNZ" depth="0.0">
			<acc value="0.0082139440888483" flag="0"/>
			<vel value="0.00511511049286501" flag="0"/>
			<psa03 value="0.0185606852834756" flag="0"/>
			<psa10 value="0.00676038909259911" flag="0"/>
			<psa30 value="0.00146402469278417" flag="0"/>
		</comp>
	</station>
	<station code="SIT2" name="SIT2" netid="HI" source="ITSAK Strong Motion Network" insttype="" lat="35.2059" lon="26.107">
		<comp name="--.HNE" depth="0.0">
			<acc value="0.636105241765028" flag="0"/>
			<vel value="0.34264522900285" flag="0"/>
			<psa03 value="2.74633793140963" flag="0"/>
			<psa10 value="0.205765210935381" flag="0"/>
			<psa30 value="0.0140526375849399" flag="0"/>
		</comp>
		<comp name="--.HNN" depth="0.0">
			<acc value="0.511291249082097" flag="0"/>
			<vel value="0.32635813375495" flag="0"/>
			<psa03 value="1.99062336902872" flag="0"/>
			<psa10 value="0.279723620317034" flag="0"/>
			<psa30 value="0.0186120179548465" flag="0"/>
		</comp>
		<comp name="--.HNZ" depth="0.0">
			<acc value="0.327941680737538" flag="0"/>
			<vel value="0.13592598830791" flag="0"/>
			<psa03 value="0.959221377041948" flag="0"/>
			<psa10 value="0.0807808163326303" flag="0"/>
			<psa30 value="0.0125143465140393" flag="0"/>
		</comp>
	</station>
	<station code="AMGA" name="AMGA" netid="HL" source="National Observatory of Athens Seismic Network" insttype="" lat="36.831561" lon="25.893836">
		<comp name="00.HNE" depth="0.0">
			<acc value="0.00563954783559202" flag="0"/>
			<vel value="0.00404755170141252" flag="0"/>
			<psa03 value="0.0121800034800375" flag="0"/>
			<psa10 value="0.00914342539455878" flag="0"/>
			<psa30 value="0.00128251412693332" flag="0"/>
		</comp>
		<comp name="00.HNN" depth="0.0">
			<acc value="0.00623039628467483" flag="0"/>
			<vel value="0.00493786301119957" flag="0"/>
			<psa03 value="0.0164013312993717" flag="0"/>
			<psa10 value="0.00516210399530539" flag="0"/>
			<psa30 value="0.00112558081420488" flag="0"/>
		</comp>
		<comp name="00.HNZ" depth="0.0">
			<acc value="0.00426632226466853" flag="0"/>
			<vel value="0.0030687940002412" flag="0"/>
			<psa03 value="0.0141280986776169" flag="0"/>
			<psa10 value="0.00456581496283343" flag="0"/>
			<psa30 value="0.00117047607996256" flag="0"/>
		</comp>
	</station>
	<station code="ANAF" name="ANAF" netid="HL" source="National Observatory of Athens Seismic Network" insttype="" lat="36.35675" lon="25.77262">
		<comp name="--.HNE" depth="0.0">
			<acc value="0.0483437929360916" flag="0"/>
			<vel value="0.0257335149788176" flag="0"/>
			<psa03 value="0.162775220559503" flag="0"/>
			<psa10 value="0.0199668289544261" flag="0"/>
			<psa30 value="0.00166335195973736" flag="0"/>
		</comp>
		<comp name="--.HNN" depth="0.0">
			<acc value="0.0569367835462096" flag="0"/>
			<vel value="0.0319736958311403" flag="0"/>
			<psa03 value="0.174683967788895" flag="0"/>
			<psa10 value="0.0181599273810647" flag="0"/>
			<psa30 value="0.0012444189991514" flag="0"/>
		</comp>
		<comp name="--.HNZ" depth="0.0">
			<acc value="0.0298629475279719" flag="0"/>
			<vel value="0.011338795484176" flag="0"/>
			<psa03 value="0.0536553669047305" flag="0"/>
			<psa10 value="0.00887572797341842" flag="0"/>
			<psa30 value="0.0010665382570919" flag="0"/>
		</comp>
	</station>
	<station code="ASTA" name="ASTA" netid="HL" source="National Observatory of Athens Seismic Network" insttype="" lat="36.54552" lon="26.35295">
		<comp name="00.HNE" depth="0.0">
			<acc value="0.00509229727360594" flag="0"/>
			<vel value="0.00512374239100904" flag="0"/>
			<psa03 value="0.0103955239389007" flag="0"/>
			<psa10 value="0.0110597479665244" flag="0"/>
			<psa30 value="0.000715570163428157" flag="0"/>
		</comp>
		<comp name="00.HNN" depth="0.0">
			<acc value="0.00400508609988584" flag="0"/>
			<vel value="0.00357815799559087" flag="0"/>
			<psa03 value="0.00922083674663928" flag="0"/>
			<psa10 value="0.0066893987648383" flag="0"/>
			<psa30 value="0.000714241221225592" flag="0"/>
		</comp>
		<comp name="00.HNZ" depth="0.0">
			<acc value="0.00424753149552593" flag="0"/>
			<vel value="0.00272732928171041" flag="0"/>
			<psa03 value="0.00700389235891212" flag="0"/>
			<psa10 value="0.00501086116371006" flag="0"/>
			<psa30 value="0.000584237713297882" flag="0"/>
		</comp>
	</station>
	<station code="CHNB" name="CHNB" netid="HL" source="National Observatory of Athens Seismic Network" insttype="" lat="35.48765" lon="24.06605">
		<comp name="00.HNE" depth="0.0">
			<acc value="0.0188036246974955" flag="0"/>
			<vel value="0.0202852152406648" flag="0"/>
			<psa03 value="0.0415308397559777" flag="0"/>
			<psa10 value="0.0264600859758365" flag="0"/>
			<psa30 value="0.00228533639232014" flag="0"/>
		</comp>
		<comp name="00.HNN" depth="0.0">
			<acc value="0.0230063346760447" flag="0"/>
			<vel value="0.0292366533867607" flag="0"/>
			<psa03 value="0.0423026382796754" flag="0"/>
			<psa10 value="0.0546302777377886" flag="0"/>
			<psa30 value="0.00300214325225671" flag="0"/>
		</comp>
		<comp name="00.HNZ" depth="0.0">
			<acc value="0.0122412044490489" flag="0"/>
			<vel value="0.0102112630969004" flag="0"/>
			<psa03 value="0.034812998898657" flag="0"/>
			<psa10 value="0.00932438144450901" flag="0"/>
			<psa30 value="0.00124142838437118" flag="0"/>
		</comp>
	</station>
	<station code="HERG" name="HERG" netid="HL" source="National Observatory of Athens Seismic Network" insttype="" lat="35.32622" lon="25.06586">
		<comp name="00.HNE" depth="0.0">
			<acc value="0.0483801910344445" flag="0"/>
			<vel value="0.0574172300385148" flag="0"/>
			<psa03 value="0.150076243897956" flag="0"/>
			<psa10 value="0.0954153207967286" flag="0"/>
			<psa30 value="0.00691854623640036" flag="0"/>
		</comp>
		<comp name="00.HNN" depth="0.0">
			<acc value="0.0483774258840171" flag="0"/>
			<vel value="0.0490171523833991" flag="0"/>
			<psa03 value="0.167639303197772" flag="0"/>
			<psa10 value="0.0838319809573124" flag="0"/>
			<psa30 value="0.00777047725598268" flag="0"/>
		</comp>
		<comp name="00.HNZ" depth="0.0">
			<acc value="0.0429421396099143" flag="0"/>
			<vel value="0.0357278312431967" flag="0"/>
			<psa03 value="0.0833640901701774" flag="0"/>
			<psa10 value="0.0323995925639984" flag="0"/>
			<psa30 value="0.00445617186618304" flag="0"/>
		</comp>
	</station>
	<station code="IACM" name="IACM" netid="HL" source="National Observatory of Athens Seismic Network" insttype="" lat="35.3058" lon="25.0709">
		<comp name="--.HNE" depth="0.0">
			<acc value="0.110139066909044" flag="0"/>
			<vel value="0.104000119733166" flag="0"/>
			<psa03 value="0.333174467006637" flag="0"/>
			<psa10 value="0.195080468123608" flag="0"/>
			<psa30 value="0.00840317750260222" flag="0"/>
		</comp>
		<comp name="--.HNN" depth="0.0">
			<acc value="0.126586836438416" flag="0"/>
			<vel value="0.103386480350945" flag="0"/>
			<psa03 value="0.374804620633338" flag="0"/>
			<psa10 value="0.148597428850383" flag="0"/>
			<psa30 value="0.00775706970113131" flag="0"/>
		</comp>
		<comp name="--.HNZ" depth="0.0">
			<acc value="0.0897542487853838" flag="0"/>
			<vel value="0.0569378567370796" flag="0"/>
			<psa03 value="0.203594612143864" flag="0"/>
			<psa10 value="0.0450024374406199" flag="0"/>
			<psa30 value="0.00350483676156794" flag="0"/>
		</comp>
	</station>
	<station code="IMMV" name="IMMV" netid="HL" source="National Observatory of Athens Seismic Network" insttype="" lat="35.4606" lon="23.9811">
