<?xml version="1.0" encoding="UTF-8" standalone="yes"?>
<!DOCTYPE earthquake SYSTEM "stationlist.dtd">
<stationlist created="" xmlns="ch.ethz.sed.shakemap.usgs.xml">
  <station code="ZKR" name="ZKR" netid="GE" insttype="STS-2/N" commtype="DIG" lat="35.1147" lon="26.2169">
    <comp name="--.HHN">
      <acc value="0.1074119005" flag="0"/>
      <vel value="0.0509299954" flag="0"/>
      <psa03 value="0.2206940230" flag="0"/>
      <psa10 value="0.0597173252" flag="0"/>
      <psa30 value="0.0041904154" flag="0"/>
    </comp>
    <comp name="--.HHZ">
      <acc value="0.2374122413" flag="0"/>
      <vel value="0.0658218101" flag="0"/>
      <psa03 value="0.1944893984" flag="0"/>
      <psa10 value="0.0943938032" flag="0"/>
      <psa30 value="0.0094204230" flag="0"/>
    </comp>
    <comp name="--.HHE">
      <acc value="0.2140869629" flag="0"/>
      <vel value="0.0937231151" flag="0"/>
      <psa03 value="0.6012137118" flag="0"/>
      <psa10 value="0.1250854634" flag="0"/>
      <psa30 value="0.0071077097" flag="0"/>
    </comp>
  </station>
</stationlist>
