<stationlist created="1778136151">
	<station code="ALT" name="ALT" netid="KO" source="Bogazici University Kandilli Observatory And Earthquake Research Institute (KOERI)" insttype="" lat="39.0541" lon="30.1104">
		<comp name="--.HNE" depth="0.0">
			<acc value="0.0969369556481524" flag="0"/>
			<vel value="0.0403766906430547" flag="0"/>
			<psa03 value="0.129886625812843" flag="0"/>
			<psa10 value="0.0741414157430058" flag="0"/>
			<psa30 value="0.00526123607624257" flag="0"/>
		</comp>
		<comp name="--.HNN" depth="0.0">
			<acc value="0.114863468603214" flag="0"/>
			<vel value="0.0421711221416979" flag="0"/>
			<psa03 value="0.128812812854004" flag="0"/>
			<psa10 value="0.0427968154745093" flag="0"/>
			<psa30 value="0.00691803998731718" flag="0"/>
		</comp>
		<comp name="--.HNZ" depth="0.0">
			<acc value="0.138647863703595" flag="0"/>
			<vel value="0.0369062892339926" flag="0"/>
			<psa03 value="0.102414910949224" flag="0"/>
			<psa10 value="0.0555899546128717" flag="0"/>
			<psa30 value="0.00680976384730096" flag="0"/>
		</comp>
	</station>
	<station code="BASM" name="BASM" netid="KO" source="Bogazici University Kandilli Observatory And Earthquake Research Institute (KOERI)" insttype="" lat="37.9194" lon="30.035">
		<comp name="--.HNE" depth="0.0">
			<acc value="0.05128312890224" flag="0"/>
			<vel value="0.0537224296418694" flag="0"/>
			<psa03 value="0.160356068519886" flag="0"/>
			<psa10 value="0.0719629177027621" flag="0"/>
			<psa30 value="0.013859793344142" flag="0"/>
		</comp>
		<comp name="--.HNN" depth="0.0">
			<acc value="0.0633308752337307" flag="0"/>
			<vel value="0.0841341722366901" flag="0"/>
			<psa03 value="0.141072177467411" flag="0"/>
			<psa10 value="0.1588330438066" flag="0"/>
			<psa30 value="0.0170548343187528" flag="0"/>
		</comp>
		<comp name="--.HNZ" depth="0.0">
			<acc value="0.0359368940323402" flag="0"/>
			<vel value="0.0332395556786943" flag="0"/>
			<psa03 value="0.105188927759557" flag="0"/>
			<psa10 value="0.0455672529083127" flag="0"/>
			<psa30 value="0.00647509214179629" flag="0"/>
		</comp>
	</station>
	<station code="ESKT" name="ESKT" netid="KO" source="Bogazici University Kandilli Observatory And Earthquake Research Institute (KOERI)" insttype="" lat="39.5212" lon="30.8492">
		<comp name="--.HNE" depth="0.0">
			<acc value="0.115737193293251" flag="0"/>
			<vel value="0.0493529195313218" flag="0"/>
			<psa03 value="0.219684234495714" flag="0"/>
			<psa10 value="0.0230695291544471" flag="0"/>
			<psa30 value="0.00265947676139007" flag="0"/>
		</comp>
		<comp name="--.HNN" depth="0.0">
			<acc value="0.093332686728332" flag="0"/>
			<vel value="0.0481301201985638" flag="0"/>
			<psa03 value="0.320622652626535" flag="0"/>
			<psa10 value="0.0229930199811299" flag="0"/>
			<psa30 value="0.00268811177362577" flag="0"/>
		</comp>
		<comp name="--.HNZ" depth="0.0">
			<acc value="0.0444716705919523" flag="0"/>
			<vel value="0.0230885273402544" flag="0"/>
			<psa03 value="0.150020618791065" flag="0"/>
			<psa10 value="0.0257715110121245" flag="0"/>
			<psa30 value="0.00267513653370647" flag="0"/>
		</comp>
	</station>
	<station code="KRMN" name="KRMN" netid="KO" source="Bogazici University Kandilli Observatory And Earthquake Research Institute (KOERI)" insttype="" lat="37.174" lon="33.2636">
		<comp name="--.HNE" depth="0.0">
			<acc value="0.0117027212051271" flag="0"/>
			<vel value="0.0119318548264936" flag="0"/>
			<psa03 value="0.0301115050540969" flag="0"/>
			<psa10 value="0.0203796276925566" flag="0"/>
			<psa30 value="0.00575295292697738" flag="0"/>
		</comp>
		<comp name="--.HNN" depth="0.0">
			<acc value="0.0114931603573872" flag="0"/>
			<vel value="0.0146772352291825" flag="0"/>
			<psa03 value="0.0195523442921848" flag="0"/>
			<psa10 value="0.0252963487778385" flag="0"/>
			<psa30 value="0.00656054975643719" flag="0"/>
		</comp>
		<comp name="--.HNZ" depth="0.0">
			<acc value="0.00781587071396719" flag="0"/>
			<vel value="0.0071922802161525" flag="0"/>
			<psa03 value="0.0261294486650707" flag="0"/>
			<psa10 value="0.00937036033206465" flag="0"/>
			<psa30 value="0.00263173659328674" flag="0"/>
		</comp>
	</station>
	<station code="MNVG" name="MNVG" netid="KO" source="Bogazici University Kandilli Observatory And Earthquake Research Institute (KOERI)" insttype="" lat="36.7935" lon="31.4161">
		<comp name="--.HNE" depth="0.0">
			<acc value="0.0397724442817592" flag="0"/>
			<vel value="0.068652405149066" flag="0"/>
			<psa03 value="0.139595684649008" flag="0"/>
			<psa10 value="0.0585496515806704" flag="0"/>
			<psa30 value="0.0148445693118102" flag="0"/>
		</comp>
		<comp name="--.HNN" depth="0.0">
			<acc value="0.0463503425572831" flag="0"/>
			<vel value="0.0950085951865767" flag="0"/>
			<psa03 value="0.0992382142793268" flag="0"/>
			<psa10 value="0.0835963388455789" flag="0"/>
			<psa30 value="0.0140942425068218" flag="0"/>
		</comp>
		<comp name="--.HNZ" depth="0.0">
			<acc value="0.0396876493573792" flag="0"/>
			<vel value="0.0937168874932642" flag="0"/>
			<psa03 value="0.107515522503707" flag="0"/>
			<psa10 value="0.0349002634284505" flag="0"/>
			<psa30 value="0.00832249785306473" flag="0"/>
		</comp>
	</station>
	<station code="SEYD" name="SEYD" netid="KO" source="Bogazici University Kandilli Observatory And Earthquake Research Institute (KOERI)" insttype="" lat="37.4056" lon="31.8379">
		<comp name="--.HNE" depth="0.0">
			<acc value="0.0309799697421131" flag="0"/>
			<vel value="0.0345220797827926" flag="0"/>
			<psa03 value="0.0700215533575953" flag="0"/>
			<psa10 value="0.0315660741912569" flag="0"/>
			<psa30 value="0.00847372651143449" flag="0"/>
		</comp>
		<comp name="--.HNN" depth="0.0">
			<acc value="0.0407538382048366" flag="0"/>
			<vel value="0.0300585462693781" flag="0"/>
			<psa03 value="0.0934664696255697" flag="0"/>
			<psa10 value="0.0467028101122844" flag="0"/>
			<psa30 value="0.00530150406219902" flag="0"/>
		</comp>
		<comp name="--.HNZ" depth="0.0">
			<acc value="0.0193438408017688" flag="0"/>
			<vel value="0.0221666094771006" flag="0"/>
			<psa03 value="0.060088783488339" flag="0"/>
			<psa10 value="0.0254775547146425" flag="0"/>
			<psa30 value="0.00675159897869721" flag="0"/>
		</comp>
	</station>
	<station code="SHAP" name="SHAP" netid="KO" source="Bogazici University Kandilli Observatory And Earthquake Research Institute (KOERI)" insttype="" lat="39.0231" lon="29.222">
		<comp name="--.HNE" depth="0.0">
			<acc value="0.0245903631534177" flag="0"/>
			<vel value="0.0169096734523845" flag="0"/>
			<psa03 value="0.0678291852333" flag="0"/>
			<psa10 value="0.0191434005236938" flag="0"/>
			<psa30 value="0.00284023527612789" flag="0"/>
		</comp>
		<comp name="--.HNN" depth="0.0">
			<acc value="0.0233245377881788" flag="0"/>
			<vel value="0.0187021113767539" flag="0"/>
			<psa03 value="0.0577174465375706" flag="0"/>
			<psa10 value="0.0260251993236501" flag="0"/>
			<psa30 value="0.00330465938082555" flag="0"/>
		</comp>
		<comp name="--.HNZ" depth="0.0">
			<acc value="0.0152495381042105" flag="0"/>
			<vel value="0.0139944281922778" flag="0"/>
			<psa03 value="0.0319011933188278" flag="0"/>
			<psa10 value="0.0182051564509086" flag="0"/>
			<psa30 value="0.00215075787214032" flag="0"/>
		</comp>
	</station>
	<station code="YUVA" name="YUVA" netid="KO" source="Bogazici University Kandilli Observatory And Earthquake Research Institute (KOERI)" insttype="" lat="40.391" lon="31.6872">
		<comp name="--.HNE" depth="0.0">
			<acc value="0.0722983831290124" flag="0"/>
			<vel value="0.0609278720794143" flag="0"/>
			<psa03 value="0.179729443985598" flag="0"/>
			<psa10 value="0.0865963037993341" flag="0"/>
			<psa30 value="0.0104414887585061" flag="0"/>
		</comp>
		<comp name="--.HNN" depth="0.0">
			<acc value="0.045636854735598" flag="0"/>
			<vel value="0.0427585588254611" flag="0"/>
			<psa03 value="0.150244329824157" flag="0"/>
			<psa10 value="0.0617267956726339" flag="0"/>
			<psa30 value="0.00464737300143989" flag="0"/>
		</comp>
		<comp name="--.HNZ" depth="0.0">
			<acc value="0.0413986844497499" flag="0"/>
			<vel value="0.0363137339094119" flag="0"/>
			<psa03 value="0.157492567296317" flag="0"/>
			<psa10 value="0.0344935567702904" flag="0"/>
			<psa30 value="0.00439905375470848" flag="0"/>
		</comp>
	</station>
</stationlist>
