<?xml version="1.0" encoding="UTF-8" standalone="yes"?>
<!DOCTYPE earthquake SYSTEM "stationlist.dtd">
<stationlist created="" xmlns="ch.ethz.sed.shakemap.usgs.xml">
  <station code="ESKT" name="ESKT" netid="KO" insttype="100" lat="39.5212" lon="30.8492">
    <comp name="--.HNE">
      <acc value="0.0182614733" flag="0"/>
      <vel value="0.0077514364" flag="0"/>
      <psa03 value="0.0347580079" flag="0"/>
      <psa10 value="0.0036864761" flag="0"/>
      <psa30 value="0.0003634293" flag="0"/>
    </comp>
    <comp name="--.HNZ">
      <acc value="0.0070817593" flag="0"/>
      <vel value="0.0036636596" flag="0"/>
      <psa03 value="0.0238144034" flag="0"/>
      <psa10 value="0.0041005343" flag="0"/>
      <psa30 value="0.0003860571" flag="0"/>
    </comp>
    <comp name="--.HNN">
      <acc value="0.0150025556" flag="0"/>
      <vel value="0.0075587683" flag="0"/>
      <psa03 value="0.0516476577" flag="0"/>
      <psa10 value="0.0036463775" flag="0"/>
      <psa30 value="0.0003879555" flag="0"/>
    </comp>
  </station>
  <station code="KULU" name="KULU" netid="KO" insttype="30s," lat="39.0343" lon="33.0023">
    <comp name="--.HHN">
      <acc value="0.0028396021" flag="0"/>
      <vel value="0.0016810858" flag="0"/>
      <psa03 value="0.0102182797" flag="0"/>
      <psa10 value="0.0014831352" flag="0"/>
      <psa30 value="0.0005041072" flag="0"/>
    </comp>
    <comp name="--.HHE">
      <acc value="0.0023602572" flag="0"/>
      <vel value="0.0012734194" flag="0"/>
      <psa03 value="0.0079236380" flag="0"/>
      <psa10 value="0.0013836290" flag="0"/>
      <psa30 value="0.0002806188" flag="0"/>
    </comp>
    <comp name="--.HHZ">
      <acc value="0.0023748223" flag="0"/>
      <vel value="0.0012484188" flag="0"/>
      <psa03 value="0.0049304570" flag="0"/>
      <psa10 value="0.0013981412" flag="0"/>
      <psa30 value="0.0002672557" flag="0"/>
    </comp>
  </station>
  <station code="SEYD" name="SEYD" netid="KO" insttype="100" lat="37.4057" lon="31.838">
    <comp name="--.HNE">
      <acc value="0.0049527967" flag="0"/>
      <vel value="0.0049821038" flag="0"/>
      <psa03 value="0.0111535521" flag="0"/>
      <psa10 value="0.0050629952" flag="0"/>
      <psa30 value="0.0012146600" flag="0"/>
    </comp>
    <comp name="--.HNZ">
      <acc value="0.0030892839" flag="0"/>
      <vel value="0.0032814735" flag="0"/>
      <psa03 value="0.0095620377" flag="0"/>
      <psa10 value="0.0040180501" flag="0"/>
      <psa30 value="0.0009289743" flag="0"/>
    </comp>
    <comp name="--.HNN">
      <acc value="0.0065064624" flag="0"/>
      <vel value="0.0045795913" flag="0"/>
      <psa03 value="0.0148625317" flag="0"/>
      <psa10 value="0.0073889362" flag="0"/>
      <psa30 value="0.0007265607" flag="0"/>
    </comp>
  </station>
</stationlist>
