<?xml version="1.0" encoding="UTF-8" standalone="yes"?>
<!DOCTYPE earthquake SYSTEM "stationlist.dtd">
<stationlist created="" xmlns="ch.ethz.sed.shakemap.usgs.xml">
  <station code="CEYT" name="CEYT" netid="KO" insttype="CMG-3ESP" lat="37.0105" lon="35.7478">
    <comp name="--.HHE">
      <acc value="0.0042896515" flag="0"/>
      <vel value="0.0036506138" flag="0"/>
      <psa03 value="0.0158941779" flag="0"/>
      <psa10 value="0.0046910613" flag="0"/>
      <psa30 value="0.0009706511" flag="0"/>
    </comp>
    <comp name="--.HHZ">
      <acc value="0.0025347720" flag="0"/>
      <vel value="0.0034662876" flag="0"/>
      <psa03 value="0.0070061412" flag="0"/>
      <psa10 value="0.0061902217" flag="0"/>
      <psa30 value="0.0014197203" flag="0"/>
    </comp>
    <comp name="--.HHN">
      <acc value="0.0028361429" flag="0"/>
      <vel value="0.0031185371" flag="0"/>
      <psa03 value="0.0074496479" flag="0"/>
      <psa10 value="0.0039631911" flag="0"/>
      <psa30 value="0.0011927269" flag="0"/>
    </comp>
  </station>
  <station code="GAZ" name="GAZ" netid="KO" insttype="CMG-3T" lat="37.1721" lon="37.2096">
    <comp name="--.HHE">
      <acc value="0.0130794336" flag="0"/>
      <vel value="0.0098188322" flag="0"/>
      <psa03 value="0.0169192727" flag="0"/>
      <psa10 value="0.0080224151" flag="0"/>
      <psa30 value="0.0009624239" flag="0"/>
    </comp>
    <comp name="--.HHN">
      <acc value="0.0101909983" flag="0"/>
      <vel value="0.0077536896" flag="0"/>
      <psa03 value="0.0209885555" flag="0"/>
      <psa10 value="0.0062059471" flag="0"/>
      <psa30 value="0.0009190710" flag="0"/>
    </comp>
    <comp name="--.HHZ">
      <acc value="0.0082446867" flag="0"/>
      <vel value="0.0055425474" flag="0"/>
      <psa03 value="0.0209163802" flag="0"/>
      <psa10 value="0.0051642721" flag="0"/>
      <psa30 value="0.0013684926" flag="0"/>
    </comp>
  </station>
  <station code="KMRS" name="KMRS" netid="KO" insttype="CMG-3T" lat="37.5053" lon="36.9">
    <comp name="--.HHE">
      <acc value="0.0097084515" flag="0"/>
      <vel value="0.0058197298" flag="0"/>
      <psa03 value="0.0215868659" flag="0"/>
      <psa10 value="0.0065941767" flag="0"/>
      <psa30 value="0.0026953919" flag="0"/>
    </comp>
    <comp name="--.HHN">
      <acc value="0.0114808840" flag="0"/>
      <vel value="0.0077039008" flag="0"/>
      <psa03 value="0.0294612118" flag="0"/>
      <psa10 value="0.0106070457" flag="0"/>
      <psa30 value="0.0019587420" flag="0"/>
    </comp>
    <comp name="--.HHZ">
      <acc value="0.0082420638" flag="0"/>
      <vel value="0.0037117079" flag="0"/>
      <psa03 value="0.0173946413" flag="0"/>
      <psa10 value="0.0050749946" flag="0"/>
      <psa30 value="0.0018960416" flag="0"/>
    </comp>
  </station>
  <station code="SARI" name="SARI" netid="KO" insttype="CMG-3T" lat="38.4072" lon="36.4181">
    <comp name="--.HHZ">
      <acc value="0.1974183446" flag="0"/>
      <vel value="0.0542070045" flag="0"/>
      <psa03 value="0.2369298924" flag="0"/>
      <psa10 value="0.0341316856" flag="0"/>
      <psa30 value="0.0043246240" flag="0"/>
    </comp>
    <comp name="--.HHN">
      <acc value="0.2261241584" flag="0"/>
      <vel value="0.0761346365" flag="0"/>
      <psa03 value="0.5846866160" flag="0"/>
      <psa10 value="0.0288977617" flag="0"/>
      <psa30 value="0.0035789174" flag="0"/>
    </comp>
    <comp name="--.HHE">
      <acc value="0.2869783925" flag="0"/>
      <vel value="0.0673351480" flag="0"/>
      <psa03 value="0.4864204777" flag="0"/>
      <psa10 value="0.0337971034" flag="0"/>
      <psa30 value="0.0020027165" flag="0"/>
    </comp>
  </station>
  <station code="ANDN" name="ANDN" netid="TU" insttype="T" lat="37.58" lon="36.3452">
    <comp name="--.HHE">
      <acc value="0.1398441764" flag="0"/>
      <vel value="0.0899220297" flag="0"/>
      <psa03 value="0.2610234619" flag="0"/>
      <psa10 value="0.0737759901" flag="0"/>
      <psa30 value="0.0082396104" flag="0"/>
    </comp>
    <comp name="--.HHZ">
      <acc value="0.0822340357" flag="0"/>
      <vel value="0.0445924439" flag="0"/>
      <psa03 value="0.1475872597" flag="0"/>
      <psa10 value="0.0470506269" flag="0"/>
      <psa30 value="0.0064047018" flag="0"/>
    </comp>
    <comp name="--.HHN">
      <acc value="0.2212529820" flag="0"/>
      <vel value="0.0803964376" flag="0"/>
      <psa03 value="0.1837845348" flag="0"/>
      <psa10 value="0.0476333351" flag="0"/>
      <psa30 value="0.0066513394" flag="0"/>
    </comp>
  </station>
</stationlist>
