<?xml version="1.0" encoding="UTF-8" standalone="yes"?>
<!DOCTYPE earthquake SYSTEM "stationlist.dtd">
<stationlist created="" xmlns="ch.ethz.sed.shakemap.usgs.xml">
  <station code="KARP" name="KARP" netid="GE" insttype="STS-2/N" lat="35.5471" lon="27.1611">
    <comp name="--.HHE">
      <acc value="0.0353952196" flag="0"/>
      <vel value="0.0126834807" flag="0"/>
      <psa03 value="0.0412290453" flag="0"/>
      <psa10 value="0.0203130275" flag="0"/>
      <psa30 value="0.0011564451" flag="0"/>
    </comp>
    <comp name="--.HHN">
      <acc value="0.0353234038" flag="0"/>
      <vel value="0.0133804629" flag="0"/>
      <psa03 value="0.0322898227" flag="0"/>
      <psa10 value="0.0238111123" flag="0"/>
      <psa30 value="0.0010862850" flag="0"/>
    </comp>
    <comp name="--.HHZ">
      <acc value="0.0253150209" flag="0"/>
      <vel value="0.0123081702" flag="0"/>
      <psa03 value="0.0285804159" flag="0"/>
      <psa10 value="0.0105831508" flag="0"/>
      <psa30 value="0.0012900328" flag="0"/>
    </comp>
  </station>
  <station code="RDI1" name="RDI1" netid="HI" insttype="CMG-5TD,ACCELEROMETER,GURALP" lat="36.4514" lon="28.224">
    <comp name="--.HNZ">
      <acc value="0.0087148210" flag="0"/>
      <vel value="0.0087355999" flag="0"/>
      <psa03 value="0.0203330619" flag="0"/>
      <psa10 value="0.0097065768" flag="0"/>
      <psa30 value="0.0023616404" flag="0"/>
    </comp>
    <comp name="--.HNE">
      <acc value="0.0144275720" flag="0"/>
      <vel value="0.0173522316" flag="0"/>
      <psa03 value="0.0236132477" flag="0"/>
      <psa10 value="0.0177973247" flag="0"/>
      <psa30 value="0.0073432834" flag="0"/>
    </comp>
    <comp name="--.HNN">
      <acc value="0.0179615863" flag="0"/>
      <vel value="0.0132843973" flag="0"/>
      <psa03 value="0.0317133593" flag="0"/>
      <psa10 value="0.0176103397" flag="0"/>
      <psa30 value="0.0049169452" flag="0"/>
    </comp>
  </station>
  <station code="ARG" name="ARG" netid="HL" insttype="LE3D20_DR24" lat="36.2136" lon="28.1212">
    <comp name="--.HHE">
      <acc value="0.0450252325" flag="0"/>
      <vel value="0.0367876271" flag="0"/>
      <psa03 value="0.0739394373" flag="0"/>
      <psa10 value="0.0311622784" flag="0"/>
      <psa30 value="0.0049187535" flag="0"/>
    </comp>
    <comp name="--.HHN">
      <acc value="0.0327028574" flag="0"/>
      <vel value="0.0167284526" flag="0"/>
      <psa03 value="0.0451199514" flag="0"/>
      <psa10 value="0.0150010651" flag="0"/>
      <psa30 value="0.0021909881" flag="0"/>
    </comp>
    <comp name="--.HHZ">
      <acc value="0.0163122483" flag="0"/>
      <vel value="0.0083008310" flag="0"/>
      <psa03 value="0.0293810996" flag="0"/>
      <psa10 value="0.0129683919" flag="0"/>
      <psa30 value="0.0022730370" flag="0"/>
    </comp>
  </station>
  <station code="KARP" name="KARP" netid="HL" insttype="120" lat="35.5471" lon="27.1611">
    <comp name="--.HHE">
      <acc value="0.0341327515" flag="0"/>
      <vel value="0.0124229275" flag="0"/>
      <psa03 value="0.0400315551" flag="0"/>
      <psa10 value="0.0201813238" flag="0"/>
      <psa30 value="0.0011512166" flag="0"/>
    </comp>
    <comp name="--.HHN">
      <acc value="0.0319871006" flag="0"/>
      <vel value="0.0131364942" flag="0"/>
      <psa03 value="0.0314853822" flag="0"/>
      <psa10 value="0.0236734817" flag="0"/>
      <psa30 value="0.0010829854" flag="0"/>
    </comp>
    <comp name="--.HHZ">
      <acc value="0.0229756703" flag="0"/>
      <vel value="0.0121035170" flag="0"/>
      <psa03 value="0.0279171197" flag="0"/>
      <psa10 value="0.0104996965" flag="0"/>
      <psa30 value="0.0012827442" flag="0"/>
    </comp>
  </station>
  <station code="KLNA" name="KLNA" netid="HL" insttype="CMG-5" lat="36.9571" lon="26.9727">
    <comp name="00.HNZ">
      <acc value="0.0500422572" flag="0"/>
      <vel value="0.0092011332" flag="0"/>
      <psa03 value="0.0385954989" flag="0"/>
      <psa10 value="0.0032580548" flag="0"/>
      <psa30 value="0.0004302607" flag="0"/>
    </comp>
    <comp name="00.HNE">
      <acc value="0.0420705180" flag="0"/>
      <vel value="0.0114633307" flag="0"/>
      <psa03 value="0.0729289348" flag="0"/>
      <psa10 value="0.0037043461" flag="0"/>
      <psa30 value="0.0007753451" flag="0"/>
    </comp>
    <comp name="00.HNN">
      <acc value="0.0325501821" flag="0"/>
      <vel value="0.0121410402" flag="0"/>
      <psa03 value="0.0876325161" flag="0"/>
      <psa10 value="0.0042250428" flag="0"/>
      <psa30 value="0.0003610897" flag="0"/>
    </comp>
  </station>
  <station code="NISR" name="NISR" netid="HL" insttype="65535" lat="36.6106" lon="27.131">
    <comp name="--.HHE">
      <acc value="0.9783586342" flag="0"/>
      <vel value="0.2501681811" flag="0"/>
      <psa03 value="1.1960804870" flag="0"/>
      <psa10 value="0.0812711234" flag="0"/>
      <psa30 value="0.0106777064" flag="0"/>
    </comp>
    <comp name="--.HHN">
      <acc value="1.4728308128" flag="0"/>
      <vel value="0.2619028521" flag="0"/>
      <psa03 value="0.6083202873" flag="0"/>
      <psa10 value="0.0678384207" flag="0"/>
      <psa30 value="0.0677209947" flag="0"/>
    </comp>
    <comp name="--.HHZ">
      <acc value="0.8085476699" flag="0"/>
      <vel value="0.1236702750" flag="0"/>
      <psa03 value="0.3974821997" flag="0"/>
      <psa10 value="0.0846328185" flag="0"/>
      <psa30 value="0.0027368359" flag="0"/>
    </comp>
  </station>
</stationlist>
