<stationlist created="1778136589">
	<station code="KRL1" name="KRL1" netid="HI" source="ITSAK Strong Motion Network" insttype="" lat="37.7951" lon="26.7065">
		<comp name="--.HNE" depth="0.0">
			<acc value="0.00655792546816753" flag="0"/>
			<vel value="0.00573118465913068" flag="0"/>
			<psa03 value="0.0124444038077561" flag="0"/>
			<psa10 value="0.00901205044161021" flag="0"/>
			<psa30 value="0.000687990680174591" flag="0"/>
		</comp>
		<comp name="--.HNN" depth="0.0">
			<acc value="0.00270870263026949" flag="0"/>
			<vel value="0.00257997454585419" flag="0"/>
			<psa03 value="0.00631107953639555" flag="0"/>
			<psa10 value="0.00457356625755451" flag="0"/>
			<psa30 value="0.000584189324674911" flag="0"/>
		</comp>
		<comp name="--.HNZ" depth="0.0">
			<acc value="0.00242140487633108" flag="0"/>
			<vel value="0.00186403587006214" flag="0"/>
			<psa03 value="0.00699328097889479" flag="0"/>
			<psa10 value="0.00363942507842637" flag="0"/>
			<psa30 value="0.000257879218649284" flag="0"/>
		</comp>
	</station>
	<station code="KSS1" name="KSS1" netid="HI" source="ITSAK Strong Motion Network" insttype="" lat="35.4189" lon="26.9207">
		<comp name="--.HNE" depth="0.0">
			<acc value="0.0108402036485815" flag="0"/>
			<vel value="0.0035557663412887" flag="0"/>
			<psa03 value="0.0296627957438022" flag="0"/>
			<psa10 value="0.00458159600824585" flag="0"/>
			<psa30 value="0.000386825338822026" flag="0"/>
		</comp>
		<comp name="--.HNN" depth="0.0">
			<acc value="0.0119509884321151" flag="0"/>
			<vel value="0.00456690281365495" flag="0"/>
			<psa03 value="0.0339749511946152" flag="0"/>
			<psa10 value="0.00432836517043635" flag="0"/>
			<psa30 value="0.000509287591970694" flag="0"/>
		</comp>
		<comp name="--.HNZ" depth="0.0">
			<acc value="0.00724225326169079" flag="0"/>
			<vel value="0.00321201526252671" flag="0"/>
			<psa03 value="0.00569507193201485" flag="0"/>
			<psa10 value="0.00295639209646596" flag="0"/>
			<psa30 value="0.00036412156918351" flag="0"/>
		</comp>
	</station>
	<station code="NAX1" name="NAX1" netid="HI" source="ITSAK Strong Motion Network" insttype="" lat="37.101394" lon="25.374103">
		<comp name="--.HNE" depth="0.0">
			<acc value="0.00202726030808985" flag="0"/>
			<vel value="0.00171391648795688" flag="0"/>
			<psa03 value="0.00539807341620242" flag="0"/>
			<psa10 value="0.00308252678039751" flag="0"/>
			<psa30 value="0.000482560456847211" flag="0"/>
		</comp>
		<comp name="--.HNN" depth="0.0">
			<acc value="0.00436124707295687" flag="0"/>
			<vel value="0.00295008053348076" flag="0"/>
			<psa03 value="0.0105304534502526" flag="0"/>
			<psa10 value="0.00266684268086552" flag="0"/>
			<psa30 value="0.000479276228865285" flag="0"/>
		</comp>
		<comp name="--.HNZ" depth="0.0">
			<acc value="0.00202995165911711" flag="0"/>
			<vel value="0.0017805646375134" flag="0"/>
			<psa03 value="0.00857780521668292" flag="0"/>
			<psa10 value="0.00177901765587808" flag="0"/>
			<psa30 value="0.000447509072360923" flag="0"/>
		</comp>
	</station>
	<station code="RDI1" name="RDI1" netid="HI" source="ITSAK Strong Motion Network" insttype="" lat="36.4514" lon="28.224">
		<comp name="--.HNE" depth="0.0">
			<acc value="0.0139232034314715" flag="0"/>
			<vel value="0.0194144015627206" flag="0"/>
			<psa03 value="0.0237728039982791" flag="0"/>
			<psa10 value="0.018047425553354" flag="0"/>
			<psa30 value="0.00890885350116148" flag="0"/>
		</comp>
		<comp name="--.HNN" depth="0.0">
			<acc value="0.0180812665513439" flag="0"/>
			<vel value="0.0132249304635052" flag="0"/>
			<psa03 value="0.0312173258071118" flag="0"/>
			<psa10 value="0.0176899556227245" flag="0"/>
			<psa30 value="0.00590552871229427" flag="0"/>
		</comp>
		<comp name="--.HNZ" depth="0.0">
			<acc value="0.00879402629765044" flag="0"/>
			<vel value="0.00909470382234622" flag="0"/>
			<psa03 value="0.0202659636143649" flag="0"/>
			<psa10 value="0.00974535433190699" flag="0"/>
			<psa30 value="0.00284715006805024" flag="0"/>
		</comp>
	</station>
	<station code="SIT2" name="SIT2" netid="HI" source="ITSAK Strong Motion Network" insttype="" lat="35.2059" lon="26.107">
		<comp name="--.HNE" depth="0.0">
			<acc value="0.0162229687820788" flag="0"/>
			<vel value="0.0143215249259011" flag="0"/>
			<psa03 value="0.0393396529339166" flag="0"/>
			<psa10 value="0.0121190975182475" flag="0"/>
			<psa30 value="0.00092630115457339" flag="0"/>
		</comp>
		<comp name="--.HNN" depth="0.0">
			<acc value="0.017226533658216" flag="0"/>
			<vel value="0.01679277763092" flag="0"/>
			<psa03 value="0.0533250064783064" flag="0"/>
			<psa10 value="0.0139681162566409" flag="0"/>
			<psa30 value="0.000820776612005252" flag="0"/>
		</comp>
		<comp name="--.HNZ" depth="0.0">
			<acc value="0.00826777894630551" flag="0"/>
			<vel value="0.00459345817569769" flag="0"/>
			<psa03 value="0.0173038272832066" flag="0"/>
			<psa10 value="0.00580687342687842" flag="0"/>
			<psa30 value="0.000601345773708145" flag="0"/>
		</comp>
	</station>
	<station code="KARP" name="KARP" netid="HL" source="National Observatory of Athens Seismic Network" insttype="" lat="35.5471" lon="27.16106">
		<comp name="--.HNE" depth="0.0">
			<acc value="0.0310799928614806" flag="0"/>
			<vel value="0.0104234719901409" flag="0"/>
			<psa03 value="0.0329148210703379" flag="0"/>
			<psa10 value="0.018222852799572" flag="0"/>
			<psa30 value="0.000927648639668464" flag="0"/>
		</comp>
		<comp name="--.HNN" depth="0.0">
			<acc value="0.0267444737997794" flag="0"/>
			<vel value="0.0109595804796262" flag="0"/>
			<psa03 value="0.0262641669555128" flag="0"/>
			<psa10 value="0.0215365479405982" flag="0"/>
			<psa30 value="0.00102989905908965" flag="0"/>
		</comp>
		<comp name="--.HNZ" depth="0.0">
			<acc value="0.0183981611268353" flag="0"/>
			<vel value="0.00998440248561623" flag="0"/>
			<psa03 value="0.0232491703517679" flag="0"/>
			<psa10 value="0.00845678584555381" flag="0"/>
			<psa30 value="0.00107682539689936" flag="0"/>
		</comp>
	</station>
	<station code="KLNA" name="KLNA" netid="HL" source="National Observatory of Athens Seismic Network" insttype="" lat="36.95708" lon="26.97274">
		<comp name="00.HNE" depth="0.0">
			<acc value="0.0417602161984204" flag="0"/>
			<vel value="0.011512028864402" flag="0"/>
			<psa03 value="0.0735200422167919" flag="0"/>
			<psa10 value="0.00370477526692813" flag="0"/>
			<psa30 value="0.000816770565372995" flag="0"/>
		</comp>
		<comp name="00.HNN" depth="0.0">
			<acc value="0.0324259279608779" flag="0"/>
			<vel value="0.0121935244988598" flag="0"/>
			<psa03 value="0.0879237307658682" flag="0"/>
			<psa10 value="0.00424356502160025" flag="0"/>
			<psa30 value="0.00039512278952877" flag="0"/>
		</comp>
		<comp name="00.HNZ" depth="0.0">
			<acc value="0.049560514789623" flag="0"/>
			<vel value="0.00912378879626528" flag="0"/>
			<psa03 value="0.0387443869379662" flag="0"/>
			<psa10 value="0.00325981836884521" flag="0"/>
			<psa30 value="0.000507206099915773" flag="0"/>
		</comp>
	</station>
	<station code="NISR" name="NISR" netid="HL" source="National Observatory of Athens Seismic Network" insttype="" lat="36.6106" lon="27.131">
		<comp name="--.HNE" depth="0.0">
			<acc value="0.904332738722347" flag="0"/>
			<vel value="0.246377427874713" flag="0"/>
			<psa03 value="1.1458226551268" flag="0"/>
			<psa10 value="0.0825470183349767" flag="0"/>
			<psa30 value="0.0117413686413927" flag="0"/>
		</comp>
		<comp name="--.HNN" depth="0.0">
			<acc value="1.34005490019627" flag="0"/>
			<vel value="0.242528335193807" flag="0"/>
			<psa03 value="0.502499454787971" flag="0"/>
			<psa10 value="0.0491269906722099" flag="0"/>
			<psa30 value="0.0103790592284031" flag="0"/>
		</comp>
		<comp name="--.HNZ" depth="0.0">
			<acc value="0.840045541833939" flag="0"/>
			<vel value="0.125510853002058" flag="0"/>
			<psa03 value="0.353255984808465" flag="0"/>
			<psa10 value="0.0887038386938196" flag="0"/>
			<psa30 value="0.00254716769569095" flag="0"/>
		</comp>
	</station>
	<station code="RODB" name="RODB" netid="HL" source="National Observatory of Athens Seismic Network" insttype="" lat="36.4471" lon="28.22116">
		<comp name="00.HNE" depth="0.0">
			<acc value="0.00898694006342765" flag="0"/>
			<vel value="0.0146116599466274" flag="0"/>
			<psa03 value="0.0208276401456231" flag="0"/>
			<psa10 value="0.0172881765068656" flag="0"/>
			<psa30 value="0.00563227727740778" flag="0"/>
		</comp>
		<comp name="00.HNN" depth="0.0">
			<acc value="0.0217071866280639" flag="0"/>
			<vel value="0.0204921780249396" flag="0"/>
			<psa03 value="0.0506521471229191" flag="0"/>
			<psa10 value="0.0144700016916132" flag="0"/>
			<psa30 value="0.00552769534935801" flag="0"/>
		</comp>
		<comp name="00.HNZ" depth="0.0">
			<acc value="0.00822462474430564" flag="0"/>
			<vel value="0.00697518056058198" flag="0"/>
			<psa03 value="0.0184465188663385" flag="0"/>
			<psa10 value="0.00748682065261686" flag="0"/>
			<psa30 value="0.00244541428836065" flag="0"/>
		</comp>
	</station>
	<station code="THRA" name="THRA" netid="HL" source="National Observatory of Athens Seismic Network" insttype="" lat="36.41502" lon="25.43244">
		<comp name="00.HNE" depth="0.0">
			<acc value="0.0204113675622342" flag="0"/>
			<vel value="0.0189443440806387" flag="0"/>
			<psa03 value="0.0617765351005156" flag="0"/>
			<psa10 value="0.03702297384031" flag="0"/>
			<psa30 value="0.00698300675659387" flag="0"/>
		</comp>
		<comp name="00.HNN" depth="0.0">
			<acc value="0.0337582404797012" flag="0"/>
			<vel value="0.0196838872734374" flag="0"/>
			<psa03 value="0.067136030765781" flag="0"/>
			<psa10 value="0.0177419640680499" flag="0"/>
			<psa30 value="0.0034265913698615" flag="0"/>
		</comp>
		<comp name="00.HNZ" depth="0.0">
			<acc value="0.0153763350100971" flag="0"/>
			<vel value="0.00882474273888464" flag="0"/>
			<psa03 value="0.0495221451824612" flag="0"/>
			<psa10 value="0.00909781299796836" flag="0"/>
			<psa30 value="0.00111070451622124" flag="0"/>
		</comp>
	</station>
	<station code="CESE" name="CESE" netid="KO" source="Bogazici University Kandilli Observatory And Earthquake Research Institute (KOERI)" insttype="" lat="38.3306" lon="26.2997">
		<comp name="--.HNE" depth="0.0">
			<acc value="0.000719105428472336" flag="0"/>
			<vel value="0.00101687429300443" flag="0"/>
			<psa03 value="0.000935566289825993" flag="0"/>
			<psa10 value="0.000751381025305" flag="0"/>
			<psa30 value="0.00056354181104698" flag="0"/>
		</comp>
		<comp name="--.HNN" depth="0.0">
			<acc value="0.000958182409284093" flag="0"/>
			<vel value="0.000870956733097417" flag="0"/>
			<psa03 value="0.00133863604135018" flag="0"/>
			<psa10 value="0.00141272913324518" flag="0"/>
			<psa30 value="0.000528475373483749" flag="0"/>
		</comp>
		<comp name="--.HNZ" depth="0.0">
			<acc value="0.000486782995132311" flag="0"/>
			<vel value="0.000793001674200581" flag="0"/>
			<psa03 value="0.000761605709802973" flag="0"/>
			<psa10 value="0.000807913793762776" flag="0"/>
			<psa30 value="0.000515982931338172" flag="0"/>
		</comp>
	</station>
	<station code="DATC" name="DATC" netid="KO" source="Bogazici University Kandilli Observatory And Earthquake Research Institute (KOERI)" insttype="" lat="36.7584" lon="27.6602">
		<comp name="--.HNE" depth="0.0">
			<acc value="0.137933596259282" flag="0"/>
			<vel value="0.0333589361623457" flag="0"/>
			<psa03 value="0.105860137714756" flag="0"/>
			<psa10 value="0.0236077613983382" flag="0"/>
			<psa30 value="0.00312034879112747" flag="0"/>
		</comp>
		<comp name="--.HNN" depth="0.0">
			<acc value="0.165426591728344" flag="0"/>
			<vel value="0.0236897626435951" flag="0"/>
			<psa03 value="0.085166152256117" flag="0"/>
			<psa10 value="0.0442704864523206" flag="0"/>
			<psa30 value="0.00255791986630546" flag="0"/>
		</comp>
		<comp name="--.HNZ" depth="0.0">
			<acc value="0.180814342998224" flag="0"/>
			<vel value="0.0419419235396888" flag="0"/>
			<psa03 value="0.0714493894213746" flag="0"/>
			<psa10 value="0.0318771567051768" flag="0"/>
			<psa30 value="0.00202797788524801" flag="0"/>
		</comp>
	</station>
	<station code="FETI" name="FETI" netid="KO" source="Bogazici University Kandilli Observatory And Earthquake Research Institute (KOERI)" insttype="" lat="36.6903" lon="29.096">
		<comp name="--.HNE" depth="0.0">
			<acc value="0.00538656547908541" flag="0"/>
			<vel value="0.00201904179511838" flag="0"/>
			<psa03 value="0.00369020083790209" flag="0"/>
			<psa10 value="0.00196569037358976" flag="0"/>
			<psa30 value="0.000561008726576385" flag="0"/>
		</comp>
		<comp name="--.HNN" depth="0.0">
			<acc value="0.00280173620500679" flag="0"/>
			<vel value="0.0021067700772627" flag="0"/>
			<psa03 value="0.00387434617464926" flag="0"/>
			<psa10 value="0.00132225638205887" flag="0"/>
			<psa30 value="0.000680818538386172" flag="0"/>
		</comp>
		<comp name="--.HNZ" depth="0.0">
			<acc value="0.0236230591659853" flag="0"/>
			<vel value="0.00271364507278438" flag="0"/>
			<psa03 value="0.00409743289315481" flag="0"/>
			<psa10 value="0.00350119584329071" flag="0"/>
			<psa30 value="0.000613787483323348" flag="0"/>
		</comp>
	</station>
	<station code="KUSD" name="KUSD" netid="KO" source="Bogazici University Kandilli Observatory And Earthquake Research Institute (KOERI)" insttype="" lat="37.8606" lon="27.2868">
		<comp name="--.HNE" depth="0.0">
			<acc value="0.000874363155030273" flag="0"/>
			<vel value="0.000969744057427276" flag="0"/>
			<psa03 value="0.001499215201067" flag="0"/>
			<psa10 value="0.00104497883409445" flag="0"/>
			<psa30 value="0.000326689584290019" flag="0"/>
		</comp>
		<comp name="--.HNN" depth="0.0">
			<acc value="0.00147440241260009" flag="0"/>
			<vel value="0.00129205848013487" flag="0"/>
			<psa03 value="0.00252006554223263" flag="0"/>
			<psa10 value="0.0022049806003921" flag="0"/>
			<psa30 value="0.000306780452907733" flag="0"/>
		</comp>
		<comp name="--.HNZ" depth="0.0">
			<acc value="0.00113070633790215" flag="0"/>
			<vel value="0.000655236250282035" flag="0"/>
			<psa03 value="0.00126504351972283" flag="0"/>
			<psa10 value="0.0011029723243146" flag="0"/>
			<psa30 value="0.000327751269204858" flag="0"/>
		</comp>
	</station>
	<station code="NAZL" name="NAZL" netid="KO" source="Bogazici University Kandilli Observatory And Earthquake Research Institute (KOERI)" insttype="" lat="37.9641" lon="28.2922">
		<comp name="--.HNE" depth="0.0">
			<acc value="0.00220004047766153" flag="0"/>
			<vel value="0.00225991203370959" flag="0"/>
			<psa03 value="0.00483615403033167" flag="0"/>
			<psa10 value="0.00244844180662653" flag="0"/>
			<psa30 value="0.000313469724163997" flag="0"/>
		</comp>
		<comp name="--.HNN" depth="0.0">
			<acc value="0.00160460906592932" flag="0"/>
			<vel value="0.00159380210699141" flag="0"/>
			<psa03 value="0.00437893917177196" flag="0"/>
			<psa10 value="0.00269958117775491" flag="0"/>
			<psa30 value="0.000286615549373389" flag="0"/>
		</comp>
		<comp name="--.HNZ" depth="0.0">
			<acc value="0.000731663713634655" flag="0"/>
			<vel value="0.000877393382613583" flag="0"/>
			<psa03 value="0.00251880959966098" flag="0"/>
			<psa10 value="0.00119317787030166" flag="0"/>
			<psa30 value="0.000286194479813221" flag="0"/>
		</comp>
	</station>
	<station code="YKAV" name="YKAV" netid="KO" source="Bogazici University Kandilli Observatory And Earthquake Research Institute (KOERI)" insttype="" lat="37.1246" lon="27.2801">
		<comp name="--.HNE" depth="0.0">
			<acc value="0.0129851598254482" flag="0"/>
			<vel value="0.00581641922090912" flag="0"/>
			<psa03 value="0.0233977687373304" flag="0"/>
			<psa10 value="0.00604619271807813" flag="0"/>
			<psa30 value="0.000536395637744967" flag="0"/>
		</comp>
		<comp name="--.HNN" depth="0.0">
			<acc value="0.00818889383943902" flag="0"/>
			<vel value="0.00449166774220336" flag="0"/>
			<psa03 value="0.0283174644347078" flag="0"/>
			<psa10 value="0.0037401361250389" flag="0"/>
			<psa30 value="0.000752819453926914" flag="0"/>
		</comp>
		<comp name="--.HNZ" depth="0.0">
			<acc value="0.00729784936111585" flag="0"/>
			<vel value="0.00435858557390282" flag="0"/>
			<psa03 value="0.0173279525793114" flag="0"/>
			<psa10 value="0.00720064435109284" flag="0"/>
			<psa30 value="0.000755745116486941" flag="0"/>
		</comp>
	</station>
</stationlist>
