<stationlist created="1738769538">
	<station code="BODA" name="BODA" netid="KO" source="Bogazici University Kandilli Observatory And Earthquake Research Institute (KOERI)" insttype="" lat="37.0348" lon="27.4304">
		<comp name=".HNE" depth="0.0">
			<acc value="0.0038992336706088" flag="0"/>
			<vel value="0.00150635482712" flag="0"/>
			<psa03 value="0.012895761833014" flag="0"/>
			<psa10 value="0.00151946483677703" flag="0"/>
			<psa30 value="0.00015886331037293" flag="0"/>
		</comp>
		<comp name=".HNN" depth="0.0">
			<acc value="0.0059114230901088" flag="0"/>
			<vel value="0.00131113075928" flag="0"/>
			<psa03 value="0.00926235707530351" flag="0"/>
			<psa10 value="0.00210333035093812" flag="0"/>
			<psa30 value="0.000121969629368484" flag="0"/>
		</comp>
		<comp name=".HNZ" depth="0.0">
			<acc value="0.011210639638908" flag="0"/>
			<vel value="0.00140353823886" flag="0"/>
			<psa03 value="0.00249720465281083" flag="0"/>
			<psa10 value="0.000612149419083286" flag="0"/>
			<psa30 value="0.000173989351461402" flag="0"/>
		</comp>
	</station>
	<station code="BODM" name="BODM" netid="KO" source="Bogazici University Kandilli Observatory And Earthquake Research Institute (KOERI)" insttype="" lat="37.031" lon="27.4247">
		<comp name=".HNE" depth="0.0">
			<acc value="0.013813886689014" flag="0"/>
			<vel value="0.00257358012976" flag="0"/>
			<psa03 value="0.0124577627656536" flag="0"/>
			<psa10 value="0.00134345009072706" flag="0"/>
			<psa30 value="0.000186737708998528" flag="0"/>
		</comp>
		<comp name=".HNN" depth="0.0">
			<acc value="0.011570065728798" flag="0"/>
			<vel value="0.00319906772649" flag="0"/>
			<psa03 value="0.0127764635655191" flag="0"/>
			<psa10 value="0.00314519038467782" flag="0"/>
			<psa30 value="0.000201506747270561" flag="0"/>
		</comp>
		<comp name=".HNZ" depth="0.0">
			<acc value="0.0066906155637354" flag="0"/>
			<vel value="0.000652702350299" flag="0"/>
			<psa03 value="0.00161734428304835" flag="0"/>
			<psa10 value="0.000527343879257816" flag="0"/>
			<psa30 value="0.000270844322315632" flag="0"/>
		</comp>
	</station>
	<station code="CESE" name="CESE" netid="KO" source="Bogazici University Kandilli Observatory And Earthquake Research Institute (KOERI)" insttype="" lat="38.3306" lon="26.2997">
		<comp name=".HNE" depth="0.0">
			<acc value="0.068007344923134" flag="0"/>
			<vel value="0.00463447374337" flag="0"/>
			<psa03 value="0.00298331872397392" flag="0"/>
			<psa10 value="0.00116338449038932" flag="0"/>
			<psa30 value="0.000561964362799459" flag="0"/>
		</comp>
		<comp name=".HNN" depth="0.0">
			<acc value="0.05876552221701" flag="0"/>
			<vel value="0.00397261883419" flag="0"/>
			<psa03 value="0.00347512278795387" flag="0"/>
			<psa10 value="0.00122575053589343" flag="0"/>
			<psa30 value="0.000968159448313929" flag="0"/>
		</comp>
		<comp name=".HNZ" depth="0.0">
			<acc value="0.010645163357484" flag="0"/>
			<vel value="0.00114989568312" flag="0"/>
			<psa03 value="0.00240137017925149" flag="0"/>
			<psa10 value="0.000865155710756257" flag="0"/>
			<psa30 value="0.000332575677339924" flag="0"/>
		</comp>
	</station>
	<station code="DATC" name="DATC" netid="KO" source="Bogazici University Kandilli Observatory And Earthquake Research Institute (KOERI)" insttype="" lat="36.7584" lon="27.6602">
		<comp name=".HNE" depth="0.0">
			<acc value="0.25640532427902" flag="0"/>
			<vel value="0.0197482125819" flag="0"/>
			<psa03 value="0.0326028603003245" flag="0"/>
			<psa10 value="0.00741009385109032" flag="0"/>
			<psa30 value="0.000999266196479633" flag="0"/>
		</comp>
		<comp name=".HNN" depth="0.0">
			<acc value="0.25218300485508" flag="0"/>
			<vel value="0.0196717133419" flag="0"/>
			<psa03 value="0.0428664933406515" flag="0"/>
			<psa10 value="0.00746821660769834" flag="0"/>
			<psa30 value="0.000800784975158178" flag="0"/>
		</comp>
		<comp name=".HNZ" depth="0.0">
			<acc value="0.4277497013256" flag="0"/>
			<vel value="0.0713981897431" flag="0"/>
			<psa03 value="0.0739320643032363" flag="0"/>
			<psa10 value="0.0109219816526658" flag="0"/>
			<psa30 value="0.000764637893091755" flag="0"/>
		</comp>
	</station>
	<station code="DIDI" name="DIDI" netid="KO" source="Bogazici University Kandilli Observatory And Earthquake Research Institute (KOERI)" insttype="" lat="37.3767" lon="27.2398">
		<comp name=".HNE" depth="0.0">
			<acc value="0.050070770028582" flag="0"/>
			<vel value="0.0045946422777" flag="0"/>
			<psa03 value="0.0257992090709659" flag="0"/>
			<psa10 value="0.00341763515155487" flag="0"/>
			<psa30 value="0.000842129172340746" flag="0"/>
		</comp>
		<comp name=".HNN" depth="0.0">
			<acc value="0.04822668272796" flag="0"/>
			<vel value="0.00499392791313" flag="0"/>
			<psa03 value="0.0200154626449329" flag="0"/>
			<psa10 value="0.00401488471640754" flag="0"/>
			<psa30 value="0.000929293331953692" flag="0"/>
		</comp>
		<comp name=".HNZ" depth="0.0">
			<acc value="0.068419320449532" flag="0"/>
			<vel value="0.00808087177074" flag="0"/>
			<psa03 value="0.0145208134951148" flag="0"/>
			<psa10 value="0.00408723404045663" flag="0"/>
			<psa30 value="0.000490056838861208" flag="0"/>
		</comp>
	</station>
	<station code="GMLD" name="GMLD" netid="KO" source="Bogazici University Kandilli Observatory And Earthquake Research Institute (KOERI)" insttype="" lat="38.0766" lon="26.9157">
		<comp name=".HNE" depth="0.0">
			<acc value="0.011337775348356" flag="0"/>
			<vel value="0.0051949929567" flag="0"/>
			<psa03 value="0.0169515187882577" flag="0"/>
			<psa10 value="0.00445647318823981" flag="0"/>
			<psa30 value="0.000380319413044461" flag="0"/>
		</comp>
		<comp name=".HNN" depth="0.0">
			<acc value="0.016001299171854" flag="0"/>
			<vel value="0.00458053281611" flag="0"/>
			<psa03 value="0.0192637683176204" flag="0"/>
			<psa10 value="0.0043686395571905" flag="0"/>
			<psa30 value="0.000445132769111573" flag="0"/>
		</comp>
		<comp name=".HNZ" depth="0.0">
			<acc value="0.0071123495086734" flag="0"/>
			<vel value="0.00217053811935" flag="0"/>
			<psa03 value="0.012606077278246" flag="0"/>
			<psa10 value="0.00349931087467106" flag="0"/>
			<psa30 value="0.000359908321326633" flag="0"/>
		</comp>
	</station>
	<station code="KRBN" name="KRBN" netid="KO" source="Bogazici University Kandilli Observatory And Earthquake Research Institute (KOERI)" insttype="" lat="38.5936" lon="26.5537">
		<comp name=".HNE" depth="0.0">
			<acc value="0.0073268747252694" flag="0"/>
			<vel value="0.00167895314618" flag="0"/>
			<psa03 value="0.00692423148281676" flag="0"/>
			<psa10 value="0.00240712860108057" flag="0"/>
			<psa30 value="0.000433143928034495" flag="0"/>
		</comp>
		<comp name=".HNN" depth="0.0">
			<acc value="0.0084585349138008" flag="0"/>
			<vel value="0.00180159527736" flag="0"/>
			<psa03 value="0.00759002689057666" flag="0"/>
			<psa10 value="0.00220146568004611" flag="0"/>
			<psa30 value="0.000450203417515868" flag="0"/>
		</comp>
		<comp name=".HNZ" depth="0.0">
			<acc value="0.0034327480664772" flag="0"/>
			<vel value="0.00141885305545" flag="0"/>
			<psa03 value="0.00404478943182505" flag="0"/>
			<psa10 value="0.00177711698309021" flag="0"/>
			<psa30 value="0.000373483882099072" flag="0"/>
		</comp>
	</station>
	<station code="KUSD" name="KUSD" netid="KO" source="Bogazici University Kandilli Observatory And Earthquake Research Institute (KOERI)" insttype="" lat="37.8606" lon="27.2868">
		<comp name=".HNE" depth="0.0">
			<acc value="0.031081408372962" flag="0"/>
			<vel value="0.00213739379275" flag="0"/>
			<psa03 value="0.00444290922978418" flag="0"/>
			<psa10 value="0.00135945579946434" flag="0"/>
			<psa30 value="0.000322098420772867" flag="0"/>
		</comp>
		<comp name=".HNN" depth="0.0">
			<acc value="0.071584500234252" flag="0"/>
			<vel value="0.00378177021518" flag="0"/>
			<psa03 value="0.00610404238368407" flag="0"/>
			<psa10 value="0.00171776250427412" flag="0"/>
			<psa30 value="0.000486374667850287" flag="0"/>
		</comp>
		<comp name=".HNZ" depth="0.0">
			<acc value="0.014310590658942" flag="0"/>
			<vel value="0.00113258074948" flag="0"/>
			<psa03 value="0.00313197277730668" flag="0"/>
			<psa10 value="0.000542512462226934" flag="0"/>
			<psa30 value="0.000353356689396665" flag="0"/>
		</comp>
	</station>
	<station code="YKAV" name="YKAV" netid="KO" source="Bogazici University Kandilli Observatory And Earthquake Research Institute (KOERI)" insttype="" lat="37.1246" lon="27.2801">
		<comp name=".HNE" depth="0.0">
			<acc value="0.007448825387811" flag="0"/>
			<vel value="0.00223588023258" flag="0"/>
			<psa03 value="0.00739290575933949" flag="0"/>
			<psa10 value="0.00297955761544266" flag="0"/>
			<psa30 value="0.000407219554422015" flag="0"/>
		</comp>
		<comp name=".HNN" depth="0.0">
			<acc value="0.0061790894815656" flag="0"/>
			<vel value="0.00172335096897" flag="0"/>
			<psa03 value="0.00727515512038675" flag="0"/>
			<psa10 value="0.00205454383782046" flag="0"/>
			<psa30 value="0.000435277194353034" flag="0"/>
		</comp>
		<comp name=".HNZ" depth="0.0">
			<acc value="0.0070262984011758" flag="0"/>
			<vel value="0.00144099887525" flag="0"/>
			<psa03 value="0.00469678119077508" flag="0"/>
			<psa10 value="0.00173121874724582" flag="0"/>
			<psa30 value="0.000347832443234127" flag="0"/>
		</comp>
	</station>
</stationlist>
