<?xml version="1.0" encoding="UTF-8" standalone="yes"?>
<!DOCTYPE earthquake SYSTEM "stationlist.dtd">
<stationlist created="" xmlns="ch.ethz.sed.shakemap.usgs.xml">
  <station code="APE" name="APE" netid="GE" insttype="STS-2/N" lat="37.0727" lon="25.523">
    <comp name="--.HHZ">
      <acc value="0.0567301500" flag="0"/>
      <vel value="0.0103490146" flag="0"/>
      <psa03 value="0.0453686137" flag="0"/>
      <psa10 value="0.0069982076" flag="0"/>
      <psa30 value="0.0005640956" flag="0"/>
    </comp>
    <comp name="--.HHN">
      <acc value="0.1129397016" flag="0"/>
      <vel value="0.0218814488" flag="0"/>
      <psa03 value="0.0887216960" flag="0"/>
      <psa10 value="0.0051373705" flag="0"/>
      <psa30 value="0.0007125914" flag="0"/>
    </comp>
    <comp name="--.HHE">
      <acc value="0.1253636620" flag="0"/>
      <vel value="0.0240099487" flag="0"/>
      <psa03 value="0.1119519238" flag="0"/>
      <psa10 value="0.0085276293" flag="0"/>
      <psa30 value="0.0006744219" flag="0"/>
    </comp>
  </station>
</stationlist>
