<?xml version="1.0" encoding="UTF-8" standalone="yes"?>
<!DOCTYPE earthquake SYSTEM "stationlist.dtd">
<stationlist created="" xmlns="ch.ethz.sed.shakemap.usgs.xml">
  <station code="KBN" name="KBN" netid="AC" insttype="" lat="40.6236" lon="20.7874">
    <comp name="--.HHE">
      <acc value="0.1050840562" flag="0"/>
      <vel value="0.0507406556" flag="0"/>
      <psa03 value="0.3089912130" flag="0"/>
      <psa10 value="0.0540623091" flag="0"/>
      <psa30 value="0.0027016684" flag="0"/>
    </comp>
    <comp name="--.HHN">
      <acc value="0.1270504642" flag="0"/>
      <vel value="0.0803793790" flag="0"/>
      <psa03 value="0.4570151761" flag="0"/>
      <psa10 value="0.0729207025" flag="0"/>
      <psa30 value="0.0041582977" flag="0"/>
    </comp>
    <comp name="--.HHZ">
      <acc value="0.0503410104" flag="0"/>
      <vel value="0.0310482173" flag="0"/>
      <psa03 value="0.1084139051" flag="0"/>
      <psa10 value="0.0312363823" flag="0"/>
      <psa30 value="0.0018877105" flag="0"/>
    </comp>
  </station>
  <station code="LSK" name="LSK" netid="AC" insttype="" lat="40.1499" lon="20.5987">
    <comp name="--.HHE">
      <acc value="1.3279237848" flag="0"/>
      <vel value="0.0596987223" flag="0"/>
      <psa03 value="0.1897602318" flag="0"/>
      <psa10 value="0.1058548123" flag="0"/>
      <psa30 value="0.0035921272" flag="0"/>
    </comp>
    <comp name="--.HHN">
      <acc value="0.0537270208" flag="0"/>
      <vel value="0.0288218211" flag="0"/>
      <psa03 value="0.1487616814" flag="0"/>
      <psa10 value="0.0410889879" flag="0"/>
      <psa30 value="0.0022910905" flag="0"/>
    </comp>
    <comp name="--.HHZ">
      <acc value="0.0307179825" flag="0"/>
      <vel value="0.0206853706" flag="0"/>
      <psa03 value="0.0864126963" flag="0"/>
      <psa10 value="0.0490387053" flag="0"/>
      <psa30 value="0.0016793641" flag="0"/>
    </comp>
  </station>
  <station code="PHP" name="PHP" netid="AC" insttype="" lat="41.6847" lon="20.4408">
    <comp name="--.HHE">
      <acc value="0.0124820422" flag="0"/>
      <vel value="0.0046221288" flag="0"/>
    </comp>
    <comp name="--.HHZ">
      <acc value="0.0092813987" flag="0"/>
      <vel value="0.0051657973" flag="0"/>
      <psa03 value="0.0258306924" flag="0"/>
      <psa10 value="0.0069746450" flag="0"/>
      <psa30 value="0.0005057933" flag="0"/>
    </comp>
    <comp name="--.HHN">
      <acc value="0.0123639769" flag="0"/>
      <vel value="0.0061718390" flag="0"/>
      <psa03 value="0.0234359605" flag="0"/>
      <psa10 value="0.0084587340" flag="0"/>
      <psa30 value="0.0008141646" flag="0"/>
    </comp>
  </station>
  <station code="VLO" name="VLO" netid="AC" insttype="" lat="40.4686" lon="19.4955">
    <comp name="--.HHE">
      <acc value="0.0232207971" flag="0"/>
      <vel value="0.0096177521" flag="0"/>
      <psa03 value="0.0565931125" flag="0"/>
      <psa10 value="0.0165089783" flag="0"/>
      <psa30 value="0.0011554313" flag="0"/>
    </comp>
    <comp name="--.HHZ">
      <acc value="0.0106828138" flag="0"/>
      <vel value="0.0064105908" flag="0"/>
      <psa03 value="0.0374607414" flag="0"/>
      <psa10 value="0.0070068173" flag="0"/>
      <psa30 value="0.0005399998" flag="0"/>
    </comp>
    <comp name="--.HHN">
      <acc value="0.0270447009" flag="0"/>
      <vel value="0.0137267351" flag="0"/>
      <psa03 value="0.0709867295" flag="0"/>
      <psa10 value="0.0175180577" flag="0"/>
      <psa30 value="0.0010937637" flag="0"/>
    </comp>
  </station>
  <station code="LMS2" name="LMS2" netid="HI" insttype="CMG-5TD,ACCELEROMETER,GURALP" lat="40.835" lon="21.1418">
    <comp name="--.HNN">
      <acc value="0.1181624328" flag="0"/>
      <vel value="0.0288100599" flag="0"/>
      <psa03 value="0.0900863470" flag="0"/>
      <psa10 value="0.0069713466" flag="0"/>
      <psa30 value="0.0004714037" flag="0"/>
    </comp>
    <comp name="--.HNE">
      <acc value="0.0848238966" flag="0"/>
      <vel value="0.0247795120" flag="0"/>
      <psa03 value="0.1108071036" flag="0"/>
      <psa10 value="0.0059912624" flag="0"/>
      <psa30 value="0.0005985860" flag="0"/>
    </comp>
    <comp name="--.HNZ">
      <acc value="0.0324334915" flag="0"/>
      <vel value="0.0068146659" flag="0"/>
      <psa03 value="0.0381736534" flag="0"/>
      <psa10 value="0.0043018629" flag="0"/>
      <psa30 value="0.0003751722" flag="0"/>
    </comp>
  </station>
  <station code="PENT" name="PENT" netid="HL" insttype="30" lat="40.1959" lon="21.1384">
    <comp name="--.HHN">
      <acc value="0.0006602556" flag="0"/>
      <vel value="0.0003926212" flag="0"/>
      <psa03 value="0.0018122068" flag="0"/>
      <psa10 value="0.0002208914" flag="0"/>
      <psa30 value="0.0001637968" flag="0"/>
    </comp>
    <comp name="--.HHZ">
      <acc value="0.0089870621" flag="0"/>
      <vel value="0.0066889871" flag="0"/>
      <psa03 value="0.0322089060" flag="0"/>
      <psa10 value="0.0065461917" flag="0"/>
      <psa30 value="0.0004206384" flag="0"/>
    </comp>
    <comp name="--.HHE">
      <acc value="0.0122378876" flag="0"/>
      <vel value="0.0075457617" flag="0"/>
      <psa03 value="0.0345655651" flag="0"/>
      <psa10 value="0.0068005415" flag="0"/>
      <psa30 value="0.0004393804" flag="0"/>
    </comp>
  </station>
  <station code="NEST" name="NEST" netid="HT" insttype="120P," lat="40.4147" lon="21.0489">
    <comp name="--.HHE">
      <acc value="0.0306011286" flag="0"/>
      <vel value="0.0148000658" flag="0"/>
      <psa03 value="0.0781547224" flag="0"/>
      <psa10 value="0.0103626192" flag="0"/>
      <psa30 value="0.0007337236" flag="0"/>
    </comp>
    <comp name="--.HHZ">
      <acc value="0.0352814593" flag="0"/>
      <vel value="0.0202401733" flag="0"/>
      <psa03 value="0.1084689758" flag="0"/>
      <psa10 value="0.0133390005" flag="0"/>
      <psa30 value="0.0010153701" flag="0"/>
    </comp>
    <comp name="--.HHN">
      <acc value="0.0245564744" flag="0"/>
      <vel value="0.0139711508" flag="0"/>
      <psa03 value="0.0545459034" flag="0"/>
      <psa10 value="0.0111267019" flag="0"/>
      <psa30 value="0.0006833740" flag="0"/>
    </comp>
  </station>
  <station code="TIR" name="TIR" netid="MN" insttype="" lat="41.3472" lon="19.8631">
    <comp name="--.HHE">
      <acc value="0.0238913009" flag="0"/>
      <vel value="0.0109676032" flag="0"/>
      <psa03 value="0.0657720819" flag="0"/>
      <psa10 value="0.0179257204" flag="0"/>
      <psa30 value="0.0007329328" flag="0"/>
    </comp>
    <comp name="--.HHN">
      <acc value="0.0265060798" flag="0"/>
      <vel value="0.0119850935" flag="0"/>
      <psa03 value="0.0473078732" flag="0"/>
      <psa10 value="0.0134803486" flag="0"/>
      <psa30 value="0.0008892851" flag="0"/>
    </comp>
    <comp name="--.HHZ">
      <acc value="0.0168221660" flag="0"/>
      <vel value="0.0130560433" flag="0"/>
      <psa03 value="0.0451928294" flag="0"/>
      <psa10 value="0.0097937369" flag="0"/>
      <psa30 value="0.0008623829" flag="0"/>
    </comp>
  </station>
</stationlist>
