<stationlist created="1778136070">
	<station code="MMAA" name="MMAA" netid="EG" source="EUROSEISTEST Strong Motion Network" insttype="" lat="40.630855" lon="22.943725">
		<comp name="--.EN1" depth="0.0">
			<acc value="0.00785142928768638" flag="0"/>
			<vel value="0.00273272274959346" flag="0"/>
			<psa03 value="0.0133742753030048" flag="0"/>
			<psa10 value="0.00367056807899631" flag="0"/>
			<psa30 value="0.00030509028885931" flag="0"/>
		</comp>
		<comp name="--.EN2" depth="0.0">
			<acc value="0.00611154300869915" flag="0"/>
			<vel value="0.00303547392278428" flag="0"/>
			<psa03 value="0.0182079783246095" flag="0"/>
			<psa10 value="0.00562493762449349" flag="0"/>
			<psa30 value="0.00032317013239339" flag="0"/>
		</comp>
		<comp name="--.EN3" depth="0.0">
			<acc value="0.0135909013067885" flag="0"/>
			<vel value="0.00217018601712215" flag="0"/>
			<psa03 value="0.00875734575616393" flag="0"/>
			<psa10 value="0.00116866624652965" flag="0"/>
			<psa30 value="0.000171489433249885" flag="0"/>
		</comp>
	</station>
	<station code="SHTA" name="SHTA" netid="EG" source="EUROSEISTEST Strong Motion Network" insttype="" lat="40.613764" lon="22.952972">
		<comp name="--.EN1" depth="0.0">
			<acc value="0.00196302301933587" flag="0"/>
			<vel value="0.00285260486428536" flag="0"/>
			<psa03 value="0.00907492408583142" flag="0"/>
			<psa10 value="0.00303921164535396" flag="0"/>
			<psa30 value="0.000403090426720683" flag="0"/>
		</comp>
		<comp name="--.EN2" depth="0.0">
			<acc value="0.0026101178658997" flag="0"/>
			<vel value="0.00195283940814059" flag="0"/>
			<psa03 value="0.0101632689698042" flag="0"/>
			<psa10 value="0.00330526762963261" flag="0"/>
			<psa30 value="0.000262017435494099" flag="0"/>
		</comp>
		<comp name="--.EN3" depth="0.0">
			<acc value="0.00179404470677837" flag="0"/>
			<vel value="0.00127564112876939" flag="0"/>
			<psa03 value="0.00604454169726281" flag="0"/>
			<psa10 value="0.00243389506172854" flag="0"/>
			<psa30 value="0.000364843153443291" flag="0"/>
		</comp>
	</station>
	<station code="LMS2" name="LMS2" netid="HI" source="ITSAK Strong Motion Network" insttype="" lat="40.834985" lon="21.141815">
		<comp name="--.HNE" depth="0.0">
			<acc value="0.084077531118881" flag="0"/>
			<vel value="0.0251119029873595" flag="0"/>
			<psa03 value="0.112974071711136" flag="0"/>
			<psa10 value="0.00600395670610589" flag="0"/>
			<psa30 value="0.000650104262163488" flag="0"/>
		</comp>
		<comp name="--.HNN" depth="0.0">
			<acc value="0.117487779969933" flag="0"/>
			<vel value="0.029250886017935" flag="0"/>
			<psa03 value="0.0917215235674571" flag="0"/>
			<psa10 value="0.00698649556344313" flag="0"/>
			<psa30 value="0.000482320987344969" flag="0"/>
		</comp>
		<comp name="--.HNZ" depth="0.0">
			<acc value="0.0330154520069311" flag="0"/>
			<vel value="0.00694021192221308" flag="0"/>
			<psa03 value="0.0390599463777512" flag="0"/>
			<psa10 value="0.00431270129593521" flag="0"/>
			<psa30 value="0.000372702581130204" flag="0"/>
		</comp>
	</station>
	<station code="JAN" name="JAN" netid="HL" source="National Observatory of Athens Seismic Network" insttype="" lat="39.65616" lon="20.84874">
		<comp name="00.HNE" depth="0.0">
			<acc value="0.00705026833749986" flag="0"/>
			<vel value="0.00579900993085065" flag="0"/>
			<psa03 value="0.0253324672141053" flag="0"/>
			<psa10 value="0.00748019302606908" flag="0"/>
			<psa30 value="0.000761965320214901" flag="0"/>
		</comp>
		<comp name="00.HNN" depth="0.0">
			<acc value="0.00649558005057812" flag="0"/>
			<vel value="0.00417930979143534" flag="0"/>
			<psa03 value="0.0268864738052753" flag="0"/>
			<psa10 value="0.00624983542716013" flag="0"/>
			<psa30 value="0.000368094723010766" flag="0"/>
		</comp>
		<comp name="00.HNZ" depth="0.0">
			<acc value="0.0057645214115282" flag="0"/>
			<vel value="0.00314640979276556" flag="0"/>
			<psa03 value="0.0165083019273113" flag="0"/>
			<psa10 value="0.00396100067810605" flag="0"/>
			<psa30 value="0.000549909397547655" flag="0"/>
		</comp>
	</station>
</stationlist>
