<?xml version="1.0" encoding="UTF-8" standalone="yes"?>
<!DOCTYPE earthquake SYSTEM "stationlist.dtd">
<stationlist created="" xmlns="ch.ethz.sed.shakemap.usgs.xml">
  <station code="KARS" name="KARS" netid="KO" insttype="120s," lat="40.6152" lon="43.0937">
    <comp name="--.HHE">
      <acc value="0.0074209513" flag="0"/>
      <vel value="0.0030461486" flag="0"/>
      <psa03 value="0.0081988041" flag="0"/>
      <psa10 value="0.0038416476" flag="0"/>
      <psa30 value="0.0007678702" flag="0"/>
    </comp>
    <comp name="--.HHZ">
      <acc value="0.0044069554" flag="0"/>
      <vel value="0.0023646569" flag="0"/>
      <psa03 value="0.0050407970" flag="0"/>
      <psa10 value="0.0039499092" flag="0"/>
      <psa30 value="0.0004607271" flag="0"/>
    </comp>
    <comp name="--.HHN">
      <acc value="0.0066488798" flag="0"/>
      <vel value="0.0023198687" flag="0"/>
      <psa03 value="0.0065797448" flag="0"/>
      <psa10 value="0.0041165000" flag="0"/>
      <psa30 value="0.0012238114" flag="0"/>
    </comp>
  </station>
</stationlist>
