<stationlist created="1778136854">
	<station code="MYT1" name="MYT1" netid="HI" source="ITSAK Strong Motion Network" insttype="" lat="39.085" lon="26.5694">
		<comp name="--.HNE" depth="0.0">
			<acc value="0.0399729087792451" flag="0"/>
			<vel value="0.0334122591812159" flag="0"/>
			<psa03 value="0.0947787265420306" flag="0"/>
			<psa10 value="0.0421459819645339" flag="0"/>
			<psa30 value="0.00715579736978358" flag="0"/>
		</comp>
		<comp name="--.HNN" depth="0.0">
			<acc value="0.0397647934382596" flag="0"/>
			<vel value="0.0313235081646338" flag="0"/>
			<psa03 value="0.0884360355367169" flag="0"/>
			<psa10 value="0.0685152838014578" flag="0"/>
			<psa30 value="0.00863535371646933" flag="0"/>
		</comp>
		<comp name="--.HNZ" depth="0.0">
			<acc value="0.0300159154309701" flag="0"/>
			<vel value="0.0211545659420421" flag="0"/>
			<psa03 value="0.0550254055798688" flag="0"/>
			<psa10 value="0.0243572597989103" flag="0"/>
			<psa30 value="0.00418678818750153" flag="0"/>
		</comp>
	</station>
	<station code="PRK" name="PRK" netid="HL" source="National Observatory of Athens Seismic Network" insttype="" lat="39.24565" lon="26.26499">
		<comp name="--.HNE" depth="0.0">
			<acc value="0.113578187552821" flag="0"/>
			<vel value="0.0603530742530938" flag="0"/>
			<psa03 value="0.358263858222174" flag="0"/>
			<psa10 value="0.111057839536755" flag="0"/>
			<psa30 value="0.0083672217873685" flag="0"/>
		</comp>
		<comp name="--.HNN" depth="0.0">
			<acc value="0.218847030580705" flag="0"/>
			<vel value="0.0980419175661233" flag="0"/>
			<psa03 value="0.70026280564116" flag="0"/>
			<psa10 value="0.103245659518198" flag="0"/>
			<psa30 value="0.00742994636416222" flag="0"/>
		</comp>
		<comp name="--.HNZ" depth="0.0">
			<acc value="0.128077332665942" flag="0"/>
			<vel value="0.0610766813184607" flag="0"/>
			<psa03 value="0.386859544213035" flag="0"/>
			<psa10 value="0.0329741043725963" flag="0"/>
			<psa30 value="0.00416970622257355" flag="0"/>
		</comp>
	</station>
	<station code="SMTH" name="SMTH" netid="HL" source="National Observatory of Athens Seismic Network" insttype="" lat="40.47094" lon="25.53045">
		<comp name="00.HNE" depth="0.0">
			<acc value="0.00445302196830666" flag="0"/>
			<vel value="0.00247007662184202" flag="0"/>
			<psa03 value="0.0113339161808938" flag="0"/>
			<psa10 value="0.00335453909675339" flag="0"/>
			<psa30 value="0.000239789947406995" flag="0"/>
		</comp>
		<comp name="00.HNN" depth="0.0">
			<acc value="0.00472618716705189" flag="0"/>
			<vel value="0.00215672698456327" flag="0"/>
			<psa03 value="0.011136231210248" flag="0"/>
			<psa10 value="0.00253194835415329" flag="0"/>
			<psa30 value="0.00023116250088106" flag="0"/>
		</comp>
		<comp name="00.HNZ" depth="0.0">
			<acc value="0.00304943142183326" flag="0"/>
			<vel value="0.00152390701358825" flag="0"/>
			<psa03 value="0.0120500547674241" flag="0"/>
			<psa10 value="0.00155016753474168" flag="0"/>
			<psa30 value="0.000303709989088076" flag="0"/>
		</comp>
	</station>
	<station code="EDC" name="EDC" netid="KO" source="Bogazici University Kandilli Observatory And Earthquake Research Institute (KOERI)" insttype="" lat="40.3465" lon="27.8618">
		<comp name="--.HNE" depth="0.0">
			<acc value="0.00536305737996358" flag="0"/>
			<vel value="0.0026449405485151" flag="0"/>
			<psa03 value="0.0198441179608471" flag="0"/>
			<psa10 value="0.0042394149029419" flag="0"/>
			<psa30 value="0.00058900198723981" flag="0"/>
		</comp>
		<comp name="--.HNN" depth="0.0">
			<acc value="0.00692454022286417" flag="0"/>
			<vel value="0.00424065847399101" flag="0"/>
			<psa03 value="0.0247901552469617" flag="0"/>
			<psa10 value="0.00565694833883264" flag="0"/>
			<psa30 value="0.000737575683685815" flag="0"/>
		</comp>
		<comp name="--.HNZ" depth="0.0">
			<acc value="0.0040227711636218" flag="0"/>
			<vel value="0.00148637589180864" flag="0"/>
			<psa03 value="0.00824410863173299" flag="0"/>
			<psa10 value="0.00221241570230677" flag="0"/>
			<psa30 value="0.000429374068924924" flag="0"/>
		</comp>
	</station>
	<station code="GONE" name="GONE" netid="KO" source="Bogazici University Kandilli Observatory And Earthquake Research Institute (KOERI)" insttype="" lat="40.0466" lon="27.686">
		<comp name="--.HNE" depth="0.0">
			<acc value="0.00713625901450878" flag="0"/>
			<vel value="0.0058063968060983" flag="0"/>
			<psa03 value="0.012975022291953" flag="0"/>
			<psa10 value="0.0119027906889763" flag="0"/>
			<psa30 value="0.000920871107359616" flag="0"/>
		</comp>
		<comp name="--.HNN" depth="0.0">
			<acc value="0.0138768826640011" flag="0"/>
			<vel value="0.0116627900709267" flag="0"/>
			<psa03 value="0.0194101712452513" flag="0"/>
			<psa10 value="0.0178724502121118" flag="0"/>
			<psa30 value="0.00120535974500198" flag="0"/>
		</comp>
		<comp name="--.HNZ" depth="0.0">
			<acc value="0.00362612234224068" flag="0"/>
			<vel value="0.00356912447557651" flag="0"/>
			<psa03 value="0.008182671619118" flag="0"/>
			<psa10 value="0.00324647100027141" flag="0"/>
			<psa30 value="0.000789611630810666" flag="0"/>
		</comp>
	</station>
	<station code="GORD" name="GORD" netid="KO" source="Bogazici University Kandilli Observatory And Earthquake Research Institute (KOERI)" insttype="" lat="38.9088" lon="28.1769">
		<comp name="--.HNE" depth="0.0">
			<acc value="0.00378811094700334" flag="0"/>
			<vel value="0.0064060325138784" flag="0"/>
			<psa03 value="0.0073948850571565" flag="0"/>
			<psa10 value="0.0133657907305216" flag="0"/>
			<psa30 value="0.00107705989160066" flag="0"/>
		</comp>
		<comp name="--.HNN" depth="0.0">
			<acc value="0.00353108437138126" flag="0"/>
			<vel value="0.00474177788443203" flag="0"/>
			<psa03 value="0.00832798853733299" flag="0"/>
			<psa10 value="0.00530367728007723" flag="0"/>
			<psa30 value="0.000977305575032877" flag="0"/>
		</comp>
		<comp name="--.HNZ" depth="0.0">
			<acc value="0.00204654760182992" flag="0"/>
			<vel value="0.00283225367007996" flag="0"/>
			<psa03 value="0.0054083843205804" flag="0"/>
			<psa10 value="0.00534310926724966" flag="0"/>
			<psa30 value="0.000814105545079051" flag="0"/>
		</comp>
	</station>
	<station code="KRBG" name="KRBG" netid="KO" source="Bogazici University Kandilli Observatory And Earthquake Research Institute (KOERI)" insttype="" lat="40.3932" lon="27.2977">
		<comp name="--.HNE" depth="0.0">
			<acc value="0.00865475262815042" flag="0"/>
			<vel value="0.00387874133236495" flag="0"/>
			<psa03 value="0.0185525089605776" flag="0"/>
			<psa10 value="0.00615268336633988" flag="0"/>
			<psa30 value="0.000712237182219206" flag="0"/>
		</comp>
		<comp name="--.HNN" depth="0.0">
			<acc value="0.00854129134153896" flag="0"/>
			<vel value="0.00387325991858575" flag="0"/>
			<psa03 value="0.0287782631895428" flag="0"/>
			<psa10 value="0.00312705019860482" flag="0"/>
			<psa30 value="0.000337894258836178" flag="0"/>
		</comp>
		<comp name="--.HNZ" depth="0.0">
			<acc value="0.00410124935789003" flag="0"/>
			<vel value="0.00264984042669964" flag="0"/>
			<psa03 value="0.0154480546078036" flag="0"/>
			<psa10 value="0.00274544530977623" flag="0"/>
			<psa30 value="0.000299339048493086" flag="0"/>
		</comp>
	</station>
	<station code="SOMA" name="SOMA" netid="KO" source="Bogazici University Kandilli Observatory And Earthquake Research Institute (KOERI)" insttype="" lat="39.1564" lon="27.5341">
		<comp name="--.HNE" depth="0.0">
			<acc value="0.00908003623640189" flag="0"/>
			<vel value="0.00717479418788623" flag="0"/>
			<psa03 value="0.0238930255040265" flag="0"/>
			<psa10 value="0.0177732148882461" flag="0"/>
			<psa30 value="0.00119419390115297" flag="0"/>
		</comp>
		<comp name="--.HNN" depth="0.0">
			<acc value="0.00837733672653161" flag="0"/>
			<vel value="0.00561798063045333" flag="0"/>
			<psa03 value="0.0252148370258707" flag="0"/>
			<psa10 value="0.0101756072090219" flag="0"/>
			<psa30 value="0.00146624963184239" flag="0"/>
		</comp>
		<comp name="--.HNZ" depth="0.0">
			<acc value="0.00546188187747627" flag="0"/>
			<vel value="0.00379479207494249" flag="0"/>
			<psa03 value="0.0148615196589827" flag="0"/>
			<psa10 value="0.00837165426852241" flag="0"/>
			<psa30 value="0.000710892353545" flag="0"/>
		</comp>
	</station>
</stationlist>
