<?xml version="1.0" encoding="UTF-8" standalone="yes"?>
<!DOCTYPE earthquake SYSTEM "stationlist.dtd">
<stationlist created="" xmlns="ch.ethz.sed.shakemap.usgs.xml">
  <station code="MYT1" name="MYT1" netid="HI" insttype="CMG-5TD,ACCELEROMETER,GURALP" lat="39.085" lon="26.5694">
    <comp name="--.HNN">
      <acc value="0.0404130056" flag="0"/>
      <vel value="0.0326761931" flag="0"/>
      <psa03 value="0.0884913213" flag="0"/>
      <psa10 value="0.0685470598" flag="0"/>
      <psa30 value="0.0072528848" flag="0"/>
    </comp>
    <comp name="--.HNZ">
      <acc value="0.0310795842" flag="0"/>
      <vel value="0.0206700185" flag="0"/>
      <psa03 value="0.0545477435" flag="0"/>
      <psa10 value="0.0244334029" flag="0"/>
      <psa30 value="0.0038159309" flag="0"/>
    </comp>
    <comp name="--.HNE">
      <acc value="0.0398222851" flag="0"/>
      <vel value="0.0312308269" flag="0"/>
      <psa03 value="0.0931789194" flag="0"/>
      <psa10 value="0.0421732923" flag="0"/>
      <psa30 value="0.0064316584" flag="0"/>
    </comp>
  </station>
  <station code="PRK" name="PRK" netid="HL" insttype="120" lat="39.2456" lon="26.265">
    <comp name="--.HHZ">
      <acc value="0.1288642166" flag="0"/>
      <vel value="0.0599272692" flag="0"/>
      <psa03 value="0.3808008790" flag="0"/>
      <psa10 value="0.0333810444" flag="0"/>
      <psa30 value="0.0034454413" flag="0"/>
    </comp>
    <comp name="--.HHN">
      <acc value="0.1809211793" flag="0"/>
      <vel value="0.0790316895" flag="0"/>
      <psa03 value="0.5508279067" flag="0"/>
      <psa10 value="0.0709127775" flag="0"/>
      <psa30 value="0.0055434579" flag="0"/>
    </comp>
    <comp name="--.HHE">
      <acc value="0.1362802342" flag="0"/>
      <vel value="0.0734569979" flag="0"/>
      <psa03 value="0.4579386689" flag="0"/>
      <psa10 value="0.1301842375" flag="0"/>
      <psa30 value="0.0091413900" flag="0"/>
    </comp>
  </station>
  <station code="CHOS" name="CHOS" netid="HT" insttype="100" lat="38.3869" lon="26.0506">
    <comp name="--.HHN">
      <acc value="0.0190767260" flag="0"/>
      <vel value="0.0085475238" flag="0"/>
      <psa03 value="0.0371869665" flag="0"/>
      <psa10 value="0.0114565462" flag="0"/>
      <psa30 value="0.0025180849" flag="0"/>
    </comp>
    <comp name="--.HHE">
      <acc value="0.0401190501" flag="0"/>
      <vel value="0.0143112089" flag="0"/>
      <psa03 value="0.0908487213" flag="0"/>
      <psa10 value="0.0143127596" flag="0"/>
      <psa30 value="0.0027209283" flag="0"/>
    </comp>
    <comp name="--.HHZ">
      <acc value="0.0187705943" flag="0"/>
      <vel value="0.0069482435" flag="0"/>
      <psa03 value="0.0353492704" flag="0"/>
      <psa10 value="0.0062275050" flag="0"/>
      <psa30 value="0.0010698869" flag="0"/>
    </comp>
  </station>
  <station code="SIGR" name="SIGR" netid="HT" insttype="100" lat="39.2114" lon="25.8553">
    <comp name="--.HHE">
      <acc value="0.1052266555" flag="0"/>
      <vel value="0.0361348963" flag="0"/>
      <psa03 value="0.1935154932" flag="0"/>
      <psa10 value="0.0235480724" flag="0"/>
      <psa30 value="0.0024329295" flag="0"/>
    </comp>
    <comp name="--.HHN">
      <acc value="0.1291108022" flag="0"/>
      <vel value="0.0459810786" flag="0"/>
      <psa03 value="0.1576103100" flag="0"/>
      <psa10 value="0.0261593955" flag="0"/>
      <psa30 value="0.0027125831" flag="0"/>
    </comp>
    <comp name="--.HHZ">
      <acc value="0.0766127475" flag="0"/>
      <vel value="0.0221695487" flag="0"/>
      <psa03 value="0.1124480418" flag="0"/>
      <psa10 value="0.0118058338" flag="0"/>
      <psa30 value="0.0015041966" flag="0"/>
    </comp>
  </station>
  <station code="EZN" name="EZN" netid="KO" insttype="120s," lat="39.8255" lon="26.3247">
    <comp name="--.HHN">
      <acc value="0.0356271913" flag="0"/>
      <vel value="0.0175016655" flag="0"/>
      <psa03 value="0.0987820516" flag="0"/>
      <psa10 value="0.0180452904" flag="0"/>
      <psa30 value="0.0018419319" flag="0"/>
    </comp>
  </station>
  <station code="YAYO" name="YAYO" netid="KO" insttype="30s," lat="39.6113" lon="27.0726">
    <comp name="--.HHN">
      <acc value="0.0332069262" flag="0"/>
      <vel value="0.0147279237" flag="0"/>
      <psa03 value="0.0925696356" flag="0"/>
      <psa10 value="0.0220065643" flag="0"/>
      <psa30 value="0.0017380324" flag="0"/>
    </comp>
    <comp name="--.HHE">
      <acc value="0.0280071049" flag="0"/>
      <vel value="0.0163220749" flag="0"/>
      <psa03 value="0.0660588809" flag="0"/>
      <psa10 value="0.0132285838" flag="0"/>
      <psa30 value="0.0018135844" flag="0"/>
    </comp>
    <comp name="--.HHZ">
      <acc value="0.0148758562" flag="0"/>
      <vel value="0.0065521930" flag="0"/>
      <psa03 value="0.0386545117" flag="0"/>
      <psa10 value="0.0052977281" flag="0"/>
      <psa30 value="0.0005470999" flag="0"/>
    </comp>
  </station>
</stationlist>
