<?xml version="1.0" encoding="UTF-8" standalone="yes"?>
<!DOCTYPE earthquake SYSTEM "stationlist.dtd">
<stationlist created="" xmlns="ch.ethz.sed.shakemap.usgs.xml">
  <station code="IMMV" name="IMMV" netid="GE" insttype="STS-2/N" commtype="DIG" lat="35.4606" lon="23.9811">
    <comp name="--.HHE">
      <acc value="0.0100585949" flag="0"/>
      <vel value="0.0072144524" flag="0"/>
      <psa03 value="0.0413877345" flag="0"/>
      <psa10 value="0.0114461882" flag="0"/>
      <psa30 value="0.0012180125" flag="0"/>
    </comp>
    <comp name="--.HHZ">
      <acc value="0.0094154153" flag="0"/>
      <vel value="0.0049307867" flag="0"/>
      <psa03 value="0.0256616669" flag="0"/>
      <psa10 value="0.0075862443" flag="0"/>
      <psa30 value="0.0005050534" flag="0"/>
    </comp>
    <comp name="--.HHN">
      <acc value="0.0113518799" flag="0"/>
      <vel value="0.0091966195" flag="0"/>
      <psa03 value="0.0364181500" flag="0"/>
      <psa10 value="0.0154600482" flag="0"/>
      <psa30 value="0.0013066694" flag="0"/>
    </comp>
  </station>
  <station code="KTHA" name="KTHA" netid="GE" insttype="STS-2/N" commtype="DIG" lat="36.2566" lon="23.0621">
    <comp name="--.HHE">
      <acc value="0.0405870758" flag="0"/>
      <vel value="0.0212428233" flag="0"/>
      <psa03 value="0.1004944710" flag="0"/>
      <psa10 value="0.0473090228" flag="0"/>
      <psa30 value="0.0019897147" flag="0"/>
    </comp>
    <comp name="--.HHN">
      <acc value="0.0383623788" flag="0"/>
      <vel value="0.0225801971" flag="0"/>
      <psa03 value="0.0830832125" flag="0"/>
      <psa10 value="0.0185963972" flag="0"/>
      <psa30 value="0.0013106677" flag="0"/>
    </comp>
    <comp name="--.HHZ">
      <acc value="0.0527082557" flag="0"/>
      <vel value="0.0290764392" flag="0"/>
      <psa03 value="0.1107849734" flag="0"/>
      <psa10 value="0.0154282153" flag="0"/>
      <psa30 value="0.0017708981" flag="0"/>
    </comp>
  </station>
  <station code="CHAN" name="CHAN" netid="HC" insttype="120" commtype="DIG" lat="35.5193" lon="24.0428">
    <comp name="--.HHN">
      <acc value="0.0000000000" flag="0"/>
      <vel value="-100.0000000000" flag="0"/>
      <psa03 value="0.0000000000" flag="0"/>
      <psa10 value="0.0000000000" flag="0"/>
      <psa30 value="0.0000000000" flag="0"/>
    </comp>
    <comp name="--.HHE">
      <acc value="0.0250747337" flag="0"/>
      <vel value="0.0206852801" flag="0"/>
      <psa03 value="0.1241103970" flag="0"/>
      <psa10 value="0.0285533810" flag="0"/>
      <psa30 value="0.0020150207" flag="0"/>
    </comp>
    <comp name="--.HHZ">
      <acc value="0.0212313844" flag="0"/>
      <vel value="0.0089328419" flag="0"/>
      <psa03 value="0.0590137128" flag="0"/>
      <psa10 value="0.0081540013" flag="0"/>
      <psa30 value="0.0015067007" flag="0"/>
    </comp>
  </station>
  <station code="KNDR" name="KNDR" netid="HC" insttype="120" commtype="DIG" lat="35.2348" lon="23.6248">
    <comp name="--.HHE">
      <acc value="0.0161982432" flag="0"/>
      <vel value="0.0141995013" flag="0"/>
      <psa03 value="0.0483856514" flag="0"/>
      <psa10 value="0.0202723934" flag="0"/>
      <psa30 value="0.0021515407" flag="0"/>
    </comp>
    <comp name="--.HHN">
      <acc value="0.0144793010" flag="0"/>
      <vel value="0.0132524463" flag="0"/>
      <psa03 value="0.0367438519" flag="0"/>
      <psa10 value="0.0220566725" flag="0"/>
      <psa30 value="0.0018811668" flag="0"/>
    </comp>
    <comp name="--.HHZ">
      <acc value="0.0043553571" flag="0"/>
      <vel value="0.0017230094" flag="0"/>
      <psa03 value="0.0080876127" flag="0"/>
      <psa10 value="0.0006520248" flag="0"/>
      <psa30 value="0.0001256069" flag="0"/>
    </comp>
  </station>
  <station code="RODP" name="RODP" netid="HC" insttype="120" commtype="DIG" lat="35.5604" lon="23.7577">
    <comp name="--.HHN">
      <acc value="0.0139913235" flag="0"/>
      <vel value="0.0074110711" flag="0"/>
      <psa03 value="0.0461632040" flag="0"/>
      <psa10 value="0.0113400281" flag="0"/>
      <psa30 value="0.0018514552" flag="0"/>
    </comp>
    <comp name="--.HHE">
      <acc value="0.0197684163" flag="0"/>
      <vel value="0.0111236808" flag="0"/>
      <psa03 value="0.0647430563" flag="0"/>
      <psa10 value="0.0158440922" flag="0"/>
      <psa30 value="0.0012160549" flag="0"/>
    </comp>
    <comp name="--.HHZ">
      <acc value="0.0113794587" flag="0"/>
      <vel value="0.0061502375" flag="0"/>
      <psa03 value="0.0381341846" flag="0"/>
      <psa10 value="0.0068753329" flag="0"/>
      <psa30 value="0.0007113571" flag="0"/>
    </comp>
  </station>
  <station code="IMMV" name="IMMV" netid="HL" insttype="120" commtype="DIG" lat="35.4606" lon="23.9811">
    <comp name="--.HHZ">
      <acc value="0.0091398143" flag="0"/>
      <vel value="0.0048588217" flag="0"/>
      <psa03 value="0.0249311587" flag="0"/>
      <psa10 value="0.0075355609" flag="0"/>
      <psa30 value="0.0005035305" flag="0"/>
    </comp>
    <comp name="--.HHE">
      <acc value="0.0098117545" flag="0"/>
      <vel value="0.0071170603" flag="0"/>
      <psa03 value="0.0403149906" flag="0"/>
      <psa10 value="0.0113653584" flag="0"/>
      <psa30 value="0.0012160303" flag="0"/>
    </comp>
    <comp name="--.HHN">
      <acc value="0.0110579183" flag="0"/>
      <vel value="0.0090312820" flag="0"/>
      <psa03 value="0.0353785512" flag="0"/>
      <psa10 value="0.0153488757" flag="0"/>
      <psa30 value="0.0013066687" flag="0"/>
    </comp>
  </station>
  <station code="VLI" name="VLI" netid="HL" insttype="60" commtype="DIG" lat="36.718" lon="22.9469">
    <comp name="--.HHE">
      <acc value="0.0126352007" flag="0"/>
      <vel value="0.0130635297" flag="0"/>
      <psa03 value="0.0523773516" flag="0"/>
      <psa10 value="0.0360503859" flag="0"/>
      <psa30 value="0.0016377339" flag="0"/>
    </comp>
    <comp name="--.HHN">
      <acc value="0.0126030253" flag="0"/>
      <vel value="0.0105401200" flag="0"/>
      <psa03 value="0.0440284077" flag="0"/>
      <psa10 value="0.0211326582" flag="0"/>
      <psa30 value="0.0013297136" flag="0"/>
    </comp>
    <comp name="--.HHZ">
      <acc value="0.0135053701" flag="0"/>
      <vel value="0.0073752254" flag="0"/>
      <psa03 value="0.0361430414" flag="0"/>
      <psa10 value="0.0082931118" flag="0"/>
      <psa30 value="0.0012677166" flag="0"/>
    </comp>
  </station>
</stationlist>
