<?xml version="1.0" encoding="UTF-8" standalone="yes"?>
<!DOCTYPE earthquake SYSTEM "stationlist.dtd">
<stationlist created="" xmlns="ch.ethz.sed.shakemap.usgs.xml">
  <station code="KTHA" name="KTHA" netid="GE" insttype="STS-2/N" commtype="DIG" lat="36.2566" lon="23.0621">
    <comp name="--.HHN">
      <acc value="0.0383623787" flag="0"/>
      <vel value="0.0225801976" flag="0"/>
      <psa03 value="0.0830832125" flag="0"/>
      <psa10 value="0.0185963973" flag="0"/>
      <psa30 value="0.0013106732" flag="0"/>
    </comp>
    <comp name="--.HHE">
      <acc value="0.0405870758" flag="0"/>
      <vel value="0.0212428237" flag="0"/>
      <psa03 value="0.1004944710" flag="0"/>
      <psa10 value="0.0473090228" flag="0"/>
      <psa30 value="0.0019896563" flag="0"/>
    </comp>
    <comp name="--.HHZ">
      <acc value="0.0527082557" flag="0"/>
      <vel value="0.0290764393" flag="0"/>
      <psa03 value="0.1107849734" flag="0"/>
      <psa10 value="0.0154282153" flag="0"/>
      <psa30 value="0.0017709003" flag="0"/>
    </comp>
  </station>
  <station code="KNDR" name="KNDR" netid="HC" insttype="120" commtype="DIG" lat="35.2348" lon="23.6248">
    <comp name="--.HHE">
      <acc value="0.0161982422" flag="0"/>
      <vel value="0.0141995055" flag="0"/>
      <psa03 value="0.0483856514" flag="0"/>
      <psa10 value="0.0202723934" flag="0"/>
      <psa30 value="0.0021515475" flag="0"/>
    </comp>
    <comp name="--.HHZ">
      <acc value="0.0037615803" flag="0"/>
      <vel value="0.0017230103" flag="0"/>
      <psa03 value="0.0080876127" flag="0"/>
      <psa10 value="0.0006520248" flag="0"/>
      <psa30 value="0.0001255381" flag="0"/>
    </comp>
    <comp name="--.HHN">
      <acc value="0.0144793005" flag="0"/>
      <vel value="0.0132524457" flag="0"/>
      <psa03 value="0.0367438519" flag="0"/>
      <psa10 value="0.0220566725" flag="0"/>
      <psa30 value="0.0018811646" flag="0"/>
    </comp>
  </station>
  <station code="RODP" name="RODP" netid="HC" insttype="120" commtype="DIG" lat="35.5604" lon="23.7577">
    <comp name="--.HHZ">
      <acc value="0.0113794590" flag="0"/>
      <vel value="0.0061502364" flag="0"/>
      <psa03 value="0.0381341846" flag="0"/>
      <psa10 value="0.0068753329" flag="0"/>
      <psa30 value="0.0007113579" flag="0"/>
    </comp>
    <comp name="--.HHN">
      <acc value="0.0139913243" flag="0"/>
      <vel value="0.0074110711" flag="0"/>
      <psa03 value="0.0461632040" flag="0"/>
      <psa10 value="0.0113400281" flag="0"/>
      <psa30 value="0.0018514477" flag="0"/>
    </comp>
    <comp name="--.HHE">
      <acc value="0.0197684163" flag="0"/>
      <vel value="0.0111236811" flag="0"/>
      <psa03 value="0.0647430563" flag="0"/>
      <psa10 value="0.0158440922" flag="0"/>
      <psa30 value="0.0012160706" flag="0"/>
    </comp>
  </station>
  <station code="VLI" name="VLI" netid="HL" insttype="60" commtype="DIG" lat="36.718" lon="22.9469">
    <comp name="--.HHE">
      <acc value="0.0126351999" flag="0"/>
      <vel value="0.0130635300" flag="0"/>
      <psa03 value="0.0523773516" flag="0"/>
      <psa10 value="0.0360503859" flag="0"/>
      <psa30 value="0.0014228996" flag="0"/>
    </comp>
    <comp name="--.HHN">
      <acc value="0.0126030235" flag="0"/>
      <vel value="0.0105401199" flag="0"/>
      <psa03 value="0.0440284077" flag="0"/>
      <psa10 value="0.0211326582" flag="0"/>
      <psa30 value="0.0013297245" flag="0"/>
    </comp>
    <comp name="--.HHZ">
      <acc value="0.0135053708" flag="0"/>
      <vel value="0.0073752255" flag="0"/>
      <psa03 value="0.0361430414" flag="0"/>
      <psa10 value="0.0082931118" flag="0"/>
      <psa30 value="0.0012677205" flag="0"/>
    </comp>
  </station>
</stationlist>
