<stationlist xmlns:esm="https://esm-db.eu/esmws/shakemap/1/" created="1782910424">
	<station code="IMMV" name="IMMV" netid="HL" source="National Observatory of Athens Seismic Network" insttype="" lat="35.4606" lon="23.9811" esm:processing="automatic (Paolucci et al 2011)" esm:quality="best">
		<comp name="--.HNE" depth="0.0">
			<acc value="0.00949729261672727" flag="0"/>
			<vel value="0.00714530222411512" flag="0"/>
			<psa03 value="0.0387798840811652" flag="0"/>
			<psa10 value="0.0110676516151023" flag="0"/>
			<psa30 value="0.00130542397793185" flag="0"/>
		</comp>
		<comp name="--.HNN" depth="0.0">
			<acc value="0.0105276439924403" flag="0"/>
			<vel value="0.00814409377476581" flag="0"/>
			<psa03 value="0.0341048973029015" flag="0"/>
			<psa10 value="0.0147474310074276" flag="0"/>
			<psa30 value="0.00142775301913047" flag="0"/>
		</comp>
		<comp name="--.HNZ" depth="0.0">
			<acc value="0.00913305787323233" flag="0"/>
			<vel value="0.00509573108193636" flag="0"/>
			<psa03 value="0.0245518295632144" flag="0"/>
			<psa10 value="0.00749128626094946" flag="0"/>
			<psa30 value="0.000554981556471074" flag="0"/>
		</comp>
	</station>
	<station code="PYL" name="PYL" netid="HP" source="University of Patras, Seismological Laboratory (PSLNET)" insttype="" lat="36.8955" lon="21.742" esm:processing="automatic (Paolucci et al 2011)" esm:quality="best">
		<comp name="--.HNE" depth="0.0">
			<acc value="0.00735085294040956" flag="0"/>
			<vel value="0.00482874388404635" flag="0"/>
			<psa03 value="0.0197464213847563" flag="0"/>
			<psa10 value="0.004256692766255" flag="0"/>
			<psa30 value="0.00107770701780082" flag="0"/>
		</comp>
		<comp name="--.HNN" depth="0.0">
			<acc value="0.0047471447572274" flag="0"/>
			<vel value="0.00508808805423417" flag="0"/>
			<psa03 value="0.0121049099637939" flag="0"/>
			<psa10 value="0.00655742705361012" flag="0"/>
			<psa30 value="0.000936226707924637" flag="0"/>
		</comp>
		<comp name="--.HNZ" depth="0.0">
			<acc value="0.00425675030035744" flag="0"/>
			<vel value="0.00302609671519031" flag="0"/>
			<psa03 value="0.0111596937020222" flag="0"/>
			<psa10 value="0.00476072193696391" flag="0"/>
			<psa30 value="0.000811228427402012" flag="0"/>
		</comp>
	</station>
</stationlist>
