<?xml version="1.0" encoding="UTF-8" standalone="yes"?>
<!DOCTYPE earthquake SYSTEM "stationlist.dtd">
<stationlist created="" xmlns="ch.ethz.sed.shakemap.usgs.xml">
  <station code="RODP" name="RODP" netid="HC" insttype="120" commtype="DIG" lat="35.5604" lon="23.7577">
    <comp name="--.HHN">
      <acc value="0.0139913242" flag="0"/>
      <vel value="0.0074110702" flag="0"/>
      <psa03 value="0.0461632040" flag="0"/>
      <psa10 value="0.0113400281" flag="0"/>
      <psa30 value="0.0018514159" flag="0"/>
    </comp>
    <comp name="--.HHZ">
      <acc value="0.0113794590" flag="0"/>
      <vel value="0.0061502375" flag="0"/>
      <psa03 value="0.0381341846" flag="0"/>
      <psa10 value="0.0068753329" flag="0"/>
      <psa30 value="0.0007113568" flag="0"/>
    </comp>
    <comp name="--.HHE">
      <acc value="0.0197684161" flag="0"/>
      <vel value="0.0111236824" flag="0"/>
      <psa03 value="0.0647430563" flag="0"/>
      <psa10 value="0.0158440922" flag="0"/>
      <psa30 value="0.0012161471" flag="0"/>
    </comp>
  </station>
  <station code="VLI" name="VLI" netid="HL" insttype="60" commtype="DIG" lat="36.718" lon="22.9469">
    <comp name="--.HHE">
      <acc value="0.0126351998" flag="0"/>
      <vel value="0.0130635295" flag="0"/>
      <psa03 value="0.0523773516" flag="0"/>
      <psa10 value="0.0360503859" flag="0"/>
      <psa30 value="0.0014229203" flag="0"/>
    </comp>
    <comp name="--.HHZ">
      <acc value="0.0135053706" flag="0"/>
      <vel value="0.0073752254" flag="0"/>
      <psa03 value="0.0361430414" flag="0"/>
      <psa10 value="0.0082931118" flag="0"/>
      <psa30 value="0.0012677243" flag="0"/>
    </comp>
    <comp name="--.HHN">
      <acc value="0.0126030232" flag="0"/>
      <vel value="0.0105401190" flag="0"/>
      <psa03 value="0.0440284077" flag="0"/>
      <psa10 value="0.0211326582" flag="0"/>
      <psa30 value="0.0013297220" flag="0"/>
    </comp>
  </station>
</stationlist>
