<?xml version="1.0" encoding="UTF-8" standalone="yes"?>
<!DOCTYPE earthquake SYSTEM "stationlist.dtd">
<stationlist created="" xmlns="ch.ethz.sed.shakemap.usgs.xml">
  <station code="IMMV" name="IMMV" netid="GE" insttype="STS-2/N" commtype="DIG" lat="35.4606" lon="23.9811">
    <comp name="--.HHE">
      <acc value="0.0100585945" flag="0"/>
      <vel value="0.0072144533" flag="0"/>
      <psa03 value="0.0413877345" flag="0"/>
      <psa10 value="0.0114461882" flag="0"/>
      <psa30 value="0.0012180110" flag="0"/>
    </comp>
    <comp name="--.HHZ">
      <acc value="0.0094154146" flag="0"/>
      <vel value="0.0049307868" flag="0"/>
      <psa03 value="0.0256616669" flag="0"/>
      <psa10 value="0.0075862443" flag="0"/>
      <psa30 value="0.0005050543" flag="0"/>
    </comp>
    <comp name="--.HHN">
      <acc value="0.0113518803" flag="0"/>
      <vel value="0.0091966194" flag="0"/>
      <psa03 value="0.0364181500" flag="0"/>
      <psa10 value="0.0154600482" flag="0"/>
      <psa30 value="0.0013066593" flag="0"/>
    </comp>
  </station>
  <station code="KTHA" name="KTHA" netid="GE" insttype="STS-2/N" commtype="DIG" lat="36.2566" lon="23.0621">
    <comp name="--.HHN">
      <acc value="0.0383623789" flag="0"/>
      <vel value="0.0225801972" flag="0"/>
      <psa03 value="0.0830832125" flag="0"/>
      <psa10 value="0.0185963972" flag="0"/>
      <psa30 value="0.0013106665" flag="0"/>
    </comp>
    <comp name="--.HHZ">
      <acc value="0.0527082557" flag="0"/>
      <vel value="0.0290764392" flag="0"/>
      <psa03 value="0.1107849734" flag="0"/>
      <psa10 value="0.0154282153" flag="0"/>
      <psa30 value="0.0017708989" flag="0"/>
    </comp>
    <comp name="--.HHE">
      <acc value="0.0405870758" flag="0"/>
      <vel value="0.0212428231" flag="0"/>
      <psa03 value="0.1004944710" flag="0"/>
      <psa10 value="0.0473090228" flag="0"/>
      <psa30 value="0.0019897269" flag="0"/>
    </comp>
  </station>
  <station code="CHAN" name="CHAN" netid="HC" insttype="120" commtype="DIG" lat="35.5193" lon="24.0428">
    <comp name="--.HHE">
      <acc value="0.0250747333" flag="0"/>
      <vel value="0.0206852792" flag="0"/>
      <psa03 value="0.1241103970" flag="0"/>
      <psa10 value="0.0285533810" flag="0"/>
      <psa30 value="0.0020150243" flag="0"/>
    </comp>
    <comp name="--.HHN">
      <acc value="0.0000000000" flag="0"/>
      <vel value="-100.0000000000" flag="0"/>
      <psa03 value="0.0000000000" flag="0"/>
      <psa10 value="0.0000000000" flag="0"/>
      <psa30 value="0.0000000000" flag="0"/>
    </comp>
    <comp name="--.HHZ">
      <acc value="0.0212313845" flag="0"/>
      <vel value="0.0089328405" flag="0"/>
      <psa03 value="0.0590137128" flag="0"/>
      <psa10 value="0.0081540012" flag="0"/>
      <psa30 value="0.0015066839" flag="0"/>
    </comp>
  </station>
  <station code="RODP" name="RODP" netid="HC" insttype="120" commtype="DIG" lat="35.5604" lon="23.7577">
    <comp name="--.HHE">
      <acc value="0.0197684161" flag="0"/>
      <vel value="0.0111236838" flag="0"/>
      <psa03 value="0.0647430563" flag="0"/>
      <psa10 value="0.0158440921" flag="0"/>
      <psa30 value="0.0012161584" flag="0"/>
    </comp>
    <comp name="--.HHZ">
      <acc value="0.0113794586" flag="0"/>
      <vel value="0.0061502372" flag="0"/>
      <psa03 value="0.0381341846" flag="0"/>
      <psa10 value="0.0068753329" flag="0"/>
      <psa30 value="0.0007113541" flag="0"/>
    </comp>
    <comp name="--.HHN">
      <acc value="0.0139913233" flag="0"/>
      <vel value="0.0074110707" flag="0"/>
      <psa03 value="0.0461632040" flag="0"/>
      <psa10 value="0.0113400281" flag="0"/>
      <psa30 value="0.0018514537" flag="0"/>
    </comp>
  </station>
  <station code="IMMV" name="IMMV" netid="HL" insttype="120" commtype="DIG" lat="35.4606" lon="23.9811">
    <comp name="--.HHN">
      <acc value="0.0110579189" flag="0"/>
      <vel value="0.0090312819" flag="0"/>
      <psa03 value="0.0353785512" flag="0"/>
      <psa10 value="0.0153488757" flag="0"/>
      <psa30 value="0.0013066585" flag="0"/>
    </comp>
    <comp name="--.HHE">
      <acc value="0.0098117540" flag="0"/>
      <vel value="0.0071170612" flag="0"/>
      <psa03 value="0.0403149906" flag="0"/>
      <psa10 value="0.0113653584" flag="0"/>
      <psa30 value="0.0012160288" flag="0"/>
    </comp>
    <comp name="--.HHZ">
      <acc value="0.0091398151" flag="0"/>
      <vel value="0.0048588218" flag="0"/>
      <psa03 value="0.0249311587" flag="0"/>
      <psa10 value="0.0075355609" flag="0"/>
      <psa30 value="0.0005035313" flag="0"/>
    </comp>
  </station>
  <station code="VLI" name="VLI" netid="HL" insttype="60" commtype="DIG" lat="36.718" lon="22.9469">
    <comp name="--.HHE">
      <acc value="0.0126352003" flag="0"/>
      <vel value="0.0130635297" flag="0"/>
      <psa03 value="0.0523773516" flag="0"/>
      <psa10 value="0.0360503859" flag="0"/>
      <psa30 value="0.0016339258" flag="0"/>
    </comp>
    <comp name="--.HHN">
      <acc value="0.0126030248" flag="0"/>
      <vel value="0.0105401193" flag="0"/>
      <psa03 value="0.0440284077" flag="0"/>
      <psa10 value="0.0211326582" flag="0"/>
      <psa30 value="0.0013297287" flag="0"/>
    </comp>
    <comp name="--.HHZ">
      <acc value="0.0135053701" flag="0"/>
      <vel value="0.0073752255" flag="0"/>
      <psa03 value="0.0361430414" flag="0"/>
      <psa10 value="0.0082931118" flag="0"/>
      <psa30 value="0.0012677162" flag="0"/>
    </comp>
  </station>
</stationlist>
