<?xml version="1.0" encoding="UTF-8" standalone="yes"?>
<!DOCTYPE earthquake SYSTEM "stationlist.dtd">
<stationlist created="" xmlns="ch.ethz.sed.shakemap.usgs.xml">
  <station code="BIR" name="BIR" netid="RO" insttype="MBB2/Quanterra" lat="46.2334" lon="27.6436">
    <comp name="--.HHE">
      <acc value="0.0943371422" flag="0"/>
      <vel value="0.0195391058" flag="0"/>
      <psa03 value="0.0755609758" flag="0"/>
      <psa10 value="0.0051736695" flag="0"/>
      <psa30 value="0.0005621594" flag="0"/>
    </comp>
    <comp name="--.HHN">
      <acc value="0.0655160107" flag="0"/>
      <vel value="0.0205547556" flag="0"/>
      <psa03 value="0.0526932324" flag="0"/>
      <psa10 value="0.0052920070" flag="0"/>
      <psa30 value="0.0003928017" flag="0"/>
    </comp>
    <comp name="--.HHZ">
      <acc value="0.0501276104" flag="0"/>
      <vel value="0.0130922119" flag="0"/>
      <psa03 value="0.0395850506" flag="0"/>
      <psa10 value="0.0020384180" flag="0"/>
      <psa30 value="0.0001780213" flag="0"/>
    </comp>
  </station>
  <station code="BISRR" name="BISRR" netid="RO" insttype="CMG40T.1to100/Basalt" lat="45.5481" lon="26.7099">
    <comp name="--.HHZ">
      <acc value="0.0376225894" flag="0"/>
      <vel value="0.0065367690" flag="0"/>
      <psa03 value="0.0529176443" flag="0"/>
      <psa10 value="0.0069042063" flag="0"/>
      <psa30 value="0.0003295767" flag="0"/>
    </comp>
    <comp name="--.HHN">
      <acc value="0.0269010086" flag="0"/>
      <vel value="0.0115355001" flag="0"/>
      <psa03 value="0.0544439949" flag="0"/>
      <psa10 value="0.0119530284" flag="0"/>
      <psa30 value="0.0004666541" flag="0"/>
    </comp>
    <comp name="--.HHE">
      <acc value="0.0399304684" flag="0"/>
      <vel value="0.0143874019" flag="0"/>
      <psa03 value="0.0855291168" flag="0"/>
      <psa10 value="0.0123541053" flag="0"/>
      <psa30 value="0.0005108400" flag="0"/>
    </comp>
  </station>
  <station code="BOSR" name="BOSR" netid="RO" insttype="Seismometer/Basalt" lat="46.0749" lon="25.6611">
    <comp name="--.HHE">
      <acc value="0.0089778438" flag="0"/>
      <vel value="0.0021595158" flag="0"/>
      <psa03 value="0.0153084461" flag="0"/>
      <psa10 value="0.0010386124" flag="0"/>
      <psa30 value="0.0000546994" flag="0"/>
    </comp>
    <comp name="--.HHN">
      <acc value="0.0105423672" flag="0"/>
      <vel value="0.0023006943" flag="0"/>
      <psa03 value="0.0113845737" flag="0"/>
      <psa10 value="0.0012101770" flag="0"/>
      <psa30 value="0.0000968692" flag="0"/>
    </comp>
    <comp name="--.HHZ">
      <acc value="0.0210812566" flag="0"/>
      <vel value="0.0042716445" flag="0"/>
      <psa03 value="0.0108260917" flag="0"/>
      <psa10 value="0.0008088351" flag="0"/>
      <psa30 value="0.0000960241" flag="0"/>
    </comp>
  </station>
  <station code="DOPR" name="DOPR" netid="RO" insttype="330" lat="45.9675" lon="25.3886">
    <comp name="--.HHE">
      <acc value="0.0312227578" flag="0"/>
      <vel value="0.0050935781" flag="0"/>
      <psa03 value="0.0102184921" flag="0"/>
      <psa10 value="0.0013986072" flag="0"/>
      <psa30 value="0.0001023840" flag="0"/>
    </comp>
    <comp name="--.HHZ">
      <acc value="0.0121713457" flag="0"/>
      <vel value="0.0028513195" flag="0"/>
      <psa03 value="0.0079128851" flag="0"/>
      <psa10 value="0.0006395224" flag="0"/>
      <psa30 value="0.0000526635" flag="0"/>
    </comp>
    <comp name="--.HHN">
      <acc value="0.0152611064" flag="0"/>
      <vel value="0.0027219421" flag="0"/>
      <psa03 value="0.0106358848" flag="0"/>
      <psa10 value="0.0006931653" flag="0"/>
      <psa30 value="0.0000426983" flag="0"/>
    </comp>
  </station>
  <station code="ISR" name="ISR" netid="RO" insttype="CMG3ESP/Quanterra" lat="45.1187" lon="26.5432">
    <comp name="--.HHE">
      <acc value="0.0265539070" flag="0"/>
      <vel value="0.0048002650" flag="0"/>
      <psa03 value="0.0286521432" flag="0"/>
      <psa10 value="0.0028524227" flag="0"/>
      <psa30 value="0.0001604096" flag="0"/>
    </comp>
    <comp name="--.HHN">
      <acc value="0.0212256752" flag="0"/>
      <vel value="0.0059929812" flag="0"/>
      <psa03 value="0.0296289577" flag="0"/>
      <psa10 value="0.0038158705" flag="0"/>
      <psa30 value="0.0002799789" flag="0"/>
    </comp>
    <comp name="--.HHZ">
      <acc value="0.0120366040" flag="0"/>
      <vel value="0.0028986205" flag="0"/>
      <psa03 value="0.0183293824" flag="0"/>
      <psa10 value="0.0020978141" flag="0"/>
      <psa30 value="0.0000948207" flag="0"/>
    </comp>
  </station>
  <station code="IZVR" name="IZVR" netid="RO" insttype="CMG40T.1to100/Quanterra" lat="45.5442" lon="27.7655">
    <comp name="--.HHN">
      <acc value="0.0356571624" flag="0"/>
      <vel value="0.0097592696" flag="0"/>
      <psa03 value="0.0526232359" flag="0"/>
      <psa10 value="0.0034061399" flag="0"/>
      <psa30 value="0.0002838012" flag="0"/>
    </comp>
    <comp name="--.HHZ">
      <acc value="0.0155590959" flag="0"/>
      <vel value="0.0024738412" flag="0"/>
      <psa03 value="0.0081673864" flag="0"/>
      <psa10 value="0.0005294922" flag="0"/>
      <psa30 value="0.0000558202" flag="0"/>
    </comp>
    <comp name="--.HHE">
      <acc value="0.0360630884" flag="0"/>
      <vel value="0.0081278974" flag="0"/>
      <psa03 value="0.0353515082" flag="0"/>
      <psa10 value="0.0023045534" flag="0"/>
      <psa30 value="0.0002098571" flag="0"/>
    </comp>
  </station>
  <station code="MLR" name="MLR" netid="RO" insttype="330HR" lat="45.4909" lon="25.945">
    <comp name="--.HHE">
      <acc value="0.0085077964" flag="0"/>
      <vel value="0.0038443319" flag="0"/>
      <psa03 value="0.0338711925" flag="0"/>
      <psa10 value="0.0025876873" flag="0"/>
      <psa30 value="0.0001492985" flag="0"/>
    </comp>
    <comp name="--.HHN">
      <acc value="0.0065420756" flag="0"/>
      <vel value="0.0021952256" flag="0"/>
      <psa03 value="0.0166664843" flag="0"/>
      <psa10 value="0.0013496325" flag="0"/>
      <psa30 value="0.0001635155" flag="0"/>
    </comp>
    <comp name="--.HHZ">
      <acc value="0.0058700391" flag="0"/>
      <vel value="0.0029954570" flag="0"/>
      <psa03 value="0.0155420391" flag="0"/>
      <psa10 value="0.0011886359" flag="0"/>
      <psa30 value="0.0000903391" flag="0"/>
    </comp>
  </station>
  <station code="NARR" name="NARR" netid="RO" insttype="OBS-SIO/Centaur" lat="45.8165" lon="26.7368">
    <comp name="--.HHZ">
      <acc value="0.0000679266" flag="0"/>
      <vel value="-100.0000000000" flag="0"/>
      <psa03 value="0.0004008888" flag="0"/>
      <psa10 value="0.0000226112" flag="0"/>
      <psa30 value="0.0000062267" flag="0"/>
    </comp>
    <comp name="--.HHN">
      <acc value="0.0587734694" flag="0"/>
      <vel value="0.0246269383" flag="0"/>
      <psa03 value="0.1064389842" flag="0"/>
      <psa10 value="0.0072326505" flag="0"/>
      <psa30 value="0.0005383580" flag="0"/>
    </comp>
    <comp name="--.HHE">
      <acc value="0.0644375105" flag="0"/>
      <vel value="0.0170635193" flag="0"/>
      <psa03 value="0.0857258389" flag="0"/>
      <psa10 value="0.0053539574" flag="0"/>
      <psa30 value="0.0004565058" flag="0"/>
    </comp>
  </station>
  <station code="NEGRR" name="NEGRR" netid="RO" insttype="CMG40T.1to100/Quanterra" lat="45.5373" lon="27.8771">
    <comp name="--.HHE">
      <acc value="0.0549544593" flag="0"/>
      <vel value="0.0107579013" flag="0"/>
      <psa03 value="0.0382695545" flag="0"/>
      <psa10 value="0.0045925001" flag="0"/>
      <psa30 value="0.0002781527" flag="0"/>
    </comp>
    <comp name="--.HHN">
      <acc value="0.0690184686" flag="0"/>
      <vel value="0.0136004223" flag="0"/>
      <psa03 value="0.0316310075" flag="0"/>
      <psa10 value="0.0043613526" flag="0"/>
      <psa30 value="0.0002687346" flag="0"/>
    </comp>
    <comp name="--.HHZ">
      <acc value="0.0231169503" flag="0"/>
      <vel value="0.0050603173" flag="0"/>
      <psa03 value="0.0308166412" flag="0"/>
      <psa10 value="0.0015768030" flag="0"/>
      <psa30 value="0.0000901373" flag="0"/>
    </comp>
  </station>
  <station code="ODBI" name="ODBI" netid="RO" insttype="200" lat="45.7633" lon="27.0558">
    <comp name="--.HNE">
      <acc value="0.0568844759" flag="0"/>
      <vel value="0.0087022192" flag="0"/>
      <psa03 value="0.0300860797" flag="0"/>
      <psa10 value="0.0034925794" flag="0"/>
      <psa30 value="0.0002609827" flag="0"/>
    </comp>
    <comp name="--.HNN">
      <acc value="0.0515135763" flag="0"/>
      <vel value="0.0132954439" flag="0"/>
      <psa03 value="0.0670930420" flag="0"/>
      <psa10 value="0.0053311918" flag="0"/>
      <psa30 value="0.0005671823" flag="0"/>
    </comp>
    <comp name="--.HNZ">
      <acc value="0.0853534053" flag="0"/>
      <vel value="0.0184747034" flag="0"/>
      <psa03 value="0.0511753880" flag="0"/>
      <psa10 value="0.0022297783" flag="0"/>
      <psa30 value="0.0002619835" flag="0"/>
    </comp>
  </station>
  <station code="ONER" name="ONER" netid="RO" insttype="CMG40T.1to100/obsidian" lat="46.3349" lon="26.394">
    <comp name="--.HHE">
      <acc value="0.0018794088" flag="0"/>
      <vel value="0.0004276372" flag="0"/>
      <psa03 value="0.0014631097" flag="0"/>
      <psa10 value="0.0002368337" flag="0"/>
      <psa30 value="0.0000117405" flag="0"/>
    </comp>
    <comp name="--.HHN">
      <acc value="0.0024618499" flag="0"/>
      <vel value="0.0003537621" flag="0"/>
      <psa03 value="0.0019715848" flag="0"/>
      <psa10 value="0.0002399135" flag="0"/>
      <psa30 value="0.0000113117" flag="0"/>
    </comp>
    <comp name="--.HHZ">
      <acc value="0.0037933683" flag="0"/>
      <vel value="0.0010151726" flag="0"/>
      <psa03 value="0.0039301307" flag="0"/>
      <psa10 value="0.0004167192" flag="0"/>
      <psa30 value="0.0000364827" flag="0"/>
    </comp>
  </station>
  <station code="PANC" name="PANC" netid="RO" insttype="Seismometer/Basalt" lat="45.8723" lon="27.1477">
    <comp name="--.HHN">
      <acc value="0.0447925410" flag="0"/>
      <vel value="0.0089981599" flag="0"/>
      <psa03 value="0.0315288590" flag="0"/>
      <psa10 value="0.0030250545" flag="0"/>
      <psa30 value="0.0002299633" flag="0"/>
    </comp>
    <comp name="--.HHZ">
      <acc value="0.0434472626" flag="0"/>
      <vel value="0.0060959191" flag="0"/>
      <psa03 value="0.0178658417" flag="0"/>
      <psa10 value="0.0008172780" flag="0"/>
      <psa30 value="0.0000727302" flag="0"/>
    </comp>
    <comp name="--.HHE">
      <acc value="0.0429805160" flag="0"/>
      <vel value="0.0098857103" flag="0"/>
      <psa03 value="0.0477184457" flag="0"/>
      <psa10 value="0.0034659869" flag="0"/>
      <psa30 value="0.0002997493" flag="0"/>
    </comp>
  </station>
  <station code="PGOR" name="PGOR" netid="RO" insttype="CMG40T.1to100/Quanterra" lat="44.9199" lon="26.9768">
    <comp name="--.HHN">
      <acc value="0.0557472054" flag="0"/>
      <vel value="0.0127884836" flag="0"/>
      <psa03 value="0.0295766497" flag="0"/>
      <psa10 value="0.0027538776" flag="0"/>
      <psa30 value="0.0002926039" flag="0"/>
    </comp>
    <comp name="--.HHZ">
      <acc value="0.0443069877" flag="0"/>
      <vel value="0.0054188586" flag="0"/>
      <psa03 value="0.0133972793" flag="0"/>
      <psa10 value="0.0008668401" flag="0"/>
      <psa30 value="0.0000667407" flag="0"/>
    </comp>
    <comp name="--.HHE">
      <acc value="0.0371709570" flag="0"/>
      <vel value="0.0126014125" flag="0"/>
      <psa03 value="0.0302469404" flag="0"/>
      <psa10 value="0.0033401060" flag="0"/>
      <psa30 value="0.0003889491" flag="0"/>
    </comp>
  </station>
  <station code="PLOR" name="PLOR" netid="RO" insttype="MBB2/Quanterra" lat="45.8512" lon="26.6498">
    <comp name="--.HHE">
      <acc value="0.0193487278" flag="0"/>
      <vel value="0.0066979655" flag="0"/>
      <psa03 value="0.0348127319" flag="0"/>
      <psa10 value="0.0033700818" flag="0"/>
      <psa30 value="0.0002451450" flag="0"/>
    </comp>
    <comp name="--.HHN">
      <acc value="0.0226238851" flag="0"/>
      <vel value="0.0117439379" flag="0"/>
      <psa03 value="0.0589123221" flag="0"/>
      <psa10 value="0.0043316869" flag="0"/>
      <psa30 value="0.0003374265" flag="0"/>
    </comp>
    <comp name="--.HHZ">
      <acc value="0.0116209035" flag="0"/>
      <vel value="0.0039794334" flag="0"/>
      <psa03 value="0.0200384228" flag="0"/>
      <psa10 value="0.0011048336" flag="0"/>
      <psa30 value="0.0001039422" flag="0"/>
    </comp>
  </station>
  <station code="PLOR4" name="PLOR4" netid="RO" insttype="MBB2/Quanterra" lat="45.8512" lon="26.6498">
    <comp name="--.HHE">
      <acc value="0.0193487278" flag="0"/>
      <vel value="0.0066979655" flag="0"/>
      <psa03 value="0.0348127319" flag="0"/>
      <psa10 value="0.0033700818" flag="0"/>
      <psa30 value="0.0002451450" flag="0"/>
    </comp>
    <comp name="--.HHN">
      <acc value="0.0226238851" flag="0"/>
      <vel value="0.0117439379" flag="0"/>
      <psa03 value="0.0589123221" flag="0"/>
      <psa10 value="0.0043316869" flag="0"/>
      <psa30 value="0.0003374265" flag="0"/>
    </comp>
    <comp name="--.HHZ">
      <acc value="0.0116209035" flag="0"/>
      <vel value="0.0039794334" flag="0"/>
      <psa03 value="0.0200384228" flag="0"/>
      <psa10 value="0.0011048336" flag="0"/>
      <psa30 value="0.0001039422" flag="0"/>
    </comp>
  </station>
  <station code="SCHLR" name="SCHLR" netid="RO" insttype="CMG40T.1to100/Quanterra" lat="45.4702" lon="27.8314">
    <comp name="--.HHE">
      <acc value="0.0320399374" flag="0"/>
      <vel value="0.0059780408" flag="0"/>
      <psa03 value="0.0151233571" flag="0"/>
      <psa10 value="0.0023219796" flag="0"/>
      <psa30 value="0.0001832064" flag="0"/>
    </comp>
    <comp name="--.HHZ">
      <acc value="0.0240071544" flag="0"/>
      <vel value="0.0031130462" flag="0"/>
      <psa03 value="0.0068444011" flag="0"/>
      <psa10 value="0.0007088326" flag="0"/>
      <psa30 value="0.0000663884" flag="0"/>
    </comp>
    <comp name="--.HHN">
      <acc value="0.0310800347" flag="0"/>
      <vel value="0.0071206329" flag="0"/>
      <psa03 value="0.0356298990" flag="0"/>
      <psa10 value="0.0039073639" flag="0"/>
      <psa30 value="0.0002419534" flag="0"/>
    </comp>
  </station>
  <station code="SCTR" name="SCTR" netid="RO" insttype="MBB2/Basalt" lat="45.6741" lon="27.9949">
    <comp name="--.HHE">
      <acc value="0.0326308403" flag="0"/>
      <vel value="0.0087158624" flag="0"/>
      <psa03 value="0.0597360728" flag="0"/>
      <psa10 value="0.0035064291" flag="0"/>
      <psa30 value="0.0002843661" flag="0"/>
    </comp>
    <comp name="--.HHN">
      <acc value="0.0526547978" flag="0"/>
      <vel value="0.0132281887" flag="0"/>
      <psa03 value="0.1106908467" flag="0"/>
      <psa10 value="0.0042276686" flag="0"/>
      <psa30 value="0.0003007218" flag="0"/>
    </comp>
    <comp name="--.HHZ">
      <acc value="0.0250221223" flag="0"/>
      <vel value="0.0049374440" flag="0"/>
      <psa03 value="0.0293856677" flag="0"/>
      <psa10 value="0.0018042056" flag="0"/>
      <psa30 value="0.0001425117" flag="0"/>
    </comp>
  </station>
  <station code="SULR" name="SULR" netid="RO" insttype="330" lat="44.6777" lon="26.2526">
    <comp name="--.HHZ">
      <acc value="0.0303887241" flag="0"/>
      <vel value="0.0079225536" flag="0"/>
      <psa03 value="0.0220763075" flag="0"/>
      <psa10 value="0.0011666529" flag="0"/>
      <psa30 value="0.0001502093" flag="0"/>
    </comp>
    <comp name="--.HHE">
      <acc value="0.0266247920" flag="0"/>
      <vel value="0.0104318551" flag="0"/>
      <psa03 value="0.0541526981" flag="0"/>
      <psa10 value="0.0035307953" flag="0"/>
      <psa30 value="0.0003722796" flag="0"/>
    </comp>
    <comp name="--.HHN">
      <acc value="0.0286093163" flag="0"/>
      <vel value="0.0130295732" flag="0"/>
      <psa03 value="0.0733422668" flag="0"/>
      <psa10 value="0.0059748782" flag="0"/>
      <psa30 value="0.0004015688" flag="0"/>
    </comp>
  </station>
  <station code="TESR" name="TESR" netid="RO" insttype="330" lat="46.5118" lon="26.6489">
    <comp name="--.HHE">
      <acc value="0.0028663310" flag="0"/>
      <vel value="0.0007419650" flag="0"/>
      <psa03 value="0.0047678231" flag="0"/>
      <psa10 value="0.0003186186" flag="0"/>
      <psa30 value="0.0000318353" flag="0"/>
    </comp>
    <comp name="--.HHN">
      <acc value="0.0040752363" flag="0"/>
      <vel value="0.0011936597" flag="0"/>
      <psa03 value="0.0056781758" flag="0"/>
      <psa10 value="0.0004083174" flag="0"/>
      <psa30 value="0.0000351072" flag="0"/>
    </comp>
    <comp name="--.HHZ">
      <acc value="0.0066104438" flag="0"/>
      <vel value="0.0016638736" flag="0"/>
      <psa03 value="0.0047034044" flag="0"/>
      <psa10 value="0.0003819954" flag="0"/>
      <psa30 value="0.0000245133" flag="0"/>
    </comp>
  </station>
  <station code="TUDR" name="TUDR" netid="RO" insttype="CMG40T.1to100/Quanterra" lat="45.5939" lon="27.6687">
    <comp name="--.HHE">
      <acc value="0.0699054804" flag="0"/>
      <vel value="0.0158210829" flag="0"/>
      <psa03 value="0.0494801826" flag="0"/>
      <psa10 value="0.0049491927" flag="0"/>
      <psa30 value="0.0003988585" flag="0"/>
    </comp>
    <comp name="--.HHN">
      <acc value="0.0606752771" flag="0"/>
      <vel value="0.0133999189" flag="0"/>
      <psa03 value="0.0560772356" flag="0"/>
      <psa10 value="0.0037303078" flag="0"/>
      <psa30 value="0.0005576607" flag="0"/>
    </comp>
    <comp name="--.HHZ">
      <acc value="0.0675375517" flag="0"/>
      <vel value="0.0094911409" flag="0"/>
      <psa03 value="0.0155922895" flag="0"/>
      <psa10 value="0.0010438673" flag="0"/>
      <psa30 value="0.0001055487" flag="0"/>
    </comp>
  </station>
  <station code="VLDR" name="VLDR" netid="RO" insttype="MBB2/Basalt" lat="45.8443" lon="28.0808">
    <comp name="--.HHE">
      <acc value="0.1805237300" flag="0"/>
      <vel value="0.0343000330" flag="0"/>
      <psa03 value="0.1120105525" flag="0"/>
      <psa10 value="0.0076192912" flag="0"/>
      <psa30 value="0.0006078408" flag="0"/>
    </comp>
    <comp name="--.HHN">
      <acc value="0.2212092477" flag="0"/>
      <vel value="0.0502292881" flag="0"/>
      <psa03 value="0.3030563336" flag="0"/>
      <psa10 value="0.0088372699" flag="0"/>
      <psa30 value="0.0007474766" flag="0"/>
    </comp>
    <comp name="--.HHZ">
      <acc value="0.0968645819" flag="0"/>
      <vel value="0.0168449735" flag="0"/>
      <psa03 value="0.1381630692" flag="0"/>
      <psa10 value="0.0038441844" flag="0"/>
      <psa30 value="0.0003197651" flag="0"/>
    </comp>
  </station>
  <station code="VRI" name="VRI" netid="RO" insttype="Linear" lat="45.8657" lon="26.7277">
    <comp name="--.HHZ">
      <acc value="0.0201134336" flag="0"/>
      <vel value="0.0042013213" flag="0"/>
      <psa03 value="0.0312627003" flag="0"/>
      <psa10 value="0.0022002410" flag="0"/>
      <psa30 value="0.0001114006" flag="0"/>
    </comp>
    <comp name="--.HHE">
      <acc value="0.0549549533" flag="0"/>
      <vel value="0.0167924851" flag="0"/>
      <psa03 value="0.1614318682" flag="0"/>
      <psa10 value="0.0048465404" flag="0"/>
      <psa30 value="0.0004593151" flag="0"/>
    </comp>
    <comp name="--.HHN">
      <acc value="0.0178773033" flag="0"/>
      <vel value="0.0095951978" flag="0"/>
      <psa03 value="0.0657851808" flag="0"/>
      <psa10 value="0.0041495453" flag="0"/>
      <psa30 value="0.0003676874" flag="0"/>
    </comp>
  </station>
</stationlist>
