<?xml version="1.0" encoding="UTF-8" standalone="yes"?>
<!DOCTYPE earthquake SYSTEM "stationlist.dtd">
<stationlist created="" xmlns="ch.ethz.sed.shakemap.usgs.xml">
  <station code="BIR" name="BIR" netid="RO" insttype="MBB2/Quanterra" lat="46.2334" lon="27.6436">
    <comp name="--.HHE">
      <acc value="0.0943371422" flag="0"/>
      <vel value="0.0195391058" flag="0"/>
      <psa03 value="0.0755609758" flag="0"/>
      <psa10 value="0.0051736695" flag="0"/>
      <psa30 value="0.0005621160" flag="0"/>
    </comp>
    <comp name="--.HHN">
      <acc value="0.0655160107" flag="0"/>
      <vel value="0.0205547567" flag="0"/>
      <psa03 value="0.0526932324" flag="0"/>
      <psa10 value="0.0052920072" flag="0"/>
      <psa30 value="0.0003927224" flag="0"/>
    </comp>
    <comp name="--.HHZ">
      <acc value="0.0501276104" flag="0"/>
      <vel value="0.0130922110" flag="0"/>
      <psa03 value="0.0395850506" flag="0"/>
      <psa10 value="0.0020384180" flag="0"/>
      <psa30 value="0.0001779860" flag="0"/>
    </comp>
  </station>
  <station code="BISRR" name="BISRR" netid="RO" insttype="CMG40T.1to100/Basalt" lat="45.5481" lon="26.7099">
    <comp name="--.HHE">
      <acc value="0.0399304680" flag="0"/>
      <vel value="0.0143874143" flag="0"/>
      <psa03 value="0.0855291168" flag="0"/>
      <psa10 value="0.0123541054" flag="0"/>
      <psa30 value="0.0005130208" flag="0"/>
    </comp>
    <comp name="--.HHN">
      <acc value="0.0269010087" flag="0"/>
      <vel value="0.0115353698" flag="0"/>
      <psa03 value="0.0544439947" flag="0"/>
      <psa10 value="0.0119530282" flag="0"/>
      <psa30 value="0.0004661905" flag="0"/>
    </comp>
    <comp name="--.HHZ">
      <acc value="0.0376225899" flag="0"/>
      <vel value="0.0065367637" flag="0"/>
      <psa03 value="0.0529176443" flag="0"/>
      <psa10 value="0.0069042063" flag="0"/>
      <psa30 value="0.0003298179" flag="0"/>
    </comp>
  </station>
  <station code="BOSR" name="BOSR" netid="RO" insttype="Seismometer/Basalt" lat="46.0749" lon="25.6611">
    <comp name="--.HHE">
      <acc value="0.0089778436" flag="0"/>
      <vel value="0.0021595157" flag="0"/>
      <psa03 value="0.0153084461" flag="0"/>
      <psa10 value="0.0010386124" flag="0"/>
      <psa30 value="0.0000547064" flag="0"/>
    </comp>
    <comp name="--.HHN">
      <acc value="0.0105423670" flag="0"/>
      <vel value="0.0023006942" flag="0"/>
      <psa03 value="0.0113845737" flag="0"/>
      <psa10 value="0.0012101770" flag="0"/>
      <psa30 value="0.0000968823" flag="0"/>
    </comp>
    <comp name="--.HHZ">
      <acc value="0.0210812564" flag="0"/>
      <vel value="0.0042716449" flag="0"/>
      <psa03 value="0.0108260917" flag="0"/>
      <psa10 value="0.0008088398" flag="0"/>
      <psa30 value="0.0000961045" flag="0"/>
    </comp>
  </station>
  <station code="DOPR" name="DOPR" netid="RO" insttype="330" lat="45.9675" lon="25.3886">
    <comp name="--.HHE">
      <acc value="0.0312227578" flag="0"/>
      <vel value="0.0050935777" flag="0"/>
      <psa03 value="0.0102184921" flag="0"/>
      <psa10 value="0.0013986072" flag="0"/>
      <psa30 value="0.0001023720" flag="0"/>
    </comp>
    <comp name="--.HHN">
      <acc value="0.0152611064" flag="0"/>
      <vel value="0.0027219419" flag="0"/>
      <psa03 value="0.0106358848" flag="0"/>
      <psa10 value="0.0006931653" flag="0"/>
      <psa30 value="0.0000426971" flag="0"/>
    </comp>
    <comp name="--.HHZ">
      <acc value="0.0121713461" flag="0"/>
      <vel value="0.0028513193" flag="0"/>
      <psa03 value="0.0079128851" flag="0"/>
      <psa10 value="0.0006395242" flag="0"/>
      <psa30 value="0.0000526239" flag="0"/>
    </comp>
  </station>
  <station code="ISR" name="ISR" netid="RO" insttype="CMG3ESP/Quanterra" lat="45.1187" lon="26.5432">
    <comp name="--.HHE">
      <acc value="0.0265539071" flag="0"/>
      <vel value="0.0048002658" flag="0"/>
      <psa03 value="0.0286521432" flag="0"/>
      <psa10 value="0.0028524226" flag="0"/>
      <psa30 value="0.0001604696" flag="0"/>
    </comp>
    <comp name="--.HHN">
      <acc value="0.0212256750" flag="0"/>
      <vel value="0.0059929818" flag="0"/>
      <psa03 value="0.0296289577" flag="0"/>
      <psa10 value="0.0038158704" flag="0"/>
      <psa30 value="0.0002800104" flag="0"/>
    </comp>
    <comp name="--.HHZ">
      <acc value="0.0120366036" flag="0"/>
      <vel value="0.0028986208" flag="0"/>
      <psa03 value="0.0183293824" flag="0"/>
      <psa10 value="0.0020978141" flag="0"/>
      <psa30 value="0.0000948583" flag="0"/>
    </comp>
  </station>
  <station code="IZVR" name="IZVR" netid="RO" insttype="CMG40T.1to100/Quanterra" lat="45.5442" lon="27.7655">
    <comp name="--.HHE">
      <acc value="0.0360630882" flag="0"/>
      <vel value="0.0081278956" flag="0"/>
      <psa03 value="0.0353515082" flag="0"/>
      <psa10 value="0.0023045534" flag="0"/>
      <psa30 value="0.0002099217" flag="0"/>
    </comp>
    <comp name="--.HHN">
      <acc value="0.0356571624" flag="0"/>
      <vel value="0.0097592701" flag="0"/>
      <psa03 value="0.0526232359" flag="0"/>
      <psa10 value="0.0034061398" flag="0"/>
      <psa30 value="0.0002837692" flag="0"/>
    </comp>
    <comp name="--.HHZ">
      <acc value="0.0155590962" flag="0"/>
      <vel value="0.0024738416" flag="0"/>
      <psa03 value="0.0081673864" flag="0"/>
      <psa10 value="0.0005294921" flag="0"/>
      <psa30 value="0.0000557989" flag="0"/>
    </comp>
  </station>
  <station code="MLR" name="MLR" netid="RO" insttype="330HR" lat="45.4909" lon="25.945">
    <comp name="--.HHZ">
      <acc value="0.0058700391" flag="0"/>
      <vel value="0.0029954572" flag="0"/>
      <psa03 value="0.0155420391" flag="0"/>
      <psa10 value="0.0011886359" flag="0"/>
      <psa30 value="0.0000903228" flag="0"/>
    </comp>
    <comp name="--.HHE">
      <acc value="0.0085077968" flag="0"/>
      <vel value="0.0038443322" flag="0"/>
      <psa03 value="0.0338711925" flag="0"/>
      <psa10 value="0.0025876873" flag="0"/>
      <psa30 value="0.0001492947" flag="0"/>
    </comp>
    <comp name="--.HHN">
      <acc value="0.0065420757" flag="0"/>
      <vel value="0.0021952259" flag="0"/>
      <psa03 value="0.0166664843" flag="0"/>
      <psa10 value="0.0013496325" flag="0"/>
      <psa30 value="0.0001634990" flag="0"/>
    </comp>
  </station>
  <station code="NARR" name="NARR" netid="RO" insttype="OBS-SIO/Centaur" lat="45.8165" lon="26.7368">
    <comp name="--.HHE">
      <acc value="0.0644375102" flag="0"/>
      <vel value="0.0170635239" flag="0"/>
      <psa03 value="0.0857258389" flag="0"/>
      <psa10 value="0.0053539572" flag="0"/>
      <psa30 value="0.0004565246" flag="0"/>
    </comp>
    <comp name="--.HHN">
      <acc value="0.0587734690" flag="0"/>
      <vel value="0.0246269383" flag="0"/>
      <psa03 value="0.1064389842" flag="0"/>
      <psa10 value="0.0072326505" flag="0"/>
      <psa30 value="0.0005383238" flag="0"/>
    </comp>
    <comp name="--.HHZ">
      <acc value="0.0005133325" flag="0"/>
      <vel value="0.0000505055" flag="0"/>
      <psa03 value="0.0003694103" flag="0"/>
      <psa10 value="0.0000215477" flag="0"/>
      <psa30 value="0.0000061876" flag="0"/>
    </comp>
  </station>
  <station code="NEGRR" name="NEGRR" netid="RO" insttype="CMG40T.1to100/Quanterra" lat="45.5373" lon="27.8771">
    <comp name="--.HHE">
      <acc value="0.0549544589" flag="0"/>
      <vel value="0.0107579015" flag="0"/>
      <psa03 value="0.0382695545" flag="0"/>
      <psa10 value="0.0045925002" flag="0"/>
      <psa30 value="0.0002781446" flag="0"/>
    </comp>
    <comp name="--.HHN">
      <acc value="0.0690184686" flag="0"/>
      <vel value="0.0136004221" flag="0"/>
      <psa03 value="0.0316310075" flag="0"/>
      <psa10 value="0.0043613525" flag="0"/>
      <psa30 value="0.0002687302" flag="0"/>
    </comp>
    <comp name="--.HHZ">
      <acc value="0.0231169505" flag="0"/>
      <vel value="0.0050603172" flag="0"/>
      <psa03 value="0.0308166412" flag="0"/>
      <psa10 value="0.0015768030" flag="0"/>
      <psa30 value="0.0000901310" flag="0"/>
    </comp>
  </station>
  <station code="ODBI" name="ODBI" netid="RO" insttype="200" lat="45.7633" lon="27.0558">
    <comp name="--.HNE">
      <acc value="0.0568844760" flag="0"/>
      <vel value="0.0087022186" flag="0"/>
      <psa03 value="0.0300860797" flag="0"/>
      <psa10 value="0.0034925794" flag="0"/>
      <psa30 value="0.0002607442" flag="0"/>
    </comp>
    <comp name="--.HNN">
      <acc value="0.0515135776" flag="0"/>
      <vel value="0.0132954379" flag="0"/>
      <psa03 value="0.0670930420" flag="0"/>
      <psa10 value="0.0053311921" flag="0"/>
      <psa30 value="0.0005673192" flag="0"/>
    </comp>
    <comp name="--.HNZ">
      <acc value="0.0853534041" flag="0"/>
      <vel value="0.0184747061" flag="0"/>
      <psa03 value="0.0511753880" flag="0"/>
      <psa10 value="0.0022298076" flag="0"/>
      <psa30 value="0.0002605923" flag="0"/>
    </comp>
  </station>
  <station code="ONER" name="ONER" netid="RO" insttype="CMG40T.1to100/obsidian" lat="46.3349" lon="26.394">
    <comp name="--.HHE">
      <acc value="0.0018794088" flag="0"/>
      <vel value="0.0004276366" flag="0"/>
      <psa03 value="0.0014631097" flag="0"/>
      <psa10 value="0.0002368336" flag="0"/>
      <psa30 value="0.0000117268" flag="0"/>
    </comp>
    <comp name="--.HHN">
      <acc value="0.0024618498" flag="0"/>
      <vel value="0.0003537628" flag="0"/>
      <psa03 value="0.0019715848" flag="0"/>
      <psa10 value="0.0002399135" flag="0"/>
      <psa30 value="0.0000113072" flag="0"/>
    </comp>
    <comp name="--.HHZ">
      <acc value="0.0037933688" flag="0"/>
      <vel value="0.0010151727" flag="0"/>
      <psa03 value="0.0039301307" flag="0"/>
      <psa10 value="0.0004167173" flag="0"/>
      <psa30 value="0.0000364593" flag="0"/>
    </comp>
  </station>
  <station code="PANC" name="PANC" netid="RO" insttype="Seismometer/Basalt" lat="45.8723" lon="27.1477">
    <comp name="--.HHE">
      <acc value="0.0429805158" flag="0"/>
      <vel value="0.0098857071" flag="0"/>
      <psa03 value="0.0477184457" flag="0"/>
      <psa10 value="0.0034659871" flag="0"/>
      <psa30 value="0.0002995656" flag="0"/>
    </comp>
    <comp name="--.HHN">
      <acc value="0.0447925409" flag="0"/>
      <vel value="0.0089981625" flag="0"/>
      <psa03 value="0.0315288590" flag="0"/>
      <psa10 value="0.0030250544" flag="0"/>
      <psa30 value="0.0002298203" flag="0"/>
    </comp>
    <comp name="--.HHZ">
      <acc value="0.0434472624" flag="0"/>
      <vel value="0.0060959184" flag="0"/>
      <psa03 value="0.0178658417" flag="0"/>
      <psa10 value="0.0008172780" flag="0"/>
      <psa30 value="0.0000727512" flag="0"/>
    </comp>
  </station>
  <station code="PGOR" name="PGOR" netid="RO" insttype="CMG40T.1to100/Quanterra" lat="44.9199" lon="26.9768">
    <comp name="--.HHN">
      <acc value="0.0557472056" flag="0"/>
      <vel value="0.0127884863" flag="0"/>
      <psa03 value="0.0295766497" flag="0"/>
      <psa10 value="0.0027538775" flag="0"/>
      <psa30 value="0.0002926732" flag="0"/>
    </comp>
    <comp name="--.HHE">
      <acc value="0.0371709573" flag="0"/>
      <vel value="0.0126014591" flag="0"/>
      <psa03 value="0.0302469404" flag="0"/>
      <psa10 value="0.0033401059" flag="0"/>
      <psa30 value="0.0003897413" flag="0"/>
    </comp>
    <comp name="--.HHZ">
      <acc value="0.0443069877" flag="0"/>
      <vel value="0.0054188695" flag="0"/>
      <psa03 value="0.0133972793" flag="0"/>
      <psa10 value="0.0008668404" flag="0"/>
      <psa30 value="0.0000666790" flag="0"/>
    </comp>
  </station>
  <station code="PLOR" name="PLOR" netid="RO" insttype="MBB2/Quanterra" lat="45.8512" lon="26.6498">
    <comp name="--.HHZ">
      <acc value="0.0116209034" flag="0"/>
      <vel value="0.0039794334" flag="0"/>
      <psa03 value="0.0200384228" flag="0"/>
      <psa10 value="0.0011048336" flag="0"/>
      <psa30 value="0.0001039514" flag="0"/>
    </comp>
    <comp name="--.HHN">
      <acc value="0.0226238850" flag="0"/>
      <vel value="0.0117439380" flag="0"/>
      <psa03 value="0.0589123221" flag="0"/>
      <psa10 value="0.0043316869" flag="0"/>
      <psa30 value="0.0003374282" flag="0"/>
    </comp>
    <comp name="--.HHE">
      <acc value="0.0193487280" flag="0"/>
      <vel value="0.0066979653" flag="0"/>
      <psa03 value="0.0348127319" flag="0"/>
      <psa10 value="0.0033700818" flag="0"/>
      <psa30 value="0.0002451437" flag="0"/>
    </comp>
  </station>
  <station code="PLOR4" name="PLOR4" netid="RO" insttype="MBB2/Quanterra" lat="45.8512" lon="26.6498">
    <comp name="--.HHN">
      <acc value="0.0226238850" flag="0"/>
      <vel value="0.0117439380" flag="0"/>
      <psa03 value="0.0589123221" flag="0"/>
      <psa10 value="0.0043316869" flag="0"/>
      <psa30 value="0.0003374282" flag="0"/>
    </comp>
    <comp name="--.HHE">
      <acc value="0.0193487280" flag="0"/>
      <vel value="0.0066979653" flag="0"/>
      <psa03 value="0.0348127319" flag="0"/>
      <psa10 value="0.0033700818" flag="0"/>
      <psa30 value="0.0002451437" flag="0"/>
    </comp>
    <comp name="--.HHZ">
      <acc value="0.0116209034" flag="0"/>
      <vel value="0.0039794334" flag="0"/>
      <psa03 value="0.0200384228" flag="0"/>
      <psa10 value="0.0011048336" flag="0"/>
      <psa30 value="0.0001039514" flag="0"/>
    </comp>
  </station>
  <station code="SCHLR" name="SCHLR" netid="RO" insttype="CMG40T.1to100/Quanterra" lat="45.4702" lon="27.8314">
    <comp name="--.HHE">
      <acc value="0.0320399373" flag="0"/>
      <vel value="0.0059780431" flag="0"/>
      <psa03 value="0.0151233571" flag="0"/>
      <psa10 value="0.0023219796" flag="0"/>
      <psa30 value="0.0001832522" flag="0"/>
    </comp>
    <comp name="--.HHN">
      <acc value="0.0310800348" flag="0"/>
      <vel value="0.0071206332" flag="0"/>
      <psa03 value="0.0356298990" flag="0"/>
      <psa10 value="0.0039073641" flag="0"/>
      <psa30 value="0.0002420181" flag="0"/>
    </comp>
    <comp name="--.HHZ">
      <acc value="0.0240071548" flag="0"/>
      <vel value="0.0031130462" flag="0"/>
      <psa03 value="0.0068444011" flag="0"/>
      <psa10 value="0.0007088326" flag="0"/>
      <psa30 value="0.0000663844" flag="0"/>
    </comp>
  </station>
  <station code="SCTR" name="SCTR" netid="RO" insttype="MBB2/Basalt" lat="45.6741" lon="27.9949">
    <comp name="--.HHE">
      <acc value="0.0326308414" flag="0"/>
      <vel value="0.0087158627" flag="0"/>
      <psa03 value="0.0597360728" flag="0"/>
      <psa10 value="0.0035064291" flag="0"/>
      <psa30 value="0.0002843670" flag="0"/>
    </comp>
    <comp name="--.HHN">
      <acc value="0.0526547979" flag="0"/>
      <vel value="0.0132281888" flag="0"/>
      <psa03 value="0.1106908467" flag="0"/>
      <psa10 value="0.0042276686" flag="0"/>
      <psa30 value="0.0003006930" flag="0"/>
    </comp>
    <comp name="--.HHZ">
      <acc value="0.0250221230" flag="0"/>
      <vel value="0.0049374437" flag="0"/>
      <psa03 value="0.0293856677" flag="0"/>
      <psa10 value="0.0018042055" flag="0"/>
      <psa30 value="0.0001425015" flag="0"/>
    </comp>
  </station>
  <station code="SULR" name="SULR" netid="RO" insttype="330" lat="44.6777" lon="26.2526">
    <comp name="--.HHE">
      <acc value="0.0266247918" flag="0"/>
      <vel value="0.0104318554" flag="0"/>
      <psa03 value="0.0541526981" flag="0"/>
      <psa10 value="0.0035307954" flag="0"/>
      <psa30 value="0.0003722400" flag="0"/>
    </comp>
    <comp name="--.HHN">
      <acc value="0.0286093167" flag="0"/>
      <vel value="0.0130295741" flag="0"/>
      <psa03 value="0.0733422668" flag="0"/>
      <psa10 value="0.0059748782" flag="0"/>
      <psa30 value="0.0004015345" flag="0"/>
    </comp>
    <comp name="--.HHZ">
      <acc value="0.0303887249" flag="0"/>
      <vel value="0.0079225545" flag="0"/>
      <psa03 value="0.0220763075" flag="0"/>
      <psa10 value="0.0011666529" flag="0"/>
      <psa30 value="0.0001502258" flag="0"/>
    </comp>
  </station>
  <station code="TESR" name="TESR" netid="RO" insttype="330" lat="46.5118" lon="26.6489">
    <comp name="--.HHE">
      <acc value="0.0028663310" flag="0"/>
      <vel value="0.0007419653" flag="0"/>
      <psa03 value="0.0047678231" flag="0"/>
      <psa10 value="0.0003186186" flag="0"/>
      <psa30 value="0.0000318330" flag="0"/>
    </comp>
    <comp name="--.HHZ">
      <acc value="0.0066104436" flag="0"/>
      <vel value="0.0016638738" flag="0"/>
      <psa03 value="0.0047034044" flag="0"/>
      <psa10 value="0.0003819953" flag="0"/>
      <psa30 value="0.0000245591" flag="0"/>
    </comp>
    <comp name="--.HHN">
      <acc value="0.0040752361" flag="0"/>
      <vel value="0.0011936596" flag="0"/>
      <psa03 value="0.0056781758" flag="0"/>
      <psa10 value="0.0004083174" flag="0"/>
      <psa30 value="0.0000351025" flag="0"/>
    </comp>
  </station>
  <station code="TUDR" name="TUDR" netid="RO" insttype="CMG40T.1to100/Quanterra" lat="45.5939" lon="27.6687">
    <comp name="--.HHE">
      <acc value="0.0699054807" flag="0"/>
      <vel value="0.0158210906" flag="0"/>
      <psa03 value="0.0494801826" flag="0"/>
      <psa10 value="0.0049491927" flag="0"/>
      <psa30 value="0.0003988094" flag="0"/>
    </comp>
    <comp name="--.HHN">
      <acc value="0.0606752771" flag="0"/>
      <vel value="0.0133999234" flag="0"/>
      <psa03 value="0.0560772356" flag="0"/>
      <psa10 value="0.0037303076" flag="0"/>
      <psa30 value="0.0005576432" flag="0"/>
    </comp>
    <comp name="--.HHZ">
      <acc value="0.0675375514" flag="0"/>
      <vel value="0.0094911255" flag="0"/>
      <psa03 value="0.0155922895" flag="0"/>
      <psa10 value="0.0010438672" flag="0"/>
      <psa30 value="0.0001055604" flag="0"/>
    </comp>
  </station>
  <station code="VLDR" name="VLDR" netid="RO" insttype="MBB2/Basalt" lat="45.8443" lon="28.0808">
    <comp name="--.HHE">
      <acc value="0.1805237300" flag="0"/>
      <vel value="0.0343000326" flag="0"/>
      <psa03 value="0.1120105525" flag="0"/>
      <psa10 value="0.0076192912" flag="0"/>
      <psa30 value="0.0006078374" flag="0"/>
    </comp>
    <comp name="--.HHZ">
      <acc value="0.0968645819" flag="0"/>
      <vel value="0.0168449734" flag="0"/>
      <psa03 value="0.1381630692" flag="0"/>
      <psa10 value="0.0038441844" flag="0"/>
      <psa30 value="0.0003197825" flag="0"/>
    </comp>
    <comp name="--.HHN">
      <acc value="0.2212092479" flag="0"/>
      <vel value="0.0502292876" flag="0"/>
      <psa03 value="0.3030563336" flag="0"/>
      <psa10 value="0.0088372698" flag="0"/>
      <psa30 value="0.0007474999" flag="0"/>
    </comp>
  </station>
  <station code="VRI" name="VRI" netid="RO" insttype="Linear" lat="45.8657" lon="26.7277">
    <comp name="--.HHZ">
      <acc value="0.0201134335" flag="0"/>
      <vel value="0.0042013214" flag="0"/>
      <psa03 value="0.0312627003" flag="0"/>
      <psa10 value="0.0022002410" flag="0"/>
      <psa30 value="0.0001114000" flag="0"/>
    </comp>
    <comp name="--.HHN">
      <acc value="0.0178773033" flag="0"/>
      <vel value="0.0095951978" flag="0"/>
      <psa03 value="0.0657851808" flag="0"/>
      <psa10 value="0.0041495452" flag="0"/>
      <psa30 value="0.0003676884" flag="0"/>
    </comp>
    <comp name="--.HHE">
      <acc value="0.0549549532" flag="0"/>
      <vel value="0.0167924849" flag="0"/>
      <psa03 value="0.1614318682" flag="0"/>
      <psa10 value="0.0048465405" flag="0"/>
      <psa30 value="0.0004593286" flag="0"/>
    </comp>
  </station>
</stationlist>
