<?xml version="1.0" encoding="UTF-8" standalone="yes"?>
<!DOCTYPE earthquake SYSTEM "stationlist.dtd">
<stationlist created="" xmlns="ch.ethz.sed.shakemap.usgs.xml">
  <station code="VANB" name="VANB" netid="KO" insttype="360s," lat="38.509" lon="43.4058">
    <comp name="--.HHE">
      <acc value="0.0161435047" flag="0"/>
      <vel value="0.0231578768" flag="0"/>
      <psa03 value="0.0567658130" flag="0"/>
      <psa10 value="0.0280941727" flag="0"/>
      <psa30 value="0.0145963129" flag="0"/>
    </comp>
    <comp name="--.HHZ">
      <acc value="0.0109319454" flag="0"/>
      <vel value="0.0166652652" flag="0"/>
      <psa03 value="0.0186408966" flag="0"/>
      <psa10 value="0.0255130724" flag="0"/>
      <psa30 value="0.0115809585" flag="0"/>
    </comp>
    <comp name="--.HHN">
      <acc value="0.0137909741" flag="0"/>
      <vel value="0.0300308363" flag="0"/>
      <psa03 value="0.0265537676" flag="0"/>
      <psa10 value="0.0554532371" flag="0"/>
      <psa30 value="0.0213739272" flag="0"/>
    </comp>
  </station>
</stationlist>
