<stationlist created="1778069745">
	<station code="IMMV" name="IMMV" netid="GE" source="GEOFON" insttype="" lat="35.4606" lon="23.9811">
		<comp name="--.HNE" depth="0.0">
			<acc value="0.00124572116487097" flag="0"/>
			<vel value="0.00191741402716145" flag="0"/>
			<psa03 value="0.00393731418240792" flag="0"/>
			<psa10 value="0.00400263780407059" flag="0"/>
			<psa30 value="0.000493059116933355" flag="0"/>
		</comp>
		<comp name="--.HNN" depth="0.0">
			<acc value="0.00113748487911005" flag="0"/>
			<vel value="0.00191675620680349" flag="0"/>
			<psa03 value="0.00277401681033285" flag="0"/>
			<psa10 value="0.0021462836514785" flag="0"/>
			<psa30 value="0.000525720927764693" flag="0"/>
		</comp>
		<comp name="--.HNZ" depth="0.0">
			<acc value="0.000854856132126822" flag="0"/>
			<vel value="0.00185532155919555" flag="0"/>
			<psa03 value="0.00228185253753186" flag="0"/>
			<psa10 value="0.00266171387172099" flag="0"/>
			<psa30 value="0.000347199523357789" flag="0"/>
		</comp>
	</station>
	<station code="KARP" name="KARP" netid="GE" source="GEOFON" insttype="" lat="35.5471" lon="27.16106">
		<comp name="--.HNE" depth="0.0">
			<acc value="0.0172419042417478" flag="0"/>
			<vel value="0.00193320195336726" flag="0"/>
			<psa03 value="0.00362411873608001" flag="0"/>
			<psa10 value="0.00258520469840374" flag="0"/>
			<psa30 value="0.000526615771897058" flag="0"/>
		</comp>
		<comp name="--.HNN" depth="0.0">
			<acc value="0.0229333278470929" flag="0"/>
			<vel value="0.00180962752008209" flag="0"/>
			<psa03 value="0.00299772784342421" flag="0"/>
			<psa10 value="0.00203353329080045" flag="0"/>
			<psa30 value="0.000629970269185266" flag="0"/>
		</comp>
		<comp name="--.HNZ" depth="0.0">
			<acc value="0.00455651461226434" flag="0"/>
			<vel value="0.000921561033316996" flag="0"/>
			<psa03 value="0.0038030875625531" flag="0"/>
			<psa10 value="0.00120401278009769" flag="0"/>
			<psa30 value="0.0003391459261665" flag="0"/>
		</comp>
	</station>
	<station code="SIT2" name="SIT2" netid="HI" source="ITSAK Strong Motion Network" insttype="" lat="35.2059" lon="26.107">
		<comp name="--.HNE" depth="0.0">
			<acc value="0.0319279181558813" flag="0"/>
			<vel value="0.0219902203405601" flag="0"/>
			<psa03 value="0.0927505943196774" flag="0"/>
			<psa10 value="0.0175044934952665" flag="0"/>
			<psa30 value="0.00186932939251139" flag="0"/>
		</comp>
		<comp name="--.HNN" depth="0.0">
			<acc value="0.0431665335186337" flag="0"/>
			<vel value="0.024010477069667" flag="0"/>
			<psa03 value="0.0948982202373544" flag="0"/>
			<psa10 value="0.015233379087323" flag="0"/>
			<psa30 value="0.00176060583042899" flag="0"/>
		</comp>
		<comp name="--.HNZ" depth="0.0">
			<acc value="0.0323817975716948" flag="0"/>
			<vel value="0.0110095621284249" flag="0"/>
			<psa03 value="0.0482768409411152" flag="0"/>
			<psa10 value="0.00455833601026953" flag="0"/>
			<psa30 value="0.000966879085020852" flag="0"/>
		</comp>
	</station>
	<station code="SIVA" name="SIVA" netid="HL" source="National Observatory of Athens Seismic Network" insttype="" lat="35.01777" lon="24.81204">
		<comp name="00.HNE" depth="0.0">
			<acc value="0.00688699837604997" flag="0"/>
			<vel value="0.00552906515710616" flag="0"/>
			<psa03 value="0.0186575001598193" flag="0"/>
			<psa10 value="0.00671670005753496" flag="0"/>
			<psa30 value="0.00111229125653024" flag="0"/>
		</comp>
		<comp name="00.HNN" depth="0.0">
			<acc value="0.00711123227335586" flag="0"/>
			<vel value="0.00580567519984582" flag="0"/>
			<psa03 value="0.015480803489922" flag="0"/>
			<psa10 value="0.00739320222160322" flag="0"/>
			<psa30 value="0.00120669731249479" flag="0"/>
		</comp>
		<comp name="00.HNZ" depth="0.0">
			<acc value="0.00509264933808984" flag="0"/>
			<vel value="0.00318468444378092" flag="0"/>
			<psa03 value="0.0107381295883852" flag="0"/>
			<psa10 value="0.00453417521869566" flag="0"/>
			<psa30 value="0.000691714514318481" flag="0"/>
		</comp>
	</station>
</stationlist>
