<?xml version="1.0" encoding="UTF-8" standalone="yes"?>
<!DOCTYPE earthquake SYSTEM "stationlist.dtd">
<stationlist created="" xmlns="ch.ethz.sed.shakemap.usgs.xml">
  <station code="ZKR" name="ZKR" netid="HL" insttype="120" lat="35.1147" lon="26.2169">
    <comp name="--.HHZ">
      <acc value="0.0150061129" flag="0"/>
      <vel value="0.0037704659" flag="0"/>
      <psa03 value="0.0242509351" flag="0"/>
      <psa10 value="0.0058537903" flag="0"/>
      <psa30 value="0.0006977669" flag="0"/>
    </comp>
    <comp name="--.HHN">
      <acc value="0.0109985737" flag="0"/>
      <vel value="0.0049335678" flag="0"/>
      <psa03 value="0.0268805569" flag="0"/>
      <psa10 value="0.0032266435" flag="0"/>
      <psa30 value="0.0004552954" flag="0"/>
    </comp>
    <comp name="--.HHE">
      <acc value="0.0230303625" flag="0"/>
      <vel value="0.0080062763" flag="0"/>
      <psa03 value="0.0537566952" flag="0"/>
      <psa10 value="0.0072892482" flag="0"/>
      <psa30 value="0.0024318976" flag="0"/>
    </comp>
  </station>
</stationlist>
