<?xml version="1.0" encoding="UTF-8" standalone="yes"?>
<!DOCTYPE earthquake SYSTEM "stationlist.dtd">
<stationlist created="" xmlns="ch.ethz.sed.shakemap.usgs.xml">
  <station code="ANDN" name="ANDN" netid="TU" insttype="T" lat="37.58" lon="36.3452">
    <comp name="--.HHN">
      <acc value="2.0025113655" flag="0"/>
      <vel value="0.5674677093" flag="0"/>
      <psa03 value="3.8578950206" flag="0"/>
      <psa10 value="0.2847593901" flag="0"/>
      <psa30 value="0.0136775341" flag="0"/>
    </comp>
    <comp name="--.HHE">
      <acc value="1.5613176174" flag="0"/>
      <vel value="0.5619794790" flag="0"/>
      <psa03 value="3.1455101288" flag="0"/>
      <psa10 value="0.4098367148" flag="0"/>
      <psa30 value="0.0235746297" flag="0"/>
    </comp>
    <comp name="--.HHZ">
      <acc value="0.7571732515" flag="0"/>
      <vel value="0.2683784220" flag="0"/>
      <psa03 value="1.3084903116" flag="0"/>
      <psa10 value="0.3006204126" flag="0"/>
      <psa30 value="0.0113256967" flag="0"/>
    </comp>
  </station>
</stationlist>
