<?xml version="1.0" encoding="UTF-8" standalone="yes"?>
<!DOCTYPE earthquake SYSTEM "stationlist.dtd">
<stationlist created="" xmlns="ch.ethz.sed.shakemap.usgs.xml">
  <station code="ANDN" name="ANDN" netid="TU" insttype="T" lat="37.58" lon="36.3452">
    <comp name="--.HHE">
      <acc value="1.5613176176" flag="0"/>
      <vel value="0.5619795175" flag="0"/>
      <psa03 value="3.1455101288" flag="0"/>
      <psa10 value="0.4098367801" flag="0"/>
      <psa30 value="0.0235843330" flag="0"/>
    </comp>
    <comp name="--.HHZ">
      <acc value="0.7571732517" flag="0"/>
      <vel value="0.2683784053" flag="0"/>
      <psa03 value="1.3084903116" flag="0"/>
      <psa10 value="0.3006204244" flag="0"/>
      <psa30 value="0.0113387878" flag="0"/>
    </comp>
    <comp name="--.HHN">
      <acc value="2.0025113651" flag="0"/>
      <vel value="0.5674676567" flag="0"/>
      <psa03 value="3.8578950206" flag="0"/>
      <psa10 value="0.2847596657" flag="0"/>
      <psa30 value="0.0136798951" flag="0"/>
    </comp>
  </station>
</stationlist>
