<?xml version="1.0" encoding="UTF-8" standalone="yes"?>
<!DOCTYPE earthquake SYSTEM "stationlist.dtd">
<stationlist created="" xmlns="ch.ethz.sed.shakemap.usgs.xml">
  <station code="KTHA" name="KTHA" netid="GE" insttype="STS-2/N" commtype="DIG" lat="36.2566" lon="23.0621">
    <comp name="--.HHE">
      <acc value="0.0476369895" flag="0"/>
      <vel value="0.0185409719" flag="0"/>
      <psa03 value="0.0626992719" flag="0"/>
      <psa10 value="0.0104091064" flag="0"/>
      <psa30 value="0.0006638925" flag="0"/>
    </comp>
    <comp name="--.HHZ">
      <acc value="0.0231387610" flag="0"/>
      <vel value="0.0073025838" flag="0"/>
      <psa03 value="0.0263376447" flag="0"/>
      <psa10 value="0.0034413156" flag="0"/>
      <psa30 value="0.0002608230" flag="0"/>
    </comp>
    <comp name="--.HHN">
      <acc value="0.0259001013" flag="0"/>
      <vel value="0.0088618389" flag="0"/>
      <psa03 value="0.0486303069" flag="0"/>
      <psa10 value="0.0073480707" flag="0"/>
      <psa30 value="0.0004063916" flag="0"/>
    </comp>
  </station>
</stationlist>
