<?xml version="1.0" encoding="UTF-8" standalone="yes"?>
<!DOCTYPE earthquake SYSTEM "stationlist.dtd">
<stationlist created="" xmlns="ch.ethz.sed.shakemap.usgs.xml">
  <station code="AKS" name="AKS" netid="KO" insttype="CMG-5T" lat="38.8785" lon="27.8129">
    <comp name="--.HNE">
      <acc value="0.0129975020" flag="0"/>
      <vel value="0.0075413965" flag="0"/>
      <psa03 value="0.0438037754" flag="0"/>
      <psa10 value="0.0048987350" flag="0"/>
      <psa30 value="0.0005333573" flag="0"/>
    </comp>
    <comp name="--.HNN">
      <acc value="0.0157148358" flag="0"/>
      <vel value="0.0066146080" flag="0"/>
      <psa03 value="0.0339381140" flag="0"/>
      <psa10 value="0.0048548987" flag="0"/>
      <psa30 value="0.0006034626" flag="0"/>
    </comp>
    <comp name="--.HNZ">
      <acc value="0.0058029102" flag="0"/>
      <vel value="0.0025047893" flag="0"/>
      <psa03 value="0.0119954719" flag="0"/>
      <psa10 value="0.0018283169" flag="0"/>
      <psa30 value="0.0004409578" flag="0"/>
    </comp>
  </station>
  <station code="AYDB" name="AYDB" netid="KO" insttype="30s," lat="37.9467" lon="27.8908">
    <comp name="--.HHN">
      <acc value="0.0387847139" flag="0"/>
      <vel value="0.0117224257" flag="0"/>
      <psa03 value="0.0641060948" flag="0"/>
      <psa10 value="0.0069935068" flag="0"/>
      <psa30 value="0.0003883779" flag="0"/>
    </comp>
    <comp name="--.HHE">
      <acc value="0.0559916403" flag="0"/>
      <vel value="0.0151616249" flag="0"/>
      <psa03 value="0.0724691433" flag="0"/>
      <psa10 value="0.0072457071" flag="0"/>
      <psa30 value="0.0004803481" flag="0"/>
    </comp>
  </station>
  <station code="BLCB" name="BLCB" netid="KO" insttype="CMG-3T" lat="38.3853" lon="27.042">
    <comp name="--.HHE">
      <acc value="0.0560594697" flag="0"/>
      <vel value="0.0285522684" flag="0"/>
      <psa03 value="0.1900038164" flag="0"/>
      <psa10 value="0.0114352282" flag="0"/>
      <psa30 value="0.0007762158" flag="0"/>
    </comp>
    <comp name="--.HHN">
      <acc value="0.0000566789" flag="0"/>
      <vel value="0.0000105533" flag="0"/>
      <psa03 value="0.0000903167" flag="0"/>
      <psa10 value="0.0000086602" flag="0"/>
      <psa30 value="0.0000005196" flag="0"/>
    </comp>
    <comp name="--.HHZ">
      <acc value="0.0240779310" flag="0"/>
      <vel value="0.0070567973" flag="0"/>
      <psa03 value="0.0350315312" flag="0"/>
      <psa10 value="0.0061775414" flag="0"/>
      <psa30 value="0.0004233202" flag="0"/>
    </comp>
  </station>
  <station code="FOCM" name="FOCM" netid="KO" insttype="CMG-5T" lat="38.7131" lon="26.7309">
    <comp name="--.HNZ">
      <acc value="0.0092713587" flag="0"/>
      <vel value="0.0061592583" flag="0"/>
      <psa03 value="0.0286633513" flag="0"/>
      <psa10 value="0.0044648313" flag="0"/>
      <psa30 value="0.0003894058" flag="0"/>
    </comp>
    <comp name="--.HNE">
      <acc value="0.0127241479" flag="0"/>
      <vel value="0.0080432312" flag="0"/>
      <psa03 value="0.0375051928" flag="0"/>
      <psa10 value="0.0093245946" flag="0"/>
      <psa30 value="0.0005750361" flag="0"/>
    </comp>
    <comp name="--.HNN">
      <acc value="0.0131654884" flag="0"/>
      <vel value="0.0084514939" flag="0"/>
      <psa03 value="0.0304009421" flag="0"/>
      <psa10 value="0.0117527500" flag="0"/>
      <psa30 value="0.0007471878" flag="0"/>
    </comp>
  </station>
  <station code="GMLD" name="GMLD" netid="KO" insttype="CMG-5T" lat="38.0766" lon="26.9157">
    <comp name="--.HNE">
      <acc value="0.1905581008" flag="0"/>
      <vel value="0.0594738193" flag="0"/>
      <psa03 value="0.2361611045" flag="0"/>
      <psa10 value="0.0329443929" flag="0"/>
      <psa30 value="0.0017624640" flag="0"/>
    </comp>
    <comp name="--.HNN">
      <acc value="0.2417710293" flag="0"/>
      <vel value="0.0791693490" flag="0"/>
      <psa03 value="0.2835350816" flag="0"/>
      <psa10 value="0.0432736190" flag="0"/>
      <psa30 value="0.0029574624" flag="0"/>
    </comp>
    <comp name="--.HNZ">
      <acc value="0.1174651604" flag="0"/>
      <vel value="0.0283819159" flag="0"/>
      <psa03 value="0.1269767534" flag="0"/>
      <psa10 value="0.0135585298" flag="0"/>
      <psa30 value="0.0009516315" flag="0"/>
    </comp>
  </station>
  <station code="KUSD" name="KUSD" netid="KO" insttype="CMG-5T" lat="37.8606" lon="27.2868">
    <comp name="--.HNZ">
      <acc value="1.1712538291" flag="0"/>
      <vel value="0.2421745983" flag="0"/>
      <psa03 value="0.9729335959" flag="0"/>
      <psa10 value="0.0745146328" flag="0"/>
      <psa30 value="0.0043701813" flag="0"/>
    </comp>
    <comp name="--.HNE">
      <acc value="2.3306447648" flag="0"/>
      <vel value="0.5914801270" flag="0"/>
      <psa03 value="2.9211991511" flag="0"/>
      <psa10 value="0.1844575977" flag="0"/>
      <psa30 value="0.0163282684" flag="0"/>
    </comp>
    <comp name="--.HNN">
      <acc value="2.6241963826" flag="0"/>
      <vel value="0.5231683048" flag="0"/>
      <psa03 value="2.6114461662" flag="0"/>
      <psa10 value="0.2283142087" flag="0"/>
      <psa30 value="0.0251023500" flag="0"/>
    </comp>
  </station>
  <station code="NAZL" name="NAZL" netid="KO" insttype="CMG-5T" lat="37.9641" lon="28.2922">
    <comp name="--.HNZ">
      <acc value="0.0163607701" flag="0"/>
      <vel value="0.0074437703" flag="0"/>
      <psa03 value="0.0474308464" flag="0"/>
      <psa10 value="0.0053140332" flag="0"/>
      <psa30 value="0.0004378148" flag="0"/>
    </comp>
    <comp name="--.HNN">
      <acc value="0.0539967377" flag="0"/>
      <vel value="0.0246707403" flag="0"/>
      <psa03 value="0.1166540654" flag="0"/>
      <psa10 value="0.0090393112" flag="0"/>
      <psa30 value="0.0005842935" flag="0"/>
    </comp>
    <comp name="--.HNE">
      <acc value="0.0470877917" flag="0"/>
      <vel value="0.0182298912" flag="0"/>
      <psa03 value="0.1745260860" flag="0"/>
      <psa10 value="0.0127838162" flag="0"/>
      <psa30 value="0.0006782980" flag="0"/>
    </comp>
  </station>
  <station code="ODEM" name="ODEM" netid="KO" insttype="CMG-5T" lat="38.2762" lon="28.0747">
    <comp name="--.HNE">
      <acc value="0.0215175624" flag="0"/>
      <vel value="0.0116003042" flag="0"/>
      <psa03 value="0.0751522615" flag="0"/>
      <psa10 value="0.0075459532" flag="0"/>
      <psa30 value="0.0007235778" flag="0"/>
    </comp>
    <comp name="--.HNN">
      <acc value="0.0167389924" flag="0"/>
      <vel value="0.0081048097" flag="0"/>
      <psa03 value="0.0486184512" flag="0"/>
      <psa10 value="0.0044902997" flag="0"/>
      <psa30 value="0.0005032092" flag="0"/>
    </comp>
    <comp name="--.HNZ">
      <acc value="0.0124962404" flag="0"/>
      <vel value="0.0074070073" flag="0"/>
      <psa03 value="0.0406214575" flag="0"/>
      <psa10 value="0.0036294776" flag="0"/>
      <psa30 value="0.0004548104" flag="0"/>
    </comp>
  </station>
  <station code="AYDN" name="AYDN" netid="TU" insttype="T" lat="37.6608" lon="27.8792">
    <comp name="--.HHE">
      <acc value="0.1451306370" flag="0"/>
      <vel value="0.0345715757" flag="0"/>
      <psa03 value="0.1788023104" flag="0"/>
      <psa10 value="0.0158071769" flag="0"/>
      <psa30 value="0.0009423455" flag="0"/>
    </comp>
    <comp name="--.HHN">
      <acc value="0.0929876722" flag="0"/>
      <vel value="0.0230542225" flag="0"/>
      <psa03 value="0.1392849849" flag="0"/>
      <psa10 value="0.0163344111" flag="0"/>
      <psa30 value="0.0011003911" flag="0"/>
    </comp>
    <comp name="--.HHZ">
      <acc value="0.0958495386" flag="0"/>
      <vel value="0.0184207210" flag="0"/>
      <psa03 value="0.0456361247" flag="0"/>
      <psa10 value="0.0088966244" flag="0"/>
      <psa30 value="0.0006733312" flag="0"/>
    </comp>
  </station>
</stationlist>
