<?xml version="1.0" encoding="UTF-8" standalone="yes"?>
<!DOCTYPE earthquake SYSTEM "stationlist.dtd">
<stationlist created="" xmlns="ch.ethz.sed.shakemap.usgs.xml">
  <station code="KLNA" name="KLNA" netid="HL" insttype="CMG-5" lat="36.9571" lon="26.9727">
    <comp name="00.HNN">
      <acc value="0.0425091126" flag="0"/>
      <vel value="0.0185427259" flag="0"/>
      <psa03 value="0.1988572084" flag="0"/>
      <psa10 value="0.0080754304" flag="0"/>
      <psa30 value="0.0004779832" flag="0"/>
    </comp>
    <comp name="00.HNE">
      <acc value="0.0413674914" flag="0"/>
      <vel value="0.0146314543" flag="0"/>
      <psa03 value="0.1142572962" flag="0"/>
      <psa10 value="0.0095238545" flag="0"/>
      <psa30 value="0.0005041364" flag="0"/>
    </comp>
    <comp name="00.HNZ">
      <acc value="0.0271798527" flag="0"/>
      <vel value="0.0091283515" flag="0"/>
      <psa03 value="0.0519739806" flag="0"/>
      <psa10 value="0.0044261253" flag="0"/>
      <psa30 value="0.0004476186" flag="0"/>
    </comp>
  </station>
  <station code="SMG" name="SMG" netid="HL" insttype="120" lat="37.7043" lon="26.8377">
    <comp name="--.HHN">
      <acc value="0.0582419340" flag="0"/>
      <vel value="0.0206240812" flag="0"/>
      <psa03 value="0.1297838407" flag="0"/>
      <psa10 value="0.0180499550" flag="0"/>
      <psa30 value="0.0010616857" flag="0"/>
    </comp>
    <comp name="--.HHE">
      <acc value="0.0723841665" flag="0"/>
      <vel value="0.0204387516" flag="0"/>
      <psa03 value="0.0839577269" flag="0"/>
      <psa10 value="0.0126694854" flag="0"/>
      <psa30 value="0.0005231351" flag="0"/>
    </comp>
    <comp name="--.HHZ">
      <acc value="0.0521651174" flag="0"/>
      <vel value="0.0105128994" flag="0"/>
      <psa03 value="0.0522043329" flag="0"/>
      <psa10 value="0.0056862733" flag="0"/>
      <psa30 value="0.0006284904" flag="0"/>
    </comp>
  </station>
  <station code="CHOS" name="CHOS" netid="HT" insttype="100" lat="38.3869" lon="26.0506">
    <comp name="--.HHN">
      <acc value="0.0082289595" flag="0"/>
      <vel value="0.0043849990" flag="0"/>
      <psa03 value="0.0165811262" flag="0"/>
      <psa10 value="0.0060606401" flag="0"/>
      <psa30 value="0.0003858577" flag="0"/>
    </comp>
    <comp name="--.HHE">
      <acc value="0.0128634761" flag="0"/>
      <vel value="0.0062081551" flag="0"/>
      <psa03 value="0.0407193422" flag="0"/>
      <psa10 value="0.0038998406" flag="0"/>
      <psa30 value="0.0003524704" flag="0"/>
    </comp>
    <comp name="--.HHZ">
      <acc value="0.0043535910" flag="0"/>
      <vel value="0.0030961989" flag="0"/>
      <psa03 value="0.0128097433" flag="0"/>
      <psa10 value="0.0054071718" flag="0"/>
      <psa30 value="0.0003929415" flag="0"/>
    </comp>
  </station>
  <station code="AKS" name="AKS" netid="KO" insttype="CMG-5T" lat="38.8785" lon="27.8129">
    <comp name="--.HNE">
      <acc value="0.0129975040" flag="0"/>
      <vel value="0.0075413987" flag="0"/>
      <psa03 value="0.0438037754" flag="0"/>
      <psa10 value="0.0048987348" flag="0"/>
      <psa30 value="0.0005333837" flag="0"/>
    </comp>
    <comp name="--.HNN">
      <acc value="0.0157148381" flag="0"/>
      <vel value="0.0066146054" flag="0"/>
      <psa03 value="0.0339381140" flag="0"/>
      <psa10 value="0.0048548983" flag="0"/>
      <psa30 value="0.0006037238" flag="0"/>
    </comp>
    <comp name="--.HNZ">
      <acc value="0.0058029121" flag="0"/>
      <vel value="0.0025047942" flag="0"/>
      <psa03 value="0.0119954719" flag="0"/>
      <psa10 value="0.0018283169" flag="0"/>
      <psa30 value="0.0004408487" flag="0"/>
    </comp>
  </station>
  <station code="AYDB" name="AYDB" netid="KO" insttype="30s," lat="37.9467" lon="27.8908">
    <comp name="--.HHN">
      <acc value="0.0387847139" flag="0"/>
      <vel value="0.0117224274" flag="0"/>
      <psa03 value="0.0641060948" flag="0"/>
      <psa10 value="0.0069935067" flag="0"/>
      <psa30 value="0.0003883768" flag="0"/>
    </comp>
    <comp name="--.HHE">
      <acc value="0.0559916403" flag="0"/>
      <vel value="0.0151616251" flag="0"/>
      <psa03 value="0.0724691433" flag="0"/>
      <psa10 value="0.0072457071" flag="0"/>
      <psa30 value="0.0004803553" flag="0"/>
    </comp>
  </station>
  <station code="BLCB" name="BLCB" netid="KO" insttype="CMG-3T" lat="38.3853" lon="27.042">
    <comp name="--.HHN">
      <acc value="0.0000566789" flag="0"/>
      <vel value="0.0000105533" flag="0"/>
      <psa03 value="0.0000903167" flag="0"/>
      <psa10 value="0.0000086602" flag="0"/>
      <psa30 value="0.0000005195" flag="0"/>
    </comp>
    <comp name="--.HHE">
      <acc value="0.0560594697" flag="0"/>
      <vel value="0.0285522685" flag="0"/>
      <psa03 value="0.1900038164" flag="0"/>
      <psa10 value="0.0114352282" flag="0"/>
      <psa30 value="0.0007762176" flag="0"/>
    </comp>
    <comp name="--.HHZ">
      <acc value="0.0240779310" flag="0"/>
      <vel value="0.0070567973" flag="0"/>
      <psa03 value="0.0350315312" flag="0"/>
      <psa10 value="0.0061775414" flag="0"/>
      <psa30 value="0.0004233197" flag="0"/>
    </comp>
  </station>
  <station code="FOCM" name="FOCM" netid="KO" insttype="CMG-5T" lat="38.7131" lon="26.7309">
    <comp name="--.HNN">
      <acc value="0.0131654896" flag="0"/>
      <vel value="0.0084514944" flag="0"/>
      <psa03 value="0.0304009421" flag="0"/>
      <psa10 value="0.0117527500" flag="0"/>
      <psa30 value="0.0007472471" flag="0"/>
    </comp>
    <comp name="--.HNZ">
      <acc value="0.0092713595" flag="0"/>
      <vel value="0.0061592581" flag="0"/>
      <psa03 value="0.0286633513" flag="0"/>
      <psa10 value="0.0044648313" flag="0"/>
      <psa30 value="0.0003893961" flag="0"/>
    </comp>
    <comp name="--.HNE">
      <acc value="0.0127241479" flag="0"/>
      <vel value="0.0080432313" flag="0"/>
      <psa03 value="0.0375051928" flag="0"/>
      <psa10 value="0.0093245946" flag="0"/>
      <psa30 value="0.0005750165" flag="0"/>
    </comp>
  </station>
  <station code="GMLD" name="GMLD" netid="KO" insttype="CMG-5T" lat="38.0766" lon="26.9157">
    <comp name="--.HNZ">
      <acc value="0.1174651617" flag="0"/>
      <vel value="0.0283819160" flag="0"/>
      <psa03 value="0.1269767534" flag="0"/>
      <psa10 value="0.0135585305" flag="0"/>
      <psa30 value="0.0009517497" flag="0"/>
    </comp>
    <comp name="--.HNN">
      <acc value="0.2417710335" flag="0"/>
      <vel value="0.0791693533" flag="0"/>
      <psa03 value="0.2835350816" flag="0"/>
      <psa10 value="0.0432736113" flag="0"/>
      <psa30 value="0.0029580067" flag="0"/>
    </comp>
    <comp name="--.HNE">
      <acc value="0.1905580993" flag="0"/>
      <vel value="0.0594738200" flag="0"/>
      <psa03 value="0.2361611045" flag="0"/>
      <psa10 value="0.0329443826" flag="0"/>
      <psa30 value="0.0017630383" flag="0"/>
    </comp>
  </station>
  <station code="KUSD" name="KUSD" netid="KO" insttype="CMG-5T" lat="37.8606" lon="27.2868">
    <comp name="--.HNE">
      <acc value="2.3306446130" flag="0"/>
      <vel value="0.5914801292" flag="0"/>
      <psa03 value="2.9211991511" flag="0"/>
      <psa10 value="0.1844576163" flag="0"/>
      <psa30 value="0.0163252598" flag="0"/>
    </comp>
    <comp name="--.HNZ">
      <acc value="1.1712537263" flag="0"/>
      <vel value="0.2421746014" flag="0"/>
      <psa03 value="0.9729335959" flag="0"/>
      <psa10 value="0.0745146303" flag="0"/>
      <psa30 value="0.0043677048" flag="0"/>
    </comp>
    <comp name="--.HNN">
      <acc value="2.6241965527" flag="0"/>
      <vel value="0.5231683141" flag="0"/>
      <psa03 value="2.6114461662" flag="0"/>
      <psa10 value="0.2283142149" flag="0"/>
      <psa30 value="0.0251060514" flag="0"/>
    </comp>
  </station>
  <station code="NAZL" name="NAZL" netid="KO" insttype="CMG-5T" lat="37.9641" lon="28.2922">
    <comp name="--.HNE">
      <acc value="0.0470877930" flag="0"/>
      <vel value="0.0182298912" flag="0"/>
      <psa03 value="0.1745260860" flag="0"/>
      <psa10 value="0.0127838163" flag="0"/>
      <psa30 value="0.0006780611" flag="0"/>
    </comp>
    <comp name="--.HNZ">
      <acc value="0.0163607686" flag="0"/>
      <vel value="0.0074437708" flag="0"/>
      <psa03 value="0.0474308464" flag="0"/>
      <psa10 value="0.0053140332" flag="0"/>
      <psa30 value="0.0004379053" flag="0"/>
    </comp>
    <comp name="--.HNN">
      <acc value="0.0539967380" flag="0"/>
      <vel value="0.0246707407" flag="0"/>
      <psa03 value="0.1166540654" flag="0"/>
      <psa10 value="0.0090393113" flag="0"/>
      <psa30 value="0.0005843238" flag="0"/>
    </comp>
  </station>
  <station code="ODEM" name="ODEM" netid="KO" insttype="CMG-5T" lat="38.2762" lon="28.0747">
    <comp name="--.HNN">
      <acc value="0.0167389925" flag="0"/>
      <vel value="0.0081048094" flag="0"/>
      <psa03 value="0.0486184512" flag="0"/>
      <psa10 value="0.0044902998" flag="0"/>
      <psa30 value="0.0005031730" flag="0"/>
    </comp>
    <comp name="--.HNZ">
      <acc value="0.0124962407" flag="0"/>
      <vel value="0.0074070074" flag="0"/>
      <psa03 value="0.0406214575" flag="0"/>
      <psa10 value="0.0036294776" flag="0"/>
      <psa30 value="0.0004548453" flag="0"/>
    </comp>
    <comp name="--.HNE">
      <acc value="0.0215175625" flag="0"/>
      <vel value="0.0116003035" flag="0"/>
      <psa03 value="0.0751522615" flag="0"/>
      <psa10 value="0.0075459540" flag="0"/>
      <psa30 value="0.0007238859" flag="0"/>
    </comp>
  </station>
  <station code="AYDN" name="AYDN" netid="TU" insttype="T" lat="37.6608" lon="27.8792">
    <comp name="--.HHZ">
      <acc value="0.0958495387" flag="0"/>
      <vel value="0.0184207214" flag="0"/>
      <psa03 value="0.0456361247" flag="0"/>
      <psa10 value="0.0088966242" flag="0"/>
      <psa30 value="0.0006733519" flag="0"/>
    </comp>
    <comp name="--.HHE">
      <acc value="0.1451306370" flag="0"/>
      <vel value="0.0345715757" flag="0"/>
      <psa03 value="0.1788023104" flag="0"/>
      <psa10 value="0.0158071770" flag="0"/>
      <psa30 value="0.0009423114" flag="0"/>
    </comp>
    <comp name="--.HHN">
      <acc value="0.0929876723" flag="0"/>
      <vel value="0.0230542224" flag="0"/>
      <psa03 value="0.1392849849" flag="0"/>
      <psa10 value="0.0163344112" flag="0"/>
      <psa30 value="0.0011003948" flag="0"/>
    </comp>
  </station>
</stationlist>
