<?xml version="1.0" encoding="UTF-8" standalone="yes"?>
<!DOCTYPE earthquake SYSTEM "stationlist.dtd">
<stationlist created="" xmlns="ch.ethz.sed.shakemap.usgs.xml">
  <station code="CEYT" name="CEYT" netid="KO" insttype="CMG-3ESP" lat="37.0105" lon="35.7478">
    <comp name="--.HHZ">
      <acc value="0.0112597384" flag="0"/>
      <vel value="0.0042292701" flag="0"/>
      <psa03 value="0.0200953406" flag="0"/>
      <psa10 value="0.0047779834" flag="0"/>
      <psa30 value="0.0003882034" flag="0"/>
    </comp>
    <comp name="--.HHE">
      <acc value="0.0154112522" flag="0"/>
      <vel value="0.0053214564" flag="0"/>
      <psa03 value="0.0361927002" flag="0"/>
      <psa10 value="0.0040948644" flag="0"/>
      <psa30 value="0.0004700754" flag="0"/>
    </comp>
    <comp name="--.HHN">
      <acc value="0.0159768323" flag="0"/>
      <vel value="0.0063110597" flag="0"/>
      <psa03 value="0.0334108655" flag="0"/>
      <psa10 value="0.0046578834" flag="0"/>
      <psa30 value="0.0006899707" flag="0"/>
    </comp>
  </station>
</stationlist>
