<?xml version="1.0" encoding="UTF-8" standalone="yes"?>
<!DOCTYPE earthquake SYSTEM "stationlist.dtd">
<stationlist created="" xmlns="ch.ethz.sed.shakemap.usgs.xml">
  <station code="MYT1" name="MYT1" netid="HI" insttype="CMG-5TD,ACCELEROMETER,GURALP" lat="39.085" lon="26.5694">
    <comp name="--.HNN">
      <acc value="0.0327948550" flag="0"/>
      <vel value="0.0179777712" flag="0"/>
      <psa03 value="0.0591805931" flag="0"/>
      <psa10 value="0.0219372161" flag="0"/>
      <psa30 value="0.0025282963" flag="0"/>
    </comp>
    <comp name="--.HNE">
      <acc value="0.0299882515" flag="0"/>
      <vel value="0.0162012933" flag="0"/>
      <psa03 value="0.0738945176" flag="0"/>
      <psa10 value="0.0270983635" flag="0"/>
      <psa30 value="0.0042089729" flag="0"/>
    </comp>
    <comp name="--.HNZ">
      <acc value="0.0252800371" flag="0"/>
      <vel value="0.0114537028" flag="0"/>
      <psa03 value="0.0479566386" flag="0"/>
      <psa10 value="0.0185695618" flag="0"/>
      <psa30 value="0.0015755563" flag="0"/>
    </comp>
  </station>
  <station code="PRK" name="PRK" netid="HL" insttype="120" lat="39.2456" lon="26.265">
    <comp name="--.HHZ">
      <acc value="0.0448448550" flag="0"/>
      <vel value="0.0281169418" flag="0"/>
      <psa03 value="0.1685520389" flag="0"/>
      <psa10 value="0.0189983306" flag="0"/>
      <psa30 value="0.0070492319" flag="0"/>
    </comp>
    <comp name="--.HHE">
      <acc value="0.0759903298" flag="0"/>
      <vel value="0.0402518282" flag="0"/>
      <psa03 value="0.2494783721" flag="0"/>
      <psa10 value="0.0511292778" flag="0"/>
      <psa30 value="0.0121370510" flag="0"/>
    </comp>
    <comp name="--.HHN">
      <acc value="0.0590322599" flag="0"/>
      <vel value="0.0435896083" flag="0"/>
      <psa03 value="0.1804833160" flag="0"/>
      <psa10 value="0.0459517825" flag="0"/>
      <psa30 value="0.0134509098" flag="0"/>
    </comp>
  </station>
  <station code="CHOS" name="CHOS" netid="HT" insttype="100" lat="38.3869" lon="26.0506">
    <comp name="--.HHE">
      <acc value="0.0744823787" flag="0"/>
      <vel value="0.0291930787" flag="0"/>
      <psa03 value="0.1610625631" flag="0"/>
      <psa10 value="0.0338038330" flag="0"/>
      <psa30 value="0.0021859333" flag="0"/>
    </comp>
    <comp name="--.HHN">
      <acc value="0.0382076878" flag="0"/>
      <vel value="0.0197051408" flag="0"/>
      <psa03 value="0.1161303392" flag="0"/>
      <psa10 value="0.0277237650" flag="0"/>
      <psa30 value="0.0037113904" flag="0"/>
    </comp>
    <comp name="--.HHZ">
      <acc value="0.0286543990" flag="0"/>
      <vel value="0.0138090293" flag="0"/>
      <psa03 value="0.0878337826" flag="0"/>
      <psa10 value="0.0150816024" flag="0"/>
      <psa30 value="0.0017719859" flag="0"/>
    </comp>
  </station>
  <station code="SIGR" name="SIGR" netid="HT" insttype="100" lat="39.2114" lon="25.8553">
    <comp name="--.HHZ">
      <acc value="0.0803690063" flag="0"/>
      <vel value="0.0276706008" flag="0"/>
      <psa03 value="0.1424375746" flag="0"/>
      <psa10 value="0.0140907254" flag="0"/>
      <psa30 value="0.0066081247" flag="0"/>
    </comp>
    <comp name="--.HHE">
      <acc value="0.0859116627" flag="0"/>
      <vel value="0.0533005346" flag="0"/>
      <psa03 value="0.1472514535" flag="0"/>
      <psa10 value="0.0411439682" flag="0"/>
      <psa30 value="0.0043509495" flag="0"/>
    </comp>
    <comp name="--.HHN">
      <acc value="0.0831415316" flag="0"/>
      <vel value="0.0416163316" flag="0"/>
      <psa03 value="0.1734894058" flag="0"/>
      <psa10 value="0.0347996966" flag="0"/>
      <psa30 value="0.0070750420" flag="0"/>
    </comp>
  </station>
  <station code="EZN" name="EZN" netid="KO" insttype="120s," lat="39.8255" lon="26.3247">
    <comp name="--.HHZ">
      <acc value="0.0199631310" flag="0"/>
      <vel value="0.0091735935" flag="0"/>
      <psa03 value="0.0517238067" flag="0"/>
      <psa10 value="0.0101196833" flag="0"/>
      <psa30 value="0.0011782073" flag="0"/>
    </comp>
    <comp name="--.HHN">
      <acc value="0.0345576048" flag="0"/>
      <vel value="0.0223070334" flag="0"/>
      <psa03 value="0.1031149204" flag="0"/>
      <psa10 value="0.0274522867" flag="0"/>
      <psa30 value="0.0017692685" flag="0"/>
    </comp>
  </station>
  <station code="YAYO" name="YAYO" netid="KO" insttype="30s," lat="39.6113" lon="27.0726">
    <comp name="--.HHE">
      <acc value="0.0199644724" flag="0"/>
      <vel value="0.0109234252" flag="0"/>
      <psa03 value="0.0552436484" flag="0"/>
      <psa10 value="0.0177928187" flag="0"/>
      <psa30 value="0.0009099843" flag="0"/>
    </comp>
    <comp name="--.HHN">
      <acc value="0.0163930957" flag="0"/>
      <vel value="0.0110985854" flag="0"/>
      <psa03 value="0.0512668532" flag="0"/>
      <psa10 value="0.0133724891" flag="0"/>
      <psa30 value="0.0008858999" flag="0"/>
    </comp>
    <comp name="--.HHZ">
      <acc value="0.0103895220" flag="0"/>
      <vel value="0.0060848059" flag="0"/>
      <psa03 value="0.0338378801" flag="0"/>
      <psa10 value="0.0058664902" flag="0"/>
      <psa30 value="0.0009071742" flag="0"/>
    </comp>
  </station>
</stationlist>
