<stationlist created="1778550944">
	<station code="0904" name="0904" netid="TK" source="Turkish National Strong Motion Network (TNSMN)" insttype="" lat="37.85716" lon="28.05025">
		<comp name="00.HNE" depth="None">
			<acc value="0.165417808282986" flag="0"/>
			<vel value="0.131306548788753" flag="0"/>
			<psa03 value="0.361248576235926" flag="0"/>
			<psa10 value="0.0813373048334224" flag="0"/>
			<psa30 value="0.0443905328742521" flag="0"/>
		</comp>
		<comp name="00.HNN" depth="None">
			<acc value="0.11471102540668" flag="0"/>
			<vel value="0.097048522558275" flag="0"/>
			<psa03 value="0.240265649540119" flag="0"/>
			<psa10 value="0.0774675513830081" flag="0"/>
			<psa30 value="0.0337955783470454" flag="0"/>
		</comp>
		<comp name="00.HNZ" depth="None">
			<acc value="0.0864971474318904" flag="0"/>
			<vel value="0.0586624447935016" flag="0"/>
			<psa03 value="0.180087381638544" flag="0"/>
			<psa10 value="0.0457001372619689" flag="0"/>
			<psa30 value="0.016004734729422" flag="0"/>
		</comp>
	</station>
	<station code="0909" name="0909" netid="TK" source="Turkish National Strong Motion Network (TNSMN)" insttype="" lat="37.88405" lon="28.15056">
		<comp name="00.HNE" depth="None">
			<acc value="0.195901159231033" flag="0"/>
			<vel value="0.168061109083299" flag="0"/>
			<psa03 value="0.370197017559581" flag="0"/>
			<psa10 value="0.211286122313465" flag="0"/>
			<psa30 value="0.0514387726828285" flag="0"/>
		</comp>
		<comp name="00.HNN" depth="None">
			<acc value="0.184222425167845" flag="0"/>
			<vel value="0.144590613706866" flag="0"/>
			<psa03 value="0.460621017135108" flag="0"/>
			<psa10 value="0.210887469252496" flag="0"/>
			<psa30 value="0.0528213068673331" flag="0"/>
		</comp>
		<comp name="00.HNZ" depth="None">
			<acc value="0.151811908949348" flag="0"/>
			<vel value="0.0769548949399934" flag="0"/>
			<psa03 value="0.163577507396402" flag="0"/>
			<psa10 value="0.0875506550665018" flag="0"/>
			<psa30 value="0.0194248290033227" flag="0"/>
		</comp>
	</station>
	<station code="3502" name="3502" netid="TK" source="Turkish National Strong Motion Network (TNSMN)" insttype="" lat="38.45514" lon="27.22673">
		<comp name="00.HNE" depth="None">
			<acc value="0.644111294139096" flag="0"/>
			<vel value="0.491005671622458" flag="0"/>
			<psa03 value="2.01299661796266" flag="0"/>
			<psa10 value="0.524329445138865" flag="0"/>
			<psa30 value="0.114009406372283" flag="0"/>
		</comp>
		<comp name="00.HNN" depth="None">
			<acc value="0.904234841311942" flag="0"/>
			<vel value="0.669681860330683" flag="0"/>
			<psa03 value="2.08534476606441" flag="0"/>
			<psa10 value="0.779491564950472" flag="0"/>
			<psa30 value="0.0482316513124308" flag="0"/>
		</comp>
		<comp name="00.HNZ" depth="None">
			<acc value="0.44607095811494" flag="0"/>
			<vel value="0.215014135621745" flag="0"/>
			<psa03 value="0.660260743065836" flag="0"/>
			<psa10 value="0.19307693906396" flag="0"/>
			<psa30 value="0.016859310875831" flag="0"/>
		</comp>
	</station>
</stationlist>
