<?xml version="1.0" encoding="UTF-8" standalone="yes"?>
<!DOCTYPE earthquake SYSTEM "stationlist.dtd">
<stationlist created="" xmlns="ch.ethz.sed.shakemap.usgs.xml">
  <station code="CEYT" name="CEYT" netid="KO" insttype="CMG-3ESP" lat="37.0105" lon="35.7478">
    <comp name="--.HHE">
      <acc value="0.0192249829" flag="0"/>
      <vel value="0.0064201373" flag="0"/>
      <psa03 value="0.0287302083" flag="0"/>
      <psa10 value="0.0035946647" flag="0"/>
      <psa30 value="0.0004908983" flag="0"/>
    </comp>
    <comp name="--.HHZ">
      <acc value="0.0096595085" flag="0"/>
      <vel value="0.0032238901" flag="0"/>
      <psa03 value="0.0166319189" flag="0"/>
      <psa10 value="0.0018588656" flag="0"/>
      <psa30 value="0.0002867320" flag="0"/>
    </comp>
    <comp name="--.HHN">
      <acc value="0.0142020827" flag="0"/>
      <vel value="0.0073446125" flag="0"/>
      <psa03 value="0.0305293562" flag="0"/>
      <psa10 value="0.0033091203" flag="0"/>
      <psa30 value="0.0003359399" flag="0"/>
    </comp>
  </station>
</stationlist>
