<stationlist created="1778139002">
	<station code="ERBG" name="ERBG" netid="KO" source="Bogazici University Kandilli Observatory And Earthquake Research Institute (KOERI)" insttype="" lat="40.712" lon="36.6768">
		<comp name="--.HNE" depth="0.0">
			<acc value="0.0586753497214204" flag="0"/>
			<vel value="0.0123614534947569" flag="0"/>
			<psa03 value="0.0843788344752116" flag="0"/>
			<psa10 value="0.00934455778107957" flag="0"/>
			<psa30 value="0.000629958971272508" flag="0"/>
		</comp>
		<comp name="--.HNN" depth="0.0">
			<acc value="0.0648364495389991" flag="0"/>
			<vel value="0.0171254854731116" flag="0"/>
			<psa03 value="0.114844816238794" flag="0"/>
			<psa10 value="0.0106088284078226" flag="0"/>
			<psa30 value="0.000954896173853472" flag="0"/>
		</comp>
		<comp name="--.HNZ" depth="0.0">
			<acc value="0.0868551211349933" flag="0"/>
			<vel value="0.0235424136246193" flag="0"/>
			<psa03 value="0.100406776456116" flag="0"/>
			<psa10 value="0.00749355938026941" flag="0"/>
			<psa30 value="0.000478563160792817" flag="0"/>
		</comp>
	</station>
	<station code="KOZK" name="KOZK" netid="KO" source="Bogazici University Kandilli Observatory And Earthquake Research Institute (KOERI)" insttype="" lat="39.2101" lon="34.868">
		<comp name="--.HNE" depth="0.0">
			<acc value="0.00743658879485131" flag="0"/>
			<vel value="0.0043759315210826" flag="0"/>
			<psa03 value="0.0163125324481138" flag="0"/>
			<psa10 value="0.00532534293407501" flag="0"/>
			<psa30 value="0.000323148125727435" flag="0"/>
		</comp>
		<comp name="--.HNN" depth="0.0">
			<acc value="0.00572933308421511" flag="0"/>
			<vel value="0.00489209023391429" flag="0"/>
			<psa03 value="0.0194929540729741" flag="0"/>
			<psa10 value="0.00712616207325132" flag="0"/>
			<psa30 value="0.000302374874601505" flag="0"/>
		</comp>
		<comp name="--.HNZ" depth="0.0">
			<acc value="0.00478127166815528" flag="0"/>
			<vel value="0.00312030541082871" flag="0"/>
			<psa03 value="0.0196559440368988" flag="0"/>
			<psa10 value="0.00311490876929197" flag="0"/>
			<psa30 value="0.000192970192182142" flag="0"/>
		</comp>
	</station>
	<station code="KYHL" name="KYHL" netid="KO" source="Bogazici University Kandilli Observatory And Earthquake Research Institute (KOERI)" insttype="" lat="40.3244" lon="37.8955">
		<comp name="--.HNE" depth="0.0">
			<acc value="0.012899928641946" flag="0"/>
			<vel value="0.0082806654735213" flag="0"/>
			<psa03 value="0.0482709841741885" flag="0"/>
			<psa10 value="0.00498635563410462" flag="0"/>
			<psa30 value="0.000384568626825696" flag="0"/>
		</comp>
		<comp name="--.HNN" depth="0.0">
			<acc value="0.0103366746533226" flag="0"/>
			<vel value="0.00634623866743007" flag="0"/>
			<psa03 value="0.0290147840662307" flag="0"/>
			<psa10 value="0.00447325367486422" flag="0"/>
			<psa30 value="0.000708696010133811" flag="0"/>
		</comp>
		<comp name="--.HNZ" depth="0.0">
			<acc value="0.00398294085370798" flag="0"/>
			<vel value="0.00244830945447022" flag="0"/>
			<psa03 value="0.0188487225937024" flag="0"/>
			<psa10 value="0.00222148825644405" flag="0"/>
			<psa30 value="0.000323938594758775" flag="0"/>
		</comp>
	</station>
	<station code="RFHY" name="RFHY" netid="KO" source="Bogazici University Kandilli Observatory And Earthquake Research Institute (KOERI)" insttype="" lat="39.927" lon="38.833">
		<comp name="--.HNE" depth="0.0">
			<acc value="0.00267341171079765" flag="0"/>
			<vel value="0.00310681894647067" flag="0"/>
			<psa03 value="0.00844843596952394" flag="0"/>
			<psa10 value="0.00508763015551706" flag="0"/>
			<psa30 value="0.000490285812360786" flag="0"/>
		</comp>
		<comp name="--.HNN" depth="0.0">
			<acc value="0.00304714195252521" flag="0"/>
			<vel value="0.00341931178809825" flag="0"/>
			<psa03 value="0.00777556652543355" flag="0"/>
			<psa10 value="0.00761890158984673" flag="0"/>
			<psa30 value="0.000517265203781204" flag="0"/>
		</comp>
		<comp name="--.HNZ" depth="0.0">
			<acc value="0.00235615548725951" flag="0"/>
			<vel value="0.00165742831644717" flag="0"/>
			<psa03 value="0.00638621667531614" flag="0"/>
			<psa10 value="0.00262321486886131" flag="0"/>
			<psa30 value="0.000491470057479197" flag="0"/>
		</comp>
	</station>
	<station code="SINP" name="SINP" netid="KO" source="Bogazici University Kandilli Observatory And Earthquake Research Institute (KOERI)" insttype="" lat="41.9824" lon="35.0956">
		<comp name="--.HNE" depth="0.0">
			<acc value="0.024354437097068" flag="0"/>
			<vel value="0.00380798666688568" flag="0"/>
			<psa03 value="0.00824211240574685" flag="0"/>
			<psa10 value="0.00442328208324728" flag="0"/>
			<psa30 value="0.000546811067300072" flag="0"/>
		</comp>
		<comp name="--.HNN" depth="0.0">
			<acc value="0.0308117008099775" flag="0"/>
			<vel value="0.00344152166269152" flag="0"/>
			<psa03 value="0.00806241169936736" flag="0"/>
			<psa10 value="0.00325272993051833" flag="0"/>
			<psa30 value="0.000511486070940827" flag="0"/>
		</comp>
		<comp name="--.HNZ" depth="0.0">
			<acc value="0.0153585626671127" flag="0"/>
			<vel value="0.00212221542792113" flag="0"/>
			<psa03 value="0.00529182874780086" flag="0"/>
			<psa10 value="0.00259009033077167" flag="0"/>
			<psa30 value="0.000495265673504873" flag="0"/>
		</comp>
	</station>
	<station code="TOS" name="TOS" netid="KO" source="Bogazici University Kandilli Observatory And Earthquake Research Institute (KOERI)" insttype="" lat="41.0362" lon="34.0226">
		<comp name="--.HNE" depth="0.0">
			<acc value="0.000693151563204437" flag="0"/>
			<vel value="0.000822354448677804" flag="0"/>
			<psa03 value="0.00161276894740222" flag="0"/>
			<psa10 value="0.000638020800901852" flag="0"/>
			<psa30 value="0.0004676270717497" flag="0"/>
		</comp>
		<comp name="--.HNN" depth="0.0">
			<acc value="0.000839975484286824" flag="0"/>
			<vel value="0.00192880712941487" flag="0"/>
			<psa03 value="0.00187644038569425" flag="0"/>
			<psa10 value="0.00152045970736681" flag="0"/>
			<psa30 value="0.00155688396925601" flag="0"/>
		</comp>
		<comp name="--.HNZ" depth="0.0">
			<acc value="0.00100446666206973" flag="0"/>
			<vel value="0.000713924980748007" flag="0"/>
			<psa03 value="0.00407140642944324" flag="0"/>
			<psa10 value="0.000743986472954203" flag="0"/>
			<psa30 value="0.000376749671358595" flag="0"/>
		</comp>
	</station>
	<station code="TUNC" name="TUNC" netid="KO" source="Bogazici University Kandilli Observatory And Earthquake Research Institute (KOERI)" insttype="" lat="39.6942" lon="37.5388">
		<comp name="--.HNE" depth="0.0">
			<acc value="0.0197739946713965" flag="0"/>
			<vel value="0.00884385659167029" flag="0"/>
			<psa03 value="0.0554726852096841" flag="0"/>
			<psa10 value="0.00596203479928299" flag="0"/>
			<psa30 value="0.000583886127505517" flag="0"/>
		</comp>
		<comp name="--.HNN" depth="0.0">
			<acc value="0.0269173039008151" flag="0"/>
			<vel value="0.012209900150188" flag="0"/>
			<psa03 value="0.0812093745140621" flag="0"/>
			<psa10 value="0.00913544111563681" flag="0"/>
			<psa30 value="0.000647731086088791" flag="0"/>
		</comp>
		<comp name="--.HNZ" depth="0.0">
			<acc value="0.0144066716320017" flag="0"/>
			<vel value="0.00686425334507283" flag="0"/>
			<psa03 value="0.0520946176792698" flag="0"/>
			<psa10 value="0.00464329368915794" flag="0"/>
			<psa30 value="0.000634203002417643" flag="0"/>
		</comp>
	</station>
</stationlist>
