<?xml version="1.0" encoding="UTF-8" standalone="yes"?>
<!DOCTYPE earthquake SYSTEM "stationlist.dtd">
<stationlist created="" xmlns="ch.ethz.sed.shakemap.usgs.xml">
  <station code="ERBG" name="ERBG" netid="KO" insttype="CMG-5T" lat="40.712" lon="36.6768">
    <comp name="--.HNZ">
      <acc value="0.0888941347" flag="0"/>
      <vel value="0.0231590000" flag="0"/>
      <psa03 value="0.0984032549" flag="0"/>
      <psa10 value="0.0074872544" flag="0"/>
      <psa30 value="0.0004858218" flag="0"/>
    </comp>
    <comp name="--.HNE">
      <acc value="0.0599467893" flag="0"/>
      <vel value="0.0122113061" flag="0"/>
      <psa03 value="0.0825554901" flag="0"/>
      <psa10 value="0.0092761070" flag="0"/>
      <psa30 value="0.0005463374" flag="0"/>
    </comp>
    <comp name="--.HNN">
      <acc value="0.0663708126" flag="0"/>
      <vel value="0.0170101524" flag="0"/>
      <psa03 value="0.1134581948" flag="0"/>
      <psa10 value="0.0105684284" flag="0"/>
      <psa30 value="0.0009566876" flag="0"/>
    </comp>
  </station>
  <station code="TOKT" name="TOKT" netid="KO" insttype="120s," lat="40.3173" lon="36.5445">
    <comp name="--.HHN">
      <acc value="0.4714265331" flag="0"/>
      <vel value="0.1058100363" flag="0"/>
      <psa03 value="0.2519617423" flag="0"/>
      <psa10 value="0.0650722895" flag="0"/>
      <psa30 value="0.0046941294" flag="0"/>
    </comp>
    <comp name="--.HHE">
      <acc value="0.2949507551" flag="0"/>
      <vel value="0.0733569261" flag="0"/>
      <psa03 value="0.2316774523" flag="0"/>
      <psa10 value="0.0386956514" flag="0"/>
      <psa30 value="0.0022765913" flag="0"/>
    </comp>
    <comp name="--.HHZ">
      <acc value="0.3020044522" flag="0"/>
      <vel value="0.0634373749" flag="0"/>
      <psa03 value="0.2160460419" flag="0"/>
      <psa10 value="0.0237750839" flag="0"/>
      <psa30 value="0.0019654827" flag="0"/>
    </comp>
  </station>
  <station code="TUNC" name="TUNC" netid="KO" insttype="CMG-5T" lat="39.6942" lon="37.5388">
    <comp name="--.HNE">
      <acc value="0.0196664442" flag="0"/>
      <vel value="0.0087700889" flag="0"/>
      <psa03 value="0.0551219682" flag="0"/>
      <psa10 value="0.0059336657" flag="0"/>
      <psa30 value="0.0005173406" flag="0"/>
    </comp>
    <comp name="--.HNN">
      <acc value="0.0267533367" flag="0"/>
      <vel value="0.0120315502" flag="0"/>
      <psa03 value="0.0803039457" flag="0"/>
      <psa10 value="0.0091070798" flag="0"/>
      <psa30 value="0.0005705860" flag="0"/>
    </comp>
    <comp name="--.HNZ">
      <acc value="0.0144018993" flag="0"/>
      <vel value="0.0067359626" flag="0"/>
      <psa03 value="0.0522495503" flag="0"/>
      <psa10 value="0.0046727977" flag="0"/>
      <psa30 value="0.0005614064" flag="0"/>
    </comp>
  </station>
  <station code="YOZ" name="YOZ" netid="KO" insttype="360s," lat="39.6376" lon="35.3152">
    <comp name="--.HHE">
      <acc value="0.0344385560" flag="0"/>
      <vel value="0.0145528388" flag="0"/>
      <psa03 value="0.0670653842" flag="0"/>
      <psa10 value="0.0036501950" flag="0"/>
      <psa30 value="0.0003171287" flag="0"/>
    </comp>
    <comp name="--.HHN">
      <acc value="0.0208993241" flag="0"/>
      <vel value="0.0102739934" flag="0"/>
      <psa03 value="0.0611223644" flag="0"/>
      <psa10 value="0.0047257533" flag="0"/>
      <psa30 value="0.0003574133" flag="0"/>
    </comp>
    <comp name="--.HHZ">
      <acc value="0.0162387992" flag="0"/>
      <vel value="0.0049061097" flag="0"/>
      <psa03 value="0.0368804979" flag="0"/>
      <psa10 value="0.0016442289" flag="0"/>
      <psa30 value="0.0001279368" flag="0"/>
    </comp>
  </station>
</stationlist>
