<?xml version="1.0" encoding="UTF-8" standalone="yes"?>
<!DOCTYPE earthquake SYSTEM "stationlist.dtd">
<stationlist created="" xmlns="ch.ethz.sed.shakemap.usgs.xml">
  <station code="TOKT" name="TOKT" netid="KO" insttype="120s," lat="40.3173" lon="36.5445">
    <comp name="--.HHN">
      <acc value="0.4714265327" flag="0"/>
      <vel value="0.1058100362" flag="0"/>
      <psa03 value="0.2519617423" flag="0"/>
      <psa10 value="0.0650722859" flag="0"/>
      <psa30 value="0.0046941089" flag="0"/>
    </comp>
    <comp name="--.HHE">
      <acc value="0.2949507538" flag="0"/>
      <vel value="0.0733569263" flag="0"/>
      <psa03 value="0.2316774523" flag="0"/>
      <psa10 value="0.0386956530" flag="0"/>
      <psa30 value="0.0022765440" flag="0"/>
    </comp>
    <comp name="--.HHZ">
      <acc value="0.3020044516" flag="0"/>
      <vel value="0.0634373750" flag="0"/>
      <psa03 value="0.2160460419" flag="0"/>
      <psa10 value="0.0237750852" flag="0"/>
      <psa30 value="0.0019655227" flag="0"/>
    </comp>
  </station>
  <station code="TUNC" name="TUNC" netid="KO" insttype="CMG-5T" lat="39.6942" lon="37.5388">
    <comp name="--.HNE">
      <acc value="0.0196664506" flag="0"/>
      <vel value="0.0087701038" flag="0"/>
      <psa03 value="0.0551219682" flag="0"/>
      <psa10 value="0.0059336657" flag="0"/>
      <psa30 value="0.0005170207" flag="0"/>
    </comp>
    <comp name="--.HNZ">
      <acc value="0.0144018931" flag="0"/>
      <vel value="0.0067359735" flag="0"/>
      <psa03 value="0.0522495503" flag="0"/>
      <psa10 value="0.0046727975" flag="0"/>
      <psa30 value="0.0005610519" flag="0"/>
    </comp>
    <comp name="--.HNN">
      <acc value="0.0267533367" flag="0"/>
      <vel value="0.0120315498" flag="0"/>
      <psa03 value="0.0803039457" flag="0"/>
      <psa10 value="0.0091070800" flag="0"/>
      <psa30 value="0.0005708469" flag="0"/>
    </comp>
  </station>
  <station code="YOZ" name="YOZ" netid="KO" insttype="360s," lat="39.6376" lon="35.3152">
    <comp name="--.HHN">
      <acc value="0.0208993243" flag="0"/>
      <vel value="0.0102739935" flag="0"/>
      <psa03 value="0.0611223644" flag="0"/>
      <psa10 value="0.0047257533" flag="0"/>
      <psa30 value="0.0003573970" flag="0"/>
    </comp>
    <comp name="--.HHE">
      <acc value="0.0344385562" flag="0"/>
      <vel value="0.0145528383" flag="0"/>
      <psa03 value="0.0670653842" flag="0"/>
      <psa10 value="0.0036501949" flag="0"/>
      <psa30 value="0.0003169636" flag="0"/>
    </comp>
    <comp name="--.HHZ">
      <acc value="0.0162387988" flag="0"/>
      <vel value="0.0049061093" flag="0"/>
      <psa03 value="0.0368804979" flag="0"/>
      <psa10 value="0.0016442289" flag="0"/>
      <psa30 value="0.0001279677" flag="0"/>
    </comp>
  </station>
</stationlist>
