<?xml version="1.0" encoding="UTF-8" standalone="yes"?>
<!DOCTYPE earthquake SYSTEM "stationlist.dtd">
<stationlist created="" xmlns="ch.ethz.sed.shakemap.usgs.xml">
  <station code="CAYL" name="CAYL" netid="KO" insttype="CMG-6T" lat="40.3745" lon="36.159">
    <comp name="--.HHZ">
      <acc value="0.0066067916" flag="0"/>
      <vel value="0.0067858128" flag="0"/>
      <psa03 value="0.0175375707" flag="0"/>
      <psa10 value="0.0113715089" flag="0"/>
      <psa30 value="0.0003552095" flag="0"/>
    </comp>
    <comp name="--.HHN">
      <acc value="0.0099543111" flag="0"/>
      <vel value="0.0049468551" flag="0"/>
      <psa03 value="0.0159964008" flag="0"/>
      <psa10 value="0.0070969482" flag="0"/>
      <psa30 value="0.0004653052" flag="0"/>
    </comp>
    <comp name="--.HHE">
      <acc value="0.0103012842" flag="0"/>
      <vel value="0.0065519799" flag="0"/>
      <psa03 value="0.0279646234" flag="0"/>
      <psa10 value="0.0090790974" flag="0"/>
      <psa30 value="0.0004179354" flag="0"/>
    </comp>
  </station>
  <station code="CORM" name="CORM" netid="KO" insttype="CMG-3ESP" lat="40.1785" lon="34.6302">
    <comp name="--.HHE">
      <acc value="0.1059959641" flag="0"/>
      <vel value="0.0427461873" flag="0"/>
      <psa03 value="0.2267971177" flag="0"/>
      <psa10 value="0.0217640121" flag="0"/>
      <psa30 value="0.0015665775" flag="0"/>
    </comp>
    <comp name="--.HHZ">
      <acc value="0.1325140934" flag="0"/>
      <vel value="0.0485270424" flag="0"/>
      <psa03 value="0.1799357876" flag="0"/>
      <psa10 value="0.0194616442" flag="0"/>
      <psa30 value="0.0012901576" flag="0"/>
    </comp>
    <comp name="--.HHN">
      <acc value="0.1301653842" flag="0"/>
      <vel value="0.0423021531" flag="0"/>
      <psa03 value="0.2191482891" flag="0"/>
      <psa10 value="0.0260121212" flag="0"/>
      <psa30 value="0.0016742053" flag="0"/>
    </comp>
  </station>
  <station code="DIKM" name="DIKM" netid="KO" insttype="CMG-3T" lat="41.6497" lon="35.2578">
    <comp name="--.HHE">
      <acc value="0.0073044871" flag="0"/>
      <vel value="0.0038342515" flag="0"/>
      <psa03 value="0.0135950702" flag="0"/>
      <psa10 value="0.0066222607" flag="0"/>
      <psa30 value="0.0012787085" flag="0"/>
    </comp>
    <comp name="--.HHN">
      <acc value="0.0077834771" flag="0"/>
      <vel value="0.0043368383" flag="0"/>
      <psa03 value="0.0142937475" flag="0"/>
      <psa10 value="0.0066840118" flag="0"/>
      <psa30 value="0.0005499941" flag="0"/>
    </comp>
    <comp name="--.HHZ">
      <acc value="0.0059209426" flag="0"/>
      <vel value="0.0029926447" flag="0"/>
      <psa03 value="0.0118112828" flag="0"/>
      <psa10 value="0.0038724924" flag="0"/>
      <psa30 value="0.0005579915" flag="0"/>
    </comp>
  </station>
  <station code="KVT" name="KVT" netid="KO" insttype="CMG-3T" lat="41.0807" lon="36.0463">
    <comp name="--.HHE">
      <acc value="0.0102742583" flag="0"/>
      <vel value="0.0088143266" flag="0"/>
      <psa03 value="0.0142132568" flag="0"/>
      <psa10 value="0.0134356350" flag="0"/>
      <psa30 value="0.0008105499" flag="0"/>
    </comp>
    <comp name="--.HHZ">
      <acc value="0.0080174307" flag="0"/>
      <vel value="0.0064304941" flag="0"/>
      <psa03 value="0.0206512491" flag="0"/>
      <psa10 value="0.0070367113" flag="0"/>
      <psa30 value="0.0007730926" flag="0"/>
    </comp>
    <comp name="--.HHN">
      <acc value="0.0089498111" flag="0"/>
      <vel value="0.0057171244" flag="0"/>
      <psa03 value="0.0277072898" flag="0"/>
      <psa10 value="0.0066618902" flag="0"/>
      <psa30 value="0.0006831887" flag="0"/>
    </comp>
  </station>
  <station code="TOKT" name="TOKT" netid="KO" insttype="CMG-3T" lat="40.3173" lon="36.5443">
    <comp name="--.HHE">
      <acc value="0.0039084696" flag="0"/>
      <vel value="0.0039148225" flag="0"/>
      <psa03 value="0.0113313810" flag="0"/>
      <psa10 value="0.0069587383" flag="0"/>
      <psa30 value="0.0004742455" flag="0"/>
    </comp>
    <comp name="--.HHZ">
      <acc value="0.0009436548" flag="0"/>
      <vel value="0.0000681354" flag="0"/>
      <psa03 value="0.0000597604" flag="0"/>
      <psa10 value="0.0000125428" flag="0"/>
      <psa30 value="0.0000020704" flag="0"/>
    </comp>
    <comp name="--.HHN">
      <acc value="0.0050171619" flag="0"/>
      <vel value="0.0075520882" flag="0"/>
      <psa03 value="0.0139462489" flag="0"/>
      <psa10 value="0.0090877286" flag="0"/>
      <psa30 value="0.0017675357" flag="0"/>
    </comp>
  </station>
  <station code="TOS" name="TOS" netid="KO" insttype="CMG-5T" lat="41.0362" lon="34.0226">
    <comp name="--.HNN">
      <acc value="0.0139626989" flag="0"/>
      <vel value="0.0068297916" flag="0"/>
      <psa03 value="0.0235013657" flag="0"/>
      <psa10 value="0.0073186466" flag="0"/>
      <psa30 value="0.0009235129" flag="0"/>
    </comp>
    <comp name="--.HNE">
      <acc value="0.0113278659" flag="0"/>
      <vel value="0.0073584241" flag="0"/>
      <psa03 value="0.0277507060" flag="0"/>
      <psa10 value="0.0069417235" flag="0"/>
      <psa30 value="0.0008600131" flag="0"/>
    </comp>
    <comp name="--.HNZ">
      <acc value="0.0116496607" flag="0"/>
      <vel value="0.0029476415" flag="0"/>
      <psa03 value="0.0122151392" flag="0"/>
      <psa10 value="0.0046718347" flag="0"/>
      <psa30 value="0.0005292784" flag="0"/>
    </comp>
  </station>
  <station code="YOZ" name="YOZ" netid="KO" insttype="CMG-3T" lat="39.6376" lon="35.3152">
    <comp name="--.HHZ">
      <acc value="0.0377063775" flag="0"/>
      <vel value="0.0172636750" flag="0"/>
      <psa03 value="0.1191876616" flag="0"/>
      <psa10 value="0.0082878905" flag="0"/>
      <psa30 value="0.0004622495" flag="0"/>
    </comp>
    <comp name="--.HHN">
      <acc value="0.0607096131" flag="0"/>
      <vel value="0.0276410389" flag="0"/>
      <psa03 value="0.2003130445" flag="0"/>
      <psa10 value="0.0172792620" flag="0"/>
      <psa30 value="0.0009004328" flag="0"/>
    </comp>
    <comp name="--.HHE">
      <acc value="0.0638258863" flag="0"/>
      <vel value="0.0369909781" flag="0"/>
      <psa03 value="0.2099887062" flag="0"/>
      <psa10 value="0.0217631142" flag="0"/>
      <psa30 value="0.0015174514" flag="0"/>
    </comp>
  </station>
</stationlist>
