<?xml version="1.0" encoding="UTF-8" standalone="yes"?>
<!DOCTYPE earthquake SYSTEM "stationlist.dtd">
<stationlist created="" xmlns="ch.ethz.sed.shakemap.usgs.xml">
  <station code="MSL1" name="MSL1" netid="HI" insttype="CMG-5TD,ACCELEROMETER,GURALP" lat="38.3727" lon="21.4243">
    <comp name="--.HNN">
      <acc value="0.0759064764" flag="0"/>
      <vel value="0.0475837037" flag="0"/>
      <psa03 value="0.1991355812" flag="0"/>
      <psa10 value="0.0511782093" flag="0"/>
      <psa30 value="0.0018226540" flag="0"/>
    </comp>
    <comp name="--.HNZ">
      <acc value="0.0519004293" flag="0"/>
      <vel value="0.0146032952" flag="0"/>
      <psa03 value="0.0662988913" flag="0"/>
      <psa10 value="0.0218423424" flag="0"/>
      <psa30 value="0.0007527296" flag="0"/>
    </comp>
    <comp name="--.HNE">
      <acc value="0.0805047419" flag="0"/>
      <vel value="0.0316751506" flag="0"/>
      <psa03 value="0.1751639439" flag="0"/>
      <psa10 value="0.0412490868" flag="0"/>
      <psa30 value="0.0023216599" flag="0"/>
    </comp>
  </station>
  <station code="JAN" name="JAN" netid="HL" insttype="CMG3EPSC60_DR24" lat="39.6562" lon="20.8487">
    <comp name="--.HHN">
      <acc value="0.0077348274" flag="0"/>
      <vel value="0.0052044706" flag="0"/>
      <psa03 value="0.0160092879" flag="0"/>
      <psa10 value="0.0089866561" flag="0"/>
      <psa30 value="0.0004293728" flag="0"/>
    </comp>
    <comp name="--.HHZ">
      <acc value="0.0051473205" flag="0"/>
      <vel value="0.0051413273" flag="0"/>
      <psa03 value="0.0111187804" flag="0"/>
      <psa10 value="0.0095794847" flag="0"/>
      <psa30 value="0.0005492888" flag="0"/>
    </comp>
    <comp name="--.HHE">
      <acc value="0.0117380773" flag="0"/>
      <vel value="0.0119909468" flag="0"/>
      <psa03 value="0.0262927494" flag="0"/>
      <psa10 value="0.0239735990" flag="0"/>
      <psa30 value="0.0012832923" flag="0"/>
    </comp>
  </station>
  <station code="TETR" name="TETR" netid="HL" insttype="60" lat="39.3445" lon="21.2747">
    <comp name="--.HHE">
      <acc value="0.0157617568" flag="0"/>
      <vel value="0.0097108965" flag="0"/>
      <psa03 value="0.0427407955" flag="0"/>
      <psa10 value="0.0126065676" flag="0"/>
      <psa30 value="0.0007941204" flag="0"/>
    </comp>
    <comp name="--.HHN">
      <acc value="0.0141854105" flag="0"/>
      <vel value="0.0069713969" flag="0"/>
      <psa03 value="0.0340430923" flag="0"/>
      <psa10 value="0.0066912484" flag="0"/>
      <psa30 value="0.0008443607" flag="0"/>
    </comp>
    <comp name="--.HHZ">
      <acc value="0.0069665286" flag="0"/>
      <vel value="0.0041693390" flag="0"/>
      <psa03 value="0.0129389961" flag="0"/>
      <psa10 value="0.0090818362" flag="0"/>
      <psa30 value="0.0005339477" flag="0"/>
    </comp>
  </station>
  <station code="VLS" name="VLS" netid="HL" insttype="120P," lat="38.1768" lon="20.5886">
    <comp name="--.HHN">
      <acc value="0.0300614291" flag="0"/>
      <vel value="0.0088060759" flag="0"/>
      <psa03 value="0.0280171776" flag="0"/>
      <psa10 value="0.0050331459" flag="0"/>
      <psa30 value="0.0003920595" flag="0"/>
    </comp>
    <comp name="--.HHE">
      <acc value="0.0426118496" flag="0"/>
      <vel value="0.0152682896" flag="0"/>
      <psa03 value="0.0476881826" flag="0"/>
      <psa10 value="0.0075006518" flag="0"/>
      <psa30 value="0.0004114567" flag="0"/>
    </comp>
    <comp name="--.HHZ">
      <acc value="0.0206597897" flag="0"/>
      <vel value="0.0083370569" flag="0"/>
      <psa03 value="0.0206623197" flag="0"/>
      <psa10 value="0.0051231567" flag="0"/>
      <psa30 value="0.0003265058" flag="0"/>
    </comp>
  </station>
  <station code="AMPL" name="AMPL" netid="HP" insttype="Compact," lat="38.9224" lon="21.2135">
    <comp name="--.HHN">
      <acc value="0.0659817686" flag="0"/>
      <vel value="0.0116051287" flag="0"/>
      <psa03 value="0.0443025575" flag="0"/>
      <psa10 value="0.0205665440" flag="0"/>
      <psa30 value="0.0012328514" flag="0"/>
    </comp>
    <comp name="--.HHE">
      <acc value="0.0559044890" flag="0"/>
      <vel value="0.0150809521" flag="0"/>
      <psa03 value="0.0564562937" flag="0"/>
      <psa10 value="0.0086455751" flag="0"/>
      <psa30 value="0.0004670442" flag="0"/>
    </comp>
    <comp name="--.HHZ">
      <acc value="0.0206989062" flag="0"/>
      <vel value="0.0071868397" flag="0"/>
      <psa03 value="0.0215642623" flag="0"/>
      <psa10 value="0.0058047629" flag="0"/>
      <psa30 value="0.0004150807" flag="0"/>
    </comp>
  </station>
  <station code="FSK" name="FSK" netid="HP" insttype="40," lat="38.4593" lon="20.5623">
    <comp name="--.HHE">
      <acc value="0.0652001712" flag="0"/>
      <vel value="0.0189922031" flag="0"/>
      <psa03 value="0.0855233813" flag="0"/>
      <psa10 value="0.0098951902" flag="0"/>
      <psa30 value="0.0008270179" flag="0"/>
    </comp>
    <comp name="--.HHN">
      <acc value="0.0242618326" flag="0"/>
      <vel value="0.0105000907" flag="0"/>
      <psa03 value="0.0341723093" flag="0"/>
      <psa10 value="0.0093781206" flag="0"/>
      <psa30 value="0.0004892315" flag="0"/>
    </comp>
    <comp name="--.HHZ">
      <acc value="0.0204114205" flag="0"/>
      <vel value="0.0072906616" flag="0"/>
      <psa03 value="0.0277475073" flag="0"/>
      <psa10 value="0.0073053074" flag="0"/>
      <psa30 value="0.0003700650" flag="0"/>
    </comp>
  </station>
  <station code="KSTR" name="KSTR" netid="HP" insttype="Compact," lat="39.2492" lon="20.576">
    <comp name="--.HHE">
      <acc value="0.0247881726" flag="0"/>
      <vel value="0.0079841825" flag="0"/>
      <psa03 value="0.0406937820" flag="0"/>
      <psa10 value="0.0144183030" flag="0"/>
      <psa30 value="0.0010326850" flag="0"/>
    </comp>
    <comp name="--.HHN">
      <acc value="0.0194057324" flag="0"/>
      <vel value="0.0073420286" flag="0"/>
      <psa03 value="0.0253023672" flag="0"/>
      <psa10 value="0.0093084796" flag="0"/>
      <psa30 value="0.0005879277" flag="0"/>
    </comp>
    <comp name="--.HHZ">
      <acc value="0.0164264146" flag="0"/>
      <vel value="0.0061016727" flag="0"/>
      <psa03 value="0.0166691579" flag="0"/>
      <psa10 value="0.0109923768" flag="0"/>
      <psa30 value="0.0007624402" flag="0"/>
    </comp>
  </station>
  <station code="PDO" name="PDO" netid="HP" insttype="120s" lat="38.5986" lon="21.1833">
    <comp name="--.HHN">
      <acc value="0.0460953421" flag="0"/>
      <vel value="0.0158846244" flag="0"/>
      <psa03 value="0.0746494308" flag="0"/>
      <psa10 value="0.0194131996" flag="0"/>
      <psa30 value="0.0009566381" flag="0"/>
    </comp>
    <comp name="--.HHE">
      <acc value="0.0364702326" flag="0"/>
      <vel value="0.0149113914" flag="0"/>
      <psa03 value="0.0737030255" flag="0"/>
      <psa10 value="0.0167531836" flag="0"/>
      <psa30 value="0.0008128551" flag="0"/>
    </comp>
    <comp name="--.HHZ">
      <acc value="0.0332176312" flag="0"/>
      <vel value="0.0090547065" flag="0"/>
      <psa03 value="0.0372586630" flag="0"/>
      <psa10 value="0.0048992544" flag="0"/>
      <psa30 value="0.0006496347" flag="0"/>
    </comp>
  </station>
  <station code="PLEV" name="PLEV" netid="HP" insttype="Compact," lat="38.4124" lon="21.4073">
    <comp name="--.HHN">
      <acc value="0.0244626287" flag="0"/>
      <vel value="0.0083598806" flag="0"/>
      <psa03 value="0.0317347901" flag="0"/>
      <psa10 value="0.0096239467" flag="0"/>
      <psa30 value="0.0004575308" flag="0"/>
    </comp>
    <comp name="--.HHZ">
      <acc value="0.0197813029" flag="0"/>
      <vel value="0.0057013921" flag="0"/>
      <psa03 value="0.0247649906" flag="0"/>
      <psa10 value="0.0037040547" flag="0"/>
      <psa30 value="0.0002688107" flag="0"/>
    </comp>
    <comp name="--.HHE">
      <acc value="0.0201880260" flag="0"/>
      <vel value="0.0095287892" flag="0"/>
      <psa03 value="0.0302191508" flag="0"/>
      <psa10 value="0.0108927319" flag="0"/>
      <psa30 value="0.0006796816" flag="0"/>
    </comp>
  </station>
  <station code="PRMD" name="PRMD" netid="HP" insttype="120P," lat="39.5299" lon="21.0965">
    <comp name="--.HHE">
      <acc value="0.0097103609" flag="0"/>
      <vel value="0.0076384841" flag="0"/>
      <psa03 value="0.0151054437" flag="0"/>
      <psa10 value="0.0124911992" flag="0"/>
      <psa30 value="0.0006372167" flag="0"/>
    </comp>
    <comp name="--.HHN">
      <acc value="0.0063180748" flag="0"/>
      <vel value="0.0060018456" flag="0"/>
      <psa03 value="0.0131259966" flag="0"/>
      <psa10 value="0.0088815233" flag="0"/>
      <psa30 value="0.0007810189" flag="0"/>
    </comp>
    <comp name="--.HHZ">
      <acc value="0.0040257258" flag="0"/>
      <vel value="0.0039017466" flag="0"/>
      <psa03 value="0.0106891575" flag="0"/>
      <psa10 value="0.0055954008" flag="0"/>
      <psa30 value="0.0004041707" flag="0"/>
    </comp>
  </station>
  <station code="PVO" name="PVO" netid="HP" insttype="120P," lat="38.616" lon="21.525">
    <comp name="--.HHE">
      <acc value="0.0405440974" flag="0"/>
      <vel value="0.0140281926" flag="0"/>
      <psa03 value="0.1083878468" flag="0"/>
      <psa10 value="0.0067066685" flag="0"/>
      <psa30 value="0.0006012639" flag="0"/>
    </comp>
    <comp name="--.HHZ">
      <acc value="0.0307348374" flag="0"/>
      <vel value="0.0077913220" flag="0"/>
      <psa03 value="0.0419790476" flag="0"/>
      <psa10 value="0.0057481662" flag="0"/>
      <psa30 value="0.0004533014" flag="0"/>
    </comp>
    <comp name="--.HHN">
      <acc value="0.0368623425" flag="0"/>
      <vel value="0.0166669337" flag="0"/>
      <psa03 value="0.1100875918" flag="0"/>
      <psa10 value="0.0100388140" flag="0"/>
      <psa30 value="0.0014064333" flag="0"/>
    </comp>
  </station>
  <station code="DRAG" name="DRAG" netid="HT" insttype="30s-100Hz," lat="38.6839" lon="20.5746">
    <comp name="--.HHZ">
      <acc value="0.2200666597" flag="0"/>
      <vel value="0.0610365347" flag="0"/>
      <psa03 value="0.2733356692" flag="0"/>
      <psa10 value="0.0332765632" flag="0"/>
      <psa30 value="0.0024140388" flag="0"/>
    </comp>
    <comp name="--.HHN">
      <acc value="0.3946053154" flag="0"/>
      <vel value="0.0976445616" flag="0"/>
      <psa03 value="0.8724059481" flag="0"/>
      <psa10 value="0.0926820306" flag="0"/>
      <psa30 value="0.0043588661" flag="0"/>
    </comp>
    <comp name="--.HHE">
      <acc value="0.3844384035" flag="0"/>
      <vel value="0.1695537986" flag="0"/>
      <psa03 value="1.2994375211" flag="0"/>
      <psa10 value="0.1401040497" flag="0"/>
      <psa30 value="0.0066057707" flag="0"/>
    </comp>
  </station>
  <station code="EVGI" name="EVGI" netid="HT" insttype="30" lat="38.621" lon="20.656">
    <comp name="--.HHE">
      <acc value="0.4029574229" flag="0"/>
      <vel value="0.0999409776" flag="0"/>
      <psa03 value="0.4077538579" flag="0"/>
      <psa10 value="0.0396030141" flag="0"/>
      <psa30 value="0.0025488083" flag="0"/>
    </comp>
    <comp name="--.HHN">
      <acc value="0.3516012399" flag="0"/>
      <vel value="0.1045971116" flag="0"/>
      <psa03 value="0.3143325940" flag="0"/>
      <psa10 value="0.0319811489" flag="0"/>
      <psa30 value="0.0024360576" flag="0"/>
    </comp>
    <comp name="--.HHZ">
      <acc value="0.3029376725" flag="0"/>
      <vel value="0.0676859884" flag="0"/>
      <psa03 value="0.2477551863" flag="0"/>
      <psa10 value="0.0229761810" flag="0"/>
      <psa30 value="0.0016650874" flag="0"/>
    </comp>
  </station>
  <station code="IGT" name="IGT" netid="HT" insttype="100" lat="39.5315" lon="20.3299">
    <comp name="--.HHN">
      <acc value="0.0083940244" flag="0"/>
      <vel value="0.0034159691" flag="0"/>
      <psa03 value="0.0193544795" flag="0"/>
      <psa10 value="0.0038640736" flag="0"/>
      <psa30 value="0.0005278856" flag="0"/>
    </comp>
    <comp name="--.HHE">
      <acc value="0.0068052914" flag="0"/>
      <vel value="0.0032237139" flag="0"/>
      <psa03 value="0.0196396407" flag="0"/>
      <psa10 value="0.0058878778" flag="0"/>
      <psa30 value="0.0006261483" flag="0"/>
    </comp>
    <comp name="--.HHZ">
      <acc value="0.0058878886" flag="0"/>
      <vel value="0.0030073466" flag="0"/>
      <psa03 value="0.0134211708" flag="0"/>
      <psa10 value="0.0028648940" flag="0"/>
      <psa30 value="0.0003267407" flag="0"/>
    </comp>
  </station>
  <station code="LKD2" name="LKD2" netid="HT" insttype="100" lat="38.7889" lon="20.6578">
    <comp name="--.HHE">
      <acc value="0.6295724956" flag="0"/>
      <vel value="0.2035877649" flag="0"/>
      <psa03 value="0.7117612519" flag="0"/>
      <psa10 value="0.1143190580" flag="0"/>
      <psa30 value="0.0083076560" flag="0"/>
    </comp>
    <comp name="--.HHN">
      <acc value="0.6331589522" flag="0"/>
      <vel value="0.1368642721" flag="0"/>
      <psa03 value="0.7606775474" flag="0"/>
      <psa10 value="0.0912167772" flag="0"/>
      <psa30 value="0.0071135556" flag="0"/>
    </comp>
    <comp name="--.HHZ">
      <acc value="0.2080956165" flag="0"/>
      <vel value="0.0745214561" flag="0"/>
      <psa03 value="0.4071015430" flag="0"/>
      <psa10 value="0.0594710611" flag="0"/>
      <psa30 value="0.0037158285" flag="0"/>
    </comp>
  </station>
  <station code="NYDR" name="NYDR" netid="HT" insttype="1s-100Hz," lat="38.7135" lon="20.6983">
    <comp name="--.HHE">
      <acc value="0.4011627880" flag="0"/>
      <vel value="0.0735924831" flag="0"/>
      <psa03 value="0.1844004503" flag="0"/>
      <psa10 value="0.0584803851" flag="0"/>
      <psa30 value="0.0039002711" flag="0"/>
    </comp>
    <comp name="--.HHN">
      <acc value="0.5850258338" flag="0"/>
      <vel value="0.1847363436" flag="0"/>
      <psa03 value="0.5758722960" flag="0"/>
      <psa10 value="0.0636102255" flag="0"/>
      <psa30 value="0.0044107497" flag="0"/>
    </comp>
    <comp name="--.HHZ">
      <acc value="0.3698355896" flag="0"/>
      <vel value="0.0540801775" flag="0"/>
      <psa03 value="0.1975835210" flag="0"/>
      <psa10 value="0.0400919115" flag="0"/>
      <psa30 value="0.0027066127" flag="0"/>
    </comp>
  </station>
  <station code="TSLK" name="TSLK" netid="HT" insttype="1s-100Hz," lat="38.8249" lon="20.6554">
    <comp name="--.HHN">
      <acc value="1.5417871469" flag="0"/>
      <vel value="0.4158935951" flag="0"/>
      <psa03 value="1.6168561244" flag="0"/>
      <psa10 value="0.2825491825" flag="0"/>
      <psa30 value="0.0180934574" flag="0"/>
    </comp>
    <comp name="--.HHE">
      <acc value="1.5078281223" flag="0"/>
      <vel value="0.4255033861" flag="0"/>
      <psa03 value="1.8233984091" flag="0"/>
      <psa10 value="0.1771506521" flag="0"/>
      <psa30 value="0.0172527085" flag="0"/>
    </comp>
    <comp name="--.HHZ">
      <acc value="0.5897033850" flag="0"/>
      <vel value="0.1429761346" flag="0"/>
      <psa03 value="0.5559437607" flag="0"/>
      <psa10 value="0.0752819354" flag="0"/>
      <psa30 value="0.0071963685" flag="0"/>
    </comp>
  </station>
</stationlist>
