<?xml version="1.0" encoding="UTF-8" standalone="yes"?>
<!DOCTYPE earthquake SYSTEM "stationlist.dtd">
<stationlist created="" xmlns="ch.ethz.sed.shakemap.usgs.xml">
  <station code="PYL1" name="PYL1" netid="HI" source="NOA" insttype="CMG-5TD,ACCELEROMETER,GURALP" lat="36.9142" lon="21.6952">
    <comp name="--.HNE">
      <acc value="0.2419999953" flag="0"/>
      <vel value="0.2036201547" flag="0"/>
      <psa03 value="0.7112701589" flag="0"/>
      <psa10 value="0.1985587120" flag="0"/>
      <psa30 value="0.0235117820" flag="0"/>
    </comp>
    <comp name="--.HNN">
      <acc value="0.2752690669" flag="0"/>
      <vel value="0.1673803807" flag="0"/>
      <psa03 value="1.0209120645" flag="0"/>
      <psa10 value="0.1777031023" flag="0"/>
      <psa30 value="0.0350363566" flag="0"/>
    </comp>
    <comp name="--.HNZ">
      <acc value="0.1626979045" flag="0"/>
      <vel value="0.0770541987" flag="0"/>
      <psa03 value="0.4551103945" flag="0"/>
      <psa10 value="0.0882735006" flag="0"/>
      <psa30 value="0.0197103744" flag="0"/>
    </comp>
  </station>
  <station code="ITM" name="ITM" netid="HL" source="NOA" insttype="DR24" lat="37.1787" lon="21.9252">
    <comp name="--.HHE">
      <acc value="0.1037344212" flag="0"/>
      <vel value="0.0642014543" flag="0"/>
      <psa03 value="0.2981307034" flag="0"/>
      <psa10 value="0.0967707171" flag="0"/>
      <psa30 value="0.0158790385" flag="0"/>
    </comp>
    <comp name="--.HHN">
      <acc value="0.1577605152" flag="0"/>
      <vel value="0.0810321360" flag="0"/>
      <psa03 value="0.3378061502" flag="0"/>
      <psa10 value="0.0715532229" flag="0"/>
      <psa30 value="0.0147930218" flag="0"/>
    </comp>
    <comp name="--.HHZ">
      <acc value="0.0845122473" flag="0"/>
      <vel value="0.0657971242" flag="0"/>
      <psa03 value="0.2959056812" flag="0"/>
      <psa10 value="0.0642655556" flag="0"/>
      <psa30 value="0.0110096488" flag="0"/>
    </comp>
  </station>
  <station code="MNVA" name="MNVA" netid="HL" source="NOA" insttype="CMG-5" lat="36.6871" lon="23.0373">
    <comp name="00.HNE">
      <acc value="0.0080002456" flag="0"/>
      <vel value="0.0113733038" flag="0"/>
      <psa03 value="0.0201973348" flag="0"/>
      <psa10 value="0.0112103289" flag="0"/>
      <psa30 value="0.0034717691" flag="0"/>
    </comp>
    <comp name="00.HNN">
      <acc value="0.0075580235" flag="0"/>
      <vel value="0.0066312665" flag="0"/>
      <psa03 value="0.0261646371" flag="0"/>
      <psa10 value="0.0111169921" flag="0"/>
      <psa30 value="0.0019283199" flag="0"/>
    </comp>
    <comp name="00.HNZ">
      <acc value="0.0103393733" flag="0"/>
      <vel value="0.0076872809" flag="0"/>
      <psa03 value="0.0228833777" flag="0"/>
      <psa10 value="0.0104496391" flag="0"/>
      <psa30 value="0.0025581039" flag="0"/>
    </comp>
  </station>
  <station code="RLS" name="RLS" netid="HL" source="NOA" insttype="120" lat="38.0559" lon="21.4647">
    <comp name="--.HHE">
      <acc value="0.0164746384" flag="0"/>
      <vel value="0.0248443397" flag="0"/>
      <psa03 value="0.0504552357" flag="0"/>
      <psa10 value="0.0685924568" flag="0"/>
      <psa30 value="0.0053681806" flag="0"/>
    </comp>
    <comp name="--.HHN">
      <acc value="0.0249227661" flag="0"/>
      <vel value="0.0320522785" flag="0"/>
      <psa03 value="0.0496185195" flag="0"/>
      <psa10 value="0.0413998768" flag="0"/>
      <psa30 value="0.0038420388" flag="0"/>
    </comp>
    <comp name="--.HHZ">
      <acc value="0.0133994087" flag="0"/>
      <vel value="0.0184916244" flag="0"/>
      <psa03 value="0.0265230656" flag="0"/>
      <psa10 value="0.0292960982" flag="0"/>
      <psa30 value="0.0057156973" flag="0"/>
    </comp>
  </station>
  <station code="VLI" name="VLI" netid="HL" source="NOA" insttype="60" lat="36.718" lon="22.9469">
    <comp name="--.HHE">
      <acc value="0.0302703677" flag="0"/>
      <vel value="0.0308270316" flag="0"/>
      <psa03 value="0.0562053801" flag="0"/>
      <psa10 value="0.0382164615" flag="0"/>
      <psa30 value="0.0026161151" flag="0"/>
    </comp>
    <comp name="--.HHN">
      <acc value="0.0195130832" flag="0"/>
      <vel value="0.0208623816" flag="0"/>
      <psa03 value="0.0605527815" flag="0"/>
      <psa10 value="0.0494197258" flag="0"/>
      <psa30 value="0.0041022098" flag="0"/>
    </comp>
    <comp name="--.HHZ">
      <acc value="0.0197738944" flag="0"/>
      <vel value="0.0124953632" flag="0"/>
      <psa03 value="0.0471898356" flag="0"/>
      <psa10 value="0.0100903081" flag="0"/>
      <psa30 value="0.0011316526" flag="0"/>
    </comp>
  </station>
  <station code="AMT" name="AMT" netid="HP" source="NOA" insttype="CMG-3T," lat="37.5324" lon="21.7089">
    <comp name="00.HHE">
      <acc value="0.1480965081" flag="0"/>
      <vel value="0.1318357238" flag="0"/>
      <psa03 value="0.3463846524" flag="0"/>
      <psa10 value="0.1942553970" flag="0"/>
      <psa30 value="0.0120338342" flag="0"/>
    </comp>
    <comp name="00.HHN">
      <acc value="0.1426817674" flag="0"/>
      <vel value="0.1407088264" flag="0"/>
      <psa03 value="0.5059100760" flag="0"/>
      <psa10 value="0.2089335881" flag="0"/>
      <psa30 value="0.0091848360" flag="0"/>
    </comp>
    <comp name="00.HHZ">
      <acc value="0.0735961170" flag="0"/>
      <vel value="0.0719212119" flag="0"/>
      <psa03 value="0.2616081685" flag="0"/>
      <psa10 value="0.0818910441" flag="0"/>
      <psa30 value="0.0058244908" flag="0"/>
    </comp>
  </station>
  <station code="PYL" name="PYL" netid="HP" source="NOA" insttype="120s" lat="36.8955" lon="21.742">
    <comp name="--.HHE">
      <acc value="0.2921050659" flag="0"/>
      <vel value="0.1389848521" flag="0"/>
      <psa03 value="0.7541697669" flag="0"/>
      <psa10 value="0.0987027444" flag="0"/>
      <psa30 value="0.0173798555" flag="0"/>
    </comp>
    <comp name="--.HHN">
      <acc value="0.0149608696" flag="0"/>
      <vel value="0.0088832910" flag="0"/>
      <psa03 value="0.0284323925" flag="0"/>
      <psa10 value="0.0052620795" flag="0"/>
      <psa30 value="0.0008849697" flag="0"/>
    </comp>
    <comp name="--.HHZ">
      <acc value="0.0117098820" flag="0"/>
      <vel value="0.0049945826" flag="0"/>
      <psa03 value="0.0256821569" flag="0"/>
      <psa10 value="0.0040216274" flag="0"/>
      <psa30 value="0.0005358754" flag="0"/>
    </comp>
  </station>
  <station code="KLV" name="KLV" netid="MN" source="INGV" insttype="" lat="38.0437" lon="22.1504">
    <comp name="--.HHE">
      <acc value="0.0136797281" flag="0"/>
      <vel value="0.0168818462" flag="0"/>
      <psa03 value="0.0233543507" flag="0"/>
      <psa10 value="0.0206599227" flag="0"/>
      <psa30 value="0.0046145743" flag="0"/>
    </comp>
    <comp name="--.HHN">
      <acc value="0.0102486876" flag="0"/>
      <vel value="0.0170994654" flag="0"/>
      <psa03 value="0.0267755980" flag="0"/>
      <psa10 value="0.0315086158" flag="0"/>
      <psa30 value="0.0040693716" flag="0"/>
    </comp>
    <comp name="--.HHZ">
      <acc value="0.0179130407" flag="0"/>
      <vel value="0.0181077623" flag="0"/>
      <psa03 value="0.0417951153" flag="0"/>
      <psa10 value="0.0240895862" flag="0"/>
      <psa30 value="0.0038504323" flag="0"/>
    </comp>
  </station>
</stationlist>
