<stationlist xmlns:esm="https://esm-db.eu/esmws/shakemap/1/" created="1783994221">
	<station code="ROD3" name="ROD3" netid="CL" source="Corinth Riff Laboratory (CRLNET)" insttype="" lat="38.30811" lon="21.89204" esm:processing="manual (Paolucci et al 2011)" esm:quality="good">
		<comp name="00.HNE" depth="0.0">
			<acc value="0.0291179755087734" flag="0"/>
			<vel value="0.0306649437364496" flag="0"/>
			<psa03 value="0.13436084647467" flag="0"/>
			<psa10 value="0.0619281356024161" flag="0"/>
			<psa30 value="0.00483484284717044" flag="0"/>
		</comp>
		<comp name="00.HNN" depth="0.0">
			<acc value="0.0281987803882609" flag="0"/>
			<vel value="0.0230577483680358" flag="0"/>
			<psa03 value="0.0877394671784309" flag="0"/>
			<psa10 value="0.0362935357425435" flag="0"/>
			<psa30 value="0.00475609656352229" flag="0"/>
		</comp>
		<comp name="00.HNZ" depth="0.0">
			<acc value="0.0158832119506279" flag="0"/>
			<vel value="0.0210554693718726" flag="0"/>
			<psa03 value="0.0327960374511932" flag="0"/>
			<psa10 value="0.0282640993428284" flag="0"/>
			<psa30 value="0.0044424536951282" flag="0"/>
		</comp>
	</station>
	<station code="ARG2" name="ARG2" netid="HI" source="ITSAK Strong Motion Network" insttype="" lat="38.1783" lon="20.4878" esm:processing="manual (Paolucci et al 2011)" esm:quality="best">
		<comp name="--.HNE" depth="0.0">
			<acc value="0.03602082270051" flag="0"/>
			<vel value="0.025447258552089" flag="0"/>
			<psa03 value="0.108320882222836" flag="0"/>
			<psa10 value="0.0387982044690343" flag="0"/>
			<psa30 value="0.00345544061712913" flag="0"/>
		</comp>
		<comp name="--.HNN" depth="0.0">
			<acc value="0.0383902533301541" flag="0"/>
			<vel value="0.030328360385911" flag="0"/>
			<psa03 value="0.0852339036078077" flag="0"/>
			<psa10 value="0.0660314433713778" flag="0"/>
			<psa30 value="0.00322278114271411" flag="0"/>
		</comp>
		<comp name="--.HNZ" depth="0.0">
			<acc value="0.0202910696091567" flag="0"/>
			<vel value="0.0137079756752496" flag="0"/>
			<psa03 value="0.088902764550506" flag="0"/>
			<psa10 value="0.0180521381042741" flag="0"/>
			<psa30 value="0.00346886327911461" flag="0"/>
		</comp>
	</station>
	<station code="ARS1" name="ARS1" netid="HI" source="ITSAK Strong Motion Network" insttype="" lat="37.6349" lon="22.7293" esm:processing="manual (Paolucci et al 2011)" esm:quality="bad">
		<comp name="--.HNE" depth="0.0">
			<acc value="0.0311173894225741" flag="0"/>
			<vel value="0.0372607642783525" flag="0"/>
			<psa03 value="0.0692609358450847" flag="0"/>
			<psa10 value="0.0532785722189718" flag="0"/>
			<psa30 value="0.00654802193858407" flag="0"/>
		</comp>
		<comp name="--.HNN" depth="0.0">
			<acc value="0.0317116154983775" flag="0"/>
			<vel value="0.0381553744762997" flag="0"/>
			<psa03 value="0.100669964891111" flag="0"/>
			<psa10 value="0.0541523875142267" flag="0"/>
			<psa30 value="0.0063842654623612" flag="0"/>
		</comp>
		<comp name="--.HNZ" depth="0.0">
			<acc value="0.0209264917258782" flag="0"/>
			<vel value="0.0153983971640781" flag="0"/>
			<psa03 value="0.0595518770089197" flag="0"/>
			<psa10 value="0.0167112141719245" flag="0"/>
			<psa30 value="0.00528942366641209" flag="0"/>
		</comp>
	</station>
	<station code="KLV1" name="KLV1" netid="HI" source="ITSAK Strong Motion Network" insttype="" lat="38.03256" lon="22.10797" esm:processing="manual (Paolucci et al 2011)" esm:quality="best">
		<comp name="--.HNE" depth="0.0">
			<acc value="0.0347683647545186" flag="0"/>
			<vel value="0.0367675824519586" flag="0"/>
			<psa03 value="0.0938691494851342" flag="0"/>
			<psa10 value="0.048587351855046" flag="0"/>
			<psa30 value="0.00512700945638776" flag="0"/>
		</comp>
		<comp name="--.HNN" depth="0.0">
			<acc value="0.0347285705182752" flag="0"/>
			<vel value="0.0297070649302139" flag="0"/>
			<psa03 value="0.0827730822438028" flag="0"/>
			<psa10 value="0.0499564633775651" flag="0"/>
			<psa30 value="0.00527644842649279" flag="0"/>
		</comp>
		<comp name="--.HNZ" depth="0.0">
			<acc value="0.0159800377083445" flag="0"/>
			<vel value="0.0195774379682472" flag="0"/>
			<psa03 value="0.03391459261665" flag="0"/>
			<psa10 value="0.035709649946175" flag="0"/>
			<psa30 value="0.00280175697843618" flag="0"/>
		</comp>
	</station>
	<station code="MSL1" name="MSL1" netid="HI" source="ITSAK Strong Motion Network" insttype="" lat="38.3727" lon="21.4243" esm:processing="manual (Paolucci et al 2011)" esm:quality="bad">
		<comp name="--.HNE" depth="0.0">
			<acc value="0.0463536861878722" flag="0"/>
			<vel value="0.0766732299041997" flag="0"/>
			<psa03 value="0.0681423806796279" flag="0"/>
			<psa10 value="0.151995539791196" flag="0"/>
			<psa30 value="0.0154852777105839" flag="0"/>
		</comp>
		<comp name="--.HNN" depth="0.0">
			<acc value="0.0472519762613044" flag="0"/>
			<vel value="0.0720906171397182" flag="0"/>
			<psa03 value="0.0885448268975598" flag="0"/>
			<psa10 value="0.164168551945829" flag="0"/>
			<psa30 value="0.0165765401300035" flag="0"/>
		</comp>
		<comp name="--.HNZ" depth="0.0">
			<acc value="0.0195518041860392" flag="0"/>
			<vel value="0.0290038610424861" flag="0"/>
			<psa03 value="0.0313195446327902" flag="0"/>
			<psa10 value="0.0524168373195039" flag="0"/>
			<psa30 value="0.00518920112358716" flag="0"/>
		</comp>
	</station>
	<station code="NPS1" name="NPS1" netid="HI" source="ITSAK Strong Motion Network" insttype="" lat="36.51263" lon="23.06248" esm:processing="manual (Paolucci et al 2011)" esm:quality="best">
		<comp name="--.HNE" depth="0.0">
			<acc value="0.0358684070503061" flag="0"/>
			<vel value="0.0277703187061429" flag="0"/>
			<psa03 value="0.106173256305159" flag="0"/>
			<psa10 value="0.0408277109612392" flag="0"/>
			<psa30 value="0.002987437135902" flag="0"/>
		</comp>
		<comp name="--.HNN" depth="0.0">
			<acc value="0.0358310821612594" flag="0"/>
			<vel value="0.0225314168865474" flag="0"/>
			<psa03 value="0.107336553677234" flag="0"/>
			<psa10 value="0.0401793963873404" flag="0"/>
			<psa30 value="0.00399279451861457" flag="0"/>
		</comp>
		<comp name="--.HNZ" depth="0.0">
			<acc value="0.0207226839355244" flag="0"/>
			<vel value="0.0127497239335712" flag="0"/>
			<psa03 value="0.0681423806796279" flag="0"/>
			<psa10 value="0.0127609247495973" flag="0"/>
			<psa30 value="0.00337893144381188" flag="0"/>
		</comp>
	</station>
	<station code="PYL1" name="PYL1" netid="HI" source="ITSAK Strong Motion Network" insttype="" lat="36.914188" lon="21.695161" esm:processing="manual (Paolucci et al 2011)" esm:quality="best">
		<comp name="--.HNE" depth="0.0">
			<acc value="0.241797362896299" flag="0"/>
			<vel value="0.206753844896318" flag="0"/>
			<psa03 value="0.718291385049735" flag="0"/>
			<psa10 value="0.199338610880188" flag="0"/>
			<psa30 value="0.0260229622133192" flag="0"/>
		</comp>
		<comp name="--.HNN" depth="0.0">
			<acc value="0.277010851129321" flag="0"/>
			<vel value="0.174990356773033" flag="0"/>
			<psa03 value="1.04343300054472" flag="0"/>
			<psa10 value="0.177364370943756" flag="0"/>
			<psa30 value="0.0392339935614963" flag="0"/>
		</comp>
		<comp name="--.HNZ" depth="0.0">
			<acc value="0.162231064845329" flag="0"/>
			<vel value="0.0833868732765918" flag="0"/>
			<psa03 value="0.454222881588695" flag="0"/>
			<psa10 value="0.0879452813288749" flag="0"/>
			<psa30 value="0.0221259160168677" flag="0"/>
		</comp>
	</station>
	<station code="ANKY" name="ANKY" netid="HL" source="National Observatory of Athens Seismic Network" insttype="" lat="35.86704" lon="23.30117" esm:processing="manual (Paolucci et al 2011)" esm:quality="best">
		<comp name="00.HNE" depth="0.0">
			<acc value="0.00715176951974553" flag="0"/>
			<vel value="0.00750111550339957" flag="0"/>
			<psa03 value="0.0147649281840297" flag="0"/>
			<psa10 value="0.0199608406386096" flag="0"/>
			<psa30 value="0.00190512315780601" flag="0"/>
		</comp>
		<comp name="00.HNN" depth="0.0">
			<acc value="0.00841679605332914" flag="0"/>
			<vel value="0.0115192837909942" flag="0"/>
			<psa03 value="0.026174190871689" flag="0"/>
			<psa10 value="0.0159944440218998" flag="0"/>
			<psa30 value="0.0025422521800502" flag="0"/>
		</comp>
		<comp name="00.HNZ" depth="0.0">
			<acc value="0.0050408867358684" flag="0"/>
			<vel value="0.00526221781252099" flag="0"/>
			<psa03 value="0.0145859593575566" flag="0"/>
			<psa10 value="0.00579053638053673" flag="0"/>
			<psa30 value="0.00176329036282609" flag="0"/>
		</comp>
	</station>
	<station code="ITM" name="ITM" netid="HL" source="National Observatory of Athens Seismic Network" insttype="" lat="37.17872" lon="21.92522" esm:processing="manual (Paolucci et al 2011)" esm:quality="best">
		<comp name="--.HNE" depth="0.0">
			<acc value="0.100778851610514" flag="0"/>
			<vel value="0.0659426732412484" flag="0"/>
			<psa03 value="0.288631974894471" flag="0"/>
			<psa10 value="0.0947264101639402" flag="0"/>
			<psa30 value="0.0175112048262592" flag="0"/>
		</comp>
		<comp name="--.HNN" depth="0.0">
			<acc value="0.155302713673109" flag="0"/>
			<vel value="0.0804049702011537" flag="0"/>
			<psa03 value="0.332076657520813" flag="0"/>
			<psa10 value="0.0697159640863925" flag="0"/>
			<psa30 value="0.0164687114120535" flag="0"/>
		</comp>
		<comp name="--.HNZ" depth="0.0">
			<acc value="0.0809772793713583" flag="0"/>
			<vel value="0.0627237733007173" flag="0"/>
			<psa03 value="0.274627664222952" flag="0"/>
			<psa10 value="0.0592946093208646" flag="0"/>
			<psa30 value="0.0114307389468361" flag="0"/>
		</comp>
	</station>
	<station code="KIAA" name="KIAA" netid="HL" source="National Observatory of Athens Seismic Network" insttype="" lat="38.0139" lon="22.7495" esm:processing="manual (Paolucci et al 2011)" esm:quality="good">
		<comp name="00.HNE" depth="0.0">
			<acc value="0.0676018837405251" flag="0"/>
			<vel value="0.130536399106428" flag="0"/>
			<psa03 value="0.0988709663830196" flag="0"/>
			<psa10 value="0.235240783547472" flag="0"/>
			<psa30 value="0.0274113592013691" flag="0"/>
		</comp>
		<comp name="00.HNN" depth="0.0">
			<acc value="0.0635883934950324" flag="0"/>
			<vel value="0.100458466262046" flag="0"/>
			<psa03 value="0.119670365074181" flag="0"/>
			<psa10 value="0.141731264000838" flag="0"/>
			<psa30 value="0.0208410406166373" flag="0"/>
		</comp>
		<comp name="00.HNZ" depth="0.0">
			<acc value="0.0385025808087452" flag="0"/>
			<vel value="0.0476413520939981" flag="0"/>
			<psa03 value="0.0581276267117518" flag="0"/>
			<psa10 value="0.0846896777755054" flag="0"/>
			<psa30 value="0.00814562960800297" flag="0"/>
		</comp>
	</station>
	<station code="MNVA" name="MNVA" netid="HL" source="National Observatory of Athens Seismic Network" insttype="" lat="36.68709" lon="23.03734" esm:processing="manual (Paolucci et al 2011)" esm:quality="best">
		<comp name="00.HNE" depth="0.0">
			<acc value="0.0077710460941228" flag="0"/>
			<vel value="0.0109641414872496" flag="0"/>
			<psa03 value="0.0200445085649857" flag="0"/>
			<psa10 value="0.0112589288734219" flag="0"/>
			<psa30 value="0.00353239721251255" flag="0"/>
		</comp>
		<comp name="00.HNN" depth="0.0">
			<acc value="0.00721455675187613" flag="0"/>
			<vel value="0.00707979786171283" flag="0"/>
			<psa03 value="0.0261294486650707" flag="0"/>
			<psa10 value="0.0110777229366179" flag="0"/>
			<psa30 value="0.00210243628899259" flag="0"/>
		</comp>
		<comp name="00.HNZ" depth="0.0">
			<acc value="0.00975590841698525" flag="0"/>
			<vel value="0.0089522456272923" flag="0"/>
			<psa03 value="0.0226395565488455" flag="0"/>
			<psa10 value="0.010634775091097" flag="0"/>
			<psa30 value="0.00310287202897715" flag="0"/>
		</comp>
	</station>
	<station code="NPLA" name="NPLA" netid="HL" source="National Observatory of Athens Seismic Network" insttype="" lat="37.56561" lon="22.79975" esm:processing="manual (Paolucci et al 2011)" esm:quality="good">
		<comp name="00.HNE" depth="0.0">
			<acc value="0.0279565167887792" flag="0"/>
			<vel value="0.0209994312311061" flag="0"/>
			<psa03 value="0.13096948858587" flag="0"/>
			<psa10 value="0.0153789606556543" flag="0"/>
			<psa30 value="0.00319436723615045" flag="0"/>
		</comp>
		<comp name="00.HNN" depth="0.0">
			<acc value="0.0199880736446171" flag="0"/>
			<vel value="0.015700149953065" flag="0"/>
			<psa03 value="0.0928235761896823" flag="0"/>
			<psa10 value="0.0218882462388947" flag="0"/>
			<psa30 value="0.00330985738680825" flag="0"/>
		</comp>
		<comp name="00.HNZ" depth="0.0">
			<acc value="0.0121706622946843" flag="0"/>
			<vel value="0.0118960837862146" flag="0"/>
			<psa03 value="0.0256200227216201" flag="0"/>
			<psa10 value="0.0119241999197415" flag="0"/>
			<psa30 value="0.00347278505496847" flag="0"/>
		</comp>
	</station>
	<station code="PATC" name="PATC" netid="HL" source="National Observatory of Athens Seismic Network" insttype="" lat="38.26933" lon="21.76001" esm:processing="manual (Paolucci et al 2011)" esm:quality="good">
		<comp name="00.HNE" depth="0.0">
			<acc value="0.042898250993098" flag="0"/>
			<vel value="0.0505949073686068" flag="0"/>
			<psa03 value="0.135031979573944" flag="0"/>
			<psa10 value="0.118669754613642" flag="0"/>
			<psa30 value="0.0176530376212391" flag="0"/>
		</comp>
		<comp name="00.HNN" depth="0.0">
			<acc value="0.0501439710991756" flag="0"/>
			<vel value="0.0614461156815724" flag="0"/>
			<psa03 value="0.10926046856182" flag="0"/>
			<psa10 value="0.129534057224691" flag="0"/>
			<psa30 value="0.0169541643538617" flag="0"/>
		</comp>
		<comp name="00.HNZ" depth="0.0">
			<acc value="0.0251545062442002" flag="0"/>
			<vel value="0.0305014358274814" flag="0"/>
			<psa03 value="0.0510061155448298" flag="0"/>
			<psa10 value="0.07735480102233" flag="0"/>
			<psa30 value="0.00579456317913237" flag="0"/>
		</comp>
	</station>
	<station code="SMHA" name="SMHA" netid="HL" source="National Observatory of Athens Seismic Network" insttype="" lat="38.25123" lon="20.6477" esm:processing="manual (Paolucci et al 2011)" esm:quality="best">
		<comp name="00.HNE" depth="0.0">
			<acc value="0.0385628154487024" flag="0"/>
			<vel value="0.0355390379074484" flag="0"/>
			<psa03 value="0.151063132191167" flag="0"/>
			<psa10 value="0.068429335607671" flag="0"/>
			<psa30 value="0.00437219213627015" flag="0"/>
		</comp>
		<comp name="00.HNN" depth="0.0">
			<acc value="0.0440215794711523" flag="0"/>
			<vel value="0.0376154313126082" flag="0"/>
			<psa03 value="0.15945148996209" flag="0"/>
			<psa10 value="0.0807529594871205" flag="0"/>
			<psa30 value="0.00472322580721243" flag="0"/>
		</comp>
		<comp name="00.HNZ" depth="0.0">
			<acc value="0.0198249574709764" flag="0"/>
			<vel value="0.015560371924781" flag="0"/>
			<psa03 value="0.0413807464797075" flag="0"/>
			<psa10 value="0.0238284766446194" flag="0"/>
			<psa30 value="0.00220880944778571" flag="0"/>
		</comp>
	</station>
	<station code="YDRA" name="YDRA" netid="HL" source="National Observatory of Athens Seismic Network" insttype="" lat="37.34923" lon="23.46525" esm:processing="manual (Paolucci et al 2011)" esm:quality="bad">
		<comp name="00.HNE" depth="0.0">
			<acc value="0.01282512380709" flag="0"/>
			<vel value="0.0162099819207045" flag="0"/>
			<psa03 value="0.028321816789366" flag="0"/>
			<psa10 value="0.0281835633709156" flag="0"/>
			<psa30 value="0.00613012972876941" flag="0"/>
		</comp>
		<comp name="00.HNN" depth="0.0">
			<acc value="0.014943072348485" flag="0"/>
			<vel value="0.0164466095854291" flag="0"/>
			<psa03 value="0.023713369507684" flag="0"/>
			<psa10 value="0.0270439793683482" flag="0"/>
			<psa30 value="0.00640439945533942" flag="0"/>
		</comp>
		<comp name="00.HNZ" depth="0.0">
			<acc value="0.0129410317895213" flag="0"/>
			<vel value="0.0117211596229316" flag="0"/>
			<psa03 value="0.0165993586553788" flag="0"/>
			<psa10 value="0.0260292261222458" flag="0"/>
			<psa30 value="0.00361606513888872" flag="0"/>
		</comp>
	</station>
	<station code="ZARA" name="ZARA" netid="HL" source="National Observatory of Athens Seismic Network" insttype="" lat="37.4865" lon="21.6491" esm:processing="manual (Paolucci et al 2011)" esm:quality="good">
		<comp name="00.HNE" depth="0.0">
			<acc value="0.171960783798774" flag="0"/>
			<vel value="0.103890784936473" flag="0"/>
			<psa03 value="0.447095159526545" flag="0"/>
			<psa10 value="0.2081003106241" flag="0"/>
			<psa30 value="0.0140718871934848" flag="0"/>
		</comp>
		<comp name="00.HNN" depth="0.0">
			<acc value="0.172694251355151" flag="0"/>
			<vel value="0.127709830346445" flag="0"/>
			<psa03 value="0.545762029054047" flag="0"/>
			<psa10 value="0.182390287461447" flag="0"/>
			<psa30 value="0.0112636494948294" flag="0"/>
		</comp>
		<comp name="00.HNZ" depth="0.0">
			<acc value="0.0680167274431535" flag="0"/>
			<vel value="0.0536186698315892" flag="0"/>
			<psa03 value="0.188138400745857" flag="0"/>
			<psa10 value="0.0793621423523993" flag="0"/>
			<psa30 value="0.00938721352350414" flag="0"/>
		</comp>
	</station>
	<station code="FSK" name="FSK" netid="HP" source="University of Patras, Seismological Laboratory (PSLNET)" insttype="" lat="38.4593" lon="20.5623" esm:processing="automatic (Paolucci et al 2011)" esm:quality="good">
		<comp name="--.HNE" depth="0.0">
			<acc value="0.0153520816639658" flag="0"/>
			<vel value="0.0144050709893146" flag="0"/>
			<psa03 value="0.0287222725012669" flag="0"/>
			<psa10 value="0.0211730194836182" flag="0"/>
			<psa30 value="0.00423233495475207" flag="0"/>
		</comp>
		<comp name="--.HNN" depth="0.0">
			<acc value="0.00915814134141953" flag="0"/>
			<vel value="0.0134840671425952" flag="0"/>
			<psa03 value="0.0155242718963876" flag="0"/>
			<psa10 value="0.0215181098441571" flag="0"/>
			<psa30 value="0.00326147022306199" flag="0"/>
		</comp>
		<comp name="--.HNZ" depth="0.0">
			<acc value="0.00628505798611814" flag="0"/>
			<vel value="0.0103860870182927" flag="0"/>
			<psa03 value="0.0136929149009007" flag="0"/>
			<psa10 value="0.0147846784748998" flag="0"/>
			<psa30 value="0.00313618108993844" flag="0"/>
		</comp>
	</station>
	<station code="DLFA" name="DLFA" netid="HL" source="National Observatory of Athens Seismic Network" insttype="" lat="38.47836" lon="22.49583" esm:processing="discarded" esm:quality="bad">
		<comp name="00.HNE" depth="0.0">
			<acc value="0" flag="1"/>
			<vel value="0" flag="1"/>
			<psa03 value="0" flag="1"/>
			<psa10 value="0" flag="1"/>
			<psa30 value="0" flag="1"/>
		</comp>
		<comp name="00.HNN" depth="0.0">
			<acc value="0" flag="1"/>
			<vel value="0" flag="1"/>
			<psa03 value="0" flag="1"/>
			<psa10 value="0" flag="1"/>
			<psa30 value="0" flag="1"/>
		</comp>
		<comp name="00.HNZ" depth="0.0">
			<acc value="0" flag="1"/>
			<vel value="0" flag="1"/>
			<psa03 value="0" flag="1"/>
			<psa10 value="0" flag="1"/>
			<psa30 value="0" flag="1"/>
		</comp>
	</station>
	<station code="PATG" name="PATG" netid="HL" source="National Observatory of Athens Seismic Network" insttype="" lat="38.23865" lon="21.72657" esm:processing="discarded" esm:quality="good">
		<comp name="00.HNE" depth="0.0">
			<acc value="0" flag="1"/>
			<vel value="0" flag="1"/>
			<psa03 value="0" flag="1"/>
			<psa10 value="0" flag="1"/>
			<psa30 value="0" flag="1"/>
		</comp>
		<comp name="00.HNN" depth="0.0">
			<acc value="0" flag="1"/>
			<vel value="0" flag="1"/>
			<psa03 value="0" flag="1"/>
			<psa10 value="0" flag="1"/>
			<psa30 value="0" flag="1"/>
		</comp>
		<comp name="00.HNZ" depth="0.0">
			<acc value="0" flag="1"/>
			<vel value="0" flag="1"/>
			<psa03 value="0" flag="1"/>
			<psa10 value="0" flag="1"/>
			<psa30 value="0" flag="1"/>
		</comp>
	</station>
	<station code="RIOA" name="RIOA" netid="HL" source="National Observatory of Athens Seismic Network" insttype="" lat="38.29585" lon="21.79118" esm:processing="discarded" esm:quality="bad">
		<comp name="00.HNE" depth="0.0">
			<acc value="0" flag="1"/>
			<vel value="0" flag="1"/>
			<psa03 value="0" flag="1"/>
			<psa10 value="0" flag="1"/>
			<psa30 value="0" flag="1"/>
		</comp>
