<?xml version="1.0" encoding="UTF-8" standalone="yes"?>
<!DOCTYPE earthquake SYSTEM "stationlist.dtd">
<stationlist created="" xmlns="ch.ethz.sed.shakemap.usgs.xml">
  <station code="APE" name="APE" netid="GE" insttype="STS-2/N" lat="37.0727" lon="25.523">
    <comp name="--.HHZ">
      <acc value="0.0496534317" flag="0"/>
      <vel value="0.0107198268" flag="0"/>
      <psa03 value="0.0494001093" flag="0"/>
      <psa10 value="0.0054702864" flag="0"/>
      <psa30 value="0.0006529669" flag="0"/>
    </comp>
    <comp name="--.HHE">
      <acc value="0.1227692922" flag="0"/>
      <vel value="0.0253946335" flag="0"/>
      <psa03 value="0.1295720919" flag="0"/>
      <psa10 value="0.0071851813" flag="0"/>
      <psa30 value="0.0010029065" flag="0"/>
    </comp>
    <comp name="--.HHN">
      <acc value="0.1350769267" flag="0"/>
      <vel value="0.0350380229" flag="0"/>
      <psa03 value="0.1111936141" flag="0"/>
      <psa10 value="0.0091135875" flag="0"/>
      <psa30 value="0.0011459447" flag="0"/>
    </comp>
  </station>
  <station code="THERA" name="THERA" netid="GE" insttype="STS-2/N" lat="36.367" lon="25.4753">
    <comp name="--.HHE">
      <acc value="0.1484935880" flag="0"/>
      <vel value="0.0333041005" flag="0"/>
      <psa03 value="0.1998406954" flag="0"/>
      <psa10 value="0.0130227744" flag="0"/>
      <psa30 value="0.0011895535" flag="0"/>
    </comp>
    <comp name="--.HHN">
      <acc value="0.0773821763" flag="0"/>
      <vel value="0.0205108828" flag="0"/>
      <psa03 value="0.1362966478" flag="0"/>
      <psa10 value="0.0047841965" flag="0"/>
      <psa30 value="0.0004260738" flag="0"/>
    </comp>
    <comp name="--.HHZ">
      <acc value="0.1188553857" flag="0"/>
      <vel value="0.0279521748" flag="0"/>
      <psa03 value="0.1226205064" flag="0"/>
      <psa10 value="0.0065397408" flag="0"/>
      <psa30 value="0.0009409315" flag="0"/>
    </comp>
  </station>
</stationlist>
