<?xml version="1.0" encoding="UTF-8" standalone="yes"?>
<!DOCTYPE earthquake SYSTEM "stationlist.dtd">
<stationlist created="" xmlns="ch.ethz.sed.shakemap.usgs.xml">
  <station code="APE" name="APE" netid="GE" insttype="STS-2/N" lat="37.0727" lon="25.523">
    <comp name="--.HHE">
      <acc value="0.1227692918" flag="0"/>
      <vel value="0.0253946328" flag="0"/>
      <psa03 value="0.1295720919" flag="0"/>
      <psa10 value="0.0071851803" flag="0"/>
      <psa30 value="0.0010030937" flag="0"/>
    </comp>
    <comp name="--.HHZ">
      <acc value="0.0496534318" flag="0"/>
      <vel value="0.0107198219" flag="0"/>
      <psa03 value="0.0494001093" flag="0"/>
      <psa10 value="0.0054702834" flag="0"/>
      <psa30 value="0.0006520566" flag="0"/>
    </comp>
    <comp name="--.HHN">
      <acc value="0.1350769265" flag="0"/>
      <vel value="0.0350380294" flag="0"/>
      <psa03 value="0.1111936141" flag="0"/>
      <psa10 value="0.0091135912" flag="0"/>
      <psa30 value="0.0011457127" flag="0"/>
    </comp>
  </station>
  <station code="THERA" name="THERA" netid="GE" insttype="STS-2/N" lat="36.367" lon="25.4753">
    <comp name="--.HHZ">
      <acc value="0.1188553857" flag="0"/>
      <vel value="0.0279521775" flag="0"/>
      <psa03 value="0.1226205064" flag="0"/>
      <psa10 value="0.0065397405" flag="0"/>
      <psa30 value="0.0009409415" flag="0"/>
    </comp>
    <comp name="--.HHE">
      <acc value="0.1484935881" flag="0"/>
      <vel value="0.0333041021" flag="0"/>
      <psa03 value="0.1998406954" flag="0"/>
      <psa10 value="0.0130227780" flag="0"/>
      <psa30 value="0.0011894363" flag="0"/>
    </comp>
    <comp name="--.HHN">
      <acc value="0.0773821763" flag="0"/>
      <vel value="0.0205108820" flag="0"/>
      <psa03 value="0.1362966478" flag="0"/>
      <psa10 value="0.0047841952" flag="0"/>
      <psa30 value="0.0004260450" flag="0"/>
    </comp>
  </station>
</stationlist>
