<?xml version="1.0" encoding="UTF-8" standalone="yes"?>
<!DOCTYPE earthquake SYSTEM "stationlist.dtd">
<stationlist created="" xmlns="ch.ethz.sed.shakemap.usgs.xml">
  <station code="APE" name="APE" netid="GE" insttype="STS-2/N" lat="37.0727" lon="25.523">
    <comp name="--.HHZ">
      <acc value="0.0496534317" flag="0"/>
      <vel value="0.0107198268" flag="0"/>
      <psa03 value="0.0494001093" flag="0"/>
      <psa10 value="0.0054702864" flag="0"/>
      <psa30 value="0.0006529669" flag="0"/>
    </comp>
    <comp name="--.HHE">
      <acc value="0.1227692922" flag="0"/>
      <vel value="0.0253946335" flag="0"/>
      <psa03 value="0.1295720919" flag="0"/>
      <psa10 value="0.0071851813" flag="0"/>
      <psa30 value="0.0010029065" flag="0"/>
    </comp>
    <comp name="--.HHN">
      <acc value="0.1350769267" flag="0"/>
      <vel value="0.0350380229" flag="0"/>
      <psa03 value="0.1111936141" flag="0"/>
      <psa10 value="0.0091135875" flag="0"/>
      <psa30 value="0.0011459447" flag="0"/>
    </comp>
  </station>
  <station code="THERA" name="THERA" netid="GE" insttype="STS-2/N" lat="36.367" lon="25.4753">
    <comp name="--.HHE">
      <acc value="0.1484935880" flag="0"/>
      <vel value="0.0333041005" flag="0"/>
      <psa03 value="0.1998406954" flag="0"/>
      <psa10 value="0.0130227744" flag="0"/>
      <psa30 value="0.0011895535" flag="0"/>
    </comp>
    <comp name="--.HHN">
      <acc value="0.0773821763" flag="0"/>
      <vel value="0.0205108828" flag="0"/>
      <psa03 value="0.1362966478" flag="0"/>
      <psa10 value="0.0047841965" flag="0"/>
      <psa30 value="0.0004260738" flag="0"/>
    </comp>
    <comp name="--.HHZ">
      <acc value="0.1188553857" flag="0"/>
      <vel value="0.0279521748" flag="0"/>
      <psa03 value="0.1226205064" flag="0"/>
      <psa10 value="0.0065397408" flag="0"/>
      <psa30 value="0.0009409315" flag="0"/>
    </comp>
  </station>
  <station code="SNT1" name="SNT1" netid="HA" insttype="30" lat="36.4159" lon="25.4282">
    <comp name="--.HHN">
      <acc value="0.0719106471" flag="0"/>
      <vel value="0.0224161974" flag="0"/>
      <psa03 value="0.0774843796" flag="0"/>
      <psa10 value="0.0094257907" flag="0"/>
      <psa30 value="0.0012571247" flag="0"/>
    </comp>
    <comp name="--.HHE">
      <acc value="0.0928496091" flag="0"/>
      <vel value="0.0301654026" flag="0"/>
      <psa03 value="0.1304814285" flag="0"/>
      <psa10 value="0.0131009290" flag="0"/>
      <psa30 value="0.0015917136" flag="0"/>
    </comp>
    <comp name="--.HHZ">
      <acc value="0.0661074942" flag="0"/>
      <vel value="0.0166439170" flag="0"/>
      <psa03 value="0.1049341570" flag="0"/>
      <psa10 value="0.0098441974" flag="0"/>
      <psa30 value="0.0008261449" flag="0"/>
    </comp>
  </station>
  <station code="NAX1" name="NAX1" netid="HI" insttype="CMG-5TD,ACCELEROMETER,GURALP" lat="37.1014" lon="25.3741">
    <comp name="--.HNZ">
      <acc value="0.0572231371" flag="0"/>
      <vel value="0.0126507699" flag="0"/>
      <psa03 value="0.0485237667" flag="0"/>
      <psa10 value="0.0050321979" flag="0"/>
      <psa30 value="0.0006004729" flag="0"/>
    </comp>
    <comp name="--.HNN">
      <acc value="0.1221330925" flag="0"/>
      <vel value="0.0290586780" flag="0"/>
      <psa03 value="0.1320202628" flag="0"/>
      <psa10 value="0.0086939171" flag="0"/>
      <psa30 value="0.0007438695" flag="0"/>
    </comp>
    <comp name="--.HNE">
      <acc value="0.1450782049" flag="0"/>
      <vel value="0.0501321009" flag="0"/>
      <psa03 value="0.2424505805" flag="0"/>
      <psa10 value="0.0096967547" flag="0"/>
      <psa30 value="0.0010956024" flag="0"/>
    </comp>
  </station>
  <station code="AMGA" name="AMGA" netid="HL" insttype="SMART24" lat="36.8316" lon="25.8938">
    <comp name="--.HHE">
      <acc value="0.2943874625" flag="0"/>
      <vel value="0.0451499168" flag="0"/>
      <psa03 value="0.1874172529" flag="0"/>
      <psa10 value="0.0164599384" flag="0"/>
      <psa30 value="0.0016140866" flag="0"/>
    </comp>
    <comp name="--.HHN">
      <acc value="0.2171252941" flag="0"/>
      <vel value="0.0585750781" flag="0"/>
      <psa03 value="0.2515682707" flag="0"/>
      <psa10 value="0.0159426247" flag="0"/>
      <psa30 value="0.0020806289" flag="0"/>
    </comp>
    <comp name="--.HHZ">
      <acc value="0.3227583205" flag="0"/>
      <vel value="0.0653581258" flag="0"/>
      <psa03 value="0.2609142660" flag="0"/>
      <psa10 value="0.0138959020" flag="0"/>
      <psa30 value="0.0015580096" flag="0"/>
    </comp>
  </station>
  <station code="APE" name="APE" netid="HL" insttype="120" lat="37.0727" lon="25.523">
    <comp name="--.HHN">
      <acc value="0.1262237913" flag="0"/>
      <vel value="0.0336601412" flag="0"/>
      <psa03 value="0.1082044549" flag="0"/>
      <psa10 value="0.0089072812" flag="0"/>
      <psa30 value="0.0011371107" flag="0"/>
    </comp>
    <comp name="--.HHE">
      <acc value="0.1140718526" flag="0"/>
      <vel value="0.0245592037" flag="0"/>
      <psa03 value="0.1264603147" flag="0"/>
      <psa10 value="0.0070897089" flag="0"/>
      <psa30 value="0.0009963670" flag="0"/>
    </comp>
    <comp name="--.HHZ">
      <acc value="0.0442669266" flag="0"/>
      <vel value="0.0101665973" flag="0"/>
      <psa03 value="0.0477550201" flag="0"/>
      <psa10 value="0.0054158152" flag="0"/>
      <psa30 value="0.0006516984" flag="0"/>
    </comp>
  </station>
  <station code="MHLO" name="MHLO" netid="HL" insttype="20" lat="36.6898" lon="24.4017">
    <comp name="--.HHE">
      <acc value="0.1528743926" flag="0"/>
      <vel value="0.0460023362" flag="0"/>
      <psa03 value="0.2885994578" flag="0"/>
      <psa10 value="0.0309347585" flag="0"/>
      <psa30 value="0.0016389723" flag="0"/>
    </comp>
    <comp name="--.HHN">
      <acc value="0.1110651738" flag="0"/>
      <vel value="0.0384040389" flag="0"/>
      <psa03 value="0.2967920875" flag="0"/>
      <psa10 value="0.0279144300" flag="0"/>
      <psa30 value="0.0015544668" flag="0"/>
    </comp>
    <comp name="--.HHZ">
      <acc value="0.0268944720" flag="0"/>
      <vel value="0.0147760270" flag="0"/>
      <psa03 value="0.0749222245" flag="0"/>
      <psa10 value="0.0169503800" flag="0"/>
      <psa30 value="0.0009255896" flag="0"/>
    </comp>
  </station>
  <station code="SAP3" name="SAP3" netid="HL" insttype="LE3D20_SMART24" lat="36.4356" lon="25.3454">
    <comp name="--.HHE">
      <acc value="0.3257135148" flag="0"/>
      <vel value="0.1077027620" flag="0"/>
      <psa03 value="0.4861996945" flag="0"/>
      <psa10 value="0.0453331576" flag="0"/>
      <psa30 value="0.0052019810" flag="0"/>
    </comp>
    <comp name="--.HHZ">
      <acc value="0.3705400229" flag="0"/>
      <vel value="0.1002158648" flag="0"/>
      <psa03 value="0.4227408291" flag="0"/>
      <psa10 value="0.0183760557" flag="0"/>
      <psa30 value="0.0027018218" flag="0"/>
    </comp>
    <comp name="--.HHN">
      <acc value="0.3364936654" flag="0"/>
      <vel value="0.0951825886" flag="0"/>
      <psa03 value="0.4845782648" flag="0"/>
      <psa10 value="0.0559990028" flag="0"/>
      <psa30 value="0.0050880500" flag="0"/>
    </comp>
  </station>
  <station code="THERA" name="THERA" netid="HL" insttype="120" lat="36.367" lon="25.4753">
    <comp name="--.HHE">
      <acc value="0.1434141208" flag="0"/>
      <vel value="0.0321406797" flag="0"/>
      <psa03 value="0.1938076013" flag="0"/>
      <psa10 value="0.0128679831" flag="0"/>
      <psa30 value="0.0011710634" flag="0"/>
    </comp>
    <comp name="--.HHN">
      <acc value="0.0787318788" flag="0"/>
      <vel value="0.0200336208" flag="0"/>
      <psa03 value="0.1322149797" flag="0"/>
      <psa10 value="0.0046589364" flag="0"/>
      <psa30 value="0.0004241385" flag="0"/>
    </comp>
    <comp name="--.HHZ">
      <acc value="0.1168436419" flag="0"/>
      <vel value="0.0269651286" flag="0"/>
      <psa03 value="0.1194231243" flag="0"/>
      <psa10 value="0.0064686808" flag="0"/>
      <psa30 value="0.0009402022" flag="0"/>
    </comp>
  </station>
  <station code="THRA" name="THRA" netid="HL" insttype="CMG-5" lat="36.415" lon="25.4324">
    <comp name="00.HNN">
      <acc value="0.2963193243" flag="0"/>
      <vel value="0.0923529440" flag="0"/>
      <psa03 value="0.8170169611" flag="0"/>
      <psa10 value="0.0357045593" flag="0"/>
      <psa30 value="0.0028272022" flag="0"/>
    </comp>
    <comp name="00.HNZ">
      <acc value="0.2407604132" flag="0"/>
      <vel value="0.0710364107" flag="0"/>
      <psa03 value="0.4183000381" flag="0"/>
      <psa10 value="0.0252258747" flag="0"/>
      <psa30 value="0.0023689507" flag="0"/>
    </comp>
    <comp name="00.HNE">
      <acc value="0.3310175612" flag="0"/>
      <vel value="0.1040225256" flag="0"/>
      <psa03 value="0.7609431291" flag="0"/>
      <psa10 value="0.0353127345" flag="0"/>
      <psa30 value="0.0039693270" flag="0"/>
    </comp>
  </station>
  <station code="TNSA" name="TNSA" netid="HL" insttype="CMG-5" lat="37.5394" lon="25.1631">
    <comp name="00.HNN">
      <acc value="0.0570304949" flag="0"/>
      <vel value="0.0172756069" flag="0"/>
      <psa03 value="0.1216392754" flag="0"/>
      <psa10 value="0.0056469950" flag="0"/>
      <psa30 value="0.0005448773" flag="0"/>
    </comp>
    <comp name="00.HNE">
      <acc value="0.0505069695" flag="0"/>
      <vel value="0.0167963548" flag="0"/>
      <psa03 value="0.0886374728" flag="0"/>
      <psa10 value="0.0042898629" flag="0"/>
      <psa30 value="0.0005344093" flag="0"/>
    </comp>
    <comp name="00.HNZ">
      <acc value="0.0319401769" flag="0"/>
      <vel value="0.0148317152" flag="0"/>
      <psa03 value="0.0536168561" flag="0"/>
      <psa10 value="0.0051424682" flag="0"/>
      <psa30 value="0.0006609231" flag="0"/>
    </comp>
  </station>
  <station code="CMBO" name="CMBO" netid="HT" insttype="120P," lat="36.4709" lon="25.4056">
    <comp name="--.HHE">
      <acc value="0.4692418971" flag="0"/>
      <vel value="0.1293934387" flag="0"/>
      <psa03 value="0.4767327046" flag="0"/>
      <psa10 value="0.0544880769" flag="0"/>
      <psa30 value="0.0044678034" flag="0"/>
    </comp>
    <comp name="--.HHN">
      <acc value="0.6262419364" flag="0"/>
      <vel value="0.1452325114" flag="0"/>
      <psa03 value="0.6951996323" flag="0"/>
      <psa10 value="0.0831046266" flag="0"/>
      <psa30 value="0.0042054441" flag="0"/>
    </comp>
    <comp name="--.HHZ">
      <acc value="0.4406089008" flag="0"/>
      <vel value="0.1193222778" flag="0"/>
      <psa03 value="0.7415325708" flag="0"/>
      <psa10 value="0.0250957082" flag="0"/>
      <psa30 value="0.0030724965" flag="0"/>
    </comp>
  </station>
</stationlist>
