<?xml version="1.0" encoding="UTF-8" standalone="yes"?>
<!DOCTYPE earthquake SYSTEM "stationlist.dtd">
<stationlist created="" xmlns="ch.ethz.sed.shakemap.usgs.xml">
  <station code="APE" name="APE" netid="GE" insttype="STS-2/N" lat="37.0727" lon="25.523">
    <comp name="--.HHE">
      <acc value="0.0865524723" flag="0"/>
      <vel value="0.1057958939" flag="0"/>
      <psa03 value="0.3265251580" flag="0"/>
      <psa10 value="0.1382059706" flag="0"/>
      <psa30 value="0.0463297192" flag="0"/>
    </comp>
    <comp name="--.HHN">
      <acc value="0.0779578854" flag="0"/>
      <vel value="0.0598570884" flag="0"/>
      <psa03 value="0.2186454773" flag="0"/>
      <psa10 value="0.0829238581" flag="0"/>
      <psa30 value="0.0221869742" flag="0"/>
    </comp>
    <comp name="--.HHZ">
      <acc value="0.0532165280" flag="0"/>
      <vel value="0.0662105581" flag="0"/>
      <psa03 value="0.1432777535" flag="0"/>
      <psa10 value="0.1081358866" flag="0"/>
      <psa30 value="0.0167014329" flag="0"/>
    </comp>
  </station>
  <station code="GVD" name="GVD" netid="GE" insttype="STS-2/N" lat="34.8391" lon="24.0874">
    <comp name="--.HHE">
      <acc value="0.4255348970" flag="0"/>
      <vel value="0.2671833129" flag="0"/>
      <psa03 value="1.2798973600" flag="0"/>
      <psa10 value="0.3670963334" flag="0"/>
      <psa30 value="0.0352293912" flag="0"/>
    </comp>
    <comp name="--.HHN">
      <acc value="0.4582764585" flag="0"/>
      <vel value="0.3079181533" flag="0"/>
      <psa03 value="1.4154803774" flag="0"/>
      <psa10 value="0.4369172472" flag="0"/>
      <psa30 value="0.0442572461" flag="0"/>
    </comp>
    <comp name="--.HHZ">
      <acc value="0.1657564216" flag="0"/>
      <vel value="0.1247789219" flag="0"/>
      <psa03 value="0.4014170511" flag="0"/>
      <psa10 value="0.1940029823" flag="0"/>
      <psa30 value="0.0357830493" flag="0"/>
    </comp>
  </station>
  <station code="IMMV" name="IMMV" netid="GE" insttype="STS-2/N" lat="35.4606" lon="23.9811">
    <comp name="--.HHE">
      <acc value="0.5022086945" flag="0"/>
      <vel value="0.5274199814" flag="0"/>
      <psa03 value="1.0869079643" flag="0"/>
      <psa10 value="0.8240039827" flag="0"/>
      <psa30 value="0.0730696214" flag="0"/>
    </comp>
    <comp name="--.HHN">
      <acc value="0.4209472086" flag="0"/>
      <vel value="0.4021908148" flag="0"/>
      <psa03 value="1.4581566435" flag="0"/>
      <psa10 value="0.6457533606" flag="0"/>
      <psa30 value="0.0843708104" flag="0"/>
    </comp>
    <comp name="--.HHZ">
      <acc value="0.3298472573" flag="0"/>
      <vel value="0.2854159947" flag="0"/>
      <psa03 value="1.1587871751" flag="0"/>
      <psa10 value="0.4925389304" flag="0"/>
      <psa30 value="0.0447643396" flag="0"/>
    </comp>
  </station>
  <station code="KARP" name="KARP" netid="GE" insttype="STS-2/N" lat="35.5471" lon="27.1611">
    <comp name="--.HHE">
      <acc value="0.2406062242" flag="0"/>
      <vel value="0.2022985016" flag="0"/>
      <psa03 value="0.3602658564" flag="0"/>
      <psa10 value="0.3058698606" flag="0"/>
      <psa30 value="0.0426112494" flag="0"/>
    </comp>
    <comp name="--.HHN">
      <acc value="0.2008309041" flag="0"/>
      <vel value="0.1399145323" flag="0"/>
      <psa03 value="0.3870498134" flag="0"/>
      <psa10 value="0.1918433892" flag="0"/>
      <psa30 value="0.0410278342" flag="0"/>
    </comp>
    <comp name="--.HHZ">
      <acc value="0.1429496107" flag="0"/>
      <vel value="0.1713164084" flag="0"/>
      <psa03 value="0.2594805032" flag="0"/>
      <psa10 value="0.1694317587" flag="0"/>
      <psa30 value="0.0625711320" flag="0"/>
    </comp>
  </station>
  <station code="ZKR" name="ZKR" netid="GE" insttype="STS-2/N" lat="35.1147" lon="26.2169">
    <comp name="--.HHE">
      <acc value="0.6917982018" flag="0"/>
      <vel value="0.4623088627" flag="0"/>
      <psa03 value="2.3791030075" flag="0"/>
      <psa10 value="0.3627097877" flag="0"/>
      <psa30 value="0.1420326581" flag="0"/>
    </comp>
    <comp name="--.HHN">
      <acc value="0.2407785188" flag="0"/>
      <vel value="0.2003457745" flag="0"/>
      <psa03 value="0.8840112926" flag="0"/>
      <psa10 value="0.2686241615" flag="0"/>
      <psa30 value="0.0854430836" flag="0"/>
    </comp>
    <comp name="--.HHZ">
      <acc value="0.2399207824" flag="0"/>
      <vel value="0.2701617594" flag="0"/>
      <psa03 value="0.6852758637" flag="0"/>
      <psa10 value="0.4289664156" flag="0"/>
      <psa30 value="0.1507345291" flag="0"/>
    </comp>
  </station>
  <station code="SNT1" name="SNT1" netid="HA" insttype="30" lat="36.4159" lon="25.4282">
    <comp name="--.HHE">
      <acc value="0.2846249074" flag="0"/>
      <vel value="0.3459169886" flag="0"/>
      <psa03 value="0.7088988768" flag="0"/>
      <psa10 value="0.5790289608" flag="0"/>
      <psa30 value="0.1287442318" flag="0"/>
    </comp>
    <comp name="--.HHN">
      <acc value="0.2578702298" flag="0"/>
      <vel value="0.2598617985" flag="0"/>
      <psa03 value="0.5514866086" flag="0"/>
      <psa10 value="0.4369083893" flag="0"/>
      <psa30 value="0.0773773025" flag="0"/>
    </comp>
    <comp name="--.HHZ">
      <acc value="0.1619846715" flag="0"/>
      <vel value="0.1362466924" flag="0"/>
      <psa03 value="0.6537826367" flag="0"/>
      <psa10 value="0.2593116083" flag="0"/>
      <psa30 value="0.0461293335" flag="0"/>
    </comp>
  </station>
  <station code="SNT5" name="SNT5" netid="HA" insttype="1s-100Hz," lat="36.4037" lon="25.3953">
    <comp name="--.HHZ">
      <acc value="0.2912343888" flag="0"/>
      <vel value="0.1890923875" flag="0"/>
      <psa03 value="0.9164087738" flag="0"/>
      <psa10 value="0.1907567696" flag="0"/>
      <psa30 value="0.0867682753" flag="0"/>
    </comp>
    <comp name="--.HHE">
      <acc value="0.7030571157" flag="0"/>
      <vel value="0.5072244278" flag="0"/>
      <psa03 value="2.2254708047" flag="0"/>
      <psa10 value="0.4959381617" flag="0"/>
      <psa30 value="0.3732430969" flag="0"/>
    </comp>
    <comp name="--.HHN">
      <acc value="0.6351054504" flag="0"/>
      <vel value="0.5873000218" flag="0"/>
      <psa03 value="2.2899224673" flag="0"/>
      <psa10 value="0.3312573332" flag="0"/>
      <psa30 value="0.1912041594" flag="0"/>
    </comp>
  </station>
  <station code="ABEA" name="ABEA" netid="HC" insttype="DC" lat="35.5163" lon="24.0113">
    <comp name="--.HNN">
      <acc value="0.5173842704" flag="0"/>
      <vel value="0.4920241498" flag="0"/>
      <psa03 value="1.8611164604" flag="0"/>
      <psa10 value="1.0174336134" flag="0"/>
      <psa30 value="0.1213911901" flag="0"/>
    </comp>
    <comp name="--.HNZ">
      <acc value="0.2473807621" flag="0"/>
      <vel value="0.2813235800" flag="0"/>
      <psa03 value="0.6378097480" flag="0"/>
      <psa10 value="0.5582973578" flag="0"/>
      <psa30 value="0.0915243540" flag="0"/>
    </comp>
    <comp name="--.HNE">
      <acc value="0.4379201821" flag="0"/>
      <vel value="0.7529740158" flag="0"/>
      <psa03 value="1.1360334873" flag="0"/>
      <psa10 value="0.7778431696" flag="0"/>
      <psa30 value="0.2568622075" flag="0"/>
    </comp>
  </station>
  <station code="ATEI" name="ATEI" netid="HC" insttype="DC" lat="35.5193" lon="24.0432">
    <comp name="--.HNE">
      <acc value="0.4156492628" flag="0"/>
      <vel value="0.4371406012" flag="0"/>
      <psa03 value="1.0873309803" flag="0"/>
      <psa10 value="0.8415031841" flag="0"/>
      <psa30 value="0.1573901967" flag="0"/>
    </comp>
    <comp name="--.HNN">
      <acc value="0.3691715019" flag="0"/>
      <vel value="0.3964651615" flag="0"/>
      <psa03 value="0.7284158120" flag="0"/>
      <psa10 value="0.6932492780" flag="0"/>
      <psa30 value="0.1130543289" flag="0"/>
    </comp>
    <comp name="--.HNZ">
      <acc value="0.2767846892" flag="0"/>
      <vel value="0.2461743286" flag="0"/>
      <psa03 value="0.8611626329" flag="0"/>
      <psa10 value="0.3104718512" flag="0"/>
      <psa30 value="0.0778151336" flag="0"/>
    </comp>
  </station>
  <station code="CHAN" name="CHAN" netid="HC" insttype="120" lat="35.5193" lon="24.0428">
    <comp name="--.HHN">
      <acc value="0.6377488443" flag="0"/>
      <vel value="0.6566957965" flag="0"/>
      <psa03 value="1.4294970024" flag="0"/>
      <psa10 value="1.0891495753" flag="0"/>
      <psa30 value="0.2558492521" flag="0"/>
    </comp>
    <comp name="--.HHZ">
      <acc value="0.5140033868" flag="0"/>
      <vel value="0.4653284519" flag="0"/>
      <psa03 value="1.6470440069" flag="0"/>
      <psa10 value="0.5917468044" flag="0"/>
      <psa30 value="0.1479746926" flag="0"/>
    </comp>
    <comp name="--.HHE">
      <acc value="0.8415881801" flag="0"/>
      <vel value="0.8372714356" flag="0"/>
      <psa03 value="2.2339165569" flag="0"/>
      <psa10 value="1.8128467980" flag="0"/>
      <psa30 value="0.2850616194" flag="0"/>
    </comp>
  </station>
  <station code="GVDS" name="GVDS" netid="HC" insttype="60" lat="34.8389" lon="24.0585">
    <comp name="--.HHE">
      <acc value="0.2498387539" flag="0"/>
      <vel value="0.2127736566" flag="0"/>
      <psa03 value="0.8180764615" flag="0"/>
      <psa10 value="0.2105275619" flag="0"/>
      <psa30 value="0.0284150345" flag="0"/>
    </comp>
    <comp name="--.HHN">
      <acc value="0.2946700915" flag="0"/>
      <vel value="0.2434238075" flag="0"/>
      <psa03 value="0.8054437207" flag="0"/>
      <psa10 value="0.4521385653" flag="0"/>
      <psa30 value="0.0379729245" flag="0"/>
    </comp>
    <comp name="--.HHZ">
      <acc value="0.1393696301" flag="0"/>
      <vel value="0.1221112496" flag="0"/>
      <psa03 value="0.3068393497" flag="0"/>
      <psa10 value="0.1637241113" flag="0"/>
      <psa30 value="0.0296454931" flag="0"/>
    </comp>
  </station>
  <station code="KNDR" name="KNDR" netid="HC" insttype="120" lat="35.2348" lon="23.6248">
    <comp name="--.HHE">
      <acc value="0.3308057523" flag="0"/>
      <vel value="0.2779640787" flag="0"/>
      <psa03 value="1.0296826987" flag="0"/>
      <psa10 value="0.7104383126" flag="0"/>
      <psa30 value="0.0439571044" flag="0"/>
    </comp>
    <comp name="--.HHN">
      <acc value="0.2606197760" flag="0"/>
      <vel value="0.2804413458" flag="0"/>
      <psa03 value="0.6318335282" flag="0"/>
      <psa10 value="0.3565320521" flag="0"/>
      <psa30 value="0.0526169216" flag="0"/>
    </comp>
    <comp name="--.HHZ">
      <acc value="0.1686970380" flag="0"/>
      <vel value="0.1299792738" flag="0"/>
      <psa03 value="0.4709953385" flag="0"/>
      <psa10 value="0.2523674219" flag="0"/>
      <psa30 value="0.0255991694" flag="0"/>
    </comp>
  </station>
  <station code="MULT" name="MULT" netid="HC" insttype="DC" lat="35.5091" lon="24.0118">
    <comp name="--.HNE">
      <acc value="0.0760043788" flag="0"/>
      <vel value="0.0707873160" flag="0"/>
      <psa03 value="0.1317773683" flag="0"/>
      <psa10 value="0.0691535117" flag="0"/>
      <psa30 value="0.0208206266" flag="0"/>
    </comp>
    <comp name="--.HNZ">
      <acc value="0.0447147269" flag="0"/>
      <vel value="0.0437154713" flag="0"/>
      <psa03 value="0.0719551971" flag="0"/>
      <psa10 value="0.0530592439" flag="0"/>
      <psa30 value="0.0118610308" flag="0"/>
    </comp>
    <comp name="--.HNN">
      <acc value="0.0684060082" flag="0"/>
      <vel value="0.0566040677" flag="0"/>
      <psa03 value="0.1071716412" flag="0"/>
      <psa10 value="0.0809442556" flag="0"/>
      <psa30 value="0.0169343757" flag="0"/>
    </comp>
  </station>
  <station code="NERO" name="NERO" netid="HC" insttype="DC" lat="35.474" lon="24.0423">
    <comp name="--.HNN">
      <acc value="0.4530990587" flag="0"/>
      <vel value="0.4225569097" flag="0"/>
      <psa03 value="1.0666556965" flag="0"/>
      <psa10 value="0.5267932670" flag="0"/>
      <psa30 value="0.1567869501" flag="0"/>
    </comp>
    <comp name="--.HNE">
      <acc value="0.3745983690" flag="0"/>
      <vel value="0.4395937408" flag="0"/>
      <psa03 value="0.8551011421" flag="0"/>
      <psa10 value="0.5936339504" flag="0"/>
      <psa30 value="0.0720483891" flag="0"/>
    </comp>
    <comp name="--.HNZ">
      <acc value="0.4011462908" flag="0"/>
      <vel value="0.2653962372" flag="0"/>
      <psa03 value="0.6543813699" flag="0"/>
      <psa10 value="0.6264081988" flag="0"/>
      <psa30 value="0.0753424756" flag="0"/>
    </comp>
  </station>
  <station code="PASK" name="PASK" netid="HC" insttype="DC" lat="35.4996" lon="24.0121">
    <comp name="--.HNN">
      <acc value="0.5648993752" flag="0"/>
      <vel value="0.4985392445" flag="0"/>
      <psa03 value="1.4792006491" flag="0"/>
      <psa10 value="0.8539811554" flag="0"/>
      <psa30 value="0.1976068288" flag="0"/>
    </comp>
    <comp name="--.HNZ">
      <acc value="0.3423206325" flag="0"/>
      <vel value="0.3710478318" flag="0"/>
      <psa03 value="1.1655122802" flag="0"/>
      <psa10 value="0.4926102489" flag="0"/>
      <psa30 value="0.0792641199" flag="0"/>
    </comp>
    <comp name="--.HNE">
      <acc value="0.6731149997" flag="0"/>
      <vel value="0.8155367422" flag="0"/>
      <psa03 value="1.5929434378" flag="0"/>
      <psa10 value="1.1078928255" flag="0"/>
      <psa30 value="0.1875102229" flag="0"/>
    </comp>
  </station>
  <station code="POLY" name="POLY" netid="HC" insttype="DC" lat="35.5226" lon="24.0602">
    <comp name="--.HNN">
      <acc value="0.3463875456" flag="0"/>
      <vel value="0.4205923200" flag="0"/>
      <psa03 value="0.7855995818" flag="0"/>
      <psa10 value="0.5129288430" flag="0"/>
      <psa30 value="0.1103143765" flag="0"/>
    </comp>
    <comp name="--.HNE">
      <acc value="0.3104852931" flag="0"/>
      <vel value="0.3456908471" flag="0"/>
      <psa03 value="0.7955557793" flag="0"/>
      <psa10 value="0.4673048325" flag="0"/>
      <psa30 value="0.1618787137" flag="0"/>
    </comp>
    <comp name="--.HNZ">
      <acc value="0.2249711589" flag="0"/>
      <vel value="0.2525693590" flag="0"/>
      <psa03 value="0.5907301331" flag="0"/>
      <psa10 value="0.3424288180" flag="0"/>
      <psa30 value="0.0810301170" flag="0"/>
    </comp>
  </station>
  <station code="RODP" name="RODP" netid="HC" insttype="120" lat="35.5604" lon="23.7577">
    <comp name="--.HHE">
      <acc value="0.4387505544" flag="0"/>
      <vel value="0.4985707858" flag="0"/>
      <psa03 value="1.4019062361" flag="0"/>
      <psa10 value="0.3136280802" flag="0"/>
      <psa30 value="0.1277785732" flag="0"/>
    </comp>
    <comp name="--.HHZ">
      <acc value="0.2037094027" flag="0"/>
      <vel value="0.2343222474" flag="0"/>
      <psa03 value="0.6422218501" flag="0"/>
      <psa10 value="0.2140620673" flag="0"/>
      <psa30 value="0.1055665693" flag="0"/>
    </comp>
    <comp name="--.HHN">
      <acc value="0.3214360885" flag="0"/>
      <vel value="0.2796590673" flag="0"/>
      <psa03 value="1.1822262062" flag="0"/>
      <psa10 value="0.2340353440" flag="0"/>
      <psa30 value="0.0772055696" flag="0"/>
    </comp>
  </station>
  <station code="CH01" name="CH01" netid="HI" insttype="CMG-5TD,ACCELEROMETER,GURALP" lat="35.517" lon="24.0208">
    <comp name="--.HNE">
      <acc value="0.4767490488" flag="0"/>
      <vel value="0.6552655625" flag="0"/>
      <psa03 value="1.1662022363" flag="0"/>
      <psa10 value="0.6590813834" flag="0"/>
      <psa30 value="0.2390108178" flag="0"/>
    </comp>
    <comp name="--.HNZ">
      <acc value="0.2534190259" flag="0"/>
      <vel value="0.3237737449" flag="0"/>
      <psa03 value="0.6501199579" flag="0"/>
      <psa10 value="0.6107968990" flag="0"/>
      <psa30 value="0.0828151387" flag="0"/>
    </comp>
    <comp name="--.HNN">
      <acc value="0.4781636012" flag="0"/>
      <vel value="0.4313203930" flag="0"/>
      <psa03 value="1.0430471686" flag="0"/>
      <psa10 value="0.4077548597" flag="0"/>
      <psa30 value="0.1081558892" flag="0"/>
    </comp>
  </station>
  <station code="SIT2" name="SIT2" netid="HI" insttype="CMG-5TD,ACCELEROMETER,GURALP" lat="35.2059" lon="26.107">
    <comp name="--.HNZ">
      <acc value="0.6719631608" flag="0"/>
      <vel value="0.3754644100" flag="0"/>
      <psa03 value="1.9450538174" flag="0"/>
      <psa10 value="0.2787857702" flag="0"/>
      <psa30 value="0.0801093082" flag="0"/>
    </comp>
    <comp name="--.HNE">
      <acc value="1.7455849577" flag="0"/>
      <vel value="1.2560398576" flag="0"/>
      <psa03 value="5.0289488155" flag="0"/>
      <psa10 value="1.5174043471" flag="0"/>
      <psa30 value="0.1257517836" flag="0"/>
    </comp>
    <comp name="--.HNN">
      <acc value="1.9990342851" flag="0"/>
      <vel value="1.3610975629" flag="0"/>
      <psa03 value="5.5809715811" flag="0"/>
      <psa10 value="1.1955307569" flag="0"/>
      <psa30 value="0.0901753546" flag="0"/>
    </comp>
  </station>
  <station code="ANKY" name="ANKY" netid="HL" insttype="60" lat="35.867" lon="23.3012">
    <comp name="--.HHZ">
      <acc value="0.0687529407" flag="0"/>
      <vel value="0.1070971669" flag="0"/>
      <psa03 value="0.2221964381" flag="0"/>
      <psa10 value="0.0782626608" flag="0"/>
      <psa30 value="0.0361081570" flag="0"/>
    </comp>
    <comp name="--.HHE">
      <acc value="0.1118568352" flag="0"/>
      <vel value="0.1825213544" flag="0"/>
      <psa03 value="0.2115475734" flag="0"/>
      <psa10 value="0.3088213477" flag="0"/>
      <psa30 value="0.0837082280" flag="0"/>
    </comp>
    <comp name="--.HHN">
      <acc value="0.0769313092" flag="0"/>
      <vel value="0.1453478592" flag="0"/>
      <psa03 value="0.2346002377" flag="0"/>
      <psa10 value="0.1861753275" flag="0"/>
      <psa30 value="0.0570590077" flag="0"/>
    </comp>
  </station>
  <station code="APE" name="APE" netid="HL" insttype="120" lat="37.0727" lon="25.523">
    <comp name="--.HHZ">
      <acc value="0.0517829375" flag="0"/>
      <vel value="0.0658056214" flag="0"/>
      <psa03 value="0.1399175184" flag="0"/>
      <psa10 value="0.1074865313" flag="0"/>
      <psa30 value="0.0166722584" flag="0"/>
    </comp>
    <comp name="--.HHN">
      <acc value="0.0742976598" flag="0"/>
      <vel value="0.0592834252" flag="0"/>
      <psa03 value="0.2138098141" flag="0"/>
      <psa10 value="0.0824237461" flag="0"/>
      <psa30 value="0.0221422155" flag="0"/>
    </comp>
    <comp name="--.HHE">
      <acc value="0.0840792016" flag="0"/>
      <vel value="0.1054386431" flag="0"/>
      <psa03 value="0.3187861840" flag="0"/>
      <psa10 value="0.1373780442" flag="0"/>
      <psa30 value="0.0462698850" flag="0"/>
    </comp>
  </station>
  <station code="GVD" name="GVD" netid="HL" insttype="120" lat="34.8391" lon="24.0874">
    <comp name="--.HHN">
      <acc value="0.4452541845" flag="0"/>
      <vel value="0.3033172112" flag="0"/>
      <psa03 value="1.3795690344" flag="0"/>
      <psa10 value="0.4346571255" flag="0"/>
      <psa30 value="0.0442286833" flag="0"/>
    </comp>
    <comp name="--.HHE">
      <acc value="0.4160384863" flag="0"/>
      <vel value="0.2624781029" flag="0"/>
      <psa03 value="1.2456124564" flag="0"/>
      <psa10 value="0.3647848515" flag="0"/>
      <psa30 value="0.0351954725" flag="0"/>
    </comp>
    <comp name="--.HHZ">
      <acc value="0.1611155168" flag="0"/>
      <vel value="0.1232748155" flag="0"/>
      <psa03 value="0.3905092655" flag="0"/>
      <psa10 value="0.1928772472" flag="0"/>
      <psa30 value="0.0358020523" flag="0"/>
    </comp>
  </station>
  <station code="IACM" name="IACM" netid="HL" insttype="CMG5T" lat="35.3058" lon="25.0709">
    <comp name="--.HNE">
      <acc value="10.0256919600" flag="0"/>
      <vel value="6.7177823458" flag="0"/>
      <psa03 value="24.3017377811" flag="0"/>
      <psa10 value="15.8179058610" flag="0"/>
      <psa30 value="1.6785107068" flag="0"/>
    </comp>
    <comp name="--.HNN">
      <acc value="8.6673934553" flag="0"/>
      <vel value="6.7468736606" flag="0"/>
