<stationlist created="1778138434">
	<station code="KTHA" name="KTHA" netid="GE" source="GEOFON" insttype="" lat="36.2566" lon="23.0621">
		<comp name="--.HNE" depth="0.0">
			<acc value="0.0986168250330776" flag="0"/>
			<vel value="0.081729245073426" flag="0"/>
			<psa03 value="0.228094297627836" flag="0"/>
			<psa10 value="0.139732456589329" flag="0"/>
			<psa30 value="0.0208457942649073" flag="0"/>
		</comp>
		<comp name="--.HNN" depth="0.0">
			<acc value="0.0790055747380658" flag="0"/>
			<vel value="0.0703941934795363" flag="0"/>
			<psa03 value="0.208718993275486" flag="0"/>
			<psa10 value="0.0641265930719055" flag="0"/>
			<psa30 value="0.0435833905190804" flag="0"/>
		</comp>
		<comp name="--.HNZ" depth="0.0">
			<acc value="0.0610260114826419" flag="0"/>
			<vel value="0.0417488935058301" flag="0"/>
			<psa03 value="0.163622339176917" flag="0"/>
			<psa10 value="0.0671254417310504" flag="0"/>
			<psa30 value="0.018376327341499" flag="0"/>
		</comp>
	</station>
	<station code="KIAS" name="KIAS" netid="HA" source="Hellenic Seismological Network, University of Athens, Seismological Laboratory (HA)" insttype="" lat="37.9875" lon="22.7543">
		<comp name="--.HNE" depth="0.0">
			<acc value="0.0443387237719928" flag="0"/>
			<vel value="0.22298363239428" flag="0"/>
			<psa03 value="0.0934002081388007" flag="0"/>
			<psa10 value="0.130942639307046" flag="0"/>
			<psa30 value="0.0852653750795247" flag="0"/>
		</comp>
		<comp name="--.HNN" depth="0.0">
			<acc value="0.0390405731161758" flag="0"/>
			<vel value="0.106914606477661" flag="0"/>
			<psa03 value="0.108926445008922" flag="0"/>
			<psa10 value="0.108747123963387" flag="0"/>
			<psa30 value="0.0595004549465562" flag="0"/>
		</comp>
		<comp name="--.HNZ" depth="0.0">
			<acc value="0.0336357188489056" flag="0"/>
			<vel value="0.0906267034083218" flag="0"/>
			<psa03 value="0.0515222516378105" flag="0"/>
			<psa10 value="0.0571747612973379" flag="0"/>
			<psa30 value="0.0480537766601999" flag="0"/>
		</comp>
	</station>
	<station code="LTRS" name="LTRS" netid="HA" source="Hellenic Seismological Network, University of Athens, Seismological Laboratory (HA)" insttype="" lat="37.97528" lon="22.9765">
		<comp name="--.HNE" depth="0.0">
			<acc value="0.0408229050763367" flag="0"/>
			<vel value="0.0893624872805032" flag="0"/>
			<psa03 value="0.134276030544703" flag="0"/>
			<psa10 value="0.124293583840077" flag="0"/>
			<psa30 value="0.0298268592163939" flag="0"/>
		</comp>
		<comp name="--.HNN" depth="0.0">
			<acc value="0.0669445549498932" flag="0"/>
			<vel value="0.104584973851139" flag="0"/>
			<psa03 value="0.110978580953096" flag="0"/>
			<psa10 value="0.17591320338641" flag="0"/>
			<psa30 value="0.0387061640933976" flag="0"/>
		</comp>
		<comp name="--.HNZ" depth="0.0">
			<acc value="0.0263337638829671" flag="0"/>
			<vel value="0.0580630381587198" flag="0"/>
			<psa03 value="0.0601317855188658" flag="0"/>
			<psa10 value="0.0705514961902222" flag="0"/>
			<psa30 value="0.0221856830259496" flag="0"/>
		</comp>
	</station>
	<station code="XLKS" name="XLKS" netid="HA" source="Hellenic Seismological Network, University of Athens, Seismological Laboratory (HA)" insttype="" lat="38.0772" lon="22.6361">
		<comp name="--.HNE" depth="0.0">
			<acc value="0.0471355454383245" flag="0"/>
			<vel value="0.104628733824536" flag="0"/>
			<psa03 value="0.135622203055559" flag="0"/>
			<psa10 value="0.1166244532975" flag="0"/>
			<psa30 value="0.0627313223088993" flag="0"/>
		</comp>
		<comp name="--.HNN" depth="0.0">
			<acc value="0.0591527629517635" flag="0"/>
			<vel value="0.146469275249332" flag="0"/>
			<psa03 value="0.147877712839278" flag="0"/>
			<psa10 value="0.115212589768513" flag="0"/>
			<psa30 value="0.0937363562400332" flag="0"/>
		</comp>
		<comp name="--.HNZ" depth="0.0">
			<acc value="0.0272536101433171" flag="0"/>
			<vel value="0.0581859563897957" flag="0"/>
			<psa03 value="0.0898124808858649" flag="0"/>
			<psa10 value="0.0453266276667318" flag="0"/>
			<psa30 value="0.0290833532961072" flag="0"/>
		</comp>
	</station>
	<station code="ABEA" name="ABEA" netid="HC" source="Seismological Network of Crete (HC)" insttype="" lat="35.5163" lon="24.0113">
		<comp name="--.HNE" depth="0.0">
			<acc value="0.443394683442759" flag="0"/>
			<vel value="0.796412636664917" flag="0"/>
			<psa03 value="1.1381544804799" flag="0"/>
			<psa10 value="0.781018518642467" flag="0"/>
			<psa30 value="0.260340259597748" flag="0"/>
		</comp>
		<comp name="--.HNN" depth="0.0">
			<acc value="0.52049070262842" flag="0"/>
			<vel value="0.555010909780607" flag="0"/>
			<psa03 value="1.86821826029278" flag="0"/>
			<psa10 value="1.01941677135765" flag="0"/>
			<psa30 value="0.12124349845354" flag="0"/>
		</comp>
		<comp name="--.HNZ" depth="0.0">
			<acc value="0.250132529459606" flag="0"/>
			<vel value="0.329983486748393" flag="0"/>
			<psa03 value="0.636602921817503" flag="0"/>
			<psa10 value="0.558997210820318" flag="0"/>
			<psa30 value="0.0930844797234058" flag="0"/>
		</comp>
	</station>
	<station code="ATEI" name="ATEI" netid="HC" source="Seismological Network of Crete (HC)" insttype="" lat="35.5193" lon="24.0432">
		<comp name="--.HNE" depth="0.0">
			<acc value="0.417244943406272" flag="0"/>
			<vel value="0.476971523623955" flag="0"/>
			<psa03 value="1.08587451719004" flag="0"/>
			<psa10 value="0.841504205522729" flag="0"/>
			<psa30 value="0.158971131057417" flag="0"/>
		</comp>
		<comp name="--.HNN" depth="0.0">
			<acc value="0.372493052850124" flag="0"/>
			<vel value="0.39531425851327" flag="0"/>
			<psa03 value="0.733665018373297" flag="0"/>
			<psa10 value="0.694521168618677" flag="0"/>
			<psa30 value="0.114836060658751" flag="0"/>
		</comp>
		<comp name="--.HNZ" depth="0.0">
			<acc value="0.281871974797073" flag="0"/>
			<vel value="0.263497838262442" flag="0"/>
			<psa03 value="0.864466516666186" flag="0"/>
			<psa10 value="0.30891366401421" flag="0"/>
			<psa30 value="0.0769599648867934" flag="0"/>
		</comp>
	</station>
	<station code="DEYA" name="DEYA" netid="HC" source="Seismological Network of Crete (HC)" insttype="" lat="35.4825" lon="24.014">
		<comp name="--.HNE" depth="0.0">
			<acc value="0.764221827594129" flag="0"/>
			<vel value="0.92639555557369" flag="0"/>
			<psa03 value="1.83823094044564" flag="0"/>
			<psa10 value="1.57108815687798" flag="0"/>
			<psa30 value="0.158947729507085" flag="0"/>
		</comp>
		<comp name="--.HNN" depth="0.0">
			<acc value="0.585135475864519" flag="0"/>
			<vel value="0.564096903309728" flag="0"/>
			<psa03 value="1.69005645794443" flag="0"/>
			<psa10 value="1.18987870362579" flag="0"/>
			<psa30 value="0.212359267759296" flag="0"/>
		</comp>
		<comp name="--.HNZ" depth="0.0">
			<acc value="0.519610034737039" flag="0"/>
			<vel value="0.533750539292286" flag="0"/>
			<psa03 value="1.02327053665077" flag="0"/>
			<psa10 value="0.720775847861493" flag="0"/>
			<psa30 value="0.095654676653062" flag="0"/>
		</comp>
	</station>
	<station code="G0LD" name="G0LD" netid="HC" source="Seismological Network of Crete (HC)" insttype="" lat="35.4955" lon="24.0306">
		<comp name="--.HNE" depth="0.0">
			<acc value="1.19947539494273" flag="0"/>
			<vel value="1.23825982251178" flag="0"/>
			<psa03 value="2.79107039471542" flag="0"/>
			<psa10 value="2.17114542772908" flag="0"/>
			<psa30 value="0.350048442324866" flag="0"/>
		</comp>
		<comp name="--.HNN" depth="0.0">
			<acc value="1.01268540250204" flag="0"/>
			<vel value="1.12368978248533" flag="0"/>
			<psa03 value="2.1807554643462" flag="0"/>
			<psa10 value="1.70517447944024" flag="0"/>
			<psa30 value="0.362123935600391" flag="0"/>
		</comp>
		<comp name="--.HNZ" depth="0.0">
			<acc value="0.67775338253214" flag="0"/>
			<vel value="0.779036184922231" flag="0"/>
			<psa03 value="1.18910493903287" flag="0"/>
			<psa10 value="1.5355181605433" flag="0"/>
			<psa30 value="0.0970783976342658" flag="0"/>
		</comp>
	</station>
	<station code="MULT" name="MULT" netid="HC" source="Seismological Network of Crete (HC)" insttype="" lat="35.5091" lon="24.0118">
		<comp name="--.HNE" depth="0.0">
			<acc value="0.750892322330516" flag="0"/>
			<vel value="0.76292267748522" flag="0"/>
			<psa03 value="1.30356935507397" flag="0"/>
			<psa10 value="0.674684814558003" flag="0"/>
			<psa30 value="0.207612046612447" flag="0"/>
		</comp>
		<comp name="--.HNN" depth="0.0">
			<acc value="0.67182784297515" flag="0"/>
			<vel value="0.551032558998357" flag="0"/>
			<psa03 value="1.05317293420588" flag="0"/>
			<psa10 value="0.792399832600253" flag="0"/>
			<psa30 value="0.170209702224143" flag="0"/>
		</comp>
		<comp name="--.HNZ" depth="0.0">
			<acc value="0.425274957078825" flag="0"/>
			<vel value="0.463535553469357" flag="0"/>
			<psa03 value="0.710557404272268" flag="0"/>
			<psa10 value="0.522948022738688" flag="0"/>
			<psa30 value="0.117189496562268" flag="0"/>
		</comp>
	</station>
	<station code="NERO" name="NERO" netid="HC" source="Seismological Network of Crete (HC)" insttype="" lat="35.474" lon="24.0423">
		<comp name="--.HNE" depth="0.0">
			<acc value="0.371426505631794" flag="0"/>
			<vel value="0.448924132178941" flag="0"/>
			<psa03 value="0.852437969830589" flag="0"/>
			<psa10 value="0.594952432678876" flag="0"/>
			<psa30 value="0.0825221933568443" flag="0"/>
		</comp>
		<comp name="--.HNN" depth="0.0">
			<acc value="0.461026828875897" flag="0"/>
			<vel value="0.412103997662305" flag="0"/>
			<psa03 value="1.07082843712717" flag="0"/>
			<psa10 value="0.527894090391203" flag="0"/>
			<psa30 value="0.159295019179725" flag="0"/>
		</comp>
		<comp name="--.HNZ" depth="0.0">
			<acc value="0.401069746696936" flag="0"/>
			<vel value="0.317145278486074" flag="0"/>
			<psa03 value="0.651706672369958" flag="0"/>
			<psa10 value="0.628085007549796" flag="0"/>
			<psa30 value="0.0767120684646527" flag="0"/>
		</comp>
	</station>
	<station code="PASK" name="PASK" netid="HC" source="Seismological Network of Crete (HC)" insttype="" lat="35.4996" lon="24.0121">
		<comp name="--.HNE" depth="0.0">
			<acc value="0.675966023216699" flag="0"/>
			<vel value="0.801566559142733" flag="0"/>
			<psa03 value="1.60701112326593" flag="0"/>
			<psa10 value="1.10949521861474" flag="0"/>
			<psa30 value="0.18839218672425" flag="0"/>
		</comp>
		<comp name="--.HNN" depth="0.0">
			<acc value="0.560424472965828" flag="0"/>
			<vel value="0.520611730494037" flag="0"/>
			<psa03 value="1.48193417086722" flag="0"/>
			<psa10 value="0.853179418947789" flag="0"/>
			<psa30 value="0.200135071299701" flag="0"/>
		</comp>
		<comp name="--.HNZ" depth="0.0">
			<acc value="0.34456191206151" flag="0"/>
			<vel value="0.412092919692872" flag="0"/>
			<psa03 value="1.16725599164616" flag="0"/>
			<psa10 value="0.492281131208083" flag="0"/>
			<psa30 value="0.0814825578197668" flag="0"/>
		</comp>
	</station>
	<station code="POLY" name="POLY" netid="HC" source="Seismological Network of Crete (HC)" insttype="" lat="35.5226" lon="24.0602">
		<comp name="--.HNE" depth="0.0">
			<acc value="0.306987825579228" flag="0"/>
			<vel value="0.375040371378271" flag="0"/>
			<psa03 value="0.795564368902591" flag="0"/>
			<psa10 value="0.467675811225952" flag="0"/>
			<psa30 value="0.165011477867264" flag="0"/>
		</comp>
		<comp name="--.HNN" depth="0.0">
			<acc value="0.346734731572828" flag="0"/>
			<vel value="0.452626170261601" flag="0"/>
			<psa03 value="0.77950988870509" flag="0"/>
			<psa10 value="0.51513526518218" flag="0"/>
			<psa30 value="0.110017481451563" flag="0"/>
		</comp>
		<comp name="--.HNZ" depth="0.0">
			<acc value="0.221773408887822" flag="0"/>
			<vel value="0.293415339995955" flag="0"/>
			<psa03 value="0.595057711318787" flag="0"/>
			<psa10 value="0.341434348349879" flag="0"/>
			<psa30 value="0.0821509020939024" flag="0"/>
		</comp>
	</station>
	<station code="SOUD" name="SOUD" netid="HC" source="Seismological Network of Crete (HC)" insttype="" lat="35.4878" lon="24.0678">
		<comp name="--.HNE" depth="0.0">
			<acc value="0.824870926242447" flag="0"/>
			<vel value="0.651996551932826" flag="0"/>
			<psa03 value="1.69600735216528" flag="0"/>
			<psa10 value="1.18963844770768" flag="0"/>
			<psa30 value="0.18169550310223" flag="0"/>
		</comp>
		<comp name="--.HNN" depth="0.0">
			<acc value="0.755143341687374" flag="0"/>
			<vel value="0.660400715424071" flag="0"/>
			<psa03 value="1.55123492836791" flag="0"/>
			<psa10 value="0.798489816031578" flag="0"/>
			<psa30 value="0.142109214037982" flag="0"/>
		</comp>
		<comp name="--.HNZ" depth="0.0">
			<acc value="0.00621422965319307" flag="0"/>
			<vel value="0.00736844077936193" flag="0"/>
			<psa03 value="0.0080476262146897" flag="0"/>
			<psa10 value="0.00329584091141128" flag="0"/>
			<psa30 value="0.0023236374712435" flag="0"/>
		</comp>
	</station>
	<station code="ARS1" name="ARS1" netid="HI" source="ITSAK Strong Motion Network" insttype="" lat="37.6349" lon="22.7293">
		<comp name="--.HNE" depth="0.0">
			<acc value="0.055368536073862" flag="0"/>
			<vel value="0.100102635489541" flag="0"/>
			<psa03 value="0.142310094012064" flag="0"/>
			<psa10 value="0.108955810287884" flag="0"/>
			<psa30 value="0.0340847346130409" flag="0"/>
		</comp>
		<comp name="--.HNN" depth="0.0">
			<acc value="0.0499177821269939" flag="0"/>
			<vel value="0.0756508586051835" flag="0"/>
			<psa03 value="0.150613571159816" flag="0"/>
			<psa10 value="0.104304399654597" flag="0"/>
			<psa30 value="0.0369722325622709" flag="0"/>
		</comp>
		<comp name="--.HNZ" depth="0.0">
			<acc value="0.0269013591798828" flag="0"/>
			<vel value="0.0808261502770094" flag="0"/>
			<psa03 value="0.117262122206904" flag="0"/>
			<psa10 value="0.0385760979771671" flag="0"/>
			<psa30 value="0.0502657465255258" flag="0"/>
		</comp>
	</station>
	<station code="CH01" name="CH01" netid="HI" source="ITSAK Strong Motion Network" insttype="" lat="35.517" lon="24.0208">
		<comp name="--.HNE" depth="0.0">
			<acc value="0.484015132551235" flag="0"/>
			<vel value="0.650394342461287" flag="0"/>
			<psa03 value="1.17010076343305" flag="0"/>
			<psa10 value="0.65830636956571" flag="0"/>
			<psa30 value="0.241122586521141" flag="0"/>
		</comp>
		<comp name="--.HNN" depth="0.0">
			<acc value="0.476791162735731" flag="0"/>
			<vel value="0.438820256730799" flag="0"/>
			<psa03 value="1.04322760870701" flag="0"/>
			<psa10 value="0.404159623590271" flag="0"/>
			<psa30 value="0.110172585059743" flag="0"/>
		</comp>
		<comp name="--.HNZ" depth="0.0">
			<acc value="0.249348805839591" flag="0"/>
			<vel value="0.322783871887794" flag="0"/>
			<psa03 value="0.630480349561967" flag="0"/>
			<psa10 value="0.616591066133251" flag="0"/>
			<psa30 value="0.084331586553794" flag="0"/>
		</comp>
	</station>
	<station code="KLV1" name="KLV1" netid="HI" source="ITSAK Strong Motion Network" insttype="" lat="38.03256" lon="22.10797">
		<comp name="--.HNE" depth="0.0">
			<acc value="0.0370469632928275" flag="0"/>
			<vel value="0.0400085510800586" flag="0"/>
			<psa03 value="0.117887767819229" flag="0"/>
			<psa10 value="0.0681821267311895" flag="0"/>
			<psa30 value="0.0117419336788186" flag="0"/>
		</comp>
		<comp name="--.HNN" depth="0.0">
			<acc value="0.0310693034521728" flag="0"/>
			<vel value="0.0412365215227424" flag="0"/>
			<psa03 value="0.0769829695357215" flag="0"/>
			<psa10 value="0.036798656480378" flag="0"/>
			<psa30 value="0.00878454943330871" flag="0"/>
		</comp>
		<comp name="--.HNZ" depth="0.0">
			<acc value="0.0131034162667087" flag="0"/>
			<vel value="0.0275887372200316" flag="0"/>
			<psa03 value="0.0292057550504338" flag="0"/>
			<psa10 value="0.0355066358903799" flag="0"/>
			<psa30 value="0.00716488797199682" flag="0"/>
		</comp>
	</station>
	<station code="KRL1" name="KRL1" netid="HI" source="ITSAK Strong Motion Network" insttype="" lat="37.7951" lon="26.7065">
		<comp name="--.HNE" depth="0.0">
			<acc value="0.0317162084721523" flag="0"/>
			<vel value="0.0584001031122688" flag="0"/>
			<psa03 value="0.0902231851765184" flag="0"/>
			<psa10 value="0.104320623229499" flag="0"/>
			<psa30 value="0.023239152813135" flag="0"/>
		</comp>
		<comp name="--.HNN" depth="0.0">
			<acc value="0.0266261764670287" flag="0"/>
			<vel value="0.0662513691670119" flag="0"/>
			<psa03 value="0.0637415454813011" flag="0"/>
			<psa10 value="0.0729906277709229" flag="0"/>
			<psa30 value="0.0143135015325489" flag="0"/>
		</comp>
		<comp name="--.HNZ" depth="0.0">
			<acc value="0.0195420874922442" flag="0"/>
			<vel value="0.0422768377740567" flag="0"/>
			<psa03 value="0.0603466851716721" flag="0"/>
			<psa10 value="0.0536566982428292" flag="0"/>
			<psa30 value="0.0175012993751759" flag="0"/>
		</comp>
	</station>
	<station code="KSS1" name="KSS1" netid="HI" source="ITSAK Strong Motion Network" insttype="" lat="35.4189" lon="26.9207">
		<comp name="--.HNE" depth="0.0">
			<acc value="0.134943724268236" flag="0"/>
			<vel value="0.185160286360719" flag="0"/>
			<psa03 value="0.333884097349531" flag="0"/>
			<psa10 value="0.161233245911211" flag="0"/>
			<psa30 value="0.0518846904395155" flag="0"/>
		</comp>
		<comp name="--.HNN" depth="0.0">
			<acc value="0.170577718267459" flag="0"/>
			<vel value="0.246632288539782" flag="0"/>
			<psa03 value="0.597272816394466" flag="0"/>
			<psa10 value="0.24892469003889" flag="0"/>
			<psa30 value="0.0811689570448407" flag="0"/>
		</comp>
		<comp name="--.HNZ" depth="0.0">
			<acc value="0.0837520897709346" flag="0"/>
			<vel value="0.184088587157089" flag="0"/>
			<psa03 value="0.146459410550476" flag="0"/>
			<psa10 value="0.135789430383359" flag="0"/>
			<psa30 value="0.0462210385838449" flag="0"/>
		</comp>
	</station>
	<station code="NAX1" name="NAX1" netid="HI" source="ITSAK Strong Motion Network" insttype="" lat="37.101394" lon="25.374103">
		<comp name="--.HNE" depth="0.0">
			<acc value="0.0702973576110707" flag="0"/>
			<vel value="0.149189058641533" flag="0"/>
			<psa03 value="0.156696432452866" flag="0"/>
			<psa10 value="0.0894309443613575" flag="0"/>
			<psa30 value="0.0526450708107249" flag="0"/>
		</comp>
		<comp name="--.HNN" depth="0.0">
			<acc value="0.0812961712571511" flag="0"/>
			<vel value="0.087735545512372" flag="0"/>
			<psa03 value="0.281079745153481" flag="0"/>
			<psa10 value="0.0653572070941276" flag="0"/>
			<psa30 value="0.0333132535062331" flag="0"/>
		</comp>
		<comp name="--.HNZ" depth="0.0">
			<acc value="0.0683127221788626" flag="0"/>
			<vel value="0.0802548934930286" flag="0"/>
			<psa03 value="0.212325253005881" flag="0"/>
			<psa10 value="0.119636210311752" flag="0"/>
			<psa30 value="0.0268234769237242" flag="0"/>
		</comp>
	</station>
	<station code="NPS1" name="NPS1" netid="HI" source="ITSAK Strong Motion Network" insttype="" lat="36.51263" lon="23.06248">
		<comp name="--.HNE" depth="0.0">
			<acc value="0.107654246901331" flag="0"/>
			<vel value="0.0883043591132983" flag="0"/>
			<psa03 value="0.335258730078691" flag="0"/>
			<psa10 value="0.108042167263409" flag="0"/>
			<psa30 value="0.0263325960719031" flag="0"/>
		</comp>
		<comp name="--.HNN" depth="0.0">
			<acc value="0.106751640862492" flag="0"/>
			<vel value="0.113856142610639" flag="0"/>
			<psa03 value="0.349039872178343" flag="0"/>
			<psa10 value="0.116175616064538" flag="0"/>
			<psa30 value="0.0213004760520075" flag="0"/>
		</comp>
		<comp name="--.HNZ" depth="0.0">
			<acc value="0.0559802629191244" flag="0"/>
			<vel value="0.0554134631611167" flag="0"/>
			<psa03 value="0.209518275390894" flag="0"/>
			<psa10 value="0.0527247990093451" flag="0"/>
			<psa30 value="0.0249567182601071" flag="0"/>
		</comp>
	</station>
	<station code="RDI1" name="RDI1" netid="HI" source="ITSAK Strong Motion Network" insttype="" lat="36.4514" lon="28.224">
		<comp name="--.HNE" depth="0.0">
			<acc value="0.0400646132621384" flag="0"/>
			<vel value="0.129828241479812" flag="0"/>
			<psa03 value="0.0918894413910394" flag="0"/>
			<psa10 value="0.110744536282066" flag="0"/>
			<psa30 value="0.0483961960103179" flag="0"/>
		</comp>
