<?xml version="1.0" encoding="UTF-8" standalone="yes"?>
<!DOCTYPE earthquake SYSTEM "stationlist.dtd">
<stationlist created="" xmlns="ch.ethz.sed.shakemap.usgs.xml">
  <station code="THERA" name="THERA" netid="GE" insttype="STS-2/N" lat="36.367" lon="25.4753">
    <comp name="--.HHE">
      <acc value="0.0474315034" flag="0"/>
      <vel value="0.0253055617" flag="0"/>
      <psa03 value="0.0602436352" flag="0"/>
      <psa10 value="0.0290842348" flag="0"/>
      <psa30 value="0.0036169034" flag="0"/>
    </comp>
    <comp name="--.HHN">
      <acc value="0.0467935263" flag="0"/>
      <vel value="0.0200728898" flag="0"/>
      <psa03 value="0.0500008339" flag="0"/>
      <psa10 value="0.0182454899" flag="0"/>
      <psa30 value="0.0020389477" flag="0"/>
    </comp>
    <comp name="--.HHZ">
      <acc value="0.0403376408" flag="0"/>
      <vel value="0.0137449475" flag="0"/>
      <psa03 value="0.0598737437" flag="0"/>
      <psa10 value="0.0197618002" flag="0"/>
      <psa30 value="0.0028418241" flag="0"/>
    </comp>
  </station>
</stationlist>
