<?xml version="1.0" encoding="UTF-8" standalone="yes"?>
<!DOCTYPE earthquake SYSTEM "stationlist.dtd">
<stationlist created="" xmlns="ch.ethz.sed.shakemap.usgs.xml">
  <station code="THERA" name="THERA" netid="GE" insttype="STS-2/N" lat="36.367" lon="25.4753">
    <comp name="--.HHN">
      <acc value="0.0467935247" flag="0"/>
      <vel value="0.0200728907" flag="0"/>
      <psa03 value="0.0500008339" flag="0"/>
      <psa10 value="0.0182454881" flag="0"/>
      <psa30 value="0.0020390275" flag="0"/>
    </comp>
    <comp name="--.HHE">
      <acc value="0.0474315042" flag="0"/>
      <vel value="0.0253055614" flag="0"/>
      <psa03 value="0.0602436352" flag="0"/>
      <psa10 value="0.0290842380" flag="0"/>
      <psa30 value="0.0036167407" flag="0"/>
    </comp>
    <comp name="--.HHZ">
      <acc value="0.0403376390" flag="0"/>
      <vel value="0.0137449461" flag="0"/>
      <psa03 value="0.0598737437" flag="0"/>
      <psa10 value="0.0197618086" flag="0"/>
      <psa30 value="0.0028418499" flag="0"/>
    </comp>
  </station>
</stationlist>
