<stationlist created="1778550963">
	<station code="4802" name="4802" netid="TK" source="Turkish National Strong Motion Network (TNSMN)" insttype="" lat="37.03304" lon="27.43997">
		<comp name="00.HNE" depth="None">
			<acc value="0.101206941125494" flag="0"/>
			<vel value="0.075461299892125" flag="0"/>
			<psa03 value="0.201295187575605" flag="0"/>
			<psa10 value="0.0530530714976157" flag="0"/>
			<psa30 value="0.0046885358315287" flag="0"/>
		</comp>
		<comp name="00.HNN" depth="None">
			<acc value="0.091138460110496" flag="0"/>
			<vel value="0.0468000810793388" flag="0"/>
			<psa03 value="0.206708994576416" flag="0"/>
			<psa10 value="0.0286023504248626" flag="0"/>
			<psa30 value="0.00203800751146228" flag="0"/>
		</comp>
		<comp name="00.HNZ" depth="None">
			<acc value="0.0500949579737775" flag="0"/>
			<vel value="0.027627114603258" flag="0"/>
			<psa03 value="0.118343136505329" flag="0"/>
			<psa10 value="0.0148508332207368" flag="0"/>
			<psa30 value="0.00147962477286625" flag="0"/>
		</comp>
	</station>
</stationlist>
