<?xml version="1.0" encoding="UTF-8" standalone="yes"?>
<!DOCTYPE earthquake SYSTEM "stationlist.dtd">
<stationlist created="" xmlns="ch.ethz.sed.shakemap.usgs.xml">
  <station code="TASB" name="TASB" netid="KO" insttype="CMG-3T" lat="39.9838" lon="44.2384">
    <comp name="--.HHN">
      <acc value="0.0105298323" flag="0"/>
      <vel value="0.0042168790" flag="0"/>
      <psa03 value="0.0171474104" flag="0"/>
      <psa10 value="0.0046689137" flag="0"/>
      <psa30 value="0.0003896791" flag="0"/>
    </comp>
    <comp name="--.HHZ">
      <acc value="0.0080278147" flag="0"/>
      <vel value="0.0028823952" flag="0"/>
      <psa03 value="0.0178073343" flag="0"/>
      <psa10 value="0.0030603801" flag="0"/>
      <psa30 value="0.0003401624" flag="0"/>
    </comp>
    <comp name="--.HHE">
      <acc value="0.0017906544" flag="0"/>
      <vel value="0.0003757768" flag="0"/>
      <psa03 value="0.0011391937" flag="0"/>
      <psa10 value="0.0000566900" flag="0"/>
      <psa30 value="0.0000133257" flag="0"/>
    </comp>
  </station>
</stationlist>
