<?xml version="1.0" encoding="UTF-8" standalone="yes"?>
<!DOCTYPE earthquake SYSTEM "stationlist.dtd">
<stationlist created="" xmlns="ch.ethz.sed.shakemap.usgs.xml">
  <station code="IMMV" name="IMMV" netid="GE" insttype="STS-2/N" commtype="DIG" lat="35.4606" lon="23.9811">
    <comp name="--.HHZ">
      <acc value="0.0078722694" flag="0"/>
      <vel value="0.0061324422" flag="0"/>
      <psa03 value="0.0227625047" flag="0"/>
      <psa10 value="0.0056875750" flag="0"/>
      <psa30 value="0.0003989713" flag="0"/>
    </comp>
    <comp name="--.HHE">
      <acc value="0.0091605725" flag="0"/>
      <vel value="0.0084833711" flag="0"/>
      <psa03 value="0.0373352071" flag="0"/>
      <psa10 value="0.0095933795" flag="0"/>
      <psa30 value="0.0008025449" flag="0"/>
    </comp>
    <comp name="--.HHN">
      <acc value="0.0116195890" flag="0"/>
      <vel value="0.0088422601" flag="0"/>
      <psa03 value="0.0409133023" flag="0"/>
      <psa10 value="0.0115733089" flag="0"/>
      <psa30 value="0.0009391392" flag="0"/>
    </comp>
  </station>
  <station code="CH01" name="CH01" netid="HI" insttype="CMG-5TD,ACCELEROMETER,GURALP" commtype="DIG" lat="35.517" lon="24.0208">
    <comp name="--.HNZ">
      <acc value="0.0085026741" flag="0"/>
      <vel value="0.0046390507" flag="0"/>
      <psa03 value="0.0212192329" flag="0"/>
      <psa10 value="0.0057851340" flag="0"/>
      <psa30 value="0.0003547273" flag="0"/>
    </comp>
    <comp name="--.HNN">
      <acc value="0.0090512171" flag="0"/>
      <vel value="0.0070568048" flag="0"/>
      <psa03 value="0.0247222158" flag="0"/>
      <psa10 value="0.0096496824" flag="0"/>
      <psa30 value="0.0010190177" flag="0"/>
    </comp>
    <comp name="--.HNE">
      <acc value="0.0077142293" flag="0"/>
      <vel value="0.0086844768" flag="0"/>
      <psa03 value="0.0198937921" flag="0"/>
      <psa10 value="0.0110839921" flag="0"/>
      <psa30 value="0.0015020359" flag="0"/>
    </comp>
  </station>
  <station code="CH03" name="CH03" netid="HI" insttype="unknown" commtype="DIG" lat="35.533" lon="24.0705">
    <comp name="--.HNN">
      <acc value="0.0069702260" flag="0"/>
      <vel value="0.0067271391" flag="0"/>
      <psa03 value="0.0295178182" flag="0"/>
      <psa10 value="0.0087867554" flag="0"/>
      <psa30 value="0.0006913640" flag="0"/>
    </comp>
    <comp name="--.HNZ">
      <acc value="0.0071675796" flag="0"/>
      <vel value="0.0031707946" flag="0"/>
      <psa03 value="0.0217489322" flag="0"/>
      <psa10 value="0.0050631312" flag="0"/>
      <psa30 value="0.0004416053" flag="0"/>
    </comp>
    <comp name="--.HNE">
      <acc value="0.0063467784" flag="0"/>
      <vel value="0.0062063204" flag="0"/>
      <psa03 value="0.0175920186" flag="0"/>
      <psa10 value="0.0069846461" flag="0"/>
      <psa30 value="0.0007189135" flag="0"/>
    </comp>
  </station>
  <station code="KIS1" name="KIS1" netid="HI" insttype="unknown" commtype="DIG" lat="35.4939" lon="23.659">
    <comp name="--.HNN">
      <acc value="0.0218873610" flag="0"/>
      <vel value="0.0169892466" flag="0"/>
      <psa03 value="0.0796718807" flag="0"/>
      <psa10 value="0.0272366465" flag="0"/>
      <psa30 value="0.0015734408" flag="0"/>
    </comp>
    <comp name="--.HNE">
      <acc value="0.0210979466" flag="0"/>
      <vel value="0.0157367102" flag="0"/>
      <psa03 value="0.0603148285" flag="0"/>
      <psa10 value="0.0214105001" flag="0"/>
      <psa30 value="0.0013222150" flag="0"/>
    </comp>
    <comp name="--.HNZ">
      <acc value="0.0205490795" flag="0"/>
      <vel value="0.0114799720" flag="0"/>
      <psa03 value="0.0621505255" flag="0"/>
      <psa10 value="0.0125696027" flag="0"/>
      <psa30 value="0.0010870800" flag="0"/>
    </comp>
  </station>
  <station code="CHNB" name="CHNB" netid="HL" insttype="CMG-5" commtype="DIG" lat="35.4877" lon="24.0661">
    <comp name="00.HNN">
      <acc value="0.0276473082" flag="0"/>
      <vel value="0.0254196298" flag="0"/>
      <psa03 value="0.0664609937" flag="0"/>
      <psa10 value="0.0298236086" flag="0"/>
      <psa30 value="0.0017035870" flag="0"/>
    </comp>
    <comp name="00.HNE">
      <acc value="0.0317807422" flag="0"/>
      <vel value="0.0302501628" flag="0"/>
      <psa03 value="0.0850052241" flag="0"/>
      <psa10 value="0.0298406792" flag="0"/>
      <psa30 value="0.0016951863" flag="0"/>
    </comp>
    <comp name="00.HNZ">
      <acc value="0.0234537795" flag="0"/>
      <vel value="0.0127453107" flag="0"/>
      <psa03 value="0.0722318766" flag="0"/>
      <psa10 value="0.0120891086" flag="0"/>
      <psa30 value="0.0007966527" flag="0"/>
    </comp>
  </station>
  <station code="IMMV" name="IMMV" netid="HL" insttype="120" commtype="DIG" lat="35.4606" lon="23.9811">
    <comp name="--.HHE">
      <acc value="0.0089455391" flag="0"/>
      <vel value="0.0083648652" flag="0"/>
      <psa03 value="0.0363174429" flag="0"/>
      <psa10 value="0.0095045964" flag="0"/>
      <psa30 value="0.0008000074" flag="0"/>
    </comp>
    <comp name="--.HHN">
      <acc value="0.0113800931" flag="0"/>
      <vel value="0.0087326209" flag="0"/>
      <psa03 value="0.0398486299" flag="0"/>
      <psa10 value="0.0114884220" flag="0"/>
      <psa30 value="0.0009358575" flag="0"/>
    </comp>
    <comp name="--.HHZ">
      <acc value="0.0076254111" flag="0"/>
      <vel value="0.0060147025" flag="0"/>
      <psa03 value="0.0222035445" flag="0"/>
      <psa10 value="0.0056252116" flag="0"/>
      <psa30 value="0.0003952024" flag="0"/>
    </comp>
  </station>
  <station code="SIVA" name="SIVA" netid="HL" insttype="60" commtype="DIG" lat="35.0178" lon="24.812">
    <comp name="--.HHE">
      <acc value="0.0080920273" flag="0"/>
      <vel value="0.0067246322" flag="0"/>
      <psa03 value="0.0195349562" flag="0"/>
      <psa10 value="0.0089433395" flag="0"/>
      <psa30 value="0.0006249403" flag="0"/>
    </comp>
    <comp name="--.HHN">
      <acc value="0.0058790907" flag="0"/>
      <vel value="0.0054515834" flag="0"/>
      <psa03 value="0.0160658584" flag="0"/>
      <psa10 value="0.0070133514" flag="0"/>
      <psa30 value="0.0004298111" flag="0"/>
    </comp>
    <comp name="--.HHZ">
      <acc value="0.0033780015" flag="0"/>
      <vel value="0.0027257430" flag="0"/>
      <psa03 value="0.0094817509" flag="0"/>
      <psa10 value="0.0033186718" flag="0"/>
      <psa30 value="0.0002815042" flag="0"/>
    </comp>
  </station>
</stationlist>
