<?xml version="1.0" encoding="UTF-8" standalone="yes"?>
<!DOCTYPE earthquake SYSTEM "stationlist.dtd">
<stationlist created="" xmlns="ch.ethz.sed.shakemap.usgs.xml">
  <station code="ARPRA" name="ARPRA" netid="KO" insttype="CMG-5T" lat="39.0929" lon="38.3356">
    <comp name="--.HNN">
      <acc value="0.1354104265" flag="0"/>
      <vel value="0.0394887117" flag="0"/>
      <psa03 value="0.2465253080" flag="0"/>
      <psa10 value="0.0203257628" flag="0"/>
      <psa30 value="0.0018467731" flag="0"/>
    </comp>
    <comp name="--.HNE">
      <acc value="0.1572510299" flag="0"/>
      <vel value="0.0445992952" flag="0"/>
      <psa03 value="0.2232274294" flag="0"/>
      <psa10 value="0.0374336015" flag="0"/>
      <psa30 value="0.0017104658" flag="0"/>
    </comp>
    <comp name="--.HNZ">
      <acc value="0.1018375278" flag="0"/>
      <vel value="0.0202696838" flag="0"/>
      <psa03 value="0.1036765425" flag="0"/>
      <psa10 value="0.0129021293" flag="0"/>
      <psa30 value="0.0017878740" flag="0"/>
    </comp>
  </station>
  <station code="KYHL" name="KYHL" netid="KO" insttype="CMG-5T" lat="40.3244" lon="37.8955">
    <comp name="--.HNN">
      <acc value="0.0160044291" flag="0"/>
      <vel value="0.0105966034" flag="0"/>
      <psa03 value="0.0522154997" flag="0"/>
      <psa10 value="0.0063233579" flag="0"/>
      <psa30 value="0.0014808848" flag="0"/>
    </comp>
    <comp name="--.HNE">
      <acc value="0.0130382220" flag="0"/>
      <vel value="0.0091845174" flag="0"/>
      <psa03 value="0.0425729779" flag="0"/>
      <psa10 value="0.0110793879" flag="0"/>
      <psa30 value="0.0012219650" flag="0"/>
    </comp>
    <comp name="--.HNZ">
      <acc value="0.0089138591" flag="0"/>
      <vel value="0.0044550216" flag="0"/>
      <psa03 value="0.0407145204" flag="0"/>
      <psa10 value="0.0046149556" flag="0"/>
      <psa30 value="0.0008398244" flag="0"/>
    </comp>
  </station>
  <station code="RSDY" name="RSDY" netid="KO" insttype="CMG-3T" lat="40.3971" lon="37.3273">
    <comp name="--.HHN">
      <acc value="0.0071871656" flag="0"/>
      <vel value="0.0062932565" flag="0"/>
      <psa03 value="0.0155861146" flag="0"/>
      <psa10 value="0.0093947945" flag="0"/>
      <psa30 value="0.0012901546" flag="0"/>
    </comp>
    <comp name="--.HHZ">
      <acc value="0.0055561643" flag="0"/>
      <vel value="0.0041723863" flag="0"/>
      <psa03 value="0.0220397538" flag="0"/>
      <psa10 value="0.0043822521" flag="0"/>
      <psa30 value="0.0008280842" flag="0"/>
    </comp>
  </station>
  <station code="SVSK" name="SVSK" netid="KO" insttype="CMG-3T" lat="39.9157" lon="36.9925">
    <comp name="--.HHZ">
      <acc value="0.0270086264" flag="0"/>
      <vel value="0.0120140691" flag="0"/>
      <psa03 value="0.0756765115" flag="0"/>
      <psa10 value="0.0154069992" flag="0"/>
      <psa30 value="0.0026877678" flag="0"/>
    </comp>
    <comp name="--.HHN">
      <acc value="0.0344701353" flag="0"/>
      <vel value="0.0155634814" flag="0"/>
      <psa03 value="0.0705775577" flag="0"/>
      <psa10 value="0.0140990300" flag="0"/>
      <psa30 value="0.0018804816" flag="0"/>
    </comp>
    <comp name="--.HHE">
      <acc value="0.0410402218" flag="0"/>
      <vel value="0.0203121548" flag="0"/>
      <psa03 value="0.0665482772" flag="0"/>
      <psa10 value="0.0185255770" flag="0"/>
      <psa30 value="0.0024655216" flag="0"/>
    </comp>
  </station>
  <station code="TOKT" name="TOKT" netid="KO" insttype="CMG-3T" lat="40.3173" lon="36.5443">
    <comp name="--.HHZ">
      <acc value="0.0000727778" flag="0"/>
      <vel value="0.0000072371" flag="0"/>
      <psa03 value="0.0000255584" flag="0"/>
      <psa10 value="0.0000073647" flag="0"/>
      <psa30 value="0.0000017220" flag="0"/>
    </comp>
    <comp name="--.HHE">
      <acc value="0.0041531685" flag="0"/>
      <vel value="0.0027164525" flag="0"/>
      <psa03 value="0.0137872012" flag="0"/>
      <psa10 value="0.0038038613" flag="0"/>
      <psa30 value="0.0011166540" flag="0"/>
    </comp>
    <comp name="--.HHN">
      <acc value="0.0047230279" flag="0"/>
      <vel value="0.0036984730" flag="0"/>
      <psa03 value="0.0129453509" flag="0"/>
      <psa10 value="0.0060724720" flag="0"/>
      <psa30 value="0.0019609548" flag="0"/>
    </comp>
  </station>
  <station code="TUNC" name="TUNC" netid="KO" insttype="CMG-5T" lat="39.6942" lon="37.5388">
    <comp name="--.HNZ">
      <acc value="0.1258032815" flag="0"/>
      <vel value="0.0618280089" flag="0"/>
      <psa03 value="0.3088379253" flag="0"/>
      <psa10 value="0.0839599028" flag="0"/>
      <psa30 value="0.0100656773" flag="0"/>
    </comp>
    <comp name="--.HNN">
      <acc value="0.2880441701" flag="0"/>
      <vel value="0.1265638051" flag="0"/>
      <psa03 value="0.6071065079" flag="0"/>
      <psa10 value="0.1321327837" flag="0"/>
      <psa30 value="0.0095447937" flag="0"/>
    </comp>
    <comp name="--.HNE">
      <acc value="0.2712071128" flag="0"/>
      <vel value="0.1245826334" flag="0"/>
      <psa03 value="0.4275582451" flag="0"/>
      <psa10 value="0.1553985862" flag="0"/>
      <psa30 value="0.0097095877" flag="0"/>
    </comp>
  </station>
</stationlist>
