<?xml version="1.0" encoding="UTF-8" standalone="yes"?>
<!DOCTYPE earthquake SYSTEM "stationlist.dtd">
<stationlist created="" xmlns="ch.ethz.sed.shakemap.usgs.xml">
  <station code="ARPRA" name="ARPRA" netid="KO" insttype="CMG-5T" lat="39.0929" lon="38.3356">
    <comp name="--.HNE">
      <acc value="0.1572510303" flag="0"/>
      <vel value="0.0445992948" flag="0"/>
      <psa03 value="0.2232274294" flag="0"/>
      <psa10 value="0.0374336006" flag="0"/>
      <psa30 value="0.0017114897" flag="0"/>
    </comp>
    <comp name="--.HNZ">
      <acc value="0.1018375267" flag="0"/>
      <vel value="0.0202696782" flag="0"/>
      <psa03 value="0.1036765425" flag="0"/>
      <psa10 value="0.0129021306" flag="0"/>
      <psa30 value="0.0017878698" flag="0"/>
    </comp>
    <comp name="--.HNN">
      <acc value="0.1354104330" flag="0"/>
      <vel value="0.0394887074" flag="0"/>
      <psa03 value="0.2465253080" flag="0"/>
      <psa10 value="0.0203257615" flag="0"/>
      <psa30 value="0.0018465801" flag="0"/>
    </comp>
  </station>
  <station code="KYHL" name="KYHL" netid="KO" insttype="CMG-5T" lat="40.3244" lon="37.8955">
    <comp name="--.HNE">
      <acc value="0.0130382243" flag="0"/>
      <vel value="0.0091845122" flag="0"/>
      <psa03 value="0.0425729779" flag="0"/>
      <psa10 value="0.0110793878" flag="0"/>
      <psa30 value="0.0012219995" flag="0"/>
    </comp>
    <comp name="--.HNN">
      <acc value="0.0160044273" flag="0"/>
      <vel value="0.0105966054" flag="0"/>
      <psa03 value="0.0522154997" flag="0"/>
      <psa10 value="0.0063233579" flag="0"/>
      <psa30 value="0.0014808424" flag="0"/>
    </comp>
    <comp name="--.HNZ">
      <acc value="0.0089138517" flag="0"/>
      <vel value="0.0044550288" flag="0"/>
      <psa03 value="0.0407145204" flag="0"/>
      <psa10 value="0.0046149557" flag="0"/>
      <psa30 value="0.0008399598" flag="0"/>
    </comp>
  </station>
  <station code="RSDY" name="RSDY" netid="KO" insttype="CMG-3T" lat="40.3971" lon="37.3273">
    <comp name="--.HHN">
      <acc value="0.0071871657" flag="0"/>
      <vel value="0.0062932564" flag="0"/>
      <psa03 value="0.0155861146" flag="0"/>
      <psa10 value="0.0093947944" flag="0"/>
      <psa30 value="0.0012901551" flag="0"/>
    </comp>
    <comp name="--.HHZ">
      <acc value="0.0055561642" flag="0"/>
      <vel value="0.0041723872" flag="0"/>
      <psa03 value="0.0220397538" flag="0"/>
      <psa10 value="0.0043822521" flag="0"/>
      <psa30 value="0.0008280860" flag="0"/>
    </comp>
  </station>
  <station code="SVSK" name="SVSK" netid="KO" insttype="CMG-3T" lat="39.9157" lon="36.9925">
    <comp name="--.HHE">
      <acc value="0.0410402215" flag="0"/>
      <vel value="0.0203121544" flag="0"/>
      <psa03 value="0.0665482772" flag="0"/>
      <psa10 value="0.0185255770" flag="0"/>
      <psa30 value="0.0024655166" flag="0"/>
    </comp>
    <comp name="--.HHN">
      <acc value="0.0344701354" flag="0"/>
      <vel value="0.0155634812" flag="0"/>
      <psa03 value="0.0705775577" flag="0"/>
      <psa10 value="0.0140990299" flag="0"/>
      <psa30 value="0.0018804493" flag="0"/>
    </comp>
    <comp name="--.HHZ">
      <acc value="0.0270086265" flag="0"/>
      <vel value="0.0120140696" flag="0"/>
      <psa03 value="0.0756765115" flag="0"/>
      <psa10 value="0.0154069992" flag="0"/>
      <psa30 value="0.0026877401" flag="0"/>
    </comp>
  </station>
  <station code="TOKT" name="TOKT" netid="KO" insttype="CMG-3T" lat="40.3173" lon="36.5443">
    <comp name="--.HHE">
      <acc value="0.0041531677" flag="0"/>
      <vel value="0.0027164524" flag="0"/>
      <psa03 value="0.0137872012" flag="0"/>
      <psa10 value="0.0038038613" flag="0"/>
      <psa30 value="0.0011166519" flag="0"/>
    </comp>
    <comp name="--.HHN">
      <acc value="0.0047230274" flag="0"/>
      <vel value="0.0036984728" flag="0"/>
      <psa03 value="0.0129453509" flag="0"/>
      <psa10 value="0.0060724720" flag="0"/>
      <psa30 value="0.0019609584" flag="0"/>
    </comp>
    <comp name="--.HHZ">
      <acc value="0.0000737111" flag="0"/>
      <vel value="0.0000090295" flag="0"/>
      <psa03 value="0.0000255584" flag="0"/>
      <psa10 value="0.0000073647" flag="0"/>
      <psa30 value="0.0000017236" flag="0"/>
    </comp>
  </station>
  <station code="TUNC" name="TUNC" netid="KO" insttype="CMG-5T" lat="39.6942" lon="37.5388">
    <comp name="--.HNZ">
      <acc value="0.1258032769" flag="0"/>
      <vel value="0.0618280028" flag="0"/>
      <psa03 value="0.3088379253" flag="0"/>
      <psa10 value="0.0839599014" flag="0"/>
      <psa30 value="0.0100649303" flag="0"/>
    </comp>
    <comp name="--.HNN">
      <acc value="0.2880441673" flag="0"/>
      <vel value="0.1265638250" flag="0"/>
      <psa03 value="0.6071065079" flag="0"/>
      <psa10 value="0.1321327849" flag="0"/>
      <psa30 value="0.0095452599" flag="0"/>
    </comp>
    <comp name="--.HNE">
      <acc value="0.2712071143" flag="0"/>
      <vel value="0.1245826295" flag="0"/>
      <psa03 value="0.4275582451" flag="0"/>
      <psa10 value="0.1553985864" flag="0"/>
      <psa30 value="0.0097085663" flag="0"/>
    </comp>
  </station>
</stationlist>
