<?xml version="1.0" encoding="UTF-8" standalone="yes"?>
<!DOCTYPE earthquake SYSTEM "stationlist.dtd">
<stationlist created="" xmlns="ch.ethz.sed.shakemap.usgs.xml">
  <station code="CAME" name="CAME" netid="KO" insttype="CMG-5T" lat="36.9435" lon="29.3023">
    <comp name="--.HNE">
      <acc value="0.0108445026" flag="0"/>
      <vel value="0.0075246504" flag="0"/>
      <psa03 value="0.0313812873" flag="0"/>
      <psa10 value="0.0067102239" flag="0"/>
      <psa30 value="0.0007438902" flag="0"/>
    </comp>
    <comp name="--.HNZ">
      <acc value="0.0050600677" flag="0"/>
      <vel value="0.0029564458" flag="0"/>
      <psa03 value="0.0181703872" flag="0"/>
      <psa10 value="0.0044621023" flag="0"/>
      <psa30 value="0.0004860745" flag="0"/>
    </comp>
    <comp name="--.HNN">
      <acc value="0.0100597212" flag="0"/>
      <vel value="0.0060979763" flag="0"/>
      <psa03 value="0.0349415773" flag="0"/>
      <psa10 value="0.0097786810" flag="0"/>
      <psa30 value="0.0008581668" flag="0"/>
    </comp>
  </station>
  <station code="DALY" name="DALY" netid="KO" insttype="CMG-3T" lat="36.8162" lon="28.6532">
    <comp name="--.HHN">
      <acc value="0.0102517053" flag="0"/>
      <vel value="0.0068025501" flag="0"/>
      <psa03 value="0.0338381036" flag="0"/>
      <psa10 value="0.0111284150" flag="0"/>
      <psa30 value="0.0010012585" flag="0"/>
    </comp>
    <comp name="--.HHZ">
      <acc value="0.0056865875" flag="0"/>
      <vel value="0.0041162762" flag="0"/>
      <psa03 value="0.0146462365" flag="0"/>
      <psa10 value="0.0068289022" flag="0"/>
      <psa30 value="0.0007437240" flag="0"/>
    </comp>
    <comp name="--.HHE">
      <acc value="0.0094447917" flag="0"/>
      <vel value="0.0068856158" flag="0"/>
      <psa03 value="0.0230240144" flag="0"/>
      <psa10 value="0.0065069256" flag="0"/>
      <psa30 value="0.0014386012" flag="0"/>
    </comp>
  </station>
</stationlist>
