<?xml version="1.0" encoding="UTF-8" standalone="yes"?>
<!DOCTYPE earthquake SYSTEM "stationlist.dtd">
<stationlist created="" xmlns="ch.ethz.sed.shakemap.usgs.xml">
  <station code="GVD" name="GVD" netid="GE" insttype="STS-2/N" lat="34.8391" lon="24.0874">
    <comp name="--.HHN">
      <acc value="0.0138552925" flag="0"/>
      <vel value="0.0080341346" flag="0"/>
      <psa03 value="0.0548133048" flag="0"/>
      <psa10 value="0.0094544001" flag="0"/>
      <psa30 value="0.0009929428" flag="0"/>
    </comp>
    <comp name="--.HHZ">
      <acc value="0.0075468511" flag="0"/>
      <vel value="0.0037663421" flag="0"/>
      <psa03 value="0.0208328288" flag="0"/>
      <psa10 value="0.0037414253" flag="0"/>
      <psa30 value="0.0007998544" flag="0"/>
    </comp>
    <comp name="--.HHE">
      <acc value="0.0131758238" flag="0"/>
      <vel value="0.0100805822" flag="0"/>
      <psa03 value="0.0422685959" flag="0"/>
      <psa10 value="0.0113467236" flag="0"/>
      <psa30 value="0.0008952115" flag="0"/>
    </comp>
  </station>
  <station code="IMMV" name="IMMV" netid="GE" insttype="STS-2/N" lat="35.4606" lon="23.9811">
    <comp name="--.HHE">
      <acc value="0.0319868859" flag="0"/>
      <vel value="0.0268883361" flag="0"/>
      <psa03 value="0.0875784442" flag="0"/>
      <psa10 value="0.0541792550" flag="0"/>
      <psa30 value="0.0021982057" flag="0"/>
    </comp>
    <comp name="--.HHN">
      <acc value="0.0270736281" flag="0"/>
      <vel value="0.0205138914" flag="0"/>
      <psa03 value="0.0960506663" flag="0"/>
      <psa10 value="0.0288930099" flag="0"/>
      <psa30 value="0.0023149013" flag="0"/>
    </comp>
    <comp name="--.HHZ">
      <acc value="0.0179811076" flag="0"/>
      <vel value="0.0140520222" flag="0"/>
      <psa03 value="0.0660483835" flag="0"/>
      <psa10 value="0.0145083914" flag="0"/>
      <psa30 value="0.0015902202" flag="0"/>
    </comp>
  </station>
  <station code="ZKR" name="ZKR" netid="GE" insttype="STS-2/N" lat="35.1147" lon="26.2169">
    <comp name="--.HHE">
      <acc value="0.0362015815" flag="0"/>
      <vel value="0.0219001899" flag="0"/>
      <psa03 value="0.0681851098" flag="0"/>
      <psa10 value="0.0352679157" flag="0"/>
      <psa30 value="0.0036370123" flag="0"/>
    </comp>
    <comp name="--.HHN">
      <acc value="0.0176971732" flag="0"/>
      <vel value="0.0084655331" flag="0"/>
      <psa03 value="0.0541051235" flag="0"/>
      <psa10 value="0.0136537392" flag="0"/>
      <psa30 value="0.0017804282" flag="0"/>
    </comp>
    <comp name="--.HHZ">
      <acc value="0.0184221713" flag="0"/>
      <vel value="0.0132420751" flag="0"/>
      <psa03 value="0.0550501009" flag="0"/>
      <psa10 value="0.0241764540" flag="0"/>
      <psa30 value="0.0029902914" flag="0"/>
    </comp>
  </station>
  <station code="SNT1" name="SNT1" netid="HA" insttype="30" lat="36.4159" lon="25.4282">
    <comp name="--.HHZ">
      <acc value="0.0120171750" flag="0"/>
      <vel value="0.0063455068" flag="0"/>
      <psa03 value="0.0290113972" flag="0"/>
      <psa10 value="0.0044662747" flag="0"/>
      <psa30 value="0.0004606528" flag="0"/>
    </comp>
    <comp name="--.HHN">
      <acc value="0.0200490609" flag="0"/>
      <vel value="0.0134980811" flag="0"/>
      <psa03 value="0.0418993712" flag="0"/>
      <psa10 value="0.0132962494" flag="0"/>
      <psa30 value="0.0011704779" flag="0"/>
    </comp>
    <comp name="--.HHE">
      <acc value="0.0234934022" flag="0"/>
      <vel value="0.0120065290" flag="0"/>
      <psa03 value="0.0501783383" flag="0"/>
      <psa10 value="0.0158102323" flag="0"/>
      <psa30 value="0.0016609835" flag="0"/>
    </comp>
  </station>
  <station code="SNT5" name="SNT5" netid="HA" insttype="1s-100Hz," lat="36.4037" lon="25.3953">
    <comp name="--.HHE">
      <acc value="0.0872604425" flag="0"/>
      <vel value="0.0349278114" flag="0"/>
      <psa03 value="0.2244380463" flag="0"/>
      <psa10 value="0.0196958396" flag="0"/>
      <psa30 value="0.0019580250" flag="0"/>
    </comp>
    <comp name="--.HHZ">
      <acc value="0.0234699145" flag="0"/>
      <vel value="0.0083019506" flag="0"/>
      <psa03 value="0.0566267652" flag="0"/>
      <psa10 value="0.0068012720" flag="0"/>
      <psa30 value="0.0007163483" flag="0"/>
    </comp>
    <comp name="--.HHN">
      <acc value="0.0514225650" flag="0"/>
      <vel value="0.0181987354" flag="0"/>
      <psa03 value="0.1536279505" flag="0"/>
      <psa10 value="0.0084101629" flag="0"/>
      <psa30 value="0.0019165681" flag="0"/>
    </comp>
  </station>
  <station code="CHAN" name="CHAN" netid="HC" insttype="120" lat="35.5193" lon="24.0428">
    <comp name="--.HHZ">
      <acc value="0.0266954601" flag="0"/>
      <vel value="0.0233250093" flag="0"/>
      <psa03 value="0.0692571266" flag="0"/>
      <psa10 value="0.0309627803" flag="0"/>
      <psa30 value="0.0038495192" flag="0"/>
    </comp>
    <comp name="--.HHE">
      <acc value="0.0378615752" flag="0"/>
      <vel value="0.0220446641" flag="0"/>
      <psa03 value="0.0950886718" flag="0"/>
      <psa10 value="0.0365233938" flag="0"/>
      <psa30 value="0.0085733364" flag="0"/>
    </comp>
    <comp name="--.HHN">
      <acc value="0.0409175699" flag="0"/>
      <vel value="0.0363342142" flag="0"/>
      <psa03 value="0.1232539735" flag="0"/>
      <psa10 value="0.0397684992" flag="0"/>
      <psa30 value="0.0082375802" flag="0"/>
    </comp>
  </station>
  <station code="GVDS" name="GVDS" netid="HC" insttype="60" lat="34.8389" lon="24.0585">
    <comp name="--.HHZ">
      <acc value="0.0040164119" flag="0"/>
      <vel value="0.0028691207" flag="0"/>
      <psa03 value="0.0078537151" flag="0"/>
      <psa10 value="0.0040910962" flag="0"/>
      <psa30 value="0.0007370730" flag="0"/>
    </comp>
    <comp name="--.HHN">
      <acc value="0.0094486304" flag="0"/>
      <vel value="0.0070030238" flag="0"/>
      <psa03 value="0.0225054026" flag="0"/>
      <psa10 value="0.0124930390" flag="0"/>
      <psa30 value="0.0010651828" flag="0"/>
    </comp>
    <comp name="--.HHE">
      <acc value="0.0090692875" flag="0"/>
      <vel value="0.0057886612" flag="0"/>
      <psa03 value="0.0273249978" flag="0"/>
      <psa10 value="0.0108435457" flag="0"/>
      <psa30 value="0.0009717624" flag="0"/>
    </comp>
  </station>
  <station code="IMOD" name="IMOD" netid="HC" insttype="120" lat="34.9731" lon="24.7995">
    <comp name="--.HHN">
      <acc value="0.1140754951" flag="0"/>
      <vel value="0.1220194095" flag="0"/>
      <psa03 value="0.3250161965" flag="0"/>
      <psa10 value="0.1052430113" flag="0"/>
      <psa30 value="0.0085384145" flag="0"/>
    </comp>
    <comp name="--.HHE">
      <acc value="0.0748020505" flag="0"/>
      <vel value="0.0652342447" flag="0"/>
      <psa03 value="0.1877405117" flag="0"/>
      <psa10 value="0.0514982789" flag="0"/>
      <psa30 value="0.0058163189" flag="0"/>
    </comp>
    <comp name="--.HHZ">
      <acc value="0.0626431153" flag="0"/>
      <vel value="0.0245150690" flag="0"/>
      <psa03 value="0.1100409555" flag="0"/>
      <psa10 value="0.0324757172" flag="0"/>
      <psa30 value="0.0056909926" flag="0"/>
    </comp>
  </station>
  <station code="KNSS" name="KNSS" netid="HC" insttype="60" lat="35.3042" lon="25.1802">
    <comp name="--.HHZ">
      <acc value="0.3866701557" flag="0"/>
      <vel value="0.1584231746" flag="0"/>
      <psa03 value="0.8604312711" flag="0"/>
      <psa10 value="0.0750506159" flag="0"/>
      <psa30 value="0.0264445007" flag="0"/>
    </comp>
    <comp name="--.HHN">
      <acc value="0.0000000000" flag="0"/>
      <vel value="-100.0000000000" flag="0"/>
      <psa03 value="0.0000000000" flag="0"/>
      <psa10 value="0.0000000000" flag="0"/>
      <psa30 value="0.0000000000" flag="0"/>
    </comp>
    <comp name="--.HHE">
      <acc value="0.5546054701" flag="0"/>
      <vel value="0.3581857843" flag="0"/>
      <psa03 value="1.3147977280" flag="0"/>
      <psa10 value="0.2328887335" flag="0"/>
      <psa30 value="0.0239384678" flag="0"/>
    </comp>
  </station>
  <station code="PFKS" name="PFKS" netid="HC" insttype="120" lat="35.0429" lon="25.4733">
    <comp name="--.HHN">
      <acc value="0.5806383680" flag="0"/>
      <vel value="0.2175065014" flag="0"/>
      <psa03 value="0.7825852072" flag="0"/>
      <psa10 value="0.1281255096" flag="0"/>
      <psa30 value="0.0098195122" flag="0"/>
    </comp>
    <comp name="--.HHE">
      <acc value="0.4623898318" flag="0"/>
      <vel value="0.1318533044" flag="0"/>
      <psa03 value="0.7462892010" flag="0"/>
      <psa10 value="0.1600849565" flag="0"/>
      <psa30 value="0.0118973619" flag="0"/>
    </comp>
    <comp name="--.HHZ">
      <acc value="0.2624526771" flag="0"/>
      <vel value="0.0793930370" flag="0"/>
      <psa03 value="0.4661736187" flag="0"/>
      <psa10 value="0.0787141481" flag="0"/>
      <psa30 value="0.0159712926" flag="0"/>
    </comp>
  </station>
  <station code="RODP" name="RODP" netid="HC" insttype="120" lat="35.5604" lon="23.7577">
    <comp name="--.HHZ">
      <acc value="0.0110528219" flag="0"/>
      <vel value="0.0055241567" flag="0"/>
      <psa03 value="0.0303819125" flag="0"/>
      <psa10 value="0.0081379958" flag="0"/>
      <psa30 value="0.0012932327" flag="0"/>
    </comp>
    <comp name="--.HHN">
      <acc value="0.0147531248" flag="0"/>
      <vel value="0.0081969479" flag="0"/>
      <psa03 value="0.0642945254" flag="0"/>
      <psa10 value="0.0091683524" flag="0"/>
      <psa30 value="0.0017802203" flag="0"/>
    </comp>
    <comp name="--.HHE">
      <acc value="0.0232687848" flag="0"/>
      <vel value="0.0200361604" flag="0"/>
      <psa03 value="0.0811973507" flag="0"/>
      <psa10 value="0.0217899684" flag="0"/>
      <psa30 value="0.0022521619" flag="0"/>
    </comp>
  </station>
  <station code="STIA" name="STIA" netid="HC" insttype="120" lat="35.2021" lon="26.0909">
    <comp name="--.HHE">
      <acc value="0.0577837818" flag="0"/>
      <vel value="0.0345261532" flag="0"/>
      <psa03 value="0.1564439097" flag="0"/>
      <psa10 value="0.0456172835" flag="0"/>
      <psa30 value="0.0027890512" flag="0"/>
    </comp>
    <comp name="--.HHN">
      <acc value="0.0596303531" flag="0"/>
      <vel value="0.0395187888" flag="0"/>
      <psa03 value="0.1398002318" flag="0"/>
      <psa10 value="0.0617514560" flag="0"/>
      <psa30 value="0.0030252450" flag="0"/>
    </comp>
    <comp name="--.HHZ">
      <acc value="0.0391778351" flag="0"/>
      <vel value="0.0227816901" flag="0"/>
      <psa03 value="0.1087105471" flag="0"/>
      <psa10 value="0.0175857014" flag="0"/>
      <psa30 value="0.0024570078" flag="0"/>
    </comp>
  </station>
  <station code="SIT2" name="SIT2" netid="HI" insttype="CMG-5TD,ACCELEROMETER,GURALP" lat="35.2059" lon="26.107">
    <comp name="--.HNE">
      <acc value="0.1275622921" flag="0"/>
      <vel value="0.0928601650" flag="0"/>
      <psa03 value="0.4108442374" flag="0"/>
      <psa10 value="0.0594043856" flag="0"/>
      <psa30 value="0.0043473855" flag="0"/>
    </comp>
    <comp name="--.HNN">
      <acc value="0.1767460832" flag="0"/>
      <vel value="0.1119532835" flag="0"/>
      <psa03 value="0.6330439009" flag="0"/>
      <psa10 value="0.0680464260" flag="0"/>
      <psa30 value="0.0045256622" flag="0"/>
    </comp>
    <comp name="--.HNZ">
      <acc value="0.0968141567" flag="0"/>
      <vel value="0.0419931119" flag="0"/>
      <psa03 value="0.2618306997" flag="0"/>
      <psa10 value="0.0189475134" flag="0"/>
      <psa30 value="0.0021296559" flag="0"/>
    </comp>
  </station>
  <station code="GVD" name="GVD" netid="HL" insttype="120" lat="34.8391" lon="24.0874">
    <comp name="--.HHZ">
      <acc value="0.0074225597" flag="0"/>
      <vel value="0.0037147975" flag="0"/>
      <psa03 value="0.0202705010" flag="0"/>
      <psa10 value="0.0037120073" flag="0"/>
      <psa30 value="0.0008000836" flag="0"/>
    </comp>
    <comp name="--.HHE">
      <acc value="0.0128978154" flag="0"/>
      <vel value="0.0099446210" flag="0"/>
      <psa03 value="0.0411538292" flag="0"/>
      <psa10 value="0.0112606393" flag="0"/>
      <psa30 value="0.0008930117" flag="0"/>
    </comp>
    <comp name="--.HHN">
      <acc value="0.0134535769" flag="0"/>
      <vel value="0.0078870618" flag="0"/>
      <psa03 value="0.0532849748" flag="0"/>
      <psa10 value="0.0093869532" flag="0"/>
      <psa30 value="0.0009928863" flag="0"/>
    </comp>
  </station>
  <station code="IACM" name="IACM" netid="HL" insttype="120" lat="35.3058" lon="25.0709">
    <comp name="--.HHZ">
      <acc value="0.5532660237" flag="0"/>
      <vel value="0.3089956121" flag="0"/>
      <psa03 value="1.3491361648" flag="0"/>
      <psa10 value="0.1974933093" flag="0"/>
      <psa30 value="0.0224192146" flag="0"/>
    </comp>
    <comp name="--.HHE">
      <acc value="0.6378586516" flag="0"/>
      <vel value="0.5240748607" flag="0"/>
      <psa03 value="2.4375033717" flag="0"/>
      <psa10 value="0.7511274078" flag="0"/>
      <psa30 value="0.0432532837" flag="0"/>
    </comp>
    <comp name="--.HHN">
      <acc value="0.7691089383" flag="0"/>
      <vel value="0.3932648607" flag="0"/>
      <psa03 value="2.1708804205" flag="0"/>
      <psa10 value="0.4017587711" flag="0"/>
      <psa30 value="0.0535810098" flag="0"/>
    </comp>
  </station>
  <station code="IDI" name="IDI" netid="HL" insttype="120" lat="35.288" lon="24.89">
    <comp name="--.HHE">
      <acc value="0.0562003315" flag="0"/>
      <vel value="0.0224943981" flag="0"/>
      <psa03 value="0.1125964025" flag="0"/>
      <psa10 value="0.0156233689" flag="0"/>
      <psa30 value="0.0048172710" flag="0"/>
    </comp>
    <comp name="--.HHN">
      <acc value="0.1050305775" flag="0"/>
      <vel value="0.0256527319" flag="0"/>
      <psa03 value="0.1460379862" flag="0"/>
      <psa10 value="0.0196869297" flag="0"/>
      <psa30 value="0.0028315691" flag="0"/>
    </comp>
    <comp name="--.HHZ">
      <acc value="0.0558018348" flag="0"/>
      <vel value="0.0280087931" flag="0"/>
      <psa03 value="0.0871358884" flag="0"/>
      <psa10 value="0.0238129579" flag="0"/>
      <psa30 value="0.0096388411" flag="0"/>
    </comp>
  </station>
  <station code="IMMV" name="IMMV" netid="HL" insttype="120" lat="35.4606" lon="23.9811">
    <comp name="--.HHE">
      <acc value="0.0313612390" flag="0"/>
      <vel value="0.0267021544" flag="0"/>
      <psa03 value="0.0856055950" flag="0"/>
      <psa10 value="0.0538213034" flag="0"/>
      <psa30 value="0.0021794728" flag="0"/>
    </comp>
    <comp name="--.HHN">
      <acc value="0.0264216486" flag="0"/>
      <vel value="0.0201967628" flag="0"/>
      <psa03 value="0.0934330204" flag="0"/>
      <psa10 value="0.0287138293" flag="0"/>
      <psa30 value="0.0023153887" flag="0"/>
    </comp>
    <comp name="--.HHZ">
      <acc value="0.0176359492" flag="0"/>
      <vel value="0.0137764216" flag="0"/>
      <psa03 value="0.0641253813" flag="0"/>
      <psa10 value="0.0144231272" flag="0"/>
      <psa30 value="0.0015897103" flag="0"/>
    </comp>
  </station>
  <station code="NPS" name="NPS" netid="HL" insttype="CMG3ESPC-120s" lat="35.2613" lon="25.6104">
    <comp name="--.HHE">
      <acc value="0.0775341598" flag="0"/>
      <vel value="0.0363322924" flag="0"/>
      <psa03 value="0.2548954342" flag="0"/>
      <psa10 value="0.0394125983" flag="0"/>
      <psa30 value="0.0048088010" flag="0"/>
    </comp>
    <comp name="--.HHZ">
      <acc value="0.1312888790" flag="0"/>
      <vel value="0.0752059645" flag="0"/>
      <psa03 value="0.3347047954" flag="0"/>
      <psa10 value="0.0812286368" flag="0"/>
      <psa30 value="0.0130790669" flag="0"/>
    </comp>
    <comp name="--.HHN">
      <acc value="0.1593795149" flag="0"/>
      <vel value="0.1032770638" flag="0"/>
      <psa03 value="0.4870073809" flag="0"/>
      <psa10 value="0.1103922196" flag="0"/>
      <psa30 value="0.0106147498" flag="0"/>
    </comp>
  </station>
  <station code="SAP3" name="SAP3" netid="HL" insttype="LE3D20_SMART24" lat="36.4356" lon="25.3454">
    <comp name="--.HHN">
      <acc value="0.1569608758" flag="0"/>
      <vel value="0.0761476802" flag="0"/>
      <psa03 value="0.4515233297" flag="0"/>
      <psa10 value="0.0734124499" flag="0"/>
      <psa30 value="0.0046560125" flag="0"/>
    </comp>
    <comp name="--.HHE">
      <acc value="0.1198893690" flag="0"/>
      <vel value="0.0794070145" flag="0"/>
      <psa03 value="0.3909265583" flag="0"/>
      <psa10 value="0.0564491295" flag="0"/>
      <psa30 value="0.0038714292" flag="0"/>
    </comp>
    <comp name="--.HHZ">
      <acc value="0.0573892186" flag="0"/>
      <vel value="0.0315460638" flag="0"/>
      <psa03 value="0.2127459273" flag="0"/>
      <psa10 value="0.0215152479" flag="0"/>
      <psa30 value="0.0016428996" flag="0"/>
    </comp>
  </station>
  <station code="SIVA" name="SIVA" netid="HL" insttype="60" lat="35.0178" lon="24.812">
    <comp name="--.HHN">
      <acc value="0.1238945206" flag="0"/>
      <vel value="0.0682176116" flag="0"/>
      <psa03 value="0.1735235625" flag="0"/>
      <psa10 value="0.1031304314" flag="0"/>
      <psa30 value="0.0050097198" flag="0"/>
    </comp>
    <comp name="--.HHZ">
      <acc value="0.0694010592" flag="0"/>
      <vel value="0.0335038575" flag="0"/>
      <psa03 value="0.1757295051" flag="0"/>
      <psa10 value="0.0366882678" flag="0"/>
      <psa30 value="0.0052403485" flag="0"/>
    </comp>
    <comp name="--.HHE">
      <acc value="0.1983816563" flag="0"/>
      <vel value="0.0633093915" flag="0"/>
      <psa03 value="0.5302758126" flag="0"/>
      <psa10 value="0.0552169018" flag="0"/>
      <psa30 value="0.0070890883" flag="0"/>
    </comp>
  </station>
  <station code="VAM" name="VAM" netid="HL" insttype="CMG3ESPC-120s" lat="35.407" lon="24.1997">
    <comp name="--.HHE">
      <acc value="0.0360117494" flag="0"/>
      <vel value="0.0180897296" flag="0"/>
      <psa03 value="0.1055645753" flag="0"/>
      <psa10 value="0.0136975389" flag="0"/>
      <psa30 value="0.0021796921" flag="0"/>
    </comp>
    <comp name="--.HHZ">
      <acc value="0.0178258470" flag="0"/>
      <vel value="0.0093664045" flag="0"/>
      <psa03 value="0.0353293261" flag="0"/>
      <psa10 value="0.0080744959" flag="0"/>
      <psa30 value="0.0021323548" flag="0"/>
    </comp>
    <comp name="--.HHN">
      <acc value="0.0375365313" flag="0"/>
      <vel value="0.0231403844" flag="0"/>
      <psa03 value="0.0848649407" flag="0"/>
      <psa10 value="0.0164727629" flag="0"/>
      <psa30 value="0.0024761872" flag="0"/>
    </comp>
  </station>
  <station code="ZKR" name="ZKR" netid="HL" insttype="120" lat="35.1147" lon="26.2169">
    <comp name="--.HHE">
      <acc value="0.0353795988" flag="0"/>
      <vel value="0.0215746472" flag="0"/>
      <psa03 value="0.0664997783" flag="0"/>
      <psa10 value="0.0349458106" flag="0"/>
      <psa30 value="0.0036358471" flag="0"/>
    </comp>
    <comp name="--.HHN">
      <acc value="0.0171078330" flag="0"/>
      <vel value="0.0083532570" flag="0"/>
      <psa03 value="0.0526634792" flag="0"/>
      <psa10 value="0.0135786112" flag="0"/>
      <psa30 value="0.0017775606" flag="0"/>
    </comp>
    <comp name="--.HHZ">
      <acc value="0.0178144653" flag="0"/>
      <vel value="0.0129786039" flag="0"/>
      <psa03 value="0.0535995219" flag="0"/>
      <psa10 value="0.0240358110" flag="0"/>
      <psa30 value="0.0029937866" flag="0"/>
    </comp>
  </station>
  <station code="THT1" name="THT1" netid="HT" insttype="30" lat="36.3858" lon="25.4296">
    <comp name="--.HHN">
      <acc value="0.0228071067" flag="0"/>
      <vel value="0.0140208913" flag="0"/>
      <psa03 value="0.0676729652" flag="0"/>
      <psa10 value="0.0083536225" flag="0"/>
      <psa30 value="0.0009298732" flag="0"/>
    </comp>
    <comp name="--.HHZ">
      <acc value="0.0126726085" flag="0"/>
      <vel value="0.0068147817" flag="0"/>
