<stationlist created="1778138481">
	<station code="ABEA" name="ABEA" netid="HC" source="Seismological Network of Crete (HC)" insttype="" lat="35.5163" lon="24.0113">
		<comp name="--.HNE" depth="0.0">
			<acc value="0.025124335421151" flag="0"/>
			<vel value="0.0168684657447076" flag="0"/>
			<psa03 value="0.0617487728449746" flag="0"/>
			<psa10 value="0.0419595646150538" flag="0"/>
			<psa30 value="0.00839452776291552" flag="0"/>
		</comp>
		<comp name="--.HNN" depth="0.0">
			<acc value="0.0326632152765446" flag="0"/>
			<vel value="0.0189985371863112" flag="0"/>
			<psa03 value="0.0896350628828855" flag="0"/>
			<psa10 value="0.0331712174303618" flag="0"/>
			<psa30 value="0.00406230577448838" flag="0"/>
		</comp>
		<comp name="--.HNZ" depth="0.0">
			<acc value="0.0123343468384681" flag="0"/>
			<vel value="0.00968511612598898" flag="0"/>
			<psa03 value="0.0262940230999707" flag="0"/>
			<psa10 value="0.0207692508609475" flag="0"/>
			<psa30 value="0.00362192701822105" flag="0"/>
		</comp>
	</station>
	<station code="ATEI" name="ATEI" netid="HC" source="Seismological Network of Crete (HC)" insttype="" lat="35.5193" lon="24.0432">
		<comp name="--.HNE" depth="0.0">
			<acc value="0.0195833100472744" flag="0"/>
			<vel value="0.012912873677813" flag="0"/>
			<psa03 value="0.0526895737588407" flag="0"/>
			<psa10 value="0.0191955116084509" flag="0"/>
			<psa30 value="0.0052670647505221" flag="0"/>
		</comp>
		<comp name="--.HNN" depth="0.0">
			<acc value="0.0219104530333649" flag="0"/>
			<vel value="0.020230693341719" flag="0"/>
			<psa03 value="0.0658679571787983" flag="0"/>
			<psa10 value="0.0205614533453693" flag="0"/>
			<psa30 value="0.00452721573914771" flag="0"/>
		</comp>
		<comp name="--.HNZ" depth="0.0">
			<acc value="0.0144393633061431" flag="0"/>
			<vel value="0.0132502654179845" flag="0"/>
			<psa03 value="0.0369807336462703" flag="0"/>
			<psa10 value="0.016219672598717" flag="0"/>
			<psa30 value="0.00231570090382151" flag="0"/>
		</comp>
	</station>
	<station code="DEYA" name="DEYA" netid="HC" source="Seismological Network of Crete (HC)" insttype="" lat="35.4825" lon="24.014">
		<comp name="--.HNE" depth="0.0">
			<acc value="0.0508932217797241" flag="0"/>
			<vel value="0.036814315409689" flag="0"/>
			<psa03 value="0.0995685438440584" flag="0"/>
			<psa10 value="0.0968356673878353" flag="0"/>
			<psa30 value="0.00493485565996226" flag="0"/>
		</comp>
		<comp name="--.HNN" depth="0.0">
			<acc value="0.0440114606863001" flag="0"/>
			<vel value="0.0273468310226325" flag="0"/>
			<psa03 value="0.0810484576042193" flag="0"/>
			<psa10 value="0.0713625699200485" flag="0"/>
			<psa30 value="0.00412421945929765" flag="0"/>
		</comp>
		<comp name="--.HNZ" depth="0.0">
			<acc value="0.0380925026345438" flag="0"/>
			<vel value="0.0289117132258114" flag="0"/>
			<psa03 value="0.0740043503415491" flag="0"/>
			<psa10 value="0.0508888461361389" flag="0"/>
			<psa30 value="0.00292818897815034" flag="0"/>
		</comp>
	</station>
	<station code="G0LD" name="G0LD" netid="HC" source="Seismological Network of Crete (HC)" insttype="" lat="35.4955" lon="24.0306">
		<comp name="--.HNE" depth="0.0">
			<acc value="0.0685459027906187" flag="0"/>
			<vel value="0.0580363588236826" flag="0"/>
			<psa03 value="0.142358159696188" flag="0"/>
			<psa10 value="0.0985752351255571" flag="0"/>
			<psa30 value="0.008412998986549" flag="0"/>
		</comp>
		<comp name="--.HNN" depth="0.0">
			<acc value="0.0533509632182766" flag="0"/>
			<vel value="0.0518270262752014" flag="0"/>
			<psa03 value="0.162646243265341" flag="0"/>
			<psa10 value="0.133564272977731" flag="0"/>
			<psa30 value="0.00753281984568273" flag="0"/>
		</comp>
		<comp name="--.HNZ" depth="0.0">
			<acc value="0.0353840881850269" flag="0"/>
			<vel value="0.0402543779462943" flag="0"/>
			<psa03 value="0.0769051414632705" flag="0"/>
			<psa10 value="0.0779883363445879" flag="0"/>
			<psa30 value="0.00444751629279568" flag="0"/>
		</comp>
	</station>
	<station code="MULT" name="MULT" netid="HC" source="Seismological Network of Crete (HC)" insttype="" lat="35.5091" lon="24.0118">
		<comp name="--.HNE" depth="0.0">
			<acc value="0.0383897251588745" flag="0"/>
			<vel value="0.0209292986844233" flag="0"/>
			<psa03 value="0.0707691568592749" flag="0"/>
			<psa10 value="0.0335948904966253" flag="0"/>
			<psa30 value="0.00545844326173171" flag="0"/>
		</comp>
		<comp name="--.HNN" depth="0.0">
			<acc value="0.0319714218781926" flag="0"/>
			<vel value="0.0208857353147558" flag="0"/>
			<psa03 value="0.079622264167783" flag="0"/>
			<psa10 value="0.0396039473171505" flag="0"/>
			<psa30 value="0.00632172211640665" flag="0"/>
		</comp>
		<comp name="--.HNZ" depth="0.0">
			<acc value="0.0238242656622894" flag="0"/>
			<vel value="0.0166093481804374" flag="0"/>
			<psa03 value="0.0337875611767664" flag="0"/>
			<psa10 value="0.020016816015834" flag="0"/>
			<psa30 value="0.00358271567066346" flag="0"/>
		</comp>
	</station>
	<station code="NERO" name="NERO" netid="HC" source="Seismological Network of Crete (HC)" insttype="" lat="35.474" lon="24.0423">
		<comp name="--.HNE" depth="0.0">
			<acc value="0.0238746530008566" flag="0"/>
			<vel value="0.0184818993227552" flag="0"/>
			<psa03 value="0.0459897705549197" flag="0"/>
			<psa10 value="0.0320706357722276" flag="0"/>
			<psa30 value="0.0023356157647467" flag="0"/>
		</comp>
		<comp name="--.HNN" depth="0.0">
			<acc value="0.0170081414919011" flag="0"/>
			<vel value="0.0201461732121414" flag="0"/>
			<psa03 value="0.0421146961419233" flag="0"/>
			<psa10 value="0.01977794769197" flag="0"/>
			<psa30 value="0.00346370674523803" flag="0"/>
		</comp>
		<comp name="--.HNZ" depth="0.0">
			<acc value="0.0198530928834249" flag="0"/>
			<vel value="0.0128950551297514" flag="0"/>
			<psa03 value="0.029416237743878" flag="0"/>
			<psa10 value="0.0170859949882976" flag="0"/>
			<psa30 value="0.00242838170170146" flag="0"/>
		</comp>
	</station>
	<station code="PASK" name="PASK" netid="HC" source="Seismological Network of Crete (HC)" insttype="" lat="35.4996" lon="24.0121">
		<comp name="--.HNE" depth="0.0">
			<acc value="0.0357004977711952" flag="0"/>
			<vel value="0.0307939925224043" flag="0"/>
			<psa03 value="0.103870182973027" flag="0"/>
			<psa10 value="0.0467225901424178" flag="0"/>
			<psa30 value="0.00476587821605178" flag="0"/>
		</comp>
		<comp name="--.HNN" depth="0.0">
			<acc value="0.0315642730858586" flag="0"/>
			<vel value="0.0253460302575798" flag="0"/>
			<psa03 value="0.067520280178909" flag="0"/>
			<psa10 value="0.0444174511881981" flag="0"/>
			<psa30 value="0.00409451040788652" flag="0"/>
		</comp>
		<comp name="--.HNZ" depth="0.0">
			<acc value="0.0177441200354414" flag="0"/>
			<vel value="0.0156322004933079" flag="0"/>
			<psa03 value="0.0757975368396858" flag="0"/>
			<psa10 value="0.0257558905763508" flag="0"/>
			<psa30 value="0.00315367662393211" flag="0"/>
		</comp>
	</station>
	<station code="POLY" name="POLY" netid="HC" source="Seismological Network of Crete (HC)" insttype="" lat="35.5226" lon="24.0602">
		<comp name="--.HNE" depth="0.0">
			<acc value="0.0229498974004074" flag="0"/>
			<vel value="0.0195192492538243" flag="0"/>
			<psa03 value="0.0351138235143109" flag="0"/>
			<psa10 value="0.0203500462157043" flag="0"/>
			<psa30 value="0.00583424815695557" flag="0"/>
		</comp>
		<comp name="--.HNN" depth="0.0">
			<acc value="0.0229648301052588" flag="0"/>
			<vel value="0.0175148041565107" flag="0"/>
			<psa03 value="0.0663193360390254" flag="0"/>
			<psa10 value="0.0392843923982071" flag="0"/>
			<psa30 value="0.00296077551184766" flag="0"/>
		</comp>
		<comp name="--.HNZ" depth="0.0">
			<acc value="0.0175167200172898" flag="0"/>
			<vel value="0.0107013555583" flag="0"/>
			<psa03 value="0.0501225495397712" flag="0"/>
			<psa10 value="0.00903836218461996" flag="0"/>
			<psa30 value="0.00253970865990286" flag="0"/>
		</comp>
	</station>
	<station code="SOUD" name="SOUD" netid="HC" source="Seismological Network of Crete (HC)" insttype="" lat="35.4878" lon="24.0678">
		<comp name="--.HNE" depth="0.0">
			<acc value="0.0390965070335041" flag="0"/>
			<vel value="0.0341504795733622" flag="0"/>
			<psa03 value="0.0784981688683895" flag="0"/>
			<psa10 value="0.0608774528322919" flag="0"/>
			<psa30 value="0.00449013869967232" flag="0"/>
		</comp>
		<comp name="--.HNN" depth="0.0">
			<acc value="0.0431319114378828" flag="0"/>
			<vel value="0.0233023639940989" flag="0"/>
			<psa03 value="0.0781513750615448" flag="0"/>
			<psa10 value="0.026306346416356" flag="0"/>
			<psa30 value="0.00259633553615163" flag="0"/>
		</comp>
		<comp name="--.HNZ" depth="0.0">
			<acc value="0.00621657953100913" flag="0"/>
			<vel value="0.00374001074011218" flag="0"/>
			<psa03 value="0.00691938025000446" flag="0"/>
			<psa10 value="0.00467154056036646" flag="0"/>
			<psa30 value="0.00191368406384486" flag="0"/>
		</comp>
	</station>
	<station code="CH01" name="CH01" netid="HI" source="ITSAK Strong Motion Network" insttype="" lat="35.517" lon="24.0208">
		<comp name="--.HNE" depth="0.0">
			<acc value="0.0189521480222722" flag="0"/>
			<vel value="0.0163424494467032" flag="0"/>
			<psa03 value="0.0624601324689445" flag="0"/>
			<psa10 value="0.0214478789417239" flag="0"/>
			<psa30 value="0.00750869741433187" flag="0"/>
		</comp>
		<comp name="--.HNN" depth="0.0">
			<acc value="0.0242981126987206" flag="0"/>
			<vel value="0.0166742568722804" flag="0"/>
			<psa03 value="0.0838017129103364" flag="0"/>
			<psa10 value="0.0274107458273937" flag="0"/>
			<psa30 value="0.00399478296810095" flag="0"/>
		</comp>
		<comp name="--.HNZ" depth="0.0">
			<acc value="0.0139873263702357" flag="0"/>
			<vel value="0.0117308568481164" flag="0"/>
			<psa03 value="0.0385730787146625" flag="0"/>
			<psa10 value="0.0179605622991028" flag="0"/>
			<psa30 value="0.00241332632935789" flag="0"/>
		</comp>
	</station>
	<station code="KSS1" name="KSS1" netid="HI" source="ITSAK Strong Motion Network" insttype="" lat="35.4189" lon="26.9207">
		<comp name="--.HNE" depth="0.0">
			<acc value="0.0114539048167048" flag="0"/>
			<vel value="0.00468007507427937" flag="0"/>
			<psa03 value="0.0354409050777023" flag="0"/>
			<psa10 value="0.00659125054424474" flag="0"/>
			<psa30 value="0.00110904284364669" flag="0"/>
		</comp>
		<comp name="--.HNN" depth="0.0">
			<acc value="0.0122163682486461" flag="0"/>
			<vel value="0.00627940925143693" flag="0"/>
			<psa03 value="0.0451722216045863" flag="0"/>
			<psa10 value="0.0065206010202993" flag="0"/>
			<psa30 value="0.0015768319573781" flag="0"/>
		</comp>
		<comp name="--.HNZ" depth="0.0">
			<acc value="0.00726645985115188" flag="0"/>
			<vel value="0.00391897146843567" flag="0"/>
			<psa03 value="0.010147536156775" flag="0"/>
			<psa10 value="0.0076886116765387" flag="0"/>
			<psa30 value="0.00109061599795562" flag="0"/>
		</comp>
	</station>
	<station code="NAX1" name="NAX1" netid="HI" source="ITSAK Strong Motion Network" insttype="" lat="37.101394" lon="25.374103">
		<comp name="--.HNE" depth="0.0">
			<acc value="0.005646512342502" flag="0"/>
			<vel value="0.0037056199595906" flag="0"/>
			<psa03 value="0.0145250195029368" flag="0"/>
			<psa10 value="0.0036335803162377" flag="0"/>
			<psa30 value="0.000458926703724867" flag="0"/>
		</comp>
		<comp name="--.HNN" depth="0.0">
			<acc value="0.00571809684939799" flag="0"/>
			<vel value="0.00281206276856471" flag="0"/>
			<psa03 value="0.0162976642756773" flag="0"/>
			<psa10 value="0.00296853774480872" flag="0"/>
			<psa30 value="0.000344932251110329" flag="0"/>
		</comp>
		<comp name="--.HNZ" depth="0.0">
			<acc value="0.00363851520686068" flag="0"/>
			<vel value="0.00256174384583121" flag="0"/>
			<psa03 value="0.0107600109749992" flag="0"/>
			<psa10 value="0.002197290715976" flag="0"/>
			<psa30 value="0.00036111801083773" flag="0"/>
		</comp>
	</station>
	<station code="SIT2" name="SIT2" netid="HI" source="ITSAK Strong Motion Network" insttype="" lat="35.2059" lon="26.107">
		<comp name="--.HNE" depth="0.0">
			<acc value="0.127287112649433" flag="0"/>
			<vel value="0.0941943437699223" flag="0"/>
			<psa03 value="0.410041579909084" flag="0"/>
			<psa10 value="0.059708136620821" flag="0"/>
			<psa30 value="0.00489996918223406" flag="0"/>
		</comp>
		<comp name="--.HNN" depth="0.0">
			<acc value="0.177157570320407" flag="0"/>
			<vel value="0.113038596331742" flag="0"/>
			<psa03 value="0.630279752938937" flag="0"/>
			<psa10 value="0.0682797982017137" flag="0"/>
			<psa30 value="0.00478490072617566" flag="0"/>
		</comp>
		<comp name="--.HNZ" depth="0.0">
			<acc value="0.0970348497990377" flag="0"/>
			<vel value="0.0431428963863661" flag="0"/>
			<psa03 value="0.264616592050543" flag="0"/>
			<psa10 value="0.0188666354470177" flag="0"/>
			<psa30 value="0.00250623956773726" flag="0"/>
		</comp>
	</station>
	<station code="ANKY" name="ANKY" netid="HL" source="National Observatory of Athens Seismic Network" insttype="" lat="35.86704" lon="23.30117">
		<comp name="00.HNE" depth="0.0">
			<acc value="0.00601356431752244" flag="0"/>
			<vel value="0.004619602124676" flag="0"/>
			<psa03 value="0.0187550601390285" flag="0"/>
			<psa10 value="0.00797600212097951" flag="0"/>
			<psa30 value="0.00118136950993228" flag="0"/>
		</comp>
		<comp name="00.HNN" depth="0.0">
			<acc value="0.00405399530790445" flag="0"/>
			<vel value="0.00412521018680095" flag="0"/>
			<psa03 value="0.0165648668723686" flag="0"/>
			<psa10 value="0.00519598702113161" flag="0"/>
			<psa30 value="0.00119698283590536" flag="0"/>
		</comp>
		<comp name="00.HNZ" depth="0.0">
			<acc value="0.00385351198610173" flag="0"/>
			<vel value="0.0027520433547739" flag="0"/>
			<psa03 value="0.00997579105553251" flag="0"/>
			<psa10 value="0.00265042971858654" flag="0"/>
			<psa30 value="0.000673446331266055" flag="0"/>
		</comp>
	</station>
	<station code="IACM" name="IACM" netid="HL" source="National Observatory of Athens Seismic Network" insttype="" lat="35.3058" lon="25.0709">
		<comp name="--.HNE" depth="0.0">
			<acc value="0.655918685744042" flag="0"/>
			<vel value="0.527834094714567" flag="0"/>
			<psa03 value="2.47067266993998" flag="0"/>
			<psa10 value="0.766320004937602" flag="0"/>
			<psa30 value="0.0420475387764032" flag="0"/>
		</comp>
		<comp name="--.HNN" depth="0.0">
			<acc value="0.756765321647516" flag="0"/>
			<vel value="0.3922020107251" flag="0"/>
			<psa03 value="2.19572145576974" flag="0"/>
			<psa10 value="0.409980489193677" flag="0"/>
			<psa30 value="0.0563838084838641" flag="0"/>
		</comp>
		<comp name="--.HNZ" depth="0.0">
			<acc value="0.544040727797361" flag="0"/>
			<vel value="0.30734247596849" flag="0"/>
			<psa03 value="1.3606773881984" flag="0"/>
			<psa10 value="0.196416996662263" flag="0"/>
			<psa30 value="0.0222977021133361" flag="0"/>
		</comp>
	</station>
	<station code="IMMV" name="IMMV" netid="HL" source="National Observatory of Athens Seismic Network" insttype="" lat="35.4606" lon="23.9811">
		<comp name="--.HNE" depth="0.0">
			<acc value="0.030139450767436" flag="0"/>
			<vel value="0.0259887487642407" flag="0"/>
			<psa03 value="0.0801848274763326" flag="0"/>
			<psa10 value="0.0519013644606991" flag="0"/>
			<psa30 value="0.00214501543007937" flag="0"/>
		</comp>
		<comp name="--.HNN" depth="0.0">
			<acc value="0.0258718243193665" flag="0"/>
			<vel value="0.0199032245526821" flag="0"/>
			<psa03 value="0.0932082475057115" flag="0"/>
			<psa10 value="0.028183720783184" flag="0"/>
			<psa30 value="0.00259455208467757" flag="0"/>
		</comp>
		<comp name="--.HNZ" depth="0.0">
			<acc value="0.0174108532872941" flag="0"/>
			<vel value="0.0136904122240539" flag="0"/>
			<psa03 value="0.0634232848145041" flag="0"/>
			<psa10 value="0.0144352809540204" flag="0"/>
			<psa30 value="0.00162439208717074" flag="0"/>
		</comp>
	</station>
	<station code="KARP" name="KARP" netid="HL" source="National Observatory of Athens Seismic Network" insttype="" lat="35.5471" lon="27.16106">
		<comp name="--.HNE" depth="0.0">
			<acc value="0.0154771587359905" flag="0"/>
			<vel value="0.00767845643003493" flag="0"/>
			<psa03 value="0.0338166099761144" flag="0"/>
			<psa10 value="0.0101113532650196" flag="0"/>
			<psa30 value="0.000961258261977598" flag="0"/>
		</comp>
		<comp name="--.HNN" depth="0.0">
			<acc value="0.0152687591611865" flag="0"/>
			<vel value="0.00728506111568049" flag="0"/>
			<psa03 value="0.0347865153734322" flag="0"/>
			<psa10 value="0.0124114087574039" flag="0"/>
			<psa30 value="0.000785837318281084" flag="0"/>
		</comp>
		<comp name="--.HNZ" depth="0.0">
			<acc value="0.00881363191801486" flag="0"/>
			<vel value="0.00576836111310033" flag="0"/>
			<psa03 value="0.0223844385883838" flag="0"/>
			<psa10 value="0.00526605572536568" flag="0"/>
			<psa30 value="0.00103517295012767" flag="0"/>
		</comp>
	</station>
	<station code="SIVA" name="SIVA" netid="HL" source="National Observatory of Athens Seismic Network" insttype="" lat="35.01777" lon="24.81204">
		<comp name="00.HNE" depth="0.0">
			<acc value="0.184452740711492" flag="0"/>
			<vel value="0.0600185903248984" flag="0"/>
			<psa03 value="0.498116164419582" flag="0"/>
			<psa10 value="0.0518558364445136" flag="0"/>
			<psa30 value="0.00756592287194135" flag="0"/>
		</comp>
		<comp name="00.HNN" depth="0.0">
			<acc value="0.115912239382712" flag="0"/>
			<vel value="0.0826394782162273" flag="0"/>
			<psa03 value="0.19088243669122" flag="0"/>
			<psa10 value="0.12314879800338" flag="0"/>
			<psa30 value="0.00693400059352409" flag="0"/>
		</comp>
		<comp name="00.HNZ" depth="0.0">
			<acc value="0.069348611410445" flag="0"/>
			<vel value="0.0328508220526924" flag="0"/>
			<psa03 value="0.17839631788072" flag="0"/>
			<psa10 value="0.0355290173730219" flag="0"/>
			<psa30 value="0.00586907171385284" flag="0"/>
		</comp>
	</station>
</stationlist>
