<?xml version="1.0" encoding="UTF-8" standalone="yes"?>
<!DOCTYPE earthquake SYSTEM "stationlist.dtd">
<stationlist created="" xmlns="ch.ethz.sed.shakemap.usgs.xml">
  <station code="PANR" name="PANR" netid="CL" insttype="TRILLIUM-40" commtype="DIG" lat="38.3735" lon="22.2497">
    <comp name="01.HHE">
      <acc value="0.0078434797" flag="0"/>
      <vel value="0.0040171100" flag="0"/>
      <psa03 value="0.0148276807" flag="0"/>
      <psa10 value="0.0058883998" flag="0"/>
      <psa30 value="0.0004918909" flag="0"/>
    </comp>
    <comp name="01.HHN">
      <acc value="0.0061979884" flag="0"/>
      <vel value="0.0058904221" flag="0"/>
      <psa03 value="0.0149337018" flag="0"/>
      <psa10 value="0.0111120572" flag="0"/>
      <psa30 value="0.0007010873" flag="0"/>
    </comp>
    <comp name="01.HHZ">
      <acc value="0.0074855700" flag="0"/>
      <vel value="0.0036290112" flag="0"/>
      <psa03 value="0.0092750321" flag="0"/>
      <psa10 value="0.0053312216" flag="0"/>
      <psa30 value="0.0004765084" flag="0"/>
    </comp>
  </station>
  <station code="ACOR" name="ACOR" netid="HA" insttype="Horizon,120s,1200" commtype="DIG" lat="37.8905" lon="22.8694">
    <comp name="--.HHZ">
      <acc value="0.0136711067" flag="0"/>
      <vel value="0.0098013918" flag="0"/>
      <psa03 value="0.0240517210" flag="0"/>
      <psa10 value="0.0077296935" flag="0"/>
      <psa30 value="0.0006386636" flag="0"/>
    </comp>
    <comp name="--.HHN">
      <acc value="0.0188000917" flag="0"/>
      <vel value="0.0175397695" flag="0"/>
      <psa03 value="0.0261018650" flag="0"/>
      <psa10 value="0.0263871397" flag="0"/>
      <psa30 value="0.0013357461" flag="0"/>
    </comp>
    <comp name="--.HHE">
      <acc value="0.0156363650" flag="0"/>
      <vel value="0.0129916776" flag="0"/>
      <psa03 value="0.0358595914" flag="0"/>
      <psa10 value="0.0210247940" flag="0"/>
      <psa30 value="0.0017530438" flag="0"/>
    </comp>
  </station>
  <station code="AMPE" name="AMPE" netid="HA" insttype="1s-100Hz," commtype="DIG" lat="38.3015" lon="23.2688">
    <comp name="--.HHE">
      <acc value="0.1037677679" flag="0"/>
      <vel value="0.0598051831" flag="0"/>
      <psa03 value="0.1764168396" flag="0"/>
      <psa10 value="0.0452499590" flag="0"/>
      <psa30 value="0.0054092794" flag="0"/>
    </comp>
    <comp name="--.HHN">
      <acc value="0.0932335119" flag="0"/>
      <vel value="0.0422292926" flag="0"/>
      <psa03 value="0.1690086724" flag="0"/>
      <psa10 value="0.0315821370" flag="0"/>
      <psa30 value="0.0018726339" flag="0"/>
    </comp>
    <comp name="--.HHZ">
      <acc value="0.0606129229" flag="0"/>
      <vel value="0.0185116587" flag="0"/>
      <psa03 value="0.0841760305" flag="0"/>
      <psa10 value="0.0215945001" flag="0"/>
      <psa30 value="0.0012322323" flag="0"/>
    </comp>
  </station>
  <station code="ANTK" name="ANTK" netid="HA" insttype="25" commtype="DIG" lat="38.3605" lon="22.6385">
    <comp name="--.HHE">
      <acc value="0.0095750829" flag="0"/>
      <vel value="0.0042994476" flag="0"/>
      <psa03 value="0.0219641165" flag="0"/>
      <psa10 value="0.0042985490" flag="0"/>
      <psa30 value="0.0002632918" flag="0"/>
    </comp>
    <comp name="--.HHZ">
      <acc value="0.0075135340" flag="0"/>
      <vel value="0.0035745802" flag="0"/>
      <psa03 value="0.0121413157" flag="0"/>
      <psa10 value="0.0042413448" flag="0"/>
      <psa30 value="0.0002842526" flag="0"/>
    </comp>
    <comp name="--.HHN">
      <acc value="0.0078950035" flag="0"/>
      <vel value="0.0035706172" flag="0"/>
      <psa03 value="0.0115011529" flag="0"/>
      <psa10 value="0.0040589395" flag="0"/>
      <psa30 value="0.0003737944" flag="0"/>
    </comp>
  </station>
  <station code="ATAL" name="ATAL" netid="HA" insttype="120s," commtype="DIG" lat="38.6926" lon="23.0213">
    <comp name="--.HHE">
      <acc value="0.0962832216" flag="0"/>
      <vel value="0.0204663110" flag="0"/>
      <psa03 value="0.1195988944" flag="0"/>
      <psa10 value="0.0079805809" flag="0"/>
      <psa30 value="0.0008686182" flag="0"/>
    </comp>
    <comp name="--.HHN">
      <acc value="0.1073482493" flag="0"/>
      <vel value="0.0288983711" flag="0"/>
      <psa03 value="0.1404568265" flag="0"/>
      <psa10 value="0.0174301729" flag="0"/>
      <psa30 value="0.0011384625" flag="0"/>
    </comp>
    <comp name="--.HHZ">
      <acc value="0.0985660894" flag="0"/>
      <vel value="0.0213831042" flag="0"/>
      <psa03 value="0.1258264598" flag="0"/>
      <psa10 value="0.0113378221" flag="0"/>
      <psa30 value="0.0008824334" flag="0"/>
    </comp>
  </station>
  <station code="ATHU" name="ATHU" netid="HA" insttype="60s," commtype="DIG" lat="37.9665" lon="23.7845">
    <comp name="--.HHN">
      <acc value="0.0249744107" flag="0"/>
      <vel value="0.0112693102" flag="0"/>
      <psa03 value="0.0414100423" flag="0"/>
      <psa10 value="0.0080121677" flag="0"/>
      <psa30 value="0.0008715231" flag="0"/>
    </comp>
    <comp name="--.HHE">
      <acc value="0.0324025830" flag="0"/>
      <vel value="0.0124242737" flag="0"/>
      <psa03 value="0.0568153792" flag="0"/>
      <psa10 value="0.0134438287" flag="0"/>
      <psa30 value="0.0008318424" flag="0"/>
    </comp>
    <comp name="--.HHZ">
      <acc value="0.0199271871" flag="0"/>
      <vel value="0.0076871733" flag="0"/>
      <psa03 value="0.0271195215" flag="0"/>
      <psa10 value="0.0099461857" flag="0"/>
      <psa30 value="0.0006566224" flag="0"/>
    </comp>
  </station>
  <station code="AXAR" name="AXAR" netid="HA" insttype="Horizon,120s,1200" commtype="DIG" lat="38.7664" lon="22.659">
    <comp name="--.HHN">
      <acc value="0.0519651647" flag="0"/>
      <vel value="0.0244780715" flag="0"/>
      <psa03 value="0.1419862039" flag="0"/>
      <psa10 value="0.0208717307" flag="0"/>
      <psa30 value="0.0012144602" flag="0"/>
    </comp>
    <comp name="--.HHE">
      <acc value="0.0485091097" flag="0"/>
      <vel value="0.0260410102" flag="0"/>
      <psa03 value="0.1084942746" flag="0"/>
      <psa10 value="0.0220000145" flag="0"/>
      <psa30 value="0.0022259409" flag="0"/>
    </comp>
    <comp name="--.HHZ">
      <acc value="0.0339998103" flag="0"/>
      <vel value="0.0141755973" flag="0"/>
      <psa03 value="0.0642771498" flag="0"/>
      <psa10 value="0.0146049965" flag="0"/>
      <psa30 value="0.0007901075" flag="0"/>
    </comp>
  </station>
  <station code="DOMV" name="DOMV" netid="HA" insttype="60" commtype="DIG" lat="38.2569" lon="22.9795">
    <comp name="--.HHN">
      <acc value="0.3319776093" flag="0"/>
      <vel value="0.0762214517" flag="0"/>
      <psa03 value="0.3919575397" flag="0"/>
      <psa10 value="0.0352695851" flag="0"/>
      <psa30 value="0.0019840658" flag="0"/>
    </comp>
    <comp name="--.HHZ">
      <acc value="0.2453887723" flag="0"/>
      <vel value="0.0619957440" flag="0"/>
      <psa03 value="0.3342763982" flag="0"/>
      <psa10 value="0.0346596476" flag="0"/>
      <psa30 value="0.0013260888" flag="0"/>
    </comp>
    <comp name="--.HHE">
      <acc value="0.3847179253" flag="0"/>
      <vel value="0.0829711355" flag="0"/>
      <psa03 value="0.4013585067" flag="0"/>
      <psa10 value="0.0343831965" flag="0"/>
      <psa30 value="0.0025904352" flag="0"/>
    </comp>
  </station>
  <station code="ERTR" name="ERTR" netid="HA" insttype="Horizon,120s,1200" commtype="DIG" lat="38.4066" lon="23.7865">
    <comp name="--.HHN">
      <acc value="0.1375500803" flag="0"/>
      <vel value="0.0505307980" flag="0"/>
      <psa03 value="0.3240711568" flag="0"/>
      <psa10 value="0.0168546792" flag="0"/>
      <psa30 value="0.0026031477" flag="0"/>
    </comp>
    <comp name="--.HHE">
      <acc value="0.1833058018" flag="0"/>
      <vel value="0.0462215023" flag="0"/>
      <psa03 value="0.3442701002" flag="0"/>
      <psa10 value="0.0349668416" flag="0"/>
      <psa30 value="0.0021180122" flag="0"/>
    </comp>
    <comp name="--.HHZ">
      <acc value="0.0897850270" flag="0"/>
      <vel value="0.0201025675" flag="0"/>
      <psa03 value="0.1681987488" flag="0"/>
      <psa10 value="0.0153357068" flag="0"/>
      <psa30 value="0.0010631217" flag="0"/>
    </comp>
  </station>
  <station code="KARY" name="KARY" netid="HA" insttype="60" commtype="DIG" lat="38.0321" lon="24.437">
    <comp name="--.HHE">
      <acc value="0.0384761941" flag="0"/>
      <vel value="0.0126454587" flag="0"/>
      <psa03 value="0.0819439945" flag="0"/>
      <psa10 value="0.0059748403" flag="0"/>
      <psa30 value="0.0006449727" flag="0"/>
    </comp>
    <comp name="--.HHZ">
      <acc value="0.0329658906" flag="0"/>
      <vel value="0.0148923614" flag="0"/>
      <psa03 value="0.0740329934" flag="0"/>
      <psa10 value="0.0123761233" flag="0"/>
      <psa30 value="0.0009230306" flag="0"/>
    </comp>
    <comp name="--.HHN">
      <acc value="0.0574742912" flag="0"/>
      <vel value="0.0193791807" flag="0"/>
      <psa03 value="0.0668237393" flag="0"/>
      <psa10 value="0.0194514689" flag="0"/>
      <psa30 value="0.0013832678" flag="0"/>
    </comp>
  </station>
  <station code="LOUT" name="LOUT" netid="HA" insttype="30" commtype="DIG" lat="37.9879" lon="22.9743">
    <comp name="--.HHZ">
      <acc value="0.0653340795" flag="0"/>
      <vel value="0.0235379125" flag="0"/>
      <psa03 value="0.1075258500" flag="0"/>
      <psa10 value="0.0199301910" flag="0"/>
      <psa30 value="0.0008833674" flag="0"/>
    </comp>
    <comp name="--.HHN">
      <acc value="0.1134213569" flag="0"/>
      <vel value="0.0499388324" flag="0"/>
      <psa03 value="0.2012173009" flag="0"/>
      <psa10 value="0.0299350811" flag="0"/>
      <psa30 value="0.0022507175" flag="0"/>
    </comp>
    <comp name="--.HHE">
      <acc value="0.1454235853" flag="0"/>
      <vel value="0.0565392672" flag="0"/>
      <psa03 value="0.1690153150" flag="0"/>
      <psa10 value="0.0620834430" flag="0"/>
      <psa30 value="0.0034674523" flag="0"/>
    </comp>
  </station>
  <station code="MDRA" name="MDRA" netid="HA" insttype="60" commtype="DIG" lat="38.0606" lon="23.4662">
    <comp name="--.HHE">
      <acc value="0.0500103890" flag="0"/>
      <vel value="0.0163619734" flag="0"/>
      <psa03 value="0.0927702964" flag="0"/>
      <psa10 value="0.0064358346" flag="0"/>
      <psa30 value="0.0007322265" flag="0"/>
    </comp>
    <comp name="--.HHN">
      <acc value="0.0698572084" flag="0"/>
      <vel value="0.0255478187" flag="0"/>
      <psa03 value="0.1175574121" flag="0"/>
      <psa10 value="0.0075110748" flag="0"/>
      <psa30 value="0.0009670478" flag="0"/>
    </comp>
    <comp name="--.HHZ">
      <acc value="0.0463624769" flag="0"/>
      <vel value="0.0193039785" flag="0"/>
      <psa03 value="0.0672651604" flag="0"/>
      <psa10 value="0.0137671650" flag="0"/>
      <psa30 value="0.0010377297" flag="0"/>
    </comp>
  </station>
  <station code="MRKA" name="MRKA" netid="HA" insttype="Horizon,120s,1200" commtype="DIG" lat="38.7047" lon="23.5863">
    <comp name="--.HHE">
      <acc value="12.6025855176" flag="0"/>
      <vel value="2.3497472275" flag="0"/>
      <psa03 value="7.5075848771" flag="0"/>
      <psa10 value="0.7594678695" flag="0"/>
      <psa30 value="0.1822918370" flag="0"/>
    </comp>
    <comp name="--.HHN">
      <acc value="4.8543251126" flag="0"/>
      <vel value="0.5820015682" flag="0"/>
      <psa03 value="3.1669553581" flag="0"/>
      <psa10 value="0.2898857410" flag="0"/>
      <psa30 value="0.0212630783" flag="0"/>
    </comp>
    <comp name="--.HHZ">
      <acc value="7.0084428645" flag="0"/>
      <vel value="0.9002269414" flag="0"/>
      <psa03 value="2.6718512753" flag="0"/>
      <psa10 value="0.5319329700" flag="0"/>
      <psa30 value="0.1458710283" flag="0"/>
    </comp>
  </station>
  <station code="MRTH" name="MRTH" netid="HA" insttype="S100," commtype="DIG" lat="38.1225" lon="23.9409">
    <comp name="--.HHE">
      <acc value="0.0767724418" flag="0"/>
      <vel value="0.0423444173" flag="0"/>
      <psa03 value="0.1257341878" flag="0"/>
      <psa10 value="0.0358248215" flag="0"/>
      <psa30 value="0.0024870542" flag="0"/>
    </comp>
    <comp name="--.HHN">
      <acc value="0.0827285003" flag="0"/>
      <vel value="0.0337416966" flag="0"/>
      <psa03 value="0.1509661767" flag="0"/>
      <psa10 value="0.0449655976" flag="0"/>
      <psa30 value="0.0020629212" flag="0"/>
    </comp>
    <comp name="--.HHZ">
      <acc value="0.0665346036" flag="0"/>
      <vel value="0.0274295601" flag="0"/>
      <psa03 value="0.1339261598" flag="0"/>
      <psa10 value="0.0242686851" flag="0"/>
      <psa30 value="0.0010945800" flag="0"/>
    </comp>
  </station>
  <station code="PRDM" name="PRDM" netid="HA" insttype="25" commtype="DIG" lat="38.2804" lon="22.847">
    <comp name="--.HHE">
      <acc value="0.0602304317" flag="0"/>
      <vel value="0.0177282439" flag="0"/>
      <psa03 value="0.0615215435" flag="0"/>
      <psa10 value="0.0125942742" flag="0"/>
      <psa30 value="0.0006733473" flag="0"/>
    </comp>
    <comp name="--.HHN">
      <acc value="0.0486066884" flag="0"/>
      <vel value="0.0087283278" flag="0"/>
      <psa03 value="0.0449452329" flag="0"/>
      <psa10 value="0.0082328628" flag="0"/>
      <psa30 value="0.0004459790" flag="0"/>
    </comp>
    <comp name="--.HHZ">
      <acc value="0.0185359158" flag="0"/>
      <vel value="0.0051694464" flag="0"/>
      <psa03 value="0.0269094182" flag="0"/>
      <psa10 value="0.0028384850" flag="0"/>
      <psa30 value="0.0003156296" flag="0"/>
    </comp>
  </station>
  <station code="PSAH" name="PSAH" netid="HA" insttype="25" commtype="DIG" lat="38.5694" lon="23.6473">
    <comp name="--.HHE">
      <acc value="0.2389608197" flag="0"/>
      <vel value="0.0837866782" flag="0"/>
      <psa03 value="0.3045468328" flag="0"/>
      <psa10 value="0.0711636930" flag="0"/>
      <psa30 value="0.0054674979" flag="0"/>
    </comp>
    <comp name="--.HHZ">
      <acc value="0.1033308775" flag="0"/>
      <vel value="0.0318773217" flag="0"/>
      <psa03 value="0.1355891723" flag="0"/>
      <psa10 value="0.0275398899" flag="0"/>
      <psa30 value="0.0019953664" flag="0"/>
    </comp>
    <comp name="--.HHN">
      <acc value="0.1285884757" flag="0"/>
      <vel value="0.0321176421" flag="0"/>
      <psa03 value="0.1569646012" flag="0"/>
      <psa10 value="0.0321531146" flag="0"/>
      <psa30 value="0.0023440757" flag="0"/>
    </comp>
  </station>
  <station code="THAL" name="THAL" netid="HA" insttype="30" commtype="DIG" lat="38.0357" lon="22.6634">
    <comp name="--.HHE">
      <acc value="0.1028028211" flag="0"/>
      <vel value="0.0519939073" flag="0"/>
      <psa03 value="0.2536159164" flag="0"/>
      <psa10 value="0.0537042529" flag="0"/>
      <psa30 value="0.0035881222" flag="0"/>
    </comp>
    <comp name="--.HHN">
      <acc value="0.1332309885" flag="0"/>
      <vel value="0.0457162510" flag="0"/>
      <psa03 value="0.2520755619" flag="0"/>
      <psa10 value="0.0356568006" flag="0"/>
      <psa30 value="0.0023574536" flag="0"/>
    </comp>
    <comp name="--.HHZ">
      <acc value="0.0623552143" flag="0"/>
      <vel value="0.0235890357" flag="0"/>
      <psa03 value="0.1320893009" flag="0"/>
      <psa10 value="0.0204382517" flag="0"/>
      <psa30 value="0.0009709231" flag="0"/>
    </comp>
  </station>
  <station code="THIV" name="THIV" netid="HA" insttype="25" commtype="DIG" lat="38.299" lon="23.332">
    <comp name="--.HHN">
      <acc value="0.1080729235" flag="0"/>
      <vel value="0.0320503585" flag="0"/>
      <psa03 value="0.1443859476" flag="0"/>
      <psa10 value="0.0255383022" flag="0"/>
      <psa30 value="0.0011625905" flag="0"/>
    </comp>
    <comp name="--.HHZ">
      <acc value="0.0928159427" flag="0"/>
      <vel value="0.0236489418" flag="0"/>
      <psa03 value="0.0835160550" flag="0"/>
      <psa10 value="0.0105131992" flag="0"/>
      <psa30 value="0.0013583605" flag="0"/>
    </comp>
    <comp name="--.HHE">
      <acc value="0.1213691349" flag="0"/>
      <vel value="0.0457112399" flag="0"/>
      <psa03 value="0.1605996877" flag="0"/>
      <psa10 value="0.0507072608" flag="0"/>
      <psa30 value="0.0026645875" flag="0"/>
    </comp>
  </station>
  <station code="VILL" name="VILL" netid="HA" insttype="Horizon,120s,1200" commtype="DIG" lat="38.1642" lon="23.3122">
    <comp name="--.HHE">
      <acc value="0.0705650798" flag="0"/>
      <vel value="0.0368613294" flag="0"/>
      <psa03 value="0.1339161426" flag="0"/>
      <psa10 value="0.0391978326" flag="0"/>
      <psa30 value="0.0025822143" flag="0"/>
    </comp>
    <comp name="--.HHN">
      <acc value="0.1247859518" flag="0"/>
      <vel value="0.0319008504" flag="0"/>
      <psa03 value="0.1506937544" flag="0"/>
      <psa10 value="0.0178755941" flag="0"/>
      <psa30 value="0.0013918202" flag="0"/>
    </comp>
    <comp name="--.HHZ">
      <acc value="0.0417164102" flag="0"/>
      <vel value="0.0177749030" flag="0"/>
      <psa03 value="0.1347948099" flag="0"/>
      <psa10 value="0.0114317881" flag="0"/>
      <psa30 value="0.0009970743" flag="0"/>
    </comp>
  </station>
  <station code="ATH5" name="ATH5" netid="HI" insttype="CMG-5TD,ACCELEROMETER,GURALP" commtype="DIG" lat="37.9754" lon="23.7371">
    <comp name="--.HNZ">
      <acc value="0.0354808161" flag="0"/>
      <vel value="0.0168812994" flag="0"/>
      <psa03 value="0.0743921926" flag="0"/>
      <psa10 value="0.0074288017" flag="0"/>
      <psa30 value="0.0009184717" flag="0"/>
    </comp>
    <comp name="--.HNN">
      <acc value="0.0424933995" flag="0"/>
      <vel value="0.0148605797" flag="0"/>
      <psa03 value="0.0983928038" flag="0"/>
      <psa10 value="0.0198007181" flag="0"/>
      <psa30 value="0.0008870891" flag="0"/>
    </comp>
    <comp name="--.HNE">
      <acc value="0.0454656500" flag="0"/>
      <vel value="0.0179444411" flag="0"/>
      <psa03 value="0.0834153885" flag="0"/>
      <psa10 value="0.0227945028" flag="0"/>
      <psa30 value="0.0012406520" flag="0"/>
    </comp>
  </station>
  <station code="FRS1" name="FRS1" netid="HI" insttype="unknown" commtype="DIG" lat="39.2934" lon="22.3844">
    <comp name="--.HNE">
      <acc value="0.0070337745" flag="0"/>
      <vel value="0.0044637933" flag="0"/>
      <psa03 value="0.0204290892" flag="0"/>
      <psa10 value="0.0082507319" flag="0"/>
      <psa30 value="0.0006130267" flag="0"/>
    </comp>
    <comp name="--.HNN">
      <acc value="0.0102379601" flag="0"/>
      <vel value="0.0091323876" flag="0"/>
      <psa03 value="0.0192762816" flag="0"/>
      <psa10 value="0.0125062133" flag="0"/>
      <psa30 value="0.0007608258" flag="0"/>
    </comp>
    <comp name="--.HNZ">
      <acc value="0.0061002032" flag="0"/>
      <vel value="0.0039893679" flag="0"/>
      <psa03 value="0.0159565170" flag="0"/>
      <psa10 value="0.0064520363" flag="0"/>
      <psa30 value="0.0004693552" flag="0"/>
    </comp>
  </station>
  <station code="KIF1" name="KIF1" netid="HI" insttype="unknown" commtype="DIG" lat="38.0773" lon="23.8146">
    <comp name="--.HNE">
      <acc value="0.0812723010" flag="0"/>
      <vel value="0.0250590038" flag="0"/>
      <psa03 value="0.1696677933" flag="0"/>
      <psa10 value="0.0204627642" flag="0"/>
      <psa30 value="0.0014286040" flag="0"/>
    </comp>
    <comp name="--.HNZ">
      <acc value="0.0734144064" flag="0"/>
      <vel value="0.0212902670" flag="0"/>
      <psa03 value="0.0685721649" flag="0"/>
      <psa10 value="0.0150606796" flag="0"/>
      <psa30 value="0.0008907270" flag="0"/>
    </comp>
    <comp name="--.HNN">
      <acc value="0.0642272688" flag="0"/>
      <vel value="0.0274584169" flag="0"/>
      <psa03 value="0.1264043908" flag="0"/>
      <psa10 value="0.0192871430" flag="0"/>
      <psa30 value="0.0018107244" flag="0"/>
    </comp>
  </station>
