<?xml version="1.0" encoding="UTF-8" standalone="yes"?>
<!DOCTYPE earthquake SYSTEM "stationlist.dtd">
<stationlist created="" xmlns="ch.ethz.sed.shakemap.usgs.xml">
  <station code="PANR" name="PANR" netid="CL" insttype="TRILLIUM-40" commtype="DIG" lat="38.3735" lon="22.2497">
    <comp name="01.HHE">
      <acc value="0.0078434797" flag="0"/>
      <vel value="0.0040171100" flag="0"/>
      <psa03 value="0.0148276807" flag="0"/>
      <psa10 value="0.0058883998" flag="0"/>
      <psa30 value="0.0004918909" flag="0"/>
    </comp>
    <comp name="01.HHN">
      <acc value="0.0061979884" flag="0"/>
      <vel value="0.0058904221" flag="0"/>
      <psa03 value="0.0149337018" flag="0"/>
      <psa10 value="0.0111120572" flag="0"/>
      <psa30 value="0.0007010873" flag="0"/>
    </comp>
    <comp name="01.HHZ">
      <acc value="0.0074855700" flag="0"/>
      <vel value="0.0036290112" flag="0"/>
      <psa03 value="0.0092750321" flag="0"/>
      <psa10 value="0.0053312216" flag="0"/>
      <psa30 value="0.0004765084" flag="0"/>
    </comp>
  </station>
</stationlist>
