<?xml version="1.0" encoding="UTF-8" standalone="yes"?>
<!DOCTYPE earthquake SYSTEM "stationlist.dtd">
<stationlist created="" xmlns="ch.ethz.sed.shakemap.usgs.xml">
  <station code="PANR" name="PANR" netid="CL" insttype="TRILLIUM-40" commtype="DIG" lat="38.3735" lon="22.2497">
    <comp name="01.HHE">
      <acc value="0.0078434797" flag="0"/>
      <vel value="0.0040171088" flag="0"/>
      <psa03 value="0.0148276807" flag="0"/>
      <psa10 value="0.0058883998" flag="0"/>
      <psa30 value="0.0004918936" flag="0"/>
    </comp>
    <comp name="01.HHZ">
      <acc value="0.0074855706" flag="0"/>
      <vel value="0.0036290140" flag="0"/>
      <psa03 value="0.0092750321" flag="0"/>
      <psa10 value="0.0053312216" flag="0"/>
      <psa30 value="0.0004764994" flag="0"/>
    </comp>
    <comp name="01.HHN">
      <acc value="0.0061979886" flag="0"/>
      <vel value="0.0058904236" flag="0"/>
      <psa03 value="0.0149337018" flag="0"/>
      <psa10 value="0.0111120572" flag="0"/>
      <psa30 value="0.0007010114" flag="0"/>
    </comp>
  </station>
  <station code="ACOR" name="ACOR" netid="HA" insttype="Horizon,120s,1200" commtype="DIG" lat="37.8905" lon="22.8694">
    <comp name="--.HHE">
      <acc value="0.0156363649" flag="0"/>
      <vel value="0.0129916775" flag="0"/>
      <psa03 value="0.0358595914" flag="0"/>
      <psa10 value="0.0210247940" flag="0"/>
      <psa30 value="0.0017530174" flag="0"/>
    </comp>
    <comp name="--.HHN">
      <acc value="0.0188000915" flag="0"/>
      <vel value="0.0175397702" flag="0"/>
      <psa03 value="0.0261018650" flag="0"/>
      <psa10 value="0.0263871395" flag="0"/>
      <psa30 value="0.0013356770" flag="0"/>
    </comp>
    <comp name="--.HHZ">
      <acc value="0.0136711065" flag="0"/>
      <vel value="0.0098013932" flag="0"/>
      <psa03 value="0.0240517210" flag="0"/>
      <psa10 value="0.0077296935" flag="0"/>
      <psa30 value="0.0006386378" flag="0"/>
    </comp>
  </station>
  <station code="AMPE" name="AMPE" netid="HA" insttype="1s-100Hz," commtype="DIG" lat="38.3015" lon="23.2688">
    <comp name="--.HHN">
      <acc value="0.0932335119" flag="0"/>
      <vel value="0.0422292921" flag="0"/>
      <psa03 value="0.1690086724" flag="0"/>
      <psa10 value="0.0315821365" flag="0"/>
      <psa30 value="0.0018725368" flag="0"/>
    </comp>
    <comp name="--.HHZ">
      <acc value="0.0606129230" flag="0"/>
      <vel value="0.0185116864" flag="0"/>
      <psa03 value="0.0841760304" flag="0"/>
      <psa10 value="0.0215945002" flag="0"/>
      <psa30 value="0.0012322292" flag="0"/>
    </comp>
    <comp name="--.HHE">
      <acc value="0.1037677673" flag="0"/>
      <vel value="0.0598050408" flag="0"/>
      <psa03 value="0.1764168401" flag="0"/>
      <psa10 value="0.0452499581" flag="0"/>
      <psa30 value="0.0054090763" flag="0"/>
    </comp>
  </station>
  <station code="ANTK" name="ANTK" netid="HA" insttype="25" commtype="DIG" lat="38.3605" lon="22.6385">
    <comp name="--.HHE">
      <acc value="0.0095750830" flag="0"/>
      <vel value="0.0042994478" flag="0"/>
      <psa03 value="0.0219641165" flag="0"/>
      <psa10 value="0.0042985490" flag="0"/>
      <psa30 value="0.0002633052" flag="0"/>
    </comp>
    <comp name="--.HHZ">
      <acc value="0.0075135340" flag="0"/>
      <vel value="0.0035745779" flag="0"/>
      <psa03 value="0.0121413157" flag="0"/>
      <psa10 value="0.0042413448" flag="0"/>
      <psa30 value="0.0002842403" flag="0"/>
    </comp>
    <comp name="--.HHN">
      <acc value="0.0078950036" flag="0"/>
      <vel value="0.0035706181" flag="0"/>
      <psa03 value="0.0115011529" flag="0"/>
      <psa10 value="0.0040589395" flag="0"/>
      <psa30 value="0.0003738008" flag="0"/>
    </comp>
  </station>
  <station code="ATAL" name="ATAL" netid="HA" insttype="120s," commtype="DIG" lat="38.6926" lon="23.0213">
    <comp name="--.HHN">
      <acc value="0.1073482491" flag="0"/>
      <vel value="0.0288983702" flag="0"/>
      <psa03 value="0.1404568265" flag="0"/>
      <psa10 value="0.0174301734" flag="0"/>
      <psa30 value="0.0011383956" flag="0"/>
    </comp>
    <comp name="--.HHE">
      <acc value="0.0962832216" flag="0"/>
      <vel value="0.0204663111" flag="0"/>
      <psa03 value="0.1195988944" flag="0"/>
      <psa10 value="0.0079805805" flag="0"/>
      <psa30 value="0.0008687954" flag="0"/>
    </comp>
    <comp name="--.HHZ">
      <acc value="0.0985660895" flag="0"/>
      <vel value="0.0213831039" flag="0"/>
      <psa03 value="0.1258264598" flag="0"/>
      <psa10 value="0.0113378495" flag="0"/>
      <psa30 value="0.0008826246" flag="0"/>
    </comp>
  </station>
  <station code="ATHU" name="ATHU" netid="HA" insttype="60s," commtype="DIG" lat="37.9665" lon="23.7845">
    <comp name="--.HHZ">
      <acc value="0.0199271867" flag="0"/>
      <vel value="0.0076871734" flag="0"/>
      <psa03 value="0.0271195215" flag="0"/>
      <psa10 value="0.0099461857" flag="0"/>
      <psa30 value="0.0006566023" flag="0"/>
    </comp>
    <comp name="--.HHE">
      <acc value="0.0324025830" flag="0"/>
      <vel value="0.0124242727" flag="0"/>
      <psa03 value="0.0568153792" flag="0"/>
      <psa10 value="0.0134438286" flag="0"/>
      <psa30 value="0.0008318174" flag="0"/>
    </comp>
    <comp name="--.HHN">
      <acc value="0.0249744114" flag="0"/>
      <vel value="0.0112693101" flag="0"/>
      <psa03 value="0.0414100423" flag="0"/>
      <psa10 value="0.0080121676" flag="0"/>
      <psa30 value="0.0008714845" flag="0"/>
    </comp>
  </station>
  <station code="AXAR" name="AXAR" netid="HA" insttype="Horizon,120s,1200" commtype="DIG" lat="38.7664" lon="22.659">
    <comp name="--.HHN">
      <acc value="0.0519651643" flag="0"/>
      <vel value="0.0244780728" flag="0"/>
      <psa03 value="0.1419862039" flag="0"/>
      <psa10 value="0.0208717306" flag="0"/>
      <psa30 value="0.0012144972" flag="0"/>
    </comp>
    <comp name="--.HHE">
      <acc value="0.0485091098" flag="0"/>
      <vel value="0.0260410109" flag="0"/>
      <psa03 value="0.1084942746" flag="0"/>
      <psa10 value="0.0220000147" flag="0"/>
      <psa30 value="0.0022259262" flag="0"/>
    </comp>
    <comp name="--.HHZ">
      <acc value="0.0339998105" flag="0"/>
      <vel value="0.0141755973" flag="0"/>
      <psa03 value="0.0642771498" flag="0"/>
      <psa10 value="0.0146049966" flag="0"/>
      <psa30 value="0.0007901160" flag="0"/>
    </comp>
  </station>
  <station code="DOMV" name="DOMV" netid="HA" insttype="60" commtype="DIG" lat="38.2569" lon="22.9795">
    <comp name="--.HHN">
      <acc value="0.3319776096" flag="0"/>
      <vel value="0.0762214471" flag="0"/>
      <psa03 value="0.3919575397" flag="0"/>
      <psa10 value="0.0352695855" flag="0"/>
      <psa30 value="0.0019844137" flag="0"/>
    </comp>
    <comp name="--.HHZ">
      <acc value="0.2453887717" flag="0"/>
      <vel value="0.0619957457" flag="0"/>
      <psa03 value="0.3342763982" flag="0"/>
      <psa10 value="0.0346596476" flag="0"/>
      <psa30 value="0.0013260918" flag="0"/>
    </comp>
    <comp name="--.HHE">
      <acc value="0.3847179254" flag="0"/>
      <vel value="0.0829711339" flag="0"/>
      <psa03 value="0.4013585067" flag="0"/>
      <psa10 value="0.0343831955" flag="0"/>
      <psa30 value="0.0025901753" flag="0"/>
    </comp>
  </station>
  <station code="ERTR" name="ERTR" netid="HA" insttype="Horizon,120s,1200" commtype="DIG" lat="38.4066" lon="23.7865">
    <comp name="--.HHE">
      <acc value="0.1833058020" flag="0"/>
      <vel value="0.0462215028" flag="0"/>
      <psa03 value="0.3442701002" flag="0"/>
      <psa10 value="0.0349668416" flag="0"/>
      <psa30 value="0.0021179441" flag="0"/>
    </comp>
    <comp name="--.HHN">
      <acc value="0.1375500804" flag="0"/>
      <vel value="0.0505307978" flag="0"/>
      <psa03 value="0.3240711568" flag="0"/>
      <psa10 value="0.0168546791" flag="0"/>
      <psa30 value="0.0026031521" flag="0"/>
    </comp>
    <comp name="--.HHZ">
      <acc value="0.0897850272" flag="0"/>
      <vel value="0.0201025676" flag="0"/>
      <psa03 value="0.1681987488" flag="0"/>
      <psa10 value="0.0153357062" flag="0"/>
      <psa30 value="0.0010630983" flag="0"/>
    </comp>
  </station>
  <station code="KARY" name="KARY" netid="HA" insttype="60" commtype="DIG" lat="38.0321" lon="24.437">
    <comp name="--.HHE">
      <acc value="0.0384761939" flag="0"/>
      <vel value="0.0126454581" flag="0"/>
      <psa03 value="0.0819439945" flag="0"/>
      <psa10 value="0.0059748403" flag="0"/>
      <psa30 value="0.0006449946" flag="0"/>
    </comp>
    <comp name="--.HHZ">
      <acc value="0.0329658904" flag="0"/>
      <vel value="0.0148923626" flag="0"/>
      <psa03 value="0.0740329934" flag="0"/>
      <psa10 value="0.0123761233" flag="0"/>
      <psa30 value="0.0009231043" flag="0"/>
    </comp>
    <comp name="--.HHN">
      <acc value="0.0574742916" flag="0"/>
      <vel value="0.0193791814" flag="0"/>
      <psa03 value="0.0668237393" flag="0"/>
      <psa10 value="0.0194514689" flag="0"/>
      <psa30 value="0.0013832303" flag="0"/>
    </comp>
  </station>
  <station code="LOUT" name="LOUT" netid="HA" insttype="30" commtype="DIG" lat="37.9879" lon="22.9743">
    <comp name="--.HHE">
      <acc value="0.1454235848" flag="0"/>
      <vel value="0.0565392665" flag="0"/>
      <psa03 value="0.1690153150" flag="0"/>
      <psa10 value="0.0620834426" flag="0"/>
      <psa30 value="0.0034675782" flag="0"/>
    </comp>
    <comp name="--.HHZ">
      <acc value="0.0653340796" flag="0"/>
      <vel value="0.0235379120" flag="0"/>
      <psa03 value="0.1075258500" flag="0"/>
      <psa10 value="0.0199301910" flag="0"/>
      <psa30 value="0.0008833929" flag="0"/>
    </comp>
    <comp name="--.HHN">
      <acc value="0.1134213573" flag="0"/>
      <vel value="0.0499388348" flag="0"/>
      <psa03 value="0.2012173009" flag="0"/>
      <psa10 value="0.0299350814" flag="0"/>
      <psa30 value="0.0022503870" flag="0"/>
    </comp>
  </station>
  <station code="MDRA" name="MDRA" netid="HA" insttype="60" commtype="DIG" lat="38.0606" lon="23.4662">
    <comp name="--.HHZ">
      <acc value="0.0463624773" flag="0"/>
      <vel value="0.0193039784" flag="0"/>
      <psa03 value="0.0672651604" flag="0"/>
      <psa10 value="0.0137671650" flag="0"/>
      <psa30 value="0.0010377841" flag="0"/>
    </comp>
    <comp name="--.HHN">
      <acc value="0.0698572086" flag="0"/>
      <vel value="0.0255478185" flag="0"/>
      <psa03 value="0.1175574121" flag="0"/>
      <psa10 value="0.0075110752" flag="0"/>
      <psa30 value="0.0009670258" flag="0"/>
    </comp>
    <comp name="--.HHE">
      <acc value="0.0500103895" flag="0"/>
      <vel value="0.0163619730" flag="0"/>
      <psa03 value="0.0927702964" flag="0"/>
      <psa10 value="0.0064358346" flag="0"/>
      <psa30 value="0.0007321730" flag="0"/>
    </comp>
  </station>
  <station code="MRKA" name="MRKA" netid="HA" insttype="Horizon,120s,1200" commtype="DIG" lat="38.7047" lon="23.5863">
    <comp name="--.HHE">
      <acc value="12.6025855174" flag="0"/>
      <vel value="2.3497472356" flag="0"/>
      <psa03 value="7.5075848771" flag="0"/>
      <psa10 value="0.7594678707" flag="0"/>
      <psa30 value="0.1822918279" flag="0"/>
    </comp>
    <comp name="--.HHN">
      <acc value="4.8543251126" flag="0"/>
      <vel value="0.5820015649" flag="0"/>
      <psa03 value="3.1669553581" flag="0"/>
      <psa10 value="0.2898857423" flag="0"/>
      <psa30 value="0.0212630726" flag="0"/>
    </comp>
    <comp name="--.HHZ">
      <acc value="7.0084428645" flag="0"/>
      <vel value="0.9002269308" flag="0"/>
      <psa03 value="2.6718512753" flag="0"/>
      <psa10 value="0.5319329718" flag="0"/>
      <psa30 value="0.1458712508" flag="0"/>
    </comp>
  </station>
  <station code="MRTH" name="MRTH" netid="HA" insttype="S100," commtype="DIG" lat="38.1225" lon="23.9409">
    <comp name="--.HHE">
      <acc value="0.0767724419" flag="0"/>
      <vel value="0.0423442579" flag="0"/>
      <psa03 value="0.1257341880" flag="0"/>
      <psa10 value="0.0358248209" flag="0"/>
      <psa30 value="0.0024870052" flag="0"/>
    </comp>
    <comp name="--.HHN">
      <acc value="0.0827285009" flag="0"/>
      <vel value="0.0337416918" flag="0"/>
      <psa03 value="0.1509661767" flag="0"/>
      <psa10 value="0.0449655973" flag="0"/>
      <psa30 value="0.0020629074" flag="0"/>
    </comp>
    <comp name="--.HHZ">
      <acc value="0.0665346052" flag="0"/>
      <vel value="0.0274297514" flag="0"/>
      <psa03 value="0.1339261595" flag="0"/>
      <psa10 value="0.0242686853" flag="0"/>
      <psa30 value="0.0010945539" flag="0"/>
    </comp>
  </station>
  <station code="PRDM" name="PRDM" netid="HA" insttype="25" commtype="DIG" lat="38.2804" lon="22.847">
    <comp name="--.HHN">
      <acc value="0.0486066885" flag="0"/>
      <vel value="0.0087283282" flag="0"/>
      <psa03 value="0.0449452329" flag="0"/>
      <psa10 value="0.0082328626" flag="0"/>
      <psa30 value="0.0004459444" flag="0"/>
    </comp>
    <comp name="--.HHZ">
      <acc value="0.0185359157" flag="0"/>
      <vel value="0.0051694468" flag="0"/>
      <psa03 value="0.0269094182" flag="0"/>
      <psa10 value="0.0028384849" flag="0"/>
      <psa30 value="0.0003156139" flag="0"/>
    </comp>
    <comp name="--.HHE">
      <acc value="0.0602304318" flag="0"/>
      <vel value="0.0177282445" flag="0"/>
      <psa03 value="0.0615215435" flag="0"/>
      <psa10 value="0.0125942742" flag="0"/>
      <psa30 value="0.0006733627" flag="0"/>
    </comp>
  </station>
  <station code="PSAH" name="PSAH" netid="HA" insttype="25" commtype="DIG" lat="38.5694" lon="23.6473">
    <comp name="--.HHZ">
      <acc value="0.1033308773" flag="0"/>
      <vel value="0.0318773212" flag="0"/>
      <psa03 value="0.1355891723" flag="0"/>
      <psa10 value="0.0275398899" flag="0"/>
      <psa30 value="0.0019952462" flag="0"/>
    </comp>
    <comp name="--.HHE">
      <acc value="0.2389608199" flag="0"/>
      <vel value="0.0837866781" flag="0"/>
      <psa03 value="0.3045468329" flag="0"/>
      <psa10 value="0.0711636922" flag="0"/>
      <psa30 value="0.0054674787" flag="0"/>
    </comp>
    <comp name="--.HHN">
      <acc value="0.1285884757" flag="0"/>
      <vel value="0.0321176424" flag="0"/>
      <psa03 value="0.1569646012" flag="0"/>
      <psa10 value="0.0321531151" flag="0"/>
      <psa30 value="0.0023440496" flag="0"/>
    </comp>
  </station>
  <station code="THAL" name="THAL" netid="HA" insttype="30" commtype="DIG" lat="38.0357" lon="22.6634">
    <comp name="--.HHZ">
      <acc value="0.0623552143" flag="0"/>
      <vel value="0.0235890366" flag="0"/>
      <psa03 value="0.1320893009" flag="0"/>
      <psa10 value="0.0204382517" flag="0"/>
      <psa30 value="0.0009708568" flag="0"/>
    </comp>
    <comp name="--.HHN">
      <acc value="0.1332309888" flag="0"/>
      <vel value="0.0457162561" flag="0"/>
      <psa03 value="0.2520755619" flag="0"/>
      <psa10 value="0.0356568006" flag="0"/>
      <psa30 value="0.0023573932" flag="0"/>
    </comp>
    <comp name="--.HHE">
      <acc value="0.1028028202" flag="0"/>
      <vel value="0.0519939121" flag="0"/>
      <psa03 value="0.2536159164" flag="0"/>
      <psa10 value="0.0537042529" flag="0"/>
      <psa30 value="0.0035880693" flag="0"/>
    </comp>
  </station>
  <station code="THIV" name="THIV" netid="HA" insttype="25" commtype="DIG" lat="38.299" lon="23.332">
    <comp name="--.HHE">
      <acc value="0.1213691348" flag="0"/>
      <vel value="0.0457112478" flag="0"/>
      <psa03 value="0.1605996877" flag="0"/>
      <psa10 value="0.0507072608" flag="0"/>
      <psa30 value="0.0026648717" flag="0"/>
    </comp>
    <comp name="--.HHN">
      <acc value="0.1080729234" flag="0"/>
      <vel value="0.0320503587" flag="0"/>
      <psa03 value="0.1443859476" flag="0"/>
      <psa10 value="0.0255383021" flag="0"/>
      <psa30 value="0.0011628030" flag="0"/>
    </comp>
    <comp name="--.HHZ">
      <acc value="0.0928159427" flag="0"/>
      <vel value="0.0236489408" flag="0"/>
      <psa03 value="0.0835160550" flag="0"/>
      <psa10 value="0.0105131985" flag="0"/>
      <psa30 value="0.0013582152" flag="0"/>
    </comp>
  </station>
  <station code="VILL" name="VILL" netid="HA" insttype="Horizon,120s,1200" commtype="DIG" lat="38.1642" lon="23.3122">
    <comp name="--.HHE">
      <acc value="0.0705650800" flag="0"/>
      <vel value="0.0368613300" flag="0"/>
      <psa03 value="0.1339161426" flag="0"/>
      <psa10 value="0.0391978327" flag="0"/>
      <psa30 value="0.0025821585" flag="0"/>
    </comp>
    <comp name="--.HHN">
      <acc value="0.1247859518" flag="0"/>
      <vel value="0.0319008499" flag="0"/>
      <psa03 value="0.1506937544" flag="0"/>
      <psa10 value="0.0178755935" flag="0"/>
      <psa30 value="0.0013919479" flag="0"/>
    </comp>
    <comp name="--.HHZ">
      <acc value="0.0417164100" flag="0"/>
      <vel value="0.0177749030" flag="0"/>
      <psa03 value="0.1347948099" flag="0"/>
      <psa10 value="0.0114317881" flag="0"/>
      <psa30 value="0.0009969666" flag="0"/>
    </comp>
  </station>
  <station code="ATH5" name="ATH5" netid="HI" insttype="CMG-5TD,ACCELEROMETER,GURALP" commtype="DIG" lat="37.9754" lon="23.7371">
    <comp name="--.HNE">
      <acc value="0.0454656503" flag="0"/>
      <vel value="0.0179444400" flag="0"/>
      <psa03 value="0.0834153885" flag="0"/>
      <psa10 value="0.0227945023" flag="0"/>
      <psa30 value="0.0012407813" flag="0"/>
    </comp>
    <comp name="--.HNZ">
      <acc value="0.0354808161" flag="0"/>
      <vel value="0.0168812993" flag="0"/>
      <psa03 value="0.0743921926" flag="0"/>
      <psa10 value="0.0074288015" flag="0"/>
      <psa30 value="0.0009184555" flag="0"/>
    </comp>
    <comp name="--.HNN">
      <acc value="0.0424934000" flag="0"/>
      <vel value="0.0148605769" flag="0"/>
      <psa03 value="0.0983928038" flag="0"/>
      <psa10 value="0.0198007182" flag="0"/>
      <psa30 value="0.0008871655" flag="0"/>
    </comp>
  </station>
  <station code="FRS1" name="FRS1" netid="HI" insttype="unknown" commtype="DIG" lat="39.2934" lon="22.3844">
    <comp name="--.HNE">
      <acc value="0.0070337757" flag="0"/>
      <vel value="0.0044637938" flag="0"/>
      <psa03 value="0.0204290892" flag="0"/>
      <psa10 value="0.0082507320" flag="0"/>
      <psa30 value="0.0006129555" flag="0"/>
    </comp>
    <comp name="--.HNN">
      <acc value="0.0102379599" flag="0"/>
      <vel value="0.0091323871" flag="0"/>
      <psa03 value="0.0192762816" flag="0"/>
      <psa10 value="0.0125062133" flag="0"/>
      <psa30 value="0.0007607468" flag="0"/>
    </comp>
    <comp name="--.HNZ">
      <acc value="0.0061002035" flag="0"/>
      <vel value="0.0039893692" flag="0"/>
      <psa03 value="0.0159565170" flag="0"/>
      <psa10 value="0.0064520362" flag="0"/>
      <psa30 value="0.0004693580" flag="0"/>
    </comp>
  </station>
  <station code="KIF1" name="KIF1" netid="HI" insttype="unknown" commtype="DIG" lat="38.0773" lon="23.8146">
    <comp name="--.HNE">
      <acc value="0.0812723006" flag="0"/>
      <vel value="0.0250590024" flag="0"/>
      <psa03 value="0.1696677933" flag="0"/>
      <psa10 value="0.0204627642" flag="0"/>
      <psa30 value="0.0014288053" flag="0"/>
    </comp>
    <comp name="--.HNN">
      <acc value="0.0642272687" flag="0"/>
      <vel value="0.0274584183" flag="0"/>
      <psa03 value="0.1264043908" flag="0"/>
      <psa10 value="0.0192871430" flag="0"/>
      <psa30 value="0.0018106124" flag="0"/>
    </comp>
    <comp name="--.HNZ">
      <acc value="0.0734144049" flag="0"/>
      <vel value="0.0212902657" flag="0"/>
      <psa03 value="0.0685721649" flag="0"/>
      <psa10 value="0.0150606797" flag="0"/>
      <psa30 value="0.0008906052" flag="0"/>
    </comp>
  </station>
