<stationlist xmlns:esm="https://esm-db.eu/esmws/shakemap/1/" created="1779933267">
	<station code="MALA" name="MALA" netid="CL" source="Corinth Riff Laboratory (CRLNET)" insttype="" lat="38.39341" lon="21.87263" esm:processing="automatic (Paolucci et al 2011)" esm:quality="best">
		<comp name="01.HNE" depth="0.0">
			<acc value="0.00772967411901631" flag="0"/>
			<vel value="0.0066072370758964" flag="0"/>
			<psa03 value="0.0173330596884634" flag="0"/>
			<psa10 value="0.0156230118228638" flag="0"/>
			<psa30 value="0.00165498744729717" flag="0"/>
		</comp>
		<comp name="01.HNN" depth="0.0">
			<acc value="0.0072216633145971" flag="0"/>
			<vel value="0.00859848569551913" flag="0"/>
			<psa03 value="0.0179655117415866" flag="0"/>
			<psa10 value="0.0128322681997851" flag="0"/>
			<psa30 value="0.00116458975252082" flag="0"/>
		</comp>
		<comp name="01.HNZ" depth="0.0">
			<acc value="0.00497133413335385" flag="0"/>
			<vel value="0.00477660381691737" flag="0"/>
			<psa03 value="0.00773838893236775" flag="0"/>
			<psa10 value="0.00654137270882111" flag="0"/>
			<psa30 value="0.000635245258962133" flag="0"/>
		</comp>
	</station>
	<station code="ATHU" name="ATHU" netid="HA" source="Hellenic Seismological Network, University of Athens, Seismological Laboratory (HA)" insttype="" lat="37.9665" lon="23.7845" esm:processing="automatic (Paolucci et al 2011)" esm:quality="best">
		<comp name="--.HNE" depth="0.0">
			<acc value="0.00137693041312148" flag="0"/>
			<vel value="0.000613839335655851" flag="0"/>
			<psa03 value="0.00232109012150779" flag="0"/>
			<psa10 value="0.000450800488320175" flag="0"/>
			<psa30 value="5.30582674539177e-05" flag="0"/>
		</comp>
		<comp name="--.HNN" depth="0.0">
			<acc value="0.00111265273770753" flag="0"/>
			<vel value="0.00043953194900581" flag="0"/>
			<psa03 value="0.00159999043161875" flag="0"/>
			<psa10 value="0.000585976845434315" flag="0"/>
			<psa30 value="4.1342602025722e-05" flag="0"/>
		</comp>
		<comp name="--.HNZ" depth="0.0">
			<acc value="0.00183305132857525" flag="0"/>
			<vel value="0.000710482568213462" flag="0"/>
			<psa03 value="0.00329108943779554" flag="0"/>
			<psa10 value="0.000771372486360392" flag="0"/>
			<psa30 value="4.52472845200787e-05" flag="0"/>
		</comp>
	</station>
	<station code="AKR1" name="AKR1" netid="HI" source="ITSAK Strong Motion Network" insttype="" lat="38.153583" lon="22.31326" esm:processing="automatic (Paolucci et al 2011)" esm:quality="best">
		<comp name="--.HNE" depth="0.0">
			<acc value="0.0174529866548542" flag="0"/>
			<vel value="0.00862796031642979" flag="0"/>
			<psa03 value="0.0318944982706426" flag="0"/>
			<psa10 value="0.00945619892678282" flag="0"/>
			<psa30 value="0.000959580859188596" flag="0"/>
		</comp>
		<comp name="--.HNN" depth="0.0">
			<acc value="0.015406485890886" flag="0"/>
			<vel value="0.0083820496966105" flag="0"/>
			<psa03 value="0.0409679613222222" flag="0"/>
			<psa10 value="0.00824538996660308" flag="0"/>
			<psa30 value="0.000938526756127085" flag="0"/>
		</comp>
		<comp name="--.HNZ" depth="0.0">
			<acc value="0.00747566583712943" flag="0"/>
			<vel value="0.00596075848231642" flag="0"/>
			<psa03 value="0.0143418289820241" flag="0"/>
			<psa10 value="0.00747686983720003" flag="0"/>
			<psa30 value="0.000897519039564013" flag="0"/>
		</comp>
	</station>
	<station code="ARS1" name="ARS1" netid="HI" source="ITSAK Strong Motion Network" insttype="" lat="37.6349" lon="22.7293" esm:processing="automatic (Paolucci et al 2011)" esm:quality="best">
		<comp name="--.HNE" depth="0.0">
			<acc value="0.0296392169795524" flag="0"/>
			<vel value="0.0315648375305949" flag="0"/>
			<psa03 value="0.0650739983331934" flag="0"/>
			<psa10 value="0.0689387618546975" flag="0"/>
			<psa30 value="0.00239597893017954" flag="0"/>
		</comp>
		<comp name="--.HNN" depth="0.0">
			<acc value="0.0270186875295646" flag="0"/>
			<vel value="0.0216756129675558" flag="0"/>
			<psa03 value="0.09693709869032" flag="0"/>
			<psa10 value="0.0395651922498017" flag="0"/>
			<psa30 value="0.00180048823184294" flag="0"/>
		</comp>
		<comp name="--.HNZ" depth="0.0">
			<acc value="0.0154914782515376" flag="0"/>
			<vel value="0.00846902493436394" flag="0"/>
			<psa03 value="0.0329253399963574" flag="0"/>
			<psa10 value="0.00741680632703612" flag="0"/>
			<psa30 value="0.00133601881719138" flag="0"/>
		</comp>
	</station>
	<station code="ATH5" name="ATH5" netid="HI" source="ITSAK Strong Motion Network" insttype="" lat="37.975421" lon="23.737098" esm:processing="automatic (Paolucci et al 2011)" esm:quality="best">
		<comp name="--.HNE" depth="0.0">
			<acc value="0.0454486499778769" flag="0"/>
			<vel value="0.0180809006272751" flag="0"/>
			<psa03 value="0.0832449156087" flag="0"/>
			<psa10 value="0.0227966257895839" flag="0"/>
			<psa30 value="0.00125717276069089" flag="0"/>
		</comp>
		<comp name="--.HNN" depth="0.0">
			<acc value="0.0427098271862768" flag="0"/>
			<vel value="0.0150171070061178" flag="0"/>
			<psa03 value="0.0992487101567116" flag="0"/>
			<psa10 value="0.0198431757630084" flag="0"/>
			<psa30 value="0.000918643251439606" flag="0"/>
		</comp>
		<comp name="--.HNZ" depth="0.0">
			<acc value="0.0351247603389379" flag="0"/>
			<vel value="0.0169672554697647" flag="0"/>
			<psa03 value="0.0748556723626625" flag="0"/>
			<psa10 value="0.00743231688577128" flag="0"/>
			<psa30 value="0.00103709484827519" flag="0"/>
		</comp>
	</station>
	<station code="FRS1" name="FRS1" netid="HI" source="ITSAK Strong Motion Network" insttype="" lat="39.2934" lon="22.3844" esm:processing="automatic (Paolucci et al 2011)" esm:quality="best">
		<comp name="--.HNE" depth="0.0">
			<acc value="0.0070292224405931" flag="0"/>
			<vel value="0.00462623781639591" flag="0"/>
			<psa03 value="0.0204361402523198" flag="0"/>
			<psa10 value="0.0082759385528285" flag="0"/>
			<psa30 value="0.000697201811199022" flag="0"/>
		</comp>
		<comp name="--.HNN" depth="0.0">
			<acc value="0.0101865961502957" flag="0"/>
			<vel value="0.00907665763286707" flag="0"/>
			<psa03 value="0.0193570401214217" flag="0"/>
			<psa10 value="0.0125491019414059" flag="0"/>
			<psa30 value="0.000860228808852102" flag="0"/>
		</comp>
		<comp name="--.HNZ" depth="0.0">
			<acc value="0.00599812650471108" flag="0"/>
			<vel value="0.00393367861851375" flag="0"/>
			<psa03 value="0.0158069820307978" flag="0"/>
			<psa10 value="0.00646165086514236" flag="0"/>
			<psa30 value="0.000495080348725806" flag="0"/>
		</comp>
	</station>
	<station code="KIF1" name="KIF1" netid="HI" source="ITSAK Strong Motion Network" insttype="" lat="38.077273" lon="23.814551" esm:processing="automatic (Paolucci et al 2011)" esm:quality="best">
		<comp name="--.HNE" depth="0.0">
			<acc value="0.0804400038189037" flag="0"/>
			<vel value="0.0256570294430388" flag="0"/>
			<psa03 value="0.171199382785521" flag="0"/>
			<psa10 value="0.0205028275866911" flag="0"/>
			<psa30 value="0.00145066484942847" flag="0"/>
		</comp>
		<comp name="--.HNN" depth="0.0">
			<acc value="0.0636283674726399" flag="0"/>
			<vel value="0.0275921806637865" flag="0"/>
			<psa03 value="0.126422104010527" flag="0"/>
			<psa10 value="0.0193545521440886" flag="0"/>
			<psa30 value="0.00180373219673818" flag="0"/>
		</comp>
		<comp name="--.HNZ" depth="0.0">
			<acc value="0.0728370409316071" flag="0"/>
			<vel value="0.0215648585853393" flag="0"/>
			<psa03 value="0.0691319911134139" flag="0"/>
			<psa10 value="0.0150956265736786" flag="0"/>
			<psa30 value="0.000950818716238899" flag="0"/>
		</comp>
	</station>
	<station code="KMV1" name="KMV1" netid="HI" source="ITSAK Strong Motion Network" insttype="" lat="38.7794" lon="22.7846" esm:processing="automatic (Paolucci et al 2011)" esm:quality="best">
		<comp name="--.HNE" depth="0.0">
			<acc value="0.0699770556097231" flag="0"/>
			<vel value="0.0352817897350468" flag="0"/>
			<psa03 value="0.142112622597268" flag="0"/>
			<psa10 value="0.0404907085608593" flag="0"/>
			<psa30 value="0.0020507681449938" flag="0"/>
		</comp>
		<comp name="--.HNN" depth="0.0">
			<acc value="0.102745356488857" flag="0"/>
			<vel value="0.0460219148390937" flag="0"/>
			<psa03 value="0.2321024798168" flag="0"/>
			<psa10 value="0.0447096592953647" flag="0"/>
			<psa30 value="0.00254511839326893" flag="0"/>
		</comp>
		<comp name="--.HNZ" depth="0.0">
			<acc value="0.0720846496695318" flag="0"/>
			<vel value="0.0197458928120846" flag="0"/>
			<psa03 value="0.0841620232375779" flag="0"/>
			<psa10 value="0.0164143311188616" flag="0"/>
			<psa30 value="0.00131446426430733" flag="0"/>
		</comp>
	</station>
	<station code="KOR2" name="KOR2" netid="HI" source="ITSAK Strong Motion Network" insttype="" lat="37.9401" lon="22.9495" esm:processing="automatic (Paolucci et al 2011)" esm:quality="best">
		<comp name="--.HNE" depth="0.0">
			<acc value="0.132191754246234" flag="0"/>
			<vel value="0.067062178129741" flag="0"/>
			<psa03 value="0.167758717358201" flag="0"/>
			<psa10 value="0.0677414875411145" flag="0"/>
			<psa30 value="0.00461840469663246" flag="0"/>
		</comp>
		<comp name="--.HNN" depth="0.0">
			<acc value="0.11291747113101" flag="0"/>
			<vel value="0.0657953082985797" flag="0"/>
			<psa03 value="0.200246682026712" flag="0"/>
			<psa10 value="0.0877097303391565" flag="0"/>
			<psa30 value="0.00462339502723814" flag="0"/>
		</comp>
		<comp name="--.HNZ" depth="0.0">
			<acc value="0.0815562203271692" flag="0"/>
			<vel value="0.0378791417779101" flag="0"/>
			<psa03 value="0.14118367564227" flag="0"/>
			<psa10 value="0.0790041436366318" flag="0"/>
			<psa30 value="0.003041119792595" flag="0"/>
		</comp>
	</station>
	<station code="LAM2" name="LAM2" netid="HI" source="ITSAK Strong Motion Network" insttype="" lat="38.90203" lon="22.431301" esm:processing="automatic (Paolucci et al 2011)" esm:quality="best">
		<comp name="--.HNE" depth="0.0">
			<acc value="0.0148307828841248" flag="0"/>
			<vel value="0.00885901502346569" flag="0"/>
			<psa03 value="0.0463025933613056" flag="0"/>
			<psa10 value="0.010146608413027" flag="0"/>
			<psa30 value="0.00059705199968103" flag="0"/>
		</comp>
		<comp name="--.HNN" depth="0.0">
			<acc value="0.0204911949416161" flag="0"/>
			<vel value="0.00925103243714048" flag="0"/>
			<psa03 value="0.0476820441182968" flag="0"/>
			<psa10 value="0.0113005832956783" flag="0"/>
			<psa30 value="0.00163354988132833" flag="0"/>
		</comp>
		<comp name="--.HNZ" depth="0.0">
			<acc value="0.0126714802089388" flag="0"/>
			<vel value="0.00379136018887036" flag="0"/>
			<psa03 value="0.0233280141164696" flag="0"/>
			<psa10 value="0.00482872003524881" flag="0"/>
			<psa30 value="0.000413903278435701" flag="0"/>
		</comp>
	</station>
	<station code="LEO1" name="LEO1" netid="HI" source="ITSAK Strong Motion Network" insttype="" lat="37.1689" lon="22.8637" esm:processing="automatic (Paolucci et al 2011)" esm:quality="best">
		<comp name="--.HNE" depth="0.0">
			<acc value="0.00668648349523579" flag="0"/>
			<vel value="0.00343338688990872" flag="0"/>
			<psa03 value="0.0186032948769946" flag="0"/>
			<psa10 value="0.00483295172182674" flag="0"/>
			<psa30 value="0.000921542089306294" flag="0"/>
		</comp>
		<comp name="--.HNN" depth="0.0">
			<acc value="0.0049231257136005" flag="0"/>
			<vel value="0.00321909360775377" flag="0"/>
			<psa03 value="0.0203005987212936" flag="0"/>
			<psa10 value="0.00732741774919903" flag="0"/>
			<psa30 value="0.000783615191909353" flag="0"/>
		</comp>
		<comp name="--.HNZ" depth="0.0">
			<acc value="0.00379106229965877" flag="0"/>
			<vel value="0.0019542884043758" flag="0"/>
			<psa03 value="0.00860797974162721" flag="0"/>
			<psa10 value="0.00350188870169055" flag="0"/>
			<psa30 value="0.000804114206117725" flag="0"/>
		</comp>
	</station>
	<station code="NMA1" name="NMA1" netid="HI" source="ITSAK Strong Motion Network" insttype="" lat="37.81873" lon="22.662702" esm:processing="automatic (Paolucci et al 2011)" esm:quality="best">
		<comp name="--.HNE" depth="0.0">
			<acc value="0.037077109699851" flag="0"/>
			<vel value="0.0176530270138918" flag="0"/>
			<psa03 value="0.0576297656057262" flag="0"/>
			<psa10 value="0.0269243367301738" flag="0"/>
			<psa30 value="0.00274266127118096" flag="0"/>
		</comp>
		<comp name="--.HNN" depth="0.0">
			<acc value="0.027878171371413" flag="0"/>
			<vel value="0.0175297923194574" flag="0"/>
			<psa03 value="0.0638334109418895" flag="0"/>
			<psa10 value="0.023141121735738" flag="0"/>
			<psa30 value="0.00187126396205451" flag="0"/>
		</comp>
		<comp name="--.HNZ" depth="0.0">
			<acc value="0.0219587210623592" flag="0"/>
			<vel value="0.0136447631285998" flag="0"/>
			<psa03 value="0.0316718871695785" flag="0"/>
			<psa10 value="0.0202146622471552" flag="0"/>
			<psa30 value="0.00119365344868366" flag="0"/>
		</comp>
	</station>
	<station code="PER1" name="PER1" netid="HI" source="ITSAK Strong Motion Network" insttype="" lat="38.0119" lon="23.7027" esm:processing="automatic (Paolucci et al 2011)" esm:quality="best">
		<comp name="--.HNE" depth="0.0">
			<acc value="0.0604896381080412" flag="0"/>
			<vel value="0.0200433509748406" flag="0"/>
			<psa03 value="0.0891828870950556" flag="0"/>
			<psa10 value="0.0135174657782582" flag="0"/>
			<psa30 value="0.00140112354672664" flag="0"/>
		</comp>
		<comp name="--.HNN" depth="0.0">
			<acc value="0.0536618517415053" flag="0"/>
			<vel value="0.0186734366264697" flag="0"/>
			<psa03 value="0.0798902194182319" flag="0"/>
			<psa10 value="0.0163871849455865" flag="0"/>
			<psa30 value="0.00084536959533553" flag="0"/>
		</comp>
		<comp name="--.HNZ" depth="0.0">
			<acc value="0.0372846840250822" flag="0"/>
			<vel value="0.0121680091054584" flag="0"/>
			<psa03 value="0.0383908869578314" flag="0"/>
			<psa10 value="0.00720507573841166" flag="0"/>
			<psa30 value="0.00106244590266003" flag="0"/>
		</comp>
	</station>
	<station code="PIR1" name="PIR1" netid="HI" source="ITSAK Strong Motion Network" insttype="" lat="37.93723" lon="23.642595" esm:processing="automatic (Paolucci et al 2011)" esm:quality="best">
		<comp name="--.HNE" depth="0.0">
			<acc value="0.141578881460352" flag="0"/>
			<vel value="0.0413719466234084" flag="0"/>
			<psa03 value="0.146482922524574" flag="0"/>
			<psa10 value="0.0284597296924387" flag="0"/>
			<psa30 value="0.00176391414232196" flag="0"/>
		</comp>
		<comp name="--.HNN" depth="0.0">
			<acc value="0.186492773402151" flag="0"/>
			<vel value="0.054124126339682" flag="0"/>
			<psa03 value="0.147269880906993" flag="0"/>
			<psa10 value="0.0233828571245378" flag="0"/>
			<psa30 value="0.00206746175086136" flag="0"/>
		</comp>
		<comp name="--.HNZ" depth="0.0">
			<acc value="0.0852353965047739" flag="0"/>
			<vel value="0.026532925295882" flag="0"/>
			<psa03 value="0.121577533081476" flag="0"/>
			<psa10 value="0.0191313204810973" flag="0"/>
			<psa30 value="0.00153948604589384" flag="0"/>
		</comp>
	</station>
	<station code="PIR2" name="PIR2" netid="HI" source="ITSAK Strong Motion Network" insttype="" lat="37.9458" lon="23.6709" esm:processing="automatic (Paolucci et al 2011)" esm:quality="best">
		<comp name="--.HNE" depth="0.0">
			<acc value="0.171200870625277" flag="0"/>
			<vel value="0.060555670864219" flag="0"/>
			<psa03 value="0.219350426722399" flag="0"/>
			<psa10 value="0.0445489836513388" flag="0"/>
			<psa30 value="0.002551673619186" flag="0"/>
		</comp>
		<comp name="--.HNN" depth="0.0">
			<acc value="0.234620480423007" flag="0"/>
			<vel value="0.0811144544928148" flag="0"/>
			<psa03 value="0.334720319411922" flag="0"/>
			<psa10 value="0.0515681586375775" flag="0"/>
			<psa30 value="0.00236261713679177" flag="0"/>
		</comp>
		<comp name="--.HNZ" depth="0.0">
			<acc value="0.157047463227808" flag="0"/>
			<vel value="0.0496953616450078" flag="0"/>
			<psa03 value="0.181265591289207" flag="0"/>
			<psa10 value="0.0213493674158188" flag="0"/>
			<psa30 value="0.00207866020103639" flag="0"/>
		</comp>
	</station>
	<station code="PIR3" name="PIR3" netid="HI" source="ITSAK Strong Motion Network" insttype="" lat="37.9573" lon="23.6519" esm:processing="automatic (Paolucci et al 2011)" esm:quality="best">
		<comp name="--.HNE" depth="0.0">
			<acc value="0.0897723040068519" flag="0"/>
			<vel value="0.022493114158188" flag="0"/>
			<psa03 value="0.0863316825918153" flag="0"/>
			<psa10 value="0.0152094400507424" flag="0"/>
			<psa30 value="0.000831456746597769" flag="0"/>
		</comp>
		<comp name="--.HNN" depth="0.0">
			<acc value="0.0885096313748469" flag="0"/>
			<vel value="0.0275313893200332" flag="0"/>
			<psa03 value="0.0820965530769179" flag="0"/>
			<psa10 value="0.0109186917472603" flag="0"/>
			<psa30 value="0.00126004326334945" flag="0"/>
		</comp>
		<comp name="--.HNZ" depth="0.0">
			<acc value="0.0434051188610732" flag="0"/>
			<vel value="0.0162936259424187" flag="0"/>
			<psa03 value="0.0998867524237681" flag="0"/>
			<psa10 value="0.00831740317463109" flag="0"/>
			<psa30 value="0.0011876453423437" flag="0"/>
		</comp>
	</station>
	<station code="SKY1" name="SKY1" netid="HI" source="ITSAK Strong Motion Network" insttype="" lat="38.904483" lon="24.564572" esm:processing="automatic (Paolucci et al 2011)" esm:quality="best">
		<comp name="--.HNE" depth="0.0">
			<acc value="0.0537357403426717" flag="0"/>
			<vel value="0.0191375763833604" flag="0"/>
			<psa03 value="0.120925927415824" flag="0"/>
			<psa10 value="0.0250945192637623" flag="0"/>
			<psa30 value="0.00106759311863652" flag="0"/>
		</comp>
		<comp name="--.HNN" depth="0.0">
			<acc value="0.049347048106975" flag="0"/>
			<vel value="0.0276858588984068" flag="0"/>
			<psa03 value="0.124106523531442" flag="0"/>
			<psa10 value="0.0203632452150678" flag="0"/>
			<psa30 value="0.00169643300536273" flag="0"/>
		</comp>
		<comp name="--.HNZ" depth="0.0">
			<acc value="0.037811777242564" flag="0"/>
			<vel value="0.0146699437133654" flag="0"/>
			<psa03 value="0.0657242549510714" flag="0"/>
			<psa10 value="0.0185476561911882" flag="0"/>
			<psa30 value="0.000924215912266979" flag="0"/>
		</comp>
	</station>
	<station code="THV2" name="THV2" netid="HI" source="ITSAK Strong Motion Network" insttype="" lat="38.316117" lon="23.319807" esm:processing="automatic (Paolucci et al 2011)" esm:quality="best">
		<comp name="--.HNE" depth="0.0">
			<acc value="0.170715948674417" flag="0"/>
			<vel value="0.0474604381352269" flag="0"/>
			<psa03 value="0.228732048208814" flag="0"/>
			<psa10 value="0.0419421634624989" flag="0"/>
			<psa30 value="0.00394435462747086" flag="0"/>
		</comp>
		<comp name="--.HNN" depth="0.0">
			<acc value="0.152199096473863" flag="0"/>
			<vel value="0.0501199055850408" flag="0"/>
			<psa03 value="0.290306939743274" flag="0"/>
			<psa10 value="0.0468393091245188" flag="0"/>
			<psa30 value="0.00360414917386096" flag="0"/>
		</comp>
		<comp name="--.HNZ" depth="0.0">
			<acc value="0.130068670149917" flag="0"/>
			<vel value="0.0440496982786565" flag="0"/>
			<psa03 value="0.249100626693985" flag="0"/>
			<psa10 value="0.0448157500733045" flag="0"/>
			<psa30 value="0.00207427803573763" flag="0"/>
		</comp>
	</station>
	<station code="TRP1" name="TRP1" netid="HI" source="ITSAK Strong Motion Network" insttype="" lat="37.511219" lon="22.363399" esm:processing="automatic (Paolucci et al 2011)" esm:quality="best">
		<comp name="--.HNE" depth="0.0">
			<acc value="0.00592256062764617" flag="0"/>
			<vel value="0.00416413912610054" flag="0"/>
			<psa03 value="0.0117342421797239" flag="0"/>
			<psa10 value="0.00563156759496019" flag="0"/>
			<psa30 value="0.000360295065696744" flag="0"/>
		</comp>
		<comp name="--.HNN" depth="0.0">
			<acc value="0.00810596401361352" flag="0"/>
			<vel value="0.00496978895502555" flag="0"/>
			<psa03 value="0.0203112530729346" flag="0"/>
			<psa10 value="0.00674084232897619" flag="0"/>
			<psa30 value="0.000567927830766035" flag="0"/>
		</comp>
		<comp name="--.HNZ" depth="0.0">
			<acc value="0.00339628308276566" flag="0"/>
			<vel value="0.00322342786014953" flag="0"/>
