<?xml version="1.0" encoding="UTF-8" standalone="yes"?>
<!DOCTYPE earthquake SYSTEM "stationlist.dtd">
<stationlist created="" xmlns="ch.ethz.sed.shakemap.usgs.xml">
  <station code="PHP" name="PHP" netid="AC" insttype="" lat="41.6847" lon="20.4408">
    <comp name="--.HHE">
      <acc value="0.0919105910" flag="0"/>
      <vel value="0.0084823309" flag="0"/>
      <psa03 value="0.0234792181" flag="0"/>
      <psa10 value="0.0080797541" flag="0"/>
      <psa30 value="0.0012036904" flag="0"/>
    </comp>
    <comp name="--.HHN">
      <acc value="0.0048638503" flag="0"/>
      <vel value="0.0035061643" flag="0"/>
      <psa03 value="0.0079261253" flag="0"/>
      <psa10 value="0.0043684122" flag="0"/>
      <psa30 value="0.0007084110" flag="0"/>
    </comp>
    <comp name="--.HHZ">
      <acc value="0.0022598821" flag="0"/>
      <vel value="0.0017836627" flag="0"/>
      <psa03 value="0.0044420471" flag="0"/>
      <psa10 value="0.0030103594" flag="0"/>
      <psa30 value="0.0004379667" flag="0"/>
    </comp>
  </station>
  <station code="LMS2" name="LMS2" netid="HI" insttype="CMG-5TD,ACCELEROMETER,GURALP" lat="40.835" lon="21.1418">
    <comp name="--.HNZ">
      <acc value="0.2445230572" flag="0"/>
      <vel value="0.0656261895" flag="0"/>
      <psa03 value="0.2513082051" flag="0"/>
      <psa10 value="0.0408891036" flag="0"/>
      <psa30 value="0.0043309960" flag="0"/>
    </comp>
    <comp name="--.HNE">
      <acc value="0.6451000297" flag="0"/>
      <vel value="0.1626066093" flag="0"/>
      <psa03 value="0.5199401316" flag="0"/>
      <psa10 value="0.0562337832" flag="0"/>
      <psa30 value="0.0043524909" flag="0"/>
    </comp>
    <comp name="--.HNN">
      <acc value="0.5734804939" flag="0"/>
      <vel value="0.1173925636" flag="0"/>
      <psa03 value="0.6383632286" flag="0"/>
      <psa10 value="0.0301889640" flag="0"/>
      <psa30 value="0.0023900658" flag="0"/>
    </comp>
  </station>
  <station code="LIT" name="LIT" netid="HT" insttype="100" lat="40.1033" lon="22.4892">
    <comp name="--.HHN">
      <acc value="0.0053232515" flag="0"/>
      <vel value="0.0050850886" flag="0"/>
      <psa03 value="0.0133882456" flag="0"/>
      <psa10 value="0.0046158955" flag="0"/>
      <psa30 value="0.0007879305" flag="0"/>
    </comp>
    <comp name="--.HHZ">
      <acc value="0.0031445454" flag="0"/>
      <vel value="0.0034104372" flag="0"/>
      <psa03 value="0.0062892738" flag="0"/>
      <psa10 value="0.0056903105" flag="0"/>
      <psa30 value="0.0008155640" flag="0"/>
    </comp>
    <comp name="--.HHE">
      <acc value="0.0055021264" flag="0"/>
      <vel value="0.0042117215" flag="0"/>
      <psa03 value="0.0122555204" flag="0"/>
      <psa10 value="0.0064047034" flag="0"/>
      <psa30 value="0.0004441042" flag="0"/>
    </comp>
  </station>
</stationlist>
