<stationlist created="1775820675">
	<station code="MMAA" name="MMAA" netid="EG" source="EUROSEISTEST Strong Motion Network" insttype="" lat="40.630855" lon="22.943725">
		<comp name="--.EN1" depth="0.0">
			<acc value="0.0122633439600582" flag="0"/>
			<vel value="0.013493059233291" flag="0"/>
			<psa03 value="0.0256799147100025" flag="0"/>
			<psa10 value="0.0286291059127824" flag="0"/>
			<psa30 value="0.0013107498515791" flag="0"/>
		</comp>
		<comp name="--.EN2" depth="0.0">
			<acc value="0.0116503852686778" flag="0"/>
			<vel value="0.00808353508586455" flag="0"/>
			<psa03 value="0.0273546298183223" flag="0"/>
			<psa10 value="0.0133088703973566" flag="0"/>
			<psa30 value="0.000810181014264083" flag="0"/>
		</comp>
		<comp name="--.EN3" depth="0.0">
			<acc value="0.00824636059778179" flag="0"/>
			<vel value="0.00386686802617959" flag="0"/>
			<psa03 value="0.00914519241263726" flag="0"/>
			<psa10 value="0.00761923114292299" flag="0"/>
			<psa30 value="0.000458339737758665" flag="0"/>
		</comp>
	</station>
	<station code="KRK1" name="KRK1" netid="HI" source="ITSAK Strong Motion Network" insttype="" lat="39.618861" lon="19.9202">
		<comp name="--.HNE" depth="0.0">
			<acc value="0.00374782086544354" flag="0"/>
			<vel value="0.00242085364360096" flag="0"/>
			<psa03 value="0.00875045076816683" flag="0"/>
			<psa10 value="0.00286225664170708" flag="0"/>
			<psa30 value="0.000343005118239176" flag="0"/>
		</comp>
		<comp name="--.HNN" depth="0.0">
			<acc value="0.00359652038626627" flag="0"/>
			<vel value="0.00203514303431356" flag="0"/>
			<psa03 value="0.00842580881954156" flag="0"/>
			<psa10 value="0.00358413797842582" flag="0"/>
			<psa30 value="0.000280656717130286" flag="0"/>
		</comp>
		<comp name="--.HNZ" depth="0.0">
			<acc value="0.00185766423081144" flag="0"/>
			<vel value="0.00111318623131571" flag="0"/>
			<psa03 value="0.00544445148849762" flag="0"/>
			<psa10 value="0.000846569479508825" flag="0"/>
			<psa30 value="0.000146783629944977" flag="0"/>
		</comp>
	</station>
	<station code="LMS2" name="LMS2" netid="HI" source="ITSAK Strong Motion Network" insttype="" lat="40.834985" lon="21.141815">
		<comp name="--.HNE" depth="0.0">
			<acc value="0.642026261115657" flag="0"/>
			<vel value="0.164824608816071" flag="0"/>
			<psa03 value="0.524360277959877" flag="0"/>
			<psa10 value="0.0563930782648343" flag="0"/>
			<psa30 value="0.00442037699494802" flag="0"/>
		</comp>
		<comp name="--.HNN" depth="0.0">
			<acc value="0.575732634078254" flag="0"/>
			<vel value="0.119935376294067" flag="0"/>
			<psa03 value="0.640732820403342" flag="0"/>
			<psa10 value="0.0303001172340798" flag="0"/>
			<psa30 value="0.00253046304742443" flag="0"/>
		</comp>
		<comp name="--.HNZ" depth="0.0">
			<acc value="0.253267625609556" flag="0"/>
			<vel value="0.0661584310322583" flag="0"/>
			<psa03 value="0.254326452046096" flag="0"/>
			<psa10 value="0.0408476497064312" flag="0"/>
			<psa30 value="0.0042673426905089" flag="0"/>
		</comp>
	</station>
	<station code="AMYA" name="AMYA" netid="HL" source="National Observatory of Athens Seismic Network" insttype="" lat="40.6901" lon="21.67899">
		<comp name="00.HNE" depth="0.0">
			<acc value="0.0877183847967683" flag="0"/>
			<vel value="0.0650964195696096" flag="0"/>
			<psa03 value="0.0533548990834569" flag="0"/>
			<psa10 value="0.0610614175191494" flag="0"/>
			<psa30 value="0.00379639315908073" flag="0"/>
		</comp>
		<comp name="00.HNN" depth="0.0">
			<acc value="0.0885378444971496" flag="0"/>
			<vel value="0.0627534752714144" flag="0"/>
			<psa03 value="0.0544704261066604" flag="0"/>
			<psa10 value="0.034381550108978" flag="0"/>
			<psa30 value="0.0033272070778077" flag="0"/>
		</comp>
		<comp name="00.HNZ" depth="0.0">
			<acc value="0.0797985790171449" flag="0"/>
			<vel value="0.0278401646308587" flag="0"/>
			<psa03 value="0.0287129671973113" flag="0"/>
			<psa10 value="0.0263292660596507" flag="0"/>
			<psa30 value="0.000989927765353983" flag="0"/>
		</comp>
	</station>
	<station code="GINA" name="GINA" netid="HL" source="National Observatory of Athens Seismic Network" insttype="" lat="39.66886" lon="22.389">
		<comp name="00.HNE" depth="0.0">
			<acc value="0.00460324827552554" flag="0"/>
			<vel value="0.00558042490625381" flag="0"/>
			<psa03 value="0.00743866660327482" flag="0"/>
			<psa10 value="0.0102962836407568" flag="0"/>
			<psa30 value="0.000893913904910407" flag="0"/>
		</comp>
		<comp name="00.HNN" depth="0.0">
			<acc value="0.0038104083897036" flag="0"/>
			<vel value="0.00563825826509434" flag="0"/>
			<psa03 value="0.00789533813155991" flag="0"/>
			<psa10 value="0.00806170279824845" flag="0"/>
			<psa30 value="0.00135970528213641" flag="0"/>
		</comp>
		<comp name="00.HNZ" depth="0.0">
			<acc value="0.00280955756294236" flag="0"/>
			<vel value="0.00329521455127225" flag="0"/>
			<psa03 value="0.0037028520666088" flag="0"/>
			<psa10 value="0.00500819708097492" flag="0"/>
			<psa30 value="0.000671538600720365" flag="0"/>
		</comp>
	</station>
	<station code="NASA" name="NASA" netid="HL" source="National Observatory of Athens Seismic Network" insttype="" lat="40.63111" lon="22.06706">
		<comp name="00.HNE" depth="0.0">
			<acc value="0.0243505128869473" flag="0"/>
			<vel value="0.00992385781896887" flag="0"/>
			<psa03 value="0.0535609439828831" flag="0"/>
			<psa10 value="0.0132573410462733" flag="0"/>
			<psa30 value="0.00101544956021847" flag="0"/>
		</comp>
		<comp name="00.HNN" depth="0.0">
			<acc value="0.0191692173014643" flag="0"/>
			<vel value="0.0108500680150045" flag="0"/>
			<psa03 value="0.0772285639301689" flag="0"/>
			<psa10 value="0.00925828987877264" flag="0"/>
			<psa30 value="0.000773323728901569" flag="0"/>
		</comp>
		<comp name="00.HNZ" depth="0.0">
			<acc value="0.0189469934633781" flag="0"/>
			<vel value="0.00705583806806583" flag="0"/>
			<psa03 value="0.0574401384608129" flag="0"/>
			<psa10 value="0.00752233550529507" flag="0"/>
			<psa30 value="0.00061939712576791" flag="0"/>
		</comp>
	</station>
	<station code="OREA" name="OREA" netid="HL" source="National Observatory of Athens Seismic Network" insttype="" lat="40.72705" lon="22.91452">
		<comp name="00.HNE" depth="0.0">
			<acc value="0.0031569568035005" flag="0"/>
			<vel value="0.00258853656807149" flag="0"/>
			<psa03 value="0.000903569297134144" flag="0"/>
			<psa10 value="0.00024552218749156" flag="0"/>
			<psa30 value="0.000140089683899925" flag="0"/>
		</comp>
		<comp name="00.HNN" depth="0.0">
			<acc value="0.00266358056422994" flag="0"/>
			<vel value="0.00170785281846861" flag="0"/>
			<psa03 value="0.000898337993558335" flag="0"/>
			<psa10 value="0.000402341535964601" flag="0"/>
			<psa30 value="0.000121223889862925" flag="0"/>
		</comp>
		<comp name="00.HNZ" depth="0.0">
			<acc value="0.00234830585292282" flag="0"/>
			<vel value="0.00116344248191124" flag="0"/>
			<psa03 value="0.000333678741135124" flag="0"/>
			<psa10 value="0.000328801947531052" flag="0"/>
			<psa30 value="0.000122893219197698" flag="0"/>
		</comp>
	</station>
	<station code="PLG" name="PLG" netid="HL" source="National Observatory of Athens Seismic Network" insttype="" lat="40.37328" lon="23.44443">
		<comp name="--.HNE" depth="0.0">
			<acc value="0.000719105326355409" flag="0"/>
			<vel value="6.34304900759144e-05" flag="0"/>
			<psa03 value="0.00207186723150296" flag="0"/>
			<psa10 value="0.00104468666630359" flag="0"/>
			<psa30 value="0.000121774564363159" flag="0"/>
		</comp>
		<comp name="--.HNN" depth="0.0">
			<acc value="0.000362585930885687" flag="0"/>
			<vel value="3.1081964665386e-05" flag="0"/>
			<psa03 value="0.00226462658289897" flag="0"/>
			<psa10 value="0.00219514651143312" flag="0"/>
			<psa30 value="0.000217028322373666" flag="0"/>
		</comp>
		<comp name="--.HNZ" depth="0.0">
			<acc value="0.000214509671355286" flag="0"/>
			<vel value="1.91430113309304e-05" flag="0"/>
			<psa03 value="0.00158100235734314" flag="0"/>
			<psa10 value="0.000988929613296493" flag="0"/>
			<psa30 value="0.000135572913331595" flag="0"/>
		</comp>
	</station>
	<station code="SOFA" name="SOFA" netid="HL" source="National Observatory of Athens Seismic Network" insttype="" lat="39.33773" lon="22.09691">
		<comp name="00.HNE" depth="0.0">
			<acc value="0.003924606739928" flag="0"/>
			<vel value="0.00410485646583193" flag="0"/>
			<psa03 value="0.00607296089761251" flag="0"/>
			<psa10 value="0.00492133007644535" flag="0"/>
			<psa30 value="0.000748944405558491" flag="0"/>
		</comp>
		<comp name="00.HNN" depth="0.0">
			<acc value="0.00317425467615669" flag="0"/>
			<vel value="0.00486183675816135" flag="0"/>
			<psa03 value="0.00553505872776695" flag="0"/>
			<psa10 value="0.00626609087900536" flag="0"/>
			<psa30 value="0.000854837774641183" flag="0"/>
		</comp>
		<comp name="00.HNZ" depth="0.0">
			<acc value="0.00424908907036253" flag="0"/>
			<vel value="0.00186733912985305" flag="0"/>
			<psa03 value="0.00470550898250639" flag="0"/>
			<psa10 value="0.00308101660222766" flag="0"/>
			<psa30 value="0.000259567299226297" flag="0"/>
		</comp>
	</station>
	<station code="TRKA" name="TRKA" netid="HL" source="National Observatory of Athens Seismic Network" insttype="" lat="39.55381" lon="21.76624">
		<comp name="00.HNE" depth="0.0">
			<acc value="0.00482005039709107" flag="0"/>
			<vel value="0.0057238676817063" flag="0"/>
			<psa03 value="0.0111421196211451" flag="0"/>
			<psa10 value="0.0150178726728622" flag="0"/>
			<psa30 value="0.000878554033224736" flag="0"/>
		</comp>
		<comp name="00.HNN" depth="0.0">
			<acc value="0.00356586731952202" flag="0"/>
			<vel value="0.00356967304880628" flag="0"/>
			<psa03 value="0.00842570204163908" flag="0"/>
			<psa10 value="0.00861960381895524" flag="0"/>
			<psa30 value="0.000521375476068357" flag="0"/>
		</comp>
		<comp name="00.HNZ" depth="0.0">
			<acc value="0.00219960618721937" flag="0"/>
			<vel value="0.0020281373214893" flag="0"/>
			<psa03 value="0.00554506915655001" flag="0"/>
			<psa10 value="0.00337671923795155" flag="0"/>
			<psa30 value="0.000435030146737085" flag="0"/>
		</comp>
	</station>
</stationlist>
