<?xml version="1.0" encoding="UTF-8" standalone="yes"?>
<!DOCTYPE earthquake SYSTEM "stationlist.dtd">
<stationlist created="" xmlns="ch.ethz.sed.shakemap.usgs.xml">
  <station code="ANTB" name="ANTB" netid="KO" insttype="CMG-3T" lat="36.8998" lon="30.6538">
    <comp name="--.HHE">
      <acc value="0.0173434676" flag="0"/>
      <vel value="0.0042173297" flag="0"/>
      <psa03 value="0.0037706250" flag="0"/>
      <psa10 value="0.0065925907" flag="0"/>
      <psa30 value="0.0009997860" flag="0"/>
    </comp>
    <comp name="--.HHZ">
      <acc value="0.0142004545" flag="0"/>
      <vel value="0.0037798979" flag="0"/>
      <psa03 value="0.0029459676" flag="0"/>
      <psa10 value="0.0046801516" flag="0"/>
      <psa30 value="0.0008016610" flag="0"/>
    </comp>
    <comp name="--.HHN">
      <acc value="0.0118923039" flag="0"/>
      <vel value="0.0020385266" flag="0"/>
      <psa03 value="0.0024790013" flag="0"/>
      <psa10 value="0.0029679500" flag="0"/>
      <psa30 value="0.0005903497" flag="0"/>
    </comp>
  </station>
  <station code="APMY" name="APMY" netid="KO" insttype="CMG-6T" lat="37.4717" lon="29.3018">
    <comp name="--.HHN">
      <acc value="0.0151413865" flag="0"/>
      <vel value="0.0048672720" flag="0"/>
      <psa03 value="0.0384833715" flag="0"/>
      <psa10 value="0.0058099754" flag="0"/>
      <psa30 value="0.0007158469" flag="0"/>
    </comp>
    <comp name="--.HHE">
      <acc value="0.0154175575" flag="0"/>
      <vel value="0.0073706390" flag="0"/>
      <psa03 value="0.0375724128" flag="0"/>
      <psa10 value="0.0073231664" flag="0"/>
      <psa30 value="0.0005958150" flag="0"/>
    </comp>
    <comp name="--.HHZ">
      <acc value="0.0062101282" flag="0"/>
      <vel value="0.0030633831" flag="0"/>
      <psa03 value="0.0189156840" flag="0"/>
      <psa10 value="0.0034578338" flag="0"/>
      <psa30 value="0.0003830356" flag="0"/>
    </comp>
  </station>
  <station code="BASM" name="BASM" netid="KO" insttype="CMG-5T" lat="37.9194" lon="30.035">
    <comp name="--.HNE">
      <acc value="0.1012861649" flag="0"/>
      <vel value="0.0370579574" flag="0"/>
      <psa03 value="0.1369077918" flag="0"/>
      <psa10 value="0.0379919795" flag="0"/>
      <psa30 value="0.0023992139" flag="0"/>
    </comp>
    <comp name="--.HNZ">
      <acc value="0.0541012209" flag="0"/>
      <vel value="0.0192963602" flag="0"/>
      <psa03 value="0.0823853994" flag="0"/>
      <psa10 value="0.0237477719" flag="0"/>
      <psa30 value="0.0011386878" flag="0"/>
    </comp>
    <comp name="--.HNN">
      <acc value="0.0769711630" flag="0"/>
      <vel value="0.0277503198" flag="0"/>
      <psa03 value="0.1779532382" flag="0"/>
      <psa10 value="0.0412641341" flag="0"/>
      <psa30 value="0.0021949968" flag="0"/>
    </comp>
  </station>
  <station code="BCK" name="BCK" netid="KO" insttype="CMG-3T" lat="37.4602" lon="30.5885">
    <comp name="--.HHE">
      <acc value="0.0066991695" flag="0"/>
      <vel value="0.0027719975" flag="0"/>
      <psa03 value="0.0125151278" flag="0"/>
      <psa10 value="0.0033110873" flag="0"/>
      <psa30 value="0.0004422934" flag="0"/>
    </comp>
    <comp name="--.HHN">
      <acc value="0.0079745822" flag="0"/>
      <vel value="0.0031909032" flag="0"/>
      <psa03 value="0.0163328608" flag="0"/>
      <psa10 value="0.0020518346" flag="0"/>
      <psa30 value="0.0002288342" flag="0"/>
    </comp>
    <comp name="--.HHZ">
      <acc value="0.0049375963" flag="0"/>
      <vel value="0.0020131537" flag="0"/>
      <psa03 value="0.0086721615" flag="0"/>
      <psa10 value="0.0019746245" flag="0"/>
      <psa30 value="0.0005465065" flag="0"/>
    </comp>
  </station>
  <station code="ELL" name="ELL" netid="KO" insttype="CMG-3T" lat="36.7483" lon="29.9085">
    <comp name="--.HHE">
      <acc value="0.0016444602" flag="0"/>
      <vel value="0.0022948506" flag="0"/>
      <psa03 value="0.0054690691" flag="0"/>
      <psa10 value="0.0036144358" flag="0"/>
      <psa30 value="0.0004307783" flag="0"/>
    </comp>
    <comp name="--.HHN">
      <acc value="0.0023471668" flag="0"/>
      <vel value="0.0021293651" flag="0"/>
      <psa03 value="0.0073436758" flag="0"/>
      <psa10 value="0.0039442916" flag="0"/>
      <psa30 value="0.0004075362" flag="0"/>
    </comp>
  </station>
  <station code="SHUT" name="SHUT" netid="KO" insttype="CMG-3T" lat="38.553" lon="30.551">
    <comp name="--.HHZ">
      <acc value="0.0045142801" flag="0"/>
      <vel value="0.0026638532" flag="0"/>
      <psa03 value="0.0096520011" flag="0"/>
      <psa10 value="0.0043156033" flag="0"/>
      <psa30 value="0.0002986982" flag="0"/>
    </comp>
    <comp name="--.HHN">
      <acc value="0.0047912563" flag="0"/>
      <vel value="0.0041541327" flag="0"/>
      <psa03 value="0.0141807165" flag="0"/>
      <psa10 value="0.0063274196" flag="0"/>
      <psa30 value="0.0005701596" flag="0"/>
    </comp>
  </station>
</stationlist>
