<?xml version="1.0" encoding="UTF-8" standalone="yes"?>
<!DOCTYPE earthquake SYSTEM "stationlist.dtd">
<stationlist created="" xmlns="ch.ethz.sed.shakemap.usgs.xml">
  <station code="AMRR" name="AMRR" netid="RO" insttype="330" commtype="DIG" lat="44.6102" lon="27.3351">
    <comp name="--.HHE">
      <acc value="0.0145385046" flag="0"/>
      <vel value="0.0053839831" flag="0"/>
      <psa03 value="0.0365908557" flag="0"/>
      <psa10 value="0.0020320746" flag="0"/>
      <psa30 value="0.0001777588" flag="0"/>
    </comp>
    <comp name="--.HHN">
      <acc value="0.0182745933" flag="0"/>
      <vel value="0.0045370803" flag="0"/>
      <psa03 value="0.0298293887" flag="0"/>
      <psa10 value="0.0020788218" flag="0"/>
      <psa30 value="0.0001782804" flag="0"/>
    </comp>
    <comp name="--.HHZ">
      <acc value="0.0091186470" flag="0"/>
      <vel value="0.0020433312" flag="0"/>
      <psa03 value="0.0079582216" flag="0"/>
      <psa10 value="0.0004914160" flag="0"/>
      <psa30 value="0.0000511619" flag="0"/>
    </comp>
  </station>
  <station code="BAC" name="BAC" netid="RO" insttype="2.5V" commtype="DIG" lat="46.5669" lon="26.9124">
    <comp name="--.HNN">
      <acc value="0.0241858678" flag="0"/>
      <vel value="0.0074172514" flag="0"/>
      <psa03 value="0.0205062686" flag="0"/>
      <psa10 value="0.0013775608" flag="0"/>
      <psa30 value="0.0001427925" flag="0"/>
    </comp>
    <comp name="--.HNZ">
      <acc value="0.0072597495" flag="0"/>
      <vel value="0.0014997375" flag="0"/>
      <psa03 value="0.0069644375" flag="0"/>
      <psa10 value="0.0005718220" flag="0"/>
      <psa30 value="0.0000680940" flag="0"/>
    </comp>
    <comp name="--.HNE">
      <acc value="0.0137598199" flag="0"/>
      <vel value="0.0034754663" flag="0"/>
      <psa03 value="0.0126473953" flag="0"/>
      <psa10 value="0.0010823969" flag="0"/>
      <psa30 value="0.0000744145" flag="0"/>
    </comp>
  </station>
  <station code="BIR" name="BIR" netid="RO" insttype="MBB2/Quanterra" commtype="DIG" lat="46.2334" lon="27.6436">
    <comp name="--.HHE">
      <acc value="0.0791822597" flag="0"/>
      <vel value="0.0180654197" flag="0"/>
      <psa03 value="0.0392572440" flag="0"/>
      <psa10 value="0.0036947052" flag="0"/>
      <psa30 value="0.0002554488" flag="0"/>
    </comp>
    <comp name="--.HHZ">
      <acc value="0.0446341977" flag="0"/>
      <vel value="0.0090880534" flag="0"/>
      <psa03 value="0.0282963018" flag="0"/>
      <psa10 value="0.0010261193" flag="0"/>
      <psa30 value="0.0001034403" flag="0"/>
    </comp>
    <comp name="--.HHN">
      <acc value="0.0631538029" flag="0"/>
      <vel value="0.0124688659" flag="0"/>
      <psa03 value="0.0385469288" flag="0"/>
      <psa10 value="0.0025515635" flag="0"/>
      <psa30 value="0.0003058879" flag="0"/>
    </comp>
  </station>
  <station code="BISRR" name="BISRR" netid="RO" insttype="200" commtype="DIG" lat="45.5481" lon="26.7099">
    <comp name="--.HNE">
      <acc value="0.0190699291" flag="0"/>
      <vel value="0.0023113490" flag="0"/>
      <psa03 value="0.0105274274" flag="0"/>
      <psa10 value="0.0018169346" flag="0"/>
      <psa30 value="0.0002024810" flag="0"/>
    </comp>
    <comp name="--.HNN">
      <acc value="0.0141260203" flag="0"/>
      <vel value="0.0015771387" flag="0"/>
      <psa03 value="0.0073123714" flag="0"/>
      <psa10 value="0.0012157704" flag="0"/>
      <psa30 value="0.0002453407" flag="0"/>
    </comp>
    <comp name="--.HNZ">
      <acc value="0.0159459684" flag="0"/>
      <vel value="0.0020986577" flag="0"/>
      <psa03 value="0.0060644141" flag="0"/>
      <psa10 value="0.0007543911" flag="0"/>
      <psa30 value="0.0001171327" flag="0"/>
    </comp>
  </station>
  <station code="BOSR" name="BOSR" netid="RO" insttype="Seismometer/Basalt" commtype="DIG" lat="46.0749" lon="25.6611">
    <comp name="--.HHE">
      <acc value="0.0071598173" flag="0"/>
      <vel value="0.0026277421" flag="0"/>
      <psa03 value="0.0091474047" flag="0"/>
      <psa10 value="0.0022774658" flag="0"/>
      <psa30 value="0.0001362169" flag="0"/>
    </comp>
    <comp name="--.HHN">
      <acc value="0.0107188980" flag="0"/>
      <vel value="0.0020137693" flag="0"/>
      <psa03 value="0.0098984853" flag="0"/>
      <psa10 value="0.0016034054" flag="0"/>
      <psa30 value="0.0000738867" flag="0"/>
    </comp>
    <comp name="--.HHZ">
      <acc value="0.0049107498" flag="0"/>
      <vel value="0.0011150909" flag="0"/>
      <psa03 value="0.0067445904" flag="0"/>
      <psa10 value="0.0005552335" flag="0"/>
      <psa30 value="0.0000429082" flag="0"/>
    </comp>
  </station>
  <station code="DOPR" name="DOPR" netid="RO" insttype="330" commtype="DIG" lat="45.9675" lon="25.3886">
    <comp name="--.HHE">
      <acc value="0.0040315980" flag="0"/>
      <vel value="0.0013569117" flag="0"/>
      <psa03 value="0.0095296328" flag="0"/>
      <psa10 value="0.0009953542" flag="0"/>
      <psa30 value="0.0000590915" flag="0"/>
    </comp>
    <comp name="--.HHN">
      <acc value="0.0038714528" flag="0"/>
      <vel value="0.0012883518" flag="0"/>
      <psa03 value="0.0044580004" flag="0"/>
      <psa10 value="0.0007246278" flag="0"/>
      <psa30 value="0.0000562819" flag="0"/>
    </comp>
    <comp name="--.HHZ">
      <acc value="0.0020951740" flag="0"/>
      <vel value="0.0004731579" flag="0"/>
      <psa03 value="0.0024364149" flag="0"/>
      <psa10 value="0.0003240207" flag="0"/>
      <psa30 value="0.0000291467" flag="0"/>
    </comp>
  </station>
  <station code="IZVR" name="IZVR" netid="RO" insttype="CMG40T.1to100/Quanterra" commtype="DIG" lat="45.5442" lon="27.7655">
    <comp name="--.HHE">
      <acc value="0.0399272367" flag="0"/>
      <vel value="0.0072365807" flag="0"/>
      <psa03 value="0.0135615326" flag="0"/>
      <psa10 value="0.0011328716" flag="0"/>
      <psa30 value="0.0001000478" flag="0"/>
    </comp>
    <comp name="--.HHN">
      <acc value="0.0384077505" flag="0"/>
      <vel value="0.0074011230" flag="0"/>
      <psa03 value="0.0287166314" flag="0"/>
      <psa10 value="0.0023626640" flag="0"/>
      <psa30 value="0.0001729771" flag="0"/>
    </comp>
    <comp name="--.HHZ">
      <acc value="0.0203795334" flag="0"/>
      <vel value="0.0030249946" flag="0"/>
      <psa03 value="0.0049591028" flag="0"/>
      <psa10 value="0.0002924414" flag="0"/>
      <psa30 value="0.0000339226" flag="0"/>
    </comp>
  </station>
  <station code="LEHL" name="LEHL" netid="RO" insttype="MBB2/Basalt" commtype="DIG" lat="44.4739" lon="26.8194">
    <comp name="--.HHE">
      <acc value="0.0228329580" flag="0"/>
      <vel value="0.0116657934" flag="0"/>
      <psa03 value="0.0390492384" flag="0"/>
      <psa10 value="0.0037314672" flag="0"/>
      <psa30 value="0.0002913309" flag="0"/>
    </comp>
    <comp name="--.HHN">
      <acc value="0.0258348137" flag="0"/>
      <vel value="0.0086068267" flag="0"/>
      <psa03 value="0.0390196296" flag="0"/>
      <psa10 value="0.0039699146" flag="0"/>
      <psa30 value="0.0003004365" flag="0"/>
    </comp>
    <comp name="--.HHZ">
      <acc value="0.0126033878" flag="0"/>
      <vel value="0.0025802406" flag="0"/>
      <psa03 value="0.0124477029" flag="0"/>
      <psa10 value="0.0005536846" flag="0"/>
      <psa30 value="0.0000528676" flag="0"/>
    </comp>
  </station>
  <station code="NARR" name="NARR" netid="RO" insttype="OBS-SIO/Centaur" commtype="DIG" lat="45.8165" lon="26.7368">
    <comp name="--.HHE">
      <acc value="0.0397138301" flag="0"/>
      <vel value="0.0099698433" flag="0"/>
      <psa03 value="0.0279283439" flag="0"/>
      <psa10 value="0.0015478650" flag="0"/>
      <psa30 value="0.0001505205" flag="0"/>
    </comp>
    <comp name="--.HHN">
      <acc value="0.0231520422" flag="0"/>
      <vel value="0.0053963054" flag="0"/>
      <psa03 value="0.0257972912" flag="0"/>
      <psa10 value="0.0015789009" flag="0"/>
      <psa30 value="0.0001149785" flag="0"/>
    </comp>
    <comp name="--.HHZ">
      <acc value="0.0191665465" flag="0"/>
      <vel value="0.0047468563" flag="0"/>
      <psa03 value="0.0166893483" flag="0"/>
      <psa10 value="0.0008826510" flag="0"/>
      <psa30 value="0.0001113271" flag="0"/>
    </comp>
  </station>
  <station code="NEHR" name="NEHR" netid="RO" insttype="Seismometer/Basalt" commtype="DIG" lat="45.4272" lon="26.2952">
    <comp name="--.HHE">
      <acc value="0.0013150692" flag="0"/>
      <vel value="0.0004776543" flag="0"/>
      <psa03 value="0.0042014611" flag="0"/>
      <psa10 value="0.0001514389" flag="0"/>
      <psa30 value="0.0000122434" flag="0"/>
    </comp>
    <comp name="--.HHZ">
      <acc value="0.0012980733" flag="0"/>
      <vel value="0.0002844507" flag="0"/>
      <psa03 value="0.0014186900" flag="0"/>
      <psa10 value="0.0000665203" flag="0"/>
      <psa30 value="0.0000069899" flag="0"/>
    </comp>
    <comp name="--.HHN">
      <acc value="0.0010259730" flag="0"/>
      <vel value="0.0003973651" flag="0"/>
      <psa03 value="0.0032221746" flag="0"/>
      <psa10 value="0.0001032269" flag="0"/>
      <psa30 value="0.0000099391" flag="0"/>
    </comp>
  </station>
  <station code="ODBI" name="ODBI" netid="RO" insttype="200" commtype="DIG" lat="45.7633" lon="27.0558">
    <comp name="--.HNZ">
      <acc value="0.0293240900" flag="0"/>
      <vel value="0.0059844054" flag="0"/>
      <psa03 value="0.0149195567" flag="0"/>
      <psa10 value="0.0009100339" flag="0"/>
      <psa30 value="0.0001027174" flag="0"/>
    </comp>
    <comp name="--.HNE">
      <acc value="0.0260098026" flag="0"/>
      <vel value="0.0033148286" flag="0"/>
      <psa03 value="0.0145404267" flag="0"/>
      <psa10 value="0.0010834283" flag="0"/>
      <psa30 value="0.0001405123" flag="0"/>
    </comp>
  </station>
</stationlist>
