<?xml version="1.0" encoding="UTF-8" standalone="yes"?>
<!DOCTYPE earthquake SYSTEM "stationlist.dtd">
<stationlist created="" xmlns="ch.ethz.sed.shakemap.usgs.xml">
  <station code="JMIC" name="JMIC" netid="NO" insttype="STS-2" commtype="DIG" lat="70.9866" lon="-8.5057">
    <comp name="00.HHZ">
      <acc value="0.0585711004" flag="0"/>
      <vel value="0.0092859766" flag="0"/>
      <psa03 value="0.0391212356" flag="0"/>
      <psa10 value="0.0080355522" flag="0"/>
      <psa30 value="0.0010443732" flag="0"/>
    </comp>
    <comp name="00.HHE">
      <acc value="0.0704452533" flag="0"/>
      <vel value="0.0152396671" flag="0"/>
      <psa03 value="0.0700157875" flag="0"/>
      <psa10 value="0.0175569041" flag="0"/>
      <psa30 value="0.0009837612" flag="0"/>
    </comp>
    <comp name="00.HHN">
      <acc value="0.0895045902" flag="0"/>
      <vel value="0.0182472647" flag="0"/>
      <psa03 value="0.0701431897" flag="0"/>
      <psa10 value="0.0156820004" flag="0"/>
      <psa30 value="0.0019699144" flag="0"/>
    </comp>
  </station>
  <station code="JNE" name="JNE" netid="NS" insttype="" commtype="DIG" lat="70.9883" lon="-8.29267">
    <comp name="00.HHN">
      <acc value="0.0786759581" flag="0"/>
      <vel value="0.0361724570" flag="0"/>
      <psa03 value="0.1131101651" flag="0"/>
      <psa10 value="0.0580220017" flag="0"/>
      <psa30 value="0.0031250559" flag="0"/>
    </comp>
    <comp name="00.HHE">
      <acc value="0.0946113939" flag="0"/>
      <vel value="0.0346818684" flag="0"/>
      <psa03 value="0.1134145568" flag="0"/>
      <psa10 value="0.0479613158" flag="0"/>
      <psa30 value="0.0020852463" flag="0"/>
    </comp>
    <comp name="00.HHZ">
      <acc value="0.0782937555" flag="0"/>
      <vel value="0.0232796105" flag="0"/>
      <psa03 value="0.0933628152" flag="0"/>
      <psa10 value="0.0134014546" flag="0"/>
      <psa30 value="0.0011805970" flag="0"/>
    </comp>
  </station>
</stationlist>
