<stationlist xmlns:esm="https://esm-db.eu/esmws/shakemap/1/" created="1783994126">
	<station code="ARG2" name="ARG2" netid="HI" source="ITSAK Strong Motion Network" insttype="" lat="38.1783" lon="20.4878" esm:processing="manual (Paolucci et al 2011)" esm:quality="best">
		<comp name="--.HNE" depth="0.0">
			<acc value="0.100653989896461" flag="0"/>
			<vel value="0.0362048510886394" flag="0"/>
			<psa03 value="0.203532297906518" flag="0"/>
			<psa10 value="0.0179232805492135" flag="0"/>
			<psa30 value="0.000939586338983707" flag="0"/>
		</comp>
		<comp name="--.HNN" depth="0.0">
			<acc value="0.0964834349101024" flag="0"/>
			<vel value="0.0363436326824094" flag="0"/>
			<psa03 value="0.196731482500541" flag="0"/>
			<psa10 value="0.0150320391575408" flag="0"/>
			<psa30 value="0.000940928605182255" flag="0"/>
		</comp>
		<comp name="--.HNZ" depth="0.0">
			<acc value="0.0640413035943894" flag="0"/>
			<vel value="0.0186183674615602" flag="0"/>
			<psa03 value="0.126128280456908" flag="0"/>
			<psa10 value="0.00675294124489576" flag="0"/>
			<psa30 value="0.000661737235884239" flag="0"/>
		</comp>
	</station>
	<station code="ART2" name="ART2" netid="HI" source="ITSAK Strong Motion Network" insttype="" lat="39.1474" lon="20.9937" esm:processing="manual (Paolucci et al 2011)" esm:quality="bad">
		<comp name="--.HNE" depth="0.0">
			<acc value="0.00531356173498061" flag="0"/>
			<vel value="0.00292320039028972" flag="0"/>
			<psa03 value="0.0111299599614966" flag="0"/>
			<psa10 value="0.00367259602583693" flag="0"/>
			<psa30 value="0.000210421582626181" flag="0"/>
		</comp>
		<comp name="--.HNN" depth="0.0">
			<acc value="0.00324642518422255" flag="0"/>
			<vel value="0.00229131791697645" flag="0"/>
			<psa03 value="0.00741818868420256" flag="0"/>
			<psa10 value="0.00301778389774604" flag="0"/>
			<psa30 value="0.000175052664088322" flag="0"/>
		</comp>
		<comp name="--.HNZ" depth="0.0">
			<acc value="0.00319888928396993" flag="0"/>
			<vel value="0.00192568756277828" flag="0"/>
			<psa03 value="0.00705027759318214" flag="0"/>
			<psa10 value="0.00267393627578183" flag="0"/>
			<psa30 value="0.000159090135294924" flag="0"/>
		</comp>
	</station>
	<station code="KLV1" name="KLV1" netid="HI" source="ITSAK Strong Motion Network" insttype="" lat="38.03256" lon="22.10797" esm:processing="manual (Paolucci et al 2011)" esm:quality="best">
		<comp name="--.HNE" depth="0.0">
			<acc value="0.00574113527107158" flag="0"/>
			<vel value="0.00564872668536708" flag="0"/>
			<psa03 value="0.0239717025909887" flag="0"/>
			<psa10 value="0.00942138255783739" flag="0"/>
			<psa30 value="0.000866337182253378" flag="0"/>
		</comp>
		<comp name="--.HNN" depth="0.0">
			<acc value="0.00675474004555922" flag="0"/>
			<vel value="0.00553355353003023" flag="0"/>
			<psa03 value="0.0144192781230629" flag="0"/>
			<psa10 value="0.00918245329248399" flag="0"/>
			<psa30 value="0.000438495662768949" flag="0"/>
		</comp>
		<comp name="--.HNZ" depth="0.0">
			<acc value="0.00314137494871258" flag="0"/>
			<vel value="0.003178658259916" flag="0"/>
			<psa03 value="0.00806042654184252" flag="0"/>
			<psa10 value="0.00685520803012575" flag="0"/>
			<psa30 value="0.000510423969335107" flag="0"/>
		</comp>
	</station>
	<station code="KRI1" name="KRI1" netid="HI" source="ITSAK Strong Motion Network" insttype="" lat="37.6621" lon="20.8172" esm:processing="manual (Paolucci et al 2011)" esm:quality="best">
		<comp name="--.HNE" depth="0.0">
			<acc value="1.41078301635221" flag="0"/>
			<vel value="0.65319102397062" flag="0"/>
			<psa03 value="2.56175978213577" flag="0"/>
			<psa10 value="0.275360541567359" flag="0"/>
			<psa30 value="0.0261652424303653" flag="0"/>
		</comp>
		<comp name="--.HNN" depth="0.0">
			<acc value="0.873825927678416" flag="0"/>
			<vel value="0.452302005588714" flag="0"/>
			<psa03 value="2.79168998194707" flag="0"/>
			<psa10 value="0.21584848512233" flag="0"/>
			<psa30 value="0.0173273143570581" flag="0"/>
		</comp>
		<comp name="--.HNZ" depth="0.0">
			<acc value="0.698756786427421" flag="0"/>
			<vel value="0.229191190268127" flag="0"/>
			<psa03 value="1.41251146293884" flag="0"/>
			<psa10 value="0.0621496095251766" flag="0"/>
			<psa30 value="0.0060035092840397" flag="0"/>
		</comp>
	</station>
	<station code="MSL1" name="MSL1" netid="HI" source="ITSAK Strong Motion Network" insttype="" lat="38.3727" lon="21.4243" esm:processing="manual (Paolucci et al 2011)" esm:quality="best">
		<comp name="--.HNE" depth="0.0">
			<acc value="0.0282944432399036" flag="0"/>
			<vel value="0.0210023434738875" flag="0"/>
			<psa03 value="0.114540048942776" flag="0"/>
			<psa10 value="0.0277446423239903" flag="0"/>
			<psa30 value="0.00216462795619199" flag="0"/>
		</comp>
		<comp name="--.HNN" depth="0.0">
			<acc value="0.0284710299019116" flag="0"/>
			<vel value="0.0252768416587861" flag="0"/>
			<psa03 value="0.0604019789346669" flag="0"/>
			<psa10 value="0.0343687260138254" flag="0"/>
			<psa30 value="0.00217312897544946" flag="0"/>
		</comp>
		<comp name="--.HNZ" depth="0.0">
			<acc value="0.0132842330618031" flag="0"/>
			<vel value="0.0138562186036383" flag="0"/>
			<psa03 value="0.0347199523357789" flag="0"/>
			<psa10 value="0.01771388702224" flag="0"/>
			<psa30 value="0.000971800727748862" flag="0"/>
		</comp>
	</station>
	<station code="PYL1" name="PYL1" netid="HI" source="ITSAK Strong Motion Network" insttype="" lat="36.914188" lon="21.695161" esm:processing="manual (Paolucci et al 2011)" esm:quality="good">
		<comp name="--.HNE" depth="0.0">
			<acc value="0.0029081070387421" flag="0"/>
			<vel value="0.00270023811057172" flag="0"/>
			<psa03 value="0.0079193705714341" flag="0"/>
			<psa10 value="0.00345499319506294" flag="0"/>
			<psa30 value="0.000703347488039232" flag="0"/>
		</comp>
		<comp name="--.HNN" depth="0.0">
			<acc value="0.00200798390064104" flag="0"/>
			<vel value="0.00212518763622571" flag="0"/>
			<psa03 value="0.00635339333979459" flag="0"/>
			<psa10 value="0.00249661512929956" flag="0"/>
			<psa30 value="0.000507376623051202" flag="0"/>
		</comp>
		<comp name="--.HNZ" depth="0.0">
			<acc value="0.00203409487342432" flag="0"/>
			<vel value="0.00166093858344365" flag="0"/>
			<psa03 value="0.00474267390153681" flag="0"/>
			<psa10 value="0.00222681962339139" flag="0"/>
			<psa30 value="0.000424603540807399" flag="0"/>
		</comp>
	</station>
	<station code="ITM" name="ITM" netid="HL" source="National Observatory of Athens Seismic Network" insttype="" lat="37.17872" lon="21.92522" esm:processing="manual (Paolucci et al 2011)" esm:quality="good">
		<comp name="--.HNE" depth="0.0">
			<acc value="0.00321117490978583" flag="0"/>
			<vel value="0.00250861586044588" flag="0"/>
			<psa03 value="0.00649545503160832" flag="0"/>
			<psa10 value="0.00371591678624967" flag="0"/>
			<psa30 value="0.000648298884117843" flag="0"/>
		</comp>
		<comp name="--.HNN" depth="0.0">
			<acc value="0.0036025306586107" flag="0"/>
			<vel value="0.00263095287174436" flag="0"/>
			<psa03 value="0.00885158832741643" flag="0"/>
			<psa10 value="0.003958995701534" flag="0"/>
			<psa30 value="0.000588856560938712" flag="0"/>
		</comp>
		<comp name="--.HNZ" depth="0.0">
			<acc value="0.00344666847799239" flag="0"/>
			<vel value="0.00270612150614073" flag="0"/>
			<psa03 value="0.00554481653565331" flag="0"/>
			<psa10 value="0.0043841224578595" flag="0"/>
			<psa30 value="0.000489960165789222" flag="0"/>
		</comp>
	</station>
	<station code="LXRA" name="LXRA" netid="HL" source="National Observatory of Athens Seismic Network" insttype="" lat="38.20006" lon="20.43718" esm:processing="manual (Paolucci et al 2011)" esm:quality="best">
		<comp name="00.HNE" depth="0.0">
			<acc value="0.127917123187053" flag="0"/>
			<vel value="0.0408753893390836" flag="0"/>
			<psa03 value="0.213778263222102" flag="0"/>
			<psa10 value="0.0326653902078678" flag="0"/>
			<psa30 value="0.00191362417706348" flag="0"/>
		</comp>
		<comp name="00.HNN" depth="0.0">
			<acc value="0.131801690974752" flag="0"/>
			<vel value="0.0321048865939786" flag="0"/>
			<psa03 value="0.219371039049386" flag="0"/>
			<psa10 value="0.0334304819410403" flag="0"/>
			<psa30 value="0.00211183215238243" flag="0"/>
		</comp>
		<comp name="00.HNZ" depth="0.0">
			<acc value="0.0846990093908584" flag="0"/>
			<vel value="0.0246383257560766" flag="0"/>
			<psa03 value="0.12143034876199" flag="0"/>
			<psa10 value="0.016433365068825" flag="0"/>
			<psa30 value="0.000978512058741603" flag="0"/>
		</comp>
	</station>
	<station code="PATC" name="PATC" netid="HL" source="National Observatory of Athens Seismic Network" insttype="" lat="38.26933" lon="21.76001" esm:processing="manual (Paolucci et al 2011)" esm:quality="best">
		<comp name="00.HNE" depth="0.0">
			<acc value="0.0162898644167099" flag="0"/>
			<vel value="0.0157993844883566" flag="0"/>
			<psa03 value="0.0506811021658681" flag="0"/>
			<psa10 value="0.0243022436543591" flag="0"/>
			<psa30 value="0.00282426146845999" flag="0"/>
		</comp>
		<comp name="00.HNN" depth="0.0">
			<acc value="0.0167995533373692" flag="0"/>
			<vel value="0.0106492429926222" flag="0"/>
			<psa03 value="0.0481969844802798" flag="0"/>
			<psa10 value="0.0154637931503944" flag="0"/>
			<psa30 value="0.00161447736786913" flag="0"/>
		</comp>
		<comp name="00.HNZ" depth="0.0">
			<acc value="0.00883725629824786" flag="0"/>
			<vel value="0.00886721050160824" flag="0"/>
			<psa03 value="0.0219355651026916" flag="0"/>
			<psa10 value="0.0168450865293273" flag="0"/>
			<psa30 value="0.000892584858535051" flag="0"/>
		</comp>
	</station>
	<station code="PRGA" name="PRGA" netid="HL" source="National Observatory of Athens Seismic Network" insttype="" lat="39.28557" lon="20.40157" esm:processing="manual (Paolucci et al 2011)" esm:quality="good">
		<comp name="00.HNE" depth="0.0">
			<acc value="0.0241674784109301" flag="0"/>
			<vel value="0.00904952319981716" flag="0"/>
			<psa03 value="0.0492541274275971" flag="0"/>
			<psa10 value="0.0034991704747448" flag="0"/>
			<psa30 value="0.000426608625311081" flag="0"/>
		</comp>
		<comp name="00.HNN" depth="0.0">
			<acc value="0.0232858892892094" flag="0"/>
			<vel value="0.0117340933901655" flag="0"/>
			<psa03 value="0.0673748747129141" flag="0"/>
			<psa10 value="0.00321014820343849" flag="0"/>
			<psa30 value="0.000347406555646128" flag="0"/>
		</comp>
		<comp name="00.HNZ" depth="0.0">
			<acc value="0.0170276792871787" flag="0"/>
			<vel value="0.00234024561931536" flag="0"/>
			<psa03 value="0.0123976402932523" flag="0"/>
			<psa10 value="0.00177501274213147" flag="0"/>
			<psa30 value="0.000242032361581093" flag="0"/>
		</comp>
	</station>
	<station code="SMHA" name="SMHA" netid="HL" source="National Observatory of Athens Seismic Network" insttype="" lat="38.25123" lon="20.6477" esm:processing="manual (Paolucci et al 2011)" esm:quality="best">
		<comp name="00.HNE" depth="0.0">
			<acc value="0.150632014513198" flag="0"/>
			<vel value="0.0571904088155404" flag="0"/>
			<psa03 value="0.383073668417195" flag="0"/>
			<psa10 value="0.0322521590472573" flag="0"/>
			<psa30 value="0.00166023925353726" flag="0"/>
		</comp>
		<comp name="00.HNN" depth="0.0">
			<acc value="0.158890440636743" flag="0"/>
			<vel value="0.0464514653876705" flag="0"/>
			<psa03 value="0.285036340592073" flag="0"/>
			<psa10 value="0.0223229056579408" flag="0"/>
			<psa30 value="0.00158840803673889" flag="0"/>
		</comp>
		<comp name="00.HNZ" depth="0.0">
			<acc value="0.0976054998260954" flag="0"/>
			<vel value="0.0235348147708262" flag="0"/>
			<psa03 value="0.149947547872436" flag="0"/>
			<psa10 value="0.0102390520369462" flag="0"/>
			<psa30 value="0.000597102836384684" flag="0"/>
		</comp>
	</station>
	<station code="ZARA" name="ZARA" netid="HL" source="National Observatory of Athens Seismic Network" insttype="" lat="37.4865" lon="21.6491" esm:processing="manual (Paolucci et al 2011)" esm:quality="best">
		<comp name="00.HNE" depth="0.0">
			<acc value="0.0172035534511009" flag="0"/>
			<vel value="0.0152956623611998" flag="0"/>
			<psa03 value="0.0352242448916821" flag="0"/>
			<psa10 value="0.0172019545450555" flag="0"/>
			<psa30 value="0.00105626320142014" flag="0"/>
		</comp>
		<comp name="00.HNN" depth="0.0">
			<acc value="0.0198647105934995" flag="0"/>
			<vel value="0.019735362575687" flag="0"/>
			<psa03 value="0.0449200486494072" flag="0"/>
			<psa10 value="0.0212663444159398" flag="0"/>
			<psa30 value="0.00158809322421526" flag="0"/>
		</comp>
		<comp name="00.HNZ" depth="0.0">
			<acc value="0.00963738445642841" flag="0"/>
			<vel value="0.00591569859841529" flag="0"/>
			<psa03 value="0.0222114870270072" flag="0"/>
			<psa10 value="0.00809854242618861" flag="0"/>
			<psa30 value="0.000746868018007696" flag="0"/>
		</comp>
	</station>
	<station code="ANX" name="ANX" netid="HP" source="University of Patras, Seismological Laboratory (PSLNET)" insttype="" lat="38.5933" lon="21.9209" esm:processing="automatic (Paolucci et al 2011)" esm:quality="best">
		<comp name="--.HNE" depth="0.0">
			<acc value="0.0111717857755641" flag="0"/>
			<vel value="0.00853281163636413" flag="0"/>
			<psa03 value="0.0320323798004621" flag="0"/>
			<psa10 value="0.011959136296587" flag="0"/>
			<psa30 value="0.000515680880079328" flag="0"/>
		</comp>
		<comp name="--.HNN" depth="0.0">
			<acc value="0.0111377443747329" flag="0"/>
			<vel value="0.0130154206438485" flag="0"/>
			<psa03 value="0.0362363249578722" flag="0"/>
			<psa10 value="0.0164806673883498" flag="0"/>
			<psa30 value="0.000761407366585385" flag="0"/>
		</comp>
		<comp name="--.HNZ" depth="0.0">
			<acc value="0.00626646685581024" flag="0"/>
			<vel value="0.00372350240011688" flag="0"/>
			<psa03 value="0.0227979060827301" flag="0"/>
			<psa10 value="0.00587674336789086" flag="0"/>
			<psa30 value="0.000577064008907693" flag="0"/>
		</comp>
	</station>
	<station code="FSK" name="FSK" netid="HP" source="University of Patras, Seismological Laboratory (PSLNET)" insttype="" lat="38.4593" lon="20.5623" esm:processing="manual (Paolucci et al 2011)" esm:quality="good">
		<comp name="--.HNE" depth="0.0">
			<acc value="0.0636546913677948" flag="0"/>
			<vel value="0.0179727591431777" flag="0"/>
			<psa03 value="0.0760510796774559" flag="0"/>
			<psa10 value="0.0163462228570412" flag="0"/>
			<psa30 value="0.00147907600235956" flag="0"/>
		</comp>
		<comp name="--.HNN" depth="0.0">
			<acc value="0.0226844281641059" flag="0"/>
			<vel value="0.0126144914738555" flag="0"/>
			<psa03 value="0.0535749709538934" flag="0"/>
			<psa10 value="0.011917683863067" flag="0"/>
			<psa30 value="0.000756030760410804" flag="0"/>
		</comp>
		<comp name="--.HNZ" depth="0.0">
			<acc value="0.0282102859991238" flag="0"/>
			<vel value="0.00913311831597291" flag="0"/>
			<psa03 value="0.0439580213781815" flag="0"/>
			<psa10 value="0.00688748407451792" flag="0"/>
			<psa30 value="0.000374041939901149" flag="0"/>
		</comp>
	</station>
	<station code="AGRP" name="AGRP" netid="CL" source="Corinth Riff Laboratory (CRLNET)" insttype="" lat="38.3959" lon="21.72277" esm:processing="discarded" esm:quality="bad">
		<comp name="00.HNE" depth="0.0">
			<acc value="0" flag="1"/>
			<vel value="0" flag="1"/>
			<psa03 value="0" flag="1"/>
			<psa10 value="0" flag="1"/>
			<psa30 value="0" flag="1"/>
		</comp>
		<comp name="00.HNN" depth="0.0">
			<acc value="0" flag="1"/>
			<vel value="0" flag="1"/>
			<psa03 value="0" flag="1"/>
			<psa10 value="0" flag="1"/>
			<psa30 value="0" flag="1"/>
		</comp>
		<comp name="00.HNZ" depth="0.0">
			<acc value="0" flag="1"/>
			<vel value="0" flag="1"/>
			<psa03 value="0" flag="1"/>
			<psa10 value="0" flag="1"/>
			<psa30 value="0" flag="1"/>
		</comp>
	</station>
	<station code="ROD3" name="ROD3" netid="CL" source="Corinth Riff Laboratory (CRLNET)" insttype="" lat="38.30811" lon="21.89204" esm:processing="discarded" esm:quality="good">
		<comp name="00.HNE" depth="0.0">
			<acc value="0" flag="1"/>
			<vel value="0" flag="1"/>
			<psa03 value="0" flag="1"/>
			<psa10 value="0" flag="1"/>
			<psa30 value="0" flag="1"/>
		</comp>
		<comp name="00.HNN" depth="0.0">
			<acc value="0" flag="1"/>
			<vel value="0" flag="1"/>
			<psa03 value="0" flag="1"/>
			<psa10 value="0" flag="1"/>
			<psa30 value="0" flag="1"/>
		</comp>
		<comp name="00.HNZ" depth="0.0">
			<acc value="0" flag="1"/>
			<vel value="0" flag="1"/>
			<psa03 value="0" flag="1"/>
			<psa10 value="0" flag="1"/>
			<psa30 value="0" flag="1"/>
		</comp>
	</station>
	<station code="ARS1" name="ARS1" netid="HI" source="ITSAK Strong Motion Network" insttype="" lat="37.6349" lon="22.7293" esm:processing="discarded" esm:quality="good">
		<comp name="--.HNE" depth="0.0">
			<acc value="0" flag="1"/>
			<vel value="0" flag="1"/>
			<psa03 value="0" flag="1"/>
			<psa10 value="0" flag="1"/>
			<psa30 value="0" flag="1"/>
		</comp>
		<comp name="--.HNN" depth="0.0">
			<acc value="0" flag="1"/>
			<vel value="0" flag="1"/>
			<psa03 value="0" flag="1"/>
			<psa10 value="0" flag="1"/>
			<psa30 value="0" flag="1"/>
		</comp>
		<comp name="--.HNZ" depth="0.0">
			<acc value="0" flag="1"/>
			<vel value="0" flag="1"/>
			<psa03 value="0" flag="1"/>
			<psa10 value="0" flag="1"/>
			<psa30 value="0" flag="1"/>
		</comp>
	</station>
	<station code="LAM2" name="LAM2" netid="HI" source="ITSAK Strong Motion Network" insttype="" lat="38.90203" lon="22.431301" esm:processing="discarded" esm:quality="bad">
		<comp name="--.HNE" depth="0.0">
			<acc value="0" flag="1"/>
			<vel value="0" flag="1"/>
			<psa03 value="0" flag="1"/>
			<psa10 value="0" flag="1"/>
			<psa30 value="0" flag="1"/>
		</comp>
		<comp name="--.HNN" depth="0.0">
			<acc value="0" flag="1"/>
			<vel value="0" flag="1"/>
			<psa03 value="0" flag="1"/>
			<psa10 value="0" flag="1"/>
			<psa30 value="0" flag="1"/>
		</comp>
		<comp name="--.HNZ" depth="0.0">
			<acc value="0" flag="1"/>
			<vel value="0" flag="1"/>
			<psa03 value="0" flag="1"/>
			<psa10 value="0" flag="1"/>
			<psa30 value="0" flag="1"/>
		</comp>
	</station>
	<station code="ARTB" name="ARTB" netid="HL" source="National Observatory of Athens Seismic Network" insttype="" lat="39.15702" lon="20.9785" esm:processing="discarded" esm:quality="good">
		<comp name="00.HNE" depth="0.0">
			<acc value="0" flag="1"/>
			<vel value="0" flag="1"/>
			<psa03 value="0" flag="1"/>
			<psa10 value="0" flag="1"/>
			<psa30 value="0" flag="1"/>
		</comp>
		<comp name="00.HNN" depth="0.0">
			<acc value="0" flag="1"/>
			<vel value="0" flag="1"/>
			<psa03 value="0" flag="1"/>
			<psa10 value="0" flag="1"/>
			<psa30 value="0" flag="1"/>
		</comp>
		<comp name="00.HNZ" depth="0.0">
			<acc value="0" flag="1"/>
			<vel value="0" flag="1"/>
			<psa03 value="0" flag="1"/>
			<psa10 value="0" flag="1"/>
			<psa30 value="0" flag="1"/>
		</comp>
	</station>
	<station code="DLFA" name="DLFA" netid="HL" source="National Observatory of Athens Seismic Network" insttype="" lat="38.47836" lon="22.49583" esm:processing="discarded" esm:quality="bad">
		<comp name="00.HNE" depth="0.0">
			<acc value="0" flag="1"/>
			<vel value="0" flag="1"/>
			<psa03 value="0" flag="1"/>
			<psa10 value="0" flag="1"/>
			<psa30 value="0" flag="1"/>
		</comp>
		<comp name="00.HNN" depth="0.0">
			<acc value="0" flag="1"/>
			<vel value="0" flag="1"/>
			<psa03 value="0" flag="1"/>
			<psa10 value="0" flag="1"/>
			<psa30 value="0" flag="1"/>
		</comp>
		<comp name="00.HNZ" depth="0.0">
			<acc value="0" flag="1"/>
			<vel value="0" flag="1"/>
			<psa03 value="0" flag="1"/>
			<psa10 value="0" flag="1"/>
			<psa30 value="0" flag="1"/>
		</comp>
	</station>
	<station code="KIAA" name="KIAA" netid="HL" source="National Observatory of Athens Seismic Network" insttype="" lat="38.0139" lon="22.7495" esm:processing="discarded" esm:quality="good">
		<comp name="00.HNE" depth="0.0">
			<acc value="0" flag="1"/>
			<vel value="0" flag="1"/>
			<psa03 value="0" flag="1"/>
			<psa10 value="0" flag="1"/>
			<psa30 value="0" flag="1"/>
		</comp>
