<?xml version="1.0" encoding="UTF-8" standalone="yes"?>
<!DOCTYPE earthquake SYSTEM "stationlist.dtd">
<stationlist created="" xmlns="ch.ethz.sed.shakemap.usgs.xml">
  <station code="AGRP" name="AGRP" netid="CL" source="RESIF" insttype="30" lat="38.3959" lon="21.7228">
    <comp name="00.HHE">
      <acc value="0.0062072372" flag="0"/>
      <vel value="0.0048096527" flag="0"/>
      <psa03 value="0.0208773682" flag="0"/>
      <psa10 value="0.0063663973" flag="0"/>
      <psa30 value="0.0007213730" flag="0"/>
    </comp>
    <comp name="00.HHN">
      <acc value="0.0069301361" flag="0"/>
      <vel value="0.0045124603" flag="0"/>
      <psa03 value="0.0139562192" flag="0"/>
      <psa10 value="0.0079322081" flag="0"/>
      <psa30 value="0.0004509251" flag="0"/>
    </comp>
    <comp name="00.HHZ">
      <acc value="0.0042976215" flag="0"/>
      <vel value="0.0031577022" flag="0"/>
      <psa03 value="0.0178285325" flag="0"/>
      <psa10 value="0.0037142363" flag="0"/>
      <psa30 value="0.0004158474" flag="0"/>
    </comp>
  </station>
  <station code="MALA" name="MALA" netid="CL" source="RESIF" insttype="30" lat="38.3935" lon="21.8726">
    <comp name="00.HH2">
      <acc value="0.0043010565" flag="0"/>
      <vel value="0.0036724117" flag="0"/>
      <psa03 value="0.0130075954" flag="0"/>
      <psa10 value="0.0053663719" flag="0"/>
      <psa30 value="0.0007231209" flag="0"/>
    </comp>
    <comp name="00.HH3">
      <acc value="0.0040026310" flag="0"/>
      <vel value="0.0031036433" flag="0"/>
      <psa03 value="0.0100601928" flag="0"/>
      <psa10 value="0.0042716042" flag="0"/>
      <psa30 value="0.0007443166" flag="0"/>
    </comp>
    <comp name="00.HHZ">
      <acc value="0.0023121754" flag="0"/>
      <vel value="0.0022101776" flag="0"/>
      <psa03 value="0.0052185087" flag="0"/>
      <psa10 value="0.0057476360" flag="0"/>
      <psa30 value="0.0003330330" flag="0"/>
    </comp>
  </station>
  <station code="ROD3" name="ROD3" netid="CL" source="RESIF" insttype="30" lat="38.3081" lon="21.892">
    <comp name="00.HHE">
      <acc value="0.0227597424" flag="0"/>
      <vel value="0.0149026067" flag="0"/>
      <psa03 value="0.1119435487" flag="0"/>
      <psa10 value="0.0218359209" flag="0"/>
      <psa30 value="0.0008497891" flag="0"/>
    </comp>
    <comp name="00.HHN">
      <acc value="0.0159024316" flag="0"/>
      <vel value="0.0117431013" flag="0"/>
      <psa03 value="0.0610858394" flag="0"/>
      <psa10 value="0.0178068329" flag="0"/>
      <psa30 value="0.0012563025" flag="0"/>
    </comp>
    <comp name="00.HHZ">
      <acc value="0.0113223020" flag="0"/>
      <vel value="0.0071332052" flag="0"/>
      <psa03 value="0.0187159891" flag="0"/>
      <psa10 value="0.0123387657" flag="0"/>
      <psa30 value="0.0005256724" flag="0"/>
    </comp>
  </station>
  <station code="ITM" name="ITM" netid="HL" source="NOA" insttype="DR24" lat="37.1787" lon="21.9252">
    <comp name="--.HHE">
      <acc value="0.0033020490" flag="0"/>
      <vel value="0.0026622266" flag="0"/>
      <psa03 value="0.0066014158" flag="0"/>
      <psa10 value="0.0037773207" flag="0"/>
      <psa30 value="0.0005799907" flag="0"/>
    </comp>
    <comp name="--.HHN">
      <acc value="0.0036145076" flag="0"/>
      <vel value="0.0027074229" flag="0"/>
      <psa03 value="0.0089922583" flag="0"/>
      <psa10 value="0.0040042930" flag="0"/>
      <psa30 value="0.0005282685" flag="0"/>
    </comp>
    <comp name="--.HHZ">
      <acc value="0.0034176946" flag="0"/>
      <vel value="0.0026915985" flag="0"/>
      <psa03 value="0.0059718617" flag="0"/>
      <psa10 value="0.0047289200" flag="0"/>
      <psa30 value="0.0005132550" flag="0"/>
    </comp>
  </station>
  <station code="KLV" name="KLV" netid="HL" source="NOA" insttype="120" lat="38.0435" lon="22.1504">
    <comp name="--.HHE">
      <acc value="0.0019478350" flag="0"/>
      <vel value="0.0020336855" flag="0"/>
      <psa03 value="0.0054169300" flag="0"/>
      <psa10 value="0.0026591445" flag="0"/>
      <psa30 value="0.0003055662" flag="0"/>
    </comp>
    <comp name="--.HHN">
      <acc value="0.0023323660" flag="0"/>
      <vel value="0.0027021560" flag="0"/>
      <psa03 value="0.0058159199" flag="0"/>
      <psa10 value="0.0036907725" flag="0"/>
      <psa30 value="0.0003500273" flag="0"/>
    </comp>
    <comp name="--.HHZ">
      <acc value="0.0021882601" flag="0"/>
      <vel value="0.0022676277" flag="0"/>
      <psa03 value="0.0056061938" flag="0"/>
      <psa10 value="0.0051081561" flag="0"/>
      <psa30 value="0.0003537125" flag="0"/>
    </comp>
  </station>
  <station code="RLS" name="RLS" netid="HL" source="NOA" insttype="120" lat="38.0559" lon="21.4647">
    <comp name="--.HHE">
      <acc value="0.0098561053" flag="0"/>
      <vel value="0.0046381702" flag="0"/>
      <psa03 value="0.0332300527" flag="0"/>
      <psa10 value="0.0043421093" flag="0"/>
      <psa30 value="0.0004117477" flag="0"/>
    </comp>
    <comp name="--.HHN">
      <acc value="0.0166004800" flag="0"/>
      <vel value="0.0063579544" flag="0"/>
      <psa03 value="0.0299227970" flag="0"/>
      <psa10 value="0.0069418392" flag="0"/>
      <psa30 value="0.0004240138" flag="0"/>
    </comp>
    <comp name="--.HHZ">
      <acc value="0.0052798747" flag="0"/>
      <vel value="0.0032773061" flag="0"/>
      <psa03 value="0.0176257800" flag="0"/>
      <psa10 value="0.0045593116" flag="0"/>
      <psa30 value="0.0004146075" flag="0"/>
    </comp>
  </station>
  <station code="VLS" name="VLS" netid="HL" source="NOA" insttype="120P," lat="38.1768" lon="20.5886">
    <comp name="--.HHE">
      <acc value="0.1791079359" flag="0"/>
      <vel value="0.0271178631" flag="0"/>
      <psa03 value="0.0788629927" flag="0"/>
      <psa10 value="0.0078187060" flag="0"/>
      <psa30 value="0.0006203635" flag="0"/>
    </comp>
    <comp name="--.HHN">
      <acc value="0.1445468088" flag="0"/>
      <vel value="0.0216883750" flag="0"/>
      <psa03 value="0.0901863322" flag="0"/>
      <psa10 value="0.0069576550" flag="0"/>
      <psa30 value="0.0005365339" flag="0"/>
    </comp>
    <comp name="--.HHZ">
      <acc value="0.0680989894" flag="0"/>
      <vel value="0.0112375373" flag="0"/>
      <psa03 value="0.0639125132" flag="0"/>
      <psa10 value="0.0065735149" flag="0"/>
      <psa30 value="0.0003408178" flag="0"/>
    </comp>
  </station>
  <station code="AMT" name="AMT" netid="HP" source="NOA" insttype="CMG-3T," lat="37.5324" lon="21.7089">
    <comp name="00.HHE">
      <acc value="0.0166199731" flag="0"/>
      <vel value="0.0170650602" flag="0"/>
      <psa03 value="0.0492513517" flag="0"/>
      <psa10 value="0.0236831739" flag="0"/>
      <psa30 value="0.0009730596" flag="0"/>
    </comp>
    <comp name="00.HHN">
      <acc value="0.0156532106" flag="0"/>
      <vel value="0.0132105280" flag="0"/>
      <psa03 value="0.0382196710" flag="0"/>
      <psa10 value="0.0173289884" flag="0"/>
      <psa30 value="0.0010377621" flag="0"/>
    </comp>
    <comp name="00.HHZ">
      <acc value="0.0090672034" flag="0"/>
      <vel value="0.0055590379" flag="0"/>
      <psa03 value="0.0234121696" flag="0"/>
      <psa10 value="0.0076231010" flag="0"/>
      <psa30 value="0.0006184428" flag="0"/>
    </comp>
  </station>
  <station code="FSK" name="FSK" netid="HP" source="NOA" insttype="40," lat="38.4593" lon="20.5623">
    <comp name="--.HHE">
      <acc value="0.0561343062" flag="0"/>
      <vel value="0.0183322951" flag="0"/>
      <psa03 value="0.0660673950" flag="0"/>
      <psa10 value="0.0178465354" flag="0"/>
      <psa30 value="0.0016271420" flag="0"/>
    </comp>
    <comp name="--.HHN">
      <acc value="0.0319886663" flag="0"/>
      <vel value="0.0116794490" flag="0"/>
      <psa03 value="0.0525732797" flag="0"/>
      <psa10 value="0.0083147049" flag="0"/>
      <psa30 value="0.0005699695" flag="0"/>
    </comp>
    <comp name="--.HHZ">
      <acc value="0.0280466944" flag="0"/>
      <vel value="0.0090663673" flag="0"/>
      <psa03 value="0.0428721973" flag="0"/>
      <psa10 value="0.0067391366" flag="0"/>
      <psa30 value="0.0003534260" flag="0"/>
    </comp>
  </station>
  <station code="PVO" name="PVO" netid="HP" source="NOA" insttype="120P," lat="38.616" lon="21.525">
    <comp name="--.HHE">
      <acc value="0.0151856610" flag="0"/>
      <vel value="0.0061419781" flag="0"/>
      <psa03 value="0.0584444382" flag="0"/>
      <psa10 value="0.0084315613" flag="0"/>
      <psa30 value="0.0006059394" flag="0"/>
    </comp>
    <comp name="--.HHN">
      <acc value="0.0164419657" flag="0"/>
      <vel value="0.0087709800" flag="0"/>
      <psa03 value="0.0422637179" flag="0"/>
      <psa10 value="0.0084226058" flag="0"/>
      <psa30 value="0.0004143467" flag="0"/>
    </comp>
    <comp name="--.HHZ">
      <acc value="0.0077231159" flag="0"/>
      <vel value="0.0030364205" flag="0"/>
      <psa03 value="0.0197478558" flag="0"/>
      <psa10 value="0.0042753924" flag="0"/>
      <psa30 value="0.0004012185" flag="0"/>
    </comp>
  </station>
  <station code="DMLN" name="DMLN" netid="HT" source="NOA" insttype="1s-100Hz," lat="38.2385" lon="20.3734">
    <comp name="--.HHE">
      <acc value="0.0996176999" flag="0"/>
      <vel value="0.0329141967" flag="0"/>
      <psa03 value="0.1266777241" flag="0"/>
      <psa10 value="0.0293918731" flag="0"/>
      <psa30 value="0.0012814350" flag="0"/>
    </comp>
    <comp name="--.HHN">
      <acc value="0.1460696650" flag="0"/>
      <vel value="0.0549054134" flag="0"/>
      <psa03 value="0.3760508665" flag="0"/>
      <psa10 value="0.0317236898" flag="0"/>
      <psa30 value="0.0017932770" flag="0"/>
    </comp>
    <comp name="--.HHZ">
      <acc value="0.0927620426" flag="0"/>
      <vel value="0.0346220150" flag="0"/>
      <psa03 value="0.1072731142" flag="0"/>
      <psa10 value="0.0130980538" flag="0"/>
      <psa30 value="0.0006789239" flag="0"/>
    </comp>
  </station>
  <station code="DRAG" name="DRAG" netid="HT" source="NOA" insttype="1s-100Hz," lat="38.6839" lon="20.5746">
    <comp name="--.HHE">
      <acc value="0.0003564125" flag="0"/>
      <vel value="0.0001491381" flag="0"/>
      <psa03 value="0.0010854135" flag="0"/>
      <psa10 value="0.0000919986" flag="0"/>
      <psa30 value="0.0000063201" flag="0"/>
    </comp>
    <comp name="--.HHN">
      <acc value="0.0001099463" flag="0"/>
      <vel value="0.0000277856" flag="0"/>
      <psa03 value="0.0001565941" flag="0"/>
      <psa10 value="0.0000137682" flag="0"/>
      <psa30 value="0.0000016500" flag="0"/>
    </comp>
    <comp name="--.HHZ">
      <acc value="0.0001896954" flag="0"/>
      <vel value="0.0000642092" flag="0"/>
      <psa03 value="0.0004699053" flag="0"/>
      <psa10 value="0.0000351631" flag="0"/>
      <psa30 value="0.0000039142" flag="0"/>
    </comp>
  </station>
  <station code="EVGI" name="EVGI" netid="HT" source="NOA" insttype="30" lat="38.621" lon="20.656">
    <comp name="--.HHE">
      <acc value="0.0495096274" flag="0"/>
      <vel value="0.0121643771" flag="0"/>
      <psa03 value="0.0501523022" flag="0"/>
      <psa10 value="0.0045087649" flag="0"/>
      <psa30 value="0.0005031773" flag="0"/>
    </comp>
    <comp name="--.HHN">
      <acc value="nan" flag="0"/>
      <vel value="-100.0000000000" flag="0"/>
      <psa03 value="0.0000000000" flag="0"/>
      <psa10 value="0.0000000000" flag="0"/>
      <psa30 value="0.0000000000" flag="0"/>
    </comp>
    <comp name="--.HHZ">
      <acc value="0.0320162475" flag="0"/>
      <vel value="0.0104659898" flag="0"/>
      <psa03 value="0.0523932711" flag="0"/>
      <psa10 value="0.0040294360" flag="0"/>
      <psa30 value="0.0003158311" flag="0"/>
    </comp>
  </station>
  <station code="LKD2" name="LKD2" netid="HT" source="NOA" insttype="100" lat="38.7889" lon="20.6578">
    <comp name="--.HHE">
      <acc value="0.0215747619" flag="0"/>
      <vel value="0.0097797011" flag="0"/>
      <psa03 value="0.0526471072" flag="0"/>
      <psa10 value="0.0076560284" flag="0"/>
      <psa30 value="0.0007521307" flag="0"/>
    </comp>
    <comp name="--.HHN">
      <acc value="0.0208833209" flag="0"/>
      <vel value="0.0083622229" flag="0"/>
      <psa03 value="0.0467518369" flag="0"/>
      <psa10 value="0.0088192529" flag="0"/>
      <psa30 value="0.0005475824" flag="0"/>
    </comp>
    <comp name="--.HHZ">
      <acc value="0.0154029276" flag="0"/>
      <vel value="0.0064016503" flag="0"/>
      <psa03 value="0.0397798384" flag="0"/>
      <psa10 value="0.0056926232" flag="0"/>
      <psa30 value="0.0003731739" flag="0"/>
    </comp>
  </station>
  <station code="NYDR" name="NYDR" netid="HT" source="NOA" insttype="1s-100Hz," lat="38.7135" lon="20.6983">
    <comp name="--.HHE">
      <acc value="0.0194353579" flag="0"/>
      <vel value="0.0094458923" flag="0"/>
      <psa03 value="0.0412155915" flag="0"/>
      <psa10 value="0.0112836978" flag="0"/>
      <psa30 value="0.0005457876" flag="0"/>
    </comp>
    <comp name="--.HHN">
      <acc value="0.0248954933" flag="0"/>
      <vel value="0.0112740103" flag="0"/>
      <psa03 value="0.0600989626" flag="0"/>
      <psa10 value="0.0080685389" flag="0"/>
      <psa30 value="0.0003440112" flag="0"/>
    </comp>
    <comp name="--.HHZ">
      <acc value="0.0143858229" flag="0"/>
      <vel value="0.0053397740" flag="0"/>
      <psa03 value="0.0351809690" flag="0"/>
      <psa10 value="0.0052777201" flag="0"/>
      <psa30 value="0.0002849665" flag="0"/>
    </comp>
  </station>
  <station code="PSDA" name="PSDA" netid="HT" source="NOA" insttype="30" lat="38.114" lon="20.5841">
    <comp name="--.HHE">
      <acc value="0.1415877963" flag="0"/>
      <vel value="0.0430967465" flag="0"/>
      <psa03 value="0.1973848119" flag="0"/>
      <psa10 value="0.0165215961" flag="0"/>
      <psa30 value="0.0008357584" flag="0"/>
    </comp>
    <comp name="--.HHN">
      <acc value="0.1425425947" flag="0"/>
      <vel value="0.0274226567" flag="0"/>
      <psa03 value="0.1382828715" flag="0"/>
      <psa10 value="0.0135437733" flag="0"/>
      <psa30 value="0.0006888264" flag="0"/>
    </comp>
    <comp name="--.HHZ">
      <acc value="0.1120372331" flag="0"/>
      <vel value="0.0222538454" flag="0"/>
      <psa03 value="0.0587464289" flag="0"/>
      <psa10 value="0.0050651552" flag="0"/>
      <psa30 value="0.0004227831" flag="0"/>
    </comp>
  </station>
  <station code="TSLK" name="TSLK" netid="HT" source="NOA" insttype="1s-100Hz," lat="38.8249" lon="20.6554">
    <comp name="--.HHE">
      <acc value="0.0259836737" flag="0"/>
      <vel value="0.0137281223" flag="0"/>
      <psa03 value="0.0990871024" flag="0"/>
      <psa10 value="0.0141620310" flag="0"/>
      <psa30 value="0.0011332135" flag="0"/>
    </comp>
    <comp name="--.HHN">
      <acc value="0.0227668187" flag="0"/>
      <vel value="0.0133333777" flag="0"/>
      <psa03 value="0.0940584325" flag="0"/>
      <psa10 value="0.0151726886" flag="0"/>
      <psa30 value="0.0008367747" flag="0"/>
    </comp>
    <comp name="--.HHZ">
      <acc value="0.0099229277" flag="0"/>
      <vel value="0.0057733085" flag="0"/>
      <psa03 value="0.0246273044" flag="0"/>
      <psa10 value="0.0043439804" flag="0"/>
      <psa30 value="0.0005511494" flag="0"/>
    </comp>
  </station>
  <station code="KLV" name="KLV" netid="MN" source="INGV" insttype="" lat="38.0437" lon="22.1504">
    <comp name="--.HHE">
      <acc value="0.0019801193" flag="0"/>
      <vel value="0.0020542325" flag="0"/>
      <psa03 value="0.0055402352" flag="0"/>
      <psa10 value="0.0026751308" flag="0"/>
      <psa30 value="0.0003064261" flag="0"/>
    </comp>
    <comp name="--.HHN">
      <acc value="0.0023787543" flag="0"/>
      <vel value="0.0027340791" flag="0"/>
      <psa03 value="0.0059535469" flag="0"/>
      <psa10 value="0.0037100246" flag="0"/>
      <psa30 value="0.0003511132" flag="0"/>
    </comp>
    <comp name="--.HHZ">
      <acc value="0.0022266683" flag="0"/>
      <vel value="0.0022821571" flag="0"/>
      <psa03 value="0.0057220843" flag="0"/>
      <psa10 value="0.0051400002" flag="0"/>
      <psa30 value="0.0003549083" flag="0"/>
    </comp>
  </station>
</stationlist>
