<stationlist created="1778069664">
	<station code="IMMV" name="IMMV" netid="GE" source="GEOFON" insttype="" lat="35.4606" lon="23.9811">
		<comp name="--.HNE" depth="0.0">
			<acc value="0.00831538708623646" flag="0"/>
			<vel value="0.00780373359853931" flag="0"/>
			<psa03 value="0.0212972903502974" flag="0"/>
			<psa10 value="0.0179071733548309" flag="0"/>
			<psa30 value="0.0011959591829064" flag="0"/>
		</comp>
		<comp name="--.HNN" depth="0.0">
			<acc value="0.00698578258489032" flag="0"/>
			<vel value="0.0050741664472552" flag="0"/>
			<psa03 value="0.0234449162679744" flag="0"/>
			<psa10 value="0.0116374479414125" flag="0"/>
			<psa30 value="0.00155792363444822" flag="0"/>
		</comp>
		<comp name="--.HNZ" depth="0.0">
			<acc value="0.00694547820198543" flag="0"/>
			<vel value="0.00595926394719821" flag="0"/>
			<psa03 value="0.0227737831687003" flag="0"/>
			<psa10 value="0.00916096680509114" flag="0"/>
			<psa30 value="0.00122325192894355" flag="0"/>
		</comp>
	</station>
	<station code="KARP" name="KARP" netid="GE" source="GEOFON" insttype="" lat="35.5471" lon="27.16106">
		<comp name="--.HNE" depth="0.0">
			<acc value="0.0128601909228725" flag="0"/>
			<vel value="0.0140777751162695" flag="0"/>
			<psa03 value="0.018925953399529" flag="0"/>
			<psa10 value="0.0161716231601081" flag="0"/>
			<psa30 value="0.00172839144166384" flag="0"/>
		</comp>
		<comp name="--.HNN" depth="0.0">
			<acc value="0.0100669798091047" flag="0"/>
			<vel value="0.0087983268686131" flag="0"/>
			<psa03 value="0.0151228658369759" flag="0"/>
			<psa10 value="0.0120562349953595" flag="0"/>
			<psa30 value="0.00148096703906479" flag="0"/>
		</comp>
		<comp name="--.HNZ" depth="0.0">
			<acc value="0.00854672197327471" flag="0"/>
			<vel value="0.00565790014125925" flag="0"/>
			<psa03 value="0.0148991548038845" flag="0"/>
			<psa10 value="0.0106549090840752" flag="0"/>
			<psa30 value="0.00183443047134914" flag="0"/>
		</comp>
	</station>
	<station code="KTHA" name="KTHA" netid="GE" source="GEOFON" insttype="" lat="36.2566" lon="23.0621">
		<comp name="--.HNE" depth="0.0">
			<acc value="0.00372799126578413" flag="0"/>
			<vel value="0.00495184774449922" flag="0"/>
			<psa03 value="0.00644287775303113" flag="0"/>
			<psa10 value="0.00613684105976215" flag="0"/>
			<psa30 value="0.00299235877863001" flag="0"/>
		</comp>
		<comp name="--.HNN" depth="0.0">
			<acc value="0.00232281175271866" flag="0"/>
			<vel value="0.00203784603295927" flag="0"/>
			<psa03 value="0.00465318948830026" flag="0"/>
			<psa10 value="0.00408317377598348" flag="0"/>
			<psa30 value="0.000865761698063558" flag="0"/>
		</comp>
		<comp name="--.HNZ" depth="0.0">
			<acc value="0.00225559645872323" flag="0"/>
			<vel value="0.00351505221537535" flag="0"/>
			<psa03 value="0.00340040770298865" flag="0"/>
			<psa10 value="0.00417176334508766" flag="0"/>
			<psa30 value="0.00174807801257588" flag="0"/>
		</comp>
	</station>
	<station code="SIT2" name="SIT2" netid="HI" source="ITSAK Strong Motion Network" insttype="" lat="35.2059" lon="26.107">
		<comp name="--.HNE" depth="0.0">
			<acc value="0.261492877426128" flag="0"/>
			<vel value="0.208599962778552" flag="0"/>
			<psa03 value="0.629522847119084" flag="0"/>
			<psa10 value="0.104837701437603" flag="0"/>
			<psa30 value="0.00955693533366284" flag="0"/>
		</comp>
		<comp name="--.HNN" depth="0.0">
			<acc value="0.236510284509426" flag="0"/>
			<vel value="0.146043065841268" flag="0"/>
			<psa03 value="0.585988680079505" flag="0"/>
			<psa10 value="0.114441616088215" flag="0"/>
			<psa30 value="0.00677575977027107" flag="0"/>
		</comp>
		<comp name="--.HNZ" depth="0.0">
			<acc value="0.107181773554851" flag="0"/>
			<vel value="0.0479591303622269" flag="0"/>
			<psa03 value="0.249974708376284" flag="0"/>
			<psa10 value="0.0386854541083563" flag="0"/>
			<psa30 value="0.00354537245243185" flag="0"/>
		</comp>
	</station>
	<station code="IACM" name="IACM" netid="HL" source="National Observatory of Athens Seismic Network" insttype="" lat="35.3058" lon="25.0709">
		<comp name="--.HNE" depth="0.0">
			<acc value="0.0713194190541936" flag="0"/>
			<vel value="0.0654558410006121" flag="0"/>
			<psa03 value="0.224382166190633" flag="0"/>
			<psa10 value="0.124472371389966" flag="0"/>
			<psa30 value="0.00629388620499229" flag="0"/>
		</comp>
		<comp name="--.HNN" depth="0.0">
			<acc value="0.0814770773114379" flag="0"/>
			<vel value="0.0730886365173437" flag="0"/>
			<psa03 value="0.236238850944475" flag="0"/>
			<psa10 value="0.153972697901657" flag="0"/>
			<psa30 value="0.00569255094804271" flag="0"/>
		</comp>
		<comp name="--.HNZ" depth="0.0">
			<acc value="0.0442043066076867" flag="0"/>
			<vel value="0.0291147932992861" flag="0"/>
			<psa03 value="0.106575936164723" flag="0"/>
			<psa10 value="0.03764654007068" flag="0"/>
			<psa30 value="0.00356282191301298" flag="0"/>
		</comp>
	</station>
	<station code="IMMV" name="IMMV" netid="HL" source="National Observatory of Athens Seismic Network" insttype="" lat="35.4606" lon="23.9811">
		<comp name="--.HNE" depth="0.0">
			<acc value="0.00816751572063284" flag="0"/>
			<vel value="0.00762871772171159" flag="0"/>
			<psa03 value="0.0208498682841146" flag="0"/>
			<psa10 value="0.0175447614812229" flag="0"/>
			<psa30 value="0.00117358807959727" flag="0"/>
		</comp>
		<comp name="--.HNN" depth="0.0">
			<acc value="0.00684989505333217" flag="0"/>
			<vel value="0.00538962525437874" flag="0"/>
			<psa03 value="0.0229974942017917" flag="0"/>
			<psa10 value="0.0113998668242695" flag="0"/>
			<psa30 value="0.00172391722100201" flag="0"/>
		</comp>
		<comp name="--.HNZ" depth="0.0">
			<acc value="0.00682896759805815" flag="0"/>
			<vel value="0.00584107331067283" flag="0"/>
			<psa03 value="0.0222816188958993" flag="0"/>
			<psa10 value="0.0089757340696915" flag="0"/>
			<psa30 value="0.0015248144015507" flag="0"/>
		</comp>
	</station>
	<station code="SIVA" name="SIVA" netid="HL" source="National Observatory of Athens Seismic Network" insttype="" lat="35.01777" lon="24.81204">
		<comp name="00.HNE" depth="0.0">
			<acc value="0.108194369337528" flag="0"/>
			<vel value="0.081871369374685" flag="0"/>
			<psa03 value="0.303038965425555" flag="0"/>
			<psa10 value="0.0922136878402581" flag="0"/>
			<psa30 value="0.0047453584339339" flag="0"/>
		</comp>
		<comp name="00.HNN" depth="0.0">
			<acc value="0.0808570965882297" flag="0"/>
			<vel value="0.0591497805304388" flag="0"/>
			<psa03 value="0.242144822218087" flag="0"/>
			<psa10 value="0.0694703293720582" flag="0"/>
			<psa30 value="0.00411449332061627" flag="0"/>
		</comp>
		<comp name="00.HNZ" depth="0.0">
			<acc value="0.0448735042089238" flag="0"/>
			<vel value="0.0350963410845149" flag="0"/>
			<psa03 value="0.129976110226079" flag="0"/>
			<psa10 value="0.0697199908849881" flag="0"/>
			<psa30 value="0.00272569522718511" flag="0"/>
		</comp>
	</station>
</stationlist>
