<?xml version="1.0" encoding="UTF-8" standalone="yes"?>
<!DOCTYPE earthquake SYSTEM "stationlist.dtd">
<stationlist created="" xmlns="ch.ethz.sed.shakemap.usgs.xml">
  <station code="ZKR" name="ZKR" netid="GE" insttype="STS-2/N" lat="35.1147" lon="26.2169">
    <comp name="--.HHN">
      <acc value="0.0577330017" flag="0"/>
      <vel value="0.0404507359" flag="0"/>
      <psa03 value="0.1688298476" flag="0"/>
      <psa10 value="0.0497505217" flag="0"/>
      <psa30 value="0.0032941310" flag="0"/>
    </comp>
    <comp name="--.HHZ">
      <acc value="0.0579425408" flag="0"/>
      <vel value="0.0490892422" flag="0"/>
      <psa03 value="0.1349763266" flag="0"/>
      <psa10 value="0.0642931549" flag="0"/>
      <psa30 value="0.0053545244" flag="0"/>
    </comp>
  </station>
  <station code="SIT2" name="SIT2" netid="HI" insttype="CMG-5TD,ACCELEROMETER,GURALP" lat="35.2059" lon="26.107">
    <comp name="--.HNE">
      <acc value="0.2615699864" flag="0"/>
      <vel value="0.2088462106" flag="0"/>
      <psa03 value="0.6288002332" flag="0"/>
      <psa10 value="0.1044155958" flag="0"/>
      <psa30 value="0.0092790194" flag="0"/>
    </comp>
    <comp name="--.HNZ">
      <acc value="0.1075012964" flag="0"/>
      <vel value="0.0473152903" flag="0"/>
      <psa03 value="0.2506480357" flag="0"/>
      <psa10 value="0.0385787446" flag="0"/>
      <psa30 value="0.0033018709" flag="0"/>
    </comp>
    <comp name="--.HNN">
      <acc value="0.2362035403" flag="0"/>
      <vel value="0.1452717610" flag="0"/>
      <psa03 value="0.5893779268" flag="0"/>
      <psa10 value="0.1140399531" flag="0"/>
      <psa30 value="0.0065542854" flag="0"/>
    </comp>
  </station>
  <station code="IACM" name="IACM" netid="HL" insttype="120" lat="35.3058" lon="25.0709">
    <comp name="--.HHZ">
      <acc value="0.0387608387" flag="0"/>
      <vel value="0.0317519091" flag="0"/>
      <psa03 value="0.1043304681" flag="0"/>
      <psa10 value="0.0587958118" flag="0"/>
      <psa30 value="0.0029291592" flag="0"/>
    </comp>
    <comp name="--.HHN">
      <acc value="0.0537573297" flag="0"/>
      <vel value="0.0404167108" flag="0"/>
      <psa03 value="0.1917638251" flag="0"/>
      <psa10 value="0.0662552055" flag="0"/>
      <psa30 value="0.0033642654" flag="0"/>
    </comp>
    <comp name="--.HHE">
      <acc value="0.0708754411" flag="0"/>
      <vel value="0.0617473190" flag="0"/>
      <psa03 value="0.2476956211" flag="0"/>
      <psa10 value="0.1051542132" flag="0"/>
      <psa30 value="0.0055952531" flag="0"/>
    </comp>
  </station>
  <station code="IDI" name="IDI" netid="HL" insttype="120" lat="35.288" lon="24.89">
    <comp name="--.HHE">
      <acc value="0.0105049227" flag="0"/>
      <vel value="0.0066239819" flag="0"/>
      <psa03 value="0.0413398671" flag="0"/>
      <psa10 value="0.0084552231" flag="0"/>
      <psa30 value="0.0014385329" flag="0"/>
    </comp>
    <comp name="--.HHZ">
      <acc value="0.0108401909" flag="0"/>
      <vel value="0.0073793414" flag="0"/>
      <psa03 value="0.0449422059" flag="0"/>
      <psa10 value="0.0102954775" flag="0"/>
      <psa30 value="0.0012247810" flag="0"/>
    </comp>
    <comp name="--.HHN">
      <acc value="0.0082208711" flag="0"/>
      <vel value="0.0068675959" flag="0"/>
      <psa03 value="0.0281814025" flag="0"/>
      <psa10 value="0.0077259849" flag="0"/>
      <psa30 value="0.0009993165" flag="0"/>
    </comp>
  </station>
  <station code="NPS" name="NPS" netid="HL" insttype="CMG3ESPC-120s" lat="35.2613" lon="25.6104">
    <comp name="--.HHN">
      <acc value="0.0252896613" flag="0"/>
      <vel value="0.0185637671" flag="0"/>
      <psa03 value="0.0634537182" flag="0"/>
      <psa10 value="0.0253578666" flag="0"/>
      <psa30 value="0.0037972300" flag="0"/>
    </comp>
    <comp name="--.HHZ">
      <acc value="0.0234637822" flag="0"/>
      <vel value="0.0090493161" flag="0"/>
      <psa03 value="0.0474874342" flag="0"/>
      <psa10 value="0.0158954635" flag="0"/>
      <psa30 value="0.0016199827" flag="0"/>
    </comp>
    <comp name="--.HHE">
      <acc value="0.0116906091" flag="0"/>
      <vel value="0.0146621791" flag="0"/>
      <psa03 value="0.0379105559" flag="0"/>
      <psa10 value="0.0167347939" flag="0"/>
      <psa30 value="0.0029836706" flag="0"/>
    </comp>
  </station>
  <station code="SIVA" name="SIVA" netid="HL" insttype="60" lat="35.0178" lon="24.812">
    <comp name="--.HHE">
      <acc value="0.1157286957" flag="0"/>
      <vel value="0.0862405030" flag="0"/>
      <psa03 value="0.3285023403" flag="0"/>
      <psa10 value="0.0973526372" flag="0"/>
      <psa30 value="0.0051228531" flag="0"/>
    </comp>
    <comp name="--.HHN">
      <acc value="0.0763588531" flag="0"/>
      <vel value="0.0528811661" flag="0"/>
      <psa03 value="0.2284391169" flag="0"/>
      <psa10 value="0.0612935724" flag="0"/>
      <psa30 value="0.0033190127" flag="0"/>
    </comp>
    <comp name="--.HHZ">
      <acc value="0.0461306866" flag="0"/>
      <vel value="0.0354159939" flag="0"/>
      <psa03 value="0.1319523446" flag="0"/>
      <psa10 value="0.0696804103" flag="0"/>
      <psa30 value="0.0025361667" flag="0"/>
    </comp>
  </station>
  <station code="ZKR" name="ZKR" netid="HL" insttype="120" lat="35.1147" lon="26.2169">
    <comp name="--.HHZ">
      <acc value="0.0564770055" flag="0"/>
      <vel value="0.0487992861" flag="0"/>
      <psa03 value="0.1313986369" flag="0"/>
      <psa10 value="0.0639463589" flag="0"/>
      <psa30 value="0.0053364822" flag="0"/>
    </comp>
    <comp name="--.HHE">
      <acc value="0.0722629427" flag="0"/>
      <vel value="0.0625025302" flag="0"/>
      <psa03 value="0.2059834378" flag="0"/>
      <psa10 value="0.0800062627" flag="0"/>
      <psa30 value="0.0071525214" flag="0"/>
    </comp>
    <comp name="--.HHN">
      <acc value="0.0561649602" flag="0"/>
      <vel value="0.0398499052" flag="0"/>
      <psa03 value="0.1642583090" flag="0"/>
      <psa10 value="0.0493936041" flag="0"/>
      <psa30 value="0.0032752783" flag="0"/>
    </comp>
  </station>
  <station code="IDI" name="IDI" netid="MN" insttype="" lat="35.288" lon="24.89">
    <comp name="--.HHN">
      <acc value="0.0084570614" flag="0"/>
      <vel value="0.0068940730" flag="0"/>
      <psa03 value="0.0283665684" flag="0"/>
      <psa10 value="0.0076705147" flag="0"/>
      <psa30 value="0.0009875850" flag="0"/>
    </comp>
    <comp name="--.HHE">
      <acc value="0.0106583943" flag="0"/>
      <vel value="0.0066272820" flag="0"/>
      <psa03 value="0.0420862721" flag="0"/>
      <psa10 value="0.0084008648" flag="0"/>
      <psa30 value="0.0014234894" flag="0"/>
    </comp>
    <comp name="--.HHZ">
      <acc value="0.0110094059" flag="0"/>
      <vel value="0.0073810443" flag="0"/>
      <psa03 value="0.0454410039" flag="0"/>
      <psa10 value="0.0102482101" flag="0"/>
      <psa30 value="0.0012108522" flag="0"/>
    </comp>
  </station>
</stationlist>
