<?xml version="1.0" encoding="UTF-8" standalone="yes"?>
<!DOCTYPE earthquake SYSTEM "stationlist.dtd">
<stationlist created="" xmlns="ch.ethz.sed.shakemap.usgs.xml">
  <station code="RDI1" name="RDI1" netid="HI" insttype="CMG-5TD,ACCELEROMETER,GURALP" lat="36.4514" lon="28.224">
    <comp name="--.HNZ">
      <acc value="0.0627001180" flag="0"/>
      <vel value="0.0243589834" flag="0"/>
      <psa03 value="0.0642030257" flag="0"/>
      <psa10 value="0.0256621199" flag="0"/>
      <psa30 value="0.0018257263" flag="0"/>
    </comp>
    <comp name="--.HNE">
      <acc value="0.0662551962" flag="0"/>
      <vel value="0.0386275980" flag="0"/>
      <psa03 value="0.1219011965" flag="0"/>
      <psa10 value="0.0415303461" flag="0"/>
      <psa30 value="0.0036191486" flag="0"/>
    </comp>
    <comp name="--.HNN">
      <acc value="0.1317055882" flag="0"/>
      <vel value="0.0571443563" flag="0"/>
      <psa03 value="0.1286277747" flag="0"/>
      <psa10 value="0.0547814567" flag="0"/>
      <psa30 value="0.0061635083" flag="0"/>
    </comp>
  </station>
  <station code="ARG" name="ARG" netid="HL" insttype="LE3D20_DR24" lat="36.2136" lon="28.1212">
    <comp name="--.HHN">
      <acc value="0.0713948459" flag="0"/>
      <vel value="0.0271579614" flag="0"/>
      <psa03 value="0.0632763244" flag="0"/>
      <psa10 value="0.0331896137" flag="0"/>
      <psa30 value="0.0026925274" flag="0"/>
    </comp>
    <comp name="--.HHZ">
      <acc value="0.0502345158" flag="0"/>
      <vel value="0.0183183909" flag="0"/>
      <psa03 value="0.0385890640" flag="0"/>
      <psa10 value="0.0242040231" flag="0"/>
      <psa30 value="0.0012217535" flag="0"/>
    </comp>
    <comp name="--.HHE">
      <acc value="0.1078561644" flag="0"/>
      <vel value="0.0290665283" flag="0"/>
      <psa03 value="0.1108789738" flag="0"/>
      <psa10 value="0.0237378165" flag="0"/>
      <psa30 value="0.0012671075" flag="0"/>
    </comp>
  </station>
  <station code="KSL" name="KSL" netid="HL" insttype="60" lat="36.1503" lon="29.5856">
    <comp name="--.HHE">
      <acc value="0.0098505279" flag="0"/>
      <vel value="0.0064490559" flag="0"/>
      <psa03 value="0.0368914180" flag="0"/>
      <psa10 value="0.0079654437" flag="0"/>
      <psa30 value="0.0007806340" flag="0"/>
    </comp>
    <comp name="--.HHZ">
      <acc value="0.0084602544" flag="0"/>
      <vel value="0.0042753647" flag="0"/>
      <psa03 value="0.0376514230" flag="0"/>
      <psa10 value="0.0061217917" flag="0"/>
      <psa30 value="0.0006732379" flag="0"/>
    </comp>
    <comp name="--.HHN">
      <acc value="0.0073080987" flag="0"/>
      <vel value="0.0045735590" flag="0"/>
      <psa03 value="0.0170690488" flag="0"/>
      <psa10 value="0.0066556795" flag="0"/>
      <psa30 value="0.0009837770" flag="0"/>
    </comp>
  </station>
  <station code="RODB" name="RODB" netid="HL" insttype="CMG-5" lat="36.4471" lon="28.2212">
    <comp name="00.HNE">
      <acc value="0.0707436995" flag="0"/>
      <vel value="0.0329223205" flag="0"/>
      <psa03 value="0.1144155534" flag="0"/>
      <psa10 value="0.0426821598" flag="0"/>
      <psa30 value="0.0042584246" flag="0"/>
    </comp>
    <comp name="00.HNZ">
      <acc value="0.0683357146" flag="0"/>
      <vel value="0.0198408293" flag="0"/>
      <psa03 value="0.0596249750" flag="0"/>
      <psa10 value="0.0277892392" flag="0"/>
      <psa30 value="0.0013118255" flag="0"/>
    </comp>
    <comp name="00.HNN">
      <acc value="0.0888397536" flag="0"/>
      <vel value="0.0504245749" flag="0"/>
      <psa03 value="0.1127620088" flag="0"/>
      <psa10 value="0.0665125578" flag="0"/>
      <psa30 value="0.0035189047" flag="0"/>
    </comp>
  </station>
  <station code="CAME" name="CAME" netid="KO" insttype="100" lat="36.9435" lon="29.3023">
    <comp name="--.HNN">
      <acc value="0.0320975320" flag="0"/>
      <vel value="0.0133084202" flag="0"/>
      <psa03 value="0.0777567221" flag="0"/>
      <psa10 value="0.0123487574" flag="0"/>
      <psa30 value="0.0009579785" flag="0"/>
    </comp>
    <comp name="--.HNZ">
      <acc value="0.0196476673" flag="0"/>
      <vel value="0.0095709852" flag="0"/>
      <psa03 value="0.0770526007" flag="0"/>
      <psa10 value="0.0057546074" flag="0"/>
      <psa30 value="0.0007736266" flag="0"/>
    </comp>
  </station>
  <station code="FETI" name="FETI" netid="KO" insttype="100" lat="36.6903" lon="29.0968">
    <comp name="--.HNE">
      <acc value="0.4639231558" flag="0"/>
      <vel value="0.0663443147" flag="0"/>
      <psa03 value="0.1229915551" flag="0"/>
      <psa10 value="0.0375051619" flag="0"/>
      <psa30 value="0.0028317407" flag="0"/>
    </comp>
    <comp name="--.HNN">
      <acc value="0.0029648960" flag="0"/>
      <vel value="0.0112012312" flag="0"/>
      <psa03 value="0.0021371849" flag="0"/>
      <psa10 value="0.0025935209" flag="0"/>
      <psa30 value="0.0030726761" flag="0"/>
    </comp>
    <comp name="--.HNZ">
      <acc value="0.1295550117" flag="0"/>
      <vel value="0.0306195314" flag="0"/>
      <psa03 value="0.0961729199" flag="0"/>
      <psa10 value="0.0119107614" flag="0"/>
      <psa30 value="0.0011173294" flag="0"/>
    </comp>
  </station>
</stationlist>
