<stationlist xmlns:esm="https://esm-db.eu/esmws/shakemap/1/" created="1780711021">
	<station code="KOS2" name="KOS2" netid="HI" source="ITSAK Strong Motion Network" insttype="" lat="36.8941" lon="27.2888" esm:processing="manual (Paolucci et al 2011)" esm:quality="good">
		<comp name="--.HNE" depth="0.0">
			<acc value="0.0162799223240918" flag="0"/>
			<vel value="0.014582668822983" flag="0"/>
			<psa03 value="0.0458263586880256" flag="0"/>
			<psa10 value="0.0166778179485886" flag="0"/>
			<psa30 value="0.00176060788163154" flag="0"/>
		</comp>
		<comp name="--.HNN" depth="0.0">
			<acc value="0.0152102703257036" flag="0"/>
			<vel value="0.00977539498699725" flag="0"/>
			<psa03 value="0.0621144064412517" flag="0"/>
			<psa10 value="0.0118515107294216" flag="0"/>
			<psa30 value="0.0013628882013213" flag="0"/>
		</comp>
		<comp name="--.HNZ" depth="0.0">
			<acc value="0.00663717571379048" flag="0"/>
			<vel value="0.00594313838284689" flag="0"/>
			<psa03 value="0.0173731990662582" flag="0"/>
			<psa10 value="0.00739472908326032" flag="0"/>
			<psa30 value="0.000516761628755104" flag="0"/>
		</comp>
	</station>
	<station code="RDI1" name="RDI1" netid="HI" source="ITSAK Strong Motion Network" insttype="" lat="36.4514" lon="28.224" esm:processing="manual (Paolucci et al 2011)" esm:quality="best">
		<comp name="--.HNE" depth="0.0">
			<acc value="0.0658019363906035" flag="0"/>
			<vel value="0.0389309928833469" flag="0"/>
			<psa03 value="0.121117153315662" flag="0"/>
			<psa10 value="0.0416411242775593" flag="0"/>
			<psa30 value="0.00383843390578153" flag="0"/>
		</comp>
		<comp name="--.HNN" depth="0.0">
			<acc value="0.131286228775204" flag="0"/>
			<vel value="0.0574328642366855" flag="0"/>
			<psa03 value="0.129304977126805" flag="0"/>
			<psa10 value="0.0548812380600383" flag="0"/>
			<psa30 value="0.00669298668802727" flag="0"/>
		</comp>
		<comp name="--.HNZ" depth="0.0">
			<acc value="0.0626480181708502" flag="0"/>
			<vel value="0.0244726642774602" flag="0"/>
			<psa03 value="0.0649656840097306" flag="0"/>
			<psa10 value="0.0256950018388073" flag="0"/>
			<psa30 value="0.00189259533995289" flag="0"/>
		</comp>
	</station>
	<station code="RKL1" name="RKL1" netid="HI" source="ITSAK Strong Motion Network" insttype="" lat="36.336699" lon="28.171224" esm:processing="manual (Paolucci et al 2011)" esm:quality="good">
		<comp name="--.HNE" depth="0.0">
			<acc value="0.156299869000372" flag="0"/>
			<vel value="0.0787942699135363" flag="0"/>
			<psa03 value="0.286919402835644" flag="0"/>
			<psa10 value="0.0688653019882833" flag="0"/>
			<psa30 value="0.00326376745857639" flag="0"/>
		</comp>
		<comp name="--.HNN" depth="0.0">
			<acc value="0.173336029321748" flag="0"/>
			<vel value="0.0791496370951789" flag="0"/>
			<psa03 value="0.293066664228208" flag="0"/>
			<psa10 value="0.0623506966776535" flag="0"/>
			<psa30 value="0.00402729345509313" flag="0"/>
		</comp>
		<comp name="--.HNZ" depth="0.0">
			<acc value="0.114014156942008" flag="0"/>
			<vel value="0.0427705389079727" flag="0"/>
			<psa03 value="0.123253362847059" flag="0"/>
			<psa10 value="0.0311387890419528" flag="0"/>
			<psa30 value="0.00191409429935344" flag="0"/>
		</comp>
	</station>
	<station code="RKT1" name="RKT1" netid="HI" source="ITSAK Strong Motion Network" insttype="" lat="35.954336" lon="27.767327" esm:processing="automatic (Paolucci et al 2011)" esm:quality="best">
		<comp name="--.HNE" depth="0.0">
			<acc value="0.0459589533140498" flag="0"/>
			<vel value="0.015995120276766" flag="0"/>
			<psa03 value="0.0694633411887787" flag="0"/>
			<psa10 value="0.0105176861200873" flag="0"/>
			<psa30 value="0.00084069308762448" flag="0"/>
		</comp>
		<comp name="--.HNN" depth="0.0">
			<acc value="0.0379363195066428" flag="0"/>
			<vel value="0.0118765523879375" flag="0"/>
			<psa03 value="0.0523521347386621" flag="0"/>
			<psa10 value="0.0101838896327082" flag="0"/>
			<psa30 value="0.000543568039964954" flag="0"/>
		</comp>
		<comp name="--.HNZ" depth="0.0">
			<acc value="0.0204517759161904" flag="0"/>
			<vel value="0.00556719470627803" flag="0"/>
			<psa03 value="0.0160339996737876" flag="0"/>
			<psa10 value="0.0064352406781124" flag="0"/>
			<psa30 value="0.000649944149360134" flag="0"/>
		</comp>
	</station>
	<station code="RPN1" name="RPN1" netid="HI" source="ITSAK Strong Motion Network" insttype="" lat="36.448678" lon="28.218047" esm:processing="automatic (Paolucci et al 2011)" esm:quality="best">
		<comp name="--.HNE" depth="0.0">
			<acc value="0.0782038313194344" flag="0"/>
			<vel value="0.034697282588005" flag="0"/>
			<psa03 value="0.117412330073971" flag="0"/>
			<psa10 value="0.0505584454988863" flag="0"/>
			<psa30 value="0.00283446297759477" flag="0"/>
		</comp>
		<comp name="--.HNN" depth="0.0">
			<acc value="0.096462987895691" flag="0"/>
			<vel value="0.0512089546506776" flag="0"/>
			<psa03 value="0.145237079577069" flag="0"/>
			<psa10 value="0.0930660451687479" flag="0"/>
			<psa30 value="0.00582097852792626" flag="0"/>
		</comp>
		<comp name="--.HNZ" depth="0.0">
			<acc value="0.0943017150784192" flag="0"/>
			<vel value="0.0273629847604485" flag="0"/>
			<psa03 value="0.0761397522182433" flag="0"/>
			<psa10 value="0.0418179852362899" flag="0"/>
			<psa30 value="0.00193711519937509" flag="0"/>
		</comp>
	</station>
	<station code="RSO1" name="RSO1" netid="HI" source="ITSAK Strong Motion Network" insttype="" lat="36.3632" lon="28.0016" esm:processing="automatic (Paolucci et al 2011)" esm:quality="best">
		<comp name="--.HNE" depth="0.0">
			<acc value="0.0640413447130937" flag="0"/>
			<vel value="0.0274901087585732" flag="0"/>
			<psa03 value="0.0945856095824327" flag="0"/>
			<psa10 value="0.0138289482874551" flag="0"/>
			<psa30 value="0.00124350206340891" flag="0"/>
		</comp>
		<comp name="--.HNN" depth="0.0">
			<acc value="0.081486249883927" flag="0"/>
			<vel value="0.0304087306510058" flag="0"/>
			<psa03 value="0.0757273707333271" flag="0"/>
			<psa10 value="0.0255897283189132" flag="0"/>
			<psa30 value="0.00185487683482038" flag="0"/>
		</comp>
		<comp name="--.HNZ" depth="0.0">
			<acc value="0.0505066233094843" flag="0"/>
			<vel value="0.0140626912867351" flag="0"/>
			<psa03 value="0.0434116857069579" flag="0"/>
			<psa10 value="0.0142446858280268" flag="0"/>
			<psa30 value="0.001003590128754" flag="0"/>
		</comp>
	</station>
	<station code="RODB" name="RODB" netid="HL" source="National Observatory of Athens Seismic Network" insttype="" lat="36.4471" lon="28.22116" esm:processing="manual (Paolucci et al 2011)" esm:quality="best">
		<comp name="00.HNE" depth="0.0">
			<acc value="0.0708909319180509" flag="0"/>
			<vel value="0.0329997539914137" flag="0"/>
			<psa03 value="0.114629533356012" flag="0"/>
			<psa10 value="0.0427122527040008" flag="0"/>
			<psa30 value="0.00468987809772724" flag="0"/>
		</comp>
		<comp name="00.HNN" depth="0.0">
			<acc value="0.0887078178240012" flag="0"/>
			<vel value="0.0503961718563175" flag="0"/>
			<psa03 value="0.112929329504518" flag="0"/>
			<psa10 value="0.0665428467930247" flag="0"/>
			<psa30 value="0.00374984433667735" flag="0"/>
		</comp>
		<comp name="00.HNZ" depth="0.0">
			<acc value="0.0675603764918698" flag="0"/>
			<vel value="0.0199366523916475" flag="0"/>
			<psa03 value="0.0598650724552476" flag="0"/>
			<psa10 value="0.0277808835113511" flag="0"/>
			<psa30 value="0.00135031979573944" flag="0"/>
		</comp>
	</station>
</stationlist>
