<stationlist created="1778135957">
	<station code="RDI1" name="RDI1" netid="HI" source="ITSAK Strong Motion Network" insttype="" lat="36.4514" lon="28.224">
		<comp name="--.HNE" depth="0.0">
			<acc value="0.0658019363906035" flag="0"/>
			<vel value="0.0389309928833469" flag="0"/>
			<psa03 value="0.121117153315662" flag="0"/>
			<psa10 value="0.0416411242775593" flag="0"/>
			<psa30 value="0.00383843390578153" flag="0"/>
		</comp>
		<comp name="--.HNN" depth="0.0">
			<acc value="0.131286228775204" flag="0"/>
			<vel value="0.0574328642366855" flag="0"/>
			<psa03 value="0.129304977126805" flag="0"/>
			<psa10 value="0.0548812380600383" flag="0"/>
			<psa30 value="0.00669298668802727" flag="0"/>
		</comp>
		<comp name="--.HNZ" depth="0.0">
			<acc value="0.0626480181708502" flag="0"/>
			<vel value="0.0244726642774602" flag="0"/>
			<psa03 value="0.0649656840097306" flag="0"/>
			<psa10 value="0.0256950018388073" flag="0"/>
			<psa30 value="0.00189259533995289" flag="0"/>
		</comp>
	</station>
	<station code="RODB" name="RODB" netid="HL" source="National Observatory of Athens Seismic Network" insttype="" lat="36.4471" lon="28.22116">
		<comp name="00.HNE" depth="0.0">
			<acc value="0.0708909319180509" flag="0"/>
			<vel value="0.0329997539914137" flag="0"/>
			<psa03 value="0.114629533356012" flag="0"/>
			<psa10 value="0.0427122527040008" flag="0"/>
			<psa30 value="0.00468987809772724" flag="0"/>
		</comp>
		<comp name="00.HNN" depth="0.0">
			<acc value="0.0887078178240012" flag="0"/>
			<vel value="0.0503961718563175" flag="0"/>
			<psa03 value="0.112929329504518" flag="0"/>
			<psa10 value="0.0665428467930247" flag="0"/>
			<psa30 value="0.00374984433667735" flag="0"/>
		</comp>
		<comp name="00.HNZ" depth="0.0">
			<acc value="0.0675603764918698" flag="0"/>
			<vel value="0.0199366523916475" flag="0"/>
			<psa03 value="0.0598650724552476" flag="0"/>
			<psa10 value="0.0277808835113511" flag="0"/>
			<psa30 value="0.00135031979573944" flag="0"/>
		</comp>
	</station>
	<station code="DATC" name="DATC" netid="KO" source="Bogazici University Kandilli Observatory And Earthquake Research Institute (KOERI)" insttype="" lat="36.7584" lon="27.6602">
		<comp name="--.HNE" depth="0.0">
			<acc value="0.338083908921982" flag="0"/>
			<vel value="0.159229672602204" flag="0"/>
			<psa03 value="0.393910387067265" flag="0"/>
			<psa10 value="0.0956767346325123" flag="0"/>
			<psa30 value="0.00764331115659936" flag="0"/>
		</comp>
		<comp name="--.HNN" depth="0.0">
			<acc value="0.379710695216421" flag="0"/>
			<vel value="0.103787379068017" flag="0"/>
			<psa03 value="0.55117924333049" flag="0"/>
			<psa10 value="0.0788809576900793" flag="0"/>
			<psa30 value="0.00506929200985019" flag="0"/>
		</comp>
		<comp name="--.HNZ" depth="0.0">
			<acc value="0.401872343749374" flag="0"/>
			<vel value="0.0830600309852798" flag="0"/>
			<psa03 value="0.280130955636999" flag="0"/>
			<psa10 value="0.0474155534637135" flag="0"/>
			<psa30 value="0.00399234709654839" flag="0"/>
		</comp>
	</station>
	<station code="DEMR" name="DEMR" netid="KO" source="Bogazici University Kandilli Observatory And Earthquake Research Institute (KOERI)" insttype="" lat="36.2365" lon="29.9056">
		<comp name="--.HNE" depth="0.0">
			<acc value="0.0106102332936286" flag="0"/>
			<vel value="0.00475918038669086" flag="0"/>
			<psa03 value="0.0161071943825778" flag="0"/>
			<psa10 value="0.0048643727035385" flag="0"/>
			<psa30 value="0.000562856959257859" flag="0"/>
		</comp>
		<comp name="--.HNN" depth="0.0">
			<acc value="0.0131018109075708" flag="0"/>
			<vel value="0.00408188212162137" flag="0"/>
			<psa03 value="0.0207603838708781" flag="0"/>
			<psa10 value="0.00753414017245078" flag="0"/>
			<psa30 value="0.000910056482615647" flag="0"/>
		</comp>
		<comp name="--.HNZ" depth="0.0">
			<acc value="0.00696866939265448" flag="0"/>
			<vel value="0.00382615339860752" flag="0"/>
			<psa03 value="0.0139595684649008" flag="0"/>
			<psa10 value="0.00398653060968801" flag="0"/>
			<psa30 value="0.000365991250137463" flag="0"/>
		</comp>
	</station>
	<station code="DIDI" name="DIDI" netid="KO" source="Bogazici University Kandilli Observatory And Earthquake Research Institute (KOERI)" insttype="" lat="37.3767" lon="27.2398">
		<comp name="--.HNE" depth="0.0">
			<acc value="0.0317697101284295" flag="0"/>
			<vel value="0.0080506652805955" flag="0"/>
			<psa03 value="0.0392389152042243" flag="0"/>
			<psa10 value="0.0138803747591864" flag="0"/>
			<psa30 value="0.00120580246836242" flag="0"/>
		</comp>
		<comp name="--.HNN" depth="0.0">
			<acc value="0.0309912275387664" flag="0"/>
			<vel value="0.0125002402783371" flag="0"/>
			<psa03 value="0.0417444787748475" flag="0"/>
			<psa10 value="0.0151810307055796" flag="0"/>
			<psa30 value="0.00091542554740984" flag="0"/>
		</comp>
		<comp name="--.HNZ" depth="0.0">
			<acc value="0.0504282983618536" flag="0"/>
			<vel value="0.00693736456190043" flag="0"/>
			<psa03 value="0.0157939989362499" flag="0"/>
			<psa10 value="0.0085045986340011" flag="0"/>
			<psa30 value="0.000618337295464516" flag="0"/>
		</comp>
	</station>
	<station code="FETI" name="FETI" netid="KO" source="Bogazici University Kandilli Observatory And Earthquake Research Institute (KOERI)" insttype="" lat="36.6903" lon="29.096">
		<comp name="--.HNE" depth="0.0">
			<acc value="2.76843174828788" flag="0"/>
			<vel value="0.423512630977871" flag="0"/>
			<psa03 value="0.768089461015871" flag="0"/>
			<psa10 value="0.236413345550286" flag="0"/>
			<psa30 value="0.0174597512886482" flag="0"/>
		</comp>
		<comp name="--.HNN" depth="0.0">
			<acc value="0.0172109828732234" flag="0"/>
			<vel value="0.00503040320995053" flag="0"/>
			<psa03 value="0.00948534780307361" flag="0"/>
			<psa10 value="0.00501739105017299" flag="0"/>
			<psa30 value="0.00286215895737084" flag="0"/>
		</comp>
		<comp name="--.HNZ" depth="0.0">
			<acc value="0.746199025196429" flag="0"/>
			<vel value="0.19632196365472" flag="0"/>
			<psa03 value="0.609881018413662" flag="0"/>
			<psa10 value="0.0752125441694472" flag="0"/>
			<psa30 value="0.0072876106139841" flag="0"/>
		</comp>
	</station>
	<station code="KEMT" name="KEMT" netid="KO" source="Bogazici University Kandilli Observatory And Earthquake Research Institute (KOERI)" insttype="" lat="36.6037" lon="30.5558">
		<comp name="--.HNE" depth="0.0">
			<acc value="0.010188554505367" flag="0"/>
			<vel value="0.00592213249211022" flag="0"/>
			<psa03 value="0.0390599463777512" flag="0"/>
			<psa10 value="0.00403887899143139" flag="0"/>
			<psa30 value="0.000524378661566145" flag="0"/>
		</comp>
		<comp name="--.HNN" depth="0.0">
			<acc value="0.00974670386743956" flag="0"/>
			<vel value="0.00585244329178682" flag="0"/>
			<psa03 value="0.0281875901695112" flag="0"/>
			<psa10 value="0.0057059736100282" flag="0"/>
			<psa30 value="0.000795963855739054" flag="0"/>
		</comp>
		<comp name="--.HNZ" depth="0.0">
			<acc value="0.00653235791061925" flag="0"/>
			<vel value="0.0019908517157729" flag="0"/>
			<psa03 value="0.010201223108966" flag="0"/>
			<psa10 value="0.00218655163743494" flag="0"/>
			<psa30 value="0.000498428181727547" flag="0"/>
		</comp>
	</station>
	<station code="KUSD" name="KUSD" netid="KO" source="Bogazici University Kandilli Observatory And Earthquake Research Institute (KOERI)" insttype="" lat="37.8606" lon="27.2868">
		<comp name="--.HNE" depth="0.0">
			<acc value="0.0422881944416024" flag="0"/>
			<vel value="0.00921516608858233" flag="0"/>
			<psa03 value="0.0357937652946174" flag="0"/>
			<psa10 value="0.0121649585574419" flag="0"/>
			<psa30 value="0.00192167777425477" flag="0"/>
		</comp>
		<comp name="--.HNN" depth="0.0">
			<acc value="0.0538375006243303" flag="0"/>
			<vel value="0.0114477209485271" flag="0"/>
			<psa03 value="0.0425498384939764" flag="0"/>
			<psa10 value="0.0178789857646614" flag="0"/>
			<psa30 value="0.00214315169701522" flag="0"/>
		</comp>
		<comp name="--.HNZ" depth="0.0">
			<acc value="0.0677836610584116" flag="0"/>
			<vel value="0.00503753915939314" flag="0"/>
			<psa03 value="0.0192838910524751" flag="0"/>
			<psa10 value="0.00865761698063558" flag="0"/>
			<psa30 value="0.00111900258752298" flag="0"/>
		</comp>
	</station>
	<station code="NAZL" name="NAZL" netid="KO" source="Bogazici University Kandilli Observatory And Earthquake Research Institute (KOERI)" insttype="" lat="37.9641" lon="28.2922">
		<comp name="--.HNE" depth="0.0">
			<acc value="0.0483466587275817" flag="0"/>
			<vel value="0.0441682341726915" flag="0"/>
			<psa03 value="0.155837105651441" flag="0"/>
			<psa10 value="0.0716609078080888" flag="0"/>
			<psa30 value="0.00548539453140012" flag="0"/>
		</comp>
		<comp name="--.HNN" depth="0.0">
			<acc value="0.0540631786612741" flag="0"/>
			<vel value="0.0288335547851063" flag="0"/>
			<psa03 value="0.261070775617616" flag="0"/>
			<psa10 value="0.0344251011941645" flag="0"/>
			<psa30 value="0.00162145756784617" flag="0"/>
		</comp>
		<comp name="--.HNZ" depth="0.0">
			<acc value="0.0200751619643975" flag="0"/>
			<vel value="0.013884643483153" flag="0"/>
			<psa03 value="0.0543617810412002" flag="0"/>
			<psa10 value="0.0164051774786555" flag="0"/>
			<psa30 value="0.000759722668378254" flag="0"/>
		</comp>
	</station>
	<station code="ODEM" name="ODEM" netid="KO" source="Bogazici University Kandilli Observatory And Earthquake Research Institute (KOERI)" insttype="" lat="38.2762" lon="28.0747">
		<comp name="--.HNE" depth="0.0">
			<acc value="0.00994734645705494" flag="0"/>
			<vel value="0.00755926149527104" flag="0"/>
			<psa03 value="0.0231317208216465" flag="0"/>
			<psa10 value="0.0113555720397174" flag="0"/>
			<psa30 value="0.00196149833814503" flag="0"/>
		</comp>
		<comp name="--.HNN" depth="0.0">
			<acc value="0.0104304988391038" flag="0"/>
			<vel value="0.00804391368625841" flag="0"/>
			<psa03 value="0.0247424402599043" flag="0"/>
			<psa10 value="0.00993411213545488" flag="0"/>
			<psa30 value="0.000922584300468763" flag="0"/>
		</comp>
		<comp name="--.HNZ" depth="0.0">
			<acc value="0.00766010308320492" flag="0"/>
			<vel value="0.00671740949335702" flag="0"/>
			<psa03 value="0.0185232735399645" flag="0"/>
			<psa10 value="0.00823077632949727" flag="0"/>
			<psa30 value="0.0011131861006626" flag="0"/>
		</comp>
	</station>
	<station code="YKAV" name="YKAV" netid="KO" source="Bogazici University Kandilli Observatory And Earthquake Research Institute (KOERI)" insttype="" lat="37.1246" lon="27.2801">
		<comp name="--.HNE" depth="0.0">
			<acc value="0.00805181383252022" flag="0"/>
			<vel value="0.00380605758041114" flag="0"/>
			<psa03 value="0.0175389449943625" flag="0"/>
			<psa10 value="0.00522275777855086" flag="0"/>
			<psa30 value="0.000545854920742915" flag="0"/>
		</comp>
		<comp name="--.HNN" depth="0.0">
			<acc value="0.00606153308995382" flag="0"/>
			<vel value="0.0030965374114466" flag="0"/>
			<psa03 value="0.0127515288862075" flag="0"/>
			<psa10 value="0.00266574067031663" flag="0"/>
			<psa30 value="0.000403574703696811" flag="0"/>
		</comp>
		<comp name="--.HNZ" depth="0.0">
			<acc value="0.00443712648045166" flag="0"/>
			<vel value="0.00261919183915577" flag="0"/>
			<psa03 value="0.00979854324940151" flag="0"/>
			<psa10 value="0.00584288476228011" flag="0"/>
			<psa30 value="0.000494401383131903" flag="0"/>
		</comp>
	</station>
</stationlist>
