<stationlist xmlns:esm="https://esm-db.eu/esmws/shakemap/1/" created="1780970057">
	<station code="KTHA" name="KTHA" netid="GE" source="GEOFON" insttype="" lat="36.2566" lon="23.0621" esm:processing="manual (Paolucci et al 2011)" esm:quality="good">
		<comp name="--.HNE" depth="0.0">
			<acc value="0.00454976480399992" flag="0"/>
			<vel value="0.0070136238234182" flag="0"/>
			<psa03 value="0.00953009000969188" flag="0"/>
			<psa10 value="0.0105300783276103" flag="0"/>
			<psa30 value="0.00277356938826667" flag="0"/>
		</comp>
		<comp name="--.HNN" depth="0.0">
			<acc value="0.0029562263686485" flag="0"/>
			<vel value="0.00337679705497668" flag="0"/>
			<psa03 value="0.00648761995964941" flag="0"/>
			<psa10 value="0.00616502864993166" flag="0"/>
			<psa30 value="0.00155747621238204" flag="0"/>
		</comp>
		<comp name="--.HNZ" depth="0.0">
			<acc value="0.00187766441850546" flag="0"/>
			<vel value="0.00204945683210859" flag="0"/>
			<psa03 value="0.00536906479419261" flag="0"/>
			<psa10 value="0.00304828653690285" flag="0"/>
			<psa30 value="0.00109036757528728" flag="0"/>
		</comp>
	</station>
	<station code="ARE2" name="ARE2" netid="HI" source="ITSAK Strong Motion Network" insttype="" lat="36.66629" lon="22.382635" esm:processing="automatic (Paolucci et al 2011)" esm:quality="best">
		<comp name="--.HNE" depth="0.0">
			<acc value="0.00894522244126909" flag="0"/>
			<vel value="0.00847979746553713" flag="0"/>
			<psa03 value="0.0254663406659201" flag="0"/>
			<psa10 value="0.0135224976741059" flag="0"/>
			<psa30 value="0.00104842122359401" flag="0"/>
		</comp>
		<comp name="--.HNN" depth="0.0">
			<acc value="0.00842159627876302" flag="0"/>
			<vel value="0.00609686963901682" flag="0"/>
			<psa03 value="0.0296464430980247" flag="0"/>
			<psa10 value="0.00595039824718083" flag="0"/>
			<psa30 value="0.00104157795776124" flag="0"/>
		</comp>
		<comp name="--.HNZ" depth="0.0">
			<acc value="0.00448899802781563" flag="0"/>
			<vel value="0.00456325878705015" flag="0"/>
			<psa03 value="0.0108674985642783" flag="0"/>
			<psa10 value="0.00655375087258116" flag="0"/>
			<psa30 value="0.00094805644992032" flag="0"/>
		</comp>
	</station>
	<station code="KAL3" name="KAL3" netid="HI" source="ITSAK Strong Motion Network" insttype="" lat="37.0246" lon="22.103" esm:processing="manual (Paolucci et al 2011)" esm:quality="good">
		<comp name="--.HNE" depth="0.0">
			<acc value="0.0291709064535493" flag="0"/>
			<vel value="0.0368828548535002" flag="0"/>
			<psa03 value="0.0680892241185999" flag="0"/>
			<psa10 value="0.0504557599464724" flag="0"/>
			<psa30 value="0.00643441791527507" flag="0"/>
		</comp>
		<comp name="--.HNN" depth="0.0">
			<acc value="0.0308026889624204" flag="0"/>
			<vel value="0.0273577562795651" flag="0"/>
			<psa03 value="0.0601166282649188" flag="0"/>
			<psa10 value="0.054198852908011" flag="0"/>
			<psa30 value="0.00766557530674338" flag="0"/>
		</comp>
		<comp name="--.HNZ" depth="0.0">
			<acc value="0.0089500352097744" flag="0"/>
			<vel value="0.0146160310088236" flag="0"/>
			<psa03 value="0.0272445183572987" flag="0"/>
			<psa10 value="0.0185780500796414" flag="0"/>
			<psa30 value="0.00256730777987406" flag="0"/>
		</comp>
	</station>
	<station code="LEO1" name="LEO1" netid="HI" source="ITSAK Strong Motion Network" insttype="" lat="37.1689" lon="22.8637" esm:processing="automatic (Paolucci et al 2011)" esm:quality="best">
		<comp name="--.HNE" depth="0.0">
			<acc value="0.00253934707604257" flag="0"/>
			<vel value="0.00222513470126388" flag="0"/>
			<psa03 value="0.00517672932614095" flag="0"/>
			<psa10 value="0.00353499003511599" flag="0"/>
			<psa30 value="0.000723001853657829" flag="0"/>
		</comp>
		<comp name="--.HNN" depth="0.0">
			<acc value="0.00205430443144746" flag="0"/>
			<vel value="0.0022023555756388" flag="0"/>
			<psa03 value="0.0060497067529653" flag="0"/>
			<psa10 value="0.00302532447539897" flag="0"/>
			<psa30 value="0.00074173830318899" flag="0"/>
		</comp>
		<comp name="--.HNZ" depth="0.0">
			<acc value="0.0017805046373124" flag="0"/>
			<vel value="0.00188196012335581" flag="0"/>
			<psa03 value="0.00353614798942895" flag="0"/>
			<psa10 value="0.00166157651660213" flag="0"/>
			<psa30 value="0.000648760633458014" flag="0"/>
		</comp>
	</station>
	<station code="MGP1" name="MGP1" netid="HI" source="ITSAK Strong Motion Network" insttype="" lat="37.403248" lon="22.140703" esm:processing="manual (Paolucci et al 2011)" esm:quality="good">
		<comp name="--.HNE" depth="0.0">
			<acc value="0.0164166114226571" flag="0"/>
			<vel value="0.0181311377498034" flag="0"/>
			<psa03 value="0.0476745592472422" flag="0"/>
			<psa10 value="0.0409750268944367" flag="0"/>
			<psa30 value="0.00507197766029468" flag="0"/>
		</comp>
		<comp name="--.HNN" depth="0.0">
			<acc value="0.0171106154460155" flag="0"/>
			<vel value="0.0191496899055478" flag="0"/>
			<psa03 value="0.0466008891635351" flag="0"/>
			<psa10 value="0.0251718925143418" flag="0"/>
			<psa30 value="0.00519905524522769" flag="0"/>
		</comp>
		<comp name="--.HNZ" depth="0.0">
			<acc value="0.00668536558277776" flag="0"/>
			<vel value="0.0100115478036424" flag="0"/>
			<psa03 value="0.0267582673955589" flag="0"/>
			<psa10 value="0.0140443559946585" flag="0"/>
			<psa30 value="0.00410263136252643" flag="0"/>
		</comp>
	</station>
	<station code="PET1" name="PET1" netid="HI" source="ITSAK Strong Motion Network" insttype="" lat="36.963862" lon="21.92538" esm:processing="manual (Paolucci et al 2011)" esm:quality="good">
		<comp name="--.HNE" depth="0.0">
			<acc value="0.0240032697197466" flag="0"/>
			<vel value="0.0205901336249175" flag="0"/>
			<psa03 value="0.0771903061872879" flag="0"/>
			<psa10 value="0.0311716674699873" flag="0"/>
			<psa30 value="0.00229273417405354" flag="0"/>
		</comp>
		<comp name="--.HNN" depth="0.0">
			<acc value="0.0307634878906603" flag="0"/>
			<vel value="0.0227645759463625" flag="0"/>
			<psa03 value="0.0856212657386478" flag="0"/>
			<psa10 value="0.0333505205583111" flag="0"/>
			<psa30 value="0.00266792965391272" flag="0"/>
		</comp>
		<comp name="--.HNZ" depth="0.0">
			<acc value="0.0116836849172729" flag="0"/>
			<vel value="0.010178067511224" flag="0"/>
			<psa03 value="0.0336684048457517" flag="0"/>
			<psa10 value="0.00937130361537254" flag="0"/>
			<psa30 value="0.00164667793849862" flag="0"/>
		</comp>
	</station>
	<station code="PYR2" name="PYR2" netid="HI" source="ITSAK Strong Motion Network" insttype="" lat="37.6671" lon="21.4506" esm:processing="manual (Paolucci et al 2011)" esm:quality="good">
		<comp name="--.HNE" depth="0.0">
			<acc value="0.00545684619555685" flag="0"/>
			<vel value="0.00596092065351381" flag="0"/>
			<psa03 value="0.0187925990841267" flag="0"/>
			<psa10 value="0.00906257285097457" flag="0"/>
			<psa30 value="0.00200765049699239" flag="0"/>
		</comp>
		<comp name="--.HNN" depth="0.0">
			<acc value="0.00665994179044277" flag="0"/>
			<vel value="0.00628811625039433" flag="0"/>
			<psa03 value="0.0149960363825636" flag="0"/>
			<psa10 value="0.0134140704913372" flag="0"/>
			<psa30 value="0.00218598335233551" flag="0"/>
		</comp>
		<comp name="--.HNZ" depth="0.0">
			<acc value="0.00300945029062516" flag="0"/>
			<vel value="0.003192041534766" flag="0"/>
			<psa03 value="0.00788495593338323" flag="0"/>
			<psa10 value="0.00504766000770288" flag="0"/>
			<psa30 value="0.00139913810269936" flag="0"/>
		</comp>
	</station>
	<station code="TRP1" name="TRP1" netid="HI" source="ITSAK Strong Motion Network" insttype="" lat="37.511219" lon="22.363399" esm:processing="manual (Paolucci et al 2011)" esm:quality="good">
		<comp name="--.HNE" depth="0.0">
			<acc value="0.00225284601344733" flag="0"/>
			<vel value="0.00258248521528663" flag="0"/>
			<psa03 value="0.00492796447429456" flag="0"/>
			<psa10 value="0.00715017210131048" flag="0"/>
			<psa30 value="0.000816850831108665" flag="0"/>
		</comp>
		<comp name="--.HNN" depth="0.0">
			<acc value="0.00219625912031426" flag="0"/>
			<vel value="0.00273155673711409" flag="0"/>
			<psa03 value="0.00425069565022549" flag="0"/>
			<psa10 value="0.00705883339431941" flag="0"/>
			<psa30 value="0.000958232749050195" flag="0"/>
		</comp>
		<comp name="--.HNZ" depth="0.0">
			<acc value="0.00121654228056472" flag="0"/>
			<vel value="0.00196733119465991" flag="0"/>
			<psa03 value="0.00338813265028499" flag="0"/>
			<psa10 value="0.00225144805363402" flag="0"/>
			<psa30 value="0.000981887753578152" flag="0"/>
		</comp>
	</station>
	<station code="ITM" name="ITM" netid="HL" source="National Observatory of Athens Seismic Network" insttype="" lat="37.17872" lon="21.92522" esm:processing="manual (Paolucci et al 2011)" esm:quality="good">
		<comp name="00.HNE" depth="0.0">
			<acc value="0.00561614160998604" flag="0"/>
			<vel value="0.00464193405993282" flag="0"/>
			<psa03 value="0.00988802766263806" flag="0"/>
			<psa10 value="0.0114642956017998" flag="0"/>
			<psa30 value="0.000995514097256546" flag="0"/>
		</comp>
		<comp name="00.HNN" depth="0.0">
			<acc value="0.00496609037894159" flag="0"/>
			<vel value="0.00446262355355522" flag="0"/>
			<psa03 value="0.016465132035524" flag="0"/>
			<psa10 value="0.00633818098954438" flag="0"/>
			<psa30 value="0.000836679263761682" flag="0"/>
		</comp>
		<comp name="00.HNZ" depth="0.0">
			<acc value="0.0046879011187808" flag="0"/>
			<vel value="0.00413330967004964" flag="0"/>
			<psa03 value="0.00948534780307361" flag="0"/>
			<psa10 value="0.00959988785201639" flag="0"/>
			<psa30 value="0.00139103520376207" flag="0"/>
		</comp>
	</station>
	<station code="KTHA" name="KTHA" netid="HL" source="National Observatory of Athens Seismic Network" insttype="" lat="36.2566" lon="23.0621" esm:processing="manual (Paolucci et al 2011)" esm:quality="good">
		<comp name="--.HNE" depth="0.0">
			<acc value="0.00445571736765469" flag="0"/>
			<vel value="0.00683197919374018" flag="0"/>
			<psa03 value="0.0093511211832188" flag="0"/>
			<psa10 value="0.0103126312034455" flag="0"/>
			<psa30 value="0.00270958803280254" flag="0"/>
		</comp>
		<comp name="--.HNN" depth="0.0">
			<acc value="0.00289311899615943" flag="0"/>
			<vel value="0.00327285389681041" flag="0"/>
			<psa03 value="0.00635339333979459" flag="0"/>
			<psa10 value="0.00604019789346669" flag="0"/>
			<psa30 value="0.00151765564849178" flag="0"/>
		</comp>
		<comp name="--.HNZ" depth="0.0">
			<acc value="0.00183932255227099" flag="0"/>
			<vel value="0.00199550940070259" flag="0"/>
			<psa03 value="0.00527958038095607" flag="0"/>
			<psa10 value="0.00298788455796819" flag="0"/>
			<psa30 value="0.00106217998511777" flag="0"/>
		</comp>
	</station>
	<station code="VLMS" name="VLMS" netid="HL" source="National Observatory of Athens Seismic Network" insttype="" lat="37.876701" lon="20.66293" esm:processing="manual (Paolucci et al 2011)" esm:quality="good">
		<comp name="--.HNE" depth="0.0">
			<acc value="0.00466539169623832" flag="0"/>
			<vel value="0.00200582838079541" flag="0"/>
			<psa03 value="0.00953009000969188" flag="0"/>
			<psa10 value="0.00241607915738667" flag="0"/>
			<psa30 value="0.00020089250771604" flag="0"/>
		</comp>
		<comp name="--.HNN" depth="0.0">
			<acc value="0.00508087087776723" flag="0"/>
			<vel value="0.00307511212868254" flag="0"/>
			<psa03 value="0.0168678118950885" flag="0"/>
			<psa10 value="0.00562946443671095" flag="0"/>
			<psa30 value="0.000272032616239092" flag="0"/>
		</comp>
		<comp name="--.HNZ" depth="0.0">
			<acc value="0.00199809703621232" flag="0"/>
			<vel value="0.00107859287096367" flag="0"/>
			<psa03 value="0.00599545568684842" flag="0"/>
			<psa10 value="0.00164696062561858" flag="0"/>
			<psa30 value="0.000129304977126805" flag="0"/>
		</comp>
	</station>
</stationlist>
