<?xml version="1.0" encoding="UTF-8" standalone="yes"?>
<!DOCTYPE earthquake SYSTEM "stationlist.dtd">
<stationlist created="" xmlns="ch.ethz.sed.shakemap.usgs.xml">
  <station code="KLMT" name="KLMT" netid="HC" source="NOA" insttype="120" lat="37.0613" lon="22.0597">
    <comp name="--.HHE">
      <acc value="0.0525317505" flag="0"/>
      <vel value="0.0736796730" flag="0"/>
      <psa03 value="0.1403244621" flag="0"/>
      <psa10 value="0.0885571064" flag="0"/>
      <psa30 value="0.0112569242" flag="0"/>
    </comp>
    <comp name="--.HHN">
      <acc value="0.0674162717" flag="0"/>
      <vel value="0.0595755814" flag="0"/>
      <psa03 value="0.1487913531" flag="0"/>
      <psa10 value="0.1094160516" flag="0"/>
      <psa30 value="0.0102633335" flag="0"/>
    </comp>
    <comp name="--.HHZ">
      <acc value="0.0220684792" flag="0"/>
      <vel value="0.0266025138" flag="0"/>
      <psa03 value="0.0727956863" flag="0"/>
      <psa10 value="0.0570785123" flag="0"/>
      <psa30 value="0.0050603666" flag="0"/>
    </comp>
  </station>
  <station code="KTHR" name="KTHR" netid="HC" source="NOA" insttype="120" lat="36.2447" lon="22.9939">
    <comp name="--.HHE">
      <acc value="0.0165656367" flag="0"/>
      <vel value="0.0105078767" flag="0"/>
      <psa03 value="0.0638291071" flag="0"/>
      <psa10 value="0.0155669608" flag="0"/>
      <psa30 value="0.0026260724" flag="0"/>
    </comp>
    <comp name="--.HHN">
      <acc value="0.0241886709" flag="0"/>
      <vel value="0.0177935144" flag="0"/>
      <psa03 value="0.0709724289" flag="0"/>
      <psa10 value="0.0202797264" flag="0"/>
      <psa30 value="0.0023563495" flag="0"/>
    </comp>
    <comp name="--.HHZ">
      <acc value="0.0135370817" flag="0"/>
      <vel value="0.0067545727" flag="0"/>
      <psa03 value="0.0294551735" flag="0"/>
      <psa10 value="0.0076593514" flag="0"/>
      <psa30 value="0.0014006075" flag="0"/>
    </comp>
  </station>
  <station code="ITM" name="ITM" netid="HL" source="NOA" insttype="STS2gen3_DR24" lat="37.1787" lon="21.9252">
    <comp name="--.HHE">
      <acc value="0.0056591184" flag="0"/>
      <vel value="0.0048595327" flag="0"/>
      <psa03 value="0.0099817283" flag="0"/>
      <psa10 value="0.0115972582" flag="0"/>
      <psa30 value="0.0009363694" flag="0"/>
    </comp>
    <comp name="--.HHN">
      <acc value="0.0051414622" flag="0"/>
      <vel value="0.0049557155" flag="0"/>
      <psa03 value="0.0166630886" flag="0"/>
      <psa10 value="0.0064260652" flag="0"/>
      <psa30 value="0.0007942984" flag="0"/>
    </comp>
    <comp name="--.HHZ">
      <acc value="0.0050048039" flag="0"/>
      <vel value="0.0046057131" flag="0"/>
      <psa03 value="0.0101143609" flag="0"/>
      <psa10 value="0.0104593010" flag="0"/>
      <psa30 value="0.0013618614" flag="0"/>
    </comp>
  </station>
</stationlist>
