<?xml version="1.0" encoding="UTF-8" standalone="yes"?>
<!DOCTYPE earthquake SYSTEM "stationlist.dtd">
<stationlist created="" xmlns="ch.ethz.sed.shakemap.usgs.xml">
  <station code="BZS" name="BZS" netid="MN" insttype="" lat="45.6188" lon="21.6401">
    <comp name="--.HHZ">
      <acc value="0.1860131548" flag="0"/>
      <vel value="0.0713490416" flag="0"/>
      <psa03 value="0.2333982272" flag="0"/>
      <psa10 value="0.0394789485" flag="0"/>
      <psa30 value="0.0038486196" flag="0"/>
    </comp>
    <comp name="--.HHE">
      <acc value="0.3763390681" flag="0"/>
      <vel value="0.1588778612" flag="0"/>
      <psa03 value="1.0786304752" flag="0"/>
      <psa10 value="0.0854856481" flag="0"/>
      <psa30 value="0.0097595458" flag="0"/>
    </comp>
    <comp name="--.HHN">
      <acc value="0.2813802083" flag="0"/>
      <vel value="0.1148211448" flag="0"/>
      <psa03 value="0.4495575490" flag="0"/>
      <psa10 value="0.0450539186" flag="0"/>
      <psa30 value="0.0032563264" flag="0"/>
    </comp>
  </station>
  <station code="BANR" name="BANR" netid="RO" insttype="330" lat="45.3828" lon="21.137">
    <comp name="--.HHE">
      <acc value="1.8120418486" flag="0"/>
      <vel value="1.6086384437" flag="0"/>
      <psa03 value="4.1448896461" flag="0"/>
      <psa10 value="2.1259576864" flag="0"/>
      <psa30 value="0.1741720034" flag="0"/>
    </comp>
    <comp name="--.HHZ">
      <acc value="0.4013879269" flag="0"/>
      <vel value="0.3020189615" flag="0"/>
      <psa03 value="0.6766047443" flag="0"/>
      <psa10 value="0.5302823028" flag="0"/>
      <psa30 value="0.0441727654" flag="0"/>
    </comp>
    <comp name="--.HHN">
      <acc value="1.2432102292" flag="0"/>
      <vel value="0.7532601875" flag="0"/>
      <psa03 value="2.5402573801" flag="0"/>
      <psa10 value="1.2470875595" flag="0"/>
      <psa30 value="0.0948128287" flag="0"/>
    </comp>
  </station>
  <station code="CRBR" name="CRBR" netid="RO" insttype="200" lat="45.4108" lon="22.2383">
    <comp name="--.HNE">
      <acc value="0.3623499619" flag="0"/>
      <vel value="0.3181786004" flag="0"/>
      <psa03 value="1.1053627192" flag="0"/>
      <psa10 value="0.4599132426" flag="0"/>
      <psa30 value="0.0201663601" flag="0"/>
    </comp>
    <comp name="--.HNN">
      <acc value="0.4013749916" flag="0"/>
      <vel value="0.1482318151" flag="0"/>
      <psa03 value="1.3101182133" flag="0"/>
      <psa10 value="0.1025178141" flag="0"/>
      <psa30 value="0.0111814338" flag="0"/>
    </comp>
    <comp name="--.HNZ">
      <acc value="0.1188653887" flag="0"/>
      <vel value="0.0780245310" flag="0"/>
      <psa03 value="0.2979318983" flag="0"/>
      <psa10 value="0.1009360880" flag="0"/>
      <psa30 value="0.0090530350" flag="0"/>
    </comp>
  </station>
  <station code="DEV" name="DEV" netid="RO" insttype="CMG40T.1to100/Quanterra" lat="45.887" lon="22.898">
    <comp name="--.HHE">
      <acc value="0.1386051305" flag="0"/>
      <vel value="0.0617631485" flag="0"/>
      <psa03 value="0.1359303641" flag="0"/>
      <psa10 value="0.0673997259" flag="0"/>
      <psa30 value="0.0036292419" flag="0"/>
    </comp>
    <comp name="--.HHN">
      <acc value="0.1077433617" flag="0"/>
      <vel value="0.0609105876" flag="0"/>
      <psa03 value="0.1506364801" flag="0"/>
      <psa10 value="0.1291126479" flag="0"/>
      <psa30 value="0.0050272820" flag="0"/>
    </comp>
    <comp name="--.HHZ">
      <acc value="0.0855968756" flag="0"/>
      <vel value="0.0328671995" flag="0"/>
      <psa03 value="0.1003537354" flag="0"/>
      <psa10 value="0.0424753003" flag="0"/>
      <psa30 value="0.0037282187" flag="0"/>
    </comp>
  </station>
  <station code="DRGR" name="DRGR" netid="RO" insttype="330" lat="46.7917" lon="22.7111">
    <comp name="--.HHE">
      <acc value="0.1982905337" flag="0"/>
      <vel value="0.0663580116" flag="0"/>
      <psa03 value="0.2913845741" flag="0"/>
      <psa10 value="0.0356572258" flag="0"/>
      <psa30 value="0.0054681024" flag="0"/>
    </comp>
    <comp name="--.HHN">
      <acc value="0.1468831353" flag="0"/>
      <vel value="0.0508662641" flag="0"/>
      <psa03 value="0.3169680052" flag="0"/>
      <psa10 value="0.0384270002" flag="0"/>
      <psa30 value="0.0051348587" flag="0"/>
    </comp>
    <comp name="--.HHZ">
      <acc value="0.1409789478" flag="0"/>
      <vel value="0.0517268562" flag="0"/>
      <psa03 value="0.2491450714" flag="0"/>
      <psa10 value="0.0607940157" flag="0"/>
      <psa30 value="0.0028885614" flag="0"/>
    </comp>
  </station>
  <station code="GZR" name="GZR" netid="RO" insttype="330" lat="45.3933" lon="22.7767">
    <comp name="--.HHE">
      <acc value="0.5086744253" flag="0"/>
      <vel value="0.1877361789" flag="0"/>
      <psa03 value="1.6208427200" flag="0"/>
      <psa10 value="0.0624455738" flag="0"/>
      <psa30 value="0.0060222553" flag="0"/>
    </comp>
    <comp name="--.HHN">
      <acc value="0.4326819038" flag="0"/>
      <vel value="0.1759652597" flag="0"/>
      <psa03 value="0.9875316321" flag="0"/>
      <psa10 value="0.1348644617" flag="0"/>
      <psa30 value="0.0056470777" flag="0"/>
    </comp>
    <comp name="--.HHZ">
      <acc value="0.1828570592" flag="0"/>
      <vel value="0.0683111600" flag="0"/>
      <psa03 value="0.2893663359" flag="0"/>
      <psa10 value="0.0338176097" flag="0"/>
      <psa30 value="0.0029510465" flag="0"/>
    </comp>
  </station>
  <station code="JIMR" name="JIMR" netid="RO" insttype="200" lat="45.7818" lon="20.7024">
    <comp name="--.HNE">
      <acc value="0.5949512819" flag="0"/>
      <vel value="0.2175562758" flag="0"/>
      <psa03 value="1.3055699128" flag="0"/>
      <psa10 value="0.1550592390" flag="0"/>
      <psa30 value="0.0132009203" flag="0"/>
    </comp>
    <comp name="--.HNN">
      <acc value="0.7112446586" flag="0"/>
      <vel value="0.5023393162" flag="0"/>
      <psa03 value="0.9449080073" flag="0"/>
      <psa10 value="0.5455317778" flag="0"/>
      <psa30 value="0.0341197168" flag="0"/>
    </comp>
    <comp name="--.HNZ">
      <acc value="0.1815175492" flag="0"/>
      <vel value="0.0516027832" flag="0"/>
      <psa03 value="0.1952529600" flag="0"/>
      <psa10 value="0.0533137199" flag="0"/>
      <psa30 value="0.0032124077" flag="0"/>
    </comp>
  </station>
  <station code="MARR" name="MARR" netid="RO" insttype="CMG40T.1to100/obsidian" lat="46.676" lon="23.1189">
    <comp name="--.HHE">
      <acc value="0.2416071212" flag="0"/>
      <vel value="0.0494248469" flag="0"/>
      <psa03 value="0.2819480115" flag="0"/>
      <psa10 value="0.0262297167" flag="0"/>
      <psa30 value="0.0023257056" flag="0"/>
    </comp>
    <comp name="--.HHN">
      <acc value="0.3912821015" flag="0"/>
      <vel value="0.1166285523" flag="0"/>
      <psa03 value="0.7572224313" flag="0"/>
      <psa10 value="0.0821811010" flag="0"/>
      <psa30 value="0.0063187805" flag="0"/>
    </comp>
    <comp name="--.HHZ">
      <acc value="0.1927395772" flag="0"/>
      <vel value="0.0575185721" flag="0"/>
      <psa03 value="0.4541262920" flag="0"/>
      <psa10 value="0.0298538384" flag="0"/>
      <psa30 value="0.0029699914" flag="0"/>
    </comp>
  </station>
  <station code="MDVR" name="MDVR" netid="RO" insttype="CMG40T.1to100/Quanterra" lat="44.7815" lon="21.7128">
    <comp name="--.HHE">
      <acc value="0.0633789845" flag="0"/>
      <vel value="0.0259319586" flag="0"/>
      <psa03 value="0.0991951322" flag="0"/>
      <psa10 value="0.0269699874" flag="0"/>
      <psa30 value="0.0044509050" flag="0"/>
    </comp>
    <comp name="--.HHN">
      <acc value="0.0563630037" flag="0"/>
      <vel value="0.0251095602" flag="0"/>
      <psa03 value="0.1211765797" flag="0"/>
      <psa10 value="0.0278896579" flag="0"/>
      <psa30 value="0.0015343691" flag="0"/>
    </comp>
    <comp name="--.HHZ">
      <acc value="0.0357947596" flag="0"/>
      <vel value="0.0154325243" flag="0"/>
      <psa03 value="0.0579104196" flag="0"/>
      <psa10 value="0.0236315700" flag="0"/>
      <psa30 value="0.0025875491" flag="0"/>
    </comp>
  </station>
  <station code="SNMR" name="SNMR" netid="RO" insttype="200" lat="46.0713" lon="20.6017">
    <comp name="--.HNE">
      <acc value="0.4854519067" flag="0"/>
      <vel value="0.2628730100" flag="0"/>
      <psa03 value="0.7386840928" flag="0"/>
      <psa10 value="0.1927412421" flag="0"/>
      <psa30 value="0.0176733089" flag="0"/>
    </comp>
    <comp name="--.HNN">
      <acc value="0.3518948416" flag="0"/>
      <vel value="0.1484004561" flag="0"/>
      <psa03 value="0.5965057095" flag="0"/>
      <psa10 value="0.1048762145" flag="0"/>
      <psa30 value="0.0235257571" flag="0"/>
    </comp>
  </station>
  <station code="SURR" name="SURR" netid="RO" insttype="Linear" lat="45.754" lon="22.1246">
    <comp name="--.HHZ">
      <acc value="0.1967552233" flag="0"/>
      <vel value="0.0526475056" flag="0"/>
      <psa03 value="0.2120079817" flag="0"/>
      <psa10 value="0.0422859335" flag="0"/>
      <psa30 value="0.0033163722" flag="0"/>
    </comp>
    <comp name="--.HHE">
      <acc value="0.4603270416" flag="0"/>
      <vel value="0.0679598801" flag="0"/>
      <psa03 value="0.2235077141" flag="0"/>
      <psa10 value="0.0351753691" flag="0"/>
      <psa30 value="0.0041881223" flag="0"/>
    </comp>
    <comp name="--.HHN">
      <acc value="0.4899138609" flag="0"/>
      <vel value="0.0733636242" flag="0"/>
      <psa03 value="0.2331606420" flag="0"/>
      <psa10 value="0.0366968009" flag="0"/>
      <psa30 value="0.0044593460" flag="0"/>
    </comp>
  </station>
  <station code="TIM" name="TIM" netid="RO" insttype="2.5V" lat="45.7365" lon="21.2211">
    <comp name="--.HNN">
      <acc value="0.4283915727" flag="0"/>
      <vel value="0.1628692701" flag="0"/>
      <psa03 value="0.5395093155" flag="0"/>
      <psa10 value="0.1573402871" flag="0"/>
      <psa30 value="0.0233438767" flag="0"/>
    </comp>
    <comp name="--.HNZ">
      <acc value="0.2784170574" flag="0"/>
      <vel value="0.0613494538" flag="0"/>
      <psa03 value="0.2768768942" flag="0"/>
      <psa10 value="0.0386108260" flag="0"/>
      <psa30 value="0.0057578756" flag="0"/>
    </comp>
    <comp name="--.HNE">
      <acc value="0.4066033742" flag="0"/>
      <vel value="0.2833691804" flag="0"/>
      <psa03 value="0.9817858085" flag="0"/>
      <psa10 value="0.1788615950" flag="0"/>
      <psa30 value="0.0212800219" flag="0"/>
    </comp>
  </station>
</stationlist>
