<?xml version="1.0" encoding="UTF-8" standalone="yes"?>
<!DOCTYPE earthquake SYSTEM "stationlist.dtd">
<stationlist created="" xmlns="ch.ethz.sed.shakemap.usgs.xml">
  <station code="BSZH" name="BSZH" netid="HU" insttype="" lat="47.2996" lon="20.267">
    <comp name="--.HHE">
      <acc value="0.0897284174" flag="0"/>
      <vel value="0.1143512138" flag="0"/>
      <psa03 value="0.2194970972" flag="0"/>
      <psa10 value="0.1253852759" flag="0"/>
      <psa30 value="0.0192991223" flag="0"/>
    </comp>
    <comp name="--.HHZ">
      <acc value="0.0229762623" flag="0"/>
      <vel value="0.0127560823" flag="0"/>
      <psa03 value="0.0564122538" flag="0"/>
      <psa10 value="0.0138076057" flag="0"/>
      <psa30 value="0.0024379822" flag="0"/>
    </comp>
    <comp name="--.HHN">
      <acc value="0.0535104322" flag="0"/>
      <vel value="0.0728989291" flag="0"/>
      <psa03 value="0.1280340066" flag="0"/>
      <psa10 value="0.1404394206" flag="0"/>
      <psa30 value="0.0193426553" flag="0"/>
    </comp>
  </station>
  <station code="LTVH" name="LTVH" netid="HU" insttype="" lat="47.3849" lon="21.9007">
    <comp name="--.HHE">
      <acc value="0.1190418628" flag="0"/>
      <vel value="0.0454742877" flag="0"/>
      <psa03 value="0.3123695043" flag="0"/>
      <psa10 value="0.0383224025" flag="0"/>
      <psa30 value="0.0093929065" flag="0"/>
    </comp>
    <comp name="--.HHN">
      <acc value="0.1051096050" flag="0"/>
      <vel value="0.0506910756" flag="0"/>
      <psa03 value="0.2792923519" flag="0"/>
      <psa10 value="0.0475270698" flag="0"/>
      <psa30 value="0.0093261483" flag="0"/>
    </comp>
    <comp name="--.HHZ">
      <acc value="0.0376051750" flag="0"/>
      <vel value="0.0153754382" flag="0"/>
      <psa03 value="0.0706776579" flag="0"/>
      <psa10 value="0.0121913893" flag="0"/>
      <psa30 value="0.0074624659" flag="0"/>
    </comp>
  </station>
  <station code="BZS" name="BZS" netid="MN" insttype="" lat="45.6188" lon="21.6401">
    <comp name="--.HHN">
      <acc value="0.2813333726" flag="0"/>
      <vel value="0.1146970339" flag="0"/>
      <psa03 value="0.4495694131" flag="0"/>
      <psa10 value="0.0450378625" flag="0"/>
      <psa30 value="0.0036249857" flag="0"/>
    </comp>
    <comp name="--.HHE">
      <acc value="0.3766495846" flag="0"/>
      <vel value="0.1622427999" flag="0"/>
      <psa03 value="1.0787157239" flag="0"/>
      <psa10 value="0.0858050421" flag="0"/>
      <psa30 value="0.0110859459" flag="0"/>
    </comp>
    <comp name="--.HHZ">
      <acc value="0.1861344977" flag="0"/>
      <vel value="0.0705313617" flag="0"/>
      <psa03 value="0.2332932826" flag="0"/>
      <psa10 value="0.0393506049" flag="0"/>
      <psa30 value="0.0045029594" flag="0"/>
    </comp>
  </station>
  <station code="BANR" name="BANR" netid="RO" insttype="330" lat="45.3828" lon="21.137">
    <comp name="--.HHE">
      <acc value="1.8191583737" flag="0"/>
      <vel value="1.6279171947" flag="0"/>
      <psa03 value="4.1520729935" flag="0"/>
      <psa10 value="2.1250928076" flag="0"/>
      <psa30 value="0.1968115420" flag="0"/>
    </comp>
    <comp name="--.HHN">
      <acc value="1.2494352620" flag="0"/>
      <vel value="0.7845341866" flag="0"/>
      <psa03 value="2.5464648929" flag="0"/>
      <psa10 value="1.2496333165" flag="0"/>
      <psa30 value="0.1139078793" flag="0"/>
    </comp>
    <comp name="--.HHZ">
      <acc value="0.4023932342" flag="0"/>
      <vel value="0.3064872863" flag="0"/>
      <psa03 value="0.6781450161" flag="0"/>
      <psa10 value="0.5304299541" flag="0"/>
      <psa30 value="0.0544734579" flag="0"/>
    </comp>
  </station>
  <station code="BORR" name="BORR" netid="RO" insttype="CMG40T.1to100/Quanterra" lat="47.0902" lon="21.7856">
    <comp name="--.HHE">
      <acc value="0.3804271933" flag="0"/>
      <vel value="0.1273276794" flag="0"/>
      <psa03 value="0.9022629583" flag="0"/>
      <psa10 value="0.1072018208" flag="0"/>
      <psa30 value="0.0134666823" flag="0"/>
    </comp>
    <comp name="--.HHN">
      <acc value="0.2576193687" flag="0"/>
      <vel value="0.1642448443" flag="0"/>
      <psa03 value="0.5843964119" flag="0"/>
      <psa10 value="0.1159220225" flag="0"/>
      <psa30 value="0.0149977754" flag="0"/>
    </comp>
    <comp name="--.HHZ">
      <acc value="0.3015876925" flag="0"/>
      <vel value="0.0735248633" flag="0"/>
      <psa03 value="0.2139193717" flag="0"/>
      <psa10 value="0.0663029912" flag="0"/>
      <psa30 value="0.0066101867" flag="0"/>
    </comp>
  </station>
  <station code="BZS" name="BZS" netid="RO" insttype="w/attenuator" lat="45.6188" lon="21.6401">
    <comp name="--.HHE">
      <acc value="0.2804599995" flag="0"/>
      <vel value="0.1214964069" flag="0"/>
      <psa03 value="0.8057545105" flag="0"/>
      <psa10 value="0.0645824753" flag="0"/>
      <psa30 value="0.0083038300" flag="0"/>
    </comp>
    <comp name="--.HHN">
      <acc value="0.2093293057" flag="0"/>
      <vel value="0.0860422740" flag="0"/>
      <psa03 value="0.3377278036" flag="0"/>
      <psa10 value="0.0339213007" flag="0"/>
      <psa30 value="0.0027230844" flag="0"/>
    </comp>
    <comp name="--.HHZ">
      <acc value="0.1384043083" flag="0"/>
      <vel value="0.0527511579" flag="0"/>
      <psa03 value="0.1742502019" flag="0"/>
      <psa10 value="0.0294207385" flag="0"/>
      <psa30 value="0.0033028907" flag="0"/>
    </comp>
  </station>
  <station code="DEV" name="DEV" netid="RO" insttype="200" lat="45.887" lon="22.898">
    <comp name="--.HNE">
      <acc value="0.1310355629" flag="0"/>
      <vel value="0.0630396747" flag="0"/>
      <psa03 value="0.1360225650" flag="0"/>
      <psa10 value="0.0680054933" flag="0"/>
      <psa30 value="0.0038331321" flag="0"/>
    </comp>
    <comp name="--.HNN">
      <acc value="0.0968152533" flag="0"/>
      <vel value="0.0572720484" flag="0"/>
      <psa03 value="0.1450567836" flag="0"/>
      <psa10 value="0.1266529412" flag="0"/>
      <psa30 value="0.0053729656" flag="0"/>
    </comp>
    <comp name="--.HNZ">
      <acc value="0.0855613287" flag="0"/>
      <vel value="0.0318479881" flag="0"/>
      <psa03 value="0.0956731754" flag="0"/>
      <psa10 value="0.0398370645" flag="0"/>
      <psa30 value="0.0042377767" flag="0"/>
    </comp>
  </station>
  <station code="DRGR" name="DRGR" netid="RO" insttype="330" lat="46.7917" lon="22.7111">
    <comp name="--.HHZ">
      <acc value="0.1409768277" flag="0"/>
      <vel value="0.0516126163" flag="0"/>
      <psa03 value="0.2491395728" flag="0"/>
      <psa10 value="0.0608189915" flag="0"/>
      <psa30 value="0.0028638447" flag="0"/>
    </comp>
    <comp name="--.HHN">
      <acc value="0.1470051494" flag="0"/>
      <vel value="0.0510487428" flag="0"/>
      <psa03 value="0.3168018897" flag="0"/>
      <psa10 value="0.0386074122" flag="0"/>
      <psa30 value="0.0056623171" flag="0"/>
    </comp>
    <comp name="--.HHE">
      <acc value="0.1983749330" flag="0"/>
      <vel value="0.0669607609" flag="0"/>
      <psa03 value="0.2912974450" flag="0"/>
      <psa10 value="0.0356751706" flag="0"/>
      <psa30 value="0.0060953032" flag="0"/>
    </comp>
  </station>
  <station code="GZR" name="GZR" netid="RO" insttype="330" lat="45.3933" lon="22.7767">
    <comp name="--.HHZ">
      <acc value="0.1829089517" flag="0"/>
      <vel value="0.0687467868" flag="0"/>
      <psa03 value="0.2892953559" flag="0"/>
      <psa10 value="0.0339252758" flag="0"/>
      <psa30 value="0.0030997118" flag="0"/>
    </comp>
    <comp name="--.HHN">
      <acc value="0.4326886648" flag="0"/>
      <vel value="0.1770391967" flag="0"/>
      <psa03 value="0.9875687948" flag="0"/>
      <psa10 value="0.1348220977" flag="0"/>
      <psa30 value="0.0061268758" flag="0"/>
    </comp>
    <comp name="--.HHE">
      <acc value="0.5086314151" flag="0"/>
      <vel value="0.1874513901" flag="0"/>
      <psa03 value="1.6209037183" flag="0"/>
      <psa10 value="0.0624528934" flag="0"/>
      <psa30 value="0.0060376364" flag="0"/>
    </comp>
  </station>
  <station code="HERR" name="HERR" netid="RO" insttype="200" lat="44.881" lon="22.416">
    <comp name="--.HNN">
      <acc value="0.2641719616" flag="0"/>
      <vel value="0.0891062406" flag="0"/>
      <psa03 value="0.3655015556" flag="0"/>
      <psa10 value="0.0985027119" flag="0"/>
      <psa30 value="0.0071489084" flag="0"/>
    </comp>
    <comp name="--.HNE">
      <acc value="0.2597434588" flag="0"/>
      <vel value="0.1138998089" flag="0"/>
      <psa03 value="0.5044073298" flag="0"/>
      <psa10 value="0.0467524734" flag="0"/>
      <psa30 value="0.0079018410" flag="0"/>
    </comp>
    <comp name="--.HNZ">
      <acc value="0.0965265677" flag="0"/>
      <vel value="0.0401231252" flag="0"/>
      <psa03 value="0.2013057128" flag="0"/>
      <psa10 value="0.0365997650" flag="0"/>
      <psa30 value="0.0079608315" flag="0"/>
    </comp>
  </station>
  <station code="MDVR" name="MDVR" netid="RO" insttype="200" lat="44.7815" lon="21.7128">
    <comp name="--.HNE">
      <acc value="0.0555955517" flag="0"/>
      <vel value="0.0254489987" flag="0"/>
      <psa03 value="0.0946179660" flag="0"/>
      <psa10 value="0.0258225546" flag="0"/>
      <psa30 value="0.0048026506" flag="0"/>
    </comp>
    <comp name="--.HNN">
      <acc value="0.0541546651" flag="0"/>
      <vel value="0.0242435548" flag="0"/>
      <psa03 value="0.1166820203" flag="0"/>
      <psa10 value="0.0270936376" flag="0"/>
      <psa30 value="0.0017085993" flag="0"/>
    </comp>
    <comp name="--.HNZ">
      <acc value="0.0340905366" flag="0"/>
      <vel value="0.0157421717" flag="0"/>
      <psa03 value="0.0559851236" flag="0"/>
      <psa10 value="0.0223615854" flag="0"/>
      <psa30 value="0.0027710324" flag="0"/>
    </comp>
  </station>
  <station code="MESR" name="MESR" netid="RO" insttype="200" lat="47.1499" lon="22.9494">
    <comp name="--.HNE">
      <acc value="0.2703591044" flag="0"/>
      <vel value="0.1685789952" flag="0"/>
      <psa03 value="0.5737645415" flag="0"/>
      <psa10 value="0.2056881791" flag="0"/>
      <psa30 value="0.0166949274" flag="0"/>
    </comp>
    <comp name="--.HNN">
      <acc value="0.3409809827" flag="0"/>
      <vel value="0.1744340757" flag="0"/>
      <psa03 value="1.1546365415" flag="0"/>
      <psa10 value="0.1621224285" flag="0"/>
      <psa30 value="0.0209258797" flag="0"/>
    </comp>
    <comp name="--.HNZ">
      <acc value="0.0907653385" flag="0"/>
      <vel value="0.0808073787" flag="0"/>
      <psa03 value="0.2111718271" flag="0"/>
      <psa10 value="0.1010879848" flag="0"/>
      <psa30 value="0.0076322314" flag="0"/>
    </comp>
  </station>
  <station code="SNMR" name="SNMR" netid="RO" insttype="200" lat="46.0713" lon="20.6017">
    <comp name="--.HNN">
      <acc value="0.3517314480" flag="0"/>
      <vel value="0.1504850426" flag="0"/>
      <psa03 value="0.5963179235" flag="0"/>
      <psa10 value="0.1050683635" flag="0"/>
      <psa30 value="0.0259461098" flag="0"/>
    </comp>
    <comp name="--.HNZ">
      <acc value="0.2371081509" flag="0"/>
      <vel value="0.0722123685" flag="0"/>
      <psa03 value="0.1515991446" flag="0"/>
      <psa10 value="0.0821494311" flag="0"/>
      <psa30 value="0.0063389650" flag="0"/>
    </comp>
    <comp name="--.HNE">
      <acc value="0.4855040138" flag="0"/>
      <vel value="0.2615310449" flag="0"/>
      <psa03 value="0.7386922884" flag="0"/>
      <psa10 value="0.1926914688" flag="0"/>
      <psa30 value="0.0181769163" flag="0"/>
    </comp>
  </station>
  <station code="SURR" name="SURR" netid="RO" insttype="Linear" lat="45.754" lon="22.1246">
    <comp name="--.HHE">
      <acc value="0.4606485698" flag="0"/>
      <vel value="0.0673498867" flag="0"/>
      <psa03 value="0.2233706981" flag="0"/>
      <psa10 value="0.0350058028" flag="0"/>
      <psa30 value="0.0038496614" flag="0"/>
    </comp>
    <comp name="--.HHN">
      <acc value="0.4897408820" flag="0"/>
      <vel value="0.0729251109" flag="0"/>
      <psa03 value="0.2333980678" flag="0"/>
      <psa10 value="0.0368577660" flag="0"/>
      <psa30 value="0.0050501136" flag="0"/>
    </comp>
    <comp name="--.HHZ">
      <acc value="0.1966137311" flag="0"/>
      <vel value="0.0527124350" flag="0"/>
      <psa03 value="0.2119016250" flag="0"/>
      <psa10 value="0.0424865212" flag="0"/>
      <psa30 value="0.0034740982" flag="0"/>
    </comp>
  </station>
</stationlist>
