<stationlist created="1686141055">
	<station code="BLKB" name="BLKB" netid="BS" source="National Seismic Network of Bulgaria (BS)" insttype="" lat="43.6227" lon="22.675">
		<comp name=".HNE" depth="0.0">
			<acc value="0.0170005202362" flag="0"/>
			<vel value="0.00939100589955" flag="0"/>
			<psa03 value="0.0334569663598" flag="0"/>
			<psa10 value="0.023429600221" flag="0"/>
			<psa30 value="0.00282875739129" flag="0"/>
		</comp>
		<comp name=".HNN" depth="0.0">
			<acc value="0.0105859821981" flag="0"/>
			<vel value="0.00686776149606" flag="0"/>
			<psa03 value="0.0194030783275" flag="0"/>
			<psa10 value="0.00689990536612" flag="0"/>
			<psa30 value="0.000937373450558" flag="0"/>
		</comp>
		<comp name=".HNZ" depth="0.0">
			<acc value="0.00749426835636" flag="0"/>
			<vel value="0.00548201812942" flag="0"/>
			<psa03 value="0.0219294527186" flag="0"/>
			<psa10 value="0.00938429353838" flag="0"/>
			<psa30 value="0.00136798228878" flag="0"/>
		</comp>
	</station>
	<station code="KOZAM" name="KOZAM" netid="BS" source="National Seismic Network of Bulgaria (BS)" insttype="" lat="43.8274" lon="23.2364">
		<comp name=".HNE" depth="0.0">
			<acc value="0.0190410820705" flag="0"/>
			<vel value="0.024475607812" flag="0"/>
			<psa03 value="0.0627691164795" flag="0"/>
			<psa10 value="0.0288553771521" flag="0"/>
			<psa30 value="0.00950332871557" flag="0"/>
		</comp>
		<comp name=".HNN" depth="0.0">
			<acc value="0.0275610864118" flag="0"/>
			<vel value="0.0245165123964" flag="0"/>
			<psa03 value="0.0745185614888" flag="0"/>
			<psa10 value="0.0250282036207" flag="0"/>
			<psa30 value="0.00683876095101" flag="0"/>
		</comp>
		<comp name=".HNZ" depth="0.0">
			<acc value="0.0132921262368" flag="0"/>
			<vel value="0.020903145097" flag="0"/>
			<psa03 value="0.0344113238522" flag="0"/>
			<psa10 value="0.0119190189515" flag="0"/>
			<psa30 value="0.00925603983389" flag="0"/>
		</comp>
	</station>
	<station code="ARR" name="ARR" netid="RO" source="Romanian Seismic Network (NIEP)" insttype="" lat="45.3657" lon="24.6332">
		<comp name=".HNE" depth="0.0">
			<acc value="0.00831630507509" flag="0"/>
			<vel value="0.00628702829884" flag="0"/>
			<psa03 value="0.0239903548683" flag="0"/>
			<psa10 value="0.00793117821413" flag="0"/>
			<psa30 value="0.0016720569114" flag="0"/>
		</comp>
		<comp name=".HNN" depth="0.0">
			<acc value="0.00625725997753" flag="0"/>
			<vel value="0.00547135263465" flag="0"/>
			<psa03 value="0.0332975599666" flag="0"/>
			<psa10 value="0.00943206139029" flag="0"/>
			<psa30 value="0.00166721544484" flag="0"/>
		</comp>
		<comp name=".HNZ" depth="0.0">
			<acc value="0.00500943679984" flag="0"/>
			<vel value="0.00481591931882" flag="0"/>
			<psa03 value="0.0113620729941" flag="0"/>
			<psa10 value="0.00468398529102" flag="0"/>
			<psa30 value="0.00195412549289" flag="0"/>
		</comp>
	</station>
	<station code="BAIL" name="BAIL" netid="RO" source="Romanian Seismic Network (NIEP)" insttype="" lat="44.0201" lon="23.345">
		<comp name=".HNE" depth="0.0">
			<acc value="0.253949250036" flag="0"/>
			<vel value="0.275157349157" flag="0"/>
			<psa03 value="0.702512954701" flag="0"/>
			<psa10 value="0.24213687538" flag="0"/>
			<psa30 value="0.0482690509212" flag="0"/>
		</comp>
		<comp name=".HNN" depth="0.0">
			<acc value="0.302133676738" flag="0"/>
			<vel value="0.27953104221" flag="0"/>
			<psa03 value="0.858983486774" flag="0"/>
			<psa10 value="0.269751229695" flag="0"/>
			<psa30 value="0.0918071351056" flag="0"/>
		</comp>
		<comp name=".HNZ" depth="0.0">
			<acc value="0.0814601123368" flag="0"/>
			<vel value="0.0711090146683" flag="0"/>
			<psa03 value="0.198644450887" flag="0"/>
			<psa10 value="0.0563716830975" flag="0"/>
			<psa30 value="0.0214492759093" flag="0"/>
		</comp>
	</station>
	<station code="BANR" name="BANR" netid="RO" source="Romanian Seismic Network (NIEP)" insttype="" lat="45.3828" lon="21.137">
		<comp name=".HNE" depth="0.0">
			<acc value="0.236332483656" flag="0"/>
			<vel value="0.212471415004" flag="0"/>
			<psa03 value="0.517554785463" flag="0"/>
			<psa10 value="0.241288839201" flag="0"/>
			<psa30 value="0.0236273401953" flag="0"/>
		</comp>
		<comp name=".HNN" depth="0.0">
			<acc value="0.172527396551" flag="0"/>
			<vel value="0.120719337921" flag="0"/>
			<psa03 value="0.413574397274" flag="0"/>
			<psa10 value="0.188644426768" flag="0"/>
			<psa30 value="0.0139287893806" flag="0"/>
		</comp>
		<comp name=".HNZ" depth="0.0">
			<acc value="0.0509826334176" flag="0"/>
			<vel value="0.0390720780931" flag="0"/>
			<psa03 value="0.0896688359537" flag="0"/>
			<psa10 value="0.065915581584" flag="0"/>
			<psa30 value="0.00700852094676" flag="0"/>
		</comp>
	</station>
	<station code="BMR" name="BMR" netid="RO" source="Romanian Seismic Network (NIEP)" insttype="" lat="47.6728" lon="23.4969">
		<comp name=".HNE" depth="0.0">
			<acc value="0.0915497525591" flag="0"/>
			<vel value="0.0695330252267" flag="0"/>
			<psa03 value="0.183020957574" flag="0"/>
			<psa10 value="0.0597745122681" flag="0"/>
			<psa30 value="0.00487682223219" flag="0"/>
		</comp>
		<comp name=".HNN" depth="0.0">
			<acc value="0.112248616718" flag="0"/>
			<vel value="0.0666550040807" flag="0"/>
			<psa03 value="0.286365178621" flag="0"/>
			<psa10 value="0.0672611782231" flag="0"/>
			<psa30 value="0.00538923367696" flag="0"/>
		</comp>
		<comp name=".HNZ" depth="0.0">
			<acc value="0.0337418325978" flag="0"/>
			<vel value="0.0288732982547" flag="0"/>
			<psa03 value="0.104478712869" flag="0"/>
			<psa10 value="0.0376397021956" flag="0"/>
			<psa30 value="0.00211279162874" flag="0"/>
		</comp>
	</station>
	<station code="BZS" name="BZS" netid="RO" source="Romanian Seismic Network (NIEP)" insttype="" lat="45.6188" lon="21.6401">
		<comp name=".HNE" depth="0.0">
			<acc value="0.280821147393" flag="0"/>
			<vel value="0.124240483741" flag="0"/>
			<psa03 value="0.826211482456" flag="0"/>
			<psa10 value="0.064960633323" flag="0"/>
			<psa30 value="0.00836533916265" flag="0"/>
		</comp>
		<comp name=".HNN" depth="0.0">
			<acc value="0.207310819806" flag="0"/>
			<vel value="0.0864755993266" flag="0"/>
			<psa03 value="0.328487719032" flag="0"/>
			<psa10 value="0.0343315630476" flag="0"/>
			<psa30 value="0.00380864980436" flag="0"/>
		</comp>
		<comp name=".HNZ" depth="0.0">
			<acc value="0.135189802435" flag="0"/>
			<vel value="0.0517259362946" flag="0"/>
			<psa03 value="0.17471970974" flag="0"/>
			<psa10 value="0.0293393842152" flag="0"/>
			<psa30 value="0.00335798453333" flag="0"/>
		</comp>
	</station>
	<station code="CJR" name="CJR" netid="RO" source="Romanian Seismic Network (NIEP)" insttype="" lat="46.7133" lon="23.5981">
		<comp name=".HNE" depth="0.0">
			<acc value="0.1633103603" flag="0"/>
			<vel value="0.112230455497" flag="0"/>
			<psa03 value="0.435966047278" flag="0"/>
			<psa10 value="0.094835494886" flag="0"/>
			<psa30 value="0.00829040753216" flag="0"/>
		</comp>
		<comp name=".HNN" depth="0.0">
			<acc value="0.183266919292" flag="0"/>
			<vel value="0.101033279642" flag="0"/>
			<psa03 value="0.444284765019" flag="0"/>
			<psa10 value="0.122879987696" flag="0"/>
			<psa30 value="0.019179528883" flag="0"/>
		</comp>
		<comp name=".HNZ" depth="0.0">
			<acc value="0.0933213184748" flag="0"/>
			<vel value="0.0537145302572" flag="0"/>
			<psa03 value="0.320506440312" flag="0"/>
			<psa10 value="0.0537269741482" flag="0"/>
			<psa30 value="0.00443250738186" flag="0"/>
		</comp>
	</station>
	<station code="CRAR" name="CRAR" netid="RO" source="Romanian Seismic Network (NIEP)" insttype="" lat="44.325" lon="23.7999">
		<comp name=".HNE" depth="0.0">
			<acc value="0.0236459868924" flag="0"/>
			<vel value="0.0231122158406" flag="0"/>
			<psa03 value="0.0644256064219" flag="0"/>
			<psa10 value="0.0276363964006" flag="0"/>
			<psa30 value="0.0108863211654" flag="0"/>
		</comp>
		<comp name=".HNN" depth="0.0">
			<acc value="0.0268191724657" flag="0"/>
			<vel value="0.0304932842387" flag="0"/>
			<psa03 value="0.0896318126676" flag="0"/>
			<psa10 value="0.042978263349" flag="0"/>
			<psa30 value="0.009686720031" flag="0"/>
		</comp>
		<comp name=".HNZ" depth="0.0">
			<acc value="0.0170530608925" flag="0"/>
			<vel value="0.0093654450975" flag="0"/>
			<psa03 value="0.0376372276566" flag="0"/>
			<psa10 value="0.0120727875754" flag="0"/>
			<psa30 value="0.00186744975105" flag="0"/>
		</comp>
	</station>
	<station code="DEV" name="DEV" netid="RO" source="Romanian Seismic Network (NIEP)" insttype="" lat="45.887" lon="22.898">
		<comp name=".HNE" depth="0.0">
			<acc value="0.130942298955" flag="0"/>
			<vel value="0.0628142739197" flag="0"/>
			<psa03 value="0.136713775367" flag="0"/>
			<psa10 value="0.0681188225378" flag="0"/>
			<psa30 value="0.00384806033178" flag="0"/>
		</comp>
		<comp name=".HNN" depth="0.0">
			<acc value="0.0973066497224" flag="0"/>
			<vel value="0.0577924475142" flag="0"/>
			<psa03 value="0.146051310599" flag="0"/>
			<psa10 value="0.126878690091" flag="0"/>
			<psa30 value="0.00536079012603" flag="0"/>
		</comp>
		<comp name=".HNZ" depth="0.0">
			<acc value="0.0837677032483" flag="0"/>
			<vel value="0.0312874622324" flag="0"/>
			<psa03 value="0.0962034875921" flag="0"/>
			<psa10 value="0.0398256432534" flag="0"/>
			<psa30 value="0.00421263990005" flag="0"/>
		</comp>
	</station>
	<station code="DOPR" name="DOPR" netid="RO" source="Romanian Seismic Network (NIEP)" insttype="" lat="45.9675" lon="25.3886">
		<comp name=".HNE" depth="0.0">
			<acc value="0.00611556498191" flag="0"/>
			<vel value="0.00418144887649" flag="0"/>
			<psa03 value="0.0134463816422" flag="0"/>
			<psa10 value="0.00562770952688" flag="0"/>
			<psa30 value="0.00206688671277" flag="0"/>
		</comp>
		<comp name=".HNN" depth="0.0">
			<acc value="0.00574171762408" flag="0"/>
			<vel value="0.00325804776983" flag="0"/>
			<psa03 value="0.0136526817669" flag="0"/>
			<psa10 value="0.00349688985492" flag="0"/>
			<psa30 value="0.00176246446295" flag="0"/>
		</comp>
		<comp name=".HNZ" depth="0.0">
			<acc value="0.00300726466789" flag="0"/>
			<vel value="0.00355024818274" flag="0"/>
			<psa03 value="0.00849311275726" flag="0"/>
			<psa10 value="0.00366896391023" flag="0"/>
			<psa30 value="0.000879857452906" flag="0"/>
		</comp>
	</station>
	<station code="DRGR" name="DRGR" netid="RO" source="Romanian Seismic Network (NIEP)" insttype="" lat="46.7917" lon="22.7111">
		<comp name=".HNE" depth="0.0">
			<acc value="0.101011208479" flag="0"/>
			<vel value="0.033026531033" flag="0"/>
			<psa03 value="0.148615105438" flag="0"/>
			<psa10 value="0.0180235270952" flag="0"/>
			<psa30 value="0.00296696925549" flag="0"/>
		</comp>
		<comp name=".HNN" depth="0.0">
			<acc value="0.0780359430503" flag="0"/>
			<vel value="0.0266160773981" flag="0"/>
			<psa03 value="0.169326362874" flag="0"/>
			<psa10 value="0.0201995018678" flag="0"/>
			<psa30 value="0.00306541536039" flag="0"/>
		</comp>
		<comp name=".HNZ" depth="0.0">
			<acc value="0.0736915525142" flag="0"/>
			<vel value="0.0261830905997" flag="0"/>
			<psa03 value="0.129291169072" flag="0"/>
			<psa10 value="0.0305980632215" flag="0"/>
			<psa30 value="0.00148042369581" flag="0"/>
		</comp>
	</station>
	<station code="GZR" name="GZR" netid="RO" source="Romanian Seismic Network (NIEP)" insttype="" lat="45.3933" lon="22.7767">
		<comp name=".HNE" depth="0.0">
			<acc value="0.455876723729" flag="0"/>
			<vel value="0.194291713151" flag="0"/>
			<psa03 value="1.44203669452" flag="0"/>
			<psa10 value="0.0559310214056" flag="0"/>
			<psa30 value="0.00575051886033" flag="0"/>
		</comp>
		<comp name=".HNN" depth="0.0">
			<acc value="0.457238807712" flag="0"/>
			<vel value="0.173398530433" flag="0"/>
			<psa03 value="1.0759011065" flag="0"/>
			<psa10 value="0.13725469745" flag="0"/>
			<psa30 value="0.00564957508996" flag="0"/>
		</comp>
		<comp name=".HNZ" depth="0.0">
			<acc value="0.178419763487" flag="0"/>
			<vel value="0.0670240540852" flag="0"/>
			<psa03 value="0.288270283991" flag="0"/>
			<psa10 value="0.0339782596429" flag="0"/>
			<psa30 value="0.0030977141667" flag="0"/>
		</comp>
	</station>
	<station code="HERR" name="HERR" netid="RO" source="Romanian Seismic Network (NIEP)" insttype="" lat="44.881" lon="22.416">
		<comp name=".HNE" depth="0.0">
			<acc value="0.256330899857" flag="0"/>
			<vel value="0.114815366215" flag="0"/>
			<psa03 value="0.503810458305" flag="0"/>
			<psa10 value="0.0469511452831" flag="0"/>
			<psa30 value="0.00799160607137" flag="0"/>
		</comp>
		<comp name=".HNN" depth="0.0">
			<acc value="0.262444227345" flag="0"/>
			<vel value="0.0896899556309" flag="0"/>
			<psa03 value="0.369860334765" flag="0"/>
			<psa10 value="0.0986073672541" flag="0"/>
			<psa30 value="0.00704750019565" flag="0"/>
		</comp>
		<comp name=".HNZ" depth="0.0">
			<acc value="0.096677608151" flag="0"/>
			<vel value="0.0405025017572" flag="0"/>
			<psa03 value="0.206005751037" flag="0"/>
			<psa10 value="0.0366739569697" flag="0"/>
			<psa30 value="0.00796658024686" flag="0"/>
		</comp>
	</station>
	<station code="HUMR" name="HUMR" netid="RO" source="Romanian Seismic Network (NIEP)" insttype="" lat="44.5281" lon="24.9804">
		<comp name=".HNE" depth="0.0">
			<acc value="0.00869022636176" flag="0"/>
			<vel value="0.0155748201519" flag="0"/>
			<psa03 value="0.027767508732" flag="0"/>
			<psa10 value="0.0194042729379" flag="0"/>
			<psa30 value="0.00516244990362" flag="0"/>
		</comp>
		<comp name=".HNN" depth="0.0">
			<acc value="0.0105757620261" flag="0"/>
			<vel value="0.0116628369979" flag="0"/>
			<psa03 value="0.0260146217785" flag="0"/>
			<psa10 value="0.0342678313257" flag="0"/>
			<psa30 value="0.00456473072433" flag="0"/>
		</comp>
		<comp name=".HNZ" depth="0.0">
			<acc value="0.00501061979672" flag="0"/>
			<vel value="0.00511922974583" flag="0"/>
			<psa03 value="0.012692568685" flag="0"/>
			<psa10 value="0.00798658344696" flag="0"/>
			<psa30 value="0.0024915183842" flag="0"/>
		</comp>
	</station>
	<station code="JOSR" name="JOSR" netid="RO" source="Romanian Seismic Network (NIEP)" insttype="" lat="46.7059" lon="25.5154">
		<comp name=".HNE" depth="0.0">
			<acc value="0.0131884790818" flag="0"/>
			<vel value="0.0185308033665" flag="0"/>
			<psa03 value="0.0275155180805" flag="0"/>
			<psa10 value="0.0395188691811" flag="0"/>
			<psa30 value="0.00425453600879" flag="0"/>
		</comp>
		<comp name=".HNN" depth="0.0">
			<acc value="0.0148765175625" flag="0"/>
			<vel value="0.0285531721177" flag="0"/>
			<psa03 value="0.0284030534379" flag="0"/>
			<psa10 value="0.0323488629534" flag="0"/>
			<psa30 value="0.00501547891752" flag="0"/>
		</comp>
		<comp name=".HNZ" depth="0.0">
			<acc value="0.00827698792083" flag="0"/>
			<vel value="0.0104656689907" flag="0"/>
			<psa03 value="0.0167736906017" flag="0"/>
			<psa10 value="0.0237091306135" flag="0"/>
			<psa30 value="0.0012883656604" flag="0"/>
		</comp>
	</station>
	<station code="LOT" name="LOT" netid="RO" source="Romanian Seismic Network (NIEP)" insttype="" lat="45.446" lon="23.7698">
		<comp name=".HNE" depth="0.0">
			<acc value="0.0529501723746" flag="0"/>
			<vel value="0.0268014217002" flag="0"/>
			<psa03 value="0.168059070589" flag="0"/>
			<psa10 value="0.0229019365159" flag="0"/>
			<psa30 value="0.00178630500061" flag="0"/>
		</comp>
		<comp name=".HNN" depth="0.0">
			<acc value="0.0412925505733" flag="0"/>
			<vel value="0.0228446069713" flag="0"/>
			<psa03 value="0.135700385318" flag="0"/>
			<psa10 value="0.018316616511" flag="0"/>
			<psa30 value="0.00276764000924" flag="0"/>
		</comp>
		<comp name=".HNZ" depth="0.0">
			<acc value="0.0307955255444" flag="0"/>
			<vel value="0.0187312281632" flag="0"/>
			<psa03 value="0.087850798851" flag="0"/>
			<psa10 value="0.0236328824375" flag="0"/>
			<psa30 value="0.00254022015212" flag="0"/>
		</comp>
	</station>
	<station code="MDB" name="MDB" netid="RO" source="Romanian Seismic Network (NIEP)" insttype="" lat="46.1497" lon="24.3765">
		<comp name=".HNE" depth="0.0">
			<acc value="0.0604163223076" flag="0"/>
			<vel value="0.0343998801205" flag="0"/>
			<psa03 value="0.173194983734" flag="0"/>
			<psa10 value="0.0404491183055" flag="0"/>
			<psa30 value="0.00520308217865" flag="0"/>
		</comp>
		<comp name=".HNN" depth="0.0">
			<acc value="0.0455690925353" flag="0"/>
			<vel value="0.0284872678537" flag="0"/>
			<psa03 value="0.141219021734" flag="0"/>
			<psa10 value="0.0394691296361" flag="0"/>
			<psa30 value="0.00637842337258" flag="0"/>
		</comp>
		<comp name=".HNZ" depth="0.0">
			<acc value="0.0272063451449" flag="0"/>
			<vel value="0.0159829309953" flag="0"/>
			<psa03 value="0.10410075033" flag="0"/>
			<psa10 value="0.0246726781938" flag="0"/>
			<psa30 value="0.0047896139551" flag="0"/>
		</comp>
	</station>
	<station code="MDVR" name="MDVR" netid="RO" source="Romanian Seismic Network (NIEP)" insttype="" lat="44.7815" lon="21.7128">
		<comp name=".HNE" depth="0.0">
			<acc value="0.055172850519" flag="0"/>
			<vel value="0.0260928836077" flag="0"/>
			<psa03 value="0.0947305045975" flag="0"/>
			<psa10 value="0.0258268621529" flag="0"/>
			<psa30 value="0.00483059000289" flag="0"/>
		</comp>
		<comp name=".HNN" depth="0.0">
			<acc value="0.0533678323882" flag="0"/>
			<vel value="0.0243538326329" flag="0"/>
			<psa03 value="0.11689897315" flag="0"/>
			<psa10 value="0.0271868128679" flag="0"/>
			<psa30 value="0.00171501684062" flag="0"/>
		</comp>
		<comp name=".HNZ" depth="0.0">
			<acc value="0.0343251902667" flag="0"/>
			<vel value="0.0155337862318" flag="0"/>
			<psa03 value="0.0553632144161" flag="0"/>
			<psa10 value="0.0224450343734" flag="0"/>
			<psa30 value="0.0027899662799" flag="0"/>
		</comp>
	</station>
	<station code="MHISU" name="MHISU" netid="RO" source="Romanian Seismic Network (NIEP)" insttype="" lat="44.6227" lon="22.6535">
		<comp name=".HNE" depth="0.0">
			<acc value="0.0814870375301" flag="0"/>
			<vel value="0.0904841834261" flag="0"/>
			<psa03 value="0.215928950066" flag="0"/>
			<psa10 value="0.139244894291" flag="0"/>
			<psa30 value="0.014352805803" flag="0"/>
		</comp>
		<comp name=".HNN" depth="0.0">
			<acc value="0.0956850419917" flag="0"/>
			<vel value="0.0892739669284" flag="0"/>
			<psa03 value="0.194684167704" flag="0"/>
			<psa10 value="0.137268348354" flag="0"/>
			<psa30 value="0.0119453788227" flag="0"/>
		</comp>
		<comp name=".HNZ" depth="0.0">
			<acc value="0.0309510608588" flag="0"/>
			<vel value="0.0402619015463" flag="0"/>
			<psa03 value="0.108669219636" flag="0"/>
			<psa10 value="0.0830118616285" flag="0"/>
			<psa30 value="0.00796429426206" flag="0"/>
		</comp>
	</station>
	<station code="MTUR" name="MTUR" netid="RO" source="Romanian Seismic Network (NIEP)" insttype="" lat="45.2349" lon="25.0739">
		<comp name=".HNE" depth="0.0">
			<acc value="0.00951680704306" flag="0"/>
			<vel value="0.0127343153469" flag="0"/>
			<psa03 value="0.0166280832998" flag="0"/>
			<psa10 value="0.016259528364" flag="0"/>
			<psa30 value="0.00327252678884" flag="0"/>
		</comp>
		<comp name=".HNN" depth="0.0">
			<acc value="0.0109970593814" flag="0"/>
			<vel value="0.0150914090315" flag="0"/>
			<psa03 value="0.0219519724396" flag="0"/>
			<psa10 value="0.0221329893269" flag="0"/>
			<psa30 value="0.0055135823311" flag="0"/>
		</comp>
		<comp name=".HNZ" depth="0.0">
			<acc value="0.00514974250179" flag="0"/>
			<vel value="0.00564384178985" flag="0"/>
			<psa03 value="0.0102855466014" flag="0"/>
			<psa10 value="0.0112111267446" flag="0"/>
			<psa30 value="0.00269286088882" flag="0"/>
		</comp>
	</station>
	<station code="OTISU" name="OTISU" netid="RO" source="Romanian Seismic Network (NIEP)" insttype="" lat="44.4278" lon="24.3755">
		<comp name=".HNE" depth="0.0">
			<acc value="0.0194679022142" flag="0"/>
			<vel value="0.0147343866657" flag="0"/>
			<psa03 value="0.0745620227014" flag="0"/>
			<psa10 value="0.0226758002855" flag="0"/>
			<psa30 value="0.00537297718339" flag="0"/>
		</comp>
		<comp name=".HNN" depth="0.0">
