<stationlist created="1732507297">
	<station code="AMRR" name="AMRR" netid="RO" source="Romanian Seismic Network (NIEP)" insttype="" lat="44.6102" lon="27.3351">
		<comp name=".HNE" depth="0.0">
			<acc value="0.021950865586344" flag="0"/>
			<vel value="0.00953043356096" flag="0"/>
			<psa03 value="0.0618769896719498" flag="0"/>
			<psa10 value="0.00401893685984268" flag="0"/>
			<psa30 value="0.00026025666781008" flag="0"/>
		</comp>
		<comp name=".HNN" depth="0.0">
			<acc value="0.01507147989717" flag="0"/>
			<vel value="0.00604044251044" flag="0"/>
			<psa03 value="0.025469731515565" flag="0"/>
			<psa10 value="0.00222088470083585" flag="0"/>
			<psa30 value="0.000329779242089475" flag="0"/>
		</comp>
		<comp name=".HNZ" depth="0.0">
			<acc value="0.015685890395952" flag="0"/>
			<vel value="0.00379767919352" flag="0"/>
			<psa03 value="0.0165058811940248" flag="0"/>
			<psa10 value="0.000874739177645744" flag="0"/>
			<psa30 value="0.000158540176987666" flag="0"/>
		</comp>
	</station>
	<station code="ARR" name="ARR" netid="RO" source="Romanian Seismic Network (NIEP)" insttype="" lat="45.3657" lon="24.6332">
		<comp name=".HNE" depth="0.0">
			<acc value="0.0011154963294582" flag="0"/>
			<vel value="0.00050943389263" flag="0"/>
			<psa03 value="0.00342045966158294" flag="0"/>
			<psa10 value="0.00020269347139321" flag="0"/>
			<psa30 value="7.32917953257274e-05" flag="0"/>
		</comp>
		<comp name=".HNN" depth="0.0">
			<acc value="0.0009242087664741" flag="0"/>
			<vel value="0.000380004169672" flag="0"/>
			<psa03 value="0.00236583462206794" flag="0"/>
			<psa10 value="0.000284019967272771" flag="0"/>
			<psa30 value="0.000112813775442365" flag="0"/>
		</comp>
		<comp name=".HNZ" depth="0.0">
			<acc value="0.0008722454174067" flag="0"/>
			<vel value="0.000263991181227" flag="0"/>
			<psa03 value="0.00120708012589293" flag="0"/>
			<psa10 value="0.000190284705037273" flag="0"/>
			<psa30 value="5.51686872066927e-05" flag="0"/>
		</comp>
	</station>
	<station code="BAC" name="BAC" netid="RO" source="Romanian Seismic Network (NIEP)" insttype="" lat="46.5669" lon="26.9124">
		<comp name=".HNE" depth="0.0">
			<acc value="0.011816933575818" flag="0"/>
			<vel value="0.00350544177831" flag="0"/>
			<psa03 value="0.0187736681425406" flag="0"/>
			<psa10 value="0.00164017584109871" flag="0"/>
			<psa30 value="0.000160522079112505" flag="0"/>
		</comp>
		<comp name=".HNN" depth="0.0">
			<acc value="0.01173422539641" flag="0"/>
			<vel value="0.00443607431029" flag="0"/>
			<psa03 value="0.0130250177914294" flag="0"/>
			<psa10 value="0.00192021099361732" flag="0"/>
			<psa30 value="0.000157413995612866" flag="0"/>
		</comp>
		<comp name=".HNZ" depth="0.0">
			<acc value="0.035048898187392" flag="0"/>
			<vel value="0.00375119457349" flag="0"/>
			<psa03 value="0.00552574430866057" flag="0"/>
			<psa10 value="0.000867942262540064" flag="0"/>
			<psa30 value="0.000124047944129873" flag="0"/>
		</comp>
	</station>
	<station code="BAPR" name="BAPR" netid="RO" source="Romanian Seismic Network (NIEP)" insttype="" lat="44.4059" lon="26.119">
		<comp name=".HNE" depth="0.0">
			<acc value="0.03330763362591" flag="0"/>
			<vel value="0.0093711701719" flag="0"/>
			<psa03 value="0.0464963145277429" flag="0"/>
			<psa10 value="0.00337618857779916" flag="0"/>
			<psa30 value="0.000859116130978164" flag="0"/>
		</comp>
		<comp name=".HNN" depth="0.0">
			<acc value="0.027165742128972" flag="0"/>
			<vel value="0.00631986936782" flag="0"/>
			<psa03 value="0.0330259638497066" flag="0"/>
			<psa10 value="0.00437521561780377" flag="0"/>
			<psa30 value="0.00076774200497202" flag="0"/>
		</comp>
		<comp name=".HNZ" depth="0.0">
			<acc value="0.034146427129554" flag="0"/>
			<vel value="0.00349797721132" flag="0"/>
			<psa03 value="0.0144502137661402" flag="0"/>
			<psa10 value="0.000993163057801544" flag="0"/>
			<psa30 value="0.000720675918325088" flag="0"/>
		</comp>
	</station>
	<station code="BIR" name="BIR" netid="RO" source="Romanian Seismic Network (NIEP)" insttype="" lat="46.2334" lon="27.6436">
		<comp name=".HNE" depth="0.0">
			<acc value="0.098144994647964" flag="0"/>
			<vel value="0.0206397755897" flag="0"/>
			<psa03 value="0.0690390787084565" flag="0"/>
			<psa10 value="0.00775588269540224" flag="0"/>
			<psa30 value="0.000567111787122501" flag="0"/>
		</comp>
		<comp name=".HNN" depth="0.0">
			<acc value="0.062693576350698" flag="0"/>
			<vel value="0.016221643936" flag="0"/>
			<psa03 value="0.0372046703559646" flag="0"/>
			<psa10 value="0.00310993429913502" flag="0"/>
			<psa30 value="0.000899102581968528" flag="0"/>
		</comp>
		<comp name=".HNZ" depth="0.0">
			<acc value="0.054422803382922" flag="0"/>
			<vel value="0.0133160685218" flag="0"/>
			<psa03 value="0.0559046356995622" flag="0"/>
			<psa10 value="0.00231943419800611" flag="0"/>
			<psa30 value="0.000194072661048721" flag="0"/>
		</comp>
	</station>
	<station code="BISRR" name="BISRR" netid="RO" source="Romanian Seismic Network (NIEP)" insttype="" lat="45.5481" lon="26.7099">
		<comp name=".HNE" depth="0.0">
			<acc value="0.012437603157924" flag="0"/>
			<vel value="0.00354040823169" flag="0"/>
			<psa03 value="0.0276198453041782" flag="0"/>
			<psa10 value="0.00179878650452602" flag="0"/>
			<psa30 value="0.000187930470304699" flag="0"/>
		</comp>
		<comp name=".HNN" depth="0.0">
			<acc value="0.008887147233441" flag="0"/>
			<vel value="0.00273194426896" flag="0"/>
			<psa03 value="0.0214857084789991" flag="0"/>
			<psa10 value="0.00204465818294308" flag="0"/>
			<psa30 value="0.000153783012890753" flag="0"/>
		</comp>
		<comp name=".HNZ" depth="0.0">
			<acc value="0.015446610243048" flag="0"/>
			<vel value="0.00392933982059" flag="0"/>
			<psa03 value="0.0134165788866575" flag="0"/>
			<psa10 value="0.0016715301447317" flag="0"/>
			<psa30 value="0.000114071007165401" flag="0"/>
		</comp>
	</station>
	<station code="BSTR" name="BSTR" netid="RO" source="Romanian Seismic Network (NIEP)" insttype="" lat="44.4458" lon="26.0984">
		<comp name=".HNE" depth="0.0">
			<acc value="0.017335979208246" flag="0"/>
			<vel value="0.00776268148459" flag="0"/>
			<psa03 value="0.0413675607103908" flag="0"/>
			<psa10 value="0.00257330140608744" flag="0"/>
			<psa30 value="0.000720200157641417" flag="0"/>
		</comp>
		<comp name=".HNN" depth="0.0">
			<acc value="0.017983849976136" flag="0"/>
			<vel value="0.00966446944588" flag="0"/>
			<psa03 value="0.0314869322088757" flag="0"/>
			<psa10 value="0.00451500331556534" flag="0"/>
			<psa30 value="0.000682189722971721" flag="0"/>
		</comp>
		<comp name=".HNZ" depth="0.0">
			<acc value="0.012892811066184" flag="0"/>
			<vel value="0.00329213631307" flag="0"/>
			<psa03 value="0.0248078751708261" flag="0"/>
			<psa10 value="0.0013445421161926" flag="0"/>
			<psa30 value="0.000805812547794105" flag="0"/>
		</comp>
	</station>
	<station code="BTMR" name="BTMR" netid="RO" source="Romanian Seismic Network (NIEP)" insttype="" lat="44.437" lon="26.1067">
		<comp name=".HNE" depth="0.0">
			<acc value="0.017500266745302" flag="0"/>
			<vel value="0.0077527443393" flag="0"/>
			<psa03 value="0.0443867893652777" flag="0"/>
			<psa10 value="0.00247444251342288" flag="0"/>
			<psa30 value="0.000687513304798375" flag="0"/>
		</comp>
		<comp name=".HNN" depth="0.0">
			<acc value="0.020943975216108" flag="0"/>
			<vel value="0.00814873504319" flag="0"/>
			<psa03 value="0.0255867470797493" flag="0"/>
			<psa10 value="0.00412018278564958" flag="0"/>
			<psa30 value="0.000613190204175614" flag="0"/>
		</comp>
		<comp name=".HNZ" depth="0.0">
			<acc value="0.011210701103394" flag="0"/>
			<vel value="0.00289692216665" flag="0"/>
			<psa03 value="0.0241159751691444" flag="0"/>
			<psa10 value="0.00137311186036079" flag="0"/>
			<psa30 value="0.000544456327976436" flag="0"/>
		</comp>
	</station>
	<station code="BUC" name="BUC" netid="RO" source="Romanian Seismic Network (NIEP)" insttype="" lat="44.4107" lon="26.0938">
		<comp name=".HNE" depth="0.0">
			<acc value="0.020059638322314" flag="0"/>
			<vel value="0.0107831157926" flag="0"/>
			<psa03 value="0.0511524094295288" flag="0"/>
			<psa10 value="0.00391093790856635" flag="0"/>
			<psa30 value="0.000377900606977097" flag="0"/>
		</comp>
		<comp name=".HNN" depth="0.0">
			<acc value="0.01247138885844" flag="0"/>
			<vel value="0.00715941988045" flag="0"/>
			<psa03 value="0.0264151040376915" flag="0"/>
			<psa10 value="0.00545661756786523" flag="0"/>
			<psa30 value="0.000429697475765606" flag="0"/>
		</comp>
		<comp name=".HNZ" depth="0.0">
			<acc value="0.0067367390098008" flag="0"/>
			<vel value="0.00257868778312" flag="0"/>
			<psa03 value="0.0138882898226941" flag="0"/>
			<psa10 value="0.00118520472493427" flag="0"/>
			<psa30 value="0.00074991436564555" flag="0"/>
		</comp>
	</station>
	<station code="BUC1" name="BUC1" netid="RO" source="Romanian Seismic Network (NIEP)" insttype="" lat="44.3479" lon="26.0281">
		<comp name=".HNE" depth="0.0">
			<acc value="0.013590085515" flag="0"/>
			<vel value="0.00983567197273" flag="0"/>
			<psa03 value="0.0406432314771294" flag="0"/>
			<psa10 value="0.00375895791876531" flag="0"/>
			<psa30 value="0.000628991875957351" flag="0"/>
		</comp>
		<comp name=".HNN" depth="0.0">
			<acc value="0.01686766907991" flag="0"/>
			<vel value="0.0127979429999" flag="0"/>
			<psa03 value="0.0483260503219452" flag="0"/>
			<psa10 value="0.00601860729694107" flag="0"/>
			<psa30 value="0.000613575750548535" flag="0"/>
		</comp>
		<comp name=".HNZ" depth="0.0">
			<acc value="0.0096999219541914" flag="0"/>
			<vel value="0.00266517664753" flag="0"/>
			<psa03 value="0.00880067544948484" flag="0"/>
			<psa10 value="0.0010661502756617" flag="0"/>
			<psa30 value="0.000689214615419937" flag="0"/>
		</comp>
	</station>
	<station code="CFR" name="CFR" netid="RO" source="Romanian Seismic Network (NIEP)" insttype="" lat="45.178" lon="28.1362">
		<comp name=".HNE" depth="0.0">
			<acc value="0.034818654986526" flag="0"/>
			<vel value="0.00887367728596" flag="0"/>
			<psa03 value="0.0465601677160242" flag="0"/>
			<psa10 value="0.00158106618318901" flag="0"/>
			<psa30 value="0.000140231646429407" flag="0"/>
		</comp>
		<comp name=".HNN" depth="0.0">
			<acc value="0.040149835095438" flag="0"/>
			<vel value="0.0076039137777" flag="0"/>
			<psa03 value="0.0278372008487865" flag="0"/>
			<psa10 value="0.00100669852477391" flag="0"/>
			<psa30 value="0.000158523977997935" flag="0"/>
		</comp>
		<comp name=".HNZ" depth="0.0">
			<acc value="0.015357899026428" flag="0"/>
			<vel value="0.00370613307895" flag="0"/>
			<psa03 value="0.024303261013445" flag="0"/>
			<psa10 value="0.000807388817577541" flag="0"/>
			<psa30 value="9.38483524095219e-05" flag="0"/>
		</comp>
	</station>
	<station code="CICN" name="CICN" netid="RO" source="Romanian Seismic Network (NIEP)" insttype="" lat="44.197" lon="27.0261">
		<comp name=".HNE" depth="0.0">
			<acc value="0.029845957101936" flag="0"/>
			<vel value="0.010580642558" flag="0"/>
			<psa03 value="0.0625927402119619" flag="0"/>
			<psa10 value="0.00361957290393978" flag="0"/>
			<psa30 value="0.000265992125881033" flag="0"/>
		</comp>
		<comp name=".HNN" depth="0.0">
			<acc value="0.015648957240738" flag="0"/>
			<vel value="0.00591063080168" flag="0"/>
			<psa03 value="0.0233438276640366" flag="0"/>
			<psa10 value="0.00224628958691218" flag="0"/>
			<psa30 value="0.0012204968935938" flag="0"/>
		</comp>
		<comp name=".HNZ" depth="0.0">
			<acc value="0.0084650846525202" flag="0"/>
			<vel value="0.00456931239958" flag="0"/>
			<psa03 value="0.0135887699809896" flag="0"/>
			<psa10 value="0.00238000610122549" flag="0"/>
			<psa30 value="0.00159247361856379" flag="0"/>
		</comp>
	</station>
	<station code="CIOR" name="CIOR" netid="RO" source="Romanian Seismic Network (NIEP)" insttype="" lat="44.4489" lon="25.8799">
		<comp name=".HNE" depth="0.0">
			<acc value="0.012917663670144" flag="0"/>
			<vel value="0.00559673594421" flag="0"/>
			<psa03 value="0.0288505336020874" flag="0"/>
			<psa10 value="0.00255122838136007" flag="0"/>
			<psa30 value="0.000188259203019182" flag="0"/>
		</comp>
		<comp name=".HNN" depth="0.0">
			<acc value="0.016371768229218" flag="0"/>
			<vel value="0.00649266411679" flag="0"/>
			<psa03 value="0.0353612930329377" flag="0"/>
			<psa10 value="0.00428451867209695" flag="0"/>
			<psa30 value="0.000349612430941041" flag="0"/>
		</comp>
		<comp name=".HNZ" depth="0.0">
			<acc value="0.0069712787026986" flag="0"/>
			<vel value="0.00192974615636" flag="0"/>
			<psa03 value="0.00714488672511883" flag="0"/>
			<psa10 value="0.000724966443436242" flag="0"/>
			<psa30 value="0.00012865469461706" flag="0"/>
		</comp>
	</station>
	<station code="CLISU" name="CLISU" netid="RO" source="Romanian Seismic Network (NIEP)" insttype="" lat="44.1901" lon="27.3557">
		<comp name=".HNE" depth="0.0">
			<acc value="0.023799443046102" flag="0"/>
			<vel value="0.0111387133596" flag="0"/>
			<psa03 value="0.0600162987020124" flag="0"/>
			<psa10 value="0.00344710015034236" flag="0"/>
			<psa30 value="0.000292481380664471" flag="0"/>
		</comp>
		<comp name=".HNN" depth="0.0">
			<acc value="0.021017247836556" flag="0"/>
			<vel value="0.00962899926354" flag="0"/>
			<psa03 value="0.0558472100200859" flag="0"/>
			<psa10 value="0.00664649451640281" flag="0"/>
			<psa30 value="0.000405215515414397" flag="0"/>
		</comp>
		<comp name=".HNZ" depth="0.0">
			<acc value="0.027558018002364" flag="0"/>
			<vel value="0.00324957829742" flag="0"/>
			<psa03 value="0.0223560877519334" flag="0"/>
			<psa10 value="0.00194163522536698" flag="0"/>
			<psa30 value="0.000125125463427069" flag="0"/>
		</comp>
	</station>
	<station code="COPA" name="COPA" netid="RO" source="Romanian Seismic Network (NIEP)" insttype="" lat="44.1343" lon="25.2172">
		<comp name=".HNE" depth="0.0">
			<acc value="0.010813085611602" flag="0"/>
			<vel value="0.00501996859694" flag="0"/>
			<psa03 value="0.0285357393110371" flag="0"/>
			<psa10 value="0.00182395746885454" flag="0"/>
			<psa30 value="0.000360670559321332" flag="0"/>
		</comp>
		<comp name=".HNN" depth="0.0">
			<acc value="0.0073870098293472" flag="0"/>
			<vel value="0.00450802205329" flag="0"/>
			<psa03 value="0.0220564585279721" flag="0"/>
			<psa10 value="0.00138865441341614" flag="0"/>
			<psa30 value="0.000195955285763319" flag="0"/>
		</comp>
		<comp name=".HNZ" depth="0.0">
			<acc value="0.0033773759325204" flag="0"/>
			<vel value="0.0010046652608" flag="0"/>
			<psa03 value="0.00522050012939949" flag="0"/>
			<psa10 value="0.000503364321977469" flag="0"/>
			<psa30 value="7.64652347173459e-05" flag="0"/>
		</comp>
	</station>
	<station code="COPR" name="COPR" netid="RO" source="Romanian Seismic Network (NIEP)" insttype="" lat="45.8442" lon="26.1687">
		<comp name=".HNE" depth="0.0">
			<acc value="0.010652496991326" flag="0"/>
			<vel value="0.0053235265284" flag="0"/>
			<psa03 value="0.0409546036665019" flag="0"/>
			<psa10 value="0.00485720129698087" flag="0"/>
			<psa30 value="0.00029722054877788" flag="0"/>
		</comp>
		<comp name=".HNN" depth="0.0">
			<acc value="0.0076463146159986" flag="0"/>
			<vel value="0.00361484486913" flag="0"/>
			<psa03 value="0.018622043514837" flag="0"/>
			<psa10 value="0.00380266097012814" flag="0"/>
			<psa30 value="0.00024808018409466" flag="0"/>
		</comp>
		<comp name=".HNZ" depth="0.0">
			<acc value="0.0034109904821262" flag="0"/>
			<vel value="0.00173019030939" flag="0"/>
			<psa03 value="0.0125797200634722" flag="0"/>
			<psa10 value="0.00112379288326416" flag="0"/>
			<psa30 value="0.000126580247299528" flag="0"/>
		</comp>
	</station>
	<station code="CVD1" name="CVD1" netid="RO" source="Romanian Seismic Network (NIEP)" insttype="" lat="44.3207" lon="28.0624">
		<comp name=".HNE" depth="0.0">
			<acc value="0.025571514674928" flag="0"/>
			<vel value="0.00565127820657" flag="0"/>
			<psa03 value="0.0227158459591372" flag="0"/>
			<psa10 value="0.00137058419291237" flag="0"/>
			<psa30 value="0.00012967913748151" flag="0"/>
		</comp>
		<comp name=".HNN" depth="0.0">
			<acc value="0.022296867808338" flag="0"/>
			<vel value="0.00427282878698" flag="0"/>
			<psa03 value="0.0252603218098543" flag="0"/>
			<psa10 value="0.00209101523824756" flag="0"/>
			<psa30 value="0.000118175159253358" flag="0"/>
		</comp>
		<comp name=".HNZ" depth="0.0">
			<acc value="0.013267432683084" flag="0"/>
			<vel value="0.00266864083747" flag="0"/>
			<psa03 value="0.0145268373316782" flag="0"/>
			<psa10 value="0.000567159153541863" flag="0"/>
			<psa30 value="8.64685666598198e-05" flag="0"/>
		</comp>
	</station>
	<station code="CVDA" name="CVDA" netid="RO" source="Romanian Seismic Network (NIEP)" insttype="" lat="44.3336" lon="28.0374">
		<comp name=".HNE" depth="0.0">
			<acc value="0.021902501559696" flag="0"/>
			<vel value="0.0108875389909" flag="0"/>
			<psa03 value="0.0725898868486179" flag="0"/>
			<psa10 value="0.00332651583409772" flag="0"/>
			<psa30 value="0.000314651677462649" flag="0"/>
		</comp>
		<comp name=".HNN" depth="0.0">
			<acc value="0.025182144870888" flag="0"/>
			<vel value="0.0108618656425" flag="0"/>
			<psa03 value="0.0499238019984961" flag="0"/>
			<psa10 value="0.00396838163580761" flag="0"/>
			<psa30 value="0.000300659891200521" flag="0"/>
		</comp>
		<comp name=".HNZ" depth="0.0">
			<acc value="0.032388466993056" flag="0"/>
			<vel value="0.0107631541872" flag="0"/>
			<psa03 value="0.0913769491078399" flag="0"/>
			<psa10 value="0.00228190850899074" flag="0"/>
			<psa30 value="0.0002088656331982" flag="0"/>
		</comp>
	</station>
	<station code="GIRR" name="GIRR" netid="RO" source="Romanian Seismic Network (NIEP)" insttype="" lat="46.9551" lon="26.5009">
		<comp name=".HNE" depth="0.0">
			<acc value="0.00666633541257" flag="0"/>
			<vel value="0.00134755112663" flag="0"/>
			<psa03 value="0.007312355501419" flag="0"/>
			<psa10 value="0.000586010949257383" flag="0"/>
			<psa30 value="0.000122847018220202" flag="0"/>
		</comp>
		<comp name=".HNN" depth="0.0">
			<acc value="0.005539489300107" flag="0"/>
			<vel value="0.00169797927375" flag="0"/>
			<psa03 value="0.00806421780860357" flag="0"/>
			<psa10 value="0.00076889357214377" flag="0"/>
			<psa30 value="0.00019906899463572" flag="0"/>
		</comp>
		<comp name=".HNZ" depth="0.0">
			<acc value="0.0039215646043446" flag="0"/>
			<vel value="0.00147531051574" flag="0"/>
			<psa03 value="0.0021271427031275" flag="0"/>
			<psa10 value="0.000770030366203091" flag="0"/>
			<psa30 value="0.000502369269082878" flag="0"/>
		</comp>
	</station>
	<station code="GISR" name="GISR" netid="RO" source="Romanian Seismic Network (NIEP)" insttype="" lat="45.4411" lon="28.0541">
		<comp name=".HNE" depth="0.0">
			<acc value="0.050721447218148" flag="0"/>
			<vel value="0.0115271544587" flag="0"/>
			<psa03 value="0.044009441451167" flag="0"/>
			<psa10 value="0.00473072182460877" flag="0"/>
			<psa30 value="0.000660717988073194" flag="0"/>
		</comp>
		<comp name=".HNN" depth="0.0">
			<acc value="0.045529284076014" flag="0"/>
			<vel value="0.0124835625868" flag="0"/>
			<psa03 value="0.0426899087261018" flag="0"/>
			<psa10 value="0.00391749334283401" flag="0"/>
			<psa30 value="0.000750570919554962" flag="0"/>
		</comp>
		<comp name=".HNZ" depth="0.0">
			<acc value="0.054047681890236" flag="0"/>
			<vel value="0.00996966772109" flag="0"/>
			<psa03 value="0.0304768470665392" flag="0"/>
			<psa10 value="0.00173167780109379" flag="0"/>
			<psa30 value="0.000752504693492157" flag="0"/>
		</comp>
	</station>
	<station code="HARR" name="HARR" netid="RO" source="Romanian Seismic Network (NIEP)" insttype="" lat="44.6893" lon="27.9303">
		<comp name=".HNE" depth="0.0">
			<acc value="0.015815773397676" flag="0"/>
			<vel value="0.00476634957134" flag="0"/>
			<psa03 value="0.0277675634231562" flag="0"/>
			<psa10 value="0.00238890333124584" flag="0"/>
			<psa30 value="0.000224438487739831" flag="0"/>
		</comp>
		<comp name=".HNN" depth="0.0">
