<?xml version="1.0" encoding="UTF-8" standalone="yes"?>
<!DOCTYPE earthquake SYSTEM "stationlist.dtd">
<stationlist created="" xmlns="ch.ethz.sed.shakemap.usgs.xml">
  <station code="AMRR" name="AMRR" netid="RO" insttype="200" lat="44.6102" lon="27.3351">
    <comp name="--.HNE">
      <acc value="0.0218184408" flag="0"/>
      <vel value="0.0095088201" flag="0"/>
      <psa03 value="0.0603427374" flag="0"/>
      <psa10 value="0.0040017325" flag="0"/>
      <psa30 value="0.0002707988" flag="0"/>
    </comp>
    <comp name="--.HNZ">
      <acc value="0.0166049413" flag="0"/>
      <vel value="0.0037288963" flag="0"/>
      <psa03 value="0.0161627963" flag="0"/>
      <psa10 value="0.0008719569" flag="0"/>
      <psa30 value="0.0001271212" flag="0"/>
    </comp>
    <comp name="--.HNN">
      <acc value="0.0152911104" flag="0"/>
      <vel value="0.0061111893" flag="0"/>
      <psa03 value="0.0247153896" flag="0"/>
      <psa10 value="0.0022070785" flag="0"/>
      <psa30 value="0.0003235282" flag="0"/>
    </comp>
  </station>
  <station code="BISRR" name="BISRR" netid="RO" insttype="CMG40T.1to100/Basalt" lat="45.5481" lon="26.7099">
    <comp name="--.HHE">
      <acc value="0.0224095477" flag="0"/>
      <vel value="0.0073202082" flag="0"/>
      <psa03 value="0.0588831013" flag="0"/>
      <psa10 value="0.0034254287" flag="0"/>
      <psa30 value="0.0002635186" flag="0"/>
    </comp>
    <comp name="--.HHZ">
      <acc value="0.0309741654" flag="0"/>
      <vel value="0.0075367727" flag="0"/>
      <psa03 value="0.0256731345" flag="0"/>
      <psa10 value="0.0030264923" flag="0"/>
      <psa30 value="0.0001718980" flag="0"/>
    </comp>
    <comp name="--.HHN">
      <acc value="0.0212397699" flag="0"/>
      <vel value="0.0060918591" flag="0"/>
      <psa03 value="0.0412273822" flag="0"/>
      <psa10 value="0.0044124354" flag="0"/>
      <psa30 value="0.0002288638" flag="0"/>
    </comp>
  </station>
  <station code="CIOR" name="CIOR" netid="RO" insttype="200" lat="44.4489" lon="25.8799">
    <comp name="--.HNE">
      <acc value="0.0130108015" flag="0"/>
      <vel value="0.0054367049" flag="0"/>
      <psa03 value="0.0287407022" flag="0"/>
      <psa10 value="0.0025314778" flag="0"/>
      <psa30 value="0.0002038027" flag="0"/>
    </comp>
    <comp name="--.HNZ">
      <acc value="0.0074913280" flag="0"/>
      <vel value="0.0018512907" flag="0"/>
      <psa03 value="0.0070746940" flag="0"/>
      <psa10 value="0.0007270347" flag="0"/>
      <psa30 value="0.0001164066" flag="0"/>
    </comp>
    <comp name="--.HNN">
      <acc value="0.0163623912" flag="0"/>
      <vel value="0.0063908502" flag="0"/>
      <psa03 value="0.0353057772" flag="0"/>
      <psa10 value="0.0042626461" flag="0"/>
      <psa30 value="0.0003706501" flag="0"/>
    </comp>
  </station>
  <station code="IZVR" name="IZVR" netid="RO" insttype="CMG40T.1to100/Quanterra" lat="45.5442" lon="27.7655">
    <comp name="--.HHE">
      <acc value="0.0333016447" flag="0"/>
      <vel value="0.0067808117" flag="0"/>
      <psa03 value="0.0194533573" flag="0"/>
      <psa10 value="0.0013965790" flag="0"/>
      <psa30 value="0.0001159963" flag="0"/>
    </comp>
    <comp name="--.HHN">
      <acc value="0.0330728208" flag="0"/>
      <vel value="0.0086129236" flag="0"/>
      <psa03 value="0.0242651535" flag="0"/>
      <psa10 value="0.0015156826" flag="0"/>
      <psa30 value="0.0001261100" flag="0"/>
    </comp>
    <comp name="--.HHZ">
      <acc value="0.0171604946" flag="0"/>
      <vel value="0.0025670518" flag="0"/>
      <psa03 value="0.0064720676" flag="0"/>
      <psa10 value="0.0004730044" flag="0"/>
      <psa30 value="0.0000493384" flag="0"/>
    </comp>
  </station>
  <station code="MLR" name="MLR" netid="RO" insttype="330HR" lat="45.4909" lon="25.945">
    <comp name="--.HHE">
      <acc value="0.0038478514" flag="0"/>
      <vel value="0.0016039543" flag="0"/>
      <psa03 value="0.0120829639" flag="0"/>
      <psa10 value="0.0013239109" flag="0"/>
      <psa30 value="0.0001565358" flag="0"/>
    </comp>
    <comp name="--.HHN">
      <acc value="0.0029466381" flag="0"/>
      <vel value="0.0017651460" flag="0"/>
      <psa03 value="0.0139883301" flag="0"/>
      <psa10 value="0.0016603913" flag="0"/>
      <psa30 value="0.0001283475" flag="0"/>
    </comp>
    <comp name="--.HHZ">
      <acc value="0.0030059809" flag="0"/>
      <vel value="0.0015876827" flag="0"/>
      <psa03 value="0.0097854229" flag="0"/>
      <psa10 value="0.0012519945" flag="0"/>
      <psa30 value="0.0000705995" flag="0"/>
    </comp>
  </station>
  <station code="NARR" name="NARR" netid="RO" insttype="OBS-SIO/Centaur" lat="45.8165" lon="26.7368">
    <comp name="--.HHE">
      <acc value="0.0392962053" flag="0"/>
      <vel value="0.0095332838" flag="0"/>
      <psa03 value="0.0762067255" flag="0"/>
      <psa10 value="0.0028686671" flag="0"/>
      <psa30 value="0.0002575643" flag="0"/>
    </comp>
    <comp name="--.HHN">
      <acc value="0.0312479715" flag="0"/>
      <vel value="0.0099615866" flag="0"/>
      <psa03 value="0.0920645375" flag="0"/>
      <psa10 value="0.0038813765" flag="0"/>
      <psa30 value="0.0002175883" flag="0"/>
    </comp>
    <comp name="--.HHZ">
      <acc value="0.0236472185" flag="0"/>
      <vel value="0.0057531133" flag="0"/>
      <psa03 value="0.0228031619" flag="0"/>
      <psa10 value="0.0016474292" flag="0"/>
      <psa30 value="0.0001015654" flag="0"/>
    </comp>
  </station>
  <station code="NEGRR" name="NEGRR" netid="RO" insttype="CMG40T.1to100/Quanterra" lat="45.5373" lon="27.8771">
    <comp name="--.HHE">
      <acc value="0.0361631937" flag="0"/>
      <vel value="0.0080150084" flag="0"/>
      <psa03 value="0.0362989256" flag="0"/>
      <psa10 value="0.0014354220" flag="0"/>
      <psa30 value="0.0001565073" flag="0"/>
    </comp>
    <comp name="--.HHN">
      <acc value="0.0365446138" flag="0"/>
      <vel value="0.0066852171" flag="0"/>
      <psa03 value="0.0184003830" flag="0"/>
      <psa10 value="0.0010794831" flag="0"/>
      <psa30 value="0.0001040344" flag="0"/>
    </comp>
    <comp name="--.HHZ">
      <acc value="0.0176826698" flag="0"/>
      <vel value="0.0034735526" flag="0"/>
      <psa03 value="0.0118879620" flag="0"/>
      <psa10 value="0.0004826753" flag="0"/>
      <psa30 value="0.0000566954" flag="0"/>
    </comp>
  </station>
  <station code="ODBI" name="ODBI" netid="RO" insttype="200" lat="45.7633" lon="27.0558">
    <comp name="--.HNN">
      <acc value="0.0175022812" flag="0"/>
      <vel value="0.0032604320" flag="0"/>
      <psa03 value="0.0175769069" flag="0"/>
      <psa10 value="0.0016350828" flag="0"/>
      <psa30 value="0.0001662815" flag="0"/>
    </comp>
    <comp name="--.HNZ">
      <acc value="0.0599608948" flag="0"/>
      <vel value="0.0121241659" flag="0"/>
      <psa03 value="0.0305174414" flag="0"/>
      <psa10 value="0.0024864391" flag="0"/>
      <psa30 value="0.0001946702" flag="0"/>
    </comp>
    <comp name="--.HNE">
      <acc value="0.0303611992" flag="0"/>
      <vel value="0.0040409688" flag="0"/>
      <psa03 value="0.0175459027" flag="0"/>
      <psa10 value="0.0019100738" flag="0"/>
      <psa30 value="0.0002374801" flag="0"/>
    </comp>
  </station>
  <station code="PANC" name="PANC" netid="RO" insttype="Seismometer/Basalt" lat="45.8723" lon="27.1477">
    <comp name="--.HHE">
      <acc value="0.0603937590" flag="0"/>
      <vel value="0.0082654560" flag="0"/>
      <psa03 value="0.0275990220" flag="0"/>
      <psa10 value="0.0020332502" flag="0"/>
      <psa30 value="0.0001662260" flag="0"/>
    </comp>
    <comp name="--.HHN">
      <acc value="0.0596345540" flag="0"/>
      <vel value="0.0078941843" flag="0"/>
      <psa03 value="0.0296434852" flag="0"/>
      <psa10 value="0.0021034617" flag="0"/>
      <psa30 value="0.0001563579" flag="0"/>
    </comp>
    <comp name="--.HHZ">
      <acc value="0.0619690495" flag="0"/>
      <vel value="0.0131480369" flag="0"/>
      <psa03 value="0.0321322626" flag="0"/>
      <psa10 value="0.0019272541" flag="0"/>
      <psa30 value="0.0001663719" flag="0"/>
    </comp>
  </station>
  <station code="PGOR" name="PGOR" netid="RO" insttype="CMG40T.1to100/Quanterra" lat="44.9199" lon="26.9768">
    <comp name="--.HHE">
      <acc value="0.0399131076" flag="0"/>
      <vel value="0.0175932494" flag="0"/>
      <psa03 value="0.0712051074" flag="0"/>
      <psa10 value="0.0057528016" flag="0"/>
      <psa30 value="0.0004941028" flag="0"/>
    </comp>
    <comp name="--.HHN">
      <acc value="0.0741814169" flag="0"/>
      <vel value="0.0218423084" flag="0"/>
      <psa03 value="0.0786916919" flag="0"/>
      <psa10 value="0.0111775732" flag="0"/>
      <psa30 value="0.0006873677" flag="0"/>
    </comp>
    <comp name="--.HHZ">
      <acc value="0.0974993890" flag="0"/>
      <vel value="0.0076493035" flag="0"/>
      <psa03 value="0.0140297379" flag="0"/>
      <psa10 value="0.0014279110" flag="0"/>
      <psa30 value="0.0001910749" flag="0"/>
    </comp>
  </station>
  <station code="PLOR" name="PLOR" netid="RO" insttype="MBB2/Quanterra" lat="45.8512" lon="26.6498">
    <comp name="--.HHN">
      <acc value="0.0100746790" flag="0"/>
      <vel value="0.0042428004" flag="0"/>
      <psa03 value="0.0227146666" flag="0"/>
      <psa10 value="0.0012855947" flag="0"/>
      <psa30 value="0.0001236615" flag="0"/>
    </comp>
    <comp name="--.HHE">
      <acc value="0.0085525627" flag="0"/>
      <vel value="0.0051086405" flag="0"/>
      <psa03 value="0.0230942603" flag="0"/>
      <psa10 value="0.0025189767" flag="0"/>
      <psa30 value="0.0001631142" flag="0"/>
    </comp>
    <comp name="--.HHZ">
      <acc value="0.0052433810" flag="0"/>
      <vel value="0.0018056950" flag="0"/>
      <psa03 value="0.0112842942" flag="0"/>
      <psa10 value="0.0008017755" flag="0"/>
      <psa30 value="0.0000583115" flag="0"/>
    </comp>
  </station>
  <station code="PLOR4" name="PLOR4" netid="RO" insttype="MBB2/Quanterra" lat="45.8512" lon="26.6498">
    <comp name="--.HHE">
      <acc value="0.0085525627" flag="0"/>
      <vel value="0.0051086405" flag="0"/>
      <psa03 value="0.0230942603" flag="0"/>
      <psa10 value="0.0025189767" flag="0"/>
      <psa30 value="0.0001631142" flag="0"/>
    </comp>
    <comp name="--.HHZ">
      <acc value="0.0052433810" flag="0"/>
      <vel value="0.0018056950" flag="0"/>
      <psa03 value="0.0112842942" flag="0"/>
      <psa10 value="0.0008017755" flag="0"/>
      <psa30 value="0.0000583115" flag="0"/>
    </comp>
    <comp name="--.HHN">
      <acc value="0.0100746790" flag="0"/>
      <vel value="0.0042428004" flag="0"/>
      <psa03 value="0.0227146666" flag="0"/>
      <psa10 value="0.0012855947" flag="0"/>
      <psa30 value="0.0001236615" flag="0"/>
    </comp>
  </station>
  <station code="SCHLR" name="SCHLR" netid="RO" insttype="CMG40T.1to100/Quanterra" lat="45.4702" lon="27.8314">
    <comp name="--.HHE">
      <acc value="0.0212594711" flag="0"/>
      <vel value="0.0051062853" flag="0"/>
      <psa03 value="0.0154915189" flag="0"/>
      <psa10 value="0.0012538242" flag="0"/>
      <psa30 value="0.0000926227" flag="0"/>
    </comp>
    <comp name="--.HHZ">
      <acc value="0.0155691032" flag="0"/>
      <vel value="0.0022639572" flag="0"/>
      <psa03 value="0.0065101734" flag="0"/>
      <psa10 value="0.0003843625" flag="0"/>
      <psa30 value="0.0000395340" flag="0"/>
    </comp>
    <comp name="--.HHN">
      <acc value="0.0202882310" flag="0"/>
      <vel value="0.0048409768" flag="0"/>
      <psa03 value="0.0193176273" flag="0"/>
      <psa10 value="0.0011153785" flag="0"/>
      <psa30 value="0.0000887001" flag="0"/>
    </comp>
  </station>
  <station code="SULR" name="SULR" netid="RO" insttype="200" lat="44.6777" lon="26.2526">
    <comp name="--.HNE">
      <acc value="0.0234484094" flag="0"/>
      <vel value="0.0098461813" flag="0"/>
      <psa03 value="0.0464277550" flag="0"/>
      <psa10 value="0.0041933244" flag="0"/>
      <psa30 value="0.0002946947" flag="0"/>
    </comp>
    <comp name="--.HNZ">
      <acc value="0.0229452000" flag="0"/>
      <vel value="0.0046247349" flag="0"/>
      <psa03 value="0.0146005048" flag="0"/>
      <psa10 value="0.0015040533" flag="0"/>
      <psa30 value="0.0000987075" flag="0"/>
    </comp>
    <comp name="--.HNN">
      <acc value="0.0344966243" flag="0"/>
      <vel value="0.0148227894" flag="0"/>
      <psa03 value="0.0630170676" flag="0"/>
      <psa10 value="0.0056435455" flag="0"/>
      <psa30 value="0.0004505493" flag="0"/>
    </comp>
  </station>
  <station code="TESR" name="TESR" netid="RO" insttype="200" lat="46.5118" lon="26.6489">
    <comp name="--.HNE">
      <acc value="0.0070017870" flag="0"/>
      <vel value="0.0018479753" flag="0"/>
      <psa03 value="0.0093587525" flag="0"/>
      <psa10 value="0.0007644094" flag="0"/>
      <psa30 value="0.0000768886" flag="0"/>
    </comp>
    <comp name="--.HNN">
      <acc value="0.0057965375" flag="0"/>
      <vel value="0.0016724160" flag="0"/>
      <psa03 value="0.0085771119" flag="0"/>
      <psa10 value="0.0007129114" flag="0"/>
      <psa30 value="0.0001019664" flag="0"/>
    </comp>
    <comp name="--.HNZ">
      <acc value="0.0036316484" flag="0"/>
      <vel value="0.0008795541" flag="0"/>
      <psa03 value="0.0036511537" flag="0"/>
      <psa10 value="0.0002979140" flag="0"/>
      <psa30 value="0.0001039034" flag="0"/>
    </comp>
  </station>
  <station code="TUDR" name="TUDR" netid="RO" insttype="CMG40T.1to100/Quanterra" lat="45.5939" lon="27.6687">
    <comp name="--.HHE">
      <acc value="0.0692706915" flag="0"/>
      <vel value="0.0172423151" flag="0"/>
      <psa03 value="0.0792012245" flag="0"/>
      <psa10 value="0.0041063469" flag="0"/>
      <psa30 value="0.0003311887" flag="0"/>
    </comp>
    <comp name="--.HHZ">
      <acc value="0.0700518022" flag="0"/>
      <vel value="0.0090937576" flag="0"/>
      <psa03 value="0.0201991453" flag="0"/>
      <psa10 value="0.0009629600" flag="0"/>
      <psa30 value="0.0001536110" flag="0"/>
    </comp>
    <comp name="--.HHN">
      <acc value="0.0613166590" flag="0"/>
      <vel value="0.0151145402" flag="0"/>
      <psa03 value="0.0435200312" flag="0"/>
      <psa10 value="0.0018721751" flag="0"/>
      <psa30 value="0.0002361758" flag="0"/>
    </comp>
  </station>
  <station code="VRI" name="VRI" netid="RO" insttype="Linear" lat="45.8657" lon="26.7277">
    <comp name="--.HHE">
      <acc value="0.0255537303" flag="0"/>
      <vel value="0.0097998241" flag="0"/>
      <psa03 value="0.0659032280" flag="0"/>
      <psa10 value="0.0030897611" flag="0"/>
      <psa30 value="0.0002190331" flag="0"/>
    </comp>
    <comp name="--.HHN">
      <acc value="0.0089239296" flag="0"/>
      <vel value="0.0026216965" flag="0"/>
      <psa03 value="0.0211228296" flag="0"/>
      <psa10 value="0.0014477591" flag="0"/>
      <psa30 value="0.0001081186" flag="0"/>
    </comp>
    <comp name="--.HHZ">
      <acc value="0.0107603397" flag="0"/>
      <vel value="0.0029464237" flag="0"/>
      <psa03 value="0.0106519182" flag="0"/>
      <psa10 value="0.0010007068" flag="0"/>
      <psa30 value="0.0000583058" flag="0"/>
    </comp>
  </station>
</stationlist>
