<?xml version="1.0" encoding="UTF-8" standalone="yes"?>
<!DOCTYPE earthquake SYSTEM "stationlist.dtd">
<stationlist created="" xmlns="ch.ethz.sed.shakemap.usgs.xml">
  <station code="BISRR" name="BISRR" netid="RO" insttype="CMG40T.1to100/Basalt" lat="45.5481" lon="26.7099">
    <comp name="--.HHE">
      <acc value="0.0224095476" flag="0"/>
      <vel value="0.0073202041" flag="0"/>
      <psa03 value="0.0588831013" flag="0"/>
      <psa10 value="0.0034254287" flag="0"/>
      <psa30 value="0.0002651736" flag="0"/>
    </comp>
    <comp name="--.HHN">
      <acc value="0.0212397712" flag="0"/>
      <vel value="0.0060918149" flag="0"/>
      <psa03 value="0.0412273821" flag="0"/>
      <psa10 value="0.0044124369" flag="0"/>
      <psa30 value="0.0002289371" flag="0"/>
    </comp>
    <comp name="--.HHZ">
      <acc value="0.0309741646" flag="0"/>
      <vel value="0.0075367749" flag="0"/>
      <psa03 value="0.0256731345" flag="0"/>
      <psa10 value="0.0030264077" flag="0"/>
      <psa30 value="0.0001729060" flag="0"/>
    </comp>
  </station>
  <station code="CIOR" name="CIOR" netid="RO" insttype="200" lat="44.4489" lon="25.8799">
    <comp name="--.HNN">
      <acc value="0.0163623935" flag="0"/>
      <vel value="0.0063908438" flag="0"/>
      <psa03 value="0.0353057772" flag="0"/>
      <psa10 value="0.0042626461" flag="0"/>
      <psa30 value="0.0003707337" flag="0"/>
    </comp>
    <comp name="--.HNZ">
      <acc value="0.0074913302" flag="0"/>
      <vel value="0.0018512904" flag="0"/>
      <psa03 value="0.0070746940" flag="0"/>
      <psa10 value="0.0007270346" flag="0"/>
      <psa30 value="0.0001164329" flag="0"/>
    </comp>
    <comp name="--.HNE">
      <acc value="0.0130108032" flag="0"/>
      <vel value="0.0054367036" flag="0"/>
      <psa03 value="0.0287407022" flag="0"/>
      <psa10 value="0.0025314777" flag="0"/>
      <psa30 value="0.0002037509" flag="0"/>
    </comp>
  </station>
  <station code="IZVR" name="IZVR" netid="RO" insttype="CMG40T.1to100/Quanterra" lat="45.5442" lon="27.7655">
    <comp name="--.HHE">
      <acc value="0.0333016445" flag="0"/>
      <vel value="0.0067808092" flag="0"/>
      <psa03 value="0.0194533573" flag="0"/>
      <psa10 value="0.0013965791" flag="0"/>
      <psa30 value="0.0001158413" flag="0"/>
    </comp>
    <comp name="--.HHN">
      <acc value="0.0330728210" flag="0"/>
      <vel value="0.0086129265" flag="0"/>
      <psa03 value="0.0242651535" flag="0"/>
      <psa10 value="0.0015156826" flag="0"/>
      <psa30 value="0.0001261696" flag="0"/>
    </comp>
    <comp name="--.HHZ">
      <acc value="0.0171604947" flag="0"/>
      <vel value="0.0025670523" flag="0"/>
      <psa03 value="0.0064720676" flag="0"/>
      <psa10 value="0.0004730044" flag="0"/>
      <psa30 value="0.0000493986" flag="0"/>
    </comp>
  </station>
  <station code="MLR" name="MLR" netid="RO" insttype="330HR" lat="45.4909" lon="25.945">
    <comp name="--.HHN">
      <acc value="0.0029466384" flag="0"/>
      <vel value="0.0017651453" flag="0"/>
      <psa03 value="0.0139883301" flag="0"/>
      <psa10 value="0.0016603913" flag="0"/>
      <psa30 value="0.0001285176" flag="0"/>
    </comp>
    <comp name="--.HHE">
      <acc value="0.0038478514" flag="0"/>
      <vel value="0.0016039540" flag="0"/>
      <psa03 value="0.0120829639" flag="0"/>
      <psa10 value="0.0013239109" flag="0"/>
      <psa30 value="0.0001564702" flag="0"/>
    </comp>
    <comp name="--.HHZ">
      <acc value="0.0030059810" flag="0"/>
      <vel value="0.0015876820" flag="0"/>
      <psa03 value="0.0097854229" flag="0"/>
      <psa10 value="0.0012519945" flag="0"/>
      <psa30 value="0.0000709335" flag="0"/>
    </comp>
  </station>
  <station code="NARR" name="NARR" netid="RO" insttype="OBS-SIO/Centaur" lat="45.8165" lon="26.7368">
    <comp name="--.HHN">
      <acc value="0.0312479719" flag="0"/>
      <vel value="0.0099615864" flag="0"/>
      <psa03 value="0.0920645375" flag="0"/>
      <psa10 value="0.0038813765" flag="0"/>
      <psa30 value="0.0002176883" flag="0"/>
    </comp>
    <comp name="--.HHZ">
      <acc value="0.0236472187" flag="0"/>
      <vel value="0.0057531098" flag="0"/>
      <psa03 value="0.0228031620" flag="0"/>
      <psa10 value="0.0016474290" flag="0"/>
      <psa30 value="0.0001015206" flag="0"/>
    </comp>
    <comp name="--.HHE">
      <acc value="0.0392962056" flag="0"/>
      <vel value="0.0095332830" flag="0"/>
      <psa03 value="0.0762067255" flag="0"/>
      <psa10 value="0.0028686672" flag="0"/>
      <psa30 value="0.0002575644" flag="0"/>
    </comp>
  </station>
  <station code="NEGRR" name="NEGRR" netid="RO" insttype="CMG40T.1to100/Quanterra" lat="45.5373" lon="27.8771">
    <comp name="--.HHE">
      <acc value="0.0361631939" flag="0"/>
      <vel value="0.0080150073" flag="0"/>
      <psa03 value="0.0362989256" flag="0"/>
      <psa10 value="0.0014354220" flag="0"/>
      <psa30 value="0.0001565003" flag="0"/>
    </comp>
    <comp name="--.HHN">
      <acc value="0.0365446136" flag="0"/>
      <vel value="0.0066852162" flag="0"/>
      <psa03 value="0.0184003830" flag="0"/>
      <psa10 value="0.0010794832" flag="0"/>
      <psa30 value="0.0001039791" flag="0"/>
    </comp>
    <comp name="--.HHZ">
      <acc value="0.0176826698" flag="0"/>
      <vel value="0.0034735521" flag="0"/>
      <psa03 value="0.0118879620" flag="0"/>
      <psa10 value="0.0004826752" flag="0"/>
      <psa30 value="0.0000564774" flag="0"/>
    </comp>
  </station>
  <station code="ODBI" name="ODBI" netid="RO" insttype="200" lat="45.7633" lon="27.0558">
    <comp name="--.HNE">
      <acc value="0.0303612000" flag="0"/>
      <vel value="0.0040409704" flag="0"/>
      <psa03 value="0.0175459026" flag="0"/>
      <psa10 value="0.0019100739" flag="0"/>
      <psa30 value="0.0002372351" flag="0"/>
    </comp>
    <comp name="--.HNZ">
      <acc value="0.0599608946" flag="0"/>
      <vel value="0.0121241644" flag="0"/>
      <psa03 value="0.0305174414" flag="0"/>
      <psa10 value="0.0024864581" flag="0"/>
      <psa30 value="0.0001955750" flag="0"/>
    </comp>
    <comp name="--.HNN">
      <acc value="0.0175022798" flag="0"/>
      <vel value="0.0032604358" flag="0"/>
      <psa03 value="0.0175769069" flag="0"/>
      <psa10 value="0.0016350827" flag="0"/>
      <psa30 value="0.0001661394" flag="0"/>
    </comp>
  </station>
  <station code="PANC" name="PANC" netid="RO" insttype="Seismometer/Basalt" lat="45.8723" lon="27.1477">
    <comp name="--.HHZ">
      <acc value="0.0619690493" flag="0"/>
      <vel value="0.0131480370" flag="0"/>
      <psa03 value="0.0321322626" flag="0"/>
      <psa10 value="0.0019272464" flag="0"/>
      <psa30 value="0.0001659999" flag="0"/>
    </comp>
    <comp name="--.HHE">
      <acc value="0.0603937589" flag="0"/>
      <vel value="0.0082654598" flag="0"/>
      <psa03 value="0.0275990220" flag="0"/>
      <psa10 value="0.0020332502" flag="0"/>
      <psa30 value="0.0001660896" flag="0"/>
    </comp>
    <comp name="--.HHN">
      <acc value="0.0596345541" flag="0"/>
      <vel value="0.0078941817" flag="0"/>
      <psa03 value="0.0296434852" flag="0"/>
      <psa10 value="0.0021034617" flag="0"/>
      <psa30 value="0.0001562550" flag="0"/>
    </comp>
  </station>
  <station code="PGOR" name="PGOR" netid="RO" insttype="CMG40T.1to100/Quanterra" lat="44.9199" lon="26.9768">
    <comp name="--.HHZ">
      <acc value="0.0974993889" flag="0"/>
      <vel value="0.0076493023" flag="0"/>
      <psa03 value="0.0140297379" flag="0"/>
      <psa10 value="0.0014279109" flag="0"/>
      <psa30 value="0.0001909497" flag="0"/>
    </comp>
    <comp name="--.HHE">
      <acc value="0.0399131077" flag="0"/>
      <vel value="0.0175932451" flag="0"/>
      <psa03 value="0.0712051074" flag="0"/>
      <psa10 value="0.0057528013" flag="0"/>
      <psa30 value="0.0004939556" flag="0"/>
    </comp>
    <comp name="--.HHN">
      <acc value="0.0741814167" flag="0"/>
      <vel value="0.0218422999" flag="0"/>
      <psa03 value="0.0786916919" flag="0"/>
      <psa10 value="0.0111775731" flag="0"/>
      <psa30 value="0.0006881423" flag="0"/>
    </comp>
  </station>
  <station code="PLOR" name="PLOR" netid="RO" insttype="MBB2/Quanterra" lat="45.8512" lon="26.6498">
    <comp name="--.HHE">
      <acc value="0.0085525630" flag="0"/>
      <vel value="0.0051086389" flag="0"/>
      <psa03 value="0.0230942603" flag="0"/>
      <psa10 value="0.0025189768" flag="0"/>
      <psa30 value="0.0001631602" flag="0"/>
    </comp>
    <comp name="--.HHN">
      <acc value="0.0100746790" flag="0"/>
      <vel value="0.0042428003" flag="0"/>
      <psa03 value="0.0227146666" flag="0"/>
      <psa10 value="0.0012855947" flag="0"/>
      <psa30 value="0.0001236297" flag="0"/>
    </comp>
    <comp name="--.HHZ">
      <acc value="0.0052433813" flag="0"/>
      <vel value="0.0018056950" flag="0"/>
      <psa03 value="0.0112842942" flag="0"/>
      <psa10 value="0.0008017755" flag="0"/>
      <psa30 value="0.0000582044" flag="0"/>
    </comp>
  </station>
  <station code="PLOR4" name="PLOR4" netid="RO" insttype="MBB2/Quanterra" lat="45.8512" lon="26.6498">
    <comp name="--.HHZ">
      <acc value="0.0052433813" flag="0"/>
      <vel value="0.0018056950" flag="0"/>
      <psa03 value="0.0112842942" flag="0"/>
      <psa10 value="0.0008017755" flag="0"/>
      <psa30 value="0.0000582044" flag="0"/>
    </comp>
    <comp name="--.HHN">
      <acc value="0.0100746790" flag="0"/>
      <vel value="0.0042428003" flag="0"/>
      <psa03 value="0.0227146666" flag="0"/>
      <psa10 value="0.0012855947" flag="0"/>
      <psa30 value="0.0001236297" flag="0"/>
    </comp>
    <comp name="--.HHE">
      <acc value="0.0085525630" flag="0"/>
      <vel value="0.0051086389" flag="0"/>
      <psa03 value="0.0230942603" flag="0"/>
      <psa10 value="0.0025189768" flag="0"/>
      <psa30 value="0.0001631602" flag="0"/>
    </comp>
  </station>
  <station code="SCHLR" name="SCHLR" netid="RO" insttype="CMG40T.1to100/Quanterra" lat="45.4702" lon="27.8314">
    <comp name="--.HHE">
      <acc value="0.0212594710" flag="0"/>
      <vel value="0.0051062791" flag="0"/>
      <psa03 value="0.0154915189" flag="0"/>
      <psa10 value="0.0012538242" flag="0"/>
      <psa30 value="0.0000925667" flag="0"/>
    </comp>
    <comp name="--.HHZ">
      <acc value="0.0155691032" flag="0"/>
      <vel value="0.0022639564" flag="0"/>
      <psa03 value="0.0065101734" flag="0"/>
      <psa10 value="0.0003843625" flag="0"/>
      <psa30 value="0.0000393391" flag="0"/>
    </comp>
    <comp name="--.HHN">
      <acc value="0.0202882311" flag="0"/>
      <vel value="0.0048409722" flag="0"/>
      <psa03 value="0.0193176273" flag="0"/>
      <psa10 value="0.0011153785" flag="0"/>
      <psa30 value="0.0000884401" flag="0"/>
    </comp>
  </station>
  <station code="SULR" name="SULR" netid="RO" insttype="200" lat="44.6777" lon="26.2526">
    <comp name="--.HNE">
      <acc value="0.0234484132" flag="0"/>
      <vel value="0.0098461834" flag="0"/>
      <psa03 value="0.0464277550" flag="0"/>
      <psa10 value="0.0041933246" flag="0"/>
      <psa30 value="0.0002944154" flag="0"/>
    </comp>
    <comp name="--.HNZ">
      <acc value="0.0229451975" flag="0"/>
      <vel value="0.0046247362" flag="0"/>
      <psa03 value="0.0146005048" flag="0"/>
      <psa10 value="0.0015040531" flag="0"/>
      <psa30 value="0.0000984831" flag="0"/>
    </comp>
    <comp name="--.HNN">
      <acc value="0.0344966244" flag="0"/>
      <vel value="0.0148227923" flag="0"/>
      <psa03 value="0.0630170676" flag="0"/>
      <psa10 value="0.0056435453" flag="0"/>
      <psa30 value="0.0004505289" flag="0"/>
    </comp>
  </station>
  <station code="TESR" name="TESR" netid="RO" insttype="200" lat="46.5118" lon="26.6489">
    <comp name="--.HNE">
      <acc value="0.0070017870" flag="0"/>
      <vel value="0.0018479756" flag="0"/>
      <psa03 value="0.0093587525" flag="0"/>
      <psa10 value="0.0007644094" flag="0"/>
      <psa30 value="0.0000769244" flag="0"/>
    </comp>
    <comp name="--.HNN">
      <acc value="0.0057965377" flag="0"/>
      <vel value="0.0016724160" flag="0"/>
      <psa03 value="0.0085771119" flag="0"/>
      <psa10 value="0.0007129114" flag="0"/>
      <psa30 value="0.0001019691" flag="0"/>
    </comp>
    <comp name="--.HNZ">
      <acc value="0.0036316484" flag="0"/>
      <vel value="0.0008795537" flag="0"/>
      <psa03 value="0.0036511537" flag="0"/>
      <psa10 value="0.0002979140" flag="0"/>
      <psa30 value="0.0001063800" flag="0"/>
    </comp>
  </station>
  <station code="TUDR" name="TUDR" netid="RO" insttype="CMG40T.1to100/Quanterra" lat="45.5939" lon="27.6687">
    <comp name="--.HHE">
      <acc value="0.0692706916" flag="0"/>
      <vel value="0.0172423505" flag="0"/>
      <psa03 value="0.0792012246" flag="0"/>
      <psa10 value="0.0041063470" flag="0"/>
      <psa30 value="0.0003313927" flag="0"/>
    </comp>
    <comp name="--.HHN">
      <acc value="0.0613166590" flag="0"/>
      <vel value="0.0151145297" flag="0"/>
      <psa03 value="0.0435200312" flag="0"/>
      <psa10 value="0.0018721751" flag="0"/>
      <psa30 value="0.0002363842" flag="0"/>
    </comp>
    <comp name="--.HHZ">
      <acc value="0.0700518023" flag="0"/>
      <vel value="0.0090937496" flag="0"/>
      <psa03 value="0.0201991452" flag="0"/>
      <psa10 value="0.0009629600" flag="0"/>
      <psa30 value="0.0001537213" flag="0"/>
    </comp>
  </station>
  <station code="VRI" name="VRI" netid="RO" insttype="Linear" lat="45.8657" lon="26.7277">
    <comp name="--.HHE">
      <acc value="0.0255537300" flag="0"/>
      <vel value="0.0097998247" flag="0"/>
      <psa03 value="0.0659032280" flag="0"/>
      <psa10 value="0.0030897612" flag="0"/>
      <psa30 value="0.0002188690" flag="0"/>
    </comp>
    <comp name="--.HHN">
      <acc value="0.0089239295" flag="0"/>
      <vel value="0.0026216961" flag="0"/>
      <psa03 value="0.0211228296" flag="0"/>
      <psa10 value="0.0014477591" flag="0"/>
      <psa30 value="0.0001082000" flag="0"/>
    </comp>
    <comp name="--.HHZ">
      <acc value="0.0107603399" flag="0"/>
      <vel value="0.0029464230" flag="0"/>
      <psa03 value="0.0106519182" flag="0"/>
      <psa10 value="0.0010007068" flag="0"/>
      <psa30 value="0.0000583224" flag="0"/>
    </comp>
  </station>
</stationlist>
