<?xml version="1.0" encoding="UTF-8" standalone="yes"?>
<!DOCTYPE earthquake SYSTEM "stationlist.dtd">
<stationlist created="" xmlns="ch.ethz.sed.shakemap.usgs.xml">
  <station code="THERA" name="THERA" netid="GE" insttype="STS-2/N" lat="36.367" lon="25.4753">
    <comp name="--.HHE">
      <acc value="0.1912833268" flag="0"/>
      <vel value="0.0382177025" flag="0"/>
      <psa03 value="0.1127888093" flag="0"/>
      <psa10 value="0.0272889102" flag="0"/>
      <psa30 value="0.0024119695" flag="0"/>
    </comp>
    <comp name="--.HHN">
      <acc value="0.1636478763" flag="0"/>
      <vel value="0.0256897864" flag="0"/>
      <psa03 value="0.0762832905" flag="0"/>
      <psa10 value="0.0140918605" flag="0"/>
      <psa30 value="0.0009812526" flag="0"/>
    </comp>
    <comp name="--.HHZ">
      <acc value="0.1469577638" flag="0"/>
      <vel value="0.0298675026" flag="0"/>
      <psa03 value="0.0783954867" flag="0"/>
      <psa10 value="0.0109206328" flag="0"/>
      <psa30 value="0.0014708036" flag="0"/>
    </comp>
  </station>
</stationlist>
