<?xml version="1.0" encoding="UTF-8" standalone="yes"?>
<!DOCTYPE earthquake SYSTEM "stationlist.dtd">
<stationlist created="" xmlns="ch.ethz.sed.shakemap.usgs.xml">
  <station code="THERA" name="THERA" netid="GE" insttype="STS-2/N" lat="36.367" lon="25.4753">
    <comp name="--.HHE">
      <acc value="0.1912833268" flag="0"/>
      <vel value="0.0382177025" flag="0"/>
      <psa03 value="0.1127888093" flag="0"/>
      <psa10 value="0.0272889102" flag="0"/>
      <psa30 value="0.0024119695" flag="0"/>
    </comp>
    <comp name="--.HHN">
      <acc value="0.1636478763" flag="0"/>
      <vel value="0.0256897864" flag="0"/>
      <psa03 value="0.0762832905" flag="0"/>
      <psa10 value="0.0140918605" flag="0"/>
      <psa30 value="0.0009812526" flag="0"/>
    </comp>
    <comp name="--.HHZ">
      <acc value="0.1469577638" flag="0"/>
      <vel value="0.0298675026" flag="0"/>
      <psa03 value="0.0783954867" flag="0"/>
      <psa10 value="0.0109206328" flag="0"/>
      <psa30 value="0.0014708036" flag="0"/>
    </comp>
  </station>
  <station code="SNT1" name="SNT1" netid="HA" insttype="30" lat="36.4159" lon="25.4282">
    <comp name="--.HHN">
      <acc value="0.1220323164" flag="0"/>
      <vel value="0.0570286318" flag="0"/>
      <psa03 value="0.1329336121" flag="0"/>
      <psa10 value="0.0512806087" flag="0"/>
      <psa30 value="0.0031518006" flag="0"/>
    </comp>
    <comp name="--.HHZ">
      <acc value="0.1695227057" flag="0"/>
      <vel value="0.0366037330" flag="0"/>
      <psa03 value="0.1279231920" flag="0"/>
      <psa10 value="0.0318565647" flag="0"/>
      <psa30 value="0.0019200878" flag="0"/>
    </comp>
    <comp name="--.HHE">
      <acc value="0.1493438702" flag="0"/>
      <vel value="0.0396240147" flag="0"/>
      <psa03 value="0.1428142356" flag="0"/>
      <psa10 value="0.0518748457" flag="0"/>
      <psa30 value="0.0036889833" flag="0"/>
    </comp>
  </station>
  <station code="AMGA" name="AMGA" netid="HL" insttype="SMART24" lat="36.8316" lon="25.8938">
    <comp name="--.HHN">
      <acc value="0.6937228663" flag="0"/>
      <vel value="0.1002985963" flag="0"/>
      <psa03 value="0.3431067083" flag="0"/>
      <psa10 value="0.0267207538" flag="0"/>
      <psa30 value="0.0024677735" flag="0"/>
    </comp>
    <comp name="--.HHE">
      <acc value="0.4837112469" flag="0"/>
      <vel value="0.0684800992" flag="0"/>
      <psa03 value="0.2069806688" flag="0"/>
      <psa10 value="0.0255430014" flag="0"/>
      <psa30 value="0.0023216023" flag="0"/>
    </comp>
    <comp name="--.HHZ">
      <acc value="0.2948808677" flag="0"/>
      <vel value="0.0696683632" flag="0"/>
      <psa03 value="0.2440245964" flag="0"/>
      <psa10 value="0.0338963361" flag="0"/>
      <psa30 value="0.0027780475" flag="0"/>
    </comp>
  </station>
  <station code="SAP3" name="SAP3" netid="HL" insttype="LE3D20_SMART24" lat="36.4356" lon="25.3454">
    <comp name="--.HHE">
      <acc value="0.7546538844" flag="0"/>
      <vel value="0.1946956544" flag="0"/>
      <psa03 value="0.7846325686" flag="0"/>
      <psa10 value="0.1511185539" flag="0"/>
      <psa30 value="0.0154280744" flag="0"/>
    </comp>
    <comp name="--.HHN">
      <acc value="0.6871251500" flag="0"/>
      <vel value="0.2408054640" flag="0"/>
      <psa03 value="0.7774153339" flag="0"/>
      <psa10 value="0.1112489727" flag="0"/>
      <psa30 value="0.0091398741" flag="0"/>
    </comp>
    <comp name="--.HHZ">
      <acc value="0.6113115019" flag="0"/>
      <vel value="0.1478476374" flag="0"/>
      <psa03 value="0.5422125213" flag="0"/>
      <psa10 value="0.0611309983" flag="0"/>
      <psa30 value="0.0059776500" flag="0"/>
    </comp>
  </station>
  <station code="THERA" name="THERA" netid="HL" insttype="120" lat="36.367" lon="25.4753">
    <comp name="--.HHE">
      <acc value="0.1899088865" flag="0"/>
      <vel value="0.0373060502" flag="0"/>
      <psa03 value="0.1093191666" flag="0"/>
      <psa10 value="0.0270759002" flag="0"/>
      <psa30 value="0.0023989784" flag="0"/>
    </comp>
    <comp name="--.HHZ">
      <acc value="0.1496728030" flag="0"/>
      <vel value="0.0291865291" flag="0"/>
      <psa03 value="0.0758672517" flag="0"/>
      <psa10 value="0.0108104387" flag="0"/>
      <psa30 value="0.0014716377" flag="0"/>
    </comp>
    <comp name="--.HHN">
      <acc value="0.1658804576" flag="0"/>
      <vel value="0.0254567663" flag="0"/>
      <psa03 value="0.0741241602" flag="0"/>
      <psa10 value="0.0138353441" flag="0"/>
      <psa30 value="0.0009800870" flag="0"/>
    </comp>
  </station>
  <station code="CMBO" name="CMBO" netid="HT" insttype="120P," lat="36.4709" lon="25.4056">
    <comp name="--.HHE">
      <acc value="0.5491165617" flag="0"/>
      <vel value="0.1690199691" flag="0"/>
      <psa03 value="0.5899129737" flag="0"/>
      <psa10 value="0.1289773398" flag="0"/>
      <psa30 value="0.0119165500" flag="0"/>
    </comp>
    <comp name="--.HHN">
      <acc value="1.1747819973" flag="0"/>
      <vel value="0.3517119508" flag="0"/>
      <psa03 value="0.7441704849" flag="0"/>
      <psa10 value="0.1662302651" flag="0"/>
      <psa30 value="0.0128797256" flag="0"/>
    </comp>
    <comp name="--.HHZ">
      <acc value="0.7351490191" flag="0"/>
      <vel value="0.1766559517" flag="0"/>
      <psa03 value="0.5454741055" flag="0"/>
      <psa10 value="0.0645450382" flag="0"/>
      <psa30 value="0.0067792902" flag="0"/>
    </comp>
  </station>
</stationlist>
