<?xml version="1.0" encoding="UTF-8" standalone="yes"?>
<!DOCTYPE earthquake SYSTEM "stationlist.dtd">
<stationlist created="" xmlns="ch.ethz.sed.shakemap.usgs.xml">
  <station code="GAZ" name="GAZ" netid="KO" insttype="CMG-3T" lat="37.1721" lon="37.2096">
    <comp name="--.HHN">
      <acc value="0.1103992074" flag="0"/>
      <vel value="0.0760065052" flag="0"/>
      <psa03 value="0.2261691951" flag="0"/>
      <psa10 value="0.1232477909" flag="0"/>
      <psa30 value="0.0072668844" flag="0"/>
    </comp>
    <comp name="--.HHZ">
      <acc value="0.1106150679" flag="0"/>
      <vel value="0.0562280515" flag="0"/>
      <psa03 value="0.2001309048" flag="0"/>
      <psa10 value="0.1087962578" flag="0"/>
      <psa30 value="0.0062724120" flag="0"/>
    </comp>
    <comp name="--.HHE">
      <acc value="0.1672454402" flag="0"/>
      <vel value="0.1345977181" flag="0"/>
      <psa03 value="0.3521782872" flag="0"/>
      <psa10 value="0.2064566126" flag="0"/>
      <psa30 value="0.0123569657" flag="0"/>
    </comp>
  </station>
  <station code="KHMN" name="KHMN" netid="KO" insttype="CMG-5T" lat="37.3916" lon="37.1574">
    <comp name="--.HNE">
      <acc value="0.2900187925" flag="0"/>
      <vel value="0.0763078916" flag="0"/>
      <psa03 value="0.3834939618" flag="0"/>
      <psa10 value="0.0622093661" flag="0"/>
      <psa30 value="0.0055367037" flag="0"/>
    </comp>
    <comp name="--.HNZ">
      <acc value="0.2133133247" flag="0"/>
      <vel value="0.0376039579" flag="0"/>
      <psa03 value="0.1133601823" flag="0"/>
      <psa10 value="0.0311051085" flag="0"/>
      <psa30 value="0.0030860753" flag="0"/>
    </comp>
    <comp name="--.HNN">
      <acc value="0.2069764029" flag="0"/>
      <vel value="0.0520845688" flag="0"/>
      <psa03 value="0.2167165574" flag="0"/>
      <psa10 value="0.0594767185" flag="0"/>
      <psa30 value="0.0051106154" flag="0"/>
    </comp>
  </station>
  <station code="SARI" name="SARI" netid="KO" insttype="CMG-3T" lat="38.4072" lon="36.4181">
    <comp name="--.HHE">
      <acc value="0.0580889553" flag="0"/>
      <vel value="0.0342287328" flag="0"/>
      <psa03 value="0.1122222709" flag="0"/>
      <psa10 value="0.0283321730" flag="0"/>
      <psa30 value="0.0021524062" flag="0"/>
    </comp>
    <comp name="--.HHN">
      <acc value="0.0577919385" flag="0"/>
      <vel value="0.0211468902" flag="0"/>
      <psa03 value="0.1017441250" flag="0"/>
      <psa10 value="0.0234949262" flag="0"/>
      <psa30 value="0.0009302676" flag="0"/>
    </comp>
    <comp name="--.HHZ">
      <acc value="0.0361182739" flag="0"/>
      <vel value="0.0177046993" flag="0"/>
      <psa03 value="0.0833059665" flag="0"/>
      <psa10 value="0.0115579849" flag="0"/>
      <psa30 value="0.0015557451" flag="0"/>
    </comp>
  </station>
  <station code="ANDN" name="ANDN" netid="TU" insttype="T" lat="37.58" lon="36.3452">
    <comp name="--.HHZ">
      <acc value="0.1193786740" flag="0"/>
      <vel value="0.0432304594" flag="0"/>
      <psa03 value="0.2182714283" flag="0"/>
      <psa10 value="0.0653645651" flag="0"/>
      <psa30 value="0.0049388606" flag="0"/>
    </comp>
    <comp name="--.HHE">
      <acc value="0.1886846611" flag="0"/>
      <vel value="0.0614616481" flag="0"/>
      <psa03 value="0.3791669486" flag="0"/>
      <psa10 value="0.0652606410" flag="0"/>
      <psa30 value="0.0043823017" flag="0"/>
    </comp>
    <comp name="--.HHN">
      <acc value="0.3099511051" flag="0"/>
      <vel value="0.0826601173" flag="0"/>
      <psa03 value="0.4054954181" flag="0"/>
      <psa10 value="0.0709877542" flag="0"/>
      <psa30 value="0.0044427129" flag="0"/>
    </comp>
  </station>
</stationlist>
