<?xml version="1.0" encoding="UTF-8" standalone="yes"?>
<!DOCTYPE earthquake SYSTEM "stationlist.dtd">
<stationlist created="" xmlns="ch.ethz.sed.shakemap.usgs.xml">
  <station code="GAZ" name="GAZ" netid="KO" insttype="CMG-3T" lat="37.1721" lon="37.2096">
    <comp name="--.HHE">
      <acc value="0.1672454410" flag="0"/>
      <vel value="0.1345977176" flag="0"/>
      <psa03 value="0.3521782872" flag="0"/>
      <psa10 value="0.2064566132" flag="0"/>
      <psa30 value="0.0123569177" flag="0"/>
    </comp>
    <comp name="--.HHN">
      <acc value="0.1103992089" flag="0"/>
      <vel value="0.0760065059" flag="0"/>
      <psa03 value="0.2261691951" flag="0"/>
      <psa10 value="0.1232477858" flag="0"/>
      <psa30 value="0.0072667062" flag="0"/>
    </comp>
    <comp name="--.HHZ">
      <acc value="0.1106150678" flag="0"/>
      <vel value="0.0562280514" flag="0"/>
      <psa03 value="0.2001309048" flag="0"/>
      <psa10 value="0.1087962575" flag="0"/>
      <psa30 value="0.0062724377" flag="0"/>
    </comp>
  </station>
  <station code="KHMN" name="KHMN" netid="KO" insttype="CMG-5T" lat="37.3916" lon="37.1574">
    <comp name="--.HNE">
      <acc value="0.2900188031" flag="0"/>
      <vel value="0.0763078980" flag="0"/>
      <psa03 value="0.3834939618" flag="0"/>
      <psa10 value="0.0622093781" flag="0"/>
      <psa30 value="0.0055373686" flag="0"/>
    </comp>
    <comp name="--.HNN">
      <acc value="0.2069764164" flag="0"/>
      <vel value="0.0520845636" flag="0"/>
      <psa03 value="0.2167165574" flag="0"/>
      <psa10 value="0.0594767125" flag="0"/>
      <psa30 value="0.0051100006" flag="0"/>
    </comp>
    <comp name="--.HNZ">
      <acc value="0.2133132407" flag="0"/>
      <vel value="0.0376039461" flag="0"/>
      <psa03 value="0.1133601823" flag="0"/>
      <psa10 value="0.0311051053" flag="0"/>
      <psa30 value="0.0030869649" flag="0"/>
    </comp>
  </station>
  <station code="ANDN" name="ANDN" netid="TU" insttype="T" lat="37.58" lon="36.3452">
    <comp name="--.HHZ">
      <acc value="0.1193786735" flag="0"/>
      <vel value="0.0432304569" flag="0"/>
      <psa03 value="0.2182714283" flag="0"/>
      <psa10 value="0.0653645690" flag="0"/>
      <psa30 value="0.0049383211" flag="0"/>
    </comp>
    <comp name="--.HHE">
      <acc value="0.1886846618" flag="0"/>
      <vel value="0.0614616497" flag="0"/>
      <psa03 value="0.3791669486" flag="0"/>
      <psa10 value="0.0652606493" flag="0"/>
      <psa30 value="0.0043822674" flag="0"/>
    </comp>
    <comp name="--.HHN">
      <acc value="0.3099511049" flag="0"/>
      <vel value="0.0826601053" flag="0"/>
      <psa03 value="0.4054954181" flag="0"/>
      <psa10 value="0.0709877419" flag="0"/>
      <psa30 value="0.0044433480" flag="0"/>
    </comp>
  </station>
</stationlist>
