<?xml version="1.0" encoding="UTF-8" standalone="yes"?>
<!DOCTYPE earthquake SYSTEM "stationlist.dtd">
<stationlist created="" xmlns="ch.ethz.sed.shakemap.usgs.xml">
  <station code="CEYT" name="CEYT" netid="KO" insttype="CMG-3ESP" lat="37.0105" lon="35.7478">
    <comp name="--.HHE">
      <acc value="0.0015605922" flag="0"/>
      <vel value="0.0005201130" flag="0"/>
      <psa03 value="0.0035015628" flag="0"/>
      <psa10 value="0.0008580022" flag="0"/>
      <psa30 value="0.0000895673" flag="0"/>
    </comp>
    <comp name="--.HHN">
      <acc value="0.0009406915" flag="0"/>
      <vel value="0.0005500379" flag="0"/>
      <psa03 value="0.0019072758" flag="0"/>
      <psa10 value="0.0006761338" flag="0"/>
      <psa30 value="0.0000565836" flag="0"/>
    </comp>
    <comp name="--.HHZ">
      <acc value="0.0007523640" flag="0"/>
      <vel value="0.0004257469" flag="0"/>
      <psa03 value="0.0011164702" flag="0"/>
      <psa10 value="0.0008644864" flag="0"/>
      <psa30 value="0.0000622594" flag="0"/>
    </comp>
  </station>
  <station code="GAZ" name="GAZ" netid="KO" insttype="CMG-3T" lat="37.1721" lon="37.2096">
    <comp name="--.HHE">
      <acc value="0.0033124452" flag="0"/>
      <vel value="0.0015092206" flag="0"/>
      <psa03 value="0.0067119661" flag="0"/>
      <psa10 value="0.0026000366" flag="0"/>
      <psa30 value="0.0001431686" flag="0"/>
    </comp>
    <comp name="--.HHN">
      <acc value="0.0042867016" flag="0"/>
      <vel value="0.0022515980" flag="0"/>
      <psa03 value="0.0118198015" flag="0"/>
      <psa10 value="0.0024495617" flag="0"/>
      <psa30 value="0.0002012771" flag="0"/>
    </comp>
    <comp name="--.HHZ">
      <acc value="0.0019713883" flag="0"/>
      <vel value="0.0012067923" flag="0"/>
      <psa03 value="0.0056538125" flag="0"/>
      <psa10 value="0.0010891882" flag="0"/>
      <psa30 value="0.0000904143" flag="0"/>
    </comp>
  </station>
  <station code="SARI" name="SARI" netid="KO" insttype="CMG-3T" lat="38.4072" lon="36.4181">
    <comp name="--.HHZ">
      <acc value="0.0473866830" flag="0"/>
      <vel value="0.0101805589" flag="0"/>
      <psa03 value="0.0473903581" flag="0"/>
      <psa10 value="0.0046772693" flag="0"/>
      <psa30 value="0.0002578374" flag="0"/>
    </comp>
    <comp name="--.HHE">
      <acc value="0.0862164425" flag="0"/>
      <vel value="0.0150245434" flag="0"/>
      <psa03 value="0.0763205107" flag="0"/>
      <psa10 value="0.0069712022" flag="0"/>
      <psa30 value="0.0004833448" flag="0"/>
    </comp>
    <comp name="--.HHN">
      <acc value="0.0704652107" flag="0"/>
      <vel value="0.0166825930" flag="0"/>
      <psa03 value="0.0755723985" flag="0"/>
      <psa10 value="0.0047298801" flag="0"/>
      <psa30 value="0.0005045280" flag="0"/>
    </comp>
  </station>
  <station code="ANDN" name="ANDN" netid="TU" insttype="T" lat="37.58" lon="36.3452">
    <comp name="--.HHZ">
      <acc value="0.0115192799" flag="0"/>
      <vel value="0.0045861583" flag="0"/>
      <psa03 value="0.0305289330" flag="0"/>
      <psa10 value="0.0079081284" flag="0"/>
      <psa30 value="0.0003971292" flag="0"/>
    </comp>
    <comp name="--.HHN">
      <acc value="0.0271659190" flag="0"/>
      <vel value="0.0071657771" flag="0"/>
      <psa03 value="0.0322737817" flag="0"/>
      <psa10 value="0.0084444806" flag="0"/>
      <psa30 value="0.0004470077" flag="0"/>
    </comp>
    <comp name="--.HHE">
      <acc value="0.0154504694" flag="0"/>
      <vel value="0.0067844586" flag="0"/>
      <psa03 value="0.0306993834" flag="0"/>
      <psa10 value="0.0113887177" flag="0"/>
      <psa30 value="0.0009137255" flag="0"/>
    </comp>
  </station>
</stationlist>
