<?xml version="1.0" encoding="UTF-8" standalone="yes"?>
<!DOCTYPE earthquake SYSTEM "stationlist.dtd">
<stationlist created="" xmlns="ch.ethz.sed.shakemap.usgs.xml">
  <station code="SARI" name="SARI" netid="KO" insttype="CMG-3T" lat="38.4072" lon="36.4181">
    <comp name="--.HHE">
      <acc value="0.0862164433" flag="0"/>
      <vel value="0.0150245432" flag="0"/>
      <psa03 value="0.0763205107" flag="0"/>
      <psa10 value="0.0069712091" flag="0"/>
      <psa30 value="0.0004831215" flag="0"/>
    </comp>
    <comp name="--.HHN">
      <acc value="0.0704652108" flag="0"/>
      <vel value="0.0166825928" flag="0"/>
      <psa03 value="0.0755723985" flag="0"/>
      <psa10 value="0.0047298732" flag="0"/>
      <psa30 value="0.0005044609" flag="0"/>
    </comp>
    <comp name="--.HHZ">
      <acc value="0.0473866834" flag="0"/>
      <vel value="0.0101805588" flag="0"/>
      <psa03 value="0.0473903581" flag="0"/>
      <psa10 value="0.0046772691" flag="0"/>
      <psa30 value="0.0002581067" flag="0"/>
    </comp>
  </station>
  <station code="ANDN" name="ANDN" netid="TU" insttype="T" lat="37.58" lon="36.3452">
    <comp name="--.HHZ">
      <acc value="0.0115192793" flag="0"/>
      <vel value="0.0045861582" flag="0"/>
      <psa03 value="0.0305289330" flag="0"/>
      <psa10 value="0.0079081284" flag="0"/>
      <psa30 value="0.0003972224" flag="0"/>
    </comp>
    <comp name="--.HHN">
      <acc value="0.0271659176" flag="0"/>
      <vel value="0.0071657771" flag="0"/>
      <psa03 value="0.0322737817" flag="0"/>
      <psa10 value="0.0084444807" flag="0"/>
      <psa30 value="0.0004469544" flag="0"/>
    </comp>
    <comp name="--.HHE">
      <acc value="0.0154504703" flag="0"/>
      <vel value="0.0067844580" flag="0"/>
      <psa03 value="0.0306993834" flag="0"/>
      <psa10 value="0.0113887178" flag="0"/>
      <psa30 value="0.0009136806" flag="0"/>
    </comp>
  </station>
</stationlist>
