<?xml version="1.0" encoding="UTF-8" standalone="yes"?>
<!DOCTYPE earthquake SYSTEM "stationlist.dtd">
<stationlist created="" xmlns="ch.ethz.sed.shakemap.usgs.xml">
  <station code="THERA" name="THERA" netid="GE" insttype="STS-2/N" lat="36.367" lon="25.4753">
    <comp name="--.HHE">
      <acc value="0.8201971820" flag="0"/>
      <vel value="0.3444479585" flag="0"/>
      <psa03 value="1.6723353099" flag="0"/>
      <psa10 value="0.1790006509" flag="0"/>
      <psa30 value="0.0210785925" flag="0"/>
    </comp>
    <comp name="--.HHN">
      <acc value="0.5848243891" flag="0"/>
      <vel value="0.1985811522" flag="0"/>
      <psa03 value="1.2727066982" flag="0"/>
      <psa10 value="0.0864745236" flag="0"/>
      <psa30 value="0.0089825915" flag="0"/>
    </comp>
    <comp name="--.HHZ">
      <acc value="0.7687976688" flag="0"/>
      <vel value="0.1706624480" flag="0"/>
      <psa03 value="0.8485448546" flag="0"/>
      <psa10 value="0.0917880567" flag="0"/>
      <psa30 value="0.0171888233" flag="0"/>
    </comp>
  </station>
  <station code="BODM" name="BODM" netid="KO" insttype="ACEBOX" lat="37.031" lon="27.4247">
    <comp name="--.HNZ">
      <acc value="0.0117802563" flag="0"/>
      <vel value="0.0071031180" flag="0"/>
      <psa03 value="0.0379296642" flag="0"/>
      <psa10 value="0.0072989004" flag="0"/>
      <psa30 value="0.0012612772" flag="0"/>
    </comp>
    <comp name="--.HNE">
      <acc value="0.0696553153" flag="0"/>
      <vel value="0.0486654792" flag="0"/>
      <psa03 value="0.1735161115" flag="0"/>
      <psa10 value="0.0234834340" flag="0"/>
      <psa30 value="0.0020672214" flag="0"/>
    </comp>
    <comp name="--.HNN">
      <acc value="0.0984418251" flag="0"/>
      <vel value="0.0616578285" flag="0"/>
      <psa03 value="0.2394063757" flag="0"/>
      <psa10 value="0.0402565894" flag="0"/>
      <psa30 value="0.0021939604" flag="0"/>
    </comp>
  </station>
  <station code="BODT" name="BODT" netid="KO" insttype="CMG-3ESP" lat="37.0622" lon="27.3103">
    <comp name="--.HHN">
      <acc value="0.0829043383" flag="0"/>
      <vel value="0.0435523379" flag="0"/>
      <psa03 value="0.2782012691" flag="0"/>
      <psa10 value="0.0404725718" flag="0"/>
      <psa30 value="0.0024236853" flag="0"/>
    </comp>
    <comp name="--.HHZ">
      <acc value="0.0354088880" flag="0"/>
      <vel value="0.0287356749" flag="0"/>
      <psa03 value="0.0806904240" flag="0"/>
      <psa10 value="0.0264990909" flag="0"/>
      <psa30 value="0.0025472863" flag="0"/>
    </comp>
    <comp name="--.HHE">
      <acc value="0.0712087840" flag="0"/>
      <vel value="0.0323796665" flag="0"/>
      <psa03 value="0.2132140232" flag="0"/>
      <psa10 value="0.0306818869" flag="0"/>
      <psa30 value="0.0024162015" flag="0"/>
    </comp>
  </station>
  <station code="DAT" name="DAT" netid="KO" insttype="CMG-3T" lat="36.7308" lon="27.5767">
    <comp name="--.HHZ">
      <acc value="0.0000283461" flag="0"/>
      <vel value="0.0000035935" flag="0"/>
      <psa03 value="0.0000124353" flag="0"/>
      <psa10 value="0.0000052136" flag="0"/>
      <psa30 value="0.0000009869" flag="0"/>
    </comp>
    <comp name="--.HHE">
      <acc value="0.0133289078" flag="0"/>
      <vel value="0.0098632142" flag="0"/>
      <psa03 value="0.0328017595" flag="0"/>
      <psa10 value="0.0142447197" flag="0"/>
      <psa30 value="0.0031250998" flag="0"/>
    </comp>
    <comp name="--.HHN">
      <acc value="0.0146116874" flag="0"/>
      <vel value="0.0105216808" flag="0"/>
      <psa03 value="0.0454025968" flag="0"/>
      <psa10 value="0.0140848806" flag="0"/>
      <psa30 value="0.0032557362" flag="0"/>
    </comp>
  </station>
  <station code="IDI" name="IDI" netid="MN" insttype="" lat="35.288" lon="24.89">
    <comp name="--.HHE">
      <acc value="0.0525631324" flag="0"/>
      <vel value="0.0383124448" flag="0"/>
      <psa03 value="0.1562101078" flag="0"/>
      <psa10 value="0.0260845774" flag="0"/>
      <psa30 value="0.0027083582" flag="0"/>
    </comp>
    <comp name="--.HHN">
      <acc value="0.0581892353" flag="0"/>
      <vel value="0.0349402492" flag="0"/>
      <psa03 value="0.1842933219" flag="0"/>
      <psa10 value="0.0250987293" flag="0"/>
      <psa30 value="0.0029540777" flag="0"/>
    </comp>
    <comp name="--.HHZ">
      <acc value="0.0639453608" flag="0"/>
      <vel value="0.0418179549" flag="0"/>
      <psa03 value="0.1619432956" flag="0"/>
      <psa10 value="0.0389880799" flag="0"/>
      <psa30 value="0.0019133610" flag="0"/>
    </comp>
  </station>
</stationlist>
