<?xml version="1.0" encoding="UTF-8" standalone="yes"?>
<!DOCTYPE earthquake SYSTEM "stationlist.dtd">
<stationlist created="" xmlns="ch.ethz.sed.shakemap.usgs.xml">
  <station code="THERA" name="THERA" netid="GE" insttype="STS-2/N" lat="36.367" lon="25.4753">
    <comp name="--.HHE">
      <acc value="0.8201971820" flag="0"/>
      <vel value="0.3444479585" flag="0"/>
      <psa03 value="1.6723353099" flag="0"/>
      <psa10 value="0.1790006509" flag="0"/>
      <psa30 value="0.0210785925" flag="0"/>
    </comp>
    <comp name="--.HHN">
      <acc value="0.5848243891" flag="0"/>
      <vel value="0.1985811522" flag="0"/>
      <psa03 value="1.2727066982" flag="0"/>
      <psa10 value="0.0864745236" flag="0"/>
      <psa30 value="0.0089825915" flag="0"/>
    </comp>
    <comp name="--.HHZ">
      <acc value="0.7687976688" flag="0"/>
      <vel value="0.1706624480" flag="0"/>
      <psa03 value="0.8485448546" flag="0"/>
      <psa10 value="0.0917880567" flag="0"/>
      <psa30 value="0.0171888233" flag="0"/>
    </comp>
  </station>
  <station code="SNT1" name="SNT1" netid="HA" insttype="30" lat="36.4159" lon="25.4282">
    <comp name="--.HHE">
      <acc value="0.8121516642" flag="0"/>
      <vel value="0.3064821275" flag="0"/>
      <psa03 value="1.3460594405" flag="0"/>
      <psa10 value="0.2892542089" flag="0"/>
      <psa30 value="0.0423571909" flag="0"/>
    </comp>
    <comp name="--.HHN">
      <acc value="1.0882837399" flag="0"/>
      <vel value="0.4606913243" flag="0"/>
      <psa03 value="1.9185268156" flag="0"/>
      <psa10 value="0.2680899380" flag="0"/>
      <psa30 value="0.0320552065" flag="0"/>
    </comp>
    <comp name="--.HHZ">
      <acc value="0.8476059330" flag="0"/>
      <vel value="0.1983125363" flag="0"/>
      <psa03 value="1.1761333407" flag="0"/>
      <psa10 value="0.1562639534" flag="0"/>
      <psa30 value="0.0202919335" flag="0"/>
    </comp>
  </station>
  <station code="KNSS" name="KNSS" netid="HC" insttype="60" lat="35.3042" lon="25.1802">
    <comp name="--.HHE">
      <acc value="0.1000034414" flag="0"/>
      <vel value="0.0625971010" flag="0"/>
      <psa03 value="0.3262408301" flag="0"/>
      <psa10 value="0.0740890631" flag="0"/>
      <psa30 value="0.0068667909" flag="0"/>
    </comp>
    <comp name="--.HHZ">
      <acc value="0.0913083565" flag="0"/>
      <vel value="0.0398916169" flag="0"/>
      <psa03 value="0.1662361638" flag="0"/>
      <psa10 value="0.0447871693" flag="0"/>
      <psa30 value="0.0056746830" flag="0"/>
    </comp>
    <comp name="--.HHN">
      <acc value="0.1048427869" flag="0"/>
      <vel value="0.0567305979" flag="0"/>
      <psa03 value="0.3004896341" flag="0"/>
      <psa10 value="0.0522115440" flag="0"/>
      <psa30 value="0.0050323137" flag="0"/>
    </comp>
  </station>
  <station code="STIA" name="STIA" netid="HC" insttype="120" lat="35.2021" lon="26.0909">
    <comp name="--.HHE">
      <acc value="0.0488148027" flag="0"/>
      <vel value="0.0322884280" flag="0"/>
      <psa03 value="0.1226421660" flag="0"/>
      <psa10 value="0.0648985816" flag="0"/>
      <psa30 value="0.0064112067" flag="0"/>
    </comp>
    <comp name="--.HHZ">
      <acc value="0.0317611713" flag="0"/>
      <vel value="0.0160545380" flag="0"/>
      <psa03 value="0.0556908235" flag="0"/>
      <psa10 value="0.0208696362" flag="0"/>
      <psa30 value="0.0047049898" flag="0"/>
    </comp>
    <comp name="--.HHN">
      <acc value="0.0406130411" flag="0"/>
      <vel value="0.0352712220" flag="0"/>
      <psa03 value="0.0877532929" flag="0"/>
      <psa10 value="0.0385980680" flag="0"/>
      <psa30 value="0.0067589511" flag="0"/>
    </comp>
  </station>
  <station code="NAX1" name="NAX1" netid="HI" insttype="CMG-5TD,ACCELEROMETER,GURALP" lat="37.1014" lon="25.3741">
    <comp name="--.HNN">
      <acc value="0.3362059184" flag="0"/>
      <vel value="0.1046938122" flag="0"/>
      <psa03 value="0.5337173864" flag="0"/>
      <psa10 value="0.0397887550" flag="0"/>
      <psa30 value="0.0108620208" flag="0"/>
    </comp>
    <comp name="--.HNE">
      <acc value="0.4293949176" flag="0"/>
      <vel value="0.1395580609" flag="0"/>
      <psa03 value="0.5918939755" flag="0"/>
      <psa10 value="0.0612259112" flag="0"/>
      <psa30 value="0.0092533194" flag="0"/>
    </comp>
    <comp name="--.HNZ">
      <acc value="0.2413009825" flag="0"/>
      <vel value="0.0652959141" flag="0"/>
      <psa03 value="0.2485014492" flag="0"/>
      <psa10 value="0.0574893112" flag="0"/>
      <psa30 value="0.0167869438" flag="0"/>
    </comp>
  </station>
  <station code="APE" name="APE" netid="HL" insttype="120" lat="37.0727" lon="25.523">
    <comp name="--.HHE">
      <acc value="0.4935453850" flag="0"/>
      <vel value="0.1096600036" flag="0"/>
      <psa03 value="0.3700371942" flag="0"/>
      <psa10 value="0.0518068145" flag="0"/>
      <psa30 value="0.0181617552" flag="0"/>
    </comp>
    <comp name="--.HHN">
      <acc value="0.5821650181" flag="0"/>
      <vel value="0.1137015197" flag="0"/>
      <psa03 value="0.3910073270" flag="0"/>
      <psa10 value="0.0637386793" flag="0"/>
      <psa30 value="0.0172523025" flag="0"/>
    </comp>
    <comp name="--.HHZ">
      <acc value="0.1868049699" flag="0"/>
      <vel value="0.0589689299" flag="0"/>
      <psa03 value="0.1928149804" flag="0"/>
      <psa10 value="0.0589767131" flag="0"/>
      <psa30 value="0.0171858929" flag="0"/>
    </comp>
  </station>
  <station code="IACM" name="IACM" netid="HL" insttype="120" lat="35.3058" lon="25.0709">
    <comp name="--.HHN">
      <acc value="0.2632073132" flag="0"/>
      <vel value="0.1992096121" flag="0"/>
      <psa03 value="0.8316652006" flag="0"/>
      <psa10 value="0.3484064716" flag="0"/>
      <psa30 value="0.0145293766" flag="0"/>
    </comp>
    <comp name="--.HHE">
      <acc value="0.3044160561" flag="0"/>
      <vel value="0.2181188195" flag="0"/>
      <psa03 value="1.0116432602" flag="0"/>
      <psa10 value="0.2926865506" flag="0"/>
      <psa30 value="0.0253750519" flag="0"/>
    </comp>
    <comp name="--.HHZ">
      <acc value="0.2217012158" flag="0"/>
      <vel value="0.0901993858" flag="0"/>
      <psa03 value="0.5928327241" flag="0"/>
      <psa10 value="0.1575409739" flag="0"/>
      <psa30 value="0.0052053949" flag="0"/>
    </comp>
  </station>
  <station code="IDI" name="IDI" netid="HL" insttype="120" lat="35.288" lon="24.89">
    <comp name="--.HHE">
      <acc value="0.0523160871" flag="0"/>
      <vel value="0.0381329252" flag="0"/>
      <psa03 value="0.1537865224" flag="0"/>
      <psa10 value="0.0262548238" flag="0"/>
      <psa30 value="0.0027346066" flag="0"/>
    </comp>
    <comp name="--.HHN">
      <acc value="0.0576110655" flag="0"/>
      <vel value="0.0347222746" flag="0"/>
      <psa03 value="0.1826341522" flag="0"/>
      <psa10 value="0.0252909729" flag="0"/>
      <psa30 value="0.0029872635" flag="0"/>
    </comp>
    <comp name="--.HHZ">
      <acc value="0.0629663307" flag="0"/>
      <vel value="0.0419507954" flag="0"/>
      <psa03 value="0.1601197329" flag="0"/>
      <psa10 value="0.0392401739" flag="0"/>
      <psa30 value="0.0019332280" flag="0"/>
    </comp>
  </station>
  <station code="MHLO" name="MHLO" netid="HL" insttype="20" lat="36.6898" lon="24.4017">
    <comp name="--.HHZ">
      <acc value="0.1918862106" flag="0"/>
      <vel value="0.1607896143" flag="0"/>
      <psa03 value="0.6966834656" flag="0"/>
      <psa10 value="0.2195638763" flag="0"/>
      <psa30 value="0.0227547920" flag="0"/>
    </comp>
    <comp name="--.HHN">
      <acc value="0.4064355753" flag="0"/>
      <vel value="0.2160514132" flag="0"/>
      <psa03 value="1.4025575454" flag="0"/>
      <psa10 value="0.4771059052" flag="0"/>
      <psa30 value="0.0238726119" flag="0"/>
    </comp>
    <comp name="--.HHE">
      <acc value="0.3729260009" flag="0"/>
      <vel value="0.2094113195" flag="0"/>
      <psa03 value="1.1091339702" flag="0"/>
      <psa10 value="0.3815674515" flag="0"/>
      <psa30 value="0.0303689085" flag="0"/>
    </comp>
  </station>
  <station code="NISR" name="NISR" netid="HL" insttype="65535" lat="36.6106" lon="27.131">
    <comp name="--.HHE">
      <acc value="0.0000000000" flag="0"/>
      <vel value="-100.0000000000" flag="0"/>
      <psa03 value="0.0000000000" flag="0"/>
      <psa10 value="0.0000000000" flag="0"/>
      <psa30 value="0.0000000000" flag="0"/>
    </comp>
    <comp name="--.HHN">
      <acc value="0.1077842010" flag="0"/>
      <vel value="0.0772943447" flag="0"/>
      <psa03 value="0.3151718727" flag="0"/>
      <psa10 value="0.0576440425" flag="0"/>
      <psa30 value="0.0115699928" flag="0"/>
    </comp>
    <comp name="--.HHZ">
      <acc value="0.0603253675" flag="0"/>
      <vel value="0.0411902909" flag="0"/>
      <psa03 value="0.1773779367" flag="0"/>
      <psa10 value="0.0307381880" flag="0"/>
      <psa30 value="0.0029202486" flag="0"/>
    </comp>
  </station>
  <station code="NISR2" name="NISR2" netid="HL" insttype="120" lat="36.5744" lon="27.1767">
    <comp name="--.HHE">
      <acc value="0.1329321843" flag="0"/>
      <vel value="0.0868182877" flag="0"/>
      <psa03 value="0.3568427044" flag="0"/>
      <psa10 value="0.1356813652" flag="0"/>
      <psa30 value="0.0130906376" flag="0"/>
    </comp>
    <comp name="--.HHN">
      <acc value="0.1509581920" flag="0"/>
      <vel value="0.1070972834" flag="0"/>
      <psa03 value="0.3665299114" flag="0"/>
      <psa10 value="0.1426876016" flag="0"/>
      <psa30 value="0.0117307084" flag="0"/>
    </comp>
    <comp name="--.HHZ">
      <acc value="0.0518761405" flag="0"/>
      <vel value="0.0352849049" flag="0"/>
      <psa03 value="0.1334120269" flag="0"/>
      <psa10 value="0.0309993558" flag="0"/>
      <psa30 value="0.0053895948" flag="0"/>
    </comp>
  </station>
  <station code="NPS" name="NPS" netid="HL" insttype="CMG3ESPC-120s" lat="35.2613" lon="25.6104">
    <comp name="--.HHE">
      <acc value="0.0446647376" flag="0"/>
      <vel value="0.0217971598" flag="0"/>
      <psa03 value="0.1048038857" flag="0"/>
      <psa10 value="0.0294133734" flag="0"/>
      <psa30 value="0.0023143381" flag="0"/>
    </comp>
    <comp name="--.HHN">
      <acc value="0.0998480859" flag="0"/>
      <vel value="0.0397481001" flag="0"/>
      <psa03 value="0.2658210389" flag="0"/>
      <psa10 value="0.0736386923" flag="0"/>
      <psa30 value="0.0042601320" flag="0"/>
    </comp>
    <comp name="--.HHZ">
      <acc value="0.0775254078" flag="0"/>
      <vel value="0.0501300425" flag="0"/>
      <psa03 value="0.1406892638" flag="0"/>
      <psa10 value="0.0364695233" flag="0"/>
      <psa30 value="0.0064325118" flag="0"/>
    </comp>
  </station>
  <station code="SAP3" name="SAP3" netid="HL" insttype="LE3D20_SMART24" lat="36.4356" lon="25.3454">
    <comp name="--.HHE">
      <acc value="2.1486157275" flag="0"/>
      <vel value="0.7544942067" flag="0"/>
      <psa03 value="3.1728799955" flag="0"/>
      <psa10 value="0.8290721763" flag="0"/>
      <psa30 value="0.1725795563" flag="0"/>
    </comp>
    <comp name="--.HHN">
      <acc value="2.0975099044" flag="0"/>
      <vel value="0.7931757718" flag="0"/>
      <psa03 value="5.0559377701" flag="0"/>
      <psa10 value="1.3060860658" flag="0"/>
      <psa30 value="0.1733235367" flag="0"/>
    </comp>
    <comp name="--.HHZ">
      <acc value="2.3532515261" flag="0"/>
      <vel value="0.7059665038" flag="0"/>
      <psa03 value="3.7871382557" flag="0"/>
      <psa10 value="0.3527406749" flag="0"/>
      <psa30 value="0.0633056013" flag="0"/>
    </comp>
  </station>
  <station code="SMG" name="SMG" netid="HL" insttype="120" lat="37.7043" lon="26.8377">
    <comp name="--.HHZ">
      <acc value="0.0591123352" flag="0"/>
      <vel value="0.0164422963" flag="0"/>
      <psa03 value="0.0728291491" flag="0"/>
      <psa10 value="0.0153367484" flag="0"/>
      <psa30 value="0.0016662515" flag="0"/>
    </comp>
    <comp name="--.HHN">
      <acc value="0.1079584830" flag="0"/>
      <vel value="0.0361517419" flag="0"/>
      <psa03 value="0.2132478122" flag="0"/>
      <psa10 value="0.0242069281" flag="0"/>
      <psa30 value="0.0023133081" flag="0"/>
    </comp>
    <comp name="--.HHE">
      <acc value="0.1173380713" flag="0"/>
      <vel value="0.0615318657" flag="0"/>
      <psa03 value="0.3774945406" flag="0"/>
      <psa10 value="0.0382831030" flag="0"/>
      <psa30 value="0.0017585927" flag="0"/>
    </comp>
  </station>
  <station code="THERA" name="THERA" netid="HL" insttype="120" lat="36.367" lon="25.4753">
    <comp name="--.HHE">
      <acc value="0.8117013172" flag="0"/>
      <vel value="0.3381592102" flag="0"/>
      <psa03 value="1.6264783843" flag="0"/>
      <psa10 value="0.1779623559" flag="0"/>
      <psa30 value="0.0210634271" flag="0"/>
    </comp>
    <comp name="--.HHN">
      <acc value="0.5863257973" flag="0"/>
      <vel value="0.1960228346" flag="0"/>
      <psa03 value="1.2365312745" flag="0"/>
      <psa10 value="0.0858863387" flag="0"/>
      <psa30 value="0.0089851968" flag="0"/>
    </comp>
    <comp name="--.HHZ">
      <acc value="0.7657680773" flag="0"/>
      <vel value="0.1655528768" flag="0"/>
      <psa03 value="0.8268402449" flag="0"/>
      <psa10 value="0.0916772100" flag="0"/>
      <psa30 value="0.0171795809" flag="0"/>
    </comp>
  </station>
  <station code="THRA" name="THRA" netid="HL" insttype="CMG-5" lat="36.415" lon="25.4324">
    <comp name="00.HNE">
      <acc value="2.8846114036" flag="0"/>
      <vel value="1.4192156581" flag="0"/>
      <psa03 value="8.4831097581" flag="0"/>
      <psa10 value="0.6550274771" flag="0"/>
      <psa30 value="0.0840091505" flag="0"/>
    </comp>
    <comp name="00.HNN">
      <acc value="3.1208928096" flag="0"/>
      <vel value="1.0813259012" flag="0"/>
      <psa03 value="4.4193114376" flag="0"/>
      <psa10 value="0.8945045061" flag="0"/>
      <psa30 value="0.0527203342" flag="0"/>
    </comp>
    <comp name="00.HNZ">
      <acc value="2.0814094244" flag="0"/>
      <vel value="0.6369352872" flag="0"/>
      <psa03 value="4.6632699558" flag="0"/>
      <psa10 value="0.3699687982" flag="0"/>
      <psa30 value="0.0358909209" flag="0"/>
    </comp>
  </station>
  <station code="TNSA" name="TNSA" netid="HL" insttype="CMG-5" lat="37.5394" lon="25.1631">
    <comp name="00.HNN">
      <acc value="0.2768357372" flag="0"/>
      <vel value="0.0974899410" flag="0"/>
      <psa03 value="0.4784356883" flag="0"/>
      <psa10 value="0.0491345569" flag="0"/>
      <psa30 value="0.0070321643" flag="0"/>
    </comp>
    <comp name="00.HNE">
      <acc value="0.1807375572" flag="0"/>
      <vel value="0.0636270684" flag="0"/>
      <psa03 value="0.2996731417" flag="0"/>
      <psa10 value="0.0265429033" flag="0"/>
      <psa30 value="0.0062237504" flag="0"/>
    </comp>
    <comp name="00.HNZ">
      <acc value="0.2077143141" flag="0"/>
      <vel value="0.1026319372" flag="0"/>
      <psa03 value="0.2873387072" flag="0"/>
      <psa10 value="0.0637859428" flag="0"/>
      <psa30 value="0.0119525136" flag="0"/>
    </comp>
  </station>
  <station code="BODM" name="BODM" netid="KO" insttype="ACEBOX" lat="37.031" lon="27.4247">
    <comp name="--.HNZ">
      <acc value="0.0117802563" flag="0"/>
      <vel value="0.0071031180" flag="0"/>
      <psa03 value="0.0379296642" flag="0"/>
      <psa10 value="0.0072989004" flag="0"/>
      <psa30 value="0.0012612772" flag="0"/>
    </comp>
    <comp name="--.HNE">
      <acc value="0.0696553153" flag="0"/>
      <vel value="0.0486654792" flag="0"/>
      <psa03 value="0.1735161115" flag="0"/>
      <psa10 value="0.0234834340" flag="0"/>
      <psa30 value="0.0020672214" flag="0"/>
    </comp>
    <comp name="--.HNN">
      <acc value="0.0984418251" flag="0"/>
      <vel value="0.0616578285" flag="0"/>
      <psa03 value="0.2394063757" flag="0"/>
      <psa10 value="0.0402565894" flag="0"/>
      <psa30 value="0.0021939604" flag="0"/>
    </comp>
  </station>
  <station code="BODT" name="BODT" netid="KO" insttype="CMG-3ESP" lat="37.0622" lon="27.3103">
    <comp name="--.HHN">
      <acc value="0.0829043383" flag="0"/>
      <vel value="0.0435523379" flag="0"/>
      <psa03 value="0.2782012691" flag="0"/>
      <psa10 value="0.0404725718" flag="0"/>
      <psa30 value="0.0024236853" flag="0"/>
    </comp>
    <comp name="--.HHZ">
      <acc value="0.0354088880" flag="0"/>
      <vel value="0.0287356749" flag="0"/>
      <psa03 value="0.0806904240" flag="0"/>
      <psa10 value="0.0264990909" flag="0"/>
      <psa30 value="0.0025472863" flag="0"/>
    </comp>
    <comp name="--.HHE">
      <acc value="0.0712087840" flag="0"/>
      <vel value="0.0323796665" flag="0"/>
      <psa03 value="0.2132140232" flag="0"/>
      <psa10 value="0.0306818869" flag="0"/>
      <psa30 value="0.0024162015" flag="0"/>
    </comp>
  </station>
  <station code="DAT" name="DAT" netid="KO" insttype="CMG-3T" lat="36.7308" lon="27.5767">
    <comp name="--.HHZ">
      <acc value="0.0000283461" flag="0"/>
      <vel value="0.0000035935" flag="0"/>
      <psa03 value="0.0000124353" flag="0"/>
      <psa10 value="0.0000052136" flag="0"/>
      <psa30 value="0.0000009869" flag="0"/>
    </comp>
    <comp name="--.HHE">
      <acc value="0.0133289078" flag="0"/>
      <vel value="0.0098632142" flag="0"/>
      <psa03 value="0.0328017595" flag="0"/>
      <psa10 value="0.0142447197" flag="0"/>
      <psa30 value="0.0031250998" flag="0"/>
    </comp>
    <comp name="--.HHN">
      <acc value="0.0146116874" flag="0"/>
      <vel value="0.0105216808" flag="0"/>
      <psa03 value="0.0454025968" flag="0"/>
      <psa10 value="0.0140848806" flag="0"/>
      <psa30 value="0.0032557362" flag="0"/>
    </comp>
  </station>
  <station code="IDI" name="IDI" netid="MN" insttype="" lat="35.288" lon="24.89">
    <comp name="--.HHE">
      <acc value="0.0525631324" flag="0"/>
      <vel value="0.0383124448" flag="0"/>
      <psa03 value="0.1562101078" flag="0"/>
      <psa10 value="0.0260845774" flag="0"/>
      <psa30 value="0.0027083582" flag="0"/>
    </comp>
    <comp name="--.HHN">
      <acc value="0.0581892353" flag="0"/>
      <vel value="0.0349402492" flag="0"/>
      <psa03 value="0.1842933219" flag="0"/>
      <psa10 value="0.0250987293" flag="0"/>
      <psa30 value="0.0029540777" flag="0"/>
    </comp>
    <comp name="--.HHZ">
      <acc value="0.0639453608" flag="0"/>
      <vel value="0.0418179549" flag="0"/>
      <psa03 value="0.1619432956" flag="0"/>
      <psa10 value="0.0389880799" flag="0"/>
      <psa30 value="0.0019133610" flag="0"/>
    </comp>
  </station>
</stationlist>
