<stationlist created="1778136641">
	<station code="ERBG" name="ERBG" netid="KO" source="Bogazici University Kandilli Observatory And Earthquake Research Institute (KOERI)" insttype="" lat="40.712" lon="36.6768">
		<comp name="--.HNE" depth="0.0">
			<acc value="0.0074504226209264" flag="0"/>
			<vel value="0.00197025604212478" flag="0"/>
			<psa03 value="0.00252507498866868" flag="0"/>
			<psa10 value="0.00326427249203265" flag="0"/>
			<psa30 value="0.000366943969695281" flag="0"/>
		</comp>
		<comp name="--.HNN" depth="0.0">
			<acc value="0.00510414546878267" flag="0"/>
			<vel value="0.0023595250846896" flag="0"/>
			<psa03 value="0.00358443308912369" flag="0"/>
			<psa10 value="0.00369929310688736" flag="0"/>
			<psa30 value="0.000373717725715358" flag="0"/>
		</comp>
		<comp name="--.HNZ" depth="0.0">
			<acc value="0.00180592736059564" flag="0"/>
			<vel value="0.00111429578799076" flag="0"/>
			<psa03 value="0.00317908527327723" flag="0"/>
			<psa10 value="0.00142845814396793" flag="0"/>
			<psa30 value="0.000311799717701117" flag="0"/>
		</comp>
	</station>
	<station code="KIZO" name="KIZO" netid="KO" source="Bogazici University Kandilli Observatory And Earthquake Research Institute (KOERI)" insttype="" lat="40.9005" lon="35.9334">
		<comp name="--.HNE" depth="0.0">
			<acc value="0.0050064258236191" flag="0"/>
			<vel value="0.00192237937685707" flag="0"/>
			<psa03 value="0.00630316820501432" flag="0"/>
			<psa10 value="0.00333095636263592" flag="0"/>
			<psa30 value="0.000450145080318181" flag="0"/>
		</comp>
		<comp name="--.HNN" depth="0.0">
			<acc value="0.00397873907219241" flag="0"/>
			<vel value="0.00206791437216587" flag="0"/>
			<psa03 value="0.00778849641841056" flag="0"/>
			<psa10 value="0.00390683185531" flag="0"/>
			<psa30 value="0.000356726652223102" flag="0"/>
		</comp>
		<comp name="--.HNZ" depth="0.0">
			<acc value="0.00261912411426103" flag="0"/>
			<vel value="0.00141058232669873" flag="0"/>
			<psa03 value="0.0045494110766802" flag="0"/>
			<psa10 value="0.00182715186015575" flag="0"/>
			<psa30 value="0.000699457950238287" flag="0"/>
		</comp>
	</station>
	<station code="KMON" name="KMON" netid="KO" source="Bogazici University Kandilli Observatory And Earthquake Research Institute (KOERI)" insttype="" lat="41.3738" lon="33.7839">
		<comp name="--.HNE" depth="0.0">
			<acc value="0.00664449092017375" flag="0"/>
			<vel value="0.00408205516307742" flag="0"/>
			<psa03 value="0.0209427727725649" flag="0"/>
			<psa10 value="0.00694059978066808" flag="0"/>
			<psa30 value="0.000519964757613555" flag="0"/>
		</comp>
		<comp name="--.HNN" depth="0.0">
			<acc value="0.00708888532084854" flag="0"/>
			<vel value="0.0048536150749599" flag="0"/>
			<psa03 value="0.0142878631674981" flag="0"/>
			<psa10 value="0.00663408588188667" flag="0"/>
			<psa30 value="0.000404922761645596" flag="0"/>
		</comp>
		<comp name="--.HNZ" depth="0.0">
			<acc value="0.00703742462595044" flag="0"/>
			<vel value="0.00474995079460992" flag="0"/>
			<psa03 value="0.0209535247869128" flag="0"/>
			<psa10 value="0.00273216521128502" flag="0"/>
			<psa30 value="0.000392014041923243" flag="0"/>
		</comp>
	</station>
	<station code="SAFT" name="SAFT" netid="KO" source="Bogazici University Kandilli Observatory And Earthquake Research Institute (KOERI)" insttype="" lat="41.2398" lon="32.6871">
		<comp name="--.HNE" depth="0.0">
			<acc value="0.000944034611671515" flag="0"/>
			<vel value="0.000690751213112094" flag="0"/>
			<psa03 value="0.00202802562278429" flag="0"/>
			<psa10 value="0.000916542025004489" flag="0"/>
			<psa30 value="0.000308149007109246" flag="0"/>
		</comp>
		<comp name="--.HNN" depth="0.0">
			<acc value="0.000819424361839388" flag="0"/>
			<vel value="0.00093137495236132" flag="0"/>
			<psa03 value="0.00237733164020022" flag="0"/>
			<psa10 value="0.000801022712261866" flag="0"/>
			<psa30 value="0.000332188281885249" flag="0"/>
		</comp>
		<comp name="--.HNZ" depth="0.0">
			<acc value="0.000630228550385036" flag="0"/>
			<vel value="0.000643174113708475" flag="0"/>
			<psa03 value="0.00128654950167989" flag="0"/>
			<psa10 value="0.000600222925883664" flag="0"/>
			<psa30 value="0.000386735775597182" flag="0"/>
		</comp>
	</station>
	<station code="SINP" name="SINP" netid="KO" source="Bogazici University Kandilli Observatory And Earthquake Research Institute (KOERI)" insttype="" lat="41.9824" lon="35.0956">
		<comp name="--.HNE" depth="0.0">
			<acc value="0.00538839528404438" flag="0"/>
			<vel value="0.00656915360753636" flag="0"/>
			<psa03 value="0.00721561406674132" flag="0"/>
			<psa10 value="0.0178527145297153" flag="0"/>
			<psa30 value="0.00149457577914493" flag="0"/>
		</comp>
		<comp name="--.HNN" depth="0.0">
			<acc value="0.00517375456775233" flag="0"/>
			<vel value="0.00517698402348007" flag="0"/>
			<psa03 value="0.00941544273730373" flag="0"/>
			<psa10 value="0.0104155752932597" flag="0"/>
			<psa30 value="0.000791581292543378" flag="0"/>
		</comp>
		<comp name="--.HNZ" depth="0.0">
			<acc value="0.00330398945618426" flag="0"/>
			<vel value="0.00305140657445696" flag="0"/>
			<psa03 value="0.00683041146559881" flag="0"/>
			<psa10 value="0.00451953502203436" flag="0"/>
			<psa30 value="0.000896365004781717" flag="0"/>
		</comp>
	</station>
	<station code="TOS" name="TOS" netid="KO" source="Bogazici University Kandilli Observatory And Earthquake Research Institute (KOERI)" insttype="" lat="41.0362" lon="34.0226">
		<comp name="--.HNE" depth="0.0">
			<acc value="0.00344447511206318" flag="0"/>
			<vel value="0.00241378809769761" flag="0"/>
			<psa03 value="0.0117491468128977" flag="0"/>
			<psa10 value="0.0025190301546343" flag="0"/>
			<psa30 value="0.000579675379814959" flag="0"/>
		</comp>
		<comp name="--.HNN" depth="0.0">
			<acc value="0.00425014601258216" flag="0"/>
			<vel value="0.00224775340361989" flag="0"/>
			<psa03 value="0.0117902328679998" flag="0"/>
			<psa10 value="0.00219220209763174" flag="0"/>
			<psa30 value="0.00123166346666023" flag="0"/>
		</comp>
		<comp name="--.HNZ" depth="0.0">
			<acc value="0.00325253405799836" flag="0"/>
			<vel value="0.00196129254470992" flag="0"/>
			<psa03 value="0.00868743682815729" flag="0"/>
			<psa10 value="0.0022469468179497" flag="0"/>
			<psa30 value="0.000553245347703875" flag="0"/>
		</comp>
	</station>
	<station code="YARM" name="YARM" netid="KO" source="Bogazici University Kandilli Observatory And Earthquake Research Institute (KOERI)" insttype="" lat="40.9231" lon="35.8266">
		<comp name="--.HNE" depth="0.0">
			<acc value="0.00979054847446459" flag="0"/>
			<vel value="0.00456500154364797" flag="0"/>
			<psa03 value="0.0240490280259111" flag="0"/>
			<psa10 value="0.00428014681998867" flag="0"/>
			<psa30 value="0.000387004986139454" flag="0"/>
		</comp>
		<comp name="--.HNN" depth="0.0">
			<acc value="0.0131647747983305" flag="0"/>
			<vel value="0.00715754854446682" flag="0"/>
			<psa03 value="0.0396225336525534" flag="0"/>
			<psa10 value="0.00485362027851981" flag="0"/>
			<psa30 value="0.000325155602462678" flag="0"/>
		</comp>
		<comp name="--.HNZ" depth="0.0">
			<acc value="0.00802391245950654" flag="0"/>
			<vel value="0.00285197748196557" flag="0"/>
			<psa03 value="0.019125395869867" flag="0"/>
			<psa10 value="0.00216515624347456" flag="0"/>
			<psa30 value="0.000326419123664811" flag="0"/>
		</comp>
	</station>
</stationlist>
