<?xml version="1.0" encoding="UTF-8" standalone="yes"?>
<!DOCTYPE earthquake SYSTEM "stationlist.dtd">
<stationlist created="" xmlns="ch.ethz.sed.shakemap.usgs.xml">
  <station code="YOZ" name="YOZ" netid="KO" insttype="360s," lat="39.6376" lon="35.3152">
    <comp name="--.HHZ">
      <acc value="0.0067187065" flag="0"/>
      <vel value="0.0033132538" flag="0"/>
      <psa03 value="0.0138638039" flag="0"/>
      <psa10 value="0.0034109207" flag="0"/>
      <psa30 value="0.0003191866" flag="0"/>
    </comp>
    <comp name="--.HHE">
      <acc value="0.0173669977" flag="0"/>
      <vel value="0.0097476313" flag="0"/>
      <psa03 value="0.0398805019" flag="0"/>
      <psa10 value="0.0051801549" flag="0"/>
      <psa30 value="0.0005446011" flag="0"/>
    </comp>
    <comp name="--.HHN">
      <acc value="0.0105701827" flag="0"/>
      <vel value="0.0058424029" flag="0"/>
      <psa03 value="0.0246362046" flag="0"/>
      <psa10 value="0.0072070825" flag="0"/>
      <psa30 value="0.0005388143" flag="0"/>
    </comp>
  </station>
</stationlist>
