<?xml version="1.0" encoding="UTF-8" standalone="yes"?>
<!DOCTYPE earthquake SYSTEM "stationlist.dtd">
<stationlist created="" xmlns="ch.ethz.sed.shakemap.usgs.xml">
  <station code="DAT" name="DAT" netid="KO" insttype="CMG-3T" lat="36.7308" lon="27.5767">
    <comp name="--.HHZ">
      <acc value="0.0000307146" flag="0"/>
      <vel value="0.0000039961" flag="0"/>
      <psa03 value="0.0000147650" flag="0"/>
      <psa10 value="0.0000035089" flag="0"/>
      <psa30 value="0.0000005880" flag="0"/>
    </comp>
    <comp name="--.HHE">
      <acc value="0.0464886378" flag="0"/>
      <vel value="0.0138389467" flag="0"/>
      <psa03 value="0.0659149211" flag="0"/>
      <psa10 value="0.0099416837" flag="0"/>
      <psa30 value="0.0009007040" flag="0"/>
    </comp>
    <comp name="--.HHN">
      <acc value="0.0519310262" flag="0"/>
      <vel value="0.0181199819" flag="0"/>
      <psa03 value="0.0911894404" flag="0"/>
      <psa10 value="0.0139590305" flag="0"/>
      <psa30 value="0.0007909262" flag="0"/>
    </comp>
  </station>
</stationlist>
