<?xml version="1.0" encoding="UTF-8" standalone="yes"?>
<!DOCTYPE earthquake SYSTEM "stationlist.dtd">
<stationlist created="" xmlns="ch.ethz.sed.shakemap.usgs.xml">
  <station code="KARO" name="KARO" netid="KO" insttype="120s," lat="39.3089" lon="41.0493">
    <comp name="--.HHZ">
      <acc value="1.0417597462" flag="0"/>
      <vel value="0.4452525613" flag="0"/>
      <psa03 value="3.4215839089" flag="0"/>
      <psa10 value="0.1200227098" flag="0"/>
      <psa30 value="0.0249834924" flag="0"/>
    </comp>
    <comp name="--.HHN">
      <acc value="1.0839985322" flag="0"/>
      <vel value="0.5777996205" flag="0"/>
      <psa03 value="3.2110930576" flag="0"/>
      <psa10 value="0.3398007073" flag="0"/>
      <psa30 value="0.0544890535" flag="0"/>
    </comp>
    <comp name="--.HHE">
      <acc value="1.9114602888" flag="0"/>
      <vel value="0.9370283605" flag="0"/>
      <psa03 value="7.4494400485" flag="0"/>
      <psa10 value="0.5352637196" flag="0"/>
      <psa30 value="0.0492280962" flag="0"/>
    </comp>
  </station>
  <station code="KOPR" name="KOPR" netid="KO" insttype="120s," lat="39.9917" lon="41.8535">
    <comp name="--.HHE">
      <acc value="0.0190967132" flag="0"/>
      <vel value="0.0226058887" flag="0"/>
      <psa03 value="0.0460762187" flag="0"/>
      <psa10 value="0.0420200240" flag="0"/>
      <psa30 value="0.0081106710" flag="0"/>
    </comp>
    <comp name="--.HHZ">
      <acc value="0.0198759387" flag="0"/>
      <vel value="0.0149311784" flag="0"/>
      <psa03 value="0.0634217747" flag="0"/>
      <psa10 value="0.0228718986" flag="0"/>
      <psa30 value="0.0063242550" flag="0"/>
    </comp>
    <comp name="--.HHN">
      <acc value="0.0181630269" flag="0"/>
      <vel value="0.0240440064" flag="0"/>
      <psa03 value="0.0435633507" flag="0"/>
      <psa10 value="0.0519436159" flag="0"/>
      <psa30 value="0.0052023930" flag="0"/>
    </comp>
  </station>
</stationlist>
