<?xml version="1.0" encoding="UTF-8" standalone="yes"?>
<!DOCTYPE earthquake SYSTEM "stationlist.dtd">
<stationlist created="" xmlns="ch.ethz.sed.shakemap.usgs.xml">
  <station code="7444" name="7444" netid="CR" insttype="" commtype="DIG" lat="43.0958" lon="17.6177">
    <comp name="--.HHE">
      <acc value="0.0927800830" flag="0"/>
      <vel value="0.0290285381" flag="0"/>
      <psa03 value="0.1762860528" flag="0"/>
      <psa10 value="0.0169205657" flag="0"/>
      <psa30 value="0.0016388742" flag="0"/>
    </comp>
    <comp name="--.HHZ">
      <acc value="0.0663282777" flag="0"/>
      <vel value="0.0267976527" flag="0"/>
      <psa03 value="0.0814829214" flag="0"/>
      <psa10 value="0.0161528434" flag="0"/>
      <psa30 value="0.0014879986" flag="0"/>
    </comp>
    <comp name="--.HHN">
      <acc value="0.0924858274" flag="0"/>
      <vel value="0.0267519686" flag="0"/>
      <psa03 value="0.1236510490" flag="0"/>
      <psa10 value="0.0153141362" flag="0"/>
      <psa30 value="0.0016269452" flag="0"/>
    </comp>
  </station>
  <station code="HVAR" name="HVAR" netid="CR" insttype="120" commtype="DIG" lat="43.1776" lon="16.4488">
    <comp name="--.HHE">
      <acc value="0.1309725712" flag="0"/>
      <vel value="0.0307463982" flag="0"/>
      <psa03 value="0.1956573909" flag="0"/>
      <psa10 value="0.0095212913" flag="0"/>
      <psa30 value="0.0009036242" flag="0"/>
    </comp>
  </station>
  <station code="MK01" name="MK01" netid="CR" insttype="Episensor-ES-T" commtype="DIG" lat="44.034" lon="15.6099">
    <comp name="--.HNN">
      <acc value="0.0692049782" flag="0"/>
      <vel value="0.0296141168" flag="0"/>
      <psa03 value="0.1419823313" flag="0"/>
      <psa10 value="0.0219963706" flag="0"/>
      <psa30 value="0.0012225483" flag="0"/>
    </comp>
    <comp name="--.HNZ">
      <acc value="0.0510655879" flag="0"/>
      <vel value="0.0194572014" flag="0"/>
      <psa03 value="0.1363162991" flag="0"/>
      <psa10 value="0.0246715721" flag="0"/>
      <psa30 value="0.0012767837" flag="0"/>
    </comp>
    <comp name="--.HNE">
      <acc value="0.0687364548" flag="0"/>
      <vel value="0.0243957340" flag="0"/>
      <psa03 value="0.1746996674" flag="0"/>
      <psa10 value="0.0214977999" flag="0"/>
      <psa30 value="0.0014471944" flag="0"/>
    </comp>
  </station>
  <station code="MK02" name="MK02" netid="CR" insttype="Episensor-ES-T" commtype="DIG" lat="44.1158" lon="15.2243">
    <comp name="--.HNN">
      <acc value="0.0466341804" flag="0"/>
      <vel value="0.0136652734" flag="0"/>
      <psa03 value="0.0994806852" flag="0"/>
      <psa10 value="0.0146378422" flag="0"/>
      <psa30 value="0.0008825564" flag="0"/>
    </comp>
    <comp name="--.HNZ">
      <acc value="0.0313183575" flag="0"/>
      <vel value="0.0106779737" flag="0"/>
      <psa03 value="0.0482552739" flag="0"/>
      <psa10 value="0.0076132689" flag="0"/>
      <psa30 value="0.0010788217" flag="0"/>
    </comp>
    <comp name="--.HNE">
      <acc value="0.0419151783" flag="0"/>
      <vel value="0.0111839037" flag="0"/>
      <psa03 value="0.0597585030" flag="0"/>
      <psa10 value="0.0081083612" flag="0"/>
      <psa30 value="0.0007003108" flag="0"/>
    </comp>
  </station>
  <station code="MK03" name="MK03" netid="CR" insttype="Episensor-ES-T" commtype="DIG" lat="44.1133" lon="15.2289">
    <comp name="--.HNE">
      <acc value="0.0427284574" flag="0"/>
      <vel value="0.0133234955" flag="0"/>
      <psa03 value="0.0459349601" flag="0"/>
      <psa10 value="0.0090889025" flag="0"/>
      <psa30 value="0.0005245242" flag="0"/>
    </comp>
    <comp name="--.HNZ">
      <acc value="0.0335048477" flag="0"/>
      <vel value="0.0089007515" flag="0"/>
      <psa03 value="0.0563647570" flag="0"/>
      <psa10 value="0.0082419532" flag="0"/>
      <psa30 value="0.0010726540" flag="0"/>
    </comp>
    <comp name="--.HNN">
      <acc value="0.0518728797" flag="0"/>
      <vel value="0.0142695491" flag="0"/>
      <psa03 value="0.0630383952" flag="0"/>
      <psa10 value="0.0145967818" flag="0"/>
      <psa30 value="0.0010278684" flag="0"/>
    </comp>
  </station>
  <station code="MK08" name="MK08" netid="CR" insttype="Episensor-ES-T" commtype="DIG" lat="43.5081" lon="16.44">
    <comp name="--.HNE">
      <acc value="1.2552997768" flag="0"/>
      <vel value="0.1866072536" flag="0"/>
      <psa03 value="0.6459514203" flag="0"/>
      <psa10 value="0.0428343989" flag="0"/>
      <psa30 value="0.0028808019" flag="0"/>
    </comp>
    <comp name="--.HNZ">
      <acc value="0.6478262285" flag="0"/>
      <vel value="0.0830607865" flag="0"/>
      <psa03 value="0.3071459543" flag="0"/>
      <psa10 value="0.0279738727" flag="0"/>
      <psa30 value="0.0020363220" flag="0"/>
    </comp>
    <comp name="--.HNN">
      <acc value="0.8448025686" flag="0"/>
      <vel value="0.1074604498" flag="0"/>
      <psa03 value="0.3449093817" flag="0"/>
      <psa10 value="0.0268885727" flag="0"/>
      <psa30 value="0.0026998752" flag="0"/>
    </comp>
  </station>
  <station code="MK21" name="MK21" netid="CR" insttype="Episensor-ES-T" commtype="DIG" lat="43.7008" lon="16.6352">
    <comp name="--.HNE">
      <acc value="2.2958685992" flag="0"/>
      <vel value="0.8025280546" flag="0"/>
      <psa03 value="2.8569192672" flag="0"/>
      <psa10 value="0.2190863265" flag="0"/>
      <psa30 value="0.0332171607" flag="0"/>
    </comp>
    <comp name="--.HNZ">
      <acc value="3.5958940590" flag="0"/>
      <vel value="0.5463142298" flag="0"/>
      <psa03 value="2.0023539982" flag="0"/>
      <psa10 value="0.1593338069" flag="0"/>
      <psa30 value="0.0453603977" flag="0"/>
    </comp>
    <comp name="--.HNN">
      <acc value="1.9805161136" flag="0"/>
      <vel value="0.5026825003" flag="0"/>
      <psa03 value="2.6058652736" flag="0"/>
      <psa10 value="0.2538886321" flag="0"/>
      <psa30 value="0.0350022580" flag="0"/>
    </comp>
  </station>
  <station code="MK27" name="MK27" netid="CR" insttype="Episensor-ES-T" commtype="DIG" lat="44.0343" lon="16.1934">
    <comp name="--.HNE">
      <acc value="0.3194060229" flag="0"/>
      <vel value="0.0887213304" flag="0"/>
      <psa03 value="0.7244787269" flag="0"/>
      <psa10 value="0.0523986169" flag="0"/>
      <psa30 value="0.0035879317" flag="0"/>
    </comp>
    <comp name="--.HNN">
      <acc value="0.3805019747" flag="0"/>
      <vel value="0.1203050261" flag="0"/>
      <psa03 value="0.6170677707" flag="0"/>
      <psa10 value="0.0323944502" flag="0"/>
      <psa30 value="0.0025050804" flag="0"/>
    </comp>
    <comp name="--.HNZ">
      <acc value="0.2059265393" flag="0"/>
      <vel value="0.0373731589" flag="0"/>
      <psa03 value="0.1736322221" flag="0"/>
      <psa10 value="0.0193761857" flag="0"/>
      <psa30 value="0.0031897824" flag="0"/>
    </comp>
  </station>
  <station code="MK33" name="MK33" netid="CR" insttype="Episensor-ES-T" commtype="DIG" lat="42.8369" lon="17.6968">
    <comp name="--.HNN">
      <acc value="0.2614409042" flag="0"/>
      <vel value="0.1320996239" flag="0"/>
      <psa03 value="0.7099909531" flag="0"/>
      <psa10 value="0.0417895685" flag="0"/>
      <psa30 value="0.0042687783" flag="0"/>
    </comp>
    <comp name="--.HNE">
      <acc value="0.2802447828" flag="0"/>
      <vel value="0.1595470803" flag="0"/>
      <psa03 value="0.9904195487" flag="0"/>
      <psa10 value="0.0429366082" flag="0"/>
      <psa30 value="0.0044228338" flag="0"/>
    </comp>
    <comp name="--.HNZ">
      <acc value="0.1663058400" flag="0"/>
      <vel value="0.0499685577" flag="0"/>
      <psa03 value="0.2693460146" flag="0"/>
      <psa10 value="0.0153524840" flag="0"/>
      <psa30 value="0.0010992232" flag="0"/>
    </comp>
  </station>
  <station code="MK34" name="MK34" netid="CR" insttype="Episensor-ES-T" commtype="DIG" lat="42.839" lon="17.6938">
    <comp name="--.HNE">
      <acc value="0.3740476439" flag="0"/>
      <vel value="0.0991439872" flag="0"/>
      <psa03 value="0.5368392739" flag="0"/>
      <psa10 value="0.0164958237" flag="0"/>
      <psa30 value="0.0019262417" flag="0"/>
    </comp>
    <comp name="--.HNN">
      <acc value="0.2455928953" flag="0"/>
      <vel value="0.0690938376" flag="0"/>
      <psa03 value="0.4533365642" flag="0"/>
      <psa10 value="0.0203487735" flag="0"/>
      <psa30 value="0.0016019986" flag="0"/>
    </comp>
    <comp name="--.HNZ">
      <acc value="0.1710546070" flag="0"/>
      <vel value="0.0383197989" flag="0"/>
      <psa03 value="0.1652725184" flag="0"/>
      <psa10 value="0.0118457699" flag="0"/>
      <psa30 value="0.0009794056" flag="0"/>
    </comp>
  </station>
  <station code="PM32" name="PM32" netid="CR" insttype="Episensor-ES-T" commtype="DIG" lat="43.0958" lon="17.6177">
    <comp name="--.HNE">
      <acc value="0.0895697650" flag="0"/>
      <vel value="0.0281516426" flag="0"/>
      <psa03 value="0.1693639968" flag="0"/>
      <psa10 value="0.0158714033" flag="0"/>
      <psa30 value="0.0015190785" flag="0"/>
    </comp>
    <comp name="--.HNN">
      <acc value="0.0907063004" flag="0"/>
      <vel value="0.0258289252" flag="0"/>
      <psa03 value="0.1298895090" flag="0"/>
      <psa10 value="0.0152881722" flag="0"/>
      <psa30 value="0.0016437089" flag="0"/>
    </comp>
    <comp name="--.HNZ">
      <acc value="0.0641433564" flag="0"/>
      <vel value="0.0266556064" flag="0"/>
      <psa03 value="0.0815943736" flag="0"/>
      <psa10 value="0.0160205608" flag="0"/>
      <psa30 value="0.0014602182" flag="0"/>
    </comp>
  </station>
  <station code="BLY" name="BLY" netid="MN" insttype="" commtype="DIG" lat="44.7488" lon="17.1839">
    <comp name="--.HHZ">
      <acc value="0.0162436260" flag="0"/>
      <vel value="0.0072780723" flag="0"/>
      <psa03 value="0.0309645400" flag="0"/>
      <psa10 value="0.0052363618" flag="0"/>
      <psa30 value="0.0008224064" flag="0"/>
    </comp>
    <comp name="--.HHE">
      <acc value="0.0137948309" flag="0"/>
      <vel value="0.0115508366" flag="0"/>
      <psa03 value="0.0477397700" flag="0"/>
      <psa10 value="0.0157481498" flag="0"/>
      <psa30 value="0.0008771454" flag="0"/>
    </comp>
    <comp name="--.HHN">
      <acc value="0.0133870089" flag="0"/>
      <vel value="0.0078053662" flag="0"/>
      <psa03 value="0.0390160746" flag="0"/>
      <psa10 value="0.0114350702" flag="0"/>
      <psa30 value="0.0008047854" flag="0"/>
    </comp>
  </station>
</stationlist>
