<?xml version="1.0" encoding="UTF-8" standalone="yes"?>
<!DOCTYPE earthquake SYSTEM "stationlist.dtd">
<stationlist created="" xmlns="ch.ethz.sed.shakemap.usgs.xml">
  <station code="HVAR" name="HVAR" netid="CR" insttype="120" commtype="DIG" lat="43.1776" lon="16.4488">
    <comp name="--.HHE">
      <acc value="0.1309725675" flag="0"/>
      <vel value="0.0307464008" flag="0"/>
      <psa03 value="0.1956573909" flag="0"/>
      <psa10 value="0.0095212912" flag="0"/>
      <psa30 value="0.0009035685" flag="0"/>
    </comp>
  </station>
  <station code="MK01" name="MK01" netid="CR" insttype="Episensor-ES-T" commtype="DIG" lat="44.034" lon="15.6099">
    <comp name="--.HNE">
      <acc value="0.0687364966" flag="0"/>
      <vel value="0.0243957323" flag="0"/>
      <psa03 value="0.1746996674" flag="0"/>
      <psa10 value="0.0214977999" flag="0"/>
      <psa30 value="0.0014471722" flag="0"/>
    </comp>
    <comp name="--.HNN">
      <acc value="0.0692049035" flag="0"/>
      <vel value="0.0296141138" flag="0"/>
      <psa03 value="0.1419823313" flag="0"/>
      <psa10 value="0.0219963705" flag="0"/>
      <psa30 value="0.0012223747" flag="0"/>
    </comp>
    <comp name="--.HNZ">
      <acc value="0.0510656495" flag="0"/>
      <vel value="0.0194572002" flag="0"/>
      <psa03 value="0.1363162991" flag="0"/>
      <psa10 value="0.0246715721" flag="0"/>
      <psa30 value="0.0012765884" flag="0"/>
    </comp>
  </station>
  <station code="MK06" name="MK06" netid="CR" insttype="Episensor-ES-T" commtype="DIG" lat="44.2004" lon="15.6818">
    <comp name="--.HNN">
      <acc value="0.1051597314" flag="0"/>
      <vel value="0.0195202044" flag="0"/>
      <psa03 value="0.1089967982" flag="0"/>
      <psa10 value="0.0069445870" flag="0"/>
      <psa30 value="0.0011340431" flag="0"/>
    </comp>
    <comp name="--.HNE">
      <acc value="0.0763837238" flag="0"/>
      <vel value="0.0182976166" flag="0"/>
      <psa03 value="0.0839234193" flag="0"/>
      <psa10 value="0.0068462665" flag="0"/>
      <psa30 value="0.0013430652" flag="0"/>
    </comp>
    <comp name="--.HNZ">
      <acc value="0.0717741628" flag="0"/>
      <vel value="0.0162455944" flag="0"/>
      <psa03 value="0.0688065591" flag="0"/>
      <psa10 value="0.0056162194" flag="0"/>
      <psa30 value="0.0012987217" flag="0"/>
    </comp>
  </station>
  <station code="MK07" name="MK07" netid="CR" insttype="Episensor-ES-T" commtype="DIG" lat="43.5151" lon="16.2473">
    <comp name="--.HNE">
      <acc value="0.3211823075" flag="0"/>
      <vel value="0.1781195185" flag="0"/>
      <psa03 value="1.8711188140" flag="0"/>
      <psa10 value="0.0490056078" flag="0"/>
      <psa30 value="0.0047946818" flag="0"/>
    </comp>
    <comp name="--.HNZ">
      <acc value="0.2674260255" flag="0"/>
      <vel value="0.0609113874" flag="0"/>
      <psa03 value="0.4163190539" flag="0"/>
      <psa10 value="0.0222886796" flag="0"/>
      <psa30 value="0.0021764570" flag="0"/>
    </comp>
    <comp name="--.HNN">
      <acc value="0.3761298392" flag="0"/>
      <vel value="0.1790145319" flag="0"/>
      <psa03 value="2.2023217359" flag="0"/>
      <psa10 value="0.0629002246" flag="0"/>
      <psa30 value="0.0058191915" flag="0"/>
    </comp>
  </station>
  <station code="MK08" name="MK08" netid="CR" insttype="Episensor-ES-T" commtype="DIG" lat="43.5081" lon="16.44">
    <comp name="--.HNE">
      <acc value="1.2552997869" flag="0"/>
      <vel value="0.1866072484" flag="0"/>
      <psa03 value="0.6459514203" flag="0"/>
      <psa10 value="0.0428343973" flag="0"/>
      <psa30 value="0.0028796482" flag="0"/>
    </comp>
    <comp name="--.HNN">
      <acc value="0.8448025612" flag="0"/>
      <vel value="0.1074604491" flag="0"/>
      <psa03 value="0.3449093817" flag="0"/>
      <psa10 value="0.0268885768" flag="0"/>
      <psa30 value="0.0026994305" flag="0"/>
    </comp>
    <comp name="--.HNZ">
      <acc value="0.6478262323" flag="0"/>
      <vel value="0.0830607829" flag="0"/>
      <psa03 value="0.3071459543" flag="0"/>
      <psa10 value="0.0279738727" flag="0"/>
      <psa30 value="0.0020370114" flag="0"/>
    </comp>
  </station>
  <station code="MK21" name="MK21" netid="CR" insttype="Episensor-ES-T" commtype="DIG" lat="43.7008" lon="16.6352">
    <comp name="--.HNE">
      <acc value="2.2958685638" flag="0"/>
      <vel value="0.8025280393" flag="0"/>
      <psa03 value="2.8569192673" flag="0"/>
      <psa10 value="0.2190874500" flag="0"/>
      <psa30 value="0.0331875910" flag="0"/>
    </comp>
    <comp name="--.HNN">
      <acc value="1.9805160156" flag="0"/>
      <vel value="0.5026825252" flag="0"/>
      <psa03 value="2.6058652737" flag="0"/>
      <psa10 value="0.2538898814" flag="0"/>
      <psa30 value="0.0349896378" flag="0"/>
    </comp>
    <comp name="--.HNZ">
      <acc value="3.5958939790" flag="0"/>
      <vel value="0.5463141912" flag="0"/>
      <psa03 value="2.0023539982" flag="0"/>
      <psa10 value="0.1593326254" flag="0"/>
      <psa30 value="0.0453398361" flag="0"/>
    </comp>
  </station>
  <station code="MK22" name="MK22" netid="CR" insttype="Episensor-ES-T" commtype="DIG" lat="43.5171" lon="16.2514">
    <comp name="--.HNE">
      <acc value="0.4384513093" flag="0"/>
      <vel value="0.1518796073" flag="0"/>
      <psa03 value="1.3258997539" flag="0"/>
      <psa10 value="0.0415964006" flag="0"/>
      <psa30 value="0.0039124238" flag="0"/>
    </comp>
    <comp name="--.HNZ">
      <acc value="0.3567359045" flag="0"/>
      <vel value="0.0757568466" flag="0"/>
      <psa03 value="0.2569337438" flag="0"/>
      <psa10 value="0.0229946382" flag="0"/>
      <psa30 value="0.0022212748" flag="0"/>
    </comp>
    <comp name="--.HNN">
      <acc value="0.4227254354" flag="0"/>
      <vel value="0.1352117232" flag="0"/>
      <psa03 value="1.1493924368" flag="0"/>
      <psa10 value="0.0432509297" flag="0"/>
      <psa30 value="0.0035532001" flag="0"/>
    </comp>
  </station>
  <station code="MK27" name="MK27" netid="CR" insttype="Episensor-ES-T" commtype="DIG" lat="44.0343" lon="16.1934">
    <comp name="--.HNE">
      <acc value="0.3194060203" flag="0"/>
      <vel value="0.0887213301" flag="0"/>
      <psa03 value="0.7244787269" flag="0"/>
      <psa10 value="0.0523986164" flag="0"/>
      <psa30 value="0.0035860856" flag="0"/>
    </comp>
    <comp name="--.HNN">
      <acc value="0.3805019671" flag="0"/>
      <vel value="0.1203050245" flag="0"/>
      <psa03 value="0.6170677707" flag="0"/>
      <psa10 value="0.0323944508" flag="0"/>
      <psa30 value="0.0025058645" flag="0"/>
    </comp>
    <comp name="--.HNZ">
      <acc value="0.2059265406" flag="0"/>
      <vel value="0.0373731647" flag="0"/>
      <psa03 value="0.1736322221" flag="0"/>
      <psa10 value="0.0193761845" flag="0"/>
      <psa30 value="0.0031889381" flag="0"/>
    </comp>
  </station>
  <station code="PM32" name="PM32" netid="CR" insttype="Episensor-ES-T" commtype="DIG" lat="43.0958" lon="17.6177">
    <comp name="--.HNN">
      <acc value="0.0907062835" flag="0"/>
      <vel value="0.0258289293" flag="0"/>
      <psa03 value="0.1298895090" flag="0"/>
      <psa10 value="0.0152881722" flag="0"/>
      <psa30 value="0.0016436155" flag="0"/>
    </comp>
    <comp name="--.HNZ">
      <acc value="0.0641433809" flag="0"/>
      <vel value="0.0266556069" flag="0"/>
      <psa03 value="0.0815943736" flag="0"/>
      <psa10 value="0.0160205609" flag="0"/>
      <psa30 value="0.0014600113" flag="0"/>
    </comp>
    <comp name="--.HNE">
      <acc value="0.0895697572" flag="0"/>
      <vel value="0.0281516404" flag="0"/>
      <psa03 value="0.1693639968" flag="0"/>
      <psa10 value="0.0158714034" flag="0"/>
      <psa30 value="0.0015185383" flag="0"/>
    </comp>
  </station>
  <station code="BLY" name="BLY" netid="MN" insttype="" commtype="DIG" lat="44.7488" lon="17.1839">
    <comp name="--.HHZ">
      <acc value="0.0162436263" flag="0"/>
      <vel value="0.0072780722" flag="0"/>
      <psa03 value="0.0309645400" flag="0"/>
      <psa10 value="0.0052363618" flag="0"/>
      <psa30 value="0.0008224330" flag="0"/>
    </comp>
    <comp name="--.HHN">
      <acc value="0.0133870106" flag="0"/>
      <vel value="0.0078053649" flag="0"/>
      <psa03 value="0.0390160746" flag="0"/>
      <psa10 value="0.0114350702" flag="0"/>
      <psa30 value="0.0008048611" flag="0"/>
    </comp>
    <comp name="--.HHE">
      <acc value="0.0137948309" flag="0"/>
      <vel value="0.0115508360" flag="0"/>
      <psa03 value="0.0477397700" flag="0"/>
      <psa10 value="0.0157481498" flag="0"/>
      <psa30 value="0.0008770933" flag="0"/>
    </comp>
  </station>
</stationlist>
