<stationlist created="1775808402">
	<station code="AKK04" name="AKK04" netid="CR" source="Croatian Seismograph Network (CSN)" insttype="" lat="44.972" lon="14.7513">
		<comp name="--.HNE" depth="0.0">
			<acc value="0.0121704652246842" flag="0"/>
			<vel value="0.00583502864125064" flag="0"/>
			<psa03 value="0.0275909553695505" flag="0"/>
			<psa10 value="0.009647629420601" flag="0"/>
			<psa30 value="0.00085156927686864" flag="0"/>
		</comp>
		<comp name="--.HNN" depth="0.0">
			<acc value="0.0126272412518185" flag="0"/>
			<vel value="0.00913246749297563" flag="0"/>
			<psa03 value="0.0303189668160871" flag="0"/>
			<psa10 value="0.0182102275882066" flag="0"/>
			<psa30 value="0.00141751275743005" flag="0"/>
		</comp>
		<comp name="--.HNZ" depth="0.0">
			<acc value="0.00775133027785423" flag="0"/>
			<vel value="0.00576483565346219" flag="0"/>
			<psa03 value="0.0173600198077804" flag="0"/>
			<psa10 value="0.0107474113382556" flag="0"/>
			<psa30 value="0.000914667467230749" flag="0"/>
		</comp>
	</station>
	<station code="JRDA" name="JRDA" netid="CR" source="Croatian Seismograph Network (CSN)" insttype="" lat="44.979071" lon="14.734496">
		<comp name="--.HNE" depth="0.0">
			<acc value="0.0124194537445958" flag="0"/>
			<vel value="0.0104416310066974" flag="0"/>
			<psa03 value="0.0227024726773969" flag="0"/>
			<psa10 value="0.0201174801843307" flag="0"/>
			<psa30 value="0.00101388299810608" flag="0"/>
		</comp>
		<comp name="--.HNN" depth="0.0">
			<acc value="0.0154212069604502" flag="0"/>
			<vel value="0.010152260922065" flag="0"/>
			<psa03 value="0.0439718816713579" flag="0"/>
			<psa10 value="0.0111757056481517" flag="0"/>
			<psa30 value="0.00116858366293256" flag="0"/>
		</comp>
		<comp name="--.HNZ" depth="0.0">
			<acc value="0.0122562769350816" flag="0"/>
			<vel value="0.00778842065384114" flag="0"/>
			<psa03 value="0.0255724466532544" flag="0"/>
			<psa10 value="0.0134768093349777" flag="0"/>
			<psa30 value="0.000897858228701191" flag="0"/>
		</comp>
	</station>
	<station code="MK01" name="MK01" netid="CR" source="Croatian Seismograph Network (CSN)" insttype="" lat="44.033987" lon="15.609901">
		<comp name="--.HNE" depth="0.0">
			<acc value="0.0681227690429232" flag="0"/>
			<vel value="0.0245662338355121" flag="0"/>
			<psa03 value="0.175468353083904" flag="0"/>
			<psa10 value="0.0215109749965231" flag="0"/>
			<psa30 value="0.00146640797566496" flag="0"/>
		</comp>
		<comp name="--.HNN" depth="0.0">
			<acc value="0.0692380380003542" flag="0"/>
			<vel value="0.029655557746293" flag="0"/>
			<psa03 value="0.142845035699235" flag="0"/>
			<psa10 value="0.0219978228728056" flag="0"/>
			<psa30 value="0.00129109521622171" flag="0"/>
		</comp>
		<comp name="--.HNZ" depth="0.0">
			<acc value="0.0509396794853308" flag="0"/>
			<vel value="0.0196339516355079" flag="0"/>
			<psa03 value="0.136207189724516" flag="0"/>
			<psa10 value="0.0246934995731573" flag="0"/>
			<psa30 value="0.00135425044161211" flag="0"/>
		</comp>
	</station>
	<station code="MK02" name="MK02" netid="CR" source="Croatian Seismograph Network (CSN)" insttype="" lat="44.115808" lon="15.224273">
		<comp name="--.HNE" depth="0.0">
			<acc value="0.0415339787441546" flag="0"/>
			<vel value="0.0112573132703278" flag="0"/>
			<psa03 value="0.0601049347819496" flag="0"/>
			<psa10 value="0.00810417904958878" flag="0"/>
			<psa30 value="0.000746304074398925" flag="0"/>
		</comp>
		<comp name="--.HNN" depth="0.0">
			<acc value="0.0450420413868697" flag="0"/>
			<vel value="0.013603191017315" flag="0"/>
			<psa03 value="0.0998401868390545" flag="0"/>
			<psa10 value="0.014668072937845" flag="0"/>
			<psa30 value="0.00101361943897991" flag="0"/>
		</comp>
		<comp name="--.HNZ" depth="0.0">
			<acc value="0.0312983300485888" flag="0"/>
			<vel value="0.010746100843105" flag="0"/>
			<psa03 value="0.0482951524418289" flag="0"/>
			<psa10 value="0.00759282283099891" flag="0"/>
			<psa30 value="0.00110777369707076" flag="0"/>
		</comp>
	</station>
	<station code="MK03" name="MK03" netid="CR" source="Croatian Seismograph Network (CSN)" insttype="" lat="44.113266" lon="15.22893">
		<comp name="--.HNE" depth="0.0">
			<acc value="0.0424058432350255" flag="0"/>
			<vel value="0.0134628833854651" flag="0"/>
			<psa03 value="0.0460024745215019" flag="0"/>
			<psa10 value="0.0090969729423118" flag="0"/>
			<psa30 value="0.000527341444199287" flag="0"/>
		</comp>
		<comp name="--.HNN" depth="0.0">
			<acc value="0.0522423299747234" flag="0"/>
			<vel value="0.0143396995404151" flag="0"/>
			<psa03 value="0.0632827182111727" flag="0"/>
			<psa10 value="0.0146195569113963" flag="0"/>
			<psa30 value="0.0010994627298433" flag="0"/>
		</comp>
		<comp name="--.HNZ" depth="0.0">
			<acc value="0.0332999564088143" flag="0"/>
			<vel value="0.00904151134647922" flag="0"/>
			<psa03 value="0.0563156420932392" flag="0"/>
			<psa10 value="0.00822513299969437" flag="0"/>
			<psa30 value="0.00108666865313184" flag="0"/>
		</comp>
	</station>
	<station code="MK06" name="MK06" netid="CR" source="Croatian Seismograph Network (CSN)" insttype="" lat="44.20035" lon="15.68177">
		<comp name="--.HNE" depth="0.0">
			<acc value="0.0741740633981011" flag="0"/>
			<vel value="0.0185314782413283" flag="0"/>
			<psa03 value="0.0840455676063797" flag="0"/>
			<psa10 value="0.0068237186003682" flag="0"/>
			<psa30 value="0.00140458398429562" flag="0"/>
		</comp>
		<comp name="--.HNN" depth="0.0">
			<acc value="0.107103488573131" flag="0"/>
			<vel value="0.0197274534924042" flag="0"/>
			<psa03 value="0.109596020615163" flag="0"/>
			<psa10 value="0.00697107851848957" flag="0"/>
			<psa30 value="0.00122701961736108" flag="0"/>
		</comp>
		<comp name="--.HNZ" depth="0.0">
			<acc value="0.0721770333757932" flag="0"/>
			<vel value="0.0165168468700583" flag="0"/>
			<psa03 value="0.0692354094227512" flag="0"/>
			<psa10 value="0.00562179913535236" flag="0"/>
			<psa30 value="0.00139722860120425" flag="0"/>
		</comp>
	</station>
	<station code="MK07" name="MK07" netid="CR" source="Croatian Seismograph Network (CSN)" insttype="" lat="43.515096" lon="16.247314">
		<comp name="--.HNE" depth="0.0">
			<acc value="0.321276951045366" flag="0"/>
			<vel value="0.177985996298261" flag="0"/>
			<psa03 value="1.86457651904352" flag="0"/>
			<psa10 value="0.0491396102580149" flag="0"/>
			<psa30 value="0.00471659536796194" flag="0"/>
		</comp>
		<comp name="--.HNN" depth="0.0">
			<acc value="0.376267519377176" flag="0"/>
			<vel value="0.179612067614529" flag="0"/>
			<psa03 value="2.19465905205804" flag="0"/>
			<psa10 value="0.0629605283260073" flag="0"/>
			<psa30 value="0.00585388320769981" flag="0"/>
		</comp>
		<comp name="--.HNZ" depth="0.0">
			<acc value="0.265327095372753" flag="0"/>
			<vel value="0.061538061659579" flag="0"/>
			<psa03 value="0.417666126664426" flag="0"/>
			<psa10 value="0.0223134569070113" flag="0"/>
			<psa30 value="0.00225381388744223" flag="0"/>
		</comp>
	</station>
	<station code="MK08" name="MK08" netid="CR" source="Croatian Seismograph Network (CSN)" insttype="" lat="43.508051" lon="16.440016">
		<comp name="--.HNE" depth="0.0">
			<acc value="1.27086981310215" flag="0"/>
			<vel value="0.190701322337867" flag="0"/>
			<psa03 value="0.645557640025419" flag="0"/>
			<psa10 value="0.0428001152975864" flag="0"/>
			<psa30 value="0.00313929546291755" flag="0"/>
		</comp>
		<comp name="--.HNN" depth="0.0">
			<acc value="0.855019823622915" flag="0"/>
			<vel value="0.108066290353079" flag="0"/>
			<psa03 value="0.345985023976499" flag="0"/>
			<psa10 value="0.0269017321077253" flag="0"/>
			<psa30 value="0.00257230852781573" flag="0"/>
		</comp>
		<comp name="--.HNZ" depth="0.0">
			<acc value="0.643265630462372" flag="0"/>
			<vel value="0.0835694419006181" flag="0"/>
			<psa03 value="0.308406013718164" flag="0"/>
			<psa10 value="0.028017693534693" flag="0"/>
			<psa30 value="0.00224954443794549" flag="0"/>
		</comp>
	</station>
	<station code="MK10" name="MK10" netid="CR" source="Croatian Seismograph Network (CSN)" insttype="" lat="43.734924" lon="15.893086">
		<comp name="--.HNE" depth="0.0">
			<acc value="0.148751370566154" flag="0"/>
			<vel value="0.0312947093709476" flag="0"/>
			<psa03 value="0.178254996018656" flag="0"/>
			<psa10 value="0.0194255105947414" flag="0"/>
			<psa30 value="0.00124221604071622" flag="0"/>
		</comp>
		<comp name="--.HNN" depth="0.0">
			<acc value="0.118132770407866" flag="0"/>
			<vel value="0.0277234799013573" flag="0"/>
			<psa03 value="0.220088850639548" flag="0"/>
			<psa10 value="0.0296568408701594" flag="0"/>
			<psa30 value="0.00131992379264008" flag="0"/>
		</comp>
		<comp name="--.HNZ" depth="0.0">
			<acc value="0.177226108640906" flag="0"/>
			<vel value="0.0468893270069588" flag="0"/>
			<psa03 value="0.287667931588667" flag="0"/>
			<psa10 value="0.0357642854583896" flag="0"/>
			<psa30 value="0.00194933559224948" flag="0"/>
		</comp>
	</station>
	<station code="MK13" name="MK13" netid="CR" source="Croatian Seismograph Network (CSN)" insttype="" lat="45.491752" lon="18.092891">
		<comp name="--.HNE" depth="0.0">
			<acc value="0.00663344323227224" flag="0"/>
			<vel value="0.00781911491743364" flag="0"/>
			<psa03 value="0.0171508887663752" flag="0"/>
			<psa10 value="0.0119739104002991" flag="0"/>
			<psa30 value="0.00120753332648995" flag="0"/>
		</comp>
		<comp name="--.HNN" depth="0.0">
			<acc value="0.00802032073173866" flag="0"/>
			<vel value="0.00834802479012905" flag="0"/>
			<psa03 value="0.0157685224518079" flag="0"/>
			<psa10 value="0.0162819585998495" flag="0"/>
			<psa30 value="0.0015051867945714" flag="0"/>
		</comp>
		<comp name="--.HNZ" depth="0.0">
			<acc value="0.00466628865405203" flag="0"/>
			<vel value="0.00435278818320215" flag="0"/>
			<psa03 value="0.0102760895946699" flag="0"/>
			<psa10 value="0.00819199861720414" flag="0"/>
			<psa30 value="0.000681866472390702" flag="0"/>
		</comp>
	</station>
	<station code="MK17" name="MK17" netid="CR" source="Croatian Seismograph Network (CSN)" insttype="" lat="45.435512" lon="17.194071">
		<comp name="--.HNE" depth="0.0">
			<acc value="0.0165571607062257" flag="0"/>
			<vel value="0.00626067983510259" flag="0"/>
			<psa03 value="0.0284104289264852" flag="0"/>
			<psa10 value="0.00732567622759752" flag="0"/>
			<psa30 value="0.000527300139379712" flag="0"/>
		</comp>
		<comp name="--.HNN" depth="0.0">
			<acc value="0.0144112245183263" flag="0"/>
			<vel value="0.00600515701321526" flag="0"/>
			<psa03 value="0.0314650297162963" flag="0"/>
			<psa10 value="0.00360237801486393" flag="0"/>
			<psa30 value="0.000518534767050147" flag="0"/>
		</comp>
		<comp name="--.HNZ" depth="0.0">
			<acc value="0.0114518874412084" flag="0"/>
			<vel value="0.0022925706217946" flag="0"/>
			<psa03 value="0.0115837126766149" flag="0"/>
			<psa10 value="0.00227847632849958" flag="0"/>
			<psa30 value="0.000487415986833681" flag="0"/>
		</comp>
	</station>
	<station code="MK20" name="MK20" netid="CR" source="Croatian Seismograph Network (CSN)" insttype="" lat="45.267552" lon="15.224343">
		<comp name="--.HNE" depth="0.0">
			<acc value="0.00900543430967993" flag="0"/>
			<vel value="0.00474103521496083" flag="0"/>
			<psa03 value="0.0215250821810549" flag="0"/>
			<psa10 value="0.00559455967462177" flag="0"/>
			<psa30 value="0.00045811420198424" flag="0"/>
		</comp>
		<comp name="--.HNN" depth="0.0">
			<acc value="0.0100993295374153" flag="0"/>
			<vel value="0.00864818367965534" flag="0"/>
			<psa03 value="0.0206665318167234" flag="0"/>
			<psa10 value="0.0121633429492758" flag="0"/>
			<psa30 value="0.000708465994895191" flag="0"/>
		</comp>
		<comp name="--.HNZ" depth="0.0">
			<acc value="0.00521843894252521" flag="0"/>
			<vel value="0.00358403516395829" flag="0"/>
			<psa03 value="0.0153273903643887" flag="0"/>
			<psa10 value="0.00522535568541944" flag="0"/>
			<psa30 value="0.000701456520135222" flag="0"/>
		</comp>
	</station>
	<station code="MK21" name="MK21" netid="CR" source="Croatian Seismograph Network (CSN)" insttype="" lat="43.700776" lon="16.635203">
		<comp name="--.HNE" depth="0.0">
			<acc value="2.33936501604096" flag="0"/>
			<vel value="0.888642443375348" flag="0"/>
			<psa03 value="2.87214426546183" flag="0"/>
			<psa10 value="0.227310058175774" flag="0"/>
			<psa30 value="0.0442417007955507" flag="0"/>
		</comp>
		<comp name="--.HNN" depth="0.0">
			<acc value="1.97381587938375" flag="0"/>
			<vel value="0.58572801210236" flag="0"/>
			<psa03 value="2.61843229162205" flag="0"/>
			<psa10 value="0.266646053992446" flag="0"/>
			<psa30 value="0.0503257004973389" flag="0"/>
		</comp>
		<comp name="--.HNZ" depth="0.0">
			<acc value="3.53344108238511" flag="0"/>
			<vel value="0.63428306509935" flag="0"/>
			<psa03 value="1.99592338679556" flag="0"/>
			<psa10 value="0.144069378889296" flag="0"/>
			<psa30 value="0.0654592363531511" flag="0"/>
		</comp>
	</station>
	<station code="MK22" name="MK22" netid="CR" source="Croatian Seismograph Network (CSN)" insttype="" lat="43.517083073" lon="16.251390509">
		<comp name="--.HNE" depth="0.0">
			<acc value="0.438997143355747" flag="0"/>
			<vel value="0.15278112758365" flag="0"/>
			<psa03 value="1.33127019011656" flag="0"/>
			<psa10 value="0.0417576212374712" flag="0"/>
			<psa30 value="0.0040965522098124" flag="0"/>
		</comp>
		<comp name="--.HNN" depth="0.0">
			<acc value="0.419633054219149" flag="0"/>
			<vel value="0.135469474492356" flag="0"/>
			<psa03 value="1.1532159782322" flag="0"/>
			<psa10 value="0.0433392060097003" flag="0"/>
			<psa30 value="0.00358901525464665" flag="0"/>
		</comp>
		<comp name="--.HNZ" depth="0.0">
			<acc value="0.348290822232999" flag="0"/>
			<vel value="0.0761787738985005" flag="0"/>
			<psa03 value="0.255964435554314" flag="0"/>
			<psa10 value="0.0230137858003635" flag="0"/>
			<psa30 value="0.00230726138641006" flag="0"/>
		</comp>
	</station>
	<station code="MK23" name="MK23" netid="CR" source="Croatian Seismograph Network (CSN)" insttype="" lat="45.307704" lon="18.411147">
		<comp name="--.HNE" depth="0.0">
			<acc value="0.00917831885973698" flag="0"/>
			<vel value="0.0123755071078547" flag="0"/>
			<psa03 value="0.0169475601926885" flag="0"/>
			<psa10 value="0.0232870964058497" flag="0"/>
			<psa30 value="0.00197464976918946" flag="0"/>
		</comp>
		<comp name="--.HNN" depth="0.0">
			<acc value="0.0082456136899294" flag="0"/>
			<vel value="0.0101890107479573" flag="0"/>
			<psa03 value="0.0128494827255852" flag="0"/>
			<psa10 value="0.0273072352203164" flag="0"/>
			<psa30 value="0.00312883643672507" flag="0"/>
		</comp>
		<comp name="--.HNZ" depth="0.0">
			<acc value="0.0029628868403205" flag="0"/>
			<vel value="0.0031829297768942" flag="0"/>
			<psa03 value="0.00859699008131771" flag="0"/>
			<psa10 value="0.00616650490693645" flag="0"/>
			<psa30 value="0.000647453463531088" flag="0"/>
		</comp>
	</station>
	<station code="MK27" name="MK27" netid="CR" source="Croatian Seismograph Network (CSN)" insttype="" lat="44.034317" lon="16.19338">
		<comp name="--.HNE" depth="0.0">
			<acc value="0.316434306960096" flag="0"/>
			<vel value="0.088741235673104" flag="0"/>
			<psa03 value="0.725658237963586" flag="0"/>
			<psa10 value="0.0524253829243283" flag="0"/>
			<psa30 value="0.00346028026825226" flag="0"/>
		</comp>
		<comp name="--.HNN" depth="0.0">
			<acc value="0.380834970480661" flag="0"/>
			<vel value="0.121075609851685" flag="0"/>
			<psa03 value="0.616650100042766" flag="0"/>
			<psa10 value="0.0324317584448301" flag="0"/>
			<psa30 value="0.00251746322791711" flag="0"/>
		</comp>
		<comp name="--.HNZ" depth="0.0">
			<acc value="0.202380084679618" flag="0"/>
			<vel value="0.037266389806477" flag="0"/>
			<psa03 value="0.173843610035985" flag="0"/>
			<psa10 value="0.0194001307884538" flag="0"/>
			<psa30 value="0.00350543971817752" flag="0"/>
		</comp>
	</station>
	<station code="MK33" name="MK33" netid="CR" source="Croatian Seismograph Network (CSN)" insttype="" lat="42.836909" lon="17.696755">
		<comp name="--.HNE" depth="0.0">
			<acc value="0.280183492300464" flag="0"/>
			<vel value="0.159802946638577" flag="0"/>
			<psa03 value="0.994351870931423" flag="0"/>
			<psa10 value="0.0430239938784436" flag="0"/>
			<psa30 value="0.00454314471104051" flag="0"/>
		</comp>
		<comp name="--.HNN" depth="0.0">
			<acc value="0.261846044260779" flag="0"/>
			<vel value="0.131966131041292" flag="0"/>
			<psa03 value="0.707334607446325" flag="0"/>
			<psa10 value="0.0418411542711247" flag="0"/>
			<psa30 value="0.00437558444432851" flag="0"/>
		</comp>
		<comp name="--.HNZ" depth="0.0">
			<acc value="0.166789689853067" flag="0"/>
			<vel value="0.0500007667335907" flag="0"/>
			<psa03 value="0.270017783186291" flag="0"/>
			<psa10 value="0.0153257277542489" flag="0"/>
			<psa30 value="0.00122897422601098" flag="0"/>
		</comp>
	</station>
	<station code="MK34" name="MK34" netid="CR" source="Croatian Seismograph Network (CSN)" insttype="" lat="42.838957" lon="17.693753">
		<comp name="--.HNE" depth="0.0">
			<acc value="0.373830053432655" flag="0"/>
			<vel value="0.0994740500967125" flag="0"/>
			<psa03 value="0.539777924305059" flag="0"/>
			<psa10 value="0.0165712021358142" flag="0"/>
			<psa30 value="0.00199750982522265" flag="0"/>
		</comp>
		<comp name="--.HNN" depth="0.0">
			<acc value="0.244678446811761" flag="0"/>
			<vel value="0.0696599251641943" flag="0"/>
			<psa03 value="0.454009242550824" flag="0"/>
			<psa10 value="0.0203456190474108" flag="0"/>
			<psa30 value="0.00169950789655739" flag="0"/>
		</comp>
		<comp name="--.HNZ" depth="0.0">
			<acc value="0.170388728440065" flag="0"/>
			<vel value="0.0390416868759663" flag="0"/>
			<psa03 value="0.165431271509843" flag="0"/>
			<psa10 value="0.0118767555267656" flag="0"/>
			<psa30 value="0.00103933197564261" flag="0"/>
		</comp>
	</station>
	<station code="MK36" name="MK36" netid="CR" source="Croatian Seismograph Network (CSN)" insttype="" lat="42.581098" lon="18.217561">
		<comp name="--.HNE" depth="0.0">
			<acc value="0.037727817485358" flag="0"/>
			<vel value="0.0146298230217766" flag="0"/>
			<psa03 value="0.0779099319839651" flag="0"/>
			<psa10 value="0.00941647817046511" flag="0"/>
			<psa30 value="0.000914934151563943" flag="0"/>
		</comp>
		<comp name="--.HNN" depth="0.0">
			<acc value="0.0479165101693755" flag="0"/>
			<vel value="0.0137162573827816" flag="0"/>
			<psa03 value="0.0467757132447725" flag="0"/>
			<psa10 value="0.0128003592109768" flag="0"/>
			<psa30 value="0.000833899356323124" flag="0"/>
		</comp>
		<comp name="--.HNZ" depth="0.0">
			<acc value="0.0229403440688455" flag="0"/>
			<vel value="0.0126778917778806" flag="0"/>
			<psa03 value="0.0585288043293757" flag="0"/>
			<psa10 value="0.0140450516657433" flag="0"/>
			<psa30 value="0.00101741166936323" flag="0"/>
		</comp>
	</station>
	<station code="PM04" name="PM04" netid="CR" source="Croatian Seismograph Network (CSN)" insttype="" lat="45.427055" lon="16.271094">
		<comp name="--.HNE" depth="0.0">
			<acc value="0.0322565449431247" flag="0"/>
			<vel value="0.0290802636390401" flag="0"/>
			<psa03 value="0.0721128760824621" flag="0"/>
			<psa10 value="0.0518727275636229" flag="0"/>
			<psa30 value="0.00876820168366277" flag="0"/>
		</comp>
		<comp name="--.HNN" depth="0.0">
			<acc value="0.0224877544876588" flag="0"/>
			<vel value="0.025185961969056" flag="0"/>
			<psa03 value="0.0525023269798277" flag="0"/>
			<psa10 value="0.0405606131915628" flag="0"/>
			<psa30 value="0.0076038003811244" flag="0"/>
		</comp>
		<comp name="--.HNZ" depth="0.0">
			<acc value="0.0116911060001603" flag="0"/>
			<vel value="0.0121561595993511" flag="0"/>
			<psa03 value="0.0348233381252467" flag="0"/>
			<psa10 value="0.0226286202850384" flag="0"/>
			<psa30 value="0.00389896787081963" flag="0"/>
		</comp>
	</station>
	<station code="PM11" name="PM11" netid="CR" source="Croatian Seismograph Network (CSN)" insttype="" lat="45.43703" lon="16.282001">
		<comp name="--.HNE" depth="0.0">
