<stationlist created="1779846942">
	<station code="0REN" name="0REN" netid="IT" source="Italian Strong Motion Network (RAN)" insttype="" lat="43.5462" lon="12.264">
		<comp name="--.HNE" depth="0.0">
			<acc value="0.028129331850684" flag="0"/>
			<vel value="0.00755881529848" flag="0"/>
			<psa03 value="0.0498062473360011" flag="0"/>
			<psa10 value="0.00533798830303362" flag="0"/>
			<psa30 value="0.000554557517963183" flag="0"/>
		</comp>
		<comp name="--.HNN" depth="0.0">
			<acc value="0.024270305320926" flag="0"/>
			<vel value="0.00756267568135" flag="0"/>
			<psa03 value="0.0312393090342363" flag="0"/>
			<psa10 value="0.00582366469545742" flag="0"/>
			<psa30 value="0.00051646077549191" flag="0"/>
		</comp>
		<comp name="--.HNZ" depth="0.0">
			<acc value="0.01451563761744" flag="0"/>
			<vel value="0.0040308058669" flag="0"/>
			<psa03 value="0.016154995970458" flag="0"/>
			<psa10 value="0.00463393119396889" flag="0"/>
			<psa30 value="0.000534949552365521" flag="0"/>
		</comp>
	</station>
	<station code="ALF" name="ALF" netid="IT" source="Italian Strong Motion Network (RAN)" insttype="" lat="44.5022" lon="12.0334">
		<comp name="--.HGE" depth="0.0">
			<acc value="0.10915184035074" flag="0"/>
			<vel value="0.12555531884" flag="0"/>
			<psa03 value="0.212266124089031" flag="0"/>
			<psa10 value="0.187183930016639" flag="0"/>
			<psa30 value="0.0108428107830158" flag="0"/>
		</comp>
		<comp name="--.HGN" depth="0.0">
			<acc value="0.15105086433564" flag="0"/>
			<vel value="0.174911731565" flag="0"/>
			<psa03 value="0.261871181013861" flag="0"/>
			<psa10 value="0.212913379466445" flag="0"/>
			<psa30 value="0.0121938077799268" flag="0"/>
		</comp>
		<comp name="--.HGZ" depth="0.0">
			<acc value="0.12727394048958" flag="0"/>
			<vel value="0.0380146836865" flag="0"/>
			<psa03 value="0.197551065955071" flag="0"/>
			<psa10 value="0.038491488622196" flag="0"/>
			<psa30 value="0.00261453965875332" flag="0"/>
		</comp>
	</station>
	<station code="BBN" name="BBN" netid="IT" source="Italian Strong Motion Network (RAN)" insttype="" lat="43.7476" lon="11.8214">
		<comp name="--.HNE" depth="0.0">
			<acc value="0.0091447966206396" flag="0"/>
			<vel value="0.00829640825458" flag="0"/>
			<psa03 value="0.0239994830771445" flag="0"/>
			<psa10 value="0.0102413115616238" flag="0"/>
			<psa30 value="0.00150243629986247" flag="0"/>
		</comp>
		<comp name="--.HNN" depth="0.0">
			<acc value="0.011961805202346" flag="0"/>
			<vel value="0.00859743338212" flag="0"/>
			<psa03 value="0.0272884379334248" flag="0"/>
			<psa10 value="0.00973587651653494" flag="0"/>
			<psa30 value="0.00134392590349469" flag="0"/>
		</comp>
		<comp name="--.HNZ" depth="0.0">
			<acc value="0.013505083492374" flag="0"/>
			<vel value="0.00813763196221" flag="0"/>
			<psa03 value="0.0544539718917233" flag="0"/>
			<psa10 value="0.0118812455117188" flag="0"/>
			<psa30 value="0.00115055330184445" flag="0"/>
		</comp>
	</station>
	<station code="BDT" name="BDT" netid="IT" source="Italian Strong Motion Network (RAN)" insttype="" lat="43.7068" lon="12.188">
		<comp name="--.HNE" depth="0.0">
			<acc value="0.04566668994453" flag="0"/>
			<vel value="0.0207594941656" flag="0"/>
			<psa03 value="0.0990826991591756" flag="0"/>
			<psa10 value="0.019399206352227" flag="0"/>
			<psa30 value="0.00162499535630219" flag="0"/>
		</comp>
		<comp name="--.HNN" depth="0.0">
			<acc value="0.066699368861388" flag="0"/>
			<vel value="0.0230235379157" flag="0"/>
			<psa03 value="0.129531507909954" flag="0"/>
			<psa10 value="0.0278370684441811" flag="0"/>
			<psa30 value="0.00150389264633905" flag="0"/>
		</comp>
		<comp name="--.HNZ" depth="0.0">
			<acc value="0.027906691039176" flag="0"/>
			<vel value="0.00860585103013" flag="0"/>
			<psa03 value="0.0538100594440266" flag="0"/>
			<psa10 value="0.0152850591226594" flag="0"/>
			<psa30 value="0.00140447939403296" flag="0"/>
		</comp>
	</station>
	<station code="BGR" name="BGR" netid="IT" source="Italian Strong Motion Network (RAN)" insttype="" lat="43.8895" lon="11.9912">
		<comp name="--.HGE" depth="0.0">
			<acc value="0.08420013563925" flag="0"/>
			<vel value="0.0385016743905" flag="0"/>
			<psa03 value="0.212357234291329" flag="0"/>
			<psa10 value="0.0397358735566171" flag="0"/>
			<psa30 value="0.00194620371811319" flag="0"/>
		</comp>
		<comp name="--.HGN" depth="0.0">
			<acc value="0.057743823996468" flag="0"/>
			<vel value="0.030620875084" flag="0"/>
			<psa03 value="0.114025980745101" flag="0"/>
			<psa10 value="0.0329154767387991" flag="0"/>
			<psa30 value="0.00303404349049233" flag="0"/>
		</comp>
		<comp name="--.HGZ" depth="0.0">
			<acc value="0.035052357736182" flag="0"/>
			<vel value="0.0217211281815" flag="0"/>
			<psa03 value="0.0672249533233888" flag="0"/>
			<psa10 value="0.0238746572038797" flag="0"/>
			<psa30 value="0.00268912689145821" flag="0"/>
		</comp>
	</station>
	<station code="BRH" name="BRH" netid="IT" source="Italian Strong Motion Network (RAN)" insttype="" lat="44.2076" lon="11.7639">
		<comp name="--.HGE" depth="0.0">
			<acc value="0.1382272293861" flag="0"/>
			<vel value="0.0353512588916" flag="0"/>
			<psa03 value="0.134599010274044" flag="0"/>
			<psa10 value="0.0395973243784003" flag="0"/>
			<psa30 value="0.00238598764330709" flag="0"/>
		</comp>
		<comp name="--.HGN" depth="0.0">
			<acc value="0.16306934417406" flag="0"/>
			<vel value="0.0461632837197" flag="0"/>
			<psa03 value="0.233471195487568" flag="0"/>
			<psa10 value="0.0300368254172679" flag="0"/>
			<psa30 value="0.00262324044347127" flag="0"/>
		</comp>
		<comp name="--.HGZ" depth="0.0">
			<acc value="0.058684732229508" flag="0"/>
			<vel value="0.0181020908707" flag="0"/>
			<psa03 value="0.0531551045982602" flag="0"/>
			<psa10 value="0.0189558969851577" flag="0"/>
			<psa30 value="0.00192468541762889" flag="0"/>
		</comp>
	</station>
	<station code="BSZ" name="BSZ" netid="IT" source="Italian Strong Motion Network (RAN)" insttype="" lat="44.031" lon="11.467">
		<comp name="--.HNE" depth="0.0">
			<acc value="0.017543920267008" flag="0"/>
			<vel value="0.00605088641913" flag="0"/>
			<psa03 value="0.0199048824028404" flag="0"/>
			<psa10 value="0.00591101641958613" flag="0"/>
			<psa30 value="0.000530238667376735" flag="0"/>
		</comp>
		<comp name="--.HNN" depth="0.0">
			<acc value="0.017803947118626" flag="0"/>
			<vel value="0.00589159322235" flag="0"/>
			<psa03 value="0.0280760474003634" flag="0"/>
			<psa10 value="0.00960948939399673" flag="0"/>
			<psa30 value="0.000898849961067352" flag="0"/>
		</comp>
		<comp name="--.HNZ" depth="0.0">
			<acc value="0.013996309087692" flag="0"/>
			<vel value="0.00634826591215" flag="0"/>
			<psa03 value="0.0175867835276724" flag="0"/>
			<psa10 value="0.0082352989856559" flag="0"/>
			<psa30 value="0.000377769921236682" flag="0"/>
		</comp>
	</station>
	<station code="CAGL" name="CAGL" netid="IT" source="Italian Strong Motion Network (RAN)" insttype="" lat="43.5475" lon="12.6495">
		<comp name="--.HNE" depth="0.0">
			<acc value="0.054707478427848" flag="0"/>
			<vel value="0.0286583259945" flag="0"/>
			<psa03 value="0.144765965034795" flag="0"/>
			<psa10 value="0.0142122152395066" flag="0"/>
			<psa30 value="0.000868884798938992" flag="0"/>
		</comp>
		<comp name="--.HNN" depth="0.0">
			<acc value="0.043886933430378" flag="0"/>
			<vel value="0.0155533142767" flag="0"/>
			<psa03 value="0.0819286721643139" flag="0"/>
			<psa10 value="0.0115387587611264" flag="0"/>
			<psa30 value="0.00109092862283591" flag="0"/>
		</comp>
		<comp name="--.HNZ" depth="0.0">
			<acc value="0.025458679618542" flag="0"/>
			<vel value="0.0108292373809" flag="0"/>
			<psa03 value="0.063845182555154" flag="0"/>
			<psa10 value="0.00665094606127137" flag="0"/>
			<psa30 value="0.000621646493530574" flag="0"/>
		</comp>
	</station>
	<station code="CES" name="CES" netid="IT" source="Italian Strong Motion Network (RAN)" insttype="" lat="44.2103" lon="12.3867">
		<comp name="--.HNE" depth="0.0">
			<acc value="4.1376778230468" flag="0"/>
			<vel value="1.46234195489" flag="0"/>
			<psa03 value="4.80485963171384" flag="0"/>
			<psa10 value="0.621953921393274" flag="0"/>
			<psa30 value="0.0629080540165404" flag="0"/>
		</comp>
		<comp name="--.HNN" depth="0.0">
			<acc value="3.2806736102748" flag="0"/>
			<vel value="2.20766245393" flag="0"/>
			<psa03 value="5.79340645139273" flag="0"/>
			<psa10 value="1.39859136981233" flag="0"/>
			<psa30 value="0.104480994686609" flag="0"/>
		</comp>
		<comp name="--.HNZ" depth="0.0">
			<acc value="2.751364940874" flag="0"/>
			<vel value="0.369692713358" flag="0"/>
			<psa03 value="1.08289265299127" flag="0"/>
			<psa10 value="0.114981746976544" flag="0"/>
			<psa30 value="0.0141403350611549" flag="0"/>
		</comp>
	</station>
	<station code="CPC" name="CPC" netid="IT" source="Italian Strong Motion Network (RAN)" insttype="" lat="44.9214" lon="11.8756">
		<comp name="--.HGE" depth="0.0">
			<acc value="0.074154215271204" flag="0"/>
			<vel value="0.0363596751054" flag="0"/>
			<psa03 value="0.124699416974259" flag="0"/>
			<psa10 value="0.0559885014634035" flag="0"/>
			<psa30 value="0.00491341090601028" flag="0"/>
		</comp>
		<comp name="--.HGN" depth="0.0">
			<acc value="0.072796391471226" flag="0"/>
			<vel value="0.0644563752718" flag="0"/>
			<psa03 value="0.10826758886287" flag="0"/>
			<psa10 value="0.0629678263092742" flag="0"/>
			<psa30 value="0.00419110097320364" flag="0"/>
		</comp>
		<comp name="--.HGZ" depth="0.0">
			<acc value="0.038125688315388" flag="0"/>
			<vel value="0.0102722714271" flag="0"/>
			<psa03 value="0.0272388825672854" flag="0"/>
			<psa10 value="0.0117909460922941" flag="0"/>
			<psa30 value="0.000931673281282596" flag="0"/>
		</comp>
	</station>
	<station code="CSN" name="CSN" netid="IT" source="Italian Strong Motion Network (RAN)" insttype="" lat="44.137" lon="12.2414">
		<comp name="--.HNE" depth="0.0">
			<acc value="8.2638840744564" flag="0"/>
			<vel value="1.08756137655" flag="0"/>
			<psa03 value="2.33413262482922" flag="0"/>
			<psa10 value="0.341626871103605" flag="0"/>
			<psa30 value="0.0245310983981972" flag="0"/>
		</comp>
		<comp name="--.HNN" depth="0.0">
			<acc value="5.7314903336856" flag="0"/>
			<vel value="0.575315317839" flag="0"/>
			<psa03 value="1.99748815712246" flag="0"/>
			<psa10 value="0.318585374717377" flag="0"/>
			<psa30 value="0.0345274272725944" flag="0"/>
		</comp>
		<comp name="--.HNZ" depth="0.0">
			<acc value="3.6961540385898" flag="0"/>
			<vel value="0.371527371847" flag="0"/>
			<psa03 value="0.655461379432825" flag="0"/>
			<psa10 value="0.0832574053943352" flag="0"/>
			<psa30 value="0.00610472065777374" flag="0"/>
		</comp>
	</station>
	<station code="CTL" name="CTL" netid="IT" source="Italian Strong Motion Network (RAN)" insttype="" lat="43.955" lon="12.7358">
		<comp name="--.HNE" depth="0.0">
			<acc value="0.28364591858718" flag="0"/>
			<vel value="0.0828510072193" flag="0"/>
			<psa03 value="0.652027568625652" flag="0"/>
			<psa10 value="0.0671152485556326" flag="0"/>
			<psa30 value="0.00348423331335717" flag="0"/>
		</comp>
		<comp name="--.HNN" depth="0.0">
			<acc value="0.18521309884206" flag="0"/>
			<vel value="0.0655050776221" flag="0"/>
			<psa03 value="0.486260379028835" flag="0"/>
			<psa10 value="0.0597026387569946" flag="0"/>
			<psa30 value="0.00362563559723219" flag="0"/>
		</comp>
		<comp name="--.HNZ" depth="0.0">
			<acc value="0.10593571042566" flag="0"/>
			<vel value="0.0215449703578" flag="0"/>
			<psa03 value="0.102819707134401" flag="0"/>
			<psa10 value="0.0124239852155568" flag="0"/>
			<psa30 value="0.00124650694996683" flag="0"/>
		</comp>
	</station>
	<station code="CVT" name="CVT" netid="IT" source="Italian Strong Motion Network (RAN)" insttype="" lat="44.0061" lon="11.9368">
		<comp name="--.HGE" depth="0.0">
			<acc value="0.27114186975408" flag="0"/>
			<vel value="0.0802273844256" flag="0"/>
			<psa03 value="0.422810050757551" flag="0"/>
			<psa10 value="0.0371271894941018" flag="0"/>
			<psa30 value="0.00322669187750233" flag="0"/>
		</comp>
		<comp name="--.HGN" depth="0.0">
			<acc value="0.35684350238328" flag="0"/>
			<vel value="0.085401244166" flag="0"/>
			<psa03 value="0.259078329334524" flag="0"/>
			<psa10 value="0.0747529895186018" flag="0"/>
			<psa30 value="0.0059746232894564" flag="0"/>
		</comp>
		<comp name="--.HGZ" depth="0.0">
			<acc value="0.16606494547038" flag="0"/>
			<vel value="0.0360015382212" flag="0"/>
			<psa03 value="0.117408517321293" flag="0"/>
			<psa10 value="0.0373575935072101" flag="0"/>
			<psa30 value="0.00173225079477937" flag="0"/>
		</comp>
	</station>
	<station code="DCM" name="DCM" netid="IT" source="Italian Strong Motion Network (RAN)" insttype="" lat="43.8912" lon="11.518">
		<comp name="--.HNE" depth="0.0">
			<acc value="0.03645487287849" flag="0"/>
			<vel value="0.010021227174" flag="0"/>
			<psa03 value="0.0396577156707216" flag="0"/>
			<psa10 value="0.0101792177607084" flag="0"/>
			<psa30 value="0.000742235159020146" flag="0"/>
		</comp>
		<comp name="--.HNN" depth="0.0">
			<acc value="0.02760762212859" flag="0"/>
			<vel value="0.0191717596259" flag="0"/>
			<psa03 value="0.0451933115434439" flag="0"/>
			<psa10 value="0.0193803107254531" flag="0"/>
			<psa30 value="0.00104716134846585" flag="0"/>
		</comp>
		<comp name="--.HNZ" depth="0.0">
			<acc value="0.015552937319586" flag="0"/>
			<vel value="0.00828518055065" flag="0"/>
			<psa03 value="0.0279972947875274" flag="0"/>
			<psa10 value="0.01106738065964" flag="0"/>
			<psa30 value="0.000672125097904571" flag="0"/>
		</comp>
	</station>
	<station code="FAZ" name="FAZ" netid="IT" source="Italian Strong Motion Network (RAN)" insttype="" lat="44.298" lon="11.8907">
		<comp name="--.HNE" depth="0.0">
			<acc value="0.1131906566757" flag="0"/>
			<vel value="0.0681008033784" flag="0"/>
			<psa03 value="0.258283297501006" flag="0"/>
			<psa10 value="0.0686767769995571" flag="0"/>
			<psa30 value="0.00875034883432408" flag="0"/>
		</comp>
		<comp name="--.HNN" depth="0.0">
			<acc value="0.096643880551734" flag="0"/>
			<vel value="0.0439193920548" flag="0"/>
			<psa03 value="0.214955760597418" flag="0"/>
			<psa10 value="0.0569690001665877" flag="0"/>
			<psa30 value="0.00758516331316584" flag="0"/>
		</comp>
		<comp name="--.HNZ" depth="0.0">
			<acc value="0.090637190963922" flag="0"/>
			<vel value="0.0260271341432" flag="0"/>
			<psa03 value="0.0981062490575538" flag="0"/>
			<psa10 value="0.015118043683703" flag="0"/>
			<psa30 value="0.00221849863131491" flag="0"/>
		</comp>
	</station>
	<station code="FOR" name="FOR" netid="IT" source="Italian Strong Motion Network (RAN)" insttype="" lat="44.1994" lon="12.0419">
		<comp name="--.HNE" depth="0.0">
			<acc value="0.5896319787123" flag="0"/>
			<vel value="0.236711381161" flag="0"/>
			<psa03 value="0.559149957606366" flag="0"/>
			<psa10 value="0.107934212611672" flag="0"/>
			<psa30 value="0.013611300015149" flag="0"/>
		</comp>
		<comp name="--.HNN" depth="0.0">
			<acc value="0.53242896034008" flag="0"/>
			<vel value="0.178347149686" flag="0"/>
			<psa03 value="0.658559001303897" flag="0"/>
			<psa10 value="0.0784062490291522" flag="0"/>
			<psa30 value="0.00904279820766538" flag="0"/>
		</comp>
		<comp name="--.HNZ" depth="0.0">
			<acc value="0.45301145794986" flag="0"/>
			<vel value="0.106947456966" flag="0"/>
			<psa03 value="0.191181852359376" flag="0"/>
			<psa10 value="0.0267718760053875" flag="0"/>
			<psa30 value="0.00343216882267316" flag="0"/>
		</comp>
	</station>
	<station code="FSS" name="FSS" netid="IT" source="Italian Strong Motion Network (RAN)" insttype="" lat="43.6905" lon="12.8101">
		<comp name="--.HGE" depth="0.0">
			<acc value="0.1236355621488" flag="0"/>
			<vel value="0.0207965134804" flag="0"/>
			<psa03 value="0.0446539945663233" flag="0"/>
			<psa10 value="0.00844400124862438" flag="0"/>
			<psa30 value="0.000682729289965921" flag="0"/>
		</comp>
		<comp name="--.HGN" depth="0.0">
			<acc value="0.1151492790255" flag="0"/>
			<vel value="0.0176194496961" flag="0"/>
			<psa03 value="0.0555788641187197" flag="0"/>
			<psa10 value="0.00820105265450754" flag="0"/>
			<psa30 value="0.000855520424030977" flag="0"/>
		</comp>
		<comp name="--.HGZ" depth="0.0">
			<acc value="0.054281053253724" flag="0"/>
			<vel value="0.00923456892891" flag="0"/>
			<psa03 value="0.0324305233629982" flag="0"/>
			<psa10 value="0.00556740975107014" flag="0"/>
			<psa30 value="0.00064605743355128" flag="0"/>
		</comp>
	</station>
	<station code="JESI" name="JESI" netid="IT" source="Italian Strong Motion Network (RAN)" insttype="" lat="43.5292" lon="13.2289">
		<comp name="--.HNE" depth="0.0">
			<acc value="0.026330369001834" flag="0"/>
			<vel value="0.0121802631725" flag="0"/>
			<psa03 value="0.0417149066370048" flag="0"/>
			<psa10 value="0.0178695381441983" flag="0"/>
			<psa30 value="0.00142946740353146" flag="0"/>
		</comp>
		<comp name="--.HNN" depth="0.0">
			<acc value="0.022417130292258" flag="0"/>
			<vel value="0.0147994236665" flag="0"/>
			<psa03 value="0.0558739409579211" flag="0"/>
			<psa10 value="0.0220648435626114" flag="0"/>
			<psa30 value="0.0032934100472539" flag="0"/>
		</comp>
		<comp name="--.HNZ" depth="0.0">
			<acc value="0.011425553085966" flag="0"/>
			<vel value="0.00659281100919" flag="0"/>
			<psa03 value="0.0261088832312266" flag="0"/>
			<psa10 value="0.00952172232987447" flag="0"/>
			<psa30 value="0.00144381710413226" flag="0"/>
		</comp>
	</station>
	<station code="MBRC" name="MBRC" netid="IT" source="Italian Strong Motion Network (RAN)" insttype="" lat="43.7917" lon="12.8584">
		<comp name="--.HNE" depth="0.0">
			<acc value="0.1175390080728" flag="0"/>
			<vel value="0.0381038239983" flag="0"/>
			<psa03 value="0.172876358460497" flag="0"/>
			<psa10 value="0.00975743388210648" flag="0"/>
			<psa30 value="0.00153641375903777" flag="0"/>
		</comp>
		<comp name="--.HNN" depth="0.0">
			<acc value="0.12680707237992" flag="0"/>
			<vel value="0.0439170465097" flag="0"/>
			<psa03 value="0.257150951655044" flag="0"/>
			<psa10 value="0.0165890008148959" flag="0"/>
			<psa30 value="0.00147860732547712" flag="0"/>
		</comp>
		<comp name="--.HNZ" depth="0.0">
			<acc value="0.057409241504652" flag="0"/>
			<vel value="0.0165664450051" flag="0"/>
			<psa03 value="0.0847262845755078" flag="0"/>
			<psa10 value="0.0129952971246416" flag="0"/>
			<psa30 value="0.000976053200401645" flag="0"/>
		</comp>
	</station>
	<station code="MCR" name="MCR" netid="IT" source="Italian Strong Motion Network (RAN)" insttype="" lat="43.7998" lon="12.4475">
		<comp name="--.HGE" depth="0.0">
			<acc value="0.20225113896414" flag="0"/>
			<vel value="0.0541446314036" flag="0"/>
			<psa03 value="0.242526170335354" flag="0"/>
			<psa10 value="0.0242195187992522" flag="0"/>
			<psa30 value="0.0045319335516842" flag="0"/>
		</comp>
		<comp name="--.HGN" depth="0.0">
			<acc value="0.26476910942724" flag="0"/>
			<vel value="0.0696113283516" flag="0"/>
			<psa03 value="0.336816166584602" flag="0"/>
			<psa10 value="0.0250485787204229" flag="0"/>
			<psa30 value="0.00177756233811566" flag="0"/>
		</comp>
		<comp name="--.HGZ" depth="0.0">
			<acc value="0.099072143653734" flag="0"/>
			<vel value="0.0253960128123" flag="0"/>
			<psa03 value="0.0846754739180823" flag="0"/>
			<psa10 value="0.0139685737869738" flag="0"/>
			<psa30 value="0.00164263756667631" flag="0"/>
		</comp>
	</station>
	<station code="MCS" name="MCS" netid="IT" source="Italian Strong Motion Network (RAN)" insttype="" lat="43.9937" lon="12.1067">
		<comp name="--.HGE" depth="0.0">
			<acc value="0.84827832552054" flag="0"/>
			<vel value="0.243477879859" flag="0"/>
			<psa03 value="1.049202837874" flag="0"/>
			<psa10 value="0.108297139154033" flag="0"/>
			<psa30 value="0.00657419967514141" flag="0"/>
		</comp>
		<comp name="--.HGN" depth="0.0">
			<acc value="0.90056901421092" flag="0"/>
			<vel value="0.21056349567" flag="0"/>
