<?xml version="1.0" encoding="UTF-8" standalone="yes"?>
<!DOCTYPE earthquake SYSTEM "stationlist.dtd">
<stationlist created="" xmlns="ch.ethz.sed.shakemap.usgs.xml">
  <station code="AOI" name="AOI" netid="IV" insttype="" lat="43.5502" lon="13.602">
    <comp name="--.HHZ">
      <acc value="0.0080469446" flag="0"/>
      <vel value="0.0044667057" flag="0"/>
      <psa03 value="0.0147896075" flag="0"/>
      <psa10 value="0.0045707242" flag="0"/>
      <psa30 value="0.0004003712" flag="0"/>
    </comp>
    <comp name="--.HHN">
      <acc value="0.0082559307" flag="0"/>
      <vel value="0.0062208387" flag="0"/>
      <psa03 value="0.0183854194" flag="0"/>
      <psa10 value="0.0057803760" flag="0"/>
      <psa30 value="0.0011514227" flag="0"/>
    </comp>
    <comp name="--.HHE">
      <acc value="0.0085873051" flag="0"/>
      <vel value="0.0049501520" flag="0"/>
      <psa03 value="0.0175962920" flag="0"/>
      <psa10 value="0.0079811841" flag="0"/>
      <psa30 value="0.0004997615" flag="0"/>
    </comp>
  </station>
  <station code="ARVD" name="ARVD" netid="IV" insttype="" lat="43.4981" lon="12.9415">
    <comp name="--.HHE">
      <acc value="0.0164535178" flag="0"/>
      <vel value="0.0053359313" flag="0"/>
      <psa03 value="0.0352915305" flag="0"/>
      <psa10 value="0.0047684653" flag="0"/>
      <psa30 value="0.0007434082" flag="0"/>
    </comp>
    <comp name="--.HHN">
      <acc value="0.0152296860" flag="0"/>
      <vel value="0.0073460567" flag="0"/>
      <psa03 value="0.0418464797" flag="0"/>
      <psa10 value="0.0058807053" flag="0"/>
      <psa30 value="0.0004014635" flag="0"/>
    </comp>
    <comp name="--.HHZ">
      <acc value="0.0194297025" flag="0"/>
      <vel value="0.0066329269" flag="0"/>
      <psa03 value="0.0367389097" flag="0"/>
      <psa10 value="0.0051300591" flag="0"/>
      <psa30 value="0.0003883769" flag="0"/>
    </comp>
  </station>
  <station code="ATFO" name="ATFO" netid="IV" insttype="" lat="43.3666" lon="12.5715">
    <comp name="--.HHE">
      <acc value="0.0183012988" flag="0"/>
      <vel value="0.0117454010" flag="0"/>
      <psa03 value="0.0558024687" flag="0"/>
      <psa10 value="0.0142830562" flag="0"/>
      <psa30 value="0.0010484530" flag="0"/>
    </comp>
    <comp name="--.HHN">
      <acc value="0.0201055504" flag="0"/>
      <vel value="0.0141224040" flag="0"/>
      <psa03 value="0.0421501510" flag="0"/>
      <psa10 value="0.0102270349" flag="0"/>
      <psa30 value="0.0006812576" flag="0"/>
    </comp>
    <comp name="--.HHZ">
      <acc value="0.0077328348" flag="0"/>
      <vel value="0.0045769322" flag="0"/>
      <psa03 value="0.0249611240" flag="0"/>
      <psa10 value="0.0038372624" flag="0"/>
      <psa30 value="0.0003268208" flag="0"/>
    </comp>
  </station>
  <station code="ATMI" name="ATMI" netid="IV" insttype="" lat="43.3342" lon="12.268">
    <comp name="--.HHE">
      <acc value="0.0294956025" flag="0"/>
      <vel value="0.0158934000" flag="0"/>
      <psa03 value="0.0870514309" flag="0"/>
      <psa10 value="0.0341692947" flag="0"/>
      <psa30 value="0.0015639694" flag="0"/>
    </comp>
    <comp name="--.HHZ">
      <acc value="0.0099039320" flag="0"/>
      <vel value="0.0062208418" flag="0"/>
      <psa03 value="0.0224204527" flag="0"/>
      <psa10 value="0.0092985425" flag="0"/>
      <psa30 value="0.0007187436" flag="0"/>
    </comp>
    <comp name="--.HHN">
      <acc value="0.0188542662" flag="0"/>
      <vel value="0.0125029183" flag="0"/>
      <psa03 value="0.0609941480" flag="0"/>
      <psa10 value="0.0254697500" flag="0"/>
      <psa30 value="0.0016776331" flag="0"/>
    </comp>
  </station>
  <station code="ATPC" name="ATPC" netid="IV" insttype="" lat="43.4807" lon="12.457">
    <comp name="--.HHE">
      <acc value="0.0278268575" flag="0"/>
      <vel value="0.0118383769" flag="0"/>
      <psa03 value="0.0572417775" flag="0"/>
      <psa10 value="0.0119175694" flag="0"/>
      <psa30 value="0.0010708483" flag="0"/>
    </comp>
    <comp name="--.HHN">
      <acc value="0.0196105032" flag="0"/>
      <vel value="0.0086575241" flag="0"/>
      <psa03 value="0.0558928190" flag="0"/>
      <psa10 value="0.0105127695" flag="0"/>
      <psa30 value="0.0006439866" flag="0"/>
    </comp>
    <comp name="--.HHZ">
      <acc value="0.0108269929" flag="0"/>
      <vel value="0.0053086805" flag="0"/>
      <psa03 value="0.0332910742" flag="0"/>
      <psa10 value="0.0083832311" flag="0"/>
      <psa30 value="0.0008994528" flag="0"/>
    </comp>
  </station>
  <station code="ATVO" name="ATVO" netid="IV" insttype="" lat="43.3821" lon="12.4066">
    <comp name="--.HHE">
      <acc value="0.0192197695" flag="0"/>
      <vel value="0.0126300352" flag="0"/>
      <psa03 value="0.0495158891" flag="0"/>
      <psa10 value="0.0166360009" flag="0"/>
      <psa30 value="0.0011058066" flag="0"/>
    </comp>
    <comp name="--.HHN">
      <acc value="0.0138052651" flag="0"/>
      <vel value="0.0097579028" flag="0"/>
      <psa03 value="0.0379482221" flag="0"/>
      <psa10 value="0.0152767202" flag="0"/>
      <psa30 value="0.0008651621" flag="0"/>
    </comp>
    <comp name="--.HHZ">
      <acc value="0.0079232083" flag="0"/>
      <vel value="0.0048744797" flag="0"/>
      <psa03 value="0.0172970376" flag="0"/>
      <psa10 value="0.0058406495" flag="0"/>
      <psa30 value="0.0006948135" flag="0"/>
    </comp>
  </station>
  <station code="BOSL" name="BOSL" netid="IV" insttype="" lat="43.931" lon="11.3743">
    <comp name="--.HHE">
      <acc value="0.0044356461" flag="0"/>
      <vel value="0.0027531697" flag="0"/>
      <psa03 value="0.0096925778" flag="0"/>
      <psa10 value="0.0029616707" flag="0"/>
      <psa30 value="0.0001658516" flag="0"/>
    </comp>
    <comp name="--.HHN">
      <acc value="0.0049907602" flag="0"/>
      <vel value="0.0031119385" flag="0"/>
      <psa03 value="0.0117008131" flag="0"/>
      <psa10 value="0.0049465008" flag="0"/>
      <psa30 value="0.0003435274" flag="0"/>
    </comp>
    <comp name="--.HHZ">
      <acc value="0.0033001128" flag="0"/>
      <vel value="0.0015946899" flag="0"/>
      <psa03 value="0.0054073061" flag="0"/>
      <psa10 value="0.0017386865" flag="0"/>
      <psa30 value="0.0001196784" flag="0"/>
    </comp>
  </station>
  <station code="BRIS" name="BRIS" netid="IV" insttype="" lat="44.2245" lon="11.7666">
    <comp name="--.HHE">
      <acc value="0.0259906907" flag="0"/>
      <vel value="0.0090719620" flag="0"/>
      <psa03 value="0.0537160829" flag="0"/>
      <psa10 value="0.0090465711" flag="0"/>
      <psa30 value="0.0006663949" flag="0"/>
    </comp>
    <comp name="--.HHN">
      <acc value="0.0225703135" flag="0"/>
      <vel value="0.0091574810" flag="0"/>
      <psa03 value="0.0494001125" flag="0"/>
      <psa10 value="0.0080134718" flag="0"/>
      <psa30 value="0.0007770086" flag="0"/>
    </comp>
    <comp name="--.HHZ">
      <acc value="0.0134506393" flag="0"/>
      <vel value="0.0061878943" flag="0"/>
      <psa03 value="0.0293644665" flag="0"/>
      <psa10 value="0.0105504461" flag="0"/>
      <psa30 value="0.0006519604" flag="0"/>
    </comp>
  </station>
  <station code="BRSN" name="BRSN" netid="IV" insttype="" lat="44.2842" lon="12.0802">
    <comp name="--.HNE">
      <acc value="0.1500835481" flag="0"/>
      <vel value="0.0635010620" flag="0"/>
      <psa03 value="0.2462959705" flag="0"/>
      <psa10 value="0.0944766945" flag="0"/>
      <psa30 value="0.0102548445" flag="0"/>
    </comp>
    <comp name="--.HNN">
      <acc value="0.1274290418" flag="0"/>
      <vel value="0.0675280571" flag="0"/>
      <psa03 value="0.3773773669" flag="0"/>
      <psa10 value="0.0705519851" flag="0"/>
      <psa30 value="0.0112584332" flag="0"/>
    </comp>
    <comp name="--.HNZ">
      <acc value="0.1587092025" flag="0"/>
      <vel value="0.0392544143" flag="0"/>
      <psa03 value="0.2095632470" flag="0"/>
      <psa10 value="0.0306072778" flag="0"/>
      <psa30 value="0.0038624951" flag="0"/>
    </comp>
  </station>
  <station code="CAFI" name="CAFI" netid="IV" insttype="" lat="43.3292" lon="11.9663">
    <comp name="--.HHE">
      <acc value="0.0105155288" flag="0"/>
      <vel value="0.0074064581" flag="0"/>
      <psa03 value="0.0138818313" flag="0"/>
      <psa10 value="0.0091812458" flag="0"/>
      <psa30 value="0.0004569827" flag="0"/>
    </comp>
    <comp name="--.HHN">
      <acc value="0.0079946119" flag="0"/>
      <vel value="0.0060592631" flag="0"/>
      <psa03 value="0.0215066853" flag="0"/>
      <psa10 value="0.0088123138" flag="0"/>
      <psa30 value="0.0004369923" flag="0"/>
    </comp>
    <comp name="--.HHZ">
      <acc value="0.0067758546" flag="0"/>
      <vel value="0.0038172008" flag="0"/>
      <psa03 value="0.0093876671" flag="0"/>
      <psa10 value="0.0057854640" flag="0"/>
      <psa30 value="0.0003921461" flag="0"/>
    </comp>
  </station>
  <station code="CING" name="CING" netid="IV" insttype="" lat="43.3756" lon="13.1954">
    <comp name="--.HHE">
      <acc value="0.0066559267" flag="0"/>
      <vel value="0.0043005404" flag="0"/>
      <psa03 value="0.0242560889" flag="0"/>
      <psa10 value="0.0064133127" flag="0"/>
      <psa30 value="0.0005624492" flag="0"/>
    </comp>
    <comp name="--.HHZ">
      <acc value="0.0070749043" flag="0"/>
      <vel value="0.0044697081" flag="0"/>
      <psa03 value="0.0322950865" flag="0"/>
      <psa10 value="0.0045514286" flag="0"/>
      <psa30 value="0.0007975623" flag="0"/>
    </comp>
    <comp name="--.HHN">
      <acc value="0.0124799546" flag="0"/>
      <vel value="0.0072878972" flag="0"/>
      <psa03 value="0.0393573727" flag="0"/>
      <psa10 value="0.0088677961" flag="0"/>
      <psa30 value="0.0010979782" flag="0"/>
    </comp>
  </station>
  <station code="CPGN" name="CPGN" netid="IV" insttype="" lat="43.8011" lon="12.3205">
    <comp name="--.HNN">
      <acc value="0.0298220020" flag="0"/>
      <vel value="0.0118876715" flag="0"/>
      <psa03 value="0.0509996476" flag="0"/>
      <psa10 value="0.0170775317" flag="0"/>
      <psa30 value="0.0018163236" flag="0"/>
    </comp>
    <comp name="--.HNE">
      <acc value="0.0226682807" flag="0"/>
      <vel value="0.0117951900" flag="0"/>
      <psa03 value="0.0545464995" flag="0"/>
      <psa10 value="0.0209936422" flag="0"/>
      <psa30 value="0.0031503310" flag="0"/>
    </comp>
    <comp name="--.HNZ">
      <acc value="0.0199642432" flag="0"/>
      <vel value="0.0091838338" flag="0"/>
      <psa03 value="0.0407693756" flag="0"/>
      <psa10 value="0.0137778179" flag="0"/>
      <psa30 value="0.0028765007" flag="0"/>
    </comp>
  </station>
  <station code="CRE" name="CRE" netid="IV" insttype="" lat="43.6189" lon="11.9517">
    <comp name="--.HHE">
      <acc value="0.0136490605" flag="0"/>
      <vel value="0.0081665564" flag="0"/>
      <psa03 value="0.0275607718" flag="0"/>
      <psa10 value="0.0089871953" flag="0"/>
      <psa30 value="0.0009428875" flag="0"/>
    </comp>
    <comp name="--.HHN">
      <acc value="0.0245393610" flag="0"/>
      <vel value="0.0139453181" flag="0"/>
      <psa03 value="0.0614313365" flag="0"/>
      <psa10 value="0.0090849695" flag="0"/>
      <psa30 value="0.0010262912" flag="0"/>
    </comp>
    <comp name="--.HHZ">
      <acc value="0.0131717197" flag="0"/>
      <vel value="0.0057609979" flag="0"/>
      <psa03 value="0.0210171902" flag="0"/>
      <psa10 value="0.0049966700" flag="0"/>
      <psa30 value="0.0005800346" flag="0"/>
    </comp>
  </station>
  <station code="CRMI" name="CRMI" netid="IV" insttype="" lat="43.7956" lon="10.9795">
    <comp name="--.HHN">
      <acc value="0.0084065719" flag="0"/>
      <vel value="0.0053988692" flag="0"/>
      <psa03 value="0.0154316303" flag="0"/>
      <psa10 value="0.0052465799" flag="0"/>
      <psa30 value="0.0005914707" flag="0"/>
    </comp>
    <comp name="--.HHE">
      <acc value="0.0056919342" flag="0"/>
      <vel value="0.0042056336" flag="0"/>
      <psa03 value="0.0103837445" flag="0"/>
      <psa10 value="0.0068372938" flag="0"/>
      <psa30 value="0.0004561054" flag="0"/>
    </comp>
    <comp name="--.HHZ">
      <acc value="0.0047002355" flag="0"/>
      <vel value="0.0019562905" flag="0"/>
      <psa03 value="0.0079199937" flag="0"/>
      <psa10 value="0.0037569535" flag="0"/>
      <psa30 value="0.0003947339" flag="0"/>
    </comp>
  </station>
  <station code="CRTC" name="CRTC" netid="IV" insttype="" lat="43.7685" lon="12.883">
    <comp name="--.HHN">
      <acc value="0.0459202551" flag="0"/>
      <vel value="0.0215866144" flag="0"/>
      <psa03 value="0.1044363576" flag="0"/>
      <psa10 value="0.0160636411" flag="0"/>
      <psa30 value="0.0014452369" flag="0"/>
    </comp>
    <comp name="--.HHE">
      <acc value="0.0436382807" flag="0"/>
      <vel value="0.0252122924" flag="0"/>
      <psa03 value="0.1736636218" flag="0"/>
      <psa10 value="0.0204724894" flag="0"/>
      <psa30 value="0.0014671858" flag="0"/>
    </comp>
    <comp name="--.HHZ">
      <acc value="0.0310567908" flag="0"/>
      <vel value="0.0154178863" flag="0"/>
      <psa03 value="0.1217717289" flag="0"/>
      <psa10 value="0.0104091216" flag="0"/>
      <psa30 value="0.0007371543" flag="0"/>
    </comp>
  </station>
  <station code="CSNT" name="CSNT" netid="IV" insttype="" lat="43.4731" lon="11.2902">
    <comp name="--.HHE">
      <acc value="0.0072919520" flag="0"/>
      <vel value="0.0042324895" flag="0"/>
      <psa03 value="0.0283477409" flag="0"/>
      <psa10 value="0.0045879885" flag="0"/>
      <psa30 value="0.0004913886" flag="0"/>
    </comp>
    <comp name="--.HHN">
      <acc value="0.0088611423" flag="0"/>
      <vel value="0.0055334572" flag="0"/>
      <psa03 value="0.0163629871" flag="0"/>
      <psa10 value="0.0083688832" flag="0"/>
      <psa30 value="0.0006936954" flag="0"/>
    </comp>
    <comp name="--.HHZ">
      <acc value="0.0038823068" flag="0"/>
      <vel value="0.0031610617" flag="0"/>
      <psa03 value="0.0096488611" flag="0"/>
      <psa10 value="0.0040928350" flag="0"/>
      <psa30 value="0.0004975454" flag="0"/>
    </comp>
  </station>
  <station code="FAEN" name="FAEN" netid="IV" insttype="" lat="44.2895" lon="11.877">
    <comp name="--.HNE">
      <acc value="0.1190065617" flag="0"/>
      <vel value="0.0476549384" flag="0"/>
      <psa03 value="0.3234881655" flag="0"/>
      <psa10 value="0.0482417833" flag="0"/>
      <psa30 value="0.0065027672" flag="0"/>
    </comp>
    <comp name="--.HNN">
      <acc value="0.1023621647" flag="0"/>
      <vel value="0.0452860395" flag="0"/>
      <psa03 value="0.2039700942" flag="0"/>
      <psa10 value="0.0539562671" flag="0"/>
      <psa30 value="0.0082801463" flag="0"/>
    </comp>
    <comp name="--.HNZ">
      <acc value="0.1502839807" flag="0"/>
      <vel value="0.0107454302" flag="0"/>
      <psa03 value="0.0341541923" flag="0"/>
      <psa10 value="0.0058108545" flag="0"/>
      <psa30 value="0.0008728735" flag="0"/>
    </comp>
  </station>
  <station code="FNVD" name="FNVD" netid="IV" insttype="" lat="44.1678" lon="11.1229">
    <comp name="--.HHN">
      <acc value="0.0144444470" flag="0"/>
      <vel value="0.0087235894" flag="0"/>
      <psa03 value="0.0352867368" flag="0"/>
      <psa10 value="0.0174937359" flag="0"/>
      <psa30 value="0.0010786126" flag="0"/>
    </comp>
    <comp name="--.HHE">
      <acc value="0.0086914165" flag="0"/>
      <vel value="0.0079270364" flag="0"/>
      <psa03 value="0.0166899815" flag="0"/>
      <psa10 value="0.0181773509" flag="0"/>
      <psa30 value="0.0010019051" flag="0"/>
    </comp>
    <comp name="--.HHZ">
      <acc value="0.0064486085" flag="0"/>
      <vel value="0.0033387509" flag="0"/>
      <psa03 value="0.0133158618" flag="0"/>
      <psa10 value="0.0086938780" flag="0"/>
      <psa30 value="0.0005250059" flag="0"/>
    </comp>
  </station>
  <station code="IMOL" name="IMOL" netid="IV" insttype="" lat="44.3595" lon="11.7425">
    <comp name="--.HNE">
      <acc value="0.0007893615" flag="0"/>
      <vel value="0.0002458830" flag="0"/>
      <psa03 value="0.0004068645" flag="0"/>
      <psa10 value="0.0001186652" flag="0"/>
      <psa30 value="0.0000943523" flag="0"/>
    </comp>
    <comp name="--.HNN">
      <acc value="0.0007229839" flag="0"/>
      <vel value="0.0002433932" flag="0"/>
      <psa03 value="0.0004121866" flag="0"/>
      <psa10 value="0.0001359950" flag="0"/>
      <psa30 value="0.0001861111" flag="0"/>
    </comp>
    <comp name="--.HNZ">
      <acc value="0.0590458545" flag="0"/>
      <vel value="0.0164836971" flag="0"/>
      <psa03 value="0.0544397177" flag="0"/>
      <psa10 value="0.0141178495" flag="0"/>
      <psa30 value="0.0024423818" flag="0"/>
    </comp>
  </station>
  <station code="LMD" name="LMD" netid="IV" insttype="" lat="44.0775" lon="11.7073">
    <comp name="--.HHE">
      <acc value="0.2002570597" flag="0"/>
      <vel value="0.0572563413" flag="0"/>
      <psa03 value="0.2450586481" flag="0"/>
      <psa10 value="0.0155687985" flag="0"/>
      <psa30 value="0.0015503139" flag="0"/>
    </comp>
    <comp name="--.HHN">
      <acc value="0.1398622577" flag="0"/>
      <vel value="0.0400432622" flag="0"/>
      <psa03 value="0.2603905243" flag="0"/>
      <psa10 value="0.0234066040" flag="0"/>
      <psa30 value="0.0023068894" flag="0"/>
    </comp>
    <comp name="--.HHZ">
      <acc value="0.0681239119" flag="0"/>
      <vel value="0.0184372092" flag="0"/>
      <psa03 value="0.1436839489" flag="0"/>
      <psa10 value="0.0104031499" flag="0"/>
      <psa30 value="0.0011274005" flag="0"/>
    </comp>
  </station>
  <station code="MMUR" name="MMUR" netid="IV" insttype="" lat="43.4418" lon="12.9973">
    <comp name="--.HNE">
      <acc value="0.0390235575" flag="0"/>
      <vel value="0.0192199175" flag="0"/>
      <psa03 value="0.1263358818" flag="0"/>
      <psa10 value="0.0183132471" flag="0"/>
      <psa30 value="0.0007544715" flag="0"/>
    </comp>
    <comp name="--.HNN">
      <acc value="0.0324585221" flag="0"/>
      <vel value="0.0156982539" flag="0"/>
      <psa03 value="0.0595750701" flag="0"/>
      <psa10 value="0.0207027797" flag="0"/>
      <psa30 value="0.0008728889" flag="0"/>
    </comp>
    <comp name="--.HNZ">
      <acc value="0.0162179654" flag="0"/>
      <vel value="0.0087177165" flag="0"/>
      <psa03 value="0.0331973480" flag="0"/>
      <psa10 value="0.0061120858" flag="0"/>
      <psa30 value="0.0005749945" flag="0"/>
    </comp>
  </station>
  <station code="MURB" name="MURB" netid="IV" insttype="" lat="43.263" lon="12.5246">
    <comp name="--.HHE">
      <acc value="0.0498957770" flag="0"/>
      <vel value="0.0318110289" flag="0"/>
      <psa03 value="0.2393845214" flag="0"/>
      <psa10 value="0.0291283715" flag="0"/>
      <psa30 value="0.0033055517" flag="0"/>
    </comp>
    <comp name="--.HHN">
      <acc value="0.0428376907" flag="0"/>
      <vel value="0.0186565833" flag="0"/>
      <psa03 value="0.1484328953" flag="0"/>
      <psa10 value="0.0168684140" flag="0"/>
      <psa30 value="0.0021915491" flag="0"/>
    </comp>
    <comp name="--.HHZ">
      <acc value="0.0109938687" flag="0"/>
      <vel value="0.0065294021" flag="0"/>
      <psa03 value="0.0308656200" flag="0"/>
      <psa10 value="0.0132278918" flag="0"/>
      <psa30 value="0.0011552388" flag="0"/>
    </comp>
  </station>
  <station code="OSSC" name="OSSC" netid="IV" insttype="" lat="43.5236" lon="11.2458">
    <comp name="--.HHN">
      <acc value="0.0089409597" flag="0"/>
      <vel value="0.0070132300" flag="0"/>
      <psa03 value="0.0186501239" flag="0"/>
      <psa10 value="0.0147452144" flag="0"/>
      <psa30 value="0.0006511701" flag="0"/>
    </comp>
    <comp name="--.HHE">
      <acc value="0.0098603843" flag="0"/>
      <vel value="0.0094097996" flag="0"/>
      <psa03 value="0.0165757548" flag="0"/>
      <psa10 value="0.0094504299" flag="0"/>
      <psa30 value="0.0007800614" flag="0"/>
    </comp>
