<?xml version="1.0" encoding="UTF-8" standalone="yes"?>
<!DOCTYPE earthquake SYSTEM "stationlist.dtd">
<stationlist created="" xmlns="ch.ethz.sed.shakemap.usgs.xml">
  <station code="AOI" name="AOI" netid="IV" insttype="" lat="43.5502" lon="13.602">
    <comp name="--.HHE">
      <acc value="0.0085873050" flag="0"/>
      <vel value="0.0049501543" flag="0"/>
      <psa03 value="0.0175962920" flag="0"/>
      <psa10 value="0.0079812191" flag="0"/>
      <psa30 value="0.0005001651" flag="0"/>
    </comp>
    <comp name="--.HHZ">
      <acc value="0.0080469448" flag="0"/>
      <vel value="0.0044667010" flag="0"/>
      <psa03 value="0.0147896075" flag="0"/>
      <psa10 value="0.0045707216" flag="0"/>
      <psa30 value="0.0003981031" flag="0"/>
    </comp>
    <comp name="--.HHN">
      <acc value="0.0082559306" flag="0"/>
      <vel value="0.0062208385" flag="0"/>
      <psa03 value="0.0183854194" flag="0"/>
      <psa10 value="0.0057803761" flag="0"/>
      <psa30 value="0.0011517014" flag="0"/>
    </comp>
  </station>
  <station code="ARVD" name="ARVD" netid="IV" insttype="" lat="43.4981" lon="12.9415">
    <comp name="--.HHE">
      <acc value="0.0164535179" flag="0"/>
      <vel value="0.0053359336" flag="0"/>
      <psa03 value="0.0352915305" flag="0"/>
      <psa10 value="0.0047684653" flag="0"/>
      <psa30 value="0.0007433539" flag="0"/>
    </comp>
    <comp name="--.HHZ">
      <acc value="0.0194297025" flag="0"/>
      <vel value="0.0066329268" flag="0"/>
      <psa03 value="0.0367389097" flag="0"/>
      <psa10 value="0.0051300591" flag="0"/>
      <psa30 value="0.0003883403" flag="0"/>
    </comp>
    <comp name="--.HHN">
      <acc value="0.0152296858" flag="0"/>
      <vel value="0.0073460564" flag="0"/>
      <psa03 value="0.0418464797" flag="0"/>
      <psa10 value="0.0058807052" flag="0"/>
      <psa30 value="0.0004014967" flag="0"/>
    </comp>
  </station>
  <station code="ATFO" name="ATFO" netid="IV" insttype="" lat="43.3666" lon="12.5715">
    <comp name="--.HHE">
      <acc value="0.0183012988" flag="0"/>
      <vel value="0.0117453996" flag="0"/>
      <psa03 value="0.0558024687" flag="0"/>
      <psa10 value="0.0142830562" flag="0"/>
      <psa30 value="0.0010484537" flag="0"/>
    </comp>
    <comp name="--.HHN">
      <acc value="0.0201055504" flag="0"/>
      <vel value="0.0141224054" flag="0"/>
      <psa03 value="0.0421501510" flag="0"/>
      <psa10 value="0.0102270349" flag="0"/>
      <psa30 value="0.0006812573" flag="0"/>
    </comp>
    <comp name="--.HHZ">
      <acc value="0.0077328348" flag="0"/>
      <vel value="0.0045769318" flag="0"/>
      <psa03 value="0.0249611240" flag="0"/>
      <psa10 value="0.0038372624" flag="0"/>
      <psa30 value="0.0003268201" flag="0"/>
    </comp>
  </station>
  <station code="ATMI" name="ATMI" netid="IV" insttype="" lat="43.3342" lon="12.268">
    <comp name="--.HHE">
      <acc value="0.0294956025" flag="0"/>
      <vel value="0.0158933998" flag="0"/>
      <psa03 value="0.0870514309" flag="0"/>
      <psa10 value="0.0341692947" flag="0"/>
      <psa30 value="0.0015639654" flag="0"/>
    </comp>
    <comp name="--.HHN">
      <acc value="0.0188542662" flag="0"/>
      <vel value="0.0125029174" flag="0"/>
      <psa03 value="0.0609941480" flag="0"/>
      <psa10 value="0.0254697500" flag="0"/>
      <psa30 value="0.0016776390" flag="0"/>
    </comp>
    <comp name="--.HHZ">
      <acc value="0.0099039320" flag="0"/>
      <vel value="0.0062208430" flag="0"/>
      <psa03 value="0.0224204527" flag="0"/>
      <psa10 value="0.0092985425" flag="0"/>
      <psa30 value="0.0007187434" flag="0"/>
    </comp>
  </station>
  <station code="ATPC" name="ATPC" netid="IV" insttype="" lat="43.4807" lon="12.457">
    <comp name="--.HHE">
      <acc value="0.0278268576" flag="0"/>
      <vel value="0.0118383724" flag="0"/>
      <psa03 value="0.0572417774" flag="0"/>
      <psa10 value="0.0119175694" flag="0"/>
      <psa30 value="0.0010708501" flag="0"/>
    </comp>
    <comp name="--.HHN">
      <acc value="0.0196105032" flag="0"/>
      <vel value="0.0086575225" flag="0"/>
      <psa03 value="0.0558928190" flag="0"/>
      <psa10 value="0.0105127695" flag="0"/>
      <psa30 value="0.0006439854" flag="0"/>
    </comp>
    <comp name="--.HHZ">
      <acc value="0.0108269929" flag="0"/>
      <vel value="0.0053086815" flag="0"/>
      <psa03 value="0.0332910742" flag="0"/>
      <psa10 value="0.0083832311" flag="0"/>
      <psa30 value="0.0008994343" flag="0"/>
    </comp>
  </station>
  <station code="ATVO" name="ATVO" netid="IV" insttype="" lat="43.3821" lon="12.4066">
    <comp name="--.HHE">
      <acc value="0.0192197695" flag="0"/>
      <vel value="0.0126300327" flag="0"/>
      <psa03 value="0.0495158891" flag="0"/>
      <psa10 value="0.0166360009" flag="0"/>
      <psa30 value="0.0011058071" flag="0"/>
    </comp>
    <comp name="--.HHN">
      <acc value="0.0138052651" flag="0"/>
      <vel value="0.0097579029" flag="0"/>
      <psa03 value="0.0379482221" flag="0"/>
      <psa10 value="0.0152767202" flag="0"/>
      <psa30 value="0.0008651584" flag="0"/>
    </comp>
    <comp name="--.HHZ">
      <acc value="0.0079232082" flag="0"/>
      <vel value="0.0048744811" flag="0"/>
      <psa03 value="0.0172970376" flag="0"/>
      <psa10 value="0.0058406495" flag="0"/>
      <psa30 value="0.0006948163" flag="0"/>
    </comp>
  </station>
  <station code="BOSL" name="BOSL" netid="IV" insttype="" lat="43.931" lon="11.3743">
    <comp name="--.HHN">
      <acc value="0.0049907601" flag="0"/>
      <vel value="0.0031119385" flag="0"/>
      <psa03 value="0.0117008131" flag="0"/>
      <psa10 value="0.0049465008" flag="0"/>
      <psa30 value="0.0003435299" flag="0"/>
    </comp>
    <comp name="--.HHE">
      <acc value="0.0044356463" flag="0"/>
      <vel value="0.0027531697" flag="0"/>
      <psa03 value="0.0096925778" flag="0"/>
      <psa10 value="0.0029616707" flag="0"/>
      <psa30 value="0.0001658517" flag="0"/>
    </comp>
    <comp name="--.HHZ">
      <acc value="0.0033001130" flag="0"/>
      <vel value="0.0015946899" flag="0"/>
      <psa03 value="0.0054073061" flag="0"/>
      <psa10 value="0.0017386865" flag="0"/>
      <psa30 value="0.0001196789" flag="0"/>
    </comp>
  </station>
  <station code="BRIS" name="BRIS" netid="IV" insttype="" lat="44.2245" lon="11.7666">
    <comp name="--.HHE">
      <acc value="0.0259906903" flag="0"/>
      <vel value="0.0090719625" flag="0"/>
      <psa03 value="0.0537160829" flag="0"/>
      <psa10 value="0.0090465711" flag="0"/>
      <psa30 value="0.0006664249" flag="0"/>
    </comp>
    <comp name="--.HHZ">
      <acc value="0.0134506393" flag="0"/>
      <vel value="0.0061878920" flag="0"/>
      <psa03 value="0.0293644665" flag="0"/>
      <psa10 value="0.0105504461" flag="0"/>
      <psa30 value="0.0006520699" flag="0"/>
    </comp>
    <comp name="--.HHN">
      <acc value="0.0225703133" flag="0"/>
      <vel value="0.0091574812" flag="0"/>
      <psa03 value="0.0494001125" flag="0"/>
      <psa10 value="0.0080134720" flag="0"/>
      <psa30 value="0.0007769774" flag="0"/>
    </comp>
  </station>
  <station code="BRSN" name="BRSN" netid="IV" insttype="" lat="44.2842" lon="12.0802">
    <comp name="--.HNE">
      <acc value="0.1500835493" flag="0"/>
      <vel value="0.0635010653" flag="0"/>
      <psa03 value="0.2462959705" flag="0"/>
      <psa10 value="0.0944767199" flag="0"/>
      <psa30 value="0.0102560515" flag="0"/>
    </comp>
    <comp name="--.HNN">
      <acc value="0.1274290407" flag="0"/>
      <vel value="0.0675280367" flag="0"/>
      <psa03 value="0.3773773669" flag="0"/>
      <psa10 value="0.0705519850" flag="0"/>
      <psa30 value="0.0112601041" flag="0"/>
    </comp>
    <comp name="--.HNZ">
      <acc value="0.1587092053" flag="0"/>
      <vel value="0.0392544507" flag="0"/>
      <psa03 value="0.2095632469" flag="0"/>
      <psa10 value="0.0306072784" flag="0"/>
      <psa30 value="0.0038695865" flag="0"/>
    </comp>
  </station>
  <station code="CAFI" name="CAFI" netid="IV" insttype="" lat="43.3292" lon="11.9663">
    <comp name="--.HHE">
      <acc value="0.0105155288" flag="0"/>
      <vel value="0.0074064568" flag="0"/>
      <psa03 value="0.0138818313" flag="0"/>
      <psa10 value="0.0091812458" flag="0"/>
      <psa30 value="0.0004569867" flag="0"/>
    </comp>
    <comp name="--.HHN">
      <acc value="0.0079946119" flag="0"/>
      <vel value="0.0060592631" flag="0"/>
      <psa03 value="0.0215066853" flag="0"/>
      <psa10 value="0.0088123138" flag="0"/>
      <psa30 value="0.0004370046" flag="0"/>
    </comp>
    <comp name="--.HHZ">
      <acc value="0.0067758547" flag="0"/>
      <vel value="0.0038172025" flag="0"/>
      <psa03 value="0.0093876671" flag="0"/>
      <psa10 value="0.0057854640" flag="0"/>
      <psa30 value="0.0003921470" flag="0"/>
    </comp>
  </station>
  <station code="CING" name="CING" netid="IV" insttype="" lat="43.3756" lon="13.1954">
    <comp name="--.HHE">
      <acc value="0.0066559267" flag="0"/>
      <vel value="0.0043005443" flag="0"/>
      <psa03 value="0.0242560889" flag="0"/>
      <psa10 value="0.0064133127" flag="0"/>
      <psa30 value="0.0005624153" flag="0"/>
    </comp>
    <comp name="--.HHN">
      <acc value="0.0124799547" flag="0"/>
      <vel value="0.0072878933" flag="0"/>
      <psa03 value="0.0393573727" flag="0"/>
      <psa10 value="0.0088677960" flag="0"/>
      <psa30 value="0.0010980316" flag="0"/>
    </comp>
    <comp name="--.HHZ">
      <acc value="0.0070749043" flag="0"/>
      <vel value="0.0044697076" flag="0"/>
      <psa03 value="0.0322950865" flag="0"/>
      <psa10 value="0.0045514286" flag="0"/>
      <psa30 value="0.0007975407" flag="0"/>
    </comp>
  </station>
  <station code="CPGN" name="CPGN" netid="IV" insttype="" lat="43.8011" lon="12.3205">
    <comp name="--.HNE">
      <acc value="0.0226682807" flag="0"/>
      <vel value="0.0117951894" flag="0"/>
      <psa03 value="0.0545464995" flag="0"/>
      <psa10 value="0.0209936424" flag="0"/>
      <psa30 value="0.0031504429" flag="0"/>
    </comp>
    <comp name="--.HNZ">
      <acc value="0.0199642442" flag="0"/>
      <vel value="0.0091838345" flag="0"/>
      <psa03 value="0.0407693756" flag="0"/>
      <psa10 value="0.0137778179" flag="0"/>
      <psa30 value="0.0028765383" flag="0"/>
    </comp>
    <comp name="--.HNN">
      <acc value="0.0298220012" flag="0"/>
      <vel value="0.0118876738" flag="0"/>
      <psa03 value="0.0509996476" flag="0"/>
      <psa10 value="0.0170775341" flag="0"/>
      <psa30 value="0.0018170289" flag="0"/>
    </comp>
  </station>
  <station code="CRE" name="CRE" netid="IV" insttype="" lat="43.6189" lon="11.9517">
    <comp name="--.HHE">
      <acc value="0.0136490605" flag="0"/>
      <vel value="0.0081665554" flag="0"/>
      <psa03 value="0.0275607718" flag="0"/>
      <psa10 value="0.0089871953" flag="0"/>
      <psa30 value="0.0009429032" flag="0"/>
    </comp>
    <comp name="--.HHN">
      <acc value="0.0245393610" flag="0"/>
      <vel value="0.0139453183" flag="0"/>
      <psa03 value="0.0614313365" flag="0"/>
      <psa10 value="0.0090849695" flag="0"/>
      <psa30 value="0.0010263105" flag="0"/>
    </comp>
    <comp name="--.HHZ">
      <acc value="0.0131717197" flag="0"/>
      <vel value="0.0057609999" flag="0"/>
      <psa03 value="0.0210171902" flag="0"/>
      <psa10 value="0.0049966700" flag="0"/>
      <psa30 value="0.0005800337" flag="0"/>
    </comp>
  </station>
  <station code="CRMI" name="CRMI" netid="IV" insttype="" lat="43.7956" lon="10.9795">
    <comp name="--.HHN">
      <acc value="0.0084065719" flag="0"/>
      <vel value="0.0053988690" flag="0"/>
      <psa03 value="0.0154316303" flag="0"/>
      <psa10 value="0.0052465800" flag="0"/>
      <psa30 value="0.0005914644" flag="0"/>
    </comp>
    <comp name="--.HHE">
      <acc value="0.0056919342" flag="0"/>
      <vel value="0.0042056336" flag="0"/>
      <psa03 value="0.0103837444" flag="0"/>
      <psa10 value="0.0068372938" flag="0"/>
      <psa30 value="0.0004561266" flag="0"/>
    </comp>
    <comp name="--.HHZ">
      <acc value="0.0047002357" flag="0"/>
      <vel value="0.0019562901" flag="0"/>
      <psa03 value="0.0079199937" flag="0"/>
      <psa10 value="0.0037569534" flag="0"/>
      <psa30 value="0.0003947473" flag="0"/>
    </comp>
  </station>
  <station code="CRTC" name="CRTC" netid="IV" insttype="" lat="43.7685" lon="12.883">
    <comp name="--.HHE">
      <acc value="0.0436382809" flag="0"/>
      <vel value="0.0252122859" flag="0"/>
      <psa03 value="0.1736636218" flag="0"/>
      <psa10 value="0.0204724900" flag="0"/>
      <psa30 value="0.0014674013" flag="0"/>
    </comp>
    <comp name="--.HHN">
      <acc value="0.0459202551" flag="0"/>
      <vel value="0.0215866123" flag="0"/>
      <psa03 value="0.1044363576" flag="0"/>
      <psa10 value="0.0160636423" flag="0"/>
      <psa30 value="0.0014455682" flag="0"/>
    </comp>
    <comp name="--.HHZ">
      <acc value="0.0310567907" flag="0"/>
      <vel value="0.0154178910" flag="0"/>
      <psa03 value="0.1217717289" flag="0"/>
      <psa10 value="0.0104091227" flag="0"/>
      <psa30 value="0.0007371975" flag="0"/>
    </comp>
  </station>
  <station code="CSNT" name="CSNT" netid="IV" insttype="" lat="43.4731" lon="11.2902">
    <comp name="--.HHE">
      <acc value="0.0072919518" flag="0"/>
      <vel value="0.0042324890" flag="0"/>
      <psa03 value="0.0283477409" flag="0"/>
      <psa10 value="0.0045879885" flag="0"/>
      <psa30 value="0.0004913889" flag="0"/>
    </comp>
    <comp name="--.HHN">
      <acc value="0.0088611422" flag="0"/>
      <vel value="0.0055334570" flag="0"/>
      <psa03 value="0.0163629871" flag="0"/>
      <psa10 value="0.0083688832" flag="0"/>
      <psa30 value="0.0006936655" flag="0"/>
    </comp>
    <comp name="--.HHZ">
      <acc value="0.0038823068" flag="0"/>
      <vel value="0.0031610617" flag="0"/>
      <psa03 value="0.0096488611" flag="0"/>
      <psa10 value="0.0040928350" flag="0"/>
      <psa30 value="0.0004975731" flag="0"/>
    </comp>
  </station>
  <station code="FAEN" name="FAEN" netid="IV" insttype="" lat="44.2895" lon="11.877">
    <comp name="--.HNE">
      <acc value="0.1190065643" flag="0"/>
      <vel value="0.0476549455" flag="0"/>
      <psa03 value="0.3234881655" flag="0"/>
      <psa10 value="0.0482417833" flag="0"/>
      <psa30 value="0.0065028062" flag="0"/>
    </comp>
    <comp name="--.HNN">
      <acc value="0.1023621672" flag="0"/>
      <vel value="0.0452860378" flag="0"/>
      <psa03 value="0.2039700942" flag="0"/>
      <psa10 value="0.0539562696" flag="0"/>
      <psa30 value="0.0082801284" flag="0"/>
    </comp>
    <comp name="--.HNZ">
      <acc value="0.1502839844" flag="0"/>
      <vel value="0.0107454297" flag="0"/>
      <psa03 value="0.0341541922" flag="0"/>
      <psa10 value="0.0058108545" flag="0"/>
      <psa30 value="0.0008720442" flag="0"/>
    </comp>
  </station>
  <station code="FNVD" name="FNVD" netid="IV" insttype="" lat="44.1678" lon="11.1229">
    <comp name="--.HHE">
      <acc value="0.0086914165" flag="0"/>
      <vel value="0.0079270367" flag="0"/>
      <psa03 value="0.0166899815" flag="0"/>
      <psa10 value="0.0181773509" flag="0"/>
      <psa30 value="0.0010019023" flag="0"/>
    </comp>
    <comp name="--.HHN">
      <acc value="0.0144444470" flag="0"/>
      <vel value="0.0087235853" flag="0"/>
      <psa03 value="0.0352867368" flag="0"/>
      <psa10 value="0.0174937359" flag="0"/>
      <psa30 value="0.0010786118" flag="0"/>
    </comp>
    <comp name="--.HHZ">
      <acc value="0.0064486085" flag="0"/>
      <vel value="0.0033387511" flag="0"/>
      <psa03 value="0.0133158618" flag="0"/>
      <psa10 value="0.0086938780" flag="0"/>
      <psa30 value="0.0005250050" flag="0"/>
    </comp>
  </station>
  <station code="LMD" name="LMD" netid="IV" insttype="" lat="44.0775" lon="11.7073">
    <comp name="--.HHE">
      <acc value="0.2002570598" flag="0"/>
      <vel value="0.0572563405" flag="0"/>
      <psa03 value="0.2450586481" flag="0"/>
      <psa10 value="0.0155687989" flag="0"/>
      <psa30 value="0.0015502944" flag="0"/>
    </comp>
    <comp name="--.HHN">
      <acc value="0.1398622577" flag="0"/>
      <vel value="0.0400432621" flag="0"/>
      <psa03 value="0.2603905243" flag="0"/>
      <psa10 value="0.0234066041" flag="0"/>
      <psa30 value="0.0023068891" flag="0"/>
    </comp>
    <comp name="--.HHZ">
      <acc value="0.0681239118" flag="0"/>
      <vel value="0.0184372093" flag="0"/>
      <psa03 value="0.1436839489" flag="0"/>
      <psa10 value="0.0104031500" flag="0"/>
      <psa30 value="0.0011273224" flag="0"/>
    </comp>
  </station>
  <station code="MCIF" name="MCIF" netid="IV" insttype="" lat="43.8116" lon="12.6317">
    <comp name="--.HNZ">
      <acc value="0.1233326379" flag="0"/>
      <vel value="0.0325159883" flag="0"/>
      <psa03 value="0.1207379721" flag="0"/>
      <psa10 value="0.0161333894" flag="0"/>
      <psa30 value="0.0022132900" flag="0"/>
    </comp>
  </station>
  <station code="MMUR" name="MMUR" netid="IV" insttype="" lat="43.4418" lon="12.9973">
    <comp name="--.HNE">
      <acc value="0.0390235582" flag="0"/>
      <vel value="0.0192199167" flag="0"/>
      <psa03 value="0.1263358818" flag="0"/>
      <psa10 value="0.0183132476" flag="0"/>
      <psa30 value="0.0007547661" flag="0"/>
    </comp>
    <comp name="--.HNZ">
      <acc value="0.0162179652" flag="0"/>
      <vel value="0.0087177216" flag="0"/>
      <psa03 value="0.0331973480" flag="0"/>
      <psa10 value="0.0061120859" flag="0"/>
      <psa30 value="0.0005749655" flag="0"/>
    </comp>
    <comp name="--.HNN">
      <acc value="0.0324585229" flag="0"/>
      <vel value="0.0156982522" flag="0"/>
      <psa03 value="0.0595750701" flag="0"/>
      <psa10 value="0.0207027798" flag="0"/>
      <psa30 value="0.0008729988" flag="0"/>
    </comp>
  </station>
  <station code="MURB" name="MURB" netid="IV" insttype="" lat="43.263" lon="12.5246">
    <comp name="--.HHE">
      <acc value="0.0498957770" flag="0"/>
      <vel value="0.0318110287" flag="0"/>
      <psa03 value="0.2393845214" flag="0"/>
      <psa10 value="0.0291283715" flag="0"/>
      <psa30 value="0.0033055514" flag="0"/>
    </comp>
    <comp name="--.HHN">
      <acc value="0.0428376907" flag="0"/>
      <vel value="0.0186565833" flag="0"/>
      <psa03 value="0.1484328953" flag="0"/>
      <psa10 value="0.0168684140" flag="0"/>
      <psa30 value="0.0021915466" flag="0"/>
    </comp>
    <comp name="--.HHZ">
      <acc value="0.0109938687" flag="0"/>
      <vel value="0.0065294003" flag="0"/>
      <psa03 value="0.0308656200" flag="0"/>
      <psa10 value="0.0132278918" flag="0"/>
      <psa30 value="0.0011552354" flag="0"/>
    </comp>
  </station>
  <station code="OSSC" name="OSSC" netid="IV" insttype="" lat="43.5236" lon="11.2458">
    <comp name="--.HHE">
      <acc value="0.0098603846" flag="0"/>
      <vel value="0.0094098004" flag="0"/>
      <psa03 value="0.0165757548" flag="0"/>
      <psa10 value="0.0094504299" flag="0"/>
      <psa30 value="0.0007800088" flag="0"/>
    </comp>
    <comp name="--.HHN">
      <acc value="0.0089409597" flag="0"/>
      <vel value="0.0070132301" flag="0"/>
      <psa03 value="0.0186501239" flag="0"/>
      <psa10 value="0.0147452144" flag="0"/>
      <psa30 value="0.0006512293" flag="0"/>
    </comp>
    <comp name="--.HHZ">
      <acc value="0.0063580709" flag="0"/>
      <vel value="0.0041707334" flag="0"/>
      <psa03 value="0.0105255054" flag="0"/>
      <psa10 value="0.0048206694" flag="0"/>
      <psa30 value="0.0006185979" flag="0"/>
    </comp>
  </station>
  <station code="PARC" name="PARC" netid="IV" insttype="" lat="43.6486" lon="12.2386">
    <comp name="--.HHE">
      <acc value="0.0358021265" flag="0"/>
      <vel value="0.0155589915" flag="0"/>
      <psa03 value="0.0723479809" flag="0"/>
