<stationlist created="1674912631">
	<station code="ARCI" name="ARCI" netid="IV" source="Italian National Seismic Network (INSN)" insttype="" lat="42.8519" lon="11.4754">
		<comp name=".HHE" depth="0.0">
			<acc value="0.00146221217926" flag="0"/>
			<vel value="0.00145778792559" flag="0"/>
			<psa03 value="0.00265380454501" flag="0"/>
			<psa10 value="0.00406437065085" flag="0"/>
			<psa30 value="0.000210223431479" flag="0"/>
		</comp>
		<comp name=".HHN" depth="0.0">
			<acc value="0.00158881004707" flag="0"/>
			<vel value="0.00187068259463" flag="0"/>
			<psa03 value="0.00618185678332" flag="0"/>
			<psa10 value="0.00345483620969" flag="0"/>
			<psa30 value="0.000208197151415" flag="0"/>
		</comp>
		<comp name=".HHZ" depth="0.0">
			<acc value="0.00112704721972" flag="0"/>
			<vel value="0.000634445498004" flag="0"/>
			<psa03 value="0.00269616688907" flag="0"/>
			<psa10 value="0.00107337044146" flag="0"/>
			<psa30 value="0.000163191643979" flag="0"/>
		</comp>
		<comp name=".HNE" depth="0.0">
			<acc value="0.00141685815484" flag="0"/>
			<vel value="0.00150277435136" flag="0"/>
			<psa03 value="0.00259463330751" flag="0"/>
			<psa10 value="0.00407555670438" flag="0"/>
			<psa30 value="0.000191990153301" flag="0"/>
		</comp>
		<comp name=".HNN" depth="0.0">
			<acc value="0.00162971022154" flag="0"/>
			<vel value="0.00186315588755" flag="0"/>
			<psa03 value="0.00598608209546" flag="0"/>
			<psa10 value="0.00345213954668" flag="0"/>
			<psa30 value="0.000203485185624" flag="0"/>
		</comp>
		<comp name=".HNZ" depth="0.0">
			<acc value="0.0010920415649" flag="0"/>
			<vel value="0.000652206110433" flag="0"/>
			<psa03 value="0.00259900680686" flag="0"/>
			<psa10 value="0.00104216145996" flag="0"/>
			<psa30 value="0.000155180058563" flag="0"/>
		</comp>
	</station>
	<station code="ASCOL" name="ASCOL" netid="IV" source="Italian National Seismic Network (INSN)" insttype="" lat="42.851223" lon="13.58969">
		<comp name=".EHE" depth="0.0">
			<acc value="0.0114425506074" flag="0"/>
			<vel value="0.00372560285192" flag="0"/>
			<psa03 value="0.015266032133" flag="0"/>
			<psa10 value="0.0060190934229" flag="0"/>
			<psa30 value="0.00064506549284" flag="0"/>
		</comp>
		<comp name=".EHN" depth="0.0">
			<acc value="0.00626729114158" flag="0"/>
			<vel value="0.00277233773593" flag="0"/>
			<psa03 value="0.010599884482" flag="0"/>
			<psa10 value="0.00471994220424" flag="0"/>
			<psa30 value="0.000421001665336" flag="0"/>
		</comp>
		<comp name=".EHZ" depth="0.0">
			<acc value="0.00473491115233" flag="0"/>
			<vel value="0.00246130511666" flag="0"/>
			<psa03 value="0.0114897715577" flag="0"/>
			<psa10 value="0.00483283077633" flag="0"/>
			<psa30 value="0.000355686348933" flag="0"/>
		</comp>
		<comp name=".HNE" depth="0.0">
			<acc value="0.00646363389135" flag="0"/>
			<vel value="0.00191011383709" flag="0"/>
			<psa03 value="0.00765291452012" flag="0"/>
			<psa10 value="0.00293254262593" flag="0"/>
			<psa30 value="0.00033065370106" flag="0"/>
		</comp>
		<comp name=".HNN" depth="0.0">
			<acc value="0.0036450137979" flag="0"/>
			<vel value="0.00158260202883" flag="0"/>
			<psa03 value="0.00532840278523" flag="0"/>
			<psa10 value="0.00249115807387" flag="0"/>
			<psa30 value="0.000240997892011" flag="0"/>
		</comp>
		<comp name=".HNZ" depth="0.0">
			<acc value="0.00228222067355" flag="0"/>
			<vel value="0.00127451983503" flag="0"/>
			<psa03 value="0.00585952748786" flag="0"/>
			<psa10 value="0.00241617865373" flag="0"/>
			<psa30 value="0.000174520467374" flag="0"/>
		</comp>
	</station>
	<station code="ASOL" name="ASOL" netid="IV" source="Italian National Seismic Network (INSN)" insttype="" lat="45.8003" lon="11.9023">
		<comp name=".EHE" depth="0.0">
			<acc value="0.0231753574126" flag="0"/>
			<vel value="0.00976467165855" flag="0"/>
			<psa03 value="0.0422824025642" flag="0"/>
			<psa10 value="0.0106121501904" flag="0"/>
			<psa30 value="0.0014003015131" flag="0"/>
		</comp>
		<comp name=".EHN" depth="0.0">
			<acc value="0.0168623775421" flag="0"/>
			<vel value="0.00697293620775" flag="0"/>
			<psa03 value="0.0234281691887" flag="0"/>
			<psa10 value="0.00742544596186" flag="0"/>
			<psa30 value="0.000572781485631" flag="0"/>
		</comp>
		<comp name=".EHZ" depth="0.0">
			<acc value="0.00955311092621" flag="0"/>
			<vel value="0.00369390079593" flag="0"/>
			<psa03 value="0.0162178438838" flag="0"/>
			<psa10 value="0.00400093238589" flag="0"/>
			<psa30 value="0.000259192873381" flag="0"/>
		</comp>
		<comp name=".HNE" depth="0.0">
			<acc value="0.0472033799408" flag="0"/>
			<vel value="0.0197073174828" flag="0"/>
			<psa03 value="0.085484022272" flag="0"/>
			<psa10 value="0.0217436591607" flag="0"/>
			<psa30 value="0.00289971730037" flag="0"/>
		</comp>
		<comp name=".HNN" depth="0.0">
			<acc value="0.0346432050904" flag="0"/>
			<vel value="0.0139101276976" flag="0"/>
			<psa03 value="0.0486362687892" flag="0"/>
			<psa10 value="0.0148063670992" flag="0"/>
			<psa30 value="0.00118728344337" flag="0"/>
		</comp>
		<comp name=".HNZ" depth="0.0">
			<acc value="0.0201947830888" flag="0"/>
			<vel value="0.00807636674964" flag="0"/>
			<psa03 value="0.03202832224" flag="0"/>
			<psa10 value="0.00916508401683" flag="0"/>
			<psa30 value="0.00107175026903" flag="0"/>
		</comp>
	</station>
	<station code="ATCC" name="ATCC" netid="IV" source="Italian National Seismic Network (INSN)" insttype="" lat="43.18514" lon="12.63994">
		<comp name=".EHE" depth="1.0">
			<acc value="0.0222870477974" flag="0"/>
			<vel value="0.0121800673596" flag="0"/>
			<psa03 value="0.0664202073045" flag="0"/>
			<psa10 value="0.01394948596" flag="0"/>
			<psa30 value="0.00163651778627" flag="0"/>
		</comp>
		<comp name=".EHN" depth="1.0">
			<acc value="0.0246493625678" flag="0"/>
			<vel value="0.013659751714" flag="0"/>
			<psa03 value="0.0554523921989" flag="0"/>
			<psa10 value="0.0140184924063" flag="0"/>
			<psa30 value="0.00125424058729" flag="0"/>
		</comp>
		<comp name=".EHZ" depth="1.0">
			<acc value="0.00802855273125" flag="0"/>
			<vel value="0.00603481823547" flag="0"/>
			<psa03 value="0.0352184137762" flag="0"/>
			<psa10 value="0.0063968756366" flag="0"/>
			<psa30 value="0.00164222889377" flag="0"/>
		</comp>
		<comp name=".HNE" depth="1.0">
			<acc value="0.0225254964725" flag="0"/>
			<vel value="0.0118770152216" flag="0"/>
			<psa03 value="0.0612749029115" flag="0"/>
			<psa10 value="0.0161913750991" flag="0"/>
			<psa30 value="0.00157781098057" flag="0"/>
		</comp>
		<comp name=".HNN" depth="1.0">
			<acc value="0.0241730628908" flag="0"/>
			<vel value="0.0147823995728" flag="0"/>
			<psa03 value="0.0551828274666" flag="0"/>
			<psa10 value="0.0140644273243" flag="0"/>
			<psa30 value="0.00149804059201" flag="0"/>
		</comp>
		<comp name=".HNZ" depth="1.0">
			<acc value="0.00793141611265" flag="0"/>
			<vel value="0.00600200033568" flag="0"/>
			<psa03 value="0.035714738322" flag="0"/>
			<psa10 value="0.00641241057196" flag="0"/>
			<psa30 value="0.00164782009749" flag="0"/>
		</comp>
	</station>
	<station code="ATFO" name="ATFO" netid="IV" source="Italian National Seismic Network (INSN)" insttype="" lat="43.3666" lon="12.5715">
		<comp name=".HHE" depth="1.0">
			<acc value="0.0182950912918" flag="0"/>
			<vel value="0.0120710020178" flag="0"/>
			<psa03 value="0.0563840789183" flag="0"/>
			<psa10 value="0.0143578083218" flag="0"/>
			<psa30 value="0.00119777799275" flag="0"/>
		</comp>
		<comp name=".HHN" depth="1.0">
			<acc value="0.0200236314698" flag="0"/>
			<vel value="0.0142720319243" flag="0"/>
			<psa03 value="0.0424127184886" flag="0"/>
			<psa10 value="0.0102381585403" flag="0"/>
			<psa30 value="0.000836427544635" flag="0"/>
		</comp>
		<comp name=".HHZ" depth="1.0">
			<acc value="0.00778558481174" flag="0"/>
			<vel value="0.00472980820423" flag="0"/>
			<psa03 value="0.0255238705187" flag="0"/>
			<psa10 value="0.00385933214619" flag="0"/>
			<psa30 value="0.000340348874568" flag="0"/>
		</comp>
		<comp name=".HNE" depth="1.0">
			<acc value="0.0175035299391" flag="0"/>
			<vel value="0.0116314697606" flag="0"/>
			<psa03 value="0.0541521446057" flag="0"/>
			<psa10 value="0.0140330349322" flag="0"/>
			<psa30 value="0.0011004552956" flag="0"/>
		</comp>
		<comp name=".HNN" depth="1.0">
			<acc value="0.0194431009732" flag="0"/>
			<vel value="0.0142760821376" flag="0"/>
			<psa03 value="0.0416123165076" flag="0"/>
			<psa10 value="0.0103415894545" flag="0"/>
			<psa30 value="0.000855276866228" flag="0"/>
		</comp>
		<comp name=".HNZ" depth="1.0">
			<acc value="0.00750709943035" flag="0"/>
			<vel value="0.00457877626867" flag="0"/>
			<psa03 value="0.0247463398444" flag="0"/>
			<psa10 value="0.00387706402396" flag="0"/>
			<psa30 value="0.000364266787137" flag="0"/>
		</comp>
	</station>
	<station code="ATLO" name="ATLO" netid="IV" source="Italian National Seismic Network (INSN)" insttype="" lat="43.31516" lon="12.40726">
		<comp name=".EHE" depth="1.0">
			<acc value="0.0135861891879" flag="0"/>
			<vel value="0.0150351901945" flag="0"/>
			<psa03 value="0.0174311638436" flag="0"/>
			<psa10 value="0.0153016249076" flag="0"/>
			<psa30 value="0.00203341699556" flag="0"/>
		</comp>
		<comp name=".EHN" depth="1.0">
			<acc value="0.0079184835758" flag="0"/>
			<vel value="0.00780118520192" flag="0"/>
			<psa03 value="0.0208354505589" flag="0"/>
			<psa10 value="0.0122733743008" flag="0"/>
			<psa30 value="0.00132584720587" flag="0"/>
		</comp>
		<comp name=".EHZ" depth="1.0">
			<acc value="0.00481325468861" flag="0"/>
			<vel value="0.00368216268035" flag="0"/>
			<psa03 value="0.013174713906" flag="0"/>
			<psa10 value="0.00380471938774" flag="0"/>
			<psa30 value="0.000807143417209" flag="0"/>
		</comp>
	</station>
	<station code="ATPC" name="ATPC" netid="IV" source="Italian National Seismic Network (INSN)" insttype="" lat="43.4807" lon="12.457">
		<comp name=".HNE" depth="1.0">
			<acc value="0.0271601297192" flag="0"/>
			<vel value="0.0115239098041" flag="0"/>
			<psa03 value="0.0581463206585" flag="0"/>
			<psa10 value="0.0118437477151" flag="0"/>
			<psa30 value="0.00110015798423" flag="0"/>
		</comp>
		<comp name=".HNN" depth="1.0">
			<acc value="0.0191882622607" flag="0"/>
			<vel value="0.00863388670822" flag="0"/>
			<psa03 value="0.0553827782121" flag="0"/>
			<psa10 value="0.0104644775953" flag="0"/>
			<psa30 value="0.000699312159333" flag="0"/>
		</comp>
		<comp name=".HNZ" depth="1.0">
			<acc value="0.0105863380045" flag="0"/>
			<vel value="0.0052489201342" flag="0"/>
			<psa03 value="0.0336408014546" flag="0"/>
			<psa10 value="0.00836196175142" flag="0"/>
			<psa30 value="0.000941261728968" flag="0"/>
		</comp>
	</station>
	<station code="ATPI" name="ATPI" netid="IV" source="Italian National Seismic Network (INSN)" insttype="" lat="43.45068" lon="12.40222">
		<comp name=".HNE" depth="1.0">
			<acc value="0.0105843584576" flag="0"/>
			<vel value="0.0084590312204" flag="0"/>
			<psa03 value="0.0271090458412" flag="0"/>
			<psa10 value="0.00650374834139" flag="0"/>
			<psa30 value="0.0010585030373" flag="0"/>
		</comp>
		<comp name=".HNN" depth="1.0">
			<acc value="0.0105167930993" flag="0"/>
			<vel value="0.0087597354849" flag="0"/>
			<psa03 value="0.0250798619386" flag="0"/>
			<psa10 value="0.0156455864433" flag="0"/>
			<psa30 value="0.000922237552045" flag="0"/>
		</comp>
		<comp name=".HNZ" depth="1.0">
			<acc value="0.00555829041767" flag="0"/>
			<vel value="0.0039032730255" flag="0"/>
			<psa03 value="0.0176241792341" flag="0"/>
			<psa10 value="0.00633300656185" flag="0"/>
			<psa30 value="0.000716494026714" flag="0"/>
		</comp>
	</station>
	<station code="ATVO" name="ATVO" netid="IV" source="Italian National Seismic Network (INSN)" insttype="" lat="43.38211" lon="12.40663">
		<comp name=".HHE" depth="1.0">
			<acc value="0.0194416514174" flag="0"/>
			<vel value="0.0123918314632" flag="0"/>
			<psa03 value="0.0495369117858" flag="0"/>
			<psa10 value="0.0167082530898" flag="0"/>
			<psa30 value="0.00115672516903" flag="0"/>
		</comp>
		<comp name=".HHN" depth="1.0">
			<acc value="0.0138148933695" flag="0"/>
			<vel value="0.00982998269627" flag="0"/>
			<psa03 value="0.0380820539992" flag="0"/>
			<psa10 value="0.0152886331094" flag="0"/>
			<psa30 value="0.000893879319283" flag="0"/>
		</comp>
		<comp name=".HHZ" depth="1.0">
			<acc value="0.00791903331572" flag="0"/>
			<vel value="0.00483675753931" flag="0"/>
			<psa03 value="0.0176016699305" flag="0"/>
			<psa10 value="0.00586052588735" flag="0"/>
			<psa30 value="0.000724849632314" flag="0"/>
		</comp>
		<comp name=".HNE" depth="1.0">
			<acc value="0.0190021732316" flag="0"/>
			<vel value="0.0119779890296" flag="0"/>
			<psa03 value="0.0485511954452" flag="0"/>
			<psa10 value="0.0164898536219" flag="0"/>
			<psa30 value="0.0011743914435" flag="0"/>
		</comp>
		<comp name=".HNN" depth="1.0">
			<acc value="0.0136873420051" flag="0"/>
			<vel value="0.0096736926675" flag="0"/>
			<psa03 value="0.0376907025532" flag="0"/>
			<psa10 value="0.0148788134609" flag="0"/>
			<psa30 value="0.000863883113432" flag="0"/>
		</comp>
		<comp name=".HNZ" depth="1.0">
			<acc value="0.00759444435638" flag="0"/>
			<vel value="0.00469281176181" flag="0"/>
			<psa03 value="0.0173108785316" flag="0"/>
			<psa10 value="0.00578842782992" flag="0"/>
			<psa30 value="0.000719516362346" flag="0"/>
		</comp>
	</station>
	<station code="BARO" name="BARO" netid="IV" source="Italian National Seismic Network (INSN)" insttype="" lat="42.24795" lon="12.05123">
		<comp name=".EHE" depth="0.0">
			<acc value="0.000820050539378" flag="0"/>
			<vel value="0.00106826506765" flag="0"/>
			<psa03 value="0.00170765625536" flag="0"/>
			<psa10 value="0.00179161907659" flag="0"/>
			<psa30 value="0.000320656945074" flag="0"/>
		</comp>
		<comp name=".EHN" depth="0.0">
			<acc value="0.000890770563565" flag="0"/>
			<vel value="0.00128237362275" flag="0"/>
			<psa03 value="0.00227294158685" flag="0"/>
			<psa10 value="0.00188372494378" flag="0"/>
			<psa30 value="0.00022673668686" flag="0"/>
		</comp>
		<comp name=".EHZ" depth="0.0">
			<acc value="0.000795171764807" flag="0"/>
			<vel value="0.000728680583346" flag="0"/>
			<psa03 value="0.00162857028713" flag="0"/>
			<psa10 value="0.00126136172309" flag="0"/>
			<psa30 value="0.000212199955643" flag="0"/>
		</comp>
		<comp name=".HNE" depth="0.0">
			<acc value="0.00101833897394" flag="0"/>
			<vel value="0.00112799874045" flag="0"/>
			<psa03 value="0.00183018227575" flag="0"/>
			<psa10 value="0.00189111457393" flag="0"/>
			<psa30 value="0.000350798811616" flag="0"/>
		</comp>
		<comp name=".HNN" depth="0.0">
			<acc value="0.000941290568356" flag="0"/>
			<vel value="0.00134188198776" flag="0"/>
			<psa03 value="0.0022331196129" flag="0"/>
			<psa10 value="0.00192629952195" flag="0"/>
			<psa30 value="0.000248358822345" flag="0"/>
		</comp>
		<comp name=".HNZ" depth="0.0">
			<acc value="0.000896994268165" flag="0"/>
			<vel value="0.000680723612796" flag="0"/>
			<psa03 value="0.00164335707398" flag="0"/>
			<psa10 value="0.00126263997182" flag="0"/>
			<psa30 value="0.000218367434521" flag="0"/>
		</comp>
	</station>
	<station code="BDI" name="BDI" netid="IV" source="Italian National Seismic Network (INSN)" insttype="" lat="44.0628" lon="10.5956">
		<comp name=".HHE" depth="0.0">
			<acc value="0.00843759974483" flag="0"/>
			<vel value="0.00348397069728" flag="0"/>
			<psa03 value="0.0197613611765" flag="0"/>
			<psa10 value="0.00693517457752" flag="0"/>
			<psa30 value="0.000487255715799" flag="0"/>
		</comp>
		<comp name=".HHN" depth="0.0">
			<acc value="0.00716735029491" flag="0"/>
			<vel value="0.00383535262628" flag="0"/>
			<psa03 value="0.0128795276847" flag="0"/>
			<psa10 value="0.0055719794288" flag="0"/>
			<psa30 value="0.000524765700651" flag="0"/>
		</comp>
		<comp name=".HHZ" depth="0.0">
			<acc value="0.00443175357242" flag="0"/>
			<vel value="0.00233031726829" flag="0"/>
			<psa03 value="0.0108423439031" flag="0"/>
			<psa10 value="0.00325426823555" flag="0"/>
			<psa30 value="0.000470797438019" flag="0"/>
		</comp>
		<comp name=".HNE" depth="0.0">
			<acc value="0.00840304758316" flag="0"/>
			<vel value="0.0039334424101" flag="0"/>
			<psa03 value="0.0169132506282" flag="0"/>
			<psa10 value="0.00685882326965" flag="0"/>
			<psa30 value="0.000600399877711" flag="0"/>
		</comp>
		<comp name=".HNN" depth="0.0">
			<acc value="0.00650161035779" flag="0"/>
			<vel value="0.00392560135554" flag="0"/>
			<psa03 value="0.0135979698092" flag="0"/>
			<psa10 value="0.00620844018492" flag="0"/>
			<psa30 value="0.000576963429331" flag="0"/>
		</comp>
		<comp name=".HNZ" depth="0.0">
			<acc value="0.00442848111257" flag="0"/>
			<vel value="0.00229227792132" flag="0"/>
			<psa03 value="0.0106785752417" flag="0"/>
			<psa10 value="0.00322995209347" flag="0"/>
			<psa30 value="0.000500780101308" flag="0"/>
		</comp>
	</station>
	<station code="BRIS" name="BRIS" netid="IV" source="Italian National Seismic Network (INSN)" insttype="" lat="44.22454" lon="11.76657">
		<comp name=".HHE" depth="0.0">
			<acc value="0.0259377814988" flag="0"/>
			<vel value="0.00895584128042" flag="0"/>
			<psa03 value="0.0546093519768" flag="0"/>
			<psa10 value="0.00907482678775" flag="0"/>
			<psa30 value="0.000684365023322" flag="0"/>
		</comp>
		<comp name=".HHN" depth="0.0">
			<acc value="0.0225644409801" flag="0"/>
			<vel value="0.00926076976843" flag="0"/>
			<psa03 value="0.0496366319331" flag="0"/>
			<psa10 value="0.00805956796931" flag="0"/>
			<psa30 value="0.000881556315444" flag="0"/>
		</comp>
		<comp name=".HHZ" depth="0.0">
			<acc value="0.0139336131993" flag="0"/>
			<vel value="0.00628320985064" flag="0"/>
			<psa03 value="0.0291457068017" flag="0"/>
			<psa10 value="0.0105640054385" flag="0"/>
			<psa30 value="0.000740065015258" flag="0"/>
		</comp>
		<comp name=".HNE" depth="0.0">
			<acc value="0.058124867329" flag="0"/>
			<vel value="0.0221392453505" flag="0"/>
			<psa03 value="0.125110215021" flag="0"/>
			<psa10 value="0.0219759157966" flag="0"/>
			<psa30 value="0.00199190174538" flag="0"/>
		</comp>
		<comp name=".HNN" depth="0.0">
			<acc value="0.0434319407278" flag="0"/>
			<vel value="0.0226464427904" flag="0"/>
			<psa03 value="0.125991658829" flag="0"/>
			<psa10 value="0.020806023922" flag="0"/>
			<psa30 value="0.00194245555315" flag="0"/>
		</comp>
		<comp name=".HNZ" depth="0.0">
			<acc value="0.0337367619459" flag="0"/>
			<vel value="0.0158765281023" flag="0"/>
			<psa03 value="0.071962657798" flag="0"/>
			<psa10 value="0.0260827378534" flag="0"/>
			<psa30 value="0.00175775956794" flag="0"/>
		</comp>
	</station>
	<station code="BRSN" name="BRSN" netid="IV" source="Italian National Seismic Network (INSN)" insttype="" lat="44.28418" lon="12.08023">
		<comp name=".EHE" depth="0.0">
			<acc value="0.133916852755" flag="0"/>
			<vel value="0.0535587396323" flag="0"/>
			<psa03 value="0.204607241726" flag="0"/>
			<psa10 value="0.0687695806472" flag="0"/>
			<psa30 value="0.00675312236121" flag="0"/>
		</comp>
		<comp name=".EHN" depth="0.0">
			<acc value="0.127891810868" flag="0"/>
			<vel value="0.0731093718109" flag="0"/>
			<psa03 value="0.374792869855" flag="0"/>
			<psa10 value="0.0710842639835" flag="0"/>
			<psa30 value="0.0134903044998" flag="0"/>
		</comp>
		<comp name=".EHZ" depth="0.0">
			<acc value="0.153227835102" flag="0"/>
			<vel value="0.0399986425764" flag="0"/>
			<psa03 value="0.207440721096" flag="0"/>
			<psa10 value="0.0350553047419" flag="0"/>
			<psa30 value="0.00549489317636" flag="0"/>
		</comp>
		<comp name=".HNE" depth="0.0">
			<acc value="0.149173881125" flag="0"/>
			<vel value="0.0689026347689" flag="0"/>
			<psa03 value="0.246755554678" flag="0"/>
			<psa10 value="0.0944109667632" flag="0"/>
			<psa30 value="0.0113047388834" flag="0"/>
		</comp>
		<comp name=".HNN" depth="0.0">
			<acc value="0.12637351218" flag="0"/>
			<vel value="0.0726970425742" flag="0"/>
