<?xml version="1.0" encoding="UTF-8" standalone="yes"?>
<!DOCTYPE earthquake SYSTEM "stationlist.dtd">
<stationlist created="" xmlns="ch.ethz.sed.shakemap.usgs.xml">
  <station code="ACOR" name="ACOR" netid="HA" insttype="30" lat="37.8902" lon="22.8692">
    <comp name="--.HHN">
      <acc value="0.0930548518" flag="0"/>
      <vel value="0.0866075054" flag="0"/>
      <psa03 value="0.2076096565" flag="0"/>
      <psa10 value="0.1131247778" flag="0"/>
      <psa30 value="0.0230333794" flag="0"/>
    </comp>
    <comp name="--.HHE">
      <acc value="0.0202106894" flag="0"/>
      <vel value="0.0141636911" flag="0"/>
      <psa03 value="0.0668037199" flag="0"/>
      <psa10 value="0.0241158162" flag="0"/>
      <psa30 value="0.0049611024" flag="0"/>
    </comp>
    <comp name="--.HHZ">
      <acc value="0.0198309107" flag="0"/>
      <vel value="0.0112444317" flag="0"/>
      <psa03 value="0.0689521649" flag="0"/>
      <psa10 value="0.0178954706" flag="0"/>
      <psa30 value="0.0049023535" flag="0"/>
    </comp>
  </station>
  <station code="ATHU" name="ATHU" netid="HA" insttype="60" lat="37.9665" lon="23.7845">
    <comp name="--.HHZ">
      <acc value="0.0045508871" flag="0"/>
      <vel value="0.0079906423" flag="0"/>
      <psa03 value="0.0137955712" flag="0"/>
      <psa10 value="0.0088069451" flag="0"/>
      <psa30 value="0.0027758599" flag="0"/>
    </comp>
    <comp name="--.HHE">
      <acc value="0.0069380715" flag="0"/>
      <vel value="0.0067645364" flag="0"/>
      <psa03 value="0.0159909735" flag="0"/>
      <psa10 value="0.0108456023" flag="0"/>
      <psa30 value="0.0014649548" flag="0"/>
    </comp>
    <comp name="--.HHN">
      <acc value="0.0090753798" flag="0"/>
      <vel value="0.0069944319" flag="0"/>
      <psa03 value="0.0252585013" flag="0"/>
      <psa10 value="0.0070536159" flag="0"/>
      <psa30 value="0.0013788211" flag="0"/>
    </comp>
  </station>
  <station code="EPID" name="EPID" netid="HA" insttype="30" lat="37.6144" lon="23.1189">
    <comp name="--.HHE">
      <acc value="0.0485852004" flag="0"/>
      <vel value="0.0216529570" flag="0"/>
      <psa03 value="0.0820946540" flag="0"/>
      <psa10 value="0.0165915009" flag="0"/>
      <psa30 value="0.0029310440" flag="0"/>
    </comp>
    <comp name="--.HHZ">
      <acc value="0.0251702621" flag="0"/>
      <vel value="0.0169383194" flag="0"/>
      <psa03 value="0.0864909508" flag="0"/>
      <psa10 value="0.0184281791" flag="0"/>
      <psa30 value="0.0032246733" flag="0"/>
    </comp>
    <comp name="--.HHN">
      <acc value="0.0390487216" flag="0"/>
      <vel value="0.0266553520" flag="0"/>
      <psa03 value="0.1129906626" flag="0"/>
      <psa10 value="0.0302644191" flag="0"/>
      <psa30 value="0.0034565612" flag="0"/>
    </comp>
  </station>
  <station code="KALE" name="KALE" netid="HA" insttype="40," lat="38.3911" lon="22.1398">
    <comp name="--.HHZ">
      <acc value="3.0444585804" flag="0"/>
      <vel value="0.7453974164" flag="0"/>
      <psa03 value="3.0921507110" flag="0"/>
      <psa10 value="0.6009678878" flag="0"/>
      <psa30 value="0.2406493765" flag="0"/>
    </comp>
    <comp name="--.HHE">
      <acc value="3.2173701513" flag="0"/>
      <vel value="0.7449667398" flag="0"/>
      <psa03 value="2.8930040064" flag="0"/>
      <psa10 value="0.6782027197" flag="0"/>
      <psa30 value="0.0671900434" flag="0"/>
    </comp>
    <comp name="--.HHN">
      <acc value="2.8075769021" flag="0"/>
      <vel value="0.6461764036" flag="0"/>
      <psa03 value="2.4986911066" flag="0"/>
      <psa10 value="0.7455810151" flag="0"/>
      <psa30 value="0.1372427705" flag="0"/>
    </comp>
  </station>
  <station code="LAKA" name="LAKA" netid="HA" insttype="120s" lat="38.2401" lon="21.9785">
    <comp name="--.HHE">
      <acc value="0.7673661269" flag="0"/>
      <vel value="0.3161351151" flag="0"/>
      <psa03 value="0.7819089344" flag="0"/>
      <psa10 value="0.1930388170" flag="0"/>
      <psa30 value="0.0562936780" flag="0"/>
    </comp>
    <comp name="--.HHN">
      <acc value="1.0303345054" flag="0"/>
      <vel value="0.4313244484" flag="0"/>
      <psa03 value="1.2267044215" flag="0"/>
      <psa10 value="0.3422330307" flag="0"/>
      <psa30 value="0.1521292577" flag="0"/>
    </comp>
    <comp name="--.HHZ">
      <acc value="0.8032803635" flag="0"/>
      <vel value="0.3529805318" flag="0"/>
      <psa03 value="1.1005310802" flag="0"/>
      <psa10 value="0.3949177926" flag="0"/>
      <psa30 value="0.1408327119" flag="0"/>
    </comp>
  </station>
  <station code="STFN" name="STFN" netid="HA" insttype="1s-100Hz," lat="38.1766" lon="23.544">
    <comp name="--.HHE">
      <acc value="0.0279059040" flag="0"/>
      <vel value="0.0313941894" flag="0"/>
      <psa03 value="0.0632152739" flag="0"/>
      <psa10 value="0.0425905227" flag="0"/>
      <psa30 value="0.0035250136" flag="0"/>
    </comp>
    <comp name="--.HHZ">
      <acc value="0.0235412919" flag="0"/>
      <vel value="0.0270958838" flag="0"/>
      <psa03 value="0.0517713688" flag="0"/>
      <psa10 value="0.0519297915" flag="0"/>
      <psa30 value="0.0039588346" flag="0"/>
    </comp>
    <comp name="--.HHN">
      <acc value="0.0269804993" flag="0"/>
      <vel value="0.0211632096" flag="0"/>
      <psa03 value="0.0538381533" flag="0"/>
      <psa10 value="0.0381726914" flag="0"/>
      <psa30 value="0.0046948879" flag="0"/>
    </comp>
  </station>
  <station code="THAL" name="THAL" netid="HA" insttype="30" lat="38.0357" lon="22.6634">
    <comp name="--.HHN">
      <acc value="0.2578065123" flag="0"/>
      <vel value="0.0822893834" flag="0"/>
      <psa03 value="0.5123567966" flag="0"/>
      <psa10 value="0.0777392317" flag="0"/>
      <psa30 value="0.0095067366" flag="0"/>
    </comp>
    <comp name="--.HHE">
      <acc value="0.2670080531" flag="0"/>
      <vel value="0.1091150151" flag="0"/>
      <psa03 value="0.5953951837" flag="0"/>
      <psa10 value="0.0803839435" flag="0"/>
      <psa30 value="0.0087369281" flag="0"/>
    </comp>
    <comp name="--.HHZ">
      <acc value="0.1340178169" flag="0"/>
      <vel value="0.0516516432" flag="0"/>
      <psa03 value="0.2935102986" flag="0"/>
      <psa10 value="0.0521722240" flag="0"/>
      <psa30 value="0.0049255673" flag="0"/>
    </comp>
  </station>
  <station code="VILL" name="VILL" netid="HA" insttype="30" lat="38.1642" lon="23.3122">
    <comp name="--.HHE">
      <acc value="0.0488948566" flag="0"/>
      <vel value="0.0469889037" flag="0"/>
      <psa03 value="0.1621141616" flag="0"/>
      <psa10 value="0.0820757969" flag="0"/>
      <psa30 value="0.0056733496" flag="0"/>
    </comp>
    <comp name="--.HHZ">
      <acc value="0.0229856332" flag="0"/>
      <vel value="0.0248635942" flag="0"/>
      <psa03 value="0.0821736704" flag="0"/>
      <psa10 value="0.0293789407" flag="0"/>
      <psa30 value="0.0057816615" flag="0"/>
    </comp>
    <comp name="--.HHN">
      <acc value="0.0440582499" flag="0"/>
      <vel value="0.0425360153" flag="0"/>
      <psa03 value="0.1984135476" flag="0"/>
      <psa10 value="0.0684494857" flag="0"/>
      <psa30 value="0.0049141598" flag="0"/>
    </comp>
  </station>
  <station code="ART2" name="ART2" netid="HI" insttype="CMG-5TD,ACCELEROMETER,GURALP" lat="39.1474" lon="20.9937">
    <comp name="--.HNE">
      <acc value="0.0168378627" flag="0"/>
      <vel value="0.0170844919" flag="0"/>
      <psa03 value="0.0307225209" flag="0"/>
      <psa10 value="0.0261126862" flag="0"/>
      <psa30 value="0.0053488052" flag="0"/>
    </comp>
    <comp name="--.HNN">
      <acc value="0.0180799854" flag="0"/>
      <vel value="0.0157340373" flag="0"/>
      <psa03 value="0.0477138050" flag="0"/>
      <psa10 value="0.0179494263" flag="0"/>
      <psa30 value="0.0044593329" flag="0"/>
    </comp>
    <comp name="--.HNZ">
      <acc value="0.0128128529" flag="0"/>
      <vel value="0.0187415739" flag="0"/>
      <psa03 value="0.0321221819" flag="0"/>
      <psa10 value="0.0182701354" flag="0"/>
      <psa30 value="0.0069627940" flag="0"/>
    </comp>
  </station>
  <station code="KLV1" name="KLV1" netid="HI" insttype="CMG-5TD,ACCELEROMETER,GURALP" lat="38.0326" lon="22.108">
    <comp name="--.HNE">
      <acc value="0.5129192880" flag="0"/>
      <vel value="0.2613651739" flag="0"/>
      <psa03 value="1.2899074918" flag="0"/>
      <psa10 value="0.2780997698" flag="0"/>
      <psa30 value="0.0215934084" flag="0"/>
    </comp>
    <comp name="--.HNZ">
      <acc value="0.3919701659" flag="0"/>
      <vel value="0.1929688307" flag="0"/>
      <psa03 value="0.5346723002" flag="0"/>
      <psa10 value="0.2261132728" flag="0"/>
      <psa30 value="0.0392322637" flag="0"/>
    </comp>
    <comp name="--.HNN">
      <acc value="0.5824756554" flag="0"/>
      <vel value="0.2678579667" flag="0"/>
      <psa03 value="1.2477697293" flag="0"/>
      <psa10 value="0.1594175553" flag="0"/>
      <psa30 value="0.0249316233" flag="0"/>
    </comp>
  </station>
  <station code="LAM2" name="LAM2" netid="HI" insttype="CMG-5TD,ACCELEROMETER,GURALP" lat="38.902" lon="22.4313">
    <comp name="--.HNE">
      <acc value="0.1320898746" flag="0"/>
      <vel value="0.0708684825" flag="0"/>
      <psa03 value="0.2352269674" flag="0"/>
      <psa10 value="0.1127535258" flag="0"/>
      <psa30 value="0.0177129755" flag="0"/>
    </comp>
    <comp name="--.HNN">
      <acc value="0.1803207566" flag="0"/>
      <vel value="0.0824959718" flag="0"/>
      <psa03 value="0.4319120994" flag="0"/>
      <psa10 value="0.0932026430" flag="0"/>
      <psa30 value="0.0175472906" flag="0"/>
    </comp>
    <comp name="--.HNZ">
      <acc value="0.1047885860" flag="0"/>
      <vel value="0.0894881216" flag="0"/>
      <psa03 value="0.1573239709" flag="0"/>
      <psa10 value="0.1323401897" flag="0"/>
      <psa30 value="0.0134232852" flag="0"/>
    </comp>
  </station>
  <station code="MSL1" name="MSL1" netid="HI" insttype="CMG-5TD,ACCELEROMETER,GURALP" lat="38.3727" lon="21.4243">
    <comp name="--.HNZ">
      <acc value="0.2469196455" flag="0"/>
      <vel value="0.2437772285" flag="0"/>
      <psa03 value="0.6344605833" flag="0"/>
      <psa10 value="0.3008471207" flag="0"/>
      <psa30 value="0.0193160008" flag="0"/>
    </comp>
    <comp name="--.HNN">
      <acc value="0.4783153290" flag="0"/>
      <vel value="0.2914146834" flag="0"/>
      <psa03 value="1.3142347351" flag="0"/>
      <psa10 value="0.5434177303" flag="0"/>
      <psa30 value="0.0338198040" flag="0"/>
    </comp>
    <comp name="--.HNE">
      <acc value="0.4436376814" flag="0"/>
      <vel value="0.2973919604" flag="0"/>
      <psa03 value="1.9843612068" flag="0"/>
      <psa10 value="0.4486050600" flag="0"/>
      <psa30 value="0.0420394032" flag="0"/>
    </comp>
  </station>
  <station code="PYL1" name="PYL1" netid="HI" insttype="CMG-5TD,ACCELEROMETER,GURALP" lat="36.9142" lon="21.6952">
    <comp name="--.HNN">
      <acc value="0.0144931281" flag="0"/>
      <vel value="0.0130783447" flag="0"/>
      <psa03 value="0.0301514586" flag="0"/>
      <psa10 value="0.0238162168" flag="0"/>
      <psa30 value="0.0061464035" flag="0"/>
    </comp>
    <comp name="--.HNE">
      <acc value="0.0160414011" flag="0"/>
      <vel value="0.0266117071" flag="0"/>
      <psa03 value="0.0503780464" flag="0"/>
      <psa10 value="0.0226071914" flag="0"/>
      <psa30 value="0.0103242304" flag="0"/>
    </comp>
    <comp name="--.HNZ">
      <acc value="0.0105574851" flag="0"/>
      <vel value="0.0156637681" flag="0"/>
      <psa03 value="0.0322556310" flag="0"/>
      <psa10 value="0.0184425245" flag="0"/>
      <psa30 value="0.0043213086" flag="0"/>
    </comp>
  </station>
  <station code="VOL2" name="VOL2" netid="HI" insttype="CMG-5TD,ACCELEROMETER,GURALP" lat="39.366" lon="22.9506">
    <comp name="--.HNE">
      <acc value="0.0259396000" flag="0"/>
      <vel value="0.0208234677" flag="0"/>
      <psa03 value="0.0759711675" flag="0"/>
      <psa10 value="0.0357000765" flag="0"/>
      <psa30 value="0.0052395844" flag="0"/>
    </comp>
    <comp name="--.HNZ">
      <acc value="0.0168418321" flag="0"/>
      <vel value="0.0136651134" flag="0"/>
      <psa03 value="0.0270715286" flag="0"/>
      <psa10 value="0.0153134167" flag="0"/>
      <psa30 value="0.0052685495" flag="0"/>
    </comp>
    <comp name="--.HNN">
      <acc value="0.0294273691" flag="0"/>
      <vel value="0.0274761058" flag="0"/>
      <psa03 value="0.0740712227" flag="0"/>
      <psa10 value="0.0443414471" flag="0"/>
      <psa30 value="0.0066518135" flag="0"/>
    </comp>
  </station>
  <station code="ATH" name="ATH" netid="HL" insttype="DR24" lat="37.9738" lon="23.7177">
    <comp name="--.HHZ">
      <acc value="0.0131732514" flag="0"/>
      <vel value="0.0119731554" flag="0"/>
      <psa03 value="0.0503938199" flag="0"/>
      <psa10 value="0.0208417593" flag="0"/>
      <psa30 value="0.0024679936" flag="0"/>
    </comp>
    <comp name="--.HHN">
      <acc value="0.0196559720" flag="0"/>
      <vel value="0.0199421454" flag="0"/>
      <psa03 value="0.0487966027" flag="0"/>
      <psa10 value="0.0345362014" flag="0"/>
      <psa30 value="0.0034239270" flag="0"/>
    </comp>
    <comp name="--.HHE">
      <acc value="0.0329596363" flag="0"/>
      <vel value="0.0226740144" flag="0"/>
      <psa03 value="0.0885195917" flag="0"/>
      <psa10 value="0.0407979036" flag="0"/>
      <psa30 value="0.0037448251" flag="0"/>
    </comp>
  </station>
  <station code="DION" name="DION" netid="HL" insttype="30" lat="38.0779" lon="23.9331">
    <comp name="--.HHE">
      <acc value="0.0180375397" flag="0"/>
      <vel value="0.0145165407" flag="0"/>
      <psa03 value="0.0618536851" flag="0"/>
      <psa10 value="0.0149904969" flag="0"/>
      <psa30 value="0.0018752762" flag="0"/>
    </comp>
    <comp name="--.HHN">
      <acc value="0.0149971800" flag="0"/>
      <vel value="0.0168293128" flag="0"/>
      <psa03 value="0.0420186867" flag="0"/>
      <psa10 value="0.0230406548" flag="0"/>
      <psa30 value="0.0038131908" flag="0"/>
    </comp>
    <comp name="--.HHZ">
      <acc value="0.0130638751" flag="0"/>
      <vel value="0.0091213541" flag="0"/>
      <psa03 value="0.0277135714" flag="0"/>
      <psa10 value="0.0165926657" flag="0"/>
      <psa30 value="0.0024601317" flag="0"/>
    </comp>
  </station>
  <station code="DLFA" name="DLFA" netid="HL" insttype="CMG-5" lat="38.4784" lon="22.4958">
    <comp name="00.HNE">
      <acc value="0.4561978139" flag="0"/>
      <vel value="0.2635252102" flag="0"/>
      <psa03 value="0.4931294456" flag="0"/>
      <psa10 value="0.3005067245" flag="0"/>
      <psa30 value="0.0219202026" flag="0"/>
    </comp>
    <comp name="00.HNN">
      <acc value="0.5843956274" flag="0"/>
      <vel value="0.3171180232" flag="0"/>
      <psa03 value="1.1404281732" flag="0"/>
      <psa10 value="0.2744523089" flag="0"/>
      <psa30 value="0.0188893402" flag="0"/>
    </comp>
    <comp name="00.HNZ">
      <acc value="0.4196321580" flag="0"/>
      <vel value="0.1503249753" flag="0"/>
      <psa03 value="0.5347894295" flag="0"/>
      <psa10 value="0.1535120358" flag="0"/>
      <psa30 value="0.0175956875" flag="0"/>
    </comp>
  </station>
  <station code="EVR" name="EVR" netid="HL" insttype="DR24" lat="38.9166" lon="21.8105">
    <comp name="--.HHN">
      <acc value="0.3797381425" flag="0"/>
      <vel value="0.1651476671" flag="0"/>
      <psa03 value="0.6851840187" flag="0"/>
      <psa10 value="0.2385958148" flag="0"/>
      <psa30 value="0.0236006220" flag="0"/>
    </comp>
    <comp name="--.HHE">
      <acc value="0.4083646674" flag="0"/>
      <vel value="0.2403751766" flag="0"/>
      <psa03 value="0.8015399679" flag="0"/>
      <psa10 value="0.2191274721" flag="0"/>
      <psa30 value="0.0223618440" flag="0"/>
    </comp>
    <comp name="--.HHZ">
      <acc value="0.2262532438" flag="0"/>
      <vel value="0.1585511321" flag="0"/>
      <psa03 value="0.5734120447" flag="0"/>
      <psa10 value="0.2140121628" flag="0"/>
      <psa30 value="0.0347809186" flag="0"/>
    </comp>
  </station>
  <station code="ITM" name="ITM" netid="HL" insttype="DR24" lat="37.1787" lon="21.9252">
    <comp name="--.HHE">
      <acc value="0.0323387382" flag="0"/>
      <vel value="0.0360998559" flag="0"/>
      <psa03 value="0.0861196002" flag="0"/>
      <psa10 value="0.0317677643" flag="0"/>
      <psa30 value="0.0077106694" flag="0"/>
    </comp>
    <comp name="--.HHZ">
      <acc value="0.0219562829" flag="0"/>
      <vel value="0.0240466173" flag="0"/>
      <psa03 value="0.0450505763" flag="0"/>
      <psa10 value="0.0353312851" flag="0"/>
      <psa30 value="0.0048391185" flag="0"/>
    </comp>
    <comp name="--.HHN">
      <acc value="0.0279278580" flag="0"/>
      <vel value="0.0306101850" flag="0"/>
      <psa03 value="0.0637228241" flag="0"/>
      <psa10 value="0.0425642857" flag="0"/>
      <psa30 value="0.0075695513" flag="0"/>
    </comp>
  </station>
  <station code="JAN" name="JAN" netid="HL" insttype="CMG3EPSC60_DR24" lat="39.6562" lon="20.8487">
    <comp name="--.HHN">
      <acc value="0.0140879619" flag="0"/>
      <vel value="0.0198885657" flag="0"/>
      <psa03 value="0.0357300388" flag="0"/>
      <psa10 value="0.0271349487" flag="0"/>
      <psa30 value="0.0073314697" flag="0"/>
    </comp>
    <comp name="--.HHE">
      <acc value="0.0141456269" flag="0"/>
      <vel value="0.0266691083" flag="0"/>
      <psa03 value="0.0394643693" flag="0"/>
      <psa10 value="0.0386855056" flag="0"/>
      <psa30 value="0.0083838395" flag="0"/>
    </comp>
    <comp name="--.HHZ">
      <acc value="0.0117765053" flag="0"/>
      <vel value="0.0149110982" flag="0"/>
      <psa03 value="0.0262198341" flag="0"/>
      <psa10 value="0.0155190136" flag="0"/>
      <psa30 value="0.0070042060" flag="0"/>
    </comp>
  </station>
  <station code="KLV" name="KLV" netid="HL" insttype="120" lat="38.0435" lon="22.1504">
    <comp name="--.HHE">
      <acc value="0.2158412700" flag="0"/>
      <vel value="0.0608978457" flag="0"/>
      <psa03 value="0.1918476893" flag="0"/>
      <psa10 value="0.0864641476" flag="0"/>
      <psa30 value="0.0136875444" flag="0"/>
    </comp>
    <comp name="--.HHZ">
      <acc value="0.2051962585" flag="0"/>
      <vel value="0.0854778379" flag="0"/>
      <psa03 value="0.2246470497" flag="0"/>
      <psa10 value="0.0888697010" flag="0"/>
      <psa30 value="0.0298061786" flag="0"/>
    </comp>
    <comp name="--.HHN">
      <acc value="0.2192761080" flag="0"/>
      <vel value="0.0792242136" flag="0"/>
      <psa03 value="0.3056166203" flag="0"/>
      <psa10 value="0.0879727330" flag="0"/>
      <psa30 value="0.0215507602" flag="0"/>
    </comp>
  </station>
  <station code="LKR" name="LKR" netid="HL" insttype="30" lat="38.6496" lon="22.9989">
    <comp name="--.HHE">
      <acc value="0.2247259770" flag="0"/>
      <vel value="0.0910052768" flag="0"/>
      <psa03 value="0.3088564201" flag="0"/>
      <psa10 value="0.0496312251" flag="0"/>
      <psa30 value="0.0104099829" flag="0"/>
    </comp>
    <comp name="--.HHN">
      <acc value="0.1346980239" flag="0"/>
      <vel value="0.0835541977" flag="0"/>
      <psa03 value="0.3793305295" flag="0"/>
      <psa10 value="0.0823395023" flag="0"/>
      <psa30 value="0.0123258621" flag="0"/>
    </comp>
    <comp name="--.HHZ">
      <acc value="0.1314496754" flag="0"/>
      <vel value="0.0391744470" flag="0"/>
      <psa03 value="0.1629954556" flag="0"/>
      <psa10 value="0.0456611189" flag="0"/>
      <psa30 value="0.0109723917" flag="0"/>
    </comp>
  </station>
  <station code="NEO" name="NEO" netid="HL" insttype="120" lat="39.3057" lon="23.2219">
    <comp name="--.HHE">
      <acc value="0.0308545881" flag="0"/>
      <vel value="0.0197227983" flag="0"/>
      <psa03 value="0.0837279344" flag="0"/>
      <psa10 value="0.0336696853" flag="0"/>
      <psa30 value="0.0028791164" flag="0"/>
    </comp>
    <comp name="--.HHZ">
