<stationlist created="1778136039">
	<station code="MALA" name="MALA" netid="CL" source="Corinth Riff Laboratory (CRLNET)" insttype="" lat="38.39341" lon="21.87263">
		<comp name="01.HNE" depth="0.0">
			<acc value="9.73591041833685" flag="0"/>
			<vel value="3.83190778007561" flag="0"/>
			<psa03 value="11.7333752324021" flag="0"/>
			<psa10 value="3.31223915804875" flag="0"/>
			<psa30 value="0.255122746669783" flag="0"/>
		</comp>
		<comp name="01.HNN" depth="0.0">
			<acc value="9.47583367688186" flag="0"/>
			<vel value="5.29613015392667" flag="0"/>
			<psa03 value="23.9472370216777" flag="0"/>
			<psa10 value="2.77943732866465" flag="0"/>
			<psa30 value="0.283845453630448" flag="0"/>
		</comp>
		<comp name="01.HNZ" depth="0.0">
			<acc value="2.55648882562155" flag="0"/>
			<vel value="1.25180481989442" flag="0"/>
			<psa03 value="4.03977383556376" flag="0"/>
			<psa10 value="2.10114726601992" flag="0"/>
			<psa30 value="0.146276590941248" flag="0"/>
		</comp>
	</station>
	<station code="KTHA" name="KTHA" netid="GE" source="GEOFON" insttype="" lat="36.2566" lon="23.0621">
		<comp name="--.HNE" depth="0.0">
			<acc value="0.0091386091075746" flag="0"/>
			<vel value="0.0116459182550091" flag="0"/>
			<psa03 value="0.0279191369298016" flag="0"/>
			<psa10 value="0.0263111020239409" flag="0"/>
			<psa30 value="0.00466750699441811" flag="0"/>
		</comp>
		<comp name="--.HNN" depth="0.0">
			<acc value="0.00495983908699187" flag="0"/>
			<vel value="0.00424831731651536" flag="0"/>
			<psa03 value="0.0158834833494865" flag="0"/>
			<psa10 value="0.00920928838823887" flag="0"/>
			<psa30 value="0.00266350355998572" flag="0"/>
		</comp>
		<comp name="--.HNZ" depth="0.0">
			<acc value="0.00348660973463776" flag="0"/>
			<vel value="0.00357402543307229" flag="0"/>
			<psa03 value="0.0105144185552939" flag="0"/>
			<psa10 value="0.0099904873157939" flag="0"/>
			<psa30 value="0.00286663317803267" flag="0"/>
		</comp>
	</station>
	<station code="AIGS" name="AIGS" netid="HA" source="Hellenic Seismological Network, University of Athens, Seismological Laboratory (HA)" insttype="" lat="38.25001" lon="22.0878">
		<comp name="--.HNE" depth="0.0">
			<acc value="5.08908451512634" flag="0"/>
			<vel value="1.71746830399691" flag="0"/>
			<psa03 value="5.65076172706125" flag="0"/>
			<psa10 value="0.56194377082078" flag="0"/>
			<psa30 value="0.0815328282763442" flag="0"/>
		</comp>
		<comp name="--.HNN" depth="0.0">
			<acc value="4.10599589655084" flag="0"/>
			<vel value="1.26034293698523" flag="0"/>
			<psa03 value="7.29781183709307" flag="0"/>
			<psa10 value="0.677114237454807" flag="0"/>
			<psa30 value="0.122476868974791" flag="0"/>
		</comp>
		<comp name="--.HNZ" depth="0.0">
			<acc value="2.11150865557367" flag="0"/>
			<vel value="0.546666241940199" flag="0"/>
			<psa03 value="1.4726449886338" flag="0"/>
			<psa10 value="0.569429589410083" flag="0"/>
			<psa30 value="0.0781713462931135" flag="0"/>
		</comp>
	</station>
	<station code="ARS1" name="ARS1" netid="HI" source="ITSAK Strong Motion Network" insttype="" lat="37.6349" lon="22.7293">
		<comp name="--.HNE" depth="0.0">
			<acc value="0.0962499451551924" flag="0"/>
			<vel value="0.071555704910725" flag="0"/>
			<psa03 value="0.185166828893517" flag="0"/>
			<psa10 value="0.133459536039277" flag="0"/>
			<psa30 value="0.00708972049253581" flag="0"/>
		</comp>
		<comp name="--.HNN" depth="0.0">
			<acc value="0.0908397545666015" flag="0"/>
			<vel value="0.0825957044328045" flag="0"/>
			<psa03 value="0.293949514379184" flag="0"/>
			<psa10 value="0.118174543483505" flag="0"/>
			<psa30 value="0.010607191007658" flag="0"/>
		</comp>
		<comp name="--.HNZ" depth="0.0">
			<acc value="0.0510429252853931" flag="0"/>
			<vel value="0.0388166979980929" flag="0"/>
			<psa03 value="0.20492778379341" flag="0"/>
			<psa10 value="0.0290374817156445" flag="0"/>
			<psa30 value="0.00407630045156774" flag="0"/>
		</comp>
	</station>
	<station code="ART2" name="ART2" netid="HI" source="ITSAK Strong Motion Network" insttype="" lat="39.1474" lon="20.9937">
		<comp name="--.HNE" depth="0.0">
			<acc value="0.0168279770159812" flag="0"/>
			<vel value="0.0174542410533299" flag="0"/>
			<psa03 value="0.0308721225666075" flag="0"/>
			<psa10 value="0.0260775477053935" flag="0"/>
			<psa30 value="0.00539233074163411" flag="0"/>
		</comp>
		<comp name="--.HNN" depth="0.0">
			<acc value="0.0176406824538701" flag="0"/>
			<vel value="0.0186853628168875" flag="0"/>
			<psa03 value="0.0472030279822767" flag="0"/>
			<psa10 value="0.0180400577084872" flag="0"/>
			<psa30 value="0.00463439776152059" flag="0"/>
		</comp>
		<comp name="--.HNZ" depth="0.0">
			<acc value="0.0130726062434147" flag="0"/>
			<vel value="0.0205404983585307" flag="0"/>
			<psa03 value="0.0322591309717739" flag="0"/>
			<psa10 value="0.0183340140059692" flag="0"/>
			<psa30 value="0.00719633651248283" flag="0"/>
		</comp>
	</station>
	<station code="ATH5" name="ATH5" netid="HI" source="ITSAK Strong Motion Network" insttype="" lat="37.975421" lon="23.737098">
		<comp name="--.HNE" depth="0.0">
			<acc value="0.0215108116193697" flag="0"/>
			<vel value="0.0208142734140636" flag="0"/>
			<psa03 value="0.0566883757853503" flag="0"/>
			<psa10 value="0.0357619983279184" flag="0"/>
			<psa30 value="0.00302278347913044" flag="0"/>
		</comp>
		<comp name="--.HNN" depth="0.0">
			<acc value="0.0254118873866345" flag="0"/>
			<vel value="0.025431037739951" flag="0"/>
			<psa03 value="0.0698873267377405" flag="0"/>
			<psa10 value="0.0265768707312534" flag="0"/>
			<psa30 value="0.00326752334933239" flag="0"/>
		</comp>
		<comp name="--.HNZ" depth="0.0">
			<acc value="0.0109583396233894" flag="0"/>
			<vel value="0.0126749272502553" flag="0"/>
			<psa03 value="0.0234001740613561" flag="0"/>
			<psa10 value="0.0173273143570581" flag="0"/>
			<psa30 value="0.0029641711884605" flag="0"/>
		</comp>
	</station>
	<station code="KLV1" name="KLV1" netid="HI" source="ITSAK Strong Motion Network" insttype="" lat="38.03256" lon="22.10797">
		<comp name="--.HNE" depth="0.0">
			<acc value="0.511460555705647" flag="0"/>
			<vel value="0.265591741156945" flag="0"/>
			<psa03 value="1.3245035425207" flag="0"/>
			<psa10 value="0.278344399326732" flag="0"/>
			<psa30 value="0.0217903494672307" flag="0"/>
		</comp>
		<comp name="--.HNN" depth="0.0">
			<acc value="0.586410497229222" flag="0"/>
			<vel value="0.274300169523183" flag="0"/>
			<psa03 value="1.25067890160055" flag="0"/>
			<psa10 value="0.159614242734155" flag="0"/>
			<psa30 value="0.0251683860669102" flag="0"/>
		</comp>
		<comp name="--.HNZ" depth="0.0">
			<acc value="0.383859924231792" flag="0"/>
			<vel value="0.190707803297289" flag="0"/>
			<psa03 value="0.54469162337084" flag="0"/>
			<psa10 value="0.227957068499433" flag="0"/>
			<psa30 value="0.0392348884056287" flag="0"/>
		</comp>
	</station>
	<station code="LAM2" name="LAM2" netid="HI" source="ITSAK Strong Motion Network" insttype="" lat="38.90203" lon="22.431301">
		<comp name="--.HNE" depth="0.0">
			<acc value="0.131109766036756" flag="0"/>
			<vel value="0.0687074110698363" flag="0"/>
			<psa03 value="0.237849570382733" flag="0"/>
			<psa10 value="0.113865783889038" flag="0"/>
			<psa30 value="0.0186941887692463" flag="0"/>
		</comp>
		<comp name="--.HNN" depth="0.0">
			<acc value="0.181002960150426" flag="0"/>
			<vel value="0.0829022404061754" flag="0"/>
			<psa03 value="0.438160429412735" flag="0"/>
			<psa10 value="0.0930834763369173" flag="0"/>
			<psa30 value="0.0179971051901336" flag="0"/>
		</comp>
		<comp name="--.HNZ" depth="0.0">
			<acc value="0.102744181452156" flag="0"/>
			<vel value="0.0977191701360011" flag="0"/>
			<psa03 value="0.157939989362499" flag="0"/>
			<psa10 value="0.132344762644451" flag="0"/>
			<psa30 value="0.0135917875264986" flag="0"/>
		</comp>
	</station>
	<station code="LMS2" name="LMS2" netid="HI" source="ITSAK Strong Motion Network" insttype="" lat="40.834985" lon="21.141815">
		<comp name="--.HNE" depth="0.0">
			<acc value="0.00403007609639534" flag="0"/>
			<vel value="0.00696001519482602" flag="0"/>
			<psa03 value="0.00948534780307361" flag="0"/>
			<psa10 value="0.0126079064029628" flag="0"/>
			<psa30 value="0.00329526351743571" flag="0"/>
		</comp>
		<comp name="--.HNN" depth="0.0">
			<acc value="0.00523045462890232" flag="0"/>
			<vel value="0.00520592709141591" flag="0"/>
			<psa03 value="0.0110960672413314" flag="0"/>
			<psa10 value="0.00960391465061203" flag="0"/>
			<psa30 value="0.00298475260350491" flag="0"/>
		</comp>
		<comp name="--.HNZ" depth="0.0">
			<acc value="0.00240141588874438" flag="0"/>
			<vel value="0.00602138938093212" flag="0"/>
			<psa03 value="0.00612968230670323" flag="0"/>
			<psa10 value="0.00463484518358677" flag="0"/>
			<psa30 value="0.00313687610600703" flag="0"/>
		</comp>
	</station>
	<station code="MSL1" name="MSL1" netid="HI" source="ITSAK Strong Motion Network" insttype="" lat="38.3727" lon="21.4243">
		<comp name="--.HNE" depth="0.0">
			<acc value="0.441922790184252" flag="0"/>
			<vel value="0.302126359533258" flag="0"/>
			<psa03 value="2.00914878819349" flag="0"/>
			<psa10 value="0.449165222552565" flag="0"/>
			<psa30 value="0.0423838449074226" flag="0"/>
		</comp>
		<comp name="--.HNN" depth="0.0">
			<acc value="0.478372687328619" flag="0"/>
			<vel value="0.294311192183249" flag="0"/>
			<psa03 value="1.31040974743594" flag="0"/>
			<psa10 value="0.544737260421591" flag="0"/>
			<psa30 value="0.0343293528720014" flag="0"/>
		</comp>
		<comp name="--.HNZ" depth="0.0">
			<acc value="0.247705422884664" flag="0"/>
			<vel value="0.242692001860452" flag="0"/>
			<psa03 value="0.642229633798673" flag="0"/>
			<psa10 value="0.301268963731736" flag="0"/>
			<psa30 value="0.0193246064604977" flag="0"/>
		</comp>
	</station>
	<station code="NPS1" name="NPS1" netid="HI" source="ITSAK Strong Motion Network" insttype="" lat="36.51263" lon="23.06248">
		<comp name="--.HNE" depth="0.0">
			<acc value="0.0191328805700631" flag="0"/>
			<vel value="0.0177603716220017" flag="0"/>
			<psa03 value="0.0632654801582363" flag="0"/>
			<psa10 value="0.0164655794575902" flag="0"/>
			<psa30 value="0.00212525481436791" flag="0"/>
		</comp>
		<comp name="--.HNN" depth="0.0">
			<acc value="0.0347509327286928" flag="0"/>
			<vel value="0.0267815888917064" flag="0"/>
			<psa03 value="0.0760170090444437" flag="0"/>
			<psa10 value="0.0287795295630709" flag="0"/>
			<psa30 value="0.00343441178001854" flag="0"/>
		</comp>
		<comp name="--.HNZ" depth="0.0">
			<acc value="0.00953354111973062" flag="0"/>
			<vel value="0.00673208924944941" flag="0"/>
			<psa03 value="0.0364201561872732" flag="0"/>
			<psa10 value="0.0102602828217021" flag="0"/>
			<psa30 value="0.00182100780936366" flag="0"/>
		</comp>
	</station>
	<station code="PYL1" name="PYL1" netid="HI" source="ITSAK Strong Motion Network" insttype="" lat="36.914188" lon="21.695161">
		<comp name="--.HNE" depth="0.0">
			<acc value="0.0159781224134789" flag="0"/>
			<vel value="0.0293144156646514" flag="0"/>
			<psa03 value="0.0496891927070382" flag="0"/>
			<psa10 value="0.0227893315563672" flag="0"/>
			<psa30 value="0.0106776798438788" flag="0"/>
		</comp>
		<comp name="--.HNN" depth="0.0">
			<acc value="0.0144718166629061" flag="0"/>
			<vel value="0.0146384899674016" flag="0"/>
			<psa03 value="0.0299896897947532" flag="0"/>
			<psa10 value="0.0238970855646184" flag="0"/>
			<psa30 value="0.00619801183785872" flag="0"/>
		</comp>
		<comp name="--.HNZ" depth="0.0">
			<acc value="0.0105923836083652" flag="0"/>
			<vel value="0.0166074156166754" flag="0"/>
			<psa03 value="0.0324276611942423" flag="0"/>
			<psa10 value="0.0185604276622441" flag="0"/>
			<psa30 value="0.00446568166282547" flag="0"/>
		</comp>
	</station>
	<station code="VAS2" name="VAS2" netid="HI" source="ITSAK Strong Motion Network" insttype="" lat="38.630558" lon="20.608081">
		<comp name="--.HNE" depth="0.0">
			<acc value="0.17769309531981" flag="0"/>
			<vel value="0.135500631547159" flag="0"/>
			<psa03 value="0.569076125977798" flag="0"/>
			<psa10 value="0.39046255262526" flag="0"/>
			<psa30 value="0.0169998014046123" flag="0"/>
		</comp>
		<comp name="--.HNN" depth="0.0">
			<acc value="0.220331994357158" flag="0"/>
			<vel value="0.205651931309423" flag="0"/>
			<psa03 value="0.736367236523517" flag="0"/>
			<psa10 value="0.460677839737513" flag="0"/>
			<psa30 value="0.0314877753296749" flag="0"/>
		</comp>
		<comp name="--.HNZ" depth="0.0">
			<acc value="0.150487328031866" flag="0"/>
			<vel value="0.121841181120422" flag="0"/>
			<psa03 value="0.386930602834814" flag="0"/>
			<psa10 value="0.130585051658154" flag="0"/>
			<psa30 value="0.00824330414735039" flag="0"/>
		</comp>
	</station>
	<station code="VOL2" name="VOL2" netid="HI" source="ITSAK Strong Motion Network" insttype="" lat="39.366" lon="22.9506">
		<comp name="--.HNE" depth="0.0">
			<acc value="0.0260596410028175" flag="0"/>
			<vel value="0.0214500704940892" flag="0"/>
			<psa03 value="0.0759275246312072" flag="0"/>
			<psa10 value="0.0357378375363446" flag="0"/>
			<psa30 value="0.00528226491335316" flag="0"/>
		</comp>
		<comp name="--.HNN" depth="0.0">
			<acc value="0.0296579667676937" flag="0"/>
			<vel value="0.0266032286751465" flag="0"/>
			<psa03 value="0.0733772188539657" flag="0"/>
			<psa10 value="0.0443954545169801" flag="0"/>
			<psa30 value="0.00687821942342692" flag="0"/>
		</comp>
		<comp name="--.HNZ" depth="0.0">
			<acc value="0.0167738855131723" flag="0"/>
			<vel value="0.0142680844008975" flag="0"/>
			<psa03 value="0.027337488243764" flag="0"/>
			<psa10 value="0.0151367359210275" flag="0"/>
			<psa30 value="0.00536056377493514" flag="0"/>
		</comp>
	</station>
	<station code="ATHP" name="ATHP" netid="HL" source="National Observatory of Athens Seismic Network" insttype="" lat="38.000799" lon="23.773487">
		<comp name="00.HNE" depth="0.0">
			<acc value="0.02322470720274" flag="0"/>
			<vel value="0.0233061047327321" flag="0"/>
			<psa03 value="0.0574489932978609" flag="0"/>
			<psa10 value="0.0537013860715145" flag="0"/>
			<psa30 value="0.00346707359084988" flag="0"/>
		</comp>
		<comp name="00.HNN" depth="0.0">
			<acc value="0.0193092033263961" flag="0"/>
			<vel value="0.0178407994047496" flag="0"/>
			<psa03 value="0.0510061155448298" flag="0"/>
			<psa10 value="0.0285741628346931" flag="0"/>
			<psa30 value="0.00363754139806549" flag="0"/>
		</comp>
		<comp name="00.HNZ" depth="0.0">
			<acc value="0.0106784615059329" flag="0"/>
			<vel value="0.0120729150561434" flag="0"/>
			<psa03 value="0.0247424402599043" flag="0"/>
			<psa10 value="0.0243903190938185" flag="0"/>
			<psa30 value="0.00235612460051819" flag="0"/>
		</comp>
	</station>
	<station code="DLFA" name="DLFA" netid="HL" source="National Observatory of Athens Seismic Network" insttype="" lat="38.47836" lon="22.49583">
		<comp name="00.HNE" depth="0.0">
			<acc value="0.453530604724499" flag="0"/>
			<vel value="0.263388586820335" flag="0"/>
			<psa03 value="0.497085915528999" flag="0"/>
			<psa10 value="0.300298505270185" flag="0"/>
			<psa30 value="0.0222422457540753" flag="0"/>
		</comp>
		<comp name="00.HNN" depth="0.0">
			<acc value="0.578466659489518" flag="0"/>
			<vel value="0.316622158528026" flag="0"/>
			<psa03 value="1.14222379275786" flag="0"/>
			<psa10 value="0.275022290485325" flag="0"/>
			<psa30 value="0.0194382516653082" flag="0"/>
		</comp>
		<comp name="00.HNZ" depth="0.0">
			<acc value="0.419295409493371" flag="0"/>
			<vel value="0.154996808495259" flag="0"/>
			<psa03 value="0.53511679115453" flag="0"/>
			<psa10 value="0.153799545562044" flag="0"/>
			<psa30 value="0.0180463216174137" flag="0"/>
		</comp>
	</station>
	<station code="ITM" name="ITM" netid="HL" source="National Observatory of Athens Seismic Network" insttype="" lat="37.17872" lon="21.92522">
		<comp name="--.HNE" depth="0.0">
			<acc value="0.0316073872205862" flag="0"/>
			<vel value="0.0347625224697846" flag="0"/>
			<psa03 value="0.0825493712107114" flag="0"/>
			<psa10 value="0.03130433228254" flag="0"/>
			<psa30 value="0.00760393801477528" flag="0"/>
		</comp>
		<comp name="--.HNN" depth="0.0">
			<acc value="0.0269700014373196" flag="0"/>
			<vel value="0.0330145290334673" flag="0"/>
			<psa03 value="0.0633102223648545" flag="0"/>
			<psa10 value="0.041576695500029" flag="0"/>
			<psa30 value="0.00754085150344352" flag="0"/>
		</comp>
		<comp name="--.HNZ" depth="0.0">
			<acc value="0.0202561622374092" flag="0"/>
			<vel value="0.022411470311465" flag="0"/>
			<psa03 value="0.0417444787748475" flag="0"/>
			<psa10 value="0.0327298189853982" flag="0"/>
			<psa30 value="0.00450061856373195" flag="0"/>
		</comp>
	</station>
	<station code="JAN" name="JAN" netid="HL" source="National Observatory of Athens Seismic Network" insttype="" lat="39.65616" lon="20.84874">
		<comp name="00.HNE" depth="0.0">
			<acc value="0.0142412769518584" flag="0"/>
			<vel value="0.0274458347184618" flag="0"/>
			<psa03 value="0.0395968528571705" flag="0"/>
			<psa10 value="0.0393257150850638" flag="0"/>
			<psa30 value="0.00834039473571204" flag="0"/>
		</comp>
		<comp name="00.HNN" depth="0.0">
			<acc value="0.0141916136046045" flag="0"/>
			<vel value="0.0209997878873405" flag="0"/>
			<psa03 value="0.0361069607409453" flag="0"/>
			<psa10 value="0.0266010315228273" flag="0"/>
			<psa30 value="0.00719902104487992" flag="0"/>
		</comp>
		<comp name="00.HNZ" depth="0.0">
			<acc value="0.0115502356802135" flag="0"/>
			<vel value="0.0159675234965586" flag="0"/>
			<psa03 value="0.0258162532187428" flag="0"/>
			<psa10 value="0.0151528431154101" flag="0"/>
			<psa30 value="0.00709745623585645" flag="0"/>
		</comp>
	</station>
	<station code="KYMI" name="KYMI" netid="HL" source="National Observatory of Athens Seismic Network" insttype="" lat="38.633147" lon="24.100138">
		<comp name="--.HNE" depth="1.0">
			<acc value="0.0127572696254939" flag="0"/>
			<vel value="0.0148213631975167" flag="0"/>
			<psa03 value="0.0238923383341571" flag="0"/>
			<psa10 value="0.0239473712482976" flag="0"/>
			<psa30 value="0.00312569055435246" flag="0"/>
		</comp>
		<comp name="--.HNN" depth="1.0">
			<acc value="0.0105893285464123" flag="0"/>
			<vel value="0.0120044412657553" flag="0"/>
			<psa03 value="0.0245634714334312" flag="0"/>
			<psa10 value="0.0324157286949379" flag="0"/>
			<psa30 value="0.00316685338444127" flag="0"/>
		</comp>
		<comp name="--.HNZ" depth="1.0">
			<acc value="0.00712245747841178" flag="0"/>
			<vel value="0.0108481794037861" flag="0"/>
			<psa03 value="0.0126620444729709" flag="0"/>
			<psa10 value="0.022062829505536" flag="0"/>
			<psa30 value="0.00217805061817747" flag="0"/>
		</comp>
	</station>
	<station code="PATC" name="PATC" netid="HL" source="National Observatory of Athens Seismic Network" insttype="" lat="38.26933" lon="21.76001">
		<comp name="00.HNE" depth="0.0">
			<acc value="1.60504948255817" flag="0"/>
			<vel value="0.817133522729824" flag="0"/>
			<psa03 value="2.33701967829219" flag="0"/>
			<psa10 value="0.946325857566617" flag="0"/>
			<psa30 value="0.219984454702123" flag="0"/>
		</comp>
		<comp name="00.HNN" depth="0.0">
			<acc value="2.09594068891906" flag="0"/>
			<vel value="0.830882570416838" flag="0"/>
			<psa03 value="4.22545399302958" flag="0"/>
			<psa10 value="1.02498534133394" flag="0"/>
			<psa30 value="0.117981172053787" flag="0"/>
		</comp>
		<comp name="00.HNZ" depth="0.0">
			<acc value="1.17045357862276" flag="0"/>
			<vel value="0.473060619459757" flag="0"/>
			<psa03 value="2.36095675883296" flag="0"/>
			<psa10 value="0.507457159023115" flag="0"/>
			<psa30 value="0.0923729700958191" flag="0"/>
		</comp>
	</station>
	<station code="PATG" name="PATG" netid="HL" source="National Observatory of Athens Seismic Network" insttype="" lat="38.23865" lon="21.72657">
		<comp name="00.HNE" depth="0.0">
			<acc value="1.60761734507635" flag="0"/>
			<vel value="0.800690965977047" flag="0"/>
			<psa03 value="3.20215498546309" flag="0"/>
