<?xml version="1.0" encoding="UTF-8" standalone="yes"?>
<!DOCTYPE earthquake SYSTEM "stationlist.dtd">
<stationlist created="" xmlns="ch.ethz.sed.shakemap.usgs.xml">
  <station code="PFKS" name="PFKS" netid="HC" insttype="120" lat="35.0429" lon="25.4733">
    <comp name="--.HHE">
      <acc value="0.0849400552" flag="0"/>
      <vel value="0.0326293055" flag="0"/>
      <psa03 value="0.2487024105" flag="0"/>
      <psa10 value="0.0200851428" flag="0"/>
      <psa30 value="0.0014451239" flag="0"/>
    </comp>
    <comp name="--.HHN">
      <acc value="0.1279127999" flag="0"/>
      <vel value="0.0437714384" flag="0"/>
      <psa03 value="0.2685289259" flag="0"/>
      <psa10 value="0.0195673287" flag="0"/>
      <psa30 value="0.0012066973" flag="0"/>
    </comp>
    <comp name="--.HHZ">
      <acc value="0.0586055998" flag="0"/>
      <vel value="0.0179403927" flag="0"/>
      <psa03 value="0.1029519651" flag="0"/>
      <psa10 value="0.0132850116" flag="0"/>
      <psa30 value="0.0009376785" flag="0"/>
    </comp>
  </station>
  <station code="STIA" name="STIA" netid="HC" insttype="120" lat="35.2021" lon="26.0909">
    <comp name="--.HHZ">
      <acc value="0.2790088991" flag="0"/>
      <vel value="0.0587809340" flag="0"/>
      <psa03 value="0.2109071792" flag="0"/>
      <psa10 value="0.0206917869" flag="0"/>
      <psa30 value="0.0013646013" flag="0"/>
    </comp>
    <comp name="--.HHE">
      <acc value="0.2299895810" flag="0"/>
      <vel value="0.0637334964" flag="0"/>
      <psa03 value="0.3505844796" flag="0"/>
      <psa10 value="0.0610258060" flag="0"/>
      <psa30 value="0.0042328703" flag="0"/>
    </comp>
    <comp name="--.HHN">
      <acc value="0.3019285210" flag="0"/>
      <vel value="0.0775750560" flag="0"/>
      <psa03 value="0.4463470136" flag="0"/>
      <psa10 value="0.0407232659" flag="0"/>
      <psa30 value="0.0036992725" flag="0"/>
    </comp>
  </station>
  <station code="KSS1" name="KSS1" netid="HI" insttype="CMG-5TD,ACCELEROMETER,GURALP" lat="35.4189" lon="26.9207">
    <comp name="--.HNN">
      <acc value="0.0261462056" flag="0"/>
      <vel value="0.0088275961" flag="0"/>
      <psa03 value="0.0609263181" flag="0"/>
      <psa10 value="0.0070473681" flag="0"/>
      <psa30 value="0.0009131876" flag="0"/>
    </comp>
    <comp name="--.HNZ">
      <acc value="0.0191397621" flag="0"/>
      <vel value="0.0054503683" flag="0"/>
      <psa03 value="0.0189796711" flag="0"/>
      <psa10 value="0.0052600991" flag="0"/>
      <psa30 value="0.0005141443" flag="0"/>
    </comp>
    <comp name="--.HNE">
      <acc value="0.0244456211" flag="0"/>
      <vel value="0.0079402128" flag="0"/>
      <psa03 value="0.0368256824" flag="0"/>
      <psa10 value="0.0059637143" flag="0"/>
      <psa30 value="0.0005870048" flag="0"/>
    </comp>
  </station>
  <station code="NPS" name="NPS" netid="HL" insttype="CMG3ESPC-120s" lat="35.2613" lon="25.6104">
    <comp name="--.HHE">
      <acc value="0.0282596216" flag="0"/>
      <vel value="0.0098912086" flag="0"/>
      <psa03 value="0.0633161023" flag="0"/>
      <psa10 value="0.0048241140" flag="0"/>
      <psa30 value="0.0004284463" flag="0"/>
    </comp>
    <comp name="--.HHN">
      <acc value="0.0608445733" flag="0"/>
      <vel value="0.0194983848" flag="0"/>
      <psa03 value="0.1070251430" flag="0"/>
      <psa10 value="0.0296101423" flag="0"/>
      <psa30 value="0.0009432173" flag="0"/>
    </comp>
    <comp name="--.HHZ">
      <acc value="0.0387893962" flag="0"/>
      <vel value="0.0130406226" flag="0"/>
      <psa03 value="0.0536836978" flag="0"/>
      <psa10 value="0.0094492351" flag="0"/>
      <psa30 value="0.0007260132" flag="0"/>
    </comp>
  </station>
</stationlist>
