<?xml version="1.0" encoding="UTF-8" standalone="yes"?>
<!DOCTYPE earthquake SYSTEM "stationlist.dtd">
<stationlist created="" xmlns="ch.ethz.sed.shakemap.usgs.xml">
  <station code="APE" name="APE" netid="GE" insttype="STS-2/N" lat="37.0727" lon="25.523">
    <comp name="--.HHN">
      <acc value="0.6740793251" flag="0"/>
      <vel value="0.1157874128" flag="0"/>
      <psa03 value="0.4645351574" flag="0"/>
      <psa10 value="0.0908376648" flag="0"/>
      <psa30 value="0.0122105526" flag="0"/>
    </comp>
    <comp name="--.HHE">
      <acc value="0.5263771590" flag="0"/>
      <vel value="0.1058770018" flag="0"/>
      <psa03 value="0.4718831630" flag="0"/>
      <psa10 value="0.0416203250" flag="0"/>
      <psa30 value="0.0126109711" flag="0"/>
    </comp>
    <comp name="--.HHZ">
      <acc value="0.2740804107" flag="0"/>
      <vel value="0.0558041274" flag="0"/>
      <psa03 value="0.5020005447" flag="0"/>
      <psa10 value="0.0402466076" flag="0"/>
      <psa30 value="0.0119689765" flag="0"/>
    </comp>
  </station>
  <station code="THERA" name="THERA" netid="GE" insttype="STS-2/N" lat="36.367" lon="25.4753">
    <comp name="--.HHE">
      <acc value="0.5636501321" flag="0"/>
      <vel value="0.0603264257" flag="0"/>
      <psa03 value="0.1361832704" flag="0"/>
      <psa10 value="0.0217721781" flag="0"/>
      <psa30 value="0.0034922110" flag="0"/>
    </comp>
    <comp name="--.HHN">
      <acc value="0.1994221468" flag="0"/>
      <vel value="0.0430388867" flag="0"/>
      <psa03 value="0.1196084110" flag="0"/>
      <psa10 value="0.0171391347" flag="0"/>
      <psa30 value="0.0015922728" flag="0"/>
    </comp>
    <comp name="--.HHZ">
      <acc value="0.3485935281" flag="0"/>
      <vel value="0.0691770048" flag="0"/>
      <psa03 value="0.1823388132" flag="0"/>
      <psa10 value="0.0200002618" flag="0"/>
      <psa30 value="0.0022971871" flag="0"/>
    </comp>
  </station>
</stationlist>
