<stationlist created="1738510339">
	<station code="ABEA" name="ABEA" netid="HC" source="Seismological Network of Crete (HC)" insttype="" lat="35.5163" lon="24.0113">
		<comp name=".HNE" depth="0.0">
			<acc value="0.0024043253938026" flag="0"/>
			<vel value="0.00183985019279" flag="0"/>
			<psa03 value="0.00115009750992974" flag="0"/>
			<psa10 value="0.00125656550692232" flag="0"/>
			<psa30 value="0.00072170583030238" flag="0"/>
		</comp>
		<comp name=".HNN" depth="0.0">
			<acc value="0.004272631010436" flag="0"/>
			<vel value="0.00237063003637" flag="0"/>
			<psa03 value="0.00124408379790774" flag="0"/>
			<psa10 value="0.00117012298365401" flag="0"/>
			<psa30 value="0.000937047699812903" flag="0"/>
		</comp>
		<comp name=".HNZ" depth="0.0">
			<acc value="0.0033225456885882" flag="0"/>
			<vel value="0.00179031223332" flag="0"/>
			<psa03 value="0.00125234199471332" flag="0"/>
			<psa10 value="0.0010912022867973" flag="0"/>
			<psa30 value="0.000558606952884988" flag="0"/>
		</comp>
	</station>
	<station code="ATEI" name="ATEI" netid="HC" source="Seismological Network of Crete (HC)" insttype="" lat="35.5193" lon="24.0432">
		<comp name=".HNE" depth="0.0">
			<acc value="0.013478906072532" flag="0"/>
			<vel value="0.0105111224443" flag="0"/>
			<psa03 value="0.0437527317370857" flag="0"/>
			<psa10 value="0.00959593318349086" flag="0"/>
			<psa30 value="0.00160296775124869" flag="0"/>
		</comp>
		<comp name=".HNN" depth="0.0">
			<acc value="0.014951216507388" flag="0"/>
			<vel value="0.0078644288343" flag="0"/>
			<psa03 value="0.0327442003925592" flag="0"/>
			<psa10 value="0.00962079264278193" flag="0"/>
			<psa30 value="0.00112482513914472" flag="0"/>
		</comp>
		<comp name=".HNZ" depth="0.0">
			<acc value="0.011931779165832" flag="0"/>
			<vel value="0.00507989237525" flag="0"/>
			<psa03 value="0.0170344904305533" flag="0"/>
			<psa10 value="0.0056748899961202" flag="0"/>
			<psa30 value="0.000964552751052179" flag="0"/>
		</comp>
	</station>
	<station code="G0LD" name="G0LD" netid="HC" source="Seismological Network of Crete (HC)" insttype="" lat="35.4955" lon="24.0306">
		<comp name=".HNE" depth="0.0">
			<acc value="0.0020651209248336" flag="0"/>
			<vel value="0.00294372458396" flag="0"/>
			<psa03 value="0.00188352321166702" flag="0"/>
			<psa10 value="0.00120699741859291" flag="0"/>
			<psa30 value="0.000968519576335022" flag="0"/>
		</comp>
		<comp name=".HNN" depth="0.0">
			<acc value="0.0026828532487416" flag="0"/>
			<vel value="0.00254522989216" flag="0"/>
			<psa03 value="0.00139870007889047" flag="0"/>
			<psa10 value="0.00100452935763943" flag="0"/>
			<psa30 value="0.00101058715477159" flag="0"/>
		</comp>
		<comp name=".HNZ" depth="0.0">
			<acc value="0.0027069972599766" flag="0"/>
			<vel value="0.00766817662293" flag="0"/>
			<psa03 value="0.00199344276543754" flag="0"/>
			<psa10 value="0.00168511881834961" flag="0"/>
			<psa30 value="0.00190335858816506" flag="0"/>
		</comp>
	</station>
	<station code="PASK" name="PASK" netid="HC" source="Seismological Network of Crete (HC)" insttype="" lat="35.4996" lon="24.0121">
		<comp name=".HNE" depth="0.0">
			<acc value="0.01687621675539" flag="0"/>
			<vel value="0.0150126448799" flag="0"/>
			<psa03 value="0.0512552131144597" flag="0"/>
			<psa10 value="0.022223855971383" flag="0"/>
			<psa30 value="0.00251865018154571" flag="0"/>
		</comp>
		<comp name=".HNN" depth="0.0">
			<acc value="0.02036024934693" flag="0"/>
			<vel value="0.0117777475053" flag="0"/>
			<psa03 value="0.0440888685878456" flag="0"/>
			<psa10 value="0.0106369421452173" flag="0"/>
			<psa30 value="0.00167576965734707" flag="0"/>
		</comp>
		<comp name=".HNZ" depth="0.0">
			<acc value="0.01173496631064" flag="0"/>
			<vel value="0.0077742412337" flag="0"/>
			<psa03 value="0.0328140409566665" flag="0"/>
			<psa10 value="0.0112825005353009" flag="0"/>
			<psa30 value="0.00140583990082827" flag="0"/>
		</comp>
	</station>
	<station code="POLY" name="POLY" netid="HC" source="Seismological Network of Crete (HC)" insttype="" lat="35.5226" lon="24.0602">
		<comp name=".HNE" depth="0.0">
			<acc value="0.0010296270032496" flag="0"/>
			<vel value="0.0024605917715" flag="0"/>
			<psa03 value="0.00120299570818517" flag="0"/>
			<psa10 value="0.00106772561439516" flag="0"/>
			<psa30 value="0.00126062726037047" flag="0"/>
		</comp>
		<comp name=".HNN" depth="0.0">
			<acc value="0.0014223112171992" flag="0"/>
			<vel value="0.00340071592005" flag="0"/>
			<psa03 value="0.00172824664931507" flag="0"/>
			<psa10 value="0.00129166478520302" flag="0"/>
			<psa30 value="0.00135300556747776" flag="0"/>
		</comp>
		<comp name=".HNZ" depth="0.0">
			<acc value="0.0014519223507612" flag="0"/>
			<vel value="0.00190231364048" flag="0"/>
			<psa03 value="0.00135079545687618" flag="0"/>
			<psa10 value="0.00106593557393633" flag="0"/>
			<psa30 value="0.000649540476785546" flag="0"/>
		</comp>
	</station>
	<station code="ARK1" name="ARK1" netid="HI" source="ITSAK Strong Motion Network" insttype="" lat="35.148777" lon="25.264194">
		<comp name=".HNE" depth="0.0">
			<acc value="0.032909516353278" flag="0"/>
			<vel value="0.0236848636316" flag="0"/>
			<psa03 value="0.0908244541742868" flag="0"/>
			<psa10 value="0.0197055566464096" flag="0"/>
			<psa30 value="0.00198039994177533" flag="0"/>
		</comp>
		<comp name=".HNN" depth="0.0">
			<acc value="0.039403090639278" flag="0"/>
			<vel value="0.0210560304618" flag="0"/>
			<psa03 value="0.122104661751185" flag="0"/>
			<psa10 value="0.0165676075226828" flag="0"/>
			<psa30 value="0.00209782188706906" flag="0"/>
		</comp>
		<comp name=".HNZ" depth="0.0">
			<acc value="0.01837083152892" flag="0"/>
			<vel value="0.0108815489264" flag="0"/>
			<psa03 value="0.0321774909758457" flag="0"/>
			<psa10 value="0.0132645799633174" flag="0"/>
			<psa30 value="0.00137717123083364" flag="0"/>
		</comp>
	</station>
	<station code="CH01" name="CH01" netid="HI" source="ITSAK Strong Motion Network" insttype="" lat="35.517" lon="24.0208">
		<comp name=".HNE" depth="0.0">
			<acc value="0.012720272196594" flag="0"/>
			<vel value="0.00795947168746" flag="0"/>
			<psa03 value="0.0346816386341956" flag="0"/>
			<psa10 value="0.0110652177038745" flag="0"/>
			<psa30 value="0.00161727994936143" flag="0"/>
		</comp>
		<comp name=".HNN" depth="0.0">
			<acc value="0.014670014430678" flag="0"/>
			<vel value="0.00919391739159" flag="0"/>
			<psa03 value="0.0422542652835267" flag="0"/>
			<psa10 value="0.00987060231645084" flag="0"/>
			<psa30 value="0.00168463586969398" flag="0"/>
		</comp>
		<comp name=".HNZ" depth="0.0">
			<acc value="0.011825238033114" flag="0"/>
			<vel value="0.00551772182549" flag="0"/>
			<psa03 value="0.0176411803603846" flag="0"/>
			<psa10 value="0.00959770236317191" flag="0"/>
			<psa30 value="0.000808012901887747" flag="0"/>
		</comp>
	</station>
	<station code="CH02" name="CH02" netid="HI" source="ITSAK Strong Motion Network" insttype="" lat="35.5145" lon="24.0315">
		<comp name=".HNE" depth="0.0">
			<acc value="0.015450101605638" flag="0"/>
			<vel value="0.00965353379344" flag="0"/>
			<psa03 value="0.0267784275852576" flag="0"/>
			<psa10 value="0.0142617063305624" flag="0"/>
			<psa30 value="0.00172529710496692" flag="0"/>
		</comp>
		<comp name=".HNN" depth="0.0">
			<acc value="0.017644737145344" flag="0"/>
			<vel value="0.00869987737089" flag="0"/>
			<psa03 value="0.039854507353011" flag="0"/>
			<psa10 value="0.00904655647746962" flag="0"/>
			<psa30 value="0.00167717704224797" flag="0"/>
		</comp>
		<comp name=".HNZ" depth="0.0">
			<acc value="0.010217047560594" flag="0"/>
			<vel value="0.00530698416039" flag="0"/>
			<psa03 value="0.0182648284448141" flag="0"/>
			<psa10 value="0.00675085267960356" flag="0"/>
			<psa30 value="0.000725982884471129" flag="0"/>
		</comp>
	</station>
	<station code="CH03" name="CH03" netid="HI" source="ITSAK Strong Motion Network" insttype="" lat="35.53303" lon="24.0705">
		<comp name=".HNE" depth="0.0">
			<acc value="0.011437057457784" flag="0"/>
			<vel value="0.00773013981413" flag="0"/>
			<psa03 value="0.0268795462630276" flag="0"/>
			<psa10 value="0.00852026161302276" flag="0"/>
			<psa30 value="0.00110676904718507" flag="0"/>
		</comp>
		<comp name=".HNN" depth="0.0">
			<acc value="0.010892540094132" flag="0"/>
			<vel value="0.00632422882468" flag="0"/>
			<psa03 value="0.0394303099811947" flag="0"/>
			<psa10 value="0.00715525228160109" flag="0"/>
			<psa30 value="0.000862799291637479" flag="0"/>
		</comp>
		<comp name=".HNZ" depth="0.0">
			<acc value="0.0088790701707936" flag="0"/>
			<vel value="0.0043366017285" flag="0"/>
			<psa03 value="0.0159016119975247" flag="0"/>
			<psa10 value="0.00445608738143145" flag="0"/>
			<psa30 value="0.000416712605165079" flag="0"/>
		</comp>
	</station>
	<station code="GOR1" name="GOR1" netid="HI" source="ITSAK Strong Motion Network" insttype="" lat="35.0582" lon="24.9628">
		<comp name=".HNE" depth="0.0">
			<acc value="0.011186838920658" flag="0"/>
			<vel value="0.010489844975" flag="0"/>
			<psa03 value="0.0285839716728558" flag="0"/>
			<psa10 value="0.00991751323658831" flag="0"/>
			<psa30 value="0.00164914268510715" flag="0"/>
		</comp>
		<comp name=".HNN" depth="0.0">
			<acc value="0.014661979455444" flag="0"/>
			<vel value="0.00904117722241" flag="0"/>
			<psa03 value="0.037967291188383" flag="0"/>
			<psa10 value="0.0106944428293341" flag="0"/>
			<psa30 value="0.00185064092921441" flag="0"/>
		</comp>
		<comp name=".HNZ" depth="0.0">
			<acc value="0.0081587618097804" flag="0"/>
			<vel value="0.00614663468726" flag="0"/>
			<psa03 value="0.0216962562808997" flag="0"/>
			<psa10 value="0.00746892212318789" flag="0"/>
			<psa30 value="0.000818213629722857" flag="0"/>
		</comp>
	</station>
	<station code="HER1" name="HER1" netid="HI" source="ITSAK Strong Motion Network" insttype="" lat="35.317672" lon="25.10217">
		<comp name=".HNE" depth="0.0">
			<acc value="0.034898510754396" flag="0"/>
			<vel value="0.0393562367709" flag="0"/>
			<psa03 value="0.0697425211412479" flag="0"/>
			<psa10 value="0.0780668365447127" flag="0"/>
			<psa30 value="0.00387350785088569" flag="0"/>
		</comp>
		<comp name=".HNN" depth="0.0">
			<acc value="0.033821596947702" flag="0"/>
			<vel value="0.0333036028256" flag="0"/>
			<psa03 value="0.110270700726063" flag="0"/>
			<psa10 value="0.0608500910197238" flag="0"/>
			<psa30 value="0.00312494680405678" flag="0"/>
		</comp>
		<comp name=".HNZ" depth="0.0">
			<acc value="0.031550524797324" flag="0"/>
			<vel value="0.0262912285405" flag="0"/>
			<psa03 value="0.0886942193066875" flag="0"/>
			<psa10 value="0.0395334351460569" flag="0"/>
			<psa30 value="0.00151030734211706" flag="0"/>
		</comp>
	</station>
	<station code="HER3" name="HER3" netid="HI" source="ITSAK Strong Motion Network" insttype="" lat="35.3296" lon="25.1065">
		<comp name=".HNE" depth="0.0">
			<acc value="0.074910033168678" flag="0"/>
			<vel value="0.0413774452787" flag="0"/>
			<psa03 value="0.165356401966645" flag="0"/>
			<psa10 value="0.0524428028283839" flag="0"/>
			<psa30 value="0.00422193051551153" flag="0"/>
		</comp>
		<comp name=".HNN" depth="0.0">
			<acc value="0.076809652737096" flag="0"/>
			<vel value="0.0467447064548" flag="0"/>
			<psa03 value="0.210123586323099" flag="0"/>
			<psa10 value="0.0518340325003059" flag="0"/>
			<psa30 value="0.00342432913666524" flag="0"/>
		</comp>
		<comp name=".HNZ" depth="0.0">
			<acc value="0.046104520751922" flag="0"/>
			<vel value="0.0237994171849" flag="0"/>
			<psa03 value="0.0804139572385149" flag="0"/>
			<psa10 value="0.0164080494527421" flag="0"/>
			<psa30 value="0.00119692929069196" flag="0"/>
		</comp>
	</station>
	<station code="KRL1" name="KRL1" netid="HI" source="ITSAK Strong Motion Network" insttype="" lat="37.7951" lon="26.7065">
		<comp name=".HNE" depth="0.0">
			<acc value="0.13146915699066" flag="0"/>
			<vel value="0.0667264552065" flag="0"/>
			<psa03 value="0.482198359940841" flag="0"/>
			<psa10 value="0.0564221201886474" flag="0"/>
			<psa30 value="0.00380944402363782" flag="0"/>
		</comp>
		<comp name=".HNN" depth="0.0">
			<acc value="0.07228183054194" flag="0"/>
			<vel value="0.0400941789376" flag="0"/>
			<psa03 value="0.237818941837634" flag="0"/>
			<psa10 value="0.0445498499590707" flag="0"/>
			<psa30 value="0.00419676884867261" flag="0"/>
		</comp>
		<comp name=".HNZ" depth="0.0">
			<acc value="0.058313072172306" flag="0"/>
			<vel value="0.0286508627389" flag="0"/>
			<psa03 value="0.181949699108048" flag="0"/>
			<psa10 value="0.0333700518521521" flag="0"/>
			<psa30 value="0.00183998001464792" flag="0"/>
		</comp>
	</station>
	<station code="KTL1" name="KTL1" netid="HI" source="ITSAK Strong Motion Network" insttype="" lat="35.20778" lon="25.34272">
		<comp name=".HNE" depth="0.0">
			<acc value="0.023693473639806" flag="0"/>
			<vel value="0.0170812186516" flag="0"/>
			<psa03 value="0.0624239165282686" flag="0"/>
			<psa10 value="0.0117283122556473" flag="0"/>
			<psa30 value="0.00121562927947399" flag="0"/>
		</comp>
		<comp name=".HNN" depth="0.0">
			<acc value="0.027959058669252" flag="0"/>
			<vel value="0.0138388675954" flag="0"/>
			<psa03 value="0.0854474208888438" flag="0"/>
			<psa10 value="0.0171118960791516" flag="0"/>
			<psa30 value="0.0013020801105835" flag="0"/>
		</comp>
		<comp name=".HNZ" depth="0.0">
			<acc value="0.01178500501011" flag="0"/>
			<vel value="0.0072877619442" flag="0"/>
			<psa03 value="0.0317836471773071" flag="0"/>
			<psa10 value="0.00597229782290488" flag="0"/>
			<psa30 value="0.000894417584109091" flag="0"/>
		</comp>
	</station>
	<station code="NAX1" name="NAX1" netid="HI" source="ITSAK Strong Motion Network" insttype="" lat="37.101394" lon="25.374103">
		<comp name=".HNE" depth="0.0">
			<acc value="0.4867240286907" flag="0"/>
			<vel value="0.0805532738613" flag="0"/>
			<psa03 value="0.295518139126204" flag="0"/>
			<psa10 value="0.050182156821502" flag="0"/>
			<psa30 value="0.00458052635407959" flag="0"/>
		</comp>
		<comp name=".HNN" depth="0.0">
			<acc value="0.560400372651" flag="0"/>
			<vel value="0.115449825008" flag="0"/>
			<psa03 value="0.250983063896231" flag="0"/>
			<psa10 value="0.0401277820186194" flag="0"/>
			<psa30 value="0.00978572408953805" flag="0"/>
		</comp>
		<comp name=".HNZ" depth="0.0">
			<acc value="0.20942946014382" flag="0"/>
			<vel value="0.0503529630427" flag="0"/>
			<psa03 value="0.147637613600769" flag="0"/>
			<psa10 value="0.0605738027170484" flag="0"/>
			<psa30 value="0.00939373562221089" flag="0"/>
		</comp>
	</station>
	<station code="RTH1" name="RTH1" netid="HI" source="ITSAK Strong Motion Network" insttype="" lat="35.365393" lon="24.471773">
		<comp name=".HNE" depth="0.0">
			<acc value="0.0092647686350286" flag="0"/>
			<vel value="0.00514070932063" flag="0"/>
			<psa03 value="0.0228533680901576" flag="0"/>
			<psa10 value="0.00444750587545429" flag="0"/>
			<psa30 value="0.00102697219853467" flag="0"/>
		</comp>
		<comp name=".HNN" depth="0.0">
			<acc value="0.0099549775751484" flag="0"/>
			<vel value="0.00540494180305" flag="0"/>
			<psa03 value="0.026729801968212" flag="0"/>
			<psa10 value="0.00543567758694703" flag="0"/>
			<psa30 value="0.00104739438473676" flag="0"/>
		</comp>
		<comp name=".HNZ" depth="0.0">
			<acc value="0.0087093423473658" flag="0"/>
			<vel value="0.00373369444392" flag="0"/>
			<psa03 value="0.0110495718236509" flag="0"/>
			<psa10 value="0.00334334366761063" flag="0"/>
			<psa30 value="0.000591582001904885" flag="0"/>
		</comp>
	</station>
	<station code="SFR2" name="SFR2" netid="HI" source="ITSAK Strong Motion Network" insttype="" lat="36.399841" lon="25.438209">
		<comp name=".HNE" depth="0.0">
			<acc value="0.6720401140023" flag="0"/>
			<vel value="0.260214787216" flag="0"/>
			<psa03 value="0.863295522426533" flag="0"/>
			<psa10 value="0.0962906962859844" flag="0"/>
			<psa30 value="0.00764765995326781" flag="0"/>
		</comp>
		<comp name=".HNN" depth="0.0">
			<acc value="0.59227907554272" flag="0"/>
			<vel value="0.178120317976" flag="0"/>
			<psa03 value="0.83781316767848" flag="0"/>
			<psa10 value="0.101104965207732" flag="0"/>
			<psa30 value="0.0105330027597551" flag="0"/>
		</comp>
		<comp name=".HNZ" depth="0.0">
			<acc value="0.63106224233964" flag="0"/>
			<vel value="0.145329865196" flag="0"/>
			<psa03 value="0.584169740044643" flag="0"/>
			<psa10 value="0.0606920105479308" flag="0"/>
			<psa30 value="0.00495737215159531" flag="0"/>
		</comp>
	</station>
	<station code="CHNB" name="CHNB" netid="HL" source="National Observatory of Athens Seismic Network" insttype="" lat="35.48765" lon="24.06605">
		<comp name="00.HNE" depth="0.0">
			<acc value="0.035722806798324" flag="0"/>
			<vel value="0.017004962003" flag="0"/>
			<psa03 value="0.0716188173118797" flag="0"/>
			<psa10 value="0.018249115789366" flag="0"/>
			<psa30 value="0.00155131089173104" flag="0"/>
		</comp>
		<comp name="00.HNN" depth="0.0">
			<acc value="0.03255185028828" flag="0"/>
			<vel value="0.0241967640278" flag="0"/>
			<psa03 value="0.0647632225373458" flag="0"/>
			<psa10 value="0.0258230350243574" flag="0"/>
			<psa30 value="0.00277179486780684" flag="0"/>
		</comp>
		<comp name="00.HNZ" depth="0.0">
			<acc value="0.01539277658115" flag="0"/>
			<vel value="0.00821017033912" flag="0"/>
			<psa03 value="0.0380293005045136" flag="0"/>
			<psa10 value="0.00610380544089951" flag="0"/>
			<psa30 value="0.000714345915660584" flag="0"/>
		</comp>
	</station>
	<station code="HERG" name="HERG" netid="HL" source="National Observatory of Athens Seismic Network" insttype="" lat="35.32622" lon="25.06586">
		<comp name="00.HNE" depth="0.0">
			<acc value="0.031268724103218" flag="0"/>
			<vel value="0.0341012483187" flag="0"/>
			<psa03 value="0.0861024746998969" flag="0"/>
			<psa10 value="0.0350371310379628" flag="0"/>
			<psa30 value="0.00369384428239003" flag="0"/>
		</comp>
		<comp name="00.HNN" depth="0.0">
			<acc value="0.031297001408586" flag="0"/>
			<vel value="0.0258532789564" flag="0"/>
			<psa03 value="0.0770917579923478" flag="0"/>
			<psa10 value="0.0328370215415312" flag="0"/>
			<psa30 value="0.00315624450237655" flag="0"/>
		</comp>
		<comp name="00.HNZ" depth="0.0">
			<acc value="0.03402067610193" flag="0"/>
			<vel value="0.0204302773786" flag="0"/>
			<psa03 value="0.0634252693210746" flag="0"/>
			<psa10 value="0.0189048336024429" flag="0"/>
			<psa30 value="0.00122035771770738" flag="0"/>
		</comp>
	</station>
	<station code="IACM" name="IACM" netid="HL" source="National Observatory of Athens Seismic Network" insttype="" lat="35.3058" lon="25.0709">
		<comp name=".HNE" depth="0.0">
			<acc value="0.064843545693522" flag="0"/>
			<vel value="0.0366283355897" flag="0"/>
			<psa03 value="0.175685221617215" flag="0"/>
			<psa10 value="0.0469289400619944" flag="0"/>
			<psa30 value="0.00304898802215761" flag="0"/>
		</comp>
		<comp name=".HNN" depth="0.0">
			<acc value="0.070596935615112" flag="0"/>
			<vel value="0.0375916180541" flag="0"/>
			<psa03 value="0.14630500448851" flag="0"/>
			<psa10 value="0.0575191578619416" flag="0"/>
			<psa30 value="0.00274517977135213" flag="0"/>
		</comp>
		<comp name=".HNZ" depth="0.0">
			<acc value="0.061962134058468" flag="0"/>
			<vel value="0.0205913331201" flag="0"/>
			<psa03 value="0.0901860264647533" flag="0"/>
			<psa10 value="0.0198958930052615" flag="0"/>
			<psa30 value="0.00127348769564436" flag="0"/>
		</comp>
	</station>
	<station code="KARA" name="KARA" netid="HL" source="National Observatory of Athens Seismic Network" insttype="" lat="38.01581" lon="24.42014">
		<comp name="00.HNE" depth="0.0">
			<acc value="0.027188329885866" flag="0"/>
			<vel value="0.0126870681171" flag="0"/>
			<psa03 value="0.0510262239868761" flag="0"/>
			<psa10 value="0.0201149168895431" flag="0"/>
			<psa30 value="0.002276720404887" flag="0"/>
		</comp>
		<comp name="00.HNN" depth="0.0">
			<acc value="0.028518512944014" flag="0"/>
