<?xml version="1.0" encoding="UTF-8" standalone="yes"?>
<!DOCTYPE earthquake SYSTEM "stationlist.dtd">
<stationlist created="" xmlns="ch.ethz.sed.shakemap.usgs.xml">
  <station code="APE" name="APE" netid="GE" insttype="STS-2/N" lat="37.0727" lon="25.523">
    <comp name="--.HHN">
      <acc value="0.6740793251" flag="0"/>
      <vel value="0.1157874128" flag="0"/>
      <psa03 value="0.4645351574" flag="0"/>
      <psa10 value="0.0908376648" flag="0"/>
      <psa30 value="0.0122105526" flag="0"/>
    </comp>
    <comp name="--.HHE">
      <acc value="0.5263771590" flag="0"/>
      <vel value="0.1058770018" flag="0"/>
      <psa03 value="0.4718831630" flag="0"/>
      <psa10 value="0.0416203250" flag="0"/>
      <psa30 value="0.0126109711" flag="0"/>
    </comp>
    <comp name="--.HHZ">
      <acc value="0.2740804107" flag="0"/>
      <vel value="0.0558041274" flag="0"/>
      <psa03 value="0.5020005447" flag="0"/>
      <psa10 value="0.0402466076" flag="0"/>
      <psa30 value="0.0119689765" flag="0"/>
    </comp>
  </station>
  <station code="THERA" name="THERA" netid="GE" insttype="STS-2/N" lat="36.367" lon="25.4753">
    <comp name="--.HHE">
      <acc value="0.5636501321" flag="0"/>
      <vel value="0.0603264257" flag="0"/>
      <psa03 value="0.1361832704" flag="0"/>
      <psa10 value="0.0217721781" flag="0"/>
      <psa30 value="0.0034922110" flag="0"/>
    </comp>
    <comp name="--.HHN">
      <acc value="0.1994221468" flag="0"/>
      <vel value="0.0430388867" flag="0"/>
      <psa03 value="0.1196084110" flag="0"/>
      <psa10 value="0.0171391347" flag="0"/>
      <psa30 value="0.0015922728" flag="0"/>
    </comp>
    <comp name="--.HHZ">
      <acc value="0.3485935281" flag="0"/>
      <vel value="0.0691770048" flag="0"/>
      <psa03 value="0.1823388132" flag="0"/>
      <psa10 value="0.0200002618" flag="0"/>
      <psa30 value="0.0022971871" flag="0"/>
    </comp>
  </station>
  <station code="KNSS" name="KNSS" netid="HC" insttype="60" lat="35.3042" lon="25.1802">
    <comp name="--.HHE">
      <acc value="0.0244648161" flag="0"/>
      <vel value="0.0097405906" flag="0"/>
      <psa03 value="0.0443769130" flag="0"/>
      <psa10 value="0.0089492262" flag="0"/>
      <psa30 value="0.0011341626" flag="0"/>
    </comp>
    <comp name="--.HHN">
      <acc value="0.0188310970" flag="0"/>
      <vel value="0.0128774420" flag="0"/>
      <psa03 value="0.0559050703" flag="0"/>
      <psa10 value="0.0067036566" flag="0"/>
      <psa30 value="0.0008269111" flag="0"/>
    </comp>
    <comp name="--.HHZ">
      <acc value="0.0199302778" flag="0"/>
      <vel value="0.0095533243" flag="0"/>
      <psa03 value="0.0427180826" flag="0"/>
      <psa10 value="0.0066052928" flag="0"/>
      <psa30 value="0.0007995279" flag="0"/>
    </comp>
  </station>
  <station code="NAX1" name="NAX1" netid="HI" insttype="CMG-5TD,ACCELEROMETER,GURALP" lat="37.1014" lon="25.3741">
    <comp name="--.HNN">
      <acc value="0.5791363605" flag="0"/>
      <vel value="0.1074838310" flag="0"/>
      <psa03 value="0.2508915927" flag="0"/>
      <psa10 value="0.0407152589" flag="0"/>
      <psa30 value="0.0087375580" flag="0"/>
    </comp>
    <comp name="--.HNE">
      <acc value="0.4907677225" flag="0"/>
      <vel value="0.0758450643" flag="0"/>
      <psa03 value="0.2998392272" flag="0"/>
      <psa10 value="0.0499276842" flag="0"/>
      <psa30 value="0.0043715226" flag="0"/>
    </comp>
    <comp name="--.HNZ">
      <acc value="0.2157065532" flag="0"/>
      <vel value="0.0539022863" flag="0"/>
      <psa03 value="0.1443382284" flag="0"/>
      <psa10 value="0.0597888562" flag="0"/>
      <psa30 value="0.0081120489" flag="0"/>
    </comp>
  </station>
  <station code="APE" name="APE" netid="HL" insttype="120" lat="37.0727" lon="25.523">
    <comp name="--.HHE">
      <acc value="0.4964647345" flag="0"/>
      <vel value="0.1025862876" flag="0"/>
      <psa03 value="0.4549294784" flag="0"/>
      <psa10 value="0.0411576743" flag="0"/>
      <psa30 value="0.0125851278" flag="0"/>
    </comp>
    <comp name="--.HHZ">
      <acc value="0.2497159733" flag="0"/>
      <vel value="0.0545172795" flag="0"/>
      <psa03 value="0.4871073096" flag="0"/>
      <psa10 value="0.0399933808" flag="0"/>
      <psa30 value="0.0119548080" flag="0"/>
    </comp>
    <comp name="--.HHN">
      <acc value="0.6096701529" flag="0"/>
      <vel value="0.1108796535" flag="0"/>
      <psa03 value="0.4513395981" flag="0"/>
      <psa10 value="0.0899616851" flag="0"/>
      <psa30 value="0.0121831644" flag="0"/>
    </comp>
  </station>
  <station code="MHLO" name="MHLO" netid="HL" insttype="20" lat="36.6898" lon="24.4017">
    <comp name="--.HHN">
      <acc value="0.1425503928" flag="0"/>
      <vel value="0.0615549420" flag="0"/>
      <psa03 value="0.3850656089" flag="0"/>
      <psa10 value="0.0867829666" flag="0"/>
      <psa30 value="0.0052824395" flag="0"/>
    </comp>
    <comp name="--.HHE">
      <acc value="0.1874560227" flag="0"/>
      <vel value="0.0914174877" flag="0"/>
      <psa03 value="0.5143715203" flag="0"/>
      <psa10 value="0.1300459325" flag="0"/>
      <psa30 value="0.0080532020" flag="0"/>
    </comp>
    <comp name="--.HHZ">
      <acc value="0.0691004481" flag="0"/>
      <vel value="0.0343866364" flag="0"/>
      <psa03 value="0.1686448210" flag="0"/>
      <psa10 value="0.0604754299" flag="0"/>
      <psa30 value="0.0048124093" flag="0"/>
    </comp>
  </station>
  <station code="NISR" name="NISR" netid="HL" insttype="65535" lat="36.6106" lon="27.131">
    <comp name="--.HHE">
      <acc value="0.0000000000" flag="0"/>
      <vel value="-100.0000000000" flag="0"/>
      <psa03 value="0.0000000000" flag="0"/>
      <psa10 value="0.0000000000" flag="0"/>
      <psa30 value="0.0000000000" flag="0"/>
    </comp>
    <comp name="--.HHN">
      <acc value="0.0747345921" flag="0"/>
      <vel value="0.0487858835" flag="0"/>
      <psa03 value="0.1688998642" flag="0"/>
      <psa10 value="0.0541612503" flag="0"/>
      <psa30 value="0.0130891719" flag="0"/>
    </comp>
    <comp name="--.HHZ">
      <acc value="0.0319803573" flag="0"/>
      <vel value="0.0190618746" flag="0"/>
      <psa03 value="0.0924522331" flag="0"/>
      <psa10 value="0.0301570470" flag="0"/>
      <psa30 value="0.0030791164" flag="0"/>
    </comp>
  </station>
  <station code="NISR2" name="NISR2" netid="HL" insttype="120" lat="36.5744" lon="27.1767">
    <comp name="--.HHE">
      <acc value="0.0877057026" flag="0"/>
      <vel value="0.0709114683" flag="0"/>
      <psa03 value="0.2815667473" flag="0"/>
      <psa10 value="0.1305412923" flag="0"/>
      <psa30 value="0.0104299579" flag="0"/>
    </comp>
    <comp name="--.HHN">
      <acc value="0.1169170452" flag="0"/>
      <vel value="0.0945709174" flag="0"/>
      <psa03 value="0.4683895082" flag="0"/>
      <psa10 value="0.0889989673" flag="0"/>
      <psa30 value="0.0115820360" flag="0"/>
    </comp>
    <comp name="--.HHZ">
      <acc value="0.0306706518" flag="0"/>
      <vel value="0.0235298968" flag="0"/>
      <psa03 value="0.1071658004" flag="0"/>
      <psa10 value="0.0228436040" flag="0"/>
      <psa30 value="0.0040981794" flag="0"/>
    </comp>
  </station>
  <station code="NPS" name="NPS" netid="HL" insttype="CMG3ESPC-120s" lat="35.2613" lon="25.6104">
    <comp name="--.HHN">
      <acc value="0.0295299114" flag="0"/>
      <vel value="0.0160949553" flag="0"/>
      <psa03 value="0.0878875363" flag="0"/>
      <psa10 value="0.0118620854" flag="0"/>
      <psa30 value="0.0011516748" flag="0"/>
    </comp>
    <comp name="--.HHE">
      <acc value="0.0129640629" flag="0"/>
      <vel value="0.0066997929" flag="0"/>
      <psa03 value="0.0435540607" flag="0"/>
      <psa10 value="0.0052755034" flag="0"/>
      <psa30 value="0.0003752273" flag="0"/>
    </comp>
    <comp name="--.HHZ">
      <acc value="0.0234122460" flag="0"/>
      <vel value="0.0081272634" flag="0"/>
      <psa03 value="0.0405261438" flag="0"/>
      <psa10 value="0.0074385103" flag="0"/>
      <psa30 value="0.0012655369" flag="0"/>
    </comp>
  </station>
  <station code="SAP3" name="SAP3" netid="HL" insttype="LE3D20_SMART24" lat="36.4356" lon="25.3454">
    <comp name="--.HHE">
      <acc value="0.9365147029" flag="0"/>
      <vel value="0.1896370963" flag="0"/>
      <psa03 value="0.9421892406" flag="0"/>
      <psa10 value="0.1527568099" flag="0"/>
      <psa30 value="0.0281301818" flag="0"/>
    </comp>
    <comp name="--.HHN">
      <acc value="1.0227208976" flag="0"/>
      <vel value="0.2902518243" flag="0"/>
      <psa03 value="0.8921312977" flag="0"/>
      <psa10 value="0.1814550829" flag="0"/>
      <psa30 value="0.0213825775" flag="0"/>
    </comp>
    <comp name="--.HHZ">
      <acc value="1.1930896450" flag="0"/>
      <vel value="0.2555885692" flag="0"/>
      <psa03 value="0.5406444754" flag="0"/>
      <psa10 value="0.0678257417" flag="0"/>
      <psa30 value="0.0133965758" flag="0"/>
    </comp>
  </station>
  <station code="THERA" name="THERA" netid="HL" insttype="120" lat="36.367" lon="25.4753">
    <comp name="--.HHE">
      <acc value="0.5919821130" flag="0"/>
      <vel value="0.0587235129" flag="0"/>
      <psa03 value="0.1331109543" flag="0"/>
      <psa10 value="0.0214917906" flag="0"/>
      <psa30 value="0.0034911160" flag="0"/>
    </comp>
    <comp name="--.HHN">
      <acc value="0.2016779540" flag="0"/>
      <vel value="0.0422318878" flag="0"/>
      <psa03 value="0.1159720523" flag="0"/>
      <psa10 value="0.0170519109" flag="0"/>
      <psa30 value="0.0015834319" flag="0"/>
    </comp>
    <comp name="--.HHZ">
      <acc value="0.3483114931" flag="0"/>
      <vel value="0.0675491331" flag="0"/>
      <psa03 value="0.1768885966" flag="0"/>
      <psa10 value="0.0197787828" flag="0"/>
      <psa30 value="0.0022946557" flag="0"/>
    </comp>
  </station>
  <station code="THRA" name="THRA" netid="HL" insttype="CMG-5" lat="36.415" lon="25.4324">
    <comp name="00.HNE">
      <acc value="0.6650409042" flag="0"/>
      <vel value="0.1976670551" flag="0"/>
      <psa03 value="0.8752597028" flag="0"/>
      <psa10 value="0.1755719092" flag="0"/>
      <psa30 value="0.0123046335" flag="0"/>
    </comp>
    <comp name="00.HNZ">
      <acc value="0.5699165692" flag="0"/>
      <vel value="0.1709386288" flag="0"/>
      <psa03 value="0.8751636922" flag="0"/>
      <psa10 value="0.0637933199" flag="0"/>
      <psa30 value="0.0051505485" flag="0"/>
    </comp>
    <comp name="00.HNN">
      <acc value="0.5845276379" flag="0"/>
      <vel value="0.1981232864" flag="0"/>
      <psa03 value="1.0085234023" flag="0"/>
      <psa10 value="0.1887795507" flag="0"/>
      <psa30 value="0.0139596483" flag="0"/>
    </comp>
  </station>
  <station code="TNSA" name="TNSA" netid="HL" insttype="CMG-5" lat="37.5394" lon="25.1631">
    <comp name="00.HNE">
      <acc value="0.1617852314" flag="0"/>
      <vel value="0.0693541192" flag="0"/>
      <psa03 value="0.2758054052" flag="0"/>
      <psa10 value="0.0222103680" flag="0"/>
      <psa30 value="0.0027602044" flag="0"/>
    </comp>
    <comp name="00.HNN">
      <acc value="0.1883877706" flag="0"/>
      <vel value="0.0839586038" flag="0"/>
      <psa03 value="0.3684276652" flag="0"/>
      <psa10 value="0.0283220109" flag="0"/>
      <psa30 value="0.0046919032" flag="0"/>
    </comp>
    <comp name="00.HNZ">
      <acc value="0.1423670791" flag="0"/>
      <vel value="0.0798340311" flag="0"/>
      <psa03 value="0.4029642041" flag="0"/>
      <psa10 value="0.0497226834" flag="0"/>
      <psa30 value="0.0075518359" flag="0"/>
    </comp>
  </station>
  <station code="CMBO" name="CMBO" netid="HT" insttype="120P," lat="36.4709" lon="25.4056">
    <comp name="--.HHE">
      <acc value="0.7324803953" flag="0"/>
      <vel value="0.2435719503" flag="0"/>
      <psa03 value="0.9694764033" flag="0"/>
      <psa10 value="0.1995334356" flag="0"/>
      <psa30 value="0.0201839433" flag="0"/>
    </comp>
    <comp name="--.HHN">
      <acc value="1.2503355890" flag="0"/>
      <vel value="0.3816532383" flag="0"/>
      <psa03 value="1.7006721300" flag="0"/>
      <psa10 value="0.1607178093" flag="0"/>
      <psa30 value="0.0189848934" flag="0"/>
    </comp>
    <comp name="--.HHZ">
      <acc value="0.9041270117" flag="0"/>
      <vel value="0.2287584315" flag="0"/>
      <psa03 value="1.2201389431" flag="0"/>
      <psa10 value="0.0673071416" flag="0"/>
      <psa30 value="0.0108256286" flag="0"/>
    </comp>
  </station>
</stationlist>
