<stationlist created="1738503135">
	<station code="BODA" name="BODA" netid="KO" source="Bogazici University Kandilli Observatory And Earthquake Research Institute (KOERI)" insttype="" lat="37.0348" lon="27.4304">
		<comp name=".HNE" depth="0.0">
			<acc value="0.0015063955006902" flag="0"/>
			<vel value="0.000306750160063" flag="0"/>
			<psa03 value="0.000775397313532087" flag="0"/>
			<psa10 value="0.000113266482840808" flag="0"/>
			<psa30 value="3.71382935630259e-05" flag="0"/>
		</comp>
		<comp name=".HNN" depth="0.0">
			<acc value="0.002703368870046" flag="0"/>
			<vel value="0.000510203128529" flag="0"/>
			<psa03 value="0.000782328680902861" flag="0"/>
			<psa10 value="5.39981352167726e-05" flag="0"/>
			<psa30 value="3.71547139216248e-05" flag="0"/>
		</comp>
		<comp name=".HNZ" depth="0.0">
			<acc value="0.0090051956716908" flag="0"/>
			<vel value="0.00108828013195" flag="0"/>
			<psa03 value="0.000811923170690355" flag="0"/>
			<psa10 value="0.000104613700163563" flag="0"/>
			<psa30 value="5.37781719149777e-05" flag="0"/>
		</comp>
	</station>
	<station code="BODM" name="BODM" netid="KO" source="Bogazici University Kandilli Observatory And Earthquake Research Institute (KOERI)" insttype="" lat="37.031" lon="27.4247">
		<comp name=".HNE" depth="0.0">
			<acc value="0.0004860876681276" flag="0"/>
			<vel value="0.00031946852214" flag="0"/>
			<psa03 value="0.000983678038190163" flag="0"/>
			<psa10 value="0.000171588149099349" flag="0"/>
			<psa30 value="6.3162777974133e-05" flag="0"/>
		</comp>
		<comp name=".HNN" depth="0.0">
			<acc value="0.00077878059139746" flag="0"/>
			<vel value="0.000301307971588" flag="0"/>
			<psa03 value="0.000967556364741833" flag="0"/>
			<psa10 value="0.00026898393214661" flag="0"/>
			<psa30 value="4.31359011615585e-05" flag="0"/>
		</comp>
		<comp name=".HNZ" depth="0.0">
			<acc value="0.00045319107220602" flag="0"/>
			<vel value="0.000283192327638" flag="0"/>
			<psa03 value="0.000270435049597516" flag="0"/>
			<psa10 value="9.917592050379e-05" flag="0"/>
			<psa30 value="7.36187440682096e-05" flag="0"/>
		</comp>
	</station>
	<station code="CESE" name="CESE" netid="KO" source="Bogazici University Kandilli Observatory And Earthquake Research Institute (KOERI)" insttype="" lat="38.3306" lon="26.2997">
		<comp name=".HNE" depth="0.0">
			<acc value="0.00074201254033272" flag="0"/>
			<vel value="0.000459996372595" flag="0"/>
			<psa03 value="0.000356116934098088" flag="0"/>
			<psa10 value="0.000255869811447554" flag="0"/>
			<psa30 value="0.000155811129014413" flag="0"/>
		</comp>
		<comp name=".HNN" depth="0.0">
			<acc value="0.0011083791767034" flag="0"/>
			<vel value="0.00108111537036" flag="0"/>
			<psa03 value="0.000290659757711958" flag="0"/>
			<psa10 value="0.000317762124400002" flag="0"/>
			<psa30 value="0.00022942295856161" flag="0"/>
		</comp>
		<comp name=".HNZ" depth="0.0">
			<acc value="0.00045677870099046" flag="0"/>
			<vel value="0.000491234040949" flag="0"/>
			<psa03 value="0.000353706984411825" flag="0"/>
			<psa10 value="0.000268997526797056" flag="0"/>
			<psa30 value="0.000135522011522215" flag="0"/>
		</comp>
	</station>
	<station code="DATC" name="DATC" netid="KO" source="Bogazici University Kandilli Observatory And Earthquake Research Institute (KOERI)" insttype="" lat="36.7584" lon="27.6602">
		<comp name=".HNE" depth="0.0">
			<acc value="0.0044523910349082" flag="0"/>
			<vel value="0.00136781196277" flag="0"/>
			<psa03 value="0.00119521483792415" flag="0"/>
			<psa10 value="0.000325436832030447" flag="0"/>
			<psa30 value="0.000213784409563722" flag="0"/>
		</comp>
		<comp name=".HNN" depth="0.0">
			<acc value="0.0052913936423976" flag="0"/>
			<vel value="0.00129629673964" flag="0"/>
			<psa03 value="0.00196227452230791" flag="0"/>
			<psa10 value="0.000433853789511314" flag="0"/>
			<psa30 value="0.000242431007781292" flag="0"/>
		</comp>
		<comp name=".HNZ" depth="0.0">
			<acc value="0.0090339920183286" flag="0"/>
			<vel value="0.00149753781428" flag="0"/>
			<psa03 value="0.00129310055414236" flag="0"/>
			<psa10 value="0.000598181677383665" flag="0"/>
			<psa30 value="0.000347201229544121" flag="0"/>
		</comp>
	</station>
	<station code="DIDI" name="DIDI" netid="KO" source="Bogazici University Kandilli Observatory And Earthquake Research Institute (KOERI)" insttype="" lat="37.3767" lon="27.2398">
		<comp name=".HNE" depth="0.0">
			<acc value="0.0019319102694486" flag="0"/>
			<vel value="0.000756738764626" flag="0"/>
			<psa03 value="0.00108858025112021" flag="0"/>
			<psa10 value="0.000299964734472724" flag="0"/>
			<psa30 value="0.000229710425521479" flag="0"/>
		</comp>
		<comp name=".HNN" depth="0.0">
			<acc value="0.0027987612223566" flag="0"/>
			<vel value="0.00166993338889" flag="0"/>
			<psa03 value="0.00143101309186365" flag="0"/>
			<psa10 value="0.000591851902597931" flag="0"/>
			<psa30 value="0.000614935528126404" flag="0"/>
		</comp>
		<comp name=".HNZ" depth="0.0">
			<acc value="0.012988380574002" flag="0"/>
			<vel value="0.0011136083338" flag="0"/>
			<psa03 value="0.000717182845131931" flag="0"/>
			<psa10 value="0.000269117974229426" flag="0"/>
			<psa30 value="0.000144193744836374" flag="0"/>
		</comp>
	</station>
	<station code="GMLD" name="GMLD" netid="KO" source="Bogazici University Kandilli Observatory And Earthquake Research Institute (KOERI)" insttype="" lat="38.0766" lon="26.9157">
		<comp name=".HNE" depth="0.0">
			<acc value="0.0" flag="1"/>
			<vel value="0.0" flag="1"/>
			<psa03 value="0.0" flag="1"/>
			<psa10 value="0.0" flag="1"/>
			<psa30 value="0.0" flag="1"/>
		</comp>
		<comp name=".HNN" depth="0.0">
			<acc value="4.1675872216224e-09" flag="0"/>
			<vel value="5.17379456151e-08" flag="0"/>
			<psa03 value="1.15910666628908e-06" flag="0"/>
			<psa10 value="2.14006906094313e-07" flag="0"/>
			<psa30 value="8.67143155137603e-08" flag="0"/>
		</comp>
		<comp name=".HNZ" depth="0.0">
			<acc value="0.00060433633863408" flag="0"/>
			<vel value="0.000124206636514" flag="0"/>
			<psa03 value="0.000487649329116016" flag="0"/>
			<psa10 value="0.000162470328291559" flag="0"/>
			<psa30 value="7.11089358782692e-05" flag="0"/>
		</comp>
	</station>
	<station code="KUSD" name="KUSD" netid="KO" source="Bogazici University Kandilli Observatory And Earthquake Research Institute (KOERI)" insttype="" lat="37.8606" lon="27.2868">
		<comp name=".HNE" depth="0.0">
			<acc value="0.0004726311075333" flag="0"/>
			<vel value="0.000539014852262" flag="0"/>
			<psa03 value="0.000373503665310913" flag="0"/>
			<psa10 value="0.00022127606958644" flag="0"/>
			<psa30 value="0.000177012780915537" flag="0"/>
		</comp>
		<comp name=".HNN" depth="0.0">
			<acc value="0.0006118175264268" flag="0"/>
			<vel value="0.000459173234571" flag="0"/>
			<psa03 value="0.000465797336279431" flag="0"/>
			<psa10 value="0.00030362122669759" flag="0"/>
			<psa30 value="0.000156400998819622" flag="0"/>
		</comp>
		<comp name=".HNZ" depth="0.0">
			<acc value="0.00064366531125192" flag="0"/>
			<vel value="0.00061079935341" flag="0"/>
			<psa03 value="0.000512082222088316" flag="0"/>
			<psa10 value="0.000374772697945618" flag="0"/>
			<psa30 value="0.00023424530926881" flag="0"/>
		</comp>
	</station>
	<station code="YKAV" name="YKAV" netid="KO" source="Bogazici University Kandilli Observatory And Earthquake Research Institute (KOERI)" insttype="" lat="37.1246" lon="27.2801">
		<comp name=".HNE" depth="0.0">
			<acc value="0.0012437653866102" flag="0"/>
			<vel value="0.000747191828905" flag="0"/>
			<psa03 value="0.00134110039730824" flag="0"/>
			<psa10 value="0.000657752440058312" flag="0"/>
			<psa30 value="0.0002917043239798" flag="0"/>
		</comp>
		<comp name=".HNN" depth="0.0">
			<acc value="0.0020567543052288" flag="0"/>
			<vel value="0.00101748708821" flag="0"/>
			<psa03 value="0.00332223375355817" flag="0"/>
			<psa10 value="0.000373142570426573" flag="0"/>
			<psa30 value="0.000139534621088093" flag="0"/>
		</comp>
		<comp name=".HNZ" depth="0.0">
			<acc value="0.0033276490064544" flag="0"/>
			<vel value="0.00165426724162" flag="0"/>
			<psa03 value="0.00516565860577482" flag="0"/>
			<psa10 value="0.00188508323688676" flag="0"/>
			<psa30 value="0.000203978929269634" flag="0"/>
		</comp>
	</station>
</stationlist>
