<?xml version="1.0" encoding="UTF-8" standalone="yes"?>
<!DOCTYPE earthquake SYSTEM "stationlist.dtd">
<stationlist created="" xmlns="ch.ethz.sed.shakemap.usgs.xml">
  <station code="ZKR" name="ZKR" netid="GE" insttype="STS-2/N" lat="35.1147" lon="26.2169">
    <comp name="--.HHE">
      <acc value="0.0152373887" flag="0"/>
      <vel value="0.0053010898" flag="0"/>
      <psa03 value="0.0347913368" flag="0"/>
      <psa10 value="0.0076514128" flag="0"/>
      <psa30 value="0.0004305980" flag="0"/>
    </comp>
    <comp name="--.HHN">
      <acc value="0.0065284592" flag="0"/>
      <vel value="0.0030945912" flag="0"/>
      <psa03 value="0.0182323271" flag="0"/>
      <psa10 value="0.0025024286" flag="0"/>
      <psa30 value="0.0002944772" flag="0"/>
    </comp>
    <comp name="--.HHZ">
      <acc value="0.0072018553" flag="0"/>
      <vel value="0.0038867112" flag="0"/>
      <psa03 value="0.0137117213" flag="0"/>
      <psa10 value="0.0040326362" flag="0"/>
      <psa30 value="0.0003945817" flag="0"/>
    </comp>
  </station>
  <station code="STIA" name="STIA" netid="HC" insttype="120" lat="35.2021" lon="26.0909">
    <comp name="--.HHE">
      <acc value="0.0138073049" flag="0"/>
      <vel value="0.0092837165" flag="0"/>
      <psa03 value="0.0432949425" flag="0"/>
      <psa10 value="0.0098980923" flag="0"/>
      <psa30 value="0.0004877246" flag="0"/>
    </comp>
    <comp name="--.HHN">
      <acc value="0.0139111026" flag="0"/>
      <vel value="0.0085801875" flag="0"/>
      <psa03 value="0.0354172380" flag="0"/>
      <psa10 value="0.0076117321" flag="0"/>
      <psa30 value="0.0006332810" flag="0"/>
    </comp>
    <comp name="--.HHZ">
      <acc value="0.0129114106" flag="0"/>
      <vel value="0.0053945755" flag="0"/>
      <psa03 value="0.0219346420" flag="0"/>
      <psa10 value="0.0033007683" flag="0"/>
      <psa30 value="0.0002725939" flag="0"/>
    </comp>
  </station>
  <station code="SIT2" name="SIT2" netid="HI" insttype="CMG-5TD,ACCELEROMETER,GURALP" lat="35.2059" lon="26.107">
    <comp name="--.HNN">
      <acc value="0.0439785675" flag="0"/>
      <vel value="0.0323167552" flag="0"/>
      <psa03 value="0.1537295072" flag="0"/>
      <psa10 value="0.0135527334" flag="0"/>
      <psa30 value="0.0014810458" flag="0"/>
    </comp>
    <comp name="--.HNE">
      <acc value="0.0440739683" flag="0"/>
      <vel value="0.0267683584" flag="0"/>
      <psa03 value="0.1045584226" flag="0"/>
      <psa10 value="0.0132031171" flag="0"/>
      <psa30 value="0.0053264511" flag="0"/>
    </comp>
    <comp name="--.HNZ">
      <acc value="0.0316189307" flag="0"/>
      <vel value="0.0121350230" flag="0"/>
      <psa03 value="0.0736980766" flag="0"/>
      <psa10 value="0.0035154693" flag="0"/>
      <psa30 value="0.0003066840" flag="0"/>
    </comp>
  </station>
  <station code="NPS" name="NPS" netid="HL" insttype="CMG3ESPC-120s" lat="35.2613" lon="25.6104">
    <comp name="--.HHE">
      <acc value="0.0021747280" flag="0"/>
      <vel value="0.0014300798" flag="0"/>
      <psa03 value="0.0086726224" flag="0"/>
      <psa10 value="0.0019518323" flag="0"/>
      <psa30 value="0.0001400106" flag="0"/>
    </comp>
    <comp name="--.HHZ">
      <acc value="0.0027514901" flag="0"/>
      <vel value="0.0014655238" flag="0"/>
      <psa03 value="0.0073292645" flag="0"/>
      <psa10 value="0.0015914791" flag="0"/>
      <psa30 value="0.0002422738" flag="0"/>
    </comp>
    <comp name="--.HHN">
      <acc value="0.0040085467" flag="0"/>
      <vel value="0.0029899674" flag="0"/>
      <psa03 value="0.0139331621" flag="0"/>
      <psa10 value="0.0040068074" flag="0"/>
      <psa30 value="0.0002051723" flag="0"/>
    </comp>
  </station>
  <station code="ZKR" name="ZKR" netid="HL" insttype="120" lat="35.1147" lon="26.2169">
    <comp name="--.HHE">
      <acc value="0.0147107798" flag="0"/>
      <vel value="0.0051998087" flag="0"/>
      <psa03 value="0.0338341449" flag="0"/>
      <psa10 value="0.0075915884" flag="0"/>
      <psa30 value="0.0004310969" flag="0"/>
    </comp>
    <comp name="--.HHN">
      <acc value="0.0063789930" flag="0"/>
      <vel value="0.0030229731" flag="0"/>
      <psa03 value="0.0177183226" flag="0"/>
      <psa10 value="0.0024833761" flag="0"/>
      <psa30 value="0.0002932837" flag="0"/>
    </comp>
    <comp name="--.HHZ">
      <acc value="0.0073186626" flag="0"/>
      <vel value="0.0037963818" flag="0"/>
      <psa03 value="0.0133562130" flag="0"/>
      <psa10 value="0.0040067982" flag="0"/>
      <psa30 value="0.0003941637" flag="0"/>
    </comp>
  </station>
</stationlist>
