<?xml version="1.0" encoding="UTF-8" standalone="yes"?>
<!DOCTYPE earthquake SYSTEM "stationlist.dtd">
<stationlist created="" xmlns="ch.ethz.sed.shakemap.usgs.xml">
  <station code="KARP" name="KARP" netid="GE" insttype="STS-2/N" lat="35.5471" lon="27.1611">
    <comp name="--.HHE">
      <acc value="0.0262409007" flag="0"/>
      <vel value="0.0077501338" flag="0"/>
      <psa03 value="0.0421882909" flag="0"/>
      <psa10 value="0.0125471727" flag="0"/>
      <psa30 value="0.0011179616" flag="0"/>
    </comp>
    <comp name="--.HHN">
      <acc value="0.0214506901" flag="0"/>
      <vel value="0.0080563369" flag="0"/>
      <psa03 value="0.0478795679" flag="0"/>
      <psa10 value="0.0078311948" flag="0"/>
      <psa30 value="0.0007069055" flag="0"/>
    </comp>
    <comp name="--.HHZ">
      <acc value="0.0125764859" flag="0"/>
      <vel value="0.0056001575" flag="0"/>
      <psa03 value="0.0358531713" flag="0"/>
      <psa10 value="0.0074950823" flag="0"/>
      <psa30 value="0.0007007769" flag="0"/>
    </comp>
  </station>
  <station code="ZKR" name="ZKR" netid="GE" insttype="STS-2/N" lat="35.1147" lon="26.2169">
    <comp name="--.HHN">
      <acc value="0.0065284591" flag="0"/>
      <vel value="0.0030945913" flag="0"/>
      <psa03 value="0.0182323271" flag="0"/>
      <psa10 value="0.0025024286" flag="0"/>
      <psa30 value="0.0002944772" flag="0"/>
    </comp>
    <comp name="--.HHE">
      <acc value="0.0152373886" flag="0"/>
      <vel value="0.0053010897" flag="0"/>
      <psa03 value="0.0347913368" flag="0"/>
      <psa10 value="0.0076514128" flag="0"/>
      <psa30 value="0.0004305946" flag="0"/>
    </comp>
    <comp name="--.HHZ">
      <acc value="0.0072018555" flag="0"/>
      <vel value="0.0038867114" flag="0"/>
      <psa03 value="0.0137117213" flag="0"/>
      <psa10 value="0.0040326362" flag="0"/>
      <psa30 value="0.0003945612" flag="0"/>
    </comp>
  </station>
  <station code="STIA" name="STIA" netid="HC" insttype="120" lat="35.2021" lon="26.0909">
    <comp name="--.HHZ">
      <acc value="0.0129114106" flag="0"/>
      <vel value="0.0053945757" flag="0"/>
      <psa03 value="0.0219346420" flag="0"/>
      <psa10 value="0.0033007682" flag="0"/>
      <psa30 value="0.0002725907" flag="0"/>
    </comp>
    <comp name="--.HHN">
      <acc value="0.0139111026" flag="0"/>
      <vel value="0.0085801870" flag="0"/>
      <psa03 value="0.0354172380" flag="0"/>
      <psa10 value="0.0076117321" flag="0"/>
      <psa30 value="0.0006332953" flag="0"/>
    </comp>
    <comp name="--.HHE">
      <acc value="0.0138073050" flag="0"/>
      <vel value="0.0092837163" flag="0"/>
      <psa03 value="0.0432949425" flag="0"/>
      <psa10 value="0.0098980923" flag="0"/>
      <psa30 value="0.0004877255" flag="0"/>
    </comp>
  </station>
  <station code="KARP" name="KARP" netid="HL" insttype="120" lat="35.5471" lon="27.1611">
    <comp name="--.HHN">
      <acc value="0.0205289099" flag="0"/>
      <vel value="0.0078541569" flag="0"/>
      <psa03 value="0.0465158700" flag="0"/>
      <psa10 value="0.0077598541" flag="0"/>
      <psa30 value="0.0007050932" flag="0"/>
    </comp>
    <comp name="--.HHE">
      <acc value="0.0251405037" flag="0"/>
      <vel value="0.0075165735" flag="0"/>
      <psa03 value="0.0409721168" flag="0"/>
      <psa10 value="0.0124732089" flag="0"/>
      <psa30 value="0.0011166185" flag="0"/>
    </comp>
    <comp name="--.HHZ">
      <acc value="0.0118744234" flag="0"/>
      <vel value="0.0054500229" flag="0"/>
      <psa03 value="0.0347368616" flag="0"/>
      <psa10 value="0.0074487393" flag="0"/>
      <psa30 value="0.0006998027" flag="0"/>
    </comp>
  </station>
  <station code="NPS" name="NPS" netid="HL" insttype="CMG3ESPC-120s" lat="35.2613" lon="25.6104">
    <comp name="--.HHE">
      <acc value="0.0021747282" flag="0"/>
      <vel value="0.0014300795" flag="0"/>
      <psa03 value="0.0086726224" flag="0"/>
      <psa10 value="0.0019518323" flag="0"/>
      <psa30 value="0.0001400081" flag="0"/>
    </comp>
    <comp name="--.HHN">
      <acc value="0.0040085469" flag="0"/>
      <vel value="0.0029899671" flag="0"/>
      <psa03 value="0.0139331621" flag="0"/>
      <psa10 value="0.0040068074" flag="0"/>
      <psa30 value="0.0002051696" flag="0"/>
    </comp>
    <comp name="--.HHZ">
      <acc value="0.0027514900" flag="0"/>
      <vel value="0.0014655234" flag="0"/>
      <psa03 value="0.0073292645" flag="0"/>
      <psa10 value="0.0015914791" flag="0"/>
      <psa30 value="0.0002422731" flag="0"/>
    </comp>
  </station>
  <station code="ZKR" name="ZKR" netid="HL" insttype="120" lat="35.1147" lon="26.2169">
    <comp name="--.HHE">
      <acc value="0.0147107798" flag="0"/>
      <vel value="0.0051998085" flag="0"/>
      <psa03 value="0.0338341449" flag="0"/>
      <psa10 value="0.0075915884" flag="0"/>
      <psa30 value="0.0004310935" flag="0"/>
    </comp>
    <comp name="--.HHN">
      <acc value="0.0063789927" flag="0"/>
      <vel value="0.0030229732" flag="0"/>
      <psa03 value="0.0177183226" flag="0"/>
      <psa10 value="0.0024833760" flag="0"/>
      <psa30 value="0.0002932839" flag="0"/>
    </comp>
    <comp name="--.HHZ">
      <acc value="0.0073186629" flag="0"/>
      <vel value="0.0037963820" flag="0"/>
      <psa03 value="0.0133562130" flag="0"/>
      <psa10 value="0.0040067983" flag="0"/>
      <psa30 value="0.0003941432" flag="0"/>
    </comp>
  </station>
</stationlist>
