<stationlist created="1778138922">
	<station code="KSS1" name="KSS1" netid="HI" source="ITSAK Strong Motion Network" insttype="" lat="35.4189" lon="26.9207">
		<comp name="--.HNE" depth="0.0">
			<acc value="0.0280600800148921" flag="0"/>
			<vel value="0.0140258004945582" flag="0"/>
			<psa03 value="0.126221976169941" flag="0"/>
			<psa10 value="0.0110303394558399" flag="0"/>
			<psa30 value="0.00112354724199285" flag="0"/>
		</comp>
		<comp name="--.HNN" depth="0.0">
			<acc value="0.0383932056486092" flag="0"/>
			<vel value="0.0126648920046359" flag="0"/>
			<psa03 value="0.100878578543974" flag="0"/>
			<psa10 value="0.00737759701083288" flag="0"/>
			<psa30 value="0.00137435958624365" flag="0"/>
		</comp>
		<comp name="--.HNZ" depth="0.0">
			<acc value="0.0193805563075848" flag="0"/>
			<vel value="0.00706500394030914" flag="0"/>
			<psa03 value="0.0208244342040599" flag="0"/>
			<psa10 value="0.0103520179578711" flag="0"/>
			<psa30 value="0.000930435803470625" flag="0"/>
		</comp>
	</station>
	<station code="KARP" name="KARP" netid="HL" source="National Observatory of Athens Seismic Network" insttype="" lat="35.5471" lon="27.16106">
		<comp name="--.HNE" depth="0.0">
			<acc value="0.0258247141536645" flag="0"/>
			<vel value="0.00776542504940649" flag="0"/>
			<psa03 value="0.042965729081179" flag="0"/>
			<psa10 value="0.0126840133786296" flag="0"/>
			<psa30 value="0.00122702399264929" flag="0"/>
		</comp>
		<comp name="--.HNN" depth="0.0">
			<acc value="0.018596714211966" flag="0"/>
			<vel value="0.0079472517736456" flag="0"/>
			<psa03 value="0.0453056939880621" flag="0"/>
			<psa10 value="0.00778239038891479" flag="0"/>
			<psa30 value="0.000823253130228389" flag="0"/>
		</comp>
		<comp name="--.HNZ" depth="0.0">
			<acc value="0.0118643729686579" flag="0"/>
			<vel value="0.0055052891678554" flag="0"/>
			<psa03 value="0.0351022993133687" flag="0"/>
			<psa10 value="0.00744402234871679" flag="0"/>
			<psa30 value="0.000780768909607671" flag="0"/>
		</comp>
	</station>
	<station code="DATC" name="DATC" netid="KO" source="Bogazici University Kandilli Observatory And Earthquake Research Institute (KOERI)" insttype="" lat="36.7584" lon="27.6602">
		<comp name="--.HNE" depth="0.0">
			<acc value="0.0897199231676546" flag="0"/>
			<vel value="0.00721232731348614" flag="0"/>
			<psa03 value="0.0103562745940413" flag="0"/>
			<psa10 value="0.0036377698125206" flag="0"/>
			<psa30 value="0.000441257251960706" flag="0"/>
		</comp>
		<comp name="--.HNN" depth="0.0">
			<acc value="0.101739141924377" flag="0"/>
			<vel value="0.00885881285836003" flag="0"/>
			<psa03 value="0.0194086958870953" flag="0"/>
			<psa10 value="0.00360551111304087" flag="0"/>
			<psa30 value="0.00039593969260298" flag="0"/>
		</comp>
		<comp name="--.HNZ" depth="0.0">
			<acc value="0.126025525645067" flag="0"/>
			<vel value="0.0214663718017336" flag="0"/>
			<psa03 value="0.0240601589716264" flag="0"/>
			<psa10 value="0.00373211434363566" flag="0"/>
			<psa30 value="0.000449757710906155" flag="0"/>
		</comp>
	</station>
	<station code="YKAV" name="YKAV" netid="KO" source="Bogazici University Kandilli Observatory And Earthquake Research Institute (KOERI)" insttype="" lat="37.1246" lon="27.2801">
		<comp name="--.HNE" depth="0.0">
			<acc value="0.00306552177293617" flag="0"/>
			<vel value="0.000477619187658257" flag="0"/>
			<psa03 value="0.000847162891218071" flag="0"/>
			<psa10 value="0.000581019134197016" flag="0"/>
			<psa30 value="0.000296995612001614" flag="0"/>
		</comp>
		<comp name="--.HNN" depth="0.0">
			<acc value="0.00238386026801972" flag="0"/>
			<vel value="0.000473452958445252" flag="0"/>
			<psa03 value="0.000842620516739456" flag="0"/>
			<psa10 value="0.000562728879588565" flag="0"/>
			<psa30 value="0.000268721655657606" flag="0"/>
		</comp>
		<comp name="--.HNZ" depth="0.0">
			<acc value="0.00165429546553743" flag="0"/>
			<vel value="0.00065875771246569" flag="0"/>
			<psa03 value="0.00112726827950722" flag="0"/>
			<psa10 value="0.000626205643206954" flag="0"/>
			<psa30 value="0.000468029858847385" flag="0"/>
		</comp>
	</station>
</stationlist>
