<stationlist created="1778205392">
	<station code="3502" name="3502" netid="TK" source="Turkish National Strong Motion Network (TNSMN)" insttype="" lat="38.45514" lon="27.22673">
		<comp name="00.HNE" depth="None">
			<acc value="0.104196338787535" flag="0"/>
			<vel value="0.0560655839052221" flag="0"/>
			<psa03 value="0.388809775512782" flag="0"/>
			<psa10 value="0.0593872256885645" flag="0"/>
			<psa30 value="0.00317088018303692" flag="0"/>
		</comp>
		<comp name="00.HNN" depth="None">
			<acc value="0.139350484980255" flag="0"/>
			<vel value="0.0678305704617337" flag="0"/>
			<psa03 value="0.391404823496641" flag="0"/>
			<psa10 value="0.0309741347976972" flag="0"/>
			<psa30 value="0.00279236111504634" flag="0"/>
		</comp>
		<comp name="00.HNZ" depth="None">
			<acc value="0.0587618593255531" flag="0"/>
			<vel value="0.0298548154412448" flag="0"/>
			<psa03 value="0.17525522332377" flag="0"/>
			<psa10 value="0.0180239505141046" flag="0"/>
			<psa30 value="0.00127828484308402" flag="0"/>
		</comp>
	</station>
</stationlist>
