<?xml version="1.0" encoding="UTF-8" standalone="yes"?>
<!DOCTYPE earthquake SYSTEM "stationlist.dtd">
<stationlist created="" xmlns="ch.ethz.sed.shakemap.usgs.xml">
  <station code="TAHT" name="TAHT" netid="KO" insttype="CMG-3ESPC" lat="36.3755" lon="36.1855">
    <comp name="--.HHZ">
      <acc value="0.2683164854" flag="0"/>
      <vel value="0.1086142624" flag="0"/>
      <psa03 value="0.3815059180" flag="0"/>
      <psa10 value="0.1496372357" flag="0"/>
      <psa30 value="0.0176509511" flag="0"/>
    </comp>
  </station>
</stationlist>
