<?xml version="1.0" encoding="UTF-8" standalone="yes"?>
<!DOCTYPE earthquake SYSTEM "stationlist.dtd">
<stationlist created="" xmlns="ch.ethz.sed.shakemap.usgs.xml">
  <station code="IKAR" name="IKAR" netid="Z3" source="GFZ" insttype="CMG-3ESP/60" lat="37.6435" lon="26.305">
    <comp name="--.HHE">
      <acc value="0.5860264523" flag="0"/>
      <vel value="0.1622297526" flag="0"/>
      <psa03 value="0.8673594575" flag="0"/>
      <psa10 value="0.0817942167" flag="0"/>
      <psa30 value="0.0091815738" flag="0"/>
    </comp>
    <comp name="--.HHN">
      <acc value="0.4346435521" flag="0"/>
      <vel value="0.1223359873" flag="0"/>
      <psa03 value="0.7082053040" flag="0"/>
      <psa10 value="0.0482721866" flag="0"/>
      <psa30 value="0.0056258798" flag="0"/>
    </comp>
    <comp name="--.HHZ">
      <acc value="0.3756740805" flag="0"/>
      <vel value="0.0845654105" flag="0"/>
      <psa03 value="0.4243543205" flag="0"/>
      <psa10 value="0.0314437236" flag="0"/>
      <psa30 value="0.0034945740" flag="0"/>
    </comp>
  </station>
  <station code="LERO" name="LERO" netid="Z3" source="GFZ" insttype="CMG-3ESP/60" lat="37.1634" lon="26.8353">
    <comp name="--.HHE">
      <acc value="0.0332615746" flag="0"/>
      <vel value="0.0351949498" flag="0"/>
      <psa03 value="0.0991010741" flag="0"/>
      <psa10 value="0.0531880940" flag="0"/>
      <psa30 value="0.0098178131" flag="0"/>
    </comp>
    <comp name="--.HHN">
      <acc value="0.0240966746" flag="0"/>
      <vel value="0.0334924499" flag="0"/>
      <psa03 value="0.0555832405" flag="0"/>
      <psa10 value="0.0556315944" flag="0"/>
      <psa30 value="0.0039098451" flag="0"/>
    </comp>
    <comp name="--.HHZ">
      <acc value="0.0206622669" flag="0"/>
      <vel value="0.0177532321" flag="0"/>
      <psa03 value="0.0541601385" flag="0"/>
      <psa10 value="0.0301381695" flag="0"/>
      <psa30 value="0.0052347505" flag="0"/>
    </comp>
  </station>
  <station code="SAMO" name="SAMO" netid="Z3" source="GFZ" insttype="CMG-3ESP/60" lat="37.7043" lon="26.8377">
    <comp name="--.HHE">
      <acc value="0.2726408998" flag="0"/>
      <vel value="0.1246715991" flag="0"/>
      <psa03 value="0.4102860429" flag="0"/>
      <psa10 value="0.1342994511" flag="0"/>
      <psa30 value="0.0174336635" flag="0"/>
    </comp>
    <comp name="--.HHN">
      <acc value="0.3291295908" flag="0"/>
      <vel value="0.1402419339" flag="0"/>
      <psa03 value="0.4660255240" flag="0"/>
      <psa10 value="0.1024462794" flag="0"/>
      <psa30 value="0.0093169737" flag="0"/>
    </comp>
    <comp name="--.HHZ">
      <acc value="0.1365730560" flag="0"/>
      <vel value="0.0563412384" flag="0"/>
      <psa03 value="0.1144539572" flag="0"/>
      <psa10 value="0.0495408076" flag="0"/>
      <psa30 value="0.0040626119" flag="0"/>
    </comp>
  </station>
  <station code="TUR1" name="TUR1" netid="Z3" source="GFZ" insttype="CMG-3ESP/60" lat="38.0865" lon="26.8676">
    <comp name="--.HHE">
      <acc value="0.8215887392" flag="0"/>
      <vel value="0.3503644198" flag="0"/>
      <psa03 value="1.3570884706" flag="0"/>
      <psa10 value="0.5669166887" flag="0"/>
      <psa30 value="0.0379684672" flag="0"/>
    </comp>
    <comp name="--.HHN">
      <acc value="0.8926752713" flag="0"/>
      <vel value="0.3460350823" flag="0"/>
      <psa03 value="0.9552688495" flag="0"/>
      <psa10 value="0.4315246862" flag="0"/>
      <psa30 value="0.0244674781" flag="0"/>
    </comp>
    <comp name="--.HHZ">
      <acc value="0.6398428928" flag="0"/>
      <vel value="0.1846082440" flag="0"/>
      <psa03 value="0.4685369226" flag="0"/>
      <psa10 value="0.1772135346" flag="0"/>
      <psa30 value="0.0308672896" flag="0"/>
    </comp>
  </station>
  <station code="TUR2" name="TUR2" netid="Z3" source="GFZ" insttype="CMG-3ESP/60" lat="37.642" lon="27.2418">
    <comp name="--.HHE">
      <acc value="0.2066944805" flag="0"/>
      <vel value="0.1359875021" flag="0"/>
      <psa03 value="0.5550627936" flag="0"/>
      <psa10 value="0.1799255289" flag="0"/>
      <psa30 value="0.0199020221" flag="0"/>
    </comp>
    <comp name="--.HHN">
      <acc value="0.2314207563" flag="0"/>
      <vel value="0.1637787345" flag="0"/>
      <psa03 value="0.3663690237" flag="0"/>
      <psa10 value="0.3191092742" flag="0"/>
      <psa30 value="0.0178385733" flag="0"/>
    </comp>
    <comp name="--.HHZ">
      <acc value="0.1301533664" flag="0"/>
      <vel value="0.0998177597" flag="0"/>
      <psa03 value="0.2032487385" flag="0"/>
      <psa10 value="0.2146024373" flag="0"/>
      <psa30 value="0.0089253067" flag="0"/>
    </comp>
  </station>
  <station code="TUR3" name="TUR3" netid="Z3" source="GFZ" insttype="CMG-3ESP/60" lat="37.4663" lon="27.538">
    <comp name="--.HHE">
      <acc value="0.2391035967" flag="0"/>
      <vel value="0.2157391949" flag="0"/>
      <psa03 value="0.3652401288" flag="0"/>
      <psa10 value="0.2693832035" flag="0"/>
      <psa30 value="0.0156922499" flag="0"/>
    </comp>
    <comp name="--.HHN">
      <acc value="0.1716978462" flag="0"/>
      <vel value="0.1529245356" flag="0"/>
      <psa03 value="0.5071375508" flag="0"/>
      <psa10 value="0.1601471976" flag="0"/>
      <psa30 value="0.0122642583" flag="0"/>
    </comp>
    <comp name="--.HHZ">
      <acc value="0.0862398705" flag="0"/>
      <vel value="0.0574647530" flag="0"/>
      <psa03 value="0.2177628453" flag="0"/>
      <psa10 value="0.0585413639" flag="0"/>
      <psa30 value="0.0027994350" flag="0"/>
    </comp>
  </station>
  <station code="TUR5" name="TUR5" netid="Z3" source="GFZ" insttype="CMG-3ESP/60" lat="37.0302" lon="27.3167">
    <comp name="--.HHE">
      <acc value="0.0265875996" flag="0"/>
      <vel value="0.0362839984" flag="0"/>
      <psa03 value="0.0459865864" flag="0"/>
      <psa10 value="0.0871173734" flag="0"/>
      <psa30 value="0.0108264948" flag="0"/>
    </comp>
    <comp name="--.HHN">
      <acc value="0.0263307568" flag="0"/>
      <vel value="0.0242223524" flag="0"/>
      <psa03 value="0.0558741473" flag="0"/>
      <psa10 value="0.0435345953" flag="0"/>
      <psa30 value="0.0051036544" flag="0"/>
    </comp>
    <comp name="--.HHZ">
      <acc value="0.0198178165" flag="0"/>
      <vel value="0.0172466425" flag="0"/>
      <psa03 value="0.0435515203" flag="0"/>
      <psa10 value="0.0330839961" flag="0"/>
      <psa30 value="0.0024693075" flag="0"/>
    </comp>
  </station>
  <station code="AMOE" name="AMOE" netid="ZZ" source="GFZ" insttype="L4-3D" lat="36.915" lon="25.979">
    <comp name="--.HHE">
      <acc value="0.0680053501" flag="0"/>
      <vel value="0.0468860946" flag="0"/>
      <psa03 value="0.3537109646" flag="0"/>
      <psa10 value="0.1197227660" flag="0"/>
      <psa30 value="0.0084236897" flag="0"/>
    </comp>
    <comp name="--.HHN">
      <acc value="0.0904756054" flag="0"/>
      <vel value="0.0608098897" flag="0"/>
      <psa03 value="0.2264749214" flag="0"/>
      <psa10 value="0.0625716330" flag="0"/>
      <psa30 value="0.0053993401" flag="0"/>
    </comp>
    <comp name="--.HHZ">
      <acc value="0.0644203384" flag="0"/>
      <vel value="0.0364835853" flag="0"/>
      <psa03 value="0.1617711310" flag="0"/>
      <psa10 value="0.0475732523" flag="0"/>
      <psa30 value="0.0081651621" flag="0"/>
    </comp>
  </station>
</stationlist>
