<stationlist created="1778118982">
	<station code="1001" name="1001" netid="TK" source="Turkish National Strong Motion Network (TNSMN)" insttype="" lat="39.65003" lon="27.85686">
		<comp name="00.HNE" depth="None">
			<acc value="0.153295822016886" flag="0"/>
			<vel value="0.113566990122158" flag="0"/>
			<psa03 value="0.480039134807438" flag="0"/>
			<psa10 value="0.103299464374067" flag="0"/>
			<psa30 value="0.015590869318203" flag="0"/>
		</comp>
		<comp name="00.HNN" depth="None">
			<acc value="0.0962104996860343" flag="0"/>
			<vel value="0.107114850473883" flag="0"/>
			<psa03 value="0.399234709654839" flag="0"/>
			<psa10 value="0.17317247360569" flag="0"/>
			<psa30 value="0.0145027388532466" flag="0"/>
		</comp>
		<comp name="00.HNZ" depth="None">
			<acc value="0.0647674159175571" flag="0"/>
			<vel value="0.0399307392303762" flag="0"/>
			<psa03 value="0.274538179809716" flag="0"/>
			<psa10 value="0.0592785021264821" flag="0"/>
			<psa30 value="0.00957125283978069" flag="0"/>
		</comp>
	</station>
	<station code="2007" name="2007" netid="TK" source="Turkish National Strong Motion Network (TNSMN)" insttype="" lat="37.93252" lon="28.92294">
		<comp name="00.HNE" depth="None">
			<acc value="0.161816485163416" flag="0"/>
			<vel value="0.1455372932231" flag="0"/>
			<psa03 value="0.282726003620859" flag="0"/>
			<psa10 value="0.324141179754996" flag="0"/>
			<psa30 value="0.0313352044051066" flag="0"/>
		</comp>
		<comp name="00.HNN" depth="None">
			<acc value="0.150596319666064" flag="0"/>
			<vel value="0.215023881694621" flag="0"/>
			<psa03 value="0.418787053947024" flag="0"/>
			<psa10 value="0.245767598687968" flag="0"/>
			<psa30 value="0.0306367785597954" flag="0"/>
		</comp>
		<comp name="00.HNZ" depth="None">
			<acc value="0.0935981044286496" flag="0"/>
			<vel value="0.0878375784257528" flag="0"/>
			<psa03 value="0.0859945211203183" flag="0"/>
			<psa10 value="0.151472055973762" flag="0"/>
			<psa30 value="0.0210373381298452" flag="0"/>
		</comp>
	</station>
	<station code="3502" name="3502" netid="TK" source="Turkish National Strong Motion Network (TNSMN)" insttype="" lat="38.45514" lon="27.22673">
		<comp name="00.HNE" depth="None">
			<acc value="0.984281882073478" flag="0"/>
			<vel value="0.76649956644369" flag="0"/>
			<psa03 value="2.28113666222597" flag="0"/>
			<psa10 value="1.25011157042063" flag="0"/>
			<psa30 value="0.0730219657334166" flag="0"/>
		</comp>
		<comp name="00.HNN" depth="None">
			<acc value="1.34184586308092" flag="0"/>
			<vel value="1.14524042220262" flag="0"/>
			<psa03 value="3.20761353467052" flag="0"/>
			<psa10 value="1.30063581240018" flag="0"/>
			<psa30 value="0.127088895633002" flag="0"/>
		</comp>
		<comp name="00.HNZ" depth="None">
			<acc value="0.564668862416009" flag="0"/>
			<vel value="0.347656520971062" flag="0"/>
			<psa03 value="1.41318259603811" flag="0"/>
			<psa10 value="0.501340451956331" flag="0"/>
			<psa30 value="0.0335785786449468" flag="0"/>
		</comp>
	</station>
	<station code="4501" name="4501" netid="TK" source="Turkish National Strong Motion Network (TNSMN)" insttype="" lat="38.61259" lon="27.38138">
		<comp name="00.HNE" depth="0.0">
			<acc value="1.13011054278916" flag="0"/>
			<vel value="0.915342375256244" flag="0"/>
			<psa03 value="2.43012821026481" flag="0"/>
			<psa10 value="0.677891409583766" flag="0"/>
			<psa30 value="0.0719150435416805" flag="0"/>
		</comp>
		<comp name="00.HNN" depth="0.0">
			<acc value="0.859785199498838" flag="0"/>
			<vel value="0.482963142866413" flag="0"/>
			<psa03 value="2.22932518696201" flag="0"/>
			<psa10 value="0.531585736208216" flag="0"/>
			<psa30 value="0.0448894084780459" flag="0"/>
		</comp>
		<comp name="00.HNZ" depth="0.0">
			<acc value="0.696345984415942" flag="0"/>
			<vel value="0.464486957583748" flag="0"/>
			<psa03 value="1.5108548330858" flag="0"/>
			<psa10 value="0.589587743179879" flag="0"/>
			<psa30 value="0.0248820359445533" flag="0"/>
		</comp>
	</station>
</stationlist>
