<stationlist created="1675762339">
	<station code="CMRD" name="CMRD" netid="KO" source="Bogazici University Kandilli Observatory And Earthquake Research Institute (KOERI)" insttype="" lat="37.6623" lon="34.9902">
		<comp name=".HNE" depth="0.0">
			<acc value="0.00260783311516" flag="0"/>
			<vel value="0.00370738260228" flag="0"/>
			<psa03 value="0.00561810068723" flag="0"/>
			<psa10 value="0.00684997174577" flag="0"/>
			<psa30 value="0.00119607381735" flag="0"/>
		</comp>
		<comp name=".HNN" depth="0.0">
			<acc value="0.00354263354252" flag="0"/>
			<vel value="0.00530333667964" flag="0"/>
			<psa03 value="0.00636948640034" flag="0"/>
			<psa10 value="0.0114270332349" flag="0"/>
			<psa30 value="0.00132446805201" flag="0"/>
		</comp>
		<comp name=".HNZ" depth="0.0">
			<acc value="0.00291914404491" flag="0"/>
			<vel value="0.00381817801443" flag="0"/>
			<psa03 value="0.00688891338794" flag="0"/>
			<psa10 value="0.00687122112217" flag="0"/>
			<psa30 value="0.00129288345969" flag="0"/>
		</comp>
	</station>
	<station code="TUNC" name="TUNC" netid="KO" source="Bogazici University Kandilli Observatory And Earthquake Research Institute (KOERI)" insttype="" lat="39.6942" lon="37.5388">
		<comp name=".HNE" depth="0.0">
			<acc value="0.0214055504468" flag="0"/>
			<vel value="0.0192930047425" flag="0"/>
			<psa03 value="0.0393864737439" flag="0"/>
			<psa10 value="0.0294083325327" flag="0"/>
			<psa30 value="0.00226348681989" flag="0"/>
		</comp>
		<comp name=".HNN" depth="0.0">
			<acc value="0.01791731895" flag="0"/>
			<vel value="0.0165962637844" flag="0"/>
			<psa03 value="0.0363430637996" flag="0"/>
			<psa10 value="0.0247645199029" flag="0"/>
			<psa30 value="0.00250695607354" flag="0"/>
		</comp>
		<comp name=".HNZ" depth="0.0">
			<acc value="0.0106568473057" flag="0"/>
			<vel value="0.0140230867051" flag="0"/>
			<psa03 value="0.0255980889769" flag="0"/>
			<psa10 value="0.0164397315515" flag="0"/>
			<psa30 value="0.00478045834859" flag="0"/>
		</comp>
	</station>
</stationlist>
