<?xml version="1.0" encoding="UTF-8" standalone="yes"?>
<!DOCTYPE earthquake SYSTEM "stationlist.dtd">
<stationlist created="" xmlns="ch.ethz.sed.shakemap.usgs.xml">
  <station code="ADVT" name="ADVT" netid="KO" insttype="120SN" lat="40.4332" lon="29.7383">
    <comp name="--.HHE">
      <acc value="0.0103339007" flag="0"/>
      <vel value="0.0029371078" flag="0"/>
      <psa03 value="0.0111629157" flag="0"/>
      <psa10 value="0.0022656754" flag="0"/>
      <psa30 value="0.0001512446" flag="0"/>
    </comp>
    <comp name="--.HHN">
      <acc value="0.0126918942" flag="0"/>
      <vel value="0.0024767089" flag="0"/>
      <psa03 value="0.0093082913" flag="0"/>
      <psa10 value="0.0027728576" flag="0"/>
      <psa30 value="0.0002353047" flag="0"/>
    </comp>
    <comp name="--.HHZ">
      <acc value="0.0093612285" flag="0"/>
      <vel value="0.0022841860" flag="0"/>
      <psa03 value="0.0062210742" flag="0"/>
      <psa10 value="0.0013972317" flag="0"/>
      <psa30 value="0.0001343840" flag="0"/>
    </comp>
  </station>
  <station code="ARMT" name="ARMT" netid="KO" insttype="120s," lat="40.5683" lon="28.866">
    <comp name="--.HHN">
      <acc value="1.3844495740" flag="0"/>
      <vel value="0.2195473401" flag="0"/>
      <psa03 value="0.7090946720" flag="0"/>
      <psa10 value="0.0309532698" flag="0"/>
      <psa30 value="0.0025149171" flag="0"/>
    </comp>
    <comp name="--.HHE">
      <acc value="1.4915311610" flag="0"/>
      <vel value="0.2049561114" flag="0"/>
      <psa03 value="0.5997142170" flag="0"/>
      <psa10 value="0.0276771618" flag="0"/>
      <psa30 value="0.0025113879" flag="0"/>
    </comp>
    <comp name="--.HHZ">
      <acc value="1.0066691064" flag="0"/>
      <vel value="0.1334453816" flag="0"/>
      <psa03 value="0.3325253154" flag="0"/>
      <psa10 value="0.0240420628" flag="0"/>
      <psa30 value="0.0026213573" flag="0"/>
    </comp>
  </station>
  <station code="BGKT" name="BGKT" netid="KO" insttype="120s," lat="41.181" lon="28.773">
    <comp name="--.HHE">
      <acc value="0.0344750327" flag="0"/>
      <vel value="0.0085256299" flag="0"/>
      <psa03 value="0.0242132999" flag="0"/>
      <psa10 value="0.0035246699" flag="0"/>
      <psa30 value="0.0002608759" flag="0"/>
    </comp>
    <comp name="--.HHN">
      <acc value="0.0324695692" flag="0"/>
      <vel value="0.0065518011" flag="0"/>
      <psa03 value="0.0499362284" flag="0"/>
      <psa10 value="0.0026754306" flag="0"/>
      <psa30 value="0.0001947302" flag="0"/>
    </comp>
    <comp name="--.HHZ">
      <acc value="0.0125267344" flag="0"/>
      <vel value="0.0035447169" flag="0"/>
      <psa03 value="0.0201300548" flag="0"/>
      <psa10 value="0.0030414175" flag="0"/>
      <psa30 value="0.0001629439" flag="0"/>
    </comp>
  </station>
  <station code="BRGA" name="BRGA" netid="KO" insttype="CMG-5T" lat="40.8846" lon="29.065">
    <comp name="--.HNE">
      <acc value="0.0354550737" flag="0"/>
      <vel value="0.0121639874" flag="0"/>
      <psa03 value="0.0629942623" flag="0"/>
      <psa10 value="0.0084065261" flag="0"/>
      <psa30 value="0.0006526676" flag="0"/>
    </comp>
    <comp name="--.HNZ">
      <acc value="0.0533379021" flag="0"/>
      <vel value="0.0138744786" flag="0"/>
      <psa03 value="0.0556609334" flag="0"/>
      <psa10 value="0.0052476708" flag="0"/>
      <psa30 value="0.0005002249" flag="0"/>
    </comp>
    <comp name="--.HNN">
      <acc value="0.0637591285" flag="0"/>
      <vel value="0.0276140785" flag="0"/>
      <psa03 value="0.1250741247" flag="0"/>
      <psa10 value="0.0128736776" flag="0"/>
      <psa30 value="0.0013111744" flag="0"/>
    </comp>
  </station>
  <station code="BUYA" name="BUYA" netid="KO" insttype="CMG-5T" lat="40.8694" lon="29.1278">
    <comp name="--.HNZ">
      <acc value="0.1660426216" flag="0"/>
      <vel value="0.0269593085" flag="0"/>
      <psa03 value="0.0607795650" flag="0"/>
      <psa10 value="0.0063400789" flag="0"/>
      <psa30 value="0.0004629549" flag="0"/>
    </comp>
    <comp name="--.HNN">
      <acc value="0.1858264398" flag="0"/>
      <vel value="0.0401090465" flag="0"/>
      <psa03 value="0.0695973536" flag="0"/>
      <psa10 value="0.0098771671" flag="0"/>
      <psa30 value="0.0009438965" flag="0"/>
    </comp>
    <comp name="--.HNE">
      <acc value="0.0994154284" flag="0"/>
      <vel value="0.0224251386" flag="0"/>
      <psa03 value="0.0558342190" flag="0"/>
      <psa10 value="0.0066401800" flag="0"/>
      <psa30 value="0.0007932079" flag="0"/>
    </comp>
  </station>
  <station code="CAVI" name="CAVI" netid="KO" insttype="120s," lat="40.2018" lon="29.8377">
    <comp name="--.HHE">
      <acc value="0.0086566423" flag="0"/>
      <vel value="0.0055093747" flag="0"/>
      <psa03 value="0.0135317246" flag="0"/>
      <psa10 value="0.0051407954" flag="0"/>
      <psa30 value="0.0003423039" flag="0"/>
    </comp>
    <comp name="--.HHZ">
      <acc value="0.0000087710" flag="0"/>
      <vel value="0.0000009815" flag="0"/>
      <psa03 value="0.0000030748" flag="0"/>
      <psa10 value="0.0000009381" flag="0"/>
      <psa30 value="0.0000001895" flag="0"/>
    </comp>
    <comp name="--.HHN">
      <acc value="0.0056416517" flag="0"/>
      <vel value="0.0030992204" flag="0"/>
      <psa03 value="0.0072483240" flag="0"/>
      <psa10 value="0.0046014916" flag="0"/>
      <psa30 value="0.0003102315" flag="0"/>
    </comp>
  </station>
  <station code="CTKS" name="CTKS" netid="KO" insttype="30s," lat="41.2373" lon="28.5072">
    <comp name="--.HHZ">
      <acc value="0.0000154861" flag="0"/>
      <vel value="0.0000017707" flag="0"/>
      <psa03 value="0.0000057640" flag="0"/>
      <psa10 value="0.0000021316" flag="0"/>
      <psa30 value="0.0000003564" flag="0"/>
    </comp>
    <comp name="--.HHN">
      <acc value="0.0787333232" flag="0"/>
      <vel value="0.0103327253" flag="0"/>
      <psa03 value="0.0229522858" flag="0"/>
      <psa10 value="0.0034387672" flag="0"/>
      <psa30 value="0.0002409824" flag="0"/>
    </comp>
    <comp name="--.HHE">
      <acc value="0.0331226356" flag="0"/>
      <vel value="0.0052899137" flag="0"/>
      <psa03 value="0.0207464602" flag="0"/>
      <psa10 value="0.0018637907" flag="0"/>
      <psa30 value="0.0000964546" flag="0"/>
    </comp>
  </station>
  <station code="DST" name="DST" netid="KO" insttype="CMG-5T" lat="39.6041" lon="28.6267">
    <comp name="--.HNZ">
      <acc value="0.0289001521" flag="0"/>
      <vel value="0.0074656585" flag="0"/>
      <psa03 value="0.0627357601" flag="0"/>
      <psa10 value="0.0056902392" flag="0"/>
      <psa30 value="0.0003416456" flag="0"/>
    </comp>
    <comp name="--.HNE">
      <acc value="0.0381126484" flag="0"/>
      <vel value="0.0147254439" flag="0"/>
      <psa03 value="0.0536818624" flag="0"/>
      <psa10 value="0.0179854789" flag="0"/>
      <psa30 value="0.0011771721" flag="0"/>
    </comp>
    <comp name="--.HNN">
      <acc value="0.0448743168" flag="0"/>
      <vel value="0.0202720876" flag="0"/>
      <psa03 value="0.0755334392" flag="0"/>
      <psa10 value="0.0207562335" flag="0"/>
      <psa30 value="0.0008213769" flag="0"/>
    </comp>
  </station>
  <station code="EDC" name="EDC" netid="KO" insttype="120s," lat="40.3465" lon="27.8618">
    <comp name="--.HHE">
      <acc value="0.0874779437" flag="0"/>
      <vel value="0.0220910012" flag="0"/>
      <psa03 value="0.0869836988" flag="0"/>
      <psa10 value="0.0092439127" flag="0"/>
      <psa30 value="0.0005890365" flag="0"/>
    </comp>
    <comp name="--.HHN">
      <acc value="0.1144653202" flag="0"/>
      <vel value="0.0227110548" flag="0"/>
      <psa03 value="0.1826176749" flag="0"/>
      <psa10 value="0.0140608227" flag="0"/>
      <psa30 value="0.0006188649" flag="0"/>
    </comp>
    <comp name="--.HHZ">
      <acc value="0.0709858210" flag="0"/>
      <vel value="0.0142513271" flag="0"/>
      <psa03 value="0.0311778825" flag="0"/>
      <psa10 value="0.0034567588" flag="0"/>
      <psa30 value="0.0001969100" flag="0"/>
    </comp>
  </station>
  <station code="GEML" name="GEML" netid="KO" insttype="120s," lat="40.4646" lon="29.2116">
    <comp name="--.HHZ">
      <acc value="0.3432116699" flag="0"/>
      <vel value="0.0403257335" flag="0"/>
      <psa03 value="0.0644728744" flag="0"/>
      <psa10 value="0.0226491475" flag="0"/>
      <psa30 value="0.0009704626" flag="0"/>
    </comp>
    <comp name="--.HHN">
      <acc value="0.4864315079" flag="0"/>
      <vel value="0.0622784405" flag="0"/>
      <psa03 value="0.1745374114" flag="0"/>
      <psa10 value="0.0226757968" flag="0"/>
      <psa30 value="0.0017124497" flag="0"/>
    </comp>
    <comp name="--.HHE">
      <acc value="1.1907667208" flag="0"/>
      <vel value="0.1049224696" flag="0"/>
      <psa03 value="0.2950414398" flag="0"/>
      <psa10 value="0.0437627989" flag="0"/>
      <psa30 value="0.0021640366" flag="0"/>
    </comp>
  </station>
  <station code="GONE" name="GONE" netid="KO" insttype="CMG-5T" lat="40.0466" lon="27.686">
    <comp name="--.HNE">
      <acc value="0.0316879506" flag="0"/>
      <vel value="0.0115090916" flag="0"/>
      <psa03 value="0.0479975734" flag="0"/>
      <psa10 value="0.0067608669" flag="0"/>
      <psa30 value="0.0005640125" flag="0"/>
    </comp>
    <comp name="--.HNN">
      <acc value="0.0496580586" flag="0"/>
      <vel value="0.0125677102" flag="0"/>
      <psa03 value="0.0402805741" flag="0"/>
      <psa10 value="0.0091637537" flag="0"/>
      <psa30 value="0.0003961552" flag="0"/>
    </comp>
    <comp name="--.HNZ">
      <acc value="0.0196370316" flag="0"/>
      <vel value="0.0042488118" flag="0"/>
      <psa03 value="0.0178322821" flag="0"/>
      <psa10 value="0.0033741559" flag="0"/>
      <psa30 value="0.0001915710" flag="0"/>
    </comp>
  </station>
  <station code="HRTX" name="HRTX" netid="KO" insttype="-3ESP," lat="40.801" lon="29.673">
    <comp name="--.HHN">
      <acc value="0.0004710705" flag="0"/>
      <vel value="0.0001422163" flag="0"/>
      <psa03 value="0.0004673007" flag="0"/>
      <psa10 value="0.0000896111" flag="0"/>
      <psa30 value="0.0000087233" flag="0"/>
    </comp>
    <comp name="--.HHZ">
      <acc value="0.0005640221" flag="0"/>
      <vel value="0.0001465207" flag="0"/>
      <psa03 value="0.0003574917" flag="0"/>
      <psa10 value="0.0000851019" flag="0"/>
      <psa30 value="0.0000089028" flag="0"/>
    </comp>
    <comp name="--.HHE">
      <acc value="0.0006951681" flag="0"/>
      <vel value="0.0001960906" flag="0"/>
      <psa03 value="0.0010589893" flag="0"/>
      <psa10 value="0.0000867355" flag="0"/>
      <psa30 value="0.0000112560" flag="0"/>
    </comp>
  </station>
  <station code="HYBA" name="HYBA" netid="KO" insttype="CMG-5T" lat="40.8754" lon="29.0854">
    <comp name="--.HNZ">
      <acc value="0.0449538914" flag="0"/>
      <vel value="0.0083443665" flag="0"/>
      <psa03 value="0.0203995442" flag="0"/>
      <psa10 value="0.0065933687" flag="0"/>
      <psa30 value="0.0003304875" flag="0"/>
    </comp>
    <comp name="--.HNN">
      <acc value="0.0548512736" flag="0"/>
      <vel value="0.0264366941" flag="0"/>
      <psa03 value="0.0723531139" flag="0"/>
      <psa10 value="0.0106657999" flag="0"/>
      <psa30 value="0.0010095270" flag="0"/>
    </comp>
    <comp name="--.HNE">
      <acc value="0.0699190963" flag="0"/>
      <vel value="0.0140508714" flag="0"/>
      <psa03 value="0.0269691203" flag="0"/>
      <psa10 value="0.0055119004" flag="0"/>
      <psa30 value="0.0007217920" flag="0"/>
    </comp>
  </station>
  <station code="ISK" name="ISK" netid="KO" insttype="120s," lat="41.0615" lon="29.0592">
    <comp name="--.HHN">
      <acc value="0.0289684614" flag="0"/>
      <vel value="0.0044303459" flag="0"/>
      <psa03 value="0.0155339766" flag="0"/>
      <psa10 value="0.0018569519" flag="0"/>
      <psa30 value="0.0001422294" flag="0"/>
    </comp>
    <comp name="--.HHE">
      <acc value="0.0339453086" flag="0"/>
      <vel value="0.0044517463" flag="0"/>
      <psa03 value="0.0118630769" flag="0"/>
      <psa10 value="0.0037275839" flag="0"/>
      <psa30 value="0.0003109449" flag="0"/>
    </comp>
    <comp name="--.HHZ">
      <acc value="0.0264971145" flag="0"/>
      <vel value="0.0071894791" flag="0"/>
      <psa03 value="0.0179182218" flag="0"/>
      <psa10 value="0.0044716135" flag="0"/>
      <psa30 value="0.0003724281" flag="0"/>
    </comp>
  </station>
  <station code="IZI" name="IZI" netid="KO" insttype="CMG-5T" lat="40.3483" lon="29.4612">
    <comp name="--.HNZ">
      <acc value="0.0461306424" flag="0"/>
      <vel value="0.0142897830" flag="0"/>
      <psa03 value="0.0381879786" flag="0"/>
      <psa10 value="0.0086309155" flag="0"/>
      <psa30 value="0.0006829167" flag="0"/>
    </comp>
    <comp name="--.HNN">
      <acc value="0.1057553923" flag="0"/>
      <vel value="0.0409978051" flag="0"/>
      <psa03 value="0.0667763762" flag="0"/>
      <psa10 value="0.0169220478" flag="0"/>
      <psa30 value="0.0011851906" flag="0"/>
    </comp>
    <comp name="--.HNE">
      <acc value="0.0443093310" flag="0"/>
      <vel value="0.0140376841" flag="0"/>
      <psa03 value="0.0567872723" flag="0"/>
      <psa10 value="0.0079606900" flag="0"/>
      <psa30 value="0.0007800969" flag="0"/>
    </comp>
  </station>
  <station code="KAVV" name="KAVV" netid="KO" insttype="CMG-3ESPC" lat="41.0638" lon="29.06">
    <comp name="--.HHZ">
      <acc value="0.0324133058" flag="0"/>
      <vel value="0.0085879545" flag="0"/>
      <psa03 value="0.0286190467" flag="0"/>
      <psa10 value="0.0047503454" flag="0"/>
      <psa30 value="0.0004312966" flag="0"/>
    </comp>
    <comp name="--.HHN">
      <acc value="0.0415183618" flag="0"/>
      <vel value="0.0073257959" flag="0"/>
      <psa03 value="0.0394562587" flag="0"/>
      <psa10 value="0.0024797871" flag="0"/>
      <psa30 value="0.0002186267" flag="0"/>
    </comp>
    <comp name="--.HHE">
      <acc value="0.0525671549" flag="0"/>
      <vel value="0.0119878640" flag="0"/>
      <psa03 value="0.0362146473" flag="0"/>
      <psa10 value="0.0041139333" flag="0"/>
      <psa30 value="0.0003541460" flag="0"/>
    </comp>
  </station>
  <station code="KLYT" name="KLYT" netid="KO" insttype="120s," lat="41.253" lon="29.042">
    <comp name="--.HHE">
      <acc value="0.0741084354" flag="0"/>
      <vel value="0.0178291705" flag="0"/>
      <psa03 value="0.0885064154" flag="0"/>
      <psa10 value="0.0066860028" flag="0"/>
      <psa30 value="0.0003655637" flag="0"/>
    </comp>
    <comp name="--.HHN">
      <acc value="0.0641047831" flag="0"/>
      <vel value="0.0170117889" flag="0"/>
      <psa03 value="0.0394917969" flag="0"/>
      <psa10 value="0.0062808010" flag="0"/>
      <psa30 value="0.0004715082" flag="0"/>
    </comp>
    <comp name="--.HHZ">
      <acc value="0.0385093101" flag="0"/>
      <vel value="0.0068667715" flag="0"/>
      <psa03 value="0.0199007406" flag="0"/>
      <psa10 value="0.0025169229" flag="0"/>
      <psa30 value="0.0001820858" flag="0"/>
    </comp>
  </station>
  <station code="LAFA" name="LAFA" netid="KO" insttype="CMG-5T" lat="40.7598" lon="29.3554">
    <comp name="--.HNE">
      <acc value="0.0276092201" flag="0"/>
      <vel value="0.0062708383" flag="0"/>
      <psa03 value="0.0196650594" flag="0"/>
      <psa10 value="0.0019195115" flag="0"/>
      <psa30 value="0.0003616235" flag="0"/>
    </comp>
    <comp name="--.HNZ">
      <acc value="0.1309120882" flag="0"/>
      <vel value="0.0279939833" flag="0"/>
      <psa03 value="0.0474601839" flag="0"/>
      <psa10 value="0.0040511105" flag="0"/>
      <psa30 value="0.0004595006" flag="0"/>
    </comp>
    <comp name="--.HNN">
      <acc value="0.2149079808" flag="0"/>
      <vel value="0.0507116745" flag="0"/>
      <psa03 value="0.1118746182" flag="0"/>
      <psa10 value="0.0051660271" flag="0"/>
      <psa30 value="0.0006053829" flag="0"/>
    </comp>
  </station>
  <station code="MDNY" name="MDNY" netid="KO" insttype="30s," lat="40.371" lon="28.8847">
    <comp name="--.HHZ">
      <acc value="1.2049772805" flag="0"/>
      <vel value="0.1950454923" flag="0"/>
      <psa03 value="0.5578410618" flag="0"/>
      <psa10 value="0.0334413208" flag="0"/>
      <psa30 value="0.0040216560" flag="0"/>
    </comp>
    <comp name="--.HHE">
      <acc value="0.9387791409" flag="0"/>
      <vel value="0.2099617975" flag="0"/>
      <psa03 value="0.7651401966" flag="0"/>
      <psa10 value="0.0402599648" flag="0"/>
      <psa30 value="0.0032003483" flag="0"/>
    </comp>
    <comp name="--.HHN">
      <acc value="1.4532119842" flag="0"/>
      <vel value="0.2584883228" flag="0"/>
      <psa03 value="1.2190170306" flag="0"/>
      <psa10 value="0.0612290146" flag="0"/>
      <psa30 value="0.0057278733" flag="0"/>
    </comp>
  </station>
  <station code="ORLT" name="ORLT" netid="KO" insttype="CMG-5T" lat="40.0452" lon="28.8914">
    <comp name="--.HNE">
      <acc value="0.0783058803" flag="0"/>
      <vel value="0.0200615972" flag="0"/>
      <psa03 value="0.1198033089" flag="0"/>
      <psa10 value="0.0151471041" flag="0"/>
      <psa30 value="0.0013067797" flag="0"/>
    </comp>
    <comp name="--.HNN">
      <acc value="0.1140556073" flag="0"/>
      <vel value="0.0563802834" flag="0"/>
      <psa03 value="0.2668220841" flag="0"/>
      <psa10 value="0.0283230460" flag="0"/>
      <psa30 value="0.0011271216" flag="0"/>
    </comp>
    <comp name="--.HNZ">
      <acc value="0.0451846766" flag="0"/>
      <vel value="0.0134048491" flag="0"/>
      <psa03 value="0.0567322101" flag="0"/>
      <psa10 value="0.0118083466" flag="0"/>
      <psa30 value="0.0004884618" flag="0"/>
    </comp>
  </station>
  <station code="OSMT" name="OSMT" netid="KO" insttype="CMG-5T" lat="40.6009" lon="29.7">
    <comp name="--.HNE">
      <acc value="0.0184571184" flag="0"/>
      <vel value="0.0066258025" flag="0"/>
      <psa03 value="0.0206570058" flag="0"/>
      <psa10 value="0.0024786730" flag="0"/>
      <psa30 value="0.0003863979" flag="0"/>
    </comp>
    <comp name="--.HNN">
      <acc value="0.0147977236" flag="0"/>
      <vel value="0.0052653950" flag="0"/>
      <psa03 value="0.0182609283" flag="0"/>
      <psa10 value="0.0030376464" flag="0"/>
      <psa30 value="0.0003261685" flag="0"/>
    </comp>
    <comp name="--.HNZ">
      <acc value="0.0108010265" flag="0"/>
      <vel value="0.0033305166" flag="0"/>
      <psa03 value="0.0110900029" flag="0"/>
      <psa10 value="0.0018187484" flag="0"/>
      <psa30 value="0.0003346796" flag="0"/>
    </comp>
  </station>
  <station code="SILT" name="SILT" netid="KO" insttype="30s," lat="41.153" lon="29.643">
    <comp name="--.HHE">
      <acc value="0.0068793051" flag="0"/>
      <vel value="0.0030429199" flag="0"/>
      <psa03 value="0.0114646776" flag="0"/>
      <psa10 value="0.0023826056" flag="0"/>
      <psa30 value="0.0001751620" flag="0"/>
    </comp>
    <comp name="--.HHZ">
      <acc value="0.0066453397" flag="0"/>
      <vel value="0.0033347174" flag="0"/>
      <psa03 value="0.0060044827" flag="0"/>
      <psa10 value="0.0028688014" flag="0"/>
      <psa30 value="0.0002056901" flag="0"/>
    </comp>
    <comp name="--.HHN">
      <acc value="0.0073973476" flag="0"/>
      <vel value="0.0023807374" flag="0"/>
      <psa03 value="0.0073454705" flag="0"/>
      <psa10 value="0.0018103967" flag="0"/>
      <psa30 value="0.0001424654" flag="0"/>
    </comp>
  </station>
  <station code="SLVT" name="SLVT" netid="KO" insttype="30s," lat="41.23" lon="28.21">
    <comp name="--.HHZ">
      <acc value="0.0185455871" flag="0"/>
      <vel value="0.0066240067" flag="0"/>
      <psa03 value="0.0311360110" flag="0"/>
      <psa10 value="0.0030672471" flag="0"/>
      <psa30 value="0.0002704160" flag="0"/>
    </comp>
    <comp name="--.HHN">
      <acc value="0.0299257124" flag="0"/>
      <vel value="0.0136696968" flag="0"/>
      <psa03 value="0.0569483442" flag="0"/>
