<?xml version="1.0" encoding="UTF-8" standalone="yes"?>
<!DOCTYPE earthquake SYSTEM "stationlist.dtd">
<stationlist created="" xmlns="ch.ethz.sed.shakemap.usgs.xml">
  <station code="APE" name="APE" netid="GE" insttype="STS-2/N" lat="37.0727" lon="25.523">
    <comp name="--.HHE">
      <acc value="0.2991776115" flag="0"/>
      <vel value="0.1013418747" flag="0"/>
      <psa03 value="0.4332537459" flag="0"/>
      <psa10 value="0.0325459429" flag="0"/>
      <psa30 value="0.0030275091" flag="0"/>
    </comp>
    <comp name="--.HHZ">
      <acc value="0.1546296325" flag="0"/>
      <vel value="0.0341639281" flag="0"/>
      <psa03 value="0.1477326524" flag="0"/>
      <psa10 value="0.0222276888" flag="0"/>
      <psa30 value="0.0019412597" flag="0"/>
    </comp>
    <comp name="--.HHN">
      <acc value="0.3150713411" flag="0"/>
      <vel value="0.0722527615" flag="0"/>
      <psa03 value="0.3110439613" flag="0"/>
      <psa10 value="0.0153801036" flag="0"/>
      <psa30 value="0.0017750874" flag="0"/>
    </comp>
  </station>
</stationlist>
