<?xml version="1.0" encoding="UTF-8" standalone="yes"?>
<!DOCTYPE earthquake SYSTEM "stationlist.dtd">
<stationlist created="" xmlns="ch.ethz.sed.shakemap.usgs.xml">
  <station code="VANB" name="VANB" netid="KO" insttype="CMG-3T" lat="38.509" lon="43.4056">
    <comp name="--.HHE">
      <acc value="0.0305571796" flag="0"/>
      <vel value="0.0526687435" flag="0"/>
      <psa03 value="0.0784302011" flag="0"/>
      <psa10 value="0.0809637712" flag="0"/>
      <psa30 value="0.0192375016" flag="0"/>
    </comp>
    <comp name="--.HHN">
      <acc value="0.0287377504" flag="0"/>
      <vel value="0.0538960472" flag="0"/>
      <psa03 value="0.0492353263" flag="0"/>
      <psa10 value="0.1168068979" flag="0"/>
      <psa30 value="0.0145864944" flag="0"/>
    </comp>
    <comp name="--.HHZ">
      <acc value="0.0220761371" flag="0"/>
      <vel value="0.0394500408" flag="0"/>
      <psa03 value="0.0332642455" flag="0"/>
      <psa10 value="0.0571895362" flag="0"/>
      <psa30 value="0.0137956265" flag="0"/>
    </comp>
  </station>
</stationlist>
