<?xml version="1.0" encoding="UTF-8" standalone="yes"?>
<!DOCTYPE earthquake SYSTEM "stationlist.dtd">
<stationlist created="" xmlns="ch.ethz.sed.shakemap.usgs.xml">
  <station code="CEYT" name="CEYT" netid="KO" insttype="CMG-3ESP" lat="37.0105" lon="35.7478">
    <comp name="--.HHN">
      <acc value="0.0093610833" flag="0"/>
      <vel value="0.0101939853" flag="0"/>
      <psa03 value="0.0219722866" flag="0"/>
      <psa10 value="0.0124930661" flag="0"/>
      <psa30 value="0.0019499410" flag="0"/>
    </comp>
  </station>
  <station code="GAZ" name="GAZ" netid="KO" insttype="CMG-3T" lat="37.1721" lon="37.2096">
    <comp name="--.HHE">
      <acc value="0.0450903291" flag="0"/>
      <vel value="0.0249130608" flag="0"/>
      <psa03 value="0.0762956326" flag="0"/>
      <psa10 value="0.0438183858" flag="0"/>
      <psa30 value="0.0042227948" flag="0"/>
    </comp>
    <comp name="--.HHZ">
      <acc value="0.0237353936" flag="0"/>
      <vel value="0.0158292424" flag="0"/>
      <psa03 value="0.0485644126" flag="0"/>
      <psa10 value="0.0164824858" flag="0"/>
      <psa30 value="0.0017636413" flag="0"/>
    </comp>
  </station>
  <station code="KMRS" name="KMRS" netid="KO" insttype="CMG-3T" lat="37.5053" lon="36.9">
    <comp name="--.HHE">
      <acc value="0.0841287570" flag="0"/>
      <vel value="0.0724390688" flag="0"/>
      <psa03 value="0.1586041984" flag="0"/>
      <psa10 value="0.0832997435" flag="0"/>
      <psa30 value="0.0062666564" flag="0"/>
    </comp>
    <comp name="--.HHZ">
      <acc value="0.0622941550" flag="0"/>
      <vel value="0.0292303454" flag="0"/>
      <psa03 value="0.0869842162" flag="0"/>
      <psa10 value="0.0234986266" flag="0"/>
      <psa30 value="0.0023224187" flag="0"/>
    </comp>
    <comp name="--.HHN">
      <acc value="0.0957581440" flag="0"/>
      <vel value="0.0467208817" flag="0"/>
      <psa03 value="0.1657493557" flag="0"/>
      <psa10 value="0.0466892057" flag="0"/>
      <psa30 value="0.0043017780" flag="0"/>
    </comp>
  </station>
  <station code="ANDN" name="ANDN" netid="TU" insttype="T" lat="37.58" lon="36.3452">
    <comp name="--.HHN">
      <acc value="0.2871836366" flag="0"/>
      <vel value="0.1226347260" flag="0"/>
      <psa03 value="0.5514550833" flag="0"/>
      <psa10 value="0.1544462116" flag="0"/>
      <psa30 value="0.0102872963" flag="0"/>
    </comp>
    <comp name="--.HHE">
      <acc value="0.2866293362" flag="0"/>
      <vel value="0.1657663869" flag="0"/>
      <psa03 value="0.5022478770" flag="0"/>
      <psa10 value="0.1927596565" flag="0"/>
      <psa30 value="0.0215231235" flag="0"/>
    </comp>
    <comp name="--.HHZ">
      <acc value="0.1623890228" flag="0"/>
      <vel value="0.1028200313" flag="0"/>
      <psa03 value="0.2776184290" flag="0"/>
      <psa10 value="0.1284752038" flag="0"/>
      <psa30 value="0.0110696254" flag="0"/>
    </comp>
  </station>
</stationlist>
