<?xml version="1.0" encoding="UTF-8" standalone="yes"?>
<!DOCTYPE earthquake SYSTEM "stationlist.dtd">
<stationlist created="" xmlns="ch.ethz.sed.shakemap.usgs.xml">
  <station code="CEYT" name="CEYT" netid="KO" insttype="CMG-3ESP" lat="37.0105" lon="35.7478">
    <comp name="--.HHN">
      <acc value="0.0093610839" flag="0"/>
      <vel value="0.0101939827" flag="0"/>
      <psa03 value="0.0219722866" flag="0"/>
      <psa10 value="0.0124930661" flag="0"/>
      <psa30 value="0.0019501047" flag="0"/>
    </comp>
  </station>
  <station code="CMRD" name="CMRD" netid="KO" insttype="CMG-5T" lat="37.6623" lon="34.9902">
    <comp name="--.HNZ">
      <acc value="0.0081304106" flag="0"/>
      <vel value="0.0051432773" flag="0"/>
      <psa03 value="0.0163653276" flag="0"/>
      <psa10 value="0.0080568383" flag="0"/>
      <psa30 value="0.0011970763" flag="0"/>
    </comp>
    <comp name="--.HNE">
      <acc value="0.0082363217" flag="0"/>
      <vel value="0.0062626223" flag="0"/>
      <psa03 value="0.0206042840" flag="0"/>
      <psa10 value="0.0088752971" flag="0"/>
      <psa30 value="0.0007973516" flag="0"/>
    </comp>
    <comp name="--.HNN">
      <acc value="0.0103736644" flag="0"/>
      <vel value="0.0058054269" flag="0"/>
      <psa03 value="0.0215920794" flag="0"/>
      <psa10 value="0.0123425001" flag="0"/>
      <psa30 value="0.0011706520" flag="0"/>
    </comp>
  </station>
  <station code="GAZ" name="GAZ" netid="KO" insttype="CMG-3T" lat="37.1721" lon="37.2096">
    <comp name="--.HHE">
      <acc value="0.0450903287" flag="0"/>
      <vel value="0.0249130626" flag="0"/>
      <psa03 value="0.0762956326" flag="0"/>
      <psa10 value="0.0438183854" flag="0"/>
      <psa30 value="0.0042228001" flag="0"/>
    </comp>
    <comp name="--.HHZ">
      <acc value="0.0237353942" flag="0"/>
      <vel value="0.0158292445" flag="0"/>
      <psa03 value="0.0485644126" flag="0"/>
      <psa10 value="0.0164824858" flag="0"/>
      <psa30 value="0.0017636644" flag="0"/>
    </comp>
  </station>
  <station code="SARI" name="SARI" netid="KO" insttype="CMG-3T" lat="38.4072" lon="36.4181">
    <comp name="--.HHZ">
      <acc value="0.1670859187" flag="0"/>
      <vel value="0.0919695048" flag="0"/>
      <psa03 value="0.2766801693" flag="0"/>
      <psa10 value="0.0491145518" flag="0"/>
      <psa30 value="0.0038563745" flag="0"/>
    </comp>
  </station>
  <station code="ANDN" name="ANDN" netid="TU" insttype="T" lat="37.58" lon="36.3452">
    <comp name="--.HHN">
      <acc value="0.2871836368" flag="0"/>
      <vel value="0.1226347304" flag="0"/>
      <psa03 value="0.5514550833" flag="0"/>
      <psa10 value="0.1544462132" flag="0"/>
      <psa30 value="0.0102861506" flag="0"/>
    </comp>
    <comp name="--.HHE">
      <acc value="0.2866293363" flag="0"/>
      <vel value="0.1657663834" flag="0"/>
      <psa03 value="0.5022478770" flag="0"/>
      <psa10 value="0.1927596433" flag="0"/>
      <psa30 value="0.0215230021" flag="0"/>
    </comp>
    <comp name="--.HHZ">
      <acc value="0.1623890233" flag="0"/>
      <vel value="0.1028200368" flag="0"/>
      <psa03 value="0.2776184290" flag="0"/>
      <psa10 value="0.1284751802" flag="0"/>
      <psa30 value="0.0110697099" flag="0"/>
    </comp>
  </station>
</stationlist>
