<?xml version="1.0" encoding="UTF-8" standalone="yes"?>
<!DOCTYPE earthquake SYSTEM "stationlist.dtd">
<stationlist created="" xmlns="ch.ethz.sed.shakemap.usgs.xml">
  <station code="BNN" name="BNN" netid="KO" insttype="CMG-3T" lat="38.8521" lon="35.8472">
    <comp name="--.HHE">
      <acc value="0.0204982475" flag="0"/>
      <vel value="0.0158653708" flag="0"/>
      <psa03 value="0.0581088688" flag="0"/>
      <psa10 value="0.0281900300" flag="0"/>
      <psa30 value="0.0022540799" flag="0"/>
    </comp>
    <comp name="--.HHN">
      <acc value="0.0138098715" flag="0"/>
      <vel value="0.0148002628" flag="0"/>
      <psa03 value="0.0418479262" flag="0"/>
      <psa10 value="0.0308230648" flag="0"/>
      <psa30 value="0.0027471825" flag="0"/>
    </comp>
    <comp name="--.HHZ">
      <acc value="0.0098837503" flag="0"/>
      <vel value="0.0048597077" flag="0"/>
      <psa03 value="0.0282609051" flag="0"/>
      <psa10 value="0.0072782548" flag="0"/>
      <psa30 value="0.0011863580" flag="0"/>
    </comp>
  </station>
  <station code="CEYT" name="CEYT" netid="KO" insttype="CMG-3ESP" lat="37.0105" lon="35.7478">
    <comp name="--.HHN">
      <acc value="0.0093610839" flag="0"/>
      <vel value="0.0101939825" flag="0"/>
      <psa03 value="0.0219722866" flag="0"/>
      <psa10 value="0.0124930661" flag="0"/>
      <psa30 value="0.0019501042" flag="0"/>
    </comp>
    <comp name="--.HHE">
      <acc value="0.0152793225" flag="0"/>
      <vel value="0.0124348761" flag="0"/>
      <psa03 value="0.0482617906" flag="0"/>
      <psa10 value="0.0188388341" flag="0"/>
      <psa30 value="0.0029473979" flag="0"/>
    </comp>
    <comp name="--.HHZ">
      <acc value="0.0084937401" flag="0"/>
      <vel value="0.0116627701" flag="0"/>
      <psa03 value="0.0196567295" flag="0"/>
      <psa10 value="0.0238389461" flag="0"/>
      <psa30 value="0.0018460145" flag="0"/>
    </comp>
  </station>
  <station code="CMRD" name="CMRD" netid="KO" insttype="CMG-5T" lat="37.6623" lon="34.9902">
    <comp name="--.HNE">
      <acc value="0.0082363219" flag="0"/>
      <vel value="0.0062626233" flag="0"/>
      <psa03 value="0.0206042839" flag="0"/>
      <psa10 value="0.0088752971" flag="0"/>
      <psa30 value="0.0007972714" flag="0"/>
    </comp>
    <comp name="--.HNN">
      <acc value="0.0103736644" flag="0"/>
      <vel value="0.0058054271" flag="0"/>
      <psa03 value="0.0215920794" flag="0"/>
      <psa10 value="0.0123425001" flag="0"/>
      <psa30 value="0.0011706171" flag="0"/>
    </comp>
    <comp name="--.HNZ">
      <acc value="0.0081304103" flag="0"/>
      <vel value="0.0051432725" flag="0"/>
      <psa03 value="0.0163653276" flag="0"/>
      <psa10 value="0.0080568383" flag="0"/>
      <psa30 value="0.0011972162" flag="0"/>
    </comp>
  </station>
  <station code="GAZ" name="GAZ" netid="KO" insttype="CMG-3T" lat="37.1721" lon="37.2096">
    <comp name="--.HHE">
      <acc value="0.0450903286" flag="0"/>
      <vel value="0.0249130616" flag="0"/>
      <psa03 value="0.0762956326" flag="0"/>
      <psa10 value="0.0438183855" flag="0"/>
      <psa30 value="0.0042228024" flag="0"/>
    </comp>
    <comp name="--.HHZ">
      <acc value="0.0237353940" flag="0"/>
      <vel value="0.0158292451" flag="0"/>
      <psa03 value="0.0485644126" flag="0"/>
      <psa10 value="0.0164824862" flag="0"/>
      <psa30 value="0.0017637144" flag="0"/>
    </comp>
    <comp name="--.HHN">
      <acc value="0.0284881196" flag="0"/>
      <vel value="0.0262819126" flag="0"/>
      <psa03 value="0.0645570165" flag="0"/>
      <psa10 value="0.0326716378" flag="0"/>
      <psa30 value="0.0033025552" flag="0"/>
    </comp>
  </station>
  <station code="SARI" name="SARI" netid="KO" insttype="CMG-3T" lat="38.4072" lon="36.4181">
    <comp name="--.HHZ">
      <acc value="0.1670859185" flag="0"/>
      <vel value="0.0919695047" flag="0"/>
      <psa03 value="0.2766801693" flag="0"/>
      <psa10 value="0.0491145551" flag="0"/>
      <psa30 value="0.0038563209" flag="0"/>
    </comp>
    <comp name="--.HHE">
      <acc value="0.5435893082" flag="0"/>
      <vel value="0.0869148502" flag="0"/>
      <psa03 value="0.2604216251" flag="0"/>
      <psa10 value="0.0919912941" flag="0"/>
      <psa30 value="0.0145254320" flag="0"/>
    </comp>
    <comp name="--.HHN">
      <acc value="0.3451385830" flag="0"/>
      <vel value="0.1046882950" flag="0"/>
      <psa03 value="0.2831292327" flag="0"/>
      <psa10 value="0.0802291093" flag="0"/>
      <psa30 value="0.0085726795" flag="0"/>
    </comp>
  </station>
  <station code="ANDN" name="ANDN" netid="TU" insttype="T" lat="37.58" lon="36.3452">
    <comp name="--.HHZ">
      <acc value="0.1623890234" flag="0"/>
      <vel value="0.1028200354" flag="0"/>
      <psa03 value="0.2776184290" flag="0"/>
      <psa10 value="0.1284751655" flag="0"/>
      <psa30 value="0.0110692293" flag="0"/>
    </comp>
    <comp name="--.HHN">
      <acc value="0.2871836368" flag="0"/>
      <vel value="0.1226347260" flag="0"/>
      <psa03 value="0.5514550833" flag="0"/>
      <psa10 value="0.1544462133" flag="0"/>
      <psa30 value="0.0102861163" flag="0"/>
    </comp>
    <comp name="--.HHE">
      <acc value="0.2866293362" flag="0"/>
      <vel value="0.1657663821" flag="0"/>
      <psa03 value="0.5022478770" flag="0"/>
      <psa10 value="0.1927596365" flag="0"/>
      <psa30 value="0.0215230723" flag="0"/>
    </comp>
  </station>
</stationlist>
