<?xml version="1.0" encoding="UTF-8" standalone="yes"?>
<!DOCTYPE earthquake SYSTEM "stationlist.dtd">
<stationlist created="" xmlns="ch.ethz.sed.shakemap.usgs.xml">
  <station code="BNN" name="BNN" netid="KO" insttype="CMG-3T" lat="38.8521" lon="35.8472">
    <comp name="--.HHZ">
      <acc value="0.0387926317" flag="0"/>
      <vel value="0.0305139989" flag="0"/>
      <psa03 value="0.0845080339" flag="0"/>
      <psa10 value="0.0558548275" flag="0"/>
      <psa30 value="0.0101829664" flag="0"/>
    </comp>
    <comp name="--.HHE">
      <acc value="0.0678548066" flag="0"/>
      <vel value="0.0388959984" flag="0"/>
      <psa03 value="0.1090879689" flag="0"/>
      <psa10 value="0.0565355765" flag="0"/>
      <psa30 value="0.0108781319" flag="0"/>
    </comp>
    <comp name="--.HHN">
      <acc value="0.0600113612" flag="0"/>
      <vel value="0.0512177346" flag="0"/>
      <psa03 value="0.0957131213" flag="0"/>
      <psa10 value="0.0822309859" flag="0"/>
      <psa30 value="0.0113895298" flag="0"/>
    </comp>
  </station>
  <station code="CEYT" name="CEYT" netid="KO" insttype="CMG-3ESP" lat="37.0105" lon="35.7478">
    <comp name="--.HHE">
      <acc value="0.0514730594" flag="0"/>
      <vel value="0.0800632481" flag="0"/>
      <psa03 value="0.1529594260" flag="0"/>
      <psa10 value="0.1514587608" flag="0"/>
      <psa30 value="0.0318858197" flag="0"/>
    </comp>
    <comp name="--.HHZ">
      <acc value="0.0447116702" flag="0"/>
      <vel value="0.0536370312" flag="0"/>
      <psa03 value="0.0803707315" flag="0"/>
      <psa10 value="0.0830330062" flag="0"/>
      <psa30 value="0.0195270094" flag="0"/>
    </comp>
  </station>
  <station code="CMRD" name="CMRD" netid="KO" insttype="CMG-5T" lat="37.6623" lon="34.9902">
    <comp name="--.HNE">
      <acc value="0.0341622005" flag="0"/>
      <vel value="0.0298289559" flag="0"/>
      <psa03 value="0.0871240629" flag="0"/>
      <psa10 value="0.0524727749" flag="0"/>
      <psa30 value="0.0061100018" flag="0"/>
    </comp>
    <comp name="--.HNN">
      <acc value="0.0380256501" flag="0"/>
      <vel value="0.0279261890" flag="0"/>
      <psa03 value="0.1200167499" flag="0"/>
      <psa10 value="0.0502864395" flag="0"/>
      <psa30 value="0.0081492825" flag="0"/>
    </comp>
    <comp name="--.HNZ">
      <acc value="0.0335148022" flag="0"/>
      <vel value="0.0322469241" flag="0"/>
      <psa03 value="0.0880272233" flag="0"/>
      <psa10 value="0.0447689305" flag="0"/>
      <psa30 value="0.0076482069" flag="0"/>
    </comp>
  </station>
  <station code="DARE" name="DARE" netid="KO" insttype="CMG-3ESP" lat="38.5712" lon="37.4832">
    <comp name="--.HHE">
      <acc value="0.0680805436" flag="0"/>
      <vel value="0.0376836129" flag="0"/>
      <psa03 value="0.1314901383" flag="0"/>
      <psa10 value="0.0634194603" flag="0"/>
      <psa30 value="0.0099491259" flag="0"/>
    </comp>
    <comp name="--.HHN">
      <acc value="0.0718096282" flag="0"/>
      <vel value="0.0489357332" flag="0"/>
      <psa03 value="0.1310092201" flag="0"/>
      <psa10 value="0.0641473541" flag="0"/>
      <psa30 value="0.0071898291" flag="0"/>
    </comp>
  </station>
  <station code="GAZ" name="GAZ" netid="KO" insttype="CMG-3T" lat="37.1721" lon="37.2096">
    <comp name="--.HHN">
      <acc value="0.2185551283" flag="0"/>
      <vel value="0.1461749085" flag="0"/>
      <psa03 value="0.2834707810" flag="0"/>
      <psa10 value="0.1620076184" flag="0"/>
      <psa30 value="0.0280501770" flag="0"/>
    </comp>
    <comp name="--.HHE">
      <acc value="0.1338099421" flag="0"/>
      <vel value="0.0881462953" flag="0"/>
      <psa03 value="0.2140634850" flag="0"/>
      <psa10 value="0.1872346247" flag="0"/>
      <psa30 value="0.0263234907" flag="0"/>
    </comp>
  </station>
  <station code="KHMN" name="KHMN" netid="KO" insttype="CMG-5T" lat="37.3916" lon="37.1574">
    <comp name="--.HNE">
      <acc value="0.2984018536" flag="0"/>
      <vel value="0.1071392967" flag="0"/>
      <psa03 value="0.3797896075" flag="0"/>
      <psa10 value="0.0971261511" flag="0"/>
      <psa30 value="0.0609471184" flag="0"/>
    </comp>
    <comp name="--.HNZ">
      <acc value="0.1378043839" flag="0"/>
      <vel value="0.0624802513" flag="0"/>
      <psa03 value="0.1819179962" flag="0"/>
      <psa10 value="0.0533926642" flag="0"/>
      <psa30 value="0.0347197783" flag="0"/>
    </comp>
    <comp name="--.HNN">
      <acc value="0.2018854775" flag="0"/>
      <vel value="0.0731296689" flag="0"/>
      <psa03 value="0.3410327189" flag="0"/>
      <psa10 value="0.0882128703" flag="0"/>
      <psa30 value="0.0331204821" flag="0"/>
    </comp>
  </station>
  <station code="SARI" name="SARI" netid="KO" insttype="CMG-3T" lat="38.4072" lon="36.4181">
    <comp name="--.HHE">
      <acc value="1.3856712091" flag="0"/>
      <vel value="0.3193824709" flag="0"/>
      <psa03 value="1.3207963562" flag="0"/>
      <psa10 value="0.2662527194" flag="0"/>
      <psa30 value="0.0201293780" flag="0"/>
    </comp>
    <comp name="--.HHN">
      <acc value="0.8414963050" flag="0"/>
      <vel value="0.2556098650" flag="0"/>
      <psa03 value="1.2917723143" flag="0"/>
      <psa10 value="0.2563614421" flag="0"/>
      <psa30 value="0.0358083906" flag="0"/>
    </comp>
    <comp name="--.HHZ">
      <acc value="0.5690526791" flag="0"/>
      <vel value="0.2151477598" flag="0"/>
      <psa03 value="0.9925184337" flag="0"/>
      <psa10 value="0.2061002802" flag="0"/>
      <psa30 value="0.0237646265" flag="0"/>
    </comp>
  </station>
  <station code="ANDN" name="ANDN" netid="TU" insttype="T" lat="37.58" lon="36.3452">
    <comp name="--.HHN">
      <acc value="1.4611762386" flag="0"/>
      <vel value="0.5913937168" flag="0"/>
      <psa03 value="3.1747659682" flag="0"/>
      <psa10 value="0.8362595510" flag="0"/>
      <psa30 value="0.0848542127" flag="0"/>
    </comp>
    <comp name="--.HHE">
      <acc value="0.9165166918" flag="0"/>
      <vel value="0.6478007557" flag="0"/>
      <psa03 value="1.9342123274" flag="0"/>
      <psa10 value="1.2087472638" flag="0"/>
      <psa30 value="0.1745005845" flag="0"/>
    </comp>
    <comp name="--.HHZ">
      <acc value="0.5080288853" flag="0"/>
      <vel value="0.4215380190" flag="0"/>
      <psa03 value="0.7651597351" flag="0"/>
      <psa10 value="0.9733605231" flag="0"/>
      <psa30 value="0.0577048019" flag="0"/>
    </comp>
  </station>
</stationlist>
