<?xml version="1.0" encoding="UTF-8" standalone="yes"?>
<!DOCTYPE earthquake SYSTEM "stationlist.dtd">
<stationlist created="" xmlns="ch.ethz.sed.shakemap.usgs.xml">
  <station code="BNN" name="BNN" netid="KO" insttype="CMG-3T" lat="38.8521" lon="35.8472">
    <comp name="--.HHE">
      <acc value="0.0690990774" flag="0"/>
      <vel value="0.0492152975" flag="0"/>
      <psa03 value="0.1091826710" flag="0"/>
      <psa10 value="0.0583557557" flag="0"/>
      <psa30 value="0.0126663114" flag="0"/>
    </comp>
    <comp name="--.HHZ">
      <acc value="0.0391584420" flag="0"/>
      <vel value="0.0368744704" flag="0"/>
      <psa03 value="0.0842059727" flag="0"/>
      <psa10 value="0.0551455056" flag="0"/>
      <psa30 value="0.0112104684" flag="0"/>
    </comp>
    <comp name="--.HHN">
      <acc value="0.0600526175" flag="0"/>
      <vel value="0.0553175554" flag="0"/>
      <psa03 value="0.0966322581" flag="0"/>
      <psa10 value="0.0833457953" flag="0"/>
      <psa30 value="0.0140715967" flag="0"/>
    </comp>
  </station>
  <station code="CEYT" name="CEYT" netid="KO" insttype="CMG-3ESP" lat="37.0105" lon="35.7478">
    <comp name="--.HHZ">
      <acc value="0.0454199894" flag="0"/>
      <vel value="0.0593106981" flag="0"/>
      <psa03 value="0.0813902365" flag="0"/>
      <psa10 value="0.0826747820" flag="0"/>
      <psa30 value="0.0228561001" flag="0"/>
    </comp>
    <comp name="--.HHE">
      <acc value="0.0515486758" flag="0"/>
      <vel value="0.0876419976" flag="0"/>
      <psa03 value="0.1531504032" flag="0"/>
      <psa10 value="0.1512170263" flag="0"/>
      <psa30 value="0.0367000468" flag="0"/>
    </comp>
  </station>
  <station code="CMRD" name="CMRD" netid="KO" insttype="CMG-5T" lat="37.6623" lon="34.9902">
    <comp name="--.HNE">
      <acc value="0.0340771061" flag="0"/>
      <vel value="0.0283868057" flag="0"/>
      <psa03 value="0.0870917730" flag="0"/>
      <psa10 value="0.0527942650" flag="0"/>
      <psa30 value="0.0069064757" flag="0"/>
    </comp>
    <comp name="--.HNN">
      <acc value="0.0385968678" flag="0"/>
      <vel value="0.0325322109" flag="0"/>
      <psa03 value="0.1202929298" flag="0"/>
      <psa10 value="0.0500321535" flag="0"/>
      <psa30 value="0.0102563635" flag="0"/>
    </comp>
    <comp name="--.HNZ">
      <acc value="0.0335767286" flag="0"/>
      <vel value="0.0308740728" flag="0"/>
      <psa03 value="0.0878753579" flag="0"/>
      <psa10 value="0.0446172557" flag="0"/>
      <psa30 value="0.0082934565" flag="0"/>
    </comp>
  </station>
  <station code="DARE" name="DARE" netid="KO" insttype="CMG-3ESP" lat="38.5712" lon="37.4832">
    <comp name="--.HHE">
      <acc value="0.0678137472" flag="0"/>
      <vel value="0.0410903744" flag="0"/>
      <psa03 value="0.1311820424" flag="0"/>
      <psa10 value="0.0627838676" flag="0"/>
      <psa30 value="0.0110240287" flag="0"/>
    </comp>
    <comp name="--.HHN">
      <acc value="0.0720053914" flag="0"/>
      <vel value="0.0525352719" flag="0"/>
      <psa03 value="0.1307730763" flag="0"/>
      <psa10 value="0.0642700718" flag="0"/>
      <psa30 value="0.0079421555" flag="0"/>
    </comp>
  </station>
  <station code="GAZ" name="GAZ" netid="KO" insttype="CMG-3T" lat="37.1721" lon="37.2096">
    <comp name="--.HHE">
      <acc value="0.1340125680" flag="0"/>
      <vel value="0.0895453244" flag="0"/>
      <psa03 value="0.2135482931" flag="0"/>
      <psa10 value="0.1877890265" flag="0"/>
      <psa30 value="0.0337646952" flag="0"/>
    </comp>
    <comp name="--.HHN">
      <acc value="0.2174568130" flag="0"/>
      <vel value="0.1471243465" flag="0"/>
      <psa03 value="0.2846369941" flag="0"/>
      <psa10 value="0.1618790606" flag="0"/>
      <psa30 value="0.0329479386" flag="0"/>
    </comp>
  </station>
  <station code="KHMN" name="KHMN" netid="KO" insttype="CMG-5T" lat="37.3916" lon="37.1574">
    <comp name="--.HNE">
      <acc value="0.2987732029" flag="0"/>
      <vel value="0.1074308191" flag="0"/>
      <psa03 value="0.3797071319" flag="0"/>
      <psa10 value="0.0970024559" flag="0"/>
      <psa30 value="0.0717797113" flag="0"/>
    </comp>
    <comp name="--.HNN">
      <acc value="0.2032193371" flag="0"/>
      <vel value="0.0832759978" flag="0"/>
      <psa03 value="0.3424698763" flag="0"/>
      <psa10 value="0.0883384773" flag="0"/>
      <psa30 value="0.0350596747" flag="0"/>
    </comp>
    <comp name="--.HNZ">
      <acc value="0.1392259240" flag="0"/>
      <vel value="0.0724531132" flag="0"/>
      <psa03 value="0.1816657788" flag="0"/>
      <psa10 value="0.0528808290" flag="0"/>
      <psa30 value="0.0403791347" flag="0"/>
    </comp>
  </station>
  <station code="SARI" name="SARI" netid="KO" insttype="CMG-3T" lat="38.4072" lon="36.4181">
    <comp name="--.HHN">
      <acc value="0.8399250097" flag="0"/>
      <vel value="0.2646553537" flag="0"/>
      <psa03 value="1.2928970691" flag="0"/>
      <psa10 value="0.2585935743" flag="0"/>
      <psa30 value="0.0407013415" flag="0"/>
    </comp>
    <comp name="--.HHZ">
      <acc value="0.5698094206" flag="0"/>
      <vel value="0.2099669486" flag="0"/>
      <psa03 value="0.9934376214" flag="0"/>
      <psa10 value="0.2065472042" flag="0"/>
      <psa30 value="0.0256262928" flag="0"/>
    </comp>
    <comp name="--.HHE">
      <acc value="1.3833799690" flag="0"/>
      <vel value="0.3027833112" flag="0"/>
      <psa03 value="1.3228524529" flag="0"/>
      <psa10 value="0.2679855321" flag="0"/>
      <psa30 value="0.0203667891" flag="0"/>
    </comp>
  </station>
  <station code="ANDN" name="ANDN" netid="TU" insttype="T" lat="37.58" lon="36.3452">
    <comp name="--.HHE">
      <acc value="0.9207510436" flag="0"/>
      <vel value="0.6304408949" flag="0"/>
      <psa03 value="1.9382859294" flag="0"/>
      <psa10 value="1.2095589169" flag="0"/>
      <psa30 value="0.1822603336" flag="0"/>
    </comp>
    <comp name="--.HHN">
      <acc value="1.4577211997" flag="0"/>
      <vel value="0.5777456736" flag="0"/>
      <psa03 value="3.1764563842" flag="0"/>
      <psa10 value="0.8383509270" flag="0"/>
      <psa30 value="0.0978497915" flag="0"/>
    </comp>
    <comp name="--.HHZ">
      <acc value="0.5090598796" flag="0"/>
      <vel value="0.4033253514" flag="0"/>
      <psa03 value="0.7653088395" flag="0"/>
      <psa10 value="0.9713037950" flag="0"/>
      <psa30 value="0.0638305398" flag="0"/>
    </comp>
  </station>
</stationlist>
