<?xml version="1.0" encoding="UTF-8" standalone="yes"?>
<!DOCTYPE earthquake SYSTEM "stationlist.dtd">
<stationlist created="" xmlns="ch.ethz.sed.shakemap.usgs.xml">
  <station code="BNN" name="BNN" netid="KO" insttype="CMG-3T" lat="38.8521" lon="35.8472">
    <comp name="--.HHE">
      <acc value="0.0678548066" flag="0"/>
      <vel value="0.0388959985" flag="0"/>
      <psa03 value="0.1090879689" flag="0"/>
      <psa10 value="0.0565355765" flag="0"/>
      <psa30 value="0.0108781331" flag="0"/>
    </comp>
    <comp name="--.HHN">
      <acc value="0.0600113612" flag="0"/>
      <vel value="0.0512177347" flag="0"/>
      <psa03 value="0.0957131213" flag="0"/>
      <psa10 value="0.0822309858" flag="0"/>
      <psa30 value="0.0113895299" flag="0"/>
    </comp>
    <comp name="--.HHZ">
      <acc value="0.0387926318" flag="0"/>
      <vel value="0.0305139989" flag="0"/>
      <psa03 value="0.0845080339" flag="0"/>
      <psa10 value="0.0558548275" flag="0"/>
      <psa30 value="0.0101829666" flag="0"/>
    </comp>
  </station>
  <station code="CEYT" name="CEYT" netid="KO" insttype="CMG-3ESP" lat="37.0105" lon="35.7478">
    <comp name="--.HHZ">
      <acc value="0.0447116702" flag="0"/>
      <vel value="0.0536370321" flag="0"/>
      <psa03 value="0.0803707315" flag="0"/>
      <psa10 value="0.0830330062" flag="0"/>
      <psa30 value="0.0195270094" flag="0"/>
    </comp>
    <comp name="--.HHE">
      <acc value="0.0514730595" flag="0"/>
      <vel value="0.0800632486" flag="0"/>
      <psa03 value="0.1529594260" flag="0"/>
      <psa10 value="0.1514587608" flag="0"/>
      <psa30 value="0.0318858204" flag="0"/>
    </comp>
  </station>
  <station code="CMRD" name="CMRD" netid="KO" insttype="CMG-5T" lat="37.6623" lon="34.9902">
    <comp name="--.HNE">
      <acc value="0.0341622005" flag="0"/>
      <vel value="0.0298289538" flag="0"/>
      <psa03 value="0.0871240629" flag="0"/>
      <psa10 value="0.0524727749" flag="0"/>
      <psa30 value="0.0061100156" flag="0"/>
    </comp>
    <comp name="--.HNN">
      <acc value="0.0380256507" flag="0"/>
      <vel value="0.0279261913" flag="0"/>
      <psa03 value="0.1200167499" flag="0"/>
      <psa10 value="0.0502864395" flag="0"/>
      <psa30 value="0.0081491987" flag="0"/>
    </comp>
    <comp name="--.HNZ">
      <acc value="0.0335148015" flag="0"/>
      <vel value="0.0322469273" flag="0"/>
      <psa03 value="0.0880272233" flag="0"/>
      <psa10 value="0.0447689305" flag="0"/>
      <psa30 value="0.0076481836" flag="0"/>
    </comp>
  </station>
  <station code="DARE" name="DARE" netid="KO" insttype="CMG-3ESP" lat="38.5712" lon="37.4832">
    <comp name="--.HHE">
      <acc value="0.0680805435" flag="0"/>
      <vel value="0.0376836135" flag="0"/>
      <psa03 value="0.1314901383" flag="0"/>
      <psa10 value="0.0634194603" flag="0"/>
      <psa30 value="0.0099491288" flag="0"/>
    </comp>
    <comp name="--.HHN">
      <acc value="0.0718096282" flag="0"/>
      <vel value="0.0489357365" flag="0"/>
      <psa03 value="0.1310092202" flag="0"/>
      <psa10 value="0.0641473541" flag="0"/>
      <psa30 value="0.0071898300" flag="0"/>
    </comp>
  </station>
  <station code="GAZ" name="GAZ" netid="KO" insttype="CMG-3T" lat="37.1721" lon="37.2096">
    <comp name="--.HHE">
      <acc value="0.1338099424" flag="0"/>
      <vel value="0.0881462962" flag="0"/>
      <psa03 value="0.2140634850" flag="0"/>
      <psa10 value="0.1872346248" flag="0"/>
      <psa30 value="0.0263234896" flag="0"/>
    </comp>
    <comp name="--.HHN">
      <acc value="0.2185551281" flag="0"/>
      <vel value="0.1461749089" flag="0"/>
      <psa03 value="0.2834707810" flag="0"/>
      <psa10 value="0.1620076184" flag="0"/>
      <psa30 value="0.0280501840" flag="0"/>
    </comp>
  </station>
  <station code="KHMN" name="KHMN" netid="KO" insttype="CMG-5T" lat="37.3916" lon="37.1574">
    <comp name="--.HNE">
      <acc value="0.2984018435" flag="0"/>
      <vel value="0.1071392840" flag="0"/>
      <psa03 value="0.3797896075" flag="0"/>
      <psa10 value="0.0971261517" flag="0"/>
      <psa30 value="0.0609466049" flag="0"/>
    </comp>
    <comp name="--.HNN">
      <acc value="0.2018854793" flag="0"/>
      <vel value="0.0731296626" flag="0"/>
      <psa03 value="0.3410327189" flag="0"/>
      <psa10 value="0.0882128706" flag="0"/>
      <psa30 value="0.0331203970" flag="0"/>
    </comp>
    <comp name="--.HNZ">
      <acc value="0.1378043805" flag="0"/>
      <vel value="0.0624802585" flag="0"/>
      <psa03 value="0.1819179962" flag="0"/>
      <psa10 value="0.0533926635" flag="0"/>
      <psa30 value="0.0347196284" flag="0"/>
    </comp>
  </station>
  <station code="SARI" name="SARI" netid="KO" insttype="CMG-3T" lat="38.4072" lon="36.4181">
    <comp name="--.HHN">
      <acc value="0.8414963051" flag="0"/>
      <vel value="0.2556098654" flag="0"/>
      <psa03 value="1.2917723143" flag="0"/>
      <psa10 value="0.2563614423" flag="0"/>
      <psa30 value="0.0358083424" flag="0"/>
    </comp>
    <comp name="--.HHZ">
      <acc value="0.5690526790" flag="0"/>
      <vel value="0.2151477593" flag="0"/>
      <psa03 value="0.9925184337" flag="0"/>
      <psa10 value="0.2061002802" flag="0"/>
      <psa30 value="0.0237644750" flag="0"/>
    </comp>
    <comp name="--.HHE">
      <acc value="1.3856712093" flag="0"/>
      <vel value="0.3193824712" flag="0"/>
      <psa03 value="1.3207963562" flag="0"/>
      <psa10 value="0.2662527194" flag="0"/>
      <psa30 value="0.0201294468" flag="0"/>
    </comp>
  </station>
  <station code="ANDN" name="ANDN" netid="TU" insttype="T" lat="37.58" lon="36.3452">
    <comp name="--.HHE">
      <acc value="0.9165166918" flag="0"/>
      <vel value="0.6478007559" flag="0"/>
      <psa03 value="1.9342123274" flag="0"/>
      <psa10 value="1.2087472629" flag="0"/>
      <psa30 value="0.1745006266" flag="0"/>
    </comp>
    <comp name="--.HHZ">
      <acc value="0.5080288855" flag="0"/>
      <vel value="0.4215380193" flag="0"/>
      <psa03 value="0.7651597351" flag="0"/>
      <psa10 value="0.9733605231" flag="0"/>
      <psa30 value="0.0577048166" flag="0"/>
    </comp>
    <comp name="--.HHN">
      <acc value="1.4611762386" flag="0"/>
      <vel value="0.5913937161" flag="0"/>
      <psa03 value="3.1747659682" flag="0"/>
      <psa10 value="0.8362595515" flag="0"/>
      <psa30 value="0.0848542122" flag="0"/>
    </comp>
  </station>
</stationlist>
