<stationlist created="1778637313">
	<station code="ARPRA" name="ARPRA" netid="KO" source="Bogazici University Kandilli Observatory And Earthquake Research Institute (KOERI)" insttype="" lat="39.0929" lon="38.3356">
		<comp name="--.HNE" depth="0.0">
			<acc value="0.0394055911315531" flag="0"/>
			<vel value="0.0487054290600299" flag="0"/>
			<psa03 value="0.184247247142759" flag="0"/>
			<psa10 value="0.0824940573265647" flag="0"/>
			<psa30 value="0.00946525452666671" flag="0"/>
		</comp>
		<comp name="--.HNN" depth="0.0">
			<acc value="0.0411106264294852" flag="0"/>
			<vel value="0.0483968394564695" flag="0"/>
			<psa03 value="0.124603837726183" flag="0"/>
			<psa10 value="0.0941356460245704" flag="0"/>
			<psa30 value="0.0144220470564874" flag="0"/>
		</comp>
		<comp name="--.HNZ" depth="0.0">
			<acc value="0.0222629039655476" flag="0"/>
			<vel value="0.0335644364703849" flag="0"/>
			<psa03 value="0.0515390496259128" flag="0"/>
			<psa10 value="0.0654458704676044" flag="0"/>
			<psa30 value="0.00836418991987916" flag="0"/>
		</comp>
	</station>
	<station code="CMRD" name="CMRD" netid="KO" source="Bogazici University Kandilli Observatory And Earthquake Research Institute (KOERI)" insttype="" lat="37.6623" lon="34.9902">
		<comp name="--.HNE" depth="0.0">
			<acc value="0.033951972089053" flag="0"/>
			<vel value="0.0312292106447088" flag="0"/>
			<psa03 value="0.0884252639896218" flag="0"/>
			<psa10 value="0.0530963061195193" flag="0"/>
			<psa30 value="0.00691806662127896" flag="0"/>
		</comp>
		<comp name="--.HNN" depth="0.0">
			<acc value="0.0386446611957164" flag="0"/>
			<vel value="0.0368428481796669" flag="0"/>
			<psa03 value="0.119466799505969" flag="0"/>
			<psa10 value="0.0500461953148004" flag="0"/>
			<psa30 value="0.0108530972977458" flag="0"/>
		</comp>
		<comp name="--.HNZ" depth="0.0">
			<acc value="0.0333760108335365" flag="0"/>
			<vel value="0.0354963434525976" flag="0"/>
			<psa03 value="0.086598111699914" flag="0"/>
			<psa10 value="0.0443401323162863" flag="0"/>
			<psa30 value="0.00879893205271511" flag="0"/>
		</comp>
	</station>
	<station code="ERBG" name="ERBG" netid="KO" source="Bogazici University Kandilli Observatory And Earthquake Research Institute (KOERI)" insttype="" lat="40.712" lon="36.6768">
		<comp name="--.HNE" depth="0.0">
			<acc value="0.0190584980186816" flag="0"/>
			<vel value="0.000749590952711165" flag="0"/>
			<psa03 value="0.00662902507788057" flag="0"/>
			<psa10 value="0.0112548087008567" flag="0"/>
			<psa30 value="0.00315083872760405" flag="0"/>
		</comp>
		<comp name="--.HNN" depth="0.0">
			<acc value="14.3054739584575" flag="0"/>
			<vel value="0.869923282186316" flag="0"/>
			<psa03 value="0.312722278816175" flag="0"/>
			<psa10 value="0.293897309254514" flag="0"/>
			<psa30 value="0.247859272793515" flag="0"/>
		</comp>
		<comp name="--.HNZ" depth="0.0">
			<acc value="15.0724039921309" flag="0"/>
			<vel value="0.965112910196694" flag="0"/>
			<psa03 value="0.311956123895423" flag="0"/>
			<psa10 value="0.292818497788566" flag="0"/>
			<psa30 value="0.248629643826982" flag="0"/>
		</comp>
	</station>
	<station code="KHMN" name="KHMN" netid="KO" source="Bogazici University Kandilli Observatory And Earthquake Research Institute (KOERI)" insttype="" lat="37.3916" lon="37.1574">
		<comp name="--.HNE" depth="0.0">
			<acc value="0.295893871142841" flag="0"/>
			<vel value="0.113588039826022" flag="0"/>
			<psa03 value="0.383050958579588" flag="0"/>
			<psa10 value="0.0966386218345966" flag="0"/>
			<psa30 value="0.0716010765531355" flag="0"/>
		</comp>
		<comp name="--.HNN" depth="0.0">
			<acc value="0.20345109102718" flag="0"/>
			<vel value="0.0890735518701957" flag="0"/>
			<psa03 value="0.345452572037644" flag="0"/>
			<psa10 value="0.0877261789287454" flag="0"/>
			<psa30 value="0.0349273070960104" flag="0"/>
		</comp>
		<comp name="--.HNZ" depth="0.0">
			<acc value="0.136728353488059" flag="0"/>
			<vel value="0.0838185305298486" flag="0"/>
			<psa03 value="0.182008369661125" flag="0"/>
			<psa10 value="0.0521538911894187" flag="0"/>
			<psa30 value="0.0401820251952878" flag="0"/>
		</comp>
	</station>
	<station code="KOZK" name="KOZK" netid="KO" source="Bogazici University Kandilli Observatory And Earthquake Research Institute (KOERI)" insttype="" lat="39.2101" lon="34.868">
		<comp name="--.HNE" depth="0.0">
			<acc value="0.0537005995844866" flag="0"/>
			<vel value="0.079584971903515" flag="0"/>
			<psa03 value="0.102240210412038" flag="0"/>
			<psa10 value="0.104533202311741" flag="0"/>
			<psa30 value="0.0134011744287186" flag="0"/>
		</comp>
		<comp name="--.HNN" depth="0.0">
			<acc value="0.0381968044299598" flag="0"/>
			<vel value="0.0586229500364587" flag="0"/>
			<psa03 value="0.0867841292310672" flag="0"/>
			<psa10 value="0.0893291476176834" flag="0"/>
			<psa30 value="0.00932217088142254" flag="0"/>
		</comp>
		<comp name="--.HNZ" depth="0.0">
			<acc value="0.0304945216490938" flag="0"/>
			<vel value="0.0217640913875932" flag="0"/>
			<psa03 value="0.0795049438958384" flag="0"/>
			<psa10 value="0.0459868476530925" flag="0"/>
			<psa30 value="0.00792002549613212" flag="0"/>
		</comp>
	</station>
	<station code="KRMN" name="KRMN" netid="KO" source="Bogazici University Kandilli Observatory And Earthquake Research Institute (KOERI)" insttype="" lat="37.174" lon="33.2636">
		<comp name="--.HNE" depth="0.0">
			<acc value="0.0154743981320516" flag="0"/>
			<vel value="0.0186308301789619" flag="0"/>
			<psa03 value="0.0239242385092328" flag="0"/>
			<psa10 value="0.0450171309141524" flag="0"/>
			<psa30 value="0.00387643137788678" flag="0"/>
		</comp>
		<comp name="--.HNN" depth="0.0">
			<acc value="0.0114197832481434" flag="0"/>
			<vel value="0.0216942976885289" flag="0"/>
			<psa03 value="0.0265352448089012" flag="0"/>
			<psa10 value="0.0309498702769995" flag="0"/>
			<psa30 value="0.00455163819034937" flag="0"/>
		</comp>
		<comp name="--.HNZ" depth="0.0">
			<acc value="0.00805355440171959" flag="0"/>
			<vel value="0.0120875316396009" flag="0"/>
			<psa03 value="0.014801527403539" flag="0"/>
			<psa10 value="0.0194814586760086" flag="0"/>
			<psa30 value="0.00235898106258462" flag="0"/>
		</comp>
	</station>
	<station code="KRTS" name="KRTS" netid="KO" source="Bogazici University Kandilli Observatory And Earthquake Research Institute (KOERI)" insttype="" lat="36.573" lon="35.375">
		<comp name="--.HNE" depth="0.0">
			<acc value="0.0175378022860322" flag="0"/>
			<vel value="0.0284905336444604" flag="0"/>
			<psa03 value="0.0312450516021392" flag="0"/>
			<psa10 value="0.0489058235206308" flag="0"/>
			<psa30 value="0.0137882100679103" flag="0"/>
		</comp>
		<comp name="--.HNN" depth="0.0">
			<acc value="0.025089431125165" flag="0"/>
			<vel value="0.0314634709798022" flag="0"/>
			<psa03 value="0.0558016653364889" flag="0"/>
			<psa10 value="0.0508497685475511" flag="0"/>
			<psa30 value="0.0139538443736948" flag="0"/>
		</comp>
		<comp name="--.HNZ" depth="0.0">
			<acc value="0.0114398262372353" flag="0"/>
			<vel value="0.0312802303246259" flag="0"/>
			<psa03 value="0.0263455890159557" flag="0"/>
			<psa10 value="0.0251162219514214" flag="0"/>
			<psa30 value="0.0133346550220992" flag="0"/>
		</comp>
	</station>
	<station code="KYHL" name="KYHL" netid="KO" source="Bogazici University Kandilli Observatory And Earthquake Research Institute (KOERI)" insttype="" lat="40.3244" lon="37.8955">
		<comp name="--.HNE" depth="0.0">
			<acc value="0.0106122490461601" flag="0"/>
			<vel value="0.0127579937642256" flag="0"/>
			<psa03 value="0.0247227289052997" flag="0"/>
			<psa10 value="0.0262846137266715" flag="0"/>
			<psa30 value="0.00502730220078698" flag="0"/>
		</comp>
		<comp name="--.HNN" depth="0.0">
			<acc value="0.00845536779694858" flag="0"/>
			<vel value="0.0148054667116109" flag="0"/>
			<psa03 value="0.0224160474531266" flag="0"/>
			<psa10 value="0.0174916556113488" flag="0"/>
			<psa30 value="0.00364387430545669" flag="0"/>
		</comp>
		<comp name="--.HNZ" depth="0.0">
			<acc value="0.00530978037342102" flag="0"/>
			<vel value="0.00862417480305554" flag="0"/>
			<psa03 value="0.0192060861110291" flag="0"/>
			<psa10 value="0.015204362214385" flag="0"/>
			<psa30 value="0.00324056633828139" flag="0"/>
		</comp>
	</station>
	<station code="RFHY" name="RFHY" netid="KO" source="Bogazici University Kandilli Observatory And Earthquake Research Institute (KOERI)" insttype="" lat="39.927" lon="38.833">
		<comp name="--.HNE" depth="0.0">
			<acc value="0.00173522277008761" flag="0"/>
			<vel value="0.00240764470381497" flag="0"/>
			<psa03 value="0.00205672023199714" flag="0"/>
			<psa10 value="0.00420732871488042" flag="0"/>
			<psa30 value="0.00109234152893406" flag="0"/>
		</comp>
		<comp name="--.HNN" depth="0.0">
			<acc value="0.0168662901392863" flag="0"/>
			<vel value="0.0289105977989799" flag="0"/>
			<psa03 value="0.0293928325475487" flag="0"/>
			<psa10 value="0.0703003045502011" flag="0"/>
			<psa30 value="0.0105181351081626" flag="0"/>
		</comp>
		<comp name="--.HNZ" depth="0.0">
			<acc value="0.011766538850476" flag="0"/>
			<vel value="0.019506496013021" flag="0"/>
			<psa03 value="0.0218931247912402" flag="0"/>
			<psa10 value="0.0408334062626249" flag="0"/>
			<psa30 value="0.00868164178283614" flag="0"/>
		</comp>
	</station>
	<station code="SLFK" name="SLFK" netid="KO" source="Bogazici University Kandilli Observatory And Earthquake Research Institute (KOERI)" insttype="" lat="36.3925" lon="33.9464">
		<comp name="--.HNE" depth="0.0">
			<acc value="0.00993570821447395" flag="0"/>
			<vel value="0.0150352768263331" flag="0"/>
			<psa03 value="0.0306184866578254" flag="0"/>
			<psa10 value="0.0216194209305518" flag="0"/>
			<psa30 value="0.00263805475817902" flag="0"/>
		</comp>
		<comp name="--.HNN" depth="0.0">
			<acc value="0.00981394898384248" flag="0"/>
			<vel value="0.0113221655584587" flag="0"/>
			<psa03 value="0.02330868471096" flag="0"/>
			<psa10 value="0.0254084169329157" flag="0"/>
			<psa30 value="0.00293579802387726" flag="0"/>
		</comp>
		<comp name="--.HNZ" depth="0.0">
			<acc value="0.00887711182527721" flag="0"/>
			<vel value="0.0125682695756793" flag="0"/>
			<psa03 value="0.0230715544189307" flag="0"/>
			<psa10 value="0.0158724333458054" flag="0"/>
			<psa30 value="0.00434756092123885" flag="0"/>
		</comp>
	</station>
	<station code="TUNC" name="TUNC" netid="KO" source="Bogazici University Kandilli Observatory And Earthquake Research Institute (KOERI)" insttype="" lat="39.6942" lon="37.5388">
		<comp name="--.HNE" depth="0.0">
			<acc value="0.0418214214966148" flag="0"/>
			<vel value="0.0549068224081769" flag="0"/>
			<psa03 value="0.0870659343573028" flag="0"/>
			<psa10 value="0.0873065411298377" flag="0"/>
			<psa30 value="0.0101192845196132" flag="0"/>
		</comp>
		<comp name="--.HNN" depth="0.0">
			<acc value="0.0337696386707326" flag="0"/>
			<vel value="0.0384070212669081" flag="0"/>
			<psa03 value="0.0775944162911012" flag="0"/>
			<psa10 value="0.0564666356373331" flag="0"/>
			<psa30 value="0.0149950600158031" flag="0"/>
		</comp>
		<comp name="--.HNZ" depth="0.0">
			<acc value="0.0211758552777079" flag="0"/>
			<vel value="0.0262402632422325" flag="0"/>
			<psa03 value="0.045971014104238" flag="0"/>
			<psa10 value="0.0472530215307691" flag="0"/>
			<psa30 value="0.0134806913629612" flag="0"/>
		</comp>
	</station>
</stationlist>
