<?xml version="1.0" encoding="UTF-8" standalone="yes"?>
<!DOCTYPE earthquake SYSTEM "stationlist.dtd">
<stationlist created="" xmlns="ch.ethz.sed.shakemap.usgs.xml">
  <station code="AKDG" name="AKDG" netid="KO" insttype="CMG-6T" commtype="DIG" lat="38.3618" lon="37.9703">
    <comp name="--.HHE">
      <acc value="0.0244130122" flag="0"/>
      <vel value="0.0101737045" flag="0"/>
      <psa03 value="0.0613235012" flag="0"/>
      <psa10 value="0.0191165191" flag="0"/>
      <psa30 value="0.0011828005" flag="0"/>
    </comp>
    <comp name="--.HHN">
      <acc value="0.0239851550" flag="0"/>
      <vel value="0.0178343208" flag="0"/>
      <psa03 value="0.0544397754" flag="0"/>
      <psa10 value="0.0220653622" flag="0"/>
      <psa30 value="0.0015903816" flag="0"/>
    </comp>
    <comp name="--.HHZ">
      <acc value="0.0137818751" flag="0"/>
      <vel value="0.0096758799" flag="0"/>
      <psa03 value="0.0429891318" flag="0"/>
      <psa10 value="0.0151557619" flag="0"/>
      <psa30 value="0.0006469599" flag="0"/>
    </comp>
  </station>
  <station code="ARGN" name="ARGN" netid="KO" insttype="CMG-6T" commtype="DIG" lat="38.7763" lon="38.2639">
    <comp name="--.HHE">
      <acc value="0.2129878113" flag="0"/>
      <vel value="0.0617468890" flag="0"/>
      <psa03 value="0.2019292793" flag="0"/>
      <psa10 value="0.0283225523" flag="0"/>
      <psa30 value="0.0016200461" flag="0"/>
    </comp>
    <comp name="--.HHN">
      <acc value="0.1988144610" flag="0"/>
      <vel value="0.0401440823" flag="0"/>
      <psa03 value="0.1442245927" flag="0"/>
      <psa10 value="0.0153979041" flag="0"/>
      <psa30 value="0.0009549663" flag="0"/>
    </comp>
    <comp name="--.HHZ">
      <acc value="0.0951933859" flag="0"/>
      <vel value="0.0227815644" flag="0"/>
      <psa03 value="0.0937117688" flag="0"/>
      <psa10 value="0.0227195776" flag="0"/>
      <psa30 value="0.0007297695" flag="0"/>
    </comp>
  </station>
  <station code="ARPRA" name="ARPRA" netid="KO" insttype="CMG-5T" commtype="DIG" lat="39.0929" lon="38.3356">
    <comp name="--.HNN">
      <acc value="0.1507861441" flag="0"/>
      <vel value="0.0542048643" flag="0"/>
      <psa03 value="0.3722420236" flag="0"/>
      <psa10 value="0.0273045826" flag="0"/>
      <psa30 value="0.0012091136" flag="0"/>
    </comp>
    <comp name="--.HNZ">
      <acc value="0.0566630335" flag="0"/>
      <vel value="0.0235952252" flag="0"/>
      <psa03 value="0.1000604086" flag="0"/>
      <psa10 value="0.0128667565" flag="0"/>
      <psa30 value="0.0008272031" flag="0"/>
    </comp>
  </station>
  <station code="DARE" name="DARE" netid="KO" insttype="CMG-3ESP" commtype="DIG" lat="38.5712" lon="37.4832">
    <comp name="--.HHE">
      <acc value="0.0034260113" flag="0"/>
      <vel value="0.0027735049" flag="0"/>
      <psa03 value="0.0075911914" flag="0"/>
      <psa10 value="0.0042823462" flag="0"/>
      <psa30 value="0.0002449121" flag="0"/>
    </comp>
    <comp name="--.HHN">
      <acc value="0.0036074538" flag="0"/>
      <vel value="0.0041753757" flag="0"/>
      <psa03 value="0.0071804242" flag="0"/>
      <psa10 value="0.0048206775" flag="0"/>
      <psa30 value="0.0004287711" flag="0"/>
    </comp>
    <comp name="--.HHZ">
      <acc value="0.0035193860" flag="0"/>
      <vel value="0.0028471146" flag="0"/>
      <psa03 value="0.0129379115" flag="0"/>
      <psa10 value="0.0045547786" flag="0"/>
      <psa30 value="0.0002834867" flag="0"/>
    </comp>
  </station>
  <station code="DYBB" name="DYBB" netid="KO" insttype="CMG-3T" commtype="DIG" lat="37.9532" lon="40.1393">
    <comp name="--.HHN">
      <acc value="0.0061122289" flag="0"/>
      <vel value="0.0041575291" flag="0"/>
      <psa03 value="0.0186279515" flag="0"/>
      <psa10 value="0.0051770516" flag="0"/>
      <psa30 value="0.0007353555" flag="0"/>
    </comp>
    <comp name="--.HHE">
      <acc value="0.0068341695" flag="0"/>
      <vel value="0.0047282305" flag="0"/>
      <psa03 value="0.0203022482" flag="0"/>
      <psa10 value="0.0093273415" flag="0"/>
      <psa30 value="0.0013032415" flag="0"/>
    </comp>
    <comp name="--.HHZ">
      <acc value="0.0058036952" flag="0"/>
      <vel value="0.0030703934" flag="0"/>
      <psa03 value="0.0098357929" flag="0"/>
      <psa10 value="0.0041439552" flag="0"/>
      <psa30 value="0.0008110345" flag="0"/>
    </comp>
  </station>
  <station code="KBAN" name="KBAN" netid="KO" insttype="CMG-6T" commtype="DIG" lat="38.797" lon="38.7278">
    <comp name="--.HHE">
      <acc value="0.4342061400" flag="0"/>
      <vel value="0.0853169179" flag="0"/>
      <psa03 value="0.3573306962" flag="0"/>
      <psa10 value="0.0407046578" flag="0"/>
      <psa30 value="0.0029836284" flag="0"/>
    </comp>
    <comp name="--.HHZ">
      <acc value="0.2584355094" flag="0"/>
      <vel value="0.0346704642" flag="0"/>
      <psa03 value="0.1749688670" flag="0"/>
      <psa10 value="0.0126736461" flag="0"/>
      <psa30 value="0.0007550115" flag="0"/>
    </comp>
    <comp name="--.HHN">
      <acc value="0.3106491095" flag="0"/>
      <vel value="0.0347481976" flag="0"/>
      <psa03 value="0.0907232065" flag="0"/>
      <psa10 value="0.0259013830" flag="0"/>
      <psa30 value="0.0009084046" flag="0"/>
    </comp>
  </station>
  <station code="MLTY" name="MLTY" netid="KO" insttype="CMG-6T" commtype="DIG" lat="38.3223" lon="38.4407">
    <comp name="--.HHZ">
      <acc value="0.2063522173" flag="0"/>
      <vel value="0.0361033919" flag="0"/>
      <psa03 value="0.1335772712" flag="0"/>
      <psa10 value="0.0096108860" flag="0"/>
      <psa30 value="0.0008161999" flag="0"/>
    </comp>
    <comp name="--.HHN">
      <acc value="0.1796023049" flag="0"/>
      <vel value="0.0557923320" flag="0"/>
      <psa03 value="0.1216204661" flag="0"/>
      <psa10 value="0.0308868634" flag="0"/>
      <psa30 value="0.0021918186" flag="0"/>
    </comp>
    <comp name="--.HHE">
      <acc value="0.2568648203" flag="0"/>
      <vel value="0.0394483805" flag="0"/>
      <psa03 value="0.2152162669" flag="0"/>
      <psa10 value="0.0196823315" flag="0"/>
      <psa30 value="0.0015097431" flag="0"/>
    </comp>
  </station>
  <station code="SINE" name="SINE" netid="KO" insttype="CMG-6T" commtype="DIG" lat="39.1636" lon="39.3871">
    <comp name="--.HHN">
      <acc value="0.0304054492" flag="0"/>
      <vel value="0.0140221888" flag="0"/>
      <psa03 value="0.0732929778" flag="0"/>
      <psa10 value="0.0049772007" flag="0"/>
      <psa30 value="0.0003723167" flag="0"/>
    </comp>
    <comp name="--.HHE">
      <acc value="0.0387803752" flag="0"/>
      <vel value="0.0133943951" flag="0"/>
      <psa03 value="0.0779697044" flag="0"/>
      <psa10 value="0.0045323676" flag="0"/>
      <psa30 value="0.0003662628" flag="0"/>
    </comp>
    <comp name="--.HHZ">
      <acc value="0.0198066779" flag="0"/>
      <vel value="0.0068730624" flag="0"/>
      <psa03 value="0.0422343321" flag="0"/>
      <psa10 value="0.0024385224" flag="0"/>
      <psa30 value="0.0002077131" flag="0"/>
    </comp>
  </station>
  <station code="SVRC" name="SVRC" netid="KO" insttype="CMG-3T" commtype="DIG" lat="38.3775" lon="39.306">
    <comp name="--.HHN">
      <acc value="0.1019301630" flag="0"/>
      <vel value="0.0298834407" flag="0"/>
      <psa03 value="0.2193721893" flag="0"/>
      <psa10 value="0.0191827251" flag="0"/>
      <psa30 value="0.0023687111" flag="0"/>
    </comp>
    <comp name="--.HHE">
      <acc value="0.0851219462" flag="0"/>
      <vel value="0.0356510492" flag="0"/>
      <psa03 value="0.3206179799" flag="0"/>
      <psa10 value="0.0246794080" flag="0"/>
      <psa30 value="0.0012810979" flag="0"/>
    </comp>
    <comp name="--.HHZ">
      <acc value="0.0780922978" flag="0"/>
      <vel value="0.0276490178" flag="0"/>
      <psa03 value="0.1502295848" flag="0"/>
      <psa10 value="0.0131727453" flag="0"/>
      <psa30 value="0.0010388272" flag="0"/>
    </comp>
  </station>
</stationlist>
