<stationlist created="1778138881">
	<station code="ABEA" name="ABEA" netid="HC" source="Seismological Network of Crete (HC)" insttype="" lat="35.5163" lon="24.0113">
		<comp name="--.HNE" depth="0.0">
			<acc value="0.0215651252663048" flag="0"/>
			<vel value="0.0238005384590757" flag="0"/>
			<psa03 value="0.0617165623778638" flag="0"/>
			<psa10 value="0.0564424277837587" flag="0"/>
			<psa30 value="0.00971348097045541" flag="0"/>
		</comp>
		<comp name="--.HNN" depth="0.0">
			<acc value="0.0289310904563871" flag="0"/>
			<vel value="0.025405051936774" flag="0"/>
			<psa03 value="0.0802222205782007" flag="0"/>
			<psa10 value="0.0666010519926561" flag="0"/>
			<psa30 value="0.0053660533913859" flag="0"/>
		</comp>
		<comp name="--.HNZ" depth="0.0">
			<acc value="0.0121426846820124" flag="0"/>
			<vel value="0.0134126170169355" flag="0"/>
			<psa03 value="0.028922590458827" flag="0"/>
			<psa10 value="0.0463020560341152" flag="0"/>
			<psa30 value="0.00413939088099691" flag="0"/>
		</comp>
	</station>
	<station code="ATEI" name="ATEI" netid="HC" source="Seismological Network of Crete (HC)" insttype="" lat="35.5193" lon="24.0432">
		<comp name="--.HNE" depth="0.0">
			<acc value="0.017063581445994" flag="0"/>
			<vel value="0.0181690508365464" flag="0"/>
			<psa03 value="0.0422275499721309" flag="0"/>
			<psa10 value="0.033270906534282" flag="0"/>
			<psa30 value="0.00572079272442485" flag="0"/>
		</comp>
		<comp name="--.HNN" depth="0.0">
			<acc value="0.0260519694360922" flag="0"/>
			<vel value="0.0178677853593363" flag="0"/>
			<psa03 value="0.0687075150771572" flag="0"/>
			<psa10 value="0.0377066816326033" flag="0"/>
			<psa30 value="0.00748922279092144" flag="0"/>
		</comp>
		<comp name="--.HNZ" depth="0.0">
			<acc value="0.0121239233085009" flag="0"/>
			<vel value="0.0105175055657838" flag="0"/>
			<psa03 value="0.0296946155600403" flag="0"/>
			<psa10 value="0.0249417866459509" flag="0"/>
			<psa30 value="0.00241940881562535" flag="0"/>
		</comp>
	</station>
	<station code="LENT" name="LENT" netid="HC" source="Seismological Network of Crete (HC)" insttype="" lat="35.5074" lon="24.0402">
		<comp name="--.HNE" depth="0.0">
			<acc value="0.0195074602615784" flag="0"/>
			<vel value="0.0230836525181477" flag="0"/>
			<psa03 value="0.0381357632863402" flag="0"/>
			<psa10 value="0.0377318157976382" flag="0"/>
			<psa30 value="0.00647925546886409" flag="0"/>
		</comp>
		<comp name="--.HNN" depth="0.0">
			<acc value="0.0257753085694982" flag="0"/>
			<vel value="0.0274515410268314" flag="0"/>
			<psa03 value="0.0574076623507205" flag="0"/>
			<psa10 value="0.0688260893908276" flag="0"/>
			<psa30 value="0.00700335560460126" flag="0"/>
		</comp>
		<comp name="--.HNZ" depth="0.0">
			<acc value="0.0165630368271982" flag="0"/>
			<vel value="0.010850389079281" flag="0"/>
			<psa03 value="0.0427903476713651" flag="0"/>
			<psa10 value="0.0255546391194411" flag="0"/>
			<psa30 value="0.00269059761388765" flag="0"/>
		</comp>
	</station>
	<station code="MULT" name="MULT" netid="HC" source="Seismological Network of Crete (HC)" insttype="" lat="35.5091" lon="24.0118">
		<comp name="--.HNE" depth="0.0">
			<acc value="0.0311951153388758" flag="0"/>
			<vel value="0.0226837074635555" flag="0"/>
			<psa03 value="0.0769908658917967" flag="0"/>
			<psa10 value="0.0449248560511879" flag="0"/>
			<psa30 value="0.00753055886256583" flag="0"/>
		</comp>
		<comp name="--.HNN" depth="0.0">
			<acc value="0.0281088382687382" flag="0"/>
			<vel value="0.0186177504937044" flag="0"/>
			<psa03 value="0.0842683740327486" flag="0"/>
			<psa10 value="0.0316988886458103" flag="0"/>
			<psa30 value="0.00619942401473943" flag="0"/>
		</comp>
		<comp name="--.HNZ" depth="0.0">
			<acc value="0.0273550727511522" flag="0"/>
			<vel value="0.0181467048002027" flag="0"/>
			<psa03 value="0.0277396110505967" flag="0"/>
			<psa10 value="0.0269622648677333" flag="0"/>
			<psa30 value="0.00465922490079102" flag="0"/>
		</comp>
	</station>
	<station code="NERO" name="NERO" netid="HC" source="Seismological Network of Crete (HC)" insttype="" lat="35.474" lon="24.0423">
		<comp name="--.HNE" depth="0.0">
			<acc value="0.0231480785587813" flag="0"/>
			<vel value="0.0252800133757538" flag="0"/>
			<psa03 value="0.0577700769840278" flag="0"/>
			<psa10 value="0.0384554599854931" flag="0"/>
			<psa30 value="0.00308042281289374" flag="0"/>
		</comp>
		<comp name="--.HNN" depth="0.0">
			<acc value="0.0147668997420113" flag="0"/>
			<vel value="0.0213365296493104" flag="0"/>
			<psa03 value="0.0638764189991915" flag="0"/>
			<psa10 value="0.0231710280918822" flag="0"/>
			<psa30 value="0.00310453128496248" flag="0"/>
		</comp>
		<comp name="--.HNZ" depth="0.0">
			<acc value="0.0160691826737548" flag="0"/>
			<vel value="0.0116512996387511" flag="0"/>
			<psa03 value="0.0397973603381541" flag="0"/>
			<psa10 value="0.0355089460433922" flag="0"/>
			<psa30 value="0.00267954792356762" flag="0"/>
		</comp>
	</station>
	<station code="PASK" name="PASK" netid="HC" source="Seismological Network of Crete (HC)" insttype="" lat="35.4996" lon="24.0121">
		<comp name="--.HNE" depth="0.0">
			<acc value="0.0317805492663659" flag="0"/>
			<vel value="0.0321513096806678" flag="0"/>
			<psa03 value="0.0955302450767212" flag="0"/>
			<psa10 value="0.0475600581204108" flag="0"/>
			<psa30 value="0.00643325908853046" flag="0"/>
		</comp>
		<comp name="--.HNN" depth="0.0">
			<acc value="0.027559403427341" flag="0"/>
			<vel value="0.0263214848982737" flag="0"/>
			<psa03 value="0.0740740685020304" flag="0"/>
			<psa10 value="0.0512704489156217" flag="0"/>
			<psa30 value="0.00417245890492618" flag="0"/>
		</comp>
		<comp name="--.HNZ" depth="0.0">
			<acc value="0.0168264643900446" flag="0"/>
			<vel value="0.0161162672687412" flag="0"/>
			<psa03 value="0.049427420157516" flag="0"/>
			<psa10 value="0.0209629830697524" flag="0"/>
			<psa30 value="0.00347135725204659" flag="0"/>
		</comp>
	</station>
	<station code="POLY" name="POLY" netid="HC" source="Seismological Network of Crete (HC)" insttype="" lat="35.5226" lon="24.0602">
		<comp name="--.HNE" depth="0.0">
			<acc value="0.0190445653676076" flag="0"/>
			<vel value="0.0151805721921761" flag="0"/>
			<psa03 value="0.037788500698529" flag="0"/>
			<psa10 value="0.0285653216873867" flag="0"/>
			<psa30 value="0.00687452415348625" flag="0"/>
		</comp>
		<comp name="--.HNN" depth="0.0">
			<acc value="0.0207633502302941" flag="0"/>
			<vel value="0.0165903893700754" flag="0"/>
			<psa03 value="0.0480466724393898" flag="0"/>
			<psa10 value="0.0309001569837342" flag="0"/>
			<psa30 value="0.00441697426953609" flag="0"/>
		</comp>
		<comp name="--.HNZ" depth="0.0">
			<acc value="0.0111488841692636" flag="0"/>
			<vel value="0.0102658155873394" flag="0"/>
			<psa03 value="0.0293133559284504" flag="0"/>
			<psa10 value="0.0139764071183625" flag="0"/>
			<psa30 value="0.00215123271694208" flag="0"/>
		</comp>
	</station>
	<station code="SOUD" name="SOUD" netid="HC" source="Seismological Network of Crete (HC)" insttype="" lat="35.4878" lon="24.0678">
		<comp name="--.HNE" depth="0.0">
			<acc value="0.0434294521868393" flag="0"/>
			<vel value="0.0353047679782037" flag="0"/>
			<psa03 value="0.0890768071513068" flag="0"/>
			<psa10 value="0.0905399603281415" flag="0"/>
			<psa30 value="0.00465048557183431" flag="0"/>
		</comp>
		<comp name="--.HNN" depth="0.0">
			<acc value="0.0462293935187494" flag="0"/>
			<vel value="0.0342649876859035" flag="0"/>
			<psa03 value="0.0726870078657068" flag="0"/>
			<psa10 value="0.0518658721092882" flag="0"/>
			<psa30 value="0.00323925520975935" flag="0"/>
		</comp>
		<comp name="--.HNZ" depth="0.0">
			<acc value="0.00671044732652063" flag="0"/>
			<vel value="0.00732678373394193" flag="0"/>
			<psa03 value="0.00836356967043601" flag="0"/>
			<psa10 value="0.00431150405349213" flag="0"/>
			<psa30 value="0.00280678281058684" flag="0"/>
		</comp>
	</station>
	<station code="CH01" name="CH01" netid="HI" source="ITSAK Strong Motion Network" insttype="" lat="35.517" lon="24.0208">
		<comp name="--.HNE" depth="0.0">
			<acc value="0.0171850938111606" flag="0"/>
			<vel value="0.0167733645953659" flag="0"/>
			<psa03 value="0.0611433108608428" flag="0"/>
			<psa10 value="0.046362330026894" flag="0"/>
			<psa30 value="0.00877620471383605" flag="0"/>
		</comp>
		<comp name="--.HNN" depth="0.0">
			<acc value="0.022457993501477" flag="0"/>
			<vel value="0.0143153935338845" flag="0"/>
			<psa03 value="0.0566713375311511" flag="0"/>
			<psa10 value="0.0242014838545309" flag="0"/>
			<psa30 value="0.00539982146168741" flag="0"/>
		</comp>
		<comp name="--.HNZ" depth="0.0">
			<acc value="0.0121181019212715" flag="0"/>
			<vel value="0.0136488550271872" flag="0"/>
			<psa03 value="0.0278269137089631" flag="0"/>
			<psa10 value="0.0504188687525575" flag="0"/>
			<psa30 value="0.00295916582187836" flag="0"/>
		</comp>
	</station>
	<station code="KSS1" name="KSS1" netid="HI" source="ITSAK Strong Motion Network" insttype="" lat="35.4189" lon="26.9207">
		<comp name="--.HNE" depth="0.0">
			<acc value="0.00709454225934101" flag="0"/>
			<vel value="0.00403393183197042" flag="0"/>
			<psa03 value="0.0278005838397311" flag="0"/>
			<psa10 value="0.00601034128060714" flag="0"/>
			<psa30 value="0.00106373307126063" flag="0"/>
		</comp>
		<comp name="--.HNN" depth="0.0">
			<acc value="0.00705582051783268" flag="0"/>
			<vel value="0.00468003652502511" flag="0"/>
			<psa03 value="0.031191287623913" flag="0"/>
			<psa10 value="0.00525122911817065" flag="0"/>
			<psa30 value="0.00151385684808719" flag="0"/>
		</comp>
		<comp name="--.HNZ" depth="0.0">
			<acc value="0.00432238284237165" flag="0"/>
			<vel value="0.0030912745300129" flag="0"/>
			<psa03 value="0.00690512474835242" flag="0"/>
			<psa10 value="0.00601671904683894" flag="0"/>
			<psa30 value="0.00121497892389038" flag="0"/>
		</comp>
	</station>
	<station code="SIT2" name="SIT2" netid="HI" source="ITSAK Strong Motion Network" insttype="" lat="35.2059" lon="26.107">
		<comp name="--.HNE" depth="0.0">
			<acc value="0.0674942072240659" flag="0"/>
			<vel value="0.0444397664623858" flag="0"/>
			<psa03 value="0.165883291037363" flag="0"/>
			<psa10 value="0.03652241318064" flag="0"/>
			<psa30 value="0.00430495393207024" flag="0"/>
		</comp>
		<comp name="--.HNN" depth="0.0">
			<acc value="0.0791792172469701" flag="0"/>
			<vel value="0.0460591324338191" flag="0"/>
			<psa03 value="0.258133954274302" flag="0"/>
			<psa10 value="0.0385290661115298" flag="0"/>
			<psa30 value="0.0036964319538113" flag="0"/>
		</comp>
		<comp name="--.HNZ" depth="0.0">
			<acc value="0.0759281200703779" flag="0"/>
			<vel value="0.0271056707884928" flag="0"/>
			<psa03 value="0.140063882711407" flag="0"/>
			<psa10 value="0.0118489483721619" flag="0"/>
			<psa30 value="0.00293671037598406" flag="0"/>
		</comp>
	</station>
	<station code="IACM" name="IACM" netid="HL" source="National Observatory of Athens Seismic Network" insttype="" lat="35.3058" lon="25.0709">
		<comp name="--.HNE" depth="0.0">
			<acc value="0.637270050461388" flag="0"/>
			<vel value="0.618045774331754" flag="0"/>
			<psa03 value="2.28543456548896" flag="0"/>
			<psa10 value="1.07938954425942" flag="0"/>
			<psa30 value="0.0552479599061151" flag="0"/>
		</comp>
		<comp name="--.HNN" depth="0.0">
			<acc value="0.486979357018092" flag="0"/>
			<vel value="0.339124348304696" flag="0"/>
			<psa03 value="1.65993246237853" flag="0"/>
			<psa10 value="0.618793572035312" flag="0"/>
			<psa30 value="0.0818787573993306" flag="0"/>
		</comp>
		<comp name="--.HNZ" depth="0.0">
			<acc value="0.329168250172739" flag="0"/>
			<vel value="0.151778643002694" flag="0"/>
			<psa03 value="0.875248397577911" flag="0"/>
			<psa10 value="0.212442648282676" flag="0"/>
			<psa30 value="0.0218548911126147" flag="0"/>
		</comp>
	</station>
	<station code="IMMV" name="IMMV" netid="HL" source="National Observatory of Athens Seismic Network" insttype="" lat="35.4606" lon="23.9811">
		<comp name="--.HNE" depth="0.0">
			<acc value="0.0237217171499178" flag="0"/>
			<vel value="0.0326470164779188" flag="0"/>
			<psa03 value="0.0607728592368616" flag="0"/>
			<psa10 value="0.0630428312780162" flag="0"/>
			<psa30 value="0.00231542046857412" flag="0"/>
		</comp>
		<comp name="--.HNN" depth="0.0">
			<acc value="0.0273239792139924" flag="0"/>
			<vel value="0.0222146907118969" flag="0"/>
			<psa03 value="0.0639739150414296" flag="0"/>
			<psa10 value="0.0426328167149423" flag="0"/>
			<psa30 value="0.00315695767461782" flag="0"/>
		</comp>
		<comp name="--.HNZ" depth="0.0">
			<acc value="0.0155737478231231" flag="0"/>
			<vel value="0.0124898225047692" flag="0"/>
			<psa03 value="0.0505889450192017" flag="0"/>
			<psa10 value="0.0171595298596498" flag="0"/>
			<psa30 value="0.00164388181576936" flag="0"/>
		</comp>
	</station>
	<station code="KARP" name="KARP" netid="HL" source="National Observatory of Athens Seismic Network" insttype="" lat="35.5471" lon="27.16106">
		<comp name="--.HNE" depth="0.0">
			<acc value="0.00761567513567814" flag="0"/>
			<vel value="0.00708499688585633" flag="0"/>
			<psa03 value="0.015997288908531" flag="0"/>
			<psa10 value="0.0128967480962753" flag="0"/>
			<psa30 value="0.0011143722591949" flag="0"/>
		</comp>
		<comp name="--.HNN" depth="0.0">
			<acc value="0.00780123390296899" flag="0"/>
			<vel value="0.00531868159777493" flag="0"/>
			<psa03 value="0.0124310409433719" flag="0"/>
			<psa10 value="0.0111806766024411" flag="0"/>
			<psa30 value="0.000703242159256283" flag="0"/>
		</comp>
		<comp name="--.HNZ" depth="0.0">
			<acc value="0.00629293474467025" flag="0"/>
			<vel value="0.00368207175746837" flag="0"/>
			<psa03 value="0.0129016398265832" flag="0"/>
			<psa10 value="0.00950946651800256" flag="0"/>
			<psa30 value="0.000796068829403109" flag="0"/>
		</comp>
	</station>
	<station code="KSTE" name="KSTE" netid="HL" source="National Observatory of Athens Seismic Network" insttype="" lat="35.1801" lon="25.3372">
		<comp name="--.HNE" depth="0.0">
			<acc value="3.48717191327559" flag="0"/>
			<vel value="0.920254473559871" flag="0"/>
			<psa03 value="4.40435343346762" flag="0"/>
			<psa10 value="0.600624308413417" flag="0"/>
			<psa30 value="0.0408764245291589" flag="0"/>
		</comp>
		<comp name="--.HNN" depth="0.0">
			<acc value="5.32237919630646" flag="0"/>
			<vel value="1.03088535240966" flag="0"/>
			<psa03 value="5.27262628559577" flag="0"/>
			<psa10 value="0.276493036306839" flag="0"/>
			<psa30 value="0.0427298206409159" flag="0"/>
		</comp>
		<comp name="--.HNZ" depth="0.0">
			<acc value="2.16459257208942" flag="0"/>
			<vel value="0.476079861021697" flag="0"/>
			<psa03 value="2.62497022472667" flag="0"/>
			<psa10 value="0.234248377805401" flag="0"/>
			<psa30 value="0.0497726238585518" flag="0"/>
		</comp>
	</station>
	<station code="SIVA" name="SIVA" netid="HL" source="National Observatory of Athens Seismic Network" insttype="" lat="35.01777" lon="24.81204">
		<comp name="00.HNE" depth="0.0">
			<acc value="0.119678678433307" flag="0"/>
			<vel value="0.0600018055776431" flag="0"/>
			<psa03 value="0.251125885857284" flag="0"/>
			<psa10 value="0.089552437409566" flag="0"/>
			<psa30 value="0.00982576340859088" flag="0"/>
		</comp>
		<comp name="00.HNN" depth="0.0">
			<acc value="0.117564710603137" flag="0"/>
			<vel value="0.0761542632223024" flag="0"/>
			<psa03 value="0.163452369584016" flag="0"/>
			<psa10 value="0.154656180213041" flag="0"/>
			<psa30 value="0.00930971255609092" flag="0"/>
		</comp>
		<comp name="00.HNZ" depth="0.0">
			<acc value="0.05039002092866" flag="0"/>
			<vel value="0.0325587949209781" flag="0"/>
			<psa03 value="0.128899413953721" flag="0"/>
			<psa10 value="0.0440987963286461" flag="0"/>
			<psa30 value="0.00811856781528568" flag="0"/>
		</comp>
	</station>
</stationlist>
