<?xml version="1.0" encoding="UTF-8" standalone="yes"?>
<!DOCTYPE earthquake SYSTEM "stationlist.dtd">
<stationlist created="" xmlns="ch.ethz.sed.shakemap.usgs.xml">
  <station code="IMMV" name="IMMV" netid="GE" insttype="STS-2/N" lat="35.4606" lon="23.9811">
    <comp name="--.HHE">
      <acc value="0.0251358018" flag="0"/>
      <vel value="0.0339008150" flag="0"/>
      <psa03 value="0.0667398272" flag="0"/>
      <psa10 value="0.0651718222" flag="0"/>
      <psa30 value="0.0023001177" flag="0"/>
    </comp>
    <comp name="--.HHN">
      <acc value="0.0289159439" flag="0"/>
      <vel value="0.0230253771" flag="0"/>
      <psa03 value="0.0685185494" flag="0"/>
      <psa10 value="0.0442240845" flag="0"/>
      <psa30 value="0.0031554176" flag="0"/>
    </comp>
    <comp name="--.HHZ">
      <acc value="0.0163391515" flag="0"/>
      <vel value="0.0126111174" flag="0"/>
      <psa03 value="0.0533489088" flag="0"/>
      <psa10 value="0.0171302119" flag="0"/>
      <psa30 value="0.0016770089" flag="0"/>
    </comp>
  </station>
  <station code="ZKR" name="ZKR" netid="GE" insttype="STS-2/N" lat="35.1147" lon="26.2169">
    <comp name="--.HHE">
      <acc value="0.0235540467" flag="0"/>
      <vel value="0.0161342210" flag="0"/>
      <psa03 value="0.0818267766" flag="0"/>
      <psa10 value="0.0247288520" flag="0"/>
      <psa30 value="0.0036834186" flag="0"/>
    </comp>
    <comp name="--.HHN">
      <acc value="0.0107972964" flag="0"/>
      <vel value="0.0063343285" flag="0"/>
      <psa03 value="0.0215891163" flag="0"/>
      <psa10 value="0.0141149942" flag="0"/>
      <psa30 value="0.0017003752" flag="0"/>
    </comp>
    <comp name="--.HHZ">
      <acc value="0.0102927154" flag="0"/>
      <vel value="0.0086615705" flag="0"/>
      <psa03 value="0.0203154454" flag="0"/>
      <psa10 value="0.0131782479" flag="0"/>
      <psa30 value="0.0035547839" flag="0"/>
    </comp>
  </station>
  <station code="IMOD" name="IMOD" netid="HC" insttype="120" lat="34.9731" lon="24.7995">
    <comp name="--.HHN">
      <acc value="0.0825951265" flag="0"/>
      <vel value="0.0803268644" flag="0"/>
      <psa03 value="0.2891185581" flag="0"/>
      <psa10 value="0.1447353592" flag="0"/>
      <psa30 value="0.0113759717" flag="0"/>
    </comp>
    <comp name="--.HHE">
      <acc value="0.0664774869" flag="0"/>
      <vel value="0.0565028524" flag="0"/>
      <psa03 value="0.3192526553" flag="0"/>
      <psa10 value="0.0625521134" flag="0"/>
      <psa30 value="0.0067633622" flag="0"/>
    </comp>
    <comp name="--.HHZ">
      <acc value="0.0372398393" flag="0"/>
      <vel value="0.0254534594" flag="0"/>
      <psa03 value="0.1140362262" flag="0"/>
      <psa10 value="0.0384483968" flag="0"/>
      <psa30 value="0.0068176638" flag="0"/>
    </comp>
  </station>
  <station code="KNSS" name="KNSS" netid="HC" insttype="60" lat="35.3042" lon="25.1802">
    <comp name="--.HHN">
      <acc value="0.2911799494" flag="0"/>
      <vel value="0.1687883852" flag="0"/>
      <psa03 value="0.9641755224" flag="0"/>
      <psa10 value="0.1147567437" flag="0"/>
      <psa30 value="0.0257384057" flag="0"/>
    </comp>
    <comp name="--.HHZ">
      <acc value="0.4019929262" flag="0"/>
      <vel value="0.1505586547" flag="0"/>
      <psa03 value="0.7686092610" flag="0"/>
      <psa10 value="0.0593906713" flag="0"/>
      <psa30 value="0.0335968495" flag="0"/>
    </comp>
    <comp name="--.HHE">
      <acc value="0.3974477190" flag="0"/>
      <vel value="0.2232617555" flag="0"/>
      <psa03 value="1.3129891026" flag="0"/>
      <psa10 value="0.2284664128" flag="0"/>
      <psa30 value="0.0277836519" flag="0"/>
    </comp>
  </station>
  <station code="PFKS" name="PFKS" netid="HC" insttype="120" lat="35.0429" lon="25.4733">
    <comp name="--.HHE">
      <acc value="0.4764946515" flag="0"/>
      <vel value="0.1560790620" flag="0"/>
      <psa03 value="0.5533302255" flag="0"/>
      <psa10 value="0.1664223412" flag="0"/>
      <psa30 value="0.0154539840" flag="0"/>
    </comp>
    <comp name="--.HHN">
      <acc value="0.5989833828" flag="0"/>
      <vel value="0.1745931414" flag="0"/>
      <psa03 value="0.7279423361" flag="0"/>
      <psa10 value="0.0598018825" flag="0"/>
      <psa30 value="0.0131324401" flag="0"/>
    </comp>
    <comp name="--.HHZ">
      <acc value="0.1907863831" flag="0"/>
      <vel value="0.0948401981" flag="0"/>
      <psa03 value="0.3685957078" flag="0"/>
      <psa10 value="0.0756422447" flag="0"/>
      <psa30 value="0.0183919577" flag="0"/>
    </comp>
  </station>
  <station code="STIA" name="STIA" netid="HC" insttype="120" lat="35.2021" lon="26.0909">
    <comp name="--.HHE">
      <acc value="0.0387568431" flag="0"/>
      <vel value="0.0231145405" flag="0"/>
      <psa03 value="0.0909202302" flag="0"/>
      <psa10 value="0.0396267839" flag="0"/>
      <psa30 value="0.0036494708" flag="0"/>
    </comp>
    <comp name="--.HHN">
      <acc value="0.0383092486" flag="0"/>
      <vel value="0.0235524800" flag="0"/>
      <psa03 value="0.0781911279" flag="0"/>
      <psa10 value="0.0386488684" flag="0"/>
      <psa30 value="0.0024858957" flag="0"/>
    </comp>
    <comp name="--.HHZ">
      <acc value="0.0329082841" flag="0"/>
      <vel value="0.0117582863" flag="0"/>
      <psa03 value="0.0627780173" flag="0"/>
      <psa10 value="0.0137501203" flag="0"/>
      <psa30 value="0.0025590399" flag="0"/>
    </comp>
  </station>
  <station code="CRE1" name="CRE1" netid="HL" insttype="LE3D20_SMART24" lat="35.2267" lon="25.2497">
    <comp name="--.HHE">
      <acc value="2.1175776322" flag="0"/>
      <vel value="0.9527931044" flag="0"/>
      <psa03 value="4.4361278802" flag="0"/>
      <psa10 value="0.4320945837" flag="0"/>
      <psa30 value="0.0375164172" flag="0"/>
    </comp>
    <comp name="--.HHN">
      <acc value="2.4371917225" flag="0"/>
      <vel value="1.0623389783" flag="0"/>
      <psa03 value="4.5006271393" flag="0"/>
      <psa10 value="0.4390460681" flag="0"/>
      <psa30 value="0.1171233457" flag="0"/>
    </comp>
    <comp name="--.HHZ">
      <acc value="1.4736517792" flag="0"/>
      <vel value="0.3468948045" flag="0"/>
      <psa03 value="1.4239324455" flag="0"/>
      <psa10 value="0.3362148382" flag="0"/>
      <psa30 value="0.0440234752" flag="0"/>
    </comp>
  </station>
  <station code="CRE3" name="CRE3" netid="HL" insttype="LE3D20_SMART24" lat="35.0769" lon="25.2462">
    <comp name="--.HHN">
      <acc value="2.4037322078" flag="0"/>
      <vel value="1.4595489305" flag="0"/>
      <psa03 value="4.0087025659" flag="0"/>
      <psa10 value="2.7989810939" flag="0"/>
      <psa30 value="0.2923885103" flag="0"/>
    </comp>
    <comp name="--.HHE">
      <acc value="1.3193377800" flag="0"/>
      <vel value="1.1895512988" flag="0"/>
      <psa03 value="3.3654707236" flag="0"/>
      <psa10 value="1.5839213075" flag="0"/>
      <psa30 value="0.2320490464" flag="0"/>
    </comp>
    <comp name="--.HHZ">
      <acc value="1.2018293258" flag="0"/>
      <vel value="1.1619993172" flag="0"/>
      <psa03 value="2.7305102551" flag="0"/>
      <psa10 value="1.9008536373" flag="0"/>
      <psa30 value="0.1474972417" flag="0"/>
    </comp>
  </station>
  <station code="IACM" name="IACM" netid="HL" insttype="120" lat="35.3058" lon="25.0709">
    <comp name="--.HHZ">
      <acc value="2.9400937434" flag="0"/>
      <vel value="0.3349940848" flag="0"/>
      <psa03 value="0.9159106784" flag="0"/>
      <psa10 value="0.3259224100" flag="0"/>
      <psa30 value="0.0322320648" flag="0"/>
    </comp>
    <comp name="--.HHN">
      <acc value="0.0007548252" flag="0"/>
      <vel value="-100.0000000000" flag="0"/>
      <psa03 value="0.0000003504" flag="0"/>
      <psa10 value="0.0000003735" flag="0"/>
      <psa30 value="0.0000005682" flag="0"/>
    </comp>
    <comp name="--.HHE">
      <acc value="0.0000000000" flag="0"/>
      <vel value="-100.0000000000" flag="0"/>
      <psa03 value="0.0000000000" flag="0"/>
      <psa10 value="0.0000000000" flag="0"/>
      <psa30 value="0.0000000000" flag="0"/>
    </comp>
  </station>
  <station code="IDI" name="IDI" netid="HL" insttype="120" lat="35.288" lon="24.89">
    <comp name="--.HHZ">
      <acc value="0.0408080912" flag="0"/>
      <vel value="0.0317801877" flag="0"/>
      <psa03 value="0.1049246522" flag="0"/>
      <psa10 value="0.0259301075" flag="0"/>
      <psa30 value="0.0130013679" flag="0"/>
    </comp>
    <comp name="--.HHE">
      <acc value="0.0664352759" flag="0"/>
      <vel value="0.0288515008" flag="0"/>
      <psa03 value="0.1344478870" flag="0"/>
      <psa10 value="0.0230791135" flag="0"/>
      <psa30 value="0.0070160080" flag="0"/>
    </comp>
    <comp name="--.HHN">
      <acc value="0.0529974833" flag="0"/>
      <vel value="0.0284411490" flag="0"/>
      <psa03 value="0.0861935505" flag="0"/>
      <psa10 value="0.0193657182" flag="0"/>
      <psa30 value="0.0060388852" flag="0"/>
    </comp>
  </station>
  <station code="IMMV" name="IMMV" netid="HL" insttype="120" lat="35.4606" lon="23.9811">
    <comp name="--.HHN">
      <acc value="0.0283170086" flag="0"/>
      <vel value="0.0226711451" flag="0"/>
      <psa03 value="0.0665322237" flag="0"/>
      <psa10 value="0.0439744316" flag="0"/>
      <psa30 value="0.0031570720" flag="0"/>
    </comp>
    <comp name="--.HHE">
      <acc value="0.0245232997" flag="0"/>
      <vel value="0.0335818288" flag="0"/>
      <psa03 value="0.0652075586" flag="0"/>
      <psa10 value="0.0648303369" flag="0"/>
      <psa30 value="0.0022968604" flag="0"/>
    </comp>
    <comp name="--.HHZ">
      <acc value="0.0159726562" flag="0"/>
      <vel value="0.0124909824" flag="0"/>
      <psa03 value="0.0519724879" flag="0"/>
      <psa10 value="0.0170317603" flag="0"/>
      <psa30 value="0.0016756903" flag="0"/>
    </comp>
  </station>
  <station code="KSTE" name="KSTE" netid="HL" insttype="60" lat="35.1801" lon="25.3372">
    <comp name="--.HHE">
      <acc value="3.9701872798" flag="0"/>
      <vel value="0.8692955712" flag="0"/>
      <psa03 value="4.5241096651" flag="0"/>
      <psa10 value="0.5998998097" flag="0"/>
      <psa30 value="0.0443041295" flag="0"/>
    </comp>
    <comp name="--.HHZ">
      <acc value="2.3734592997" flag="0"/>
      <vel value="0.4873925768" flag="0"/>
      <psa03 value="2.7655042146" flag="0"/>
      <psa10 value="0.2331361880" flag="0"/>
      <psa30 value="0.0481007380" flag="0"/>
    </comp>
    <comp name="--.HHN">
      <acc value="5.5865941486" flag="0"/>
      <vel value="0.8752775786" flag="0"/>
      <psa03 value="5.0684295910" flag="0"/>
      <psa10 value="0.2520734011" flag="0"/>
      <psa30 value="0.0387870934" flag="0"/>
    </comp>
  </station>
  <station code="NPS" name="NPS" netid="HL" insttype="CMG3ESPC-120s" lat="35.2613" lon="25.6104">
    <comp name="--.HHN">
      <acc value="0.1980320292" flag="0"/>
      <vel value="0.0701645697" flag="0"/>
      <psa03 value="0.5267199995" flag="0"/>
      <psa10 value="0.0744596621" flag="0"/>
      <psa30 value="0.0116760870" flag="0"/>
    </comp>
    <comp name="--.HHE">
      <acc value="0.0898889748" flag="0"/>
      <vel value="0.0453159487" flag="0"/>
      <psa03 value="0.1422862873" flag="0"/>
      <psa10 value="0.0387876509" flag="0"/>
      <psa30 value="0.0055259392" flag="0"/>
    </comp>
    <comp name="--.HHZ">
      <acc value="0.1713765339" flag="0"/>
      <vel value="0.0639084899" flag="0"/>
      <psa03 value="0.3027010555" flag="0"/>
      <psa10 value="0.1113646893" flag="0"/>
      <psa30 value="0.0139669301" flag="0"/>
    </comp>
  </station>
  <station code="SIVA" name="SIVA" netid="HL" insttype="60" lat="35.0178" lon="24.812">
    <comp name="--.HHE">
      <acc value="0.1282733512" flag="0"/>
      <vel value="0.0624305724" flag="0"/>
      <psa03 value="0.2650984553" flag="0"/>
      <psa10 value="0.0935364904" flag="0"/>
      <psa30 value="0.0096077451" flag="0"/>
    </comp>
    <comp name="--.HHN">
      <acc value="0.1364888356" flag="0"/>
      <vel value="0.0699020749" flag="0"/>
      <psa03 value="0.1552574237" flag="0"/>
      <psa10 value="0.1307907063" flag="0"/>
      <psa30 value="0.0073177311" flag="0"/>
    </comp>
    <comp name="--.HHZ">
      <acc value="0.0512408668" flag="0"/>
      <vel value="0.0345959091" flag="0"/>
      <psa03 value="0.1294730587" flag="0"/>
      <psa10 value="0.0454290268" flag="0"/>
      <psa30 value="0.0074833321" flag="0"/>
    </comp>
  </station>
  <station code="VAM" name="VAM" netid="HL" insttype="CMG3ESPC-120s" lat="35.407" lon="24.1997">
    <comp name="--.HHZ">
      <acc value="0.0210533007" flag="0"/>
      <vel value="0.0118567812" flag="0"/>
      <psa03 value="0.0558544153" flag="0"/>
      <psa10 value="0.0111916218" flag="0"/>
      <psa30 value="0.0023990546" flag="0"/>
    </comp>
    <comp name="--.HHE">
      <acc value="0.0328508688" flag="0"/>
      <vel value="0.0220093885" flag="0"/>
      <psa03 value="0.0966951290" flag="0"/>
      <psa10 value="0.0184076213" flag="0"/>
      <psa30 value="0.0028537589" flag="0"/>
    </comp>
    <comp name="--.HHN">
      <acc value="0.0385848682" flag="0"/>
      <vel value="0.0209366569" flag="0"/>
      <psa03 value="0.1027799099" flag="0"/>
      <psa10 value="0.0205426274" flag="0"/>
      <psa30 value="0.0036455313" flag="0"/>
    </comp>
  </station>
  <station code="ZKR" name="ZKR" netid="HL" insttype="120" lat="35.1147" lon="26.2169">
    <comp name="--.HHN">
      <acc value="0.0105246678" flag="0"/>
      <vel value="0.0062577382" flag="0"/>
      <psa03 value="0.0210096686" flag="0"/>
      <psa10 value="0.0140452144" flag="0"/>
      <psa30 value="0.0017003464" flag="0"/>
    </comp>
    <comp name="--.HHE">
      <acc value="0.0230662222" flag="0"/>
      <vel value="0.0159208885" flag="0"/>
      <psa03 value="0.0796123414" flag="0"/>
      <psa10 value="0.0244662630" flag="0"/>
      <psa30 value="0.0036849557" flag="0"/>
    </comp>
    <comp name="--.HHZ">
      <acc value="0.0100198126" flag="0"/>
      <vel value="0.0086199564" flag="0"/>
      <psa03 value="0.0198575966" flag="0"/>
      <psa10 value="0.0130871922" flag="0"/>
      <psa30 value="0.0035553568" flag="0"/>
    </comp>
  </station>
  <station code="IDI" name="IDI" netid="MN" insttype="" lat="35.288" lon="24.89">
    <comp name="--.HHN">
      <acc value="0.0555965334" flag="0"/>
      <vel value="0.0284525147" flag="0"/>
      <psa03 value="0.0874794779" flag="0"/>
      <psa10 value="0.0192164817" flag="0"/>
      <psa30 value="0.0059685281" flag="0"/>
    </comp>
    <comp name="--.HHZ">
      <acc value="0.0420309041" flag="0"/>
      <vel value="0.0315910601" flag="0"/>
      <psa03 value="0.1068278184" flag="0"/>
      <psa10 value="0.0256899085" flag="0"/>
      <psa30 value="0.0128379212" flag="0"/>
    </comp>
    <comp name="--.HHE">
      <acc value="0.0687450489" flag="0"/>
      <vel value="0.0291693631" flag="0"/>
      <psa03 value="0.1363803321" flag="0"/>
      <psa10 value="0.0229258597" flag="0"/>
      <psa30 value="0.0069422161" flag="0"/>
    </comp>
  </station>
</stationlist>
