<?xml version="1.0" encoding="UTF-8" standalone="yes"?>
<!DOCTYPE earthquake SYSTEM "stationlist.dtd">
<stationlist created="" xmlns="ch.ethz.sed.shakemap.usgs.xml">
  <station code="IMMV" name="IMMV" netid="GE" insttype="STS-2/N" lat="35.4606" lon="23.9811">
    <comp name="--.HHE">
      <acc value="0.0251358018" flag="0"/>
      <vel value="0.0339008150" flag="0"/>
      <psa03 value="0.0667398272" flag="0"/>
      <psa10 value="0.0651718222" flag="0"/>
      <psa30 value="0.0023001177" flag="0"/>
    </comp>
    <comp name="--.HHN">
      <acc value="0.0289159439" flag="0"/>
      <vel value="0.0230253771" flag="0"/>
      <psa03 value="0.0685185494" flag="0"/>
      <psa10 value="0.0442240845" flag="0"/>
      <psa30 value="0.0031554176" flag="0"/>
    </comp>
    <comp name="--.HHZ">
      <acc value="0.0163391515" flag="0"/>
      <vel value="0.0126111174" flag="0"/>
      <psa03 value="0.0533489088" flag="0"/>
      <psa10 value="0.0171302119" flag="0"/>
      <psa30 value="0.0016770089" flag="0"/>
    </comp>
  </station>
  <station code="ZKR" name="ZKR" netid="GE" insttype="STS-2/N" lat="35.1147" lon="26.2169">
    <comp name="--.HHE">
      <acc value="0.0235540467" flag="0"/>
      <vel value="0.0161342210" flag="0"/>
      <psa03 value="0.0818267766" flag="0"/>
      <psa10 value="0.0247288520" flag="0"/>
      <psa30 value="0.0036834186" flag="0"/>
    </comp>
    <comp name="--.HHN">
      <acc value="0.0107972964" flag="0"/>
      <vel value="0.0063343285" flag="0"/>
      <psa03 value="0.0215891163" flag="0"/>
      <psa10 value="0.0141149942" flag="0"/>
      <psa30 value="0.0017003752" flag="0"/>
    </comp>
    <comp name="--.HHZ">
      <acc value="0.0102927154" flag="0"/>
      <vel value="0.0086615705" flag="0"/>
      <psa03 value="0.0203154454" flag="0"/>
      <psa10 value="0.0131782479" flag="0"/>
      <psa30 value="0.0035547839" flag="0"/>
    </comp>
  </station>
  <station code="IDI" name="IDI" netid="MN" insttype="" lat="35.288" lon="24.89">
    <comp name="--.HHN">
      <acc value="0.0555965334" flag="0"/>
      <vel value="0.0284525147" flag="0"/>
      <psa03 value="0.0874794779" flag="0"/>
      <psa10 value="0.0192164817" flag="0"/>
      <psa30 value="0.0059685281" flag="0"/>
    </comp>
    <comp name="--.HHZ">
      <acc value="0.0420309041" flag="0"/>
      <vel value="0.0315910601" flag="0"/>
      <psa03 value="0.1068278184" flag="0"/>
      <psa10 value="0.0256899085" flag="0"/>
      <psa30 value="0.0128379212" flag="0"/>
    </comp>
    <comp name="--.HHE">
      <acc value="0.0687450489" flag="0"/>
      <vel value="0.0291693631" flag="0"/>
      <psa03 value="0.1363803321" flag="0"/>
      <psa10 value="0.0229258597" flag="0"/>
      <psa30 value="0.0069422161" flag="0"/>
    </comp>
  </station>
</stationlist>
