<?xml version="1.0" encoding="UTF-8" standalone="yes"?>
<!DOCTYPE earthquake SYSTEM "stationlist.dtd">
<stationlist created="" xmlns="ch.ethz.sed.shakemap.usgs.xml">
  <station code="CLMF" name="CLMF" netid="FR" insttype="TRILLIUM-120PH" lat="45.5226" lon="-0.195658">
    <comp name="00.HHN">
      <acc value="0.0343169821" flag="0"/>
      <vel value="0.0082777252" flag="0"/>
      <psa03 value="0.0577325906" flag="0"/>
      <psa10 value="0.0043727268" flag="0"/>
      <psa30 value="0.0003571562" flag="0"/>
    </comp>
    <comp name="00.HHZ">
      <acc value="0.0244922660" flag="0"/>
      <vel value="0.0043681548" flag="0"/>
      <psa03 value="0.0211396442" flag="0"/>
      <psa10 value="0.0019865286" flag="0"/>
      <psa30 value="0.0001141198" flag="0"/>
    </comp>
    <comp name="00.HHE">
      <acc value="0.0277458210" flag="0"/>
      <vel value="0.0068635852" flag="0"/>
      <psa03 value="0.0309904391" flag="0"/>
      <psa10 value="0.0051672216" flag="0"/>
      <psa30 value="0.0003216102" flag="0"/>
    </comp>
  </station>
</stationlist>
