<?xml version="1.0" encoding="UTF-8" standalone="yes"?>
<!DOCTYPE earthquake SYSTEM "stationlist.dtd">
<stationlist created="" xmlns="ch.ethz.sed.shakemap.usgs.xml">
  <station code="APE" name="APE" netid="GE" insttype="STS-2/N" commtype="DIG" lat="37.0727" lon="25.523">
    <comp name="--.HHE">
      <acc value="0.1212250111" flag="0"/>
      <vel value="0.0194697566" flag="0"/>
      <psa03 value="0.0612976750" flag="0"/>
      <psa10 value="0.0029007363" flag="0"/>
      <psa30 value="0.0003172774" flag="0"/>
    </comp>
    <comp name="--.HHZ">
      <acc value="0.0670096958" flag="0"/>
      <vel value="0.0112313681" flag="0"/>
      <psa03 value="0.0317237214" flag="0"/>
      <psa10 value="0.0017822803" flag="0"/>
      <psa30 value="0.0003041467" flag="0"/>
    </comp>
    <comp name="--.HHN">
      <acc value="0.1646224362" flag="0"/>
      <vel value="0.0291541458" flag="0"/>
      <psa03 value="0.0678966565" flag="0"/>
      <psa10 value="0.0032225083" flag="0"/>
      <psa30 value="0.0004468474" flag="0"/>
    </comp>
  </station>
  <station code="THERA" name="THERA" netid="GE" insttype="STS-2/N" commtype="DIG" lat="36.367" lon="25.4753">
    <comp name="--.HHZ">
      <acc value="0.0723476240" flag="0"/>
      <vel value="0.0146694007" flag="0"/>
      <psa03 value="0.0674460528" flag="0"/>
      <psa10 value="0.0021751203" flag="0"/>
      <psa30 value="0.0003107617" flag="0"/>
    </comp>
    <comp name="--.HHN">
      <acc value="0.0487443993" flag="0"/>
      <vel value="0.0149826739" flag="0"/>
      <psa03 value="0.0711600105" flag="0"/>
      <psa10 value="0.0029020708" flag="0"/>
      <psa30 value="0.0001815408" flag="0"/>
    </comp>
    <comp name="--.HHE">
      <acc value="0.0851226027" flag="0"/>
      <vel value="0.0201003393" flag="0"/>
      <psa03 value="0.1079315352" flag="0"/>
      <psa10 value="0.0049231323" flag="0"/>
      <psa30 value="0.0004148891" flag="0"/>
    </comp>
  </station>
</stationlist>
