<?xml version="1.0" encoding="UTF-8" standalone="yes"?>
<!DOCTYPE earthquake SYSTEM "stationlist.dtd">
<stationlist created="" xmlns="ch.ethz.sed.shakemap.usgs.xml">
  <station code="LMS2" name="LMS2" netid="HI" source="NOA" insttype="CMG-5TD,ACCELEROMETER,GURALP" lat="40.835" lon="21.1418">
    <comp name="--.HNE">
      <acc value="0.0604205608" flag="0"/>
      <vel value="0.0136101827" flag="0"/>
      <psa03 value="0.0593497614" flag="0"/>
      <psa10 value="0.0066324092" flag="0"/>
      <psa30 value="0.0004863808" flag="0"/>
    </comp>
    <comp name="--.HNN">
      <acc value="0.0871466872" flag="0"/>
      <vel value="0.0211389146" flag="0"/>
      <psa03 value="0.0534924982" flag="0"/>
      <psa10 value="0.0065909169" flag="0"/>
      <psa30 value="0.0003968519" flag="0"/>
    </comp>
    <comp name="--.HNZ">
      <acc value="0.0220991759" flag="0"/>
      <vel value="0.0051178280" flag="0"/>
      <psa03 value="0.0207593476" flag="0"/>
      <psa10 value="0.0044088554" flag="0"/>
      <psa30 value="0.0004506249" flag="0"/>
    </comp>
  </station>
  <station code="JAN" name="JAN" netid="HL" source="NOA" insttype="CMG3EPSC60_DR24" lat="39.6562" lon="20.8487">
    <comp name="--.HHE">
      <acc value="0.0105555480" flag="0"/>
      <vel value="0.0056239162" flag="0"/>
      <psa03 value="0.0256678591" flag="0"/>
      <psa10 value="0.0075550671" flag="0"/>
      <psa30 value="0.0003371338" flag="0"/>
    </comp>
    <comp name="--.HHN">
      <acc value="0.0140493036" flag="0"/>
      <vel value="0.0067619798" flag="0"/>
      <psa03 value="0.0486942255" flag="0"/>
      <psa10 value="0.0041896165" flag="0"/>
      <psa30 value="0.0002935253" flag="0"/>
    </comp>
    <comp name="--.HHZ">
      <acc value="0.0066094099" flag="0"/>
      <vel value="0.0038558872" flag="0"/>
      <psa03 value="0.0295255540" flag="0"/>
      <psa10 value="0.0033003024" flag="0"/>
      <psa30 value="0.0002855922" flag="0"/>
    </comp>
  </station>
  <station code="KZN" name="KZN" netid="HL" source="NOA" insttype="120" lat="40.3033" lon="21.7821">
    <comp name="--.HHE">
      <acc value="0.0142715307" flag="0"/>
      <vel value="0.0059257349" flag="0"/>
      <psa03 value="0.0295209470" flag="0"/>
      <psa10 value="0.0091454945" flag="0"/>
      <psa30 value="0.0004892287" flag="0"/>
    </comp>
    <comp name="--.HHN">
      <acc value="0.0162550976" flag="0"/>
      <vel value="0.0077315076" flag="0"/>
      <psa03 value="0.0249678786" flag="0"/>
      <psa10 value="0.0076656569" flag="0"/>
      <psa30 value="0.0006421000" flag="0"/>
    </comp>
    <comp name="--.HHZ">
      <acc value="0.0076400495" flag="0"/>
      <vel value="0.0034486105" flag="0"/>
      <psa03 value="0.0144981651" flag="0"/>
      <psa10 value="0.0032730218" flag="0"/>
      <psa30 value="0.0003175009" flag="0"/>
    </comp>
  </station>
  <station code="PENT" name="PENT" netid="HL" source="NOA" insttype="30" lat="40.1959" lon="21.1384">
    <comp name="--.HHE">
      <acc value="0.0384039779" flag="0"/>
      <vel value="0.0148014594" flag="0"/>
      <psa03 value="0.0897164987" flag="0"/>
      <psa10 value="0.0094466738" flag="0"/>
      <psa30 value="0.0005138241" flag="0"/>
    </comp>
    <comp name="--.HHN">
      <acc value="0.0028604637" flag="0"/>
      <vel value="0.0006639327" flag="0"/>
      <psa03 value="0.0041665286" flag="0"/>
      <psa10 value="0.0004147362" flag="0"/>
      <psa30 value="0.0001081404" flag="0"/>
    </comp>
    <comp name="--.HHZ">
      <acc value="0.0365407492" flag="0"/>
      <vel value="0.0091335961" flag="0"/>
      <psa03 value="0.0413744896" flag="0"/>
      <psa10 value="0.0088011403" flag="0"/>
      <psa30 value="0.0006799527" flag="0"/>
    </comp>
  </station>
  <station code="IGT" name="IGT" netid="HT" source="NOA" insttype="100" lat="39.5315" lon="20.3299">
    <comp name="--.HHE">
      <acc value="0.0038734970" flag="0"/>
      <vel value="0.0027385702" flag="0"/>
      <psa03 value="0.0107367445" flag="0"/>
      <psa10 value="0.0031473419" flag="0"/>
      <psa30 value="0.0002225961" flag="0"/>
    </comp>
    <comp name="--.HHN">
      <acc value="0.0046323187" flag="0"/>
      <vel value="0.0034739366" flag="0"/>
      <psa03 value="0.0129278252" flag="0"/>
      <psa10 value="0.0041235222" flag="0"/>
      <psa30 value="0.0001908943" flag="0"/>
    </comp>
    <comp name="--.HHZ">
      <acc value="0.0024179467" flag="0"/>
      <vel value="0.0018436723" flag="0"/>
      <psa03 value="0.0073288522" flag="0"/>
      <psa10 value="0.0031393349" flag="0"/>
      <psa30 value="0.0001923975" flag="0"/>
    </comp>
  </station>
  <station code="KPRO" name="KPRO" netid="HT" source="NOA" insttype="100" lat="39.9549" lon="21.3632">
    <comp name="--.HHE">
      <acc value="0.0208763956" flag="0"/>
      <vel value="0.0074072799" flag="0"/>
      <psa03 value="0.0442076780" flag="0"/>
      <psa10 value="0.0102864732" flag="0"/>
      <psa30 value="0.0006856479" flag="0"/>
    </comp>
    <comp name="--.HHN">
      <acc value="0.0193755042" flag="0"/>
      <vel value="0.0070121279" flag="0"/>
      <psa03 value="0.0360518437" flag="0"/>
      <psa10 value="0.0109884752" flag="0"/>
      <psa30 value="0.0011394175" flag="0"/>
    </comp>
    <comp name="--.HHZ">
      <acc value="0.0094837071" flag="0"/>
      <vel value="0.0051239529" flag="0"/>
      <psa03 value="0.0297708337" flag="0"/>
      <psa10 value="0.0076513649" flag="0"/>
      <psa30 value="0.0007468276" flag="0"/>
    </comp>
  </station>
  <station code="NEST" name="NEST" netid="HT" source="NOA" insttype="120P," lat="40.4147" lon="21.0489">
    <comp name="--.HHE">
      <acc value="0.1395788285" flag="0"/>
      <vel value="0.0319456185" flag="0"/>
      <psa03 value="0.1107985934" flag="0"/>
      <psa10 value="0.0272457257" flag="0"/>
      <psa30 value="0.0027356131" flag="0"/>
    </comp>
    <comp name="--.HHN">
      <acc value="0.0923507870" flag="0"/>
      <vel value="0.0262809382" flag="0"/>
      <psa03 value="0.1663583785" flag="0"/>
      <psa10 value="0.0270613036" flag="0"/>
      <psa30 value="0.0022566874" flag="0"/>
    </comp>
    <comp name="--.HHZ">
      <acc value="0.1665486312" flag="0"/>
      <vel value="0.0270791570" flag="0"/>
      <psa03 value="0.1235982427" flag="0"/>
      <psa10 value="0.0195142385" flag="0"/>
      <psa30 value="0.0018988721" flag="0"/>
    </comp>
  </station>
</stationlist>
