<stationlist xmlns:esm="https://esm-db.eu/esmws/shakemap/1/" created="1781920457">
	<station code="LMS2" name="LMS2" netid="HI" source="ITSAK Strong Motion Network" insttype="" lat="40.834985" lon="21.141815" esm:processing="manual (Paolucci et al 2011)" esm:quality="good">
		<comp name="--.HNE" depth="0.0">
			<acc value="0.0614168700015333" flag="0"/>
			<vel value="0.0138239867576351" flag="0"/>
			<psa03 value="0.0597308458353928" flag="0"/>
			<psa10 value="0.00666032487719593" flag="0"/>
			<psa30 value="0.000517219908507221" flag="0"/>
		</comp>
		<comp name="--.HNN" depth="0.0">
			<acc value="0.0868664831944226" flag="0"/>
			<vel value="0.0214297204986538" flag="0"/>
			<psa03 value="0.054496007661055" flag="0"/>
			<psa10 value="0.00666032487719593" flag="0"/>
			<psa30 value="0.0004478694882489" flag="0"/>
		</comp>
		<comp name="--.HNZ" depth="0.0">
			<acc value="0.0221037917488143" flag="0"/>
			<vel value="0.00517734119317614" flag="0"/>
			<psa03 value="0.0210288371105877" flag="0"/>
			<psa10 value="0.0044294784552089" flag="0"/>
			<psa30 value="0.000501560136190826" flag="0"/>
		</comp>
	</station>
	<station code="JAN" name="JAN" netid="HL" source="National Observatory of Athens Seismic Network" insttype="" lat="39.65616" lon="20.84874" esm:processing="manual (Paolucci et al 2011)" esm:quality="best">
		<comp name="00.HNE" depth="0.0">
			<acc value="0.0108501225109666" flag="0"/>
			<vel value="0.00598667594981811" flag="0"/>
			<psa03 value="0.0270690350040544" flag="0"/>
			<psa10 value="0.00763078333874625" flag="0"/>
			<psa30 value="0.000374492269394935" flag="0"/>
		</comp>
		<comp name="00.HNN" depth="0.0">
			<acc value="0.0140551710217766" flag="0"/>
			<vel value="0.00662224820680345" flag="0"/>
			<psa03 value="0.047739934461696" flag="0"/>
			<psa10 value="0.00413552215772686" flag="0"/>
			<psa30 value="0.000291271765084949" flag="0"/>
		</comp>
		<comp name="00.HNZ" depth="0.0">
			<acc value="0.00657190600205129" flag="0"/>
			<vel value="0.00389402397274912" flag="0"/>
			<psa03 value="0.0292166609217315" flag="0"/>
			<psa10 value="0.00325365326528072" flag="0"/>
			<psa30 value="0.000368228360468376" flag="0"/>
		</comp>
	</station>
</stationlist>
