<?xml version="1.0" encoding="UTF-8" standalone="yes"?>
<!DOCTYPE earthquake SYSTEM "stationlist.dtd">
<stationlist created="" xmlns="ch.ethz.sed.shakemap.usgs.xml">
  <station code="BNALP" name="BNALP" netid="CH" source="SED" insttype="EpiSensor ES-T" lat="46.8703" lon="8.4249">
    <comp name="--.HGE">
      <acc value="0.0098997598" flag="0"/>
      <vel value="0.0026864714" flag="0"/>
      <psa03 value="0.0158167821" flag="0"/>
      <psa10 value="0.0009250628" flag="0"/>
      <psa30 value="0.0001213096" flag="0"/>
    </comp>
    <comp name="--.HGN">
      <acc value="0.0048521192" flag="0"/>
      <vel value="0.0021734433" flag="0"/>
      <psa03 value="0.0124891741" flag="0"/>
      <psa10 value="0.0011987034" flag="0"/>
      <psa30 value="0.0001143607" flag="0"/>
    </comp>
    <comp name="--.HGZ">
      <acc value="0.0078496318" flag="0"/>
      <vel value="0.0024892794" flag="0"/>
      <psa03 value="0.0151836274" flag="0"/>
      <psa10 value="0.0009157074" flag="0"/>
      <psa30 value="0.0001052114" flag="0"/>
    </comp>
  </station>
  <station code="BOBI" name="BOBI" netid="CH" source="SED" insttype="EpiSensor ES-T" lat="47.5463" lon="8.33992">
    <comp name="SF.HGE">
      <acc value="0.0197087616" flag="0"/>
      <vel value="0.0043549024" flag="0"/>
      <psa03 value="0.0199980181" flag="0"/>
      <psa10 value="0.0018401307" flag="0"/>
      <psa30 value="0.0001355919" flag="0"/>
    </comp>
    <comp name="SF.HGN">
      <acc value="0.0286038951" flag="0"/>
      <vel value="0.0069483058" flag="0"/>
      <psa03 value="0.0208682959" flag="0"/>
      <psa10 value="0.0016873678" flag="0"/>
      <psa30 value="0.0001665299" flag="0"/>
    </comp>
    <comp name="SF.HGZ">
      <acc value="0.0161601833" flag="0"/>
      <vel value="0.0031914782" flag="0"/>
      <psa03 value="0.0168130391" flag="0"/>
      <psa10 value="0.0009730107" flag="0"/>
      <psa30 value="0.0000968780" flag="0"/>
    </comp>
  </station>
  <station code="HAMIK" name="HAMIK" netid="CH" source="SED" insttype="EpiSensor ES-T" lat="47.2451" lon="8.27061">
    <comp name="SF.HGE">
      <acc value="0.0344134433" flag="0"/>
      <vel value="0.0066165769" flag="0"/>
      <psa03 value="0.0297465578" flag="0"/>
      <psa10 value="0.0026636340" flag="0"/>
      <psa30 value="0.0002568494" flag="0"/>
    </comp>
    <comp name="SF.HGN">
      <acc value="0.0483637228" flag="0"/>
      <vel value="0.0094416436" flag="0"/>
      <psa03 value="0.0262255770" flag="0"/>
      <psa10 value="0.0035635944" flag="0"/>
      <psa30 value="0.0003172622" flag="0"/>
    </comp>
    <comp name="SF.HGZ">
      <acc value="0.0104598356" flag="0"/>
      <vel value="0.0025501931" flag="0"/>
      <psa03 value="0.0122837923" flag="0"/>
      <psa10 value="0.0022378443" flag="0"/>
      <psa30 value="0.0001255693" flag="0"/>
    </comp>
  </station>
  <station code="LIENZ" name="LIENZ" netid="CH" source="SED" insttype="EpiSensor ES-T" lat="47.2946" lon="9.4927">
    <comp name="--.HGE">
      <acc value="0.0746190621" flag="0"/>
      <vel value="0.0240264239" flag="0"/>
      <psa03 value="0.0656414818" flag="0"/>
      <psa10 value="0.0206303848" flag="0"/>
      <psa30 value="0.0013096707" flag="0"/>
    </comp>
    <comp name="--.HGN">
      <acc value="0.0524079240" flag="0"/>
      <vel value="0.0158429844" flag="0"/>
      <psa03 value="0.0606953559" flag="0"/>
      <psa10 value="0.0069196053" flag="0"/>
      <psa30 value="0.0004300382" flag="0"/>
    </comp>
    <comp name="--.HGZ">
      <acc value="0.0504061175" flag="0"/>
      <vel value="0.0114749092" flag="0"/>
      <psa03 value="0.0410225665" flag="0"/>
      <psa10 value="0.0060387122" flag="0"/>
      <psa30 value="0.0003862328" flag="0"/>
    </comp>
  </station>
  <station code="LLS" name="LLS" netid="CH" source="SED" insttype="STS2_gen3" lat="46.8468" lon="9.00825">
    <comp name="--.HHE">
      <acc value="0.0284571777" flag="0"/>
      <vel value="0.0032533398" flag="0"/>
      <psa03 value="0.0060366867" flag="0"/>
      <psa10 value="0.0008901588" flag="0"/>
      <psa30 value="0.0000920800" flag="0"/>
    </comp>
    <comp name="--.HHN">
      <acc value="0.0366989734" flag="0"/>
      <vel value="0.0032768134" flag="0"/>
      <psa03 value="0.0071516860" flag="0"/>
      <psa10 value="0.0012197120" flag="0"/>
      <psa30 value="0.0001553877" flag="0"/>
    </comp>
    <comp name="--.HHZ">
      <acc value="0.0322697861" flag="0"/>
      <vel value="0.0037181920" flag="0"/>
      <psa03 value="0.0084199811" flag="0"/>
      <psa10 value="0.0008544636" flag="0"/>
      <psa30 value="0.0000994276" flag="0"/>
    </comp>
  </station>
  <station code="PANIX" name="PANIX" netid="CH" source="SED" insttype="STS2_gen3" lat="46.8257" lon="9.11171">
    <comp name="--.HHE">
      <acc value="0.0165025374" flag="0"/>
      <vel value="0.0023419370" flag="0"/>
      <psa03 value="0.0070656426" flag="0"/>
      <psa10 value="0.0011106360" flag="0"/>
      <psa30 value="0.0001146452" flag="0"/>
    </comp>
    <comp name="--.HHN">
      <acc value="0.0198590380" flag="0"/>
      <vel value="0.0025498832" flag="0"/>
      <psa03 value="0.0120076392" flag="0"/>
      <psa10 value="0.0013368187" flag="0"/>
      <psa30 value="0.0001396218" flag="0"/>
    </comp>
    <comp name="--.HHZ">
      <acc value="0.0189938415" flag="0"/>
      <vel value="0.0021258527" flag="0"/>
      <psa03 value="0.0096158511" flag="0"/>
      <psa10 value="0.0009718897" flag="0"/>
      <psa30 value="0.0000995624" flag="0"/>
    </comp>
  </station>
  <station code="PLONS" name="PLONS" netid="CH" source="SED" insttype="STS2_gen3" lat="47.0492" lon="9.38076">
    <comp name="--.HHE">
      <acc value="0.2505509647" flag="0"/>
      <vel value="0.0473613575" flag="0"/>
      <psa03 value="0.1738679324" flag="0"/>
      <psa10 value="0.0124334362" flag="0"/>
      <psa30 value="0.0011040717" flag="0"/>
    </comp>
    <comp name="--.HHN">
      <acc value="0.2848820762" flag="0"/>
      <vel value="0.0691647933" flag="0"/>
      <psa03 value="0.1840911396" flag="0"/>
      <psa10 value="0.0225406209" flag="0"/>
      <psa30 value="0.0020027739" flag="0"/>
    </comp>
    <comp name="--.HHZ">
      <acc value="0.2407907092" flag="0"/>
      <vel value="0.0354846396" flag="0"/>
      <psa03 value="0.0970615540" flag="0"/>
      <psa10 value="0.0135252221" flag="0"/>
      <psa30 value="0.0009693506" flag="0"/>
    </comp>
  </station>
  <station code="SALTS" name="SALTS" netid="CH" source="SED" insttype="EpiSensor ES-T" lat="46.882" lon="8.63821">
    <comp name="--.HGE">
      <acc value="0.0305825996" flag="0"/>
      <vel value="0.0061802411" flag="0"/>
      <psa03 value="0.0296858242" flag="0"/>
      <psa10 value="0.0024241111" flag="0"/>
      <psa30 value="0.0001606988" flag="0"/>
    </comp>
    <comp name="--.HGN">
      <acc value="0.0494977841" flag="0"/>
      <vel value="0.0082068934" flag="0"/>
      <psa03 value="0.0202714360" flag="0"/>
      <psa10 value="0.0038336449" flag="0"/>
      <psa30 value="0.0001946313" flag="0"/>
    </comp>
    <comp name="--.HGZ">
      <acc value="0.0156179713" flag="0"/>
      <vel value="0.0032607815" flag="0"/>
      <psa03 value="0.0169818738" flag="0"/>
      <psa10 value="0.0012693067" flag="0"/>
      <psa30 value="0.0000842986" flag="0"/>
    </comp>
  </station>
  <station code="SBUA2" name="SBUA2" netid="CH" source="SED" insttype="EpiSensor ES-T" lat="47.1591" lon="9.47102">
    <comp name="--.HGE">
      <acc value="2.1537951190" flag="0"/>
      <vel value="0.3060793242" flag="0"/>
      <psa03 value="1.1640877320" flag="0"/>
      <psa10 value="0.0563339096" flag="0"/>
      <psa30 value="0.0048868181" flag="0"/>
    </comp>
    <comp name="--.HGN">
      <acc value="2.2066592386" flag="0"/>
      <vel value="0.2941265787" flag="0"/>
      <psa03 value="0.8406113152" flag="0"/>
      <psa10 value="0.0335874867" flag="0"/>
      <psa30 value="0.0032888927" flag="0"/>
    </comp>
    <comp name="--.HGZ">
      <acc value="0.9627113128" flag="0"/>
      <vel value="0.1250585150" flag="0"/>
      <psa03 value="0.2861626576" flag="0"/>
      <psa10 value="0.0174630125" flag="0"/>
      <psa30 value="0.0016244754" flag="0"/>
    </comp>
  </station>
  <station code="SBUB" name="SBUB" netid="CH" source="SED" insttype="EpiSensor ES-T" lat="47.1459" lon="9.43424">
    <comp name="--.HGE">
      <acc value="0.2582220745" flag="0"/>
      <vel value="0.0283500387" flag="0"/>
      <psa03 value="0.0948420003" flag="0"/>
      <psa10 value="0.0084232128" flag="0"/>
      <psa30 value="0.0008418047" flag="0"/>
    </comp>
    <comp name="--.HGN">
      <acc value="0.2312397211" flag="0"/>
      <vel value="0.0323811593" flag="0"/>
      <psa03 value="0.0627743782" flag="0"/>
      <psa10 value="0.0105925563" flag="0"/>
      <psa30 value="0.0006438487" flag="0"/>
    </comp>
    <comp name="--.HGZ">
      <acc value="0.2288005574" flag="0"/>
      <vel value="0.0279889742" flag="0"/>
      <psa03 value="0.0718929273" flag="0"/>
      <psa10 value="0.0128494609" flag="0"/>
      <psa30 value="0.0009988772" flag="0"/>
    </comp>
  </station>
  <station code="SBUH" name="SBUH" netid="CH" source="SED" insttype="EpiSensor ES-T" lat="47.1726" lon="9.47405">
    <comp name="--.HGE">
      <acc value="1.2672147620" flag="0"/>
      <vel value="0.2575917569" flag="0"/>
      <psa03 value="1.0745077564" flag="0"/>
      <psa10 value="0.0532677395" flag="0"/>
      <psa30 value="0.0070185495" flag="0"/>
    </comp>
    <comp name="--.HGN">
      <acc value="0.9474541938" flag="0"/>
      <vel value="0.2094218516" flag="0"/>
      <psa03 value="0.7789232154" flag="0"/>
      <psa10 value="0.0434405294" flag="0"/>
      <psa30 value="0.0047650332" flag="0"/>
    </comp>
    <comp name="--.HGZ">
      <acc value="0.5603024777" flag="0"/>
      <vel value="0.0600664298" flag="0"/>
      <psa03 value="0.3210337139" flag="0"/>
      <psa10 value="0.0400161841" flag="0"/>
      <psa30 value="0.0019259242" flag="0"/>
    </comp>
  </station>
  <station code="SCHS" name="SCHS" netid="CH" source="SED" insttype="EpiSensor ES-T" lat="47.7114" lon="8.63651">
    <comp name="--.HGE">
      <acc value="0.0380863896" flag="0"/>
      <vel value="0.0051041457" flag="0"/>
      <psa03 value="0.0146054285" flag="0"/>
      <psa10 value="0.0012054448" flag="0"/>
      <psa30 value="0.0001119508" flag="0"/>
    </comp>
    <comp name="--.HGN">
      <acc value="0.0307385385" flag="0"/>
      <vel value="0.0045575289" flag="0"/>
      <psa03 value="0.0168359008" flag="0"/>
      <psa10 value="0.0014513378" flag="0"/>
      <psa30 value="0.0001290364" flag="0"/>
    </comp>
    <comp name="--.HGZ">
      <acc value="0.0318532846" flag="0"/>
      <vel value="0.0036376425" flag="0"/>
      <psa03 value="0.0125893705" flag="0"/>
      <psa10 value="0.0010771033" flag="0"/>
      <psa30 value="0.0000833970" flag="0"/>
    </comp>
  </station>
  <station code="SLTM2" name="SLTM2" netid="CH" source="SED" insttype="EpiSensor ES-T" lat="46.9236" lon="9.0009">
    <comp name="--.HGE">
      <acc value="0.1881140140" flag="0"/>
      <vel value="0.0181863229" flag="0"/>
      <psa03 value="0.0391384525" flag="0"/>
      <psa10 value="0.0035032596" flag="0"/>
      <psa30 value="0.0003084556" flag="0"/>
    </comp>
    <comp name="--.HGN">
      <acc value="0.1489145874" flag="0"/>
      <vel value="0.0278368238" flag="0"/>
      <psa03 value="0.0246039387" flag="0"/>
      <psa10 value="0.0073909854" flag="0"/>
      <psa30 value="0.0003510446" flag="0"/>
    </comp>
    <comp name="--.HGZ">
      <acc value="0.1441948876" flag="0"/>
      <vel value="0.0177988669" flag="0"/>
      <psa03 value="0.0236212675" flag="0"/>
      <psa10 value="0.0034414701" flag="0"/>
      <psa30 value="0.0002353292" flag="0"/>
    </comp>
  </station>
  <station code="STGK" name="STGK" netid="CH" source="SED" insttype="EpiSensor ES-T" lat="47.4241" lon="9.37849">
    <comp name="--.HGE">
      <acc value="0.0667122769" flag="0"/>
      <vel value="0.0229544307" flag="0"/>
      <psa03 value="0.0986592480" flag="0"/>
      <psa10 value="0.0120948230" flag="0"/>
      <psa30 value="0.0006856058" flag="0"/>
    </comp>
    <comp name="--.HGN">
      <acc value="0.0574113788" flag="0"/>
      <vel value="0.0188295220" flag="0"/>
      <psa03 value="0.1187054845" flag="0"/>
      <psa10 value="0.0062432344" flag="0"/>
      <psa30 value="0.0003991161" flag="0"/>
    </comp>
    <comp name="--.HGZ">
      <acc value="0.0354540062" flag="0"/>
      <vel value="0.0065193392" flag="0"/>
      <psa03 value="0.0296328440" flag="0"/>
      <psa10 value="0.0036243438" flag="0"/>
      <psa30 value="0.0002153608" flag="0"/>
    </comp>
  </station>
  <station code="STIEG" name="STIEG" netid="CH" source="SED" insttype="EpiSensor ES-T" lat="47.4978" lon="8.65405">
    <comp name="SF.HGE">
      <acc value="0.0144800993" flag="0"/>
      <vel value="0.0035966868" flag="0"/>
      <psa03 value="0.0240483523" flag="0"/>
      <psa10 value="0.0042842936" flag="0"/>
      <psa30 value="0.0003101422" flag="0"/>
    </comp>
    <comp name="SF.HGN">
      <acc value="0.0158578880" flag="0"/>
      <vel value="0.0125026980" flag="0"/>
      <psa03 value="0.0161968508" flag="0"/>
      <psa10 value="0.0071220820" flag="0"/>
      <psa30 value="0.0034592355" flag="0"/>
    </comp>
    <comp name="SF.HGZ">
      <acc value="0.0208173066" flag="0"/>
      <vel value="0.0037075187" flag="0"/>
      <psa03 value="0.0085606773" flag="0"/>
      <psa10 value="0.0025727195" flag="0"/>
      <psa30 value="0.0001507944" flag="0"/>
    </comp>
  </station>
  <station code="SVAM" name="SVAM" netid="CH" source="SED" insttype="EpiSensor ES-T" lat="46.6934" lon="9.5261">
    <comp name="--.HGE">
      <acc value="0.1450073495" flag="0"/>
      <vel value="0.0310201530" flag="0"/>
      <psa03 value="0.0897060157" flag="0"/>
      <psa10 value="0.0072120893" flag="0"/>
      <psa30 value="0.0007233372" flag="0"/>
    </comp>
    <comp name="--.HGN">
      <acc value="0.1286819530" flag="0"/>
      <vel value="0.0267091887" flag="0"/>
      <psa03 value="0.0552648916" flag="0"/>
      <psa10 value="0.0036442449" flag="0"/>
      <psa30 value="0.0003109421" flag="0"/>
    </comp>
    <comp name="--.HGZ">
      <acc value="0.0627456297" flag="0"/>
      <vel value="0.0134315654" flag="0"/>
      <psa03 value="0.0329629112" flag="0"/>
      <psa10 value="0.0022805784" flag="0"/>
      <psa30 value="0.0002066935" flag="0"/>
    </comp>
  </station>
  <station code="WILA" name="WILA" netid="CH" source="SED" insttype="STS2_gen3" lat="47.4147" lon="8.90753">
    <comp name="--.HHE">
      <acc value="0.0104665487" flag="0"/>
      <vel value="0.0039331195" flag="0"/>
      <psa03 value="0.0157287772" flag="0"/>
      <psa10 value="0.0021564368" flag="0"/>
      <psa30 value="0.0002765769" flag="0"/>
    </comp>
    <comp name="--.HHN">
      <acc value="0.0097845944" flag="0"/>
      <vel value="0.0037836685" flag="0"/>
      <psa03 value="0.0232451880" flag="0"/>
      <psa10 value="0.0026680829" flag="0"/>
      <psa30 value="0.0001706988" flag="0"/>
    </comp>
    <comp name="--.HHZ">
      <acc value="0.0127654513" flag="0"/>
      <vel value="0.0034824325" flag="0"/>
      <psa03 value="0.0110670913" flag="0"/>
      <psa10 value="0.0018126229" flag="0"/>
      <psa30 value="0.0001607369" flag="0"/>
    </comp>
  </station>
  <station code="UBR" name="UBR" netid="GR" source="BGR" insttype="STS-2" lat="47.6799" lon="10.1071">
    <comp name="--.HHE">
      <acc value="0.0156623879" flag="0"/>
      <vel value="0.0055413165" flag="0"/>
      <psa03 value="0.0456970120" flag="0"/>
      <psa10 value="0.0016185029" flag="0"/>
      <psa30 value="0.0001259500" flag="0"/>
    </comp>
    <comp name="--.HHN">
      <acc value="0.0103134308" flag="0"/>
      <vel value="0.0050175209" flag="0"/>
      <psa03 value="0.0457930008" flag="0"/>
      <psa10 value="0.0017012655" flag="0"/>
      <psa30 value="0.0001332006" flag="0"/>
    </comp>
    <comp name="--.HHZ">
      <acc value="0.0313704472" flag="0"/>
      <vel value="0.0049142273" flag="0"/>
      <psa03 value="0.0127207253" flag="0"/>
      <psa10 value="0.0014418062" flag="0"/>
      <psa30 value="0.0001092093" flag="0"/>
    </comp>
  </station>
</stationlist>
