<stationlist created="1778032514">
	<station code="BNALP" name="BNALP" netid="CH" source="Switzerland Seismological Network" insttype="" lat="46.87034" lon="8.4249">
		<comp name="--.HGE" depth="0.0">
			<acc value="0.00986309750617032" flag="0"/>
			<vel value="0.00265032784303436" flag="0"/>
			<psa03 value="0.0158387411428682" flag="0"/>
			<psa10 value="0.000926163676998225" flag="0"/>
			<psa30 value="8.18782381114373e-05" flag="0"/>
		</comp>
		<comp name="--.HGN" depth="0.0">
			<acc value="0.00474386264562356" flag="0"/>
			<vel value="0.00219949941447576" flag="0"/>
			<psa03 value="0.0125725600597344" flag="0"/>
			<psa10 value="0.0011959591829064" flag="0"/>
			<psa30 value="8.14308160452546e-05" flag="0"/>
		</comp>
		<comp name="--.HGZ" depth="0.0">
			<acc value="0.00791983995342304" flag="0"/>
			<vel value="0.00252777654134833" flag="0"/>
			<psa03 value="0.0152123502502124" flag="0"/>
			<psa10 value="0.00089394928823307" flag="0"/>
			<psa30 value="5.14535376110125e-05" flag="0"/>
		</comp>
	</station>
	<station code="HAMIK" name="HAMIK" netid="CH" source="Switzerland Seismological Network" insttype="" lat="47.24508" lon="8.27061">
		<comp name="SF.HGE" depth="1.0">
			<acc value="0.0336153504556411" flag="0"/>
			<vel value="0.00670432747044968" flag="0"/>
			<psa03 value="0.029798309607769" flag="0"/>
			<psa10 value="0.00265768707312534" flag="0"/>
			<psa30 value="0.000270242927974361" flag="0"/>
		</comp>
		<comp name="SF.HGN" depth="1.0">
			<acc value="0.0480826927004196" flag="0"/>
			<vel value="0.00951595101934349" flag="0"/>
			<psa03 value="0.0263084174915438" flag="0"/>
			<psa10 value="0.00355566315995406" flag="0"/>
			<psa30 value="0.000326618108313384" flag="0"/>
		</comp>
		<comp name="SF.HGZ" depth="1.0">
			<acc value="0.0104026668118756" flag="0"/>
			<vel value="0.0025910217583227" flag="0"/>
			<psa03 value="0.0122146224067882" flag="0"/>
			<psa10 value="0.00223487322058267" flag="0"/>
			<psa30 value="0.000133779197788633" flag="0"/>
		</comp>
	</station>
	<station code="LIENZ" name="LIENZ" netid="CH" source="Switzerland Seismological Network" insttype="" lat="47.294601" lon="9.4927">
		<comp name="--.HGE" depth="0.0">
			<acc value="0.0715989740003329" flag="0"/>
			<vel value="0.0242605370460339" flag="0"/>
			<psa03 value="0.0656815593156229" flag="0"/>
			<psa10 value="0.0206453963998691" flag="0"/>
			<psa30 value="0.00126933640176037" flag="0"/>
		</comp>
		<comp name="--.HGN" depth="0.0">
			<acc value="0.0476084329007284" flag="0"/>
			<vel value="0.0159240862737882" flag="0"/>
			<psa03 value="0.0607151743809948" flag="0"/>
			<psa10 value="0.00690595959153024" flag="0"/>
			<psa30 value="0.000419234476013206" flag="0"/>
		</comp>
		<comp name="--.HGZ" depth="0.0">
			<acc value="0.0471675866463034" flag="0"/>
			<vel value="0.011500608050101" flag="0"/>
			<psa03 value="0.04116283008881" flag="0"/>
			<psa10 value="0.00613684105976215" flag="0"/>
			<psa30 value="0.000357490230879991" flag="0"/>
		</comp>
	</station>
	<station code="LLS" name="LLS" netid="CH" source="Switzerland Seismological Network" insttype="" lat="46.84676" lon="9.00825">
		<comp name="--.HGE" depth="0.0">
			<acc value="0.0258532592420305" flag="0"/>
			<vel value="0.00328439595944239" flag="0"/>
			<psa03 value="0.00635339333979459" flag="0"/>
			<psa10 value="0.000849654503680981" flag="0"/>
			<psa30 value="8.59050367070817e-05" flag="0"/>
		</comp>
		<comp name="--.HGN" depth="0.0">
			<acc value="0.032276356372288" flag="0"/>
			<vel value="0.00344871293237128" flag="0"/>
			<psa03 value="0.00720349526554175" flag="0"/>
			<psa10 value="0.00122817357167156" flag="0"/>
			<psa30 value="9.26163676998225e-05" flag="0"/>
		</comp>
		<comp name="--.HGZ" depth="0.0">
			<acc value="0.0278727766247052" flag="0"/>
			<vel value="0.00381812796105423" flag="0"/>
			<psa03 value="0.008232566017762" flag="0"/>
			<psa10 value="0.000732877344407291" flag="0"/>
			<psa30 value="6.89029981921385e-05" flag="0"/>
		</comp>
	</station>
	<station code="SALTS" name="SALTS" netid="CH" source="Switzerland Seismological Network" insttype="" lat="46.88204" lon="8.63821">
		<comp name="--.HGE" depth="1.0">
			<acc value="0.0303260508994137" flag="0"/>
			<vel value="0.00621808848975811" flag="0"/>
			<psa03 value="0.0296640829879142" flag="0"/>
			<psa10 value="0.00241205235879103" flag="0"/>
			<psa30 value="0.000156597723163951" flag="0"/>
		</comp>
		<comp name="--.HGN" depth="1.0">
			<acc value="0.0479846504757724" flag="0"/>
			<vel value="0.00825189465622875" flag="0"/>
			<psa03 value="0.0202234773914588" flag="0"/>
			<psa10 value="0.0038133782700753" flag="0"/>
			<psa30 value="0.000178073982340722" flag="0"/>
		</comp>
		<comp name="--.HGZ" depth="1.0">
			<acc value="0.0149041261763418" flag="0"/>
			<vel value="0.00326741683547629" flag="0"/>
			<psa03 value="0.016957296308325" flag="0"/>
			<psa10 value="0.00126441475903236" flag="0"/>
			<psa30 value="8.81421470379953e-05" flag="0"/>
		</comp>
	</station>
	<station code="SARK" name="SARK" netid="CH" source="Switzerland Seismological Network" insttype="" lat="46.8914" lon="8.24316">
		<comp name="--.HGE" depth="1.0">
			<acc value="0.0167474756747758" flag="0"/>
			<vel value="0.00427771878804095" flag="0"/>
			<psa03 value="0.0101117386957294" flag="0"/>
			<psa10 value="0.00103891403767627" flag="0"/>
			<psa30 value="9.30637897660052e-05" flag="0"/>
		</comp>
		<comp name="--.HGN" depth="1.0">
			<acc value="0.0454893454135101" flag="0"/>
			<vel value="0.0110283252105255" flag="0"/>
			<psa03 value="0.0286350122356939" flag="0"/>
			<psa10 value="0.00249258833070392" flag="0"/>
			<psa30 value="0.000224605877223724" flag="0"/>
		</comp>
		<comp name="--.HGZ" depth="1.0">
			<acc value="0.0116939577568834" flag="0"/>
			<vel value="0.00328957133361682" flag="0"/>
			<psa03 value="0.0169125541017067" flag="0"/>
			<psa10 value="0.00102280684329369" flag="0"/>
			<psa30 value="6.44287775303113e-05" flag="0"/>
		</comp>
	</station>
	<station code="SBUA2" name="SBUA2" netid="CH" source="Switzerland Seismological Network" insttype="" lat="47.15909" lon="9.47102">
		<comp name="--.HGE" depth="1.0">
			<acc value="2.156737354694" flag="0"/>
			<vel value="0.305717478249384" flag="0"/>
			<psa03 value="1.167055717431" flag="0"/>
			<psa10 value="0.0560771972429447" flag="0"/>
			<psa30 value="0.0048102346335304" flag="0"/>
		</comp>
		<comp name="--.HGN" depth="1.0">
			<acc value="2.22237849961482" flag="0"/>
			<vel value="0.297597582380162" flag="0"/>
			<psa03 value="0.84034812470438" flag="0"/>
			<psa10 value="0.0334184015452534" flag="0"/>
			<psa30 value="0.00321875434411847" flag="0"/>
		</comp>
		<comp name="--.HGZ" depth="1.0">
			<acc value="0.952926868745009" flag="0"/>
			<vel value="0.12669198389567" flag="0"/>
			<psa03 value="0.28608166911723" flag="0"/>
			<psa10 value="0.0173595287458233" flag="0"/>
			<psa30 value="0.0015870060687501" flag="0"/>
		</comp>
	</station>
	<station code="SBUB" name="SBUB" netid="CH" source="Switzerland Seismological Network" insttype="" lat="47.145928" lon="9.434239">
		<comp name="--.HGE" depth="1.0">
			<acc value="0.241821659790825" flag="0"/>
			<vel value="0.0288703855578935" flag="0"/>
			<psa03 value="0.0948534780307361" flag="0"/>
			<psa10 value="0.00837976787753612" flag="0"/>
			<psa30 value="0.000775829862760832" flag="0"/>
		</comp>
		<comp name="--.HGN" depth="1.0">
			<acc value="0.21420622023048" flag="0"/>
			<vel value="0.0330585137661695" flag="0"/>
			<psa03 value="0.0629075425052901" flag="0"/>
			<psa10 value="0.0105300783276103" flag="0"/>
			<psa30 value="0.000616100185133602" flag="0"/>
		</comp>
		<comp name="--.HGZ" depth="1.0">
			<acc value="0.202486732050992" flag="0"/>
			<vel value="0.0280117993117896" flag="0"/>
			<psa03 value="0.0718112416223262" flag="0"/>
			<psa10 value="0.0127568979510016" flag="0"/>
			<psa30 value="0.000926611099064408" flag="0"/>
		</comp>
	</station>
	<station code="SBUH" name="SBUH" netid="CH" source="Switzerland Seismological Network" insttype="" lat="47.17256" lon="9.47405">
		<comp name="--.HGE" depth="1.0">
			<acc value="1.25538195348281" flag="0"/>
			<vel value="0.257973979922754" flag="0"/>
			<psa03 value="1.07537893607016" flag="0"/>
			<psa10 value="0.0532141434414415" flag="0"/>
			<psa30 value="0.0069408585126925" flag="0"/>
		</comp>
		<comp name="--.HGN" depth="1.0">
			<acc value="0.941686562012035" flag="0"/>
			<vel value="0.20991333379161" flag="0"/>
			<psa03 value="0.778693363984402" flag="0"/>
			<psa10 value="0.0434169424582385" flag="0"/>
			<psa30 value="0.00473864710294116" flag="0"/>
		</comp>
		<comp name="--.HGZ" depth="1.0">
			<acc value="0.548624372493558" flag="0"/>
			<vel value="0.062173884542269" flag="0"/>
			<psa03 value="0.320577910419917" flag="0"/>
			<psa10 value="0.0400102708463233" flag="0"/>
			<psa30 value="0.00193196848177697" flag="0"/>
		</comp>
	</station>
	<station code="SCEL" name="SCEL" netid="CH" source="Switzerland Seismological Network" insttype="" lat="46.5074" lon="9.85542">
		<comp name="--.HGE" depth="1.0">
			<acc value="0.0179716981714328" flag="0"/>
			<vel value="0.00381076377781052" flag="0"/>
			<psa03 value="0.0079193705714341" flag="0"/>
			<psa10 value="0.000797306121937603" flag="0"/>
			<psa30 value="5.50329141404743e-05" flag="0"/>
		</comp>
		<comp name="--.HGN" depth="1.0">
			<acc value="0.0190929155806107" flag="0"/>
			<vel value="0.0029518252097497" flag="0"/>
			<psa03 value="0.0134674041920998" flag="0"/>
			<psa10 value="0.000789252524746314" flag="0"/>
			<psa30 value="6.30865113317632e-05" flag="0"/>
		</comp>
		<comp name="--.HGZ" depth="1.0">
			<acc value="0.0188253357281363" flag="0"/>
			<vel value="0.00166437006608936" flag="0"/>
			<psa03 value="0.00532432258757434" flag="0"/>
			<psa10 value="0.000438921046925246" flag="0"/>
			<psa30 value="3.71360314931655e-05" flag="0"/>
		</comp>
	</station>
	<station code="SCUC" name="SCUC" netid="CH" source="Switzerland Seismological Network" insttype="" lat="46.798" lon="10.3038">
		<comp name="--.HGE" depth="0.0">
			<acc value="0.0524893507063816" flag="0"/>
			<vel value="0.0133195589884593" flag="0"/>
			<psa03 value="0.0358385075012357" flag="0"/>
			<psa10 value="0.00300801855094641" flag="0"/>
			<psa30 value="0.000217894546230983" flag="0"/>
		</comp>
		<comp name="--.HGN" depth="0.0">
			<acc value="0.0427770512652291" flag="0"/>
			<vel value="0.00804802334420443" flag="0"/>
			<psa03 value="0.0410286034689552" flag="0"/>
			<psa10 value="0.00159461224387521" flag="0"/>
			<psa30 value="0.000174942027877443" flag="0"/>
		</comp>
		<comp name="--.HGZ" depth="0.0">
			<acc value="0.0275925021639146" flag="0"/>
			<vel value="0.00552912764286744" flag="0"/>
			<psa03 value="0.0287244966489305" flag="0"/>
			<psa10 value="0.00298385775937254" flag="0"/>
			<psa30 value="0.000181205936804001" flag="0"/>
		</comp>
	</station>
	<station code="SCUG" name="SCUG" netid="CH" source="Switzerland Seismological Network" insttype="" lat="46.856125" lon="9.523831">
		<comp name="--.HGE" depth="1.0">
			<acc value="0.466045981404651" flag="0"/>
			<vel value="0.0947276695016668" flag="0"/>
			<psa03 value="0.221294953933972" flag="0"/>
			<psa10 value="0.0261983516632628" flag="0"/>
			<psa30 value="0.00220355367594988" flag="0"/>
		</comp>
		<comp name="--.HGN" depth="1.0">
			<acc value="0.433853955981859" flag="0"/>
			<vel value="0.0577595667462887" flag="0"/>
			<psa03 value="0.189796440474709" flag="0"/>
			<psa10 value="0.0136146060518739" flag="0"/>
			<psa30 value="0.00135076721780562" flag="0"/>
		</comp>
		<comp name="--.HGZ" depth="1.0">
			<acc value="0.180835556009645" flag="0"/>
			<vel value="0.0280681903834753" flag="0"/>
			<psa03 value="0.0884553424843233" flag="0"/>
			<psa10 value="0.00750595258228127" flag="0"/>
			<psa30 value="0.000553013673801839" flag="0"/>
		</comp>
	</station>
	<station code="SLTM2" name="SLTM2" netid="CH" source="Switzerland Seismological Network" insttype="" lat="46.92358" lon="9.000898">
		<comp name="--.HGE" depth="1.0">
			<acc value="0.190911007762758" flag="0"/>
			<vel value="0.0182391005084179" flag="0"/>
			<psa03 value="0.0391046885843695" flag="0"/>
			<psa10 value="0.00349526118101939" flag="0"/>
			<psa30 value="0.000286797544423122" flag="0"/>
		</comp>
		<comp name="--.HGN" depth="1.0">
			<acc value="0.149152523514771" flag="0"/>
			<vel value="0.0281235359399949" flag="0"/>
			<psa03 value="0.0246082136400495" flag="0"/>
			<psa10 value="0.00736501463143371" flag="0"/>
			<psa30 value="0.000338698504100317" flag="0"/>
		</comp>
		<comp name="--.HGZ" depth="1.0">
			<acc value="0.144131570498146" flag="0"/>
			<vel value="0.0178189923920978" flag="0"/>
			<psa03 value="0.0236686273010658" flag="0"/>
			<psa10 value="0.00343083240348908" flag="0"/>
			<psa30 value="0.000234001740613561" flag="0"/>
		</comp>
	</station>
	<station code="SLUB" name="SLUB" netid="CH" source="Switzerland Seismological Network" insttype="" lat="47.057919" lon="8.30548">
		<comp name="--.HGE" depth="1.0">
			<acc value="0.013842255479451" flag="0"/>
			<vel value="0.00425803234864249" flag="0"/>
			<psa03 value="0.0154360612833038" flag="0"/>
			<psa10 value="0.000910056482615647" flag="0"/>
			<psa30 value="9.21689456336398e-05" flag="0"/>
		</comp>
		<comp name="--.HGN" depth="1.0">
			<acc value="0.0127456541243382" flag="0"/>
			<vel value="0.00500399985998083" flag="0"/>
			<psa03 value="0.0187469845730559" flag="0"/>
			<psa10 value="0.00312882250881574" flag="0"/>
			<psa30 value="0.000154360612833038" flag="0"/>
		</comp>
		<comp name="--.HGZ" depth="1.0">
			<acc value="0.00705647292410193" flag="0"/>
			<vel value="0.00151209567237584" flag="0"/>
			<psa03 value="0.004116283008881" flag="0"/>
			<psa10 value="0.000974485260145959" flag="0"/>
			<psa30 value="5.59277582728397e-05" flag="0"/>
		</comp>
	</station>
	<station code="STGK" name="STGK" netid="CH" source="Switzerland Seismological Network" insttype="" lat="47.424125" lon="9.37849">
		<comp name="--.HGE" depth="0.0">
			<acc value="0.0668424569546255" flag="0"/>
			<vel value="0.0229603897187446" flag="0"/>
			<psa03 value="0.0989697610396171" flag="0"/>
			<psa10 value="0.0120642885925508" flag="0"/>
			<psa30 value="0.000657710437288595" flag="0"/>
		</comp>
		<comp name="--.HGN" depth="0.0">
			<acc value="0.0566417968753473" flag="0"/>
			<vel value="0.0188511339366181" flag="0"/>
			<psa03 value="0.119059011811221" flag="0"/>
			<psa10 value="0.00623348422605762" flag="0"/>
			<psa30 value="0.000387467509314233" flag="0"/>
		</comp>
		<comp name="--.HGZ" depth="0.0">
			<acc value="0.0311630252781464" flag="0"/>
			<vel value="0.00635182715302563" flag="0"/>
			<psa03 value="0.0295745985746776" flag="0"/>
			<psa10 value="0.00360801154169743" flag="0"/>
			<psa30 value="0.000219684234495714" flag="0"/>
		</comp>
	</station>
	<station code="STSP" name="STSP" netid="CH" source="Switzerland Seismological Network" insttype="" lat="46.62645" lon="10.33317">
		<comp name="--.HGE" depth="1.0">
			<acc value="0.00816869305723748" flag="0"/>
			<vel value="0.00332634543901789" flag="0"/>
			<psa03 value="0.0145859593575566" flag="0"/>
			<psa10 value="0.000825493712107114" flag="0"/>
			<psa30 value="6.71133099274076e-05" flag="0"/>
		</comp>
		<comp name="--.HGN" depth="1.0">
			<acc value="0.00794859458110393" flag="0"/>
			<vel value="0.002096827225048" flag="0"/>
			<psa03 value="0.0147201859774114" flag="0"/>
			<psa10 value="0.0013409239323496" flag="0"/>
			<psa30 value="8.50101925747163e-05" flag="0"/>
		</comp>
		<comp name="--.HGZ" depth="1.0">
			<acc value="0.00442969798636353" flag="0"/>
			<vel value="0.00185530367853488" flag="0"/>
			<psa03 value="0.0108276140016218" flag="0"/>
			<psa10 value="0.00117582518992818" flag="0"/>
			<psa30 value="6.4876199596494e-05" flag="0"/>
		</comp>
	</station>
	<station code="SVAM" name="SVAM" netid="CH" source="Switzerland Seismological Network" insttype="" lat="46.693377" lon="9.526099">
		<comp name="--.HGE" depth="0.0">
			<acc value="0.141483457061786" flag="0"/>
			<vel value="0.0312146022083163" flag="0"/>
			<psa03 value="0.0896633820630166" flag="0"/>
			<psa10 value="0.00719588909041665" flag="0"/>
			<psa30 value="0.000706926864568694" flag="0"/>
		</comp>
		<comp name="--.HGN" depth="0.0">
			<acc value="0.125518514340629" flag="0"/>
			<vel value="0.0267140622878318" flag="0"/>
			<psa03 value="0.0552566251735656" flag="0"/>
			<psa10 value="0.0036321723332713" flag="0"/>
			<psa30 value="0.000298430518143873" flag="0"/>
		</comp>
		<comp name="--.HGZ" depth="0.0">
			<acc value="0.0624072904200649" flag="0"/>
			<vel value="0.0133529220444285" flag="0"/>
			<psa03 value="0.032930264071048" flag="0"/>
			<psa10 value="0.00227514120653912" flag="0"/>
			<psa30 value="0.000203577040113136" flag="0"/>
		</comp>
	</station>
	<station code="VDL" name="VDL" netid="CH" source="Switzerland Seismological Network" insttype="" lat="46.48318" lon="9.44956">
		<comp name="--.HGE" depth="0.0">
			<acc value="0.00769468119936352" flag="0"/>
			<vel value="0.00215110495084227" flag="0"/>
			<psa03 value="0.0105591607619121" flag="0"/>
			<psa10 value="0.00106307482925014" flag="0"/>
			<psa30 value="6.75607319935903e-05" flag="0"/>
		</comp>
		<comp name="--.HGN" depth="0.0">
			<acc value="0.0104050749823123" flag="0"/>
			<vel value="0.00204188926131941" flag="0"/>
			<psa03 value="0.00787462836481583" flag="0"/>
			<psa10 value="0.000829520510702758" flag="0"/>
			<psa30 value="5.27958038095607e-05" flag="0"/>
		</comp>
		<comp name="--.HGZ" depth="0.0">
			<acc value="0.00575027833600259" flag="0"/>
			<vel value="0.00136140035341862" flag="0"/>
			<psa03 value="0.00697978423245039" flag="0"/>
			<psa10 value="0.000789252524746314" flag="0"/>
			<psa30 value="4.83215831477335e-05" flag="0"/>
		</comp>
	</station>
	<station code="TUE" name="TUE" netid="MN" source="Mediterranean Very Broadband Seismographic Network (MedNet)" insttype="" lat="46.47223" lon="9.34732">
		<comp name="--.HNE" depth="0.0">
			<acc value="0.012328730594456" flag="0"/>
			<vel value="0.00190709885567013" flag="0"/>
			<psa03 value="0.00451896286844545" flag="0"/>
			<psa10 value="0.000708716552833425" flag="0"/>
			<psa30 value="6.21916671993977e-05" flag="0"/>
		</comp>
		<comp name="--.HNN" depth="0.0">
			<acc value="0.00548256335414124" flag="0"/>
			<vel value="0.00102160317241699" flag="0"/>
			<psa03 value="0.00581648686037533" flag="0"/>
			<psa10 value="0.000523483817433779" flag="0"/>
			<psa30 value="5.01112714124644e-05" flag="0"/>
		</comp>
		<comp name="--.HNZ" depth="0.0">
			<acc value="0.00706342878196819" flag="0"/>
			<vel value="0.0014151891508462" flag="0"/>
			<psa03 value="0.0038030875625531" flag="0"/>
			<psa10 value="0.000769118531768091" flag="0"/>
			<psa30 value="4.47422066182717e-05" flag="0"/>
		</comp>
	</station>
</stationlist>
