<?xml version="1.0" encoding="UTF-8" standalone="yes"?>
<!DOCTYPE earthquake SYSTEM "stationlist.dtd">
<stationlist created="" xmlns="ch.ethz.sed.shakemap.usgs.xml">
  <station code="MALA" name="MALA" netid="CL" source="RESIF" insttype="30" lat="38.3935" lon="21.8726">
    <comp name="00.HH2">
      <acc value="0.0028146638" flag="0"/>
      <vel value="0.0024365602" flag="0"/>
      <psa03 value="0.0076125247" flag="0"/>
      <psa10 value="0.0032312228" flag="0"/>
      <psa30 value="0.0006503781" flag="0"/>
    </comp>
    <comp name="00.HH3">
      <acc value="0.0023615359" flag="0"/>
      <vel value="0.0029695685" flag="0"/>
      <psa03 value="0.0090663357" flag="0"/>
      <psa10 value="0.0030017460" flag="0"/>
      <psa30 value="0.0014007057" flag="0"/>
    </comp>
    <comp name="00.HHZ">
      <acc value="0.0013811460" flag="0"/>
      <vel value="0.0017778175" flag="0"/>
      <psa03 value="0.0040388677" flag="0"/>
      <psa10 value="0.0033560428" flag="0"/>
      <psa30 value="0.0003864478" flag="0"/>
    </comp>
  </station>
  <station code="ROD3" name="ROD3" netid="CL" source="RESIF" insttype="30" lat="38.3081" lon="21.892">
    <comp name="00.HHE">
      <acc value="0.0096040820" flag="0"/>
      <vel value="0.0065127806" flag="0"/>
      <psa03 value="0.0300860530" flag="0"/>
      <psa10 value="0.0073119538" flag="0"/>
      <psa30 value="0.0010217318" flag="0"/>
    </comp>
    <comp name="00.HHN">
      <acc value="0.0117967736" flag="0"/>
      <vel value="0.0066707679" flag="0"/>
      <psa03 value="0.0383609188" flag="0"/>
      <psa10 value="0.0047736416" flag="0"/>
      <psa30 value="0.0007126147" flag="0"/>
    </comp>
    <comp name="00.HHZ">
      <acc value="0.0058428872" flag="0"/>
      <vel value="0.0026734744" flag="0"/>
      <psa03 value="0.0139742404" flag="0"/>
      <psa10 value="0.0037068427" flag="0"/>
      <psa30 value="0.0005029914" flag="0"/>
    </comp>
  </station>
  <station code="ITM" name="ITM" netid="HL" source="NOA" insttype="DR24" lat="37.1787" lon="21.9252">
    <comp name="--.HHE">
      <acc value="0.0281738438" flag="0"/>
      <vel value="0.0094180296" flag="0"/>
      <psa03 value="0.0344612868" flag="0"/>
      <psa10 value="0.0075131248" flag="0"/>
      <psa30 value="0.0010021433" flag="0"/>
    </comp>
    <comp name="--.HHN">
      <acc value="0.0230294301" flag="0"/>
      <vel value="0.0087557816" flag="0"/>
      <psa03 value="0.0397689101" flag="0"/>
      <psa10 value="0.0062930044" flag="0"/>
      <psa30 value="0.0007616486" flag="0"/>
    </comp>
    <comp name="--.HHZ">
      <acc value="0.0117043546" flag="0"/>
      <vel value="0.0064886991" flag="0"/>
      <psa03 value="0.0239892375" flag="0"/>
      <psa10 value="0.0059599458" flag="0"/>
      <psa30 value="0.0006109881" flag="0"/>
    </comp>
  </station>
  <station code="KLV" name="KLV" netid="HL" source="NOA" insttype="120" lat="38.0435" lon="22.1504">
    <comp name="--.HHE">
      <acc value="0.0020465301" flag="0"/>
      <vel value="0.0017932591" flag="0"/>
      <psa03 value="0.0051055265" flag="0"/>
      <psa10 value="0.0034606424" flag="0"/>
      <psa30 value="0.0003153205" flag="0"/>
    </comp>
    <comp name="--.HHN">
      <acc value="0.0019404198" flag="0"/>
      <vel value="0.0018305109" flag="0"/>
      <psa03 value="0.0044934270" flag="0"/>
      <psa10 value="0.0040596450" flag="0"/>
      <psa30 value="0.0002995401" flag="0"/>
    </comp>
    <comp name="--.HHZ">
      <acc value="0.0021355428" flag="0"/>
      <vel value="0.0017264796" flag="0"/>
      <psa03 value="0.0050918583" flag="0"/>
      <psa10 value="0.0032706720" flag="0"/>
      <psa30 value="0.0002101504" flag="0"/>
    </comp>
  </station>
  <station code="AMT" name="AMT" netid="HP" source="NOA" insttype="CMG-3T," lat="37.5324" lon="21.7089">
    <comp name="00.HHE">
      <acc value="0.0232162870" flag="0"/>
      <vel value="0.0234612670" flag="0"/>
      <psa03 value="0.0827425546" flag="0"/>
      <psa10 value="0.0316442739" flag="0"/>
      <psa30 value="0.0013582533" flag="0"/>
    </comp>
    <comp name="00.HHN">
      <acc value="0.0248653176" flag="0"/>
      <vel value="0.0165007886" flag="0"/>
      <psa03 value="0.0795396547" flag="0"/>
      <psa10 value="0.0200512024" flag="0"/>
      <psa30 value="0.0009411281" flag="0"/>
    </comp>
    <comp name="00.HHZ">
      <acc value="0.0158251548" flag="0"/>
      <vel value="0.0107934234" flag="0"/>
      <psa03 value="0.0501331830" flag="0"/>
      <psa10 value="0.0099722639" flag="0"/>
      <psa30 value="0.0010870535" flag="0"/>
    </comp>
  </station>
  <station code="GUR" name="GUR" netid="HP" source="NOA" insttype="40," lat="37.9363" lon="22.3423">
    <comp name="--.HHE">
      <acc value="0.0055575396" flag="0"/>
      <vel value="0.0044833980" flag="0"/>
      <psa03 value="0.0155954243" flag="0"/>
      <psa10 value="0.0067656047" flag="0"/>
      <psa30 value="0.0002869065" flag="0"/>
    </comp>
    <comp name="--.HHN">
      <acc value="0.0063867326" flag="0"/>
      <vel value="0.0044161014" flag="0"/>
      <psa03 value="0.0176917405" flag="0"/>
      <psa10 value="0.0052647138" flag="0"/>
      <psa30 value="0.0003246175" flag="0"/>
    </comp>
    <comp name="--.HHZ">
      <acc value="0.0039176975" flag="0"/>
      <vel value="0.0032612604" flag="0"/>
      <psa03 value="0.0071036041" flag="0"/>
      <psa10 value="0.0047372265" flag="0"/>
      <psa30 value="0.0002871472" flag="0"/>
    </comp>
  </station>
  <station code="LTHK" name="LTHK" netid="HP" source="NOA" insttype="40," lat="37.7095" lon="20.8367">
    <comp name="--.HHE">
      <acc value="0.1551787548" flag="0"/>
      <vel value="0.0318737221" flag="0"/>
      <psa03 value="0.0847255435" flag="0"/>
      <psa10 value="0.0174527855" flag="0"/>
      <psa30 value="0.0019791809" flag="0"/>
    </comp>
    <comp name="--.HHZ">
      <acc value="0.0877731690" flag="0"/>
      <vel value="0.0174470628" flag="0"/>
      <psa03 value="0.0788413864" flag="0"/>
      <psa10 value="0.0134116566" flag="0"/>
      <psa30 value="0.0012301102" flag="0"/>
    </comp>
  </station>
  <station code="PYL" name="PYL" netid="HP" source="NOA" insttype="120s" lat="36.8955" lon="21.742">
    <comp name="--.HHE">
      <acc value="0.0320321324" flag="0"/>
      <vel value="0.0110610796" flag="0"/>
      <psa03 value="0.0472134197" flag="0"/>
      <psa10 value="0.0026661049" flag="0"/>
      <psa30 value="0.0002685742" flag="0"/>
    </comp>
    <comp name="--.HHN">
      <acc value="0.0020611719" flag="0"/>
      <vel value="0.0008354770" flag="0"/>
      <psa03 value="0.0038346663" flag="0"/>
      <psa10 value="0.0002428431" flag="0"/>
      <psa30 value="0.0000336278" flag="0"/>
    </comp>
    <comp name="--.HHZ">
      <acc value="0.0011797720" flag="0"/>
      <vel value="0.0003123855" flag="0"/>
      <psa03 value="0.0018351355" flag="0"/>
      <psa10 value="0.0001436774" flag="0"/>
      <psa30 value="0.0000138152" flag="0"/>
    </comp>
  </station>
  <station code="DMLN" name="DMLN" netid="HT" source="NOA" insttype="1s-100Hz," lat="38.2385" lon="20.3734">
    <comp name="--.HHE">
      <acc value="0.0245064679" flag="0"/>
      <vel value="0.0123361114" flag="0"/>
      <psa03 value="0.0364593764" flag="0"/>
      <psa10 value="0.0164311724" flag="0"/>
      <psa30 value="0.0009542843" flag="0"/>
    </comp>
    <comp name="--.HHN">
      <acc value="0.0373673654" flag="0"/>
      <vel value="0.0135797104" flag="0"/>
      <psa03 value="0.0798457246" flag="0"/>
      <psa10 value="0.0118971732" flag="0"/>
      <psa30 value="0.0013111440" flag="0"/>
    </comp>
    <comp name="--.HHZ">
      <acc value="0.0234809176" flag="0"/>
      <vel value="0.0072640620" flag="0"/>
      <psa03 value="0.0253688723" flag="0"/>
      <psa10 value="0.0075750011" flag="0"/>
      <psa30 value="0.0004700045" flag="0"/>
    </comp>
  </station>
  <station code="EVGI" name="EVGI" netid="HT" source="NOA" insttype="30" lat="38.621" lon="20.656">
    <comp name="--.HHE">
      <acc value="0.0137961965" flag="0"/>
      <vel value="0.0030270643" flag="0"/>
      <psa03 value="0.0079482375" flag="0"/>
      <psa10 value="0.0034039748" flag="0"/>
      <psa30 value="0.0003761586" flag="0"/>
    </comp>
    <comp name="--.HHN">
      <acc value="nan" flag="0"/>
      <vel value="-100.0000000000" flag="0"/>
      <psa03 value="0.0000000000" flag="0"/>
      <psa10 value="0.0000000000" flag="0"/>
      <psa30 value="0.0000000000" flag="0"/>
    </comp>
    <comp name="--.HHZ">
      <acc value="0.0099261702" flag="0"/>
      <vel value="0.0019809905" flag="0"/>
      <psa03 value="0.0110198789" flag="0"/>
      <psa10 value="0.0025154412" flag="0"/>
      <psa30 value="0.0002170457" flag="0"/>
    </comp>
  </station>
  <station code="KLV" name="KLV" netid="MN" source="INGV" insttype="" lat="38.0437" lon="22.1504">
    <comp name="--.HHE">
      <acc value="0.0021249114" flag="0"/>
      <vel value="0.0018032988" flag="0"/>
      <psa03 value="0.0052160749" flag="0"/>
      <psa10 value="0.0034818958" flag="0"/>
      <psa30 value="0.0003156928" flag="0"/>
    </comp>
    <comp name="--.HHN">
      <acc value="0.0019704027" flag="0"/>
      <vel value="0.0018464385" flag="0"/>
      <psa03 value="0.0046103438" flag="0"/>
      <psa10 value="0.0040821339" flag="0"/>
      <psa30 value="0.0003005582" flag="0"/>
    </comp>
    <comp name="--.HHZ">
      <acc value="0.0022098076" flag="0"/>
      <vel value="0.0017465141" flag="0"/>
      <psa03 value="0.0052134957" flag="0"/>
      <psa10 value="0.0032974991" flag="0"/>
      <psa30 value="0.0002108125" flag="0"/>
    </comp>
  </station>
</stationlist>
