<stationlist xmlns:esm="https://esm-db.eu/esmws/shakemap/1/" created="1783994157">
	<station code="ARG2" name="ARG2" netid="HI" source="ITSAK Strong Motion Network" insttype="" lat="38.1783" lon="20.4878" esm:processing="manual (Paolucci et al 2011)" esm:quality="good">
		<comp name="--.HNE" depth="0.0">
			<acc value="0.0583804256508339" flag="0"/>
			<vel value="0.0156701973477376" flag="0"/>
			<psa03 value="0.0631312535383814" flag="0"/>
			<psa10 value="0.00957975385903817" flag="0"/>
			<psa30 value="0.000663974346215153" flag="0"/>
		</comp>
		<comp name="--.HNN" depth="0.0">
			<acc value="0.0265738766909442" flag="0"/>
			<vel value="0.0111394064089378" flag="0"/>
			<psa03 value="0.0437578780726698" flag="0"/>
			<psa10 value="0.0130750150400576" flag="0"/>
			<psa30 value="0.00070961139696579" flag="0"/>
		</comp>
		<comp name="--.HNZ" depth="0.0">
			<acc value="0.0230131561652789" flag="0"/>
			<vel value="0.00538357388094067" flag="0"/>
			<psa03 value="0.0381203600387675" flag="0"/>
			<psa10 value="0.00525899896591166" flag="0"/>
			<psa30 value="0.000657263015222412" flag="0"/>
		</comp>
	</station>
	<station code="KLV1" name="KLV1" netid="HI" source="ITSAK Strong Motion Network" insttype="" lat="38.03256" lon="22.10797" esm:processing="manual (Paolucci et al 2011)" esm:quality="good">
		<comp name="--.HNE" depth="0.0">
			<acc value="0.00586135177989737" flag="0"/>
			<vel value="0.00271172768995105" flag="0"/>
			<psa03 value="0.0199998300989204" flag="0"/>
			<psa10 value="0.00400696934830345" flag="0"/>
			<psa30 value="0.000398262346467441" flag="0"/>
		</comp>
		<comp name="--.HNN" depth="0.0">
			<acc value="0.00574133972183573" flag="0"/>
			<vel value="0.00406635016966832" flag="0"/>
			<psa03 value="0.0138230654498496" flag="0"/>
			<psa10 value="0.00720343312958755" flag="0"/>
			<psa30 value="0.000301776032847865" flag="0"/>
		</comp>
		<comp name="--.HNZ" depth="0.0">
			<acc value="0.00270300077429363" flag="0"/>
			<vel value="0.00201449900884795" flag="0"/>
			<psa03 value="0.00742999089836232" flag="0"/>
			<psa10 value="0.00325076339399519" flag="0"/>
			<psa30 value="0.000255601463592743" flag="0"/>
		</comp>
	</station>
	<station code="KRI1" name="KRI1" netid="HI" source="ITSAK Strong Motion Network" insttype="" lat="37.6621" lon="20.8172" esm:processing="manual (Paolucci et al 2011)" esm:quality="best">
		<comp name="--.HNE" depth="0.0">
			<acc value="0.0775522430189255" flag="0"/>
			<vel value="0.0304100717052133" flag="0"/>
			<psa03 value="0.12116189552228" flag="0"/>
			<psa10 value="0.0268104250498008" flag="0"/>
			<psa30 value="0.00279683533570817" flag="0"/>
		</comp>
		<comp name="--.HNN" depth="0.0">
			<acc value="0.0842797278345509" flag="0"/>
			<vel value="0.0351259344906291" flag="0"/>
			<psa03 value="0.123443748059812" flag="0"/>
			<psa10 value="0.0362250801664175" flag="0"/>
			<psa30 value="0.00306707826368253" flag="0"/>
		</comp>
		<comp name="--.HNZ" depth="0.0">
			<acc value="0.0520180133942165" flag="0"/>
			<vel value="0.0174040897399511" flag="0"/>
			<psa03 value="0.10380191935439" flag="0"/>
			<psa10 value="0.0111622857071264" flag="0"/>
			<psa30 value="0.00251540685607924" flag="0"/>
		</comp>
	</station>
	<station code="MSL1" name="MSL1" netid="HI" source="ITSAK Strong Motion Network" insttype="" lat="38.3727" lon="21.4243" esm:processing="manual (Paolucci et al 2011)" esm:quality="good">
		<comp name="--.HNE" depth="0.0">
			<acc value="0.0122872303929875" flag="0"/>
			<vel value="0.00977565163349937" flag="0"/>
			<psa03 value="0.0339873556621867" flag="0"/>
			<psa10 value="0.015098910853727" flag="0"/>
			<psa30 value="0.00161726859444262" flag="0"/>
		</comp>
		<comp name="--.HNN" depth="0.0">
			<acc value="0.0102004707096819" flag="0"/>
			<vel value="0.00922873879594336" flag="0"/>
			<psa03 value="0.0343366600518722" flag="0"/>
			<psa10 value="0.0195850724149394" flag="0"/>
			<psa30 value="0.00103872881068577" flag="0"/>
		</comp>
		<comp name="--.HNZ" depth="0.0">
			<acc value="0.00549345360807907" flag="0"/>
			<vel value="0.00444842051119213" flag="0"/>
			<psa03 value="0.0156641626739203" flag="0"/>
			<psa10 value="0.00841010181546374" flag="0"/>
			<psa30 value="0.000541737814553494" flag="0"/>
		</comp>
	</station>
	<station code="PYL1" name="PYL1" netid="HI" source="ITSAK Strong Motion Network" insttype="" lat="36.914188" lon="21.695161" esm:processing="manual (Paolucci et al 2011)" esm:quality="best">
		<comp name="--.HNE" depth="0.0">
			<acc value="0.0580060883605674" flag="0"/>
			<vel value="0.0268342818800259" flag="0"/>
			<psa03 value="0.177716044687775" flag="0"/>
			<psa10 value="0.00667643207157851" flag="0"/>
			<psa30 value="0.000691267092252298" flag="0"/>
		</comp>
		<comp name="--.HNN" depth="0.0">
			<acc value="0.0410820187999266" flag="0"/>
			<vel value="0.0131160216925393" flag="0"/>
			<psa03 value="0.0839363796158778" flag="0"/>
			<psa10 value="0.00294761657201174" flag="0"/>
			<psa30 value="0.000542275544213454" flag="0"/>
		</comp>
		<comp name="--.HNZ" depth="0.0">
			<acc value="0.0291249543148682" flag="0"/>
			<vel value="0.0104076363125925" flag="0"/>
			<psa03 value="0.0491269428668624" flag="0"/>
			<psa10 value="0.00248856153210827" flag="0"/>
			<psa30 value="0.000341383036497413" flag="0"/>
		</comp>
	</station>
	<station code="ITM" name="ITM" netid="HL" source="National Observatory of Athens Seismic Network" insttype="" lat="37.17872" lon="21.92522" esm:processing="manual (Paolucci et al 2011)" esm:quality="best">
		<comp name="--.HNE" depth="0.0">
			<acc value="0.0284513146465732" flag="0"/>
			<vel value="0.0091494483121692" flag="0"/>
			<psa03 value="0.0332882017239942" flag="0"/>
			<psa10 value="0.00738917542300758" flag="0"/>
			<psa30 value="0.000995514097256546" flag="0"/>
		</comp>
		<comp name="--.HNN" depth="0.0">
			<acc value="0.0224135146120304" flag="0"/>
			<vel value="0.00869929232150814" flag="0"/>
			<psa03 value="0.0391494307909878" flag="0"/>
			<psa10 value="0.00613684105976215" flag="0"/>
			<psa30 value="0.000787910258547765" flag="0"/>
		</comp>
		<comp name="--.HNZ" depth="0.0">
			<acc value="0.0110289967522155" flag="0"/>
			<vel value="0.00591943428518373" flag="0"/>
			<psa03 value="0.0224605877223724" flag="0"/>
			<psa10 value="0.00562946443671095" flag="0"/>
			<psa30 value="0.000639813554641286" flag="0"/>
		</comp>
	</station>
	<station code="LXRA" name="LXRA" netid="HL" source="National Observatory of Athens Seismic Network" insttype="" lat="38.20006" lon="20.43718" esm:processing="manual (Paolucci et al 2011)" esm:quality="bad">
		<comp name="00.HNE" depth="0.0">
			<acc value="0.0405863902479618" flag="0"/>
			<vel value="0.0160829651528389" flag="0"/>
			<psa03 value="0.0592834237692101" flag="0"/>
			<psa10 value="0.0262909680309627" flag="0"/>
			<psa30 value="0.00202771680394008" flag="0"/>
		</comp>
		<comp name="00.HNN" depth="0.0">
			<acc value="0.0426790917452423" flag="0"/>
			<vel value="0.0167691939540394" flag="0"/>
			<psa03 value="0.0570015712316782" flag="0"/>
			<psa10 value="0.0219500791448579" flag="0"/>
			<psa30 value="0.00221563407173682" flag="0"/>
		</comp>
		<comp name="00.HNZ" depth="0.0">
			<acc value="0.0203404515634854" flag="0"/>
			<vel value="0.00581084054824685" flag="0"/>
			<psa03 value="0.0359279919144722" flag="0"/>
			<psa10 value="0.0088307693202483" flag="0"/>
			<psa30 value="0.000804912297062709" flag="0"/>
		</comp>
	</station>
	<station code="PATC" name="PATC" netid="HL" source="National Observatory of Athens Seismic Network" insttype="" lat="38.26933" lon="21.76001" esm:processing="manual (Paolucci et al 2011)" esm:quality="good">
		<comp name="00.HNE" depth="0.0">
			<acc value="0.00821426644468944" flag="0"/>
			<vel value="0.00755979186809681" flag="0"/>
			<psa03 value="0.0323943048178778" flag="0"/>
			<psa10 value="0.00988227121446828" flag="0"/>
			<psa30 value="0.00198828671423681" flag="0"/>
		</comp>
		<comp name="00.HNN" depth="0.0">
			<acc value="0.00980264933796337" flag="0"/>
			<vel value="0.00821759689168578" flag="0"/>
			<psa03 value="0.0425935403630108" flag="0"/>
			<psa10 value="0.0130360885768904" flag="0"/>
			<psa30 value="0.00153460791024259" flag="0"/>
		</comp>
		<comp name="00.HNZ" depth="0.0">
			<acc value="0.00619807792455803" flag="0"/>
			<vel value="0.00490288030343968" flag="0"/>
			<psa03 value="0.0243470816246684" flag="0"/>
			<psa10 value="0.00753301996310241" flag="0"/>
			<psa30 value="0.000766131481617345" flag="0"/>
		</comp>
	</station>
	<station code="PATG" name="PATG" netid="HL" source="National Observatory of Athens Seismic Network" insttype="" lat="38.23865" lon="21.72657" esm:processing="manual (Paolucci et al 2011)" esm:quality="bad">
		<comp name="00.HNE" depth="0.0">
			<acc value="0.0105962216849961" flag="0"/>
			<vel value="0.00917537830312769" flag="0"/>
			<psa03 value="0.0287244966489305" flag="0"/>
			<psa10 value="0.0114884563933736" flag="0"/>
			<psa30 value="0.00284918371745155" flag="0"/>
		</comp>
		<comp name="00.HNN" depth="0.0">
			<acc value="0.0113326928055498" flag="0"/>
			<vel value="0.0146134785946696" flag="0"/>
			<psa03 value="0.0252793467393235" flag="0"/>
			<psa10 value="0.0241366307822929" flag="0"/>
			<psa30 value="0.00312434828815392" flag="0"/>
		</comp>
		<comp name="00.HNZ" depth="0.0">
			<acc value="0.0111585299614844" flag="0"/>
			<vel value="0.00648737192007551" flag="0"/>
			<psa03 value="0.0160624521759596" flag="0"/>
			<psa10 value="0.013534070079961" flag="0"/>
			<psa30 value="0.0010201223108966" flag="0"/>
		</comp>
	</station>
	<station code="SMHA" name="SMHA" netid="HL" source="National Observatory of Athens Seismic Network" insttype="" lat="38.25123" lon="20.6477" esm:processing="automatic (Paolucci et al 2011)" esm:quality="best">
		<comp name="00.HNE" depth="0.0">
			<acc value="0.0296809800965265" flag="0"/>
			<vel value="0.0138138993449236" flag="0"/>
			<psa03 value="0.0595072441459905" flag="0"/>
			<psa10 value="0.0126654777757572" flag="0"/>
			<psa30 value="0.000842756140958196" flag="0"/>
		</comp>
		<comp name="00.HNN" depth="0.0">
			<acc value="0.0428649243474936" flag="0"/>
			<vel value="0.0162020437579871" flag="0"/>
			<psa03 value="0.0907042066251299" flag="0"/>
			<psa10 value="0.0114124138288872" flag="0"/>
			<psa30 value="0.000764743264652728" flag="0"/>
		</comp>
		<comp name="00.HNZ" depth="0.0">
			<acc value="0.0221625260974306" flag="0"/>
			<vel value="0.00695677520414194" flag="0"/>
			<psa03 value="0.0391149088790678" flag="0"/>
			<psa10 value="0.00574914069611672" flag="0"/>
			<psa30 value="0.000419504586995071" flag="0"/>
		</comp>
	</station>
	<station code="ZARA" name="ZARA" netid="HL" source="National Observatory of Athens Seismic Network" insttype="" lat="37.4865" lon="21.6491" esm:processing="automatic (Paolucci et al 2011)" esm:quality="best">
		<comp name="00.HNE" depth="0.0">
			<acc value="0.0495428926021154" flag="0"/>
			<vel value="0.030345726200645" flag="0"/>
			<psa03 value="0.137890353309316" flag="0"/>
			<psa10 value="0.0225058033990076" flag="0"/>
			<psa30 value="0.00217738674118582" flag="0"/>
		</comp>
		<comp name="00.HNN" depth="0.0">
			<acc value="0.0394281934462496" flag="0"/>
			<vel value="0.0237860490334835" flag="0"/>
			<psa03 value="0.0913184139800269" flag="0"/>
			<psa10 value="0.0337013750506898" flag="0"/>
			<psa30 value="0.00223219662207052" flag="0"/>
		</comp>
		<comp name="00.HNZ" depth="0.0">
			<acc value="0.0204443823600386" flag="0"/>
			<vel value="0.00930692342265343" flag="0"/>
			<psa03 value="0.0430057317311747" flag="0"/>
			<psa10 value="0.0112054901212353" flag="0"/>
			<psa30 value="0.00135667195619431" flag="0"/>
		</comp>
	</station>
	<station code="ANX" name="ANX" netid="HP" source="University of Patras, Seismological Laboratory (PSLNET)" insttype="" lat="38.5933" lon="21.9209" esm:processing="automatic (Paolucci et al 2011)" esm:quality="best">
		<comp name="--.HNE" depth="0.0">
			<acc value="0.00654737580606224" flag="0"/>
			<vel value="0.00504481586029421" flag="0"/>
			<psa03 value="0.0106382288189825" flag="0"/>
			<psa10 value="0.00451053489454493" flag="0"/>
			<psa30 value="0.000456701243799238" flag="0"/>
		</comp>
		<comp name="--.HNN" depth="0.0">
			<acc value="0.00479012452515424" flag="0"/>
			<vel value="0.00441785130999505" flag="0"/>
			<psa03 value="0.0136678872012887" flag="0"/>
			<psa10 value="0.00754638819242714" flag="0"/>
			<psa30 value="0.000713147450851468" flag="0"/>
		</comp>
		<comp name="--.HNZ" depth="0.0">
			<acc value="0.00319740580413783" flag="0"/>
			<vel value="0.00235447886137494" flag="0"/>
			<psa03 value="0.00793535445432658" flag="0"/>
			<psa10 value="0.00219769691475821" flag="0"/>
			<psa30 value="0.000394968221997997" flag="0"/>
		</comp>
	</station>
	<station code="FSK" name="FSK" netid="HP" source="University of Patras, Seismological Laboratory (PSLNET)" insttype="" lat="38.4593" lon="20.5623" esm:processing="manual (Paolucci et al 2011)" esm:quality="good">
		<comp name="--.HNE" depth="0.0">
			<acc value="0.0133964724865724" flag="0"/>
			<vel value="0.00457580581987337" flag="0"/>
			<psa03 value="0.0150812542674136" flag="0"/>
			<psa10 value="0.00574000649725995" flag="0"/>
			<psa30 value="0.000982194961429165" flag="0"/>
		</comp>
		<comp name="--.HNN" depth="0.0">
			<acc value="0.00434742891058353" flag="0"/>
			<vel value="0.00263944306630774" flag="0"/>
			<psa03 value="0.00704436183669141" flag="0"/>
			<psa10 value="0.00442143508587516" flag="0"/>
			<psa30 value="0.000410702701830038" flag="0"/>
		</comp>
		<comp name="--.HNZ" depth="0.0">
			<acc value="0.00574557945499444" flag="0"/>
			<vel value="0.00292010181380907" flag="0"/>
			<psa03 value="0.00717801196639825" flag="0"/>
			<psa10 value="0.00195863920335972" flag="0"/>
			<psa30 value="0.00039394135709821" flag="0"/>
		</comp>
	</station>
	<station code="ARS1" name="ARS1" netid="HI" source="ITSAK Strong Motion Network" insttype="" lat="37.6349" lon="22.7293" esm:processing="discarded" esm:quality="bad">
		<comp name="--.HNE" depth="0.0">
			<acc value="0" flag="1"/>
			<vel value="0" flag="1"/>
			<psa03 value="0" flag="1"/>
			<psa10 value="0" flag="1"/>
			<psa30 value="0" flag="1"/>
		</comp>
		<comp name="--.HNN" depth="0.0">
			<acc value="0" flag="1"/>
			<vel value="0" flag="1"/>
			<psa03 value="0" flag="1"/>
			<psa10 value="0" flag="1"/>
			<psa30 value="0" flag="1"/>
		</comp>
		<comp name="--.HNZ" depth="0.0">
			<acc value="0" flag="1"/>
			<vel value="0" flag="1"/>
			<psa03 value="0" flag="1"/>
			<psa10 value="0" flag="1"/>
			<psa30 value="0" flag="1"/>
		</comp>
	</station>
	<station code="ART2" name="ART2" netid="HI" source="ITSAK Strong Motion Network" insttype="" lat="39.1474" lon="20.9937" esm:processing="discarded" esm:quality="bad">
		<comp name="--.HNE" depth="0.0">
			<acc value="0" flag="1"/>
			<vel value="0" flag="1"/>
			<psa03 value="0" flag="1"/>
			<psa10 value="0" flag="1"/>
			<psa30 value="0" flag="1"/>
		</comp>
		<comp name="--.HNN" depth="0.0">
			<acc value="0" flag="1"/>
			<vel value="0" flag="1"/>
			<psa03 value="0" flag="1"/>
			<psa10 value="0" flag="1"/>
			<psa30 value="0" flag="1"/>
		</comp>
		<comp name="--.HNZ" depth="0.0">
			<acc value="0" flag="1"/>
			<vel value="0" flag="1"/>
			<psa03 value="0" flag="1"/>
			<psa10 value="0" flag="1"/>
			<psa30 value="0" flag="1"/>
		</comp>
	</station>
	<station code="NPS1" name="NPS1" netid="HI" source="ITSAK Strong Motion Network" insttype="" lat="36.51263" lon="23.06248" esm:processing="discarded" esm:quality="bad">
		<comp name="--.HNE" depth="0.0">
			<acc value="0" flag="1"/>
			<vel value="0" flag="1"/>
			<psa03 value="0" flag="1"/>
			<psa10 value="0" flag="1"/>
			<psa30 value="0" flag="1"/>
		</comp>
		<comp name="--.HNN" depth="0.0">
			<acc value="0" flag="1"/>
			<vel value="0" flag="1"/>
			<psa03 value="0" flag="1"/>
			<psa10 value="0" flag="1"/>
			<psa30 value="0" flag="1"/>
		</comp>
		<comp name="--.HNZ" depth="0.0">
			<acc value="0" flag="1"/>
			<vel value="0" flag="1"/>
			<psa03 value="0" flag="1"/>
			<psa10 value="0" flag="1"/>
			<psa30 value="0" flag="1"/>
		</comp>
	</station>
	<station code="ARTB" name="ARTB" netid="HL" source="National Observatory of Athens Seismic Network" insttype="" lat="39.15702" lon="20.9785" esm:processing="automatic (Paolucci et al 2011)" esm:quality="bad">
		<comp name="00.HNE" depth="0.0">
			<acc value="0" flag="1"/>
			<vel value="0" flag="1"/>
			<psa03 value="0" flag="1"/>
			<psa10 value="0" flag="1"/>
			<psa30 value="0" flag="1"/>
		</comp>
		<comp name="00.HNN" depth="0.0">
			<acc value="0" flag="1"/>
			<vel value="0" flag="1"/>
			<psa03 value="0" flag="1"/>
			<psa10 value="0" flag="1"/>
			<psa30 value="0" flag="1"/>
		</comp>
		<comp name="00.HNZ" depth="0.0">
			<acc value="0" flag="1"/>
			<vel value="0" flag="1"/>
			<psa03 value="0" flag="1"/>
			<psa10 value="0" flag="1"/>
			<psa30 value="0" flag="1"/>
		</comp>
	</station>
	<station code="DLFA" name="DLFA" netid="HL" source="National Observatory of Athens Seismic Network" insttype="" lat="38.47836" lon="22.49583" esm:processing="automatic (Paolucci et al 2011)" esm:quality="bad">
		<comp name="00.HNE" depth="0.0">
			<acc value="0" flag="1"/>
			<vel value="0" flag="1"/>
			<psa03 value="0" flag="1"/>
			<psa10 value="0" flag="1"/>
			<psa30 value="0" flag="1"/>
		</comp>
		<comp name="00.HNN" depth="0.0">
			<acc value="0" flag="1"/>
			<vel value="0" flag="1"/>
			<psa03 value="0" flag="1"/>
			<psa10 value="0" flag="1"/>
			<psa30 value="0" flag="1"/>
		</comp>
		<comp name="00.HNZ" depth="0.0">
			<acc value="0" flag="1"/>
			<vel value="0" flag="1"/>
			<psa03 value="0" flag="1"/>
			<psa10 value="0" flag="1"/>
			<psa30 value="0" flag="1"/>
		</comp>
	</station>
	<station code="KIAA" name="KIAA" netid="HL" source="National Observatory of Athens Seismic Network" insttype="" lat="38.0139" lon="22.7495" esm:processing="automatic (Paolucci et al 2011)" esm:quality="bad">
		<comp name="00.HNE" depth="0.0">
			<acc value="0" flag="1"/>
			<vel value="0" flag="1"/>
			<psa03 value="0" flag="1"/>
			<psa10 value="0" flag="1"/>
			<psa30 value="0" flag="1"/>
		</comp>
		<comp name="00.HNN" depth="0.0">
			<acc value="0" flag="1"/>
			<vel value="0" flag="1"/>
			<psa03 value="0" flag="1"/>
			<psa10 value="0" flag="1"/>
			<psa30 value="0" flag="1"/>
		</comp>
		<comp name="00.HNZ" depth="0.0">
			<acc value="0" flag="1"/>
			<vel value="0" flag="1"/>
			<psa03 value="0" flag="1"/>
			<psa10 value="0" flag="1"/>
			<psa30 value="0" flag="1"/>
		</comp>
	</station>
	<station code="MNVA" name="MNVA" netid="HL" source="National Observatory of Athens Seismic Network" insttype="" lat="36.68709" lon="23.03734" esm:processing="discarded" esm:quality="bad">
		<comp name="00.HNE" depth="0.0">
			<acc value="0" flag="1"/>
			<vel value="0" flag="1"/>
			<psa03 value="0" flag="1"/>
			<psa10 value="0" flag="1"/>
			<psa30 value="0" flag="1"/>
		</comp>
		<comp name="00.HNN" depth="0.0">
			<acc value="0" flag="1"/>
			<vel value="0" flag="1"/>
			<psa03 value="0" flag="1"/>
			<psa10 value="0" flag="1"/>
			<psa30 value="0" flag="1"/>
		</comp>
		<comp name="00.HNZ" depth="0.0">
			<acc value="0" flag="1"/>
			<vel value="0" flag="1"/>
			<psa03 value="0" flag="1"/>
			<psa10 value="0" flag="1"/>
			<psa30 value="0" flag="1"/>
		</comp>
	</station>
	<station code="PRGA" name="PRGA" netid="HL" source="National Observatory of Athens Seismic Network" insttype="" lat="39.28557" lon="20.40157" esm:processing="discarded" esm:quality="bad">
		<comp name="00.HNE" depth="0.0">
			<acc value="0" flag="1"/>
			<vel value="0" flag="1"/>
			<psa03 value="0" flag="1"/>
			<psa10 value="0" flag="1"/>
			<psa30 value="0" flag="1"/>
		</comp>
		<comp name="00.HNN" depth="0.0">
			<acc value="0" flag="1"/>
			<vel value="0" flag="1"/>
			<psa03 value="0" flag="1"/>
