<?xml version="1.0" encoding="UTF-8" standalone="yes"?>
<!DOCTYPE earthquake SYSTEM "stationlist.dtd">
<stationlist created="" xmlns="ch.ethz.sed.shakemap.usgs.xml">
  <station code="AMPE" name="AMPE" netid="HA" insttype="1s-100Hz," lat="38.3015" lon="23.2688">
    <comp name="--.HHE">
      <acc value="0.0121188516" flag="0"/>
      <vel value="0.0082346831" flag="0"/>
      <psa03 value="0.0339196280" flag="0"/>
      <psa10 value="0.0094643523" flag="0"/>
      <psa30 value="0.0013628438" flag="0"/>
    </comp>
    <comp name="--.HHZ">
      <acc value="0.0066830933" flag="0"/>
      <vel value="0.0033376032" flag="0"/>
      <psa03 value="0.0130989252" flag="0"/>
      <psa10 value="0.0054758011" flag="0"/>
      <psa30 value="0.0004801090" flag="0"/>
    </comp>
    <comp name="--.HHN">
      <acc value="0.0080882819" flag="0"/>
      <vel value="0.0050571809" flag="0"/>
      <psa03 value="0.0224781429" flag="0"/>
      <psa10 value="0.0075917599" flag="0"/>
      <psa30 value="0.0016755919" flag="0"/>
    </comp>
  </station>
  <station code="ATAL" name="ATAL" netid="HA" insttype="120" lat="38.6926" lon="23.0213">
    <comp name="--.HHE">
      <acc value="0.0056613740" flag="0"/>
      <vel value="0.0043960964" flag="0"/>
      <psa03 value="0.0131463733" flag="0"/>
      <psa10 value="0.0058754168" flag="0"/>
      <psa30 value="0.0006762108" flag="0"/>
    </comp>
    <comp name="--.HHN">
      <acc value="0.0069558025" flag="0"/>
      <vel value="0.0070460229" flag="0"/>
      <psa03 value="0.0164697394" flag="0"/>
      <psa10 value="0.0101557583" flag="0"/>
      <psa30 value="0.0010451507" flag="0"/>
    </comp>
    <comp name="--.HHZ">
      <acc value="0.0050242992" flag="0"/>
      <vel value="0.0028095512" flag="0"/>
      <psa03 value="0.0122539115" flag="0"/>
      <psa10 value="0.0040034046" flag="0"/>
      <psa30 value="0.0003728047" flag="0"/>
    </comp>
  </station>
  <station code="ATHU" name="ATHU" netid="HA" insttype="60" lat="37.9665" lon="23.7845">
    <comp name="--.HHE">
      <acc value="0.0184267874" flag="0"/>
      <vel value="0.0074754479" flag="0"/>
      <psa03 value="0.0131884412" flag="0"/>
      <psa10 value="0.0080436131" flag="0"/>
      <psa30 value="0.0008011888" flag="0"/>
    </comp>
    <comp name="--.HHZ">
      <acc value="0.0233442626" flag="0"/>
      <vel value="0.0051632784" flag="0"/>
      <psa03 value="0.0180263436" flag="0"/>
      <psa10 value="0.0039207505" flag="0"/>
      <psa30 value="0.0003764972" flag="0"/>
    </comp>
    <comp name="--.HHN">
      <acc value="0.0222513137" flag="0"/>
      <vel value="0.0063547904" flag="0"/>
      <psa03 value="0.0115745141" flag="0"/>
      <psa10 value="0.0095351043" flag="0"/>
      <psa30 value="0.0007676056" flag="0"/>
    </comp>
  </station>
  <station code="DOMV" name="DOMV" netid="HA" insttype="60" lat="38.2569" lon="22.9795">
    <comp name="--.HHZ">
      <acc value="0.0088542498" flag="0"/>
      <vel value="0.0030191021" flag="0"/>
      <psa03 value="0.0146639453" flag="0"/>
      <psa10 value="0.0021420531" flag="0"/>
      <psa30 value="0.0002635128" flag="0"/>
    </comp>
    <comp name="--.HHN">
      <acc value="0.0152993327" flag="0"/>
      <vel value="0.0039501580" flag="0"/>
      <psa03 value="0.0320691296" flag="0"/>
      <psa10 value="0.0027484104" flag="0"/>
      <psa30 value="0.0001465869" flag="0"/>
    </comp>
    <comp name="--.HHE">
      <acc value="0.0127933425" flag="0"/>
      <vel value="0.0043775702" flag="0"/>
      <psa03 value="0.0249894072" flag="0"/>
      <psa10 value="0.0017908473" flag="0"/>
      <psa30 value="0.0001812858" flag="0"/>
    </comp>
  </station>
  <station code="EPID" name="EPID" netid="HA" insttype="30" lat="37.6144" lon="23.1189">
    <comp name="--.HHZ">
      <acc value="0.0110482048" flag="0"/>
      <vel value="0.0084136808" flag="0"/>
      <psa03 value="0.0166391623" flag="0"/>
      <psa10 value="0.0057963392" flag="0"/>
      <psa30 value="0.0004965473" flag="0"/>
    </comp>
    <comp name="--.HHN">
      <acc value="0.0190646245" flag="0"/>
      <vel value="0.0126565747" flag="0"/>
      <psa03 value="0.0294117996" flag="0"/>
      <psa10 value="0.0108287672" flag="0"/>
      <psa30 value="0.0009095172" flag="0"/>
    </comp>
    <comp name="--.HHE">
      <acc value="0.0197584886" flag="0"/>
      <vel value="0.0157105843" flag="0"/>
      <psa03 value="0.0380269161" flag="0"/>
      <psa10 value="0.0183643133" flag="0"/>
      <psa30 value="0.0011682198" flag="0"/>
    </comp>
  </station>
  <station code="ERTR" name="ERTR" netid="HA" insttype="Horizon,120s,1200" lat="38.4066" lon="23.7865">
    <comp name="--.HHN">
      <acc value="0.0200177010" flag="0"/>
      <vel value="0.0135913358" flag="0"/>
      <psa03 value="0.0389761824" flag="0"/>
      <psa10 value="0.0187619346" flag="0"/>
      <psa30 value="0.0018021539" flag="0"/>
    </comp>
    <comp name="--.HHE">
      <acc value="0.0243320212" flag="0"/>
      <vel value="0.0089874583" flag="0"/>
      <psa03 value="0.0347841042" flag="0"/>
      <psa10 value="0.0091284138" flag="0"/>
      <psa30 value="0.0008544477" flag="0"/>
    </comp>
    <comp name="--.HHZ">
      <acc value="0.0205504378" flag="0"/>
      <vel value="0.0065788133" flag="0"/>
      <psa03 value="0.0329108737" flag="0"/>
      <psa10 value="0.0053871432" flag="0"/>
      <psa30 value="0.0005371993" flag="0"/>
    </comp>
  </station>
  <station code="KARY" name="KARY" netid="HA" insttype="60" lat="38.0321" lon="24.437">
    <comp name="--.HHE">
      <acc value="0.6666419403" flag="0"/>
      <vel value="0.0906894013" flag="0"/>
      <psa03 value="0.2292206651" flag="0"/>
      <psa10 value="0.0230113220" flag="0"/>
      <psa30 value="0.0023532765" flag="0"/>
    </comp>
    <comp name="--.HHN">
      <acc value="0.4616711344" flag="0"/>
      <vel value="0.0954088591" flag="0"/>
      <psa03 value="0.2054181253" flag="0"/>
      <psa10 value="0.0326383859" flag="0"/>
      <psa30 value="0.0021800469" flag="0"/>
    </comp>
    <comp name="--.HHZ">
      <acc value="0.4524070040" flag="0"/>
      <vel value="0.0793449319" flag="0"/>
      <psa03 value="0.1186037116" flag="0"/>
      <psa10 value="0.0207574879" flag="0"/>
      <psa30 value="0.0017248510" flag="0"/>
    </comp>
  </station>
  <station code="LOUT" name="LOUT" netid="HA" insttype="30" lat="37.9879" lon="22.9743">
    <comp name="--.HHE">
      <acc value="0.0228422938" flag="0"/>
      <vel value="0.0130491705" flag="0"/>
      <psa03 value="0.0664186979" flag="0"/>
      <psa10 value="0.0130831812" flag="0"/>
      <psa30 value="0.0009810978" flag="0"/>
    </comp>
    <comp name="--.HHN">
      <acc value="0.0222605584" flag="0"/>
      <vel value="0.0122511361" flag="0"/>
      <psa03 value="0.0468956791" flag="0"/>
      <psa10 value="0.0156630123" flag="0"/>
      <psa30 value="0.0010624570" flag="0"/>
    </comp>
    <comp name="--.HHZ">
      <acc value="0.0176162082" flag="0"/>
      <vel value="0.0068520862" flag="0"/>
      <psa03 value="0.0389644401" flag="0"/>
      <psa10 value="0.0084879255" flag="0"/>
      <psa30 value="0.0005123210" flag="0"/>
    </comp>
  </station>
  <station code="MDRA" name="MDRA" netid="HA" insttype="60" lat="38.0606" lon="23.4662">
    <comp name="--.HHN">
      <acc value="0.0104573383" flag="0"/>
      <vel value="0.0030108714" flag="0"/>
      <psa03 value="0.0218219266" flag="0"/>
      <psa10 value="0.0033664294" flag="0"/>
      <psa30 value="0.0002988705" flag="0"/>
    </comp>
    <comp name="--.HHE">
      <acc value="0.0082824730" flag="0"/>
      <vel value="0.0024844700" flag="0"/>
      <psa03 value="0.0107997481" flag="0"/>
      <psa10 value="0.0014852468" flag="0"/>
      <psa30 value="0.0001344044" flag="0"/>
    </comp>
    <comp name="--.HHZ">
      <acc value="0.0095239685" flag="0"/>
      <vel value="0.0026339474" flag="0"/>
      <psa03 value="0.0135784243" flag="0"/>
      <psa10 value="0.0017804953" flag="0"/>
      <psa30 value="0.0002064677" flag="0"/>
    </comp>
  </station>
  <station code="MRKA" name="MRKA" netid="HA" insttype="Horizon,120s,1200" lat="38.7047" lon="23.5863">
    <comp name="--.HHZ">
      <acc value="0.0299961283" flag="0"/>
      <vel value="0.0091924510" flag="0"/>
      <psa03 value="0.0624761581" flag="0"/>
      <psa10 value="0.0092760504" flag="0"/>
      <psa30 value="0.0003983792" flag="0"/>
    </comp>
    <comp name="--.HHE">
      <acc value="0.0652800092" flag="0"/>
      <vel value="0.0184654606" flag="0"/>
      <psa03 value="0.1367686108" flag="0"/>
      <psa10 value="0.0124646988" flag="0"/>
      <psa30 value="0.0010072870" flag="0"/>
    </comp>
    <comp name="--.HHN">
      <acc value="0.0411247708" flag="0"/>
      <vel value="0.0164585321" flag="0"/>
      <psa03 value="0.0896687734" flag="0"/>
      <psa10 value="0.0168038772" flag="0"/>
      <psa30 value="0.0014847616" flag="0"/>
    </comp>
  </station>
  <station code="MRTH" name="MRTH" netid="HA" insttype="S100," lat="38.1225" lon="23.9409">
    <comp name="--.HHE">
      <acc value="0.1088834776" flag="0"/>
      <vel value="0.0618221853" flag="0"/>
      <psa03 value="0.2540520814" flag="0"/>
      <psa10 value="0.0337415403" flag="0"/>
      <psa30 value="0.0030260876" flag="0"/>
    </comp>
    <comp name="--.HHN">
      <acc value="0.1651992004" flag="0"/>
      <vel value="0.0637152992" flag="0"/>
      <psa03 value="0.3549980568" flag="0"/>
      <psa10 value="0.0478723804" flag="0"/>
      <psa30 value="0.0039482093" flag="0"/>
    </comp>
    <comp name="--.HHZ">
      <acc value="0.1202582545" flag="0"/>
      <vel value="0.0522088571" flag="0"/>
      <psa03 value="0.3913379334" flag="0"/>
      <psa10 value="0.0242851083" flag="0"/>
      <psa30 value="0.0022107027" flag="0"/>
    </comp>
  </station>
  <station code="SERI" name="SERI" netid="HA" insttype="30" lat="37.1609" lon="24.4853">
    <comp name="--.HHE">
      <acc value="0.0211644377" flag="0"/>
      <vel value="0.0067149502" flag="0"/>
      <psa03 value="0.0140244973" flag="0"/>
      <psa10 value="0.0091885047" flag="0"/>
      <psa30 value="0.0009726315" flag="0"/>
    </comp>
    <comp name="--.HHZ">
      <acc value="0.0143082798" flag="0"/>
      <vel value="0.0033168143" flag="0"/>
      <psa03 value="0.0109223908" flag="0"/>
      <psa10 value="0.0032343361" flag="0"/>
      <psa30 value="0.0002145099" flag="0"/>
    </comp>
    <comp name="--.HHN">
      <acc value="0.0211764438" flag="0"/>
      <vel value="0.0047754579" flag="0"/>
      <psa03 value="0.0139909463" flag="0"/>
      <psa10 value="0.0038868976" flag="0"/>
      <psa30 value="0.0003270249" flag="0"/>
    </comp>
  </station>
  <station code="STFN" name="STFN" netid="HA" insttype="1s-100Hz," lat="38.1766" lon="23.544">
    <comp name="--.HHE">
      <acc value="0.0366841983" flag="0"/>
      <vel value="0.0135347595" flag="0"/>
      <psa03 value="0.0550198336" flag="0"/>
      <psa10 value="0.0117453166" flag="0"/>
      <psa30 value="0.0006338728" flag="0"/>
    </comp>
    <comp name="--.HHN">
      <acc value="0.0381848751" flag="0"/>
      <vel value="0.0082355138" flag="0"/>
      <psa03 value="0.0354170726" flag="0"/>
      <psa10 value="0.0059895191" flag="0"/>
      <psa30 value="0.0008363238" flag="0"/>
    </comp>
    <comp name="--.HHZ">
      <acc value="0.0166124008" flag="0"/>
      <vel value="0.0051804224" flag="0"/>
      <psa03 value="0.0192322287" flag="0"/>
      <psa10 value="0.0056605383" flag="0"/>
      <psa30 value="0.0007047127" flag="0"/>
    </comp>
  </station>
  <station code="THIV" name="THIV" netid="HA" insttype="25" lat="38.299" lon="23.332">
    <comp name="--.HHE">
      <acc value="0.0062645888" flag="0"/>
      <vel value="0.0032927320" flag="0"/>
      <psa03 value="0.0216074768" flag="0"/>
      <psa10 value="0.0025290289" flag="0"/>
      <psa30 value="0.0002811304" flag="0"/>
    </comp>
    <comp name="--.HHZ">
      <acc value="0.0058006008" flag="0"/>
      <vel value="0.0020634212" flag="0"/>
      <psa03 value="0.0086109586" flag="0"/>
      <psa10 value="0.0013598740" flag="0"/>
      <psa30 value="0.0002547845" flag="0"/>
    </comp>
    <comp name="--.HHN">
      <acc value="0.0071469229" flag="0"/>
      <vel value="0.0033398223" flag="0"/>
      <psa03 value="0.0160903345" flag="0"/>
      <psa10 value="0.0037337047" flag="0"/>
      <psa30 value="0.0002705434" flag="0"/>
    </comp>
  </station>
  <station code="VILL" name="VILL" netid="HA" insttype="Horizon,120s,1200" lat="38.1642" lon="23.3122">
    <comp name="--.HHE">
      <acc value="0.0125189336" flag="0"/>
      <vel value="0.0087734237" flag="0"/>
      <psa03 value="0.0432368950" flag="0"/>
      <psa10 value="0.0119409954" flag="0"/>
      <psa30 value="0.0010502118" flag="0"/>
    </comp>
    <comp name="--.HHZ">
      <acc value="0.0075935698" flag="0"/>
      <vel value="0.0049457428" flag="0"/>
      <psa03 value="0.0234815096" flag="0"/>
      <psa10 value="0.0049897463" flag="0"/>
      <psa30 value="0.0006986537" flag="0"/>
    </comp>
    <comp name="--.HHN">
      <acc value="0.0106256554" flag="0"/>
      <vel value="0.0074624478" flag="0"/>
      <psa03 value="0.0328904845" flag="0"/>
      <psa10 value="0.0063308861" flag="0"/>
      <psa30 value="0.0004156513" flag="0"/>
    </comp>
  </station>
  <station code="THNO" name="THNO" netid="HC" insttype="60" lat="37.6541" lon="25.0221">
    <comp name="--.HHE">
      <acc value="0.0000000000" flag="0"/>
      <vel value="-100.0000000000" flag="0"/>
      <psa03 value="0.0000000000" flag="0"/>
      <psa10 value="0.0000000000" flag="0"/>
      <psa30 value="0.0000000000" flag="0"/>
    </comp>
    <comp name="--.HHN">
      <acc value="0.0000000000" flag="0"/>
      <vel value="-100.0000000000" flag="0"/>
      <psa03 value="0.0000000000" flag="0"/>
      <psa10 value="0.0000000000" flag="0"/>
      <psa30 value="0.0000000000" flag="0"/>
    </comp>
    <comp name="--.HHZ">
      <acc value="0.0386170615" flag="0"/>
      <vel value="0.0126509559" flag="0"/>
      <psa03 value="0.0431893128" flag="0"/>
      <psa10 value="0.0131140110" flag="0"/>
      <psa30 value="0.0005252532" flag="0"/>
    </comp>
  </station>
  <station code="ATH" name="ATH" netid="HL" insttype="DR24" lat="37.9738" lon="23.7177">
    <comp name="--.HHE">
      <acc value="0.0318581715" flag="0"/>
      <vel value="0.0116516689" flag="0"/>
      <psa03 value="0.0593233160" flag="0"/>
      <psa10 value="0.0130756604" flag="0"/>
      <psa30 value="0.0011456425" flag="0"/>
    </comp>
    <comp name="--.HHZ">
      <acc value="0.0196895074" flag="0"/>
      <vel value="0.0070606158" flag="0"/>
      <psa03 value="0.0184858383" flag="0"/>
      <psa10 value="0.0116571855" flag="0"/>
      <psa30 value="0.0006215395" flag="0"/>
    </comp>
    <comp name="--.HHN">
      <acc value="0.0263745164" flag="0"/>
      <vel value="0.0179250678" flag="0"/>
      <psa03 value="0.0483847248" flag="0"/>
      <psa10 value="0.0186386867" flag="0"/>
      <psa30 value="0.0017899090" flag="0"/>
    </comp>
  </station>
  <station code="LKR" name="LKR" netid="HL" insttype="65535" lat="38.6496" lon="22.9988">
    <comp name="--.HHE">
      <acc value="0.0152778055" flag="0"/>
      <vel value="0.0045207165" flag="0"/>
      <psa03 value="0.0166607586" flag="0"/>
      <psa10 value="0.0041972268" flag="0"/>
      <psa30 value="0.0004133849" flag="0"/>
    </comp>
    <comp name="--.HHN">
      <acc value="0.0173277452" flag="0"/>
      <vel value="0.0058014524" flag="0"/>
      <psa03 value="0.0212344462" flag="0"/>
      <psa10 value="0.0070434015" flag="0"/>
      <psa30 value="0.0006408646" flag="0"/>
    </comp>
    <comp name="--.HHZ">
      <acc value="0.0096395328" flag="0"/>
      <vel value="0.0033441075" flag="0"/>
      <psa03 value="0.0150211954" flag="0"/>
      <psa10 value="0.0030274865" flag="0"/>
      <psa30 value="0.0002709514" flag="0"/>
    </comp>
  </station>
  <station code="PTL" name="PTL" netid="HL" insttype="120" lat="38.0473" lon="23.8638">
    <comp name="--.HHE">
      <acc value="0.0326518149" flag="0"/>
      <vel value="0.0148406832" flag="0"/>
      <psa03 value="0.0623572546" flag="0"/>
      <psa10 value="0.0226512562" flag="0"/>
      <psa30 value="0.0016624968" flag="0"/>
    </comp>
    <comp name="--.HHN">
      <acc value="0.0007085761" flag="0"/>
      <vel value="0.0002308643" flag="0"/>
      <psa03 value="0.0002960397" flag="0"/>
      <psa10 value="0.0001647648" flag="0"/>
      <psa30 value="0.0001398971" flag="0"/>
    </comp>
    <comp name="--.HHZ">
      <acc value="0.0292749562" flag="0"/>
      <vel value="0.0124287146" flag="0"/>
      <psa03 value="0.0408322699" flag="0"/>
      <psa10 value="0.0113403348" flag="0"/>
      <psa30 value="0.0010440083" flag="0"/>
    </comp>
  </station>
  <station code="SKY" name="SKY" netid="HL" insttype="120" lat="38.8831" lon="24.5482">
    <comp name="--.HHZ">
      <acc value="0.0368397541" flag="0"/>
      <vel value="0.0107728449" flag="0"/>
      <psa03 value="0.0752936432" flag="0"/>
      <psa10 value="0.0048327099" flag="0"/>
      <psa30 value="0.0004597165" flag="0"/>
    </comp>
    <comp name="--.HHE">
      <acc value="0.0000099225" flag="0"/>
      <vel value="0.0000084276" flag="0"/>
      <psa03 value="0.0000128744" flag="0"/>
      <psa10 value="0.0000076743" flag="0"/>
      <psa30 value="0.0000077141" flag="0"/>
    </comp>
    <comp name="--.HHN">
      <acc value="0.0652903136" flag="0"/>
      <vel value="0.0184284996" flag="0"/>
      <psa03 value="0.1294251606" flag="0"/>
      <psa10 value="0.0084300443" flag="0"/>
      <psa30 value="0.0005490547" flag="0"/>
    </comp>
  </station>
  <station code="THI1" name="THI1" netid="HL" insttype="LE3D20_SMART24" lat="38.3878" lon="23.3945">
    <comp name="--.HHE">
      <acc value="0.0817866322" flag="0"/>
      <vel value="0.0270070057" flag="0"/>
      <psa03 value="0.1495513208" flag="0"/>
      <psa10 value="0.0093646236" flag="0"/>
      <psa30 value="0.0009133297" flag="0"/>
    </comp>
    <comp name="--.HHN">
      <acc value="0.0674222138" flag="0"/>
      <vel value="0.0365100487" flag="0"/>
      <psa03 value="0.2585248368" flag="0"/>
      <psa10 value="0.0155252498" flag="0"/>
      <psa30 value="0.0017457830" flag="0"/>
    </comp>
    <comp name="--.HHZ">
      <acc value="0.0824771090" flag="0"/>
      <vel value="0.0202238871" flag="0"/>
      <psa03 value="0.0975332685" flag="0"/>
      <psa10 value="0.0104350469" flag="0"/>
      <psa30 value="0.0007306531" flag="0"/>
    </comp>
  </station>
  <station code="THI2" name="THI2" netid="HL" insttype="LE3D20_SMART24" lat="38.3727" lon="23.211">
    <comp name="--.HHE">
      <acc value="0.0381059535" flag="0"/>
      <vel value="0.0210361391" flag="0"/>
      <psa03 value="0.0628858688" flag="0"/>
      <psa10 value="0.0144277728" flag="0"/>
      <psa30 value="0.0009047256" flag="0"/>
    </comp>
    <comp name="--.HHN">
      <acc value="0.0551824954" flag="0"/>
      <vel value="0.0260878085" flag="0"/>
      <psa03 value="0.0891644884" flag="0"/>
      <psa10 value="0.0149166280" flag="0"/>
      <psa30 value="0.0010389576" flag="0"/>
    </comp>
    <comp name="--.HHZ">
      <acc value="0.0278926314" flag="0"/>
      <vel value="0.0150535481" flag="0"/>
      <psa03 value="0.0399893251" flag="0"/>
      <psa10 value="0.0101455987" flag="0"/>
      <psa30 value="0.0007858453" flag="0"/>
    </comp>
  </station>
  <station code="THVA" name="THVA" netid="HL" insttype="LE3D20_SMART24" lat="38.3298" lon="23.336">
    <comp name="--.HHN">
      <acc value="0.0808408904" flag="0"/>
      <vel value="0.0339535575" flag="0"/>
      <psa03 value="0.2433044090" flag="0"/>
      <psa10 value="0.0278258802" flag="0"/>
      <psa30 value="0.0018356794" flag="0"/>
    </comp>
    <comp name="--.HHE">
      <acc value="0.0566750815" flag="0"/>
      <vel value="0.0228237289" flag="0"/>
