<stationlist created="1678266044">
	<station code="KOZK" name="KOZK" netid="KO" source="Bogazici University Kandilli Observatory And Earthquake Research Institute (KOERI)" insttype="" lat="39.2101" lon="34.868">
		<comp name=".HNE" depth="0.0">
			<acc value="0.163660881585" flag="0"/>
			<vel value="0.0771981818641" flag="0"/>
			<psa03 value="0.279593834219" flag="0"/>
			<psa10 value="0.0972840770928" flag="0"/>
			<psa30 value="0.0313160312001" flag="0"/>
		</comp>
		<comp name=".HNN" depth="0.0">
			<acc value="0.14306168796" flag="0"/>
			<vel value="0.0876570335947" flag="0"/>
			<psa03 value="0.373981316093" flag="0"/>
			<psa10 value="0.0890018409353" flag="0"/>
			<psa30 value="0.0509212366152" flag="0"/>
		</comp>
		<comp name=".HNZ" depth="0.0">
			<acc value="0.0759338730567" flag="0"/>
			<vel value="0.0389251828564" flag="0"/>
			<psa03 value="0.244635122543" flag="0"/>
			<psa10 value="0.0362109737993" flag="0"/>
			<psa30 value="0.0115414645654" flag="0"/>
		</comp>
	</station>
</stationlist>
