<?xml version="1.0" encoding="UTF-8" standalone="yes"?>
<!DOCTYPE earthquake SYSTEM "stationlist.dtd">
<stationlist created="" xmlns="ch.ethz.sed.shakemap.usgs.xml">
  <station code="BNN" name="BNN" netid="KO" insttype="CMG-3T" lat="38.8521" lon="35.8472">
    <comp name="--.HHE">
      <acc value="0.0586705180" flag="0"/>
      <vel value="0.0287095016" flag="0"/>
      <psa03 value="0.1809430455" flag="0"/>
      <psa10 value="0.0430701620" flag="0"/>
      <psa30 value="0.0083728187" flag="0"/>
    </comp>
    <comp name="--.HHN">
      <acc value="0.0675346624" flag="0"/>
      <vel value="0.0333717557" flag="0"/>
      <psa03 value="0.2751917243" flag="0"/>
      <psa10 value="0.0582198476" flag="0"/>
      <psa30 value="0.0044129192" flag="0"/>
    </comp>
    <comp name="--.HHZ">
      <acc value="0.0313012895" flag="0"/>
      <vel value="0.0178837946" flag="0"/>
      <psa03 value="0.0776022680" flag="0"/>
      <psa10 value="0.0331271003" flag="0"/>
      <psa30 value="0.0097973699" flag="0"/>
    </comp>
  </station>
  <station code="GULA" name="GULA" netid="KO" insttype="CMG-6T" lat="38.3444" lon="34.236">
    <comp name="--.HHE">
      <acc value="0.0356592238" flag="0"/>
      <vel value="0.0180816669" flag="0"/>
      <psa03 value="0.0827063980" flag="0"/>
      <psa10 value="0.0103833603" flag="0"/>
      <psa30 value="0.0031677740" flag="0"/>
    </comp>
    <comp name="--.HHN">
      <acc value="0.0518749439" flag="0"/>
      <vel value="0.0187617457" flag="0"/>
      <psa03 value="0.0848540505" flag="0"/>
      <psa10 value="0.0144591189" flag="0"/>
      <psa30 value="0.0034890883" flag="0"/>
    </comp>
    <comp name="--.HHZ">
      <acc value="0.0221916231" flag="0"/>
      <vel value="0.0092395711" flag="0"/>
      <psa03 value="0.0467268972" flag="0"/>
      <psa10 value="0.0048837171" flag="0"/>
      <psa30 value="0.0050137541" flag="0"/>
    </comp>
  </station>
  <station code="KOZK" name="KOZK" netid="KO" insttype="CMG-5T" lat="39.2101" lon="34.868">
    <comp name="--.HNN">
      <acc value="0.1427441411" flag="0"/>
      <vel value="0.0797976004" flag="0"/>
      <psa03 value="0.3706635123" flag="0"/>
      <psa10 value="0.0880925485" flag="0"/>
      <psa30 value="0.0421523273" flag="0"/>
    </comp>
    <comp name="--.HNE">
      <acc value="0.1649634005" flag="0"/>
      <vel value="0.0766279650" flag="0"/>
      <psa03 value="0.2816533024" flag="0"/>
      <psa10 value="0.0974961382" flag="0"/>
      <psa30 value="0.0278447455" flag="0"/>
    </comp>
  </station>
  <station code="SARI" name="SARI" netid="KO" insttype="CMG-3T" lat="38.4072" lon="36.4181">
    <comp name="--.HHN">
      <acc value="0.0340795156" flag="0"/>
      <vel value="0.0186961644" flag="0"/>
      <psa03 value="0.0567961196" flag="0"/>
      <psa10 value="0.0259453761" flag="0"/>
      <psa30 value="0.0023187912" flag="0"/>
    </comp>
    <comp name="--.HHZ">
      <acc value="0.0151515487" flag="0"/>
      <vel value="0.0091794623" flag="0"/>
      <psa03 value="0.0289262049" flag="0"/>
      <psa10 value="0.0198752416" flag="0"/>
      <psa30 value="0.0024560791" flag="0"/>
    </comp>
  </station>
  <station code="YOZ" name="YOZ" netid="KO" insttype="CMG-3T" lat="39.6376" lon="35.3152">
    <comp name="--.HHN">
      <acc value="0.0828936178" flag="0"/>
      <vel value="0.0275055192" flag="0"/>
      <psa03 value="0.1736482867" flag="0"/>
      <psa10 value="0.0158532753" flag="0"/>
      <psa30 value="0.0054389579" flag="0"/>
    </comp>
    <comp name="--.HHZ">
      <acc value="0.0641770245" flag="0"/>
      <vel value="0.0172360430" flag="0"/>
      <psa03 value="0.1064219707" flag="0"/>
      <psa10 value="0.0069960116" flag="0"/>
      <psa30 value="0.0049392927" flag="0"/>
    </comp>
    <comp name="--.HHE">
      <acc value="0.0860998406" flag="0"/>
      <vel value="0.0279026492" flag="0"/>
      <psa03 value="0.1968206009" flag="0"/>
      <psa10 value="0.0155078976" flag="0"/>
      <psa30 value="0.0026504414" flag="0"/>
    </comp>
  </station>
</stationlist>
