<?xml version="1.0" encoding="UTF-8" standalone="yes"?>
<!DOCTYPE earthquake SYSTEM "stationlist.dtd">
<stationlist created="" xmlns="ch.ethz.sed.shakemap.usgs.xml">
  <station code="CEYT" name="CEYT" netid="KO" insttype="CMG-3ESP" lat="37.0105" lon="35.7478">
    <comp name="--.HHN">
      <acc value="0.1207321385" flag="0"/>
      <vel value="0.1449441052" flag="0"/>
      <psa03 value="0.4073737944" flag="0"/>
      <psa10 value="0.2630749599" flag="0"/>
      <psa30 value="0.0157975891" flag="0"/>
    </comp>
    <comp name="--.HHE">
      <acc value="0.1430088235" flag="0"/>
      <vel value="0.1756516822" flag="0"/>
      <psa03 value="0.3505395554" flag="0"/>
      <psa10 value="0.3287470031" flag="0"/>
      <psa30 value="0.0270634792" flag="0"/>
    </comp>
    <comp name="--.HHZ">
      <acc value="0.0863015843" flag="0"/>
      <vel value="0.0761708093" flag="0"/>
      <psa03 value="0.1339356556" flag="0"/>
      <psa10 value="0.0709232977" flag="0"/>
      <psa30 value="0.0144540624" flag="0"/>
    </comp>
  </station>
  <station code="GAZ" name="GAZ" netid="KO" insttype="CMG-3T" lat="37.1721" lon="37.2096">
    <comp name="--.HHN">
      <acc value="0.8407465769" flag="0"/>
      <vel value="0.5904628690" flag="0"/>
      <psa03 value="1.8693233224" flag="0"/>
      <psa10 value="1.1588880454" flag="0"/>
      <psa30 value="0.0512444160" flag="0"/>
    </comp>
    <comp name="--.HHE">
      <acc value="1.4086382382" flag="0"/>
      <vel value="0.6963524020" flag="0"/>
      <psa03 value="2.0833970171" flag="0"/>
      <psa10 value="0.8898633406" flag="0"/>
      <psa30 value="0.1365403069" flag="0"/>
    </comp>
    <comp name="--.HHZ">
      <acc value="0.7529789730" flag="0"/>
      <vel value="0.4809106793" flag="0"/>
      <psa03 value="1.2828166048" flag="0"/>
      <psa10 value="0.6233608557" flag="0"/>
      <psa30 value="0.0776525081" flag="0"/>
    </comp>
  </station>
  <station code="KRTS" name="KRTS" netid="KO" insttype="CMG-5T" lat="36.573" lon="35.375">
    <comp name="--.HNZ">
      <acc value="0.0460615290" flag="0"/>
      <vel value="0.0342738738" flag="0"/>
      <psa03 value="0.1442813641" flag="0"/>
      <psa10 value="0.0296384360" flag="0"/>
      <psa30 value="0.0081681831" flag="0"/>
    </comp>
    <comp name="--.HNN">
      <acc value="0.0611606555" flag="0"/>
      <vel value="0.0313842051" flag="0"/>
      <psa03 value="0.1886387829" flag="0"/>
      <psa10 value="0.0572837781" flag="0"/>
      <psa30 value="0.0128863556" flag="0"/>
    </comp>
  </station>
  <station code="TAHT" name="TAHT" netid="KO" insttype="CMG-3ESPC" lat="36.3755" lon="36.1855">
    <comp name="--.HHE">
      <acc value="1.3329631724" flag="0"/>
      <vel value="0.3606083439" flag="0"/>
      <psa03 value="3.9681498319" flag="0"/>
      <psa10 value="0.3833193276" flag="0"/>
      <psa30 value="0.0216043303" flag="0"/>
    </comp>
    <comp name="--.HHZ">
      <acc value="0.9241275186" flag="0"/>
      <vel value="0.2825003371" flag="0"/>
      <psa03 value="1.4628618380" flag="0"/>
      <psa10 value="0.2052480611" flag="0"/>
      <psa30 value="0.0227937135" flag="0"/>
    </comp>
  </station>
</stationlist>
