<stationlist created="1775786125">
	<station code="SPAOL" name="SPAOL" netid="7C" source="Urban Seismic Network (RUSN-CAL-INGV)" insttype="" lat="37.54939" lon="15.071367">
		<comp name="--.HNE" depth="0.0">
			<acc value="0.0180661455966084" flag="0"/>
			<vel value="0.0120298264743315" flag="0"/>
			<psa03 value="0.0016035497494365" flag="0"/>
			<psa10 value="0.0014148050129511" flag="0"/>
			<psa30 value="0.00236208543490088" flag="0"/>
		</comp>
		<comp name="--.HNN" depth="0.0">
			<acc value="0.0130445606273092" flag="0"/>
			<vel value="0.00590484699436776" flag="0"/>
			<psa03 value="0.000745338030585555" flag="0"/>
			<psa10 value="0.000735880838337774" flag="0"/>
			<psa30 value="0.00113293161365926" flag="0"/>
		</comp>
		<comp name="--.HNZ" depth="0.0">
			<acc value="0.0177507666717631" flag="0"/>
			<vel value="0.0163280928327916" flag="0"/>
			<psa03 value="0.00237068357610012" flag="0"/>
			<psa10 value="0.00422557789254732" flag="0"/>
			<psa30 value="0.00327155047416297" flag="0"/>
		</comp>
	</station>
	<station code="ACR" name="ACR" netid="IT" source="Italian Strong Motion Network (RAN)" insttype="" lat="39.4889" lon="16.3798">
		<comp name="--.HNE" depth="0.0">
			<acc value="0.00839857814567236" flag="0"/>
			<vel value="0.00543129754360088" flag="0"/>
			<psa03 value="0.0197609575039529" flag="0"/>
			<psa10 value="0.00863295001557021" flag="0"/>
			<psa30 value="0.00169360740151189" flag="0"/>
		</comp>
		<comp name="--.HNN" depth="0.0">
			<acc value="0.00760523403615724" flag="0"/>
			<vel value="0.00583628238844053" flag="0"/>
			<psa03 value="0.0156595126262753" flag="0"/>
			<psa10 value="0.00893981315624727" flag="0"/>
			<psa30 value="0.0017847092698969" flag="0"/>
		</comp>
		<comp name="--.HNZ" depth="0.0">
			<acc value="0.00718124786630781" flag="0"/>
			<vel value="0.00419730327293085" flag="0"/>
			<psa03 value="0.0106737676315965" flag="0"/>
			<psa10 value="0.00642655275883039" flag="0"/>
			<psa30 value="0.00113602733956925" flag="0"/>
		</comp>
	</station>
	<station code="AGR" name="AGR" netid="IT" source="Italian Strong Motion Network (RAN)" insttype="" lat="37.3231" lon="13.586">
		<comp name="--.HNE" depth="0.0">
			<acc value="0.0105489202883363" flag="0"/>
			<vel value="0.0325212624223449" flag="0"/>
			<psa03 value="0.0340729550827195" flag="0"/>
			<psa10 value="0.0232296913530467" flag="0"/>
			<psa30 value="0.0173689722758374" flag="0"/>
		</comp>
		<comp name="--.HNN" depth="0.0">
			<acc value="0.0238132050735373" flag="0"/>
			<vel value="0.0528875596729105" flag="0"/>
			<psa03 value="0.0481968125939633" flag="0"/>
			<psa10 value="0.0498771341153509" flag="0"/>
			<psa30 value="0.0230801722814754" flag="0"/>
		</comp>
		<comp name="--.HNZ" depth="0.0">
			<acc value="0.0112314119563516" flag="0"/>
			<vel value="0.0290239335135825" flag="0"/>
			<psa03 value="0.0336536460555543" flag="0"/>
			<psa10 value="0.0276118416489973" flag="0"/>
			<psa30 value="0.0133208624417614" flag="0"/>
		</comp>
	</station>
	<station code="ALC" name="ALC" netid="IT" source="Italian Strong Motion Network (RAN)" insttype="" lat="37.9734" lon="12.9597">
		<comp name="--.HGE" depth="0.0">
			<acc value="0.0158842762439342" flag="0"/>
			<vel value="0.0153344922102663" flag="0"/>
			<psa03 value="0.0385067045260271" flag="0"/>
			<psa10 value="0.0156540160642383" flag="0"/>
			<psa30 value="0.00670120808881472" flag="0"/>
		</comp>
		<comp name="--.HGN" depth="0.0">
			<acc value="0.019118891180509" flag="0"/>
			<vel value="0.0140010294269552" flag="0"/>
			<psa03 value="0.0513357132390595" flag="0"/>
			<psa10 value="0.0155980801712599" flag="0"/>
			<psa30 value="0.00432979932795592" flag="0"/>
		</comp>
		<comp name="--.HGZ" depth="0.0">
			<acc value="0.0153177042905127" flag="0"/>
			<vel value="0.0128704853964017" flag="0"/>
			<psa03 value="0.0474424240777598" flag="0"/>
			<psa10 value="0.0154526127222554" flag="0"/>
			<psa30 value="0.00276093998205715" flag="0"/>
		</comp>
	</station>
	<station code="ARE" name="ARE" netid="IT" source="Italian Strong Motion Network (RAN)" insttype="" lat="38.5614" lon="16.2088">
		<comp name="--.HGE" depth="0.0">
			<acc value="0.0249360930885264" flag="0"/>
			<vel value="0.0205967428942823" flag="0"/>
			<psa03 value="0.0678748192903323" flag="0"/>
			<psa10 value="0.0259911174089705" flag="0"/>
			<psa30 value="0.00258080700746497" flag="0"/>
		</comp>
		<comp name="--.HGN" depth="0.0">
			<acc value="0.0193692301810648" flag="0"/>
			<vel value="0.0161588376264947" flag="0"/>
			<psa03 value="0.0617396368229371" flag="0"/>
			<psa10 value="0.0250197693119262" flag="0"/>
			<psa30 value="0.00250275850380131" flag="0"/>
		</comp>
		<comp name="--.HGZ" depth="0.0">
			<acc value="0.0115453128306486" flag="0"/>
			<vel value="0.0111590358416975" flag="0"/>
			<psa03 value="0.0386077789300436" flag="0"/>
			<psa10 value="0.0220506169951571" flag="0"/>
			<psa30 value="0.00315017160007493" flag="0"/>
		</comp>
	</station>
	<station code="ARMO" name="ARMO" netid="IT" source="Italian Strong Motion Network (RAN)" insttype="" lat="38.0761" lon="15.7125">
		<comp name="--.HNE" depth="0.0">
			<acc value="0.195628936021396" flag="0"/>
			<vel value="0.136385669604761" flag="0"/>
			<psa03 value="0.480438868383825" flag="0"/>
			<psa10 value="0.261115277605654" flag="0"/>
			<psa30 value="0.0100386675124555" flag="0"/>
		</comp>
		<comp name="--.HNN" depth="0.0">
			<acc value="0.15028775548253" flag="0"/>
			<vel value="0.118398039394078" flag="0"/>
			<psa03 value="0.332822943719944" flag="0"/>
			<psa10 value="0.236379598988342" flag="0"/>
			<psa30 value="0.0126239912774668" flag="0"/>
		</comp>
		<comp name="--.HNZ" depth="0.0">
			<acc value="0.0859013523073822" flag="0"/>
			<vel value="0.0675299071414879" flag="0"/>
			<psa03 value="0.320753498345089" flag="0"/>
			<psa10 value="0.107700759646759" flag="0"/>
			<psa30 value="0.00695398858428197" flag="0"/>
		</comp>
	</station>
	<station code="BCL" name="BCL" netid="IT" source="Italian Strong Motion Network (RAN)" insttype="" lat="38.1827" lon="15.2316">
		<comp name="--.HGE" depth="0.0">
			<acc value="0.22092673067848" flag="0"/>
			<vel value="0.216713620334246" flag="0"/>
			<psa03 value="0.789556470907922" flag="0"/>
			<psa10 value="0.378448040325345" flag="0"/>
			<psa30 value="0.0415727073211651" flag="0"/>
		</comp>
		<comp name="--.HGN" depth="0.0">
			<acc value="0.31187985528603" flag="0"/>
			<vel value="0.218670748106013" flag="0"/>
			<psa03 value="0.999188441330475" flag="0"/>
			<psa10 value="0.339463067762241" flag="0"/>
			<psa30 value="0.07222097095155" flag="0"/>
		</comp>
		<comp name="--.HGZ" depth="0.0">
			<acc value="0.157732321323947" flag="0"/>
			<vel value="0.122855909487036" flag="0"/>
			<psa03 value="0.339188802926875" flag="0"/>
			<psa10 value="0.295396388561012" flag="0"/>
			<psa30 value="0.0300706853686597" flag="0"/>
		</comp>
	</station>
	<station code="BNT" name="BNT" netid="IT" source="Italian Strong Motion Network (RAN)" insttype="" lat="37.7805" lon="14.8444">
		<comp name="--.HNE" depth="0.0">
			<acc value="0.0760308359339674" flag="0"/>
			<vel value="0.0857477717185046" flag="0"/>
			<psa03 value="0.306297374031133" flag="0"/>
			<psa10 value="0.111104882653201" flag="0"/>
			<psa30 value="0.0293007743658343" flag="0"/>
		</comp>
		<comp name="--.HNN" depth="0.0">
			<acc value="0.0796323785059737" flag="0"/>
			<vel value="0.0710518323068085" flag="0"/>
			<psa03 value="0.329990151894722" flag="0"/>
			<psa10 value="0.125108820345346" flag="0"/>
			<psa30 value="0.0216947705054069" flag="0"/>
		</comp>
		<comp name="--.HNZ" depth="0.0">
			<acc value="0.0771617893930248" flag="0"/>
			<vel value="0.0603683779632148" flag="0"/>
			<psa03 value="0.145641637627054" flag="0"/>
			<psa10 value="0.0819524314463816" flag="0"/>
			<psa30 value="0.0242630873104572" flag="0"/>
		</comp>
	</station>
	<station code="BRO" name="BRO" netid="IT" source="Italian Strong Motion Network (RAN)" insttype="" lat="38.6021" lon="16.3493">
		<comp name="--.HGE" depth="0.0">
			<acc value="0.0247037993828408" flag="0"/>
			<vel value="0.013843608980114" flag="0"/>
			<psa03 value="0.0639667635258176" flag="0"/>
			<psa10 value="0.0117122040010345" flag="0"/>
			<psa30 value="0.00268883562216385" flag="0"/>
		</comp>
		<comp name="--.HGN" depth="0.0">
			<acc value="0.0233238108350215" flag="0"/>
			<vel value="0.0133086825731698" flag="0"/>
			<psa03 value="0.0691139065821176" flag="0"/>
			<psa10 value="0.0224282857638595" flag="0"/>
			<psa30 value="0.00224296733557807" flag="0"/>
		</comp>
		<comp name="--.HGZ" depth="0.0">
			<acc value="0.0181126082192551" flag="0"/>
			<vel value="0.00886598709257712" flag="0"/>
			<psa03 value="0.0164127461180474" flag="0"/>
			<psa10 value="0.0102799250570838" flag="0"/>
			<psa30 value="0.00310814652445325" flag="0"/>
		</comp>
	</station>
	<station code="BVM" name="BVM" netid="IT" source="Italian Strong Motion Network (RAN)" insttype="" lat="37.931" lon="15.936">
		<comp name="--.HNE" depth="0.0">
			<acc value="0.0261668842403111" flag="0"/>
			<vel value="0.0275328196857987" flag="0"/>
			<psa03 value="0.0730490891436494" flag="0"/>
			<psa10 value="0.0740551432897991" flag="0"/>
			<psa30 value="0.00472984957932173" flag="0"/>
		</comp>
		<comp name="--.HNN" depth="0.0">
			<acc value="0.0260430455804237" flag="0"/>
			<vel value="0.0327907290446608" flag="0"/>
			<psa03 value="0.0511408253286919" flag="0"/>
			<psa10 value="0.0545943166055401" flag="0"/>
			<psa30 value="0.00512581456005841" flag="0"/>
		</comp>
		<comp name="--.HNZ" depth="0.0">
			<acc value="0.012954591934323" flag="0"/>
			<vel value="0.0141685778954523" flag="0"/>
			<psa03 value="0.0347526485465757" flag="0"/>
			<psa10 value="0.0252344466582469" flag="0"/>
			<psa30 value="0.00331992284526183" flag="0"/>
		</comp>
	</station>
	<station code="CDI1" name="CDI1" netid="IT" source="Italian Strong Motion Network (RAN)" insttype="" lat="37.5032" lon="14.6473">
		<comp name="--.HNE" depth="0.0">
			<acc value="0.0233563221597081" flag="0"/>
			<vel value="0.023749284207729" flag="0"/>
			<psa03 value="0.0892645904243611" flag="0"/>
			<psa10 value="0.0316055562129871" flag="0"/>
			<psa30 value="0.0129826758718942" flag="0"/>
		</comp>
		<comp name="--.HNN" depth="0.0">
			<acc value="0.0214036901108557" flag="0"/>
			<vel value="0.0357133223798102" flag="0"/>
			<psa03 value="0.117046410000229" flag="0"/>
			<psa10 value="0.0575108698128764" flag="0"/>
			<psa30 value="0.0300265824470576" flag="0"/>
		</comp>
		<comp name="--.HNZ" depth="0.0">
			<acc value="0.0115367949202525" flag="0"/>
			<vel value="0.0294566698238494" flag="0"/>
			<psa03 value="0.0388419116276858" flag="0"/>
			<psa10 value="0.0200492894170271" flag="0"/>
			<psa30 value="0.0155920528969826" flag="0"/>
		</comp>
	</station>
	<station code="CFL" name="CFL" netid="IT" source="Italian Strong Motion Network (RAN)" insttype="" lat="38.037" lon="14.0232">
		<comp name="--.HNE" depth="0.0">
			<acc value="0.133235149530733" flag="0"/>
			<vel value="0.113340552713367" flag="0"/>
			<psa03 value="0.312047400775519" flag="0"/>
			<psa10 value="0.0864759511073589" flag="0"/>
			<psa30 value="0.0176600282235322" flag="0"/>
		</comp>
		<comp name="--.HNN" depth="0.0">
			<acc value="0.126391168703075" flag="0"/>
			<vel value="0.0709367561087412" flag="0"/>
			<psa03 value="0.329293918272661" flag="0"/>
			<psa10 value="0.048941229616271" flag="0"/>
			<psa30 value="0.0131415847321596" flag="0"/>
		</comp>
		<comp name="--.HNZ" depth="0.0">
			<acc value="0.118379299762988" flag="0"/>
			<vel value="0.0585104129242096" flag="0"/>
			<psa03 value="0.257598168781122" flag="0"/>
			<psa10 value="0.0332890089834712" flag="0"/>
			<psa30 value="0.00937681533466356" flag="0"/>
		</comp>
	</station>
	<station code="CLG1" name="CLG1" netid="IT" source="Italian Strong Motion Network (RAN)" insttype="" lat="37.2214" lon="14.5182">
		<comp name="--.HNE" depth="0.0">
			<acc value="0.0511886381466634" flag="0"/>
			<vel value="0.0347138513931441" flag="0"/>
			<psa03 value="0.153982846441201" flag="0"/>
			<psa10 value="0.0450162158533721" flag="0"/>
			<psa30 value="0.0181935218982032" flag="0"/>
		</comp>
		<comp name="--.HNN" depth="0.0">
			<acc value="0.0510529817232132" flag="0"/>
			<vel value="0.0369375970030794" flag="0"/>
			<psa03 value="0.129555561586796" flag="0"/>
			<psa10 value="0.0466231073020444" flag="0"/>
			<psa30 value="0.0149475652028358" flag="0"/>
		</comp>
		<comp name="--.HNZ" depth="0.0">
			<acc value="0.0258674278189404" flag="0"/>
			<vel value="0.0203441975267371" flag="0"/>
			<psa03 value="0.0576858943240579" flag="0"/>
			<psa10 value="0.0325079072393141" flag="0"/>
			<psa30 value="0.00521489879478509" flag="0"/>
		</comp>
	</station>
	<station code="CLTS" name="CLTS" netid="IT" source="Italian Strong Motion Network (RAN)" insttype="" lat="37.4787" lon="14.0537">
		<comp name="--.HNE" depth="0.0">
			<acc value="0.0415501642032849" flag="0"/>
			<vel value="0.0949240664562841" flag="0"/>
			<psa03 value="0.0668830765089069" flag="0"/>
			<psa10 value="0.0609428609154436" flag="0"/>
			<psa30 value="0.0369186256777639" flag="0"/>
		</comp>
		<comp name="--.HNN" depth="0.0">
			<acc value="0.0455939826396265" flag="0"/>
			<vel value="0.0873381199796637" flag="0"/>
			<psa03 value="0.0867782173810161" flag="0"/>
			<psa10 value="0.0645485485245519" flag="0"/>
			<psa30 value="0.0482029765439614" flag="0"/>
		</comp>
		<comp name="--.HNZ" depth="0.0">
			<acc value="0.0264218767755475" flag="0"/>
			<vel value="0.0545010262300808" flag="0"/>
			<psa03 value="0.052753937397783" flag="0"/>
			<psa10 value="0.0464257542283718" flag="0"/>
			<psa30 value="0.0340783175212881" flag="0"/>
		</comp>
	</station>
	<station code="CLV" name="CLV" netid="IT" source="Italian Strong Motion Network (RAN)" insttype="" lat="37.8192" lon="13.8902">
		<comp name="--.HGE" depth="0.0">
			<acc value="0.503813420323479" flag="0"/>
			<vel value="0.276104907428697" flag="0"/>
			<psa03 value="2.06517514105107" flag="0"/>
			<psa10 value="0.117020397026997" flag="0"/>
			<psa30 value="0.0185851561753854" flag="0"/>
		</comp>
		<comp name="--.HGN" depth="0.0">
			<acc value="0.383706620476712" flag="0"/>
			<vel value="0.228794221379642" flag="0"/>
			<psa03 value="1.34088482703907" flag="0"/>
			<psa10 value="0.129064214870821" flag="0"/>
			<psa30 value="0.0159693562248097" flag="0"/>
		</comp>
		<comp name="--.HGZ" depth="0.0">
			<acc value="0.264570209661902" flag="0"/>
			<vel value="0.151945942526019" flag="0"/>
			<psa03 value="0.875293733914153" flag="0"/>
			<psa10 value="0.06117563508559" flag="0"/>
			<psa30 value="0.00989718147303307" flag="0"/>
		</comp>
	</station>
	<station code="CNCT" name="CNCT" netid="IT" source="Italian Strong Motion Network (RAN)" insttype="" lat="37.3597" lon="13.8517">
		<comp name="--.HNE" depth="0.0">
			<acc value="0.00671260582876294" flag="0"/>
			<vel value="0.0254671261379337" flag="0"/>
			<psa03 value="0.0161782266760353" flag="0"/>
			<psa10 value="0.0116676969901635" flag="0"/>
			<psa30 value="0.0145140898205525" flag="0"/>
		</comp>
		<comp name="--.HNN" depth="0.0">
			<acc value="0.00744725198993101" flag="0"/>
			<vel value="0.0257347222772663" flag="0"/>
			<psa03 value="0.0121282839080364" flag="0"/>
			<psa10 value="0.0168716664150982" flag="0"/>
			<psa30 value="0.0215510026481586" flag="0"/>
		</comp>
		<comp name="--.HNZ" depth="0.0">
			<acc value="0.00941414242413627" flag="0"/>
			<vel value="0.014907165857315" flag="0"/>
			<psa03 value="0.014593781870593" flag="0"/>
			<psa10 value="0.0152391523315521" flag="0"/>
			<psa30 value="0.00955102354176898" flag="0"/>
		</comp>
	</station>
	<station code="CON" name="CON" netid="IT" source="Italian Strong Motion Network (RAN)" insttype="" lat="37.8138" lon="13.308">
		<comp name="--.HNE" depth="0.0">
			<acc value="0.0414535780765058" flag="0"/>
			<vel value="0.0395360243673267" flag="0"/>
			<psa03 value="0.122664136313693" flag="0"/>
			<psa10 value="0.0547504732001481" flag="0"/>
			<psa30 value="0.0122162901025982" flag="0"/>
		</comp>
		<comp name="--.HNN" depth="0.0">
			<acc value="0.0326033487640215" flag="0"/>
			<vel value="0.0365790161987773" flag="0"/>
			<psa03 value="0.113635652804303" flag="0"/>
			<psa10 value="0.0317377637210856" flag="0"/>
			<psa30 value="0.011729592027906" flag="0"/>
		</comp>
		<comp name="--.HNZ" depth="0.0">
			<acc value="0.0302126533642165" flag="0"/>
			<vel value="0.0341149264777292" flag="0"/>
			<psa03 value="0.082134378499481" flag="0"/>
			<psa10 value="0.0462573868248577" flag="0"/>
			<psa30 value="0.00534265850823909" flag="0"/>
		</comp>
	</station>
	<station code="CRL" name="CRL" netid="IT" source="Italian Strong Motion Network (RAN)" insttype="" lat="37.813" lon="13.307">
		<comp name="--.HGE" depth="0.0">
			<acc value="0.065008449388846" flag="0"/>
			<vel value="0.0475965589742193" flag="0"/>
			<psa03 value="0.233913641464092" flag="0"/>
			<psa10 value="0.0551781702829808" flag="0"/>
			<psa30 value="0.0116223849259616" flag="0"/>
		</comp>
		<comp name="--.HGN" depth="0.0">
			<acc value="0.0527443596342895" flag="0"/>
			<vel value="0.0491460584859905" flag="0"/>
			<psa03 value="0.114262444326166" flag="0"/>
			<psa10 value="0.0372454310770177" flag="0"/>
			<psa30 value="0.0115091499246985" flag="0"/>
		</comp>
		<comp name="--.HGZ" depth="0.0">
			<acc value="0.0320888036914886" flag="0"/>
			<vel value="0.0285396428366963" flag="0"/>
			<psa03 value="0.117435789961407" flag="0"/>
			<psa10 value="0.0375140688729533" flag="0"/>
			<psa30 value="0.00507988693424527" flag="0"/>
		</comp>
	</station>
	<station code="CSG" name="CSG" netid="IT" source="Italian Strong Motion Network (RAN)" insttype="" lat="38.0171" lon="12.8837">
		<comp name="--.HNE" depth="0.0">
			<acc value="0.0185954252188015" flag="0"/>
			<vel value="0.0177269811504332" flag="0"/>
			<psa03 value="0.0492276933847564" flag="0"/>
			<psa10 value="0.0446093514005989" flag="0"/>
			<psa30 value="0.00464801249134962" flag="0"/>
		</comp>
		<comp name="--.HNN" depth="0.0">
			<acc value="0.0235589515108296" flag="0"/>
			<vel value="0.0224454094081923" flag="0"/>
			<psa03 value="0.0501933511048412" flag="0"/>
			<psa10 value="0.0433173420613211" flag="0"/>
			<psa30 value="0.00440973503997121" flag="0"/>
		</comp>
		<comp name="--.HNZ" depth="0.0">
			<acc value="0.00895171007075743" flag="0"/>
			<vel value="0.0104273878837955" flag="0"/>
			<psa03 value="0.0223025425381546" flag="0"/>
			<psa10 value="0.011256188792265" flag="0"/>
			<psa30 value="0.00320518024412763" flag="0"/>
		</comp>
	</station>
	<station code="CSLA" name="CSLA" netid="IT" source="Italian Strong Motion Network (RAN)" insttype="" lat="37.789" lon="14.0412">
		<comp name="--.HNE" depth="0.0">
			<acc value="0.314193737156828" flag="0"/>
			<vel value="0.342204007536493" flag="0"/>
			<psa03 value="0.995397690211818" flag="0"/>
			<psa10 value="0.250374791101135" flag="0"/>
			<psa30 value="0.0443956809959833" flag="0"/>
		</comp>
		<comp name="--.HNN" depth="0.0">
			<acc value="0.332057182717312" flag="0"/>
			<vel value="0.261146316909557" flag="0"/>
			<psa03 value="0.791089489129522" flag="0"/>
			<psa10 value="0.190895145866549" flag="0"/>
			<psa30 value="0.0306748653926211" flag="0"/>
		</comp>
		<comp name="--.HNZ" depth="0.0">
			<acc value="0.231624182898451" flag="0"/>
			<vel value="0.151399575325838" flag="0"/>
			<psa03 value="0.471047871276356" flag="0"/>
			<psa10 value="0.122523774098719" flag="0"/>
			<psa30 value="0.0243152941022343" flag="0"/>
		</comp>
	</station>
	<station code="CSM" name="CSM" netid="IT" source="Italian Strong Motion Network (RAN)" insttype="" lat="37.5404" lon="13.6273">
		<comp name="--.HGE" depth="0.0">
			<acc value="0.0474846588561784" flag="0"/>
			<vel value="0.0489741021786897" flag="0"/>
			<psa03 value="0.066002914035796" flag="0"/>
