<?xml version="1.0" encoding="UTF-8" standalone="yes"?>
<!DOCTYPE earthquake SYSTEM "stationlist.dtd">
<stationlist created="" xmlns="ch.ethz.sed.shakemap.usgs.xml">
  <station code="ACATE" name="ACATE" netid="IV" insttype="" commtype="DIG" lat="37.024" lon="14.5006">
    <comp name="--.HNZ">
      <acc value="0.0318047959" flag="0"/>
      <vel value="0.0162392562" flag="0"/>
      <psa03 value="0.0635117222" flag="0"/>
      <psa10 value="0.0268182521" flag="0"/>
      <psa30 value="0.0037978800" flag="0"/>
    </comp>
    <comp name="--.HNN">
      <acc value="0.0417861261" flag="0"/>
      <vel value="0.0343167894" flag="0"/>
      <psa03 value="0.1394640408" flag="0"/>
      <psa10 value="0.0322416380" flag="0"/>
      <psa30 value="0.0097994447" flag="0"/>
    </comp>
    <comp name="--.HNE">
      <acc value="0.0502691008" flag="0"/>
      <vel value="0.0350272618" flag="0"/>
      <psa03 value="0.1045522150" flag="0"/>
      <psa10 value="0.0511768085" flag="0"/>
      <psa30 value="0.0086834780" flag="0"/>
    </comp>
  </station>
  <station code="AIO" name="AIO" netid="IV" insttype="" commtype="DIG" lat="37.9712" lon="15.233">
    <comp name="--.HHE">
      <acc value="0.0269009602" flag="0"/>
      <vel value="0.0191645529" flag="0"/>
      <psa03 value="0.0987922103" flag="0"/>
      <psa10 value="0.0278789453" flag="0"/>
      <psa30 value="0.0035662814" flag="0"/>
    </comp>
    <comp name="--.HHZ">
      <acc value="0.0172569668" flag="0"/>
      <vel value="0.0142491267" flag="0"/>
      <psa03 value="0.0354584730" flag="0"/>
      <psa10 value="0.0170900078" flag="0"/>
      <psa30 value="0.0049222982" flag="0"/>
    </comp>
    <comp name="--.HHN">
      <acc value="0.0395582656" flag="0"/>
      <vel value="0.0236778824" flag="0"/>
      <psa03 value="0.1236183976" flag="0"/>
      <psa10 value="0.0275935630" flag="0"/>
      <psa30 value="0.0039139050" flag="0"/>
    </comp>
  </station>
  <station code="ALJA" name="ALJA" netid="IV" insttype="" commtype="DIG" lat="37.749" lon="13.7537">
    <comp name="--.HHE">
      <acc value="0.3392728552" flag="0"/>
      <vel value="0.1787093940" flag="0"/>
      <psa03 value="0.9480448676" flag="0"/>
      <psa10 value="0.1863220248" flag="0"/>
      <psa30 value="0.0337276872" flag="0"/>
    </comp>
    <comp name="--.HHN">
      <acc value="0.2550153259" flag="0"/>
      <vel value="0.2018156937" flag="0"/>
      <psa03 value="0.7042809696" flag="0"/>
      <psa10 value="0.1614246629" flag="0"/>
      <psa30 value="0.0292705800" flag="0"/>
    </comp>
    <comp name="--.HHZ">
      <acc value="0.1339566583" flag="0"/>
      <vel value="0.0879043222" flag="0"/>
      <psa03 value="0.2821112251" flag="0"/>
      <psa10 value="0.0645910275" flag="0"/>
      <psa30 value="0.0272700774" flag="0"/>
    </comp>
  </station>
  <station code="BASIC" name="BASIC" netid="IV" insttype="" commtype="DIG" lat="38.067" lon="15.0688">
    <comp name="--.HHE">
      <acc value="0.2359798378" flag="0"/>
      <vel value="0.1804898674" flag="0"/>
      <psa03 value="0.7331281788" flag="0"/>
      <psa10 value="0.3198781930" flag="0"/>
      <psa30 value="0.0141959523" flag="0"/>
    </comp>
    <comp name="--.HHN">
      <acc value="0.1451801671" flag="0"/>
      <vel value="0.1233594646" flag="0"/>
      <psa03 value="0.6444026422" flag="0"/>
      <psa10 value="0.2142443852" flag="0"/>
      <psa30 value="0.0215176260" flag="0"/>
    </comp>
    <comp name="--.HHZ">
      <acc value="0.1067513852" flag="0"/>
      <vel value="0.1018051502" flag="0"/>
      <psa03 value="0.3019978899" flag="0"/>
      <psa10 value="0.0866661073" flag="0"/>
      <psa30 value="0.0254167858" flag="0"/>
    </comp>
  </station>
  <station code="CAVT" name="CAVT" netid="IV" insttype="" commtype="DIG" lat="37.6788" lon="12.7556">
    <comp name="--.HHE">
      <acc value="0.0207635319" flag="0"/>
      <vel value="0.0364363718" flag="0"/>
      <psa03 value="0.0497790098" flag="0"/>
      <psa10 value="0.0493619383" flag="0"/>
      <psa30 value="0.0222617471" flag="0"/>
    </comp>
    <comp name="--.HHZ">
      <acc value="0.0140008789" flag="0"/>
      <vel value="0.0181850696" flag="0"/>
      <psa03 value="0.0349576482" flag="0"/>
      <psa10 value="0.0248193548" flag="0"/>
      <psa30 value="0.0101132212" flag="0"/>
    </comp>
    <comp name="--.HHN">
      <acc value="0.0237779996" flag="0"/>
      <vel value="0.0328284874" flag="0"/>
      <psa03 value="0.0446244728" flag="0"/>
      <psa10 value="0.0418009166" flag="0"/>
      <psa30 value="0.0138780362" flag="0"/>
    </comp>
  </station>
  <station code="CIMI" name="CIMI" netid="IV" insttype="" commtype="DIG" lat="37.8815" lon="13.5726">
    <comp name="--.HHE">
      <acc value="0.1773654328" flag="0"/>
      <vel value="0.1863660089" flag="0"/>
      <psa03 value="0.3412400931" flag="0"/>
      <psa10 value="0.1631085865" flag="0"/>
      <psa30 value="0.0256402591" flag="0"/>
    </comp>
    <comp name="--.HHN">
      <acc value="0.1443952627" flag="0"/>
      <vel value="0.1169277386" flag="0"/>
      <psa03 value="0.3513054934" flag="0"/>
      <psa10 value="0.1006093652" flag="0"/>
      <psa30 value="0.0124203497" flag="0"/>
    </comp>
    <comp name="--.HHZ">
      <acc value="0.0886330722" flag="0"/>
      <vel value="0.0651876931" flag="0"/>
      <psa03 value="0.2851894773" flag="0"/>
      <psa10 value="0.0375192559" flag="0"/>
      <psa30 value="0.0198604753" flag="0"/>
    </comp>
  </station>
  <station code="CLTB" name="CLTB" netid="IV" insttype="" commtype="DIG" lat="37.5786" lon="13.2156">
    <comp name="--.HHN">
      <acc value="0.0787199617" flag="0"/>
      <vel value="0.0849842833" flag="0"/>
      <psa03 value="0.2005779015" flag="0"/>
      <psa10 value="0.0598949057" flag="0"/>
      <psa30 value="0.0087727598" flag="0"/>
    </comp>
    <comp name="--.HHE">
      <acc value="0.0531315505" flag="0"/>
      <vel value="0.0490071930" flag="0"/>
      <psa03 value="0.1113744383" flag="0"/>
      <psa10 value="0.0552418529" flag="0"/>
      <psa30 value="0.0089513967" flag="0"/>
    </comp>
    <comp name="--.HHZ">
      <acc value="0.0223179389" flag="0"/>
      <vel value="0.0186920423" flag="0"/>
      <psa03 value="0.1127611505" flag="0"/>
      <psa10 value="0.0163330634" flag="0"/>
      <psa30 value="0.0051926034" flag="0"/>
    </comp>
  </station>
  <station code="CORL" name="CORL" netid="IV" insttype="" commtype="DIG" lat="37.8943" lon="13.3038">
    <comp name="--.HHN">
      <acc value="0.0704264097" flag="0"/>
      <vel value="0.0478404985" flag="0"/>
      <psa03 value="0.2768353182" flag="0"/>
      <psa10 value="0.0623590626" flag="0"/>
      <psa30 value="0.0159093759" flag="0"/>
    </comp>
    <comp name="--.HHE">
      <acc value="0.0688204763" flag="0"/>
      <vel value="0.0682853175" flag="0"/>
      <psa03 value="0.2367740549" flag="0"/>
      <psa10 value="0.0642906860" flag="0"/>
      <psa30 value="0.0253488646" flag="0"/>
    </comp>
    <comp name="--.HHZ">
      <acc value="0.0400752984" flag="0"/>
      <vel value="0.0318093635" flag="0"/>
      <psa03 value="0.1423698888" flag="0"/>
      <psa10 value="0.0348710868" flag="0"/>
      <psa30 value="0.0085862828" flag="0"/>
    </comp>
  </station>
  <station code="CRJA" name="CRJA" netid="IV" insttype="" commtype="DIG" lat="37.8016" lon="13.0043">
    <comp name="--.HHE">
      <acc value="0.0227424474" flag="0"/>
      <vel value="0.0379219797" flag="0"/>
      <psa03 value="0.0521947688" flag="0"/>
      <psa10 value="0.0500033609" flag="0"/>
      <psa30 value="0.0141573552" flag="0"/>
    </comp>
    <comp name="--.HHZ">
      <acc value="0.0202974594" flag="0"/>
      <vel value="0.0271468643" flag="0"/>
      <psa03 value="0.0397623437" flag="0"/>
      <psa10 value="0.0456369169" flag="0"/>
      <psa30 value="0.0100125096" flag="0"/>
    </comp>
    <comp name="--.HHN">
      <acc value="0.0284156385" flag="0"/>
      <vel value="0.0298344358" flag="0"/>
      <psa03 value="0.0675772442" flag="0"/>
      <psa10 value="0.0521533607" flag="0"/>
      <psa30 value="0.0096943151" flag="0"/>
    </comp>
  </station>
  <station code="CSLB" name="CSLB" netid="IV" insttype="" commtype="DIG" lat="37.9374" lon="14.0579">
    <comp name="--.HHE">
      <acc value="0.1270853895" flag="0"/>
      <vel value="0.1006627298" flag="0"/>
      <psa03 value="0.3458325305" flag="0"/>
      <psa10 value="0.0930021682" flag="0"/>
      <psa30 value="0.0234425570" flag="0"/>
    </comp>
    <comp name="--.HHN">
      <acc value="0.2219715003" flag="0"/>
      <vel value="0.1133797000" flag="0"/>
      <psa03 value="0.5086761520" flag="0"/>
      <psa10 value="0.0834408635" flag="0"/>
      <psa30 value="0.0081866810" flag="0"/>
    </comp>
    <comp name="--.HHZ">
      <acc value="0.1772843174" flag="0"/>
      <vel value="0.0856657755" flag="0"/>
      <psa03 value="0.4236217823" flag="0"/>
      <psa10 value="0.0818645278" flag="0"/>
      <psa30 value="0.0111085000" flag="0"/>
    </comp>
  </station>
  <station code="EBDA" name="EBDA" netid="IV" insttype="" commtype="DIG" lat="37.6335" lon="15.1223">
    <comp name="--.HHN">
      <acc value="0.0390380668" flag="0"/>
      <vel value="0.0471050779" flag="0"/>
      <psa03 value="0.1049719928" flag="0"/>
      <psa10 value="0.0508183411" flag="0"/>
      <psa30 value="0.0107778590" flag="0"/>
    </comp>
    <comp name="--.HHE">
      <acc value="0.0387707163" flag="0"/>
      <vel value="0.0392350599" flag="0"/>
      <psa03 value="0.1129945845" flag="0"/>
      <psa10 value="0.0520880316" flag="0"/>
      <psa30 value="0.0112312894" flag="0"/>
    </comp>
    <comp name="--.HHZ">
      <acc value="0.0217013810" flag="0"/>
      <vel value="0.0182672097" flag="0"/>
      <psa03 value="0.0510031994" flag="0"/>
      <psa10 value="0.0270805227" flag="0"/>
      <psa30 value="0.0058601232" flag="0"/>
    </comp>
  </station>
  <station code="ECBD" name="ECBD" netid="IV" insttype="" commtype="DIG" lat="37.7802" lon="15.0865">
    <comp name="--.HHE">
      <acc value="0.0887806719" flag="0"/>
      <vel value="0.1130847869" flag="0"/>
      <psa03 value="0.3198132427" flag="0"/>
      <psa10 value="0.1982632892" flag="0"/>
      <psa30 value="0.0161722287" flag="0"/>
    </comp>
    <comp name="--.HHZ">
      <acc value="0.0583737752" flag="0"/>
      <vel value="0.0497399395" flag="0"/>
      <psa03 value="0.1904014498" flag="0"/>
      <psa10 value="0.0677557467" flag="0"/>
      <psa30 value="0.0136992911" flag="0"/>
    </comp>
    <comp name="--.HHN">
      <acc value="0.0744860569" flag="0"/>
      <vel value="0.0852063709" flag="0"/>
      <psa03 value="0.2026731738" flag="0"/>
      <psa10 value="0.1250439486" flag="0"/>
      <psa30 value="0.0291169688" flag="0"/>
    </comp>
  </station>
  <station code="ECHR" name="ECHR" netid="IV" insttype="" commtype="DIG" lat="37.6863" lon="14.9129">
    <comp name="--.HHE">
      <acc value="0.0800742144" flag="0"/>
      <vel value="0.1250495031" flag="0"/>
      <psa03 value="0.1837389500" flag="0"/>
      <psa10 value="0.2120079589" flag="0"/>
      <psa30 value="0.0541452207" flag="0"/>
    </comp>
    <comp name="--.HHN">
      <acc value="0.0588846803" flag="0"/>
      <vel value="0.0923731739" flag="0"/>
      <psa03 value="0.2289115857" flag="0"/>
      <psa10 value="0.1465372245" flag="0"/>
      <psa30 value="0.0765177375" flag="0"/>
    </comp>
    <comp name="--.HHZ">
      <acc value="0.0512299737" flag="0"/>
      <vel value="0.0500908664" flag="0"/>
      <psa03 value="0.1823465065" flag="0"/>
      <psa10 value="0.0394166834" flag="0"/>
      <psa30 value="0.0349637799" flag="0"/>
    </comp>
  </station>
  <station code="ECTS" name="ECTS" netid="IV" insttype="" commtype="DIG" lat="37.882" lon="15.121">
    <comp name="--.HHN">
      <acc value="0.0664289293" flag="0"/>
      <vel value="0.0656419619" flag="0"/>
      <psa03 value="0.1891233721" flag="0"/>
      <psa10 value="0.1292420728" flag="0"/>
      <psa30 value="0.0092593918" flag="0"/>
    </comp>
    <comp name="--.HHE">
      <acc value="0.0640984469" flag="0"/>
      <vel value="0.0670074513" flag="0"/>
      <psa03 value="0.2001309441" flag="0"/>
      <psa10 value="0.1238289444" flag="0"/>
      <psa30 value="0.0124291232" flag="0"/>
    </comp>
    <comp name="--.HHZ">
      <acc value="0.0388083555" flag="0"/>
      <vel value="0.0498367341" flag="0"/>
      <psa03 value="0.0814224263" flag="0"/>
      <psa10 value="0.1132021338" flag="0"/>
      <psa30 value="0.0093862444" flag="0"/>
    </comp>
  </station>
  <station code="ECZM" name="ECZM" netid="IV" insttype="" commtype="DIG" lat="37.7313" lon="14.9041">
    <comp name="--.HHN">
      <acc value="0.0977863396" flag="0"/>
      <vel value="0.0927231546" flag="0"/>
      <psa03 value="0.3117550909" flag="0"/>
      <psa10 value="0.1799488976" flag="0"/>
      <psa30 value="0.0418318267" flag="0"/>
    </comp>
    <comp name="--.HHE">
      <acc value="0.0669474383" flag="0"/>
      <vel value="0.0703714203" flag="0"/>
      <psa03 value="0.1711212190" flag="0"/>
      <psa10 value="0.1069330875" flag="0"/>
      <psa30 value="0.0248072886" flag="0"/>
    </comp>
    <comp name="--.HHZ">
      <acc value="0.0628865105" flag="0"/>
      <vel value="0.0624276976" flag="0"/>
      <psa03 value="0.2094570601" flag="0"/>
      <psa10 value="0.0878060217" flag="0"/>
      <psa30 value="0.0334924112" flag="0"/>
    </comp>
  </station>
  <station code="EFIU" name="EFIU" netid="IV" insttype="" commtype="DIG" lat="37.7896" lon="15.2103">
    <comp name="--.HHE">
      <acc value="0.0418489944" flag="0"/>
      <vel value="0.0888032528" flag="0"/>
      <psa03 value="0.0784253525" flag="0"/>
      <psa10 value="0.1033260312" flag="0"/>
      <psa30 value="0.0375457405" flag="0"/>
    </comp>
    <comp name="--.HHN">
      <acc value="0.0538434751" flag="0"/>
      <vel value="0.1026478379" flag="0"/>
      <psa03 value="0.0765427038" flag="0"/>
      <psa10 value="0.1339241397" flag="0"/>
      <psa30 value="0.0290528670" flag="0"/>
    </comp>
    <comp name="--.HHZ">
      <acc value="0.0284313971" flag="0"/>
      <vel value="0.0484382062" flag="0"/>
      <psa03 value="0.0741835688" flag="0"/>
      <psa10 value="0.0700290205" flag="0"/>
      <psa30 value="0.0212768877" flag="0"/>
    </comp>
  </station>
  <station code="EMCO" name="EMCO" netid="IV" insttype="" commtype="DIG" lat="37.9264" lon="14.9029">
    <comp name="--.HHE">
      <acc value="0.1130852731" flag="0"/>
      <vel value="0.0774417453" flag="0"/>
      <psa03 value="0.2880771269" flag="0"/>
      <psa10 value="0.1007973403" flag="0"/>
      <psa30 value="0.0119999303" flag="0"/>
    </comp>
    <comp name="--.HHN">
      <acc value="0.1265699942" flag="0"/>
      <vel value="0.0856973220" flag="0"/>
      <psa03 value="0.4511189473" flag="0"/>
      <psa10 value="0.1561470688" flag="0"/>
      <psa30 value="0.0166778606" flag="0"/>
    </comp>
    <comp name="--.HHZ">
      <acc value="0.0573135562" flag="0"/>
      <vel value="0.0386570384" flag="0"/>
      <psa03 value="0.1354630171" flag="0"/>
      <psa10 value="0.0752221855" flag="0"/>
      <psa30 value="0.0174488519" flag="0"/>
    </comp>
  </station>
  <station code="EMFO" name="EMFO" netid="IV" insttype="" commtype="DIG" lat="37.7357" lon="15.0902">
    <comp name="--.HHE">
      <acc value="0.1045057986" flag="0"/>
      <vel value="0.0687742267" flag="0"/>
      <psa03 value="0.2819266881" flag="0"/>
      <psa10 value="0.0958737386" flag="0"/>
      <psa30 value="0.0118746681" flag="0"/>
    </comp>
    <comp name="--.HHN">
      <acc value="0.0685827531" flag="0"/>
      <vel value="0.0865686957" flag="0"/>
      <psa03 value="0.2461948866" flag="0"/>
      <psa10 value="0.1509115962" flag="0"/>
      <psa30 value="0.0113557284" flag="0"/>
    </comp>
    <comp name="--.HHZ">
      <acc value="0.0518389079" flag="0"/>
      <vel value="0.0380456082" flag="0"/>
      <psa03 value="0.1513484069" flag="0"/>
      <psa10 value="0.0541181151" flag="0"/>
      <psa30 value="0.0170811756" flag="0"/>
    </comp>
  </station>
  <station code="EMNR" name="EMNR" netid="IV" insttype="" commtype="DIG" lat="37.8168" lon="15.026">
    <comp name="--.HHN">
      <acc value="0.1394609211" flag="0"/>
      <vel value="0.1463077335" flag="0"/>
      <psa03 value="0.3827005261" flag="0"/>
      <psa10 value="0.2375323081" flag="0"/>
      <psa30 value="0.0268167520" flag="0"/>
    </comp>
    <comp name="--.HHE">
      <acc value="0.1435206616" flag="0"/>
      <vel value="0.1336107156" flag="0"/>
      <psa03 value="0.4388638747" flag="0"/>
      <psa10 value="0.2609264854" flag="0"/>
      <psa30 value="0.0249595068" flag="0"/>
    </comp>
    <comp name="--.HHZ">
      <acc value="0.0807648441" flag="0"/>
      <vel value="0.0935547308" flag="0"/>
      <psa03 value="0.2577821783" flag="0"/>
      <psa10 value="0.1366951551" flag="0"/>
      <psa30 value="0.0241745584" flag="0"/>
    </comp>
  </station>
  <station code="EMPL" name="EMPL" netid="IV" insttype="" commtype="DIG" lat="37.679" lon="14.9703">
    <comp name="--.HHE">
      <acc value="0.0953087386" flag="0"/>
      <vel value="0.0847557110" flag="0"/>
      <psa03 value="0.2616832821" flag="0"/>
      <psa10 value="0.0783560746" flag="0"/>
      <psa30 value="0.0248057764" flag="0"/>
    </comp>
    <comp name="--.HHN">
      <acc value="0.1057523683" flag="0"/>
      <vel value="0.0833088240" flag="0"/>
      <psa03 value="0.3522467299" flag="0"/>
      <psa10 value="0.1109028503" flag="0"/>
      <psa30 value="0.0357478593" flag="0"/>
    </comp>
    <comp name="--.HHZ">
      <acc value="0.0769036572" flag="0"/>
      <vel value="0.0535698593" flag="0"/>
      <psa03 value="0.2065705303" flag="0"/>
      <psa10 value="0.0741508866" flag="0"/>
      <psa30 value="0.0235788941" flag="0"/>
    </comp>
  </station>
  <station code="EMSA" name="EMSA" netid="IV" insttype="" commtype="DIG" lat="37.498" lon="14.945">
    <comp name="--.HHN">
      <acc value="0.0000366522" flag="0"/>
      <vel value="0.0000043026" flag="0"/>
      <psa03 value="0.0000144541" flag="0"/>
      <psa10 value="0.0000029852" flag="0"/>
      <psa30 value="0.0000009978" flag="0"/>
    </comp>
    <comp name="--.HHE">
      <acc value="0.0000364829" flag="0"/>
      <vel value="0.0000041449" flag="0"/>
      <psa03 value="0.0000123485" flag="0"/>
      <psa10 value="0.0000028135" flag="0"/>
      <psa30 value="0.0000008672" flag="0"/>
    </comp>
    <comp name="--.HHZ">
      <acc value="0.0282423916" flag="0"/>
      <vel value="0.0604695075" flag="0"/>
      <psa03 value="0.0621343353" flag="0"/>
      <psa10 value="0.0794992852" flag="0"/>
      <psa30 value="0.0317237864" flag="0"/>
    </comp>
  </station>
  <station code="EMSG" name="EMSG" netid="IV" insttype="" commtype="DIG" lat="37.8208" lon="14.9498">
    <comp name="--.HHE">
      <acc value="0.1382895132" flag="0"/>
      <vel value="0.1657421094" flag="0"/>
      <psa03 value="0.3925359830" flag="0"/>
      <psa10 value="0.1931056444" flag="0"/>
      <psa30 value="0.0283164071" flag="0"/>
    </comp>
    <comp name="--.HHZ">
      <acc value="0.0776932245" flag="0"/>
      <vel value="0.0629524396" flag="0"/>
      <psa03 value="0.3075361486" flag="0"/>
      <psa10 value="0.0890945127" flag="0"/>
      <psa30 value="0.0256525878" flag="0"/>
    </comp>
    <comp name="--.HHN">
      <acc value="0.1226134155" flag="0"/>
      <vel value="0.0842528293" flag="0"/>
      <psa03 value="0.3562629886" flag="0"/>
      <psa10 value="0.1412168630" flag="0"/>
      <psa30 value="0.0268555044" flag="0"/>
    </comp>
  </station>
  <station code="ENIC" name="ENIC" netid="IV" insttype="" commtype="DIG" lat="37.6314" lon="15.0216">
    <comp name="--.HHN">
      <acc value="0.0752637014" flag="0"/>
      <vel value="0.0502757069" flag="0"/>
      <psa03 value="0.2344524067" flag="0"/>
