<?xml version="1.0" encoding="UTF-8" standalone="yes"?>
<!DOCTYPE earthquake SYSTEM "stationlist.dtd">
<stationlist created="" xmlns="ch.ethz.sed.shakemap.usgs.xml">
  <station code="AIO" name="AIO" netid="IV" insttype="" commtype="DIG" lat="37.9712" lon="15.233">
    <comp name="--.HHN">
      <acc value="0.0396193309" flag="0"/>
      <vel value="0.0235384318" flag="0"/>
      <psa03 value="0.1236606128" flag="0"/>
      <psa10 value="0.0276157838" flag="0"/>
      <psa30 value="0.0038200333" flag="0"/>
    </comp>
    <comp name="--.HHZ">
      <acc value="0.0172065365" flag="0"/>
      <vel value="0.0137972859" flag="0"/>
      <psa03 value="0.0354982400" flag="0"/>
      <psa10 value="0.0171081174" flag="0"/>
      <psa30 value="0.0043808458" flag="0"/>
    </comp>
    <comp name="--.HHE">
      <acc value="0.0268743275" flag="0"/>
      <vel value="0.0189573998" flag="0"/>
      <psa03 value="0.0987239769" flag="0"/>
      <psa10 value="0.0279007718" flag="0"/>
      <psa30 value="0.0032722214" flag="0"/>
    </comp>
  </station>
  <station code="ALJA" name="ALJA" netid="IV" insttype="" commtype="DIG" lat="37.749" lon="13.7537">
    <comp name="--.HHE">
      <acc value="0.3399460445" flag="0"/>
      <vel value="0.1790710320" flag="0"/>
      <psa03 value="0.9474541158" flag="0"/>
      <psa10 value="0.1869822962" flag="0"/>
      <psa30 value="0.0308262043" flag="0"/>
    </comp>
    <comp name="--.HHN">
      <acc value="0.2549561760" flag="0"/>
      <vel value="0.2027630200" flag="0"/>
      <psa03 value="0.7041947357" flag="0"/>
      <psa10 value="0.1615397637" flag="0"/>
      <psa30 value="0.0276089926" flag="0"/>
    </comp>
    <comp name="--.HHZ">
      <acc value="0.1343437381" flag="0"/>
      <vel value="0.0859506442" flag="0"/>
      <psa03 value="0.2822310551" flag="0"/>
      <psa10 value="0.0643910567" flag="0"/>
      <psa30 value="0.0257293065" flag="0"/>
    </comp>
  </station>
  <station code="BASIC" name="BASIC" netid="IV" insttype="" commtype="DIG" lat="38.067" lon="15.0688">
    <comp name="--.HHE">
      <acc value="0.2359006776" flag="0"/>
      <vel value="0.1801406516" flag="0"/>
      <psa03 value="0.7330250193" flag="0"/>
      <psa10 value="0.3198236171" flag="0"/>
      <psa30 value="0.0140193935" flag="0"/>
    </comp>
    <comp name="--.HHN">
      <acc value="0.1451140301" flag="0"/>
      <vel value="0.1254460958" flag="0"/>
      <psa03 value="0.6444389528" flag="0"/>
      <psa10 value="0.2142605163" flag="0"/>
      <psa30 value="0.0194519664" flag="0"/>
    </comp>
    <comp name="--.HHZ">
      <acc value="0.1065459098" flag="0"/>
      <vel value="0.1011268756" flag="0"/>
      <psa03 value="0.3016580170" flag="0"/>
      <psa10 value="0.0867131421" flag="0"/>
      <psa30 value="0.0236517583" flag="0"/>
    </comp>
  </station>
  <station code="CIMI" name="CIMI" netid="IV" insttype="" commtype="DIG" lat="37.8815" lon="13.5726">
    <comp name="--.HHN">
      <acc value="0.1445610943" flag="0"/>
      <vel value="0.1167317920" flag="0"/>
      <psa03 value="0.3509436958" flag="0"/>
      <psa10 value="0.1003967356" flag="0"/>
      <psa30 value="0.0109904315" flag="0"/>
    </comp>
    <comp name="--.HHE">
      <acc value="0.1780091093" flag="0"/>
      <vel value="0.1849287411" flag="0"/>
      <psa03 value="0.3418990530" flag="0"/>
      <psa10 value="0.1634879936" flag="0"/>
      <psa30 value="0.0225871777" flag="0"/>
    </comp>
    <comp name="--.HHZ">
      <acc value="0.0890001935" flag="0"/>
      <vel value="0.0652078989" flag="0"/>
      <psa03 value="0.2847951753" flag="0"/>
      <psa10 value="0.0378897966" flag="0"/>
      <psa30 value="0.0167876528" flag="0"/>
    </comp>
  </station>
  <station code="CLTB" name="CLTB" netid="IV" insttype="" commtype="DIG" lat="37.5786" lon="13.2156">
    <comp name="--.HHE">
      <acc value="0.0531776356" flag="0"/>
      <vel value="0.0474524379" flag="0"/>
      <psa03 value="0.1111039357" flag="0"/>
      <psa10 value="0.0552622329" flag="0"/>
      <psa30 value="0.0087107853" flag="0"/>
    </comp>
    <comp name="--.HHN">
      <acc value="0.0783207182" flag="0"/>
      <vel value="0.0847448527" flag="0"/>
      <psa03 value="0.2004822140" flag="0"/>
      <psa10 value="0.0597714116" flag="0"/>
      <psa30 value="0.0080711699" flag="0"/>
    </comp>
    <comp name="--.HHZ">
      <acc value="0.0223942504" flag="0"/>
      <vel value="0.0179049627" flag="0"/>
      <psa03 value="0.1127245781" flag="0"/>
      <psa10 value="0.0162555880" flag="0"/>
      <psa30 value="0.0044851917" flag="0"/>
    </comp>
  </station>
  <station code="CORL" name="CORL" netid="IV" insttype="" commtype="DIG" lat="37.8943" lon="13.3038">
    <comp name="--.HHN">
      <acc value="0.0701196109" flag="0"/>
      <vel value="0.0472170415" flag="0"/>
      <psa03 value="0.2765482694" flag="0"/>
      <psa10 value="0.0627395381" flag="0"/>
      <psa30 value="0.0142648042" flag="0"/>
    </comp>
    <comp name="--.HHE">
      <acc value="0.0685405211" flag="0"/>
      <vel value="0.0641785675" flag="0"/>
      <psa03 value="0.2367516265" flag="0"/>
      <psa10 value="0.0647328805" flag="0"/>
      <psa30 value="0.0222339715" flag="0"/>
    </comp>
    <comp name="--.HHZ">
      <acc value="0.0399611804" flag="0"/>
      <vel value="0.0306654374" flag="0"/>
      <psa03 value="0.1422625729" flag="0"/>
      <psa10 value="0.0350347596" flag="0"/>
      <psa30 value="0.0076253932" flag="0"/>
    </comp>
  </station>
  <station code="CRJA" name="CRJA" netid="IV" insttype="" commtype="DIG" lat="37.8016" lon="13.0043">
    <comp name="--.HHZ">
      <acc value="0.0204224314" flag="0"/>
      <vel value="0.0250174003" flag="0"/>
      <psa03 value="0.0399455654" flag="0"/>
      <psa10 value="0.0453829412" flag="0"/>
      <psa30 value="0.0087532483" flag="0"/>
    </comp>
    <comp name="--.HHN">
      <acc value="0.0287342125" flag="0"/>
      <vel value="0.0296497660" flag="0"/>
      <psa03 value="0.0673528992" flag="0"/>
      <psa10 value="0.0520661372" flag="0"/>
      <psa30 value="0.0076874456" flag="0"/>
    </comp>
    <comp name="--.HHE">
      <acc value="0.0223682624" flag="0"/>
      <vel value="0.0346001627" flag="0"/>
      <psa03 value="0.0523384912" flag="0"/>
      <psa10 value="0.0495329842" flag="0"/>
      <psa30 value="0.0116883958" flag="0"/>
    </comp>
  </station>
  <station code="CSLB" name="CSLB" netid="IV" insttype="" commtype="DIG" lat="37.9374" lon="14.0579">
    <comp name="--.HHE">
      <acc value="0.1264584706" flag="0"/>
      <vel value="0.0967974860" flag="0"/>
      <psa03 value="0.3451571842" flag="0"/>
      <psa10 value="0.0929722376" flag="0"/>
      <psa30 value="0.0206664727" flag="0"/>
    </comp>
    <comp name="--.HHN">
      <acc value="0.2220364744" flag="0"/>
      <vel value="0.1120719433" flag="0"/>
      <psa03 value="0.5088471176" flag="0"/>
      <psa10 value="0.0832209823" flag="0"/>
      <psa30 value="0.0073008130" flag="0"/>
    </comp>
    <comp name="--.HHZ">
      <acc value="0.1775306752" flag="0"/>
      <vel value="0.0861337327" flag="0"/>
      <psa03 value="0.4233538307" flag="0"/>
      <psa10 value="0.0820677834" flag="0"/>
      <psa30 value="0.0092852412" flag="0"/>
    </comp>
  </station>
  <station code="EBDA" name="EBDA" netid="IV" insttype="" commtype="DIG" lat="37.6335" lon="15.1223">
    <comp name="--.HHE">
      <acc value="0.0383776961" flag="0"/>
      <vel value="0.0355042852" flag="0"/>
      <psa03 value="0.1132703845" flag="0"/>
      <psa10 value="0.0521128270" flag="0"/>
      <psa30 value="0.0100352481" flag="0"/>
    </comp>
    <comp name="--.HHN">
      <acc value="0.0389033961" flag="0"/>
      <vel value="0.0446906483" flag="0"/>
      <psa03 value="0.1050377647" flag="0"/>
      <psa10 value="0.0508124684" flag="0"/>
      <psa30 value="0.0090629566" flag="0"/>
    </comp>
    <comp name="--.HHZ">
      <acc value="0.0215848912" flag="0"/>
      <vel value="0.0173293931" flag="0"/>
      <psa03 value="0.0509538682" flag="0"/>
      <psa10 value="0.0270854201" flag="0"/>
      <psa30 value="0.0050215295" flag="0"/>
    </comp>
  </station>
  <station code="ECBD" name="ECBD" netid="IV" insttype="" commtype="DIG" lat="37.7802" lon="15.0865">
    <comp name="--.HHN">
      <acc value="0.0751775607" flag="0"/>
      <vel value="0.0827696336" flag="0"/>
      <psa03 value="0.2017843124" flag="0"/>
      <psa10 value="0.1250283321" flag="0"/>
      <psa30 value="0.0273511836" flag="0"/>
    </comp>
    <comp name="--.HHE">
      <acc value="0.0887876902" flag="0"/>
      <vel value="0.1119432136" flag="0"/>
      <psa03 value="0.3199348608" flag="0"/>
      <psa10 value="0.1981031461" flag="0"/>
      <psa30 value="0.0148194103" flag="0"/>
    </comp>
    <comp name="--.HHZ">
      <acc value="0.0582621685" flag="0"/>
      <vel value="0.0496661041" flag="0"/>
      <psa03 value="0.1903355558" flag="0"/>
      <psa10 value="0.0673481796" flag="0"/>
      <psa30 value="0.0114571911" flag="0"/>
    </comp>
  </station>
  <station code="ECHR" name="ECHR" netid="IV" insttype="" commtype="DIG" lat="37.6863" lon="14.9129">
    <comp name="--.HHE">
      <acc value="0.0789447441" flag="0"/>
      <vel value="0.1272651840" flag="0"/>
      <psa03 value="0.1837635337" flag="0"/>
      <psa10 value="0.2122788211" flag="0"/>
      <psa30 value="0.0469498484" flag="0"/>
    </comp>
    <comp name="--.HHZ">
      <acc value="0.0510548418" flag="0"/>
      <vel value="0.0448845359" flag="0"/>
      <psa03 value="0.1830806369" flag="0"/>
      <psa10 value="0.0383591332" flag="0"/>
      <psa30 value="0.0304647745" flag="0"/>
    </comp>
    <comp name="--.HHN">
      <acc value="0.0590837063" flag="0"/>
      <vel value="0.0901254715" flag="0"/>
      <psa03 value="0.2296392313" flag="0"/>
      <psa10 value="0.1455715994" flag="0"/>
      <psa30 value="0.0659529631" flag="0"/>
    </comp>
  </station>
  <station code="ECPN" name="ECPN" netid="IV" insttype="" commtype="DIG" lat="37.7437" lon="14.9865">
    <comp name="--.HHE">
      <acc value="0.0916755888" flag="0"/>
      <vel value="0.0950925438" flag="0"/>
      <psa03 value="0.2752412264" flag="0"/>
      <psa10 value="0.1685761185" flag="0"/>
      <psa30 value="0.0189529839" flag="0"/>
    </comp>
  </station>
  <station code="ECTS" name="ECTS" netid="IV" insttype="" commtype="DIG" lat="37.882" lon="15.121">
    <comp name="--.HHE">
      <acc value="0.0640765549" flag="0"/>
      <vel value="0.0672701215" flag="0"/>
      <psa03 value="0.2001445382" flag="0"/>
      <psa10 value="0.1240533427" flag="0"/>
      <psa30 value="0.0111873106" flag="0"/>
    </comp>
    <comp name="--.HHN">
      <acc value="0.0663510054" flag="0"/>
      <vel value="0.0652575322" flag="0"/>
      <psa03 value="0.1889800024" flag="0"/>
      <psa10 value="0.1291166840" flag="0"/>
      <psa30 value="0.0086949909" flag="0"/>
    </comp>
    <comp name="--.HHZ">
      <acc value="0.0387523483" flag="0"/>
      <vel value="0.0489445974" flag="0"/>
      <psa03 value="0.0814520155" flag="0"/>
      <psa10 value="0.1133072890" flag="0"/>
      <psa30 value="0.0087840957" flag="0"/>
    </comp>
  </station>
  <station code="ECZM" name="ECZM" netid="IV" insttype="" commtype="DIG" lat="37.7313" lon="14.9041">
    <comp name="--.HHE">
      <acc value="0.0668232567" flag="0"/>
      <vel value="0.0693866516" flag="0"/>
      <psa03 value="0.1710660875" flag="0"/>
      <psa10 value="0.1069138437" flag="0"/>
      <psa30 value="0.0209991168" flag="0"/>
    </comp>
    <comp name="--.HHN">
      <acc value="0.0980934339" flag="0"/>
      <vel value="0.0911283241" flag="0"/>
      <psa03 value="0.3118243928" flag="0"/>
      <psa10 value="0.1799398241" flag="0"/>
      <psa30 value="0.0368690204" flag="0"/>
    </comp>
    <comp name="--.HHZ">
      <acc value="0.0629809896" flag="0"/>
      <vel value="0.0553879095" flag="0"/>
      <psa03 value="0.2094963762" flag="0"/>
      <psa10 value="0.0874737452" flag="0"/>
      <psa30 value="0.0276137681" flag="0"/>
    </comp>
  </station>
  <station code="EFIU" name="EFIU" netid="IV" insttype="" commtype="DIG" lat="37.7896" lon="15.2103">
    <comp name="--.HHE">
      <acc value="0.0413334105" flag="0"/>
      <vel value="0.0874961957" flag="0"/>
      <psa03 value="0.0778787824" flag="0"/>
      <psa10 value="0.1027653849" flag="0"/>
      <psa30 value="0.0327132946" flag="0"/>
    </comp>
    <comp name="--.HHN">
      <acc value="0.0541626092" flag="0"/>
      <vel value="0.1013414582" flag="0"/>
      <psa03 value="0.0758128776" flag="0"/>
      <psa10 value="0.1334599368" flag="0"/>
      <psa30 value="0.0263332188" flag="0"/>
    </comp>
    <comp name="--.HHZ">
      <acc value="0.0282593614" flag="0"/>
      <vel value="0.0465761153" flag="0"/>
      <psa03 value="0.0741637340" flag="0"/>
      <psa10 value="0.0698212163" flag="0"/>
      <psa30 value="0.0197215323" flag="0"/>
    </comp>
  </station>
  <station code="EMCO" name="EMCO" netid="IV" insttype="" commtype="DIG" lat="37.9264" lon="14.9029">
    <comp name="--.HHE">
      <acc value="0.1130335662" flag="0"/>
      <vel value="0.0788979289" flag="0"/>
      <psa03 value="0.2878422434" flag="0"/>
      <psa10 value="0.1007599031" flag="0"/>
      <psa30 value="0.0113239418" flag="0"/>
    </comp>
    <comp name="--.HHZ">
      <acc value="0.0573783128" flag="0"/>
      <vel value="0.0397552619" flag="0"/>
      <psa03 value="0.1354875428" flag="0"/>
      <psa10 value="0.0747851116" flag="0"/>
      <psa30 value="0.0155105057" flag="0"/>
    </comp>
    <comp name="--.HHN">
      <acc value="0.1262517429" flag="0"/>
      <vel value="0.0851478224" flag="0"/>
      <psa03 value="0.4508003385" flag="0"/>
      <psa10 value="0.1556267512" flag="0"/>
      <psa30 value="0.0144000531" flag="0"/>
    </comp>
  </station>
  <station code="EMFO" name="EMFO" netid="IV" insttype="" commtype="DIG" lat="37.7357" lon="15.0902">
    <comp name="--.HHE">
      <acc value="0.1041987407" flag="0"/>
      <vel value="0.0683691162" flag="0"/>
      <psa03 value="0.2813938598" flag="0"/>
      <psa10 value="0.0960157316" flag="0"/>
      <psa30 value="0.0099933208" flag="0"/>
    </comp>
    <comp name="--.HHN">
      <acc value="0.0687571125" flag="0"/>
      <vel value="0.0851249742" flag="0"/>
      <psa03 value="0.2458821279" flag="0"/>
      <psa10 value="0.1506063983" flag="0"/>
      <psa30 value="0.0103115372" flag="0"/>
    </comp>
    <comp name="--.HHZ">
      <acc value="0.0517941472" flag="0"/>
      <vel value="0.0357868225" flag="0"/>
      <psa03 value="0.1514145695" flag="0"/>
      <psa10 value="0.0539486096" flag="0"/>
      <psa30 value="0.0147715755" flag="0"/>
    </comp>
  </station>
  <station code="EMNR" name="EMNR" netid="IV" insttype="" commtype="DIG" lat="37.8168" lon="15.026">
    <comp name="--.HHE">
      <acc value="0.1433345187" flag="0"/>
      <vel value="0.1325513399" flag="0"/>
      <psa03 value="0.4387242534" flag="0"/>
      <psa10 value="0.2608347640" flag="0"/>
      <psa30 value="0.0211357512" flag="0"/>
    </comp>
    <comp name="--.HHN">
      <acc value="0.1393349604" flag="0"/>
      <vel value="0.1459265296" flag="0"/>
      <psa03 value="0.3821528496" flag="0"/>
      <psa10 value="0.2372627628" flag="0"/>
      <psa30 value="0.0243983526" flag="0"/>
    </comp>
    <comp name="--.HHZ">
      <acc value="0.0802909128" flag="0"/>
      <vel value="0.0912050003" flag="0"/>
      <psa03 value="0.2578414236" flag="0"/>
      <psa10 value="0.1363479588" flag="0"/>
      <psa30 value="0.0216075806" flag="0"/>
    </comp>
  </station>
  <station code="EMPL" name="EMPL" netid="IV" insttype="" commtype="DIG" lat="37.679" lon="14.9703">
    <comp name="--.HHE">
      <acc value="0.0953641273" flag="0"/>
      <vel value="0.0848634196" flag="0"/>
      <psa03 value="0.2614894601" flag="0"/>
      <psa10 value="0.0773321438" flag="0"/>
      <psa30 value="0.0224872395" flag="0"/>
    </comp>
    <comp name="--.HHN">
      <acc value="0.1056622987" flag="0"/>
      <vel value="0.0794699357" flag="0"/>
      <psa03 value="0.3522822164" flag="0"/>
      <psa10 value="0.1109468902" flag="0"/>
      <psa30 value="0.0314383995" flag="0"/>
    </comp>
    <comp name="--.HHZ">
      <acc value="0.0770898281" flag="0"/>
      <vel value="0.0495792959" flag="0"/>
      <psa03 value="0.2058442911" flag="0"/>
      <psa10 value="0.0742658417" flag="0"/>
      <psa30 value="0.0199761374" flag="0"/>
    </comp>
  </station>
  <station code="EMSA" name="EMSA" netid="IV" insttype="" commtype="DIG" lat="37.498" lon="14.945">
    <comp name="--.HHE">
      <acc value="0.0000363184" flag="0"/>
      <vel value="0.0000034870" flag="0"/>
      <psa03 value="0.0000123403" flag="0"/>
      <psa10 value="0.0000024737" flag="0"/>
      <psa30 value="0.0000005973" flag="0"/>
    </comp>
    <comp name="--.HHN">
      <acc value="0.0000366704" flag="0"/>
      <vel value="0.0000042220" flag="0"/>
      <psa03 value="0.0000144488" flag="0"/>
      <psa10 value="0.0000029774" flag="0"/>
      <psa30 value="0.0000005899" flag="0"/>
    </comp>
    <comp name="--.HHZ">
      <acc value="0.0279986267" flag="0"/>
      <vel value="0.0541381605" flag="0"/>
      <psa03 value="0.0624543022" flag="0"/>
      <psa10 value="0.0785748582" flag="0"/>
      <psa30 value="0.0284007033" flag="0"/>
    </comp>
  </station>
  <station code="EMSG" name="EMSG" netid="IV" insttype="" commtype="DIG" lat="37.8208" lon="14.9498">
    <comp name="--.HHE">
      <acc value="0.1387087301" flag="0"/>
      <vel value="0.1652462212" flag="0"/>
      <psa03 value="0.3922591278" flag="0"/>
      <psa10 value="0.1934021925" flag="0"/>
      <psa30 value="0.0257003402" flag="0"/>
    </comp>
    <comp name="--.HHN">
      <acc value="0.1225690671" flag="0"/>
      <vel value="0.0799390451" flag="0"/>
      <psa03 value="0.3566827163" flag="0"/>
      <psa10 value="0.1405546308" flag="0"/>
      <psa30 value="0.0246391075" flag="0"/>
    </comp>
    <comp name="--.HHZ">
      <acc value="0.0776708698" flag="0"/>
      <vel value="0.0569327541" flag="0"/>
      <psa03 value="0.3082035217" flag="0"/>
      <psa10 value="0.0900854543" flag="0"/>
      <psa30 value="0.0225955527" flag="0"/>
    </comp>
  </station>
  <station code="ENIC" name="ENIC" netid="IV" insttype="" commtype="DIG" lat="37.6314" lon="15.0216">
    <comp name="--.HHE">
      <acc value="0.0745686438" flag="0"/>
      <vel value="0.0509869372" flag="0"/>
      <psa03 value="0.2046972687" flag="0"/>
      <psa10 value="0.1012065936" flag="0"/>
      <psa30 value="0.0101300408" flag="0"/>
    </comp>
    <comp name="--.HHN">
      <acc value="0.0753912205" flag="0"/>
      <vel value="0.0484328831" flag="0"/>
      <psa03 value="0.2344044078" flag="0"/>
      <psa10 value="0.0705968265" flag="0"/>
      <psa30 value="0.0054784545" flag="0"/>
    </comp>
    <comp name="--.HHZ">
      <acc value="0.0379579487" flag="0"/>
      <vel value="0.0267185003" flag="0"/>
      <psa03 value="0.1074371257" flag="0"/>
      <psa10 value="0.0408761142" flag="0"/>
      <psa30 value="0.0080153231" flag="0"/>
    </comp>
  </station>
  <station code="EPDN" name="EPDN" netid="IV" insttype="" commtype="DIG" lat="37.7659" lon="15.0168">
    <comp name="--.HHE">
      <acc value="0.1105938086" flag="0"/>
      <vel value="0.1985387447" flag="0"/>
      <psa03 value="0.2046129224" flag="0"/>
      <psa10 value="0.4072743259" flag="0"/>
      <psa30 value="0.0472797613" flag="0"/>
    </comp>
    <comp name="--.HHN">
      <acc value="0.0847154268" flag="0"/>
      <vel value="0.1229000279" flag="0"/>
      <psa03 value="0.1732599763" flag="0"/>
      <psa10 value="0.2171385390" flag="0"/>
      <psa30 value="0.0211810291" flag="0"/>
    </comp>
    <comp name="--.HHZ">
      <acc value="0.0534998581" flag="0"/>
      <vel value="0.0492596910" flag="0"/>
      <psa03 value="0.1408544526" flag="0"/>
