<?xml version="1.0" encoding="UTF-8" standalone="yes"?>
<!DOCTYPE earthquake SYSTEM "stationlist.dtd">
<stationlist created="" xmlns="ch.ethz.sed.shakemap.usgs.xml">
  <station code="AFSR" name="AFSR" netid="KO" insttype="CMG-3ESP" commtype="DIG" lat="39.4468" lon="33.0707">
    <comp name="--.HHN">
      <acc value="0.0381413473" flag="0"/>
      <vel value="0.0109316207" flag="0"/>
      <psa03 value="0.0748599173" flag="0"/>
      <psa10 value="0.0201840461" flag="0"/>
      <psa30 value="0.0011885070" flag="0"/>
    </comp>
  </station>
  <station code="CHBY" name="CHBY" netid="KO" insttype="CMG-6T" commtype="DIG" lat="38.5823" lon="32.8902">
    <comp name="--.HHZ">
      <acc value="0.0148794600" flag="0"/>
      <vel value="0.0054752807" flag="0"/>
      <psa03 value="0.0325008984" flag="0"/>
      <psa10 value="0.0058904207" flag="0"/>
      <psa30 value="0.0005375028" flag="0"/>
    </comp>
  </station>
  <station code="KAMT" name="KAMT" netid="KO" insttype="CMG-3T" commtype="DIG" lat="39.3689" lon="33.7087">
    <comp name="--.HHE">
      <acc value="0.1015147872" flag="0"/>
      <vel value="0.0233331146" flag="0"/>
      <psa03 value="0.1635239599" flag="0"/>
      <psa10 value="0.0086250585" flag="0"/>
      <psa30 value="0.0007046998" flag="0"/>
    </comp>
    <comp name="--.HHZ">
      <acc value="0.0518919046" flag="0"/>
      <vel value="0.0116882087" flag="0"/>
      <psa03 value="0.0729692769" flag="0"/>
      <psa10 value="0.0048541125" flag="0"/>
      <psa30 value="0.0011402217" flag="0"/>
    </comp>
  </station>
  <station code="KIZT" name="KIZT" netid="KO" insttype="CMG-3T" commtype="DIG" lat="38.8808" lon="31.883">
    <comp name="--.HHE">
      <acc value="0.0037921571" flag="0"/>
      <vel value="0.0021248759" flag="0"/>
      <psa03 value="0.0123528508" flag="0"/>
      <psa10 value="0.0018410771" flag="0"/>
      <psa30 value="0.0002288563" flag="0"/>
    </comp>
    <comp name="--.HHN">
      <acc value="0.0037897242" flag="0"/>
      <vel value="0.0030959714" flag="0"/>
      <psa03 value="0.0171397141" flag="0"/>
      <psa10 value="0.0032882426" flag="0"/>
      <psa30 value="0.0003065521" flag="0"/>
    </comp>
    <comp name="--.HHZ">
      <acc value="0.0032894705" flag="0"/>
      <vel value="0.0017508946" flag="0"/>
      <psa03 value="0.0079940701" flag="0"/>
      <psa10 value="0.0024316679" flag="0"/>
      <psa30 value="0.0003264226" flag="0"/>
    </comp>
  </station>
  <station code="KULU" name="KULU" netid="KO" insttype="CMG-6T" commtype="DIG" lat="39.0343" lon="33.0023">
    <comp name="--.HHN">
      <acc value="0.1440870846" flag="0"/>
      <vel value="0.0296981516" flag="0"/>
      <psa03 value="0.0955221578" flag="0"/>
      <psa10 value="0.0069364972" flag="0"/>
      <psa30 value="0.0007883162" flag="0"/>
    </comp>
    <comp name="--.HHZ">
      <acc value="0.1197643274" flag="0"/>
      <vel value="0.0241972665" flag="0"/>
      <psa03 value="0.1304316762" flag="0"/>
      <psa10 value="0.0068726188" flag="0"/>
      <psa30 value="0.0005906686" flag="0"/>
    </comp>
  </station>
  <station code="LADK" name="LADK" netid="KO" insttype="CMG-3T" commtype="DIG" lat="38.1999" lon="32.3648">
    <comp name="--.HHZ">
      <acc value="0.0036398330" flag="0"/>
      <vel value="0.0019795157" flag="0"/>
      <psa03 value="0.0095558490" flag="0"/>
      <psa10 value="0.0029855926" flag="0"/>
      <psa30 value="0.0002246575" flag="0"/>
    </comp>
    <comp name="--.HHE">
      <acc value="0.0056703632" flag="0"/>
      <vel value="0.0026759118" flag="0"/>
      <psa03 value="0.0132440593" flag="0"/>
      <psa10 value="0.0037960500" flag="0"/>
      <psa30 value="0.0002765044" flag="0"/>
    </comp>
    <comp name="--.HHN">
      <acc value="0.0050107042" flag="0"/>
      <vel value="0.0027198601" flag="0"/>
      <psa03 value="0.0124170450" flag="0"/>
      <psa10 value="0.0027255855" flag="0"/>
      <psa30 value="0.0003050768" flag="0"/>
    </comp>
  </station>
  <station code="POLA" name="POLA" netid="KO" insttype="CMG-6T" commtype="DIG" lat="39.7005" lon="32.1677">
    <comp name="--.HHE">
      <acc value="0.0131434125" flag="0"/>
      <vel value="0.0079070668" flag="0"/>
      <psa03 value="0.0401065366" flag="0"/>
      <psa10 value="0.0048808873" flag="0"/>
      <psa30 value="0.0002850778" flag="0"/>
    </comp>
    <comp name="--.HHN">
      <acc value="0.0147408936" flag="0"/>
      <vel value="0.0091073381" flag="0"/>
      <psa03 value="0.0408055624" flag="0"/>
      <psa10 value="0.0078900916" flag="0"/>
      <psa30 value="0.0004017512" flag="0"/>
    </comp>
    <comp name="--.HHZ">
      <acc value="0.0065759585" flag="0"/>
      <vel value="0.0026081308" flag="0"/>
      <psa03 value="0.0208128308" flag="0"/>
      <psa10 value="0.0018528074" flag="0"/>
      <psa30 value="0.0001147033" flag="0"/>
    </comp>
  </station>
  <station code="SULT" name="SULT" netid="KO" insttype="CMG-3T" commtype="DIG" lat="38.1988" lon="33.5157">
    <comp name="--.HHN">
      <acc value="0.0055133353" flag="0"/>
      <vel value="0.0037013611" flag="0"/>
      <psa03 value="0.0176470457" flag="0"/>
      <psa10 value="0.0062426617" flag="0"/>
      <psa30 value="0.0011960398" flag="0"/>
    </comp>
    <comp name="--.HHZ">
      <acc value="0.0071129085" flag="0"/>
      <vel value="0.0027887349" flag="0"/>
      <psa03 value="0.0142502345" flag="0"/>
      <psa10 value="0.0055562504" flag="0"/>
      <psa30 value="0.0005609105" flag="0"/>
    </comp>
    <comp name="--.HHE">
      <acc value="0.0065065901" flag="0"/>
      <vel value="0.0046265436" flag="0"/>
      <psa03 value="0.0199011512" flag="0"/>
      <psa10 value="0.0061016407" flag="0"/>
      <psa30 value="0.0008996326" flag="0"/>
    </comp>
  </station>
  <station code="YAYX" name="YAYX" netid="KO" insttype="CMG-6T" commtype="DIG" lat="38.9387" lon="33.8115">
    <comp name="--.HHE">
      <acc value="0.0010968210" flag="0"/>
      <vel value="0.0001874718" flag="0"/>
      <psa03 value="0.0003269234" flag="0"/>
      <psa10 value="0.0000471455" flag="0"/>
      <psa30 value="0.0000136311" flag="0"/>
    </comp>
    <comp name="--.HHZ">
      <acc value="0.1158046859" flag="0"/>
      <vel value="0.0195795362" flag="0"/>
      <psa03 value="0.0787235761" flag="0"/>
      <psa10 value="0.0080657029" flag="0"/>
      <psa30 value="0.0007230501" flag="0"/>
    </comp>
    <comp name="--.HHN">
      <acc value="0.2245595588" flag="0"/>
      <vel value="0.0330512039" flag="0"/>
      <psa03 value="0.1062226002" flag="0"/>
      <psa10 value="0.0110022194" flag="0"/>
      <psa30 value="0.0011094663" flag="0"/>
    </comp>
  </station>
</stationlist>
