<stationlist created="1775730834">
	<station code="ERBG" name="ERBG" netid="KO" source="Bogazici University Kandilli Observatory And Earthquake Research Institute (KOERI)" insttype="" lat="40.712" lon="36.6768">
		<comp name="--.HNE" depth="0.0">
			<acc value="4.98904243958949" flag="0"/>
			<vel value="2.60959429018315" flag="0"/>
			<psa03 value="6.81810366590635" flag="0"/>
			<psa10 value="1.94679092534445" flag="0"/>
			<psa30 value="0.403779708424035" flag="0"/>
		</comp>
		<comp name="--.HNN" depth="0.0">
			<acc value="5.76192389674147" flag="0"/>
			<vel value="6.94052735803492" flag="0"/>
			<psa03 value="12.3826722912683" flag="0"/>
			<psa10 value="8.25975644832792" flag="0"/>
			<psa30 value="0.991653638853457" flag="0"/>
		</comp>
		<comp name="--.HNZ" depth="0.0">
			<acc value="3.11880977076057" flag="0"/>
			<vel value="1.52263335913039" flag="0"/>
			<psa03 value="5.12038953401039" flag="0"/>
			<psa10 value="2.72104705601325" flag="0"/>
			<psa30 value="0.209902625018759" flag="0"/>
		</comp>
	</station>
	<station code="GUMT" name="GUMT" netid="KO" source="Bogazici University Kandilli Observatory And Earthquake Research Institute (KOERI)" insttype="" lat="40.4665" lon="39.478">
		<comp name="--.HNE" depth="0.0">
			<acc value="0.033488883857346" flag="0"/>
			<vel value="0.0531731841618709" flag="0"/>
			<psa03 value="0.0830596950054916" flag="0"/>
			<psa10 value="0.0650259401494041" flag="0"/>
			<psa30 value="0.0124441685317591" flag="0"/>
		</comp>
		<comp name="--.HNN" depth="0.0">
			<acc value="0.0925964887905868" flag="0"/>
			<vel value="0.0792215926178078" flag="0"/>
			<psa03 value="0.226972660824856" flag="0"/>
			<psa10 value="0.153394446629268" flag="0"/>
			<psa30 value="0.0152983567743892" flag="0"/>
		</comp>
		<comp name="--.HNZ" depth="0.0">
			<acc value="0.049442228757777" flag="0"/>
			<vel value="0.0484560931867481" flag="0"/>
			<psa03 value="0.148828484156663" flag="0"/>
			<psa10 value="0.0892922976764972" flag="0"/>
			<psa30 value="0.0150491485989039" flag="0"/>
		</comp>
	</station>
	<station code="KMON" name="KMON" netid="KO" source="Bogazici University Kandilli Observatory And Earthquake Research Institute (KOERI)" insttype="" lat="41.3738" lon="33.7839">
		<comp name="--.HNE" depth="0.0">
			<acc value="0.0243107760266166" flag="0"/>
			<vel value="0.0398643127874658" flag="0"/>
			<psa03 value="0.0366207931353197" flag="0"/>
			<psa10 value="0.0826171254790991" flag="0"/>
			<psa30 value="0.0182180718578509" flag="0"/>
		</comp>
		<comp name="--.HNN" depth="0.0">
			<acc value="0.0254104981963527" flag="0"/>
			<vel value="0.0510233716039137" flag="0"/>
			<psa03 value="0.0485476118743607" flag="0"/>
			<psa10 value="0.0733682402858463" flag="0"/>
			<psa30 value="0.0194249451406162" flag="0"/>
		</comp>
		<comp name="--.HNZ" depth="0.0">
			<acc value="0.017754405851137" flag="0"/>
			<vel value="0.0267657953665839" flag="0"/>
			<psa03 value="0.0267160640789629" flag="0"/>
			<psa10 value="0.0465493586665592" flag="0"/>
			<psa30 value="0.01142169496457" flag="0"/>
		</comp>
	</station>
	<station code="KOZK" name="KOZK" netid="KO" source="Bogazici University Kandilli Observatory And Earthquake Research Institute (KOERI)" insttype="" lat="39.2101" lon="34.868">
		<comp name="--.HNE" depth="0.0">
			<acc value="0.103869017944583" flag="0"/>
			<vel value="0.177932006531136" flag="0"/>
			<psa03 value="0.143381144130454" flag="0"/>
			<psa10 value="0.405664013249982" flag="0"/>
			<psa30 value="0.0298525442512146" flag="0"/>
		</comp>
		<comp name="--.HNN" depth="0.0">
			<acc value="0.0907652003496223" flag="0"/>
			<vel value="0.182468488521165" flag="0"/>
			<psa03 value="0.137347494430773" flag="0"/>
			<psa10 value="0.355073521878214" flag="0"/>
			<psa30 value="0.028040947575159" flag="0"/>
		</comp>
		<comp name="--.HNZ" depth="0.0">
			<acc value="0.0540980765706685" flag="0"/>
			<vel value="0.0648624529338897" flag="0"/>
			<psa03 value="0.0971060682171142" flag="0"/>
			<psa10 value="0.125528278132365" flag="0"/>
			<psa30 value="0.0207313383494215" flag="0"/>
		</comp>
	</station>
	<station code="KYHL" name="KYHL" netid="KO" source="Bogazici University Kandilli Observatory And Earthquake Research Institute (KOERI)" insttype="" lat="40.3244" lon="37.8955">
		<comp name="--.HNE" depth="0.0">
			<acc value="1.65275825155483" flag="0"/>
			<vel value="0.965062262542791" flag="0"/>
			<psa03 value="4.76905425977274" flag="0"/>
			<psa10 value="0.67815844466873" flag="0"/>
			<psa30 value="0.076338463715238" flag="0"/>
		</comp>
		<comp name="--.HNN" depth="0.0">
			<acc value="1.96712881751723" flag="0"/>
			<vel value="1.15697777723913" flag="0"/>
			<psa03 value="5.02339410853948" flag="0"/>
			<psa10 value="0.628411369169124" flag="0"/>
			<psa30 value="0.112133041597019" flag="0"/>
		</comp>
		<comp name="--.HNZ" depth="0.0">
			<acc value="0.906474371634934" flag="0"/>
			<vel value="0.550751555757023" flag="0"/>
			<psa03 value="2.88727726794898" flag="0"/>
			<psa10 value="0.349395345726911" flag="0"/>
			<psa30 value="0.0739932150206885" flag="0"/>
		</comp>
	</station>
	<station code="TOS" name="TOS" netid="KO" source="Bogazici University Kandilli Observatory And Earthquake Research Institute (KOERI)" insttype="" lat="41.0362" lon="34.0226">
		<comp name="--.HNE" depth="0.0">
			<acc value="0.0205847449278963" flag="0"/>
			<vel value="0.0293238363943196" flag="0"/>
			<psa03 value="0.0506318228597764" flag="0"/>
			<psa10 value="0.0516566419990148" flag="0"/>
			<psa30 value="0.0103586987129519" flag="0"/>
		</comp>
		<comp name="--.HNN" depth="0.0">
			<acc value="0.0212639153150069" flag="0"/>
			<vel value="0.0252730532138648" flag="0"/>
			<psa03 value="0.0436141991224778" flag="0"/>
			<psa10 value="0.050737778628826" flag="0"/>
			<psa30 value="0.0132265978638624" flag="0"/>
		</comp>
		<comp name="--.HNZ" depth="0.0">
			<acc value="0.0136934968019541" flag="0"/>
			<vel value="0.0231688458477683" flag="0"/>
			<psa03 value="0.0302535536286178" flag="0"/>
			<psa10 value="0.0321651532835466" flag="0"/>
			<psa30 value="0.00968983690413964" flag="0"/>
		</comp>
	</station>
	<station code="TUNC" name="TUNC" netid="KO" source="Bogazici University Kandilli Observatory And Earthquake Research Institute (KOERI)" insttype="" lat="39.6942" lon="37.5388">
		<comp name="--.HNE" depth="0.0">
			<acc value="0.262335335461532" flag="0"/>
			<vel value="0.287593497159616" flag="0"/>
			<psa03 value="0.505744211405275" flag="0"/>
			<psa10 value="0.232963497688396" flag="0"/>
			<psa30 value="0.0796219345624005" flag="0"/>
		</comp>
		<comp name="--.HNN" depth="0.0">
			<acc value="0.341168633168205" flag="0"/>
			<vel value="0.365108937402412" flag="0"/>
			<psa03 value="0.735613564121752" flag="0"/>
			<psa10 value="0.595826930609986" flag="0"/>
			<psa30 value="0.0564352518918013" flag="0"/>
		</comp>
		<comp name="--.HNZ" depth="0.0">
			<acc value="0.140987415630592" flag="0"/>
			<vel value="0.158209366224075" flag="0"/>
			<psa03 value="0.213063801931215" flag="0"/>
			<psa10 value="0.204621010137694" flag="0"/>
			<psa30 value="0.0841301265413274" flag="0"/>
		</comp>
	</station>
</stationlist>
