<?xml version="1.0" encoding="UTF-8" standalone="yes"?>
<!DOCTYPE earthquake SYSTEM "stationlist.dtd">
<stationlist created="" xmlns="ch.ethz.sed.shakemap.usgs.xml">
  <station code="DIKM" name="DIKM" netid="KO" insttype="CMG-3T" commtype="DIG" lat="41.6497" lon="35.2578">
    <comp name="--.HHE">
      <acc value="0.1069257430" flag="0"/>
      <vel value="0.0923172457" flag="0"/>
      <psa03 value="0.3231501958" flag="0"/>
      <psa10 value="0.1018379531" flag="0"/>
      <psa30 value="0.0197966973" flag="0"/>
    </comp>
    <comp name="--.HHZ">
      <acc value="0.1070568516" flag="0"/>
      <vel value="0.0927374244" flag="0"/>
      <psa03 value="0.2090003030" flag="0"/>
      <psa10 value="0.1294304197" flag="0"/>
      <psa30 value="0.0182738373" flag="0"/>
    </comp>
    <comp name="--.HHN">
      <acc value="0.2115428947" flag="0"/>
      <vel value="0.1389874652" flag="0"/>
      <psa03 value="0.4418306046" flag="0"/>
      <psa10 value="0.2345745569" flag="0"/>
      <psa30 value="0.0255648196" flag="0"/>
    </comp>
  </station>
  <station code="ERBG" name="ERBG" netid="KO" insttype="CMG-5T" commtype="DIG" lat="40.712" lon="36.6768">
    <comp name="--.HNE">
      <acc value="5.0962577623" flag="0"/>
      <vel value="2.5282322238" flag="0"/>
      <psa03 value="6.7558213077" flag="0"/>
      <psa10 value="1.9417530020" flag="0"/>
      <psa30 value="0.3938097552" flag="0"/>
    </comp>
    <comp name="--.HNZ">
      <acc value="3.2032706130" flag="0"/>
      <vel value="1.5415555663" flag="0"/>
      <psa03 value="5.0822192670" flag="0"/>
      <psa10 value="2.7144237277" flag="0"/>
      <psa30 value="0.2041203677" flag="0"/>
    </comp>
    <comp name="--.HNN">
      <acc value="5.7811291226" flag="0"/>
      <vel value="6.8047443046" flag="0"/>
      <psa03 value="12.3493880343" flag="0"/>
      <psa10 value="8.2692246996" flag="0"/>
      <psa30 value="1.0025479068" flag="0"/>
    </comp>
  </station>
  <station code="KYHL" name="KYHL" netid="KO" insttype="CMG-5T" commtype="DIG" lat="40.3244" lon="37.8955">
    <comp name="--.HNE">
      <acc value="1.6469385423" flag="0"/>
      <vel value="0.9660191357" flag="0"/>
      <psa03 value="4.7649130110" flag="0"/>
      <psa10 value="0.6761285516" flag="0"/>
      <psa30 value="0.0620042730" flag="0"/>
    </comp>
    <comp name="--.HNN">
      <acc value="1.9667230890" flag="0"/>
      <vel value="1.1678104338" flag="0"/>
      <psa03 value="5.0094089345" flag="0"/>
      <psa10 value="0.6304475229" flag="0"/>
      <psa30 value="0.1086476543" flag="0"/>
    </comp>
    <comp name="--.HNZ">
      <acc value="0.9032474871" flag="0"/>
      <vel value="0.5479187236" flag="0"/>
      <psa03 value="2.8210391141" flag="0"/>
      <psa10 value="0.3477207089" flag="0"/>
      <psa30 value="0.0708531950" flag="0"/>
    </comp>
  </station>
  <station code="TOKT" name="TOKT" netid="KO" insttype="CMG-3T" commtype="DIG" lat="40.3173" lon="36.5443">
    <comp name="--.HHZ">
      <acc value="0.0000671566" flag="0"/>
      <vel value="0.0000073072" flag="0"/>
      <psa03 value="0.0000219664" flag="0"/>
      <psa10 value="0.0000058519" flag="0"/>
      <psa30 value="0.0000012190" flag="0"/>
    </comp>
    <comp name="--.HHN">
      <acc value="0.5570567750" flag="0"/>
      <vel value="0.5885250830" flag="0"/>
      <psa03 value="1.0422272243" flag="0"/>
      <psa10 value="1.3774723672" flag="0"/>
      <psa30 value="0.0862641044" flag="0"/>
    </comp>
  </station>
  <station code="TUNC" name="TUNC" netid="KO" insttype="CMG-5T" commtype="DIG" lat="39.6942" lon="37.5388">
    <comp name="--.HNN">
      <acc value="0.3413928006" flag="0"/>
      <vel value="0.3411220317" flag="0"/>
      <psa03 value="0.7404931397" flag="0"/>
      <psa10 value="0.5952210645" flag="0"/>
      <psa30 value="0.0552096167" flag="0"/>
    </comp>
    <comp name="--.HNE">
      <acc value="0.2614707791" flag="0"/>
      <vel value="0.2674297089" flag="0"/>
      <psa03 value="0.5022612299" flag="0"/>
      <psa10 value="0.2320150195" flag="0"/>
      <psa30 value="0.0789668172" flag="0"/>
    </comp>
    <comp name="--.HNZ">
      <acc value="0.1405290009" flag="0"/>
      <vel value="0.1512106920" flag="0"/>
      <psa03 value="0.2139892533" flag="0"/>
      <psa10 value="0.2051778189" flag="0"/>
      <psa30 value="0.0839609646" flag="0"/>
    </comp>
  </station>
  <station code="YOZ" name="YOZ" netid="KO" insttype="CMG-3T" commtype="DIG" lat="39.6376" lon="35.3152">
    <comp name="--.HHN">
      <acc value="0.1485890785" flag="0"/>
      <vel value="0.1396918607" flag="0"/>
      <psa03 value="0.4080846002" flag="0"/>
      <psa10 value="0.2247735043" flag="0"/>
      <psa30 value="0.0243286056" flag="0"/>
    </comp>
    <comp name="--.HHE">
      <acc value="0.1770633337" flag="0"/>
      <vel value="0.1911977314" flag="0"/>
      <psa03 value="0.3159994779" flag="0"/>
      <psa10 value="0.3732560474" flag="0"/>
      <psa30 value="0.0210748975" flag="0"/>
    </comp>
    <comp name="--.HHZ">
      <acc value="0.1087923218" flag="0"/>
      <vel value="0.1381750907" flag="0"/>
      <psa03 value="0.1848230414" flag="0"/>
      <psa10 value="0.1737108430" flag="0"/>
      <psa30 value="0.0202470869" flag="0"/>
    </comp>
  </station>
</stationlist>
