<stationlist xmlns:esm="https://esm-db.eu/esmws/shakemap/1/" created="1783994076">
	<station code="SRN" name="SRN" netid="AC" source="Albanian Seismological Network (AC)" insttype="" lat="39.880001" lon="20.0005" esm:processing="automatic (Paolucci et al 2011)" esm:quality="good">
		<comp name="--.HNE" depth="0.0">
			<acc value="0.0571529858136057" flag="0"/>
			<vel value="0.0907505609971573" flag="0"/>
			<psa03 value="0.0943219671173675" flag="0"/>
			<psa10 value="0.173374945239433" flag="0"/>
			<psa30 value="0.0784391628762786" flag="0"/>
		</comp>
		<comp name="--.HNN" depth="0.0">
			<acc value="0.0365663779468638" flag="0"/>
			<vel value="0.061619019507991" flag="0"/>
			<psa03 value="0.066799143865573" flag="0"/>
			<psa10 value="0.0982000827736721" flag="0"/>
			<psa30 value="0.0335252442162439" flag="0"/>
		</comp>
		<comp name="--.HNZ" depth="0.0">
			<acc value="0.0491482732376733" flag="0"/>
			<vel value="0.0742551349492866" flag="0"/>
			<psa03 value="0.100048586061156" flag="0"/>
			<psa10 value="0.152217738678239" flag="0"/>
			<psa30 value="0.041586281553725" flag="0"/>
		</comp>
	</station>
	<station code="ROD3" name="ROD3" netid="CL" source="Corinth Riff Laboratory (CRLNET)" insttype="" lat="38.30811" lon="21.89204" esm:processing="manual (Paolucci et al 2011)" esm:quality="good">
		<comp name="00.HNE" depth="0.0">
			<acc value="0.0308369173973248" flag="0"/>
			<vel value="0.0231517084477868" flag="0"/>
			<psa03 value="0.148186188319716" flag="0"/>
			<psa10 value="0.0337043042455441" flag="0"/>
			<psa30 value="0.00600798350470153" flag="0"/>
		</comp>
		<comp name="00.HNN" depth="0.0">
			<acc value="0.0267354030946119" flag="0"/>
			<vel value="0.0266586275927644" flag="0"/>
			<psa03 value="0.0928400787329139" flag="0"/>
			<psa10 value="0.0494732475460878" flag="0"/>
			<psa30 value="0.00810147135237047" flag="0"/>
		</comp>
		<comp name="00.HNZ" depth="0.0">
			<acc value="0.0190160593819144" flag="0"/>
			<vel value="0.0137785054012906" flag="0"/>
			<psa03 value="0.0405811814027725" flag="0"/>
			<psa10 value="0.0348962366298549" flag="0"/>
			<psa30 value="0.00383172257478879" flag="0"/>
		</comp>
	</station>
	<station code="ARG2" name="ARG2" netid="HI" source="ITSAK Strong Motion Network" insttype="" lat="38.1783" lon="20.4878" esm:processing="manual (Paolucci et al 2011)" esm:quality="good">
		<comp name="--.HNE" depth="0.0">
			<acc value="0.0866022934110805" flag="0"/>
			<vel value="0.0564959283683944" flag="0"/>
			<psa03 value="0.160445552933123" flag="0"/>
			<psa10 value="0.0706219937704125" flag="0"/>
			<psa30 value="0.00647911894039193" flag="0"/>
		</comp>
		<comp name="--.HNN" depth="0.0">
			<acc value="0.100514775128758" flag="0"/>
			<vel value="0.0477960034374623" flag="0"/>
			<psa03 value="0.134405588681288" flag="0"/>
			<psa10 value="0.0535282337319018" flag="0"/>
			<psa30 value="0.00741065168218435" flag="0"/>
		</comp>
		<comp name="--.HNZ" depth="0.0">
			<acc value="0.0748011432760536" flag="0"/>
			<vel value="0.0275362894943364" flag="0"/>
			<psa03 value="0.139461458029153" flag="0"/>
			<psa10 value="0.0356331407728578" flag="0"/>
			<psa30 value="0.00571536947341803" flag="0"/>
		</comp>
	</station>
	<station code="ARS1" name="ARS1" netid="HI" source="ITSAK Strong Motion Network" insttype="" lat="37.6349" lon="22.7293" esm:processing="manual (Paolucci et al 2011)" esm:quality="good">
		<comp name="--.HNE" depth="0.0">
			<acc value="0.0160385972060624" flag="0"/>
			<vel value="0.0196412114377646" flag="0"/>
			<psa03 value="0.0275164570702371" flag="0"/>
			<psa10 value="0.0268023714526095" flag="0"/>
			<psa30 value="0.00595831965535525" flag="0"/>
		</comp>
		<comp name="--.HNN" depth="0.0">
			<acc value="0.0161380444601813" flag="0"/>
			<vel value="0.0181917995117734" flag="0"/>
			<psa03 value="0.039999532716735" flag="0"/>
			<psa10 value="0.035540524405158" flag="0"/>
			<psa30 value="0.00664377026074717" flag="0"/>
		</comp>
		<comp name="--.HNZ" depth="0.0">
			<acc value="0.00960916981641319" flag="0"/>
			<vel value="0.0104193051395037" flag="0"/>
			<psa03 value="0.0323038731783922" flag="0"/>
			<psa10 value="0.0145166089372983" flag="0"/>
			<psa30 value="0.00454983499101205" flag="0"/>
		</comp>
	</station>
	<station code="ATH5" name="ATH5" netid="HI" source="ITSAK Strong Motion Network" insttype="" lat="37.975421" lon="23.737098" esm:processing="manual (Paolucci et al 2011)" esm:quality="bad">
		<comp name="--.HNE" depth="0.0">
			<acc value="0.00261070918279323" flag="0"/>
			<vel value="0.00523253659417374" flag="0"/>
			<psa03 value="0.00400884727218795" flag="0"/>
			<psa10 value="0.0107990588221671" flag="0"/>
			<psa30 value="0.00243654682593439" flag="0"/>
		</comp>
		<comp name="--.HNN" depth="0.0">
			<acc value="0.00225938956570435" flag="0"/>
			<vel value="0.00449209698308855" flag="0"/>
			<psa03 value="0.0032990889911618" flag="0"/>
			<psa10 value="0.00757171596400568" flag="0"/>
			<psa30 value="0.00156967367067614" flag="0"/>
		</comp>
		<comp name="--.HNZ" depth="0.0">
			<acc value="0.00178944242187677" flag="0"/>
			<vel value="0.00278598985107531" flag="0"/>
			<psa03 value="0.00301861565857598" flag="0"/>
			<psa10 value="0.00834161290340507" flag="0"/>
			<psa30 value="0.00137744281132541" flag="0"/>
		</comp>
	</station>
	<station code="KLV1" name="KLV1" netid="HI" source="ITSAK Strong Motion Network" insttype="" lat="38.03256" lon="22.10797" esm:processing="manual (Paolucci et al 2011)" esm:quality="best">
		<comp name="--.HNE" depth="0.0">
			<acc value="0.016962086029488" flag="0"/>
			<vel value="0.0209787163908659" flag="0"/>
			<psa03 value="0.0576980565882493" flag="0"/>
			<psa10 value="0.0519564443592572" flag="0"/>
			<psa30 value="0.00361103254651725" flag="0"/>
		</comp>
		<comp name="--.HNN" depth="0.0">
			<acc value="0.0166438728311906" flag="0"/>
			<vel value="0.0227935101601597" flag="0"/>
			<psa03 value="0.0538456815956661" flag="0"/>
			<psa10 value="0.0318247582340454" flag="0"/>
			<psa30 value="0.0053456941260058" flag="0"/>
		</comp>
		<comp name="--.HNZ" depth="0.0">
			<acc value="0.0112251613965853" flag="0"/>
			<vel value="0.0193362934234904" flag="0"/>
			<psa03 value="0.0255512811886558" flag="0"/>
			<psa10 value="0.0442902202596383" flag="0"/>
			<psa30 value="0.00457132491119254" flag="0"/>
		</comp>
	</station>
	<station code="KRI1" name="KRI1" netid="HI" source="ITSAK Strong Motion Network" insttype="" lat="37.6621" lon="20.8172" esm:processing="manual (Paolucci et al 2011)" esm:quality="good">
		<comp name="--.HNE" depth="0.0">
			<acc value="0.523443392133226" flag="0"/>
			<vel value="0.25699237798365" flag="0"/>
			<psa03 value="0.970861141409879" flag="0"/>
			<psa10 value="0.265925752457764" flag="0"/>
			<psa30 value="0.0576552548703712" flag="0"/>
		</comp>
		<comp name="--.HNN" depth="0.0">
			<acc value="0.223129790549002" flag="0"/>
			<vel value="0.185813802892391" flag="0"/>
			<psa03 value="0.561738404092402" flag="0"/>
			<psa10 value="0.214229712086881" flag="0"/>
			<psa30 value="0.033672089856779" flag="0"/>
		</comp>
		<comp name="--.HNZ" depth="0.0">
			<acc value="0.291773375279471" flag="0"/>
			<vel value="0.111427689272686" flag="0"/>
			<psa03 value="0.60191690563561" flag="0"/>
			<psa10 value="0.0943760786861191" flag="0"/>
			<psa30 value="0.0190986583170755" flag="0"/>
		</comp>
	</station>
	<station code="KRK1" name="KRK1" netid="HI" source="ITSAK Strong Motion Network" insttype="" lat="39.618861" lon="19.9202" esm:processing="manual (Paolucci et al 2011)" esm:quality="good">
		<comp name="--.HNE" depth="0.0">
			<acc value="0.00765435402640525" flag="0"/>
			<vel value="0.00559550900135612" flag="0"/>
			<psa03 value="0.0134755723780196" flag="0"/>
			<psa10 value="0.00647740753395543" flag="0"/>
			<psa30 value="0.00181920155484056" flag="0"/>
		</comp>
		<comp name="--.HNN" depth="0.0">
			<acc value="0.00833078895094532" flag="0"/>
			<vel value="0.00640587646785283" flag="0"/>
			<psa03 value="0.0133755071554597" flag="0"/>
			<psa10 value="0.00885293302585054" flag="0"/>
			<psa30 value="0.0014184254220565" flag="0"/>
		</comp>
		<comp name="--.HNZ" depth="0.0">
			<acc value="0.00276396447892264" flag="0"/>
			<vel value="0.00249473834693166" flag="0"/>
			<psa03 value="0.00688939909720832" flag="0"/>
			<psa10 value="0.00301952096594316" flag="0"/>
			<psa30 value="0.000988698517257952" flag="0"/>
		</comp>
	</station>
	<station code="NPS1" name="NPS1" netid="HI" source="ITSAK Strong Motion Network" insttype="" lat="36.51263" lon="23.06248" esm:processing="manual (Paolucci et al 2011)" esm:quality="good">
		<comp name="--.HNE" depth="0.0">
			<acc value="0.00666402822516122" flag="0"/>
			<vel value="0.00774617929651072" flag="0"/>
			<psa03 value="0.0154317696748263" flag="0"/>
			<psa10 value="0.012645681151831" flag="0"/>
			<psa30 value="0.00243138085871387" flag="0"/>
		</comp>
		<comp name="--.HNN" depth="0.0">
			<acc value="0.00870952184586059" flag="0"/>
			<vel value="0.00996134215729025" flag="0"/>
			<psa03 value="0.0161111896830627" flag="0"/>
			<psa10 value="0.0169848376621469" flag="0"/>
			<psa30 value="0.00280172935081709" flag="0"/>
		</comp>
		<comp name="--.HNZ" depth="0.0">
			<acc value="0.00330193868945805" flag="0"/>
			<vel value="0.00553414984103699" flag="0"/>
			<psa03 value="0.0078944292172116" flag="0"/>
			<psa10 value="0.00838308502572407" flag="0"/>
			<psa30 value="0.00178512867268158" flag="0"/>
		</comp>
	</station>
	<station code="PYL1" name="PYL1" netid="HI" source="ITSAK Strong Motion Network" insttype="" lat="36.914188" lon="21.695161" esm:processing="manual (Paolucci et al 2011)" esm:quality="good">
		<comp name="--.HNE" depth="0.0">
			<acc value="0.0266807812199653" flag="0"/>
			<vel value="0.0220420894887952" flag="0"/>
			<psa03 value="0.0754353603584062" flag="0"/>
			<psa10 value="0.0410048900994475" flag="0"/>
			<psa30 value="0.00742452176623601" flag="0"/>
		</comp>
		<comp name="--.HNN" depth="0.0">
			<acc value="0.0227439359391929" flag="0"/>
			<vel value="0.0224068458383304" flag="0"/>
			<psa03 value="0.052527350569851" flag="0"/>
			<psa10 value="0.0208870043156078" flag="0"/>
			<psa30 value="0.0052630257645073" flag="0"/>
		</comp>
		<comp name="--.HNZ" depth="0.0">
			<acc value="0.0116209442294459" flag="0"/>
			<vel value="0.0122576644795227" flag="0"/>
			<psa03 value="0.0286797544423122" flag="0"/>
			<psa10 value="0.0140736610917774" flag="0"/>
			<psa30 value="0.00389525650818674" flag="0"/>
		</comp>
	</station>
	<station code="ACHA" name="ACHA" netid="HL" source="National Observatory of Athens Seismic Network" insttype="" lat="38.07458" lon="23.74127" esm:processing="manual (Paolucci et al 2011)" esm:quality="good">
		<comp name="00.HNE" depth="0.0">
			<acc value="0.0035879470690338" flag="0"/>
			<vel value="0.00619745498973384" flag="0"/>
			<psa03 value="0.0130876456381417" flag="0"/>
			<psa10 value="0.0117770936121353" flag="0"/>
			<psa30 value="0.00192145082835567" flag="0"/>
		</comp>
		<comp name="00.HNN" depth="0.0">
			<acc value="0.00343910589488836" flag="0"/>
			<vel value="0.00702666020435954" flag="0"/>
			<psa03 value="0.00850493059741609" flag="0"/>
			<psa10 value="0.00960221578716993" flag="0"/>
			<psa30 value="0.0025421429878314" flag="0"/>
		</comp>
		<comp name="00.HNZ" depth="0.0">
			<acc value="0.00383318625409882" flag="0"/>
			<vel value="0.00503497721278485" flag="0"/>
			<psa03 value="0.00935373487340098" flag="0"/>
			<psa10 value="0.0104402097376626" flag="0"/>
			<psa30 value="0.00182744397586176" flag="0"/>
		</comp>
	</station>
	<station code="ARTB" name="ARTB" netid="HL" source="National Observatory of Athens Seismic Network" insttype="" lat="39.15702" lon="20.9785" esm:processing="automatic (Paolucci et al 2011)" esm:quality="good">
		<comp name="00.HNE" depth="0.0">
			<acc value="0.010149931470921" flag="0"/>
			<vel value="0.0071690715500787" flag="0"/>
			<psa03 value="0.0329191625037814" flag="0"/>
			<psa10 value="0.00761081042882582" flag="0"/>
			<psa30 value="0.00186721681894933" flag="0"/>
		</comp>
		<comp name="00.HNN" depth="0.0">
			<acc value="0.00745742839226967" flag="0"/>
			<vel value="0.00634434129156314" flag="0"/>
			<psa03 value="0.0222981307875676" flag="0"/>
			<psa10 value="0.00823754819713851" flag="0"/>
			<psa30 value="0.00204480608336874" flag="0"/>
		</comp>
		<comp name="00.HNZ" depth="0.0">
			<acc value="0.00841559466648167" flag="0"/>
			<vel value="0.00635099491188196" flag="0"/>
			<psa03 value="0.01036930214977" flag="0"/>
			<psa10 value="0.00520857285487968" flag="0"/>
			<psa30 value="0.00211362855918612" flag="0"/>
		</comp>
	</station>
	<station code="ITM" name="ITM" netid="HL" source="National Observatory of Athens Seismic Network" insttype="" lat="37.17872" lon="21.92522" esm:processing="manual (Paolucci et al 2011)" esm:quality="best">
		<comp name="--.HNE" depth="0.0">
			<acc value="0.0248898101413711" flag="0"/>
			<vel value="0.0306799725436628" flag="0"/>
			<psa03 value="0.0584333218434629" flag="0"/>
			<psa10 value="0.0339257781683046" flag="0"/>
			<psa30 value="0.0090092907246552" flag="0"/>
		</comp>
		<comp name="--.HNN" depth="0.0">
			<acc value="0.0275868424541029" flag="0"/>
			<vel value="0.0242527968999398" flag="0"/>
			<psa03 value="0.0681423806796279" flag="0"/>
			<psa10 value="0.0319768076480126" flag="0"/>
			<psa30 value="0.0104969690947127" flag="0"/>
		</comp>
		<comp name="--.HNZ" depth="0.0">
			<acc value="0.0225482252324405" flag="0"/>
			<vel value="0.0259811154179329" flag="0"/>
			<psa03 value="0.0410733456755735" flag="0"/>
			<psa10 value="0.0331445792407495" flag="0"/>
			<psa30 value="0.00833323598265311" flag="0"/>
		</comp>
	</station>
	<station code="KIAA" name="KIAA" netid="HL" source="National Observatory of Athens Seismic Network" insttype="" lat="38.0139" lon="22.7495" esm:processing="manual (Paolucci et al 2011)" esm:quality="good">
		<comp name="00.HNE" depth="0.0">
			<acc value="0.0373808021893295" flag="0"/>
			<vel value="0.0732962057839955" flag="0"/>
			<psa03 value="0.0496210684022541" flag="0"/>
			<psa10 value="0.10846478275954" flag="0"/>
			<psa30 value="0.0332895852716474" flag="0"/>
		</comp>
		<comp name="00.HNN" depth="0.0">
			<acc value="0.0307905015155837" flag="0"/>
			<vel value="0.0516689734846954" flag="0"/>
			<psa03 value="0.0550313226383784" flag="0"/>
			<psa10 value="0.0900741944733226" flag="0"/>
			<psa30 value="0.0199237098479969" flag="0"/>
		</comp>
		<comp name="00.HNZ" depth="0.0">
			<acc value="0.0184968960662772" flag="0"/>
			<vel value="0.0277468443847381" flag="0"/>
			<psa03 value="0.0576180252447312" flag="0"/>
			<psa10 value="0.0642003979612857" flag="0"/>
			<psa30 value="0.00747775203103982" flag="0"/>
		</comp>
	</station>
	<station code="LXRA" name="LXRA" netid="HL" source="National Observatory of Athens Seismic Network" insttype="" lat="38.20006" lon="20.43718" esm:processing="manual (Paolucci et al 2011)" esm:quality="good">
		<comp name="00.HNE" depth="0.0">
			<acc value="0.102833205910171" flag="0"/>
			<vel value="0.0907299287508114" flag="0"/>
			<psa03 value="0.208632909461001" flag="0"/>
			<psa10 value="0.12787098940469" flag="0"/>
			<psa30 value="0.0190458625132659" flag="0"/>
		</comp>
		<comp name="00.HNN" depth="0.0">
			<acc value="0.0981697503938018" flag="0"/>
			<vel value="0.066439402343583" flag="0"/>
			<psa03 value="0.28089157314951" flag="0"/>
			<psa10 value="0.122040185038197" flag="0"/>
			<psa30 value="0.0271987874032474" flag="0"/>
		</comp>
		<comp name="00.HNZ" depth="0.0">
			<acc value="0.0727815282379838" flag="0"/>
			<vel value="0.0356880216480509" flag="0"/>
			<psa03 value="0.0988802766263806" flag="0"/>
			<psa10 value="0.0553564002943244" flag="0"/>
			<psa30 value="0.0122195440495162" flag="0"/>
		</comp>
	</station>
	<station code="PATG" name="PATG" netid="HL" source="National Observatory of Athens Seismic Network" insttype="" lat="38.23865" lon="21.72657" esm:processing="manual (Paolucci et al 2011)" esm:quality="best">
		<comp name="00.HNE" depth="0.0">
			<acc value="0.0444120760485014" flag="0"/>
			<vel value="0.0902418730449689" flag="0"/>
			<psa03 value="0.103622950527917" flag="0"/>
			<psa10 value="0.15608676716437" flag="0"/>
			<psa30 value="0.0490159821944491" flag="0"/>
		</comp>
		<comp name="00.HNN" depth="0.0">
			<acc value="0.0441062123508196" flag="0"/>
			<vel value="0.0827329205144674" flag="0"/>
			<psa03 value="0.101430582403622" flag="0"/>
			<psa10 value="0.117489902625118" flag="0"/>
			<psa30 value="0.0442227495994336" flag="0"/>
		</comp>
		<comp name="00.HNZ" depth="0.0">
			<acc value="0.0245355369511678" flag="0"/>
			<vel value="0.0369406368490248" flag="0"/>
			<psa03 value="0.0460397306102016" flag="0"/>
			<psa10 value="0.0650650117084231" flag="0"/>
			<psa30 value="0.0174194833026917" flag="0"/>
		</comp>
	</station>
	<station code="RIOA" name="RIOA" netid="HL" source="National Observatory of Athens Seismic Network" insttype="" lat="38.29585" lon="21.79118" esm:processing="manual (Paolucci et al 2011)" esm:quality="good">
		<comp name="00.HNE" depth="0.0">
			<acc value="0.0199287419274229" flag="0"/>
			<vel value="0.0288455417268367" flag="0"/>
			<psa03 value="0.0388362353446599" flag="0"/>
			<psa10 value="0.04786252810783" flag="0"/>
			<psa30 value="0.0161134582915044" flag="0"/>
		</comp>
		<comp name="00.HNN" depth="0.0">
			<acc value="0.0198002356735925" flag="0"/>
			<vel value="0.0216650787723439" flag="0"/>
			<psa03 value="0.0302457316739517" flag="0"/>
			<psa10 value="0.0356774355574099" flag="0"/>
			<psa30 value="0.0157040671009472" flag="0"/>
		</comp>
		<comp name="00.HNZ" depth="0.0">
			<acc value="0.0180787951944414" flag="0"/>
			<vel value="0.0207840605519015" flag="0"/>
			<psa03 value="0.0289929498886401" flag="0"/>
			<psa10 value="0.0349163706228331" flag="0"/>
			<psa30 value="0.00577442918615415" flag="0"/>
		</comp>
	</station>
	<station code="SMHA" name="SMHA" netid="HL" source="National Observatory of Athens Seismic Network" insttype="" lat="38.25123" lon="20.6477" esm:processing="manual (Paolucci et al 2011)" esm:quality="good">
		<comp name="00.HNE" depth="0.0">
			<acc value="0.0921986879147078" flag="0"/>
			<vel value="0.047854009058559" flag="0"/>
			<psa03 value="0.294914015772849" flag="0"/>
			<psa10 value="0.0650627750895381" flag="0"/>
			<psa30 value="0.00581179250273051" flag="0"/>
		</comp>
		<comp name="00.HNN" depth="0.0">
			<acc value="0.107472985853874" flag="0"/>
			<vel value="0.0546823951118959" flag="0"/>
			<psa03 value="0.258333884185324" flag="0"/>
			<psa10 value="0.0535465496961245" flag="0"/>
			<psa30 value="0.00378397858667723" flag="0"/>
		</comp>
		<comp name="00.HNZ" depth="0.0">
			<acc value="0.0411967703097632" flag="0"/>
			<vel value="0.0305836112811176" flag="0"/>
			<psa03 value="0.0821647503031306" flag="0"/>
			<psa10 value="0.0264244661161956" flag="0"/>
			<psa30 value="0.00372189864085216" flag="0"/>
		</comp>
	</station>
	<station code="SOFA" name="SOFA" netid="HL" source="National Observatory of Athens Seismic Network" insttype="" lat="39.33773" lon="22.09691" esm:processing="manual (Paolucci et al 2011)" esm:quality="good">
		<comp name="00.HNE" depth="0.0">
			<acc value="0.0127999839227259" flag="0"/>
			<vel value="0.0229860110747429" flag="0"/>
			<psa03 value="0.0158676227667196" flag="0"/>
			<psa10 value="0.0253174152795203" flag="0"/>
			<psa30 value="0.00865333240746742" flag="0"/>
		</comp>
		<comp name="00.HNN" depth="0.0">
			<acc value="0.0111138507956009" flag="0"/>
			<vel value="0.0250286842978419" flag="0"/>
			<psa03 value="0.0158211418230087" flag="0"/>
			<psa10 value="0.0287509964874341" flag="0"/>
			<psa30 value="0.00782728768604788" flag="0"/>
		</comp>
		<comp name="00.HNZ" depth="0.0">
			<acc value="0.00524864302008973" flag="0"/>
			<vel value="0.00991700074015923" flag="0"/>
