<?xml version="1.0" encoding="UTF-8" standalone="yes"?>
<!DOCTYPE earthquake SYSTEM "stationlist.dtd">
<stationlist created="" xmlns="ch.ethz.sed.shakemap.usgs.xml">
  <station code="AGRP" name="AGRP" netid="CL" source="RESIF" insttype="30" lat="38.3959" lon="21.7228">
    <comp name="00.HHE">
      <acc value="0.0092248667" flag="0"/>
      <vel value="0.0100602341" flag="0"/>
      <psa03 value="0.0201696240" flag="0"/>
      <psa10 value="0.0211671019" flag="0"/>
      <psa30 value="0.0043824367" flag="0"/>
    </comp>
    <comp name="00.HHN">
      <acc value="0.0098836897" flag="0"/>
      <vel value="0.0181199319" flag="0"/>
      <psa03 value="0.0202699803" flag="0"/>
      <psa10 value="0.0227199949" flag="0"/>
      <psa30 value="0.0051525593" flag="0"/>
    </comp>
    <comp name="00.HHZ">
      <acc value="0.0081167199" flag="0"/>
      <vel value="0.0099411921" flag="0"/>
      <psa03 value="0.0161446069" flag="0"/>
      <psa10 value="0.0190318085" flag="0"/>
      <psa30 value="0.0035683577" flag="0"/>
    </comp>
  </station>
  <station code="MALA" name="MALA" netid="CL" source="RESIF" insttype="30" lat="38.3935" lon="21.8726">
    <comp name="00.HH2">
      <acc value="0.0118430467" flag="0"/>
      <vel value="0.0179225383" flag="0"/>
      <psa03 value="0.0246458350" flag="0"/>
      <psa10 value="0.0196682379" flag="0"/>
      <psa30 value="0.0122212653" flag="0"/>
    </comp>
    <comp name="00.HH3">
      <acc value="0.0080814013" flag="0"/>
      <vel value="0.0194784267" flag="0"/>
      <psa03 value="0.0194715795" flag="0"/>
      <psa10 value="0.0254124174" flag="0"/>
      <psa30 value="0.0142353971" flag="0"/>
    </comp>
    <comp name="00.HHZ">
      <acc value="0.0072458354" flag="0"/>
      <vel value="0.0116210147" flag="0"/>
      <psa03 value="0.0172089324" flag="0"/>
      <psa10 value="0.0256580184" flag="0"/>
      <psa30 value="0.0035049840" flag="0"/>
    </comp>
  </station>
  <station code="MG00" name="MG00" netid="CL" source="RESIF" insttype="40" lat="38.4145" lon="21.9467">
    <comp name="00.HHE">
      <acc value="0.0196926991" flag="0"/>
      <vel value="0.0173028917" flag="0"/>
      <psa03 value="0.0561026308" flag="0"/>
      <psa10 value="0.0252872370" flag="0"/>
      <psa30 value="0.0083097044" flag="0"/>
    </comp>
    <comp name="00.HHN">
      <acc value="0.0219739052" flag="0"/>
      <vel value="0.0216465366" flag="0"/>
      <psa03 value="0.0668675464" flag="0"/>
      <psa10 value="0.0356521402" flag="0"/>
      <psa30 value="0.0041007611" flag="0"/>
    </comp>
    <comp name="00.HHZ">
      <acc value="0.0131606555" flag="0"/>
      <vel value="0.0091008689" flag="0"/>
      <psa03 value="0.0258263062" flag="0"/>
      <psa10 value="0.0137577196" flag="0"/>
      <psa30 value="0.0024386608" flag="0"/>
    </comp>
  </station>
  <station code="MG02" name="MG02" netid="CL" source="RESIF" insttype="40" lat="38.415" lon="21.947">
    <comp name="02.HHE">
      <acc value="0.0162921167" flag="0"/>
      <vel value="0.0142459328" flag="0"/>
      <psa03 value="0.0409366612" flag="0"/>
      <psa10 value="0.0297241743" flag="0"/>
      <psa30 value="0.0060061518" flag="0"/>
    </comp>
    <comp name="02.HHN">
      <acc value="0.0132294629" flag="0"/>
      <vel value="0.0104147856" flag="0"/>
      <psa03 value="0.0262589560" flag="0"/>
      <psa10 value="0.0211543679" flag="0"/>
      <psa30 value="0.0030534184" flag="0"/>
    </comp>
    <comp name="02.HHZ">
      <acc value="0.0106211068" flag="0"/>
      <vel value="0.0092741014" flag="0"/>
      <psa03 value="0.0298862343" flag="0"/>
      <psa10 value="0.0128629958" flag="0"/>
      <psa30 value="0.0039160069" flag="0"/>
    </comp>
  </station>
  <station code="MG03" name="MG03" netid="CL" source="RESIF" insttype="40" lat="38.4141" lon="21.946">
    <comp name="03.HHE">
      <acc value="0.0113409759" flag="0"/>
      <vel value="0.0144390444" flag="0"/>
      <psa03 value="0.0346602042" flag="0"/>
      <psa10 value="0.0218020174" flag="0"/>
      <psa30 value="0.0074486041" flag="0"/>
    </comp>
    <comp name="03.HHN">
      <acc value="0.0081033907" flag="0"/>
      <vel value="0.0088594635" flag="0"/>
      <psa03 value="0.0164439525" flag="0"/>
      <psa10 value="0.0132351123" flag="0"/>
      <psa30 value="0.0026846691" flag="0"/>
    </comp>
    <comp name="03.HHZ">
      <acc value="0.0103595944" flag="0"/>
      <vel value="0.0070788421" flag="0"/>
      <psa03 value="0.0176001686" flag="0"/>
      <psa10 value="0.0132808180" flag="0"/>
      <psa30 value="0.0024050554" flag="0"/>
    </comp>
  </station>
  <station code="MG04" name="MG04" netid="CL" source="RESIF" insttype="40" lat="38.4142" lon="21.9481">
    <comp name="04.HHE">
      <acc value="0.0161334673" flag="0"/>
      <vel value="0.0147391638" flag="0"/>
      <psa03 value="0.0448662026" flag="0"/>
      <psa10 value="0.0222960649" flag="0"/>
      <psa30 value="0.0073152157" flag="0"/>
    </comp>
    <comp name="04.HHN">
      <acc value="0.0170812915" flag="0"/>
      <vel value="0.0153808285" flag="0"/>
      <psa03 value="0.0377323630" flag="0"/>
      <psa10 value="0.0331812547" flag="0"/>
      <psa30 value="0.0058000019" flag="0"/>
    </comp>
    <comp name="04.HHZ">
      <acc value="0.0140809453" flag="0"/>
      <vel value="0.0085603199" flag="0"/>
      <psa03 value="0.0213381946" flag="0"/>
      <psa10 value="0.0133480695" flag="0"/>
      <psa30 value="0.0024276061" flag="0"/>
    </comp>
  </station>
  <station code="MG05" name="MG05" netid="CL" source="RESIF" insttype="30" lat="38.4155" lon="21.9458">
    <comp name="05.HHE">
      <acc value="0.0406992942" flag="0"/>
      <vel value="0.0395410074" flag="0"/>
      <psa03 value="0.0805260889" flag="0"/>
      <psa10 value="0.0670014513" flag="0"/>
      <psa30 value="0.0174261784" flag="0"/>
    </comp>
    <comp name="05.HHN">
      <acc value="0.0457925852" flag="0"/>
      <vel value="0.0364620029" flag="0"/>
      <psa03 value="0.0931814910" flag="0"/>
      <psa10 value="0.0827382983" flag="0"/>
      <psa30 value="0.0094388168" flag="0"/>
    </comp>
    <comp name="05.HHZ">
      <acc value="0.0221661596" flag="0"/>
      <vel value="0.0194334851" flag="0"/>
      <psa03 value="0.0561525040" flag="0"/>
      <psa10 value="0.0305191606" flag="0"/>
      <psa30 value="0.0048406437" flag="0"/>
    </comp>
  </station>
  <station code="MG06" name="MG06" netid="CL" source="RESIF" insttype="40" lat="38.4129" lon="21.9462">
    <comp name="06.HHE">
      <acc value="0.0093678580" flag="0"/>
      <vel value="0.0134190863" flag="0"/>
      <psa03 value="0.0209685946" flag="0"/>
      <psa10 value="0.0251016659" flag="0"/>
      <psa30 value="0.0055264297" flag="0"/>
    </comp>
    <comp name="06.HHN">
      <acc value="0.0087289622" flag="0"/>
      <vel value="0.0138785866" flag="0"/>
      <psa03 value="0.0181149871" flag="0"/>
      <psa10 value="0.0206330994" flag="0"/>
      <psa30 value="0.0075435076" flag="0"/>
    </comp>
    <comp name="06.HHZ">
      <acc value="0.0075442919" flag="0"/>
      <vel value="0.0073976367" flag="0"/>
      <psa03 value="0.0108874826" flag="0"/>
      <psa10 value="0.0131785595" flag="0"/>
      <psa30 value="0.0023429444" flag="0"/>
    </comp>
  </station>
  <station code="MG07" name="MG07" netid="CL" source="RESIF" insttype="40" lat="38.4155" lon="21.9488">
    <comp name="07.HHE">
      <acc value="0.0198028623" flag="0"/>
      <vel value="0.0241244011" flag="0"/>
      <psa03 value="0.0386525388" flag="0"/>
      <psa10 value="0.0397464189" flag="0"/>
      <psa30 value="0.0085176844" flag="0"/>
    </comp>
    <comp name="07.HHN">
      <acc value="0.0215619701" flag="0"/>
      <vel value="0.0201332783" flag="0"/>
      <psa03 value="0.0429273297" flag="0"/>
      <psa10 value="0.0494019690" flag="0"/>
      <psa30 value="0.0037602082" flag="0"/>
    </comp>
    <comp name="07.HHZ">
      <acc value="0.0127613417" flag="0"/>
      <vel value="0.0097583340" flag="0"/>
      <psa03 value="0.0296736811" flag="0"/>
      <psa10 value="0.0136003047" flag="0"/>
      <psa30 value="0.0024535498" flag="0"/>
    </comp>
  </station>
  <station code="PSAM" name="PSAM" netid="CL" source="RESIF" insttype="30" lat="38.3322" lon="22.1843">
    <comp name="00.HHE">
      <acc value="0.0105614687" flag="0"/>
      <vel value="0.0233082802" flag="0"/>
      <psa03 value="0.0228112319" flag="0"/>
      <psa10 value="0.0235012645" flag="0"/>
      <psa30 value="0.0056088862" flag="0"/>
    </comp>
    <comp name="00.HHN">
      <acc value="0.0088665080" flag="0"/>
      <vel value="0.0168145677" flag="0"/>
      <psa03 value="0.0247470937" flag="0"/>
      <psa10 value="0.0268799110" flag="0"/>
      <psa30 value="0.0044675913" flag="0"/>
    </comp>
    <comp name="00.HHZ">
      <acc value="0.0063029705" flag="0"/>
      <vel value="0.0064408148" flag="0"/>
      <psa03 value="0.0146371054" flag="0"/>
      <psa10 value="0.0110017353" flag="0"/>
      <psa30 value="0.0016688760" flag="0"/>
    </comp>
  </station>
  <station code="ROD3" name="ROD3" netid="CL" source="RESIF" insttype="30" lat="38.3081" lon="21.892">
    <comp name="00.HHE">
      <acc value="0.0356784208" flag="0"/>
      <vel value="0.0270420987" flag="0"/>
      <psa03 value="0.1767138912" flag="0"/>
      <psa10 value="0.0420440173" flag="0"/>
      <psa30 value="0.0067990727" flag="0"/>
    </comp>
    <comp name="00.HHN">
      <acc value="0.0315590259" flag="0"/>
      <vel value="0.0321268428" flag="0"/>
      <psa03 value="0.1083430091" flag="0"/>
      <psa10 value="0.0642215268" flag="0"/>
      <psa30 value="0.0095179111" flag="0"/>
    </comp>
    <comp name="00.HHZ">
      <acc value="0.0243556559" flag="0"/>
      <vel value="0.0168069372" flag="0"/>
      <psa03 value="0.0518494204" flag="0"/>
      <psa10 value="0.0452515687" flag="0"/>
      <psa30 value="0.0047963795" flag="0"/>
    </comp>
  </station>
  <station code="TRIZ" name="TRIZ" netid="CL" source="RESIF" insttype="generation" lat="38.3654" lon="22.0727">
    <comp name="00.HH2">
      <acc value="0.0071289768" flag="0"/>
      <vel value="0.0078709874" flag="0"/>
      <psa03 value="0.0157730675" flag="0"/>
      <psa10 value="0.0191338138" flag="0"/>
      <psa30 value="0.0035390088" flag="0"/>
    </comp>
    <comp name="00.HH3">
      <acc value="0.0089145749" flag="0"/>
      <vel value="0.0090940851" flag="0"/>
      <psa03 value="0.0288889632" flag="0"/>
      <psa10 value="0.0109865439" flag="0"/>
      <psa30 value="0.0030855386" flag="0"/>
    </comp>
    <comp name="00.HHZ">
      <acc value="0.0040635607" flag="0"/>
      <vel value="0.0048868316" flag="0"/>
      <psa03 value="0.0114225960" flag="0"/>
      <psa10 value="0.0126093161" flag="0"/>
      <psa30 value="0.0016608844" flag="0"/>
    </comp>
  </station>
  <station code="KALE" name="KALE" netid="HA" source="NOA" insttype="40," lat="38.3911" lon="22.1398">
    <comp name="--.HHE">
      <acc value="0.0139513666" flag="0"/>
      <vel value="0.0136908545" flag="0"/>
      <psa03 value="0.0294478790" flag="0"/>
      <psa10 value="0.0409757310" flag="0"/>
      <psa30 value="0.0032306041" flag="0"/>
    </comp>
    <comp name="--.HHN">
      <acc value="0.0114070546" flag="0"/>
      <vel value="0.0075983933" flag="0"/>
      <psa03 value="0.0226617244" flag="0"/>
      <psa10 value="0.0118147513" flag="0"/>
      <psa30 value="0.0025684297" flag="0"/>
    </comp>
    <comp name="--.HHZ">
      <acc value="0.0094400266" flag="0"/>
      <vel value="0.0112766961" flag="0"/>
      <psa03 value="0.0161619041" flag="0"/>
      <psa10 value="0.0133702655" flag="0"/>
      <psa30 value="0.0054264039" flag="0"/>
    </comp>
  </station>
  <station code="ITM" name="ITM" netid="HL" source="NOA" insttype="DR24" lat="37.1787" lon="21.9252">
    <comp name="--.HHE">
      <acc value="0.0253054120" flag="0"/>
      <vel value="0.0311131170" flag="0"/>
      <psa03 value="0.0594882178" flag="0"/>
      <psa10 value="0.0345946751" flag="0"/>
      <psa30 value="0.0089972775" flag="0"/>
    </comp>
    <comp name="--.HHN">
      <acc value="0.0283250445" flag="0"/>
      <vel value="0.0249701054" flag="0"/>
      <psa03 value="0.0691294369" flag="0"/>
      <psa10 value="0.0328427075" flag="0"/>
      <psa30 value="0.0107176956" flag="0"/>
    </comp>
    <comp name="--.HHZ">
      <acc value="0.0244184822" flag="0"/>
      <vel value="0.0279785364" flag="0"/>
      <psa03 value="0.0446548094" flag="0"/>
      <psa10 value="0.0356841254" flag="0"/>
      <psa30 value="0.0091057913" flag="0"/>
    </comp>
  </station>
  <station code="KLV" name="KLV" netid="HL" source="NOA" insttype="120" lat="38.0435" lon="22.1504">
    <comp name="--.HHE">
      <acc value="0.0068927869" flag="0"/>
      <vel value="0.0134363422" flag="0"/>
      <psa03 value="0.0189524550" flag="0"/>
      <psa10 value="0.0274708487" flag="0"/>
      <psa30 value="0.0038839760" flag="0"/>
    </comp>
    <comp name="--.HHN">
      <acc value="0.0073464466" flag="0"/>
      <vel value="0.0091799859" flag="0"/>
      <psa03 value="0.0192317929" flag="0"/>
      <psa10 value="0.0156645489" flag="0"/>
      <psa30 value="0.0047942959" flag="0"/>
    </comp>
    <comp name="--.HHZ">
      <acc value="0.0082416310" flag="0"/>
      <vel value="0.0135632584" flag="0"/>
      <psa03 value="0.0201587429" flag="0"/>
      <psa10 value="0.0274013496" flag="0"/>
      <psa30 value="0.0047013450" flag="0"/>
    </comp>
  </station>
  <station code="LXRA" name="LXRA" netid="HL" source="NOA" insttype="CMG-5" lat="38.2001" lon="20.4372">
    <comp name="00.HNE">
      <acc value="0.1034156282" flag="0"/>
      <vel value="0.0868629844" flag="0"/>
      <psa03 value="0.2085529344" flag="0"/>
      <psa10 value="0.1275295056" flag="0"/>
      <psa30 value="0.0190299502" flag="0"/>
    </comp>
    <comp name="00.HNN">
      <acc value="0.0986187422" flag="0"/>
      <vel value="0.0672691517" flag="0"/>
      <psa03 value="0.2793255977" flag="0"/>
      <psa10 value="0.1217742625" flag="0"/>
      <psa30 value="0.0268505518" flag="0"/>
    </comp>
    <comp name="00.HNZ">
      <acc value="0.0748588621" flag="0"/>
      <vel value="0.0351679609" flag="0"/>
      <psa03 value="0.0989931724" flag="0"/>
      <psa10 value="0.0553873856" flag="0"/>
      <psa30 value="0.0121334884" flag="0"/>
    </comp>
  </station>
  <station code="PATC" name="PATC" netid="HL" source="NOA" insttype="CMG-5" lat="38.2693" lon="21.76">
    <comp name="00.HNE">
      <acc value="0.0326780951" flag="0"/>
      <vel value="0.0518394537" flag="0"/>
      <psa03 value="0.0751930301" flag="0"/>
      <psa10 value="0.0790959235" flag="0"/>
      <psa30 value="0.0197476346" flag="0"/>
    </comp>
    <comp name="00.HNN">
      <acc value="0.0430784769" flag="0"/>
      <vel value="0.0585693427" flag="0"/>
      <psa03 value="0.0976236358" flag="0"/>
      <psa10 value="0.1111373557" flag="0"/>
      <psa30 value="0.0273433449" flag="0"/>
    </comp>
    <comp name="00.HNZ">
      <acc value="0.0195202354" flag="0"/>
      <vel value="0.0251093756" flag="0"/>
      <psa03 value="0.0528118150" flag="0"/>
      <psa10 value="0.0516217470" flag="0"/>
      <psa30 value="0.0054529396" flag="0"/>
    </comp>
  </station>
  <station code="RLS" name="RLS" netid="HL" source="NOA" insttype="120" lat="38.0559" lon="21.4647">
    <comp name="--.HHE">
      <acc value="0.0142242748" flag="0"/>
      <vel value="0.0180727622" flag="0"/>
      <psa03 value="0.0479884765" flag="0"/>
      <psa10 value="0.0308235900" flag="0"/>
      <psa30 value="0.0058660342" flag="0"/>
    </comp>
    <comp name="--.HHN">
      <acc value="0.0238434694" flag="0"/>
      <vel value="0.0239702135" flag="0"/>
      <psa03 value="0.0499226168" flag="0"/>
      <psa10 value="0.0332307047" flag="0"/>
      <psa30 value="0.0089793495" flag="0"/>
    </comp>
    <comp name="--.HHZ">
      <acc value="0.0109690540" flag="0"/>
      <vel value="0.0134297535" flag="0"/>
      <psa03 value="0.0257940167" flag="0"/>
      <psa10 value="0.0245332159" flag="0"/>
      <psa30 value="0.0060892054" flag="0"/>
    </comp>
  </station>
  <station code="VLS" name="VLS" netid="HL" source="NOA" insttype="120P," lat="38.1768" lon="20.5886">
    <comp name="--.HHE">
      <acc value="0.0719016278" flag="0"/>
      <vel value="0.0275329299" flag="0"/>
      <psa03 value="0.1066895494" flag="0"/>
      <psa10 value="0.0342037113" flag="0"/>
      <psa30 value="0.0027009981" flag="0"/>
    </comp>
    <comp name="--.HHN">
      <acc value="0.0536662800" flag="0"/>
      <vel value="0.0313744355" flag="0"/>
      <psa03 value="0.0879359923" flag="0"/>
      <psa10 value="0.0288586881" flag="0"/>
      <psa30 value="0.0029181966" flag="0"/>
    </comp>
    <comp name="--.HHZ">
      <acc value="0.0406908348" flag="0"/>
      <vel value="0.0146179781" flag="0"/>
      <psa03 value="0.0704275739" flag="0"/>
      <psa10 value="0.0189603389" flag="0"/>
      <psa30 value="0.0032989796" flag="0"/>
    </comp>
  </station>
  <station code="AMT" name="AMT" netid="HP" source="NOA" insttype="CMG-3T," lat="37.5324" lon="21.7089">
    <comp name="00.HHE">
      <acc value="0.0791447186" flag="0"/>
      <vel value="0.0697814685" flag="0"/>
      <psa03 value="0.1443170772" flag="0"/>
      <psa10 value="0.1362205233" flag="0"/>
      <psa30 value="0.0144007242" flag="0"/>
    </comp>
    <comp name="00.HHN">
      <acc value="0.0728703962" flag="0"/>
      <vel value="0.0626197830" flag="0"/>
      <psa03 value="0.1400249403" flag="0"/>
      <psa10 value="0.1126555375" flag="0"/>
      <psa30 value="0.0146149923" flag="0"/>
    </comp>
    <comp name="00.HHZ">
      <acc value="0.0495001197" flag="0"/>
      <vel value="0.0345065801" flag="0"/>
      <psa03 value="0.1106486076" flag="0"/>
      <psa10 value="0.0474904272" flag="0"/>
      <psa30 value="0.0072332706" flag="0"/>
    </comp>
  </station>
  <station code="ANX" name="ANX" netid="HP" source="NOA" insttype="120" lat="38.5933" lon="21.9209">
    <comp name="--.HHE">
      <acc value="0.0170720614" flag="0"/>
      <vel value="0.0171262771" flag="0"/>
      <psa03 value="0.0296881043" flag="0"/>
      <psa10 value="0.0204084320" flag="0"/>
      <psa30 value="0.0033195775" flag="0"/>
    </comp>
    <comp name="--.HHN">
      <acc value="0.0123639162" flag="0"/>
      <vel value="0.0158173195" flag="0"/>
      <psa03 value="0.0289142994" flag="0"/>
      <psa10 value="0.0238554660" flag="0"/>
      <psa30 value="0.0031014133" flag="0"/>
    </comp>
    <comp name="--.HHZ">
      <acc value="0.0091924049" flag="0"/>
      <vel value="0.0093518981" flag="0"/>
      <psa03 value="0.0262611161" flag="0"/>
      <psa10 value="0.0136661478" flag="0"/>
      <psa30 value="0.0039497919" flag="0"/>
    </comp>
  </station>
  <station code="DRO" name="DRO" netid="HP" source="NOA" insttype="120P," lat="37.952" lon="21.71">
    <comp name="--.HHE">
      <acc value="0.0545267673" flag="0"/>
      <vel value="0.0528680514" flag="0"/>
      <psa03 value="0.1336840298" flag="0"/>
      <psa10 value="0.0688173865" flag="0"/>
      <psa30 value="0.0081334807" flag="0"/>
    </comp>
    <comp name="--.HHN">
      <acc value="0.0555064399" flag="0"/>
      <vel value="0.0422633826" flag="0"/>
      <psa03 value="0.1777949501" flag="0"/>
      <psa10 value="0.0682510217" flag="0"/>
      <psa30 value="0.0074467128" flag="0"/>
    </comp>
    <comp name="--.HHZ">
      <acc value="0.0289564410" flag="0"/>
      <vel value="0.0223901786" flag="0"/>
      <psa03 value="0.0589027658" flag="0"/>
      <psa10 value="0.0449599312" flag="0"/>
      <psa30 value="0.0071077557" flag="0"/>
    </comp>
  </station>
  <station code="FSK" name="FSK" netid="HP" source="NOA" insttype="40," lat="38.4593" lon="20.5623">
    <comp name="--.HHE">
      <acc value="0.0234947279" flag="0"/>
      <vel value="0.0220343078" flag="0"/>
