<?xml version="1.0" encoding="UTF-8" standalone="yes"?>
<!DOCTYPE earthquake SYSTEM "stationlist.dtd">
<stationlist created="" xmlns="ch.ethz.sed.shakemap.usgs.xml">
  <station code="ARPRA" name="ARPRA" netid="KO" insttype="CMG-5T" lat="39.0929" lon="38.3356">
    <comp name="--.HNE">
      <acc value="0.0164564654" flag="0"/>
      <vel value="0.0072767674" flag="0"/>
      <psa03 value="0.0438818728" flag="0"/>
      <psa10 value="0.0044948629" flag="0"/>
      <psa30 value="0.0009667760" flag="0"/>
    </comp>
    <comp name="--.HNZ">
      <acc value="0.0090588498" flag="0"/>
      <vel value="0.0037463296" flag="0"/>
      <psa03 value="0.0229393716" flag="0"/>
      <psa10 value="0.0030468365" flag="0"/>
      <psa30 value="0.0002929528" flag="0"/>
    </comp>
    <comp name="--.HNN">
      <acc value="0.0141322014" flag="0"/>
      <vel value="0.0066617844" flag="0"/>
      <psa03 value="0.0657806490" flag="0"/>
      <psa10 value="0.0063026244" flag="0"/>
      <psa30 value="0.0004064245" flag="0"/>
    </comp>
  </station>
  <station code="URFA" name="URFA" netid="KO" insttype="CMG-3ESP" lat="37.4409" lon="38.8213">
    <comp name="--.HHN">
      <acc value="0.0188420240" flag="0"/>
      <vel value="0.0069138483" flag="0"/>
      <psa03 value="0.0316259030" flag="0"/>
      <psa10 value="0.0109642995" flag="0"/>
      <psa30 value="0.0004823204" flag="0"/>
    </comp>
    <comp name="--.HHE">
      <acc value="0.0348300595" flag="0"/>
      <vel value="0.0115390423" flag="0"/>
      <psa03 value="0.0262703389" flag="0"/>
      <psa10 value="0.0045603860" flag="0"/>
      <psa30 value="0.0005397321" flag="0"/>
    </comp>
    <comp name="--.HHZ">
      <acc value="0.0140220179" flag="0"/>
      <vel value="0.0047531585" flag="0"/>
      <psa03 value="0.0236129582" flag="0"/>
      <psa10 value="0.0043117584" flag="0"/>
      <psa30 value="0.0002858719" flag="0"/>
    </comp>
  </station>
</stationlist>
