<?xml version="1.0" encoding="UTF-8" standalone="yes"?>
<!DOCTYPE earthquake SYSTEM "stationlist.dtd">
<stationlist created="" xmlns="ch.ethz.sed.shakemap.usgs.xml">
  <station code="KIZO" name="KIZO" netid="KO" insttype="CMG-5T" lat="40.9005" lon="35.9334">
    <comp name="--.HNE">
      <acc value="0.0790044773" flag="0"/>
      <vel value="0.0205011504" flag="0"/>
      <psa03 value="0.0569076694" flag="0"/>
      <psa10 value="0.0085869235" flag="0"/>
      <psa30 value="0.0005060764" flag="0"/>
    </comp>
    <comp name="--.HNN">
      <acc value="0.0770025167" flag="0"/>
      <vel value="0.0168284822" flag="0"/>
      <psa03 value="0.0583771418" flag="0"/>
      <psa10 value="0.0061865170" flag="0"/>
      <psa30 value="0.0007580603" flag="0"/>
    </comp>
    <comp name="--.HNZ">
      <acc value="0.0467294430" flag="0"/>
      <vel value="0.0081398086" flag="0"/>
      <psa03 value="0.0166287505" flag="0"/>
      <psa10 value="0.0047194051" flag="0"/>
      <psa30 value="0.0003697566" flag="0"/>
    </comp>
  </station>
  <station code="KMON" name="KMON" netid="KO" insttype="CMG-5T" lat="41.3738" lon="33.7839">
    <comp name="--.HNZ">
      <acc value="0.0278798009" flag="0"/>
      <vel value="0.0101721096" flag="0"/>
      <psa03 value="0.0609475222" flag="0"/>
      <psa10 value="0.0113491496" flag="0"/>
      <psa30 value="0.0005524534" flag="0"/>
    </comp>
    <comp name="--.HNE">
      <acc value="0.0498132414" flag="0"/>
      <vel value="0.0271966580" flag="0"/>
      <psa03 value="0.1122995949" flag="0"/>
      <psa10 value="0.0231358236" flag="0"/>
      <psa30 value="0.0011933451" flag="0"/>
    </comp>
    <comp name="--.HNN">
      <acc value="0.0357183468" flag="0"/>
      <vel value="0.0262109618" flag="0"/>
      <psa03 value="0.0863164785" flag="0"/>
      <psa10 value="0.0289340859" flag="0"/>
      <psa30 value="0.0015222282" flag="0"/>
    </comp>
  </station>
  <station code="TOS" name="TOS" netid="KO" insttype="CMG-5T" lat="41.0362" lon="34.0226">
    <comp name="--.HNE">
      <acc value="0.0448668755" flag="0"/>
      <vel value="0.0148624639" flag="0"/>
      <psa03 value="0.0786074087" flag="0"/>
      <psa10 value="0.0080417308" flag="0"/>
      <psa30 value="0.0007654740" flag="0"/>
    </comp>
    <comp name="--.HNN">
      <acc value="0.0670113183" flag="0"/>
      <vel value="0.0252219757" flag="0"/>
      <psa03 value="0.1047690242" flag="0"/>
      <psa10 value="0.0120814967" flag="0"/>
      <psa30 value="0.0023664422" flag="0"/>
    </comp>
    <comp name="--.HNZ">
      <acc value="0.0518143549" flag="0"/>
      <vel value="0.0154920312" flag="0"/>
      <psa03 value="0.0398769030" flag="0"/>
      <psa10 value="0.0085783795" flag="0"/>
      <psa30 value="0.0007624308" flag="0"/>
    </comp>
  </station>
  <station code="YARM" name="YARM" netid="KO" insttype="CMG-5T" lat="40.9231" lon="35.8266">
    <comp name="--.HNE">
      <acc value="0.1615155878" flag="0"/>
      <vel value="0.0322345081" flag="0"/>
      <psa03 value="0.1205817956" flag="0"/>
      <psa10 value="0.0195267972" flag="0"/>
      <psa30 value="0.0009303478" flag="0"/>
    </comp>
    <comp name="--.HNN">
      <acc value="0.0959624465" flag="0"/>
      <vel value="0.0310239712" flag="0"/>
      <psa03 value="0.1467584873" flag="0"/>
      <psa10 value="0.0163995789" flag="0"/>
      <psa30 value="0.0012030611" flag="0"/>
    </comp>
    <comp name="--.HNZ">
      <acc value="0.0614211675" flag="0"/>
      <vel value="0.0138675691" flag="0"/>
      <psa03 value="0.0698151350" flag="0"/>
      <psa10 value="0.0061403512" flag="0"/>
      <psa30 value="0.0005268051" flag="0"/>
    </comp>
  </station>
  <station code="YOZ" name="YOZ" netid="KO" insttype="360s," lat="39.6376" lon="35.3152">
    <comp name="--.HHE">
      <acc value="0.0244433425" flag="0"/>
      <vel value="0.0143622458" flag="0"/>
      <psa03 value="0.0576723310" flag="0"/>
      <psa10 value="0.0110687719" flag="0"/>
      <psa30 value="0.0007069696" flag="0"/>
    </comp>
    <comp name="--.HHN">
      <acc value="0.0228974402" flag="0"/>
      <vel value="0.0125911772" flag="0"/>
      <psa03 value="0.0429994327" flag="0"/>
      <psa10 value="0.0074753560" flag="0"/>
      <psa30 value="0.0005839187" flag="0"/>
    </comp>
    <comp name="--.HHZ">
      <acc value="0.0141017397" flag="0"/>
      <vel value="0.0068187955" flag="0"/>
      <psa03 value="0.0414921840" flag="0"/>
      <psa10 value="0.0043645086" flag="0"/>
      <psa30 value="0.0003174181" flag="0"/>
    </comp>
  </station>
</stationlist>
