<stationlist created="1778136536">
	<station code="ERBG" name="ERBG" netid="KO" source="Bogazici University Kandilli Observatory And Earthquake Research Institute (KOERI)" insttype="" lat="40.712" lon="36.6768">
		<comp name="--.HNE" depth="0.0">
			<acc value="0.0112271832647331" flag="0"/>
			<vel value="0.0100272739025004" flag="0"/>
			<psa03 value="0.00970905883616497" flag="0"/>
			<psa10 value="0.0186964258795772" flag="0"/>
			<psa30 value="0.00116777159273689" flag="0"/>
		</comp>
		<comp name="--.HNN" depth="0.0">
			<acc value="0.00843451583725177" flag="0"/>
			<vel value="0.00574678340767605" flag="0"/>
			<psa03 value="0.00957483221631016" flag="0"/>
			<psa10 value="0.011722010711921" flag="0"/>
			<psa30 value="0.000971800727748862" flag="0"/>
		</comp>
		<comp name="--.HNZ" depth="0.0">
			<acc value="0.00522664123249596" flag="0"/>
			<vel value="0.00564129228158476" flag="0"/>
			<psa03 value="0.00635339333979459" flag="0"/>
			<psa10 value="0.0111824197001047" flag="0"/>
			<psa30 value="0.000645182619435479" flag="0"/>
		</comp>
	</station>
	<station code="KMON" name="KMON" netid="KO" source="Bogazici University Kandilli Observatory And Earthquake Research Institute (KOERI)" insttype="" lat="41.3738" lon="33.7839">
		<comp name="--.HNE" depth="0.0">
			<acc value="0.0501058256609392" flag="0"/>
			<vel value="0.0273587575506362" flag="0"/>
			<psa03 value="0.112123969785389" flag="0"/>
			<psa10 value="0.0231540919249556" flag="0"/>
			<psa30 value="0.00121698802001699" flag="0"/>
		</comp>
		<comp name="--.HNN" depth="0.0">
			<acc value="0.035722355751448" flag="0"/>
			<vel value="0.0262995540920569" flag="0"/>
			<psa03 value="0.0858602945004635" flag="0"/>
			<psa10 value="0.029017110680214" flag="0"/>
			<psa30 value="0.00147604539633678" flag="0"/>
		</comp>
		<comp name="--.HNZ" depth="0.0">
			<acc value="0.0278518105955846" flag="0"/>
			<vel value="0.010226154703017" flag="0"/>
			<psa03 value="0.061252080860414" flag="0"/>
			<psa10 value="0.0113757060326956" flag="0"/>
			<psa30 value="0.000596413614221562" flag="0"/>
		</comp>
	</station>
	<station code="SAFT" name="SAFT" netid="KO" source="Bogazici University Kandilli Observatory And Earthquake Research Institute (KOERI)" insttype="" lat="41.2398" lon="32.6871">
		<comp name="--.HNE" depth="0.0">
			<acc value="0.00588745492566229" flag="0"/>
			<vel value="0.00281180801115496" flag="0"/>
			<psa03 value="0.0191944066392386" flag="0"/>
			<psa10 value="0.00215836404726543" flag="0"/>
			<psa30 value="0.000455475663374006" flag="0"/>
		</comp>
		<comp name="--.HNN" depth="0.0">
			<acc value="0.0078798536032905" flag="0"/>
			<vel value="0.00256220373225452" flag="0"/>
			<psa03 value="0.01449647494432" flag="0"/>
			<psa10 value="0.00269795505908179" flag="0"/>
			<psa30 value="0.000534669369088347" flag="0"/>
		</comp>
		<comp name="--.HNZ" depth="0.0">
			<acc value="0.00396123913689688" flag="0"/>
			<vel value="0.00167866923384439" flag="0"/>
			<psa03 value="0.00970905883616497" flag="0"/>
			<psa10 value="0.00228319480373041" flag="0"/>
			<psa30 value="0.000453685975109275" flag="0"/>
		</comp>
	</station>
	<station code="SINP" name="SINP" netid="KO" source="Bogazici University Kandilli Observatory And Earthquake Research Institute (KOERI)" insttype="" lat="41.9824" lon="35.0956">
		<comp name="--.HNE" depth="0.0">
			<acc value="0.0621170160218279" flag="0"/>
			<vel value="0.0384585553436859" flag="0"/>
			<psa03 value="0.0924373988733495" flag="0"/>
			<psa10 value="0.0386653201153781" flag="0"/>
			<psa30 value="0.00314850907972778" flag="0"/>
		</comp>
		<comp name="--.HNN" depth="0.0">
			<acc value="0.0683857769984638" flag="0"/>
			<vel value="0.052539522349488" flag="0"/>
			<psa03 value="0.133510744548923" flag="0"/>
			<psa10 value="0.0401874499845317" flag="0"/>
			<psa30 value="0.00235254522398873" flag="0"/>
		</comp>
		<comp name="--.HNZ" depth="0.0">
			<acc value="0.0277008398558795" flag="0"/>
			<vel value="0.0120910281539463" flag="0"/>
			<psa03 value="0.081162362805545" flag="0"/>
			<psa10 value="0.0149192887968627" flag="0"/>
			<psa30 value="0.00243934510482818" flag="0"/>
		</comp>
	</station>
	<station code="TOS" name="TOS" netid="KO" source="Bogazici University Kandilli Observatory And Earthquake Research Institute (KOERI)" insttype="" lat="41.0362" lon="34.0226">
		<comp name="--.HNE" depth="0.0">
			<acc value="0.0453677243963507" flag="0"/>
			<vel value="0.0149744727099715" flag="0"/>
			<psa03 value="0.0789699946812497" flag="0"/>
			<psa10 value="0.0080254096011194" flag="0"/>
			<psa30 value="0.000812965894253998" flag="0"/>
		</comp>
		<comp name="--.HNN" depth="0.0">
			<acc value="0.0655280873963459" flag="0"/>
			<vel value="0.0253658513570855" flag="0"/>
			<psa03 value="0.107873460156653" flag="0"/>
			<psa10 value="0.0120683153911464" flag="0"/>
			<psa30 value="0.00259952220452159" flag="0"/>
		</comp>
		<comp name="--.HNZ" depth="0.0">
			<acc value="0.0508316285704389" flag="0"/>
			<vel value="0.015682495500267" flag="0"/>
			<psa03 value="0.0409391190557187" flag="0"/>
			<psa10 value="0.00862137579327478" flag="0"/>
			<psa30 value="0.000814308160452546" flag="0"/>
		</comp>
	</station>
	<station code="YARM" name="YARM" netid="KO" source="Bogazici University Kandilli Observatory And Earthquake Research Institute (KOERI)" insttype="" lat="40.9231" lon="35.8266">
		<comp name="--.HNE" depth="0.0">
			<acc value="0.159866259620219" flag="0"/>
			<vel value="0.0328701662366087" flag="0"/>
			<psa03 value="0.122325192894355" flag="0"/>
			<psa10 value="0.0196225895565754" flag="0"/>
			<psa30 value="0.000968221351219401" flag="0"/>
		</comp>
		<comp name="--.HNN" depth="0.0">
			<acc value="0.0966016646262569" flag="0"/>
			<vel value="0.0314203258526447" flag="0"/>
			<psa03 value="0.149931134377829" flag="0"/>
			<psa10 value="0.0164373918674207" flag="0"/>
			<psa30 value="0.00124070138952468" flag="0"/>
		</comp>
		<comp name="--.HNZ" depth="0.0">
			<acc value="0.0606377846595882" flag="0"/>
			<vel value="0.0141726124835131" flag="0"/>
			<psa03 value="0.070961139696579" flag="0"/>
			<psa10 value="0.00616905544852731" flag="0"/>
			<psa30 value="0.000588807439096456" flag="0"/>
		</comp>
	</station>
</stationlist>
