<stationlist created="1778550957">
	<station code="0904" name="0904" netid="TK" source="Turkish National Strong Motion Network (TNSMN)" insttype="" lat="37.85716" lon="28.05025">
		<comp name="00.HNE" depth="None">
			<acc value="0.187486456089037" flag="0"/>
			<vel value="0.230778124524289" flag="0"/>
			<psa03 value="0.538248745617809" flag="0"/>
			<psa10 value="0.331800150683912" flag="0"/>
			<psa30 value="0.0758859143790522" flag="0"/>
		</comp>
		<comp name="00.HNN" depth="None">
			<acc value="0.237674925721213" flag="0"/>
			<vel value="0.222195135854761" flag="0"/>
			<psa03 value="0.529389788707392" flag="0"/>
			<psa10 value="0.531613923798386" flag="0"/>
			<psa30 value="0.0482365729551588" flag="0"/>
		</comp>
		<comp name="00.HNZ" depth="None">
			<acc value="0.22174753855045" flag="0"/>
			<vel value="0.173682285494794" flag="0"/>
			<psa03 value="0.534132462608928" flag="0"/>
			<psa10 value="0.358654870518265" flag="0"/>
			<psa30 value="0.0442679392281181" flag="0"/>
		</comp>
	</station>
	<station code="0908" name="0908" netid="TK" source="Turkish National Strong Motion Network (TNSMN)" insttype="" lat="37.91333" lon="28.34308">
		<comp name="00.HNE" depth="None">
			<acc value="0.472084220002716" flag="0"/>
			<vel value="0.526640108891409" flag="0"/>
			<psa03 value="0.979720098320297" flag="0"/>
			<psa10 value="0.794237701407722" flag="0"/>
			<psa30 value="0.166126023485378" flag="0"/>
		</comp>
		<comp name="00.HNN" depth="None">
			<acc value="0.516889411125305" flag="0"/>
			<vel value="0.472235516332303" flag="0"/>
			<psa03 value="0.757932980113524" flag="0"/>
			<psa10 value="0.864702650032904" flag="0"/>
			<psa30 value="0.253230598751896" flag="0"/>
		</comp>
		<comp name="00.HNZ" depth="None">
			<acc value="0.2228960448019" flag="0"/>
			<vel value="0.331256584542736" flag="0"/>
			<psa03 value="0.41914499159997" flag="0"/>
			<psa10 value="0.532886392154609" flag="0"/>
			<psa30 value="0.109237650036444" flag="0"/>
		</comp>
	</station>
	<station code="0909" name="0909" netid="TK" source="Turkish National Strong Motion Network (TNSMN)" insttype="" lat="37.88405" lon="28.15056">
		<comp name="00.HNE" depth="None">
			<acc value="0.21152165704177" flag="0"/>
			<vel value="0.344342653578566" flag="0"/>
			<psa03 value="0.518830627945479" flag="0"/>
			<psa10 value="0.432905009823353" flag="0"/>
			<psa30 value="0.153711403415006" flag="0"/>
		</comp>
		<comp name="00.HNN" depth="None">
			<acc value="0.223804687784929" flag="0"/>
			<vel value="0.283933020057267" flag="0"/>
			<psa03 value="0.455072983514442" flag="0"/>
			<psa10 value="0.466073749855676" flag="0"/>
			<psa30 value="0.148864032749983" flag="0"/>
		</comp>
		<comp name="00.HNZ" depth="None">
			<acc value="0.256249772933851" flag="0"/>
			<vel value="0.316033000049975" flag="0"/>
			<psa03 value="0.403216766043865" flag="0"/>
			<psa10 value="0.417961560234916" flag="0"/>
			<psa30 value="0.0588453975664172" flag="0"/>
		</comp>
	</station>
	<station code="2007" name="2007" netid="TK" source="Turkish National Strong Motion Network (TNSMN)" insttype="" lat="37.93252" lon="28.92294">
		<comp name="00.HNE" depth="None">
			<acc value="0.214720187869986" flag="0"/>
			<vel value="0.372237247624699" flag="0"/>
			<psa03 value="0.425587869353001" flag="0"/>
			<psa10 value="0.4696576006058" flag="0"/>
			<psa30 value="0.125078628289643" flag="0"/>
		</comp>
		<comp name="00.HNN" depth="None">
			<acc value="0.301312953530978" flag="0"/>
			<vel value="0.333038258030892" flag="0"/>
			<psa03 value="0.607151743809948" flag="0"/>
			<psa10 value="0.435735849236091" flag="0"/>
			<psa30 value="0.137793021144358" flag="0"/>
		</comp>
		<comp name="00.HNZ" depth="None">
			<acc value="0.0902684159021121" flag="0"/>
			<vel value="0.133760857787026" flag="0"/>
			<psa03 value="0.146128046815276" flag="0"/>
			<psa10 value="0.214435078815259" flag="0"/>
			<psa30 value="0.0437355069693606" flag="0"/>
		</comp>
	</station>
	<station code="4802" name="4802" netid="TK" source="Turkish National Strong Motion Network (TNSMN)" insttype="" lat="37.03304" lon="27.43997">
		<comp name="00.HNE" depth="None">
			<acc value="1.11225833646781" flag="0"/>
			<vel value="0.650918836062246" flag="0"/>
			<psa03 value="3.32805955488691" flag="0"/>
			<psa10 value="0.313401707900412" flag="0"/>
			<psa30 value="0.0371051593705989" flag="0"/>
		</comp>
		<comp name="00.HNN" depth="None">
			<acc value="0.722145775450749" flag="0"/>
			<vel value="0.447162611257186" flag="0"/>
			<psa03 value="1.40571064753286" flag="0"/>
			<psa10 value="0.399623519430352" flag="0"/>
			<psa30 value="0.0519108029626512" flag="0"/>
		</comp>
		<comp name="00.HNZ" depth="None">
			<acc value="0.437858050408149" flag="0"/>
			<vel value="0.203632790154947" flag="0"/>
			<psa03 value="1.07121791085466" flag="0"/>
			<psa10 value="0.17670397597407" flag="0"/>
			<psa30 value="0.0339436750509519" flag="0"/>
		</comp>
	</station>
</stationlist>
