<?xml version="1.0" encoding="UTF-8" standalone="yes"?>
<!DOCTYPE earthquake SYSTEM "stationlist.dtd">
<stationlist created="" xmlns="ch.ethz.sed.shakemap.usgs.xml">
  <station code="KOPR" name="KOPR" netid="KO" insttype="120s," lat="39.9917" lon="41.8535">
    <comp name="--.HHE">
      <acc value="0.0025864318" flag="0"/>
      <vel value="0.0023401800" flag="0"/>
      <psa03 value="0.0084059095" flag="0"/>
      <psa10 value="0.0031139544" flag="0"/>
      <psa30 value="0.0008021606" flag="0"/>
    </comp>
    <comp name="--.HHN">
      <acc value="0.0031323773" flag="0"/>
      <vel value="0.0022960185" flag="0"/>
      <psa03 value="0.0068074635" flag="0"/>
      <psa10 value="0.0032470410" flag="0"/>
      <psa30 value="0.0003003899" flag="0"/>
    </comp>
    <comp name="--.HHZ">
      <acc value="0.0015828913" flag="0"/>
      <vel value="0.0015013690" flag="0"/>
      <psa03 value="0.0037099029" flag="0"/>
      <psa10 value="0.0020561592" flag="0"/>
      <psa30 value="0.0007655591" flag="0"/>
    </comp>
  </station>
</stationlist>
