<?xml version="1.0" encoding="UTF-8" standalone="yes"?>
<!DOCTYPE earthquake SYSTEM "stationlist.dtd">
<stationlist created="" xmlns="ch.ethz.sed.shakemap.usgs.xml">
  <station code="KARP" name="KARP" netid="GE" insttype="STS-2/N" lat="35.5471" lon="27.1611">
    <comp name="--.HHZ">
      <acc value="0.0193607741" flag="0"/>
      <vel value="0.0076635932" flag="0"/>
      <psa03 value="0.0309447805" flag="0"/>
      <psa10 value="0.0063595907" flag="0"/>
      <psa30 value="0.0005347866" flag="0"/>
    </comp>
    <comp name="--.HHN">
      <acc value="0.0273748710" flag="0"/>
      <vel value="0.0096457879" flag="0"/>
      <psa03 value="0.0320364456" flag="0"/>
      <psa10 value="0.0098520542" flag="0"/>
      <psa30 value="0.0006887053" flag="0"/>
    </comp>
    <comp name="--.HHE">
      <acc value="0.0264490624" flag="0"/>
      <vel value="0.0125460286" flag="0"/>
      <psa03 value="0.0505525799" flag="0"/>
      <psa10 value="0.0113602646" flag="0"/>
      <psa30 value="0.0006678112" flag="0"/>
    </comp>
  </station>
  <station code="ARG" name="ARG" netid="HL" insttype="LE3D20_DR24" lat="36.2136" lon="28.1212">
    <comp name="--.HHZ">
      <acc value="0.0080832399" flag="0"/>
      <vel value="0.0039026728" flag="0"/>
      <psa03 value="0.0146660674" flag="0"/>
      <psa10 value="0.0084597656" flag="0"/>
      <psa30 value="0.0005450920" flag="0"/>
    </comp>
    <comp name="--.HHE">
      <acc value="0.0282156434" flag="0"/>
      <vel value="0.0087836097" flag="0"/>
      <psa03 value="0.0394245138" flag="0"/>
      <psa10 value="0.0078176771" flag="0"/>
      <psa30 value="0.0006873556" flag="0"/>
    </comp>
    <comp name="--.HHN">
      <acc value="0.0188059496" flag="0"/>
      <vel value="0.0111410575" flag="0"/>
      <psa03 value="0.0354639056" flag="0"/>
      <psa10 value="0.0097794690" flag="0"/>
      <psa30 value="0.0006969790" flag="0"/>
    </comp>
  </station>
  <station code="KARP" name="KARP" netid="HL" insttype="120" lat="35.5471" lon="27.1611">
    <comp name="--.HHN">
      <acc value="0.0258004113" flag="0"/>
      <vel value="0.0095516761" flag="0"/>
      <psa03 value="0.0313643508" flag="0"/>
      <psa10 value="0.0097835337" flag="0"/>
      <psa30 value="0.0006857328" flag="0"/>
    </comp>
    <comp name="--.HHE">
      <acc value="0.0253887404" flag="0"/>
      <vel value="0.0120785581" flag="0"/>
      <psa03 value="0.0490435161" flag="0"/>
      <psa10 value="0.0112705316" flag="0"/>
      <psa30 value="0.0006609573" flag="0"/>
    </comp>
    <comp name="--.HHZ">
      <acc value="0.0183578265" flag="0"/>
      <vel value="0.0075249739" flag="0"/>
      <psa03 value="0.0301466525" flag="0"/>
      <psa10 value="0.0063273280" flag="0"/>
      <psa30 value="0.0005329974" flag="0"/>
    </comp>
  </station>
  <station code="NISR" name="NISR" netid="HL" insttype="65535" lat="36.6106" lon="27.131">
    <comp name="--.HHN">
      <acc value="0.7179269663" flag="0"/>
      <vel value="0.1809043241" flag="0"/>
      <psa03 value="0.5136876626" flag="0"/>
      <psa10 value="0.0874058171" flag="0"/>
      <psa30 value="0.0831053007" flag="0"/>
    </comp>
    <comp name="--.HHZ">
      <acc value="0.4170163311" flag="0"/>
      <vel value="0.0553344132" flag="0"/>
      <psa03 value="0.1824717926" flag="0"/>
      <psa10 value="0.0583020707" flag="0"/>
      <psa30 value="0.0038653883" flag="0"/>
    </comp>
    <comp name="--.HHE">
      <acc value="0.5861842158" flag="0"/>
      <vel value="0.1411364723" flag="0"/>
      <psa03 value="0.7092298069" flag="0"/>
      <psa10 value="0.1759577141" flag="0"/>
      <psa30 value="0.0107229764" flag="0"/>
    </comp>
  </station>
</stationlist>
