<stationlist created="1778136586">
	<station code="KRL1" name="KRL1" netid="HI" source="ITSAK Strong Motion Network" insttype="" lat="37.7951" lon="26.7065">
		<comp name="--.HNE" depth="0.0">
			<acc value="0.00627867173066727" flag="0"/>
			<vel value="0.00366268593737564" flag="0"/>
			<psa03 value="0.0110050558538528" flag="0"/>
			<psa10 value="0.00465571873102603" flag="0"/>
			<psa30 value="0.000764805247928626" flag="0"/>
		</comp>
		<comp name="--.HNN" depth="0.0">
			<acc value="0.00277471449856172" flag="0"/>
			<vel value="0.00310314520613759" flag="0"/>
			<psa03 value="0.00849169860107793" flag="0"/>
			<psa10 value="0.00586000038376793" flag="0"/>
			<psa30 value="0.000406788588372539" flag="0"/>
		</comp>
		<comp name="--.HNZ" depth="0.0">
			<acc value="0.00197517993220331" flag="0"/>
			<vel value="0.00143297436167807" flag="0"/>
			<psa03 value="0.00496011569269903" flag="0"/>
			<psa10 value="0.0026890068835076" flag="0"/>
			<psa30 value="0.000227477152578398" flag="0"/>
		</comp>
	</station>
	<station code="KSS1" name="KSS1" netid="HI" source="ITSAK Strong Motion Network" insttype="" lat="35.4189" lon="26.9207">
		<comp name="--.HNE" depth="0.0">
			<acc value="0.00799740172348635" flag="0"/>
			<vel value="0.00375041935702329" flag="0"/>
			<psa03 value="0.0190853033701826" flag="0"/>
			<psa10 value="0.00225885010648483" flag="0"/>
			<psa30 value="0.000273515306546616" flag="0"/>
		</comp>
		<comp name="--.HNN" depth="0.0">
			<acc value="0.00702246631009018" flag="0"/>
			<vel value="0.00274294793921484" flag="0"/>
			<psa03 value="0.0200292265775625" flag="0"/>
			<psa10 value="0.00257708915700992" flag="0"/>
			<psa30 value="0.000257148805679667" flag="0"/>
		</comp>
		<comp name="--.HNZ" depth="0.0">
			<acc value="0.00550791857091859" flag="0"/>
			<vel value="0.00200460166113748" flag="0"/>
			<psa03 value="0.00496748239165083" flag="0"/>
			<psa10 value="0.00193018395896331" flag="0"/>
			<psa30 value="0.000153581788623154" flag="0"/>
		</comp>
	</station>
	<station code="NAX1" name="NAX1" netid="HI" source="ITSAK Strong Motion Network" insttype="" lat="37.101394" lon="25.374103">
		<comp name="--.HNE" depth="0.0">
			<acc value="0.00330548141316851" flag="0"/>
			<vel value="0.00166511760327127" flag="0"/>
			<psa03 value="0.00534149610050666" flag="0"/>
			<psa10 value="0.00209853167367382" flag="0"/>
			<psa30 value="0.000139499189053248" flag="0"/>
		</comp>
		<comp name="--.HNN" depth="0.0">
			<acc value="0.00378795229826456" flag="0"/>
			<vel value="0.00225095003495547" flag="0"/>
			<psa03 value="0.00934570830001033" flag="0"/>
			<psa10 value="0.00178977219643582" flag="0"/>
			<psa30 value="0.00027430134820149" flag="0"/>
		</comp>
		<comp name="--.HNZ" depth="0.0">
			<acc value="0.00206728194453189" flag="0"/>
			<vel value="0.00165093256889819" flag="0"/>
			<psa03 value="0.00637160242595351" flag="0"/>
			<psa10 value="0.00314893922676759" flag="0"/>
			<psa30 value="0.000145274194014779" flag="0"/>
		</comp>
	</station>
	<station code="RDI1" name="RDI1" netid="HI" source="ITSAK Strong Motion Network" insttype="" lat="36.4514" lon="28.224">
		<comp name="--.HNE" depth="0.0">
			<acc value="0.00739419755508051" flag="0"/>
			<vel value="0.00756315725438623" flag="0"/>
			<psa03 value="0.0193445458041168" flag="0"/>
			<psa10 value="0.01130448542918" flag="0"/>
			<psa30 value="0.00202832728339445" flag="0"/>
		</comp>
		<comp name="--.HNN" depth="0.0">
			<acc value="0.00733273704184585" flag="0"/>
			<vel value="0.00859733211946174" flag="0"/>
			<psa03 value="0.0162345780652816" flag="0"/>
			<psa10 value="0.0145296568934598" flag="0"/>
			<psa30 value="0.00155912703451512" flag="0"/>
		</comp>
		<comp name="--.HNZ" depth="0.0">
			<acc value="0.005325642286065" flag="0"/>
			<vel value="0.00411836294462202" flag="0"/>
			<psa03 value="0.0114744150715909" flag="0"/>
			<psa10 value="0.00735102228163365" flag="0"/>
			<psa30 value="0.000666273147744839" flag="0"/>
		</comp>
	</station>
	<station code="SIT2" name="SIT2" netid="HI" source="ITSAK Strong Motion Network" insttype="" lat="35.2059" lon="26.107">
		<comp name="--.HNE" depth="0.0">
			<acc value="0.0168815277215093" flag="0"/>
			<vel value="0.0117871393793567" flag="0"/>
			<psa03 value="0.0490123770379076" flag="0"/>
			<psa10 value="0.00601386792049542" flag="0"/>
			<psa30 value="0.000435051919012938" flag="0"/>
		</comp>
		<comp name="--.HNN" depth="0.0">
			<acc value="0.0150097438187927" flag="0"/>
			<vel value="0.0102076847035642" flag="0"/>
			<psa03 value="0.0624448554151996" flag="0"/>
			<psa10 value="0.00989947547914825" flag="0"/>
			<psa30 value="0.000551868537747801" flag="0"/>
		</comp>
		<comp name="--.HNZ" depth="0.0">
			<acc value="0.0120759155740886" flag="0"/>
			<vel value="0.00474230415543705" flag="0"/>
			<psa03 value="0.022116897427594" flag="0"/>
			<psa10 value="0.00203846792912206" flag="0"/>
			<psa30 value="0.000202885757893991" flag="0"/>
		</comp>
	</station>
	<station code="KARP" name="KARP" netid="HL" source="National Observatory of Athens Seismic Network" insttype="" lat="35.5471" lon="27.16106">
		<comp name="--.HNE" depth="0.0">
			<acc value="0.0227599089098503" flag="0"/>
			<vel value="0.0104765067537061" flag="0"/>
			<psa03 value="0.0403758179289427" flag="0"/>
			<psa10 value="0.0102756103962662" flag="0"/>
			<psa30 value="0.000617033323346572" flag="0"/>
		</comp>
		<comp name="--.HNN" depth="0.0">
			<acc value="0.0216154546540282" flag="0"/>
			<vel value="0.0080411828216523" flag="0"/>
			<psa03 value="0.0310893329532247" flag="0"/>
			<psa10 value="0.00805861259354353" flag="0"/>
			<psa30 value="0.000574119022152834" flag="0"/>
		</comp>
		<comp name="--.HNZ" depth="0.0">
			<acc value="0.0149806965554051" flag="0"/>
			<vel value="0.00622053635817426" flag="0"/>
			<psa03 value="0.0248243111554617" flag="0"/>
			<psa10 value="0.0051875972466193" flag="0"/>
			<psa30 value="0.000448181043960469" flag="0"/>
		</comp>
	</station>
	<station code="KLNA" name="KLNA" netid="HL" source="National Observatory of Athens Seismic Network" insttype="" lat="36.95708" lon="26.97274">
		<comp name="00.HNE" depth="0.0">
			<acc value="0.0319713520886229" flag="0"/>
			<vel value="0.0131638770573571" flag="0"/>
			<psa03 value="0.0985727070413995" flag="0"/>
			<psa10 value="0.00557086419867426" flag="0"/>
			<psa30 value="0.000627788098297549" flag="0"/>
		</comp>
		<comp name="00.HNN" depth="0.0">
			<acc value="0.0280823031241904" flag="0"/>
			<vel value="0.0090223276069326" flag="0"/>
			<psa03 value="0.0524988580002466" flag="0"/>
			<psa10 value="0.0039492459931651" flag="0"/>
			<psa30 value="0.000371752413231167" flag="0"/>
		</comp>
		<comp name="00.HNZ" depth="0.0">
			<acc value="0.0349736807924108" flag="0"/>
			<vel value="0.00749693101127196" flag="0"/>
			<psa03 value="0.0253749153386198" flag="0"/>
			<psa10 value="0.00243729841218193" flag="0"/>
			<psa30 value="0.000301965524567514" flag="0"/>
		</comp>
	</station>
	<station code="NISR" name="NISR" netid="HL" source="National Observatory of Athens Seismic Network" insttype="" lat="36.6106" lon="27.131">
		<comp name="--.HNE" depth="0.0">
			<acc value="0.537698049944134" flag="0"/>
			<vel value="0.135826847155862" flag="0"/>
			<psa03 value="0.678182759611919" flag="0"/>
			<psa10 value="0.180572542044799" flag="0"/>
			<psa30 value="0.0128211226697972" flag="0"/>
		</comp>
		<comp name="--.HNN" depth="0.0">
			<acc value="0.638449532332372" flag="0"/>
			<vel value="0.124229401973118" flag="0"/>
			<psa03 value="0.520741038204831" flag="0"/>
			<psa10 value="0.06515931398475" flag="0"/>
			<psa30 value="0.0120044444021782" flag="0"/>
		</comp>
		<comp name="--.HNZ" depth="0.0">
			<acc value="0.416592128932431" flag="0"/>
			<vel value="0.054436709248536" flag="0"/>
			<psa03 value="0.195750988375469" flag="0"/>
			<psa10 value="0.0579708715357964" flag="0"/>
			<psa30 value="0.00418127407221841" flag="0"/>
		</comp>
	</station>
	<station code="RODB" name="RODB" netid="HL" source="National Observatory of Athens Seismic Network" insttype="" lat="36.4471" lon="28.22116">
		<comp name="00.HNE" depth="0.0">
			<acc value="0.00816244821289475" flag="0"/>
			<vel value="0.00750115691383955" flag="0"/>
			<psa03 value="0.0180977106032509" flag="0"/>
			<psa10 value="0.0123333670250507" flag="0"/>
			<psa30 value="0.00148639117445501" flag="0"/>
		</comp>
		<comp name="00.HNN" depth="0.0">
			<acc value="0.0105126287749404" flag="0"/>
			<vel value="0.00921814069947775" flag="0"/>
			<psa03 value="0.0385522960879194" flag="0"/>
			<psa10 value="0.0113213512339621" flag="0"/>
			<psa30 value="0.0015988201848245" flag="0"/>
		</comp>
		<comp name="00.HNZ" depth="0.0">
			<acc value="0.00494400754845071" flag="0"/>
			<vel value="0.00411337206544895" flag="0"/>
			<psa03 value="0.0160306713283042" flag="0"/>
			<psa10 value="0.00815949427643111" flag="0"/>
			<psa30 value="0.000621927085035641" flag="0"/>
		</comp>
	</station>
	<station code="THRA" name="THRA" netid="HL" source="National Observatory of Athens Seismic Network" insttype="" lat="36.41502" lon="25.43244">
		<comp name="00.HNE" depth="0.0">
			<acc value="0.0253251307272537" flag="0"/>
			<vel value="0.0167195698283654" flag="0"/>
			<psa03 value="0.05973974913183" flag="0"/>
			<psa10 value="0.0173763936008043" flag="0"/>
			<psa30 value="0.00160963048428567" flag="0"/>
		</comp>
		<comp name="00.HNN" depth="0.0">
			<acc value="0.0240512388275401" flag="0"/>
			<vel value="0.0158822363940003" flag="0"/>
			<psa03 value="0.063083428967772" flag="0"/>
			<psa10 value="0.0224890716656392" flag="0"/>
			<psa30 value="0.00161069222128715" flag="0"/>
		</comp>
		<comp name="00.HNZ" depth="0.0">
			<acc value="0.0177967598855774" flag="0"/>
			<vel value="0.0110737569697538" flag="0"/>
			<psa03 value="0.0471978714188032" flag="0"/>
			<psa10 value="0.006738267783415" flag="0"/>
			<psa30 value="0.000674846892792533" flag="0"/>
		</comp>
	</station>
	<station code="TNSA" name="TNSA" netid="HL" source="National Observatory of Athens Seismic Network" insttype="" lat="37.53942" lon="25.1631">
		<comp name="00.HNE" depth="0.0">
			<acc value="0.00197729879322841" flag="0"/>
			<vel value="0.00151246396395487" flag="0"/>
			<psa03 value="0.00587151526114571" flag="0"/>
			<psa10 value="0.00188255334273147" flag="0"/>
			<psa30 value="0.000338229775854403" flag="0"/>
		</comp>
		<comp name="00.HNN" depth="0.0">
			<acc value="0.00232547266083094" flag="0"/>
			<vel value="0.00104402208499272" flag="0"/>
			<psa03 value="0.00474672525456596" flag="0"/>
			<psa10 value="0.00109448820759703" flag="0"/>
			<psa30 value="0.000148698847964719" flag="0"/>
		</comp>
		<comp name="00.HNZ" depth="0.0">
			<acc value="0.00140119798481719" flag="0"/>
			<vel value="0.000994342876331164" flag="0"/>
			<psa03 value="0.00270176752050351" flag="0"/>
			<psa10 value="0.00197172077307421" flag="0"/>
			<psa30 value="0.000153461298870563" flag="0"/>
		</comp>
	</station>
	<station code="CESE" name="CESE" netid="KO" source="Bogazici University Kandilli Observatory And Earthquake Research Institute (KOERI)" insttype="" lat="38.3306" lon="26.2997">
		<comp name="--.HNE" depth="0.0">
			<acc value="0.0012162251421841" flag="0"/>
			<vel value="0.000644784473996358" flag="0"/>
			<psa03 value="0.000745381571882752" flag="0"/>
			<psa10 value="0.000587644768425785" flag="0"/>
			<psa30 value="0.000352215754440305" flag="0"/>
		</comp>
		<comp name="--.HNN" depth="0.0">
			<acc value="0.00158750423836667" flag="0"/>
			<vel value="0.000878636558191539" flag="0"/>
			<psa03 value="0.00120974737615635" flag="0"/>
			<psa10 value="0.000737522158003284" flag="0"/>
			<psa30 value="0.00054420485298581" flag="0"/>
		</comp>
		<comp name="--.HNZ" depth="0.0">
			<acc value="0.000556582760220655" flag="0"/>
			<vel value="0.000652911814241144" flag="0"/>
			<psa03 value="0.000681741288317816" flag="0"/>
			<psa10 value="0.000525134982927054" flag="0"/>
			<psa30 value="0.000327716318972885" flag="0"/>
		</comp>
	</station>
	<station code="DATC" name="DATC" netid="KO" source="Bogazici University Kandilli Observatory And Earthquake Research Institute (KOERI)" insttype="" lat="36.7584" lon="27.6602">
		<comp name="--.HNE" depth="0.0">
			<acc value="0.0484977825279892" flag="0"/>
			<vel value="0.0278361463977263" flag="0"/>
			<psa03 value="0.139960459193449" flag="0"/>
			<psa10 value="0.0225559254693498" flag="0"/>
			<psa30 value="0.00261041834407167" flag="0"/>
		</comp>
		<comp name="--.HNN" depth="0.0">
			<acc value="0.0513493707089171" flag="0"/>
			<vel value="0.0168247948667886" flag="0"/>
			<psa03 value="0.0718643075326" flag="0"/>
			<psa10 value="0.0209702885536833" flag="0"/>
			<psa30 value="0.00157002556899025" flag="0"/>
		</comp>
		<comp name="--.HNZ" depth="0.0">
			<acc value="0.054982153220492" flag="0"/>
			<vel value="0.0194825420098727" flag="0"/>
			<psa03 value="0.0717278505763843" flag="0"/>
			<psa10 value="0.0142365346630662" flag="0"/>
			<psa30 value="0.00123903364239916" flag="0"/>
		</comp>
	</station>
	<station code="FETI" name="FETI" netid="KO" source="Bogazici University Kandilli Observatory And Earthquake Research Institute (KOERI)" insttype="" lat="36.6903" lon="29.096">
		<comp name="--.HNE" depth="0.0">
			<acc value="0.00203643989078748" flag="0"/>
			<vel value="0.00117970689384202" flag="0"/>
			<psa03 value="0.00377475005866735" flag="0"/>
			<psa10 value="0.00238498643114754" flag="0"/>
			<psa30 value="0.000488274533293229" flag="0"/>
		</comp>
		<comp name="--.HNN" depth="0.0">
			<acc value="0.00169601074480847" flag="0"/>
			<vel value="0.00107770714345939" flag="0"/>
			<psa03 value="0.00209718043181548" flag="0"/>
			<psa10 value="0.0010972347957967" flag="0"/>
			<psa30 value="0.000779489501936541" flag="0"/>
		</comp>
		<comp name="--.HNZ" depth="0.0">
			<acc value="0.00273231743422762" flag="0"/>
			<vel value="0.00135162704134085" flag="0"/>
			<psa03 value="0.00331601719590842" flag="0"/>
			<psa10 value="0.00221575248585325" flag="0"/>
			<psa30 value="0.00047546238246645" flag="0"/>
		</comp>
	</station>
	<station code="KUSD" name="KUSD" netid="KO" source="Bogazici University Kandilli Observatory And Earthquake Research Institute (KOERI)" insttype="" lat="37.8606" lon="27.2868">
		<comp name="--.HNE" depth="0.0">
			<acc value="0.000927835891697" flag="0"/>
			<vel value="0.000798474512414344" flag="0"/>
			<psa03 value="0.00177376349921936" flag="0"/>
			<psa10 value="0.00122586644201187" flag="0"/>
			<psa30 value="0.000334616932354388" flag="0"/>
		</comp>
		<comp name="--.HNN" depth="0.0">
			<acc value="0.00116029153116831" flag="0"/>
			<vel value="0.00111730394439478" flag="0"/>
			<psa03 value="0.00206389632586914" flag="0"/>
			<psa10 value="0.0021109876550704" flag="0"/>
			<psa30 value="0.000505871323992138" flag="0"/>
		</comp>
		<comp name="--.HNZ" depth="0.0">
			<acc value="0.00110090311963846" flag="0"/>
			<vel value="0.000835342744608569" flag="0"/>
			<psa03 value="0.00140889867116216" flag="0"/>
			<psa10 value="0.000939809445264579" flag="0"/>
			<psa30 value="0.000238202498496438" flag="0"/>
		</comp>
	</station>
	<station code="NAZL" name="NAZL" netid="KO" source="Bogazici University Kandilli Observatory And Earthquake Research Institute (KOERI)" insttype="" lat="37.9641" lon="28.2922">
		<comp name="--.HNE" depth="0.0">
			<acc value="0.00234728392244868" flag="0"/>
			<vel value="0.00228667795827198" flag="0"/>
			<psa03 value="0.00577216427860882" flag="0"/>
			<psa10 value="0.00292106194351595" flag="0"/>
			<psa30 value="0.000462690182202044" flag="0"/>
		</comp>
		<comp name="--.HNN" depth="0.0">
			<acc value="0.00232066423847709" flag="0"/>
			<vel value="0.00213637414348714" flag="0"/>
			<psa03 value="0.00533251861777731" flag="0"/>
			<psa10 value="0.00169560380980528" flag="0"/>
			<psa30 value="0.000344424300794651" flag="0"/>
		</comp>
		<comp name="--.HNZ" depth="0.0">
			<acc value="0.000755383412301795" flag="0"/>
			<vel value="0.0010001851899887" flag="0"/>
			<psa03 value="0.0026176317385907" flag="0"/>
			<psa10 value="0.000937123271224916" flag="0"/>
			<psa30 value="0.000183203477477243" flag="0"/>
		</comp>
	</station>
	<station code="ODEM" name="ODEM" netid="KO" source="Bogazici University Kandilli Observatory And Earthquake Research Institute (KOERI)" insttype="" lat="38.2762" lon="28.0747">
		<comp name="--.HNE" depth="0.0">
			<acc value="0.000429554857931" flag="0"/>
			<vel value="0.000668145045535249" flag="0"/>
			<psa03 value="0.000913216420586469" flag="0"/>
			<psa10 value="0.000533076661368084" flag="0"/>
			<psa30 value="0.000267088630811021" flag="0"/>
		</comp>
		<comp name="--.HNN" depth="0.0">
			<acc value="0.000505651706001322" flag="0"/>
			<vel value="0.000570141773516012" flag="0"/>
			<psa03 value="0.00110971706799844" flag="0"/>
			<psa10 value="0.000886173978115603" flag="0"/>
			<psa30 value="0.000113031172656151" flag="0"/>
		</comp>
		<comp name="--.HNZ" depth="0.0">
			<acc value="0.000500817223024446" flag="0"/>
			<vel value="0.000484073806245902" flag="0"/>
			<psa03 value="0.000957372259106275" flag="0"/>
			<psa10 value="0.000590283947164793" flag="0"/>
			<psa30 value="0.000191399515216144" flag="0"/>
		</comp>
	</station>
	<station code="YKAV" name="YKAV" netid="KO" source="Bogazici University Kandilli Observatory And Earthquake Research Institute (KOERI)" insttype="" lat="37.1246" lon="27.2801">
		<comp name="--.HNE" depth="0.0">
			<acc value="0.0132944907765466" flag="0"/>
			<vel value="0.00656499379685746" flag="0"/>
			<psa03 value="0.0271668777973199" flag="0"/>
			<psa10 value="0.0113756201415245" flag="0"/>
			<psa30 value="0.000682102790130466" flag="0"/>
		</comp>
		<comp name="--.HNN" depth="0.0">
			<acc value="0.0101934191163361" flag="0"/>
			<vel value="0.0054990804522428" flag="0"/>
			<psa03 value="0.0251183150067506" flag="0"/>
			<psa10 value="0.00586638096267828" flag="0"/>
			<psa30 value="0.00041502095664317" flag="0"/>
		</comp>
		<comp name="--.HNZ" depth="0.0">
			<acc value="0.00621213372114315" flag="0"/>
			<vel value="0.00280494112365436" flag="0"/>
			<psa03 value="0.00749264218408497" flag="0"/>
			<psa10 value="0.00392079027998826" flag="0"/>
			<psa30 value="0.000352579189974437" flag="0"/>
		</comp>
	</station>
</stationlist>
