<?xml version="1.0" encoding="UTF-8" standalone="yes"?>
<!DOCTYPE earthquake SYSTEM "stationlist.dtd">
<stationlist created="" xmlns="ch.ethz.sed.shakemap.usgs.xml">
  <station code="TASB" name="TASB" netid="KO" insttype="CMG-3T" lat="39.9838" lon="44.2384">
    <comp name="--.HHN">
      <acc value="0.0036189922" flag="0"/>
      <vel value="0.0077908121" flag="0"/>
      <psa03 value="0.0059331226" flag="0"/>
      <psa10 value="0.0074404290" flag="0"/>
      <psa30 value="0.0025113525" flag="0"/>
    </comp>
    <comp name="--.HHZ">
      <acc value="0.0029147564" flag="0"/>
      <vel value="0.0064534561" flag="0"/>
      <psa03 value="0.0066161023" flag="0"/>
      <psa10 value="0.0077272057" flag="0"/>
      <psa30 value="0.0020213877" flag="0"/>
    </comp>
    <comp name="--.HHE">
      <acc value="0.0030086489" flag="0"/>
      <vel value="0.0066280396" flag="0"/>
      <psa03 value="0.0047422451" flag="0"/>
      <psa10 value="0.0097313595" flag="0"/>
      <psa30 value="0.0025113963" flag="0"/>
    </comp>
  </station>
</stationlist>
