<?xml version="1.0" encoding="UTF-8" standalone="yes"?>
<!DOCTYPE earthquake SYSTEM "stationlist.dtd">
<stationlist created="" xmlns="ch.ethz.sed.shakemap.usgs.xml">
  <station code="AGRB" name="AGRB" netid="KO" insttype="CMG-3T" lat="39.5755" lon="42.992">
    <comp name="--.HHE">
      <acc value="0.0046117250" flag="0"/>
      <vel value="0.0052510489" flag="0"/>
      <psa03 value="0.0126961853" flag="0"/>
      <psa10 value="0.0082541369" flag="0"/>
      <psa30 value="0.0010751767" flag="0"/>
    </comp>
    <comp name="--.HHN">
      <acc value="0.0024216962" flag="0"/>
      <vel value="0.0025647139" flag="0"/>
      <psa03 value="0.0085496750" flag="0"/>
      <psa10 value="0.0039528065" flag="0"/>
      <psa30 value="0.0009755799" flag="0"/>
    </comp>
    <comp name="--.HHZ">
      <acc value="0.0022599114" flag="0"/>
      <vel value="0.0020974027" flag="0"/>
      <psa03 value="0.0055194548" flag="0"/>
      <psa10 value="0.0034475126" flag="0"/>
      <psa30 value="0.0006369090" flag="0"/>
    </comp>
  </station>
  <station code="KARS" name="KARS" netid="KO" insttype="CMG-3T" lat="40.6152" lon="43.0937">
    <comp name="--.HHZ">
      <acc value="0.1537531205" flag="0"/>
      <vel value="0.0331545182" flag="0"/>
      <psa03 value="0.1343696582" flag="0"/>
      <psa10 value="0.0273012277" flag="0"/>
      <psa30 value="0.0024255436" flag="0"/>
    </comp>
    <comp name="--.HHN">
      <acc value="0.0000113967" flag="0"/>
      <vel value="0.0000017279" flag="0"/>
      <psa03 value="0.0000064985" flag="0"/>
      <psa10 value="0.0000008960" flag="0"/>
      <psa30 value="0.0000003887" flag="0"/>
    </comp>
    <comp name="--.HHE">
      <acc value="0.2602720573" flag="0"/>
      <vel value="0.1013961739" flag="0"/>
      <psa03 value="0.5662747281" flag="0"/>
      <psa10 value="0.0381207656" flag="0"/>
      <psa30 value="0.0051999524" flag="0"/>
    </comp>
  </station>
  <station code="SENK" name="SENK" netid="KO" insttype="CMG-3T" lat="40.5614" lon="42.3505">
    <comp name="--.HHZ">
      <acc value="0.0137872700" flag="0"/>
      <vel value="0.0069447289" flag="0"/>
      <psa03 value="0.0309874278" flag="0"/>
      <psa10 value="0.0044851176" flag="0"/>
      <psa30 value="0.0004100871" flag="0"/>
    </comp>
    <comp name="--.HHE">
      <acc value="0.0182777347" flag="0"/>
      <vel value="0.0099024327" flag="0"/>
      <psa03 value="0.0472732226" flag="0"/>
      <psa10 value="0.0077187977" flag="0"/>
      <psa30 value="0.0004778078" flag="0"/>
    </comp>
  </station>
  <station code="TASB" name="TASB" netid="KO" insttype="CMG-3T" lat="39.9838" lon="44.2384">
    <comp name="--.HHE">
      <acc value="0.0050003891" flag="0"/>
      <vel value="0.0042824834" flag="0"/>
      <psa03 value="0.0121088283" flag="0"/>
      <psa10 value="0.0085405461" flag="0"/>
      <psa30 value="0.0016821780" flag="0"/>
    </comp>
    <comp name="--.HHN">
      <acc value="0.0046689188" flag="0"/>
      <vel value="0.0042719172" flag="0"/>
      <psa03 value="0.0135064701" flag="0"/>
      <psa10 value="0.0070087142" flag="0"/>
      <psa30 value="0.0016027970" flag="0"/>
    </comp>
    <comp name="--.HHZ">
      <acc value="0.0037013134" flag="0"/>
      <vel value="0.0025098393" flag="0"/>
      <psa03 value="0.0118316676" flag="0"/>
      <psa10 value="0.0033791602" flag="0"/>
      <psa30 value="0.0008682996" flag="0"/>
    </comp>
  </station>
</stationlist>
