<?xml version="1.0" encoding="UTF-8" standalone="yes"?>
<!DOCTYPE earthquake SYSTEM "stationlist.dtd">
<stationlist created="" xmlns="ch.ethz.sed.shakemap.usgs.xml">
  <station code="KEK" name="KEK" netid="MN" insttype="" commtype="DIG" lat="39.7127" lon="19.7962">
    <comp name="--.HHN">
      <acc value="0.0235396730" flag="0"/>
      <vel value="0.0263600171" flag="0"/>
      <psa03 value="0.0521042554" flag="0"/>
      <psa10 value="0.0166736970" flag="0"/>
      <psa30 value="0.0066151870" flag="0"/>
    </comp>
    <comp name="--.HHZ">
      <acc value="0.0163822094" flag="0"/>
      <vel value="0.0144598812" flag="0"/>
      <psa03 value="0.0403855275" flag="0"/>
      <psa10 value="0.0250621989" flag="0"/>
      <psa30 value="0.0031453223" flag="0"/>
    </comp>
    <comp name="--.HHE">
      <acc value="0.0228954502" flag="0"/>
      <vel value="0.0182362127" flag="0"/>
      <psa03 value="0.0741273544" flag="0"/>
      <psa10 value="0.0150778235" flag="0"/>
      <psa30 value="0.0048473541" flag="0"/>
    </comp>
  </station>
  <station code="THL" name="THL" netid="MN" insttype="" commtype="DIG" lat="39.5647" lon="22.0144">
    <comp name="--.HHE">
      <acc value="0.0046433644" flag="0"/>
      <vel value="0.0035609644" flag="0"/>
      <psa03 value="0.0144705003" flag="0"/>
      <psa10 value="0.0047684765" flag="0"/>
      <psa30 value="0.0008714493" flag="0"/>
    </comp>
    <comp name="--.HHN">
      <acc value="0.0043369567" flag="0"/>
      <vel value="0.0042371652" flag="0"/>
      <psa03 value="0.0077745482" flag="0"/>
      <psa10 value="0.0046634319" flag="0"/>
      <psa30 value="0.0014153925" flag="0"/>
    </comp>
    <comp name="--.HHZ">
      <acc value="0.0028139437" flag="0"/>
      <vel value="0.0023234408" flag="0"/>
      <psa03 value="0.0083038518" flag="0"/>
      <psa10 value="0.0039113000" flag="0"/>
      <psa30 value="0.0012769454" flag="0"/>
    </comp>
  </station>
</stationlist>
