<?xml version="1.0" encoding="UTF-8" standalone="yes"?>
<!DOCTYPE earthquake SYSTEM "stationlist.dtd">
<stationlist created="" xmlns="ch.ethz.sed.shakemap.usgs.xml">
  <station code="JAN2" name="JAN2" netid="HI" insttype="unknown" commtype="DIG" lat="39.664" lon="20.8522">
    <comp name="--.HNN">
      <acc value="0.4696960398" flag="0"/>
      <vel value="0.1736684035" flag="0"/>
      <psa03 value="1.2598133649" flag="0"/>
      <psa10 value="0.1773591660" flag="0"/>
      <psa30 value="0.0192099415" flag="0"/>
    </comp>
    <comp name="--.HNE">
      <acc value="0.4467282729" flag="0"/>
      <vel value="0.1650613385" flag="0"/>
      <psa03 value="1.2732971077" flag="0"/>
      <psa10 value="0.1022957510" flag="0"/>
      <psa30 value="0.0225202101" flag="0"/>
    </comp>
    <comp name="--.HNZ">
      <acc value="0.3225545769" flag="0"/>
      <vel value="0.0960311585" flag="0"/>
      <psa03 value="0.3621245724" flag="0"/>
      <psa10 value="0.0808853061" flag="0"/>
      <psa30 value="0.0163761962" flag="0"/>
    </comp>
  </station>
  <station code="JAN3" name="JAN3" netid="HI" insttype="unknown" commtype="DIG" lat="39.684" lon="20.8379">
    <comp name="--.HNN">
      <acc value="0.4596407044" flag="0"/>
      <vel value="0.1896528384" flag="0"/>
      <psa03 value="0.6364408266" flag="0"/>
      <psa10 value="0.1039133608" flag="0"/>
      <psa30 value="0.0187730024" flag="0"/>
    </comp>
    <comp name="--.HNE">
      <acc value="0.5463034698" flag="0"/>
      <vel value="0.2044900708" flag="0"/>
      <psa03 value="0.9203827776" flag="0"/>
      <psa10 value="0.1584030344" flag="0"/>
      <psa30 value="0.0127384553" flag="0"/>
    </comp>
    <comp name="--.HNZ">
      <acc value="0.2858236434" flag="0"/>
      <vel value="0.1023830153" flag="0"/>
      <psa03 value="0.3809219574" flag="0"/>
      <psa10 value="0.1331854146" flag="0"/>
      <psa30 value="0.0195008289" flag="0"/>
    </comp>
  </station>
  <station code="KNS1" name="KNS1" netid="HI" insttype="unknown" commtype="DIG" lat="40.048" lon="20.7524">
    <comp name="--.HNN">
      <acc value="0.0529285011" flag="0"/>
      <vel value="0.0268748154" flag="0"/>
      <psa03 value="0.1583404651" flag="0"/>
      <psa10 value="0.0345560923" flag="0"/>
      <psa30 value="0.0041974565" flag="0"/>
    </comp>
    <comp name="--.HNE">
      <acc value="0.0705331279" flag="0"/>
      <vel value="0.0530953317" flag="0"/>
      <psa03 value="0.1033040562" flag="0"/>
      <psa10 value="0.0436622844" flag="0"/>
      <psa30 value="0.0207295143" flag="0"/>
    </comp>
    <comp name="--.HNZ">
      <acc value="0.0375873093" flag="0"/>
      <vel value="0.0273762567" flag="0"/>
      <psa03 value="0.0915351177" flag="0"/>
      <psa10 value="0.0182435659" flag="0"/>
      <psa30 value="0.0063373515" flag="0"/>
    </comp>
  </station>
  <station code="KRK1" name="KRK1" netid="HI" insttype="CMG-5TD,ACCELEROMETER,GURALP" commtype="DIG" lat="39.6189" lon="19.9202">
    <comp name="--.HNZ">
      <acc value="0.0395903143" flag="0"/>
      <vel value="0.0166313569" flag="0"/>
      <psa03 value="0.0947818822" flag="0"/>
      <psa10 value="0.0129366465" flag="0"/>
      <psa30 value="0.0028173502" flag="0"/>
    </comp>
    <comp name="--.HNN">
      <acc value="0.0715092097" flag="0"/>
      <vel value="0.0388691987" flag="0"/>
      <psa03 value="0.1861319805" flag="0"/>
      <psa10 value="0.0772605547" flag="0"/>
      <psa30 value="0.0057145538" flag="0"/>
    </comp>
    <comp name="--.HNE">
      <acc value="0.0824106523" flag="0"/>
      <vel value="0.0396140889" flag="0"/>
      <psa03 value="0.1710282229" flag="0"/>
      <psa10 value="0.0319241408" flag="0"/>
      <psa30 value="0.0049749788" flag="0"/>
    </comp>
  </station>
  <station code="LEF2" name="LEF2" netid="HI" insttype="unknown" commtype="DIG" lat="38.8301" lon="20.7083">
    <comp name="--.HNZ">
      <acc value="0.0248699038" flag="0"/>
      <vel value="0.0197395893" flag="0"/>
      <psa03 value="0.0617090603" flag="0"/>
      <psa10 value="0.0289641971" flag="0"/>
      <psa30 value="0.0046042640" flag="0"/>
    </comp>
    <comp name="--.HNN">
      <acc value="0.0641273020" flag="0"/>
      <vel value="0.0552602909" flag="0"/>
      <psa03 value="0.1848169591" flag="0"/>
      <psa10 value="0.1196687116" flag="0"/>
      <psa30 value="0.0060648946" flag="0"/>
    </comp>
    <comp name="--.HNE">
      <acc value="0.0550443719" flag="0"/>
      <vel value="0.0520032759" flag="0"/>
      <psa03 value="0.1010223726" flag="0"/>
      <psa10 value="0.0716090186" flag="0"/>
      <psa30 value="0.0094520322" flag="0"/>
    </comp>
  </station>
  <station code="PRE2" name="PRE2" netid="HI" insttype="unknown" commtype="DIG" lat="38.9577" lon="20.7548">
    <comp name="--.HNZ">
      <acc value="0.0400140063" flag="0"/>
      <vel value="0.0237750573" flag="0"/>
      <psa03 value="0.0967546001" flag="0"/>
      <psa10 value="0.0244189249" flag="0"/>
      <psa30 value="0.0033957581" flag="0"/>
    </comp>
    <comp name="--.HNN">
      <acc value="0.0541066345" flag="0"/>
      <vel value="0.0444705708" flag="0"/>
      <psa03 value="0.1479161724" flag="0"/>
      <psa10 value="0.0784008206" flag="0"/>
      <psa30 value="0.0127753332" flag="0"/>
    </comp>
    <comp name="--.HNE">
      <acc value="0.0690823949" flag="0"/>
      <vel value="0.0698420508" flag="0"/>
      <psa03 value="0.1241420727" flag="0"/>
      <psa10 value="0.1189472715" flag="0"/>
      <psa30 value="0.0115981590" flag="0"/>
    </comp>
  </station>
  <station code="ARTB" name="ARTB" netid="HL" insttype="CMG-5" commtype="DIG" lat="39.157" lon="20.9785">
    <comp name="00.HNN">
      <acc value="0.0581069665" flag="0"/>
      <vel value="0.0301954022" flag="0"/>
      <psa03 value="0.1902499387" flag="0"/>
      <psa10 value="0.0198827389" flag="0"/>
      <psa30 value="0.0071089877" flag="0"/>
    </comp>
    <comp name="00.HNZ">
      <acc value="0.0386223008" flag="0"/>
      <vel value="0.0204647501" flag="0"/>
      <psa03 value="0.1078961386" flag="0"/>
      <psa10 value="0.0235891323" flag="0"/>
      <psa30 value="0.0025845416" flag="0"/>
    </comp>
    <comp name="00.HNE">
      <acc value="0.1357483594" flag="0"/>
      <vel value="0.0560437779" flag="0"/>
      <psa03 value="0.4142888449" flag="0"/>
      <psa10 value="0.0274685587" flag="0"/>
      <psa30 value="0.0070340668" flag="0"/>
    </comp>
  </station>
  <station code="JAN" name="JAN" netid="HL" insttype="CMG3EPSC60_DR24" commtype="DIG" lat="39.6562" lon="20.8487">
    <comp name="--.HHE">
      <acc value="0.4980652819" flag="0"/>
      <vel value="0.2078839627" flag="0"/>
      <psa03 value="1.4954198885" flag="0"/>
      <psa10 value="0.1270140496" flag="0"/>
      <psa30 value="0.0171970774" flag="0"/>
    </comp>
    <comp name="--.HHN">
      <acc value="0.6423878043" flag="0"/>
      <vel value="0.2464398004" flag="0"/>
      <psa03 value="1.6116272498" flag="0"/>
      <psa10 value="0.1538271889" flag="0"/>
      <psa30 value="0.0208652046" flag="0"/>
    </comp>
    <comp name="--.HHZ">
      <acc value="0.2092780737" flag="0"/>
      <vel value="0.0968538530" flag="0"/>
      <psa03 value="0.2494075979" flag="0"/>
      <psa10 value="0.0574567069" flag="0"/>
      <psa30 value="0.0164573332" flag="0"/>
    </comp>
  </station>
  <station code="KEK" name="KEK" netid="HL" insttype="120" commtype="DIG" lat="39.7127" lon="19.7962">
    <comp name="--.HHE">
      <acc value="0.0228954660" flag="0"/>
      <vel value="0.0182362254" flag="0"/>
      <psa03 value="0.0741274058" flag="0"/>
      <psa10 value="0.0150778340" flag="0"/>
      <psa30 value="0.0048473574" flag="0"/>
    </comp>
    <comp name="--.HHN">
      <acc value="0.0235396893" flag="0"/>
      <vel value="0.0263600353" flag="0"/>
      <psa03 value="0.0521042915" flag="0"/>
      <psa10 value="0.0166737085" flag="0"/>
      <psa30 value="0.0066151915" flag="0"/>
    </comp>
    <comp name="--.HHZ">
      <acc value="0.0163822208" flag="0"/>
      <vel value="0.0144598912" flag="0"/>
      <psa03 value="0.0403855555" flag="0"/>
      <psa10 value="0.0250622162" flag="0"/>
      <psa30 value="0.0031453245" flag="0"/>
    </comp>
  </station>
  <station code="KZN" name="KZN" netid="HL" insttype="120" commtype="DIG" lat="40.3033" lon="21.7821">
    <comp name="--.HHN">
      <acc value="0.0063674225" flag="0"/>
      <vel value="0.0041143803" flag="0"/>
      <psa03 value="0.0166545100" flag="0"/>
      <psa10 value="0.0048625868" flag="0"/>
      <psa30 value="0.0013094852" flag="0"/>
    </comp>
    <comp name="--.HHE">
      <acc value="0.0067714731" flag="0"/>
      <vel value="0.0042491968" flag="0"/>
      <psa03 value="0.0212079713" flag="0"/>
      <psa10 value="0.0054374732" flag="0"/>
      <psa30 value="0.0012727274" flag="0"/>
    </comp>
    <comp name="--.HHZ">
      <acc value="0.0031273447" flag="0"/>
      <vel value="0.0027495785" flag="0"/>
      <psa03 value="0.0099418785" flag="0"/>
      <psa10 value="0.0051037989" flag="0"/>
      <psa30 value="0.0008231334" flag="0"/>
    </comp>
  </station>
  <station code="PENT" name="PENT" netid="HL" insttype="Horizon,120s,1200" commtype="DIG" lat="40.1961" lon="21.1381">
    <comp name="--.HHZ">
      <acc value="0.0063542205" flag="0"/>
      <vel value="0.0051077722" flag="0"/>
      <psa03 value="0.0219122972" flag="0"/>
      <psa10 value="0.0079603941" flag="0"/>
      <psa30 value="0.0028604244" flag="0"/>
    </comp>
    <comp name="--.HHE">
      <acc value="0.0091017346" flag="0"/>
      <vel value="0.0070902127" flag="0"/>
      <psa03 value="0.0204449700" flag="0"/>
      <psa10 value="0.0074071724" flag="0"/>
      <psa30 value="0.0018721184" flag="0"/>
    </comp>
    <comp name="--.HHN">
      <acc value="0.0102222688" flag="0"/>
      <vel value="0.0088654035" flag="0"/>
      <psa03 value="0.0444270414" flag="0"/>
      <psa10 value="0.0095927115" flag="0"/>
      <psa30 value="0.0019966044" flag="0"/>
    </comp>
  </station>
  <station code="PRGA" name="PRGA" netid="HL" insttype="CMG-5" commtype="DIG" lat="39.2856" lon="20.4016">
    <comp name="00.HNE">
      <acc value="0.1923976447" flag="0"/>
      <vel value="0.0759206255" flag="0"/>
      <psa03 value="0.3741532645" flag="0"/>
      <psa10 value="0.0469857924" flag="0"/>
      <psa30 value="0.0132295216" flag="0"/>
    </comp>
    <comp name="00.HNN">
      <acc value="0.1719883327" flag="0"/>
      <vel value="0.0848058325" flag="0"/>
      <psa03 value="0.3882001000" flag="0"/>
      <psa10 value="0.0437285244" flag="0"/>
      <psa30 value="0.0186602564" flag="0"/>
    </comp>
    <comp name="00.HNZ">
      <acc value="0.0475596400" flag="0"/>
      <vel value="0.0306423273" flag="0"/>
      <psa03 value="0.1003890294" flag="0"/>
      <psa10 value="0.0356465838" flag="0"/>
      <psa30 value="0.0059508082" flag="0"/>
    </comp>
  </station>
  <station code="TETR" name="TETR" netid="HL" insttype="60" commtype="DIG" lat="39.3445" lon="21.2747">
    <comp name="--.HHN">
      <acc value="0.0776592698" flag="0"/>
      <vel value="0.0586260167" flag="0"/>
      <psa03 value="0.2375815926" flag="0"/>
      <psa10 value="0.0477436454" flag="0"/>
      <psa30 value="0.0274370358" flag="0"/>
    </comp>
    <comp name="--.HHZ">
      <acc value="0.0398069347" flag="0"/>
      <vel value="0.0267585025" flag="0"/>
      <psa03 value="0.1221807392" flag="0"/>
      <psa10 value="0.0314208162" flag="0"/>
      <psa30 value="0.0061062519" flag="0"/>
    </comp>
    <comp name="--.HHE">
      <acc value="0.1016041156" flag="0"/>
      <vel value="0.0607609751" flag="0"/>
      <psa03 value="0.2367327450" flag="0"/>
      <psa10 value="0.0860996453" flag="0"/>
      <psa30 value="0.0221984597" flag="0"/>
    </comp>
  </station>
  <station code="THL" name="THL" netid="HL" insttype="120" commtype="DIG" lat="39.5647" lon="22.0144">
    <comp name="--.HHN">
      <acc value="0.0043369567" flag="0"/>
      <vel value="0.0042371652" flag="0"/>
      <psa03 value="0.0077745482" flag="0"/>
      <psa10 value="0.0046634319" flag="0"/>
      <psa30 value="0.0014153925" flag="0"/>
    </comp>
    <comp name="--.HHZ">
      <acc value="0.0028139437" flag="0"/>
      <vel value="0.0023234408" flag="0"/>
      <psa03 value="0.0083038518" flag="0"/>
      <psa10 value="0.0039113000" flag="0"/>
      <psa30 value="0.0012769454" flag="0"/>
    </comp>
    <comp name="--.HHE">
      <acc value="0.0046433644" flag="0"/>
      <vel value="0.0035609644" flag="0"/>
      <psa03 value="0.0144705003" flag="0"/>
      <psa10 value="0.0047684765" flag="0"/>
      <psa30 value="0.0008714493" flag="0"/>
    </comp>
  </station>
  <station code="AMPL" name="AMPL" netid="HP" insttype="Compact," commtype="DIG" lat="38.9224" lon="21.2135">
    <comp name="--.HHE">
      <acc value="0.0138685115" flag="0"/>
      <vel value="0.0114415974" flag="0"/>
      <psa03 value="0.0389239542" flag="0"/>
      <psa10 value="0.0156123458" flag="0"/>
      <psa30 value="0.0058409546" flag="0"/>
    </comp>
    <comp name="--.HHN">
      <acc value="0.0120129320" flag="0"/>
      <vel value="0.0082066333" flag="0"/>
      <psa03 value="0.0298383970" flag="0"/>
      <psa10 value="0.0098644926" flag="0"/>
      <psa30 value="0.0027902557" flag="0"/>
    </comp>
    <comp name="--.HHZ">
      <acc value="0.0083092412" flag="0"/>
      <vel value="0.0076013069" flag="0"/>
      <psa03 value="0.0203230359" flag="0"/>
      <psa10 value="0.0125864677" flag="0"/>
      <psa30 value="0.0017497938" flag="0"/>
    </comp>
  </station>
  <station code="KSTR" name="KSTR" netid="HP" insttype="Compact," commtype="DIG" lat="39.2492" lon="20.576">
    <comp name="--.HHN">
      <acc value="0.0515728139" flag="0"/>
      <vel value="0.0284780624" flag="0"/>
      <psa03 value="0.1018495735" flag="0"/>
      <psa10 value="0.0444529510" flag="0"/>
      <psa30 value="0.0049094877" flag="0"/>
    </comp>
    <comp name="--.HHZ">
      <acc value="0.0580913931" flag="0"/>
      <vel value="0.0240885747" flag="0"/>
      <psa03 value="0.0816389775" flag="0"/>
      <psa10 value="0.0232321123" flag="0"/>
      <psa30 value="0.0033556501" flag="0"/>
    </comp>
    <comp name="--.HHE">
      <acc value="0.0789001236" flag="0"/>
      <vel value="0.0514259455" flag="0"/>
      <psa03 value="0.1274437136" flag="0"/>
      <psa10 value="0.0629189906" flag="0"/>
      <psa30 value="0.0130535717" flag="0"/>
    </comp>
  </station>
  <station code="PDO" name="PDO" netid="HP" insttype="120s" commtype="DIG" lat="38.5986" lon="21.1833">
    <comp name="--.HHE">
      <acc value="0.0094421411" flag="0"/>
      <vel value="0.0095344724" flag="0"/>
      <psa03 value="0.0267154525" flag="0"/>
      <psa10 value="0.0125053270" flag="0"/>
      <psa30 value="0.0021728765" flag="0"/>
    </comp>
    <comp name="--.HHZ">
      <acc value="0.0066977808" flag="0"/>
      <vel value="0.0042305942" flag="0"/>
      <psa03 value="0.0183596389" flag="0"/>
      <psa10 value="0.0071430807" flag="0"/>
      <psa30 value="0.0013538317" flag="0"/>
    </comp>
    <comp name="--.HHN">
      <acc value="0.0134405138" flag="0"/>
      <vel value="0.0095539688" flag="0"/>
      <psa03 value="0.0483107762" flag="0"/>
      <psa10 value="0.0103277283" flag="0"/>
      <psa30 value="0.0017061264" flag="0"/>
    </comp>
  </station>
  <station code="PRMD" name="PRMD" netid="HP" insttype="120P," commtype="DIG" lat="39.5299" lon="21.0965">
    <comp name="--.HHE">
      <acc value="0.1086743273" flag="0"/>
      <vel value="0.0701753876" flag="0"/>
      <psa03 value="0.2888787971" flag="0"/>
      <psa10 value="0.0776387614" flag="0"/>
      <psa30 value="0.0067628685" flag="0"/>
    </comp>
    <comp name="--.HHN">
      <acc value="0.0930164286" flag="0"/>
      <vel value="0.0946987330" flag="0"/>
      <psa03 value="0.3308243052" flag="0"/>
      <psa10 value="0.1937030740" flag="0"/>
      <psa30 value="0.0417775656" flag="0"/>
    </comp>
    <comp name="--.HHZ">
      <acc value="0.0477561356" flag="0"/>
      <vel value="0.0433863481" flag="0"/>
      <psa03 value="0.1723499607" flag="0"/>
      <psa10 value="0.0709576152" flag="0"/>
      <psa30 value="0.0107668767" flag="0"/>
    </comp>
  </station>
  <station code="DRAG" name="DRAG" netid="HT" insttype="30" commtype="DIG" lat="38.6839" lon="20.5746">
    <comp name="--.HHN">
      <acc value="0.0419284023" flag="0"/>
      <vel value="0.0193806305" flag="0"/>
      <psa03 value="0.0986845050" flag="0"/>
      <psa10 value="0.0251118686" flag="0"/>
      <psa30 value="0.0016643098" flag="0"/>
    </comp>
    <comp name="--.HHE">
      <acc value="0.0426169067" flag="0"/>
      <vel value="0.0272946195" flag="0"/>
      <psa03 value="0.1272294332" flag="0"/>
      <psa10 value="0.0218543800" flag="0"/>
      <psa30 value="0.0018307410" flag="0"/>
    </comp>
    <comp name="--.HHZ">
      <acc value="0.0199812812" flag="0"/>
      <vel value="0.0091271077" flag="0"/>
      <psa03 value="0.0452425609" flag="0"/>
      <psa10 value="0.0102722784" flag="0"/>
      <psa30 value="0.0013222822" flag="0"/>
    </comp>
  </station>
  <station code="IGT" name="IGT" netid="HT" insttype="Compact," commtype="DIG" lat="39.5315" lon="20.3299">
    <comp name="--.HHE">
      <acc value="0.6248632558" flag="0"/>
      <vel value="0.2502581471" flag="0"/>
      <psa03 value="0.7259793387" flag="0"/>
      <psa10 value="0.2597353801" flag="0"/>
      <psa30 value="0.0332269633" flag="0"/>
    </comp>
    <comp name="--.HHN">
      <acc value="0.7264290168" flag="0"/>
      <vel value="0.2774409147" flag="0"/>
      <psa03 value="0.7619308624" flag="0"/>
      <psa10 value="0.1912695832" flag="0"/>
      <psa30 value="0.0214756003" flag="0"/>
    </comp>
    <comp name="--.HHZ">
      <acc value="0.4658526237" flag="0"/>
      <vel value="0.1828925691" flag="0"/>
      <psa03 value="0.6280715372" flag="0"/>
      <psa10 value="0.2521304058" flag="0"/>
      <psa30 value="0.0149205486" flag="0"/>
    </comp>
  </station>
  <station code="KPRO" name="KPRO" netid="HT" insttype="100" commtype="DIG" lat="39.9549" lon="21.3632">
    <comp name="--.HHN">
      <acc value="0.0198888829" flag="0"/>
      <vel value="0.0157037656" flag="0"/>
      <psa03 value="0.0757135830" flag="0"/>
      <psa10 value="0.0161688142" flag="0"/>
      <psa30 value="0.0055110241" flag="0"/>
    </comp>
    <comp name="--.HHE">
      <acc value="0.0193650726" flag="0"/>
      <vel value="0.0155280337" flag="0"/>
      <psa03 value="0.0883970738" flag="0"/>
      <psa10 value="0.0154713707" flag="0"/>
      <psa30 value="0.0056077379" flag="0"/>
    </comp>
    <comp name="--.HHZ">
      <acc value="0.0111939149" flag="0"/>
      <vel value="0.0092534171" flag="0"/>
      <psa03 value="0.0287395932" flag="0"/>
      <psa10 value="0.0163305270" flag="0"/>
      <psa30 value="0.0024945974" flag="0"/>
    </comp>
  </station>
  <station code="LKD2" name="LKD2" netid="HT" insttype="100" commtype="DIG" lat="38.7889" lon="20.6578">
    <comp name="--.HHE">
      <acc value="0.0186631062" flag="0"/>
      <vel value="0.0103676507" flag="0"/>
      <psa03 value="0.0591100253" flag="0"/>
      <psa10 value="0.0137651728" flag="0"/>
      <psa30 value="0.0026977798" flag="0"/>
    </comp>
    <comp name="--.HHN">
      <acc value="0.0105750991" flag="0"/>
      <vel value="0.0085527972" flag="0"/>
      <psa03 value="0.0391539926" flag="0"/>
      <psa10 value="0.0122540950" flag="0"/>
      <psa30 value="0.0020151366" flag="0"/>
    </comp>
    <comp name="--.HHZ">
      <acc value="0.0073141418" flag="0"/>
      <vel value="0.0048724869" flag="0"/>
      <psa03 value="0.0158209087" flag="0"/>
      <psa10 value="0.0082739008" flag="0"/>
      <psa30 value="0.0012363764" flag="0"/>
    </comp>
  </station>
  <station code="NEST" name="NEST" netid="HT" insttype="120P," commtype="DIG" lat="40.4147" lon="21.0489">
    <comp name="--.HHE">
