<stationlist created="1775231730">
	<station code="SRN" name="SRN" netid="AC" source="Albanian Seismological Network (AC)" insttype="" lat="39.880001" lon="20.0005">
		<comp name="01.HNE" depth="0.0">
			<acc value="0.0594361148630741" flag="0"/>
			<vel value="0.0734597608905549" flag="0"/>
			<psa03 value="0.154029818302857" flag="0"/>
			<psa10 value="0.0845479858891251" flag="0"/>
			<psa30 value="0.0351177497119028" flag="0"/>
		</comp>
		<comp name="01.HNN" depth="0.0">
			<acc value="0.0751069200956647" flag="0"/>
			<vel value="0.0819816814031503" flag="0"/>
			<psa03 value="0.159404236831708" flag="0"/>
			<psa10 value="0.050246844856873" flag="0"/>
			<psa30 value="0.0576926951912487" flag="0"/>
		</comp>
		<comp name="01.HNZ" depth="0.0">
			<acc value="0.0570031338344261" flag="0"/>
			<vel value="0.0777083604671189" flag="0"/>
			<psa03 value="0.112481815951608" flag="0"/>
			<psa10 value="0.103187875690345" flag="0"/>
			<psa30 value="0.0230555706517381" flag="0"/>
		</comp>
	</station>
	<station code="AGR3" name="AGR3" netid="HI" source="ITSAK Strong Motion Network" insttype="" lat="38.5893" lon="21.4162">
		<comp name="--.HNE" depth="0.0">
			<acc value="0.0159855889327963" flag="0"/>
			<vel value="0.027994370724872" flag="0"/>
			<psa03 value="0.0340863882642685" flag="0"/>
			<psa10 value="0.0569591032610502" flag="0"/>
			<psa30 value="0.0138009467449903" flag="0"/>
		</comp>
		<comp name="--.HNN" depth="0.0">
			<acc value="0.0172602799796013" flag="0"/>
			<vel value="0.0355476804753917" flag="0"/>
			<psa03 value="0.0364011509809382" flag="0"/>
			<psa10 value="0.0482156615509475" flag="0"/>
			<psa30 value="0.0156778285792006" flag="0"/>
		</comp>
		<comp name="--.HNZ" depth="0.0">
			<acc value="0.0136515268244664" flag="0"/>
			<vel value="0.0192936801494763" flag="0"/>
			<psa03 value="0.0245411830246002" flag="0"/>
			<psa10 value="0.0628119959864688" flag="0"/>
			<psa30 value="0.00560429459034549" flag="0"/>
		</comp>
	</station>
	<station code="AIA1" name="AIA1" netid="HI" source="ITSAK Strong Motion Network" insttype="" lat="40.1641" lon="21.8202">
		<comp name="--.HNE" depth="0.0">
			<acc value="0.0111016265055155" flag="0"/>
			<vel value="0.00597062176487706" flag="0"/>
			<psa03 value="0.0306869260874163" flag="0"/>
			<psa10 value="0.00444345982615611" flag="0"/>
			<psa30 value="0.00158371303821632" flag="0"/>
		</comp>
		<comp name="--.HNN" depth="0.0">
			<acc value="0.00636005103168609" flag="0"/>
			<vel value="0.00383562928489667" flag="0"/>
			<psa03 value="0.0221128711191873" flag="0"/>
			<psa10 value="0.00627837106752057" flag="0"/>
			<psa30 value="0.00289454674951646" flag="0"/>
		</comp>
		<comp name="--.HNZ" depth="0.0">
			<acc value="0.00346032046437012" flag="0"/>
			<vel value="0.00282726022272548" flag="0"/>
			<psa03 value="0.00771751385158374" flag="0"/>
			<psa10 value="0.00453848033954879" flag="0"/>
			<psa30 value="0.00195894622890699" flag="0"/>
		</comp>
	</station>
	<station code="ARG2" name="ARG2" netid="HI" source="ITSAK Strong Motion Network" insttype="" lat="38.1783" lon="20.4878">
		<comp name="--.HNE" depth="0.0">
			<acc value="0.00378250006462012" flag="0"/>
			<vel value="0.00341577210458511" flag="0"/>
			<psa03 value="0.0054026388227864" flag="0"/>
			<psa10 value="0.00220323509413707" flag="0"/>
			<psa30 value="0.000148864640197657" flag="0"/>
		</comp>
		<comp name="--.HNN" depth="0.0">
			<acc value="0.00459714890210375" flag="0"/>
			<vel value="0.00376454104354061" flag="0"/>
			<psa03 value="0.0071197235998717" flag="0"/>
			<psa10 value="0.003345503107537" flag="0"/>
			<psa30 value="0.000180326411885625" flag="0"/>
		</comp>
		<comp name="--.HNZ" depth="0.0">
			<acc value="0.00120612362886773" flag="0"/>
			<vel value="0.00116158751180155" flag="0"/>
			<psa03 value="0.00169822008338151" flag="0"/>
			<psa10 value="0.000890900756084026" flag="0"/>
			<psa30 value="5.56833436961568e-05" flag="0"/>
		</comp>
	</station>
	<station code="ART2" name="ART2" netid="HI" source="ITSAK Strong Motion Network" insttype="" lat="39.1474" lon="20.9937">
		<comp name="--.HNE" depth="0.0">
			<acc value="0.0197720915260003" flag="0"/>
			<vel value="0.0131236710127378" flag="0"/>
			<psa03 value="0.052376099867901" flag="0"/>
			<psa10 value="0.0125451107395183" flag="0"/>
			<psa30 value="0.00626288238522139" flag="0"/>
		</comp>
		<comp name="--.HNN" depth="0.0">
			<acc value="0.0246095271790423" flag="0"/>
			<vel value="0.0130759953519107" flag="0"/>
			<psa03 value="0.0487047056143833" flag="0"/>
			<psa10 value="0.0141465333884094" flag="0"/>
			<psa30 value="0.00736677551272346" flag="0"/>
		</comp>
		<comp name="--.HNZ" depth="0.0">
			<acc value="0.0173963667635055" flag="0"/>
			<vel value="0.0119177356898442" flag="0"/>
			<psa03 value="0.0386233502740687" flag="0"/>
			<psa10 value="0.0128268106507549" flag="0"/>
			<psa30 value="0.00289139695752486" flag="0"/>
		</comp>
	</station>
	<station code="AST1" name="AST1" netid="HI" source="ITSAK Strong Motion Network" insttype="" lat="38.5416" lon="21.0895">
		<comp name="--.HNE" depth="0.0">
			<acc value="0.00979744022500673" flag="0"/>
			<vel value="0.0125093987909088" flag="0"/>
			<psa03 value="0.0211452288926387" flag="0"/>
			<psa10 value="0.0205753930188087" flag="0"/>
			<psa30 value="0.00350869368373677" flag="0"/>
		</comp>
		<comp name="--.HNN" depth="0.0">
			<acc value="0.00928683571912579" flag="0"/>
			<vel value="0.0131141288656896" flag="0"/>
			<psa03 value="0.024917819954115" flag="0"/>
			<psa10 value="0.0198009873432333" flag="0"/>
			<psa30 value="0.00208605381582748" flag="0"/>
		</comp>
		<comp name="--.HNZ" depth="0.0">
			<acc value="0.00537774699610871" flag="0"/>
			<vel value="0.00671436349819388" flag="0"/>
			<psa03 value="0.0110523389340456" flag="0"/>
			<psa10 value="0.00855959890641922" flag="0"/>
			<psa30 value="0.00139724985261205" flag="0"/>
		</comp>
	</station>
	<station code="FRS1" name="FRS1" netid="HI" source="ITSAK Strong Motion Network" insttype="" lat="39.2934" lon="22.3844">
		<comp name="--.HNE" depth="0.0">
			<acc value="0.00264638432991482" flag="0"/>
			<vel value="0.00361568591378493" flag="0"/>
			<psa03 value="0.00765661984369624" flag="0"/>
			<psa10 value="0.00664884639094255" flag="0"/>
			<psa30 value="0.000696446448659241" flag="0"/>
		</comp>
		<comp name="--.HNN" depth="0.0">
			<acc value="0.0035141073636321" flag="0"/>
			<vel value="0.00499150164064714" flag="0"/>
			<psa03 value="0.00824772150128007" flag="0"/>
			<psa10 value="0.00712984950503822" flag="0"/>
			<psa30 value="0.00128319927648778" flag="0"/>
		</comp>
		<comp name="--.HNZ" depth="0.0">
			<acc value="0.00219474688534599" flag="0"/>
			<vel value="0.00292236469039895" flag="0"/>
			<psa03 value="0.00605999910144954" flag="0"/>
			<psa10 value="0.0051138415794072" flag="0"/>
			<psa30 value="0.00106821388892762" flag="0"/>
		</comp>
	</station>
	<station code="GRE3" name="GRE3" netid="HI" source="ITSAK Strong Motion Network" insttype="" lat="40.08481" lon="21.43829">
		<comp name="--.HNE" depth="0.0">
			<acc value="0.0187698223894175" flag="0"/>
			<vel value="0.014082294447127" flag="0"/>
			<psa03 value="0.0745933164411292" flag="0"/>
			<psa10 value="0.0117453140069099" flag="0"/>
			<psa30 value="0.00637994222319449" flag="0"/>
		</comp>
		<comp name="--.HNN" depth="0.0">
			<acc value="0.0139946189407861" flag="0"/>
			<vel value="0.0171473337021859" flag="0"/>
			<psa03 value="0.0549284356142847" flag="0"/>
			<psa10 value="0.0219165549892072" flag="0"/>
			<psa30 value="0.00688790170635064" flag="0"/>
		</comp>
		<comp name="--.HNZ" depth="0.0">
			<acc value="0.00770102462651152" flag="0"/>
			<vel value="0.010490064008323" flag="0"/>
			<psa03 value="0.0243234706855595" flag="0"/>
			<psa10 value="0.0129749782786331" flag="0"/>
			<psa30 value="0.00547992843503139" flag="0"/>
		</comp>
	</station>
	<station code="JAN2" name="JAN2" netid="HI" source="ITSAK Strong Motion Network" insttype="" lat="39.664" lon="20.85222">
		<comp name="--.HNE" depth="0.0">
			<acc value="0.446996629026003" flag="0"/>
			<vel value="0.168527561597125" flag="0"/>
			<psa03 value="1.30039289464727" flag="0"/>
			<psa10 value="0.103928632261832" flag="0"/>
			<psa30 value="0.0243451244116793" flag="0"/>
		</comp>
		<comp name="--.HNN" depth="0.0">
			<acc value="0.474216015214441" flag="0"/>
			<vel value="0.17434325504385" flag="0"/>
			<psa03 value="1.25885555966935" flag="0"/>
			<psa10 value="0.17814319111213" flag="0"/>
			<psa30 value="0.0228669764916339" flag="0"/>
		</comp>
		<comp name="--.HNZ" depth="0.0">
			<acc value="0.314557552873611" flag="0"/>
			<vel value="0.0981800027281252" flag="0"/>
			<psa03 value="0.36896648388543" flag="0"/>
			<psa10 value="0.0811761675227064" flag="0"/>
			<psa30 value="0.0175565680364692" flag="0"/>
		</comp>
	</station>
	<station code="KAR2" name="KAR2" netid="HI" source="ITSAK Strong Motion Network" insttype="" lat="39.365759" lon="21.91933">
		<comp name="--.HNE" depth="0.0">
			<acc value="0.0240968485870646" flag="0"/>
			<vel value="0.0337917375304878" flag="0"/>
			<psa03 value="0.0640229234961401" flag="0"/>
			<psa10 value="0.0394686833565701" flag="0"/>
			<psa30 value="0.0318487531569244" flag="0"/>
		</comp>
		<comp name="--.HNN" depth="0.0">
			<acc value="0.0183827581221231" flag="0"/>
			<vel value="0.0349458101886465" flag="0"/>
			<psa03 value="0.0417047523184981" flag="0"/>
			<psa10 value="0.0416372007602056" flag="0"/>
			<psa30 value="0.0313120042666113" flag="0"/>
		</comp>
		<comp name="--.HNZ" depth="0.0">
			<acc value="0.0105653310787594" flag="0"/>
			<vel value="0.0118163826884362" flag="0"/>
			<psa03 value="0.0270672800536309" flag="0"/>
			<psa10 value="0.016553264697547" flag="0"/>
			<psa30 value="0.00437949136980982" flag="0"/>
		</comp>
	</station>
	<station code="KAS2" name="KAS2" netid="HI" source="ITSAK Strong Motion Network" insttype="" lat="40.504878" lon="21.280507">
		<comp name="--.HNE" depth="0.0">
			<acc value="0.0046310125654842" flag="0"/>
			<vel value="0.00626421711414647" flag="0"/>
			<psa03 value="0.00830545384138927" flag="0"/>
			<psa10 value="0.011332536349916" flag="0"/>
			<psa30 value="0.00188225323170565" flag="0"/>
		</comp>
		<comp name="--.HNN" depth="0.0">
			<acc value="0.00418431780089266" flag="0"/>
			<vel value="0.00510557593782035" flag="0"/>
			<psa03 value="0.0104481003384958" flag="0"/>
			<psa10 value="0.0105951024985425" flag="0"/>
			<psa30 value="0.0013124293378359" flag="0"/>
		</comp>
		<comp name="--.HNZ" depth="0.0">
			<acc value="0.0035082292121992" flag="0"/>
			<vel value="0.00294018691371208" flag="0"/>
			<psa03 value="0.00747139142738938" flag="0"/>
			<psa10 value="0.00417881557602335" flag="0"/>
			<psa30 value="0.00123590791450048" flag="0"/>
		</comp>
	</station>
	<station code="KNS1" name="KNS1" netid="HI" source="ITSAK Strong Motion Network" insttype="" lat="40.048" lon="20.7524">
		<comp name="--.HNE" depth="0.0">
			<acc value="0.0724712225824897" flag="0"/>
			<vel value="0.0615045036972815" flag="0"/>
			<psa03 value="0.104374258032352" flag="0"/>
			<psa10 value="0.0445884437655707" flag="0"/>
			<psa30 value="0.0260242623129911" flag="0"/>
		</comp>
		<comp name="--.HNN" depth="0.0">
			<acc value="0.0533034855833083" flag="0"/>
			<vel value="0.0284055845042472" flag="0"/>
			<psa03 value="0.160534061677059" flag="0"/>
			<psa10 value="0.0343702768621615" flag="0"/>
			<psa30 value="0.00468697882267783" flag="0"/>
		</comp>
		<comp name="--.HNZ" depth="0.0">
			<acc value="0.0382170876975686" flag="0"/>
			<vel value="0.0313241463138739" flag="0"/>
			<psa03 value="0.0921329158535104" flag="0"/>
			<psa10 value="0.0183291404656011" flag="0"/>
			<psa30 value="0.00769266793483036" flag="0"/>
		</comp>
	</station>
	<station code="KOZ2" name="KOZ2" netid="HI" source="ITSAK Strong Motion Network" insttype="" lat="40.295728" lon="21.788123">
		<comp name="--.HNE" depth="0.0">
			<acc value="0.00713799081598059" flag="0"/>
			<vel value="0.00465916165543822" flag="0"/>
			<psa03 value="0.0301473929501605" flag="0"/>
			<psa10 value="0.00548002708739996" flag="0"/>
			<psa30 value="0.00126456283358157" flag="0"/>
		</comp>
		<comp name="--.HNN" depth="0.0">
			<acc value="0.00707855635727948" flag="0"/>
			<vel value="0.0036170167272784" flag="0"/>
			<psa03 value="0.0208580184601071" flag="0"/>
			<psa10 value="0.00468181952256619" flag="0"/>
			<psa30 value="0.00150461800689201" flag="0"/>
		</comp>
		<comp name="--.HNZ" depth="0.0">
			<acc value="0.00535418593744479" flag="0"/>
			<vel value="0.0024450952425766" flag="0"/>
			<psa03 value="0.0130408625910621" flag="0"/>
			<psa10 value="0.00452756899172554" flag="0"/>
			<psa30 value="0.000870481571382002" flag="0"/>
		</comp>
	</station>
	<station code="KRK1" name="KRK1" netid="HI" source="ITSAK Strong Motion Network" insttype="" lat="39.618861" lon="19.9202">
		<comp name="--.HNE" depth="0.0">
			<acc value="0.0822595105199539" flag="0"/>
			<vel value="0.0409216311111188" flag="0"/>
			<psa03 value="0.17391103116897" flag="0"/>
			<psa10 value="0.0320923984638969" flag="0"/>
			<psa30 value="0.00549714999254172" flag="0"/>
		</comp>
		<comp name="--.HNN" depth="0.0">
			<acc value="0.0712578729471153" flag="0"/>
			<vel value="0.0418963049220036" flag="0"/>
			<psa03 value="0.187884988125038" flag="0"/>
			<psa10 value="0.078508915830372" flag="0"/>
			<psa30 value="0.00839775714353003" flag="0"/>
		</comp>
		<comp name="--.HNZ" depth="0.0">
			<acc value="0.0397907761822924" flag="0"/>
			<vel value="0.0189838900580684" flag="0"/>
			<psa03 value="0.0966492150361664" flag="0"/>
			<psa10 value="0.0131270930429897" flag="0"/>
			<psa30 value="0.0035000014412517" flag="0"/>
		</comp>
	</station>
	<station code="LAR4" name="LAR4" netid="HI" source="ITSAK Strong Motion Network" insttype="" lat="39.6422" lon="22.4219">
		<comp name="--.HNE" depth="0.0">
			<acc value="0.019541564292759" flag="0"/>
			<vel value="0.0233921624377749" flag="0"/>
			<psa03 value="0.0393759782569789" flag="0"/>
			<psa10 value="0.0399686289755138" flag="0"/>
			<psa30 value="0.0122561135740411" flag="0"/>
		</comp>
		<comp name="--.HNN" depth="0.0">
			<acc value="0.0120503611932589" flag="0"/>
			<vel value="0.0160711144666522" flag="0"/>
			<psa03 value="0.0317050846812596" flag="0"/>
			<psa10 value="0.0230515132996251" flag="0"/>
			<psa30 value="0.0094595483153175" flag="0"/>
		</comp>
		<comp name="--.HNZ" depth="0.0">
			<acc value="0.0183179501911933" flag="0"/>
			<vel value="0.0103568971245627" flag="0"/>
			<psa03 value="0.0126926116565635" flag="0"/>
			<psa10 value="0.0116241350418982" flag="0"/>
			<psa30 value="0.00429041380219147" flag="0"/>
		</comp>
	</station>
	<station code="LEF2" name="LEF2" netid="HI" source="ITSAK Strong Motion Network" insttype="" lat="38.830093" lon="20.708346">
		<comp name="--.HNE" depth="0.0">
			<acc value="0.0550143323742663" flag="0"/>
			<vel value="0.057502991871255" flag="0"/>
			<psa03 value="0.102369083532716" flag="0"/>
			<psa10 value="0.0716873639360374" flag="0"/>
			<psa30 value="0.0105685884504502" flag="0"/>
		</comp>
		<comp name="--.HNN" depth="0.0">
			<acc value="0.064467485606915" flag="0"/>
			<vel value="0.0638468097334104" flag="0"/>
			<psa03 value="0.184307584472937" flag="0"/>
			<psa10 value="0.119925616983561" flag="0"/>
			<psa30 value="0.00755086770792791" flag="0"/>
		</comp>
		<comp name="--.HNZ" depth="0.0">
			<acc value="0.0246731182360564" flag="0"/>
			<vel value="0.020766166940943" flag="0"/>
			<psa03 value="0.061368440357993" flag="0"/>
			<psa10 value="0.02910366797517" flag="0"/>
			<psa30 value="0.00551171887432531" flag="0"/>
		</comp>
	</station>
	<station code="LMS2" name="LMS2" netid="HI" source="ITSAK Strong Motion Network" insttype="" lat="40.834985" lon="21.141815">
		<comp name="--.HNE" depth="0.0">
			<acc value="0.00569951935997771" flag="0"/>
			<vel value="0.00620632978968059" flag="0"/>
			<psa03 value="0.0162407776947333" flag="0"/>
			<psa10 value="0.00998468768655692" flag="0"/>
			<psa30 value="0.00293281261777576" flag="0"/>
		</comp>
		<comp name="--.HNN" depth="0.0">
			<acc value="0.00677006348062219" flag="0"/>
			<vel value="0.0059977705333457" flag="0"/>
			<psa03 value="0.0129176434909014" flag="0"/>
			<psa10 value="0.0125764084378372" flag="0"/>
			<psa30 value="0.000785254102563801" flag="0"/>
		</comp>
		<comp name="--.HNZ" depth="0.0">
			<acc value="0.00415449003391558" flag="0"/>
			<vel value="0.00520654953379699" flag="0"/>
			<psa03 value="0.00796502959724548" flag="0"/>
			<psa10 value="0.00880003577168154" flag="0"/>
			<psa30 value="0.000933662058862557" flag="0"/>
		</comp>
	</station>
	<station code="LXR2" name="LXR2" netid="HI" source="ITSAK Strong Motion Network" insttype="" lat="38.206718" lon="20.436386">
		<comp name="--.HNE" depth="0.0">
			<acc value="0.0163984737551806" flag="0"/>
			<vel value="0.0191667151885747" flag="0"/>
			<psa03 value="0.0558428347304051" flag="0"/>
			<psa10 value="0.0254230860296794" flag="0"/>
			<psa30 value="0.00499777357797174" flag="0"/>
		</comp>
		<comp name="--.HNN" depth="0.0">
			<acc value="0.0208332108202856" flag="0"/>
			<vel value="0.020285761131783" flag="0"/>
			<psa03 value="0.0483174612113421" flag="0"/>
			<psa10 value="0.0353828664412516" flag="0"/>
			<psa30 value="0.00542548066146694" flag="0"/>
		</comp>
		<comp name="--.HNZ" depth="0.0">
			<acc value="0.00982697673764049" flag="0"/>
			<vel value="0.0142158128738961" flag="0"/>
			<psa03 value="0.0243393493416092" flag="0"/>
			<psa10 value="0.0215195536898195" flag="0"/>
			<psa30 value="0.00347612944318232" flag="0"/>
		</comp>
	</station>
	<station code="MSL1" name="MSL1" netid="HI" source="ITSAK Strong Motion Network" insttype="" lat="38.3727" lon="21.4243">
		<comp name="--.HNE" depth="0.0">
			<acc value="0.0222463365899818" flag="0"/>
			<vel value="0.0308508400430117" flag="0"/>
			<psa03 value="0.0443328795440286" flag="0"/>
			<psa10 value="0.0534685032759322" flag="0"/>
			<psa30 value="0.00726933322431674" flag="0"/>
		</comp>
		<comp name="--.HNN" depth="0.0">
			<acc value="0.0311631656959187" flag="0"/>
			<vel value="0.0378481834780183" flag="0"/>
			<psa03 value="0.0630561719535949" flag="0"/>
			<psa10 value="0.0868443305106864" flag="0"/>
			<psa30 value="0.00533462922633857" flag="0"/>
		</comp>
		<comp name="--.HNZ" depth="0.0">
			<acc value="0.010217342843515" flag="0"/>
			<vel value="0.0142569988098011" flag="0"/>
			<psa03 value="0.0186605669001425" flag="0"/>
			<psa10 value="0.0540238363140206" flag="0"/>
			<psa30 value="0.00156922884954324" flag="0"/>
		</comp>
	</station>
	<station code="PRE2" name="PRE2" netid="HI" source="ITSAK Strong Motion Network" insttype="" lat="38.9577" lon="20.7548">
		<comp name="--.HNE" depth="0.0">
			<acc value="0.0705668267498627" flag="0"/>
			<vel value="0.0701253715661569" flag="0"/>
			<psa03 value="0.124276076430148" flag="0"/>
			<psa10 value="0.118785826478034" flag="0"/>
			<psa30 value="0.0138988815660249" flag="0"/>
		</comp>
		<comp name="--.HNN" depth="0.0">
			<acc value="0.0538255847160319" flag="0"/>
			<vel value="0.0443630713082219" flag="0"/>
			<psa03 value="0.147396743477536" flag="0"/>
			<psa10 value="0.0785559139437663" flag="0"/>
			<psa30 value="0.0133023095460564" flag="0"/>
		</comp>
		<comp name="--.HNZ" depth="0.0">
			<acc value="0.0389953040602213" flag="0"/>
			<vel value="0.0227261328951075" flag="0"/>
			<psa03 value="0.0967049687295749" flag="0"/>
			<psa10 value="0.0245528052528491" flag="0"/>
			<psa30 value="0.00358464163158225" flag="0"/>
		</comp>
	</station>
	<station code="PTO1" name="PTO1" netid="HI" source="ITSAK Strong Motion Network" insttype="" lat="40.510132" lon="21.681568">
		<comp name="--.HNE" depth="0.0">
			<acc value="0.0127468363793872" flag="0"/>
			<vel value="0.0220653838806784" flag="0"/>
			<psa03 value="0.0227644142807241" flag="0"/>
