<stationlist xmlns:esm="https://esm-db.eu/esmws/shakemap/1/" created="1780624476">
	<station code="SRN" name="SRN" netid="AC" source="Albanian Seismological Network (AC)" insttype="" lat="39.880001" lon="20.0005" esm:processing="manual (Paolucci et al 2011)" esm:quality="good">
		<comp name="01.HNE" depth="0.0">
			<acc value="0.0594361148630741" flag="0"/>
			<vel value="0.0734597608905549" flag="0"/>
			<psa03 value="0.154029818302857" flag="0"/>
			<psa10 value="0.0845479858891251" flag="0"/>
			<psa30 value="0.0351177497119028" flag="0"/>
		</comp>
		<comp name="01.HNN" depth="0.0">
			<acc value="0.0751069200956647" flag="0"/>
			<vel value="0.0819816814031503" flag="0"/>
			<psa03 value="0.159404236831708" flag="0"/>
			<psa10 value="0.050246844856873" flag="0"/>
			<psa30 value="0.0576926951912487" flag="0"/>
		</comp>
		<comp name="01.HNZ" depth="0.0">
			<acc value="0.0570031338344261" flag="0"/>
			<vel value="0.0777083604671189" flag="0"/>
			<psa03 value="0.112481815951608" flag="0"/>
			<psa10 value="0.103187875690345" flag="0"/>
			<psa30 value="0.0230555706517381" flag="0"/>
		</comp>
	</station>
	<station code="AGR3" name="AGR3" netid="HI" source="ITSAK Strong Motion Network" insttype="" lat="38.5893" lon="21.4162" esm:processing="manual (Paolucci et al 2011)" esm:quality="good">
		<comp name="--.HNE" depth="0.0">
			<acc value="0.0159855889327963" flag="0"/>
			<vel value="0.027994370724872" flag="0"/>
			<psa03 value="0.0340863882642685" flag="0"/>
			<psa10 value="0.0569591032610502" flag="0"/>
			<psa30 value="0.0138009467449903" flag="0"/>
		</comp>
		<comp name="--.HNN" depth="0.0">
			<acc value="0.0172602799796013" flag="0"/>
			<vel value="0.0355476804753917" flag="0"/>
			<psa03 value="0.0364011509809382" flag="0"/>
			<psa10 value="0.0482156615509475" flag="0"/>
			<psa30 value="0.0156778285792006" flag="0"/>
		</comp>
		<comp name="--.HNZ" depth="0.0">
			<acc value="0.0136515268244664" flag="0"/>
			<vel value="0.0192936801494763" flag="0"/>
			<psa03 value="0.0245411830246002" flag="0"/>
			<psa10 value="0.0628119959864688" flag="0"/>
			<psa30 value="0.00560429459034549" flag="0"/>
		</comp>
	</station>
	<station code="ARG2" name="ARG2" netid="HI" source="ITSAK Strong Motion Network" insttype="" lat="38.1783" lon="20.4878" esm:processing="manual (Paolucci et al 2011)" esm:quality="good">
		<comp name="--.HNE" depth="0.0">
			<acc value="0.0186472732007096" flag="0"/>
			<vel value="0.00892791514158561" flag="0"/>
			<psa03 value="0.0384872370905717" flag="0"/>
			<psa10 value="0.00859495062329696" flag="0"/>
			<psa30 value="0.00133481186223496" flag="0"/>
		</comp>
		<comp name="--.HNN" depth="0.0">
			<acc value="0.017238225750251" flag="0"/>
			<vel value="0.0123181093755831" flag="0"/>
			<psa03 value="0.0278188949485956" flag="0"/>
			<psa10 value="0.0204793491563742" flag="0"/>
			<psa30 value="0.00160975361744356" flag="0"/>
		</comp>
		<comp name="--.HNZ" depth="0.0">
			<acc value="0.00821427400338192" flag="0"/>
			<vel value="0.0054840401494483" flag="0"/>
			<psa03 value="0.0224691004467986" flag="0"/>
			<psa10 value="0.00719187158244646" flag="0"/>
			<psa30 value="0.00192454436661911" flag="0"/>
		</comp>
	</station>
	<station code="ART2" name="ART2" netid="HI" source="ITSAK Strong Motion Network" insttype="" lat="39.1474" lon="20.9937" esm:processing="automatic (Paolucci et al 2011)" esm:quality="best">
		<comp name="--.HNE" depth="0.0">
			<acc value="0.0197720915260003" flag="0"/>
			<vel value="0.0131236710127378" flag="0"/>
			<psa03 value="0.052376099867901" flag="0"/>
			<psa10 value="0.0125451107395183" flag="0"/>
			<psa30 value="0.00626288238522139" flag="0"/>
		</comp>
		<comp name="--.HNN" depth="0.0">
			<acc value="0.0246095271790423" flag="0"/>
			<vel value="0.0130759953519107" flag="0"/>
			<psa03 value="0.0487047056143833" flag="0"/>
			<psa10 value="0.0141465333884094" flag="0"/>
			<psa30 value="0.00736677551272346" flag="0"/>
		</comp>
		<comp name="--.HNZ" depth="0.0">
			<acc value="0.0173963667635055" flag="0"/>
			<vel value="0.0119177356898442" flag="0"/>
			<psa03 value="0.0386233502740687" flag="0"/>
			<psa10 value="0.0128268106507549" flag="0"/>
			<psa30 value="0.00289139695752486" flag="0"/>
		</comp>
	</station>
	<station code="AST1" name="AST1" netid="HI" source="ITSAK Strong Motion Network" insttype="" lat="38.5416" lon="21.0895" esm:processing="manual (Paolucci et al 2011)" esm:quality="good">
		<comp name="--.HNE" depth="0.0">
			<acc value="0.00979744022500673" flag="0"/>
			<vel value="0.0125093987909088" flag="0"/>
			<psa03 value="0.0211452288926387" flag="0"/>
			<psa10 value="0.0205753930188087" flag="0"/>
			<psa30 value="0.00350869368373677" flag="0"/>
		</comp>
		<comp name="--.HNN" depth="0.0">
			<acc value="0.00928683571912579" flag="0"/>
			<vel value="0.0131141288656896" flag="0"/>
			<psa03 value="0.024917819954115" flag="0"/>
			<psa10 value="0.0198009873432333" flag="0"/>
			<psa30 value="0.00208605381582748" flag="0"/>
		</comp>
		<comp name="--.HNZ" depth="0.0">
			<acc value="0.00537774699610871" flag="0"/>
			<vel value="0.00671436349819388" flag="0"/>
			<psa03 value="0.0110523389340456" flag="0"/>
			<psa10 value="0.00855959890641922" flag="0"/>
			<psa30 value="0.00139724985261205" flag="0"/>
		</comp>
	</station>
	<station code="FRS1" name="FRS1" netid="HI" source="ITSAK Strong Motion Network" insttype="" lat="39.2934" lon="22.3844" esm:processing="manual (Paolucci et al 2011)" esm:quality="good">
		<comp name="--.HNE" depth="0.0">
			<acc value="0.00264638432991482" flag="0"/>
			<vel value="0.00361568591378493" flag="0"/>
			<psa03 value="0.00765661984369624" flag="0"/>
			<psa10 value="0.00664884639094255" flag="0"/>
			<psa30 value="0.000696446448659241" flag="0"/>
		</comp>
		<comp name="--.HNN" depth="0.0">
			<acc value="0.0035141073636321" flag="0"/>
			<vel value="0.00499150164064714" flag="0"/>
			<psa03 value="0.00824772150128007" flag="0"/>
			<psa10 value="0.00712984950503822" flag="0"/>
			<psa30 value="0.00128319927648778" flag="0"/>
		</comp>
		<comp name="--.HNZ" depth="0.0">
			<acc value="0.00219474688534599" flag="0"/>
			<vel value="0.00292236469039895" flag="0"/>
			<psa03 value="0.00605999910144954" flag="0"/>
			<psa10 value="0.0051138415794072" flag="0"/>
			<psa30 value="0.00106821388892762" flag="0"/>
		</comp>
	</station>
	<station code="GRE3" name="GRE3" netid="HI" source="ITSAK Strong Motion Network" insttype="" lat="40.08481" lon="21.43829" esm:processing="manual (Paolucci et al 2011)" esm:quality="good">
		<comp name="--.HNE" depth="0.0">
			<acc value="0.0187698223894175" flag="0"/>
			<vel value="0.014082294447127" flag="0"/>
			<psa03 value="0.0745933164411292" flag="0"/>
			<psa10 value="0.0117453140069099" flag="0"/>
			<psa30 value="0.00637994222319449" flag="0"/>
		</comp>
		<comp name="--.HNN" depth="0.0">
			<acc value="0.0139946189407861" flag="0"/>
			<vel value="0.0171473337021859" flag="0"/>
			<psa03 value="0.0549284356142847" flag="0"/>
			<psa10 value="0.0219165549892072" flag="0"/>
			<psa30 value="0.00688790170635064" flag="0"/>
		</comp>
		<comp name="--.HNZ" depth="0.0">
			<acc value="0.00770102462651152" flag="0"/>
			<vel value="0.010490064008323" flag="0"/>
			<psa03 value="0.0243234706855595" flag="0"/>
			<psa10 value="0.0129749782786331" flag="0"/>
			<psa30 value="0.00547992843503139" flag="0"/>
		</comp>
	</station>
	<station code="JAN2" name="JAN2" netid="HI" source="ITSAK Strong Motion Network" insttype="" lat="39.664" lon="20.85222" esm:processing="automatic (Paolucci et al 2011)" esm:quality="best">
		<comp name="--.HNE" depth="0.0">
			<acc value="0.446996629026003" flag="0"/>
			<vel value="0.168527561597125" flag="0"/>
			<psa03 value="1.30039289464727" flag="0"/>
			<psa10 value="0.103928632261832" flag="0"/>
			<psa30 value="0.0243451244116793" flag="0"/>
		</comp>
		<comp name="--.HNN" depth="0.0">
			<acc value="0.474216015214441" flag="0"/>
			<vel value="0.17434325504385" flag="0"/>
			<psa03 value="1.25885555966935" flag="0"/>
			<psa10 value="0.17814319111213" flag="0"/>
			<psa30 value="0.0228669764916339" flag="0"/>
		</comp>
		<comp name="--.HNZ" depth="0.0">
			<acc value="0.314557552873611" flag="0"/>
			<vel value="0.0981800027281252" flag="0"/>
			<psa03 value="0.36896648388543" flag="0"/>
			<psa10 value="0.0811761675227064" flag="0"/>
			<psa30 value="0.0175565680364692" flag="0"/>
		</comp>
	</station>
	<station code="KAR2" name="KAR2" netid="HI" source="ITSAK Strong Motion Network" insttype="" lat="39.365759" lon="21.91933" esm:processing="manual (Paolucci et al 2011)" esm:quality="good">
		<comp name="--.HNE" depth="0.0">
			<acc value="0.0240555347199924" flag="0"/>
			<vel value="0.0336348251950598" flag="0"/>
			<psa03 value="0.0639150257234422" flag="0"/>
			<psa10 value="0.0394757938276039" flag="0"/>
			<psa30 value="0.0317216847392653" flag="0"/>
		</comp>
		<comp name="--.HNN" depth="0.0">
			<acc value="0.0182562456842998" flag="0"/>
			<vel value="0.0349001396864061" flag="0"/>
			<psa03 value="0.0416614213230323" flag="0"/>
			<psa10 value="0.0416366832259215" flag="0"/>
			<psa30 value="0.031176381948965" flag="0"/>
		</comp>
		<comp name="--.HNZ" depth="0.0">
			<acc value="0.0098066220685359" flag="0"/>
			<vel value="0.011734544029477" flag="0"/>
			<psa03 value="0.027055208941479" flag="0"/>
			<psa10 value="0.0165449053937841" flag="0"/>
			<psa30 value="0.00436701846020744" flag="0"/>
		</comp>
	</station>
	<station code="KNS1" name="KNS1" netid="HI" source="ITSAK Strong Motion Network" insttype="" lat="40.048" lon="20.7524" esm:processing="automatic (Paolucci et al 2011)" esm:quality="best">
		<comp name="--.HNE" depth="0.0">
			<acc value="0.0724712225824897" flag="0"/>
			<vel value="0.0615045036972815" flag="0"/>
			<psa03 value="0.104374258032352" flag="0"/>
			<psa10 value="0.0445884437655707" flag="0"/>
			<psa30 value="0.0260242623129911" flag="0"/>
		</comp>
		<comp name="--.HNN" depth="0.0">
			<acc value="0.0533034855833083" flag="0"/>
			<vel value="0.0284055845042472" flag="0"/>
			<psa03 value="0.160534061677059" flag="0"/>
			<psa10 value="0.0343702768621615" flag="0"/>
			<psa30 value="0.00468697882267783" flag="0"/>
		</comp>
		<comp name="--.HNZ" depth="0.0">
			<acc value="0.0382170876975686" flag="0"/>
			<vel value="0.0313241463138739" flag="0"/>
			<psa03 value="0.0921329158535104" flag="0"/>
			<psa10 value="0.0183291404656011" flag="0"/>
			<psa30 value="0.00769266793483036" flag="0"/>
		</comp>
	</station>
	<station code="KRK1" name="KRK1" netid="HI" source="ITSAK Strong Motion Network" insttype="" lat="39.618861" lon="19.9202" esm:processing="automatic (Paolucci et al 2011)" esm:quality="best">
		<comp name="--.HNE" depth="0.0">
			<acc value="0.0822595105199539" flag="0"/>
			<vel value="0.0409216311111188" flag="0"/>
			<psa03 value="0.17391103116897" flag="0"/>
			<psa10 value="0.0320923984638969" flag="0"/>
			<psa30 value="0.00549714999254172" flag="0"/>
		</comp>
		<comp name="--.HNN" depth="0.0">
			<acc value="0.0712578729471153" flag="0"/>
			<vel value="0.0418963049220036" flag="0"/>
			<psa03 value="0.187884988125038" flag="0"/>
			<psa10 value="0.078508915830372" flag="0"/>
			<psa30 value="0.00839775714353003" flag="0"/>
		</comp>
		<comp name="--.HNZ" depth="0.0">
			<acc value="0.0397907761822924" flag="0"/>
			<vel value="0.0189838900580684" flag="0"/>
			<psa03 value="0.0966492150361664" flag="0"/>
			<psa10 value="0.0131270930429897" flag="0"/>
			<psa30 value="0.0035000014412517" flag="0"/>
		</comp>
	</station>
	<station code="LEF2" name="LEF2" netid="HI" source="ITSAK Strong Motion Network" insttype="" lat="38.830093" lon="20.708346" esm:processing="automatic (Paolucci et al 2011)" esm:quality="best">
		<comp name="--.HNE" depth="0.0">
			<acc value="0.0550143323742663" flag="0"/>
			<vel value="0.057502991871255" flag="0"/>
			<psa03 value="0.102369083532716" flag="0"/>
			<psa10 value="0.0716873639360374" flag="0"/>
			<psa30 value="0.0105685884504502" flag="0"/>
		</comp>
		<comp name="--.HNN" depth="0.0">
			<acc value="0.064467485606915" flag="0"/>
			<vel value="0.0638468097334104" flag="0"/>
			<psa03 value="0.184307584472937" flag="0"/>
			<psa10 value="0.119925616983561" flag="0"/>
			<psa30 value="0.00755086770792791" flag="0"/>
		</comp>
		<comp name="--.HNZ" depth="0.0">
			<acc value="0.0246731182360564" flag="0"/>
			<vel value="0.020766166940943" flag="0"/>
			<psa03 value="0.061368440357993" flag="0"/>
			<psa10 value="0.02910366797517" flag="0"/>
			<psa30 value="0.00551171887432531" flag="0"/>
		</comp>
	</station>
	<station code="LMS2" name="LMS2" netid="HI" source="ITSAK Strong Motion Network" insttype="" lat="40.834985" lon="21.141815" esm:processing="manual (Paolucci et al 2011)" esm:quality="good">
		<comp name="--.HNE" depth="0.0">
			<acc value="0.00569951935997771" flag="0"/>
			<vel value="0.00620632978968059" flag="0"/>
			<psa03 value="0.0162407776947333" flag="0"/>
			<psa10 value="0.00998468768655692" flag="0"/>
			<psa30 value="0.00293281261777576" flag="0"/>
		</comp>
		<comp name="--.HNN" depth="0.0">
			<acc value="0.00677006348062219" flag="0"/>
			<vel value="0.0059977705333457" flag="0"/>
			<psa03 value="0.0129176434909014" flag="0"/>
			<psa10 value="0.0125764084378372" flag="0"/>
			<psa30 value="0.000785254102563801" flag="0"/>
		</comp>
		<comp name="--.HNZ" depth="0.0">
			<acc value="0.00415449003391558" flag="0"/>
			<vel value="0.00520654953379699" flag="0"/>
			<psa03 value="0.00796502959724548" flag="0"/>
			<psa10 value="0.00880003577168154" flag="0"/>
			<psa30 value="0.000933662058862557" flag="0"/>
		</comp>
	</station>
	<station code="LXR2" name="LXR2" netid="HI" source="ITSAK Strong Motion Network" insttype="" lat="38.206718" lon="20.436386" esm:processing="manual (Paolucci et al 2011)" esm:quality="good">
		<comp name="--.HNE" depth="0.0">
			<acc value="0.0164111634337026" flag="0"/>
			<vel value="0.0194822963902266" flag="0"/>
			<psa03 value="0.0558362978390348" flag="0"/>
			<psa10 value="0.0254404403043149" flag="0"/>
			<psa30 value="0.00541174558491886" flag="0"/>
		</comp>
		<comp name="--.HNN" depth="0.0">
			<acc value="0.0208817523308511" flag="0"/>
			<vel value="0.02051436147268" flag="0"/>
			<psa03 value="0.0482750677779852" flag="0"/>
			<psa10 value="0.0355052670496912" flag="0"/>
			<psa30 value="0.00585474951508842" flag="0"/>
		</comp>
		<comp name="--.HNZ" depth="0.0">
			<acc value="0.0095899735291452" flag="0"/>
			<vel value="0.0145570216999432" flag="0"/>
			<psa03 value="0.0243310961907118" flag="0"/>
			<psa10 value="0.0215052858696464" flag="0"/>
			<psa30 value="0.00378400692188763" flag="0"/>
		</comp>
	</station>
	<station code="MSL1" name="MSL1" netid="HI" source="ITSAK Strong Motion Network" insttype="" lat="38.3727" lon="21.4243" esm:processing="manual (Paolucci et al 2011)" esm:quality="good">
		<comp name="--.HNE" depth="0.0">
			<acc value="0.0223033234312063" flag="0"/>
			<vel value="0.0307031586453478" flag="0"/>
			<psa03 value="0.0445569256359827" flag="0"/>
			<psa10 value="0.0534775226234197" flag="0"/>
			<psa30 value="0.00724535496920835" flag="0"/>
		</comp>
		<comp name="--.HNN" depth="0.0">
			<acc value="0.0312432936354531" flag="0"/>
			<vel value="0.0378843071609857" flag="0"/>
			<psa03 value="0.0632235163726748" flag="0"/>
			<psa10 value="0.0868368300138153" flag="0"/>
			<psa30 value="0.00532769376689842" flag="0"/>
		</comp>
		<comp name="--.HNZ" depth="0.0">
			<acc value="0.0103139870563191" flag="0"/>
			<vel value="0.0144729976904081" flag="0"/>
			<psa03 value="0.0187670752578818" flag="0"/>
			<psa10 value="0.0540063339045718" flag="0"/>
			<psa30 value="0.001564846996767" flag="0"/>
		</comp>
	</station>
	<station code="PRE2" name="PRE2" netid="HI" source="ITSAK Strong Motion Network" insttype="" lat="38.9577" lon="20.7548" esm:processing="manual (Paolucci et al 2011)" esm:quality="good">
		<comp name="--.HNE" depth="0.0">
			<acc value="0.0703940932099711" flag="0"/>
			<vel value="0.0700837109834508" flag="0"/>
			<psa03 value="0.124297525767728" flag="0"/>
			<psa10 value="0.118814103351238" flag="0"/>
			<psa30 value="0.0137806812358331" flag="0"/>
		</comp>
		<comp name="--.HNN" depth="0.0">
			<acc value="0.0539602255078818" flag="0"/>
			<vel value="0.0442216019724957" flag="0"/>
			<psa03 value="0.147634780079626" flag="0"/>
			<psa10 value="0.078542608062317" flag="0"/>
			<psa30 value="0.0132981826060002" flag="0"/>
		</comp>
		<comp name="--.HNZ" depth="0.0">
			<acc value="0.0391790066174811" flag="0"/>
			<vel value="0.0228502524084141" flag="0"/>
			<psa03 value="0.0968517805384701" flag="0"/>
			<psa10 value="0.0245616802157718" flag="0"/>
			<psa30 value="0.00356878808136235" flag="0"/>
		</comp>
	</station>
	<station code="VSK1" name="VSK1" netid="HI" source="ITSAK Strong Motion Network" insttype="" lat="38.4091" lon="20.564" esm:processing="automatic (Paolucci et al 2011)" esm:quality="best">
		<comp name="--.HNE" depth="0.0">
			<acc value="0.00770225037365423" flag="0"/>
			<vel value="0.00735204306567616" flag="0"/>
			<psa03 value="0.0193923471478258" flag="0"/>
			<psa10 value="0.0124678753105502" flag="0"/>
			<psa30 value="0.00196292170059581" flag="0"/>
		</comp>
		<comp name="--.HNN" depth="0.0">
			<acc value="0.0100557397914762" flag="0"/>
			<vel value="0.0105459199507385" flag="0"/>
			<psa03 value="0.0266528463494319" flag="0"/>
			<psa10 value="0.0136478234763253" flag="0"/>
			<psa30 value="0.001739078434578" flag="0"/>
		</comp>
		<comp name="--.HNZ" depth="0.0">
			<acc value="0.00597359246623024" flag="0"/>
			<vel value="0.00722668088564015" flag="0"/>
			<psa03 value="0.0142663747648124" flag="0"/>
			<psa10 value="0.00757701694018621" flag="0"/>
			<psa30 value="0.00161528950500228" flag="0"/>
		</comp>
	</station>
</stationlist>
