<?xml version="1.0" encoding="UTF-8" standalone="yes"?>
<!DOCTYPE earthquake SYSTEM "stationlist.dtd">
<stationlist created="" xmlns="ch.ethz.sed.shakemap.usgs.xml">
  <station code="JAN2" name="JAN2" netid="HI" insttype="unknown" commtype="DIG" lat="39.664" lon="20.8522">
    <comp name="--.HNE">
      <acc value="0.4467282730" flag="0"/>
      <vel value="0.1650613390" flag="0"/>
      <psa03 value="1.2732971077" flag="0"/>
      <psa10 value="0.1022957519" flag="0"/>
      <psa30 value="0.0225203105" flag="0"/>
    </comp>
    <comp name="--.HNZ">
      <acc value="0.3225545768" flag="0"/>
      <vel value="0.0960311584" flag="0"/>
      <psa03 value="0.3621245724" flag="0"/>
      <psa10 value="0.0808853054" flag="0"/>
      <psa30 value="0.0163763081" flag="0"/>
    </comp>
    <comp name="--.HNN">
      <acc value="0.4696960396" flag="0"/>
      <vel value="0.1736684037" flag="0"/>
      <psa03 value="1.2598133649" flag="0"/>
      <psa10 value="0.1773591671" flag="0"/>
      <psa30 value="0.0192101630" flag="0"/>
    </comp>
  </station>
  <station code="KNS1" name="KNS1" netid="HI" insttype="unknown" commtype="DIG" lat="40.048" lon="20.7524">
    <comp name="--.HNN">
      <acc value="0.0529285014" flag="0"/>
      <vel value="0.0268748151" flag="0"/>
      <psa03 value="0.1583404651" flag="0"/>
      <psa10 value="0.0345560924" flag="0"/>
      <psa30 value="0.0041974559" flag="0"/>
    </comp>
    <comp name="--.HNE">
      <acc value="0.0705331279" flag="0"/>
      <vel value="0.0530953315" flag="0"/>
      <psa03 value="0.1033040562" flag="0"/>
      <psa10 value="0.0436622850" flag="0"/>
      <psa30 value="0.0207295090" flag="0"/>
    </comp>
    <comp name="--.HNZ">
      <acc value="0.0375873100" flag="0"/>
      <vel value="0.0273762564" flag="0"/>
      <psa03 value="0.0915351177" flag="0"/>
      <psa10 value="0.0182435659" flag="0"/>
      <psa30 value="0.0063372945" flag="0"/>
    </comp>
  </station>
  <station code="KRK1" name="KRK1" netid="HI" insttype="CMG-5TD,ACCELEROMETER,GURALP" commtype="DIG" lat="39.6189" lon="19.9202">
    <comp name="--.HNZ">
      <acc value="0.0395903148" flag="0"/>
      <vel value="0.0166313570" flag="0"/>
      <psa03 value="0.0947818822" flag="0"/>
      <psa10 value="0.0129366465" flag="0"/>
      <psa30 value="0.0028173401" flag="0"/>
    </comp>
    <comp name="--.HNE">
      <acc value="0.0824106523" flag="0"/>
      <vel value="0.0396140892" flag="0"/>
      <psa03 value="0.1710282229" flag="0"/>
      <psa10 value="0.0319241408" flag="0"/>
      <psa30 value="0.0049750086" flag="0"/>
    </comp>
    <comp name="--.HNN">
      <acc value="0.0715092091" flag="0"/>
      <vel value="0.0388691991" flag="0"/>
      <psa03 value="0.1861319805" flag="0"/>
      <psa10 value="0.0772605547" flag="0"/>
      <psa30 value="0.0057145187" flag="0"/>
    </comp>
  </station>
  <station code="LEF2" name="LEF2" netid="HI" insttype="unknown" commtype="DIG" lat="38.8301" lon="20.7083">
    <comp name="--.HNN">
      <acc value="0.0641273017" flag="0"/>
      <vel value="0.0552602918" flag="0"/>
      <psa03 value="0.1848169591" flag="0"/>
      <psa10 value="0.1196687116" flag="0"/>
      <psa30 value="0.0060649149" flag="0"/>
    </comp>
    <comp name="--.HNZ">
      <acc value="0.0248699040" flag="0"/>
      <vel value="0.0197395892" flag="0"/>
      <psa03 value="0.0617090603" flag="0"/>
      <psa10 value="0.0289641971" flag="0"/>
      <psa30 value="0.0045832612" flag="0"/>
    </comp>
    <comp name="--.HNE">
      <acc value="0.0550443722" flag="0"/>
      <vel value="0.0520032761" flag="0"/>
      <psa03 value="0.1010223726" flag="0"/>
      <psa10 value="0.0716090186" flag="0"/>
      <psa30 value="0.0094520457" flag="0"/>
    </comp>
  </station>
  <station code="PRE2" name="PRE2" netid="HI" insttype="unknown" commtype="DIG" lat="38.9577" lon="20.7548">
    <comp name="--.HNN">
      <acc value="0.0541066345" flag="0"/>
      <vel value="0.0444705707" flag="0"/>
      <psa03 value="0.1479161724" flag="0"/>
      <psa10 value="0.0784008202" flag="0"/>
      <psa30 value="0.0127753406" flag="0"/>
    </comp>
    <comp name="--.HNE">
      <acc value="0.0690823947" flag="0"/>
      <vel value="0.0698420516" flag="0"/>
      <psa03 value="0.1241420727" flag="0"/>
      <psa10 value="0.1189472715" flag="0"/>
      <psa30 value="0.0115981724" flag="0"/>
    </comp>
    <comp name="--.HNZ">
      <acc value="0.0400140066" flag="0"/>
      <vel value="0.0237750568" flag="0"/>
      <psa03 value="0.0967546001" flag="0"/>
      <psa10 value="0.0244189248" flag="0"/>
      <psa30 value="0.0033957611" flag="0"/>
    </comp>
  </station>
  <station code="ARTB" name="ARTB" netid="HL" insttype="CMG-5" commtype="DIG" lat="39.157" lon="20.9785">
    <comp name="00.HNN">
      <acc value="0.0581069659" flag="0"/>
      <vel value="0.0301954037" flag="0"/>
      <psa03 value="0.1902499387" flag="0"/>
      <psa10 value="0.0198827389" flag="0"/>
      <psa30 value="0.0071087571" flag="0"/>
    </comp>
    <comp name="00.HNZ">
      <acc value="0.0386223006" flag="0"/>
      <vel value="0.0204647506" flag="0"/>
      <psa03 value="0.1078961386" flag="0"/>
      <psa10 value="0.0235891313" flag="0"/>
      <psa30 value="0.0025845242" flag="0"/>
    </comp>
    <comp name="00.HNE">
      <acc value="0.1357483597" flag="0"/>
      <vel value="0.0560437777" flag="0"/>
      <psa03 value="0.4142888449" flag="0"/>
      <psa10 value="0.0274685587" flag="0"/>
      <psa30 value="0.0070340518" flag="0"/>
    </comp>
  </station>
  <station code="JAN" name="JAN" netid="HL" insttype="CMG3EPSC60_DR24" commtype="DIG" lat="39.6562" lon="20.8487">
    <comp name="--.HHE">
      <acc value="0.4980652819" flag="0"/>
      <vel value="0.2078839638" flag="0"/>
      <psa03 value="1.4954198885" flag="0"/>
      <psa10 value="0.1270140482" flag="0"/>
      <psa30 value="0.0171971621" flag="0"/>
    </comp>
    <comp name="--.HHN">
      <acc value="0.6423878042" flag="0"/>
      <vel value="0.2464398001" flag="0"/>
      <psa03 value="1.6116272498" flag="0"/>
      <psa10 value="0.1538271876" flag="0"/>
      <psa30 value="0.0208652781" flag="0"/>
    </comp>
    <comp name="--.HHZ">
      <acc value="0.2092780736" flag="0"/>
      <vel value="0.0968538526" flag="0"/>
      <psa03 value="0.2494075979" flag="0"/>
      <psa10 value="0.0574567070" flag="0"/>
      <psa30 value="0.0164573982" flag="0"/>
    </comp>
  </station>
  <station code="KEK" name="KEK" netid="HL" insttype="120" commtype="DIG" lat="39.7127" lon="19.7962">
    <comp name="--.HHZ">
      <acc value="0.0163822208" flag="0"/>
      <vel value="0.0144598911" flag="0"/>
      <psa03 value="0.0403855555" flag="0"/>
      <psa10 value="0.0250622162" flag="0"/>
      <psa30 value="0.0031453379" flag="0"/>
    </comp>
    <comp name="--.HHE">
      <acc value="0.0228954660" flag="0"/>
      <vel value="0.0182362255" flag="0"/>
      <psa03 value="0.0741274058" flag="0"/>
      <psa10 value="0.0150778340" flag="0"/>
      <psa30 value="0.0048473612" flag="0"/>
    </comp>
    <comp name="--.HHN">
      <acc value="0.0235396893" flag="0"/>
      <vel value="0.0263600352" flag="0"/>
      <psa03 value="0.0521042915" flag="0"/>
      <psa10 value="0.0166737085" flag="0"/>
      <psa30 value="0.0066151899" flag="0"/>
    </comp>
  </station>
  <station code="PENT" name="PENT" netid="HL" insttype="Horizon,120s,1200" commtype="DIG" lat="40.1961" lon="21.1381">
    <comp name="--.HHE">
      <acc value="0.0091017346" flag="0"/>
      <vel value="0.0070902128" flag="0"/>
      <psa03 value="0.0204449700" flag="0"/>
      <psa10 value="0.0074071724" flag="0"/>
      <psa30 value="0.0018721196" flag="0"/>
    </comp>
    <comp name="--.HHN">
      <acc value="0.0102222687" flag="0"/>
      <vel value="0.0088654036" flag="0"/>
      <psa03 value="0.0444270414" flag="0"/>
      <psa10 value="0.0095927115" flag="0"/>
      <psa30 value="0.0019966114" flag="0"/>
    </comp>
    <comp name="--.HHZ">
      <acc value="0.0063542206" flag="0"/>
      <vel value="0.0051077722" flag="0"/>
      <psa03 value="0.0219122972" flag="0"/>
      <psa10 value="0.0079603941" flag="0"/>
      <psa30 value="0.0028604262" flag="0"/>
    </comp>
  </station>
  <station code="PRGA" name="PRGA" netid="HL" insttype="CMG-5" commtype="DIG" lat="39.2856" lon="20.4016">
    <comp name="00.HNN">
      <acc value="0.1719883333" flag="0"/>
      <vel value="0.0848058324" flag="0"/>
      <psa03 value="0.3882001000" flag="0"/>
      <psa10 value="0.0437285237" flag="0"/>
      <psa30 value="0.0186603012" flag="0"/>
    </comp>
    <comp name="00.HNZ">
      <acc value="0.0475596404" flag="0"/>
      <vel value="0.0306423281" flag="0"/>
      <psa03 value="0.1003890294" flag="0"/>
      <psa10 value="0.0356465842" flag="0"/>
      <psa30 value="0.0059505083" flag="0"/>
    </comp>
    <comp name="00.HNE">
      <acc value="0.1923976445" flag="0"/>
      <vel value="0.0759206259" flag="0"/>
      <psa03 value="0.3741532645" flag="0"/>
      <psa10 value="0.0469857926" flag="0"/>
      <psa30 value="0.0132295320" flag="0"/>
    </comp>
  </station>
  <station code="TETR" name="TETR" netid="HL" insttype="60" commtype="DIG" lat="39.3445" lon="21.2747">
    <comp name="--.HHN">
      <acc value="0.0776592697" flag="0"/>
      <vel value="0.0586260187" flag="0"/>
      <psa03 value="0.2375815926" flag="0"/>
      <psa10 value="0.0477436454" flag="0"/>
      <psa30 value="0.0274370335" flag="0"/>
    </comp>
    <comp name="--.HHE">
      <acc value="0.1016041157" flag="0"/>
      <vel value="0.0607609744" flag="0"/>
      <psa03 value="0.2367327450" flag="0"/>
      <psa10 value="0.0860996453" flag="0"/>
      <psa30 value="0.0221984737" flag="0"/>
    </comp>
    <comp name="--.HHZ">
      <acc value="0.0398069347" flag="0"/>
      <vel value="0.0267585029" flag="0"/>
      <psa03 value="0.1221807392" flag="0"/>
      <psa10 value="0.0314208162" flag="0"/>
      <psa30 value="0.0061062585" flag="0"/>
    </comp>
  </station>
  <station code="THL" name="THL" netid="HL" insttype="120" commtype="DIG" lat="39.5647" lon="22.0144">
    <comp name="--.HHE">
      <acc value="0.0046433644" flag="0"/>
      <vel value="0.0035609643" flag="0"/>
      <psa03 value="0.0144705003" flag="0"/>
      <psa10 value="0.0047684765" flag="0"/>
      <psa30 value="0.0008714494" flag="0"/>
    </comp>
    <comp name="--.HHN">
      <acc value="0.0043369568" flag="0"/>
      <vel value="0.0042371656" flag="0"/>
      <psa03 value="0.0077745482" flag="0"/>
      <psa10 value="0.0046634319" flag="0"/>
      <psa30 value="0.0014153969" flag="0"/>
    </comp>
    <comp name="--.HHZ">
      <acc value="0.0028139437" flag="0"/>
      <vel value="0.0023234411" flag="0"/>
      <psa03 value="0.0083038518" flag="0"/>
      <psa10 value="0.0039113000" flag="0"/>
      <psa30 value="0.0012769469" flag="0"/>
    </comp>
  </station>
  <station code="AMPL" name="AMPL" netid="HP" insttype="Compact," commtype="DIG" lat="38.9224" lon="21.2135">
    <comp name="--.HHZ">
      <acc value="0.0083092412" flag="0"/>
      <vel value="0.0076013069" flag="0"/>
      <psa03 value="0.0203230359" flag="0"/>
      <psa10 value="0.0125864677" flag="0"/>
      <psa30 value="0.0017497936" flag="0"/>
    </comp>
    <comp name="--.HHE">
      <acc value="0.0138685115" flag="0"/>
      <vel value="0.0114415979" flag="0"/>
      <psa03 value="0.0389239542" flag="0"/>
      <psa10 value="0.0156123458" flag="0"/>
      <psa30 value="0.0058409538" flag="0"/>
    </comp>
    <comp name="--.HHN">
      <acc value="0.0120129320" flag="0"/>
      <vel value="0.0082066327" flag="0"/>
      <psa03 value="0.0298383970" flag="0"/>
      <psa10 value="0.0098644926" flag="0"/>
      <psa30 value="0.0027902595" flag="0"/>
    </comp>
  </station>
  <station code="KSTR" name="KSTR" netid="HP" insttype="Compact," commtype="DIG" lat="39.2492" lon="20.576">
    <comp name="--.HHE">
      <acc value="0.0789001236" flag="0"/>
      <vel value="0.0514259452" flag="0"/>
      <psa03 value="0.1274437136" flag="0"/>
      <psa10 value="0.0629189907" flag="0"/>
      <psa30 value="0.0130535565" flag="0"/>
    </comp>
    <comp name="--.HHN">
      <acc value="0.0515728139" flag="0"/>
      <vel value="0.0284780627" flag="0"/>
      <psa03 value="0.1018495735" flag="0"/>
      <psa10 value="0.0444529511" flag="0"/>
      <psa30 value="0.0049094749" flag="0"/>
    </comp>
    <comp name="--.HHZ">
      <acc value="0.0580913931" flag="0"/>
      <vel value="0.0240885742" flag="0"/>
      <psa03 value="0.0816389775" flag="0"/>
      <psa10 value="0.0232321123" flag="0"/>
      <psa30 value="0.0033556548" flag="0"/>
    </comp>
  </station>
  <station code="PRMD" name="PRMD" netid="HP" insttype="120P," commtype="DIG" lat="39.5299" lon="21.0965">
    <comp name="--.HHN">
      <acc value="0.0930164286" flag="0"/>
      <vel value="0.0946987325" flag="0"/>
      <psa03 value="0.3308243052" flag="0"/>
      <psa10 value="0.1937030741" flag="0"/>
      <psa30 value="0.0417776268" flag="0"/>
    </comp>
    <comp name="--.HHE">
      <acc value="0.1086743273" flag="0"/>
      <vel value="0.0701753869" flag="0"/>
      <psa03 value="0.2888787971" flag="0"/>
      <psa10 value="0.0776387614" flag="0"/>
      <psa30 value="0.0067628764" flag="0"/>
    </comp>
    <comp name="--.HHZ">
      <acc value="0.0477561356" flag="0"/>
      <vel value="0.0433863489" flag="0"/>
      <psa03 value="0.1723499607" flag="0"/>
      <psa10 value="0.0709576153" flag="0"/>
      <psa30 value="0.0107668992" flag="0"/>
    </comp>
  </station>
  <station code="DRAG" name="DRAG" netid="HT" insttype="30" commtype="DIG" lat="38.6839" lon="20.5746">
    <comp name="--.HHN">
      <acc value="0.0419284023" flag="0"/>
      <vel value="0.0193806320" flag="0"/>
      <psa03 value="0.0986845050" flag="0"/>
      <psa10 value="0.0251118686" flag="0"/>
      <psa30 value="0.0016643315" flag="0"/>
    </comp>
    <comp name="--.HHZ">
      <acc value="0.0199812812" flag="0"/>
      <vel value="0.0091271227" flag="0"/>
      <psa03 value="0.0452425609" flag="0"/>
      <psa10 value="0.0102722784" flag="0"/>
      <psa30 value="0.0013222866" flag="0"/>
    </comp>
    <comp name="--.HHE">
      <acc value="0.0426169066" flag="0"/>
      <vel value="0.0272946236" flag="0"/>
      <psa03 value="0.1272294332" flag="0"/>
      <psa10 value="0.0218543800" flag="0"/>
      <psa30 value="0.0018307500" flag="0"/>
    </comp>
  </station>
  <station code="IGT" name="IGT" netid="HT" insttype="Compact," commtype="DIG" lat="39.5315" lon="20.3299">
    <comp name="--.HHN">
      <acc value="0.7264290168" flag="0"/>
      <vel value="0.2774409157" flag="0"/>
      <psa03 value="0.7619308624" flag="0"/>
      <psa10 value="0.1912695829" flag="0"/>
      <psa30 value="0.0214755534" flag="0"/>
    </comp>
    <comp name="--.HHZ">
      <acc value="0.4658526237" flag="0"/>
      <vel value="0.1828925714" flag="0"/>
      <psa03 value="0.6280715372" flag="0"/>
      <psa10 value="0.2521304063" flag="0"/>
      <psa30 value="0.0149205314" flag="0"/>
    </comp>
    <comp name="--.HHE">
      <acc value="0.6248632560" flag="0"/>
      <vel value="0.2502581466" flag="0"/>
      <psa03 value="0.7259793387" flag="0"/>
      <psa10 value="0.2597353795" flag="0"/>
      <psa30 value="0.0332269377" flag="0"/>
    </comp>
  </station>
  <station code="KPRO" name="KPRO" netid="HT" insttype="100" commtype="DIG" lat="39.9549" lon="21.3632">
    <comp name="--.HHE">
      <acc value="0.0193650725" flag="0"/>
      <vel value="0.0155280335" flag="0"/>
      <psa03 value="0.0883970738" flag="0"/>
      <psa10 value="0.0154713707" flag="0"/>
      <psa30 value="0.0056077421" flag="0"/>
    </comp>
    <comp name="--.HHZ">
      <acc value="0.0111939149" flag="0"/>
      <vel value="0.0092534167" flag="0"/>
      <psa03 value="0.0287395932" flag="0"/>
      <psa10 value="0.0163305270" flag="0"/>
      <psa30 value="0.0024946071" flag="0"/>
    </comp>
    <comp name="--.HHN">
      <acc value="0.0198888829" flag="0"/>
      <vel value="0.0157037654" flag="0"/>
      <psa03 value="0.0757135831" flag="0"/>
      <psa10 value="0.0161688142" flag="0"/>
      <psa30 value="0.0055110249" flag="0"/>
    </comp>
  </station>
  <station code="LKD2" name="LKD2" netid="HT" insttype="100" commtype="DIG" lat="38.7889" lon="20.6578">
    <comp name="--.HHN">
      <acc value="0.0105750991" flag="0"/>
      <vel value="0.0085527952" flag="0"/>
      <psa03 value="0.0391539926" flag="0"/>
      <psa10 value="0.0122540950" flag="0"/>
      <psa30 value="0.0020151445" flag="0"/>
    </comp>
    <comp name="--.HHE">
      <acc value="0.0186631062" flag="0"/>
      <vel value="0.0103676500" flag="0"/>
      <psa03 value="0.0591100253" flag="0"/>
      <psa10 value="0.0137651728" flag="0"/>
      <psa30 value="0.0026977806" flag="0"/>
    </comp>
    <comp name="--.HHZ">
      <acc value="0.0073141417" flag="0"/>
      <vel value="0.0048724876" flag="0"/>
      <psa03 value="0.0158209087" flag="0"/>
      <psa10 value="0.0082739008" flag="0"/>
      <psa30 value="0.0012363763" flag="0"/>
    </comp>
  </station>
  <station code="NEST" name="NEST" netid="HT" insttype="120P," commtype="DIG" lat="40.4147" lon="21.0489">
    <comp name="--.HHN">
      <acc value="0.0080557574" flag="0"/>
      <vel value="0.0052240366" flag="0"/>
      <psa03 value="0.0209100951" flag="0"/>
      <psa10 value="0.0085349941" flag="0"/>
      <psa30 value="0.0024322279" flag="0"/>
    </comp>
    <comp name="--.HHE">
      <acc value="0.0085168599" flag="0"/>
      <vel value="0.0079580137" flag="0"/>
      <psa03 value="0.0268063412" flag="0"/>
      <psa10 value="0.0162103630" flag="0"/>
      <psa30 value="0.0025654234" flag="0"/>
    </comp>
    <comp name="--.HHZ">
      <acc value="0.0083788210" flag="0"/>
      <vel value="0.0056189226" flag="0"/>
      <psa03 value="0.0209755114" flag="0"/>
      <psa10 value="0.0099220729" flag="0"/>
      <psa30 value="0.0019149163" flag="0"/>
    </comp>
  </station>
  <station code="NYDR" name="NYDR" netid="HT" insttype="1s-100Hz," commtype="DIG" lat="38.7135" lon="20.6983">
    <comp name="--.HHE">
      <acc value="0.0111735581" flag="0"/>
      <vel value="0.0090067767" flag="0"/>
      <psa03 value="0.0243102725" flag="0"/>
      <psa10 value="0.0108826234" flag="0"/>
      <psa30 value="0.0013374504" flag="0"/>
    </comp>
    <comp name="--.HHN">
      <acc value="0.0094533060" flag="0"/>
      <vel value="0.0085192936" flag="0"/>
      <psa03 value="0.0243945386" flag="0"/>
      <psa10 value="0.0184214029" flag="0"/>
      <psa30 value="0.0017049730" flag="0"/>
    </comp>
    <comp name="--.HHZ">
      <acc value="0.0067634732" flag="0"/>
      <vel value="0.0059997970" flag="0"/>
      <psa03 value="0.0145517525" flag="0"/>
      <psa10 value="0.0091830898" flag="0"/>
      <psa30 value="0.0008875308" flag="0"/>
    </comp>
  </station>
  <station code="TSLK" name="TSLK" netid="HT" insttype="1s-100Hz," commtype="DIG" lat="38.8249" lon="20.6554">
    <comp name="--.HHZ">
      <acc value="0.0074937649" flag="0"/>
      <vel value="0.0069955082" flag="0"/>
      <psa03 value="0.0235165063" flag="0"/>
      <psa10 value="0.0079889626" flag="0"/>
      <psa30 value="0.0039800038" flag="0"/>
    </comp>
    <comp name="--.HHE">
      <acc value="0.0189555784" flag="0"/>
      <vel value="0.0143472083" flag="0"/>
      <psa03 value="0.0335466757" flag="0"/>
      <psa10 value="0.0142084332" flag="0"/>
      <psa30 value="0.0065495077" flag="0"/>
    </comp>
    <comp name="--.HHN">
      <acc value="0.0238883244" flag="0"/>
      <vel value="0.0201847530" flag="0"/>
      <psa03 value="0.0380176658" flag="0"/>
      <psa10 value="0.0241140377" flag="0"/>
      <psa30 value="0.0023645834" flag="0"/>
    </comp>
  </station>
  <station code="KEK" name="KEK" netid="MN" insttype="" commtype="DIG" lat="39.7127" lon="19.7962">
