<?xml version="1.0" encoding="UTF-8" standalone="yes"?>
<!DOCTYPE earthquake SYSTEM "stationlist.dtd">
<stationlist created="" xmlns="ch.ethz.sed.shakemap.usgs.xml">
  <station code="PSAM" name="PSAM" netid="CL" insttype="CMG40-T" lat="38.3218" lon="22.1842">
    <comp name="00.HHN">
      <acc value="0.2795523859" flag="0"/>
      <vel value="0.0953477682" flag="0"/>
      <psa03 value="0.2625230953" flag="0"/>
      <psa10 value="0.0557485572" flag="0"/>
      <psa30 value="0.0041870789" flag="0"/>
    </comp>
    <comp name="00.HHZ">
      <acc value="0.4061617935" flag="0"/>
      <vel value="0.0447761749" flag="0"/>
      <psa03 value="0.1826718523" flag="0"/>
      <psa10 value="0.0295089960" flag="0"/>
      <psa30 value="0.0030585763" flag="0"/>
    </comp>
    <comp name="00.HHE">
      <acc value="0.2447867840" flag="0"/>
      <vel value="0.1026492520" flag="0"/>
      <psa03 value="0.3476995839" flag="0"/>
      <psa10 value="0.0745775261" flag="0"/>
      <psa30 value="0.0058403055" flag="0"/>
    </comp>
  </station>
  <station code="ROD3" name="ROD3" netid="CL" insttype="CMG40-T" lat="38.3081" lon="21.892">
    <comp name="00.HHN">
      <acc value="0.2566288352" flag="0"/>
      <vel value="0.0907366967" flag="0"/>
      <psa03 value="0.3877505227" flag="0"/>
      <psa10 value="0.0391235601" flag="0"/>
      <psa30 value="0.0028145233" flag="0"/>
    </comp>
    <comp name="00.HHE">
      <acc value="0.2926952598" flag="0"/>
      <vel value="0.0643076590" flag="0"/>
      <psa03 value="0.4493842767" flag="0"/>
      <psa10 value="0.0435048868" flag="0"/>
      <psa30 value="0.0027837252" flag="0"/>
    </comp>
    <comp name="00.HHZ">
      <acc value="0.1828100374" flag="0"/>
      <vel value="0.0354305139" flag="0"/>
      <psa03 value="0.1621920392" flag="0"/>
      <psa10 value="0.0206994220" flag="0"/>
      <psa30 value="0.0018027388" flag="0"/>
    </comp>
  </station>
  <station code="TRIZ" name="TRIZ" netid="CL" insttype="STS-2" lat="38.3654" lon="22.0727">
    <comp name="00.HH3">
      <acc value="1.4969019010" flag="0"/>
      <vel value="0.4935914061" flag="0"/>
      <psa03 value="1.5949761134" flag="0"/>
      <psa10 value="0.1883479035" flag="0"/>
      <psa30 value="0.0192063330" flag="0"/>
    </comp>
    <comp name="00.HH2">
      <acc value="1.7953662792" flag="0"/>
      <vel value="0.5812201287" flag="0"/>
      <psa03 value="4.6481340834" flag="0"/>
      <psa10 value="0.2406388138" flag="0"/>
      <psa30 value="0.0283011106" flag="0"/>
    </comp>
    <comp name="00.HHZ">
      <acc value="1.0737133383" flag="0"/>
      <vel value="0.2681513585" flag="0"/>
      <psa03 value="0.7321144389" flag="0"/>
      <psa10 value="0.1056184281" flag="0"/>
      <psa30 value="0.0106890149" flag="0"/>
    </comp>
  </station>
  <station code="ZIRI" name="ZIRI" netid="CL" insttype="TRILLIUM-40" lat="38.3051" lon="21.9476">
    <comp name="01.HHN">
      <acc value="0.4758133588" flag="0"/>
      <vel value="0.1260483205" flag="0"/>
      <psa03 value="0.3930648270" flag="0"/>
      <psa10 value="0.0913583109" flag="0"/>
      <psa30 value="0.0054817218" flag="0"/>
    </comp>
    <comp name="01.HHE">
      <acc value="0.3935337389" flag="0"/>
      <vel value="0.1296991580" flag="0"/>
      <psa03 value="0.5613458362" flag="0"/>
      <psa10 value="0.1155560016" flag="0"/>
      <psa30 value="0.0060794538" flag="0"/>
    </comp>
    <comp name="01.HHZ">
      <acc value="0.3373409195" flag="0"/>
      <vel value="0.0643958055" flag="0"/>
      <psa03 value="0.3667679280" flag="0"/>
      <psa10 value="0.0406105751" flag="0"/>
      <psa30 value="0.0033460817" flag="0"/>
    </comp>
  </station>
  <station code="ACOR" name="ACOR" netid="HA" insttype="Horizon,120s,1200" lat="37.8905" lon="22.8694">
    <comp name="--.HHE">
      <acc value="0.0028419671" flag="0"/>
      <vel value="0.0012622899" flag="0"/>
      <psa03 value="0.0075926382" flag="0"/>
      <psa10 value="0.0011785710" flag="0"/>
      <psa30 value="0.0001494317" flag="0"/>
    </comp>
    <comp name="--.HHN">
      <acc value="0.0024561905" flag="0"/>
      <vel value="0.0014910377" flag="0"/>
      <psa03 value="0.0075053920" flag="0"/>
      <psa10 value="0.0022243969" flag="0"/>
      <psa30 value="0.0001829149" flag="0"/>
    </comp>
    <comp name="--.HHZ">
      <acc value="0.0022452604" flag="0"/>
      <vel value="0.0012145152" flag="0"/>
      <psa03 value="0.0060830699" flag="0"/>
      <psa10 value="0.0013806659" flag="0"/>
      <psa30 value="0.0001331667" flag="0"/>
    </comp>
  </station>
  <station code="AIGS" name="AIGS" netid="HA" insttype="DC" lat="38.25" lon="22.0878">
    <comp name="--.HNE">
      <acc value="0.2450035113" flag="0"/>
      <vel value="0.0683612533" flag="0"/>
      <psa03 value="0.4466162152" flag="0"/>
      <psa10 value="0.0835848433" flag="0"/>
      <psa30 value="0.0073121137" flag="0"/>
    </comp>
    <comp name="--.HNZ">
      <acc value="0.3071848715" flag="0"/>
      <vel value="0.0491072744" flag="0"/>
      <psa03 value="0.1324611536" flag="0"/>
      <psa10 value="0.0509196902" flag="0"/>
      <psa30 value="0.0046159142" flag="0"/>
    </comp>
    <comp name="--.HNN">
      <acc value="0.2796160102" flag="0"/>
      <vel value="0.0759058788" flag="0"/>
      <psa03 value="0.3496450289" flag="0"/>
      <psa10 value="0.0319651481" flag="0"/>
      <psa30 value="0.0050379224" flag="0"/>
    </comp>
  </station>
  <station code="AMPE" name="AMPE" netid="HA" insttype="1s-100Hz," lat="38.3015" lon="23.2688">
    <comp name="--.HHE">
      <acc value="0.0078079389" flag="0"/>
      <vel value="0.0035945602" flag="0"/>
      <psa03 value="0.0180030504" flag="0"/>
      <psa10 value="0.0036342023" flag="0"/>
      <psa30 value="0.0004086130" flag="0"/>
    </comp>
    <comp name="--.HHZ">
      <acc value="0.0035335700" flag="0"/>
      <vel value="0.0015405534" flag="0"/>
      <psa03 value="0.0088458665" flag="0"/>
      <psa10 value="0.0018508314" flag="0"/>
      <psa30 value="0.0001289643" flag="0"/>
    </comp>
    <comp name="--.HHN">
      <acc value="0.0041141221" flag="0"/>
      <vel value="0.0026622129" flag="0"/>
      <psa03 value="0.0135432260" flag="0"/>
      <psa10 value="0.0035239365" flag="0"/>
      <psa30 value="0.0003902408" flag="0"/>
    </comp>
  </station>
  <station code="ANTK" name="ANTK" netid="HA" insttype="25" lat="38.3605" lon="22.6385">
    <comp name="--.HHN">
      <acc value="0.0015870545" flag="0"/>
      <vel value="0.0001829684" flag="0"/>
      <psa03 value="0.0004688317" flag="0"/>
      <psa10 value="0.0000478920" flag="0"/>
      <psa30 value="0.0000076375" flag="0"/>
    </comp>
    <comp name="--.HHZ">
      <acc value="0.0110436461" flag="0"/>
      <vel value="0.0025053557" flag="0"/>
      <psa03 value="0.0082958611" flag="0"/>
      <psa10 value="0.0020379519" flag="0"/>
      <psa30 value="0.0001817427" flag="0"/>
    </comp>
    <comp name="--.HHE">
      <acc value="0.0154227984" flag="0"/>
      <vel value="0.0031165342" flag="0"/>
      <psa03 value="0.0090362379" flag="0"/>
      <psa10 value="0.0033103540" flag="0"/>
      <psa30 value="0.0001384870" flag="0"/>
    </comp>
  </station>
  <station code="ATAL" name="ATAL" netid="HA" insttype="120s," lat="38.6926" lon="23.0213">
    <comp name="--.HHN">
      <acc value="0.0144131280" flag="0"/>
      <vel value="0.0064879689" flag="0"/>
      <psa03 value="0.0236351270" flag="0"/>
      <psa10 value="0.0065772678" flag="0"/>
      <psa30 value="0.0004417084" flag="0"/>
    </comp>
    <comp name="--.HHE">
      <acc value="0.0128068451" flag="0"/>
      <vel value="0.0038077220" flag="0"/>
      <psa03 value="0.0104894859" flag="0"/>
      <psa10 value="0.0032250928" flag="0"/>
      <psa30 value="0.0001813625" flag="0"/>
    </comp>
    <comp name="--.HHZ">
      <acc value="0.0170772749" flag="0"/>
      <vel value="0.0023366568" flag="0"/>
      <psa03 value="0.0089690411" flag="0"/>
      <psa10 value="0.0015754961" flag="0"/>
      <psa30 value="0.0002598730" flag="0"/>
    </comp>
  </station>
  <station code="AXAR" name="AXAR" netid="HA" insttype="Horizon,120s,1200" lat="38.7664" lon="22.659">
    <comp name="--.HHN">
      <acc value="0.2151324931" flag="0"/>
      <vel value="0.0717689424" flag="0"/>
      <psa03 value="0.3206494908" flag="0"/>
      <psa10 value="0.0226564827" flag="0"/>
      <psa30 value="0.0016233842" flag="0"/>
    </comp>
    <comp name="--.HHZ">
      <acc value="0.1027738939" flag="0"/>
      <vel value="0.0265411365" flag="0"/>
      <psa03 value="0.2104361675" flag="0"/>
      <psa10 value="0.0104204491" flag="0"/>
      <psa30 value="0.0008438259" flag="0"/>
    </comp>
    <comp name="--.HHE">
      <acc value="0.1860752346" flag="0"/>
      <vel value="0.0616306843" flag="0"/>
      <psa03 value="0.4940766221" flag="0"/>
      <psa10 value="0.0252528675" flag="0"/>
      <psa30 value="0.0017719082" flag="0"/>
    </comp>
  </station>
  <station code="DOMV" name="DOMV" netid="HA" insttype="60" lat="38.2569" lon="22.9795">
    <comp name="--.HHE">
      <acc value="0.0336394519" flag="0"/>
      <vel value="0.0075075363" flag="0"/>
      <psa03 value="0.0353187272" flag="0"/>
      <psa10 value="0.0031890813" flag="0"/>
      <psa30 value="0.0002045843" flag="0"/>
    </comp>
    <comp name="--.HHN">
      <acc value="0.0366761630" flag="0"/>
      <vel value="0.0100675168" flag="0"/>
      <psa03 value="0.0393789982" flag="0"/>
      <psa10 value="0.0052455255" flag="0"/>
      <psa30 value="0.0002854083" flag="0"/>
    </comp>
    <comp name="--.HHZ">
      <acc value="0.0197914137" flag="0"/>
      <vel value="0.0050968868" flag="0"/>
      <psa03 value="0.0315885900" flag="0"/>
      <psa10 value="0.0024343684" flag="0"/>
      <psa30 value="0.0002117484" flag="0"/>
    </comp>
  </station>
  <station code="EPID" name="EPID" netid="HA" insttype="30" lat="37.6144" lon="23.1189">
    <comp name="--.HHZ">
      <acc value="0.0027103850" flag="0"/>
      <vel value="0.0012178225" flag="0"/>
      <psa03 value="0.0070204073" flag="0"/>
      <psa10 value="0.0011608625" flag="0"/>
      <psa30 value="0.0001117502" flag="0"/>
    </comp>
    <comp name="--.HHE">
      <acc value="0.0038071755" flag="0"/>
      <vel value="0.0012850610" flag="0"/>
      <psa03 value="0.0080616076" flag="0"/>
      <psa10 value="0.0013053297" flag="0"/>
      <psa30 value="0.0000865322" flag="0"/>
    </comp>
    <comp name="--.HHN">
      <acc value="0.0049427095" flag="0"/>
      <vel value="0.0014998614" flag="0"/>
      <psa03 value="0.0061432796" flag="0"/>
      <psa10 value="0.0013934729" flag="0"/>
      <psa30 value="0.0001652984" flag="0"/>
    </comp>
  </station>
  <station code="KALE" name="KALE" netid="HA" insttype="40," lat="38.3911" lon="22.1398">
    <comp name="--.HHN">
      <acc value="2.1580552433" flag="0"/>
      <vel value="0.5504373867" flag="0"/>
      <psa03 value="2.5162245836" flag="0"/>
      <psa10 value="0.1850077000" flag="0"/>
      <psa30 value="0.0155646778" flag="0"/>
    </comp>
    <comp name="--.HHE">
      <acc value="1.6123040449" flag="0"/>
      <vel value="0.5275445961" flag="0"/>
      <psa03 value="2.2520240983" flag="0"/>
      <psa10 value="0.2312029009" flag="0"/>
      <psa30 value="0.0203332534" flag="0"/>
    </comp>
    <comp name="--.HHZ">
      <acc value="1.5534120654" flag="0"/>
      <vel value="0.3293006436" flag="0"/>
      <psa03 value="1.9042915011" flag="0"/>
      <psa10 value="0.0819010871" flag="0"/>
      <psa30 value="0.0078072156" flag="0"/>
    </comp>
  </station>
  <station code="LAKA" name="LAKA" netid="HA" insttype="120s," lat="38.2401" lon="21.9785">
    <comp name="--.HHN">
      <acc value="0.1070246992" flag="0"/>
      <vel value="0.0186973616" flag="0"/>
      <psa03 value="0.0452446261" flag="0"/>
      <psa10 value="0.0200480652" flag="0"/>
      <psa30 value="0.0022992700" flag="0"/>
    </comp>
    <comp name="--.HHE">
      <acc value="0.0497876872" flag="0"/>
      <vel value="0.0095814439" flag="0"/>
      <psa03 value="0.0266770776" flag="0"/>
      <psa10 value="0.0079986660" flag="0"/>
      <psa30 value="0.0016455488" flag="0"/>
    </comp>
    <comp name="--.HHZ">
      <acc value="0.0779615840" flag="0"/>
      <vel value="0.0131391014" flag="0"/>
      <psa03 value="0.0390544808" flag="0"/>
      <psa10 value="0.0125453766" flag="0"/>
      <psa30 value="0.0015081196" flag="0"/>
    </comp>
  </station>
  <station code="LOUT" name="LOUT" netid="HA" insttype="30" lat="37.9879" lon="22.9743">
    <comp name="--.HHN">
      <acc value="0.0092264965" flag="0"/>
      <vel value="0.0033968805" flag="0"/>
      <psa03 value="0.0177198928" flag="0"/>
      <psa10 value="0.0032296684" flag="0"/>
      <psa30 value="0.0001792752" flag="0"/>
    </comp>
    <comp name="--.HHE">
      <acc value="0.0074926004" flag="0"/>
      <vel value="0.0036989892" flag="0"/>
      <psa03 value="0.0175260606" flag="0"/>
      <psa10 value="0.0054421481" flag="0"/>
      <psa30 value="0.0002685459" flag="0"/>
    </comp>
    <comp name="--.HHZ">
      <acc value="0.0046763748" flag="0"/>
      <vel value="0.0019041456" flag="0"/>
      <psa03 value="0.0081554686" flag="0"/>
      <psa10 value="0.0016509381" flag="0"/>
      <psa30 value="0.0001913478" flag="0"/>
    </comp>
  </station>
  <station code="PRDM" name="PRDM" netid="HA" insttype="25" lat="38.2804" lon="22.847">
    <comp name="--.HHN">
      <acc value="0.0122623437" flag="0"/>
      <vel value="0.0024934980" flag="0"/>
      <psa03 value="0.0079195215" flag="0"/>
      <psa10 value="0.0014982392" flag="0"/>
      <psa30 value="0.0001424497" flag="0"/>
    </comp>
    <comp name="--.HHZ">
      <acc value="0.0060951588" flag="0"/>
      <vel value="0.0012310842" flag="0"/>
      <psa03 value="0.0082287516" flag="0"/>
      <psa10 value="0.0007463540" flag="0"/>
      <psa30 value="0.0001171710" flag="0"/>
    </comp>
    <comp name="--.HHE">
      <acc value="0.0164153180" flag="0"/>
      <vel value="0.0024341933" flag="0"/>
      <psa03 value="0.0092529227" flag="0"/>
      <psa10 value="0.0012379736" flag="0"/>
      <psa30 value="0.0001343982" flag="0"/>
    </comp>
  </station>
  <station code="THAL" name="THAL" netid="HA" insttype="30" lat="38.0357" lon="22.6634">
    <comp name="--.HHE">
      <acc value="0.0421014214" flag="0"/>
      <vel value="0.0126300253" flag="0"/>
      <psa03 value="0.0467733607" flag="0"/>
      <psa10 value="0.0070290449" flag="0"/>
      <psa30 value="0.0005333371" flag="0"/>
    </comp>
    <comp name="--.HHZ">
      <acc value="0.0242286829" flag="0"/>
      <vel value="0.0060269173" flag="0"/>
      <psa03 value="0.0346462918" flag="0"/>
      <psa10 value="0.0034173694" flag="0"/>
      <psa30 value="0.0002732820" flag="0"/>
    </comp>
    <comp name="--.HHN">
      <acc value="0.0358371358" flag="0"/>
      <vel value="0.0100313016" flag="0"/>
      <psa03 value="0.0705134379" flag="0"/>
      <psa10 value="0.0065652876" flag="0"/>
      <psa30 value="0.0005037826" flag="0"/>
    </comp>
  </station>
  <station code="THIV" name="THIV" netid="HA" insttype="25" lat="38.299" lon="23.332">
    <comp name="--.HHE">
      <acc value="0.0039229083" flag="0"/>
      <vel value="0.0021022833" flag="0"/>
      <psa03 value="0.0087630584" flag="0"/>
      <psa10 value="0.0024296221" flag="0"/>
      <psa30 value="0.0003677820" flag="0"/>
    </comp>
    <comp name="--.HHN">
      <acc value="0.0047846942" flag="0"/>
      <vel value="0.0031493516" flag="0"/>
      <psa03 value="0.0145400884" flag="0"/>
      <psa10 value="0.0027341221" flag="0"/>
      <psa30 value="0.0002011704" flag="0"/>
    </comp>
    <comp name="--.HHZ">
      <acc value="0.0037218013" flag="0"/>
      <vel value="0.0012595733" flag="0"/>
      <psa03 value="0.0067044928" flag="0"/>
      <psa10 value="0.0012865226" flag="0"/>
      <psa30 value="0.0002041058" flag="0"/>
    </comp>
  </station>
  <station code="VILL" name="VILL" netid="HA" insttype="Horizon,120s,1200" lat="38.1642" lon="23.3122">
    <comp name="--.HHE">
      <acc value="0.0052411348" flag="0"/>
      <vel value="0.0037236263" flag="0"/>
      <psa03 value="0.0169229882" flag="0"/>
      <psa10 value="0.0052286778" flag="0"/>
      <psa30 value="0.0002882872" flag="0"/>
    </comp>
    <comp name="--.HHN">
      <acc value="0.0057326766" flag="0"/>
      <vel value="0.0028075968" flag="0"/>
      <psa03 value="0.0234199541" flag="0"/>
      <psa10 value="0.0023925526" flag="0"/>
      <psa30 value="0.0001973447" flag="0"/>
    </comp>
    <comp name="--.HHZ">
      <acc value="0.0031524413" flag="0"/>
      <vel value="0.0019271593" flag="0"/>
      <psa03 value="0.0154911472" flag="0"/>
      <psa10 value="0.0012003292" flag="0"/>
      <psa30 value="0.0001519837" flag="0"/>
    </comp>
  </station>
  <station code="KLV1" name="KLV1" netid="HI" insttype="CMG-5TD,ACCELEROMETER,GURALP" lat="38.0326" lon="22.108">
    <comp name="--.HNN">
      <acc value="0.0370483961" flag="0"/>
      <vel value="0.0130252789" flag="0"/>
      <psa03 value="0.0751090211" flag="0"/>
      <psa10 value="0.0183190829" flag="0"/>
      <psa30 value="0.0010695535" flag="0"/>
    </comp>
    <comp name="--.HNZ">
      <acc value="0.0302767425" flag="0"/>
      <vel value="0.0068949533" flag="0"/>
      <psa03 value="0.0252237235" flag="0"/>
      <psa10 value="0.0105887014" flag="0"/>
      <psa30 value="0.0004977643" flag="0"/>
    </comp>
    <comp name="--.HNE">
      <acc value="0.0384054177" flag="0"/>
      <vel value="0.0143192674" flag="0"/>
      <psa03 value="0.0645967647" flag="0"/>
      <psa10 value="0.0183789730" flag="0"/>
      <psa30 value="0.0012173398" flag="0"/>
    </comp>
  </station>
  <station code="MSL1" name="MSL1" netid="HI" insttype="CMG-5TD,ACCELEROMETER,GURALP" lat="38.3727" lon="21.4243">
    <comp name="--.HNZ">
      <acc value="0.0188032469" flag="0"/>
      <vel value="0.0089173581" flag="0"/>
      <psa03 value="0.0594641874" flag="0"/>
      <psa10 value="0.0084923122" flag="0"/>
      <psa30 value="0.0003923909" flag="0"/>
    </comp>
    <comp name="--.HNE">
      <acc value="0.0540405087" flag="0"/>
      <vel value="0.0245185258" flag="0"/>
      <psa03 value="0.2538599754" flag="0"/>
      <psa10 value="0.0189043254" flag="0"/>
      <psa30 value="0.0013492967" flag="0"/>
    </comp>
    <comp name="--.HNN">
      <acc value="0.0406741942" flag="0"/>
      <vel value="0.0228852744" flag="0"/>
      <psa03 value="0.1752127584" flag="0"/>
      <psa10 value="0.0230477723" flag="0"/>
      <psa30 value="0.0010321802" flag="0"/>
    </comp>
  </station>
  <station code="DLFA" name="DLFA" netid="HL" insttype="CMG-5" lat="38.4784" lon="22.4958">
    <comp name="00.HNE">
      <acc value="0.0719256942" flag="0"/>
      <vel value="0.0161178385" flag="0"/>
      <psa03 value="0.0779041181" flag="0"/>
      <psa10 value="0.0089530486" flag="0"/>
      <psa30 value="0.0007102211" flag="0"/>
    </comp>
    <comp name="00.HNN">
      <acc value="0.0883904734" flag="0"/>
      <vel value="0.0206187264" flag="0"/>
      <psa03 value="0.0976927681" flag="0"/>
      <psa10 value="0.0095020199" flag="0"/>
      <psa30 value="0.0009317860" flag="0"/>
    </comp>
    <comp name="00.HNZ">
      <acc value="0.0721254279" flag="0"/>
      <vel value="0.0129831522" flag="0"/>
      <psa03 value="0.0446402734" flag="0"/>
      <psa10 value="0.0075399354" flag="0"/>
      <psa30 value="0.0005256154" flag="0"/>
    </comp>
  </station>
  <station code="KLV" name="KLV" netid="HL" insttype="120" lat="38.0435" lon="22.1504">
    <comp name="--.HHZ">
      <acc value="0.0223669037" flag="0"/>
      <vel value="0.0044848544" flag="0"/>
      <psa03 value="0.0135952283" flag="0"/>
      <psa10 value="0.0042366693" flag="0"/>
      <psa30 value="0.0004228092" flag="0"/>
    </comp>
    <comp name="--.HHN">
      <acc value="0.0163924298" flag="0"/>
