<?xml version="1.0" encoding="UTF-8" standalone="yes"?>
<!DOCTYPE earthquake SYSTEM "stationlist.dtd">
<stationlist created="" xmlns="ch.ethz.sed.shakemap.usgs.xml">
  <station code="BAYT" name="BAYT" netid="KO" insttype="CMG-3ESPC" commtype="DIG" lat="40.3937" lon="40.141">
    <comp name="--.HHE">
      <acc value="0.1058689124" flag="0"/>
      <vel value="0.0265575105" flag="0"/>
      <psa03 value="0.1362767497" flag="0"/>
      <psa10 value="0.0204691397" flag="0"/>
      <psa30 value="0.0010385004" flag="0"/>
    </comp>
    <comp name="--.HHN">
      <acc value="0.1270661723" flag="0"/>
      <vel value="0.0366145788" flag="0"/>
      <psa03 value="0.2710373111" flag="0"/>
      <psa10 value="0.0116459553" flag="0"/>
      <psa30 value="0.0009345250" flag="0"/>
    </comp>
    <comp name="--.HHZ">
      <acc value="0.0085205463" flag="0"/>
      <vel value="0.0035246181" flag="0"/>
      <psa03 value="0.0386904148" flag="0"/>
      <psa10 value="0.0008893198" flag="0"/>
      <psa30 value="0.0000917766" flag="0"/>
    </comp>
  </station>
  <station code="ERZN" name="ERZN" netid="KO" insttype="CMG-3ESP" commtype="DIG" lat="39.5867" lon="39.722">
    <comp name="--.HHZ">
      <acc value="0.1041808711" flag="0"/>
      <vel value="0.0180321153" flag="0"/>
      <psa03 value="0.1268334835" flag="0"/>
      <psa10 value="0.0068275644" flag="0"/>
      <psa30 value="0.0006494462" flag="0"/>
    </comp>
    <comp name="--.HHN">
      <acc value="0.1650342998" flag="0"/>
      <vel value="0.0557282559" flag="0"/>
      <psa03 value="0.2111163109" flag="0"/>
      <psa10 value="0.0142590138" flag="0"/>
      <psa30 value="0.0013002350" flag="0"/>
    </comp>
  </station>
  <station code="KMAH" name="KMAH" netid="KO" insttype="CMG-3ESP" commtype="DIG" lat="39.6082" lon="39.0275">
    <comp name="--.HHE">
      <acc value="0.0610436918" flag="0"/>
      <vel value="0.0200237511" flag="0"/>
      <psa03 value="0.1501836818" flag="0"/>
      <psa10 value="0.0110244298" flag="0"/>
      <psa30 value="0.0018288180" flag="0"/>
    </comp>
    <comp name="--.HHZ">
      <acc value="0.0276280019" flag="0"/>
      <vel value="0.0148246730" flag="0"/>
      <psa03 value="0.0506420838" flag="0"/>
      <psa10 value="0.0178747484" flag="0"/>
      <psa30 value="0.0011367068" flag="0"/>
    </comp>
  </station>
  <station code="KTUT" name="KTUT" netid="KO" insttype="CMG-3T" commtype="DIG" lat="40.987" lon="39.7667">
    <comp name="--.HHE">
      <acc value="0.0519398623" flag="0"/>
      <vel value="0.0230278878" flag="0"/>
      <psa03 value="0.1057406391" flag="0"/>
      <psa10 value="0.0189130738" flag="0"/>
      <psa30 value="0.0018109621" flag="0"/>
    </comp>
    <comp name="--.HHN">
      <acc value="0.0486284854" flag="0"/>
      <vel value="0.0124878731" flag="0"/>
      <psa03 value="0.0668743325" flag="0"/>
      <psa10 value="0.0086415830" flag="0"/>
      <psa30 value="0.0005303551" flag="0"/>
    </comp>
  </station>
  <station code="RFHY" name="RFHY" netid="KO" insttype="CMG-5T" commtype="DIG" lat="39.927" lon="38.833">
    <comp name="--.HNN">
      <acc value="0.0458129583" flag="0"/>
      <vel value="0.0325462880" flag="0"/>
      <psa03 value="0.1414274283" flag="0"/>
      <psa10 value="0.0577120275" flag="0"/>
      <psa30 value="0.0048706522" flag="0"/>
    </comp>
    <comp name="--.HNE">
      <acc value="0.0024168502" flag="0"/>
      <vel value="0.0027904110" flag="0"/>
      <psa03 value="0.0036140291" flag="0"/>
      <psa10 value="0.0018862177" flag="0"/>
      <psa30 value="0.0017236739" flag="0"/>
    </comp>
    <comp name="--.HNZ">
      <acc value="0.0338562118" flag="0"/>
      <vel value="0.0219065782" flag="0"/>
      <psa03 value="0.0968414818" flag="0"/>
      <psa10 value="0.0386308256" flag="0"/>
      <psa30 value="0.0021357070" flag="0"/>
    </comp>
  </station>
  <station code="SINE" name="SINE" netid="KO" insttype="CMG-6T" commtype="DIG" lat="39.1636" lon="39.3871">
    <comp name="--.HHZ">
      <acc value="0.0178579497" flag="0"/>
      <vel value="0.0077055996" flag="0"/>
      <psa03 value="0.0580204603" flag="0"/>
      <psa10 value="0.0042701212" flag="0"/>
      <psa30 value="0.0001731845" flag="0"/>
    </comp>
    <comp name="--.HHE">
      <acc value="0.0189592307" flag="0"/>
      <vel value="0.0073733707" flag="0"/>
      <psa03 value="0.0385297857" flag="0"/>
      <psa10 value="0.0071848441" flag="0"/>
      <psa30 value="0.0002388211" flag="0"/>
    </comp>
    <comp name="--.HHN">
      <acc value="0.0184010032" flag="0"/>
      <vel value="0.0057042555" flag="0"/>
      <psa03 value="0.0380482232" flag="0"/>
      <psa10 value="0.0034979025" flag="0"/>
      <psa30 value="0.0001795605" flag="0"/>
    </comp>
  </station>
  <station code="YEDI" name="YEDI" netid="KO" insttype="CMG-3T" commtype="DIG" lat="39.4377" lon="40.5443">
    <comp name="--.HHE">
      <acc value="0.0127583252" flag="0"/>
      <vel value="0.0060461133" flag="0"/>
      <psa03 value="0.0358052592" flag="0"/>
      <psa10 value="0.0031196351" flag="0"/>
      <psa30 value="0.0004663569" flag="0"/>
    </comp>
    <comp name="--.HHN">
      <acc value="0.0088305486" flag="0"/>
      <vel value="0.0041433207" flag="0"/>
      <psa03 value="0.0258166374" flag="0"/>
      <psa10 value="0.0041557524" flag="0"/>
      <psa30 value="0.0008313208" flag="0"/>
    </comp>
  </station>
</stationlist>
