<?xml version="1.0" encoding="UTF-8" standalone="yes"?>
<!DOCTYPE earthquake SYSTEM "stationlist.dtd">
<stationlist created="" xmlns="ch.ethz.sed.shakemap.usgs.xml">
  <station code="BAYT" name="BAYT" netid="KO" insttype="CMG-3ESPC" commtype="DIG" lat="40.3937" lon="40.141">
    <comp name="--.HHE">
      <acc value="0.1058689125" flag="0"/>
      <vel value="0.0265575106" flag="0"/>
      <psa03 value="0.1362767497" flag="0"/>
      <psa10 value="0.0204691397" flag="0"/>
      <psa30 value="0.0010384822" flag="0"/>
    </comp>
    <comp name="--.HHN">
      <acc value="0.1270661721" flag="0"/>
      <vel value="0.0366145793" flag="0"/>
      <psa03 value="0.2710373111" flag="0"/>
      <psa10 value="0.0116459553" flag="0"/>
      <psa30 value="0.0009344281" flag="0"/>
    </comp>
    <comp name="--.HHZ">
      <acc value="0.0085205460" flag="0"/>
      <vel value="0.0035246181" flag="0"/>
      <psa03 value="0.0386904148" flag="0"/>
      <psa10 value="0.0008893188" flag="0"/>
      <psa30 value="0.0000917989" flag="0"/>
    </comp>
  </station>
  <station code="ERZN" name="ERZN" netid="KO" insttype="CMG-3ESP" commtype="DIG" lat="39.5867" lon="39.722">
    <comp name="--.HHN">
      <acc value="0.1650342998" flag="0"/>
      <vel value="0.0557282528" flag="0"/>
      <psa03 value="0.2111163109" flag="0"/>
      <psa10 value="0.0142590146" flag="0"/>
      <psa30 value="0.0013003255" flag="0"/>
    </comp>
    <comp name="--.HHZ">
      <acc value="0.1041808714" flag="0"/>
      <vel value="0.0180321169" flag="0"/>
      <psa03 value="0.1268334835" flag="0"/>
      <psa10 value="0.0068275644" flag="0"/>
      <psa30 value="0.0006493828" flag="0"/>
    </comp>
  </station>
  <station code="KMAH" name="KMAH" netid="KO" insttype="CMG-3ESP" commtype="DIG" lat="39.6082" lon="39.0275">
    <comp name="--.HHE">
      <acc value="0.0610436918" flag="0"/>
      <vel value="0.0200237500" flag="0"/>
      <psa03 value="0.1501836818" flag="0"/>
      <psa10 value="0.0110244298" flag="0"/>
      <psa30 value="0.0018288006" flag="0"/>
    </comp>
    <comp name="--.HHZ">
      <acc value="0.0276280015" flag="0"/>
      <vel value="0.0148246731" flag="0"/>
      <psa03 value="0.0506420838" flag="0"/>
      <psa10 value="0.0178747484" flag="0"/>
      <psa30 value="0.0011367272" flag="0"/>
    </comp>
  </station>
  <station code="KTUT" name="KTUT" netid="KO" insttype="CMG-3T" commtype="DIG" lat="40.987" lon="39.7667">
    <comp name="--.HHE">
      <acc value="0.0519398622" flag="0"/>
      <vel value="0.0230278892" flag="0"/>
      <psa03 value="0.1057406391" flag="0"/>
      <psa10 value="0.0189130734" flag="0"/>
      <psa30 value="0.0018110409" flag="0"/>
    </comp>
    <comp name="--.HHN">
      <acc value="0.0486284857" flag="0"/>
      <vel value="0.0124878732" flag="0"/>
      <psa03 value="0.0668743325" flag="0"/>
      <psa10 value="0.0086415830" flag="0"/>
      <psa30 value="0.0005304028" flag="0"/>
    </comp>
  </station>
  <station code="RFHY" name="RFHY" netid="KO" insttype="CMG-5T" commtype="DIG" lat="39.927" lon="38.833">
    <comp name="--.HNN">
      <acc value="0.0458129618" flag="0"/>
      <vel value="0.0325462979" flag="0"/>
      <psa03 value="0.1414274283" flag="0"/>
      <psa10 value="0.0577120273" flag="0"/>
      <psa30 value="0.0048708627" flag="0"/>
    </comp>
    <comp name="--.HNE">
      <acc value="0.0024168580" flag="0"/>
      <vel value="0.0027904670" flag="0"/>
      <psa03 value="0.0036140291" flag="0"/>
      <psa10 value="0.0018862171" flag="0"/>
      <psa30 value="0.0017335002" flag="0"/>
    </comp>
    <comp name="--.HNZ">
      <acc value="0.0338562120" flag="0"/>
      <vel value="0.0219065960" flag="0"/>
      <psa03 value="0.0968414818" flag="0"/>
      <psa10 value="0.0386308242" flag="0"/>
      <psa30 value="0.0021388505" flag="0"/>
    </comp>
  </station>
  <station code="SINE" name="SINE" netid="KO" insttype="CMG-6T" commtype="DIG" lat="39.1636" lon="39.3871">
    <comp name="--.HHZ">
      <acc value="0.0178579500" flag="0"/>
      <vel value="0.0077055996" flag="0"/>
      <psa03 value="0.0580204603" flag="0"/>
      <psa10 value="0.0042701212" flag="0"/>
      <psa30 value="0.0001731818" flag="0"/>
    </comp>
    <comp name="--.HHE">
      <acc value="0.0189592320" flag="0"/>
      <vel value="0.0073733708" flag="0"/>
      <psa03 value="0.0385297857" flag="0"/>
      <psa10 value="0.0071848441" flag="0"/>
      <psa30 value="0.0002388263" flag="0"/>
    </comp>
    <comp name="--.HHN">
      <acc value="0.0184010030" flag="0"/>
      <vel value="0.0057042555" flag="0"/>
      <psa03 value="0.0380482232" flag="0"/>
      <psa10 value="0.0034979025" flag="0"/>
      <psa30 value="0.0001795601" flag="0"/>
    </comp>
  </station>
  <station code="YEDI" name="YEDI" netid="KO" insttype="CMG-3T" commtype="DIG" lat="39.4377" lon="40.5443">
    <comp name="--.HHE">
      <acc value="0.0127583250" flag="0"/>
      <vel value="0.0060461135" flag="0"/>
      <psa03 value="0.0358052592" flag="0"/>
      <psa10 value="0.0031196351" flag="0"/>
      <psa30 value="0.0004663562" flag="0"/>
    </comp>
    <comp name="--.HHN">
      <acc value="0.0088305492" flag="0"/>
      <vel value="0.0041433208" flag="0"/>
      <psa03 value="0.0258166374" flag="0"/>
      <psa10 value="0.0041557524" flag="0"/>
      <psa30 value="0.0008313194" flag="0"/>
    </comp>
  </station>
</stationlist>
