<?xml version="1.0" encoding="UTF-8" standalone="yes"?>
<!DOCTYPE earthquake SYSTEM "stationlist.dtd">
<stationlist created="" xmlns="ch.ethz.sed.shakemap.usgs.xml">
  <station code="DARE" name="DARE" netid="KO" insttype="CMG-3ESP" lat="38.5712" lon="37.4832">
    <comp name="--.HHN">
      <acc value="0.0387167028" flag="0"/>
      <vel value="0.0170358632" flag="0"/>
      <psa03 value="0.0667832028" flag="0"/>
      <psa10 value="0.0212599616" flag="0"/>
      <psa30 value="0.0031272731" flag="0"/>
    </comp>
    <comp name="--.HHZ">
      <acc value="0.0259992502" flag="0"/>
      <vel value="0.0194870236" flag="0"/>
      <psa03 value="0.0718417457" flag="0"/>
      <psa10 value="0.0349516818" flag="0"/>
      <psa30 value="0.0027294592" flag="0"/>
    </comp>
    <comp name="--.HHE">
      <acc value="0.0515812517" flag="0"/>
      <vel value="0.0290856762" flag="0"/>
      <psa03 value="0.1143538021" flag="0"/>
      <psa10 value="0.0237753754" flag="0"/>
      <psa30 value="0.0024620605" flag="0"/>
    </comp>
  </station>
  <station code="GAZ" name="GAZ" netid="KO" insttype="CMG-3T" lat="37.1721" lon="37.2096">
    <comp name="--.HHE">
      <acc value="0.0185054938" flag="0"/>
      <vel value="0.0129740825" flag="0"/>
      <psa03 value="0.0442287428" flag="0"/>
      <psa10 value="0.0096555832" flag="0"/>
      <psa30 value="0.0019354501" flag="0"/>
    </comp>
    <comp name="--.HHN">
      <acc value="0.0158633371" flag="0"/>
      <vel value="0.0095524936" flag="0"/>
      <psa03 value="0.0365890246" flag="0"/>
      <psa10 value="0.0115298935" flag="0"/>
      <psa30 value="0.0019960250" flag="0"/>
    </comp>
    <comp name="--.HHZ">
      <acc value="0.0152632633" flag="0"/>
      <vel value="0.0067904384" flag="0"/>
      <psa03 value="0.0404625659" flag="0"/>
      <psa10 value="0.0051973744" flag="0"/>
      <psa30 value="0.0034707776" flag="0"/>
    </comp>
  </station>
  <station code="KMRS" name="KMRS" netid="KO" insttype="CMG-3T" lat="37.5053" lon="36.9">
    <comp name="--.HHE">
      <acc value="0.0256815780" flag="0"/>
      <vel value="0.0138489937" flag="0"/>
      <psa03 value="0.0593693896" flag="0"/>
      <psa10 value="0.0144138003" flag="0"/>
      <psa30 value="0.0019617306" flag="0"/>
    </comp>
    <comp name="--.HHZ">
      <acc value="0.0245888866" flag="0"/>
      <vel value="0.0167658828" flag="0"/>
      <psa03 value="0.0709173244" flag="0"/>
      <psa10 value="0.0116209299" flag="0"/>
      <psa30 value="0.0020481740" flag="0"/>
    </comp>
  </station>
  <station code="SARI" name="SARI" netid="KO" insttype="CMG-3T" lat="38.4072" lon="36.4181">
    <comp name="--.HHE">
      <acc value="0.0227799754" flag="0"/>
      <vel value="0.0083654950" flag="0"/>
      <psa03 value="0.0593825668" flag="0"/>
      <psa10 value="0.0111714059" flag="0"/>
      <psa30 value="0.0011802417" flag="0"/>
    </comp>
    <comp name="--.HHN">
      <acc value="0.0143639996" flag="0"/>
      <vel value="0.0086053428" flag="0"/>
      <psa03 value="0.0490101185" flag="0"/>
      <psa10 value="0.0144613852" flag="0"/>
      <psa30 value="0.0006990007" flag="0"/>
    </comp>
    <comp name="--.HHZ">
      <acc value="0.0137899328" flag="0"/>
      <vel value="0.0063751425" flag="0"/>
      <psa03 value="0.0320325856" flag="0"/>
      <psa10 value="0.0101777362" flag="0"/>
      <psa30 value="0.0011848968" flag="0"/>
    </comp>
  </station>
  <station code="URFA" name="URFA" netid="KO" insttype="CMG-3ESP" lat="37.4409" lon="38.8213">
    <comp name="--.HHE">
      <acc value="0.0292210644" flag="0"/>
      <vel value="0.0139871197" flag="0"/>
      <psa03 value="0.0370201168" flag="0"/>
      <psa10 value="0.0213925557" flag="0"/>
      <psa30 value="0.0012160716" flag="0"/>
    </comp>
    <comp name="--.HHZ">
      <acc value="0.0145922034" flag="0"/>
      <vel value="0.0085164947" flag="0"/>
      <psa03 value="0.0423567922" flag="0"/>
      <psa10 value="0.0112023872" flag="0"/>
      <psa30 value="0.0007750500" flag="0"/>
    </comp>
  </station>
  <station code="ANDN" name="ANDN" netid="TU" insttype="T" lat="37.58" lon="36.3452">
    <comp name="--.HHE">
      <acc value="0.0633887470" flag="0"/>
      <vel value="0.0303897325" flag="0"/>
      <psa03 value="0.1729030177" flag="0"/>
      <psa10 value="0.0357310414" flag="0"/>
      <psa30 value="0.0025985897" flag="0"/>
    </comp>
    <comp name="--.HHZ">
      <acc value="0.0256028867" flag="0"/>
      <vel value="0.0226720400" flag="0"/>
      <psa03 value="0.0840678764" flag="0"/>
      <psa10 value="0.0404071424" flag="0"/>
      <psa30 value="0.0019374860" flag="0"/>
    </comp>
    <comp name="--.HHN">
      <acc value="0.0864149189" flag="0"/>
      <vel value="0.0438409683" flag="0"/>
      <psa03 value="0.3655952079" flag="0"/>
      <psa10 value="0.0584854917" flag="0"/>
      <psa30 value="0.0023676593" flag="0"/>
    </comp>
  </station>
</stationlist>
