<?xml version="1.0" encoding="UTF-8" standalone="yes"?>
<!DOCTYPE earthquake SYSTEM "stationlist.dtd">
<stationlist created="" xmlns="ch.ethz.sed.shakemap.usgs.xml">
  <station code="AGRP" name="AGRP" netid="CL" insttype="CMG40-T" lat="38.3959" lon="21.7228">
    <comp name="00.HHZ">
      <acc value="0.0067749710" flag="0"/>
      <vel value="0.0050582860" flag="0"/>
      <psa03 value="0.0272309435" flag="0"/>
      <psa10 value="0.0084589894" flag="0"/>
      <psa30 value="0.0005280260" flag="0"/>
    </comp>
    <comp name="00.HHE">
      <acc value="0.0193183285" flag="0"/>
      <vel value="0.0092213177" flag="0"/>
      <psa03 value="0.0333118643" flag="0"/>
      <psa10 value="0.0071676582" flag="0"/>
      <psa30 value="0.0006932303" flag="0"/>
    </comp>
    <comp name="00.HHN">
      <acc value="0.0128702734" flag="0"/>
      <vel value="0.0077473778" flag="0"/>
      <psa03 value="0.0310878289" flag="0"/>
      <psa10 value="0.0088649207" flag="0"/>
      <psa30 value="0.0009098958" flag="0"/>
    </comp>
  </station>
  <station code="MSL1" name="MSL1" netid="HI" insttype="CMG-5TD,ACCELEROMETER,GURALP" lat="38.3727" lon="21.4243">
    <comp name="--.HNE">
      <acc value="0.0502507597" flag="0"/>
      <vel value="0.0382024762" flag="0"/>
      <psa03 value="0.1812597266" flag="0"/>
      <psa10 value="0.0910259487" flag="0"/>
      <psa30 value="0.0054993767" flag="0"/>
    </comp>
    <comp name="--.HNN">
      <acc value="0.0717729248" flag="0"/>
      <vel value="0.0425405763" flag="0"/>
      <psa03 value="0.1722986966" flag="0"/>
      <psa10 value="0.0953434378" flag="0"/>
      <psa30 value="0.0076660427" flag="0"/>
    </comp>
    <comp name="--.HNZ">
      <acc value="0.0330420674" flag="0"/>
      <vel value="0.0177620261" flag="0"/>
      <psa03 value="0.0755453885" flag="0"/>
      <psa10 value="0.0344539238" flag="0"/>
      <psa30 value="0.0016036291" flag="0"/>
    </comp>
  </station>
  <station code="EVR" name="EVR" netid="HL" insttype="DR24" lat="38.9166" lon="21.8105">
    <comp name="--.HHE">
      <acc value="0.0048620525" flag="0"/>
      <vel value="0.0039882851" flag="0"/>
      <psa03 value="0.0152374087" flag="0"/>
      <psa10 value="0.0051041011" flag="0"/>
      <psa30 value="0.0003739492" flag="0"/>
    </comp>
    <comp name="--.HHZ">
      <acc value="0.0038484919" flag="0"/>
      <vel value="0.0044629752" flag="0"/>
      <psa03 value="0.0129049045" flag="0"/>
      <psa10 value="0.0095901660" flag="0"/>
      <psa30 value="0.0003879888" flag="0"/>
    </comp>
    <comp name="--.HHN">
      <acc value="0.0064715967" flag="0"/>
      <vel value="0.0038167548" flag="0"/>
      <psa03 value="0.0196607915" flag="0"/>
      <psa10 value="0.0051297933" flag="0"/>
      <psa30 value="0.0003480544" flag="0"/>
    </comp>
  </station>
  <station code="JAN" name="JAN" netid="HL" insttype="CMG3EPSC60_DR24" lat="39.6562" lon="20.8487">
    <comp name="--.HHN">
      <acc value="0.0074853954" flag="0"/>
      <vel value="0.0040560852" flag="0"/>
      <psa03 value="0.0134874672" flag="0"/>
      <psa10 value="0.0044106443" flag="0"/>
      <psa30 value="0.0002886659" flag="0"/>
    </comp>
    <comp name="--.HHE">
      <acc value="0.0063725200" flag="0"/>
      <vel value="0.0049281499" flag="0"/>
      <psa03 value="0.0190142815" flag="0"/>
      <psa10 value="0.0062209146" flag="0"/>
      <psa30 value="0.0005652374" flag="0"/>
    </comp>
    <comp name="--.HHZ">
      <acc value="0.0050013998" flag="0"/>
      <vel value="0.0036748880" flag="0"/>
      <psa03 value="0.0127744508" flag="0"/>
      <psa10 value="0.0039189889" flag="0"/>
      <psa30 value="0.0003419425" flag="0"/>
    </comp>
  </station>
  <station code="ORTH" name="ORTH" netid="HL" insttype="30" lat="37.8511" lon="20.6963">
    <comp name="--.HHZ">
      <acc value="0.0125184094" flag="0"/>
      <vel value="0.0051485314" flag="0"/>
      <psa03 value="0.0288988413" flag="0"/>
      <psa10 value="0.0047230813" flag="0"/>
      <psa30 value="0.0005379907" flag="0"/>
    </comp>
    <comp name="--.HHN">
      <acc value="0.0354149778" flag="0"/>
      <vel value="0.0111046025" flag="0"/>
      <psa03 value="0.0602839240" flag="0"/>
      <psa10 value="0.0157954131" flag="0"/>
      <psa30 value="0.0009510882" flag="0"/>
    </comp>
    <comp name="--.HHE">
      <acc value="0.0373226602" flag="0"/>
      <vel value="0.0113177974" flag="0"/>
      <psa03 value="0.0526921892" flag="0"/>
      <psa10 value="0.0081303492" flag="0"/>
      <psa30 value="0.0005927114" flag="0"/>
    </comp>
  </station>
  <station code="RLS" name="RLS" netid="HL" insttype="CMG3ESPC-120s" lat="38.0559" lon="21.4647">
    <comp name="--.HHE">
      <acc value="0.0101807701" flag="0"/>
      <vel value="0.0076840906" flag="0"/>
      <psa03 value="0.0404118781" flag="0"/>
      <psa10 value="0.0084868544" flag="0"/>
      <psa30 value="0.0003815297" flag="0"/>
    </comp>
    <comp name="--.HHN">
      <acc value="0.0118652070" flag="0"/>
      <vel value="0.0082461205" flag="0"/>
      <psa03 value="0.0390773316" flag="0"/>
      <psa10 value="0.0050351517" flag="0"/>
      <psa30 value="0.0005600035" flag="0"/>
    </comp>
    <comp name="--.HHZ">
      <acc value="0.0053503494" flag="0"/>
      <vel value="0.0030901372" flag="0"/>
      <psa03 value="0.0115842452" flag="0"/>
      <psa10 value="0.0036629324" flag="0"/>
      <psa30 value="0.0003058923" flag="0"/>
    </comp>
  </station>
  <station code="TETR" name="TETR" netid="HL" insttype="60" lat="39.3445" lon="21.2747">
    <comp name="--.HHN">
      <acc value="0.0155310224" flag="0"/>
      <vel value="0.0124544413" flag="0"/>
      <psa03 value="0.0379571018" flag="0"/>
      <psa10 value="0.0106328861" flag="0"/>
      <psa30 value="0.0009463045" flag="0"/>
    </comp>
    <comp name="--.HHE">
      <acc value="0.0195165880" flag="0"/>
      <vel value="0.0129003355" flag="0"/>
      <psa03 value="0.0641178396" flag="0"/>
      <psa10 value="0.0146339308" flag="0"/>
      <psa30 value="0.0011010903" flag="0"/>
    </comp>
    <comp name="--.HHZ">
      <acc value="0.0082988656" flag="0"/>
      <vel value="0.0045405456" flag="0"/>
      <psa03 value="0.0278223318" flag="0"/>
      <psa10 value="0.0051620072" flag="0"/>
      <psa30 value="0.0005575152" flag="0"/>
    </comp>
  </station>
  <station code="VLS" name="VLS" netid="HL" insttype="120P," lat="38.1768" lon="20.5886">
    <comp name="--.HHE">
      <acc value="0.2632647541" flag="0"/>
      <vel value="0.0493298099" flag="0"/>
      <psa03 value="0.1648318783" flag="0"/>
      <psa10 value="0.0100360384" flag="0"/>
      <psa30 value="0.0010997277" flag="0"/>
    </comp>
    <comp name="--.HHN">
      <acc value="0.2144908724" flag="0"/>
      <vel value="0.0406234665" flag="0"/>
      <psa03 value="0.0937951326" flag="0"/>
      <psa10 value="0.0119310980" flag="0"/>
      <psa30 value="0.0006576830" flag="0"/>
    </comp>
    <comp name="--.HHZ">
      <acc value="0.1346833245" flag="0"/>
      <vel value="0.0241881215" flag="0"/>
      <psa03 value="0.0928659009" flag="0"/>
      <psa10 value="0.0080153980" flag="0"/>
      <psa30 value="0.0005087153" flag="0"/>
    </comp>
  </station>
  <station code="AMPL" name="AMPL" netid="HP" insttype="Compact," lat="38.9224" lon="21.2135">
    <comp name="--.HHN">
      <acc value="0.0243244731" flag="0"/>
      <vel value="0.0113998642" flag="0"/>
      <psa03 value="0.0685589112" flag="0"/>
      <psa10 value="0.0108091015" flag="0"/>
      <psa30 value="0.0009026406" flag="0"/>
    </comp>
    <comp name="--.HHZ">
      <acc value="0.0144341591" flag="0"/>
      <vel value="0.0079094659" flag="0"/>
      <psa03 value="0.0344567107" flag="0"/>
      <psa10 value="0.0067556087" flag="0"/>
      <psa30 value="0.0003733239" flag="0"/>
    </comp>
    <comp name="--.HHE">
      <acc value="0.0313567771" flag="0"/>
      <vel value="0.0121756148" flag="0"/>
      <psa03 value="0.0663948367" flag="0"/>
      <psa10 value="0.0127883822" flag="0"/>
      <psa30 value="0.0009308547" flag="0"/>
    </comp>
  </station>
  <station code="ANX" name="ANX" netid="HP" insttype="120" lat="38.5933" lon="21.9209">
    <comp name="--.HHZ">
      <acc value="0.0133659092" flag="0"/>
      <vel value="0.0117513415" flag="0"/>
      <psa03 value="0.0259897110" flag="0"/>
      <psa10 value="0.0152078395" flag="0"/>
      <psa30 value="0.0006016138" flag="0"/>
    </comp>
    <comp name="--.HHE">
      <acc value="0.0234433283" flag="0"/>
      <vel value="0.0152229909" flag="0"/>
      <psa03 value="0.0431677768" flag="0"/>
      <psa10 value="0.0186894609" flag="0"/>
      <psa30 value="0.0008224916" flag="0"/>
    </comp>
    <comp name="--.HHN">
      <acc value="0.0351266076" flag="0"/>
      <vel value="0.0236269264" flag="0"/>
      <psa03 value="0.0853070079" flag="0"/>
      <psa10 value="0.0169315030" flag="0"/>
      <psa30 value="0.0010369762" flag="0"/>
    </comp>
  </station>
  <station code="AXS" name="AXS" netid="HP" insttype="Compact," lat="38.1962" lon="21.3763">
    <comp name="--.HHE">
      <acc value="0.0130871744" flag="0"/>
      <vel value="0.0046907890" flag="0"/>
      <psa03 value="0.0286482281" flag="0"/>
      <psa10 value="0.0038381547" flag="0"/>
      <psa30 value="0.0004878668" flag="0"/>
    </comp>
    <comp name="--.HHZ">
      <acc value="0.0064506890" flag="0"/>
      <vel value="0.0025825821" flag="0"/>
      <psa03 value="0.0177491931" flag="0"/>
      <psa10 value="0.0024355627" flag="0"/>
      <psa30 value="0.0002462532" flag="0"/>
    </comp>
    <comp name="--.HHN">
      <acc value="0.0166434991" flag="0"/>
      <vel value="0.0127791264" flag="0"/>
      <psa03 value="0.0362884728" flag="0"/>
      <psa10 value="0.0082115405" flag="0"/>
      <psa30 value="0.0010686254" flag="0"/>
    </comp>
  </station>
  <station code="EFP" name="EFP" netid="HP" insttype="40," lat="38.4269" lon="21.9058">
    <comp name="--.HHE">
      <acc value="0.0149675688" flag="0"/>
      <vel value="0.0076648008" flag="0"/>
      <psa03 value="0.0501930269" flag="0"/>
      <psa10 value="0.0078030738" flag="0"/>
      <psa30 value="0.0004042277" flag="0"/>
    </comp>
    <comp name="--.HHN">
      <acc value="0.0158750884" flag="0"/>
      <vel value="0.0101041350" flag="0"/>
      <psa03 value="0.0632534067" flag="0"/>
      <psa10 value="0.0121192558" flag="0"/>
      <psa30 value="0.0008022155" flag="0"/>
    </comp>
    <comp name="--.HHZ">
      <acc value="0.0073500233" flag="0"/>
      <vel value="0.0039335927" flag="0"/>
      <psa03 value="0.0268877190" flag="0"/>
      <psa10 value="0.0049848760" flag="0"/>
      <psa30 value="0.0003409496" flag="0"/>
    </comp>
  </station>
  <station code="FSK" name="FSK" netid="HP" insttype="40," lat="38.4593" lon="20.5623">
    <comp name="--.HHN">
      <acc value="0.1470102560" flag="0"/>
      <vel value="0.0471427104" flag="0"/>
      <psa03 value="0.1943946392" flag="0"/>
      <psa10 value="0.0308730745" flag="0"/>
      <psa30 value="0.0022961364" flag="0"/>
    </comp>
    <comp name="--.HHE">
      <acc value="0.2478062084" flag="0"/>
      <vel value="0.0809463014" flag="0"/>
      <psa03 value="0.4972314381" flag="0"/>
      <psa10 value="0.0391062810" flag="0"/>
      <psa30 value="0.0045839324" flag="0"/>
    </comp>
    <comp name="--.HHZ">
      <acc value="0.1082859911" flag="0"/>
      <vel value="0.0341654368" flag="0"/>
      <psa03 value="0.1014487643" flag="0"/>
      <psa10 value="0.0185863209" flag="0"/>
      <psa30 value="0.0040551407" flag="0"/>
    </comp>
  </station>
  <station code="KSTR" name="KSTR" netid="HP" insttype="Compact," lat="39.2492" lon="20.576">
    <comp name="--.HHZ">
      <acc value="0.0171994906" flag="0"/>
      <vel value="0.0049015347" flag="0"/>
      <psa03 value="0.0302472980" flag="0"/>
      <psa10 value="0.0030307893" flag="0"/>
      <psa30 value="0.0003256034" flag="0"/>
    </comp>
    <comp name="--.HHN">
      <acc value="0.0084742675" flag="0"/>
      <vel value="0.0052083700" flag="0"/>
      <psa03 value="0.0241543762" flag="0"/>
      <psa10 value="0.0028835308" flag="0"/>
      <psa30 value="0.0002706143" flag="0"/>
    </comp>
    <comp name="--.HHE">
      <acc value="0.0141305398" flag="0"/>
      <vel value="0.0067687566" flag="0"/>
      <psa03 value="0.0434354614" flag="0"/>
      <psa10 value="0.0050364690" flag="0"/>
      <psa30 value="0.0003704216" flag="0"/>
    </comp>
  </station>
  <station code="LTHK" name="LTHK" netid="HP" insttype="40," lat="37.7095" lon="20.8367">
    <comp name="--.HHN">
      <acc value="0.0147841631" flag="0"/>
      <vel value="0.0066501453" flag="0"/>
      <psa03 value="0.0370796483" flag="0"/>
      <psa10 value="0.0052744560" flag="0"/>
      <psa30 value="0.0007082592" flag="0"/>
    </comp>
    <comp name="--.HHE">
      <acc value="0.0168501842" flag="0"/>
      <vel value="0.0058718256" flag="0"/>
      <psa03 value="0.0344579209" flag="0"/>
      <psa10 value="0.0065768363" flag="0"/>
      <psa30 value="0.0005855913" flag="0"/>
    </comp>
    <comp name="--.HHZ">
      <acc value="0.0092459591" flag="0"/>
      <vel value="0.0033515833" flag="0"/>
      <psa03 value="0.0191546531" flag="0"/>
      <psa10 value="0.0028583187" flag="0"/>
      <psa30 value="0.0004859809" flag="0"/>
    </comp>
  </station>
  <station code="PDO" name="PDO" netid="HP" insttype="120s" lat="38.5986" lon="21.1833">
    <comp name="--.HHE">
      <acc value="0.0703608922" flag="0"/>
      <vel value="0.0216830445" flag="0"/>
      <psa03 value="0.1325950593" flag="0"/>
      <psa10 value="0.0130311896" flag="0"/>
      <psa30 value="0.0010132468" flag="0"/>
    </comp>
    <comp name="--.HHN">
      <acc value="0.0627048087" flag="0"/>
      <vel value="0.0233351667" flag="0"/>
      <psa03 value="0.1404232002" flag="0"/>
      <psa10 value="0.0179137871" flag="0"/>
      <psa30 value="0.0018625448" flag="0"/>
    </comp>
    <comp name="--.HHZ">
      <acc value="0.0379111702" flag="0"/>
      <vel value="0.0116475808" flag="0"/>
      <psa03 value="0.0893209766" flag="0"/>
      <psa10 value="0.0082501357" flag="0"/>
      <psa30 value="0.0005287390" flag="0"/>
    </comp>
  </station>
  <station code="PRMD" name="PRMD" netid="HP" insttype="120P," lat="39.5299" lon="21.0965">
    <comp name="--.HHE">
      <acc value="0.0100961636" flag="0"/>
      <vel value="0.0079806209" flag="0"/>
      <psa03 value="0.0197000698" flag="0"/>
      <psa10 value="0.0086086423" flag="0"/>
      <psa30 value="0.0005466859" flag="0"/>
    </comp>
    <comp name="--.HHN">
      <acc value="0.0056985361" flag="0"/>
      <vel value="0.0054087594" flag="0"/>
      <psa03 value="0.0140109668" flag="0"/>
      <psa10 value="0.0056858360" flag="0"/>
      <psa30 value="0.0006421349" flag="0"/>
    </comp>
    <comp name="--.HHZ">
      <acc value="0.0045506679" flag="0"/>
      <vel value="0.0025571977" flag="0"/>
      <psa03 value="0.0126290402" flag="0"/>
      <psa10 value="0.0051108973" flag="0"/>
      <psa30 value="0.0004566949" flag="0"/>
    </comp>
  </station>
  <station code="PVO" name="PVO" netid="HP" insttype="120P," lat="38.616" lon="21.525">
    <comp name="--.HHZ">
      <acc value="0.0199824237" flag="0"/>
      <vel value="0.0069939255" flag="0"/>
      <psa03 value="0.0551968567" flag="0"/>
      <psa10 value="0.0049667887" flag="0"/>
      <psa30 value="0.0005587256" flag="0"/>
    </comp>
    <comp name="--.HHN">
      <acc value="0.0255513242" flag="0"/>
      <vel value="0.0177097026" flag="0"/>
      <psa03 value="0.0989388895" flag="0"/>
      <psa10 value="0.0123953852" flag="0"/>
      <psa30 value="0.0013872821" flag="0"/>
    </comp>
    <comp name="--.HHE">
      <acc value="0.0301816023" flag="0"/>
      <vel value="0.0144133389" flag="0"/>
      <psa03 value="0.0764377413" flag="0"/>
      <psa10 value="0.0126372120" flag="0"/>
      <psa30 value="0.0009097354" flag="0"/>
    </comp>
  </station>
  <station code="VVK" name="VVK" netid="HP" insttype="40," lat="38.4222" lon="21.8115">
    <comp name="--.HHE">
      <acc value="0.0178146733" flag="0"/>
      <vel value="0.0103290348" flag="0"/>
      <psa03 value="0.0662494303" flag="0"/>
      <psa10 value="0.0088723631" flag="0"/>
      <psa30 value="0.0006264539" flag="0"/>
    </comp>
    <comp name="--.HHN">
      <acc value="0.0152413113" flag="0"/>
      <vel value="0.0095270960" flag="0"/>
      <psa03 value="0.0661115490" flag="0"/>
      <psa10 value="0.0085669799" flag="0"/>
      <psa30 value="0.0008620488" flag="0"/>
    </comp>
    <comp name="--.HHZ">
      <acc value="0.0076516145" flag="0"/>
      <vel value="0.0041581769" flag="0"/>
      <psa03 value="0.0274299491" flag="0"/>
      <psa10 value="0.0042746498" flag="0"/>
      <psa30 value="0.0005999528" flag="0"/>
    </comp>
  </station>
  <station code="DMLN" name="DMLN" netid="HT" insttype="1s-100Hz," lat="38.2385" lon="20.3734">
    <comp name="--.HHE">
      <acc value="0.1243804224" flag="0"/>
      <vel value="0.0288416115" flag="0"/>
      <psa03 value="0.1362138378" flag="0"/>
      <psa10 value="0.0261911903" flag="0"/>
      <psa30 value="0.0023259645" flag="0"/>
    </comp>
    <comp name="--.HHN">
      <acc value="0.0959543596" flag="0"/>
      <vel value="0.0251617520" flag="0"/>
      <psa03 value="0.1592543977" flag="0"/>
      <psa10 value="0.0334341590" flag="0"/>
      <psa30 value="0.0024639743" flag="0"/>
    </comp>
    <comp name="--.HHZ">
      <acc value="0.0804335726" flag="0"/>
      <vel value="0.0177189389" flag="0"/>
      <psa03 value="0.0601293605" flag="0"/>
      <psa10 value="0.0098068693" flag="0"/>
      <psa30 value="0.0010227033" flag="0"/>
    </comp>
  </station>
  <station code="EVGI" name="EVGI" netid="HT" insttype="30" lat="38.621" lon="20.656">
    <comp name="--.HHN">
      <acc value="2.4097149365" flag="0"/>
      <vel value="0.5383035973" flag="0"/>
      <psa03 value="1.7246249122" flag="0"/>
      <psa10 value="0.1767662695" flag="0"/>
      <psa30 value="0.0214973089" flag="0"/>
    </comp>
    <comp name="--.HHE">
      <acc value="2.0848647503" flag="0"/>
      <vel value="0.3334102803" flag="0"/>
      <psa03 value="1.3267405132" flag="0"/>
      <psa10 value="0.0701983628" flag="0"/>
      <psa30 value="0.0053146109" flag="0"/>
    </comp>
    <comp name="--.HHZ">
      <acc value="2.0113379566" flag="0"/>
      <vel value="0.3313577667" flag="0"/>
      <psa03 value="0.8813985115" flag="0"/>
      <psa10 value="0.0466209961" flag="0"/>
      <psa30 value="0.0058566810" flag="0"/>
    </comp>
  </station>
  <station code="IGT" name="IGT" netid="HT" insttype="100" lat="39.5315" lon="20.3299">
    <comp name="--.HHE">
      <acc value="0.0114164324" flag="0"/>
      <vel value="0.0073252536" flag="0"/>
      <psa03 value="0.0402378006" flag="0"/>
      <psa10 value="0.0080929349" flag="0"/>
      <psa30 value="0.0004694694" flag="0"/>
    </comp>
    <comp name="--.HHN">
      <acc value="0.0094919193" flag="0"/>
      <vel value="0.0041639097" flag="0"/>
      <psa03 value="0.0260846368" flag="0"/>
      <psa10 value="0.0028626583" flag="0"/>
      <psa30 value="0.0003389906" flag="0"/>
    </comp>
    <comp name="--.HHZ">
      <acc value="0.0087132129" flag="0"/>
      <vel value="0.0036789925" flag="0"/>
      <psa03 value="0.0172410714" flag="0"/>
      <psa10 value="0.0020056261" flag="0"/>
      <psa30 value="0.0002755744" flag="0"/>
    </comp>
  </station>
  <station code="NYDR" name="NYDR" netid="HT" insttype="1s-100Hz," lat="38.7135" lon="20.6983">
    <comp name="--.HHZ">
      <acc value="0.1740189135" flag="0"/>
      <vel value="0.0578526822" flag="0"/>
      <psa03 value="0.2687273868" flag="0"/>
      <psa10 value="0.0391617078" flag="0"/>
      <psa30 value="0.0037055855" flag="0"/>
    </comp>
    <comp name="--.HHN">
      <acc value="0.2292827236" flag="0"/>
      <vel value="0.1085678875" flag="0"/>
