<?xml version="1.0" encoding="UTF-8" standalone="yes"?>
<!DOCTYPE earthquake SYSTEM "stationlist.dtd">
<stationlist created="" xmlns="ch.ethz.sed.shakemap.usgs.xml">
  <station code="AKS" name="AKS" netid="KO" insttype="CMG-5T" commtype="DIG" lat="38.8785" lon="27.8129">
    <comp name="--.HNZ">
      <acc value="0.0372260433" flag="0"/>
      <vel value="0.0060198718" flag="0"/>
      <psa03 value="0.0273551070" flag="0"/>
      <psa10 value="0.0023846707" flag="0"/>
      <psa30 value="0.0003775935" flag="0"/>
    </comp>
    <comp name="--.HNN">
      <acc value="0.0699054545" flag="0"/>
      <vel value="0.0141492704" flag="0"/>
      <psa03 value="0.0639618424" flag="0"/>
      <psa10 value="0.0059600887" flag="0"/>
      <psa30 value="0.0005496955" flag="0"/>
    </comp>
  </station>
  <station code="AYVL" name="AYVL" netid="KO" insttype="CMG-6T" commtype="DIG" lat="39.2907" lon="26.69">
    <comp name="--.HHE">
      <acc value="0.0373245532" flag="0"/>
      <vel value="0.0161511235" flag="0"/>
      <psa03 value="0.1143312341" flag="0"/>
      <psa10 value="0.0063713344" flag="0"/>
      <psa30 value="0.0004432210" flag="0"/>
    </comp>
    <comp name="--.HHN">
      <acc value="0.0230719745" flag="0"/>
      <vel value="0.0121738181" flag="0"/>
      <psa03 value="0.0714043319" flag="0"/>
      <psa10 value="0.0051127353" flag="0"/>
      <psa30 value="0.0003478701" flag="0"/>
    </comp>
    <comp name="--.HHZ">
      <acc value="0.0122082960" flag="0"/>
      <vel value="0.0038220086" flag="0"/>
      <psa03 value="0.0301263820" flag="0"/>
      <psa10 value="0.0020256990" flag="0"/>
      <psa30 value="0.0001074467" flag="0"/>
    </comp>
  </station>
  <station code="BALB" name="BALB" netid="KO" insttype="CMG-5T" commtype="DIG" lat="39.6507" lon="27.8642">
    <comp name="--.HNE">
      <acc value="0.0744538300" flag="0"/>
      <vel value="0.0246915055" flag="0"/>
      <psa03 value="0.1690184262" flag="0"/>
      <psa10 value="0.0125365356" flag="0"/>
      <psa30 value="0.0012166407" flag="0"/>
    </comp>
    <comp name="--.HNN">
      <acc value="0.1023657744" flag="0"/>
      <vel value="0.0346873363" flag="0"/>
      <psa03 value="0.2133369226" flag="0"/>
      <psa10 value="0.0183155935" flag="0"/>
      <psa30 value="0.0009212558" flag="0"/>
    </comp>
    <comp name="--.HNZ">
      <acc value="0.0534040727" flag="0"/>
      <vel value="0.0166565228" flag="0"/>
      <psa03 value="0.0682368716" flag="0"/>
      <psa10 value="0.0072877355" flag="0"/>
      <psa30 value="0.0005206657" flag="0"/>
    </comp>
  </station>
  <station code="DKL" name="DKL" netid="KO" insttype="CMG-3ESPC" commtype="DIG" lat="39.0713" lon="26.9053">
    <comp name="--.HHZ">
      <acc value="0.0045494856" flag="0"/>
      <vel value="0.0021030787" flag="0"/>
      <psa03 value="0.0131425592" flag="0"/>
      <psa10 value="0.0015373974" flag="0"/>
      <psa30 value="0.0001563159" flag="0"/>
    </comp>
  </station>
  <station code="DST" name="DST" netid="KO" insttype="CMG-5T" commtype="DIG" lat="39.6041" lon="28.6267">
    <comp name="--.HNE">
      <acc value="0.0478360222" flag="0"/>
      <vel value="0.0122928654" flag="0"/>
      <psa03 value="0.0797893129" flag="0"/>
      <psa10 value="0.0050033808" flag="0"/>
      <psa30 value="0.0006940569" flag="0"/>
    </comp>
    <comp name="--.HNN">
      <acc value="0.0440078590" flag="0"/>
      <vel value="0.0103719650" flag="0"/>
      <psa03 value="0.0466013749" flag="0"/>
      <psa10 value="0.0046847266" flag="0"/>
      <psa30 value="0.0003291973" flag="0"/>
    </comp>
    <comp name="--.HNZ">
      <acc value="0.0412623520" flag="0"/>
      <vel value="0.0081165872" flag="0"/>
      <psa03 value="0.0378450639" flag="0"/>
      <psa10 value="0.0027425124" flag="0"/>
      <psa30 value="0.0004571160" flag="0"/>
    </comp>
  </station>
  <station code="GOMA" name="GOMA" netid="KO" insttype="CMG-5T" commtype="DIG" lat="38.7077" lon="27.9175">
    <comp name="--.HNZ">
      <acc value="0.0254027409" flag="0"/>
      <vel value="0.0072772695" flag="0"/>
      <psa03 value="0.0188684559" flag="0"/>
      <psa10 value="0.0028132901" flag="0"/>
      <psa30 value="0.0004635008" flag="0"/>
    </comp>
    <comp name="--.HNE">
      <acc value="0.0308341189" flag="0"/>
      <vel value="0.0169289732" flag="0"/>
      <psa03 value="0.0745459767" flag="0"/>
      <psa10 value="0.0098998361" flag="0"/>
      <psa30 value="0.0005315517" flag="0"/>
    </comp>
    <comp name="--.HNN">
      <acc value="0.0374173957" flag="0"/>
      <vel value="0.0236484540" flag="0"/>
      <psa03 value="0.0700774325" flag="0"/>
      <psa10 value="0.0113040825" flag="0"/>
      <psa30 value="0.0008881510" flag="0"/>
    </comp>
  </station>
  <station code="GONE" name="GONE" netid="KO" insttype="CMG-5T" commtype="DIG" lat="40.0466" lon="27.686">
    <comp name="--.HNN">
      <acc value="0.0446268286" flag="0"/>
      <vel value="0.0170160745" flag="0"/>
      <psa03 value="0.0921708832" flag="0"/>
      <psa10 value="0.0076993071" flag="0"/>
      <psa30 value="0.0004955696" flag="0"/>
    </comp>
    <comp name="--.HNZ">
      <acc value="0.0198574223" flag="0"/>
      <vel value="0.0054578146" flag="0"/>
      <psa03 value="0.0329047115" flag="0"/>
      <psa10 value="0.0035846868" flag="0"/>
      <psa30 value="0.0002635838" flag="0"/>
    </comp>
    <comp name="--.HNE">
      <acc value="0.0421487821" flag="0"/>
      <vel value="0.0141559094" flag="0"/>
      <psa03 value="0.0584490192" flag="0"/>
      <psa10 value="0.0073628444" flag="0"/>
      <psa30 value="0.0006532274" flag="0"/>
    </comp>
  </station>
  <station code="GORD" name="GORD" netid="KO" insttype="CMG-5T" commtype="DIG" lat="38.9088" lon="28.1769">
    <comp name="--.HNN">
      <acc value="0.0383025432" flag="0"/>
      <vel value="0.0242935231" flag="0"/>
      <psa03 value="0.0531770850" flag="0"/>
      <psa10 value="0.0202792449" flag="0"/>
      <psa30 value="0.0010322684" flag="0"/>
    </comp>
    <comp name="--.HNZ">
      <acc value="0.0226819360" flag="0"/>
      <vel value="0.0115803874" flag="0"/>
      <psa03 value="0.0250765705" flag="0"/>
      <psa10 value="0.0078307066" flag="0"/>
      <psa30 value="0.0011541926" flag="0"/>
    </comp>
    <comp name="--.HNE">
      <acc value="0.0339068328" flag="0"/>
      <vel value="0.0131744607" flag="0"/>
      <psa03 value="0.0362923345" flag="0"/>
      <psa10 value="0.0182362265" flag="0"/>
      <psa30 value="0.0013306810" flag="0"/>
    </comp>
  </station>
  <station code="KCTX" name="KCTX" netid="KO" insttype="CMG-3ESP" commtype="DIG" lat="40.2626" lon="28.3353">
    <comp name="--.HHE">
      <acc value="0.0351193326" flag="0"/>
      <vel value="0.0086466432" flag="0"/>
      <psa03 value="0.0443680116" flag="0"/>
      <psa10 value="0.0087150296" flag="0"/>
      <psa30 value="0.0005817060" flag="0"/>
    </comp>
    <comp name="--.HHZ">
      <acc value="0.0260790560" flag="0"/>
      <vel value="0.0052349517" flag="0"/>
      <psa03 value="0.0187095080" flag="0"/>
      <psa10 value="0.0025139500" flag="0"/>
      <psa30 value="0.0001900239" flag="0"/>
    </comp>
    <comp name="--.HHN">
      <acc value="0.0281904959" flag="0"/>
      <vel value="0.0081895789" flag="0"/>
      <psa03 value="0.0464999136" flag="0"/>
      <psa10 value="0.0029575386" flag="0"/>
      <psa30 value="0.0002568284" flag="0"/>
    </comp>
  </station>
  <station code="ORLT" name="ORLT" netid="KO" insttype="CMG-5T" commtype="DIG" lat="40.0452" lon="28.8914">
    <comp name="--.HNE">
      <acc value="0.0425170272" flag="0"/>
      <vel value="0.0162319960" flag="0"/>
      <psa03 value="0.0714280728" flag="0"/>
      <psa10 value="0.0104493714" flag="0"/>
      <psa30 value="0.0004956090" flag="0"/>
    </comp>
    <comp name="--.HNN">
      <acc value="0.0675997832" flag="0"/>
      <vel value="0.0291744063" flag="0"/>
      <psa03 value="0.2016243833" flag="0"/>
      <psa10 value="0.0097579894" flag="0"/>
      <psa30 value="0.0009168840" flag="0"/>
    </comp>
    <comp name="--.HNZ">
      <acc value="0.0171736608" flag="0"/>
      <vel value="0.0062557039" flag="0"/>
      <psa03 value="0.0415816689" flag="0"/>
      <psa10 value="0.0064359115" flag="0"/>
      <psa30 value="0.0004668444" flag="0"/>
    </comp>
  </station>
  <station code="SHAP" name="SHAP" netid="KO" insttype="CMG-5T" commtype="DIG" lat="39.0231" lon="29.222">
    <comp name="--.HNZ">
      <acc value="0.0213518264" flag="0"/>
      <vel value="0.0046978437" flag="0"/>
      <psa03 value="0.0145815279" flag="0"/>
      <psa10 value="0.0012002863" flag="0"/>
      <psa30 value="0.0001772895" flag="0"/>
    </comp>
    <comp name="--.HNN">
      <acc value="0.0317478745" flag="0"/>
      <vel value="0.0081055859" flag="0"/>
      <psa03 value="0.0392134697" flag="0"/>
      <psa10 value="0.0028384971" flag="0"/>
      <psa30 value="0.0002292160" flag="0"/>
    </comp>
    <comp name="--.HNE">
      <acc value="0.0355536515" flag="0"/>
      <vel value="0.0076494130" flag="0"/>
      <psa03 value="0.0472544328" flag="0"/>
      <psa10 value="0.0022899975" flag="0"/>
      <psa30 value="0.0001669232" flag="0"/>
    </comp>
  </station>
  <station code="SMAA" name="SMAA" netid="KO" insttype="CMG-5T" commtype="DIG" lat="39.1005" lon="28.9805">
    <comp name="--.HNE">
      <acc value="0.0306661782" flag="0"/>
      <vel value="0.0135858007" flag="0"/>
      <psa03 value="0.0866453309" flag="0"/>
      <psa10 value="0.0208348592" flag="0"/>
      <psa30 value="0.0012308539" flag="0"/>
    </comp>
    <comp name="--.HNN">
      <acc value="0.0275320468" flag="0"/>
      <vel value="0.0177448834" flag="0"/>
      <psa03 value="0.0736064735" flag="0"/>
      <psa10 value="0.0185616595" flag="0"/>
      <psa30 value="0.0010455482" flag="0"/>
    </comp>
    <comp name="--.HNZ">
      <acc value="0.0151373896" flag="0"/>
      <vel value="0.0057994215" flag="0"/>
      <psa03 value="0.0182624273" flag="0"/>
      <psa10 value="0.0087349331" flag="0"/>
      <psa30 value="0.0003878120" flag="0"/>
    </comp>
  </station>
  <station code="YAYO" name="YAYO" netid="KO" insttype="CMG-6T" commtype="DIG" lat="39.6113" lon="27.0726">
    <comp name="--.HHE">
      <acc value="0.0110646314" flag="0"/>
      <vel value="0.0066638092" flag="0"/>
      <psa03 value="0.0403145020" flag="0"/>
      <psa10 value="0.0029758460" flag="0"/>
      <psa30 value="0.0002225808" flag="0"/>
    </comp>
    <comp name="--.HHN">
      <acc value="0.0165357673" flag="0"/>
      <vel value="0.0077414254" flag="0"/>
      <psa03 value="0.0574655600" flag="0"/>
      <psa10 value="0.0033982922" flag="0"/>
      <psa30 value="0.0001783991" flag="0"/>
    </comp>
    <comp name="--.HHZ">
      <acc value="0.0172542543" flag="0"/>
      <vel value="0.0086852869" flag="0"/>
      <psa03 value="0.0379793117" flag="0"/>
      <psa10 value="0.0029034999" flag="0"/>
      <psa30 value="0.0002285372" flag="0"/>
    </comp>
  </station>
  <station code="YENI" name="YENI" netid="KO" insttype="CMG-5T" commtype="DIG" lat="39.9364" lon="27.2422">
    <comp name="--.HNN">
      <acc value="0.0497168050" flag="0"/>
      <vel value="0.0149958610" flag="0"/>
      <psa03 value="0.0602662536" flag="0"/>
      <psa10 value="0.0096538773" flag="0"/>
      <psa30 value="0.0006251084" flag="0"/>
    </comp>
    <comp name="--.HNZ">
      <acc value="0.0342128176" flag="0"/>
      <vel value="0.0070417076" flag="0"/>
      <psa03 value="0.0262893738" flag="0"/>
      <psa10 value="0.0025811275" flag="0"/>
      <psa30 value="0.0002575448" flag="0"/>
    </comp>
    <comp name="--.HNE">
      <acc value="0.0419305349" flag="0"/>
      <vel value="0.0136229236" flag="0"/>
      <psa03 value="0.0633923955" flag="0"/>
      <psa10 value="0.0051977733" flag="0"/>
      <psa30 value="0.0004508305" flag="0"/>
    </comp>
  </station>
</stationlist>
