<?xml version="1.0" encoding="UTF-8" standalone="yes"?>
<!DOCTYPE earthquake SYSTEM "stationlist.dtd">
<stationlist created="" xmlns="ch.ethz.sed.shakemap.usgs.xml">
  <station code="ARPRA" name="ARPRA" netid="KO" insttype="CMG-5T" lat="39.0929" lon="38.3356">
    <comp name="--.HNE">
      <acc value="0.0504410174" flag="0"/>
      <vel value="0.0220153569" flag="0"/>
      <psa03 value="0.1457684992" flag="0"/>
      <psa10 value="0.0242980356" flag="0"/>
      <psa30 value="0.0075779696" flag="0"/>
    </comp>
    <comp name="--.HNN">
      <acc value="0.0571695583" flag="0"/>
      <vel value="0.0264329815" flag="0"/>
      <psa03 value="0.1477037811" flag="0"/>
      <psa10 value="0.0381017443" flag="0"/>
      <psa30 value="0.0054630710" flag="0"/>
    </comp>
    <comp name="--.HNZ">
      <acc value="0.0322328510" flag="0"/>
      <vel value="0.0133541732" flag="0"/>
      <psa03 value="0.0802051893" flag="0"/>
      <psa10 value="0.0204104539" flag="0"/>
      <psa30 value="0.0036676446" flag="0"/>
    </comp>
  </station>
  <station code="BNN" name="BNN" netid="KO" insttype="CMG-3T" lat="38.8521" lon="35.8472">
    <comp name="--.HHE">
      <acc value="0.0119036529" flag="0"/>
      <vel value="0.0099964185" flag="0"/>
      <psa03 value="0.0299706688" flag="0"/>
      <psa10 value="0.0248300617" flag="0"/>
      <psa30 value="0.0020155293" flag="0"/>
    </comp>
    <comp name="--.HHZ">
      <acc value="0.0096989582" flag="0"/>
      <vel value="0.0080430594" flag="0"/>
      <psa03 value="0.0141793952" flag="0"/>
      <psa10 value="0.0080562300" flag="0"/>
      <psa30 value="0.0006321895" flag="0"/>
    </comp>
    <comp name="--.HHN">
      <acc value="0.0115075164" flag="0"/>
      <vel value="0.0143355050" flag="0"/>
      <psa03 value="0.0276705137" flag="0"/>
      <psa10 value="0.0197782456" flag="0"/>
      <psa30 value="0.0047473221" flag="0"/>
    </comp>
  </station>
  <station code="DARE" name="DARE" netid="KO" insttype="CMG-3ESP" lat="38.5712" lon="37.4832">
    <comp name="--.HHZ">
      <acc value="0.1594681801" flag="0"/>
      <vel value="0.1037650678" flag="0"/>
      <psa03 value="0.4193613509" flag="0"/>
      <psa10 value="0.2118936229" flag="0"/>
      <psa30 value="0.0150753505" flag="0"/>
    </comp>
    <comp name="--.HHE">
      <acc value="0.3251841768" flag="0"/>
      <vel value="0.2229325654" flag="0"/>
      <psa03 value="0.6829211986" flag="0"/>
      <psa10 value="0.1665089462" flag="0"/>
      <psa30 value="0.0154364219" flag="0"/>
    </comp>
    <comp name="--.HHN">
      <acc value="0.1692406737" flag="0"/>
      <vel value="0.0631860294" flag="0"/>
      <psa03 value="0.3436579730" flag="0"/>
      <psa10 value="0.1166545596" flag="0"/>
      <psa30 value="0.0140432010" flag="0"/>
    </comp>
  </station>
  <station code="SARI" name="SARI" netid="KO" insttype="CMG-3T" lat="38.4072" lon="36.4181">
    <comp name="--.HHE">
      <acc value="0.0616891687" flag="0"/>
      <vel value="0.0326640607" flag="0"/>
      <psa03 value="0.1218736512" flag="0"/>
      <psa10 value="0.0323369496" flag="0"/>
      <psa30 value="0.0043983595" flag="0"/>
    </comp>
    <comp name="--.HHZ">
      <acc value="0.0555551961" flag="0"/>
      <vel value="0.0382257088" flag="0"/>
      <psa03 value="0.1509856019" flag="0"/>
      <psa10 value="0.0519968586" flag="0"/>
      <psa30 value="0.0033600763" flag="0"/>
    </comp>
    <comp name="--.HHN">
      <acc value="0.0481415419" flag="0"/>
      <vel value="0.0311767865" flag="0"/>
      <psa03 value="0.1988479743" flag="0"/>
      <psa10 value="0.0274611462" flag="0"/>
      <psa30 value="0.0052554322" flag="0"/>
    </comp>
  </station>
  <station code="SVSK" name="SVSK" netid="KO" insttype="CMG-3T" lat="39.9157" lon="36.9925">
    <comp name="--.HHE">
      <acc value="0.0202230662" flag="0"/>
      <vel value="0.0108417024" flag="0"/>
      <psa03 value="0.0480033169" flag="0"/>
      <psa10 value="0.0107739906" flag="0"/>
      <psa30 value="0.0007868304" flag="0"/>
    </comp>
    <comp name="--.HHN">
      <acc value="0.0118725820" flag="0"/>
      <vel value="0.0058229360" flag="0"/>
      <psa03 value="0.0346198214" flag="0"/>
      <psa10 value="0.0074204186" flag="0"/>
      <psa30 value="0.0006385478" flag="0"/>
    </comp>
    <comp name="--.HHZ">
      <acc value="0.0100746884" flag="0"/>
      <vel value="0.0065053268" flag="0"/>
      <psa03 value="0.0385733019" flag="0"/>
      <psa10 value="0.0071863158" flag="0"/>
      <psa30 value="0.0010787005" flag="0"/>
    </comp>
  </station>
  <station code="TUNC" name="TUNC" netid="KO" insttype="CMG-5T" lat="39.6942" lon="37.5388">
    <comp name="--.HNE">
      <acc value="0.0351459512" flag="0"/>
      <vel value="0.0302041657" flag="0"/>
      <psa03 value="0.0888012002" flag="0"/>
      <psa10 value="0.0303367058" flag="0"/>
      <psa30 value="0.0032484642" flag="0"/>
    </comp>
    <comp name="--.HNN">
      <acc value="0.0382978918" flag="0"/>
      <vel value="0.0202138609" flag="0"/>
      <psa03 value="0.0870783522" flag="0"/>
      <psa10 value="0.0269977932" flag="0"/>
      <psa30 value="0.0038031871" flag="0"/>
    </comp>
    <comp name="--.HNZ">
      <acc value="0.0176416947" flag="0"/>
      <vel value="0.0173525202" flag="0"/>
      <psa03 value="0.0633009483" flag="0"/>
      <psa10 value="0.0223135495" flag="0"/>
      <psa30 value="0.0022330363" flag="0"/>
    </comp>
  </station>
</stationlist>
