<?xml version="1.0" encoding="UTF-8" standalone="yes"?>
<!DOCTYPE earthquake SYSTEM "stationlist.dtd">
<stationlist created="" xmlns="ch.ethz.sed.shakemap.usgs.xml">
  <station code="ARPRA" name="ARPRA" netid="KO" insttype="CMG-5T" lat="39.0929" lon="38.3356">
    <comp name="--.HNZ">
      <acc value="0.0322328333" flag="0"/>
      <vel value="0.0133541693" flag="0"/>
      <psa03 value="0.0802051893" flag="0"/>
      <psa10 value="0.0204104540" flag="0"/>
      <psa30 value="0.0036676329" flag="0"/>
    </comp>
    <comp name="--.HNN">
      <acc value="0.0571695601" flag="0"/>
      <vel value="0.0264329894" flag="0"/>
      <psa03 value="0.1477037811" flag="0"/>
      <psa10 value="0.0381017443" flag="0"/>
      <psa30 value="0.0054631267" flag="0"/>
    </comp>
    <comp name="--.HNE">
      <acc value="0.0504410097" flag="0"/>
      <vel value="0.0220153555" flag="0"/>
      <psa03 value="0.1457684992" flag="0"/>
      <psa10 value="0.0242980356" flag="0"/>
      <psa30 value="0.0075778140" flag="0"/>
    </comp>
  </station>
  <station code="DARE" name="DARE" netid="KO" insttype="CMG-3ESP" lat="38.5712" lon="37.4832">
    <comp name="--.HHE">
      <acc value="0.3251841773" flag="0"/>
      <vel value="0.2229325654" flag="0"/>
      <psa03 value="0.6829211986" flag="0"/>
      <psa10 value="0.1665089458" flag="0"/>
      <psa30 value="0.0154364058" flag="0"/>
    </comp>
    <comp name="--.HHN">
      <acc value="0.1692406738" flag="0"/>
      <vel value="0.0631860286" flag="0"/>
      <psa03 value="0.3436579730" flag="0"/>
      <psa10 value="0.1166545596" flag="0"/>
      <psa30 value="0.0140432456" flag="0"/>
    </comp>
    <comp name="--.HHZ">
      <acc value="0.1594681801" flag="0"/>
      <vel value="0.1037650678" flag="0"/>
      <psa03 value="0.4193613509" flag="0"/>
      <psa10 value="0.2118936231" flag="0"/>
      <psa30 value="0.0150753647" flag="0"/>
    </comp>
  </station>
  <station code="SARI" name="SARI" netid="KO" insttype="CMG-3T" lat="38.4072" lon="36.4181">
    <comp name="--.HHN">
      <acc value="0.0481415419" flag="0"/>
      <vel value="0.0311767866" flag="0"/>
      <psa03 value="0.1988479743" flag="0"/>
      <psa10 value="0.0274611462" flag="0"/>
      <psa30 value="0.0052554140" flag="0"/>
    </comp>
    <comp name="--.HHE">
      <acc value="0.0616891685" flag="0"/>
      <vel value="0.0326640605" flag="0"/>
      <psa03 value="0.1218736512" flag="0"/>
      <psa10 value="0.0323369496" flag="0"/>
      <psa30 value="0.0043983586" flag="0"/>
    </comp>
    <comp name="--.HHZ">
      <acc value="0.0555551961" flag="0"/>
      <vel value="0.0382257084" flag="0"/>
      <psa03 value="0.1509856019" flag="0"/>
      <psa10 value="0.0519968586" flag="0"/>
      <psa30 value="0.0033600112" flag="0"/>
    </comp>
  </station>
  <station code="TUNC" name="TUNC" netid="KO" insttype="CMG-5T" lat="39.6942" lon="37.5388">
    <comp name="--.HNE">
      <acc value="0.0351459626" flag="0"/>
      <vel value="0.0302041387" flag="0"/>
      <psa03 value="0.0888012002" flag="0"/>
      <psa10 value="0.0303367058" flag="0"/>
      <psa30 value="0.0032484928" flag="0"/>
    </comp>
    <comp name="--.HNN">
      <acc value="0.0382978961" flag="0"/>
      <vel value="0.0202138744" flag="0"/>
      <psa03 value="0.0870783522" flag="0"/>
      <psa10 value="0.0269977929" flag="0"/>
      <psa30 value="0.0038031833" flag="0"/>
    </comp>
    <comp name="--.HNZ">
      <acc value="0.0176416906" flag="0"/>
      <vel value="0.0173525135" flag="0"/>
      <psa03 value="0.0633009483" flag="0"/>
      <psa10 value="0.0223135494" flag="0"/>
      <psa30 value="0.0022330589" flag="0"/>
    </comp>
  </station>
</stationlist>
