<?xml version="1.0" encoding="UTF-8" standalone="yes"?>
<!DOCTYPE earthquake SYSTEM "stationlist.dtd">
<stationlist created="" xmlns="ch.ethz.sed.shakemap.usgs.xml">
  <station code="APE" name="APE" netid="GE" insttype="STS-2/N" lat="37.0727" lon="25.523">
    <comp name="--.HHE">
      <acc value="0.1143321047" flag="0"/>
      <vel value="0.0312695933" flag="0"/>
      <psa03 value="0.1429239272" flag="0"/>
      <psa10 value="0.0067004354" flag="0"/>
      <psa30 value="0.0014533594" flag="0"/>
    </comp>
    <comp name="--.HHN">
      <acc value="0.2052005951" flag="0"/>
      <vel value="0.0458959831" flag="0"/>
      <psa03 value="0.0873521193" flag="0"/>
      <psa10 value="0.0126697913" flag="0"/>
      <psa30 value="0.0024583986" flag="0"/>
    </comp>
    <comp name="--.HHZ">
      <acc value="0.0572516790" flag="0"/>
      <vel value="0.0129708125" flag="0"/>
      <psa03 value="0.0396411925" flag="0"/>
      <psa10 value="0.0112006562" flag="0"/>
      <psa30 value="0.0021564044" flag="0"/>
    </comp>
  </station>
  <station code="THERA" name="THERA" netid="GE" insttype="STS-2/N" lat="36.367" lon="25.4753">
    <comp name="--.HHE">
      <acc value="0.1420442737" flag="0"/>
      <vel value="0.0353572682" flag="0"/>
      <psa03 value="0.1601928406" flag="0"/>
      <psa10 value="0.0187507499" flag="0"/>
      <psa30 value="0.0020337081" flag="0"/>
    </comp>
    <comp name="--.HHN">
      <acc value="0.1009766343" flag="0"/>
      <vel value="0.0262106079" flag="0"/>
      <psa03 value="0.1187673483" flag="0"/>
      <psa10 value="0.0139722393" flag="0"/>
      <psa30 value="0.0009488875" flag="0"/>
    </comp>
    <comp name="--.HHZ">
      <acc value="0.1547885244" flag="0"/>
      <vel value="0.0452665499" flag="0"/>
      <psa03 value="0.1756966437" flag="0"/>
      <psa10 value="0.0181582331" flag="0"/>
      <psa30 value="0.0017614010" flag="0"/>
    </comp>
  </station>
  <station code="SERI" name="SERI" netid="HA" insttype="30" lat="37.1609" lon="24.4853">
    <comp name="--.HHZ">
      <acc value="0.0166774937" flag="0"/>
      <vel value="0.0054108659" flag="0"/>
      <psa03 value="0.0239567901" flag="0"/>
      <psa10 value="0.0051934936" flag="0"/>
      <psa30 value="0.0005024667" flag="0"/>
    </comp>
    <comp name="--.HHE">
      <acc value="0.0177383075" flag="0"/>
      <vel value="0.0064607130" flag="0"/>
      <psa03 value="0.0280611345" flag="0"/>
      <psa10 value="0.0029088202" flag="0"/>
      <psa30 value="0.0005891822" flag="0"/>
    </comp>
    <comp name="--.HHN">
      <acc value="0.0218803733" flag="0"/>
      <vel value="0.0077926928" flag="0"/>
      <psa03 value="0.0251080872" flag="0"/>
      <psa10 value="0.0047644197" flag="0"/>
      <psa30 value="0.0009096663" flag="0"/>
    </comp>
  </station>
  <station code="SNT1" name="SNT1" netid="HA" insttype="30" lat="36.4159" lon="25.4282">
    <comp name="--.HHN">
      <acc value="0.0858016149" flag="0"/>
      <vel value="0.0348046556" flag="0"/>
      <psa03 value="0.1660092824" flag="0"/>
      <psa10 value="0.0361074698" flag="0"/>
      <psa30 value="0.0062468104" flag="0"/>
    </comp>
    <comp name="--.HHE">
      <acc value="0.0786616201" flag="0"/>
      <vel value="0.0307785945" flag="0"/>
      <psa03 value="0.1438053763" flag="0"/>
      <psa10 value="0.0430548651" flag="0"/>
      <psa30 value="0.0052120244" flag="0"/>
    </comp>
    <comp name="--.HHZ">
      <acc value="0.0640649873" flag="0"/>
      <vel value="0.0266153739" flag="0"/>
      <psa03 value="0.1435154764" flag="0"/>
      <psa10 value="0.0223637406" flag="0"/>
      <psa30 value="0.0020418289" flag="0"/>
    </comp>
  </station>
  <station code="SFR2" name="SFR2" netid="HI" insttype="unknown" lat="36.3998" lon="25.4382">
    <comp name="--.HNZ">
      <acc value="0.2225138994" flag="0"/>
      <vel value="0.0783654630" flag="0"/>
      <psa03 value="0.3059356962" flag="0"/>
      <psa10 value="0.0467225724" flag="0"/>
      <psa30 value="0.0033606145" flag="0"/>
    </comp>
    <comp name="--.HNN">
      <acc value="0.2177041550" flag="0"/>
      <vel value="0.0984193650" flag="0"/>
      <psa03 value="0.4678694614" flag="0"/>
      <psa10 value="0.1034439020" flag="0"/>
      <psa30 value="0.0046226091" flag="0"/>
    </comp>
    <comp name="--.HNE">
      <acc value="0.2784636139" flag="0"/>
      <vel value="0.0802580134" flag="0"/>
      <psa03 value="0.6260747327" flag="0"/>
      <psa10 value="0.0533426551" flag="0"/>
      <psa30 value="0.0053283654" flag="0"/>
    </comp>
  </station>
  <station code="AMGA" name="AMGA" netid="HL" insttype="SMART24" lat="36.8316" lon="25.8938">
    <comp name="--.HHE">
      <acc value="1.1189765265" flag="0"/>
      <vel value="0.2586586590" flag="0"/>
      <psa03 value="1.6569808328" flag="0"/>
      <psa10 value="0.1313642174" flag="0"/>
      <psa30 value="0.0115892992" flag="0"/>
    </comp>
    <comp name="--.HHN">
      <acc value="0.6642458107" flag="0"/>
      <vel value="0.2112072068" flag="0"/>
      <psa03 value="0.8292806460" flag="0"/>
      <psa10 value="0.1041227449" flag="0"/>
      <psa30 value="0.0095932158" flag="0"/>
    </comp>
    <comp name="--.HHZ">
      <acc value="0.7756690903" flag="0"/>
      <vel value="0.2127516369" flag="0"/>
      <psa03 value="1.0513112388" flag="0"/>
      <psa10 value="0.0695870470" flag="0"/>
      <psa30 value="0.0130990402" flag="0"/>
    </comp>
  </station>
  <station code="APE" name="APE" netid="HL" insttype="120" lat="37.0727" lon="25.523">
    <comp name="--.HHN">
      <acc value="0.1871236646" flag="0"/>
      <vel value="0.0439440022" flag="0"/>
      <psa03 value="0.0840770441" flag="0"/>
      <psa10 value="0.0123421179" flag="0"/>
      <psa30 value="0.0024511650" flag="0"/>
    </comp>
    <comp name="--.HHZ">
      <acc value="0.0517159427" flag="0"/>
      <vel value="0.0122944468" flag="0"/>
      <psa03 value="0.0386353710" flag="0"/>
      <psa10 value="0.0110860001" flag="0"/>
      <psa30 value="0.0021539491" flag="0"/>
    </comp>
    <comp name="--.HHE">
      <acc value="0.1099179212" flag="0"/>
      <vel value="0.0296825731" flag="0"/>
      <psa03 value="0.1374107079" flag="0"/>
      <psa10 value="0.0065068083" flag="0"/>
      <psa30 value="0.0014492996" flag="0"/>
    </comp>
  </station>
  <station code="MHLO" name="MHLO" netid="HL" insttype="20" lat="36.6898" lon="24.4017">
    <comp name="--.HHN">
      <acc value="0.0483962618" flag="0"/>
      <vel value="0.0232203238" flag="0"/>
      <psa03 value="0.1836028593" flag="0"/>
      <psa10 value="0.0391703383" flag="0"/>
      <psa30 value="0.0019117864" flag="0"/>
    </comp>
    <comp name="--.HHZ">
      <acc value="0.0189317779" flag="0"/>
      <vel value="0.0132664973" flag="0"/>
      <psa03 value="0.0569665105" flag="0"/>
      <psa10 value="0.0239981882" flag="0"/>
      <psa30 value="0.0013740761" flag="0"/>
    </comp>
    <comp name="--.HHE">
      <acc value="0.0449176083" flag="0"/>
      <vel value="0.0234082834" flag="0"/>
      <psa03 value="0.1577795156" flag="0"/>
      <psa10 value="0.0254285043" flag="0"/>
      <psa30 value="0.0017193577" flag="0"/>
    </comp>
  </station>
  <station code="SANT" name="SANT" netid="HL" insttype="30" lat="36.3705" lon="25.4593">
    <comp name="--.HHE">
      <acc value="0.5192366788" flag="0"/>
      <vel value="0.0874534233" flag="0"/>
      <psa03 value="0.3141382497" flag="0"/>
      <psa10 value="0.0224579585" flag="0"/>
      <psa30 value="0.0021729148" flag="0"/>
    </comp>
    <comp name="--.HHN">
      <acc value="0.2702939306" flag="0"/>
      <vel value="0.0550309260" flag="0"/>
      <psa03 value="0.2447545160" flag="0"/>
      <psa10 value="0.0300369732" flag="0"/>
      <psa30 value="0.0021632499" flag="0"/>
    </comp>
  </station>
  <station code="SAP3" name="SAP3" netid="HL" insttype="65535" lat="36.4356" lon="25.3454">
    <comp name="--.HHN">
      <acc value="0.1029268583" flag="0"/>
      <vel value="0.0419329538" flag="0"/>
      <psa03 value="0.1869379540" flag="0"/>
      <psa10 value="0.0286086652" flag="0"/>
      <psa30 value="0.0047285060" flag="0"/>
    </comp>
    <comp name="--.HHE">
      <acc value="0.1183988691" flag="0"/>
      <vel value="0.0303826429" flag="0"/>
      <psa03 value="0.1124296502" flag="0"/>
      <psa10 value="0.0284206670" flag="0"/>
      <psa30 value="0.0046107585" flag="0"/>
    </comp>
  </station>
  <station code="THERA" name="THERA" netid="HL" insttype="120" lat="36.367" lon="25.4753">
    <comp name="--.HHZ">
      <acc value="0.1509149767" flag="0"/>
      <vel value="0.0440430772" flag="0"/>
      <psa03 value="0.1699702774" flag="0"/>
      <psa10 value="0.0179812909" flag="0"/>
      <psa30 value="0.0017622294" flag="0"/>
    </comp>
    <comp name="--.HHE">
      <acc value="0.1372702081" flag="0"/>
      <vel value="0.0342203568" flag="0"/>
      <psa03 value="0.1549671920" flag="0"/>
      <psa10 value="0.0185283063" flag="0"/>
      <psa30 value="0.0020296622" flag="0"/>
    </comp>
    <comp name="--.HHN">
      <acc value="0.1973988707" flag="0"/>
      <vel value="0.0509112894" flag="0"/>
      <psa03 value="0.2300839583" flag="0"/>
      <psa10 value="0.0277863172" flag="0"/>
      <psa30 value="0.0018973495" flag="0"/>
    </comp>
  </station>
  <station code="TNSA" name="TNSA" netid="HL" insttype="CMG-5" lat="37.5394" lon="25.1631">
    <comp name="00.HNE">
      <acc value="0.0294431148" flag="0"/>
      <vel value="0.0078509942" flag="0"/>
      <psa03 value="0.0350394661" flag="0"/>
      <psa10 value="0.0063199864" flag="0"/>
      <psa30 value="0.0007191673" flag="0"/>
    </comp>
    <comp name="00.HNN">
      <acc value="0.0341772789" flag="0"/>
      <vel value="0.0109635581" flag="0"/>
      <psa03 value="0.0277520902" flag="0"/>
      <psa10 value="0.0063154306" flag="0"/>
      <psa30 value="0.0007848894" flag="0"/>
    </comp>
    <comp name="00.HNZ">
      <acc value="0.0223105920" flag="0"/>
      <vel value="0.0080217294" flag="0"/>
      <psa03 value="0.0285433230" flag="0"/>
      <psa10 value="0.0048922302" flag="0"/>
      <psa30 value="0.0009903738" flag="0"/>
    </comp>
  </station>
  <station code="AKRO" name="AKRO" netid="HT" insttype="Compact," lat="36.3584" lon="25.3967">
    <comp name="--.HHN">
      <acc value="0.3057204527" flag="0"/>
      <vel value="0.0883308506" flag="0"/>
      <psa03 value="0.6671446429" flag="0"/>
      <psa10 value="0.0581618633" flag="0"/>
      <psa30 value="0.0044237416" flag="0"/>
    </comp>
    <comp name="--.HHE">
      <acc value="0.4518993680" flag="0"/>
      <vel value="0.1236424511" flag="0"/>
      <psa03 value="0.7071078786" flag="0"/>
      <psa10 value="0.0487944675" flag="0"/>
      <psa30 value="0.0040330379" flag="0"/>
    </comp>
    <comp name="--.HHZ">
      <acc value="0.2246936302" flag="0"/>
      <vel value="0.0676583718" flag="0"/>
      <psa03 value="0.5339201900" flag="0"/>
      <psa10 value="0.0298437816" flag="0"/>
      <psa30 value="0.0030392475" flag="0"/>
    </comp>
  </station>
  <station code="CMBO" name="CMBO" netid="HT" insttype="120P," lat="36.4709" lon="25.4056">
    <comp name="--.HHE">
      <acc value="0.1522590713" flag="0"/>
      <vel value="0.0465676546" flag="0"/>
      <psa03 value="0.2525113424" flag="0"/>
      <psa10 value="0.0450794775" flag="0"/>
      <psa30 value="0.0049276037" flag="0"/>
    </comp>
    <comp name="--.HHN">
      <acc value="0.1306245784" flag="0"/>
      <vel value="0.0603352838" flag="0"/>
      <psa03 value="0.2244364207" flag="0"/>
      <psa10 value="0.0528011589" flag="0"/>
      <psa30 value="0.0033183244" flag="0"/>
    </comp>
    <comp name="--.HHZ">
      <acc value="0.1169264096" flag="0"/>
      <vel value="0.0340603670" flag="0"/>
      <psa03 value="0.1911328260" flag="0"/>
      <psa10 value="0.0205112203" flag="0"/>
      <psa30 value="0.0024825485" flag="0"/>
    </comp>
  </station>
</stationlist>
