<?xml version="1.0" encoding="UTF-8" standalone="yes"?>
<!DOCTYPE earthquake SYSTEM "stationlist.dtd">
<stationlist created="" xmlns="ch.ethz.sed.shakemap.usgs.xml">
  <station code="APE" name="APE" netid="GE" insttype="STS-2/N" lat="37.0727" lon="25.523">
    <comp name="--.HHN">
      <acc value="0.2052005950" flag="0"/>
      <vel value="0.0458959822" flag="0"/>
      <psa03 value="0.0873521193" flag="0"/>
      <psa10 value="0.0126697914" flag="0"/>
      <psa30 value="0.0024584356" flag="0"/>
    </comp>
    <comp name="--.HHE">
      <acc value="0.1143321049" flag="0"/>
      <vel value="0.0312695969" flag="0"/>
      <psa03 value="0.1429239272" flag="0"/>
      <psa10 value="0.0067004358" flag="0"/>
      <psa30 value="0.0014533673" flag="0"/>
    </comp>
    <comp name="--.HHZ">
      <acc value="0.0572516790" flag="0"/>
      <vel value="0.0129708123" flag="0"/>
      <psa03 value="0.0396411925" flag="0"/>
      <psa10 value="0.0112006566" flag="0"/>
      <psa30 value="0.0021564081" flag="0"/>
    </comp>
  </station>
  <station code="THERA" name="THERA" netid="GE" insttype="STS-2/N" lat="36.367" lon="25.4753">
    <comp name="--.HHE">
      <acc value="0.1420442738" flag="0"/>
      <vel value="0.0353572682" flag="0"/>
      <psa03 value="0.1601928406" flag="0"/>
      <psa10 value="0.0187507503" flag="0"/>
      <psa30 value="0.0020337327" flag="0"/>
    </comp>
    <comp name="--.HHN">
      <acc value="0.1009766342" flag="0"/>
      <vel value="0.0262106070" flag="0"/>
      <psa03 value="0.1187673483" flag="0"/>
      <psa10 value="0.0139722395" flag="0"/>
      <psa30 value="0.0009488867" flag="0"/>
    </comp>
    <comp name="--.HHZ">
      <acc value="0.1547885245" flag="0"/>
      <vel value="0.0452665499" flag="0"/>
      <psa03 value="0.1756966437" flag="0"/>
      <psa10 value="0.0181582311" flag="0"/>
      <psa30 value="0.0017613899" flag="0"/>
    </comp>
  </station>
</stationlist>
