<?xml version="1.0" encoding="UTF-8" standalone="yes"?>
<!DOCTYPE earthquake SYSTEM "stationlist.dtd">
<stationlist created="" xmlns="ch.ethz.sed.shakemap.usgs.xml">
  <station code="APE" name="APE" netid="GE" insttype="STS-2/N" lat="37.0727" lon="25.523">
    <comp name="--.HHZ">
      <acc value="0.0572516789" flag="0"/>
      <vel value="0.0129708123" flag="0"/>
      <psa03 value="0.0396411925" flag="0"/>
      <psa10 value="0.0112006567" flag="0"/>
      <psa30 value="0.0021564088" flag="0"/>
    </comp>
    <comp name="--.HHN">
      <acc value="0.2052005950" flag="0"/>
      <vel value="0.0458959822" flag="0"/>
      <psa03 value="0.0873521193" flag="0"/>
      <psa10 value="0.0126697915" flag="0"/>
      <psa30 value="0.0024584415" flag="0"/>
    </comp>
    <comp name="--.HHE">
      <acc value="0.1143321049" flag="0"/>
      <vel value="0.0312695969" flag="0"/>
      <psa03 value="0.1429239272" flag="0"/>
      <psa10 value="0.0067004359" flag="0"/>
      <psa30 value="0.0014533658" flag="0"/>
    </comp>
  </station>
  <station code="THERA" name="THERA" netid="GE" insttype="STS-2/N" lat="36.367" lon="25.4753">
    <comp name="--.HHZ">
      <acc value="0.1547885245" flag="0"/>
      <vel value="0.0452665500" flag="0"/>
      <psa03 value="0.1756966437" flag="0"/>
      <psa10 value="0.0181582302" flag="0"/>
      <psa30 value="0.0017613860" flag="0"/>
    </comp>
    <comp name="--.HHN">
      <acc value="0.1009766341" flag="0"/>
      <vel value="0.0262106067" flag="0"/>
      <psa03 value="0.1187673483" flag="0"/>
      <psa10 value="0.0139722396" flag="0"/>
      <psa30 value="0.0009488876" flag="0"/>
    </comp>
    <comp name="--.HHE">
      <acc value="0.1420442738" flag="0"/>
      <vel value="0.0353572695" flag="0"/>
      <psa03 value="0.1601928406" flag="0"/>
      <psa10 value="0.0187507503" flag="0"/>
      <psa30 value="0.0020337255" flag="0"/>
    </comp>
  </station>
  <station code="SERI" name="SERI" netid="HA" insttype="30" lat="37.1609" lon="24.4853">
    <comp name="--.HHE">
      <acc value="0.0177383075" flag="0"/>
      <vel value="0.0064607395" flag="0"/>
      <psa03 value="0.0280611345" flag="0"/>
      <psa10 value="0.0029088202" flag="0"/>
      <psa30 value="0.0005891799" flag="0"/>
    </comp>
    <comp name="--.HHZ">
      <acc value="0.0166774936" flag="0"/>
      <vel value="0.0054108646" flag="0"/>
      <psa03 value="0.0239567901" flag="0"/>
      <psa10 value="0.0051934936" flag="0"/>
      <psa30 value="0.0005024770" flag="0"/>
    </comp>
    <comp name="--.HHN">
      <acc value="0.0218803734" flag="0"/>
      <vel value="0.0077927200" flag="0"/>
      <psa03 value="0.0251080872" flag="0"/>
      <psa10 value="0.0047644198" flag="0"/>
      <psa30 value="0.0009096349" flag="0"/>
    </comp>
  </station>
  <station code="SNT1" name="SNT1" netid="HA" insttype="30" lat="36.4159" lon="25.4282">
    <comp name="--.HHZ">
      <acc value="0.0640649874" flag="0"/>
      <vel value="0.0266153739" flag="0"/>
      <psa03 value="0.1435154764" flag="0"/>
      <psa10 value="0.0223637415" flag="0"/>
      <psa30 value="0.0020418948" flag="0"/>
    </comp>
    <comp name="--.HHE">
      <acc value="0.0786616199" flag="0"/>
      <vel value="0.0307785941" flag="0"/>
      <psa03 value="0.1438053763" flag="0"/>
      <psa10 value="0.0430548708" flag="0"/>
      <psa30 value="0.0052118909" flag="0"/>
    </comp>
    <comp name="--.HHN">
      <acc value="0.0858016151" flag="0"/>
      <vel value="0.0348046551" flag="0"/>
      <psa03 value="0.1660092824" flag="0"/>
      <psa10 value="0.0361074545" flag="0"/>
      <psa30 value="0.0062468428" flag="0"/>
    </comp>
  </station>
  <station code="SFR2" name="SFR2" netid="HI" insttype="unknown" lat="36.3998" lon="25.4382">
    <comp name="--.HNZ">
      <acc value="0.2225138995" flag="0"/>
      <vel value="0.0783654620" flag="0"/>
      <psa03 value="0.3059356962" flag="0"/>
      <psa10 value="0.0467225699" flag="0"/>
      <psa30 value="0.0033607151" flag="0"/>
    </comp>
    <comp name="--.HNN">
      <acc value="0.2177041545" flag="0"/>
      <vel value="0.0984193661" flag="0"/>
      <psa03 value="0.4678694614" flag="0"/>
      <psa10 value="0.1034439012" flag="0"/>
      <psa30 value="0.0046227387" flag="0"/>
    </comp>
  </station>
  <station code="AMGA" name="AMGA" netid="HL" insttype="SMART24" lat="36.8316" lon="25.8938">
    <comp name="--.HHE">
      <acc value="1.1189765264" flag="0"/>
      <vel value="0.2586586592" flag="0"/>
      <psa03 value="1.6569808328" flag="0"/>
      <psa10 value="0.1313642211" flag="0"/>
      <psa30 value="0.0115890911" flag="0"/>
    </comp>
  </station>
  <station code="APE" name="APE" netid="HL" insttype="120" lat="37.0727" lon="25.523">
    <comp name="--.HHE">
      <acc value="0.1099179211" flag="0"/>
      <vel value="0.0296825767" flag="0"/>
      <psa03 value="0.1374107079" flag="0"/>
      <psa10 value="0.0065068087" flag="0"/>
      <psa30 value="0.0014493062" flag="0"/>
    </comp>
    <comp name="--.HHN">
      <acc value="0.1871236646" flag="0"/>
      <vel value="0.0439440013" flag="0"/>
      <psa03 value="0.0840770441" flag="0"/>
      <psa10 value="0.0123421181" flag="0"/>
      <psa30 value="0.0024512078" flag="0"/>
    </comp>
    <comp name="--.HHZ">
      <acc value="0.0517159427" flag="0"/>
      <vel value="0.0122944466" flag="0"/>
      <psa03 value="0.0386353710" flag="0"/>
      <psa10 value="0.0110860006" flag="0"/>
      <psa30 value="0.0021539532" flag="0"/>
    </comp>
  </station>
  <station code="MHLO" name="MHLO" netid="HL" insttype="20" lat="36.6898" lon="24.4017">
    <comp name="--.HHE">
      <acc value="0.0449176083" flag="0"/>
      <vel value="0.0234082838" flag="0"/>
      <psa03 value="0.1577795156" flag="0"/>
      <psa10 value="0.0254285043" flag="0"/>
      <psa30 value="0.0017193277" flag="0"/>
    </comp>
    <comp name="--.HHZ">
      <acc value="0.0189317781" flag="0"/>
      <vel value="0.0132664969" flag="0"/>
      <psa03 value="0.0569665105" flag="0"/>
      <psa10 value="0.0239981881" flag="0"/>
      <psa30 value="0.0013740916" flag="0"/>
    </comp>
  </station>
  <station code="SANT" name="SANT" netid="HL" insttype="30" lat="36.3705" lon="25.4593">
    <comp name="--.HHZ">
      <acc value="0.3329218349" flag="0"/>
      <vel value="0.0797576506" flag="0"/>
      <psa03 value="0.2792587803" flag="0"/>
      <psa10 value="0.0216955953" flag="0"/>
      <psa30 value="0.0016111635" flag="0"/>
    </comp>
  </station>
  <station code="SAP3" name="SAP3" netid="HL" insttype="65535" lat="36.4356" lon="25.3454">
    <comp name="--.HHE">
      <acc value="0.1183988691" flag="0"/>
      <vel value="0.0303826406" flag="0"/>
      <psa03 value="0.1124296502" flag="0"/>
      <psa10 value="0.0284206653" flag="0"/>
      <psa30 value="0.0046107656" flag="0"/>
    </comp>
  </station>
  <station code="THERA" name="THERA" netid="HL" insttype="120" lat="36.367" lon="25.4753">
    <comp name="--.HHE">
      <acc value="0.1372702082" flag="0"/>
      <vel value="0.0342203581" flag="0"/>
      <psa03 value="0.1549671920" flag="0"/>
      <psa10 value="0.0185283066" flag="0"/>
      <psa30 value="0.0020296797" flag="0"/>
    </comp>
  </station>
  <station code="TNSA" name="TNSA" netid="HL" insttype="CMG-5" lat="37.5394" lon="25.1631">
    <comp name="00.HNE">
      <acc value="0.0294431153" flag="0"/>
      <vel value="0.0078509939" flag="0"/>
      <psa03 value="0.0350394661" flag="0"/>
      <psa10 value="0.0063199865" flag="0"/>
      <psa30 value="0.0007191311" flag="0"/>
    </comp>
    <comp name="00.HNN">
      <acc value="0.0341772783" flag="0"/>
      <vel value="0.0109635582" flag="0"/>
      <psa03 value="0.0277520902" flag="0"/>
      <psa10 value="0.0063154303" flag="0"/>
      <psa30 value="0.0007849003" flag="0"/>
    </comp>
    <comp name="00.HNZ">
      <acc value="0.0223105915" flag="0"/>
      <vel value="0.0080217310" flag="0"/>
      <psa03 value="0.0285433230" flag="0"/>
      <psa10 value="0.0048922301" flag="0"/>
      <psa30 value="0.0009902935" flag="0"/>
    </comp>
  </station>
  <station code="AKRO" name="AKRO" netid="HT" insttype="Compact," lat="36.3584" lon="25.3967">
    <comp name="--.HHE">
      <acc value="0.4518993682" flag="0"/>
      <vel value="0.1236424545" flag="0"/>
      <psa03 value="0.7071078786" flag="0"/>
      <psa10 value="0.0487944744" flag="0"/>
      <psa30 value="0.0040331192" flag="0"/>
    </comp>
    <comp name="--.HHN">
      <acc value="0.3057204526" flag="0"/>
      <vel value="0.0883308431" flag="0"/>
      <psa03 value="0.6671446429" flag="0"/>
      <psa10 value="0.0581618616" flag="0"/>
      <psa30 value="0.0044239802" flag="0"/>
    </comp>
  </station>
</stationlist>
