<stationlist created="1735099301">
	<station code="AKDN" name="AKDN" netid="KO" source="Bogazici University Kandilli Observatory And Earthquake Research Institute (KOERI)" insttype="" lat="35.2977" lon="32.9677">
		<comp name=".HNE" depth="0.0">
			<acc value="0.020611516925394" flag="0"/>
			<vel value="0.0109675949194" flag="0"/>
			<psa03 value="0.0666635828017997" flag="0"/>
			<psa10 value="0.00951076879175556" flag="0"/>
			<psa30 value="0.000951718775862908" flag="0"/>
		</comp>
		<comp name=".HNN" depth="0.0">
			<acc value="0.01981589597184" flag="0"/>
			<vel value="0.00969275194735" flag="0"/>
			<psa03 value="0.0604427540359519" flag="0"/>
			<psa10 value="0.00922948515808104" flag="0"/>
			<psa30 value="0.00248792814636221" flag="0"/>
		</comp>
		<comp name=".HNZ" depth="0.0">
			<acc value="0.012117327132354" flag="0"/>
			<vel value="0.00694605323066" flag="0"/>
			<psa03 value="0.0288009287535284" flag="0"/>
			<psa10 value="0.00602004973626467" flag="0"/>
			<psa30 value="0.00167881215056463" flag="0"/>
		</comp>
	</station>
	<station code="AKIN" name="AKIN" netid="KO" source="Bogazici University Kandilli Observatory And Earthquake Research Institute (KOERI)" insttype="" lat="35.0157" lon="33.4662">
		<comp name=".HNE" depth="0.0">
			<acc value="0.005458691046933" flag="0"/>
			<vel value="0.0045757880607" flag="0"/>
			<psa03 value="0.0161203100789324" flag="0"/>
			<psa10 value="0.00543010987439295" flag="0"/>
			<psa30 value="0.000403308045303695" flag="0"/>
		</comp>
		<comp name=".HNN" depth="0.0">
			<acc value="0.0066724256137902" flag="0"/>
			<vel value="0.00415525134629" flag="0"/>
			<psa03 value="0.0150270957317563" flag="0"/>
			<psa10 value="0.00635597917743414" flag="0"/>
			<psa30 value="0.000473216973301837" flag="0"/>
		</comp>
		<comp name=".HNZ" depth="0.0">
			<acc value="0.0076260926525616" flag="0"/>
			<vel value="0.00422356733271" flag="0"/>
			<psa03 value="0.0204211275390663" flag="0"/>
			<psa10 value="0.0040328005907359" flag="0"/>
			<psa30 value="0.000435587475324237" flag="0"/>
		</comp>
	</station>
	<station code="ALAN" name="ALAN" netid="KO" source="Bogazici University Kandilli Observatory And Earthquake Research Institute (KOERI)" insttype="" lat="36.557" lon="32.0327">
		<comp name=".HNE" depth="0.0">
			<acc value="0.01347091229673" flag="0"/>
			<vel value="0.00473460383646" flag="0"/>
			<psa03 value="0.024200775057554" flag="0"/>
			<psa10 value="0.00190172848017836" flag="0"/>
			<psa30 value="0.000566809423343819" flag="0"/>
		</comp>
		<comp name=".HNN" depth="0.0">
			<acc value="0.014778559246194" flag="0"/>
			<vel value="0.00424414645807" flag="0"/>
			<psa03 value="0.0223642028728355" flag="0"/>
			<psa10 value="0.00228872552308444" flag="0"/>
			<psa30 value="0.00080493873990816" flag="0"/>
		</comp>
		<comp name=".HNZ" depth="0.0">
			<acc value="0.01104217609476" flag="0"/>
			<vel value="0.0025037798578" flag="0"/>
			<psa03 value="0.00950472990210632" flag="0"/>
			<psa10 value="0.00105608367129821" flag="0"/>
			<psa30 value="0.0006883043467832" flag="0"/>
		</comp>
	</station>
	<station code="BOZY" name="BOZY" netid="KO" source="Bogazici University Kandilli Observatory And Earthquake Research Institute (KOERI)" insttype="" lat="36.1069" lon="32.9763">
		<comp name=".HNE" depth="0.0">
			<acc value="0.010874428450566" flag="0"/>
			<vel value="0.00336871824981" flag="0"/>
			<psa03 value="0.0166081405723839" flag="0"/>
			<psa10 value="0.00229844077604645" flag="0"/>
			<psa30 value="0.000335423392028452" flag="0"/>
		</comp>
		<comp name=".HNN" depth="0.0">
			<acc value="0.010873092883782" flag="0"/>
			<vel value="0.00323059945291" flag="0"/>
			<psa03 value="0.0155212013804907" flag="0"/>
			<psa10 value="0.00273657105002847" flag="0"/>
			<psa30 value="0.000333220459636967" flag="0"/>
		</comp>
		<comp name=".HNZ" depth="0.0">
			<acc value="0.0062791840305714" flag="0"/>
			<vel value="0.00276518123296" flag="0"/>
			<psa03 value="0.0160910490259565" flag="0"/>
			<psa10 value="0.00207903319449555" flag="0"/>
			<psa30 value="0.000402779442577829" flag="0"/>
		</comp>
	</station>
</stationlist>
