<?xml version="1.0" encoding="UTF-8" standalone="yes"?>
<!DOCTYPE earthquake SYSTEM "stationlist.dtd">
<stationlist created="" xmlns="ch.ethz.sed.shakemap.usgs.xml">
  <station code="AKDN" name="AKDN" netid="KO" insttype="CMG-5T" lat="35.2977" lon="32.9677">
    <comp name="--.HNZ">
      <acc value="0.0122737451" flag="0"/>
      <vel value="0.0068496252" flag="0"/>
      <psa03 value="0.0284244751" flag="0"/>
      <psa10 value="0.0059866218" flag="0"/>
      <psa30 value="0.0014348442" flag="0"/>
    </comp>
    <comp name="--.HNE">
      <acc value="0.0207169867" flag="0"/>
      <vel value="0.0111399078" flag="0"/>
      <psa03 value="0.0660196253" flag="0"/>
      <psa10 value="0.0094947110" flag="0"/>
      <psa30 value="0.0008426059" flag="0"/>
    </comp>
    <comp name="--.HNN">
      <acc value="0.0199137797" flag="0"/>
      <vel value="0.0097876012" flag="0"/>
      <psa03 value="0.0600478999" flag="0"/>
      <psa10 value="0.0092373325" flag="0"/>
      <psa30 value="0.0023053039" flag="0"/>
    </comp>
  </station>
  <station code="HSY" name="HSY" netid="KO" insttype="CMG-6T" lat="35.2916" lon="33.0974">
    <comp name="--.HHE">
      <acc value="0.0944683119" flag="0"/>
      <vel value="0.0353108253" flag="0"/>
      <psa03 value="0.1735903173" flag="0"/>
      <psa10 value="0.0195582544" flag="0"/>
      <psa30 value="0.0008107231" flag="0"/>
    </comp>
    <comp name="--.HHZ">
      <acc value="0.0207228197" flag="0"/>
      <vel value="0.0090260436" flag="0"/>
      <psa03 value="0.0437984398" flag="0"/>
      <psa10 value="0.0093392759" flag="0"/>
      <psa30 value="0.0007100343" flag="0"/>
    </comp>
    <comp name="--.HHN">
      <acc value="0.0936331500" flag="0"/>
      <vel value="0.0292339543" flag="0"/>
      <psa03 value="0.1700456555" flag="0"/>
      <psa10 value="0.0120150580" flag="0"/>
      <psa30 value="0.0011254113" flag="0"/>
    </comp>
  </station>
  <station code="LEF" name="LEF" netid="KO" insttype="CMG-6T" lat="35.1118" lon="32.8433">
    <comp name="--.HHE">
      <acc value="0.0343537498" flag="0"/>
      <vel value="0.0200742534" flag="0"/>
      <psa03 value="0.0781867020" flag="0"/>
      <psa10 value="0.0189188349" flag="0"/>
      <psa30 value="0.0013190044" flag="0"/>
    </comp>
    <comp name="--.HHN">
      <acc value="0.0440131897" flag="0"/>
      <vel value="0.0209588018" flag="0"/>
      <psa03 value="0.1370120561" flag="0"/>
      <psa10 value="0.0171364288" flag="0"/>
      <psa30 value="0.0014966657" flag="0"/>
    </comp>
    <comp name="--.HHZ">
      <acc value="0.0293058588" flag="0"/>
      <vel value="0.0171467260" flag="0"/>
      <psa03 value="0.0682539514" flag="0"/>
      <psa10 value="0.0188375079" flag="0"/>
      <psa30 value="0.0012827824" flag="0"/>
    </comp>
  </station>
</stationlist>
