<?xml version="1.0" encoding="UTF-8" standalone="yes"?>
<!DOCTYPE earthquake SYSTEM "stationlist.dtd">
<stationlist created="" xmlns="ch.ethz.sed.shakemap.usgs.xml">
  <station code="ARPRA" name="ARPRA" netid="KO" insttype="CMG-5T" lat="39.0929" lon="38.3356">
    <comp name="--.HNE">
      <acc value="0.0128880251" flag="0"/>
      <vel value="0.0053748970" flag="0"/>
      <psa03 value="0.0249434661" flag="0"/>
      <psa10 value="0.0032204088" flag="0"/>
      <psa30 value="0.0004414658" flag="0"/>
    </comp>
    <comp name="--.HNN">
      <acc value="0.0124086385" flag="0"/>
      <vel value="0.0069037284" flag="0"/>
      <psa03 value="0.0416389924" flag="0"/>
      <psa10 value="0.0059594600" flag="0"/>
      <psa30 value="0.0003096538" flag="0"/>
    </comp>
    <comp name="--.HNZ">
      <acc value="0.0093384265" flag="0"/>
      <vel value="0.0027775830" flag="0"/>
      <psa03 value="0.0176963201" flag="0"/>
      <psa10 value="0.0024893481" flag="0"/>
      <psa30 value="0.0002641497" flag="0"/>
    </comp>
  </station>
  <station code="KMRS" name="KMRS" netid="KO" insttype="CMG-3T" lat="37.5053" lon="36.9">
    <comp name="--.HHE">
      <acc value="0.0124855757" flag="0"/>
      <vel value="0.0071082562" flag="0"/>
      <psa03 value="0.0304492826" flag="0"/>
      <psa10 value="0.0036730394" flag="0"/>
      <psa30 value="0.0002697254" flag="0"/>
    </comp>
    <comp name="--.HHZ">
      <acc value="0.0074908929" flag="0"/>
      <vel value="0.0035343805" flag="0"/>
      <psa03 value="0.0247737738" flag="0"/>
      <psa10 value="0.0021439374" flag="0"/>
      <psa30 value="0.0002175313" flag="0"/>
    </comp>
  </station>
  <station code="SVRC" name="SVRC" netid="KO" insttype="CMG-3T" lat="38.3775" lon="39.306">
    <comp name="--.HHE">
      <acc value="0.0091475000" flag="0"/>
      <vel value="0.0052363528" flag="0"/>
      <psa03 value="0.0352627956" flag="0"/>
      <psa10 value="0.0035389852" flag="0"/>
      <psa30 value="0.0002092249" flag="0"/>
    </comp>
    <comp name="--.HHZ">
      <acc value="0.0074760644" flag="0"/>
      <vel value="0.0028563258" flag="0"/>
      <psa03 value="0.0211917874" flag="0"/>
      <psa10 value="0.0022656454" flag="0"/>
      <psa30 value="0.0001341599" flag="0"/>
    </comp>
    <comp name="--.HHN">
      <acc value="0.0076042928" flag="0"/>
      <vel value="0.0034222119" flag="0"/>
      <psa03 value="0.0239473398" flag="0"/>
      <psa10 value="0.0020663547" flag="0"/>
      <psa30 value="0.0001692970" flag="0"/>
    </comp>
  </station>
  <station code="URFA" name="URFA" netid="KO" insttype="CMG-3ESP" lat="37.4409" lon="38.8213">
    <comp name="--.HHE">
      <acc value="0.0337838868" flag="0"/>
      <vel value="0.0118079458" flag="0"/>
      <psa03 value="0.0743142527" flag="0"/>
      <psa10 value="0.0075560272" flag="0"/>
      <psa30 value="0.0005528539" flag="0"/>
    </comp>
    <comp name="--.HHZ">
      <acc value="0.0160607779" flag="0"/>
      <vel value="0.0086958766" flag="0"/>
      <psa03 value="0.0451337607" flag="0"/>
      <psa10 value="0.0029576173" flag="0"/>
      <psa30 value="0.0002523623" flag="0"/>
    </comp>
    <comp name="--.HHN">
      <acc value="0.0269680637" flag="0"/>
      <vel value="0.0128252636" flag="0"/>
      <psa03 value="0.0460358543" flag="0"/>
      <psa10 value="0.0082165916" flag="0"/>
      <psa30 value="0.0006879595" flag="0"/>
    </comp>
  </station>
</stationlist>
