<?xml version="1.0" encoding="UTF-8" standalone="yes"?>
<!DOCTYPE earthquake SYSTEM "stationlist.dtd">
<stationlist created="" xmlns="ch.ethz.sed.shakemap.usgs.xml">
  <station code="AKMS" name="AKMS" netid="CQ" insttype="" lat="35.018" lon="32.335">
    <comp name="--.HHZ">
      <acc value="0.0099453739" flag="0"/>
      <vel value="0.0035168953" flag="0"/>
      <psa03 value="0.0172363942" flag="0"/>
      <psa10 value="0.0037431477" flag="0"/>
      <psa30 value="0.0003149297" flag="0"/>
    </comp>
    <comp name="--.HHE">
      <acc value="0.0138305970" flag="0"/>
      <vel value="0.0061518082" flag="0"/>
      <psa03 value="0.0225074198" flag="0"/>
      <psa10 value="0.0100875774" flag="0"/>
      <psa30 value="0.0008024496" flag="0"/>
    </comp>
    <comp name="--.HHN">
      <acc value="0.0120257041" flag="0"/>
      <vel value="0.0045706555" flag="0"/>
      <psa03 value="0.0209289925" flag="0"/>
      <psa10 value="0.0071840776" flag="0"/>
      <psa30 value="0.0004844269" flag="0"/>
    </comp>
  </station>
  <station code="ASGA" name="ASGA" netid="CQ" insttype="Trillium120P" lat="34.786" lon="33.248">
    <comp name="--.HHE">
      <acc value="0.0410412905" flag="0"/>
      <vel value="0.0175810932" flag="0"/>
      <psa03 value="0.1193098755" flag="0"/>
      <psa10 value="0.0114359169" flag="0"/>
      <psa30 value="0.0005875400" flag="0"/>
    </comp>
    <comp name="--.HHZ">
      <acc value="0.0258761264" flag="0"/>
      <vel value="0.0099247056" flag="0"/>
      <psa03 value="0.0951643622" flag="0"/>
      <psa10 value="0.0074925151" flag="0"/>
      <psa30 value="0.0005002983" flag="0"/>
    </comp>
    <comp name="--.HHN">
      <acc value="0.0369568558" flag="0"/>
      <vel value="0.0152594118" flag="0"/>
      <psa03 value="0.0892862209" flag="0"/>
      <psa10 value="0.0208272769" flag="0"/>
      <psa30 value="0.0009426257" flag="0"/>
    </comp>
  </station>
  <station code="ATHA" name="ATHA" netid="CQ" insttype="" lat="35.141" lon="33.396">
    <comp name="--.HHN">
      <acc value="0.0140048846" flag="0"/>
      <vel value="0.0151874907" flag="0"/>
      <psa03 value="0.0432049501" flag="0"/>
      <psa10 value="0.0195135827" flag="0"/>
      <psa30 value="0.0019301253" flag="0"/>
    </comp>
    <comp name="--.HHZ">
      <acc value="0.0066021519" flag="0"/>
      <vel value="0.0066755730" flag="0"/>
      <psa03 value="0.0162930503" flag="0"/>
      <psa10 value="0.0190719238" flag="0"/>
      <psa30 value="0.0006893923" flag="0"/>
    </comp>
    <comp name="--.HHE">
      <acc value="0.0110645848" flag="0"/>
      <vel value="0.0115249377" flag="0"/>
      <psa03 value="0.0348327050" flag="0"/>
      <psa10 value="0.0242670359" flag="0"/>
      <psa30 value="0.0018745213" flag="0"/>
    </comp>
  </station>
  <station code="MVOU" name="MVOU" netid="CQ" insttype="Trillium120P" lat="35.016" lon="33.632">
    <comp name="--.HHE">
      <acc value="0.0035322603" flag="0"/>
      <vel value="0.0034600224" flag="0"/>
      <psa03 value="0.0113668234" flag="0"/>
      <psa10 value="0.0042116158" flag="0"/>
      <psa30 value="0.0003183017" flag="0"/>
    </comp>
    <comp name="--.HHN">
      <acc value="0.0048898569" flag="0"/>
      <vel value="0.0029987599" flag="0"/>
      <psa03 value="0.0108161971" flag="0"/>
      <psa10 value="0.0030745729" flag="0"/>
      <psa30 value="0.0002972223" flag="0"/>
    </comp>
    <comp name="--.HHZ">
      <acc value="0.0042097558" flag="0"/>
      <vel value="0.0023575013" flag="0"/>
      <psa03 value="0.0076340409" flag="0"/>
      <psa10 value="0.0024601000" flag="0"/>
      <psa30 value="0.0001671749" flag="0"/>
    </comp>
  </station>
  <station code="NATA" name="NATA" netid="CQ" insttype="Trillium120P" lat="34.7789" lon="32.5699">
    <comp name="--.HHE">
      <acc value="0.2472663603" flag="0"/>
      <vel value="0.0876664769" flag="0"/>
      <psa03 value="0.4919512820" flag="0"/>
      <psa10 value="0.0646996665" flag="0"/>
      <psa30 value="0.0038437447" flag="0"/>
    </comp>
    <comp name="--.HHN">
      <acc value="0.1248749630" flag="0"/>
      <vel value="0.0910631299" flag="0"/>
      <psa03 value="0.2201848614" flag="0"/>
      <psa10 value="0.0796047706" flag="0"/>
      <psa30 value="0.0074096817" flag="0"/>
    </comp>
    <comp name="--.HHZ">
      <acc value="0.1735537883" flag="0"/>
      <vel value="0.0562310618" flag="0"/>
      <psa03 value="0.1597775330" flag="0"/>
      <psa10 value="0.0270038256" flag="0"/>
      <psa30 value="0.0018606045" flag="0"/>
    </comp>
  </station>
  <station code="XYLS" name="XYLS" netid="CQ" insttype="120QA" lat="35.014" lon="33.0493">
    <comp name="--.HHZ">
      <acc value="0.0232235082" flag="0"/>
      <vel value="0.0102208558" flag="0"/>
      <psa03 value="0.0303840427" flag="0"/>
      <psa10 value="0.0102570810" flag="0"/>
      <psa30 value="0.0007964926" flag="0"/>
    </comp>
  </station>
</stationlist>
