<?xml version="1.0" encoding="UTF-8" standalone="yes"?>
<!DOCTYPE earthquake SYSTEM "stationlist.dtd">
<stationlist created="" xmlns="ch.ethz.sed.shakemap.usgs.xml">
  <station code="BALB" name="BALB" netid="KO" insttype="CMG-5T" commtype="DIG" lat="39.6507" lon="27.8642">
    <comp name="--.HNZ">
      <acc value="0.0770436060" flag="0"/>
      <vel value="0.0226708700" flag="0"/>
      <psa03 value="0.0956494975" flag="0"/>
      <psa10 value="0.0055865381" flag="0"/>
      <psa30 value="0.0004371625" flag="0"/>
    </comp>
    <comp name="--.HNN">
      <acc value="0.1174197949" flag="0"/>
      <vel value="0.0354360711" flag="0"/>
      <psa03 value="0.1186702723" flag="0"/>
      <psa10 value="0.0117775833" flag="0"/>
      <psa30 value="0.0006312124" flag="0"/>
    </comp>
    <comp name="--.HNE">
      <acc value="0.1418414736" flag="0"/>
      <vel value="0.0366693044" flag="0"/>
      <psa03 value="0.1451899037" flag="0"/>
      <psa10 value="0.0101923910" flag="0"/>
      <psa30 value="0.0008348143" flag="0"/>
    </comp>
  </station>
  <station code="DKL" name="DKL" netid="KO" insttype="CMG-3ESPC" commtype="DIG" lat="39.0713" lon="26.9053">
    <comp name="--.HHZ">
      <acc value="0.0128874942" flag="0"/>
      <vel value="0.0026386322" flag="0"/>
      <psa03 value="0.0212209907" flag="0"/>
      <psa10 value="0.0017391877" flag="0"/>
      <psa30 value="0.0001283024" flag="0"/>
    </comp>
  </station>
  <station code="GOMA" name="GOMA" netid="KO" insttype="CMG-5T" commtype="DIG" lat="38.7077" lon="27.9175">
    <comp name="--.HNN">
      <acc value="0.0572480125" flag="0"/>
      <vel value="0.0207168189" flag="0"/>
      <psa03 value="0.1402347609" flag="0"/>
      <psa10 value="0.0066601481" flag="0"/>
      <psa30 value="0.0005063272" flag="0"/>
    </comp>
    <comp name="--.HNZ">
      <acc value="0.0644655790" flag="0"/>
      <vel value="0.0171806282" flag="0"/>
      <psa03 value="0.1084123335" flag="0"/>
      <psa10 value="0.0031390140" flag="0"/>
      <psa30 value="0.0004376935" flag="0"/>
    </comp>
    <comp name="--.HNE">
      <acc value="0.0729042702" flag="0"/>
      <vel value="0.0252356116" flag="0"/>
      <psa03 value="0.2303965454" flag="0"/>
      <psa10 value="0.0071421036" flag="0"/>
      <psa30 value="0.0008595957" flag="0"/>
    </comp>
  </station>
  <station code="GONE" name="GONE" netid="KO" insttype="CMG-5T" commtype="DIG" lat="40.0466" lon="27.686">
    <comp name="--.HNZ">
      <acc value="0.0158461318" flag="0"/>
      <vel value="0.0061832166" flag="0"/>
      <psa03 value="0.0552856031" flag="0"/>
      <psa10 value="0.0025593934" flag="0"/>
      <psa30 value="0.0002265749" flag="0"/>
    </comp>
    <comp name="--.HNN">
      <acc value="0.0613597302" flag="0"/>
      <vel value="0.0267905568" flag="0"/>
      <psa03 value="0.1727054007" flag="0"/>
      <psa10 value="0.0175293862" flag="0"/>
      <psa30 value="0.0012041780" flag="0"/>
    </comp>
    <comp name="--.HNE">
      <acc value="0.0265103007" flag="0"/>
      <vel value="0.0119878122" flag="0"/>
      <psa03 value="0.0907499439" flag="0"/>
      <psa10 value="0.0070198336" flag="0"/>
      <psa30 value="0.0005592263" flag="0"/>
    </comp>
  </station>
  <station code="GORD" name="GORD" netid="KO" insttype="CMG-5T" commtype="DIG" lat="38.9088" lon="28.1769">
    <comp name="--.HNE">
      <acc value="0.0909547946" flag="0"/>
      <vel value="0.0266990133" flag="0"/>
      <psa03 value="0.1592317033" flag="0"/>
      <psa10 value="0.0293480637" flag="0"/>
      <psa30 value="0.0019264497" flag="0"/>
    </comp>
    <comp name="--.HNN">
      <acc value="0.1033829101" flag="0"/>
      <vel value="0.0464227541" flag="0"/>
      <psa03 value="0.1775292833" flag="0"/>
      <psa10 value="0.0351577976" flag="0"/>
      <psa30 value="0.0018582341" flag="0"/>
    </comp>
    <comp name="--.HNZ">
      <acc value="0.0770974883" flag="0"/>
      <vel value="0.0328113380" flag="0"/>
      <psa03 value="0.1619433601" flag="0"/>
      <psa10 value="0.0122943573" flag="0"/>
      <psa30 value="0.0013625544" flag="0"/>
    </comp>
  </station>
  <station code="KCTX" name="KCTX" netid="KO" insttype="CMG-3ESP" commtype="DIG" lat="40.2626" lon="28.3353">
    <comp name="--.HHE">
      <acc value="0.0157125721" flag="0"/>
      <vel value="0.0060052107" flag="0"/>
      <psa03 value="0.0367564419" flag="0"/>
      <psa10 value="0.0056844732" flag="0"/>
      <psa30 value="0.0003947847" flag="0"/>
    </comp>
    <comp name="--.HHZ">
      <acc value="0.0134113782" flag="0"/>
      <vel value="0.0056693942" flag="0"/>
      <psa03 value="0.0269307032" flag="0"/>
      <psa10 value="0.0035609031" flag="0"/>
      <psa30 value="0.0002344550" flag="0"/>
    </comp>
    <comp name="--.HHN">
      <acc value="0.0169088092" flag="0"/>
      <vel value="0.0070848129" flag="0"/>
      <psa03 value="0.0509997330" flag="0"/>
      <psa10 value="0.0035893250" flag="0"/>
      <psa30 value="0.0002666075" flag="0"/>
    </comp>
  </station>
  <station code="KULA" name="KULA" netid="KO" insttype="CMG-3T" commtype="DIG" lat="38.5145" lon="28.6607">
    <comp name="--.HHN">
      <acc value="0.0370453698" flag="0"/>
      <vel value="0.0075305825" flag="0"/>
      <psa03 value="0.0314610211" flag="0"/>
      <psa10 value="0.0038864772" flag="0"/>
      <psa30 value="0.0002396278" flag="0"/>
    </comp>
    <comp name="--.HHZ">
      <acc value="0.0361836503" flag="0"/>
      <vel value="0.0067780242" flag="0"/>
      <psa03 value="0.0245635560" flag="0"/>
      <psa10 value="0.0035090790" flag="0"/>
      <psa30 value="0.0002785794" flag="0"/>
    </comp>
    <comp name="--.HHE">
      <acc value="0.0466556194" flag="0"/>
      <vel value="0.0129752803" flag="0"/>
      <psa03 value="0.0330230409" flag="0"/>
      <psa10 value="0.0079361433" flag="0"/>
      <psa30 value="0.0005164869" flag="0"/>
    </comp>
  </station>
  <station code="ORLT" name="ORLT" netid="KO" insttype="CMG-5T" commtype="DIG" lat="40.0452" lon="28.8914">
    <comp name="--.HNN">
      <acc value="0.0264343682" flag="0"/>
      <vel value="0.0114146001" flag="0"/>
      <psa03 value="0.1050903238" flag="0"/>
      <psa10 value="0.0092835515" flag="0"/>
      <psa30 value="0.0006168322" flag="0"/>
    </comp>
    <comp name="--.HNZ">
      <acc value="0.0126191304" flag="0"/>
      <vel value="0.0067540736" flag="0"/>
      <psa03 value="0.0385853255" flag="0"/>
      <psa10 value="0.0074932347" flag="0"/>
      <psa30 value="0.0003694550" flag="0"/>
    </comp>
    <comp name="--.HNE">
      <acc value="0.0307928391" flag="0"/>
      <vel value="0.0148574816" flag="0"/>
      <psa03 value="0.0890929066" flag="0"/>
      <psa10 value="0.0077002752" flag="0"/>
      <psa30 value="0.0004923529" flag="0"/>
    </comp>
  </station>
  <station code="SIMA" name="SIMA" netid="KO" insttype="CMG-6T" commtype="DIG" lat="39.0833" lon="28.9825">
    <comp name="--.HHN">
      <acc value="0.0289418728" flag="0"/>
      <vel value="0.0080125621" flag="0"/>
      <psa03 value="0.0443574209" flag="0"/>
      <psa10 value="0.0037726992" flag="0"/>
      <psa30 value="0.0002421097" flag="0"/>
    </comp>
    <comp name="--.HHZ">
      <acc value="0.0259366049" flag="0"/>
      <vel value="0.0043210809" flag="0"/>
      <psa03 value="0.0147990720" flag="0"/>
      <psa10 value="0.0014546878" flag="0"/>
      <psa30 value="0.0001249680" flag="0"/>
    </comp>
    <comp name="--.HHE">
      <acc value="0.0337527720" flag="0"/>
      <vel value="0.0073890994" flag="0"/>
      <psa03 value="0.0375272435" flag="0"/>
      <psa10 value="0.0033278717" flag="0"/>
      <psa30 value="0.0002312929" flag="0"/>
    </comp>
  </station>
  <station code="SMAA" name="SMAA" netid="KO" insttype="CMG-5T" commtype="DIG" lat="39.1005" lon="28.9805">
    <comp name="--.HNE">
      <acc value="0.0329281010" flag="0"/>
      <vel value="0.0137641384" flag="0"/>
      <psa03 value="0.1068688575" flag="0"/>
      <psa10 value="0.0214834432" flag="0"/>
      <psa30 value="0.0010823893" flag="0"/>
    </comp>
    <comp name="--.HNN">
      <acc value="0.0320903379" flag="0"/>
      <vel value="0.0141655730" flag="0"/>
      <psa03 value="0.0614254381" flag="0"/>
      <psa10 value="0.0127148880" flag="0"/>
      <psa30 value="0.0007649995" flag="0"/>
    </comp>
    <comp name="--.HNZ">
      <acc value="0.0211670832" flag="0"/>
      <vel value="0.0056961879" flag="0"/>
      <psa03 value="0.0290056091" flag="0"/>
      <psa10 value="0.0091983952" flag="0"/>
      <psa30 value="0.0005356391" flag="0"/>
    </comp>
  </station>
  <station code="SOMA" name="SOMA" netid="KO" insttype="CMG-5T" commtype="DIG" lat="39.1564" lon="27.5341">
    <comp name="--.HNN">
      <acc value="0.1143673360" flag="0"/>
      <vel value="0.0273906898" flag="0"/>
      <psa03 value="0.0819355365" flag="0"/>
      <psa10 value="0.0105721153" flag="0"/>
      <psa30 value="0.0007002966" flag="0"/>
    </comp>
    <comp name="--.HNZ">
      <acc value="0.0844646298" flag="0"/>
      <vel value="0.0152627719" flag="0"/>
      <psa03 value="0.0310723292" flag="0"/>
      <psa10 value="0.0055782176" flag="0"/>
      <psa30 value="0.0003629433" flag="0"/>
    </comp>
    <comp name="--.HNE">
      <acc value="0.0986454667" flag="0"/>
      <vel value="0.0220833330" flag="0"/>
      <psa03 value="0.0979357489" flag="0"/>
      <psa10 value="0.0055517181" flag="0"/>
      <psa30 value="0.0004661373" flag="0"/>
    </comp>
  </station>
  <station code="SUSR" name="SUSR" netid="KO" insttype="CMG-5T" commtype="DIG" lat="39.9627" lon="28.0835">
    <comp name="--.HNN">
      <acc value="0.0297154448" flag="0"/>
      <vel value="0.0116245167" flag="0"/>
      <psa03 value="0.0624102711" flag="0"/>
      <psa10 value="0.0040991161" flag="0"/>
      <psa30 value="0.0003196079" flag="0"/>
    </comp>
    <comp name="--.HNE">
      <acc value="0.0256559830" flag="0"/>
      <vel value="0.0086514496" flag="0"/>
      <psa03 value="0.0415275154" flag="0"/>
      <psa10 value="0.0036024921" flag="0"/>
      <psa30 value="0.0002975245" flag="0"/>
    </comp>
    <comp name="--.HNZ">
      <acc value="0.0263623690" flag="0"/>
      <vel value="0.0064214983" flag="0"/>
      <psa03 value="0.0377722892" flag="0"/>
      <psa10 value="0.0021871640" flag="0"/>
      <psa30 value="0.0003314097" flag="0"/>
    </comp>
  </station>
  <station code="TVSB" name="TVSB" netid="KO" insttype="CMG-3T" commtype="DIG" lat="39.4497" lon="29.4615">
    <comp name="--.HHZ">
      <acc value="0.0137439294" flag="0"/>
      <vel value="0.0058848323" flag="0"/>
      <psa03 value="0.0491849492" flag="0"/>
      <psa10 value="0.0018095373" flag="0"/>
      <psa30 value="0.0001694702" flag="0"/>
    </comp>
    <comp name="--.HHE">
      <acc value="0.0260480136" flag="0"/>
      <vel value="0.0116642689" flag="0"/>
      <psa03 value="0.0864322243" flag="0"/>
      <psa10 value="0.0037847609" flag="0"/>
      <psa30 value="0.0003739898" flag="0"/>
    </comp>
    <comp name="--.HHN">
      <acc value="0.0264923623" flag="0"/>
      <vel value="0.0145321409" flag="0"/>
      <psa03 value="0.1272691252" flag="0"/>
      <psa10 value="0.0050672074" flag="0"/>
      <psa30 value="0.0004954599" flag="0"/>
    </comp>
  </station>
  <station code="YAYO" name="YAYO" netid="KO" insttype="CMG-6T" commtype="DIG" lat="39.6113" lon="27.0726">
    <comp name="--.HHE">
      <acc value="0.0241666623" flag="0"/>
      <vel value="0.0096523422" flag="0"/>
      <psa03 value="0.0472241772" flag="0"/>
      <psa10 value="0.0044219166" flag="0"/>
      <psa30 value="0.0002564072" flag="0"/>
    </comp>
    <comp name="--.HHN">
      <acc value="0.0178344178" flag="0"/>
      <vel value="0.0073974288" flag="0"/>
      <psa03 value="0.0572387424" flag="0"/>
      <psa10 value="0.0030403781" flag="0"/>
      <psa30 value="0.0002221350" flag="0"/>
    </comp>
    <comp name="--.HHZ">
      <acc value="0.0151257254" flag="0"/>
      <vel value="0.0050945941" flag="0"/>
      <psa03 value="0.0345705637" flag="0"/>
      <psa10 value="0.0029655717" flag="0"/>
      <psa30 value="0.0002349927" flag="0"/>
    </comp>
  </station>
  <station code="YENI" name="YENI" netid="KO" insttype="CMG-5T" commtype="DIG" lat="39.9364" lon="27.2422">
    <comp name="--.HNE">
      <acc value="0.0845585849" flag="0"/>
      <vel value="0.0208460612" flag="0"/>
      <psa03 value="0.0715069345" flag="0"/>
      <psa10 value="0.0079162537" flag="0"/>
      <psa30 value="0.0003732928" flag="0"/>
    </comp>
    <comp name="--.HNN">
      <acc value="0.0806544015" flag="0"/>
      <vel value="0.0255476694" flag="0"/>
      <psa03 value="0.0769250478" flag="0"/>
      <psa10 value="0.0124022052" flag="0"/>
      <psa30 value="0.0009300278" flag="0"/>
    </comp>
    <comp name="--.HNZ">
      <acc value="0.0242178394" flag="0"/>
      <vel value="0.0056116597" flag="0"/>
      <psa03 value="0.0230463919" flag="0"/>
      <psa10 value="0.0018662299" flag="0"/>
      <psa30 value="0.0005115569" flag="0"/>
    </comp>
  </station>
</stationlist>
