<stationlist xmlns:esm="https://esm-db.eu/esmws/shakemap/1/" created="1784080725">
	<station code="T1811" name="T1811" netid="3Q" source="XVIII-INGV SISMIKO Emergency Seismic Network (XVIII-ISESN) (XVIII-ISESN)" insttype="" lat="39.56904" lon="16.77169" esm:processing="manual (Paolucci et al 2011)" esm:quality="good">
		<comp name="00.HNE" depth="0.0">
			<acc value="0.414024257905336" flag="0"/>
			<vel value="0.136923451068912" flag="0"/>
			<psa03 value="0.471004118378842" flag="0"/>
			<psa10 value="0.0597843116673034" flag="0"/>
			<psa30 value="0.00473202597348974" flag="0"/>
		</comp>
		<comp name="00.HNN" depth="0.0">
			<acc value="0.550704377464321" flag="0"/>
			<vel value="0.180150014589248" flag="0"/>
			<psa03 value="0.905579406859658" flag="0"/>
			<psa10 value="0.0525802494333067" flag="0"/>
			<psa30 value="0.00549014244497199" flag="0"/>
		</comp>
		<comp name="00.HNZ" depth="0.0">
			<acc value="0.25745400082392" flag="0"/>
			<vel value="0.0804995197568918" flag="0"/>
			<psa03 value="0.324911732141155" flag="0"/>
			<psa10 value="0.0247334940975786" flag="0"/>
			<psa30 value="0.00304934846270302" flag="0"/>
		</comp>
	</station>
	<station code="T1812" name="T1812" netid="3Q" source="XVIII-INGV SISMIKO Emergency Seismic Network (XVIII-ISESN) (XVIII-ISESN)" insttype="" lat="39.48464" lon="16.50149" esm:processing="manual (Paolucci et al 2011)" esm:quality="best">
		<comp name="00.HNE" depth="0.0">
			<acc value="0.785656727412049" flag="0"/>
			<vel value="0.237722036998007" flag="0"/>
			<psa03 value="1.28917498484735" flag="0"/>
			<psa10 value="0.0691120308329476" flag="0"/>
			<psa30 value="0.00544503320671305" flag="0"/>
		</comp>
		<comp name="00.HNN" depth="0.0">
			<acc value="0.647245841345145" flag="0"/>
			<vel value="0.253413776391104" flag="0"/>
			<psa03 value="0.901768737752564" flag="0"/>
			<psa10 value="0.137779252199169" flag="0"/>
			<psa30 value="0.00950686561653004" flag="0"/>
		</comp>
		<comp name="00.HNZ" depth="0.0">
			<acc value="0.277595228070978" flag="0"/>
			<vel value="0.0979927235111581" flag="0"/>
			<psa03 value="0.605671539433114" flag="0"/>
			<psa10 value="0.0443774322871171" flag="0"/>
			<psa30 value="0.0042016862577588" flag="0"/>
		</comp>
	</station>
	<station code="T1813" name="T1813" netid="3Q" source="XVIII-INGV SISMIKO Emergency Seismic Network (XVIII-ISESN) (XVIII-ISESN)" insttype="" lat="39.31469" lon="16.75119" esm:processing="manual (Paolucci et al 2011)" esm:quality="best">
		<comp name="00.HNE" depth="0.0">
			<acc value="0.127781506513576" flag="0"/>
			<vel value="0.0360953485696065" flag="0"/>
			<psa03 value="0.219532251267636" flag="0"/>
			<psa10 value="0.0220996908710611" flag="0"/>
			<psa30 value="0.00362921250085095" flag="0"/>
		</comp>
		<comp name="00.HNN" depth="0.0">
			<acc value="0.183155415472033" flag="0"/>
			<vel value="0.0280957684975839" flag="0"/>
			<psa03 value="0.170903623609772" flag="0"/>
			<psa10 value="0.0230170053886318" flag="0"/>
			<psa30 value="0.00180314986649411" flag="0"/>
		</comp>
		<comp name="00.HNZ" depth="0.0">
			<acc value="0.148487478739697" flag="0"/>
			<vel value="0.0312382974150906" flag="0"/>
			<psa03 value="0.0922776962777325" flag="0"/>
			<psa10 value="0.0216346506894264" flag="0"/>
			<psa30 value="0.00238260700268862" flag="0"/>
		</comp>
	</station>
	<station code="CSMBE" name="CSMBE" netid="7C" source="Urban Seismic Network (RUSN-CAL-INGV)" insttype="" lat="39.2895" lon="16.2642" esm:processing="manual (Paolucci et al 2011)" esm:quality="best">
		<comp name="--.HNE" depth="0.0">
			<acc value="0.392646028177843" flag="0"/>
			<vel value="0.140428904563448" flag="0"/>
			<psa03 value="0.52430464927641" flag="0"/>
			<psa10 value="0.160874092119139" flag="0"/>
			<psa30 value="0.0140256357962198" flag="0"/>
		</comp>
		<comp name="--.HNN" depth="0.0">
			<acc value="0.459281668571631" flag="0"/>
			<vel value="0.186331696332035" flag="0"/>
			<psa03 value="1.26569942970688" flag="0"/>
			<psa10 value="0.103561685453294" flag="0"/>
			<psa30 value="0.0106873813198953" flag="0"/>
		</comp>
		<comp name="--.HNZ" depth="0.0">
			<acc value="0.26274163426178" flag="0"/>
			<vel value="0.0598916516313738" flag="0"/>
			<psa03 value="0.24862099075402" flag="0"/>
			<psa10 value="0.0701323834262547" flag="0"/>
			<psa30 value="0.00780996237166746" flag="0"/>
		</comp>
	</station>
	<station code="MARCO" name="MARCO" netid="GE" source="GEOFON" insttype="" lat="40.29724" lon="15.80632" esm:processing="manual (Paolucci et al 2011)" esm:quality="good">
		<comp name="--.HLE" depth="1.0">
			<acc value="0.00994336487480546" flag="0"/>
			<vel value="0.00775224294809343" flag="0"/>
			<psa03 value="0.0229700633206345" flag="0"/>
			<psa10 value="0.0121231946646522" flag="0"/>
			<psa30 value="0.00230519749968788" flag="0"/>
		</comp>
		<comp name="--.HLN" depth="1.0">
			<acc value="0.0119220693767977" flag="0"/>
			<vel value="0.00978941469825759" flag="0"/>
			<psa03 value="0.0322738306912343" flag="0"/>
			<psa10 value="0.0148453462438435" flag="0"/>
			<psa30 value="0.00183033187550276" flag="0"/>
		</comp>
		<comp name="--.HLZ" depth="1.0">
			<acc value="0.0026204801239361" flag="0"/>
			<vel value="0.00275018306308044" flag="0"/>
			<psa03 value="0.00871268199015056" flag="0"/>
			<psa10 value="0.00370183413459312" flag="0"/>
			<psa30 value="0.000784776102150478" flag="0"/>
		</comp>
	</station>
	<station code="ACR" name="ACR" netid="IT" source="Italian Strong Motion Network (RAN)" insttype="" lat="39.4889" lon="16.3798" esm:processing="manual (Paolucci et al 2011)" esm:quality="best">
		<comp name="--.HNE" depth="0.0">
			<acc value="1.24847715913114" flag="0"/>
			<vel value="0.423673141395765" flag="0"/>
			<psa03 value="2.14374751275275" flag="0"/>
			<psa10 value="0.153798888421533" flag="0"/>
			<psa30 value="0.00944047288498557" flag="0"/>
		</comp>
		<comp name="--.HNN" depth="0.0">
			<acc value="0.982353080172991" flag="0"/>
			<vel value="0.335942963903249" flag="0"/>
			<psa03 value="1.57856057189098" flag="0"/>
			<psa10 value="0.150022583259704" flag="0"/>
			<psa30 value="0.0117866758094199" flag="0"/>
		</comp>
		<comp name="--.HNZ" depth="0.0">
			<acc value="0.547898130124515" flag="0"/>
			<vel value="0.160445337550231" flag="0"/>
			<psa03 value="0.546498369503412" flag="0"/>
			<psa10 value="0.0674958162666704" flag="0"/>
			<psa30 value="0.00542675157898547" flag="0"/>
		</comp>
	</station>
	<station code="AMN" name="AMN" netid="IT" source="Italian Strong Motion Network (RAN)" insttype="" lat="39.1367" lon="16.0796" esm:processing="manual (Paolucci et al 2011)" esm:quality="best">
		<comp name="--.HGE" depth="0.0">
			<acc value="0.658156771755338" flag="0"/>
			<vel value="0.167160604507614" flag="0"/>
			<psa03 value="0.546947274241312" flag="0"/>
			<psa10 value="0.0639653698919941" flag="0"/>
			<psa30 value="0.00842609568746547" flag="0"/>
		</comp>
		<comp name="--.HGN" depth="0.0">
			<acc value="0.600066808645107" flag="0"/>
			<vel value="0.154072745622647" flag="0"/>
			<psa03 value="0.569941047461964" flag="0"/>
			<psa10 value="0.0993948069181206" flag="0"/>
			<psa30 value="0.00996238829264342" flag="0"/>
		</comp>
		<comp name="--.HGZ" depth="0.0">
			<acc value="0.439994730135525" flag="0"/>
			<vel value="0.111484573143383" flag="0"/>
			<psa03 value="0.466464025954104" flag="0"/>
			<psa10 value="0.0380168721811983" flag="0"/>
			<psa30 value="0.00412893810522038" flag="0"/>
		</comp>
	</station>
	<station code="COR" name="COR" netid="IT" source="Italian Strong Motion Network (RAN)" insttype="" lat="39.1179" lon="16.38" esm:processing="manual (Paolucci et al 2011)" esm:quality="best">
		<comp name="--.HGE" depth="0.0">
			<acc value="0.778680370154882" flag="0"/>
			<vel value="0.146194226315744" flag="0"/>
			<psa03 value="0.569014194397046" flag="0"/>
			<psa10 value="0.0811623366065669" flag="0"/>
			<psa30 value="0.00613274751442948" flag="0"/>
		</comp>
		<comp name="--.HGN" depth="0.0">
			<acc value="0.801222701771911" flag="0"/>
			<vel value="0.200868419157279" flag="0"/>
			<psa03 value="1.0152915914196" flag="0"/>
			<psa10 value="0.0703510079090143" flag="0"/>
			<psa30 value="0.00871015617178299" flag="0"/>
		</comp>
		<comp name="--.HGZ" depth="0.0">
			<acc value="0.907172416179133" flag="0"/>
			<vel value="0.134446901601142" flag="0"/>
			<psa03 value="0.544074125573399" flag="0"/>
			<psa10 value="0.0523323767632375" flag="0"/>
			<psa30 value="0.00643113394771923" flag="0"/>
		</comp>
	</station>
	<station code="CSPC" name="CSPC" netid="IT" source="Italian Strong Motion Network (RAN)" insttype="" lat="39.3102" lon="16.2337" esm:processing="manual (Paolucci et al 2011)" esm:quality="best">
		<comp name="--.HNE" depth="0.0">
			<acc value="0.975549519302141" flag="0"/>
			<vel value="0.444392410776279" flag="0"/>
			<psa03 value="1.5978563501424" flag="0"/>
			<psa10 value="0.356035295591046" flag="0"/>
			<psa30 value="0.018076500812818" flag="0"/>
		</comp>
		<comp name="--.HNN" depth="0.0">
			<acc value="1.15376826952874" flag="0"/>
			<vel value="0.41483084627978" flag="0"/>
			<psa03 value="1.31516603996138" flag="0"/>
			<psa10 value="0.34905503318284" flag="0"/>
			<psa30 value="0.0236895176476242" flag="0"/>
		</comp>
		<comp name="--.HNZ" depth="0.0">
			<acc value="0.441584093220079" flag="0"/>
			<vel value="0.119740624214089" flag="0"/>
			<psa03 value="0.556014874924598" flag="0"/>
			<psa10 value="0.137094411831839" flag="0"/>
			<psa30 value="0.00864494185161748" flag="0"/>
		</comp>
	</station>
	<station code="CSSE" name="CSSE" netid="IT" source="Italian Strong Motion Network (RAN)" insttype="" lat="39.3023" lon="16.2494" esm:processing="manual (Paolucci et al 2011)" esm:quality="best">
		<comp name="--.HNE" depth="0.0">
			<acc value="1.47001421925538" flag="0"/>
			<vel value="0.417551712737863" flag="0"/>
			<psa03 value="1.09235502982779" flag="0"/>
			<psa10 value="0.298044363976576" flag="0"/>
			<psa30 value="0.0191276587801649" flag="0"/>
		</comp>
		<comp name="--.HNN" depth="0.0">
			<acc value="2.05716936519837" flag="0"/>
			<vel value="0.375115531991689" flag="0"/>
			<psa03 value="1.66912457131199" flag="0"/>
			<psa10 value="0.192995690017291" flag="0"/>
			<psa30 value="0.0149398130226423" flag="0"/>
		</comp>
		<comp name="--.HNZ" depth="0.0">
			<acc value="0.673851025330461" flag="0"/>
			<vel value="0.136809581747059" flag="0"/>
			<psa03 value="0.49488470034922" flag="0"/>
			<psa10 value="0.112768560363687" flag="0"/>
			<psa30 value="0.00893028242071232" flag="0"/>
		</comp>
	</station>
	<station code="CSST" name="CSST" netid="IT" source="Italian Strong Motion Network (RAN)" insttype="" lat="39.2911" lon="16.2545" esm:processing="manual (Paolucci et al 2011)" esm:quality="best">
		<comp name="--.HNE" depth="0.0">
			<acc value="0.604436010578387" flag="0"/>
			<vel value="0.175564152701299" flag="0"/>
			<psa03 value="1.04933618003886" flag="0"/>
			<psa10 value="0.202061165560482" flag="0"/>
			<psa30 value="0.0129580450735508" flag="0"/>
		</comp>
		<comp name="--.HNN" depth="0.0">
			<acc value="0.676677992349196" flag="0"/>
			<vel value="0.179769605319838" flag="0"/>
			<psa03 value="0.90157097465348" flag="0"/>
			<psa10 value="0.111950773689196" flag="0"/>
			<psa30 value="0.0130526355063771" flag="0"/>
		</comp>
		<comp name="--.HNZ" depth="0.0">
			<acc value="0.307226560488413" flag="0"/>
			<vel value="0.0623127435327458" flag="0"/>
			<psa03 value="0.196300003912085" flag="0"/>
			<psa10 value="0.106025448665437" flag="0"/>
			<psa30 value="0.00772708604821363" flag="0"/>
		</comp>
	</station>
	<station code="CTN" name="CTN" netid="IT" source="Italian Strong Motion Network (RAN)" insttype="" lat="38.9171" lon="16.5849" esm:processing="manual (Paolucci et al 2011)" esm:quality="best">
		<comp name="--.HGE" depth="0.0">
			<acc value="0.134739578372147" flag="0"/>
			<vel value="0.0492616055909719" flag="0"/>
			<psa03 value="0.24249483492603" flag="0"/>
			<psa10 value="0.0412604808043194" flag="0"/>
			<psa30 value="0.00460835528092231" flag="0"/>
		</comp>
		<comp name="--.HGN" depth="0.0">
			<acc value="0.106452063120596" flag="0"/>
			<vel value="0.0390068001251823" flag="0"/>
			<psa03 value="0.219971134508292" flag="0"/>
			<psa10 value="0.0358075745760908" flag="0"/>
			<psa30 value="0.00624436699198765" flag="0"/>
		</comp>
		<comp name="--.HGZ" depth="0.0">
			<acc value="0.0631011901137205" flag="0"/>
			<vel value="0.0270162554176654" flag="0"/>
			<psa03 value="0.103384754982606" flag="0"/>
			<psa10 value="0.0154550972618341" flag="0"/>
			<psa30 value="0.00424059508528003" flag="0"/>
		</comp>
	</station>
	<station code="CTZ" name="CTZ" netid="IT" source="Italian Strong Motion Network (RAN)" insttype="" lat="38.9407" lon="16.5851" esm:processing="manual (Paolucci et al 2011)" esm:quality="good">
		<comp name="--.HGE" depth="0.0">
			<acc value="0.256370558765513" flag="0"/>
			<vel value="0.137663671763746" flag="0"/>
			<psa03 value="0.678081877931381" flag="0"/>
			<psa10 value="0.112725680023148" flag="0"/>
			<psa30 value="0.013169316569279" flag="0"/>
		</comp>
		<comp name="--.HGN" depth="0.0">
			<acc value="0.286028314271718" flag="0"/>
			<vel value="0.136397569048715" flag="0"/>
			<psa03 value="0.523187450269607" flag="0"/>
			<psa10 value="0.107421516148353" flag="0"/>
			<psa30 value="0.006873623260476" flag="0"/>
		</comp>
		<comp name="--.HGZ" depth="0.0">
			<acc value="0.119593926096298" flag="0"/>
			<vel value="0.0899014841485782" flag="0"/>
			<psa03 value="0.248643054715503" flag="0"/>
			<psa10 value="0.0899781281093061" flag="0"/>
			<psa30 value="0.00614859981456384" flag="0"/>
		</comp>
	</station>
	<station code="FDF" name="FDF" netid="IT" source="Italian Strong Motion Network (RAN)" insttype="" lat="38.7891" lon="16.3" esm:processing="manual (Paolucci et al 2011)" esm:quality="best">
		<comp name="--.HGE" depth="0.0">
			<acc value="0.31535579171465" flag="0"/>
			<vel value="0.0881184114632817" flag="0"/>
			<psa03 value="0.428204241429582" flag="0"/>
			<psa10 value="0.0177542011286912" flag="0"/>
			<psa30 value="0.00403192376182931" flag="0"/>
		</comp>
		<comp name="--.HGN" depth="0.0">
			<acc value="0.301813531240058" flag="0"/>
			<vel value="0.128967382264835" flag="0"/>
			<psa03 value="0.774265957988203" flag="0"/>
			<psa10 value="0.0311329986583518" flag="0"/>
			<psa30 value="0.00238464755453277" flag="0"/>
		</comp>
		<comp name="--.HGZ" depth="0.0">
			<acc value="0.150593037320881" flag="0"/>
			<vel value="0.0351538289949371" flag="0"/>
			<psa03 value="0.114891121389569" flag="0"/>
			<psa10 value="0.00617795863442439" flag="0"/>
			<psa30 value="0.00147909079500586" flag="0"/>
		</comp>
	</station>
	<station code="LMZ" name="LMZ" netid="IT" source="Italian Strong Motion Network (RAN)" insttype="" lat="38.9187" lon="16.2527" esm:processing="manual (Paolucci et al 2011)" esm:quality="best">
		<comp name="--.HNE" depth="0.0">
			<acc value="0.141533222981323" flag="0"/>
			<vel value="0.0524724549825866" flag="0"/>
			<psa03 value="0.268166389707207" flag="0"/>
			<psa10 value="0.0516840413140122" flag="0"/>
			<psa30 value="0.0114293296369912" flag="0"/>
		</comp>
		<comp name="--.HNN" depth="0.0">
			<acc value="0.147910192527432" flag="0"/>
			<vel value="0.0541886353341983" flag="0"/>
			<psa03 value="0.247978594031345" flag="0"/>
			<psa10 value="0.0362675875497028" flag="0"/>
			<psa30 value="0.0127005080129827" flag="0"/>
		</comp>
		<comp name="--.HNZ" depth="0.0">
			<acc value="0.0968785244917097" flag="0"/>
			<vel value="0.0320433128771637" flag="0"/>
			<psa03 value="0.15939232979281" flag="0"/>
			<psa10 value="0.0304623886087526" flag="0"/>
			<psa30 value="0.00994259198126842" flag="0"/>
		</comp>
	</station>
	<station code="MSR" name="MSR" netid="IT" source="Italian Strong Motion Network (RAN)" insttype="" lat="39.0768" lon="16.7897" esm:processing="manual (Paolucci et al 2011)" esm:quality="best">
		<comp name="--.HGE" depth="0.0">
			<acc value="0.192040146062406" flag="0"/>
			<vel value="0.076607178785402" flag="0"/>
			<psa03 value="0.562376546351131" flag="0"/>
			<psa10 value="0.0371035741797126" flag="0"/>
			<psa30 value="0.00465651013760615" flag="0"/>
		</comp>
		<comp name="--.HGN" depth="0.0">
			<acc value="0.227809411740822" flag="0"/>
			<vel value="0.0698469256237693" flag="0"/>
			<psa03 value="0.373406111322149" flag="0"/>
			<psa10 value="0.0430173371874541" flag="0"/>
			<psa30 value="0.00369366635393619" flag="0"/>
		</comp>
		<comp name="--.HGZ" depth="0.0">
			<acc value="0.159861158840812" flag="0"/>
			<vel value="0.0404108566670147" flag="0"/>
			<psa03 value="0.19532675193865" flag="0"/>
			<psa10 value="0.0200016725126363" flag="0"/>
			<psa30 value="0.00453111016380879" flag="0"/>
		</comp>
	</station>
	<station code="NCH" name="NCH" netid="IT" source="Italian Strong Motion Network (RAN)" insttype="" lat="38.9621" lon="16.3151" esm:processing="manual (Paolucci et al 2011)" esm:quality="best">
		<comp name="--.HGE" depth="0.0">
			<acc value="0.999796096832888" flag="0"/>
			<vel value="0.238752687554849" flag="0"/>
			<psa03 value="0.836561334750093" flag="0"/>
			<psa10 value="0.0666816823342048" flag="0"/>
			<psa30 value="0.0154925629729479" flag="0"/>
		</comp>
		<comp name="--.HGN" depth="0.0">
			<acc value="1.02977746759781" flag="0"/>
			<vel value="0.224185247653556" flag="0"/>
			<psa03 value="0.771407268614461" flag="0"/>
			<psa10 value="0.0807343507544447" flag="0"/>
			<psa30 value="0.00876016281779579" flag="0"/>
		</comp>
		<comp name="--.HGZ" depth="0.0">
			<acc value="0.446802876327802" flag="0"/>
			<vel value="0.0828043098008741" flag="0"/>
			<psa03 value="0.658826394014609" flag="0"/>
			<psa10 value="0.0338342013497894" flag="0"/>
			<psa30 value="0.00554044536063332" flag="0"/>
		</comp>
	</station>
	<station code="PLT" name="PLT" netid="IT" source="Italian Strong Motion Network (RAN)" insttype="" lat="39.0022" lon="16.3192" esm:processing="manual (Paolucci et al 2011)" esm:quality="best">
		<comp name="--.HGE" depth="0.0">
			<acc value="0.303008968115833" flag="0"/>
			<vel value="0.133730494527297" flag="0"/>
			<psa03 value="0.7812445036132" flag="0"/>
			<psa10 value="0.0589141227715633" flag="0"/>
			<psa30 value="0.00765708974462818" flag="0"/>
		</comp>
		<comp name="--.HGN" depth="0.0">
			<acc value="0.327720423383788" flag="0"/>
			<vel value="0.12515685770143" flag="0"/>
			<psa03 value="1.06892072741793" flag="0"/>
			<psa10 value="0.0278904251037966" flag="0"/>
			<psa30 value="0.00671182962575231" flag="0"/>
		</comp>
		<comp name="--.HGZ" depth="0.0">
			<acc value="0.229921511449455" flag="0"/>
			<vel value="0.0628131774033952" flag="0"/>
			<psa03 value="0.319308465118758" flag="0"/>
			<psa10 value="0.0354707310118553" flag="0"/>
			<psa30 value="0.00368969025720461" flag="0"/>
		</comp>
	</station>
	<station code="PNI" name="PNI" netid="IT" source="Italian Strong Motion Network (RAN)" insttype="" lat="39.158" lon="16.4126" esm:processing="manual (Paolucci et al 2011)" esm:quality="best">
		<comp name="--.HGE" depth="0.0">
			<acc value="1.02560760345778" flag="0"/>
			<vel value="0.307774013926651" flag="0"/>
			<psa03 value="1.43031175113517" flag="0"/>
			<psa10 value="0.0991539959654206" flag="0"/>
			<psa30 value="0.0107742445741778" flag="0"/>
		</comp>
		<comp name="--.HGN" depth="0.0">
			<acc value="1.57066076200118" flag="0"/>
			<vel value="0.39798416590476" flag="0"/>
			<psa03 value="1.66510547173154" flag="0"/>
			<psa10 value="0.157656964000183" flag="0"/>
			<psa30 value="0.0136671420477566" flag="0"/>
		</comp>
		<comp name="--.HGZ" depth="0.0">
			<acc value="0.874940186836571" flag="0"/>
			<vel value="0.24163886493894" flag="0"/>
			<psa03 value="1.61603122080393" flag="0"/>
			<psa10 value="0.0478729413473883" flag="0"/>
			<psa30 value="0.00715661159038353" flag="0"/>
		</comp>
	</station>
