<?xml version="1.0" encoding="UTF-8" standalone="yes"?>
<!DOCTYPE earthquake SYSTEM "stationlist.dtd">
<stationlist created="" xmlns="ch.ethz.sed.shakemap.usgs.xml">
  <station code="CSMBE" name="CSMBE" netid="7C" insttype="" lat="39.2895" lon="16.2642">
    <comp name="--.HNE">
      <acc value="0.3975383316" flag="0"/>
      <vel value="0.1393237768" flag="0"/>
      <psa03 value="0.5271354890" flag="0"/>
      <psa10 value="0.1608859711" flag="0"/>
      <psa30 value="0.0136417421" flag="0"/>
    </comp>
    <comp name="--.HNN">
      <acc value="0.4625331651" flag="0"/>
      <vel value="0.1834124719" flag="0"/>
      <psa03 value="1.2619103685" flag="0"/>
      <psa10 value="0.1038330692" flag="0"/>
      <psa30 value="0.0108306419" flag="0"/>
    </comp>
    <comp name="--.HNZ">
      <acc value="0.2919807822" flag="0"/>
      <vel value="0.0609917245" flag="0"/>
      <psa03 value="0.2471178932" flag="0"/>
      <psa10 value="0.0702141145" flag="0"/>
      <psa30 value="0.0068424736" flag="0"/>
    </comp>
  </station>
  <station code="CELI" name="CELI" netid="IV" insttype="" lat="39.4027" lon="16.5088">
    <comp name="--.HHE">
      <acc value="0.2409215775" flag="0"/>
      <vel value="0.0721913317" flag="0"/>
      <psa03 value="0.3983547722" flag="0"/>
      <psa10 value="0.0475824483" flag="0"/>
      <psa30 value="0.0046784993" flag="0"/>
    </comp>
    <comp name="--.HHZ">
      <acc value="0.1313431086" flag="0"/>
      <vel value="0.0552967470" flag="0"/>
      <psa03 value="0.3648973588" flag="0"/>
      <psa10 value="0.0254304500" flag="0"/>
      <psa30 value="0.0019704533" flag="0"/>
    </comp>
    <comp name="--.HHN">
      <acc value="0.3866645578" flag="0"/>
      <vel value="0.1779172180" flag="0"/>
      <psa03 value="1.0683284295" flag="0"/>
      <psa10 value="0.0901753143" flag="0"/>
      <psa30 value="0.0089363654" flag="0"/>
    </comp>
  </station>
  <station code="CET2" name="CET2" netid="IV" insttype="" lat="39.5288" lon="15.9546">
    <comp name="--.HHE">
      <acc value="0.3298529184" flag="0"/>
      <vel value="0.0880960946" flag="0"/>
      <psa03 value="0.2398710997" flag="0"/>
      <psa10 value="0.0921304232" flag="0"/>
      <psa30 value="0.0035928552" flag="0"/>
    </comp>
    <comp name="--.HHZ">
      <acc value="0.2177066493" flag="0"/>
      <vel value="0.0646108197" flag="0"/>
      <psa03 value="0.2379842057" flag="0"/>
      <psa10 value="0.0596679417" flag="0"/>
      <psa30 value="0.0033070682" flag="0"/>
    </comp>
  </station>
  <station code="GIZZ" name="GIZZ" netid="IV" insttype="" lat="38.9798" lon="16.2078">
    <comp name="--.HHE">
      <acc value="0.5107751741" flag="0"/>
      <vel value="0.1131399857" flag="0"/>
      <psa03 value="0.6722603620" flag="0"/>
      <psa10 value="0.0325586888" flag="0"/>
      <psa30 value="0.0042116200" flag="0"/>
    </comp>
    <comp name="--.HHN">
      <acc value="0.6594375384" flag="0"/>
      <vel value="0.1450857015" flag="0"/>
      <psa03 value="0.5779535714" flag="0"/>
      <psa10 value="0.0200737138" flag="0"/>
      <psa30 value="0.0038971573" flag="0"/>
    </comp>
    <comp name="--.HHZ">
      <acc value="0.5571438403" flag="0"/>
      <vel value="0.0682540782" flag="0"/>
      <psa03 value="0.2398565248" flag="0"/>
      <psa10 value="0.0127735539" flag="0"/>
      <psa30 value="0.0024342345" flag="0"/>
    </comp>
  </station>
  <station code="GMB1" name="GMB1" netid="IV" insttype="" lat="38.1723" lon="15.8179">
    <comp name="--.HHE">
      <acc value="0.0118517144" flag="0"/>
      <vel value="0.0045401265" flag="0"/>
      <psa03 value="0.0147275356" flag="0"/>
      <psa10 value="0.0042646211" flag="0"/>
      <psa30 value="0.0011476113" flag="0"/>
    </comp>
    <comp name="--.HHN">
      <acc value="0.0136339076" flag="0"/>
      <vel value="0.0056807241" flag="0"/>
      <psa03 value="0.0181208660" flag="0"/>
      <psa10 value="0.0061170599" flag="0"/>
      <psa30 value="0.0006951743" flag="0"/>
    </comp>
    <comp name="--.HHZ">
      <acc value="0.0077331782" flag="0"/>
      <vel value="0.0023070198" flag="0"/>
      <psa03 value="0.0076868219" flag="0"/>
      <psa10 value="0.0031567117" flag="0"/>
      <psa30 value="0.0006637299" flag="0"/>
    </comp>
  </station>
  <station code="IST3" name="IST3" netid="IV" insttype="" lat="38.7992" lon="15.2304">
    <comp name="--.HNE">
      <acc value="0.0548674124" flag="0"/>
      <vel value="0.0136053458" flag="0"/>
      <psa03 value="0.0439373351" flag="0"/>
      <psa10 value="0.0050909217" flag="0"/>
      <psa30 value="0.0006498418" flag="0"/>
    </comp>
    <comp name="--.HNZ">
      <acc value="0.0356009032" flag="0"/>
      <vel value="0.0083662155" flag="0"/>
      <psa03 value="0.0332972907" flag="0"/>
      <psa10 value="0.0043645647" flag="0"/>
      <psa30 value="0.0004433555" flag="0"/>
    </comp>
    <comp name="--.HNN">
      <acc value="0.0534548617" flag="0"/>
      <vel value="0.0145789513" flag="0"/>
      <psa03 value="0.0674275705" flag="0"/>
      <psa10 value="0.0054181990" flag="0"/>
      <psa30 value="0.0007500544" flag="0"/>
    </comp>
  </station>
  <station code="MGR" name="MGR" netid="IV" insttype="" lat="40.1376" lon="15.5535">
    <comp name="--.HHN">
      <acc value="0.0096593729" flag="0"/>
      <vel value="0.0039018718" flag="0"/>
      <psa03 value="0.0272459962" flag="0"/>
      <psa10 value="0.0034340772" flag="0"/>
      <psa30 value="0.0001520388" flag="0"/>
    </comp>
    <comp name="--.HHZ">
      <acc value="0.0045796562" flag="0"/>
      <vel value="0.0020345437" flag="0"/>
      <psa03 value="0.0114488812" flag="0"/>
      <psa10 value="0.0038704442" flag="0"/>
      <psa30 value="0.0002213429" flag="0"/>
    </comp>
    <comp name="--.HHE">
      <acc value="0.0102683414" flag="0"/>
      <vel value="0.0042914969" flag="0"/>
      <psa03 value="0.0312268712" flag="0"/>
      <psa10 value="0.0035718404" flag="0"/>
      <psa30 value="0.0002400836" flag="0"/>
    </comp>
  </station>
  <station code="MMN" name="MMN" netid="IV" insttype="" lat="39.891" lon="15.9904">
    <comp name="--.HHE">
      <acc value="0.1041222381" flag="0"/>
      <vel value="0.0319749081" flag="0"/>
      <psa03 value="0.1342477121" flag="0"/>
      <psa10 value="0.0154437750" flag="0"/>
      <psa30 value="0.0013916443" flag="0"/>
    </comp>
    <comp name="--.HHN">
      <acc value="0.1008864649" flag="0"/>
      <vel value="0.0493780827" flag="0"/>
      <psa03 value="0.2499129143" flag="0"/>
      <psa10 value="0.0260586768" flag="0"/>
      <psa30 value="0.0016997089" flag="0"/>
    </comp>
    <comp name="--.HHZ">
      <acc value="0.0396014983" flag="0"/>
      <vel value="0.0158859763" flag="0"/>
      <psa03 value="0.0860448501" flag="0"/>
      <psa10 value="0.0141491026" flag="0"/>
      <psa30 value="0.0013247053" flag="0"/>
    </comp>
  </station>
  <station code="ORI" name="ORI" netid="IV" insttype="" lat="40.051" lon="16.4504">
    <comp name="--.HHN">
      <acc value="0.0572536021" flag="0"/>
      <vel value="0.0315689145" flag="0"/>
      <psa03 value="0.1488385705" flag="0"/>
      <psa10 value="0.0347979838" flag="0"/>
      <psa30 value="0.0024745826" flag="0"/>
    </comp>
    <comp name="--.HHE">
      <acc value="0.0449514059" flag="0"/>
      <vel value="0.0271608957" flag="0"/>
      <psa03 value="0.1243675406" flag="0"/>
      <psa10 value="0.0308942246" flag="0"/>
      <psa30 value="0.0019618802" flag="0"/>
    </comp>
    <comp name="--.HHZ">
      <acc value="0.0156357817" flag="0"/>
      <vel value="0.0118474560" flag="0"/>
      <psa03 value="0.0539047654" flag="0"/>
      <psa10 value="0.0205632658" flag="0"/>
      <psa30 value="0.0014196713" flag="0"/>
    </comp>
  </station>
  <station code="PIPA" name="PIPA" netid="IV" insttype="" lat="39.4851" lon="16.8158">
    <comp name="--.HHE">
      <acc value="0.3841693526" flag="0"/>
      <vel value="0.1249130170" flag="0"/>
      <psa03 value="0.4923938690" flag="0"/>
      <psa10 value="0.0329815969" flag="0"/>
      <psa30 value="0.0029487063" flag="0"/>
    </comp>
    <comp name="--.HHZ">
      <acc value="0.1975431405" flag="0"/>
      <vel value="0.0559510685" flag="0"/>
      <psa03 value="0.2914176478" flag="0"/>
      <psa10 value="0.0179448309" flag="0"/>
      <psa30 value="0.0022323615" flag="0"/>
    </comp>
    <comp name="--.HHN">
      <acc value="0.2609288788" flag="0"/>
      <vel value="0.0866195895" flag="0"/>
      <psa03 value="0.3378009079" flag="0"/>
      <psa10 value="0.0358945377" flag="0"/>
      <psa30 value="0.0028057387" flag="0"/>
    </comp>
  </station>
  <station code="PLAC" name="PLAC" netid="IV" insttype="" lat="38.4494" lon="16.4383">
    <comp name="--.HHE">
      <acc value="0.0169286896" flag="0"/>
      <vel value="0.0092974606" flag="0"/>
      <psa03 value="0.0421967238" flag="0"/>
      <psa10 value="0.0075336606" flag="0"/>
      <psa30 value="0.0014991995" flag="0"/>
    </comp>
    <comp name="--.HHN">
      <acc value="0.0117685261" flag="0"/>
      <vel value="0.0084815806" flag="0"/>
      <psa03 value="0.0263923511" flag="0"/>
      <psa10 value="0.0095915751" flag="0"/>
      <psa30 value="0.0007531044" flag="0"/>
    </comp>
    <comp name="--.HHZ">
      <acc value="0.0069761961" flag="0"/>
      <vel value="0.0050544262" flag="0"/>
      <psa03 value="0.0140115713" flag="0"/>
      <psa10 value="0.0055712671" flag="0"/>
      <psa30 value="0.0008650023" flag="0"/>
    </comp>
  </station>
  <station code="SALB" name="SALB" netid="IV" insttype="" lat="39.8772" lon="16.3459">
    <comp name="--.HHE">
      <acc value="0.0586455714" flag="0"/>
      <vel value="0.0181315622" flag="0"/>
      <psa03 value="0.1031679791" flag="0"/>
      <psa10 value="0.0176366051" flag="0"/>
      <psa30 value="0.0012801201" flag="0"/>
    </comp>
    <comp name="--.HHN">
      <acc value="0.0322052689" flag="0"/>
      <vel value="0.0132133609" flag="0"/>
      <psa03 value="0.0644926643" flag="0"/>
      <psa10 value="0.0117879329" flag="0"/>
      <psa30 value="0.0014563441" flag="0"/>
    </comp>
    <comp name="--.HHZ">
      <acc value="0.0258790095" flag="0"/>
      <vel value="0.0076681932" flag="0"/>
      <psa03 value="0.0323799875" flag="0"/>
      <psa10 value="0.0067606973" flag="0"/>
      <psa30 value="0.0004594314" flag="0"/>
    </comp>
  </station>
  <station code="SELL" name="SELL" netid="IV" insttype="" lat="38.983" lon="16.6279">
    <comp name="--.HHE">
      <acc value="0.0468071131" flag="0"/>
      <vel value="0.0360017415" flag="0"/>
      <psa03 value="0.1345756208" flag="0"/>
      <psa10 value="0.0248991518" flag="0"/>
      <psa30 value="0.0030406384" flag="0"/>
    </comp>
    <comp name="--.HHN">
      <acc value="0.0544866649" flag="0"/>
      <vel value="0.0269027694" flag="0"/>
      <psa03 value="0.1281842479" flag="0"/>
      <psa10 value="0.0121074211" flag="0"/>
      <psa30 value="0.0015849769" flag="0"/>
    </comp>
    <comp name="--.HHZ">
      <acc value="0.0438584055" flag="0"/>
      <vel value="0.0229401138" flag="0"/>
      <psa03 value="0.0785077485" flag="0"/>
      <psa10 value="0.0172488374" flag="0"/>
      <psa30 value="0.0015376186" flag="0"/>
    </comp>
  </station>
  <station code="SERS" name="SERS" netid="IV" insttype="" lat="39.0359" lon="16.6886">
    <comp name="--.HHE">
      <acc value="0.1113715822" flag="0"/>
      <vel value="0.0676349933" flag="0"/>
      <psa03 value="0.3252318089" flag="0"/>
      <psa10 value="0.0308636225" flag="0"/>
      <psa30 value="0.0044387745" flag="0"/>
    </comp>
    <comp name="--.HHN">
      <acc value="0.1260861952" flag="0"/>
      <vel value="0.0868267591" flag="0"/>
      <psa03 value="0.2439173184" flag="0"/>
      <psa10 value="0.0665923043" flag="0"/>
      <psa30 value="0.0044971792" flag="0"/>
    </comp>
    <comp name="--.HHZ">
      <acc value="0.0639560348" flag="0"/>
      <vel value="0.0285840706" flag="0"/>
      <psa03 value="0.1322836298" flag="0"/>
      <psa10 value="0.0237872281" flag="0"/>
      <psa30 value="0.0049238749" flag="0"/>
    </comp>
  </station>
  <station code="SIRI" name="SIRI" netid="IV" insttype="" lat="40.1821" lon="15.8675">
    <comp name="--.HHE">
      <acc value="0.0230136199" flag="0"/>
      <vel value="0.0118842488" flag="0"/>
      <psa03 value="0.0689635224" flag="0"/>
      <psa10 value="0.0132633276" flag="0"/>
      <psa30 value="0.0018084431" flag="0"/>
    </comp>
    <comp name="--.HHZ">
      <acc value="0.0093520883" flag="0"/>
      <vel value="0.0049447862" flag="0"/>
      <psa03 value="0.0260614614" flag="0"/>
      <psa10 value="0.0065291350" flag="0"/>
      <psa30 value="0.0006183222" flag="0"/>
    </comp>
    <comp name="--.HHN">
      <acc value="0.0241294503" flag="0"/>
      <vel value="0.0177834271" flag="0"/>
      <psa03 value="0.0649802887" flag="0"/>
      <psa10 value="0.0181952183" flag="0"/>
      <psa30 value="0.0019141336" flag="0"/>
    </comp>
  </station>
  <station code="SPS2" name="SPS2" netid="IV" insttype="" lat="39.291" lon="16.3388">
    <comp name="--.HHE">
      <acc value="0.2979327206" flag="0"/>
      <vel value="0.0969471126" flag="0"/>
      <psa03 value="0.4064586391" flag="0"/>
      <psa10 value="0.0548172350" flag="0"/>
      <psa30 value="0.0041754967" flag="0"/>
    </comp>
    <comp name="--.HHN">
      <acc value="0.5537985399" flag="0"/>
      <vel value="0.2075917008" flag="0"/>
      <psa03 value="1.2609275100" flag="0"/>
      <psa10 value="0.1015822066" flag="0"/>
      <psa30 value="0.0080480019" flag="0"/>
    </comp>
    <comp name="--.HHZ">
      <acc value="0.3213565716" flag="0"/>
      <vel value="0.0682808207" flag="0"/>
      <psa03 value="0.4888038835" flag="0"/>
      <psa10 value="0.0208960462" flag="0"/>
      <psa30 value="0.0031147640" flag="0"/>
    </comp>
  </station>
  <station code="TDS" name="TDS" netid="IV" insttype="" lat="39.6601" lon="16.3376">
    <comp name="--.HHE">
      <acc value="0.1300187257" flag="0"/>
      <vel value="0.0347685568" flag="0"/>
      <psa03 value="0.0905865044" flag="0"/>
      <psa10 value="0.0139367853" flag="0"/>
      <psa30 value="0.0013899342" flag="0"/>
    </comp>
    <comp name="--.HHN">
      <acc value="0.0928305686" flag="0"/>
      <vel value="0.0276347322" flag="0"/>
      <psa03 value="0.1177676987" flag="0"/>
      <psa10 value="0.0283609604" flag="0"/>
      <psa30 value="0.0025737630" flag="0"/>
    </comp>
    <comp name="--.HHZ">
      <acc value="0.0376604292" flag="0"/>
      <vel value="0.0140624749" flag="0"/>
      <psa03 value="0.0683256784" flag="0"/>
      <psa10 value="0.0110602167" flag="0"/>
      <psa30 value="0.0014294977" flag="0"/>
    </comp>
  </station>
  <station code="CHCE" name="CHCE" netid="IY" insttype="" lat="38.684" lon="16.4142">
    <comp name="00.HHE">
      <acc value="0.0521900091" flag="0"/>
      <vel value="0.0258269756" flag="0"/>
      <psa03 value="0.1987131574" flag="0"/>
      <psa10 value="0.0108469918" flag="0"/>
      <psa30 value="0.0013984638" flag="0"/>
    </comp>
    <comp name="00.HHN">
      <acc value="0.0528798171" flag="0"/>
      <vel value="0.0258777816" flag="0"/>
      <psa03 value="0.1421930932" flag="0"/>
      <psa10 value="0.0082802857" flag="0"/>
      <psa30 value="0.0009437938" flag="0"/>
    </comp>
    <comp name="00.HHZ">
      <acc value="0.0419231824" flag="0"/>
      <vel value="0.0143979363" flag="0"/>
      <psa03 value="0.0957398134" flag="0"/>
      <psa10 value="0.0057189581" flag="0"/>
      <psa30 value="0.0005667029" flag="0"/>
    </comp>
  </station>
  <station code="OPPI" name="OPPI" netid="IY" insttype="" lat="38.2673" lon="16.0099">
    <comp name="--.HHE">
      <acc value="0.0007305841" flag="0"/>
      <vel value="0.0007142119" flag="0"/>
      <psa03 value="0.0023046523" flag="0"/>
      <psa10 value="0.0007151372" flag="0"/>
      <psa30 value="0.0002922295" flag="0"/>
    </comp>
    <comp name="--.HHN">
      <acc value="0.0008070249" flag="0"/>
      <vel value="0.0006765072" flag="0"/>
      <psa03 value="0.0043109377" flag="0"/>
      <psa10 value="0.0007092818" flag="0"/>
      <psa30 value="0.0002059180" flag="0"/>
    </comp>
    <comp name="--.HHZ">
      <acc value="0.0006918053" flag="0"/>
      <vel value="0.0007451052" flag="0"/>
      <psa03 value="0.0012837896" flag="0"/>
      <psa10 value="0.0004609729" flag="0"/>
      <psa30 value="0.0002838712" flag="0"/>
    </comp>
  </station>
  <station code="SPDC" name="SPDC" netid="IY" insttype="" lat="38.5264" lon="16.1322">
    <comp name="--.HHE">
      <acc value="0.0527816071" flag="0"/>
      <vel value="0.0248108475" flag="0"/>
      <psa03 value="0.1500585316" flag="0"/>
      <psa10 value="0.0230129535" flag="0"/>
      <psa30 value="0.0034882089" flag="0"/>
    </comp>
    <comp name="--.HHN">
      <acc value="0.0515759258" flag="0"/>
      <vel value="0.0243691921" flag="0"/>
      <psa03 value="0.2236128152" flag="0"/>
      <psa10 value="0.0179871851" flag="0"/>
      <psa30 value="0.0019447775" flag="0"/>
    </comp>
    <comp name="--.HHZ">
      <acc value="0.0420530100" flag="0"/>
      <vel value="0.0213986007" flag="0"/>
      <psa03 value="0.1148546713" flag="0"/>
      <psa10 value="0.0109863720" flag="0"/>
      <psa30 value="0.0008509691" flag="0"/>
    </comp>
  </station>
  <station code="CUC" name="CUC" netid="MN" insttype="" lat="39.9938" lon="15.8155">
    <comp name="--.HHE">
      <acc value="0.0276023997" flag="0"/>
      <vel value="0.0145862939" flag="0"/>
      <psa03 value="0.0603175150" flag="0"/>
      <psa10 value="0.0186123656" flag="0"/>
      <psa30 value="0.0010661278" flag="0"/>
    </comp>
    <comp name="--.HHN">
      <acc value="0.0204207068" flag="0"/>
      <vel value="0.0088175296" flag="0"/>
      <psa03 value="0.0418914322" flag="0"/>
      <psa10 value="0.0099334848" flag="0"/>
      <psa30 value="0.0007377324" flag="0"/>
    </comp>
    <comp name="--.HHZ">
      <acc value="0.0163371674" flag="0"/>
      <vel value="0.0073677390" flag="0"/>
      <psa03 value="0.0434587520" flag="0"/>
      <psa10 value="0.0073168090" flag="0"/>
      <psa30 value="0.0006265984" flag="0"/>
    </comp>
  </station>
  <station code="BIDON" name="BIDON" netid="XE" insttype="" lat="39.9457" lon="16.4559">
    <comp name="--.HHE">
      <acc value="0.0586619164" flag="0"/>
      <vel value="0.0275271331" flag="0"/>
      <psa03 value="0.1312755634" flag="0"/>
      <psa10 value="0.0262654751" flag="0"/>
      <psa30 value="0.0024798076" flag="0"/>
    </comp>
    <comp name="--.HHN">
      <acc value="0.0352151028" flag="0"/>
      <vel value="0.0186576315" flag="0"/>
      <psa03 value="0.0761076782" flag="0"/>
      <psa10 value="0.0238319157" flag="0"/>
      <psa30 value="0.0019417814" flag="0"/>
    </comp>
    <comp name="--.HHZ">
      <acc value="0.0190446332" flag="0"/>
      <vel value="0.0106167776" flag="0"/>
      <psa03 value="0.0574479508" flag="0"/>
      <psa10 value="0.0156835939" flag="0"/>
      <psa30 value="0.0010284449" flag="0"/>
    </comp>
  </station>
  <station code="CNESE" name="CNESE" netid="XE" insttype="" lat="39.8941" lon="16.0843">
    <comp name="--.HHZ">
      <acc value="0.0200917375" flag="0"/>
      <vel value="0.0091664984" flag="0"/>
      <psa03 value="0.0355787731" flag="0"/>
      <psa10 value="0.0150326917" flag="0"/>
      <psa30 value="0.0013014013" flag="0"/>
    </comp>
    <comp name="--.HHN">
      <acc value="0.0176772783" flag="0"/>
      <vel value="0.0084119198" flag="0"/>
      <psa03 value="0.0488639216" flag="0"/>
      <psa10 value="0.0121989880" flag="0"/>
      <psa30 value="0.0011841542" flag="0"/>
    </comp>
    <comp name="--.HHE">
      <acc value="0.0345725440" flag="0"/>
      <vel value="0.0128255097" flag="0"/>
      <psa03 value="0.0571446162" flag="0"/>
      <psa10 value="0.0196843450" flag="0"/>
      <psa30 value="0.0013337209" flag="0"/>
    </comp>
