<?xml version="1.0" encoding="UTF-8" standalone="yes"?>
<!DOCTYPE earthquake SYSTEM "stationlist.dtd">
<stationlist created="" xmlns="ch.ethz.sed.shakemap.usgs.xml">
  <station code="AKDG" name="AKDG" netid="KO" insttype="CMG-6T" commtype="DIG" lat="38.3618" lon="37.9703">
    <comp name="--.HHN">
      <acc value="0.2116611290" flag="0"/>
      <vel value="0.1070552913" flag="0"/>
      <psa03 value="0.6233909012" flag="0"/>
      <psa10 value="0.0618575481" flag="0"/>
      <psa30 value="0.0049473759" flag="0"/>
    </comp>
    <comp name="--.HHZ">
      <acc value="0.0822921958" flag="0"/>
      <vel value="0.0532649059" flag="0"/>
      <psa03 value="0.1999513768" flag="0"/>
      <psa10 value="0.0543340624" flag="0"/>
      <psa30 value="0.0028656252" flag="0"/>
    </comp>
    <comp name="--.HHE">
      <acc value="0.1321629357" flag="0"/>
      <vel value="0.0572709073" flag="0"/>
      <psa03 value="0.3849691036" flag="0"/>
      <psa10 value="0.0830366407" flag="0"/>
      <psa30 value="0.0057912462" flag="0"/>
    </comp>
  </station>
  <station code="ARGN" name="ARGN" netid="KO" insttype="CMG-6T" commtype="DIG" lat="38.7763" lon="38.2639">
    <comp name="--.HHE">
      <acc value="0.1101512420" flag="0"/>
      <vel value="0.0362053376" flag="0"/>
      <psa03 value="0.1595256229" flag="0"/>
      <psa10 value="0.0215634102" flag="0"/>
      <psa30 value="0.0009693052" flag="0"/>
    </comp>
    <comp name="--.HHZ">
      <acc value="0.0505125268" flag="0"/>
      <vel value="0.0143170403" flag="0"/>
      <psa03 value="0.0814851425" flag="0"/>
      <psa10 value="0.0232805864" flag="0"/>
      <psa30 value="0.0007654733" flag="0"/>
    </comp>
    <comp name="--.HHN">
      <acc value="0.1660530083" flag="0"/>
      <vel value="0.0427337908" flag="0"/>
      <psa03 value="0.0975333943" flag="0"/>
      <psa10 value="0.0247576906" flag="0"/>
      <psa30 value="0.0010014307" flag="0"/>
    </comp>
  </station>
  <station code="DYBB" name="DYBB" netid="KO" insttype="CMG-3T" commtype="DIG" lat="37.9532" lon="40.1393">
    <comp name="--.HHE">
      <acc value="0.0177134271" flag="0"/>
      <vel value="0.0127155135" flag="0"/>
      <psa03 value="0.0303955282" flag="0"/>
      <psa10 value="0.0202909686" flag="0"/>
      <psa30 value="0.0025490908" flag="0"/>
    </comp>
    <comp name="--.HHZ">
      <acc value="0.0185625094" flag="0"/>
      <vel value="0.0063262755" flag="0"/>
      <psa03 value="0.0236966317" flag="0"/>
      <psa10 value="0.0106835027" flag="0"/>
      <psa30 value="0.0019868357" flag="0"/>
    </comp>
    <comp name="--.HHN">
      <acc value="0.0164451892" flag="0"/>
      <vel value="0.0117401174" flag="0"/>
      <psa03 value="0.0265682763" flag="0"/>
      <psa10 value="0.0157563874" flag="0"/>
      <psa30 value="0.0036850042" flag="0"/>
    </comp>
  </station>
  <station code="KBAN" name="KBAN" netid="KO" insttype="CMG-6T" commtype="DIG" lat="38.797" lon="38.7278">
    <comp name="--.HHE">
      <acc value="0.1704476024" flag="0"/>
      <vel value="0.0305556133" flag="0"/>
      <psa03 value="0.1273608696" flag="0"/>
      <psa10 value="0.0261651329" flag="0"/>
      <psa30 value="0.0017852751" flag="0"/>
    </comp>
    <comp name="--.HHN">
      <acc value="0.1771019451" flag="0"/>
      <vel value="0.0173012968" flag="0"/>
      <psa03 value="0.0486907433" flag="0"/>
      <psa10 value="0.0135812402" flag="0"/>
      <psa30 value="0.0014591361" flag="0"/>
    </comp>
    <comp name="--.HHZ">
      <acc value="0.0908842134" flag="0"/>
      <vel value="0.0146702723" flag="0"/>
      <psa03 value="0.0509948701" flag="0"/>
      <psa10 value="0.0130101226" flag="0"/>
      <psa30 value="0.0016680270" flag="0"/>
    </comp>
  </station>
  <station code="NURH" name="NURH" netid="KO" insttype="CMG-6T" commtype="DIG" lat="37.9693" lon="37.4363">
    <comp name="--.HHN">
      <acc value="0.0287229923" flag="0"/>
      <vel value="0.0231528096" flag="0"/>
      <psa03 value="0.0966215794" flag="0"/>
      <psa10 value="0.0239451190" flag="0"/>
      <psa30 value="0.0014277676" flag="0"/>
    </comp>
    <comp name="--.HHZ">
      <acc value="0.0114368390" flag="0"/>
      <vel value="0.0102480544" flag="0"/>
      <psa03 value="0.0422091308" flag="0"/>
      <psa10 value="0.0115725055" flag="0"/>
      <psa30 value="0.0014586389" flag="0"/>
    </comp>
    <comp name="--.HHE">
      <acc value="0.0195404771" flag="0"/>
      <vel value="0.0137784982" flag="0"/>
      <psa03 value="0.0707734199" flag="0"/>
      <psa10 value="0.0166427256" flag="0"/>
      <psa30 value="0.0011854708" flag="0"/>
    </comp>
  </station>
  <station code="SINE" name="SINE" netid="KO" insttype="CMG-6T" commtype="DIG" lat="39.1636" lon="39.3871">
    <comp name="--.HHZ">
      <acc value="0.0067596718" flag="0"/>
      <vel value="0.0041833034" flag="0"/>
      <psa03 value="0.0157938795" flag="0"/>
      <psa10 value="0.0052132831" flag="0"/>
      <psa30 value="0.0002445361" flag="0"/>
    </comp>
    <comp name="--.HHN">
      <acc value="0.0130128934" flag="0"/>
      <vel value="0.0070807927" flag="0"/>
      <psa03 value="0.0226663559" flag="0"/>
      <psa10 value="0.0086895624" flag="0"/>
      <psa30 value="0.0002930444" flag="0"/>
    </comp>
    <comp name="--.HHE">
      <acc value="0.0080688695" flag="0"/>
      <vel value="0.0038899353" flag="0"/>
      <psa03 value="0.0167188389" flag="0"/>
      <psa10 value="0.0031965449" flag="0"/>
      <psa30 value="0.0002141195" flag="0"/>
    </comp>
  </station>
  <station code="SVRC" name="SVRC" netid="KO" insttype="CMG-3T" commtype="DIG" lat="38.3775" lon="39.306">
    <comp name="--.HHE">
      <acc value="0.0772667238" flag="0"/>
      <vel value="0.0291325445" flag="0"/>
      <psa03 value="0.1676016574" flag="0"/>
      <psa10 value="0.0238998730" flag="0"/>
      <psa30 value="0.0059177170" flag="0"/>
    </comp>
    <comp name="--.HHN">
      <acc value="0.0578613904" flag="0"/>
      <vel value="0.0223579959" flag="0"/>
      <psa03 value="0.1339907821" flag="0"/>
      <psa10 value="0.0205445072" flag="0"/>
      <psa30 value="0.0044712714" flag="0"/>
    </comp>
    <comp name="--.HHZ">
      <acc value="0.0553387626" flag="0"/>
      <vel value="0.0182073123" flag="0"/>
      <psa03 value="0.1244847710" flag="0"/>
      <psa10 value="0.0155490414" flag="0"/>
      <psa30 value="0.0049374995" flag="0"/>
    </comp>
  </station>
  <station code="URFA" name="URFA" netid="KO" insttype="CMG-3ESP" commtype="DIG" lat="37.4409" lon="38.8213">
    <comp name="--.HHZ">
      <acc value="0.0518269157" flag="0"/>
      <vel value="0.0248709932" flag="0"/>
      <psa03 value="0.0509882662" flag="0"/>
      <psa10 value="0.0132182292" flag="0"/>
      <psa30 value="0.0020734784" flag="0"/>
    </comp>
    <comp name="--.HHN">
      <acc value="0.0596666315" flag="0"/>
      <vel value="0.0309486355" flag="0"/>
      <psa03 value="0.1215994519" flag="0"/>
      <psa10 value="0.0284693481" flag="0"/>
      <psa30 value="0.0025490273" flag="0"/>
    </comp>
    <comp name="--.HHE">
      <acc value="0.0852460798" flag="0"/>
      <vel value="0.0507892761" flag="0"/>
      <psa03 value="0.1853767195" flag="0"/>
      <psa10 value="0.0326550861" flag="0"/>
      <psa30 value="0.0035528984" flag="0"/>
    </comp>
  </station>
</stationlist>
