<?xml version="1.0" encoding="UTF-8" standalone="yes"?>
<!DOCTYPE earthquake SYSTEM "stationlist.dtd">
<stationlist created="" xmlns="ch.ethz.sed.shakemap.usgs.xml">
  <station code="BNGB" name="BNGB" netid="KO" insttype="CMG-3ESPC" commtype="DIG" lat="38.9913" lon="40.6792">
    <comp name="--.HHN">
      <acc value="0.0388564147" flag="0"/>
      <vel value="0.0292444584" flag="0"/>
      <psa03 value="0.0815842575" flag="0"/>
      <psa10 value="0.0286166226" flag="0"/>
      <psa30 value="0.0053060462" flag="0"/>
    </comp>
    <comp name="--.HHZ">
      <acc value="0.0294324730" flag="0"/>
      <vel value="0.0228109421" flag="0"/>
      <psa03 value="0.0460155469" flag="0"/>
      <psa10 value="0.0342756578" flag="0"/>
      <psa30 value="0.0020847899" flag="0"/>
    </comp>
    <comp name="--.HHE">
      <acc value="0.0507849133" flag="0"/>
      <vel value="0.0349180152" flag="0"/>
      <psa03 value="0.1658086858" flag="0"/>
      <psa10 value="0.0397034547" flag="0"/>
      <psa30 value="0.0040325262" flag="0"/>
    </comp>
  </station>
  <station code="KARO" name="KARO" netid="KO" insttype="CMG-3T" commtype="DIG" lat="39.3089" lon="41.0493">
    <comp name="--.HHE">
      <acc value="0.0556478420" flag="0"/>
      <vel value="0.0381000953" flag="0"/>
      <psa03 value="0.1890561440" flag="0"/>
      <psa10 value="0.0435202530" flag="0"/>
      <psa30 value="0.0051968898" flag="0"/>
    </comp>
    <comp name="--.HHN">
      <acc value="0.0589256594" flag="0"/>
      <vel value="0.0350513096" flag="0"/>
      <psa03 value="0.2220806075" flag="0"/>
      <psa10 value="0.0392516253" flag="0"/>
      <psa30 value="0.0063601010" flag="0"/>
    </comp>
    <comp name="--.HHZ">
      <acc value="0.0280643660" flag="0"/>
      <vel value="0.0160733422" flag="0"/>
      <psa03 value="0.0929680482" flag="0"/>
      <psa10 value="0.0183413261" flag="0"/>
      <psa30 value="0.0035799203" flag="0"/>
    </comp>
  </station>
  <station code="KMAH" name="KMAH" netid="KO" insttype="CMG-3ESP" commtype="DIG" lat="39.6082" lon="39.0275">
    <comp name="--.HHE">
      <acc value="0.0100356634" flag="0"/>
      <vel value="0.0042602413" flag="0"/>
      <psa03 value="0.0162700290" flag="0"/>
      <psa10 value="0.0051212198" flag="0"/>
      <psa30 value="0.0006210685" flag="0"/>
    </comp>
    <comp name="--.HHN">
      <acc value="0.0124120384" flag="0"/>
      <vel value="0.0061812895" flag="0"/>
      <psa03 value="0.0221675780" flag="0"/>
      <psa10 value="0.0088990686" flag="0"/>
      <psa30 value="0.0014025364" flag="0"/>
    </comp>
    <comp name="--.HHZ">
      <acc value="0.0051781865" flag="0"/>
      <vel value="0.0047202169" flag="0"/>
      <psa03 value="0.0115818463" flag="0"/>
      <psa10 value="0.0078691457" flag="0"/>
      <psa30 value="0.0008301475" flag="0"/>
    </comp>
  </station>
  <station code="LICE" name="LICE" netid="KO" insttype="CMG-3ESPC" commtype="DIG" lat="38.4532" lon="40.6446">
    <comp name="--.HHZ">
      <acc value="0.0040444384" flag="0"/>
      <vel value="0.0030306212" flag="0"/>
      <psa03 value="0.0123547623" flag="0"/>
      <psa10 value="0.0056755871" flag="0"/>
      <psa30 value="0.0005977507" flag="0"/>
    </comp>
    <comp name="--.HHN">
      <acc value="0.0042408761" flag="0"/>
      <vel value="0.0042670317" flag="0"/>
      <psa03 value="0.0105935365" flag="0"/>
      <psa10 value="0.0081305255" flag="0"/>
      <psa30 value="0.0011785125" flag="0"/>
    </comp>
    <comp name="--.HHE">
      <acc value="0.0050317432" flag="0"/>
      <vel value="0.0051730187" flag="0"/>
      <psa03 value="0.0146206314" flag="0"/>
      <psa10 value="0.0074836910" flag="0"/>
      <psa30 value="0.0010401953" flag="0"/>
    </comp>
  </station>
  <station code="SINE" name="SINE" netid="KO" insttype="CMG-6T" commtype="DIG" lat="39.1636" lon="39.3871">
    <comp name="--.HHE">
      <acc value="0.0276158926" flag="0"/>
      <vel value="0.0085813588" flag="0"/>
      <psa03 value="0.0499915006" flag="0"/>
      <psa10 value="0.0034456225" flag="0"/>
      <psa30 value="0.0002407932" flag="0"/>
    </comp>
    <comp name="--.HHN">
      <acc value="0.0253367775" flag="0"/>
      <vel value="0.0084528182" flag="0"/>
      <psa03 value="0.0357676867" flag="0"/>
      <psa10 value="0.0052915092" flag="0"/>
      <psa30 value="0.0002134739" flag="0"/>
    </comp>
    <comp name="--.HHZ">
      <acc value="0.0241408690" flag="0"/>
      <vel value="0.0080211416" flag="0"/>
      <psa03 value="0.0474700706" flag="0"/>
      <psa10 value="0.0048582868" flag="0"/>
      <psa30 value="0.0002740161" flag="0"/>
    </comp>
  </station>
  <station code="VRTB" name="VRTB" netid="KO" insttype="CMG-40T" commtype="DIG" lat="39.1603" lon="41.4558">
    <comp name="--.HHN">
      <acc value="0.0031205713" flag="0"/>
      <vel value="0.0049379086" flag="0"/>
      <psa03 value="0.0086591054" flag="0"/>
      <psa10 value="0.0065456755" flag="0"/>
      <psa30 value="0.0029854356" flag="0"/>
    </comp>
    <comp name="--.HHE">
      <acc value="0.0064458701" flag="0"/>
      <vel value="0.0115933259" flag="0"/>
      <psa03 value="0.0153903940" flag="0"/>
      <psa10 value="0.0155367727" flag="0"/>
      <psa30 value="0.0056601949" flag="0"/>
    </comp>
    <comp name="--.HHZ">
      <acc value="0.0030513726" flag="0"/>
      <vel value="0.0040010702" flag="0"/>
      <psa03 value="0.0070140927" flag="0"/>
      <psa10 value="0.0069422382" flag="0"/>
      <psa30 value="0.0012871226" flag="0"/>
    </comp>
  </station>
  <station code="YEDI" name="YEDI" netid="KO" insttype="CMG-3T" commtype="DIG" lat="39.4377" lon="40.5443">
    <comp name="--.HHN">
      <acc value="0.3349443165" flag="0"/>
      <vel value="0.1090236665" flag="0"/>
      <psa03 value="0.8001347686" flag="0"/>
      <psa10 value="0.0981470662" flag="0"/>
      <psa30 value="0.0049161499" flag="0"/>
    </comp>
  </station>
</stationlist>
