<?xml version="1.0" encoding="UTF-8" standalone="yes"?>
<!DOCTYPE earthquake SYSTEM "stationlist.dtd">
<stationlist created="" xmlns="ch.ethz.sed.shakemap.usgs.xml">
  <station code="AYVL" name="AYVL" netid="KO" insttype="CMG-6T" commtype="DIG" lat="39.2907" lon="26.69">
    <comp name="--.HHZ">
      <acc value="0.0204121722" flag="0"/>
      <vel value="0.0078800264" flag="0"/>
      <psa03 value="0.0372346255" flag="0"/>
      <psa10 value="0.0027322443" flag="0"/>
      <psa30 value="0.0001840216" flag="0"/>
    </comp>
    <comp name="--.HHE">
      <acc value="0.0525739409" flag="0"/>
      <vel value="0.0173627775" flag="0"/>
      <psa03 value="0.0639243869" flag="0"/>
      <psa10 value="0.0077707561" flag="0"/>
      <psa30 value="0.0004223633" flag="0"/>
    </comp>
    <comp name="--.HHN">
      <acc value="0.0525395095" flag="0"/>
      <vel value="0.0185095509" flag="0"/>
      <psa03 value="0.1357125466" flag="0"/>
      <psa10 value="0.0077692521" flag="0"/>
      <psa30 value="0.0004297057" flag="0"/>
    </comp>
  </station>
  <station code="BALB" name="BALB" netid="KO" insttype="CMG-5T" commtype="DIG" lat="39.6507" lon="27.8642">
    <comp name="--.HNN">
      <acc value="0.1415051559" flag="0"/>
      <vel value="0.0464498840" flag="0"/>
      <psa03 value="0.1186364944" flag="0"/>
      <psa10 value="0.0156218829" flag="0"/>
      <psa30 value="0.0010283765" flag="0"/>
    </comp>
    <comp name="--.HNE">
      <acc value="0.1838265135" flag="0"/>
      <vel value="0.0470065268" flag="0"/>
      <psa03 value="0.2894593547" flag="0"/>
      <psa10 value="0.0121824648" flag="0"/>
      <psa30 value="0.0013457849" flag="0"/>
    </comp>
    <comp name="--.HNZ">
      <acc value="0.0711519641" flag="0"/>
      <vel value="0.0166847798" flag="0"/>
      <psa03 value="0.1289053019" flag="0"/>
      <psa10 value="0.0059258964" flag="0"/>
      <psa30 value="0.0005801124" flag="0"/>
    </comp>
  </station>
  <station code="DKL" name="DKL" netid="KO" insttype="CMG-3ESPC" commtype="DIG" lat="39.0713" lon="26.9053">
    <comp name="--.HHN">
      <acc value="0.0174550602" flag="0"/>
      <vel value="0.0067655400" flag="0"/>
      <psa03 value="0.0217110539" flag="0"/>
      <psa10 value="0.0048148160" flag="0"/>
      <psa30 value="0.0005234881" flag="0"/>
    </comp>
    <comp name="--.HHE">
      <acc value="0.0046874083" flag="0"/>
      <vel value="0.0013109573" flag="0"/>
      <psa03 value="0.0042376398" flag="0"/>
      <psa10 value="0.0004788140" flag="0"/>
      <psa30 value="0.0000347713" flag="0"/>
    </comp>
    <comp name="--.HHZ">
      <acc value="0.0092948314" flag="0"/>
      <vel value="0.0035981519" flag="0"/>
      <psa03 value="0.0348427823" flag="0"/>
      <psa10 value="0.0027748870" flag="0"/>
      <psa30 value="0.0001694332" flag="0"/>
    </comp>
  </station>
  <station code="DST" name="DST" netid="KO" insttype="CMG-5T" commtype="DIG" lat="39.6041" lon="28.6267">
    <comp name="--.HNE">
      <acc value="0.0825294005" flag="0"/>
      <vel value="0.0197444438" flag="0"/>
      <psa03 value="0.0849825663" flag="0"/>
      <psa10 value="0.0053475338" flag="0"/>
      <psa30 value="0.0005650045" flag="0"/>
    </comp>
    <comp name="--.HNN">
      <acc value="0.0857174289" flag="0"/>
      <vel value="0.0216827861" flag="0"/>
      <psa03 value="0.1029542854" flag="0"/>
      <psa10 value="0.0060028465" flag="0"/>
      <psa30 value="0.0007964874" flag="0"/>
    </comp>
    <comp name="--.HNZ">
      <acc value="0.0724330141" flag="0"/>
      <vel value="0.0173660161" flag="0"/>
      <psa03 value="0.1027429146" flag="0"/>
      <psa10 value="0.0039060534" flag="0"/>
      <psa30 value="0.0005121308" flag="0"/>
    </comp>
  </station>
  <station code="GEDZ" name="GEDZ" netid="KO" insttype="CMG-6T" commtype="DIG" lat="39.0445" lon="29.4105">
    <comp name="--.HHE">
      <acc value="0.0830382538" flag="0"/>
      <vel value="0.0331962737" flag="0"/>
      <psa03 value="0.1897831895" flag="0"/>
      <psa10 value="0.0258122784" flag="0"/>
      <psa30 value="0.0009779029" flag="0"/>
    </comp>
    <comp name="--.HHZ">
      <acc value="0.0380318608" flag="0"/>
      <vel value="0.0134713347" flag="0"/>
      <psa03 value="0.0455166066" flag="0"/>
      <psa10 value="0.0076389482" flag="0"/>
      <psa30 value="0.0004993080" flag="0"/>
    </comp>
    <comp name="--.HHN">
      <acc value="0.0732703638" flag="0"/>
      <vel value="0.0339983036" flag="0"/>
      <psa03 value="0.2098384395" flag="0"/>
      <psa10 value="0.0307858878" flag="0"/>
      <psa30 value="0.0016013029" flag="0"/>
    </comp>
  </station>
  <station code="GOMA" name="GOMA" netid="KO" insttype="CMG-5T" commtype="DIG" lat="38.7077" lon="27.9175">
    <comp name="--.HNZ">
      <acc value="0.1205624855" flag="0"/>
      <vel value="0.0315849684" flag="0"/>
      <psa03 value="0.0978425274" flag="0"/>
      <psa10 value="0.0068700309" flag="0"/>
      <psa30 value="0.0005872134" flag="0"/>
    </comp>
    <comp name="--.HNN">
      <acc value="0.1275807310" flag="0"/>
      <vel value="0.0627094739" flag="0"/>
      <psa03 value="0.2414291104" flag="0"/>
      <psa10 value="0.0148822014" flag="0"/>
      <psa30 value="0.0014287081" flag="0"/>
    </comp>
    <comp name="--.HNE">
      <acc value="0.1712868216" flag="0"/>
      <vel value="0.0654713817" flag="0"/>
      <psa03 value="0.3603149037" flag="0"/>
      <psa10 value="0.0276737884" flag="0"/>
      <psa30 value="0.0018928335" flag="0"/>
    </comp>
  </station>
  <station code="GONE" name="GONE" netid="KO" insttype="CMG-5T" commtype="DIG" lat="40.0466" lon="27.686">
    <comp name="--.HNE">
      <acc value="0.0363865996" flag="0"/>
      <vel value="0.0133888171" flag="0"/>
      <psa03 value="0.0680831069" flag="0"/>
      <psa10 value="0.0119573562" flag="0"/>
      <psa30 value="0.0007478017" flag="0"/>
    </comp>
    <comp name="--.HNN">
      <acc value="0.0844498170" flag="0"/>
      <vel value="0.0291732603" flag="0"/>
      <psa03 value="0.2052057796" flag="0"/>
      <psa10 value="0.0098342586" flag="0"/>
      <psa30 value="0.0008184928" flag="0"/>
    </comp>
    <comp name="--.HNZ">
      <acc value="0.0250740304" flag="0"/>
      <vel value="0.0069143693" flag="0"/>
      <psa03 value="0.0325001446" flag="0"/>
      <psa10 value="0.0040363144" flag="0"/>
      <psa30 value="0.0002509303" flag="0"/>
    </comp>
  </station>
  <station code="GORD" name="GORD" netid="KO" insttype="CMG-5T" commtype="DIG" lat="38.9088" lon="28.1769">
    <comp name="--.HNZ">
      <acc value="0.0969684581" flag="0"/>
      <vel value="0.0446646345" flag="0"/>
      <psa03 value="0.1790491995" flag="0"/>
      <psa10 value="0.0209640583" flag="0"/>
      <psa30 value="0.0012599292" flag="0"/>
    </comp>
    <comp name="--.HNE">
      <acc value="0.1321524898" flag="0"/>
      <vel value="0.0387823757" flag="0"/>
      <psa03 value="0.1567731158" flag="0"/>
      <psa10 value="0.0414111982" flag="0"/>
      <psa30 value="0.0022650362" flag="0"/>
    </comp>
    <comp name="--.HNN">
      <acc value="0.1397961777" flag="0"/>
      <vel value="0.0788725500" flag="0"/>
      <psa03 value="0.2004182967" flag="0"/>
      <psa10 value="0.0661261305" flag="0"/>
      <psa30 value="0.0035656948" flag="0"/>
    </comp>
  </station>
  <station code="KULA" name="KULA" netid="KO" insttype="CMG-3T" commtype="DIG" lat="38.5145" lon="28.6607">
    <comp name="--.HHE">
      <acc value="0.0506966928" flag="0"/>
      <vel value="0.0116806552" flag="0"/>
      <psa03 value="0.0575518688" flag="0"/>
      <psa10 value="0.0074330075" flag="0"/>
      <psa30 value="0.0004669437" flag="0"/>
    </comp>
    <comp name="--.HHZ">
      <acc value="0.0302921179" flag="0"/>
      <vel value="0.0072180468" flag="0"/>
      <psa03 value="0.0507686267" flag="0"/>
      <psa10 value="0.0034507512" flag="0"/>
      <psa30 value="0.0003380662" flag="0"/>
    </comp>
    <comp name="--.HHN">
      <acc value="0.0414055175" flag="0"/>
      <vel value="0.0069916393" flag="0"/>
      <psa03 value="0.0338678735" flag="0"/>
      <psa10 value="0.0041281445" flag="0"/>
      <psa30 value="0.0001948979" flag="0"/>
    </comp>
  </station>
  <station code="ORLT" name="ORLT" netid="KO" insttype="CMG-5T" commtype="DIG" lat="40.0452" lon="28.8914">
    <comp name="--.HNE">
      <acc value="0.0795382855" flag="0"/>
      <vel value="0.0241083082" flag="0"/>
      <psa03 value="0.1643047245" flag="0"/>
      <psa10 value="0.0072594312" flag="0"/>
      <psa30 value="0.0007140042" flag="0"/>
    </comp>
    <comp name="--.HNN">
      <acc value="0.0610366913" flag="0"/>
      <vel value="0.0199199218" flag="0"/>
      <psa03 value="0.1744233593" flag="0"/>
      <psa10 value="0.0122975161" flag="0"/>
      <psa30 value="0.0010203566" flag="0"/>
    </comp>
    <comp name="--.HNZ">
      <acc value="0.0389241743" flag="0"/>
      <vel value="0.0082099384" flag="0"/>
      <psa03 value="0.0598056472" flag="0"/>
      <psa10 value="0.0072172981" flag="0"/>
      <psa30 value="0.0005598257" flag="0"/>
    </comp>
  </station>
  <station code="SHAP" name="SHAP" netid="KO" insttype="CMG-5T" commtype="DIG" lat="39.0231" lon="29.222">
    <comp name="--.HNE">
      <acc value="0.0932676295" flag="0"/>
      <vel value="0.0374244841" flag="0"/>
      <psa03 value="0.2773412577" flag="0"/>
      <psa10 value="0.0088409231" flag="0"/>
      <psa30 value="0.0008547867" flag="0"/>
    </comp>
    <comp name="--.HNN">
      <acc value="0.0856935116" flag="0"/>
      <vel value="0.0256840013" flag="0"/>
      <psa03 value="0.1596785223" flag="0"/>
      <psa10 value="0.0139879734" flag="0"/>
      <psa30 value="0.0010770376" flag="0"/>
    </comp>
    <comp name="--.HNZ">
      <acc value="0.0464397802" flag="0"/>
      <vel value="0.0149287761" flag="0"/>
      <psa03 value="0.0494801722" flag="0"/>
      <psa10 value="0.0039000392" flag="0"/>
      <psa30 value="0.0003532473" flag="0"/>
    </comp>
  </station>
  <station code="SIMA" name="SIMA" netid="KO" insttype="CMG-6T" commtype="DIG" lat="39.0833" lon="28.9825">
    <comp name="--.HHN">
      <acc value="0.0882508367" flag="0"/>
      <vel value="0.0265522319" flag="0"/>
      <psa03 value="0.1844298867" flag="0"/>
      <psa10 value="0.0075261353" flag="0"/>
      <psa30 value="0.0007906707" flag="0"/>
    </comp>
    <comp name="--.HHE">
      <acc value="0.0874474799" flag="0"/>
      <vel value="0.0304200457" flag="0"/>
      <psa03 value="0.2113331067" flag="0"/>
      <psa10 value="0.0079351047" flag="0"/>
      <psa30 value="0.0006969613" flag="0"/>
    </comp>
    <comp name="--.HHZ">
      <acc value="0.0489657923" flag="0"/>
      <vel value="0.0163335579" flag="0"/>
      <psa03 value="0.0920832319" flag="0"/>
      <psa10 value="0.0053458631" flag="0"/>
      <psa30 value="0.0003445346" flag="0"/>
    </comp>
  </station>
  <station code="SMAA" name="SMAA" netid="KO" insttype="CMG-5T" commtype="DIG" lat="39.1005" lon="28.9805">
    <comp name="--.HNE">
      <acc value="0.0953913625" flag="0"/>
      <vel value="0.0399905714" flag="0"/>
      <psa03 value="0.2736112467" flag="0"/>
      <psa10 value="0.0416418428" flag="0"/>
      <psa30 value="0.0024151323" flag="0"/>
    </comp>
    <comp name="--.HNN">
      <acc value="0.1187552314" flag="0"/>
      <vel value="0.0452315831" flag="0"/>
      <psa03 value="0.2596926194" flag="0"/>
      <psa10 value="0.0385506254" flag="0"/>
      <psa30 value="0.0032937598" flag="0"/>
    </comp>
    <comp name="--.HNZ">
      <acc value="0.0398204679" flag="0"/>
      <vel value="0.0147924697" flag="0"/>
      <psa03 value="0.0579833693" flag="0"/>
      <psa10 value="0.0319683213" flag="0"/>
      <psa30 value="0.0011247431" flag="0"/>
    </comp>
  </station>
  <station code="SOMA" name="SOMA" netid="KO" insttype="CMG-5T" commtype="DIG" lat="39.1564" lon="27.5341">
    <comp name="--.HNE">
      <acc value="0.0758063814" flag="0"/>
      <vel value="0.0220404614" flag="0"/>
      <psa03 value="0.2033444454" flag="0"/>
      <psa10 value="0.0084316226" flag="0"/>
      <psa30 value="0.0006193785" flag="0"/>
    </comp>
    <comp name="--.HNN">
      <acc value="0.0957411813" flag="0"/>
      <vel value="0.0353510797" flag="0"/>
      <psa03 value="0.1013035734" flag="0"/>
      <psa10 value="0.0189276409" flag="0"/>
      <psa30 value="0.0012187715" flag="0"/>
    </comp>
    <comp name="--.HNZ">
      <acc value="0.0675903554" flag="0"/>
      <vel value="0.0175637404" flag="0"/>
      <psa03 value="0.0907243573" flag="0"/>
      <psa10 value="0.0079637760" flag="0"/>
      <psa30 value="0.0004683594" flag="0"/>
    </comp>
  </station>
  <station code="SUSR" name="SUSR" netid="KO" insttype="CMG-5T" commtype="DIG" lat="39.9627" lon="28.0835">
    <comp name="--.HNE">
      <acc value="0.0533715564" flag="0"/>
      <vel value="0.0153955824" flag="0"/>
      <psa03 value="0.0752302437" flag="0"/>
      <psa10 value="0.0065277809" flag="0"/>
      <psa30 value="0.0004316261" flag="0"/>
    </comp>
    <comp name="--.HNN">
      <acc value="0.0643303884" flag="0"/>
      <vel value="0.0193573374" flag="0"/>
      <psa03 value="0.0978626159" flag="0"/>
      <psa10 value="0.0054154788" flag="0"/>
      <psa30 value="0.0004217009" flag="0"/>
    </comp>
    <comp name="--.HNZ">
      <acc value="0.0578929607" flag="0"/>
      <vel value="0.0116629065" flag="0"/>
      <psa03 value="0.0703162978" flag="0"/>
      <psa10 value="0.0033203009" flag="0"/>
      <psa30 value="0.0003282900" flag="0"/>
    </comp>
  </station>
  <station code="TVSB" name="TVSB" netid="KO" insttype="CMG-3T" commtype="DIG" lat="39.4497" lon="29.4615">
    <comp name="--.HHE">
      <acc value="0.0322563781" flag="0"/>
      <vel value="0.0161580199" flag="0"/>
      <psa03 value="0.0783866051" flag="0"/>
      <psa10 value="0.0091431196" flag="0"/>
      <psa30 value="0.0006467913" flag="0"/>
    </comp>
    <comp name="--.HHN">
      <acc value="0.0367977620" flag="0"/>
      <vel value="0.0171691718" flag="0"/>
      <psa03 value="0.0769292926" flag="0"/>
      <psa10 value="0.0050416247" flag="0"/>
      <psa30 value="0.0005419355" flag="0"/>
    </comp>
    <comp name="--.HHZ">
      <acc value="0.0260175889" flag="0"/>
      <vel value="0.0110014614" flag="0"/>
      <psa03 value="0.0516214845" flag="0"/>
      <psa10 value="0.0055436249" flag="0"/>
      <psa30 value="0.0002351370" flag="0"/>
    </comp>
  </station>
  <station code="YENI" name="YENI" netid="KO" insttype="CMG-5T" commtype="DIG" lat="39.9364" lon="27.2422">
    <comp name="--.HNE">
      <acc value="0.0575513985" flag="0"/>
      <vel value="0.0168695153" flag="0"/>
      <psa03 value="0.0746974899" flag="0"/>
      <psa10 value="0.0071653564" flag="0"/>
      <psa30 value="0.0005290731" flag="0"/>
    </comp>
    <comp name="--.HNN">
      <acc value="0.0822703976" flag="0"/>
      <vel value="0.0228413571" flag="0"/>
      <psa03 value="0.0708402791" flag="0"/>
      <psa10 value="0.0063728632" flag="0"/>
      <psa30 value="0.0004300158" flag="0"/>
    </comp>
    <comp name="--.HNZ">
      <acc value="0.0536191852" flag="0"/>
      <vel value="0.0122595930" flag="0"/>
      <psa03 value="0.0485587144" flag="0"/>
      <psa10 value="0.0023575195" flag="0"/>
      <psa30 value="0.0002435466" flag="0"/>
    </comp>
  </station>
</stationlist>
