<?xml version="1.0" encoding="UTF-8" standalone="yes"?>
<!DOCTYPE earthquake SYSTEM "stationlist.dtd">
<stationlist created="" xmlns="ch.ethz.sed.shakemap.usgs.xml">
  <station code="AKS" name="AKS" netid="KO" insttype="CMG-5T" commtype="DIG" lat="38.8785" lon="27.8129">
    <comp name="--.HNZ">
      <acc value="0.1444834382" flag="0"/>
      <vel value="0.0240149699" flag="0"/>
      <psa03 value="0.1187625136" flag="0"/>
      <psa10 value="0.0072589318" flag="0"/>
      <psa30 value="0.0006478181" flag="0"/>
    </comp>
    <comp name="--.HNE">
      <acc value="0.1817728382" flag="0"/>
      <vel value="0.0470716892" flag="0"/>
      <psa03 value="0.2643734897" flag="0"/>
      <psa10 value="0.0177637926" flag="0"/>
      <psa30 value="0.0016682131" flag="0"/>
    </comp>
    <comp name="--.HNN">
      <acc value="0.1587849365" flag="0"/>
      <vel value="0.0442181185" flag="0"/>
      <psa03 value="0.2714581371" flag="0"/>
      <psa10 value="0.0183702992" flag="0"/>
      <psa30 value="0.0014343205" flag="0"/>
    </comp>
  </station>
  <station code="AYVL" name="AYVL" netid="KO" insttype="CMG-6T" commtype="DIG" lat="39.2907" lon="26.69">
    <comp name="--.HHZ">
      <acc value="0.0201716388" flag="0"/>
      <vel value="0.0060789707" flag="0"/>
      <psa03 value="0.0195637140" flag="0"/>
      <psa10 value="0.0023761268" flag="0"/>
      <psa30 value="0.0001271859" flag="0"/>
    </comp>
    <comp name="--.HHN">
      <acc value="0.0388744679" flag="0"/>
      <vel value="0.0170684700" flag="0"/>
      <psa03 value="0.0660384564" flag="0"/>
      <psa10 value="0.0052279198" flag="0"/>
      <psa30 value="0.0004032313" flag="0"/>
    </comp>
    <comp name="--.HHE">
      <acc value="0.0307774373" flag="0"/>
      <vel value="0.0108689284" flag="0"/>
      <psa03 value="0.0602432375" flag="0"/>
      <psa10 value="0.0064482304" flag="0"/>
      <psa30 value="0.0003637722" flag="0"/>
    </comp>
  </station>
  <station code="BALB" name="BALB" netid="KO" insttype="CMG-5T" commtype="DIG" lat="39.6507" lon="27.8642">
    <comp name="--.HNE">
      <acc value="0.0352326147" flag="0"/>
      <vel value="0.0143095198" flag="0"/>
      <psa03 value="0.0436679323" flag="0"/>
      <psa10 value="0.0226121756" flag="0"/>
      <psa30 value="0.0018455440" flag="0"/>
    </comp>
    <comp name="--.HNN">
      <acc value="0.0297599696" flag="0"/>
      <vel value="0.0102007649" flag="0"/>
      <psa03 value="0.0577009230" flag="0"/>
      <psa10 value="0.0182195023" flag="0"/>
      <psa30 value="0.0011430063" flag="0"/>
    </comp>
    <comp name="--.HNZ">
      <acc value="0.0370295014" flag="0"/>
      <vel value="0.0078503186" flag="0"/>
      <psa03 value="0.0280345088" flag="0"/>
      <psa10 value="0.0133418632" flag="0"/>
      <psa30 value="0.0007001963" flag="0"/>
    </comp>
  </station>
  <station code="BLCB" name="BLCB" netid="KO" insttype="CMG-3T" commtype="DIG" lat="38.3853" lon="27.042">
    <comp name="--.HHZ">
      <acc value="0.0088485566" flag="0"/>
      <vel value="0.0028444545" flag="0"/>
      <psa03 value="0.0203646656" flag="0"/>
      <psa10 value="0.0018902613" flag="0"/>
      <psa30 value="0.0003298438" flag="0"/>
    </comp>
    <comp name="--.HHE">
      <acc value="0.0155685539" flag="0"/>
      <vel value="0.0052222200" flag="0"/>
      <psa03 value="0.0319231310" flag="0"/>
      <psa10 value="0.0034688037" flag="0"/>
      <psa30 value="0.0004719727" flag="0"/>
    </comp>
    <comp name="--.HHN">
      <acc value="0.0000382088" flag="0"/>
      <vel value="0.0000067278" flag="0"/>
      <psa03 value="0.0000131301" flag="0"/>
      <psa10 value="0.0000023307" flag="0"/>
      <psa30 value="0.0000004096" flag="0"/>
    </comp>
  </station>
  <station code="CANM" name="CANM" netid="KO" insttype="CMG-5T" commtype="DIG" lat="40.0113" lon="27.0529">
    <comp name="--.HNE">
      <acc value="0.0121487468" flag="0"/>
      <vel value="0.0044085420" flag="0"/>
      <psa03 value="0.0217579683" flag="0"/>
      <psa10 value="0.0065120056" flag="0"/>
      <psa30 value="0.0003953012" flag="0"/>
    </comp>
    <comp name="--.HNN">
      <acc value="0.0142294541" flag="0"/>
      <vel value="0.0073374056" flag="0"/>
      <psa03 value="0.0236269579" flag="0"/>
      <psa10 value="0.0138291285" flag="0"/>
      <psa30 value="0.0007784089" flag="0"/>
    </comp>
    <comp name="--.HNZ">
      <acc value="0.0122247173" flag="0"/>
      <vel value="0.0034719243" flag="0"/>
      <psa03 value="0.0179711380" flag="0"/>
      <psa10 value="0.0038157781" flag="0"/>
      <psa30 value="0.0002623233" flag="0"/>
    </comp>
  </station>
  <station code="DKL" name="DKL" netid="KO" insttype="CMG-3ESPC" commtype="DIG" lat="39.0713" lon="26.9053">
    <comp name="--.HHE">
      <acc value="0.0091418298" flag="0"/>
      <vel value="0.0041939374" flag="0"/>
      <psa03 value="0.0144902490" flag="0"/>
      <psa10 value="0.0044151970" flag="0"/>
      <psa30 value="0.0005059395" flag="0"/>
    </comp>
    <comp name="--.HHN">
      <acc value="0.0116621420" flag="0"/>
      <vel value="0.0062123762" flag="0"/>
      <psa03 value="0.0169316623" flag="0"/>
      <psa10 value="0.0037559767" flag="0"/>
      <psa30 value="0.0005625881" flag="0"/>
    </comp>
    <comp name="--.HHZ">
      <acc value="0.0091578447" flag="0"/>
      <vel value="0.0028526555" flag="0"/>
      <psa03 value="0.0090922134" flag="0"/>
      <psa10 value="0.0028303014" flag="0"/>
      <psa30 value="0.0003221260" flag="0"/>
    </comp>
  </station>
  <station code="DST" name="DST" netid="KO" insttype="CMG-5T" commtype="DIG" lat="39.6041" lon="28.6267">
    <comp name="--.HNZ">
      <acc value="0.0646292522" flag="0"/>
      <vel value="0.0140737297" flag="0"/>
      <psa03 value="0.0740129193" flag="0"/>
      <psa10 value="0.0047461092" flag="0"/>
      <psa30 value="0.0005390489" flag="0"/>
    </comp>
    <comp name="--.HNE">
      <acc value="0.0908670540" flag="0"/>
      <vel value="0.0212373018" flag="0"/>
      <psa03 value="0.1752322927" flag="0"/>
      <psa10 value="0.0066229891" flag="0"/>
      <psa30 value="0.0008169942" flag="0"/>
    </comp>
    <comp name="--.HNN">
      <acc value="0.0612038600" flag="0"/>
      <vel value="0.0180232268" flag="0"/>
      <psa03 value="0.1473606567" flag="0"/>
      <psa10 value="0.0084562114" flag="0"/>
      <psa30 value="0.0008350494" flag="0"/>
    </comp>
  </station>
  <station code="EDC" name="EDC" netid="KO" insttype="CMG-3T" commtype="DIG" lat="40.3465" lon="27.8618">
    <comp name="--.HHE">
      <acc value="0.0199565116" flag="0"/>
      <vel value="0.0099207629" flag="0"/>
      <psa03 value="0.0748981335" flag="0"/>
      <psa10 value="0.0066970398" flag="0"/>
      <psa30 value="0.0008142134" flag="0"/>
    </comp>
    <comp name="--.HHZ">
      <acc value="0.0085077012" flag="0"/>
      <vel value="0.0025200490" flag="0"/>
      <psa03 value="0.0139343145" flag="0"/>
      <psa10 value="0.0036867257" flag="0"/>
      <psa30 value="0.0002653589" flag="0"/>
    </comp>
    <comp name="--.HHN">
      <acc value="0.0310334700" flag="0"/>
      <vel value="0.0155183098" flag="0"/>
      <psa03 value="0.0938283682" flag="0"/>
      <psa10 value="0.0094003044" flag="0"/>
      <psa30 value="0.0007423632" flag="0"/>
    </comp>
  </station>
  <station code="GONE" name="GONE" netid="KO" insttype="CMG-5T" commtype="DIG" lat="40.0466" lon="27.686">
    <comp name="--.HNE">
      <acc value="0.0143714979" flag="0"/>
      <vel value="0.0051549171" flag="0"/>
      <psa03 value="0.0253410940" flag="0"/>
      <psa10 value="0.0048663443" flag="0"/>
      <psa30 value="0.0008746566" flag="0"/>
    </comp>
    <comp name="--.HNN">
      <acc value="0.0220899386" flag="0"/>
      <vel value="0.0080349411" flag="0"/>
      <psa03 value="0.0502414220" flag="0"/>
      <psa10 value="0.0090556395" flag="0"/>
      <psa30 value="0.0006381571" flag="0"/>
    </comp>
    <comp name="--.HNZ">
      <acc value="0.0157030573" flag="0"/>
      <vel value="0.0027730272" flag="0"/>
      <psa03 value="0.0186961841" flag="0"/>
      <psa10 value="0.0023873943" flag="0"/>
      <psa30 value="0.0002646473" flag="0"/>
    </comp>
  </station>
  <station code="GORD" name="GORD" netid="KO" insttype="CMG-5T" commtype="DIG" lat="38.9088" lon="28.1769">
    <comp name="--.HNE">
      <acc value="0.0283128736" flag="0"/>
      <vel value="0.0241954485" flag="0"/>
      <psa03 value="0.0500846340" flag="0"/>
      <psa10 value="0.0372966961" flag="0"/>
      <psa30 value="0.0025695997" flag="0"/>
    </comp>
    <comp name="--.HNN">
      <acc value="0.0391111722" flag="0"/>
      <vel value="0.0337660285" flag="0"/>
      <psa03 value="0.0519809610" flag="0"/>
      <psa10 value="0.0386112300" flag="0"/>
      <psa30 value="0.0026911334" flag="0"/>
    </comp>
    <comp name="--.HNZ">
      <acc value="0.0297313678" flag="0"/>
      <vel value="0.0157196916" flag="0"/>
      <psa03 value="0.0280862818" flag="0"/>
      <psa10 value="0.0294285464" flag="0"/>
      <psa30 value="0.0013260492" flag="0"/>
    </comp>
  </station>
  <station code="KCTX" name="KCTX" netid="KO" insttype="CMG-3ESP" commtype="DIG" lat="40.2626" lon="28.3353">
    <comp name="--.HHE">
      <acc value="0.0175937223" flag="0"/>
      <vel value="0.0057398087" flag="0"/>
      <psa03 value="0.0276363147" flag="0"/>
      <psa10 value="0.0086560180" flag="0"/>
      <psa30 value="0.0008406132" flag="0"/>
    </comp>
    <comp name="--.HHN">
      <acc value="0.0190423208" flag="0"/>
      <vel value="0.0064630278" flag="0"/>
      <psa03 value="0.0369071126" flag="0"/>
      <psa10 value="0.0034954220" flag="0"/>
      <psa30 value="0.0003650033" flag="0"/>
    </comp>
    <comp name="--.HHZ">
      <acc value="0.0147491085" flag="0"/>
      <vel value="0.0040828801" flag="0"/>
      <psa03 value="0.0242277561" flag="0"/>
      <psa10 value="0.0032806051" flag="0"/>
      <psa30 value="0.0002950204" flag="0"/>
    </comp>
  </station>
  <station code="KULA" name="KULA" netid="KO" insttype="CMG-3T" commtype="DIG" lat="38.5145" lon="28.6607">
    <comp name="--.HHZ">
      <acc value="0.0150380415" flag="0"/>
      <vel value="0.0043239049" flag="0"/>
      <psa03 value="0.0141556005" flag="0"/>
      <psa10 value="0.0035119133" flag="0"/>
      <psa30 value="0.0003651020" flag="0"/>
    </comp>
  </station>
  <station code="ORLT" name="ORLT" netid="KO" insttype="CMG-5T" commtype="DIG" lat="40.0452" lon="28.8914">
    <comp name="--.HNE">
      <acc value="0.0426071252" flag="0"/>
      <vel value="0.0252790951" flag="0"/>
      <psa03 value="0.2135358385" flag="0"/>
      <psa10 value="0.0211089024" flag="0"/>
      <psa30 value="0.0013872521" flag="0"/>
    </comp>
    <comp name="--.HNN">
      <acc value="0.0549094118" flag="0"/>
      <vel value="0.0242380111" flag="0"/>
      <psa03 value="0.2536439537" flag="0"/>
      <psa10 value="0.0172544881" flag="0"/>
      <psa30 value="0.0009799351" flag="0"/>
    </comp>
    <comp name="--.HNZ">
      <acc value="0.0184905212" flag="0"/>
      <vel value="0.0085403033" flag="0"/>
      <psa03 value="0.0495057058" flag="0"/>
      <psa10 value="0.0143933553" flag="0"/>
      <psa30 value="0.0008650365" flag="0"/>
    </comp>
  </station>
  <station code="SIMA" name="SIMA" netid="KO" insttype="CMG-6T" commtype="DIG" lat="39.0833" lon="28.9825">
    <comp name="--.HHE">
      <acc value="0.0371398372" flag="0"/>
      <vel value="0.0158595401" flag="0"/>
      <psa03 value="0.1037968765" flag="0"/>
      <psa10 value="0.0078065382" flag="0"/>
      <psa30 value="0.0005298519" flag="0"/>
    </comp>
    <comp name="--.HHN">
      <acc value="0.0275985097" flag="0"/>
      <vel value="0.0116599420" flag="0"/>
      <psa03 value="0.0867230158" flag="0"/>
      <psa10 value="0.0178799840" flag="0"/>
      <psa30 value="0.0011551856" flag="0"/>
    </comp>
    <comp name="--.HHZ">
      <acc value="0.0281916982" flag="0"/>
      <vel value="0.0066879051" flag="0"/>
      <psa03 value="0.0451241654" flag="0"/>
      <psa10 value="0.0044384181" flag="0"/>
      <psa30 value="0.0004668569" flag="0"/>
    </comp>
  </station>
  <station code="SMAA" name="SMAA" netid="KO" insttype="CMG-5T" commtype="DIG" lat="39.1005" lon="28.9805">
    <comp name="--.HNE">
      <acc value="0.0739077791" flag="0"/>
      <vel value="0.0465978641" flag="0"/>
      <psa03 value="0.2264777117" flag="0"/>
      <psa10 value="0.0775191737" flag="0"/>
      <psa30 value="0.0033551550" flag="0"/>
    </comp>
    <comp name="--.HNN">
      <acc value="0.0559452253" flag="0"/>
      <vel value="0.0327564930" flag="0"/>
      <psa03 value="0.1774321572" flag="0"/>
      <psa10 value="0.0594846581" flag="0"/>
      <psa30 value="0.0037419606" flag="0"/>
    </comp>
    <comp name="--.HNZ">
      <acc value="0.0297239354" flag="0"/>
      <vel value="0.0143037326" flag="0"/>
      <psa03 value="0.0342606863" flag="0"/>
      <psa10 value="0.0372486306" flag="0"/>
      <psa30 value="0.0015271554" flag="0"/>
    </comp>
  </station>
  <station code="SOMA" name="SOMA" netid="KO" insttype="CMG-5T" commtype="DIG" lat="39.1564" lon="27.5341">
    <comp name="--.HNN">
      <acc value="0.1288130221" flag="0"/>
      <vel value="0.0312153765" flag="0"/>
      <psa03 value="0.1591011073" flag="0"/>
      <psa10 value="0.0191940579" flag="0"/>
      <psa30 value="0.0019417608" flag="0"/>
    </comp>
    <comp name="--.HNE">
      <acc value="0.2043047534" flag="0"/>
      <vel value="0.0428163202" flag="0"/>
      <psa03 value="0.1514803347" flag="0"/>
      <psa10 value="0.0135928635" flag="0"/>
      <psa30 value="0.0009956272" flag="0"/>
    </comp>
    <comp name="--.HNZ">
      <acc value="0.1391103173" flag="0"/>
      <vel value="0.0346258214" flag="0"/>
      <psa03 value="0.0950116959" flag="0"/>
      <psa10 value="0.0074012557" flag="0"/>
      <psa30 value="0.0008152448" flag="0"/>
    </comp>
  </station>
  <station code="SUSR" name="SUSR" netid="KO" insttype="CMG-5T" commtype="DIG" lat="39.9627" lon="28.0835">
    <comp name="--.HNE">
      <acc value="0.0227775246" flag="0"/>
      <vel value="0.0046658218" flag="0"/>
      <psa03 value="0.0193560727" flag="0"/>
      <psa10 value="0.0042869745" flag="0"/>
      <psa30 value="0.0003574002" flag="0"/>
    </comp>
    <comp name="--.HNZ">
      <acc value="0.0223931102" flag="0"/>
      <vel value="0.0038463662" flag="0"/>
      <psa03 value="0.0234082765" flag="0"/>
      <psa10 value="0.0026924377" flag="0"/>
      <psa30 value="0.0001784226" flag="0"/>
    </comp>
    <comp name="--.HNN">
      <acc value="0.0249421528" flag="0"/>
      <vel value="0.0059806971" flag="0"/>
      <psa03 value="0.0326933907" flag="0"/>
      <psa10 value="0.0015136067" flag="0"/>
      <psa30 value="0.0002621441" flag="0"/>
    </comp>
  </station>
  <station code="YAYO" name="YAYO" netid="KO" insttype="CMG-6T" commtype="DIG" lat="39.6113" lon="27.0726">
    <comp name="--.HHE">
      <acc value="0.0112199923" flag="0"/>
      <vel value="0.0052072810" flag="0"/>
      <psa03 value="0.0186036404" flag="0"/>
      <psa10 value="0.0032833591" flag="0"/>
      <psa30 value="0.0003725363" flag="0"/>
    </comp>
    <comp name="--.HHZ">
      <acc value="0.0147346464" flag="0"/>
      <vel value="0.0029387039" flag="0"/>
      <psa03 value="0.0135702437" flag="0"/>
      <psa10 value="0.0020854568" flag="0"/>
      <psa30 value="0.0001887127" flag="0"/>
    </comp>
    <comp name="--.HHN">
      <acc value="0.0128152440" flag="0"/>
      <vel value="0.0064794845" flag="0"/>
      <psa03 value="0.0323810342" flag="0"/>
      <psa10 value="0.0056800296" flag="0"/>
      <psa30 value="0.0004509977" flag="0"/>
    </comp>
  </station>
  <station code="YENI" name="YENI" netid="KO" insttype="CMG-5T" commtype="DIG" lat="39.9364" lon="27.2422">
    <comp name="--.HNE">
      <acc value="0.0232936499" flag="0"/>
      <vel value="0.0087271528" flag="0"/>
      <psa03 value="0.0380115136" flag="0"/>
      <psa10 value="0.0065246234" flag="0"/>
      <psa30 value="0.0004038540" flag="0"/>
    </comp>
    <comp name="--.HNN">
      <acc value="0.0337586308" flag="0"/>
      <vel value="0.0113655870" flag="0"/>
      <psa03 value="0.0684982249" flag="0"/>
      <psa10 value="0.0066686679" flag="0"/>
      <psa30 value="0.0004540758" flag="0"/>
    </comp>
    <comp name="--.HNZ">
      <acc value="0.0146938061" flag="0"/>
      <vel value="0.0032434406" flag="0"/>
      <psa03 value="0.0189176907" flag="0"/>
      <psa10 value="0.0020463247" flag="0"/>
      <psa30 value="0.0003092093" flag="0"/>
    </comp>
  </station>
</stationlist>
