<?xml version="1.0" encoding="UTF-8" standalone="yes"?>
<!DOCTYPE earthquake SYSTEM "stationlist.dtd">
<stationlist created="" xmlns="ch.ethz.sed.shakemap.usgs.xml">
  <station code="LINA" name="LINA" netid="IV" insttype="" lat="35.8613" lon="12.8643">
    <comp name="--.HHN">
      <acc value="0.1018469710" flag="0"/>
      <vel value="0.0619418295" flag="0"/>
      <psa03 value="0.3286564007" flag="0"/>
      <psa10 value="0.0287263619" flag="0"/>
      <psa30 value="0.0021668147" flag="0"/>
    </comp>
    <comp name="--.HHE">
      <acc value="0.0897273662" flag="0"/>
      <vel value="0.0719454110" flag="0"/>
      <psa03 value="0.2208918709" flag="0"/>
      <psa10 value="0.0902837266" flag="0"/>
      <psa30 value="0.0034206565" flag="0"/>
    </comp>
    <comp name="--.HHZ">
      <acc value="0.0750183753" flag="0"/>
      <vel value="0.0319670047" flag="0"/>
      <psa03 value="0.1265163565" flag="0"/>
      <psa10 value="0.0489911258" flag="0"/>
      <psa30 value="0.0021561021" flag="0"/>
    </comp>
  </station>
</stationlist>
