<stationlist xmlns:esm="https://esm-db.eu/esmws/shakemap/1/" created="1783994027">
	<station code="IMMV" name="IMMV" netid="GE" source="GEOFON" insttype="" lat="35.4606" lon="23.9811" esm:processing="manual (Paolucci et al 2011)" esm:quality="best">
		<comp name="--.HNE" depth="0.0">
			<acc value="0.0498901768136031" flag="0"/>
			<vel value="0.0252887037675193" flag="0"/>
			<psa03 value="0.178566146613523" flag="0"/>
			<psa10 value="0.0259970117334806" flag="0"/>
			<psa30 value="0.00111676547719206" flag="0"/>
		</comp>
		<comp name="--.HNN" depth="0.0">
			<acc value="0.0514192291407514" flag="0"/>
			<vel value="0.0255935771716251" flag="0"/>
			<psa03 value="0.188946338548962" flag="0"/>
			<psa10 value="0.0195178927930887" flag="0"/>
			<psa30 value="0.00136553214598965" flag="0"/>
		</comp>
		<comp name="--.HNZ" depth="0.0">
			<acc value="0.0366081280663465" flag="0"/>
			<vel value="0.0264519658752826" flag="0"/>
			<psa03 value="0.105815318652213" flag="0"/>
			<psa10 value="0.0260775477053935" flag="0"/>
			<psa30 value="0.00174673574637733" flag="0"/>
		</comp>
	</station>
	<station code="CH01" name="CH01" netid="HI" source="ITSAK Strong Motion Network" insttype="" lat="35.517" lon="24.0208" esm:processing="manual (Paolucci et al 2011)" esm:quality="best">
		<comp name="--.HNE" depth="0.0">
			<acc value="0.0288903766638542" flag="0"/>
			<vel value="0.0221325698994238" flag="0"/>
			<psa03 value="0.0697531001178857" flag="0"/>
			<psa10 value="0.0421927956851626" flag="0"/>
			<psa30 value="0.00178431919993668" flag="0"/>
		</comp>
		<comp name="--.HNN" depth="0.0">
			<acc value="0.0252755495328903" flag="0"/>
			<vel value="0.0185271322685517" flag="0"/>
			<psa03 value="0.0810281361856901" flag="0"/>
			<psa10 value="0.0192360168913936" flag="0"/>
			<psa30 value="0.0011856684753842" flag="0"/>
		</comp>
		<comp name="--.HNZ" depth="0.0">
			<acc value="0.0221327324373725" flag="0"/>
			<vel value="0.0130198085936539" flag="0"/>
			<psa03 value="0.0540485855948723" flag="0"/>
			<psa10 value="0.0172065103991888" flag="0"/>
			<psa30 value="0.000942718293446986" flag="0"/>
		</comp>
	</station>
	<station code="CHNB" name="CHNB" netid="HL" source="National Observatory of Athens Seismic Network" insttype="" lat="35.48765" lon="24.06605" esm:processing="automatic (Paolucci et al 2011)" esm:quality="best">
		<comp name="00.HNE" depth="0.0">
			<acc value="0.0619728162211226" flag="0"/>
			<vel value="0.0429051755956684" flag="0"/>
			<psa03 value="0.168668892236302" flag="0"/>
			<psa10 value="0.0555868423554043" flag="0"/>
			<psa30 value="0.00227018830550066" flag="0"/>
		</comp>
		<comp name="00.HNN" depth="0.0">
			<acc value="0.0529446809479344" flag="0"/>
			<vel value="0.0459755328711711" flag="0"/>
			<psa03 value="0.169949372895344" flag="0"/>
			<psa10 value="0.0829329714022962" flag="0"/>
			<psa30 value="0.00249603826695135" flag="0"/>
		</comp>
		<comp name="00.HNZ" depth="0.0">
			<acc value="0.0426483741835202" flag="0"/>
			<vel value="0.0217664571286116" flag="0"/>
			<psa03 value="0.130151257298541" flag="0"/>
			<psa10 value="0.0207439010566196" flag="0"/>
			<psa30 value="0.00130366521558721" flag="0"/>
		</comp>
	</station>
	<station code="HERG" name="HERG" netid="HL" source="National Observatory of Athens Seismic Network" insttype="" lat="35.32622" lon="25.06586" esm:processing="manual (Paolucci et al 2011)" esm:quality="good">
		<comp name="00.HNE" depth="0.0">
			<acc value="0.0305931043448772" flag="0"/>
			<vel value="0.0233834073295526" flag="0"/>
			<psa03 value="0.0917172529012131" flag="0"/>
			<psa10 value="0.0383283115625354" flag="0"/>
			<psa30 value="0.00258255483158307" flag="0"/>
		</comp>
		<comp name="00.HNN" depth="0.0">
			<acc value="0.0282754098350072" flag="0"/>
			<vel value="0.0318365250473707" flag="0"/>
			<psa03 value="0.0581926622699473" flag="0"/>
			<psa10 value="0.0408477884655153" flag="0"/>
			<psa30 value="0.00261234930532073" flag="0"/>
		</comp>
		<comp name="00.HNZ" depth="0.0">
			<acc value="0.024102474922214" flag="0"/>
			<vel value="0.0157796577440662" flag="0"/>
			<psa03 value="0.0478838751967299" flag="0"/>
			<psa10 value="0.0205550779230333" flag="0"/>
			<psa30 value="0.00102716887823043" flag="0"/>
		</comp>
	</station>
	<station code="IACM" name="IACM" netid="HL" source="National Observatory of Athens Seismic Network" insttype="" lat="35.3058" lon="25.0709" esm:processing="manual (Paolucci et al 2011)" esm:quality="good">
		<comp name="--.HNE" depth="0.0">
			<acc value="0.0850147359847232" flag="0"/>
			<vel value="0.0389625777044828" flag="0"/>
			<psa03 value="0.146620211088077" flag="0"/>
			<psa10 value="0.0558154553342278" flag="0"/>
			<psa30 value="0.00254762124484439" flag="0"/>
		</comp>
		<comp name="--.HNN" depth="0.0">
			<acc value="0.0778133136351569" flag="0"/>
			<vel value="0.058170502286185" flag="0"/>
			<psa03 value="0.176642231728937" flag="0"/>
			<psa10 value="0.0541725215072049" flag="0"/>
			<psa30 value="0.00329615836156808" flag="0"/>
		</comp>
		<comp name="--.HNZ" depth="0.0">
			<acc value="0.0419730279906235" flag="0"/>
			<vel value="0.019387202256795" flag="0"/>
			<psa03 value="0.0796411277805237" flag="0"/>
			<psa10 value="0.0189541409896985" flag="0"/>
			<psa30 value="0.000915872969476023" flag="0"/>
		</comp>
	</station>
	<station code="IMMV" name="IMMV" netid="HL" source="National Observatory of Athens Seismic Network" insttype="" lat="35.4606" lon="23.9811" esm:processing="manual (Paolucci et al 2011)" esm:quality="best">
		<comp name="--.HNE" depth="0.0">
			<acc value="0.048877890481001" flag="0"/>
			<vel value="0.0247755990308829" flag="0"/>
			<psa03 value="0.174942027877443" flag="0"/>
			<psa10 value="0.0254695011174512" flag="0"/>
			<psa30 value="0.00109349952975056" flag="0"/>
		</comp>
		<comp name="--.HNN" depth="0.0">
			<acc value="0.05037588942118" flag="0"/>
			<vel value="0.0250742410202349" flag="0"/>
			<psa03 value="0.18509850877979" flag="0"/>
			<psa10 value="0.0191232665307155" flag="0"/>
			<psa30 value="0.00133779197788633" flag="0"/>
		</comp>
		<comp name="--.HNZ" depth="0.0">
			<acc value="0.0358653523718233" flag="0"/>
			<vel value="0.025915259182372" flag="0"/>
			<psa03 value="0.103667692734536" flag="0"/>
			<psa10 value="0.0255500370893641" flag="0"/>
			<psa30 value="0.00171138940314889" flag="0"/>
		</comp>
	</station>
	<station code="NPS1" name="NPS1" netid="HI" source="ITSAK Strong Motion Network" insttype="" lat="36.51263" lon="23.06248" esm:processing="discarded" esm:quality="good">
		<comp name="--.HNE" depth="0.0">
			<acc value="0" flag="1"/>
			<vel value="0" flag="1"/>
			<psa03 value="0" flag="1"/>
			<psa10 value="0" flag="1"/>
			<psa30 value="0" flag="1"/>
		</comp>
		<comp name="--.HNN" depth="0.0">
			<acc value="0" flag="1"/>
			<vel value="0" flag="1"/>
			<psa03 value="0" flag="1"/>
			<psa10 value="0" flag="1"/>
			<psa30 value="0" flag="1"/>
		</comp>
		<comp name="--.HNZ" depth="0.0">
			<acc value="0" flag="1"/>
			<vel value="0" flag="1"/>
			<psa03 value="0" flag="1"/>
			<psa10 value="0" flag="1"/>
			<psa30 value="0" flag="1"/>
		</comp>
	</station>
	<station code="SIT2" name="SIT2" netid="HI" source="ITSAK Strong Motion Network" insttype="" lat="35.2059" lon="26.107" esm:processing="discarded" esm:quality="good">
		<comp name="--.HNE" depth="0.0">
			<acc value="0" flag="1"/>
			<vel value="0" flag="1"/>
			<psa03 value="0" flag="1"/>
			<psa10 value="0" flag="1"/>
			<psa30 value="0" flag="1"/>
		</comp>
		<comp name="--.HNN" depth="0.0">
			<acc value="0" flag="1"/>
			<vel value="0" flag="1"/>
			<psa03 value="0" flag="1"/>
			<psa10 value="0" flag="1"/>
			<psa30 value="0" flag="1"/>
		</comp>
		<comp name="--.HNZ" depth="0.0">
			<acc value="0" flag="1"/>
			<vel value="0" flag="1"/>
			<psa03 value="0" flag="1"/>
			<psa10 value="0" flag="1"/>
			<psa30 value="0" flag="1"/>
		</comp>
	</station>
	<station code="AGNA" name="AGNA" netid="HL" source="National Observatory of Athens Seismic Network" insttype="" lat="35.1895" lon="25.71853" esm:processing="automatic (Paolucci et al 2011)" esm:quality="bad">
		<comp name="00.HNE" depth="0.0">
			<acc value="0" flag="1"/>
			<vel value="0" flag="1"/>
			<psa03 value="0" flag="1"/>
			<psa10 value="0" flag="1"/>
			<psa30 value="0" flag="1"/>
		</comp>
		<comp name="00.HNN" depth="0.0">
			<acc value="0" flag="1"/>
			<vel value="0" flag="1"/>
			<psa03 value="0" flag="1"/>
			<psa10 value="0" flag="1"/>
			<psa30 value="0" flag="1"/>
		</comp>
		<comp name="00.HNZ" depth="0.0">
			<acc value="0" flag="1"/>
			<vel value="0" flag="1"/>
			<psa03 value="0" flag="1"/>
			<psa10 value="0" flag="1"/>
			<psa30 value="0" flag="1"/>
		</comp>
	</station>
	<station code="ANKY" name="ANKY" netid="HL" source="National Observatory of Athens Seismic Network" insttype="" lat="35.86704" lon="23.30117" esm:processing="discarded" esm:quality="bad">
		<comp name="00.HNE" depth="0.0">
			<acc value="0" flag="1"/>
			<vel value="0" flag="1"/>
			<psa03 value="0" flag="1"/>
			<psa10 value="0" flag="1"/>
			<psa30 value="0" flag="1"/>
		</comp>
		<comp name="00.HNN" depth="0.0">
			<acc value="0" flag="1"/>
			<vel value="0" flag="1"/>
			<psa03 value="0" flag="1"/>
			<psa10 value="0" flag="1"/>
			<psa30 value="0" flag="1"/>
		</comp>
		<comp name="00.HNZ" depth="0.0">
			<acc value="0" flag="1"/>
			<vel value="0" flag="1"/>
			<psa03 value="0" flag="1"/>
			<psa10 value="0" flag="1"/>
			<psa30 value="0" flag="1"/>
		</comp>
	</station>
	<station code="ZKR" name="ZKR" netid="HL" source="National Observatory of Athens Seismic Network" insttype="" lat="35.1147" lon="26.21691" esm:processing="discarded" esm:quality="bad">
		<comp name="00.HNE" depth="0.0">
			<acc value="0" flag="1"/>
			<vel value="0" flag="1"/>
			<psa03 value="0" flag="1"/>
			<psa10 value="0" flag="1"/>
			<psa30 value="0" flag="1"/>
		</comp>
		<comp name="00.HNN" depth="0.0">
			<acc value="0" flag="1"/>
			<vel value="0" flag="1"/>
			<psa03 value="0" flag="1"/>
			<psa10 value="0" flag="1"/>
			<psa30 value="0" flag="1"/>
		</comp>
		<comp name="00.HNZ" depth="0.0">
			<acc value="0" flag="1"/>
			<vel value="0" flag="1"/>
			<psa03 value="0" flag="1"/>
			<psa10 value="0" flag="1"/>
			<psa30 value="0" flag="1"/>
		</comp>
	</station>
</stationlist>
