<?xml version="1.0" encoding="UTF-8" standalone="yes"?>
<!DOCTYPE earthquake SYSTEM "stationlist.dtd">
<stationlist created="" xmlns="ch.ethz.sed.shakemap.usgs.xml">
  <station code="GVD" name="GVD" netid="GE" source="GFZ" insttype="STS-2/N" lat="34.8391" lon="24.0874">
    <comp name="--.HHE">
      <acc value="6.0988996448" flag="0"/>
      <vel value="1.1628483833" flag="0"/>
      <psa03 value="7.2860346160" flag="0"/>
      <psa10 value="0.2249760369" flag="0"/>
      <psa30 value="0.0235295714" flag="0"/>
    </comp>
    <comp name="--.HHN">
      <acc value="7.9376191077" flag="0"/>
      <vel value="1.1309283001" flag="0"/>
      <psa03 value="11.7777576289" flag="0"/>
      <psa10 value="0.4130192705" flag="0"/>
      <psa30 value="0.0655966092" flag="0"/>
    </comp>
    <comp name="--.HHZ">
      <acc value="6.6696716027" flag="0"/>
      <vel value="1.0583692746" flag="0"/>
      <psa03 value="6.9908668137" flag="0"/>
      <psa10 value="0.2202208922" flag="0"/>
      <psa30 value="0.0179164269" flag="0"/>
    </comp>
  </station>
  <station code="IMMV" name="IMMV" netid="GE" source="GFZ" insttype="STS-2/N" lat="35.4606" lon="23.9811">
    <comp name="--.HHE">
      <acc value="0.0506341206" flag="0"/>
      <vel value="0.0256892525" flag="0"/>
      <psa03 value="0.1849067078" flag="0"/>
      <psa10 value="0.0257237434" flag="0"/>
      <psa30 value="0.0011319268" flag="0"/>
    </comp>
    <comp name="--.HHN">
      <acc value="0.0515610637" flag="0"/>
      <vel value="0.0258891355" flag="0"/>
      <psa03 value="0.1917371368" flag="0"/>
      <psa10 value="0.0195582016" flag="0"/>
      <psa30 value="0.0012893049" flag="0"/>
    </comp>
    <comp name="--.HHZ">
      <acc value="0.0369127626" flag="0"/>
      <vel value="0.0264358539" flag="0"/>
      <psa03 value="0.1075247997" flag="0"/>
      <psa10 value="0.0259469149" flag="0"/>
      <psa30 value="0.0016545511" flag="0"/>
    </comp>
  </station>
  <station code="CHAN" name="CHAN" netid="HC" source="NOA" insttype="120" lat="35.5193" lon="24.0428">
    <comp name="--.HHE">
      <acc value="0.0497845322" flag="0"/>
      <vel value="0.0335898362" flag="0"/>
      <psa03 value="0.1429138581" flag="0"/>
      <psa10 value="0.0453897447" flag="0"/>
      <psa30 value="0.0023709238" flag="0"/>
    </comp>
    <comp name="--.HHN">
      <acc value="0.0484762474" flag="0"/>
      <vel value="0.0401987315" flag="0"/>
      <psa03 value="0.1256859217" flag="0"/>
      <psa10 value="0.0587390050" flag="0"/>
      <psa30 value="0.0025028494" flag="0"/>
    </comp>
    <comp name="--.HHZ">
      <acc value="0.0353282996" flag="0"/>
      <vel value="0.0176992390" flag="0"/>
      <psa03 value="0.1490456139" flag="0"/>
      <psa10 value="0.0230070135" flag="0"/>
      <psa30 value="0.0013792854" flag="0"/>
    </comp>
  </station>
  <station code="HRKL" name="HRKL" netid="HC" source="NOA" insttype="120" lat="35.3115" lon="25.1016">
    <comp name="--.HHE">
      <acc value="0.0541332792" flag="0"/>
      <vel value="0.0463432090" flag="0"/>
      <psa03 value="0.1290005959" flag="0"/>
      <psa10 value="0.0795645300" flag="0"/>
      <psa30 value="0.0024711949" flag="0"/>
    </comp>
    <comp name="--.HHN">
      <acc value="0.0493664506" flag="0"/>
      <vel value="0.0515811954" flag="0"/>
      <psa03 value="0.1266283321" flag="0"/>
      <psa10 value="0.0572103217" flag="0"/>
      <psa30 value="0.0031508680" flag="0"/>
    </comp>
    <comp name="--.HHZ">
      <acc value="0.0405995482" flag="0"/>
      <vel value="0.0250061496" flag="0"/>
      <psa03 value="0.1363100648" flag="0"/>
      <psa10 value="0.0302056213" flag="0"/>
      <psa30 value="0.0011387945" flag="0"/>
    </comp>
  </station>
  <station code="KNDR" name="KNDR" netid="HC" source="NOA" insttype="60" lat="35.2348" lon="23.6248">
    <comp name="--.HHE">
      <acc value="0.0571348650" flag="0"/>
      <vel value="0.0331414219" flag="0"/>
      <psa03 value="0.1211161276" flag="0"/>
      <psa10 value="0.0266870819" flag="0"/>
      <psa30 value="0.0010577467" flag="0"/>
    </comp>
    <comp name="--.HHN">
      <acc value="0.0373047802" flag="0"/>
      <vel value="0.0207260530" flag="0"/>
      <psa03 value="0.1076853375" flag="0"/>
      <psa10 value="0.0273435587" flag="0"/>
      <psa30 value="0.0009960498" flag="0"/>
    </comp>
    <comp name="--.HHZ">
      <acc value="0.0318259564" flag="0"/>
      <vel value="0.0108371551" flag="0"/>
      <psa03 value="0.0688063599" flag="0"/>
      <psa10 value="0.0093530577" flag="0"/>
      <psa30 value="0.0005130370" flag="0"/>
    </comp>
  </station>
  <station code="PRNS" name="PRNS" netid="HC" source="NOA" insttype="120" lat="35.3445" lon="24.4266">
    <comp name="--.HHE">
      <acc value="0.0934632384" flag="0"/>
      <vel value="0.0583138608" flag="0"/>
      <psa03 value="0.2735544383" flag="0"/>
      <psa10 value="0.0326989247" flag="0"/>
      <psa30 value="0.0026759134" flag="0"/>
    </comp>
    <comp name="--.HHN">
      <acc value="0.1282534652" flag="0"/>
      <vel value="0.0757612577" flag="0"/>
      <psa03 value="0.3087708567" flag="0"/>
      <psa10 value="0.0648721934" flag="0"/>
      <psa30 value="0.0031443781" flag="0"/>
    </comp>
    <comp name="--.HHZ">
      <acc value="0.0775422373" flag="0"/>
      <vel value="0.0306331573" flag="0"/>
      <psa03 value="0.1332167709" flag="0"/>
      <psa10 value="0.0418452042" flag="0"/>
      <psa30 value="0.0013577458" flag="0"/>
    </comp>
  </station>
  <station code="TMBK" name="TMBK" netid="HC" source="NOA" insttype="120" lat="35.0724" lon="24.7662">
    <comp name="--.HHE">
      <acc value="0.1708692146" flag="0"/>
      <vel value="0.0740208993" flag="0"/>
      <psa03 value="0.4895636238" flag="0"/>
      <psa10 value="0.0676439473" flag="0"/>
      <psa30 value="0.0042273559" flag="0"/>
    </comp>
    <comp name="--.HHN">
      <acc value="0.2280060144" flag="0"/>
      <vel value="0.0784269187" flag="0"/>
      <psa03 value="0.5587346705" flag="0"/>
      <psa10 value="0.0654412736" flag="0"/>
      <psa30 value="0.0034688723" flag="0"/>
    </comp>
    <comp name="--.HHZ">
      <acc value="0.1995416223" flag="0"/>
      <vel value="0.0415263395" flag="0"/>
      <psa03 value="0.2222641591" flag="0"/>
      <psa10 value="0.0334690426" flag="0"/>
      <psa30 value="0.0023111633" flag="0"/>
    </comp>
  </station>
  <station code="ANKY" name="ANKY" netid="HL" source="NOA" insttype="60" lat="35.867" lon="23.3012">
    <comp name="--.HHE">
      <acc value="0.0039557489" flag="0"/>
      <vel value="0.0032228288" flag="0"/>
      <psa03 value="0.0105410298" flag="0"/>
      <psa10 value="0.0047714106" flag="0"/>
      <psa30 value="0.0003627141" flag="0"/>
    </comp>
    <comp name="--.HHN">
      <acc value="0.0041666207" flag="0"/>
      <vel value="0.0030868466" flag="0"/>
      <psa03 value="0.0124489209" flag="0"/>
      <psa10 value="0.0054876583" flag="0"/>
      <psa30 value="0.0003538608" flag="0"/>
    </comp>
    <comp name="--.HHZ">
      <acc value="0.0037661310" flag="0"/>
      <vel value="0.0026378644" flag="0"/>
      <psa03 value="0.0103494277" flag="0"/>
      <psa10 value="0.0027643094" flag="0"/>
      <psa30 value="0.0003268059" flag="0"/>
    </comp>
  </station>
  <station code="GVD" name="GVD" netid="HL" source="NOA" insttype="120" lat="34.8391" lon="24.0874">
    <comp name="--.HHE">
      <acc value="6.0379812712" flag="0"/>
      <vel value="1.1341856167" flag="0"/>
      <psa03 value="7.0653363364" flag="0"/>
      <psa10 value="0.2226155735" flag="0"/>
      <psa30 value="0.0227773986" flag="0"/>
    </comp>
    <comp name="--.HHN">
      <acc value="8.7509439702" flag="0"/>
      <vel value="1.1129538631" flag="0"/>
      <psa03 value="11.4324707073" flag="0"/>
      <psa10 value="0.4059747744" flag="0"/>
      <psa30 value="0.0646957321" flag="0"/>
    </comp>
    <comp name="--.HHZ">
      <acc value="6.8393738869" flag="0"/>
      <vel value="1.0215614908" flag="0"/>
      <psa03 value="6.7860481971" flag="0"/>
      <psa10 value="0.2161220609" flag="0"/>
      <psa30 value="0.0173184719" flag="0"/>
    </comp>
  </station>
  <station code="IACM" name="IACM" netid="HL" source="NOA" insttype="120" lat="35.3058" lon="25.0709">
    <comp name="--.HHE">
      <acc value="0.0867608731" flag="0"/>
      <vel value="0.0389981758" flag="0"/>
      <psa03 value="0.1448431200" flag="0"/>
      <psa10 value="0.0561555853" flag="0"/>
      <psa30 value="0.0026636683" flag="0"/>
    </comp>
    <comp name="--.HHN">
      <acc value="0.0766340111" flag="0"/>
      <vel value="0.0561072176" flag="0"/>
      <psa03 value="0.1801221457" flag="0"/>
      <psa10 value="0.0535950095" flag="0"/>
      <psa30 value="0.0031186469" flag="0"/>
    </comp>
    <comp name="--.HHZ">
      <acc value="0.0408532785" flag="0"/>
      <vel value="0.0194078887" flag="0"/>
      <psa03 value="0.0805444394" flag="0"/>
      <psa10 value="0.0189100292" flag="0"/>
      <psa30 value="0.0009237050" flag="0"/>
    </comp>
  </station>
  <station code="IDI" name="IDI" netid="HL" source="NOA" insttype="120" lat="35.288" lon="24.89">
    <comp name="--.HHE">
      <acc value="0.0174792003" flag="0"/>
      <vel value="0.0076690690" flag="0"/>
      <psa03 value="0.0476030759" flag="0"/>
      <psa10 value="0.0091763572" flag="0"/>
      <psa30 value="0.0005048549" flag="0"/>
    </comp>
    <comp name="--.HHN">
      <acc value="0.0260982011" flag="0"/>
      <vel value="0.0067045361" flag="0"/>
      <psa03 value="0.0498265052" flag="0"/>
      <psa10 value="0.0063773515" flag="0"/>
      <psa30 value="0.0006562121" flag="0"/>
    </comp>
    <comp name="--.HHZ">
      <acc value="0.0183930805" flag="0"/>
      <vel value="0.0058954652" flag="0"/>
      <psa03 value="0.0339264171" flag="0"/>
      <psa10 value="0.0038249360" flag="0"/>
      <psa30 value="0.0004768304" flag="0"/>
    </comp>
  </station>
  <station code="IMMV" name="IMMV" netid="HL" source="NOA" insttype="120" lat="35.4606" lon="23.9811">
    <comp name="--.HHE">
      <acc value="0.0488200348" flag="0"/>
      <vel value="0.0249737659" flag="0"/>
      <psa03 value="0.1799222349" flag="0"/>
      <psa10 value="0.0255299151" flag="0"/>
      <psa30 value="0.0011255969" flag="0"/>
    </comp>
    <comp name="--.HHN">
      <acc value="0.0507179072" flag="0"/>
      <vel value="0.0252868830" flag="0"/>
      <psa03 value="0.1861732907" flag="0"/>
      <psa10 value="0.0193391549" flag="0"/>
      <psa30 value="0.0012802401" flag="0"/>
    </comp>
    <comp name="--.HHZ">
      <acc value="0.0358937465" flag="0"/>
      <vel value="0.0259765584" flag="0"/>
      <psa03 value="0.1048964896" flag="0"/>
      <psa10 value="0.0256860149" flag="0"/>
      <psa30 value="0.0016377290" flag="0"/>
    </comp>
  </station>
  <station code="IDI" name="IDI" netid="MN" source="INGV" insttype="" lat="35.288" lon="24.89">
    <comp name="--.HHE">
      <acc value="0.0177142103" flag="0"/>
      <vel value="0.0072723414" flag="0"/>
      <psa03 value="0.0453766548" flag="0"/>
      <psa10 value="0.0086391437" flag="0"/>
      <psa30 value="0.0004745278" flag="0"/>
    </comp>
    <comp name="--.HHN">
      <acc value="0.0253254761" flag="0"/>
      <vel value="0.0064552380" flag="0"/>
      <psa03 value="0.0481835500" flag="0"/>
      <psa10 value="0.0060724479" flag="0"/>
      <psa30 value="0.0006236528" flag="0"/>
    </comp>
    <comp name="--.HHZ">
      <acc value="0.0188466172" flag="0"/>
      <vel value="0.0056680122" flag="0"/>
      <psa03 value="0.0331574439" flag="0"/>
      <psa10 value="0.0036520448" flag="0"/>
      <psa30 value="0.0004528446" flag="0"/>
    </comp>
  </station>
</stationlist>
