<stationlist xmlns:esm="https://esm-db.eu/esmws/shakemap/1/" created="1779933291">
	<station code="ACQT" name="ACQT" netid="IT" source="Italian Strong Motion Network (RAN)" insttype="" lat="42.7786" lon="13.4196" esm:processing="manual (Paolucci et al 2011)" esm:quality="good">
		<comp name="--.HNE" depth="0.0">
			<acc value="0.17289570320678" flag="0"/>
			<vel value="0.0340090074989096" flag="0"/>
			<psa03 value="0.0904293550843034" flag="0"/>
			<psa10 value="0.0131222880371816" flag="0"/>
			<psa30 value="0.000712758154229682" flag="0"/>
		</comp>
		<comp name="--.HNN" depth="0.0">
			<acc value="0.17793108975345" flag="0"/>
			<vel value="0.0387126878971122" flag="0"/>
			<psa03 value="0.10688970591843" flag="0"/>
			<psa10 value="0.00903363030867319" flag="0"/>
			<psa30 value="0.00112040192946251" flag="0"/>
		</comp>
		<comp name="--.HNZ" depth="0.0">
			<acc value="0.0702970762390256" flag="0"/>
			<vel value="0.0115730007104989" flag="0"/>
			<psa03 value="0.031253322983431" flag="0"/>
			<psa10 value="0.00506019240041239" flag="0"/>
			<psa30 value="0.000752832163102763" flag="0"/>
		</comp>
	</station>
	<station code="AMT" name="AMT" netid="IT" source="Italian Strong Motion Network (RAN)" insttype="" lat="42.6325" lon="13.2866" esm:processing="automatic (Paolucci et al 2011)" esm:quality="best">
		<comp name="--.HNE" depth="0.0">
			<acc value="0.0234535086436849" flag="0"/>
			<vel value="0.0197851836956282" flag="0"/>
			<psa03 value="0.0839496706286755" flag="0"/>
			<psa10 value="0.0224901592376735" flag="0"/>
			<psa30 value="0.00632066204617369" flag="0"/>
		</comp>
		<comp name="--.HNN" depth="0.0">
			<acc value="0.0146242976877059" flag="0"/>
			<vel value="0.00993470749253191" flag="0"/>
			<psa03 value="0.0579817316301609" flag="0"/>
			<psa10 value="0.0115536781869774" flag="0"/>
			<psa30 value="0.00284870912966577" flag="0"/>
		</comp>
		<comp name="--.HNZ" depth="0.0">
			<acc value="0.011047129377173" flag="0"/>
			<vel value="0.00773895493368943" flag="0"/>
			<psa03 value="0.0347240320675411" flag="0"/>
			<psa10 value="0.0167072949012921" flag="0"/>
			<psa30 value="0.00218820370775649" flag="0"/>
		</comp>
	</station>
	<station code="ANB" name="ANB" netid="IT" source="Italian Strong Motion Network (RAN)" insttype="" lat="43.5922" lon="13.5074" esm:processing="automatic (Paolucci et al 2011)" esm:quality="best">
		<comp name="--.HGE" depth="0.0">
			<acc value="0.0189443632390041" flag="0"/>
			<vel value="0.00786062084087514" flag="0"/>
			<psa03 value="0.0406857134580081" flag="0"/>
			<psa10 value="0.0110240924795233" flag="0"/>
			<psa30 value="0.00067157235295581" flag="0"/>
		</comp>
		<comp name="--.HGN" depth="0.0">
			<acc value="0.0148715247496105" flag="0"/>
			<vel value="0.00800695223964009" flag="0"/>
			<psa03 value="0.0608046061317427" flag="0"/>
			<psa10 value="0.0117578970279733" flag="0"/>
			<psa30 value="0.000635225257639128" flag="0"/>
		</comp>
		<comp name="--.HGZ" depth="0.0">
			<acc value="0.0227937169311022" flag="0"/>
			<vel value="0.00645565190793677" flag="0"/>
			<psa03 value="0.0244602740189423" flag="0"/>
			<psa10 value="0.00400219481326462" flag="0"/>
			<psa30 value="0.000403727838737923" flag="0"/>
		</comp>
	</station>
	<station code="ANT" name="ANT" netid="IT" source="Italian Strong Motion Network (RAN)" insttype="" lat="42.4182" lon="13.0786" esm:processing="manual (Paolucci et al 2011)" esm:quality="good">
		<comp name="--.HNE" depth="0.0">
			<acc value="0.00579046192783834" flag="0"/>
			<vel value="0.00610747936489403" flag="0"/>
			<psa03 value="0.021190349069129" flag="0"/>
			<psa10 value="0.014920552788396" flag="0"/>
			<psa30 value="0.000983442023207554" flag="0"/>
		</comp>
		<comp name="--.HNN" depth="0.0">
			<acc value="0.00623780330969258" flag="0"/>
			<vel value="0.00594840577743409" flag="0"/>
			<psa03 value="0.0131238824136346" flag="0"/>
			<psa10 value="0.0116796537197382" flag="0"/>
			<psa30 value="0.00133546086356144" flag="0"/>
		</comp>
		<comp name="--.HNZ" depth="0.0">
			<acc value="0.00356810577386946" flag="0"/>
			<vel value="0.00322325162034391" flag="0"/>
			<psa03 value="0.0175210916759178" flag="0"/>
			<psa10 value="0.00660004206414542" flag="0"/>
			<psa30 value="0.000668595749520441" flag="0"/>
		</comp>
	</station>
	<station code="APNO" name="APNO" netid="IT" source="Italian Strong Motion Network (RAN)" insttype="" lat="43.3638" lon="13.3451" esm:processing="automatic (Paolucci et al 2011)" esm:quality="best">
		<comp name="--.HNE" depth="0.0">
			<acc value="0.0735960015789987" flag="0"/>
			<vel value="0.0281593740112398" flag="0"/>
			<psa03 value="0.0983202319828382" flag="0"/>
			<psa10 value="0.0518191177622367" flag="0"/>
			<psa30 value="0.00478175635122396" flag="0"/>
		</comp>
		<comp name="--.HNN" depth="0.0">
			<acc value="0.0854547899874859" flag="0"/>
			<vel value="0.0245390049021545" flag="0"/>
			<psa03 value="0.143468149894159" flag="0"/>
			<psa10 value="0.049956496872744" flag="0"/>
			<psa30 value="0.00412015293991161" flag="0"/>
		</comp>
		<comp name="--.HNZ" depth="0.0">
			<acc value="0.031331619991822" flag="0"/>
			<vel value="0.0107594038835814" flag="0"/>
			<psa03 value="0.0359683775201537" flag="0"/>
			<psa10 value="0.0209238060994654" flag="0"/>
			<psa30 value="0.00156884528246714" flag="0"/>
		</comp>
	</station>
	<station code="AQG" name="AQG" netid="IT" source="Italian Strong Motion Network (RAN)" insttype="" lat="42.3737" lon="13.337" esm:processing="manual (Paolucci et al 2011)" esm:quality="good">
		<comp name="--.HNE" depth="0.0">
			<acc value="0.0102691957025935" flag="0"/>
			<vel value="0.005497222312839" flag="0"/>
			<psa03 value="0.0149636566333975" flag="0"/>
			<psa10 value="0.00522853495853068" flag="0"/>
			<psa30 value="0.00242071911076081" flag="0"/>
		</comp>
		<comp name="--.HNN" depth="0.0">
			<acc value="0.00853746966333254" flag="0"/>
			<vel value="0.00581007826300371" flag="0"/>
			<psa03 value="0.0298283848382721" flag="0"/>
			<psa10 value="0.00721100441240255" flag="0"/>
			<psa30 value="0.00211540576024974" flag="0"/>
		</comp>
		<comp name="--.HNZ" depth="0.0">
			<acc value="0.00275469886817431" flag="0"/>
			<vel value="0.00196973501219015" flag="0"/>
			<psa03 value="0.00664556328282775" flag="0"/>
			<psa10 value="0.00359418090934592" flag="0"/>
			<psa30 value="0.000739100420108848" flag="0"/>
		</comp>
	</station>
	<station code="AQK" name="AQK" netid="IT" source="Italian Strong Motion Network (RAN)" insttype="" lat="42.345" lon="13.4009" esm:processing="automatic (Paolucci et al 2011)" esm:quality="best">
		<comp name="--.HNE" depth="0.0">
			<acc value="0.006515797049887" flag="0"/>
			<vel value="0.00765215017022486" flag="0"/>
			<psa03 value="0.0131949509236579" flag="0"/>
			<psa10 value="0.0135905440568448" flag="0"/>
			<psa30 value="0.0026835877745197" flag="0"/>
		</comp>
		<comp name="--.HNN" depth="0.0">
			<acc value="0.00659895170108167" flag="0"/>
			<vel value="0.00851908703460558" flag="0"/>
			<psa03 value="0.0254913553438531" flag="0"/>
			<psa10 value="0.0211908275383252" flag="0"/>
			<psa30 value="0.00171377634177186" flag="0"/>
		</comp>
		<comp name="--.HNZ" depth="0.0">
			<acc value="0.00531273270717204" flag="0"/>
			<vel value="0.00781946621222069" flag="0"/>
			<psa03 value="0.0181193787053306" flag="0"/>
			<psa10 value="0.0145722250258912" flag="0"/>
			<psa30 value="0.000701527931115849" flag="0"/>
		</comp>
	</station>
	<station code="ARCV" name="ARCV" netid="IT" source="Italian Strong Motion Network (RAN)" insttype="" lat="43.495" lon="12.9396" esm:processing="automatic (Paolucci et al 2011)" esm:quality="best">
		<comp name="--.HNE" depth="0.0">
			<acc value="0.0285677348765846" flag="0"/>
			<vel value="0.00852391475756318" flag="0"/>
			<psa03 value="0.0329442553118991" flag="0"/>
			<psa10 value="0.00633721199669336" flag="0"/>
			<psa30 value="0.00123111551369411" flag="0"/>
		</comp>
		<comp name="--.HNN" depth="0.0">
			<acc value="0.0368472182524162" flag="0"/>
			<vel value="0.00832981725004231" flag="0"/>
			<psa03 value="0.0374507126967509" flag="0"/>
			<psa10 value="0.00831432609579925" flag="0"/>
			<psa30 value="0.000422958878324914" flag="0"/>
		</comp>
		<comp name="--.HNZ" depth="0.0">
			<acc value="0.0189026217146286" flag="0"/>
			<vel value="0.00533029369509371" flag="0"/>
			<psa03 value="0.0145836952649049" flag="0"/>
			<psa10 value="0.00368996858293419" flag="0"/>
			<psa30 value="0.00051742750619955" flag="0"/>
		</comp>
	</station>
	<station code="ASP" name="ASP" netid="IT" source="Italian Strong Motion Network (RAN)" insttype="" lat="42.848" lon="13.6479" esm:processing="automatic (Paolucci et al 2011)" esm:quality="best">
		<comp name="--.HGE" depth="0.0">
			<acc value="0.0305016641635458" flag="0"/>
			<vel value="0.0104904106436369" flag="0"/>
			<psa03 value="0.0647800517771729" flag="0"/>
			<psa10 value="0.00714190514741536" flag="0"/>
			<psa30 value="0.00050212362780938" flag="0"/>
		</comp>
		<comp name="--.HGN" depth="0.0">
			<acc value="0.0375689085125556" flag="0"/>
			<vel value="0.0126405087287369" flag="0"/>
			<psa03 value="0.0605040810150953" flag="0"/>
			<psa10 value="0.0097886153227251" flag="0"/>
			<psa30 value="0.000762591455441318" flag="0"/>
		</comp>
		<comp name="--.HGZ" depth="0.0">
			<acc value="0.0185140313337958" flag="0"/>
			<vel value="0.00635958457466042" flag="0"/>
			<psa03 value="0.0243930872764837" flag="0"/>
			<psa10 value="0.00889761536085042" flag="0"/>
			<psa30 value="0.000475529001462571" flag="0"/>
		</comp>
	</station>
	<station code="ASS" name="ASS" netid="IT" source="Italian Strong Motion Network (RAN)" insttype="" lat="43.075" lon="12.6041" esm:processing="automatic (Paolucci et al 2011)" esm:quality="best">
		<comp name="--.HNE" depth="0.0">
			<acc value="0.0373432178594526" flag="0"/>
			<vel value="0.0173431713874205" flag="0"/>
			<psa03 value="0.131712548226575" flag="0"/>
			<psa10 value="0.0101137984270098" flag="0"/>
			<psa30 value="0.000934641394572075" flag="0"/>
		</comp>
		<comp name="--.HNN" depth="0.0">
			<acc value="0.0268899654330008" flag="0"/>
			<vel value="0.0171442639251654" flag="0"/>
			<psa03 value="0.101044027004224" flag="0"/>
			<psa10 value="0.0111451842512589" flag="0"/>
			<psa30 value="0.00133252566911922" flag="0"/>
		</comp>
		<comp name="--.HNZ" depth="0.0">
			<acc value="0.0151815424683232" flag="0"/>
			<vel value="0.0081706825412546" flag="0"/>
			<psa03 value="0.0255529453613895" flag="0"/>
			<psa10 value="0.00955121709625768" flag="0"/>
			<psa30 value="0.000913002356925363" flag="0"/>
		</comp>
	</station>
	<station code="BOR" name="BOR" netid="IT" source="Italian Strong Motion Network (RAN)" insttype="" lat="42.5075" lon="13.1406" esm:processing="automatic (Paolucci et al 2011)" esm:quality="best">
		<comp name="--.HNE" depth="0.0">
			<acc value="0.0283682030889257" flag="0"/>
			<vel value="0.00973860452766927" flag="0"/>
			<psa03 value="0.0716387092545702" flag="0"/>
			<psa10 value="0.0106993415913708" flag="0"/>
			<psa30 value="0.00122581162067056" flag="0"/>
		</comp>
		<comp name="--.HNN" depth="0.0">
			<acc value="0.0233120276171982" flag="0"/>
			<vel value="0.0116990564353867" flag="0"/>
			<psa03 value="0.100551608967279" flag="0"/>
			<psa10 value="0.0109930610488433" flag="0"/>
			<psa30 value="0.0010977216770071" flag="0"/>
		</comp>
		<comp name="--.HNZ" depth="0.0">
			<acc value="0.013282791758881" flag="0"/>
			<vel value="0.00425846411733957" flag="0"/>
			<psa03 value="0.015387434706615" flag="0"/>
			<psa10 value="0.00738719389659118" flag="0"/>
			<psa30 value="0.00110592794979906" flag="0"/>
		</comp>
	</station>
	<station code="BRS" name="BRS" netid="IT" source="Italian Strong Motion Network (RAN)" insttype="" lat="42.3243" lon="13.5902" esm:processing="manual (Paolucci et al 2011)" esm:quality="good">
		<comp name="--.HGE" depth="0.0">
			<acc value="0.011199731569697" flag="0"/>
			<vel value="0.00364908560435655" flag="0"/>
			<psa03 value="0.0220767801866735" flag="0"/>
			<psa10 value="0.00332903318836068" flag="0"/>
			<psa30 value="0.000294325747636305" flag="0"/>
		</comp>
		<comp name="--.HGN" depth="0.0">
			<acc value="0.0085892035557915" flag="0"/>
			<vel value="0.00297811179019541" flag="0"/>
			<psa03 value="0.014537933118804" flag="0"/>
			<psa10 value="0.00419234553481672" flag="0"/>
			<psa30 value="0.000697790443942333" flag="0"/>
		</comp>
		<comp name="--.HGZ" depth="0.0">
			<acc value="0.00539325488536155" flag="0"/>
			<vel value="0.00148151178304151" flag="0"/>
			<psa03 value="0.00792001945408606" flag="0"/>
			<psa10 value="0.00275281407917263" flag="0"/>
			<psa30 value="0.000331381457603564" flag="0"/>
		</comp>
	</station>
	<station code="BVG" name="BVG" netid="IT" source="Italian Strong Motion Network (RAN)" insttype="" lat="42.9323" lon="12.611" esm:processing="automatic (Paolucci et al 2011)" esm:quality="best">
		<comp name="--.HGE" depth="0.0">
			<acc value="0.0380532204023765" flag="0"/>
			<vel value="0.0513049775229167" flag="0"/>
			<psa03 value="0.0881497561553954" flag="0"/>
			<psa10 value="0.0822230793754787" flag="0"/>
			<psa30 value="0.0135018894339112" flag="0"/>
		</comp>
		<comp name="--.HGN" depth="0.0">
			<acc value="0.0375016413929853" flag="0"/>
			<vel value="0.0457932506187919" flag="0"/>
			<psa03 value="0.057309827744826" flag="0"/>
			<psa10 value="0.0864131944500383" flag="0"/>
			<psa30 value="0.0173667637962032" flag="0"/>
		</comp>
		<comp name="--.HGZ" depth="0.0">
			<acc value="0.0269220551942952" flag="0"/>
			<vel value="0.0193983345683972" flag="0"/>
			<psa03 value="0.1007710610049" flag="0"/>
			<psa10 value="0.0450327581992214" flag="0"/>
			<psa30 value="0.00331485667631967" flag="0"/>
		</comp>
	</station>
	<station code="CLF" name="CLF" netid="IT" source="Italian Strong Motion Network (RAN)" insttype="" lat="43.0367" lon="12.9204" esm:processing="automatic (Paolucci et al 2011)" esm:quality="best">
		<comp name="--.HGE" depth="0.0">
			<acc value="0.0876205755969028" flag="0"/>
			<vel value="0.0959466111883842" flag="0"/>
			<psa03 value="0.37958460395044" flag="0"/>
			<psa10 value="0.226050694749128" flag="0"/>
			<psa30 value="0.00710782502519119" flag="0"/>
		</comp>
		<comp name="--.HGN" depth="0.0">
			<acc value="0.116139250734601" flag="0"/>
			<vel value="0.11423605664601" flag="0"/>
			<psa03 value="0.377247199108841" flag="0"/>
			<psa10 value="0.222987806847836" flag="0"/>
			<psa30 value="0.00914719178989732" flag="0"/>
		</comp>
		<comp name="--.HGZ" depth="0.0">
			<acc value="0.129931948496845" flag="0"/>
			<vel value="0.0814953148140889" flag="0"/>
			<psa03 value="0.415406143618307" flag="0"/>
			<psa10 value="0.0749498850620504" flag="0"/>
			<psa30 value="0.00470707932090386" flag="0"/>
		</comp>
	</station>
	<station code="CLZZ" name="CLZZ" netid="IT" source="Italian Strong Motion Network (RAN)" insttype="" lat="42.908" lon="12.4402" esm:processing="automatic (Paolucci et al 2011)" esm:quality="best">
		<comp name="--.HNE" depth="0.0">
			<acc value="0.0105109708912408" flag="0"/>
			<vel value="0.00707836006183362" flag="0"/>
			<psa03 value="0.0247459622152165" flag="0"/>
			<psa10 value="0.0104429042911582" flag="0"/>
			<psa30 value="0.00115740219304839" flag="0"/>
		</comp>
		<comp name="--.HNN" depth="0.0">
			<acc value="0.0111037488171116" flag="0"/>
			<vel value="0.00874102332339046" flag="0"/>
			<psa03 value="0.0258275911594924" flag="0"/>
			<psa10 value="0.0127943700642252" flag="0"/>
			<psa30 value="0.00116403909104364" flag="0"/>
		</comp>
		<comp name="--.HNZ" depth="0.0">
			<acc value="0.00600806718227934" flag="0"/>
			<vel value="0.00368409539939588" flag="0"/>
			<psa03 value="0.0111646705942168" flag="0"/>
			<psa10 value="0.00625998688090844" flag="0"/>
			<psa30 value="0.000569741909272007" flag="0"/>
		</comp>
	</station>
	<station code="CMNZ" name="CMNZ" netid="IT" source="Italian Strong Motion Network (RAN)" insttype="" lat="42.9508" lon="13.4079" esm:processing="manual (Paolucci et al 2011)" esm:quality="good">
		<comp name="--.HNE" depth="0.0">
			<acc value="0.198482960752795" flag="0"/>
			<vel value="0.0692317294161595" flag="0"/>
			<psa03 value="0.189305790579561" flag="0"/>
			<psa10 value="0.0360472642043427" flag="0"/>
			<psa30 value="0.00208144996917856" flag="0"/>
		</comp>
		<comp name="--.HNN" depth="0.0">
			<acc value="0.135751783192954" flag="0"/>
			<vel value="0.0489978152296329" flag="0"/>
			<psa03 value="0.225467915309517" flag="0"/>
			<psa10 value="0.0621838668759979" flag="0"/>
			<psa30 value="0.00412435030129953" flag="0"/>
		</comp>
		<comp name="--.HNZ" depth="0.0">
			<acc value="0.056977801737964" flag="0"/>
			<vel value="0.0201016943742892" flag="0"/>
			<psa03 value="0.05951990644336" flag="0"/>
			<psa10 value="0.0323074827121728" flag="0"/>
			<psa30 value="0.00135707239938629" flag="0"/>
		</comp>
	</station>
	<station code="CMRN" name="CMRN" netid="IT" source="Italian Strong Motion Network (RAN)" insttype="" lat="43.1392" lon="13.0718" esm:processing="automatic (Paolucci et al 2011)" esm:quality="best">
		<comp name="--.HNE" depth="0.0">
			<acc value="0.297227939131581" flag="0"/>
			<vel value="0.200308267624354" flag="0"/>
			<psa03 value="0.58195696845973" flag="0"/>
			<psa10 value="0.285346802825278" flag="0"/>
			<psa30 value="0.0177437354353908" flag="0"/>
		</comp>
		<comp name="--.HNN" depth="0.0">
			<acc value="0.317009096000418" flag="0"/>
			<vel value="0.187873345505532" flag="0"/>
			<psa03 value="0.671402643796745" flag="0"/>
			<psa10 value="0.183517072105372" flag="0"/>
			<psa30 value="0.0124947393818297" flag="0"/>
		</comp>
		<comp name="--.HNZ" depth="0.0">
			<acc value="0.169602835949915" flag="0"/>
			<vel value="0.0766557773821705" flag="0"/>
			<psa03 value="0.253268569466416" flag="0"/>
			<psa10 value="0.0797493105004313" flag="0"/>
			<psa30 value="0.00382948451788851" flag="0"/>
		</comp>
	</station>
	<station code="CNMT" name="CNMT" netid="IT" source="Italian Strong Motion Network (RAN)" insttype="" lat="42.4559" lon="13.2303" esm:processing="automatic (Paolucci et al 2011)" esm:quality="best">
		<comp name="--.HNE" depth="0.0">
			<acc value="0.0180451478060395" flag="0"/>
			<vel value="0.0161659756741762" flag="0"/>
			<psa03 value="0.0591716333719782" flag="0"/>
			<psa10 value="0.0184330185970175" flag="0"/>
			<psa30 value="0.00103990805547174" flag="0"/>
		</comp>
		<comp name="--.HNN" depth="0.0">
			<acc value="0.019840937033761" flag="0"/>
			<vel value="0.0136511767119142" flag="0"/>
			<psa03 value="0.0441675560921613" flag="0"/>
			<psa10 value="0.0306296403133483" flag="0"/>
			<psa30 value="0.00142158104776766" flag="0"/>
		</comp>
		<comp name="--.HNZ" depth="0.0">
			<acc value="0.0131468958604363" flag="0"/>
			<vel value="0.00651406052762262" flag="0"/>
			<psa03 value="0.0444076292874989" flag="0"/>
			<psa10 value="0.00825085032834118" flag="0"/>
			<psa30 value="0.000446920543792654" flag="0"/>
		</comp>
	</station>
	<station code="CNTN" name="CNTN" netid="IT" source="Italian Strong Motion Network (RAN)" insttype="" lat="43.4729" lon="12.6303" esm:processing="automatic (Paolucci et al 2011)" esm:quality="best">
		<comp name="--.HNE" depth="0.0">
			<acc value="0.0177627749005129" flag="0"/>
			<vel value="0.00475640952486712" flag="0"/>
			<psa03 value="0.0240679459457996" flag="0"/>
			<psa10 value="0.0037232724297756" flag="0"/>
			<psa30 value="0.000658145161386933" flag="0"/>
		</comp>
		<comp name="--.HNN" depth="0.0">
			<acc value="0.0168405190915951" flag="0"/>
			<vel value="0.00473314868010681" flag="0"/>
			<psa03 value="0.0188483254319737" flag="0"/>
			<psa10 value="0.003878657410768" flag="0"/>
			<psa30 value="0.000912173760368241" flag="0"/>
		</comp>
		<comp name="--.HNZ" depth="0.0">
			<acc value="0.00681640779307983" flag="0"/>
			<vel value="0.0033243980006704" flag="0"/>
