<stationlist created="1779846997">
	<station code="0REN" name="0REN" netid="IT" source="Italian Strong Motion Network (RAN)" insttype="" lat="43.5462" lon="12.264">
		<comp name="--.HNE" depth="0.0">
			<acc value="0.00122939992245825" flag="0"/>
			<vel value="0.00109853458438117" flag="0"/>
			<psa03 value="0.00511556576914714" flag="0"/>
			<psa10 value="0.00171493282463318" flag="0"/>
			<psa30 value="0.000374128143528383" flag="0"/>
		</comp>
		<comp name="--.HNN" depth="0.0">
			<acc value="0.00173486296536401" flag="0"/>
			<vel value="0.00185421919564355" flag="0"/>
			<psa03 value="0.00398800474563812" flag="0"/>
			<psa10 value="0.00176894964516994" flag="0"/>
			<psa30 value="0.00101659234425363" flag="0"/>
		</comp>
		<comp name="--.HNZ" depth="0.0">
			<acc value="0.0013108798877168" flag="0"/>
			<vel value="0.00143092512336892" flag="0"/>
			<psa03 value="0.00251611882896145" flag="0"/>
			<psa10 value="0.0017464333879534" flag="0"/>
			<psa30 value="0.000593674484270979" flag="0"/>
		</comp>
	</station>
	<station code="ACQT" name="ACQT" netid="IT" source="Italian Strong Motion Network (RAN)" insttype="" lat="42.7786" lon="13.4196">
		<comp name="--.HNE" depth="0.0">
			<acc value="0.17289570320678" flag="0"/>
			<vel value="0.0340090074989096" flag="0"/>
			<psa03 value="0.0904293550843034" flag="0"/>
			<psa10 value="0.0131222880371816" flag="0"/>
			<psa30 value="0.000712758154229682" flag="0"/>
		</comp>
		<comp name="--.HNN" depth="0.0">
			<acc value="0.17793108975345" flag="0"/>
			<vel value="0.0387126878971122" flag="0"/>
			<psa03 value="0.10688970591843" flag="0"/>
			<psa10 value="0.00903363030867319" flag="0"/>
			<psa30 value="0.00112040192946251" flag="0"/>
		</comp>
		<comp name="--.HNZ" depth="0.0">
			<acc value="0.0702970762390256" flag="0"/>
			<vel value="0.0115730007104989" flag="0"/>
			<psa03 value="0.031253322983431" flag="0"/>
			<psa10 value="0.00506019240041239" flag="0"/>
			<psa30 value="0.000752832163102763" flag="0"/>
		</comp>
	</station>
	<station code="AME" name="AME" netid="IT" source="Italian Strong Motion Network (RAN)" insttype="" lat="42.5597" lon="12.414">
		<comp name="--.HNE" depth="0.0">
			<acc value="0.00502217692793662" flag="0"/>
			<vel value="0.00376313058139087" flag="0"/>
			<psa03 value="0.015509944124346" flag="0"/>
			<psa10 value="0.00752914408134426" flag="0"/>
			<psa30 value="0.000371591829676704" flag="0"/>
		</comp>
		<comp name="--.HNN" depth="0.0">
			<acc value="0.00635937891856437" flag="0"/>
			<vel value="0.00479070550370301" flag="0"/>
			<psa03 value="0.0208141223230368" flag="0"/>
			<psa10 value="0.00552573839679987" flag="0"/>
			<psa30 value="0.000445838284598294" flag="0"/>
		</comp>
		<comp name="--.HNZ" depth="0.0">
			<acc value="0.00362070311536751" flag="0"/>
			<vel value="0.0027907246043169" flag="0"/>
			<psa03 value="0.00748407976792967" flag="0"/>
			<psa10 value="0.00440105295440898" flag="0"/>
			<psa30 value="0.000236339015674897" flag="0"/>
		</comp>
	</station>
	<station code="AMT" name="AMT" netid="IT" source="Italian Strong Motion Network (RAN)" insttype="" lat="42.6325" lon="13.2866">
		<comp name="--.HNE" depth="0.0">
			<acc value="0.0234535086436849" flag="0"/>
			<vel value="0.0197851836956282" flag="0"/>
			<psa03 value="0.0839496706286755" flag="0"/>
			<psa10 value="0.0224901592376735" flag="0"/>
			<psa30 value="0.00632066204617369" flag="0"/>
		</comp>
		<comp name="--.HNN" depth="0.0">
			<acc value="0.0146242976877059" flag="0"/>
			<vel value="0.00993470749253191" flag="0"/>
			<psa03 value="0.0579817316301609" flag="0"/>
			<psa10 value="0.0115536781869774" flag="0"/>
			<psa30 value="0.00284870912966577" flag="0"/>
		</comp>
		<comp name="--.HNZ" depth="0.0">
			<acc value="0.011047129377173" flag="0"/>
			<vel value="0.00773895493368943" flag="0"/>
			<psa03 value="0.0347240320675411" flag="0"/>
			<psa10 value="0.0167072949012921" flag="0"/>
			<psa30 value="0.00218820370775649" flag="0"/>
		</comp>
	</station>
	<station code="ANB" name="ANB" netid="IT" source="Italian Strong Motion Network (RAN)" insttype="" lat="43.5922" lon="13.5074">
		<comp name="--.HGE" depth="0.0">
			<acc value="0.0189443632390041" flag="0"/>
			<vel value="0.00786062084087514" flag="0"/>
			<psa03 value="0.0406857134580081" flag="0"/>
			<psa10 value="0.0110240924795233" flag="0"/>
			<psa30 value="0.00067157235295581" flag="0"/>
		</comp>
		<comp name="--.HGN" depth="0.0">
			<acc value="0.0148715247496105" flag="0"/>
			<vel value="0.00800695223964009" flag="0"/>
			<psa03 value="0.0608046061317427" flag="0"/>
			<psa10 value="0.0117578970279733" flag="0"/>
			<psa30 value="0.000635225257639128" flag="0"/>
		</comp>
		<comp name="--.HGZ" depth="0.0">
			<acc value="0.0227937169311022" flag="0"/>
			<vel value="0.00645565190793677" flag="0"/>
			<psa03 value="0.0244602740189423" flag="0"/>
			<psa10 value="0.00400219481326462" flag="0"/>
			<psa30 value="0.000403727838737923" flag="0"/>
		</comp>
	</station>
	<station code="ANT" name="ANT" netid="IT" source="Italian Strong Motion Network (RAN)" insttype="" lat="42.4182" lon="13.0786">
		<comp name="--.HNE" depth="0.0">
			<acc value="0.00579046192783834" flag="0"/>
			<vel value="0.00610747936489403" flag="0"/>
			<psa03 value="0.021190349069129" flag="0"/>
			<psa10 value="0.014920552788396" flag="0"/>
			<psa30 value="0.000983442023207554" flag="0"/>
		</comp>
		<comp name="--.HNN" depth="0.0">
			<acc value="0.00623780330969258" flag="0"/>
			<vel value="0.00594840577743409" flag="0"/>
			<psa03 value="0.0131238824136346" flag="0"/>
			<psa10 value="0.0116796537197382" flag="0"/>
			<psa30 value="0.00133546086356144" flag="0"/>
		</comp>
		<comp name="--.HNZ" depth="0.0">
			<acc value="0.00356810577386946" flag="0"/>
			<vel value="0.00322325162034391" flag="0"/>
			<psa03 value="0.0175210916759178" flag="0"/>
			<psa10 value="0.00660004206414542" flag="0"/>
			<psa30 value="0.000668595749520441" flag="0"/>
		</comp>
	</station>
	<station code="APNO" name="APNO" netid="IT" source="Italian Strong Motion Network (RAN)" insttype="" lat="43.3638" lon="13.3451">
		<comp name="--.HNE" depth="0.0">
			<acc value="0.0735960015789987" flag="0"/>
			<vel value="0.0281593740112398" flag="0"/>
			<psa03 value="0.0983202319828382" flag="0"/>
			<psa10 value="0.0518191177622367" flag="0"/>
			<psa30 value="0.00478175635122396" flag="0"/>
		</comp>
		<comp name="--.HNN" depth="0.0">
			<acc value="0.0854547899874859" flag="0"/>
			<vel value="0.0245390049021545" flag="0"/>
			<psa03 value="0.143468149894159" flag="0"/>
			<psa10 value="0.049956496872744" flag="0"/>
			<psa30 value="0.00412015293991161" flag="0"/>
		</comp>
		<comp name="--.HNZ" depth="0.0">
			<acc value="0.031331619991822" flag="0"/>
			<vel value="0.0107594038835814" flag="0"/>
			<psa03 value="0.0359683775201537" flag="0"/>
			<psa10 value="0.0209238060994654" flag="0"/>
			<psa30 value="0.00156884528246714" flag="0"/>
		</comp>
	</station>
	<station code="AQA" name="AQA" netid="IT" source="Italian Strong Motion Network (RAN)" insttype="" lat="42.3755" lon="13.3393">
		<comp name="--.HNE" depth="0.0">
			<acc value="0.00582737282145393" flag="0"/>
			<vel value="0.00323391416756767" flag="0"/>
			<psa03 value="0.00783153703005972" flag="0"/>
			<psa10 value="0.00544022523197238" flag="0"/>
			<psa30 value="0.00155920245617722" flag="0"/>
		</comp>
		<comp name="--.HNN" depth="0.0">
			<acc value="0.00586171203513727" flag="0"/>
			<vel value="0.00436563636913089" flag="0"/>
			<psa03 value="0.0235769681084274" flag="0"/>
			<psa10 value="0.00627475442168554" flag="0"/>
			<psa30 value="0.00243472858048609" flag="0"/>
		</comp>
		<comp name="--.HNZ" depth="0.0">
			<acc value="0.00232103596441084" flag="0"/>
			<vel value="0.00179133379962237" flag="0"/>
			<psa03 value="0.00690860023898518" flag="0"/>
			<psa10 value="0.00405101320349339" flag="0"/>
			<psa30 value="0.000642626425013477" flag="0"/>
		</comp>
	</station>
	<station code="AQF" name="AQF" netid="IT" source="Italian Strong Motion Network (RAN)" insttype="" lat="42.3807" lon="13.3547">
		<comp name="--.HNE" depth="0.0">
			<acc value="0.0106612177470465" flag="0"/>
			<vel value="0.0043603950523216" flag="0"/>
			<psa03 value="0.0295737924519426" flag="0"/>
			<psa10 value="0.00400319566081586" flag="0"/>
			<psa30 value="0.00157061008687677" flag="0"/>
		</comp>
		<comp name="--.HNN" depth="0.0">
			<acc value="0.007884564212654" flag="0"/>
			<vel value="0.00375466484113295" flag="0"/>
			<psa03 value="0.0319230053674356" flag="0"/>
			<psa10 value="0.00325895463975076" flag="0"/>
			<psa30 value="0.00232052205653105" flag="0"/>
		</comp>
		<comp name="--.HNZ" depth="0.0">
			<acc value="0.00620023018369533" flag="0"/>
			<vel value="0.00215285197823766" flag="0"/>
			<psa03 value="0.0125202030999261" flag="0"/>
			<psa10 value="0.0024057203827937" flag="0"/>
			<psa30 value="0.000508111368217796" flag="0"/>
		</comp>
	</station>
	<station code="AQG" name="AQG" netid="IT" source="Italian Strong Motion Network (RAN)" insttype="" lat="42.3737" lon="13.337">
		<comp name="--.HNE" depth="0.0">
			<acc value="0.0102691957025935" flag="0"/>
			<vel value="0.005497222312839" flag="0"/>
			<psa03 value="0.0149636566333975" flag="0"/>
			<psa10 value="0.00522853495853068" flag="0"/>
			<psa30 value="0.00242071911076081" flag="0"/>
		</comp>
		<comp name="--.HNN" depth="0.0">
			<acc value="0.00853746966333254" flag="0"/>
			<vel value="0.00581007826300371" flag="0"/>
			<psa03 value="0.0298283848382721" flag="0"/>
			<psa10 value="0.00721100441240255" flag="0"/>
			<psa30 value="0.00211540576024974" flag="0"/>
		</comp>
		<comp name="--.HNZ" depth="0.0">
			<acc value="0.00275469886817431" flag="0"/>
			<vel value="0.00196973501219015" flag="0"/>
			<psa03 value="0.00664556328282775" flag="0"/>
			<psa10 value="0.00359418090934592" flag="0"/>
			<psa30 value="0.000739100420108848" flag="0"/>
		</comp>
	</station>
	<station code="AQK" name="AQK" netid="IT" source="Italian Strong Motion Network (RAN)" insttype="" lat="42.345" lon="13.4009">
		<comp name="--.HNE" depth="0.0">
			<acc value="0.006515797049887" flag="0"/>
			<vel value="0.00765215017022486" flag="0"/>
			<psa03 value="0.0131949509236579" flag="0"/>
			<psa10 value="0.0135905440568448" flag="0"/>
			<psa30 value="0.0026835877745197" flag="0"/>
		</comp>
		<comp name="--.HNN" depth="0.0">
			<acc value="0.00659895170108167" flag="0"/>
			<vel value="0.00851908703460558" flag="0"/>
			<psa03 value="0.0254913553438531" flag="0"/>
			<psa10 value="0.0211908275383252" flag="0"/>
			<psa30 value="0.00171377634177186" flag="0"/>
		</comp>
		<comp name="--.HNZ" depth="0.0">
			<acc value="0.00531273270717204" flag="0"/>
			<vel value="0.00781946621222069" flag="0"/>
			<psa03 value="0.0181193787053306" flag="0"/>
			<psa10 value="0.0145722250258912" flag="0"/>
			<psa30 value="0.000701527931115849" flag="0"/>
		</comp>
	</station>
	<station code="AQP" name="AQP" netid="IT" source="Italian Strong Motion Network (RAN)" insttype="" lat="42.3837" lon="13.3686">
		<comp name="--.HNE" depth="0.0">
			<acc value="0.00682800782631777" flag="0"/>
			<vel value="0.00376255452919129" flag="0"/>
			<psa03 value="0.018426348259307" flag="0"/>
			<psa10 value="0.00677485239447188" flag="0"/>
			<psa30 value="0.00249868302548754" flag="0"/>
		</comp>
		<comp name="--.HNN" depth="0.0">
			<acc value="0.00863164233117729" flag="0"/>
			<vel value="0.00685509040135989" flag="0"/>
			<psa03 value="0.0301214927969025" flag="0"/>
			<psa10 value="0.0105399354064934" flag="0"/>
			<psa30 value="0.00150007426839163" flag="0"/>
		</comp>
		<comp name="--.HNZ" depth="0.0">
			<acc value="0.00435735723658341" flag="0"/>
			<vel value="0.00296053810451429" flag="0"/>
			<psa03 value="0.0106662143968567" flag="0"/>
			<psa10 value="0.00411693132024511" flag="0"/>
			<psa30 value="0.000775388501099455" flag="0"/>
		</comp>
	</station>
	<station code="AQV" name="AQV" netid="IT" source="Italian Strong Motion Network (RAN)" insttype="" lat="42.3771" lon="13.3439">
		<comp name="--.HNE" depth="0.0">
			<acc value="0.00977764266412584" flag="0"/>
			<vel value="0.00548918053999299" flag="0"/>
			<psa03 value="0.0341633543003907" flag="0"/>
			<psa10 value="0.00639761209165322" flag="0"/>
			<psa30 value="0.00271225259008971" flag="0"/>
		</comp>
		<comp name="--.HNN" depth="0.0">
			<acc value="0.00779390297270479" flag="0"/>
			<vel value="0.00415300018768412" flag="0"/>
			<psa03 value="0.0204461721668948" flag="0"/>
			<psa10 value="0.00517350381298737" flag="0"/>
			<psa30 value="0.00154910282879314" flag="0"/>
		</comp>
		<comp name="--.HNZ" depth="0.0">
			<acc value="0.00440080105384012" flag="0"/>
			<vel value="0.00284230593942088" flag="0"/>
			<psa03 value="0.00894578271836813" flag="0"/>
			<psa10 value="0.0057531919019783" flag="0"/>
			<psa30 value="0.000648531399522391" flag="0"/>
		</comp>
	</station>
	<station code="ARCV" name="ARCV" netid="IT" source="Italian Strong Motion Network (RAN)" insttype="" lat="43.495" lon="12.9396">
		<comp name="--.HNE" depth="0.0">
			<acc value="0.0285677348765846" flag="0"/>
			<vel value="0.00852391475756318" flag="0"/>
			<psa03 value="0.0329442553118991" flag="0"/>
			<psa10 value="0.00633721199669336" flag="0"/>
			<psa30 value="0.00123111551369411" flag="0"/>
		</comp>
		<comp name="--.HNN" depth="0.0">
			<acc value="0.0368472182524162" flag="0"/>
			<vel value="0.00832981725004231" flag="0"/>
			<psa03 value="0.0374507126967509" flag="0"/>
			<psa10 value="0.00831432609579925" flag="0"/>
			<psa30 value="0.000422958878324914" flag="0"/>
		</comp>
		<comp name="--.HNZ" depth="0.0">
			<acc value="0.0189026217146286" flag="0"/>
			<vel value="0.00533029369509371" flag="0"/>
			<psa03 value="0.0145836952649049" flag="0"/>
			<psa10 value="0.00368996858293419" flag="0"/>
			<psa30 value="0.00051742750619955" flag="0"/>
		</comp>
	</station>
	<station code="ASP" name="ASP" netid="IT" source="Italian Strong Motion Network (RAN)" insttype="" lat="42.848" lon="13.6479">
		<comp name="--.HGE" depth="0.0">
			<acc value="0.0305016641635458" flag="0"/>
			<vel value="0.0104904106436369" flag="0"/>
			<psa03 value="0.0647800517771729" flag="0"/>
			<psa10 value="0.00714190514741536" flag="0"/>
			<psa30 value="0.00050212362780938" flag="0"/>
		</comp>
		<comp name="--.HGN" depth="0.0">
			<acc value="0.0375689085125556" flag="0"/>
			<vel value="0.0126405087287369" flag="0"/>
			<psa03 value="0.0605040810150953" flag="0"/>
			<psa10 value="0.0097886153227251" flag="0"/>
			<psa30 value="0.000762591455441318" flag="0"/>
		</comp>
		<comp name="--.HGZ" depth="0.0">
			<acc value="0.0185140313337958" flag="0"/>
			<vel value="0.00635958457466042" flag="0"/>
			<psa03 value="0.0243930872764837" flag="0"/>
			<psa10 value="0.00889761536085042" flag="0"/>
			<psa30 value="0.000475529001462571" flag="0"/>
		</comp>
	</station>
	<station code="ASS" name="ASS" netid="IT" source="Italian Strong Motion Network (RAN)" insttype="" lat="43.075" lon="12.6041">
		<comp name="--.HNE" depth="0.0">
			<acc value="0.0373432178594526" flag="0"/>
			<vel value="0.0173431713874205" flag="0"/>
			<psa03 value="0.131712548226575" flag="0"/>
			<psa10 value="0.0101137984270098" flag="0"/>
			<psa30 value="0.000934641394572075" flag="0"/>
		</comp>
		<comp name="--.HNN" depth="0.0">
			<acc value="0.0268899654330008" flag="0"/>
			<vel value="0.0171442639251654" flag="0"/>
			<psa03 value="0.101044027004224" flag="0"/>
			<psa10 value="0.0111451842512589" flag="0"/>
			<psa30 value="0.00133252566911922" flag="0"/>
		</comp>
		<comp name="--.HNZ" depth="0.0">
			<acc value="0.0151815424683232" flag="0"/>
			<vel value="0.0081706825412546" flag="0"/>
			<psa03 value="0.0255529453613895" flag="0"/>
			<psa10 value="0.00955121709625768" flag="0"/>
			<psa30 value="0.000913002356925363" flag="0"/>
		</comp>
	</station>
	<station code="AVZ" name="AVZ" netid="IT" source="Italian Strong Motion Network (RAN)" insttype="" lat="42.0274" lon="13.4259">
		<comp name="--.HNE" depth="0.0">
			<acc value="0.00427737378307147" flag="0"/>
			<vel value="0.00557230610982546" flag="0"/>
			<psa03 value="0.0116128643473534" flag="0"/>
			<psa10 value="0.0129086588852987" flag="0"/>
			<psa30 value="0.000449461805888796" flag="0"/>
		</comp>
		<comp name="--.HNN" depth="0.0">
			<acc value="0.00528049902696865" flag="0"/>
			<vel value="0.00654667891189884" flag="0"/>
			<psa03 value="0.0137637542290853" flag="0"/>
			<psa10 value="0.0157052472705543" flag="0"/>
			<psa30 value="0.000529268446853756" flag="0"/>
		</comp>
		<comp name="--.HNZ" depth="0.0">
			<acc value="0.00271534421795875" flag="0"/>
			<vel value="0.00243638320973529" flag="0"/>
			<psa03 value="0.00828906473485806" flag="0"/>
			<psa10 value="0.00488532112854885" flag="0"/>
			<psa30 value="0.000250430522084705" flag="0"/>
		</comp>
	</station>
	<station code="BDT" name="BDT" netid="IT" source="Italian Strong Motion Network (RAN)" insttype="" lat="43.7068" lon="12.188">
		<comp name="--.HNE" depth="0.0">
			<acc value="0.00462499312343063" flag="0"/>
			<vel value="0.00288494055730471" flag="0"/>
			<psa03 value="0.0140894919534443" flag="0"/>
			<psa10 value="0.00619010850180877" flag="0"/>
			<psa30 value="0.000597676624393121" flag="0"/>
		</comp>
		<comp name="--.HNN" depth="0.0">
			<acc value="0.00499185378232161" flag="0"/>
			<vel value="0.00382620833364154" flag="0"/>
			<psa03 value="0.0140723736319395" flag="0"/>
			<psa10 value="0.00537349706155857" flag="0"/>
			<psa30 value="0.000392228717602582" flag="0"/>
		</comp>
		<comp name="--.HNZ" depth="0.0">
			<acc value="0.00266219097061699" flag="0"/>
			<vel value="0.00193036661933135" flag="0"/>
			<psa03 value="0.00565527762917994" flag="0"/>
			<psa10 value="0.00239731701361173" flag="0"/>
			<psa30 value="0.000407503401350416" flag="0"/>
		</comp>
	</station>
	<station code="BOR" name="BOR" netid="IT" source="Italian Strong Motion Network (RAN)" insttype="" lat="42.5075" lon="13.1406">
		<comp name="--.HNE" depth="0.0">
			<acc value="0.0283682030889257" flag="0"/>
			<vel value="0.00973860452766927" flag="0"/>
			<psa03 value="0.0716387092545702" flag="0"/>
			<psa10 value="0.0106993415913708" flag="0"/>
			<psa30 value="0.00122581162067056" flag="0"/>
		</comp>
		<comp name="--.HNN" depth="0.0">
			<acc value="0.0233120276171982" flag="0"/>
			<vel value="0.0116990564353867" flag="0"/>
			<psa03 value="0.100551608967279" flag="0"/>
			<psa10 value="0.0109930610488433" flag="0"/>
			<psa30 value="0.0010977216770071" flag="0"/>
		</comp>
		<comp name="--.HNZ" depth="0.0">
			<acc value="0.013282791758881" flag="0"/>
			<vel value="0.00425846411733957" flag="0"/>
			<psa03 value="0.015387434706615" flag="0"/>
			<psa10 value="0.00738719389659118" flag="0"/>
			<psa30 value="0.00110592794979906" flag="0"/>
		</comp>
	</station>
	<station code="BRS" name="BRS" netid="IT" source="Italian Strong Motion Network (RAN)" insttype="" lat="42.3243" lon="13.5902">
		<comp name="--.HGE" depth="0.0">
			<acc value="0.011199731569697" flag="0"/>
			<vel value="0.00364908560435655" flag="0"/>
			<psa03 value="0.0220767801866735" flag="0"/>
			<psa10 value="0.00332903318836068" flag="0"/>
			<psa30 value="0.000294325747636305" flag="0"/>
		</comp>
		<comp name="--.HGN" depth="0.0">
			<acc value="0.0085892035557915" flag="0"/>
			<vel value="0.00297811179019541" flag="0"/>
			<psa03 value="0.014537933118804" flag="0"/>
			<psa10 value="0.00419234553481672" flag="0"/>
			<psa30 value="0.000697790443942333" flag="0"/>
		</comp>
		<comp name="--.HGZ" depth="0.0">
			<acc value="0.00539325488536155" flag="0"/>
			<vel value="0.00148151178304151" flag="0"/>
			<psa03 value="0.00792001945408606" flag="0"/>
			<psa10 value="0.00275281407917263" flag="0"/>
			<psa30 value="0.000331381457603564" flag="0"/>
		</comp>
	</station>
