<?xml version="1.0" encoding="UTF-8" standalone="yes"?>
<!DOCTYPE earthquake SYSTEM "stationlist.dtd">
<stationlist created="" xmlns="ch.ethz.sed.shakemap.usgs.xml">
  <station code="AOI" name="AOI" netid="IV" insttype="" commtype="DIG" lat="43.5502" lon="13.602">
    <comp name="--.HHE">
      <acc value="0.0065692550" flag="0"/>
      <vel value="0.0025905839" flag="0"/>
      <psa03 value="0.0136281743" flag="0"/>
      <psa10 value="0.0021889514" flag="0"/>
      <psa30 value="0.0002284130" flag="0"/>
    </comp>
    <comp name="--.HHN">
      <acc value="0.0056300069" flag="0"/>
      <vel value="0.0023163674" flag="0"/>
      <psa03 value="0.0100073009" flag="0"/>
      <psa10 value="0.0021366281" flag="0"/>
      <psa30 value="0.0004739668" flag="0"/>
    </comp>
    <comp name="--.HHZ">
      <acc value="0.0034850972" flag="0"/>
      <vel value="0.0015423987" flag="0"/>
      <psa03 value="0.0088024519" flag="0"/>
      <psa10 value="0.0015257897" flag="0"/>
      <psa30 value="0.0002497382" flag="0"/>
    </comp>
  </station>
  <station code="APEC" name="APEC" netid="IV" insttype="" commtype="DIG" lat="43.5585" lon="12.4199">
    <comp name="--.HHE">
      <acc value="0.0044980089" flag="0"/>
      <vel value="0.0025170766" flag="0"/>
      <psa03 value="0.0176517159" flag="0"/>
      <psa10 value="0.0046514038" flag="0"/>
      <psa30 value="0.0004347199" flag="0"/>
    </comp>
    <comp name="--.HHN">
      <acc value="0.0038061035" flag="0"/>
      <vel value="0.0029862775" flag="0"/>
      <psa03 value="0.0144053945" flag="0"/>
      <psa10 value="0.0043592699" flag="0"/>
      <psa30 value="0.0008517229" flag="0"/>
    </comp>
    <comp name="--.HHZ">
      <acc value="0.0029174662" flag="0"/>
      <vel value="0.0020799311" flag="0"/>
      <psa03 value="0.0082742908" flag="0"/>
      <psa10 value="0.0042201261" flag="0"/>
      <psa30 value="0.0004436738" flag="0"/>
    </comp>
  </station>
  <station code="ARVD" name="ARVD" netid="IV" insttype="" commtype="DIG" lat="43.4981" lon="12.9415">
    <comp name="--.HHE">
      <acc value="0.0200307801" flag="0"/>
      <vel value="0.0084712564" flag="0"/>
      <psa03 value="0.0302219704" flag="0"/>
      <psa10 value="0.0055230792" flag="0"/>
      <psa30 value="0.0011051869" flag="0"/>
    </comp>
    <comp name="--.HHN">
      <acc value="0.0100712635" flag="0"/>
      <vel value="0.0042670021" flag="0"/>
      <psa03 value="0.0136371615" flag="0"/>
      <psa10 value="0.0067759390" flag="0"/>
      <psa30 value="0.0004040595" flag="0"/>
    </comp>
    <comp name="--.HHZ">
      <acc value="0.0118326534" flag="0"/>
      <vel value="0.0034509756" flag="0"/>
      <psa03 value="0.0169679000" flag="0"/>
      <psa10 value="0.0035595067" flag="0"/>
      <psa30 value="0.0005578791" flag="0"/>
    </comp>
  </station>
  <station code="ASSB" name="ASSB" netid="IV" insttype="" commtype="DIG" lat="43.0426" lon="12.6587">
    <comp name="--.HHE">
      <acc value="0.0265229565" flag="0"/>
      <vel value="0.0148504655" flag="0"/>
      <psa03 value="0.0696100353" flag="0"/>
      <psa10 value="0.0168456693" flag="0"/>
      <psa30 value="0.0012623067" flag="0"/>
    </comp>
    <comp name="--.HHN">
      <acc value="0.0333041349" flag="0"/>
      <vel value="0.0171885197" flag="0"/>
      <psa03 value="0.1009633548" flag="0"/>
      <psa10 value="0.0139541082" flag="0"/>
      <psa30 value="0.0023792168" flag="0"/>
    </comp>
    <comp name="--.HHZ">
      <acc value="0.0166982259" flag="0"/>
      <vel value="0.0082391220" flag="0"/>
      <psa03 value="0.0380078423" flag="0"/>
      <psa10 value="0.0073947147" flag="0"/>
      <psa30 value="0.0011840671" flag="0"/>
    </comp>
  </station>
  <station code="ATCC" name="ATCC" netid="IV" insttype="" commtype="DIG" lat="43.1851" lon="12.6399">
    <comp name="--.HHE">
      <acc value="0.0892895306" flag="0"/>
      <vel value="0.0224084447" flag="0"/>
      <psa03 value="0.1123395912" flag="0"/>
      <psa10 value="0.0170723671" flag="0"/>
      <psa30 value="0.0011390859" flag="0"/>
    </comp>
    <comp name="--.HHN">
      <acc value="0.0318432400" flag="0"/>
      <vel value="0.0117521475" flag="0"/>
      <psa03 value="0.0613785751" flag="0"/>
      <psa10 value="0.0135254657" flag="0"/>
      <psa30 value="0.0021447261" flag="0"/>
    </comp>
    <comp name="--.HHZ">
      <acc value="0.0395177132" flag="0"/>
      <vel value="0.0099509547" flag="0"/>
      <psa03 value="0.0476627929" flag="0"/>
      <psa10 value="0.0084209793" flag="0"/>
      <psa30 value="0.0011383777" flag="0"/>
    </comp>
  </station>
  <station code="ATFO" name="ATFO" netid="IV" insttype="" commtype="DIG" lat="43.3666" lon="12.5715">
    <comp name="--.HHE">
      <acc value="0.0067371271" flag="0"/>
      <vel value="0.0032392477" flag="0"/>
      <psa03 value="0.0125997228" flag="0"/>
      <psa10 value="0.0062033873" flag="0"/>
      <psa30 value="0.0008327924" flag="0"/>
    </comp>
    <comp name="--.HHN">
      <acc value="0.0073156283" flag="0"/>
      <vel value="0.0042708542" flag="0"/>
      <psa03 value="0.0148519529" flag="0"/>
      <psa10 value="0.0062268765" flag="0"/>
      <psa30 value="0.0009681046" flag="0"/>
    </comp>
    <comp name="--.HHZ">
      <acc value="0.0040565373" flag="0"/>
      <vel value="0.0021007050" flag="0"/>
      <psa03 value="0.0074499120" flag="0"/>
      <psa10 value="0.0052493120" flag="0"/>
      <psa30 value="0.0005304593" flag="0"/>
    </comp>
  </station>
  <station code="ATMI" name="ATMI" netid="IV" insttype="" commtype="DIG" lat="43.3342" lon="12.268">
    <comp name="--.HHE">
      <acc value="0.0075832648" flag="0"/>
      <vel value="0.0066280333" flag="0"/>
      <psa03 value="0.0270693837" flag="0"/>
      <psa10 value="0.0071164813" flag="0"/>
      <psa30 value="0.0004266284" flag="0"/>
    </comp>
    <comp name="--.HHN">
      <acc value="0.0053932778" flag="0"/>
      <vel value="0.0032417954" flag="0"/>
      <psa03 value="0.0134636375" flag="0"/>
      <psa10 value="0.0057244198" flag="0"/>
      <psa30 value="0.0007372534" flag="0"/>
    </comp>
    <comp name="--.HHZ">
      <acc value="0.0034066380" flag="0"/>
      <vel value="0.0020567544" flag="0"/>
      <psa03 value="0.0093480926" flag="0"/>
      <psa10 value="0.0022654885" flag="0"/>
      <psa30 value="0.0003366805" flag="0"/>
    </comp>
  </station>
  <station code="ATPC" name="ATPC" netid="IV" insttype="" commtype="DIG" lat="43.4807" lon="12.457">
    <comp name="--.HHN">
      <acc value="0.0064007457" flag="0"/>
      <vel value="0.0050776652" flag="0"/>
      <psa03 value="0.0178626476" flag="0"/>
      <psa10 value="0.0067234440" flag="0"/>
      <psa30 value="0.0013599971" flag="0"/>
    </comp>
    <comp name="--.HHE">
      <acc value="0.0068086920" flag="0"/>
      <vel value="0.0049447993" flag="0"/>
      <psa03 value="0.0225400093" flag="0"/>
      <psa10 value="0.0085102321" flag="0"/>
      <psa30 value="0.0009325183" flag="0"/>
    </comp>
    <comp name="--.HHZ">
      <acc value="0.0026375256" flag="0"/>
      <vel value="0.0022086795" flag="0"/>
      <psa03 value="0.0116692639" flag="0"/>
      <psa10 value="0.0032101666" flag="0"/>
      <psa30 value="0.0005505093" flag="0"/>
    </comp>
  </station>
  <station code="ATVO" name="ATVO" netid="IV" insttype="" commtype="DIG" lat="43.3821" lon="12.4066">
    <comp name="--.HHE">
      <acc value="0.0016969354" flag="0"/>
      <vel value="0.0011012868" flag="0"/>
      <psa03 value="0.0069979807" flag="0"/>
      <psa10 value="0.0017382562" flag="0"/>
      <psa30 value="0.0002593163" flag="0"/>
    </comp>
    <comp name="--.HHN">
      <acc value="0.0020880041" flag="0"/>
      <vel value="0.0010786487" flag="0"/>
      <psa03 value="0.0063775429" flag="0"/>
      <psa10 value="0.0015969015" flag="0"/>
      <psa30 value="0.0002594161" flag="0"/>
    </comp>
    <comp name="--.HHZ">
      <acc value="0.0013946273" flag="0"/>
      <vel value="0.0006629885" flag="0"/>
      <psa03 value="0.0028376997" flag="0"/>
      <psa10 value="0.0010754635" flag="0"/>
      <psa30 value="0.0001917797" flag="0"/>
    </comp>
  </station>
  <station code="CAFI" name="CAFI" netid="IV" insttype="" commtype="DIG" lat="43.3292" lon="11.9663">
    <comp name="--.HHE">
      <acc value="0.0019781314" flag="0"/>
      <vel value="0.0015176361" flag="0"/>
      <psa03 value="0.0038787142" flag="0"/>
      <psa10 value="0.0026698737" flag="0"/>
      <psa30 value="0.0001830812" flag="0"/>
    </comp>
    <comp name="--.HHZ">
      <acc value="0.0015968689" flag="0"/>
      <vel value="0.0013685277" flag="0"/>
      <psa03 value="0.0032991927" flag="0"/>
      <psa10 value="0.0017111996" flag="0"/>
      <psa30 value="0.0001561526" flag="0"/>
    </comp>
    <comp name="--.HHN">
      <acc value="0.0012367108" flag="0"/>
      <vel value="0.0011397267" flag="0"/>
      <psa03 value="0.0033866703" flag="0"/>
      <psa10 value="0.0015142934" flag="0"/>
      <psa30 value="0.0002225321" flag="0"/>
    </comp>
  </station>
  <station code="CAMP" name="CAMP" netid="IV" insttype="" commtype="DIG" lat="42.5358" lon="13.409">
    <comp name="--.HHE">
      <acc value="0.0099201655" flag="0"/>
      <vel value="0.0044408452" flag="0"/>
      <psa03 value="0.0202196205" flag="0"/>
      <psa10 value="0.0096132677" flag="0"/>
      <psa30 value="0.0012939439" flag="0"/>
    </comp>
    <comp name="--.HHN">
      <acc value="0.0103479112" flag="0"/>
      <vel value="0.0044018131" flag="0"/>
      <psa03 value="0.0209762885" flag="0"/>
      <psa10 value="0.0041388505" flag="0"/>
      <psa30 value="0.0006390050" flag="0"/>
    </comp>
    <comp name="--.HHZ">
      <acc value="0.0049149628" flag="0"/>
      <vel value="0.0023403181" flag="0"/>
      <psa03 value="0.0134468650" flag="0"/>
      <psa10 value="0.0031846644" flag="0"/>
      <psa30 value="0.0006533509" flag="0"/>
    </comp>
  </station>
  <station code="CERT" name="CERT" netid="IV" insttype="" commtype="DIG" lat="41.949" lon="12.9818">
    <comp name="--.HHE">
      <acc value="0.0026623422" flag="0"/>
      <vel value="0.0031533009" flag="0"/>
      <psa03 value="0.0071922396" flag="0"/>
      <psa10 value="0.0038531834" flag="0"/>
      <psa30 value="0.0003695861" flag="0"/>
    </comp>
    <comp name="--.HHN">
      <acc value="0.0017018204" flag="0"/>
      <vel value="0.0014859834" flag="0"/>
      <psa03 value="0.0050008768" flag="0"/>
      <psa10 value="0.0027010551" flag="0"/>
      <psa30 value="0.0003553228" flag="0"/>
    </comp>
    <comp name="--.HHZ">
      <acc value="0.0010554550" flag="0"/>
      <vel value="0.0012673366" flag="0"/>
      <psa03 value="0.0026455354" flag="0"/>
      <psa10 value="0.0021364408" flag="0"/>
      <psa30 value="0.0003623302" flag="0"/>
    </comp>
  </station>
  <station code="CESI" name="CESI" netid="IV" insttype="" commtype="DIG" lat="43.0049" lon="12.9046">
    <comp name="--.HHN">
      <acc value="0.1341303693" flag="0"/>
      <vel value="0.0856843243" flag="0"/>
      <psa03 value="0.3470278596" flag="0"/>
      <psa10 value="0.0778477647" flag="0"/>
      <psa30 value="0.0100666439" flag="0"/>
    </comp>
    <comp name="--.HHE">
      <acc value="0.0896210925" flag="0"/>
      <vel value="0.0351475450" flag="0"/>
      <psa03 value="0.1889230764" flag="0"/>
      <psa10 value="0.0556443834" flag="0"/>
      <psa30 value="0.0025959046" flag="0"/>
    </comp>
    <comp name="--.HHZ">
      <acc value="0.0737442039" flag="0"/>
      <vel value="0.0310795133" flag="0"/>
      <psa03 value="0.0776330434" flag="0"/>
      <psa10 value="0.0277567811" flag="0"/>
      <psa30 value="0.0030003767" flag="0"/>
    </comp>
  </station>
  <station code="CESX" name="CESX" netid="IV" insttype="" commtype="DIG" lat="42.6085" lon="12.5868">
    <comp name="--.HHE">
      <acc value="0.0170850941" flag="0"/>
      <vel value="0.0090760418" flag="0"/>
      <psa03 value="0.0422303398" flag="0"/>
      <psa10 value="0.0116639166" flag="0"/>
      <psa30 value="0.0007135712" flag="0"/>
    </comp>
    <comp name="--.HHN">
      <acc value="0.0183402635" flag="0"/>
      <vel value="0.0130150131" flag="0"/>
      <psa03 value="0.0587868051" flag="0"/>
      <psa10 value="0.0106090624" flag="0"/>
      <psa30 value="0.0007649642" flag="0"/>
    </comp>
    <comp name="--.HHZ">
      <acc value="0.0062902507" flag="0"/>
      <vel value="0.0038956984" flag="0"/>
      <psa03 value="0.0195947633" flag="0"/>
      <psa10 value="0.0056192953" flag="0"/>
      <psa30 value="0.0005320741" flag="0"/>
    </comp>
  </station>
  <station code="CING" name="CING" netid="IV" insttype="" commtype="DIG" lat="43.3756" lon="13.1954">
    <comp name="--.HHN">
      <acc value="0.0084868961" flag="0"/>
      <vel value="0.0033592111" flag="0"/>
      <psa03 value="0.0130228565" flag="0"/>
      <psa10 value="0.0033994318" flag="0"/>
      <psa30 value="0.0002060728" flag="0"/>
    </comp>
    <comp name="--.HHE">
      <acc value="0.0169921148" flag="0"/>
      <vel value="0.0055054540" flag="0"/>
      <psa03 value="0.0139899256" flag="0"/>
      <psa10 value="0.0053369843" flag="0"/>
      <psa30 value="0.0008973930" flag="0"/>
    </comp>
    <comp name="--.HHZ">
      <acc value="0.0094119276" flag="0"/>
      <vel value="0.0033424674" flag="0"/>
      <psa03 value="0.0189092126" flag="0"/>
      <psa10 value="0.0048794577" flag="0"/>
      <psa30 value="0.0002903913" flag="0"/>
    </comp>
  </station>
  <station code="CRE" name="CRE" netid="IV" insttype="" commtype="DIG" lat="43.6189" lon="11.9517">
    <comp name="--.HHE">
      <acc value="0.0012283317" flag="0"/>
      <vel value="0.0008713318" flag="0"/>
      <psa03 value="0.0028620686" flag="0"/>
      <psa10 value="0.0011595020" flag="0"/>
      <psa30 value="0.0001554293" flag="0"/>
    </comp>
    <comp name="--.HHZ">
      <acc value="0.0006691899" flag="0"/>
      <vel value="0.0005927454" flag="0"/>
      <psa03 value="0.0022289831" flag="0"/>
      <psa10 value="0.0006349487" flag="0"/>
      <psa30 value="0.0001234427" flag="0"/>
    </comp>
    <comp name="--.HHN">
      <acc value="0.0015310566" flag="0"/>
      <vel value="0.0009795056" flag="0"/>
      <psa03 value="0.0037957359" flag="0"/>
      <psa10 value="0.0011039598" flag="0"/>
      <psa30 value="0.0002778381" flag="0"/>
    </comp>
  </station>
  <station code="CRTC" name="CRTC" netid="IV" insttype="" commtype="DIG" lat="43.7685" lon="12.883">
    <comp name="--.HHE">
      <acc value="0.0079859033" flag="0"/>
      <vel value="0.0063650712" flag="0"/>
      <psa03 value="0.0370097429" flag="0"/>
      <psa10 value="0.0074594837" flag="0"/>
      <psa30 value="0.0004625925" flag="0"/>
    </comp>
    <comp name="--.HHN">
      <acc value="0.0069552979" flag="0"/>
      <vel value="0.0064457951" flag="0"/>
      <psa03 value="0.0265951870" flag="0"/>
      <psa10 value="0.0074583767" flag="0"/>
      <psa30 value="0.0006870580" flag="0"/>
    </comp>
    <comp name="--.HHZ">
      <acc value="0.0054958880" flag="0"/>
      <vel value="0.0035692747" flag="0"/>
      <psa03 value="0.0179221834" flag="0"/>
      <psa10 value="0.0056805958" flag="0"/>
      <psa30 value="0.0003374474" flag="0"/>
    </comp>
  </station>
  <station code="FAGN" name="FAGN" netid="IV" insttype="" commtype="DIG" lat="42.2657" lon="13.5838">
    <comp name="--.HHE">
      <acc value="0.0070550690" flag="0"/>
      <vel value="0.0052366288" flag="0"/>
      <psa03 value="0.0242221741" flag="0"/>
      <psa10 value="0.0053050366" flag="0"/>
      <psa30 value="0.0005644699" flag="0"/>
    </comp>
    <comp name="--.HHN">
      <acc value="0.0067889518" flag="0"/>
      <vel value="0.0042817005" flag="0"/>
      <psa03 value="0.0219644178" flag="0"/>
      <psa10 value="0.0035025913" flag="0"/>
      <psa30 value="0.0004130843" flag="0"/>
    </comp>
    <comp name="--.HHZ">
      <acc value="0.0058265040" flag="0"/>
      <vel value="0.0027584516" flag="0"/>
      <psa03 value="0.0287298258" flag="0"/>
      <psa10 value="0.0018482058" flag="0"/>
      <psa30 value="0.0003523976" flag="0"/>
    </comp>
  </station>
  <station code="FDMO" name="FDMO" netid="IV" insttype="" commtype="DIG" lat="43.0365" lon="13.0873">
    <comp name="--.HHE">
      <acc value="0.6721517887" flag="0"/>
      <vel value="0.2254227922" flag="0"/>
      <psa03 value="0.6249564394" flag="0"/>
      <psa10 value="0.0833500854" flag="0"/>
      <psa30 value="0.0081901770" flag="0"/>
    </comp>
    <comp name="--.HHN">
      <acc value="0.6200699023" flag="0"/>
      <vel value="0.1794091246" flag="0"/>
      <psa03 value="0.6916664031" flag="0"/>
      <psa10 value="0.1381566783" flag="0"/>
      <psa30 value="0.0124573681" flag="0"/>
    </comp>
    <comp name="--.HHZ">
      <acc value="0.4912292689" flag="0"/>
      <vel value="0.2199746328" flag="0"/>
      <psa03 value="1.0116144544" flag="0"/>
      <psa10 value="0.1628409568" flag="0"/>
      <psa30 value="0.0071981776" flag="0"/>
    </comp>
  </station>
  <station code="FEMA" name="FEMA" netid="IV" insttype="" commtype="DIG" lat="42.9621" lon="13.0498">
    <comp name="--.HNE">
      <acc value="0.4356419580" flag="0"/>
      <vel value="0.2732005461" flag="0"/>
      <psa03 value="0.5133374483" flag="0"/>
      <psa10 value="0.5068334443" flag="0"/>
      <psa30 value="0.0210104383" flag="0"/>
    </comp>
    <comp name="--.HNN">
      <acc value="0.3025891639" flag="0"/>
      <vel value="0.1295328085" flag="0"/>
      <psa03 value="0.6130010272" flag="0"/>
      <psa10 value="0.1412426055" flag="0"/>
      <psa30 value="0.0069320939" flag="0"/>
    </comp>
    <comp name="--.HNZ">
      <acc value="0.2070608901" flag="0"/>
      <vel value="0.1072869578" flag="0"/>
      <psa03 value="0.2635686169" flag="0"/>
      <psa10 value="0.1799410848" flag="0"/>
      <psa30 value="0.0091717467" flag="0"/>
    </comp>
  </station>
  <station code="GAG1" name="GAG1" netid="IV" insttype="" commtype="DIG" lat="43.2381" lon="13.0674">
    <comp name="--.HNZ">
      <acc value="0.0708961608" flag="0"/>
      <vel value="0.0261609141" flag="0"/>
      <psa03 value="0.1294694156" flag="0"/>
      <psa10 value="0.0420774736" flag="0"/>
      <psa30 value="0.0022139759" flag="0"/>
    </comp>
    <comp name="--.HNN">
      <acc value="0.0775706650" flag="0"/>
      <vel value="0.0442148778" flag="0"/>
      <psa03 value="0.2153568460" flag="0"/>
      <psa10 value="0.0655387088" flag="0"/>
      <psa30 value="0.0036167151" flag="0"/>
    </comp>
    <comp name="--.HNE">
      <acc value="0.0915457328" flag="0"/>
      <vel value="0.0544604181" flag="0"/>
      <psa03 value="0.1734613295" flag="0"/>
      <psa10 value="0.0624045292" flag="0"/>
      <psa30 value="0.0081351510" flag="0"/>
    </comp>
  </station>
  <station code="GAVE" name="GAVE" netid="IV" insttype="" commtype="DIG" lat="42.6922" lon="12.8942">
    <comp name="--.HNZ">
      <acc value="0.0232145565" flag="0"/>
      <vel value="0.0118101512" flag="0"/>
      <psa03 value="0.0621799199" flag="0"/>
      <psa10 value="0.0111448904" flag="0"/>
      <psa30 value="0.0016387993" flag="0"/>
    </comp>
    <comp name="--.HNN">
      <acc value="0.0176145010" flag="0"/>
      <vel value="0.0070545990" flag="0"/>
      <psa03 value="0.0468037915" flag="0"/>
      <psa10 value="0.0064244588" flag="0"/>
      <psa30 value="0.0005050978" flag="0"/>
    </comp>
    <comp name="--.HNE">
      <acc value="0.0590320687" flag="0"/>
      <vel value="0.0282243262" flag="0"/>
      <psa03 value="0.2230974608" flag="0"/>
      <psa10 value="0.0236581187" flag="0"/>
      <psa30 value="0.0015573874" flag="0"/>
    </comp>
  </station>
  <station code="GUMA" name="GUMA" netid="IV" insttype="" commtype="DIG" lat="43.0627" lon="13.3352">
    <comp name="--.HHE">
      <acc value="0.2709392286" flag="0"/>
      <vel value="0.1907028042" flag="0"/>
      <psa03 value="0.6649220636" flag="0"/>
