<?xml version="1.0" encoding="UTF-8" standalone="yes"?>
<!DOCTYPE earthquake SYSTEM "stationlist.dtd">
<stationlist created="" xmlns="ch.ethz.sed.shakemap.usgs.xml">
  <station code="CORM" name="CORM" netid="KO" insttype="CMG-3ESP" lat="40.1785" lon="34.6302">
    <comp name="--.HHE">
      <acc value="0.0101849368" flag="0"/>
      <vel value="0.0064213774" flag="0"/>
      <psa03 value="0.0253455107" flag="0"/>
      <psa10 value="0.0104424551" flag="0"/>
      <psa30 value="0.0008106799" flag="0"/>
    </comp>
    <comp name="--.HHN">
      <acc value="0.0227464648" flag="0"/>
      <vel value="0.0164746080" flag="0"/>
      <psa03 value="0.0276669733" flag="0"/>
      <psa10 value="0.0159598884" flag="0"/>
      <psa30 value="0.0015502479" flag="0"/>
    </comp>
    <comp name="--.HHZ">
      <acc value="0.0087856745" flag="0"/>
      <vel value="0.0044669049" flag="0"/>
      <psa03 value="0.0137172028" flag="0"/>
      <psa10 value="0.0071427550" flag="0"/>
      <psa30 value="0.0007793000" flag="0"/>
    </comp>
  </station>
  <station code="DIKM" name="DIKM" netid="KO" insttype="CMG-3T" lat="41.6497" lon="35.2578">
    <comp name="--.HHE">
      <acc value="0.0038120493" flag="0"/>
      <vel value="0.0026941095" flag="0"/>
      <psa03 value="0.0134626995" flag="0"/>
      <psa10 value="0.0035554824" flag="0"/>
      <psa30 value="0.0003283927" flag="0"/>
    </comp>
    <comp name="--.HHN">
      <acc value="0.0048697392" flag="0"/>
      <vel value="0.0032676220" flag="0"/>
      <psa03 value="0.0097261993" flag="0"/>
      <psa10 value="0.0044650839" flag="0"/>
      <psa30 value="0.0002165303" flag="0"/>
    </comp>
    <comp name="--.HHZ">
      <acc value="0.0032204571" flag="0"/>
      <vel value="0.0018777743" flag="0"/>
      <psa03 value="0.0059180409" flag="0"/>
      <psa10 value="0.0028384574" flag="0"/>
      <psa30 value="0.0002254267" flag="0"/>
    </comp>
  </station>
  <station code="KVT" name="KVT" netid="KO" insttype="CMG-3T" lat="41.0807" lon="36.0463">
    <comp name="--.HHE">
      <acc value="0.0057619799" flag="0"/>
      <vel value="0.0055119377" flag="0"/>
      <psa03 value="0.0124819736" flag="0"/>
      <psa10 value="0.0070702986" flag="0"/>
      <psa30 value="0.0007061188" flag="0"/>
    </comp>
    <comp name="--.HHN">
      <acc value="0.0070015056" flag="0"/>
      <vel value="0.0065602763" flag="0"/>
      <psa03 value="0.0113349978" flag="0"/>
      <psa10 value="0.0076058080" flag="0"/>
      <psa30 value="0.0006685371" flag="0"/>
    </comp>
    <comp name="--.HHZ">
      <acc value="0.0048254250" flag="0"/>
      <vel value="0.0028362354" flag="0"/>
      <psa03 value="0.0073273531" flag="0"/>
      <psa10 value="0.0043866249" flag="0"/>
      <psa30 value="0.0006996879" flag="0"/>
    </comp>
  </station>
  <station code="TOKT" name="TOKT" netid="KO" insttype="CMG-3T" lat="40.3173" lon="36.5443">
    <comp name="--.HHE">
      <acc value="0.0061766462" flag="0"/>
      <vel value="0.0032560554" flag="0"/>
      <psa03 value="0.0255550978" flag="0"/>
      <psa10 value="0.0030857166" flag="0"/>
      <psa30 value="0.0006523663" flag="0"/>
    </comp>
    <comp name="--.HHN">
      <acc value="0.0091016934" flag="0"/>
      <vel value="0.0061988285" flag="0"/>
      <psa03 value="0.0389573074" flag="0"/>
      <psa10 value="0.0052539442" flag="0"/>
      <psa30 value="0.0004313898" flag="0"/>
    </comp>
    <comp name="--.HHZ">
      <acc value="0.0000433287" flag="0"/>
      <vel value="0.0000058270" flag="0"/>
      <psa03 value="0.0000501931" flag="0"/>
      <psa10 value="0.0000030588" flag="0"/>
      <psa30 value="0.0000007597" flag="0"/>
    </comp>
  </station>
  <station code="YOZ" name="YOZ" netid="KO" insttype="CMG-3T" lat="39.6376" lon="35.3152">
    <comp name="--.HHN">
      <acc value="0.0111123629" flag="0"/>
      <vel value="0.0054717545" flag="0"/>
      <psa03 value="0.0246120366" flag="0"/>
      <psa10 value="0.0051246898" flag="0"/>
      <psa30 value="0.0005959728" flag="0"/>
    </comp>
    <comp name="--.HHE">
      <acc value="0.0127556018" flag="0"/>
      <vel value="0.0066683938" flag="0"/>
      <psa03 value="0.0337464523" flag="0"/>
      <psa10 value="0.0107689699" flag="0"/>
      <psa30 value="0.0003340045" flag="0"/>
    </comp>
    <comp name="--.HHZ">
      <acc value="0.0073328751" flag="0"/>
      <vel value="0.0026969442" flag="0"/>
      <psa03 value="0.0194684348" flag="0"/>
      <psa10 value="0.0030887880" flag="0"/>
      <psa30 value="0.0004619315" flag="0"/>
    </comp>
  </station>
</stationlist>
