<stationlist created="1747105317">
	<station code="ERBG" name="ERBG" netid="KO" source="Bogazici University Kandilli Observatory And Earthquake Research Institute (KOERI)" insttype="" lat="40.712" lon="36.6768">
		<comp name=".HNE" depth="0.0">
			<acc value="0.016273715006814" flag="0"/>
			<vel value="0.00740498310955" flag="0"/>
			<psa03 value="0.0254387581095284" flag="0"/>
			<psa10 value="0.0131829754949339" flag="0"/>
			<psa30 value="0.0011507927968766" flag="0"/>
		</comp>
		<comp name=".HNN" depth="0.0">
			<acc value="0.016471753618752" flag="0"/>
			<vel value="0.00752550946365" flag="0"/>
			<psa03 value="0.0216459716997893" flag="0"/>
			<psa10 value="0.00636083528038194" flag="0"/>
			<psa30 value="0.00117543130405537" flag="0"/>
		</comp>
		<comp name=".HNZ" depth="0.0">
			<acc value="0.010525705596444" flag="0"/>
			<vel value="0.00485120330031" flag="0"/>
			<psa03 value="0.0146360698282178" flag="0"/>
			<psa10 value="0.00574984058620891" flag="0"/>
			<psa30 value="0.00098778668602202" flag="0"/>
		</comp>
	</station>
	<station code="KMON" name="KMON" netid="KO" source="Bogazici University Kandilli Observatory And Earthquake Research Institute (KOERI)" insttype="" lat="41.3738" lon="33.7839">
		<comp name=".HNE" depth="0.0">
			<acc value="0.026318602454826" flag="0"/>
			<vel value="0.0151930427513" flag="0"/>
			<psa03 value="0.0565595019978171" flag="0"/>
			<psa10 value="0.0220339696423476" flag="0"/>
			<psa30 value="0.000958074301052518" flag="0"/>
		</comp>
		<comp name=".HNN" depth="0.0">
			<acc value="0.019753814242836" flag="0"/>
			<vel value="0.0112268879883" flag="0"/>
			<psa03 value="0.0394205567309285" flag="0"/>
			<psa10 value="0.0222421759350028" flag="0"/>
			<psa30 value="0.000974989067405786" flag="0"/>
		</comp>
		<comp name=".HNZ" depth="0.0">
			<acc value="0.010412185166562" flag="0"/>
			<vel value="0.00609629207898" flag="0"/>
			<psa03 value="0.0202975399249019" flag="0"/>
			<psa10 value="0.00905616367641744" flag="0"/>
			<psa30 value="0.000589600099778256" flag="0"/>
		</comp>
	</station>
	<station code="KOZK" name="KOZK" netid="KO" source="Bogazici University Kandilli Observatory And Earthquake Research Institute (KOERI)" insttype="" lat="39.2101" lon="34.868">
		<comp name=".HNE" depth="0.0">
			<acc value="0.013563224960664" flag="0"/>
			<vel value="0.0109920432862" flag="0"/>
			<psa03 value="0.0470190522814091" flag="0"/>
			<psa10 value="0.0163339201670453" flag="0"/>
			<psa30 value="0.00135525529984467" flag="0"/>
		</comp>
		<comp name=".HNN" depth="0.0">
			<acc value="0.012765457229532" flag="0"/>
			<vel value="0.0113270053103" flag="0"/>
			<psa03 value="0.0412453989719181" flag="0"/>
			<psa10 value="0.0136781695491099" flag="0"/>
			<psa30 value="0.00136028271622291" flag="0"/>
		</comp>
		<comp name=".HNZ" depth="0.0">
			<acc value="0.013371938524836" flag="0"/>
			<vel value="0.00789568260987" flag="0"/>
			<psa03 value="0.0309301661592231" flag="0"/>
			<psa10 value="0.00473559386610862" flag="0"/>
			<psa30 value="0.000542658344287361" flag="0"/>
		</comp>
	</station>
	<station code="SAFT" name="SAFT" netid="KO" source="Bogazici University Kandilli Observatory And Earthquake Research Institute (KOERI)" insttype="" lat="41.2398" lon="32.6871">
		<comp name=".HNE" depth="0.0">
			<acc value="0.0029109696643662" flag="0"/>
			<vel value="0.00201948293651" flag="0"/>
			<psa03 value="0.00856870305120432" flag="0"/>
			<psa10 value="0.00168525628839735" flag="0"/>
			<psa30 value="0.000399845055480798" flag="0"/>
		</comp>
		<comp name=".HNN" depth="0.0">
			<acc value="0.0037461993925194" flag="0"/>
			<vel value="0.00192056754682" flag="0"/>
			<psa03 value="0.00998111367375521" flag="0"/>
			<psa10 value="0.0016235734912738" flag="0"/>
			<psa30 value="0.000383498269461388" flag="0"/>
		</comp>
		<comp name=".HNZ" depth="0.0">
			<acc value="0.0017506633629672" flag="0"/>
			<vel value="0.00119265443325" flag="0"/>
			<psa03 value="0.0040499483022202" flag="0"/>
			<psa10 value="0.00194042026207052" flag="0"/>
			<psa30 value="0.00049247293641659" flag="0"/>
		</comp>
	</station>
	<station code="SINP" name="SINP" netid="KO" source="Bogazici University Kandilli Observatory And Earthquake Research Institute (KOERI)" insttype="" lat="41.9824" lon="35.0956">
		<comp name=".HNE" depth="0.0">
			<acc value="0.046603722383508" flag="0"/>
			<vel value="0.0387363565203" flag="0"/>
			<psa03 value="0.111166645494787" flag="0"/>
			<psa10 value="0.0632492824546649" flag="0"/>
			<psa30 value="0.00565243152916499" flag="0"/>
		</comp>
		<comp name=".HNN" depth="0.0">
			<acc value="0.039696976045932" flag="0"/>
			<vel value="0.0274680581877" flag="0"/>
			<psa03 value="0.106797491476242" flag="0"/>
			<psa10 value="0.0455290323247468" flag="0"/>
			<psa30 value="0.00313645173286622" flag="0"/>
		</comp>
		<comp name=".HNZ" depth="0.0">
			<acc value="0.027136201106232" flag="0"/>
			<vel value="0.0153060392114" flag="0"/>
			<psa03 value="0.060731846103458" flag="0"/>
			<psa10 value="0.0221758809182944" flag="0"/>
			<psa30 value="0.0019349406803258" flag="0"/>
		</comp>
	</station>
	<station code="TOS" name="TOS" netid="KO" source="Bogazici University Kandilli Observatory And Earthquake Research Institute (KOERI)" insttype="" lat="41.0362" lon="34.0226">
		<comp name=".HNE" depth="0.0">
			<acc value="0.042351827212356" flag="0"/>
			<vel value="0.0210797571818" flag="0"/>
			<psa03 value="0.116620777637486" flag="0"/>
			<psa10 value="0.0109303428315525" flag="0"/>
			<psa30 value="0.00121356591361895" flag="0"/>
		</comp>
		<comp name=".HNN" depth="0.0">
			<acc value="0.04028189001366" flag="0"/>
			<vel value="0.0204160554736" flag="0"/>
			<psa03 value="0.114730996198889" flag="0"/>
			<psa10 value="0.010700758247717" flag="0"/>
			<psa30 value="0.000766290658830765" flag="0"/>
		</comp>
		<comp name=".HNZ" depth="0.0">
			<acc value="0.029077998244626" flag="0"/>
			<vel value="0.0125367360486" flag="0"/>
			<psa03 value="0.0986894543585162" flag="0"/>
			<psa10 value="0.0090437222271974" flag="0"/>
			<psa30 value="0.000515185430587635" flag="0"/>
		</comp>
	</station>
</stationlist>
