<stationlist created="1778135663">
	<station code="S2405" name="S2405" netid="S2" source="IceSMN Icelandic Strong Motion Network (IceSMN)" insttype="" lat="64.0447" lon="-21.9848">
		<comp name="00.HN1" depth="0.0">
			<acc value="0.122205294058548" flag="0"/>
			<vel value="0.164634372155054" flag="0"/>
			<psa03 value="0.194389606524171" flag="0"/>
			<psa10 value="0.17674626857275" flag="0"/>
			<psa30 value="0.0533024910285851" flag="0"/>
		</comp>
		<comp name="00.HN2" depth="0.0">
			<acc value="0.151766401681296" flag="0"/>
			<vel value="0.206593699713888" flag="0"/>
			<psa03 value="0.219671968856454" flag="0"/>
			<psa10 value="0.226538197043858" flag="0"/>
			<psa30 value="0.0497607464053605" flag="0"/>
		</comp>
		<comp name="00.HNZ" depth="0.0">
			<acc value="0.0525822086419331" flag="0"/>
			<vel value="0.0938887450873803" flag="0"/>
			<psa03 value="0.100748705357378" flag="0"/>
			<psa10 value="0.113965887180684" flag="0"/>
			<psa30 value="0.055308417244582" flag="0"/>
		</comp>
	</station>
	<station code="S2602" name="S2602" netid="S2" source="IceSMN Icelandic Strong Motion Network (IceSMN)" insttype="" lat="63.8464" lon="-22.4268">
		<comp name="00.HN1" depth="0.0">
			<acc value="0.104938249481749" flag="0"/>
			<vel value="0.295669148239172" flag="0"/>
			<psa03 value="0.138862323947384" flag="0"/>
			<psa10 value="0.206931913223775" flag="0"/>
			<psa30 value="0.160073457414252" flag="0"/>
		</comp>
		<comp name="00.HN2" depth="0.0">
			<acc value="0.106544115679849" flag="0"/>
			<vel value="0.183023278457419" flag="0"/>
			<psa03 value="0.151937471361734" flag="0"/>
			<psa10 value="0.289552541434664" flag="0"/>
			<psa30 value="0.0615138349895698" flag="0"/>
		</comp>
		<comp name="00.HNZ" depth="0.0">
			<acc value="0.0442398521482712" flag="0"/>
			<vel value="0.133870744606017" flag="0"/>
			<psa03 value="0.0629633533047503" flag="0"/>
			<psa10 value="0.107820422573878" flag="0"/>
			<psa30 value="0.0806694839571992" flag="0"/>
		</comp>
	</station>
	<station code="S2604" name="S2604" netid="S2" source="IceSMN Icelandic Strong Motion Network (IceSMN)" insttype="" lat="63.9843" lon="-21.6486">
		<comp name="00.HN1" depth="0.0">
			<acc value="0.129972088078951" flag="0"/>
			<vel value="0.209779611865994" flag="0"/>
			<psa03 value="0.259176981702851" flag="0"/>
			<psa10 value="0.348839168882868" flag="0"/>
			<psa30 value="0.114126200300488" flag="0"/>
		</comp>
		<comp name="00.HN2" depth="0.0">
			<acc value="0.0794191837744637" flag="0"/>
			<vel value="0.115665736611957" flag="0"/>
			<psa03 value="0.185553062813215" flag="0"/>
			<psa10 value="0.15524217903251" flag="0"/>
			<psa30 value="0.10528928156483" flag="0"/>
		</comp>
		<comp name="00.HNZ" depth="0.0">
			<acc value="0.0530376918106466" flag="0"/>
			<vel value="0.0958570027014216" flag="0"/>
			<psa03 value="0.137829922222444" flag="0"/>
			<psa10 value="0.0980132528967964" flag="0"/>
			<psa30 value="0.0643267413308216" flag="0"/>
		</comp>
	</station>
</stationlist>
