<?xml version="1.0" encoding="UTF-8" standalone="yes"?>
<!DOCTYPE earthquake SYSTEM "stationlist.dtd">
<stationlist created="" xmlns="ch.ethz.sed.shakemap.usgs.xml">
  <station code="ADA" name="ADA" netid="VI" source="ODC" insttype="CMG-3ESP" lat="65.0188" lon="-15.5745">
    <comp name="--.HHN">
      <acc value="0.0266065301" flag="0"/>
      <vel value="0.0666762734" flag="0"/>
      <psa03 value="0.0335650932" flag="0"/>
      <psa10 value="0.0648354063" flag="0"/>
      <psa30 value="0.0570068650" flag="0"/>
    </comp>
    <comp name="--.HHZ">
      <acc value="0.0284544415" flag="0"/>
      <vel value="0.0868654452" flag="0"/>
      <psa03 value="0.0334414807" flag="0"/>
      <psa10 value="0.0467056382" flag="0"/>
      <psa30 value="0.0743288139" flag="0"/>
    </comp>
    <comp name="--.HHE">
      <acc value="0.0273052472" flag="0"/>
      <vel value="0.1000565576" flag="0"/>
      <psa03 value="0.0364865672" flag="0"/>
      <psa10 value="0.0499693083" flag="0"/>
      <psa30 value="0.1294547668" flag="0"/>
    </comp>
  </station>
  <station code="ASB" name="ASB" netid="VI" source="ODC" insttype="STS-2.5" lat="64.7482" lon="-21.3254">
    <comp name="--.HHN">
      <acc value="0.1070481094" flag="0"/>
      <vel value="0.1123315243" flag="0"/>
      <psa03 value="0.2091293527" flag="0"/>
      <psa10 value="0.1984644335" flag="0"/>
      <psa30 value="0.0698391416" flag="0"/>
    </comp>
    <comp name="--.HHZ">
      <acc value="0.0632301677" flag="0"/>
      <vel value="0.1276223783" flag="0"/>
      <psa03 value="0.1324011322" flag="0"/>
      <psa10 value="0.2120255142" flag="0"/>
      <psa30 value="0.1008263453" flag="0"/>
    </comp>
    <comp name="--.HHE">
      <acc value="0.1183517436" flag="0"/>
      <vel value="0.1856115528" flag="0"/>
      <psa03 value="0.2726481698" flag="0"/>
      <psa10 value="0.2350792916" flag="0"/>
      <psa30 value="0.0715120980" flag="0"/>
    </comp>
  </station>
  <station code="GIL" name="GIL" netid="VI" source="ODC" insttype="CMG-3ESP" lat="66.0773" lon="-16.3513">
    <comp name="--.HHN">
      <acc value="0.2795506764" flag="0"/>
      <vel value="0.2850037385" flag="0"/>
      <psa03 value="0.4389385738" flag="0"/>
      <psa10 value="0.3267833156" flag="0"/>
      <psa30 value="0.1240718702" flag="0"/>
    </comp>
    <comp name="--.HHE">
      <acc value="0.2905478933" flag="0"/>
      <vel value="0.3601695775" flag="0"/>
      <psa03 value="0.5049816456" flag="0"/>
      <psa10 value="0.4465545798" flag="0"/>
      <psa30 value="0.2134005330" flag="0"/>
    </comp>
    <comp name="--.HHZ">
      <acc value="0.1455000107" flag="0"/>
      <vel value="0.2905709229" flag="0"/>
      <psa03 value="0.3546693999" flag="0"/>
      <psa10 value="0.1881294813" flag="0"/>
      <psa30 value="0.1580422678" flag="0"/>
    </comp>
  </station>
  <station code="SKR" name="SKR" netid="VI" source="ODC" insttype="LE-3D/5s" lat="64.5601" lon="-18.3865">
    <comp name="--.HHE">
      <acc value="0.1210473649" flag="0"/>
      <vel value="0.3022705684" flag="0"/>
      <psa03 value="0.2288413096" flag="0"/>
      <psa10 value="0.3298884175" flag="0"/>
      <psa30 value="0.2297862522" flag="0"/>
    </comp>
    <comp name="--.HHN">
      <acc value="0.1236062710" flag="0"/>
      <vel value="0.2927667703" flag="0"/>
      <psa03 value="0.1902797259" flag="0"/>
      <psa10 value="0.2543100016" flag="0"/>
      <psa30 value="0.1841815630" flag="0"/>
    </comp>
    <comp name="--.HHZ">
      <acc value="0.1171289327" flag="0"/>
      <vel value="0.2160182103" flag="0"/>
      <psa03 value="0.3049406855" flag="0"/>
      <psa10 value="0.2286555462" flag="0"/>
      <psa30 value="0.1722740426" flag="0"/>
    </comp>
  </station>
</stationlist>
