<?xml version="1.0" encoding="UTF-8" standalone="yes"?>
<!DOCTYPE earthquake SYSTEM "stationlist.dtd">
<stationlist created="" xmlns="ch.ethz.sed.shakemap.usgs.xml">
  <station code="ARPRA" name="ARPRA" netid="KO" insttype="CMG-5T" lat="39.0929" lon="38.3356">
    <comp name="--.HNZ">
      <acc value="0.0817881166" flag="0"/>
      <vel value="0.0730041053" flag="0"/>
      <psa03 value="0.1668024473" flag="0"/>
      <psa10 value="0.0730785623" flag="0"/>
      <psa30 value="0.0054662660" flag="0"/>
    </comp>
    <comp name="--.HNE">
      <acc value="0.2321658880" flag="0"/>
      <vel value="0.0963791589" flag="0"/>
      <psa03 value="0.5453174639" flag="0"/>
      <psa10 value="0.0701242230" flag="0"/>
      <psa30 value="0.0064245005" flag="0"/>
    </comp>
    <comp name="--.HNN">
      <acc value="0.1545665351" flag="0"/>
      <vel value="0.0821795761" flag="0"/>
      <psa03 value="0.4605110685" flag="0"/>
      <psa10 value="0.0696512454" flag="0"/>
      <psa30 value="0.0057806809" flag="0"/>
    </comp>
  </station>
</stationlist>
