<?xml version="1.0" encoding="UTF-8" standalone="yes"?>
<!DOCTYPE earthquake SYSTEM "stationlist.dtd">
<stationlist created="" xmlns="ch.ethz.sed.shakemap.usgs.xml">
  <station code="ARPRA" name="ARPRA" netid="KO" insttype="CMG-5T" lat="39.0929" lon="38.3356">
    <comp name="--.HNE">
      <acc value="0.2321658920" flag="0"/>
      <vel value="0.0963791359" flag="0"/>
      <psa03 value="0.5453174639" flag="0"/>
      <psa10 value="0.0701242344" flag="0"/>
      <psa30 value="0.0064246738" flag="0"/>
    </comp>
    <comp name="--.HNZ">
      <acc value="0.0817881193" flag="0"/>
      <vel value="0.0730041147" flag="0"/>
      <psa03 value="0.1668024473" flag="0"/>
      <psa10 value="0.0730785543" flag="0"/>
      <psa30 value="0.0054657840" flag="0"/>
    </comp>
    <comp name="--.HNN">
      <acc value="0.1545665366" flag="0"/>
      <vel value="0.0821795773" flag="0"/>
      <psa03 value="0.4605110685" flag="0"/>
      <psa10 value="0.0696512439" flag="0"/>
      <psa30 value="0.0057807253" flag="0"/>
    </comp>
  </station>
  <station code="DYBB" name="DYBB" netid="KO" insttype="CMG-3T" lat="37.9532" lon="40.1393">
    <comp name="--.HHE">
      <acc value="0.0398251828" flag="0"/>
      <vel value="0.0558008782" flag="0"/>
      <psa03 value="0.0860607862" flag="0"/>
      <psa10 value="0.0520043401" flag="0"/>
      <psa30 value="0.0085424243" flag="0"/>
    </comp>
    <comp name="--.HHN">
      <acc value="0.0476978102" flag="0"/>
      <vel value="0.0282071745" flag="0"/>
      <psa03 value="0.1184931807" flag="0"/>
      <psa10 value="0.0355965447" flag="0"/>
      <psa30 value="0.0069734149" flag="0"/>
    </comp>
  </station>
</stationlist>
