<?xml version="1.0" encoding="UTF-8" standalone="yes"?>
<!DOCTYPE earthquake SYSTEM "stationlist.dtd">
<stationlist created="" xmlns="ch.ethz.sed.shakemap.usgs.xml">
  <station code="GAZ" name="GAZ" netid="KO" insttype="CMG-3T" lat="37.1721" lon="37.2096">
    <comp name="--.HHN">
      <acc value="0.0068113703" flag="0"/>
      <vel value="0.0043237462" flag="0"/>
      <psa03 value="0.0210506547" flag="0"/>
      <psa10 value="0.0026584488" flag="0"/>
      <psa30 value="0.0001453768" flag="0"/>
    </comp>
    <comp name="--.HHZ">
      <acc value="0.0032506325" flag="0"/>
      <vel value="0.0018964117" flag="0"/>
      <psa03 value="0.0107227244" flag="0"/>
      <psa10 value="0.0013020581" flag="0"/>
      <psa30 value="0.0001161914" flag="0"/>
    </comp>
    <comp name="--.HHE">
      <acc value="0.0061365479" flag="0"/>
      <vel value="0.0037341919" flag="0"/>
      <psa03 value="0.0142984735" flag="0"/>
      <psa10 value="0.0028769580" flag="0"/>
      <psa30 value="0.0001638495" flag="0"/>
    </comp>
  </station>
  <station code="KMRS" name="KMRS" netid="KO" insttype="CMG-3T" lat="37.5087" lon="36.9">
    <comp name="--.HHZ">
      <acc value="0.0089206187" flag="0"/>
      <vel value="0.0035532786" flag="0"/>
      <psa03 value="0.0167449776" flag="0"/>
      <psa10 value="0.0020534612" flag="0"/>
      <psa30 value="0.0003692581" flag="0"/>
    </comp>
  </station>
  <station code="SARI" name="SARI" netid="KO" insttype="CMG-3T" lat="38.4072" lon="36.4181">
    <comp name="--.HHE">
      <acc value="0.0330879456" flag="0"/>
      <vel value="0.0064079698" flag="0"/>
      <psa03 value="0.0378336988" flag="0"/>
      <psa10 value="0.0019165770" flag="0"/>
      <psa30 value="0.0001935923" flag="0"/>
    </comp>
    <comp name="--.HHN">
      <acc value="0.0274918940" flag="0"/>
      <vel value="0.0070935154" flag="0"/>
      <psa03 value="0.0264042368" flag="0"/>
      <psa10 value="0.0020965921" flag="0"/>
      <psa30 value="0.0001957984" flag="0"/>
    </comp>
    <comp name="--.HHZ">
      <acc value="0.0147016751" flag="0"/>
      <vel value="0.0039235317" flag="0"/>
      <psa03 value="0.0217754203" flag="0"/>
      <psa10 value="0.0020100820" flag="0"/>
      <psa30 value="0.0001510654" flag="0"/>
    </comp>
  </station>
  <station code="ANDN" name="ANDN" netid="TU" insttype="T" lat="37.58" lon="36.3452">
    <comp name="--.HHZ">
      <acc value="0.0213105201" flag="0"/>
      <vel value="0.0145437899" flag="0"/>
      <psa03 value="0.0534990661" flag="0"/>
      <psa10 value="0.0137202692" flag="0"/>
      <psa30 value="0.0008190003" flag="0"/>
    </comp>
    <comp name="--.HHE">
      <acc value="0.0374186413" flag="0"/>
      <vel value="0.0218742992" flag="0"/>
      <psa03 value="0.0727888051" flag="0"/>
      <psa10 value="0.0183348578" flag="0"/>
      <psa30 value="0.0010247154" flag="0"/>
    </comp>
    <comp name="--.HHN">
      <acc value="0.0388441837" flag="0"/>
      <vel value="0.0177949864" flag="0"/>
      <psa03 value="0.0816985445" flag="0"/>
      <psa10 value="0.0197201539" flag="0"/>
      <psa30 value="0.0009786059" flag="0"/>
    </comp>
  </station>
</stationlist>
