<?xml version="1.0" encoding="UTF-8" standalone="yes"?>
<!DOCTYPE earthquake SYSTEM "stationlist.dtd">
<stationlist created="" xmlns="ch.ethz.sed.shakemap.usgs.xml">
  <station code="ARPRA" name="ARPRA" netid="KO" insttype="CMG-5T" lat="39.0929" lon="38.3356">
    <comp name="--.HNE">
      <acc value="0.0307033353" flag="0"/>
      <vel value="0.0124574626" flag="0"/>
      <psa03 value="0.0630418019" flag="0"/>
      <psa10 value="0.0202947413" flag="0"/>
      <psa30 value="0.0013803666" flag="0"/>
    </comp>
    <comp name="--.HNN">
      <acc value="0.0223828526" flag="0"/>
      <vel value="0.0156206253" flag="0"/>
      <psa03 value="0.0603316534" flag="0"/>
      <psa10 value="0.0282850110" flag="0"/>
      <psa30 value="0.0007509733" flag="0"/>
    </comp>
    <comp name="--.HNZ">
      <acc value="0.0144993496" flag="0"/>
      <vel value="0.0071268877" flag="0"/>
      <psa03 value="0.0270484430" flag="0"/>
      <psa10 value="0.0123193145" flag="0"/>
      <psa30 value="0.0007385653" flag="0"/>
    </comp>
  </station>
  <station code="DARE" name="DARE" netid="KO" insttype="CMG-3ESP" lat="38.5712" lon="37.4832">
    <comp name="--.HHZ">
      <acc value="0.0904998323" flag="0"/>
      <vel value="0.0284320678" flag="0"/>
      <psa03 value="0.0906045474" flag="0"/>
      <psa10 value="0.0109250206" flag="0"/>
      <psa30 value="0.0012352018" flag="0"/>
    </comp>
    <comp name="--.HHE">
      <acc value="0.0892500494" flag="0"/>
      <vel value="0.0249391409" flag="0"/>
      <psa03 value="0.1243867573" flag="0"/>
      <psa10 value="0.0119913066" flag="0"/>
      <psa30 value="0.0010776068" flag="0"/>
    </comp>
    <comp name="--.HHN">
      <acc value="0.0745050078" flag="0"/>
      <vel value="0.0228695802" flag="0"/>
      <psa03 value="0.1045762180" flag="0"/>
      <psa10 value="0.0172372776" flag="0"/>
      <psa30 value="0.0008197507" flag="0"/>
    </comp>
  </station>
  <station code="GAZ" name="GAZ" netid="KO" insttype="CMG-3T" lat="37.1721" lon="37.2096">
    <comp name="--.HHE">
      <acc value="0.0188626155" flag="0"/>
      <vel value="0.0094556659" flag="0"/>
      <psa03 value="0.0450100733" flag="0"/>
      <psa10 value="0.0148523251" flag="0"/>
      <psa30 value="0.0008339081" flag="0"/>
    </comp>
    <comp name="--.HHZ">
      <acc value="0.0104452682" flag="0"/>
      <vel value="0.0055790462" flag="0"/>
      <psa03 value="0.0316756944" flag="0"/>
      <psa10 value="0.0058603012" flag="0"/>
      <psa30 value="0.0006102472" flag="0"/>
    </comp>
    <comp name="--.HHN">
      <acc value="0.0132317599" flag="0"/>
      <vel value="0.0063741692" flag="0"/>
      <psa03 value="0.0246342085" flag="0"/>
      <psa10 value="0.0067483629" flag="0"/>
      <psa30 value="0.0005028809" flag="0"/>
    </comp>
  </station>
  <station code="KMRS" name="KMRS" netid="KO" insttype="CMG-3T" lat="37.5087" lon="36.9">
    <comp name="--.HHN">
      <acc value="0.0343578409" flag="0"/>
      <vel value="0.0179550786" flag="0"/>
      <psa03 value="0.1102739292" flag="0"/>
      <psa10 value="0.0165444549" flag="0"/>
      <psa30 value="0.0009668348" flag="0"/>
    </comp>
    <comp name="--.HHE">
      <acc value="0.0380029599" flag="0"/>
      <vel value="0.0201657442" flag="0"/>
      <psa03 value="0.0857073222" flag="0"/>
      <psa10 value="0.0124442892" flag="0"/>
      <psa30 value="0.0007804144" flag="0"/>
    </comp>
    <comp name="--.HHZ">
      <acc value="0.0180833667" flag="0"/>
      <vel value="0.0111197940" flag="0"/>
      <psa03 value="0.0700902965" flag="0"/>
      <psa10 value="0.0042658224" flag="0"/>
      <psa30 value="0.0003106831" flag="0"/>
    </comp>
  </station>
  <station code="URFA" name="URFA" netid="KO" insttype="CMG-3ESP" lat="37.4409" lon="38.8213">
    <comp name="--.HHZ">
      <acc value="0.0135064491" flag="0"/>
      <vel value="0.0040958591" flag="0"/>
      <psa03 value="0.0120930891" flag="0"/>
      <psa10 value="0.0048431860" flag="0"/>
      <psa30 value="0.0003366269" flag="0"/>
    </comp>
    <comp name="--.HHE">
      <acc value="0.0154575920" flag="0"/>
      <vel value="0.0053560332" flag="0"/>
      <psa03 value="0.0178801345" flag="0"/>
      <psa10 value="0.0088675238" flag="0"/>
      <psa30 value="0.0004656390" flag="0"/>
    </comp>
    <comp name="--.HHN">
      <acc value="0.0122760115" flag="0"/>
      <vel value="0.0059571082" flag="0"/>
      <psa03 value="0.0135763925" flag="0"/>
      <psa10 value="0.0097386350" flag="0"/>
      <psa30 value="0.0006256220" flag="0"/>
    </comp>
  </station>
</stationlist>
