<?xml version="1.0" encoding="UTF-8" standalone="yes"?>
<!DOCTYPE earthquake SYSTEM "stationlist.dtd">
<stationlist created="" xmlns="ch.ethz.sed.shakemap.usgs.xml">
  <station code="ARPRA" name="ARPRA" netid="KO" insttype="CMG-5T" lat="39.0929" lon="38.3356">
    <comp name="--.HNZ">
      <acc value="0.0144993475" flag="0"/>
      <vel value="0.0071269041" flag="0"/>
      <psa03 value="0.0270484430" flag="0"/>
      <psa10 value="0.0123193145" flag="0"/>
      <psa30 value="0.0007389324" flag="0"/>
    </comp>
    <comp name="--.HNE">
      <acc value="0.0307033325" flag="0"/>
      <vel value="0.0124574536" flag="0"/>
      <psa03 value="0.0630418019" flag="0"/>
      <psa10 value="0.0202947416" flag="0"/>
      <psa30 value="0.0013808285" flag="0"/>
    </comp>
    <comp name="--.HNN">
      <acc value="0.0223828489" flag="0"/>
      <vel value="0.0156206110" flag="0"/>
      <psa03 value="0.0603316534" flag="0"/>
      <psa10 value="0.0282850110" flag="0"/>
      <psa30 value="0.0007502882" flag="0"/>
    </comp>
  </station>
  <station code="DARE" name="DARE" netid="KO" insttype="CMG-3ESP" lat="38.5712" lon="37.4832">
    <comp name="--.HHE">
      <acc value="0.0892500495" flag="0"/>
      <vel value="0.0249391409" flag="0"/>
      <psa03 value="0.1243867573" flag="0"/>
      <psa10 value="0.0119913068" flag="0"/>
      <psa30 value="0.0010775103" flag="0"/>
    </comp>
    <comp name="--.HHN">
      <acc value="0.0745050078" flag="0"/>
      <vel value="0.0228695804" flag="0"/>
      <psa03 value="0.1045762180" flag="0"/>
      <psa10 value="0.0172372775" flag="0"/>
      <psa30 value="0.0008198140" flag="0"/>
    </comp>
    <comp name="--.HHZ">
      <acc value="0.0904998323" flag="0"/>
      <vel value="0.0284320681" flag="0"/>
      <psa03 value="0.0906045474" flag="0"/>
      <psa10 value="0.0109250205" flag="0"/>
      <psa30 value="0.0012351105" flag="0"/>
    </comp>
  </station>
  <station code="GAZ" name="GAZ" netid="KO" insttype="CMG-3T" lat="37.1721" lon="37.2096">
    <comp name="--.HHE">
      <acc value="0.0188626156" flag="0"/>
      <vel value="0.0094556659" flag="0"/>
      <psa03 value="0.0450100733" flag="0"/>
      <psa10 value="0.0148523251" flag="0"/>
      <psa30 value="0.0008338863" flag="0"/>
    </comp>
    <comp name="--.HHN">
      <acc value="0.0132317605" flag="0"/>
      <vel value="0.0063741693" flag="0"/>
      <psa03 value="0.0246342085" flag="0"/>
      <psa10 value="0.0067483629" flag="0"/>
      <psa30 value="0.0005028813" flag="0"/>
    </comp>
    <comp name="--.HHZ">
      <acc value="0.0104452685" flag="0"/>
      <vel value="0.0055790466" flag="0"/>
      <psa03 value="0.0316756944" flag="0"/>
      <psa10 value="0.0058603012" flag="0"/>
      <psa30 value="0.0006102465" flag="0"/>
    </comp>
  </station>
  <station code="KMRS" name="KMRS" netid="KO" insttype="CMG-3T" lat="37.5087" lon="36.9">
    <comp name="--.HHE">
      <acc value="0.0380029598" flag="0"/>
      <vel value="0.0201657443" flag="0"/>
      <psa03 value="0.0857073222" flag="0"/>
      <psa10 value="0.0124442892" flag="0"/>
      <psa30 value="0.0007803930" flag="0"/>
    </comp>
    <comp name="--.HHN">
      <acc value="0.0343578411" flag="0"/>
      <vel value="0.0179550785" flag="0"/>
      <psa03 value="0.1102739292" flag="0"/>
      <psa10 value="0.0165444550" flag="0"/>
      <psa30 value="0.0009668138" flag="0"/>
    </comp>
    <comp name="--.HHZ">
      <acc value="0.0180833666" flag="0"/>
      <vel value="0.0111197936" flag="0"/>
      <psa03 value="0.0700902965" flag="0"/>
      <psa10 value="0.0042658224" flag="0"/>
      <psa30 value="0.0003106138" flag="0"/>
    </comp>
  </station>
</stationlist>
