<stationlist created="1775820646">
	<station code="NPS1" name="NPS1" netid="HI" source="ITSAK Strong Motion Network" insttype="" lat="36.51263" lon="23.06248">
		<comp name="--.HNE" depth="0.0">
			<acc value="0.0194197079453105" flag="0"/>
			<vel value="0.0181852589664008" flag="0"/>
			<psa03 value="0.0500700721049493" flag="0"/>
			<psa10 value="0.021442960490887" flag="0"/>
			<psa30 value="0.00176796357724376" flag="0"/>
		</comp>
		<comp name="--.HNN" depth="0.0">
			<acc value="0.0194912935049858" flag="0"/>
			<vel value="0.0121742801021025" flag="0"/>
			<psa03 value="0.0570067503756486" flag="0"/>
			<psa10 value="0.0116072251717164" flag="0"/>
			<psa30 value="0.000717465080622266" flag="0"/>
		</comp>
		<comp name="--.HNZ" depth="0.0">
			<acc value="0.0113723836397328" flag="0"/>
			<vel value="0.00536277605437365" flag="0"/>
			<psa03 value="0.0256283279592721" flag="0"/>
			<psa10 value="0.00886492163253528" flag="0"/>
			<psa30 value="0.000592960843246624" flag="0"/>
		</comp>
	</station>
	<station code="PYL1" name="PYL1" netid="HI" source="ITSAK Strong Motion Network" insttype="" lat="36.914188" lon="21.695161">
		<comp name="--.HNE" depth="0.0">
			<acc value="0.00726909420657598" flag="0"/>
			<vel value="0.00753294716248376" flag="0"/>
			<psa03 value="0.0164845594690607" flag="0"/>
			<psa10 value="0.013136532418284" flag="0"/>
			<psa30 value="0.00138821758760425" flag="0"/>
		</comp>
		<comp name="--.HNN" depth="0.0">
			<acc value="0.00873560925609933" flag="0"/>
			<vel value="0.00488718812941742" flag="0"/>
			<psa03 value="0.0207194702194443" flag="0"/>
			<psa10 value="0.00832529369735161" flag="0"/>
			<psa30 value="0.000824905427185403" flag="0"/>
		</comp>
		<comp name="--.HNZ" depth="0.0">
			<acc value="0.00549631955447751" flag="0"/>
			<vel value="0.00400678495685995" flag="0"/>
			<psa03 value="0.013389107014704" flag="0"/>
			<psa10 value="0.00600809910084104" flag="0"/>
			<psa30 value="0.000426208546724484" flag="0"/>
		</comp>
	</station>
	<station code="ANKY" name="ANKY" netid="HL" source="National Observatory of Athens Seismic Network" insttype="" lat="35.86704" lon="23.30117">
		<comp name="00.HNE" depth="0.0">
			<acc value="0.00771627095291493" flag="0"/>
			<vel value="0.00510055806222197" flag="0"/>
			<psa03 value="0.0216797890441908" flag="0"/>
			<psa10 value="0.008891038362642" flag="0"/>
			<psa30 value="0.000625338665198714" flag="0"/>
		</comp>
		<comp name="00.HNN" depth="0.0">
			<acc value="0.010116203601826" flag="0"/>
			<vel value="0.00788829180993388" flag="0"/>
			<psa03 value="0.0315821286193655" flag="0"/>
			<psa10 value="0.0103841632123433" flag="0"/>
			<psa30 value="0.000455978279238356" flag="0"/>
		</comp>
		<comp name="00.HNZ" depth="0.0">
			<acc value="0.00575081052431896" flag="0"/>
			<vel value="0.00311553468730941" flag="0"/>
			<psa03 value="0.0148732769482534" flag="0"/>
			<psa10 value="0.00355746621155082" flag="0"/>
			<psa30 value="0.000309830055970643" flag="0"/>
		</comp>
	</station>
	<station code="IMMV" name="IMMV" netid="HL" source="National Observatory of Athens Seismic Network" insttype="" lat="35.4606" lon="23.9811">
		<comp name="--.HNE" depth="0.0">
			<acc value="0.00402620045717767" flag="0"/>
			<vel value="0.00302121803032952" flag="0"/>
			<psa03 value="0.0117796501356564" flag="0"/>
			<psa10 value="0.00473754446405956" flag="0"/>
			<psa30 value="0.000318867659875947" flag="0"/>
		</comp>
		<comp name="--.HNN" depth="0.0">
			<acc value="0.00404227478294113" flag="0"/>
			<vel value="0.0032015653024366" flag="0"/>
			<psa03 value="0.0155174003474455" flag="0"/>
			<psa10 value="0.00532026603527707" flag="0"/>
			<psa30 value="0.000408178159591613" flag="0"/>
		</comp>
		<comp name="--.HNZ" depth="0.0">
			<acc value="0.00318526472550582" flag="0"/>
			<vel value="0.00182491790328355" flag="0"/>
			<psa03 value="0.00732661946717798" flag="0"/>
			<psa10 value="0.00179684411022689" flag="0"/>
			<psa30 value="0.00025583390086528" flag="0"/>
		</comp>
	</station>
	<station code="ITM" name="ITM" netid="HL" source="National Observatory of Athens Seismic Network" insttype="" lat="37.17872" lon="21.92522">
		<comp name="--.HNE" depth="0.0">
			<acc value="0.00525473199061417" flag="0"/>
			<vel value="0.00318238444929786" flag="0"/>
			<psa03 value="0.0126667401510456" flag="0"/>
			<psa10 value="0.00480970065029647" flag="0"/>
			<psa30 value="0.000432688949977836" flag="0"/>
		</comp>
		<comp name="--.HNN" depth="0.0">
			<acc value="0.00559238301987076" flag="0"/>
			<vel value="0.00319011316528693" flag="0"/>
			<psa03 value="0.0159147365648718" flag="0"/>
			<psa10 value="0.00614954956497648" flag="0"/>
			<psa30 value="0.000380915181677851" flag="0"/>
		</comp>
		<comp name="--.HNZ" depth="0.0">
			<acc value="0.00490918407975783" flag="0"/>
			<vel value="0.0034831495088565" flag="0"/>
			<psa03 value="0.00919816141639214" flag="0"/>
			<psa10 value="0.00538858149834187" flag="0"/>
			<psa30 value="0.000490623438895307" flag="0"/>
		</comp>
	</station>
	<station code="KTHA" name="KTHA" netid="HL" source="National Observatory of Athens Seismic Network" insttype="" lat="36.2566" lon="23.0621">
		<comp name="--.HNE" depth="0.0">
			<acc value="0.0989506656304084" flag="0"/>
			<vel value="0.0567034076631062" flag="0"/>
			<psa03 value="0.217182199755007" flag="0"/>
			<psa10 value="0.0613115440890626" flag="0"/>
			<psa30 value="0.00314583652123107" flag="0"/>
		</comp>
		<comp name="--.HNN" depth="0.0">
			<acc value="0.0642478310869463" flag="0"/>
			<vel value="0.0457372874051182" flag="0"/>
			<psa03 value="0.137949690573172" flag="0"/>
			<psa10 value="0.0569079498722737" flag="0"/>
			<psa30 value="0.00220431956702047" flag="0"/>
		</comp>
		<comp name="--.HNZ" depth="0.0">
			<acc value="0.0540281016048082" flag="0"/>
			<vel value="0.0287771097713936" flag="0"/>
			<psa03 value="0.119109921697913" flag="0"/>
			<psa10 value="0.0316688116533508" flag="0"/>
			<psa30 value="0.00155482174931152" flag="0"/>
		</comp>
	</station>
	<station code="PYL" name="PYL" netid="HP" source="University of Patras, Seismological Laboratory (PSLNET)" insttype="" lat="36.8955" lon="21.742">
		<comp name="--.HNE" depth="0.0">
			<acc value="0.0112448240844332" flag="0"/>
			<vel value="0.00631488192165796" flag="0"/>
			<psa03 value="0.0267343204966784" flag="0"/>
			<psa10 value="0.00949151501627968" flag="0"/>
			<psa30 value="0.00074135119421035" flag="0"/>
		</comp>
		<comp name="--.HNN" depth="0.0">
			<acc value="0.00944323090363706" flag="0"/>
			<vel value="0.0064292122801815" flag="0"/>
			<psa03 value="0.0188356566239705" flag="0"/>
			<psa10 value="0.00941260135115961" flag="0"/>
			<psa30 value="0.000526322835055228" flag="0"/>
		</comp>
		<comp name="--.HNZ" depth="0.0">
			<acc value="0.00985743771289033" flag="0"/>
			<vel value="0.00604888600851323" flag="0"/>
			<psa03 value="0.0132454125998164" flag="0"/>
			<psa10 value="0.00649225758021891" flag="0"/>
			<psa30 value="0.000762127466369891" flag="0"/>
		</comp>
	</station>
</stationlist>
