<?xml version="1.0" encoding="UTF-8" standalone="yes"?>
<!DOCTYPE earthquake SYSTEM "stationlist.dtd">
<stationlist created="" xmlns="ch.ethz.sed.shakemap.usgs.xml">
  <station code="PYL1" name="PYL1" netid="HI" insttype="CMG-5TD,ACCELEROMETER,GURALP" lat="36.9142" lon="21.6952">
    <comp name="--.HNZ">
      <acc value="0.0053839602" flag="0"/>
      <vel value="0.0040201976" flag="0"/>
      <psa03 value="0.0132077044" flag="0"/>
      <psa10 value="0.0060018944" flag="0"/>
      <psa30 value="0.0004346203" flag="0"/>
    </comp>
    <comp name="--.HNN">
      <acc value="0.0087296136" flag="0"/>
      <vel value="0.0048730654" flag="0"/>
      <psa03 value="0.0203454703" flag="0"/>
      <psa10 value="0.0083149861" flag="0"/>
      <psa30 value="0.0008431735" flag="0"/>
    </comp>
    <comp name="--.HNE">
      <acc value="0.0072889823" flag="0"/>
      <vel value="0.0075347357" flag="0"/>
      <psa03 value="0.0163878801" flag="0"/>
      <psa10 value="0.0131498892" flag="0"/>
      <psa30 value="0.0013909822" flag="0"/>
    </comp>
  </station>
</stationlist>
