<?xml version="1.0" encoding="UTF-8" standalone="yes"?>
<!DOCTYPE earthquake SYSTEM "stationlist.dtd">
<stationlist created="" xmlns="ch.ethz.sed.shakemap.usgs.xml">
  <station code="RP03B" name="RP03B" netid="5B" insttype="Compact" commtype="DIG" lat="37.2463" lon="21.832">
    <comp name="--.HHN">
      <acc value="0.0218986359" flag="0"/>
      <vel value="0.0097305404" flag="0"/>
      <psa03 value="0.0354374569" flag="0"/>
      <psa10 value="0.0099828649" flag="0"/>
      <psa30 value="0.0011330876" flag="0"/>
    </comp>
    <comp name="--.HHE">
      <acc value="0.0225429876" flag="0"/>
      <vel value="0.0107061515" flag="0"/>
      <psa03 value="0.0422812802" flag="0"/>
      <psa10 value="0.0158331342" flag="0"/>
      <psa30 value="0.0011243449" flag="0"/>
    </comp>
    <comp name="--.HHZ">
      <acc value="0.0145045568" flag="0"/>
      <vel value="0.0083640673" flag="0"/>
      <psa03 value="0.0460107725" flag="0"/>
      <psa10 value="0.0123005194" flag="0"/>
      <psa30 value="0.0009772882" flag="0"/>
    </comp>
  </station>
  <station code="RP05B" name="RP05B" netid="5B" insttype="Compact" commtype="DIG" lat="37.6182" lon="21.6541">
    <comp name="--.HHE">
      <acc value="0.5225951717" flag="0"/>
      <vel value="0.2003843355" flag="0"/>
      <psa03 value="1.5301089004" flag="0"/>
      <psa10 value="0.1060658625" flag="0"/>
      <psa30 value="0.0094579504" flag="0"/>
    </comp>
    <comp name="--.HHN">
      <acc value="0.6416550918" flag="0"/>
      <vel value="0.2745245832" flag="0"/>
      <psa03 value="1.7158059364" flag="0"/>
      <psa10 value="0.1254152247" flag="0"/>
      <psa30 value="0.0091245555" flag="0"/>
    </comp>
    <comp name="--.HHZ">
      <acc value="0.2490337623" flag="0"/>
      <vel value="0.1164724114" flag="0"/>
      <psa03 value="0.6116990100" flag="0"/>
      <psa10 value="0.0516164240" flag="0"/>
      <psa30 value="0.0042876587" flag="0"/>
    </comp>
  </station>
  <station code="RP08B" name="RP08B" netid="5B" insttype="Compact" commtype="DIG" lat="37.5664" lon="21.9493">
    <comp name="--.HHZ">
      <acc value="0.0970486606" flag="0"/>
      <vel value="0.0350011092" flag="0"/>
      <psa03 value="0.1733649082" flag="0"/>
      <psa10 value="0.0173728215" flag="0"/>
      <psa30 value="0.0020339985" flag="0"/>
    </comp>
    <comp name="--.HHE">
      <acc value="0.1219698015" flag="0"/>
      <vel value="0.0683550444" flag="0"/>
      <psa03 value="0.4981493913" flag="0"/>
      <psa10 value="0.0293758472" flag="0"/>
      <psa30 value="0.0036617105" flag="0"/>
    </comp>
    <comp name="--.HHN">
      <acc value="0.1285223987" flag="0"/>
      <vel value="0.0720761236" flag="0"/>
      <psa03 value="0.3217553319" flag="0"/>
      <psa10 value="0.0427693333" flag="0"/>
      <psa30 value="0.0033345023" flag="0"/>
    </comp>
  </station>
  <station code="AGRP" name="AGRP" netid="CL" insttype="CMG40-T" commtype="DIG" lat="38.3959" lon="21.7228">
    <comp name="00.HHE">
      <acc value="0.0249238449" flag="0"/>
      <vel value="0.0128466430" flag="0"/>
      <psa03 value="0.0728941044" flag="0"/>
      <psa10 value="0.0134526348" flag="0"/>
      <psa30 value="0.0009234647" flag="0"/>
    </comp>
    <comp name="00.HHN">
      <acc value="0.0343989192" flag="0"/>
      <vel value="0.0181349459" flag="0"/>
      <psa03 value="0.1418849783" flag="0"/>
      <psa10 value="0.0134236783" flag="0"/>
      <psa30 value="0.0006058647" flag="0"/>
    </comp>
    <comp name="00.HHZ">
      <acc value="0.0350821394" flag="0"/>
      <vel value="0.0197728764" flag="0"/>
      <psa03 value="0.0552021052" flag="0"/>
      <psa10 value="0.0074848265" flag="0"/>
      <psa30 value="0.0006604325" flag="0"/>
    </comp>
  </station>
  <station code="MALA" name="MALA" netid="CL" insttype="TRILLIUM-40" commtype="DIG" lat="38.3934" lon="21.8726">
    <comp name="01.HHN">
      <acc value="0.0460565823" flag="0"/>
      <vel value="0.0252075092" flag="0"/>
      <psa03 value="0.1574163163" flag="0"/>
      <psa10 value="0.0297608576" flag="0"/>
      <psa30 value="0.0018598375" flag="0"/>
    </comp>
    <comp name="01.HHE">
      <acc value="0.0630273597" flag="0"/>
      <vel value="0.0266636790" flag="0"/>
      <psa03 value="0.1553313483" flag="0"/>
      <psa10 value="0.0357290355" flag="0"/>
      <psa30 value="0.0028143204" flag="0"/>
    </comp>
    <comp name="01.HHZ">
      <acc value="0.0502165798" flag="0"/>
      <vel value="0.0168645568" flag="0"/>
      <psa03 value="0.0600951175" flag="0"/>
      <psa10 value="0.0157448545" flag="0"/>
      <psa30 value="0.0009028200" flag="0"/>
    </comp>
  </station>
  <station code="MG06" name="MG06" netid="CL" insttype="TRILLIUM-40" commtype="DIG" lat="38.4129" lon="21.9462">
    <comp name="06.HHE">
      <acc value="0.0797496793" flag="0"/>
      <vel value="0.0273169817" flag="0"/>
      <psa03 value="0.2337672691" flag="0"/>
      <psa10 value="0.0218533253" flag="0"/>
      <psa30 value="0.0011708467" flag="0"/>
    </comp>
    <comp name="06.HHN">
      <acc value="0.0620971766" flag="0"/>
      <vel value="0.0254192828" flag="0"/>
      <psa03 value="0.1109300138" flag="0"/>
      <psa10 value="0.0177391989" flag="0"/>
      <psa30 value="0.0014486365" flag="0"/>
    </comp>
    <comp name="06.HHZ">
      <acc value="0.0447726803" flag="0"/>
      <vel value="0.0116708946" flag="0"/>
      <psa03 value="0.0703334455" flag="0"/>
      <psa10 value="0.0089133938" flag="0"/>
      <psa30 value="0.0010115337" flag="0"/>
    </comp>
  </station>
  <station code="PSAM" name="PSAM" netid="CL" insttype="CMG40-T" commtype="DIG" lat="38.3218" lon="22.1842">
    <comp name="00.HHN">
      <acc value="0.1297984406" flag="0"/>
      <vel value="0.0669682836" flag="0"/>
      <psa03 value="0.3927729992" flag="0"/>
      <psa10 value="0.0367832175" flag="0"/>
      <psa30 value="0.0022674655" flag="0"/>
    </comp>
    <comp name="00.HHE">
      <acc value="0.1508298877" flag="0"/>
      <vel value="0.0601648808" flag="0"/>
      <psa03 value="0.3587079483" flag="0"/>
      <psa10 value="0.0289227109" flag="0"/>
      <psa30 value="0.0025294470" flag="0"/>
    </comp>
    <comp name="00.HHZ">
      <acc value="0.0877494644" flag="0"/>
      <vel value="0.0232969385" flag="0"/>
      <psa03 value="0.2048651811" flag="0"/>
      <psa10 value="0.0130455941" flag="0"/>
      <psa30 value="0.0007686556" flag="0"/>
    </comp>
  </station>
  <station code="ROD3" name="ROD3" netid="CL" insttype="CMG40-T" commtype="DIG" lat="38.3081" lon="21.892">
    <comp name="00.HHZ">
      <acc value="0.1647186995" flag="0"/>
      <vel value="0.0531592714" flag="0"/>
      <psa03 value="0.2939868773" flag="0"/>
      <psa10 value="0.0343513486" flag="0"/>
      <psa30 value="0.0016061274" flag="0"/>
    </comp>
    <comp name="00.HHN">
      <acc value="0.2956247272" flag="0"/>
      <vel value="0.1131684672" flag="0"/>
      <psa03 value="0.9417134608" flag="0"/>
      <psa10 value="0.0525573403" flag="0"/>
      <psa30 value="0.0032796212" flag="0"/>
    </comp>
    <comp name="00.HHE">
      <acc value="0.3448941210" flag="0"/>
      <vel value="0.1398700770" flag="0"/>
      <psa03 value="1.2116041685" flag="0"/>
      <psa10 value="0.0619493700" flag="0"/>
      <psa30 value="0.0036063221" flag="0"/>
    </comp>
  </station>
  <station code="TRIZ" name="TRIZ" netid="CL" insttype="STS-2" commtype="DIG" lat="38.3654" lon="22.0727">
    <comp name="00.HH2">
      <acc value="0.0976737667" flag="0"/>
      <vel value="0.0356887897" flag="0"/>
      <psa03 value="0.2923668970" flag="0"/>
      <psa10 value="0.0286082162" flag="0"/>
      <psa30 value="0.0021894369" flag="0"/>
    </comp>
    <comp name="00.HH3">
      <acc value="0.1437246174" flag="0"/>
      <vel value="0.0705487124" flag="0"/>
      <psa03 value="0.3983432174" flag="0"/>
      <psa10 value="0.0443685098" flag="0"/>
      <psa30 value="0.0034681737" flag="0"/>
    </comp>
    <comp name="00.HHZ">
      <acc value="0.1167765482" flag="0"/>
      <vel value="0.0396466313" flag="0"/>
      <psa03 value="0.2377242231" flag="0"/>
      <psa10 value="0.0111691768" flag="0"/>
      <psa30 value="0.0010620393" flag="0"/>
    </comp>
  </station>
  <station code="ZIRI" name="ZIRI" netid="CL" insttype="TRILLIUM-40" commtype="DIG" lat="38.3051" lon="21.9476">
    <comp name="01.HHZ">
      <acc value="0.1760617898" flag="0"/>
      <vel value="0.0704403777" flag="0"/>
      <psa03 value="0.5803437400" flag="0"/>
      <psa10 value="0.0169446346" flag="0"/>
      <psa30 value="0.0021178881" flag="0"/>
    </comp>
    <comp name="01.HHN">
      <acc value="0.2212603708" flag="0"/>
      <vel value="0.1060663703" flag="0"/>
      <psa03 value="0.7137283458" flag="0"/>
      <psa10 value="0.0472915185" flag="0"/>
      <psa30 value="0.0034865632" flag="0"/>
    </comp>
    <comp name="01.HHE">
      <acc value="0.3536259299" flag="0"/>
      <vel value="0.1961302406" flag="0"/>
      <psa03 value="0.8627172653" flag="0"/>
      <psa10 value="0.0930775630" flag="0"/>
      <psa30 value="0.0059200593" flag="0"/>
    </comp>
  </station>
  <station code="ACOR" name="ACOR" netid="HA" insttype="Horizon,120s,1200" commtype="DIG" lat="37.8905" lon="22.8694">
    <comp name="--.HHN">
      <acc value="0.1531402259" flag="0"/>
      <vel value="0.0737185410" flag="0"/>
      <psa03 value="0.2908540308" flag="0"/>
      <psa10 value="0.0418073636" flag="0"/>
      <psa30 value="0.0028835867" flag="0"/>
    </comp>
    <comp name="--.HHE">
      <acc value="0.1686534350" flag="0"/>
      <vel value="0.0700781047" flag="0"/>
      <psa03 value="0.3170269230" flag="0"/>
      <psa10 value="0.0317702515" flag="0"/>
      <psa30 value="0.0039563204" flag="0"/>
    </comp>
    <comp name="--.HHZ">
      <acc value="0.2198281428" flag="0"/>
      <vel value="0.0695353804" flag="0"/>
      <psa03 value="0.5531096213" flag="0"/>
      <psa10 value="0.0490751983" flag="0"/>
      <psa30 value="0.0026867675" flag="0"/>
    </comp>
  </station>
  <station code="ALIO" name="ALIO" netid="HA" insttype="25" commtype="DIG" lat="38.0657" lon="23.6727">
    <comp name="--.HHZ">
      <acc value="0.0263974434" flag="0"/>
      <vel value="0.0061219026" flag="0"/>
      <psa03 value="0.0431671976" flag="0"/>
      <psa10 value="0.0024105642" flag="0"/>
      <psa30 value="0.0002071074" flag="0"/>
    </comp>
    <comp name="--.HHE">
      <acc value="0.0311081742" flag="0"/>
      <vel value="0.0102613294" flag="0"/>
      <psa03 value="0.0488672455" flag="0"/>
      <psa10 value="0.0055193944" flag="0"/>
      <psa30 value="0.0003751048" flag="0"/>
    </comp>
    <comp name="--.HHN">
      <acc value="0.0372755796" flag="0"/>
      <vel value="0.0099066242" flag="0"/>
      <psa03 value="0.0448554266" flag="0"/>
      <psa10 value="0.0040619908" flag="0"/>
      <psa30 value="0.0003609417" flag="0"/>
    </comp>
  </station>
  <station code="AMPE" name="AMPE" netid="HA" insttype="1s-100Hz," commtype="DIG" lat="38.3015" lon="23.2688">
    <comp name="--.HHE">
      <acc value="0.0729857730" flag="0"/>
      <vel value="0.0382826471" flag="0"/>
      <psa03 value="0.1679261844" flag="0"/>
      <psa10 value="0.0623822636" flag="0"/>
      <psa30 value="0.0028078007" flag="0"/>
    </comp>
    <comp name="--.HHN">
      <acc value="0.0935941216" flag="0"/>
      <vel value="0.0349850713" flag="0"/>
      <psa03 value="0.2240696997" flag="0"/>
      <psa10 value="0.0291618241" flag="0"/>
      <psa30 value="0.0034635422" flag="0"/>
    </comp>
    <comp name="--.HHZ">
      <acc value="0.0424419956" flag="0"/>
      <vel value="0.0211909465" flag="0"/>
      <psa03 value="0.1208468146" flag="0"/>
      <psa10 value="0.0180478317" flag="0"/>
      <psa30 value="0.0015385734" flag="0"/>
    </comp>
  </station>
  <station code="ANTK" name="ANTK" netid="HA" insttype="25" commtype="DIG" lat="38.3605" lon="22.6385">
    <comp name="--.HHZ">
      <acc value="0.0318694409" flag="0"/>
      <vel value="0.0086052665" flag="0"/>
      <psa03 value="0.0469039370" flag="0"/>
      <psa10 value="0.0037884523" flag="0"/>
      <psa30 value="0.0002645921" flag="0"/>
    </comp>
    <comp name="--.HHN">
      <acc value="0.0279160932" flag="0"/>
      <vel value="0.0087599792" flag="0"/>
      <psa03 value="0.0677032873" flag="0"/>
      <psa10 value="0.0069585018" flag="0"/>
      <psa30 value="0.0004998377" flag="0"/>
    </comp>
    <comp name="--.HHE">
      <acc value="0.0364726674" flag="0"/>
      <vel value="0.0140394506" flag="0"/>
      <psa03 value="0.0841223784" flag="0"/>
      <psa10 value="0.0112097060" flag="0"/>
      <psa30 value="0.0006317078" flag="0"/>
    </comp>
  </station>
  <station code="ATAL" name="ATAL" netid="HA" insttype="120s," commtype="DIG" lat="38.6926" lon="23.0213">
    <comp name="--.HHE">
      <acc value="0.0326018635" flag="0"/>
      <vel value="0.0110957834" flag="0"/>
      <psa03 value="0.0533787928" flag="0"/>
      <psa10 value="0.0102430893" flag="0"/>
      <psa30 value="0.0006517503" flag="0"/>
    </comp>
    <comp name="--.HHN">
      <acc value="0.0310596449" flag="0"/>
      <vel value="0.0129204949" flag="0"/>
      <psa03 value="0.0832926998" flag="0"/>
      <psa10 value="0.0123359274" flag="0"/>
      <psa30 value="0.0011334554" flag="0"/>
    </comp>
    <comp name="--.HHZ">
      <acc value="0.0306382877" flag="0"/>
      <vel value="0.0114521505" flag="0"/>
      <psa03 value="0.0366111309" flag="0"/>
      <psa10 value="0.0085372628" flag="0"/>
      <psa30 value="0.0005630993" flag="0"/>
    </comp>
  </station>
  <station code="ATHU" name="ATHU" netid="HA" insttype="60s," commtype="DIG" lat="37.9665" lon="23.7845">
    <comp name="--.HHN">
      <acc value="0.0444751464" flag="0"/>
      <vel value="0.0180133890" flag="0"/>
      <psa03 value="0.0983222746" flag="0"/>
      <psa10 value="0.0061482324" flag="0"/>
      <psa30 value="0.0005104260" flag="0"/>
    </comp>
    <comp name="--.HHE">
      <acc value="0.0394464954" flag="0"/>
      <vel value="0.0191855348" flag="0"/>
      <psa03 value="0.1076304924" flag="0"/>
      <psa10 value="0.0077339035" flag="0"/>
      <psa30 value="0.0005867731" flag="0"/>
    </comp>
    <comp name="--.HHZ">
      <acc value="0.0341959120" flag="0"/>
      <vel value="0.0123017220" flag="0"/>
      <psa03 value="0.0717428385" flag="0"/>
      <psa10 value="0.0036794980" flag="0"/>
      <psa30 value="0.0003245974" flag="0"/>
    </comp>
  </station>
  <station code="AXAR" name="AXAR" netid="HA" insttype="Horizon,120s,1200" commtype="DIG" lat="38.7664" lon="22.659">
    <comp name="--.HHE">
      <acc value="0.0729944036" flag="0"/>
      <vel value="0.0402578452" flag="0"/>
      <psa03 value="0.2230732120" flag="0"/>
      <psa10 value="0.0273086152" flag="0"/>
      <psa30 value="0.0026954458" flag="0"/>
    </comp>
    <comp name="--.HHN">
      <acc value="0.0838835992" flag="0"/>
      <vel value="0.0410635806" flag="0"/>
      <psa03 value="0.3246494305" flag="0"/>
      <psa10 value="0.0442256214" flag="0"/>
      <psa30 value="0.0023727608" flag="0"/>
    </comp>
    <comp name="--.HHZ">
      <acc value="0.0577292192" flag="0"/>
      <vel value="0.0251134386" flag="0"/>
      <psa03 value="0.1761726884" flag="0"/>
      <psa10 value="0.0151926609" flag="0"/>
      <psa30 value="0.0011884866" flag="0"/>
    </comp>
  </station>
  <station code="DOMV" name="DOMV" netid="HA" insttype="60" commtype="DIG" lat="38.2569" lon="22.9795">
    <comp name="--.HHN">
      <acc value="0.1373505697" flag="0"/>
      <vel value="0.0547168470" flag="0"/>
      <psa03 value="0.2782397129" flag="0"/>
      <psa10 value="0.0189967939" flag="0"/>
      <psa30 value="0.0013142221" flag="0"/>
    </comp>
    <comp name="--.HHE">
      <acc value="0.1296308377" flag="0"/>
      <vel value="0.0443334946" flag="0"/>
      <psa03 value="0.1954463807" flag="0"/>
      <psa10 value="0.0139405135" flag="0"/>
      <psa30 value="0.0013455466" flag="0"/>
    </comp>
    <comp name="--.HHZ">
      <acc value="0.0811460993" flag="0"/>
      <vel value="0.0248854948" flag="0"/>
      <psa03 value="0.1351907608" flag="0"/>
      <psa10 value="0.0067383187" flag="0"/>
      <psa30 value="0.0006036062" flag="0"/>
    </comp>
  </station>
  <station code="EPID" name="EPID" netid="HA" insttype="30" commtype="DIG" lat="37.6144" lon="23.1189">
    <comp name="--.HHN">
      <acc value="0.6661920389" flag="0"/>
      <vel value="0.1835998809" flag="0"/>
      <psa03 value="0.9729405570" flag="0"/>
      <psa10 value="0.0506584660" flag="0"/>
      <psa30 value="0.0043340297" flag="0"/>
    </comp>
    <comp name="--.HHE">
      <acc value="0.6072172315" flag="0"/>
      <vel value="0.1926837845" flag="0"/>
      <psa03 value="0.7413018966" flag="0"/>
      <psa10 value="0.0499403718" flag="0"/>
      <psa30 value="0.0048751739" flag="0"/>
    </comp>
    <comp name="--.HHZ">
      <acc value="0.4609382838" flag="0"/>
      <vel value="0.1597763073" flag="0"/>
      <psa03 value="0.9339590453" flag="0"/>
      <psa10 value="0.0593349594" flag="0"/>
      <psa30 value="0.0033760951" flag="0"/>
    </comp>
  </station>
  <station code="ERTR" name="ERTR" netid="HA" insttype="Horizon,120s,1200" commtype="DIG" lat="38.4066" lon="23.7865">
    <comp name="--.HHE">
      <acc value="0.0299684293" flag="0"/>
      <vel value="0.0094439811" flag="0"/>
      <psa03 value="0.0487608521" flag="0"/>
      <psa10 value="0.0057336938" flag="0"/>
      <psa30 value="0.0004268384" flag="0"/>
    </comp>
    <comp name="--.HHN">
      <acc value="0.0329138044" flag="0"/>
      <vel value="0.0145486084" flag="0"/>
      <psa03 value="0.0785353325" flag="0"/>
      <psa10 value="0.0094480178" flag="0"/>
      <psa30 value="0.0006906333" flag="0"/>
    </comp>
    <comp name="--.HHZ">
      <acc value="0.0171228009" flag="0"/>
      <vel value="0.0078897329" flag="0"/>
      <psa03 value="0.0451697266" flag="0"/>
      <psa10 value="0.0041114301" flag="0"/>
      <psa30 value="0.0002206737" flag="0"/>
    </comp>
  </station>
  <station code="KALE" name="KALE" netid="HA" insttype="40," commtype="DIG" lat="38.3911" lon="22.1398">
    <comp name="--.HHE">
      <acc value="0.1072478752" flag="0"/>
      <vel value="0.0499349716" flag="0"/>
      <psa03 value="0.3037543898" flag="0"/>
      <psa10 value="0.0295920195" flag="0"/>
      <psa30 value="0.0018019621" flag="0"/>
    </comp>
    <comp name="--.HHN">
      <acc value="0.1364139213" flag="0"/>
      <vel value="0.0560398918" flag="0"/>
      <psa03 value="0.3248899161" flag="0"/>
      <psa10 value="0.0268483100" flag="0"/>
      <psa30 value="0.0019388108" flag="0"/>
    </comp>
    <comp name="--.HHZ">
      <acc value="0.0926680565" flag="0"/>
      <vel value="0.0360003217" flag="0"/>
      <psa03 value="0.3085966328" flag="0"/>
      <psa10 value="0.0122613385" flag="0"/>
      <psa30 value="0.0010675778" flag="0"/>
    </comp>
  </station>
  <station code="LAKA" name="LAKA" netid="HA" insttype="120s," commtype="DIG" lat="38.2401" lon="21.9785">
    <comp name="--.HHE">
      <acc value="0.0735843157" flag="0"/>
      <vel value="0.0373538803" flag="0"/>
      <psa03 value="0.1585465528" flag="0"/>
      <psa10 value="0.0186778517" flag="0"/>
      <psa30 value="0.0017145678" flag="0"/>
    </comp>
    <comp name="--.HHN">
      <acc value="0.0653761684" flag="0"/>
      <vel value="0.0329796975" flag="0"/>
      <psa03 value="0.2220036740" flag="0"/>
      <psa10 value="0.0225191266" flag="0"/>
      <psa30 value="0.0018546187" flag="0"/>
    </comp>
    <comp name="--.HHZ">
      <acc value="0.0394605431" flag="0"/>
      <vel value="0.0151367963" flag="0"/>
      <psa03 value="0.0820929608" flag="0"/>
      <psa10 value="0.0079560686" flag="0"/>
      <psa30 value="0.0006886517" flag="0"/>
    </comp>
  </station>
  <station code="LOUT" name="LOUT" netid="HA" insttype="30" commtype="DIG" lat="37.9879" lon="22.9743">
