<?xml version="1.0" encoding="UTF-8" standalone="yes"?>
<!DOCTYPE earthquake SYSTEM "stationlist.dtd">
<stationlist created="" xmlns="ch.ethz.sed.shakemap.usgs.xml">
  <station code="AGRP" name="AGRP" netid="CL" insttype="CMG40-T" commtype="DIG" lat="38.3959" lon="21.7228">
    <comp name="00.HHN">
      <acc value="0.0343989192" flag="0"/>
      <vel value="0.0181349459" flag="0"/>
      <psa03 value="0.1418849783" flag="0"/>
      <psa10 value="0.0134236783" flag="0"/>
      <psa30 value="0.0006058647" flag="0"/>
    </comp>
    <comp name="00.HHZ">
      <acc value="0.0350821394" flag="0"/>
      <vel value="0.0197728764" flag="0"/>
      <psa03 value="0.0552021052" flag="0"/>
      <psa10 value="0.0074848265" flag="0"/>
      <psa30 value="0.0006604325" flag="0"/>
    </comp>
    <comp name="00.HHE">
      <acc value="0.0249238449" flag="0"/>
      <vel value="0.0128466430" flag="0"/>
      <psa03 value="0.0728941044" flag="0"/>
      <psa10 value="0.0134526348" flag="0"/>
      <psa30 value="0.0009234647" flag="0"/>
    </comp>
  </station>
  <station code="MALA" name="MALA" netid="CL" insttype="TRILLIUM-40" commtype="DIG" lat="38.3934" lon="21.8726">
    <comp name="01.HHZ">
      <acc value="0.0502165798" flag="0"/>
      <vel value="0.0168645568" flag="0"/>
      <psa03 value="0.0600951175" flag="0"/>
      <psa10 value="0.0157448545" flag="0"/>
      <psa30 value="0.0009028200" flag="0"/>
    </comp>
    <comp name="01.HHN">
      <acc value="0.0460565823" flag="0"/>
      <vel value="0.0252075092" flag="0"/>
      <psa03 value="0.1574163163" flag="0"/>
      <psa10 value="0.0297608576" flag="0"/>
      <psa30 value="0.0018598375" flag="0"/>
    </comp>
    <comp name="01.HHE">
      <acc value="0.0630273597" flag="0"/>
      <vel value="0.0266636790" flag="0"/>
      <psa03 value="0.1553313483" flag="0"/>
      <psa10 value="0.0357290355" flag="0"/>
      <psa30 value="0.0028143204" flag="0"/>
    </comp>
  </station>
  <station code="MG06" name="MG06" netid="CL" insttype="TRILLIUM-40" commtype="DIG" lat="38.4129" lon="21.9462">
    <comp name="06.HHE">
      <acc value="0.0797496793" flag="0"/>
      <vel value="0.0273169817" flag="0"/>
      <psa03 value="0.2337672691" flag="0"/>
      <psa10 value="0.0218533253" flag="0"/>
      <psa30 value="0.0011708467" flag="0"/>
    </comp>
    <comp name="06.HHN">
      <acc value="0.0620971766" flag="0"/>
      <vel value="0.0254192828" flag="0"/>
      <psa03 value="0.1109300138" flag="0"/>
      <psa10 value="0.0177391989" flag="0"/>
      <psa30 value="0.0014486365" flag="0"/>
    </comp>
    <comp name="06.HHZ">
      <acc value="0.0447726803" flag="0"/>
      <vel value="0.0116708946" flag="0"/>
      <psa03 value="0.0703334455" flag="0"/>
      <psa10 value="0.0089133938" flag="0"/>
      <psa30 value="0.0010115337" flag="0"/>
    </comp>
  </station>
  <station code="PSAM" name="PSAM" netid="CL" insttype="CMG40-T" commtype="DIG" lat="38.3218" lon="22.1842">
    <comp name="00.HHE">
      <acc value="0.1508298877" flag="0"/>
      <vel value="0.0601648808" flag="0"/>
      <psa03 value="0.3587079483" flag="0"/>
      <psa10 value="0.0289227109" flag="0"/>
      <psa30 value="0.0025294470" flag="0"/>
    </comp>
    <comp name="00.HHZ">
      <acc value="0.0877494644" flag="0"/>
      <vel value="0.0232969385" flag="0"/>
      <psa03 value="0.2048651811" flag="0"/>
      <psa10 value="0.0130455941" flag="0"/>
      <psa30 value="0.0007686556" flag="0"/>
    </comp>
    <comp name="00.HHN">
      <acc value="0.1297984406" flag="0"/>
      <vel value="0.0669682836" flag="0"/>
      <psa03 value="0.3927729992" flag="0"/>
      <psa10 value="0.0367832175" flag="0"/>
      <psa30 value="0.0022674655" flag="0"/>
    </comp>
  </station>
  <station code="ROD3" name="ROD3" netid="CL" insttype="CMG40-T" commtype="DIG" lat="38.3081" lon="21.892">
    <comp name="00.HHE">
      <acc value="0.3448941210" flag="0"/>
      <vel value="0.1398700770" flag="0"/>
      <psa03 value="1.2116041685" flag="0"/>
      <psa10 value="0.0619493700" flag="0"/>
      <psa30 value="0.0036063221" flag="0"/>
    </comp>
    <comp name="00.HHZ">
      <acc value="0.1647186995" flag="0"/>
      <vel value="0.0531592714" flag="0"/>
      <psa03 value="0.2939868773" flag="0"/>
      <psa10 value="0.0343513486" flag="0"/>
      <psa30 value="0.0016061274" flag="0"/>
    </comp>
    <comp name="00.HHN">
      <acc value="0.2956247272" flag="0"/>
      <vel value="0.1131684672" flag="0"/>
      <psa03 value="0.9417134608" flag="0"/>
      <psa10 value="0.0525573403" flag="0"/>
      <psa30 value="0.0032796212" flag="0"/>
    </comp>
  </station>
  <station code="TRIZ" name="TRIZ" netid="CL" insttype="STS-2" commtype="DIG" lat="38.3654" lon="22.0727">
    <comp name="00.HH2">
      <acc value="0.0976737667" flag="0"/>
      <vel value="0.0356887897" flag="0"/>
      <psa03 value="0.2923668970" flag="0"/>
      <psa10 value="0.0286082162" flag="0"/>
      <psa30 value="0.0021894369" flag="0"/>
    </comp>
    <comp name="00.HHZ">
      <acc value="0.1167765482" flag="0"/>
      <vel value="0.0396466313" flag="0"/>
      <psa03 value="0.2377242231" flag="0"/>
      <psa10 value="0.0111691768" flag="0"/>
      <psa30 value="0.0010620393" flag="0"/>
    </comp>
    <comp name="00.HH3">
      <acc value="0.1437246174" flag="0"/>
      <vel value="0.0705487124" flag="0"/>
      <psa03 value="0.3983432174" flag="0"/>
      <psa10 value="0.0443685098" flag="0"/>
      <psa30 value="0.0034681737" flag="0"/>
    </comp>
  </station>
  <station code="ZIRI" name="ZIRI" netid="CL" insttype="TRILLIUM-40" commtype="DIG" lat="38.3051" lon="21.9476">
    <comp name="01.HHZ">
      <acc value="0.1760617898" flag="0"/>
      <vel value="0.0704403777" flag="0"/>
      <psa03 value="0.5803437400" flag="0"/>
      <psa10 value="0.0169446346" flag="0"/>
      <psa30 value="0.0021178881" flag="0"/>
    </comp>
    <comp name="01.HHE">
      <acc value="0.3536259299" flag="0"/>
      <vel value="0.1961302406" flag="0"/>
      <psa03 value="0.8627172653" flag="0"/>
      <psa10 value="0.0930775630" flag="0"/>
      <psa30 value="0.0059200593" flag="0"/>
    </comp>
    <comp name="01.HHN">
      <acc value="0.2212603708" flag="0"/>
      <vel value="0.1060663703" flag="0"/>
      <psa03 value="0.7137283458" flag="0"/>
      <psa10 value="0.0472915185" flag="0"/>
      <psa30 value="0.0034865632" flag="0"/>
    </comp>
  </station>
  <station code="KLV" name="KLV" netid="MN" insttype="" commtype="DIG" lat="38.0437" lon="22.1504">
    <comp name="--.HHN">
      <acc value="0.0783749250" flag="0"/>
      <vel value="0.0358941653" flag="0"/>
      <psa03 value="0.1509222906" flag="0"/>
      <psa10 value="0.0299481623" flag="0"/>
      <psa30 value="0.0023702224" flag="0"/>
    </comp>
    <comp name="--.HHE">
      <acc value="0.1741904014" flag="0"/>
      <vel value="0.0458777225" flag="0"/>
      <psa03 value="0.2801374850" flag="0"/>
      <psa10 value="0.0257188958" flag="0"/>
      <psa30 value="0.0023922276" flag="0"/>
    </comp>
    <comp name="--.HHZ">
      <acc value="0.0706678208" flag="0"/>
      <vel value="0.0319470997" flag="0"/>
      <psa03 value="0.1530619052" flag="0"/>
      <psa10 value="0.0342756048" flag="0"/>
      <psa30 value="0.0018011325" flag="0"/>
    </comp>
  </station>
</stationlist>
