<stationlist created="1775808407">
	<station code="AGRP" name="AGRP" netid="CL" source="Corinth Riff Laboratory (CRLNET)" insttype="" lat="38.3959" lon="21.72277">
		<comp name="00.HNE" depth="0.0">
			<acc value="0.0233784244166712" flag="0"/>
			<vel value="0.0123180834395524" flag="0"/>
			<psa03 value="0.0684552535745883" flag="0"/>
			<psa10 value="0.0129660498746701" flag="0"/>
			<psa30 value="0.00089773217868433" flag="0"/>
		</comp>
		<comp name="00.HNN" depth="0.0">
			<acc value="0.0331984637380198" flag="0"/>
			<vel value="0.0181937207127665" flag="0"/>
			<psa03 value="0.141099013783852" flag="0"/>
			<psa10 value="0.0132303458204794" flag="0"/>
			<psa30 value="0.000582532079474679" flag="0"/>
		</comp>
		<comp name="00.HNZ" depth="0.0">
			<acc value="0.0338148870067857" flag="0"/>
			<vel value="0.0192417148512088" flag="0"/>
			<psa03 value="0.0545779488545903" flag="0"/>
			<psa10 value="0.00718007142574399" flag="0"/>
			<psa30 value="0.000647904222558329" flag="0"/>
		</comp>
	</station>
	<station code="MALA" name="MALA" netid="CL" source="Corinth Riff Laboratory (CRLNET)" insttype="" lat="38.39341" lon="21.87263">
		<comp name="01.HNE" depth="0.0">
			<acc value="0.078196508169992" flag="0"/>
			<vel value="0.0340709194756192" flag="0"/>
			<psa03 value="0.187722289847076" flag="0"/>
			<psa10 value="0.0446310953410283" flag="0"/>
			<psa30 value="0.00387446083068183" flag="0"/>
		</comp>
		<comp name="01.HNN" depth="0.0">
			<acc value="0.0683999695817924" flag="0"/>
			<vel value="0.0332010537491158" flag="0"/>
			<psa03 value="0.190832704230097" flag="0"/>
			<psa10 value="0.0427712308841357" flag="0"/>
			<psa30 value="0.00301377443943244" flag="0"/>
		</comp>
		<comp name="01.HNZ" depth="0.0">
			<acc value="0.0696103084223884" flag="0"/>
			<vel value="0.0231241377423002" flag="0"/>
			<psa03 value="0.0815521107604342" flag="0"/>
			<psa10 value="0.0206238106012359" flag="0"/>
			<psa30 value="0.0014089772961643" flag="0"/>
		</comp>
	</station>
	<station code="ROD3" name="ROD3" netid="CL" source="Corinth Riff Laboratory (CRLNET)" insttype="" lat="38.30811" lon="21.89204">
		<comp name="00.HNE" depth="0.0">
			<acc value="0.266963947045923" flag="0"/>
			<vel value="0.113557104330453" flag="0"/>
			<psa03 value="0.991876373608541" flag="0"/>
			<psa10 value="0.0517140808040537" flag="0"/>
			<psa30 value="0.00285593252484691" flag="0"/>
		</comp>
		<comp name="00.HNN" depth="0.0">
			<acc value="0.25555571273154" flag="0"/>
			<vel value="0.099178227880964" flag="0"/>
			<psa03 value="0.775284608800433" flag="0"/>
			<psa10 value="0.0457429989991887" flag="0"/>
			<psa30 value="0.00277049207316964" flag="0"/>
		</comp>
		<comp name="00.HNZ" depth="0.0">
			<acc value="0.137148062817767" flag="0"/>
			<vel value="0.0458212722777751" flag="0"/>
			<psa03 value="0.25040023361991" flag="0"/>
			<psa10 value="0.0284508116016393" flag="0"/>
			<psa30 value="0.0012473613815698" flag="0"/>
		</comp>
	</station>
	<station code="TRIZ" name="TRIZ" netid="CL" source="Corinth Riff Laboratory (CRLNET)" insttype="" lat="38.36543" lon="22.07272">
		<comp name="00.HNE" depth="0.0">
			<acc value="0.0652973125099171" flag="0"/>
			<vel value="0.0298913218849443" flag="0"/>
			<psa03 value="0.284625125851053" flag="0"/>
			<psa10 value="0.0240997002368655" flag="0"/>
			<psa30 value="0.00210683123389612" flag="0"/>
		</comp>
		<comp name="00.HNN" depth="0.0">
			<acc value="0.147820921645539" flag="0"/>
			<vel value="0.0766771438163129" flag="0"/>
			<psa03 value="0.41289385219133" flag="0"/>
			<psa10 value="0.0486509416361169" flag="0"/>
			<psa30 value="0.00423406340258738" flag="0"/>
		</comp>
		<comp name="00.HNZ" depth="0.0">
			<acc value="0.113970373579141" flag="0"/>
			<vel value="0.0392100610410829" flag="0"/>
			<psa03 value="0.238476131206646" flag="0"/>
			<psa10 value="0.0115070344720602" flag="0"/>
			<psa30 value="0.00105637279201306" flag="0"/>
		</comp>
	</station>
	<station code="KTHA" name="KTHA" netid="GE" source="GEOFON" insttype="" lat="36.2566" lon="23.0621">
		<comp name="--.HNE" depth="0.0">
			<acc value="0.0349466997286779" flag="0"/>
			<vel value="0.0107272847760652" flag="0"/>
			<psa03 value="0.0613135408878392" flag="0"/>
			<psa10 value="0.00262748663621961" flag="0"/>
			<psa30 value="0.000217521623281668" flag="0"/>
		</comp>
		<comp name="--.HNN" depth="0.0">
			<acc value="0.0293330352080612" flag="0"/>
			<vel value="0.0089782435614749" flag="0"/>
			<psa03 value="0.0515442426781114" flag="0"/>
			<psa10 value="0.00192833016428463" flag="0"/>
			<psa30 value="0.000145629464945674" flag="0"/>
		</comp>
		<comp name="--.HNZ" depth="0.0">
			<acc value="0.019669871107102" flag="0"/>
			<vel value="0.00482041859208273" flag="0"/>
			<psa03 value="0.0242395119987086" flag="0"/>
			<psa10 value="0.00158768291057588" flag="0"/>
			<psa30 value="0.000109957505499262" flag="0"/>
		</comp>
	</station>
	<station code="ATHU" name="ATHU" netid="HA" source="Hellenic Seismological Network, University of Athens, Seismological Laboratory (HA)" insttype="" lat="37.9665" lon="23.7845">
		<comp name="--.HNE" depth="0.0">
			<acc value="0.00245160452053649" flag="0"/>
			<vel value="0.00103975408485082" flag="0"/>
			<psa03 value="0.00540118853139921" flag="0"/>
			<psa10 value="0.000347202834468175" flag="0"/>
			<psa30 value="2.21134587232173e-05" flag="0"/>
		</comp>
		<comp name="--.HNN" depth="0.0">
			<acc value="0.00185402885506155" flag="0"/>
			<vel value="0.000712084796777264" flag="0"/>
			<psa03 value="0.00433605221613741" flag="0"/>
			<psa10 value="0.000210437104487901" flag="0"/>
			<psa30 value="1.59709880125951e-05" flag="0"/>
		</comp>
		<comp name="--.HNZ" depth="0.0">
			<acc value="0.00215223814235517" flag="0"/>
			<vel value="0.00112274669747974" flag="0"/>
			<psa03 value="0.00622980266781079" flag="0"/>
			<psa10 value="0.000452589649811855" flag="0"/>
			<psa30 value="2.85691321481281e-05" flag="0"/>
		</comp>
	</station>
	<station code="AGR3" name="AGR3" netid="HI" source="ITSAK Strong Motion Network" insttype="" lat="38.5893" lon="21.4162">
		<comp name="--.HNE" depth="0.0">
			<acc value="0.0868153422010864" flag="0"/>
			<vel value="0.0439865546233876" flag="0"/>
			<psa03 value="0.287961638545311" flag="0"/>
			<psa10 value="0.0320568536092247" flag="0"/>
			<psa30 value="0.00248424706917628" flag="0"/>
		</comp>
		<comp name="--.HNN" depth="0.0">
			<acc value="0.067496878272706" flag="0"/>
			<vel value="0.0459853716571615" flag="0"/>
			<psa03 value="0.298552402631455" flag="0"/>
			<psa10 value="0.0434524747631994" flag="0"/>
			<psa30 value="0.00315060662889345" flag="0"/>
		</comp>
		<comp name="--.HNZ" depth="0.0">
			<acc value="0.0628183438262233" flag="0"/>
			<vel value="0.0195236074895632" flag="0"/>
			<psa03 value="0.0981342196604347" flag="0"/>
			<psa10 value="0.011264575285329" flag="0"/>
			<psa30 value="0.00178628437423983" flag="0"/>
		</comp>
	</station>
	<station code="AIG2" name="AIG2" netid="HI" source="ITSAK Strong Motion Network" insttype="" lat="38.2417" lon="22.0726">
		<comp name="--.HNE" depth="0.0">
			<acc value="0.17822590641884" flag="0"/>
			<vel value="0.0580456846722863" flag="0"/>
			<psa03 value="0.23345390267532" flag="0"/>
			<psa10 value="0.0403375259131254" flag="0"/>
			<psa30 value="0.00323253372282802" flag="0"/>
		</comp>
		<comp name="--.HNN" depth="0.0">
			<acc value="0.123660415994208" flag="0"/>
			<vel value="0.0424812839337859" flag="0"/>
			<psa03 value="0.259021742252545" flag="0"/>
			<psa10 value="0.0292828323439301" flag="0"/>
			<psa30 value="0.00301973254246086" flag="0"/>
		</comp>
		<comp name="--.HNZ" depth="0.0">
			<acc value="0.0866932857195285" flag="0"/>
			<vel value="0.0252945688021155" flag="0"/>
			<psa03 value="0.179337859419709" flag="0"/>
			<psa10 value="0.0194864015034653" flag="0"/>
			<psa30 value="0.00105278203330959" flag="0"/>
		</comp>
	</station>
	<station code="AKR1" name="AKR1" netid="HI" source="ITSAK Strong Motion Network" insttype="" lat="38.153583" lon="22.31326">
		<comp name="--.HNE" depth="0.0">
			<acc value="0.353372561391404" flag="0"/>
			<vel value="0.127622542555127" flag="0"/>
			<psa03 value="0.664688615692" flag="0"/>
			<psa10 value="0.0631894284895198" flag="0"/>
			<psa30 value="0.00357764033444734" flag="0"/>
		</comp>
		<comp name="--.HNN" depth="0.0">
			<acc value="0.364655502943771" flag="0"/>
			<vel value="0.156414959979453" flag="0"/>
			<psa03 value="1.32227242739227" flag="0"/>
			<psa10 value="0.06894393719748" flag="0"/>
			<psa30 value="0.00499773690887592" flag="0"/>
		</comp>
		<comp name="--.HNZ" depth="0.0">
			<acc value="0.228438964353027" flag="0"/>
			<vel value="0.0677834737211168" flag="0"/>
			<psa03 value="0.366264138201625" flag="0"/>
			<psa10 value="0.0349052798034807" flag="0"/>
			<psa30 value="0.00180702303974131" flag="0"/>
		</comp>
	</station>
	<station code="ARE2" name="ARE2" netid="HI" source="ITSAK Strong Motion Network" insttype="" lat="36.66629" lon="22.382635">
		<comp name="--.HNE" depth="0.0">
			<acc value="0.0300512687606604" flag="0"/>
			<vel value="0.017871704009662" flag="0"/>
			<psa03 value="0.0825905493435606" flag="0"/>
			<psa10 value="0.0164915431087947" flag="0"/>
			<psa30 value="0.00123415821525816" flag="0"/>
		</comp>
		<comp name="--.HNN" depth="0.0">
			<acc value="0.026598289279036" flag="0"/>
			<vel value="0.0137504452898753" flag="0"/>
			<psa03 value="0.0701802793074105" flag="0"/>
			<psa10 value="0.00956660436558876" flag="0"/>
			<psa30 value="0.000718133770754561" flag="0"/>
		</comp>
		<comp name="--.HNZ" depth="0.0">
			<acc value="0.0159046380933664" flag="0"/>
			<vel value="0.00861027953651946" flag="0"/>
			<psa03 value="0.0390736431245935" flag="0"/>
			<psa10 value="0.00764641294358086" flag="0"/>
			<psa30 value="0.000953983300878442" flag="0"/>
		</comp>
	</station>
	<station code="ARS1" name="ARS1" netid="HI" source="ITSAK Strong Motion Network" insttype="" lat="37.6349" lon="22.7293">
		<comp name="--.HNE" depth="0.0">
			<acc value="1.31491355417093" flag="0"/>
			<vel value="0.520073042951667" flag="0"/>
			<psa03 value="2.78957129540781" flag="0"/>
			<psa10 value="0.177193313187379" flag="0"/>
			<psa30 value="0.0160532834512432" flag="0"/>
		</comp>
		<comp name="--.HNN" depth="0.0">
			<acc value="1.14918829752995" flag="0"/>
			<vel value="0.536571163490307" flag="0"/>
			<psa03 value="3.65367903830496" flag="0"/>
			<psa10 value="0.284289832806201" flag="0"/>
			<psa30 value="0.018458586124074" flag="0"/>
		</comp>
		<comp name="--.HNZ" depth="0.0">
			<acc value="1.14136146472874" flag="0"/>
			<vel value="0.298725324703874" flag="0"/>
			<psa03 value="1.34406212085252" flag="0"/>
			<psa10 value="0.0780152406268126" flag="0"/>
			<psa30 value="0.00639444443389477" flag="0"/>
		</comp>
	</station>
	<station code="AST1" name="AST1" netid="HI" source="ITSAK Strong Motion Network" insttype="" lat="38.5416" lon="21.0895">
		<comp name="--.HNE" depth="0.0">
			<acc value="0.0215827826278841" flag="0"/>
			<vel value="0.0080932812938113" flag="0"/>
			<psa03 value="0.0507106145376717" flag="0"/>
			<psa10 value="0.00662363393949138" flag="0"/>
			<psa30 value="0.000733638756217087" flag="0"/>
		</comp>
		<comp name="--.HNN" depth="0.0">
			<acc value="0.0243735563988072" flag="0"/>
			<vel value="0.0103655577109342" flag="0"/>
			<psa03 value="0.0420422512386452" flag="0"/>
			<psa10 value="0.00833715104534014" flag="0"/>
			<psa30 value="0.000646815244168855" flag="0"/>
		</comp>
		<comp name="--.HNZ" depth="0.0">
			<acc value="0.0170052278657564" flag="0"/>
			<vel value="0.00776390488448949" flag="0"/>
			<psa03 value="0.049915598330083" flag="0"/>
			<psa10 value="0.0096794005877849" flag="0"/>
			<psa30 value="0.000464809280917028" flag="0"/>
		</comp>
	</station>
	<station code="ATH5" name="ATH5" netid="HI" source="ITSAK Strong Motion Network" insttype="" lat="37.975421" lon="23.737098">
		<comp name="--.HNE" depth="0.0">
			<acc value="0.0742911452393798" flag="0"/>
			<vel value="0.026853459297053" flag="0"/>
			<psa03 value="0.168936899573831" flag="0"/>
			<psa10 value="0.00779896601822336" flag="0"/>
			<psa30 value="0.00107774618706226" flag="0"/>
		</comp>
		<comp name="--.HNN" depth="0.0">
			<acc value="0.0939744918639815" flag="0"/>
			<vel value="0.0405629294745827" flag="0"/>
			<psa03 value="0.150252265975221" flag="0"/>
			<psa10 value="0.00970330373375101" flag="0"/>
			<psa30 value="0.00104084478419208" flag="0"/>
		</comp>
		<comp name="--.HNZ" depth="0.0">
			<acc value="0.0244652765089806" flag="0"/>
			<vel value="0.00842753198010952" flag="0"/>
			<psa03 value="0.056689692913937" flag="0"/>
			<psa10 value="0.00686473788019417" flag="0"/>
			<psa30 value="0.000662118601691186" flag="0"/>
		</comp>
	</station>
	<station code="GTH2" name="GTH2" netid="HI" source="ITSAK Strong Motion Network" insttype="" lat="36.7603" lon="22.5659">
		<comp name="--.HNE" depth="0.0">
			<acc value="0.092875041606598" flag="0"/>
			<vel value="0.0613715386406943" flag="0"/>
			<psa03 value="0.258059032644425" flag="0"/>
			<psa10 value="0.0521173787705647" flag="0"/>
			<psa30 value="0.00265093748659836" flag="0"/>
		</comp>
		<comp name="--.HNN" depth="0.0">
			<acc value="0.0879754639731211" flag="0"/>
			<vel value="0.0506996342237261" flag="0"/>
			<psa03 value="0.261896557694959" flag="0"/>
			<psa10 value="0.0435987982064094" flag="0"/>
			<psa30 value="0.00316908951996094" flag="0"/>
		</comp>
		<comp name="--.HNZ" depth="0.0">
			<acc value="0.0526859241438345" flag="0"/>
			<vel value="0.0209281363209037" flag="0"/>
			<psa03 value="0.137272739478624" flag="0"/>
			<psa10 value="0.0130247506383076" flag="0"/>
			<psa30 value="0.00145230766658869" flag="0"/>
		</comp>
	</station>
	<station code="KAL3" name="KAL3" netid="HI" source="ITSAK Strong Motion Network" insttype="" lat="37.0246" lon="22.103">
		<comp name="--.HNE" depth="0.0">
			<acc value="0.0908606247579672" flag="0"/>
			<vel value="0.07141769281999" flag="0"/>
			<psa03 value="0.217172865803197" flag="0"/>
			<psa10 value="0.0987273302010972" flag="0"/>
			<psa30 value="0.00435710322003811" flag="0"/>
		</comp>
		<comp name="--.HNN" depth="0.0">
			<acc value="0.121766276993974" flag="0"/>
			<vel value="0.114667479871426" flag="0"/>
			<psa03 value="0.328980209991027" flag="0"/>
			<psa10 value="0.0990079687920265" flag="0"/>
			<psa30 value="0.00851901184272543" flag="0"/>
		</comp>
		<comp name="--.HNZ" depth="0.0">
			<acc value="0.052986557172538" flag="0"/>
			<vel value="0.0391375677012441" flag="0"/>
			<psa03 value="0.140316368187422" flag="0"/>
			<psa10 value="0.0483804099647214" flag="0"/>
			<psa30 value="0.003785979969259" flag="0"/>
		</comp>
	</station>
	<station code="KIF1" name="KIF1" netid="HI" source="ITSAK Strong Motion Network" insttype="" lat="38.077273" lon="23.814551">
		<comp name="--.HNE" depth="0.0">
			<acc value="0.0551531004941109" flag="0"/>
			<vel value="0.0280545045588914" flag="0"/>
			<psa03 value="0.183605704643509" flag="0"/>
			<psa10 value="0.0188919308727035" flag="0"/>
			<psa30 value="0.00113838301645461" flag="0"/>
		</comp>
		<comp name="--.HNN" depth="0.0">
			<acc value="0.0443200187289421" flag="0"/>
			<vel value="0.0177201111835089" flag="0"/>
			<psa03 value="0.120138791938689" flag="0"/>
			<psa10 value="0.013282176128983" flag="0"/>
			<psa30 value="0.00095181221955496" flag="0"/>
		</comp>
		<comp name="--.HNZ" depth="0.0">
			<acc value="0.0338891568575489" flag="0"/>
			<vel value="0.0120754390009296" flag="0"/>
			<psa03 value="0.108074940684416" flag="0"/>
			<psa10 value="0.00554226105384481" flag="0"/>
			<psa30 value="0.000690131030293769" flag="0"/>
		</comp>
	</station>
	<station code="KLV1" name="KLV1" netid="HI" source="ITSAK Strong Motion Network" insttype="" lat="38.03256" lon="22.10797">
		<comp name="--.HNE" depth="0.0">
			<acc value="0.246554589904541" flag="0"/>
			<vel value="0.117098673193999" flag="0"/>
			<psa03 value="0.759607820290132" flag="0"/>
			<psa10 value="0.0576948044976465" flag="0"/>
			<psa30 value="0.00447529771651009" flag="0"/>
		</comp>
		<comp name="--.HNN" depth="0.0">
			<acc value="0.184404126060551" flag="0"/>
			<vel value="0.0996255331984149" flag="0"/>
			<psa03 value="0.636258607343474" flag="0"/>
			<psa10 value="0.0362106250261954" flag="0"/>
			<psa30 value="0.00329200037053491" flag="0"/>
		</comp>
		<comp name="--.HNZ" depth="0.0">
			<acc value="0.104708184010473" flag="0"/>
			<vel value="0.032605174990408" flag="0"/>
			<psa03 value="0.134681557408862" flag="0"/>
			<psa10 value="0.0295139114017836" flag="0"/>
			<psa30 value="0.00150101412231901" flag="0"/>
		</comp>
	</station>
	<station code="KMV1" name="KMV1" netid="HI" source="ITSAK Strong Motion Network" insttype="" lat="38.7794" lon="22.7846">
		<comp name="--.HNE" depth="0.0">
			<acc value="0.0406318803159155" flag="0"/>
			<vel value="0.0242619555976238" flag="0"/>
			<psa03 value="0.125469707585687" flag="0"/>
			<psa10 value="0.0330166246893485" flag="0"/>
			<psa30 value="0.00114919446182647" flag="0"/>
		</comp>
		<comp name="--.HNN" depth="0.0">
			<acc value="0.0715023403849199" flag="0"/>
			<vel value="0.0289788838006265" flag="0"/>
			<psa03 value="0.345342127221077" flag="0"/>
			<psa10 value="0.0192850206629729" flag="0"/>
			<psa30 value="0.0016374747246642" flag="0"/>
		</comp>
		<comp name="--.HNZ" depth="0.0">
			<acc value="0.0326001869924337" flag="0"/>
			<vel value="0.0143898308476628" flag="0"/>
			<psa03 value="0.10572383701867" flag="0"/>
			<psa10 value="0.0143921174696495" flag="0"/>
			<psa30 value="0.00102531365116408" flag="0"/>
		</comp>
	</station>
	<station code="KOR2" name="KOR2" netid="HI" source="ITSAK Strong Motion Network" insttype="" lat="37.9401" lon="22.9495">
		<comp name="--.HNE" depth="0.0">
			<acc value="0.592992810799384" flag="0"/>
			<vel value="0.131390060418698" flag="0"/>
			<psa03 value="0.700274889774677" flag="0"/>
			<psa10 value="0.0673468789002058" flag="0"/>
			<psa30 value="0.00645633228366109" flag="0"/>
		</comp>
		<comp name="--.HNN" depth="0.0">
			<acc value="0.434142132291283" flag="0"/>
			<vel value="0.126917905579378" flag="0"/>
			<psa03 value="0.833086854582204" flag="0"/>
			<psa10 value="0.0914109480266851" flag="0"/>
			<psa30 value="0.00634499365802356" flag="0"/>
		</comp>
		<comp name="--.HNZ" depth="0.0">
			<acc value="0.232847246977707" flag="0"/>
			<vel value="0.082523387458881" flag="0"/>
			<psa03 value="0.472355416228125" flag="0"/>
			<psa10 value="0.0581120458878409" flag="0"/>
			<psa30 value="0.00320515149222296" flag="0"/>
		</comp>
	</station>
	<station code="KRI1" name="KRI1" netid="HI" source="ITSAK Strong Motion Network" insttype="" lat="37.6621" lon="20.8172">
		<comp name="--.HNE" depth="0.0">
			<acc value="0.0319750605814635" flag="0"/>
			<vel value="0.0148453037101483" flag="0"/>
			<psa03 value="0.111089088273568" flag="0"/>
			<psa10 value="0.0229981678907536" flag="0"/>
			<psa30 value="0.000764740243621322" flag="0"/>
		</comp>
		<comp name="--.HNN" depth="0.0">
			<acc value="0.0266824022000481" flag="0"/>
			<vel value="0.0135160957852295" flag="0"/>
			<psa03 value="0.087841079457079" flag="0"/>
			<psa10 value="0.0192631398384757" flag="0"/>
			<psa30 value="0.000867511947575665" flag="0"/>
		</comp>
		<comp name="--.HNZ" depth="0.0">
			<acc value="0.0214791823293222" flag="0"/>
			<vel value="0.00898118707503401" flag="0"/>
			<psa03 value="0.0717843282761157" flag="0"/>
			<psa10 value="0.00539067413695552" flag="0"/>
			<psa30 value="0.000368882743963071" flag="0"/>
		</comp>
	</station>
	<station code="KYP2" name="KYP2" netid="HI" source="ITSAK Strong Motion Network" insttype="" lat="37.2497" lon="21.667">
		<comp name="--.HNE" depth="0.0">
			<acc value="0.0676778231587682" flag="0"/>
			<vel value="0.0262917513422659" flag="0"/>
			<psa03 value="0.174531613946201" flag="0"/>
