<?xml version="1.0" encoding="UTF-8" standalone="yes"?>
<!DOCTYPE earthquake SYSTEM "stationlist.dtd">
<stationlist created="" xmlns="ch.ethz.sed.shakemap.usgs.xml">
  <station code="ARMT" name="ARMT" netid="KO" insttype="CMG-5T" commtype="DIG" lat="40.5683" lon="28.866">
    <comp name="--.HNE">
      <acc value="1.4483280818" flag="0"/>
      <vel value="0.8034209497" flag="0"/>
      <psa03 value="5.2669575621" flag="0"/>
      <psa10 value="0.4909809788" flag="0"/>
      <psa30 value="0.3173485321" flag="0"/>
    </comp>
    <comp name="--.HNN">
      <acc value="1.1917102947" flag="0"/>
      <vel value="0.7748335753" flag="0"/>
      <psa03 value="3.5668423094" flag="0"/>
      <psa10 value="0.5351082193" flag="0"/>
      <psa30 value="0.3062532613" flag="0"/>
    </comp>
    <comp name="--.HNZ">
      <acc value="0.8366445058" flag="0"/>
      <vel value="0.4406441331" flag="0"/>
      <psa03 value="1.6745554451" flag="0"/>
      <psa10 value="0.4565218697" flag="0"/>
      <psa30 value="0.2637385196" flag="0"/>
    </comp>
  </station>
  <station code="AVCI" name="AVCI" netid="KO" insttype="CMG-5T" commtype="DIG" lat="40.9958" lon="28.7225">
    <comp name="--.HNN">
      <acc value="4.8868662702" flag="0"/>
      <vel value="8.3421969694" flag="0"/>
      <psa03 value="15.5532397138" flag="0"/>
      <psa10 value="8.3888251775" flag="0"/>
      <psa30 value="4.9908280617" flag="0"/>
    </comp>
  </station>
  <station code="BIGA" name="BIGA" netid="KO" insttype="CMG-5T" commtype="DIG" lat="40.2813" lon="27.1505">
    <comp name="--.HNN">
      <acc value="2.3587275718" flag="0"/>
      <vel value="1.0375797402" flag="0"/>
      <psa03 value="7.5894794264" flag="0"/>
      <psa10 value="0.6477714758" flag="0"/>
      <psa30 value="0.0775014677" flag="0"/>
    </comp>
    <comp name="--.HNZ">
      <acc value="0.9827065139" flag="0"/>
      <vel value="0.4357386841" flag="0"/>
      <psa03 value="1.5553456541" flag="0"/>
      <psa10 value="0.5025414755" flag="0"/>
      <psa30 value="0.0617226135" flag="0"/>
    </comp>
    <comp name="--.HNE">
      <acc value="2.1188637920" flag="0"/>
      <vel value="0.8968416563" flag="0"/>
      <psa03 value="5.7901640309" flag="0"/>
      <psa10 value="0.7812691477" flag="0"/>
      <psa30 value="0.0850690533" flag="0"/>
    </comp>
  </station>
  <station code="BMYO" name="BMYO" netid="KO" insttype="CMG-5T" commtype="DIG" lat="39.8098" lon="26.6009">
    <comp name="--.HNZ">
      <acc value="0.2630689100" flag="0"/>
      <vel value="0.2921390471" flag="0"/>
      <psa03 value="0.5098440589" flag="0"/>
      <psa10 value="0.4419402690" flag="0"/>
      <psa30 value="0.0278340065" flag="0"/>
    </comp>
    <comp name="--.HNN">
      <acc value="0.5316056737" flag="0"/>
      <vel value="0.5847900768" flag="0"/>
      <psa03 value="1.4637822547" flag="0"/>
      <psa10 value="0.8262192428" flag="0"/>
      <psa30 value="0.1319640813" flag="0"/>
    </comp>
    <comp name="--.HNE">
      <acc value="0.5303836982" flag="0"/>
      <vel value="0.5419847700" flag="0"/>
      <psa03 value="2.0454588638" flag="0"/>
      <psa10 value="0.5689112356" flag="0"/>
      <psa30 value="0.1415829612" flag="0"/>
    </comp>
  </station>
  <station code="BOTS" name="BOTS" netid="KO" insttype="CMG-5T" commtype="DIG" lat="40.9902" lon="27.981">
    <comp name="--.HNE">
      <acc value="7.7352833906" flag="0"/>
      <vel value="6.8082825626" flag="0"/>
      <psa03 value="14.4171994873" flag="0"/>
      <psa10 value="5.6747084972" flag="0"/>
      <psa30 value="0.3678993816" flag="0"/>
    </comp>
    <comp name="--.HNN">
      <acc value="9.3267279708" flag="0"/>
      <vel value="5.3562036055" flag="0"/>
      <psa03 value="14.1905036686" flag="0"/>
      <psa10 value="8.4717853765" flag="0"/>
      <psa30 value="0.6159944517" flag="0"/>
    </comp>
    <comp name="--.HNZ">
      <acc value="2.0427213515" flag="0"/>
      <vel value="1.1458972116" flag="0"/>
      <psa03 value="3.2387558640" flag="0"/>
      <psa10 value="1.9094595812" flag="0"/>
      <psa30 value="0.1950499096" flag="0"/>
    </comp>
  </station>
  <station code="BRGA" name="BRGA" netid="KO" insttype="CMG-5T" commtype="DIG" lat="40.8846" lon="29.065">
    <comp name="--.HNZ">
      <acc value="0.9942614726" flag="0"/>
      <vel value="0.6194281855" flag="0"/>
      <psa03 value="2.2622377935" flag="0"/>
      <psa10 value="0.7944489456" flag="0"/>
      <psa30 value="0.2417624059" flag="0"/>
    </comp>
    <comp name="--.HNN">
      <acc value="2.2883266993" flag="0"/>
      <vel value="2.2386032647" flag="0"/>
      <psa03 value="3.2418658879" flag="0"/>
      <psa10 value="1.7660042054" flag="0"/>
      <psa30 value="0.5875490939" flag="0"/>
    </comp>
    <comp name="--.HNE">
      <acc value="1.4894396532" flag="0"/>
      <vel value="1.4078051383" flag="0"/>
      <psa03 value="4.1758577525" flag="0"/>
      <psa10 value="1.1003684212" flag="0"/>
      <psa30 value="0.3356352445" flag="0"/>
    </comp>
  </station>
  <station code="BUYK" name="BUYK" netid="KO" insttype="ACEBOX" commtype="DIG" lat="41.0168" lon="28.5828">
    <comp name="--.HNZ">
      <acc value="3.5595459772" flag="0"/>
      <vel value="3.2872395782" flag="0"/>
      <psa03 value="6.8603583691" flag="0"/>
      <psa10 value="4.5362952057" flag="0"/>
      <psa30 value="0.8405618749" flag="0"/>
    </comp>
  </station>
  <station code="CANM" name="CANM" netid="KO" insttype="CMG-5T" commtype="DIG" lat="40.0113" lon="27.0529">
    <comp name="--.HNE">
      <acc value="1.7335325999" flag="0"/>
      <vel value="0.6512183995" flag="0"/>
      <psa03 value="3.1828840381" flag="0"/>
      <psa10 value="0.7066669339" flag="0"/>
      <psa30 value="0.0741196856" flag="0"/>
    </comp>
    <comp name="--.HNN">
      <acc value="2.1396378703" flag="0"/>
      <vel value="0.9694062928" flag="0"/>
      <psa03 value="5.3313046302" flag="0"/>
      <psa10 value="0.8493562664" flag="0"/>
      <psa30 value="0.0689055253" flag="0"/>
    </comp>
    <comp name="--.HNZ">
      <acc value="1.5436938780" flag="0"/>
      <vel value="0.6633284426" flag="0"/>
      <psa03 value="4.2471802657" flag="0"/>
      <psa10 value="0.4310897681" flag="0"/>
      <psa30 value="0.0900140678" flag="0"/>
    </comp>
  </station>
  <station code="CTYL" name="CTYL" netid="KO" insttype="CMG-5T" commtype="DIG" lat="41.476" lon="28.2897">
    <comp name="--.HNE">
      <acc value="1.6836516067" flag="0"/>
      <vel value="1.0560038822" flag="0"/>
      <psa03 value="3.2941366673" flag="0"/>
      <psa10 value="1.3224521898" flag="0"/>
      <psa30 value="0.2198454129" flag="0"/>
    </comp>
    <comp name="--.HNN">
      <acc value="1.6878469897" flag="0"/>
      <vel value="0.7519736896" flag="0"/>
      <psa03 value="2.3164150167" flag="0"/>
      <psa10 value="0.8137371458" flag="0"/>
      <psa30 value="0.1202121014" flag="0"/>
    </comp>
    <comp name="--.HNZ">
      <acc value="1.0234057084" flag="0"/>
      <vel value="0.5148836189" flag="0"/>
      <psa03 value="1.6369736436" flag="0"/>
      <psa10 value="0.4711180549" flag="0"/>
      <psa30 value="0.0892936878" flag="0"/>
    </comp>
  </station>
  <station code="DOGC" name="DOGC" netid="KO" insttype="CMG-5T" commtype="DIG" lat="41.3949" lon="26.9852">
    <comp name="--.HNE">
      <acc value="1.7838750245" flag="0"/>
      <vel value="1.1325656963" flag="0"/>
      <psa03 value="4.9281144040" flag="0"/>
      <psa10 value="0.9983986808" flag="0"/>
      <psa30 value="0.2190197066" flag="0"/>
    </comp>
    <comp name="--.HNZ">
      <acc value="0.5743321838" flag="0"/>
      <vel value="0.4287325601" flag="0"/>
      <psa03 value="1.1180437329" flag="0"/>
      <psa10 value="0.6058352993" flag="0"/>
      <psa30 value="0.1308383548" flag="0"/>
    </comp>
  </station>
  <station code="DST" name="DST" netid="KO" insttype="CMG-5T" commtype="DIG" lat="39.6041" lon="28.6267">
    <comp name="--.HNE">
      <acc value="0.7576387738" flag="0"/>
      <vel value="0.7453051636" flag="0"/>
      <psa03 value="1.7302957977" flag="0"/>
      <psa10 value="1.0488412069" flag="0"/>
      <psa30 value="0.1616647957" flag="0"/>
    </comp>
    <comp name="--.HNN">
      <acc value="0.5006866869" flag="0"/>
      <vel value="0.5233394383" flag="0"/>
      <psa03 value="1.2182584564" flag="0"/>
      <psa10 value="0.9719343285" flag="0"/>
      <psa30 value="0.1022021879" flag="0"/>
    </comp>
    <comp name="--.HNZ">
      <acc value="0.5034955478" flag="0"/>
      <vel value="0.4677478027" flag="0"/>
      <psa03 value="1.0652248597" flag="0"/>
      <psa10 value="0.5122767600" flag="0"/>
      <psa30 value="0.0874373931" flag="0"/>
    </comp>
  </station>
  <station code="EDC" name="EDC" netid="KO" insttype="CMG-5T" commtype="DIG" lat="40.3465" lon="27.8618">
    <comp name="--.HNZ">
      <acc value="0.6723329795" flag="0"/>
      <vel value="0.2963775682" flag="0"/>
      <psa03 value="1.0523499539" flag="0"/>
      <psa10 value="0.3710739630" flag="0"/>
      <psa30 value="0.0593470389" flag="0"/>
    </comp>
    <comp name="--.HNN">
      <acc value="2.0582936786" flag="0"/>
      <vel value="1.0887739954" flag="0"/>
      <psa03 value="4.7386903594" flag="0"/>
      <psa10 value="0.8023608560" flag="0"/>
      <psa30 value="0.0953031951" flag="0"/>
    </comp>
    <comp name="--.HNE">
      <acc value="1.5406063145" flag="0"/>
      <vel value="0.7862447654" flag="0"/>
      <psa03 value="3.6125469546" flag="0"/>
      <psa10 value="0.7935170440" flag="0"/>
      <psa30 value="0.0901913203" flag="0"/>
    </comp>
  </station>
  <station code="ENZZ" name="ENZZ" netid="KO" insttype="CMG-5T" commtype="DIG" lat="40.607" lon="26.1406">
    <comp name="--.HNE">
      <acc value="0.8673938212" flag="0"/>
      <vel value="1.1097626641" flag="0"/>
      <psa03 value="1.7267815734" flag="0"/>
      <psa10 value="1.7371686381" flag="0"/>
      <psa30 value="0.1648929417" flag="0"/>
    </comp>
    <comp name="--.HNN">
      <acc value="0.9527107712" flag="0"/>
      <vel value="1.2295748672" flag="0"/>
      <psa03 value="2.1604410417" flag="0"/>
      <psa10 value="2.1727284721" flag="0"/>
      <psa30 value="0.2729026648" flag="0"/>
    </comp>
    <comp name="--.HNZ">
      <acc value="0.3145051720" flag="0"/>
      <vel value="0.3428301645" flag="0"/>
      <psa03 value="0.9864232207" flag="0"/>
      <psa10 value="0.4812710591" flag="0"/>
      <psa30 value="0.0738645818" flag="0"/>
    </comp>
  </station>
  <station code="ESKY" name="ESKY" netid="KO" insttype="CMG-5T" commtype="DIG" lat="40.5918" lon="28.9071">
    <comp name="--.HNE">
      <acc value="2.1995132558" flag="0"/>
      <vel value="1.7800148499" flag="0"/>
      <psa03 value="7.1151678448" flag="0"/>
      <psa10 value="2.9571983863" flag="0"/>
      <psa30 value="0.4407453121" flag="0"/>
    </comp>
    <comp name="--.HNN">
      <acc value="3.4202234465" flag="0"/>
      <vel value="2.2575809531" flag="0"/>
      <psa03 value="9.3300377229" flag="0"/>
      <psa10 value="3.7584132324" flag="0"/>
      <psa30 value="0.3697718499" flag="0"/>
    </comp>
    <comp name="--.HNZ">
      <acc value="1.6153848684" flag="0"/>
      <vel value="1.0081047708" flag="0"/>
      <psa03 value="3.8706454915" flag="0"/>
      <psa10 value="1.7299667414" flag="0"/>
      <psa30 value="0.3814048012" flag="0"/>
    </comp>
  </station>
  <station code="EZN" name="EZN" netid="KO" insttype="CMG-3ESP" commtype="DIG" lat="39.8255" lon="26.3246">
    <comp name="--.HHZ">
      <acc value="0.2003916690" flag="0"/>
      <vel value="0.2326800770" flag="0"/>
      <psa03 value="0.4000474142" flag="0"/>
      <psa10 value="0.2596097359" flag="0"/>
      <psa30 value="0.0166725177" flag="0"/>
    </comp>
    <comp name="--.HHE">
      <acc value="0.2604994877" flag="0"/>
      <vel value="0.1603316636" flag="0"/>
      <psa03 value="0.6193116819" flag="0"/>
      <psa10 value="0.2864003719" flag="0"/>
      <psa30 value="0.0300762151" flag="0"/>
    </comp>
    <comp name="--.HHN">
      <acc value="0.2458452220" flag="0"/>
      <vel value="0.2047711899" flag="0"/>
      <psa03 value="0.6009883005" flag="0"/>
      <psa10 value="0.2683188240" flag="0"/>
      <psa30 value="0.0492249886" flag="0"/>
    </comp>
  </station>
  <station code="EZNE" name="EZNE" netid="KO" insttype="CMG-5T" commtype="DIG" lat="39.756" lon="26.3655">
    <comp name="--.HNE">
      <acc value="0.2442816604" flag="0"/>
      <vel value="0.2331040506" flag="0"/>
      <psa03 value="0.6904726110" flag="0"/>
      <psa10 value="0.2469087137" flag="0"/>
      <psa30 value="0.0614254141" flag="0"/>
    </comp>
    <comp name="--.HNN">
      <acc value="0.3855731588" flag="0"/>
      <vel value="0.4029019979" flag="0"/>
      <psa03 value="1.1395333993" flag="0"/>
      <psa10 value="0.3527739482" flag="0"/>
      <psa30 value="0.0797836414" flag="0"/>
    </comp>
    <comp name="--.HNZ">
      <acc value="0.2082885370" flag="0"/>
      <vel value="0.2040929778" flag="0"/>
      <psa03 value="0.4706007273" flag="0"/>
      <psa10 value="0.6257951391" flag="0"/>
      <psa30 value="0.0410895163" flag="0"/>
    </comp>
  </station>
  <station code="GONE" name="GONE" netid="KO" insttype="CMG-5T" commtype="DIG" lat="40.0466" lon="27.686">
    <comp name="--.HNN">
      <acc value="1.1136763057" flag="0"/>
      <vel value="1.0842355898" flag="0"/>
      <psa03 value="3.7639688337" flag="0"/>
      <psa10 value="1.3042857161" flag="0"/>
      <psa30 value="0.0793789533" flag="0"/>
    </comp>
    <comp name="--.HNE">
      <acc value="1.2584024564" flag="0"/>
      <vel value="1.3742563468" flag="0"/>
      <psa03 value="1.9912944886" flag="0"/>
      <psa10 value="2.5257299362" flag="0"/>
      <psa30 value="0.1071214862" flag="0"/>
    </comp>
    <comp name="--.HNZ">
      <acc value="0.6393013275" flag="0"/>
      <vel value="0.4658006155" flag="0"/>
      <psa03 value="1.4384095191" flag="0"/>
      <psa10 value="0.8221739805" flag="0"/>
      <psa30 value="0.0616362706" flag="0"/>
    </comp>
  </station>
  <station code="GPA" name="GPA" netid="KO" insttype="CMG-5T" commtype="DIG" lat="40.2911" lon="30.3171">
    <comp name="--.HNE">
      <acc value="0.3688542848" flag="0"/>
      <vel value="0.3991434854" flag="0"/>
      <psa03 value="0.8670415153" flag="0"/>
      <psa10 value="0.5966136444" flag="0"/>
      <psa30 value="0.2672718769" flag="0"/>
    </comp>
    <comp name="--.HNN">
      <acc value="0.4435450613" flag="0"/>
      <vel value="0.5540221545" flag="0"/>
      <psa03 value="1.1195512978" flag="0"/>
      <psa10 value="0.8949124907" flag="0"/>
      <psa30 value="0.1759191696" flag="0"/>
    </comp>
    <comp name="--.HNZ">
      <acc value="0.1697399193" flag="0"/>
      <vel value="0.2634875517" flag="0"/>
      <psa03 value="0.5078341750" flag="0"/>
      <psa10 value="0.3243816435" flag="0"/>
      <psa30 value="0.1068358261" flag="0"/>
    </comp>
  </station>
  <station code="IZI" name="IZI" netid="KO" insttype="CMG-5T" commtype="DIG" lat="40.3483" lon="29.4612">
    <comp name="--.HNE">
      <acc value="0.7988793583" flag="0"/>
      <vel value="0.6702737181" flag="0"/>
      <psa03 value="2.6001877493" flag="0"/>
      <psa10 value="0.8766435016" flag="0"/>
      <psa30 value="0.2339211761" flag="0"/>
    </comp>
    <comp name="--.HNN">
      <acc value="0.6637823818" flag="0"/>
      <vel value="0.5976015595" flag="0"/>
      <psa03 value="2.1104377887" flag="0"/>
      <psa10 value="1.5951283475" flag="0"/>
      <psa30 value="0.1456534126" flag="0"/>
    </comp>
    <comp name="--.HNZ">
      <acc value="0.4395831060" flag="0"/>
      <vel value="0.5251361359" flag="0"/>
      <psa03 value="1.0310601764" flag="0"/>
      <psa10 value="0.9459549974" flag="0"/>
      <psa30 value="0.1754190107" flag="0"/>
    </comp>
  </station>
  <station code="KAVV" name="KAVV" netid="KO" insttype="CMG-5T" commtype="DIG" lat="41.0638" lon="29.06">
    <comp name="--.HNE">
      <acc value="4.1216892353" flag="0"/>
      <vel value="1.4421119100" flag="0"/>
      <psa03 value="7.2465728095" flag="0"/>
      <psa10 value="0.5632156332" flag="0"/>
      <psa30 value="0.4609918167" flag="0"/>
    </comp>
    <comp name="--.HNZ">
      <acc value="1.5425629780" flag="0"/>
      <vel value="0.9489273385" flag="0"/>
      <psa03 value="2.4158042554" flag="0"/>
      <psa10 value="0.9461234998" flag="0"/>
      <psa30 value="0.3124774488" flag="0"/>
    </comp>
    <comp name="--.HNN">
      <acc value="2.5864127621" flag="0"/>
      <vel value="1.8299938718" flag="0"/>
      <psa03 value="5.9949215233" flag="0"/>
      <psa10 value="1.3964946663" flag="0"/>
      <psa30 value="0.6866909134" flag="0"/>
    </comp>
  </station>
  <station code="KCTX" name="KCTX" netid="KO" insttype="CMG-5T" commtype="DIG" lat="40.2626" lon="28.3353">
    <comp name="--.HNE">
      <acc value="1.4166522084" flag="0"/>
      <vel value="1.5718340720" flag="0"/>
      <psa03 value="2.3973335673" flag="0"/>
      <psa10 value="1.4112790215" flag="0"/>
      <psa30 value="0.2035360429" flag="0"/>
    </comp>
    <comp name="--.HNN">
      <acc value="1.0045466961" flag="0"/>
      <vel value="0.4587534655" flag="0"/>
      <psa03 value="1.1741168426" flag="0"/>
      <psa10 value="0.4233175701" flag="0"/>
      <psa30 value="0.1094458395" flag="0"/>
    </comp>
    <comp name="--.HNZ">
      <acc value="0.5932562552" flag="0"/>
      <vel value="0.2394822875" flag="0"/>
      <psa03 value="1.2190146241" flag="0"/>
      <psa10 value="0.3001805898" flag="0"/>
      <psa30 value="0.0937683150" flag="0"/>
    </comp>
  </station>
  <station code="KOUK" name="KOUK" netid="KO" insttype="CMG-5T" commtype="DIG" lat="40.6572" lon="29.1918">
    <comp name="--.HNN">
      <acc value="2.1675718531" flag="0"/>
      <vel value="3.9104668066" flag="0"/>
      <psa03 value="7.1466520560" flag="0"/>
      <psa10 value="6.9432875871" flag="0"/>
      <psa30 value="1.0852109556" flag="0"/>
    </comp>
    <comp name="--.HNZ">
      <acc value="1.4031220706" flag="0"/>
      <vel value="1.1719574865" flag="0"/>
      <psa03 value="6.9781763534" flag="0"/>
      <psa10 value="1.8886605075" flag="0"/>
      <psa30 value="0.3451040447" flag="0"/>
    </comp>
  </station>
  <station code="KRBG" name="KRBG" netid="KO" insttype="CMG-5T" commtype="DIG" lat="40.3932" lon="27.2977">
    <comp name="--.HNZ">
      <acc value="0.9895568399" flag="0"/>
      <vel value="0.6008341726" flag="0"/>
      <psa03 value="2.7298952294" flag="0"/>
      <psa10 value="0.2644764675" flag="0"/>
      <psa30 value="0.0338045334" flag="0"/>
    </comp>
    <comp name="--.HNE">
      <acc value="2.4029206709" flag="0"/>
      <vel value="1.3090289051" flag="0"/>
      <psa03 value="6.9144103967" flag="0"/>
      <psa10 value="1.1289946850" flag="0"/>
      <psa30 value="0.0580856315" flag="0"/>
    </comp>
    <comp name="--.HNN">
      <acc value="1.8306612644" flag="0"/>
      <vel value="0.8988992811" flag="0"/>
      <psa03 value="6.9640279587" flag="0"/>
      <psa10 value="0.7149609193" flag="0"/>
      <psa30 value="0.0494877054" flag="0"/>
    </comp>
  </station>
  <station code="KRTL" name="KRTL" netid="KO" insttype="CMG-5T" commtype="DIG" lat="40.9089" lon="29.1987">
    <comp name="--.HNN">
      <acc value="1.1222086092" flag="0"/>
      <vel value="1.3780736672" flag="0"/>
      <psa03 value="2.9545124504" flag="0"/>
      <psa10 value="0.9284656992" flag="0"/>
      <psa30 value="0.3966553263" flag="0"/>
    </comp>
    <comp name="--.HNZ">
      <acc value="0.6406652262" flag="0"/>
      <vel value="0.4494071237" flag="0"/>
      <psa03 value="2.5923694307" flag="0"/>
      <psa10 value="0.3005316406" flag="0"/>
      <psa30 value="0.2278015233" flag="0"/>
    </comp>
    <comp name="--.HNE">
      <acc value="1.2549748150" flag="0"/>
      <vel value="0.5154021589" flag="0"/>
      <psa03 value="1.2614532875" flag="0"/>
