<stationlist created="1745407932">
	<station code="ELND" name="ELND" netid="BS" source="National Seismic Network of Bulgaria (BS)" insttype="" lat="42.9287" lon="25.8751">
		<comp name=".HNE" depth="0.0">
			<acc value="0.04687472002281" flag="0"/>
			<vel value="0.163167532462" flag="0"/>
			<psa03 value="0.110563376364233" flag="0"/>
			<psa10 value="0.110857028733945" flag="0"/>
			<psa30 value="0.0498078095231204" flag="0"/>
		</comp>
		<comp name=".HNN" depth="0.0">
			<acc value="0.05502918039159" flag="0"/>
			<vel value="0.0988383986241" flag="0"/>
			<psa03 value="0.0999214422216463" flag="0"/>
			<psa10 value="0.198060775554447" flag="0"/>
			<psa30 value="0.0234178596516172" flag="0"/>
		</comp>
		<comp name=".HNZ" depth="0.0">
			<acc value="0.046455555745104" flag="0"/>
			<vel value="0.0930787345434" flag="0"/>
			<psa03 value="0.0889332663923871" flag="0"/>
			<psa10 value="0.186234187100736" flag="0"/>
			<psa30 value="0.0513891409449639" flag="0"/>
		</comp>
	</station>
	<station code="KALB" name="KALB" netid="BS" source="National Seismic Network of Bulgaria (BS)" insttype="" lat="43.4059" lon="28.4162">
		<comp name=".HNE" depth="0.0">
			<acc value="0.00015111944177226" flag="0"/>
			<vel value="0.000142525974209" flag="0"/>
			<psa03 value="0.000153935083511546" flag="0"/>
			<psa10 value="9.57173710793992e-05" flag="0"/>
			<psa30 value="6.61240027862754e-05" flag="0"/>
		</comp>
		<comp name=".HNN" depth="0.0">
			<acc value="0.00015754258296012" flag="0"/>
			<vel value="0.000191729481707" flag="0"/>
			<psa03 value="0.000183985373349229" flag="0"/>
			<psa10 value="8.58579166693604e-05" flag="0"/>
			<psa30 value="6.44910625807598e-05" flag="0"/>
		</comp>
		<comp name=".HNZ" depth="0.0">
			<acc value="0.00017208199045356" flag="0"/>
			<vel value="0.000225225946258" flag="0"/>
			<psa03 value="0.000230548435137037" flag="0"/>
			<psa10 value="0.000110908726553356" flag="0"/>
			<psa30 value="4.87078978830426e-05" flag="0"/>
		</comp>
	</station>
	<station code="LOZB" name="LOZB" netid="BS" source="National Seismic Network of Bulgaria (BS)" insttype="" lat="43.3701" lon="26.593">
		<comp name=".HNE" depth="0.0">
			<acc value="0.30248848829022" flag="0"/>
			<vel value="0.234895454267" flag="0"/>
			<psa03 value="1.66528781714497" flag="0"/>
			<psa10 value="0.168278912652128" flag="0"/>
			<psa30 value="0.0461461602899094" flag="0"/>
		</comp>
		<comp name=".HNN" depth="0.0">
			<acc value="0.2394105490767" flag="0"/>
			<vel value="0.203932475045" flag="0"/>
			<psa03 value="1.4088601634062" flag="0"/>
			<psa10 value="0.129899230186312" flag="0"/>
			<psa30 value="0.0269363760693755" flag="0"/>
		</comp>
		<comp name=".HNZ" depth="0.0">
			<acc value="0.07306864496574" flag="0"/>
			<vel value="0.120735316843" flag="0"/>
			<psa03 value="0.140936794704463" flag="0"/>
			<psa10 value="0.191537833441309" flag="0"/>
			<psa30 value="0.0276335305857803" flag="0"/>
		</comp>
	</station>
	<station code="RAZG" name="RAZG" netid="BS" source="National Seismic Network of Bulgaria (BS)" insttype="" lat="43.5662" lon="26.5079">
		<comp name=".HNE" depth="0.0">
			<acc value="0.080447032557954" flag="0"/>
			<vel value="0.160278087002" flag="0"/>
			<psa03 value="0.164254693567244" flag="0"/>
			<psa10 value="0.15122939820559" flag="0"/>
			<psa30 value="0.0451244859425579" flag="0"/>
		</comp>
		<comp name=".HNN" depth="0.0">
			<acc value="0.083242013080818" flag="0"/>
			<vel value="0.137502755363" flag="0"/>
			<psa03 value="0.163400293217439" flag="0"/>
			<psa10 value="0.13043941597118" flag="0"/>
			<psa30 value="0.0365861003162392" flag="0"/>
		</comp>
		<comp name=".HNZ" depth="0.0">
			<acc value="0.075091404945222" flag="0"/>
			<vel value="0.107726896348" flag="0"/>
			<psa03 value="0.141906900635903" flag="0"/>
			<psa10 value="0.168067353637298" flag="0"/>
			<psa30 value="0.0264206535719658" flag="0"/>
		</comp>
	</station>
	<station code="VETAM" name="VETAM" netid="BS" source="National Seismic Network of Bulgaria (BS)" insttype="" lat="43.0805" lon="25.6367">
		<comp name=".HNE" depth="0.0">
			<acc value="0.051025085320938" flag="0"/>
			<vel value="0.0920334436683" flag="0"/>
			<psa03 value="0.123607636316151" flag="0"/>
			<psa10 value="0.144026551052029" flag="0"/>
			<psa30 value="0.0203892273528945" flag="0"/>
		</comp>
		<comp name=".HNN" depth="0.0">
			<acc value="0.078987384140346" flag="0"/>
			<vel value="0.135232550507" flag="0"/>
			<psa03 value="0.124278357831419" flag="0"/>
			<psa10 value="0.231517896924548" flag="0"/>
			<psa30 value="0.0307016538338993" flag="0"/>
		</comp>
		<comp name=".HNZ" depth="0.0">
			<acc value="0.04727026883436" flag="0"/>
			<vel value="0.0983973250546" flag="0"/>
			<psa03 value="0.0945982979227678" flag="0"/>
			<psa10 value="0.11212836295362" flag="0"/>
			<psa30 value="0.031444426372239" flag="0"/>
		</comp>
	</station>
	<station code="AKS" name="AKS" netid="KO" source="Bogazici University Kandilli Observatory And Earthquake Research Institute (KOERI)" insttype="" lat="38.8785" lon="27.8129">
		<comp name=".HNE" depth="0.0">
			<acc value="0.16795010701728" flag="0"/>
			<vel value="0.29528071873" flag="0"/>
			<psa03 value="0.406201742205385" flag="0"/>
			<psa10 value="0.423261559001054" flag="0"/>
			<psa30 value="0.138436077377448" flag="0"/>
		</comp>
		<comp name=".HNN" depth="0.0">
			<acc value="0.19515399005154" flag="0"/>
			<vel value="0.195086675741" flag="0"/>
			<psa03 value="0.480716511775604" flag="0"/>
			<psa10 value="0.293606289975876" flag="0"/>
			<psa30 value="0.0547731151168901" flag="0"/>
		</comp>
		<comp name=".HNZ" depth="0.0">
			<acc value="0.086063741264622" flag="0"/>
			<vel value="0.112470713962" flag="0"/>
			<psa03 value="0.151450709949753" flag="0"/>
			<psa10 value="0.143097239489658" flag="0"/>
			<psa30 value="0.0431846007678516" flag="0"/>
		</comp>
	</station>
	<station code="ALT" name="ALT" netid="KO" source="Bogazici University Kandilli Observatory And Earthquake Research Institute (KOERI)" insttype="" lat="39.0541" lon="30.1104">
		<comp name=".HNE" depth="0.0">
			<acc value="0.07377314086074" flag="0"/>
			<vel value="0.173128676847" flag="0"/>
			<psa03 value="0.188105252716544" flag="0"/>
			<psa10 value="0.115353741619278" flag="0"/>
			<psa30 value="0.0506680265078825" flag="0"/>
		</comp>
		<comp name=".HNN" depth="0.0">
			<acc value="0.06563381032944" flag="0"/>
			<vel value="0.152230215502" flag="0"/>
			<psa03 value="0.192586841266347" flag="0"/>
			<psa10 value="0.154457342041012" flag="0"/>
			<psa30 value="0.0543375495958656" flag="0"/>
		</comp>
		<comp name=".HNZ" depth="0.0">
			<acc value="0.06676460425383" flag="0"/>
			<vel value="0.136828235963" flag="0"/>
			<psa03 value="0.126775356578608" flag="0"/>
			<psa10 value="0.112116684679981" flag="0"/>
			<psa30 value="0.0408642203873903" flag="0"/>
		</comp>
	</station>
	<station code="ARMT" name="ARMT" netid="KO" source="Bogazici University Kandilli Observatory And Earthquake Research Institute (KOERI)" insttype="" lat="40.5683" lon="28.866">
		<comp name=".HNE" depth="0.0">
			<acc value="1.4463710622876" flag="0"/>
			<vel value="0.767593703986" flag="0"/>
			<psa03 value="5.28486042938525" flag="0"/>
			<psa10 value="0.502803038235179" flag="0"/>
			<psa30 value="0.320887630564115" flag="0"/>
		</comp>
		<comp name=".HNN" depth="0.0">
			<acc value="1.1798678067474" flag="0"/>
			<vel value="1.0925520291" flag="0"/>
			<psa03 value="3.63179592199077" flag="0"/>
			<psa10 value="0.53028116852497" flag="0"/>
			<psa30 value="0.337340720500496" flag="0"/>
		</comp>
		<comp name=".HNZ" depth="0.0">
			<acc value="0.83644494847566" flag="0"/>
			<vel value="0.651461878557" flag="0"/>
			<psa03 value="1.70700824758331" flag="0"/>
			<psa10 value="0.479207285131551" flag="0"/>
			<psa30 value="0.265664372294262" flag="0"/>
		</comp>
	</station>
	<station code="ARMU" name="ARMU" netid="KO" source="Bogazici University Kandilli Observatory And Earthquake Research Institute (KOERI)" insttype="" lat="40.5088" lon="28.838">
		<comp name=".HNE" depth="0.0">
			<acc value="5.7064580591328" flag="0"/>
			<vel value="1.14212430651" flag="0"/>
			<psa03 value="8.38595819524185" flag="0"/>
			<psa10 value="0.812748800618768" flag="0"/>
			<psa30 value="0.254873070756573" flag="0"/>
		</comp>
		<comp name=".HNN" depth="0.0">
			<acc value="6.1385102976936" flag="0"/>
			<vel value="1.40856090094" flag="0"/>
			<psa03 value="9.81456016644947" flag="0"/>
			<psa10 value="0.829751886990374" flag="0"/>
			<psa30 value="0.285870990883564" flag="0"/>
		</comp>
		<comp name=".HNZ" depth="0.0">
			<acc value="2.3410838355792" flag="0"/>
			<vel value="0.608563446467" flag="0"/>
			<psa03 value="1.73497126666713" flag="0"/>
			<psa10 value="0.679222375150572" flag="0"/>
			<psa30 value="0.330932615994928" flag="0"/>
		</comp>
	</station>
	<station code="ATAM" name="ATAM" netid="KO" source="Bogazici University Kandilli Observatory And Earthquake Research Institute (KOERI)" insttype="" lat="40.9688" lon="28.875">
		<comp name=".HNE" depth="0.0">
			<acc value="9.3676844873778" flag="0"/>
			<vel value="9.89843558697" flag="0"/>
			<psa03 value="35.1575290137561" flag="0"/>
			<psa10 value="8.46140244640019" flag="0"/>
			<psa30 value="4.21935577827921" flag="0"/>
		</comp>
		<comp name=".HNN" depth="0.0">
			<acc value="7.243529356737" flag="0"/>
			<vel value="8.23195049494" flag="0"/>
			<psa03 value="30.6957721109331" flag="0"/>
			<psa10 value="6.27391865631124" flag="0"/>
			<psa30 value="3.6750509207525" flag="0"/>
		</comp>
		<comp name=".HNZ" depth="0.0">
			<acc value="3.2596374016968" flag="0"/>
			<vel value="2.35622385627" flag="0"/>
			<psa03 value="6.36775783270133" flag="0"/>
			<psa10 value="3.1904905543425" flag="0"/>
			<psa30 value="1.03737784119292" flag="0"/>
		</comp>
	</station>
	<station code="BIGA" name="BIGA" netid="KO" source="Bogazici University Kandilli Observatory And Earthquake Research Institute (KOERI)" insttype="" lat="40.28134" lon="27.15048">
		<comp name=".HNE" depth="0.0">
			<acc value="2.1129603537006" flag="0"/>
			<vel value="0.959140145323" flag="0"/>
			<psa03 value="5.77333912206525" flag="0"/>
			<psa10 value="0.778109885962688" flag="0"/>
			<psa30 value="0.0845749560091329" flag="0"/>
		</comp>
		<comp name=".HNN" depth="0.0">
			<acc value="2.3550712301478" flag="0"/>
			<vel value="1.07861461962" flag="0"/>
			<psa03 value="7.73810061117222" flag="0"/>
			<psa10 value="0.646150944329113" flag="0"/>
			<psa30 value="0.0815734038376784" flag="0"/>
		</comp>
		<comp name=".HNZ" depth="0.0">
			<acc value="0.97457038572858" flag="0"/>
			<vel value="0.431219988092" flag="0"/>
			<psa03 value="1.56849173821528" flag="0"/>
			<psa10 value="0.501941381153594" flag="0"/>
			<psa30 value="0.0633590772281258" flag="0"/>
		</comp>
	</station>
	<station code="BMYO" name="BMYO" netid="KO" source="Bogazici University Kandilli Observatory And Earthquake Research Institute (KOERI)" insttype="" lat="39.8098" lon="26.6009">
		<comp name=".HNE" depth="0.0">
			<acc value="0.52857541674168" flag="0"/>
			<vel value="0.532472596474" flag="0"/>
			<psa03 value="2.04695843428267" flag="0"/>
			<psa10 value="0.567203894475566" flag="0"/>
			<psa30 value="0.139912828538247" flag="0"/>
		</comp>
		<comp name=".HNN" depth="0.0">
			<acc value="0.53052584643414" flag="0"/>
			<vel value="0.603274397827" flag="0"/>
			<psa03 value="1.46047474928346" flag="0"/>
			<psa10 value="0.82539919864614" flag="0"/>
			<psa30 value="0.132286336654065" flag="0"/>
		</comp>
		<comp name=".HNZ" depth="0.0">
			<acc value="0.26144600193378" flag="0"/>
			<vel value="0.349449580393" flag="0"/>
			<psa03 value="0.677168442418888" flag="0"/>
			<psa10 value="0.537567811230351" flag="0"/>
			<psa30 value="0.09734304183212" flag="0"/>
		</comp>
	</station>
	<station code="BOTS" name="BOTS" netid="KO" source="Bogazici University Kandilli Observatory And Earthquake Research Institute (KOERI)" insttype="" lat="40.9902" lon="27.981">
		<comp name=".HNE" depth="0.0">
			<acc value="7.6703201146404" flag="0"/>
			<vel value="6.80219782845" flag="0"/>
			<psa03 value="14.3467317339213" flag="0"/>
			<psa10 value="5.65659872191023" flag="0"/>
			<psa30 value="0.376179186691578" flag="0"/>
		</comp>
		<comp name=".HNN" depth="0.0">
			<acc value="9.3082678402818" flag="0"/>
			<vel value="5.51601910688" flag="0"/>
			<psa03 value="14.1836702651945" flag="0"/>
			<psa10 value="8.47779937260611" flag="0"/>
			<psa30 value="0.631105380967148" flag="0"/>
		</comp>
		<comp name=".HNZ" depth="0.0">
			<acc value="1.9421953419672" flag="0"/>
			<vel value="1.10320150782" flag="0"/>
			<psa03 value="3.22391556858455" flag="0"/>
			<psa10 value="1.90406569500874" flag="0"/>
			<psa30 value="0.196975982025452" flag="0"/>
		</comp>
	</station>
	<station code="BRGA" name="BRGA" netid="KO" source="Bogazici University Kandilli Observatory And Earthquake Research Institute (KOERI)" insttype="" lat="40.8846" lon="29.065">
		<comp name=".HNE" depth="0.0">
			<acc value="1.4816549237892" flag="0"/>
			<vel value="1.3994653567" flag="0"/>
			<psa03 value="4.18959520678986" flag="0"/>
			<psa10 value="1.10108746164002" flag="0"/>
			<psa30 value="0.344546797867864" flag="0"/>
		</comp>
		<comp name=".HNN" depth="0.0">
			<acc value="2.2861162410072" flag="0"/>
			<vel value="2.58388844758" flag="0"/>
			<psa03 value="3.35011926229469" flag="0"/>
			<psa10 value="1.77238637189786" flag="0"/>
			<psa30 value="0.608858413881204" flag="0"/>
		</comp>
		<comp name=".HNZ" depth="0.0">
			<acc value="0.99325495452258" flag="0"/>
			<vel value="0.723481141861" flag="0"/>
			<psa03 value="2.27384913134707" flag="0"/>
			<psa10 value="0.791987845307139" flag="0"/>
			<psa30 value="0.270834448119575" flag="0"/>
		</comp>
	</station>
	<station code="BUYK" name="BUYK" netid="KO" source="Bogazici University Kandilli Observatory And Earthquake Research Institute (KOERI)" insttype="" lat="41.0168" lon="28.5828">
		<comp name=".HNE" depth="0.0">
			<acc value="5.5716210411756" flag="0"/>
			<vel value="9.93387880749" flag="0"/>
			<psa03 value="9.01213700983828" flag="0"/>
			<psa10 value="9.15576844471885" flag="0"/>
			<psa30 value="3.54582081322532" flag="0"/>
		</comp>
		<comp name=".HNN" depth="0.0">
			<acc value="5.6939457875748" flag="0"/>
			<vel value="15.0832291902" flag="0"/>
			<psa03 value="11.4367229601063" flag="0"/>
			<psa10 value="7.56863162469532" flag="0"/>
			<psa30 value="4.03582959390523" flag="0"/>
		</comp>
		<comp name=".HNZ" depth="0.0">
			<acc value="3.5222643167202" flag="0"/>
			<vel value="3.38952139816" flag="0"/>
			<psa03 value="7.01469135553025" flag="0"/>
			<psa10 value="4.54899398853258" flag="0"/>
			<psa30 value="0.847501316137" flag="0"/>
		</comp>
	</station>
	<station code="CANM" name="CANM" netid="KO" source="Bogazici University Kandilli Observatory And Earthquake Research Institute (KOERI)" insttype="" lat="40.0113" lon="27.0529">
		<comp name=".HNE" depth="0.0">
			<acc value="1.7396585032644" flag="0"/>
			<vel value="0.657407533566" flag="0"/>
			<psa03 value="3.20743314337297" flag="0"/>
			<psa10 value="0.708622102738153" flag="0"/>
			<psa30 value="0.0771606781827328" flag="0"/>
		</comp>
		<comp name=".HNN" depth="0.0">
			<acc value="2.1470065326366" flag="0"/>
			<vel value="0.990739597861" flag="0"/>
			<psa03 value="5.38476904786856" flag="0"/>
			<psa10 value="0.851477346195533" flag="0"/>
			<psa30 value="0.0724196441125984" flag="0"/>
		</comp>
		<comp name=".HNZ" depth="0.0">
			<acc value="1.541112208491" flag="0"/>
			<vel value="0.672021022255" flag="0"/>
			<psa03 value="4.31080523635833" flag="0"/>
			<psa10 value="0.431799014563965" flag="0"/>
			<psa30 value="0.0904692731455129" flag="0"/>
		</comp>
	</station>
	<station code="CESE" name="CESE" netid="KO" source="Bogazici University Kandilli Observatory And Earthquake Research Institute (KOERI)" insttype="" lat="38.3306" lon="26.2997">
		<comp name=".HNE" depth="0.0">
			<acc value="0.058840554150492" flag="0"/>
			<vel value="0.0922176228208" flag="0"/>
			<psa03 value="0.107563417215332" flag="0"/>
			<psa10 value="0.167612208486349" flag="0"/>
			<psa30 value="0.0311322290240498" flag="0"/>
		</comp>
		<comp name=".HNN" depth="0.0">
			<acc value="0.067797742122804" flag="0"/>
			<vel value="0.0958204224289" flag="0"/>
			<psa03 value="0.147766965919624" flag="0"/>
			<psa10 value="0.139969967323267" flag="0"/>
			<psa30 value="0.0298982806143378" flag="0"/>
		</comp>
		<comp name=".HNZ" depth="0.0">
			<acc value="0.043260335507802" flag="0"/>
			<vel value="0.0685274881024" flag="0"/>
			<psa03 value="0.0620229785096531" flag="0"/>
			<psa10 value="0.125319194281491" flag="0"/>
			<psa30 value="0.0433667495009794" flag="0"/>
		</comp>
	</station>
	<station code="CRLU" name="CRLU" netid="KO" source="Bogazici University Kandilli Observatory And Earthquake Research Institute (KOERI)" insttype="" lat="41.1428" lon="27.8215">
		<comp name=".HNE" depth="0.0">
			<acc value="2.3643768733092" flag="0"/>
			<vel value="2.75108675414" flag="0"/>
			<psa03 value="5.64897821706886" flag="0"/>
			<psa10 value="3.83748029423637" flag="0"/>
			<psa30 value="0.768983848070802" flag="0"/>
		</comp>
		<comp name=".HNN" depth="0.0">
			<acc value="3.2542737381942" flag="0"/>
			<vel value="2.85795473631" flag="0"/>
			<psa03 value="6.54484489717547" flag="0"/>
			<psa10 value="4.25698200417557" flag="0"/>
			<psa30 value="0.639252480672384" flag="0"/>
		</comp>
		<comp name=".HNZ" depth="0.0">
			<acc value="1.9804532824938" flag="0"/>
			<vel value="1.96906947749" flag="0"/>
			<psa03 value="3.82281057577319" flag="0"/>
			<psa10 value="4.42536515872442" flag="0"/>
			<psa30 value="0.350802652287175" flag="0"/>
		</comp>
	</station>
	<station code="CTYL" name="CTYL" netid="KO" source="Bogazici University Kandilli Observatory And Earthquake Research Institute (KOERI)" insttype="" lat="41.476" lon="28.2897">
		<comp name=".HNE" depth="0.0">
			<acc value="1.6367729120304" flag="0"/>
			<vel value="1.34436019029" flag="0"/>
			<psa03 value="3.3413896840026" flag="0"/>
			<psa10 value="1.35109498341239" flag="0"/>
			<psa30 value="0.251216855216932" flag="0"/>
		</comp>
		<comp name=".HNN" depth="0.0">
			<acc value="1.6793840132796" flag="0"/>
			<vel value="0.79548843537" flag="0"/>
			<psa03 value="2.31742051773708" flag="0"/>
			<psa10 value="0.810075623534654" flag="0"/>
			<psa30 value="0.132890096650026" flag="0"/>
		</comp>
		<comp name=".HNZ" depth="0.0">
			<acc value="1.0266822324558" flag="0"/>
			<vel value="0.572944990939" flag="0"/>
			<psa03 value="1.6296421224606" flag="0"/>
			<psa10 value="0.477039941552945" flag="0"/>
			<psa30 value="0.109329849232731" flag="0"/>
		</comp>
	</station>
	<station code="CYAG" name="CYAG" netid="KO" source="Bogazici University Kandilli Observatory And Earthquake Research Institute (KOERI)" insttype="" lat="40.4924" lon="27.9761">
		<comp name=".HNE" depth="0.0">
			<acc value="2.099321429586" flag="0"/>
			<vel value="0.516531836547" flag="0"/>
			<psa03 value="2.00919226579296" flag="0"/>
			<psa10 value="0.492867820075061" flag="0"/>
			<psa30 value="0.071076521804141" flag="0"/>
		</comp>
		<comp name=".HNN" depth="0.0">
			<acc value="1.5339761233326" flag="0"/>
			<vel value="0.503390102663" flag="0"/>
			<psa03 value="1.41587079449082" flag="0"/>
			<psa10 value="0.313785656759602" flag="0"/>
			<psa30 value="0.0890937086876401" flag="0"/>
		</comp>
		<comp name=".HNZ" depth="0.0">
			<acc value="1.1018926128162" flag="0"/>
			<vel value="0.352393471556" flag="0"/>
			<psa03 value="1.25930683956325" flag="0"/>
			<psa10 value="0.268814687653962" flag="0"/>
			<psa30 value="0.0563233578128808" flag="0"/>
		</comp>
	</station>
	<station code="DGNL" name="DGNL" netid="KO" source="Bogazici University Kandilli Observatory And Earthquake Research Institute (KOERI)" insttype="" lat="40.5209" lon="27.7484">
		<comp name=".HNE" depth="0.0">
