<?xml version="1.0" encoding="UTF-8" standalone="yes"?>
<!DOCTYPE earthquake SYSTEM "stationlist.dtd">
<stationlist created="" xmlns="ch.ethz.sed.shakemap.usgs.xml">
  <station code="ALX2" name="ALX2" netid="HI" insttype="unknown" commtype="DIG" lat="40.8454" lon="25.8739">
    <comp name="--.HNE">
      <acc value="0.1957300777" flag="0"/>
      <vel value="0.2625131924" flag="0"/>
      <psa03 value="0.5126812045" flag="0"/>
      <psa10 value="0.2918990537" flag="0"/>
      <psa30 value="0.0746347882" flag="0"/>
    </comp>
    <comp name="--.HNZ">
      <acc value="0.1167920478" flag="0"/>
      <vel value="0.1047833121" flag="0"/>
      <psa03 value="0.2967480113" flag="0"/>
      <psa10 value="0.1502407761" flag="0"/>
      <psa30 value="0.0344382562" flag="0"/>
    </comp>
    <comp name="--.HNN">
      <acc value="0.1904606191" flag="0"/>
      <vel value="0.2590187864" flag="0"/>
      <psa03 value="0.4750969452" flag="0"/>
      <psa10 value="0.2642283989" flag="0"/>
      <psa30 value="0.0685985874" flag="0"/>
    </comp>
  </station>
  <station code="SPP1" name="SPP1" netid="HI" insttype="unknown" commtype="DIG" lat="41.0225" lon="25.7013">
    <comp name="--.HNN">
      <acc value="0.3054563354" flag="0"/>
      <vel value="0.4061196254" flag="0"/>
      <psa03 value="0.7843511535" flag="0"/>
      <psa10 value="0.6944611299" flag="0"/>
      <psa30 value="0.1381964318" flag="0"/>
    </comp>
    <comp name="--.HNE">
      <acc value="0.3989477512" flag="0"/>
      <vel value="0.3946568726" flag="0"/>
      <psa03 value="1.0175902437" flag="0"/>
      <psa10 value="0.9752195351" flag="0"/>
      <psa30 value="0.0637162730" flag="0"/>
    </comp>
    <comp name="--.HNZ">
      <acc value="0.1984366736" flag="0"/>
      <vel value="0.2300636154" flag="0"/>
      <psa03 value="0.4344192045" flag="0"/>
      <psa10 value="0.5805026248" flag="0"/>
      <psa30 value="0.0288055612" flag="0"/>
    </comp>
  </station>
  <station code="RDO" name="RDO" netid="HL" insttype="120" commtype="DIG" lat="41.145" lon="25.5355">
    <comp name="--.HHN">
      <acc value="0.1842089352" flag="0"/>
      <vel value="0.1475435345" flag="0"/>
      <psa03 value="0.6159173930" flag="0"/>
      <psa10 value="0.1852040564" flag="0"/>
      <psa30 value="0.0352362071" flag="0"/>
    </comp>
    <comp name="--.HHZ">
      <acc value="0.0823816041" flag="0"/>
      <vel value="0.0574985306" flag="0"/>
      <psa03 value="0.1835232705" flag="0"/>
      <psa10 value="0.1176304878" flag="0"/>
      <psa30 value="0.0053816068" flag="0"/>
    </comp>
    <comp name="--.HHE">
      <acc value="0.1819616596" flag="0"/>
      <vel value="0.1370333493" flag="0"/>
      <psa03 value="0.5691981477" flag="0"/>
      <psa10 value="0.1506677525" flag="0"/>
      <psa30 value="0.0275936784" flag="0"/>
    </comp>
  </station>
  <station code="ALN" name="ALN" netid="HT" insttype="100" commtype="DIG" lat="40.885" lon="26.046">
    <comp name="--.HHE">
      <acc value="0.0976082760" flag="0"/>
      <vel value="0.1630373353" flag="0"/>
      <psa03 value="0.3128137247" flag="0"/>
      <psa10 value="0.2093958181" flag="0"/>
      <psa30 value="0.0263965797" flag="0"/>
    </comp>
    <comp name="--.HHN">
      <acc value="0.1542504687" flag="0"/>
      <vel value="0.1860304978" flag="0"/>
      <psa03 value="0.3927286080" flag="0"/>
      <psa10 value="0.2522683580" flag="0"/>
      <psa30 value="0.0372830743" flag="0"/>
    </comp>
    <comp name="--.HHZ">
      <acc value="0.0887458550" flag="0"/>
      <vel value="0.0662749978" flag="0"/>
      <psa03 value="0.2567349480" flag="0"/>
      <psa10 value="0.1183373179" flag="0"/>
      <psa30 value="0.0165861306" flag="0"/>
    </comp>
  </station>
  <station code="AKS" name="AKS" netid="KO" insttype="CMG-5T" commtype="DIG" lat="38.8785" lon="27.8129">
    <comp name="--.HNN">
      <acc value="0.1964324488" flag="0"/>
      <vel value="0.1528939244" flag="0"/>
      <psa03 value="0.4880882001" flag="0"/>
      <psa10 value="0.2939078122" flag="0"/>
      <psa30 value="0.0514988658" flag="0"/>
    </comp>
    <comp name="--.HNZ">
      <acc value="0.0849782082" flag="0"/>
      <vel value="0.0916054779" flag="0"/>
      <psa03 value="0.1506225398" flag="0"/>
      <psa10 value="0.1431569763" flag="0"/>
      <psa30 value="0.0427074237" flag="0"/>
    </comp>
    <comp name="--.HNE">
      <acc value="0.1679875882" flag="0"/>
      <vel value="0.2446073506" flag="0"/>
      <psa03 value="0.4052736706" flag="0"/>
      <psa10 value="0.4180995816" flag="0"/>
      <psa30 value="0.1356945527" flag="0"/>
    </comp>
  </station>
  <station code="ARMT" name="ARMT" netid="KO" insttype="CMG-5T" commtype="DIG" lat="40.5683" lon="28.866">
    <comp name="--.HNE">
      <acc value="1.4478779423" flag="0"/>
      <vel value="0.8033298976" flag="0"/>
      <psa03 value="5.2674077155" flag="0"/>
      <psa10 value="0.4905831879" flag="0"/>
      <psa30 value="0.3168104256" flag="0"/>
    </comp>
    <comp name="--.HNN">
      <acc value="1.1916436114" flag="0"/>
      <vel value="0.7680880590" flag="0"/>
      <psa03 value="3.5672398318" flag="0"/>
      <psa10 value="0.5356083156" flag="0"/>
      <psa30 value="0.3052397160" flag="0"/>
    </comp>
    <comp name="--.HNZ">
      <acc value="0.8366154318" flag="0"/>
      <vel value="0.4351300715" flag="0"/>
      <psa03 value="1.6741058052" flag="0"/>
      <psa10 value="0.4556392575" flag="0"/>
      <psa30 value="0.2631040054" flag="0"/>
    </comp>
  </station>
  <station code="BIGA" name="BIGA" netid="KO" insttype="CMG-5T" commtype="DIG" lat="40.2813" lon="27.1505">
    <comp name="--.HNE">
      <acc value="2.1189391306" flag="0"/>
      <vel value="0.8956951832" flag="0"/>
      <psa03 value="5.7900873865" flag="0"/>
      <psa10 value="0.7812656704" flag="0"/>
      <psa30 value="0.0849876896" flag="0"/>
    </comp>
    <comp name="--.HNN">
      <acc value="2.3587030357" flag="0"/>
      <vel value="1.0374441148" flag="0"/>
      <psa03 value="7.5894595108" flag="0"/>
      <psa10 value="0.6477963903" flag="0"/>
      <psa30 value="0.0773073967" flag="0"/>
    </comp>
    <comp name="--.HNZ">
      <acc value="0.9826742731" flag="0"/>
      <vel value="0.4357048642" flag="0"/>
      <psa03 value="1.5553433288" flag="0"/>
      <psa10 value="0.5025750792" flag="0"/>
      <psa30 value="0.0616004836" flag="0"/>
    </comp>
  </station>
  <station code="BMYO" name="BMYO" netid="KO" insttype="CMG-5T" commtype="DIG" lat="39.8098" lon="26.6009">
    <comp name="--.HNZ">
      <acc value="0.2630975798" flag="0"/>
      <vel value="0.3631205235" flag="0"/>
      <psa03 value="0.6846076328" flag="0"/>
      <psa10 value="0.5379104578" flag="0"/>
      <psa30 value="0.0939098793" flag="0"/>
    </comp>
    <comp name="--.HNE">
      <acc value="0.5303967205" flag="0"/>
      <vel value="0.5420603507" flag="0"/>
      <psa03 value="2.0454670994" flag="0"/>
      <psa10 value="0.5689104219" flag="0"/>
      <psa30 value="0.1415595258" flag="0"/>
    </comp>
    <comp name="--.HNN">
      <acc value="0.5315805457" flag="0"/>
      <vel value="0.5848439439" flag="0"/>
      <psa03 value="1.4638262271" flag="0"/>
      <psa10 value="0.8262604098" flag="0"/>
      <psa30 value="0.1318338670" flag="0"/>
    </comp>
  </station>
  <station code="BOTS" name="BOTS" netid="KO" insttype="CMG-5T" commtype="DIG" lat="40.9902" lon="27.981">
    <comp name="--.HNE">
      <acc value="7.7355860241" flag="0"/>
      <vel value="6.8060755407" flag="0"/>
      <psa03 value="14.4175579289" flag="0"/>
      <psa10 value="5.6749098819" flag="0"/>
      <psa30 value="0.3684513771" flag="0"/>
    </comp>
    <comp name="--.HNN">
      <acc value="9.3269714824" flag="0"/>
      <vel value="5.3522789625" flag="0"/>
      <psa03 value="14.1905843347" flag="0"/>
      <psa10 value="8.4719277078" flag="0"/>
      <psa30 value="0.6157140412" flag="0"/>
    </comp>
    <comp name="--.HNZ">
      <acc value="2.0426367500" flag="0"/>
      <vel value="1.1488527492" flag="0"/>
      <psa03 value="3.2392592722" flag="0"/>
      <psa10 value="1.9095315127" flag="0"/>
      <psa30 value="0.1951146574" flag="0"/>
    </comp>
  </station>
  <station code="BRGA" name="BRGA" netid="KO" insttype="CMG-5T" commtype="DIG" lat="40.8846" lon="29.065">
    <comp name="--.HNE">
      <acc value="1.4893927626" flag="0"/>
      <vel value="1.4057721339" flag="0"/>
      <psa03 value="4.1759908636" flag="0"/>
      <psa10 value="1.1005121707" flag="0"/>
      <psa30 value="0.3352481282" flag="0"/>
    </comp>
    <comp name="--.HNZ">
      <acc value="0.9945771757" flag="0"/>
      <vel value="0.6188037760" flag="0"/>
      <psa03 value="2.2621173126" flag="0"/>
      <psa10 value="0.7942899214" flag="0"/>
      <psa30 value="0.2401911701" flag="0"/>
    </comp>
    <comp name="--.HNN">
      <acc value="2.2878623791" flag="0"/>
      <vel value="2.2318586337" flag="0"/>
      <psa03 value="3.2414832074" flag="0"/>
      <psa10 value="1.7653531954" flag="0"/>
      <psa30 value="0.5862162533" flag="0"/>
    </comp>
  </station>
  <station code="BUYK" name="BUYK" netid="KO" insttype="ACEBOX" commtype="DIG" lat="41.0168" lon="28.5828">
    <comp name="--.HNZ">
      <acc value="3.5596131437" flag="0"/>
      <vel value="3.2864762187" flag="0"/>
      <psa03 value="6.8606494161" flag="0"/>
      <psa10 value="4.5360562400" flag="0"/>
      <psa30 value="0.8400356788" flag="0"/>
    </comp>
  </station>
  <station code="CANM" name="CANM" netid="KO" insttype="CMG-5T" commtype="DIG" lat="40.0113" lon="27.0529">
    <comp name="--.HNN">
      <acc value="2.1395843043" flag="0"/>
      <vel value="0.9688229298" flag="0"/>
      <psa03 value="5.3312887119" flag="0"/>
      <psa10 value="0.8493512783" flag="0"/>
      <psa30 value="0.0688433740" flag="0"/>
    </comp>
    <comp name="--.HNE">
      <acc value="1.7334755748" flag="0"/>
      <vel value="0.6513067530" flag="0"/>
      <psa03 value="3.1829494887" flag="0"/>
      <psa10 value="0.7065400672" flag="0"/>
      <psa30 value="0.0739846487" flag="0"/>
    </comp>
    <comp name="--.HNZ">
      <acc value="1.5437030154" flag="0"/>
      <vel value="0.6632405968" flag="0"/>
      <psa03 value="4.2472048291" flag="0"/>
      <psa10 value="0.4310645813" flag="0"/>
      <psa30 value="0.0899928570" flag="0"/>
    </comp>
  </station>
  <station code="CRLU" name="CRLU" netid="KO" insttype="ACEBOX" commtype="DIG" lat="41.1428" lon="27.8215">
    <comp name="--.HNE">
      <acc value="23.7321936236" flag="0"/>
      <vel value="26.9501463111" flag="0"/>
      <psa03 value="56.3374680584" flag="0"/>
      <psa10 value="38.3470696684" flag="0"/>
      <psa30 value="7.5649444407" flag="0"/>
    </comp>
    <comp name="--.HNN">
      <acc value="32.4723221663" flag="0"/>
      <vel value="27.9664819896" flag="0"/>
      <psa03 value="65.4020356181" flag="0"/>
      <psa10 value="42.1806055618" flag="0"/>
      <psa30 value="6.4141464863" flag="0"/>
    </comp>
    <comp name="--.HNZ">
      <acc value="19.7406347738" flag="0"/>
      <vel value="19.3958561741" flag="0"/>
      <psa03 value="38.0493477321" flag="0"/>
      <psa10 value="43.7239365923" flag="0"/>
      <psa30 value="3.1744804299" flag="0"/>
    </comp>
  </station>
  <station code="CTYL" name="CTYL" netid="KO" insttype="CMG-5T" commtype="DIG" lat="41.476" lon="28.2897">
    <comp name="--.HNN">
      <acc value="1.6876810673" flag="0"/>
      <vel value="0.7489056561" flag="0"/>
      <psa03 value="2.3164604454" flag="0"/>
      <psa10 value="0.8139025382" flag="0"/>
      <psa30 value="0.1194547808" flag="0"/>
    </comp>
    <comp name="--.HNE">
      <acc value="1.6830422290" flag="0"/>
      <vel value="1.0541080739" flag="0"/>
      <psa03 value="3.2942637728" flag="0"/>
      <psa10 value="1.3219298793" flag="0"/>
      <psa30 value="0.2190957680" flag="0"/>
    </comp>
    <comp name="--.HNZ">
      <acc value="1.0234365825" flag="0"/>
      <vel value="0.5139393488" flag="0"/>
      <psa03 value="1.6369432421" flag="0"/>
      <psa10 value="0.4711601686" flag="0"/>
      <psa30 value="0.0889594592" flag="0"/>
    </comp>
  </station>
  <station code="DOGC" name="DOGC" netid="KO" insttype="CMG-5T" commtype="DIG" lat="41.3949" lon="26.9852">
    <comp name="--.HNE">
      <acc value="1.7839306317" flag="0"/>
      <vel value="1.1337928221" flag="0"/>
      <psa03 value="4.9282273780" flag="0"/>
      <psa10 value="0.9984346430" flag="0"/>
      <psa30 value="0.2188346824" flag="0"/>
    </comp>
  </station>
  <station code="DST" name="DST" netid="KO" insttype="CMG-5T" commtype="DIG" lat="39.6041" lon="28.6267">
    <comp name="--.HNZ">
      <acc value="0.5035127420" flag="0"/>
      <vel value="0.4677615722" flag="0"/>
      <psa03 value="1.0652228274" flag="0"/>
      <psa10 value="0.5122671450" flag="0"/>
      <psa30 value="0.0872927797" flag="0"/>
    </comp>
    <comp name="--.HNE">
      <acc value="0.7578206459" flag="0"/>
      <vel value="0.7465174588" flag="0"/>
      <psa03 value="1.7300701586" flag="0"/>
      <psa10 value="1.0487920834" flag="0"/>
      <psa30 value="0.1616865036" flag="0"/>
    </comp>
    <comp name="--.HNN">
      <acc value="0.5008710927" flag="0"/>
      <vel value="0.5220782334" flag="0"/>
      <psa03 value="1.2184496340" flag="0"/>
      <psa10 value="0.9718728895" flag="0"/>
      <psa30 value="0.1019189332" flag="0"/>
    </comp>
  </station>
  <station code="EDC" name="EDC" netid="KO" insttype="CMG-5T" commtype="DIG" lat="40.3465" lon="27.8618">
    <comp name="--.HNE">
      <acc value="1.5406726417" flag="0"/>
      <vel value="0.7856552618" flag="0"/>
      <psa03 value="3.6125888567" flag="0"/>
      <psa10 value="0.7934510541" flag="0"/>
      <psa30 value="0.0902073564" flag="0"/>
    </comp>
    <comp name="--.HNN">
      <acc value="2.0581582845" flag="0"/>
      <vel value="1.0884610473" flag="0"/>
      <psa03 value="4.7386037025" flag="0"/>
      <psa10 value="0.8023229618" flag="0"/>
      <psa30 value="0.0950522140" flag="0"/>
    </comp>
    <comp name="--.HNZ">
      <acc value="0.6723612662" flag="0"/>
      <vel value="0.2968702511" flag="0"/>
      <psa03 value="1.0523387916" flag="0"/>
      <psa10 value="0.3710469999" flag="0"/>
      <psa30 value="0.0593276871" flag="0"/>
    </comp>
  </station>
  <station code="ENZZ" name="ENZZ" netid="KO" insttype="CMG-5T" commtype="DIG" lat="40.607" lon="26.1406">
    <comp name="--.HNE">
      <acc value="0.8673974129" flag="0"/>
      <vel value="1.1095130753" flag="0"/>
      <psa03 value="1.7268088684" flag="0"/>
      <psa10 value="1.7370700935" flag="0"/>
      <psa30 value="0.1647160028" flag="0"/>
    </comp>
    <comp name="--.HNN">
      <acc value="0.9527763297" flag="0"/>
      <vel value="1.2278488414" flag="0"/>
      <psa03 value="2.1605352742" flag="0"/>
      <psa10 value="2.1728395933" flag="0"/>
      <psa30 value="0.2725612362" flag="0"/>
    </comp>
    <comp name="--.HNZ">
      <acc value="0.3144670491" flag="0"/>
      <vel value="0.3424599232" flag="0"/>
      <psa03 value="0.9864042225" flag="0"/>
      <psa10 value="0.4813073549" flag="0"/>
      <psa30 value="0.0737852935" flag="0"/>
    </comp>
  </station>
  <station code="ESKY" name="ESKY" netid="KO" insttype="CMG-5T" commtype="DIG" lat="40.5918" lon="28.9071">
    <comp name="--.HNE">
      <acc value="2.1990153572" flag="0"/>
      <vel value="1.7763864479" flag="0"/>
      <psa03 value="7.1156042498" flag="0"/>
      <psa10 value="2.9578455798" flag="0"/>
      <psa30 value="0.4392946198" flag="0"/>
    </comp>
    <comp name="--.HNZ">
      <acc value="1.6149475646" flag="0"/>
      <vel value="1.0070610994" flag="0"/>
      <psa03 value="3.8709833410" flag="0"/>
      <psa10 value="1.7295358206" flag="0"/>
      <psa30 value="0.3809778808" flag="0"/>
    </comp>
    <comp name="--.HNN">
      <acc value="3.4195933441" flag="0"/>
      <vel value="2.2589252287" flag="0"/>
      <psa03 value="9.3294891469" flag="0"/>
      <psa10 value="3.7584183939" flag="0"/>
      <psa30 value="0.3690300036" flag="0"/>
    </comp>
  </station>
  <station code="EZN" name="EZN" netid="KO" insttype="CMG-3ESP" commtype="DIG" lat="39.8255" lon="26.3246">
    <comp name="--.HHN">
      <acc value="0.2458795055" flag="0"/>
      <vel value="0.2047878321" flag="0"/>
      <psa03 value="0.6010257158" flag="0"/>
      <psa10 value="0.2683476882" flag="0"/>
      <psa30 value="0.0492409652" flag="0"/>
    </comp>
    <comp name="--.HHE">
      <acc value="0.2604783207" flag="0"/>
      <vel value="0.1600448864" flag="0"/>
      <psa03 value="0.6193243526" flag="0"/>
      <psa10 value="0.2863858336" flag="0"/>
      <psa30 value="0.0300458572" flag="0"/>
    </comp>
    <comp name="--.HHZ">
      <acc value="0.2003971602" flag="0"/>
      <vel value="0.2327063013" flag="0"/>
      <psa03 value="0.4000436514" flag="0"/>
      <psa10 value="0.2596229818" flag="0"/>
      <psa30 value="0.0166851198" flag="0"/>
    </comp>
  </station>
  <station code="EZNE" name="EZNE" netid="KO" insttype="CMG-5T" commtype="DIG" lat="39.756" lon="26.3655">
    <comp name="--.HNE">
      <acc value="0.2442831276" flag="0"/>
      <vel value="0.2331672258" flag="0"/>
      <psa03 value="0.6904465300" flag="0"/>
      <psa10 value="0.2468944187" flag="0"/>
      <psa30 value="0.0614959382" flag="0"/>
    </comp>
    <comp name="--.HNN">
      <acc value="0.3855735888" flag="0"/>
      <vel value="0.4029432995" flag="0"/>
      <psa03 value="1.1395122388" flag="0"/>
      <psa10 value="0.3527814645" flag="0"/>
      <psa30 value="0.0797769466" flag="0"/>
    </comp>
    <comp name="--.HNZ">
      <acc value="0.2082870278" flag="0"/>
      <vel value="0.2042383064" flag="0"/>
      <psa03 value="0.4705955583" flag="0"/>
      <psa10 value="0.6257852751" flag="0"/>
      <psa30 value="0.0410503447" flag="0"/>
    </comp>
  </station>
  <station code="GONE" name="GONE" netid="KO" insttype="CMG-5T" commtype="DIG" lat="40.0466" lon="27.686">
    <comp name="--.HNE">
      <acc value="1.2582677561" flag="0"/>
      <vel value="1.3752528552" flag="0"/>
      <psa03 value="1.9911688589" flag="0"/>
      <psa10 value="2.5256486460" flag="0"/>
      <psa30 value="0.1069332546" flag="0"/>
    </comp>
    <comp name="--.HNZ">
      <acc value="0.6393250127" flag="0"/>
      <vel value="0.4652369892" flag="0"/>
      <psa03 value="1.4383925685" flag="0"/>
      <psa10 value="0.8221630129" flag="0"/>
      <psa30 value="0.0615900698" flag="0"/>
    </comp>
    <comp name="--.HNN">
      <acc value="1.1136092623" flag="0"/>
      <vel value="1.0843629816" flag="0"/>
      <psa03 value="3.7640049685" flag="0"/>
      <psa10 value="1.3042426592" flag="0"/>
      <psa30 value="0.0794307331" flag="0"/>
    </comp>
  </station>
  <station code="GORD" name="GORD" netid="KO" insttype="CMG-5T" commtype="DIG" lat="38.9088" lon="28.1769">
    <comp name="--.HNE">
      <acc value="0.1437072092" flag="0"/>
      <vel value="0.2862236860" flag="0"/>
      <psa03 value="0.2157765341" flag="0"/>
      <psa10 value="0.3251147927" flag="0"/>
      <psa30 value="0.0878874508" flag="0"/>
    </comp>
    <comp name="--.HNZ">
      <acc value="0.0702025858" flag="0"/>
      <vel value="0.1390060802" flag="0"/>
      <psa03 value="0.1847607967" flag="0"/>
      <psa10 value="0.1347775909" flag="0"/>
      <psa30 value="0.0424468299" flag="0"/>
    </comp>
    <comp name="--.HNN">
      <acc value="0.1439957056" flag="0"/>
      <vel value="0.1838474893" flag="0"/>
      <psa03 value="0.2316978346" flag="0"/>
      <psa10 value="0.3175220732" flag="0"/>
      <psa30 value="0.0663386119" flag="0"/>
    </comp>
  </station>
  <station code="GPA" name="GPA" netid="KO" insttype="CMG-5T" commtype="DIG" lat="40.2911" lon="30.3171">
    <comp name="--.HNE">
      <acc value="0.3690031107" flag="0"/>
      <vel value="0.4000256981" flag="0"/>
      <psa03 value="0.8670705238" flag="0"/>
