<stationlist created="1745476327">
	<station code="ELND" name="ELND" netid="BS" source="National Seismic Network of Bulgaria (BS)" insttype="" lat="42.9287" lon="25.8751">
		<comp name=".HNE" depth="0.0">
			<acc value="0.04687472002281" flag="0"/>
			<vel value="0.163167532462" flag="0"/>
			<psa03 value="0.110563376364233" flag="0"/>
			<psa10 value="0.110857028733945" flag="0"/>
			<psa30 value="0.0498078095231204" flag="0"/>
		</comp>
		<comp name=".HNN" depth="0.0">
			<acc value="0.05502918039159" flag="0"/>
			<vel value="0.0988383986241" flag="0"/>
			<psa03 value="0.0999214422216463" flag="0"/>
			<psa10 value="0.198060775554447" flag="0"/>
			<psa30 value="0.0234178596516172" flag="0"/>
		</comp>
		<comp name=".HNZ" depth="0.0">
			<acc value="0.046455555745104" flag="0"/>
			<vel value="0.0930787345434" flag="0"/>
			<psa03 value="0.0889332663923871" flag="0"/>
			<psa10 value="0.186234187100736" flag="0"/>
			<psa30 value="0.0513891409449639" flag="0"/>
		</comp>
	</station>
	<station code="KALB" name="KALB" netid="BS" source="National Seismic Network of Bulgaria (BS)" insttype="" lat="43.4059" lon="28.4162">
		<comp name=".HNE" depth="0.0">
			<acc value="0.00015111944177226" flag="0"/>
			<vel value="0.000142525974209" flag="0"/>
			<psa03 value="0.000153935083511546" flag="0"/>
			<psa10 value="9.57173710793992e-05" flag="0"/>
			<psa30 value="6.61240027862754e-05" flag="0"/>
		</comp>
		<comp name=".HNN" depth="0.0">
			<acc value="0.00015754258296012" flag="0"/>
			<vel value="0.000191729481707" flag="0"/>
			<psa03 value="0.000183985373349229" flag="0"/>
			<psa10 value="8.58579166693604e-05" flag="0"/>
			<psa30 value="6.44910625807598e-05" flag="0"/>
		</comp>
		<comp name=".HNZ" depth="0.0">
			<acc value="0.00017208199045356" flag="0"/>
			<vel value="0.000225225946258" flag="0"/>
			<psa03 value="0.000230548435137037" flag="0"/>
			<psa10 value="0.000110908726553356" flag="0"/>
			<psa30 value="4.87078978830426e-05" flag="0"/>
		</comp>
	</station>
	<station code="LOZB" name="LOZB" netid="BS" source="National Seismic Network of Bulgaria (BS)" insttype="" lat="43.3701" lon="26.593">
		<comp name=".HNE" depth="0.0">
			<acc value="0.30248848829022" flag="0"/>
			<vel value="0.234895454267" flag="0"/>
			<psa03 value="1.66528781714497" flag="0"/>
			<psa10 value="0.168278912652128" flag="0"/>
			<psa30 value="0.0461461602899094" flag="0"/>
		</comp>
		<comp name=".HNN" depth="0.0">
			<acc value="0.2394105490767" flag="0"/>
			<vel value="0.203932475045" flag="0"/>
			<psa03 value="1.4088601634062" flag="0"/>
			<psa10 value="0.129899230186312" flag="0"/>
			<psa30 value="0.0269363760693755" flag="0"/>
		</comp>
		<comp name=".HNZ" depth="0.0">
			<acc value="0.07306864496574" flag="0"/>
			<vel value="0.120735316843" flag="0"/>
			<psa03 value="0.140936794704463" flag="0"/>
			<psa10 value="0.191537833441309" flag="0"/>
			<psa30 value="0.0276335305857803" flag="0"/>
		</comp>
	</station>
	<station code="RAZG" name="RAZG" netid="BS" source="National Seismic Network of Bulgaria (BS)" insttype="" lat="43.5662" lon="26.5079">
		<comp name=".HNE" depth="0.0">
			<acc value="0.080447032557954" flag="0"/>
			<vel value="0.160278087002" flag="0"/>
			<psa03 value="0.164254693567244" flag="0"/>
			<psa10 value="0.15122939820559" flag="0"/>
			<psa30 value="0.0451244859425579" flag="0"/>
		</comp>
		<comp name=".HNN" depth="0.0">
			<acc value="0.083242013080818" flag="0"/>
			<vel value="0.137502755363" flag="0"/>
			<psa03 value="0.163400293217439" flag="0"/>
			<psa10 value="0.13043941597118" flag="0"/>
			<psa30 value="0.0365861003162392" flag="0"/>
		</comp>
		<comp name=".HNZ" depth="0.0">
			<acc value="0.075091404945222" flag="0"/>
			<vel value="0.107726896348" flag="0"/>
			<psa03 value="0.141906900635903" flag="0"/>
			<psa10 value="0.168067353637298" flag="0"/>
			<psa30 value="0.0264206535719658" flag="0"/>
		</comp>
	</station>
	<station code="SILAM" name="SILAM" netid="BS" source="National Seismic Network of Bulgaria (BS)" insttype="" lat="44.1046" lon="27.2665">
		<comp name=".HNE" depth="0.0">
			<acc value="0.071759250442014" flag="0"/>
			<vel value="0.171091824643" flag="0"/>
			<psa03 value="0.202993947352694" flag="0"/>
			<psa10 value="0.12944872034242" flag="0"/>
			<psa30 value="0.0651412486213863" flag="0"/>
		</comp>
		<comp name=".HNN" depth="0.0">
			<acc value="0.077274250710276" flag="0"/>
			<vel value="0.0962025368702" flag="0"/>
			<psa03 value="0.290509307316084" flag="0"/>
			<psa10 value="0.11760617083168" flag="0"/>
			<psa30 value="0.0207829000984874" flag="0"/>
		</comp>
		<comp name=".HNZ" depth="0.0">
			<acc value="0.031145089596708" flag="0"/>
			<vel value="0.0751772964187" flag="0"/>
			<psa03 value="0.0603731869273972" flag="0"/>
			<psa10 value="0.0803479101545656" flag="0"/>
			<psa30 value="0.0208424057070883" flag="0"/>
		</comp>
	</station>
	<station code="VETAM" name="VETAM" netid="BS" source="National Seismic Network of Bulgaria (BS)" insttype="" lat="43.0805" lon="25.6367">
		<comp name=".HNE" depth="0.0">
			<acc value="0.051025085320938" flag="0"/>
			<vel value="0.0920334436683" flag="0"/>
			<psa03 value="0.123607636316151" flag="0"/>
			<psa10 value="0.144026551052029" flag="0"/>
			<psa30 value="0.0203892273528945" flag="0"/>
		</comp>
		<comp name=".HNN" depth="0.0">
			<acc value="0.078987384140346" flag="0"/>
			<vel value="0.135232550507" flag="0"/>
			<psa03 value="0.124278357831419" flag="0"/>
			<psa10 value="0.231517896924548" flag="0"/>
			<psa30 value="0.0307016538338993" flag="0"/>
		</comp>
		<comp name=".HNZ" depth="0.0">
			<acc value="0.04727026883436" flag="0"/>
			<vel value="0.0983973250546" flag="0"/>
			<psa03 value="0.0945982979227678" flag="0"/>
			<psa10 value="0.11212836295362" flag="0"/>
			<psa30 value="0.031444426372239" flag="0"/>
		</comp>
	</station>
	<station code="DRA2" name="DRA2" netid="HI" source="ITSAK Strong Motion Network" insttype="" lat="41.1593" lon="24.1485">
		<comp name=".HNE" depth="0.0">
			<acc value="0.060250089898638" flag="0"/>
			<vel value="0.0442196092958" flag="0"/>
			<psa03 value="0.205565534374388" flag="0"/>
			<psa10 value="0.0605168551945365" flag="0"/>
			<psa30 value="0.0113041596784486" flag="0"/>
		</comp>
		<comp name=".HNN" depth="0.0">
			<acc value="0.058593335380938" flag="0"/>
			<vel value="0.0894619453675" flag="0"/>
			<psa03 value="0.196844414976317" flag="0"/>
			<psa10 value="0.094973609035438" flag="0"/>
			<psa30 value="0.0171272112603437" flag="0"/>
		</comp>
		<comp name=".HNZ" depth="0.0">
			<acc value="0.035478484523892" flag="0"/>
			<vel value="0.0421658605339" flag="0"/>
			<psa03 value="0.079826590203173" flag="0"/>
			<psa10 value="0.0362545666871308" flag="0"/>
			<psa30 value="0.0102703045239552" flag="0"/>
		</comp>
	</station>
	<station code="KRL1" name="KRL1" netid="HI" source="ITSAK Strong Motion Network" insttype="" lat="37.7951" lon="26.7065">
		<comp name=".HNE" depth="0.0">
			<acc value="0.068045944229376" flag="0"/>
			<vel value="0.137316309575" flag="0"/>
			<psa03 value="0.132155692165965" flag="0"/>
			<psa10 value="0.197271993301388" flag="0"/>
			<psa30 value="0.0522934508513118" flag="0"/>
		</comp>
		<comp name=".HNN" depth="0.0">
			<acc value="0.061628055479292" flag="0"/>
			<vel value="0.129709792945" flag="0"/>
			<psa03 value="0.125588402948662" flag="0"/>
			<psa10 value="0.158311892385811" flag="0"/>
			<psa30 value="0.0500686468021369" flag="0"/>
		</comp>
		<comp name=".HNZ" depth="0.0">
			<acc value="0.03487445561163" flag="0"/>
			<vel value="0.0548793502738" flag="0"/>
			<psa03 value="0.0625838698323661" flag="0"/>
			<psa10 value="0.12536115206113" flag="0"/>
			<psa30 value="0.0138814495779053" flag="0"/>
		</comp>
	</station>
	<station code="MYT1" name="MYT1" netid="HI" source="ITSAK Strong Motion Network" insttype="" lat="39.085" lon="26.5694">
		<comp name=".HNE" depth="0.0">
			<acc value="0.42394830238446" flag="0"/>
			<vel value="0.420172081106" flag="0"/>
			<psa03 value="0.846149969950567" flag="0"/>
			<psa10 value="0.556590391382945" flag="0"/>
			<psa30 value="0.112251076083056" flag="0"/>
		</comp>
		<comp name=".HNN" depth="0.0">
			<acc value="0.32565490571004" flag="0"/>
			<vel value="0.488507564681" flag="0"/>
			<psa03 value="0.831075221323288" flag="0"/>
			<psa10 value="0.994001787741573" flag="0"/>
			<psa30 value="0.081636728032587" flag="0"/>
		</comp>
		<comp name=".HNZ" depth="0.0">
			<acc value="0.22468537131192" flag="0"/>
			<vel value="0.228697999047" flag="0"/>
			<psa03 value="0.550984083324038" flag="0"/>
			<psa10 value="0.548491834892719" flag="0"/>
			<psa30 value="0.0761929407417439" flag="0"/>
		</comp>
	</station>
	<station code="PLM1" name="PLM1" netid="HI" source="ITSAK Strong Motion Network" insttype="" lat="38.9751" lon="26.3688">
		<comp name=".HNE" depth="0.0">
			<acc value="0.17845151011188" flag="0"/>
			<vel value="0.161031384202" flag="0"/>
			<psa03 value="0.445517930042911" flag="0"/>
			<psa10 value="0.290166262090683" flag="0"/>
			<psa30 value="0.0398631474045593" flag="0"/>
		</comp>
		<comp name=".HNN" depth="0.0">
			<acc value="0.101888802926832" flag="0"/>
			<vel value="0.11779424598" flag="0"/>
			<psa03 value="0.206658356768425" flag="0"/>
			<psa10 value="0.258600270998858" flag="0"/>
			<psa30 value="0.0206099453077078" flag="0"/>
		</comp>
		<comp name=".HNZ" depth="0.0">
			<acc value="0.089988862712364" flag="0"/>
			<vel value="0.0827746498604" flag="0"/>
			<psa03 value="0.156647752144602" flag="0"/>
			<psa10 value="0.201636172406955" flag="0"/>
			<psa30 value="0.0233708048678092" flag="0"/>
		</comp>
	</station>
	<station code="SGR1" name="SGR1" netid="HI" source="ITSAK Strong Motion Network" insttype="" lat="39.211392" lon="25.855221">
		<comp name=".HNE" depth="0.0">
			<acc value="0.13811254795662" flag="0"/>
			<vel value="0.15924068455" flag="0"/>
			<psa03 value="0.340555935159344" flag="0"/>
			<psa10 value="0.228851170266824" flag="0"/>
			<psa30 value="0.0314198647451688" flag="0"/>
		</comp>
		<comp name=".HNN" depth="0.0">
			<acc value="0.14188279179846" flag="0"/>
			<vel value="0.141715878868" flag="0"/>
			<psa03 value="0.360898491087218" flag="0"/>
			<psa10 value="0.232964682766907" flag="0"/>
			<psa30 value="0.0252913587617258" flag="0"/>
		</comp>
		<comp name=".HNZ" depth="0.0">
			<acc value="0.084261701816904" flag="0"/>
			<vel value="0.0687427867362" flag="0"/>
			<psa03 value="0.234947897478471" flag="0"/>
			<psa10 value="0.114320788191029" flag="0"/>
			<psa30 value="0.0133015886649871" flag="0"/>
		</comp>
	</station>
	<station code="SKY1" name="SKY1" netid="HI" source="ITSAK Strong Motion Network" insttype="" lat="38.904483" lon="24.564572">
		<comp name=".HNE" depth="0.0">
			<acc value="0.024939317804256" flag="0"/>
			<vel value="0.0386097201335" flag="0"/>
			<psa03 value="0.0603672386165735" flag="0"/>
			<psa10 value="0.0524624391291897" flag="0"/>
			<psa30 value="0.011202457107813" flag="0"/>
		</comp>
		<comp name=".HNN" depth="0.0">
			<acc value="0.025035632675646" flag="0"/>
			<vel value="0.0417371134698" flag="0"/>
			<psa03 value="0.0701912383667969" flag="0"/>
			<psa10 value="0.0496758657822789" flag="0"/>
			<psa30 value="0.0108387330128904" flag="0"/>
		</comp>
		<comp name=".HNZ" depth="0.0">
			<acc value="0.014293143819552" flag="0"/>
			<vel value="0.0344994583937" flag="0"/>
			<psa03 value="0.0332994871776137" flag="0"/>
			<psa10 value="0.0333605037196552" flag="0"/>
			<psa30 value="0.00789525802211545" flag="0"/>
		</comp>
	</station>
	<station code="EFSA" name="EFSA" netid="HL" source="National Observatory of Athens Seismic Network" insttype="" lat="39.54015" lon="24.98864">
		<comp name="00.HNE" depth="0.0">
			<acc value="0.078086606333202" flag="0"/>
			<vel value="0.124363947892" flag="0"/>
			<psa03 value="0.126684923504418" flag="0"/>
			<psa10 value="0.154790304097854" flag="0"/>
			<psa30 value="0.0439583553586593" flag="0"/>
		</comp>
		<comp name="00.HNN" depth="0.0">
			<acc value="0.06573883087125" flag="0"/>
			<vel value="0.105456742904" flag="0"/>
			<psa03 value="0.127731326156624" flag="0"/>
			<psa10 value="0.100777456012021" flag="0"/>
			<psa30 value="0.0506080792037257" flag="0"/>
		</comp>
		<comp name="00.HNZ" depth="0.0">
			<acc value="0.045381581417862" flag="0"/>
			<vel value="0.0694126604426" flag="0"/>
			<psa03 value="0.138004475452626" flag="0"/>
			<psa10 value="0.112528304447993" flag="0"/>
			<psa30 value="0.016779899919366" flag="0"/>
		</comp>
	</station>
	<station code="KOMA" name="KOMA" netid="HL" source="National Observatory of Athens Seismic Network" insttype="" lat="41.11278" lon="25.39647">
		<comp name="00.HNE" depth="0.0">
			<acc value="0.70703337332394" flag="0"/>
			<vel value="0.746927783656" flag="0"/>
			<psa03 value="1.60429227649118" flag="0"/>
			<psa10 value="0.890204571683021" flag="0"/>
			<psa30 value="0.195520658950791" flag="0"/>
		</comp>
		<comp name="00.HNN" depth="0.0">
			<acc value="0.53020026342048" flag="0"/>
			<vel value="0.775177398734" flag="0"/>
			<psa03 value="1.75220974196359" flag="0"/>
			<psa10 value="1.04656905006485" flag="0"/>
			<psa30 value="0.139272919480918" flag="0"/>
		</comp>
		<comp name="00.HNZ" depth="0.0">
			<acc value="0.32229575548128" flag="0"/>
			<vel value="0.22417804791" flag="0"/>
			<psa03 value="0.735979088337591" flag="0"/>
			<psa10 value="0.530482961892409" flag="0"/>
			<psa30 value="0.0843462008551023" flag="0"/>
		</comp>
	</station>
	<station code="LIA" name="LIA" netid="HL" source="National Observatory of Athens Seismic Network" insttype="" lat="39.89725" lon="25.18055">
		<comp name="00.HNE" depth="0.0">
			<acc value="0.067874775762018" flag="0"/>
			<vel value="0.0618766873112" flag="0"/>
			<psa03 value="0.194711502848272" flag="0"/>
			<psa10 value="0.0702295223611209" flag="0"/>
			<psa30 value="0.0102763249227511" flag="0"/>
		</comp>
		<comp name="00.HNN" depth="0.0">
			<acc value="0.061529783796654" flag="0"/>
			<vel value="0.0944970718534" flag="0"/>
			<psa03 value="0.147519209923584" flag="0"/>
			<psa10 value="0.129722308466438" flag="0"/>
			<psa30 value="0.0191163696990263" flag="0"/>
		</comp>
		<comp name="00.HNZ" depth="0.0">
			<acc value="0.042416479161024" flag="0"/>
			<vel value="0.0530593184597" flag="0"/>
			<psa03 value="0.0989789006165155" flag="0"/>
			<psa10 value="0.0738984879119484" flag="0"/>
			<psa30 value="0.0132615685138088" flag="0"/>
		</comp>
	</station>
	<station code="PRK" name="PRK" netid="HL" source="National Observatory of Athens Seismic Network" insttype="" lat="39.24565" lon="26.26499">
		<comp name=".HNE" depth="0.0">
			<acc value="0.17959895282358" flag="0"/>
			<vel value="0.150091350091" flag="0"/>
			<psa03 value="0.52485222721953" flag="0"/>
			<psa10 value="0.301462790430497" flag="0"/>
			<psa30 value="0.0465441566551942" flag="0"/>
		</comp>
		<comp name=".HNN" depth="0.0">
			<acc value="0.23877944876784" flag="0"/>
			<vel value="0.275758901048" flag="0"/>
			<psa03 value="0.695984688903169" flag="0"/>
			<psa10 value="0.340523157988026" flag="0"/>
			<psa30 value="0.0573938553947904" flag="0"/>
		</comp>
		<comp name=".HNZ" depth="0.0">
			<acc value="0.22919002587396" flag="0"/>
			<vel value="0.171490318722" flag="0"/>
			<psa03 value="0.423161657382892" flag="0"/>
			<psa10 value="0.193195008221161" flag="0"/>
			<psa30 value="0.0300666384338985" flag="0"/>
		</comp>
	</station>
	<station code="PSRA" name="PSRA" netid="HL" source="National Observatory of Athens Seismic Network" insttype="" lat="38.53978" lon="25.56202">
		<comp name="00.HNE" depth="0.0">
			<acc value="0.071157366496728" flag="0"/>
			<vel value="0.0818966148494" flag="0"/>
			<psa03 value="0.217602269249006" flag="0"/>
			<psa10 value="0.134745316216097" flag="0"/>
			<psa30 value="0.0156071555641404" flag="0"/>
		</comp>
		<comp name="00.HNN" depth="0.0">
			<acc value="0.092107991128026" flag="0"/>
			<vel value="0.0656645816782" flag="0"/>
			<psa03 value="0.210597846907068" flag="0"/>
			<psa10 value="0.0874526358078258" flag="0"/>
			<psa30 value="0.0122545093010892" flag="0"/>
		</comp>
		<comp name="00.HNZ" depth="0.0">
			<acc value="0.040310292895002" flag="0"/>
			<vel value="0.0471952753558" flag="0"/>
			<psa03 value="0.0859059095948711" flag="0"/>
			<psa10 value="0.0977012322269906" flag="0"/>
			<psa30 value="0.0122543867929902" flag="0"/>
		</comp>
	</station>
	<station code="SMG" name="SMG" netid="HL" source="National Observatory of Athens Seismic Network" insttype="" lat="37.70425" lon="26.83772">
		<comp name="00.HNE" depth="0.0">
			<acc value="0.037672717134222" flag="0"/>
			<vel value="0.0942675244506" flag="0"/>
			<psa03 value="0.0950838613393481" flag="0"/>
			<psa10 value="0.0813730930679539" flag="0"/>
			<psa30 value="0.0226557508323225" flag="0"/>
		</comp>
		<comp name="00.HNN" depth="0.0">
			<acc value="0.057478148743992" flag="0"/>
			<vel value="0.0588934854643" flag="0"/>
			<psa03 value="0.0899138417675168" flag="0"/>
			<psa10 value="0.0756795784005655" flag="0"/>
			<psa30 value="0.0194937030288331" flag="0"/>
		</comp>
		<comp name="00.HNZ" depth="0.0">
			<acc value="0.024869147362848" flag="0"/>
			<vel value="0.0476035953446" flag="0"/>
			<psa03 value="0.0360161176618808" flag="0"/>
			<psa10 value="0.0546740806396938" flag="0"/>
			<psa30 value="0.0199538401773032" flag="0"/>
		</comp>
	</station>
	<station code="HMT1" name="HMT1" netid="HT" source="Aristotle University of Thessaloniki Seismological Network" insttype="" lat="40.2581" lon="24.247619">
		<comp name="00.HNE" depth="0.0">
			<acc value="0.036158204243226" flag="0"/>
			<vel value="0.0343128992078" flag="0"/>
			<psa03 value="0.0928780068786434" flag="0"/>
			<psa10 value="0.0288669279172858" flag="0"/>
			<psa30 value="0.010721470244793" flag="0"/>
		</comp>
		<comp name="00.HNN" depth="0.0">
			<acc value="0.03922441002084" flag="0"/>
			<vel value="0.0600389876602" flag="0"/>
			<psa03 value="0.171903752363186" flag="0"/>
			<psa10 value="0.0223600349925771" flag="0"/>
			<psa30 value="0.0102744781337664" flag="0"/>
		</comp>
		<comp name="00.HNZ" depth="0.0">
			<acc value="0.045865144743498" flag="0"/>
			<vel value="0.0544296942239" flag="0"/>
			<psa03 value="0.0805415333978068" flag="0"/>
			<psa10 value="0.027068670666597" flag="0"/>
			<psa30 value="0.0149238402978298" flag="0"/>
		</comp>
	</station>
	<station code="LES3" name="LES3" netid="HT" source="Aristotle University of Thessaloniki Seismological Network" insttype="" lat="39.303248" lon="26.180664">
		<comp name=".HNE" depth="0.0">
			<acc value="0.21310992631008" flag="0"/>
			<vel value="0.150121295259" flag="0"/>
			<psa03 value="0.694794485057949" flag="0"/>
			<psa10 value="0.189566447846902" flag="0"/>
			<psa30 value="0.0205941509281049" flag="0"/>
		</comp>
		<comp name=".HNN" depth="0.0">
			<acc value="0.28845189439698" flag="0"/>
			<vel value="0.188508840792" flag="0"/>
			<psa03 value="0.696383298644734" flag="0"/>
			<psa10 value="0.274782322980222" flag="0"/>
			<psa30 value="0.0255500058958135" flag="0"/>
		</comp>
		<comp name=".HNZ" depth="0.0">
			<acc value="0.15624473704398" flag="0"/>
			<vel value="0.132341513137" flag="0"/>
			<psa03 value="0.604526296901573" flag="0"/>
			<psa10 value="0.14214592146974" flag="0"/>
			<psa30 value="0.0213954673447146" flag="0"/>
		</comp>
	</station>
	<station code="AKS" name="AKS" netid="KO" source="Bogazici University Kandilli Observatory And Earthquake Research Institute (KOERI)" insttype="" lat="38.8785" lon="27.8129">
		<comp name=".HNE" depth="0.0">
			<acc value="0.16795010701728" flag="0"/>
			<vel value="0.29528071873" flag="0"/>
			<psa03 value="0.406201742205385" flag="0"/>
			<psa10 value="0.423261559001054" flag="0"/>
			<psa30 value="0.138436077377448" flag="0"/>
		</comp>
		<comp name=".HNN" depth="0.0">
			<acc value="0.19515399005154" flag="0"/>
			<vel value="0.195086675741" flag="0"/>
