<?xml version="1.0" encoding="UTF-8" standalone="yes"?>
<!DOCTYPE earthquake SYSTEM "stationlist.dtd">
<stationlist created="" xmlns="ch.ethz.sed.shakemap.usgs.xml">
  <station code="KRTS" name="KRTS" netid="KO" insttype="CMG-5T" lat="36.573" lon="35.375">
    <comp name="--.HNE">
      <acc value="0.0590667780" flag="0"/>
      <vel value="0.0482920807" flag="0"/>
      <psa03 value="0.1310436296" flag="0"/>
      <psa10 value="0.0640806841" flag="0"/>
      <psa30 value="0.0045558566" flag="0"/>
    </comp>
    <comp name="--.HNN">
      <acc value="0.0986147563" flag="0"/>
      <vel value="0.0705962455" flag="0"/>
      <psa03 value="0.1986079702" flag="0"/>
      <psa10 value="0.0516847784" flag="0"/>
      <psa30 value="0.0029356426" flag="0"/>
    </comp>
    <comp name="--.HNZ">
      <acc value="0.0489136046" flag="0"/>
      <vel value="0.0301243492" flag="0"/>
      <psa03 value="0.1034008762" flag="0"/>
      <psa10 value="0.0270147706" flag="0"/>
      <psa30 value="0.0026528439" flag="0"/>
    </comp>
  </station>
  <station code="TAHT" name="TAHT" netid="KO" insttype="CMG-3ESPC" lat="36.3755" lon="36.1855">
    <comp name="--.HHN">
      <acc value="1.9234625122" flag="0"/>
      <vel value="0.3141206003" flag="0"/>
      <psa03 value="4.1799472203" flag="0"/>
      <psa10 value="0.1381810450" flag="0"/>
      <psa30 value="0.0135109259" flag="0"/>
    </comp>
    <comp name="--.HHZ">
      <acc value="1.8046487826" flag="0"/>
      <vel value="0.2842433011" flag="0"/>
      <psa03 value="1.5463012554" flag="0"/>
      <psa10 value="0.1291741270" flag="0"/>
      <psa30 value="0.0088911633" flag="0"/>
    </comp>
  </station>
</stationlist>
