<?xml version="1.0" encoding="UTF-8" standalone="yes"?>
<!DOCTYPE earthquake SYSTEM "stationlist.dtd">
<stationlist created="" xmlns="ch.ethz.sed.shakemap.usgs.xml">
  <station code="KRTS" name="KRTS" netid="KO" insttype="CMG-5T" lat="36.573" lon="35.375">
    <comp name="--.HNE">
      <acc value="0.0590667770" flag="0"/>
      <vel value="0.0482920789" flag="0"/>
      <psa03 value="0.1310436296" flag="0"/>
      <psa10 value="0.0640806841" flag="0"/>
      <psa30 value="0.0045559931" flag="0"/>
    </comp>
    <comp name="--.HNN">
      <acc value="0.0986147565" flag="0"/>
      <vel value="0.0705962496" flag="0"/>
      <psa03 value="0.1986079702" flag="0"/>
      <psa10 value="0.0516847780" flag="0"/>
      <psa30 value="0.0029361538" flag="0"/>
    </comp>
    <comp name="--.HNZ">
      <acc value="0.0489136055" flag="0"/>
      <vel value="0.0301243471" flag="0"/>
      <psa03 value="0.1034008762" flag="0"/>
      <psa10 value="0.0270147705" flag="0"/>
      <psa30 value="0.0026525964" flag="0"/>
    </comp>
  </station>
  <station code="TAHT" name="TAHT" netid="KO" insttype="CMG-3ESPC" lat="36.3755" lon="36.1855">
    <comp name="--.HHN">
      <acc value="1.9234625129" flag="0"/>
      <vel value="0.3141207569" flag="0"/>
      <psa03 value="4.1799472200" flag="0"/>
      <psa10 value="0.1381810532" flag="0"/>
      <psa30 value="0.0135078548" flag="0"/>
    </comp>
    <comp name="--.HHZ">
      <acc value="1.8046487829" flag="0"/>
      <vel value="0.2842432997" flag="0"/>
      <psa03 value="1.5463012554" flag="0"/>
      <psa10 value="0.1291741212" flag="0"/>
      <psa30 value="0.0088912750" flag="0"/>
    </comp>
  </station>
</stationlist>
