<?xml version="1.0" encoding="UTF-8" standalone="yes"?>
<!DOCTYPE earthquake SYSTEM "stationlist.dtd">
<stationlist created="" xmlns="ch.ethz.sed.shakemap.usgs.xml">
  <station code="AFSR" name="AFSR" netid="KO" insttype="CMG-3ESP" commtype="DIG" lat="39.4468" lon="33.0707">
    <comp name="--.HHE">
      <acc value="0.0328362853" flag="0"/>
      <vel value="0.0274114051" flag="0"/>
      <psa03 value="0.0574376111" flag="0"/>
      <psa10 value="0.0717973560" flag="0"/>
      <psa30 value="0.0044873011" flag="0"/>
    </comp>
    <comp name="--.HHZ">
      <acc value="0.0157256348" flag="0"/>
      <vel value="0.0158524373" flag="0"/>
      <psa03 value="0.0235591866" flag="0"/>
      <psa10 value="0.0327560399" flag="0"/>
      <psa30 value="0.0021763016" flag="0"/>
    </comp>
    <comp name="--.HHN">
      <acc value="0.0358850824" flag="0"/>
      <vel value="0.0262120856" flag="0"/>
      <psa03 value="0.0771775939" flag="0"/>
      <psa10 value="0.0557930652" flag="0"/>
      <psa30 value="0.0030137408" flag="0"/>
    </comp>
  </station>
  <station code="CHBY" name="CHBY" netid="KO" insttype="CMG-6T" commtype="DIG" lat="38.5823" lon="32.8902">
    <comp name="--.HHZ">
      <acc value="0.0453756117" flag="0"/>
      <vel value="0.0185105011" flag="0"/>
      <psa03 value="0.1172015241" flag="0"/>
      <psa10 value="0.0133364559" flag="0"/>
      <psa30 value="0.0012740733" flag="0"/>
    </comp>
    <comp name="--.HHN">
      <acc value="0.0655712262" flag="0"/>
      <vel value="0.0364586197" flag="0"/>
      <psa03 value="0.2192884035" flag="0"/>
      <psa10 value="0.0361895031" flag="0"/>
      <psa30 value="0.0021477082" flag="0"/>
    </comp>
    <comp name="--.HHE">
      <acc value="0.0807058031" flag="0"/>
      <vel value="0.0541862978" flag="0"/>
      <psa03 value="0.2131691122" flag="0"/>
      <psa10 value="0.0823977556" flag="0"/>
      <psa30 value="0.0056246280" flag="0"/>
    </comp>
  </station>
  <station code="KAMT" name="KAMT" netid="KO" insttype="CMG-3T" commtype="DIG" lat="39.3692" lon="33.7124">
    <comp name="--.HHN">
      <acc value="0.0095526431" flag="0"/>
      <vel value="0.0035807820" flag="0"/>
      <psa03 value="0.0112699888" flag="0"/>
      <psa10 value="0.0050887353" flag="0"/>
      <psa30 value="0.0002781637" flag="0"/>
    </comp>
    <comp name="--.HHE">
      <acc value="0.0114493562" flag="0"/>
      <vel value="0.0073106794" flag="0"/>
      <psa03 value="0.0352897894" flag="0"/>
      <psa10 value="0.0085536121" flag="0"/>
      <psa30 value="0.0006892841" flag="0"/>
    </comp>
    <comp name="--.HHZ">
      <acc value="0.0069473390" flag="0"/>
      <vel value="0.0032987977" flag="0"/>
      <psa03 value="0.0129316763" flag="0"/>
      <psa10 value="0.0033860354" flag="0"/>
      <psa30 value="0.0004412614" flag="0"/>
    </comp>
  </station>
  <station code="KIZT" name="KIZT" netid="KO" insttype="CMG-3T" commtype="DIG" lat="38.8808" lon="31.883">
    <comp name="--.HHE">
      <acc value="0.0068385187" flag="0"/>
      <vel value="0.0037960896" flag="0"/>
      <psa03 value="0.0107191462" flag="0"/>
      <psa10 value="0.0042250404" flag="0"/>
      <psa30 value="0.0006287547" flag="0"/>
    </comp>
    <comp name="--.HHN">
      <acc value="0.0090462677" flag="0"/>
      <vel value="0.0053323319" flag="0"/>
      <psa03 value="0.0134001826" flag="0"/>
      <psa10 value="0.0086421362" flag="0"/>
      <psa30 value="0.0009129799" flag="0"/>
    </comp>
    <comp name="--.HHZ">
      <acc value="0.0039649393" flag="0"/>
      <vel value="0.0027577231" flag="0"/>
      <psa03 value="0.0071979354" flag="0"/>
      <psa10 value="0.0031451561" flag="0"/>
      <psa30 value="0.0004381546" flag="0"/>
    </comp>
  </station>
  <station code="KONT" name="KONT" netid="KO" insttype="CMG-3T" commtype="DIG" lat="37.957" lon="32.3563">
    <comp name="--.HHN">
      <acc value="0.0093338184" flag="0"/>
      <vel value="0.0055570678" flag="0"/>
      <psa03 value="0.0239386981" flag="0"/>
      <psa10 value="0.0089368826" flag="0"/>
      <psa30 value="0.0003275978" flag="0"/>
    </comp>
  </station>
  <station code="KULU" name="KULU" netid="KO" insttype="CMG-6T" commtype="DIG" lat="39.0343" lon="33.0023">
    <comp name="--.HHE">
      <acc value="0.5867300280" flag="0"/>
      <vel value="0.1062068407" flag="0"/>
      <psa03 value="0.3338188126" flag="0"/>
      <psa10 value="0.0385923478" flag="0"/>
      <psa30 value="0.0063261035" flag="0"/>
    </comp>
    <comp name="--.HHN">
      <acc value="0.6286253771" flag="0"/>
      <vel value="0.1066899576" flag="0"/>
      <psa03 value="0.3449319274" flag="0"/>
      <psa10 value="0.0448076153" flag="0"/>
      <psa30 value="0.0051053831" flag="0"/>
    </comp>
    <comp name="--.HHZ">
      <acc value="0.5737627338" flag="0"/>
      <vel value="0.0467972450" flag="0"/>
      <psa03 value="0.0774394225" flag="0"/>
      <psa10 value="0.0252939317" flag="0"/>
      <psa30 value="0.0012765811" flag="0"/>
    </comp>
  </station>
  <station code="LOD" name="LOD" netid="KO" insttype="CMG-3T" commtype="DIG" lat="39.8884" lon="32.7634">
    <comp name="--.HHZ">
      <acc value="0.0038868120" flag="0"/>
      <vel value="0.0037257591" flag="0"/>
      <psa03 value="0.0089804901" flag="0"/>
      <psa10 value="0.0049009565" flag="0"/>
      <psa30 value="0.0005833042" flag="0"/>
    </comp>
  </station>
  <station code="SERE" name="SERE" netid="KO" insttype="CMG-6T" commtype="DIG" lat="38.9463" lon="33.564">
    <comp name="--.HHE">
      <acc value="0.0516277535" flag="0"/>
      <vel value="0.0334766897" flag="0"/>
      <psa03 value="0.0963421889" flag="0"/>
      <psa10 value="0.0443195905" flag="0"/>
      <psa30 value="0.0022385407" flag="0"/>
    </comp>
    <comp name="--.HHN">
      <acc value="0.0676028559" flag="0"/>
      <vel value="0.0422158218" flag="0"/>
      <psa03 value="0.1059825442" flag="0"/>
      <psa10 value="0.0616583030" flag="0"/>
      <psa30 value="0.0051821790" flag="0"/>
    </comp>
    <comp name="--.HHZ">
      <acc value="0.0362258517" flag="0"/>
      <vel value="0.0178778024" flag="0"/>
      <psa03 value="0.0540614033" flag="0"/>
      <psa10 value="0.0360635094" flag="0"/>
      <psa30 value="0.0025436866" flag="0"/>
    </comp>
  </station>
  <station code="SULT" name="SULT" netid="KO" insttype="CMG-3T" commtype="DIG" lat="38.1988" lon="33.5157">
    <comp name="--.HHE">
      <acc value="0.0060187069" flag="0"/>
      <vel value="0.0105354832" flag="0"/>
      <psa03 value="0.0180121677" flag="0"/>
      <psa10 value="0.0150119367" flag="0"/>
      <psa30 value="0.0031728074" flag="0"/>
    </comp>
    <comp name="--.HHZ">
      <acc value="0.0053887221" flag="0"/>
      <vel value="0.0078851942" flag="0"/>
      <psa03 value="0.0108751681" flag="0"/>
      <psa10 value="0.0156445261" flag="0"/>
      <psa30 value="0.0012235806" flag="0"/>
    </comp>
  </station>
  <station code="YAYX" name="YAYX" netid="KO" insttype="CMG-6T" commtype="DIG" lat="38.9387" lon="33.8115">
    <comp name="--.HHE">
      <acc value="0.0004098179" flag="0"/>
      <vel value="0.0000499402" flag="0"/>
      <psa03 value="0.0001071106" flag="0"/>
      <psa10 value="0.0000290216" flag="0"/>
      <psa30 value="0.0000073700" flag="0"/>
    </comp>
    <comp name="--.HHN">
      <acc value="0.0194819615" flag="0"/>
      <vel value="0.0088710816" flag="0"/>
      <psa03 value="0.0267970560" flag="0"/>
      <psa10 value="0.0079468383" flag="0"/>
      <psa30 value="0.0017999573" flag="0"/>
    </comp>
    <comp name="--.HHZ">
      <acc value="0.0134586496" flag="0"/>
      <vel value="0.0060901029" flag="0"/>
      <psa03 value="0.0159252097" flag="0"/>
      <psa10 value="0.0060011587" flag="0"/>
      <psa30 value="0.0003710181" flag="0"/>
    </comp>
  </station>
</stationlist>
