<?xml version="1.0" encoding="UTF-8" standalone="yes"?>
<!DOCTYPE earthquake SYSTEM "stationlist.dtd">
<stationlist created="" xmlns="ch.ethz.sed.shakemap.usgs.xml">
  <station code="KBN" name="KBN" netid="AC" insttype="" lat="40.6236" lon="20.7874">
    <comp name="--.HHE">
      <acc value="0.0034462468" flag="0"/>
      <vel value="0.0024822691" flag="0"/>
      <psa03 value="0.0083155949" flag="0"/>
      <psa10 value="0.0030451020" flag="0"/>
      <psa30 value="0.0001626860" flag="0"/>
    </comp>
    <comp name="--.HHN">
      <acc value="0.0028053049" flag="0"/>
      <vel value="0.0019322514" flag="0"/>
      <psa03 value="0.0099306530" flag="0"/>
      <psa10 value="0.0034094166" flag="0"/>
      <psa30 value="0.0002275753" flag="0"/>
    </comp>
    <comp name="--.HHZ">
      <acc value="0.0015247473" flag="0"/>
      <vel value="0.0009494778" flag="0"/>
      <psa03 value="0.0028906449" flag="0"/>
      <psa10 value="0.0013880156" flag="0"/>
      <psa30 value="0.0001475509" flag="0"/>
    </comp>
  </station>
  <station code="SRN" name="SRN" netid="AC" insttype="" lat="39.88" lon="20.0005">
    <comp name="--.HHN">
      <acc value="0.0034913463" flag="0"/>
      <vel value="0.0010011827" flag="0"/>
      <psa03 value="0.0058832018" flag="0"/>
      <psa10 value="0.0013632657" flag="0"/>
      <psa30 value="0.0000835424" flag="0"/>
    </comp>
    <comp name="--.HHE">
      <acc value="0.0043835219" flag="0"/>
      <vel value="0.0013803179" flag="0"/>
      <psa03 value="0.0040338281" flag="0"/>
      <psa10 value="0.0009190357" flag="0"/>
      <psa30 value="0.0000700128" flag="0"/>
    </comp>
    <comp name="--.HHZ">
      <acc value="0.0032530814" flag="0"/>
      <vel value="0.0011067129" flag="0"/>
      <psa03 value="0.0049646858" flag="0"/>
      <psa10 value="0.0010353498" flag="0"/>
      <psa30 value="0.0001179395" flag="0"/>
    </comp>
  </station>
  <station code="VLO" name="VLO" netid="AC" insttype="" lat="40.4686" lon="19.4955">
    <comp name="--.HHN">
      <acc value="3.5999382950" flag="0"/>
      <vel value="0.5259316531" flag="0"/>
      <psa03 value="1.3775183307" flag="0"/>
      <psa10 value="0.0685046268" flag="0"/>
      <psa30 value="0.0066400165" flag="0"/>
    </comp>
    <comp name="--.HHE">
      <acc value="3.7675432771" flag="0"/>
      <vel value="0.5477542320" flag="0"/>
      <psa03 value="1.2735317787" flag="0"/>
      <psa10 value="0.0923260091" flag="0"/>
      <psa30 value="0.0103694888" flag="0"/>
    </comp>
    <comp name="--.HHZ">
      <acc value="1.0481203407" flag="0"/>
      <vel value="0.1544860292" flag="0"/>
      <psa03 value="0.7094486097" flag="0"/>
      <psa10 value="0.0406749818" flag="0"/>
      <psa30 value="0.0031912258" flag="0"/>
    </comp>
  </station>
  <station code="KRK1" name="KRK1" netid="HI" insttype="CMG-5TD,ACCELEROMETER,GURALP" lat="39.6189" lon="19.9202">
    <comp name="--.HNZ">
      <acc value="0.0314030609" flag="0"/>
      <vel value="0.0080781743" flag="0"/>
      <psa03 value="0.0467615016" flag="0"/>
      <psa10 value="0.0036977539" flag="0"/>
      <psa30 value="0.0002803587" flag="0"/>
    </comp>
    <comp name="--.HNE">
      <acc value="0.0472258950" flag="0"/>
      <vel value="0.0156798047" flag="0"/>
      <psa03 value="0.0661060530" flag="0"/>
      <psa10 value="0.0075051410" flag="0"/>
      <psa30 value="0.0003978463" flag="0"/>
    </comp>
    <comp name="--.HNN">
      <acc value="0.0466779467" flag="0"/>
      <vel value="0.0164271225" flag="0"/>
      <psa03 value="0.0531061836" flag="0"/>
      <psa10 value="0.0091945182" flag="0"/>
      <psa30 value="0.0004760641" flag="0"/>
    </comp>
  </station>
  <station code="KEK" name="KEK" netid="HL" insttype="120" lat="39.7127" lon="19.7962">
    <comp name="--.HHE">
      <acc value="0.0157190539" flag="0"/>
      <vel value="0.0045394094" flag="0"/>
      <psa03 value="0.0157180709" flag="0"/>
      <psa10 value="0.0037342299" flag="0"/>
      <psa30 value="0.0001620602" flag="0"/>
    </comp>
    <comp name="--.HHZ">
      <acc value="0.0098035809" flag="0"/>
      <vel value="0.0026755847" flag="0"/>
      <psa03 value="0.0093055090" flag="0"/>
      <psa10 value="0.0023944365" flag="0"/>
      <psa30 value="0.0001467404" flag="0"/>
    </comp>
    <comp name="--.HHN">
      <acc value="0.0133764530" flag="0"/>
      <vel value="0.0030690434" flag="0"/>
      <psa03 value="0.0166516841" flag="0"/>
      <psa10 value="0.0023970736" flag="0"/>
      <psa30 value="0.0001613953" flag="0"/>
    </comp>
  </station>
  <station code="SCTE" name="SCTE" netid="IV" insttype="" lat="40.0724" lon="18.4675">
    <comp name="--.HHE">
      <acc value="0.0338759639" flag="0"/>
      <vel value="0.0095105447" flag="0"/>
      <psa03 value="0.0410914732" flag="0"/>
      <psa10 value="0.0042800870" flag="0"/>
      <psa30 value="0.0003392597" flag="0"/>
    </comp>
    <comp name="--.HHN">
      <acc value="0.0315222114" flag="0"/>
      <vel value="0.0084967916" flag="0"/>
      <psa03 value="0.0666552011" flag="0"/>
      <psa10 value="0.0046947248" flag="0"/>
      <psa30 value="0.0001992863" flag="0"/>
    </comp>
    <comp name="--.HHZ">
      <acc value="0.0283329031" flag="0"/>
      <vel value="0.0067718091" flag="0"/>
      <psa03 value="0.0338573116" flag="0"/>
      <psa10 value="0.0018467062" flag="0"/>
      <psa30 value="0.0001565511" flag="0"/>
    </comp>
  </station>
  <station code="KEK" name="KEK" netid="MN" insttype="" lat="39.7127" lon="19.7962">
    <comp name="--.HHE">
      <acc value="0.0157190430" flag="0"/>
      <vel value="0.0045394063" flag="0"/>
      <psa03 value="0.0157180600" flag="0"/>
      <psa10 value="0.0037342273" flag="0"/>
      <psa30 value="0.0001620601" flag="0"/>
    </comp>
    <comp name="--.HHN">
      <acc value="0.0133764438" flag="0"/>
      <vel value="0.0030690413" flag="0"/>
      <psa03 value="0.0166516726" flag="0"/>
      <psa10 value="0.0023970719" flag="0"/>
      <psa30 value="0.0001613952" flag="0"/>
    </comp>
    <comp name="--.HHZ">
      <acc value="0.0098035741" flag="0"/>
      <vel value="0.0026755828" flag="0"/>
      <psa03 value="0.0093055026" flag="0"/>
      <psa10 value="0.0023944348" flag="0"/>
      <psa30 value="0.0001467403" flag="0"/>
    </comp>
  </station>
  <station code="TIR" name="TIR" netid="MN" insttype="" lat="41.3472" lon="19.8631">
    <comp name="--.HHE">
      <acc value="0.0090602314" flag="0"/>
      <vel value="0.0035562204" flag="0"/>
      <psa03 value="0.0175730150" flag="0"/>
      <psa10 value="0.0035372878" flag="0"/>
      <psa30 value="0.0002313100" flag="0"/>
    </comp>
    <comp name="--.HHN">
      <acc value="0.0120514992" flag="0"/>
      <vel value="0.0038850907" flag="0"/>
      <psa03 value="0.0235225179" flag="0"/>
      <psa10 value="0.0021855859" flag="0"/>
      <psa30 value="0.0002405328" flag="0"/>
    </comp>
    <comp name="--.HHZ">
      <acc value="0.0052993781" flag="0"/>
      <vel value="0.0020630695" flag="0"/>
      <psa03 value="0.0155014140" flag="0"/>
      <psa10 value="0.0017210855" flag="0"/>
      <psa30 value="0.0001351874" flag="0"/>
    </comp>
  </station>
</stationlist>
