<?xml version="1.0" encoding="UTF-8" standalone="yes"?>
<!DOCTYPE earthquake SYSTEM "stationlist.dtd">
<stationlist created="" xmlns="ch.ethz.sed.shakemap.usgs.xml">
  <station code="KBN" name="KBN" netid="AC" insttype="" lat="40.6236" lon="20.7874">
    <comp name="--.HHE">
      <acc value="0.0034462469" flag="0"/>
      <vel value="0.0024822690" flag="0"/>
      <psa03 value="0.0083155949" flag="0"/>
      <psa10 value="0.0030451020" flag="0"/>
      <psa30 value="0.0001626637" flag="0"/>
    </comp>
    <comp name="--.HHZ">
      <acc value="0.0015247476" flag="0"/>
      <vel value="0.0009494772" flag="0"/>
      <psa03 value="0.0028906449" flag="0"/>
      <psa10 value="0.0013880156" flag="0"/>
      <psa30 value="0.0001475234" flag="0"/>
    </comp>
    <comp name="--.HHN">
      <acc value="0.0028053051" flag="0"/>
      <vel value="0.0019322509" flag="0"/>
      <psa03 value="0.0099306530" flag="0"/>
      <psa10 value="0.0034094166" flag="0"/>
      <psa30 value="0.0002276290" flag="0"/>
    </comp>
  </station>
  <station code="SRN" name="SRN" netid="AC" insttype="" lat="39.88" lon="20.0005">
    <comp name="--.HHE">
      <acc value="0.0043835219" flag="0"/>
      <vel value="0.0013803178" flag="0"/>
      <psa03 value="0.0040338281" flag="0"/>
      <psa10 value="0.0009190358" flag="0"/>
      <psa30 value="0.0000700077" flag="0"/>
    </comp>
    <comp name="--.HHN">
      <acc value="0.0034913462" flag="0"/>
      <vel value="0.0010011825" flag="0"/>
      <psa03 value="0.0058832018" flag="0"/>
      <psa10 value="0.0013632659" flag="0"/>
      <psa30 value="0.0000835366" flag="0"/>
    </comp>
    <comp name="--.HHZ">
      <acc value="0.0032530814" flag="0"/>
      <vel value="0.0011067128" flag="0"/>
      <psa03 value="0.0049646858" flag="0"/>
      <psa10 value="0.0010353498" flag="0"/>
      <psa30 value="0.0001179301" flag="0"/>
    </comp>
  </station>
  <station code="VLO" name="VLO" netid="AC" insttype="" lat="40.4686" lon="19.4955">
    <comp name="--.HHE">
      <acc value="3.7675432773" flag="0"/>
      <vel value="0.5477542341" flag="0"/>
      <psa03 value="1.2735317787" flag="0"/>
      <psa10 value="0.0923260170" flag="0"/>
      <psa30 value="0.0103693390" flag="0"/>
    </comp>
    <comp name="--.HHN">
      <acc value="3.5999382948" flag="0"/>
      <vel value="0.5259316542" flag="0"/>
      <psa03 value="1.3775183307" flag="0"/>
      <psa10 value="0.0685046322" flag="0"/>
      <psa30 value="0.0066404337" flag="0"/>
    </comp>
    <comp name="--.HHZ">
      <acc value="1.0481203407" flag="0"/>
      <vel value="0.1544860307" flag="0"/>
      <psa03 value="0.7094486097" flag="0"/>
      <psa10 value="0.0406749919" flag="0"/>
      <psa30 value="0.0031908159" flag="0"/>
    </comp>
  </station>
  <station code="KRK1" name="KRK1" netid="HI" insttype="CMG-5TD,ACCELEROMETER,GURALP" lat="39.6189" lon="19.9202">
    <comp name="--.HNE">
      <acc value="0.0472258950" flag="0"/>
      <vel value="0.0156798047" flag="0"/>
      <psa03 value="0.0661060530" flag="0"/>
      <psa10 value="0.0075051410" flag="0"/>
      <psa30 value="0.0003978348" flag="0"/>
    </comp>
    <comp name="--.HNN">
      <acc value="0.0466779467" flag="0"/>
      <vel value="0.0164271226" flag="0"/>
      <psa03 value="0.0531061836" flag="0"/>
      <psa10 value="0.0091945182" flag="0"/>
      <psa30 value="0.0004760616" flag="0"/>
    </comp>
    <comp name="--.HNZ">
      <acc value="0.0314030609" flag="0"/>
      <vel value="0.0080781744" flag="0"/>
      <psa03 value="0.0467615016" flag="0"/>
      <psa10 value="0.0036977539" flag="0"/>
      <psa30 value="0.0002803584" flag="0"/>
    </comp>
  </station>
  <station code="KEK" name="KEK" netid="HL" insttype="120" lat="39.7127" lon="19.7962">
    <comp name="--.HHE">
      <acc value="0.0157190539" flag="0"/>
      <vel value="0.0045394094" flag="0"/>
      <psa03 value="0.0157180709" flag="0"/>
      <psa10 value="0.0037342299" flag="0"/>
      <psa30 value="0.0001620611" flag="0"/>
    </comp>
    <comp name="--.HHZ">
      <acc value="0.0098035809" flag="0"/>
      <vel value="0.0026755846" flag="0"/>
      <psa03 value="0.0093055090" flag="0"/>
      <psa10 value="0.0023944365" flag="0"/>
      <psa30 value="0.0001467418" flag="0"/>
    </comp>
    <comp name="--.HHN">
      <acc value="0.0133764530" flag="0"/>
      <vel value="0.0030690433" flag="0"/>
      <psa03 value="0.0166516841" flag="0"/>
      <psa10 value="0.0023970736" flag="0"/>
      <psa30 value="0.0001613887" flag="0"/>
    </comp>
  </station>
  <station code="SCTE" name="SCTE" netid="IV" insttype="" lat="40.0724" lon="18.4675">
    <comp name="--.HHE">
      <acc value="0.0338759640" flag="0"/>
      <vel value="0.0095105452" flag="0"/>
      <psa03 value="0.0410914732" flag="0"/>
      <psa10 value="0.0042800867" flag="0"/>
      <psa30 value="0.0003391951" flag="0"/>
    </comp>
    <comp name="--.HHN">
      <acc value="0.0315222112" flag="0"/>
      <vel value="0.0084967917" flag="0"/>
      <psa03 value="0.0666552011" flag="0"/>
      <psa10 value="0.0046947248" flag="0"/>
      <psa30 value="0.0001993974" flag="0"/>
    </comp>
    <comp name="--.HHZ">
      <acc value="0.0283329033" flag="0"/>
      <vel value="0.0067718092" flag="0"/>
      <psa03 value="0.0338573116" flag="0"/>
      <psa10 value="0.0018467757" flag="0"/>
      <psa30 value="0.0001566221" flag="0"/>
    </comp>
  </station>
  <station code="KEK" name="KEK" netid="MN" insttype="" lat="39.7127" lon="19.7962">
    <comp name="--.HHE">
      <acc value="0.0157190430" flag="0"/>
      <vel value="0.0045394063" flag="0"/>
      <psa03 value="0.0157180600" flag="0"/>
      <psa10 value="0.0037342273" flag="0"/>
      <psa30 value="0.0001620610" flag="0"/>
    </comp>
    <comp name="--.HHN">
      <acc value="0.0133764438" flag="0"/>
      <vel value="0.0030690411" flag="0"/>
      <psa03 value="0.0166516726" flag="0"/>
      <psa10 value="0.0023970719" flag="0"/>
      <psa30 value="0.0001613886" flag="0"/>
    </comp>
    <comp name="--.HHZ">
      <acc value="0.0098035741" flag="0"/>
      <vel value="0.0026755827" flag="0"/>
      <psa03 value="0.0093055026" flag="0"/>
      <psa10 value="0.0023944349" flag="0"/>
      <psa30 value="0.0001467417" flag="0"/>
    </comp>
  </station>
  <station code="TIR" name="TIR" netid="MN" insttype="" lat="41.3472" lon="19.8631">
    <comp name="--.HHE">
      <acc value="0.0090602312" flag="0"/>
      <vel value="0.0035562212" flag="0"/>
      <psa03 value="0.0175730150" flag="0"/>
      <psa10 value="0.0035372878" flag="0"/>
      <psa30 value="0.0002312168" flag="0"/>
    </comp>
    <comp name="--.HHN">
      <acc value="0.0120514995" flag="0"/>
      <vel value="0.0038850906" flag="0"/>
      <psa03 value="0.0235225179" flag="0"/>
      <psa10 value="0.0021855859" flag="0"/>
      <psa30 value="0.0002405792" flag="0"/>
    </comp>
    <comp name="--.HHZ">
      <acc value="0.0052993787" flag="0"/>
      <vel value="0.0020630693" flag="0"/>
      <psa03 value="0.0155014140" flag="0"/>
      <psa10 value="0.0017210855" flag="0"/>
      <psa30 value="0.0001352359" flag="0"/>
    </comp>
  </station>
</stationlist>
