<?xml version="1.0" encoding="UTF-8" standalone="yes"?>
<!DOCTYPE earthquake SYSTEM "stationlist.dtd">
<stationlist created="" xmlns="ch.ethz.sed.shakemap.usgs.xml">
  <station code="APE" name="APE" netid="GE" insttype="STS-2/N" commtype="DIG" lat="37.0727" lon="25.523">
    <comp name="--.HHN">
      <acc value="0.2410992129" flag="0"/>
      <vel value="0.0277639756" flag="0"/>
      <psa03 value="0.0770765686" flag="0"/>
      <psa10 value="0.0111022428" flag="0"/>
      <psa30 value="0.0024750955" flag="0"/>
    </comp>
    <comp name="--.HHE">
      <acc value="0.2094819708" flag="0"/>
      <vel value="0.0255894554" flag="0"/>
      <psa03 value="0.0933381249" flag="0"/>
      <psa10 value="0.0100408245" flag="0"/>
      <psa30 value="0.0014927544" flag="0"/>
    </comp>
    <comp name="--.HHZ">
      <acc value="0.0955672520" flag="0"/>
      <vel value="0.0142272264" flag="0"/>
      <psa03 value="0.0482434270" flag="0"/>
      <psa10 value="0.0109984102" flag="0"/>
      <psa30 value="0.0018088745" flag="0"/>
    </comp>
  </station>
  <station code="THERA" name="THERA" netid="GE" insttype="STS-2/N" commtype="DIG" lat="36.367" lon="25.4753">
    <comp name="--.HHN">
      <acc value="0.0864423451" flag="0"/>
      <vel value="0.0247061498" flag="0"/>
      <psa03 value="0.1453470583" flag="0"/>
      <psa10 value="0.0093965067" flag="0"/>
      <psa30 value="0.0005336420" flag="0"/>
    </comp>
    <comp name="--.HHE">
      <acc value="0.1539396112" flag="0"/>
      <vel value="0.0351159770" flag="0"/>
      <psa03 value="0.1698256821" flag="0"/>
      <psa10 value="0.0107467331" flag="0"/>
      <psa30 value="0.0012578930" flag="0"/>
    </comp>
    <comp name="--.HHZ">
      <acc value="0.1341742458" flag="0"/>
      <vel value="0.0304816674" flag="0"/>
      <psa03 value="0.0909014729" flag="0"/>
      <psa10 value="0.0070948171" flag="0"/>
      <psa30 value="0.0010731237" flag="0"/>
    </comp>
  </station>
  <station code="IOSI" name="IOSI" netid="HA" insttype="60s," commtype="DIG" lat="36.7225" lon="25.2887">
    <comp name="--.HHN">
      <acc value="0.2747932025" flag="0"/>
      <vel value="0.0525941215" flag="0"/>
      <psa03 value="0.1837276026" flag="0"/>
      <psa10 value="0.0106683608" flag="0"/>
      <psa30 value="0.0011750011" flag="0"/>
    </comp>
    <comp name="--.HHZ">
      <acc value="0.2388611387" flag="0"/>
      <vel value="0.0323907073" flag="0"/>
      <psa03 value="0.0852350536" flag="0"/>
      <psa10 value="0.0113323629" flag="0"/>
      <psa30 value="0.0010768216" flag="0"/>
    </comp>
    <comp name="--.HHE">
      <acc value="0.3093358758" flag="0"/>
      <vel value="0.0523975135" flag="0"/>
      <psa03 value="0.1679085722" flag="0"/>
      <psa10 value="0.0112088158" flag="0"/>
      <psa30 value="0.0012890113" flag="0"/>
    </comp>
  </station>
  <station code="SERI" name="SERI" netid="HA" insttype="30" commtype="DIG" lat="37.1609" lon="24.4853">
    <comp name="--.HHN">
      <acc value="0.0398419951" flag="0"/>
      <vel value="0.0078997302" flag="0"/>
      <psa03 value="0.0148568393" flag="0"/>
      <psa10 value="0.0057483505" flag="0"/>
      <psa30 value="0.0008152699" flag="0"/>
    </comp>
    <comp name="--.HHE">
      <acc value="0.0183979516" flag="0"/>
      <vel value="0.0037666656" flag="0"/>
      <psa03 value="0.0280908407" flag="0"/>
      <psa10 value="0.0021440634" flag="0"/>
      <psa30 value="0.0004855231" flag="0"/>
    </comp>
    <comp name="--.HHZ">
      <acc value="0.0196428013" flag="0"/>
      <vel value="0.0048117797" flag="0"/>
      <psa03 value="0.0139342573" flag="0"/>
      <psa10 value="0.0036593871" flag="0"/>
      <psa30 value="0.0006340408" flag="0"/>
    </comp>
  </station>
  <station code="SNT1" name="SNT1" netid="HA" insttype="30" commtype="DIG" lat="36.4159" lon="25.4282">
    <comp name="--.HHE">
      <acc value="0.0604289831" flag="0"/>
      <vel value="0.0168482923" flag="0"/>
      <psa03 value="0.1001917210" flag="0"/>
      <psa10 value="0.0130789817" flag="0"/>
      <psa30 value="0.0014797770" flag="0"/>
    </comp>
    <comp name="--.HHN">
      <acc value="0.0509981641" flag="0"/>
      <vel value="0.0133687092" flag="0"/>
      <psa03 value="0.0573913813" flag="0"/>
      <psa10 value="0.0147121422" flag="0"/>
      <psa30 value="0.0010100357" flag="0"/>
    </comp>
    <comp name="--.HHZ">
      <acc value="0.0429391440" flag="0"/>
      <vel value="0.0113097591" flag="0"/>
      <psa03 value="0.0407980600" flag="0"/>
      <psa10 value="0.0111439719" flag="0"/>
      <psa30 value="0.0007238941" flag="0"/>
    </comp>
  </station>
  <station code="SNT5" name="SNT5" netid="HA" insttype="1s-100Hz," commtype="DIG" lat="36.4037" lon="25.3953">
    <comp name="--.HHE">
      <acc value="0.1903193606" flag="0"/>
      <vel value="0.0552234216" flag="0"/>
      <psa03 value="0.2537873300" flag="0"/>
      <psa10 value="0.0182708335" flag="0"/>
      <psa30 value="0.0018279820" flag="0"/>
    </comp>
    <comp name="--.HHN">
      <acc value="0.1859350395" flag="0"/>
      <vel value="0.0405619268" flag="0"/>
      <psa03 value="0.2310507254" flag="0"/>
      <psa10 value="0.0079135662" flag="0"/>
      <psa30 value="0.0013578777" flag="0"/>
    </comp>
    <comp name="--.HHZ">
      <acc value="0.0643299934" flag="0"/>
      <vel value="0.0136520786" flag="0"/>
      <psa03 value="0.0526931508" flag="0"/>
      <psa10 value="0.0057541428" flag="0"/>
      <psa30 value="0.0005102923" flag="0"/>
    </comp>
  </station>
  <station code="THNO" name="THNO" netid="HC" insttype="60" commtype="DIG" lat="37.6541" lon="25.0221">
    <comp name="--.HHZ">
      <acc value="0.0204974950" flag="0"/>
      <vel value="0.0078328510" flag="0"/>
      <psa03 value="0.0379779712" flag="0"/>
      <psa10 value="0.0044237849" flag="0"/>
      <psa30 value="0.0005136186" flag="0"/>
    </comp>
    <comp name="--.HHN">
      <acc value="0.0000000000" flag="0"/>
      <vel value="-100.0000000000" flag="0"/>
      <psa03 value="0.0000000000" flag="0"/>
      <psa10 value="0.0000000000" flag="0"/>
      <psa30 value="0.0000000000" flag="0"/>
    </comp>
    <comp name="--.HHE">
      <acc value="0.0000000000" flag="0"/>
      <vel value="-100.0000000000" flag="0"/>
      <psa03 value="0.0000000000" flag="0"/>
      <psa10 value="0.0000000000" flag="0"/>
      <psa30 value="0.0000000000" flag="0"/>
    </comp>
  </station>
  <station code="NAX1" name="NAX1" netid="HI" insttype="CMG-5TD,ACCELEROMETER,GURALP" commtype="DIG" lat="37.1014" lon="25.3741">
    <comp name="--.HNZ">
      <acc value="0.0542343612" flag="0"/>
      <vel value="0.0097512469" flag="0"/>
      <psa03 value="0.0330853188" flag="0"/>
      <psa10 value="0.0063682511" flag="0"/>
      <psa30 value="0.0014948182" flag="0"/>
    </comp>
    <comp name="--.HNN">
      <acc value="0.0852897790" flag="0"/>
      <vel value="0.0174262361" flag="0"/>
      <psa03 value="0.0851458196" flag="0"/>
      <psa10 value="0.0094031655" flag="0"/>
      <psa30 value="0.0019065428" flag="0"/>
    </comp>
    <comp name="--.HNE">
      <acc value="0.1210999773" flag="0"/>
      <vel value="0.0201573702" flag="0"/>
      <psa03 value="0.0913521152" flag="0"/>
      <psa10 value="0.0104984375" flag="0"/>
      <psa30 value="0.0012170427" flag="0"/>
    </comp>
  </station>
  <station code="SFR2" name="SFR2" netid="HI" insttype="unknown" commtype="DIG" lat="36.3998" lon="25.4382">
    <comp name="--.HNE">
      <acc value="0.3045832275" flag="0"/>
      <vel value="0.0912706220" flag="0"/>
      <psa03 value="0.5445798736" flag="0"/>
      <psa10 value="0.0418766237" flag="0"/>
      <psa30 value="0.0034288124" flag="0"/>
    </comp>
    <comp name="--.HNZ">
      <acc value="0.2807210578" flag="0"/>
      <vel value="0.0655986273" flag="0"/>
      <psa03 value="0.4056883246" flag="0"/>
      <psa10 value="0.0287171432" flag="0"/>
      <psa30 value="0.0020340170" flag="0"/>
    </comp>
    <comp name="--.HNN">
      <acc value="0.2170585856" flag="0"/>
      <vel value="0.0711030181" flag="0"/>
      <psa03 value="0.4808909037" flag="0"/>
      <psa10 value="0.0607315586" flag="0"/>
      <psa30 value="0.0029405098" flag="0"/>
    </comp>
  </station>
  <station code="AMGA" name="AMGA" netid="HL" insttype="LE3D20_SMART24" commtype="DIG" lat="36.8316" lon="25.8938">
    <comp name="--.HHE">
      <acc value="1.4808887189" flag="0"/>
      <vel value="0.2087336043" flag="0"/>
      <psa03 value="0.5037458532" flag="0"/>
      <psa10 value="0.0660576306" flag="0"/>
      <psa30 value="0.0063683465" flag="0"/>
    </comp>
    <comp name="--.HHZ">
      <acc value="1.0302161877" flag="0"/>
      <vel value="0.2267205688" flag="0"/>
      <psa03 value="0.5054510166" flag="0"/>
      <psa10 value="0.0806267398" flag="0"/>
      <psa30 value="0.0077519885" flag="0"/>
    </comp>
    <comp name="--.HHN">
      <acc value="1.9758868820" flag="0"/>
      <vel value="0.2865864357" flag="0"/>
      <psa03 value="0.5368699638" flag="0"/>
      <psa10 value="0.1243290032" flag="0"/>
      <psa30 value="0.0082959102" flag="0"/>
    </comp>
  </station>
  <station code="APE" name="APE" netid="HL" insttype="120" commtype="DIG" lat="37.0727" lon="25.523">
    <comp name="--.HHN">
      <acc value="0.2204225323" flag="0"/>
      <vel value="0.0261640311" flag="0"/>
      <psa03 value="0.0740269285" flag="0"/>
      <psa10 value="0.0110213803" flag="0"/>
      <psa30 value="0.0024563898" flag="0"/>
    </comp>
    <comp name="--.HHZ">
      <acc value="0.0884978501" flag="0"/>
      <vel value="0.0138055333" flag="0"/>
      <psa03 value="0.0469519850" flag="0"/>
      <psa10 value="0.0108905985" flag="0"/>
      <psa30 value="0.0018037480" flag="0"/>
    </comp>
    <comp name="--.HHE">
      <acc value="0.1933028147" flag="0"/>
      <vel value="0.0238722777" flag="0"/>
      <psa03 value="0.0911989414" flag="0"/>
      <psa10 value="0.0099501347" flag="0"/>
      <psa30 value="0.0014887584" flag="0"/>
    </comp>
  </station>
  <station code="ASTA" name="ASTA" netid="HL" insttype="LE3D20_SMART24" commtype="DIG" lat="36.5475" lon="26.3471">
    <comp name="--.HHN">
      <acc value="0.0774006771" flag="0"/>
      <vel value="0.0196989682" flag="0"/>
      <psa03 value="0.1126398827" flag="0"/>
      <psa10 value="0.0155624707" flag="0"/>
      <psa30 value="0.0009704400" flag="0"/>
    </comp>
    <comp name="--.HHZ">
      <acc value="0.0560277207" flag="0"/>
      <vel value="0.0139103340" flag="0"/>
      <psa03 value="0.0848953076" flag="0"/>
      <psa10 value="0.0060695352" flag="0"/>
      <psa30 value="0.0008309734" flag="0"/>
    </comp>
    <comp name="--.HHE">
      <acc value="0.0815589653" flag="0"/>
      <vel value="0.0187952718" flag="0"/>
      <psa03 value="0.0965269432" flag="0"/>
      <psa10 value="0.0116995760" flag="0"/>
      <psa30 value="0.0008748773" flag="0"/>
    </comp>
  </station>
  <station code="MHLO" name="MHLO" netid="HL" insttype="20" commtype="DIG" lat="36.6898" lon="24.4017">
    <comp name="--.HHE">
      <acc value="0.0615380735" flag="0"/>
      <vel value="0.0216799367" flag="0"/>
      <psa03 value="0.1082626988" flag="0"/>
      <psa10 value="0.0147973364" flag="0"/>
      <psa30 value="0.0010336967" flag="0"/>
    </comp>
    <comp name="--.HHN">
      <acc value="0.0363210820" flag="0"/>
      <vel value="0.0170697550" flag="0"/>
      <psa03 value="0.1524920428" flag="0"/>
      <psa10 value="0.0202719318" flag="0"/>
      <psa30 value="0.0013936410" flag="0"/>
    </comp>
    <comp name="--.HHZ">
      <acc value="0.0167627212" flag="0"/>
      <vel value="0.0078655602" flag="0"/>
      <psa03 value="0.0618286682" flag="0"/>
      <psa10 value="0.0115220789" flag="0"/>
      <psa30 value="0.0008087640" flag="0"/>
    </comp>
  </station>
  <station code="MILA" name="MILA" netid="HL" insttype="CMG-5" commtype="DIG" lat="36.7429" lon="24.4282">
    <comp name="00.HNZ">
      <acc value="0.0483007724" flag="0"/>
      <vel value="0.0167388266" flag="0"/>
      <psa03 value="0.1390666496" flag="0"/>
      <psa10 value="0.0099567335" flag="0"/>
      <psa30 value="0.0006598572" flag="0"/>
    </comp>
    <comp name="00.HNE">
      <acc value="0.0916425875" flag="0"/>
      <vel value="0.0231341087" flag="0"/>
      <psa03 value="0.1449046327" flag="0"/>
      <psa10 value="0.0129817137" flag="0"/>
      <psa30 value="0.0016524220" flag="0"/>
    </comp>
    <comp name="00.HNN">
      <acc value="0.0710482339" flag="0"/>
      <vel value="0.0217272874" flag="0"/>
      <psa03 value="0.1663831959" flag="0"/>
      <psa10 value="0.0157552859" flag="0"/>
      <psa30 value="0.0011266651" flag="0"/>
    </comp>
  </station>
  <station code="SANT" name="SANT" netid="HL" insttype="30" commtype="DIG" lat="36.3705" lon="25.4593">
    <comp name="--.HHZ">
      <acc value="0.3340636981" flag="0"/>
      <vel value="0.0605017205" flag="0"/>
      <psa03 value="0.2133863229" flag="0"/>
      <psa10 value="0.0088766034" flag="0"/>
      <psa30 value="0.0010684290" flag="0"/>
    </comp>
    <comp name="--.HHE">
      <acc value="0.4873008987" flag="0"/>
      <vel value="0.0896402341" flag="0"/>
      <psa03 value="0.3324815432" flag="0"/>
      <psa10 value="0.0206271227" flag="0"/>
      <psa30 value="0.0017446955" flag="0"/>
    </comp>
    <comp name="--.HHN">
      <acc value="0.3080472350" flag="0"/>
      <vel value="0.0413749136" flag="0"/>
      <psa03 value="0.1340251898" flag="0"/>
      <psa10 value="0.0141099246" flag="0"/>
      <psa30 value="0.0008833139" flag="0"/>
    </comp>
  </station>
  <station code="SAP3" name="SAP3" netid="HL" insttype="65535" commtype="DIG" lat="36.4356" lon="25.3454">
    <comp name="--.HHN">
      <acc value="0.1984665187" flag="0"/>
      <vel value="0.0550003350" flag="0"/>
      <psa03 value="0.3850790798" flag="0"/>
      <psa10 value="0.0245240163" flag="0"/>
      <psa30 value="0.0021472368" flag="0"/>
    </comp>
    <comp name="--.HHE">
      <acc value="0.1335212058" flag="0"/>
      <vel value="0.0460427393" flag="0"/>
      <psa03 value="0.2225061650" flag="0"/>
      <psa10 value="0.0236323645" flag="0"/>
      <psa30 value="0.0026888677" flag="0"/>
    </comp>
    <comp name="--.HHZ">
      <acc value="0.1431176057" flag="0"/>
      <vel value="0.0323160363" flag="0"/>
      <psa03 value="0.2080210049" flag="0"/>
      <psa10 value="0.0076473370" flag="0"/>
      <psa30 value="0.0010500950" flag="0"/>
    </comp>
  </station>
  <station code="THERA" name="THERA" netid="HL" insttype="120" commtype="DIG" lat="36.367" lon="25.4753">
    <comp name="--.HHE">
      <acc value="0.1532242303" flag="0"/>
      <vel value="0.0344161057" flag="0"/>
      <psa03 value="0.1650990865" flag="0"/>
      <psa10 value="0.0106159640" flag="0"/>
      <psa30 value="0.0012556731" flag="0"/>
    </comp>
    <comp name="--.HHN">
      <acc value="0.1748681189" flag="0"/>
      <vel value="0.0483374390" flag="0"/>
      <psa03 value="0.2820941276" flag="0"/>
      <psa10 value="0.0185862413" flag="0"/>
      <psa30 value="0.0010509780" flag="0"/>
    </comp>
    <comp name="--.HHZ">
      <acc value="0.1299467391" flag="0"/>
      <vel value="0.0296265471" flag="0"/>
      <psa03 value="0.0886243357" flag="0"/>
      <psa10 value="0.0070387509" flag="0"/>
      <psa30 value="0.0010726372" flag="0"/>
    </comp>
  </station>
  <station code="THRA" name="THRA" netid="HL" insttype="CMG-5" commtype="DIG" lat="36.415" lon="25.4324">
    <comp name="00.HNE">
      <acc value="0.3117453569" flag="0"/>
      <vel value="0.1029264720" flag="0"/>
      <psa03 value="0.7049427673" flag="0"/>
      <psa10 value="0.0671740411" flag="0"/>
      <psa30 value="0.0050972354" flag="0"/>
    </comp>
    <comp name="00.HNN">
      <acc value="0.2889294686" flag="0"/>
      <vel value="0.0854173432" flag="0"/>
      <psa03 value="0.8000818062" flag="0"/>
      <psa10 value="0.0744618118" flag="0"/>
      <psa30 value="0.0048562602" flag="0"/>
    </comp>
    <comp name="00.HNZ">
      <acc value="0.2682441398" flag="0"/>
      <vel value="0.0652043710" flag="0"/>
      <psa03 value="0.4691041704" flag="0"/>
      <psa10 value="0.0411401561" flag="0"/>
      <psa30 value="0.0029908258" flag="0"/>
    </comp>
  </station>
  <station code="TNSA" name="TNSA" netid="HL" insttype="CMG-5" commtype="DIG" lat="37.5394" lon="25.1631">
    <comp name="00.HNE">
      <acc value="0.0480250904" flag="0"/>
      <vel value="0.0104378604" flag="0"/>
      <psa03 value="0.0589158940" flag="0"/>
      <psa10 value="0.0052073590" flag="0"/>
      <psa30 value="0.0006258263" flag="0"/>
    </comp>
    <comp name="00.HNN">
      <acc value="0.0532047423" flag="0"/>
      <vel value="0.0177961376" flag="0"/>
      <psa03 value="0.0566396829" flag="0"/>
      <psa10 value="0.0049469922" flag="0"/>
      <psa30 value="0.0006369064" flag="0"/>
    </comp>
    <comp name="00.HNZ">
      <acc value="0.0317681943" flag="0"/>
      <vel value="0.0087225495" flag="0"/>
      <psa03 value="0.0512024297" flag="0"/>
      <psa10 value="0.0071107997" flag="0"/>
      <psa30 value="0.0007089904" flag="0"/>
    </comp>
  </station>
  <station code="AKRO" name="AKRO" netid="HT" insttype="Compact," commtype="DIG" lat="36.3584" lon="25.3967">
    <comp name="--.HHE">
      <acc value="0.4691675243" flag="0"/>
      <vel value="0.1378498798" flag="0"/>
      <psa03 value="0.9942864907" flag="0"/>
      <psa10 value="0.0418261370" flag="0"/>
      <psa30 value="0.0031325553" flag="0"/>
    </comp>
    <comp name="--.HHN">
      <acc value="0.3634619243" flag="0"/>
      <vel value="0.0827873545" flag="0"/>
      <psa03 value="0.4131103715" flag="0"/>
      <psa10 value="0.0290641594" flag="0"/>
      <psa30 value="0.0024130389" flag="0"/>
    </comp>
    <comp name="--.HHZ">
      <acc value="0.2569246050" flag="0"/>
      <vel value="0.0644257904" flag="0"/>
      <psa03 value="0.3512923390" flag="0"/>
      <psa10 value="0.0189930350" flag="0"/>
      <psa30 value="0.0016034817" flag="0"/>
    </comp>
  </station>
  <station code="ANYD" name="ANYD" netid="HT" insttype="120" commtype="DIG" lat="36.63" lon="25.6779">
    <comp name="--.HHE">
      <acc value="1.6602958103" flag="0"/>
      <vel value="0.6950294845" flag="0"/>
      <psa03 value="3.1370037266" flag="0"/>
      <psa10 value="0.2678845291" flag="0"/>
      <psa30 value="0.0230191387" flag="0"/>
    </comp>
    <comp name="--.HHZ">
      <acc value="1.3125074736" flag="0"/>
      <vel value="0.1845912029" flag="0"/>
      <psa03 value="0.6434229761" flag="0"/>
      <psa10 value="0.1694684606" flag="0"/>
      <psa30 value="0.0106567671" flag="0"/>
    </comp>
    <comp name="--.HHN">
      <acc value="1.1912870974" flag="0"/>
      <vel value="0.5241888222" flag="0"/>
      <psa03 value="1.2918873169" flag="0"/>
      <psa10 value="0.3807990660" flag="0"/>
      <psa30 value="0.0404025183" flag="0"/>
    </comp>
  </station>
  <station code="CMBO" name="CMBO" netid="HT" insttype="120P," commtype="DIG" lat="36.4709" lon="25.4056">
    <comp name="--.HHE">
      <acc value="0.1848506659" flag="0"/>
      <vel value="0.0454012627" flag="0"/>
      <psa03 value="0.1846284105" flag="0"/>
      <psa10 value="0.0300613290" flag="0"/>
      <psa30 value="0.0022567994" flag="0"/>
    </comp>
    <comp name="--.HHN">
      <acc value="0.2436227680" flag="0"/>
      <vel value="0.0553778556" flag="0"/>
      <psa03 value="0.3075718536" flag="0"/>
      <psa10 value="0.0277084513" flag="0"/>
      <psa30 value="0.0022175669" flag="0"/>
    </comp>
    <comp name="--.HHZ">
      <acc value="0.1461590121" flag="0"/>
      <vel value="0.0402887282" flag="0"/>
      <psa03 value="0.2306925979" flag="0"/>
      <psa10 value="0.0147159628" flag="0"/>
      <psa30 value="0.0012717890" flag="0"/>
    </comp>
  </station>
  <station code="THR3" name="THR3" netid="HT" insttype="" commtype="DIG" lat="36.4091" lon="25.4008">
    <comp name="--.HHN">
