<?xml version="1.0" encoding="UTF-8" standalone="yes"?>
<!DOCTYPE earthquake SYSTEM "stationlist.dtd">
<stationlist created="" xmlns="ch.ethz.sed.shakemap.usgs.xml">
  <station code="APE" name="APE" netid="GE" insttype="STS-2/N" commtype="DIG" lat="37.0727" lon="25.523">
    <comp name="--.HHZ">
      <acc value="0.0955672522" flag="0"/>
      <vel value="0.0142272246" flag="0"/>
      <psa03 value="0.0482434270" flag="0"/>
      <psa10 value="0.0109984087" flag="0"/>
      <psa30 value="0.0018089240" flag="0"/>
    </comp>
    <comp name="--.HHE">
      <acc value="0.2094819706" flag="0"/>
      <vel value="0.0255894587" flag="0"/>
      <psa03 value="0.0933381249" flag="0"/>
      <psa10 value="0.0100408248" flag="0"/>
      <psa30 value="0.0014924965" flag="0"/>
    </comp>
    <comp name="--.HHN">
      <acc value="0.2410992129" flag="0"/>
      <vel value="0.0277639719" flag="0"/>
      <psa03 value="0.0770765686" flag="0"/>
      <psa10 value="0.0111022428" flag="0"/>
      <psa30 value="0.0024748536" flag="0"/>
    </comp>
  </station>
  <station code="THERA" name="THERA" netid="GE" insttype="STS-2/N" commtype="DIG" lat="36.367" lon="25.4753">
    <comp name="--.HHE">
      <acc value="0.1539396113" flag="0"/>
      <vel value="0.0351159783" flag="0"/>
      <psa03 value="0.1698256821" flag="0"/>
      <psa10 value="0.0107467327" flag="0"/>
      <psa30 value="0.0012581199" flag="0"/>
    </comp>
    <comp name="--.HHN">
      <acc value="0.0864423452" flag="0"/>
      <vel value="0.0247061485" flag="0"/>
      <psa03 value="0.1453470583" flag="0"/>
      <psa10 value="0.0093965074" flag="0"/>
      <psa30 value="0.0005334967" flag="0"/>
    </comp>
    <comp name="--.HHZ">
      <acc value="0.1341742461" flag="0"/>
      <vel value="0.0304816657" flag="0"/>
      <psa03 value="0.0909014729" flag="0"/>
      <psa10 value="0.0070948173" flag="0"/>
      <psa30 value="0.0010729842" flag="0"/>
    </comp>
  </station>
  <station code="IOSI" name="IOSI" netid="HA" insttype="60s," commtype="DIG" lat="36.7225" lon="25.2887">
    <comp name="--.HHE">
      <acc value="0.3093358757" flag="0"/>
      <vel value="0.0523975131" flag="0"/>
      <psa03 value="0.1679085722" flag="0"/>
      <psa10 value="0.0112088182" flag="0"/>
      <psa30 value="0.0012891168" flag="0"/>
    </comp>
    <comp name="--.HHZ">
      <acc value="0.2388611388" flag="0"/>
      <vel value="0.0323907086" flag="0"/>
      <psa03 value="0.0852350536" flag="0"/>
      <psa10 value="0.0113323581" flag="0"/>
      <psa30 value="0.0010770010" flag="0"/>
    </comp>
    <comp name="--.HHN">
      <acc value="0.2747932019" flag="0"/>
      <vel value="0.0525941203" flag="0"/>
      <psa03 value="0.1837276026" flag="0"/>
      <psa10 value="0.0106683576" flag="0"/>
      <psa30 value="0.0011748987" flag="0"/>
    </comp>
  </station>
  <station code="SERI" name="SERI" netid="HA" insttype="30" commtype="DIG" lat="37.1609" lon="24.4853">
    <comp name="--.HHE">
      <acc value="0.0183979518" flag="0"/>
      <vel value="0.0037666656" flag="0"/>
      <psa03 value="0.0280908407" flag="0"/>
      <psa10 value="0.0021440630" flag="0"/>
      <psa30 value="0.0004855773" flag="0"/>
    </comp>
    <comp name="--.HHN">
      <acc value="0.0398419950" flag="0"/>
      <vel value="0.0078997290" flag="0"/>
      <psa03 value="0.0148568393" flag="0"/>
      <psa10 value="0.0057483505" flag="0"/>
      <psa30 value="0.0008153164" flag="0"/>
    </comp>
    <comp name="--.HHZ">
      <acc value="0.0196428017" flag="0"/>
      <vel value="0.0048117810" flag="0"/>
      <psa03 value="0.0139342573" flag="0"/>
      <psa10 value="0.0036593871" flag="0"/>
      <psa30 value="0.0006340742" flag="0"/>
    </comp>
  </station>
  <station code="SNT1" name="SNT1" netid="HA" insttype="30" commtype="DIG" lat="36.4159" lon="25.4282">
    <comp name="--.HHE">
      <acc value="0.0604289830" flag="0"/>
      <vel value="0.0168483034" flag="0"/>
      <psa03 value="0.1001917210" flag="0"/>
      <psa10 value="0.0130789799" flag="0"/>
      <psa30 value="0.0014796412" flag="0"/>
    </comp>
    <comp name="--.HHZ">
      <acc value="0.0429391442" flag="0"/>
      <vel value="0.0113097593" flag="0"/>
      <psa03 value="0.0407980600" flag="0"/>
      <psa10 value="0.0111439719" flag="0"/>
      <psa30 value="0.0007238615" flag="0"/>
    </comp>
    <comp name="--.HHN">
      <acc value="0.0509981640" flag="0"/>
      <vel value="0.0133687166" flag="0"/>
      <psa03 value="0.0573913813" flag="0"/>
      <psa10 value="0.0147121399" flag="0"/>
      <psa30 value="0.0010101595" flag="0"/>
    </comp>
  </station>
  <station code="SNT5" name="SNT5" netid="HA" insttype="1s-100Hz," commtype="DIG" lat="36.4037" lon="25.3953">
    <comp name="--.HHE">
      <acc value="0.1903193691" flag="0"/>
      <vel value="0.0552213483" flag="0"/>
      <psa03 value="0.2537873216" flag="0"/>
      <psa10 value="0.0182708440" flag="0"/>
      <psa30 value="0.0018281873" flag="0"/>
    </comp>
    <comp name="--.HHN">
      <acc value="0.1859350604" flag="0"/>
      <vel value="0.0405671108" flag="0"/>
      <psa03 value="0.2310507463" flag="0"/>
      <psa10 value="0.0079135859" flag="0"/>
      <psa30 value="0.0013577217" flag="0"/>
    </comp>
    <comp name="--.HHZ">
      <acc value="0.0643300015" flag="0"/>
      <vel value="0.0136539081" flag="0"/>
      <psa03 value="0.0526931589" flag="0"/>
      <psa10 value="0.0057541358" flag="0"/>
      <psa30 value="0.0005092546" flag="0"/>
    </comp>
  </station>
  <station code="THNO" name="THNO" netid="HC" insttype="60" commtype="DIG" lat="37.6541" lon="25.0221">
    <comp name="--.HHN">
      <acc value="0.0000000000" flag="0"/>
      <vel value="-100.0000000000" flag="0"/>
      <psa03 value="0.0000000000" flag="0"/>
      <psa10 value="0.0000000000" flag="0"/>
      <psa30 value="0.0000000000" flag="0"/>
    </comp>
    <comp name="--.HHE">
      <acc value="0.0000000000" flag="0"/>
      <vel value="-100.0000000000" flag="0"/>
      <psa03 value="0.0000000000" flag="0"/>
      <psa10 value="0.0000000000" flag="0"/>
      <psa30 value="0.0000000000" flag="0"/>
    </comp>
    <comp name="--.HHZ">
      <acc value="0.0204974950" flag="0"/>
      <vel value="0.0078328522" flag="0"/>
      <psa03 value="0.0379779712" flag="0"/>
      <psa10 value="0.0044237831" flag="0"/>
      <psa30 value="0.0005135317" flag="0"/>
    </comp>
  </station>
  <station code="NAX1" name="NAX1" netid="HI" insttype="CMG-5TD,ACCELEROMETER,GURALP" commtype="DIG" lat="37.1014" lon="25.3741">
    <comp name="--.HNE">
      <acc value="0.1210999774" flag="0"/>
      <vel value="0.0201573735" flag="0"/>
      <psa03 value="0.0913521152" flag="0"/>
      <psa10 value="0.0104984367" flag="0"/>
      <psa30 value="0.0012169321" flag="0"/>
    </comp>
    <comp name="--.HNZ">
      <acc value="0.0542343600" flag="0"/>
      <vel value="0.0097512457" flag="0"/>
      <psa03 value="0.0330853188" flag="0"/>
      <psa10 value="0.0063682510" flag="0"/>
      <psa30 value="0.0014947047" flag="0"/>
    </comp>
    <comp name="--.HNN">
      <acc value="0.0852897789" flag="0"/>
      <vel value="0.0174262369" flag="0"/>
      <psa03 value="0.0851458196" flag="0"/>
      <psa10 value="0.0094031654" flag="0"/>
      <psa30 value="0.0019066000" flag="0"/>
    </comp>
  </station>
  <station code="SFR2" name="SFR2" netid="HI" insttype="unknown" commtype="DIG" lat="36.3998" lon="25.4382">
    <comp name="--.HNE">
      <acc value="0.3045832273" flag="0"/>
      <vel value="0.0912706241" flag="0"/>
      <psa03 value="0.5445798736" flag="0"/>
      <psa10 value="0.0418765792" flag="0"/>
      <psa30 value="0.0034293453" flag="0"/>
    </comp>
    <comp name="--.HNZ">
      <acc value="0.2807210576" flag="0"/>
      <vel value="0.0655986296" flag="0"/>
      <psa03 value="0.4056883246" flag="0"/>
      <psa10 value="0.0287171431" flag="0"/>
      <psa30 value="0.0020344899" flag="0"/>
    </comp>
    <comp name="--.HNN">
      <acc value="0.2170585866" flag="0"/>
      <vel value="0.0711030139" flag="0"/>
      <psa03 value="0.4808909037" flag="0"/>
      <psa10 value="0.0607315588" flag="0"/>
      <psa30 value="0.0029395271" flag="0"/>
    </comp>
  </station>
  <station code="AMGA" name="AMGA" netid="HL" insttype="LE3D20_SMART24" commtype="DIG" lat="36.8316" lon="25.8938">
    <comp name="--.HHE">
      <acc value="1.4808887191" flag="0"/>
      <vel value="0.2087335710" flag="0"/>
      <psa03 value="0.5037458531" flag="0"/>
      <psa10 value="0.0660576331" flag="0"/>
      <psa30 value="0.0063665819" flag="0"/>
    </comp>
    <comp name="--.HHZ">
      <acc value="1.0302161877" flag="0"/>
      <vel value="0.2267205839" flag="0"/>
      <psa03 value="0.5054510166" flag="0"/>
      <psa10 value="0.0806267260" flag="0"/>
      <psa30 value="0.0077549006" flag="0"/>
    </comp>
    <comp name="--.HHN">
      <acc value="1.9758868822" flag="0"/>
      <vel value="0.2865864633" flag="0"/>
      <psa03 value="0.5368699638" flag="0"/>
      <psa10 value="0.1243289951" flag="0"/>
      <psa30 value="0.0082964829" flag="0"/>
    </comp>
  </station>
  <station code="APE" name="APE" netid="HL" insttype="120" commtype="DIG" lat="37.0727" lon="25.523">
    <comp name="--.HHE">
      <acc value="0.1933028148" flag="0"/>
      <vel value="0.0238722810" flag="0"/>
      <psa03 value="0.0911989414" flag="0"/>
      <psa10 value="0.0099501350" flag="0"/>
      <psa30 value="0.0014885025" flag="0"/>
    </comp>
    <comp name="--.HHN">
      <acc value="0.2204225322" flag="0"/>
      <vel value="0.0261640348" flag="0"/>
      <psa03 value="0.0740269285" flag="0"/>
      <psa10 value="0.0110213804" flag="0"/>
      <psa30 value="0.0024561465" flag="0"/>
    </comp>
    <comp name="--.HHZ">
      <acc value="0.0884978501" flag="0"/>
      <vel value="0.0138055315" flag="0"/>
      <psa03 value="0.0469519850" flag="0"/>
      <psa10 value="0.0108905970" flag="0"/>
      <psa30 value="0.0018037955" flag="0"/>
    </comp>
  </station>
  <station code="ASTA" name="ASTA" netid="HL" insttype="LE3D20_SMART24" commtype="DIG" lat="36.5475" lon="26.3471">
    <comp name="--.HHN">
      <acc value="0.0774006772" flag="0"/>
      <vel value="0.0196989909" flag="0"/>
      <psa03 value="0.1126398827" flag="0"/>
      <psa10 value="0.0155624700" flag="0"/>
      <psa30 value="0.0009705239" flag="0"/>
    </comp>
    <comp name="--.HHZ">
      <acc value="0.0560277209" flag="0"/>
      <vel value="0.0139103356" flag="0"/>
      <psa03 value="0.0848953076" flag="0"/>
      <psa10 value="0.0060695354" flag="0"/>
      <psa30 value="0.0008309592" flag="0"/>
    </comp>
    <comp name="--.HHE">
      <acc value="0.0815589651" flag="0"/>
      <vel value="0.0187952527" flag="0"/>
      <psa03 value="0.0965269432" flag="0"/>
      <psa10 value="0.0116995785" flag="0"/>
      <psa30 value="0.0008749866" flag="0"/>
    </comp>
  </station>
  <station code="MHLO" name="MHLO" netid="HL" insttype="20" commtype="DIG" lat="36.6898" lon="24.4017">
    <comp name="--.HHN">
      <acc value="0.0363210819" flag="0"/>
      <vel value="0.0170697533" flag="0"/>
      <psa03 value="0.1524920428" flag="0"/>
      <psa10 value="0.0202719318" flag="0"/>
      <psa30 value="0.0013937158" flag="0"/>
    </comp>
    <comp name="--.HHE">
      <acc value="0.0615380737" flag="0"/>
      <vel value="0.0216799365" flag="0"/>
      <psa03 value="0.1082626988" flag="0"/>
      <psa10 value="0.0147973376" flag="0"/>
      <psa30 value="0.0010337375" flag="0"/>
    </comp>
    <comp name="--.HHZ">
      <acc value="0.0167627213" flag="0"/>
      <vel value="0.0078655425" flag="0"/>
      <psa03 value="0.0618286682" flag="0"/>
      <psa10 value="0.0115220792" flag="0"/>
      <psa30 value="0.0008087470" flag="0"/>
    </comp>
  </station>
  <station code="MILA" name="MILA" netid="HL" insttype="CMG-5" commtype="DIG" lat="36.7429" lon="24.4282">
    <comp name="00.HNE">
      <acc value="0.0916425871" flag="0"/>
      <vel value="0.0231341059" flag="0"/>
      <psa03 value="0.1449046327" flag="0"/>
      <psa10 value="0.0129817138" flag="0"/>
      <psa30 value="0.0016523746" flag="0"/>
    </comp>
    <comp name="00.HNN">
      <acc value="0.0710482348" flag="0"/>
      <vel value="0.0217272905" flag="0"/>
      <psa03 value="0.1663831959" flag="0"/>
      <psa10 value="0.0157552855" flag="0"/>
      <psa30 value="0.0011269065" flag="0"/>
    </comp>
    <comp name="00.HNZ">
      <acc value="0.0483007734" flag="0"/>
      <vel value="0.0167388282" flag="0"/>
      <psa03 value="0.1390666496" flag="0"/>
      <psa10 value="0.0099567335" flag="0"/>
      <psa30 value="0.0006599550" flag="0"/>
    </comp>
  </station>
  <station code="SANT" name="SANT" netid="HL" insttype="30" commtype="DIG" lat="36.3705" lon="25.4593">
    <comp name="--.HHN">
      <acc value="0.3080472348" flag="0"/>
      <vel value="0.0413748998" flag="0"/>
      <psa03 value="0.1340251898" flag="0"/>
      <psa10 value="0.0141099363" flag="0"/>
      <psa30 value="0.0008836651" flag="0"/>
    </comp>
    <comp name="--.HHZ">
      <acc value="0.3340636983" flag="0"/>
      <vel value="0.0605017138" flag="0"/>
      <psa03 value="0.2133863229" flag="0"/>
      <psa10 value="0.0088765958" flag="0"/>
      <psa30 value="0.0010677235" flag="0"/>
    </comp>
    <comp name="--.HHE">
      <acc value="0.4873008986" flag="0"/>
      <vel value="0.0896402972" flag="0"/>
      <psa03 value="0.3324815430" flag="0"/>
      <psa10 value="0.0206271224" flag="0"/>
      <psa30 value="0.0017449220" flag="0"/>
    </comp>
  </station>
  <station code="SAP3" name="SAP3" netid="HL" insttype="65535" commtype="DIG" lat="36.4356" lon="25.3454">
    <comp name="--.HHE">
      <acc value="0.1335212057" flag="0"/>
      <vel value="0.0460427129" flag="0"/>
      <psa03 value="0.2225061650" flag="0"/>
      <psa10 value="0.0236323644" flag="0"/>
      <psa30 value="0.0026889919" flag="0"/>
    </comp>
    <comp name="--.HHN">
      <acc value="0.1984665188" flag="0"/>
      <vel value="0.0550003572" flag="0"/>
      <psa03 value="0.3850790798" flag="0"/>
      <psa10 value="0.0245240164" flag="0"/>
      <psa30 value="0.0021478245" flag="0"/>
    </comp>
    <comp name="--.HHZ">
      <acc value="0.1431176054" flag="0"/>
      <vel value="0.0323160407" flag="0"/>
      <psa03 value="0.2080210049" flag="0"/>
      <psa10 value="0.0076473401" flag="0"/>
      <psa30 value="0.0010501871" flag="0"/>
    </comp>
  </station>
  <station code="THERA" name="THERA" netid="HL" insttype="120" commtype="DIG" lat="36.367" lon="25.4753">
    <comp name="--.HHE">
      <acc value="0.1532242305" flag="0"/>
      <vel value="0.0344161070" flag="0"/>
      <psa03 value="0.1650990865" flag="0"/>
      <psa10 value="0.0106159636" flag="0"/>
      <psa30 value="0.0012559003" flag="0"/>
    </comp>
    <comp name="--.HHZ">
      <acc value="0.1299467394" flag="0"/>
      <vel value="0.0296265454" flag="0"/>
      <psa03 value="0.0886243357" flag="0"/>
      <psa10 value="0.0070387511" flag="0"/>
      <psa30 value="0.0010724972" flag="0"/>
    </comp>
    <comp name="--.HHN">
      <acc value="0.1748681192" flag="0"/>
      <vel value="0.0483374363" flag="0"/>
      <psa03 value="0.2820941276" flag="0"/>
      <psa10 value="0.0185862427" flag="0"/>
      <psa30 value="0.0010506848" flag="0"/>
    </comp>
  </station>
  <station code="THRA" name="THRA" netid="HL" insttype="CMG-5" commtype="DIG" lat="36.415" lon="25.4324">
    <comp name="00.HNE">
      <acc value="0.3117453586" flag="0"/>
      <vel value="0.1029264729" flag="0"/>
      <psa03 value="0.7049427673" flag="0"/>
      <psa10 value="0.0671740353" flag="0"/>
      <psa30 value="0.0050971674" flag="0"/>
    </comp>
    <comp name="00.HNZ">
      <acc value="0.2682441414" flag="0"/>
      <vel value="0.0652043739" flag="0"/>
      <psa03 value="0.4691041704" flag="0"/>
      <psa10 value="0.0411401550" flag="0"/>
      <psa30 value="0.0029904443" flag="0"/>
    </comp>
    <comp name="00.HNN">
      <acc value="0.2889294676" flag="0"/>
      <vel value="0.0854173415" flag="0"/>
      <psa03 value="0.8000818062" flag="0"/>
      <psa10 value="0.0744617907" flag="0"/>
      <psa30 value="0.0048564913" flag="0"/>
    </comp>
  </station>
  <station code="TNSA" name="TNSA" netid="HL" insttype="CMG-5" commtype="DIG" lat="37.5394" lon="25.1631">
    <comp name="00.HNN">
      <acc value="0.0532047418" flag="0"/>
      <vel value="0.0177961370" flag="0"/>
      <psa03 value="0.0566396829" flag="0"/>
      <psa10 value="0.0049469921" flag="0"/>
      <psa30 value="0.0006368560" flag="0"/>
    </comp>
    <comp name="00.HNE">
      <acc value="0.0480250905" flag="0"/>
      <vel value="0.0104378604" flag="0"/>
      <psa03 value="0.0589158940" flag="0"/>
      <psa10 value="0.0052073590" flag="0"/>
      <psa30 value="0.0006263347" flag="0"/>
    </comp>
    <comp name="00.HNZ">
      <acc value="0.0317681940" flag="0"/>
      <vel value="0.0087225469" flag="0"/>
      <psa03 value="0.0512024297" flag="0"/>
      <psa10 value="0.0071107997" flag="0"/>
      <psa30 value="0.0007088790" flag="0"/>
    </comp>
  </station>
  <station code="AKRO" name="AKRO" netid="HT" insttype="Compact," commtype="DIG" lat="36.3584" lon="25.3967">
    <comp name="--.HHN">
      <acc value="0.3634619242" flag="0"/>
      <vel value="0.0827873418" flag="0"/>
      <psa03 value="0.4131103715" flag="0"/>
      <psa10 value="0.0290641517" flag="0"/>
      <psa30 value="0.0024132276" flag="0"/>
    </comp>
    <comp name="--.HHZ">
      <acc value="0.2569246050" flag="0"/>
      <vel value="0.0644257922" flag="0"/>
      <psa03 value="0.3512923390" flag="0"/>
      <psa10 value="0.0189930324" flag="0"/>
      <psa30 value="0.0016033699" flag="0"/>
    </comp>
    <comp name="--.HHE">
      <acc value="0.4691675241" flag="0"/>
      <vel value="0.1378498784" flag="0"/>
      <psa03 value="0.9942864907" flag="0"/>
      <psa10 value="0.0418261344" flag="0"/>
      <psa30 value="0.0031309192" flag="0"/>
    </comp>
  </station>
  <station code="ANYD" name="ANYD" netid="HT" insttype="120" commtype="DIG" lat="36.63" lon="25.6779">
    <comp name="--.HHZ">
      <acc value="1.3125074737" flag="0"/>
      <vel value="0.1845912100" flag="0"/>
      <psa03 value="0.6434229761" flag="0"/>
      <psa10 value="0.1694684539" flag="0"/>
      <psa30 value="0.0106550123" flag="0"/>
    </comp>
    <comp name="--.HHE">
      <acc value="1.6602958101" flag="0"/>
      <vel value="0.6950294838" flag="0"/>
      <psa03 value="3.1370037266" flag="0"/>
      <psa10 value="0.2678845041" flag="0"/>
      <psa30 value="0.0230186967" flag="0"/>
    </comp>
    <comp name="--.HHN">
      <acc value="1.1912870973" flag="0"/>
      <vel value="0.5241888198" flag="0"/>
      <psa03 value="1.2918873169" flag="0"/>
      <psa10 value="0.3807991591" flag="0"/>
      <psa30 value="0.0404015175" flag="0"/>
    </comp>
  </station>
  <station code="CMBO" name="CMBO" netid="HT" insttype="120P," commtype="DIG" lat="36.4709" lon="25.4056">
    <comp name="--.HHZ">
      <acc value="0.1461590120" flag="0"/>
      <vel value="0.0402887262" flag="0"/>
      <psa03 value="0.2306925979" flag="0"/>
      <psa10 value="0.0147159633" flag="0"/>
      <psa30 value="0.0012716539" flag="0"/>
    </comp>
    <comp name="--.HHE">
      <acc value="0.1848506659" flag="0"/>
      <vel value="0.0454012506" flag="0"/>
      <psa03 value="0.1846284105" flag="0"/>
      <psa10 value="0.0300613299" flag="0"/>
      <psa30 value="0.0022573285" flag="0"/>
    </comp>
    <comp name="--.HHN">
      <acc value="0.2436227681" flag="0"/>
      <vel value="0.0553778477" flag="0"/>
      <psa03 value="0.3075718536" flag="0"/>
      <psa10 value="0.0277084680" flag="0"/>
      <psa30 value="0.0022171146" flag="0"/>
    </comp>
  </station>
  <station code="THR3" name="THR3" netid="HT" insttype="" commtype="DIG" lat="36.4091" lon="25.4008">
    <comp name="--.HHN">
