<?xml version="1.0" encoding="UTF-8" standalone="yes"?>
<!DOCTYPE earthquake SYSTEM "stationlist.dtd">
<stationlist created="" xmlns="ch.ethz.sed.shakemap.usgs.xml">
  <station code="APE" name="APE" netid="GE" insttype="STS-2/N" commtype="DIG" lat="37.0727" lon="25.523">
    <comp name="--.HHE">
      <acc value="0.2094819705" flag="0"/>
      <vel value="0.0255894612" flag="0"/>
      <psa03 value="0.0933381249" flag="0"/>
      <psa10 value="0.0100408247" flag="0"/>
      <psa30 value="0.0014922742" flag="0"/>
    </comp>
    <comp name="--.HHZ">
      <acc value="0.0955672523" flag="0"/>
      <vel value="0.0142272240" flag="0"/>
      <psa03 value="0.0482434270" flag="0"/>
      <psa10 value="0.0109984078" flag="0"/>
      <psa30 value="0.0018090191" flag="0"/>
    </comp>
    <comp name="--.HHN">
      <acc value="0.2410992129" flag="0"/>
      <vel value="0.0277639725" flag="0"/>
      <psa03 value="0.0770765686" flag="0"/>
      <psa10 value="0.0111022428" flag="0"/>
      <psa30 value="0.0024747410" flag="0"/>
    </comp>
  </station>
  <station code="THERA" name="THERA" netid="GE" insttype="STS-2/N" commtype="DIG" lat="36.367" lon="25.4753">
    <comp name="--.HHZ">
      <acc value="0.1341742462" flag="0"/>
      <vel value="0.0304816649" flag="0"/>
      <psa03 value="0.0909014729" flag="0"/>
      <psa10 value="0.0070948173" flag="0"/>
      <psa30 value="0.0010729141" flag="0"/>
    </comp>
    <comp name="--.HHN">
      <acc value="0.0864423452" flag="0"/>
      <vel value="0.0247061471" flag="0"/>
      <psa03 value="0.1453470583" flag="0"/>
      <psa10 value="0.0093965093" flag="0"/>
      <psa30 value="0.0005334381" flag="0"/>
    </comp>
    <comp name="--.HHE">
      <acc value="0.1539396114" flag="0"/>
      <vel value="0.0351159783" flag="0"/>
      <psa03 value="0.1698256821" flag="0"/>
      <psa10 value="0.0107467294" flag="0"/>
      <psa30 value="0.0012583357" flag="0"/>
    </comp>
  </station>
</stationlist>
