<?xml version="1.0" encoding="UTF-8" standalone="yes"?>
<!DOCTYPE earthquake SYSTEM "stationlist.dtd">
<stationlist created="" xmlns="ch.ethz.sed.shakemap.usgs.xml">
  <station code="APE" name="APE" netid="GE" insttype="STS-2/N" commtype="DIG" lat="37.0727" lon="25.523">
    <comp name="--.HHE">
      <acc value="0.2094819705" flag="0"/>
      <vel value="0.0255894612" flag="0"/>
      <psa03 value="0.0933381249" flag="0"/>
      <psa10 value="0.0100408247" flag="0"/>
      <psa30 value="0.0014922742" flag="0"/>
    </comp>
    <comp name="--.HHZ">
      <acc value="0.0955672523" flag="0"/>
      <vel value="0.0142272240" flag="0"/>
      <psa03 value="0.0482434270" flag="0"/>
      <psa10 value="0.0109984078" flag="0"/>
      <psa30 value="0.0018090191" flag="0"/>
    </comp>
    <comp name="--.HHN">
      <acc value="0.2410992129" flag="0"/>
      <vel value="0.0277639725" flag="0"/>
      <psa03 value="0.0770765686" flag="0"/>
      <psa10 value="0.0111022428" flag="0"/>
      <psa30 value="0.0024747410" flag="0"/>
    </comp>
  </station>
  <station code="THERA" name="THERA" netid="GE" insttype="STS-2/N" commtype="DIG" lat="36.367" lon="25.4753">
    <comp name="--.HHZ">
      <acc value="0.1341742462" flag="0"/>
      <vel value="0.0304816649" flag="0"/>
      <psa03 value="0.0909014729" flag="0"/>
      <psa10 value="0.0070948173" flag="0"/>
      <psa30 value="0.0010729141" flag="0"/>
    </comp>
    <comp name="--.HHN">
      <acc value="0.0864423452" flag="0"/>
      <vel value="0.0247061471" flag="0"/>
      <psa03 value="0.1453470583" flag="0"/>
      <psa10 value="0.0093965093" flag="0"/>
      <psa30 value="0.0005334381" flag="0"/>
    </comp>
    <comp name="--.HHE">
      <acc value="0.1539396114" flag="0"/>
      <vel value="0.0351159783" flag="0"/>
      <psa03 value="0.1698256821" flag="0"/>
      <psa10 value="0.0107467294" flag="0"/>
      <psa30 value="0.0012583357" flag="0"/>
    </comp>
  </station>
  <station code="IOSI" name="IOSI" netid="HA" insttype="60s," commtype="DIG" lat="36.7225" lon="25.2887">
    <comp name="--.HHE">
      <acc value="0.3093358757" flag="0"/>
      <vel value="0.0523975143" flag="0"/>
      <psa03 value="0.1679085722" flag="0"/>
      <psa10 value="0.0112088186" flag="0"/>
      <psa30 value="0.0012891190" flag="0"/>
    </comp>
    <comp name="--.HHZ">
      <acc value="0.2388611389" flag="0"/>
      <vel value="0.0323907077" flag="0"/>
      <psa03 value="0.0852350536" flag="0"/>
      <psa10 value="0.0113323569" flag="0"/>
      <psa30 value="0.0010770228" flag="0"/>
    </comp>
    <comp name="--.HHN">
      <acc value="0.2747932017" flag="0"/>
      <vel value="0.0525941204" flag="0"/>
      <psa03 value="0.1837276026" flag="0"/>
      <psa10 value="0.0106683570" flag="0"/>
      <psa30 value="0.0011748830" flag="0"/>
    </comp>
  </station>
  <station code="SERI" name="SERI" netid="HA" insttype="30" commtype="DIG" lat="37.1609" lon="24.4853">
    <comp name="--.HHE">
      <acc value="0.0183979520" flag="0"/>
      <vel value="0.0037666634" flag="0"/>
      <psa03 value="0.0280908407" flag="0"/>
      <psa10 value="0.0021440696" flag="0"/>
      <psa30 value="0.0004856068" flag="0"/>
    </comp>
    <comp name="--.HHN">
      <acc value="0.0398419950" flag="0"/>
      <vel value="0.0078997315" flag="0"/>
      <psa03 value="0.0148568393" flag="0"/>
      <psa10 value="0.0057483506" flag="0"/>
      <psa30 value="0.0008153500" flag="0"/>
    </comp>
    <comp name="--.HHZ">
      <acc value="0.0196428018" flag="0"/>
      <vel value="0.0048117851" flag="0"/>
      <psa03 value="0.0139342573" flag="0"/>
      <psa10 value="0.0036593871" flag="0"/>
      <psa30 value="0.0006341026" flag="0"/>
    </comp>
  </station>
  <station code="SNT1" name="SNT1" netid="HA" insttype="30" commtype="DIG" lat="36.4159" lon="25.4282">
    <comp name="--.HHN">
      <acc value="0.0509981641" flag="0"/>
      <vel value="0.0133687105" flag="0"/>
      <psa03 value="0.0573913813" flag="0"/>
      <psa10 value="0.0147121390" flag="0"/>
      <psa30 value="0.0010101555" flag="0"/>
    </comp>
    <comp name="--.HHE">
      <acc value="0.0604289830" flag="0"/>
      <vel value="0.0168483019" flag="0"/>
      <psa03 value="0.1001917210" flag="0"/>
      <psa10 value="0.0130789787" flag="0"/>
      <psa30 value="0.0014796369" flag="0"/>
    </comp>
    <comp name="--.HHZ">
      <acc value="0.0429391442" flag="0"/>
      <vel value="0.0113097581" flag="0"/>
      <psa03 value="0.0407980600" flag="0"/>
      <psa10 value="0.0111439720" flag="0"/>
      <psa30 value="0.0007238315" flag="0"/>
    </comp>
  </station>
  <station code="SNT5" name="SNT5" netid="HA" insttype="1s-100Hz," commtype="DIG" lat="36.4037" lon="25.3953">
    <comp name="--.HHN">
      <acc value="0.1859350582" flag="0"/>
      <vel value="0.0405666081" flag="0"/>
      <psa03 value="0.2310507440" flag="0"/>
      <psa10 value="0.0079135837" flag="0"/>
      <psa30 value="0.0013577391" flag="0"/>
    </comp>
    <comp name="--.HHZ">
      <acc value="0.0643299938" flag="0"/>
      <vel value="0.0136521801" flag="0"/>
      <psa03 value="0.0526931510" flag="0"/>
      <psa10 value="0.0057541442" flag="0"/>
      <psa30 value="0.0005086515" flag="0"/>
    </comp>
    <comp name="--.HHE">
      <acc value="0.1903193892" flag="0"/>
      <vel value="0.0552164596" flag="0"/>
      <psa03 value="0.2537873015" flag="0"/>
      <psa10 value="0.0182708647" flag="0"/>
      <psa30 value="0.0018284749" flag="0"/>
    </comp>
  </station>
  <station code="THNO" name="THNO" netid="HC" insttype="60" commtype="DIG" lat="37.6541" lon="25.0221">
    <comp name="--.HHE">
      <acc value="0.0000000000" flag="0"/>
      <vel value="-100.0000000000" flag="0"/>
      <psa03 value="0.0000000000" flag="0"/>
      <psa10 value="0.0000000000" flag="0"/>
      <psa30 value="0.0000000000" flag="0"/>
    </comp>
    <comp name="--.HHN">
      <acc value="0.0000000000" flag="0"/>
      <vel value="-100.0000000000" flag="0"/>
      <psa03 value="0.0000000000" flag="0"/>
      <psa10 value="0.0000000000" flag="0"/>
      <psa30 value="0.0000000000" flag="0"/>
    </comp>
    <comp name="--.HHZ">
      <acc value="0.0204974951" flag="0"/>
      <vel value="0.0078328517" flag="0"/>
      <psa03 value="0.0379779712" flag="0"/>
      <psa10 value="0.0044237820" flag="0"/>
      <psa30 value="0.0005134629" flag="0"/>
    </comp>
  </station>
  <station code="NAX1" name="NAX1" netid="HI" insttype="CMG-5TD,ACCELEROMETER,GURALP" commtype="DIG" lat="37.1014" lon="25.3741">
    <comp name="--.HNE">
      <acc value="0.1210999775" flag="0"/>
      <vel value="0.0201573755" flag="0"/>
      <psa03 value="0.0913521152" flag="0"/>
      <psa10 value="0.0104984356" flag="0"/>
      <psa30 value="0.0012168458" flag="0"/>
    </comp>
    <comp name="--.HNN">
      <acc value="0.0852897787" flag="0"/>
      <vel value="0.0174262373" flag="0"/>
      <psa03 value="0.0851458196" flag="0"/>
      <psa10 value="0.0094031653" flag="0"/>
      <psa30 value="0.0019066068" flag="0"/>
    </comp>
    <comp name="--.HNZ">
      <acc value="0.0542343598" flag="0"/>
      <vel value="0.0097512438" flag="0"/>
      <psa03 value="0.0330853188" flag="0"/>
      <psa10 value="0.0063682511" flag="0"/>
      <psa30 value="0.0014945818" flag="0"/>
    </comp>
  </station>
  <station code="SFR2" name="SFR2" netid="HI" insttype="unknown" commtype="DIG" lat="36.3998" lon="25.4382">
    <comp name="--.HNE">
      <acc value="0.3045832274" flag="0"/>
      <vel value="0.0912706261" flag="0"/>
      <psa03 value="0.5445798736" flag="0"/>
      <psa10 value="0.0418765588" flag="0"/>
      <psa30 value="0.0034295703" flag="0"/>
    </comp>
    <comp name="--.HNN">
      <acc value="0.2170585869" flag="0"/>
      <vel value="0.0711030089" flag="0"/>
      <psa03 value="0.4808909037" flag="0"/>
      <psa10 value="0.0607315580" flag="0"/>
      <psa30 value="0.0029389379" flag="0"/>
    </comp>
    <comp name="--.HNZ">
      <acc value="0.2807210578" flag="0"/>
      <vel value="0.0655986323" flag="0"/>
      <psa03 value="0.4056883246" flag="0"/>
      <psa10 value="0.0287171422" flag="0"/>
      <psa30 value="0.0020348521" flag="0"/>
    </comp>
  </station>
  <station code="AMGA" name="AMGA" netid="HL" insttype="LE3D20_SMART24" commtype="DIG" lat="36.8316" lon="25.8938">
    <comp name="--.HHZ">
      <acc value="1.0302161870" flag="0"/>
      <vel value="0.2267206483" flag="0"/>
      <psa03 value="0.5054510168" flag="0"/>
      <psa10 value="0.0806267275" flag="0"/>
      <psa30 value="0.0077601280" flag="0"/>
    </comp>
    <comp name="--.HHE">
      <acc value="1.4808887196" flag="0"/>
      <vel value="0.2087335753" flag="0"/>
      <psa03 value="0.5037458531" flag="0"/>
      <psa10 value="0.0660576514" flag="0"/>
      <psa30 value="0.0063637067" flag="0"/>
    </comp>
    <comp name="--.HHN">
      <acc value="1.9758868825" flag="0"/>
      <vel value="0.2865864559" flag="0"/>
      <psa03 value="0.5368699638" flag="0"/>
      <psa10 value="0.1243289894" flag="0"/>
      <psa30 value="0.0082968781" flag="0"/>
    </comp>
  </station>
  <station code="APE" name="APE" netid="HL" insttype="120" commtype="DIG" lat="37.0727" lon="25.523">
    <comp name="--.HHE">
      <acc value="0.1933028148" flag="0"/>
      <vel value="0.0238722835" flag="0"/>
      <psa03 value="0.0911989414" flag="0"/>
      <psa10 value="0.0099501349" flag="0"/>
      <psa30 value="0.0014882817" flag="0"/>
    </comp>
    <comp name="--.HHN">
      <acc value="0.2204225323" flag="0"/>
      <vel value="0.0261640343" flag="0"/>
      <psa03 value="0.0740269285" flag="0"/>
      <psa10 value="0.0110213803" flag="0"/>
      <psa30 value="0.0024560326" flag="0"/>
    </comp>
    <comp name="--.HHZ">
      <acc value="0.0884978501" flag="0"/>
      <vel value="0.0138055308" flag="0"/>
      <psa03 value="0.0469519850" flag="0"/>
      <psa10 value="0.0108905961" flag="0"/>
      <psa30 value="0.0018038880" flag="0"/>
    </comp>
  </station>
  <station code="ASTA" name="ASTA" netid="HL" insttype="LE3D20_SMART24" commtype="DIG" lat="36.5475" lon="26.3471">
    <comp name="--.HHE">
      <acc value="0.0815589653" flag="0"/>
      <vel value="0.0187952634" flag="0"/>
      <psa03 value="0.0965269432" flag="0"/>
      <psa10 value="0.0116995829" flag="0"/>
      <psa30 value="0.0008751958" flag="0"/>
    </comp>
    <comp name="--.HHN">
      <acc value="0.0774006773" flag="0"/>
      <vel value="0.0196989885" flag="0"/>
      <psa03 value="0.1126398827" flag="0"/>
      <psa10 value="0.0155624707" flag="0"/>
      <psa30 value="0.0009705380" flag="0"/>
    </comp>
    <comp name="--.HHZ">
      <acc value="0.0560277211" flag="0"/>
      <vel value="0.0139103297" flag="0"/>
      <psa03 value="0.0848953076" flag="0"/>
      <psa10 value="0.0060695357" flag="0"/>
      <psa30 value="0.0008305116" flag="0"/>
    </comp>
  </station>
  <station code="MHLO" name="MHLO" netid="HL" insttype="20" commtype="DIG" lat="36.6898" lon="24.4017">
    <comp name="--.HHE">
      <acc value="0.0615380738" flag="0"/>
      <vel value="0.0216799356" flag="0"/>
      <psa03 value="0.1082626988" flag="0"/>
      <psa10 value="0.0147973380" flag="0"/>
      <psa30 value="0.0010337371" flag="0"/>
    </comp>
    <comp name="--.HHN">
      <acc value="0.0363210819" flag="0"/>
      <vel value="0.0170697533" flag="0"/>
      <psa03 value="0.1524920428" flag="0"/>
      <psa10 value="0.0202719318" flag="0"/>
      <psa30 value="0.0013937441" flag="0"/>
    </comp>
    <comp name="--.HHZ">
      <acc value="0.0167627213" flag="0"/>
      <vel value="0.0078655595" flag="0"/>
      <psa03 value="0.0618286682" flag="0"/>
      <psa10 value="0.0115220794" flag="0"/>
      <psa30 value="0.0008087581" flag="0"/>
    </comp>
  </station>
  <station code="MILA" name="MILA" netid="HL" insttype="CMG-5" commtype="DIG" lat="36.7429" lon="24.4282">
    <comp name="00.HNE">
      <acc value="0.0916425871" flag="0"/>
      <vel value="0.0231341047" flag="0"/>
      <psa03 value="0.1449046327" flag="0"/>
      <psa10 value="0.0129817138" flag="0"/>
      <psa30 value="0.0016523848" flag="0"/>
    </comp>
    <comp name="00.HNN">
      <acc value="0.0710482353" flag="0"/>
      <vel value="0.0217272949" flag="0"/>
      <psa03 value="0.1663831959" flag="0"/>
      <psa10 value="0.0157552853" flag="0"/>
      <psa30 value="0.0011269163" flag="0"/>
    </comp>
    <comp name="00.HNZ">
      <acc value="0.0483007738" flag="0"/>
      <vel value="0.0167388283" flag="0"/>
      <psa03 value="0.1390666496" flag="0"/>
      <psa10 value="0.0099567335" flag="0"/>
      <psa30 value="0.0006599833" flag="0"/>
    </comp>
  </station>
  <station code="SANT" name="SANT" netid="HL" insttype="30" commtype="DIG" lat="36.3705" lon="25.4593">
    <comp name="--.HHE">
      <acc value="0.4873008987" flag="0"/>
      <vel value="0.0896402540" flag="0"/>
      <psa03 value="0.3324815431" flag="0"/>
      <psa10 value="0.0206271226" flag="0"/>
      <psa30 value="0.0017447578" flag="0"/>
    </comp>
    <comp name="--.HHN">
      <acc value="0.3080472345" flag="0"/>
      <vel value="0.0413749039" flag="0"/>
      <psa03 value="0.1340251898" flag="0"/>
      <psa10 value="0.0141099455" flag="0"/>
      <psa30 value="0.0008838274" flag="0"/>
    </comp>
    <comp name="--.HHZ">
      <acc value="0.3340636983" flag="0"/>
      <vel value="0.0605016790" flag="0"/>
      <psa03 value="0.2133863228" flag="0"/>
      <psa10 value="0.0088765901" flag="0"/>
      <psa30 value="0.0010672144" flag="0"/>
    </comp>
  </station>
  <station code="SAP3" name="SAP3" netid="HL" insttype="65535" commtype="DIG" lat="36.4356" lon="25.3454">
    <comp name="--.HHE">
      <acc value="0.1335212057" flag="0"/>
      <vel value="0.0460427046" flag="0"/>
      <psa03 value="0.2225061650" flag="0"/>
      <psa10 value="0.0236323643" flag="0"/>
      <psa30 value="0.0026890501" flag="0"/>
    </comp>
    <comp name="--.HHN">
      <acc value="0.1984665188" flag="0"/>
      <vel value="0.0550003646" flag="0"/>
      <psa03 value="0.3850790798" flag="0"/>
      <psa10 value="0.0245240162" flag="0"/>
      <psa30 value="0.0021481274" flag="0"/>
    </comp>
    <comp name="--.HHZ">
      <acc value="0.1431176053" flag="0"/>
      <vel value="0.0323160381" flag="0"/>
      <psa03 value="0.2080210049" flag="0"/>
      <psa10 value="0.0076473412" flag="0"/>
      <psa30 value="0.0010501733" flag="0"/>
    </comp>
  </station>
  <station code="THERA" name="THERA" netid="HL" insttype="120" commtype="DIG" lat="36.367" lon="25.4753">
    <comp name="--.HHZ">
      <acc value="0.1299467396" flag="0"/>
      <vel value="0.0296265446" flag="0"/>
      <psa03 value="0.0886243357" flag="0"/>
      <psa10 value="0.0070387512" flag="0"/>
      <psa30 value="0.0010724266" flag="0"/>
    </comp>
    <comp name="--.HHN">
      <acc value="0.1748681193" flag="0"/>
      <vel value="0.0483374336" flag="0"/>
      <psa03 value="0.2820941276" flag="0"/>
      <psa10 value="0.0185862466" flag="0"/>
      <psa30 value="0.0010505653" flag="0"/>
    </comp>
    <comp name="--.HHE">
      <acc value="0.1532242306" flag="0"/>
      <vel value="0.0344161069" flag="0"/>
      <psa03 value="0.1650990865" flag="0"/>
      <psa10 value="0.0106159604" flag="0"/>
      <psa30 value="0.0012561160" flag="0"/>
    </comp>
  </station>
  <station code="THRA" name="THRA" netid="HL" insttype="CMG-5" commtype="DIG" lat="36.415" lon="25.4324">
    <comp name="00.HNN">
      <acc value="0.2889294672" flag="0"/>
      <vel value="0.0854173435" flag="0"/>
      <psa03 value="0.8000818062" flag="0"/>
      <psa10 value="0.0744617709" flag="0"/>
      <psa30 value="0.0048564494" flag="0"/>
    </comp>
    <comp name="00.HNZ">
      <acc value="0.2682441422" flag="0"/>
      <vel value="0.0652043752" flag="0"/>
      <psa03 value="0.4691041704" flag="0"/>
      <psa10 value="0.0411401584" flag="0"/>
      <psa30 value="0.0029901074" flag="0"/>
    </comp>
    <comp name="00.HNE">
      <acc value="0.3117453595" flag="0"/>
      <vel value="0.1029264708" flag="0"/>
      <psa03 value="0.7049427673" flag="0"/>
      <psa10 value="0.0671740338" flag="0"/>
      <psa30 value="0.0050972765" flag="0"/>
    </comp>
  </station>
  <station code="TNSA" name="TNSA" netid="HL" insttype="CMG-5" commtype="DIG" lat="37.5394" lon="25.1631">
    <comp name="00.HNN">
      <acc value="0.0532047406" flag="0"/>
      <vel value="0.0177961345" flag="0"/>
      <psa03 value="0.0566396829" flag="0"/>
      <psa10 value="0.0049469923" flag="0"/>
      <psa30 value="0.0006367406" flag="0"/>
    </comp>
    <comp name="00.HNE">
      <acc value="0.0480250917" flag="0"/>
      <vel value="0.0104378596" flag="0"/>
      <psa03 value="0.0589158940" flag="0"/>
      <psa10 value="0.0052073592" flag="0"/>
      <psa30 value="0.0006265233" flag="0"/>
    </comp>
    <comp name="00.HNZ">
      <acc value="0.0317681934" flag="0"/>
      <vel value="0.0087225446" flag="0"/>
      <psa03 value="0.0512024297" flag="0"/>
      <psa10 value="0.0071107997" flag="0"/>
      <psa30 value="0.0007087394" flag="0"/>
    </comp>
  </station>
  <station code="AKRO" name="AKRO" netid="HT" insttype="Compact," commtype="DIG" lat="36.3584" lon="25.3967">
    <comp name="--.HHN">
      <acc value="0.3634619241" flag="0"/>
      <vel value="0.0827873523" flag="0"/>
      <psa03 value="0.4131103715" flag="0"/>
      <psa10 value="0.0290641426" flag="0"/>
      <psa30 value="0.0024133971" flag="0"/>
    </comp>
    <comp name="--.HHE">
      <acc value="0.4691675242" flag="0"/>
      <vel value="0.1378498754" flag="0"/>
      <psa03 value="0.9942864907" flag="0"/>
      <psa10 value="0.0418261333" flag="0"/>
      <psa30 value="0.0031301138" flag="0"/>
    </comp>
    <comp name="--.HHZ">
      <acc value="0.2569246052" flag="0"/>
      <vel value="0.0644257927" flag="0"/>
      <psa03 value="0.3512923390" flag="0"/>
      <psa10 value="0.0189930308" flag="0"/>
      <psa30 value="0.0016032236" flag="0"/>
    </comp>
  </station>
  <station code="ANYD" name="ANYD" netid="HT" insttype="120" commtype="DIG" lat="36.63" lon="25.6779">
    <comp name="--.HHZ">
      <acc value="1.3125074736" flag="0"/>
      <vel value="0.1845912097" flag="0"/>
      <psa03 value="0.6434229761" flag="0"/>
      <psa10 value="0.1694684536" flag="0"/>
      <psa30 value="0.0106551024" flag="0"/>
    </comp>
    <comp name="--.HHE">
      <acc value="1.6602958102" flag="0"/>
      <vel value="0.6950294842" flag="0"/>
      <psa03 value="3.1370037266" flag="0"/>
      <psa10 value="0.2678845054" flag="0"/>
      <psa30 value="0.0230187340" flag="0"/>
    </comp>
    <comp name="--.HHN">
      <acc value="1.1912870973" flag="0"/>
      <vel value="0.5241888184" flag="0"/>
      <psa03 value="1.2918873169" flag="0"/>
      <psa10 value="0.3807991549" flag="0"/>
      <psa30 value="0.0404015032" flag="0"/>
    </comp>
  </station>
  <station code="CMBO" name="CMBO" netid="HT" insttype="120P," commtype="DIG" lat="36.4709" lon="25.4056">
    <comp name="--.HHE">
      <acc value="0.1848506659" flag="0"/>
      <vel value="0.0454012466" flag="0"/>
      <psa03 value="0.1846284105" flag="0"/>
      <psa10 value="0.0300613300" flag="0"/>
      <psa30 value="0.0022575466" flag="0"/>
    </comp>
    <comp name="--.HHN">
      <acc value="0.2436227681" flag="0"/>
      <vel value="0.0553778490" flag="0"/>
      <psa03 value="0.3075718536" flag="0"/>
      <psa10 value="0.0277084689" flag="0"/>
      <psa30 value="0.0022170088" flag="0"/>
    </comp>
    <comp name="--.HHZ">
      <acc value="0.1461590120" flag="0"/>
      <vel value="0.0402887255" flag="0"/>
      <psa03 value="0.2306925979" flag="0"/>
      <psa10 value="0.0147159634" flag="0"/>
      <psa30 value="0.0012716296" flag="0"/>
    </comp>
  </station>
  <station code="THR3" name="THR3" netid="HT" insttype="" commtype="DIG" lat="36.4091" lon="25.4008">
    <comp name="--.HHE">
