<?xml version="1.0" encoding="UTF-8" standalone="yes"?>
<!DOCTYPE earthquake SYSTEM "stationlist.dtd">
<stationlist created="" xmlns="ch.ethz.sed.shakemap.usgs.xml">
  <station code="ALAN" name="ALAN" netid="KO" insttype="CMG-5T" lat="36.557" lon="32.0327">
    <comp name="--.HNZ">
      <acc value="0.0670818998" flag="0"/>
      <vel value="0.0115508668" flag="0"/>
      <psa03 value="0.0326873631" flag="0"/>
      <psa10 value="0.0030970953" flag="0"/>
      <psa30 value="0.0004019890" flag="0"/>
    </comp>
    <comp name="--.HNE">
      <acc value="0.1444802182" flag="0"/>
      <vel value="0.0450583461" flag="0"/>
      <psa03 value="0.1162519726" flag="0"/>
      <psa10 value="0.0111477272" flag="0"/>
      <psa30 value="0.0009507404" flag="0"/>
    </comp>
    <comp name="--.HNN">
      <acc value="0.1714545089" flag="0"/>
      <vel value="0.0399027192" flag="0"/>
      <psa03 value="0.1315596658" flag="0"/>
      <psa10 value="0.0064443479" flag="0"/>
      <psa30 value="0.0005966612" flag="0"/>
    </comp>
  </station>
  <station code="HDMB" name="HDMB" netid="KO" insttype="CMG-3T" lat="36.9638" lon="32.4857">
    <comp name="--.HHE">
      <acc value="0.0229769087" flag="0"/>
      <vel value="0.0085079659" flag="0"/>
      <psa03 value="0.0566367506" flag="0"/>
      <psa10 value="0.0070892971" flag="0"/>
      <psa30 value="0.0002424937" flag="0"/>
    </comp>
    <comp name="--.HHN">
      <acc value="0.0163098388" flag="0"/>
      <vel value="0.0054493484" flag="0"/>
      <psa03 value="0.0438432922" flag="0"/>
      <psa10 value="0.0020548994" flag="0"/>
      <psa30 value="0.0002949271" flag="0"/>
    </comp>
    <comp name="--.HHZ">
      <acc value="0.0106757574" flag="0"/>
      <vel value="0.0040702013" flag="0"/>
      <psa03 value="0.0253517056" flag="0"/>
      <psa10 value="0.0018951117" flag="0"/>
      <psa30 value="0.0001315292" flag="0"/>
    </comp>
  </station>
  <station code="MNVG" name="MNVG" netid="KO" insttype="CMG-5T" lat="36.7935" lon="31.4161">
    <comp name="--.HNE">
      <acc value="0.0696110185" flag="0"/>
      <vel value="0.0226470155" flag="0"/>
      <psa03 value="0.1337507762" flag="0"/>
      <psa10 value="0.0080443736" flag="0"/>
      <psa30 value="0.0009349731" flag="0"/>
    </comp>
    <comp name="--.HNN">
      <acc value="0.0729135637" flag="0"/>
      <vel value="0.0200845507" flag="0"/>
      <psa03 value="0.1300527340" flag="0"/>
      <psa10 value="0.0139875031" flag="0"/>
      <psa30 value="0.0010815449" flag="0"/>
    </comp>
    <comp name="--.HNZ">
      <acc value="0.0582134533" flag="0"/>
      <vel value="0.0171592207" flag="0"/>
      <psa03 value="0.1331676343" flag="0"/>
      <psa10 value="0.0054500513" flag="0"/>
      <psa30 value="0.0005105222" flag="0"/>
    </comp>
  </station>
</stationlist>
