<?xml version="1.0" encoding="UTF-8" standalone="yes"?>
<!DOCTYPE earthquake SYSTEM "stationlist.dtd">
<stationlist created="" xmlns="ch.ethz.sed.shakemap.usgs.xml">
  <station code="MAZI" name="MAZI" netid="KO" insttype="CMG-3T" lat="37.4593" lon="40.4465">
    <comp name="--.HHZ">
      <acc value="0.0082506653" flag="0"/>
      <vel value="0.0024964296" flag="0"/>
      <psa03 value="0.0119818373" flag="0"/>
      <psa10 value="0.0012076378" flag="0"/>
      <psa30 value="0.0000668151" flag="0"/>
    </comp>
    <comp name="--.HHE">
      <acc value="0.0118997970" flag="0"/>
      <vel value="0.0020090434" flag="0"/>
      <psa03 value="0.0108516143" flag="0"/>
      <psa10 value="0.0008891028" flag="0"/>
      <psa30 value="0.0000503512" flag="0"/>
    </comp>
    <comp name="--.HHN">
      <acc value="0.0085102336" flag="0"/>
      <vel value="0.0024028874" flag="0"/>
      <psa03 value="0.0115590712" flag="0"/>
      <psa10 value="0.0009555159" flag="0"/>
      <psa30 value="0.0000679993" flag="0"/>
    </comp>
  </station>
</stationlist>
