<?xml version="1.0" encoding="UTF-8" standalone="yes"?>
<!DOCTYPE earthquake SYSTEM "stationlist.dtd">
<stationlist created="" xmlns="ch.ethz.sed.shakemap.usgs.xml">
  <station code="KALE" name="KALE" netid="HA" insttype="40," lat="38.3911" lon="22.1398">
    <comp name="--.HHE">
      <acc value="0.0015548728" flag="0"/>
      <vel value="0.0012298090" flag="0"/>
      <psa03 value="0.0049725360" flag="0"/>
      <psa10 value="0.0016587277" flag="0"/>
      <psa30 value="0.0003817301" flag="0"/>
    </comp>
    <comp name="--.HHZ">
      <acc value="0.0012016966" flag="0"/>
      <vel value="0.0007516589" flag="0"/>
      <psa03 value="0.0038555276" flag="0"/>
      <psa10 value="0.0009705642" flag="0"/>
      <psa30 value="0.0004668264" flag="0"/>
    </comp>
    <comp name="--.HHN">
      <acc value="0.0023700689" flag="0"/>
      <vel value="0.0014740171" flag="0"/>
      <psa03 value="0.0079804190" flag="0"/>
      <psa10 value="0.0012978674" flag="0"/>
      <psa30 value="0.0004244288" flag="0"/>
    </comp>
  </station>
  <station code="LAKA" name="LAKA" netid="HA" insttype="120s" lat="38.2401" lon="21.9785">
    <comp name="--.HHN">
      <acc value="0.0000318831" flag="0"/>
      <vel value="0.0000032362" flag="0"/>
      <psa03 value="0.0000100641" flag="0"/>
      <psa10 value="0.0000030232" flag="0"/>
      <psa30 value="0.0000004650" flag="0"/>
    </comp>
    <comp name="--.HHZ">
      <acc value="0.0008353386" flag="0"/>
      <vel value="0.0007616730" flag="0"/>
      <psa03 value="0.0021401483" flag="0"/>
      <psa10 value="0.0019431128" flag="0"/>
      <psa30 value="0.0002590638" flag="0"/>
    </comp>
    <comp name="--.HHE">
      <acc value="0.0000317453" flag="0"/>
      <vel value="0.0000034793" flag="0"/>
      <psa03 value="0.0000115393" flag="0"/>
      <psa10 value="0.0000030592" flag="0"/>
      <psa30 value="0.0000004913" flag="0"/>
    </comp>
  </station>
  <station code="MSL1" name="MSL1" netid="HI" insttype="CMG-5TD,ACCELEROMETER,GURALP" lat="38.3727" lon="21.4243">
    <comp name="--.HNZ">
      <acc value="0.0113820721" flag="0"/>
      <vel value="0.0095375561" flag="0"/>
      <psa03 value="0.0283797261" flag="0"/>
      <psa10 value="0.0167234530" flag="0"/>
      <psa30 value="0.0006467926" flag="0"/>
    </comp>
    <comp name="--.HNN">
      <acc value="0.0210993336" flag="0"/>
      <vel value="0.0157767552" flag="0"/>
      <psa03 value="0.0708028051" flag="0"/>
      <psa10 value="0.0203911574" flag="0"/>
      <psa30 value="0.0016337380" flag="0"/>
    </comp>
    <comp name="--.HNE">
      <acc value="0.0294316308" flag="0"/>
      <vel value="0.0229287792" flag="0"/>
      <psa03 value="0.0756690289" flag="0"/>
      <psa10 value="0.0305964535" flag="0"/>
      <psa30 value="0.0034895681" flag="0"/>
    </comp>
  </station>
  <station code="EVR" name="EVR" netid="HL" insttype="DR24" lat="38.9166" lon="21.8105">
    <comp name="--.HHE">
      <acc value="0.0037901333" flag="0"/>
      <vel value="0.0016096138" flag="0"/>
      <psa03 value="0.0067519645" flag="0"/>
      <psa10 value="0.0014907269" flag="0"/>
      <psa30 value="0.0003424086" flag="0"/>
    </comp>
    <comp name="--.HHZ">
      <acc value="0.0022538139" flag="0"/>
      <vel value="0.0012985633" flag="0"/>
      <psa03 value="0.0051742155" flag="0"/>
      <psa10 value="0.0016950209" flag="0"/>
      <psa30 value="0.0001967083" flag="0"/>
    </comp>
    <comp name="--.HHN">
      <acc value="0.0031583951" flag="0"/>
      <vel value="0.0012369243" flag="0"/>
      <psa03 value="0.0059808365" flag="0"/>
      <psa10 value="0.0013763765" flag="0"/>
      <psa30 value="0.0002170200" flag="0"/>
    </comp>
  </station>
  <station code="JAN" name="JAN" netid="HL" insttype="CMG3EPSC60_DR24" lat="39.6562" lon="20.8487">
    <comp name="--.HHE">
      <acc value="0.0038108947" flag="0"/>
      <vel value="0.0024280273" flag="0"/>
      <psa03 value="0.0137923522" flag="0"/>
      <psa10 value="0.0019514244" flag="0"/>
      <psa30 value="0.0002529111" flag="0"/>
    </comp>
    <comp name="--.HHN">
      <acc value="0.0035265217" flag="0"/>
      <vel value="0.0017320459" flag="0"/>
      <psa03 value="0.0086538171" flag="0"/>
      <psa10 value="0.0032220147" flag="0"/>
      <psa30 value="0.0002539494" flag="0"/>
    </comp>
    <comp name="--.HHZ">
      <acc value="0.0022596981" flag="0"/>
      <vel value="0.0017802206" flag="0"/>
      <psa03 value="0.0064362410" flag="0"/>
      <psa10 value="0.0023415599" flag="0"/>
      <psa30 value="0.0002164225" flag="0"/>
    </comp>
  </station>
  <station code="ORTH" name="ORTH" netid="HL" insttype="30" lat="37.8511" lon="20.6963">
    <comp name="--.HHE">
      <acc value="0.0030634081" flag="0"/>
      <vel value="0.0020899935" flag="0"/>
      <psa03 value="0.0103748439" flag="0"/>
      <psa10 value="0.0015581038" flag="0"/>
      <psa30 value="0.0001269525" flag="0"/>
    </comp>
    <comp name="--.HHN">
      <acc value="0.0033198615" flag="0"/>
      <vel value="0.0018807913" flag="0"/>
      <psa03 value="0.0128595128" flag="0"/>
      <psa10 value="0.0023211217" flag="0"/>
      <psa30 value="0.0001569712" flag="0"/>
    </comp>
    <comp name="--.HHZ">
      <acc value="0.0010172545" flag="0"/>
      <vel value="0.0005285777" flag="0"/>
      <psa03 value="0.0031847183" flag="0"/>
      <psa10 value="0.0007716063" flag="0"/>
      <psa30 value="0.0000583856" flag="0"/>
    </comp>
  </station>
  <station code="RLS" name="RLS" netid="HL" insttype="CMG3ESPC-120s" lat="38.0559" lon="21.4647">
    <comp name="--.HHZ">
      <acc value="0.0012149326" flag="0"/>
      <vel value="0.0008557480" flag="0"/>
      <psa03 value="0.0033778318" flag="0"/>
      <psa10 value="0.0013310052" flag="0"/>
      <psa30 value="0.0001322813" flag="0"/>
    </comp>
    <comp name="--.HHN">
      <acc value="0.0007504337" flag="0"/>
      <vel value="0.0003177758" flag="0"/>
      <psa03 value="0.0022692701" flag="0"/>
      <psa10 value="0.0003111712" flag="0"/>
      <psa30 value="0.0000210061" flag="0"/>
    </comp>
    <comp name="--.HHE">
      <acc value="0.0008540222" flag="0"/>
      <vel value="0.0004045799" flag="0"/>
      <psa03 value="0.0017801586" flag="0"/>
      <psa10 value="0.0002742677" flag="0"/>
      <psa30 value="0.0000244126" flag="0"/>
    </comp>
  </station>
  <station code="TETR" name="TETR" netid="HL" insttype="60" lat="39.3445" lon="21.2747">
    <comp name="--.HHE">
      <acc value="0.0227988315" flag="0"/>
      <vel value="0.0086875168" flag="0"/>
      <psa03 value="0.0410138280" flag="0"/>
      <psa10 value="0.0046920772" flag="0"/>
      <psa30 value="0.0005985998" flag="0"/>
    </comp>
    <comp name="--.HHZ">
      <acc value="0.0079131946" flag="0"/>
      <vel value="0.0024796785" flag="0"/>
      <psa03 value="0.0168202127" flag="0"/>
      <psa10 value="0.0031132825" flag="0"/>
      <psa30 value="0.0001858733" flag="0"/>
    </comp>
    <comp name="--.HHN">
      <acc value="0.0163447807" flag="0"/>
      <vel value="0.0055739381" flag="0"/>
      <psa03 value="0.0400654723" flag="0"/>
      <psa10 value="0.0047461228" flag="0"/>
      <psa30 value="0.0004695769" flag="0"/>
    </comp>
  </station>
  <station code="THL" name="THL" netid="HL" insttype="120" lat="39.5647" lon="22.0144">
    <comp name="--.HHE">
      <acc value="0.0007729625" flag="0"/>
      <vel value="0.0006003736" flag="0"/>
      <psa03 value="0.0029355576" flag="0"/>
      <psa10 value="0.0008022329" flag="0"/>
      <psa30 value="0.0000712982" flag="0"/>
    </comp>
    <comp name="--.HHN">
      <acc value="0.0006213568" flag="0"/>
      <vel value="0.0006387010" flag="0"/>
      <psa03 value="0.0016421327" flag="0"/>
      <psa10 value="0.0006860339" flag="0"/>
      <psa30 value="0.0000882517" flag="0"/>
    </comp>
    <comp name="--.HHZ">
      <acc value="0.0005988189" flag="0"/>
      <vel value="0.0005856857" flag="0"/>
      <psa03 value="0.0016393922" flag="0"/>
      <psa10 value="0.0010230946" flag="0"/>
      <psa30 value="0.0000563613" flag="0"/>
    </comp>
  </station>
  <station code="VLS" name="VLS" netid="HL" insttype="120P," lat="38.1768" lon="20.5886">
    <comp name="--.HHE">
      <acc value="0.0062267962" flag="0"/>
      <vel value="0.0014825688" flag="0"/>
      <psa03 value="0.0095178492" flag="0"/>
      <psa10 value="0.0009484002" flag="0"/>
      <psa30 value="0.0001815349" flag="0"/>
    </comp>
    <comp name="--.HHN">
      <acc value="0.0080575320" flag="0"/>
      <vel value="0.0021719272" flag="0"/>
      <psa03 value="0.0091473168" flag="0"/>
      <psa10 value="0.0013492909" flag="0"/>
      <psa30 value="0.0001448968" flag="0"/>
    </comp>
    <comp name="--.HHZ">
      <acc value="0.0026349763" flag="0"/>
      <vel value="0.0010606327" flag="0"/>
      <psa03 value="0.0053521416" flag="0"/>
      <psa10 value="0.0009248229" flag="0"/>
      <psa30 value="0.0001465593" flag="0"/>
    </comp>
  </station>
  <station code="AMPL" name="AMPL" netid="HP" insttype="Compact," lat="38.9224" lon="21.2135">
    <comp name="--.HHN">
      <acc value="0.0916312292" flag="0"/>
      <vel value="0.0192619533" flag="0"/>
      <psa03 value="0.0739939989" flag="0"/>
      <psa10 value="0.0098670927" flag="0"/>
      <psa30 value="0.0008737732" flag="0"/>
    </comp>
    <comp name="--.HHE">
      <acc value="0.0527134476" flag="0"/>
      <vel value="0.0157947600" flag="0"/>
      <psa03 value="0.0563098507" flag="0"/>
      <psa10 value="0.0210569580" flag="0"/>
      <psa30 value="0.0007659587" flag="0"/>
    </comp>
    <comp name="--.HHZ">
      <acc value="0.0426339450" flag="0"/>
      <vel value="0.0152749945" flag="0"/>
      <psa03 value="0.0623816308" flag="0"/>
      <psa10 value="0.0233386911" flag="0"/>
      <psa30 value="0.0009554057" flag="0"/>
    </comp>
  </station>
  <station code="ANX" name="ANX" netid="HP" insttype="120" lat="38.5933" lon="21.9209">
    <comp name="--.HHE">
      <acc value="0.0031424459" flag="0"/>
      <vel value="0.0022967309" flag="0"/>
      <psa03 value="0.0104356229" flag="0"/>
      <psa10 value="0.0026807614" flag="0"/>
      <psa30 value="0.0007231526" flag="0"/>
    </comp>
    <comp name="--.HHN">
      <acc value="0.0040409139" flag="0"/>
      <vel value="0.0028857417" flag="0"/>
      <psa03 value="0.0114119440" flag="0"/>
      <psa10 value="0.0038119854" flag="0"/>
      <psa30 value="0.0002372944" flag="0"/>
    </comp>
    <comp name="--.HHZ">
      <acc value="0.0023158468" flag="0"/>
      <vel value="0.0014953349" flag="0"/>
      <psa03 value="0.0082835054" flag="0"/>
      <psa10 value="0.0021657281" flag="0"/>
      <psa30 value="0.0004704701" flag="0"/>
    </comp>
  </station>
  <station code="AXS" name="AXS" netid="HP" insttype="40," lat="38.1962" lon="21.3763">
    <comp name="--.HHE">
      <acc value="0.0019864078" flag="0"/>
      <vel value="0.0016225170" flag="0"/>
      <psa03 value="0.0082616501" flag="0"/>
      <psa10 value="0.0019827356" flag="0"/>
      <psa30 value="0.0001723933" flag="0"/>
    </comp>
    <comp name="--.HHN">
      <acc value="0.0018745513" flag="0"/>
      <vel value="0.0011740356" flag="0"/>
      <psa03 value="0.0054575141" flag="0"/>
      <psa10 value="0.0013787771" flag="0"/>
      <psa30 value="0.0001448113" flag="0"/>
    </comp>
    <comp name="--.HHZ">
      <acc value="0.0011477867" flag="0"/>
      <vel value="0.0007088503" flag="0"/>
      <psa03 value="0.0027855857" flag="0"/>
      <psa10 value="0.0008778018" flag="0"/>
      <psa30 value="0.0001205287" flag="0"/>
    </comp>
  </station>
  <station code="DRO" name="DRO" netid="HP" insttype="120P," lat="37.952" lon="21.71">
    <comp name="--.HHZ">
      <acc value="0.0018442365" flag="0"/>
      <vel value="0.0013952796" flag="0"/>
      <psa03 value="0.0061066677" flag="0"/>
      <psa10 value="0.0016344920" flag="0"/>
      <psa30 value="0.0001003882" flag="0"/>
    </comp>
    <comp name="--.HHN">
      <acc value="0.0051236359" flag="0"/>
      <vel value="0.0030450972" flag="0"/>
      <psa03 value="0.0164413177" flag="0"/>
      <psa10 value="0.0021516595" flag="0"/>
      <psa30 value="0.0001815369" flag="0"/>
    </comp>
    <comp name="--.HHE">
      <acc value="0.0028516927" flag="0"/>
      <vel value="0.0017831920" flag="0"/>
      <psa03 value="0.0069070870" flag="0"/>
      <psa10 value="0.0016343364" flag="0"/>
      <psa30 value="0.0001098795" flag="0"/>
    </comp>
  </station>
  <station code="EFP" name="EFP" netid="HP" insttype="40," lat="38.4269" lon="21.9058">
    <comp name="--.HHE">
      <acc value="0.0041944205" flag="0"/>
      <vel value="0.0023259070" flag="0"/>
      <psa03 value="0.0155373936" flag="0"/>
      <psa10 value="0.0024862574" flag="0"/>
      <psa30 value="0.0003897825" flag="0"/>
    </comp>
    <comp name="--.HHN">
      <acc value="0.0040439918" flag="0"/>
      <vel value="0.0028266245" flag="0"/>
      <psa03 value="0.0129176019" flag="0"/>
      <psa10 value="0.0031943687" flag="0"/>
      <psa30 value="0.0006517822" flag="0"/>
    </comp>
    <comp name="--.HHZ">
      <acc value="0.0022957006" flag="0"/>
      <vel value="0.0016377027" flag="0"/>
      <psa03 value="0.0055899538" flag="0"/>
      <psa10 value="0.0023071215" flag="0"/>
      <psa30 value="0.0006269798" flag="0"/>
    </comp>
  </station>
  <station code="FSK" name="FSK" netid="HP" insttype="40," lat="38.4593" lon="20.5623">
    <comp name="--.HHE">
      <acc value="0.0123045161" flag="0"/>
      <vel value="0.0047387489" flag="0"/>
      <psa03 value="0.0275901804" flag="0"/>
      <psa10 value="0.0038213744" flag="0"/>
      <psa30 value="0.0004371775" flag="0"/>
    </comp>
    <comp name="--.HHZ">
      <acc value="0.0055221251" flag="0"/>
      <vel value="0.0027693270" flag="0"/>
      <psa03 value="0.0138634326" flag="0"/>
      <psa10 value="0.0033706433" flag="0"/>
      <psa30 value="0.0004462915" flag="0"/>
    </comp>
    <comp name="--.HHN">
      <acc value="0.0065935246" flag="0"/>
      <vel value="0.0027003981" flag="0"/>
      <psa03 value="0.0190657763" flag="0"/>
      <psa10 value="0.0031514048" flag="0"/>
      <psa30 value="0.0006521712" flag="0"/>
    </comp>
  </station>
  <station code="KSTR" name="KSTR" netid="HP" insttype="Compact," lat="39.2492" lon="20.576">
    <comp name="--.HHZ">
      <acc value="0.0030571687" flag="0"/>
      <vel value="0.0008224867" flag="0"/>
      <psa03 value="0.0045480723" flag="0"/>
      <psa10 value="0.0012599395" flag="0"/>
      <psa30 value="0.0001736212" flag="0"/>
    </comp>
    <comp name="--.HHN">
      <acc value="0.0040884978" flag="0"/>
      <vel value="0.0017206526" flag="0"/>
      <psa03 value="0.0067197922" flag="0"/>
      <psa10 value="0.0027053978" flag="0"/>
      <psa30 value="0.0001170924" flag="0"/>
    </comp>
    <comp name="--.HHE">
      <acc value="0.0038389426" flag="0"/>
      <vel value="0.0013193082" flag="0"/>
      <psa03 value="0.0080698802" flag="0"/>
      <psa10 value="0.0017550238" flag="0"/>
      <psa30 value="0.0002285676" flag="0"/>
    </comp>
  </station>
  <station code="PDO" name="PDO" netid="HP" insttype="120s" lat="38.5986" lon="21.1833">
    <comp name="--.HHN">
      <acc value="0.0554879022" flag="0"/>
      <vel value="0.0230040026" flag="0"/>
      <psa03 value="0.2050673017" flag="0"/>
      <psa10 value="0.0221072679" flag="0"/>
      <psa30 value="0.0014856769" flag="0"/>
    </comp>
    <comp name="--.HHE">
      <acc value="0.0405974311" flag="0"/>
      <vel value="0.0175266114" flag="0"/>
      <psa03 value="0.1137572560" flag="0"/>
      <psa10 value="0.0232999552" flag="0"/>
      <psa30 value="0.0010608989" flag="0"/>
    </comp>
    <comp name="--.HHZ">
      <acc value="0.0300857796" flag="0"/>
      <vel value="0.0102770839" flag="0"/>
      <psa03 value="0.0713835254" flag="0"/>
      <psa10 value="0.0083401953" flag="0"/>
      <psa30 value="0.0010284175" flag="0"/>
    </comp>
  </station>
  <station code="PRMD" name="PRMD" netid="HP" insttype="120P," lat="39.5299" lon="21.0965">
    <comp name="--.HHE">
      <acc value="0.0046391641" flag="0"/>
      <vel value="0.0021830324" flag="0"/>
      <psa03 value="0.0134303116" flag="0"/>
      <psa10 value="0.0025659667" flag="0"/>
      <psa30 value="0.0008323898" flag="0"/>
    </comp>
    <comp name="--.HHN">
      <acc value="0.0043521385" flag="0"/>
      <vel value="0.0016506956" flag="0"/>
      <psa03 value="0.0095887453" flag="0"/>
      <psa10 value="0.0022566704" flag="0"/>
      <psa30 value="0.0004132312" flag="0"/>
    </comp>
    <comp name="--.HHZ">
      <acc value="0.0027073245" flag="0"/>
      <vel value="0.0013764472" flag="0"/>
      <psa03 value="0.0078284896" flag="0"/>
      <psa10 value="0.0021817194" flag="0"/>
      <psa30 value="0.0005081359" flag="0"/>
    </comp>
  </station>
  <station code="PVO" name="PVO" netid="HP" insttype="120P," lat="38.616" lon="21.525">
    <comp name="--.HHE">
      <acc value="0.0132245116" flag="0"/>
      <vel value="0.0062376615" flag="0"/>
      <psa03 value="0.0322489017" flag="0"/>
      <psa10 value="0.0083026572" flag="0"/>
      <psa30 value="0.0009242344" flag="0"/>
    </comp>
    <comp name="--.HHN">
      <acc value="0.0148394103" flag="0"/>
      <vel value="0.0068664025" flag="0"/>
      <psa03 value="0.0304345977" flag="0"/>
      <psa10 value="0.0058538286" flag="0"/>
      <psa30 value="0.0011904503" flag="0"/>
    </comp>
    <comp name="--.HHZ">
      <acc value="0.0079853314" flag="0"/>
      <vel value="0.0040861619" flag="0"/>
      <psa03 value="0.0164514145" flag="0"/>
      <psa10 value="0.0031812362" flag="0"/>
      <psa30 value="0.0013227779" flag="0"/>
    </comp>
  </station>
  <station code="SERG" name="SERG" netid="HP" insttype="2000" lat="38.4133" lon="22.0566">
    <comp name="00.HHN">
      <acc value="0.0035893620" flag="0"/>
      <vel value="0.0023036772" flag="0"/>
      <psa03 value="0.0110657097" flag="0"/>
      <psa10 value="0.0018793208" flag="0"/>
      <psa30 value="0.0003842827" flag="0"/>
    </comp>
    <comp name="00.HHZ">
      <acc value="0.0024450098" flag="0"/>
      <vel value="0.0014554203" flag="0"/>
      <psa03 value="0.0060762923" flag="0"/>
      <psa10 value="0.0022756893" flag="0"/>
      <psa30 value="0.0005362914" flag="0"/>
    </comp>
    <comp name="00.HHE">
      <acc value="0.0030329396" flag="0"/>
      <vel value="0.0022996588" flag="0"/>
      <psa03 value="0.0115570168" flag="0"/>
      <psa10 value="0.0025809005" flag="0"/>
      <psa30 value="0.0005549316" flag="0"/>
    </comp>
  </station>
  <station code="VVK" name="VVK" netid="HP" insttype="40," lat="38.4222" lon="21.8115">
    <comp name="--.HHZ">
      <acc value="0.0024540626" flag="0"/>
      <vel value="0.0014779631" flag="0"/>
      <psa03 value="0.0056457703" flag="0"/>
      <psa10 value="0.0014159258" flag="0"/>
      <psa30 value="0.0008895747" flag="0"/>
    </comp>
    <comp name="--.HHE">
      <acc value="0.0032980930" flag="0"/>
      <vel value="0.0023464811" flag="0"/>
      <psa03 value="0.0079740476" flag="0"/>
      <psa10 value="0.0021922033" flag="0"/>
      <psa30 value="0.0005547482" flag="0"/>
    </comp>
    <comp name="--.HHN">
      <acc value="0.0029554511" flag="0"/>
      <vel value="0.0021927236" flag="0"/>
      <psa03 value="0.0091435383" flag="0"/>
      <psa10 value="0.0025823012" flag="0"/>
      <psa30 value="0.0009401315" flag="0"/>
    </comp>
  </station>
  <station code="AGG" name="AGG" netid="HT" insttype="120P," lat="39.0211" lon="22.336">
    <comp name="--.HHE">
      <acc value="0.0014503023" flag="0"/>
      <vel value="0.0008883743" flag="0"/>
      <psa03 value="0.0048378622" flag="0"/>
      <psa10 value="0.0008330214" flag="0"/>
      <psa30 value="0.0001453806" flag="0"/>
    </comp>
    <comp name="--.HHN">
      <acc value="0.0021142689" flag="0"/>
      <vel value="0.0014425938" flag="0"/>
      <psa03 value="0.0057689046" flag="0"/>
