<?xml version="1.0" encoding="UTF-8" standalone="yes"?>
<!DOCTYPE earthquake SYSTEM "stationlist.dtd">
<stationlist created="" xmlns="ch.ethz.sed.shakemap.usgs.xml">
  <station code="GAZ" name="GAZ" netid="KO" insttype="CMG-3T" lat="37.1721" lon="37.2096">
    <comp name="--.HHN">
      <acc value="0.0106713090" flag="0"/>
      <vel value="0.0047047332" flag="0"/>
      <psa03 value="0.0166061309" flag="0"/>
      <psa10 value="0.0066824190" flag="0"/>
      <psa30 value="0.0009828584" flag="0"/>
    </comp>
    <comp name="--.HHE">
      <acc value="0.0135902960" flag="0"/>
      <vel value="0.0069751441" flag="0"/>
      <psa03 value="0.0304409474" flag="0"/>
      <psa10 value="0.0129260043" flag="0"/>
      <psa30 value="0.0017443543" flag="0"/>
    </comp>
  </station>
  <station code="KMRS" name="KMRS" netid="KO" insttype="CMG-3T" lat="37.5053" lon="36.9">
    <comp name="--.HHE">
      <acc value="0.0073840552" flag="0"/>
      <vel value="0.0046789368" flag="0"/>
      <psa03 value="0.0201142202" flag="0"/>
      <psa10 value="0.0065678598" flag="0"/>
      <psa30 value="0.0011945260" flag="0"/>
    </comp>
    <comp name="--.HHN">
      <acc value="0.0112578725" flag="0"/>
      <vel value="0.0062984358" flag="0"/>
      <psa03 value="0.0204838011" flag="0"/>
      <psa10 value="0.0054285789" flag="0"/>
      <psa30 value="0.0018444062" flag="0"/>
    </comp>
    <comp name="--.HHZ">
      <acc value="0.0052378253" flag="0"/>
      <vel value="0.0033720581" flag="0"/>
      <psa03 value="0.0126423968" flag="0"/>
      <psa10 value="0.0038161305" flag="0"/>
      <psa30 value="0.0010221587" flag="0"/>
    </comp>
  </station>
  <station code="URFA" name="URFA" netid="KO" insttype="CMG-3ESP" lat="37.4409" lon="38.8213">
    <comp name="--.HHE">
      <acc value="0.0321961038" flag="0"/>
      <vel value="0.0142402608" flag="0"/>
      <psa03 value="0.0432586099" flag="0"/>
      <psa10 value="0.0202262329" flag="0"/>
      <psa30 value="0.0010470537" flag="0"/>
    </comp>
    <comp name="--.HHN">
      <acc value="0.0240416565" flag="0"/>
      <vel value="0.0105834594" flag="0"/>
      <psa03 value="0.0268216739" flag="0"/>
      <psa10 value="0.0131630139" flag="0"/>
      <psa30 value="0.0012107573" flag="0"/>
    </comp>
  </station>
</stationlist>
