<?xml version="1.0" encoding="UTF-8" standalone="yes"?>
<!DOCTYPE earthquake SYSTEM "stationlist.dtd">
<stationlist created="" xmlns="ch.ethz.sed.shakemap.usgs.xml">
  <station code="TIRR" name="TIRR" netid="GE" insttype="STS-2/N" lat="44.4581" lon="28.4128">
    <comp name="--.HHN">
      <acc value="0.0575002019" flag="0"/>
      <vel value="0.0090472789" flag="0"/>
      <psa03 value="0.0230424729" flag="0"/>
      <psa10 value="0.0031236353" flag="0"/>
      <psa30 value="0.0002567249" flag="0"/>
    </comp>
    <comp name="--.HHZ">
      <acc value="0.0271491797" flag="0"/>
      <vel value="0.0038462880" flag="0"/>
      <psa03 value="0.0171804814" flag="0"/>
      <psa10 value="0.0013893420" flag="0"/>
      <psa30 value="0.0001056823" flag="0"/>
    </comp>
    <comp name="--.HHE">
      <acc value="0.0646587557" flag="0"/>
      <vel value="0.0062784491" flag="0"/>
      <psa03 value="0.0089776804" flag="0"/>
      <psa10 value="0.0006555007" flag="0"/>
      <psa30 value="0.0000571285" flag="0"/>
    </comp>
  </station>
</stationlist>
