<stationlist created="1778069861">
	<station code="PHP" name="PHP" netid="AC" source="Albanian Seismological Network (AC)" insttype="" lat="41.6847" lon="20.4408">
		<comp name="--.HNE" depth="0.0">
			<acc value="0.380572900908123" flag="0"/>
			<vel value="0.140999540735719" flag="0"/>
			<psa03 value="0.666231467896182" flag="0"/>
			<psa10 value="0.180171085450138" flag="0"/>
			<psa30 value="0.0245193009500221" flag="0"/>
		</comp>
		<comp name="--.HNN" depth="0.0">
			<acc value="0.310895688965875" flag="0"/>
			<vel value="0.160343325096399" flag="0"/>
			<psa03 value="0.622874470710804" flag="0"/>
			<psa10 value="0.266905841202248" flag="0"/>
			<psa30 value="0.0242456878245063" flag="0"/>
		</comp>
		<comp name="--.HNZ" depth="0.0">
			<acc value="0.204507975371974" flag="0"/>
			<vel value="0.126260586775235" flag="0"/>
			<psa03 value="0.676499939798951" flag="0"/>
			<psa10 value="0.261213834134429" flag="0"/>
			<psa30 value="0.0316817554274945" flag="0"/>
		</comp>
	</station>
	<station code="KRK1" name="KRK1" netid="HI" source="ITSAK Strong Motion Network" insttype="" lat="39.618861" lon="19.9202">
		<comp name="--.HNE" depth="0.0">
			<acc value="0.0283994182822599" flag="0"/>
			<vel value="0.0123217924333515" flag="0"/>
			<psa03 value="0.0611178542405592" flag="0"/>
			<psa10 value="0.00994619253124181" flag="0"/>
			<psa30 value="0.00108365624429454" flag="0"/>
		</comp>
		<comp name="--.HNN" depth="0.0">
			<acc value="0.0384610085554985" flag="0"/>
			<vel value="0.0152439505044039" flag="0"/>
			<psa03 value="0.0604914633479034" flag="0"/>
			<psa10 value="0.00575832199177157" flag="0"/>
			<psa30 value="0.00051364053197776" flag="0"/>
		</comp>
		<comp name="--.HNZ" depth="0.0">
			<acc value="0.015909354604116" flag="0"/>
			<vel value="0.00498877731490747" flag="0"/>
			<psa03 value="0.0343172724762144" flag="0"/>
			<psa10 value="0.00248453473351263" flag="0"/>
			<psa30 value="0.000247424402599043" flag="0"/>
		</comp>
	</station>
	<station code="LMS2" name="LMS2" netid="HI" source="ITSAK Strong Motion Network" insttype="" lat="40.834985" lon="21.141815">
		<comp name="--.HNE" depth="0.0">
			<acc value="0.00757334452955202" flag="0"/>
			<vel value="0.00576116640346319" flag="0"/>
			<psa03 value="0.00961957442292843" flag="0"/>
			<psa10 value="0.0062495914204402" flag="0"/>
			<psa30 value="0.000425050962873582" flag="0"/>
		</comp>
		<comp name="--.HNN" depth="0.0">
			<acc value="0.0112232580555265" flag="0"/>
			<vel value="0.00405452817264501" flag="0"/>
			<psa03 value="0.0138700840516642" flag="0"/>
			<psa10 value="0.00209796206833076" flag="0"/>
			<psa30 value="0.000406259236093907" flag="0"/>
		</comp>
		<comp name="--.HNZ" depth="0.0">
			<acc value="0.00440557419413317" flag="0"/>
			<vel value="0.00331762148080367" flag="0"/>
			<psa03 value="0.00715875305892348" flag="0"/>
			<psa10 value="0.00317714409196348" flag="0"/>
			<psa30 value="0.000459502461969651" flag="0"/>
		</comp>
	</station>
</stationlist>
