<?xml version="1.0" encoding="UTF-8" standalone="yes"?>
<!DOCTYPE earthquake SYSTEM "stationlist.dtd">
<stationlist created="" xmlns="ch.ethz.sed.shakemap.usgs.xml">
  <station code="KBN" name="KBN" netid="AC" insttype="" lat="40.6236" lon="20.7874">
    <comp name="--.HHE">
      <acc value="0.0096838878" flag="0"/>
      <vel value="0.0067789626" flag="0"/>
      <psa03 value="0.0259673077" flag="0"/>
      <psa10 value="0.0056899076" flag="0"/>
      <psa30 value="0.0005761538" flag="0"/>
    </comp>
    <comp name="--.HHN">
      <acc value="0.0112324051" flag="0"/>
      <vel value="0.0088676011" flag="0"/>
      <psa03 value="0.0282221054" flag="0"/>
      <psa10 value="0.0116906464" flag="0"/>
      <psa30 value="0.0005273638" flag="0"/>
    </comp>
    <comp name="--.HHZ">
      <acc value="0.0037495100" flag="0"/>
      <vel value="0.0022504855" flag="0"/>
      <psa03 value="0.0120121854" flag="0"/>
      <psa10 value="0.0031066715" flag="0"/>
      <psa30 value="0.0002645753" flag="0"/>
    </comp>
  </station>
  <station code="PHP" name="PHP" netid="AC" insttype="" lat="41.6847" lon="20.4408">
    <comp name="--.HHE">
      <acc value="0.0794774993" flag="0"/>
      <vel value="0.0077925332" flag="0"/>
      <psa03 value="0.0427236145" flag="0"/>
      <psa10 value="0.0103043221" flag="0"/>
      <psa30 value="0.0008139753" flag="0"/>
    </comp>
    <comp name="--.HHN">
      <acc value="0.0083824329" flag="0"/>
      <vel value="0.0039091919" flag="0"/>
      <psa03 value="0.0185949101" flag="0"/>
      <psa10 value="0.0064336810" flag="0"/>
      <psa30 value="0.0005035205" flag="0"/>
    </comp>
    <comp name="--.HHZ">
      <acc value="0.0058405459" flag="0"/>
      <vel value="0.0024484728" flag="0"/>
      <psa03 value="0.0144087584" flag="0"/>
      <psa10 value="0.0057203379" flag="0"/>
      <psa30 value="0.0004447039" flag="0"/>
    </comp>
  </station>
  <station code="LMS2" name="LMS2" netid="HI" insttype="CMG-5TD,ACCELEROMETER,GURALP" lat="40.835" lon="21.1418">
    <comp name="--.HNZ">
      <acc value="0.0044585287" flag="0"/>
      <vel value="0.0031562234" flag="0"/>
      <psa03 value="0.0070635576" flag="0"/>
      <psa10 value="0.0031705974" flag="0"/>
      <psa30 value="0.0004620028" flag="0"/>
    </comp>
    <comp name="--.HNN">
      <acc value="0.0111251093" flag="0"/>
      <vel value="0.0039423987" flag="0"/>
      <psa03 value="0.0137250158" flag="0"/>
      <psa10 value="0.0020872855" flag="0"/>
      <psa30 value="0.0003667254" flag="0"/>
    </comp>
    <comp name="--.HNE">
      <acc value="0.0075610323" flag="0"/>
      <vel value="0.0057977098" flag="0"/>
      <psa03 value="0.0096444882" flag="0"/>
      <psa10 value="0.0062309234" flag="0"/>
      <psa30 value="0.0003941115" flag="0"/>
    </comp>
  </station>
  <station code="TIR" name="TIR" netid="MN" insttype="" lat="41.3472" lon="19.8631">
    <comp name="--.HHE">
      <acc value="0.0374457294" flag="0"/>
      <vel value="0.0203613243" flag="0"/>
      <psa03 value="0.0690919670" flag="0"/>
      <psa10 value="0.0287962203" flag="0"/>
      <psa30 value="0.0022846866" flag="0"/>
    </comp>
    <comp name="--.HHZ">
      <acc value="0.0302468238" flag="0"/>
      <vel value="0.0257465513" flag="0"/>
      <psa03 value="0.0526809634" flag="0"/>
      <psa10 value="0.0420029118" flag="0"/>
      <psa30 value="0.0022576621" flag="0"/>
    </comp>
    <comp name="--.HHN">
      <acc value="0.0440756033" flag="0"/>
      <vel value="0.0171886878" flag="0"/>
      <psa03 value="0.0785685308" flag="0"/>
      <psa10 value="0.0301834049" flag="0"/>
      <psa30 value="0.0025887642" flag="0"/>
    </comp>
  </station>
</stationlist>
