<?xml version="1.0" encoding="UTF-8" standalone="yes"?>
<!DOCTYPE earthquake SYSTEM "stationlist.dtd">
<stationlist created="" xmlns="ch.ethz.sed.shakemap.usgs.xml">
  <station code="GVD" name="GVD" netid="GE" insttype="STS-2/N" lat="34.8391" lon="24.0874">
    <comp name="--.HHE">
      <acc value="1.9882099548" flag="0"/>
      <vel value="0.6871756434" flag="0"/>
      <psa03 value="3.2997687835" flag="0"/>
      <psa10 value="0.1853708416" flag="0"/>
      <psa30 value="0.0153821781" flag="0"/>
    </comp>
    <comp name="--.HHZ">
      <acc value="1.5486598059" flag="0"/>
      <vel value="0.2850278652" flag="0"/>
      <psa03 value="1.2120181676" flag="0"/>
      <psa10 value="0.0579275625" flag="0"/>
      <psa30 value="0.0053318874" flag="0"/>
    </comp>
    <comp name="--.HHN">
      <acc value="3.3654433444" flag="0"/>
      <vel value="0.6271095875" flag="0"/>
      <psa03 value="3.2341144001" flag="0"/>
      <psa10 value="0.2243825687" flag="0"/>
      <psa30 value="0.0169127105" flag="0"/>
    </comp>
  </station>
  <station code="IMMV" name="IMMV" netid="GE" insttype="STS-2/N" lat="35.4606" lon="23.9811">
    <comp name="--.HHE">
      <acc value="0.0519613563" flag="0"/>
      <vel value="0.0229879044" flag="0"/>
      <psa03 value="0.1217462222" flag="0"/>
      <psa10 value="0.0210675381" flag="0"/>
      <psa30 value="0.0012966027" flag="0"/>
    </comp>
    <comp name="--.HHN">
      <acc value="0.0420888746" flag="0"/>
      <vel value="0.0199115796" flag="0"/>
      <psa03 value="0.1199829657" flag="0"/>
      <psa10 value="0.0160292883" flag="0"/>
      <psa30 value="0.0010743144" flag="0"/>
    </comp>
    <comp name="--.HHZ">
      <acc value="0.0305957314" flag="0"/>
      <vel value="0.0166631516" flag="0"/>
      <psa03 value="0.1035808217" flag="0"/>
      <psa10 value="0.0201228848" flag="0"/>
      <psa30 value="0.0008785104" flag="0"/>
    </comp>
  </station>
  <station code="CHAN" name="CHAN" netid="HC" insttype="120" lat="35.5193" lon="24.0428">
    <comp name="--.HHE">
      <acc value="0.0423549565" flag="0"/>
      <vel value="0.0331623293" flag="0"/>
      <psa03 value="0.0910860130" flag="0"/>
      <psa10 value="0.0496364380" flag="0"/>
      <psa30 value="0.0032101112" flag="0"/>
    </comp>
    <comp name="--.HHN">
      <acc value="0.0432826290" flag="0"/>
      <vel value="0.0331168050" flag="0"/>
      <psa03 value="0.0904374644" flag="0"/>
      <psa10 value="0.0384986458" flag="0"/>
      <psa30 value="0.0021051035" flag="0"/>
    </comp>
    <comp name="--.HHZ">
      <acc value="0.0261038505" flag="0"/>
      <vel value="0.0176880556" flag="0"/>
      <psa03 value="0.1156555683" flag="0"/>
      <psa10 value="0.0238884780" flag="0"/>
      <psa30 value="0.0011793588" flag="0"/>
    </comp>
  </station>
  <station code="KNDR" name="KNDR" netid="HC" insttype="60" lat="35.2348" lon="23.6248">
    <comp name="--.HHE">
      <acc value="0.0000000000" flag="0"/>
      <vel value="-100.0000000000" flag="0"/>
      <psa03 value="0.0000000000" flag="0"/>
      <psa10 value="0.0000000000" flag="0"/>
      <psa30 value="0.0000000000" flag="0"/>
    </comp>
    <comp name="--.HHN">
      <acc value="0.0000000000" flag="0"/>
      <vel value="-100.0000000000" flag="0"/>
      <psa03 value="0.0000000000" flag="0"/>
      <psa10 value="0.0000000000" flag="0"/>
      <psa30 value="0.0000000000" flag="0"/>
    </comp>
    <comp name="--.HHZ">
      <acc value="0.0289850627" flag="0"/>
      <vel value="0.0122326961" flag="0"/>
      <psa03 value="0.0671975892" flag="0"/>
      <psa10 value="0.0100163817" flag="0"/>
      <psa30 value="0.0006083184" flag="0"/>
    </comp>
  </station>
  <station code="GVD" name="GVD" netid="HL" insttype="120" lat="34.8391" lon="24.0874">
    <comp name="--.HHE">
      <acc value="1.9632393268" flag="0"/>
      <vel value="0.6656290145" flag="0"/>
      <psa03 value="3.2121863180" flag="0"/>
      <psa10 value="0.1820479090" flag="0"/>
      <psa30 value="0.0149823362" flag="0"/>
    </comp>
    <comp name="--.HHN">
      <acc value="3.2980981525" flag="0"/>
      <vel value="0.6163693752" flag="0"/>
      <psa03 value="3.1409702888" flag="0"/>
      <psa10 value="0.2194859399" flag="0"/>
      <psa30 value="0.0165026004" flag="0"/>
    </comp>
    <comp name="--.HHZ">
      <acc value="1.5719759416" flag="0"/>
      <vel value="0.2739299481" flag="0"/>
      <psa03 value="1.1776273181" flag="0"/>
      <psa10 value="0.0570690688" flag="0"/>
      <psa30 value="0.0051872968" flag="0"/>
    </comp>
  </station>
  <station code="IACM" name="IACM" netid="HL" insttype="120" lat="35.3058" lon="25.0709">
    <comp name="--.HHE">
      <acc value="0.0517543736" flag="0"/>
      <vel value="0.0367842731" flag="0"/>
      <psa03 value="0.1572646565" flag="0"/>
      <psa10 value="0.0833439212" flag="0"/>
      <psa30 value="0.0029143835" flag="0"/>
    </comp>
    <comp name="--.HHN">
      <acc value="0.0572630619" flag="0"/>
      <vel value="0.0417729132" flag="0"/>
      <psa03 value="0.1580427611" flag="0"/>
      <psa10 value="0.0883703045" flag="0"/>
      <psa30 value="0.0037745338" flag="0"/>
    </comp>
    <comp name="--.HHZ">
      <acc value="0.0334796958" flag="0"/>
      <vel value="0.0200163139" flag="0"/>
      <psa03 value="0.0756595464" flag="0"/>
      <psa10 value="0.0432817020" flag="0"/>
      <psa30 value="0.0011875444" flag="0"/>
    </comp>
  </station>
  <station code="IDI" name="IDI" netid="HL" insttype="120" lat="35.288" lon="24.89">
    <comp name="--.HHE">
      <acc value="0.0139840710" flag="0"/>
      <vel value="0.0099279639" flag="0"/>
      <psa03 value="0.0403906054" flag="0"/>
      <psa10 value="0.0111065992" flag="0"/>
      <psa30 value="0.0007935342" flag="0"/>
    </comp>
    <comp name="--.HHN">
      <acc value="0.0170963616" flag="0"/>
      <vel value="0.0117730261" flag="0"/>
      <psa03 value="0.0542386006" flag="0"/>
      <psa10 value="0.0054166960" flag="0"/>
      <psa30 value="0.0008542060" flag="0"/>
    </comp>
    <comp name="--.HHZ">
      <acc value="0.0090844974" flag="0"/>
      <vel value="0.0069510062" flag="0"/>
      <psa03 value="0.0294986347" flag="0"/>
      <psa10 value="0.0047783078" flag="0"/>
      <psa30 value="0.0006296288" flag="0"/>
    </comp>
  </station>
  <station code="IMMV" name="IMMV" netid="HL" insttype="120" lat="35.4606" lon="23.9811">
    <comp name="--.HHE">
      <acc value="0.0504779964" flag="0"/>
      <vel value="0.0226649892" flag="0"/>
      <psa03 value="0.1180226092" flag="0"/>
      <psa10 value="0.0209037197" flag="0"/>
      <psa30 value="0.0012908915" flag="0"/>
    </comp>
    <comp name="--.HHZ">
      <acc value="0.0296496274" flag="0"/>
      <vel value="0.0162069704" flag="0"/>
      <psa03 value="0.1004309312" flag="0"/>
      <psa10 value="0.0199012580" flag="0"/>
      <psa30 value="0.0008672437" flag="0"/>
    </comp>
    <comp name="--.HHN">
      <acc value="0.0408788016" flag="0"/>
      <vel value="0.0193462070" flag="0"/>
      <psa03 value="0.1166153483" flag="0"/>
      <psa10 value="0.0158651131" flag="0"/>
      <psa30 value="0.0010667656" flag="0"/>
    </comp>
  </station>
  <station code="VAM" name="VAM" netid="HL" insttype="CMG3ESPC-120s" lat="35.407" lon="24.1997">
    <comp name="--.HHE">
      <acc value="0.0302532438" flag="0"/>
      <vel value="0.0213747638" flag="0"/>
      <psa03 value="0.0896704157" flag="0"/>
      <psa10 value="0.0262173065" flag="0"/>
      <psa30 value="0.0013945136" flag="0"/>
    </comp>
    <comp name="--.HHZ">
      <acc value="0.0236192642" flag="0"/>
      <vel value="0.0101077268" flag="0"/>
      <psa03 value="0.0662618416" flag="0"/>
      <psa10 value="0.0104331064" flag="0"/>
      <psa30 value="0.0009538517" flag="0"/>
    </comp>
    <comp name="--.HHN">
      <acc value="0.0376936528" flag="0"/>
      <vel value="0.0200557099" flag="0"/>
      <psa03 value="0.1208183626" flag="0"/>
      <psa10 value="0.0202298567" flag="0"/>
      <psa30 value="0.0012563301" flag="0"/>
    </comp>
  </station>
  <station code="IDI" name="IDI" netid="MN" insttype="" lat="35.288" lon="24.89">
    <comp name="--.HHE">
      <acc value="0.0142642101" flag="0"/>
      <vel value="0.0100661065" flag="0"/>
      <psa03 value="0.0408469708" flag="0"/>
      <psa10 value="0.0110317485" flag="0"/>
      <psa30 value="0.0007880684" flag="0"/>
    </comp>
    <comp name="--.HHN">
      <acc value="0.0173013134" flag="0"/>
      <vel value="0.0118336259" flag="0"/>
      <psa03 value="0.0546663206" flag="0"/>
      <psa10 value="0.0053862107" flag="0"/>
      <psa30 value="0.0008456385" flag="0"/>
    </comp>
    <comp name="--.HHZ">
      <acc value="0.0092326531" flag="0"/>
      <vel value="0.0070158247" flag="0"/>
      <psa03 value="0.0296370141" flag="0"/>
      <psa10 value="0.0047485724" flag="0"/>
      <psa30 value="0.0006238611" flag="0"/>
    </comp>
  </station>
</stationlist>
