<stationlist created="1778069363">
	<station code="IMMV" name="IMMV" netid="GE" source="GEOFON" insttype="" lat="35.4606" lon="23.9811">
		<comp name="--.HNE" depth="0.0">
			<acc value="0.0503366408048085" flag="0"/>
			<vel value="0.0232246693862276" flag="0"/>
			<psa03 value="0.119953855943587" flag="0"/>
			<psa10 value="0.021100424641177" flag="0"/>
			<psa30 value="0.00132392189383466" flag="0"/>
		</comp>
		<comp name="--.HNN" depth="0.0">
			<acc value="0.041269031067796" flag="0"/>
			<vel value="0.0195939119961801" flag="0"/>
			<psa03 value="0.11726932354649" flag="0"/>
			<psa10 value="0.0158414256752653" flag="0"/>
			<psa30 value="0.00114271595703066" flag="0"/>
		</comp>
		<comp name="--.HNZ" depth="0.0">
			<acc value="0.0296678677635461" flag="0"/>
			<vel value="0.0164832098376055" flag="0"/>
			<psa03 value="0.103712434941154" flag="0"/>
			<psa10 value="0.0203554669009827" flag="0"/>
			<psa30 value="0.000909161638483282" flag="0"/>
		</comp>
	</station>
	<station code="CH01" name="CH01" netid="HI" source="ITSAK Strong Motion Network" insttype="" lat="35.517" lon="24.0208">
		<comp name="--.HNE" depth="0.0">
			<acc value="0.0285362834215877" flag="0"/>
			<vel value="0.0215562902411652" flag="0"/>
			<psa03 value="0.0606704321743765" flag="0"/>
			<psa10 value="0.0272775336868956" flag="0"/>
			<psa30 value="0.00222816188958993" flag="0"/>
		</comp>
		<comp name="--.HNN" depth="0.0">
			<acc value="0.0201283743359044" flag="0"/>
			<vel value="0.0171004795009166" flag="0"/>
			<psa03 value="0.0699320689443588" flag="0"/>
			<psa10 value="0.0217245784235018" flag="0"/>
			<psa30 value="0.00128812812854004" flag="0"/>
		</comp>
		<comp name="--.HNZ" depth="0.0">
			<acc value="0.0150765889491925" flag="0"/>
			<vel value="0.0149615745063088" flag="0"/>
			<psa03 value="0.0446079799984169" flag="0"/>
			<psa10 value="0.0283164477245718" flag="0"/>
			<psa30 value="0.00110557992553749" flag="0"/>
		</comp>
	</station>
	<station code="IMMV" name="IMMV" netid="HL" source="National Observatory of Athens Seismic Network" insttype="" lat="35.4606" lon="23.9811">
		<comp name="--.HNE" depth="0.0">
			<acc value="0.0493152325904814" flag="0"/>
			<vel value="0.022753380254124" flag="0"/>
			<psa03 value="0.1175377767862" flag="0"/>
			<psa10 value="0.020669557191443" flag="0"/>
			<psa30 value="0.00129662914779752" flag="0"/>
		</comp>
		<comp name="--.HNN" depth="0.0">
			<acc value="0.0404316462151312" flag="0"/>
			<vel value="0.0191963196504422" flag="0"/>
			<psa03 value="0.114897986595722" flag="0"/>
			<psa10 value="0.0155233085862094" flag="0"/>
			<psa30 value="0.00111945000958916" flag="0"/>
		</comp>
		<comp name="--.HNZ" depth="0.0">
			<acc value="0.0290659260722043" flag="0"/>
			<vel value="0.0161487938697604" flag="0"/>
			<psa03 value="0.101609551230095" flag="0"/>
			<psa10 value="0.0199407066456314" flag="0"/>
			<psa30 value="0.000890817333769791" flag="0"/>
		</comp>
	</station>
</stationlist>
