<stationlist created="1765332012">
	<station code="AGRP" name="AGRP" netid="CL" source="Corinth Riff Laboratory (CRLNET)" insttype="" lat="38.3959" lon="21.72277">
		<comp name="00.HNE" depth="0.0">
			<acc value="0.24034538766918" flag="0"/>
			<vel value="0.0911362666627" flag="0"/>
			<psa03 value="0.477997206634842" flag="0"/>
			<psa10 value="0.10177704722988" flag="0"/>
			<psa30 value="0.0240377973861032" flag="0"/>
		</comp>
		<comp name="00.HNN" depth="0.0">
			<acc value="0.27675608648304" flag="0"/>
			<vel value="0.116429922294" flag="0"/>
			<psa03 value="0.771303678415228" flag="0"/>
			<psa10 value="0.0962750427491209" flag="0"/>
			<psa30 value="0.00920599735214409" flag="0"/>
		</comp>
		<comp name="00.HNZ" depth="0.0">
			<acc value="0.11082408678042" flag="0"/>
			<vel value="0.0414781244753" flag="0"/>
			<psa03 value="0.244675354374874" flag="0"/>
			<psa10 value="0.0358238169020625" flag="0"/>
			<psa30 value="0.00623796865147719" flag="0"/>
		</comp>
	</station>
	<station code="MALA" name="MALA" netid="CL" source="Corinth Riff Laboratory (CRLNET)" insttype="" lat="38.39341" lon="21.87263">
		<comp name="01.HNE" depth="0.0">
			<acc value="0.36424606932978" flag="0"/>
			<vel value="0.275378722295" flag="0"/>
			<psa03 value="0.665739143616302" flag="0"/>
			<psa10 value="0.407326003348926" flag="0"/>
			<psa30 value="0.0420206636627579" flag="0"/>
		</comp>
		<comp name="01.HNN" depth="0.0">
			<acc value="0.3751166013627" flag="0"/>
			<vel value="0.243236462321" flag="0"/>
			<psa03 value="0.774842496179133" flag="0"/>
			<psa10 value="0.438561342538129" flag="0"/>
			<psa30 value="0.0291500910504667" flag="0"/>
		</comp>
		<comp name="01.HNZ" depth="0.0">
			<acc value="0.1251280329675" flag="0"/>
			<vel value="0.0630308530459" flag="0"/>
			<psa03 value="0.228053982457196" flag="0"/>
			<psa10 value="0.1425142408691" flag="0"/>
			<psa30 value="0.0114462232561016" flag="0"/>
		</comp>
	</station>
	<station code="ROD3" name="ROD3" netid="CL" source="Corinth Riff Laboratory (CRLNET)" insttype="" lat="38.30811" lon="21.89204">
		<comp name="00.HNE" depth="0.0">
			<acc value="1.128177803859" flag="0"/>
			<vel value="0.406838981569" flag="0"/>
			<psa03 value="2.33807755282872" flag="0"/>
			<psa10 value="0.33737354934177" flag="0"/>
			<psa30 value="0.0317679944737224" flag="0"/>
		</comp>
		<comp name="00.HNN" depth="0.0">
			<acc value="0.92381670840702" flag="0"/>
			<vel value="0.366765296856" flag="0"/>
			<psa03 value="2.40451862089128" flag="0"/>
			<psa10 value="0.216784655919335" flag="0"/>
			<psa30 value="0.016963447078439" flag="0"/>
		</comp>
		<comp name="00.HNZ" depth="0.0">
			<acc value="0.60227059406358" flag="0"/>
			<vel value="0.199786468028" flag="0"/>
			<psa03 value="0.744199716244257" flag="0"/>
			<psa10 value="0.148801382361207" flag="0"/>
			<psa30 value="0.0191564523543067" flag="0"/>
		</comp>
	</station>
	<station code="TRIZ" name="TRIZ" netid="CL" source="Corinth Riff Laboratory (CRLNET)" insttype="" lat="38.36543" lon="22.07272">
		<comp name="00.HNE" depth="0.0">
			<acc value="0.15111557464116" flag="0"/>
			<vel value="0.05553830069" flag="0"/>
			<psa03 value="0.292060118382617" flag="0"/>
			<psa10 value="0.100635359098605" flag="0"/>
			<psa30 value="0.0141611164378007" flag="0"/>
		</comp>
		<comp name="00.HNN" depth="0.0">
			<acc value="0.1685087502573" flag="0"/>
			<vel value="0.105185615572" flag="0"/>
			<psa03 value="0.449245385302888" flag="0"/>
			<psa10 value="0.127965662096958" flag="0"/>
			<psa30 value="0.013017555682496" flag="0"/>
		</comp>
		<comp name="00.HNZ" depth="0.0">
			<acc value="0.22068360475194" flag="0"/>
			<vel value="0.0483847939349" flag="0"/>
			<psa03 value="0.125952833340524" flag="0"/>
			<psa10 value="0.0796526515971304" flag="0"/>
			<psa30 value="0.00848186688206397" flag="0"/>
		</comp>
	</station>
	<station code="KTHA" name="KTHA" netid="GE" source="GEOFON" insttype="" lat="36.2566" lon="23.0621">
		<comp name="--.HNE" depth="0.0">
			<acc value="0.017685468162744" flag="0"/>
			<vel value="0.0207068483155" flag="0"/>
			<psa03 value="0.0439191750548062" flag="0"/>
			<psa10 value="0.0279170087398313" flag="0"/>
			<psa30 value="0.00706754819039417" flag="0"/>
		</comp>
		<comp name="--.HNN" depth="0.0">
			<acc value="0.013541845188954" flag="0"/>
			<vel value="0.0106325230759" flag="0"/>
			<psa03 value="0.0300398129068327" flag="0"/>
			<psa10 value="0.016277066400767" flag="0"/>
			<psa30 value="0.00370947406778605" flag="0"/>
		</comp>
		<comp name="--.HNZ" depth="0.0">
			<acc value="0.0084303828503874" flag="0"/>
			<vel value="0.0314197045169" flag="0"/>
			<psa03 value="0.0189473658471022" flag="0"/>
			<psa10 value="0.0145525793494733" flag="0"/>
			<psa30 value="0.00873070503302425" flag="0"/>
		</comp>
	</station>
	<station code="ATHU" name="ATHU" netid="HA" source="Hellenic Seismological Network, University of Athens, Seismological Laboratory (HA)" insttype="" lat="37.9665" lon="23.7845">
		<comp name="--.HNE" depth="0.0">
			<acc value="0.00078205301104254" flag="0"/>
			<vel value="0.000757794428437" flag="0"/>
			<psa03 value="0.00156918581935072" flag="0"/>
			<psa10 value="0.000568954233394168" flag="0"/>
			<psa30 value="0.000132465194439777" flag="0"/>
		</comp>
		<comp name="--.HNN" depth="0.0">
			<acc value="0.00042450372928806" flag="0"/>
			<vel value="0.000529955621023" flag="0"/>
			<psa03 value="0.000760017958136669" flag="0"/>
			<psa10 value="0.000585295003389004" flag="0"/>
			<psa30 value="7.55906780844428e-05" flag="0"/>
		</comp>
		<comp name="--.HNZ" depth="0.0">
			<acc value="0.00058057464997926" flag="0"/>
			<vel value="0.000399718769513" flag="0"/>
			<psa03 value="0.000901318822529825" flag="0"/>
			<psa10 value="0.000540445313567762" flag="0"/>
			<psa30 value="8.93059356110435e-05" flag="0"/>
		</comp>
	</station>
	<station code="AGR3" name="AGR3" netid="HI" source="ITSAK Strong Motion Network" insttype="" lat="38.5893" lon="21.4162">
		<comp name="--.HNE" depth="0.0">
			<acc value="0.12130217404182" flag="0"/>
			<vel value="0.106876922878" flag="0"/>
			<psa03 value="0.343387185215607" flag="0"/>
			<psa10 value="0.238823905911742" flag="0"/>
			<psa30 value="0.0564227577308639" flag="0"/>
		</comp>
		<comp name="--.HNN" depth="0.0">
			<acc value="0.091622110457658" flag="0"/>
			<vel value="0.125533644331" flag="0"/>
			<psa03 value="0.317596143352452" flag="0"/>
			<psa10 value="0.143827742882066" flag="0"/>
			<psa30 value="0.0373653219358869" flag="0"/>
		</comp>
		<comp name="--.HNZ" depth="0.0">
			<acc value="0.060379664603628" flag="0"/>
			<vel value="0.0782947942324" flag="0"/>
			<psa03 value="0.134281051710653" flag="0"/>
			<psa10 value="0.13952961315201" flag="0"/>
			<psa30 value="0.0182826077997068" flag="0"/>
		</comp>
	</station>
	<station code="AIG2" name="AIG2" netid="HI" source="ITSAK Strong Motion Network" insttype="" lat="38.2417" lon="22.0726">
		<comp name="--.HNE" depth="0.0">
			<acc value="1.1556995316708" flag="0"/>
			<vel value="0.234951561686" flag="0"/>
			<psa03 value="0.741228936112869" flag="0"/>
			<psa10 value="0.18180377860807" flag="0"/>
			<psa30 value="0.0146289140937813" flag="0"/>
		</comp>
		<comp name="--.HNN" depth="0.0">
			<acc value="0.84566874452778" flag="0"/>
			<vel value="0.165533518672" flag="0"/>
			<psa03 value="0.717068418929533" flag="0"/>
			<psa10 value="0.24604341916886" flag="0"/>
			<psa30 value="0.0308428098514611" flag="0"/>
		</comp>
		<comp name="--.HNZ" depth="0.0">
			<acc value="0.50760529802022" flag="0"/>
			<vel value="0.129679791638" flag="0"/>
			<psa03 value="0.617504823332813" flag="0"/>
			<psa10 value="0.279540518187504" flag="0"/>
			<psa30 value="0.0245253930202402" flag="0"/>
		</comp>
	</station>
	<station code="AKR1" name="AKR1" netid="HI" source="ITSAK Strong Motion Network" insttype="" lat="38.153583" lon="22.31326">
		<comp name="--.HNE" depth="0.0">
			<acc value="1.2353525206848" flag="0"/>
			<vel value="0.370129121154" flag="0"/>
			<psa03 value="1.49173081984792" flag="0"/>
			<psa10 value="0.493129947436994" flag="0"/>
			<psa30 value="0.0344710268696865" flag="0"/>
		</comp>
		<comp name="--.HNN" depth="0.0">
			<acc value="1.2888269340744" flag="0"/>
			<vel value="0.378780317541" flag="0"/>
			<psa03 value="1.24723620661081" flag="0"/>
			<psa10 value="0.34158951862936" flag="0"/>
			<psa30 value="0.0282285300015787" flag="0"/>
		</comp>
		<comp name="--.HNZ" depth="0.0">
			<acc value="0.65354078810292" flag="0"/>
			<vel value="0.183546597877" flag="0"/>
			<psa03 value="0.447885545220156" flag="0"/>
			<psa10 value="0.177797328200486" flag="0"/>
			<psa30 value="0.0151212017054099" flag="0"/>
		</comp>
	</station>
	<station code="ARE2" name="ARE2" netid="HI" source="ITSAK Strong Motion Network" insttype="" lat="36.66629" lon="22.382635">
		<comp name="--.HNE" depth="0.0">
			<acc value="0.063570465541194" flag="0"/>
			<vel value="0.0303443907068" flag="0"/>
			<psa03 value="0.141126671866142" flag="0"/>
			<psa10 value="0.0465346539424933" flag="0"/>
			<psa30 value="0.00588350308655993" flag="0"/>
		</comp>
		<comp name="--.HNN" depth="0.0">
			<acc value="0.050741390880246" flag="0"/>
			<vel value="0.035858704182" flag="0"/>
			<psa03 value="0.184374088878416" flag="0"/>
			<psa10 value="0.0177705728382387" flag="0"/>
			<psa30 value="0.00347021384297014" flag="0"/>
		</comp>
		<comp name="--.HNZ" depth="0.0">
			<acc value="0.032251177805196" flag="0"/>
			<vel value="0.0361617161077" flag="0"/>
			<psa03 value="0.0712731121187158" flag="0"/>
			<psa10 value="0.0294648525268712" flag="0"/>
			<psa30 value="0.00375769267869601" flag="0"/>
		</comp>
	</station>
	<station code="ARG2" name="ARG2" netid="HI" source="ITSAK Strong Motion Network" insttype="" lat="38.1783" lon="20.4878">
		<comp name="--.HNE" depth="0.0">
			<acc value="0.1091261009343" flag="0"/>
			<vel value="0.0510771399436" flag="0"/>
			<psa03 value="0.311825406903024" flag="0"/>
			<psa10 value="0.0415505025168936" flag="0"/>
			<psa30 value="0.00435124158173498" flag="0"/>
		</comp>
		<comp name="--.HNN" depth="0.0">
			<acc value="0.1480366389042" flag="0"/>
			<vel value="0.0686410360913" flag="0"/>
			<psa03 value="0.163833457329381" flag="0"/>
			<psa10 value="0.0617120406196365" flag="0"/>
			<psa30 value="0.0113308522800426" flag="0"/>
		</comp>
		<comp name="--.HNZ" depth="0.0">
			<acc value="0.087390060758508" flag="0"/>
			<vel value="0.0274230546237" flag="0"/>
			<psa03 value="0.209166668765106" flag="0"/>
			<psa10 value="0.0371033229130372" flag="0"/>
			<psa30 value="0.00471651286250252" flag="0"/>
		</comp>
	</station>
	<station code="ARS1" name="ARS1" netid="HI" source="ITSAK Strong Motion Network" insttype="" lat="37.6349" lon="22.7293">
		<comp name="--.HNE" depth="0.0">
			<acc value="0.18276080834466" flag="0"/>
			<vel value="0.130697386243" flag="0"/>
			<psa03 value="0.396963088523061" flag="0"/>
			<psa10 value="0.174627198194904" flag="0"/>
			<psa30 value="0.0102376023575774" flag="0"/>
		</comp>
		<comp name="--.HNN" depth="0.0">
			<acc value="0.2280137466933" flag="0"/>
			<vel value="0.145214772875" flag="0"/>
			<psa03 value="0.515369140674156" flag="0"/>
			<psa10 value="0.105620271824707" flag="0"/>
			<psa30 value="0.0176246525467547" flag="0"/>
		</comp>
		<comp name="--.HNZ" depth="0.0">
			<acc value="0.077977790411376" flag="0"/>
			<vel value="0.0431399704063" flag="0"/>
			<psa03 value="0.193743313710546" flag="0"/>
			<psa10 value="0.0528162563178336" flag="0"/>
			<psa30 value="0.00968733673851786" flag="0"/>
		</comp>
	</station>
	<station code="ART2" name="ART2" netid="HI" source="ITSAK Strong Motion Network" insttype="" lat="39.1474" lon="20.9937">
		<comp name="--.HNE" depth="0.0">
			<acc value="0.0077663556732084" flag="0"/>
			<vel value="0.0104914025327" flag="0"/>
			<psa03 value="0.0210795552712415" flag="0"/>
			<psa10 value="0.0146973323761282" flag="0"/>
			<psa30 value="0.00527910179791163" flag="0"/>
		</comp>
		<comp name="--.HNN" depth="0.0">
			<acc value="0.008214575373105" flag="0"/>
			<vel value="0.0116055818694" flag="0"/>
			<psa03 value="0.0144225921447057" flag="0"/>
			<psa10 value="0.0267606946397019" flag="0"/>
			<psa30 value="0.0026662120401299" flag="0"/>
		</comp>
		<comp name="--.HNZ" depth="0.0">
			<acc value="0.009924933745479" flag="0"/>
			<vel value="0.018177070479" flag="0"/>
			<psa03 value="0.0162587619590017" flag="0"/>
			<psa10 value="0.0285461222905239" flag="0"/>
			<psa30 value="0.00559084286588314" flag="0"/>
		</comp>
	</station>
	<station code="AST1" name="AST1" netid="HI" source="ITSAK Strong Motion Network" insttype="" lat="38.5416" lon="21.0895">
		<comp name="--.HNE" depth="0.0">
			<acc value="0.069760335919002" flag="0"/>
			<vel value="0.0584952435673" flag="0"/>
			<psa03 value="0.259405205155263" flag="0"/>
			<psa10 value="0.113840936403473" flag="0"/>
			<psa30 value="0.00471672120964351" flag="0"/>
		</comp>
		<comp name="--.HNN" depth="0.0">
			<acc value="0.084394919350914" flag="0"/>
			<vel value="0.0571604202183" flag="0"/>
			<psa03 value="0.325534231711932" flag="0"/>
			<psa10 value="0.0721737261549511" flag="0"/>
			<psa30 value="0.00801095068618373" flag="0"/>
		</comp>
		<comp name="--.HNZ" depth="0.0">
			<acc value="0.07033057148544" flag="0"/>
			<vel value="0.0562328820782" flag="0"/>
			<psa03 value="0.188783630988897" flag="0"/>
			<psa10 value="0.0848838956415093" flag="0"/>
			<psa30 value="0.00445641813249819" flag="0"/>
		</comp>
	</station>
	<station code="ATH5" name="ATH5" netid="HI" source="ITSAK Strong Motion Network" insttype="" lat="37.975421" lon="23.737098">
		<comp name="--.HNE" depth="0.0">
			<acc value="0.018816864181302" flag="0"/>
			<vel value="0.0133149394671" flag="0"/>
			<psa03 value="0.0346269891805867" flag="0"/>
			<psa10 value="0.0265233432913243" flag="0"/>
			<psa30 value="0.00267113194938375" flag="0"/>
		</comp>
		<comp name="--.HNN" depth="0.0">
			<acc value="0.01579567402809" flag="0"/>
			<vel value="0.0199421955674" flag="0"/>
			<psa03 value="0.0331536598089413" flag="0"/>
			<psa10 value="0.0306254494107132" flag="0"/>
			<psa30 value="0.0029566273203838" flag="0"/>
		</comp>
		<comp name="--.HNZ" depth="0.0">
			<acc value="0.0096097508690178" flag="0"/>
			<vel value="0.0100259692833" flag="0"/>
			<psa03 value="0.0238564423513989" flag="0"/>
			<psa10 value="0.0220305250391788" flag="0"/>
			<psa30 value="0.00181978846872236" flag="0"/>
		</comp>
	</station>
	<station code="FRS1" name="FRS1" netid="HI" source="ITSAK Strong Motion Network" insttype="" lat="39.2934" lon="22.3844">
		<comp name="--.HNE" depth="0.0">
			<acc value="0.008736288422643" flag="0"/>
			<vel value="0.00984293648337" flag="0"/>
			<psa03 value="0.0140952970255094" flag="0"/>
			<psa10 value="0.0114738438358525" flag="0"/>
			<psa30 value="0.0027472263652644" flag="0"/>
		</comp>
		<comp name="--.HNN" depth="0.0">
			<acc value="0.0062177829701298" flag="0"/>
			<vel value="0.011398402151" flag="0"/>
			<psa03 value="0.0114446331507849" flag="0"/>
			<psa10 value="0.0179321654179688" flag="0"/>
			<psa30 value="0.00253769540153404" flag="0"/>
		</comp>
		<comp name="--.HNZ" depth="0.0">
			<acc value="0.0064365175440846" flag="0"/>
			<vel value="0.0103960852716" flag="0"/>
			<psa03 value="0.0132380410177449" flag="0"/>
			<psa10 value="0.017735020483059" flag="0"/>
			<psa30 value="0.00275944884161076" flag="0"/>
		</comp>
	</station>
	<station code="GTH2" name="GTH2" netid="HI" source="ITSAK Strong Motion Network" insttype="" lat="36.7603" lon="22.5659">
		<comp name="--.HNE" depth="0.0">
			<acc value="0.097599596333058" flag="0"/>
			<vel value="0.0816713745583" flag="0"/>
			<psa03 value="0.27250059349378" flag="0"/>
			<psa10 value="0.0589545166972565" flag="0"/>
			<psa30 value="0.00908310587785621" flag="0"/>
		</comp>
		<comp name="--.HNN" depth="0.0">
			<acc value="0.10416254162088" flag="0"/>
			<vel value="0.0720196431195" flag="0"/>
			<psa03 value="0.231963866467879" flag="0"/>
			<psa10 value="0.0516397321288229" flag="0"/>
			<psa30 value="0.00506821324424227" flag="0"/>
		</comp>
		<comp name="--.HNZ" depth="0.0">
			<acc value="0.042417517802034" flag="0"/>
			<vel value="0.033583545896" flag="0"/>
			<psa03 value="0.103370285274239" flag="0"/>
			<psa10 value="0.0203778430570964" flag="0"/>
			<psa30 value="0.0027001203280551" flag="0"/>
		</comp>
	</station>
	<station code="JAN2" name="JAN2" netid="HI" source="ITSAK Strong Motion Network" insttype="" lat="39.664" lon="20.85222">
		<comp name="--.HNE" depth="0.0">
			<acc value="0.012553741696878" flag="0"/>
			<vel value="0.0157050571771" flag="0"/>
			<psa03 value="0.0237852631569343" flag="0"/>
			<psa10 value="0.0413282740453641" flag="0"/>
			<psa30 value="0.00670717598414401" flag="0"/>
		</comp>
		<comp name="--.HNN" depth="0.0">
			<acc value="0.007861385598252" flag="0"/>
			<vel value="0.0100058810219" flag="0"/>
			<psa03 value="0.0299684409913085" flag="0"/>
			<psa10 value="0.0115119013569475" flag="0"/>
			<psa30 value="0.00216356707569952" flag="0"/>
		</comp>
		<comp name="--.HNZ" depth="0.0">
			<acc value="0.007083064082052" flag="0"/>
			<vel value="0.0117194938439" flag="0"/>
			<psa03 value="0.00817123726790911" flag="0"/>
			<psa10 value="0.0122230244028624" flag="0"/>
			<psa30 value="0.00534529284939606" flag="0"/>
		</comp>
	</station>
	<station code="KAC1" name="KAC1" netid="HI" source="ITSAK Strong Motion Network" insttype="" lat="38.143412" lon="21.549694">
		<comp name="--.HNE" depth="0.0">
			<acc value="0.6143845084782" flag="0"/>
			<vel value="0.327804340789" flag="0"/>
			<psa03 value="2.04320135206187" flag="0"/>
			<psa10 value="0.545701530048058" flag="0"/>
			<psa30 value="0.0650357482990542" flag="0"/>
		</comp>
		<comp name="--.HNN" depth="0.0">
			<acc value="0.78549600831498" flag="0"/>
			<vel value="0.417335476152" flag="0"/>
			<psa03 value="2.6220266964022" flag="0"/>
			<psa10 value="0.439937983731074" flag="0"/>
			<psa30 value="0.061452630934994" flag="0"/>
		</comp>
		<comp name="--.HNZ" depth="0.0">
			<acc value="0.2940078204699" flag="0"/>
			<vel value="0.18005650053" flag="0"/>
			<psa03 value="0.629196681193407" flag="0"/>
			<psa10 value="0.260036646151428" flag="0"/>
			<psa30 value="0.0498716904215926" flag="0"/>
		</comp>
	</station>
	<station code="KAR2" name="KAR2" netid="HI" source="ITSAK Strong Motion Network" insttype="" lat="39.365759" lon="21.91933">
		<comp name="--.HNE" depth="0.0">
			<acc value="0.018837672375204" flag="0"/>
			<vel value="0.0475894999061" flag="0"/>
			<psa03 value="0.0521620127689031" flag="0"/>
			<psa10 value="0.0600442001336457" flag="0"/>
			<psa30 value="0.0275416011625834" flag="0"/>
		</comp>
		<comp name="--.HNN" depth="0.0">
			<acc value="0.019435146183108" flag="0"/>
			<vel value="0.0446794164633" flag="0"/>
			<psa03 value="0.045722237207372" flag="0"/>
			<psa10 value="0.0591802178988209" flag="0"/>
			<psa30 value="0.0140114331886702" flag="0"/>
		</comp>
		<comp name="--.HNZ" depth="0.0">
			<acc value="0.029204530814814" flag="0"/>
			<vel value="0.0183932424479" flag="0"/>
			<psa03 value="0.0233457887314178" flag="0"/>
			<psa10 value="0.0381013802794597" flag="0"/>
			<psa30 value="0.00450309372452576" flag="0"/>
		</comp>
	</station>
	<station code="KIF1" name="KIF1" netid="HI" source="ITSAK Strong Motion Network" insttype="" lat="38.077273" lon="23.814551">
		<comp name="--.HNE" depth="0.0">
			<acc value="0.021018406109388" flag="0"/>
			<vel value="0.024498993685" flag="0"/>
			<psa03 value="0.0387406575242633" flag="0"/>
			<psa10 value="0.0497598375951273" flag="0"/>
			<psa30 value="0.00364944384107672" flag="0"/>
		</comp>
		<comp name="--.HNN" depth="0.0">
			<acc value="0.017741418851472" flag="0"/>
			<vel value="0.0234896167572" flag="0"/>
			<psa03 value="0.0560592136476639" flag="0"/>
			<psa10 value="0.0297771732165681" flag="0"/>
