<?xml version="1.0" encoding="UTF-8" standalone="yes"?>
<!DOCTYPE earthquake SYSTEM "stationlist.dtd">
<stationlist created="" xmlns="ch.ethz.sed.shakemap.usgs.xml">
  <station code="RP05B" name="RP05B" netid="5B" insttype="Compact" commtype="DIG" lat="37.6182" lon="21.6541">
    <comp name="--.HHN">
      <acc value="1.0596819350" flag="0"/>
      <vel value="0.5166471952" flag="0"/>
      <psa03 value="3.1131043571" flag="0"/>
      <psa10 value="0.7862966791" flag="0"/>
      <psa30 value="0.0561036369" flag="0"/>
    </comp>
    <comp name="--.HHE">
      <acc value="0.8531610943" flag="0"/>
      <vel value="0.3600751809" flag="0"/>
      <psa03 value="2.5618792279" flag="0"/>
      <psa10 value="0.4416506605" flag="0"/>
      <psa30 value="0.0430713746" flag="0"/>
    </comp>
    <comp name="--.HHZ">
      <acc value="0.4754424543" flag="0"/>
      <vel value="0.2604590054" flag="0"/>
      <psa03 value="1.2033305754" flag="0"/>
      <psa10 value="0.3198792003" flag="0"/>
      <psa30 value="0.0288252224" flag="0"/>
    </comp>
  </station>
  <station code="AGRP" name="AGRP" netid="CL" insttype="CMG40-T" commtype="DIG" lat="38.3959" lon="21.7228">
    <comp name="00.HHZ">
      <acc value="0.1086110636" flag="0"/>
      <vel value="0.0439918951" flag="0"/>
      <psa03 value="0.2323183177" flag="0"/>
      <psa10 value="0.0386039643" flag="0"/>
      <psa30 value="0.0052975874" flag="0"/>
    </comp>
    <comp name="00.HHN">
      <acc value="0.2672239103" flag="0"/>
      <vel value="0.1216808549" flag="0"/>
      <psa03 value="0.7813090687" flag="0"/>
      <psa10 value="0.0981606015" flag="0"/>
      <psa30 value="0.0072577694" flag="0"/>
    </comp>
    <comp name="00.HHE">
      <acc value="0.2460094528" flag="0"/>
      <vel value="0.0903268761" flag="0"/>
      <psa03 value="0.4948362685" flag="0"/>
      <psa10 value="0.1023901137" flag="0"/>
      <psa30 value="0.0220393190" flag="0"/>
    </comp>
  </station>
  <station code="MALA" name="MALA" netid="CL" insttype="TRILLIUM-40" commtype="DIG" lat="38.3934" lon="21.8726">
    <comp name="01.HHN">
      <acc value="0.3759236317" flag="0"/>
      <vel value="0.2293976857" flag="0"/>
      <psa03 value="0.7795471431" flag="0"/>
      <psa10 value="0.4298548004" flag="0"/>
      <psa30 value="0.0261117513" flag="0"/>
    </comp>
    <comp name="01.HHZ">
      <acc value="0.1141878068" flag="0"/>
      <vel value="0.0616758741" flag="0"/>
      <psa03 value="0.2162685306" flag="0"/>
      <psa10 value="0.1408691945" flag="0"/>
      <psa30 value="0.0098611641" flag="0"/>
    </comp>
    <comp name="01.HHE">
      <acc value="0.3468353113" flag="0"/>
      <vel value="0.2656802680" flag="0"/>
      <psa03 value="0.6759242500" flag="0"/>
      <psa10 value="0.3973295192" flag="0"/>
      <psa30 value="0.0384959355" flag="0"/>
    </comp>
  </station>
  <station code="MG06" name="MG06" netid="CL" insttype="TRILLIUM-40" commtype="DIG" lat="38.4129" lon="21.9462">
    <comp name="06.HHE">
      <acc value="0.2687166242" flag="0"/>
      <vel value="0.1005299204" flag="0"/>
      <psa03 value="0.3045446881" flag="0"/>
      <psa10 value="0.1278473771" flag="0"/>
      <psa30 value="0.0124465231" flag="0"/>
    </comp>
    <comp name="06.HHN">
      <acc value="0.2291222219" flag="0"/>
      <vel value="0.0846916102" flag="0"/>
      <psa03 value="0.2752137180" flag="0"/>
      <psa10 value="0.1073200062" flag="0"/>
      <psa30 value="0.0092995357" flag="0"/>
    </comp>
    <comp name="06.HHZ">
      <acc value="0.2388305103" flag="0"/>
      <vel value="0.0409690871" flag="0"/>
      <psa03 value="0.1627778920" flag="0"/>
      <psa10 value="0.0431664355" flag="0"/>
      <psa30 value="0.0067419767" flag="0"/>
    </comp>
  </station>
  <station code="PSAM" name="PSAM" netid="CL" insttype="CMG40-T" commtype="DIG" lat="38.3218" lon="22.1842">
    <comp name="00.HHE">
      <acc value="0.1850222993" flag="0"/>
      <vel value="0.0651200229" flag="0"/>
      <psa03 value="0.1846206123" flag="0"/>
      <psa10 value="0.0992472334" flag="0"/>
      <psa30 value="0.0190575762" flag="0"/>
    </comp>
    <comp name="00.HHN">
      <acc value="0.1437955030" flag="0"/>
      <vel value="0.0691032131" flag="0"/>
      <psa03 value="0.1465737601" flag="0"/>
      <psa10 value="0.0848280761" flag="0"/>
      <psa30 value="0.0139750658" flag="0"/>
    </comp>
    <comp name="00.HHZ">
      <acc value="0.1618226107" flag="0"/>
      <vel value="0.0356555956" flag="0"/>
      <psa03 value="0.1015912054" flag="0"/>
      <psa10 value="0.0391729071" flag="0"/>
      <psa30 value="0.0058122793" flag="0"/>
    </comp>
  </station>
  <station code="ROD3" name="ROD3" netid="CL" insttype="CMG40-T" commtype="DIG" lat="38.3081" lon="21.892">
    <comp name="00.HHE">
      <acc value="1.4574549827" flag="0"/>
      <vel value="0.5067809834" flag="0"/>
      <psa03 value="2.7014170774" flag="0"/>
      <psa10 value="0.4078969366" flag="0"/>
      <psa30 value="0.0351943661" flag="0"/>
    </comp>
    <comp name="00.HHN">
      <acc value="1.1203439397" flag="0"/>
      <vel value="0.4411171601" flag="0"/>
      <psa03 value="2.9841337357" flag="0"/>
      <psa10 value="0.2417983055" flag="0"/>
      <psa30 value="0.0178361993" flag="0"/>
    </comp>
    <comp name="00.HHZ">
      <acc value="0.7534522550" flag="0"/>
      <vel value="0.2441821378" flag="0"/>
      <psa03 value="0.8883321310" flag="0"/>
      <psa10 value="0.1872414498" flag="0"/>
      <psa30 value="0.0217803384" flag="0"/>
    </comp>
  </station>
  <station code="TRIZ" name="TRIZ" netid="CL" insttype="STS-2" commtype="DIG" lat="38.3654" lon="22.0727">
    <comp name="00.HH2">
      <acc value="0.1607654845" flag="0"/>
      <vel value="0.0817757932" flag="0"/>
      <psa03 value="0.4092704032" flag="0"/>
      <psa10 value="0.1092605212" flag="0"/>
      <psa30 value="0.0110038443" flag="0"/>
    </comp>
    <comp name="00.HH3">
      <acc value="0.1447206149" flag="0"/>
      <vel value="0.0925395571" flag="0"/>
      <psa03 value="0.3744360811" flag="0"/>
      <psa10 value="0.1124799244" flag="0"/>
      <psa30 value="0.0132605360" flag="0"/>
    </comp>
    <comp name="00.HHZ">
      <acc value="0.2190948391" flag="0"/>
      <vel value="0.0490395935" flag="0"/>
      <psa03 value="0.1212385625" flag="0"/>
      <psa10 value="0.0795910460" flag="0"/>
      <psa30 value="0.0075466073" flag="0"/>
    </comp>
  </station>
  <station code="ZIRI" name="ZIRI" netid="CL" insttype="TRILLIUM-40" commtype="DIG" lat="38.3051" lon="21.9476">
    <comp name="01.HHE">
      <acc value="1.1178756405" flag="0"/>
      <vel value="0.3636038079" flag="0"/>
      <psa03 value="1.3058353953" flag="0"/>
      <psa10 value="0.4122360059" flag="0"/>
      <psa30 value="0.0274173879" flag="0"/>
    </comp>
    <comp name="01.HHN">
      <acc value="1.0583525540" flag="0"/>
      <vel value="0.4073562589" flag="0"/>
      <psa03 value="1.3065523340" flag="0"/>
      <psa10 value="0.2850820974" flag="0"/>
      <psa30 value="0.0187837097" flag="0"/>
    </comp>
    <comp name="01.HHZ">
      <acc value="0.9060384769" flag="0"/>
      <vel value="0.2361910539" flag="0"/>
      <psa03 value="1.1651744943" flag="0"/>
      <psa10 value="0.2096778870" flag="0"/>
      <psa30 value="0.0155466310" flag="0"/>
    </comp>
  </station>
  <station code="ACOR" name="ACOR" netid="HA" insttype="Horizon,120s,1200" commtype="DIG" lat="37.8905" lon="22.8694">
    <comp name="--.HHE">
      <acc value="0.0487207444" flag="0"/>
      <vel value="0.0381131278" flag="0"/>
      <psa03 value="0.0770665567" flag="0"/>
      <psa10 value="0.0553696545" flag="0"/>
      <psa30 value="0.0069325369" flag="0"/>
    </comp>
    <comp name="--.HHN">
      <acc value="0.0473506748" flag="0"/>
      <vel value="0.0364683285" flag="0"/>
      <psa03 value="0.1028738709" flag="0"/>
      <psa10 value="0.0618284027" flag="0"/>
      <psa30 value="0.0057973797" flag="0"/>
    </comp>
    <comp name="--.HHZ">
      <acc value="0.0359539660" flag="0"/>
      <vel value="0.0339618606" flag="0"/>
      <psa03 value="0.0491334530" flag="0"/>
      <psa10 value="0.0477218949" flag="0"/>
      <psa30 value="0.0052293942" flag="0"/>
    </comp>
  </station>
  <station code="ALIO" name="ALIO" netid="HA" insttype="25" commtype="DIG" lat="38.0657" lon="23.6727">
    <comp name="--.HHZ">
      <acc value="0.0096564034" flag="0"/>
      <vel value="0.0063944827" flag="0"/>
      <psa03 value="0.0153186945" flag="0"/>
      <psa10 value="0.0093528152" flag="0"/>
      <psa30 value="0.0011026821" flag="0"/>
    </comp>
    <comp name="--.HHE">
      <acc value="0.0069131696" flag="0"/>
      <vel value="0.0052991425" flag="0"/>
      <psa03 value="0.0166372716" flag="0"/>
      <psa10 value="0.0058023334" flag="0"/>
      <psa30 value="0.0007916530" flag="0"/>
    </comp>
    <comp name="--.HHN">
      <acc value="0.0080574262" flag="0"/>
      <vel value="0.0073266887" flag="0"/>
      <psa03 value="0.0179132707" flag="0"/>
      <psa10 value="0.0073721350" flag="0"/>
      <psa30 value="0.0014418484" flag="0"/>
    </comp>
  </station>
  <station code="AMPE" name="AMPE" netid="HA" insttype="1s-100Hz," commtype="DIG" lat="38.3015" lon="23.2688">
    <comp name="--.HHE">
      <acc value="0.0733185104" flag="0"/>
      <vel value="0.0837296218" flag="0"/>
      <psa03 value="0.1674869232" flag="0"/>
      <psa10 value="0.1629479217" flag="0"/>
      <psa30 value="0.0131210962" flag="0"/>
    </comp>
    <comp name="--.HHN">
      <acc value="0.0643748527" flag="0"/>
      <vel value="0.0786050720" flag="0"/>
      <psa03 value="0.1177623795" flag="0"/>
      <psa10 value="0.1001225995" flag="0"/>
      <psa30 value="0.0175679615" flag="0"/>
    </comp>
    <comp name="--.HHZ">
      <acc value="0.0342522981" flag="0"/>
      <vel value="0.0342275910" flag="0"/>
      <psa03 value="0.0723682091" flag="0"/>
      <psa10 value="0.0533335389" flag="0"/>
      <psa30 value="0.0049945747" flag="0"/>
    </comp>
  </station>
  <station code="ANTK" name="ANTK" netid="HA" insttype="25" commtype="DIG" lat="38.3605" lon="22.6385">
    <comp name="--.HHN">
      <acc value="0.0252969570" flag="0"/>
      <vel value="0.0132037438" flag="0"/>
      <psa03 value="0.0336906153" flag="0"/>
      <psa10 value="0.0208941609" flag="0"/>
      <psa30 value="0.0024131176" flag="0"/>
    </comp>
    <comp name="--.HHZ">
      <acc value="0.0225261791" flag="0"/>
      <vel value="0.0175520860" flag="0"/>
      <psa03 value="0.0267001984" flag="0"/>
      <psa10 value="0.0253608662" flag="0"/>
      <psa30 value="0.0014172155" flag="0"/>
    </comp>
    <comp name="--.HHE">
      <acc value="0.0230597233" flag="0"/>
      <vel value="0.0092392299" flag="0"/>
      <psa03 value="0.0242147593" flag="0"/>
      <psa10 value="0.0142800966" flag="0"/>
      <psa30 value="0.0021570978" flag="0"/>
    </comp>
  </station>
  <station code="ATAL" name="ATAL" netid="HA" insttype="120s," commtype="DIG" lat="38.6926" lon="23.0213">
    <comp name="--.HHE">
      <acc value="0.0174846596" flag="0"/>
      <vel value="0.0170667638" flag="0"/>
      <psa03 value="0.0323992254" flag="0"/>
      <psa10 value="0.0296710446" flag="0"/>
      <psa30 value="0.0033167793" flag="0"/>
    </comp>
    <comp name="--.HHN">
      <acc value="0.0132244947" flag="0"/>
      <vel value="0.0185585498" flag="0"/>
      <psa03 value="0.0319773269" flag="0"/>
      <psa10 value="0.0437944663" flag="0"/>
      <psa30 value="0.0033842799" flag="0"/>
    </comp>
    <comp name="--.HHZ">
      <acc value="0.0000328715" flag="0"/>
      <vel value="0.0000269154" flag="0"/>
      <psa03 value="0.0000506496" flag="0"/>
      <psa10 value="0.0000673291" flag="0"/>
      <psa30 value="0.0000052268" flag="0"/>
    </comp>
  </station>
  <station code="ATHR" name="ATHR" netid="HA" insttype="GEOtiny," commtype="DIG" lat="38.3172" lon="20.4165">
    <comp name="--.HHE">
      <acc value="0.0265951750" flag="0"/>
      <vel value="0.0206435705" flag="0"/>
      <psa03 value="0.0752683263" flag="0"/>
      <psa10 value="0.0472924259" flag="0"/>
      <psa30 value="0.0043902546" flag="0"/>
    </comp>
    <comp name="--.HHN">
      <acc value="0.0312725347" flag="0"/>
      <vel value="0.0360534575" flag="0"/>
      <psa03 value="0.0768430460" flag="0"/>
      <psa10 value="0.0427171144" flag="0"/>
      <psa30 value="0.0055401344" flag="0"/>
    </comp>
    <comp name="--.HHZ">
      <acc value="0.0203353479" flag="0"/>
      <vel value="0.0153346197" flag="0"/>
      <psa03 value="0.0559079434" flag="0"/>
      <psa10 value="0.0303957619" flag="0"/>
      <psa30 value="0.0025446314" flag="0"/>
    </comp>
  </station>
  <station code="AXAR" name="AXAR" netid="HA" insttype="Horizon,120s,1200" commtype="DIG" lat="38.7664" lon="22.659">
    <comp name="--.HHE">
      <acc value="0.0671105806" flag="0"/>
      <vel value="0.0675361516" flag="0"/>
      <psa03 value="0.1607176172" flag="0"/>
      <psa10 value="0.1364429794" flag="0"/>
      <psa30 value="0.0096522250" flag="0"/>
    </comp>
    <comp name="--.HHN">
      <acc value="0.0767245614" flag="0"/>
      <vel value="0.0520623195" flag="0"/>
      <psa03 value="0.2275396326" flag="0"/>
      <psa10 value="0.1054110494" flag="0"/>
      <psa30 value="0.0109347521" flag="0"/>
    </comp>
    <comp name="--.HHZ">
      <acc value="0.0671221093" flag="0"/>
      <vel value="0.0450427472" flag="0"/>
      <psa03 value="0.1328271319" flag="0"/>
      <psa10 value="0.0545992861" flag="0"/>
      <psa30 value="0.0091271150" flag="0"/>
    </comp>
  </station>
  <station code="DOMV" name="DOMV" netid="HA" insttype="60" commtype="DIG" lat="38.2569" lon="22.9795">
    <comp name="--.HHN">
      <acc value="0.1257264675" flag="0"/>
      <vel value="0.0736470509" flag="0"/>
      <psa03 value="0.2049931533" flag="0"/>
      <psa10 value="0.0840685350" flag="0"/>
      <psa30 value="0.0072917339" flag="0"/>
    </comp>
    <comp name="--.HHE">
      <acc value="0.1599628619" flag="0"/>
      <vel value="0.0587650963" flag="0"/>
      <psa03 value="0.3982470802" flag="0"/>
      <psa10 value="0.0282399740" flag="0"/>
      <psa30 value="0.0027894669" flag="0"/>
    </comp>
    <comp name="--.HHZ">
      <acc value="0.0888761473" flag="0"/>
      <vel value="0.0456783237" flag="0"/>
      <psa03 value="0.1645689591" flag="0"/>
      <psa10 value="0.0362424467" flag="0"/>
      <psa30 value="0.0030835519" flag="0"/>
    </comp>
  </station>
  <station code="EPID" name="EPID" netid="HA" insttype="30" commtype="DIG" lat="37.6144" lon="23.1189">
    <comp name="--.HHZ">
      <acc value="0.0424489499" flag="0"/>
      <vel value="0.0218741000" flag="0"/>
      <psa03 value="0.0748940164" flag="0"/>
      <psa10 value="0.0203237383" flag="0"/>
      <psa30 value="0.0036672969" flag="0"/>
    </comp>
    <comp name="--.HHN">
      <acc value="0.0766337559" flag="0"/>
      <vel value="0.0324980974" flag="0"/>
      <psa03 value="0.1502781432" flag="0"/>
      <psa10 value="0.0248065296" flag="0"/>
      <psa30 value="0.0040547594" flag="0"/>
    </comp>
    <comp name="--.HHE">
      <acc value="0.0637882944" flag="0"/>
      <vel value="0.0228785888" flag="0"/>
      <psa03 value="0.1079694959" flag="0"/>
      <psa10 value="0.0317642062" flag="0"/>
      <psa30 value="0.0031215246" flag="0"/>
    </comp>
  </station>
  <station code="HAVD" name="HAVD" netid="HA" insttype="GEOtiny," commtype="DIG" lat="38.2036" lon="20.3848">
    <comp name="--.HHE">
      <acc value="0.0354602030" flag="0"/>
      <vel value="0.0193343263" flag="0"/>
      <psa03 value="0.0619999415" flag="0"/>
      <psa10 value="0.0303819113" flag="0"/>
      <psa30 value="0.0036957665" flag="0"/>
    </comp>
    <comp name="--.HHN">
      <acc value="0.0474960420" flag="0"/>
      <vel value="0.0363964649" flag="0"/>
      <psa03 value="0.1280734921" flag="0"/>
      <psa10 value="0.0667293367" flag="0"/>
      <psa30 value="0.0067302874" flag="0"/>
    </comp>
    <comp name="--.HHZ">
      <acc value="0.0353879963" flag="0"/>
      <vel value="0.0152487329" flag="0"/>
      <psa03 value="0.0765356212" flag="0"/>
      <psa10 value="0.0283936740" flag="0"/>
      <psa30 value="0.0029283595" flag="0"/>
    </comp>
  </station>
  <station code="KALE" name="KALE" netid="HA" insttype="40," commtype="DIG" lat="38.3911" lon="22.1398">
    <comp name="--.HHE">
      <acc value="0.1696297791" flag="0"/>
      <vel value="0.0701745717" flag="0"/>
      <psa03 value="0.2972269474" flag="0"/>
      <psa10 value="0.0745727437" flag="0"/>
      <psa30 value="0.0052323906" flag="0"/>
    </comp>
    <comp name="--.HHN">
      <acc value="0.1613395501" flag="0"/>
      <vel value="0.0627491093" flag="0"/>
      <psa03 value="0.2974938224" flag="0"/>
      <psa10 value="0.0651065268" flag="0"/>
      <psa30 value="0.0075531498" flag="0"/>
    </comp>
    <comp name="--.HHZ">
      <acc value="0.1360089202" flag="0"/>
      <vel value="0.0352409595" flag="0"/>
      <psa03 value="0.1959579748" flag="0"/>
      <psa10 value="0.0341528473" flag="0"/>
      <psa30 value="0.0078727995" flag="0"/>
    </comp>
  </station>
  <station code="LAKA" name="LAKA" netid="HA" insttype="120s," commtype="DIG" lat="38.2401" lon="21.9785">
    <comp name="--.HHZ">
      <acc value="0.4096374560" flag="0"/>
      <vel value="0.1160807942" flag="0"/>
      <psa03 value="0.4003458789" flag="0"/>
      <psa10 value="0.1529098425" flag="0"/>
      <psa30 value="0.0110623856" flag="0"/>
    </comp>
    <comp name="--.HHE">
      <acc value="0.4597364340" flag="0"/>
      <vel value="0.1328876741" flag="0"/>
      <psa03 value="0.4898690122" flag="0"/>
      <psa10 value="0.1695677324" flag="0"/>
      <psa30 value="0.0226284770" flag="0"/>
    </comp>
    <comp name="--.HHN">
      <acc value="0.5007185896" flag="0"/>
      <vel value="0.1857926069" flag="0"/>
      <psa03 value="0.3756647995" flag="0"/>
      <psa10 value="0.2589374171" flag="0"/>
      <psa30 value="0.0188090195" flag="0"/>
    </comp>
  </station>
  <station code="LOUT" name="LOUT" netid="HA" insttype="30" commtype="DIG" lat="37.9879" lon="22.9743">
    <comp name="--.HHE">
      <acc value="0.1117295898" flag="0"/>
      <vel value="0.0750165421" flag="0"/>
      <psa03 value="0.2034263890" flag="0"/>
      <psa10 value="0.1616333372" flag="0"/>
      <psa30 value="0.0087391150" flag="0"/>
    </comp>
    <comp name="--.HHN">
      <acc value="0.0951198391" flag="0"/>
      <vel value="0.0767651428" flag="0"/>
      <psa03 value="0.1885847452" flag="0"/>
      <psa10 value="0.1226768229" flag="0"/>
      <psa30 value="0.0072092372" flag="0"/>
    </comp>
    <comp name="--.HHZ">
      <acc value="0.0462803599" flag="0"/>
      <vel value="0.0321542744" flag="0"/>
      <psa03 value="0.1125108989" flag="0"/>
      <psa10 value="0.0440494290" flag="0"/>
      <psa30 value="0.0043429910" flag="0"/>
    </comp>
  </station>
  <station code="MDRA" name="MDRA" netid="HA" insttype="60" commtype="DIG" lat="38.0606" lon="23.4662">
    <comp name="--.HHE">
      <acc value="0.0153308062" flag="0"/>
      <vel value="0.0099979434" flag="0"/>
      <psa03 value="0.0369623058" flag="0"/>
      <psa10 value="0.0153311161" flag="0"/>
      <psa30 value="0.0011698374" flag="0"/>
    </comp>
    <comp name="--.HHN">
      <acc value="0.0305616725" flag="0"/>
      <vel value="0.0241113505" flag="0"/>
      <psa03 value="0.0642589691" flag="0"/>
      <psa10 value="0.0559723345" flag="0"/>
      <psa30 value="0.0040943493" flag="0"/>
    </comp>
    <comp name="--.HHZ">
      <acc value="0.0178727500" flag="0"/>
      <vel value="0.0142240167" flag="0"/>
      <psa03 value="0.0423663554" flag="0"/>
      <psa10 value="0.0250400049" flag="0"/>
      <psa30 value="0.0024355506" flag="0"/>
    </comp>
  </station>
  <station code="PRDM" name="PRDM" netid="HA" insttype="25" commtype="DIG" lat="38.2804" lon="22.847">
