<?xml version="1.0" encoding="UTF-8" standalone="yes"?>
<!DOCTYPE earthquake SYSTEM "stationlist.dtd">
<stationlist created="" xmlns="ch.ethz.sed.shakemap.usgs.xml">
  <station code="AGRP" name="AGRP" netid="CL" insttype="CMG40-T" commtype="DIG" lat="38.3959" lon="21.7228">
    <comp name="00.HHN">
      <acc value="0.2666979859" flag="0"/>
      <vel value="0.1219853371" flag="0"/>
      <psa03 value="0.7817690720" flag="0"/>
      <psa10 value="0.0981096636" flag="0"/>
      <psa30 value="0.0083353403" flag="0"/>
    </comp>
    <comp name="00.HHE">
      <acc value="0.2453683973" flag="0"/>
      <vel value="0.0921654806" flag="0"/>
      <psa03 value="0.4953056200" flag="0"/>
      <psa10 value="0.1032103161" flag="0"/>
      <psa30 value="0.0252780172" flag="0"/>
    </comp>
    <comp name="00.HHZ">
      <acc value="0.1086761522" flag="0"/>
      <vel value="0.0439334499" flag="0"/>
      <psa03 value="0.2323102105" flag="0"/>
      <psa10 value="0.0385688390" flag="0"/>
      <psa30 value="0.0058845602" flag="0"/>
    </comp>
  </station>
  <station code="MALA" name="MALA" netid="CL" insttype="TRILLIUM-40" commtype="DIG" lat="38.3934" lon="21.8726">
    <comp name="01.HHE">
      <acc value="0.3471443600" flag="0"/>
      <vel value="0.2675731195" flag="0"/>
      <psa03 value="0.6761848616" flag="0"/>
      <psa10 value="0.3977663325" flag="0"/>
      <psa30 value="0.0405906645" flag="0"/>
    </comp>
    <comp name="01.HHZ">
      <acc value="0.1140539391" flag="0"/>
      <vel value="0.0625113579" flag="0"/>
      <psa03 value="0.2162709767" flag="0"/>
      <psa10 value="0.1411326422" flag="0"/>
      <psa30 value="0.0113195441" flag="0"/>
    </comp>
    <comp name="01.HHN">
      <acc value="0.3763440067" flag="0"/>
      <vel value="0.2361212841" flag="0"/>
      <psa03 value="0.7792389953" flag="0"/>
      <psa10 value="0.4295030590" flag="0"/>
      <psa30 value="0.0287943541" flag="0"/>
    </comp>
  </station>
  <station code="MG06" name="MG06" netid="CL" insttype="TRILLIUM-40" commtype="DIG" lat="38.4129" lon="21.9462">
    <comp name="06.HHE">
      <acc value="0.2689323272" flag="0"/>
      <vel value="0.1048443002" flag="0"/>
      <psa03 value="0.3040853074" flag="0"/>
      <psa10 value="0.1282001201" flag="0"/>
      <psa30 value="0.0140681899" flag="0"/>
    </comp>
    <comp name="06.HHN">
      <acc value="0.2292316763" flag="0"/>
      <vel value="0.0860558942" flag="0"/>
      <psa03 value="0.2752459960" flag="0"/>
      <psa10 value="0.1072214520" flag="0"/>
      <psa30 value="0.0106210643" flag="0"/>
    </comp>
    <comp name="06.HHZ">
      <acc value="0.2387188597" flag="0"/>
      <vel value="0.0409988631" flag="0"/>
      <psa03 value="0.1628654011" flag="0"/>
      <psa10 value="0.0433154055" flag="0"/>
      <psa30 value="0.0076893781" flag="0"/>
    </comp>
  </station>
  <station code="PSAM" name="PSAM" netid="CL" insttype="CMG40-T" commtype="DIG" lat="38.3218" lon="22.1842">
    <comp name="00.HHN">
      <acc value="0.1438556665" flag="0"/>
      <vel value="0.0722041636" flag="0"/>
      <psa03 value="0.1463419566" flag="0"/>
      <psa10 value="0.0850588020" flag="0"/>
      <psa30 value="0.0156701114" flag="0"/>
    </comp>
    <comp name="00.HHE">
      <acc value="0.1853602044" flag="0"/>
      <vel value="0.0663480530" flag="0"/>
      <psa03 value="0.1842818626" flag="0"/>
      <psa10 value="0.0991131515" flag="0"/>
      <psa30 value="0.0209970326" flag="0"/>
    </comp>
    <comp name="00.HHZ">
      <acc value="0.1618407737" flag="0"/>
      <vel value="0.0337807387" flag="0"/>
      <psa03 value="0.1012497729" flag="0"/>
      <psa10 value="0.0392069189" flag="0"/>
      <psa30 value="0.0064504185" flag="0"/>
    </comp>
  </station>
  <station code="ROD3" name="ROD3" netid="CL" insttype="CMG40-T" commtype="DIG" lat="38.3081" lon="21.892">
    <comp name="00.HHE">
      <acc value="1.4575216374" flag="0"/>
      <vel value="0.5029500389" flag="0"/>
      <psa03 value="2.7008982332" flag="0"/>
      <psa10 value="0.4075209187" flag="0"/>
      <psa30 value="0.0396649043" flag="0"/>
    </comp>
    <comp name="00.HHN">
      <acc value="1.1198961869" flag="0"/>
      <vel value="0.4449505728" flag="0"/>
      <psa03 value="2.9840219039" flag="0"/>
      <psa10 value="0.2416630235" flag="0"/>
      <psa30 value="0.0191766921" flag="0"/>
    </comp>
    <comp name="00.HHZ">
      <acc value="0.7532834310" flag="0"/>
      <vel value="0.2436406324" flag="0"/>
      <psa03 value="0.8885350256" flag="0"/>
      <psa10 value="0.1873157628" flag="0"/>
      <psa30 value="0.0231087269" flag="0"/>
    </comp>
  </station>
  <station code="TRIZ" name="TRIZ" netid="CL" insttype="STS-2" commtype="DIG" lat="38.3654" lon="22.0727">
    <comp name="00.HH2">
      <acc value="0.1606755227" flag="0"/>
      <vel value="0.0791870886" flag="0"/>
      <psa03 value="0.4094123632" flag="0"/>
      <psa10 value="0.1090123449" flag="0"/>
      <psa30 value="0.0126794579" flag="0"/>
    </comp>
    <comp name="00.HHZ">
      <acc value="0.2192866839" flag="0"/>
      <vel value="0.0478226592" flag="0"/>
      <psa03 value="0.1214167013" flag="0"/>
      <psa10 value="0.0800026367" flag="0"/>
      <psa30 value="0.0085318168" flag="0"/>
    </comp>
    <comp name="00.HH3">
      <acc value="0.1446684795" flag="0"/>
      <vel value="0.0939764555" flag="0"/>
      <psa03 value="0.3747701339" flag="0"/>
      <psa10 value="0.1123940423" flag="0"/>
      <psa30 value="0.0148629612" flag="0"/>
    </comp>
  </station>
  <station code="ZIRI" name="ZIRI" netid="CL" insttype="TRILLIUM-40" commtype="DIG" lat="38.3051" lon="21.9476">
    <comp name="01.HHE">
      <acc value="1.1172297789" flag="0"/>
      <vel value="0.3611897446" flag="0"/>
      <psa03 value="1.3057656205" flag="0"/>
      <psa10 value="0.4114993575" flag="0"/>
      <psa30 value="0.0273038952" flag="0"/>
    </comp>
    <comp name="01.HHN">
      <acc value="1.0573016546" flag="0"/>
      <vel value="0.4138875413" flag="0"/>
      <psa03 value="1.3074411296" flag="0"/>
      <psa10 value="0.2854293285" flag="0"/>
      <psa30 value="0.0213257733" flag="0"/>
    </comp>
    <comp name="01.HHZ">
      <acc value="0.9058032323" flag="0"/>
      <vel value="0.2338640940" flag="0"/>
      <psa03 value="1.1651849065" flag="0"/>
      <psa10 value="0.2095040787" flag="0"/>
      <psa30 value="0.0168091864" flag="0"/>
    </comp>
  </station>
  <station code="PYR2" name="PYR2" netid="HI" insttype="unknown" commtype="DIG" lat="37.6671" lon="21.4506">
    <comp name="--.HNE">
      <acc value="0.6789009028" flag="0"/>
      <vel value="0.3501024026" flag="0"/>
      <psa03 value="2.3418082247" flag="0"/>
      <psa10 value="0.2331524663" flag="0"/>
      <psa30 value="0.0297037112" flag="0"/>
    </comp>
    <comp name="--.HNN">
      <acc value="0.6224487951" flag="0"/>
      <vel value="0.2978906837" flag="0"/>
      <psa03 value="1.9042562657" flag="0"/>
      <psa10 value="0.2624575504" flag="0"/>
      <psa30 value="0.0384933788" flag="0"/>
    </comp>
    <comp name="--.HNZ">
      <acc value="0.4406196073" flag="0"/>
      <vel value="0.1603988808" flag="0"/>
      <psa03 value="0.5352833547" flag="0"/>
      <psa10 value="0.1496138387" flag="0"/>
      <psa30 value="0.0342116893" flag="0"/>
    </comp>
  </station>
  <station code="TRP1" name="TRP1" netid="HI" insttype="unknown" commtype="DIG" lat="37.5112" lon="22.3634">
    <comp name="--.HNE">
      <acc value="0.4440116139" flag="0"/>
      <vel value="0.2338990909" flag="0"/>
      <psa03 value="0.9613411185" flag="0"/>
      <psa10 value="0.1101430723" flag="0"/>
      <psa30 value="0.0137592760" flag="0"/>
    </comp>
    <comp name="--.HNN">
      <acc value="0.4404893781" flag="0"/>
      <vel value="0.1684593005" flag="0"/>
      <psa03 value="0.4949420088" flag="0"/>
      <psa10 value="0.1567814049" flag="0"/>
      <psa30 value="0.0114117242" flag="0"/>
    </comp>
    <comp name="--.HNZ">
      <acc value="0.2242399938" flag="0"/>
      <vel value="0.0909196567" flag="0"/>
      <psa03 value="0.4129212791" flag="0"/>
      <psa10 value="0.0614723754" flag="0"/>
      <psa30 value="0.0080214488" flag="0"/>
    </comp>
  </station>
  <station code="ARTB" name="ARTB" netid="HL" insttype="CMG-5" commtype="DIG" lat="39.157" lon="20.9785">
    <comp name="00.HNZ">
      <acc value="0.0134474799" flag="0"/>
      <vel value="0.0153807331" flag="0"/>
      <psa03 value="0.0269190374" flag="0"/>
      <psa10 value="0.0225378853" flag="0"/>
      <psa30 value="0.0045371654" flag="0"/>
    </comp>
    <comp name="00.HNE">
      <acc value="0.0205411800" flag="0"/>
      <vel value="0.0146134937" flag="0"/>
      <psa03 value="0.0734025808" flag="0"/>
      <psa10 value="0.0167634552" flag="0"/>
      <psa30 value="0.0046115375" flag="0"/>
    </comp>
  </station>
  <station code="ATH" name="ATH" netid="HL" insttype="DR24" commtype="DIG" lat="37.9738" lon="23.7177">
    <comp name="--.HHE">
      <acc value="0.0287235256" flag="0"/>
      <vel value="0.0218336748" flag="0"/>
      <psa03 value="0.0759019572" flag="0"/>
      <psa10 value="0.0450633186" flag="0"/>
      <psa30 value="0.0025872643" flag="0"/>
    </comp>
    <comp name="--.HHN">
      <acc value="0.0244231340" flag="0"/>
      <vel value="0.0208524807" flag="0"/>
      <psa03 value="0.0380382840" flag="0"/>
      <psa10 value="0.0172721106" flag="0"/>
      <psa30 value="0.0033611738" flag="0"/>
    </comp>
    <comp name="--.HHZ">
      <acc value="0.0222961299" flag="0"/>
      <vel value="0.0172597465" flag="0"/>
      <psa03 value="0.0324800249" flag="0"/>
      <psa10 value="0.0204497554" flag="0"/>
      <psa30 value="0.0020416644" flag="0"/>
    </comp>
  </station>
  <station code="EVR" name="EVR" netid="HL" insttype="DR24" commtype="DIG" lat="38.9166" lon="21.8105">
    <comp name="--.HHN">
      <acc value="0.0449335618" flag="0"/>
      <vel value="0.0314322649" flag="0"/>
      <psa03 value="0.0856554348" flag="0"/>
      <psa10 value="0.0802664725" flag="0"/>
      <psa30 value="0.0064475115" flag="0"/>
    </comp>
    <comp name="--.HHE">
      <acc value="0.0365976975" flag="0"/>
      <vel value="0.0272450500" flag="0"/>
      <psa03 value="0.0531141430" flag="0"/>
      <psa10 value="0.0690123041" flag="0"/>
      <psa30 value="0.0100143951" flag="0"/>
    </comp>
    <comp name="--.HHZ">
      <acc value="0.0229819362" flag="0"/>
      <vel value="0.0271127094" flag="0"/>
      <psa03 value="0.0380335229" flag="0"/>
      <psa10 value="0.0336320376" flag="0"/>
      <psa30 value="0.0068227051" flag="0"/>
    </comp>
  </station>
  <station code="ITM" name="ITM" netid="HL" insttype="DR24" commtype="DIG" lat="37.1787" lon="21.9252">
    <comp name="--.HHE">
      <acc value="0.1439907351" flag="0"/>
      <vel value="0.0802180501" flag="0"/>
      <psa03 value="0.2960376149" flag="0"/>
      <psa10 value="0.1072781513" flag="0"/>
      <psa30 value="0.0068195379" flag="0"/>
    </comp>
    <comp name="--.HHN">
      <acc value="0.1635805528" flag="0"/>
      <vel value="0.0813766353" flag="0"/>
      <psa03 value="0.2505767775" flag="0"/>
      <psa10 value="0.0800731157" flag="0"/>
      <psa30 value="0.0087267763" flag="0"/>
    </comp>
    <comp name="--.HHZ">
      <acc value="0.0898204764" flag="0"/>
      <vel value="0.0497380019" flag="0"/>
      <psa03 value="0.1742461021" flag="0"/>
      <psa10 value="0.0872802547" flag="0"/>
      <psa30 value="0.0082765325" flag="0"/>
    </comp>
  </station>
  <station code="KIAA" name="KIAA" netid="HL" insttype="CMG-5" commtype="DIG" lat="38.0139" lon="22.7495">
    <comp name="00.HNE">
      <acc value="0.3796092927" flag="0"/>
      <vel value="0.4126292333" flag="0"/>
      <psa03 value="0.6369905905" flag="0"/>
      <psa10 value="0.9495002380" flag="0"/>
      <psa30 value="0.0639741567" flag="0"/>
    </comp>
    <comp name="00.HNZ">
      <acc value="0.1660109991" flag="0"/>
      <vel value="0.1442341181" flag="0"/>
      <psa03 value="0.3329794438" flag="0"/>
      <psa10 value="0.2355270815" flag="0"/>
      <psa30 value="0.0215252261" flag="0"/>
    </comp>
    <comp name="00.HNN">
      <acc value="0.3773230884" flag="0"/>
      <vel value="0.2741732569" flag="0"/>
      <psa03 value="0.8179063284" flag="0"/>
      <psa10 value="0.6245659653" flag="0"/>
      <psa30 value="0.0454010161" flag="0"/>
    </comp>
  </station>
  <station code="KLV" name="KLV" netid="HL" insttype="120" commtype="DIG" lat="38.0435" lon="22.1504">
    <comp name="--.HHE">
      <acc value="1.1306378948" flag="0"/>
      <vel value="0.3899464942" flag="0"/>
      <psa03 value="0.9189141694" flag="0"/>
      <psa10 value="0.6679084015" flag="0"/>
      <psa30 value="0.0383177745" flag="0"/>
    </comp>
    <comp name="--.HHN">
      <acc value="1.8299339957" flag="0"/>
      <vel value="0.7042916845" flag="0"/>
      <psa03 value="1.6377379809" flag="0"/>
      <psa10 value="0.6210204307" flag="0"/>
      <psa30 value="0.0771819318" flag="0"/>
    </comp>
    <comp name="--.HHZ">
      <acc value="0.9557265501" flag="0"/>
      <vel value="0.3345314357" flag="0"/>
      <psa03 value="0.7612931335" flag="0"/>
      <psa10 value="0.3139599336" flag="0"/>
      <psa30 value="0.0196056203" flag="0"/>
    </comp>
  </station>
  <station code="KRYO" name="KRYO" netid="HL" insttype="Horizon,120s,1200" commtype="DIG" lat="37.9712" lon="22.618">
    <comp name="--.HHE">
      <acc value="0.5029656250" flag="0"/>
      <vel value="0.2310529298" flag="0"/>
      <psa03 value="0.4812115979" flag="0"/>
      <psa10 value="0.2665703973" flag="0"/>
      <psa30 value="0.0150128841" flag="0"/>
    </comp>
    <comp name="--.HHN">
      <acc value="0.4488110612" flag="0"/>
      <vel value="0.2900782603" flag="0"/>
      <psa03 value="0.8895261736" flag="0"/>
      <psa10 value="0.4239223543" flag="0"/>
      <psa30 value="0.0266744785" flag="0"/>
    </comp>
    <comp name="--.HHZ">
      <acc value="0.2716837474" flag="0"/>
      <vel value="0.1557638382" flag="0"/>
      <psa03 value="0.6152291906" flag="0"/>
      <psa10 value="0.2233039779" flag="0"/>
      <psa30 value="0.0194586088" flag="0"/>
    </comp>
  </station>
  <station code="LKR" name="LKR" netid="HL" insttype="65535" commtype="DIG" lat="38.6496" lon="22.9988">
    <comp name="--.HHN">
      <acc value="0.0543811748" flag="0"/>
      <vel value="0.0253549709" flag="0"/>
      <psa03 value="0.0885536714" flag="0"/>
      <psa10 value="0.0279513418" flag="0"/>
      <psa30 value="0.0048632224" flag="0"/>
    </comp>
    <comp name="--.HHE">
      <acc value="0.0465730100" flag="0"/>
      <vel value="0.0248957021" flag="0"/>
      <psa03 value="0.0838691807" flag="0"/>
      <psa10 value="0.0187586690" flag="0"/>
      <psa30 value="0.0038691269" flag="0"/>
    </comp>
    <comp name="--.HHZ">
      <acc value="0.0222519453" flag="0"/>
      <vel value="0.0167291693" flag="0"/>
      <psa03 value="0.0574242708" flag="0"/>
      <psa10 value="0.0185394568" flag="0"/>
      <psa30 value="0.0033990418" flag="0"/>
    </comp>
  </station>
  <station code="LXRA" name="LXRA" netid="HL" insttype="CMG-5" commtype="DIG" lat="38.2001" lon="20.4372">
    <comp name="00.HNE">
      <acc value="0.1070154299" flag="0"/>
      <vel value="0.0681335883" flag="0"/>
      <psa03 value="0.2888176463" flag="0"/>
      <psa10 value="0.1128757218" flag="0"/>
      <psa30 value="0.0093632469" flag="0"/>
    </comp>
    <comp name="00.HNN">
      <acc value="0.0981865979" flag="0"/>
      <vel value="0.0709229579" flag="0"/>
      <psa03 value="0.1778560826" flag="0"/>
      <psa10 value="0.0969401736" flag="0"/>
      <psa30 value="0.0257900631" flag="0"/>
    </comp>
    <comp name="00.HNZ">
      <acc value="0.0808740092" flag="0"/>
      <vel value="0.0398195456" flag="0"/>
      <psa03 value="0.0969995322" flag="0"/>
      <psa10 value="0.0545575043" flag="0"/>
      <psa30 value="0.0089942413" flag="0"/>
    </comp>
  </station>
  <station code="MET1" name="MET1" netid="HL" insttype="65535" commtype="DIG" lat="37.5785" lon="23.3859">
    <comp name="--.HHE">
      <acc value="0.0272353689" flag="0"/>
      <vel value="0.0184334156" flag="0"/>
      <psa03 value="0.0516507074" flag="0"/>
      <psa10 value="0.0337123081" flag="0"/>
      <psa30 value="0.0031830806" flag="0"/>
    </comp>
    <comp name="--.HHZ">
      <acc value="0.0218450512" flag="0"/>
      <vel value="0.0119583363" flag="0"/>
      <psa03 value="0.0509950659" flag="0"/>
      <psa10 value="0.0183765816" flag="0"/>
      <psa30 value="0.0023687851" flag="0"/>
    </comp>
    <comp name="--.HHN">
      <acc value="0.0000536671" flag="0"/>
      <vel value="0.0000140232" flag="0"/>
      <psa03 value="0.0001695642" flag="0"/>
      <psa10 value="0.0000054982" flag="0"/>
      <psa30 value="0.0000030078" flag="0"/>
    </comp>
  </station>
  <station code="NOAC" name="NOAC" netid="HL" insttype="CMG-5" commtype="DIG" lat="37.9738" lon="23.7177">
    <comp name="00.HNE">
      <acc value="0.0302818137" flag="0"/>
      <vel value="0.0223021946" flag="0"/>
      <psa03 value="0.0792789528" flag="0"/>
      <psa10 value="0.0455188313" flag="0"/>
      <psa30 value="0.0025640968" flag="0"/>
    </comp>
    <comp name="00.HNN">
      <acc value="0.0237875667" flag="0"/>
      <vel value="0.0217606354" flag="0"/>
      <psa03 value="0.0392086489" flag="0"/>
      <psa10 value="0.0177456549" flag="0"/>
      <psa30 value="0.0033904627" flag="0"/>
    </comp>
    <comp name="00.HNZ">
      <acc value="0.0229271373" flag="0"/>
      <vel value="0.0172981089" flag="0"/>
      <psa03 value="0.0333290472" flag="0"/>
      <psa10 value="0.0209468247" flag="0"/>
      <psa30 value="0.0020259408" flag="0"/>
    </comp>
  </station>
  <station code="ORTH" name="ORTH" netid="HL" insttype="30" commtype="DIG" lat="37.8511" lon="20.6963">
    <comp name="--.HHE">
      <acc value="0.0691750032" flag="0"/>
      <vel value="0.0454034079" flag="0"/>
      <psa03 value="0.2138531520" flag="0"/>
      <psa10 value="0.0627112383" flag="0"/>
      <psa30 value="0.0059729304" flag="0"/>
    </comp>
    <comp name="--.HHZ">
      <acc value="0.0335782787" flag="0"/>
      <vel value="0.0219725818" flag="0"/>
      <psa03 value="0.0912705617" flag="0"/>
      <psa10 value="0.0327611831" flag="0"/>
      <psa30 value="0.0048384641" flag="0"/>
    </comp>
    <comp name="--.HHN">
      <acc value="0.0752097733" flag="0"/>
      <vel value="0.0555802025" flag="0"/>
      <psa03 value="0.1551122752" flag="0"/>
      <psa10 value="0.1094407418" flag="0"/>
      <psa30 value="0.0139458991" flag="0"/>
    </comp>
  </station>
  <station code="PATC" name="PATC" netid="HL" insttype="CMG-5" commtype="DIG" lat="38.2693" lon="21.76">
    <comp name="00.HNZ">
      <acc value="0.5308781605" flag="0"/>
      <vel value="0.3204788948" flag="0"/>
      <psa03 value="1.4235718517" flag="0"/>
      <psa10 value="0.5146138144" flag="0"/>
      <psa30 value="0.0226898320" flag="0"/>
    </comp>
    <comp name="00.HNE">
      <acc value="0.9524997265" flag="0"/>
      <vel value="0.7906649229" flag="0"/>
      <psa03 value="1.8562347666" flag="0"/>
      <psa10 value="0.9041661764" flag="0"/>
      <psa30 value="0.1099030170" flag="0"/>
    </comp>
    <comp name="00.HNN">
      <acc value="1.8536449725" flag="0"/>
      <vel value="0.8836077546" flag="0"/>
      <psa03 value="3.9074878243" flag="0"/>
      <psa10 value="0.6421210006" flag="0"/>
      <psa30 value="0.0790584463" flag="0"/>
    </comp>
  </station>
  <station code="PATG" name="PATG" netid="HL" insttype="CMG-5" commtype="DIG" lat="38.2386" lon="21.7266">
    <comp name="00.HNE">
      <acc value="1.5707094705" flag="0"/>
      <vel value="1.1127651722" flag="0"/>
      <psa03 value="3.5948604374" flag="0"/>
      <psa10 value="1.0338823293" flag="0"/>
      <psa30 value="0.0871358430" flag="0"/>
    </comp>
    <comp name="00.HNN">
