<stationlist xmlns:esm="https://esm-db.eu/esmws/shakemap/1/" created="1781488458">
	<station code="AGRP" name="AGRP" netid="CL" source="Corinth Riff Laboratory (CRLNET)" insttype="" lat="38.3959" lon="21.72277" esm:processing="automatic (Paolucci et al 2011)" esm:quality="best">
		<comp name="00.HNE" depth="0.0">
			<acc value="0.240103733608834" flag="0"/>
			<vel value="0.0923544255747245" flag="0"/>
			<psa03 value="0.47806466943813" flag="0"/>
			<psa10 value="0.10179822113255" flag="0"/>
			<psa30 value="0.0242568552309459" flag="0"/>
		</comp>
		<comp name="00.HNN" depth="0.0">
			<acc value="0.277358950280497" flag="0"/>
			<vel value="0.116177481083237" flag="0"/>
			<psa03 value="0.771461438867522" flag="0"/>
			<psa10 value="0.0963760594409488" flag="0"/>
			<psa30 value="0.00938356744862464" flag="0"/>
		</comp>
		<comp name="00.HNZ" depth="0.0">
			<acc value="0.112676743586655" flag="0"/>
			<vel value="0.0433190712800307" flag="0"/>
			<psa03 value="0.244610308399113" flag="0"/>
			<psa10 value="0.0358223505549173" flag="0"/>
			<psa30 value="0.00625811790293115" flag="0"/>
		</comp>
	</station>
	<station code="MALA" name="MALA" netid="CL" source="Corinth Riff Laboratory (CRLNET)" insttype="" lat="38.39341" lon="21.87263" esm:processing="automatic (Paolucci et al 2011)" esm:quality="best">
		<comp name="01.HNE" depth="0.0">
			<acc value="0.364503062707949" flag="0"/>
			<vel value="0.275775368973699" flag="0"/>
			<psa03 value="0.665784438284869" flag="0"/>
			<psa10 value="0.407371726377596" flag="0"/>
			<psa30 value="0.0421077060955416" flag="0"/>
		</comp>
		<comp name="01.HNN" depth="0.0">
			<acc value="0.374906860103367" flag="0"/>
			<vel value="0.245746211484553" flag="0"/>
			<psa03 value="0.774726655172077" flag="0"/>
			<psa10 value="0.43856629286453" flag="0"/>
			<psa30 value="0.0293014310760048" flag="0"/>
		</comp>
		<comp name="01.HNZ" depth="0.0">
			<acc value="0.126889704921819" flag="0"/>
			<vel value="0.0627017876054143" flag="0"/>
			<psa03 value="0.228079504981182" flag="0"/>
			<psa10 value="0.142543267791925" flag="0"/>
			<psa30 value="0.0114860342267303" flag="0"/>
		</comp>
	</station>
	<station code="ROD3" name="ROD3" netid="CL" source="Corinth Riff Laboratory (CRLNET)" insttype="" lat="38.30811" lon="21.89204" esm:processing="automatic (Paolucci et al 2011)" esm:quality="best">
		<comp name="00.HNE" depth="0.0">
			<acc value="1.13079918752691" flag="0"/>
			<vel value="0.407102408883365" flag="0"/>
			<psa03 value="2.33798654680115" flag="0"/>
			<psa10 value="0.337512608553891" flag="0"/>
			<psa30 value="0.0319461762773947" flag="0"/>
		</comp>
		<comp name="00.HNN" depth="0.0">
			<acc value="0.92635983302391" flag="0"/>
			<vel value="0.363824920056619" flag="0"/>
			<psa03 value="2.40440294656168" flag="0"/>
			<psa10 value="0.21667433861155" flag="0"/>
			<psa30 value="0.0170352635026023" flag="0"/>
		</comp>
		<comp name="00.HNZ" depth="0.0">
			<acc value="0.60546689906532" flag="0"/>
			<vel value="0.200283943648031" flag="0"/>
			<psa03 value="0.744197632774172" flag="0"/>
			<psa10 value="0.148837189733365" flag="0"/>
			<psa30 value="0.0193420129801009" flag="0"/>
		</comp>
	</station>
	<station code="TRIZ" name="TRIZ" netid="CL" source="Corinth Riff Laboratory (CRLNET)" insttype="" lat="38.36543" lon="22.07272" esm:processing="automatic (Paolucci et al 2011)" esm:quality="best">
		<comp name="00.HNE" depth="0.0">
			<acc value="0.14977570528845" flag="0"/>
			<vel value="0.0567919156928118" flag="0"/>
			<psa03 value="0.292627864326535" flag="0"/>
			<psa10 value="0.100668128769477" flag="0"/>
			<psa30 value="0.014228495901357" flag="0"/>
		</comp>
		<comp name="00.HNN" depth="0.0">
			<acc value="0.16943634849439" flag="0"/>
			<vel value="0.105470562969584" flag="0"/>
			<psa03 value="0.450198906801447" flag="0"/>
			<psa10 value="0.128009630009749" flag="0"/>
			<psa30 value="0.0130814724166804" flag="0"/>
		</comp>
		<comp name="00.HNZ" depth="0.0">
			<acc value="0.215002835006943" flag="0"/>
			<vel value="0.0492494600863219" flag="0"/>
			<psa03 value="0.12633350439132" flag="0"/>
			<psa10 value="0.0797581310847517" flag="0"/>
			<psa30 value="0.00856480320951209" flag="0"/>
		</comp>
	</station>
	<station code="AGR3" name="AGR3" netid="HI" source="ITSAK Strong Motion Network" insttype="" lat="38.5893" lon="21.4162" esm:processing="automatic (Paolucci et al 2011)" esm:quality="best">
		<comp name="--.HNE" depth="0.0">
			<acc value="0.121468106611944" flag="0"/>
			<vel value="0.107129160444664" flag="0"/>
			<psa03 value="0.344344540302506" flag="0"/>
			<psa10 value="0.238931088011968" flag="0"/>
			<psa30 value="0.0566838283587723" flag="0"/>
		</comp>
		<comp name="--.HNN" depth="0.0">
			<acc value="0.0917449361779922" flag="0"/>
			<vel value="0.126571901617911" flag="0"/>
			<psa03 value="0.318468034444322" flag="0"/>
			<psa10 value="0.143826182778747" flag="0"/>
			<psa30 value="0.0375401735189247" flag="0"/>
		</comp>
		<comp name="--.HNZ" depth="0.0">
			<acc value="0.0602619300313004" flag="0"/>
			<vel value="0.0786359009931829" flag="0"/>
			<psa03 value="0.134512035762218" flag="0"/>
			<psa10 value="0.139559195111755" flag="0"/>
			<psa30 value="0.0183608579833976" flag="0"/>
		</comp>
	</station>
	<station code="AIG2" name="AIG2" netid="HI" source="ITSAK Strong Motion Network" insttype="" lat="38.2417" lon="22.0726" esm:processing="automatic (Paolucci et al 2011)" esm:quality="best">
		<comp name="--.HNE" depth="0.0">
			<acc value="1.16666360704046" flag="0"/>
			<vel value="0.237910904779474" flag="0"/>
			<psa03 value="0.743205400376979" flag="0"/>
			<psa10 value="0.181895674695751" flag="0"/>
			<psa30 value="0.014680114152183" flag="0"/>
		</comp>
		<comp name="--.HNN" depth="0.0">
			<acc value="0.835578863742901" flag="0"/>
			<vel value="0.169605418372822" flag="0"/>
			<psa03 value="0.718480679152207" flag="0"/>
			<psa10 value="0.246333103359157" flag="0"/>
			<psa30 value="0.0310676847483089" flag="0"/>
		</comp>
		<comp name="--.HNZ" depth="0.0">
			<acc value="0.500110284067981" flag="0"/>
			<vel value="0.127403917843306" flag="0"/>
			<psa03 value="0.618611729991123" flag="0"/>
			<psa10 value="0.279598512029224" flag="0"/>
			<psa30 value="0.0246458676677773" flag="0"/>
		</comp>
	</station>
	<station code="AKR1" name="AKR1" netid="HI" source="ITSAK Strong Motion Network" insttype="" lat="38.153583" lon="22.31326" esm:processing="automatic (Paolucci et al 2011)" esm:quality="best">
		<comp name="--.HNE" depth="0.0">
			<acc value="1.22145865941015" flag="0"/>
			<vel value="0.372450245077843" flag="0"/>
			<psa03 value="1.49761504298002" flag="0"/>
			<psa10 value="0.493254725704809" flag="0"/>
			<psa30 value="0.0346334609634833" flag="0"/>
		</comp>
		<comp name="--.HNN" depth="0.0">
			<acc value="1.28860166144735" flag="0"/>
			<vel value="0.384341001481584" flag="0"/>
			<psa03 value="1.25091586703701" flag="0"/>
			<psa10 value="0.342029617783584" flag="0"/>
			<psa30 value="0.0285544882613758" flag="0"/>
		</comp>
		<comp name="--.HNZ" depth="0.0">
			<acc value="0.655118413942485" flag="0"/>
			<vel value="0.183220476175251" flag="0"/>
			<psa03 value="0.448836316536529" flag="0"/>
			<psa10 value="0.1778383409173" flag="0"/>
			<psa30 value="0.0152220167172351" flag="0"/>
		</comp>
	</station>
	<station code="ARG2" name="ARG2" netid="HI" source="ITSAK Strong Motion Network" insttype="" lat="38.1783" lon="20.4878" esm:processing="automatic (Paolucci et al 2011)" esm:quality="best">
		<comp name="--.HNE" depth="0.0">
			<acc value="0.109392004412445" flag="0"/>
			<vel value="0.0514750454282809" flag="0"/>
			<psa03 value="0.312635189713651" flag="0"/>
			<psa10 value="0.0415896588607881" flag="0"/>
			<psa30 value="0.00437315344995373" flag="0"/>
		</comp>
		<comp name="--.HNN" depth="0.0">
			<acc value="0.148851581336892" flag="0"/>
			<vel value="0.0694889578841732" flag="0"/>
			<psa03 value="0.164118955408675" flag="0"/>
			<psa10 value="0.0617769536699951" flag="0"/>
			<psa30 value="0.0113966074693132" flag="0"/>
		</comp>
		<comp name="--.HNZ" depth="0.0">
			<acc value="0.0877805894498801" flag="0"/>
			<vel value="0.027042388930483" flag="0"/>
			<psa03 value="0.209747644752077" flag="0"/>
			<psa10 value="0.0371744088721452" flag="0"/>
			<psa30 value="0.00471701164553829" flag="0"/>
		</comp>
	</station>
	<station code="ARS1" name="ARS1" netid="HI" source="ITSAK Strong Motion Network" insttype="" lat="37.6349" lon="22.7293" esm:processing="automatic (Paolucci et al 2011)" esm:quality="best">
		<comp name="--.HNE" depth="0.0">
			<acc value="0.182995328245529" flag="0"/>
			<vel value="0.131924888683339" flag="0"/>
			<psa03 value="0.397984781205213" flag="0"/>
			<psa10 value="0.174665720746785" flag="0"/>
			<psa30 value="0.0102169726576296" flag="0"/>
		</comp>
		<comp name="--.HNN" depth="0.0">
			<acc value="0.22850669103044" flag="0"/>
			<vel value="0.145651212342893" flag="0"/>
			<psa03 value="0.516467880129032" flag="0"/>
			<psa10 value="0.105665612328237" flag="0"/>
			<psa30 value="0.0176642635040988" flag="0"/>
		</comp>
		<comp name="--.HNZ" depth="0.0">
			<acc value="0.0783150995808095" flag="0"/>
			<vel value="0.0437622924577698" flag="0"/>
			<psa03 value="0.194189655778329" flag="0"/>
			<psa10 value="0.0528684185232624" flag="0"/>
			<psa30 value="0.00971549277038153" flag="0"/>
		</comp>
	</station>
	<station code="ART2" name="ART2" netid="HI" source="ITSAK Strong Motion Network" insttype="" lat="39.1474" lon="20.9937" esm:processing="automatic (Paolucci et al 2011)" esm:quality="best">
		<comp name="--.HNE" depth="0.0">
			<acc value="0.00772086017481328" flag="0"/>
			<vel value="0.0108830161724005" flag="0"/>
			<psa03 value="0.0211016218372187" flag="0"/>
			<psa10 value="0.0146822732535462" flag="0"/>
			<psa30 value="0.00531217565556637" flag="0"/>
		</comp>
		<comp name="--.HNN" depth="0.0">
			<acc value="0.00811046990102468" flag="0"/>
			<vel value="0.0111798960935536" flag="0"/>
			<psa03 value="0.0144055128882803" flag="0"/>
			<psa10 value="0.0267665900302259" flag="0"/>
			<psa30 value="0.00268004587321945" flag="0"/>
		</comp>
		<comp name="--.HNZ" depth="0.0">
			<acc value="0.00989001230939118" flag="0"/>
			<vel value="0.0188724119791061" flag="0"/>
			<psa03 value="0.0162687326716134" flag="0"/>
			<psa10 value="0.0285697376049033" flag="0"/>
			<psa30 value="0.00565876778226045" flag="0"/>
		</comp>
	</station>
	<station code="AST1" name="AST1" netid="HI" source="ITSAK Strong Motion Network" insttype="" lat="38.5416" lon="21.0895" esm:processing="automatic (Paolucci et al 2011)" esm:quality="best">
		<comp name="--.HNE" depth="0.0">
			<acc value="0.0700025884749211" flag="0"/>
			<vel value="0.0588046268098488" flag="0"/>
			<psa03 value="0.26002862145335" flag="0"/>
			<psa10 value="0.113863310385501" flag="0"/>
			<psa30 value="0.00473125758926215" flag="0"/>
		</comp>
		<comp name="--.HNN" depth="0.0">
			<acc value="0.0846337389453343" flag="0"/>
			<vel value="0.0574163956150403" flag="0"/>
			<psa03 value="0.326249549931533" flag="0"/>
			<psa10 value="0.0721480144518733" flag="0"/>
			<psa30 value="0.00801669690015906" flag="0"/>
		</comp>
		<comp name="--.HNZ" depth="0.0">
			<acc value="0.070124943499356" flag="0"/>
			<vel value="0.0555096743223792" flag="0"/>
			<psa03 value="0.189053565537557" flag="0"/>
			<psa10 value="0.0849000142092737" flag="0"/>
			<psa30 value="0.00446635129051995" flag="0"/>
		</comp>
	</station>
	<station code="FRS1" name="FRS1" netid="HI" source="ITSAK Strong Motion Network" insttype="" lat="39.2934" lon="22.3844" esm:processing="automatic (Paolucci et al 2011)" esm:quality="best">
		<comp name="--.HNE" depth="0.0">
			<acc value="0.00872042426301513" flag="0"/>
			<vel value="0.0097519251863284" flag="0"/>
			<psa03 value="0.0141128789193827" flag="0"/>
			<psa10 value="0.0114753701869567" flag="0"/>
			<psa30 value="0.00276676995159736" flag="0"/>
		</comp>
		<comp name="--.HNN" depth="0.0">
			<acc value="0.00614054470386994" flag="0"/>
			<vel value="0.0115219109704191" flag="0"/>
			<psa03 value="0.011443022366989" flag="0"/>
			<psa10 value="0.0179763545952686" flag="0"/>
			<psa30 value="0.00255102440951402" flag="0"/>
		</comp>
		<comp name="--.HNZ" depth="0.0">
			<acc value="0.00641339418404562" flag="0"/>
			<vel value="0.0101512267144881" flag="0"/>
			<psa03 value="0.0133037094304585" flag="0"/>
			<psa10 value="0.0177268018136215" flag="0"/>
			<psa30 value="0.00278939499206192" flag="0"/>
		</comp>
	</station>
	<station code="KRI1" name="KRI1" netid="HI" source="ITSAK Strong Motion Network" insttype="" lat="37.6621" lon="20.8172" esm:processing="automatic (Paolucci et al 2011)" esm:quality="best">
		<comp name="--.HNE" depth="0.0">
			<acc value="0.0839348236608613" flag="0"/>
			<vel value="0.0823827142217342" flag="0"/>
			<psa03 value="0.222587557833303" flag="0"/>
			<psa10 value="0.141981555581248" flag="0"/>
			<psa30 value="0.0107814033817283" flag="0"/>
		</comp>
		<comp name="--.HNN" depth="0.0">
			<acc value="0.0963323631193098" flag="0"/>
			<vel value="0.101875374228611" flag="0"/>
			<psa03 value="0.194706481682175" flag="0"/>
			<psa10 value="0.238317967395736" flag="0"/>
			<psa30 value="0.0169578933772112" flag="0"/>
		</comp>
		<comp name="--.HNZ" depth="0.0">
			<acc value="0.0488500409001814" flag="0"/>
			<vel value="0.0364386536415903" flag="0"/>
			<psa03 value="0.110649340392429" flag="0"/>
			<psa10 value="0.0656760007127261" flag="0"/>
			<psa30 value="0.00426823983327485" flag="0"/>
		</comp>
	</station>
	<station code="KYP2" name="KYP2" netid="HI" source="ITSAK Strong Motion Network" insttype="" lat="37.2497" lon="21.667" esm:processing="automatic (Paolucci et al 2011)" esm:quality="best">
		<comp name="--.HNE" depth="0.0">
			<acc value="0.116495691522429" flag="0"/>
			<vel value="0.0631361269714012" flag="0"/>
			<psa03 value="0.424583959936929" flag="0"/>
			<psa10 value="0.061910533769021" flag="0"/>
			<psa30 value="0.00666205924539598" flag="0"/>
		</comp>
		<comp name="--.HNN" depth="0.0">
			<acc value="0.135926194707219" flag="0"/>
			<vel value="0.0488798391325405" flag="0"/>
			<psa03 value="0.497104597406582" flag="0"/>
			<psa10 value="0.0425252483389994" flag="0"/>
			<psa30 value="0.00580382697505339" flag="0"/>
		</comp>
		<comp name="--.HNZ" depth="0.0">
			<acc value="0.060861367312214" flag="0"/>
			<vel value="0.0412923305713428" flag="0"/>
			<psa03 value="0.168493411861613" flag="0"/>
			<psa10 value="0.0514630504245231" flag="0"/>
			<psa30 value="0.00849738290991479" flag="0"/>
		</comp>
	</station>
	<station code="LEO1" name="LEO1" netid="HI" source="ITSAK Strong Motion Network" insttype="" lat="37.1689" lon="22.8637" esm:processing="automatic (Paolucci et al 2011)" esm:quality="best">
		<comp name="--.HNE" depth="0.0">
			<acc value="0.0833446870752426" flag="0"/>
			<vel value="0.0417120688953837" flag="0"/>
			<psa03 value="0.15153585100643" flag="0"/>
			<psa10 value="0.0320323419854499" flag="0"/>
			<psa30 value="0.00563520538803413" flag="0"/>
		</comp>
		<comp name="--.HNN" depth="0.0">
			<acc value="0.0938986245478574" flag="0"/>
			<vel value="0.0605264978629473" flag="0"/>
			<psa03 value="0.212648961950102" flag="0"/>
			<psa10 value="0.0477287405448206" flag="0"/>
			<psa30 value="0.00510739125627162" flag="0"/>
		</comp>
		<comp name="--.HNZ" depth="0.0">
			<acc value="0.0594259137348862" flag="0"/>
			<vel value="0.0278933486282883" flag="0"/>
			<psa03 value="0.148640607127399" flag="0"/>
			<psa10 value="0.0512219732043404" flag="0"/>
			<psa30 value="0.00333982374693223" flag="0"/>
		</comp>
	</station>
	<station code="LXR2" name="LXR2" netid="HI" source="ITSAK Strong Motion Network" insttype="" lat="38.206718" lon="20.436386" esm:processing="automatic (Paolucci et al 2011)" esm:quality="best">
		<comp name="--.HNE" depth="0.0">
			<acc value="0.0603278095103066" flag="0"/>
			<vel value="0.0576593834545612" flag="0"/>
			<psa03 value="0.149738856964394" flag="0"/>
			<psa10 value="0.11082611918649" flag="0"/>
			<psa30 value="0.00766160671051002" flag="0"/>
		</comp>
		<comp name="--.HNN" depth="0.0">
			<acc value="0.0751810881709519" flag="0"/>
			<vel value="0.0773628648639354" flag="0"/>
			<psa03 value="0.200411151255204" flag="0"/>
			<psa10 value="0.154102148511045" flag="0"/>
			<psa30 value="0.0257123516504405" flag="0"/>
		</comp>
		<comp name="--.HNZ" depth="0.0">
			<acc value="0.043737356351335" flag="0"/>
			<vel value="0.0316027011879743" flag="0"/>
			<psa03 value="0.105120682479309" flag="0"/>
			<psa10 value="0.0691100957046657" flag="0"/>
			<psa30 value="0.00669543478969532" flag="0"/>
		</comp>
	</station>
	<station code="NMA1" name="NMA1" netid="HI" source="ITSAK Strong Motion Network" insttype="" lat="37.81873" lon="22.662702" esm:processing="automatic (Paolucci et al 2011)" esm:quality="best">
		<comp name="--.HNE" depth="0.0">
			<acc value="0.277050132991238" flag="0"/>
			<vel value="0.13662840765916" flag="0"/>
			<psa03 value="0.473147677044849" flag="0"/>
			<psa10 value="0.213190942853677" flag="0"/>
			<psa30 value="0.0146790290803023" flag="0"/>
		</comp>
		<comp name="--.HNN" depth="0.0">
			<acc value="0.224808486376178" flag="0"/>
			<vel value="0.112697765273541" flag="0"/>
			<psa03 value="0.436950820847438" flag="0"/>
			<psa10 value="0.102330433889033" flag="0"/>
			<psa30 value="0.0142773158021025" flag="0"/>
		</comp>
		<comp name="--.HNZ" depth="0.0">
			<acc value="0.161108125869588" flag="0"/>
			<vel value="0.0773904705811457" flag="0"/>
			<psa03 value="0.351729967050783" flag="0"/>
			<psa10 value="0.115118466033403" flag="0"/>
			<psa30 value="0.0102166459693214" flag="0"/>
		</comp>
	</station>
	<station code="PER1" name="PER1" netid="HI" source="ITSAK Strong Motion Network" insttype="" lat="38.0119" lon="23.7027" esm:processing="automatic (Paolucci et al 2011)" esm:quality="best">
		<comp name="--.HNE" depth="0.0">
			<acc value="0.0206748653773067" flag="0"/>
			<vel value="0.0155112203423196" flag="0"/>
			<psa03 value="0.041863945155909" flag="0"/>
			<psa10 value="0.0263315443355837" flag="0"/>
			<psa30 value="0.00248550027719516" flag="0"/>
		</comp>
		<comp name="--.HNN" depth="0.0">
			<acc value="0.0246372377600468" flag="0"/>
			<vel value="0.0197674480921132" flag="0"/>
			<psa03 value="0.043730865705233" flag="0"/>
			<psa10 value="0.0293098716351504" flag="0"/>
			<psa30 value="0.00350809156051573" flag="0"/>
		</comp>
		<comp name="--.HNZ" depth="0.0">
			<acc value="0.0155484545107289" flag="0"/>
			<vel value="0.0168304974116411" flag="0"/>
			<psa03 value="0.0251381184019726" flag="0"/>
			<psa10 value="0.0277487557188825" flag="0"/>
			<psa30 value="0.00227225510908266" flag="0"/>
		</comp>
	</station>
	<station code="PYL1" name="PYL1" netid="HI" source="ITSAK Strong Motion Network" insttype="" lat="36.914188" lon="21.695161" esm:processing="automatic (Paolucci et al 2011)" esm:quality="best">
		<comp name="--.HNE" depth="0.0">
			<acc value="0.0526407579490867" flag="0"/>
			<vel value="0.0429031398074318" flag="0"/>
			<psa03 value="0.172312935719657" flag="0"/>
			<psa10 value="0.0560263827228921" flag="0"/>
			<psa30 value="0.00539461528345379" flag="0"/>
		</comp>
		<comp name="--.HNN" depth="0.0">
			<acc value="0.0372186543191092" flag="0"/>
			<vel value="0.0322357519827937" flag="0"/>
			<psa03 value="0.088603286199535" flag="0"/>
			<psa10 value="0.0747416937703991" flag="0"/>
			<psa30 value="0.0066010714552542" flag="0"/>
		</comp>
		<comp name="--.HNZ" depth="0.0">
			<acc value="0.0257327591945117" flag="0"/>
			<vel value="0.0240339712701788" flag="0"/>
			<psa03 value="0.0829462812423864" flag="0"/>
			<psa10 value="0.0395001179389569" flag="0"/>
			<psa30 value="0.00617471696136142" flag="0"/>
		</comp>
	</station>
