<stationlist created="1778136709">
	<station code="ROD3" name="ROD3" netid="CL" source="Corinth Riff Laboratory (CRLNET)" insttype="" lat="38.30811" lon="21.89204">
		<comp name="00.HNE" depth="0.0">
			<acc value="0.00613942083842132" flag="0"/>
			<vel value="0.00259346705387348" flag="0"/>
			<psa03 value="0.0140439694065616" flag="0"/>
			<psa10 value="0.00268160858090666" flag="0"/>
			<psa30 value="0.00023640870779149" flag="0"/>
		</comp>
		<comp name="00.HNN" depth="0.0">
			<acc value="0.00475823168065607" flag="0"/>
			<vel value="0.00226365140347613" flag="0"/>
			<psa03 value="0.0146517661805095" flag="0"/>
			<psa10 value="0.00269489219525612" flag="0"/>
			<psa30 value="0.000307513053522487" flag="0"/>
		</comp>
		<comp name="00.HNZ" depth="0.0">
			<acc value="0.0032928418417051" flag="0"/>
			<vel value="0.00123285494364281" flag="0"/>
			<psa03 value="0.00594173605875287" flag="0"/>
			<psa10 value="0.00127756174156859" flag="0"/>
			<psa30 value="0.00017763165003745" flag="0"/>
		</comp>
	</station>
	<station code="TRIZ" name="TRIZ" netid="CL" source="Corinth Riff Laboratory (CRLNET)" insttype="" lat="38.36543" lon="22.07272">
		<comp name="00.HNE" depth="0.0">
			<acc value="0.000246556158828099" flag="0"/>
			<vel value="0.000206675671120229" flag="0"/>
			<psa03 value="0.000300833873266459" flag="0"/>
			<psa10 value="0.000187133910375208" flag="0"/>
			<psa30 value="0.000108191210105479" flag="0"/>
		</comp>
		<comp name="00.HNN" depth="0.0">
			<acc value="0.000248720295894615" flag="0"/>
			<vel value="0.000219837725316324" flag="0"/>
			<psa03 value="0.000280241709169103" flag="0"/>
			<psa10 value="0.000213299437658174" flag="0"/>
			<psa30 value="0.000109950369610075" flag="0"/>
		</comp>
		<comp name="00.HNZ" depth="0.0">
			<acc value="0.000283406508945425" flag="0"/>
			<vel value="0.000302320409619622" flag="0"/>
			<psa03 value="0.000326014699901235" flag="0"/>
			<psa10 value="0.000260469930635878" flag="0"/>
			<psa30 value="0.000132996818198808" flag="0"/>
		</comp>
	</station>
	<station code="AIGS" name="AIGS" netid="HA" source="Hellenic Seismological Network, University of Athens, Seismological Laboratory (HA)" insttype="" lat="38.25001" lon="22.0878">
		<comp name="--.HNE" depth="0.0">
			<acc value="0.00482962462660559" flag="0"/>
			<vel value="0.0019377337396114" flag="0"/>
			<psa03 value="0.00652815902100732" flag="0"/>
			<psa10 value="0.0044926190202045" flag="0"/>
			<psa30 value="0.000580240677680824" flag="0"/>
		</comp>
		<comp name="--.HNN" depth="0.0">
			<acc value="0.00584575422715857" flag="0"/>
			<vel value="0.00185093430158076" flag="0"/>
			<psa03 value="0.00868212853383885" flag="0"/>
			<psa10 value="0.00418844105742277" flag="0"/>
			<psa30 value="0.000698317770542455" flag="0"/>
		</comp>
		<comp name="--.HNZ" depth="0.0">
			<acc value="0.00927220169504347" flag="0"/>
			<vel value="0.00186169902205914" flag="0"/>
			<psa03 value="0.00669289063680037" flag="0"/>
			<psa10 value="0.00450065298993381" flag="0"/>
			<psa30 value="0.00057315041631841" flag="0"/>
		</comp>
	</station>
	<station code="DRES" name="DRES" netid="HA" source="Hellenic Seismological Network, University of Athens, Seismological Laboratory (HA)" insttype="" lat="38.319719" lon="21.853176">
		<comp name="--.HNE" depth="0.0">
			<acc value="0.00282993645303503" flag="0"/>
			<vel value="0.00251092538821894" flag="0"/>
			<psa03 value="0.00554543376401318" flag="0"/>
			<psa10 value="0.00328285731693678" flag="0"/>
			<psa30 value="0.000548401589332222" flag="0"/>
		</comp>
		<comp name="--.HNN" depth="0.0">
			<acc value="0.00232924874741751" flag="0"/>
			<vel value="0.00164491544103375" flag="0"/>
			<psa03 value="0.00592310917380587" flag="0"/>
			<psa10 value="0.00286943157013498" flag="0"/>
			<psa30 value="0.000620522616995516" flag="0"/>
		</comp>
		<comp name="--.HNZ" depth="0.0">
			<acc value="0.00260040001412009" flag="0"/>
			<vel value="0.00137342084076881" flag="0"/>
			<psa03 value="0.00462304290754854" flag="0"/>
			<psa10 value="0.00269937983629092" flag="0"/>
			<psa30 value="0.000483655373129985" flag="0"/>
		</comp>
	</station>
	<station code="NAFS" name="NAFS" netid="HA" source="Hellenic Seismological Network, University of Athens, Seismological Laboratory (HA)" insttype="" lat="38.369894" lon="21.781265">
		<comp name="--.HNE" depth="0.0">
			<acc value="0.00155579411204372" flag="0"/>
			<vel value="0.000316531989659819" flag="0"/>
			<psa03 value="0.000752990148827674" flag="0"/>
			<psa10 value="0.000468610418141227" flag="0"/>
			<psa30 value="9.28564898284442e-05" flag="0"/>
		</comp>
		<comp name="--.HNN" depth="0.0">
			<acc value="0.000704462558051346" flag="0"/>
			<vel value="0.00025815561666756" flag="0"/>
			<psa03 value="0.00163567427336083" flag="0"/>
			<psa10 value="0.000336245106619518" flag="0"/>
			<psa30 value="0.000106984118422647" flag="0"/>
		</comp>
		<comp name="--.HNZ" depth="0.0">
			<acc value="0.0034719886827763" flag="0"/>
			<vel value="0.000351890942150275" flag="0"/>
			<psa03 value="0.000573117311913197" flag="0"/>
			<psa10 value="0.000230157566145223" flag="0"/>
			<psa30 value="7.89382956810945e-05" flag="0"/>
		</comp>
	</station>
	<station code="ART2" name="ART2" netid="HI" source="ITSAK Strong Motion Network" insttype="" lat="39.1474" lon="20.9937">
		<comp name="--.HNE" depth="0.0">
			<acc value="0.0151429739992453" flag="0"/>
			<vel value="0.00671485608757471" flag="0"/>
			<psa03 value="0.044231549914792" flag="0"/>
			<psa10 value="0.00366350284533391" flag="0"/>
			<psa30 value="0.000492031188400453" flag="0"/>
		</comp>
		<comp name="--.HNN" depth="0.0">
			<acc value="0.0193944051501396" flag="0"/>
			<vel value="0.00829236358953648" flag="0"/>
			<psa03 value="0.0384329522444469" flag="0"/>
			<psa10 value="0.00470198038936577" flag="0"/>
			<psa30 value="0.000296373539542625" flag="0"/>
		</comp>
		<comp name="--.HNZ" depth="0.0">
			<acc value="0.0131412678710685" flag="0"/>
			<vel value="0.00480247706620517" flag="0"/>
			<psa03 value="0.0245259424316742" flag="0"/>
			<psa10 value="0.00360427962521262" flag="0"/>
			<psa30 value="0.000297855304368791" flag="0"/>
		</comp>
	</station>
	<station code="KRK1" name="KRK1" netid="HI" source="ITSAK Strong Motion Network" insttype="" lat="39.618861" lon="19.9202">
		<comp name="--.HNE" depth="0.0">
			<acc value="0.480931993778139" flag="0"/>
			<vel value="0.132064018283781" flag="0"/>
			<psa03 value="0.800556949634103" flag="0"/>
			<psa10 value="0.0514691483286" flag="0"/>
			<psa30 value="0.00312621397133399" flag="0"/>
		</comp>
		<comp name="--.HNN" depth="0.0">
			<acc value="0.567252739059977" flag="0"/>
			<vel value="0.108995238776132" flag="0"/>
			<psa03 value="0.481632655797842" flag="0"/>
			<psa10 value="0.0349647512431569" flag="0"/>
			<psa30 value="0.00239214305107165" flag="0"/>
		</comp>
		<comp name="--.HNZ" depth="0.0">
			<acc value="0.37361722557653" flag="0"/>
			<vel value="0.103798522482414" flag="0"/>
			<psa03 value="0.450665396038397" flag="0"/>
			<psa10 value="0.0238700331475365" flag="0"/>
			<psa30 value="0.00227866990902969" flag="0"/>
		</comp>
	</station>
	<station code="LMS2" name="LMS2" netid="HI" source="ITSAK Strong Motion Network" insttype="" lat="40.834985" lon="21.141815">
		<comp name="--.HNE" depth="0.0">
			<acc value="0.00603199094387656" flag="0"/>
			<vel value="0.00364393229013299" flag="0"/>
			<psa03 value="0.0121016415181097" flag="0"/>
			<psa10 value="0.00365067441739035" flag="0"/>
			<psa30 value="0.000259751426007279" flag="0"/>
		</comp>
		<comp name="--.HNN" depth="0.0">
			<acc value="0.00834983482341668" flag="0"/>
			<vel value="0.00364923058078551" flag="0"/>
			<psa03 value="0.0155876133320343" flag="0"/>
			<psa10 value="0.00378306990669186" flag="0"/>
			<psa30 value="0.000266250033591589" flag="0"/>
		</comp>
		<comp name="--.HNZ" depth="0.0">
			<acc value="0.00242257628474618" flag="0"/>
			<vel value="0.00155304751853896" flag="0"/>
			<psa03 value="0.0084443126494608" flag="0"/>
			<psa10 value="0.00283899572578577" flag="0"/>
			<psa30 value="0.000229170129312979" flag="0"/>
		</comp>
	</station>
	<station code="MSL1" name="MSL1" netid="HI" source="ITSAK Strong Motion Network" insttype="" lat="38.3727" lon="21.4243">
		<comp name="--.HNE" depth="0.0">
			<acc value="0.0116127360877798" flag="0"/>
			<vel value="0.00950071702440864" flag="0"/>
			<psa03 value="0.0307124772592251" flag="0"/>
			<psa10 value="0.0180295912469332" flag="0"/>
			<psa30 value="0.00066789523436574" flag="0"/>
		</comp>
		<comp name="--.HNN" depth="0.0">
			<acc value="0.0120999914485359" flag="0"/>
			<vel value="0.00927195349887706" flag="0"/>
			<psa03 value="0.0390471153255882" flag="0"/>
			<psa10 value="0.0121768269675308" flag="0"/>
			<psa30 value="0.000839342998186979" flag="0"/>
		</comp>
		<comp name="--.HNZ" depth="0.0">
			<acc value="0.00475892009482925" flag="0"/>
			<vel value="0.00332472565799181" flag="0"/>
			<psa03 value="0.016510960957635" flag="0"/>
			<psa10 value="0.00520451696121454" flag="0"/>
			<psa30 value="0.000220687275698774" flag="0"/>
		</comp>
	</station>
	<station code="ARTB" name="ARTB" netid="HL" source="National Observatory of Athens Seismic Network" insttype="" lat="39.15702" lon="20.9785">
		<comp name="00.HNE" depth="0.0">
			<acc value="0.0736578243595976" flag="0"/>
			<vel value="0.0307603663637917" flag="0"/>
			<psa03 value="0.278581017125375" flag="0"/>
			<psa10 value="0.00755925904507375" flag="0"/>
			<psa30 value="0.00085377504799131" flag="0"/>
		</comp>
		<comp name="00.HNN" depth="0.0">
			<acc value="0.0484551359714394" flag="0"/>
			<vel value="0.0170154684000749" flag="0"/>
			<psa03 value="0.127660394374527" flag="0"/>
			<psa10 value="0.00706224096380375" flag="0"/>
			<psa30 value="0.000644931213110717" flag="0"/>
		</comp>
		<comp name="00.HNZ" depth="0.0">
			<acc value="0.0605747040141101" flag="0"/>
			<vel value="0.0144104415541343" flag="0"/>
			<psa03 value="0.0675475371929251" flag="0"/>
			<psa10 value="0.00658782562986607" flag="0"/>
			<psa30 value="0.00044457278409863" flag="0"/>
		</comp>
	</station>
	<station code="PRGA" name="PRGA" netid="HL" source="National Observatory of Athens Seismic Network" insttype="" lat="39.28557" lon="20.40157">
		<comp name="00.HNE" depth="0.0">
			<acc value="0.133249271915096" flag="0"/>
			<vel value="0.0509648177475705" flag="0"/>
			<psa03 value="0.39629821114489" flag="0"/>
			<psa10 value="0.015468977868859" flag="0"/>
			<psa30 value="0.00145137718828351" flag="0"/>
		</comp>
		<comp name="00.HNN" depth="0.0">
			<acc value="0.117021170317269" flag="0"/>
			<vel value="0.0536680391557414" flag="0"/>
			<psa03 value="0.269200458209096" flag="0"/>
			<psa10 value="0.0267548292511354" flag="0"/>
			<psa30 value="0.00158223991979394" flag="0"/>
		</comp>
		<comp name="00.HNZ" depth="0.0">
			<acc value="0.0432404859492413" flag="0"/>
			<vel value="0.010461653128543" flag="0"/>
			<psa03 value="0.0466124628469355" flag="0"/>
			<psa10 value="0.00510504443414678" flag="0"/>
			<psa30 value="0.000430012288287003" flag="0"/>
		</comp>
	</station>
	<station code="ANX" name="ANX" netid="HP" source="University of Patras, Seismological Laboratory (PSLNET)" insttype="" lat="38.5933" lon="21.9209">
		<comp name="--.HNE" depth="0.0">
			<acc value="0.00574402429666066" flag="0"/>
			<vel value="0.00479288228904163" flag="0"/>
			<psa03 value="0.0194894538410682" flag="0"/>
			<psa10 value="0.00620205632453408" flag="0"/>
			<psa30 value="0.000443545163940202" flag="0"/>
		</comp>
		<comp name="--.HNN" depth="0.0">
			<acc value="0.00757838392772454" flag="0"/>
			<vel value="0.00558176260726401" flag="0"/>
			<psa03 value="0.025281982098917" flag="0"/>
			<psa10 value="0.00511551747166424" flag="0"/>
			<psa30 value="0.000374001129906135" flag="0"/>
		</comp>
		<comp name="--.HNZ" depth="0.0">
			<acc value="0.00453978313261508" flag="0"/>
			<vel value="0.00322357417036166" flag="0"/>
			<psa03 value="0.0113644820078439" flag="0"/>
			<psa10 value="0.00361309716245657" flag="0"/>
			<psa30 value="0.000300224601948305" flag="0"/>
		</comp>
	</station>
	<station code="PDO" name="PDO" netid="HP" source="University of Patras, Seismological Laboratory (PSLNET)" insttype="" lat="38.5986" lon="21.1833">
		<comp name="--.HNE" depth="0.0">
			<acc value="0.00775436766009784" flag="0"/>
			<vel value="0.00381518006148026" flag="0"/>
			<psa03 value="0.0199194575871561" flag="0"/>
			<psa10 value="0.00419823576875721" flag="0"/>
			<psa30 value="0.000308835771354326" flag="0"/>
		</comp>
		<comp name="--.HNN" depth="0.0">
			<acc value="0.0071189626869142" flag="0"/>
			<vel value="0.00373012137168731" flag="0"/>
			<psa03 value="0.027812592447766" flag="0"/>
			<psa10 value="0.0028038617577063" flag="0"/>
			<psa30 value="0.000248217875507595" flag="0"/>
		</comp>
		<comp name="--.HNZ" depth="0.0">
			<acc value="0.00557436463462906" flag="0"/>
			<vel value="0.00253369752182287" flag="0"/>
			<psa03 value="0.0131218041509514" flag="0"/>
			<psa10 value="0.00212752671945476" flag="0"/>
			<psa30 value="0.000196997750654815" flag="0"/>
		</comp>
	</station>
	<station code="SERG" name="SERG" netid="HP" source="University of Patras, Seismological Laboratory (PSLNET)" insttype="" lat="38.4133" lon="22.0566">
		<comp name="--.HNE" depth="0.0">
			<acc value="0.00427674895084381" flag="0"/>
			<vel value="0.00248977028773797" flag="0"/>
			<psa03 value="0.0125789726181101" flag="0"/>
			<psa10 value="0.00402735991783865" flag="0"/>
			<psa30 value="0.000253795640840436" flag="0"/>
		</comp>
		<comp name="--.HNN" depth="0.0">
			<acc value="0.00348950505297841" flag="0"/>
			<vel value="0.00249593744028524" flag="0"/>
			<psa03 value="0.0114312754950646" flag="0"/>
			<psa10 value="0.00249939854163817" flag="0"/>
			<psa30 value="0.00027582420950013" flag="0"/>
		</comp>
		<comp name="--.HNZ" depth="0.0">
			<acc value="0.00330521788862278" flag="0"/>
			<vel value="0.00128611160728746" flag="0"/>
			<psa03 value="0.00551826985517339" flag="0"/>
			<psa10 value="0.00201916985384423" flag="0"/>
			<psa30 value="0.000179402561622653" flag="0"/>
		</comp>
	</station>
</stationlist>
