<?xml version="1.0" encoding="UTF-8" standalone="yes"?>
<!DOCTYPE earthquake SYSTEM "stationlist.dtd">
<stationlist created="" xmlns="ch.ethz.sed.shakemap.usgs.xml">
  <station code="LSK" name="LSK" netid="AC" insttype="" lat="40.1499" lon="20.5987">
    <comp name="--.HHE">
      <acc value="1.7004852900" flag="0"/>
      <vel value="0.0645239669" flag="0"/>
      <psa03 value="0.2017060804" flag="0"/>
      <psa10 value="0.0873576882" flag="0"/>
      <psa30 value="0.0040748533" flag="0"/>
    </comp>
    <comp name="--.HHN">
      <acc value="0.0846500802" flag="0"/>
      <vel value="0.0483417171" flag="0"/>
      <psa03 value="0.1520746887" flag="0"/>
      <psa10 value="0.0570847943" flag="0"/>
      <psa30 value="0.0028960682" flag="0"/>
    </comp>
    <comp name="--.HHZ">
      <acc value="0.0409921625" flag="0"/>
      <vel value="0.0212621900" flag="0"/>
      <psa03 value="0.0932536925" flag="0"/>
      <psa10 value="0.0434034815" flag="0"/>
      <psa30 value="0.0020272645" flag="0"/>
    </comp>
  </station>
  <station code="VLO" name="VLO" netid="AC" insttype="" lat="40.4686" lon="19.4955">
    <comp name="--.HHE">
      <acc value="0.0339461405" flag="0"/>
      <vel value="0.0115817927" flag="0"/>
      <psa03 value="0.0700573626" flag="0"/>
      <psa10 value="0.0064120110" flag="0"/>
      <psa30 value="0.0009549903" flag="0"/>
    </comp>
    <comp name="--.HHN">
      <acc value="0.0379749293" flag="0"/>
      <vel value="0.0124413927" flag="0"/>
      <psa03 value="0.0648476302" flag="0"/>
      <psa10 value="0.0091907464" flag="0"/>
      <psa30 value="0.0006543874" flag="0"/>
    </comp>
    <comp name="--.HHZ">
      <acc value="0.0012049289" flag="0"/>
      <vel value="0.0001718732" flag="0"/>
      <psa03 value="0.0004980817" flag="0"/>
      <psa10 value="0.0001160030" flag="0"/>
      <psa30 value="0.0000496384" flag="0"/>
    </comp>
  </station>
  <station code="ART2" name="ART2" netid="HI" insttype="CMG-5TD,ACCELEROMETER,GURALP" lat="39.1474" lon="20.9937">
    <comp name="--.HNN">
      <acc value="0.0193137315" flag="0"/>
      <vel value="0.0083469897" flag="0"/>
      <psa03 value="0.0384481963" flag="0"/>
      <psa10 value="0.0047266691" flag="0"/>
      <psa30 value="0.0003312486" flag="0"/>
    </comp>
    <comp name="--.HNZ">
      <acc value="0.0132314400" flag="0"/>
      <vel value="0.0048670485" flag="0"/>
      <psa03 value="0.0243477508" flag="0"/>
      <psa10 value="0.0036146551" flag="0"/>
      <psa30 value="0.0003205101" flag="0"/>
    </comp>
    <comp name="--.HNE">
      <acc value="0.0156638955" flag="0"/>
      <vel value="0.0067250189" flag="0"/>
      <psa03 value="0.0445290363" flag="0"/>
      <psa10 value="0.0036970096" flag="0"/>
      <psa30 value="0.0005420744" flag="0"/>
    </comp>
  </station>
  <station code="KRK1" name="KRK1" netid="HI" insttype="CMG-5TD,ACCELEROMETER,GURALP" lat="39.6189" lon="19.9202">
    <comp name="--.HNN">
      <acc value="0.5705255008" flag="0"/>
      <vel value="0.1073077410" flag="0"/>
      <psa03 value="0.4762452204" flag="0"/>
      <psa10 value="0.0349217584" flag="0"/>
      <psa30 value="0.0024067218" flag="0"/>
    </comp>
    <comp name="--.HNE">
      <acc value="0.4705081613" flag="0"/>
      <vel value="0.1306947694" flag="0"/>
      <psa03 value="0.8007443284" flag="0"/>
      <psa10 value="0.0513128052" flag="0"/>
      <psa30 value="0.0031990213" flag="0"/>
    </comp>
    <comp name="--.HNZ">
      <acc value="0.3777395175" flag="0"/>
      <vel value="0.1001241953" flag="0"/>
      <psa03 value="0.4477417004" flag="0"/>
      <psa10 value="0.0237819577" flag="0"/>
      <psa30 value="0.0022281201" flag="0"/>
    </comp>
  </station>
  <station code="JAN" name="JAN" netid="HL" insttype="CMG3EPSC60_DR24" lat="39.6562" lon="20.8487">
    <comp name="--.HHE">
      <acc value="0.1521273030" flag="0"/>
      <vel value="0.0491304249" flag="0"/>
      <psa03 value="0.3648395399" flag="0"/>
      <psa10 value="0.0187948684" flag="0"/>
      <psa30 value="0.0017256638" flag="0"/>
    </comp>
    <comp name="--.HHZ">
      <acc value="0.0664341308" flag="0"/>
      <vel value="0.0257384724" flag="0"/>
      <psa03 value="0.1228552676" flag="0"/>
      <psa10 value="0.0165249978" flag="0"/>
      <psa30 value="0.0009133749" flag="0"/>
    </comp>
    <comp name="--.HHN">
      <acc value="0.1349954326" flag="0"/>
      <vel value="0.0517659969" flag="0"/>
      <psa03 value="0.3264807969" flag="0"/>
      <psa10 value="0.0352170885" flag="0"/>
      <psa30 value="0.0020451903" flag="0"/>
    </comp>
  </station>
  <station code="PENT" name="PENT" netid="HL" insttype="30s-100Hz," lat="40.1959" lon="21.1384">
    <comp name="--.HHE">
      <acc value="0.0098681772" flag="0"/>
      <vel value="0.0062444878" flag="0"/>
      <psa03 value="0.0316518040" flag="0"/>
      <psa10 value="0.0067035979" flag="0"/>
      <psa30 value="0.0005175179" flag="0"/>
    </comp>
    <comp name="--.HHN">
      <acc value="0.0089626989" flag="0"/>
      <vel value="0.0063936863" flag="0"/>
      <psa03 value="0.0359296886" flag="0"/>
      <psa10 value="0.0058390237" flag="0"/>
      <psa30 value="0.0003875056" flag="0"/>
    </comp>
    <comp name="--.HHZ">
      <acc value="0.0083601849" flag="0"/>
      <vel value="0.0055578912" flag="0"/>
      <psa03 value="0.0256449904" flag="0"/>
      <psa10 value="0.0058272637" flag="0"/>
      <psa30 value="0.0003514958" flag="0"/>
    </comp>
  </station>
  <station code="TETR" name="TETR" netid="HL" insttype="60" lat="39.3445" lon="21.2747">
    <comp name="--.HHE">
      <acc value="0.0704065503" flag="0"/>
      <vel value="0.0288858155" flag="0"/>
      <psa03 value="0.1606058865" flag="0"/>
      <psa10 value="0.0121670254" flag="0"/>
      <psa30 value="0.0011076930" flag="0"/>
    </comp>
    <comp name="--.HHN">
      <acc value="0.0651383926" flag="0"/>
      <vel value="0.0214550005" flag="0"/>
      <psa03 value="0.1552771012" flag="0"/>
      <psa10 value="0.0123133844" flag="0"/>
      <psa30 value="0.0013837679" flag="0"/>
    </comp>
    <comp name="--.HHZ">
      <acc value="0.0247985067" flag="0"/>
      <vel value="0.0085919417" flag="0"/>
      <psa03 value="0.0446156465" flag="0"/>
      <psa10 value="0.0060453369" flag="0"/>
      <psa30 value="0.0006140938" flag="0"/>
    </comp>
  </station>
  <station code="AMPL" name="AMPL" netid="HP" insttype="Compact," lat="38.9224" lon="21.2135">
    <comp name="--.HHZ">
      <acc value="0.0063112719" flag="0"/>
      <vel value="0.0035061303" flag="0"/>
      <psa03 value="0.0137966086" flag="0"/>
      <psa10 value="0.0043079541" flag="0"/>
      <psa30 value="0.0002249147" flag="0"/>
    </comp>
    <comp name="--.HHE">
      <acc value="0.0116184074" flag="0"/>
      <vel value="0.0053119508" flag="0"/>
      <psa03 value="0.0353648122" flag="0"/>
      <psa10 value="0.0039668048" flag="0"/>
      <psa30 value="0.0003591848" flag="0"/>
    </comp>
    <comp name="--.HHN">
      <acc value="0.0137910407" flag="0"/>
      <vel value="0.0062037772" flag="0"/>
      <psa03 value="0.0307304964" flag="0"/>
      <psa10 value="0.0049402187" flag="0"/>
      <psa30 value="0.0003172532" flag="0"/>
    </comp>
  </station>
  <station code="PRMD" name="PRMD" netid="HP" insttype="120P," lat="39.5299" lon="21.0965">
    <comp name="--.HHE">
      <acc value="0.0365146942" flag="0"/>
      <vel value="0.0236208271" flag="0"/>
      <psa03 value="0.0961322664" flag="0"/>
      <psa10 value="0.0237779338" flag="0"/>
      <psa30 value="0.0012858014" flag="0"/>
    </comp>
    <comp name="--.HHZ">
      <acc value="0.0255608052" flag="0"/>
      <vel value="0.0123351559" flag="0"/>
      <psa03 value="0.0699324666" flag="0"/>
      <psa10 value="0.0120801861" flag="0"/>
      <psa30 value="0.0008435189" flag="0"/>
    </comp>
    <comp name="--.HHN">
      <acc value="0.0403356936" flag="0"/>
      <vel value="0.0173080455" flag="0"/>
      <psa03 value="0.0894464542" flag="0"/>
      <psa10 value="0.0157760826" flag="0"/>
      <psa30 value="0.0010697913" flag="0"/>
    </comp>
  </station>
  <station code="DRAG" name="DRAG" netid="HT" insttype="1s-100Hz," lat="38.6839" lon="20.5746">
    <comp name="--.HHE">
      <acc value="0.0628176748" flag="0"/>
      <vel value="0.0217512719" flag="0"/>
      <psa03 value="0.1069635278" flag="0"/>
      <psa10 value="0.0135518778" flag="0"/>
      <psa30 value="0.0008789144" flag="0"/>
    </comp>
    <comp name="--.HHZ">
      <acc value="0.0273104181" flag="0"/>
      <vel value="0.0084537141" flag="0"/>
      <psa03 value="0.0238244727" flag="0"/>
      <psa10 value="0.0036604668" flag="0"/>
      <psa30 value="0.0002940714" flag="0"/>
    </comp>
    <comp name="--.HHN">
      <acc value="0.0504888053" flag="0"/>
      <vel value="0.0160162933" flag="0"/>
      <psa03 value="0.0642730221" flag="0"/>
      <psa10 value="0.0088091429" flag="0"/>
      <psa30 value="0.0005762849" flag="0"/>
    </comp>
  </station>
  <station code="EVGI" name="EVGI" netid="HT" insttype="30" lat="38.621" lon="20.656">
    <comp name="--.HHE">
      <acc value="0.0220529017" flag="0"/>
      <vel value="0.0043698146" flag="0"/>
      <psa03 value="0.0203602455" flag="0"/>
      <psa10 value="0.0041467739" flag="0"/>
      <psa30 value="0.0002440196" flag="0"/>
    </comp>
    <comp name="--.HHN">
      <acc value="0.0232964049" flag="0"/>
      <vel value="0.0073990519" flag="0"/>
      <psa03 value="0.0274431864" flag="0"/>
      <psa10 value="0.0038793663" flag="0"/>
      <psa30 value="0.0003745232" flag="0"/>
    </comp>
    <comp name="--.HHZ">
      <acc value="0.0187535905" flag="0"/>
      <vel value="0.0047360794" flag="0"/>
      <psa03 value="0.0177830664" flag="0"/>
      <psa10 value="0.0023598041" flag="0"/>
      <psa30 value="0.0001568527" flag="0"/>
    </comp>
  </station>
  <station code="IGT" name="IGT" netid="HT" insttype="100" lat="39.5315" lon="20.3299">
    <comp name="--.HHE">
      <acc value="0.2790754022" flag="0"/>
      <vel value="0.0686188071" flag="0"/>
      <psa03 value="0.2770455715" flag="0"/>
      <psa10 value="0.0412006293" flag="0"/>
      <psa30 value="0.0020023033" flag="0"/>
    </comp>
    <comp name="--.HHN">
      <acc value="0.3759912497" flag="0"/>
      <vel value="0.0835503881" flag="0"/>
      <psa03 value="0.2692708160" flag="0"/>
      <psa10 value="0.0449378582" flag="0"/>
      <psa30 value="0.0033382164" flag="0"/>
    </comp>
    <comp name="--.HHZ">
      <acc value="0.1815466910" flag="0"/>
      <vel value="0.0500571513" flag="0"/>
      <psa03 value="0.2459496721" flag="0"/>
      <psa10 value="0.0285541631" flag="0"/>
      <psa30 value="0.0016873329" flag="0"/>
    </comp>
  </station>
  <station code="LKD2" name="LKD2" netid="HT" insttype="100" lat="38.7889" lon="20.6578">
    <comp name="--.HHZ">
      <acc value="0.0071265156" flag="0"/>
      <vel value="0.0025237996" flag="0"/>
      <psa03 value="0.0145402108" flag="0"/>
      <psa10 value="0.0034286315" flag="0"/>
      <psa30 value="0.0002632168" flag="0"/>
    </comp>
    <comp name="--.HHE">
      <acc value="0.0156008060" flag="0"/>
      <vel value="0.0063287403" flag="0"/>
      <psa03 value="0.0384746901" flag="0"/>
      <psa10 value="0.0060425363" flag="0"/>
      <psa30 value="0.0002730438" flag="0"/>
    </comp>
    <comp name="--.HHN">
      <acc value="0.0143751611" flag="0"/>
      <vel value="0.0057326089" flag="0"/>
      <psa03 value="0.0257232186" flag="0"/>
      <psa10 value="0.0043551481" flag="0"/>
      <psa30 value="0.0002775214" flag="0"/>
    </comp>
  </station>
  <station code="NEST" name="NEST" netid="HT" insttype="120P," lat="40.4147" lon="21.0489">
    <comp name="--.HHE">
      <acc value="0.0071515293" flag="0"/>
      <vel value="0.0042034143" flag="0"/>
      <psa03 value="0.0201604592" flag="0"/>
      <psa10 value="0.0094450885" flag="0"/>
      <psa30 value="0.0004743050" flag="0"/>
    </comp>
    <comp name="--.HHN">
      <acc value="0.0080197643" flag="0"/>
      <vel value="0.0053288148" flag="0"/>
      <psa03 value="0.0195939256" flag="0"/>
      <psa10 value="0.0059360198" flag="0"/>
      <psa30 value="0.0005192893" flag="0"/>
    </comp>
    <comp name="--.HHZ">
      <acc value="0.0069710596" flag="0"/>
      <vel value="0.0047728836" flag="0"/>
      <psa03 value="0.0302778335" flag="0"/>
      <psa10 value="0.0054279442" flag="0"/>
      <psa30 value="0.0003979133" flag="0"/>
    </comp>
  </station>
  <station code="NYDR" name="NYDR" netid="HT" insttype="1s-100Hz," lat="38.7135" lon="20.6983">
    <comp name="--.HHN">
      <acc value="0.0155171606" flag="0"/>
      <vel value="0.0045854823" flag="0"/>
      <psa03 value="0.0266214464" flag="0"/>
      <psa10 value="0.0047307064" flag="0"/>
      <psa30 value="0.0003417025" flag="0"/>
    </comp>
    <comp name="--.HHE">
      <acc value="0.0138653080" flag="0"/>
      <vel value="0.0050219456" flag="0"/>
      <psa03 value="0.0216521805" flag="0"/>
      <psa10 value="0.0086471383" flag="0"/>
      <psa30 value="0.0004553913" flag="0"/>
    </comp>
    <comp name="--.HHZ">
      <acc value="0.0078832913" flag="0"/>
      <vel value="0.0031633198" flag="0"/>
      <psa03 value="0.0127064689" flag="0"/>
      <psa10 value="0.0043052824" flag="0"/>
      <psa30 value="0.0001863901" flag="0"/>
    </comp>
  </station>
  <station code="TSLK" name="TSLK" netid="HT" insttype="1s-100Hz," lat="38.8249" lon="20.6554">
    <comp name="--.HHN">
      <acc value="0.0227028798" flag="0"/>
      <vel value="0.0084378661" flag="0"/>
      <psa03 value="0.0523955673" flag="0"/>
      <psa10 value="0.0056187180" flag="0"/>
      <psa30 value="0.0006154386" flag="0"/>
    </comp>
    <comp name="--.HHZ">
      <acc value="0.0094389890" flag="0"/>
      <vel value="0.0035136041" flag="0"/>
      <psa03 value="0.0216459834" flag="0"/>
      <psa10 value="0.0027652424" flag="0"/>
      <psa30 value="0.0002498277" flag="0"/>
    </comp>
    <comp name="--.HHE">
      <acc value="0.0194675464" flag="0"/>
      <vel value="0.0058872546" flag="0"/>
      <psa03 value="0.0366340328" flag="0"/>
      <psa10 value="0.0070644505" flag="0"/>
      <psa30 value="0.0005270236" flag="0"/>
    </comp>
  </station>
</stationlist>
