<stationlist created="1778069366">
	<station code="IMMV" name="IMMV" netid="GE" source="GEOFON" insttype="" lat="35.4606" lon="23.9811">
		<comp name="--.HNE" depth="0.0">
			<acc value="0.00451024940776543" flag="0"/>
			<vel value="0.00296192205846557" flag="0"/>
			<psa03 value="0.0129304977126805" flag="0"/>
			<psa10 value="0.00393015542934899" flag="0"/>
			<psa30 value="0.000247871824665225" flag="0"/>
		</comp>
		<comp name="--.HNN" depth="0.0">
			<acc value="0.00674329907186561" flag="0"/>
			<vel value="0.00315317380169498" flag="0"/>
			<psa03 value="0.0257267688055063" flag="0"/>
			<psa10 value="0.00408317377598348" flag="0"/>
			<psa30 value="0.000226842987554638" flag="0"/>
		</comp>
		<comp name="--.HNZ" depth="0.0">
			<acc value="0.00329927918441321" flag="0"/>
			<vel value="0.00173386877220096" flag="0"/>
			<psa03 value="0.0123935912332613" flag="0"/>
			<psa10 value="0.00158253184808827" flag="0"/>
			<psa30 value="0.000162861632090509" flag="0"/>
		</comp>
	</station>
	<station code="CH01" name="CH01" netid="HI" source="ITSAK Strong Motion Network" insttype="" lat="35.517" lon="24.0208">
		<comp name="--.HNE" depth="0.0">
			<acc value="0.00610183002313423" flag="0"/>
			<vel value="0.00317717289753651" flag="0"/>
			<psa03 value="0.0177179138208356" flag="0"/>
			<psa10 value="0.0035234487711889" flag="0"/>
			<psa30 value="0.000366438672203646" flag="0"/>
		</comp>
		<comp name="--.HNN" depth="0.0">
			<acc value="0.00686952962327332" flag="0"/>
			<vel value="0.00288454477462079" flag="0"/>
			<psa03 value="0.0211183215238243" flag="0"/>
			<psa10 value="0.0038133782700753" flag="0"/>
			<psa30 value="0.00043623651452815" flag="0"/>
		</comp>
		<comp name="--.HNZ" depth="0.0">
			<acc value="0.00435797520600159" flag="0"/>
			<vel value="0.00210230759114905" flag="0"/>
			<psa03 value="0.00867998808394472" flag="0"/>
			<psa10 value="0.00347110038944552" flag="0"/>
			<psa30 value="0.000204919306311685" flag="0"/>
		</comp>
	</station>
	<station code="KRL1" name="KRL1" netid="HI" source="ITSAK Strong Motion Network" insttype="" lat="37.7951" lon="26.7065">
		<comp name="--.HNE" depth="0.0">
			<acc value="0.00447280947810612" flag="0"/>
			<vel value="0.0031913909865213" flag="0"/>
			<psa03 value="0.0114540048942776" flag="0"/>
			<psa10 value="0.00412344176193992" flag="0"/>
			<psa30 value="0.000377176801792031" flag="0"/>
		</comp>
		<comp name="--.HNN" depth="0.0">
			<acc value="0.00484794036443837" flag="0"/>
			<vel value="0.0025316393127482" flag="0"/>
			<psa03 value="0.0115434893075141" flag="0"/>
			<psa10 value="0.0041395489563225" flag="0"/>
			<psa30 value="0.000287692388555487" flag="0"/>
		</comp>
		<comp name="--.HNZ" depth="0.0">
			<acc value="0.00268521701693369" flag="0"/>
			<vel value="0.00189406583484704" flag="0"/>
			<psa03 value="0.00662184657950422" flag="0"/>
			<psa10 value="0.00247648113632134" flag="0"/>
			<psa30 value="0.000155255456965403" flag="0"/>
		</comp>
	</station>
	<station code="NAX1" name="NAX1" netid="HI" source="ITSAK Strong Motion Network" insttype="" lat="37.101394" lon="25.374103">
		<comp name="--.HNE" depth="0.0">
			<acc value="0.0356279610687556" flag="0"/>
			<vel value="0.0135284875241454" flag="0"/>
			<psa03 value="0.0560172426860762" flag="0"/>
			<psa10 value="0.00825896391966678" flag="0"/>
			<psa30 value="0.000869788496659203" flag="0"/>
		</comp>
		<comp name="--.HNN" depth="0.0">
			<acc value="0.0331060227921691" flag="0"/>
			<vel value="0.0112254194078621" flag="0"/>
			<psa03 value="0.0549434297272377" flag="0"/>
			<psa10 value="0.00483618511336899" flag="0"/>
			<psa30 value="0.000463976682631478" flag="0"/>
		</comp>
		<comp name="--.HNZ" depth="0.0">
			<acc value="0.0226339503745154" flag="0"/>
			<vel value="0.0119949081957363" flag="0"/>
			<psa03 value="0.0386572665181868" flag="0"/>
			<psa10 value="0.0090119752570523" flag="0"/>
			<psa30 value="0.00105591607619121" flag="0"/>
		</comp>
	</station>
	<station code="SIT2" name="SIT2" netid="HI" source="ITSAK Strong Motion Network" insttype="" lat="35.2059" lon="26.107">
		<comp name="--.HNE" depth="0.0">
			<acc value="0.0187498618885208" flag="0"/>
			<vel value="0.0109356673587869" flag="0"/>
			<psa03 value="0.0707374286634876" flag="0"/>
			<psa10 value="0.00800930240673683" flag="0"/>
			<psa30 value="0.000637576444310372" flag="0"/>
		</comp>
		<comp name="--.HNN" depth="0.0">
			<acc value="0.0187425664348503" flag="0"/>
			<vel value="0.0105764365403044" flag="0"/>
			<psa03 value="0.0729745389944012" flag="0"/>
			<psa10 value="0.00703079034799522" flag="0"/>
			<psa30 value="0.000457265351638737" flag="0"/>
		</comp>
		<comp name="--.HNZ" depth="0.0">
			<acc value="0.0153362836597762" flag="0"/>
			<vel value="0.0060303535220214" flag="0"/>
			<psa03 value="0.0374044847328752" flag="0"/>
			<psa10 value="0.00224292681777396" flag="0"/>
			<psa30 value="0.000316327400791181" flag="0"/>
		</comp>
	</station>
	<station code="HERG" name="HERG" netid="HL" source="National Observatory of Athens Seismic Network" insttype="" lat="35.32622" lon="25.06586">
		<comp name="00.HNE" depth="0.0">
			<acc value="0.0241790773185813" flag="0"/>
			<vel value="0.016970617853999" flag="0"/>
			<psa03 value="0.0985088486442305" flag="0"/>
			<psa10 value="0.023103287354412" flag="0"/>
			<psa30 value="0.00214980824757856" flag="0"/>
		</comp>
		<comp name="00.HNN" depth="0.0">
			<acc value="0.0161069170033591" flag="0"/>
			<vel value="0.0125848061937941" flag="0"/>
			<psa03 value="0.0578859127824866" flag="0"/>
			<psa10 value="0.0204036766434236" flag="0"/>
			<psa30 value="0.00128366837006273" flag="0"/>
		</comp>
		<comp name="00.HNZ" depth="0.0">
			<acc value="0.0184777830552934" flag="0"/>
			<vel value="0.00823970593480209" flag="0"/>
			<psa03 value="0.0319529422464555" flag="0"/>
			<psa10 value="0.00940034178900936" flag="0"/>
			<psa30 value="0.00070549902751298" flag="0"/>
		</comp>
	</station>
	<station code="IACM" name="IACM" netid="HL" source="National Observatory of Athens Seismic Network" insttype="" lat="35.3058" lon="25.0709">
		<comp name="--.HNE" depth="0.0">
			<acc value="0.0434763114452127" flag="0"/>
			<vel value="0.0233672105018809" flag="0"/>
			<psa03 value="0.103220270668353" flag="0"/>
			<psa10 value="0.0292627453945483" flag="0"/>
			<psa30 value="0.00164293382702294" flag="0"/>
		</comp>
		<comp name="--.HNN" depth="0.0">
			<acc value="0.0399376651200089" flag="0"/>
			<vel value="0.0200455198632106" flag="0"/>
			<psa03 value="0.132705384829794" flag="0"/>
			<psa10 value="0.0216359888543977" flag="0"/>
			<psa30 value="0.00123533232473048" flag="0"/>
		</comp>
		<comp name="--.HNZ" depth="0.0">
			<acc value="0.0361571667426036" flag="0"/>
			<vel value="0.01110959462223" flag="0"/>
			<psa03 value="0.101609551230095" flag="0"/>
			<psa10 value="0.00854486661995754" flag="0"/>
			<psa30 value="0.000958825487829563" flag="0"/>
		</comp>
	</station>
	<station code="IMMV" name="IMMV" netid="HL" source="National Observatory of Athens Seismic Network" insttype="" lat="35.4606" lon="23.9811">
		<comp name="--.HNE" depth="0.0">
			<acc value="0.00441873350268499" flag="0"/>
			<vel value="0.00290183451359768" flag="0"/>
			<psa03 value="0.0126620444729709" flag="0"/>
			<psa10 value="0.0038496194574361" flag="0"/>
			<psa30 value="0.000242950181937216" flag="0"/>
		</comp>
		<comp name="--.HNN" depth="0.0">
			<acc value="0.00660647250793517" flag="0"/>
			<vel value="0.00308918794219931" flag="0"/>
			<psa03 value="0.025189862326087" flag="0"/>
			<psa10 value="0.00400263780407059" flag="0"/>
			<psa30 value="0.000221921344826628" flag="0"/>
		</comp>
		<comp name="--.HNZ" depth="0.0">
			<acc value="0.00323234310215232" flag="0"/>
			<vel value="0.00169867892795436" flag="0"/>
			<psa03 value="0.0121251379935516" flag="0"/>
			<psa10 value="0.00155031745932312" flag="0"/>
			<psa30 value="0.00015972967762723" flag="0"/>
		</comp>
	</station>
	<station code="KLNA" name="KLNA" netid="HL" source="National Observatory of Athens Seismic Network" insttype="" lat="36.95708" lon="26.97274">
		<comp name="00.HNE" depth="0.0">
			<acc value="0.0138587280989564" flag="0"/>
			<vel value="0.00428774404639875" flag="0"/>
			<psa03 value="0.0253688311525601" flag="0"/>
			<psa10 value="0.00430062090014828" flag="0"/>
			<psa30 value="0.00027829652516565" flag="0"/>
		</comp>
		<comp name="00.HNN" depth="0.0">
			<acc value="0.0106580518747342" flag="0"/>
			<vel value="0.00531994384920931" flag="0"/>
			<psa03 value="0.0217894546230983" flag="0"/>
			<psa10 value="0.00299191135656383" flag="0"/>
			<psa30 value="0.000392389152042243" flag="0"/>
		</comp>
		<comp name="00.HNZ" depth="0.0">
			<acc value="0.0100290938215838" flag="0"/>
			<vel value="0.00312871324966215" flag="0"/>
			<psa03 value="0.0165098742421423" flag="0"/>
			<psa10 value="0.00234762358126072" flag="0"/>
			<psa30 value="0.0003029047388057" flag="0"/>
		</comp>
	</station>
	<station code="MILA" name="MILA" netid="HL" source="National Observatory of Athens Seismic Network" insttype="" lat="36.74288" lon="24.4282">
		<comp name="00.HNE" depth="0.0">
			<acc value="0.0158020223087627" flag="0"/>
			<vel value="0.0093518615887226" flag="0"/>
			<psa03 value="0.0484552984675212" flag="0"/>
			<psa10 value="0.0107808598040472" flag="0"/>
			<psa30 value="0.00136272350291269" flag="0"/>
		</comp>
		<comp name="00.HNN" depth="0.0">
			<acc value="0.0204642349496953" flag="0"/>
			<vel value="0.01128695151418" flag="0"/>
			<psa03 value="0.0657819618988502" flag="0"/>
			<psa10 value="0.0135313745121492" flag="0"/>
			<psa30 value="0.00206806199895875" flag="0"/>
		</comp>
		<comp name="00.HNZ" depth="0.0">
			<acc value="0.0184965706838451" flag="0"/>
			<vel value="0.00802527344560228" flag="0"/>
			<psa03 value="0.0395588966244314" flag="0"/>
			<psa10 value="0.00725940136846578" flag="0"/>
			<psa30 value="0.000520626311853814" flag="0"/>
		</comp>
	</station>
	<station code="THRA" name="THRA" netid="HL" source="National Observatory of Athens Seismic Network" insttype="" lat="36.41502" lon="25.43244">
		<comp name="00.HNE" depth="0.0">
			<acc value="0.656411381719861" flag="0"/>
			<vel value="0.215790331254185" flag="0"/>
			<psa03 value="0.693548944789831" flag="0"/>
			<psa10 value="0.249001117960271" flag="0"/>
			<psa30 value="0.0261111043603572" flag="0"/>
		</comp>
		<comp name="00.HNN" depth="0.0">
			<acc value="0.571319862995004" flag="0"/>
			<vel value="0.199145681295113" flag="0"/>
			<psa03 value="0.561827888505638" flag="0"/>
			<psa10 value="0.110849711740901" flag="0"/>
			<psa30 value="0.0119743567572481" flag="0"/>
		</comp>
		<comp name="00.HNZ" depth="0.0">
			<acc value="0.390813840410762" flag="0"/>
			<vel value="0.125530259289328" flag="0"/>
			<psa03 value="0.62885171401981" flag="0"/>
			<psa10 value="0.083765464386596" flag="0"/>
			<psa30 value="0.00577084980962469" flag="0"/>
		</comp>
	</station>
</stationlist>
