<?xml version="1.0" encoding="UTF-8" standalone="yes"?>
<!DOCTYPE earthquake SYSTEM "stationlist.dtd">
<stationlist created="" xmlns="ch.ethz.sed.shakemap.usgs.xml">
  <station code="THERA" name="THERA" netid="GE" insttype="STS-2/N" lat="36.367" lon="25.4753">
    <comp name="--.HHE">
      <acc value="0.4559211184" flag="0"/>
      <vel value="0.1342975260" flag="0"/>
      <psa03 value="0.5021557666" flag="0"/>
      <psa10 value="0.0513243251" flag="0"/>
      <psa30 value="0.0070993036" flag="0"/>
    </comp>
    <comp name="--.HHN">
      <acc value="0.2719313927" flag="0"/>
      <vel value="0.1007317000" flag="0"/>
      <psa03 value="0.5921694107" flag="0"/>
      <psa10 value="0.0261485239" flag="0"/>
      <psa30 value="0.0028265692" flag="0"/>
    </comp>
    <comp name="--.HHZ">
      <acc value="0.2943048238" flag="0"/>
      <vel value="0.1047200277" flag="0"/>
      <psa03 value="0.5658643662" flag="0"/>
      <psa10 value="0.0290012063" flag="0"/>
      <psa30 value="0.0061737942" flag="0"/>
    </comp>
  </station>
  <station code="SNT5" name="SNT5" netid="HA" insttype="1s-100Hz," lat="36.4037" lon="25.3953">
    <comp name="--.HHE">
      <acc value="0.7422876242" flag="0"/>
      <vel value="0.1651470221" flag="0"/>
      <psa03 value="0.6555626982" flag="0"/>
      <psa10 value="0.0528219675" flag="0"/>
      <psa30 value="0.0173515159" flag="0"/>
    </comp>
    <comp name="--.HHN">
      <acc value="0.5630645395" flag="0"/>
      <vel value="0.1258684002" flag="0"/>
      <psa03 value="0.4512808055" flag="0"/>
      <psa10 value="0.0243797441" flag="0"/>
      <psa30 value="0.0125201906" flag="0"/>
    </comp>
    <comp name="--.HHZ">
      <acc value="0.2155858165" flag="0"/>
      <vel value="0.0365304558" flag="0"/>
      <psa03 value="0.1902184078" flag="0"/>
      <psa10 value="0.0191359154" flag="0"/>
      <psa30 value="0.0056211894" flag="0"/>
    </comp>
  </station>
  <station code="SIT2" name="SIT2" netid="HI" insttype="CMG-5TD,ACCELEROMETER,GURALP" lat="35.2059" lon="26.107">
    <comp name="--.HNE">
      <acc value="0.0187250519" flag="0"/>
      <vel value="0.0109933338" flag="0"/>
      <psa03 value="0.0693473201" flag="0"/>
      <psa10 value="0.0080068997" flag="0"/>
      <psa30 value="0.0005891111" flag="0"/>
    </comp>
    <comp name="--.HNN">
      <acc value="0.0186979557" flag="0"/>
      <vel value="0.0104564310" flag="0"/>
      <psa03 value="0.0732811847" flag="0"/>
      <psa10 value="0.0070194507" flag="0"/>
      <psa30 value="0.0004407161" flag="0"/>
    </comp>
    <comp name="--.HNZ">
      <acc value="0.0152502514" flag="0"/>
      <vel value="0.0058848618" flag="0"/>
      <psa03 value="0.0368333762" flag="0"/>
      <psa10 value="0.0022545742" flag="0"/>
      <psa30 value="0.0002328494" flag="0"/>
    </comp>
  </station>
  <station code="MHLO" name="MHLO" netid="HL" insttype="20" lat="36.6898" lon="24.4017">
    <comp name="--.HHE">
      <acc value="0.0171447718" flag="0"/>
      <vel value="0.0125814535" flag="0"/>
      <psa03 value="0.0435628567" flag="0"/>
      <psa10 value="0.0160813264" flag="0"/>
      <psa30 value="0.0012231063" flag="0"/>
    </comp>
    <comp name="--.HHN">
      <acc value="0.0136733055" flag="0"/>
      <vel value="0.0108744844" flag="0"/>
      <psa03 value="0.0449936839" flag="0"/>
      <psa10 value="0.0177118581" flag="0"/>
      <psa30 value="0.0007727765" flag="0"/>
    </comp>
    <comp name="--.HHZ">
      <acc value="0.0097123390" flag="0"/>
      <vel value="0.0060531730" flag="0"/>
      <psa03 value="0.0316146760" flag="0"/>
      <psa10 value="0.0071985456" flag="0"/>
      <psa30 value="0.0006223589" flag="0"/>
    </comp>
  </station>
  <station code="NPS" name="NPS" netid="HL" insttype="CMG3ESPC-120s" lat="35.2613" lon="25.6104">
    <comp name="--.HHE">
      <acc value="0.0074450006" flag="0"/>
      <vel value="0.0030575711" flag="0"/>
      <psa03 value="0.0242340176" flag="0"/>
      <psa10 value="0.0045304961" flag="0"/>
      <psa30 value="0.0002594324" flag="0"/>
    </comp>
    <comp name="--.HHN">
      <acc value="0.0178833987" flag="0"/>
      <vel value="0.0079410366" flag="0"/>
      <psa03 value="0.0440572285" flag="0"/>
      <psa10 value="0.0090968742" flag="0"/>
      <psa30 value="0.0005469776" flag="0"/>
    </comp>
    <comp name="--.HHZ">
      <acc value="0.0190608221" flag="0"/>
      <vel value="0.0042243853" flag="0"/>
      <psa03 value="0.0262447558" flag="0"/>
      <psa10 value="0.0035908257" flag="0"/>
      <psa30 value="0.0006103341" flag="0"/>
    </comp>
  </station>
  <station code="SAP3" name="SAP3" netid="HL" insttype="LE3D20_SMART24" lat="36.4356" lon="25.3454">
    <comp name="--.HHE">
      <acc value="0.2818934951" flag="0"/>
      <vel value="0.0704926457" flag="0"/>
      <psa03 value="0.3711186020" flag="0"/>
      <psa10 value="0.0866280134" flag="0"/>
      <psa30 value="0.0182122058" flag="0"/>
    </comp>
    <comp name="--.HHN">
      <acc value="0.1984831612" flag="0"/>
      <vel value="0.0734873994" flag="0"/>
      <psa03 value="0.3757967608" flag="0"/>
      <psa10 value="0.0584446219" flag="0"/>
      <psa30 value="0.0134490045" flag="0"/>
    </comp>
    <comp name="--.HHZ">
      <acc value="0.1959549212" flag="0"/>
      <vel value="0.0541585407" flag="0"/>
      <psa03 value="0.2250470251" flag="0"/>
      <psa10 value="0.0311782088" flag="0"/>
      <psa30 value="0.0058917376" flag="0"/>
    </comp>
  </station>
  <station code="THERA" name="THERA" netid="HL" insttype="120" lat="36.367" lon="25.4753">
    <comp name="--.HHE">
      <acc value="0.4450268398" flag="0"/>
      <vel value="0.1301468995" flag="0"/>
      <psa03 value="0.4874052896" flag="0"/>
      <psa10 value="0.0507225614" flag="0"/>
      <psa30 value="0.0070972397" flag="0"/>
    </comp>
    <comp name="--.HHZ">
      <acc value="0.2871606533" flag="0"/>
      <vel value="0.1018495655" flag="0"/>
      <psa03 value="0.5492775771" flag="0"/>
      <psa10 value="0.0286728425" flag="0"/>
      <psa30 value="0.0061754530" flag="0"/>
    </comp>
    <comp name="--.HHN">
      <acc value="0.2658251702" flag="0"/>
      <vel value="0.0990752330" flag="0"/>
      <psa03 value="0.5753981739" flag="0"/>
      <psa10 value="0.0260197419" flag="0"/>
      <psa30 value="0.0028243743" flag="0"/>
    </comp>
  </station>
</stationlist>
