<?xml version="1.0" encoding="UTF-8" standalone="yes"?>
<!DOCTYPE earthquake SYSTEM "stationlist.dtd">
<stationlist created="" xmlns="ch.ethz.sed.shakemap.usgs.xml">
  <station code="AKS" name="AKS" netid="KO" insttype="CMG-5T" lat="38.8785" lon="27.8129">
    <comp name="--.HNE">
      <acc value="0.0557423815" flag="0"/>
      <vel value="0.0216919347" flag="0"/>
      <psa03 value="0.1765848326" flag="0"/>
      <psa10 value="0.0149156706" flag="0"/>
      <psa30 value="0.0029350004" flag="0"/>
    </comp>
    <comp name="--.HNZ">
      <acc value="0.0294579514" flag="0"/>
      <vel value="0.0109737004" flag="0"/>
      <psa03 value="0.0490113237" flag="0"/>
      <psa10 value="0.0068694734" flag="0"/>
      <psa30 value="0.0010473757" flag="0"/>
    </comp>
    <comp name="--.HNN">
      <acc value="0.0661161871" flag="0"/>
      <vel value="0.0240916598" flag="0"/>
      <psa03 value="0.1128009287" flag="0"/>
      <psa10 value="0.0121897356" flag="0"/>
      <psa30 value="0.0011513084" flag="0"/>
    </comp>
  </station>
  <station code="AYDB" name="AYDB" netid="KO" insttype="CMG-3ESPC" lat="37.9467" lon="27.8908">
    <comp name="--.HHZ">
      <acc value="0.1938783245" flag="0"/>
      <vel value="0.0458628187" flag="0"/>
      <psa03 value="0.2464436522" flag="0"/>
      <psa10 value="0.0171793506" flag="0"/>
      <psa30 value="0.0014427592" flag="0"/>
    </comp>
    <comp name="--.HHN">
      <acc value="0.3307815613" flag="0"/>
      <vel value="0.0767402032" flag="0"/>
      <psa03 value="0.4227797024" flag="0"/>
      <psa10 value="0.0242922522" flag="0"/>
      <psa30 value="0.0015655424" flag="0"/>
    </comp>
  </station>
  <station code="BLCB" name="BLCB" netid="KO" insttype="CMG-3T" lat="38.3853" lon="27.042">
    <comp name="--.HHN">
      <acc value="0.0001297679" flag="0"/>
      <vel value="0.0000370786" flag="0"/>
      <psa03 value="0.0001413341" flag="0"/>
      <psa10 value="0.0000152437" flag="0"/>
      <psa30 value="0.0000013427" flag="0"/>
    </comp>
    <comp name="--.HHE">
      <acc value="0.2517477393" flag="0"/>
      <vel value="0.0793749199" flag="0"/>
      <psa03 value="0.4261879367" flag="0"/>
      <psa10 value="0.0304234013" flag="0"/>
      <psa30 value="0.0025493888" flag="0"/>
    </comp>
    <comp name="--.HHZ">
      <acc value="0.1509419077" flag="0"/>
      <vel value="0.0360287596" flag="0"/>
      <psa03 value="0.1397137418" flag="0"/>
      <psa10 value="0.0164457978" flag="0"/>
      <psa30 value="0.0025288721" flag="0"/>
    </comp>
  </station>
  <station code="BODA" name="BODA" netid="KO" insttype="ACEBOX" lat="37.0348" lon="27.4304">
    <comp name="--.HNE">
      <acc value="0.0660629181" flag="0"/>
      <vel value="0.0271059254" flag="0"/>
      <psa03 value="0.2015942756" flag="0"/>
      <psa10 value="0.0104294985" flag="0"/>
      <psa30 value="0.0020109673" flag="0"/>
    </comp>
    <comp name="--.HNN">
      <acc value="0.0780467544" flag="0"/>
      <vel value="0.0361613550" flag="0"/>
      <psa03 value="0.2426229349" flag="0"/>
      <psa10 value="0.0120887315" flag="0"/>
      <psa30 value="0.0014832383" flag="0"/>
    </comp>
    <comp name="--.HNZ">
      <acc value="0.0226824480" flag="0"/>
      <vel value="0.0098817693" flag="0"/>
      <psa03 value="0.0520170609" flag="0"/>
      <psa10 value="0.0158023973" flag="0"/>
      <psa30 value="0.0013401228" flag="0"/>
    </comp>
  </station>
  <station code="BODT" name="BODT" netid="KO" insttype="CMG-3ESP" lat="37.0622" lon="27.3103">
    <comp name="--.HHE">
      <acc value="0.0426957271" flag="0"/>
      <vel value="0.0248431900" flag="0"/>
      <psa03 value="0.1595253028" flag="0"/>
      <psa10 value="0.0225848192" flag="0"/>
      <psa30 value="0.0024688794" flag="0"/>
    </comp>
    <comp name="--.HHN">
      <acc value="0.0436594181" flag="0"/>
      <vel value="0.0192777307" flag="0"/>
      <psa03 value="0.0945423723" flag="0"/>
      <psa10 value="0.0298358585" flag="0"/>
      <psa30 value="0.0014648639" flag="0"/>
    </comp>
    <comp name="--.HHZ">
      <acc value="0.0425316248" flag="0"/>
      <vel value="0.0155590472" flag="0"/>
      <psa03 value="0.0924666808" flag="0"/>
      <psa10 value="0.0163975480" flag="0"/>
      <psa30 value="0.0020875505" flag="0"/>
    </comp>
  </station>
  <station code="FOCM" name="FOCM" netid="KO" insttype="CMG-5T" lat="38.7131" lon="26.7309">
    <comp name="--.HNE">
      <acc value="0.1161116910" flag="0"/>
      <vel value="0.0540561811" flag="0"/>
      <psa03 value="0.3369957168" flag="0"/>
      <psa10 value="0.0153922559" flag="0"/>
      <psa30 value="0.0019164995" flag="0"/>
    </comp>
    <comp name="--.HNN">
      <acc value="0.0779027866" flag="0"/>
      <vel value="0.0319357024" flag="0"/>
      <psa03 value="0.2021719674" flag="0"/>
      <psa10 value="0.0190418920" flag="0"/>
      <psa30 value="0.0012371981" flag="0"/>
    </comp>
    <comp name="--.HNZ">
      <acc value="0.0803686305" flag="0"/>
      <vel value="0.0320833262" flag="0"/>
      <psa03 value="0.2559208684" flag="0"/>
      <psa10 value="0.0091863988" flag="0"/>
      <psa30 value="0.0008808412" flag="0"/>
    </comp>
  </station>
  <station code="GMLD" name="GMLD" netid="KO" insttype="CMG-5T" lat="38.0766" lon="26.9157">
    <comp name="--.HNE">
      <acc value="2.8549847536" flag="0"/>
      <vel value="0.6638514832" flag="0"/>
      <psa03 value="2.5938468173" flag="0"/>
      <psa10 value="0.2628389982" flag="0"/>
      <psa30 value="0.0253508800" flag="0"/>
    </comp>
    <comp name="--.HNN">
      <acc value="3.8741077031" flag="0"/>
      <vel value="1.0766814724" flag="0"/>
      <psa03 value="5.3266603042" flag="0"/>
      <psa10 value="0.2890398067" flag="0"/>
      <psa30 value="0.0316074923" flag="0"/>
    </comp>
    <comp name="--.HNZ">
      <acc value="1.7175221702" flag="0"/>
      <vel value="0.3704386288" flag="0"/>
      <psa03 value="2.1046114272" flag="0"/>
      <psa10 value="0.0977534388" flag="0"/>
      <psa30 value="0.0083786114" flag="0"/>
    </comp>
  </station>
  <station code="GOMA" name="GOMA" netid="KO" insttype="CMG-5T" lat="38.7077" lon="27.9175">
    <comp name="--.HNN">
      <acc value="0.1211912707" flag="0"/>
      <vel value="0.0613096185" flag="0"/>
      <psa03 value="0.3703547956" flag="0"/>
      <psa10 value="0.0333801293" flag="0"/>
      <psa30 value="0.0040033664" flag="0"/>
    </comp>
    <comp name="--.HNZ">
      <acc value="0.0728846983" flag="0"/>
      <vel value="0.0326735816" flag="0"/>
      <psa03 value="0.2105519380" flag="0"/>
      <psa10 value="0.0166282075" flag="0"/>
      <psa30 value="0.0026529055" flag="0"/>
    </comp>
    <comp name="--.HNE">
      <acc value="0.0770967736" flag="0"/>
      <vel value="0.0527775454" flag="0"/>
      <psa03 value="0.3580520724" flag="0"/>
      <psa10 value="0.0256362875" flag="0"/>
      <psa30 value="0.0028905747" flag="0"/>
    </comp>
  </station>
  <station code="KUSD" name="KUSD" netid="KO" insttype="CMG-5T" lat="37.8606" lon="27.2868">
    <comp name="--.HNN">
      <acc value="0.8182440137" flag="0"/>
      <vel value="0.3865112931" flag="0"/>
      <psa03 value="1.0280020881" flag="0"/>
      <psa10 value="0.1108972444" flag="0"/>
      <psa30 value="0.0113072597" flag="0"/>
    </comp>
    <comp name="--.HNE">
      <acc value="1.2384646852" flag="0"/>
      <vel value="0.4234560436" flag="0"/>
      <psa03 value="1.1161588316" flag="0"/>
      <psa10 value="0.1326823767" flag="0"/>
      <psa30 value="0.0118219271" flag="0"/>
    </comp>
    <comp name="--.HNZ">
      <acc value="0.6171170058" flag="0"/>
      <vel value="0.1269243800" flag="0"/>
      <psa03 value="0.3922752768" flag="0"/>
      <psa10 value="0.0628372071" flag="0"/>
      <psa30 value="0.0038024720" flag="0"/>
    </comp>
  </station>
  <station code="MLSB" name="MLSB" netid="KO" insttype="CMG-3ESP" lat="37.2953" lon="27.7767">
    <comp name="--.HHN">
      <acc value="0.0539029061" flag="0"/>
      <vel value="0.0307544416" flag="0"/>
      <psa03 value="0.1766904721" flag="0"/>
      <psa10 value="0.0230768626" flag="0"/>
      <psa30 value="0.0048682673" flag="0"/>
    </comp>
    <comp name="--.HHZ">
      <acc value="0.0420527892" flag="0"/>
      <vel value="0.0234974639" flag="0"/>
      <psa03 value="0.1655752100" flag="0"/>
      <psa10 value="0.0128394032" flag="0"/>
      <psa30 value="0.0012595112" flag="0"/>
    </comp>
    <comp name="--.HHE">
      <acc value="0.0523267232" flag="0"/>
      <vel value="0.0284247706" flag="0"/>
      <psa03 value="0.2055997389" flag="0"/>
      <psa10 value="0.0288259727" flag="0"/>
      <psa30 value="0.0038959328" flag="0"/>
    </comp>
  </station>
  <station code="NAZL" name="NAZL" netid="KO" insttype="CMG-5T" lat="37.9641" lon="28.2922">
    <comp name="--.HNE">
      <acc value="0.1754648631" flag="0"/>
      <vel value="0.0686290720" flag="0"/>
      <psa03 value="0.7340450289" flag="0"/>
      <psa10 value="0.0301073997" flag="0"/>
      <psa30 value="0.0019980459" flag="0"/>
    </comp>
    <comp name="--.HNN">
      <acc value="0.1747185142" flag="0"/>
      <vel value="0.0748707635" flag="0"/>
      <psa03 value="0.3586304022" flag="0"/>
      <psa10 value="0.0232401414" flag="0"/>
      <psa30 value="0.0018882809" flag="0"/>
    </comp>
    <comp name="--.HNZ">
      <acc value="0.0766571262" flag="0"/>
      <vel value="0.0245663107" flag="0"/>
      <psa03 value="0.1637164403" flag="0"/>
      <psa10 value="0.0097101154" flag="0"/>
      <psa30 value="0.0015252161" flag="0"/>
    </comp>
  </station>
  <station code="ODEM" name="ODEM" netid="KO" insttype="CMG-5T" lat="38.2762" lon="28.0747">
    <comp name="--.HNE">
      <acc value="0.0582238669" flag="0"/>
      <vel value="0.0228233667" flag="0"/>
      <psa03 value="0.1809862556" flag="0"/>
      <psa10 value="0.0143545372" flag="0"/>
      <psa30 value="0.0012467578" flag="0"/>
    </comp>
    <comp name="--.HNN">
      <acc value="0.0589060243" flag="0"/>
      <vel value="0.0207273166" flag="0"/>
      <psa03 value="0.1424599956" flag="0"/>
      <psa10 value="0.0185295995" flag="0"/>
      <psa30 value="0.0029485609" flag="0"/>
    </comp>
    <comp name="--.HNZ">
      <acc value="0.0451981396" flag="0"/>
      <vel value="0.0157131554" flag="0"/>
      <psa03 value="0.0998804722" flag="0"/>
      <psa10 value="0.0129880242" flag="0"/>
      <psa30 value="0.0011736135" flag="0"/>
    </comp>
  </station>
  <station code="YKAV" name="YKAV" netid="KO" insttype="CMG-5T" lat="37.1246" lon="27.2801">
    <comp name="--.HNE">
      <acc value="0.0515152767" flag="0"/>
      <vel value="0.0254681625" flag="0"/>
      <psa03 value="0.1218208459" flag="0"/>
      <psa10 value="0.0231308819" flag="0"/>
      <psa30 value="0.0026954105" flag="0"/>
    </comp>
    <comp name="--.HNN">
      <acc value="0.0367163678" flag="0"/>
      <vel value="0.0354691197" flag="0"/>
      <psa03 value="0.0989196809" flag="0"/>
      <psa10 value="0.0241174976" flag="0"/>
      <psa30 value="0.0019604640" flag="0"/>
    </comp>
    <comp name="--.HNZ">
      <acc value="0.0224295233" flag="0"/>
      <vel value="0.0171995722" flag="0"/>
      <psa03 value="0.0617075316" flag="0"/>
      <psa10 value="0.0234271785" flag="0"/>
      <psa30 value="0.0020914851" flag="0"/>
    </comp>
  </station>
  <station code="AYDN" name="AYDN" netid="TU" insttype="T" lat="37.6608" lon="27.8792">
    <comp name="--.HHE">
      <acc value="0.6254191742" flag="0"/>
      <vel value="0.2054959619" flag="0"/>
      <psa03 value="1.5428550266" flag="0"/>
      <psa10 value="0.0738388730" flag="0"/>
      <psa30 value="0.0046161177" flag="0"/>
    </comp>
    <comp name="--.HHN">
      <acc value="0.3260400111" flag="0"/>
      <vel value="0.1352909181" flag="0"/>
      <psa03 value="1.3494308071" flag="0"/>
      <psa10 value="0.0652939062" flag="0"/>
      <psa30 value="0.0064898710" flag="0"/>
    </comp>
    <comp name="--.HHZ">
      <acc value="0.1510374451" flag="0"/>
      <vel value="0.0581431265" flag="0"/>
      <psa03 value="0.3532785557" flag="0"/>
      <psa10 value="0.0256773196" flag="0"/>
      <psa30 value="0.0044407981" flag="0"/>
    </comp>
  </station>
</stationlist>
