<?xml version="1.0" encoding="UTF-8" standalone="yes"?>
<!DOCTYPE earthquake SYSTEM "stationlist.dtd">
<stationlist created="" xmlns="ch.ethz.sed.shakemap.usgs.xml">
  <station code="ATAL" name="ATAL" netid="HA" insttype="120" lat="38.6926" lon="23.0213">
    <comp name="--.HHE">
      <acc value="0.0085230613" flag="0"/>
      <vel value="0.0045075247" flag="0"/>
      <psa03 value="0.0186271765" flag="0"/>
      <psa10 value="0.0052365922" flag="0"/>
      <psa30 value="0.0005068553" flag="0"/>
    </comp>
    <comp name="--.HHN">
      <acc value="0.0080733037" flag="0"/>
      <vel value="0.0068688969" flag="0"/>
      <psa03 value="0.0234220164" flag="0"/>
      <psa10 value="0.0078922220" flag="0"/>
      <psa30 value="0.0010217180" flag="0"/>
    </comp>
    <comp name="--.HHZ">
      <acc value="0.0030188688" flag="0"/>
      <vel value="0.0019181599" flag="0"/>
      <psa03 value="0.0087992719" flag="0"/>
      <psa10 value="0.0022061592" flag="0"/>
      <psa30 value="0.0002895206" flag="0"/>
    </comp>
  </station>
  <station code="MRKA" name="MRKA" netid="HA" insttype="30" lat="38.7047" lon="23.5863">
    <comp name="--.HHE">
      <acc value="0.0414970239" flag="0"/>
      <vel value="0.0201687490" flag="0"/>
      <psa03 value="0.1009092456" flag="0"/>
      <psa10 value="0.0166446736" flag="0"/>
      <psa30 value="0.0008005374" flag="0"/>
    </comp>
    <comp name="--.HHZ">
      <acc value="0.0217840592" flag="0"/>
      <vel value="0.0139870659" flag="0"/>
      <psa03 value="0.0632165542" flag="0"/>
      <psa10 value="0.0099761536" flag="0"/>
      <psa30 value="0.0006397271" flag="0"/>
    </comp>
    <comp name="--.HHN">
      <acc value="0.0480699687" flag="0"/>
      <vel value="0.0296144982" flag="0"/>
      <psa03 value="0.1170332601" flag="0"/>
      <psa10 value="0.0231372358" flag="0"/>
      <psa30 value="0.0017956872" flag="0"/>
    </comp>
  </station>
  <station code="PLN1" name="PLN1" netid="HI" insttype="CMG-5TD,ACCELEROMETER,GURALP" lat="39.998" lon="23.575">
    <comp name="--.HNE">
      <acc value="0.0657364343" flag="0"/>
      <vel value="0.0410807446" flag="0"/>
      <psa03 value="0.1180018754" flag="0"/>
      <psa10 value="0.0756200655" flag="0"/>
      <psa30 value="0.0049353155" flag="0"/>
    </comp>
    <comp name="--.HNZ">
      <acc value="0.0481601474" flag="0"/>
      <vel value="0.0224250750" flag="0"/>
      <psa03 value="0.0689506689" flag="0"/>
      <psa10 value="0.0247034472" flag="0"/>
      <psa30 value="0.0019039093" flag="0"/>
    </comp>
    <comp name="--.HNN">
      <acc value="0.0446007573" flag="0"/>
      <vel value="0.0524174329" flag="0"/>
      <psa03 value="0.1064438155" flag="0"/>
      <psa10 value="0.0633239860" flag="0"/>
      <psa30 value="0.0052918342" flag="0"/>
    </comp>
  </station>
  <station code="LKR" name="LKR" netid="HL" insttype="65535" lat="38.6496" lon="22.9988">
    <comp name="--.HHE">
      <acc value="0.0142667680" flag="0"/>
      <vel value="0.0054231299" flag="0"/>
      <psa03 value="0.0297911339" flag="0"/>
      <psa10 value="0.0043513710" flag="0"/>
      <psa30 value="0.0005042446" flag="0"/>
    </comp>
    <comp name="--.HHN">
      <acc value="0.0151730623" flag="0"/>
      <vel value="0.0061061130" flag="0"/>
      <psa03 value="0.0361671020" flag="0"/>
      <psa10 value="0.0054200672" flag="0"/>
      <psa30 value="0.0005565218" flag="0"/>
    </comp>
    <comp name="--.HHZ">
      <acc value="0.0084770809" flag="0"/>
      <vel value="0.0047188116" flag="0"/>
      <psa03 value="0.0231969759" flag="0"/>
      <psa10 value="0.0038031959" flag="0"/>
      <psa30 value="0.0007266684" flag="0"/>
    </comp>
  </station>
  <station code="NEO" name="NEO" netid="HL" insttype="120" lat="39.3057" lon="23.2219">
    <comp name="--.HHN">
      <acc value="0.1842923618" flag="0"/>
      <vel value="0.0651677771" flag="0"/>
      <psa03 value="0.2689641178" flag="0"/>
      <psa10 value="0.0334334454" flag="0"/>
      <psa30 value="0.0023832863" flag="0"/>
    </comp>
    <comp name="--.HHE">
      <acc value="0.1650286387" flag="0"/>
      <vel value="0.0490236374" flag="0"/>
      <psa03 value="0.2231983529" flag="0"/>
      <psa10 value="0.0252466557" flag="0"/>
      <psa30 value="0.0023777738" flag="0"/>
    </comp>
    <comp name="--.HHZ">
      <acc value="0.1588105732" flag="0"/>
      <vel value="0.0362747854" flag="0"/>
      <psa03 value="0.1886451404" flag="0"/>
      <psa10 value="0.0115589117" flag="0"/>
      <psa30 value="0.0018526136" flag="0"/>
    </comp>
  </station>
  <station code="PLG" name="PLG" netid="HL" insttype="120" lat="40.3733" lon="23.4444">
    <comp name="--.HHE">
      <acc value="0.0146821229" flag="0"/>
      <vel value="0.0082487356" flag="0"/>
      <psa03 value="0.0249544218" flag="0"/>
      <psa10 value="0.0074412497" flag="0"/>
      <psa30 value="0.0005143985" flag="0"/>
    </comp>
    <comp name="--.HHN">
      <acc value="0.0179237008" flag="0"/>
      <vel value="0.0081182873" flag="0"/>
      <psa03 value="0.0357518133" flag="0"/>
      <psa10 value="0.0086892093" flag="0"/>
      <psa30 value="0.0006894217" flag="0"/>
    </comp>
    <comp name="--.HHZ">
      <acc value="0.0275126961" flag="0"/>
      <vel value="0.0151156869" flag="0"/>
      <psa03 value="0.0735765076" flag="0"/>
      <psa10 value="0.0120316429" flag="0"/>
      <psa30 value="0.0009544570" flag="0"/>
    </comp>
  </station>
  <station code="SKY" name="SKY" netid="HL" insttype="120" lat="38.8831" lon="24.5482">
    <comp name="--.HHE">
      <acc value="0.0232160287" flag="0"/>
      <vel value="0.0089622058" flag="0"/>
      <psa03 value="0.0337204501" flag="0"/>
      <psa10 value="0.0084453498" flag="0"/>
      <psa30 value="0.0005678850" flag="0"/>
    </comp>
    <comp name="--.HHN">
      <acc value="0.0276061598" flag="0"/>
      <vel value="0.0096460197" flag="0"/>
      <psa03 value="0.0431438382" flag="0"/>
      <psa10 value="0.0160861847" flag="0"/>
      <psa30 value="0.0009900738" flag="0"/>
    </comp>
    <comp name="--.HHZ">
      <acc value="0.0159738196" flag="0"/>
      <vel value="0.0056808566" flag="0"/>
      <psa03 value="0.0127488317" flag="0"/>
      <psa10 value="0.0114780921" flag="0"/>
      <psa30 value="0.0006555373" flag="0"/>
    </comp>
  </station>
  <station code="THI1" name="THI1" netid="HL" insttype="LE3D20_SMART24" lat="38.3878" lon="23.3945">
    <comp name="--.HHE">
      <acc value="0.0249176387" flag="0"/>
      <vel value="0.0111392679" flag="0"/>
      <psa03 value="0.0552307565" flag="0"/>
      <psa10 value="0.0056058225" flag="0"/>
      <psa30 value="0.0009167848" flag="0"/>
    </comp>
    <comp name="--.HHN">
      <acc value="0.0246308819" flag="0"/>
      <vel value="0.0132888925" flag="0"/>
      <psa03 value="0.0972664115" flag="0"/>
      <psa10 value="0.0094395143" flag="0"/>
      <psa30 value="0.0008093318" flag="0"/>
    </comp>
    <comp name="--.HHZ">
      <acc value="0.0190892896" flag="0"/>
      <vel value="0.0082694408" flag="0"/>
      <psa03 value="0.0592925818" flag="0"/>
      <psa10 value="0.0074340503" flag="0"/>
      <psa30 value="0.0008214577" flag="0"/>
    </comp>
  </station>
  <station code="AGG" name="AGG" netid="HT" insttype="120P," lat="39.0211" lon="22.336">
    <comp name="--.HHZ">
      <acc value="0.0075204130" flag="0"/>
      <vel value="0.0047541533" flag="0"/>
      <psa03 value="0.0182401529" flag="0"/>
      <psa10 value="0.0063717417" flag="0"/>
      <psa30 value="0.0005780026" flag="0"/>
    </comp>
    <comp name="--.HHN">
      <acc value="0.0105873940" flag="0"/>
      <vel value="0.0091924402" flag="0"/>
      <psa03 value="0.0453013993" flag="0"/>
      <psa10 value="0.0111759462" flag="0"/>
      <psa30 value="0.0014577986" flag="0"/>
    </comp>
    <comp name="--.HHE">
      <acc value="0.0153839055" flag="0"/>
      <vel value="0.0080856090" flag="0"/>
      <psa03 value="0.0512495288" flag="0"/>
      <psa10 value="0.0099659196" flag="0"/>
      <psa30 value="0.0012922451" flag="0"/>
    </comp>
  </station>
  <station code="LIT" name="LIT" netid="HT" insttype="100" lat="40.1033" lon="22.4892">
    <comp name="--.HHE">
      <acc value="0.0101986975" flag="0"/>
      <vel value="0.0031876896" flag="0"/>
      <psa03 value="0.0182065057" flag="0"/>
      <psa10 value="0.0023644699" flag="0"/>
      <psa30 value="0.0001791065" flag="0"/>
    </comp>
    <comp name="--.HHZ">
      <acc value="0.0047245509" flag="0"/>
      <vel value="0.0016420410" flag="0"/>
      <psa03 value="0.0102880129" flag="0"/>
      <psa10 value="0.0013808480" flag="0"/>
      <psa30 value="0.0001526082" flag="0"/>
    </comp>
    <comp name="--.HHN">
      <acc value="0.0120256128" flag="0"/>
      <vel value="0.0041661886" flag="0"/>
      <psa03 value="0.0216476199" flag="0"/>
      <psa10 value="0.0040411467" flag="0"/>
      <psa30 value="0.0002193721" flag="0"/>
    </comp>
  </station>
  <station code="NESN" name="NESN" netid="HT" insttype="1s-100Hz," lat="39.7267" lon="22.5399">
    <comp name="--.HHE">
      <acc value="0.0877815315" flag="0"/>
      <vel value="0.0302946672" flag="0"/>
      <psa03 value="0.1856852222" flag="0"/>
      <psa10 value="0.0422886500" flag="0"/>
      <psa30 value="0.0015328814" flag="0"/>
    </comp>
    <comp name="--.HHZ">
      <acc value="0.0603953343" flag="0"/>
      <vel value="0.0323154464" flag="0"/>
      <psa03 value="0.1921427640" flag="0"/>
      <psa10 value="0.0181830257" flag="0"/>
      <psa30 value="0.0010314699" flag="0"/>
    </comp>
    <comp name="--.HHN">
      <acc value="0.0703916472" flag="0"/>
      <vel value="0.0353431668" flag="0"/>
      <psa03 value="0.1611033126" flag="0"/>
      <psa10 value="0.0579639772" flag="0"/>
      <psa30 value="0.0021596308" flag="0"/>
    </comp>
  </station>
  <station code="OUR" name="OUR" netid="HT" insttype="100" lat="40.3325" lon="23.9791">
    <comp name="--.HHE">
      <acc value="0.0216727016" flag="0"/>
      <vel value="0.0109526513" flag="0"/>
      <psa03 value="0.0369519526" flag="0"/>
      <psa10 value="0.0108103408" flag="0"/>
      <psa30 value="0.0014983215" flag="0"/>
    </comp>
    <comp name="--.HHN">
      <acc value="0.0125375927" flag="0"/>
      <vel value="0.0107288628" flag="0"/>
      <psa03 value="0.0444591895" flag="0"/>
      <psa10 value="0.0195750917" flag="0"/>
      <psa30 value="0.0010288068" flag="0"/>
    </comp>
    <comp name="--.HHZ">
      <acc value="0.0086902055" flag="0"/>
      <vel value="0.0078704137" flag="0"/>
      <psa03 value="0.0245035013" flag="0"/>
      <psa10 value="0.0085243213" flag="0"/>
      <psa30 value="0.0009469033" flag="0"/>
    </comp>
  </station>
  <station code="PAIG" name="PAIG" netid="HT" insttype="100" lat="39.9363" lon="23.6768">
    <comp name="--.HHE">
      <acc value="0.0482287412" flag="0"/>
      <vel value="0.0247356507" flag="0"/>
      <psa03 value="0.0547845142" flag="0"/>
      <psa10 value="0.0095482892" flag="0"/>
      <psa30 value="0.0011138529" flag="0"/>
    </comp>
    <comp name="--.HHZ">
      <acc value="0.0342420479" flag="0"/>
      <vel value="0.0093105792" flag="0"/>
      <psa03 value="0.0326788119" flag="0"/>
      <psa10 value="0.0061245673" flag="0"/>
      <psa30 value="0.0013968356" flag="0"/>
    </comp>
    <comp name="--.HHN">
      <acc value="0.0279566020" flag="0"/>
      <vel value="0.0133916962" flag="0"/>
      <psa03 value="0.0413304022" flag="0"/>
      <psa10 value="0.0112500108" flag="0"/>
      <psa30 value="0.0014904174" flag="0"/>
    </comp>
  </station>
  <station code="TYRN" name="TYRN" netid="HT" insttype="120P," lat="39.711" lon="22.2325">
    <comp name="--.HHE">
      <acc value="0.0074019608" flag="0"/>
      <vel value="0.0041205260" flag="0"/>
      <psa03 value="0.0202097523" flag="0"/>
      <psa10 value="0.0046094313" flag="0"/>
      <psa30 value="0.0003842921" flag="0"/>
    </comp>
    <comp name="--.HHZ">
      <acc value="0.0078930844" flag="0"/>
      <vel value="0.0032584527" flag="0"/>
      <psa03 value="0.0172767950" flag="0"/>
      <psa10 value="0.0028034454" flag="0"/>
      <psa30 value="0.0002845616" flag="0"/>
    </comp>
    <comp name="--.HHN">
      <acc value="0.0072111966" flag="0"/>
      <vel value="0.0039396838" flag="0"/>
      <psa03 value="0.0166703156" flag="0"/>
      <psa10 value="0.0043471195" flag="0"/>
      <psa30 value="0.0004532926" flag="0"/>
    </comp>
  </station>
  <station code="XOR" name="XOR" netid="HT" insttype="Compact," lat="39.366" lon="23.1918">
    <comp name="--.HHE">
      <acc value="0.3131353599" flag="0"/>
      <vel value="0.1058656668" flag="0"/>
      <psa03 value="0.9035009449" flag="0"/>
      <psa10 value="0.0820235269" flag="0"/>
      <psa30 value="0.0055384196" flag="0"/>
    </comp>
    <comp name="--.HHN">
      <acc value="0.4368927575" flag="0"/>
      <vel value="0.1277850181" flag="0"/>
      <psa03 value="1.2402750509" flag="0"/>
      <psa10 value="0.0775410276" flag="0"/>
      <psa30 value="0.0062832528" flag="0"/>
    </comp>
    <comp name="--.HHZ">
      <acc value="0.2762597060" flag="0"/>
      <vel value="0.0882118341" flag="0"/>
      <psa03 value="0.5713637658" flag="0"/>
      <psa10 value="0.0473369221" flag="0"/>
      <psa30 value="0.0037819271" flag="0"/>
    </comp>
  </station>
</stationlist>
