<?xml version="1.0" encoding="UTF-8" standalone="yes"?>
<!DOCTYPE earthquake SYSTEM "stationlist.dtd">
<stationlist created="" xmlns="ch.ethz.sed.shakemap.usgs.xml">
  <station code="ARPRA" name="ARPRA" netid="KO" insttype="CMG-5T" lat="39.0929" lon="38.3356">
    <comp name="--.HNZ">
      <acc value="0.1207061298" flag="0"/>
      <vel value="0.0621150886" flag="0"/>
      <psa03 value="0.1783342540" flag="0"/>
      <psa10 value="0.0654247495" flag="0"/>
      <psa30 value="0.0046824662" flag="0"/>
    </comp>
    <comp name="--.HNN">
      <acc value="0.2825788679" flag="0"/>
      <vel value="0.1374175702" flag="0"/>
      <psa03 value="0.5027136925" flag="0"/>
      <psa10 value="0.1260192776" flag="0"/>
      <psa30 value="0.0078006638" flag="0"/>
    </comp>
    <comp name="--.HNE">
      <acc value="0.2853438319" flag="0"/>
      <vel value="0.1398319300" flag="0"/>
      <psa03 value="0.7788279298" flag="0"/>
      <psa10 value="0.1652871843" flag="0"/>
      <psa30 value="0.0082952707" flag="0"/>
    </comp>
  </station>
</stationlist>
