<?xml version="1.0" encoding="UTF-8" standalone="yes"?>
<!DOCTYPE earthquake SYSTEM "stationlist.dtd">
<stationlist created="" xmlns="ch.ethz.sed.shakemap.usgs.xml">
  <station code="ARPRA" name="ARPRA" netid="KO" insttype="CMG-5T" lat="39.0929" lon="38.3356">
    <comp name="--.HNN">
      <acc value="0.1179087812" flag="0"/>
      <vel value="0.0333125251" flag="0"/>
      <psa03 value="0.1374774079" flag="0"/>
      <psa10 value="0.0092071511" flag="0"/>
      <psa30 value="0.0007837111" flag="0"/>
    </comp>
    <comp name="--.HNE">
      <acc value="0.1033157319" flag="0"/>
      <vel value="0.0287222414" flag="0"/>
      <psa03 value="0.1864990815" flag="0"/>
      <psa10 value="0.0125657545" flag="0"/>
      <psa30 value="0.0009576649" flag="0"/>
    </comp>
    <comp name="--.HNZ">
      <acc value="0.0541223702" flag="0"/>
      <vel value="0.0130627724" flag="0"/>
      <psa03 value="0.0616082155" flag="0"/>
      <psa10 value="0.0059041333" flag="0"/>
      <psa30 value="0.0004757090" flag="0"/>
    </comp>
  </station>
  <station code="DARE" name="DARE" netid="KO" insttype="CMG-3ESP" lat="38.5712" lon="37.4832">
    <comp name="--.HHZ">
      <acc value="0.0295825670" flag="0"/>
      <vel value="0.0090607541" flag="0"/>
      <psa03 value="0.0455009336" flag="0"/>
      <psa10 value="0.0032270993" flag="0"/>
      <psa30 value="0.0003787076" flag="0"/>
    </comp>
    <comp name="--.HHN">
      <acc value="0.0515590898" flag="0"/>
      <vel value="0.0127313044" flag="0"/>
      <psa03 value="0.0450213763" flag="0"/>
      <psa10 value="0.0036551025" flag="0"/>
      <psa30 value="0.0003161638" flag="0"/>
    </comp>
    <comp name="--.HHE">
      <acc value="0.0549055983" flag="0"/>
      <vel value="0.0096401234" flag="0"/>
      <psa03 value="0.0379301679" flag="0"/>
      <psa10 value="0.0026894863" flag="0"/>
      <psa30 value="0.0002890564" flag="0"/>
    </comp>
  </station>
  <station code="SVRC" name="SVRC" netid="KO" insttype="CMG-3T" lat="38.3775" lon="39.306">
    <comp name="--.HHE">
      <acc value="0.0049540113" flag="0"/>
      <vel value="0.0024789065" flag="0"/>
      <psa03 value="0.0178447180" flag="0"/>
      <psa10 value="0.0014215703" flag="0"/>
      <psa30 value="0.0000946724" flag="0"/>
    </comp>
    <comp name="--.HHZ">
      <acc value="0.0043811079" flag="0"/>
      <vel value="0.0017096676" flag="0"/>
      <psa03 value="0.0100573903" flag="0"/>
      <psa10 value="0.0007545819" flag="0"/>
      <psa30 value="0.0000994712" flag="0"/>
    </comp>
    <comp name="--.HHN">
      <acc value="0.0046250262" flag="0"/>
      <vel value="0.0022831705" flag="0"/>
      <psa03 value="0.0135383528" flag="0"/>
      <psa10 value="0.0010233662" flag="0"/>
      <psa30 value="0.0001209664" flag="0"/>
    </comp>
  </station>
</stationlist>
