<?xml version="1.0" encoding="UTF-8" standalone="yes"?>
<!DOCTYPE earthquake SYSTEM "stationlist.dtd">
<stationlist created="" xmlns="ch.ethz.sed.shakemap.usgs.xml">
  <station code="BNN" name="BNN" netid="KO" insttype="CMG-3T" lat="38.8521" lon="35.8472">
    <comp name="--.HHE">
      <acc value="0.0090892343" flag="0"/>
      <vel value="0.0057715771" flag="0"/>
      <psa03 value="0.0221286716" flag="0"/>
      <psa10 value="0.0093300432" flag="0"/>
      <psa30 value="0.0004359836" flag="0"/>
    </comp>
    <comp name="--.HHZ">
      <acc value="0.0057434828" flag="0"/>
      <vel value="0.0030571711" flag="0"/>
      <psa03 value="0.0121785609" flag="0"/>
      <psa10 value="0.0028622758" flag="0"/>
      <psa30 value="0.0002051736" flag="0"/>
    </comp>
    <comp name="--.HHN">
      <acc value="0.0071195472" flag="0"/>
      <vel value="0.0049921992" flag="0"/>
      <psa03 value="0.0172855312" flag="0"/>
      <psa10 value="0.0086384175" flag="0"/>
      <psa30 value="0.0003495268" flag="0"/>
    </comp>
  </station>
  <station code="SARI" name="SARI" netid="KO" insttype="CMG-3T" lat="38.4072" lon="36.4181">
    <comp name="--.HHN">
      <acc value="0.0670805649" flag="0"/>
      <vel value="0.0238774426" flag="0"/>
      <psa03 value="0.1052179242" flag="0"/>
      <psa10 value="0.0100730222" flag="0"/>
      <psa30 value="0.0006047956" flag="0"/>
    </comp>
    <comp name="--.HHE">
      <acc value="0.0698551224" flag="0"/>
      <vel value="0.0216391195" flag="0"/>
      <psa03 value="0.1470153773" flag="0"/>
      <psa10 value="0.0089857326" flag="0"/>
      <psa30 value="0.0007223169" flag="0"/>
    </comp>
  </station>
</stationlist>
