<?xml version="1.0" encoding="UTF-8" standalone="yes"?>
<!DOCTYPE earthquake SYSTEM "stationlist.dtd">
<stationlist created="" xmlns="ch.ethz.sed.shakemap.usgs.xml">
  <station code="KRL1" name="KRL1" netid="HI" insttype="CMG-5TD,ACCELEROMETER,GURALP" lat="37.7951" lon="26.7065">
    <comp name="--.HNN">
      <acc value="0.3881568453" flag="0"/>
      <vel value="0.1861966813" flag="0"/>
      <psa03 value="0.4611392368" flag="0"/>
      <psa10 value="0.2265795908" flag="0"/>
      <psa30 value="0.0196146206" flag="0"/>
    </comp>
    <comp name="--.HNZ">
      <acc value="0.2744502787" flag="0"/>
      <vel value="0.0765580303" flag="0"/>
      <psa03 value="0.2172359966" flag="0"/>
      <psa10 value="0.1647750585" flag="0"/>
      <psa30 value="0.0065332284" flag="0"/>
    </comp>
    <comp name="--.HNE">
      <acc value="0.8385895527" flag="0"/>
      <vel value="0.3109540116" flag="0"/>
      <psa03 value="1.0749484263" flag="0"/>
      <psa10 value="0.2847134234" flag="0"/>
      <psa30 value="0.0113222905" flag="0"/>
    </comp>
  </station>
  <station code="EAG2" name="EAG2" netid="HL" insttype="SMART24" lat="38.5438" lon="26.1079">
    <comp name="--.HHE">
      <acc value="0.4299111618" flag="0"/>
      <vel value="0.2217579157" flag="0"/>
      <psa03 value="1.3720787890" flag="0"/>
      <psa10 value="0.1152475991" flag="0"/>
      <psa30 value="0.0083109046" flag="0"/>
    </comp>
    <comp name="--.HHN">
      <acc value="0.3364033367" flag="0"/>
      <vel value="0.2187715772" flag="0"/>
      <psa03 value="0.9731865490" flag="0"/>
      <psa10 value="0.1553378026" flag="0"/>
      <psa30 value="0.0075759690" flag="0"/>
    </comp>
    <comp name="--.HHZ">
      <acc value="0.1454528861" flag="0"/>
      <vel value="0.0598516005" flag="0"/>
      <psa03 value="0.2495052923" flag="0"/>
      <psa10 value="0.0808710828" flag="0"/>
      <psa30 value="0.0057013636" flag="0"/>
    </comp>
  </station>
  <station code="KLNA" name="KLNA" netid="HL" insttype="CMG-5" lat="36.9571" lon="26.9727">
    <comp name="00.HNE">
      <acc value="0.0938191820" flag="0"/>
      <vel value="0.0435813163" flag="0"/>
      <psa03 value="0.3642644256" flag="0"/>
      <psa10 value="0.0398756040" flag="0"/>
      <psa30 value="0.0022412944" flag="0"/>
    </comp>
    <comp name="00.HNZ">
      <acc value="0.1028609531" flag="0"/>
      <vel value="0.0391748288" flag="0"/>
      <psa03 value="0.1148307223" flag="0"/>
      <psa10 value="0.0241543390" flag="0"/>
      <psa30 value="0.0022836962" flag="0"/>
    </comp>
    <comp name="00.HNN">
      <acc value="0.0882195519" flag="0"/>
      <vel value="0.0477931615" flag="0"/>
      <psa03 value="0.2532947167" flag="0"/>
      <psa10 value="0.0310197695" flag="0"/>
      <psa30 value="0.0032530739" flag="0"/>
    </comp>
  </station>
  <station code="SMG" name="SMG" netid="HL" insttype="120" lat="37.7043" lon="26.8377">
    <comp name="--.HHE">
      <acc value="0.6268277546" flag="0"/>
      <vel value="0.2088784319" flag="0"/>
      <psa03 value="0.7941081820" flag="0"/>
      <psa10 value="0.2499675298" flag="0"/>
      <psa30 value="0.0189541511" flag="0"/>
    </comp>
    <comp name="--.HHN">
      <acc value="0.9292263358" flag="0"/>
      <vel value="0.3953013184" flag="0"/>
      <psa03 value="1.3413816490" flag="0"/>
      <psa10 value="0.4054286336" flag="0"/>
      <psa30 value="0.0295193082" flag="0"/>
    </comp>
    <comp name="--.HHZ">
      <acc value="0.4628968145" flag="0"/>
      <vel value="0.1371264802" flag="0"/>
      <psa03 value="0.5087954372" flag="0"/>
      <psa10 value="0.1569203937" flag="0"/>
      <psa30 value="0.0124675884" flag="0"/>
    </comp>
  </station>
  <station code="CHOS" name="CHOS" netid="HT" insttype="100" lat="38.3869" lon="26.0506">
    <comp name="--.HHZ">
      <acc value="0.0342428812" flag="0"/>
      <vel value="0.0177955854" flag="0"/>
      <psa03 value="0.0520941468" flag="0"/>
      <psa10 value="0.0118624841" flag="0"/>
      <psa30 value="0.0019191215" flag="0"/>
    </comp>
    <comp name="--.HHE">
      <acc value="0.0977675215" flag="0"/>
      <vel value="0.0301743733" flag="0"/>
      <psa03 value="0.1051707558" flag="0"/>
      <psa10 value="0.0279709634" flag="0"/>
      <psa30 value="0.0018297585" flag="0"/>
    </comp>
    <comp name="--.HHN">
      <acc value="0.0608272117" flag="0"/>
      <vel value="0.0243390960" flag="0"/>
      <psa03 value="0.1164539809" flag="0"/>
      <psa10 value="0.0293310761" flag="0"/>
      <psa30 value="0.0022407329" flag="0"/>
    </comp>
  </station>
  <station code="CESE" name="CESE" netid="KO" insttype="100" lat="38.3306" lon="26.2997">
    <comp name="--.HNE">
      <acc value="0.0041049772" flag="0"/>
      <vel value="0.0019030384" flag="0"/>
      <psa03 value="0.0067341646" flag="0"/>
      <psa10 value="0.0015643773" flag="0"/>
      <psa30 value="0.0001660918" flag="0"/>
    </comp>
    <comp name="--.HNN">
      <acc value="0.0060529639" flag="0"/>
      <vel value="0.0031896712" flag="0"/>
      <psa03 value="0.0166885542" flag="0"/>
      <psa10 value="0.0040007405" flag="0"/>
      <psa30 value="0.0004220916" flag="0"/>
    </comp>
    <comp name="--.HNZ">
      <acc value="0.0041489412" flag="0"/>
      <vel value="0.0021141281" flag="0"/>
      <psa03 value="0.0075572495" flag="0"/>
      <psa10 value="0.0024616327" flag="0"/>
      <psa30 value="0.0001921664" flag="0"/>
    </comp>
  </station>
  <station code="GMLD" name="GMLD" netid="KO" insttype="100" lat="38.0764" lon="26.8747">
    <comp name="--.HNE">
      <acc value="0.7189973174" flag="0"/>
      <vel value="0.3024494554" flag="0"/>
      <psa03 value="1.1775655243" flag="0"/>
      <psa10 value="0.1681159866" flag="0"/>
      <psa30 value="0.0089482380" flag="0"/>
    </comp>
    <comp name="--.HNZ">
      <acc value="0.4944150991" flag="0"/>
      <vel value="0.1363828116" flag="0"/>
      <psa03 value="0.6496618762" flag="0"/>
      <psa10 value="0.0514037860" flag="0"/>
      <psa30 value="0.0045074425" flag="0"/>
    </comp>
    <comp name="--.HNN">
      <acc value="0.6327561420" flag="0"/>
      <vel value="0.2098567348" flag="0"/>
      <psa03 value="1.2551788422" flag="0"/>
      <psa10 value="0.1202779745" flag="0"/>
      <psa30 value="0.0092660822" flag="0"/>
    </comp>
  </station>
  <station code="KRBN" name="KRBN" netid="KO" insttype="100" lat="38.5936" lon="26.5537">
    <comp name="--.HNN">
      <acc value="0.1073659164" flag="0"/>
      <vel value="0.0587306716" flag="0"/>
      <psa03 value="0.0869987485" flag="0"/>
      <psa10 value="0.1053614431" flag="0"/>
      <psa30 value="0.0067794540" flag="0"/>
    </comp>
    <comp name="--.HNE">
      <acc value="0.1031481309" flag="0"/>
      <vel value="0.0444075074" flag="0"/>
      <psa03 value="0.1406974058" flag="0"/>
      <psa10 value="0.0669031401" flag="0"/>
      <psa30 value="0.0045208106" flag="0"/>
    </comp>
    <comp name="--.HNZ">
      <acc value="0.0444205926" flag="0"/>
      <vel value="0.0198275077" flag="0"/>
      <psa03 value="0.0635075380" flag="0"/>
      <psa10 value="0.0212019234" flag="0"/>
      <psa30 value="0.0020877264" flag="0"/>
    </comp>
  </station>
  <station code="KUSD" name="KUSD" netid="KO" insttype="100" lat="37.86" lon="27.2815">
    <comp name="--.HNE">
      <acc value="0.1660479742" flag="0"/>
      <vel value="0.0706462655" flag="0"/>
      <psa03 value="0.2949648032" flag="0"/>
      <psa10 value="0.0452513944" flag="0"/>
      <psa30 value="0.0039456686" flag="0"/>
    </comp>
    <comp name="--.HNN">
      <acc value="0.2430663448" flag="0"/>
      <vel value="0.0944218887" flag="0"/>
      <psa03 value="0.4572327907" flag="0"/>
      <psa10 value="0.0601419256" flag="0"/>
      <psa30 value="0.0054008519" flag="0"/>
    </comp>
    <comp name="--.HNZ">
      <acc value="0.1349792786" flag="0"/>
      <vel value="0.0486154853" flag="0"/>
      <psa03 value="0.2910974958" flag="0"/>
      <psa10 value="0.0227678169" flag="0"/>
      <psa30 value="0.0016204893" flag="0"/>
    </comp>
  </station>
  <station code="YKAV" name="YKAV" netid="KO" insttype="100" lat="37.1246" lon="27.2801">
    <comp name="--.HNZ">
      <acc value="0.0045692115" flag="0"/>
      <vel value="0.0057445021" flag="0"/>
      <psa03 value="0.0080473031" flag="0"/>
      <psa10 value="0.0068417501" flag="0"/>
      <psa30 value="0.0007371786" flag="0"/>
    </comp>
    <comp name="--.HNN">
      <acc value="0.0121181981" flag="0"/>
      <vel value="0.0081005273" flag="0"/>
      <psa03 value="0.0151147513" flag="0"/>
      <psa10 value="0.0122227684" flag="0"/>
      <psa30 value="0.0007407193" flag="0"/>
    </comp>
    <comp name="--.HNE">
      <acc value="0.0091710955" flag="0"/>
      <vel value="0.0062309128" flag="0"/>
      <psa03 value="0.0118061366" flag="0"/>
      <psa10 value="0.0101336428" flag="0"/>
      <psa30 value="0.0008680194" flag="0"/>
    </comp>
  </station>
  <station code="AYDN" name="AYDN" netid="TU" source="ODC" insttype="T" lat="37.6608" lon="27.8792">
    <comp name="--.HHN">
      <acc value="0.1586128938" flag="0"/>
      <vel value="0.0956028217" flag="0"/>
      <psa03 value="0.4785592827" flag="0"/>
      <psa10 value="0.0728640623" flag="0"/>
      <psa30 value="0.0064297325" flag="0"/>
    </comp>
    <comp name="--.HHE">
      <acc value="0.2639715107" flag="0"/>
      <vel value="0.1109834936" flag="0"/>
      <psa03 value="0.5943164248" flag="0"/>
      <psa10 value="0.0742194860" flag="0"/>
      <psa30 value="0.0046320794" flag="0"/>
    </comp>
    <comp name="--.HHZ">
      <acc value="0.0879616271" flag="0"/>
      <vel value="0.0672523947" flag="0"/>
      <psa03 value="0.1895413706" flag="0"/>
      <psa10 value="0.0625974540" flag="0"/>
      <psa30 value="0.0072922435" flag="0"/>
    </comp>
  </station>
</stationlist>
