<stationlist created="1778069694">
	<station code="KARP" name="KARP" netid="GE" source="GEOFON" insttype="" lat="35.5471" lon="27.16106">
		<comp name="--.HNE" depth="0.0">
			<acc value="0.353469676783697" flag="0"/>
			<vel value="0.0809561475257214" flag="0"/>
			<psa03 value="0.425901064799329" flag="0"/>
			<psa10 value="0.0382747206516006" flag="0"/>
			<psa30 value="0.00553058416008457" flag="0"/>
		</comp>
		<comp name="--.HNN" depth="0.0">
			<acc value="0.240205466628928" flag="0"/>
			<vel value="0.107641884978338" flag="0"/>
			<psa03 value="0.338698504100317" flag="0"/>
			<psa10 value="0.0579456317913237" flag="0"/>
			<psa30 value="0.00559993458034289" flag="0"/>
		</comp>
		<comp name="--.HNZ" depth="0.0">
			<acc value="0.179295569291699" flag="0"/>
			<vel value="0.0701750164418831" flag="0"/>
			<psa03 value="0.246082136400495" flag="0"/>
			<psa10 value="0.0192642044815631" flag="0"/>
			<psa30 value="0.00361964451541818" flag="0"/>
		</comp>
	</station>
	<station code="KSS1" name="KSS1" netid="HI" source="ITSAK Strong Motion Network" insttype="" lat="35.4189" lon="26.9207">
		<comp name="--.HNE" depth="0.0">
			<acc value="0.584450672732847" flag="0"/>
			<vel value="0.137137081702178" flag="0"/>
			<psa03 value="0.529210819880918" flag="0"/>
			<psa10 value="0.0885855423055824" flag="0"/>
			<psa30 value="0.0130275883010422" flag="0"/>
		</comp>
		<comp name="--.HNN" depth="0.0">
			<acc value="0.722577886054566" flag="0"/>
			<vel value="0.214589841466389" flag="0"/>
			<psa03 value="0.781198927555025" flag="0"/>
			<psa10 value="0.113785247917125" flag="0"/>
			<psa30 value="0.021188566788215" flag="0"/>
		</comp>
		<comp name="--.HNZ" depth="0.0">
			<acc value="0.590038040556218" flag="0"/>
			<vel value="0.106124116399757" flag="0"/>
			<psa03 value="0.292211351423933" flag="0"/>
			<psa10 value="0.0607482836138923" flag="0"/>
			<psa30 value="0.0138911128887748" flag="0"/>
		</comp>
	</station>
	<station code="NAX1" name="NAX1" netid="HI" source="ITSAK Strong Motion Network" insttype="" lat="37.101394" lon="25.374103">
		<comp name="--.HNE" depth="0.0">
			<acc value="0.00459366487134154" flag="0"/>
			<vel value="0.0037608273626916" flag="0"/>
			<psa03 value="0.0159020195765664" flag="0"/>
			<psa10 value="0.00327165719998436" flag="0"/>
			<psa30 value="0.000892727055451057" flag="0"/>
		</comp>
		<comp name="--.HNN" depth="0.0">
			<acc value="0.00437089493969982" flag="0"/>
			<vel value="0.00303379184239202" flag="0"/>
			<psa03 value="0.00994449145603584" flag="0"/>
			<psa10 value="0.00431209002980099" flag="0"/>
			<psa30 value="0.000533866616041228" flag="0"/>
		</comp>
		<comp name="--.HNZ" depth="0.0">
			<acc value="0.00255040837813488" flag="0"/>
			<vel value="0.00284131293904428" flag="0"/>
			<psa03 value="0.00667420059657326" flag="0"/>
			<psa10 value="0.00355150566044368" flag="0"/>
			<psa30 value="0.000735608834640603" flag="0"/>
		</comp>
	</station>
	<station code="SIT2" name="SIT2" netid="HI" source="ITSAK Strong Motion Network" insttype="" lat="35.2059" lon="26.107">
		<comp name="--.HNE" depth="0.0">
			<acc value="0.190237789039743" flag="0"/>
			<vel value="0.123656755152483" flag="0"/>
			<psa03 value="0.738693831267667" flag="0"/>
			<psa10 value="0.101588074970918" flag="0"/>
			<psa30 value="0.00632386348342653" flag="0"/>
		</comp>
		<comp name="--.HNN" depth="0.0">
			<acc value="0.20504442933349" flag="0"/>
			<vel value="0.109928381714627" flag="0"/>
			<psa03 value="0.86960952783273" flag="0"/>
			<psa10 value="0.118887201737807" flag="0"/>
			<psa30 value="0.00767686781156307" flag="0"/>
		</comp>
		<comp name="--.HNZ" depth="0.0">
			<acc value="0.166665845075105" flag="0"/>
			<vel value="0.0521854989672801" flag="0"/>
			<psa03 value="0.297132994151943" flag="0"/>
			<psa10 value="0.0296332108653476" flag="0"/>
			<psa30 value="0.0033525335419071" flag="0"/>
		</comp>
	</station>
	<station code="AGNA" name="AGNA" netid="HL" source="National Observatory of Athens Seismic Network" insttype="" lat="35.1895" lon="25.71853">
		<comp name="00.HNE" depth="0.0">
			<acc value="0.0356929974438987" flag="0"/>
			<vel value="0.0176130816243738" flag="0"/>
			<psa03 value="0.0962224992684039" flag="0"/>
			<psa10 value="0.0270130319807951" flag="0"/>
			<psa30 value="0.00246233999293961" flag="0"/>
		</comp>
		<comp name="00.HNN" depth="0.0">
			<acc value="0.0496377048919453" flag="0"/>
			<vel value="0.0277761558261613" flag="0"/>
			<psa03 value="0.128894236527404" flag="0"/>
			<psa10 value="0.0433264139123228" flag="0"/>
			<psa30 value="0.00538483713570849" flag="0"/>
		</comp>
		<comp name="00.HNZ" depth="0.0">
			<acc value="0.0249569587370337" flag="0"/>
			<vel value="0.0119433381269073" flag="0"/>
			<psa03 value="0.0505303890567328" flag="0"/>
			<psa10 value="0.0144655632725779" flag="0"/>
			<psa30 value="0.00192078995123949" flag="0"/>
		</comp>
	</station>
	<station code="HERG" name="HERG" netid="HL" source="National Observatory of Athens Seismic Network" insttype="" lat="35.32622" lon="25.06586">
		<comp name="00.HNE" depth="0.0">
			<acc value="0.0290813410117366" flag="0"/>
			<vel value="0.0318276002581021" flag="0"/>
			<psa03 value="0.0922377040451542" flag="0"/>
			<psa10 value="0.0657919358929806" flag="0"/>
			<psa30 value="0.00417102422654994" flag="0"/>
		</comp>
		<comp name="00.HNN" depth="0.0">
			<acc value="0.0346105814023898" flag="0"/>
			<vel value="0.0331745809054038" flag="0"/>
			<psa03 value="0.123528849846842" flag="0"/>
			<psa10 value="0.0555409280637314" flag="0"/>
			<psa30 value="0.00553670719633916" flag="0"/>
		</comp>
		<comp name="00.HNZ" depth="0.0">
			<acc value="0.0299797272944632" flag="0"/>
			<vel value="0.0240510778100596" flag="0"/>
			<psa03 value="0.0593467543479367" flag="0"/>
			<psa10 value="0.0295720083754425" flag="0"/>
			<psa30 value="0.00211117673009738" flag="0"/>
		</comp>
	</station>
	<station code="KARP" name="KARP" netid="HL" source="National Observatory of Athens Seismic Network" insttype="" lat="35.5471" lon="27.16106">
		<comp name="--.HNE" depth="0.0">
			<acc value="0.355839116794737" flag="0"/>
			<vel value="0.081142183650151" flag="0"/>
			<psa03 value="0.417265818922002" flag="0"/>
			<psa10 value="0.0374975485226412" flag="0"/>
			<psa30 value="0.00541828122147271" flag="0"/>
		</comp>
		<comp name="--.HNN" depth="0.0">
			<acc value="0.240917746240399" flag="0"/>
			<vel value="0.105229806947423" flag="0"/>
			<psa03 value="0.331852946487722" flag="0"/>
			<psa10 value="0.0567657798027999" flag="0"/>
			<psa30 value="0.0054858419534663" flag="0"/>
		</comp>
		<comp name="--.HNZ" depth="0.0">
			<acc value="0.182920254893817" flag="0"/>
			<vel value="0.0688287588635075" flag="0"/>
			<psa03 value="0.241071009259248" flag="0"/>
			<psa10 value="0.0188736050177856" flag="0"/>
			<psa30 value="0.00354626729656422" flag="0"/>
		</comp>
	</station>
	<station code="KLNA" name="KLNA" netid="HL" source="National Observatory of Athens Seismic Network" insttype="" lat="36.95708" lon="26.97274">
		<comp name="00.HNE" depth="0.0">
			<acc value="0.00963639467160916" flag="0"/>
			<vel value="0.00529875156373765" flag="0"/>
			<psa03 value="0.0267558395577265" flag="0"/>
			<psa10 value="0.00427646010857441" flag="0"/>
			<psa30 value="0.000878736937982857" flag="0"/>
		</comp>
		<comp name="00.HNN" depth="0.0">
			<acc value="0.0093671102515509" flag="0"/>
			<vel value="0.00378418564778869" flag="0"/>
			<psa03 value="0.0228185253753186" flag="0"/>
			<psa10 value="0.00389391424198819" flag="0"/>
			<psa30 value="0.000691714514318481" flag="0"/>
		</comp>
		<comp name="00.HNZ" depth="0.0">
			<acc value="0.00956065747143145" flag="0"/>
			<vel value="0.00271389270322785" flag="0"/>
			<psa03 value="0.0130647243325354" flag="0"/>
			<psa10 value="0.00165904102140552" flag="0"/>
			<psa30 value="0.000546749764875281" flag="0"/>
		</comp>
	</station>
	<station code="SIVA" name="SIVA" netid="HL" source="National Observatory of Athens Seismic Network" insttype="" lat="35.01777" lon="24.81204">
		<comp name="00.HNE" depth="0.0">
			<acc value="0.0130344890086629" flag="0"/>
			<vel value="0.0109549873772348" flag="0"/>
			<psa03 value="0.0279191369298016" flag="0"/>
			<psa10 value="0.0174682523079057" flag="0"/>
			<psa30 value="0.00192749426111515" flag="0"/>
		</comp>
		<comp name="00.HNN" depth="0.0">
			<acc value="0.0114400508496492" flag="0"/>
			<vel value="0.00983148007882035" flag="0"/>
			<psa03 value="0.0417892209814658" flag="0"/>
			<psa10 value="0.0203675472967697" flag="0"/>
			<psa30 value="0.00196507771467449" flag="0"/>
		</comp>
		<comp name="00.HNZ" depth="0.0">
			<acc value="0.00653582882327471" flag="0"/>
			<vel value="0.00478690927473149" flag="0"/>
			<psa03 value="0.0187917267796741" flag="0"/>
			<psa10 value="0.00955961986605994" flag="0"/>
			<psa30 value="0.00135166206193799" flag="0"/>
		</comp>
	</station>
	<station code="DIDI" name="DIDI" netid="KO" source="Bogazici University Kandilli Observatory And Earthquake Research Institute (KOERI)" insttype="" lat="37.3767" lon="27.2398">
		<comp name="--.HNE" depth="0.0">
			<acc value="0.0727818513782632" flag="0"/>
			<vel value="0.00929352468637477" flag="0"/>
			<psa03 value="0.0132736553561871" flag="0"/>
			<psa10 value="0.00673862686971672" flag="0"/>
			<psa30 value="0.00344112795784056" flag="0"/>
		</comp>
		<comp name="--.HNN" depth="0.0">
			<acc value="0.0661338958775285" flag="0"/>
			<vel value="0.0064218705671241" flag="0"/>
			<psa03 value="0.02338815351704" flag="0"/>
			<psa10 value="0.00598536228213537" flag="0"/>
			<psa30 value="0.00179345734941548" flag="0"/>
		</comp>
		<comp name="--.HNZ" depth="0.0">
			<acc value="0.124988015157253" flag="0"/>
			<vel value="0.0196543085414344" flag="0"/>
			<psa03 value="0.0297926793479501" flag="0"/>
			<psa10 value="0.00417684388290349" flag="0"/>
			<psa30 value="0.000627033152450325" flag="0"/>
		</comp>
	</station>
</stationlist>
