<?xml version="1.0" encoding="UTF-8" standalone="yes"?>
<!DOCTYPE earthquake SYSTEM "stationlist.dtd">
<stationlist created="" xmlns="ch.ethz.sed.shakemap.usgs.xml">
  <station code="KARP" name="KARP" netid="GE" insttype="STS-2/N" lat="35.5471" lon="27.1611">
    <comp name="--.HHE">
      <acc value="0.3952515157" flag="0"/>
      <vel value="0.0995909223" flag="0"/>
      <psa03 value="0.4722021691" flag="0"/>
      <psa10 value="0.0457228044" flag="0"/>
      <psa30 value="0.0059913513" flag="0"/>
    </comp>
    <comp name="--.HHN">
      <acc value="0.3576687019" flag="0"/>
      <vel value="0.1175559663" flag="0"/>
      <psa03 value="0.3977163378" flag="0"/>
      <psa10 value="0.0679312893" flag="0"/>
      <psa30 value="0.0056954030" flag="0"/>
    </comp>
    <comp name="--.HHZ">
      <acc value="0.2585728010" flag="0"/>
      <vel value="0.0815867887" flag="0"/>
      <psa03 value="0.3014230755" flag="0"/>
      <psa10 value="0.0238146407" flag="0"/>
      <psa30 value="0.0043279556" flag="0"/>
    </comp>
  </station>
  <station code="SIT2" name="SIT2" netid="HI" insttype="CMG-5TD,ACCELEROMETER,GURALP" lat="35.2059" lon="26.107">
    <comp name="--.HNN">
      <acc value="0.2040679178" flag="0"/>
      <vel value="0.1102990294" flag="0"/>
      <psa03 value="0.8831610362" flag="0"/>
      <psa10 value="0.1184318157" flag="0"/>
      <psa30 value="0.0062561872" flag="0"/>
    </comp>
    <comp name="--.HNZ">
      <acc value="0.1685542445" flag="0"/>
      <vel value="0.0512647869" flag="0"/>
      <psa03 value="0.2999457441" flag="0"/>
      <psa10 value="0.0293048920" flag="0"/>
      <psa30 value="0.0027772769" flag="0"/>
    </comp>
    <comp name="--.HNE">
      <acc value="0.1904182978" flag="0"/>
      <vel value="0.1232578516" flag="0"/>
      <psa03 value="0.7386660758" flag="0"/>
      <psa10 value="0.1013779584" flag="0"/>
      <psa30 value="0.0060096830" flag="0"/>
    </comp>
  </station>
  <station code="KARP" name="KARP" netid="HL" insttype="120" lat="35.5471" lon="27.1611">
    <comp name="--.HHN">
      <acc value="0.3154040182" flag="0"/>
      <vel value="0.1134963023" flag="0"/>
      <psa03 value="0.3878158428" flag="0"/>
      <psa10 value="0.0670711406" flag="0"/>
      <psa30 value="0.0056554228" flag="0"/>
    </comp>
    <comp name="--.HHZ">
      <acc value="0.2288878346" flag="0"/>
      <vel value="0.0789770462" flag="0"/>
      <psa03 value="0.2944920558" flag="0"/>
      <psa10 value="0.0235546656" flag="0"/>
      <psa30 value="0.0043149955" flag="0"/>
    </comp>
  </station>
  <station code="NPS" name="NPS" netid="HL" insttype="CMG3ESPC-120s" lat="35.2613" lon="25.6104">
    <comp name="--.HHZ">
      <acc value="0.0566641706" flag="0"/>
      <vel value="0.0165207079" flag="0"/>
      <psa03 value="0.0584518269" flag="0"/>
      <psa10 value="0.0117251119" flag="0"/>
      <psa30 value="0.0024961603" flag="0"/>
    </comp>
    <comp name="--.HHE">
      <acc value="0.0225567535" flag="0"/>
      <vel value="0.0090982566" flag="0"/>
      <psa03 value="0.0411084000" flag="0"/>
      <psa10 value="0.0131553390" flag="0"/>
      <psa30 value="0.0007782847" flag="0"/>
    </comp>
    <comp name="--.HHN">
      <acc value="0.0489310117" flag="0"/>
      <vel value="0.0194923026" flag="0"/>
      <psa03 value="0.0824195836" flag="0"/>
      <psa10 value="0.0253877785" flag="0"/>
      <psa30 value="0.0022315298" flag="0"/>
    </comp>
  </station>
  <station code="ZKR" name="ZKR" netid="HL" insttype="120" lat="35.1147" lon="26.2169">
    <comp name="--.HHE">
      <acc value="0.2375303406" flag="0"/>
      <vel value="0.0853011859" flag="0"/>
      <psa03 value="0.3695599144" flag="0"/>
      <psa10 value="0.0587925770" flag="0"/>
      <psa30 value="0.0040329145" flag="0"/>
    </comp>
    <comp name="--.HHZ">
      <acc value="0.0709248161" flag="0"/>
      <vel value="0.0408043030" flag="0"/>
      <psa03 value="0.1331374882" flag="0"/>
      <psa10 value="0.0619109214" flag="0"/>
      <psa30 value="0.0023536229" flag="0"/>
    </comp>
  </station>
</stationlist>
