<stationlist created="1778136059">
	<station code="BLY" name="BLY" netid="MN" source="Mediterranean Very Broadband Seismographic Network (MedNet)" insttype="" lat="44.7488" lon="17.1839">
		<comp name="--.HNE" depth="1.0">
			<acc value="0.013187212710458" flag="0"/>
			<vel value="0.00543740546004422" flag="0"/>
			<psa03 value="0.0419234476013206" flag="0"/>
			<psa10 value="0.00374492269394935" flag="0"/>
			<psa30 value="0.000214315169701522" flag="0"/>
		</comp>
		<comp name="--.HNN" depth="1.0">
			<acc value="0.0125141906608021" flag="0"/>
			<vel value="0.00464408101024249" flag="0"/>
			<psa03 value="0.0263084174915438" flag="0"/>
			<psa10 value="0.00330197484842846" flag="0"/>
			<psa30 value="0.000193286332590934" flag="0"/>
		</comp>
		<comp name="--.HNZ" depth="1.0">
			<acc value="0.00817854708809736" flag="0"/>
			<vel value="0.00355207757725719" flag="0"/>
			<psa03 value="0.0253688311525601" flag="0"/>
			<psa10 value="0.0023999719630041" flag="0"/>
			<psa30 value="0.000181653358870183" flag="0"/>
		</comp>
	</station>
	<station code="BOJS" name="BOJS" netid="SL" source="Seismic Network of the Republic of Slovenia (SNRS)" insttype="" lat="45.5043" lon="15.2518">
		<comp name="--.HNE" depth="0.0">
			<acc value="0.0556601835707673" flag="0"/>
			<vel value="0.0109095093690874" flag="0"/>
			<psa03 value="0.0486795208006797" flag="0"/>
			<psa10 value="0.00493282827966446" flag="0"/>
			<psa30 value="0.000301115050540969" flag="0"/>
		</comp>
		<comp name="--.HNN" depth="0.0">
			<acc value="0.038838468852" flag="0"/>
			<vel value="0.0123828325915624" flag="0"/>
			<psa03 value="0.08232566017762" flag="0"/>
			<psa10 value="0.0056697324226674" flag="0"/>
			<psa30 value="0.000422813852542668" flag="0"/>
		</comp>
		<comp name="--.HNZ" depth="0.0">
			<acc value="0.0316085510174915" flag="0"/>
			<vel value="0.0089487827054515" flag="0"/>
			<psa03 value="0.0468450903293305" flag="0"/>
			<psa10 value="0.00425632611559619" flag="0"/>
			<psa30 value="0.000308273803599892" flag="0"/>
		</comp>
	</station>
	<station code="CADS" name="CADS" netid="SL" source="Seismic Network of the Republic of Slovenia (SNRS)" insttype="" lat="46.2281" lon="13.7368">
		<comp name="--.HNE" depth="0.0">
			<acc value="0.00646992798271489" flag="0"/>
			<vel value="0.00346719459365426" flag="0"/>
			<psa03 value="0.0227737831687003" flag="0"/>
			<psa10 value="0.00208588167254383" flag="0"/>
			<psa30 value="0.000162861632090509" flag="0"/>
		</comp>
		<comp name="--.HNN" depth="0.0">
			<acc value="0.00593451060538193" flag="0"/>
			<vel value="0.00306863219046119" flag="0"/>
			<psa03 value="0.0175836872009808" flag="0"/>
			<psa10 value="0.00165904102140552" flag="0"/>
			<psa30 value="0.000163756476222875" flag="0"/>
		</comp>
		<comp name="--.HNZ" depth="0.0">
			<acc value="0.00376677643710458" flag="0"/>
			<vel value="0.00175814129428973" flag="0"/>
			<psa03 value="0.0127515288862075" flag="0"/>
			<psa10 value="0.00139729911268863" flag="0"/>
			<psa30 value="0.0001087235620824" flag="0"/>
		</comp>
	</station>
	<station code="CEY" name="CEY" netid="SL" source="Seismic Network of the Republic of Slovenia (SNRS)" insttype="" lat="45.7381" lon="14.4221">
		<comp name="--.HNE" depth="0.0">
			<acc value="0.0122000525037866" flag="0"/>
			<vel value="0.00397267641571744" flag="0"/>
			<psa03 value="0.0165098742421423" flag="0"/>
			<psa10 value="0.00260533869138196" flag="0"/>
			<psa30 value="0.000211183215238243" flag="0"/>
		</comp>
		<comp name="--.HNN" depth="0.0">
			<acc value="0.013654765320776" flag="0"/>
			<vel value="0.00564367056874963" flag="0"/>
			<psa03 value="0.0310958335996989" flag="0"/>
			<psa10 value="0.00371673510377983" flag="0"/>
			<psa30 value="0.000322143887651557" flag="0"/>
		</comp>
		<comp name="--.HNZ" depth="0.0">
			<acc value="0.00831551635831841" flag="0"/>
			<vel value="0.00349121720825021" flag="0"/>
			<psa03 value="0.0253688311525601" flag="0"/>
			<psa10 value="0.00339056441753263" flag="0"/>
			<psa30 value="0.000253688311525601" flag="0"/>
		</comp>
	</station>
	<station code="CRES" name="CRES" netid="SL" source="Seismic Network of the Republic of Slovenia (SNRS)" insttype="" lat="45.826" lon="15.4569">
		<comp name="--.HNE" depth="0.0">
			<acc value="0.0555073255966061" flag="0"/>
			<vel value="0.0103064784962657" flag="0"/>
			<psa03 value="0.0721244370686541" flag="0"/>
			<psa10 value="0.00260533869138196" flag="0"/>
			<psa30 value="0.000248319246731408" flag="0"/>
		</comp>
		<comp name="--.HNN" depth="0.0">
			<acc value="0.0482874324029465" flag="0"/>
			<vel value="0.0116641893171551" flag="0"/>
			<psa03 value="0.0981644013204882" flag="0"/>
			<psa10 value="0.00400666460266624" flag="0"/>
			<psa30 value="0.000337803659967952" flag="0"/>
		</comp>
		<comp name="--.HNZ" depth="0.0">
			<acc value="0.0490875195251414" flag="0"/>
			<vel value="0.0110235333067754" flag="0"/>
			<psa03 value="0.0349884055754885" flag="0"/>
			<psa10 value="0.0023274895882825" flag="0"/>
			<psa30 value="0.000177626560274539" flag="0"/>
		</comp>
	</station>
	<station code="CRNS" name="CRNS" netid="SL" source="Seismic Network of the Republic of Slovenia (SNRS)" insttype="" lat="46.0807" lon="14.2613">
		<comp name="--.HNE" depth="0.0">
			<acc value="0.0150903783802879" flag="0"/>
			<vel value="0.00770072018215229" flag="0"/>
			<psa03 value="0.0543170388345819" flag="0"/>
			<psa10 value="0.00439726406644375" flag="0"/>
			<psa30 value="0.000277849103099468" flag="0"/>
		</comp>
		<comp name="--.HNN" depth="0.0">
			<acc value="0.0137336972197274" flag="0"/>
			<vel value="0.00482815367811909" flag="0"/>
			<psa03 value="0.0323038731783922" flag="0"/>
			<psa10 value="0.00273016944784694" flag="0"/>
			<psa30 value="0.000249661512929956" flag="0"/>
		</comp>
		<comp name="--.HNZ" depth="0.0">
			<acc value="0.00623256115460687" flag="0"/>
			<vel value="0.00235459139499866" flag="0"/>
			<psa03 value="0.0151676080435941" flag="0"/>
			<psa10 value="0.00198923850624836" flag="0"/>
			<psa30 value="0.000157939989362499" flag="0"/>
		</comp>
	</station>
	<station code="DOBS" name="DOBS" netid="SL" source="Seismic Network of the Republic of Slovenia (SNRS)" insttype="" lat="46.1495" lon="15.4695">
		<comp name="--.HNE" depth="0.0">
			<acc value="0.0223604553536043" flag="0"/>
			<vel value="0.00604833206455089" flag="0"/>
			<psa03 value="0.0247769095778078" flag="0"/>
			<psa10 value="0.00366042482893089" flag="0"/>
			<psa30 value="0.000206442959686978" flag="0"/>
		</comp>
		<comp name="--.HNN" depth="0.0">
			<acc value="0.0211557886311145" flag="0"/>
			<vel value="0.0062355396271115" flag="0"/>
			<psa03 value="0.0296699394462092" flag="0"/>
			<psa10 value="0.00234931711510602" flag="0"/>
			<psa30 value="0.000235006896178497" flag="0"/>
		</comp>
		<comp name="--.HNZ" depth="0.0">
			<acc value="0.0112990491282734" flag="0"/>
			<vel value="0.00248505336994519" flag="0"/>
			<psa03 value="0.0108681691816281" flag="0"/>
			<psa10 value="0.00282728580943457" flag="0"/>
			<psa30 value="0.000140923931873074" flag="0"/>
		</comp>
	</station>
	<station code="GOLS" name="GOLS" netid="SL" source="Seismic Network of the Republic of Slovenia (SNRS)" insttype="" lat="46.0108" lon="15.6245">
		<comp name="--.HNE" depth="0.0">
			<acc value="0.0410023224405226" flag="0"/>
			<vel value="0.0131930599190861" flag="0"/>
			<psa03 value="0.0627755700318088" flag="0"/>
			<psa10 value="0.004875868627348" flag="0"/>
			<psa30 value="0.000268363585062141" flag="0"/>
		</comp>
		<comp name="--.HNN" depth="0.0">
			<acc value="0.0431305060959959" flag="0"/>
			<vel value="0.00968893695390891" flag="0"/>
			<psa03 value="0.0476590217595085" flag="0"/>
			<psa10 value="0.00428352157479224" flag="0"/>
			<psa30 value="0.000257116980654585" flag="0"/>
		</comp>
		<comp name="--.HNZ" depth="0.0">
			<acc value="0.016774015198177" flag="0"/>
			<vel value="0.00508481291022681" flag="0"/>
			<psa03 value="0.0189493972316485" flag="0"/>
			<psa10 value="0.00194411777263781" flag="0"/>
			<psa30 value="0.000115648702825691" flag="0"/>
		</comp>
	</station>
	<station code="GORS" name="GORS" netid="SL" source="Seismic Network of the Republic of Slovenia (SNRS)" insttype="" lat="46.3174" lon="13.9999">
		<comp name="--.HNE" depth="0.0">
			<acc value="0.00363196288125503" flag="0"/>
			<vel value="0.00148939553010689" flag="0"/>
			<psa03 value="0.010380191935439" flag="0"/>
			<psa10 value="0.00139729911268863" flag="0"/>
			<psa30 value="0.000120356535803151" flag="0"/>
		</comp>
		<comp name="--.HNN" depth="0.0">
			<acc value="0.0035253078901294" flag="0"/>
			<vel value="0.00154194818158983" flag="0"/>
			<psa03 value="0.00814308160452546" flag="0"/>
			<psa10 value="0.00148991548038845" flag="0"/>
			<psa30 value="9.88802766263806e-05" flag="0"/>
		</comp>
		<comp name="--.HNZ" depth="0.0">
			<acc value="0.00237641309380467" flag="0"/>
			<vel value="0.00144961297764" flag="0"/>
			<psa03 value="0.0052348381743378" flag="0"/>
			<psa10 value="0.00156239785511005" flag="0"/>
			<psa30 value="0.000124383334398795" flag="0"/>
		</comp>
	</station>
	<station code="JAVS" name="JAVS" netid="SL" source="Seismic Network of the Republic of Slovenia (SNRS)" insttype="" lat="45.8934" lon="14.0643">
		<comp name="--.HNE" depth="0.0">
			<acc value="0.00730407363785071" flag="0"/>
			<vel value="0.00460240176791476" flag="0"/>
			<psa03 value="0.0341563356062917" flag="0"/>
			<psa10 value="0.00251613894748249" flag="0"/>
			<psa30 value="0.000166560643200002" flag="0"/>
		</comp>
		<comp name="--.HNN" depth="0.0">
			<acc value="0.00559911458636505" flag="0"/>
			<vel value="0.00295938453467309" flag="0"/>
			<psa03 value="0.0173328135784078" flag="0"/>
			<psa10 value="0.00175087977625535" flag="0"/>
			<psa30 value="0.000127372982105741" flag="0"/>
		</comp>
		<comp name="--.HNZ" depth="0.0">
			<acc value="0.0045432330656252" flag="0"/>
			<vel value="0.00210327724967758" flag="0"/>
			<psa03 value="0.014038245069005" flag="0"/>
			<psa10 value="0.00278382605543888" flag="0"/>
			<psa30 value="0.000125760557582257" flag="0"/>
		</comp>
	</station>
	<station code="KNDS" name="KNDS" netid="SL" source="Seismic Network of the Republic of Slovenia (SNRS)" insttype="" lat="45.5278" lon="14.3807">
		<comp name="--.HNE" depth="0.0">
			<acc value="0.0131060490002752" flag="0"/>
			<vel value="0.00844662652059593" flag="0"/>
			<psa03 value="0.0479911062585484" flag="0"/>
			<psa10 value="0.00541723527150828" flag="0"/>
			<psa30 value="0.000268266104646119" flag="0"/>
		</comp>
		<comp name="--.HNN" depth="0.0">
			<acc value="0.0179632792159508" flag="0"/>
			<vel value="0.00867153444160905" flag="0"/>
			<psa03 value="0.031940358079462" flag="0"/>
			<psa10 value="0.00419022008149888" flag="0"/>
			<psa30 value="0.000364717129469893" flag="0"/>
		</comp>
		<comp name="--.HNZ" depth="0.0">
			<acc value="0.00548817592453553" flag="0"/>
			<vel value="0.00363660748031415" flag="0"/>
			<psa03 value="0.0137070030737693" flag="0"/>
			<psa10 value="0.0042862569122334" flag="0"/>
			<psa30 value="0.000329945138495956" flag="0"/>
		</comp>
	</station>
	<station code="KOGS" name="KOGS" netid="SL" source="Seismic Network of the Republic of Slovenia (SNRS)" insttype="" lat="46.4481" lon="16.2504">
		<comp name="--.HNE" depth="0.0">
			<acc value="0.0508904312694723" flag="0"/>
			<vel value="0.0142638881802785" flag="0"/>
			<psa03 value="0.0746747428458956" flag="0"/>
			<psa10 value="0.00976095979584216" flag="0"/>
			<psa30 value="0.000795963855739054" flag="0"/>
		</comp>
		<comp name="--.HNN" depth="0.0">
			<acc value="0.048503202282075" flag="0"/>
			<vel value="0.0185585983525263" flag="0"/>
			<psa03 value="0.133197549102595" flag="0"/>
			<psa10 value="0.0118428146697904" flag="0"/>
			<psa30 value="0.000843390594754422" flag="0"/>
		</comp>
		<comp name="--.HNZ" depth="0.0">
			<acc value="0.0175093384362319" flag="0"/>
			<vel value="0.00785747242258457" flag="0"/>
			<psa03 value="0.0468898325359488" flag="0"/>
			<psa10 value="0.00478383673162562" flag="0"/>
			<psa30 value="0.000376281957659665" flag="0"/>
		</comp>
	</station>
	<station code="LEGS" name="LEGS" netid="SL" source="Seismic Network of the Republic of Slovenia (SNRS)" insttype="" lat="45.9488" lon="15.3177">
		<comp name="--.HNE" depth="0.0">
			<acc value="0.0302176203378523" flag="0"/>
			<vel value="0.0120566567626686" flag="0"/>
			<psa03 value="0.0764216250576759" flag="0"/>
			<psa10 value="0.00634544519834673" flag="0"/>
			<psa30 value="0.000405684270425099" flag="0"/>
		</comp>
		<comp name="--.HNN" depth="0.0">
			<acc value="0.0202686611937625" flag="0"/>
			<vel value="0.00827964094457039" flag="0"/>
			<psa03 value="0.0404800383747277" flag="0"/>
			<psa10 value="0.0046704600200634" flag="0"/>
			<psa30 value="0.000250185323549836" flag="0"/>
		</comp>
		<comp name="--.HNZ" depth="0.0">
			<acc value="0.0196014809969353" flag="0"/>
			<vel value="0.00717941332559275" flag="0"/>
			<psa03 value="0.0341787277146351" flag="0"/>
			<psa10 value="0.00348202808914817" flag="0"/>
			<psa30 value="0.000268724207910116" flag="0"/>
		</comp>
	</station>
	<station code="LJU" name="LJU" netid="SL" source="Seismic Network of the Republic of Slovenia (SNRS)" insttype="" lat="46.0438" lon="14.5278">
		<comp name="--.HNE" depth="0.0">
			<acc value="0.0131703495249961" flag="0"/>
			<vel value="0.00506187250584834" flag="0"/>
			<psa03 value="0.0251003779128505" flag="0"/>
			<psa10 value="0.0057059736100282" flag="0"/>
			<psa30 value="0.00027829652516565" flag="0"/>
		</comp>
		<comp name="--.HNN" depth="0.0">
			<acc value="0.0118005909807592" flag="0"/>
			<vel value="0.00471644608238074" flag="0"/>
			<psa03 value="0.0316774822857364" flag="0"/>
			<psa10 value="0.00359190434731486" flag="0"/>
			<psa30 value="0.0003029047388057" flag="0"/>
		</comp>
		<comp name="--.HNZ" depth="0.0">
			<acc value="0.00650832388683847" flag="0"/>
			<vel value="0.00260845145152496" flag="0"/>
			<psa03 value="0.0132884353656267" flag="0"/>
			<psa10 value="0.00173152339612712" flag="0"/>
			<psa30 value="0.000298877940210055" flag="0"/>
		</comp>
	</station>
	<station code="MOZS" name="MOZS" netid="SL" source="Seismic Network of the Republic of Slovenia (SNRS)" insttype="" lat="46.2941" lon="14.4433">
		<comp name="--.HNE" depth="0.0">
			<acc value="0.0079356479539307" flag="0"/>
			<vel value="0.00343227424392627" flag="0"/>
			<psa03 value="0.0189706956061472" flag="0"/>
			<psa10 value="0.00215836404726543" flag="0"/>
			<psa30 value="0.000285902700290756" flag="0"/>
		</comp>
		<comp name="--.HNN" depth="0.0">
			<acc value="0.00790444300158157" flag="0"/>
			<vel value="0.00292163694721977" flag="0"/>
			<psa03 value="0.0166441008619971" flag="0"/>
			<psa10 value="0.00159058544527956" flag="0"/>
			<psa30 value="0.000268900661775813" flag="0"/>
		</comp>
		<comp name="--.HNZ" depth="0.0">
			<acc value="0.00309207204358486" flag="0"/>
			<vel value="0.00154533013766309" flag="0"/>
			<psa03 value="0.0099775120758746" flag="0"/>
			<psa10 value="0.00185635415259209" flag="0"/>
			<psa30 value="0.000151676080435941" flag="0"/>
		</comp>
	</station>
	<station code="PDKS" name="PDKS" netid="SL" source="Seismic Network of the Republic of Slovenia (SNRS)" insttype="" lat="46.0612" lon="14.9977">
		<comp name="--.HNE" depth="0.0">
			<acc value="0.00916767140387707" flag="0"/>
			<vel value="0.00408291633504406" flag="0"/>
			<psa03 value="0.0242489214762156" flag="0"/>
			<psa10 value="0.00283497217799242" flag="0"/>
			<psa30 value="0.000233107629736612" flag="0"/>
		</comp>
		<comp name="--.HNN" depth="0.0">
			<acc value="0.0112785396953441" flag="0"/>
			<vel value="0.00488597812952358" flag="0"/>
			<psa03 value="0.03121830503867" flag="0"/>
			<psa10 value="0.00261049027591815" flag="0"/>
			<psa30 value="0.000220006996258922" flag="0"/>
		</comp>
		<comp name="--.HNZ" depth="0.0">
			<acc value="0.0129132992971499" flag="0"/>
			<vel value="0.00399776772124423" flag="0"/>
			<psa03 value="0.0223400762745982" flag="0"/>
			<psa10 value="0.00217387674303871" flag="0"/>
			<psa30 value="0.000291405085406667" flag="0"/>
		</comp>
	</station>
	<station code="SKDS" name="SKDS" netid="SL" source="Seismic Network of the Republic of Slovenia (SNRS)" insttype="" lat="45.5464" lon="14.0143">
		<comp name="--.HNE" depth="0.0">
			<acc value="0.00619930102105996" flag="0"/>
			<vel value="0.00279803177458407" flag="0"/>
			<psa03 value="0.0142727639112287" flag="0"/>
			<psa10 value="0.00180400577084872" flag="0"/>
			<psa30 value="0.000130647243325354" flag="0"/>
		</comp>
		<comp name="--.HNN" depth="0.0">
			<acc value="0.00945231275737798" flag="0"/>
			<vel value="0.00322703319161872" flag="0"/>
			<psa03 value="0.0148544125972662" flag="0"/>
			<psa10 value="0.00271406225346436" flag="0"/>
			<psa30 value="0.000285455278224574" flag="0"/>
		</comp>
		<comp name="--.HNZ" depth="0.0">
			<acc value="0.00658413134388424" flag="0"/>
			<vel value="0.00286481889888291" flag="0"/>
			<psa03 value="0.0139148262582825" flag="0"/>
			<psa10 value="0.00434894248329601" flag="0"/>
			<psa30 value="0.000199550241517492" flag="0"/>
		</comp>
	</station>
	<station code="VISS" name="VISS" netid="SL" source="Seismic Network of the Republic of Slovenia (SNRS)" insttype="" lat="45.8033" lon="14.8393">
		<comp name="--.HNE" depth="0.0">
			<acc value="0.0139499958807001" flag="0"/>
			<vel value="0.0071388797763925" flag="0"/>
			<psa03 value="0.0340040770298865" flag="0"/>
			<psa10 value="0.00343485920208472" flag="0"/>
			<psa30 value="0.000326170686247201" flag="0"/>
		</comp>
		<comp name="--.HNN" depth="0.0">
			<acc value="0.015482711858528" flag="0"/>
			<vel value="0.00614347174069018" flag="0"/>
			<psa03 value="0.0408496346424821" flag="0"/>
			<psa10 value="0.0023637307756433" flag="0"/>
			<psa30 value="0.000286797544423122" flag="0"/>
		</comp>
		<comp name="--.HNZ" depth="0.0">
			<acc value="0.0139261165754804" flag="0"/>
			<vel value="0.00519208951015921" flag="0"/>
			<psa03 value="0.0228632675819369" flag="0"/>
			<psa10 value="0.00778380168538074" flag="0"/>
			<psa30 value="0.000324828420048653" flag="0"/>
		</comp>
	</station>
	<station code="VNDS" name="VNDS" netid="SL" source="Seismic Network of the Republic of Slovenia (SNRS)" insttype="" lat="46.1016" lon="14.7014">
		<comp name="--.HNE" depth="0.0">
			<acc value="0.0139935610413381" flag="0"/>
			<vel value="0.00534246433453413" flag="0"/>
			<psa03 value="0.0155255456965403" flag="0"/>
			<psa10 value="0.00519859698697699" flag="0"/>
			<psa30 value="0.000353463432284347" flag="0"/>
		</comp>
		<comp name="--.HNN" depth="0.0">
			<acc value="0.0100178378066779" flag="0"/>
			<vel value="0.00415645756984203" flag="0"/>
			<psa03 value="0.021565743590007" flag="0"/>
			<psa10 value="0.00219460523462623" flag="0"/>
			<psa30 value="0.00024697698053286" flag="0"/>
		</comp>
		<comp name="--.HNZ" depth="0.0">
			<acc value="0.0067272718158802" flag="0"/>
			<vel value="0.00251987064418847" flag="0"/>
			<psa03 value="0.0132884353656267" flag="0"/>
			<psa10 value="0.00184024695820952" flag="0"/>
			<psa30 value="0.000321696465585374" flag="0"/>
		</comp>
	</station>
	<station code="VOJS" name="VOJS" netid="SL" source="Seismic Network of the Republic of Slovenia (SNRS)" insttype="" lat="46.0322" lon="13.8877">
		<comp name="--.HNE" depth="0.0">
			<acc value="0.00646988758482855" flag="0"/>
			<vel value="0.00257997210772241" flag="0"/>
			<psa03 value="0.0160624521759596" flag="0"/>
			<psa10 value="0.00183622015961387" flag="0"/>
			<psa30 value="0.00018612757953201" flag="0"/>
		</comp>
		<comp name="--.HNN" depth="0.0">
			<acc value="0.00529252427206558" flag="0"/>
			<vel value="0.00297065812086672" flag="0"/>
			<psa03 value="0.0187917267796741" flag="0"/>
			<psa10 value="0.0033422428343849" flag="0"/>
			<psa30 value="0.000194181176723299" flag="0"/>
		</comp>
