<?xml version="1.0" encoding="UTF-8" standalone="yes"?>
<!DOCTYPE earthquake SYSTEM "stationlist.dtd">
<stationlist created="" xmlns="ch.ethz.sed.shakemap.usgs.xml">
  <station code="BLY" name="BLY" netid="MN" insttype="" lat="44.7488" lon="17.1839">
    <comp name="--.HHZ">
      <acc value="0.0083433918" flag="0"/>
      <vel value="0.0035773035" flag="0"/>
      <psa03 value="0.0255680807" flag="0"/>
      <psa10 value="0.0023965636" flag="0"/>
      <psa30 value="0.0002041947" flag="0"/>
    </comp>
    <comp name="--.HHE">
      <acc value="0.0136443687" flag="0"/>
      <vel value="0.0054153100" flag="0"/>
      <psa03 value="0.0427892291" flag="0"/>
      <psa10 value="0.0036690266" flag="0"/>
      <psa30 value="0.0002321802" flag="0"/>
    </comp>
    <comp name="--.HHN">
      <acc value="0.0120596536" flag="0"/>
      <vel value="0.0045178700" flag="0"/>
      <psa03 value="0.0259318676" flag="0"/>
      <psa10 value="0.0031159305" flag="0"/>
      <psa30 value="0.0002069285" flag="0"/>
    </comp>
  </station>
</stationlist>
