<?xml version="1.0" encoding="UTF-8" standalone="yes"?>
<!DOCTYPE earthquake SYSTEM "stationlist.dtd">
<stationlist created="" xmlns="ch.ethz.sed.shakemap.usgs.xml">
  <station code="MSDA" name="MSDA" netid="ML" insttype="" lat="35.9012" lon="14.484">
    <comp name="--.HHZ">
      <acc value="0.0386090104" flag="0"/>
      <vel value="0.0191813696" flag="0"/>
      <psa03 value="0.0949865137" flag="0"/>
      <psa10 value="0.0202799618" flag="0"/>
      <psa30 value="0.0022997322" flag="0"/>
    </comp>
    <comp name="--.HHE">
      <acc value="0.0626815911" flag="0"/>
      <vel value="0.0301303608" flag="0"/>
      <psa03 value="0.1466189185" flag="0"/>
      <psa10 value="0.0514427961" flag="0"/>
      <psa30 value="0.0021859121" flag="0"/>
    </comp>
    <comp name="--.HHN">
      <acc value="0.0398092011" flag="0"/>
      <vel value="0.0333362886" flag="0"/>
      <psa03 value="0.1688320695" flag="0"/>
      <psa10 value="0.0651380308" flag="0"/>
      <psa30 value="0.0038997976" flag="0"/>
    </comp>
  </station>
  <station code="XLND" name="XLND" netid="ML" insttype="" lat="36.0323" lon="14.2201">
    <comp name="--.HHE">
      <acc value="0.0217923522" flag="0"/>
      <vel value="0.0158205058" flag="0"/>
      <psa03 value="0.0803115877" flag="0"/>
      <psa10 value="0.0364515453" flag="0"/>
      <psa30 value="0.0021564136" flag="0"/>
    </comp>
    <comp name="--.HHN">
      <acc value="0.0281741140" flag="0"/>
      <vel value="0.0155159001" flag="0"/>
      <psa03 value="0.0894758464" flag="0"/>
      <psa10 value="0.0206357243" flag="0"/>
      <psa30 value="0.0020653506" flag="0"/>
    </comp>
    <comp name="--.HHZ">
      <acc value="0.0160541608" flag="0"/>
      <vel value="0.0110417403" flag="0"/>
      <psa03 value="0.0547353585" flag="0"/>
      <psa10 value="0.0173852784" flag="0"/>
      <psa30 value="0.0022592300" flag="0"/>
    </comp>
  </station>
</stationlist>
