<?xml version="1.0" encoding="UTF-8" standalone="yes"?>
<!DOCTYPE earthquake SYSTEM "stationlist.dtd">
<stationlist created="" xmlns="ch.ethz.sed.shakemap.usgs.xml">
  <station code="ZKR" name="ZKR" netid="GE" insttype="STS-2/N" lat="35.1147" lon="26.2169">
    <comp name="--.HHE">
      <acc value="0.0115921779" flag="0"/>
      <vel value="0.0063837570" flag="0"/>
      <psa03 value="0.0464779945" flag="0"/>
      <psa10 value="0.0127229613" flag="0"/>
      <psa30 value="0.0006661903" flag="0"/>
    </comp>
    <comp name="--.HHN">
      <acc value="0.0060247384" flag="0"/>
      <vel value="0.0031991708" flag="0"/>
      <psa03 value="0.0167080513" flag="0"/>
      <psa10 value="0.0040845770" flag="0"/>
      <psa30 value="0.0003685801" flag="0"/>
    </comp>
    <comp name="--.HHZ">
      <acc value="0.0053111200" flag="0"/>
      <vel value="0.0035733356" flag="0"/>
      <psa03 value="0.0195940190" flag="0"/>
      <psa10 value="0.0051610119" flag="0"/>
      <psa30 value="0.0006120344" flag="0"/>
    </comp>
  </station>
  <station code="KSS1" name="KSS1" netid="HI" insttype="CMG-5TD,ACCELEROMETER,GURALP" lat="35.4189" lon="26.9207">
    <comp name="--.HNE">
      <acc value="0.1092779014" flag="0"/>
      <vel value="0.0314717082" flag="0"/>
      <psa03 value="0.2498759322" flag="0"/>
      <psa10 value="0.0072230488" flag="0"/>
      <psa30 value="0.0014991414" flag="0"/>
    </comp>
    <comp name="--.HNN">
      <acc value="0.1293934273" flag="0"/>
      <vel value="0.0400616806" flag="0"/>
      <psa03 value="0.2771399947" flag="0"/>
      <psa10 value="0.0098658125" flag="0"/>
      <psa30 value="0.0041818415" flag="0"/>
    </comp>
    <comp name="--.HNZ">
      <acc value="0.0660198616" flag="0"/>
      <vel value="0.0148060197" flag="0"/>
      <psa03 value="0.0556712718" flag="0"/>
      <psa10 value="0.0071175790" flag="0"/>
      <psa30 value="0.0013011009" flag="0"/>
    </comp>
  </station>
  <station code="ARG" name="ARG" netid="HL" insttype="LE3D20_DR24" lat="36.2136" lon="28.1212">
    <comp name="--.HHZ">
      <acc value="0.0046188808" flag="0"/>
      <vel value="0.0025009791" flag="0"/>
      <psa03 value="0.0092907662" flag="0"/>
      <psa10 value="0.0026304231" flag="0"/>
      <psa30 value="0.0003661952" flag="0"/>
    </comp>
    <comp name="--.HHN">
      <acc value="0.0049650777" flag="0"/>
      <vel value="0.0035298737" flag="0"/>
      <psa03 value="0.0133090654" flag="0"/>
      <psa10 value="0.0045141409" flag="0"/>
      <psa30 value="0.0005025559" flag="0"/>
    </comp>
    <comp name="--.HHE">
      <acc value="0.0113348406" flag="0"/>
      <vel value="0.0051665100" flag="0"/>
      <psa03 value="0.0252285032" flag="0"/>
      <psa10 value="0.0053831321" flag="0"/>
      <psa30 value="0.0006393799" flag="0"/>
    </comp>
  </station>
  <station code="ZKR" name="ZKR" netid="HL" insttype="120" lat="35.1147" lon="26.2169">
    <comp name="--.HHE">
      <acc value="0.0112310700" flag="0"/>
      <vel value="0.0062613615" flag="0"/>
      <psa03 value="0.0451969635" flag="0"/>
      <psa10 value="0.0126422494" flag="0"/>
      <psa30 value="0.0006657066" flag="0"/>
    </comp>
    <comp name="--.HHZ">
      <acc value="0.0051784355" flag="0"/>
      <vel value="0.0035148666" flag="0"/>
      <psa03 value="0.0190353254" flag="0"/>
      <psa10 value="0.0051245173" flag="0"/>
      <psa30 value="0.0006103525" flag="0"/>
    </comp>
    <comp name="--.HHN">
      <acc value="0.0058720165" flag="0"/>
      <vel value="0.0031394754" flag="0"/>
      <psa03 value="0.0162586724" flag="0"/>
      <psa10 value="0.0040635526" flag="0"/>
      <psa30 value="0.0003679867" flag="0"/>
    </comp>
  </station>
</stationlist>
