<?xml version="1.0" encoding="UTF-8" standalone="yes"?>
<!DOCTYPE earthquake SYSTEM "stationlist.dtd">
<stationlist created="" xmlns="ch.ethz.sed.shakemap.usgs.xml">
  <station code="ZKR" name="ZKR" netid="GE" insttype="STS-2/N" lat="35.1147" lon="26.2169">
    <comp name="--.HHE">
      <acc value="0.0115921779" flag="0"/>
      <vel value="0.0063837570" flag="0"/>
      <psa03 value="0.0464779945" flag="0"/>
      <psa10 value="0.0127229613" flag="0"/>
      <psa30 value="0.0006661903" flag="0"/>
    </comp>
    <comp name="--.HHN">
      <acc value="0.0060247384" flag="0"/>
      <vel value="0.0031991708" flag="0"/>
      <psa03 value="0.0167080513" flag="0"/>
      <psa10 value="0.0040845770" flag="0"/>
      <psa30 value="0.0003685801" flag="0"/>
    </comp>
    <comp name="--.HHZ">
      <acc value="0.0053111200" flag="0"/>
      <vel value="0.0035733356" flag="0"/>
      <psa03 value="0.0195940190" flag="0"/>
      <psa10 value="0.0051610119" flag="0"/>
      <psa30 value="0.0006120344" flag="0"/>
    </comp>
  </station>
</stationlist>
