<?xml version="1.0" encoding="UTF-8" standalone="yes"?>
<!DOCTYPE earthquake SYSTEM "stationlist.dtd">
<stationlist created="" xmlns="ch.ethz.sed.shakemap.usgs.xml">
  <station code="APE" name="APE" netid="GE" insttype="STS-2/N" lat="37.0727" lon="25.523">
    <comp name="--.HHE">
      <acc value="0.1272170419" flag="0"/>
      <vel value="0.0168992945" flag="0"/>
      <psa03 value="0.0534371753" flag="0"/>
      <psa10 value="0.0064682890" flag="0"/>
      <psa30 value="0.0011949109" flag="0"/>
    </comp>
    <comp name="--.HHN">
      <acc value="0.1303681076" flag="0"/>
      <vel value="0.0256236561" flag="0"/>
      <psa03 value="0.0582549371" flag="0"/>
      <psa10 value="0.0065774257" flag="0"/>
      <psa30 value="0.0013238072" flag="0"/>
    </comp>
    <comp name="--.HHZ">
      <acc value="0.0662231882" flag="0"/>
      <vel value="0.0105439952" flag="0"/>
      <psa03 value="0.0217113226" flag="0"/>
      <psa10 value="0.0033685444" flag="0"/>
      <psa30 value="0.0013565487" flag="0"/>
    </comp>
  </station>
  <station code="THERA" name="THERA" netid="GE" insttype="STS-2/N" lat="36.367" lon="25.4753">
    <comp name="--.HHN">
      <acc value="0.0845380287" flag="0"/>
      <vel value="0.0204774116" flag="0"/>
      <psa03 value="0.1773321599" flag="0"/>
      <psa10 value="0.0114001026" flag="0"/>
      <psa30 value="0.0005789556" flag="0"/>
    </comp>
    <comp name="--.HHZ">
      <acc value="0.1077462581" flag="0"/>
      <vel value="0.0275204171" flag="0"/>
      <psa03 value="0.1399547311" flag="0"/>
      <psa10 value="0.0185087284" flag="0"/>
      <psa30 value="0.0014148805" flag="0"/>
    </comp>
    <comp name="--.HHE">
      <acc value="0.1595514959" flag="0"/>
      <vel value="0.0421220443" flag="0"/>
      <psa03 value="0.2269390901" flag="0"/>
      <psa10 value="0.0165795425" flag="0"/>
      <psa30 value="0.0014924571" flag="0"/>
    </comp>
  </station>
  <station code="SNT1" name="SNT1" netid="HA" insttype="30" lat="36.4159" lon="25.4282">
    <comp name="--.HHE">
      <acc value="0.1165561122" flag="0"/>
      <vel value="0.0389604873" flag="0"/>
      <psa03 value="0.1080018356" flag="0"/>
      <psa10 value="0.0368371104" flag="0"/>
      <psa30 value="0.0024885575" flag="0"/>
    </comp>
    <comp name="--.HHN">
      <acc value="0.1009189080" flag="0"/>
      <vel value="0.0532984697" flag="0"/>
      <psa03 value="0.1370623783" flag="0"/>
      <psa10 value="0.0476641436" flag="0"/>
      <psa30 value="0.0022021205" flag="0"/>
    </comp>
    <comp name="--.HHZ">
      <acc value="0.0991331978" flag="0"/>
      <vel value="0.0249099458" flag="0"/>
      <psa03 value="0.0835192312" flag="0"/>
      <psa10 value="0.0179668206" flag="0"/>
      <psa30 value="0.0013418527" flag="0"/>
    </comp>
  </station>
  <station code="NAX1" name="NAX1" netid="HI" insttype="CMG-5TD,ACCELEROMETER,GURALP" lat="37.1014" lon="25.3741">
    <comp name="--.HNE">
      <acc value="0.1711808460" flag="0"/>
      <vel value="0.0227153471" flag="0"/>
      <psa03 value="0.1031894802" flag="0"/>
      <psa10 value="0.0070843611" flag="0"/>
      <psa30 value="0.0008177885" flag="0"/>
    </comp>
    <comp name="--.HNZ">
      <acc value="0.0662367021" flag="0"/>
      <vel value="0.0100096175" flag="0"/>
      <psa03 value="0.0237153340" flag="0"/>
      <psa10 value="0.0042082403" flag="0"/>
      <psa30 value="0.0010580047" flag="0"/>
    </comp>
    <comp name="--.HNN">
      <acc value="0.1155875825" flag="0"/>
      <vel value="0.0212256357" flag="0"/>
      <psa03 value="0.0497937763" flag="0"/>
      <psa10 value="0.0038760915" flag="0"/>
      <psa30 value="0.0009756256" flag="0"/>
    </comp>
  </station>
  <station code="APE" name="APE" netid="HL" insttype="120" lat="37.0727" lon="25.523">
    <comp name="--.HHE">
      <acc value="0.0956064240" flag="0"/>
      <vel value="0.0160858693" flag="0"/>
      <psa03 value="0.0516079229" flag="0"/>
      <psa10 value="0.0063361595" flag="0"/>
      <psa30 value="0.0011922476" flag="0"/>
    </comp>
    <comp name="--.HHZ">
      <acc value="0.0584818849" flag="0"/>
      <vel value="0.0098898157" flag="0"/>
      <psa03 value="0.0210711946" flag="0"/>
      <psa10 value="0.0033343100" flag="0"/>
      <psa30 value="0.0013545030" flag="0"/>
    </comp>
    <comp name="--.HHN">
      <acc value="0.1192759962" flag="0"/>
      <vel value="0.0240292924" flag="0"/>
      <psa03 value="0.0558960310" flag="0"/>
      <psa10 value="0.0065103633" flag="0"/>
      <psa30 value="0.0013173150" flag="0"/>
    </comp>
  </station>
  <station code="MHLO" name="MHLO" netid="HL" insttype="20" lat="36.6898" lon="24.4017">
    <comp name="--.HHN">
      <acc value="0.0750403601" flag="0"/>
      <vel value="0.0296498654" flag="0"/>
      <psa03 value="0.1279668125" flag="0"/>
      <psa10 value="0.0502566472" flag="0"/>
      <psa30 value="0.0022526413" flag="0"/>
    </comp>
    <comp name="--.HHZ">
      <acc value="0.0306809148" flag="0"/>
      <vel value="0.0174387299" flag="0"/>
      <psa03 value="0.0618666445" flag="0"/>
      <psa10 value="0.0261190524" flag="0"/>
      <psa30 value="0.0014178907" flag="0"/>
    </comp>
    <comp name="--.HHE">
      <acc value="0.1022854483" flag="0"/>
      <vel value="0.0419834346" flag="0"/>
      <psa03 value="0.1570436860" flag="0"/>
      <psa10 value="0.0515412718" flag="0"/>
      <psa30 value="0.0024842239" flag="0"/>
    </comp>
  </station>
  <station code="SAP3" name="SAP3" netid="HL" insttype="LE3D20_SMART24" lat="36.4356" lon="25.3454">
    <comp name="--.HHE">
      <acc value="0.5919542080" flag="0"/>
      <vel value="0.1521017161" flag="0"/>
      <psa03 value="0.4327863510" flag="0"/>
      <psa10 value="0.0738266388" flag="0"/>
      <psa30 value="0.0112022220" flag="0"/>
    </comp>
    <comp name="--.HHN">
      <acc value="0.4163362218" flag="0"/>
      <vel value="0.1591738733" flag="0"/>
      <psa03 value="0.3686752066" flag="0"/>
      <psa10 value="0.0576105008" flag="0"/>
      <psa30 value="0.0082533528" flag="0"/>
    </comp>
    <comp name="--.HHZ">
      <acc value="0.5544394084" flag="0"/>
      <vel value="0.1320935386" flag="0"/>
      <psa03 value="0.2719958779" flag="0"/>
      <psa10 value="0.0417240156" flag="0"/>
      <psa30 value="0.0041517478" flag="0"/>
    </comp>
  </station>
  <station code="THERA" name="THERA" netid="HL" insttype="120" lat="36.367" lon="25.4753">
    <comp name="--.HHN">
      <acc value="0.0833907279" flag="0"/>
      <vel value="0.0198241396" flag="0"/>
      <psa03 value="0.1717424950" flag="0"/>
      <psa10 value="0.0113052175" flag="0"/>
      <psa30 value="0.0005774066" flag="0"/>
    </comp>
    <comp name="--.HHE">
      <acc value="0.1569122437" flag="0"/>
      <vel value="0.0412069836" flag="0"/>
      <psa03 value="0.2196992076" flag="0"/>
      <psa10 value="0.0164120406" flag="0"/>
      <psa30 value="0.0014930443" flag="0"/>
    </comp>
    <comp name="--.HHZ">
      <acc value="0.1075875968" flag="0"/>
      <vel value="0.0267906478" flag="0"/>
      <psa03 value="0.1358440369" flag="0"/>
      <psa10 value="0.0184553311" flag="0"/>
      <psa30 value="0.0013998405" flag="0"/>
    </comp>
  </station>
  <station code="THRA" name="THRA" netid="HL" insttype="CMG-5" lat="36.415" lon="25.4324">
    <comp name="00.HNZ">
      <acc value="0.2397178911" flag="0"/>
      <vel value="0.0797330376" flag="0"/>
      <psa03 value="0.2670371726" flag="0"/>
      <psa10 value="0.0383125032" flag="0"/>
      <psa30 value="0.0029878979" flag="0"/>
    </comp>
    <comp name="00.HNE">
      <acc value="0.3925884172" flag="0"/>
      <vel value="0.1114897391" flag="0"/>
      <psa03 value="0.4490880182" flag="0"/>
      <psa10 value="0.0781713528" flag="0"/>
      <psa30 value="0.0063215090" flag="0"/>
    </comp>
    <comp name="00.HNN">
      <acc value="0.3052362552" flag="0"/>
      <vel value="0.1052325195" flag="0"/>
      <psa03 value="0.4283520838" flag="0"/>
      <psa10 value="0.1563693025" flag="0"/>
      <psa30 value="0.0058225907" flag="0"/>
    </comp>
  </station>
  <station code="TNSA" name="TNSA" netid="HL" insttype="CMG-5" lat="37.5394" lon="25.1631">
    <comp name="00.HNN">
      <acc value="0.0322740710" flag="0"/>
      <vel value="0.0083118823" flag="0"/>
      <psa03 value="0.0322876847" flag="0"/>
      <psa10 value="0.0055331967" flag="0"/>
      <psa30 value="0.0005723128" flag="0"/>
    </comp>
    <comp name="00.HNE">
      <acc value="0.0400333990" flag="0"/>
      <vel value="0.0092608077" flag="0"/>
      <psa03 value="0.0227466810" flag="0"/>
      <psa10 value="0.0029649971" flag="0"/>
      <psa30 value="0.0003839610" flag="0"/>
    </comp>
    <comp name="00.HNZ">
      <acc value="0.0306247315" flag="0"/>
      <vel value="0.0053183151" flag="0"/>
      <psa03 value="0.0209363718" flag="0"/>
      <psa10 value="0.0034095171" flag="0"/>
      <psa30 value="0.0004951013" flag="0"/>
    </comp>
  </station>
</stationlist>
