<?xml version="1.0" encoding="UTF-8" standalone="yes"?>
<!DOCTYPE earthquake SYSTEM "stationlist.dtd">
<stationlist created="" xmlns="ch.ethz.sed.shakemap.usgs.xml">
  <station code="APE" name="APE" netid="GE" insttype="STS-2/N" lat="37.0727" lon="25.523">
    <comp name="--.HHN">
      <acc value="0.1303681076" flag="0"/>
      <vel value="0.0256236573" flag="0"/>
      <psa03 value="0.0582549371" flag="0"/>
      <psa10 value="0.0065774257" flag="0"/>
      <psa30 value="0.0013238083" flag="0"/>
    </comp>
    <comp name="--.HHE">
      <acc value="0.1272170417" flag="0"/>
      <vel value="0.0168992936" flag="0"/>
      <psa03 value="0.0534371753" flag="0"/>
      <psa10 value="0.0064682889" flag="0"/>
      <psa30 value="0.0011949277" flag="0"/>
    </comp>
    <comp name="--.HHZ">
      <acc value="0.0662231882" flag="0"/>
      <vel value="0.0105439954" flag="0"/>
      <psa03 value="0.0217113226" flag="0"/>
      <psa10 value="0.0033685448" flag="0"/>
      <psa30 value="0.0013565668" flag="0"/>
    </comp>
  </station>
  <station code="THERA" name="THERA" netid="GE" insttype="STS-2/N" lat="36.367" lon="25.4753">
    <comp name="--.HHE">
      <acc value="0.1595514963" flag="0"/>
      <vel value="0.0421220447" flag="0"/>
      <psa03 value="0.2269390901" flag="0"/>
      <psa10 value="0.0165795452" flag="0"/>
      <psa30 value="0.0014924565" flag="0"/>
    </comp>
    <comp name="--.HHZ">
      <acc value="0.1077462580" flag="0"/>
      <vel value="0.0275204165" flag="0"/>
      <psa03 value="0.1399547311" flag="0"/>
      <psa10 value="0.0185087224" flag="0"/>
      <psa30 value="0.0014149161" flag="0"/>
    </comp>
    <comp name="--.HHN">
      <acc value="0.0845380288" flag="0"/>
      <vel value="0.0204774124" flag="0"/>
      <psa03 value="0.1773321599" flag="0"/>
      <psa10 value="0.0114001069" flag="0"/>
      <psa30 value="0.0005789186" flag="0"/>
    </comp>
  </station>
</stationlist>
