<?xml version="1.0" encoding="UTF-8" standalone="yes"?>
<!DOCTYPE earthquake SYSTEM "stationlist.dtd">
<stationlist created="" xmlns="ch.ethz.sed.shakemap.usgs.xml">
  <station code="GAZ" name="GAZ" netid="KO" insttype="CMG-3T" lat="37.1721" lon="37.2096">
    <comp name="--.HHN">
      <acc value="0.0015305646" flag="0"/>
      <vel value="0.0003658842" flag="0"/>
      <psa03 value="0.0057973558" flag="0"/>
      <psa10 value="0.0004324937" flag="0"/>
      <psa30 value="0.0000502632" flag="0"/>
    </comp>
    <comp name="--.HHE">
      <acc value="0.0002392586" flag="0"/>
      <vel value="-100.0000000000" flag="0"/>
      <psa03 value="0.0053177880" flag="0"/>
      <psa10 value="0.0006072117" flag="0"/>
      <psa30 value="0.0000794728" flag="0"/>
    </comp>
    <comp name="--.HHZ">
      <acc value="0.0100647285" flag="0"/>
      <vel value="0.0057696348" flag="0"/>
      <psa03 value="0.0212507113" flag="0"/>
      <psa10 value="0.0053423036" flag="0"/>
      <psa30 value="0.0004063353" flag="0"/>
    </comp>
  </station>
  <station code="KMRS" name="KMRS" netid="KO" insttype="CMG-3T" lat="37.5053" lon="36.9">
    <comp name="--.HHE">
      <acc value="0.0616722856" flag="0"/>
      <vel value="0.0299820061" flag="0"/>
      <psa03 value="0.1365398196" flag="0"/>
      <psa10 value="0.0210679929" flag="0"/>
      <psa30 value="0.0017508891" flag="0"/>
    </comp>
    <comp name="--.HHZ">
      <acc value="0.0634854342" flag="0"/>
      <vel value="0.0295884187" flag="0"/>
      <psa03 value="0.1523781369" flag="0"/>
      <psa10 value="0.0107970970" flag="0"/>
      <psa30 value="0.0011537994" flag="0"/>
    </comp>
    <comp name="--.HHN">
      <acc value="0.1281097487" flag="0"/>
      <vel value="0.0677196999" flag="0"/>
      <psa03 value="0.3191383332" flag="0"/>
      <psa10 value="0.0199250789" flag="0"/>
      <psa30 value="0.0015040305" flag="0"/>
    </comp>
  </station>
</stationlist>
