<stationlist xmlns:esm="https://esm-db.eu/esmws/shakemap/1/" created="1784339638">
	<station code="DOBS" name="DOBS" netid="SL" source="Seismic Network of the Republic of Slovenia (SNRS)" insttype="" lat="46.1495" lon="15.4695" esm:processing="manual (Paolucci et al 2011)" esm:quality="best">
		<comp name="--.HNE" depth="0.0">
			<acc value="0.00431252541466278" flag="0"/>
			<vel value="0.00277315251800829" flag="0"/>
			<psa03 value="0.00607678146318117" flag="0"/>
			<psa10 value="0.00323070940926887" flag="0"/>
			<psa30 value="0.000169378381944756" flag="0"/>
		</comp>
		<comp name="--.HNN" depth="0.0">
			<acc value="0.0046877296390902" flag="0"/>
			<vel value="0.00193505651845975" flag="0"/>
			<psa03 value="0.00640334866958361" flag="0"/>
			<psa10 value="0.00236550459369701" flag="0"/>
			<psa30 value="0.000174178999441419" flag="0"/>
		</comp>
		<comp name="--.HNZ" depth="0.0">
			<acc value="0.00209593782440436" flag="0"/>
			<vel value="0.00108873660102752" flag="0"/>
			<psa03 value="0.00319947529589085" flag="0"/>
			<psa10 value="0.00152768409219816" flag="0"/>
			<psa30 value="0.000181506294734527" flag="0"/>
		</comp>
	</station>
	<station code="GROS" name="GROS" netid="SL" source="Seismic Network of the Republic of Slovenia (SNRS)" insttype="" lat="46.461" lon="15.5018" esm:processing="manual (Paolucci et al 2011)" esm:quality="bad">
		<comp name="--.HNE" depth="0.0">
			<acc value="0.0103364492777365" flag="0"/>
			<vel value="0.00334040925022455" flag="0"/>
			<psa03 value="0.0108014421050409" flag="0"/>
			<psa10 value="0.00366971935089791" flag="0"/>
			<psa30 value="0.00039434065438307" flag="0"/>
		</comp>
		<comp name="--.HNN" depth="0.0">
			<acc value="0.00924782165827696" flag="0"/>
			<vel value="0.00294110364518222" flag="0"/>
			<psa03 value="0.0126636930742038" flag="0"/>
			<psa10 value="0.00372052912304654" flag="0"/>
			<psa30 value="0.000310639901285692" flag="0"/>
		</comp>
		<comp name="--.HNZ" depth="0.0">
			<acc value="0.00514624641973753" flag="0"/>
			<vel value="0.00225182287750757" flag="0"/>
			<psa03 value="0.0106078518066498" flag="0"/>
			<psa10 value="0.00231454504599876" flag="0"/>
			<psa30 value="0.000323165809190651" flag="0"/>
		</comp>
	</station>
	<station code="KOGS" name="KOGS" netid="SL" source="Seismic Network of the Republic of Slovenia (SNRS)" insttype="" lat="46.4481" lon="16.2504" esm:processing="manual (Paolucci et al 2011)" esm:quality="best">
		<comp name="--.HNE" depth="0.0">
			<acc value="0.0232807946215659" flag="0"/>
			<vel value="0.0152272105138375" flag="0"/>
			<psa03 value="0.0917708918712627" flag="0"/>
			<psa10 value="0.0193869205383298" flag="0"/>
			<psa30 value="0.00193984454684984" flag="0"/>
		</comp>
		<comp name="--.HNN" depth="0.0">
			<acc value="0.027288072500004" flag="0"/>
			<vel value="0.0133606218984718" flag="0"/>
			<psa03 value="0.0805158754483316" flag="0"/>
			<psa10 value="0.020352969534332" flag="0"/>
			<psa30 value="0.000847688811472366" flag="0"/>
		</comp>
		<comp name="--.HNZ" depth="0.0">
			<acc value="0.010786572272045" flag="0"/>
			<vel value="0.00451115498200365" flag="0"/>
			<psa03 value="0.0408681083532901" flag="0"/>
			<psa10 value="0.00475122490158399" flag="0"/>
			<psa30 value="0.000450204302990982" flag="0"/>
		</comp>
	</station>
	<station code="MOZS" name="MOZS" netid="SL" source="Seismic Network of the Republic of Slovenia (SNRS)" insttype="" lat="46.2941" lon="14.4433" esm:processing="manual (Paolucci et al 2011)" esm:quality="best">
		<comp name="--.HNE" depth="0.0">
			<acc value="0.00689454365646789" flag="0"/>
			<vel value="0.00380549710346946" flag="0"/>
			<psa03 value="0.0218599012361883" flag="0"/>
			<psa10 value="0.00377616405858628" flag="0"/>
			<psa30 value="0.000181678063926092" flag="0"/>
		</comp>
		<comp name="--.HNN" depth="0.0">
			<acc value="0.0074712555045462" flag="0"/>
			<vel value="0.00323215351250442" flag="0"/>
			<psa03 value="0.0208413585023197" flag="0"/>
			<psa10 value="0.00304656658570845" flag="0"/>
			<psa30 value="0.000186705662604669" flag="0"/>
		</comp>
		<comp name="--.HNZ" depth="0.0">
			<acc value="0.00354284679723502" flag="0"/>
			<vel value="0.00196528686793548" flag="0"/>
			<psa03 value="0.0109317358925849" flag="0"/>
			<psa10 value="0.00239888063281768" flag="0"/>
			<psa30 value="0.000126899174676657" flag="0"/>
		</comp>
	</station>
	<station code="PERS" name="PERS" netid="SL" source="Seismic Network of the Republic of Slovenia (SNRS)" insttype="" lat="46.6365" lon="15.1139" esm:processing="manual (Paolucci et al 2011)" esm:quality="best">
		<comp name="--.HNE" depth="0.0">
			<acc value="0.0131540357576661" flag="0"/>
			<vel value="0.00597254515018517" flag="0"/>
			<psa03 value="0.0472078095774238" flag="0"/>
			<psa10 value="0.00396203949692202" flag="0"/>
			<psa30 value="0.000360960239969434" flag="0"/>
		</comp>
		<comp name="--.HNN" depth="0.0">
			<acc value="0.0104382542409449" flag="0"/>
			<vel value="0.00708231653861188" flag="0"/>
			<psa03 value="0.0382718582394471" flag="0"/>
			<psa10 value="0.0036716010380512" flag="0"/>
			<psa30 value="0.000276577853175542" flag="0"/>
		</comp>
		<comp name="--.HNZ" depth="0.0">
			<acc value="0.00814377726072388" flag="0"/>
			<vel value="0.00377882663966565" flag="0"/>
			<psa03 value="0.0331621421416609" flag="0"/>
			<psa10 value="0.00247963988897312" flag="0"/>
			<psa30 value="0.00021706825991516" flag="0"/>
		</comp>
	</station>
	<station code="VNDS" name="VNDS" netid="SL" source="Seismic Network of the Republic of Slovenia (SNRS)" insttype="" lat="46.1016" lon="14.7014" esm:processing="manual (Paolucci et al 2011)" esm:quality="bad">
		<comp name="--.HNE" depth="0.0">
			<acc value="0.00355761282414711" flag="0"/>
			<vel value="0.00230134773990967" flag="0"/>
			<psa03 value="0.0101168362063728" flag="0"/>
			<psa10 value="0.00337936199114686" flag="0"/>
			<psa30 value="0.000185003596726166" flag="0"/>
		</comp>
		<comp name="--.HNN" depth="0.0">
			<acc value="0.00263208911571351" flag="0"/>
			<vel value="0.00225290369640989" flag="0"/>
			<psa03 value="0.00597832181573021" flag="0"/>
			<psa10 value="0.00428709509275992" flag="0"/>
			<psa30 value="0.000143331213739477" flag="0"/>
		</comp>
		<comp name="--.HNZ" depth="0.0">
			<acc value="0.00173337523786969" flag="0"/>
			<vel value="0.00132185957800089" flag="0"/>
			<psa03 value="0.0051567384185081" flag="0"/>
			<psa10 value="0.00229154313161116" flag="0"/>
			<psa30 value="0.000111315473062116" flag="0"/>
		</comp>
	</station>
	<station code="ZAVS" name="ZAVS" netid="SL" source="Seismic Network of the Republic of Slovenia (SNRS)" insttype="" lat="46.4342" lon="15.0246" esm:processing="manual (Paolucci et al 2011)" esm:quality="best">
		<comp name="--.HNE" depth="0.0">
			<acc value="0.00682730399832662" flag="0"/>
			<vel value="0.00435452127763563" flag="0"/>
			<psa03 value="0.0209526744701797" flag="0"/>
			<psa10 value="0.00342678857042398" flag="0"/>
			<psa30 value="0.000270507893778749" flag="0"/>
		</comp>
		<comp name="--.HNN" depth="0.0">
			<acc value="0.0108034598123156" flag="0"/>
			<vel value="0.00715601065436522" flag="0"/>
			<psa03 value="0.0222242534977323" flag="0"/>
			<psa10 value="0.00678426364292698" flag="0"/>
			<psa30 value="0.000288406891999554" flag="0"/>
		</comp>
		<comp name="--.HNZ" depth="0.0">
			<acc value="0.00448075203435804" flag="0"/>
			<vel value="0.00317974516793261" flag="0"/>
			<psa03 value="0.0137434000161338" flag="0"/>
			<psa10 value="0.00216768648921769" flag="0"/>
			<psa30 value="0.000197964468341274" flag="0"/>
		</comp>
	</station>
</stationlist>
