<?xml version="1.0" encoding="UTF-8" standalone="yes"?>
<!DOCTYPE earthquake SYSTEM "stationlist.dtd">
<stationlist created="" xmlns="ch.ethz.sed.shakemap.usgs.xml">
  <station code="EGYH" name="EGYH" netid="HU" insttype="" lat="47.4162" lon="17.3317">
    <comp name="--.HHE">
      <acc value="0.0459443988" flag="0"/>
      <vel value="0.0226090274" flag="0"/>
      <psa03 value="0.0723322313" flag="0"/>
      <psa10 value="0.0201700344" flag="0"/>
      <psa30 value="0.0025138280" flag="0"/>
    </comp>
    <comp name="--.HHZ">
      <acc value="0.0261684093" flag="0"/>
      <vel value="0.0113090470" flag="0"/>
      <psa03 value="0.0388819347" flag="0"/>
      <psa10 value="0.0103034898" flag="0"/>
      <psa30 value="0.0011575267" flag="0"/>
    </comp>
    <comp name="--.HHN">
      <acc value="0.0432709521" flag="0"/>
      <vel value="0.0194119257" flag="0"/>
      <psa03 value="0.0902869326" flag="0"/>
      <psa10 value="0.0218620067" flag="0"/>
      <psa30 value="0.0018069147" flag="0"/>
    </comp>
  </station>
  <station code="MPLH" name="MPLH" netid="HU" insttype="" lat="47.1712" lon="17.5348">
    <comp name="--.HHE">
      <acc value="0.0131788892" flag="0"/>
      <vel value="0.0080731300" flag="0"/>
      <psa03 value="0.0315865652" flag="0"/>
      <psa10 value="0.0045344791" flag="0"/>
      <psa30 value="0.0005274389" flag="0"/>
    </comp>
    <comp name="--.HHN">
      <acc value="0.0128545554" flag="0"/>
      <vel value="0.0078181506" flag="0"/>
      <psa03 value="0.0286157309" flag="0"/>
      <psa10 value="0.0081615525" flag="0"/>
      <psa30 value="0.0007261501" flag="0"/>
    </comp>
    <comp name="--.HHZ">
      <acc value="0.0063970258" flag="0"/>
      <vel value="0.0029320848" flag="0"/>
      <psa03 value="0.0136589089" flag="0"/>
      <psa10 value="0.0039582985" flag="0"/>
      <psa30 value="0.0003191854" flag="0"/>
    </comp>
  </station>
  <station code="SOP" name="SOP" netid="HU" insttype="" lat="47.6807" lon="16.5567">
    <comp name="--.HHZ">
      <acc value="0.1678523200" flag="0"/>
      <vel value="0.0415369491" flag="0"/>
      <psa03 value="0.1129062766" flag="0"/>
      <psa10 value="0.0138222297" flag="0"/>
      <psa30 value="0.0012626634" flag="0"/>
    </comp>
    <comp name="--.HHE">
      <acc value="0.1140889578" flag="0"/>
      <vel value="0.0466623372" flag="0"/>
      <psa03 value="0.1005271142" flag="0"/>
      <psa10 value="0.0424342214" flag="0"/>
      <psa30 value="0.0016994893" flag="0"/>
    </comp>
    <comp name="--.HHN">
      <acc value="0.0743421081" flag="0"/>
      <vel value="0.0365496513" flag="0"/>
      <psa03 value="0.0791933619" flag="0"/>
      <psa10 value="0.0223839448" flag="0"/>
      <psa30 value="0.0013153041" flag="0"/>
    </comp>
  </station>
  <station code="ARSA" name="ARSA" netid="OE" source="ODC" insttype="STS-2" lat="47.2505" lon="15.5232">
    <comp name="--.HHE">
      <acc value="0.0444567828" flag="0"/>
      <vel value="0.0170378809" flag="0"/>
      <psa03 value="0.0606970858" flag="0"/>
      <psa10 value="0.0105715981" flag="0"/>
      <psa30 value="0.0005485326" flag="0"/>
    </comp>
    <comp name="--.HHZ">
      <acc value="0.0584724197" flag="0"/>
      <vel value="0.0282701865" flag="0"/>
      <psa03 value="0.1166873527" flag="0"/>
      <psa10 value="0.0100874893" flag="0"/>
      <psa30 value="0.0007398621" flag="0"/>
    </comp>
    <comp name="--.HHN">
      <acc value="0.0493956250" flag="0"/>
      <vel value="0.0161781268" flag="0"/>
      <psa03 value="0.0711653322" flag="0"/>
      <psa10 value="0.0086816680" flag="0"/>
      <psa30 value="0.0006347773" flag="0"/>
    </comp>
  </station>
  <station code="CONA" name="CONA" netid="OE" source="ODC" insttype="STS-2" lat="47.9282" lon="15.8618">
    <comp name="--.HHN">
      <acc value="0.0921410201" flag="0"/>
      <vel value="0.0628513722" flag="0"/>
      <psa03 value="0.2878236111" flag="0"/>
      <psa10 value="0.0463153090" flag="0"/>
      <psa30 value="0.0037427783" flag="0"/>
    </comp>
    <comp name="--.HHE">
      <acc value="0.0841154477" flag="0"/>
      <vel value="0.0467880778" flag="0"/>
      <psa03 value="0.1332143214" flag="0"/>
      <psa10 value="0.0314730346" flag="0"/>
      <psa30 value="0.0022331393" flag="0"/>
    </comp>
    <comp name="--.HHZ">
      <acc value="0.0633392242" flag="0"/>
      <vel value="0.0246355900" flag="0"/>
      <psa03 value="0.1471899112" flag="0"/>
      <psa10 value="0.0405014884" flag="0"/>
      <psa30 value="0.0017686881" flag="0"/>
    </comp>
  </station>
  <station code="CSNA" name="CSNA" netid="OE" source="ODC" insttype="STS-2" lat="47.9282" lon="15.8588">
    <comp name="--.HHE">
      <acc value="0.1381278523" flag="0"/>
      <vel value="0.0592534936" flag="0"/>
      <psa03 value="0.1437724950" flag="0"/>
      <psa10 value="0.0401153578" flag="0"/>
      <psa30 value="0.0026585998" flag="0"/>
    </comp>
    <comp name="--.HHN">
      <acc value="0.1651046321" flag="0"/>
      <vel value="0.0615951533" flag="0"/>
      <psa03 value="0.2350694702" flag="0"/>
      <psa10 value="0.0462937463" flag="0"/>
      <psa30 value="0.0036358840" flag="0"/>
    </comp>
    <comp name="--.HHZ">
      <acc value="0.1338515795" flag="0"/>
      <vel value="0.0284990568" flag="0"/>
      <psa03 value="0.0994906803" flag="0"/>
      <psa10 value="0.0416003649" flag="0"/>
      <psa30 value="0.0017353990" flag="0"/>
    </comp>
  </station>
  <station code="RONA" name="RONA" netid="OE" source="ODC" insttype="STS-2.5/Quanterra" lat="47.6997" lon="16.2963">
    <comp name="--.HHE">
      <acc value="0.5926127632" flag="0"/>
      <vel value="0.0974544310" flag="0"/>
      <psa03 value="0.2553618735" flag="0"/>
      <psa10 value="0.0506205934" flag="0"/>
      <psa30 value="0.0035952080" flag="0"/>
    </comp>
    <comp name="--.HHN">
      <acc value="0.8699029807" flag="0"/>
      <vel value="0.1582401436" flag="0"/>
      <psa03 value="0.4278065601" flag="0"/>
      <psa10 value="0.0496144833" flag="0"/>
      <psa30 value="0.0053996175" flag="0"/>
    </comp>
    <comp name="--.HHZ">
      <acc value="0.3413979124" flag="0"/>
      <vel value="0.0593913660" flag="0"/>
      <psa03 value="0.1793171280" flag="0"/>
      <psa10 value="0.0315897260" flag="0"/>
      <psa30 value="0.0031471569" flag="0"/>
    </comp>
  </station>
  <station code="VIE" name="VIE" netid="OE" source="ODC" insttype="STS-2" lat="48.2483" lon="16.3617">
    <comp name="--.HHE">
      <acc value="0.1298659249" flag="0"/>
      <vel value="0.1024191021" flag="0"/>
      <psa03 value="0.4660767354" flag="0"/>
      <psa10 value="0.0721171251" flag="0"/>
      <psa30 value="0.0076229591" flag="0"/>
    </comp>
    <comp name="--.HHN">
      <acc value="0.1385236780" flag="0"/>
      <vel value="0.0613339232" flag="0"/>
      <psa03 value="0.2896539744" flag="0"/>
      <psa10 value="0.1958223833" flag="0"/>
      <psa30 value="0.0054609738" flag="0"/>
    </comp>
    <comp name="--.HHZ">
      <acc value="0.0879362699" flag="0"/>
      <vel value="0.0419172328" flag="0"/>
      <psa03 value="0.2798147393" flag="0"/>
      <psa10 value="0.0446721643" flag="0"/>
      <psa30 value="0.0022018383" flag="0"/>
    </comp>
  </station>
</stationlist>
