<?xml version="1.0" encoding="UTF-8" standalone="yes"?>
<!DOCTYPE earthquake SYSTEM "stationlist.dtd">
<stationlist created="" xmlns="ch.ethz.sed.shakemap.usgs.xml">
  <station code="APE" name="APE" netid="GE" insttype="STS-2/N" lat="37.0727" lon="25.523">
    <comp name="--.HHE">
      <acc value="0.3548807772" flag="0"/>
      <vel value="0.0495056283" flag="0"/>
      <psa03 value="0.1746230353" flag="0"/>
      <psa10 value="0.0224137583" flag="0"/>
      <psa30 value="0.0062310535" flag="0"/>
    </comp>
    <comp name="--.HHZ">
      <acc value="0.1673796782" flag="0"/>
      <vel value="0.0293672000" flag="0"/>
      <psa03 value="0.1364483128" flag="0"/>
      <psa10 value="0.0224391212" flag="0"/>
      <psa30 value="0.0065789686" flag="0"/>
    </comp>
    <comp name="--.HHN">
      <acc value="0.2913056352" flag="0"/>
      <vel value="0.0653433099" flag="0"/>
      <psa03 value="0.2581679818" flag="0"/>
      <psa10 value="0.0289711938" flag="0"/>
      <psa30 value="0.0065670204" flag="0"/>
    </comp>
  </station>
  <station code="THERA" name="THERA" netid="GE" insttype="STS-2/N" lat="36.367" lon="25.4753">
    <comp name="--.HHE">
      <acc value="0.3515309877" flag="0"/>
      <vel value="0.0632085754" flag="0"/>
      <psa03 value="0.3684973800" flag="0"/>
      <psa10 value="0.0326015920" flag="0"/>
      <psa30 value="0.0039218623" flag="0"/>
    </comp>
    <comp name="--.HHN">
      <acc value="0.2151163144" flag="0"/>
      <vel value="0.0482385889" flag="0"/>
      <psa03 value="0.2319498991" flag="0"/>
      <psa10 value="0.0256807963" flag="0"/>
      <psa30 value="0.0016939204" flag="0"/>
    </comp>
    <comp name="--.HHZ">
      <acc value="0.2485805096" flag="0"/>
      <vel value="0.0424255473" flag="0"/>
      <psa03 value="0.1420445412" flag="0"/>
      <psa10 value="0.0225981405" flag="0"/>
      <psa30 value="0.0030904151" flag="0"/>
    </comp>
  </station>
  <station code="SERI" name="SERI" netid="HA" insttype="30" lat="37.1609" lon="24.4853">
    <comp name="--.HHE">
      <acc value="0.0757269950" flag="0"/>
      <vel value="0.0135810517" flag="0"/>
      <psa03 value="0.0878813182" flag="0"/>
      <psa10 value="0.0066317906" flag="0"/>
      <psa30 value="0.0010629719" flag="0"/>
    </comp>
    <comp name="--.HHN">
      <acc value="0.1354443909" flag="0"/>
      <vel value="0.0266663305" flag="0"/>
      <psa03 value="0.1168861133" flag="0"/>
      <psa10 value="0.0158208577" flag="0"/>
      <psa30 value="0.0023147714" flag="0"/>
    </comp>
    <comp name="--.HHZ">
      <acc value="0.0721651422" flag="0"/>
      <vel value="0.0146560057" flag="0"/>
      <psa03 value="0.0737349128" flag="0"/>
      <psa10 value="0.0097529087" flag="0"/>
      <psa30 value="0.0020994084" flag="0"/>
    </comp>
  </station>
  <station code="SNT1" name="SNT1" netid="HA" insttype="30" lat="36.4159" lon="25.4282">
    <comp name="--.HHE">
      <acc value="0.2102533084" flag="0"/>
      <vel value="0.0695979846" flag="0"/>
      <psa03 value="0.2694761483" flag="0"/>
      <psa10 value="0.0660614316" flag="0"/>
      <psa30 value="0.0062138793" flag="0"/>
    </comp>
    <comp name="--.HHZ">
      <acc value="0.1913183300" flag="0"/>
      <vel value="0.0423710888" flag="0"/>
      <psa03 value="0.1750210431" flag="0"/>
      <psa10 value="0.0502603456" flag="0"/>
      <psa30 value="0.0034346060" flag="0"/>
    </comp>
    <comp name="--.HHN">
      <acc value="0.2186091607" flag="0"/>
      <vel value="0.0785767064" flag="0"/>
      <psa03 value="0.1728480228" flag="0"/>
      <psa10 value="0.0536468059" flag="0"/>
      <psa30 value="0.0059817383" flag="0"/>
    </comp>
  </station>
  <station code="NAX1" name="NAX1" netid="HI" insttype="CMG-5TD,ACCELEROMETER,GURALP" lat="37.1014" lon="25.3741">
    <comp name="--.HNN">
      <acc value="0.2846576298" flag="0"/>
      <vel value="0.0501636254" flag="0"/>
      <psa03 value="0.1309877838" flag="0"/>
      <psa10 value="0.0210450503" flag="0"/>
      <psa30 value="0.0032612308" flag="0"/>
    </comp>
    <comp name="--.HNE">
      <acc value="0.2139287967" flag="0"/>
      <vel value="0.0416990650" flag="0"/>
      <psa03 value="0.1673613843" flag="0"/>
      <psa10 value="0.0187195472" flag="0"/>
      <psa30 value="0.0020104149" flag="0"/>
    </comp>
  </station>
  <station code="AMGA" name="AMGA" netid="HL" insttype="SMART24" lat="36.8316" lon="25.8938">
    <comp name="--.HHZ">
      <acc value="0.5180739514" flag="0"/>
      <vel value="0.1038748599" flag="0"/>
      <psa03 value="0.3180796769" flag="0"/>
      <psa10 value="0.0563641173" flag="0"/>
      <psa30 value="0.0083327304" flag="0"/>
    </comp>
    <comp name="--.HHN">
      <acc value="0.6933215677" flag="0"/>
      <vel value="0.1294347276" flag="0"/>
      <psa03 value="0.2197891827" flag="0"/>
      <psa10 value="0.0588869455" flag="0"/>
      <psa30 value="0.0094551276" flag="0"/>
    </comp>
    <comp name="--.HHE">
      <acc value="0.6021604603" flag="0"/>
      <vel value="0.1102308263" flag="0"/>
      <psa03 value="0.2565704091" flag="0"/>
      <psa10 value="0.0711425098" flag="0"/>
      <psa30 value="0.0070179516" flag="0"/>
    </comp>
  </station>
  <station code="APE" name="APE" netid="HL" insttype="120" lat="37.0727" lon="25.523">
    <comp name="--.HHE">
      <acc value="0.3062417443" flag="0"/>
      <vel value="0.0463985066" flag="0"/>
      <psa03 value="0.1686408102" flag="0"/>
      <psa10 value="0.0222433743" flag="0"/>
      <psa30 value="0.0062238447" flag="0"/>
    </comp>
    <comp name="--.HHN">
      <acc value="0.2708427920" flag="0"/>
      <vel value="0.0614986534" flag="0"/>
      <psa03 value="0.2516599921" flag="0"/>
      <psa10 value="0.0285802763" flag="0"/>
      <psa30 value="0.0065546667" flag="0"/>
    </comp>
    <comp name="--.HHZ">
      <acc value="0.1420800887" flag="0"/>
      <vel value="0.0285118303" flag="0"/>
      <psa03 value="0.1320374572" flag="0"/>
      <psa10 value="0.0222074427" flag="0"/>
      <psa30 value="0.0065689058" flag="0"/>
    </comp>
  </station>
  <station code="MHLO" name="MHLO" netid="HL" insttype="20" lat="36.6898" lon="24.4017">
    <comp name="--.HHE">
      <acc value="0.2500286713" flag="0"/>
      <vel value="0.1352151108" flag="0"/>
      <psa03 value="0.5718894192" flag="0"/>
      <psa10 value="0.1043563958" flag="0"/>
      <psa30 value="0.0081387231" flag="0"/>
    </comp>
    <comp name="--.HHN">
      <acc value="0.2217323050" flag="0"/>
      <vel value="0.1047677390" flag="0"/>
      <psa03 value="0.3679351930" flag="0"/>
      <psa10 value="0.1021621174" flag="0"/>
      <psa30 value="0.0049855968" flag="0"/>
    </comp>
    <comp name="--.HHZ">
      <acc value="0.1211056269" flag="0"/>
      <vel value="0.0596140454" flag="0"/>
      <psa03 value="0.4106303965" flag="0"/>
      <psa10 value="0.0613422530" flag="0"/>
      <psa30 value="0.0050247425" flag="0"/>
    </comp>
  </station>
  <station code="NISR" name="NISR" netid="HL" insttype="65535" lat="36.6106" lon="27.131">
    <comp name="--.HHE">
      <acc value="0.0000000000" flag="0"/>
      <vel value="-100.0000000000" flag="0"/>
      <psa03 value="0.0000000000" flag="0"/>
      <psa10 value="0.0000000000" flag="0"/>
      <psa30 value="0.0000000000" flag="0"/>
    </comp>
    <comp name="--.HHZ">
      <acc value="0.0255717645" flag="0"/>
      <vel value="0.0117396673" flag="0"/>
      <psa03 value="0.0447120910" flag="0"/>
      <psa10 value="0.0128644724" flag="0"/>
      <psa30 value="0.0012311433" flag="0"/>
    </comp>
  </station>
  <station code="NISR2" name="NISR2" netid="HL" insttype="120" lat="36.5744" lon="27.1767">
    <comp name="--.HHN">
      <acc value="0.0641970932" flag="0"/>
      <vel value="0.0512857629" flag="0"/>
      <psa03 value="0.1847867234" flag="0"/>
      <psa10 value="0.0870069894" flag="0"/>
      <psa30 value="0.0050777663" flag="0"/>
    </comp>
    <comp name="--.HHE">
      <acc value="0.0566299631" flag="0"/>
      <vel value="0.0478932212" flag="0"/>
      <psa03 value="0.1423857970" flag="0"/>
      <psa10 value="0.0771386096" flag="0"/>
      <psa30 value="0.0040144302" flag="0"/>
    </comp>
    <comp name="--.HHZ">
      <acc value="0.0240759469" flag="0"/>
      <vel value="0.0154634987" flag="0"/>
      <psa03 value="0.0514609217" flag="0"/>
      <psa10 value="0.0154895989" flag="0"/>
      <psa30 value="0.0016053845" flag="0"/>
    </comp>
  </station>
  <station code="NPS" name="NPS" netid="HL" insttype="CMG3ESPC-120s" lat="35.2613" lon="25.6104">
    <comp name="--.HHN">
      <acc value="0.0559307771" flag="0"/>
      <vel value="0.0224437960" flag="0"/>
      <psa03 value="0.1178566025" flag="0"/>
      <psa10 value="0.0143532646" flag="0"/>
      <psa30 value="0.0010766847" flag="0"/>
    </comp>
    <comp name="--.HHZ">
      <acc value="0.0294858607" flag="0"/>
      <vel value="0.0139749536" flag="0"/>
      <psa03 value="0.0776584955" flag="0"/>
      <psa10 value="0.0112600978" flag="0"/>
      <psa30 value="0.0015844093" flag="0"/>
    </comp>
  </station>
  <station code="SAP3" name="SAP3" netid="HL" insttype="LE3D20_SMART24" lat="36.4356" lon="25.3454">
    <comp name="--.HHE">
      <acc value="0.9190508696" flag="0"/>
      <vel value="0.2347511670" flag="0"/>
      <psa03 value="0.9792056717" flag="0"/>
      <psa10 value="0.1552750905" flag="0"/>
      <psa30 value="0.0331677908" flag="0"/>
    </comp>
    <comp name="--.HHN">
      <acc value="0.9260533675" flag="0"/>
      <vel value="0.2296662269" flag="0"/>
      <psa03 value="1.0163656864" flag="0"/>
      <psa10 value="0.2279814054" flag="0"/>
      <psa30 value="0.0343616142" flag="0"/>
    </comp>
    <comp name="--.HHZ">
      <acc value="0.7352636662" flag="0"/>
      <vel value="0.1718857335" flag="0"/>
      <psa03 value="0.8073275140" flag="0"/>
      <psa10 value="0.0895797262" flag="0"/>
      <psa30 value="0.0164441567" flag="0"/>
    </comp>
  </station>
  <station code="THERA" name="THERA" netid="HL" insttype="120" lat="36.367" lon="25.4753">
    <comp name="--.HHN">
      <acc value="0.2108586508" flag="0"/>
      <vel value="0.0475005016" flag="0"/>
      <psa03 value="0.2248547484" flag="0"/>
      <psa10 value="0.0254707254" flag="0"/>
      <psa30 value="0.0016885922" flag="0"/>
    </comp>
    <comp name="--.HHZ">
      <acc value="0.2429102528" flag="0"/>
      <vel value="0.0422523803" flag="0"/>
      <psa03 value="0.1375709986" flag="0"/>
      <psa10 value="0.0224023002" flag="0"/>
      <psa30 value="0.0030835304" flag="0"/>
    </comp>
  </station>
  <station code="THRA" name="THRA" netid="HL" insttype="CMG-5" lat="36.415" lon="25.4324">
    <comp name="00.HNN">
      <acc value="0.8775027171" flag="0"/>
      <vel value="0.2055148790" flag="0"/>
      <psa03 value="0.7166677675" flag="0"/>
      <psa10 value="0.1897946205" flag="0"/>
      <psa30 value="0.0099800337" flag="0"/>
    </comp>
    <comp name="00.HNZ">
      <acc value="0.5580503563" flag="0"/>
      <vel value="0.1399864931" flag="0"/>
      <psa03 value="0.8785468191" flag="0"/>
      <psa10 value="0.0773132586" flag="0"/>
      <psa30 value="0.0063602612" flag="0"/>
    </comp>
  </station>
  <station code="TNSA" name="TNSA" netid="HL" insttype="CMG-5" lat="37.5394" lon="25.1631">
    <comp name="00.HNZ">
      <acc value="0.0643306992" flag="0"/>
      <vel value="0.0210137937" flag="0"/>
      <psa03 value="0.1180479039" flag="0"/>
      <psa10 value="0.0240438575" flag="0"/>
      <psa30 value="0.0028394593" flag="0"/>
    </comp>
    <comp name="00.HNE">
      <acc value="0.0710071480" flag="0"/>
      <vel value="0.0236910669" flag="0"/>
      <psa03 value="0.1025940161" flag="0"/>
      <psa10 value="0.0141925621" flag="0"/>
      <psa30 value="0.0013572459" flag="0"/>
    </comp>
    <comp name="00.HNN">
      <acc value="0.1067738558" flag="0"/>
      <vel value="0.0289006629" flag="0"/>
      <psa03 value="0.1093316445" flag="0"/>
      <psa10 value="0.0166015613" flag="0"/>
      <psa30 value="0.0021232427" flag="0"/>
    </comp>
  </station>
  <station code="CMBO" name="CMBO" netid="HT" insttype="120P," lat="36.4709" lon="25.4056">
    <comp name="--.HHE">
      <acc value="0.9754976410" flag="0"/>
      <vel value="0.2365437479" flag="0"/>
      <psa03 value="1.1645592602" flag="0"/>
      <psa10 value="0.2168065974" flag="0"/>
      <psa30 value="0.0132240651" flag="0"/>
    </comp>
    <comp name="--.HHN">
      <acc value="1.0123335995" flag="0"/>
      <vel value="0.3051234791" flag="0"/>
      <psa03 value="1.3038902536" flag="0"/>
      <psa10 value="0.2600178824" flag="0"/>
      <psa30 value="0.0193816031" flag="0"/>
    </comp>
    <comp name="--.HHZ">
      <acc value="0.7645952948" flag="0"/>
      <vel value="0.2126152871" flag="0"/>
      <psa03 value="1.2935452795" flag="0"/>
      <psa10 value="0.0769525691" flag="0"/>
      <psa30 value="0.0111621117" flag="0"/>
    </comp>
  </station>
</stationlist>
