<?xml version="1.0" encoding="UTF-8" standalone="yes"?>
<!DOCTYPE earthquake SYSTEM "stationlist.dtd">
<stationlist created="" xmlns="ch.ethz.sed.shakemap.usgs.xml">
  <station code="APE" name="APE" netid="GE" insttype="STS-2/N" lat="37.0727" lon="25.523">
    <comp name="--.HHE">
      <acc value="0.3548807772" flag="0"/>
      <vel value="0.0495056283" flag="0"/>
      <psa03 value="0.1746230353" flag="0"/>
      <psa10 value="0.0224137583" flag="0"/>
      <psa30 value="0.0062310535" flag="0"/>
    </comp>
    <comp name="--.HHZ">
      <acc value="0.1673796782" flag="0"/>
      <vel value="0.0293672000" flag="0"/>
      <psa03 value="0.1364483128" flag="0"/>
      <psa10 value="0.0224391212" flag="0"/>
      <psa30 value="0.0065789686" flag="0"/>
    </comp>
    <comp name="--.HHN">
      <acc value="0.2913056352" flag="0"/>
      <vel value="0.0653433099" flag="0"/>
      <psa03 value="0.2581679818" flag="0"/>
      <psa10 value="0.0289711938" flag="0"/>
      <psa30 value="0.0065670204" flag="0"/>
    </comp>
  </station>
  <station code="THERA" name="THERA" netid="GE" insttype="STS-2/N" lat="36.367" lon="25.4753">
    <comp name="--.HHE">
      <acc value="0.3515309877" flag="0"/>
      <vel value="0.0632085754" flag="0"/>
      <psa03 value="0.3684973800" flag="0"/>
      <psa10 value="0.0326015920" flag="0"/>
      <psa30 value="0.0039218623" flag="0"/>
    </comp>
    <comp name="--.HHN">
      <acc value="0.2151163144" flag="0"/>
      <vel value="0.0482385889" flag="0"/>
      <psa03 value="0.2319498991" flag="0"/>
      <psa10 value="0.0256807963" flag="0"/>
      <psa30 value="0.0016939204" flag="0"/>
    </comp>
    <comp name="--.HHZ">
      <acc value="0.2485805096" flag="0"/>
      <vel value="0.0424255473" flag="0"/>
      <psa03 value="0.1420445412" flag="0"/>
      <psa10 value="0.0225981405" flag="0"/>
      <psa30 value="0.0030904151" flag="0"/>
    </comp>
  </station>
</stationlist>
