<?xml version="1.0" encoding="UTF-8" standalone="yes"?>
<!DOCTYPE earthquake SYSTEM "stationlist.dtd">
<stationlist created="" xmlns="ch.ethz.sed.shakemap.usgs.xml">
  <station code="PLG" name="PLG" netid="HL" insttype="120" lat="40.3733" lon="23.4444">
    <comp name="--.HHZ">
      <acc value="0.2649978051" flag="0"/>
      <vel value="0.0601930455" flag="0"/>
      <psa03 value="0.1935572429" flag="0"/>
      <psa10 value="0.0408422829" flag="0"/>
      <psa30 value="0.0044405035" flag="0"/>
    </comp>
    <comp name="--.HHE">
      <acc value="0.2663903014" flag="0"/>
      <vel value="0.0889408930" flag="0"/>
      <psa03 value="0.4571911952" flag="0"/>
      <psa10 value="0.0530865469" flag="0"/>
      <psa30 value="0.0033693358" flag="0"/>
    </comp>
    <comp name="--.HHN">
      <acc value="0.2169193498" flag="0"/>
      <vel value="0.0582286928" flag="0"/>
      <psa03 value="0.2010861911" flag="0"/>
      <psa10 value="0.0335349512" flag="0"/>
      <psa30 value="0.0039130466" flag="0"/>
    </comp>
  </station>
</stationlist>
