<?xml version="1.0" encoding="UTF-8" standalone="yes"?>
<!DOCTYPE earthquake SYSTEM "stationlist.dtd">
<stationlist created="" xmlns="ch.ethz.sed.shakemap.usgs.xml">
  <station code="TASB" name="TASB" netid="KO" insttype="120s," lat="39.9839" lon="44.2384">
    <comp name="--.HHE">
      <acc value="0.0079803182" flag="0"/>
      <vel value="0.0032438658" flag="0"/>
      <psa03 value="0.0176720564" flag="0"/>
      <psa10 value="0.0034035101" flag="0"/>
      <psa30 value="0.0008776604" flag="0"/>
    </comp>
    <comp name="--.HHZ">
      <acc value="0.0071921434" flag="0"/>
      <vel value="0.0019369971" flag="0"/>
      <psa03 value="0.0079760922" flag="0"/>
      <psa10 value="0.0020666958" flag="0"/>
      <psa30 value="0.0004972155" flag="0"/>
    </comp>
  </station>
</stationlist>
