<?xml version="1.0" encoding="UTF-8" standalone="yes"?>
<!DOCTYPE earthquake SYSTEM "stationlist.dtd">
<stationlist created="" xmlns="ch.ethz.sed.shakemap.usgs.xml">
  <station code="ARPRA" name="ARPRA" netid="KO" insttype="CMG-5T" lat="39.0929" lon="38.3356">
    <comp name="--.HNZ">
      <acc value="0.0348398698" flag="0"/>
      <vel value="0.0151941956" flag="0"/>
      <psa03 value="0.0778794582" flag="0"/>
      <psa10 value="0.0210030425" flag="0"/>
      <psa30 value="0.0012991784" flag="0"/>
    </comp>
    <comp name="--.HNE">
      <acc value="0.0581870075" flag="0"/>
      <vel value="0.0357144472" flag="0"/>
      <psa03 value="0.1486691596" flag="0"/>
      <psa10 value="0.0293463336" flag="0"/>
      <psa30 value="0.0034120758" flag="0"/>
    </comp>
    <comp name="--.HNN">
      <acc value="0.0517932580" flag="0"/>
      <vel value="0.0294001092" flag="0"/>
      <psa03 value="0.1781037557" flag="0"/>
      <psa10 value="0.0364987257" flag="0"/>
      <psa30 value="0.0019114761" flag="0"/>
    </comp>
  </station>
  <station code="DARE" name="DARE" netid="KO" insttype="CMG-3ESP" lat="38.5712" lon="37.4832">
    <comp name="--.HHZ">
      <acc value="0.0897449485" flag="0"/>
      <vel value="0.0375982364" flag="0"/>
      <psa03 value="0.2288197533" flag="0"/>
      <psa10 value="0.0278377930" flag="0"/>
      <psa30 value="0.0023555553" flag="0"/>
    </comp>
    <comp name="--.HHN">
      <acc value="0.0922164954" flag="0"/>
      <vel value="0.0452482817" flag="0"/>
      <psa03 value="0.2064126905" flag="0"/>
      <psa10 value="0.0362355105" flag="0"/>
      <psa30 value="0.0016422828" flag="0"/>
    </comp>
    <comp name="--.HHE">
      <acc value="0.1120927741" flag="0"/>
      <vel value="0.0571128474" flag="0"/>
      <psa03 value="0.3045433431" flag="0"/>
      <psa10 value="0.0591029919" flag="0"/>
      <psa30 value="0.0037630726" flag="0"/>
    </comp>
  </station>
  <station code="GAZ" name="GAZ" netid="KO" insttype="CMG-3T" lat="37.1721" lon="37.2096">
    <comp name="--.HHN">
      <acc value="0.0318506071" flag="0"/>
      <vel value="0.0134290539" flag="0"/>
      <psa03 value="0.0966941996" flag="0"/>
      <psa10 value="0.0125613508" flag="0"/>
      <psa30 value="0.0012849222" flag="0"/>
    </comp>
    <comp name="--.HHZ">
      <acc value="0.0219484982" flag="0"/>
      <vel value="0.0115099036" flag="0"/>
      <psa03 value="0.0681191483" flag="0"/>
      <psa10 value="0.0110378482" flag="0"/>
      <psa30 value="0.0016809997" flag="0"/>
    </comp>
    <comp name="--.HHE">
      <acc value="0.0332958204" flag="0"/>
      <vel value="0.0248305930" flag="0"/>
      <psa03 value="0.0784579868" flag="0"/>
      <psa10 value="0.0193933147" flag="0"/>
      <psa30 value="0.0018869552" flag="0"/>
    </comp>
  </station>
  <station code="KHMN" name="KHMN" netid="KO" insttype="CMG-5T" lat="37.3916" lon="37.1574">
    <comp name="--.HNE">
      <acc value="0.0370523167" flag="0"/>
      <vel value="0.0143966489" flag="0"/>
      <psa03 value="0.0854984698" flag="0"/>
      <psa10 value="0.0139512464" flag="0"/>
      <psa30 value="0.0015913489" flag="0"/>
    </comp>
    <comp name="--.HNN">
      <acc value="0.0511181647" flag="0"/>
      <vel value="0.0158668464" flag="0"/>
      <psa03 value="0.1278031499" flag="0"/>
      <psa10 value="0.0096271752" flag="0"/>
      <psa30 value="0.0011563640" flag="0"/>
    </comp>
    <comp name="--.HNZ">
      <acc value="0.0372839614" flag="0"/>
      <vel value="0.0143676967" flag="0"/>
      <psa03 value="0.0585474938" flag="0"/>
      <psa10 value="0.0105684581" flag="0"/>
      <psa30 value="0.0026528805" flag="0"/>
    </comp>
  </station>
  <station code="KMRS" name="KMRS" netid="KO" insttype="CMG-3T" lat="37.5087" lon="36.9">
    <comp name="--.HHE">
      <acc value="0.0328765602" flag="0"/>
      <vel value="0.0211355095" flag="0"/>
      <psa03 value="0.0951994833" flag="0"/>
      <psa10 value="0.0184096579" flag="0"/>
      <psa30 value="0.0013354724" flag="0"/>
    </comp>
    <comp name="--.HHZ">
      <acc value="0.0299626343" flag="0"/>
      <vel value="0.0155864602" flag="0"/>
      <psa03 value="0.0556150476" flag="0"/>
      <psa10 value="0.0113623807" flag="0"/>
      <psa30 value="0.0010666888" flag="0"/>
    </comp>
    <comp name="--.HHN">
      <acc value="0.0489278176" flag="0"/>
      <vel value="0.0292746204" flag="0"/>
      <psa03 value="0.1113148013" flag="0"/>
      <psa10 value="0.0208979444" flag="0"/>
      <psa30 value="0.0024552567" flag="0"/>
    </comp>
  </station>
  <station code="SARI" name="SARI" netid="KO" insttype="CMG-3T" lat="38.4072" lon="36.4181">
    <comp name="--.HHN">
      <acc value="0.0162871127" flag="0"/>
      <vel value="0.0136098691" flag="0"/>
      <psa03 value="0.0480546429" flag="0"/>
      <psa10 value="0.0169989273" flag="0"/>
      <psa30 value="0.0010504384" flag="0"/>
    </comp>
    <comp name="--.HHE">
      <acc value="0.0253671685" flag="0"/>
      <vel value="0.0148379150" flag="0"/>
      <psa03 value="0.1009492657" flag="0"/>
      <psa10 value="0.0164969148" flag="0"/>
      <psa30 value="0.0009374883" flag="0"/>
    </comp>
    <comp name="--.HHZ">
      <acc value="0.0153373582" flag="0"/>
      <vel value="0.0126236891" flag="0"/>
      <psa03 value="0.0356030390" flag="0"/>
      <psa10 value="0.0212414053" flag="0"/>
      <psa30 value="0.0008216521" flag="0"/>
    </comp>
  </station>
  <station code="URFA" name="URFA" netid="KO" insttype="CMG-3ESP" lat="37.4409" lon="38.8213">
    <comp name="--.HHZ">
      <acc value="0.0769000717" flag="0"/>
      <vel value="0.0281488061" flag="0"/>
      <psa03 value="0.1509304885" flag="0"/>
      <psa10 value="0.0260932850" flag="0"/>
      <psa30 value="0.0016342420" flag="0"/>
    </comp>
    <comp name="--.HHN">
      <acc value="0.0738216230" flag="0"/>
      <vel value="0.0529306493" flag="0"/>
      <psa03 value="0.1437274593" flag="0"/>
      <psa10 value="0.0877738549" flag="0"/>
      <psa30 value="0.0025418226" flag="0"/>
    </comp>
    <comp name="--.HHE">
      <acc value="0.1092895439" flag="0"/>
      <vel value="0.0366584048" flag="0"/>
      <psa03 value="0.1235351466" flag="0"/>
      <psa10 value="0.0426062182" flag="0"/>
      <psa30 value="0.0041167600" flag="0"/>
    </comp>
  </station>
</stationlist>
