<stationlist created="1712136676">
	<station code="ARPRA" name="ARPRA" netid="KO" source="Bogazici University Kandilli Observatory And Earthquake Research Institute (KOERI)" insttype="" lat="39.0929" lon="38.3356">
		<comp name=".HNE" depth="0.0">
			<acc value="0.058065951664758" flag="0"/>
			<vel value="0.0363073452941" flag="0"/>
			<psa03 value="0.151840621196067" flag="0"/>
			<psa10 value="0.0294717023556286" flag="0"/>
			<psa30 value="0.00356137509028644" flag="0"/>
		</comp>
		<comp name=".HNN" depth="0.0">
			<acc value="0.051862671133464" flag="0"/>
			<vel value="0.0299452704875" flag="0"/>
			<psa03 value="0.180798393672838" flag="0"/>
			<psa10 value="0.036594635465004" flag="0"/>
			<psa30 value="0.00198356015112553" flag="0"/>
		</comp>
		<comp name=".HNZ" depth="0.0">
			<acc value="0.034853390121198" flag="0"/>
			<vel value="0.0155008173235" flag="0"/>
			<psa03 value="0.0762996326013867" flag="0"/>
			<psa10 value="0.0210327508165359" flag="0"/>
			<psa30 value="0.00143787400209779" flag="0"/>
		</comp>
	</station>
</stationlist>
