<?xml version="1.0" encoding="UTF-8" standalone="yes"?>
<!DOCTYPE earthquake SYSTEM "stationlist.dtd">
<stationlist created="" xmlns="ch.ethz.sed.shakemap.usgs.xml">
  <station code="ARPRA" name="ARPRA" netid="KO" insttype="CMG-5T" lat="39.0929" lon="38.3356">
    <comp name="--.HNN">
      <acc value="0.0517932617" flag="0"/>
      <vel value="0.0294000932" flag="0"/>
      <psa03 value="0.1781037557" flag="0"/>
      <psa10 value="0.0364987257" flag="0"/>
      <psa30 value="0.0019108086" flag="0"/>
    </comp>
    <comp name="--.HNE">
      <acc value="0.0581870018" flag="0"/>
      <vel value="0.0357144645" flag="0"/>
      <psa03 value="0.1486691596" flag="0"/>
      <psa10 value="0.0293463337" flag="0"/>
      <psa30 value="0.0034120604" flag="0"/>
    </comp>
    <comp name="--.HNZ">
      <acc value="0.0348398658" flag="0"/>
      <vel value="0.0151941871" flag="0"/>
      <psa03 value="0.0778794582" flag="0"/>
      <psa10 value="0.0210030425" flag="0"/>
      <psa30 value="0.0012991570" flag="0"/>
    </comp>
  </station>
  <station code="DARE" name="DARE" netid="KO" insttype="CMG-3ESP" lat="38.5712" lon="37.4832">
    <comp name="--.HHE">
      <acc value="0.1120927742" flag="0"/>
      <vel value="0.0571128469" flag="0"/>
      <psa03 value="0.3045433431" flag="0"/>
      <psa10 value="0.0591029919" flag="0"/>
      <psa30 value="0.0037631263" flag="0"/>
    </comp>
    <comp name="--.HHN">
      <acc value="0.0922164954" flag="0"/>
      <vel value="0.0452482818" flag="0"/>
      <psa03 value="0.2064126905" flag="0"/>
      <psa10 value="0.0362355105" flag="0"/>
      <psa30 value="0.0016422719" flag="0"/>
    </comp>
    <comp name="--.HHZ">
      <acc value="0.0897449483" flag="0"/>
      <vel value="0.0375982375" flag="0"/>
      <psa03 value="0.2288197533" flag="0"/>
      <psa10 value="0.0278377929" flag="0"/>
      <psa30 value="0.0023554637" flag="0"/>
    </comp>
  </station>
  <station code="GAZ" name="GAZ" netid="KO" insttype="CMG-3T" lat="37.1721" lon="37.2096">
    <comp name="--.HHE">
      <acc value="0.0332958201" flag="0"/>
      <vel value="0.0248305906" flag="0"/>
      <psa03 value="0.0784579868" flag="0"/>
      <psa10 value="0.0193933147" flag="0"/>
      <psa30 value="0.0018869579" flag="0"/>
    </comp>
    <comp name="--.HHZ">
      <acc value="0.0219484987" flag="0"/>
      <vel value="0.0115099027" flag="0"/>
      <psa03 value="0.0681191483" flag="0"/>
      <psa10 value="0.0110378485" flag="0"/>
      <psa30 value="0.0016809992" flag="0"/>
    </comp>
    <comp name="--.HHN">
      <acc value="0.0318506073" flag="0"/>
      <vel value="0.0134290527" flag="0"/>
      <psa03 value="0.0966941996" flag="0"/>
      <psa10 value="0.0125613508" flag="0"/>
      <psa30 value="0.0012849153" flag="0"/>
    </comp>
  </station>
  <station code="KHMN" name="KHMN" netid="KO" insttype="CMG-5T" lat="37.3916" lon="37.1574">
    <comp name="--.HNE">
      <acc value="0.0370523285" flag="0"/>
      <vel value="0.0143966677" flag="0"/>
      <psa03 value="0.0854984698" flag="0"/>
      <psa10 value="0.0139512464" flag="0"/>
      <psa30 value="0.0015912214" flag="0"/>
    </comp>
    <comp name="--.HNN">
      <acc value="0.0511181733" flag="0"/>
      <vel value="0.0158668726" flag="0"/>
      <psa03 value="0.1278031499" flag="0"/>
      <psa10 value="0.0096271751" flag="0"/>
      <psa30 value="0.0011567080" flag="0"/>
    </comp>
    <comp name="--.HNZ">
      <acc value="0.0372840718" flag="0"/>
      <vel value="0.0143677024" flag="0"/>
      <psa03 value="0.0585474938" flag="0"/>
      <psa10 value="0.0105685931" flag="0"/>
      <psa30 value="0.0026529907" flag="0"/>
    </comp>
  </station>
  <station code="KMRS" name="KMRS" netid="KO" insttype="CMG-3T" lat="37.5087" lon="36.9">
    <comp name="--.HHE">
      <acc value="0.0328765604" flag="0"/>
      <vel value="0.0211355096" flag="0"/>
      <psa03 value="0.0951994833" flag="0"/>
      <psa10 value="0.0184096580" flag="0"/>
      <psa30 value="0.0013354485" flag="0"/>
    </comp>
    <comp name="--.HHN">
      <acc value="0.0489278177" flag="0"/>
      <vel value="0.0292746202" flag="0"/>
      <psa03 value="0.1113148013" flag="0"/>
      <psa10 value="0.0208979445" flag="0"/>
      <psa30 value="0.0024552488" flag="0"/>
    </comp>
    <comp name="--.HHZ">
      <acc value="0.0299626343" flag="0"/>
      <vel value="0.0155864601" flag="0"/>
      <psa03 value="0.0556150476" flag="0"/>
      <psa10 value="0.0113623821" flag="0"/>
      <psa30 value="0.0010666965" flag="0"/>
    </comp>
  </station>
  <station code="SARI" name="SARI" netid="KO" insttype="CMG-3T" lat="38.4072" lon="36.4181">
    <comp name="--.HHE">
      <acc value="0.0253671684" flag="0"/>
      <vel value="0.0148379102" flag="0"/>
      <psa03 value="0.1009492657" flag="0"/>
      <psa10 value="0.0164969147" flag="0"/>
      <psa30 value="0.0009375145" flag="0"/>
    </comp>
    <comp name="--.HHN">
      <acc value="0.0162871127" flag="0"/>
      <vel value="0.0136098687" flag="0"/>
      <psa03 value="0.0480546429" flag="0"/>
      <psa10 value="0.0169989273" flag="0"/>
      <psa30 value="0.0010503856" flag="0"/>
    </comp>
    <comp name="--.HHZ">
      <acc value="0.0153373583" flag="0"/>
      <vel value="0.0126236896" flag="0"/>
      <psa03 value="0.0356030390" flag="0"/>
      <psa10 value="0.0212414053" flag="0"/>
      <psa30 value="0.0008216783" flag="0"/>
    </comp>
  </station>
  <station code="URFA" name="URFA" netid="KO" insttype="CMG-3ESP" lat="37.4409" lon="38.8213">
    <comp name="--.HHE">
      <acc value="0.1092895438" flag="0"/>
      <vel value="0.0366584039" flag="0"/>
      <psa03 value="0.1235351466" flag="0"/>
      <psa10 value="0.0426062182" flag="0"/>
      <psa30 value="0.0041167612" flag="0"/>
    </comp>
    <comp name="--.HHZ">
      <acc value="0.0769000717" flag="0"/>
      <vel value="0.0281488058" flag="0"/>
      <psa03 value="0.1509304885" flag="0"/>
      <psa10 value="0.0260932850" flag="0"/>
      <psa30 value="0.0016342356" flag="0"/>
    </comp>
    <comp name="--.HHN">
      <acc value="0.0738216230" flag="0"/>
      <vel value="0.0529306488" flag="0"/>
      <psa03 value="0.1437274593" flag="0"/>
      <psa10 value="0.0877738549" flag="0"/>
      <psa30 value="0.0025418393" flag="0"/>
    </comp>
  </station>
</stationlist>
