<?xml version="1.0" encoding="UTF-8" standalone="yes"?>
<!DOCTYPE earthquake SYSTEM "stationlist.dtd">
<stationlist created="" xmlns="ch.ethz.sed.shakemap.usgs.xml">
  <station code="MYT1" name="MYT1" netid="HI" insttype="CMG-5TD,ACCELEROMETER,GURALP" lat="39.085" lon="26.5694">
    <comp name="--.HNE">
      <acc value="0.0655982597" flag="0"/>
      <vel value="0.0214875978" flag="0"/>
      <psa03 value="0.1227828342" flag="0"/>
      <psa10 value="0.0115826077" flag="0"/>
      <psa30 value="0.0009153260" flag="0"/>
    </comp>
    <comp name="--.HNZ">
      <acc value="0.0540932082" flag="0"/>
      <vel value="0.0136207457" flag="0"/>
      <psa03 value="0.0652290985" flag="0"/>
      <psa10 value="0.0149299007" flag="0"/>
      <psa30 value="0.0011078430" flag="0"/>
    </comp>
    <comp name="--.HNN">
      <acc value="0.0558594483" flag="0"/>
      <vel value="0.0169686439" flag="0"/>
      <psa03 value="0.0828853183" flag="0"/>
      <psa10 value="0.0161391066" flag="0"/>
      <psa30 value="0.0009466286" flag="0"/>
    </comp>
  </station>
  <station code="LIA" name="LIA" netid="HL" insttype="P6C" lat="39.8972" lon="25.1806">
    <comp name="--.HHN">
      <acc value="0.0150475438" flag="0"/>
      <vel value="0.0058836573" flag="0"/>
      <psa03 value="0.0375600508" flag="0"/>
      <psa10 value="0.0016171166" flag="0"/>
      <psa30 value="0.0001532167" flag="0"/>
    </comp>
    <comp name="--.HHZ">
      <acc value="0.0084658395" flag="0"/>
      <vel value="0.0024027412" flag="0"/>
      <psa03 value="0.0124840128" flag="0"/>
      <psa10 value="0.0011954655" flag="0"/>
      <psa30 value="0.0001262912" flag="0"/>
    </comp>
    <comp name="--.HHE">
      <acc value="0.0113727063" flag="0"/>
      <vel value="0.0035555338" flag="0"/>
      <psa03 value="0.0238944895" flag="0"/>
      <psa10 value="0.0019943265" flag="0"/>
      <psa30 value="0.0001921561" flag="0"/>
    </comp>
  </station>
  <station code="PRK" name="PRK" netid="HL" insttype="120" lat="39.2456" lon="26.265">
    <comp name="--.HHN">
      <acc value="0.4175145299" flag="0"/>
      <vel value="0.1561388673" flag="0"/>
      <psa03 value="1.0237140721" flag="0"/>
      <psa10 value="0.0847681371" flag="0"/>
      <psa30 value="0.0078867994" flag="0"/>
    </comp>
    <comp name="--.HHE">
      <acc value="0.3783218292" flag="0"/>
      <vel value="0.1147958913" flag="0"/>
      <psa03 value="0.4570739947" flag="0"/>
      <psa10 value="0.0513993491" flag="0"/>
      <psa30 value="0.0027531970" flag="0"/>
    </comp>
    <comp name="--.HHZ">
      <acc value="0.3129527567" flag="0"/>
      <vel value="0.0762264883" flag="0"/>
      <psa03 value="0.4844117536" flag="0"/>
      <psa10 value="0.0340378458" flag="0"/>
      <psa30 value="0.0024452512" flag="0"/>
    </comp>
  </station>
  <station code="SIGR" name="SIGR" netid="HT" insttype="100" lat="39.2114" lon="25.8553">
    <comp name="--.HHE">
      <acc value="0.1365084295" flag="0"/>
      <vel value="0.0450319676" flag="0"/>
      <psa03 value="0.1870491451" flag="0"/>
      <psa10 value="0.0165034800" flag="0"/>
      <psa30 value="0.0008780872" flag="0"/>
    </comp>
    <comp name="--.HHN">
      <acc value="0.1243798616" flag="0"/>
      <vel value="0.0598040431" flag="0"/>
      <psa03 value="0.2889380239" flag="0"/>
      <psa10 value="0.0286291050" flag="0"/>
      <psa30 value="0.0027037832" flag="0"/>
    </comp>
    <comp name="--.HHZ">
      <acc value="0.0845893017" flag="0"/>
      <vel value="0.0260594503" flag="0"/>
      <psa03 value="0.0952386664" flag="0"/>
      <psa10 value="0.0107845507" flag="0"/>
      <psa30 value="0.0009880627" flag="0"/>
    </comp>
  </station>
  <station code="CANM" name="CANM" netid="KO" insttype="CMG-5T" lat="40.0113" lon="27.0529">
    <comp name="--.HNE">
      <acc value="0.0337942783" flag="0"/>
      <vel value="0.0109143014" flag="0"/>
      <psa03 value="0.0514153679" flag="0"/>
      <psa10 value="0.0074433487" flag="0"/>
      <psa30 value="0.0004913571" flag="0"/>
    </comp>
    <comp name="--.HNN">
      <acc value="0.0721111077" flag="0"/>
      <vel value="0.0206170735" flag="0"/>
      <psa03 value="0.0770323798" flag="0"/>
      <psa10 value="0.0102855688" flag="0"/>
      <psa30 value="0.0004231455" flag="0"/>
    </comp>
    <comp name="--.HNZ">
      <acc value="0.0325160418" flag="0"/>
      <vel value="0.0129196407" flag="0"/>
      <psa03 value="0.0483573740" flag="0"/>
      <psa10 value="0.0045208838" flag="0"/>
      <psa30 value="0.0002183248" flag="0"/>
    </comp>
  </station>
  <station code="EZN" name="EZN" netid="KO" insttype="120s," lat="39.8255" lon="26.3247">
    <comp name="--.HHE">
      <acc value="0.0947963226" flag="0"/>
      <vel value="0.0133844781" flag="0"/>
      <psa03 value="0.0399999910" flag="0"/>
      <psa10 value="0.0044249955" flag="0"/>
      <psa30 value="0.0003313620" flag="0"/>
    </comp>
    <comp name="--.HHZ">
      <acc value="0.0482239358" flag="0"/>
      <vel value="0.0095291893" flag="0"/>
      <psa03 value="0.0348007539" flag="0"/>
      <psa10 value="0.0048995056" flag="0"/>
      <psa30 value="0.0002386838" flag="0"/>
    </comp>
    <comp name="--.HHN">
      <acc value="0.0962017091" flag="0"/>
      <vel value="0.0110760785" flag="0"/>
      <psa03 value="0.0345393877" flag="0"/>
      <psa10 value="0.0069637398" flag="0"/>
      <psa30 value="0.0002983228" flag="0"/>
    </comp>
  </station>
  <station code="EZNE" name="EZNE" netid="KO" insttype="CMG-5T" lat="39.756" lon="26.3655">
    <comp name="--.HNN">
      <acc value="0.0919603807" flag="0"/>
      <vel value="0.0330457543" flag="0"/>
      <psa03 value="0.1614912093" flag="0"/>
      <psa10 value="0.0097904309" flag="0"/>
      <psa30 value="0.0008366649" flag="0"/>
    </comp>
    <comp name="--.HNE">
      <acc value="0.0773608483" flag="0"/>
      <vel value="0.0172262358" flag="0"/>
      <psa03 value="0.0635674102" flag="0"/>
      <psa10 value="0.0066203441" flag="0"/>
      <psa30 value="0.0006457239" flag="0"/>
    </comp>
    <comp name="--.HNZ">
      <acc value="0.1132555903" flag="0"/>
      <vel value="0.0330266941" flag="0"/>
      <psa03 value="0.1023405589" flag="0"/>
      <psa10 value="0.0070707235" flag="0"/>
      <psa30 value="0.0007415636" flag="0"/>
    </comp>
  </station>
  <station code="FOCM" name="FOCM" netid="KO" insttype="CMG-5T" lat="38.7131" lon="26.7309">
    <comp name="--.HNN">
      <acc value="0.0489532420" flag="0"/>
      <vel value="0.0239212611" flag="0"/>
      <psa03 value="0.1448100791" flag="0"/>
      <psa10 value="0.0101811482" flag="0"/>
      <psa30 value="0.0007877611" flag="0"/>
    </comp>
    <comp name="--.HNZ">
      <acc value="0.0404211341" flag="0"/>
      <vel value="0.0114988184" flag="0"/>
      <psa03 value="0.0566117629" flag="0"/>
      <psa10 value="0.0023717953" flag="0"/>
      <psa30 value="0.0002998841" flag="0"/>
    </comp>
    <comp name="--.HNE">
      <acc value="0.0580859817" flag="0"/>
      <vel value="0.0204542380" flag="0"/>
      <psa03 value="0.1177291971" flag="0"/>
      <psa10 value="0.0107042429" flag="0"/>
      <psa30 value="0.0005347926" flag="0"/>
    </comp>
  </station>
  <station code="GELI" name="GELI" netid="KO" insttype="30s," lat="40.398" lon="26.4742">
    <comp name="--.HHE">
      <acc value="0.0093730004" flag="0"/>
      <vel value="0.0042556938" flag="0"/>
      <psa03 value="0.0199542483" flag="0"/>
      <psa10 value="0.0039667627" flag="0"/>
      <psa30 value="0.0002171169" flag="0"/>
    </comp>
    <comp name="--.HHN">
      <acc value="0.0088321274" flag="0"/>
      <vel value="0.0037770743" flag="0"/>
      <psa03 value="0.0244274984" flag="0"/>
      <psa10 value="0.0031341222" flag="0"/>
      <psa30 value="0.0001295978" flag="0"/>
    </comp>
    <comp name="--.HHZ">
      <acc value="0.0087430039" flag="0"/>
      <vel value="0.0030039422" flag="0"/>
      <psa03 value="0.0210697593" flag="0"/>
      <psa10 value="0.0017088878" flag="0"/>
      <psa30 value="0.0001100076" flag="0"/>
    </comp>
  </station>
  <station code="GPNR" name="GPNR" netid="KO" insttype="CMG-5T" lat="39.456" lon="26.1331">
    <comp name="--.HNE">
      <acc value="0.9906759492" flag="0"/>
      <vel value="0.3789497835" flag="0"/>
      <psa03 value="1.7690794644" flag="0"/>
      <psa10 value="0.1091445623" flag="0"/>
      <psa30 value="0.0089038691" flag="0"/>
    </comp>
    <comp name="--.HNN">
      <acc value="1.0039272996" flag="0"/>
      <vel value="0.4716791603" flag="0"/>
      <psa03 value="1.7327612523" flag="0"/>
      <psa10 value="0.1215959162" flag="0"/>
      <psa30 value="0.0124539862" flag="0"/>
    </comp>
    <comp name="--.HNZ">
      <acc value="0.9577205155" flag="0"/>
      <vel value="0.2185180944" flag="0"/>
      <psa03 value="0.6135961593" flag="0"/>
      <psa10 value="0.0529794672" flag="0"/>
      <psa30 value="0.0030665782" flag="0"/>
    </comp>
  </station>
  <station code="LAP" name="LAP" netid="KO" insttype="30s," lat="40.3703" lon="26.7593">
    <comp name="--.HHZ">
      <acc value="0.0154173595" flag="0"/>
      <vel value="0.0056919746" flag="0"/>
      <psa03 value="0.0406725416" flag="0"/>
      <psa10 value="0.0026741204" flag="0"/>
      <psa30 value="0.0002242671" flag="0"/>
    </comp>
    <comp name="--.HHN">
      <acc value="0.0224572529" flag="0"/>
      <vel value="0.0107362456" flag="0"/>
      <psa03 value="0.0406583795" flag="0"/>
      <psa10 value="0.0089796742" flag="0"/>
      <psa30 value="0.0007349536" flag="0"/>
    </comp>
    <comp name="--.HHE">
      <acc value="0.0194316581" flag="0"/>
      <vel value="0.0110251731" flag="0"/>
      <psa03 value="0.0590612683" flag="0"/>
      <psa10 value="0.0096335005" flag="0"/>
      <psa30 value="0.0005299813" flag="0"/>
    </comp>
  </station>
  <station code="LAPK" name="LAPK" netid="KO" insttype="CMG-5T" lat="40.3151" lon="26.6425">
    <comp name="--.HNN">
      <acc value="0.0434769258" flag="0"/>
      <vel value="0.0218438128" flag="0"/>
      <psa03 value="0.0824478302" flag="0"/>
      <psa10 value="0.0122863376" flag="0"/>
      <psa30 value="0.0008290502" flag="0"/>
    </comp>
    <comp name="--.HNE">
      <acc value="0.0593652850" flag="0"/>
      <vel value="0.0282541485" flag="0"/>
      <psa03 value="0.1742714931" flag="0"/>
      <psa10 value="0.0169088783" flag="0"/>
      <psa30 value="0.0009116632" flag="0"/>
    </comp>
    <comp name="--.HNZ">
      <acc value="0.0214185540" flag="0"/>
      <vel value="0.0088565217" flag="0"/>
      <psa03 value="0.0503715545" flag="0"/>
      <psa10 value="0.0057812131" flag="0"/>
      <psa30 value="0.0004484189" flag="0"/>
    </comp>
  </station>
  <station code="SOMA" name="SOMA" netid="KO" insttype="CMG-5T" lat="39.1564" lon="27.5341">
    <comp name="--.HNN">
      <acc value="0.0252267186" flag="0"/>
      <vel value="0.0103477747" flag="0"/>
      <psa03 value="0.0566711549" flag="0"/>
      <psa10 value="0.0063869304" flag="0"/>
      <psa30 value="0.0003788887" flag="0"/>
    </comp>
    <comp name="--.HNE">
      <acc value="0.0166324919" flag="0"/>
      <vel value="0.0089116912" flag="0"/>
      <psa03 value="0.0581091260" flag="0"/>
      <psa10 value="0.0049271344" flag="0"/>
      <psa30 value="0.0002969740" flag="0"/>
    </comp>
    <comp name="--.HNZ">
      <acc value="0.0116406223" flag="0"/>
      <vel value="0.0061929056" flag="0"/>
      <psa03 value="0.0254557163" flag="0"/>
      <psa10 value="0.0031657183" flag="0"/>
      <psa30 value="0.0002064462" flag="0"/>
    </comp>
  </station>
  <station code="YAYO" name="YAYO" netid="KO" insttype="CMG-6T" lat="39.6113" lon="27.0726">
    <comp name="--.HHZ">
      <acc value="0.0539907722" flag="0"/>
      <vel value="0.0161269207" flag="0"/>
      <psa03 value="0.0845895440" flag="0"/>
      <psa10 value="0.0048712395" flag="0"/>
      <psa30 value="0.0003692590" flag="0"/>
    </comp>
    <comp name="--.HHN">
      <acc value="0.0737552481" flag="0"/>
      <vel value="0.0197320975" flag="0"/>
      <psa03 value="0.1608768950" flag="0"/>
      <psa10 value="0.0083594774" flag="0"/>
      <psa30 value="0.0006215903" flag="0"/>
    </comp>
    <comp name="--.HHE">
      <acc value="0.0734794509" flag="0"/>
      <vel value="0.0293477012" flag="0"/>
      <psa03 value="0.1336906569" flag="0"/>
      <psa10 value="0.0165652085" flag="0"/>
      <psa30 value="0.0010985783" flag="0"/>
    </comp>
  </station>
</stationlist>
