<?xml version="1.0" encoding="UTF-8" standalone="yes"?>
<!DOCTYPE earthquake SYSTEM "stationlist.dtd">
<stationlist created="" xmlns="ch.ethz.sed.shakemap.usgs.xml">
  <station code="APE" name="APE" netid="GE" insttype="STS-2/N" lat="37.0727" lon="25.523">
    <comp name="--.HHN">
      <acc value="0.2140540491" flag="0"/>
      <vel value="0.0680528518" flag="0"/>
      <psa03 value="0.3579119080" flag="0"/>
      <psa10 value="0.0225591679" flag="0"/>
      <psa30 value="0.0022186661" flag="0"/>
    </comp>
    <comp name="--.HHE">
      <acc value="0.2836303956" flag="0"/>
      <vel value="0.0665377708" flag="0"/>
      <psa03 value="0.2791328064" flag="0"/>
      <psa10 value="0.0216509124" flag="0"/>
      <psa30 value="0.0022782718" flag="0"/>
    </comp>
    <comp name="--.HHZ">
      <acc value="0.1045197008" flag="0"/>
      <vel value="0.0249460042" flag="0"/>
      <psa03 value="0.1206274328" flag="0"/>
      <psa10 value="0.0190335360" flag="0"/>
      <psa30 value="0.0019302111" flag="0"/>
    </comp>
  </station>
  <station code="THERA" name="THERA" netid="GE" insttype="STS-2/N" lat="36.367" lon="25.4753">
    <comp name="--.HHZ">
      <acc value="0.1684293535" flag="0"/>
      <vel value="0.0466378211" flag="0"/>
      <psa03 value="0.1787080756" flag="0"/>
      <psa10 value="0.0263923249" flag="0"/>
      <psa30 value="0.0024549418" flag="0"/>
    </comp>
    <comp name="--.HHE">
      <acc value="0.2056012608" flag="0"/>
      <vel value="0.0563878448" flag="0"/>
      <psa03 value="0.2720337207" flag="0"/>
      <psa10 value="0.0235455079" flag="0"/>
      <psa30 value="0.0025472682" flag="0"/>
    </comp>
    <comp name="--.HHN">
      <acc value="0.1340113566" flag="0"/>
      <vel value="0.0403567462" flag="0"/>
      <psa03 value="0.1606137807" flag="0"/>
      <psa10 value="0.0191727047" flag="0"/>
      <psa30 value="0.0015840143" flag="0"/>
    </comp>
  </station>
</stationlist>
