<?xml version="1.0" encoding="UTF-8" standalone="yes"?>
<!DOCTYPE earthquake SYSTEM "stationlist.dtd">
<stationlist created="" xmlns="ch.ethz.sed.shakemap.usgs.xml">
  <station code="APE" name="APE" netid="GE" insttype="STS-2/N" lat="37.0727" lon="25.523">
    <comp name="--.HHN">
      <acc value="0.2140540492" flag="0"/>
      <vel value="0.0680528519" flag="0"/>
      <psa03 value="0.3579119080" flag="0"/>
      <psa10 value="0.0225591677" flag="0"/>
      <psa30 value="0.0022186840" flag="0"/>
    </comp>
    <comp name="--.HHE">
      <acc value="0.2836303958" flag="0"/>
      <vel value="0.0665377698" flag="0"/>
      <psa03 value="0.2791328064" flag="0"/>
      <psa10 value="0.0216509127" flag="0"/>
      <psa30 value="0.0022783107" flag="0"/>
    </comp>
    <comp name="--.HHZ">
      <acc value="0.1045197008" flag="0"/>
      <vel value="0.0249460042" flag="0"/>
      <psa03 value="0.1206274328" flag="0"/>
      <psa10 value="0.0190335365" flag="0"/>
      <psa30 value="0.0019302762" flag="0"/>
    </comp>
  </station>
  <station code="THERA" name="THERA" netid="GE" insttype="STS-2/N" lat="36.367" lon="25.4753">
    <comp name="--.HHE">
      <acc value="0.2056012606" flag="0"/>
      <vel value="0.0563878514" flag="0"/>
      <psa03 value="0.2720337207" flag="0"/>
      <psa10 value="0.0235455082" flag="0"/>
      <psa30 value="0.0025472485" flag="0"/>
    </comp>
    <comp name="--.HHN">
      <acc value="0.1340113566" flag="0"/>
      <vel value="0.0403567464" flag="0"/>
      <psa03 value="0.1606137807" flag="0"/>
      <psa10 value="0.0191727050" flag="0"/>
      <psa30 value="0.0015840236" flag="0"/>
    </comp>
    <comp name="--.HHZ">
      <acc value="0.1684293534" flag="0"/>
      <vel value="0.0466378215" flag="0"/>
      <psa03 value="0.1787080756" flag="0"/>
      <psa10 value="0.0263923248" flag="0"/>
      <psa30 value="0.0024549279" flag="0"/>
    </comp>
  </station>
  <station code="NAX1" name="NAX1" netid="HI" insttype="CMG-5TD,ACCELEROMETER,GURALP" lat="37.1014" lon="25.3741">
    <comp name="--.HNE">
      <acc value="0.1961243855" flag="0"/>
      <vel value="0.0861997204" flag="0"/>
      <psa03 value="0.5165658426" flag="0"/>
      <psa10 value="0.0418493551" flag="0"/>
      <psa30 value="0.0025903593" flag="0"/>
    </comp>
    <comp name="--.HNN">
      <acc value="0.1239277108" flag="0"/>
      <vel value="0.0396494668" flag="0"/>
      <psa03 value="0.1833733639" flag="0"/>
      <psa10 value="0.0133060836" flag="0"/>
      <psa30 value="0.0014226342" flag="0"/>
    </comp>
    <comp name="--.HNZ">
      <acc value="0.0971308592" flag="0"/>
      <vel value="0.0318589951" flag="0"/>
      <psa03 value="0.1046106723" flag="0"/>
      <psa10 value="0.0186879474" flag="0"/>
      <psa30 value="0.0013362688" flag="0"/>
    </comp>
  </station>
  <station code="APE" name="APE" netid="HL" insttype="120" lat="37.0727" lon="25.523">
    <comp name="--.HHE">
      <acc value="0.2739570085" flag="0"/>
      <vel value="0.0628191915" flag="0"/>
      <psa03 value="0.2699849483" flag="0"/>
      <psa10 value="0.0213719596" flag="0"/>
      <psa30 value="0.0022700767" flag="0"/>
    </comp>
    <comp name="--.HHN">
      <acc value="0.1984094686" flag="0"/>
      <vel value="0.0650350201" flag="0"/>
      <psa03 value="0.3494671604" flag="0"/>
      <psa10 value="0.0219891283" flag="0"/>
      <psa30 value="0.0022015284" flag="0"/>
    </comp>
    <comp name="--.HHZ">
      <acc value="0.0966424615" flag="0"/>
      <vel value="0.0242552431" flag="0"/>
      <psa03 value="0.1178752251" flag="0"/>
      <psa10 value="0.0189350379" flag="0"/>
      <psa30 value="0.0019281049" flag="0"/>
    </comp>
  </station>
  <station code="MHLO" name="MHLO" netid="HL" insttype="20" lat="36.6898" lon="24.4017">
    <comp name="--.HHE">
      <acc value="0.0923931871" flag="0"/>
      <vel value="0.0393673047" flag="0"/>
      <psa03 value="0.3741357207" flag="0"/>
      <psa10 value="0.0580663580" flag="0"/>
      <psa30 value="0.0030747732" flag="0"/>
    </comp>
    <comp name="--.HHZ">
      <acc value="0.0338848032" flag="0"/>
      <vel value="0.0208558473" flag="0"/>
      <psa03 value="0.0964596265" flag="0"/>
      <psa10 value="0.0289841972" flag="0"/>
      <psa30 value="0.0017539606" flag="0"/>
    </comp>
    <comp name="--.HHN">
      <acc value="0.1086200619" flag="0"/>
      <vel value="0.0467374057" flag="0"/>
      <psa03 value="0.3986291030" flag="0"/>
      <psa10 value="0.0556461006" flag="0"/>
      <psa30 value="0.0029025632" flag="0"/>
    </comp>
  </station>
  <station code="SAP3" name="SAP3" netid="HL" insttype="LE3D20_SMART24" lat="36.4356" lon="25.3454">
    <comp name="--.HHE">
      <acc value="0.7296051804" flag="0"/>
      <vel value="0.2138682002" flag="0"/>
      <psa03 value="0.8041564872" flag="0"/>
      <psa10 value="0.1309799799" flag="0"/>
      <psa30 value="0.0146543037" flag="0"/>
    </comp>
    <comp name="--.HHN">
      <acc value="0.5669494970" flag="0"/>
      <vel value="0.1525135740" flag="0"/>
      <psa03 value="0.5592162513" flag="0"/>
      <psa10 value="0.1124037395" flag="0"/>
      <psa30 value="0.0104624937" flag="0"/>
    </comp>
    <comp name="--.HHZ">
      <acc value="0.5928909785" flag="0"/>
      <vel value="0.1190288678" flag="0"/>
      <psa03 value="0.3943286285" flag="0"/>
      <psa10 value="0.0726026109" flag="0"/>
      <psa30 value="0.0043676349" flag="0"/>
    </comp>
  </station>
  <station code="THERA" name="THERA" netid="HL" insttype="120" lat="36.367" lon="25.4753">
    <comp name="--.HHZ">
      <acc value="0.1632332892" flag="0"/>
      <vel value="0.0458869373" flag="0"/>
      <psa03 value="0.1742492477" flag="0"/>
      <psa10 value="0.0260377286" flag="0"/>
      <psa30 value="0.0024510181" flag="0"/>
    </comp>
    <comp name="--.HHN">
      <acc value="0.1302754110" flag="0"/>
      <vel value="0.0393001696" flag="0"/>
      <psa03 value="0.1557822077" flag="0"/>
      <psa10 value="0.0189962436" flag="0"/>
      <psa30 value="0.0015799145" flag="0"/>
    </comp>
    <comp name="--.HHE">
      <acc value="0.2052810048" flag="0"/>
      <vel value="0.0549359342" flag="0"/>
      <psa03 value="0.2635409699" flag="0"/>
      <psa10 value="0.0232763308" flag="0"/>
      <psa30 value="0.0025431866" flag="0"/>
    </comp>
  </station>
  <station code="THRA" name="THRA" netid="HL" insttype="CMG-5" lat="36.415" lon="25.4324">
    <comp name="00.HNE">
      <acc value="0.4453385808" flag="0"/>
      <vel value="0.1527505951" flag="0"/>
      <psa03 value="0.8667646420" flag="0"/>
      <psa10 value="0.0980439490" flag="0"/>
      <psa30 value="0.0090568584" flag="0"/>
    </comp>
    <comp name="00.HNN">
      <acc value="0.4152851546" flag="0"/>
      <vel value="0.1879447456" flag="0"/>
      <psa03 value="0.9284406226" flag="0"/>
      <psa10 value="0.2103254945" flag="0"/>
      <psa30 value="0.0069903570" flag="0"/>
    </comp>
    <comp name="00.HNZ">
      <acc value="0.4220625418" flag="0"/>
      <vel value="0.1023303681" flag="0"/>
      <psa03 value="0.4475425044" flag="0"/>
      <psa10 value="0.0647408545" flag="0"/>
      <psa30 value="0.0056096852" flag="0"/>
    </comp>
  </station>
  <station code="TNSA" name="TNSA" netid="HL" insttype="CMG-5" lat="37.5394" lon="25.1631">
    <comp name="00.HNE">
      <acc value="0.0732606610" flag="0"/>
      <vel value="0.0239409128" flag="0"/>
      <psa03 value="0.1864229556" flag="0"/>
      <psa10 value="0.0051213282" flag="0"/>
      <psa30 value="0.0006682376" flag="0"/>
    </comp>
    <comp name="00.HNN">
      <acc value="0.0623712454" flag="0"/>
      <vel value="0.0236381698" flag="0"/>
      <psa03 value="0.1700243856" flag="0"/>
      <psa10 value="0.0104271011" flag="0"/>
      <psa30 value="0.0008317127" flag="0"/>
    </comp>
    <comp name="00.HNZ">
      <acc value="0.0564674531" flag="0"/>
      <vel value="0.0272238845" flag="0"/>
      <psa03 value="0.2015586304" flag="0"/>
      <psa10 value="0.0128817603" flag="0"/>
      <psa30 value="0.0010603168" flag="0"/>
    </comp>
  </station>
  <station code="CMBO" name="CMBO" netid="HT" insttype="120P," lat="36.4709" lon="25.4056">
    <comp name="--.HHE">
      <acc value="0.7595209302" flag="0"/>
      <vel value="0.1894748055" flag="0"/>
      <psa03 value="0.7274168233" flag="0"/>
      <psa10 value="0.1256551752" flag="0"/>
      <psa30 value="0.0090702116" flag="0"/>
    </comp>
    <comp name="--.HHN">
      <acc value="0.7565428083" flag="0"/>
      <vel value="0.3011972595" flag="0"/>
      <psa03 value="0.9674281169" flag="0"/>
      <psa10 value="0.2159531974" flag="0"/>
      <psa30 value="0.0132869918" flag="0"/>
    </comp>
    <comp name="--.HHZ">
      <acc value="0.5815742828" flag="0"/>
      <vel value="0.1594408947" flag="0"/>
      <psa03 value="0.8480388160" flag="0"/>
      <psa10 value="0.0657892331" flag="0"/>
      <psa30 value="0.0078811189" flag="0"/>
    </comp>
  </station>
</stationlist>
