<?xml version="1.0" encoding="UTF-8" standalone="yes"?>
<!DOCTYPE earthquake SYSTEM "stationlist.dtd">
<stationlist created="" xmlns="ch.ethz.sed.shakemap.usgs.xml">
  <station code="APE" name="APE" netid="GE" insttype="STS-2/N" lat="37.0727" lon="25.523">
    <comp name="--.HHN">
      <acc value="0.2140540491" flag="0"/>
      <vel value="0.0680528518" flag="0"/>
      <psa03 value="0.3579119080" flag="0"/>
      <psa10 value="0.0225591679" flag="0"/>
      <psa30 value="0.0022186661" flag="0"/>
    </comp>
    <comp name="--.HHE">
      <acc value="0.2836303956" flag="0"/>
      <vel value="0.0665377708" flag="0"/>
      <psa03 value="0.2791328064" flag="0"/>
      <psa10 value="0.0216509124" flag="0"/>
      <psa30 value="0.0022782718" flag="0"/>
    </comp>
    <comp name="--.HHZ">
      <acc value="0.1045197008" flag="0"/>
      <vel value="0.0249460042" flag="0"/>
      <psa03 value="0.1206274328" flag="0"/>
      <psa10 value="0.0190335360" flag="0"/>
      <psa30 value="0.0019302111" flag="0"/>
    </comp>
  </station>
  <station code="THERA" name="THERA" netid="GE" insttype="STS-2/N" lat="36.367" lon="25.4753">
    <comp name="--.HHN">
      <acc value="0.1340113566" flag="0"/>
      <vel value="0.0403567462" flag="0"/>
      <psa03 value="0.1606137807" flag="0"/>
      <psa10 value="0.0191727047" flag="0"/>
      <psa30 value="0.0015840143" flag="0"/>
    </comp>
    <comp name="--.HHE">
      <acc value="0.2056012608" flag="0"/>
      <vel value="0.0563878448" flag="0"/>
      <psa03 value="0.2720337207" flag="0"/>
      <psa10 value="0.0235455079" flag="0"/>
      <psa30 value="0.0025472682" flag="0"/>
    </comp>
    <comp name="--.HHZ">
      <acc value="0.1684293535" flag="0"/>
      <vel value="0.0466378211" flag="0"/>
      <psa03 value="0.1787080756" flag="0"/>
      <psa10 value="0.0263923249" flag="0"/>
      <psa30 value="0.0024549418" flag="0"/>
    </comp>
  </station>
  <station code="NAX1" name="NAX1" netid="HI" insttype="CMG-5TD,ACCELEROMETER,GURALP" lat="37.1014" lon="25.3741">
    <comp name="--.HNE">
      <acc value="0.1961243856" flag="0"/>
      <vel value="0.0861997191" flag="0"/>
      <psa03 value="0.5165658426" flag="0"/>
      <psa10 value="0.0418493554" flag="0"/>
      <psa30 value="0.0025905796" flag="0"/>
    </comp>
    <comp name="--.HNZ">
      <acc value="0.0971308599" flag="0"/>
      <vel value="0.0318589963" flag="0"/>
      <psa03 value="0.1046106723" flag="0"/>
      <psa10 value="0.0186879465" flag="0"/>
      <psa30 value="0.0013362360" flag="0"/>
    </comp>
    <comp name="--.HNN">
      <acc value="0.1239277091" flag="0"/>
      <vel value="0.0396494677" flag="0"/>
      <psa03 value="0.1833733639" flag="0"/>
      <psa10 value="0.0133060830" flag="0"/>
      <psa30 value="0.0014226017" flag="0"/>
    </comp>
  </station>
  <station code="APE" name="APE" netid="HL" insttype="120" lat="37.0727" lon="25.523">
    <comp name="--.HHE">
      <acc value="0.2739570085" flag="0"/>
      <vel value="0.0628191925" flag="0"/>
      <psa03 value="0.2699849483" flag="0"/>
      <psa10 value="0.0213719594" flag="0"/>
      <psa30 value="0.0022700380" flag="0"/>
    </comp>
    <comp name="--.HHN">
      <acc value="0.1984094686" flag="0"/>
      <vel value="0.0650350200" flag="0"/>
      <psa03 value="0.3494671604" flag="0"/>
      <psa10 value="0.0219891286" flag="0"/>
      <psa30 value="0.0022015108" flag="0"/>
    </comp>
    <comp name="--.HHZ">
      <acc value="0.0966424616" flag="0"/>
      <vel value="0.0242552432" flag="0"/>
      <psa03 value="0.1178752251" flag="0"/>
      <psa10 value="0.0189350373" flag="0"/>
      <psa30 value="0.0019280399" flag="0"/>
    </comp>
  </station>
  <station code="MHLO" name="MHLO" netid="HL" insttype="20" lat="36.6898" lon="24.4017">
    <comp name="--.HHE">
      <acc value="0.0923931870" flag="0"/>
      <vel value="0.0393672963" flag="0"/>
      <psa03 value="0.3741357207" flag="0"/>
      <psa10 value="0.0580663580" flag="0"/>
      <psa30 value="0.0030747849" flag="0"/>
    </comp>
    <comp name="--.HHN">
      <acc value="0.1086200618" flag="0"/>
      <vel value="0.0467373997" flag="0"/>
      <psa03 value="0.3986291030" flag="0"/>
      <psa10 value="0.0556461006" flag="0"/>
      <psa30 value="0.0029025644" flag="0"/>
    </comp>
    <comp name="--.HHZ">
      <acc value="0.0338848037" flag="0"/>
      <vel value="0.0208558490" flag="0"/>
      <psa03 value="0.0964596265" flag="0"/>
      <psa10 value="0.0289841972" flag="0"/>
      <psa30 value="0.0017539915" flag="0"/>
    </comp>
  </station>
  <station code="SAP3" name="SAP3" netid="HL" insttype="LE3D20_SMART24" lat="36.4356" lon="25.3454">
    <comp name="--.HHE">
      <acc value="0.7296051806" flag="0"/>
      <vel value="0.2138682050" flag="0"/>
      <psa03 value="0.8041564873" flag="0"/>
      <psa10 value="0.1309799797" flag="0"/>
      <psa30 value="0.0146550380" flag="0"/>
    </comp>
    <comp name="--.HHN">
      <acc value="0.5669494971" flag="0"/>
      <vel value="0.1525131112" flag="0"/>
      <psa03 value="0.5592162524" flag="0"/>
      <psa10 value="0.1124037397" flag="0"/>
      <psa30 value="0.0104616886" flag="0"/>
    </comp>
    <comp name="--.HHZ">
      <acc value="0.5928909794" flag="0"/>
      <vel value="0.1190289643" flag="0"/>
      <psa03 value="0.3943286283" flag="0"/>
      <psa10 value="0.0726026110" flag="0"/>
      <psa30 value="0.0043675955" flag="0"/>
    </comp>
  </station>
  <station code="THERA" name="THERA" netid="HL" insttype="120" lat="36.367" lon="25.4753">
    <comp name="--.HHE">
      <acc value="0.2052810051" flag="0"/>
      <vel value="0.0549359277" flag="0"/>
      <psa03 value="0.2635409699" flag="0"/>
      <psa10 value="0.0232763305" flag="0"/>
      <psa30 value="0.0025432056" flag="0"/>
    </comp>
    <comp name="--.HHZ">
      <acc value="0.1632332894" flag="0"/>
      <vel value="0.0458869369" flag="0"/>
      <psa03 value="0.1742492477" flag="0"/>
      <psa10 value="0.0260377288" flag="0"/>
      <psa30 value="0.0024510319" flag="0"/>
    </comp>
    <comp name="--.HHN">
      <acc value="0.1302754109" flag="0"/>
      <vel value="0.0393001693" flag="0"/>
      <psa03 value="0.1557822077" flag="0"/>
      <psa10 value="0.0189962433" flag="0"/>
      <psa30 value="0.0015799050" flag="0"/>
    </comp>
  </station>
  <station code="THRA" name="THRA" netid="HL" insttype="CMG-5" lat="36.415" lon="25.4324">
    <comp name="00.HNZ">
      <acc value="0.4220625430" flag="0"/>
      <vel value="0.1023303672" flag="0"/>
      <psa03 value="0.4475425044" flag="0"/>
      <psa10 value="0.0647408549" flag="0"/>
      <psa30 value="0.0056086737" flag="0"/>
    </comp>
    <comp name="00.HNE">
      <acc value="0.4453385796" flag="0"/>
      <vel value="0.1527505928" flag="0"/>
      <psa03 value="0.8667646420" flag="0"/>
      <psa10 value="0.0980439495" flag="0"/>
      <psa30 value="0.0090565525" flag="0"/>
    </comp>
    <comp name="00.HNN">
      <acc value="0.4152851510" flag="0"/>
      <vel value="0.1879447424" flag="0"/>
      <psa03 value="0.9284406226" flag="0"/>
      <psa10 value="0.2103254929" flag="0"/>
      <psa30 value="0.0069905308" flag="0"/>
    </comp>
  </station>
  <station code="TNSA" name="TNSA" netid="HL" insttype="CMG-5" lat="37.5394" lon="25.1631">
    <comp name="00.HNE">
      <acc value="0.0732606610" flag="0"/>
      <vel value="0.0239409128" flag="0"/>
      <psa03 value="0.1864229556" flag="0"/>
      <psa10 value="0.0051213282" flag="0"/>
      <psa30 value="0.0006682343" flag="0"/>
    </comp>
    <comp name="00.HNN">
      <acc value="0.0623712453" flag="0"/>
      <vel value="0.0236381699" flag="0"/>
      <psa03 value="0.1700243856" flag="0"/>
      <psa10 value="0.0104271011" flag="0"/>
      <psa30 value="0.0008316932" flag="0"/>
    </comp>
    <comp name="00.HNZ">
      <acc value="0.0564674531" flag="0"/>
      <vel value="0.0272238844" flag="0"/>
      <psa03 value="0.2015586304" flag="0"/>
      <psa10 value="0.0128817603" flag="0"/>
      <psa30 value="0.0010603188" flag="0"/>
    </comp>
  </station>
  <station code="CMBO" name="CMBO" netid="HT" insttype="120P," lat="36.4709" lon="25.4056">
    <comp name="--.HHE">
      <acc value="0.7595209301" flag="0"/>
      <vel value="0.1894748108" flag="0"/>
      <psa03 value="0.7274168233" flag="0"/>
      <psa10 value="0.1256551767" flag="0"/>
      <psa30 value="0.0090699306" flag="0"/>
    </comp>
    <comp name="--.HHZ">
      <acc value="0.5815742825" flag="0"/>
      <vel value="0.1594409009" flag="0"/>
      <psa03 value="0.8480388160" flag="0"/>
      <psa10 value="0.0657892375" flag="0"/>
      <psa30 value="0.0078812605" flag="0"/>
    </comp>
    <comp name="--.HHN">
      <acc value="0.7565428082" flag="0"/>
      <vel value="0.3011972597" flag="0"/>
      <psa03 value="0.9674281169" flag="0"/>
      <psa10 value="0.2159532290" flag="0"/>
      <psa30 value="0.0132857742" flag="0"/>
    </comp>
  </station>
</stationlist>
