<?xml version="1.0" encoding="UTF-8" standalone="yes"?>
<!DOCTYPE earthquake SYSTEM "stationlist.dtd">
<stationlist created="" xmlns="ch.ethz.sed.shakemap.usgs.xml">
  <station code="ARPRA" name="ARPRA" netid="KO" insttype="CMG-5T" lat="39.0929" lon="38.3356">
    <comp name="--.HNN">
      <acc value="0.2234733277" flag="0"/>
      <vel value="0.2785067698" flag="0"/>
      <psa03 value="0.6501239589" flag="0"/>
      <psa10 value="0.4487370593" flag="0"/>
      <psa30 value="0.0485267862" flag="0"/>
    </comp>
    <comp name="--.HNE">
      <acc value="0.2183160447" flag="0"/>
      <vel value="0.1956723571" flag="0"/>
      <psa03 value="0.6450619735" flag="0"/>
      <psa10 value="0.3161719559" flag="0"/>
      <psa30 value="0.0586078025" flag="0"/>
    </comp>
    <comp name="--.HNZ">
      <acc value="0.0769000771" flag="0"/>
      <vel value="0.0844686633" flag="0"/>
      <psa03 value="0.1732193860" flag="0"/>
      <psa10 value="0.1441398385" flag="0"/>
      <psa30 value="0.0258273131" flag="0"/>
    </comp>
  </station>
  <station code="BNN" name="BNN" netid="KO" insttype="CMG-3T" lat="38.8521" lon="35.8472">
    <comp name="--.HHZ">
      <acc value="0.0322812824" flag="0"/>
      <vel value="0.0452987526" flag="0"/>
      <psa03 value="0.0524232188" flag="0"/>
      <psa10 value="0.0744087201" flag="0"/>
      <psa30 value="0.0151335548" flag="0"/>
    </comp>
    <comp name="--.HHE">
      <acc value="0.0420313537" flag="0"/>
      <vel value="0.0650562861" flag="0"/>
      <psa03 value="0.0835451800" flag="0"/>
      <psa10 value="0.1276387098" flag="0"/>
      <psa30 value="0.0121331117" flag="0"/>
    </comp>
    <comp name="--.HHN">
      <acc value="0.0384446703" flag="0"/>
      <vel value="0.0792747561" flag="0"/>
      <psa03 value="0.0676033237" flag="0"/>
      <psa10 value="0.1120812195" flag="0"/>
      <psa30 value="0.0241125777" flag="0"/>
    </comp>
  </station>
  <station code="CEYT" name="CEYT" netid="KO" insttype="CMG-3ESP" lat="37.0105" lon="35.7478">
    <comp name="--.HHZ">
      <acc value="0.0303453447" flag="0"/>
      <vel value="0.0383256960" flag="0"/>
      <psa03 value="0.0468239716" flag="0"/>
      <psa10 value="0.0762114133" flag="0"/>
      <psa30 value="0.0123702253" flag="0"/>
    </comp>
    <comp name="--.HHE">
      <acc value="0.0274327799" flag="0"/>
      <vel value="0.0445128263" flag="0"/>
      <psa03 value="0.0708283742" flag="0"/>
      <psa10 value="0.0809835277" flag="0"/>
      <psa30 value="0.0167815889" flag="0"/>
    </comp>
    <comp name="--.HHN">
      <acc value="0.0226697663" flag="0"/>
      <vel value="0.0482424904" flag="0"/>
      <psa03 value="0.0548789586" flag="0"/>
      <psa10 value="0.0552292446" flag="0"/>
      <psa30 value="0.0154070748" flag="0"/>
    </comp>
  </station>
  <station code="DARE" name="DARE" netid="KO" insttype="CMG-3ESP" lat="38.5712" lon="37.4832">
    <comp name="--.HHZ">
      <acc value="0.1322958121" flag="0"/>
      <vel value="0.1528676001" flag="0"/>
      <psa03 value="0.3543897417" flag="0"/>
      <psa10 value="0.3872193065" flag="0"/>
      <psa30 value="0.0170903801" flag="0"/>
    </comp>
    <comp name="--.HHE">
      <acc value="0.1481649530" flag="0"/>
      <vel value="0.1617020233" flag="0"/>
      <psa03 value="0.2975106098" flag="0"/>
      <psa10 value="0.2258940284" flag="0"/>
      <psa30 value="0.0181848302" flag="0"/>
    </comp>
    <comp name="--.HHN">
      <acc value="0.0425584775" flag="0"/>
      <vel value="0.0292493317" flag="0"/>
      <psa03 value="0.0615567120" flag="0"/>
      <psa10 value="0.0630467791" flag="0"/>
      <psa30 value="0.0025446693" flag="0"/>
    </comp>
  </station>
  <station code="GAZ" name="GAZ" netid="KO" insttype="CMG-3T" lat="37.1721" lon="37.2096">
    <comp name="--.HHZ">
      <acc value="0.1479500285" flag="0"/>
      <vel value="0.1580659763" flag="0"/>
      <psa03 value="0.3129926513" flag="0"/>
      <psa10 value="0.4084783519" flag="0"/>
      <psa30 value="0.0660050786" flag="0"/>
    </comp>
    <comp name="--.HHE">
      <acc value="0.2883282304" flag="0"/>
      <vel value="0.2702366119" flag="0"/>
      <psa03 value="0.6053722147" flag="0"/>
      <psa10 value="0.4167856997" flag="0"/>
      <psa30 value="0.0515459284" flag="0"/>
    </comp>
    <comp name="--.HHN">
      <acc value="0.2067186460" flag="0"/>
      <vel value="0.1880311143" flag="0"/>
      <psa03 value="0.3305222197" flag="0"/>
      <psa10 value="0.4078428211" flag="0"/>
      <psa30 value="0.0559989577" flag="0"/>
    </comp>
  </station>
  <station code="KMRS" name="KMRS" netid="KO" insttype="CMG-3T" lat="37.5053" lon="36.9">
    <comp name="--.HHE">
      <acc value="0.1888704901" flag="0"/>
      <vel value="0.1605470441" flag="0"/>
      <psa03 value="0.5007645248" flag="0"/>
      <psa10 value="0.2378399527" flag="0"/>
      <psa30 value="0.0461627297" flag="0"/>
    </comp>
    <comp name="--.HHN">
      <acc value="0.3600007862" flag="0"/>
      <vel value="0.2809855033" flag="0"/>
      <psa03 value="0.6791427826" flag="0"/>
      <psa10 value="0.3745046681" flag="0"/>
      <psa30 value="0.0473598830" flag="0"/>
    </comp>
    <comp name="--.HHZ">
      <acc value="0.1892805512" flag="0"/>
      <vel value="0.1726286556" flag="0"/>
      <psa03 value="0.6809351967" flag="0"/>
      <psa10 value="0.4017693282" flag="0"/>
      <psa30 value="0.0425966201" flag="0"/>
    </comp>
  </station>
  <station code="SARI" name="SARI" netid="KO" insttype="CMG-3T" lat="38.4072" lon="36.4181">
    <comp name="--.HHE">
      <acc value="0.1227488551" flag="0"/>
      <vel value="0.1019991059" flag="0"/>
      <psa03 value="0.3384317174" flag="0"/>
      <psa10 value="0.1519185144" flag="0"/>
      <psa30 value="0.0158438527" flag="0"/>
    </comp>
    <comp name="--.HHN">
      <acc value="0.1559667901" flag="0"/>
      <vel value="0.1926825710" flag="0"/>
      <psa03 value="0.4075826102" flag="0"/>
      <psa10 value="0.3694162258" flag="0"/>
      <psa30 value="0.0192061734" flag="0"/>
    </comp>
    <comp name="--.HHZ">
      <acc value="0.1239788722" flag="0"/>
      <vel value="0.1160302356" flag="0"/>
      <psa03 value="0.2992229143" flag="0"/>
      <psa10 value="0.2028791038" flag="0"/>
      <psa30 value="0.0157862287" flag="0"/>
    </comp>
  </station>
  <station code="ANDN" name="ANDN" netid="TU" insttype="T" lat="37.58" lon="36.3452">
    <comp name="--.HHZ">
      <acc value="0.2462964521" flag="0"/>
      <vel value="0.2909605115" flag="0"/>
      <psa03 value="0.4916061823" flag="0"/>
      <psa10 value="0.8180572481" flag="0"/>
      <psa30 value="0.0463258891" flag="0"/>
    </comp>
    <comp name="--.HHE">
      <acc value="0.4949116879" flag="0"/>
      <vel value="0.4031305623" flag="0"/>
      <psa03 value="1.1732449765" flag="0"/>
      <psa10 value="0.8333733358" flag="0"/>
      <psa30 value="0.0623485985" flag="0"/>
    </comp>
    <comp name="--.HHN">
      <acc value="0.5585159321" flag="0"/>
      <vel value="0.4913125720" flag="0"/>
      <psa03 value="1.0431303733" flag="0"/>
      <psa10 value="1.3389538525" flag="0"/>
      <psa30 value="0.0899153697" flag="0"/>
    </comp>
  </station>
</stationlist>
