<?xml version="1.0" encoding="UTF-8" standalone="yes"?>
<!DOCTYPE earthquake SYSTEM "stationlist.dtd">
<stationlist created="" xmlns="ch.ethz.sed.shakemap.usgs.xml">
  <station code="ARPRA" name="ARPRA" netid="KO" insttype="CMG-5T" lat="39.0929" lon="38.3356">
    <comp name="--.HNZ">
      <acc value="0.0769000781" flag="0"/>
      <vel value="0.0844686834" flag="0"/>
      <psa03 value="0.1732193859" flag="0"/>
      <psa10 value="0.1441398386" flag="0"/>
      <psa30 value="0.0258273707" flag="0"/>
    </comp>
    <comp name="--.HNE">
      <acc value="0.2183160469" flag="0"/>
      <vel value="0.1956723586" flag="0"/>
      <psa03 value="0.6450619735" flag="0"/>
      <psa10 value="0.3161719560" flag="0"/>
      <psa30 value="0.0586078469" flag="0"/>
    </comp>
    <comp name="--.HNN">
      <acc value="0.2234733281" flag="0"/>
      <vel value="0.2785067835" flag="0"/>
      <psa03 value="0.6501239589" flag="0"/>
      <psa10 value="0.4487370593" flag="0"/>
      <psa30 value="0.0485263206" flag="0"/>
    </comp>
  </station>
  <station code="BNN" name="BNN" netid="KO" insttype="CMG-3T" lat="38.8521" lon="35.8472">
    <comp name="--.HHZ">
      <acc value="0.0322812824" flag="0"/>
      <vel value="0.0452987697" flag="0"/>
      <psa03 value="0.0524232188" flag="0"/>
      <psa10 value="0.0744087201" flag="0"/>
      <psa30 value="0.0151335614" flag="0"/>
    </comp>
    <comp name="--.HHN">
      <acc value="0.0384446704" flag="0"/>
      <vel value="0.0792747656" flag="0"/>
      <psa03 value="0.0676033237" flag="0"/>
      <psa10 value="0.1120812195" flag="0"/>
      <psa30 value="0.0241125359" flag="0"/>
    </comp>
    <comp name="--.HHE">
      <acc value="0.0420313537" flag="0"/>
      <vel value="0.0650562815" flag="0"/>
      <psa03 value="0.0835451800" flag="0"/>
      <psa10 value="0.1276387098" flag="0"/>
      <psa30 value="0.0121330870" flag="0"/>
    </comp>
  </station>
  <station code="CEYT" name="CEYT" netid="KO" insttype="CMG-3ESP" lat="37.0105" lon="35.7478">
    <comp name="--.HHN">
      <acc value="0.0226697664" flag="0"/>
      <vel value="0.0482424807" flag="0"/>
      <psa03 value="0.0548789586" flag="0"/>
      <psa10 value="0.0552292446" flag="0"/>
      <psa30 value="0.0154070541" flag="0"/>
    </comp>
    <comp name="--.HHE">
      <acc value="0.0274327799" flag="0"/>
      <vel value="0.0445127905" flag="0"/>
      <psa03 value="0.0708283743" flag="0"/>
      <psa10 value="0.0809835277" flag="0"/>
      <psa30 value="0.0167815828" flag="0"/>
    </comp>
    <comp name="--.HHZ">
      <acc value="0.0303453447" flag="0"/>
      <vel value="0.0383255902" flag="0"/>
      <psa03 value="0.0468239715" flag="0"/>
      <psa10 value="0.0762114132" flag="0"/>
      <psa30 value="0.0123701639" flag="0"/>
    </comp>
  </station>
  <station code="DARE" name="DARE" netid="KO" insttype="CMG-3ESP" lat="38.5712" lon="37.4832">
    <comp name="--.HHE">
      <acc value="0.1481649532" flag="0"/>
      <vel value="0.1617018760" flag="0"/>
      <psa03 value="0.2975106095" flag="0"/>
      <psa10 value="0.2258940307" flag="0"/>
      <psa30 value="0.0181849936" flag="0"/>
    </comp>
    <comp name="--.HHN">
      <acc value="0.0425584773" flag="0"/>
      <vel value="0.0292492090" flag="0"/>
      <psa03 value="0.0615567117" flag="0"/>
      <psa10 value="0.0630467759" flag="0"/>
      <psa30 value="0.0025478723" flag="0"/>
    </comp>
    <comp name="--.HHZ">
      <acc value="0.1322958077" flag="0"/>
      <vel value="0.1528705629" flag="0"/>
      <psa03 value="0.3543897368" flag="0"/>
      <psa10 value="0.3872193013" flag="0"/>
      <psa30 value="0.0170887664" flag="0"/>
    </comp>
  </station>
  <station code="KMRS" name="KMRS" netid="KO" insttype="CMG-3T" lat="37.5053" lon="36.9">
    <comp name="--.HHE">
      <acc value="0.1888704902" flag="0"/>
      <vel value="0.1605470391" flag="0"/>
      <psa03 value="0.5007645248" flag="0"/>
      <psa10 value="0.2378399526" flag="0"/>
      <psa30 value="0.0461627177" flag="0"/>
    </comp>
  </station>
  <station code="SARI" name="SARI" netid="KO" insttype="CMG-3T" lat="38.4072" lon="36.4181">
    <comp name="--.HHE">
      <acc value="0.1227488543" flag="0"/>
      <vel value="0.1019990770" flag="0"/>
      <psa03 value="0.3384317174" flag="0"/>
      <psa10 value="0.1519185144" flag="0"/>
      <psa30 value="0.0158437074" flag="0"/>
    </comp>
  </station>
  <station code="ANDN" name="ANDN" netid="TU" insttype="T" lat="37.58" lon="36.3452">
    <comp name="--.HHZ">
      <acc value="0.2462964522" flag="0"/>
      <vel value="0.2909604405" flag="0"/>
      <psa03 value="0.4916061823" flag="0"/>
      <psa10 value="0.8180572504" flag="0"/>
      <psa30 value="0.0463256966" flag="0"/>
    </comp>
    <comp name="--.HHN">
      <acc value="0.5585159320" flag="0"/>
      <vel value="0.4913125366" flag="0"/>
      <psa03 value="1.0431303733" flag="0"/>
      <psa10 value="1.3389538530" flag="0"/>
      <psa30 value="0.0899165634" flag="0"/>
    </comp>
    <comp name="--.HHE">
      <acc value="0.4949116879" flag="0"/>
      <vel value="0.4031305537" flag="0"/>
      <psa03 value="1.1732449765" flag="0"/>
      <psa10 value="0.8333733353" flag="0"/>
      <psa30 value="0.0623485617" flag="0"/>
    </comp>
  </station>
</stationlist>
