<?xml version="1.0" encoding="UTF-8" standalone="yes"?>
<!DOCTYPE earthquake SYSTEM "stationlist.dtd">
<stationlist created="" xmlns="ch.ethz.sed.shakemap.usgs.xml">
  <station code="ARPRA" name="ARPRA" netid="KO" insttype="CMG-5T" lat="39.0929" lon="38.3356">
    <comp name="--.HNZ">
      <acc value="0.0769000775" flag="0"/>
      <vel value="0.0844686821" flag="0"/>
      <psa03 value="0.1732193859" flag="0"/>
      <psa10 value="0.1441398386" flag="0"/>
      <psa30 value="0.0258273644" flag="0"/>
    </comp>
    <comp name="--.HNE">
      <acc value="0.2183160461" flag="0"/>
      <vel value="0.1956723563" flag="0"/>
      <psa03 value="0.6450619735" flag="0"/>
      <psa10 value="0.3161719560" flag="0"/>
      <psa30 value="0.0586078209" flag="0"/>
    </comp>
    <comp name="--.HNN">
      <acc value="0.2234733282" flag="0"/>
      <vel value="0.2785067822" flag="0"/>
      <psa03 value="0.6501239589" flag="0"/>
      <psa10 value="0.4487370593" flag="0"/>
      <psa30 value="0.0485264203" flag="0"/>
    </comp>
  </station>
  <station code="BNN" name="BNN" netid="KO" insttype="CMG-3T" lat="38.8521" lon="35.8472">
    <comp name="--.HHE">
      <acc value="0.0420313537" flag="0"/>
      <vel value="0.0650562783" flag="0"/>
      <psa03 value="0.0835451800" flag="0"/>
      <psa10 value="0.1276387098" flag="0"/>
      <psa30 value="0.0121330702" flag="0"/>
    </comp>
    <comp name="--.HHN">
      <acc value="0.0384446703" flag="0"/>
      <vel value="0.0792747061" flag="0"/>
      <psa03 value="0.0676033237" flag="0"/>
      <psa10 value="0.1120812195" flag="0"/>
      <psa30 value="0.0241125318" flag="0"/>
    </comp>
    <comp name="--.HHZ">
      <acc value="0.0322812824" flag="0"/>
      <vel value="0.0452987721" flag="0"/>
      <psa03 value="0.0524232188" flag="0"/>
      <psa10 value="0.0744087201" flag="0"/>
      <psa30 value="0.0151335651" flag="0"/>
    </comp>
  </station>
  <station code="CEYT" name="CEYT" netid="KO" insttype="CMG-3ESP" lat="37.0105" lon="35.7478">
    <comp name="--.HHE">
      <acc value="0.0274327799" flag="0"/>
      <vel value="0.0445128140" flag="0"/>
      <psa03 value="0.0708283743" flag="0"/>
      <psa10 value="0.0809835277" flag="0"/>
      <psa30 value="0.0167815885" flag="0"/>
    </comp>
    <comp name="--.HHN">
      <acc value="0.0226697664" flag="0"/>
      <vel value="0.0482424521" flag="0"/>
      <psa03 value="0.0548789587" flag="0"/>
      <psa10 value="0.0552292446" flag="0"/>
      <psa30 value="0.0154070595" flag="0"/>
    </comp>
    <comp name="--.HHZ">
      <acc value="0.0303453450" flag="0"/>
      <vel value="0.0383258523" flag="0"/>
      <psa03 value="0.0468239718" flag="0"/>
      <psa10 value="0.0762114135" flag="0"/>
      <psa30 value="0.0123701855" flag="0"/>
    </comp>
  </station>
  <station code="DARE" name="DARE" netid="KO" insttype="CMG-3ESP" lat="38.5712" lon="37.4832">
    <comp name="--.HHE">
      <acc value="0.1481649532" flag="0"/>
      <vel value="0.1617018249" flag="0"/>
      <psa03 value="0.2975106094" flag="0"/>
      <psa10 value="0.2258940276" flag="0"/>
      <psa30 value="0.0181847207" flag="0"/>
    </comp>
    <comp name="--.HHN">
      <acc value="0.0425584775" flag="0"/>
      <vel value="0.0292492734" flag="0"/>
      <psa03 value="0.0615567118" flag="0"/>
      <psa10 value="0.0630467673" flag="0"/>
      <psa30 value="0.0025434910" flag="0"/>
    </comp>
    <comp name="--.HHZ">
      <acc value="0.1322958120" flag="0"/>
      <vel value="0.1528676731" flag="0"/>
      <psa03 value="0.3543897416" flag="0"/>
      <psa10 value="0.3872193069" flag="0"/>
      <psa30 value="0.0170903783" flag="0"/>
    </comp>
  </station>
  <station code="GAZ" name="GAZ" netid="KO" insttype="CMG-3T" lat="37.1721" lon="37.2096">
    <comp name="--.HHZ">
      <acc value="0.1479500285" flag="0"/>
      <vel value="0.1580658814" flag="0"/>
      <psa03 value="0.3129926513" flag="0"/>
      <psa10 value="0.4084783518" flag="0"/>
      <psa30 value="0.0660050978" flag="0"/>
    </comp>
  </station>
  <station code="KMRS" name="KMRS" netid="KO" insttype="CMG-3T" lat="37.5053" lon="36.9">
    <comp name="--.HHE">
      <acc value="0.1888704903" flag="0"/>
      <vel value="0.1605473469" flag="0"/>
      <psa03 value="0.5007645249" flag="0"/>
      <psa10 value="0.2378399533" flag="0"/>
      <psa30 value="0.0461616873" flag="0"/>
    </comp>
  </station>
</stationlist>
