<stationlist created="1675760458">
	<station code="ARPRA" name="ARPRA" netid="KO" source="Bogazici University Kandilli Observatory And Earthquake Research Institute (KOERI)" insttype="" lat="39.0929" lon="38.3356">
		<comp name=".HNE" depth="0.0">
			<acc value="0.216946820213" flag="0"/>
			<vel value="0.197821001484" flag="0"/>
			<psa03 value="0.643342618291" flag="0"/>
			<psa10 value="0.314905090917" flag="0"/>
			<psa30 value="0.0581498188069" flag="0"/>
		</comp>
		<comp name=".HNN" depth="0.0">
			<acc value="0.223293742838" flag="0"/>
			<vel value="0.274519576779" flag="0"/>
			<psa03 value="0.651654002211" flag="0"/>
			<psa10 value="0.450817904474" flag="0"/>
			<psa30 value="0.0504128362698" flag="0"/>
		</comp>
		<comp name=".HNZ" depth="0.0">
			<acc value="0.0763774848798" flag="0"/>
			<vel value="0.0881612776827" flag="0"/>
			<psa03 value="0.173233038338" flag="0"/>
			<psa10 value="0.144954077496" flag="0"/>
			<psa30 value="0.0260510474207" flag="0"/>
		</comp>
	</station>
	<station code="CMRD" name="CMRD" netid="KO" source="Bogazici University Kandilli Observatory And Earthquake Research Institute (KOERI)" insttype="" lat="37.6623" lon="34.9902">
		<comp name=".HNE" depth="0.0">
			<acc value="0.0212370446758" flag="0"/>
			<vel value="0.0402610782465" flag="0"/>
			<psa03 value="0.0355425732711" flag="0"/>
			<psa10 value="0.0640960885512" flag="0"/>
			<psa30 value="0.0104335528383" flag="0"/>
		</comp>
		<comp name=".HNN" depth="0.0">
			<acc value="0.0215558326517" flag="0"/>
			<vel value="0.0369499508838" flag="0"/>
			<psa03 value="0.0397695980823" flag="0"/>
			<psa10 value="0.034499506673" flag="0"/>
			<psa30 value="0.0075888918935" flag="0"/>
		</comp>
		<comp name=".HNZ" depth="0.0">
			<acc value="0.0157988632504" flag="0"/>
			<vel value="0.0242215265299" flag="0"/>
			<psa03 value="0.029462951776" flag="0"/>
			<psa10 value="0.052378099792" flag="0"/>
			<psa30 value="0.00846744009302" flag="0"/>
		</comp>
	</station>
	<station code="ERBG" name="ERBG" netid="KO" source="Bogazici University Kandilli Observatory And Earthquake Research Institute (KOERI)" insttype="" lat="40.712" lon="36.6768">
		<comp name=".HNE" depth="0.0">
			<acc value="0.00939465599531" flag="0"/>
			<vel value="0.0190218889553" flag="0"/>
			<psa03 value="0.0118470986142" flag="0"/>
			<psa10 value="0.0308796168731" flag="0"/>
			<psa30 value="0.00460384331538" flag="0"/>
		</comp>
		<comp name=".HNN" depth="0.0">
			<acc value="0.0147593537688" flag="0"/>
			<vel value="0.0287480933033" flag="0"/>
			<psa03 value="0.0164663733685" flag="0"/>
			<psa10 value="0.0425212130717" flag="0"/>
			<psa30 value="0.00594155609893" flag="0"/>
		</comp>
		<comp name=".HNZ" depth="0.0">
			<acc value="0.00590409239789" flag="0"/>
			<vel value="0.0118915295228" flag="0"/>
			<psa03 value="0.00781048224989" flag="0"/>
			<psa10 value="0.0267475687701" flag="0"/>
			<psa30 value="0.00332562759817" flag="0"/>
		</comp>
	</station>
	<station code="KOZK" name="KOZK" netid="KO" source="Bogazici University Kandilli Observatory And Earthquake Research Institute (KOERI)" insttype="" lat="39.2101" lon="34.868">
		<comp name=".HNE" depth="0.0">
			<acc value="0.0500836090932" flag="0"/>
			<vel value="0.0788846991445" flag="0"/>
			<psa03 value="0.0576099205414" flag="0"/>
			<psa10 value="0.144552950924" flag="0"/>
			<psa30 value="0.0204172708773" flag="0"/>
		</comp>
		<comp name=".HNN" depth="0.0">
			<acc value="0.0419006555416" flag="0"/>
			<vel value="0.0668506270397" flag="0"/>
			<psa03 value="0.0536217240509" flag="0"/>
			<psa10 value="0.152074989222" flag="0"/>
			<psa30 value="0.0133764152885" flag="0"/>
		</comp>
		<comp name=".HNZ" depth="0.0">
			<acc value="0.0154498448096" flag="0"/>
			<vel value="0.0277665209552" flag="0"/>
			<psa03 value="0.0387726544356" flag="0"/>
			<psa10 value="0.0462944505302" flag="0"/>
			<psa30 value="0.0101636582925" flag="0"/>
		</comp>
	</station>
	<station code="KYHL" name="KYHL" netid="KO" source="Bogazici University Kandilli Observatory And Earthquake Research Institute (KOERI)" insttype="" lat="40.3244" lon="37.8955">
		<comp name=".HNE" depth="0.0">
			<acc value="0.0453616864176" flag="0"/>
			<vel value="0.0510536571105" flag="0"/>
			<psa03 value="0.106052723389" flag="0"/>
			<psa10 value="0.170543387662" flag="0"/>
			<psa30 value="0.0105050375738" flag="0"/>
		</comp>
		<comp name=".HNN" depth="0.0">
			<acc value="0.0240844443511" flag="0"/>
			<vel value="0.0299131368056" flag="0"/>
			<psa03 value="0.0748450362413" flag="0"/>
			<psa10 value="0.0742400605395" flag="0"/>
			<psa30 value="0.00582609970051" flag="0"/>
		</comp>
		<comp name=".HNZ" depth="0.0">
			<acc value="0.0165756357596" flag="0"/>
			<vel value="0.0265123988505" flag="0"/>
			<psa03 value="0.0369494789717" flag="0"/>
			<psa10 value="0.0446556932206" flag="0"/>
			<psa30 value="0.00706768653289" flag="0"/>
		</comp>
	</station>
	<station code="RFHY" name="RFHY" netid="KO" source="Bogazici University Kandilli Observatory And Earthquake Research Institute (KOERI)" insttype="" lat="39.927" lon="38.833">
		<comp name=".HNE" depth="0.0">
			<acc value="0.00421759492862" flag="0"/>
			<vel value="0.00603603046143" flag="0"/>
			<psa03 value="0.00546324016806" flag="0"/>
			<psa10 value="0.00856360604689" flag="0"/>
			<psa30 value="0.00232481546595" flag="0"/>
		</comp>
		<comp name=".HNN" depth="0.0">
			<acc value="0.0599953691319" flag="0"/>
			<vel value="0.0691481047928" flag="0"/>
			<psa03 value="0.0787507845611" flag="0"/>
			<psa10 value="0.0928704097088" flag="0"/>
			<psa30 value="0.0258191620594" flag="0"/>
		</comp>
		<comp name=".HNZ" depth="0.0">
			<acc value="0.0254435446075" flag="0"/>
			<vel value="0.0387054934298" flag="0"/>
			<psa03 value="0.0408421977826" flag="0"/>
			<psa10 value="0.0727745684579" flag="0"/>
			<psa30 value="0.0142606930343" flag="0"/>
		</comp>
	</station>
	<station code="TUNC" name="TUNC" netid="KO" source="Bogazici University Kandilli Observatory And Earthquake Research Institute (KOERI)" insttype="" lat="39.6942" lon="37.5388">
		<comp name=".HNE" depth="0.0">
			<acc value="0.0762911613427" flag="0"/>
			<vel value="0.09259791622" flag="0"/>
			<psa03 value="0.233139402675" flag="0"/>
			<psa10 value="0.10961355886" flag="0"/>
			<psa30 value="0.0330540563357" flag="0"/>
		</comp>
		<comp name=".HNN" depth="0.0">
			<acc value="0.0755132140149" flag="0"/>
			<vel value="0.0922639425338" flag="0"/>
			<psa03 value="0.215006368117" flag="0"/>
			<psa10 value="0.123366762443" flag="0"/>
			<psa30 value="0.0181221938397" flag="0"/>
		</comp>
		<comp name=".HNZ" depth="0.0">
			<acc value="0.0446603360076" flag="0"/>
			<vel value="0.0780770020702" flag="0"/>
			<psa03 value="0.103370056092" flag="0"/>
			<psa10 value="0.0872719338373" flag="0"/>
			<psa30 value="0.019048596876" flag="0"/>
		</comp>
	</station>
</stationlist>
