<?xml version="1.0" encoding="UTF-8" standalone="yes"?>
<!DOCTYPE earthquake SYSTEM "stationlist.dtd">
<stationlist created="" xmlns="ch.ethz.sed.shakemap.usgs.xml">
  <station code="KAPA" name="KAPA" netid="Z3" source="GFZ" insttype="CMG-3ESP/60" lat="35.6402" lon="27.1376">
    <comp name="--.HHE">
      <acc value="0.0705954267" flag="0"/>
      <vel value="0.0271993631" flag="0"/>
      <psa03 value="0.1206248841" flag="0"/>
      <psa10 value="0.0205756069" flag="0"/>
      <psa30 value="0.0030156142" flag="0"/>
    </comp>
    <comp name="--.HHN">
      <acc value="0.0716834102" flag="0"/>
      <vel value="0.0265951530" flag="0"/>
      <psa03 value="0.1234724827" flag="0"/>
      <psa10 value="0.0252945546" flag="0"/>
      <psa30 value="0.0018734933" flag="0"/>
    </comp>
    <comp name="--.HHZ">
      <acc value="0.0358282762" flag="0"/>
      <vel value="0.0145729970" flag="0"/>
      <psa03 value="0.0790127363" flag="0"/>
      <psa10 value="0.0129260102" flag="0"/>
      <psa30 value="0.0018858864" flag="0"/>
    </comp>
  </station>
  <station code="KASO" name="KASO" netid="Z3" source="GFZ" insttype="CMG-3ESP/60" lat="35.4115" lon="26.9152">
    <comp name="--.HHE">
      <acc value="0.4015301804" flag="0"/>
      <vel value="0.0873797715" flag="0"/>
      <psa03 value="0.3918101456" flag="0"/>
      <psa10 value="0.0552246888" flag="0"/>
      <psa30 value="0.0035218819" flag="0"/>
    </comp>
    <comp name="--.HHN">
      <acc value="0.1861327296" flag="0"/>
      <vel value="0.0716238300" flag="0"/>
      <psa03 value="0.4906960678" flag="0"/>
      <psa10 value="0.0290633421" flag="0"/>
      <psa30 value="0.0034819706" flag="0"/>
    </comp>
    <comp name="--.HHZ">
      <acc value="0.1066804452" flag="0"/>
      <vel value="0.0349895168" flag="0"/>
      <psa03 value="0.1450892574" flag="0"/>
      <psa10 value="0.0244865122" flag="0"/>
      <psa30 value="0.0033127441" flag="0"/>
    </comp>
  </station>
  <station code="RHOS" name="RHOS" netid="Z3" source="GFZ" insttype="CMG-3ESP/60" lat="36.011" lon="27.8197">
    <comp name="--.HHE">
      <acc value="0.0107024710" flag="0"/>
      <vel value="0.0124521777" flag="0"/>
      <psa03 value="0.0359261002" flag="0"/>
      <psa10 value="0.0224209289" flag="0"/>
      <psa30 value="0.0015684719" flag="0"/>
    </comp>
    <comp name="--.HHN">
      <acc value="0.0125253585" flag="0"/>
      <vel value="0.0121057024" flag="0"/>
      <psa03 value="0.0230620211" flag="0"/>
      <psa10 value="0.0134865682" flag="0"/>
      <psa30 value="0.0011328840" flag="0"/>
    </comp>
    <comp name="--.HHZ">
      <acc value="0.0000000000" flag="0"/>
      <vel value="-100.0000000000" flag="0"/>
      <psa03 value="0.0000000000" flag="0"/>
      <psa10 value="0.0000000000" flag="0"/>
      <psa30 value="0.0000000000" flag="0"/>
    </comp>
  </station>
</stationlist>
