<?xml version="1.0" encoding="UTF-8" standalone="yes"?>
<!DOCTYPE earthquake SYSTEM "stationlist.dtd">
<stationlist created="" xmlns="ch.ethz.sed.shakemap.usgs.xml">
  <station code="ZKR" name="ZKR" netid="GE" insttype="STS-2/N" lat="35.1147" lon="26.2169">
    <comp name="--.HHE">
      <acc value="0.0155823606" flag="0"/>
      <vel value="0.0113799065" flag="0"/>
      <psa03 value="0.0383987237" flag="0"/>
      <psa10 value="0.0145791763" flag="0"/>
      <psa30 value="0.0011080588" flag="0"/>
    </comp>
    <comp name="--.HHN">
      <acc value="0.0089736201" flag="0"/>
      <vel value="0.0038946488" flag="0"/>
      <psa03 value="0.0232987280" flag="0"/>
      <psa10 value="0.0077741521" flag="0"/>
      <psa30 value="0.0004039290" flag="0"/>
    </comp>
    <comp name="--.HHZ">
      <acc value="0.0103454383" flag="0"/>
      <vel value="0.0054936545" flag="0"/>
      <psa03 value="0.0261407672" flag="0"/>
      <psa10 value="0.0067773352" flag="0"/>
      <psa30 value="0.0006459312" flag="0"/>
    </comp>
  </station>
  <station code="PFKS" name="PFKS" netid="HC" insttype="120" lat="35.0429" lon="25.4733">
    <comp name="--.HHE">
      <acc value="0.0094800110" flag="0"/>
      <vel value="0.0073503731" flag="0"/>
      <psa03 value="0.0299314161" flag="0"/>
      <psa10 value="0.0153227466" flag="0"/>
      <psa30 value="0.0007440420" flag="0"/>
    </comp>
    <comp name="--.HHZ">
      <acc value="0.0064534706" flag="0"/>
      <vel value="0.0036107871" flag="0"/>
      <psa03 value="0.0195574516" flag="0"/>
      <psa10 value="0.0076817051" flag="0"/>
      <psa30 value="0.0006463927" flag="0"/>
    </comp>
    <comp name="--.HHN">
      <acc value="0.0101993102" flag="0"/>
      <vel value="0.0081832989" flag="0"/>
      <psa03 value="0.0299224403" flag="0"/>
      <psa10 value="0.0151966323" flag="0"/>
      <psa30 value="0.0007396482" flag="0"/>
    </comp>
  </station>
  <station code="STIA" name="STIA" netid="HC" insttype="120" lat="35.2021" lon="26.0909">
    <comp name="--.HHZ">
      <acc value="0.0164667481" flag="0"/>
      <vel value="0.0070556055" flag="0"/>
      <psa03 value="0.0283021765" flag="0"/>
      <psa10 value="0.0084313911" flag="0"/>
      <psa30 value="0.0007122371" flag="0"/>
    </comp>
    <comp name="--.HHE">
      <acc value="0.0135001023" flag="0"/>
      <vel value="0.0090112746" flag="0"/>
      <psa03 value="0.0375775051" flag="0"/>
      <psa10 value="0.0131791622" flag="0"/>
      <psa30 value="0.0011541710" flag="0"/>
    </comp>
    <comp name="--.HHN">
      <acc value="0.0187696812" flag="0"/>
      <vel value="0.0089365956" flag="0"/>
      <psa03 value="0.0383302408" flag="0"/>
      <psa10 value="0.0182065547" flag="0"/>
      <psa30 value="0.0010714646" flag="0"/>
    </comp>
  </station>
  <station code="KSTE" name="KSTE" netid="HL" insttype="60" lat="35.1801" lon="25.3372">
    <comp name="--.HHE">
      <acc value="0.0029738794" flag="0"/>
      <vel value="0.0026443488" flag="0"/>
      <psa03 value="0.0044787256" flag="0"/>
      <psa10 value="0.0056724630" flag="0"/>
      <psa30 value="0.0010452652" flag="0"/>
    </comp>
    <comp name="--.HHN">
      <acc value="0.0136693860" flag="0"/>
      <vel value="0.0031322845" flag="0"/>
      <psa03 value="0.0058455954" flag="0"/>
      <psa10 value="0.0054418696" flag="0"/>
      <psa30 value="0.0009140733" flag="0"/>
    </comp>
    <comp name="--.HHZ">
      <acc value="0.0028620149" flag="0"/>
      <vel value="0.0010322258" flag="0"/>
      <psa03 value="0.0038898804" flag="0"/>
      <psa10 value="0.0018831351" flag="0"/>
      <psa30 value="0.0002187214" flag="0"/>
    </comp>
  </station>
  <station code="NPS" name="NPS" netid="HL" insttype="CMG3ESPC-120s" lat="35.2613" lon="25.6104">
    <comp name="--.HHZ">
      <acc value="0.0031433526" flag="0"/>
      <vel value="0.0026674099" flag="0"/>
      <psa03 value="0.0090354648" flag="0"/>
      <psa10 value="0.0045145166" flag="0"/>
      <psa30 value="0.0003738412" flag="0"/>
    </comp>
    <comp name="--.HHE">
      <acc value="0.0021738659" flag="0"/>
      <vel value="0.0024257301" flag="0"/>
      <psa03 value="0.0066847081" flag="0"/>
      <psa10 value="0.0033482928" flag="0"/>
      <psa30 value="0.0003444298" flag="0"/>
    </comp>
    <comp name="--.HHN">
      <acc value="0.0035479238" flag="0"/>
      <vel value="0.0030492172" flag="0"/>
      <psa03 value="0.0084635022" flag="0"/>
      <psa10 value="0.0054392826" flag="0"/>
      <psa30 value="0.0005612900" flag="0"/>
    </comp>
  </station>
  <station code="ZKR" name="ZKR" netid="HL" insttype="120" lat="35.1147" lon="26.2169">
    <comp name="--.HHN">
      <acc value="0.0087145753" flag="0"/>
      <vel value="0.0038315447" flag="0"/>
      <psa03 value="0.0226645475" flag="0"/>
      <psa10 value="0.0077179559" flag="0"/>
      <psa30 value="0.0004023536" flag="0"/>
    </comp>
    <comp name="--.HHZ">
      <acc value="0.0100215253" flag="0"/>
      <vel value="0.0054153563" flag="0"/>
      <psa03 value="0.0254360906" flag="0"/>
      <psa10 value="0.0067432259" flag="0"/>
      <psa30 value="0.0006451615" flag="0"/>
    </comp>
    <comp name="--.HHE">
      <acc value="0.0152442136" flag="0"/>
      <vel value="0.0111982105" flag="0"/>
      <psa03 value="0.0374083018" flag="0"/>
      <psa10 value="0.0144731870" flag="0"/>
      <psa30 value="0.0011028344" flag="0"/>
    </comp>
  </station>
</stationlist>
