<?xml version="1.0" encoding="UTF-8" standalone="yes"?>
<!DOCTYPE earthquake SYSTEM "stationlist.dtd">
<stationlist created="" xmlns="ch.ethz.sed.shakemap.usgs.xml">
  <station code="ZKR" name="ZKR" netid="GE" insttype="STS-2/N" lat="35.1147" lon="26.2169">
    <comp name="--.HHE">
      <acc value="0.0155823606" flag="0"/>
      <vel value="0.0113799065" flag="0"/>
      <psa03 value="0.0383987237" flag="0"/>
      <psa10 value="0.0145791763" flag="0"/>
      <psa30 value="0.0011080588" flag="0"/>
    </comp>
    <comp name="--.HHN">
      <acc value="0.0089736201" flag="0"/>
      <vel value="0.0038946488" flag="0"/>
      <psa03 value="0.0232987280" flag="0"/>
      <psa10 value="0.0077741521" flag="0"/>
      <psa30 value="0.0004039290" flag="0"/>
    </comp>
    <comp name="--.HHZ">
      <acc value="0.0103454383" flag="0"/>
      <vel value="0.0054936545" flag="0"/>
      <psa03 value="0.0261407672" flag="0"/>
      <psa10 value="0.0067773352" flag="0"/>
      <psa30 value="0.0006459312" flag="0"/>
    </comp>
  </station>
</stationlist>
