<?xml version="1.0" encoding="UTF-8" standalone="yes"?>
<!DOCTYPE earthquake SYSTEM "stationlist.dtd">
<stationlist created="" xmlns="ch.ethz.sed.shakemap.usgs.xml">
  <station code="DOMV" name="DOMV" netid="HA" insttype="60" lat="38.2569" lon="22.9795">
    <comp name="--.HHN">
      <acc value="0.0088706892" flag="0"/>
      <vel value="0.0052803614" flag="0"/>
      <psa03 value="0.0226188654" flag="0"/>
      <psa10 value="0.0069352463" flag="0"/>
      <psa30 value="0.0003550600" flag="0"/>
    </comp>
    <comp name="--.HHE">
      <acc value="0.0109637814" flag="0"/>
      <vel value="0.0067201797" flag="0"/>
      <psa03 value="0.0210141253" flag="0"/>
      <psa10 value="0.0075665591" flag="0"/>
      <psa30 value="0.0003273343" flag="0"/>
    </comp>
    <comp name="--.HHZ">
      <acc value="0.0059114020" flag="0"/>
      <vel value="0.0032537414" flag="0"/>
      <psa03 value="0.0112165936" flag="0"/>
      <psa10 value="0.0058449238" flag="0"/>
      <psa30 value="0.0002392562" flag="0"/>
    </comp>
  </station>
  <station code="EPID" name="EPID" netid="HA" insttype="30" lat="37.6144" lon="23.1189">
    <comp name="--.HHE">
      <acc value="0.0253337415" flag="0"/>
      <vel value="0.0076249852" flag="0"/>
      <psa03 value="0.0270154431" flag="0"/>
      <psa10 value="0.0053230212" flag="0"/>
      <psa30 value="0.0003512778" flag="0"/>
    </comp>
    <comp name="--.HHZ">
      <acc value="0.0150240044" flag="0"/>
      <vel value="0.0046751729" flag="0"/>
      <psa03 value="0.0200664414" flag="0"/>
      <psa10 value="0.0035998722" flag="0"/>
      <psa30 value="0.0003364359" flag="0"/>
    </comp>
    <comp name="--.HHN">
      <acc value="0.0301597171" flag="0"/>
      <vel value="0.0075397995" flag="0"/>
      <psa03 value="0.0342750866" flag="0"/>
      <psa10 value="0.0045578309" flag="0"/>
      <psa30 value="0.0005472466" flag="0"/>
    </comp>
  </station>
  <station code="KALE" name="KALE" netid="HA" insttype="40," lat="38.3911" lon="22.1398">
    <comp name="--.HHN">
      <acc value="0.0106758481" flag="0"/>
      <vel value="0.0047308477" flag="0"/>
      <psa03 value="0.0168140828" flag="0"/>
      <psa10 value="0.0035457250" flag="0"/>
      <psa30 value="0.0004069551" flag="0"/>
    </comp>
    <comp name="--.HHE">
      <acc value="0.0110419992" flag="0"/>
      <vel value="0.0048649626" flag="0"/>
      <psa03 value="0.0247986627" flag="0"/>
      <psa10 value="0.0066208618" flag="0"/>
      <psa30 value="0.0003392723" flag="0"/>
    </comp>
    <comp name="--.HHZ">
      <acc value="0.0044963760" flag="0"/>
      <vel value="0.0021897341" flag="0"/>
      <psa03 value="0.0113384682" flag="0"/>
      <psa10 value="0.0030104990" flag="0"/>
      <psa30 value="0.0002701459" flag="0"/>
    </comp>
  </station>
  <station code="KIAS" name="KIAS" netid="HA" insttype="DC" lat="37.9875" lon="22.7543">
    <comp name="--.HNE">
      <acc value="0.0511613120" flag="0"/>
      <vel value="0.0221313869" flag="0"/>
      <psa03 value="0.1020129610" flag="0"/>
      <psa10 value="0.0281854848" flag="0"/>
      <psa30 value="0.0017164327" flag="0"/>
    </comp>
    <comp name="--.HNZ">
      <acc value="0.0300845992" flag="0"/>
      <vel value="0.0129527587" flag="0"/>
      <psa03 value="0.0302818419" flag="0"/>
      <psa10 value="0.0114479312" flag="0"/>
      <psa30 value="0.0017182620" flag="0"/>
    </comp>
    <comp name="--.HNN">
      <acc value="0.0400548944" flag="0"/>
      <vel value="0.0138178519" flag="0"/>
      <psa03 value="0.0728690155" flag="0"/>
      <psa10 value="0.0230260926" flag="0"/>
      <psa30 value="0.0021934492" flag="0"/>
    </comp>
  </station>
  <station code="LAKA" name="LAKA" netid="HA" insttype="120s" lat="38.2401" lon="21.9785">
    <comp name="--.HHN">
      <acc value="0.0000345339" flag="0"/>
      <vel value="0.0000029931" flag="0"/>
      <psa03 value="0.0000089121" flag="0"/>
      <psa10 value="0.0000022726" flag="0"/>
      <psa30 value="0.0000005703" flag="0"/>
    </comp>
    <comp name="--.HHE">
      <acc value="0.0000303333" flag="0"/>
      <vel value="0.0000028174" flag="0"/>
      <psa03 value="0.0000101890" flag="0"/>
      <psa10 value="0.0000022721" flag="0"/>
      <psa30 value="0.0000004877" flag="0"/>
    </comp>
    <comp name="--.HHZ">
      <acc value="0.0045198994" flag="0"/>
      <vel value="0.0021613885" flag="0"/>
      <psa03 value="0.0116156382" flag="0"/>
      <psa10 value="0.0027570898" flag="0"/>
      <psa30 value="0.0004135191" flag="0"/>
    </comp>
  </station>
  <station code="LOUT" name="LOUT" netid="HA" insttype="30" lat="37.9879" lon="22.9743">
    <comp name="--.HHE">
      <acc value="0.0231884264" flag="0"/>
      <vel value="0.0126416622" flag="0"/>
      <psa03 value="0.0509631524" flag="0"/>
      <psa10 value="0.0225200609" flag="0"/>
      <psa30 value="0.0007813465" flag="0"/>
    </comp>
    <comp name="--.HHN">
      <acc value="0.0182544456" flag="0"/>
      <vel value="0.0143027790" flag="0"/>
      <psa03 value="0.0296438053" flag="0"/>
      <psa10 value="0.0412184452" flag="0"/>
      <psa30 value="0.0011319433" flag="0"/>
    </comp>
    <comp name="--.HHZ">
      <acc value="0.0106018805" flag="0"/>
      <vel value="0.0046505597" flag="0"/>
      <psa03 value="0.0181095996" flag="0"/>
      <psa10 value="0.0037958590" flag="0"/>
      <psa30 value="0.0002862524" flag="0"/>
    </comp>
  </station>
  <station code="THAL" name="THAL" netid="HA" insttype="30" lat="38.0357" lon="22.6634">
    <comp name="--.HHZ">
      <acc value="0.0297988106" flag="0"/>
      <vel value="0.0165554924" flag="0"/>
      <psa03 value="0.0527377901" flag="0"/>
      <psa10 value="0.0119325272" flag="0"/>
      <psa30 value="0.0009447571" flag="0"/>
    </comp>
    <comp name="--.HHN">
      <acc value="0.0491473994" flag="0"/>
      <vel value="0.0162033269" flag="0"/>
      <psa03 value="0.0920257687" flag="0"/>
      <psa10 value="0.0281321115" flag="0"/>
      <psa30 value="0.0012821742" flag="0"/>
    </comp>
    <comp name="--.HHE">
      <acc value="0.0481363975" flag="0"/>
      <vel value="0.0237033075" flag="0"/>
      <psa03 value="0.0925028365" flag="0"/>
      <psa10 value="0.0247679069" flag="0"/>
      <psa30 value="0.0019072108" flag="0"/>
    </comp>
  </station>
  <station code="KTRS" name="KTRS" netid="HC" insttype="60" lat="36.9261" lon="22.136">
    <comp name="--.HHN">
      <acc value="0.0303084259" flag="0"/>
      <vel value="0.0076515407" flag="0"/>
      <psa03 value="0.0307807187" flag="0"/>
      <psa10 value="0.0037511773" flag="0"/>
      <psa30 value="0.0009826828" flag="0"/>
    </comp>
    <comp name="--.HHZ">
      <acc value="0.0272110491" flag="0"/>
      <vel value="0.0053859563" flag="0"/>
      <psa03 value="0.0296550776" flag="0"/>
      <psa10 value="0.0022186683" flag="0"/>
      <psa30 value="0.0004017466" flag="0"/>
    </comp>
    <comp name="--.HHE">
      <acc value="0.0341520024" flag="0"/>
      <vel value="0.0096453946" flag="0"/>
      <psa03 value="0.0332366061" flag="0"/>
      <psa10 value="0.0055642575" flag="0"/>
      <psa30 value="0.0006109953" flag="0"/>
    </comp>
  </station>
  <station code="KLV1" name="KLV1" netid="HI" insttype="CMG-5TD,ACCELEROMETER,GURALP" lat="38.0326" lon="22.108">
    <comp name="--.HNE">
      <acc value="0.0343599595" flag="0"/>
      <vel value="0.0143729644" flag="0"/>
      <psa03 value="0.0676238403" flag="0"/>
      <psa10 value="0.0089333024" flag="0"/>
      <psa30 value="0.0006286384" flag="0"/>
    </comp>
    <comp name="--.HNN">
      <acc value="0.0398599500" flag="0"/>
      <vel value="0.0151922488" flag="0"/>
      <psa03 value="0.0801473792" flag="0"/>
      <psa10 value="0.0086962526" flag="0"/>
      <psa30 value="0.0010179273" flag="0"/>
    </comp>
    <comp name="--.HNZ">
      <acc value="0.0211792256" flag="0"/>
      <vel value="0.0051963946" flag="0"/>
      <psa03 value="0.0297167715" flag="0"/>
      <psa10 value="0.0045095632" flag="0"/>
      <psa30 value="0.0006310080" flag="0"/>
    </comp>
  </station>
  <station code="ITM" name="ITM" netid="HL" insttype="DR24" lat="37.1787" lon="21.9252">
    <comp name="--.HHE">
      <acc value="0.2072070155" flag="0"/>
      <vel value="0.0477499882" flag="0"/>
      <psa03 value="0.2134330715" flag="0"/>
      <psa10 value="0.0167105975" flag="0"/>
      <psa30 value="0.0019244909" flag="0"/>
    </comp>
    <comp name="--.HHN">
      <acc value="0.1533420967" flag="0"/>
      <vel value="0.0486592926" flag="0"/>
      <psa03 value="0.2292132671" flag="0"/>
      <psa10 value="0.0234760978" flag="0"/>
      <psa30 value="0.0017911299" flag="0"/>
    </comp>
    <comp name="--.HHZ">
      <acc value="0.1534897012" flag="0"/>
      <vel value="0.0351615683" flag="0"/>
      <psa03 value="0.0692502699" flag="0"/>
      <psa10 value="0.0241459300" flag="0"/>
      <psa30 value="0.0013622717" flag="0"/>
    </comp>
  </station>
  <station code="KLV" name="KLV" netid="HL" insttype="120" lat="38.0435" lon="22.1504">
    <comp name="--.HHZ">
      <acc value="0.0175735746" flag="0"/>
      <vel value="0.0053135911" flag="0"/>
      <psa03 value="0.0173453564" flag="0"/>
      <psa10 value="0.0041533476" flag="0"/>
      <psa30 value="0.0004789929" flag="0"/>
    </comp>
    <comp name="--.HHE">
      <acc value="0.0146896283" flag="0"/>
      <vel value="0.0044197604" flag="0"/>
      <psa03 value="0.0166575561" flag="0"/>
      <psa10 value="0.0039713204" flag="0"/>
      <psa30 value="0.0004865634" flag="0"/>
    </comp>
    <comp name="--.HHN">
      <acc value="0.0001371893" flag="0"/>
      <vel value="-100.0000000000" flag="0"/>
      <psa03 value="0.0000002616" flag="0"/>
      <psa10 value="0.0000002658" flag="0"/>
      <psa30 value="0.0000002134" flag="0"/>
    </comp>
  </station>
  <station code="RLS" name="RLS" netid="HL" insttype="CMG3ESPC-120s" lat="38.0559" lon="21.4647">
    <comp name="--.HHN">
      <acc value="0.0158727857" flag="0"/>
      <vel value="0.0038504755" flag="0"/>
      <psa03 value="0.0132428532" flag="0"/>
      <psa10 value="0.0053496454" flag="0"/>
      <psa30 value="0.0002618033" flag="0"/>
    </comp>
    <comp name="--.HHE">
      <acc value="0.0131764568" flag="0"/>
      <vel value="0.0045809577" flag="0"/>
      <psa03 value="0.0194703443" flag="0"/>
      <psa10 value="0.0038457066" flag="0"/>
      <psa30 value="0.0003269850" flag="0"/>
    </comp>
    <comp name="--.HHZ">
      <acc value="0.0049669049" flag="0"/>
      <vel value="0.0021060843" flag="0"/>
      <psa03 value="0.0076608022" flag="0"/>
      <psa10 value="0.0026387666" flag="0"/>
      <psa30 value="0.0002766333" flag="0"/>
    </comp>
  </station>
  <station code="VLI" name="VLI" netid="HL" insttype="60" lat="36.718" lon="22.9469">
    <comp name="--.HHZ">
      <acc value="0.0092611848" flag="0"/>
      <vel value="0.0047515239" flag="0"/>
      <psa03 value="0.0334947855" flag="0"/>
      <psa10 value="0.0055808882" flag="0"/>
      <psa30 value="0.0006404634" flag="0"/>
    </comp>
    <comp name="--.HHN">
      <acc value="0.0140375618" flag="0"/>
      <vel value="0.0086922031" flag="0"/>
      <psa03 value="0.0439734410" flag="0"/>
      <psa10 value="0.0086461970" flag="0"/>
      <psa30 value="0.0006139288" flag="0"/>
    </comp>
    <comp name="--.HHE">
      <acc value="0.0219677108" flag="0"/>
      <vel value="0.0127284816" flag="0"/>
      <psa03 value="0.0650549021" flag="0"/>
      <psa10 value="0.0090109859" flag="0"/>
      <psa30 value="0.0006251050" flag="0"/>
    </comp>
  </station>
  <station code="AMT" name="AMT" netid="HP" insttype="CMG-3T," lat="37.5324" lon="21.7089">
    <comp name="00.HHE">
      <acc value="0.0532939424" flag="0"/>
      <vel value="0.0283934728" flag="0"/>
      <psa03 value="0.0902529488" flag="0"/>
      <psa10 value="0.0356362198" flag="0"/>
      <psa30 value="0.0016967818" flag="0"/>
    </comp>
    <comp name="00.HHZ">
      <acc value="0.0373131865" flag="0"/>
      <vel value="0.0148449687" flag="0"/>
      <psa03 value="0.0553642566" flag="0"/>
      <psa10 value="0.0133231084" flag="0"/>
      <psa30 value="0.0008332938" flag="0"/>
    </comp>
    <comp name="00.HHN">
      <acc value="0.0652448262" flag="0"/>
      <vel value="0.0242154565" flag="0"/>
      <psa03 value="0.0881238788" flag="0"/>
      <psa10 value="0.0185587006" flag="0"/>
      <psa30 value="0.0012593804" flag="0"/>
    </comp>
  </station>
  <station code="AXS" name="AXS" netid="HP" insttype="40," lat="38.1962" lon="21.3763">
    <comp name="--.HHE">
      <acc value="0.0023934513" flag="0"/>
      <vel value="0.0008071819" flag="0"/>
      <psa03 value="0.0048851855" flag="0"/>
      <psa10 value="0.0012416030" flag="0"/>
      <psa30 value="0.0001939611" flag="0"/>
    </comp>
    <comp name="--.HHN">
      <acc value="0.0022515860" flag="0"/>
      <vel value="0.0010904038" flag="0"/>
      <psa03 value="0.0039649960" flag="0"/>
      <psa10 value="0.0019468595" flag="0"/>
      <psa30 value="0.0001627878" flag="0"/>
    </comp>
    <comp name="--.HHZ">
      <acc value="0.0025783388" flag="0"/>
      <vel value="0.0011145127" flag="0"/>
      <psa03 value="0.0042360468" flag="0"/>
      <psa10 value="0.0010935106" flag="0"/>
      <psa30 value="0.0001283209" flag="0"/>
    </comp>
  </station>
  <station code="DRO" name="DRO" netid="HP" insttype="120P," lat="37.952" lon="21.71">
    <comp name="--.HHN">
      <acc value="0.0572587680" flag="0"/>
      <vel value="0.0223700344" flag="0"/>
      <psa03 value="0.0871059688" flag="0"/>
      <psa10 value="0.0098300067" flag="0"/>
      <psa30 value="0.0012437568" flag="0"/>
    </comp>
    <comp name="--.HHZ">
      <acc value="0.0312959281" flag="0"/>
      <vel value="0.0106440187" flag="0"/>
      <psa03 value="0.0445181709" flag="0"/>
      <psa10 value="0.0091525869" flag="0"/>
      <psa30 value="0.0004866947" flag="0"/>
    </comp>
    <comp name="--.HHE">
      <acc value="0.0692490673" flag="0"/>
      <vel value="0.0277832729" flag="0"/>
      <psa03 value="0.0693957293" flag="0"/>
      <psa10 value="0.0187065808" flag="0"/>
      <psa30 value="0.0013243753" flag="0"/>
    </comp>
  </station>
  <station code="DSF" name="DSF" netid="HP" insttype="120P," lat="38.4112" lon="22.5271">
    <comp name="--.HHN">
      <acc value="0.0085077192" flag="0"/>
      <vel value="0.0027601091" flag="0"/>
      <psa03 value="0.0136418696" flag="0"/>
      <psa10 value="0.0032529191" flag="0"/>
      <psa30 value="0.0003022931" flag="0"/>
    </comp>
    <comp name="--.HHE">
      <acc value="0.0064719360" flag="0"/>
      <vel value="0.0028356208" flag="0"/>
      <psa03 value="0.0147071536" flag="0"/>
      <psa10 value="0.0042700587" flag="0"/>
      <psa30 value="0.0003983915" flag="0"/>
    </comp>
    <comp name="--.HHZ">
      <acc value="0.0043204403" flag="0"/>
      <vel value="0.0021705915" flag="0"/>
      <psa03 value="0.0058829366" flag="0"/>
      <psa10 value="0.0020245642" flag="0"/>
      <psa30 value="0.0003331963" flag="0"/>
    </comp>
  </station>
  <station code="EFP" name="EFP" netid="HP" insttype="40," lat="38.4269" lon="21.9058">
    <comp name="--.HHZ">
      <acc value="0.0071271835" flag="0"/>
      <vel value="0.0025868065" flag="0"/>
      <psa03 value="0.0215390490" flag="0"/>
      <psa10 value="0.0021019839" flag="0"/>
      <psa30 value="0.0002152663" flag="0"/>
    </comp>
    <comp name="--.HHE">
      <acc value="0.0075032671" flag="0"/>
      <vel value="0.0023962720" flag="0"/>
      <psa03 value="0.0141145031" flag="0"/>
      <psa10 value="0.0026157147" flag="0"/>
      <psa30 value="0.0002976077" flag="0"/>
    </comp>
    <comp name="--.HHN">
      <acc value="0.0077715608" flag="0"/>
      <vel value="0.0025046758" flag="0"/>
      <psa03 value="0.0132014692" flag="0"/>
      <psa10 value="0.0037426866" flag="0"/>
      <psa30 value="0.0003006907" flag="0"/>
    </comp>
  </station>
  <station code="GUR" name="GUR" netid="HP" insttype="40," lat="37.9363" lon="22.3423">
    <comp name="--.HHZ">
      <acc value="0.0370894020" flag="0"/>
      <vel value="0.0091753613" flag="0"/>
      <psa03 value="0.0303234051" flag="0"/>
      <psa10 value="0.0075529139" flag="0"/>
      <psa30 value="0.0006082242" flag="0"/>
    </comp>
    <comp name="--.HHE">
      <acc value="0.0674103059" flag="0"/>
      <vel value="0.0129992586" flag="0"/>
      <psa03 value="0.0826200712" flag="0"/>
      <psa10 value="0.0091288243" flag="0"/>
      <psa30 value="0.0005342322" flag="0"/>
    </comp>
    <comp name="--.HHN">
      <acc value="0.0624851773" flag="0"/>
      <vel value="0.0184521105" flag="0"/>
      <psa03 value="0.0894214314" flag="0"/>
      <psa10 value="0.0111252487" flag="0"/>
      <psa30 value="0.0008482325" flag="0"/>
    </comp>
  </station>
  <station code="LTK" name="LTK" netid="HP" insttype="120s" lat="38.0228" lon="22.9673">
    <comp name="--.HHE">
      <acc value="0.0107685525" flag="0"/>
      <vel value="0.0062107425" flag="0"/>
      <psa03 value="0.0264244258" flag="0"/>
      <psa10 value="0.0118104306" flag="0"/>
      <psa30 value="0.0005887870" flag="0"/>
    </comp>
    <comp name="--.HHN">
      <acc value="0.0135112436" flag="0"/>
      <vel value="0.0072763409" flag="0"/>
      <psa03 value="0.0217834945" flag="0"/>
      <psa10 value="0.0086329924" flag="0"/>
      <psa30 value="0.0003609387" flag="0"/>
    </comp>
    <comp name="--.HHZ">
      <acc value="0.0121256402" flag="0"/>
      <vel value="0.0047667787" flag="0"/>
      <psa03 value="0.0233891900" flag="0"/>
      <psa10 value="0.0065176906" flag="0"/>
      <psa30 value="0.0003418501" flag="0"/>
    </comp>
  </station>
  <station code="PYL" name="PYL" netid="HP" insttype="" lat="0" lon="0">
    <comp name="--.HHE">
      <acc value="0.0455629432" flag="0"/>
      <vel value="0.0117256089" flag="0"/>
      <psa03 value="0.0577889373" flag="0"/>
      <psa10 value="0.0069202728" flag="0"/>
      <psa30 value="0.0007428624" flag="0"/>
    </comp>
  </station>
  <station code="SERG" name="SERG" netid="HP" insttype="2000" lat="38.4133" lon="22.0566">
    <comp name="00.HHE">
      <acc value="0.0103249534" flag="0"/>
      <vel value="0.0034799212" flag="0"/>
      <psa03 value="0.0159196109" flag="0"/>
      <psa10 value="0.0040125180" flag="0"/>
      <psa30 value="0.0003785001" flag="0"/>
    </comp>
    <comp name="00.HHN">
      <acc value="0.0106356538" flag="0"/>
      <vel value="0.0042637075" flag="0"/>
      <psa03 value="0.0181315136" flag="0"/>
      <psa10 value="0.0048297950" flag="0"/>
      <psa30 value="0.0004426497" flag="0"/>
    </comp>
    <comp name="00.HHZ">
      <acc value="0.0042906188" flag="0"/>
      <vel value="0.0018592031" flag="0"/>
      <psa03 value="0.0071719252" flag="0"/>
      <psa10 value="0.0029840926" flag="0"/>
      <psa30 value="0.0002073300" flag="0"/>
    </comp>
  </station>
  <station code="UPR" name="UPR" netid="HP" insttype="120" lat="38.2836" lon="21.7864">
    <comp name="--.HHN">
      <acc value="0.0142361270" flag="0"/>
      <vel value="0.0080761226" flag="0"/>
      <psa03 value="0.0262912717" flag="0"/>
      <psa10 value="0.0142910769" flag="0"/>
      <psa30 value="0.0008582236" flag="0"/>
    </comp>
    <comp name="--.HHE">
      <acc value="0.0228032874" flag="0"/>
      <vel value="0.0095755138" flag="0"/>
      <psa03 value="0.0319859160" flag="0"/>
      <psa10 value="0.0118749926" flag="0"/>
      <psa30 value="0.0007702488" flag="0"/>
    </comp>
    <comp name="--.HHZ">
      <acc value="0.0115224980" flag="0"/>
      <vel value="0.0094869846" flag="0"/>
      <psa03 value="0.0219122663" flag="0"/>
      <psa10 value="0.0162811589" flag="0"/>
      <psa30 value="0.0007416845" flag="0"/>
    </comp>
  </station>
  <station code="VALY" name="VALY" netid="HP" insttype="DC_100" lat="37.1641" lon="21.9836">
    <comp name="--.HNN">
      <acc value="0.5220188623" flag="0"/>
