<?xml version="1.0" encoding="UTF-8" standalone="yes"?>
<!DOCTYPE earthquake SYSTEM "stationlist.dtd">
<stationlist created="" xmlns="ch.ethz.sed.shakemap.usgs.xml">
  <station code="BAYT" name="BAYT" netid="KO" insttype="CMG-3ESPC" lat="40.3937" lon="40.141">
    <comp name="--.HHN">
      <acc value="0.0195191604" flag="0"/>
      <vel value="0.0145763870" flag="0"/>
      <psa03 value="0.0687571270" flag="0"/>
      <psa10 value="0.0159836387" flag="0"/>
      <psa30 value="0.0017163428" flag="0"/>
    </comp>
    <comp name="--.HHZ">
      <acc value="0.0033604267" flag="0"/>
      <vel value="0.0014461601" flag="0"/>
      <psa03 value="0.0143201946" flag="0"/>
      <psa10 value="0.0007376606" flag="0"/>
      <psa30 value="0.0000456495" flag="0"/>
    </comp>
    <comp name="--.HHE">
      <acc value="0.0332647525" flag="0"/>
      <vel value="0.0185522724" flag="0"/>
      <psa03 value="0.1024770529" flag="0"/>
      <psa10 value="0.0126638163" flag="0"/>
      <psa30 value="0.0015175454" flag="0"/>
    </comp>
  </station>
  <station code="KARO" name="KARO" netid="KO" insttype="CMG-3T" lat="39.3089" lon="41.0493">
    <comp name="--.HHE">
      <acc value="0.1802382627" flag="0"/>
      <vel value="0.1381340119" flag="0"/>
      <psa03 value="0.3755072365" flag="0"/>
      <psa10 value="0.1316446312" flag="0"/>
      <psa30 value="0.0080030615" flag="0"/>
    </comp>
    <comp name="--.HHZ">
      <acc value="0.0702867943" flag="0"/>
      <vel value="0.0437391517" flag="0"/>
      <psa03 value="0.1913559967" flag="0"/>
      <psa10 value="0.0416786936" flag="0"/>
      <psa30 value="0.0030943690" flag="0"/>
    </comp>
    <comp name="--.HHN">
      <acc value="0.1233356945" flag="0"/>
      <vel value="0.0612582967" flag="0"/>
      <psa03 value="0.4828641216" flag="0"/>
      <psa10 value="0.0651920054" flag="0"/>
      <psa30 value="0.0065958575" flag="0"/>
    </comp>
  </station>
</stationlist>
