<?xml version="1.0" encoding="UTF-8" standalone="yes"?>
<!DOCTYPE earthquake SYSTEM "stationlist.dtd">
<stationlist created="" xmlns="ch.ethz.sed.shakemap.usgs.xml">
  <station code="BAYT" name="BAYT" netid="KO" insttype="CMG-3ESPC" lat="40.3937" lon="40.141">
    <comp name="--.HHN">
      <acc value="0.0195191606" flag="0"/>
      <vel value="0.0145763877" flag="0"/>
      <psa03 value="0.0687571270" flag="0"/>
      <psa10 value="0.0159836385" flag="0"/>
      <psa30 value="0.0017162373" flag="0"/>
    </comp>
    <comp name="--.HHE">
      <acc value="0.0332647525" flag="0"/>
      <vel value="0.0185522721" flag="0"/>
      <psa03 value="0.1024770529" flag="0"/>
      <psa10 value="0.0126638163" flag="0"/>
      <psa30 value="0.0015174162" flag="0"/>
    </comp>
    <comp name="--.HHZ">
      <acc value="0.0033604270" flag="0"/>
      <vel value="0.0014461600" flag="0"/>
      <psa03 value="0.0143201946" flag="0"/>
      <psa10 value="0.0007376606" flag="0"/>
      <psa30 value="0.0000456600" flag="0"/>
    </comp>
  </station>
  <station code="BNGB" name="BNGB" netid="KO" insttype="CMG-3ESPC" lat="38.9913" lon="40.6792">
    <comp name="--.HHN">
      <acc value="0.0158677952" flag="0"/>
      <vel value="0.0053525229" flag="0"/>
      <psa03 value="0.0278794894" flag="0"/>
      <psa10 value="0.0072604148" flag="0"/>
      <psa30 value="0.0015925339" flag="0"/>
    </comp>
  </station>
  <station code="ERZN" name="ERZN" netid="KO" insttype="CMG-3ESP" lat="39.5867" lon="39.722">
    <comp name="--.HHZ">
      <acc value="0.0202147451" flag="0"/>
      <vel value="0.0089387103" flag="0"/>
      <psa03 value="0.0321712303" flag="0"/>
      <psa10 value="0.0055566506" flag="0"/>
      <psa30 value="0.0011926705" flag="0"/>
    </comp>
  </station>
  <station code="KARO" name="KARO" netid="KO" insttype="CMG-3T" lat="39.3089" lon="41.0493">
    <comp name="--.HHE">
      <acc value="0.1802382629" flag="0"/>
      <vel value="0.1381340032" flag="0"/>
      <psa03 value="0.3755072365" flag="0"/>
      <psa10 value="0.1316446411" flag="0"/>
      <psa30 value="0.0080023566" flag="0"/>
    </comp>
    <comp name="--.HHN">
      <acc value="0.1233356917" flag="0"/>
      <vel value="0.0612582997" flag="0"/>
      <psa03 value="0.4828641216" flag="0"/>
      <psa10 value="0.0651920054" flag="0"/>
      <psa30 value="0.0065958004" flag="0"/>
    </comp>
    <comp name="--.HHZ">
      <acc value="0.0702867966" flag="0"/>
      <vel value="0.0437391470" flag="0"/>
      <psa03 value="0.1913559967" flag="0"/>
      <psa10 value="0.0416786941" flag="0"/>
      <psa30 value="0.0030944125" flag="0"/>
    </comp>
  </station>
</stationlist>
