<?xml version="1.0" encoding="UTF-8" standalone="yes"?>
<!DOCTYPE earthquake SYSTEM "stationlist.dtd">
<stationlist created="" xmlns="ch.ethz.sed.shakemap.usgs.xml">
  <station code="CHOM" name="CHOM" netid="KO" insttype="CMG-3ESP" lat="41.097" lon="40.7612">
    <comp name="--.HHN">
      <acc value="0.0271278460" flag="0"/>
      <vel value="0.0130403444" flag="0"/>
      <psa03 value="0.1001648269" flag="0"/>
      <psa10 value="0.0084950949" flag="0"/>
      <psa30 value="0.0013756043" flag="0"/>
    </comp>
  </station>
  <station code="KARO" name="KARO" netid="KO" insttype="CMG-3T" lat="39.3089" lon="41.0493">
    <comp name="--.HHZ">
      <acc value="0.0702867954" flag="0"/>
      <vel value="0.0437391481" flag="0"/>
      <psa03 value="0.1913559967" flag="0"/>
      <psa10 value="0.0416786942" flag="0"/>
      <psa30 value="0.0030943944" flag="0"/>
    </comp>
    <comp name="--.HHN">
      <acc value="0.1233356935" flag="0"/>
      <vel value="0.0612582972" flag="0"/>
      <psa03 value="0.4828641216" flag="0"/>
      <psa10 value="0.0651920053" flag="0"/>
      <psa30 value="0.0065958878" flag="0"/>
    </comp>
    <comp name="--.HHE">
      <acc value="0.1802382637" flag="0"/>
      <vel value="0.1381340039" flag="0"/>
      <psa03 value="0.3755072365" flag="0"/>
      <psa10 value="0.1316446394" flag="0"/>
      <psa30 value="0.0080025876" flag="0"/>
    </comp>
  </station>
</stationlist>
