<?xml version="1.0" encoding="UTF-8" standalone="yes"?>
<!DOCTYPE earthquake SYSTEM "stationlist.dtd">
<stationlist created="" xmlns="ch.ethz.sed.shakemap.usgs.xml">
  <station code="KARO" name="KARO" netid="KO" insttype="CMG-3T" lat="39.3089" lon="41.0493">
    <comp name="--.HHZ">
      <acc value="0.0702867952" flag="0"/>
      <vel value="0.0437391460" flag="0"/>
      <psa03 value="0.1913559967" flag="0"/>
      <psa10 value="0.0416786941" flag="0"/>
      <psa30 value="0.0030943745" flag="0"/>
    </comp>
    <comp name="--.HHE">
      <acc value="0.1802382640" flag="0"/>
      <vel value="0.1381340057" flag="0"/>
      <psa03 value="0.3755072365" flag="0"/>
      <psa10 value="0.1316446383" flag="0"/>
      <psa30 value="0.0080027422" flag="0"/>
    </comp>
    <comp name="--.HHN">
      <acc value="0.1233356937" flag="0"/>
      <vel value="0.0612582595" flag="0"/>
      <psa03 value="0.4828641216" flag="0"/>
      <psa10 value="0.0651920054" flag="0"/>
      <psa30 value="0.0065962701" flag="0"/>
    </comp>
  </station>
</stationlist>
