<stationlist created="1675677694">
	<station code="CMRD" name="CMRD" netid="KO" source="Bogazici University Kandilli Observatory And Earthquake Research Institute (KOERI)" insttype="" lat="37.6623" lon="34.9902">
		<comp name=".HNE" depth="0.0">
			<acc value="0.00382208939165" flag="0"/>
			<vel value="0.00266965694811" flag="0"/>
			<psa03 value="0.012063265278" flag="0"/>
			<psa10 value="0.0042221890743" flag="0"/>
			<psa30 value="0.000521304169259" flag="0"/>
		</comp>
		<comp name=".HNN" depth="0.0">
			<acc value="0.00547641486873" flag="0"/>
			<vel value="0.00387491397813" flag="0"/>
			<psa03 value="0.0170228412214" flag="0"/>
			<psa10 value="0.00496877306308" flag="0"/>
			<psa30 value="0.000451239319472" flag="0"/>
		</comp>
		<comp name=".HNZ" depth="0.0">
			<acc value="0.00335570125304" flag="0"/>
			<vel value="0.00255307642133" flag="0"/>
			<psa03 value="0.00956706020308" flag="0"/>
			<psa10 value="0.00590762385107" flag="0"/>
			<psa30 value="0.000487968106743" flag="0"/>
		</comp>
	</station>
	<station code="KHMN" name="KHMN" netid="KO" source="Bogazici University Kandilli Observatory And Earthquake Research Institute (KOERI)" insttype="" lat="37.3916" lon="37.1574">
		<comp name=".HNE" depth="0.0">
			<acc value="6.07345902775" flag="0"/>
			<vel value="1.60879746859" flag="0"/>
			<psa03 value="3.80962203543" flag="0"/>
			<psa10 value="0.309939191951" flag="0"/>
			<psa30 value="0.0378603147267" flag="0"/>
		</comp>
		<comp name=".HNN" depth="0.0">
			<acc value="4.70532205364" flag="0"/>
			<vel value="0.68845469184" flag="0"/>
			<psa03 value="3.0259434539" flag="0"/>
			<psa10 value="0.286851972536" flag="0"/>
			<psa30 value="0.0199656276248" flag="0"/>
		</comp>
		<comp name=".HNZ" depth="0.0">
			<acc value="1.80839807093" flag="0"/>
			<vel value="0.28865090182" flag="0"/>
			<psa03 value="0.853063177914" flag="0"/>
			<psa10 value="0.204032641161" flag="0"/>
			<psa30 value="0.00843978409427" flag="0"/>
		</comp>
	</station>
	<station code="KRTS" name="KRTS" netid="KO" source="Bogazici University Kandilli Observatory And Earthquake Research Institute (KOERI)" insttype="" lat="36.573" lon="35.375">
		<comp name=".HNE" depth="0.0">
			<acc value="0.0200978346681" flag="0"/>
			<vel value="0.0147095105317" flag="0"/>
			<psa03 value="0.110820903841" flag="0"/>
			<psa10 value="0.0194159605871" flag="0"/>
			<psa30 value="0.00243302325918" flag="0"/>
		</comp>
		<comp name=".HNN" depth="0.0">
			<acc value="0.0281810916508" flag="0"/>
			<vel value="0.015344806001" flag="0"/>
			<psa03 value="0.0723430475801" flag="0"/>
			<psa10 value="0.0186204803905" flag="0"/>
			<psa30 value="0.00283055813559" flag="0"/>
		</comp>
		<comp name=".HNZ" depth="0.0">
			<acc value="0.0184300201523" flag="0"/>
			<vel value="0.00901256921501" flag="0"/>
			<psa03 value="0.0644903242507" flag="0"/>
			<psa10 value="0.0109996230461" flag="0"/>
			<psa30 value="0.00274574855903" flag="0"/>
		</comp>
	</station>
</stationlist>
