<?xml version="1.0" encoding="UTF-8" standalone="yes"?>
<!DOCTYPE earthquake SYSTEM "stationlist.dtd">
<stationlist created="" xmlns="ch.ethz.sed.shakemap.usgs.xml">
  <station code="KHMN" name="KHMN" netid="KO" insttype="CMG-5T" lat="37.3916" lon="37.1574">
    <comp name="--.HNE">
      <acc value="6.3779854819" flag="0"/>
      <vel value="1.5962845010" flag="0"/>
      <psa03 value="3.7556990113" flag="0"/>
      <psa10 value="0.3082715009" flag="0"/>
      <psa30 value="0.0378295029" flag="0"/>
    </comp>
    <comp name="--.HNN">
      <acc value="5.6632757218" flag="0"/>
      <vel value="0.7036197132" flag="0"/>
      <psa03 value="2.9879596955" flag="0"/>
      <psa10 value="0.2842694657" flag="0"/>
      <psa30 value="0.0207743674" flag="0"/>
    </comp>
    <comp name="--.HNZ">
      <acc value="2.2233707634" flag="0"/>
      <vel value="0.2982360820" flag="0"/>
      <psa03 value="0.8428758912" flag="0"/>
      <psa10 value="0.2034742426" flag="0"/>
      <psa30 value="0.0080386488" flag="0"/>
    </comp>
  </station>
</stationlist>
