<stationlist created="1675692180">
	<station code="KHMN" name="KHMN" netid="KO" source="Bogazici University Kandilli Observatory And Earthquake Research Institute (KOERI)" insttype="" lat="37.3916" lon="37.1574">
		<comp name=".HNE" depth="0.0">
			<acc value="6.07345902775" flag="0"/>
			<vel value="1.60879746859" flag="0"/>
			<psa03 value="3.80962203543" flag="0"/>
			<psa10 value="0.309939191951" flag="0"/>
			<psa30 value="0.0378603147267" flag="0"/>
		</comp>
		<comp name=".HNN" depth="0.0">
			<acc value="4.70532205364" flag="0"/>
			<vel value="0.68845469184" flag="0"/>
			<psa03 value="3.0259434539" flag="0"/>
			<psa10 value="0.286851972536" flag="0"/>
			<psa30 value="0.0199656276248" flag="0"/>
		</comp>
		<comp name=".HNZ" depth="0.0">
			<acc value="1.80839807093" flag="0"/>
			<vel value="0.28865090182" flag="0"/>
			<psa03 value="0.853063177914" flag="0"/>
			<psa10 value="0.204032641161" flag="0"/>
			<psa30 value="0.00843978409427" flag="0"/>
		</comp>
	</station>
</stationlist>
