<stationlist created="1778136815">
	<station code="KRL1" name="KRL1" netid="HI" source="ITSAK Strong Motion Network" insttype="" lat="37.7951" lon="26.7065">
		<comp name="--.HNE" depth="0.0">
			<acc value="0.00588615217819887" flag="0"/>
			<vel value="0.0040683775415549" flag="0"/>
			<psa03 value="0.0138293197703871" flag="0"/>
			<psa10 value="0.00447615917982081" flag="0"/>
			<psa30 value="0.000852121188430627" flag="0"/>
		</comp>
		<comp name="--.HNN" depth="0.0">
			<acc value="0.00404448587991113" flag="0"/>
			<vel value="0.00409418363471095" flag="0"/>
			<psa03 value="0.0135147025744044" flag="0"/>
			<psa10 value="0.00965233316971459" flag="0"/>
			<psa30 value="0.00103690806507021" flag="0"/>
		</comp>
		<comp name="--.HNZ" depth="0.0">
			<acc value="0.00278998429796339" flag="0"/>
			<vel value="0.00279146518196918" flag="0"/>
			<psa03 value="0.00620910598427238" flag="0"/>
			<psa10 value="0.00430338664076447" flag="0"/>
			<psa30 value="0.000569733054518181" flag="0"/>
		</comp>
	</station>
	<station code="LMN1" name="LMN1" netid="HI" source="ITSAK Strong Motion Network" insttype="" lat="39.875" lon="25.0588">
		<comp name="--.HNE" depth="0.0">
			<acc value="0.0149541097283389" flag="0"/>
			<vel value="0.008054782290305" flag="0"/>
			<psa03 value="0.0757700141831354" flag="0"/>
			<psa10 value="0.00556585292920358" flag="0"/>
			<psa30 value="0.00140348422394064" flag="0"/>
		</comp>
		<comp name="--.HNN" depth="0.0">
			<acc value="0.0165811777786458" flag="0"/>
			<vel value="0.0101702117097422" flag="0"/>
			<psa03 value="0.0671895134756599" flag="0"/>
			<psa10 value="0.00543560258198433" flag="0"/>
			<psa30 value="0.00194242867636617" flag="0"/>
		</comp>
		<comp name="--.HNZ" depth="0.0">
			<acc value="0.0121010164940682" flag="0"/>
			<vel value="0.00389100052795311" flag="0"/>
			<psa03 value="0.0133504208581877" flag="0"/>
			<psa10 value="0.00291844286376496" flag="0"/>
			<psa30 value="0.000570688586567975" flag="0"/>
		</comp>
	</station>
	<station code="MYT1" name="MYT1" netid="HI" source="ITSAK Strong Motion Network" insttype="" lat="39.085" lon="26.5694">
		<comp name="--.HNE" depth="0.0">
			<acc value="0.0477348031200919" flag="0"/>
			<vel value="0.0321296808733766" flag="0"/>
			<psa03 value="0.103943771181363" flag="0"/>
			<psa10 value="0.0441285132973249" flag="0"/>
			<psa30 value="0.00658634006271072" flag="0"/>
		</comp>
		<comp name="--.HNN" depth="0.0">
			<acc value="0.0438579271000645" flag="0"/>
			<vel value="0.0355873504990432" flag="0"/>
			<psa03 value="0.0767707367260334" flag="0"/>
			<psa10 value="0.0769939354703891" flag="0"/>
			<psa30 value="0.00930644317285281" flag="0"/>
		</comp>
		<comp name="--.HNZ" depth="0.0">
			<acc value="0.0321860209878899" flag="0"/>
			<vel value="0.022147608074785" flag="0"/>
			<psa03 value="0.060052879250062" flag="0"/>
			<psa10 value="0.0281442831706545" flag="0"/>
			<psa30 value="0.00405826133989742" flag="0"/>
		</comp>
	</station>
	<station code="SKY1" name="SKY1" netid="HI" source="ITSAK Strong Motion Network" insttype="" lat="38.904483" lon="24.564572">
		<comp name="--.HNE" depth="0.0">
			<acc value="0.00692710649840835" flag="0"/>
			<vel value="0.00342919029908258" flag="0"/>
			<psa03 value="0.0199322683316369" flag="0"/>
			<psa10 value="0.00300569684703819" flag="0"/>
			<psa30 value="0.000475351437614881" flag="0"/>
		</comp>
		<comp name="--.HNN" depth="0.0">
			<acc value="0.00545196509905787" flag="0"/>
			<vel value="0.00405905187701526" flag="0"/>
			<psa03 value="0.0248312569280557" flag="0"/>
			<psa10 value="0.0040982035171276" flag="0"/>
			<psa30 value="0.000386300798865252" flag="0"/>
		</comp>
		<comp name="--.HNZ" depth="0.0">
			<acc value="0.0038514037082383" flag="0"/>
			<vel value="0.00196595019573065" flag="0"/>
			<psa03 value="0.0107536713623486" flag="0"/>
			<psa10 value="0.00178972801382177" flag="0"/>
			<psa30 value="0.000512234349680256" flag="0"/>
		</comp>
	</station>
	<station code="LIA" name="LIA" netid="HL" source="National Observatory of Athens Seismic Network" insttype="" lat="39.89725" lon="25.18055">
		<comp name="00.HNE" depth="0.0">
			<acc value="0.0141636963506926" flag="0"/>
			<vel value="0.00568015180973347" flag="0"/>
			<psa03 value="0.0527725219620812" flag="0"/>
			<psa10 value="0.0067635749286439" flag="0"/>
			<psa30 value="0.000866237800671646" flag="0"/>
		</comp>
		<comp name="00.HNN" depth="0.0">
			<acc value="0.00910892475178354" flag="0"/>
			<vel value="0.00577207551264029" flag="0"/>
			<psa03 value="0.034267069504352" flag="0"/>
			<psa10 value="0.00460043209980926" flag="0"/>
			<psa30 value="0.00133821292087034" flag="0"/>
		</comp>
		<comp name="00.HNZ" depth="0.0">
			<acc value="0.00571815685265501" flag="0"/>
			<vel value="0.00322407352048739" flag="0"/>
			<psa03 value="0.0158489053809506" flag="0"/>
			<psa10 value="0.00711046400208928" flag="0"/>
			<psa30 value="0.000415890206934931" flag="0"/>
		</comp>
	</station>
	<station code="PRK" name="PRK" netid="HL" source="National Observatory of Athens Seismic Network" insttype="" lat="39.24565" lon="26.26499">
		<comp name="--.HNE" depth="0.0">
			<acc value="0.0967015751724082" flag="0"/>
			<vel value="0.0783786451414917" flag="0"/>
			<psa03 value="0.288582262991995" flag="0"/>
			<psa10 value="0.126456457119766" flag="0"/>
			<psa30 value="0.00792538918479225" flag="0"/>
		</comp>
		<comp name="--.HNN" depth="0.0">
			<acc value="0.188366835847951" flag="0"/>
			<vel value="0.0963479725194769" flag="0"/>
			<psa03 value="0.582561050144197" flag="0"/>
			<psa10 value="0.0994716195066852" flag="0"/>
			<psa30 value="0.00777423583829436" flag="0"/>
		</comp>
		<comp name="--.HNZ" depth="0.0">
			<acc value="0.0940576362028429" flag="0"/>
			<vel value="0.0485697200636882" flag="0"/>
			<psa03 value="0.309154084107315" flag="0"/>
			<psa10 value="0.0422395394123808" flag="0"/>
			<psa30 value="0.00458797143059452" flag="0"/>
		</comp>
	</station>
	<station code="SMTH" name="SMTH" netid="HL" source="National Observatory of Athens Seismic Network" insttype="" lat="40.47094" lon="25.53045">
		<comp name="00.HNE" depth="0.0">
			<acc value="0.00418807505279799" flag="0"/>
			<vel value="0.00248070212424488" flag="0"/>
			<psa03 value="0.00862084322397065" flag="0"/>
			<psa10 value="0.00288279440848108" flag="0"/>
			<psa30 value="0.000380162215130994" flag="0"/>
		</comp>
		<comp name="00.HNN" depth="0.0">
			<acc value="0.00421491345222573" flag="0"/>
			<vel value="0.00204010588551566" flag="0"/>
			<psa03 value="0.00939737513414522" flag="0"/>
			<psa10 value="0.00196817819464596" flag="0"/>
			<psa30 value="0.0003232321417097" flag="0"/>
		</comp>
		<comp name="00.HNZ" depth="0.0">
			<acc value="0.00315751350049101" flag="0"/>
			<vel value="0.00133915870127656" flag="0"/>
			<psa03 value="0.0098984936172405" flag="0"/>
			<psa10 value="0.00162400980924107" flag="0"/>
			<psa30 value="0.000424607971944448" flag="0"/>
		</comp>
	</station>
	<station code="BIGA" name="BIGA" netid="KO" source="Bogazici University Kandilli Observatory And Earthquake Research Institute (KOERI)" insttype="" lat="40.28134" lon="27.15048">
		<comp name="--.HNE" depth="0.0">
			<acc value="0.00877563347099996" flag="0"/>
			<vel value="0.00690406181509798" flag="0"/>
			<psa03 value="0.0223566945629653" flag="0"/>
			<psa10 value="0.00963962076506931" flag="0"/>
			<psa30 value="0.00155005132912562" flag="0"/>
		</comp>
		<comp name="--.HNN" depth="0.0">
			<acc value="0.0143964561682992" flag="0"/>
			<vel value="0.00790576942257177" flag="0"/>
			<psa03 value="0.0430200972661275" flag="0"/>
			<psa10 value="0.0151740977094986" flag="0"/>
			<psa30 value="0.000966466940359106" flag="0"/>
		</comp>
		<comp name="--.HNZ" depth="0.0">
			<acc value="0.00636851439170148" flag="0"/>
			<vel value="0.00322580264632413" flag="0"/>
			<psa03 value="0.0108591269159419" flag="0"/>
			<psa10 value="0.00397090883447225" flag="0"/>
			<psa30 value="0.000769619264750634" flag="0"/>
		</comp>
	</station>
	<station code="EDC" name="EDC" netid="KO" source="Bogazici University Kandilli Observatory And Earthquake Research Institute (KOERI)" insttype="" lat="40.3465" lon="27.8618">
		<comp name="--.HNE" depth="0.0">
			<acc value="0.00629528977023965" flag="0"/>
			<vel value="0.00341764239219135" flag="0"/>
			<psa03 value="0.020240231441014" flag="0"/>
			<psa10 value="0.00450389367336403" flag="0"/>
			<psa30 value="0.00052308288084244" flag="0"/>
		</comp>
		<comp name="--.HNN" depth="0.0">
			<acc value="0.00848450511023731" flag="0"/>
			<vel value="0.00530243750971045" flag="0"/>
			<psa03 value="0.023179170922984" flag="0"/>
			<psa10 value="0.00746735217544783" flag="0"/>
			<psa30 value="0.00072973677897973" flag="0"/>
		</comp>
		<comp name="--.HNZ" depth="0.0">
			<acc value="0.00302920455493059" flag="0"/>
			<vel value="0.00177083962262373" flag="0"/>
			<psa03 value="0.00721428259831373" flag="0"/>
			<psa10 value="0.00242341663320962" flag="0"/>
			<psa30 value="0.000388684732830828" flag="0"/>
		</comp>
	</station>
	<station code="ENZZ" name="ENZZ" netid="KO" source="Bogazici University Kandilli Observatory And Earthquake Research Institute (KOERI)" insttype="" lat="40.607" lon="26.1406">
		<comp name="--.HNE" depth="0.0">
			<acc value="0.0226880127722602" flag="0"/>
			<vel value="0.0169084934254225" flag="0"/>
			<psa03 value="0.0771391517568043" flag="0"/>
			<psa10 value="0.0229529792722364" flag="0"/>
			<psa30 value="0.00268666860360824" flag="0"/>
		</comp>
		<comp name="--.HNN" depth="0.0">
			<acc value="0.019864454042496" flag="0"/>
			<vel value="0.0123351316349066" flag="0"/>
			<psa03 value="0.0446014962968903" flag="0"/>
			<psa10 value="0.0175110350201221" flag="0"/>
			<psa30 value="0.00306550369957581" flag="0"/>
		</comp>
		<comp name="--.HNZ" depth="0.0">
			<acc value="0.0114918311487698" flag="0"/>
			<vel value="0.00636589930694557" flag="0"/>
			<psa03 value="0.0283787757879407" flag="0"/>
			<psa10 value="0.00492181620240391" flag="0"/>
			<psa30 value="0.00172506979823981" flag="0"/>
		</comp>
	</station>
	<station code="GONE" name="GONE" netid="KO" source="Bogazici University Kandilli Observatory And Earthquake Research Institute (KOERI)" insttype="" lat="40.0466" lon="27.686">
		<comp name="--.HNE" depth="0.0">
			<acc value="0.00918724136020649" flag="0"/>
			<vel value="0.00740014135950731" flag="0"/>
			<psa03 value="0.0203770725373058" flag="0"/>
			<psa10 value="0.0146073807922911" flag="0"/>
			<psa30 value="0.00107561125396467" flag="0"/>
		</comp>
		<comp name="--.HNN" depth="0.0">
			<acc value="0.0122293135630284" flag="0"/>
			<vel value="0.0129913175744113" flag="0"/>
			<psa03 value="0.0218028714165618" flag="0"/>
			<psa10 value="0.0197027552108413" flag="0"/>
			<psa30 value="0.00137266593238275" flag="0"/>
		</comp>
		<comp name="--.HNZ" depth="0.0">
			<acc value="0.00493919702413047" flag="0"/>
			<vel value="0.00390206293724325" flag="0"/>
			<psa03 value="0.00669202664725163" flag="0"/>
			<psa10 value="0.00418479534715369" flag="0"/>
			<psa30 value="0.000760344587846636" flag="0"/>
		</comp>
	</station>
	<station code="GORD" name="GORD" netid="KO" source="Bogazici University Kandilli Observatory And Earthquake Research Institute (KOERI)" insttype="" lat="38.9088" lon="28.1769">
		<comp name="--.HNE" depth="0.0">
			<acc value="0.00415329055749937" flag="0"/>
			<vel value="0.00700470839534938" flag="0"/>
			<psa03 value="0.00586847078865821" flag="0"/>
			<psa10 value="0.0135543710355659" flag="0"/>
			<psa30 value="0.00106924801993447" flag="0"/>
		</comp>
		<comp name="--.HNN" depth="0.0">
			<acc value="0.00375705814983975" flag="0"/>
			<vel value="0.00625855053138451" flag="0"/>
			<psa03 value="0.00654080699428002" flag="0"/>
			<psa10 value="0.0064278320623418" flag="0"/>
			<psa30 value="0.000880550102957668" flag="0"/>
		</comp>
		<comp name="--.HNZ" depth="0.0">
			<acc value="0.00222352452205555" flag="0"/>
			<vel value="0.00278174415443861" flag="0"/>
			<psa03 value="0.0040594010768557" flag="0"/>
			<psa10 value="0.00597285942262603" flag="0"/>
			<psa30 value="0.00103121310447247" flag="0"/>
		</comp>
	</station>
	<station code="KRBG" name="KRBG" netid="KO" source="Bogazici University Kandilli Observatory And Earthquake Research Institute (KOERI)" insttype="" lat="40.3932" lon="27.2977">
		<comp name="--.HNE" depth="0.0">
			<acc value="0.0102680091909674" flag="0"/>
			<vel value="0.00573808455591224" flag="0"/>
			<psa03 value="0.0353693925278478" flag="0"/>
			<psa10 value="0.00696042406270066" flag="0"/>
			<psa30 value="0.000921903675762251" flag="0"/>
		</comp>
		<comp name="--.HNN" depth="0.0">
			<acc value="0.0100972747480713" flag="0"/>
			<vel value="0.00814972057341495" flag="0"/>
			<psa03 value="0.0232350183726201" flag="0"/>
			<psa10 value="0.00524233352886939" flag="0"/>
			<psa30 value="0.000490740529983799" flag="0"/>
		</comp>
		<comp name="--.HNZ" depth="0.0">
			<acc value="0.00343499406412796" flag="0"/>
			<vel value="0.00213091062047567" flag="0"/>
			<psa03 value="0.00998537502374947" flag="0"/>
			<psa10 value="0.00317752291717286" flag="0"/>
			<psa30 value="0.000395692045989554" flag="0"/>
		</comp>
	</station>
	<station code="SOMA" name="SOMA" netid="KO" source="Bogazici University Kandilli Observatory And Earthquake Research Institute (KOERI)" insttype="" lat="39.1564" lon="27.5341">
		<comp name="--.HNE" depth="0.0">
			<acc value="0.0074513497827129" flag="0"/>
			<vel value="0.00611069200393162" flag="0"/>
			<psa03 value="0.0173072871478436" flag="0"/>
			<psa10 value="0.0176816038194733" flag="0"/>
			<psa30 value="0.00137302064337988" flag="0"/>
		</comp>
		<comp name="--.HNN" depth="0.0">
			<acc value="0.00711409306288236" flag="0"/>
			<vel value="0.00626941595856888" flag="0"/>
			<psa03 value="0.020695446492578" flag="0"/>
			<psa10 value="0.0115711655954286" flag="0"/>
			<psa30 value="0.00168152920555718" flag="0"/>
		</comp>
		<comp name="--.HNZ" depth="0.0">
			<acc value="0.0060696076782221" flag="0"/>
			<vel value="0.00390199583118181" flag="0"/>
			<psa03 value="0.0176461520438703" flag="0"/>
			<psa10 value="0.00841607689877561" flag="0"/>
			<psa30 value="0.000847825851799843" flag="0"/>
		</comp>
	</station>
</stationlist>
