<?xml version="1.0" encoding="UTF-8" standalone="yes"?>
<!DOCTYPE earthquake SYSTEM "stationlist.dtd">
<stationlist created="" xmlns="ch.ethz.sed.shakemap.usgs.xml">
  <station code="MYT1" name="MYT1" netid="HI" insttype="CMG-5TD,ACCELEROMETER,GURALP" lat="39.085" lon="26.5694">
    <comp name="--.HNE">
      <acc value="0.0478452341" flag="0"/>
      <vel value="0.0299999410" flag="0"/>
      <psa03 value="0.1024891001" flag="0"/>
      <psa10 value="0.0441384362" flag="0"/>
      <psa30 value="0.0059358612" flag="0"/>
    </comp>
    <comp name="--.HNN">
      <acc value="0.0434427545" flag="0"/>
      <vel value="0.0362567286" flag="0"/>
      <psa03 value="0.0770504940" flag="0"/>
      <psa10 value="0.0769820555" flag="0"/>
      <psa30 value="0.0079104851" flag="0"/>
    </comp>
    <comp name="--.HNZ">
      <acc value="0.0323558220" flag="0"/>
      <vel value="0.0223445953" flag="0"/>
      <psa03 value="0.0593845530" flag="0"/>
      <psa10 value="0.0281578701" flag="0"/>
      <psa30 value="0.0037086484" flag="0"/>
    </comp>
  </station>
  <station code="PRK" name="PRK" netid="HL" insttype="120" lat="39.2456" lon="26.265">
    <comp name="--.HHN">
      <acc value="0.1537308406" flag="0"/>
      <vel value="0.0832037248" flag="0"/>
      <psa03 value="0.4629187970" flag="0"/>
      <psa10 value="0.0713844304" flag="0"/>
      <psa30 value="0.0060806550" flag="0"/>
    </comp>
    <comp name="--.HHE">
      <acc value="0.1150313099" flag="0"/>
      <vel value="0.0923873985" flag="0"/>
      <psa03 value="0.3534534951" flag="0"/>
      <psa10 value="0.1439630969" flag="0"/>
      <psa30 value="0.0085903619" flag="0"/>
    </comp>
    <comp name="--.HHZ">
      <acc value="0.0940967818" flag="0"/>
      <vel value="0.0480864714" flag="0"/>
      <psa03 value="0.3042385444" flag="0"/>
      <psa10 value="0.0424926645" flag="0"/>
      <psa30 value="0.0041674399" flag="0"/>
    </comp>
  </station>
  <station code="CHOS" name="CHOS" netid="HT" insttype="100" lat="38.3869" lon="26.0506">
    <comp name="--.HHE">
      <acc value="0.0435873104" flag="0"/>
      <vel value="0.0171428586" flag="0"/>
      <psa03 value="0.0991196784" flag="0"/>
      <psa10 value="0.0111609140" flag="0"/>
      <psa30 value="0.0032349456" flag="0"/>
    </comp>
    <comp name="--.HHN">
      <acc value="0.0232388919" flag="0"/>
      <vel value="0.0109376792" flag="0"/>
      <psa03 value="0.0364559390" flag="0"/>
      <psa10 value="0.0131555059" flag="0"/>
      <psa30 value="0.0031630195" flag="0"/>
    </comp>
    <comp name="--.HHZ">
      <acc value="0.0195723189" flag="0"/>
      <vel value="0.0071717779" flag="0"/>
      <psa03 value="0.0406434672" flag="0"/>
      <psa10 value="0.0052888578" flag="0"/>
      <psa30 value="0.0012480510" flag="0"/>
    </comp>
  </station>
  <station code="SIGR" name="SIGR" netid="HT" insttype="100" lat="39.2114" lon="25.8553">
    <comp name="--.HHN">
      <acc value="0.0994701265" flag="0"/>
      <vel value="0.0358570607" flag="0"/>
      <psa03 value="0.1589985221" flag="0"/>
      <psa10 value="0.0262323503" flag="0"/>
      <psa30 value="0.0029437317" flag="0"/>
    </comp>
    <comp name="--.HHE">
      <acc value="0.0628457676" flag="0"/>
      <vel value="0.0379125347" flag="0"/>
      <psa03 value="0.1013278381" flag="0"/>
      <psa10 value="0.0359057442" flag="0"/>
      <psa30 value="0.0026793904" flag="0"/>
    </comp>
    <comp name="--.HHZ">
      <acc value="0.0641002436" flag="0"/>
      <vel value="0.0205718830" flag="0"/>
      <psa03 value="0.1154989202" flag="0"/>
      <psa10 value="0.0109688118" flag="0"/>
      <psa30 value="0.0017398464" flag="0"/>
    </comp>
  </station>
  <station code="EZN" name="EZN" netid="KO" insttype="120s," lat="39.8255" lon="26.3247">
    <comp name="--.HHN">
      <acc value="0.0392104117" flag="0"/>
      <vel value="0.0184496479" flag="0"/>
      <psa03 value="0.0546801378" flag="0"/>
      <psa10 value="0.0136137864" flag="0"/>
      <psa30 value="0.0015616403" flag="0"/>
    </comp>
    <comp name="--.HHZ">
      <acc value="0.0373228398" flag="0"/>
      <vel value="0.0158345809" flag="0"/>
      <psa03 value="0.0578251974" flag="0"/>
      <psa10 value="0.0180352095" flag="0"/>
      <psa30 value="0.0017688437" flag="0"/>
    </comp>
  </station>
  <station code="YAYO" name="YAYO" netid="KO" insttype="30s," lat="39.6113" lon="27.0726">
    <comp name="--.HHE">
      <acc value="0.0378318233" flag="0"/>
      <vel value="0.0192334635" flag="0"/>
      <psa03 value="0.1096753795" flag="0"/>
      <psa10 value="0.0177114832" flag="0"/>
      <psa30 value="0.0020400222" flag="0"/>
    </comp>
    <comp name="--.HHZ">
      <acc value="0.0157242347" flag="0"/>
      <vel value="0.0086281672" flag="0"/>
      <psa03 value="0.0511964252" flag="0"/>
      <psa10 value="0.0062526070" flag="0"/>
      <psa30 value="0.0005565932" flag="0"/>
    </comp>
    <comp name="--.HHN">
      <acc value="0.0237576022" flag="0"/>
      <vel value="0.0169035729" flag="0"/>
      <psa03 value="0.0922528512" flag="0"/>
      <psa10 value="0.0262309606" flag="0"/>
      <psa30 value="0.0016090918" flag="0"/>
    </comp>
  </station>
</stationlist>
