<stationlist created="1778136263">
	<station code="S2114" name="S2114" netid="S2" source="IceSMN Icelandic Strong Motion Network (IceSMN)" insttype="" lat="63.7515" lon="-20.2168">
		<comp name="00.HN1" depth="0.0">
			<acc value="0.115768752021245" flag="0"/>
			<vel value="0.120649461869407" flag="0"/>
			<psa03 value="0.336780435050795" flag="0"/>
			<psa10 value="0.140425967531073" flag="0"/>
			<psa30 value="0.00963089299938243" flag="0"/>
		</comp>
		<comp name="00.HN2" depth="0.0">
			<acc value="0.0796223351989864" flag="0"/>
			<vel value="0.0402789986625163" flag="0"/>
			<psa03 value="0.161581683160378" flag="0"/>
			<psa10 value="0.0360320831986878" flag="0"/>
			<psa30 value="0.00640783448760436" flag="0"/>
		</comp>
		<comp name="00.HNZ" depth="0.0">
			<acc value="0.0483010187280994" flag="0"/>
			<vel value="0.0256144008080524" flag="0"/>
			<psa03 value="0.0741958890717371" flag="0"/>
			<psa10 value="0.0358410342926299" flag="0"/>
			<psa30 value="0.00886284295316338" flag="0"/>
		</comp>
	</station>
	<station code="S2119" name="S2119" netid="S2" source="IceSMN Icelandic Strong Motion Network (IceSMN)" insttype="" lat="64.1301" lon="-20.32">
		<comp name="00.HN1" depth="0.0">
			<acc value="0.158144901150044" flag="0"/>
			<vel value="0.0972145032456485" flag="0"/>
			<psa03 value="0.531580422928005" flag="0"/>
			<psa10 value="0.0386494678375611" flag="0"/>
			<psa30 value="0.0107862970392396" flag="0"/>
		</comp>
		<comp name="00.HN2" depth="0.0">
			<acc value="0.100904124182742" flag="0"/>
			<vel value="0.0754122174615902" flag="0"/>
			<psa03 value="0.365018680696099" flag="0"/>
			<psa10 value="0.0337487744406645" flag="0"/>
			<psa30 value="0.00538419625992912" flag="0"/>
		</comp>
		<comp name="00.HNZ" depth="0.0">
			<acc value="0.0326758802940025" flag="0"/>
			<vel value="0.0162232178295097" flag="0"/>
			<psa03 value="0.0862992221083859" flag="0"/>
			<psa10 value="0.023562124625128" flag="0"/>
			<psa30 value="0.00645746735883379" flag="0"/>
		</comp>
	</station>
	<station code="S2405" name="S2405" netid="S2" source="IceSMN Icelandic Strong Motion Network (IceSMN)" insttype="" lat="64.0447" lon="-21.9848">
		<comp name="00.HN1" depth="0.0">
			<acc value="0.906840833503997" flag="0"/>
			<vel value="0.45325988360834" flag="0"/>
			<psa03 value="1.91827207611247" flag="0"/>
			<psa10 value="0.415823226248958" flag="0"/>
			<psa30 value="0.0332466224255715" flag="0"/>
		</comp>
		<comp name="00.HN2" depth="0.0">
			<acc value="2.17390615446029" flag="0"/>
			<vel value="0.828681979608396" flag="0"/>
			<psa03 value="4.24024589548015" flag="0"/>
			<psa10 value="0.473830328932903" flag="0"/>
			<psa30 value="0.0485060432872371" flag="0"/>
		</comp>
		<comp name="00.HNZ" depth="0.0">
			<acc value="0.911389364528516" flag="0"/>
			<vel value="0.246229085184146" flag="0"/>
			<psa03 value="0.691867499493244" flag="0"/>
			<psa10 value="0.156907934380578" flag="0"/>
			<psa30 value="0.0367469409711786" flag="0"/>
		</comp>
	</station>
	<station code="S2602" name="S2602" netid="S2" source="IceSMN Icelandic Strong Motion Network (IceSMN)" insttype="" lat="63.8464" lon="-22.4268">
		<comp name="00.HN1" depth="0.0">
			<acc value="0.498038134766215" flag="0"/>
			<vel value="0.36626484681058" flag="0"/>
			<psa03 value="0.686689031443376" flag="0"/>
			<psa10 value="0.471275389680932" flag="0"/>
			<psa30 value="0.0585329241854795" flag="0"/>
		</comp>
		<comp name="00.HN2" depth="0.0">
			<acc value="0.568777062969175" flag="0"/>
			<vel value="0.405093373395343" flag="0"/>
			<psa03 value="1.29064524891526" flag="0"/>
			<psa10 value="0.430757765587123" flag="0"/>
			<psa30 value="0.0348998719452387" flag="0"/>
		</comp>
		<comp name="00.HNZ" depth="0.0">
			<acc value="0.345863642683757" flag="0"/>
			<vel value="0.172093493563165" flag="0"/>
			<psa03 value="0.464462435023927" flag="0"/>
			<psa10 value="0.22749955072855" flag="0"/>
			<psa30 value="0.0568720074915788" flag="0"/>
		</comp>
	</station>
	<station code="S2604" name="S2604" netid="S2" source="IceSMN Icelandic Strong Motion Network (IceSMN)" insttype="" lat="63.9843" lon="-21.6486">
		<comp name="00.HN1" depth="0.0">
			<acc value="0.483440991842351" flag="0"/>
			<vel value="0.310162510254447" flag="0"/>
			<psa03 value="0.872574387102638" flag="0"/>
			<psa10 value="0.771809828612338" flag="0"/>
			<psa30 value="0.0794095804949056" flag="0"/>
		</comp>
		<comp name="00.HN2" depth="0.0">
			<acc value="0.422932693757148" flag="0"/>
			<vel value="0.30128100411667" flag="0"/>
			<psa03 value="0.655594638260854" flag="0"/>
			<psa10 value="0.575961834645278" flag="0"/>
			<psa30 value="0.0281583153502085" flag="0"/>
		</comp>
		<comp name="00.HNZ" depth="0.0">
			<acc value="0.364960964029075" flag="0"/>
			<vel value="0.136552461245883" flag="0"/>
			<psa03 value="0.874295084423895" flag="0"/>
			<psa10 value="0.222880789758407" flag="0"/>
			<psa30 value="0.0284843236132972" flag="0"/>
		</comp>
	</station>
</stationlist>
