<?xml version="1.0" encoding="UTF-8" standalone="yes"?>
<!DOCTYPE earthquake SYSTEM "stationlist.dtd">
<stationlist created="" xmlns="ch.ethz.sed.shakemap.usgs.xml">
  <station code="ASB" name="ASB" netid="VI" source="ODC" insttype="STS-2.5" lat="64.7482" lon="-21.3254">
    <comp name="--.HHN">
      <acc value="0.1133627526" flag="0"/>
      <vel value="0.0502283899" flag="0"/>
      <psa03 value="0.3216621226" flag="0"/>
      <psa10 value="0.0557965501" flag="0"/>
      <psa30 value="0.0038214559" flag="0"/>
    </comp>
    <comp name="--.HHE">
      <acc value="0.2053058115" flag="0"/>
      <vel value="0.1179112337" flag="0"/>
      <psa03 value="0.3677268226" flag="0"/>
      <psa10 value="0.0912418465" flag="0"/>
      <psa30 value="0.0049998549" flag="0"/>
    </comp>
    <comp name="--.HHZ">
      <acc value="0.1112593042" flag="0"/>
      <vel value="0.0439097778" flag="0"/>
      <psa03 value="0.2285208020" flag="0"/>
      <psa10 value="0.0360764576" flag="0"/>
      <psa30 value="0.0056685157" flag="0"/>
    </comp>
  </station>
</stationlist>
