<?xml version="1.0" encoding="UTF-8" standalone="yes"?>
<!DOCTYPE earthquake SYSTEM "stationlist.dtd">
<stationlist created="" xmlns="ch.ethz.sed.shakemap.usgs.xml">
  <station code="GVD" name="GVD" netid="GE" insttype="STS-2/N" lat="34.8391" lon="24.0874">
    <comp name="--.HHE">
      <acc value="1.3368114891" flag="0"/>
      <vel value="0.1991275510" flag="0"/>
      <psa03 value="0.3463563544" flag="0"/>
      <psa10 value="0.0373130478" flag="0"/>
      <psa30 value="0.0039276114" flag="0"/>
    </comp>
    <comp name="--.HHN">
      <acc value="0.0970678594" flag="0"/>
      <vel value="0.0350114985" flag="0"/>
      <psa03 value="0.2398953720" flag="0"/>
      <psa10 value="0.0197387454" flag="0"/>
      <psa30 value="0.0025091879" flag="0"/>
    </comp>
    <comp name="--.HHZ">
      <acc value="0.0581892443" flag="0"/>
      <vel value="0.0197569825" flag="0"/>
      <psa03 value="0.1345409625" flag="0"/>
      <psa10 value="0.0068326752" flag="0"/>
      <psa30 value="0.0010424593" flag="0"/>
    </comp>
  </station>
  <station code="IMMV" name="IMMV" netid="GE" insttype="STS-2/N" lat="35.4606" lon="23.9811">
    <comp name="--.HHZ">
      <acc value="0.0046774635" flag="0"/>
      <vel value="0.0028824217" flag="0"/>
      <psa03 value="0.0120547656" flag="0"/>
      <psa10 value="0.0042050573" flag="0"/>
      <psa30 value="0.0002075683" flag="0"/>
    </comp>
    <comp name="--.HHN">
      <acc value="0.0073275333" flag="0"/>
      <vel value="0.0067256517" flag="0"/>
      <psa03 value="0.0261702539" flag="0"/>
      <psa10 value="0.0057437853" flag="0"/>
      <psa30 value="0.0004727548" flag="0"/>
    </comp>
    <comp name="--.HHE">
      <acc value="0.0093269050" flag="0"/>
      <vel value="0.0070177708" flag="0"/>
      <psa03 value="0.0242602890" flag="0"/>
      <psa10 value="0.0085553488" flag="0"/>
      <psa30 value="0.0007684527" flag="0"/>
    </comp>
  </station>
  <station code="CHAN" name="CHAN" netid="HC" insttype="120" lat="35.5193" lon="24.0428">
    <comp name="--.HHE">
      <acc value="0.0072715886" flag="0"/>
      <vel value="0.0098133006" flag="0"/>
      <psa03 value="0.0183167863" flag="0"/>
      <psa10 value="0.0103645514" flag="0"/>
      <psa30 value="0.0009319763" flag="0"/>
    </comp>
    <comp name="--.HHN">
      <acc value="0.0057661664" flag="0"/>
      <vel value="0.0078966069" flag="0"/>
      <psa03 value="0.0158944596" flag="0"/>
      <psa10 value="0.0086442376" flag="0"/>
      <psa30 value="0.0009985975" flag="0"/>
    </comp>
    <comp name="--.HHZ">
      <acc value="0.0054214633" flag="0"/>
      <vel value="0.0034540010" flag="0"/>
      <psa03 value="0.0162838294" flag="0"/>
      <psa10 value="0.0031140124" flag="0"/>
      <psa30 value="0.0003154983" flag="0"/>
    </comp>
  </station>
  <station code="IMOD" name="IMOD" netid="HC" insttype="120" lat="34.9731" lon="24.7995">
    <comp name="--.HHE">
      <acc value="0.0259698193" flag="0"/>
      <vel value="0.0192876310" flag="0"/>
      <psa03 value="0.0726275881" flag="0"/>
      <psa10 value="0.0168921139" flag="0"/>
      <psa30 value="0.0010596392" flag="0"/>
    </comp>
    <comp name="--.HHN">
      <acc value="0.0353019498" flag="0"/>
      <vel value="0.0237925181" flag="0"/>
      <psa03 value="0.1532093489" flag="0"/>
      <psa10 value="0.0192420183" flag="0"/>
      <psa30 value="0.0009989046" flag="0"/>
    </comp>
    <comp name="--.HHZ">
      <acc value="0.0153832347" flag="0"/>
      <vel value="0.0086668118" flag="0"/>
      <psa03 value="0.0409809965" flag="0"/>
      <psa10 value="0.0077836134" flag="0"/>
      <psa30 value="0.0004119932" flag="0"/>
    </comp>
  </station>
  <station code="IPPL" name="IPPL" netid="HC" insttype="60" lat="35.3486" lon="24.4632">
    <comp name="--.HHE">
      <acc value="0.0000000000" flag="0"/>
      <vel value="-100.0000000000" flag="0"/>
      <psa03 value="0.0000000000" flag="0"/>
      <psa10 value="0.0000000000" flag="0"/>
      <psa30 value="0.0000000000" flag="0"/>
    </comp>
    <comp name="--.HHZ">
      <acc value="0.0078686134" flag="0"/>
      <vel value="0.0034210031" flag="0"/>
      <psa03 value="0.0167034023" flag="0"/>
      <psa10 value="0.0024530498" flag="0"/>
      <psa30 value="0.0002862965" flag="0"/>
    </comp>
    <comp name="--.HHN">
      <acc value="0.0000000000" flag="0"/>
      <vel value="-100.0000000000" flag="0"/>
      <psa03 value="0.0000000000" flag="0"/>
      <psa10 value="0.0000000000" flag="0"/>
      <psa30 value="0.0000000000" flag="0"/>
    </comp>
  </station>
  <station code="KNDR" name="KNDR" netid="HC" insttype="120" lat="35.2348" lon="23.6248">
    <comp name="--.HHE">
      <acc value="0.0057843284" flag="0"/>
      <vel value="0.0029864252" flag="0"/>
      <psa03 value="0.0157073487" flag="0"/>
      <psa10 value="0.0040222086" flag="0"/>
      <psa30 value="0.0002499664" flag="0"/>
    </comp>
    <comp name="--.HHN">
      <acc value="0.0049486855" flag="0"/>
      <vel value="0.0031132305" flag="0"/>
      <psa03 value="0.0106915922" flag="0"/>
      <psa10 value="0.0036652859" flag="0"/>
      <psa30 value="0.0002275107" flag="0"/>
    </comp>
    <comp name="--.HHZ">
      <acc value="0.0047462565" flag="0"/>
      <vel value="0.0020032642" flag="0"/>
      <psa03 value="0.0110287428" flag="0"/>
      <psa10 value="0.0024317600" flag="0"/>
      <psa30 value="0.0001283245" flag="0"/>
    </comp>
  </station>
  <station code="KNSS" name="KNSS" netid="HC" insttype="60" lat="35.3042" lon="25.1802">
    <comp name="--.HHE">
      <acc value="0.0040134485" flag="0"/>
      <vel value="0.0030211135" flag="0"/>
      <psa03 value="0.0118999404" flag="0"/>
      <psa10 value="0.0031474454" flag="0"/>
      <psa30 value="0.0002343087" flag="0"/>
    </comp>
    <comp name="--.HHZ">
      <acc value="0.0028961127" flag="0"/>
      <vel value="0.0020674700" flag="0"/>
      <psa03 value="0.0079279108" flag="0"/>
      <psa10 value="0.0012851965" flag="0"/>
      <psa30 value="0.0001652238" flag="0"/>
    </comp>
    <comp name="--.HHN">
      <acc value="0.0037413782" flag="0"/>
      <vel value="0.0031121864" flag="0"/>
      <psa03 value="0.0100215590" flag="0"/>
      <psa10 value="0.0024442902" flag="0"/>
      <psa30 value="0.0002295766" flag="0"/>
    </comp>
  </station>
  <station code="PFKS" name="PFKS" netid="HC" insttype="120" lat="35.0429" lon="25.4733">
    <comp name="--.HHN">
      <acc value="0.0064186733" flag="0"/>
      <vel value="0.0028377269" flag="0"/>
      <psa03 value="0.0216344721" flag="0"/>
      <psa10 value="0.0035709984" flag="0"/>
      <psa30 value="0.0002161079" flag="0"/>
    </comp>
    <comp name="--.HHE">
      <acc value="0.0057792958" flag="0"/>
      <vel value="0.0029821395" flag="0"/>
      <psa03 value="0.0181589314" flag="0"/>
      <psa10 value="0.0022236180" flag="0"/>
      <psa30 value="0.0001439450" flag="0"/>
    </comp>
    <comp name="--.HHZ">
      <acc value="0.0027657237" flag="0"/>
      <vel value="0.0012435532" flag="0"/>
      <psa03 value="0.0075221888" flag="0"/>
      <psa10 value="0.0012209839" flag="0"/>
      <psa30 value="0.0000896909" flag="0"/>
    </comp>
  </station>
  <station code="GVD" name="GVD" netid="HL" insttype="120" lat="34.8391" lon="24.0874">
    <comp name="--.HHZ">
      <acc value="0.0571178399" flag="0"/>
      <vel value="0.0193279505" flag="0"/>
      <psa03 value="0.1305967909" flag="0"/>
      <psa10 value="0.0067447967" flag="0"/>
      <psa30 value="0.0010290402" flag="0"/>
    </comp>
    <comp name="--.HHN">
      <acc value="0.0944707643" flag="0"/>
      <vel value="0.0342756084" flag="0"/>
      <psa03 value="0.2330033652" flag="0"/>
      <psa10 value="0.0195299905" flag="0"/>
      <psa30 value="0.0024853078" flag="0"/>
    </comp>
    <comp name="--.HHE">
      <acc value="1.4175888091" flag="0"/>
      <vel value="0.1930287844" flag="0"/>
      <psa03 value="0.3367872583" flag="0"/>
      <psa10 value="0.0365309232" flag="0"/>
      <psa30 value="0.0039081563" flag="0"/>
    </comp>
  </station>
  <station code="IDI" name="IDI" netid="HL" insttype="120" lat="35.288" lon="24.89">
    <comp name="--.HHE">
      <acc value="0.0048923226" flag="0"/>
      <vel value="0.0035175948" flag="0"/>
      <psa03 value="0.0105357924" flag="0"/>
      <psa10 value="0.0032855578" flag="0"/>
      <psa30 value="0.0002938533" flag="0"/>
    </comp>
    <comp name="--.HHZ">
      <acc value="0.0030915985" flag="0"/>
      <vel value="0.0020360614" flag="0"/>
      <psa03 value="0.0090403504" flag="0"/>
      <psa10 value="0.0018183755" flag="0"/>
      <psa30 value="0.0001467894" flag="0"/>
    </comp>
    <comp name="--.HHN">
      <acc value="0.0038204930" flag="0"/>
      <vel value="0.0030410817" flag="0"/>
      <psa03 value="0.0115998638" flag="0"/>
      <psa10 value="0.0020767373" flag="0"/>
      <psa30 value="0.0002525264" flag="0"/>
    </comp>
  </station>
  <station code="IMMV" name="IMMV" netid="HL" insttype="120" lat="35.4606" lon="23.9811">
    <comp name="--.HHE">
      <acc value="0.0091837729" flag="0"/>
      <vel value="0.0069321180" flag="0"/>
      <psa03 value="0.0235742953" flag="0"/>
      <psa10 value="0.0084867004" flag="0"/>
      <psa30 value="0.0007656355" flag="0"/>
    </comp>
    <comp name="--.HHN">
      <acc value="0.0071821355" flag="0"/>
      <vel value="0.0066165334" flag="0"/>
      <psa03 value="0.0254315034" flag="0"/>
      <psa10 value="0.0056974968" flag="0"/>
      <psa30 value="0.0004709450" flag="0"/>
    </comp>
    <comp name="--.HHZ">
      <acc value="0.0045366476" flag="0"/>
      <vel value="0.0028285107" flag="0"/>
      <psa03 value="0.0117242899" flag="0"/>
      <psa10 value="0.0041634387" flag="0"/>
      <psa30 value="0.0002055102" flag="0"/>
    </comp>
  </station>
  <station code="KSTE" name="KSTE" netid="HL" insttype="60" lat="35.1801" lon="25.3372">
    <comp name="--.HHE">
      <acc value="0.0020063273" flag="0"/>
      <vel value="0.0014824682" flag="0"/>
      <psa03 value="0.0063898952" flag="0"/>
      <psa10 value="0.0020528463" flag="0"/>
      <psa30 value="0.0001674579" flag="0"/>
    </comp>
    <comp name="--.HHZ">
      <acc value="0.0022219168" flag="0"/>
      <vel value="0.0018515233" flag="0"/>
      <psa03 value="0.0080587280" flag="0"/>
      <psa10 value="0.0014286396" flag="0"/>
      <psa30 value="0.0001347282" flag="0"/>
    </comp>
    <comp name="--.HHN">
      <acc value="0.0937831800" flag="0"/>
      <vel value="0.0128616198" flag="0"/>
      <psa03 value="0.0458646614" flag="0"/>
      <psa10 value="0.0153702383" flag="0"/>
      <psa30 value="0.0026264496" flag="0"/>
    </comp>
  </station>
  <station code="SIVA" name="SIVA" netid="HL" insttype="60" lat="35.0178" lon="24.812">
    <comp name="--.HHE">
      <acc value="0.0439327302" flag="0"/>
      <vel value="0.0330317112" flag="0"/>
      <psa03 value="0.1441755732" flag="0"/>
      <psa10 value="0.0250285812" flag="0"/>
      <psa30 value="0.0016034562" flag="0"/>
    </comp>
    <comp name="--.HHN">
      <acc value="0.0358442421" flag="0"/>
      <vel value="0.0206857030" flag="0"/>
      <psa03 value="0.0917882166" flag="0"/>
      <psa10 value="0.0197560822" flag="0"/>
      <psa30 value="0.0017015444" flag="0"/>
    </comp>
    <comp name="--.HHZ">
      <acc value="0.0202519763" flag="0"/>
      <vel value="0.0113728409" flag="0"/>
      <psa03 value="0.0432803115" flag="0"/>
      <psa10 value="0.0129639533" flag="0"/>
      <psa30 value="0.0007835395" flag="0"/>
    </comp>
  </station>
  <station code="VAM" name="VAM" netid="HL" insttype="CMG3ESPC-120s" lat="35.407" lon="24.1997">
    <comp name="--.HHE">
      <acc value="0.0060933360" flag="0"/>
      <vel value="0.0048185981" flag="0"/>
      <psa03 value="0.0219454265" flag="0"/>
      <psa10 value="0.0084582002" flag="0"/>
      <psa30 value="0.0005410392" flag="0"/>
    </comp>
    <comp name="--.HHZ">
      <acc value="0.0034111408" flag="0"/>
      <vel value="0.0029292577" flag="0"/>
      <psa03 value="0.0129907824" flag="0"/>
      <psa10 value="0.0029569523" flag="0"/>
      <psa30 value="0.0003811742" flag="0"/>
    </comp>
    <comp name="--.HHN">
      <acc value="0.0062305727" flag="0"/>
      <vel value="0.0038575870" flag="0"/>
      <psa03 value="0.0199460211" flag="0"/>
      <psa10 value="0.0052014752" flag="0"/>
      <psa30 value="0.0003806612" flag="0"/>
    </comp>
  </station>
  <station code="IDI" name="IDI" netid="MN" insttype="" lat="35.288" lon="24.89">
    <comp name="--.HHE">
      <acc value="0.0048904722" flag="0"/>
      <vel value="0.0035093471" flag="0"/>
      <psa03 value="0.0106758147" flag="0"/>
      <psa10 value="0.0032621224" flag="0"/>
      <psa30 value="0.0002912116" flag="0"/>
    </comp>
    <comp name="--.HHZ">
      <acc value="0.0031233551" flag="0"/>
      <vel value="0.0020256422" flag="0"/>
      <psa03 value="0.0091085196" flag="0"/>
      <psa10 value="0.0018090463" flag="0"/>
      <psa30 value="0.0001458441" flag="0"/>
    </comp>
    <comp name="--.HHN">
      <acc value="0.0038663419" flag="0"/>
      <vel value="0.0030420667" flag="0"/>
      <psa03 value="0.0116690256" flag="0"/>
      <psa10 value="0.0020677788" flag="0"/>
      <psa30 value="0.0002503293" flag="0"/>
    </comp>
  </station>
</stationlist>
