<?xml version="1.0" encoding="UTF-8" standalone="yes"?>
<!DOCTYPE earthquake SYSTEM "stationlist.dtd">
<stationlist created="" xmlns="ch.ethz.sed.shakemap.usgs.xml">
  <station code="AYDB" name="AYDB" netid="KO" insttype="CMG-3ESPC" commtype="DIG" lat="37.9467" lon="27.8908">
    <comp name="--.HHE">
      <acc value="0.1064122745" flag="0"/>
      <vel value="0.0812295968" flag="0"/>
      <psa03 value="0.4528640702" flag="0"/>
      <psa10 value="0.0566689064" flag="0"/>
      <psa30 value="0.0085286310" flag="0"/>
    </comp>
    <comp name="--.HHN">
      <acc value="0.1066596080" flag="0"/>
      <vel value="0.0542485610" flag="0"/>
      <psa03 value="0.3775214349" flag="0"/>
      <psa10 value="0.1062435065" flag="0"/>
      <psa30 value="0.0043584049" flag="0"/>
    </comp>
    <comp name="--.HHZ">
      <acc value="0.0681026557" flag="0"/>
      <vel value="0.0453090952" flag="0"/>
      <psa03 value="0.1905953657" flag="0"/>
      <psa10 value="0.0454888841" flag="0"/>
      <psa30 value="0.0041926525" flag="0"/>
    </comp>
  </station>
  <station code="AYVL" name="AYVL" netid="KO" insttype="CMG-6T" commtype="DIG" lat="39.2907" lon="26.69">
    <comp name="--.HHE">
      <acc value="0.1504019260" flag="0"/>
      <vel value="0.0982808654" flag="0"/>
      <psa03 value="0.2878571478" flag="0"/>
      <psa10 value="0.0711682753" flag="0"/>
      <psa30 value="0.0042928536" flag="0"/>
    </comp>
    <comp name="--.HHZ">
      <acc value="0.1038737583" flag="0"/>
      <vel value="0.0462673841" flag="0"/>
      <psa03 value="0.2037134415" flag="0"/>
      <psa10 value="0.0417139478" flag="0"/>
      <psa30 value="0.0018711851" flag="0"/>
    </comp>
    <comp name="--.HHN">
      <acc value="0.2219060664" flag="0"/>
      <vel value="0.1129910542" flag="0"/>
      <psa03 value="0.7119945303" flag="0"/>
      <psa10 value="0.0933755886" flag="0"/>
      <psa30 value="0.0038893351" flag="0"/>
    </comp>
  </station>
  <station code="BALB" name="BALB" netid="KO" insttype="CMG-5T" commtype="DIG" lat="39.6507" lon="27.8642">
    <comp name="--.HNE">
      <acc value="0.2379281519" flag="0"/>
      <vel value="0.1853346489" flag="0"/>
      <psa03 value="0.4165393867" flag="0"/>
      <psa10 value="0.4014592175" flag="0"/>
      <psa30 value="0.0260616127" flag="0"/>
    </comp>
    <comp name="--.HNZ">
      <acc value="0.2075732571" flag="0"/>
      <vel value="0.1298613370" flag="0"/>
      <psa03 value="0.2917780205" flag="0"/>
      <psa10 value="0.1777090912" flag="0"/>
      <psa30 value="0.0193029828" flag="0"/>
    </comp>
    <comp name="--.HNN">
      <acc value="0.3437899236" flag="0"/>
      <vel value="0.2633418628" flag="0"/>
      <psa03 value="0.4718790170" flag="0"/>
      <psa10 value="0.4030224805" flag="0"/>
      <psa30 value="0.0237131121" flag="0"/>
    </comp>
  </station>
  <station code="BLCB" name="BLCB" netid="KO" insttype="CMG-3T" commtype="DIG" lat="38.3853" lon="27.042">
    <comp name="--.HHE">
      <acc value="0.1445719152" flag="0"/>
      <vel value="0.0944249415" flag="0"/>
      <psa03 value="0.6756218347" flag="0"/>
      <psa10 value="0.0818796331" flag="0"/>
      <psa30 value="0.0138806502" flag="0"/>
    </comp>
    <comp name="--.HHN">
      <acc value="0.0000749327" flag="0"/>
      <vel value="0.0000539217" flag="0"/>
      <psa03 value="0.0002651691" flag="0"/>
      <psa10 value="0.0000485973" flag="0"/>
      <psa30 value="0.0000074069" flag="0"/>
    </comp>
    <comp name="--.HHZ">
      <acc value="0.0797082052" flag="0"/>
      <vel value="0.0351359873" flag="0"/>
      <psa03 value="0.1954913085" flag="0"/>
      <psa10 value="0.0282412391" flag="0"/>
      <psa30 value="0.0078412413" flag="0"/>
    </comp>
  </station>
  <station code="CANM" name="CANM" netid="KO" insttype="CMG-5T" commtype="DIG" lat="40.0113" lon="27.0529">
    <comp name="--.HNE">
      <acc value="0.0893914575" flag="0"/>
      <vel value="0.0592327129" flag="0"/>
      <psa03 value="0.1331267051" flag="0"/>
      <psa10 value="0.1044880598" flag="0"/>
      <psa30 value="0.0077331693" flag="0"/>
    </comp>
    <comp name="--.HNN">
      <acc value="0.0991478954" flag="0"/>
      <vel value="0.1006834827" flag="0"/>
      <psa03 value="0.1777474376" flag="0"/>
      <psa10 value="0.1902299068" flag="0"/>
      <psa30 value="0.0130646016" flag="0"/>
    </comp>
    <comp name="--.HNZ">
      <acc value="0.0611651122" flag="0"/>
      <vel value="0.0515627386" flag="0"/>
      <psa03 value="0.1361024012" flag="0"/>
      <psa10 value="0.0683889006" flag="0"/>
      <psa30 value="0.0065755641" flag="0"/>
    </comp>
  </station>
  <station code="DKL" name="DKL" netid="KO" insttype="CMG-3ESPC" commtype="DIG" lat="39.0713" lon="26.9053">
    <comp name="--.HHZ">
      <acc value="0.0473270755" flag="0"/>
      <vel value="0.0293562795" flag="0"/>
      <psa03 value="0.1674532021" flag="0"/>
      <psa10 value="0.0577093089" flag="0"/>
      <psa30 value="0.0059462705" flag="0"/>
    </comp>
    <comp name="--.HHN">
      <acc value="0.0632523232" flag="0"/>
      <vel value="0.1037337826" flag="0"/>
      <psa03 value="0.1254022326" flag="0"/>
      <psa10 value="0.0901888360" flag="0"/>
      <psa30 value="0.0183422403" flag="0"/>
    </comp>
  </station>
  <station code="EDC" name="EDC" netid="KO" insttype="CMG-3T" commtype="DIG" lat="40.3465" lon="27.8618">
    <comp name="--.HHN">
      <acc value="0.1442693194" flag="0"/>
      <vel value="0.0940893355" flag="0"/>
      <psa03 value="0.4746161069" flag="0"/>
      <psa10 value="0.1441883165" flag="0"/>
      <psa30 value="0.0111331189" flag="0"/>
    </comp>
    <comp name="--.HHE">
      <acc value="0.1196255380" flag="0"/>
      <vel value="0.0905361847" flag="0"/>
      <psa03 value="0.4710143765" flag="0"/>
      <psa10 value="0.1634983080" flag="0"/>
      <psa30 value="0.0221927432" flag="0"/>
    </comp>
    <comp name="--.HHZ">
      <acc value="0.0530561866" flag="0"/>
      <vel value="0.0305514783" flag="0"/>
      <psa03 value="0.1120934190" flag="0"/>
      <psa10 value="0.0683062472" flag="0"/>
      <psa30 value="0.0053604318" flag="0"/>
    </comp>
  </station>
  <station code="GOMA" name="GOMA" netid="KO" insttype="CMG-5T" commtype="DIG" lat="38.7077" lon="27.9175">
    <comp name="--.HNZ">
      <acc value="0.3850127427" flag="0"/>
      <vel value="0.1818258032" flag="0"/>
      <psa03 value="0.8337750673" flag="0"/>
      <psa10 value="0.0805647613" flag="0"/>
      <psa30 value="0.0133968684" flag="0"/>
    </comp>
    <comp name="--.HNN">
      <acc value="0.6236669776" flag="0"/>
      <vel value="0.3207797026" flag="0"/>
      <psa03 value="2.4292494572" flag="0"/>
      <psa10 value="0.1283290848" flag="0"/>
      <psa30 value="0.0167996563" flag="0"/>
    </comp>
  </station>
  <station code="GONE" name="GONE" netid="KO" insttype="CMG-5T" commtype="DIG" lat="40.0466" lon="27.686">
    <comp name="--.HNN">
      <acc value="0.4120085496" flag="0"/>
      <vel value="0.2124900103" flag="0"/>
      <psa03 value="0.6842274676" flag="0"/>
      <psa10 value="0.3449661352" flag="0"/>
      <psa30 value="0.0230273592" flag="0"/>
    </comp>
    <comp name="--.HNZ">
      <acc value="0.0651856570" flag="0"/>
      <vel value="0.0367870997" flag="0"/>
      <psa03 value="0.1133216480" flag="0"/>
      <psa10 value="0.0563378797" flag="0"/>
      <psa30 value="0.0061298813" flag="0"/>
    </comp>
    <comp name="--.HNE">
      <acc value="0.1392175791" flag="0"/>
      <vel value="0.0970879068" flag="0"/>
      <psa03 value="0.1819014931" flag="0"/>
      <psa10 value="0.1655523655" flag="0"/>
      <psa30 value="0.0125628594" flag="0"/>
    </comp>
  </station>
  <station code="GORD" name="GORD" netid="KO" insttype="CMG-5T" commtype="DIG" lat="38.9088" lon="28.1769">
    <comp name="--.HNZ">
      <acc value="0.4125419568" flag="0"/>
      <vel value="0.2401761824" flag="0"/>
      <psa03 value="0.9814460294" flag="0"/>
      <psa10 value="0.2845396179" flag="0"/>
      <psa30 value="0.0535907640" flag="0"/>
    </comp>
    <comp name="--.HNE">
      <acc value="0.4278597247" flag="0"/>
      <vel value="0.3703450772" flag="0"/>
      <psa03 value="1.0847906329" flag="0"/>
      <psa10 value="0.8914336783" flag="0"/>
      <psa30 value="0.0782433082" flag="0"/>
    </comp>
    <comp name="--.HNN">
      <acc value="0.5034476574" flag="0"/>
      <vel value="0.5219924226" flag="0"/>
      <psa03 value="1.1562933959" flag="0"/>
      <psa10 value="0.9044892653" flag="0"/>
      <psa30 value="0.0575277743" flag="0"/>
    </comp>
  </station>
  <station code="KCTX" name="KCTX" netid="KO" insttype="CMG-3ESP" commtype="DIG" lat="40.2626" lon="28.3353">
    <comp name="--.HHN">
      <acc value="0.1584221749" flag="0"/>
      <vel value="0.0717860550" flag="0"/>
      <psa03 value="0.3262319461" flag="0"/>
      <psa10 value="0.1029593179" flag="0"/>
      <psa30 value="0.0098206815" flag="0"/>
    </comp>
    <comp name="--.HHE">
      <acc value="0.1392090404" flag="0"/>
      <vel value="0.1650681734" flag="0"/>
      <psa03 value="0.2075805251" flag="0"/>
      <psa10 value="0.2338242529" flag="0"/>
      <psa30 value="0.0198539095" flag="0"/>
    </comp>
    <comp name="--.HHZ">
      <acc value="0.1203453623" flag="0"/>
      <vel value="0.0677448667" flag="0"/>
      <psa03 value="0.2223157947" flag="0"/>
      <psa10 value="0.0998485348" flag="0"/>
      <psa30 value="0.0090227713" flag="0"/>
    </comp>
  </station>
  <station code="MDNY" name="MDNY" netid="KO" insttype="CMG-5T" commtype="DIG" lat="40.3709" lon="28.8846">
    <comp name="--.HNE">
      <acc value="0.3927778730" flag="0"/>
      <vel value="0.1719697927" flag="0"/>
      <psa03 value="0.7615159621" flag="0"/>
      <psa10 value="0.0730330894" flag="0"/>
      <psa30 value="0.0101347445" flag="0"/>
    </comp>
    <comp name="--.HNN">
      <acc value="0.4718725684" flag="0"/>
      <vel value="0.2523773117" flag="0"/>
      <psa03 value="1.6807315916" flag="0"/>
      <psa10 value="0.1646627680" flag="0"/>
      <psa30 value="0.0141111358" flag="0"/>
    </comp>
    <comp name="--.HNZ">
      <acc value="0.1335485890" flag="0"/>
      <vel value="0.0647950171" flag="0"/>
      <psa03 value="0.2432191777" flag="0"/>
      <psa10 value="0.0489555446" flag="0"/>
      <psa30 value="0.0153932102" flag="0"/>
    </comp>
  </station>
  <station code="ORLT" name="ORLT" netid="KO" insttype="CMG-5T" commtype="DIG" lat="40.0452" lon="28.8914">
    <comp name="--.HNZ">
      <acc value="0.1034781200" flag="0"/>
      <vel value="0.0822877467" flag="0"/>
      <psa03 value="0.3252109572" flag="0"/>
      <psa10 value="0.1932715813" flag="0"/>
      <psa30 value="0.0158691765" flag="0"/>
    </comp>
    <comp name="--.HNE">
      <acc value="0.2585604958" flag="0"/>
      <vel value="0.1530609243" flag="0"/>
      <psa03 value="0.7517708259" flag="0"/>
      <psa10 value="0.1710327324" flag="0"/>
      <psa30 value="0.0099729784" flag="0"/>
    </comp>
    <comp name="--.HNN">
      <acc value="0.2857475651" flag="0"/>
      <vel value="0.2204330822" flag="0"/>
      <psa03 value="1.0332807923" flag="0"/>
      <psa10 value="0.2824223236" flag="0"/>
      <psa30 value="0.0141250460" flag="0"/>
    </comp>
  </station>
  <station code="SHAP" name="SHAP" netid="KO" insttype="CMG-5T" commtype="DIG" lat="39.0231" lon="29.222">
    <comp name="--.HNE">
      <acc value="0.2807982743" flag="0"/>
      <vel value="0.0923004171" flag="0"/>
      <psa03 value="0.5560767729" flag="0"/>
      <psa10 value="0.0288608047" flag="0"/>
      <psa30 value="0.0029571403" flag="0"/>
    </comp>
    <comp name="--.HNN">
      <acc value="0.3088612014" flag="0"/>
      <vel value="0.1186520081" flag="0"/>
      <psa03 value="0.4806074077" flag="0"/>
      <psa10 value="0.0694030273" flag="0"/>
      <psa30 value="0.0076417422" flag="0"/>
    </comp>
    <comp name="--.HNZ">
      <acc value="0.2204515078" flag="0"/>
      <vel value="0.0536590208" flag="0"/>
      <psa03 value="0.1700664854" flag="0"/>
      <psa10 value="0.0234072841" flag="0"/>
      <psa30 value="0.0034104008" flag="0"/>
    </comp>
  </station>
  <station code="SIMA" name="SIMA" netid="KO" insttype="CMG-6T" commtype="DIG" lat="39.0833" lon="28.9825">
    <comp name="--.HHE">
      <acc value="0.2990867474" flag="0"/>
      <vel value="0.0871787177" flag="0"/>
      <psa03 value="0.6631547733" flag="0"/>
      <psa10 value="0.0530671943" flag="0"/>
      <psa30 value="0.0056814616" flag="0"/>
    </comp>
    <comp name="--.HHZ">
      <acc value="0.1584451503" flag="0"/>
      <vel value="0.0483756191" flag="0"/>
      <psa03 value="0.3352449420" flag="0"/>
      <psa10 value="0.0248208121" flag="0"/>
      <psa30 value="0.0040019735" flag="0"/>
    </comp>
    <comp name="--.HHN">
      <acc value="0.3329356120" flag="0"/>
      <vel value="0.1003210680" flag="0"/>
      <psa03 value="1.0547974350" flag="0"/>
      <psa10 value="0.0444537168" flag="0"/>
      <psa30 value="0.0149698825" flag="0"/>
    </comp>
  </station>
  <station code="SMAA" name="SMAA" netid="KO" insttype="CMG-5T" commtype="DIG" lat="39.1005" lon="28.9805">
    <comp name="--.HNE">
      <acc value="0.3325296738" flag="0"/>
      <vel value="0.1982444653" flag="0"/>
      <psa03 value="1.0448531516" flag="0"/>
      <psa10 value="0.2916650484" flag="0"/>
      <psa30 value="0.0384614379" flag="0"/>
    </comp>
    <comp name="--.HNN">
      <acc value="0.2867384692" flag="0"/>
      <vel value="0.2274794020" flag="0"/>
      <psa03 value="0.9584138160" flag="0"/>
      <psa10 value="0.2176536185" flag="0"/>
      <psa30 value="0.0341215044" flag="0"/>
    </comp>
    <comp name="--.HNZ">
      <acc value="0.1341104078" flag="0"/>
      <vel value="0.0645293798" flag="0"/>
      <psa03 value="0.1638590404" flag="0"/>
      <psa10 value="0.1533902756" flag="0"/>
      <psa30 value="0.0088759988" flag="0"/>
    </comp>
  </station>
  <station code="SOMA" name="SOMA" netid="KO" insttype="CMG-5T" commtype="DIG" lat="39.1564" lon="27.5341">
    <comp name="--.HNE">
      <acc value="0.3712237273" flag="0"/>
      <vel value="0.1186385930" flag="0"/>
      <psa03 value="0.5908786569" flag="0"/>
      <psa10 value="0.1375634891" flag="0"/>
      <psa30 value="0.0118335915" flag="0"/>
    </comp>
    <comp name="--.HNZ">
      <acc value="0.4376458756" flag="0"/>
      <vel value="0.1450193194" flag="0"/>
      <psa03 value="0.2661878917" flag="0"/>
      <psa10 value="0.1307562436" flag="0"/>
      <psa30 value="0.0091582054" flag="0"/>
    </comp>
    <comp name="--.HNN">
      <acc value="0.4170850637" flag="0"/>
      <vel value="0.2444907359" flag="0"/>
      <psa03 value="0.6310342466" flag="0"/>
      <psa10 value="0.3780937677" flag="0"/>
      <psa30 value="0.0234075649" flag="0"/>
    </comp>
  </station>
  <station code="SUSR" name="SUSR" netid="KO" insttype="CMG-5T" commtype="DIG" lat="39.9627" lon="28.0835">
    <comp name="--.HNZ">
      <acc value="0.1669457572" flag="0"/>
      <vel value="0.0521545616" flag="0"/>
      <psa03 value="0.2857290605" flag="0"/>
      <psa10 value="0.0675801693" flag="0"/>
      <psa30 value="0.0053285609" flag="0"/>
    </comp>
    <comp name="--.HNN">
      <acc value="0.2397796817" flag="0"/>
      <vel value="0.0824277709" flag="0"/>
      <psa03 value="0.5946550993" flag="0"/>
      <psa10 value="0.0785347287" flag="0"/>
      <psa30 value="0.0051780418" flag="0"/>
    </comp>
    <comp name="--.HNE">
      <acc value="0.1547861821" flag="0"/>
      <vel value="0.0584893001" flag="0"/>
      <psa03 value="0.2097211898" flag="0"/>
      <psa10 value="0.1181856449" flag="0"/>
      <psa30 value="0.0077079999" flag="0"/>
    </comp>
  </station>
  <station code="TVSB" name="TVSB" netid="KO" insttype="CMG-3T" commtype="DIG" lat="39.4497" lon="29.4615">
    <comp name="--.HHE">
      <acc value="0.2165218864" flag="0"/>
      <vel value="0.1203630693" flag="0"/>
      <psa03 value="0.5925048025" flag="0"/>
      <psa10 value="0.0828537429" flag="0"/>
      <psa30 value="0.0059204038" flag="0"/>
    </comp>
    <comp name="--.HHN">
      <acc value="0.1955304168" flag="0"/>
      <vel value="0.1286926359" flag="0"/>
      <psa03 value="0.7831178371" flag="0"/>
      <psa10 value="0.0550766373" flag="0"/>
      <psa30 value="0.0055897148" flag="0"/>
    </comp>
    <comp name="--.HHZ">
      <acc value="0.0958728581" flag="0"/>
      <vel value="0.0601654313" flag="0"/>
      <psa03 value="0.3174968191" flag="0"/>
      <psa10 value="0.0312935575" flag="0"/>
      <psa30 value="0.0043247936" flag="0"/>
    </comp>
  </station>
  <station code="YAYO" name="YAYO" netid="KO" insttype="CMG-6T" commtype="DIG" lat="39.6113" lon="27.0726">
    <comp name="--.HHE">
      <acc value="0.0974409027" flag="0"/>
      <vel value="0.0565571514" flag="0"/>
      <psa03 value="0.2910230536" flag="0"/>
      <psa10 value="0.0517327368" flag="0"/>
      <psa30 value="0.0045362460" flag="0"/>
    </comp>
    <comp name="--.HHN">
      <acc value="0.0777365396" flag="0"/>
      <vel value="0.0615558629" flag="0"/>
      <psa03 value="0.2941955836" flag="0"/>
      <psa10 value="0.0708384935" flag="0"/>
      <psa30 value="0.0048798337" flag="0"/>
    </comp>
    <comp name="--.HHZ">
      <acc value="0.1046663516" flag="0"/>
      <vel value="0.0548610023" flag="0"/>
      <psa03 value="0.2188078006" flag="0"/>
      <psa10 value="0.0540143442" flag="0"/>
      <psa30 value="0.0032130444" flag="0"/>
    </comp>
  </station>
  <station code="YENI" name="YENI" netid="KO" insttype="CMG-5T" commtype="DIG" lat="39.9364" lon="27.2422">
    <comp name="--.HNE">
      <acc value="0.3449303179" flag="0"/>
      <vel value="0.1168738702" flag="0"/>
      <psa03 value="0.4489143603" flag="0"/>
      <psa10 value="0.1113675254" flag="0"/>
      <psa30 value="0.0067735639" flag="0"/>
    </comp>
    <comp name="--.HNN">
      <acc value="0.2941313917" flag="0"/>
      <vel value="0.1339170972" flag="0"/>
      <psa03 value="0.3694684956" flag="0"/>
      <psa10 value="0.1663870270" flag="0"/>
      <psa30 value="0.0080976282" flag="0"/>
    </comp>
    <comp name="--.HNZ">
      <acc value="0.0858655296" flag="0"/>
      <vel value="0.0350800964" flag="0"/>
      <psa03 value="0.1775788744" flag="0"/>
      <psa10 value="0.0328488700" flag="0"/>
      <psa30 value="0.0043884750" flag="0"/>
    </comp>
  </station>
</stationlist>
