<?xml version="1.0" encoding="UTF-8" standalone="yes"?>
<!DOCTYPE earthquake SYSTEM "stationlist.dtd">
<stationlist created="" xmlns="ch.ethz.sed.shakemap.usgs.xml">
  <station code="ALT" name="ALT" netid="KO" insttype="CMG-5T" commtype="DIG" lat="39.0541" lon="30.1104">
    <comp name="--.HNE">
      <acc value="0.0158483119" flag="0"/>
      <vel value="0.0092194789" flag="0"/>
      <psa03 value="0.0443261630" flag="0"/>
      <psa10 value="0.0079869436" flag="0"/>
      <psa30 value="0.0029947457" flag="0"/>
    </comp>
    <comp name="--.HNN">
      <acc value="0.0275996804" flag="0"/>
      <vel value="0.0149747431" flag="0"/>
      <psa03 value="0.0667412993" flag="0"/>
      <psa10 value="0.0078714236" flag="0"/>
      <psa30 value="0.0039317058" flag="0"/>
    </comp>
    <comp name="--.HNZ">
      <acc value="0.0103256591" flag="0"/>
      <vel value="0.0098287616" flag="0"/>
      <psa03 value="0.0221877317" flag="0"/>
      <psa10 value="0.0075366358" flag="0"/>
      <psa30 value="0.0030879623" flag="0"/>
    </comp>
  </station>
  <station code="ARMT" name="ARMT" netid="KO" insttype="CMG-5T" commtype="DIG" lat="40.5683" lon="28.866">
    <comp name="--.HNZ">
      <acc value="0.0673254738" flag="0"/>
      <vel value="0.0456992957" flag="0"/>
      <psa03 value="0.1312355369" flag="0"/>
      <psa10 value="0.0409128343" flag="0"/>
      <psa30 value="0.0062524115" flag="0"/>
    </comp>
    <comp name="--.HNN">
      <acc value="0.1322212931" flag="0"/>
      <vel value="0.0925505372" flag="0"/>
      <psa03 value="0.4852719578" flag="0"/>
      <psa10 value="0.1551275407" flag="0"/>
      <psa30 value="0.0076453312" flag="0"/>
    </comp>
    <comp name="--.HNE">
      <acc value="0.0881026034" flag="0"/>
      <vel value="0.0645995773" flag="0"/>
      <psa03 value="0.2218321457" flag="0"/>
      <psa10 value="0.0954916309" flag="0"/>
      <psa30 value="0.0075015006" flag="0"/>
    </comp>
  </station>
  <station code="AYDB" name="AYDB" netid="KO" insttype="CMG-3ESPC" commtype="DIG" lat="37.9467" lon="27.8908">
    <comp name="--.HHE">
      <acc value="0.1065812424" flag="0"/>
      <vel value="0.0812954232" flag="0"/>
      <psa03 value="0.4525733963" flag="0"/>
      <psa10 value="0.0568386524" flag="0"/>
      <psa30 value="0.0096157667" flag="0"/>
    </comp>
    <comp name="--.HHN">
      <acc value="0.1066249351" flag="0"/>
      <vel value="0.0552116996" flag="0"/>
      <psa03 value="0.3776031643" flag="0"/>
      <psa10 value="0.1062624411" flag="0"/>
      <psa30 value="0.0045443510" flag="0"/>
    </comp>
    <comp name="--.HHZ">
      <acc value="0.0682637005" flag="0"/>
      <vel value="0.0435973635" flag="0"/>
      <psa03 value="0.1907529714" flag="0"/>
      <psa10 value="0.0457404467" flag="0"/>
      <psa30 value="0.0046584369" flag="0"/>
    </comp>
  </station>
  <station code="AYVL" name="AYVL" netid="KO" insttype="CMG-6T" commtype="DIG" lat="39.2907" lon="26.69">
    <comp name="--.HHE">
      <acc value="0.1503959147" flag="0"/>
      <vel value="0.0983004069" flag="0"/>
      <psa03 value="0.2878576410" flag="0"/>
      <psa10 value="0.0711646138" flag="0"/>
      <psa30 value="0.0042920567" flag="0"/>
    </comp>
    <comp name="--.HHZ">
      <acc value="0.1038693500" flag="0"/>
      <vel value="0.0463047334" flag="0"/>
      <psa03 value="0.2037182057" flag="0"/>
      <psa10 value="0.0417098766" flag="0"/>
      <psa30 value="0.0018869826" flag="0"/>
    </comp>
    <comp name="--.HHN">
      <acc value="0.2219396738" flag="0"/>
      <vel value="0.1128464622" flag="0"/>
      <psa03 value="0.7119735480" flag="0"/>
      <psa10 value="0.0933574928" flag="0"/>
      <psa30 value="0.0039852483" flag="0"/>
    </comp>
  </station>
  <station code="BABD" name="BABD" netid="KO" insttype="CMG-6T" commtype="DIG" lat="37.802" lon="28.8531">
    <comp name="--.HHZ">
      <acc value="0.0079723292" flag="0"/>
      <vel value="0.0119550093" flag="0"/>
      <psa03 value="0.0185166947" flag="0"/>
      <psa10 value="0.0112743372" flag="0"/>
      <psa30 value="0.0025041236" flag="0"/>
    </comp>
    <comp name="--.HHE">
      <acc value="0.0184179883" flag="0"/>
      <vel value="0.0165554606" flag="0"/>
      <psa03 value="0.0422258616" flag="0"/>
      <psa10 value="0.0239950030" flag="0"/>
      <psa30 value="0.0057266095" flag="0"/>
    </comp>
    <comp name="--.HHN">
      <acc value="0.0157952784" flag="0"/>
      <vel value="0.0138972214" flag="0"/>
      <psa03 value="0.0507408497" flag="0"/>
      <psa10 value="0.0190108887" flag="0"/>
      <psa30 value="0.0036820022" flag="0"/>
    </comp>
  </station>
  <station code="BALB" name="BALB" netid="KO" insttype="CMG-5T" commtype="DIG" lat="39.6507" lon="27.8642">
    <comp name="--.HNE">
      <acc value="0.2376061098" flag="0"/>
      <vel value="0.1888468024" flag="0"/>
      <psa03 value="0.4170404061" flag="0"/>
      <psa10 value="0.4019523323" flag="0"/>
      <psa30 value="0.0287718327" flag="0"/>
    </comp>
    <comp name="--.HNZ">
      <acc value="0.2077720804" flag="0"/>
      <vel value="0.1301555797" flag="0"/>
      <psa03 value="0.2919866621" flag="0"/>
      <psa10 value="0.1773988886" flag="0"/>
      <psa30 value="0.0221318319" flag="0"/>
    </comp>
    <comp name="--.HNN">
      <acc value="0.3440865235" flag="0"/>
      <vel value="0.2642293423" flag="0"/>
      <psa03 value="0.4717872832" flag="0"/>
      <psa10 value="0.4027138685" flag="0"/>
      <psa30 value="0.0259840552" flag="0"/>
    </comp>
  </station>
  <station code="BIGA" name="BIGA" netid="KO" insttype="CMG-5T" commtype="DIG" lat="40.2813" lon="27.1505">
    <comp name="--.HNE">
      <acc value="0.0813175153" flag="0"/>
      <vel value="0.0777966567" flag="0"/>
      <psa03 value="0.1604732025" flag="0"/>
      <psa10 value="0.1400129402" flag="0"/>
      <psa30 value="0.0097477403" flag="0"/>
    </comp>
    <comp name="--.HNN">
      <acc value="0.1464744508" flag="0"/>
      <vel value="0.1173443437" flag="0"/>
      <psa03 value="0.3597758175" flag="0"/>
      <psa10 value="0.1601540126" flag="0"/>
      <psa30 value="0.0094768556" flag="0"/>
    </comp>
    <comp name="--.HNZ">
      <acc value="0.0490252260" flag="0"/>
      <vel value="0.0282016979" flag="0"/>
      <psa03 value="0.0737342783" flag="0"/>
      <psa10 value="0.0461620106" flag="0"/>
      <psa30 value="0.0054710870" flag="0"/>
    </comp>
  </station>
  <station code="BLCB" name="BLCB" netid="KO" insttype="CMG-3T" commtype="DIG" lat="38.3853" lon="27.042">
    <comp name="--.HHZ">
      <acc value="0.0795850991" flag="0"/>
      <vel value="0.0357600010" flag="0"/>
      <psa03 value="0.1955447263" flag="0"/>
      <psa10 value="0.0283005362" flag="0"/>
      <psa30 value="0.0082771332" flag="0"/>
    </comp>
    <comp name="--.HHE">
      <acc value="0.1445660987" flag="0"/>
      <vel value="0.0962259683" flag="0"/>
      <psa03 value="0.6755395461" flag="0"/>
      <psa10 value="0.0821849658" flag="0"/>
      <psa30 value="0.0148540535" flag="0"/>
    </comp>
    <comp name="--.HHN">
      <acc value="0.0000748357" flag="0"/>
      <vel value="0.0000553183" flag="0"/>
      <psa03 value="0.0002651973" flag="0"/>
      <psa10 value="0.0000486651" flag="0"/>
      <psa30 value="0.0000079038" flag="0"/>
    </comp>
  </station>
  <station code="BMYO" name="BMYO" netid="KO" insttype="CMG-5T" commtype="DIG" lat="39.8098" lon="26.6009">
    <comp name="--.HNZ">
      <acc value="0.0596367404" flag="0"/>
      <vel value="0.0647471818" flag="0"/>
      <psa03 value="0.2182711247" flag="0"/>
      <psa10 value="0.1232498402" flag="0"/>
      <psa30 value="0.0102153553" flag="0"/>
    </comp>
    <comp name="--.HNE">
      <acc value="0.2579389954" flag="0"/>
      <vel value="0.2140188720" flag="0"/>
      <psa03 value="0.6822495763" flag="0"/>
      <psa10 value="0.2302420974" flag="0"/>
      <psa30 value="0.0178692888" flag="0"/>
    </comp>
    <comp name="--.HNN">
      <acc value="0.2657906375" flag="0"/>
      <vel value="0.1132275021" flag="0"/>
      <psa03 value="0.5945015241" flag="0"/>
      <psa10 value="0.1794016768" flag="0"/>
      <psa30 value="0.0103767274" flag="0"/>
    </comp>
  </station>
  <station code="CANM" name="CANM" netid="KO" insttype="CMG-5T" commtype="DIG" lat="40.0113" lon="27.0529">
    <comp name="--.HNN">
      <acc value="0.0996244526" flag="0"/>
      <vel value="0.1009681315" flag="0"/>
      <psa03 value="0.1773838434" flag="0"/>
      <psa10 value="0.1903782996" flag="0"/>
      <psa30 value="0.0123760915" flag="0"/>
    </comp>
    <comp name="--.HNE">
      <acc value="0.0894783967" flag="0"/>
      <vel value="0.0598877578" flag="0"/>
      <psa03 value="0.1330129512" flag="0"/>
      <psa10 value="0.1046376942" flag="0"/>
      <psa30 value="0.0078808023" flag="0"/>
    </comp>
    <comp name="--.HNZ">
      <acc value="0.0613850135" flag="0"/>
      <vel value="0.0528747136" flag="0"/>
      <psa03 value="0.1363339849" flag="0"/>
      <psa10 value="0.0684003163" flag="0"/>
      <psa30 value="0.0072237120" flag="0"/>
    </comp>
  </station>
  <station code="DKL" name="DKL" netid="KO" insttype="CMG-3ESPC" commtype="DIG" lat="39.0713" lon="26.9053">
    <comp name="--.HHN">
      <acc value="0.0629335159" flag="0"/>
      <vel value="0.1077984198" flag="0"/>
      <psa03 value="0.1256151559" flag="0"/>
      <psa10 value="0.0901594475" flag="0"/>
      <psa30 value="0.0200663270" flag="0"/>
    </comp>
    <comp name="--.HHZ">
      <acc value="0.0472753556" flag="0"/>
      <vel value="0.0285459676" flag="0"/>
      <psa03 value="0.1673381317" flag="0"/>
      <psa10 value="0.0578820602" flag="0"/>
      <psa30 value="0.0064669751" flag="0"/>
    </comp>
  </station>
  <station code="EDC" name="EDC" netid="KO" insttype="CMG-3T" commtype="DIG" lat="40.3465" lon="27.8618">
    <comp name="--.HHE">
      <acc value="0.1196679643" flag="0"/>
      <vel value="0.0932331034" flag="0"/>
      <psa03 value="0.4714116302" flag="0"/>
      <psa10 value="0.1634953400" flag="0"/>
      <psa30 value="0.0238612974" flag="0"/>
    </comp>
    <comp name="--.HHN">
      <acc value="0.1445041165" flag="0"/>
      <vel value="0.0943806274" flag="0"/>
      <psa03 value="0.4745617133" flag="0"/>
      <psa10 value="0.1443492628" flag="0"/>
      <psa30 value="0.0121853408" flag="0"/>
    </comp>
    <comp name="--.HHZ">
      <acc value="0.0530741247" flag="0"/>
      <vel value="0.0313430171" flag="0"/>
      <psa03 value="0.1121197428" flag="0"/>
      <psa10 value="0.0682566788" flag="0"/>
      <psa30 value="0.0056344905" flag="0"/>
    </comp>
  </station>
  <station code="EZNE" name="EZNE" netid="KO" insttype="CMG-5T" commtype="DIG" lat="39.756" lon="26.3655">
    <comp name="--.HNE">
      <acc value="0.0473345872" flag="0"/>
      <vel value="0.0345011980" flag="0"/>
      <psa03 value="0.0921331465" flag="0"/>
      <psa10 value="0.0326146446" flag="0"/>
      <psa30 value="0.0037800735" flag="0"/>
    </comp>
    <comp name="--.HNN">
      <acc value="0.0647875451" flag="0"/>
      <vel value="0.0383785013" flag="0"/>
      <psa03 value="0.1441621679" flag="0"/>
      <psa10 value="0.0307415232" flag="0"/>
      <psa30 value="0.0049092167" flag="0"/>
    </comp>
    <comp name="--.HNZ">
      <acc value="0.0295429791" flag="0"/>
      <vel value="0.0235259344" flag="0"/>
      <psa03 value="0.0881483243" flag="0"/>
      <psa10 value="0.0297164373" flag="0"/>
      <psa30 value="0.0028674380" flag="0"/>
    </comp>
  </station>
  <station code="GMLD" name="GMLD" netid="KO" insttype="CMG-5T" commtype="DIG" lat="38.0766" lon="26.9157">
    <comp name="--.HNE">
      <acc value="0.1356791199" flag="0"/>
      <vel value="0.0806947659" flag="0"/>
      <psa03 value="0.3541567274" flag="0"/>
      <psa10 value="0.1140256698" flag="0"/>
      <psa30 value="0.0080398207" flag="0"/>
    </comp>
    <comp name="--.HNN">
      <acc value="0.1531934671" flag="0"/>
      <vel value="0.1067046101" flag="0"/>
      <psa03 value="0.3404218241" flag="0"/>
      <psa10 value="0.0790359245" flag="0"/>
      <psa30 value="0.0095974880" flag="0"/>
    </comp>
    <comp name="--.HNZ">
      <acc value="0.0951578333" flag="0"/>
      <vel value="0.0676194297" flag="0"/>
      <psa03 value="0.3103094715" flag="0"/>
      <psa10 value="0.0554682592" flag="0"/>
      <psa30 value="0.0050437105" flag="0"/>
    </comp>
  </station>
  <station code="GOMA" name="GOMA" netid="KO" insttype="CMG-5T" commtype="DIG" lat="38.7077" lon="27.9175">
    <comp name="--.HNN">
      <acc value="0.6230917873" flag="0"/>
      <vel value="0.3158278802" flag="0"/>
      <psa03 value="2.4288436622" flag="0"/>
      <psa10 value="0.1289618568" flag="0"/>
      <psa30 value="0.0188705031" flag="0"/>
    </comp>
    <comp name="--.HNZ">
      <acc value="0.3856381214" flag="0"/>
      <vel value="0.1823281622" flag="0"/>
      <psa03 value="0.8330743987" flag="0"/>
      <psa10 value="0.0803113583" flag="0"/>
      <psa30 value="0.0145138940" flag="0"/>
    </comp>
  </station>
  <station code="GONE" name="GONE" netid="KO" insttype="CMG-5T" commtype="DIG" lat="40.0466" lon="27.686">
    <comp name="--.HNZ">
      <acc value="0.0651720596" flag="0"/>
      <vel value="0.0381839566" flag="0"/>
      <psa03 value="0.1132958706" flag="0"/>
      <psa10 value="0.0563030895" flag="0"/>
      <psa30 value="0.0062358159" flag="0"/>
    </comp>
    <comp name="--.HNN">
      <acc value="0.4122584565" flag="0"/>
      <vel value="0.2126267822" flag="0"/>
      <psa03 value="0.6844763787" flag="0"/>
      <psa10 value="0.3449998534" flag="0"/>
      <psa30 value="0.0224820350" flag="0"/>
    </comp>
    <comp name="--.HNE">
      <acc value="0.1393637632" flag="0"/>
      <vel value="0.0990061516" flag="0"/>
      <psa03 value="0.1816265054" flag="0"/>
      <psa10 value="0.1658410281" flag="0"/>
      <psa30 value="0.0128727618" flag="0"/>
    </comp>
  </station>
  <station code="GORD" name="GORD" netid="KO" insttype="CMG-5T" commtype="DIG" lat="38.9088" lon="28.1769">
    <comp name="--.HNN">
      <acc value="0.5023132154" flag="0"/>
      <vel value="0.5151990468" flag="0"/>
      <psa03 value="1.1568837978" flag="0"/>
      <psa10 value="0.9050642057" flag="0"/>
      <psa30 value="0.0591998495" flag="0"/>
    </comp>
    <comp name="--.HNZ">
      <acc value="0.4131812125" flag="0"/>
      <vel value="0.2448728956" flag="0"/>
      <psa03 value="0.9806156420" flag="0"/>
      <psa10 value="0.2847957944" flag="0"/>
      <psa30 value="0.0563851133" flag="0"/>
    </comp>
    <comp name="--.HNE">
      <acc value="0.4256041741" flag="0"/>
      <vel value="0.3673839615" flag="0"/>
      <psa03 value="1.0850023955" flag="0"/>
      <psa10 value="0.8930046569" flag="0"/>
      <psa30 value="0.0850746290" flag="0"/>
    </comp>
  </station>
  <station code="KCTX" name="KCTX" netid="KO" insttype="CMG-3ESP" commtype="DIG" lat="40.2626" lon="28.3353">
    <comp name="--.HHE">
      <acc value="0.1395335166" flag="0"/>
      <vel value="0.1679315739" flag="0"/>
      <psa03 value="0.2077058240" flag="0"/>
      <psa10 value="0.2334763628" flag="0"/>
      <psa30 value="0.0202806562" flag="0"/>
    </comp>
    <comp name="--.HHN">
      <acc value="0.1583954635" flag="0"/>
      <vel value="0.0715788534" flag="0"/>
      <psa03 value="0.3263791581" flag="0"/>
      <psa10 value="0.1029552510" flag="0"/>
      <psa30 value="0.0104775785" flag="0"/>
    </comp>
    <comp name="--.HHZ">
      <acc value="0.1205005137" flag="0"/>
      <vel value="0.0665597273" flag="0"/>
      <psa03 value="0.2221948529" flag="0"/>
      <psa10 value="0.0997515115" flag="0"/>
      <psa30 value="0.0096115412" flag="0"/>
    </comp>
  </station>
  <station code="KRBG" name="KRBG" netid="KO" insttype="CMG-3ESP" commtype="DIG" lat="40.3932" lon="27.2977">
    <comp name="--.HHE">
      <acc value="0.0467634870" flag="0"/>
      <vel value="0.0623397701" flag="0"/>
      <psa03 value="0.1059543565" flag="0"/>
      <psa10 value="0.0601336252" flag="0"/>
      <psa30 value="0.0074028279" flag="0"/>
    </comp>
    <comp name="--.HHZ">
      <acc value="0.0256105862" flag="0"/>
      <vel value="0.0371203933" flag="0"/>
      <psa03 value="0.0557116300" flag="0"/>
      <psa10 value="0.0462138100" flag="0"/>
      <psa30 value="0.0062791515" flag="0"/>
    </comp>
    <comp name="--.HHN">
      <acc value="0.0474452746" flag="0"/>
      <vel value="0.0578418529" flag="0"/>
      <psa03 value="0.0925910679" flag="0"/>
      <psa10 value="0.0741046056" flag="0"/>
      <psa30 value="0.0063273943" flag="0"/>
    </comp>
  </station>
  <station code="KULA" name="KULA" netid="KO" insttype="CMG-3T" commtype="DIG" lat="38.5145" lon="28.6607">
    <comp name="--.HHN">
      <acc value="0.2383384898" flag="0"/>
      <vel value="0.0638117586" flag="0"/>
      <psa03 value="0.3550903204" flag="0"/>
      <psa10 value="0.0536966606" flag="0"/>
      <psa30 value="0.0060474817" flag="0"/>
    </comp>
  </station>
  <station code="KUSD" name="KUSD" netid="KO" insttype="CMG-5T" commtype="DIG" lat="37.8606" lon="27.2868">
    <comp name="--.HNN">
      <acc value="0.0409229827" flag="0"/>
      <vel value="0.0297776832" flag="0"/>
      <psa03 value="0.0942748263" flag="0"/>
      <psa10 value="0.0586852021" flag="0"/>
      <psa30 value="0.0048745300" flag="0"/>
    </comp>
    <comp name="--.HNE">
      <acc value="0.0190563966" flag="0"/>
      <vel value="0.0262119426" flag="0"/>
      <psa03 value="0.0681521808" flag="0"/>
      <psa10 value="0.0602472786" flag="0"/>
      <psa30 value="0.0051962707" flag="0"/>
    </comp>
    <comp name="--.HNZ">
      <acc value="0.0332576653" flag="0"/>
      <vel value="0.0221810801" flag="0"/>
      <psa03 value="0.0891759823" flag="0"/>
      <psa10 value="0.0314228589" flag="0"/>
      <psa30 value="0.0040413781" flag="0"/>
    </comp>
  </station>
  <station code="MDNY" name="MDNY" netid="KO" insttype="CMG-5T" commtype="DIG" lat="40.3709" lon="28.8846">
    <comp name="--.HNN">
      <acc value="0.4719488773" flag="0"/>
      <vel value="0.2526842235" flag="0"/>
      <psa03 value="1.6809335320" flag="0"/>
      <psa10 value="0.1649318569" flag="0"/>
      <psa30 value="0.0150911172" flag="0"/>
    </comp>
    <comp name="--.HNE">
      <acc value="0.3927829819" flag="0"/>
      <vel value="0.1715961722" flag="0"/>
      <psa03 value="0.7615114390" flag="0"/>
      <psa10 value="0.0729408333" flag="0"/>
      <psa30 value="0.0102632704" flag="0"/>
    </comp>
    <comp name="--.HNZ">
      <acc value="0.1334911414" flag="0"/>
      <vel value="0.0667622442" flag="0"/>
      <psa03 value="0.2435350234" flag="0"/>
      <psa10 value="0.0487442640" flag="0"/>
      <psa30 value="0.0166865071" flag="0"/>
    </comp>
  </station>
  <station code="NMR8" name="NMR8" netid="KO" insttype="CMG-6T" commtype="DIG" lat="40.612" lon="27.5347">
    <comp name="--.HHE">
      <acc value="0.0748263312" flag="0"/>
      <vel value="0.0594966599" flag="0"/>
      <psa03 value="0.1722703604" flag="0"/>
      <psa10 value="0.0717661513" flag="0"/>
      <psa30 value="0.0095475255" flag="0"/>
    </comp>
    <comp name="--.HHN">
      <acc value="0.0764207566" flag="0"/>
      <vel value="0.0765175585" flag="0"/>
      <psa03 value="0.1756057691" flag="0"/>
      <psa10 value="0.1360080191" flag="0"/>
      <psa30 value="0.0094768729" flag="0"/>
    </comp>
    <comp name="--.HHZ">
      <acc value="0.0313714029" flag="0"/>
      <vel value="0.0313377457" flag="0"/>
      <psa03 value="0.0608277841" flag="0"/>
      <psa10 value="0.0499332390" flag="0"/>
      <psa30 value="0.0040981937" flag="0"/>
    </comp>
  </station>
  <station code="NMR9" name="NMR9" netid="KO" insttype="CMG-6T" commtype="DIG" lat="40.6196" lon="27.702">
    <comp name="--.HHE">
      <acc value="0.0951222979" flag="0"/>
      <vel value="0.0562950402" flag="0"/>
      <psa03 value="0.1515085602" flag="0"/>
