<?xml version="1.0" encoding="UTF-8" standalone="yes"?>
<!DOCTYPE earthquake SYSTEM "stationlist.dtd">
<stationlist created="" xmlns="ch.ethz.sed.shakemap.usgs.xml">
  <station code="ACOR" name="ACOR" netid="HA" insttype="30" lat="37.8902" lon="22.8692">
    <comp name="--.HHE">
      <acc value="0.0194037951" flag="0"/>
      <vel value="0.0181642958" flag="0"/>
      <psa03 value="0.0598072133" flag="0"/>
      <psa10 value="0.0211475188" flag="0"/>
      <psa30 value="0.0057499740" flag="0"/>
    </comp>
    <comp name="--.HHZ">
      <acc value="0.0176624624" flag="0"/>
      <vel value="0.0141843335" flag="0"/>
      <psa03 value="0.0578966621" flag="0"/>
      <psa10 value="0.0113368348" flag="0"/>
      <psa30 value="0.0081291671" flag="0"/>
    </comp>
    <comp name="--.HHN">
      <acc value="0.0798754723" flag="0"/>
      <vel value="0.0791263839" flag="0"/>
      <psa03 value="0.1848353738" flag="0"/>
      <psa10 value="0.1498043046" flag="0"/>
      <psa30 value="0.0293117841" flag="0"/>
    </comp>
  </station>
  <station code="ATAL" name="ATAL" netid="HA" insttype="120" lat="38.6926" lon="23.0213">
    <comp name="--.HHN">
      <acc value="0.0000311886" flag="0"/>
      <vel value="0.0000033681" flag="0"/>
      <psa03 value="0.0000100583" flag="0"/>
      <psa10 value="0.0000026629" flag="0"/>
      <psa30 value="0.0000006722" flag="0"/>
    </comp>
    <comp name="--.HHZ">
      <acc value="0.0726912694" flag="0"/>
      <vel value="0.0344398000" flag="0"/>
      <psa03 value="0.0966167708" flag="0"/>
      <psa10 value="0.0546847448" flag="0"/>
      <psa30 value="0.0064346745" flag="0"/>
    </comp>
    <comp name="--.HHE">
      <acc value="0.0000326006" flag="0"/>
      <vel value="0.0000031254" flag="0"/>
      <psa03 value="0.0000097550" flag="0"/>
      <psa10 value="0.0000025384" flag="0"/>
      <psa30 value="0.0000006468" flag="0"/>
    </comp>
  </station>
  <station code="ATHU" name="ATHU" netid="HA" insttype="60" lat="37.9665" lon="23.7845">
    <comp name="--.HHE">
      <acc value="0.0281111157" flag="0"/>
      <vel value="0.0242890044" flag="0"/>
      <psa03 value="0.0830103718" flag="0"/>
      <psa10 value="0.0283093101" flag="0"/>
      <psa30 value="0.0129399283" flag="0"/>
    </comp>
    <comp name="--.HHZ">
      <acc value="0.0297665479" flag="0"/>
      <vel value="0.0431062311" flag="0"/>
      <psa03 value="0.0429740275" flag="0"/>
      <psa10 value="0.0495412522" flag="0"/>
      <psa30 value="0.0148142198" flag="0"/>
    </comp>
    <comp name="--.HHN">
      <acc value="0.0326774937" flag="0"/>
      <vel value="0.0369238212" flag="0"/>
      <psa03 value="0.0705381988" flag="0"/>
      <psa10 value="0.0412678998" flag="0"/>
      <psa30 value="0.0179731708" flag="0"/>
    </comp>
  </station>
  <station code="EPID" name="EPID" netid="HA" insttype="30" lat="37.6144" lon="23.1189">
    <comp name="--.HHE">
      <acc value="0.0654545319" flag="0"/>
      <vel value="0.0262663363" flag="0"/>
      <psa03 value="0.1512355388" flag="0"/>
      <psa10 value="0.0327486121" flag="0"/>
      <psa30 value="0.0049169422" flag="0"/>
    </comp>
    <comp name="--.HHZ">
      <acc value="0.0376217733" flag="0"/>
      <vel value="0.0266768699" flag="0"/>
      <psa03 value="0.1024603753" flag="0"/>
      <psa10 value="0.0422405195" flag="0"/>
      <psa30 value="0.0054001310" flag="0"/>
    </comp>
    <comp name="--.HHN">
      <acc value="0.0869671527" flag="0"/>
      <vel value="0.0407210174" flag="0"/>
      <psa03 value="0.2588371487" flag="0"/>
      <psa10 value="0.0387055092" flag="0"/>
      <psa30 value="0.0069602977" flag="0"/>
    </comp>
  </station>
  <station code="KALE" name="KALE" netid="HA" insttype="40," lat="38.3911" lon="22.1398">
    <comp name="--.HHN">
      <acc value="0.0227004845" flag="0"/>
      <vel value="0.0186581987" flag="0"/>
      <psa03 value="0.0529990835" flag="0"/>
      <psa10 value="0.0203195490" flag="0"/>
      <psa30 value="0.0033878121" flag="0"/>
    </comp>
    <comp name="--.HHZ">
      <acc value="0.0103563931" flag="0"/>
      <vel value="0.0135621271" flag="0"/>
      <psa03 value="0.0322983740" flag="0"/>
      <psa10 value="0.0135150916" flag="0"/>
      <psa30 value="0.0037902824" flag="0"/>
    </comp>
    <comp name="--.HHE">
      <acc value="0.0158973118" flag="0"/>
      <vel value="0.0156390266" flag="0"/>
      <psa03 value="0.0517056354" flag="0"/>
      <psa10 value="0.0236627350" flag="0"/>
      <psa30 value="0.0066858037" flag="0"/>
    </comp>
  </station>
  <station code="KARY" name="KARY" netid="HA" insttype="60" lat="38.0321" lon="24.437">
    <comp name="--.HHE">
      <acc value="0.0219322802" flag="0"/>
      <vel value="0.0121849356" flag="0"/>
      <psa03 value="0.0540533437" flag="0"/>
      <psa10 value="0.0136580113" flag="0"/>
      <psa30 value="0.0028784205" flag="0"/>
    </comp>
    <comp name="--.HHZ">
      <acc value="0.0470024303" flag="0"/>
      <vel value="0.0307501907" flag="0"/>
      <psa03 value="0.0768748204" flag="0"/>
      <psa10 value="0.0274890025" flag="0"/>
      <psa30 value="0.0052333005" flag="0"/>
    </comp>
    <comp name="--.HHN">
      <acc value="0.0203206896" flag="0"/>
      <vel value="0.0126926525" flag="0"/>
      <psa03 value="0.0399675413" flag="0"/>
      <psa10 value="0.0148542218" flag="0"/>
      <psa30 value="0.0017095822" flag="0"/>
    </comp>
  </station>
  <station code="LAKA" name="LAKA" netid="HA" insttype="120s" lat="38.2401" lon="21.9785">
    <comp name="--.HHN">
      <acc value="0.0046581775" flag="0"/>
      <vel value="0.0075062008" flag="0"/>
      <psa03 value="0.0121012991" flag="0"/>
      <psa10 value="0.0095532804" flag="0"/>
      <psa30 value="0.0038068173" flag="0"/>
    </comp>
    <comp name="--.HHZ">
      <acc value="0.0036715033" flag="0"/>
      <vel value="0.0041316545" flag="0"/>
      <psa03 value="0.0140789101" flag="0"/>
      <psa10 value="0.0058378741" flag="0"/>
      <psa30 value="0.0030003448" flag="0"/>
    </comp>
    <comp name="--.HHE">
      <acc value="0.0041078060" flag="0"/>
      <vel value="0.0065748405" flag="0"/>
      <psa03 value="0.0111487232" flag="0"/>
      <psa10 value="0.0082873460" flag="0"/>
      <psa30 value="0.0035058799" flag="0"/>
    </comp>
  </station>
  <station code="STFN" name="STFN" netid="HA" insttype="1s-100Hz," lat="38.1766" lon="23.544">
    <comp name="--.HHZ">
      <acc value="0.4229910272" flag="0"/>
      <vel value="0.3330533131" flag="0"/>
      <psa03 value="0.9061299965" flag="0"/>
      <psa10 value="0.2708846240" flag="0"/>
      <psa30 value="0.0391280927" flag="0"/>
    </comp>
    <comp name="--.HHE">
      <acc value="1.0839118474" flag="0"/>
      <vel value="0.4142959402" flag="0"/>
      <psa03 value="3.0045554557" flag="0"/>
      <psa10 value="0.3692449854" flag="0"/>
      <psa30 value="0.0481745712" flag="0"/>
    </comp>
    <comp name="--.HHN">
      <acc value="1.5924281737" flag="0"/>
      <vel value="0.9863355959" flag="0"/>
      <psa03 value="4.2056607708" flag="0"/>
      <psa10 value="0.8374191555" flag="0"/>
      <psa30 value="0.1272103907" flag="0"/>
    </comp>
  </station>
  <station code="THAL" name="THAL" netid="HA" insttype="30" lat="38.0357" lon="22.6634">
    <comp name="--.HHE">
      <acc value="0.0809592522" flag="0"/>
      <vel value="0.0486424771" flag="0"/>
      <psa03 value="0.3326841404" flag="0"/>
      <psa10 value="0.0520776692" flag="0"/>
      <psa30 value="0.0108167001" flag="0"/>
    </comp>
    <comp name="--.HHZ">
      <acc value="0.0450785127" flag="0"/>
      <vel value="0.0239185577" flag="0"/>
      <psa03 value="0.1156318145" flag="0"/>
      <psa10 value="0.0327569775" flag="0"/>
      <psa30 value="0.0026808672" flag="0"/>
    </comp>
    <comp name="--.HHN">
      <acc value="0.1258030346" flag="0"/>
      <vel value="0.0455353441" flag="0"/>
      <psa03 value="0.4220876968" flag="0"/>
      <psa10 value="0.0764678774" flag="0"/>
      <psa30 value="0.0065403357" flag="0"/>
    </comp>
  </station>
  <station code="VILL" name="VILL" netid="HA" insttype="30" lat="38.1642" lon="23.3122">
    <comp name="--.HHZ">
      <acc value="0.2069657319" flag="0"/>
      <vel value="0.1461499480" flag="0"/>
      <psa03 value="0.4127893931" flag="0"/>
      <psa10 value="0.1491741171" flag="0"/>
      <psa30 value="0.0291865382" flag="0"/>
    </comp>
    <comp name="--.HHN">
      <acc value="0.5065801097" flag="0"/>
      <vel value="0.3045479618" flag="0"/>
      <psa03 value="0.8711931534" flag="0"/>
      <psa10 value="0.3026619703" flag="0"/>
      <psa30 value="0.0936299664" flag="0"/>
    </comp>
    <comp name="--.HHE">
      <acc value="0.3326373959" flag="0"/>
      <vel value="0.2059247358" flag="0"/>
      <psa03 value="0.4977364364" flag="0"/>
      <psa10 value="0.4297489011" flag="0"/>
      <psa30 value="0.0381491163" flag="0"/>
    </comp>
  </station>
  <station code="ATH5" name="ATH5" netid="HI" insttype="CMG-5TD,ACCELEROMETER,GURALP" lat="37.9754" lon="23.7371">
    <comp name="--.HNN">
      <acc value="0.1015558734" flag="0"/>
      <vel value="0.1185939249" flag="0"/>
      <psa03 value="0.4424249506" flag="0"/>
      <psa10 value="0.0839546047" flag="0"/>
      <psa30 value="0.0529409422" flag="0"/>
    </comp>
    <comp name="--.HNZ">
      <acc value="0.0545669082" flag="0"/>
      <vel value="0.0690035226" flag="0"/>
      <psa03 value="0.1725531360" flag="0"/>
      <psa10 value="0.0763435983" flag="0"/>
      <psa30 value="0.0233959743" flag="0"/>
    </comp>
    <comp name="--.HNE">
      <acc value="0.1346485139" flag="0"/>
      <vel value="0.0675475429" flag="0"/>
      <psa03 value="0.4042196516" flag="0"/>
      <psa10 value="0.1105915310" flag="0"/>
      <psa30 value="0.0306381206" flag="0"/>
    </comp>
  </station>
  <station code="SKY1" name="SKY1" netid="HI" insttype="CMG-5TD,ACCELEROMETER,GURALP" lat="38.9045" lon="24.5646">
    <comp name="--.HNE">
      <acc value="0.0361154942" flag="0"/>
      <vel value="0.0360762658" flag="0"/>
      <psa03 value="0.1116811084" flag="0"/>
      <psa10 value="0.0384741940" flag="0"/>
      <psa30 value="0.0049177094" flag="0"/>
    </comp>
    <comp name="--.HNN">
      <acc value="0.0354934069" flag="0"/>
      <vel value="0.0318893573" flag="0"/>
      <psa03 value="0.1220581476" flag="0"/>
      <psa10 value="0.0431772516" flag="0"/>
      <psa30 value="0.0051862263" flag="0"/>
    </comp>
    <comp name="--.HNZ">
      <acc value="0.0320936173" flag="0"/>
      <vel value="0.0366612212" flag="0"/>
      <psa03 value="0.0883448958" flag="0"/>
      <psa10 value="0.0341057028" flag="0"/>
      <psa30 value="0.0052768696" flag="0"/>
    </comp>
  </station>
  <station code="ATH" name="ATH" netid="HL" insttype="DR24" lat="37.9738" lon="23.7177">
    <comp name="--.HHZ">
      <acc value="0.0662058336" flag="0"/>
      <vel value="0.0635208708" flag="0"/>
      <psa03 value="0.1433237409" flag="0"/>
      <psa10 value="0.1035710558" flag="0"/>
      <psa30 value="0.0217212629" flag="0"/>
    </comp>
    <comp name="--.HHN">
      <acc value="0.1357877921" flag="0"/>
      <vel value="0.0943926096" flag="0"/>
      <psa03 value="0.2768296613" flag="0"/>
      <psa10 value="0.0964643071" flag="0"/>
      <psa30 value="0.0310544599" flag="0"/>
    </comp>
    <comp name="--.HHE">
      <acc value="0.2290503497" flag="0"/>
      <vel value="0.1219065464" flag="0"/>
      <psa03 value="0.7264658319" flag="0"/>
      <psa10 value="0.0847628596" flag="0"/>
      <psa30 value="0.0577995607" flag="0"/>
    </comp>
  </station>
  <station code="DION" name="DION" netid="HL" insttype="30" lat="38.0779" lon="23.9331">
    <comp name="--.HHE">
      <acc value="0.1002228775" flag="0"/>
      <vel value="0.0452514684" flag="0"/>
      <psa03 value="0.3313510907" flag="0"/>
      <psa10 value="0.0456884006" flag="0"/>
      <psa30 value="0.0151294999" flag="0"/>
    </comp>
    <comp name="--.HHZ">
      <acc value="0.0549962150" flag="0"/>
      <vel value="0.0433733809" flag="0"/>
      <psa03 value="0.1221876278" flag="0"/>
      <psa10 value="0.0565033082" flag="0"/>
      <psa30 value="0.0125631930" flag="0"/>
    </comp>
    <comp name="--.HHN">
      <acc value="0.0835247216" flag="0"/>
      <vel value="0.0599833562" flag="0"/>
      <psa03 value="0.1502446150" flag="0"/>
      <psa10 value="0.0352670539" flag="0"/>
      <psa30 value="0.0152645662" flag="0"/>
    </comp>
  </station>
  <station code="KLV" name="KLV" netid="HL" insttype="120" lat="38.0435" lon="22.1504">
    <comp name="--.HHN">
      <acc value="0.0068102708" flag="0"/>
      <vel value="0.0081215918" flag="0"/>
      <psa03 value="0.0205075380" flag="0"/>
      <psa10 value="0.0127822499" flag="0"/>
      <psa30 value="0.0030315815" flag="0"/>
    </comp>
    <comp name="--.HHE">
      <acc value="0.0086088682" flag="0"/>
      <vel value="0.0116609193" flag="0"/>
      <psa03 value="0.0302727510" flag="0"/>
      <psa10 value="0.0106548485" flag="0"/>
      <psa30 value="0.0028809569" flag="0"/>
    </comp>
    <comp name="--.HHZ">
      <acc value="0.0070095092" flag="0"/>
      <vel value="0.0100261476" flag="0"/>
      <psa03 value="0.0162263001" flag="0"/>
      <psa10 value="0.0137088182" flag="0"/>
      <psa30 value="0.0028634143" flag="0"/>
    </comp>
  </station>
  <station code="KYMI" name="KYMI" netid="HL" insttype="60" lat="38.6331" lon="24.1001">
    <comp name="--.HHE">
      <acc value="0.0716388454" flag="0"/>
      <vel value="0.0482721615" flag="0"/>
      <psa03 value="0.1540481628" flag="0"/>
      <psa10 value="0.0296635950" flag="0"/>
      <psa30 value="0.0082880803" flag="0"/>
    </comp>
    <comp name="--.HHN">
      <acc value="0.0406001913" flag="0"/>
      <vel value="0.0554249349" flag="0"/>
      <psa03 value="0.1175346055" flag="0"/>
      <psa10 value="0.0780589068" flag="0"/>
      <psa30 value="0.0132008151" flag="0"/>
    </comp>
    <comp name="--.HHZ">
      <acc value="0.0259995676" flag="0"/>
      <vel value="0.0207940284" flag="0"/>
      <psa03 value="0.0581784358" flag="0"/>
      <psa10 value="0.0186463149" flag="0"/>
      <psa30 value="0.0054139936" flag="0"/>
    </comp>
  </station>
  <station code="LKR" name="LKR" netid="HL" insttype="30" lat="38.6496" lon="22.9989">
    <comp name="--.HHE">
      <acc value="0.2206868832" flag="0"/>
      <vel value="0.0627713642" flag="0"/>
      <psa03 value="0.3673010397" flag="0"/>
      <psa10 value="0.0736506228" flag="0"/>
      <psa30 value="0.0108608100" flag="0"/>
    </comp>
    <comp name="--.HHZ">
      <acc value="0.1063807779" flag="0"/>
      <vel value="0.0422992148" flag="0"/>
      <psa03 value="0.2407756130" flag="0"/>
      <psa10 value="0.0906493305" flag="0"/>
      <psa30 value="0.0088097380" flag="0"/>
    </comp>
    <comp name="--.HHN">
      <acc value="0.2972886086" flag="0"/>
      <vel value="0.0829739024" flag="0"/>
      <psa03 value="0.4996999953" flag="0"/>
      <psa10 value="0.0794073685" flag="0"/>
      <psa30 value="0.0210068283" flag="0"/>
    </comp>
  </station>
  <station code="NEO" name="NEO" netid="HL" insttype="120" lat="39.3057" lon="23.2219">
    <comp name="--.HHE">
      <acc value="0.0620764895" flag="0"/>
      <vel value="0.0293013882" flag="0"/>
      <psa03 value="0.1512115760" flag="0"/>
      <psa10 value="0.0254218766" flag="0"/>
      <psa30 value="0.0040579665" flag="0"/>
    </comp>
    <comp name="--.HHN">
      <acc value="0.0699524575" flag="0"/>
      <vel value="0.0500293555" flag="0"/>
      <psa03 value="0.2063315378" flag="0"/>
      <psa10 value="0.0329996984" flag="0"/>
      <psa30 value="0.0026857425" flag="0"/>
    </comp>
    <comp name="--.HHZ">
      <acc value="0.0250680725" flag="0"/>
      <vel value="0.0234390271" flag="0"/>
      <psa03 value="0.0858385858" flag="0"/>
      <psa10 value="0.0208784040" flag="0"/>
      <psa30 value="0.0039732672" flag="0"/>
    </comp>
  </station>
  <station code="NOAC" name="NOAC" netid="HL" insttype="CMG-5" lat="37.9738" lon="23.7177">
    <comp name="00.HNZ">
      <acc value="0.0682822902" flag="0"/>
      <vel value="0.0648510223" flag="0"/>
      <psa03 value="0.1450325040" flag="0"/>
      <psa10 value="0.1029171086" flag="0"/>
      <psa30 value="0.0211756893" flag="0"/>
    </comp>
    <comp name="00.HNN">
      <acc value="0.1288071424" flag="0"/>
      <vel value="0.0988180587" flag="0"/>
      <psa03 value="0.2749635799" flag="0"/>
      <psa10 value="0.0971632955" flag="0"/>
      <psa30 value="0.0339970645" flag="0"/>
    </comp>
    <comp name="00.HNE">
      <acc value="0.2385250264" flag="0"/>
      <vel value="0.1202878366" flag="0"/>
      <psa03 value="0.7576082939" flag="0"/>
      <psa10 value="0.0875637805" flag="0"/>
      <psa30 value="0.0571255578" flag="0"/>
    </comp>
  </station>
  <station code="PTL" name="PTL" netid="HL" insttype="120" lat="38.0473" lon="23.8638">
    <comp name="--.HHZ">
      <acc value="0.0289246110" flag="0"/>
      <vel value="0.0345785414" flag="0"/>
      <psa03 value="0.0829657841" flag="0"/>
      <psa10 value="0.0526170915" flag="0"/>
      <psa30 value="0.0104856258" flag="0"/>
    </comp>
    <comp name="--.HHN">
      <acc value="0.0384945157" flag="0"/>
      <vel value="0.0432918134" flag="0"/>
      <psa03 value="0.1109992263" flag="0"/>
      <psa10 value="0.0656261003" flag="0"/>
      <psa30 value="0.0174877472" flag="0"/>
    </comp>
    <comp name="--.HHE">
      <acc value="0.0394122653" flag="0"/>
      <vel value="0.0382957098" flag="0"/>
      <psa03 value="0.1293493864" flag="0"/>
      <psa10 value="0.0573970746" flag="0"/>
      <psa30 value="0.0087954852" flag="0"/>
    </comp>
  </station>
  <station code="SKY" name="SKY" netid="HL" insttype="120" lat="38.8831" lon="24.5482">
    <comp name="--.HHZ">
      <acc value="0.0301243529" flag="0"/>
      <vel value="0.0360978866" flag="0"/>
      <psa03 value="0.0311250052" flag="0"/>
      <psa10 value="0.0510346373" flag="0"/>
      <psa30 value="0.0054943030" flag="0"/>
    </comp>
    <comp name="--.HHN">
      <acc value="0.0698245088" flag="0"/>
      <vel value="0.0450894383" flag="0"/>
      <psa03 value="0.1091434313" flag="0"/>
      <psa10 value="0.0428555635" flag="0"/>
      <psa30 value="0.0050227094" flag="0"/>
    </comp>
    <comp name="--.HHE">
      <acc value="0.0637349536" flag="0"/>
      <vel value="0.0429824309" flag="0"/>
      <psa03 value="0.1196953026" flag="0"/>
      <psa10 value="0.0712373974" flag="0"/>
      <psa30 value="0.0069358704" flag="0"/>
    </comp>
  </station>
  <station code="VLY" name="VLY" netid="HL" insttype="120P," lat="37.8524" lon="23.7942">
    <comp name="--.HHE">
      <acc value="0.0934084514" flag="0"/>
      <vel value="0.0529987899" flag="0"/>
      <psa03 value="0.3059344426" flag="0"/>
      <psa10 value="0.0641882966" flag="0"/>
      <psa30 value="0.0191617467" flag="0"/>
    </comp>
    <comp name="--.HHZ">
      <acc value="0.0760675371" flag="0"/>
      <vel value="0.0425919386" flag="0"/>
      <psa03 value="0.1952374839" flag="0"/>
      <psa10 value="0.0346517760" flag="0"/>
      <psa30 value="0.0057346015" flag="0"/>
    </comp>
    <comp name="--.HHN">
      <acc value="0.1099359798" flag="0"/>
      <vel value="0.0502496085" flag="0"/>
      <psa03 value="0.1913724504" flag="0"/>
      <psa10 value="0.0697236182" flag="0"/>
      <psa30 value="0.0072618294" flag="0"/>
    </comp>
  </station>
  <station code="ANX" name="ANX" netid="HP" insttype="120" lat="38.5933" lon="21.9209">
    <comp name="--.HHE">
      <acc value="0.0209858107" flag="0"/>
      <vel value="0.0260292321" flag="0"/>
      <psa03 value="0.0508062381" flag="0"/>
      <psa10 value="0.0498107193" flag="0"/>
      <psa30 value="0.0054103240" flag="0"/>
    </comp>
    <comp name="--.HHN">
      <acc value="0.0216573762" flag="0"/>
      <vel value="0.0267244124" flag="0"/>
      <psa03 value="0.0701821869" flag="0"/>
