<stationlist created="1778135880">
	<station code="MALA" name="MALA" netid="CL" source="Corinth Riff Laboratory (CRLNET)" insttype="" lat="38.39341" lon="21.87263">
		<comp name="01.HNE" depth="0.0">
			<acc value="0.0268659596984453" flag="0"/>
			<vel value="0.0378461212771154" flag="0"/>
			<psa03 value="0.047247770188895" flag="0"/>
			<psa10 value="0.0935465581754164" flag="0"/>
			<psa30 value="0.0101622973892081" flag="0"/>
		</comp>
		<comp name="01.HNN" depth="0.0">
			<acc value="0.0206556585676676" flag="0"/>
			<vel value="0.0271035000488609" flag="0"/>
			<psa03 value="0.0428630339403043" flag="0"/>
			<psa10 value="0.0650529313126362" flag="0"/>
			<psa30 value="0.00871488700510697" flag="0"/>
		</comp>
		<comp name="01.HNZ" depth="0.0">
			<acc value="0.0113558082894293" flag="0"/>
			<vel value="0.0163874847463601" flag="0"/>
			<psa03 value="0.0188812111929107" flag="0"/>
			<psa10 value="0.0462477818709766" flag="0"/>
			<psa30 value="0.00526705256310295" flag="0"/>
		</comp>
	</station>
	<station code="LTRS" name="LTRS" netid="HA" source="Hellenic Seismological Network, University of Athens, Seismological Laboratory (HA)" insttype="" lat="37.97528" lon="22.9765">
		<comp name="--.HNE" depth="0.0">
			<acc value="0.127471052388178" flag="0"/>
			<vel value="0.109463661415693" flag="0"/>
			<psa03 value="0.336595620389258" flag="0"/>
			<psa10 value="0.204404323513508" flag="0"/>
			<psa30 value="0.0226413462371102" flag="0"/>
		</comp>
		<comp name="--.HNN" depth="0.0">
			<acc value="0.129285335781716" flag="0"/>
			<vel value="0.0906213839885166" flag="0"/>
			<psa03 value="0.361695998302109" flag="0"/>
			<psa10 value="0.108300748229858" flag="0"/>
			<psa30 value="0.0373038147679841" flag="0"/>
		</comp>
		<comp name="--.HNZ" depth="0.0">
			<acc value="0.0736888276119643" flag="0"/>
			<vel value="0.0637595326952301" flag="0"/>
			<psa03 value="0.22885638685246" flag="0"/>
			<psa10 value="0.106927609908743" flag="0"/>
			<psa30 value="0.0201997640219511" flag="0"/>
		</comp>
	</station>
	<station code="XLKS" name="XLKS" netid="HA" source="Hellenic Seismological Network, University of Athens, Seismological Laboratory (HA)" insttype="" lat="38.0772" lon="22.6361">
		<comp name="--.HNE" depth="0.0">
			<acc value="0.0831508286779595" flag="0"/>
			<vel value="0.0694217163209634" flag="0"/>
			<psa03 value="0.197223646773342" flag="0"/>
			<psa10 value="0.116612060531268" flag="0"/>
			<psa30 value="0.0274690303312218" flag="0"/>
		</comp>
		<comp name="--.HNN" depth="0.0">
			<acc value="0.073288614905645" flag="0"/>
			<vel value="0.0785826012757799" flag="0"/>
			<psa03 value="0.247692855838752" flag="0"/>
			<psa10 value="0.184801867949911" flag="0"/>
			<psa30 value="0.0220928067839702" flag="0"/>
		</comp>
		<comp name="--.HNZ" depth="0.0">
			<acc value="0.0563656504645654" flag="0"/>
			<vel value="0.0416400693760533" flag="0"/>
			<psa03 value="0.201116218749132" flag="0"/>
			<psa10 value="0.0664985520084726" flag="0"/>
			<psa30 value="0.00913009468252453" flag="0"/>
		</comp>
	</station>
	<station code="ATH5" name="ATH5" netid="HI" source="ITSAK Strong Motion Network" insttype="" lat="37.975421" lon="23.737098">
		<comp name="--.HNE" depth="0.0">
			<acc value="0.135395156517466" flag="0"/>
			<vel value="0.0764773174682279" flag="0"/>
			<psa03 value="0.409256963937332" flag="0"/>
			<psa10 value="0.108953089602352" flag="0"/>
			<psa30 value="0.034950374699863" flag="0"/>
		</comp>
		<comp name="--.HNN" depth="0.0">
			<acc value="0.102945636190557" flag="0"/>
			<vel value="0.116550748121549" flag="0"/>
			<psa03 value="0.44165032152896" flag="0"/>
			<psa10 value="0.0825815855994765" flag="0"/>
			<psa30 value="0.0596498624414137" flag="0"/>
		</comp>
		<comp name="--.HNZ" depth="0.0">
			<acc value="0.0537463688361315" flag="0"/>
			<vel value="0.0680317751881617" flag="0"/>
			<psa03 value="0.176150067456136" flag="0"/>
			<psa10 value="0.0760702522703195" flag="0"/>
			<psa30 value="0.0263026010046834" flag="0"/>
		</comp>
	</station>
	<station code="KLV1" name="KLV1" netid="HI" source="ITSAK Strong Motion Network" insttype="" lat="38.03256" lon="22.10797">
		<comp name="--.HNE" depth="0.0">
			<acc value="0.0320466716022804" flag="0"/>
			<vel value="0.0161680503572553" flag="0"/>
			<psa03 value="0.0967326507087035" flag="0"/>
			<psa10 value="0.0189944089756549" flag="0"/>
			<psa30 value="0.00310108234071241" flag="0"/>
		</comp>
		<comp name="--.HNN" depth="0.0">
			<acc value="0.0259567262709075" flag="0"/>
			<vel value="0.0181281122767268" flag="0"/>
			<psa03 value="0.0723928903083637" flag="0"/>
			<psa10 value="0.0254413135272817" flag="0"/>
			<psa30 value="0.00451806802431308" flag="0"/>
		</comp>
		<comp name="--.HNZ" depth="0.0">
			<acc value="0.0121324297481312" flag="0"/>
			<vel value="0.0128887335845589" flag="0"/>
			<psa03 value="0.0244739870201947" flag="0"/>
			<psa10 value="0.0177863693969616" flag="0"/>
			<psa30 value="0.00248587699971118" flag="0"/>
		</comp>
	</station>
	<station code="NPS1" name="NPS1" netid="HI" source="ITSAK Strong Motion Network" insttype="" lat="36.51263" lon="23.06248">
		<comp name="--.HNE" depth="0.0">
			<acc value="0.010371027172239" flag="0"/>
			<vel value="0.00973339152362115" flag="0"/>
			<psa03 value="0.0311853180129354" flag="0"/>
			<psa10 value="0.0153300222536184" flag="0"/>
			<psa30 value="0.00145322687096147" flag="0"/>
		</comp>
		<comp name="--.HNN" depth="0.0">
			<acc value="0.0161408199143487" flag="0"/>
			<vel value="0.0126303137534191" flag="0"/>
			<psa03 value="0.0361069607409453" flag="0"/>
			<psa10 value="0.0147300292628674" flag="0"/>
			<psa30 value="0.00204337657625647" flag="0"/>
		</comp>
		<comp name="--.HNZ" depth="0.0">
			<acc value="0.00568921690238879" flag="0"/>
			<vel value="0.00460678575010525" flag="0"/>
			<psa03 value="0.0167335852752336" flag="0"/>
			<psa10 value="0.00560530364513709" flag="0"/>
			<psa30 value="0.0013306332248274" flag="0"/>
		</comp>
	</station>
	<station code="SKO1" name="SKO1" netid="HI" source="ITSAK Strong Motion Network" insttype="" lat="39.123383" lon="23.728705">
		<comp name="--.HNE" depth="0.0">
			<acc value="0.0290165429185281" flag="0"/>
			<vel value="0.0286354286133944" flag="0"/>
			<psa03 value="0.0649656840097306" flag="0"/>
			<psa10 value="0.0645898494741371" flag="0"/>
			<psa30 value="0.00505944872439417" flag="0"/>
		</comp>
		<comp name="--.HNN" depth="0.0">
			<acc value="0.0228885257499364" flag="0"/>
			<vel value="0.0253515816972398" flag="0"/>
			<psa03 value="0.0713638195561435" flag="0"/>
			<psa10 value="0.0439525066714593" flag="0"/>
			<psa30 value="0.00563393865737278" flag="0"/>
		</comp>
		<comp name="--.HNZ" depth="0.0">
			<acc value="0.0193464122276812" flag="0"/>
			<vel value="0.0231281020361273" flag="0"/>
			<psa03 value="0.0475162234286046" flag="0"/>
			<psa10 value="0.022187660262001" flag="0"/>
			<psa30 value="0.00392657605281953" flag="0"/>
		</comp>
	</station>
	<station code="SKY1" name="SKY1" netid="HI" source="ITSAK Strong Motion Network" insttype="" lat="38.904483" lon="24.564572">
		<comp name="--.HNE" depth="0.0">
			<acc value="0.036010857702735" flag="0"/>
			<vel value="0.0365599020776461" flag="0"/>
			<psa03 value="0.110244797107422" flag="0"/>
			<psa10 value="0.0385888109420608" flag="0"/>
			<psa30 value="0.00553729549107731" flag="0"/>
		</comp>
		<comp name="--.HNN" depth="0.0">
			<acc value="0.035696003011389" flag="0"/>
			<vel value="0.0335293539823876" flag="0"/>
			<psa03 value="0.122325192894355" flag="0"/>
			<psa10 value="0.0428894318422091" flag="0"/>
			<psa30 value="0.005742214797389" flag="0"/>
		</comp>
		<comp name="--.HNZ" depth="0.0">
			<acc value="0.0323949896479377" flag="0"/>
			<vel value="0.0358092897670635" flag="0"/>
			<psa03 value="0.0884553424843233" flag="0"/>
			<psa10 value="0.0340707429177478" flag="0"/>
			<psa30 value="0.00580753841905167" flag="0"/>
		</comp>
	</station>
	<station code="VOL2" name="VOL2" netid="HI" source="ITSAK Strong Motion Network" insttype="" lat="39.366" lon="22.9506">
		<comp name="--.HNE" depth="0.0">
			<acc value="0.0281457641625086" flag="0"/>
			<vel value="0.021027640343045" flag="0"/>
			<psa03 value="0.0808939095658353" flag="0"/>
			<psa10 value="0.0306238033198761" flag="0"/>
			<psa30 value="0.00358250848392502" flag="0"/>
		</comp>
		<comp name="--.HNN" depth="0.0">
			<acc value="0.022977376264466" flag="0"/>
			<vel value="0.0254927621534538" flag="0"/>
			<psa03 value="0.0615205341001237" flag="0"/>
			<psa10 value="0.0529926695186811" flag="0"/>
			<psa30 value="0.00310242460691096" flag="0"/>
		</comp>
		<comp name="--.HNZ" depth="0.0">
			<acc value="0.0113697151264688" flag="0"/>
			<vel value="0.0105396796725589" flag="0"/>
			<psa03 value="0.0222368766892811" flag="0"/>
			<psa10 value="0.017520600689649" flag="0"/>
			<psa30 value="0.00327826147892077" flag="0"/>
		</comp>
	</station>
	<station code="ATHP" name="ATHP" netid="HL" source="National Observatory of Athens Seismic Network" insttype="" lat="38.000799" lon="23.773487">
		<comp name="00.HNE" depth="0.0">
			<acc value="0.13051001543072" flag="0"/>
			<vel value="0.0731474258646139" flag="0"/>
			<psa03 value="0.276596321314156" flag="0"/>
			<psa10 value="0.127238782025174" flag="0"/>
			<psa30 value="0.0150678329228354" flag="0"/>
		</comp>
		<comp name="00.HNN" depth="0.0">
			<acc value="0.0737213428516609" flag="0"/>
			<vel value="0.13670938712963" flag="0"/>
			<psa03 value="0.190691284607074" flag="0"/>
			<psa10 value="0.114771813573058" flag="0"/>
			<psa30 value="0.0622332774515527" flag="0"/>
		</comp>
		<comp name="00.HNZ" depth="0.0">
			<acc value="0.0747542047755609" flag="0"/>
			<vel value="0.0779858772837086" flag="0"/>
			<psa03 value="0.143398772211561" flag="0"/>
			<psa10 value="0.0774594977858168" flag="0"/>
			<psa30 value="0.0222511941953989" flag="0"/>
		</comp>
	</station>
	<station code="DLFA" name="DLFA" netid="HL" source="National Observatory of Athens Seismic Network" insttype="" lat="38.47836" lon="22.49583">
		<comp name="00.HNE" depth="0.0">
			<acc value="0.026189945735604" flag="0"/>
			<vel value="0.0194061819220961" flag="0"/>
			<psa03 value="0.0872025606990117" flag="0"/>
			<psa10 value="0.0269956577852004" flag="0"/>
			<psa30 value="0.00677307523787398" flag="0"/>
		</comp>
		<comp name="00.HNN" depth="0.0">
			<acc value="0.0314394184824385" flag="0"/>
			<vel value="0.022783340091053" flag="0"/>
			<psa03 value="0.0629522847119084" flag="0"/>
			<psa10 value="0.0287271811813276" flag="0"/>
			<psa30 value="0.00399547905101167" flag="0"/>
		</comp>
		<comp name="00.HNZ" depth="0.0">
			<acc value="0.0232827359955188" flag="0"/>
			<vel value="0.0128679631018853" flag="0"/>
			<psa03 value="0.06058094776114" flag="0"/>
			<psa10 value="0.0269996845837961" flag="0"/>
			<psa30 value="0.00467332348127848" flag="0"/>
		</comp>
	</station>
	<station code="KYMI" name="KYMI" netid="HL" source="National Observatory of Athens Seismic Network" insttype="" lat="38.633147" lon="24.100138">
		<comp name="--.HNE" depth="1.0">
			<acc value="0.0716564025550282" flag="0"/>
			<vel value="0.0477521022619388" flag="0"/>
			<psa03 value="0.152436697948452" flag="0"/>
			<psa10 value="0.0301728018771639" flag="0"/>
			<psa30 value="0.00961644246846515" flag="0"/>
		</comp>
		<comp name="--.HNN" depth="1.0">
			<acc value="0.0403227008293387" flag="0"/>
			<vel value="0.0581426328726284" flag="0"/>
			<psa03 value="0.117985198852383" flag="0"/>
			<psa10 value="0.0785708941982147" flag="0"/>
			<psa30 value="0.0150387504885335" flag="0"/>
		</comp>
		<comp name="--.HNZ" depth="1.0">
			<acc value="0.0268442238699144" flag="0"/>
			<vel value="0.0209957846442105" flag="0"/>
			<psa03 value="0.0579858997772802" flag="0"/>
			<psa10 value="0.0193527940506673" flag="0"/>
			<psa30 value="0.00621424507721176" flag="0"/>
		</comp>
	</station>
	<station code="NOAC" name="NOAC" netid="HL" source="National Observatory of Athens Seismic Network" insttype="" lat="37.97384" lon="23.71767">
		<comp name="00.HNE" depth="0.0">
			<acc value="0.238103870444977" flag="0"/>
			<vel value="0.13092366344601" flag="0"/>
			<psa03 value="0.762451942981969" flag="0"/>
			<psa10 value="0.0906835043739132" flag="0"/>
			<psa30 value="0.0651728404263732" flag="0"/>
		</comp>
		<comp name="00.HNN" depth="0.0">
			<acc value="0.130140044341767" flag="0"/>
			<vel value="0.109929383666463" flag="0"/>
			<psa03 value="0.276327868074446" flag="0"/>
			<psa10 value="0.0976337587499955" flag="0"/>
			<psa30 value="0.0383673370193004" flag="0"/>
		</comp>
		<comp name="00.HNZ" depth="0.0">
			<acc value="0.0687381533101991" flag="0"/>
			<vel value="0.0633042166332131" flag="0"/>
			<psa03 value="0.14626227343513" flag="0"/>
			<psa10 value="0.10290886491029" flag="0"/>
			<psa30 value="0.0237048684884266" flag="0"/>
		</comp>
	</station>
	<station code="ANX" name="ANX" netid="HP" source="University of Patras, Seismological Laboratory (PSLNET)" insttype="" lat="38.5933" lon="21.9209">
		<comp name="--.HNE" depth="0.0">
			<acc value="0.0261172302315528" flag="0"/>
			<vel value="0.0344028721475621" flag="0"/>
			<psa03 value="0.0663974346215153" flag="0"/>
			<psa10 value="0.0648838057716191" flag="0"/>
			<psa30 value="0.00733772188539657" flag="0"/>
		</comp>
		<comp name="--.HNN" depth="0.0">
			<acc value="0.0263768732818944" flag="0"/>
			<vel value="0.0321800437871642" flag="0"/>
			<psa03 value="0.0897528664762531" flag="0"/>
			<psa10 value="0.0682743701891518" flag="0"/>
			<psa30 value="0.0081730588829597" flag="0"/>
		</comp>
		<comp name="--.HNZ" depth="0.0">
			<acc value="0.0157529103902485" flag="0"/>
			<vel value="0.0221755171891757" flag="0"/>
			<psa03 value="0.0338251082034135" flag="0"/>
			<psa10 value="0.0328989445264152" flag="0"/>
			<psa30 value="0.00453328037456329" flag="0"/>
		</comp>
	</station>
	<station code="GUR" name="GUR" netid="HP" source="University of Patras, Seismological Laboratory (PSLNET)" insttype="" lat="37.9363" lon="22.3423">
		<comp name="--.HNE" depth="0.0">
			<acc value="0.0309175532931608" flag="0"/>
			<vel value="0.018252376802235" flag="0"/>
			<psa03 value="0.0891712177902156" flag="0"/>
			<psa10 value="0.0187648814557032" flag="0"/>
			<psa30 value="0.00296193407812959" flag="0"/>
		</comp>
		<comp name="--.HNN" depth="0.0">
			<acc value="0.0301820180218547" flag="0"/>
			<vel value="0.0211044315579862" flag="0"/>
			<psa03 value="0.126441475903236" flag="0"/>
			<psa10 value="0.0255017155062164" flag="0"/>
			<psa30 value="0.00360219505483706" flag="0"/>
		</comp>
		<comp name="--.HNZ" depth="0.0">
			<acc value="0.0154350383190503" flag="0"/>
			<vel value="0.0092830265386376" flag="0"/>
			<psa03 value="0.0565094069588772" flag="0"/>
			<psa10 value="0.0134615877052394" flag="0"/>
			<psa30 value="0.00370241759766199" flag="0"/>
		</comp>
	</station>
	<station code="LTK" name="LTK" netid="HP" source="University of Patras, Seismological Laboratory (PSLNET)" insttype="" lat="38.0228" lon="22.9673">
		<comp name="--.HNE" depth="0.0">
			<acc value="0.0624406129792036" flag="0"/>
			<vel value="0.0490881287779588" flag="0"/>
			<psa03 value="0.184919539953317" flag="0"/>
			<psa10 value="0.0558718305145669" flag="0"/>
			<psa30 value="0.0166588657901811" flag="0"/>
		</comp>
		<comp name="--.HNN" depth="0.0">
			<acc value="0.0614914798161926" flag="0"/>
			<vel value="0.0511795372441193" flag="0"/>
			<psa03 value="0.206306314716851" flag="0"/>
			<psa10 value="0.0430827181748001" flag="0"/>
			<psa30 value="0.0133658393830763" flag="0"/>
		</comp>
		<comp name="--.HNZ" depth="0.0">
			<acc value="0.060173368689293" flag="0"/>
			<vel value="0.0391456927653805" flag="0"/>
			<psa03 value="0.189125307375435" flag="0"/>
			<psa10 value="0.0306761517016195" flag="0"/>
			<psa30 value="0.0163604352720372" flag="0"/>
		</comp>
	</station>
	<station code="SERG" name="SERG" netid="HP" source="University of Patras, Seismological Laboratory (PSLNET)" insttype="" lat="38.4133" lon="22.0566">
		<comp name="--.HNE" depth="0.0">
			<acc value="0.0188768491514876" flag="0"/>
			<vel value="0.017397258787341" flag="0"/>
			<psa03 value="0.0584780640500812" flag="0"/>
			<psa10 value="0.0247970257519786" flag="0"/>
			<psa30 value="0.002397287430607" flag="0"/>
		</comp>
		<comp name="--.HNN" depth="0.0">
			<acc value="0.0258308600989054" flag="0"/>
			<vel value="0.0123000131386375" flag="0"/>
			<psa03 value="0.0583438374302264" flag="0"/>
			<psa10 value="0.0165259814365249" flag="0"/>
			<psa30 value="0.00231809372489266" flag="0"/>
		</comp>
		<comp name="--.HNZ" depth="0.0">
			<acc value="0.012163085978801" flag="0"/>
			<vel value="0.0151968494567039" flag="0"/>
			<psa03 value="0.0370018048733107" flag="0"/>
			<psa10 value="0.0179997897225307" flag="0"/>
			<psa30 value="0.00385856789875976" flag="0"/>
		</comp>
	</station>
</stationlist>
