<stationlist created="1778138977">
	<station code="ABEA" name="ABEA" netid="HC" source="Seismological Network of Crete (HC)" insttype="" lat="35.5163" lon="24.0113">
		<comp name="--.HNE" depth="0.0">
			<acc value="0.0207806633232293" flag="0"/>
			<vel value="0.00977096050832131" flag="0"/>
			<psa03 value="0.0489673011349639" flag="0"/>
			<psa10 value="0.00998809009944971" flag="0"/>
			<psa30 value="0.00143855248454297" flag="0"/>
		</comp>
		<comp name="--.HNN" depth="0.0">
			<acc value="0.0186218530359279" flag="0"/>
			<vel value="0.00852575035283012" flag="0"/>
			<psa03 value="0.0479830015550191" flag="0"/>
			<psa10 value="0.0126702490293069" flag="0"/>
			<psa30 value="0.00107345819466976" flag="0"/>
		</comp>
		<comp name="--.HNZ" depth="0.0">
			<acc value="0.0130509516601259" flag="0"/>
			<vel value="0.00438442872797019" flag="0"/>
			<psa03 value="0.0148430015051592" flag="0"/>
			<psa10 value="0.00672491127360974" flag="0"/>
			<psa30 value="0.0011594388904706" flag="0"/>
		</comp>
	</station>
	<station code="ATEI" name="ATEI" netid="HC" source="Seismological Network of Crete (HC)" insttype="" lat="35.5193" lon="24.0432">
		<comp name="--.HNE" depth="0.0">
			<acc value="0.0111245551513819" flag="0"/>
			<vel value="0.00657961502272242" flag="0"/>
			<psa03 value="0.0415904921451623" flag="0"/>
			<psa10 value="0.00909873462151048" flag="0"/>
			<psa30 value="0.00088230574008999" flag="0"/>
		</comp>
		<comp name="--.HNN" depth="0.0">
			<acc value="0.0102712620048847" flag="0"/>
			<vel value="0.00531630010597574" flag="0"/>
			<psa03 value="0.0358611178105647" flag="0"/>
			<psa10 value="0.00653582609141656" flag="0"/>
			<psa30 value="0.00131590175536659" flag="0"/>
		</comp>
		<comp name="--.HNZ" depth="0.0">
			<acc value="0.0109548327259657" flag="0"/>
			<vel value="0.00444303397398867" flag="0"/>
			<psa03 value="0.0223195254340065" flag="0"/>
			<psa10 value="0.00576990769680068" flag="0"/>
			<psa30 value="0.000832865433662433" flag="0"/>
		</comp>
	</station>
	<station code="G0LD" name="G0LD" netid="HC" source="Seismological Network of Crete (HC)" insttype="" lat="35.4955" lon="24.0306">
		<comp name="--.HNE" depth="0.0">
			<acc value="0.0403271550841941" flag="0"/>
			<vel value="0.0188674612425671" flag="0"/>
			<psa03 value="0.129272469916853" flag="0"/>
			<psa10 value="0.0298318068357893" flag="0"/>
			<psa30 value="0.00236445871711695" flag="0"/>
		</comp>
		<comp name="--.HNN" depth="0.0">
			<acc value="0.0250154682668738" flag="0"/>
			<vel value="0.0237783684654854" flag="0"/>
			<psa03 value="0.0695707076763745" flag="0"/>
			<psa10 value="0.0487524008572432" flag="0"/>
			<psa30 value="0.00235605232690166" flag="0"/>
		</comp>
		<comp name="--.HNZ" depth="0.0">
			<acc value="0.0178999722105466" flag="0"/>
			<vel value="0.0117145776008722" flag="0"/>
			<psa03 value="0.0458393126709908" flag="0"/>
			<psa10 value="0.0178366334644235" flag="0"/>
			<psa30 value="0.00196453743262825" flag="0"/>
		</comp>
	</station>
	<station code="LENT" name="LENT" netid="HC" source="Seismological Network of Crete (HC)" insttype="" lat="35.5074" lon="24.0402">
		<comp name="--.HNE" depth="0.0">
			<acc value="0.0155452034789572" flag="0"/>
			<vel value="0.00768732513364938" flag="0"/>
			<psa03 value="0.0377907065738333" flag="0"/>
			<psa10 value="0.0118625683369163" flag="0"/>
			<psa30 value="0.00092409507093147" flag="0"/>
		</comp>
		<comp name="--.HNN" depth="0.0">
			<acc value="0.0158611654688311" flag="0"/>
			<vel value="0.00933373384103973" flag="0"/>
			<psa03 value="0.0358655269568189" flag="0"/>
			<psa10 value="0.0115385374964763" flag="0"/>
			<psa30 value="0.000939892367422039" flag="0"/>
		</comp>
		<comp name="--.HNZ" depth="0.0">
			<acc value="0.0107519972651466" flag="0"/>
			<vel value="0.00593113133594161" flag="0"/>
			<psa03 value="0.0262441109393865" flag="0"/>
			<psa10 value="0.00877102666245693" flag="0"/>
			<psa30 value="0.000935004022761409" flag="0"/>
		</comp>
	</station>
	<station code="MULT" name="MULT" netid="HC" source="Seismological Network of Crete (HC)" insttype="" lat="35.5091" lon="24.0118">
		<comp name="--.HNE" depth="0.0">
			<acc value="0.0275067527188046" flag="0"/>
			<vel value="0.00987916653628974" flag="0"/>
			<psa03 value="0.0565786126385446" flag="0"/>
			<psa10 value="0.0176080651979233" flag="0"/>
			<psa30 value="0.00212622335186309" flag="0"/>
		</comp>
		<comp name="--.HNN" depth="0.0">
			<acc value="0.0224300701887737" flag="0"/>
			<vel value="0.00810420122438197" flag="0"/>
			<psa03 value="0.0510808734406193" flag="0"/>
			<psa10 value="0.0135929179640979" flag="0"/>
			<psa30 value="0.00283877617999216" flag="0"/>
		</comp>
		<comp name="--.HNZ" depth="0.0">
			<acc value="0.0226780142864796" flag="0"/>
			<vel value="0.00887631277678514" flag="0"/>
			<psa03 value="0.0244576748884299" flag="0"/>
			<psa10 value="0.0105743336227176" flag="0"/>
			<psa30 value="0.0036315022358691" flag="0"/>
		</comp>
	</station>
	<station code="NERO" name="NERO" netid="HC" source="Seismological Network of Crete (HC)" insttype="" lat="35.474" lon="24.0423">
		<comp name="--.HNE" depth="0.0">
			<acc value="0.0175776518733662" flag="0"/>
			<vel value="0.00614145546853895" flag="0"/>
			<psa03 value="0.0400320373426911" flag="0"/>
			<psa10 value="0.00761708412570962" flag="0"/>
			<psa30 value="0.000959050199034416" flag="0"/>
		</comp>
		<comp name="--.HNN" depth="0.0">
			<acc value="0.0150007334411856" flag="0"/>
			<vel value="0.00672756897188359" flag="0"/>
			<psa03 value="0.056233074123523" flag="0"/>
			<psa10 value="0.00986997227472387" flag="0"/>
			<psa30 value="0.00106060869762155" flag="0"/>
		</comp>
		<comp name="--.HNZ" depth="0.0">
			<acc value="0.0123444032746994" flag="0"/>
			<vel value="0.00482219059454738" flag="0"/>
			<psa03 value="0.0258989604707042" flag="0"/>
			<psa10 value="0.00817617444394559" flag="0"/>
			<psa30 value="0.000958615170214952" flag="0"/>
		</comp>
	</station>
	<station code="PASK" name="PASK" netid="HC" source="Seismological Network of Crete (HC)" insttype="" lat="35.4996" lon="24.0121">
		<comp name="--.HNE" depth="0.0">
			<acc value="0.0273202263243243" flag="0"/>
			<vel value="0.0156175390239129" flag="0"/>
			<psa03 value="0.0525552419433468" flag="0"/>
			<psa10 value="0.0214841213426008" flag="0"/>
			<psa30 value="0.00129371330632186" flag="0"/>
		</comp>
		<comp name="--.HNN" depth="0.0">
			<acc value="0.0182415211192399" flag="0"/>
			<vel value="0.00979673517416146" flag="0"/>
			<psa03 value="0.0376713471043688" flag="0"/>
			<psa10 value="0.0119354891050937" flag="0"/>
			<psa30 value="0.00125193314276031" flag="0"/>
		</comp>
		<comp name="--.HNZ" depth="0.0">
			<acc value="0.0139017056518661" flag="0"/>
			<vel value="0.00718065566526326" flag="0"/>
			<psa03 value="0.040816482537468" flag="0"/>
			<psa10 value="0.00882985399699499" flag="0"/>
			<psa30 value="0.000912138133008763" flag="0"/>
		</comp>
	</station>
	<station code="POLY" name="POLY" netid="HC" source="Seismological Network of Crete (HC)" insttype="" lat="35.5226" lon="24.0602">
		<comp name="--.HNE" depth="0.0">
			<acc value="0.0126050862477145" flag="0"/>
			<vel value="0.00669124236349708" flag="0"/>
			<psa03 value="0.0296489198246061" flag="0"/>
			<psa10 value="0.00760038005036705" flag="0"/>
			<psa30 value="0.000910631574872686" flag="0"/>
		</comp>
		<comp name="--.HNN" depth="0.0">
			<acc value="0.010581679861957" flag="0"/>
			<vel value="0.00780441391053506" flag="0"/>
			<psa03 value="0.0295103637709439" flag="0"/>
			<psa10 value="0.0071791076119112" flag="0"/>
			<psa30 value="0.000913188306744879" flag="0"/>
		</comp>
		<comp name="--.HNZ" depth="0.0">
			<acc value="0.00766806091125123" flag="0"/>
			<vel value="0.00435595623605999" flag="0"/>
			<psa03 value="0.0229039599832931" flag="0"/>
			<psa10 value="0.00609474343436116" flag="0"/>
			<psa30 value="0.000783045154148077" flag="0"/>
		</comp>
	</station>
	<station code="SOUD" name="SOUD" netid="HC" source="Seismological Network of Crete (HC)" insttype="" lat="35.4878" lon="24.0678">
		<comp name="--.HNE" depth="0.0">
			<acc value="0.03346143193576" flag="0"/>
			<vel value="0.0170151113045109" flag="0"/>
			<psa03 value="0.112581551725276" flag="0"/>
			<psa10 value="0.0163813345580125" flag="0"/>
			<psa30 value="0.00105976843362561" flag="0"/>
		</comp>
		<comp name="--.HNN" depth="0.0">
			<acc value="0.0372826156212999" flag="0"/>
			<vel value="0.0174444730355875" flag="0"/>
			<psa03 value="0.067135671367295" flag="0"/>
			<psa10 value="0.0186031523675409" flag="0"/>
			<psa30 value="0.00151992704187185" flag="0"/>
		</comp>
		<comp name="--.HNZ" depth="0.0">
			<acc value="0.00653898727810229" flag="0"/>
			<vel value="0.0033684240792324" flag="0"/>
			<psa03 value="0.0066309809365978" flag="0"/>
			<psa10 value="0.00427100137037143" flag="0"/>
			<psa30 value="0.00183563160158573" flag="0"/>
		</comp>
	</station>
	<station code="KSS1" name="KSS1" netid="HI" source="ITSAK Strong Motion Network" insttype="" lat="35.4189" lon="26.9207">
		<comp name="--.HNE" depth="0.0">
			<acc value="0.00421688725871248" flag="0"/>
			<vel value="0.00167639729151853" flag="0"/>
			<psa03 value="0.0149752576623063" flag="0"/>
			<psa10 value="0.00154419749081927" flag="0"/>
			<psa30 value="0.000162076635218956" flag="0"/>
		</comp>
		<comp name="--.HNN" depth="0.0">
			<acc value="0.00555060740491269" flag="0"/>
			<vel value="0.00239307426411941" flag="0"/>
			<psa03 value="0.0195282467754869" flag="0"/>
			<psa10 value="0.00180679504286786" flag="0"/>
			<psa30 value="0.000145787170705295" flag="0"/>
		</comp>
		<comp name="--.HNZ" depth="0.0">
			<acc value="0.00261814941363859" flag="0"/>
			<vel value="0.00124427754958326" flag="0"/>
			<psa03 value="0.00425094273690658" flag="0"/>
			<psa10 value="0.00225331614613779" flag="0"/>
			<psa30 value="0.000162085698319343" flag="0"/>
		</comp>
	</station>
	<station code="SIT2" name="SIT2" netid="HI" source="ITSAK Strong Motion Network" insttype="" lat="35.2059" lon="26.107">
		<comp name="--.HNE" depth="0.0">
			<acc value="0.0656467378430155" flag="0"/>
			<vel value="0.0418422602364739" flag="0"/>
			<psa03 value="0.179011858657177" flag="0"/>
			<psa10 value="0.0314769114409159" flag="0"/>
			<psa30 value="0.00176813108833832" flag="0"/>
		</comp>
		<comp name="--.HNN" depth="0.0">
			<acc value="0.0780518083639972" flag="0"/>
			<vel value="0.0554934703280419" flag="0"/>
			<psa03 value="0.308929152540384" flag="0"/>
			<psa10 value="0.0363363183527611" flag="0"/>
			<psa30 value="0.00194378459952374" flag="0"/>
		</comp>
		<comp name="--.HNZ" depth="0.0">
			<acc value="0.0451093513881681" flag="0"/>
			<vel value="0.0209207022543763" flag="0"/>
			<psa03 value="0.149745315725784" flag="0"/>
			<psa10 value="0.00876165291651341" flag="0"/>
			<psa30 value="0.000555828748011725" flag="0"/>
		</comp>
	</station>
	<station code="IACM" name="IACM" netid="HL" source="National Observatory of Athens Seismic Network" insttype="" lat="35.3058" lon="25.0709">
		<comp name="--.HNE" depth="0.0">
			<acc value="0.534954577259916" flag="0"/>
			<vel value="0.221310561518336" flag="0"/>
			<psa03 value="1.27021622892275" flag="0"/>
			<psa10 value="0.441086849838629" flag="0"/>
			<psa30 value="0.0135503443104683" flag="0"/>
		</comp>
		<comp name="--.HNN" depth="0.0">
			<acc value="0.411079146819978" flag="0"/>
			<vel value="0.160950258466456" flag="0"/>
			<psa03 value="1.1749127488694" flag="0"/>
			<psa10 value="0.212827258761385" flag="0"/>
			<psa30 value="0.0122573778244465" flag="0"/>
		</comp>
		<comp name="--.HNZ" depth="0.0">
			<acc value="0.410761745611228" flag="0"/>
			<vel value="0.131920161226048" flag="0"/>
			<psa03 value="0.673279768147005" flag="0"/>
			<psa10 value="0.107820205059507" flag="0"/>
			<psa30 value="0.00555892325139249" flag="0"/>
		</comp>
	</station>
	<station code="IMMV" name="IMMV" netid="HL" source="National Observatory of Athens Seismic Network" insttype="" lat="35.4606" lon="23.9811">
		<comp name="--.HNE" depth="0.0">
			<acc value="0.0214914295009703" flag="0"/>
			<vel value="0.00969214148349822" flag="0"/>
			<psa03 value="0.073192379885778" flag="0"/>
			<psa10 value="0.0130578100158289" flag="0"/>
			<psa30 value="0.000658296577667126" flag="0"/>
		</comp>
		<comp name="--.HNN" depth="0.0">
			<acc value="0.0194755887962876" flag="0"/>
			<vel value="0.0104698022549186" flag="0"/>
			<psa03 value="0.0471672443900176" flag="0"/>
			<psa10 value="0.0070733098220654" flag="0"/>
			<psa30 value="0.000608702979835721" flag="0"/>
		</comp>
		<comp name="--.HNZ" depth="0.0">
			<acc value="0.0157368477937036" flag="0"/>
			<vel value="0.00670361883922765" flag="0"/>
			<psa03 value="0.0592149539502975" flag="0"/>
			<psa10 value="0.00534013250756844" flag="0"/>
			<psa30 value="0.000346560848580448" flag="0"/>
		</comp>
	</station>
	<station code="KARP" name="KARP" netid="HL" source="National Observatory of Athens Seismic Network" insttype="" lat="35.5471" lon="27.16106">
		<comp name="--.HNE" depth="0.0">
			<acc value="0.00546004914841878" flag="0"/>
			<vel value="0.00276792762106525" flag="0"/>
			<psa03 value="0.0179012757154063" flag="0"/>
			<psa10 value="0.00317684224708298" flag="0"/>
			<psa30 value="0.000218178645972918" flag="0"/>
		</comp>
		<comp name="--.HNN" depth="0.0">
			<acc value="0.00463544047862504" flag="0"/>
			<vel value="0.00217550666233639" flag="0"/>
			<psa03 value="0.0110234984818472" flag="0"/>
			<psa10 value="0.0034988212328623" flag="0"/>
			<psa30 value="0.00017968231973835" flag="0"/>
		</comp>
		<comp name="--.HNZ" depth="0.0">
			<acc value="0.00337662882994716" flag="0"/>
			<vel value="0.00186439617135759" flag="0"/>
			<psa03 value="0.00690332449886878" flag="0"/>
			<psa10 value="0.00165385838812601" flag="0"/>
			<psa30 value="0.000200948780620616" flag="0"/>
		</comp>
	</station>
	<station code="KSTE" name="KSTE" netid="HL" source="National Observatory of Athens Seismic Network" insttype="" lat="35.1801" lon="25.3372">
		<comp name="--.HNE" depth="0.0">
			<acc value="2.61368115697121" flag="0"/>
			<vel value="0.637472166518132" flag="0"/>
			<psa03 value="1.52907596044633" flag="0"/>
			<psa10 value="0.258463791957934" flag="0"/>
			<psa30 value="0.0243508114550869" flag="0"/>
		</comp>
		<comp name="--.HNN" depth="0.0">
			<acc value="2.93039818186184" flag="0"/>
			<vel value="1.21104046975652" flag="0"/>
			<psa03 value="3.86493469962077" flag="0"/>
			<psa10 value="0.411892455854981" flag="0"/>
			<psa30 value="0.0305568209060929" flag="0"/>
		</comp>
		<comp name="--.HNZ" depth="0.0">
			<acc value="2.79159519824019" flag="0"/>
			<vel value="0.901213609319625" flag="0"/>
			<psa03 value="3.08958233633314" flag="0"/>
			<psa10 value="0.194318372638578" flag="0"/>
			<psa30 value="0.0228067658363202" flag="0"/>
		</comp>
	</station>
	<station code="SIVA" name="SIVA" netid="HL" source="National Observatory of Athens Seismic Network" insttype="" lat="35.01777" lon="24.81204">
		<comp name="00.HNE" depth="0.0">
			<acc value="0.0849984800756969" flag="0"/>
			<vel value="0.0384439440436591" flag="0"/>
			<psa03 value="0.198336347142766" flag="0"/>
			<psa10 value="0.0214498947002425" flag="0"/>
			<psa30 value="0.00165238487905664" flag="0"/>
		</comp>
		<comp name="00.HNN" depth="0.0">
			<acc value="0.0537743905335158" flag="0"/>
			<vel value="0.0204913218048663" flag="0"/>
			<psa03 value="0.094744963889026" flag="0"/>
			<psa10 value="0.0180216932237365" flag="0"/>
			<psa30 value="0.00157355257346934" flag="0"/>
		</comp>
		<comp name="00.HNZ" depth="0.0">
			<acc value="0.0380362648765812" flag="0"/>
			<vel value="0.01531301163332" flag="0"/>
			<psa03 value="0.0747549938180059" flag="0"/>
			<psa10 value="0.0100330246386489" flag="0"/>
			<psa30 value="0.00161733703647528" flag="0"/>
		</comp>
	</station>
	<station code="THRA" name="THRA" netid="HL" source="National Observatory of Athens Seismic Network" insttype="" lat="36.41502" lon="25.43244">
		<comp name="00.HNE" depth="0.0">
			<acc value="0.0288313431551649" flag="0"/>
			<vel value="0.0217395640951188" flag="0"/>
			<psa03 value="0.0745641374248131" flag="0"/>
			<psa10 value="0.0229984097817892" flag="0"/>
			<psa30 value="0.00135217030381268" flag="0"/>
		</comp>
		<comp name="00.HNN" depth="0.0">
			<acc value="0.0269420093410474" flag="0"/>
			<vel value="0.0175133460442842" flag="0"/>
			<psa03 value="0.0665683577437698" flag="0"/>
			<psa10 value="0.0183725889688314" flag="0"/>
			<psa30 value="0.00101782638433556" flag="0"/>
		</comp>
		<comp name="00.HNZ" depth="0.0">
			<acc value="0.0244156836223368" flag="0"/>
			<vel value="0.00952319777483374" flag="0"/>
			<psa03 value="0.0541201581113192" flag="0"/>
			<psa10 value="0.00721376506401515" flag="0"/>
			<psa30 value="0.000501319876648597" flag="0"/>
		</comp>
	</station>
</stationlist>
