<?xml version="1.0" encoding="UTF-8" standalone="yes"?>
<!DOCTYPE earthquake SYSTEM "stationlist.dtd">
<stationlist created="" xmlns="ch.ethz.sed.shakemap.usgs.xml">
  <station code="IMMV" name="IMMV" netid="GE" insttype="STS-2/N" lat="35.4606" lon="23.9811">
    <comp name="--.HHN">
      <acc value="0.0207218769" flag="0"/>
      <vel value="0.0108475858" flag="0"/>
      <psa03 value="0.0485595146" flag="0"/>
      <psa10 value="0.0073389967" flag="0"/>
      <psa30 value="0.0005691475" flag="0"/>
    </comp>
    <comp name="--.HHE">
      <acc value="0.0228170977" flag="0"/>
      <vel value="0.0101866249" flag="0"/>
      <psa03 value="0.0776770524" flag="0"/>
      <psa10 value="0.0135260646" flag="0"/>
      <psa30 value="0.0006262615" flag="0"/>
    </comp>
    <comp name="--.HHZ">
      <acc value="0.0162798379" flag="0"/>
      <vel value="0.0069119329" flag="0"/>
      <psa03 value="0.0616375116" flag="0"/>
      <psa10 value="0.0053869638" flag="0"/>
      <psa30 value="0.0002952268" flag="0"/>
    </comp>
  </station>
  <station code="ZKR" name="ZKR" netid="GE" insttype="STS-2/N" lat="35.1147" lon="26.2169">
    <comp name="--.HHE">
      <acc value="0.0308897381" flag="0"/>
      <vel value="0.0190214774" flag="0"/>
      <psa03 value="0.0618683406" flag="0"/>
      <psa10 value="0.0125067382" flag="0"/>
      <psa30 value="0.0008084818" flag="0"/>
    </comp>
    <comp name="--.HHN">
      <acc value="0.0092565543" flag="0"/>
      <vel value="0.0060302271" flag="0"/>
      <psa03 value="0.0288954928" flag="0"/>
      <psa10 value="0.0043749992" flag="0"/>
      <psa30 value="0.0004546421" flag="0"/>
    </comp>
    <comp name="--.HHZ">
      <acc value="0.0147602573" flag="0"/>
      <vel value="0.0066343177" flag="0"/>
      <psa03 value="0.0299206124" flag="0"/>
      <psa10 value="0.0088975596" flag="0"/>
      <psa30 value="0.0005890854" flag="0"/>
    </comp>
  </station>
  <station code="IMOD" name="IMOD" netid="HC" insttype="120" lat="34.9731" lon="24.7995">
    <comp name="--.HHE">
      <acc value="0.0284190786" flag="0"/>
      <vel value="0.0231925822" flag="0"/>
      <psa03 value="0.1135473931" flag="0"/>
      <psa10 value="0.0168673537" flag="0"/>
      <psa30 value="0.0011289312" flag="0"/>
    </comp>
    <comp name="--.HHN">
      <acc value="0.0387790011" flag="0"/>
      <vel value="0.0193309345" flag="0"/>
      <psa03 value="0.0767862819" flag="0"/>
      <psa10 value="0.0224032977" flag="0"/>
      <psa30 value="0.0016792189" flag="0"/>
    </comp>
    <comp name="--.HHZ">
      <acc value="0.0243093802" flag="0"/>
      <vel value="0.0096481907" flag="0"/>
      <psa03 value="0.0439971284" flag="0"/>
      <psa10 value="0.0117361901" flag="0"/>
      <psa30 value="0.0009910511" flag="0"/>
    </comp>
  </station>
  <station code="KNSS" name="KNSS" netid="HC" insttype="60" lat="35.3042" lon="25.1802">
    <comp name="--.HHN">
      <acc value="0.4054086100" flag="0"/>
      <vel value="0.1639329909" flag="0"/>
      <psa03 value="1.0832984834" flag="0"/>
      <psa10 value="0.0694621586" flag="0"/>
      <psa30 value="0.0056243459" flag="0"/>
    </comp>
    <comp name="--.HHE">
      <acc value="0.4321185848" flag="0"/>
      <vel value="0.1835696736" flag="0"/>
      <psa03 value="0.8772726595" flag="0"/>
      <psa10 value="0.0527942744" flag="0"/>
      <psa30 value="0.0073569745" flag="0"/>
    </comp>
    <comp name="--.HHZ">
      <acc value="0.3558418878" flag="0"/>
      <vel value="0.1153005265" flag="0"/>
      <psa03 value="0.5879804576" flag="0"/>
      <psa10 value="0.0664310109" flag="0"/>
      <psa30 value="0.0060370625" flag="0"/>
    </comp>
  </station>
  <station code="PFKS" name="PFKS" netid="HC" insttype="120" lat="35.0429" lon="25.4733">
    <comp name="--.HHZ">
      <acc value="0.3794393997" flag="0"/>
      <vel value="0.1313839614" flag="0"/>
      <psa03 value="0.4721022862" flag="0"/>
      <psa10 value="0.0267168154" flag="0"/>
      <psa30 value="0.0032944006" flag="0"/>
    </comp>
    <comp name="--.HHE">
      <acc value="0.4760344568" flag="0"/>
      <vel value="0.1443734569" flag="0"/>
      <psa03 value="0.7714968576" flag="0"/>
      <psa10 value="0.0544371168" flag="0"/>
      <psa30 value="0.0040993140" flag="0"/>
    </comp>
    <comp name="--.HHN">
      <acc value="1.0191009221" flag="0"/>
      <vel value="0.2699270356" flag="0"/>
      <psa03 value="1.1893973494" flag="0"/>
      <psa10 value="0.0610975705" flag="0"/>
      <psa30 value="0.0062423918" flag="0"/>
    </comp>
  </station>
  <station code="STIA" name="STIA" netid="HC" insttype="120" lat="35.2021" lon="26.0909">
    <comp name="--.HHE">
      <acc value="0.0423167526" flag="0"/>
      <vel value="0.0245036372" flag="0"/>
      <psa03 value="0.1281418462" flag="0"/>
      <psa10 value="0.0229136946" flag="0"/>
      <psa30 value="0.0007984801" flag="0"/>
    </comp>
    <comp name="--.HHN">
      <acc value="0.0414887517" flag="0"/>
      <vel value="0.0195596028" flag="0"/>
      <psa03 value="0.0791986335" flag="0"/>
      <psa10 value="0.0246518747" flag="0"/>
      <psa30 value="0.0011600136" flag="0"/>
    </comp>
    <comp name="--.HHZ">
      <acc value="0.0350597443" flag="0"/>
      <vel value="0.0209880245" flag="0"/>
      <psa03 value="0.0842058435" flag="0"/>
      <psa10 value="0.0082389014" flag="0"/>
      <psa30 value="0.0007548486" flag="0"/>
    </comp>
  </station>
  <station code="CRE1" name="CRE1" netid="HL" insttype="LE3D20_SMART24" lat="35.2267" lon="25.2497">
    <comp name="--.HHN">
      <acc value="2.7547444711" flag="0"/>
      <vel value="1.3535702592" flag="0"/>
      <psa03 value="6.8068249327" flag="0"/>
      <psa10 value="0.4922880691" flag="0"/>
      <psa30 value="0.0418630546" flag="0"/>
    </comp>
    <comp name="--.HHE">
      <acc value="2.8682293737" flag="0"/>
      <vel value="1.1369957481" flag="0"/>
      <psa03 value="5.3571604197" flag="0"/>
      <psa10 value="0.2659470015" flag="0"/>
      <psa30 value="0.0444412049" flag="0"/>
    </comp>
    <comp name="--.HHZ">
      <acc value="2.8876136773" flag="0"/>
      <vel value="0.6335004103" flag="0"/>
      <psa03 value="1.9523115320" flag="0"/>
      <psa10 value="0.2218861260" flag="0"/>
      <psa30 value="0.0287460021" flag="0"/>
    </comp>
  </station>
  <station code="CRE3" name="CRE3" netid="HL" insttype="LE3D20_SMART24" lat="35.0769" lon="25.2462">
    <comp name="--.HHZ">
      <acc value="0.7036796216" flag="0"/>
      <vel value="0.2016373711" flag="0"/>
      <psa03 value="1.0307074316" flag="0"/>
      <psa10 value="0.2891014885" flag="0"/>
      <psa30 value="0.0205596414" flag="0"/>
    </comp>
    <comp name="--.HHE">
      <acc value="1.1898538071" flag="0"/>
      <vel value="0.5336715792" flag="0"/>
      <psa03 value="1.9200374121" flag="0"/>
      <psa10 value="0.4196159482" flag="0"/>
      <psa30 value="0.0300388724" flag="0"/>
    </comp>
    <comp name="--.HHN">
      <acc value="1.2717029744" flag="0"/>
      <vel value="0.4275931295" flag="0"/>
      <psa03 value="1.5694669657" flag="0"/>
      <psa10 value="0.7205604169" flag="0"/>
      <psa30 value="0.0353181579" flag="0"/>
    </comp>
  </station>
  <station code="IACM" name="IACM" netid="HL" insttype="120" lat="35.3058" lon="25.0709">
    <comp name="--.HHE">
      <acc value="1.2693481573" flag="0"/>
      <vel value="0.1142465115" flag="0"/>
      <psa03 value="0.3709298576" flag="0"/>
      <psa10 value="0.1100357858" flag="0"/>
      <psa30 value="0.0281327993" flag="0"/>
    </comp>
    <comp name="--.HHN">
      <acc value="2.2515134175" flag="0"/>
      <vel value="0.3264270577" flag="0"/>
      <psa03 value="0.8451930382" flag="0"/>
      <psa10 value="0.1899819412" flag="0"/>
      <psa30 value="0.0104703525" flag="0"/>
    </comp>
    <comp name="--.HHZ">
      <acc value="0.0011229486" flag="0"/>
      <vel value="-100.0000000000" flag="0"/>
      <psa03 value="0.0000003353" flag="0"/>
      <psa10 value="0.0000003282" flag="0"/>
      <psa30 value="0.0000001514" flag="0"/>
    </comp>
  </station>
  <station code="IDI" name="IDI" netid="HL" insttype="120" lat="35.288" lon="24.89">
    <comp name="--.HHE">
      <acc value="0.0603167888" flag="0"/>
      <vel value="0.0152559752" flag="0"/>
      <psa03 value="0.0728367303" flag="0"/>
      <psa10 value="0.0070709194" flag="0"/>
      <psa30 value="0.0010818929" flag="0"/>
    </comp>
    <comp name="--.HHZ">
      <acc value="0.0483462178" flag="0"/>
      <vel value="0.0126553848" flag="0"/>
      <psa03 value="0.0644815268" flag="0"/>
      <psa10 value="0.0053396598" flag="0"/>
      <psa30 value="0.0015691118" flag="0"/>
    </comp>
    <comp name="--.HHN">
      <acc value="0.0714034663" flag="0"/>
      <vel value="0.0170791612" flag="0"/>
      <psa03 value="0.1201032425" flag="0"/>
      <psa10 value="0.0068054383" flag="0"/>
      <psa30 value="0.0009931879" flag="0"/>
    </comp>
  </station>
  <station code="IMMV" name="IMMV" netid="HL" insttype="120" lat="35.4606" lon="23.9811">
    <comp name="--.HHE">
      <acc value="0.0221384318" flag="0"/>
      <vel value="0.0099883146" flag="0"/>
      <psa03 value="0.0754489890" flag="0"/>
      <psa10 value="0.0134439240" flag="0"/>
      <psa30 value="0.0006185906" flag="0"/>
    </comp>
    <comp name="--.HHN">
      <acc value="0.0201220435" flag="0"/>
      <vel value="0.0105956094" flag="0"/>
      <psa03 value="0.0472639444" flag="0"/>
      <psa10 value="0.0072802534" flag="0"/>
      <psa30 value="0.0005690411" flag="0"/>
    </comp>
    <comp name="--.HHZ">
      <acc value="0.0159012487" flag="0"/>
      <vel value="0.0066929247" flag="0"/>
      <psa03 value="0.0598490640" flag="0"/>
      <psa10 value="0.0053106077" flag="0"/>
      <psa30 value="0.0002936906" flag="0"/>
    </comp>
  </station>
  <station code="KSTE" name="KSTE" netid="HL" insttype="60" lat="35.1801" lon="25.3372">
    <comp name="--.HHE">
      <acc value="2.7667139471" flag="0"/>
      <vel value="0.5862125948" flag="0"/>
      <psa03 value="1.5554380701" flag="0"/>
      <psa10 value="0.2364656459" flag="0"/>
      <psa30 value="0.0218624716" flag="0"/>
    </comp>
    <comp name="--.HHZ">
      <acc value="3.0020619076" flag="0"/>
      <vel value="0.8679339848" flag="0"/>
      <psa03 value="3.1918404331" flag="0"/>
      <psa10 value="0.2001237880" flag="0"/>
      <psa30 value="0.0235661432" flag="0"/>
    </comp>
    <comp name="--.HHN">
      <acc value="3.1613788727" flag="0"/>
      <vel value="0.8686152104" flag="0"/>
      <psa03 value="3.3798248137" flag="0"/>
      <psa10 value="0.3844984889" flag="0"/>
      <psa30 value="0.0268666171" flag="0"/>
    </comp>
  </station>
  <station code="NPS" name="NPS" netid="HL" insttype="CMG3ESPC-120s" lat="35.2613" lon="25.6104">
    <comp name="--.HHN">
      <acc value="0.1387507121" flag="0"/>
      <vel value="0.0413883512" flag="0"/>
      <psa03 value="0.1868273213" flag="0"/>
      <psa10 value="0.0171657497" flag="0"/>
      <psa30 value="0.0013970682" flag="0"/>
    </comp>
    <comp name="--.HHE">
      <acc value="0.0774283726" flag="0"/>
      <vel value="0.0195467758" flag="0"/>
      <psa03 value="0.0827924517" flag="0"/>
      <psa10 value="0.0088992207" flag="0"/>
      <psa30 value="0.0011220550" flag="0"/>
    </comp>
    <comp name="--.HHZ">
      <acc value="0.0911722478" flag="0"/>
      <vel value="0.0289131896" flag="0"/>
      <psa03 value="0.1789739770" flag="0"/>
      <psa10 value="0.0289941438" flag="0"/>
      <psa30 value="0.0022957308" flag="0"/>
    </comp>
  </station>
  <station code="SIVA" name="SIVA" netid="HL" insttype="60" lat="35.0178" lon="24.812">
    <comp name="--.HHZ">
      <acc value="0.0382622256" flag="0"/>
      <vel value="0.0154798208" flag="0"/>
      <psa03 value="0.0741117098" flag="0"/>
      <psa10 value="0.0103466401" flag="0"/>
      <psa30 value="0.0014993614" flag="0"/>
    </comp>
    <comp name="--.HHN">
      <acc value="0.0628227724" flag="0"/>
      <vel value="0.0193907404" flag="0"/>
      <psa03 value="0.0869808632" flag="0"/>
      <psa10 value="0.0155265395" flag="0"/>
      <psa30 value="0.0011996106" flag="0"/>
    </comp>
    <comp name="--.HHE">
      <acc value="0.0918564652" flag="0"/>
      <vel value="0.0410491905" flag="0"/>
      <psa03 value="0.2120864828" flag="0"/>
      <psa10 value="0.0225684268" flag="0"/>
      <psa30 value="0.0016176978" flag="0"/>
    </comp>
  </station>
  <station code="VAM" name="VAM" netid="HL" insttype="CMG3ESPC-120s" lat="35.407" lon="24.1997">
    <comp name="--.HHE">
      <acc value="0.0299600090" flag="0"/>
      <vel value="0.0132562993" flag="0"/>
      <psa03 value="0.0808918543" flag="0"/>
      <psa10 value="0.0099633909" flag="0"/>
      <psa30 value="0.0005010264" flag="0"/>
    </comp>
    <comp name="--.HHZ">
      <acc value="0.0217375949" flag="0"/>
      <vel value="0.0081684856" flag="0"/>
      <psa03 value="0.0542806545" flag="0"/>
      <psa10 value="0.0046084515" flag="0"/>
      <psa30 value="0.0003320481" flag="0"/>
    </comp>
    <comp name="--.HHN">
      <acc value="0.0505363454" flag="0"/>
      <vel value="0.0188763106" flag="0"/>
      <psa03 value="0.1033623826" flag="0"/>
      <psa10 value="0.0109619902" flag="0"/>
      <psa30 value="0.0005478277" flag="0"/>
    </comp>
  </station>
  <station code="ZKR" name="ZKR" netid="HL" insttype="120" lat="35.1147" lon="26.2169">
    <comp name="--.HHZ">
      <acc value="0.0144051213" flag="0"/>
      <vel value="0.0065196017" flag="0"/>
      <psa03 value="0.0290364541" flag="0"/>
      <psa10 value="0.0088425122" flag="0"/>
      <psa30 value="0.0005879385" flag="0"/>
    </comp>
    <comp name="--.HHE">
      <acc value="0.0301842685" flag="0"/>
      <vel value="0.0187131769" flag="0"/>
      <psa03 value="0.0599773753" flag="0"/>
      <psa10 value="0.0124111019" flag="0"/>
      <psa30 value="0.0007950271" flag="0"/>
    </comp>
    <comp name="--.HHN">
      <acc value="0.0090157149" flag="0"/>
      <vel value="0.0059274555" flag="0"/>
      <psa03 value="0.0280783303" flag="0"/>
      <psa10 value="0.0043290532" flag="0"/>
      <psa30 value="0.0004537220" flag="0"/>
    </comp>
  </station>
  <station code="IDI" name="IDI" netid="MN" insttype="" lat="35.288" lon="24.89">
    <comp name="--.HHE">
      <acc value="0.0603311202" flag="0"/>
      <vel value="0.0154761248" flag="0"/>
      <psa03 value="0.0739230802" flag="0"/>
      <psa10 value="0.0070257807" flag="0"/>
      <psa30 value="0.0010728193" flag="0"/>
    </comp>
    <comp name="--.HHN">
      <acc value="0.0744498374" flag="0"/>
      <vel value="0.0174091177" flag="0"/>
      <psa03 value="0.1213810816" flag="0"/>
      <psa10 value="0.0067747531" flag="0"/>
      <psa30 value="0.0009833806" flag="0"/>
    </comp>
    <comp name="--.HHZ">
      <acc value="0.0567286187" flag="0"/>
      <vel value="0.0127228942" flag="0"/>
      <psa03 value="0.0650797342" flag="0"/>
      <psa10 value="0.0053107576" flag="0"/>
      <psa30 value="0.0015518848" flag="0"/>
    </comp>
  </station>
</stationlist>
