<?xml version="1.0" encoding="UTF-8" standalone="yes"?>
<!DOCTYPE earthquake SYSTEM "stationlist.dtd">
<stationlist created="" xmlns="ch.ethz.sed.shakemap.usgs.xml">
  <station code="IMMV" name="IMMV" netid="GE" insttype="STS-2/N" lat="35.4606" lon="23.9811">
    <comp name="--.HHN">
      <acc value="0.0207218769" flag="0"/>
      <vel value="0.0108475858" flag="0"/>
      <psa03 value="0.0485595146" flag="0"/>
      <psa10 value="0.0073389966" flag="0"/>
      <psa30 value="0.0005691464" flag="0"/>
    </comp>
    <comp name="--.HHZ">
      <acc value="0.0162798381" flag="0"/>
      <vel value="0.0069119325" flag="0"/>
      <psa03 value="0.0616375116" flag="0"/>
      <psa10 value="0.0053869639" flag="0"/>
      <psa30 value="0.0002952341" flag="0"/>
    </comp>
    <comp name="--.HHE">
      <acc value="0.0228170978" flag="0"/>
      <vel value="0.0101866261" flag="0"/>
      <psa03 value="0.0776770524" flag="0"/>
      <psa10 value="0.0135260647" flag="0"/>
      <psa30 value="0.0006261854" flag="0"/>
    </comp>
  </station>
  <station code="ZKR" name="ZKR" netid="GE" insttype="STS-2/N" lat="35.1147" lon="26.2169">
    <comp name="--.HHE">
      <acc value="0.0308897382" flag="0"/>
      <vel value="0.0190214778" flag="0"/>
      <psa03 value="0.0618683406" flag="0"/>
      <psa10 value="0.0125067382" flag="0"/>
      <psa30 value="0.0008084265" flag="0"/>
    </comp>
    <comp name="--.HHN">
      <acc value="0.0092565542" flag="0"/>
      <vel value="0.0060302271" flag="0"/>
      <psa03 value="0.0288954928" flag="0"/>
      <psa10 value="0.0043749991" flag="0"/>
      <psa30 value="0.0004546382" flag="0"/>
    </comp>
    <comp name="--.HHZ">
      <acc value="0.0147602573" flag="0"/>
      <vel value="0.0066343173" flag="0"/>
      <psa03 value="0.0299206124" flag="0"/>
      <psa10 value="0.0088975596" flag="0"/>
      <psa30 value="0.0005891027" flag="0"/>
    </comp>
  </station>
  <station code="IDI" name="IDI" netid="MN" insttype="" lat="35.288" lon="24.89">
    <comp name="--.HHE">
      <acc value="0.0603311202" flag="0"/>
      <vel value="0.0154761251" flag="0"/>
      <psa03 value="0.0739230802" flag="0"/>
      <psa10 value="0.0070257800" flag="0"/>
      <psa30 value="0.0010727923" flag="0"/>
    </comp>
    <comp name="--.HHN">
      <acc value="0.0744498374" flag="0"/>
      <vel value="0.0174091181" flag="0"/>
      <psa03 value="0.1213810816" flag="0"/>
      <psa10 value="0.0067747533" flag="0"/>
      <psa30 value="0.0009833987" flag="0"/>
    </comp>
    <comp name="--.HHZ">
      <acc value="0.0567286187" flag="0"/>
      <vel value="0.0127228949" flag="0"/>
      <psa03 value="0.0650797342" flag="0"/>
      <psa10 value="0.0053107581" flag="0"/>
      <psa30 value="0.0015519472" flag="0"/>
    </comp>
  </station>
</stationlist>
