<?xml version="1.0" encoding="UTF-8" standalone="yes"?>
<!DOCTYPE earthquake SYSTEM "stationlist.dtd">
<stationlist created="" xmlns="ch.ethz.sed.shakemap.usgs.xml">
  <station code="ZKR" name="ZKR" netid="GE" insttype="STS-2/N" lat="35.1147" lon="26.2169">
    <comp name="--.HHZ">
      <acc value="0.0147602572" flag="0"/>
      <vel value="0.0066343165" flag="0"/>
      <psa03 value="0.0299206124" flag="0"/>
      <psa10 value="0.0088975595" flag="0"/>
      <psa30 value="0.0005890566" flag="0"/>
    </comp>
    <comp name="--.HHE">
      <acc value="0.0308897381" flag="0"/>
      <vel value="0.0190214773" flag="0"/>
      <psa03 value="0.0618683406" flag="0"/>
      <psa10 value="0.0125067382" flag="0"/>
      <psa30 value="0.0008086107" flag="0"/>
    </comp>
    <comp name="--.HHN">
      <acc value="0.0092565545" flag="0"/>
      <vel value="0.0060302280" flag="0"/>
      <psa03 value="0.0288954928" flag="0"/>
      <psa10 value="0.0043749992" flag="0"/>
      <psa30 value="0.0004546529" flag="0"/>
    </comp>
  </station>
  <station code="IMOD" name="IMOD" netid="HC" insttype="120" lat="34.9731" lon="24.7995">
    <comp name="--.HHE">
      <acc value="0.0284190785" flag="0"/>
      <vel value="0.0231925824" flag="0"/>
      <psa03 value="0.1135473931" flag="0"/>
      <psa10 value="0.0168673543" flag="0"/>
      <psa30 value="0.0011288945" flag="0"/>
    </comp>
    <comp name="--.HHN">
      <acc value="0.0387790011" flag="0"/>
      <vel value="0.0193309352" flag="0"/>
      <psa03 value="0.0767862819" flag="0"/>
      <psa10 value="0.0224032980" flag="0"/>
      <psa30 value="0.0016792145" flag="0"/>
    </comp>
    <comp name="--.HHZ">
      <acc value="0.0243093801" flag="0"/>
      <vel value="0.0096481909" flag="0"/>
      <psa03 value="0.0439971284" flag="0"/>
      <psa10 value="0.0117361895" flag="0"/>
      <psa30 value="0.0009910533" flag="0"/>
    </comp>
  </station>
  <station code="IPPL" name="IPPL" netid="HC" insttype="60" lat="35.3486" lon="24.4632">
    <comp name="--.HHN">
      <acc value="0.0387340038" flag="0"/>
      <vel value="0.0196623196" flag="0"/>
      <psa03 value="0.0876786793" flag="0"/>
      <psa10 value="0.0136316497" flag="0"/>
      <psa30 value="0.0009446231" flag="0"/>
    </comp>
    <comp name="--.HHZ">
      <acc value="0.0345948450" flag="0"/>
      <vel value="0.0115097659" flag="0"/>
      <psa03 value="0.0747777135" flag="0"/>
      <psa10 value="0.0061142159" flag="0"/>
      <psa30 value="0.0004207961" flag="0"/>
    </comp>
    <comp name="--.HHE">
      <acc value="0.0302751734" flag="0"/>
      <vel value="0.0155587907" flag="0"/>
      <psa03 value="0.0675740157" flag="0"/>
      <psa10 value="0.0119433674" flag="0"/>
      <psa30 value="0.0008238703" flag="0"/>
    </comp>
  </station>
  <station code="KNSS" name="KNSS" netid="HC" insttype="60" lat="35.3042" lon="25.1802">
    <comp name="--.HHZ">
      <acc value="0.3558418878" flag="0"/>
      <vel value="0.1153005257" flag="0"/>
      <psa03 value="0.5879804576" flag="0"/>
      <psa10 value="0.0664310107" flag="0"/>
      <psa30 value="0.0060371023" flag="0"/>
    </comp>
    <comp name="--.HHE">
      <acc value="0.4321185849" flag="0"/>
      <vel value="0.1835696751" flag="0"/>
      <psa03 value="0.8772726595" flag="0"/>
      <psa10 value="0.0527942742" flag="0"/>
      <psa30 value="0.0073570753" flag="0"/>
    </comp>
    <comp name="--.HHN">
      <acc value="0.4054086100" flag="0"/>
      <vel value="0.1639329915" flag="0"/>
      <psa03 value="1.0832984834" flag="0"/>
      <psa10 value="0.0694621602" flag="0"/>
      <psa30 value="0.0056243873" flag="0"/>
    </comp>
  </station>
  <station code="PFKS" name="PFKS" netid="HC" insttype="120" lat="35.0429" lon="25.4733">
    <comp name="--.HHE">
      <acc value="0.4760344568" flag="0"/>
      <vel value="0.1443734620" flag="0"/>
      <psa03 value="0.7714968576" flag="0"/>
      <psa10 value="0.0544371160" flag="0"/>
      <psa30 value="0.0040993196" flag="0"/>
    </comp>
    <comp name="--.HHZ">
      <acc value="0.3794393998" flag="0"/>
      <vel value="0.1313839600" flag="0"/>
      <psa03 value="0.4721022862" flag="0"/>
      <psa10 value="0.0267168203" flag="0"/>
      <psa30 value="0.0032945907" flag="0"/>
    </comp>
    <comp name="--.HHN">
      <acc value="1.0191009220" flag="0"/>
      <vel value="0.2699270358" flag="0"/>
      <psa03 value="1.1893973494" flag="0"/>
      <psa10 value="0.0610975716" flag="0"/>
      <psa30 value="0.0062421978" flag="0"/>
    </comp>
  </station>
  <station code="STIA" name="STIA" netid="HC" insttype="120" lat="35.2021" lon="26.0909">
    <comp name="--.HHE">
      <acc value="0.0423167526" flag="0"/>
      <vel value="0.0245036385" flag="0"/>
      <psa03 value="0.1281418462" flag="0"/>
      <psa10 value="0.0229136949" flag="0"/>
      <psa30 value="0.0007984764" flag="0"/>
    </comp>
    <comp name="--.HHN">
      <acc value="0.0414887517" flag="0"/>
      <vel value="0.0195596033" flag="0"/>
      <psa03 value="0.0791986335" flag="0"/>
      <psa10 value="0.0246518751" flag="0"/>
      <psa30 value="0.0011599605" flag="0"/>
    </comp>
    <comp name="--.HHZ">
      <acc value="0.0350597445" flag="0"/>
      <vel value="0.0209880226" flag="0"/>
      <psa03 value="0.0842058435" flag="0"/>
      <psa10 value="0.0082389013" flag="0"/>
      <psa30 value="0.0007548080" flag="0"/>
    </comp>
  </station>
  <station code="CRE1" name="CRE1" netid="HL" insttype="LE3D20_SMART24" lat="35.2267" lon="25.2497">
    <comp name="--.HHE">
      <acc value="2.8682293733" flag="0"/>
      <vel value="1.1369956134" flag="0"/>
      <psa03 value="5.3571604194" flag="0"/>
      <psa10 value="0.2659470009" flag="0"/>
      <psa30 value="0.0444421417" flag="0"/>
    </comp>
    <comp name="--.HHN">
      <acc value="2.7547444726" flag="0"/>
      <vel value="1.3535707922" flag="0"/>
      <psa03 value="6.8068249313" flag="0"/>
      <psa10 value="0.4922880775" flag="0"/>
      <psa30 value="0.0418667488" flag="0"/>
    </comp>
    <comp name="--.HHZ">
      <acc value="2.8876136785" flag="0"/>
      <vel value="0.6335008233" flag="0"/>
      <psa03 value="1.9523115309" flag="0"/>
      <psa10 value="0.2218861252" flag="0"/>
      <psa30 value="0.0287479357" flag="0"/>
    </comp>
  </station>
  <station code="CRE3" name="CRE3" netid="HL" insttype="LE3D20_SMART24" lat="35.0769" lon="25.2462">
    <comp name="--.HHZ">
      <acc value="0.7036796216" flag="0"/>
      <vel value="0.2016374677" flag="0"/>
      <psa03 value="1.0307074318" flag="0"/>
      <psa10 value="0.2891014894" flag="0"/>
      <psa30 value="0.0205599209" flag="0"/>
    </comp>
    <comp name="--.HHE">
      <acc value="1.1898538071" flag="0"/>
      <vel value="0.5336715011" flag="0"/>
      <psa03 value="1.9200374119" flag="0"/>
      <psa10 value="0.4196159499" flag="0"/>
      <psa30 value="0.0300387765" flag="0"/>
    </comp>
    <comp name="--.HHN">
      <acc value="1.2717029742" flag="0"/>
      <vel value="0.4275931487" flag="0"/>
      <psa03 value="1.5694669657" flag="0"/>
      <psa10 value="0.7205604169" flag="0"/>
      <psa30 value="0.0353190565" flag="0"/>
    </comp>
  </station>
  <station code="IACM" name="IACM" netid="HL" insttype="120" lat="35.3058" lon="25.0709">
    <comp name="--.HHE">
      <acc value="1.2693481572" flag="0"/>
      <vel value="0.1142465117" flag="0"/>
      <psa03 value="0.3709298576" flag="0"/>
      <psa10 value="0.1100357854" flag="0"/>
      <psa30 value="0.0281327755" flag="0"/>
    </comp>
    <comp name="--.HHN">
      <acc value="2.2515134175" flag="0"/>
      <vel value="0.3264270577" flag="0"/>
      <psa03 value="0.8451930382" flag="0"/>
      <psa10 value="0.1899819412" flag="0"/>
      <psa30 value="0.0104703524" flag="0"/>
    </comp>
    <comp name="--.HHZ">
      <acc value="0.0011229486" flag="0"/>
      <vel value="-100.0000000000" flag="0"/>
      <psa03 value="0.0000003413" flag="0"/>
      <psa10 value="0.0000003352" flag="0"/>
      <psa30 value="0.0000001590" flag="0"/>
    </comp>
  </station>
  <station code="IDI" name="IDI" netid="HL" insttype="120" lat="35.288" lon="24.89">
    <comp name="--.HHZ">
      <acc value="0.0483462178" flag="0"/>
      <vel value="0.0126553847" flag="0"/>
      <psa03 value="0.0644815268" flag="0"/>
      <psa10 value="0.0053396596" flag="0"/>
      <psa30 value="0.0015691060" flag="0"/>
    </comp>
    <comp name="--.HHE">
      <acc value="0.0603167888" flag="0"/>
      <vel value="0.0152559751" flag="0"/>
      <psa03 value="0.0728367303" flag="0"/>
      <psa10 value="0.0070709195" flag="0"/>
      <psa30 value="0.0010818965" flag="0"/>
    </comp>
    <comp name="--.HHN">
      <acc value="0.0714034663" flag="0"/>
      <vel value="0.0170791612" flag="0"/>
      <psa03 value="0.1201032425" flag="0"/>
      <psa10 value="0.0068054383" flag="0"/>
      <psa30 value="0.0009931837" flag="0"/>
    </comp>
  </station>
  <station code="KSTE" name="KSTE" netid="HL" insttype="60" lat="35.1801" lon="25.3372">
    <comp name="--.HHE">
      <acc value="2.7667139471" flag="0"/>
      <vel value="0.5862126311" flag="0"/>
      <psa03 value="1.5554380701" flag="0"/>
      <psa10 value="0.2364656485" flag="0"/>
      <psa30 value="0.0218634783" flag="0"/>
    </comp>
    <comp name="--.HHN">
      <acc value="3.1613788726" flag="0"/>
      <vel value="0.8686151374" flag="0"/>
      <psa03 value="3.3798248138" flag="0"/>
      <psa10 value="0.3844984861" flag="0"/>
      <psa30 value="0.0268674775" flag="0"/>
    </comp>
    <comp name="--.HHZ">
      <acc value="3.0020619078" flag="0"/>
      <vel value="0.8679340851" flag="0"/>
      <psa03 value="3.1918404329" flag="0"/>
      <psa10 value="0.2001237892" flag="0"/>
      <psa30 value="0.0235680593" flag="0"/>
    </comp>
  </station>
  <station code="NPS" name="NPS" netid="HL" insttype="CMG3ESPC-120s" lat="35.2613" lon="25.6104">
    <comp name="--.HHE">
      <acc value="0.0774283726" flag="0"/>
      <vel value="0.0195467760" flag="0"/>
      <psa03 value="0.0827924517" flag="0"/>
      <psa10 value="0.0088992207" flag="0"/>
      <psa30 value="0.0011220785" flag="0"/>
    </comp>
    <comp name="--.HHN">
      <acc value="0.1387507119" flag="0"/>
      <vel value="0.0413883527" flag="0"/>
      <psa03 value="0.1868273213" flag="0"/>
      <psa10 value="0.0171657492" flag="0"/>
      <psa30 value="0.0013971002" flag="0"/>
    </comp>
    <comp name="--.HHZ">
      <acc value="0.0911722476" flag="0"/>
      <vel value="0.0289131906" flag="0"/>
      <psa03 value="0.1789739770" flag="0"/>
      <psa10 value="0.0289941454" flag="0"/>
      <psa30 value="0.0022957046" flag="0"/>
    </comp>
  </station>
  <station code="SIVA" name="SIVA" netid="HL" insttype="60" lat="35.0178" lon="24.812">
    <comp name="--.HHZ">
      <acc value="0.0382622256" flag="0"/>
      <vel value="0.0154798207" flag="0"/>
      <psa03 value="0.0741117098" flag="0"/>
      <psa10 value="0.0103466398" flag="0"/>
      <psa30 value="0.0014993751" flag="0"/>
    </comp>
    <comp name="--.HHN">
      <acc value="0.0628227725" flag="0"/>
      <vel value="0.0193907415" flag="0"/>
      <psa03 value="0.0869808632" flag="0"/>
      <psa10 value="0.0155265399" flag="0"/>
      <psa30 value="0.0011995985" flag="0"/>
    </comp>
    <comp name="--.HHE">
      <acc value="0.0918564652" flag="0"/>
      <vel value="0.0410491909" flag="0"/>
      <psa03 value="0.2120864828" flag="0"/>
      <psa10 value="0.0225684279" flag="0"/>
      <psa30 value="0.0016177644" flag="0"/>
    </comp>
  </station>
  <station code="VAM" name="VAM" netid="HL" insttype="CMG3ESPC-120s" lat="35.407" lon="24.1997">
    <comp name="--.HHZ">
      <acc value="0.0217375949" flag="0"/>
      <vel value="0.0081684859" flag="0"/>
      <psa03 value="0.0542806545" flag="0"/>
      <psa10 value="0.0046084515" flag="0"/>
      <psa30 value="0.0003320444" flag="0"/>
    </comp>
    <comp name="--.HHE">
      <acc value="0.0299600089" flag="0"/>
      <vel value="0.0132562987" flag="0"/>
      <psa03 value="0.0808918543" flag="0"/>
      <psa10 value="0.0099633908" flag="0"/>
      <psa30 value="0.0005010006" flag="0"/>
    </comp>
    <comp name="--.HHN">
      <acc value="0.0505363454" flag="0"/>
      <vel value="0.0188763103" flag="0"/>
      <psa03 value="0.1033623826" flag="0"/>
      <psa10 value="0.0109619902" flag="0"/>
      <psa30 value="0.0005478074" flag="0"/>
    </comp>
  </station>
  <station code="ZKR" name="ZKR" netid="HL" insttype="120" lat="35.1147" lon="26.2169">
    <comp name="--.HHN">
      <acc value="0.0090157151" flag="0"/>
      <vel value="0.0059274564" flag="0"/>
      <psa03 value="0.0280783303" flag="0"/>
      <psa10 value="0.0043290533" flag="0"/>
      <psa30 value="0.0004537329" flag="0"/>
    </comp>
    <comp name="--.HHE">
      <acc value="0.0301842684" flag="0"/>
      <vel value="0.0187131769" flag="0"/>
      <psa03 value="0.0599773753" flag="0"/>
      <psa10 value="0.0124111019" flag="0"/>
      <psa30 value="0.0007951564" flag="0"/>
    </comp>
    <comp name="--.HHZ">
      <acc value="0.0144051212" flag="0"/>
      <vel value="0.0065196005" flag="0"/>
      <psa03 value="0.0290364541" flag="0"/>
      <psa10 value="0.0088425121" flag="0"/>
      <psa30 value="0.0005879095" flag="0"/>
    </comp>
  </station>
  <station code="IDI" name="IDI" netid="MN" insttype="" lat="35.288" lon="24.89">
    <comp name="--.HHZ">
      <acc value="0.0567286187" flag="0"/>
      <vel value="0.0127228941" flag="0"/>
      <psa03 value="0.0650797342" flag="0"/>
      <psa10 value="0.0053107575" flag="0"/>
      <psa30 value="0.0015518791" flag="0"/>
    </comp>
    <comp name="--.HHN">
      <acc value="0.0744498374" flag="0"/>
      <vel value="0.0174091176" flag="0"/>
      <psa03 value="0.1213810816" flag="0"/>
      <psa10 value="0.0067747531" flag="0"/>
      <psa30 value="0.0009833764" flag="0"/>
    </comp>
    <comp name="--.HHE">
      <acc value="0.0603311202" flag="0"/>
      <vel value="0.0154761247" flag="0"/>
      <psa03 value="0.0739230802" flag="0"/>
      <psa10 value="0.0070257809" flag="0"/>
      <psa30 value="0.0010728231" flag="0"/>
    </comp>
  </station>
</stationlist>
