<?xml version="1.0" encoding="UTF-8" standalone="yes"?>
<!DOCTYPE earthquake SYSTEM "stationlist.dtd">
<stationlist created="" xmlns="ch.ethz.sed.shakemap.usgs.xml">
  <station code="CAYL" name="CAYL" netid="KO" insttype="CMG-6T" lat="40.3745" lon="36.159">
    <comp name="--.HHZ">
      <acc value="0.0430518409" flag="0"/>
      <vel value="0.0106081258" flag="0"/>
      <psa03 value="0.0796811871" flag="0"/>
      <psa10 value="0.0062423788" flag="0"/>
      <psa30 value="0.0003526459" flag="0"/>
    </comp>
    <comp name="--.HHE">
      <acc value="0.0517693178" flag="0"/>
      <vel value="0.0267298732" flag="0"/>
      <psa03 value="0.1509801252" flag="0"/>
      <psa10 value="0.0116395037" flag="0"/>
      <psa30 value="0.0008549250" flag="0"/>
    </comp>
    <comp name="--.HHN">
      <acc value="0.0642335698" flag="0"/>
      <vel value="0.0258917325" flag="0"/>
      <psa03 value="0.2581090882" flag="0"/>
      <psa10 value="0.0078513764" flag="0"/>
      <psa30 value="0.0006910634" flag="0"/>
    </comp>
  </station>
  <station code="KVT" name="KVT" netid="KO" insttype="CMG-3T" lat="41.0807" lon="36.0463">
    <comp name="--.HHN">
      <acc value="0.0048190786" flag="0"/>
      <vel value="0.0048477435" flag="0"/>
      <psa03 value="0.0158639288" flag="0"/>
      <psa10 value="0.0061311987" flag="0"/>
      <psa30 value="0.0002775926" flag="0"/>
    </comp>
    <comp name="--.HHE">
      <acc value="0.0047424510" flag="0"/>
      <vel value="0.0042871299" flag="0"/>
      <psa03 value="0.0139998013" flag="0"/>
      <psa10 value="0.0039174744" flag="0"/>
      <psa30 value="0.0003774380" flag="0"/>
    </comp>
    <comp name="--.HHZ">
      <acc value="0.0031678777" flag="0"/>
      <vel value="0.0023187842" flag="0"/>
      <psa03 value="0.0114093149" flag="0"/>
      <psa10 value="0.0027146755" flag="0"/>
      <psa30 value="0.0001539225" flag="0"/>
    </comp>
  </station>
  <station code="RSDY" name="RSDY" netid="KO" insttype="CMG-3T" lat="40.3971" lon="37.3273">
    <comp name="--.HHE">
      <acc value="0.0102882207" flag="0"/>
      <vel value="0.0079403869" flag="0"/>
      <psa03 value="0.0356022582" flag="0"/>
      <psa10 value="0.0109335596" flag="0"/>
      <psa30 value="0.0004579692" flag="0"/>
    </comp>
    <comp name="--.HHN">
      <acc value="0.0072497821" flag="0"/>
      <vel value="0.0047822576" flag="0"/>
      <psa03 value="0.0280486611" flag="0"/>
      <psa10 value="0.0057836313" flag="0"/>
      <psa30 value="0.0003733374" flag="0"/>
    </comp>
    <comp name="--.HHZ">
      <acc value="0.0072383542" flag="0"/>
      <vel value="0.0037647436" flag="0"/>
      <psa03 value="0.0248764525" flag="0"/>
      <psa10 value="0.0037429924" flag="0"/>
      <psa30 value="0.0002375755" flag="0"/>
    </comp>
  </station>
  <station code="TOKT" name="TOKT" netid="KO" insttype="CMG-3T" lat="40.3173" lon="36.5443">
    <comp name="--.HHZ">
      <acc value="0.0000545124" flag="0"/>
      <vel value="0.0000061634" flag="0"/>
      <psa03 value="0.0000193024" flag="0"/>
      <psa10 value="0.0000052020" flag="0"/>
      <psa30 value="0.0000017296" flag="0"/>
    </comp>
    <comp name="--.HHE">
      <acc value="0.0116296569" flag="0"/>
      <vel value="0.0045853059" flag="0"/>
      <psa03 value="0.0207045890" flag="0"/>
      <psa10 value="0.0052429558" flag="0"/>
      <psa30 value="0.0003389514" flag="0"/>
    </comp>
    <comp name="--.HHN">
      <acc value="0.0143421228" flag="0"/>
      <vel value="0.0058540043" flag="0"/>
      <psa03 value="0.0235481611" flag="0"/>
      <psa10 value="0.0072428950" flag="0"/>
      <psa30 value="0.0004795766" flag="0"/>
    </comp>
  </station>
  <station code="YOZ" name="YOZ" netid="KO" insttype="CMG-3T" lat="39.6376" lon="35.3152">
    <comp name="--.HHE">
      <acc value="0.0896558066" flag="0"/>
      <vel value="0.0274760243" flag="0"/>
      <psa03 value="0.1636917048" flag="0"/>
      <psa10 value="0.0128764160" flag="0"/>
      <psa30 value="0.0007415467" flag="0"/>
    </comp>
    <comp name="--.HHN">
      <acc value="0.1082452651" flag="0"/>
      <vel value="0.0254286016" flag="0"/>
      <psa03 value="0.1358999428" flag="0"/>
      <psa10 value="0.0116099367" flag="0"/>
      <psa30 value="0.0005594396" flag="0"/>
    </comp>
  </station>
</stationlist>
