<?xml version="1.0" encoding="UTF-8" standalone="yes"?>
<!DOCTYPE earthquake SYSTEM "stationlist.dtd">
<stationlist created="" xmlns="ch.ethz.sed.shakemap.usgs.xml">
  <station code="AGRP" name="AGRP" netid="CL" source="RESIF" insttype="30" lat="38.3959" lon="21.7228">
    <comp name="00.HHE">
      <acc value="0.3075890384" flag="0"/>
      <vel value="0.0979402872" flag="0"/>
      <psa03 value="0.5321999910" flag="0"/>
      <psa10 value="0.0730689862" flag="0"/>
      <psa30 value="0.0126272008" flag="0"/>
    </comp>
    <comp name="00.HHN">
      <acc value="0.4146061144" flag="0"/>
      <vel value="0.1824528448" flag="0"/>
      <psa03 value="0.7820716975" flag="0"/>
      <psa10 value="0.0823336325" flag="0"/>
      <psa30 value="0.0097364332" flag="0"/>
    </comp>
    <comp name="00.HHZ">
      <acc value="0.1461746063" flag="0"/>
      <vel value="0.0696917821" flag="0"/>
      <psa03 value="0.3179416392" flag="0"/>
      <psa10 value="0.0497198504" flag="0"/>
      <psa30 value="0.0068417830" flag="0"/>
    </comp>
  </station>
  <station code="MG00" name="MG00" netid="CL" source="RESIF" insttype="40" lat="38.4145" lon="21.9467">
    <comp name="00.HHE">
      <acc value="2.7406158296" flag="0"/>
      <vel value="0.5867876229" flag="0"/>
      <psa03 value="3.5223459779" flag="0"/>
      <psa10 value="0.6405847766" flag="0"/>
      <psa30 value="0.0796481680" flag="0"/>
    </comp>
    <comp name="00.HHN">
      <acc value="3.2145111244" flag="0"/>
      <vel value="0.6361949847" flag="0"/>
      <psa03 value="3.2034935701" flag="0"/>
      <psa10 value="0.4042455268" flag="0"/>
      <psa30 value="0.0281464688" flag="0"/>
    </comp>
    <comp name="00.HHZ">
      <acc value="2.5577214999" flag="0"/>
      <vel value="0.5824235971" flag="0"/>
      <psa03 value="1.9139522634" flag="0"/>
      <psa10 value="0.3823519728" flag="0"/>
      <psa30 value="0.0842666708" flag="0"/>
    </comp>
  </station>
  <station code="MG02" name="MG02" netid="CL" source="RESIF" insttype="40" lat="38.415" lon="21.947">
    <comp name="02.HHE">
      <acc value="3.0808604980" flag="0"/>
      <vel value="0.6423274538" flag="0"/>
      <psa03 value="3.7351877028" flag="0"/>
      <psa10 value="0.5149717027" flag="0"/>
      <psa30 value="0.0841992717" flag="0"/>
    </comp>
    <comp name="02.HHN">
      <acc value="3.3541103997" flag="0"/>
      <vel value="0.6356226256" flag="0"/>
      <psa03 value="3.7931305818" flag="0"/>
      <psa10 value="0.2856582294" flag="0"/>
      <psa30 value="0.0387113882" flag="0"/>
    </comp>
    <comp name="02.HHZ">
      <acc value="1.7291010648" flag="0"/>
      <vel value="0.6268938417" flag="0"/>
      <psa03 value="1.9806537962" flag="0"/>
      <psa10 value="0.4587979271" flag="0"/>
      <psa30 value="0.0715886589" flag="0"/>
    </comp>
  </station>
  <station code="MG03" name="MG03" netid="CL" source="RESIF" insttype="40" lat="38.4141" lon="21.946">
    <comp name="03.HHE">
      <acc value="3.1681218706" flag="0"/>
      <vel value="0.5513391136" flag="0"/>
      <psa03 value="2.3662300072" flag="0"/>
      <psa10 value="0.3225601307" flag="0"/>
      <psa30 value="0.0284648957" flag="0"/>
    </comp>
    <comp name="03.HHZ">
      <acc value="1.4883788589" flag="0"/>
      <vel value="0.3830753923" flag="0"/>
      <psa03 value="1.4629994362" flag="0"/>
      <psa10 value="0.1722744180" flag="0"/>
      <psa30 value="0.0145319296" flag="0"/>
    </comp>
    <comp name="03.HHN">
      <acc value="1.2682419084" flag="0"/>
      <vel value="0.2755491099" flag="0"/>
      <psa03 value="1.8304445564" flag="0"/>
      <psa10 value="0.1135851707" flag="0"/>
      <psa30 value="0.0110648616" flag="0"/>
    </comp>
  </station>
  <station code="MG04" name="MG04" netid="CL" source="RESIF" insttype="40" lat="38.4142" lon="21.9481">
    <comp name="04.HHN">
      <acc value="4.0133237811" flag="0"/>
      <vel value="0.7536535697" flag="0"/>
      <psa03 value="4.1110293508" flag="0"/>
      <psa10 value="0.3853556879" flag="0"/>
      <psa30 value="0.0583291416" flag="0"/>
    </comp>
    <comp name="04.HHE">
      <acc value="2.6528927363" flag="0"/>
      <vel value="0.8299793792" flag="0"/>
      <psa03 value="2.4261220564" flag="0"/>
      <psa10 value="0.4637820193" flag="0"/>
      <psa30 value="0.0817941978" flag="0"/>
    </comp>
    <comp name="04.HHZ">
      <acc value="2.4114056881" flag="0"/>
      <vel value="0.5127363339" flag="0"/>
      <psa03 value="1.8872980208" flag="0"/>
      <psa10 value="0.2434332563" flag="0"/>
      <psa30 value="0.0518261485" flag="0"/>
    </comp>
  </station>
  <station code="MG05" name="MG05" netid="CL" source="RESIF" insttype="30" lat="38.4155" lon="21.9458">
    <comp name="05.HHE">
      <acc value="3.8201397878" flag="0"/>
      <vel value="1.2226980919" flag="0"/>
      <psa03 value="7.5705770826" flag="0"/>
      <psa10 value="1.0492022376" flag="0"/>
      <psa30 value="0.2160195198" flag="0"/>
    </comp>
    <comp name="05.HHN">
      <acc value="3.9346264074" flag="0"/>
      <vel value="1.1111878910" flag="0"/>
      <psa03 value="6.2569702073" flag="0"/>
      <psa10 value="1.0190160601" flag="0"/>
      <psa30 value="0.1058252661" flag="0"/>
    </comp>
    <comp name="05.HHZ">
      <acc value="2.9839130596" flag="0"/>
      <vel value="1.3766662651" flag="0"/>
      <psa03 value="2.9613020730" flag="0"/>
      <psa10 value="0.8009130622" flag="0"/>
      <psa30 value="0.2307303016" flag="0"/>
    </comp>
  </station>
  <station code="MG06" name="MG06" netid="CL" source="RESIF" insttype="40" lat="38.4129" lon="21.9462">
    <comp name="06.HHE">
      <acc value="2.4099888929" flag="0"/>
      <vel value="0.4329089729" flag="0"/>
      <psa03 value="1.7878610716" flag="0"/>
      <psa10 value="0.2211481642" flag="0"/>
      <psa30 value="0.0235289037" flag="0"/>
    </comp>
    <comp name="06.HHZ">
      <acc value="2.1897834898" flag="0"/>
      <vel value="0.4156779940" flag="0"/>
      <psa03 value="1.2192007023" flag="0"/>
      <psa10 value="0.1908947804" flag="0"/>
      <psa30 value="0.0324770131" flag="0"/>
    </comp>
    <comp name="06.HHN">
      <acc value="2.9848766356" flag="0"/>
      <vel value="0.5855672575" flag="0"/>
      <psa03 value="1.3307951041" flag="0"/>
      <psa10 value="0.3790853899" flag="0"/>
      <psa30 value="0.0413787940" flag="0"/>
    </comp>
  </station>
  <station code="MG07" name="MG07" netid="CL" source="RESIF" insttype="40" lat="38.4155" lon="21.9488">
    <comp name="07.HHE">
      <acc value="4.0131749621" flag="0"/>
      <vel value="0.5028806340" flag="0"/>
      <psa03 value="2.3234300351" flag="0"/>
      <psa10 value="0.4937894614" flag="0"/>
      <psa30 value="0.0515950957" flag="0"/>
    </comp>
    <comp name="07.HHN">
      <acc value="3.5463265618" flag="0"/>
      <vel value="0.6049059877" flag="0"/>
      <psa03 value="3.0162150466" flag="0"/>
      <psa10 value="0.4091097824" flag="0"/>
      <psa30 value="0.0391569326" flag="0"/>
    </comp>
    <comp name="07.HHZ">
      <acc value="2.0210323166" flag="0"/>
      <vel value="0.5756283495" flag="0"/>
      <psa03 value="1.3025387748" flag="0"/>
      <psa10 value="0.3819403645" flag="0"/>
      <psa30 value="0.0726863856" flag="0"/>
    </comp>
  </station>
  <station code="PSAM" name="PSAM" netid="CL" source="RESIF" insttype="30" lat="38.3322" lon="22.1843">
    <comp name="00.HHE">
      <acc value="0.1146730470" flag="0"/>
      <vel value="0.0394202235" flag="0"/>
      <psa03 value="0.1814958282" flag="0"/>
      <psa10 value="0.0427734853" flag="0"/>
      <psa30 value="0.0037255022" flag="0"/>
    </comp>
    <comp name="00.HHN">
      <acc value="0.1137210311" flag="0"/>
      <vel value="0.0275214593" flag="0"/>
      <psa03 value="0.1219975686" flag="0"/>
      <psa10 value="0.0518886652" flag="0"/>
      <psa30 value="0.0051510645" flag="0"/>
    </comp>
    <comp name="00.HHZ">
      <acc value="0.0629682436" flag="0"/>
      <vel value="0.0195170923" flag="0"/>
      <psa03 value="0.0726123080" flag="0"/>
      <psa10 value="0.0315118046" flag="0"/>
      <psa30 value="0.0020548680" flag="0"/>
    </comp>
  </station>
  <station code="TRIZ" name="TRIZ" netid="CL" source="RESIF" insttype="generation" lat="38.3654" lon="22.0727">
    <comp name="00.HHZ">
      <acc value="0.2206442186" flag="0"/>
      <vel value="0.0474976702" flag="0"/>
      <psa03 value="0.3329731495" flag="0"/>
      <psa10 value="0.0343179774" flag="0"/>
      <psa30 value="0.0038844156" flag="0"/>
    </comp>
    <comp name="00.HH3">
      <acc value="22.8380805006" flag="0"/>
      <vel value="0.9728278052" flag="0"/>
      <psa03 value="4.9870021105" flag="0"/>
      <psa10 value="0.6940936727" flag="0"/>
      <psa30 value="0.1060295486" flag="0"/>
    </comp>
    <comp name="00.HH2">
      <acc value="0.3826597610" flag="0"/>
      <vel value="0.1490844462" flag="0"/>
      <psa03 value="0.9738672078" flag="0"/>
      <psa10 value="0.0538756497" flag="0"/>
      <psa30 value="0.0069761232" flag="0"/>
    </comp>
  </station>
  <station code="ATAL" name="ATAL" netid="HA" source="NOA" insttype="120" lat="38.6926" lon="23.0213">
    <comp name="--.HHE">
      <acc value="0.0061486811" flag="0"/>
      <vel value="0.0037866287" flag="0"/>
      <psa03 value="0.0170446801" flag="0"/>
      <psa10 value="0.0042413996" flag="0"/>
      <psa30 value="0.0030101304" flag="0"/>
    </comp>
    <comp name="--.HHN">
      <acc value="0.0060802407" flag="0"/>
      <vel value="0.0046138731" flag="0"/>
      <psa03 value="0.0240613240" flag="0"/>
      <psa10 value="0.0091702993" flag="0"/>
      <psa30 value="0.0013943190" flag="0"/>
    </comp>
    <comp name="--.HHZ">
      <acc value="0.0050165980" flag="0"/>
      <vel value="0.0042459849" flag="0"/>
      <psa03 value="0.0116371590" flag="0"/>
      <psa10 value="0.0046794970" flag="0"/>
      <psa30 value="0.0020553549" flag="0"/>
    </comp>
  </station>
  <station code="AXAR" name="AXAR" netid="HA" source="NOA" insttype="30" lat="38.7664" lon="22.659">
    <comp name="--.HHE">
      <acc value="0.0433796129" flag="0"/>
      <vel value="0.0268399761" flag="0"/>
      <psa03 value="0.1340636252" flag="0"/>
      <psa10 value="0.0251038942" flag="0"/>
      <psa30 value="0.0044686606" flag="0"/>
    </comp>
    <comp name="--.HHN">
      <acc value="0.0544996744" flag="0"/>
      <vel value="0.0341806308" flag="0"/>
      <psa03 value="0.2367855691" flag="0"/>
      <psa10 value="0.0316788357" flag="0"/>
      <psa30 value="0.0052571927" flag="0"/>
    </comp>
    <comp name="--.HHZ">
      <acc value="0.0243098196" flag="0"/>
      <vel value="0.0159650867" flag="0"/>
      <psa03 value="0.0618822274" flag="0"/>
      <psa10 value="0.0143092467" flag="0"/>
      <psa30 value="0.0027197788" flag="0"/>
    </comp>
  </station>
  <station code="KALE" name="KALE" netid="HA" source="NOA" insttype="40," lat="38.3911" lon="22.1398">
    <comp name="--.HHE">
      <acc value="0.2091612121" flag="0"/>
      <vel value="0.0757480390" flag="0"/>
      <psa03 value="0.2852177207" flag="0"/>
      <psa10 value="0.0313655706" flag="0"/>
      <psa30 value="0.0045855708" flag="0"/>
    </comp>
    <comp name="--.HHN">
      <acc value="0.1864013860" flag="0"/>
      <vel value="0.0554353204" flag="0"/>
      <psa03 value="0.3173389476" flag="0"/>
      <psa10 value="0.0370245803" flag="0"/>
      <psa30 value="0.0048980057" flag="0"/>
    </comp>
    <comp name="--.HHZ">
      <acc value="0.1203705510" flag="0"/>
      <vel value="0.0476008246" flag="0"/>
      <psa03 value="0.2124141565" flag="0"/>
      <psa10 value="0.0340755022" flag="0"/>
      <psa30 value="0.0078796873" flag="0"/>
    </comp>
  </station>
  <station code="LOUT" name="LOUT" netid="HA" source="NOA" insttype="30" lat="37.9879" lon="22.9743">
    <comp name="--.HHE">
      <acc value="0.0158137283" flag="0"/>
      <vel value="0.0087866966" flag="0"/>
      <psa03 value="0.0356329517" flag="0"/>
      <psa10 value="0.0131941939" flag="0"/>
      <psa30 value="0.0014518330" flag="0"/>
    </comp>
    <comp name="--.HHN">
      <acc value="0.0181944065" flag="0"/>
      <vel value="0.0100502299" flag="0"/>
      <psa03 value="0.0348527299" flag="0"/>
      <psa10 value="0.0099770121" flag="0"/>
      <psa30 value="0.0007350712" flag="0"/>
    </comp>
    <comp name="--.HHZ">
      <acc value="0.0088360249" flag="0"/>
      <vel value="0.0054290682" flag="0"/>
      <psa03 value="0.0257850253" flag="0"/>
      <psa10 value="0.0044904093" flag="0"/>
      <psa30 value="0.0011717430" flag="0"/>
    </comp>
  </station>
  <station code="MAKR" name="MAKR" netid="HA" source="NOA" insttype="30" lat="39.0132" lon="22.1317">
    <comp name="--.HHE">
      <acc value="0.0713426073" flag="0"/>
      <vel value="0.0312537800" flag="0"/>
      <psa03 value="0.2194249860" flag="0"/>
      <psa10 value="0.0259785762" flag="0"/>
      <psa30 value="0.0024495788" flag="0"/>
    </comp>
    <comp name="--.HHN">
      <acc value="0.0506999255" flag="0"/>
      <vel value="0.0308920830" flag="0"/>
      <psa03 value="0.0975650298" flag="0"/>
      <psa10 value="0.0292913939" flag="0"/>
      <psa30 value="0.0043303104" flag="0"/>
    </comp>
    <comp name="--.HHZ">
      <acc value="0.0233223362" flag="0"/>
      <vel value="0.0142441070" flag="0"/>
      <psa03 value="0.0428402913" flag="0"/>
      <psa10 value="0.0135306490" flag="0"/>
      <psa30 value="0.0030722162" flag="0"/>
    </comp>
  </station>
  <station code="KLV1" name="KLV1" netid="HI" source="NOA" insttype="CMG-5TD,ACCELEROMETER,GURALP" lat="38.0326" lon="22.108">
    <comp name="--.HNE">
      <acc value="0.1164354152" flag="0"/>
      <vel value="0.0484777011" flag="0"/>
      <psa03 value="0.2200584867" flag="0"/>
      <psa10 value="0.0533254498" flag="0"/>
      <psa30 value="0.0038796549" flag="0"/>
    </comp>
    <comp name="--.HNN">
      <acc value="0.1545317822" flag="0"/>
      <vel value="0.0557129849" flag="0"/>
      <psa03 value="0.3574827681" flag="0"/>
      <psa10 value="0.0369690317" flag="0"/>
      <psa30 value="0.0027740753" flag="0"/>
    </comp>
    <comp name="--.HNZ">
      <acc value="0.0748072158" flag="0"/>
      <vel value="0.0199015809" flag="0"/>
      <psa03 value="0.1310388814" flag="0"/>
      <psa10 value="0.0208132104" flag="0"/>
      <psa30 value="0.0035572892" flag="0"/>
    </comp>
  </station>
  <station code="MSL1" name="MSL1" netid="HI" source="NOA" insttype="CMG-5TD,ACCELEROMETER,GURALP" lat="38.3727" lon="21.4243">
    <comp name="--.HNE">
      <acc value="0.0720043494" flag="0"/>
      <vel value="0.0563559530" flag="0"/>
      <psa03 value="0.2142575555" flag="0"/>
      <psa10 value="0.1587120785" flag="0"/>
      <psa30 value="0.0108488672" flag="0"/>
    </comp>
    <comp name="--.HNN">
      <acc value="0.0798776374" flag="0"/>
      <vel value="0.0416913188" flag="0"/>
      <psa03 value="0.2597845820" flag="0"/>
      <psa10 value="0.0800537450" flag="0"/>
      <psa30 value="0.0060678676" flag="0"/>
    </comp>
    <comp name="--.HNZ">
      <acc value="0.0396002437" flag="0"/>
      <vel value="0.0289298279" flag="0"/>
      <psa03 value="0.0956713730" flag="0"/>
      <psa10 value="0.0459901038" flag="0"/>
      <psa30 value="0.0026196436" flag="0"/>
    </comp>
  </station>
  <station code="DLFA" name="DLFA" netid="HL" source="NOA" insttype="CMG-5" lat="38.4784" lon="22.4958">
    <comp name="00.HNE">
      <acc value="0.0255576706" flag="0"/>
      <vel value="0.0128093926" flag="0"/>
      <psa03 value="0.0805073194" flag="0"/>
      <psa10 value="0.0112910129" flag="0"/>
      <psa30 value="0.0009742261" flag="0"/>
    </comp>
    <comp name="00.HNN">
      <acc value="0.0306206439" flag="0"/>
      <vel value="0.0138828629" flag="0"/>
      <psa03 value="0.0525514771" flag="0"/>
      <psa10 value="0.0120636113" flag="0"/>
      <psa30 value="0.0016583730" flag="0"/>
    </comp>
    <comp name="00.HNZ">
      <acc value="0.0359953419" flag="0"/>
      <vel value="0.0110913935" flag="0"/>
      <psa03 value="0.0603610842" flag="0"/>
      <psa10 value="0.0069047514" flag="0"/>
      <psa30 value="0.0021346539" flag="0"/>
    </comp>
  </station>
  <station code="EVR" name="EVR" netid="HL" source="NOA" insttype="DR24" lat="38.9166" lon="21.8105">
    <comp name="--.HHE">
      <acc value="0.0360879200" flag="0"/>
      <vel value="0.0218763114" flag="0"/>
      <psa03 value="0.0709177498" flag="0"/>
      <psa10 value="0.0314040595" flag="0"/>
      <psa30 value="0.0047531233" flag="0"/>
    </comp>
    <comp name="--.HHN">
      <acc value="0.0440850116" flag="0"/>
      <vel value="0.0154623913" flag="0"/>
      <psa03 value="0.0559892873" flag="0"/>
      <psa10 value="0.0178924887" flag="0"/>
      <psa30 value="0.0038669762" flag="0"/>
    </comp>
    <comp name="--.HHZ">
      <acc value="0.0340915283" flag="0"/>
      <vel value="0.0175563209" flag="0"/>
      <psa03 value="0.0392191651" flag="0"/>
      <psa10 value="0.0237592167" flag="0"/>
      <psa30 value="0.0033117948" flag="0"/>
    </comp>
  </station>
  <station code="KLV" name="KLV" netid="HL" source="NOA" insttype="120" lat="38.0435" lon="22.1504">
    <comp name="--.HHE">
      <acc value="0.0517270932" flag="0"/>
      <vel value="0.0146264241" flag="0"/>
      <psa03 value="0.0690204147" flag="0"/>
      <psa10 value="0.0132207814" flag="0"/>
      <psa30 value="0.0017808601" flag="0"/>
    </comp>
    <comp name="--.HHN">
      <acc value="0.0626801719" flag="0"/>
      <vel value="0.0173156252" flag="0"/>
      <psa03 value="0.0859502998" flag="0"/>
      <psa10 value="0.0133093533" flag="0"/>
      <psa30 value="0.0013183000" flag="0"/>
    </comp>
    <comp name="--.HHZ">
      <acc value="0.0395037618" flag="0"/>
      <vel value="0.0178014398" flag="0"/>
      <psa03 value="0.0724124819" flag="0"/>
      <psa10 value="0.0229436943" flag="0"/>
      <psa30 value="0.0032190034" flag="0"/>
    </comp>
  </station>
  <station code="LKR" name="LKR" netid="HL" source="NOA" insttype="30" lat="38.6496" lon="22.9989">
    <comp name="--.HHE">
      <acc value="0.0231261599" flag="0"/>
      <vel value="0.0078980115" flag="0"/>
      <psa03 value="0.0337744148" flag="0"/>
      <psa10 value="0.0048350137" flag="0"/>
      <psa30 value="0.0020192246" flag="0"/>
    </comp>
    <comp name="--.HHN">
      <acc value="0.0155066971" flag="0"/>
      <vel value="0.0053744373" flag="0"/>
      <psa03 value="0.0274335896" flag="0"/>
      <psa10 value="0.0054514277" flag="0"/>
      <psa30 value="0.0011379843" flag="0"/>
    </comp>
    <comp name="--.HHZ">
      <acc value="0.0102737353" flag="0"/>
      <vel value="0.0042700648" flag="0"/>
      <psa03 value="0.0179458266" flag="0"/>
      <psa10 value="0.0070563403" flag="0"/>
      <psa30 value="0.0019281812" flag="0"/>
    </comp>
  </station>
  <station code="ORTH" name="ORTH" netid="HL" source="NOA" insttype="30" lat="37.8511" lon="20.6963">
    <comp name="--.HHE">
      <acc value="0.0258625496" flag="0"/>
      <vel value="0.0147297705" flag="0"/>
      <psa03 value="0.0905077590" flag="0"/>
      <psa10 value="0.0054894560" flag="0"/>
      <psa30 value="0.0004477582" flag="0"/>
    </comp>
    <comp name="--.HHN">
      <acc value="0.0274771374" flag="0"/>
      <vel value="0.0148761676" flag="0"/>
      <psa03 value="0.0828243522" flag="0"/>
      <psa10 value="0.0091908711" flag="0"/>
      <psa30 value="0.0004477890" flag="0"/>
    </comp>
    <comp name="--.HHZ">
      <acc value="0.0175680359" flag="0"/>
      <vel value="0.0080180320" flag="0"/>
      <psa03 value="0.0581914793" flag="0"/>
      <psa10 value="0.0033822679" flag="0"/>
      <psa30 value="0.0002177409" flag="0"/>
    </comp>
  </station>
  <station code="PATC" name="PATC" netid="HL" source="NOA" insttype="CMG-5" lat="38.2693" lon="21.76">
    <comp name="00.HNE">
      <acc value="0.4463902575" flag="0"/>
