<stationlist xmlns:esm="https://esm-db.eu/esmws/shakemap/1/" created="1781661291">
	<station code="AGRP" name="AGRP" netid="CL" source="Corinth Riff Laboratory (CRLNET)" insttype="" lat="38.3959" lon="21.72277" esm:processing="manual (Paolucci et al 2011)" esm:quality="good">
		<comp name="00.HNE" depth="0.0">
			<acc value="0.324251005116781" flag="0"/>
			<vel value="0.101838900229242" flag="0"/>
			<psa03 value="0.524020723913199" flag="0"/>
			<psa10 value="0.0682502093975779" flag="0"/>
			<psa30 value="0.0135649422025276" flag="0"/>
		</comp>
		<comp name="00.HNN" depth="0.0">
			<acc value="0.457569281370971" flag="0"/>
			<vel value="0.186990917311111" flag="0"/>
			<psa03 value="0.767149874676888" flag="0"/>
			<psa10 value="0.0802903371985548" flag="0"/>
			<psa30 value="0.0100719181318392" flag="0"/>
		</comp>
		<comp name="00.HNZ" depth="0.0">
			<acc value="0.216748134294679" flag="0"/>
			<vel value="0.0693887004369143" flag="0"/>
			<psa03 value="0.317893378022821" flag="0"/>
			<psa10 value="0.0512450389281714" flag="0"/>
			<psa30 value="0.00685584832011778" flag="0"/>
		</comp>
	</station>
	<station code="TRIZ" name="TRIZ" netid="CL" source="Corinth Riff Laboratory (CRLNET)" insttype="" lat="38.36543" lon="22.07272" esm:processing="manual (Paolucci et al 2011)" esm:quality="good">
		<comp name="00.HNE" depth="0.0">
			<acc value="0.305489818492585" flag="0"/>
			<vel value="0.105256112094326" flag="0"/>
			<psa03 value="0.509211053522551" flag="0"/>
			<psa10 value="0.0415928026944116" flag="0"/>
			<psa30 value="0.00710685209924628" flag="0"/>
		</comp>
		<comp name="00.HNN" depth="0.0">
			<acc value="0.476030850430395" flag="0"/>
			<vel value="0.234508851468352" flag="0"/>
			<psa03 value="1.62396313141679" flag="0"/>
			<psa10 value="0.0827869523278544" flag="0"/>
			<psa30 value="0.00711445827437139" flag="0"/>
		</comp>
		<comp name="00.HNZ" depth="0.0">
			<acc value="0.227660300992915" flag="0"/>
			<vel value="0.0531192353228803" flag="0"/>
			<psa03 value="0.323128216197159" flag="0"/>
			<psa10 value="0.0361485709931003" flag="0"/>
			<psa30 value="0.0045614679647328" flag="0"/>
		</comp>
	</station>
	<station code="ARG2" name="ARG2" netid="HI" source="ITSAK Strong Motion Network" insttype="" lat="38.1783" lon="20.4878" esm:processing="manual (Paolucci et al 2011)" esm:quality="best">
		<comp name="--.HNE" depth="0.0">
			<acc value="0.0172614173225379" flag="0"/>
			<vel value="0.00763099623527632" flag="0"/>
			<psa03 value="0.0310510913930806" flag="0"/>
			<psa10 value="0.00589120634542784" flag="0"/>
			<psa30 value="0.000630865113317632" flag="0"/>
		</comp>
		<comp name="--.HNN" depth="0.0">
			<acc value="0.0179729182182559" flag="0"/>
			<vel value="0.0120235174945254" flag="0"/>
			<psa03 value="0.0479636454947873" flag="0"/>
			<psa10 value="0.00727239826373389" flag="0"/>
			<psa30 value="0.000673817631671172" flag="0"/>
		</comp>
		<comp name="--.HNZ" depth="0.0">
			<acc value="0.0116091759519861" flag="0"/>
			<vel value="0.00415836512521649" flag="0"/>
			<psa03 value="0.0335119127570855" flag="0"/>
			<psa10 value="0.00302815254392463" flag="0"/>
			<psa30 value="0.000461292150234382" flag="0"/>
		</comp>
	</station>
	<station code="KLV1" name="KLV1" netid="HI" source="ITSAK Strong Motion Network" insttype="" lat="38.03256" lon="22.10797" esm:processing="manual (Paolucci et al 2011)" esm:quality="best">
		<comp name="--.HNE" depth="0.0">
			<acc value="0.116377645831553" flag="0"/>
			<vel value="0.0486716146867528" flag="0"/>
			<psa03 value="0.222995157785466" flag="0"/>
			<psa10 value="0.0534678317529671" flag="0"/>
			<psa30 value="0.00428182917336861" flag="0"/>
		</comp>
		<comp name="--.HNN" depth="0.0">
			<acc value="0.152650605357643" flag="0"/>
			<vel value="0.0561665321052169" flag="0"/>
			<psa03 value="0.355074151722605" flag="0"/>
			<psa10 value="0.0369700379066118" flag="0"/>
			<psa30 value="0.00316237916377945" flag="0"/>
		</comp>
		<comp name="--.HNZ" depth="0.0">
			<acc value="0.0723824054400531" flag="0"/>
			<vel value="0.0208442619054329" flag="0"/>
			<psa03 value="0.132257962763611" flag="0"/>
			<psa10 value="0.0208829775170122" flag="0"/>
			<psa30 value="0.00400084811580586" flag="0"/>
		</comp>
	</station>
	<station code="MSL1" name="MSL1" netid="HI" source="ITSAK Strong Motion Network" insttype="" lat="38.3727" lon="21.4243" esm:processing="manual (Paolucci et al 2011)" esm:quality="best">
		<comp name="--.HNE" depth="0.0">
			<acc value="0.0726877952357453" flag="0"/>
			<vel value="0.0567279140377348" flag="0"/>
			<psa03 value="0.215746920313306" flag="0"/>
			<psa10 value="0.158816936612217" flag="0"/>
			<psa30 value="0.0117944930866426" flag="0"/>
		</comp>
		<comp name="--.HNN" depth="0.0">
			<acc value="0.0804371411809963" flag="0"/>
			<vel value="0.0425366178598954" flag="0"/>
			<psa03 value="0.260265415898487" flag="0"/>
			<psa10 value="0.0800567828800075" flag="0"/>
			<psa30 value="0.00705495113956909" flag="0"/>
		</comp>
		<comp name="--.HNZ" depth="0.0">
			<acc value="0.037896791767326" flag="0"/>
			<vel value="0.0287452028446706" flag="0"/>
			<psa03 value="0.0963299708491391" flag="0"/>
			<psa10 value="0.0460102007538336" flag="0"/>
			<psa30 value="0.00292882484523207" flag="0"/>
		</comp>
	</station>
	<station code="VAS2" name="VAS2" netid="HI" source="ITSAK Strong Motion Network" insttype="" lat="38.630558" lon="20.608081" esm:processing="manual (Paolucci et al 2011)" esm:quality="good">
		<comp name="--.HNE" depth="0.0">
			<acc value="0.0225074933240509" flag="0"/>
			<vel value="0.0217726095537831" flag="0"/>
			<psa03 value="0.0669343411009345" flag="0"/>
			<psa10 value="0.0432679509101997" flag="0"/>
			<psa30 value="0.00210377855519114" flag="0"/>
		</comp>
		<comp name="--.HNN" depth="0.0">
			<acc value="0.0287539553758269" flag="0"/>
			<vel value="0.0252280713263005" flag="0"/>
			<psa03 value="0.0768671109701909" flag="0"/>
			<psa10 value="0.0473390442903962" flag="0"/>
			<psa30 value="0.00274448695396479" flag="0"/>
		</comp>
		<comp name="--.HNZ" depth="0.0">
			<acc value="0.0143453358382996" flag="0"/>
			<vel value="0.0123749900674559" flag="0"/>
			<psa03 value="0.0361517029475636" flag="0"/>
			<psa10 value="0.0184427375680516" flag="0"/>
			<psa30 value="0.00171675846794309" flag="0"/>
		</comp>
	</station>
	<station code="DLFA" name="DLFA" netid="HL" source="National Observatory of Athens Seismic Network" insttype="" lat="38.47836" lon="22.49583" esm:processing="manual (Paolucci et al 2011)" esm:quality="best">
		<comp name="00.HNE" depth="0.0">
			<acc value="0.0248175384459918" flag="0"/>
			<vel value="0.0128210465928971" flag="0"/>
			<psa03 value="0.0805807141195074" flag="0"/>
			<psa10 value="0.011246848477635" flag="0"/>
			<psa30 value="0.00110244797107422" flag="0"/>
		</comp>
		<comp name="00.HNN" depth="0.0">
			<acc value="0.0303767030099066" flag="0"/>
			<vel value="0.014429930143356" flag="0"/>
			<psa03 value="0.0528405460161789" flag="0"/>
			<psa10 value="0.0121005297799116" flag="0"/>
			<psa30 value="0.00188856854135725" flag="0"/>
		</comp>
		<comp name="00.HNZ" depth="0.0">
			<acc value="0.0354525151476346" flag="0"/>
			<vel value="0.0109461268977569" flag="0"/>
			<psa03 value="0.0604914633479034" flag="0"/>
			<psa10 value="0.00703079034799522" flag="0"/>
			<psa30 value="0.00240086680713646" flag="0"/>
		</comp>
	</station>
	<station code="KYMI" name="KYMI" netid="HL" source="National Observatory of Athens Seismic Network" insttype="" lat="38.633147" lon="24.100138" esm:processing="manual (Paolucci et al 2011)" esm:quality="good">
		<comp name="--.HNE" depth="1.0">
			<acc value="0.00111389911965666" flag="0"/>
			<vel value="0.00141902909014645" flag="0"/>
			<psa03 value="0.00326618108313384" flag="0"/>
			<psa10 value="0.00168320181297938" flag="0"/>
			<psa30 value="0.000377624223858214" flag="0"/>
		</comp>
		<comp name="--.HNN" depth="1.0">
			<acc value="0.00111597734002249" flag="0"/>
			<vel value="0.00128085311277536" flag="0"/>
			<psa03 value="0.00246082136400495" flag="0"/>
			<psa10 value="0.00313284930741139" flag="0"/>
			<psa30 value="0.000372255159064021" flag="0"/>
		</comp>
		<comp name="--.HNZ" depth="1.0">
			<acc value="0.000727510843641153" flag="0"/>
			<vel value="0.00123589871536925" flag="0"/>
			<psa03 value="0.00196865709120396" flag="0"/>
			<psa10 value="0.00157447825089698" flag="0"/>
			<psa30 value="0.000335566549637038" flag="0"/>
		</comp>
	</station>
	<station code="PATC" name="PATC" netid="HL" source="National Observatory of Athens Seismic Network" insttype="" lat="38.26933" lon="21.76001" esm:processing="manual (Paolucci et al 2011)" esm:quality="best">
		<comp name="00.HNE" depth="0.0">
			<acc value="0.447179721033814" flag="0"/>
			<vel value="0.275858795448582" flag="0"/>
			<psa03 value="1.04352248495795" flag="0"/>
			<psa10 value="0.40492278638222" flag="0"/>
			<psa30 value="0.0716206398221323" flag="0"/>
		</comp>
		<comp name="00.HNN" depth="0.0">
			<acc value="0.333473807631528" flag="0"/>
			<vel value="0.229877542711827" flag="0"/>
			<psa03 value="1.3323334286789" flag="0"/>
			<psa10 value="0.451375934981574" flag="0"/>
			<psa30 value="0.056188157915358" flag="0"/>
		</comp>
		<comp name="00.HNZ" depth="0.0">
			<acc value="0.313838177733758" flag="0"/>
			<vel value="0.210939111244225" flag="0"/>
			<psa03 value="0.579187864673528" flag="0"/>
			<psa10 value="0.529173683849425" flag="0"/>
			<psa30 value="0.0210261525781906" flag="0"/>
		</comp>
	</station>
	<station code="PATG" name="PATG" netid="HL" source="National Observatory of Athens Seismic Network" insttype="" lat="38.23865" lon="21.72657" esm:processing="manual (Paolucci et al 2011)" esm:quality="best">
		<comp name="00.HNE" depth="0.0">
			<acc value="0.261515029644922" flag="0"/>
			<vel value="0.190514676751317" flag="0"/>
			<psa03 value="0.843077399308095" flag="0"/>
			<psa10 value="0.300954873441275" flag="0"/>
			<psa30 value="0.0779118414947275" flag="0"/>
		</comp>
		<comp name="00.HNN" depth="0.0">
			<acc value="0.262881000796047" flag="0"/>
			<vel value="0.13109707238056" flag="0"/>
			<psa03 value="0.528763397814736" flag="0"/>
			<psa10 value="0.168835611518181" flag="0"/>
			<psa30 value="0.0435775669799981" flag="0"/>
		</comp>
		<comp name="00.HNZ" depth="0.0">
			<acc value="0.204196787400719" flag="0"/>
			<vel value="0.0721141442247528" flag="0"/>
			<psa03 value="0.330913360148738" flag="0"/>
			<psa10 value="0.131515242133748" flag="0"/>
			<psa30 value="0.0154360612833038" flag="0"/>
		</comp>
	</station>
	<station code="RIOA" name="RIOA" netid="HL" source="National Observatory of Athens Seismic Network" insttype="" lat="38.29585" lon="21.79118" esm:processing="manual (Paolucci et al 2011)" esm:quality="good">
		<comp name="00.HNE" depth="0.0">
			<acc value="1.07525961247923" flag="0"/>
			<vel value="0.460463415468212" flag="0"/>
			<psa03 value="2.44775663967241" flag="0"/>
			<psa10 value="0.414196503547989" flag="0"/>
			<psa30 value="0.0423887665501507" flag="0"/>
		</comp>
		<comp name="00.HNN" depth="0.0">
			<acc value="1.21252472110166" flag="0"/>
			<vel value="0.422280513542048" flag="0"/>
			<psa03 value="1.99478653986903" flag="0"/>
			<psa10 value="0.455169179258671" flag="0"/>
			<psa30 value="0.0325763532166975" flag="0"/>
		</comp>
		<comp name="00.HNZ" depth="0.0">
			<acc value="0.634987253053351" flag="0"/>
			<vel value="0.277864424140115" flag="0"/>
			<psa03 value="0.85354707565677" flag="0"/>
			<psa10 value="0.213319655604265" flag="0"/>
			<psa30 value="0.0359270970703398" flag="0"/>
		</comp>
	</station>
	<station code="ANX" name="ANX" netid="HP" source="University of Patras, Seismological Laboratory (PSLNET)" insttype="" lat="38.5933" lon="21.9209" esm:processing="manual (Paolucci et al 2011)" esm:quality="best">
		<comp name="--.HNE" depth="0.0">
			<acc value="0.602934877768853" flag="0"/>
			<vel value="0.228542961427635" flag="0"/>
			<psa03 value="1.45515078584605" flag="0"/>
			<psa10 value="0.0973760436398743" flag="0"/>
			<psa30 value="0.00851891614011894" flag="0"/>
		</comp>
		<comp name="--.HNN" depth="0.0">
			<acc value="0.53419156149152" flag="0"/>
			<vel value="0.302052567603656" flag="0"/>
			<psa03 value="1.14517677839467" flag="0"/>
			<psa10 value="0.196064823621929" flag="0"/>
			<psa30 value="0.0165112165083408" flag="0"/>
		</comp>
		<comp name="--.HNZ" depth="0.0">
			<acc value="0.229950489580066" flag="0"/>
			<vel value="0.0923651711271617" flag="0"/>
			<psa03 value="0.582364561343425" flag="0"/>
			<psa10 value="0.0599630578877416" flag="0"/>
			<psa30 value="0.0098222566189092" flag="0"/>
		</comp>
	</station>
	<station code="GUR" name="GUR" netid="HP" source="University of Patras, Seismological Laboratory (PSLNET)" insttype="" lat="37.9363" lon="22.3423" esm:processing="manual (Paolucci et al 2011)" esm:quality="best">
		<comp name="--.HNE" depth="0.0">
			<acc value="0.0636396509785936" flag="0"/>
			<vel value="0.0233765427937171" flag="0"/>
			<psa03 value="0.186530259391575" flag="0"/>
			<psa10 value="0.0161635695629169" flag="0"/>
			<psa30 value="0.00167604305992046" flag="0"/>
		</comp>
		<comp name="--.HNN" depth="0.0">
			<acc value="0.0526894292435982" flag="0"/>
			<vel value="0.031613430503325" flag="0"/>
			<psa03 value="0.169617705289868" flag="0"/>
			<psa10 value="0.0202749309290698" flag="0"/>
			<psa30 value="0.00135747854879836" flag="0"/>
		</comp>
		<comp name="--.HNZ" depth="0.0">
			<acc value="0.0438438524323929" flag="0"/>
			<vel value="0.0109737635083083" flag="0"/>
			<psa03 value="0.0654131060759133" flag="0"/>
			<psa10 value="0.0101314252666415" flag="0"/>
			<psa30 value="0.00142011763806395" flag="0"/>
		</comp>
	</station>
	<station code="LTHK" name="LTHK" netid="HP" source="University of Patras, Seismological Laboratory (PSLNET)" insttype="" lat="37.7095" lon="20.8367" esm:processing="manual (Paolucci et al 2011)" esm:quality="best">
		<comp name="--.HNE" depth="0.0">
			<acc value="0.0184751563988702" flag="0"/>
			<vel value="0.0112653669914257" flag="0"/>
			<psa03 value="0.042639322907213" flag="0"/>
			<psa10 value="0.00694220077889105" flag="0"/>
			<psa30 value="0.000853681302276625" flag="0"/>
		</comp>
		<comp name="--.HNN" depth="0.0">
			<acc value="0.0226527836033168" flag="0"/>
			<vel value="0.00933324787899366" flag="0"/>
			<psa03 value="0.0455028241307824" flag="0"/>
			<psa10 value="0.0104213547655279" flag="0"/>
			<psa30 value="0.000947639936174996" flag="0"/>
		</comp>
		<comp name="--.HNZ" depth="0.0">
			<acc value="0.00777434637824358" flag="0"/>
			<vel value="0.00479418974198905" flag="0"/>
			<psa03 value="0.03029047388057" flag="0"/>
			<psa10 value="0.00535161533361148" flag="0"/>
			<psa30 value="0.000404022125762994" flag="0"/>
		</comp>
	</station>
	<station code="PVO" name="PVO" netid="HP" source="University of Patras, Seismological Laboratory (PSLNET)" insttype="" lat="38.616" lon="21.525" esm:processing="manual (Paolucci et al 2011)" esm:quality="best">
		<comp name="--.HNE" depth="0.0">
			<acc value="0.0212686142818961" flag="0"/>
			<vel value="0.0110128145656994" flag="0"/>
			<psa03 value="0.0569120868184417" flag="0"/>
			<psa10 value="0.0151447895182188" flag="0"/>
			<psa30 value="0.00461113181407909" flag="0"/>
		</comp>
		<comp name="--.HNN" depth="0.0">
			<acc value="0.0248288487972453" flag="0"/>
			<vel value="0.0120642153750772" flag="0"/>
			<psa03 value="0.0463081838499113" flag="0"/>
			<psa10 value="0.0157286753145873" flag="0"/>
			<psa30 value="0.00260802322377906" flag="0"/>
		</comp>
		<comp name="--.HNZ" depth="0.0">
			<acc value="0.0182851500857091" flag="0"/>
			<vel value="0.0126080933682789" flag="0"/>
			<psa03 value="0.0368675782534559" flag="0"/>
			<psa10 value="0.0148347260263542" flag="0"/>
			<psa30 value="0.00291942898184223" flag="0"/>
		</comp>
	</station>
	<station code="PYL" name="PYL" netid="HP" source="University of Patras, Seismological Laboratory (PSLNET)" insttype="" lat="36.8955" lon="21.742" esm:processing="manual (Paolucci et al 2011)" esm:quality="bad">
		<comp name="--.HNE" depth="0.0">
			<acc value="0.00712231291322884" flag="0"/>
			<vel value="0.00505972584419339" flag="0"/>
			<psa03 value="0.0212525481436791" flag="0"/>
			<psa10 value="0.0100549160933242" flag="0"/>
			<psa30 value="0.00110200054900803" flag="0"/>
		</comp>
		<comp name="--.HNN" depth="0.0">
			<acc value="0.00559415972399448" flag="0"/>
			<vel value="0.00460648236150727" flag="0"/>
			<psa03 value="0.0189706956061472" flag="0"/>
			<psa10 value="0.00726031786794696" flag="0"/>
			<psa30 value="0.00134987237367326" flag="0"/>
		</comp>
		<comp name="--.HNZ" depth="0.0">
			<acc value="0.00488007089096043" flag="0"/>
			<vel value="0.00350581847782919" flag="0"/>
			<psa03 value="0.014317506117847" flag="0"/>
			<psa10 value="0.00560933044373273" flag="0"/>
			<psa30 value="0.00149931134377829" flag="0"/>
		</comp>
	</station>
	<station code="SERG" name="SERG" netid="HP" source="University of Patras, Seismological Laboratory (PSLNET)" insttype="" lat="38.4133" lon="22.0566" esm:processing="manual (Paolucci et al 2011)" esm:quality="best">
		<comp name="--.HNE" depth="0.0">
			<acc value="0.414802847879788" flag="0"/>
			<vel value="0.154635854686665" flag="0"/>
			<psa03 value="0.757977722320142" flag="0"/>
			<psa10 value="0.124452237396988" flag="0"/>
			<psa30 value="0.00986476171519655" flag="0"/>
		</comp>
		<comp name="--.HNN" depth="0.0">
			<acc value="0.60721361869683" flag="0"/>
			<vel value="0.167224926226283" flag="0"/>
			<psa03 value="1.19027692266588" flag="0"/>
			<psa10 value="0.0628261116892448" flag="0"/>
			<psa30 value="0.00788626133853658" flag="0"/>
		</comp>
		<comp name="--.HNZ" depth="0.0">
			<acc value="0.316564913885433" flag="0"/>
			<vel value="0.116572734318323" flag="0"/>
			<psa03 value="0.447914230455519" flag="0"/>
			<psa10 value="0.0550020420179076" flag="0"/>
			<psa30 value="0.010017780061831" flag="0"/>
		</comp>
	</station>
</stationlist>
