<?xml version="1.0" encoding="UTF-8" standalone="yes"?>
<!DOCTYPE earthquake SYSTEM "stationlist.dtd">
<stationlist created="" xmlns="ch.ethz.sed.shakemap.usgs.xml">
  <station code="ZKR" name="ZKR" netid="GE" insttype="STS-2/N" lat="35.1147" lon="26.2169">
    <comp name="--.HHZ">
      <acc value="0.0291489109" flag="0"/>
      <vel value="0.0178121870" flag="0"/>
      <psa03 value="0.0975263959" flag="0"/>
      <psa10 value="0.0239281243" flag="0"/>
      <psa30 value="0.0021445179" flag="0"/>
    </comp>
    <comp name="--.HHE">
      <acc value="0.0434351335" flag="0"/>
      <vel value="0.0284567124" flag="0"/>
      <psa03 value="0.1274497473" flag="0"/>
      <psa10 value="0.0328033700" flag="0"/>
      <psa30 value="0.0029622265" flag="0"/>
    </comp>
    <comp name="--.HHN">
      <acc value="0.0219880983" flag="0"/>
      <vel value="0.0134500014" flag="0"/>
      <psa03 value="0.0686128651" flag="0"/>
      <psa10 value="0.0121013937" flag="0"/>
      <psa30 value="0.0013978925" flag="0"/>
    </comp>
  </station>
</stationlist>
