<?xml version="1.0" encoding="UTF-8" standalone="yes"?>
<!DOCTYPE earthquake SYSTEM "stationlist.dtd">
<stationlist created="" xmlns="ch.ethz.sed.shakemap.usgs.xml">
  <station code="ZKR" name="ZKR" netid="GE" insttype="STS-2/N" lat="35.1147" lon="26.2169">
    <comp name="--.HHZ">
      <acc value="0.0291489109" flag="0"/>
      <vel value="0.0178121870" flag="0"/>
      <psa03 value="0.0975263959" flag="0"/>
      <psa10 value="0.0239281243" flag="0"/>
      <psa30 value="0.0021445179" flag="0"/>
    </comp>
    <comp name="--.HHE">
      <acc value="0.0434351335" flag="0"/>
      <vel value="0.0284567124" flag="0"/>
      <psa03 value="0.1274497473" flag="0"/>
      <psa10 value="0.0328033700" flag="0"/>
      <psa30 value="0.0029622265" flag="0"/>
    </comp>
    <comp name="--.HHN">
      <acc value="0.0219880983" flag="0"/>
      <vel value="0.0134500014" flag="0"/>
      <psa03 value="0.0686128651" flag="0"/>
      <psa10 value="0.0121013937" flag="0"/>
      <psa30 value="0.0013978925" flag="0"/>
    </comp>
  </station>
  <station code="KNSS" name="KNSS" netid="HC" insttype="60" lat="35.3042" lon="25.1802">
    <comp name="--.HHN">
      <acc value="0.0083480580" flag="0"/>
      <vel value="0.0101016555" flag="0"/>
      <psa03 value="0.0198166996" flag="0"/>
      <psa10 value="0.0103784954" flag="0"/>
      <psa30 value="0.0013406516" flag="0"/>
    </comp>
    <comp name="--.HHE">
      <acc value="0.0104605049" flag="0"/>
      <vel value="0.0071052366" flag="0"/>
      <psa03 value="0.0318283347" flag="0"/>
      <psa10 value="0.0072851830" flag="0"/>
      <psa30 value="0.0008323611" flag="0"/>
    </comp>
    <comp name="--.HHZ">
      <acc value="0.0058521754" flag="0"/>
      <vel value="0.0028407565" flag="0"/>
      <psa03 value="0.0173810655" flag="0"/>
      <psa10 value="0.0048374459" flag="0"/>
      <psa30 value="0.0005330957" flag="0"/>
    </comp>
  </station>
  <station code="PFKS" name="PFKS" netid="HC" insttype="120" lat="35.0429" lon="25.4733">
    <comp name="--.HHZ">
      <acc value="0.0099677283" flag="0"/>
      <vel value="0.0080079235" flag="0"/>
      <psa03 value="0.0335641213" flag="0"/>
      <psa10 value="0.0094021362" flag="0"/>
      <psa30 value="0.0009290541" flag="0"/>
    </comp>
    <comp name="--.HHN">
      <acc value="0.0200738681" flag="0"/>
      <vel value="0.0160816747" flag="0"/>
      <psa03 value="0.0549681748" flag="0"/>
      <psa10 value="0.0170744610" flag="0"/>
      <psa30 value="0.0016077565" flag="0"/>
    </comp>
    <comp name="--.HHE">
      <acc value="0.0210375280" flag="0"/>
      <vel value="0.0156640854" flag="0"/>
      <psa03 value="0.0934106632" flag="0"/>
      <psa10 value="0.0149992121" flag="0"/>
      <psa30 value="0.0014171080" flag="0"/>
    </comp>
  </station>
  <station code="STIA" name="STIA" netid="HC" insttype="120" lat="35.2021" lon="26.0909">
    <comp name="--.HHE">
      <acc value="0.0410015830" flag="0"/>
      <vel value="0.0284515432" flag="0"/>
      <psa03 value="0.1043658060" flag="0"/>
      <psa10 value="0.0252909198" flag="0"/>
      <psa30 value="0.0020847507" flag="0"/>
    </comp>
    <comp name="--.HHZ">
      <acc value="0.0325541768" flag="0"/>
      <vel value="0.0162683342" flag="0"/>
      <psa03 value="0.1057201407" flag="0"/>
      <psa10 value="0.0220723964" flag="0"/>
      <psa30 value="0.0020682232" flag="0"/>
    </comp>
    <comp name="--.HHN">
      <acc value="0.0322407389" flag="0"/>
      <vel value="0.0224519219" flag="0"/>
      <psa03 value="0.0846252834" flag="0"/>
      <psa10 value="0.0288212399" flag="0"/>
      <psa30 value="0.0019455398" flag="0"/>
    </comp>
  </station>
  <station code="KSS1" name="KSS1" netid="HI" insttype="CMG-5TD,ACCELEROMETER,GURALP" lat="35.4189" lon="26.9207">
    <comp name="--.HNZ">
      <acc value="0.0100880739" flag="0"/>
      <vel value="0.0036474622" flag="0"/>
      <psa03 value="0.0139808831" flag="0"/>
      <psa10 value="0.0067260226" flag="0"/>
      <psa30 value="0.0005562845" flag="0"/>
    </comp>
    <comp name="--.HNE">
      <acc value="0.0146703685" flag="0"/>
      <vel value="0.0068884852" flag="0"/>
      <psa03 value="0.0516034331" flag="0"/>
      <psa10 value="0.0045765575" flag="0"/>
      <psa30 value="0.0007941197" flag="0"/>
    </comp>
    <comp name="--.HNN">
      <acc value="0.0158930232" flag="0"/>
      <vel value="0.0082928333" flag="0"/>
      <psa03 value="0.0569988569" flag="0"/>
      <psa10 value="0.0115242270" flag="0"/>
      <psa30 value="0.0007617142" flag="0"/>
    </comp>
  </station>
  <station code="KSTE" name="KSTE" netid="HL" insttype="60" lat="35.1801" lon="25.3372">
    <comp name="--.HHN">
      <acc value="0.0065821137" flag="0"/>
      <vel value="0.0056345604" flag="0"/>
      <psa03 value="0.0135568578" flag="0"/>
      <psa10 value="0.0091900026" flag="0"/>
      <psa30 value="0.0008510922" flag="0"/>
    </comp>
    <comp name="--.HHZ">
      <acc value="0.0045999081" flag="0"/>
      <vel value="0.0039222163" flag="0"/>
      <psa03 value="0.0100574093" flag="0"/>
      <psa10 value="0.0056223055" flag="0"/>
      <psa30 value="0.0004703169" flag="0"/>
    </comp>
    <comp name="--.HHE">
      <acc value="0.0049039827" flag="0"/>
      <vel value="0.0054640396" flag="0"/>
      <psa03 value="0.0172843590" flag="0"/>
      <psa10 value="0.0090508576" flag="0"/>
      <psa30 value="0.0007219786" flag="0"/>
    </comp>
  </station>
  <station code="ZKR" name="ZKR" netid="HL" insttype="120" lat="35.1147" lon="26.2169">
    <comp name="--.HHE">
      <acc value="0.0426896549" flag="0"/>
      <vel value="0.0281585399" flag="0"/>
      <psa03 value="0.1245937625" flag="0"/>
      <psa10 value="0.0325765253" flag="0"/>
      <psa30 value="0.0029443351" flag="0"/>
    </comp>
    <comp name="--.HHN">
      <acc value="0.0214158867" flag="0"/>
      <vel value="0.0131551899" flag="0"/>
      <psa03 value="0.0665881390" flag="0"/>
      <psa10 value="0.0120032523" flag="0"/>
      <psa30 value="0.0013900142" flag="0"/>
    </comp>
    <comp name="--.HHZ">
      <acc value="0.0286081491" flag="0"/>
      <vel value="0.0174075534" flag="0"/>
      <psa03 value="0.0946586059" flag="0"/>
      <psa10 value="0.0237923083" flag="0"/>
      <psa30 value="0.0021433177" flag="0"/>
    </comp>
  </station>
</stationlist>
