<?xml version="1.0" encoding="UTF-8" standalone="yes"?>
<!DOCTYPE earthquake SYSTEM "stationlist.dtd">
<stationlist created="" xmlns="ch.ethz.sed.shakemap.usgs.xml">
  <station code="ZKR" name="ZKR" netid="GE" insttype="STS-2/N" lat="35.1147" lon="26.2169">
    <comp name="--.HHN">
      <acc value="0.0219880989" flag="0"/>
      <vel value="0.0134500018" flag="0"/>
      <psa03 value="0.0686128651" flag="0"/>
      <psa10 value="0.0121013938" flag="0"/>
      <psa30 value="0.0013978687" flag="0"/>
    </comp>
    <comp name="--.HHE">
      <acc value="0.0434351344" flag="0"/>
      <vel value="0.0284567120" flag="0"/>
      <psa03 value="0.1274497473" flag="0"/>
      <psa10 value="0.0328033701" flag="0"/>
      <psa30 value="0.0029621468" flag="0"/>
    </comp>
    <comp name="--.HHZ">
      <acc value="0.0291489109" flag="0"/>
      <vel value="0.0178121868" flag="0"/>
      <psa03 value="0.0975263959" flag="0"/>
      <psa10 value="0.0239281245" flag="0"/>
      <psa30 value="0.0021445104" flag="0"/>
    </comp>
  </station>
  <station code="KNSS" name="KNSS" netid="HC" insttype="60" lat="35.3042" lon="25.1802">
    <comp name="--.HHZ">
      <acc value="0.0058521757" flag="0"/>
      <vel value="0.0028407559" flag="0"/>
      <psa03 value="0.0173810655" flag="0"/>
      <psa10 value="0.0048374459" flag="0"/>
      <psa30 value="0.0005330909" flag="0"/>
    </comp>
    <comp name="--.HHN">
      <acc value="0.0083480581" flag="0"/>
      <vel value="0.0101016552" flag="0"/>
      <psa03 value="0.0198166996" flag="0"/>
      <psa10 value="0.0103784954" flag="0"/>
      <psa30 value="0.0013406599" flag="0"/>
    </comp>
    <comp name="--.HHE">
      <acc value="0.0104605056" flag="0"/>
      <vel value="0.0071052373" flag="0"/>
      <psa03 value="0.0318283347" flag="0"/>
      <psa10 value="0.0072851830" flag="0"/>
      <psa30 value="0.0008323584" flag="0"/>
    </comp>
  </station>
  <station code="PFKS" name="PFKS" netid="HC" insttype="120" lat="35.0429" lon="25.4733">
    <comp name="--.HHZ">
      <acc value="0.0099677287" flag="0"/>
      <vel value="0.0080079239" flag="0"/>
      <psa03 value="0.0335641213" flag="0"/>
      <psa10 value="0.0094021362" flag="0"/>
      <psa30 value="0.0009290438" flag="0"/>
    </comp>
    <comp name="--.HHE">
      <acc value="0.0210375277" flag="0"/>
      <vel value="0.0156640860" flag="0"/>
      <psa03 value="0.0934106632" flag="0"/>
      <psa10 value="0.0149992120" flag="0"/>
      <psa30 value="0.0014171474" flag="0"/>
    </comp>
    <comp name="--.HHN">
      <acc value="0.0200738683" flag="0"/>
      <vel value="0.0160816745" flag="0"/>
      <psa03 value="0.0549681748" flag="0"/>
      <psa10 value="0.0170744611" flag="0"/>
      <psa30 value="0.0016077425" flag="0"/>
    </comp>
  </station>
  <station code="STIA" name="STIA" netid="HC" insttype="120" lat="35.2021" lon="26.0909">
    <comp name="--.HHZ">
      <acc value="0.0325541771" flag="0"/>
      <vel value="0.0162683342" flag="0"/>
      <psa03 value="0.1057201407" flag="0"/>
      <psa10 value="0.0220723964" flag="0"/>
      <psa30 value="0.0020682304" flag="0"/>
    </comp>
    <comp name="--.HHE">
      <acc value="0.0410015828" flag="0"/>
      <vel value="0.0284515431" flag="0"/>
      <psa03 value="0.1043658060" flag="0"/>
      <psa10 value="0.0252909198" flag="0"/>
      <psa30 value="0.0020847533" flag="0"/>
    </comp>
    <comp name="--.HHN">
      <acc value="0.0322407386" flag="0"/>
      <vel value="0.0224519219" flag="0"/>
      <psa03 value="0.0846252834" flag="0"/>
      <psa10 value="0.0288212399" flag="0"/>
      <psa30 value="0.0019455497" flag="0"/>
    </comp>
  </station>
  <station code="TEFL" name="TEFL" netid="HC" insttype="GEOtiny," lat="35.0933" lon="25.1634">
    <comp name="--.HHZ">
      <acc value="0.0102328060" flag="0"/>
      <vel value="0.0071173342" flag="0"/>
      <psa03 value="0.0250145288" flag="0"/>
      <psa10 value="0.0104791315" flag="0"/>
      <psa30 value="0.0007709191" flag="0"/>
    </comp>
    <comp name="--.HHE">
      <acc value="0.0203216057" flag="0"/>
      <vel value="0.0153874175" flag="0"/>
      <psa03 value="0.0587712222" flag="0"/>
      <psa10 value="0.0152583737" flag="0"/>
      <psa30 value="0.0011848115" flag="0"/>
    </comp>
    <comp name="--.HHN">
      <acc value="0.0172143592" flag="0"/>
      <vel value="0.0163588130" flag="0"/>
      <psa03 value="0.0385436372" flag="0"/>
      <psa10 value="0.0259246618" flag="0"/>
      <psa30 value="0.0018228241" flag="0"/>
    </comp>
  </station>
  <station code="KSS1" name="KSS1" netid="HI" insttype="CMG-5TD,ACCELEROMETER,GURALP" lat="35.4189" lon="26.9207">
    <comp name="--.HNE">
      <acc value="0.0146703667" flag="0"/>
      <vel value="0.0068884854" flag="0"/>
      <psa03 value="0.0516034331" flag="0"/>
      <psa10 value="0.0045765575" flag="0"/>
      <psa30 value="0.0007941220" flag="0"/>
    </comp>
    <comp name="--.HNN">
      <acc value="0.0158930279" flag="0"/>
      <vel value="0.0082928334" flag="0"/>
      <psa03 value="0.0569988569" flag="0"/>
      <psa10 value="0.0115242270" flag="0"/>
      <psa30 value="0.0007617135" flag="0"/>
    </comp>
    <comp name="--.HNZ">
      <acc value="0.0100880674" flag="0"/>
      <vel value="0.0036474618" flag="0"/>
      <psa03 value="0.0139808831" flag="0"/>
      <psa10 value="0.0067260226" flag="0"/>
      <psa30 value="0.0005562851" flag="0"/>
    </comp>
  </station>
  <station code="IDI" name="IDI" netid="HL" insttype="120" lat="35.288" lon="24.89">
    <comp name="--.HHE">
      <acc value="0.0027066893" flag="0"/>
      <vel value="0.0021060181" flag="0"/>
      <psa03 value="0.0073761119" flag="0"/>
      <psa10 value="0.0039177260" flag="0"/>
      <psa30 value="0.0003925613" flag="0"/>
    </comp>
    <comp name="--.HHN">
      <acc value="0.0032719020" flag="0"/>
      <vel value="0.0029211041" flag="0"/>
      <psa03 value="0.0099672410" flag="0"/>
      <psa10 value="0.0051300474" flag="0"/>
      <psa30 value="0.0004072232" flag="0"/>
    </comp>
    <comp name="--.HHZ">
      <acc value="0.0022879662" flag="0"/>
      <vel value="0.0019646050" flag="0"/>
      <psa03 value="0.0074648889" flag="0"/>
      <psa10 value="0.0035618995" flag="0"/>
      <psa30 value="0.0002850121" flag="0"/>
    </comp>
  </station>
  <station code="KSTE" name="KSTE" netid="HL" insttype="60" lat="35.1801" lon="25.3372">
    <comp name="--.HHE">
      <acc value="0.0049039826" flag="0"/>
      <vel value="0.0054640400" flag="0"/>
      <psa03 value="0.0172843590" flag="0"/>
      <psa10 value="0.0090508576" flag="0"/>
      <psa30 value="0.0007219817" flag="0"/>
    </comp>
    <comp name="--.HHN">
      <acc value="0.0065821136" flag="0"/>
      <vel value="0.0056345602" flag="0"/>
      <psa03 value="0.0135568578" flag="0"/>
      <psa10 value="0.0091900026" flag="0"/>
      <psa30 value="0.0008510580" flag="0"/>
    </comp>
    <comp name="--.HHZ">
      <acc value="0.0045999069" flag="0"/>
      <vel value="0.0039222165" flag="0"/>
      <psa03 value="0.0100574093" flag="0"/>
      <psa10 value="0.0056223055" flag="0"/>
      <psa30 value="0.0004702997" flag="0"/>
    </comp>
  </station>
  <station code="SIVA" name="SIVA" netid="HL" insttype="60" lat="35.0178" lon="24.812">
    <comp name="--.HHZ">
      <acc value="0.0052911602" flag="0"/>
      <vel value="0.0048754729" flag="0"/>
      <psa03 value="0.0130205317" flag="0"/>
      <psa10 value="0.0087218497" flag="0"/>
      <psa30 value="0.0006301859" flag="0"/>
    </comp>
    <comp name="--.HHN">
      <acc value="0.0099455151" flag="0"/>
      <vel value="0.0091815313" flag="0"/>
      <psa03 value="0.0182123474" flag="0"/>
      <psa10 value="0.0088751843" flag="0"/>
      <psa30 value="0.0007526297" flag="0"/>
    </comp>
    <comp name="--.HHE">
      <acc value="0.0101985635" flag="0"/>
      <vel value="0.0088931555" flag="0"/>
      <psa03 value="0.0240200808" flag="0"/>
      <psa10 value="0.0128419125" flag="0"/>
      <psa30 value="0.0008136286" flag="0"/>
    </comp>
  </station>
  <station code="ZKR" name="ZKR" netid="HL" insttype="120" lat="35.1147" lon="26.2169">
    <comp name="--.HHE">
      <acc value="0.0426896558" flag="0"/>
      <vel value="0.0281585400" flag="0"/>
      <psa03 value="0.1245937625" flag="0"/>
      <psa10 value="0.0325765249" flag="0"/>
      <psa30 value="0.0029444470" flag="0"/>
    </comp>
    <comp name="--.HHN">
      <acc value="0.0214158867" flag="0"/>
      <vel value="0.0131551903" flag="0"/>
      <psa03 value="0.0665881390" flag="0"/>
      <psa10 value="0.0120032522" flag="0"/>
      <psa30 value="0.0013900735" flag="0"/>
    </comp>
    <comp name="--.HHZ">
      <acc value="0.0286081494" flag="0"/>
      <vel value="0.0174075537" flag="0"/>
      <psa03 value="0.0946586059" flag="0"/>
      <psa10 value="0.0237923083" flag="0"/>
      <psa30 value="0.0021432930" flag="0"/>
    </comp>
  </station>
  <station code="IDI" name="IDI" netid="MN" insttype="" lat="35.288" lon="24.89">
    <comp name="--.HHE">
      <acc value="0.0027092190" flag="0"/>
      <vel value="0.0021110847" flag="0"/>
      <psa03 value="0.0074567933" flag="0"/>
      <psa10 value="0.0038897408" flag="0"/>
      <psa30 value="0.0003882199" flag="0"/>
    </comp>
    <comp name="--.HHZ">
      <acc value="0.0023172767" flag="0"/>
      <vel value="0.0019456164" flag="0"/>
      <psa03 value="0.0075920782" flag="0"/>
      <psa10 value="0.0035371023" flag="0"/>
      <psa30 value="0.0002821573" flag="0"/>
    </comp>
    <comp name="--.HHN">
      <acc value="0.0033506758" flag="0"/>
      <vel value="0.0029046300" flag="0"/>
      <psa03 value="0.0100323441" flag="0"/>
      <psa10 value="0.0050971587" flag="0"/>
      <psa30 value="0.0004029236" flag="0"/>
    </comp>
  </station>
</stationlist>
