<stationlist created="1779846921">
	<station code="CMA05" name="CMA05" netid="6N" source="Emersito Seismic Network" insttype="" lat="43.6184921265" lon="13.5270624161">
		<comp name="--.HNE" depth="0.0">
			<acc value="0.255872396793318" flag="0"/>
			<vel value="0.0491459528698383" flag="0"/>
			<psa03 value="0.168405239353936" flag="0"/>
			<psa10 value="0.0168232994610298" flag="0"/>
			<psa30 value="0.00242245297561985" flag="0"/>
		</comp>
		<comp name="--.HNN" depth="0.0">
			<acc value="0.299280219029888" flag="0"/>
			<vel value="0.0523745805308681" flag="0"/>
			<psa03 value="0.121733626755495" flag="0"/>
			<psa10 value="0.0157805972621043" flag="0"/>
			<psa30 value="0.00238178173968522" flag="0"/>
		</comp>
		<comp name="--.HNZ" depth="0.0">
			<acc value="0.120307573182694" flag="0"/>
			<vel value="0.0264612918388483" flag="0"/>
			<psa03 value="0.0777019025781522" flag="0"/>
			<psa10 value="0.0137463031251049" flag="0"/>
			<psa30 value="0.00186547232838478" flag="0"/>
		</comp>
	</station>
	<station code="CMA06" name="CMA06" netid="6N" source="Emersito Seismic Network" insttype="" lat="43.5537376404" lon="13.5113868713">
		<comp name="--.HNE" depth="0.0">
			<acc value="0.115678395373561" flag="0"/>
			<vel value="0.0362127514942336" flag="0"/>
			<psa03 value="0.202452432313242" flag="0"/>
			<psa10 value="0.0462665711834221" flag="0"/>
			<psa30 value="0.00725074199274507" flag="0"/>
		</comp>
		<comp name="--.HNN" depth="0.0">
			<acc value="0.117858695708022" flag="0"/>
			<vel value="0.0349856208296672" flag="0"/>
			<psa03 value="0.242054680767783" flag="0"/>
			<psa10 value="0.0525302136190441" flag="0"/>
			<psa30 value="0.00561313809285273" flag="0"/>
		</comp>
		<comp name="--.HNZ" depth="0.0">
			<acc value="0.0672301485495925" flag="0"/>
			<vel value="0.0183117754240737" flag="0"/>
			<psa03 value="0.0897268085439786" flag="0"/>
			<psa10 value="0.017239172010528" flag="0"/>
			<psa30 value="0.00298292968778495" flag="0"/>
		</comp>
	</station>
	<station code="CMA07" name="CMA07" netid="6N" source="Emersito Seismic Network" insttype="" lat="43.6057281494" lon="13.5036687851">
		<comp name="--.HNE" depth="0.0">
			<acc value="0.574624455393961" flag="0"/>
			<vel value="0.14838581112488" flag="0"/>
			<psa03 value="0.59419323738644" flag="0"/>
			<psa10 value="0.0415390680095345" flag="0"/>
			<psa30 value="0.00617064877519336" flag="0"/>
		</comp>
		<comp name="--.HNN" depth="0.0">
			<acc value="0.372848566850283" flag="0"/>
			<vel value="0.160268053654878" flag="0"/>
			<psa03 value="0.66468636554372" flag="0"/>
			<psa10 value="0.0426604710466435" flag="0"/>
			<psa30 value="0.00602153473046474" flag="0"/>
		</comp>
		<comp name="--.HNZ" depth="0.0">
			<acc value="0.33615557449688" flag="0"/>
			<vel value="0.0797472611248525" flag="0"/>
			<psa03 value="0.40555403263113" flag="0"/>
			<psa10 value="0.0242327403001246" flag="0"/>
			<psa30 value="0.00364050824913764" flag="0"/>
		</comp>
	</station>
	<station code="CMA08" name="CMA08" netid="6N" source="Emersito Seismic Network" insttype="" lat="43.6203765869" lon="13.51674366">
		<comp name="--.HNE" depth="0.0">
			<acc value="0.340084788031731" flag="0"/>
			<vel value="0.114209333380517" flag="0"/>
			<psa03 value="0.621864445467634" flag="0"/>
			<psa10 value="0.0176972704823312" flag="0"/>
			<psa30 value="0.00224837519382059" flag="0"/>
		</comp>
		<comp name="--.HNN" depth="0.0">
			<acc value="0.35453177358552" flag="0"/>
			<vel value="0.0785393097941575" flag="0"/>
			<psa03 value="0.255957872619699" flag="0"/>
			<psa10 value="0.0157577770004002" flag="0"/>
			<psa30 value="0.00263862021230705" flag="0"/>
		</comp>
		<comp name="--.HNZ" depth="0.0">
			<acc value="0.341109628207259" flag="0"/>
			<vel value="0.0737520450176592" flag="0"/>
			<psa03 value="0.325443913228797" flag="0"/>
			<psa10 value="0.0130413708017949" flag="0"/>
			<psa30 value="0.00221196569853786" flag="0"/>
		</comp>
	</station>
	<station code="CMA09" name="CMA09" netid="6N" source="Emersito Seismic Network" insttype="" lat="43.6180801392" lon="13.5160617828">
		<comp name="--.HNE" depth="0.0">
			<acc value="0.30601814197975" flag="0"/>
			<vel value="0.106138179873511" flag="0"/>
			<psa03 value="0.448619385497386" flag="0"/>
			<psa10 value="0.0193767442392249" flag="0"/>
			<psa30 value="0.00228959542446032" flag="0"/>
		</comp>
		<comp name="--.HNN" depth="0.0">
			<acc value="0.286368582891193" flag="0"/>
			<vel value="0.0564365794739311" flag="0"/>
			<psa03 value="0.226534402625814" flag="0"/>
			<psa10 value="0.0170453910485074" flag="0"/>
			<psa30 value="0.00248396725897421" flag="0"/>
		</comp>
		<comp name="--.HNZ" depth="0.0">
			<acc value="0.286741390728534" flag="0"/>
			<vel value="0.0482909162005263" flag="0"/>
			<psa03 value="0.118513225919649" flag="0"/>
			<psa10 value="0.0128001201326344" flag="0"/>
			<psa30 value="0.00214903986334247" flag="0"/>
		</comp>
	</station>
	<station code="CMA10" name="CMA10" netid="6N" source="Emersito Seismic Network" insttype="" lat="43.6029624939" lon="13.4801750183">
		<comp name="--.HNE" depth="0.0">
			<acc value="0.555254717148684" flag="0"/>
			<vel value="0.141694938692471" flag="0"/>
			<psa03 value="0.542373346238694" flag="0"/>
			<psa10 value="0.111588417184874" flag="0"/>
			<psa30 value="0.00746548955202619" flag="0"/>
		</comp>
		<comp name="--.HNN" depth="0.0">
			<acc value="0.781980709105795" flag="0"/>
			<vel value="0.186848205439018" flag="0"/>
			<psa03 value="0.703463350994421" flag="0"/>
			<psa10 value="0.0702990969700801" flag="0"/>
			<psa30 value="0.00691447221651343" flag="0"/>
		</comp>
		<comp name="--.HNZ" depth="0.0">
			<acc value="0.252157991834439" flag="0"/>
			<vel value="0.075068756979341" flag="0"/>
			<psa03 value="0.306916331700681" flag="0"/>
			<psa10 value="0.0320636040564005" flag="0"/>
			<psa30 value="0.00384279289950311" flag="0"/>
		</comp>
	</station>
	<station code="CMA11" name="CMA11" netid="6N" source="Emersito Seismic Network" insttype="" lat="43.5985412598" lon="13.5060167313">
		<comp name="--.HNE" depth="0.0">
			<acc value="0.713262111092255" flag="0"/>
			<vel value="0.141516487699185" flag="0"/>
			<psa03 value="0.462517306167928" flag="0"/>
			<psa10 value="0.0410509281724932" flag="0"/>
			<psa30 value="0.00695856555415712" flag="0"/>
		</comp>
		<comp name="--.HNN" depth="0.0">
			<acc value="0.69858681716608" flag="0"/>
			<vel value="0.165708448954924" flag="0"/>
			<psa03 value="0.455665352258691" flag="0"/>
			<psa10 value="0.0546916580540822" flag="0"/>
			<psa30 value="0.00707392861303789" flag="0"/>
		</comp>
		<comp name="--.HNZ" depth="0.0">
			<acc value="0.251864655484422" flag="0"/>
			<vel value="0.0791449910113526" flag="0"/>
			<psa03 value="0.18255848943719" flag="0"/>
			<psa10 value="0.0198252026973764" flag="0"/>
			<psa30 value="0.00407392029389228" flag="0"/>
		</comp>
	</station>
	<station code="CMA14" name="CMA14" netid="6N" source="Emersito Seismic Network" insttype="" lat="43.6099967957" lon="13.509393692">
		<comp name="--.HNE" depth="0.0">
			<acc value="0.636056682524796" flag="0"/>
			<vel value="0.166811076347046" flag="0"/>
			<psa03 value="0.421563801533061" flag="0"/>
			<psa10 value="0.0225556141987446" flag="0"/>
			<psa30 value="0.00447784246842024" flag="0"/>
		</comp>
		<comp name="--.HNN" depth="0.0">
			<acc value="0.548735053733662" flag="0"/>
			<vel value="0.133567480313541" flag="0"/>
			<psa03 value="0.401098654150526" flag="0"/>
			<psa10 value="0.0431882435092784" flag="0"/>
			<psa30 value="0.00531563546807482" flag="0"/>
		</comp>
		<comp name="--.HNZ" depth="0.0">
			<acc value="0.283214103367775" flag="0"/>
			<vel value="0.064161332167764" flag="0"/>
			<psa03 value="0.185315109550084" flag="0"/>
			<psa10 value="0.0158153376884872" flag="0"/>
			<psa30 value="0.00347874732493562" flag="0"/>
		</comp>
	</station>
	<station code="CMA15" name="CMA15" netid="6N" source="Emersito Seismic Network" insttype="" lat="43.6086120605" lon="13.5313158035">
		<comp name="--.HNE" depth="0.0">
			<acc value="0.14662510862627" flag="0"/>
			<vel value="0.0469831151273689" flag="0"/>
			<psa03 value="0.139254297830452" flag="0"/>
			<psa10 value="0.0175843598775385" flag="0"/>
			<psa30 value="0.00451845140855913" flag="0"/>
		</comp>
		<comp name="--.HNN" depth="0.0">
			<acc value="0.150671287212298" flag="0"/>
			<vel value="0.0669353723453328" flag="0"/>
			<psa03 value="0.235613774922812" flag="0"/>
			<psa10 value="0.0192430497575965" flag="0"/>
			<psa30 value="0.00295430070792174" flag="0"/>
		</comp>
		<comp name="--.HNZ" depth="0.0">
			<acc value="0.120616653581796" flag="0"/>
			<vel value="0.0302197736281991" flag="0"/>
			<psa03 value="0.136469644611042" flag="0"/>
			<psa10 value="0.0127367315584422" flag="0"/>
			<psa30 value="0.00293162628918508" flag="0"/>
		</comp>
	</station>
	<station code="ANB" name="ANB" netid="IT" source="Italian Strong Motion Network (RAN)" insttype="" lat="43.5922" lon="13.5074">
		<comp name="--.HGE" depth="0.0">
			<acc value="0.51679936778088" flag="0"/>
			<vel value="0.15444679192" flag="0"/>
			<psa03 value="0.407464159167622" flag="0"/>
			<psa10 value="0.0895680459433311" flag="0"/>
			<psa30 value="0.00619154099255769" flag="0"/>
		</comp>
		<comp name="--.HGN" depth="0.0">
			<acc value="0.42838307679138" flag="0"/>
			<vel value="0.143273229821" flag="0"/>
			<psa03 value="0.371611284090607" flag="0"/>
			<psa10 value="0.0678032166304516" flag="0"/>
			<psa30 value="0.00536702970606539" flag="0"/>
		</comp>
		<comp name="--.HGZ" depth="0.0">
			<acc value="0.16317719272758" flag="0"/>
			<vel value="0.0511231386626" flag="0"/>
			<psa03 value="0.235974298805948" flag="0"/>
			<psa10 value="0.0301568052403488" flag="0"/>
			<psa30 value="0.00316918869319548" flag="0"/>
		</comp>
	</station>
	<station code="APNO" name="APNO" netid="IT" source="Italian Strong Motion Network (RAN)" insttype="" lat="43.3638" lon="13.3451">
		<comp name="--.HNE" depth="0.0">
			<acc value="0.08087268106491" flag="0"/>
			<vel value="0.0268819200256" flag="0"/>
			<psa03 value="0.081440921103044" flag="0"/>
			<psa10 value="0.0392817859755418" flag="0"/>
			<psa30 value="0.0123009482107945" flag="0"/>
		</comp>
		<comp name="--.HNN" depth="0.0">
			<acc value="0.056583279929448" flag="0"/>
			<vel value="0.0238126318985" flag="0"/>
			<psa03 value="0.114075754875485" flag="0"/>
			<psa10 value="0.0293825420741983" flag="0"/>
			<psa30 value="0.010397133759087" flag="0"/>
		</comp>
		<comp name="--.HNZ" depth="0.0">
			<acc value="0.057633696006618" flag="0"/>
			<vel value="0.0147647367144" flag="0"/>
			<psa03 value="0.0662095839766539" flag="0"/>
			<psa10 value="0.0194080831902574" flag="0"/>
			<psa30 value="0.00834111005760158" flag="0"/>
		</comp>
	</station>
	<station code="ARCV" name="ARCV" netid="IT" source="Italian Strong Motion Network (RAN)" insttype="" lat="43.495" lon="12.9396">
		<comp name="--.HNE" depth="0.0">
			<acc value="0.033456572794566" flag="0"/>
			<vel value="0.0110757290031" flag="0"/>
			<psa03 value="0.0380719231197412" flag="0"/>
			<psa10 value="0.0163264815492603" flag="0"/>
			<psa30 value="0.00360205945209458" flag="0"/>
		</comp>
		<comp name="--.HNN" depth="0.0">
			<acc value="0.03806326979901" flag="0"/>
			<vel value="0.0153653907708" flag="0"/>
			<psa03 value="0.0518002440121669" flag="0"/>
			<psa10 value="0.0152502108766098" flag="0"/>
			<psa30 value="0.00537140541257606" flag="0"/>
		</comp>
		<comp name="--.HNZ" depth="0.0">
			<acc value="0.023744106310776" flag="0"/>
			<vel value="0.0114174669524" flag="0"/>
			<psa03 value="0.0321041710146227" flag="0"/>
			<psa10 value="0.0127555699939245" flag="0"/>
			<psa30 value="0.00479161742113259" flag="0"/>
		</comp>
	</station>
	<station code="CAGL" name="CAGL" netid="IT" source="Italian Strong Motion Network (RAN)" insttype="" lat="43.5475" lon="12.6495">
		<comp name="--.HNE" depth="0.0">
			<acc value="0.03800683413333" flag="0"/>
			<vel value="0.0180043561804" flag="0"/>
			<psa03 value="0.0789239679088773" flag="0"/>
			<psa10 value="0.0229080062929763" flag="0"/>
			<psa30 value="0.00202844916646723" flag="0"/>
		</comp>
		<comp name="--.HNN" depth="0.0">
			<acc value="0.030970481327964" flag="0"/>
			<vel value="0.0162718373091" flag="0"/>
			<psa03 value="0.0697501310205803" flag="0"/>
			<psa10 value="0.0359468363014734" flag="0"/>
			<psa30 value="0.00214186917998891" flag="0"/>
		</comp>
		<comp name="--.HNZ" depth="0.0">
			<acc value="0.036876482313558" flag="0"/>
			<vel value="0.0107989909811" flag="0"/>
			<psa03 value="0.0340104040640264" flag="0"/>
			<psa10 value="0.0250441909297223" flag="0"/>
			<psa30 value="0.00198812399512515" flag="0"/>
		</comp>
	</station>
	<station code="CES" name="CES" netid="IT" source="Italian Strong Motion Network (RAN)" insttype="" lat="44.2103" lon="12.3867">
		<comp name="--.HNE" depth="0.0">
			<acc value="0.061103046443166" flag="0"/>
			<vel value="0.0415315641054" flag="0"/>
			<psa03 value="0.17351092133017" flag="0"/>
			<psa10 value="0.0435456234337513" flag="0"/>
			<psa30 value="0.0173745976484875" flag="0"/>
		</comp>
		<comp name="--.HNN" depth="0.0">
			<acc value="0.076821534557772" flag="0"/>
			<vel value="0.0433522054214" flag="0"/>
			<psa03 value="0.23562444229618" flag="0"/>
			<psa10 value="0.0531330248022415" flag="0"/>
			<psa30 value="0.0144694485299367" flag="0"/>
		</comp>
		<comp name="--.HNZ" depth="0.0">
			<acc value="0.029609760283572" flag="0"/>
			<vel value="0.0244114041316" flag="0"/>
			<psa03 value="0.0702788014588546" flag="0"/>
			<psa10 value="0.0206365033170487" flag="0"/>
			<psa30 value="0.0121366456598772" flag="0"/>
		</comp>
	</station>
	<station code="CMRN" name="CMRN" netid="IT" source="Italian Strong Motion Network (RAN)" insttype="" lat="43.1392" lon="13.0718">
		<comp name="--.HNE" depth="0.0">
			<acc value="0.050000582584794" flag="0"/>
			<vel value="0.0335945051202" flag="0"/>
			<psa03 value="0.146292441156083" flag="0"/>
			<psa10 value="0.0624417002060639" flag="0"/>
			<psa30 value="0.00395988148938021" flag="0"/>
		</comp>
		<comp name="--.HNN" depth="0.0">
			<acc value="0.07162935947205" flag="0"/>
			<vel value="0.0411205150935" flag="0"/>
			<psa03 value="0.0906067626699791" flag="0"/>
			<psa10 value="0.0465956517333937" flag="0"/>
			<psa30 value="0.00802564082597971" flag="0"/>
		</comp>
		<comp name="--.HNZ" depth="0.0">
			<acc value="0.026642241513012" flag="0"/>
			<vel value="0.0212160742972" flag="0"/>
			<psa03 value="0.0713657588811388" flag="0"/>
			<psa10 value="0.0250560960934086" flag="0"/>
			<psa30 value="0.00431427704967904" flag="0"/>
		</comp>
	</station>
	<station code="CNTN" name="CNTN" netid="IT" source="Italian Strong Motion Network (RAN)" insttype="" lat="43.4729" lon="12.6303">
		<comp name="--.HNE" depth="0.0">
			<acc value="0.04754688675363" flag="0"/>
			<vel value="0.0199865937323" flag="0"/>
			<psa03 value="0.117600915483499" flag="0"/>
			<psa10 value="0.0155310941712833" flag="0"/>
			<psa30 value="0.00166860970387264" flag="0"/>
		</comp>
		<comp name="--.HNN" depth="0.0">
			<acc value="0.082764139138212" flag="0"/>
			<vel value="0.0165134409908" flag="0"/>
			<psa03 value="0.0542411088321273" flag="0"/>
			<psa10 value="0.014850925675952" flag="0"/>
			<psa30 value="0.00178136738184775" flag="0"/>
		</comp>
		<comp name="--.HNZ" depth="0.0">
			<acc value="0.031872404738418" flag="0"/>
			<vel value="0.0111965621131" flag="0"/>
			<psa03 value="0.0453291851275038" flag="0"/>
			<psa10 value="0.0211991474644794" flag="0"/>
			<psa30 value="0.0015260341131049" flag="0"/>
		</comp>
	</station>
	<station code="CTL" name="CTL" netid="IT" source="Italian Strong Motion Network (RAN)" insttype="" lat="43.955" lon="12.7358">
		<comp name="--.HNE" depth="0.0">
			<acc value="0.3413589779532" flag="0"/>
			<vel value="0.0954549724459" flag="0"/>
			<psa03 value="0.472557346269489" flag="0"/>
			<psa10 value="0.204087919823228" flag="0"/>
			<psa30 value="0.0109035931428759" flag="0"/>
		</comp>
		<comp name="--.HNN" depth="0.0">
			<acc value="0.25661354836524" flag="0"/>
			<vel value="0.117661976471" flag="0"/>
			<psa03 value="0.711708147173558" flag="0"/>
			<psa10 value="0.162851283098343" flag="0"/>
			<psa30 value="0.0103055626929565" flag="0"/>
		</comp>
		<comp name="--.HNZ" depth="0.0">
			<acc value="0.1518039727299" flag="0"/>
			<vel value="0.0526134169872" flag="0"/>
			<psa03 value="0.153550974081571" flag="0"/>
			<psa10 value="0.0834240664351498" flag="0"/>
			<psa30 value="0.00640913249024841" flag="0"/>
		</comp>
	</station>
	<station code="FBR" name="FBR" netid="IT" source="Italian Strong Motion Network (RAN)" insttype="" lat="43.3436" lon="12.9119">
		<comp name="--.HGE" depth="0.0">
			<acc value="0.035729141141226" flag="0"/>
			<vel value="0.0165770059677" flag="0"/>
			<psa03 value="0.127368593794143" flag="0"/>
			<psa10 value="0.0176524081354162" flag="0"/>
			<psa30 value="0.00404274114509139" flag="0"/>
		</comp>
		<comp name="--.HGN" depth="0.0">
			<acc value="0.042024468982536" flag="0"/>
			<vel value="0.022738724432" flag="0"/>
			<psa03 value="0.0730047476647632" flag="0"/>
			<psa10 value="0.0173540139932411" flag="0"/>
			<psa30 value="0.00313847103330316" flag="0"/>
		</comp>
		<comp name="--.HGZ" depth="0.0">
			<acc value="0.022476264604884" flag="0"/>
			<vel value="0.0145170616677" flag="0"/>
			<psa03 value="0.0316743873352256" flag="0"/>
			<psa10 value="0.0168000704222086" flag="0"/>
			<psa30 value="0.00179366986349213" flag="0"/>
		</comp>
	</station>
	<station code="FMNT" name="FMNT" netid="IT" source="Italian Strong Motion Network (RAN)" insttype="" lat="43.1836" lon="12.9381">
		<comp name="--.HNE" depth="0.0">
			<acc value="0.07120396002084" flag="0"/>
			<vel value="0.0418641362203" flag="0"/>
			<psa03 value="0.233935184557974" flag="0"/>
			<psa10 value="0.10926386319478" flag="0"/>
			<psa30 value="0.00292800375754455" flag="0"/>
		</comp>
		<comp name="--.HNN" depth="0.0">
			<acc value="0.077661400490028" flag="0"/>
			<vel value="0.0435899298743" flag="0"/>
			<psa03 value="0.169553617511486" flag="0"/>
			<psa10 value="0.056385930291023" flag="0"/>
			<psa30 value="0.0029059445879023" flag="0"/>
		</comp>
		<comp name="--.HNZ" depth="0.0">
			<acc value="0.039364579805694" flag="0"/>
			<vel value="0.0145477853445" flag="0"/>
			<psa03 value="0.0967582847613662" flag="0"/>
			<psa10 value="0.0100524649889518" flag="0"/>
			<psa30 value="0.00166805529214358" flag="0"/>
		</comp>
	</station>
	<station code="FSS" name="FSS" netid="IT" source="Italian Strong Motion Network (RAN)" insttype="" lat="43.6905" lon="12.8101">
		<comp name="--.HGE" depth="0.0">
			<acc value="0.18126392060568" flag="0"/>
			<vel value="0.032718088157" flag="0"/>
			<psa03 value="0.0736950486018594" flag="0"/>
			<psa10 value="0.0279047866801826" flag="0"/>
			<psa30 value="0.00471565363889363" flag="0"/>
		</comp>
		<comp name="--.HGN" depth="0.0">
			<acc value="0.11540494432152" flag="0"/>
			<vel value="0.0241916659543" flag="0"/>
			<psa03 value="0.0666725938155467" flag="0"/>
			<psa10 value="0.0205770543788596" flag="0"/>
			<psa30 value="0.00604938990908132" flag="0"/>
		</comp>
		<comp name="--.HGZ" depth="0.0">
			<acc value="0.088663999915362" flag="0"/>
			<vel value="0.017576994513" flag="0"/>
			<psa03 value="0.0336976255314858" flag="0"/>
			<psa10 value="0.0259777121459225" flag="0"/>
			<psa30 value="0.00459088037330066" flag="0"/>
		</comp>
	</station>
	<station code="GBB" name="GBB" netid="IT" source="Italian Strong Motion Network (RAN)" insttype="" lat="43.3569" lon="12.5972">
		<comp name="--.HGE" depth="0.0">
			<acc value="0.052787896999206" flag="0"/>
			<vel value="0.0213113707118" flag="0"/>
			<psa03 value="0.12186104144598" flag="0"/>
			<psa10 value="0.0145215976095833" flag="0"/>
			<psa30 value="0.00225532982119704" flag="0"/>
		</comp>
