<?xml version="1.0" encoding="UTF-8" standalone="yes"?>
<!DOCTYPE earthquake SYSTEM "stationlist.dtd">
<stationlist created="" xmlns="ch.ethz.sed.shakemap.usgs.xml">
  <station code="AOI" name="AOI" netid="IV" insttype="" lat="43.5502" lon="13.602">
    <comp name="--.HHE">
      <acc value="0.0530812189" flag="0"/>
      <vel value="0.0115004365" flag="0"/>
      <psa03 value="0.0584805796" flag="0"/>
      <psa10 value="0.0087297915" flag="0"/>
      <psa30 value="0.0016992104" flag="0"/>
    </comp>
    <comp name="--.HHN">
      <acc value="0.0670764705" flag="0"/>
      <vel value="0.0129866644" flag="0"/>
      <psa03 value="0.0405381590" flag="0"/>
      <psa10 value="0.0094597251" flag="0"/>
      <psa30 value="0.0010730621" flag="0"/>
    </comp>
    <comp name="--.HHZ">
      <acc value="0.0286921403" flag="0"/>
      <vel value="0.0075267646" flag="0"/>
      <psa03 value="0.0335361069" flag="0"/>
      <psa10 value="0.0088792223" flag="0"/>
      <psa30 value="0.0010435788" flag="0"/>
    </comp>
  </station>
  <station code="APEC" name="APEC" netid="IV" insttype="" lat="43.5585" lon="12.4199">
    <comp name="--.HHE">
      <acc value="0.0283999508" flag="0"/>
      <vel value="0.0163666763" flag="0"/>
      <psa03 value="0.0557810790" flag="0"/>
      <psa10 value="0.0209001473" flag="0"/>
      <psa30 value="0.0016214123" flag="0"/>
    </comp>
    <comp name="--.HHZ">
      <acc value="0.0285680357" flag="0"/>
      <vel value="0.0106127556" flag="0"/>
      <psa03 value="0.0654667718" flag="0"/>
      <psa10 value="0.0096407272" flag="0"/>
      <psa30 value="0.0017866339" flag="0"/>
    </comp>
    <comp name="--.HHN">
      <acc value="0.0326115387" flag="0"/>
      <vel value="0.0207763290" flag="0"/>
      <psa03 value="0.0851725162" flag="0"/>
      <psa10 value="0.0166257697" flag="0"/>
      <psa30 value="0.0017982675" flag="0"/>
    </comp>
  </station>
  <station code="ARVD" name="ARVD" netid="IV" insttype="" lat="43.4981" lon="12.9415">
    <comp name="--.HHE">
      <acc value="0.0279540588" flag="0"/>
      <vel value="0.0088306797" flag="0"/>
      <psa03 value="0.0305911662" flag="0"/>
      <psa10 value="0.0104106678" flag="0"/>
      <psa30 value="0.0025753852" flag="0"/>
    </comp>
    <comp name="--.HHZ">
      <acc value="0.0228457346" flag="0"/>
      <vel value="0.0090661149" flag="0"/>
      <psa03 value="0.0268959591" flag="0"/>
      <psa10 value="0.0106541754" flag="0"/>
      <psa30 value="0.0035146291" flag="0"/>
    </comp>
    <comp name="--.HHN">
      <acc value="0.0229178043" flag="0"/>
      <vel value="0.0087923600" flag="0"/>
      <psa03 value="0.0410632840" flag="0"/>
      <psa10 value="0.0124492833" flag="0"/>
      <psa30 value="0.0040540853" flag="0"/>
    </comp>
  </station>
  <station code="ASSB" name="ASSB" netid="IV" insttype="" lat="43.0426" lon="12.6587">
    <comp name="--.HHE">
      <acc value="0.0244701349" flag="0"/>
      <vel value="0.0110528817" flag="0"/>
      <psa03 value="0.0601152248" flag="0"/>
      <psa10 value="0.0119957300" flag="0"/>
      <psa30 value="0.0031507703" flag="0"/>
    </comp>
    <comp name="--.HHZ">
      <acc value="0.0154271221" flag="0"/>
      <vel value="0.0079108675" flag="0"/>
      <psa03 value="0.0332920280" flag="0"/>
      <psa10 value="0.0078454008" flag="0"/>
      <psa30 value="0.0025572014" flag="0"/>
    </comp>
    <comp name="--.HHN">
      <acc value="0.0303255800" flag="0"/>
      <vel value="0.0193148263" flag="0"/>
      <psa03 value="0.0999617096" flag="0"/>
      <psa10 value="0.0114347289" flag="0"/>
      <psa30 value="0.0031768836" flag="0"/>
    </comp>
  </station>
  <station code="ATBU" name="ATBU" netid="IV" insttype="" lat="43.4757" lon="12.5483">
    <comp name="--.HNN">
      <acc value="0.0536097800" flag="0"/>
      <vel value="0.0458262121" flag="0"/>
      <psa03 value="0.1816793054" flag="0"/>
      <psa10 value="0.0470543416" flag="0"/>
      <psa30 value="0.0037314074" flag="0"/>
    </comp>
    <comp name="--.HNZ">
      <acc value="0.0228417378" flag="0"/>
      <vel value="0.0142586766" flag="0"/>
      <psa03 value="0.0733853104" flag="0"/>
      <psa10 value="0.0179917732" flag="0"/>
      <psa30 value="0.0027459635" flag="0"/>
    </comp>
    <comp name="--.HNE">
      <acc value="0.0449004951" flag="0"/>
      <vel value="0.0368311014" flag="0"/>
      <psa03 value="0.1435967863" flag="0"/>
      <psa10 value="0.0473252050" flag="0"/>
      <psa30 value="0.0029039724" flag="0"/>
    </comp>
  </station>
  <station code="ATCC" name="ATCC" netid="IV" insttype="" lat="43.1851" lon="12.6399">
    <comp name="--.HNE">
      <acc value="0.0484779861" flag="0"/>
      <vel value="0.0167621548" flag="0"/>
      <psa03 value="0.0599711971" flag="0"/>
      <psa10 value="0.0327173670" flag="0"/>
      <psa30 value="0.0032503916" flag="0"/>
    </comp>
    <comp name="--.HNN">
      <acc value="0.0239108638" flag="0"/>
      <vel value="0.0132608597" flag="0"/>
      <psa03 value="0.0557007042" flag="0"/>
      <psa10 value="0.0212117785" flag="0"/>
      <psa30 value="0.0033331551" flag="0"/>
    </comp>
    <comp name="--.HNZ">
      <acc value="0.0140395330" flag="0"/>
      <vel value="0.0085443636" flag="0"/>
      <psa03 value="0.0279078229" flag="0"/>
      <psa10 value="0.0104355219" flag="0"/>
      <psa30 value="0.0034535676" flag="0"/>
    </comp>
  </station>
  <station code="ATFO" name="ATFO" netid="IV" insttype="" lat="43.3666" lon="12.5715">
    <comp name="--.HHE">
      <acc value="0.0348448959" flag="0"/>
      <vel value="0.0208534742" flag="0"/>
      <psa03 value="0.0706194725" flag="0"/>
      <psa10 value="0.0273082657" flag="0"/>
      <psa30 value="0.0027918535" flag="0"/>
    </comp>
    <comp name="--.HHZ">
      <acc value="0.0154601608" flag="0"/>
      <vel value="0.0065319624" flag="0"/>
      <psa03 value="0.0377629421" flag="0"/>
      <psa10 value="0.0118217138" flag="0"/>
      <psa30 value="0.0019081532" flag="0"/>
    </comp>
    <comp name="--.HHN">
      <acc value="0.0225436180" flag="0"/>
      <vel value="0.0163083559" flag="0"/>
      <psa03 value="0.0752811537" flag="0"/>
      <psa10 value="0.0227055039" flag="0"/>
      <psa30 value="0.0016188661" flag="0"/>
    </comp>
  </station>
  <station code="ATLO" name="ATLO" netid="IV" insttype="" lat="43.3152" lon="12.4073">
    <comp name="--.HNE">
      <acc value="0.0137281249" flag="0"/>
      <vel value="0.0084896759" flag="0"/>
      <psa03 value="0.0523570485" flag="0"/>
      <psa10 value="0.0102915210" flag="0"/>
      <psa30 value="0.0009911032" flag="0"/>
    </comp>
    <comp name="--.HNZ">
      <acc value="0.0023682893" flag="0"/>
      <vel value="0.0015629788" flag="0"/>
      <psa03 value="0.0072943784" flag="0"/>
      <psa10 value="0.0022067741" flag="0"/>
      <psa30 value="0.0002419219" flag="0"/>
    </comp>
    <comp name="--.HNN">
      <acc value="0.0162826122" flag="0"/>
      <vel value="0.0118925535" flag="0"/>
      <psa03 value="0.0630892827" flag="0"/>
      <psa10 value="0.0113162504" flag="0"/>
      <psa30 value="0.0013530130" flag="0"/>
    </comp>
  </station>
  <station code="ATMI" name="ATMI" netid="IV" insttype="" lat="43.3342" lon="12.268">
    <comp name="--.HHN">
      <acc value="0.0202393468" flag="0"/>
      <vel value="0.0182023203" flag="0"/>
      <psa03 value="0.0493625508" flag="0"/>
      <psa10 value="0.0247271371" flag="0"/>
      <psa30 value="0.0026812858" flag="0"/>
    </comp>
    <comp name="--.HHZ">
      <acc value="0.0101732813" flag="0"/>
      <vel value="0.0075782444" flag="0"/>
      <psa03 value="0.0354732919" flag="0"/>
      <psa10 value="0.0111704368" flag="0"/>
      <psa30 value="0.0009423090" flag="0"/>
    </comp>
    <comp name="--.HHE">
      <acc value="0.0201401961" flag="0"/>
      <vel value="0.0170862084" flag="0"/>
      <psa03 value="0.0520836430" flag="0"/>
      <psa10 value="0.0303556784" flag="0"/>
      <psa30 value="0.0019059302" flag="0"/>
    </comp>
  </station>
  <station code="ATPC" name="ATPC" netid="IV" insttype="" lat="43.4807" lon="12.457">
    <comp name="--.HHE">
      <acc value="0.0317386968" flag="0"/>
      <vel value="0.0203944048" flag="0"/>
      <psa03 value="0.1306013033" flag="0"/>
      <psa10 value="0.0315053599" flag="0"/>
      <psa30 value="0.0018081451" flag="0"/>
    </comp>
    <comp name="--.HHN">
      <acc value="0.0279862128" flag="0"/>
      <vel value="0.0148479312" flag="0"/>
      <psa03 value="0.0846656139" flag="0"/>
      <psa10 value="0.0253665694" flag="0"/>
      <psa30 value="0.0018920712" flag="0"/>
    </comp>
    <comp name="--.HHZ">
      <acc value="0.0164201699" flag="0"/>
      <vel value="0.0126635877" flag="0"/>
      <psa03 value="0.0437020233" flag="0"/>
      <psa10 value="0.0139498618" flag="0"/>
      <psa30 value="0.0015579805" flag="0"/>
    </comp>
  </station>
  <station code="ATPI" name="ATPI" netid="IV" insttype="" lat="43.4507" lon="12.4022">
    <comp name="--.HNE">
      <acc value="0.0147343092" flag="0"/>
      <vel value="0.0150668301" flag="0"/>
      <psa03 value="0.0425638421" flag="0"/>
      <psa10 value="0.0296081167" flag="0"/>
      <psa30 value="0.0022683900" flag="0"/>
    </comp>
    <comp name="--.HNZ">
      <acc value="0.0108227403" flag="0"/>
      <vel value="0.0103974770" flag="0"/>
      <psa03 value="0.0247371276" flag="0"/>
      <psa10 value="0.0340742854" flag="0"/>
      <psa30 value="0.0013099174" flag="0"/>
    </comp>
    <comp name="--.HNN">
      <acc value="0.0121527738" flag="0"/>
      <vel value="0.0113441989" flag="0"/>
      <psa03 value="0.0391162527" flag="0"/>
      <psa10 value="0.0170320520" flag="0"/>
      <psa30 value="0.0015154353" flag="0"/>
    </comp>
  </station>
  <station code="BRIS" name="BRIS" netid="IV" insttype="" lat="44.2245" lon="11.7666">
    <comp name="--.HHE">
      <acc value="0.0092994941" flag="0"/>
      <vel value="0.0064244030" flag="0"/>
      <psa03 value="0.0247344842" flag="0"/>
      <psa10 value="0.0061639741" flag="0"/>
      <psa30 value="0.0013945428" flag="0"/>
    </comp>
    <comp name="--.HHN">
      <acc value="0.0089611002" flag="0"/>
      <vel value="0.0089980228" flag="0"/>
      <psa03 value="0.0237125360" flag="0"/>
      <psa10 value="0.0064598058" flag="0"/>
      <psa30 value="0.0010849647" flag="0"/>
    </comp>
    <comp name="--.HHZ">
      <acc value="0.0055766288" flag="0"/>
      <vel value="0.0050786399" flag="0"/>
      <psa03 value="0.0153446825" flag="0"/>
      <psa10 value="0.0133798518" flag="0"/>
      <psa30 value="0.0004756132" flag="0"/>
    </comp>
  </station>
  <station code="BRSN" name="BRSN" netid="IV" insttype="" lat="44.2842" lon="12.0802">
    <comp name="--.HNE">
      <acc value="0.0377661730" flag="0"/>
      <vel value="0.0405208633" flag="0"/>
      <psa03 value="0.1284056324" flag="0"/>
      <psa10 value="0.0739857743" flag="0"/>
      <psa30 value="0.0103874706" flag="0"/>
    </comp>
    <comp name="--.HNN">
      <acc value="0.0359446650" flag="0"/>
      <vel value="0.0265137133" flag="0"/>
      <psa03 value="0.0955726633" flag="0"/>
      <psa10 value="0.0430619840" flag="0"/>
      <psa30 value="0.0052537596" flag="0"/>
    </comp>
    <comp name="--.HNZ">
      <acc value="0.0093293134" flag="0"/>
      <vel value="0.0079182859" flag="0"/>
      <psa03 value="0.0279964040" flag="0"/>
      <psa10 value="0.0215785517" flag="0"/>
      <psa30 value="0.0023821361" flag="0"/>
    </comp>
  </station>
  <station code="CAFI" name="CAFI" netid="IV" insttype="" lat="43.3292" lon="11.9663">
    <comp name="--.HHE">
      <acc value="0.0099126616" flag="0"/>
      <vel value="0.0142568709" flag="0"/>
      <psa03 value="0.0238817266" flag="0"/>
      <psa10 value="0.0164563464" flag="0"/>
      <psa30 value="0.0037189220" flag="0"/>
    </comp>
    <comp name="--.HHN">
      <acc value="0.0085012588" flag="0"/>
      <vel value="0.0153779198" flag="0"/>
      <psa03 value="0.0194223425" flag="0"/>
      <psa10 value="0.0164343954" flag="0"/>
      <psa30 value="0.0034050799" flag="0"/>
    </comp>
    <comp name="--.HHZ">
      <acc value="0.0062343472" flag="0"/>
      <vel value="0.0106863449" flag="0"/>
      <psa03 value="0.0155694590" flag="0"/>
      <psa10 value="0.0108955638" flag="0"/>
      <psa30 value="0.0021965811" flag="0"/>
    </comp>
  </station>
  <station code="CESI" name="CESI" netid="IV" insttype="" lat="43.0049" lon="12.9046">
    <comp name="--.HHE">
      <acc value="0.0297315189" flag="0"/>
      <vel value="0.0146045626" flag="0"/>
      <psa03 value="0.0736876837" flag="0"/>
      <psa10 value="0.0163331101" flag="0"/>
      <psa30 value="0.0017943626" flag="0"/>
    </comp>
    <comp name="--.HHZ">
      <acc value="0.0263333852" flag="0"/>
      <vel value="0.0081150242" flag="0"/>
      <psa03 value="0.0337432612" flag="0"/>
      <psa10 value="0.0055781271" flag="0"/>
      <psa30 value="0.0015060001" flag="0"/>
    </comp>
    <comp name="--.HHN">
      <acc value="0.0254526864" flag="0"/>
      <vel value="0.0150668757" flag="0"/>
      <psa03 value="0.0713837192" flag="0"/>
      <psa10 value="0.0133970365" flag="0"/>
      <psa30 value="0.0013966174" flag="0"/>
    </comp>
  </station>
  <station code="CING" name="CING" netid="IV" insttype="" lat="43.3756" lon="13.1954">
    <comp name="--.HHN">
      <acc value="0.0245313197" flag="0"/>
      <vel value="0.0075217410" flag="0"/>
      <psa03 value="0.0294492081" flag="0"/>
      <psa10 value="0.0075729524" flag="0"/>
      <psa30 value="0.0032736535" flag="0"/>
    </comp>
    <comp name="--.HHE">
      <acc value="0.0213643911" flag="0"/>
      <vel value="0.0076111733" flag="0"/>
      <psa03 value="0.0351712183" flag="0"/>
      <psa10 value="0.0097270693" flag="0"/>
      <psa30 value="0.0034967317" flag="0"/>
    </comp>
    <comp name="--.HHZ">
      <acc value="0.0157882830" flag="0"/>
      <vel value="0.0067087401" flag="0"/>
      <psa03 value="0.0305263162" flag="0"/>
      <psa10 value="0.0070826862" flag="0"/>
      <psa30 value="0.0060070528" flag="0"/>
    </comp>
  </station>
  <station code="COR1" name="COR1" netid="IV" insttype="" lat="43.6318" lon="13.0003">
    <comp name="--.HNE">
      <acc value="0.1537665504" flag="0"/>
      <vel value="0.0526830800" flag="0"/>
      <psa03 value="0.2281566433" flag="0"/>
      <psa10 value="0.1085601664" flag="0"/>
      <psa30 value="0.0192709965" flag="0"/>
    </comp>
    <comp name="--.HNN">
      <acc value="0.2537087924" flag="0"/>
      <vel value="0.0743503997" flag="0"/>
      <psa03 value="0.2479592570" flag="0"/>
      <psa10 value="0.2082132474" flag="0"/>
      <psa30 value="0.0240339195" flag="0"/>
    </comp>
    <comp name="--.HNZ">
      <acc value="0.1926367009" flag="0"/>
      <vel value="0.0467136920" flag="0"/>
      <psa03 value="0.2176466988" flag="0"/>
      <psa10 value="0.0837088982" flag="0"/>
      <psa30 value="0.0117018698" flag="0"/>
    </comp>
  </station>
  <station code="CRE" name="CRE" netid="IV" insttype="" lat="43.6189" lon="11.9517">
    <comp name="--.HHE">
      <acc value="0.0099229495" flag="0"/>
      <vel value="0.0150164903" flag="0"/>
      <psa03 value="0.0279892184" flag="0"/>
      <psa10 value="0.0163350970" flag="0"/>
      <psa30 value="0.0024029654" flag="0"/>
    </comp>
    <comp name="--.HHN">
      <acc value="0.0127685340" flag="0"/>
      <vel value="0.0150034528" flag="0"/>
      <psa03 value="0.0339378861" flag="0"/>
      <psa10 value="0.0161805623" flag="0"/>
      <psa30 value="0.0028236852" flag="0"/>
    </comp>
    <comp name="--.HHZ">
      <acc value="0.0110567073" flag="0"/>
      <vel value="0.0081973125" flag="0"/>
      <psa03 value="0.0193428603" flag="0"/>
      <psa10 value="0.0115269840" flag="0"/>
      <psa30 value="0.0011617327" flag="0"/>
    </comp>
  </station>
  <station code="CRTC" name="CRTC" netid="IV" insttype="" lat="43.7685" lon="12.883">
    <comp name="--.HHE">
      <acc value="0.1517135596" flag="0"/>
      <vel value="0.0793164909" flag="0"/>
      <psa03 value="0.4420092958" flag="0"/>
      <psa10 value="0.0916636728" flag="0"/>
      <psa30 value="0.0157620948" flag="0"/>
    </comp>
    <comp name="--.HHN">
      <acc value="0.1207091486" flag="0"/>
      <vel value="0.0663812385" flag="0"/>
      <psa03 value="0.3166174536" flag="0"/>
      <psa10 value="0.1633621923" flag="0"/>
      <psa30 value="0.0068187530" flag="0"/>
    </comp>
    <comp name="--.HHZ">
      <acc value="0.1398553339" flag="0"/>
      <vel value="0.0603461292" flag="0"/>
      <psa03 value="0.2777319381" flag="0"/>
      <psa10 value="0.1102265137" flag="0"/>
      <psa30 value="0.0131887893" flag="0"/>
    </comp>
  </station>
  <station code="FANO" name="FANO" netid="IV" insttype="" lat="43.8435" lon="13.0184">
    <comp name="--.HNE">
      <acc value="0.5162010318" flag="0"/>
      <vel value="0.2234644389" flag="0"/>
      <psa03 value="1.0887147314" flag="0"/>
      <psa10 value="0.3308911349" flag="0"/>
      <psa30 value="0.0206125976" flag="0"/>
    </comp>
    <comp name="--.HNN">
      <acc value="0.4936218182" flag="0"/>
      <vel value="0.2464021622" flag="0"/>
      <psa03 value="1.0404764111" flag="0"/>
      <psa10 value="0.4783844269" flag="0"/>
      <psa30 value="0.0440654121" flag="0"/>
    </comp>
    <comp name="--.HNZ">
      <acc value="0.3871567459" flag="0"/>
      <vel value="0.1065315947" flag="0"/>
      <psa03 value="0.4454352425" flag="0"/>
      <psa10 value="0.1604048728" flag="0"/>
      <psa30 value="0.0303293837" flag="0"/>
    </comp>
  </station>
  <station code="FCOR" name="FCOR" netid="IV" insttype="" lat="43.7691" lon="12.8146">
    <comp name="--.HNN">
      <acc value="0.1007150571" flag="0"/>
      <vel value="0.0443542299" flag="0"/>
      <psa03 value="0.2463255184" flag="0"/>
      <psa10 value="0.0568697692" flag="0"/>
      <psa30 value="0.0051899791" flag="0"/>
    </comp>
    <comp name="--.HNE">
      <acc value="0.1166534052" flag="0"/>
      <vel value="0.0623895407" flag="0"/>
      <psa03 value="0.2020664974" flag="0"/>
      <psa10 value="0.0769028224" flag="0"/>
      <psa30 value="0.0091261054" flag="0"/>
    </comp>
    <comp name="--.HNZ">
      <acc value="0.1201518184" flag="0"/>
      <vel value="0.0227391528" flag="0"/>
      <psa03 value="0.1153894747" flag="0"/>
      <psa10 value="0.0608139434" flag="0"/>
      <psa30 value="0.0060826227" flag="0"/>
    </comp>
  </station>
  <station code="FDMO" name="FDMO" netid="IV" insttype="" lat="43.0365" lon="13.0873">
    <comp name="--.HHE">
      <acc value="0.0260254815" flag="0"/>
      <vel value="0.0164946408" flag="0"/>
      <psa03 value="0.0574355293" flag="0"/>
      <psa10 value="0.0192740768" flag="0"/>
      <psa30 value="0.0012925608" flag="0"/>
    </comp>
    <comp name="--.HHN">
      <acc value="0.0229255505" flag="0"/>
      <vel value="0.0086029409" flag="0"/>
      <psa03 value="0.0340836281" flag="0"/>
      <psa10 value="0.0078811967" flag="0"/>
      <psa30 value="0.0028129398" flag="0"/>
    </comp>
    <comp name="--.HHZ">
      <acc value="0.0149448810" flag="0"/>
      <vel value="0.0063637419" flag="0"/>
      <psa03 value="0.0235820304" flag="0"/>
      <psa10 value="0.0087912955" flag="0"/>
      <psa30 value="0.0033552125" flag="0"/>
    </comp>
  </station>
  <station code="FEMA" name="FEMA" netid="IV" insttype="" lat="42.9621" lon="13.0498">
    <comp name="--.HNN">
      <acc value="0.0448124708" flag="0"/>
      <vel value="0.0279959690" flag="0"/>
      <psa03 value="0.0817701361" flag="0"/>
      <psa10 value="0.0265649212" flag="0"/>
      <psa30 value="0.0027881762" flag="0"/>
    </comp>
    <comp name="--.HNE">
      <acc value="0.0424109659" flag="0"/>
      <vel value="0.0282832948" flag="0"/>
      <psa03 value="0.0869204123" flag="0"/>
      <psa10 value="0.0282457270" flag="0"/>
      <psa30 value="0.0021373825" flag="0"/>
    </comp>
