<?xml version="1.0" encoding="UTF-8" standalone="yes"?>
<!DOCTYPE earthquake SYSTEM "stationlist.dtd">
<stationlist created="" xmlns="ch.ethz.sed.shakemap.usgs.xml">
  <station code="CEYT" name="CEYT" netid="KO" insttype="CMG-3ESP" lat="37.0105" lon="35.7478">
    <comp name="--.HHZ">
      <acc value="0.0029981104" flag="0"/>
      <vel value="0.0021539871" flag="0"/>
      <psa03 value="0.0046866898" flag="0"/>
      <psa10 value="0.0048146325" flag="0"/>
      <psa30 value="0.0003538467" flag="0"/>
    </comp>
    <comp name="--.HHE">
      <acc value="0.0051823519" flag="0"/>
      <vel value="0.0054760671" flag="0"/>
      <psa03 value="0.0105811605" flag="0"/>
      <psa10 value="0.0098849795" flag="0"/>
      <psa30 value="0.0006853231" flag="0"/>
    </comp>
  </station>
  <station code="GAZ" name="GAZ" netid="KO" insttype="CMG-3T" lat="37.1721" lon="37.2096">
    <comp name="--.HHE">
      <acc value="0.0182758100" flag="0"/>
      <vel value="0.0100163275" flag="0"/>
      <psa03 value="0.0251865790" flag="0"/>
      <psa10 value="0.0064866578" flag="0"/>
      <psa30 value="0.0006231879" flag="0"/>
    </comp>
    <comp name="--.HHN">
      <acc value="0.0144465197" flag="0"/>
      <vel value="0.0072471475" flag="0"/>
      <psa03 value="0.0272593846" flag="0"/>
      <psa10 value="0.0061054955" flag="0"/>
      <psa30 value="0.0005579950" flag="0"/>
    </comp>
    <comp name="--.HHZ">
      <acc value="0.0111028465" flag="0"/>
      <vel value="0.0035655027" flag="0"/>
      <psa03 value="0.0174290364" flag="0"/>
      <psa10 value="0.0042014736" flag="0"/>
      <psa30 value="0.0002612238" flag="0"/>
    </comp>
  </station>
  <station code="KHMN" name="KHMN" netid="KO" insttype="CMG-5T" lat="37.3916" lon="37.1574">
    <comp name="--.HNE">
      <acc value="0.0320176447" flag="0"/>
      <vel value="0.0110325591" flag="0"/>
      <psa03 value="0.0576772251" flag="0"/>
      <psa10 value="0.0048734920" flag="0"/>
      <psa30 value="0.0005760616" flag="0"/>
    </comp>
    <comp name="--.HNN">
      <acc value="0.0287396816" flag="0"/>
      <vel value="0.0085285411" flag="0"/>
      <psa03 value="0.0205468415" flag="0"/>
      <psa10 value="0.0029364186" flag="0"/>
      <psa30 value="0.0004649701" flag="0"/>
    </comp>
    <comp name="--.HNZ">
      <acc value="0.0200271881" flag="0"/>
      <vel value="0.0040155304" flag="0"/>
      <psa03 value="0.0271059463" flag="0"/>
      <psa10 value="0.0027243901" flag="0"/>
      <psa30 value="0.0003526180" flag="0"/>
    </comp>
  </station>
  <station code="ANDN" name="ANDN" netid="TU" insttype="T" lat="37.58" lon="36.3452">
    <comp name="--.HHE">
      <acc value="0.4250656141" flag="0"/>
      <vel value="0.1276906775" flag="0"/>
      <psa03 value="0.2614875520" flag="0"/>
      <psa10 value="0.0609459949" flag="0"/>
      <psa30 value="0.0043683758" flag="0"/>
    </comp>
    <comp name="--.HHZ">
      <acc value="0.1622726596" flag="0"/>
      <vel value="0.0409666714" flag="0"/>
      <psa03 value="0.1208230601" flag="0"/>
      <psa10 value="0.0493059420" flag="0"/>
      <psa30 value="0.0027417079" flag="0"/>
    </comp>
    <comp name="--.HHN">
      <acc value="0.7143575285" flag="0"/>
      <vel value="0.1467128063" flag="0"/>
      <psa03 value="0.3090242149" flag="0"/>
      <psa10 value="0.0580661099" flag="0"/>
      <psa30 value="0.0027710501" flag="0"/>
    </comp>
  </station>
</stationlist>
