<stationlist created="1729180875">
	<station code="ARPRA" name="ARPRA" netid="KO" source="Bogazici University Kandilli Observatory And Earthquake Research Institute (KOERI)" insttype="" lat="39.0929" lon="38.3356">
		<comp name=".HNE" depth="0.0">
			<acc value="0.046923691023816" flag="0"/>
			<vel value="0.0195360768065" flag="0"/>
			<psa03 value="0.155479883112735" flag="0"/>
			<psa10 value="0.0152645715154363" flag="0"/>
			<psa30 value="0.00126838954541683" flag="0"/>
		</comp>
		<comp name=".HNN" depth="0.0">
			<acc value="0.047062550271972" flag="0"/>
			<vel value="0.024139116341" flag="0"/>
			<psa03 value="0.157841945837619" flag="0"/>
			<psa10 value="0.0171823369954804" flag="0"/>
			<psa30 value="0.0011030434878846" flag="0"/>
		</comp>
		<comp name=".HNZ" depth="0.0">
			<acc value="0.020070574941324" flag="0"/>
			<vel value="0.00913792921443" flag="0"/>
			<psa03 value="0.0364001222669514" flag="0"/>
			<psa10 value="0.00944049944926137" flag="0"/>
			<psa30 value="0.000758221322190239" flag="0"/>
		</comp>
	</station>
	<station code="ERBG" name="ERBG" netid="KO" source="Bogazici University Kandilli Observatory And Earthquake Research Institute (KOERI)" insttype="" lat="40.712" lon="36.6768">
		<comp name=".HNE" depth="0.0">
			<acc value="0.017116270809732" flag="0"/>
			<vel value="0.00623674729229" flag="0"/>
			<psa03 value="0.0187382504316896" flag="0"/>
			<psa10 value="0.00982835014247948" flag="0"/>
			<psa30 value="0.000970568774583761" flag="0"/>
		</comp>
		<comp name=".HNN" depth="0.0">
			<acc value="0.01312661719845" flag="0"/>
			<vel value="0.00843114087164" flag="0"/>
			<psa03 value="0.0173551262544353" flag="0"/>
			<psa10 value="0.0123589240305553" flag="0"/>
			<psa30 value="0.000856923173205277" flag="0"/>
		</comp>
		<comp name=".HNZ" depth="0.0">
			<acc value="0.0041636422149708" flag="0"/>
			<vel value="0.00445493398156" flag="0"/>
			<psa03 value="0.00805317866584265" flag="0"/>
			<psa10 value="0.00779263184862753" flag="0"/>
			<psa30 value="0.00119802175889595" flag="0"/>
		</comp>
	</station>
	<station code="GUMT" name="GUMT" netid="KO" source="Bogazici University Kandilli Observatory And Earthquake Research Institute (KOERI)" insttype="" lat="40.4665" lon="39.478">
		<comp name=".HNE" depth="0.0">
			<acc value="0.0037761594774246" flag="0"/>
			<vel value="0.00251336015421" flag="0"/>
			<psa03 value="0.0112423111541756" flag="0"/>
			<psa10 value="0.00311534121981717" flag="0"/>
			<psa30 value="0.000527061165217366" flag="0"/>
		</comp>
		<comp name=".HNN" depth="0.0">
			<acc value="0.004228769396082" flag="0"/>
			<vel value="0.00326068936436" flag="0"/>
			<psa03 value="0.0099744107557738" flag="0"/>
			<psa10 value="0.00235918261239338" flag="0"/>
			<psa30 value="0.000454561935413029" flag="0"/>
		</comp>
		<comp name=".HNZ" depth="0.0">
			<acc value="0.0056000073371544" flag="0"/>
			<vel value="0.00434235190498" flag="0"/>
			<psa03 value="0.0129059330797394" flag="0"/>
			<psa10 value="0.00390446966757942" flag="0"/>
			<psa30 value="0.000401416565835718" flag="0"/>
		</comp>
	</station>
	<station code="KOZK" name="KOZK" netid="KO" source="Bogazici University Kandilli Observatory And Earthquake Research Institute (KOERI)" insttype="" lat="39.2101" lon="34.868">
		<comp name=".HNE" depth="0.0">
			<acc value="0.0039876360515064" flag="0"/>
			<vel value="0.00502645010805" flag="0"/>
			<psa03 value="0.0101462092459228" flag="0"/>
			<psa10 value="0.0111338847527247" flag="0"/>
			<psa30 value="0.000814605786550557" flag="0"/>
		</comp>
		<comp name=".HNN" depth="0.0">
			<acc value="0.0051034002546396" flag="0"/>
			<vel value="0.00593672254179" flag="0"/>
			<psa03 value="0.00962416815288763" flag="0"/>
			<psa10 value="0.0115493832149689" flag="0"/>
			<psa30 value="0.000820777705826926" flag="0"/>
		</comp>
		<comp name=".HNZ" depth="0.0">
			<acc value="0.0035138600115528" flag="0"/>
			<vel value="0.00225464594361" flag="0"/>
			<psa03 value="0.0106135370791146" flag="0"/>
			<psa10 value="0.00317033087823746" flag="0"/>
			<psa30 value="0.000272610194504225" flag="0"/>
		</comp>
	</station>
	<station code="KYHL" name="KYHL" netid="KO" source="Bogazici University Kandilli Observatory And Earthquake Research Institute (KOERI)" insttype="" lat="40.3244" lon="37.8955">
		<comp name=".HNE" depth="0.0">
			<acc value="0.030250583904" flag="0"/>
			<vel value="0.0164823664712" flag="0"/>
			<psa03 value="0.116275931876341" flag="0"/>
			<psa10 value="0.00913632992451529" flag="0"/>
			<psa30 value="0.00095575977272669" flag="0"/>
		</comp>
		<comp name=".HNN" depth="0.0">
			<acc value="0.032225266899114" flag="0"/>
			<vel value="0.0148166249944" flag="0"/>
			<psa03 value="0.132975277709509" flag="0"/>
			<psa10 value="0.0106331197044759" flag="0"/>
			<psa30 value="0.000698027334633377" flag="0"/>
		</comp>
		<comp name=".HNZ" depth="0.0">
			<acc value="0.01979164239042" flag="0"/>
			<vel value="0.00623996041261" flag="0"/>
			<psa03 value="0.04065547447567" flag="0"/>
			<psa10 value="0.00787552827760934" flag="0"/>
			<psa30 value="0.000501785428324015" flag="0"/>
		</comp>
	</station>
	<station code="RFHY" name="RFHY" netid="KO" source="Bogazici University Kandilli Observatory And Earthquake Research Institute (KOERI)" insttype="" lat="39.927" lon="38.833">
		<comp name=".HNE" depth="0.0">
			<acc value="0.0022225296022182" flag="0"/>
			<vel value="0.00648839419362" flag="0"/>
			<psa03 value="0.00309179986865116" flag="0"/>
			<psa10 value="0.00195996374423044" flag="0"/>
			<psa30 value="0.00641021672872304" flag="0"/>
		</comp>
		<comp name=".HNN" depth="0.0">
			<acc value="0.020339110200564" flag="0"/>
			<vel value="0.0140945821116" flag="0"/>
			<psa03 value="0.0475930486393931" flag="0"/>
			<psa10 value="0.01519764833212" flag="0"/>
			<psa30 value="0.00379939085766275" flag="0"/>
		</comp>
		<comp name=".HNZ" depth="0.0">
			<acc value="0.011483729023014" flag="0"/>
			<vel value="0.00709294219087" flag="0"/>
			<psa03 value="0.0308031551412038" flag="0"/>
			<psa10 value="0.00851249953631848" flag="0"/>
			<psa30 value="0.00128316948284834" flag="0"/>
		</comp>
	</station>
	<station code="TUNC" name="TUNC" netid="KO" source="Bogazici University Kandilli Observatory And Earthquake Research Institute (KOERI)" insttype="" lat="39.6942" lon="37.5388">
		<comp name=".HNE" depth="0.0">
			<acc value="1.0143824886588" flag="0"/>
			<vel value="0.430523654746" flag="0"/>
			<psa03 value="2.17915952529009" flag="0"/>
			<psa10 value="0.157945403107622" flag="0"/>
			<psa30 value="0.0145841144593328" flag="0"/>
		</comp>
		<comp name=".HNN" depth="0.0">
			<acc value="1.5622070605308" flag="0"/>
			<vel value="0.486346185003" flag="0"/>
			<psa03 value="1.99087938598752" flag="0"/>
			<psa10 value="0.229392796146815" flag="0"/>
			<psa30 value="0.0242006581748478" flag="0"/>
		</comp>
		<comp name=".HNZ" depth="0.0">
			<acc value="0.99912941186466" flag="0"/>
			<vel value="0.259002239584" flag="0"/>
			<psa03 value="1.06439801114367" flag="0"/>
			<psa10 value="0.0914171959406206" flag="0"/>
			<psa30 value="0.00957817367365036" flag="0"/>
		</comp>
	</station>
</stationlist>
