<?xml version="1.0" encoding="UTF-8" standalone="yes"?>
<!DOCTYPE earthquake SYSTEM "stationlist.dtd">
<stationlist created="" xmlns="ch.ethz.sed.shakemap.usgs.xml">
  <station code="ARPRA" name="ARPRA" netid="KO" insttype="CMG-5T" lat="39.0929" lon="38.3356">
    <comp name="--.HNN">
      <acc value="0.0472269243" flag="0"/>
      <vel value="0.0238802172" flag="0"/>
      <psa03 value="0.1585136818" flag="0"/>
      <psa10 value="0.0172431943" flag="0"/>
      <psa30 value="0.0010712060" flag="0"/>
    </comp>
    <comp name="--.HNZ">
      <acc value="0.0200162039" flag="0"/>
      <vel value="0.0090276779" flag="0"/>
      <psa03 value="0.0368123991" flag="0"/>
      <psa10 value="0.0093580104" flag="0"/>
      <psa30 value="0.0007021092" flag="0"/>
    </comp>
    <comp name="--.HNE">
      <acc value="0.0473448221" flag="0"/>
      <vel value="0.0194390008" flag="0"/>
      <psa03 value="0.1537324283" flag="0"/>
      <psa10 value="0.0152175858" flag="0"/>
      <psa30 value="0.0011123463" flag="0"/>
    </comp>
  </station>
  <station code="DARE" name="DARE" netid="KO" insttype="CMG-3ESP" lat="38.5712" lon="37.4832">
    <comp name="--.HHN">
      <acc value="0.0033728966" flag="0"/>
      <vel value="0.0023206701" flag="0"/>
      <psa03 value="0.0080382837" flag="0"/>
      <psa10 value="0.0027445698" flag="0"/>
      <psa30 value="0.0001863588" flag="0"/>
    </comp>
    <comp name="--.HHE">
      <acc value="0.0038097750" flag="0"/>
      <vel value="0.0028354080" flag="0"/>
      <psa03 value="0.0104942432" flag="0"/>
      <psa10 value="0.0033462028" flag="0"/>
      <psa30 value="0.0002989411" flag="0"/>
    </comp>
    <comp name="--.HHZ">
      <acc value="0.0037112523" flag="0"/>
      <vel value="0.0019293953" flag="0"/>
      <psa03 value="0.0099001408" flag="0"/>
      <psa10 value="0.0045705328" flag="0"/>
      <psa30 value="0.0002970498" flag="0"/>
    </comp>
  </station>
  <station code="KYHL" name="KYHL" netid="KO" insttype="CMG-5T" lat="40.3244" lon="37.8955">
    <comp name="--.HNE">
      <acc value="0.0301963356" flag="0"/>
      <vel value="0.0165005388" flag="0"/>
      <psa03 value="0.1140374905" flag="0"/>
      <psa10 value="0.0091111337" flag="0"/>
      <psa30 value="0.0009329713" flag="0"/>
    </comp>
    <comp name="--.HNZ">
      <acc value="0.0202618258" flag="0"/>
      <vel value="0.0060148585" flag="0"/>
      <psa03 value="0.0408767256" flag="0"/>
      <psa10 value="0.0078728127" flag="0"/>
      <psa30 value="0.0004516021" flag="0"/>
    </comp>
    <comp name="--.HNN">
      <acc value="0.0326155049" flag="0"/>
      <vel value="0.0146575997" flag="0"/>
      <psa03 value="0.1332206536" flag="0"/>
      <psa10 value="0.0105657614" flag="0"/>
      <psa30 value="0.0006687718" flag="0"/>
    </comp>
  </station>
  <station code="RSDY" name="RSDY" netid="KO" insttype="CMG-3T" lat="40.3971" lon="37.3273">
    <comp name="--.HHE">
      <acc value="0.0155183698" flag="0"/>
      <vel value="0.0127163330" flag="0"/>
      <psa03 value="0.0346466353" flag="0"/>
      <psa10 value="0.0143262073" flag="0"/>
      <psa30 value="0.0009344765" flag="0"/>
    </comp>
    <comp name="--.HHZ">
      <acc value="0.0109895811" flag="0"/>
      <vel value="0.0057632726" flag="0"/>
      <psa03 value="0.0235847906" flag="0"/>
      <psa10 value="0.0050253743" flag="0"/>
      <psa30 value="0.0003942196" flag="0"/>
    </comp>
    <comp name="--.HHN">
      <acc value="0.0147823104" flag="0"/>
      <vel value="0.0100802815" flag="0"/>
      <psa03 value="0.0319808323" flag="0"/>
      <psa10 value="0.0164731899" flag="0"/>
      <psa30 value="0.0005712729" flag="0"/>
    </comp>
  </station>
  <station code="SVSK" name="SVSK" netid="KO" insttype="CMG-3T" lat="39.9157" lon="36.9925">
    <comp name="--.HHN">
      <acc value="0.1978901697" flag="0"/>
      <vel value="0.0320055714" flag="0"/>
      <psa03 value="0.1402166315" flag="0"/>
      <psa10 value="0.0121935855" flag="0"/>
      <psa30 value="0.0009858622" flag="0"/>
    </comp>
    <comp name="--.HHE">
      <acc value="0.2003312767" flag="0"/>
      <vel value="0.0557250694" flag="0"/>
      <psa03 value="0.2842565593" flag="0"/>
      <psa10 value="0.0143788119" flag="0"/>
      <psa30 value="0.0012644043" flag="0"/>
    </comp>
    <comp name="--.HHZ">
      <acc value="0.0845428767" flag="0"/>
      <vel value="0.0196853424" flag="0"/>
      <psa03 value="0.1180038347" flag="0"/>
      <psa10 value="0.0118660057" flag="0"/>
      <psa30 value="0.0012421047" flag="0"/>
    </comp>
  </station>
  <station code="TOKT" name="TOKT" netid="KO" insttype="CMG-3T" lat="40.3173" lon="36.5443">
    <comp name="--.HHE">
      <acc value="0.0106579906" flag="0"/>
      <vel value="0.0045111141" flag="0"/>
      <psa03 value="0.0198109091" flag="0"/>
      <psa10 value="0.0026683611" flag="0"/>
      <psa30 value="0.0003732302" flag="0"/>
    </comp>
    <comp name="--.HHN">
      <acc value="0.0110657997" flag="0"/>
      <vel value="0.0067589948" flag="0"/>
      <psa03 value="0.0316595910" flag="0"/>
      <psa10 value="0.0058560797" flag="0"/>
      <psa30 value="0.0002961163" flag="0"/>
    </comp>
    <comp name="--.HHZ">
      <acc value="0.0000463362" flag="0"/>
      <vel value="0.0000047884" flag="0"/>
      <psa03 value="0.0000142447" flag="0"/>
      <psa10 value="0.0000057156" flag="0"/>
      <psa30 value="0.0000009056" flag="0"/>
    </comp>
  </station>
  <station code="TUNC" name="TUNC" netid="KO" insttype="CMG-5T" lat="39.6942" lon="37.5388">
    <comp name="--.HNZ">
      <acc value="1.0156019774" flag="0"/>
      <vel value="0.2560813174" flag="0"/>
      <psa03 value="1.0479040372" flag="0"/>
      <psa10 value="0.0914167129" flag="0"/>
      <psa30 value="0.0086619179" flag="0"/>
    </comp>
    <comp name="--.HNE">
      <acc value="1.0451360327" flag="0"/>
      <vel value="0.4305021139" flag="0"/>
      <psa03 value="2.1544994657" flag="0"/>
      <psa10 value="0.1572164320" flag="0"/>
      <psa30 value="0.0137912652" flag="0"/>
    </comp>
    <comp name="--.HNN">
      <acc value="1.5679095852" flag="0"/>
      <vel value="0.4797018595" flag="0"/>
      <psa03 value="1.9543022710" flag="0"/>
      <psa10 value="0.2287568785" flag="0"/>
      <psa30 value="0.0225740137" flag="0"/>
    </comp>
  </station>
</stationlist>
