<?xml version="1.0" encoding="UTF-8" standalone="yes"?>
<!DOCTYPE earthquake SYSTEM "stationlist.dtd">
<stationlist created="" xmlns="ch.ethz.sed.shakemap.usgs.xml">
  <station code="ARPRA" name="ARPRA" netid="KO" insttype="CMG-5T" lat="39.0929" lon="38.3356">
    <comp name="--.HNZ">
      <acc value="0.0200161998" flag="0"/>
      <vel value="0.0090276791" flag="0"/>
      <psa03 value="0.0368123991" flag="0"/>
      <psa10 value="0.0093580104" flag="0"/>
      <psa30 value="0.0007018961" flag="0"/>
    </comp>
    <comp name="--.HNE">
      <acc value="0.0473448263" flag="0"/>
      <vel value="0.0194389989" flag="0"/>
      <psa03 value="0.1537324283" flag="0"/>
      <psa10 value="0.0152175857" flag="0"/>
      <psa30 value="0.0011123627" flag="0"/>
    </comp>
    <comp name="--.HNN">
      <acc value="0.0472269215" flag="0"/>
      <vel value="0.0238802062" flag="0"/>
      <psa03 value="0.1585136818" flag="0"/>
      <psa10 value="0.0172431943" flag="0"/>
      <psa30 value="0.0010712138" flag="0"/>
    </comp>
  </station>
  <station code="DARE" name="DARE" netid="KO" insttype="CMG-3ESP" lat="38.5712" lon="37.4832">
    <comp name="--.HHE">
      <acc value="0.0038097750" flag="0"/>
      <vel value="0.0028354073" flag="0"/>
      <psa03 value="0.0104942433" flag="0"/>
      <psa10 value="0.0033462028" flag="0"/>
      <psa30 value="0.0002989027" flag="0"/>
    </comp>
    <comp name="--.HHZ">
      <acc value="0.0037112524" flag="0"/>
      <vel value="0.0019293936" flag="0"/>
      <psa03 value="0.0099001408" flag="0"/>
      <psa10 value="0.0045705328" flag="0"/>
      <psa30 value="0.0002970471" flag="0"/>
    </comp>
    <comp name="--.HHN">
      <acc value="0.0033728966" flag="0"/>
      <vel value="0.0023206690" flag="0"/>
      <psa03 value="0.0080382837" flag="0"/>
      <psa10 value="0.0027445698" flag="0"/>
      <psa30 value="0.0001863560" flag="0"/>
    </comp>
  </station>
  <station code="KYHL" name="KYHL" netid="KO" insttype="CMG-5T" lat="40.3244" lon="37.8955">
    <comp name="--.HNE">
      <acc value="0.0301963366" flag="0"/>
      <vel value="0.0165005387" flag="0"/>
      <psa03 value="0.1140374905" flag="0"/>
      <psa10 value="0.0091111336" flag="0"/>
      <psa30 value="0.0009339684" flag="0"/>
    </comp>
    <comp name="--.HNN">
      <acc value="0.0326155009" flag="0"/>
      <vel value="0.0146575869" flag="0"/>
      <psa03 value="0.1332206536" flag="0"/>
      <psa10 value="0.0105657616" flag="0"/>
      <psa30 value="0.0006691915" flag="0"/>
    </comp>
    <comp name="--.HNZ">
      <acc value="0.0202618275" flag="0"/>
      <vel value="0.0060148675" flag="0"/>
      <psa03 value="0.0408767256" flag="0"/>
      <psa10 value="0.0078728128" flag="0"/>
      <psa30 value="0.0004517180" flag="0"/>
    </comp>
  </station>
  <station code="RSDY" name="RSDY" netid="KO" insttype="CMG-3T" lat="40.3971" lon="37.3273">
    <comp name="--.HHZ">
      <acc value="0.0109895810" flag="0"/>
      <vel value="0.0057632737" flag="0"/>
      <psa03 value="0.0235847906" flag="0"/>
      <psa10 value="0.0050253743" flag="0"/>
      <psa30 value="0.0003942598" flag="0"/>
    </comp>
    <comp name="--.HHN">
      <acc value="0.0147823105" flag="0"/>
      <vel value="0.0100802826" flag="0"/>
      <psa03 value="0.0319808323" flag="0"/>
      <psa10 value="0.0164731899" flag="0"/>
      <psa30 value="0.0005713998" flag="0"/>
    </comp>
    <comp name="--.HHE">
      <acc value="0.0155183699" flag="0"/>
      <vel value="0.0127163332" flag="0"/>
      <psa03 value="0.0346466353" flag="0"/>
      <psa10 value="0.0143262073" flag="0"/>
      <psa30 value="0.0009344599" flag="0"/>
    </comp>
  </station>
  <station code="SVSK" name="SVSK" netid="KO" insttype="CMG-3T" lat="39.9157" lon="36.9925">
    <comp name="--.HHN">
      <acc value="0.1978901697" flag="0"/>
      <vel value="0.0320055707" flag="0"/>
      <psa03 value="0.1402166315" flag="0"/>
      <psa10 value="0.0121935855" flag="0"/>
      <psa30 value="0.0009858540" flag="0"/>
    </comp>
    <comp name="--.HHZ">
      <acc value="0.0845428767" flag="0"/>
      <vel value="0.0196853415" flag="0"/>
      <psa03 value="0.1180038347" flag="0"/>
      <psa10 value="0.0118660057" flag="0"/>
      <psa30 value="0.0012421645" flag="0"/>
    </comp>
    <comp name="--.HHE">
      <acc value="0.2003312768" flag="0"/>
      <vel value="0.0557250703" flag="0"/>
      <psa03 value="0.2842565593" flag="0"/>
      <psa10 value="0.0143788123" flag="0"/>
      <psa30 value="0.0012643036" flag="0"/>
    </comp>
  </station>
  <station code="TOKT" name="TOKT" netid="KO" insttype="CMG-3T" lat="40.3173" lon="36.5443">
    <comp name="--.HHN">
      <acc value="0.0110658002" flag="0"/>
      <vel value="0.0067589948" flag="0"/>
      <psa03 value="0.0316595910" flag="0"/>
      <psa10 value="0.0058560798" flag="0"/>
      <psa30 value="0.0002960908" flag="0"/>
    </comp>
    <comp name="--.HHE">
      <acc value="0.0106579912" flag="0"/>
      <vel value="0.0045111144" flag="0"/>
      <psa03 value="0.0198109091" flag="0"/>
      <psa10 value="0.0026683611" flag="0"/>
      <psa30 value="0.0003732258" flag="0"/>
    </comp>
    <comp name="--.HHZ">
      <acc value="0.0000463358" flag="0"/>
      <vel value="0.0000047883" flag="0"/>
      <psa03 value="0.0000142447" flag="0"/>
      <psa10 value="0.0000057156" flag="0"/>
      <psa30 value="0.0000008242" flag="0"/>
    </comp>
  </station>
  <station code="TUNC" name="TUNC" netid="KO" insttype="CMG-5T" lat="39.6942" lon="37.5388">
    <comp name="--.HNZ">
      <acc value="1.0156019801" flag="0"/>
      <vel value="0.2560813198" flag="0"/>
      <psa03 value="1.0479040372" flag="0"/>
      <psa10 value="0.0914167024" flag="0"/>
      <psa30 value="0.0086594892" flag="0"/>
    </comp>
    <comp name="--.HNN">
      <acc value="1.5679095893" flag="0"/>
      <vel value="0.4797018506" flag="0"/>
      <psa03 value="1.9543022710" flag="0"/>
      <psa10 value="0.2287568509" flag="0"/>
      <psa30 value="0.0225753660" flag="0"/>
    </comp>
    <comp name="--.HNE">
      <acc value="1.0451360353" flag="0"/>
      <vel value="0.4305021033" flag="0"/>
      <psa03 value="2.1544994656" flag="0"/>
      <psa10 value="0.1572164389" flag="0"/>
      <psa30 value="0.0138013657" flag="0"/>
    </comp>
  </station>
</stationlist>
