<stationlist created="1729240293">
	<station code="KYHL" name="KYHL" netid="KO" source="Bogazici University Kandilli Observatory And Earthquake Research Institute (KOERI)" insttype="" lat="40.3244" lon="37.8955">
		<comp name=".HNE" depth="0.0">
			<acc value="0.030252741559674" flag="0"/>
			<vel value="0.0165409270377" flag="0"/>
			<psa03 value="0.116280828034355" flag="0"/>
			<psa10 value="0.00912251213413907" flag="0"/>
			<psa30 value="0.000886148703003266" flag="0"/>
		</comp>
		<comp name=".HNN" depth="0.0">
			<acc value="0.03223051265997" flag="0"/>
			<vel value="0.0147371225846" flag="0"/>
			<psa03 value="0.132974642250713" flag="0"/>
			<psa10 value="0.0105822550849827" flag="0"/>
			<psa30 value="0.000631488551766031" flag="0"/>
		</comp>
		<comp name=".HNZ" depth="0.0">
			<acc value="0.01978752036234" flag="0"/>
			<vel value="0.00609519976144" flag="0"/>
			<psa03 value="0.0406286810340459" flag="0"/>
			<psa10 value="0.00784139398512527" flag="0"/>
			<psa30 value="0.000423092871576172" flag="0"/>
		</comp>
	</station>
	<station code="TUNC" name="TUNC" netid="KO" source="Bogazici University Kandilli Observatory And Earthquake Research Institute (KOERI)" insttype="" lat="39.6942" lon="37.5388">
		<comp name=".HNE" depth="0.0">
			<acc value="1.0143824886588" flag="0"/>
			<vel value="0.430523654746" flag="0"/>
			<psa03 value="2.17915952529009" flag="0"/>
			<psa10 value="0.157945403107622" flag="0"/>
			<psa30 value="0.0145841144593328" flag="0"/>
		</comp>
		<comp name=".HNN" depth="0.0">
			<acc value="1.5622070605308" flag="0"/>
			<vel value="0.486346185003" flag="0"/>
			<psa03 value="1.99087938598752" flag="0"/>
			<psa10 value="0.229392796146815" flag="0"/>
			<psa30 value="0.0242006581748478" flag="0"/>
		</comp>
		<comp name=".HNZ" depth="0.0">
			<acc value="0.99912941186466" flag="0"/>
			<vel value="0.259002239584" flag="0"/>
			<psa03 value="1.06439801114367" flag="0"/>
			<psa10 value="0.0914171959406206" flag="0"/>
			<psa30 value="0.00957817367365036" flag="0"/>
		</comp>
	</station>
</stationlist>
