<stationlist xmlns:esm="https://esm-db.eu/esmws/shakemap/1/" created="1783994249">
	<station code="ARG2" name="ARG2" netid="HI" source="ITSAK Strong Motion Network" insttype="" lat="38.1783" lon="20.4878" esm:processing="manual (Paolucci et al 2011)" esm:quality="best">
		<comp name="--.HNE" depth="0.0">
			<acc value="0.0512400117399181" flag="0"/>
			<vel value="0.0146297375941708" flag="0"/>
			<psa03 value="0.0721244370686541" flag="0"/>
			<psa10 value="0.0076267565401506" flag="0"/>
			<psa30 value="0.000541380700081088" flag="0"/>
		</comp>
		<comp name="--.HNN" depth="0.0">
			<acc value="0.05535008023096" flag="0"/>
			<vel value="0.0144524271323359" flag="0"/>
			<psa03 value="0.0558830160662214" flag="0"/>
			<psa10 value="0.0132844085670311" flag="0"/>
			<psa30 value="0.000596413614221562" flag="0"/>
		</comp>
		<comp name="--.HNZ" depth="0.0">
			<acc value="0.0395544761750553" flag="0"/>
			<vel value="0.00797601405223046" flag="0"/>
			<psa03 value="0.0333776861372307" flag="0"/>
			<psa10 value="0.0055247676732242" flag="0"/>
			<psa30 value="0.000384335554850954" flag="0"/>
		</comp>
	</station>
	<station code="KLV1" name="KLV1" netid="HI" source="ITSAK Strong Motion Network" insttype="" lat="38.03256" lon="22.10797" esm:processing="manual (Paolucci et al 2011)" esm:quality="bad">
		<comp name="--.HNE" depth="0.0">
			<acc value="0.00369569725777962" flag="0"/>
			<vel value="0.00210191867198815" flag="0"/>
			<psa03 value="0.0131542087457719" flag="0"/>
			<psa10 value="0.00249661512929956" flag="0"/>
			<psa30 value="0.000222816188958993" flag="0"/>
		</comp>
		<comp name="--.HNN" depth="0.0">
			<acc value="0.00296736835697297" flag="0"/>
			<vel value="0.00232427166468183" flag="0"/>
			<psa03 value="0.0106039029685304" flag="0"/>
			<psa10 value="0.00302412574532899" flag="0"/>
			<psa30 value="0.000211183215238243" flag="0"/>
		</comp>
		<comp name="--.HNZ" depth="0.0">
			<acc value="0.0019316043212386" flag="0"/>
			<vel value="0.00119573541761053" flag="0"/>
			<psa03 value="0.00344514990960693" flag="0"/>
			<psa10 value="0.00189662213854854" flag="0"/>
			<psa30 value="0.00018433789126728" flag="0"/>
		</comp>
	</station>
	<station code="ITM" name="ITM" netid="HL" source="National Observatory of Athens Seismic Network" insttype="" lat="37.17872" lon="21.92522" esm:processing="manual (Paolucci et al 2011)" esm:quality="best">
		<comp name="--.HNE" depth="0.0">
			<acc value="0.00470988038641267" flag="0"/>
			<vel value="0.00288151043512834" flag="0"/>
			<psa03 value="0.010380191935439" flag="0"/>
			<psa10 value="0.00343888600068037" flag="0"/>
			<psa30 value="0.000390599463777512" flag="0"/>
		</comp>
		<comp name="--.HNN" depth="0.0">
			<acc value="0.00548775374616264" flag="0"/>
			<vel value="0.00389201724051322" flag="0"/>
			<psa03 value="0.0180311092671635" flag="0"/>
			<psa10 value="0.00466303277375628" flag="0"/>
			<psa30 value="0.000431762293866322" flag="0"/>
		</comp>
		<comp name="--.HNZ" depth="0.0">
			<acc value="0.00357258208844046" flag="0"/>
			<vel value="0.00265208413910104" flag="0"/>
			<psa03 value="0.00809833939790719" flag="0"/>
			<psa10 value="0.00277043743380339" flag="0"/>
			<psa30 value="0.000431762293866322" flag="0"/>
		</comp>
	</station>
	<station code="PATC" name="PATC" netid="HL" source="National Observatory of Athens Seismic Network" insttype="" lat="38.26933" lon="21.76001" esm:processing="manual (Paolucci et al 2011)" esm:quality="good">
		<comp name="00.HNE" depth="0.0">
			<acc value="0.00953248748184769" flag="0"/>
			<vel value="0.0112584310993636" flag="0"/>
			<psa03 value="0.0238923383341571" flag="0"/>
			<psa10 value="0.01565216614127" flag="0"/>
			<psa30 value="0.00141251146293884" flag="0"/>
		</comp>
		<comp name="00.HNN" depth="0.0">
			<acc value="0.00716846329205695" flag="0"/>
			<vel value="0.00702331184291266" flag="0"/>
			<psa03 value="0.0216552280032435" flag="0"/>
			<psa10 value="0.0116616087329863" flag="0"/>
			<psa30 value="0.00102459653155842" flag="0"/>
		</comp>
		<comp name="00.HNZ" depth="0.0">
			<acc value="0.00556958258503741" flag="0"/>
			<vel value="0.00366685692214274" flag="0"/>
			<psa03 value="0.0127962710928257" flag="0"/>
			<psa10 value="0.00528315975748553" flag="0"/>
			<psa30 value="0.000476057078418411" flag="0"/>
		</comp>
	</station>
	<station code="SMHA" name="SMHA" netid="HL" source="National Observatory of Athens Seismic Network" insttype="" lat="38.25123" lon="20.6477" esm:processing="automatic (Paolucci et al 2011)" esm:quality="best">
		<comp name="00.HNE" depth="0.0">
			<acc value="0.0638901582007559" flag="0"/>
			<vel value="0.025606602671201" flag="0"/>
			<psa03 value="0.245582539471347" flag="0"/>
			<psa10 value="0.0208141357093311" flag="0"/>
			<psa30 value="0.00123344858491571" flag="0"/>
		</comp>
		<comp name="00.HNN" depth="0.0">
			<acc value="0.103858207008076" flag="0"/>
			<vel value="0.0444243654182159" flag="0"/>
			<psa03 value="0.418258499239388" flag="0"/>
			<psa10 value="0.0231242493680393" flag="0"/>
			<psa30 value="0.00137409581877023" flag="0"/>
		</comp>
		<comp name="00.HNZ" depth="0.0">
			<acc value="0.0434570118551293" flag="0"/>
			<vel value="0.0126501791899259" flag="0"/>
			<psa03 value="0.0604663337229049" flag="0"/>
			<psa10 value="0.0107438832920551" flag="0"/>
			<psa30 value="0.000622781308286844" flag="0"/>
		</comp>
	</station>
	<station code="ZARA" name="ZARA" netid="HL" source="National Observatory of Athens Seismic Network" insttype="" lat="37.4865" lon="21.6491" esm:processing="manual (Paolucci et al 2011)" esm:quality="good">
		<comp name="00.HNE" depth="0.0">
			<acc value="0.0190577344805441" flag="0"/>
			<vel value="0.0109601942756009" flag="0"/>
			<psa03 value="0.0530377582828571" flag="0"/>
			<psa10 value="0.0136724054172582" flag="0"/>
			<psa30 value="0.00106951147488632" flag="0"/>
		</comp>
		<comp name="00.HNN" depth="0.0">
			<acc value="0.0226390381337117" flag="0"/>
			<vel value="0.0155731687037102" flag="0"/>
			<psa03 value="0.0854365191250913" flag="0"/>
			<psa10 value="0.0136492176311812" flag="0"/>
			<psa30 value="0.000782717580364987" flag="0"/>
		</comp>
		<comp name="00.HNZ" depth="0.0">
			<acc value="0.0129143452794901" flag="0"/>
			<vel value="0.00688355116551758" flag="0"/>
			<psa03 value="0.0581013385118632" flag="0"/>
			<psa10 value="0.00820751902035468" flag="0"/>
			<psa30 value="0.000472226855628283" flag="0"/>
		</comp>
	</station>
	<station code="ANX" name="ANX" netid="HP" source="University of Patras, Seismological Laboratory (PSLNET)" insttype="" lat="38.5933" lon="21.9209" esm:processing="manual (Paolucci et al 2011)" esm:quality="good">
		<comp name="--.HNE" depth="0.0">
			<acc value="0.00628149597690103" flag="0"/>
			<vel value="0.00452352346756497" flag="0"/>
			<psa03 value="0.0141832794979921" flag="0"/>
			<psa10 value="0.00351136837540197" flag="0"/>
			<psa30 value="0.000419234476013206" flag="0"/>
		</comp>
		<comp name="--.HNN" depth="0.0">
			<acc value="0.0113196459708433" flag="0"/>
			<vel value="0.00881353932018834" flag="0"/>
			<psa03 value="0.0212972903502974" flag="0"/>
			<psa10 value="0.00556503565918064" flag="0"/>
			<psa30 value="0.000584780640500812" flag="0"/>
		</comp>
		<comp name="--.HNZ" depth="0.0">
			<acc value="0.00252760120484762" flag="0"/>
			<vel value="0.00191357190105597" flag="0"/>
			<psa03 value="0.00653236216626768" flag="0"/>
			<psa10 value="0.00208990847113947" flag="0"/>
			<psa30 value="0.00021565743590007" flag="0"/>
		</comp>
	</station>
	<station code="ARS1" name="ARS1" netid="HI" source="ITSAK Strong Motion Network" insttype="" lat="37.6349" lon="22.7293" esm:processing="discarded" esm:quality="good">
		<comp name="--.HNE" depth="0.0">
			<acc value="0" flag="1"/>
			<vel value="0" flag="1"/>
			<psa03 value="0" flag="1"/>
			<psa10 value="0" flag="1"/>
			<psa30 value="0" flag="1"/>
		</comp>
		<comp name="--.HNN" depth="0.0">
			<acc value="0" flag="1"/>
			<vel value="0" flag="1"/>
			<psa03 value="0" flag="1"/>
			<psa10 value="0" flag="1"/>
			<psa30 value="0" flag="1"/>
		</comp>
		<comp name="--.HNZ" depth="0.0">
			<acc value="0" flag="1"/>
			<vel value="0" flag="1"/>
			<psa03 value="0" flag="1"/>
			<psa10 value="0" flag="1"/>
			<psa30 value="0" flag="1"/>
		</comp>
	</station>
	<station code="ART2" name="ART2" netid="HI" source="ITSAK Strong Motion Network" insttype="" lat="39.1474" lon="20.9937" esm:processing="discarded" esm:quality="bad">
		<comp name="--.HNE" depth="0.0">
			<acc value="0" flag="1"/>
			<vel value="0" flag="1"/>
			<psa03 value="0" flag="1"/>
			<psa10 value="0" flag="1"/>
			<psa30 value="0" flag="1"/>
		</comp>
		<comp name="--.HNN" depth="0.0">
			<acc value="0" flag="1"/>
			<vel value="0" flag="1"/>
			<psa03 value="0" flag="1"/>
			<psa10 value="0" flag="1"/>
			<psa30 value="0" flag="1"/>
		</comp>
		<comp name="--.HNZ" depth="0.0">
			<acc value="0" flag="1"/>
			<vel value="0" flag="1"/>
			<psa03 value="0" flag="1"/>
			<psa10 value="0" flag="1"/>
			<psa30 value="0" flag="1"/>
		</comp>
	</station>
	<station code="LAM2" name="LAM2" netid="HI" source="ITSAK Strong Motion Network" insttype="" lat="38.90203" lon="22.431301" esm:processing="discarded" esm:quality="bad">
		<comp name="--.HNE" depth="0.0">
			<acc value="0" flag="1"/>
			<vel value="0" flag="1"/>
			<psa03 value="0" flag="1"/>
			<psa10 value="0" flag="1"/>
			<psa30 value="0" flag="1"/>
		</comp>
		<comp name="--.HNN" depth="0.0">
			<acc value="0" flag="1"/>
			<vel value="0" flag="1"/>
			<psa03 value="0" flag="1"/>
			<psa10 value="0" flag="1"/>
			<psa30 value="0" flag="1"/>
		</comp>
		<comp name="--.HNZ" depth="0.0">
			<acc value="0" flag="1"/>
			<vel value="0" flag="1"/>
			<psa03 value="0" flag="1"/>
			<psa10 value="0" flag="1"/>
			<psa30 value="0" flag="1"/>
		</comp>
	</station>
	<station code="ARTB" name="ARTB" netid="HL" source="National Observatory of Athens Seismic Network" insttype="" lat="39.15702" lon="20.9785" esm:processing="automatic (Paolucci et al 2011)" esm:quality="bad">
		<comp name="00.HNE" depth="0.0">
			<acc value="0" flag="1"/>
			<vel value="0" flag="1"/>
			<psa03 value="0" flag="1"/>
			<psa10 value="0" flag="1"/>
			<psa30 value="0" flag="1"/>
		</comp>
		<comp name="00.HNN" depth="0.0">
			<acc value="0" flag="1"/>
			<vel value="0" flag="1"/>
			<psa03 value="0" flag="1"/>
			<psa10 value="0" flag="1"/>
			<psa30 value="0" flag="1"/>
		</comp>
		<comp name="00.HNZ" depth="0.0">
			<acc value="0" flag="1"/>
			<vel value="0" flag="1"/>
			<psa03 value="0" flag="1"/>
			<psa10 value="0" flag="1"/>
			<psa30 value="0" flag="1"/>
		</comp>
	</station>
	<station code="DLFA" name="DLFA" netid="HL" source="National Observatory of Athens Seismic Network" insttype="" lat="38.47836" lon="22.49583" esm:processing="discarded" esm:quality="bad">
		<comp name="00.HNE" depth="0.0">
			<acc value="0" flag="1"/>
			<vel value="0" flag="1"/>
			<psa03 value="0" flag="1"/>
			<psa10 value="0" flag="1"/>
			<psa30 value="0" flag="1"/>
		</comp>
		<comp name="00.HNN" depth="0.0">
			<acc value="0" flag="1"/>
			<vel value="0" flag="1"/>
			<psa03 value="0" flag="1"/>
			<psa10 value="0" flag="1"/>
			<psa30 value="0" flag="1"/>
		</comp>
		<comp name="00.HNZ" depth="0.0">
			<acc value="0" flag="1"/>
			<vel value="0" flag="1"/>
			<psa03 value="0" flag="1"/>
			<psa10 value="0" flag="1"/>
			<psa30 value="0" flag="1"/>
		</comp>
	</station>
	<station code="KIAA" name="KIAA" netid="HL" source="National Observatory of Athens Seismic Network" insttype="" lat="38.0139" lon="22.7495" esm:processing="discarded" esm:quality="bad">
		<comp name="00.HNE" depth="0.0">
			<acc value="0" flag="1"/>
			<vel value="0" flag="1"/>
			<psa03 value="0" flag="1"/>
			<psa10 value="0" flag="1"/>
			<psa30 value="0" flag="1"/>
		</comp>
		<comp name="00.HNN" depth="0.0">
			<acc value="0" flag="1"/>
			<vel value="0" flag="1"/>
			<psa03 value="0" flag="1"/>
			<psa10 value="0" flag="1"/>
			<psa30 value="0" flag="1"/>
		</comp>
		<comp name="00.HNZ" depth="0.0">
			<acc value="0" flag="1"/>
			<vel value="0" flag="1"/>
			<psa03 value="0" flag="1"/>
			<psa10 value="0" flag="1"/>
			<psa30 value="0" flag="1"/>
		</comp>
	</station>
	<station code="NPLA" name="NPLA" netid="HL" source="National Observatory of Athens Seismic Network" insttype="" lat="37.56561" lon="22.79975" esm:processing="discarded" esm:quality="bad">
		<comp name="00.HNE" depth="0.0">
			<acc value="0" flag="1"/>
			<vel value="0" flag="1"/>
			<psa03 value="0" flag="1"/>
			<psa10 value="0" flag="1"/>
			<psa30 value="0" flag="1"/>
		</comp>
		<comp name="00.HNN" depth="0.0">
			<acc value="0" flag="1"/>
			<vel value="0" flag="1"/>
			<psa03 value="0" flag="1"/>
			<psa10 value="0" flag="1"/>
			<psa30 value="0" flag="1"/>
		</comp>
		<comp name="00.HNZ" depth="0.0">
			<acc value="0" flag="1"/>
			<vel value="0" flag="1"/>
			<psa03 value="0" flag="1"/>
			<psa10 value="0" flag="1"/>
			<psa30 value="0" flag="1"/>
		</comp>
	</station>
	<station code="PATG" name="PATG" netid="HL" source="National Observatory of Athens Seismic Network" insttype="" lat="38.23865" lon="21.72657" esm:processing="discarded" esm:quality="good">
		<comp name="00.HNE" depth="0.0">
			<acc value="0" flag="1"/>
			<vel value="0" flag="1"/>
			<psa03 value="0" flag="1"/>
			<psa10 value="0" flag="1"/>
			<psa30 value="0" flag="1"/>
		</comp>
		<comp name="00.HNN" depth="0.0">
			<acc value="0" flag="1"/>
			<vel value="0" flag="1"/>
			<psa03 value="0" flag="1"/>
			<psa10 value="0" flag="1"/>
			<psa30 value="0" flag="1"/>
		</comp>
		<comp name="00.HNZ" depth="0.0">
			<acc value="0" flag="1"/>
			<vel value="0" flag="1"/>
			<psa03 value="0" flag="1"/>
			<psa10 value="0" flag="1"/>
			<psa30 value="0" flag="1"/>
		</comp>
	</station>
	<station code="PRGA" name="PRGA" netid="HL" source="National Observatory of Athens Seismic Network" insttype="" lat="39.28557" lon="20.40157" esm:processing="discarded" esm:quality="bad">
		<comp name="00.HNE" depth="0.0">
			<acc value="0" flag="1"/>
			<vel value="0" flag="1"/>
			<psa03 value="0" flag="1"/>
			<psa10 value="0" flag="1"/>
			<psa30 value="0" flag="1"/>
		</comp>
		<comp name="00.HNN" depth="0.0">
			<acc value="0" flag="1"/>
			<vel value="0" flag="1"/>
			<psa03 value="0" flag="1"/>
			<psa10 value="0" flag="1"/>
			<psa30 value="0" flag="1"/>
		</comp>
		<comp name="00.HNZ" depth="0.0">
			<acc value="0" flag="1"/>
			<vel value="0" flag="1"/>
			<psa03 value="0" flag="1"/>
			<psa10 value="0" flag="1"/>
			<psa30 value="0" flag="1"/>
		</comp>
	</station>
	<station code="RIOA" name="RIOA" netid="HL" source="National Observatory of Athens Seismic Network" insttype="" lat="38.29585" lon="21.79118" esm:processing="discarded" esm:quality="bad">
		<comp name="00.HNE" depth="0.0">
			<acc value="0" flag="1"/>
			<vel value="0" flag="1"/>
			<psa03 value="0" flag="1"/>
			<psa10 value="0" flag="1"/>
			<psa30 value="0" flag="1"/>
		</comp>
		<comp name="00.HNN" depth="0.0">
			<acc value="0" flag="1"/>
			<vel value="0" flag="1"/>
			<psa03 value="0" flag="1"/>
			<psa10 value="0" flag="1"/>
			<psa30 value="0" flag="1"/>
		</comp>
		<comp name="00.HNZ" depth="0.0">
			<acc value="0" flag="1"/>
			<vel value="0" flag="1"/>
			<psa03 value="0" flag="1"/>
			<psa10 value="0" flag="1"/>
			<psa30 value="0" flag="1"/>
		</comp>
	</station>
	<station code="FSK" name="FSK" netid="HP" source="University of Patras, Seismological Laboratory (PSLNET)" insttype="" lat="38.4593" lon="20.5623" esm:processing="discarded" esm:quality="good">
		<comp name="--.HNE" depth="0.0">
			<acc value="0" flag="1"/>
			<vel value="0" flag="1"/>
			<psa03 value="0" flag="1"/>
			<psa10 value="0" flag="1"/>
			<psa30 value="0" flag="1"/>
		</comp>
		<comp name="--.HNN" depth="0.0">
			<acc value="0" flag="1"/>
			<vel value="0" flag="1"/>
			<psa03 value="0" flag="1"/>
			<psa10 value="0" flag="1"/>
			<psa30 value="0" flag="1"/>
		</comp>
		<comp name="--.HNZ" depth="0.0">
			<acc value="0" flag="1"/>
			<vel value="0" flag="1"/>
			<psa03 value="0" flag="1"/>
			<psa10 value="0" flag="1"/>
			<psa30 value="0" flag="1"/>
		</comp>
	</station>
</stationlist>
