<?xml version="1.0" encoding="UTF-8" standalone="yes"?>
<!DOCTYPE earthquake SYSTEM "stationlist.dtd">
<stationlist created="" xmlns="ch.ethz.sed.shakemap.usgs.xml">
  <station code="SRN" name="SRN" netid="AC" insttype="" lat="39.88" lon="20.0005">
    <comp name="--.HHZ">
      <acc value="0.0018979730" flag="0"/>
      <vel value="0.0009732792" flag="0"/>
      <psa03 value="0.0061996044" flag="0"/>
      <psa10 value="0.0013670637" flag="0"/>
      <psa30 value="0.0003117510" flag="0"/>
    </comp>
    <comp name="--.HHE">
      <acc value="0.0027906257" flag="0"/>
      <vel value="0.0014000802" flag="0"/>
      <psa03 value="0.0063414216" flag="0"/>
      <psa10 value="0.0024169793" flag="0"/>
      <psa30 value="0.0002887595" flag="0"/>
    </comp>
    <comp name="--.HHN">
      <acc value="0.0023584255" flag="0"/>
      <vel value="0.0008096768" flag="0"/>
      <psa03 value="0.0038074425" flag="0"/>
      <psa10 value="0.0015653028" flag="0"/>
      <psa30 value="0.0003636185" flag="0"/>
    </comp>
  </station>
  <station code="ATHR" name="ATHR" netid="HA" insttype="GEOtiny," lat="38.3172" lon="20.4165">
    <comp name="--.HHE">
      <acc value="0.0066986040" flag="0"/>
      <vel value="0.0052105065" flag="0"/>
      <psa03 value="0.0143107615" flag="0"/>
      <psa10 value="0.0124405679" flag="0"/>
      <psa30 value="0.0008894201" flag="0"/>
    </comp>
    <comp name="--.HHN">
      <acc value="0.0069144536" flag="0"/>
      <vel value="0.0065496762" flag="0"/>
      <psa03 value="0.0172206642" flag="0"/>
      <psa10 value="0.0093484359" flag="0"/>
      <psa30 value="0.0009897795" flag="0"/>
    </comp>
    <comp name="--.HHZ">
      <acc value="0.0058214426" flag="0"/>
      <vel value="0.0037923420" flag="0"/>
      <psa03 value="0.0143415253" flag="0"/>
      <psa10 value="0.0056468849" flag="0"/>
      <psa30 value="0.0004526190" flag="0"/>
    </comp>
  </station>
  <station code="HAVD" name="HAVD" netid="HA" insttype="GEOtiny," lat="38.2036" lon="20.3848">
    <comp name="--.HHN">
      <acc value="0.0199879358" flag="0"/>
      <vel value="0.0063569182" flag="0"/>
      <psa03 value="0.0297082939" flag="0"/>
      <psa10 value="0.0080398156" flag="0"/>
      <psa30 value="0.0005411061" flag="0"/>
    </comp>
    <comp name="--.HHE">
      <acc value="0.0115710761" flag="0"/>
      <vel value="0.0064773595" flag="0"/>
      <psa03 value="0.0323303019" flag="0"/>
      <psa10 value="0.0058659714" flag="0"/>
      <psa30 value="0.0005046720" flag="0"/>
    </comp>
    <comp name="--.HHZ">
      <acc value="0.0153846458" flag="0"/>
      <vel value="0.0045110828" flag="0"/>
      <psa03 value="0.0230088494" flag="0"/>
      <psa10 value="0.0037829474" flag="0"/>
      <psa30 value="0.0004114013" flag="0"/>
    </comp>
  </station>
  <station code="ART2" name="ART2" netid="HI" insttype="CMG-5TD,ACCELEROMETER,GURALP" lat="39.1474" lon="20.9937">
    <comp name="--.HNN">
      <acc value="0.0379690615" flag="0"/>
      <vel value="0.0153701712" flag="0"/>
      <psa03 value="0.0303399751" flag="0"/>
      <psa10 value="0.0138408515" flag="0"/>
      <psa30 value="0.0016938196" flag="0"/>
    </comp>
    <comp name="--.HNZ">
      <acc value="0.0195427748" flag="0"/>
      <vel value="0.0059495940" flag="0"/>
      <psa03 value="0.0191001194" flag="0"/>
      <psa10 value="0.0055768878" flag="0"/>
      <psa30 value="0.0010226197" flag="0"/>
    </comp>
    <comp name="--.HNE">
      <acc value="0.0288854206" flag="0"/>
      <vel value="0.0096497039" flag="0"/>
      <psa03 value="0.0206963339" flag="0"/>
      <psa10 value="0.0103443886" flag="0"/>
      <psa30 value="0.0008011565" flag="0"/>
    </comp>
  </station>
  <station code="KRK1" name="KRK1" netid="HI" insttype="CMG-5TD,ACCELEROMETER,GURALP" lat="39.6189" lon="19.9202">
    <comp name="--.HNE">
      <acc value="0.0600166527" flag="0"/>
      <vel value="0.0169489006" flag="0"/>
      <psa03 value="0.0681894954" flag="0"/>
      <psa10 value="0.0078167574" flag="0"/>
      <psa30 value="0.0008774661" flag="0"/>
    </comp>
    <comp name="--.HNZ">
      <acc value="0.0321655900" flag="0"/>
      <vel value="0.0078283289" flag="0"/>
      <psa03 value="0.0477909399" flag="0"/>
      <psa10 value="0.0038124328" flag="0"/>
      <psa30 value="0.0006929557" flag="0"/>
    </comp>
    <comp name="--.HNN">
      <acc value="0.0767038073" flag="0"/>
      <vel value="0.0188046285" flag="0"/>
      <psa03 value="0.0702697163" flag="0"/>
      <psa10 value="0.0099633443" flag="0"/>
      <psa30 value="0.0008434979" flag="0"/>
    </comp>
  </station>
  <station code="VAS2" name="VAS2" netid="HI" insttype="CMG-5TD,ACCELEROMETER,GURALP" lat="38.6306" lon="20.6081">
    <comp name="--.HNN">
      <acc value="0.1568737264" flag="0"/>
      <vel value="0.1203856199" flag="0"/>
      <psa03 value="0.3674864137" flag="0"/>
      <psa10 value="0.2646407122" flag="0"/>
      <psa30 value="0.0107522150" flag="0"/>
    </comp>
    <comp name="--.HNE">
      <acc value="0.1036570625" flag="0"/>
      <vel value="0.1678233627" flag="0"/>
      <psa03 value="0.2516853945" flag="0"/>
      <psa10 value="0.3034199091" flag="0"/>
      <psa30 value="0.0156032111" flag="0"/>
    </comp>
    <comp name="--.HNZ">
      <acc value="0.0880571878" flag="0"/>
      <vel value="0.0828106608" flag="0"/>
      <psa03 value="0.1493419224" flag="0"/>
      <psa10 value="0.0611880042" flag="0"/>
      <psa30 value="0.0051626810" flag="0"/>
    </comp>
  </station>
  <station code="EVR" name="EVR" netid="HL" insttype="DR24" lat="38.9166" lon="21.8105">
    <comp name="--.HHE">
      <acc value="0.0039978763" flag="0"/>
      <vel value="0.0036061483" flag="0"/>
      <psa03 value="0.0119019575" flag="0"/>
      <psa10 value="0.0081123535" flag="0"/>
      <psa30 value="0.0006122435" flag="0"/>
    </comp>
    <comp name="--.HHN">
      <acc value="0.0050147413" flag="0"/>
      <vel value="0.0049404178" flag="0"/>
      <psa03 value="0.0090530685" flag="0"/>
      <psa10 value="0.0066594176" flag="0"/>
      <psa30 value="0.0009273478" flag="0"/>
    </comp>
    <comp name="--.HHZ">
      <acc value="0.0029180227" flag="0"/>
      <vel value="0.0036415739" flag="0"/>
      <psa03 value="0.0052079051" flag="0"/>
      <psa10 value="0.0075444049" flag="0"/>
      <psa30 value="0.0006934939" flag="0"/>
    </comp>
  </station>
  <station code="JAN" name="JAN" netid="HL" insttype="CMG3EPSC60_DR24" lat="39.6562" lon="20.8487">
    <comp name="--.HHN">
      <acc value="0.0188399662" flag="0"/>
      <vel value="0.0090748751" flag="0"/>
      <psa03 value="0.0735234177" flag="0"/>
      <psa10 value="0.0078782550" flag="0"/>
      <psa30 value="0.0006688983" flag="0"/>
    </comp>
    <comp name="--.HHZ">
      <acc value="0.0131710466" flag="0"/>
      <vel value="0.0078692727" flag="0"/>
      <psa03 value="0.0452656020" flag="0"/>
      <psa10 value="0.0050042240" flag="0"/>
      <psa30 value="0.0007613691" flag="0"/>
    </comp>
    <comp name="--.HHE">
      <acc value="0.0308580011" flag="0"/>
      <vel value="0.0158153924" flag="0"/>
      <psa03 value="0.1072584038" flag="0"/>
      <psa10 value="0.0108069026" flag="0"/>
      <psa30 value="0.0009960660" flag="0"/>
    </comp>
  </station>
  <station code="KEK" name="KEK" netid="HL" insttype="120" lat="39.7127" lon="19.7962">
    <comp name="--.HHE">
      <acc value="0.0172298950" flag="0"/>
      <vel value="0.0063709090" flag="0"/>
      <psa03 value="0.0498694494" flag="0"/>
      <psa10 value="0.0087954475" flag="0"/>
      <psa30 value="0.0006522624" flag="0"/>
    </comp>
    <comp name="--.HHZ">
      <acc value="0.0079480013" flag="0"/>
      <vel value="0.0042075889" flag="0"/>
      <psa03 value="0.0235387680" flag="0"/>
      <psa10 value="0.0061489230" flag="0"/>
      <psa30 value="0.0004475312" flag="0"/>
    </comp>
    <comp name="--.HHN">
      <acc value="0.0087283863" flag="0"/>
      <vel value="0.0050207831" flag="0"/>
      <psa03 value="0.0279417267" flag="0"/>
      <psa10 value="0.0070142869" flag="0"/>
      <psa30 value="0.0007946340" flag="0"/>
    </comp>
  </station>
  <station code="ORTH" name="ORTH" netid="HL" insttype="30" lat="37.8511" lon="20.6963">
    <comp name="--.HHN">
      <acc value="0.0102707703" flag="0"/>
      <vel value="0.0085506140" flag="0"/>
      <psa03 value="0.0255622728" flag="0"/>
      <psa10 value="0.0156712222" flag="0"/>
      <psa30 value="0.0006621547" flag="0"/>
    </comp>
    <comp name="--.HHE">
      <acc value="0.0085439564" flag="0"/>
      <vel value="0.0061901063" flag="0"/>
      <psa03 value="0.0201847910" flag="0"/>
      <psa10 value="0.0094144455" flag="0"/>
      <psa30 value="0.0009333608" flag="0"/>
    </comp>
    <comp name="--.HHZ">
      <acc value="0.0041512529" flag="0"/>
      <vel value="0.0033289943" flag="0"/>
      <psa03 value="0.0083362867" flag="0"/>
      <psa10 value="0.0052377847" flag="0"/>
      <psa30 value="0.0005389930" flag="0"/>
    </comp>
  </station>
  <station code="TETR" name="TETR" netid="HL" insttype="60" lat="39.3445" lon="21.2747">
    <comp name="--.HHE">
      <acc value="0.0415049070" flag="0"/>
      <vel value="0.0138525505" flag="0"/>
      <psa03 value="0.0786136274" flag="0"/>
      <psa10 value="0.0153484804" flag="0"/>
      <psa30 value="0.0018539633" flag="0"/>
    </comp>
    <comp name="--.HHZ">
      <acc value="0.0136328218" flag="0"/>
      <vel value="0.0048326156" flag="0"/>
      <psa03 value="0.0225532179" flag="0"/>
      <psa10 value="0.0116693810" flag="0"/>
      <psa30 value="0.0010622920" flag="0"/>
    </comp>
    <comp name="--.HHN">
      <acc value="0.0365623989" flag="0"/>
      <vel value="0.0153204508" flag="0"/>
      <psa03 value="0.0754232880" flag="0"/>
      <psa10 value="0.0115624075" flag="0"/>
      <psa30 value="0.0015300591" flag="0"/>
    </comp>
  </station>
  <station code="VLS" name="VLS" netid="HL" insttype="120P," lat="38.1768" lon="20.5886">
    <comp name="--.HHN">
      <acc value="0.0221990969" flag="0"/>
      <vel value="0.0079375003" flag="0"/>
      <psa03 value="0.0357479450" flag="0"/>
      <psa10 value="0.0081326381" flag="0"/>
      <psa30 value="0.0004516879" flag="0"/>
    </comp>
    <comp name="--.HHE">
      <acc value="0.0260861139" flag="0"/>
      <vel value="0.0076630248" flag="0"/>
      <psa03 value="0.0315227956" flag="0"/>
      <psa10 value="0.0056791829" flag="0"/>
      <psa30 value="0.0005788788" flag="0"/>
    </comp>
    <comp name="--.HHZ">
      <acc value="0.0140165022" flag="0"/>
      <vel value="0.0052935330" flag="0"/>
      <psa03 value="0.0249624047" flag="0"/>
      <psa10 value="0.0079515611" flag="0"/>
      <psa30 value="0.0005432583" flag="0"/>
    </comp>
  </station>
  <station code="AMPL" name="AMPL" netid="HP" insttype="Compact," lat="38.9224" lon="21.2135">
    <comp name="--.HHN">
      <acc value="0.0375507925" flag="0"/>
      <vel value="0.0155289166" flag="0"/>
      <psa03 value="0.0700543787" flag="0"/>
      <psa10 value="0.0202536363" flag="0"/>
      <psa30 value="0.0023523712" flag="0"/>
    </comp>
    <comp name="--.HHZ">
      <acc value="0.0315825930" flag="0"/>
      <vel value="0.0149782854" flag="0"/>
      <psa03 value="0.0561174933" flag="0"/>
      <psa10 value="0.0091328075" flag="0"/>
      <psa30 value="0.0008012956" flag="0"/>
    </comp>
    <comp name="--.HHE">
      <acc value="0.0525278741" flag="0"/>
      <vel value="0.0147753079" flag="0"/>
      <psa03 value="0.0637257371" flag="0"/>
      <psa10 value="0.0134754956" flag="0"/>
      <psa30 value="0.0021907969" flag="0"/>
    </comp>
  </station>
  <station code="AXS" name="AXS" netid="HP" insttype="Compact," lat="38.1962" lon="21.3763">
    <comp name="--.HHZ">
      <acc value="0.0029962540" flag="0"/>
      <vel value="0.0030566302" flag="0"/>
      <psa03 value="0.0046217034" flag="0"/>
      <psa10 value="0.0037852173" flag="0"/>
      <psa30 value="0.0004062048" flag="0"/>
    </comp>
    <comp name="--.HHE">
      <acc value="0.0076634082" flag="0"/>
      <vel value="0.0040009382" flag="0"/>
      <psa03 value="0.0112280203" flag="0"/>
      <psa10 value="0.0069634575" flag="0"/>
      <psa30 value="0.0004220995" flag="0"/>
    </comp>
    <comp name="--.HHN">
      <acc value="0.0061985053" flag="0"/>
      <vel value="0.0038533978" flag="0"/>
      <psa03 value="0.0171202354" flag="0"/>
      <psa10 value="0.0068580081" flag="0"/>
      <psa30 value="0.0004647058" flag="0"/>
    </comp>
  </station>
  <station code="FSK" name="FSK" netid="HP" insttype="40," lat="38.4593" lon="20.5623">
    <comp name="--.HHE">
      <acc value="0.0296041823" flag="0"/>
      <vel value="0.0169926893" flag="0"/>
      <psa03 value="0.0561134886" flag="0"/>
      <psa10 value="0.0152454285" flag="0"/>
      <psa30 value="0.0012327296" flag="0"/>
    </comp>
    <comp name="--.HHN">
      <acc value="0.0119158075" flag="0"/>
      <vel value="0.0095843307" flag="0"/>
      <psa03 value="0.0332043159" flag="0"/>
      <psa10 value="0.0151062065" flag="0"/>
      <psa30 value="0.0011697834" flag="0"/>
    </comp>
    <comp name="--.HHZ">
      <acc value="0.0106590594" flag="0"/>
      <vel value="0.0080187145" flag="0"/>
      <psa03 value="0.0250893469" flag="0"/>
      <psa10 value="0.0090249520" flag="0"/>
      <psa30 value="0.0011158676" flag="0"/>
    </comp>
  </station>
  <station code="KSTR" name="KSTR" netid="HP" insttype="Compact," lat="39.2492" lon="20.576">
    <comp name="--.HHE">
      <acc value="0.2605412786" flag="0"/>
      <vel value="0.0532040442" flag="0"/>
      <psa03 value="0.3929414182" flag="0"/>
      <psa10 value="0.0324596584" flag="0"/>
      <psa30 value="0.0039892115" flag="0"/>
    </comp>
    <comp name="--.HHN">
      <acc value="0.1856739334" flag="0"/>
      <vel value="0.0334354193" flag="0"/>
      <psa03 value="0.1767783967" flag="0"/>
      <psa10 value="0.0269107756" flag="0"/>
      <psa30 value="0.0026217635" flag="0"/>
    </comp>
    <comp name="--.HHZ">
      <acc value="0.1227327032" flag="0"/>
      <vel value="0.0283505421" flag="0"/>
      <psa03 value="0.1063933843" flag="0"/>
      <psa10 value="0.0424644738" flag="0"/>
      <psa30 value="0.0028141488" flag="0"/>
    </comp>
  </station>
  <station code="PLEV" name="PLEV" netid="HP" insttype="Compact," lat="38.4124" lon="21.4073">
    <comp name="--.HHZ">
      <acc value="0.0049752624" flag="0"/>
      <vel value="0.0037736556" flag="0"/>
      <psa03 value="0.0107493002" flag="0"/>
      <psa10 value="0.0075384884" flag="0"/>
      <psa30 value="0.0006696883" flag="0"/>
    </comp>
    <comp name="--.HHE">
      <acc value="0.0073283441" flag="0"/>
      <vel value="0.0064376547" flag="0"/>
      <psa03 value="0.0190349443" flag="0"/>
      <psa10 value="0.0113243101" flag="0"/>
      <psa30 value="0.0013871391" flag="0"/>
    </comp>
    <comp name="--.HHN">
      <acc value="0.0072224757" flag="0"/>
      <vel value="0.0061478483" flag="0"/>
      <psa03 value="0.0152976606" flag="0"/>
      <psa10 value="0.0106349693" flag="0"/>
      <psa30 value="0.0008520421" flag="0"/>
    </comp>
  </station>
  <station code="PRMD" name="PRMD" netid="HP" insttype="120P," lat="39.5299" lon="21.0965">
    <comp name="--.HHE">
      <acc value="0.0133508625" flag="0"/>
      <vel value="0.0075430152" flag="0"/>
      <psa03 value="0.0447993668" flag="0"/>
      <psa10 value="0.0132924106" flag="0"/>
      <psa30 value="0.0013518843" flag="0"/>
    </comp>
    <comp name="--.HHN">
      <acc value="0.0188877477" flag="0"/>
      <vel value="0.0123959016" flag="0"/>
      <psa03 value="0.0441767015" flag="0"/>
      <psa10 value="0.0151440134" flag="0"/>
      <psa30 value="0.0012340171" flag="0"/>
    </comp>
    <comp name="--.HHZ">
      <acc value="0.0092876745" flag="0"/>
      <vel value="0.0090386314" flag="0"/>
      <psa03 value="0.0283108054" flag="0"/>
      <psa10 value="0.0136690728" flag="0"/>
      <psa30 value="0.0017485484" flag="0"/>
    </comp>
  </station>
  <station code="PVO" name="PVO" netid="HP" insttype="120P," lat="38.616" lon="21.525">
    <comp name="--.HHE">
      <acc value="0.0135873529" flag="0"/>
      <vel value="0.0068899663" flag="0"/>
      <psa03 value="0.0367104949" flag="0"/>
      <psa10 value="0.0107087868" flag="0"/>
      <psa30 value="0.0013860108" flag="0"/>
    </comp>
    <comp name="--.HHN">
      <acc value="0.0116272869" flag="0"/>
      <vel value="0.0073928513" flag="0"/>
      <psa03 value="0.0210167393" flag="0"/>
      <psa10 value="0.0097081929" flag="0"/>
      <psa30 value="0.0013598124" flag="0"/>
    </comp>
    <comp name="--.HHZ">
      <acc value="0.0079446674" flag="0"/>
      <vel value="0.0053742891" flag="0"/>
      <psa03 value="0.0145353189" flag="0"/>
      <psa10 value="0.0082848612" flag="0"/>
      <psa30 value="0.0010813221" flag="0"/>
    </comp>
  </station>
  <station code="DMLN" name="DMLN" netid="HT" insttype="1s-100Hz," lat="38.2385" lon="20.3734">
    <comp name="--.HHE">
      <acc value="0.0379898382" flag="0"/>
      <vel value="0.0108003008" flag="0"/>
      <psa03 value="0.0604993002" flag="0"/>
      <psa10 value="0.0133500391" flag="0"/>
      <psa30 value="0.0010447374" flag="0"/>
    </comp>
    <comp name="--.HHZ">
      <acc value="0.0165433482" flag="0"/>
      <vel value="0.0061993010" flag="0"/>
      <psa03 value="0.0354087587" flag="0"/>
      <psa10 value="0.0067164537" flag="0"/>
      <psa30 value="0.0005502852" flag="0"/>
    </comp>
    <comp name="--.HHN">
      <acc value="0.0261176636" flag="0"/>
      <vel value="0.0116104470" flag="0"/>
      <psa03 value="0.0530487986" flag="0"/>
      <psa10 value="0.0104333445" flag="0"/>
      <psa30 value="0.0007255607" flag="0"/>
    </comp>
  </station>
  <station code="EVGI" name="EVGI" netid="HT" insttype="30" lat="38.621" lon="20.656">
    <comp name="--.HHZ">
      <acc value="0.0689287453" flag="0"/>
      <vel value="0.0195738955" flag="0"/>
      <psa03 value="0.0596060888" flag="0"/>
      <psa10 value="0.0256812777" flag="0"/>
      <psa30 value="0.0014983804" flag="0"/>
    </comp>
    <comp name="--.HHE">
      <acc value="0.1310516908" flag="0"/>
      <vel value="0.0310639532" flag="0"/>
      <psa03 value="0.1473133646" flag="0"/>
      <psa10 value="0.0434944885" flag="0"/>
      <psa30 value="0.0017789886" flag="0"/>
    </comp>
    <comp name="--.HHN">
      <acc value="0.1174598907" flag="0"/>
      <vel value="0.0311866159" flag="0"/>
      <psa03 value="0.0942894796" flag="0"/>
      <psa10 value="0.0403776162" flag="0"/>
      <psa30 value="0.0025306878" flag="0"/>
    </comp>
  </station>
  <station code="IGT" name="IGT" netid="HT" insttype="100" lat="39.5315" lon="20.3299">
    <comp name="--.HHN">
      <acc value="0.0415859147" flag="0"/>
      <vel value="0.0116174029" flag="0"/>
      <psa03 value="0.0558083992" flag="0"/>
      <psa10 value="0.0056729936" flag="0"/>
      <psa30 value="0.0012469685" flag="0"/>
    </comp>
    <comp name="--.HHE">
      <acc value="0.0508156880" flag="0"/>
      <vel value="0.0104305726" flag="0"/>
      <psa03 value="0.0715590438" flag="0"/>
      <psa10 value="0.0056401701" flag="0"/>
      <psa30 value="0.0008749919" flag="0"/>
    </comp>
    <comp name="--.HHZ">
      <acc value="0.0389834884" flag="0"/>
      <vel value="0.0103294894" flag="0"/>
      <psa03 value="0.0607469658" flag="0"/>
      <psa10 value="0.0073637032" flag="0"/>
      <psa30 value="0.0014050307" flag="0"/>
    </comp>
  </station>
  <station code="PSDA" name="PSDA" netid="HT" insttype="30" lat="38.114" lon="20.5841">
    <comp name="--.HHE">
      <acc value="0.0218920607" flag="0"/>
      <vel value="0.0121066602" flag="0"/>
      <psa03 value="0.0533817164" flag="0"/>
      <psa10 value="0.0202732381" flag="0"/>
      <psa30 value="0.0008098540" flag="0"/>
    </comp>
    <comp name="--.HHN">
      <acc value="0.0186272624" flag="0"/>
