<?xml version="1.0" encoding="UTF-8" standalone="yes"?>
<!DOCTYPE earthquake SYSTEM "stationlist.dtd">
<stationlist created="" xmlns="ch.ethz.sed.shakemap.usgs.xml">
  <station code="SRN" name="SRN" netid="AC" insttype="" lat="39.88" lon="20.0005">
    <comp name="--.HHZ">
      <acc value="0.0018979730" flag="0"/>
      <vel value="0.0009732792" flag="0"/>
      <psa03 value="0.0061996044" flag="0"/>
      <psa10 value="0.0013670637" flag="0"/>
      <psa30 value="0.0003117510" flag="0"/>
    </comp>
    <comp name="--.HHE">
      <acc value="0.0027906257" flag="0"/>
      <vel value="0.0014000802" flag="0"/>
      <psa03 value="0.0063414216" flag="0"/>
      <psa10 value="0.0024169793" flag="0"/>
      <psa30 value="0.0002887595" flag="0"/>
    </comp>
    <comp name="--.HHN">
      <acc value="0.0023584255" flag="0"/>
      <vel value="0.0008096768" flag="0"/>
      <psa03 value="0.0038074425" flag="0"/>
      <psa10 value="0.0015653028" flag="0"/>
      <psa30 value="0.0003636185" flag="0"/>
    </comp>
  </station>
  <station code="KEK" name="KEK" netid="MN" insttype="" lat="39.7127" lon="19.7962">
    <comp name="--.HHN">
      <acc value="0.0087283801" flag="0"/>
      <vel value="0.0050207798" flag="0"/>
      <psa03 value="0.0279417073" flag="0"/>
      <psa10 value="0.0070142820" flag="0"/>
      <psa30 value="0.0007946318" flag="0"/>
    </comp>
    <comp name="--.HHE">
      <acc value="0.0172298831" flag="0"/>
      <vel value="0.0063709046" flag="0"/>
      <psa03 value="0.0498694148" flag="0"/>
      <psa10 value="0.0087954414" flag="0"/>
      <psa30 value="0.0006522621" flag="0"/>
    </comp>
    <comp name="--.HHZ">
      <acc value="0.0079479958" flag="0"/>
      <vel value="0.0042075859" flag="0"/>
      <psa03 value="0.0235387517" flag="0"/>
      <psa10 value="0.0061489188" flag="0"/>
      <psa30 value="0.0004475309" flag="0"/>
    </comp>
  </station>
</stationlist>
