<?xml version="1.0" encoding="UTF-8" standalone="yes"?>
<!DOCTYPE earthquake SYSTEM "stationlist.dtd">
<stationlist created="" xmlns="ch.ethz.sed.shakemap.usgs.xml">
  <station code="BNN" name="BNN" netid="KO" insttype="CMG-3T" lat="38.8521" lon="35.8472">
    <comp name="--.HHE">
      <acc value="0.0477587390" flag="0"/>
      <vel value="0.0438083994" flag="0"/>
      <psa03 value="0.0713777248" flag="0"/>
      <psa10 value="0.0683819537" flag="0"/>
      <psa30 value="0.0126658651" flag="0"/>
    </comp>
    <comp name="--.HHN">
      <acc value="0.0439181371" flag="0"/>
      <vel value="0.0539882892" flag="0"/>
      <psa03 value="0.0666950104" flag="0"/>
      <psa10 value="0.0877915842" flag="0"/>
      <psa30 value="0.0131304954" flag="0"/>
    </comp>
    <comp name="--.HHZ">
      <acc value="0.0164086606" flag="0"/>
      <vel value="0.0210155495" flag="0"/>
      <psa03 value="0.0431536660" flag="0"/>
      <psa10 value="0.0484818034" flag="0"/>
      <psa30 value="0.0079118402" flag="0"/>
    </comp>
  </station>
  <station code="CEYT" name="CEYT" netid="KO" insttype="CMG-3ESP" lat="37.0105" lon="35.7478">
    <comp name="--.HHE">
      <acc value="0.0524571464" flag="0"/>
      <vel value="0.0441282113" flag="0"/>
      <psa03 value="0.1867147128" flag="0"/>
      <psa10 value="0.0670907559" flag="0"/>
      <psa30 value="0.0143853947" flag="0"/>
    </comp>
    <comp name="--.HHZ">
      <acc value="0.0217339194" flag="0"/>
      <vel value="0.0286700463" flag="0"/>
      <psa03 value="0.0615156706" flag="0"/>
      <psa10 value="0.0464298708" flag="0"/>
      <psa30 value="0.0079388162" flag="0"/>
    </comp>
    <comp name="--.HHN">
      <acc value="0.0368566923" flag="0"/>
      <vel value="0.0315533267" flag="0"/>
      <psa03 value="0.1531952961" flag="0"/>
      <psa10 value="0.0425583841" flag="0"/>
      <psa30 value="0.0061526746" flag="0"/>
    </comp>
  </station>
  <station code="CMRD" name="CMRD" netid="KO" insttype="CMG-5T" lat="37.6623" lon="34.9902">
    <comp name="--.HNZ">
      <acc value="0.0195659131" flag="0"/>
      <vel value="0.0212255787" flag="0"/>
      <psa03 value="0.0461797606" flag="0"/>
      <psa10 value="0.0183272312" flag="0"/>
      <psa30 value="0.0056706631" flag="0"/>
    </comp>
    <comp name="--.HNE">
      <acc value="0.0293036580" flag="0"/>
      <vel value="0.0164641099" flag="0"/>
      <psa03 value="0.0772389319" flag="0"/>
      <psa10 value="0.0189197876" flag="0"/>
      <psa30 value="0.0031044331" flag="0"/>
    </comp>
    <comp name="--.HNN">
      <acc value="0.0304402951" flag="0"/>
      <vel value="0.0220217578" flag="0"/>
      <psa03 value="0.0953115111" flag="0"/>
      <psa10 value="0.0193588907" flag="0"/>
      <psa30 value="0.0065644450" flag="0"/>
    </comp>
  </station>
  <station code="DARE" name="DARE" netid="KO" insttype="CMG-3ESP" lat="38.5712" lon="37.4832">
    <comp name="--.HHE">
      <acc value="0.0251341498" flag="0"/>
      <vel value="0.0223121234" flag="0"/>
      <psa03 value="0.0588898624" flag="0"/>
      <psa10 value="0.0224809429" flag="0"/>
      <psa30 value="0.0070616655" flag="0"/>
    </comp>
    <comp name="--.HHN">
      <acc value="0.0214521366" flag="0"/>
      <vel value="0.0180376802" flag="0"/>
      <psa03 value="0.0473033928" flag="0"/>
      <psa10 value="0.0231018778" flag="0"/>
      <psa30 value="0.0047124735" flag="0"/>
    </comp>
    <comp name="--.HHZ">
      <acc value="0.0167616303" flag="0"/>
      <vel value="0.0190178711" flag="0"/>
      <psa03 value="0.0427681889" flag="0"/>
      <psa10 value="0.0236667240" flag="0"/>
      <psa30 value="0.0074642556" flag="0"/>
    </comp>
  </station>
  <station code="GAZ" name="GAZ" netid="KO" insttype="CMG-3T" lat="37.1721" lon="37.2096">
    <comp name="--.HHE">
      <acc value="0.1371754765" flag="0"/>
      <vel value="0.0841059785" flag="0"/>
      <psa03 value="0.2701702302" flag="0"/>
      <psa10 value="0.1005906233" flag="0"/>
      <psa30 value="0.0146355228" flag="0"/>
    </comp>
    <comp name="--.HHN">
      <acc value="0.0979767823" flag="0"/>
      <vel value="0.0923834212" flag="0"/>
      <psa03 value="0.2586021169" flag="0"/>
      <psa10 value="0.1142215632" flag="0"/>
      <psa30 value="0.0117814542" flag="0"/>
    </comp>
    <comp name="--.HHZ">
      <acc value="0.0897115808" flag="0"/>
      <vel value="0.0559518436" flag="0"/>
      <psa03 value="0.1390210133" flag="0"/>
      <psa10 value="0.0481810803" flag="0"/>
      <psa30 value="0.0209692899" flag="0"/>
    </comp>
  </station>
  <station code="KMRS" name="KMRS" netid="KO" insttype="CMG-3T" lat="37.5053" lon="36.9">
    <comp name="--.HHZ">
      <acc value="0.2786137590" flag="0"/>
      <vel value="0.1300767129" flag="0"/>
      <psa03 value="0.5793644370" flag="0"/>
      <psa10 value="0.1455252211" flag="0"/>
      <psa30 value="0.0389232849" flag="0"/>
    </comp>
    <comp name="--.HHN">
      <acc value="0.6877413482" flag="0"/>
      <vel value="0.2782617010" flag="0"/>
      <psa03 value="1.1447655934" flag="0"/>
      <psa10 value="0.3558712585" flag="0"/>
      <psa30 value="0.0504579427" flag="0"/>
    </comp>
  </station>
  <station code="SARI" name="SARI" netid="KO" insttype="CMG-3T" lat="38.4072" lon="36.4181">
    <comp name="--.HHN">
      <acc value="0.1727238848" flag="0"/>
      <vel value="0.0898192039" flag="0"/>
      <psa03 value="0.4807150925" flag="0"/>
      <psa10 value="0.0876767082" flag="0"/>
      <psa30 value="0.0078763107" flag="0"/>
    </comp>
  </station>
  <station code="TAHT" name="TAHT" netid="KO" insttype="CMG-3ESPC" lat="36.3755" lon="36.1855">
    <comp name="--.HHN">
      <acc value="0.1526721479" flag="0"/>
      <vel value="0.0665016146" flag="0"/>
      <psa03 value="0.4347549257" flag="0"/>
      <psa10 value="0.0756553226" flag="0"/>
      <psa30 value="0.0046561727" flag="0"/>
    </comp>
    <comp name="--.HHZ">
      <acc value="0.0932805660" flag="0"/>
      <vel value="0.0580517782" flag="0"/>
      <psa03 value="0.1926415388" flag="0"/>
      <psa10 value="0.1093361488" flag="0"/>
      <psa30 value="0.0064043703" flag="0"/>
    </comp>
  </station>
</stationlist>
