<?xml version="1.0" encoding="UTF-8" standalone="yes"?>
<!DOCTYPE earthquake SYSTEM "stationlist.dtd">
<stationlist created="" xmlns="ch.ethz.sed.shakemap.usgs.xml">
  <station code="APE" name="APE" netid="GE" insttype="STS-2/N" lat="37.0727" lon="25.523">
    <comp name="--.HHE">
      <acc value="0.0867134017" flag="0"/>
      <vel value="0.0104656692" flag="0"/>
      <psa03 value="0.0414944841" flag="0"/>
      <psa10 value="0.0046923074" flag="0"/>
      <psa30 value="0.0007869469" flag="0"/>
    </comp>
    <comp name="--.HHN">
      <acc value="0.0888650641" flag="0"/>
      <vel value="0.0152426628" flag="0"/>
      <psa03 value="0.0453625009" flag="0"/>
      <psa10 value="0.0039004870" flag="0"/>
      <psa30 value="0.0006385385" flag="0"/>
    </comp>
    <comp name="--.HHZ">
      <acc value="0.0357943709" flag="0"/>
      <vel value="0.0064892027" flag="0"/>
      <psa03 value="0.0394632378" flag="0"/>
      <psa10 value="0.0043065270" flag="0"/>
      <psa30 value="0.0007601897" flag="0"/>
    </comp>
  </station>
  <station code="THERA" name="THERA" netid="GE" insttype="STS-2/N" lat="36.367" lon="25.4753">
    <comp name="--.HHE">
      <acc value="0.0629549295" flag="0"/>
      <vel value="0.0188157987" flag="0"/>
      <psa03 value="0.0467393670" flag="0"/>
      <psa10 value="0.0043979305" flag="0"/>
      <psa30 value="0.0004134879" flag="0"/>
    </comp>
    <comp name="--.HHN">
      <acc value="0.0565432842" flag="0"/>
      <vel value="0.0109306991" flag="0"/>
      <psa03 value="0.0384458899" flag="0"/>
      <psa10 value="0.0022699938" flag="0"/>
      <psa30 value="0.0002382662" flag="0"/>
    </comp>
    <comp name="--.HHZ">
      <acc value="0.0596098301" flag="0"/>
      <vel value="0.0105001166" flag="0"/>
      <psa03 value="0.0350527641" flag="0"/>
      <psa10 value="0.0027218587" flag="0"/>
      <psa30 value="0.0002184771" flag="0"/>
    </comp>
  </station>
  <station code="SERI" name="SERI" netid="HA" insttype="30" lat="37.1609" lon="24.4853">
    <comp name="--.HHE">
      <acc value="0.0211607027" flag="0"/>
      <vel value="0.0058202527" flag="0"/>
      <psa03 value="0.0369554858" flag="0"/>
      <psa10 value="0.0016306181" flag="0"/>
      <psa30 value="0.0001641024" flag="0"/>
    </comp>
    <comp name="--.HHN">
      <acc value="0.0249873314" flag="0"/>
      <vel value="0.0075397637" flag="0"/>
      <psa03 value="0.0511252125" flag="0"/>
      <psa10 value="0.0025629164" flag="0"/>
      <psa30 value="0.0002707696" flag="0"/>
    </comp>
    <comp name="--.HHZ">
      <acc value="0.0233523647" flag="0"/>
      <vel value="0.0053606350" flag="0"/>
      <psa03 value="0.0364351122" flag="0"/>
      <psa10 value="0.0020462308" flag="0"/>
      <psa30 value="0.0002506408" flag="0"/>
    </comp>
  </station>
  <station code="SNT1" name="SNT1" netid="HA" insttype="30" lat="36.4159" lon="25.4282">
    <comp name="--.HHE">
      <acc value="0.0528781434" flag="0"/>
      <vel value="0.0182449153" flag="0"/>
      <psa03 value="0.0583822963" flag="0"/>
      <psa10 value="0.0083800435" flag="0"/>
      <psa30 value="0.0006277596" flag="0"/>
    </comp>
    <comp name="--.HHZ">
      <acc value="0.0442866009" flag="0"/>
      <vel value="0.0117451341" flag="0"/>
      <psa03 value="0.0495075670" flag="0"/>
      <psa10 value="0.0048302714" flag="0"/>
      <psa30 value="0.0002774000" flag="0"/>
    </comp>
    <comp name="--.HHN">
      <acc value="0.0520861028" flag="0"/>
      <vel value="0.0181296945" flag="0"/>
      <psa03 value="0.0779058585" flag="0"/>
      <psa10 value="0.0072815211" flag="0"/>
      <psa30 value="0.0005533402" flag="0"/>
    </comp>
  </station>
  <station code="SNT5" name="SNT5" netid="HA" insttype="1s-100Hz," lat="36.4037" lon="25.3953">
    <comp name="--.HHZ">
      <acc value="0.0777306700" flag="0"/>
      <vel value="0.0104036438" flag="0"/>
      <psa03 value="0.0319436216" flag="0"/>
      <psa10 value="0.0026569182" flag="0"/>
      <psa30 value="0.0003030045" flag="0"/>
    </comp>
    <comp name="--.HHE">
      <acc value="0.2468760500" flag="0"/>
      <vel value="0.0731477990" flag="0"/>
      <psa03 value="0.2174003080" flag="0"/>
      <psa10 value="0.0139963032" flag="0"/>
      <psa30 value="0.0013861784" flag="0"/>
    </comp>
    <comp name="--.HHN">
      <acc value="0.1634519157" flag="0"/>
      <vel value="0.0333735379" flag="0"/>
      <psa03 value="0.1509092790" flag="0"/>
      <psa10 value="0.0056529072" flag="0"/>
      <psa30 value="0.0009001524" flag="0"/>
    </comp>
  </station>
  <station code="NAX1" name="NAX1" netid="HI" insttype="CMG-5TD,ACCELEROMETER,GURALP" lat="37.1014" lon="25.3741">
    <comp name="--.HNE">
      <acc value="0.0643173300" flag="0"/>
      <vel value="0.0140739286" flag="0"/>
      <psa03 value="0.0696410438" flag="0"/>
      <psa10 value="0.0032567342" flag="0"/>
      <psa30 value="0.0004421577" flag="0"/>
    </comp>
    <comp name="--.HNN">
      <acc value="0.0538282154" flag="0"/>
      <vel value="0.0117371613" flag="0"/>
      <psa03 value="0.0346894523" flag="0"/>
      <psa10 value="0.0026685417" flag="0"/>
      <psa30 value="0.0004852618" flag="0"/>
    </comp>
    <comp name="--.HNZ">
      <acc value="0.0295379551" flag="0"/>
      <vel value="0.0076896014" flag="0"/>
      <psa03 value="0.0363391538" flag="0"/>
      <psa10 value="0.0033391164" flag="0"/>
      <psa30 value="0.0005971036" flag="0"/>
    </comp>
  </station>
  <station code="SFR2" name="SFR2" netid="HI" insttype="unknown" lat="36.3998" lon="25.4382">
    <comp name="--.HNN">
      <acc value="0.1377485138" flag="0"/>
      <vel value="0.0425372333" flag="0"/>
      <psa03 value="0.1505541863" flag="0"/>
      <psa10 value="0.0171770213" flag="0"/>
      <psa30 value="0.0008805264" flag="0"/>
    </comp>
  </station>
  <station code="AMGA" name="AMGA" netid="HL" insttype="SMART24" lat="36.8316" lon="25.8938">
    <comp name="--.HHE">
      <acc value="0.6514823534" flag="0"/>
      <vel value="0.0979301578" flag="0"/>
      <psa03 value="0.2234117387" flag="0"/>
      <psa10 value="0.0153391748" flag="0"/>
      <psa30 value="0.0017149585" flag="0"/>
    </comp>
    <comp name="--.HHN">
      <acc value="0.5871024113" flag="0"/>
      <vel value="0.0856320720" flag="0"/>
      <psa03 value="0.2104485967" flag="0"/>
      <psa10 value="0.0178936055" flag="0"/>
      <psa30 value="0.0015462254" flag="0"/>
    </comp>
    <comp name="--.HHZ">
      <acc value="0.4568761035" flag="0"/>
      <vel value="0.0907720108" flag="0"/>
      <psa03 value="0.1523098412" flag="0"/>
      <psa10 value="0.0238305216" flag="0"/>
      <psa30 value="0.0015571897" flag="0"/>
    </comp>
  </station>
  <station code="APE" name="APE" netid="HL" insttype="120" lat="37.0727" lon="25.523">
    <comp name="--.HHE">
      <acc value="0.0746650793" flag="0"/>
      <vel value="0.0095413456" flag="0"/>
      <psa03 value="0.0400766141" flag="0"/>
      <psa10 value="0.0046271565" flag="0"/>
      <psa30 value="0.0007847361" flag="0"/>
    </comp>
    <comp name="--.HHZ">
      <acc value="0.0335553870" flag="0"/>
      <vel value="0.0061078077" flag="0"/>
      <psa03 value="0.0381073687" flag="0"/>
      <psa10 value="0.0042560177" flag="0"/>
      <psa30 value="0.0007583660" flag="0"/>
    </comp>
    <comp name="--.HHN">
      <acc value="0.0865394680" flag="0"/>
      <vel value="0.0140859073" flag="0"/>
      <psa03 value="0.0442579898" flag="0"/>
      <psa10 value="0.0038474765" flag="0"/>
      <psa30 value="0.0006366796" flag="0"/>
    </comp>
  </station>
  <station code="MHLO" name="MHLO" netid="HL" insttype="20" lat="36.6898" lon="24.4017">
    <comp name="--.HHN">
      <acc value="0.0349632284" flag="0"/>
      <vel value="0.0143274394" flag="0"/>
      <psa03 value="0.1134990500" flag="0"/>
      <psa10 value="0.0127509129" flag="0"/>
      <psa30 value="0.0006815828" flag="0"/>
    </comp>
    <comp name="--.HHE">
      <acc value="0.0598531408" flag="0"/>
      <vel value="0.0304029992" flag="0"/>
      <psa03 value="0.2019485705" flag="0"/>
      <psa10 value="0.0134196950" flag="0"/>
      <psa30 value="0.0009211044" flag="0"/>
    </comp>
    <comp name="--.HHZ">
      <acc value="0.0200325566" flag="0"/>
      <vel value="0.0087899068" flag="0"/>
      <psa03 value="0.0490028805" flag="0"/>
      <psa10 value="0.0083480664" flag="0"/>
      <psa30 value="0.0005345470" flag="0"/>
    </comp>
  </station>
  <station code="MILA" name="MILA" netid="HL" insttype="CMG-5" lat="36.7429" lon="24.4282">
    <comp name="00.HNN">
      <acc value="0.0847493614" flag="0"/>
      <vel value="0.0296822745" flag="0"/>
      <psa03 value="0.2150085672" flag="0"/>
      <psa10 value="0.0131821756" flag="0"/>
      <psa30 value="0.0007706836" flag="0"/>
    </comp>
    <comp name="00.HNE">
      <acc value="0.0660016798" flag="0"/>
      <vel value="0.0170392689" flag="0"/>
      <psa03 value="0.1077052663" flag="0"/>
      <psa10 value="0.0066883041" flag="0"/>
      <psa30 value="0.0006096888" flag="0"/>
    </comp>
    <comp name="00.HNZ">
      <acc value="0.0548723708" flag="0"/>
      <vel value="0.0164649133" flag="0"/>
      <psa03 value="0.0724288950" flag="0"/>
      <psa10 value="0.0092317227" flag="0"/>
      <psa30 value="0.0004613192" flag="0"/>
    </comp>
  </station>
  <station code="SANT" name="SANT" netid="HL" insttype="30" lat="36.3705" lon="25.4593">
    <comp name="--.HHN">
      <acc value="0.2587573333" flag="0"/>
      <vel value="0.0254728654" flag="0"/>
      <psa03 value="0.0706204294" flag="0"/>
      <psa10 value="0.0046832080" flag="0"/>
      <psa30 value="0.0003948045" flag="0"/>
    </comp>
    <comp name="--.HHZ">
      <acc value="0.1759724924" flag="0"/>
      <vel value="0.0230248829" flag="0"/>
      <psa03 value="0.0864721217" flag="0"/>
      <psa10 value="0.0041982339" flag="0"/>
      <psa30 value="0.0003330656" flag="0"/>
    </comp>
    <comp name="--.HHE">
      <acc value="0.2733440800" flag="0"/>
      <vel value="0.0374482921" flag="0"/>
      <psa03 value="0.1290958919" flag="0"/>
      <psa10 value="0.0087175332" flag="0"/>
      <psa30 value="0.0007192965" flag="0"/>
    </comp>
  </station>
  <station code="SAP3" name="SAP3" netid="HL" insttype="65535" lat="36.4356" lon="25.3454">
    <comp name="--.HHZ">
      <acc value="0.0889775353" flag="0"/>
      <vel value="0.0179646920" flag="0"/>
      <psa03 value="0.0761127577" flag="0"/>
      <psa10 value="0.0049051929" flag="0"/>
      <psa30 value="0.0005771814" flag="0"/>
    </comp>
    <comp name="--.HHE">
      <acc value="0.0693682262" flag="0"/>
      <vel value="0.0177251484" flag="0"/>
      <psa03 value="0.0659074213" flag="0"/>
      <psa10 value="0.0104866311" flag="0"/>
      <psa30 value="0.0014045920" flag="0"/>
    </comp>
    <comp name="--.HHN">
      <acc value="0.0695357657" flag="0"/>
      <vel value="0.0166994498" flag="0"/>
      <psa03 value="0.0639028744" flag="0"/>
      <psa10 value="0.0104673678" flag="0"/>
      <psa30 value="0.0011253091" flag="0"/>
    </comp>
  </station>
  <station code="THERA" name="THERA" netid="HL" insttype="120" lat="36.367" lon="25.4753">
    <comp name="--.HHZ">
      <acc value="0.0614059597" flag="0"/>
      <vel value="0.0104603403" flag="0"/>
      <psa03 value="0.0341369115" flag="0"/>
      <psa10 value="0.0026815265" flag="0"/>
      <psa30 value="0.0002159322" flag="0"/>
    </comp>
    <comp name="--.HHE">
      <acc value="0.0634543098" flag="0"/>
      <vel value="0.0183262566" flag="0"/>
      <psa03 value="0.0453398774" flag="0"/>
      <psa10 value="0.0043556278" flag="0"/>
      <psa30 value="0.0004126257" flag="0"/>
    </comp>
    <comp name="--.HHN">
      <acc value="0.1161072490" flag="0"/>
      <vel value="0.0211532996" flag="0"/>
      <psa03 value="0.0749747216" flag="0"/>
      <psa10 value="0.0045026057" flag="0"/>
      <psa30 value="0.0004666192" flag="0"/>
    </comp>
  </station>
  <station code="THRA" name="THRA" netid="HL" insttype="CMG-5" lat="36.415" lon="25.4324">
    <comp name="00.HNN">
      <acc value="0.1608890684" flag="0"/>
      <vel value="0.0560446742" flag="0"/>
      <psa03 value="0.1997167860" flag="0"/>
      <psa10 value="0.0254994106" flag="0"/>
      <psa30 value="0.0012828089" flag="0"/>
    </comp>
    <comp name="00.HNZ">
      <acc value="0.1379737569" flag="0"/>
      <vel value="0.0406415200" flag="0"/>
      <psa03 value="0.2586094626" flag="0"/>
      <psa10 value="0.0087408350" flag="0"/>
      <psa30 value="0.0008354046" flag="0"/>
    </comp>
    <comp name="00.HNE">
      <acc value="0.1659112866" flag="0"/>
      <vel value="0.0465093164" flag="0"/>
      <psa03 value="0.2671749571" flag="0"/>
      <psa10 value="0.0184223499" flag="0"/>
      <psa30 value="0.0012305154" flag="0"/>
    </comp>
  </station>
  <station code="TNSA" name="TNSA" netid="HL" insttype="CMG-5" lat="37.5394" lon="25.1631">
    <comp name="00.HNE">
      <acc value="0.0303319448" flag="0"/>
      <vel value="0.0092987347" flag="0"/>
      <psa03 value="0.0277962612" flag="0"/>
      <psa10 value="0.0020583212" flag="0"/>
      <psa30 value="0.0002167323" flag="0"/>
    </comp>
    <comp name="00.HNZ">
      <acc value="0.0222791513" flag="0"/>
      <vel value="0.0081004042" flag="0"/>
      <psa03 value="0.0252435400" flag="0"/>
      <psa10 value="0.0046095243" flag="0"/>
      <psa30 value="0.0003351240" flag="0"/>
    </comp>
    <comp name="00.HNN">
      <acc value="0.0389933312" flag="0"/>
      <vel value="0.0090273700" flag="0"/>
      <psa03 value="0.0576128714" flag="0"/>
      <psa10 value="0.0039243971" flag="0"/>
      <psa30 value="0.0002969057" flag="0"/>
    </comp>
  </station>
  <station code="AKRO" name="AKRO" netid="HT" insttype="Compact," lat="36.3584" lon="25.3967">
    <comp name="--.HHE">
      <acc value="0.1882193419" flag="0"/>
      <vel value="0.0551501508" flag="0"/>
      <psa03 value="0.3350857161" flag="0"/>
      <psa10 value="0.0172696015" flag="0"/>
      <psa30 value="0.0015913771" flag="0"/>
    </comp>
    <comp name="--.HHN">
      <acc value="0.1818860405" flag="0"/>
      <vel value="0.0353961381" flag="0"/>
      <psa03 value="0.1497392390" flag="0"/>
      <psa10 value="0.0101687862" flag="0"/>
      <psa30 value="0.0009512603" flag="0"/>
    </comp>
    <comp name="--.HHZ">
      <acc value="0.1354984114" flag="0"/>
      <vel value="0.0344029809" flag="0"/>
      <psa03 value="0.1568337441" flag="0"/>
      <psa10 value="0.0096171854" flag="0"/>
      <psa30 value="0.0005405877" flag="0"/>
    </comp>
  </station>
  <station code="CMBO" name="CMBO" netid="HT" insttype="120P," lat="36.4709" lon="25.4056">
    <comp name="--.HHZ">
      <acc value="0.0894875937" flag="0"/>
      <vel value="0.0218763225" flag="0"/>
      <psa03 value="0.1255668059" flag="0"/>
      <psa10 value="0.0041514297" flag="0"/>
      <psa30 value="0.0007397726" flag="0"/>
    </comp>
    <comp name="--.HHN">
      <acc value="0.1117733870" flag="0"/>
      <vel value="0.0266847660" flag="0"/>
      <psa03 value="0.1085927676" flag="0"/>
      <psa10 value="0.0111472368" flag="0"/>
      <psa30 value="0.0009895578" flag="0"/>
    </comp>
    <comp name="--.HHE">
      <acc value="0.0661123182" flag="0"/>
      <vel value="0.0230930340" flag="0"/>
      <psa03 value="0.0910104993" flag="0"/>
      <psa10 value="0.0084464941" flag="0"/>
      <psa30 value="0.0007924075" flag="0"/>
    </comp>
  </station>
</stationlist>
