<?xml version="1.0" encoding="UTF-8" standalone="yes"?>
<!DOCTYPE earthquake SYSTEM "stationlist.dtd">
<stationlist created="" xmlns="ch.ethz.sed.shakemap.usgs.xml">
  <station code="APE" name="APE" netid="GE" insttype="STS-2/N" lat="37.0727" lon="25.523">
    <comp name="--.HHE">
      <acc value="0.0867134017" flag="0"/>
      <vel value="0.0104656692" flag="0"/>
      <psa03 value="0.0414944841" flag="0"/>
      <psa10 value="0.0046923074" flag="0"/>
      <psa30 value="0.0007869469" flag="0"/>
    </comp>
    <comp name="--.HHN">
      <acc value="0.0888650641" flag="0"/>
      <vel value="0.0152426628" flag="0"/>
      <psa03 value="0.0453625009" flag="0"/>
      <psa10 value="0.0039004870" flag="0"/>
      <psa30 value="0.0006385385" flag="0"/>
    </comp>
    <comp name="--.HHZ">
      <acc value="0.0357943709" flag="0"/>
      <vel value="0.0064892027" flag="0"/>
      <psa03 value="0.0394632378" flag="0"/>
      <psa10 value="0.0043065270" flag="0"/>
      <psa30 value="0.0007601897" flag="0"/>
    </comp>
  </station>
  <station code="THERA" name="THERA" netid="GE" insttype="STS-2/N" lat="36.367" lon="25.4753">
    <comp name="--.HHE">
      <acc value="0.0629549295" flag="0"/>
      <vel value="0.0188157987" flag="0"/>
      <psa03 value="0.0467393670" flag="0"/>
      <psa10 value="0.0043979305" flag="0"/>
      <psa30 value="0.0004134879" flag="0"/>
    </comp>
    <comp name="--.HHN">
      <acc value="0.0565432842" flag="0"/>
      <vel value="0.0109306991" flag="0"/>
      <psa03 value="0.0384458899" flag="0"/>
      <psa10 value="0.0022699938" flag="0"/>
      <psa30 value="0.0002382662" flag="0"/>
    </comp>
    <comp name="--.HHZ">
      <acc value="0.0596098301" flag="0"/>
      <vel value="0.0105001166" flag="0"/>
      <psa03 value="0.0350527641" flag="0"/>
      <psa10 value="0.0027218587" flag="0"/>
      <psa30 value="0.0002184771" flag="0"/>
    </comp>
  </station>
</stationlist>
