<?xml version="1.0" encoding="UTF-8" standalone="yes"?>
<!DOCTYPE earthquake SYSTEM "stationlist.dtd">
<stationlist created="" xmlns="ch.ethz.sed.shakemap.usgs.xml">
  <station code="ARPRA" name="ARPRA" netid="KO" insttype="CMG-5T" lat="39.0929" lon="38.3356">
    <comp name="--.HNE">
      <acc value="0.1473460899" flag="0"/>
      <vel value="0.0928455128" flag="0"/>
      <psa03 value="0.3239386637" flag="0"/>
      <psa10 value="0.1244632834" flag="0"/>
      <psa30 value="0.0077666730" flag="0"/>
    </comp>
    <comp name="--.HNZ">
      <acc value="0.0468317223" flag="0"/>
      <vel value="0.0369015871" flag="0"/>
      <psa03 value="0.1209537417" flag="0"/>
      <psa10 value="0.0716762621" flag="0"/>
      <psa30 value="0.0079173686" flag="0"/>
    </comp>
    <comp name="--.HNN">
      <acc value="0.1257050121" flag="0"/>
      <vel value="0.0834052980" flag="0"/>
      <psa03 value="0.3560449017" flag="0"/>
      <psa10 value="0.1072850546" flag="0"/>
      <psa30 value="0.0093169032" flag="0"/>
    </comp>
  </station>
  <station code="DYBB" name="DYBB" netid="KO" insttype="CMG-3T" lat="37.9532" lon="40.1393">
    <comp name="--.HHE">
      <acc value="0.0259904350" flag="0"/>
      <vel value="0.0458867975" flag="0"/>
      <psa03 value="0.0499347362" flag="0"/>
      <psa10 value="0.0759975460" flag="0"/>
      <psa30 value="0.0126407489" flag="0"/>
    </comp>
    <comp name="--.HHN">
      <acc value="0.0246048521" flag="0"/>
      <vel value="0.0376476447" flag="0"/>
      <psa03 value="0.0467749190" flag="0"/>
      <psa10 value="0.0405448276" flag="0"/>
      <psa30 value="0.0132386323" flag="0"/>
    </comp>
  </station>
  <station code="GAZ" name="GAZ" netid="KO" insttype="CMG-3T" lat="37.1721" lon="37.2096">
    <comp name="--.HHN">
      <acc value="0.0384151184" flag="0"/>
      <vel value="0.0407841089" flag="0"/>
      <psa03 value="0.0822410356" flag="0"/>
      <psa10 value="0.0385152438" flag="0"/>
      <psa30 value="0.0143600297" flag="0"/>
    </comp>
    <comp name="--.HHE">
      <acc value="0.0545471549" flag="0"/>
      <vel value="0.0501198285" flag="0"/>
      <psa03 value="0.2163406907" flag="0"/>
      <psa10 value="0.1088049175" flag="0"/>
      <psa30 value="0.0088559921" flag="0"/>
    </comp>
    <comp name="--.HHZ">
      <acc value="0.0279444996" flag="0"/>
      <vel value="0.0207839178" flag="0"/>
      <psa03 value="0.0771458596" flag="0"/>
      <psa10 value="0.0407608618" flag="0"/>
      <psa30 value="0.0048964214" flag="0"/>
    </comp>
  </station>
  <station code="KMRS" name="KMRS" netid="KO" insttype="CMG-3T" lat="37.5053" lon="36.9">
    <comp name="--.HHE">
      <acc value="0.0291431086" flag="0"/>
      <vel value="0.0236917464" flag="0"/>
      <psa03 value="0.0498438752" flag="0"/>
      <psa10 value="0.0310992738" flag="0"/>
      <psa30 value="0.0060129599" flag="0"/>
    </comp>
    <comp name="--.HHN">
      <acc value="0.0322278200" flag="0"/>
      <vel value="0.0266430346" flag="0"/>
      <psa03 value="0.0945152136" flag="0"/>
      <psa10 value="0.0283167232" flag="0"/>
      <psa30 value="0.0089502740" flag="0"/>
    </comp>
    <comp name="--.HHZ">
      <acc value="0.0240533841" flag="0"/>
      <vel value="0.0220379063" flag="0"/>
      <psa03 value="0.0748607535" flag="0"/>
      <psa10 value="0.0287937792" flag="0"/>
      <psa30 value="0.0039506199" flag="0"/>
    </comp>
  </station>
  <station code="SARI" name="SARI" netid="KO" insttype="CMG-3T" lat="38.4072" lon="36.4181">
    <comp name="--.HHZ">
      <acc value="0.0213024471" flag="0"/>
      <vel value="0.0300148071" flag="0"/>
      <psa03 value="0.0466247344" flag="0"/>
      <psa10 value="0.0457189706" flag="0"/>
      <psa30 value="0.0059039278" flag="0"/>
    </comp>
    <comp name="--.HHN">
      <acc value="0.0277774221" flag="0"/>
      <vel value="0.0255146246" flag="0"/>
      <psa03 value="0.0728944017" flag="0"/>
      <psa10 value="0.0426254010" flag="0"/>
      <psa30 value="0.0066020837" flag="0"/>
    </comp>
  </station>
  <station code="TUNC" name="TUNC" netid="KO" insttype="CMG-5T" lat="39.6942" lon="37.5388">
    <comp name="--.HNE">
      <acc value="0.0646269040" flag="0"/>
      <vel value="0.1010625410" flag="0"/>
      <psa03 value="0.1806119829" flag="0"/>
      <psa10 value="0.1685183924" flag="0"/>
      <psa30 value="0.0128853390" flag="0"/>
    </comp>
    <comp name="--.HNZ">
      <acc value="0.0240481642" flag="0"/>
      <vel value="0.0145766601" flag="0"/>
      <psa03 value="0.0485477448" flag="0"/>
      <psa10 value="0.0150825436" flag="0"/>
      <psa30 value="0.0008740780" flag="0"/>
    </comp>
    <comp name="--.HNN">
      <acc value="0.0508073046" flag="0"/>
      <vel value="0.0532285381" flag="0"/>
      <psa03 value="0.1470686597" flag="0"/>
      <psa10 value="0.0711077622" flag="0"/>
      <psa30 value="0.0102874660" flag="0"/>
    </comp>
  </station>
  <station code="URFA" name="URFA" netid="KO" insttype="CMG-3ESP" lat="37.4409" lon="38.8213">
    <comp name="--.HHZ">
      <acc value="0.1347207313" flag="0"/>
      <vel value="0.0466265171" flag="0"/>
      <psa03 value="0.2092562238" flag="0"/>
      <psa10 value="0.0569727133" flag="0"/>
      <psa30 value="0.0059412975" flag="0"/>
    </comp>
  </station>
</stationlist>
