<?xml version="1.0" encoding="UTF-8" standalone="yes"?>
<!DOCTYPE earthquake SYSTEM "stationlist.dtd">
<stationlist created="" xmlns="ch.ethz.sed.shakemap.usgs.xml">
  <station code="ARPRA" name="ARPRA" netid="KO" insttype="CMG-5T" lat="39.0929" lon="38.3356">
    <comp name="--.HNZ">
      <acc value="0.0468391284" flag="0"/>
      <vel value="0.0368634262" flag="0"/>
      <psa03 value="0.1209489109" flag="0"/>
      <psa10 value="0.0716634132" flag="0"/>
      <psa30 value="0.0068152229" flag="0"/>
    </comp>
    <comp name="--.HNN">
      <acc value="0.1257189689" flag="0"/>
      <vel value="0.0841492761" flag="0"/>
      <psa03 value="0.3560497039" flag="0"/>
      <psa10 value="0.1072854315" flag="0"/>
      <psa30 value="0.0086191701" flag="0"/>
    </comp>
    <comp name="--.HNE">
      <acc value="0.1475798514" flag="0"/>
      <vel value="0.0930581830" flag="0"/>
      <psa03 value="0.3237217568" flag="0"/>
      <psa10 value="0.1241824506" flag="0"/>
      <psa30 value="0.0074296589" flag="0"/>
    </comp>
  </station>
  <station code="GAZ" name="GAZ" netid="KO" insttype="CMG-3T" lat="37.1721" lon="37.2096">
    <comp name="--.HHZ">
      <acc value="0.0279176882" flag="0"/>
      <vel value="0.0214418946" flag="0"/>
      <psa03 value="0.0772852387" flag="0"/>
      <psa10 value="0.0408178838" flag="0"/>
      <psa30 value="0.0041484693" flag="0"/>
    </comp>
    <comp name="--.HHE">
      <acc value="0.0547225385" flag="0"/>
      <vel value="0.0519081632" flag="0"/>
      <psa03 value="0.2165042708" flag="0"/>
      <psa10 value="0.1087548035" flag="0"/>
      <psa30 value="0.0078097769" flag="0"/>
    </comp>
    <comp name="--.HHN">
      <acc value="0.0382961327" flag="0"/>
      <vel value="0.0389705603" flag="0"/>
      <psa03 value="0.0822095654" flag="0"/>
      <psa10 value="0.0385787056" flag="0"/>
      <psa30 value="0.0124025676" flag="0"/>
    </comp>
  </station>
  <station code="KMRS" name="KMRS" netid="KO" insttype="CMG-3T" lat="37.5053" lon="36.9">
    <comp name="--.HHE">
      <acc value="0.0292472433" flag="0"/>
      <vel value="0.0248408365" flag="0"/>
      <psa03 value="0.0498810113" flag="0"/>
      <psa10 value="0.0311389880" flag="0"/>
      <psa30 value="0.0056092986" flag="0"/>
    </comp>
    <comp name="--.HHN">
      <acc value="0.0321627953" flag="0"/>
      <vel value="0.0259992028" flag="0"/>
      <psa03 value="0.0944260540" flag="0"/>
      <psa10 value="0.0284765996" flag="0"/>
      <psa30 value="0.0077033534" flag="0"/>
    </comp>
    <comp name="--.HHZ">
      <acc value="0.0240182076" flag="0"/>
      <vel value="0.0218324106" flag="0"/>
      <psa03 value="0.0748980555" flag="0"/>
      <psa10 value="0.0288902081" flag="0"/>
      <psa30 value="0.0035172074" flag="0"/>
    </comp>
  </station>
</stationlist>
