<stationlist created="1778069372">
	<station code="ARPRA" name="ARPRA" netid="KO" source="Bogazici University Kandilli Observatory And Earthquake Research Institute (KOERI)" insttype="" lat="39.0929" lon="38.3356">
		<comp name="--.HNE" depth="0.0">
			<acc value="0.0512810914127284" flag="0"/>
			<vel value="0.0274685099791885" flag="0"/>
			<psa03 value="0.179774186192216" flag="0"/>
			<psa10 value="0.0250225264733347" flag="0"/>
			<psa30 value="0.00239907711887173" flag="0"/>
		</comp>
		<comp name="--.HNN" depth="0.0">
			<acc value="0.0566380179968754" flag="0"/>
			<vel value="0.0275459055073009" flag="0"/>
			<psa03 value="0.170154611769288" flag="0"/>
			<psa10 value="0.0347673790747942" flag="0"/>
			<psa30 value="0.00187872525590123" flag="0"/>
		</comp>
		<comp name="--.HNZ" depth="0.0">
			<acc value="0.0179632609872846" flag="0"/>
			<vel value="0.0143694644633106" flag="0"/>
			<psa03 value="0.0639813554641286" flag="0"/>
			<psa10 value="0.0150280123589451" flag="0"/>
			<psa30 value="0.00124562303225269" flag="0"/>
		</comp>
	</station>
</stationlist>
