<?xml version="1.0" encoding="UTF-8" standalone="yes"?>
<!DOCTYPE earthquake SYSTEM "stationlist.dtd">
<stationlist created="" xmlns="ch.ethz.sed.shakemap.usgs.xml">
  <station code="IMMV" name="IMMV" netid="GE" insttype="STS-2/N" lat="35.4606" lon="23.9811">
    <comp name="--.HHE">
      <acc value="0.0218648331" flag="0"/>
      <vel value="0.0230502681" flag="0"/>
      <psa03 value="0.0472127447" flag="0"/>
      <psa10 value="0.0277765405" flag="0"/>
      <psa30 value="0.0024286126" flag="0"/>
    </comp>
    <comp name="--.HHZ">
      <acc value="0.0129103556" flag="0"/>
      <vel value="0.0091556142" flag="0"/>
      <psa03 value="0.0309697890" flag="0"/>
      <psa10 value="0.0146797838" flag="0"/>
      <psa30 value="0.0006556030" flag="0"/>
    </comp>
    <comp name="--.HHN">
      <acc value="0.0180052138" flag="0"/>
      <vel value="0.0151486164" flag="0"/>
      <psa03 value="0.0413924126" flag="0"/>
      <psa10 value="0.0214744616" flag="0"/>
      <psa30 value="0.0013507196" flag="0"/>
    </comp>
  </station>
  <station code="CHAN" name="CHAN" netid="HC" insttype="120" lat="35.5193" lon="24.0428">
    <comp name="--.HHN">
      <acc value="0.0167498101" flag="0"/>
      <vel value="0.0206654174" flag="0"/>
      <psa03 value="0.0361394073" flag="0"/>
      <psa10 value="0.0391861733" flag="0"/>
      <psa30 value="0.0029455735" flag="0"/>
    </comp>
    <comp name="--.HHZ">
      <acc value="0.0101153108" flag="0"/>
      <vel value="0.0104197250" flag="0"/>
      <psa03 value="0.0383254395" flag="0"/>
      <psa10 value="0.0148412850" flag="0"/>
      <psa30 value="0.0018569565" flag="0"/>
    </comp>
    <comp name="--.HHE">
      <acc value="0.0169801068" flag="0"/>
      <vel value="0.0207975592" flag="0"/>
      <psa03 value="0.0500453879" flag="0"/>
      <psa10 value="0.0404545189" flag="0"/>
      <psa30 value="0.0020993669" flag="0"/>
    </comp>
  </station>
  <station code="IMOD" name="IMOD" netid="HC" insttype="120" lat="34.9731" lon="24.7995">
    <comp name="--.HHZ">
      <acc value="0.0465044755" flag="0"/>
      <vel value="0.0217733014" flag="0"/>
      <psa03 value="0.1271688293" flag="0"/>
      <psa10 value="0.0202238850" flag="0"/>
      <psa30 value="0.0014011485" flag="0"/>
    </comp>
    <comp name="--.HHN">
      <acc value="0.0803681744" flag="0"/>
      <vel value="0.0503554506" flag="0"/>
      <psa03 value="0.3625636274" flag="0"/>
      <psa10 value="0.0613678529" flag="0"/>
      <psa30 value="0.0032987870" flag="0"/>
    </comp>
    <comp name="--.HHE">
      <acc value="0.0504064867" flag="0"/>
      <vel value="0.0415798727" flag="0"/>
      <psa03 value="0.2282087210" flag="0"/>
      <psa10 value="0.0485478031" flag="0"/>
      <psa30 value="0.0022487139" flag="0"/>
    </comp>
  </station>
  <station code="IPPL" name="IPPL" netid="HC" insttype="60" lat="35.3486" lon="24.4632">
    <comp name="--.HHE">
      <acc value="0.0000000000" flag="0"/>
      <vel value="-100.0000000000" flag="0"/>
      <psa03 value="0.0000000000" flag="0"/>
      <psa10 value="0.0000000000" flag="0"/>
      <psa30 value="0.0000000000" flag="0"/>
    </comp>
    <comp name="--.HHN">
      <acc value="0.0000000000" flag="0"/>
      <vel value="-100.0000000000" flag="0"/>
      <psa03 value="0.0000000000" flag="0"/>
      <psa10 value="0.0000000000" flag="0"/>
      <psa30 value="0.0000000000" flag="0"/>
    </comp>
    <comp name="--.HHZ">
      <acc value="0.0147200078" flag="0"/>
      <vel value="0.0084324754" flag="0"/>
      <psa03 value="0.0376085881" flag="0"/>
      <psa10 value="0.0092719151" flag="0"/>
      <psa30 value="0.0008417476" flag="0"/>
    </comp>
  </station>
  <station code="KNDR" name="KNDR" netid="HC" insttype="120" lat="35.2348" lon="23.6248">
    <comp name="--.HHE">
      <acc value="0.0106516905" flag="0"/>
      <vel value="0.0094329531" flag="0"/>
      <psa03 value="0.0303279811" flag="0"/>
      <psa10 value="0.0162124950" flag="0"/>
      <psa30 value="0.0008937013" flag="0"/>
    </comp>
    <comp name="--.HHN">
      <acc value="0.0093974369" flag="0"/>
      <vel value="0.0073878346" flag="0"/>
      <psa03 value="0.0255777256" flag="0"/>
      <psa10 value="0.0123489687" flag="0"/>
      <psa30 value="0.0006887506" flag="0"/>
    </comp>
    <comp name="--.HHZ">
      <acc value="0.0078006876" flag="0"/>
      <vel value="0.0049207959" flag="0"/>
      <psa03 value="0.0210369843" flag="0"/>
      <psa10 value="0.0075584666" flag="0"/>
      <psa30 value="0.0003748635" flag="0"/>
    </comp>
  </station>
  <station code="KNSS" name="KNSS" netid="HC" insttype="60" lat="35.3042" lon="25.1802">
    <comp name="--.HHE">
      <acc value="0.0074514333" flag="0"/>
      <vel value="0.0056279563" flag="0"/>
      <psa03 value="0.0257590220" flag="0"/>
      <psa10 value="0.0091491797" flag="0"/>
      <psa30 value="0.0006620236" flag="0"/>
    </comp>
    <comp name="--.HHZ">
      <acc value="0.0056112747" flag="0"/>
      <vel value="0.0042397567" flag="0"/>
      <psa03 value="0.0254601873" flag="0"/>
      <psa10 value="0.0036958632" flag="0"/>
      <psa30 value="0.0007723001" flag="0"/>
    </comp>
    <comp name="--.HHN">
      <acc value="0.0089047894" flag="0"/>
      <vel value="0.0078281758" flag="0"/>
      <psa03 value="0.0339842201" flag="0"/>
      <psa10 value="0.0085162144" flag="0"/>
      <psa30 value="0.0009264215" flag="0"/>
    </comp>
  </station>
  <station code="PFKS" name="PFKS" netid="HC" insttype="120" lat="35.0429" lon="25.4733">
    <comp name="--.HHZ">
      <acc value="0.0052960010" flag="0"/>
      <vel value="0.0028238824" flag="0"/>
      <psa03 value="0.0173715621" flag="0"/>
      <psa10 value="0.0043378153" flag="0"/>
      <psa30 value="0.0002584168" flag="0"/>
    </comp>
    <comp name="--.HHN">
      <acc value="0.0121364027" flag="0"/>
      <vel value="0.0100653784" flag="0"/>
      <psa03 value="0.0384413305" flag="0"/>
      <psa10 value="0.0105511753" flag="0"/>
      <psa30 value="0.0004538271" flag="0"/>
    </comp>
    <comp name="--.HHE">
      <acc value="0.0120845140" flag="0"/>
      <vel value="0.0076108165" flag="0"/>
      <psa03 value="0.0435218590" flag="0"/>
      <psa10 value="0.0079382681" flag="0"/>
      <psa30 value="0.0004094550" flag="0"/>
    </comp>
  </station>
  <station code="RODP" name="RODP" netid="HC" insttype="120" lat="35.5604" lon="23.7577">
    <comp name="--.HHZ">
      <acc value="0.0027441098" flag="0"/>
      <vel value="0.0029465056" flag="0"/>
      <psa03 value="0.0088698749" flag="0"/>
      <psa10 value="0.0047346284" flag="0"/>
      <psa30 value="0.0004776441" flag="0"/>
    </comp>
    <comp name="--.HHN">
      <acc value="0.0066705771" flag="0"/>
      <vel value="0.0049311156" flag="0"/>
      <psa03 value="0.0134660354" flag="0"/>
      <psa10 value="0.0096976880" flag="0"/>
      <psa30 value="0.0006060408" flag="0"/>
    </comp>
    <comp name="--.HHE">
      <acc value="0.0071660076" flag="0"/>
      <vel value="0.0067527411" flag="0"/>
      <psa03 value="0.0199572053" flag="0"/>
      <psa10 value="0.0110712958" flag="0"/>
      <psa30 value="0.0009148726" flag="0"/>
    </comp>
  </station>
  <station code="IACM" name="IACM" netid="HL" insttype="120" lat="35.3058" lon="25.0709">
    <comp name="--.HHZ">
      <acc value="0.0253055442" flag="0"/>
      <vel value="0.0165420561" flag="0"/>
      <psa03 value="0.0868765319" flag="0"/>
      <psa10 value="0.0337689722" flag="0"/>
      <psa30 value="0.0010699449" flag="0"/>
    </comp>
    <comp name="--.HHE">
      <acc value="0.0414156375" flag="0"/>
      <vel value="0.0425835823" flag="0"/>
      <psa03 value="0.1069083840" flag="0"/>
      <psa10 value="0.0851897890" flag="0"/>
      <psa30 value="0.0049456599" flag="0"/>
    </comp>
    <comp name="--.HHN">
      <acc value="0.0475743038" flag="0"/>
      <vel value="0.0376613060" flag="0"/>
      <psa03 value="0.0972623545" flag="0"/>
      <psa10 value="0.0996127769" flag="0"/>
      <psa30 value="0.0039185784" flag="0"/>
    </comp>
  </station>
  <station code="IDI" name="IDI" netid="HL" insttype="120" lat="35.288" lon="24.89">
    <comp name="--.HHN">
      <acc value="0.0082189720" flag="0"/>
      <vel value="0.0069920533" flag="0"/>
      <psa03 value="0.0238842298" flag="0"/>
      <psa10 value="0.0076712357" flag="0"/>
      <psa30 value="0.0006113432" flag="0"/>
    </comp>
    <comp name="--.HHE">
      <acc value="0.0082478914" flag="0"/>
      <vel value="0.0082566843" flag="0"/>
      <psa03 value="0.0310093691" flag="0"/>
      <psa10 value="0.0115475125" flag="0"/>
      <psa30 value="0.0009777352" flag="0"/>
    </comp>
    <comp name="--.HHZ">
      <acc value="0.0067098753" flag="0"/>
      <vel value="0.0059549289" flag="0"/>
      <psa03 value="0.0240679112" flag="0"/>
      <psa10 value="0.0052018008" flag="0"/>
      <psa30 value="0.0004073229" flag="0"/>
    </comp>
  </station>
  <station code="IMMV" name="IMMV" netid="HL" insttype="120" lat="35.4606" lon="23.9811">
    <comp name="--.HHN">
      <acc value="0.0176201133" flag="0"/>
      <vel value="0.0149523325" flag="0"/>
      <psa03 value="0.0404700430" flag="0"/>
      <psa10 value="0.0213216354" flag="0"/>
      <psa30 value="0.0013400578" flag="0"/>
    </comp>
    <comp name="--.HHE">
      <acc value="0.0214113328" flag="0"/>
      <vel value="0.0227323268" flag="0"/>
      <psa03 value="0.0463050482" flag="0"/>
      <psa10 value="0.0276409745" flag="0"/>
      <psa30 value="0.0024200701" flag="0"/>
    </comp>
    <comp name="--.HHZ">
      <acc value="0.0125147452" flag="0"/>
      <vel value="0.0090081298" flag="0"/>
      <psa03 value="0.0301206672" flag="0"/>
      <psa10 value="0.0145621187" flag="0"/>
      <psa30 value="0.0006511841" flag="0"/>
    </comp>
  </station>
  <station code="KSTE" name="KSTE" netid="HL" insttype="60" lat="35.1801" lon="25.3372">
    <comp name="--.HHN">
      <acc value="0.1049050714" flag="0"/>
      <vel value="0.0108389162" flag="0"/>
      <psa03 value="0.0339071248" flag="0"/>
      <psa10 value="0.0148982811" flag="0"/>
      <psa30 value="0.0018672564" flag="0"/>
    </comp>
    <comp name="--.HHE">
      <acc value="0.0052728745" flag="0"/>
      <vel value="0.0038880802" flag="0"/>
      <psa03 value="0.0175469253" flag="0"/>
      <psa10 value="0.0058874396" flag="0"/>
      <psa30 value="0.0005236295" flag="0"/>
    </comp>
    <comp name="--.HHZ">
      <acc value="0.0050422490" flag="0"/>
      <vel value="0.0039883222" flag="0"/>
      <psa03 value="0.0169676900" flag="0"/>
      <psa10 value="0.0036519500" flag="0"/>
      <psa30 value="0.0004789453" flag="0"/>
    </comp>
  </station>
  <station code="SIVA" name="SIVA" netid="HL" insttype="60" lat="35.0178" lon="24.812">
    <comp name="--.HHE">
      <acc value="0.1114601987" flag="0"/>
      <vel value="0.0891481509" flag="0"/>
      <psa03 value="0.4152401214" flag="0"/>
      <psa10 value="0.0955802409" flag="0"/>
      <psa30 value="0.0039766953" flag="0"/>
    </comp>
    <comp name="--.HHN">
      <acc value="0.0761909553" flag="0"/>
      <vel value="0.0544104896" flag="0"/>
      <psa03 value="0.2157162612" flag="0"/>
      <psa10 value="0.0516677471" flag="0"/>
      <psa30 value="0.0048713428" flag="0"/>
    </comp>
    <comp name="--.HHZ">
      <acc value="0.0486816351" flag="0"/>
      <vel value="0.0267328968" flag="0"/>
      <psa03 value="0.1578719846" flag="0"/>
      <psa10 value="0.0240731859" flag="0"/>
      <psa30 value="0.0017023710" flag="0"/>
    </comp>
  </station>
  <station code="VAM" name="VAM" netid="HL" insttype="CMG3ESPC-120s" lat="35.407" lon="24.1997">
    <comp name="--.HHZ">
      <acc value="0.0085232996" flag="0"/>
      <vel value="0.0077488025" flag="0"/>
      <psa03 value="0.0198049286" flag="0"/>
      <psa10 value="0.0130437002" flag="0"/>
      <psa30 value="0.0011666539" flag="0"/>
    </comp>
    <comp name="--.HHE">
      <acc value="0.0134449668" flag="0"/>
      <vel value="0.0145461817" flag="0"/>
      <psa03 value="0.0275526628" flag="0"/>
      <psa10 value="0.0366818557" flag="0"/>
      <psa30 value="0.0019020968" flag="0"/>
    </comp>
    <comp name="--.HHN">
      <acc value="0.0153665656" flag="0"/>
      <vel value="0.0123901289" flag="0"/>
      <psa03 value="0.0417549247" flag="0"/>
      <psa10 value="0.0234144767" flag="0"/>
      <psa30 value="0.0013661978" flag="0"/>
    </comp>
  </station>
  <station code="IDI" name="IDI" netid="MN" insttype="" lat="35.288" lon="24.89">
    <comp name="--.HHZ">
      <acc value="0.0067889831" flag="0"/>
      <vel value="0.0059645637" flag="0"/>
      <psa03 value="0.0243426440" flag="0"/>
      <psa10 value="0.0051715895" flag="0"/>
      <psa30 value="0.0004041547" flag="0"/>
    </comp>
    <comp name="--.HHN">
      <acc value="0.0083369096" flag="0"/>
      <vel value="0.0069765478" flag="0"/>
      <psa03 value="0.0240443093" flag="0"/>
      <psa10 value="0.0076185221" flag="0"/>
      <psa30 value="0.0006073926" flag="0"/>
    </comp>
    <comp name="--.HHE">
      <acc value="0.0082718543" flag="0"/>
      <vel value="0.0081970719" flag="0"/>
      <psa03 value="0.0313009665" flag="0"/>
      <psa10 value="0.0114768831" flag="0"/>
      <psa30 value="0.0009690357" flag="0"/>
    </comp>
  </station>
</stationlist>
