<?xml version="1.0" encoding="UTF-8" standalone="yes"?>
<!DOCTYPE earthquake SYSTEM "stationlist.dtd">
<stationlist created="" xmlns="ch.ethz.sed.shakemap.usgs.xml">
  <station code="GVD" name="GVD" netid="GE" insttype="STS-2/N" lat="34.8391" lon="24.0874">
    <comp name="--.HHE">
      <acc value="0.1863018133" flag="0"/>
      <vel value="0.0776550328" flag="0"/>
      <psa03 value="0.2448037424" flag="0"/>
      <psa10 value="0.0470488534" flag="0"/>
      <psa30 value="0.0040986618" flag="0"/>
    </comp>
    <comp name="--.HHN">
      <acc value="0.1492098178" flag="0"/>
      <vel value="0.0716983013" flag="0"/>
      <psa03 value="0.2659883033" flag="0"/>
      <psa10 value="0.0877666519" flag="0"/>
      <psa30 value="0.0059446924" flag="0"/>
    </comp>
    <comp name="--.HHZ">
      <acc value="0.1096572978" flag="0"/>
      <vel value="0.0344703081" flag="0"/>
      <psa03 value="0.2894941744" flag="0"/>
      <psa10 value="0.0226400697" flag="0"/>
      <psa30 value="0.0024318315" flag="0"/>
    </comp>
  </station>
  <station code="IMOD" name="IMOD" netid="HC" insttype="120" lat="34.9731" lon="24.7995">
    <comp name="--.HHN">
      <acc value="0.0803681737" flag="0"/>
      <vel value="0.0503554508" flag="0"/>
      <psa03 value="0.3625636274" flag="0"/>
      <psa10 value="0.0613678529" flag="0"/>
      <psa30 value="0.0032987761" flag="0"/>
    </comp>
    <comp name="--.HHE">
      <acc value="0.0504064873" flag="0"/>
      <vel value="0.0415798729" flag="0"/>
      <psa03 value="0.2282087210" flag="0"/>
      <psa10 value="0.0485478031" flag="0"/>
      <psa30 value="0.0022487000" flag="0"/>
    </comp>
    <comp name="--.HHZ">
      <acc value="0.0465044766" flag="0"/>
      <vel value="0.0217733013" flag="0"/>
      <psa03 value="0.1271688293" flag="0"/>
      <psa10 value="0.0202238850" flag="0"/>
      <psa30 value="0.0014011597" flag="0"/>
    </comp>
  </station>
  <station code="IPPL" name="IPPL" netid="HC" insttype="60" lat="35.3486" lon="24.4632">
    <comp name="--.HHZ">
      <acc value="0.0147200079" flag="0"/>
      <vel value="0.0084324765" flag="0"/>
      <psa03 value="0.0376085881" flag="0"/>
      <psa10 value="0.0092719151" flag="0"/>
      <psa30 value="0.0008417409" flag="0"/>
    </comp>
    <comp name="--.HHN">
      <acc value="0.0000000000" flag="0"/>
      <vel value="-100.0000000000" flag="0"/>
      <psa03 value="0.0000000000" flag="0"/>
      <psa10 value="0.0000000000" flag="0"/>
      <psa30 value="0.0000000000" flag="0"/>
    </comp>
    <comp name="--.HHE">
      <acc value="0.0000000000" flag="0"/>
      <vel value="-100.0000000000" flag="0"/>
      <psa03 value="0.0000000000" flag="0"/>
      <psa10 value="0.0000000000" flag="0"/>
      <psa30 value="0.0000000000" flag="0"/>
    </comp>
  </station>
  <station code="KNDR" name="KNDR" netid="HC" insttype="120" lat="35.2348" lon="23.6248">
    <comp name="--.HHE">
      <acc value="0.0106516903" flag="0"/>
      <vel value="0.0094329534" flag="0"/>
      <psa03 value="0.0303279811" flag="0"/>
      <psa10 value="0.0162124950" flag="0"/>
      <psa30 value="0.0008936902" flag="0"/>
    </comp>
    <comp name="--.HHZ">
      <acc value="0.0078006894" flag="0"/>
      <vel value="0.0049207953" flag="0"/>
      <psa03 value="0.0210369843" flag="0"/>
      <psa10 value="0.0075584665" flag="0"/>
      <psa30 value="0.0003748496" flag="0"/>
    </comp>
    <comp name="--.HHN">
      <acc value="0.0093974359" flag="0"/>
      <vel value="0.0073878340" flag="0"/>
      <psa03 value="0.0255777256" flag="0"/>
      <psa10 value="0.0123489687" flag="0"/>
      <psa30 value="0.0006888044" flag="0"/>
    </comp>
  </station>
  <station code="GVD" name="GVD" netid="HL" insttype="120" lat="34.8391" lon="24.0874">
    <comp name="--.HHE">
      <acc value="0.1954823438" flag="0"/>
      <vel value="0.0764797206" flag="0"/>
      <psa03 value="0.2376976529" flag="0"/>
      <psa10 value="0.0466344466" flag="0"/>
      <psa30 value="0.0040725339" flag="0"/>
    </comp>
    <comp name="--.HHN">
      <acc value="0.1447875262" flag="0"/>
      <vel value="0.0702419562" flag="0"/>
      <psa03 value="0.2587593790" flag="0"/>
      <psa10 value="0.0871506756" flag="0"/>
      <psa30 value="0.0059217464" flag="0"/>
    </comp>
    <comp name="--.HHZ">
      <acc value="0.1065647945" flag="0"/>
      <vel value="0.0335166208" flag="0"/>
      <psa03 value="0.2812527852" flag="0"/>
      <psa10 value="0.0224814044" flag="0"/>
      <psa30 value="0.0024200352" flag="0"/>
    </comp>
  </station>
  <station code="IDI" name="IDI" netid="HL" insttype="120" lat="35.288" lon="24.89">
    <comp name="--.HHE">
      <acc value="0.0082478914" flag="0"/>
      <vel value="0.0082566843" flag="0"/>
      <psa03 value="0.0310093691" flag="0"/>
      <psa10 value="0.0115475125" flag="0"/>
      <psa30 value="0.0009777347" flag="0"/>
    </comp>
    <comp name="--.HHZ">
      <acc value="0.0067098753" flag="0"/>
      <vel value="0.0059549289" flag="0"/>
      <psa03 value="0.0240679112" flag="0"/>
      <psa10 value="0.0052018008" flag="0"/>
      <psa30 value="0.0004073230" flag="0"/>
    </comp>
    <comp name="--.HHN">
      <acc value="0.0082189721" flag="0"/>
      <vel value="0.0069920533" flag="0"/>
      <psa03 value="0.0238842298" flag="0"/>
      <psa10 value="0.0076712357" flag="0"/>
      <psa30 value="0.0006113421" flag="0"/>
    </comp>
  </station>
  <station code="SIVA" name="SIVA" netid="HL" insttype="60" lat="35.0178" lon="24.812">
    <comp name="--.HHN">
      <acc value="0.0761909549" flag="0"/>
      <vel value="0.0544104895" flag="0"/>
      <psa03 value="0.2157162612" flag="0"/>
      <psa10 value="0.0516677471" flag="0"/>
      <psa30 value="0.0048713375" flag="0"/>
    </comp>
    <comp name="--.HHE">
      <acc value="0.1114601984" flag="0"/>
      <vel value="0.0891481497" flag="0"/>
      <psa03 value="0.4152401214" flag="0"/>
      <psa10 value="0.0955802409" flag="0"/>
      <psa30 value="0.0039767049" flag="0"/>
    </comp>
    <comp name="--.HHZ">
      <acc value="0.0486816349" flag="0"/>
      <vel value="0.0267328971" flag="0"/>
      <psa03 value="0.1578719846" flag="0"/>
      <psa10 value="0.0240731859" flag="0"/>
      <psa30 value="0.0017023726" flag="0"/>
    </comp>
  </station>
  <station code="VAM" name="VAM" netid="HL" insttype="CMG3ESPC-120s" lat="35.407" lon="24.1997">
    <comp name="--.HHE">
      <acc value="0.0134449678" flag="0"/>
      <vel value="0.0145461817" flag="0"/>
      <psa03 value="0.0275526628" flag="0"/>
      <psa10 value="0.0366818557" flag="0"/>
      <psa30 value="0.0019021145" flag="0"/>
    </comp>
    <comp name="--.HHN">
      <acc value="0.0153665635" flag="0"/>
      <vel value="0.0123901285" flag="0"/>
      <psa03 value="0.0417549247" flag="0"/>
      <psa10 value="0.0234144767" flag="0"/>
      <psa30 value="0.0013661984" flag="0"/>
    </comp>
    <comp name="--.HHZ">
      <acc value="0.0085232993" flag="0"/>
      <vel value="0.0077488027" flag="0"/>
      <psa03 value="0.0198049286" flag="0"/>
      <psa10 value="0.0130437002" flag="0"/>
      <psa30 value="0.0011666471" flag="0"/>
    </comp>
  </station>
  <station code="IDI" name="IDI" netid="MN" insttype="" lat="35.288" lon="24.89">
    <comp name="--.HHN">
      <acc value="0.0083369097" flag="0"/>
      <vel value="0.0069765478" flag="0"/>
      <psa03 value="0.0240443093" flag="0"/>
      <psa10 value="0.0076185221" flag="0"/>
      <psa30 value="0.0006073915" flag="0"/>
    </comp>
    <comp name="--.HHZ">
      <acc value="0.0067889831" flag="0"/>
      <vel value="0.0059645637" flag="0"/>
      <psa03 value="0.0243426440" flag="0"/>
      <psa10 value="0.0051715895" flag="0"/>
      <psa30 value="0.0004041548" flag="0"/>
    </comp>
    <comp name="--.HHE">
      <acc value="0.0082718543" flag="0"/>
      <vel value="0.0081970719" flag="0"/>
      <psa03 value="0.0313009665" flag="0"/>
      <psa10 value="0.0114768831" flag="0"/>
      <psa30 value="0.0009690352" flag="0"/>
    </comp>
  </station>
</stationlist>
