<?xml version="1.0" encoding="UTF-8" standalone="yes"?>
<!DOCTYPE earthquake SYSTEM "stationlist.dtd">
<stationlist created="" xmlns="ch.ethz.sed.shakemap.usgs.xml">
  <station code="IMMV" name="IMMV" netid="GE" insttype="STS-2/N" lat="35.4606" lon="23.9811">
    <comp name="--.HHE">
      <acc value="0.0218648331" flag="0"/>
      <vel value="0.0230502681" flag="0"/>
      <psa03 value="0.0472127447" flag="0"/>
      <psa10 value="0.0277765405" flag="0"/>
      <psa30 value="0.0024286126" flag="0"/>
    </comp>
    <comp name="--.HHZ">
      <acc value="0.0129103556" flag="0"/>
      <vel value="0.0091556142" flag="0"/>
      <psa03 value="0.0309697890" flag="0"/>
      <psa10 value="0.0146797838" flag="0"/>
      <psa30 value="0.0006556030" flag="0"/>
    </comp>
    <comp name="--.HHN">
      <acc value="0.0180052138" flag="0"/>
      <vel value="0.0151486164" flag="0"/>
      <psa03 value="0.0413924126" flag="0"/>
      <psa10 value="0.0214744616" flag="0"/>
      <psa30 value="0.0013507196" flag="0"/>
    </comp>
  </station>
  <station code="IDI" name="IDI" netid="MN" insttype="" lat="35.288" lon="24.89">
    <comp name="--.HHZ">
      <acc value="0.0067889831" flag="0"/>
      <vel value="0.0059645637" flag="0"/>
      <psa03 value="0.0243426440" flag="0"/>
      <psa10 value="0.0051715895" flag="0"/>
      <psa30 value="0.0004041547" flag="0"/>
    </comp>
    <comp name="--.HHN">
      <acc value="0.0083369096" flag="0"/>
      <vel value="0.0069765478" flag="0"/>
      <psa03 value="0.0240443093" flag="0"/>
      <psa10 value="0.0076185221" flag="0"/>
      <psa30 value="0.0006073926" flag="0"/>
    </comp>
    <comp name="--.HHE">
      <acc value="0.0082718543" flag="0"/>
      <vel value="0.0081970719" flag="0"/>
      <psa03 value="0.0313009665" flag="0"/>
      <psa10 value="0.0114768831" flag="0"/>
      <psa30 value="0.0009690357" flag="0"/>
    </comp>
  </station>
</stationlist>
