<?xml version="1.0" encoding="UTF-8" standalone="yes"?>
<!DOCTYPE earthquake SYSTEM "stationlist.dtd">
<stationlist created="" xmlns="ch.ethz.sed.shakemap.usgs.xml">
  <station code="THERA" name="THERA" netid="GE" insttype="STS-2/N" lat="36.367" lon="25.4753">
    <comp name="--.HHE">
      <acc value="0.7822755603" flag="0"/>
      <vel value="0.2576618313" flag="0"/>
      <psa03 value="1.3353126405" flag="0"/>
      <psa10 value="0.1085455721" flag="0"/>
      <psa30 value="0.0242347647" flag="0"/>
    </comp>
    <comp name="--.HHN">
      <acc value="0.5434453944" flag="0"/>
      <vel value="0.2204913094" flag="0"/>
      <psa03 value="0.6580019961" flag="0"/>
      <psa10 value="0.0997320958" flag="0"/>
      <psa30 value="0.0118283585" flag="0"/>
    </comp>
    <comp name="--.HHZ">
      <acc value="0.6641941652" flag="0"/>
      <vel value="0.1751199781" flag="0"/>
      <psa03 value="1.1960589052" flag="0"/>
      <psa10 value="0.0648696652" flag="0"/>
      <psa30 value="0.0227258167" flag="0"/>
    </comp>
  </station>
  <station code="ZKR" name="ZKR" netid="GE" insttype="STS-2/N" lat="35.1147" lon="26.2169">
    <comp name="--.HHE">
      <acc value="0.0264955458" flag="0"/>
      <vel value="0.0286018819" flag="0"/>
      <psa03 value="0.0958948005" flag="0"/>
      <psa10 value="0.0432698542" flag="0"/>
      <psa30 value="0.0037238269" flag="0"/>
    </comp>
    <comp name="--.HHN">
      <acc value="0.0100488977" flag="0"/>
      <vel value="0.0093264558" flag="0"/>
      <psa03 value="0.0309304359" flag="0"/>
      <psa10 value="0.0225995628" flag="0"/>
      <psa30 value="0.0036554534" flag="0"/>
    </comp>
    <comp name="--.HHZ">
      <acc value="0.0102596604" flag="0"/>
      <vel value="0.0065377273" flag="0"/>
      <psa03 value="0.0256326604" flag="0"/>
      <psa10 value="0.0083230069" flag="0"/>
      <psa30 value="0.0014647882" flag="0"/>
    </comp>
  </station>
  <station code="IDI" name="IDI" netid="MN" insttype="" lat="35.288" lon="24.89">
    <comp name="--.HHE">
      <acc value="0.0474818311" flag="0"/>
      <vel value="0.0365661258" flag="0"/>
      <psa03 value="0.1287486218" flag="0"/>
      <psa10 value="0.0341204075" flag="0"/>
      <psa30 value="0.0042656005" flag="0"/>
    </comp>
    <comp name="--.HHN">
      <acc value="0.0483925433" flag="0"/>
      <vel value="0.0260579029" flag="0"/>
      <psa03 value="0.0965349909" flag="0"/>
      <psa10 value="0.0203524135" flag="0"/>
      <psa30 value="0.0036443352" flag="0"/>
    </comp>
    <comp name="--.HHZ">
      <acc value="0.0299550434" flag="0"/>
      <vel value="0.0198073526" flag="0"/>
      <psa03 value="0.0855511306" flag="0"/>
      <psa10 value="0.0227944558" flag="0"/>
      <psa30 value="0.0028900873" flag="0"/>
    </comp>
  </station>
</stationlist>
