<?xml version="1.0" encoding="UTF-8" standalone="yes"?>
<!DOCTYPE earthquake SYSTEM "stationlist.dtd">
<stationlist created="" xmlns="ch.ethz.sed.shakemap.usgs.xml">
  <station code="APE" name="APE" netid="GE" insttype="STS-2/N" lat="37.0727" lon="25.523">
    <comp name="--.HHE">
      <acc value="0.4760064910" flag="0"/>
      <vel value="0.1013108233" flag="0"/>
      <psa03 value="0.3182160031" flag="0"/>
      <psa10 value="0.0305834962" flag="0"/>
      <psa30 value="0.0192423543" flag="0"/>
    </comp>
    <comp name="--.HHN">
      <acc value="0.5256440557" flag="0"/>
      <vel value="0.1107199408" flag="0"/>
      <psa03 value="0.2277269529" flag="0"/>
      <psa10 value="0.0378248567" flag="0"/>
      <psa30 value="0.0254210751" flag="0"/>
    </comp>
    <comp name="--.HHZ">
      <acc value="0.2303812318" flag="0"/>
      <vel value="0.0607485663" flag="0"/>
      <psa03 value="0.1838952940" flag="0"/>
      <psa10 value="0.0511524065" flag="0"/>
      <psa30 value="0.0147887045" flag="0"/>
    </comp>
  </station>
  <station code="THERA" name="THERA" netid="GE" insttype="STS-2/N" lat="36.367" lon="25.4753">
    <comp name="--.HHE">
      <acc value="0.7822755600" flag="0"/>
      <vel value="0.2576618336" flag="0"/>
      <psa03 value="1.3353126405" flag="0"/>
      <psa10 value="0.1085455699" flag="0"/>
      <psa30 value="0.0242343369" flag="0"/>
    </comp>
    <comp name="--.HHN">
      <acc value="0.5434453950" flag="0"/>
      <vel value="0.2204913103" flag="0"/>
      <psa03 value="0.6580019961" flag="0"/>
      <psa10 value="0.0997320921" flag="0"/>
      <psa30 value="0.0118281064" flag="0"/>
    </comp>
    <comp name="--.HHZ">
      <acc value="0.6641941644" flag="0"/>
      <vel value="0.1751199771" flag="0"/>
      <psa03 value="1.1960589052" flag="0"/>
      <psa10 value="0.0648696690" flag="0"/>
      <psa30 value="0.0227256968" flag="0"/>
    </comp>
  </station>
  <station code="ZKR" name="ZKR" netid="GE" insttype="STS-2/N" lat="35.1147" lon="26.2169">
    <comp name="--.HHE">
      <acc value="0.0264955459" flag="0"/>
      <vel value="0.0286018801" flag="0"/>
      <psa03 value="0.0958948005" flag="0"/>
      <psa10 value="0.0432698542" flag="0"/>
      <psa30 value="0.0037238241" flag="0"/>
    </comp>
    <comp name="--.HHN">
      <acc value="0.0100488982" flag="0"/>
      <vel value="0.0093264569" flag="0"/>
      <psa03 value="0.0309304359" flag="0"/>
      <psa10 value="0.0225995628" flag="0"/>
      <psa30 value="0.0036554710" flag="0"/>
    </comp>
    <comp name="--.HHZ">
      <acc value="0.0102596608" flag="0"/>
      <vel value="0.0065377238" flag="0"/>
      <psa03 value="0.0256326604" flag="0"/>
      <psa10 value="0.0083230068" flag="0"/>
      <psa30 value="0.0014648155" flag="0"/>
    </comp>
  </station>
  <station code="SERI" name="SERI" netid="HA" insttype="30" lat="37.1609" lon="24.4853">
    <comp name="--.HHE">
      <acc value="0.0531895867" flag="0"/>
      <vel value="0.0271063085" flag="0"/>
      <psa03 value="0.1242073242" flag="0"/>
      <psa10 value="0.0229840092" flag="0"/>
      <psa30 value="0.0102390011" flag="0"/>
    </comp>
    <comp name="--.HHN">
      <acc value="0.0710451359" flag="0"/>
      <vel value="0.0345056999" flag="0"/>
      <psa03 value="0.0969946217" flag="0"/>
      <psa10 value="0.0322682806" flag="0"/>
      <psa30 value="0.0094607999" flag="0"/>
    </comp>
    <comp name="--.HHZ">
      <acc value="0.0470935872" flag="0"/>
      <vel value="0.0366560298" flag="0"/>
      <psa03 value="0.0733704006" flag="0"/>
      <psa10 value="0.0325463559" flag="0"/>
      <psa30 value="0.0145450542" flag="0"/>
    </comp>
  </station>
  <station code="SNT1" name="SNT1" netid="HA" insttype="30" lat="36.4159" lon="25.4282">
    <comp name="--.HHE">
      <acc value="0.4745936638" flag="0"/>
      <vel value="0.1800487066" flag="0"/>
      <psa03 value="0.6132106536" flag="0"/>
      <psa10 value="0.2380815250" flag="0"/>
      <psa30 value="0.0639914681" flag="0"/>
    </comp>
    <comp name="--.HHZ">
      <acc value="0.3325663399" flag="0"/>
      <vel value="0.1322671284" flag="0"/>
      <psa03 value="0.4668595187" flag="0"/>
      <psa10 value="0.1237929728" flag="0"/>
      <psa30 value="0.0273106272" flag="0"/>
    </comp>
    <comp name="--.HHN">
      <acc value="0.5179575339" flag="0"/>
      <vel value="0.1885023617" flag="0"/>
      <psa03 value="0.8071049983" flag="0"/>
      <psa10 value="0.2991279063" flag="0"/>
      <psa30 value="0.0643681277" flag="0"/>
    </comp>
  </station>
  <station code="SNT5" name="SNT5" netid="HA" insttype="1s-100Hz," lat="36.4037" lon="25.3953">
    <comp name="--.HHE">
      <acc value="3.0815989737" flag="0"/>
      <vel value="0.8460378779" flag="0"/>
      <psa03 value="4.3243626398" flag="0"/>
      <psa10 value="0.2343947930" flag="0"/>
      <psa30 value="0.0837017852" flag="0"/>
    </comp>
    <comp name="--.HHN">
      <acc value="1.2863034033" flag="0"/>
      <vel value="0.5285694141" flag="0"/>
      <psa03 value="3.6348205191" flag="0"/>
      <psa10 value="0.1664205548" flag="0"/>
      <psa30 value="0.0478881151" flag="0"/>
    </comp>
    <comp name="--.HHZ">
      <acc value="0.9511215954" flag="0"/>
      <vel value="0.1580340431" flag="0"/>
      <psa03 value="0.7449762479" flag="0"/>
      <psa10 value="0.1154162532" flag="0"/>
      <psa30 value="0.0203659869" flag="0"/>
    </comp>
  </station>
  <station code="KNSS" name="KNSS" netid="HC" insttype="60" lat="35.3042" lon="25.1802">
    <comp name="--.HHE">
      <acc value="0.0000000000" flag="0"/>
      <vel value="-100.0000000000" flag="0"/>
      <psa03 value="0.0000000000" flag="0"/>
      <psa10 value="0.0000000000" flag="0"/>
      <psa30 value="0.0000000000" flag="0"/>
    </comp>
    <comp name="--.HHN">
      <acc value="0.0526084685" flag="0"/>
      <vel value="0.0320875175" flag="0"/>
      <psa03 value="0.1838861173" flag="0"/>
      <psa10 value="0.0311814150" flag="0"/>
      <psa30 value="0.0052249185" flag="0"/>
    </comp>
    <comp name="--.HHZ">
      <acc value="0.0511669952" flag="0"/>
      <vel value="0.0262003319" flag="0"/>
      <psa03 value="0.1828456153" flag="0"/>
      <psa10 value="0.0377201110" flag="0"/>
      <psa30 value="0.0073452409" flag="0"/>
    </comp>
  </station>
  <station code="STIA" name="STIA" netid="HC" insttype="120" lat="35.2021" lon="26.0909">
    <comp name="--.HHZ">
      <acc value="0.0268975018" flag="0"/>
      <vel value="0.0222481423" flag="0"/>
      <psa03 value="0.0821680743" flag="0"/>
      <psa10 value="0.0193741847" flag="0"/>
      <psa30 value="0.0061668423" flag="0"/>
    </comp>
    <comp name="--.HHN">
      <acc value="0.0294612702" flag="0"/>
      <vel value="0.0229551140" flag="0"/>
      <psa03 value="0.0918797519" flag="0"/>
      <psa10 value="0.0262218850" flag="0"/>
      <psa30 value="0.0040172657" flag="0"/>
    </comp>
    <comp name="--.HHE">
      <acc value="0.0435199775" flag="0"/>
      <vel value="0.0310685233" flag="0"/>
      <psa03 value="0.0997118012" flag="0"/>
      <psa10 value="0.0601480199" flag="0"/>
      <psa30 value="0.0045165324" flag="0"/>
    </comp>
  </station>
  <station code="ARK1" name="ARK1" netid="HI" insttype="unknown" lat="35.1488" lon="25.2642">
    <comp name="--.HNE">
      <acc value="0.0777376711" flag="0"/>
      <vel value="0.0531681683" flag="0"/>
      <psa03 value="0.2838975806" flag="0"/>
      <psa10 value="0.0561513953" flag="0"/>
      <psa30 value="0.0148338230" flag="0"/>
    </comp>
    <comp name="--.HNZ">
      <acc value="0.0448474041" flag="0"/>
      <vel value="0.0408187529" flag="0"/>
      <psa03 value="0.1078931322" flag="0"/>
      <psa10 value="0.0470304633" flag="0"/>
      <psa30 value="0.0083500741" flag="0"/>
    </comp>
    <comp name="--.HNN">
      <acc value="0.1078872959" flag="0"/>
      <vel value="0.0745826888" flag="0"/>
      <psa03 value="0.3272202844" flag="0"/>
      <psa10 value="0.0685573729" flag="0"/>
      <psa30 value="0.0105800226" flag="0"/>
    </comp>
  </station>
  <station code="HER1" name="HER1" netid="HI" insttype="unknown" lat="35.3177" lon="25.1022">
    <comp name="--.HNN">
      <acc value="0.1104209747" flag="0"/>
      <vel value="0.1113327472" flag="0"/>
      <psa03 value="0.3733757443" flag="0"/>
      <psa10 value="0.2233723648" flag="0"/>
      <psa30 value="0.0113926617" flag="0"/>
    </comp>
    <comp name="--.HNE">
      <acc value="0.1383361500" flag="0"/>
      <vel value="0.1265286103" flag="0"/>
      <psa03 value="0.3020717711" flag="0"/>
      <psa10 value="0.2029794372" flag="0"/>
      <psa30 value="0.0216111159" flag="0"/>
    </comp>
    <comp name="--.HNZ">
      <acc value="0.0996106997" flag="0"/>
      <vel value="0.0996905215" flag="0"/>
      <psa03 value="0.3075184903" flag="0"/>
      <psa10 value="0.1609985265" flag="0"/>
      <psa30 value="0.0083047186" flag="0"/>
    </comp>
  </station>
  <station code="NAX1" name="NAX1" netid="HI" insttype="CMG-5TD,ACCELEROMETER,GURALP" lat="37.1014" lon="25.3741">
    <comp name="--.HNN">
      <acc value="0.2981028190" flag="0"/>
      <vel value="0.0656853401" flag="0"/>
      <psa03 value="0.4319204668" flag="0"/>
      <psa10 value="0.0461855004" flag="0"/>
      <psa30 value="0.0148657758" flag="0"/>
    </comp>
    <comp name="--.HNZ">
      <acc value="0.1766040616" flag="0"/>
      <vel value="0.0562581078" flag="0"/>
      <psa03 value="0.3558788308" flag="0"/>
      <psa10 value="0.0419154117" flag="0"/>
      <psa30 value="0.0268069922" flag="0"/>
    </comp>
    <comp name="--.HNE">
      <acc value="0.2564139125" flag="0"/>
      <vel value="0.0879563718" flag="0"/>
      <psa03 value="0.3006312454" flag="0"/>
      <psa10 value="0.0367763714" flag="0"/>
      <psa30 value="0.0224351274" flag="0"/>
    </comp>
  </station>
  <station code="SFR2" name="SFR2" netid="HI" insttype="unknown" lat="36.3998" lon="25.4382">
    <comp name="--.HNN">
      <acc value="1.3242012810" flag="0"/>
      <vel value="0.4788357121" flag="0"/>
      <psa03 value="3.7103259368" flag="0"/>
      <psa10 value="0.4992053105" flag="0"/>
      <psa30 value="0.0503557835" flag="0"/>
    </comp>
    <comp name="--.HNZ">
      <acc value="1.2537992587" flag="0"/>
      <vel value="0.5112194128" flag="0"/>
      <psa03 value="2.3587316873" flag="0"/>
      <psa10 value="0.2243307364" flag="0"/>
      <psa30 value="0.0355136858" flag="0"/>
    </comp>
  </station>
  <station code="AMGA" name="AMGA" netid="HL" insttype="SMART24" lat="36.8316" lon="25.8938">
    <comp name="--.HHE">
      <acc value="2.4947788629" flag="0"/>
      <vel value="0.7042030373" flag="0"/>
      <psa03 value="2.5815549628" flag="0"/>
      <psa10 value="0.3907875878" flag="0"/>
      <psa30 value="0.0713992476" flag="0"/>
    </comp>
    <comp name="--.HHZ">
      <acc value="1.7161013301" flag="0"/>
      <vel value="0.5146096505" flag="0"/>
      <psa03 value="1.4528058210" flag="0"/>
      <psa10 value="0.1485478875" flag="0"/>
      <psa30 value="0.1041386298" flag="0"/>
    </comp>
    <comp name="--.HHN">
      <acc value="2.6563992843" flag="0"/>
      <vel value="0.6935977018" flag="0"/>
      <psa03 value="1.8764435044" flag="0"/>
      <psa10 value="0.2526527617" flag="0"/>
      <psa30 value="0.0506584125" flag="0"/>
    </comp>
  </station>
  <station code="APE" name="APE" netid="HL" insttype="120" lat="37.0727" lon="25.523">
    <comp name="--.HHE">
      <acc value="0.4231893689" flag="0"/>
      <vel value="0.0987723324" flag="0"/>
      <psa03 value="0.3116684230" flag="0"/>
      <psa10 value="0.0304114995" flag="0"/>
      <psa30 value="0.0192092349" flag="0"/>
    </comp>
    <comp name="--.HHN">
      <acc value="0.4881782434" flag="0"/>
      <vel value="0.1047592030" flag="0"/>
      <psa03 value="0.2213667759" flag="0"/>
      <psa10 value="0.0376199584" flag="0"/>
      <psa30 value="0.0253899022" flag="0"/>
    </comp>
    <comp name="--.HHZ">
      <acc value="0.1871056149" flag="0"/>
      <vel value="0.0591175684" flag="0"/>
      <psa03 value="0.1786055313" flag="0"/>
      <psa10 value="0.0508642826" flag="0"/>
      <psa30 value="0.0147638485" flag="0"/>
    </comp>
  </station>
  <station code="ASTA" name="ASTA" netid="HL" insttype="CMG-5" lat="36.5455" lon="26.3529">
    <comp name="00.HNE">
      <acc value="0.1180919757" flag="0"/>
      <vel value="0.0435337301" flag="0"/>
      <psa03 value="0.1389154592" flag="0"/>
      <psa10 value="0.0325731262" flag="0"/>
      <psa30 value="0.0107859066" flag="0"/>
    </comp>
    <comp name="00.HNN">
      <acc value="0.1732283460" flag="0"/>
      <vel value="0.0487730766" flag="0"/>
      <psa03 value="0.2306639380" flag="0"/>
      <psa10 value="0.0188194351" flag="0"/>
      <psa30 value="0.0115814493" flag="0"/>
    </comp>
    <comp name="00.HNZ">
      <acc value="0.1091988113" flag="0"/>
      <vel value="0.0337244088" flag="0"/>
      <psa03 value="0.1321786857" flag="0"/>
      <psa10 value="0.0183098391" flag="0"/>
      <psa30 value="0.0180050158" flag="0"/>
    </comp>
  </station>
  <station code="IACM" name="IACM" netid="HL" insttype="120" lat="35.3058" lon="25.0709">
    <comp name="--.HHE">
      <acc value="0.2209791046" flag="0"/>
      <vel value="0.1539261480" flag="0"/>
      <psa03 value="0.5244789423" flag="0"/>
      <psa10 value="0.2294590260" flag="0"/>
      <psa30 value="0.0161679168" flag="0"/>
    </comp>
    <comp name="--.HHN">
      <acc value="0.1654392622" flag="0"/>
      <vel value="0.1688585953" flag="0"/>
      <psa03 value="0.6799324792" flag="0"/>
      <psa10 value="0.2605769455" flag="0"/>
      <psa30 value="0.0108524133" flag="0"/>
    </comp>
    <comp name="--.HHZ">
      <acc value="0.1202586729" flag="0"/>
      <vel value="0.0838813324" flag="0"/>
      <psa03 value="0.3440537184" flag="0"/>
      <psa10 value="0.0753578430" flag="0"/>
      <psa30 value="0.0057347805" flag="0"/>
    </comp>
  </station>
  <station code="IDI" name="IDI" netid="HL" insttype="120" lat="35.288" lon="24.89">
    <comp name="--.HHN">
      <acc value="0.0478045825" flag="0"/>
      <vel value="0.0261133723" flag="0"/>
      <psa03 value="0.0954711023" flag="0"/>
      <psa10 value="0.0203176557" flag="0"/>
      <psa30 value="0.0036909463" flag="0"/>
    </comp>
    <comp name="--.HHE">
      <acc value="0.0472992237" flag="0"/>
      <vel value="0.0366738097" flag="0"/>
      <psa03 value="0.1281205488" flag="0"/>
      <psa10 value="0.0343879953" flag="0"/>
      <psa30 value="0.0043056157" flag="0"/>
    </comp>
    <comp name="--.HHZ">
      <acc value="0.0295530400" flag="0"/>
      <vel value="0.0197818891" flag="0"/>
      <psa03 value="0.0850711247" flag="0"/>
      <psa10 value="0.0229740159" flag="0"/>
      <psa30 value="0.0029240651" flag="0"/>
    </comp>
  </station>
  <station code="KLNA" name="KLNA" netid="HL" insttype="CMG-5" lat="36.9571" lon="26.9727">
    <comp name="00.HNE">
      <acc value="0.0830115676" flag="0"/>
      <vel value="0.0270736389" flag="0"/>
      <psa03 value="0.0963689796" flag="0"/>
      <psa10 value="0.0084002319" flag="0"/>
      <psa30 value="0.0057941552" flag="0"/>
    </comp>
    <comp name="00.HNN">
      <acc value="0.0583318687" flag="0"/>
      <vel value="0.0263841781" flag="0"/>
      <psa03 value="0.1572326540" flag="0"/>
      <psa10 value="0.0113188180" flag="0"/>
      <psa30 value="0.0036265855" flag="0"/>
    </comp>
    <comp name="00.HNZ">
      <acc value="0.0696390248" flag="0"/>
      <vel value="0.0214940060" flag="0"/>
      <psa03 value="0.0767883424" flag="0"/>
      <psa10 value="0.0059778032" flag="0"/>
      <psa30 value="0.0072041622" flag="0"/>
    </comp>
  </station>
  <station code="MHLO" name="MHLO" netid="HL" insttype="20" lat="36.6898" lon="24.4017">
    <comp name="--.HHZ">
      <acc value="0.1648010173" flag="0"/>
      <vel value="0.1518712272" flag="0"/>
      <psa03 value="0.6649863508" flag="0"/>
      <psa10 value="0.2782677695" flag="0"/>
      <psa30 value="0.0221116852" flag="0"/>
    </comp>
    <comp name="--.HHE">
      <acc value="0.3152845507" flag="0"/>
      <vel value="0.1974218726" flag="0"/>
      <psa03 value="1.4084399768" flag="0"/>
      <psa10 value="0.4200248273" flag="0"/>
      <psa30 value="0.0358717379" flag="0"/>
    </comp>
    <comp name="--.HHN">
      <acc value="0.2790472511" flag="0"/>
      <vel value="0.1930260555" flag="0"/>
      <psa03 value="1.4331348053" flag="0"/>
      <psa10 value="0.3804418085" flag="0"/>
      <psa30 value="0.0261646760" flag="0"/>
    </comp>
  </station>
  <station code="MILA" name="MILA" netid="HL" insttype="CMG-5" lat="36.7429" lon="24.4282">
    <comp name="00.HNE">
      <acc value="0.2624166824" flag="0"/>
      <vel value="0.2060917209" flag="0"/>
      <psa03 value="0.7784348177" flag="0"/>
      <psa10 value="0.1848940367" flag="0"/>
      <psa30 value="0.0476821252" flag="0"/>
    </comp>
    <comp name="00.HNN">
      <acc value="0.3825970449" flag="0"/>
      <vel value="0.2190641176" flag="0"/>
      <psa03 value="1.0829488036" flag="0"/>
      <psa10 value="0.1917420644" flag="0"/>
      <psa30 value="0.0274389151" flag="0"/>
    </comp>
    <comp name="00.HNZ">
      <acc value="0.2175073778" flag="0"/>
      <vel value="0.1664822133" flag="0"/>
      <psa03 value="0.4369069136" flag="0"/>
      <psa10 value="0.2987257364" flag="0"/>
      <psa30 value="0.0160653829" flag="0"/>
    </comp>
  </station>
  <station code="NISR" name="NISR" netid="HL" insttype="65535" lat="36.6106" lon="27.131">
    <comp name="--.HHN">
      <acc value="0.0713500695" flag="0"/>
      <vel value="0.0269846656" flag="0"/>
      <psa03 value="0.1659058696" flag="0"/>
      <psa10 value="0.0222495635" flag="0"/>
      <psa30 value="0.0134336879" flag="0"/>
    </comp>
    <comp name="--.HHE">
      <acc value="0.0000000000" flag="0"/>
      <vel value="-100.0000000000" flag="0"/>
      <psa03 value="0.0000000000" flag="0"/>
      <psa10 value="0.0000000000" flag="0"/>
      <psa30 value="0.0000000000" flag="0"/>
    </comp>
    <comp name="--.HHZ">
      <acc value="0.0332459431" flag="0"/>
      <vel value="0.0174374662" flag="0"/>
      <psa03 value="0.1008881911" flag="0"/>
      <psa10 value="0.0200275364" flag="0"/>
      <psa30 value="0.0031835642" flag="0"/>
    </comp>
  </station>
  <station code="NISR2" name="NISR2" netid="HL" insttype="120" lat="36.5744" lon="27.1767">
    <comp name="--.HHE">
      <acc value="0.0822976917" flag="0"/>
      <vel value="0.0478665437" flag="0"/>
      <psa03 value="0.2246687907" flag="0"/>
      <psa10 value="0.0559013281" flag="0"/>
      <psa30 value="0.0101747400" flag="0"/>
    </comp>
    <comp name="--.HHN">
      <acc value="0.0743373654" flag="0"/>
      <vel value="0.0563247902" flag="0"/>
      <psa03 value="0.3629472980" flag="0"/>
      <psa10 value="0.0784127100" flag="0"/>
      <psa30 value="0.0100375970" flag="0"/>
    </comp>
    <comp name="--.HHZ">
      <acc value="0.0303751381" flag="0"/>
      <vel value="0.0182339321" flag="0"/>
      <psa03 value="0.1173485494" flag="0"/>
      <psa10 value="0.0171436046" flag="0"/>
      <psa30 value="0.0075269216" flag="0"/>
    </comp>
  </station>
  <station code="NPS" name="NPS" netid="HL" insttype="CMG3ESPC-120s" lat="35.2613" lon="25.6104">
    <comp name="--.HHE">
      <acc value="0.0289654343" flag="0"/>
      <vel value="0.0139793168" flag="0"/>
      <psa03 value="0.1055263430" flag="0"/>
      <psa10 value="0.0161788658" flag="0"/>
      <psa30 value="0.0038736832" flag="0"/>
    </comp>
    <comp name="--.HHN">
      <acc value="0.0614588540" flag="0"/>
      <vel value="0.0336757954" flag="0"/>
      <psa03 value="0.1665338426" flag="0"/>
      <psa10 value="0.0340732116" flag="0"/>
      <psa30 value="0.0110185287" flag="0"/>
    </comp>
    <comp name="--.HHZ">
      <acc value="0.0520640283" flag="0"/>
      <vel value="0.0293033288" flag="0"/>
