<?xml version="1.0" encoding="UTF-8" standalone="yes"?>
<!DOCTYPE earthquake SYSTEM "stationlist.dtd">
<stationlist created="" xmlns="ch.ethz.sed.shakemap.usgs.xml">
  <station code="APE" name="APE" netid="GE" insttype="STS-2/N" lat="37.0727" lon="25.523">
    <comp name="--.HHE">
      <acc value="0.4760064910" flag="0"/>
      <vel value="0.1013108233" flag="0"/>
      <psa03 value="0.3182160031" flag="0"/>
      <psa10 value="0.0305834962" flag="0"/>
      <psa30 value="0.0192423543" flag="0"/>
    </comp>
    <comp name="--.HHN">
      <acc value="0.5256440557" flag="0"/>
      <vel value="0.1107199408" flag="0"/>
      <psa03 value="0.2277269529" flag="0"/>
      <psa10 value="0.0378248567" flag="0"/>
      <psa30 value="0.0254210751" flag="0"/>
    </comp>
    <comp name="--.HHZ">
      <acc value="0.2303812318" flag="0"/>
      <vel value="0.0607485663" flag="0"/>
      <psa03 value="0.1838952940" flag="0"/>
      <psa10 value="0.0511524065" flag="0"/>
      <psa30 value="0.0147887045" flag="0"/>
    </comp>
  </station>
  <station code="THERA" name="THERA" netid="GE" insttype="STS-2/N" lat="36.367" lon="25.4753">
    <comp name="--.HHE">
      <acc value="0.7822755600" flag="0"/>
      <vel value="0.2576618336" flag="0"/>
      <psa03 value="1.3353126405" flag="0"/>
      <psa10 value="0.1085455699" flag="0"/>
      <psa30 value="0.0242343369" flag="0"/>
    </comp>
    <comp name="--.HHN">
      <acc value="0.5434453950" flag="0"/>
      <vel value="0.2204913103" flag="0"/>
      <psa03 value="0.6580019961" flag="0"/>
      <psa10 value="0.0997320921" flag="0"/>
      <psa30 value="0.0118281064" flag="0"/>
    </comp>
    <comp name="--.HHZ">
      <acc value="0.6641941644" flag="0"/>
      <vel value="0.1751199771" flag="0"/>
      <psa03 value="1.1960589052" flag="0"/>
      <psa10 value="0.0648696690" flag="0"/>
      <psa30 value="0.0227256968" flag="0"/>
    </comp>
  </station>
  <station code="ZKR" name="ZKR" netid="GE" insttype="STS-2/N" lat="35.1147" lon="26.2169">
    <comp name="--.HHE">
      <acc value="0.0264955459" flag="0"/>
      <vel value="0.0286018801" flag="0"/>
      <psa03 value="0.0958948005" flag="0"/>
      <psa10 value="0.0432698542" flag="0"/>
      <psa30 value="0.0037238241" flag="0"/>
    </comp>
    <comp name="--.HHN">
      <acc value="0.0100488982" flag="0"/>
      <vel value="0.0093264569" flag="0"/>
      <psa03 value="0.0309304359" flag="0"/>
      <psa10 value="0.0225995628" flag="0"/>
      <psa30 value="0.0036554710" flag="0"/>
    </comp>
    <comp name="--.HHZ">
      <acc value="0.0102596608" flag="0"/>
      <vel value="0.0065377238" flag="0"/>
      <psa03 value="0.0256326604" flag="0"/>
      <psa10 value="0.0083230068" flag="0"/>
      <psa30 value="0.0014648155" flag="0"/>
    </comp>
  </station>
  <station code="IDI" name="IDI" netid="MN" insttype="" lat="35.288" lon="24.89">
    <comp name="--.HHE">
      <acc value="0.0474818310" flag="0"/>
      <vel value="0.0365661276" flag="0"/>
      <psa03 value="0.1287486218" flag="0"/>
      <psa10 value="0.0341204075" flag="0"/>
      <psa30 value="0.0042657378" flag="0"/>
    </comp>
    <comp name="--.HHN">
      <acc value="0.0483925433" flag="0"/>
      <vel value="0.0260579027" flag="0"/>
      <psa03 value="0.0965349909" flag="0"/>
      <psa10 value="0.0203524135" flag="0"/>
      <psa30 value="0.0036443389" flag="0"/>
    </comp>
    <comp name="--.HHZ">
      <acc value="0.0299550434" flag="0"/>
      <vel value="0.0198073536" flag="0"/>
      <psa03 value="0.0855511306" flag="0"/>
      <psa10 value="0.0227944558" flag="0"/>
      <psa30 value="0.0028900843" flag="0"/>
    </comp>
  </station>
</stationlist>
