<?xml version="1.0" encoding="UTF-8" standalone="yes"?>
<!DOCTYPE earthquake SYSTEM "stationlist.dtd">
<stationlist created="" xmlns="ch.ethz.sed.shakemap.usgs.xml">
  <station code="CEYT" name="CEYT" netid="KO" insttype="CMG-3ESP" lat="37.0105" lon="35.7478">
    <comp name="--.HHZ">
      <acc value="0.0116804457" flag="0"/>
      <vel value="0.0048124857" flag="0"/>
      <psa03 value="0.0242250572" flag="0"/>
      <psa10 value="0.0029912555" flag="0"/>
      <psa30 value="0.0002843242" flag="0"/>
    </comp>
    <comp name="--.HHE">
      <acc value="0.0164540026" flag="0"/>
      <vel value="0.0093473890" flag="0"/>
      <psa03 value="0.0425157765" flag="0"/>
      <psa10 value="0.0084501763" flag="0"/>
      <psa30 value="0.0004790374" flag="0"/>
    </comp>
  </station>
  <station code="TAHT" name="TAHT" netid="KO" insttype="CMG-3ESPC" lat="36.3755" lon="36.1855">
    <comp name="--.HHE">
      <acc value="0.3580936845" flag="0"/>
      <vel value="0.1086255710" flag="0"/>
      <psa03 value="0.8640015803" flag="0"/>
      <psa10 value="0.0465138101" flag="0"/>
      <psa30 value="0.0029231657" flag="0"/>
    </comp>
    <comp name="--.HHZ">
      <acc value="0.2038197617" flag="0"/>
      <vel value="0.0463962496" flag="0"/>
      <psa03 value="0.1957485943" flag="0"/>
      <psa10 value="0.0186629301" flag="0"/>
      <psa30 value="0.0019826409" flag="0"/>
    </comp>
  </station>
</stationlist>
