<?xml version="1.0" encoding="UTF-8" standalone="yes"?>
<!DOCTYPE earthquake SYSTEM "stationlist.dtd">
<stationlist created="" xmlns="ch.ethz.sed.shakemap.usgs.xml">
  <station code="TAHT" name="TAHT" netid="KO" insttype="CMG-3ESPC" lat="36.3755" lon="36.1855">
    <comp name="--.HHE">
      <acc value="0.3580936846" flag="0"/>
      <vel value="0.1086255728" flag="0"/>
      <psa03 value="0.8640015803" flag="0"/>
      <psa10 value="0.0465138096" flag="0"/>
      <psa30 value="0.0029232607" flag="0"/>
    </comp>
    <comp name="--.HHZ">
      <acc value="0.2038197615" flag="0"/>
      <vel value="0.0463962454" flag="0"/>
      <psa03 value="0.1957485943" flag="0"/>
      <psa10 value="0.0186629282" flag="0"/>
      <psa30 value="0.0019830901" flag="0"/>
    </comp>
  </station>
</stationlist>
