<?xml version="1.0" encoding="UTF-8" standalone="yes"?>
<!DOCTYPE earthquake SYSTEM "stationlist.dtd">
<stationlist created="" xmlns="ch.ethz.sed.shakemap.usgs.xml">
  <station code="ARG" name="ARG" netid="HL" source="NOA" insttype="LE3D20_DR24" lat="36.2136" lon="28.1212">
    <comp name="--.HHE">
      <acc value="0.0691498717" flag="0"/>
      <vel value="0.0830609529" flag="0"/>
      <psa03 value="0.2988884826" flag="0"/>
      <psa10 value="0.1010687283" flag="0"/>
      <psa30 value="0.0279880826" flag="0"/>
    </comp>
    <comp name="--.HHN">
      <acc value="0.0592212787" flag="0"/>
      <vel value="0.1022447682" flag="0"/>
      <psa03 value="0.1787767006" flag="0"/>
      <psa10 value="0.1549767107" flag="0"/>
      <psa30 value="0.0368249519" flag="0"/>
    </comp>
    <comp name="--.HHZ">
      <acc value="0.0420685866" flag="0"/>
      <vel value="0.0776250649" flag="0"/>
      <psa03 value="0.1142282184" flag="0"/>
      <psa10 value="0.1177569092" flag="0"/>
      <psa30 value="0.0310589355" flag="0"/>
    </comp>
  </station>
  <station code="KSL" name="KSL" netid="HL" source="NOA" insttype="60" lat="36.1503" lon="29.5856">
    <comp name="--.HHE">
      <acc value="0.0447417711" flag="0"/>
      <vel value="0.1247943305" flag="0"/>
      <psa03 value="0.0901662524" flag="0"/>
      <psa10 value="0.1147394510" flag="0"/>
      <psa30 value="0.0371774261" flag="0"/>
    </comp>
    <comp name="--.HHN">
      <acc value="0.0409971868" flag="0"/>
      <vel value="0.0776405914" flag="0"/>
      <psa03 value="0.0688481555" flag="0"/>
      <psa10 value="0.0937973061" flag="0"/>
      <psa30 value="0.0228157127" flag="0"/>
    </comp>
    <comp name="--.HHZ">
      <acc value="0.0469349225" flag="0"/>
      <vel value="0.0713124548" flag="0"/>
      <psa03 value="0.0902714577" flag="0"/>
      <psa10 value="0.0842227707" flag="0"/>
      <psa30 value="0.0280585623" flag="0"/>
    </comp>
  </station>
  <station code="RODB" name="RODB" netid="HL" source="NOA" insttype="CMG-5" lat="36.4471" lon="28.2212">
    <comp name="00.HNE">
      <acc value="0.1124061882" flag="0"/>
      <vel value="0.2435634473" flag="0"/>
      <psa03 value="0.3441692293" flag="0"/>
      <psa10 value="0.3188859489" flag="0"/>
      <psa30 value="0.1045781491" flag="0"/>
    </comp>
    <comp name="00.HNN">
      <acc value="0.1507820494" flag="0"/>
      <vel value="0.2697606034" flag="0"/>
      <psa03 value="0.3591733867" flag="0"/>
      <psa10 value="0.5055910424" flag="0"/>
      <psa30 value="0.1165489227" flag="0"/>
    </comp>
    <comp name="00.HNZ">
      <acc value="0.0888498978" flag="0"/>
      <vel value="0.1644598636" flag="0"/>
      <psa03 value="0.1392854826" flag="0"/>
      <psa10 value="0.2702423400" flag="0"/>
      <psa30 value="0.0275235809" flag="0"/>
    </comp>
  </station>
</stationlist>
