<stationlist created="1778637292">
	<station code="KARP" name="KARP" netid="GE" source="GEOFON" insttype="" lat="35.5471" lon="27.16106">
		<comp name="--.HNE" depth="0.0">
			<acc value="0.0134240466438135" flag="0"/>
			<vel value="0.0103530999762909" flag="0"/>
			<psa03 value="0.0306036693268979" flag="0"/>
			<psa10 value="0.0263634504056843" flag="0"/>
			<psa30 value="0.00280399408876709" flag="0"/>
		</comp>
		<comp name="--.HNN" depth="0.0">
			<acc value="0.0204446207518288" flag="0"/>
			<vel value="0.0245496258089339" flag="0"/>
			<psa03 value="0.0339593348232683" flag="0"/>
			<psa10 value="0.0514584592537405" flag="0"/>
			<psa30 value="0.00423082305782378" flag="0"/>
		</comp>
		<comp name="--.HNZ" depth="0.0">
			<acc value="0.0190149702445115" flag="0"/>
			<vel value="0.0187045219137778" flag="0"/>
			<psa03 value="0.0397310794770253" flag="0"/>
			<psa10 value="0.036502929269517" flag="0"/>
			<psa30 value="0.00374626496014789" flag="0"/>
		</comp>
	</station>
	<station code="KRL1" name="KRL1" netid="HI" source="ITSAK Strong Motion Network" insttype="" lat="37.7951" lon="26.7065">
		<comp name="--.HNE" depth="0.0">
			<acc value="0.124350985602771" flag="0"/>
			<vel value="0.245006175287632" flag="0"/>
			<psa03 value="0.162011530164762" flag="0"/>
			<psa10 value="0.28386514020136" flag="0"/>
			<psa30 value="0.073172299547654" flag="0"/>
		</comp>
		<comp name="--.HNN" depth="0.0">
			<acc value="0.126301122498193" flag="0"/>
			<vel value="0.251389741702591" flag="0"/>
			<psa03 value="0.161385139272106" flag="0"/>
			<psa10 value="0.4493182408992" flag="0"/>
			<psa30 value="0.0855417299893414" flag="0"/>
		</comp>
		<comp name="--.HNZ" depth="0.0">
			<acc value="0.0575863477287566" flag="0"/>
			<vel value="0.121655505318719" flag="0"/>
			<psa03 value="0.0687687715722837" flag="0"/>
			<psa10 value="0.204649958227843" flag="0"/>
			<psa30 value="0.0521421201708677" flag="0"/>
		</comp>
	</station>
	<station code="AMGA" name="AMGA" netid="HL" source="National Observatory of Athens Seismic Network" insttype="" lat="36.831561" lon="25.893836">
		<comp name="00.HNE" depth="0.0">
			<acc value="0.0218700787647308" flag="0"/>
			<vel value="0.0681595049768668" flag="0"/>
			<psa03 value="0.0250108934996139" flag="0"/>
			<psa10 value="0.038564650150487" flag="0"/>
			<psa30 value="0.0331732142529852" flag="0"/>
		</comp>
		<comp name="00.HNN" depth="0.0">
			<acc value="0.0182733495119736" flag="0"/>
			<vel value="0.0889741104922152" flag="0"/>
			<psa03 value="0.0216999702098618" flag="0"/>
			<psa10 value="0.0339902069458349" flag="0"/>
			<psa30 value="0.043621414342484" flag="0"/>
		</comp>
		<comp name="00.HNZ" depth="0.0">
			<acc value="0.0106529519277331" flag="0"/>
			<vel value="0.0425416578335065" flag="0"/>
			<psa03 value="0.0123041068200247" flag="0"/>
			<psa10 value="0.0243581047050533" flag="0"/>
			<psa30 value="0.020280299993864" flag="0"/>
		</comp>
	</station>
	<station code="ASTA" name="ASTA" netid="HL" source="National Observatory of Athens Seismic Network" insttype="" lat="36.54552" lon="26.35295">
		<comp name="00.HNE" depth="0.0">
			<acc value="0.00918150072148148" flag="0"/>
			<vel value="0.0240360797198241" flag="0"/>
			<psa03 value="0.0147201859774114" flag="0"/>
			<psa10 value="0.0246842753913005" flag="0"/>
			<psa30 value="0.0102719157954228" flag="0"/>
		</comp>
		<comp name="00.HNN" depth="0.0">
			<acc value="0.0155942510633797" flag="0"/>
			<vel value="0.064663989122949" flag="0"/>
			<psa03 value="0.0176731716142173" flag="0"/>
			<psa10 value="0.0461390583088942" flag="0"/>
			<psa30 value="0.0141873062965878" flag="0"/>
		</comp>
		<comp name="00.HNZ" depth="0.0">
			<acc value="0.00852467166473234" flag="0"/>
			<vel value="0.0274718805957527" flag="0"/>
			<psa03 value="0.00921689456336398" flag="0"/>
			<psa10 value="0.0206051284139127" flag="0"/>
			<psa30 value="0.0129211018492907" flag="0"/>
		</comp>
	</station>
	<station code="KARP" name="KARP" netid="HL" source="National Observatory of Athens Seismic Network" insttype="" lat="35.5471" lon="27.16106">
		<comp name="--.HNE" depth="0.0">
			<acc value="0.0313438876241318" flag="0"/>
			<vel value="0.0404210410595875" flag="0"/>
			<psa03 value="0.0841153484423509" flag="0"/>
			<psa10 value="0.0602852017753932" flag="0"/>
			<psa30 value="0.0165774349741359" flag="0"/>
		</comp>
		<comp name="--.HNN" depth="0.0">
			<acc value="0.0275604315196" flag="0"/>
			<vel value="0.0346828935962745" flag="0"/>
			<psa03 value="0.0738693831267667" flag="0"/>
			<psa10 value="0.0628220848906492" flag="0"/>
			<psa30 value="0.0112602711396204" flag="0"/>
		</comp>
		<comp name="--.HNZ" depth="0.0">
			<acc value="0.0319070676183607" flag="0"/>
			<vel value="0.0457240684486105" flag="0"/>
			<psa03 value="0.044115815725616" flag="0"/>
			<psa10 value="0.0357579715293228" flag="0"/>
			<psa30 value="0.0128790441750695" flag="0"/>
		</comp>
	</station>
	<station code="KLNA" name="KLNA" netid="HL" source="National Observatory of Athens Seismic Network" insttype="" lat="36.95708" lon="26.97274">
		<comp name="00.HNE" depth="0.0">
			<acc value="0.0519462347687005" flag="0"/>
			<vel value="0.0890175619872334" flag="0"/>
			<psa03 value="0.143040834558615" flag="0"/>
			<psa10 value="0.0720072124873142" flag="0"/>
			<psa30 value="0.0366496837072249" flag="0"/>
		</comp>
		<comp name="00.HNN" depth="0.0">
			<acc value="0.0514890607748234" flag="0"/>
			<vel value="0.157033723239848" flag="0"/>
			<psa03 value="0.0949877046505909" flag="0"/>
			<psa10 value="0.118665727815047" flag="0"/>
			<psa30 value="0.0803829535662547" flag="0"/>
		</comp>
		<comp name="00.HNZ" depth="0.0">
			<acc value="0.0371941766820436" flag="0"/>
			<vel value="0.074880986799088" flag="0"/>
			<psa03 value="0.0493059116933355" flag="0"/>
			<psa10 value="0.0667482135214025" flag="0"/>
			<psa30 value="0.0343342745147294" flag="0"/>
		</comp>
	</station>
	<station code="KSL" name="KSL" netid="HL" source="National Observatory of Athens Seismic Network" insttype="" lat="36.15031" lon="29.58561">
		<comp name="00.HNE" depth="0.0">
			<acc value="0.0453812168244686" flag="0"/>
			<vel value="0.121288767706945" flag="0"/>
			<psa03 value="0.0906477106086186" flag="0"/>
			<psa10 value="0.112404055998819" flag="0"/>
			<psa30 value="0.0391834348680177" flag="0"/>
		</comp>
		<comp name="00.HNN" depth="0.0">
			<acc value="0.0403112296261723" flag="0"/>
			<vel value="0.0785587973804684" flag="0"/>
			<psa03 value="0.0684108339193375" flag="0"/>
			<psa10 value="0.0912230953857295" flag="0"/>
			<psa30 value="0.0251227490161596" flag="0"/>
		</comp>
		<comp name="00.HNZ" depth="0.0">
			<acc value="0.0466140581587676" flag="0"/>
			<vel value="0.0672119934600118" flag="0"/>
			<psa03 value="0.0885448268975598" flag="0"/>
			<psa10 value="0.0830205066464018" flag="0"/>
			<psa30 value="0.0275352487970168" flag="0"/>
		</comp>
	</station>
	<station code="RODB" name="RODB" netid="HL" source="National Observatory of Athens Seismic Network" insttype="" lat="36.4471" lon="28.22116">
		<comp name="00.HNE" depth="0.0">
			<acc value="0.112233465368056" flag="0"/>
			<vel value="0.280049039388906" flag="0"/>
			<psa03 value="0.346886327911461" flag="0"/>
			<psa10 value="0.317388238510101" flag="0"/>
			<psa30 value="0.109218410887598" flag="0"/>
		</comp>
		<comp name="00.HNN" depth="0.0">
			<acc value="0.153031449738447" flag="0"/>
			<vel value="0.291315336872473" flag="0"/>
			<psa03 value="0.360040536657233" flag="0"/>
			<psa10 value="0.504122969785921" flag="0"/>
			<psa30 value="0.115216551106844" flag="0"/>
		</comp>
		<comp name="00.HNZ" depth="0.0">
			<acc value="0.0898231546085126" flag="0"/>
			<vel value="0.167640768322082" flag="0"/>
			<psa03 value="0.141251146293884" flag="0"/>
			<psa10 value="0.26973913072784" flag="0"/>
			<psa30 value="0.0291338878394877" flag="0"/>
		</comp>
	</station>
	<station code="BASM" name="BASM" netid="KO" source="Bogazici University Kandilli Observatory And Earthquake Research Institute (KOERI)" insttype="" lat="37.9194" lon="30.035">
		<comp name="--.HNE" depth="0.0">
			<acc value="2.04212556446036" flag="0"/>
			<vel value="2.49593924947409" flag="0"/>
			<psa03 value="4.60133327082969" flag="0"/>
			<psa10 value="2.64802275649579" flag="0"/>
			<psa30 value="0.411388930082692" flag="0"/>
		</comp>
		<comp name="--.HNN" depth="0.0">
			<acc value="2.09032694944867" flag="0"/>
			<vel value="1.58661494806456" flag="0"/>
			<psa03 value="5.8715197745158" flag="0"/>
			<psa10 value="2.49558024206048" flag="0"/>
			<psa30 value="0.353513990977825" flag="0"/>
		</comp>
		<comp name="--.HNZ" depth="0.0">
			<acc value="1.02332551931834" flag="0"/>
			<vel value="0.962657638424225" flag="0"/>
			<psa03 value="2.17643989873921" flag="0"/>
			<psa10 value="1.12594926252253" flag="0"/>
			<psa30 value="0.197539974174133" flag="0"/>
		</comp>
	</station>
	<station code="CAME" name="CAME" netid="KO" source="Bogazici University Kandilli Observatory And Earthquake Research Institute (KOERI)" insttype="" lat="36.9435" lon="29.3023">
		<comp name="--.HNE" depth="0.0">
			<acc value="2.01894107236295" flag="0"/>
			<vel value="0.984222513204716" flag="0"/>
			<psa03 value="3.99691080162345" flag="0"/>
			<psa10 value="0.751179144024495" flag="0"/>
			<psa30 value="0.125568108030047" flag="0"/>
		</comp>
		<comp name="--.HNN" depth="0.0">
			<acc value="1.80698590945337" flag="0"/>
			<vel value="0.892963231177821" flag="0"/>
			<psa03 value="3.94348860692124" flag="0"/>
			<psa10 value="0.922450968693041" flag="0"/>
			<psa30 value="0.336548193650243" flag="0"/>
		</comp>
		<comp name="--.HNZ" depth="0.0">
			<acc value="1.07789725340901" flag="0"/>
			<vel value="0.567111515053842" flag="0"/>
			<psa03 value="3.09472894737262" flag="0"/>
			<psa10 value="0.79801081169184" flag="0"/>
			<psa30 value="0.232475583945812" flag="0"/>
		</comp>
	</station>
	<station code="DATC" name="DATC" netid="KO" source="Bogazici University Kandilli Observatory And Earthquake Research Institute (KOERI)" insttype="" lat="36.7584" lon="27.6602">
		<comp name="--.HNE" depth="0.0">
			<acc value="1.41295981343105" flag="0"/>
			<vel value="1.67515752606937" flag="0"/>
			<psa03 value="2.61907454881377" flag="0"/>
			<psa10 value="4.07177793595781" flag="0"/>
			<psa30 value="0.511327359895595" flag="0"/>
		</comp>
		<comp name="--.HNN" depth="0.0">
			<acc value="0.948245084145027" flag="0"/>
			<vel value="1.35564463841186" flag="0"/>
			<psa03 value="2.14856550401603" flag="0"/>
			<psa10 value="1.98517949326395" flag="0"/>
			<psa30 value="0.325608724132076" flag="0"/>
		</comp>
		<comp name="--.HNZ" depth="0.0">
			<acc value="0.749021801898744" flag="0"/>
			<vel value="1.46103656018529" flag="0"/>
			<psa03 value="1.31671839856912" flag="0"/>
			<psa10 value="1.66699394863191" flag="0"/>
			<psa30 value="0.386242915119091" flag="0"/>
		</comp>
	</station>
	<station code="DEMR" name="DEMR" netid="KO" source="Bogazici University Kandilli Observatory And Earthquake Research Institute (KOERI)" insttype="" lat="36.2365" lon="29.9056">
		<comp name="--.HNE" depth="0.0">
			<acc value="0.2299882607989" flag="0"/>
			<vel value="0.376238394138539" flag="0"/>
			<psa03 value="0.429390956915554" flag="0"/>
			<psa10 value="0.513090650258421" flag="0"/>
			<psa30 value="0.10996247378366" flag="0"/>
		</comp>
		<comp name="--.HNN" depth="0.0">
			<acc value="0.20279349695778" flag="0"/>
			<vel value="0.271021560512828" flag="0"/>
			<psa03 value="0.385812047669357" flag="0"/>
			<psa10 value="0.420901123209737" flag="0"/>
			<psa30 value="0.0829354964538271" flag="0"/>
		</comp>
		<comp name="--.HNZ" depth="0.0">
			<acc value="0.159389153073695" flag="0"/>
			<vel value="0.195372962431724" flag="0"/>
			<psa03 value="0.370599697419145" flag="0"/>
			<psa10 value="0.363998432254685" flag="0"/>
			<psa30 value="0.0472245042414535" flag="0"/>
		</comp>
	</station>
	<station code="DIDI" name="DIDI" netid="KO" source="Bogazici University Kandilli Observatory And Earthquake Research Institute (KOERI)" insttype="" lat="37.3767" lon="27.2398">
		<comp name="--.HNE" depth="0.0">
			<acc value="0.745092497595521" flag="0"/>
			<vel value="1.33982422337915" flag="0"/>
			<psa03 value="1.22423625748915" flag="0"/>
			<psa10 value="1.88419946488098" flag="0"/>
			<psa30 value="0.711597950939641" flag="0"/>
		</comp>
		<comp name="--.HNN" depth="0.0">
			<acc value="0.959980598027252" flag="0"/>
			<vel value="1.76654610024922" flag="0"/>
			<psa03 value="1.4849043532472" flag="0"/>
			<psa10 value="1.72453287376508" flag="0"/>
			<psa30 value="0.842025957452565" flag="0"/>
		</comp>
		<comp name="--.HNZ" depth="0.0">
			<acc value="0.632184404893512" flag="0"/>
			<vel value="1.43845124456757" flag="0"/>
			<psa03 value="0.748805569963396" flag="0"/>
			<psa10 value="1.29804658090318" flag="0"/>
			<psa30 value="0.323711654571461" flag="0"/>
		</comp>
	</station>
	<station code="DST" name="DST" netid="KO" source="Bogazici University Kandilli Observatory And Earthquake Research Institute (KOERI)" insttype="" lat="39.6041" lon="28.6267">
		<comp name="--.HNE" depth="0.0">
			<acc value="0.148047576736527" flag="0"/>
			<vel value="0.249038771775328" flag="0"/>
			<psa03 value="0.261607682097035" flag="0"/>
			<psa10 value="0.621073281399223" flag="0"/>
			<psa30 value="0.0802388836609438" flag="0"/>
		</comp>
		<comp name="--.HNN" depth="0.0">
			<acc value="0.141483142995003" flag="0"/>
			<vel value="0.315622250855443" flag="0"/>
			<psa03 value="0.20116096095575" flag="0"/>
			<psa10 value="0.413133428718739" flag="0"/>
			<psa30 value="0.148305202589321" flag="0"/>
		</comp>
		<comp name="--.HNZ" depth="0.0">
			<acc value="0.0865094045479875" flag="0"/>
			<vel value="0.320478824489051" flag="0"/>
			<psa03 value="0.162414210024326" flag="0"/>
			<psa10 value="0.147940553605382" flag="0"/>
			<psa30 value="0.15566842753249" flag="0"/>
		</comp>
	</station>
	<station code="ESKT" name="ESKT" netid="KO" source="Bogazici University Kandilli Observatory And Earthquake Research Institute (KOERI)" insttype="" lat="39.5212" lon="30.8492">
		<comp name="--.HNE" depth="0.0">
			<acc value="0.0838723078711534" flag="0"/>
			<vel value="0.354238685811695" flag="0"/>
			<psa03 value="0.128857555060623" flag="0"/>
			<psa10 value="0.211314309903634" flag="0"/>
			<psa30 value="0.172092396737925" flag="0"/>
		</comp>
		<comp name="--.HNN" depth="0.0">
			<acc value="0.0780376104626423" flag="0"/>
			<vel value="0.289475216599135" flag="0"/>
			<psa03 value="0.12841013299444" flag="0"/>
			<psa10 value="0.170490625740991" flag="0"/>
			<psa30 value="0.150344999789048" flag="0"/>
		</comp>
		<comp name="--.HNZ" depth="0.0">
			<acc value="0.0894666022303903" flag="0"/>
			<vel value="0.358830467436931" flag="0"/>
			<psa03 value="0.0972695571881228" flag="0"/>
			<psa10 value="0.143507048351577" flag="0"/>
			<psa30 value="0.253238652349087" flag="0"/>
		</comp>
	</station>
	<station code="FETI" name="FETI" netid="KO" source="Bogazici University Kandilli Observatory And Earthquake Research Institute (KOERI)" insttype="" lat="36.6903" lon="29.096">
		<comp name="--.HNE" depth="0.0">
			<acc value="0.395240129929284" flag="0"/>
			<vel value="0.470756885583923" flag="0"/>
			<psa03 value="1.04468578233003" flag="0"/>
			<psa10 value="0.861231549643458" flag="0"/>
			<psa30 value="0.162928745400437" flag="0"/>
		</comp>
		<comp name="--.HNN" depth="0.0">
			<acc value="0.40877306785558" flag="0"/>
			<vel value="0.4791959658978" flag="0"/>
			<psa03 value="1.12325309715171" flag="0"/>
			<psa10 value="0.544850010782269" flag="0"/>
			<psa30 value="0.105592055041188" flag="0"/>
		</comp>
		<comp name="--.HNZ" depth="0.0">
			<acc value="0.275497199954078" flag="0"/>
			<vel value="0.549795459843337" flag="0"/>
			<psa03 value="0.73395115736613" flag="0"/>
			<psa10 value="0.578147608369653" flag="0"/>
			<psa30 value="0.109945471745145" flag="0"/>
		</comp>
	</station>
	<station code="FOCM" name="FOCM" netid="KO" source="Bogazici University Kandilli Observatory And Earthquake Research Institute (KOERI)" insttype="" lat="38.7131" lon="26.7309">
		<comp name="--.HNE" depth="0.0">
			<acc value="0.16783390093444" flag="0"/>
			<vel value="0.295972542462267" flag="0"/>
			<psa03 value="0.30549978678956" flag="0"/>
			<psa10 value="0.41033077689617" flag="0"/>
			<psa30 value="0.182766544970846" flag="0"/>
		</comp>
		<comp name="--.HNN" depth="0.0">
			<acc value="0.263764546387714" flag="0"/>
			<vel value="0.676594926820015" flag="0"/>
			<psa03 value="0.359279919144722" flag="0"/>
			<psa10 value="0.892032532101543" flag="0"/>
			<psa30 value="0.269497075390035" flag="0"/>
		</comp>
		<comp name="--.HNZ" depth="0.0">
			<acc value="0.155454813551696" flag="0"/>
			<vel value="0.487522053728157" flag="0"/>
			<psa03 value="0.253554084905746" flag="0"/>
			<psa10 value="0.323657963923519" flag="0"/>
			<psa30 value="0.253340664580177" flag="0"/>
		</comp>
	</station>
	<station code="GMLD" name="GMLD" netid="KO" source="Bogazici University Kandilli Observatory And Earthquake Research Institute (KOERI)" insttype="" lat="38.0766" lon="26.9157">
		<comp name="--.HNE" depth="0.0">
			<acc value="0.592426515207893" flag="0"/>
			<vel value="0.620948783167333" flag="0"/>
			<psa03 value="0.96021249623473" flag="0"/>
			<psa10 value="1.1072971314275" flag="0"/>
			<psa30 value="0.105175057675505" flag="0"/>
		</comp>
		<comp name="--.HNN" depth="0.0">
			<acc value="0.814507261062092" flag="0"/>
			<vel value="1.23965490516745" flag="0"/>
			<psa03 value="0.990324001288827" flag="0"/>
			<psa10 value="2.13812938432232" flag="0"/>
			<psa30 value="0.191903798406429" flag="0"/>
		</comp>
		<comp name="--.HNZ" depth="0.0">
			<acc value="0.255819950965727" flag="0"/>
			<vel value="0.308176412588337" flag="0"/>
			<psa03 value="0.407422533465983" flag="0"/>
			<psa10 value="0.432433874387663" flag="0"/>
			<psa30 value="0.0806755675975381" flag="0"/>
		</comp>
	</station>
	<station code="GOMA" name="GOMA" netid="KO" source="Bogazici University Kandilli Observatory And Earthquake Research Institute (KOERI)" insttype="" lat="38.7077" lon="27.9175">
		<comp name="--.HNE" depth="0.0">
			<acc value="0.283644522119747" flag="0"/>
			<vel value="0.275389353530273" flag="0"/>
			<psa03 value="0.523036395367597" flag="0"/>
			<psa10 value="0.475629342923141" flag="0"/>
			<psa30 value="0.075973609104024" flag="0"/>
		</comp>
		<comp name="--.HNN" depth="0.0">
			<acc value="0.255420327162468" flag="0"/>
			<vel value="0.353264279251191" flag="0"/>
			<psa03 value="0.399503162894549" flag="0"/>
			<psa10 value="0.536256822579164" flag="0"/>
			<psa30 value="0.128527804997846" flag="0"/>
		</comp>
		<comp name="--.HNZ" depth="0.0">
			<acc value="0.122127199056076" flag="0"/>
			<vel value="0.317880853974867" flag="0"/>
			<psa03 value="0.231227723803228" flag="0"/>
			<psa10 value="0.360752832586596" flag="0"/>
			<psa30 value="0.0802487269463998" flag="0"/>
		</comp>
	</station>
	<station code="GONE" name="GONE" netid="KO" source="Bogazici University Kandilli Observatory And Earthquake Research Institute (KOERI)" insttype="" lat="40.0466" lon="27.686">
		<comp name="--.HNE" depth="0.0">
			<acc value="0.0783164743844883" flag="0"/>
			<vel value="0.213202253690506" flag="0"/>
			<psa03 value="0.207335385469071" flag="0"/>
			<psa10 value="0.240363634972613" flag="0"/>
			<psa30 value="0.0811480452994271" flag="0"/>
		</comp>
		<comp name="--.HNN" depth="0.0">
			<acc value="0.0869563220676794" flag="0"/>
			<vel value="0.260967973740119" flag="0"/>
			<psa03 value="0.204874564105066" flag="0"/>
			<psa10 value="0.245662901924481" flag="0"/>
			<psa30 value="0.115501111540936" flag="0"/>
		</comp>
		<comp name="--.HNZ" depth="0.0">
			<acc value="0.0821404515034768" flag="0"/>
			<vel value="0.149309291929272" flag="0"/>
			<psa03 value="0.155031745932312" flag="0"/>
