<?xml version="1.0" encoding="UTF-8" standalone="yes"?>
<!DOCTYPE earthquake SYSTEM "stationlist.dtd">
<stationlist created="" xmlns="ch.ethz.sed.shakemap.usgs.xml">
  <station code="AKDM" name="AKDM" netid="KO" insttype="30s," lat="38.3285" lon="42.98">
    <comp name="--.HHE">
      <acc value="0.3944971289" flag="0"/>
      <vel value="0.2529407908" flag="0"/>
      <psa03 value="0.5981926857" flag="0"/>
      <psa10 value="0.3319947437" flag="0"/>
      <psa30 value="0.0178551855" flag="0"/>
    </comp>
    <comp name="--.HHN">
      <acc value="0.2867107252" flag="0"/>
      <vel value="0.2148777978" flag="0"/>
      <psa03 value="0.8618085922" flag="0"/>
      <psa10 value="0.2456104221" flag="0"/>
      <psa30 value="0.0351843155" flag="0"/>
    </comp>
    <comp name="--.HHZ">
      <acc value="0.2778127337" flag="0"/>
      <vel value="0.2081308716" flag="0"/>
      <psa03 value="0.4213504425" flag="0"/>
      <psa10 value="0.2166125198" flag="0"/>
      <psa30 value="0.0180217512" flag="0"/>
    </comp>
  </station>
  <station code="MLAZ" name="MLAZ" netid="KO" insttype="120s," lat="39.141" lon="42.5496">
    <comp name="--.HHE">
      <acc value="0.0327394845" flag="0"/>
      <vel value="0.0279990666" flag="0"/>
      <psa03 value="0.0969866435" flag="0"/>
      <psa10 value="0.0440281639" flag="0"/>
      <psa30 value="0.0085606428" flag="0"/>
    </comp>
    <comp name="--.HHZ">
      <acc value="0.0167726450" flag="0"/>
      <vel value="0.0249453256" flag="0"/>
      <psa03 value="0.0532790935" flag="0"/>
      <psa10 value="0.0434992491" flag="0"/>
      <psa30 value="0.0042977573" flag="0"/>
    </comp>
    <comp name="--.HHN">
      <acc value="0.0275148802" flag="0"/>
      <vel value="0.0282620645" flag="0"/>
      <psa03 value="0.0669395563" flag="0"/>
      <psa10 value="0.0343698707" flag="0"/>
      <psa30 value="0.0073160934" flag="0"/>
    </comp>
  </station>
</stationlist>
