<?xml version="1.0" encoding="UTF-8" standalone="yes"?>
<!DOCTYPE earthquake SYSTEM "stationlist.dtd">
<stationlist created="" xmlns="ch.ethz.sed.shakemap.usgs.xml">
  <station code="GAZ" name="GAZ" netid="KO" insttype="CMG-3T" lat="37.1721" lon="37.2096">
    <comp name="--.HHE">
      <acc value="0.0153408122" flag="0"/>
      <vel value="0.0064650352" flag="0"/>
      <psa03 value="0.0219304899" flag="0"/>
      <psa10 value="0.0035835754" flag="0"/>
      <psa30 value="0.0003149774" flag="0"/>
    </comp>
    <comp name="--.HHN">
      <acc value="0.0143745982" flag="0"/>
      <vel value="0.0076658591" flag="0"/>
      <psa03 value="0.0312956008" flag="0"/>
      <psa10 value="0.0050124971" flag="0"/>
      <psa30 value="0.0003892854" flag="0"/>
    </comp>
    <comp name="--.HHZ">
      <acc value="0.0084295136" flag="0"/>
      <vel value="0.0036093942" flag="0"/>
      <psa03 value="0.0185647913" flag="0"/>
      <psa10 value="0.0028467568" flag="0"/>
      <psa30 value="0.0003316762" flag="0"/>
    </comp>
  </station>
  <station code="SARI" name="SARI" netid="KO" insttype="CMG-3T" lat="38.4072" lon="36.4181">
    <comp name="--.HHZ">
      <acc value="0.0230345808" flag="0"/>
      <vel value="0.0119264530" flag="0"/>
      <psa03 value="0.0500952796" flag="0"/>
      <psa10 value="0.0080441685" flag="0"/>
      <psa30 value="0.0016584929" flag="0"/>
    </comp>
    <comp name="--.HHE">
      <acc value="0.0418608145" flag="0"/>
      <vel value="0.0160917842" flag="0"/>
      <psa03 value="0.0893709189" flag="0"/>
      <psa10 value="0.0169831493" flag="0"/>
      <psa30 value="0.0005726460" flag="0"/>
    </comp>
    <comp name="--.HHN">
      <acc value="0.0392290262" flag="0"/>
      <vel value="0.0128138517" flag="0"/>
      <psa03 value="0.0557022170" flag="0"/>
      <psa10 value="0.0068656208" flag="0"/>
      <psa30 value="0.0014129615" flag="0"/>
    </comp>
  </station>
  <station code="ANDN" name="ANDN" netid="TU" insttype="T" lat="37.58" lon="36.3452">
    <comp name="--.HHE">
      <acc value="0.2577461575" flag="0"/>
      <vel value="0.0986047032" flag="0"/>
      <psa03 value="0.4389185800" flag="0"/>
      <psa10 value="0.0589556883" flag="0"/>
      <psa30 value="0.0063463628" flag="0"/>
    </comp>
    <comp name="--.HHN">
      <acc value="0.4069025561" flag="0"/>
      <vel value="0.1184424095" flag="0"/>
      <psa03 value="0.9341421568" flag="0"/>
      <psa10 value="0.1043446429" flag="0"/>
      <psa30 value="0.0065812997" flag="0"/>
    </comp>
    <comp name="--.HHZ">
      <acc value="0.1470402185" flag="0"/>
      <vel value="0.0742934429" flag="0"/>
      <psa03 value="0.2966120212" flag="0"/>
      <psa10 value="0.1395245817" flag="0"/>
      <psa30 value="0.0073053026" flag="0"/>
    </comp>
  </station>
</stationlist>
