<stationlist created="1680082247">
	<station code="CMRD" name="CMRD" netid="KO" source="Bogazici University Kandilli Observatory And Earthquake Research Institute (KOERI)" insttype="" lat="37.6623" lon="34.9902">
		<comp name=".HNE" depth="0.0">
			<acc value="0.00130497168226" flag="0"/>
			<vel value="0.000962327101917" flag="0"/>
			<psa03 value="0.00275195443889" flag="0"/>
			<psa10 value="0.0014704669034" flag="0"/>
			<psa30 value="0.000198286013079" flag="0"/>
		</comp>
		<comp name=".HNN" depth="0.0">
			<acc value="0.00161446481361" flag="0"/>
			<vel value="0.0012691351787" flag="0"/>
			<psa03 value="0.00291759008592" flag="0"/>
			<psa10 value="0.00140818031628" flag="0"/>
			<psa30 value="0.00019908154755" flag="0"/>
		</comp>
		<comp name=".HNZ" depth="0.0">
			<acc value="0.00116596729684" flag="0"/>
			<vel value="0.00094449713588" flag="0"/>
			<psa03 value="0.00260439860284" flag="0"/>
			<psa10 value="0.00104809025115" flag="0"/>
			<psa30 value="0.000209449057264" flag="0"/>
		</comp>
	</station>
	<station code="KHMN" name="KHMN" netid="KO" source="Bogazici University Kandilli Observatory And Earthquake Research Institute (KOERI)" insttype="" lat="37.3916" lon="37.1574">
		<comp name=".HNE" depth="0.0">
			<acc value="0.0566422097451" flag="0"/>
			<vel value="0.00688498992428" flag="0"/>
			<psa03 value="0.0411380298801" flag="0"/>
			<psa10 value="0.00296029657387" flag="0"/>
			<psa30 value="0.00128010177963" flag="0"/>
		</comp>
		<comp name=".HNN" depth="0.0">
			<acc value="0.0472949162033" flag="0"/>
			<vel value="0.00458444757848" flag="0"/>
			<psa03 value="0.0215042396545" flag="0"/>
			<psa10 value="0.003323989573" flag="0"/>
			<psa30 value="0.000606689096427" flag="0"/>
		</comp>
		<comp name=".HNZ" depth="0.0">
			<acc value="0.0233815366687" flag="0"/>
			<vel value="0.00332848869933" flag="0"/>
			<psa03 value="0.0141155301367" flag="0"/>
			<psa10 value="0.00277194714352" flag="0"/>
			<psa30 value="0.00043503423555" flag="0"/>
		</comp>
	</station>
</stationlist>
