<stationlist created="1706218262">
	<station code="ARPRA" name="ARPRA" netid="KO" source="Bogazici University Kandilli Observatory And Earthquake Research Institute (KOERI)" insttype="" lat="39.0929" lon="38.3356">
		<comp name=".HNE" depth="0.0">
			<acc value="0.2892747347628" flag="0"/>
			<vel value="0.146953871457" flag="0"/>
			<psa03 value="0.626432289733716" flag="0"/>
			<psa10 value="0.220544204971007" flag="0"/>
			<psa30 value="0.0203619522127367" flag="0"/>
		</comp>
		<comp name=".HNN" depth="0.0">
			<acc value="0.22322620403382" flag="0"/>
			<vel value="0.123894755149" flag="0"/>
			<psa03 value="0.615079954363122" flag="0"/>
			<psa10 value="0.166502179952468" flag="0"/>
			<psa30 value="0.010514127342678" flag="0"/>
		</comp>
		<comp name=".HNZ" depth="0.0">
			<acc value="0.13089870424062" flag="0"/>
			<vel value="0.0826381286061" flag="0"/>
			<psa03 value="0.276092727288079" flag="0"/>
			<psa10 value="0.0982803530912387" flag="0"/>
			<psa30 value="0.00994039516907971" flag="0"/>
		</comp>
	</station>
	<station code="CMRD" name="CMRD" netid="KO" source="Bogazici University Kandilli Observatory And Earthquake Research Institute (KOERI)" insttype="" lat="37.6623" lon="34.9902">
		<comp name=".HNE" depth="0.0">
			<acc value="0.0080796654515454" flag="0"/>
			<vel value="0.0148183776301" flag="0"/>
			<psa03 value="0.0127174896066805" flag="0"/>
			<psa10 value="0.0293182515652943" flag="0"/>
			<psa30 value="0.00311384898554731" flag="0"/>
		</comp>
		<comp name=".HNN" depth="0.0">
			<acc value="0.008838076772031" flag="0"/>
			<vel value="0.0199497574653" flag="0"/>
			<psa03 value="0.0132009591341651" flag="0"/>
			<psa10 value="0.0296808762123629" flag="0"/>
			<psa30 value="0.00413128284387784" flag="0"/>
		</comp>
		<comp name=".HNZ" depth="0.0">
			<acc value="0.007504045674378" flag="0"/>
			<vel value="0.0149482709956" flag="0"/>
			<psa03 value="0.00989915121291403" flag="0"/>
			<psa10 value="0.0222638617465905" flag="0"/>
			<psa30 value="0.00483659290055144" flag="0"/>
		</comp>
	</station>
	<station code="ERBG" name="ERBG" netid="KO" source="Bogazici University Kandilli Observatory And Earthquake Research Institute (KOERI)" insttype="" lat="40.712" lon="36.6768">
		<comp name=".HNE" depth="0.0">
			<acc value="164.61373087626" flag="0"/>
			<vel value="94.89707039" flag="0"/>
			<psa03 value="179.524532619238" flag="0"/>
			<psa10 value="102.675322696299" flag="0"/>
			<psa30 value="35.5163350762441" flag="0"/>
		</comp>
		<comp name=".HNN" depth="0.0">
			<acc value="0.25005702211296" flag="0"/>
			<vel value="0.11543268783" flag="0"/>
			<psa03 value="0.379838537438889" flag="0"/>
			<psa10 value="0.134017903028393" flag="0"/>
			<psa30 value="0.041570043811382" flag="0"/>
		</comp>
		<comp name=".HNZ" depth="0.0">
			<acc value="0.24924715779954" flag="0"/>
			<vel value="0.115890648518" flag="0"/>
			<psa03 value="0.37768247794412" flag="0"/>
			<psa10 value="0.131907548227655" flag="0"/>
			<psa30 value="0.0412301746300406" flag="0"/>
		</comp>
	</station>
	<station code="GUMT" name="GUMT" netid="KO" source="Bogazici University Kandilli Observatory And Earthquake Research Institute (KOERI)" insttype="" lat="40.4665" lon="39.478">
		<comp name=".HNE" depth="0.0">
			<acc value="0.0036508534427832" flag="0"/>
			<vel value="0.0064693362714" flag="0"/>
			<psa03 value="0.00810797917110981" flag="0"/>
			<psa10 value="0.00781236424954556" flag="0"/>
			<psa30 value="0.00176852569781342" flag="0"/>
		</comp>
		<comp name=".HNN" depth="0.0">
			<acc value="0.0033832490082582" flag="0"/>
			<vel value="0.00563527137301" flag="0"/>
			<psa03 value="0.00707535868174539" flag="0"/>
			<psa10 value="0.00701615556713642" flag="0"/>
			<psa30 value="0.00283508822734856" flag="0"/>
		</comp>
		<comp name=".HNZ" depth="0.0">
			<acc value="0.004130573899488" flag="0"/>
			<vel value="0.00849354340769" flag="0"/>
			<psa03 value="0.00642791475011408" flag="0"/>
			<psa10 value="0.00911951006027036" flag="0"/>
			<psa30 value="0.00297761662748639" flag="0"/>
		</comp>
	</station>
	<station code="KHMN" name="KHMN" netid="KO" source="Bogazici University Kandilli Observatory And Earthquake Research Institute (KOERI)" insttype="" lat="37.3916" lon="37.1574">
		<comp name=".HNE" depth="0.0">
			<acc value="0.093482758571304" flag="0"/>
			<vel value="0.094303102266" flag="0"/>
			<psa03 value="0.235265231000395" flag="0"/>
			<psa10 value="0.0913744806110398" flag="0"/>
			<psa30 value="0.0210708658414334" flag="0"/>
		</comp>
		<comp name=".HNN" depth="0.0">
			<acc value="0.14009874610944" flag="0"/>
			<vel value="0.18223909927" flag="0"/>
			<psa03 value="0.296420698916531" flag="0"/>
			<psa10 value="0.123464973948401" flag="0"/>
			<psa30 value="0.0428289305397815" flag="0"/>
		</comp>
		<comp name=".HNZ" depth="0.0">
			<acc value="0.0718875737751" flag="0"/>
			<vel value="0.0814096980273" flag="0"/>
			<psa03 value="0.128914467034243" flag="0"/>
			<psa10 value="0.0765182464583644" flag="0"/>
			<psa30 value="0.0360956211577568" flag="0"/>
		</comp>
	</station>
	<station code="KOZK" name="KOZK" netid="KO" source="Bogazici University Kandilli Observatory And Earthquake Research Institute (KOERI)" insttype="" lat="39.2101" lon="34.868">
		<comp name=".HNE" depth="0.0">
			<acc value="0.022311291946272" flag="0"/>
			<vel value="0.0465277600972" flag="0"/>
			<psa03 value="0.0280000033003155" flag="0"/>
			<psa10 value="0.0764402637924621" flag="0"/>
			<psa30 value="0.0137541394775634" flag="0"/>
		</comp>
		<comp name=".HNN" depth="0.0">
			<acc value="0.024870554618904" flag="0"/>
			<vel value="0.0514481266618" flag="0"/>
			<psa03 value="0.0270601676033053" flag="0"/>
			<psa10 value="0.0882030830212062" flag="0"/>
			<psa30 value="0.0126623971549805" flag="0"/>
		</comp>
		<comp name=".HNZ" depth="0.0">
			<acc value="0.0092699829876774" flag="0"/>
			<vel value="0.0175671808767" flag="0"/>
			<psa03 value="0.0181698612162106" flag="0"/>
			<psa10 value="0.0285330770513239" flag="0"/>
			<psa30 value="0.00498407683729873" flag="0"/>
		</comp>
	</station>
	<station code="KRTS" name="KRTS" netid="KO" source="Bogazici University Kandilli Observatory And Earthquake Research Institute (KOERI)" insttype="" lat="36.573" lon="35.375">
		<comp name=".HNE" depth="0.0">
			<acc value="0.009158732552985" flag="0"/>
			<vel value="0.0118624928354" flag="0"/>
			<psa03 value="0.0168304951460197" flag="0"/>
			<psa10 value="0.0283056826125604" flag="0"/>
			<psa30 value="0.00653487707022135" flag="0"/>
		</comp>
		<comp name=".HNN" depth="0.0">
			<acc value="0.0104086940961" flag="0"/>
			<vel value="0.0230562919755" flag="0"/>
			<psa03 value="0.0209853042359268" flag="0"/>
			<psa10 value="0.0378270008531555" flag="0"/>
			<psa30 value="0.00607531787665494" flag="0"/>
		</comp>
		<comp name=".HNZ" depth="0.0">
			<acc value="0.0101603895682068" flag="0"/>
			<vel value="0.014917645976" flag="0"/>
			<psa03 value="0.0188653473929107" flag="0"/>
			<psa10 value="0.0154969022187078" flag="0"/>
			<psa30 value="0.00675728597038133" flag="0"/>
		</comp>
	</station>
	<station code="KYHL" name="KYHL" netid="KO" source="Bogazici University Kandilli Observatory And Earthquake Research Institute (KOERI)" insttype="" lat="40.3244" lon="37.8955">
		<comp name=".HNE" depth="0.0">
			<acc value="0.019753304814546" flag="0"/>
			<vel value="0.0200784896445" flag="0"/>
			<psa03 value="0.0376087387902247" flag="0"/>
			<psa10 value="0.0363167420559255" flag="0"/>
			<psa30 value="0.00517281809045831" flag="0"/>
		</comp>
		<comp name=".HNN" depth="0.0">
			<acc value="0.022533252372084" flag="0"/>
			<vel value="0.0230149985426" flag="0"/>
			<psa03 value="0.0369478799073903" flag="0"/>
			<psa10 value="0.0315747366713619" flag="0"/>
			<psa30 value="0.00307180745050225" flag="0"/>
		</comp>
		<comp name=".HNZ" depth="0.0">
			<acc value="0.00937791530424" flag="0"/>
			<vel value="0.011042957035" flag="0"/>
			<psa03 value="0.0262459808549019" flag="0"/>
			<psa10 value="0.0203798344390272" flag="0"/>
			<psa30 value="0.00293292741704542" flag="0"/>
		</comp>
	</station>
	<station code="RFHY" name="RFHY" netid="KO" source="Bogazici University Kandilli Observatory And Earthquake Research Institute (KOERI)" insttype="" lat="39.927" lon="38.833">
		<comp name=".HNE" depth="0.0">
			<acc value="0.0020523986870508" flag="0"/>
			<vel value="0.00404349116861" flag="0"/>
			<psa03 value="0.00347848629202086" flag="0"/>
			<psa10 value="0.00346017843858981" flag="0"/>
			<psa30 value="0.00246956776341149" flag="0"/>
		</comp>
		<comp name=".HNN" depth="0.0">
			<acc value="0.036521646414102" flag="0"/>
			<vel value="0.0568807227831" flag="0"/>
			<psa03 value="0.0681755162934253" flag="0"/>
			<psa10 value="0.128595628829227" flag="0"/>
			<psa30 value="0.0136225849294012" flag="0"/>
		</comp>
		<comp name=".HNZ" depth="0.0">
			<acc value="0.01912681462029" flag="0"/>
			<vel value="0.0303266228851" flag="0"/>
			<psa03 value="0.0375643478286753" flag="0"/>
			<psa10 value="0.0463635113551069" flag="0"/>
			<psa30 value="0.0143645065780838" flag="0"/>
		</comp>
	</station>
	<station code="TUNC" name="TUNC" netid="KO" source="Bogazici University Kandilli Observatory And Earthquake Research Institute (KOERI)" insttype="" lat="39.6942" lon="37.5388">
		<comp name=".HNE" depth="0.0">
			<acc value="0.067128296869488" flag="0"/>
			<vel value="0.0984295575379" flag="0"/>
			<psa03 value="0.159836650893876" flag="0"/>
			<psa10 value="0.132236760036362" flag="0"/>
			<psa30 value="0.0110447466602432" flag="0"/>
		</comp>
		<comp name=".HNN" depth="0.0">
			<acc value="0.04635048722127" flag="0"/>
			<vel value="0.0510866030515" flag="0"/>
			<psa03 value="0.121828237189385" flag="0"/>
			<psa10 value="0.0671026027179949" flag="0"/>
			<psa30 value="0.00830736282200074" flag="0"/>
		</comp>
		<comp name=".HNZ" depth="0.0">
			<acc value="0.037133413245978" flag="0"/>
			<vel value="0.0337141937336" flag="0"/>
			<psa03 value="0.0783202612496534" flag="0"/>
			<psa10 value="0.0759017281171762" flag="0"/>
			<psa30 value="0.00733704771005095" flag="0"/>
		</comp>
	</station>
</stationlist>
