<?xml version="1.0" encoding="UTF-8" standalone="yes"?>
<!DOCTYPE earthquake SYSTEM "stationlist.dtd">
<stationlist created="" xmlns="ch.ethz.sed.shakemap.usgs.xml">
  <station code="ARPRA" name="ARPRA" netid="KO" insttype="CMG-5T" lat="39.0929" lon="38.3356">
    <comp name="--.HNE">
      <acc value="0.2896810935" flag="0"/>
      <vel value="0.1459597959" flag="0"/>
      <psa03 value="0.6216566151" flag="0"/>
      <psa10 value="0.2205264789" flag="0"/>
      <psa30 value="0.0200937595" flag="0"/>
    </comp>
    <comp name="--.HNN">
      <acc value="0.2247006801" flag="0"/>
      <vel value="0.1224612587" flag="0"/>
      <psa03 value="0.6142263152" flag="0"/>
      <psa10 value="0.1662363230" flag="0"/>
      <psa30 value="0.0104679323" flag="0"/>
    </comp>
    <comp name="--.HNZ">
      <acc value="0.1304666319" flag="0"/>
      <vel value="0.0837184991" flag="0"/>
      <psa03 value="0.2749356552" flag="0"/>
      <psa10 value="0.0979241353" flag="0"/>
      <psa30 value="0.0098879585" flag="0"/>
    </comp>
  </station>
  <station code="DARE" name="DARE" netid="KO" insttype="CMG-3ESP" lat="38.5712" lon="37.4832">
    <comp name="--.HHN">
      <acc value="0.0758420273" flag="0"/>
      <vel value="0.0649441153" flag="0"/>
      <psa03 value="0.2282158729" flag="0"/>
      <psa10 value="0.0772061126" flag="0"/>
      <psa30 value="0.0080206314" flag="0"/>
    </comp>
    <comp name="--.HHZ">
      <acc value="0.0647360309" flag="0"/>
      <vel value="0.0591656113" flag="0"/>
      <psa03 value="0.2275505897" flag="0"/>
      <psa10 value="0.0637863406" flag="0"/>
      <psa30 value="0.0084551586" flag="0"/>
    </comp>
    <comp name="--.HHE">
      <acc value="0.0838295890" flag="0"/>
      <vel value="0.0498442098" flag="0"/>
      <psa03 value="0.2506329414" flag="0"/>
      <psa10 value="0.0732598001" flag="0"/>
      <psa30 value="0.0081960219" flag="0"/>
    </comp>
  </station>
  <station code="DYBB" name="DYBB" netid="KO" insttype="CMG-3T" lat="37.9532" lon="40.1393">
    <comp name="--.HHZ">
      <acc value="0.0326161794" flag="0"/>
      <vel value="0.0305238452" flag="0"/>
      <psa03 value="0.0719308297" flag="0"/>
      <psa10 value="0.0301285241" flag="0"/>
      <psa30 value="0.0173682865" flag="0"/>
    </comp>
    <comp name="--.HHE">
      <acc value="0.0249250096" flag="0"/>
      <vel value="0.0110935204" flag="0"/>
      <psa03 value="0.0467926640" flag="0"/>
      <psa10 value="0.0102653445" flag="0"/>
      <psa30 value="0.0025876811" flag="0"/>
    </comp>
    <comp name="--.HHN">
      <acc value="0.0332426269" flag="0"/>
      <vel value="0.0438939719" flag="0"/>
      <psa03 value="0.0857511937" flag="0"/>
      <psa10 value="0.0394191007" flag="0"/>
      <psa30 value="0.0173078842" flag="0"/>
    </comp>
  </station>
  <station code="GAZ" name="GAZ" netid="KO" insttype="CMG-3T" lat="37.1721" lon="37.2096">
    <comp name="--.HHE">
      <acc value="0.1099019980" flag="0"/>
      <vel value="0.1413843807" flag="0"/>
      <psa03 value="0.2053468660" flag="0"/>
      <psa10 value="0.2353482493" flag="0"/>
      <psa30 value="0.0195064443" flag="0"/>
    </comp>
    <comp name="--.HHZ">
      <acc value="0.0485104003" flag="0"/>
      <vel value="0.0723094968" flag="0"/>
      <psa03 value="0.1336473538" flag="0"/>
      <psa10 value="0.0538222571" flag="0"/>
      <psa30 value="0.0263077885" flag="0"/>
    </comp>
  </station>
  <station code="KMRS" name="KMRS" netid="KO" insttype="CMG-3T" lat="37.5087" lon="36.9">
    <comp name="--.HHE">
      <acc value="0.1022756138" flag="0"/>
      <vel value="0.1217688533" flag="0"/>
      <psa03 value="0.1732746978" flag="0"/>
      <psa10 value="0.1178495863" flag="0"/>
      <psa30 value="0.0193652437" flag="0"/>
    </comp>
    <comp name="--.HHN">
      <acc value="0.1330139773" flag="0"/>
      <vel value="0.1767362550" flag="0"/>
      <psa03 value="0.2970058008" flag="0"/>
      <psa10 value="0.2453048749" flag="0"/>
      <psa30 value="0.0215215713" flag="0"/>
    </comp>
    <comp name="--.HHZ">
      <acc value="0.0567204526" flag="0"/>
      <vel value="0.0762799454" flag="0"/>
      <psa03 value="0.1699222982" flag="0"/>
      <psa10 value="0.1303296011" flag="0"/>
      <psa30 value="0.0187519250" flag="0"/>
    </comp>
  </station>
  <station code="SINE" name="SINE" netid="KO" insttype="CMG-6T" lat="39.1636" lon="39.3871">
    <comp name="--.HHZ">
      <acc value="0.0180394507" flag="0"/>
      <vel value="0.0137213317" flag="0"/>
      <psa03 value="0.0539871890" flag="0"/>
      <psa10 value="0.0170189403" flag="0"/>
      <psa30 value="0.0009943943" flag="0"/>
    </comp>
    <comp name="--.HHE">
      <acc value="0.0261002856" flag="0"/>
      <vel value="0.0201152347" flag="0"/>
      <psa03 value="0.0780147047" flag="0"/>
      <psa10 value="0.0212363952" flag="0"/>
      <psa30 value="0.0015253488" flag="0"/>
    </comp>
    <comp name="--.HHN">
      <acc value="0.0238254536" flag="0"/>
      <vel value="0.0156591854" flag="0"/>
      <psa03 value="0.0728857300" flag="0"/>
      <psa10 value="0.0180053837" flag="0"/>
      <psa30 value="0.0009363751" flag="0"/>
    </comp>
  </station>
  <station code="URFA" name="URFA" netid="KO" insttype="CMG-3ESP" lat="37.4409" lon="38.8213">
    <comp name="--.HHZ">
      <acc value="0.1091010736" flag="0"/>
      <vel value="0.0474287068" flag="0"/>
      <psa03 value="0.2883799190" flag="0"/>
      <psa10 value="0.0733670806" flag="0"/>
      <psa30 value="0.0178881033" flag="0"/>
    </comp>
    <comp name="--.HHN">
      <acc value="0.3185886101" flag="0"/>
      <vel value="0.1512701605" flag="0"/>
      <psa03 value="0.5291501821" flag="0"/>
      <psa10 value="0.0911385352" flag="0"/>
      <psa30 value="0.0241896454" flag="0"/>
    </comp>
    <comp name="--.HHE">
      <acc value="0.1930814855" flag="0"/>
      <vel value="0.1134246490" flag="0"/>
      <psa03 value="0.3686123151" flag="0"/>
      <psa10 value="0.1143287346" flag="0"/>
      <psa30 value="0.0223308441" flag="0"/>
    </comp>
  </station>
</stationlist>
