<stationlist created="1778637329">
	<station code="ARPRA" name="ARPRA" netid="KO" source="Bogazici University Kandilli Observatory And Earthquake Research Institute (KOERI)" insttype="" lat="39.0929" lon="38.3356">
		<comp name="--.HNE" depth="0.0">
			<acc value="0.29076956348583" flag="0"/>
			<vel value="0.147395282757495" flag="0"/>
			<psa03 value="0.626432289733716" flag="0"/>
			<psa10 value="0.220544204971007" flag="0"/>
			<psa30 value="0.0203619522127367" flag="0"/>
		</comp>
		<comp name="--.HNN" depth="0.0">
			<acc value="0.22381358169187" flag="0"/>
			<vel value="0.124134551903276" flag="0"/>
			<psa03 value="0.615079954363122" flag="0"/>
			<psa10 value="0.166502179952468" flag="0"/>
			<psa30 value="0.010514127342678" flag="0"/>
		</comp>
		<comp name="--.HNZ" depth="0.0">
			<acc value="0.131405444115871" flag="0"/>
			<vel value="0.0828849912541353" flag="0"/>
			<psa03 value="0.276092727288079" flag="0"/>
			<psa10 value="0.0982803530912387" flag="0"/>
			<psa30 value="0.00994039516907971" flag="0"/>
		</comp>
	</station>
	<station code="CMRD" name="CMRD" netid="KO" source="Bogazici University Kandilli Observatory And Earthquake Research Institute (KOERI)" insttype="" lat="37.6623" lon="34.9902">
		<comp name="--.HNE" depth="0.0">
			<acc value="0.00805614907309484" flag="0"/>
			<vel value="0.0148591362675048" flag="0"/>
			<psa03 value="0.0127174896066805" flag="0"/>
			<psa10 value="0.0293182515652943" flag="0"/>
			<psa30 value="0.00311384898554731" flag="0"/>
		</comp>
		<comp name="--.HNN" depth="0.0">
			<acc value="0.00890712592959267" flag="0"/>
			<vel value="0.0194197423738749" flag="0"/>
			<psa03 value="0.0132009591341651" flag="0"/>
			<psa10 value="0.0296808762123629" flag="0"/>
			<psa30 value="0.00413128284387784" flag="0"/>
		</comp>
		<comp name="--.HNZ" depth="0.0">
			<acc value="0.00747334214371509" flag="0"/>
			<vel value="0.0142860059388451" flag="0"/>
			<psa03 value="0.00989915121291403" flag="0"/>
			<psa10 value="0.0222638617465905" flag="0"/>
			<psa30 value="0.00483659290055144" flag="0"/>
		</comp>
	</station>
	<station code="ERBG" name="ERBG" netid="KO" source="Bogazici University Kandilli Observatory And Earthquake Research Institute (KOERI)" insttype="" lat="40.712" lon="36.6768">
		<comp name="--.HNE" depth="0.0">
			<acc value="164.107844088901" flag="0"/>
			<vel value="89.3348663800069" flag="0"/>
			<psa03 value="179.524532619238" flag="0"/>
			<psa10 value="102.675322696299" flag="0"/>
			<psa30 value="35.5163350762441" flag="0"/>
		</comp>
		<comp name="--.HNN" depth="0.0">
			<acc value="15.0188874352813" flag="0"/>
			<vel value="2.44041647228075" flag="0"/>
			<psa03 value="0.379838537438889" flag="0"/>
			<psa10 value="0.134017903028393" flag="0"/>
			<psa30 value="0.041570043811382" flag="0"/>
		</comp>
		<comp name="--.HNZ" depth="0.0">
			<acc value="23.0746233193328" flag="0"/>
			<vel value="3.81882338853949" flag="0"/>
			<psa03 value="0.37768247794412" flag="0"/>
			<psa10 value="0.131907548227655" flag="0"/>
			<psa30 value="0.0412301746300406" flag="0"/>
		</comp>
	</station>
	<station code="GUMT" name="GUMT" netid="KO" source="Bogazici University Kandilli Observatory And Earthquake Research Institute (KOERI)" insttype="" lat="40.4665" lon="39.478">
		<comp name="--.HNE" depth="0.0">
			<acc value="0.00367678929313301" flag="0"/>
			<vel value="0.00622139809019309" flag="0"/>
			<psa03 value="0.00810797917110981" flag="0"/>
			<psa10 value="0.00781236424954556" flag="0"/>
			<psa30 value="0.00176852569781342" flag="0"/>
		</comp>
		<comp name="--.HNN" depth="0.0">
			<acc value="0.00332615818677048" flag="0"/>
			<vel value="0.00566717554553522" flag="0"/>
			<psa03 value="0.00707535868174539" flag="0"/>
			<psa10 value="0.00701615556713642" flag="0"/>
			<psa30 value="0.00283508822734856" flag="0"/>
		</comp>
		<comp name="--.HNZ" depth="0.0">
			<acc value="0.00406591950112941" flag="0"/>
			<vel value="0.00766371358755951" flag="0"/>
			<psa03 value="0.00642791475011408" flag="0"/>
			<psa10 value="0.00911951006027036" flag="0"/>
			<psa30 value="0.00297761662748639" flag="0"/>
		</comp>
	</station>
	<station code="KHMN" name="KHMN" netid="KO" source="Bogazici University Kandilli Observatory And Earthquake Research Institute (KOERI)" insttype="" lat="37.3916" lon="37.1574">
		<comp name="--.HNE" depth="0.0">
			<acc value="0.0939055666434372" flag="0"/>
			<vel value="0.0943844743825945" flag="0"/>
			<psa03 value="0.235265231000395" flag="0"/>
			<psa10 value="0.0913744806110398" flag="0"/>
			<psa30 value="0.0210708658414334" flag="0"/>
		</comp>
		<comp name="--.HNN" depth="0.0">
			<acc value="0.140586903931709" flag="0"/>
			<vel value="0.182269955276178" flag="0"/>
			<psa03 value="0.296420698916531" flag="0"/>
			<psa10 value="0.123464973948401" flag="0"/>
			<psa30 value="0.0428289305397815" flag="0"/>
		</comp>
		<comp name="--.HNZ" depth="0.0">
			<acc value="0.0721619992065889" flag="0"/>
			<vel value="0.0814362354588808" flag="0"/>
			<psa03 value="0.128914467034243" flag="0"/>
			<psa10 value="0.0765182464583644" flag="0"/>
			<psa30 value="0.0360956211577568" flag="0"/>
		</comp>
	</station>
	<station code="KOZK" name="KOZK" netid="KO" source="Bogazici University Kandilli Observatory And Earthquake Research Institute (KOERI)" insttype="" lat="39.2101" lon="34.868">
		<comp name="--.HNE" depth="0.0">
			<acc value="0.0223257586929852" flag="0"/>
			<vel value="0.0465327934523364" flag="0"/>
			<psa03 value="0.0280000033003155" flag="0"/>
			<psa10 value="0.0764402637924621" flag="0"/>
			<psa30 value="0.0137541394775634" flag="0"/>
		</comp>
		<comp name="--.HNN" depth="0.0">
			<acc value="0.0248738633160957" flag="0"/>
			<vel value="0.051459096217978" flag="0"/>
			<psa03 value="0.0270601676033053" flag="0"/>
			<psa10 value="0.0882030830212062" flag="0"/>
			<psa30 value="0.0126623971549805" flag="0"/>
		</comp>
		<comp name="--.HNZ" depth="0.0">
			<acc value="0.00929540856342037" flag="0"/>
			<vel value="0.0175716470813715" flag="0"/>
			<psa03 value="0.0181698612162106" flag="0"/>
			<psa10 value="0.0285330770513239" flag="0"/>
			<psa30 value="0.00498407683729873" flag="0"/>
		</comp>
	</station>
	<station code="KRTS" name="KRTS" netid="KO" source="Bogazici University Kandilli Observatory And Earthquake Research Institute (KOERI)" insttype="" lat="36.573" lon="35.375">
		<comp name="--.HNE" depth="0.0">
			<acc value="0.00916888929558497" flag="0"/>
			<vel value="0.0118641163818867" flag="0"/>
			<psa03 value="0.0168304951460197" flag="0"/>
			<psa10 value="0.0283056826125604" flag="0"/>
			<psa30 value="0.00653487707022135" flag="0"/>
		</comp>
		<comp name="--.HNN" depth="0.0">
			<acc value="0.0104452630986088" flag="0"/>
			<vel value="0.02306627886725" flag="0"/>
			<psa03 value="0.0209853042359268" flag="0"/>
			<psa10 value="0.0378270008531555" flag="0"/>
			<psa30 value="0.00607531787665494" flag="0"/>
		</comp>
		<comp name="--.HNZ" depth="0.0">
			<acc value="0.0102573746409545" flag="0"/>
			<vel value="0.0149259854824207" flag="0"/>
			<psa03 value="0.0188653473929107" flag="0"/>
			<psa10 value="0.0154969022187078" flag="0"/>
			<psa30 value="0.00675728597038133" flag="0"/>
		</comp>
	</station>
	<station code="KYHL" name="KYHL" netid="KO" source="Bogazici University Kandilli Observatory And Earthquake Research Institute (KOERI)" insttype="" lat="40.3244" lon="37.8955">
		<comp name="--.HNE" depth="0.0">
			<acc value="0.0196694781106188" flag="0"/>
			<vel value="0.0198643871038744" flag="0"/>
			<psa03 value="0.0376087387902247" flag="0"/>
			<psa10 value="0.0363167420559255" flag="0"/>
			<psa30 value="0.00517281809045831" flag="0"/>
		</comp>
		<comp name="--.HNN" depth="0.0">
			<acc value="0.0225883164500779" flag="0"/>
			<vel value="0.0226535749343696" flag="0"/>
			<psa03 value="0.0369478799073903" flag="0"/>
			<psa10 value="0.0315747366713619" flag="0"/>
			<psa30 value="0.00307180745050225" flag="0"/>
		</comp>
		<comp name="--.HNZ" depth="0.0">
			<acc value="0.00937444678723592" flag="0"/>
			<vel value="0.0110738731357475" flag="0"/>
			<psa03 value="0.0262459808549019" flag="0"/>
			<psa10 value="0.0203798344390272" flag="0"/>
			<psa30 value="0.00293292741704542" flag="0"/>
		</comp>
	</station>
	<station code="RFHY" name="RFHY" netid="KO" source="Bogazici University Kandilli Observatory And Earthquake Research Institute (KOERI)" insttype="" lat="39.927" lon="38.833">
		<comp name="--.HNE" depth="0.0">
			<acc value="0.00207139766176163" flag="0"/>
			<vel value="0.00404525444977806" flag="0"/>
			<psa03 value="0.00347848629202086" flag="0"/>
			<psa10 value="0.00346017843858981" flag="0"/>
			<psa30 value="0.00246956776341149" flag="0"/>
		</comp>
		<comp name="--.HNN" depth="0.0">
			<acc value="0.036524326962219" flag="0"/>
			<vel value="0.0569037898532123" flag="0"/>
			<psa03 value="0.0681755162934253" flag="0"/>
			<psa10 value="0.128595628829227" flag="0"/>
			<psa30 value="0.0136225849294012" flag="0"/>
		</comp>
		<comp name="--.HNZ" depth="0.0">
			<acc value="0.0191426861919818" flag="0"/>
			<vel value="0.0303434290798547" flag="0"/>
			<psa03 value="0.0375643478286753" flag="0"/>
			<psa10 value="0.0463635113551069" flag="0"/>
			<psa30 value="0.0143645065780838" flag="0"/>
		</comp>
	</station>
	<station code="TUNC" name="TUNC" netid="KO" source="Bogazici University Kandilli Observatory And Earthquake Research Institute (KOERI)" insttype="" lat="39.6942" lon="37.5388">
		<comp name="--.HNE" depth="0.0">
			<acc value="0.0671265927817596" flag="0"/>
			<vel value="0.0992581810773246" flag="0"/>
			<psa03 value="0.159836650893876" flag="0"/>
			<psa10 value="0.132236760036362" flag="0"/>
			<psa30 value="0.0110447466602432" flag="0"/>
		</comp>
		<comp name="--.HNN" depth="0.0">
			<acc value="0.0464092475863931" flag="0"/>
			<vel value="0.0515202186572542" flag="0"/>
			<psa03 value="0.121828237189385" flag="0"/>
			<psa10 value="0.0671026027179949" flag="0"/>
			<psa30 value="0.00830736282200074" flag="0"/>
		</comp>
		<comp name="--.HNZ" depth="0.0">
			<acc value="0.0371697130367423" flag="0"/>
			<vel value="0.0339017503389345" flag="0"/>
			<psa03 value="0.0783202612496534" flag="0"/>
			<psa10 value="0.0759017281171762" flag="0"/>
			<psa30 value="0.00733704771005095" flag="0"/>
		</comp>
	</station>
</stationlist>
