<?xml version="1.0" encoding="UTF-8" standalone="yes"?>
<!DOCTYPE earthquake SYSTEM "stationlist.dtd">
<stationlist created="" xmlns="ch.ethz.sed.shakemap.usgs.xml">
  <station code="ARPRA" name="ARPRA" netid="KO" insttype="CMG-5T" lat="39.0929" lon="38.3356">
    <comp name="--.HNZ">
      <acc value="0.1304666328" flag="0"/>
      <vel value="0.0837185015" flag="0"/>
      <psa03 value="0.2749356552" flag="0"/>
      <psa10 value="0.0979241361" flag="0"/>
      <psa30 value="0.0098868883" flag="0"/>
    </comp>
    <comp name="--.HNE">
      <acc value="0.2896810943" flag="0"/>
      <vel value="0.1459598015" flag="0"/>
      <psa03 value="0.6216566151" flag="0"/>
      <psa10 value="0.2205264788" flag="0"/>
      <psa30 value="0.0200972446" flag="0"/>
    </comp>
    <comp name="--.HNN">
      <acc value="0.2247006810" flag="0"/>
      <vel value="0.1224612512" flag="0"/>
      <psa03 value="0.6142263152" flag="0"/>
      <psa10 value="0.1662363242" flag="0"/>
      <psa30 value="0.0104648893" flag="0"/>
    </comp>
  </station>
  <station code="DARE" name="DARE" netid="KO" insttype="CMG-3ESP" lat="38.5712" lon="37.4832">
    <comp name="--.HHE">
      <acc value="0.0838295890" flag="0"/>
      <vel value="0.0498441970" flag="0"/>
      <psa03 value="0.2506329414" flag="0"/>
      <psa10 value="0.0732598001" flag="0"/>
      <psa30 value="0.0081959960" flag="0"/>
    </comp>
    <comp name="--.HHZ">
      <acc value="0.0647360308" flag="0"/>
      <vel value="0.0591656178" flag="0"/>
      <psa03 value="0.2275505897" flag="0"/>
      <psa10 value="0.0637863406" flag="0"/>
      <psa30 value="0.0084551444" flag="0"/>
    </comp>
    <comp name="--.HHN">
      <acc value="0.0758420273" flag="0"/>
      <vel value="0.0649441159" flag="0"/>
      <psa03 value="0.2282158729" flag="0"/>
      <psa10 value="0.0772061126" flag="0"/>
      <psa30 value="0.0080205879" flag="0"/>
    </comp>
  </station>
  <station code="DYBB" name="DYBB" netid="KO" insttype="CMG-3T" lat="37.9532" lon="40.1393">
    <comp name="--.HHZ">
      <acc value="0.0326161794" flag="0"/>
      <vel value="0.0305238478" flag="0"/>
      <psa03 value="0.0719308297" flag="0"/>
      <psa10 value="0.0301285241" flag="0"/>
      <psa30 value="0.0173682893" flag="0"/>
    </comp>
    <comp name="--.HHE">
      <acc value="0.0249250098" flag="0"/>
      <vel value="0.0110935203" flag="0"/>
      <psa03 value="0.0467926640" flag="0"/>
      <psa10 value="0.0102653445" flag="0"/>
      <psa30 value="0.0025877131" flag="0"/>
    </comp>
    <comp name="--.HHN">
      <acc value="0.0332426268" flag="0"/>
      <vel value="0.0438939701" flag="0"/>
      <psa03 value="0.0857511937" flag="0"/>
      <psa10 value="0.0394191007" flag="0"/>
      <psa30 value="0.0173078838" flag="0"/>
    </comp>
  </station>
  <station code="GAZ" name="GAZ" netid="KO" insttype="CMG-3T" lat="37.1721" lon="37.2096">
    <comp name="--.HHE">
      <acc value="0.1099019978" flag="0"/>
      <vel value="0.1413843836" flag="0"/>
      <psa03 value="0.2053468660" flag="0"/>
      <psa10 value="0.2353482493" flag="0"/>
      <psa30 value="0.0195064439" flag="0"/>
    </comp>
    <comp name="--.HHZ">
      <acc value="0.0485104003" flag="0"/>
      <vel value="0.0723094954" flag="0"/>
      <psa03 value="0.1336473538" flag="0"/>
      <psa10 value="0.0538222571" flag="0"/>
      <psa30 value="0.0263077931" flag="0"/>
    </comp>
  </station>
  <station code="KMRS" name="KMRS" netid="KO" insttype="CMG-3T" lat="37.5087" lon="36.9">
    <comp name="--.HHN">
      <acc value="0.1330139774" flag="0"/>
      <vel value="0.1767362544" flag="0"/>
      <psa03 value="0.2970058008" flag="0"/>
      <psa10 value="0.2453048749" flag="0"/>
      <psa30 value="0.0215215779" flag="0"/>
    </comp>
    <comp name="--.HHE">
      <acc value="0.1022756138" flag="0"/>
      <vel value="0.1217688549" flag="0"/>
      <psa03 value="0.1732746978" flag="0"/>
      <psa10 value="0.1178495863" flag="0"/>
      <psa30 value="0.0193652434" flag="0"/>
    </comp>
    <comp name="--.HHZ">
      <acc value="0.0567204527" flag="0"/>
      <vel value="0.0762799434" flag="0"/>
      <psa03 value="0.1699222982" flag="0"/>
      <psa10 value="0.1303296011" flag="0"/>
      <psa30 value="0.0187519152" flag="0"/>
    </comp>
  </station>
  <station code="SINE" name="SINE" netid="KO" insttype="CMG-6T" lat="39.1636" lon="39.3871">
    <comp name="--.HHZ">
      <acc value="0.0180394507" flag="0"/>
      <vel value="0.0137213302" flag="0"/>
      <psa03 value="0.0539871890" flag="0"/>
      <psa10 value="0.0170189403" flag="0"/>
      <psa30 value="0.0009943937" flag="0"/>
    </comp>
    <comp name="--.HHE">
      <acc value="0.0261002854" flag="0"/>
      <vel value="0.0201152338" flag="0"/>
      <psa03 value="0.0780147047" flag="0"/>
      <psa10 value="0.0212363952" flag="0"/>
      <psa30 value="0.0015253481" flag="0"/>
    </comp>
    <comp name="--.HHN">
      <acc value="0.0238254540" flag="0"/>
      <vel value="0.0156591843" flag="0"/>
      <psa03 value="0.0728857300" flag="0"/>
      <psa10 value="0.0180053837" flag="0"/>
      <psa30 value="0.0009363753" flag="0"/>
    </comp>
  </station>
  <station code="URFA" name="URFA" netid="KO" insttype="CMG-3ESP" lat="37.4409" lon="38.8213">
    <comp name="--.HHZ">
      <acc value="0.1091010736" flag="0"/>
      <vel value="0.0474287115" flag="0"/>
      <psa03 value="0.2883799190" flag="0"/>
      <psa10 value="0.0733670806" flag="0"/>
      <psa30 value="0.0178881034" flag="0"/>
    </comp>
    <comp name="--.HHN">
      <acc value="0.3185886101" flag="0"/>
      <vel value="0.1512701581" flag="0"/>
      <psa03 value="0.5291501821" flag="0"/>
      <psa10 value="0.0911385352" flag="0"/>
      <psa30 value="0.0241896452" flag="0"/>
    </comp>
    <comp name="--.HHE">
      <acc value="0.1930814855" flag="0"/>
      <vel value="0.1134246515" flag="0"/>
      <psa03 value="0.3686123151" flag="0"/>
      <psa10 value="0.1143287346" flag="0"/>
      <psa30 value="0.0223308441" flag="0"/>
    </comp>
  </station>
</stationlist>
