<stationlist created="1778136730">
	<station code="MESG" name="MESG" netid="IV" source="Italian National Seismic Network (INSN)" insttype="" lat="40.589408" lon="17.850423">
		<comp name="--.HNE" depth="0.0">
			<acc value="0.0103459734906741" flag="0"/>
			<vel value="0.00414124349557984" flag="0"/>
			<psa03 value="0.0237718742491853" flag="0"/>
			<psa10 value="0.00303790116791693" flag="0"/>
			<psa30 value="0.000328061159525143" flag="0"/>
		</comp>
		<comp name="--.HNN" depth="0.0">
			<acc value="0.0124824339023155" flag="0"/>
			<vel value="0.00354418223952488" flag="0"/>
			<psa03 value="0.0259038436066785" flag="0"/>
			<psa10 value="0.00395077890721163" flag="0"/>
			<psa30 value="0.000494816424994703" flag="0"/>
		</comp>
		<comp name="--.HNZ" depth="0.0">
			<acc value="0.00517278754346367" flag="0"/>
			<vel value="0.00284472671512329" flag="0"/>
			<psa03 value="0.0118842703475095" flag="0"/>
			<psa10 value="0.00192482040053164" flag="0"/>
			<psa30 value="0.000453709899805173" flag="0"/>
		</comp>
	</station>
</stationlist>
