<?xml version="1.0" encoding="UTF-8" standalone="yes"?>
<!DOCTYPE earthquake SYSTEM "stationlist.dtd">
<stationlist created="" xmlns="ch.ethz.sed.shakemap.usgs.xml">
  <station code="BCI" name="BCI" netid="AC" insttype="" lat="42.3666" lon="20.0675">
    <comp name="--.HHE">
      <acc value="0.0607839812" flag="0"/>
      <vel value="0.0253572778" flag="0"/>
      <psa03 value="0.1734503448" flag="0"/>
      <psa10 value="0.0273379716" flag="0"/>
      <psa30 value="0.0014306785" flag="0"/>
    </comp>
    <comp name="--.HHZ">
      <acc value="0.0415918545" flag="0"/>
      <vel value="0.0155117700" flag="0"/>
      <psa03 value="0.1415040142" flag="0"/>
      <psa10 value="0.0175073879" flag="0"/>
      <psa30 value="0.0009369535" flag="0"/>
    </comp>
    <comp name="--.HHN">
      <acc value="0.0164402072" flag="0"/>
      <vel value="0.0108662512" flag="0"/>
      <psa03 value="0.0429291161" flag="0"/>
      <psa10 value="0.0167587885" flag="0"/>
      <psa30 value="0.0009009793" flag="0"/>
    </comp>
  </station>
  <station code="PUK" name="PUK" netid="AC" insttype="" lat="42.0426" lon="19.8926">
    <comp name="--.HHE">
      <acc value="0.0175931062" flag="0"/>
      <vel value="0.0068743454" flag="0"/>
      <psa03 value="0.0407313177" flag="0"/>
      <psa10 value="0.0037603838" flag="0"/>
      <psa30 value="0.0004557399" flag="0"/>
    </comp>
    <comp name="--.HHN">
      <acc value="0.0195943471" flag="0"/>
      <vel value="0.0075881479" flag="0"/>
      <psa03 value="0.0306986640" flag="0"/>
      <psa10 value="0.0046340809" flag="0"/>
      <psa30 value="0.0005369462" flag="0"/>
    </comp>
    <comp name="--.HHZ">
      <acc value="0.0084665211" flag="0"/>
      <vel value="0.0035204705" flag="0"/>
      <psa03 value="0.0144937940" flag="0"/>
      <psa10 value="0.0016702468" flag="0"/>
      <psa30 value="0.0001224994" flag="0"/>
    </comp>
  </station>
  <station code="PDG" name="PDG" netid="MN" insttype="" lat="42.4297" lon="19.2608">
    <comp name="--.HHN">
      <acc value="0.0841044203" flag="0"/>
      <vel value="0.0198839857" flag="0"/>
      <psa03 value="0.1076479456" flag="0"/>
      <psa10 value="0.0172062260" flag="0"/>
      <psa30 value="0.0008022307" flag="0"/>
    </comp>
    <comp name="--.HHZ">
      <acc value="0.0522689866" flag="0"/>
      <vel value="0.0137522117" flag="0"/>
      <psa03 value="0.0668774606" flag="0"/>
      <psa10 value="0.0097843855" flag="0"/>
      <psa30 value="0.0010808903" flag="0"/>
    </comp>
    <comp name="--.HHE">
      <acc value="0.0659077579" flag="0"/>
      <vel value="0.0153679305" flag="0"/>
      <psa03 value="0.0647368713" flag="0"/>
      <psa10 value="0.0163416247" flag="0"/>
      <psa30 value="0.0010394936" flag="0"/>
    </comp>
  </station>
</stationlist>
