<stationlist created="1778069708">
	<station code="BLY" name="BLY" netid="MN" source="Mediterranean Very Broadband Seismographic Network (MedNet)" insttype="" lat="44.7488" lon="17.1839">
		<comp name="--.HNE" depth="1.0">
			<acc value="0.0040331603296483" flag="0"/>
			<vel value="0.00274051773168977" flag="0"/>
			<psa03 value="0.0101564809023477" flag="0"/>
			<psa10 value="0.00411538816474864" flag="0"/>
			<psa30 value="0.000336461393769404" flag="0"/>
		</comp>
		<comp name="--.HNN" depth="1.0">
			<acc value="0.00325259778006845" flag="0"/>
			<vel value="0.00201868302618252" flag="0"/>
			<psa03 value="0.00881421470379954" flag="0"/>
			<psa10 value="0.00453014842010001" flag="0"/>
			<psa30 value="0.000170020385149433" flag="0"/>
		</comp>
		<comp name="--.HNZ" depth="1.0">
			<acc value="0.00205480253787464" flag="0"/>
			<vel value="0.00129468060873693" flag="0"/>
			<psa03 value="0.00782988615819756" flag="0"/>
			<psa10 value="0.00103891403767627" flag="0"/>
			<psa30 value="0.000188812111929107" flag="0"/>
		</comp>
	</station>
</stationlist>
