<stationlist created="1684441851">
	<station code="MALA" name="MALA" netid="CL" source="Corinth Riff Laboratory (CRLNET)" insttype="" lat="38.39341" lon="21.87263">
		<comp name="00.ENE" depth="0.0">
			<acc value="0.0220016098919" flag="0"/>
			<vel value="0.0118786992987" flag="0"/>
			<psa03 value="0.0468760792684" flag="0"/>
			<psa10 value="0.0165955712502" flag="0"/>
			<psa30 value="0.00128977689972" flag="0"/>
		</comp>
		<comp name="00.ENN" depth="0.0">
			<acc value="0.022869805193" flag="0"/>
			<vel value="0.0102035067921" flag="0"/>
			<psa03 value="0.0411309252428" flag="0"/>
			<psa10 value="0.0120047280668" flag="0"/>
			<psa30 value="0.00145562819906" flag="0"/>
		</comp>
		<comp name="00.ENZ" depth="0.0">
			<acc value="0.00899010236932" flag="0"/>
			<vel value="0.00317958800484" flag="0"/>
			<psa03 value="0.0183054274885" flag="0"/>
			<psa10 value="0.00523238833881" flag="0"/>
			<psa30 value="0.00047637166145" flag="0"/>
		</comp>
	</station>
	<station code="ROD3" name="ROD3" netid="CL" source="Corinth Riff Laboratory (CRLNET)" insttype="" lat="38.30811" lon="21.89204">
		<comp name="00.HNE" depth="0.0">
			<acc value="0.0245992823484" flag="0"/>
			<vel value="0.0106195611438" flag="0"/>
			<psa03 value="0.0755696571604" flag="0"/>
			<psa10 value="0.0106390788493" flag="0"/>
			<psa30 value="0.000669872136157" flag="0"/>
		</comp>
		<comp name="00.HNN" depth="0.0">
			<acc value="0.0337943665943" flag="0"/>
			<vel value="0.0129739145197" flag="0"/>
			<psa03 value="0.10618522175" flag="0"/>
			<psa10 value="0.00965936769822" flag="0"/>
			<psa30 value="0.00053507966515" flag="0"/>
		</comp>
		<comp name="00.HNZ" depth="0.0">
			<acc value="0.0151530031048" flag="0"/>
			<vel value="0.00525106694971" flag="0"/>
			<psa03 value="0.0212335784954" flag="0"/>
			<psa10 value="0.00561751635162" flag="0"/>
			<psa30 value="0.000547494758423" flag="0"/>
		</comp>
	</station>
	<station code="KTHA" name="KTHA" netid="GE" source="GEOFON" insttype="" lat="36.2566" lon="23.0621">
		<comp name=".HNE" depth="0.0">
			<acc value="0.00441579688555" flag="0"/>
			<vel value="0.00368543067934" flag="0"/>
			<psa03 value="0.0144957662629" flag="0"/>
			<psa10 value="0.00444388922961" flag="0"/>
			<psa30 value="0.00072568750032" flag="0"/>
		</comp>
		<comp name=".HNN" depth="0.0">
			<acc value="0.00350355244651" flag="0"/>
			<vel value="0.00667109792286" flag="0"/>
			<psa03 value="0.00896291145725" flag="0"/>
			<psa10 value="0.00413368368002" flag="0"/>
			<psa30 value="0.00271429397532" flag="0"/>
		</comp>
		<comp name=".HNZ" depth="0.0">
			<acc value="0.0023833002115" flag="0"/>
			<vel value="0.00275855154816" flag="0"/>
			<psa03 value="0.00524894797747" flag="0"/>
			<psa10 value="0.00348011499366" flag="0"/>
			<psa30 value="0.00104364517804" flag="0"/>
		</comp>
	</station>
	<station code="DRES" name="DRES" netid="HA" source="Hellenic Seismological Network, University of Athens, Seismological Laboratory (HA)" insttype="" lat="38.319719" lon="21.853176">
		<comp name=".HNE" depth="0.0">
			<acc value="0.0120556622249" flag="0"/>
			<vel value="0.00688843854531" flag="0"/>
			<psa03 value="0.0531319103533" flag="0"/>
			<psa10 value="0.00500212355363" flag="0"/>
			<psa30 value="0.000792464215616" flag="0"/>
		</comp>
		<comp name=".HNN" depth="0.0">
			<acc value="0.0102350885924" flag="0"/>
			<vel value="0.00554571233956" flag="0"/>
			<psa03 value="0.0375278922887" flag="0"/>
			<psa10 value="0.00659624728152" flag="0"/>
			<psa30 value="0.000653908318216" flag="0"/>
		</comp>
		<comp name=".HNZ" depth="0.0">
			<acc value="0.0104700457919" flag="0"/>
			<vel value="0.0030598073464" flag="0"/>
			<psa03 value="0.0164848186008" flag="0"/>
			<psa10 value="0.00514622544341" flag="0"/>
			<psa30 value="0.000680517893469" flag="0"/>
		</comp>
	</station>
	<station code="KIAS" name="KIAS" netid="HA" source="Hellenic Seismological Network, University of Athens, Seismological Laboratory (HA)" insttype="" lat="37.9875" lon="22.7543">
		<comp name=".HNE" depth="0.0">
			<acc value="7.15533092384" flag="0"/>
			<vel value="2.39311419563" flag="0"/>
			<psa03 value="9.88033719051" flag="0"/>
			<psa10 value="0.80147417373" flag="0"/>
			<psa30 value="0.0980129328757" flag="0"/>
		</comp>
		<comp name=".HNN" depth="0.0">
			<acc value="6.5581379983" flag="0"/>
			<vel value="1.73389657575" flag="0"/>
			<psa03 value="5.65357918855" flag="0"/>
			<psa10 value="0.329181626667" flag="0"/>
			<psa30 value="0.0262845895584" flag="0"/>
		</comp>
		<comp name=".HNZ" depth="0.0">
			<acc value="3.1883171986" flag="0"/>
			<vel value="0.438380731649" flag="0"/>
			<psa03 value="1.86230386849" flag="0"/>
			<psa10 value="0.176126112491" flag="0"/>
			<psa30 value="0.0106980270251" flag="0"/>
		</comp>
	</station>
	<station code="LTRS" name="LTRS" netid="HA" source="Hellenic Seismological Network, University of Athens, Seismological Laboratory (HA)" insttype="" lat="37.97528" lon="22.9765">
		<comp name=".HNE" depth="0.0">
			<acc value="0.136774898059" flag="0"/>
			<vel value="0.0875772315956" flag="0"/>
			<psa03 value="0.364724952905" flag="0"/>
			<psa10 value="0.133337247938" flag="0"/>
			<psa30 value="0.00662952417344" flag="0"/>
		</comp>
		<comp name=".HNN" depth="0.0">
			<acc value="0.158446691127" flag="0"/>
			<vel value="0.12112412116" flag="0"/>
			<psa03 value="0.496184411448" flag="0"/>
			<psa10 value="0.160071538954" flag="0"/>
			<psa30 value="0.00698628197354" flag="0"/>
		</comp>
		<comp name=".HNZ" depth="0.0">
			<acc value="0.152376260816" flag="0"/>
			<vel value="0.0545488862322" flag="0"/>
			<psa03 value="0.347158455877" flag="0"/>
			<psa10 value="0.0722577992245" flag="0"/>
			<psa30 value="0.00386261879621" flag="0"/>
		</comp>
	</station>
	<station code="ARG2" name="ARG2" netid="HI" source="ITSAK Strong Motion Network" insttype="" lat="38.1783" lon="20.4878">
		<comp name=".HNE" depth="0.0">
			<acc value="0.00525582102609" flag="0"/>
			<vel value="0.00170790134641" flag="0"/>
			<psa03 value="0.00819422576996" flag="0"/>
			<psa10 value="0.00279734031007" flag="0"/>
			<psa30 value="0.000230407398776" flag="0"/>
		</comp>
		<comp name=".HNN" depth="0.0">
			<acc value="0.0061130047422" flag="0"/>
			<vel value="0.0030093703024" flag="0"/>
			<psa03 value="0.00859737031483" flag="0"/>
			<psa10 value="0.00227770471488" flag="0"/>
			<psa30 value="0.000272647280294" flag="0"/>
		</comp>
		<comp name=".HNZ" depth="0.0">
			<acc value="0.012357499361" flag="0"/>
			<vel value="0.00113140115169" flag="0"/>
			<psa03 value="0.00641980939545" flag="0"/>
			<psa10 value="0.00153954882349" flag="0"/>
			<psa30 value="0.000270033357134" flag="0"/>
		</comp>
	</station>
	<station code="ARS1" name="ARS1" netid="HI" source="ITSAK Strong Motion Network" insttype="" lat="37.6349" lon="22.7293">
		<comp name=".HNE" depth="0.0">
			<acc value="0.0658264929086" flag="0"/>
			<vel value="0.0334981598474" flag="0"/>
			<psa03 value="0.147182875143" flag="0"/>
			<psa10 value="0.0328984656119" flag="0"/>
			<psa30 value="0.00245873621254" flag="0"/>
		</comp>
		<comp name=".HNN" depth="0.0">
			<acc value="0.0916266315771" flag="0"/>
			<vel value="0.0429470053158" flag="0"/>
			<psa03 value="0.299124294683" flag="0"/>
			<psa10 value="0.0459895440816" flag="0"/>
			<psa30 value="0.00243988079679" flag="0"/>
		</comp>
		<comp name=".HNZ" depth="0.0">
			<acc value="0.0696920881143" flag="0"/>
			<vel value="0.0297593079097" flag="0"/>
			<psa03 value="0.132178714524" flag="0"/>
			<psa10 value="0.0148008298574" flag="0"/>
			<psa30 value="0.00152744649833" flag="0"/>
		</comp>
	</station>
	<station code="ART2" name="ART2" netid="HI" source="ITSAK Strong Motion Network" insttype="" lat="39.1474" lon="20.9937">
		<comp name=".HNE" depth="0.0">
			<acc value="0.00228570321217" flag="0"/>
			<vel value="0.000487881756852" flag="0"/>
			<psa03 value="0.00144691958179" flag="0"/>
			<psa10 value="0.000867222214842" flag="0"/>
			<psa30 value="0.000145209528273" flag="0"/>
		</comp>
		<comp name=".HNN" depth="0.0">
			<acc value="0.00198710421722" flag="0"/>
			<vel value="0.000624054064045" flag="0"/>
			<psa03 value="0.00104969413018" flag="0"/>
			<psa10 value="0.000850784758751" flag="0"/>
			<psa30 value="0.000148207682615" flag="0"/>
		</comp>
		<comp name=".HNZ" depth="0.0">
			<acc value="0.00201588301437" flag="0"/>
			<vel value="0.000471392404128" flag="0"/>
			<psa03 value="0.000987958757967" flag="0"/>
			<psa10 value="0.000783683848801" flag="0"/>
			<psa30 value="0.000165910587116" flag="0"/>
		</comp>
	</station>
	<station code="ATH5" name="ATH5" netid="HI" source="ITSAK Strong Motion Network" insttype="" lat="37.975421" lon="23.737098">
		<comp name=".HNE" depth="0.0">
			<acc value="0.0170253876505" flag="0"/>
			<vel value="0.00681485153168" flag="0"/>
			<psa03 value="0.0319197551521" flag="0"/>
			<psa10 value="0.00447927047968" flag="0"/>
			<psa30 value="0.000515058703446" flag="0"/>
		</comp>
		<comp name=".HNN" depth="0.0">
			<acc value="0.00960978759735" flag="0"/>
			<vel value="0.00603592516135" flag="0"/>
			<psa03 value="0.0270878439159" flag="0"/>
			<psa10 value="0.00738038391421" flag="0"/>
			<psa30 value="0.000542794082442" flag="0"/>
		</comp>
		<comp name=".HNZ" depth="0.0">
			<acc value="0.0104659847431" flag="0"/>
			<vel value="0.00327366610079" flag="0"/>
			<psa03 value="0.0106044264495" flag="0"/>
			<psa10 value="0.0031437076302" flag="0"/>
			<psa30 value="0.000349933936614" flag="0"/>
		</comp>
	</station>
	<station code="KLV1" name="KLV1" netid="HI" source="ITSAK Strong Motion Network" insttype="" lat="38.03256" lon="22.10797">
		<comp name=".HNE" depth="0.0">
			<acc value="0.0726271677714" flag="0"/>
			<vel value="0.0235350805311" flag="0"/>
			<psa03 value="0.154036912523" flag="0"/>
			<psa10 value="0.0127714204189" flag="0"/>
			<psa30 value="0.00094884046019" flag="0"/>
		</comp>
		<comp name=".HNN" depth="0.0">
			<acc value="0.0877008605568" flag="0"/>
			<vel value="0.0270578465469" flag="0"/>
			<psa03 value="0.165035599465" flag="0"/>
			<psa10 value="0.0124500597554" flag="0"/>
			<psa30 value="0.000651890372036" flag="0"/>
		</comp>
		<comp name=".HNZ" depth="0.0">
			<acc value="0.0566969262571" flag="0"/>
			<vel value="0.012984360057" flag="0"/>
			<psa03 value="0.0390169779125" flag="0"/>
			<psa10 value="0.0081258986134" flag="0"/>
			<psa30 value="0.000687552421975" flag="0"/>
		</comp>
	</station>
	<station code="LAM2" name="LAM2" netid="HI" source="ITSAK Strong Motion Network" insttype="" lat="38.90203" lon="22.431301">
		<comp name=".HNE" depth="0.0">
			<acc value="0.00572789213119" flag="0"/>
			<vel value="0.00497757663079" flag="0"/>
			<psa03 value="0.010714142051" flag="0"/>
			<psa10 value="0.00820338999683" flag="0"/>
			<psa30 value="0.00065782607775" flag="0"/>
		</comp>
		<comp name=".HNN" depth="0.0">
			<acc value="0.00676985930705" flag="0"/>
			<vel value="0.00372949136415" flag="0"/>
			<psa03 value="0.021647009529" flag="0"/>
			<psa10 value="0.00460755944695" flag="0"/>
			<psa30 value="0.000758772608712" flag="0"/>
		</comp>
		<comp name=".HNZ" depth="0.0">
			<acc value="0.00582705218862" flag="0"/>
			<vel value="0.00321867659365" flag="0"/>
			<psa03 value="0.00858903642941" flag="0"/>
			<psa10 value="0.00437737060433" flag="0"/>
			<psa30 value="0.000640461542015" flag="0"/>
		</comp>
	</station>
	<station code="MSL1" name="MSL1" netid="HI" source="ITSAK Strong Motion Network" insttype="" lat="38.3727" lon="21.4243">
		<comp name=".HNE" depth="0.0">
			<acc value="0.00753540089752" flag="0"/>
			<vel value="0.00731546218298" flag="0"/>
			<psa03 value="0.0310880880791" flag="0"/>
			<psa10 value="0.0134852933345" flag="0"/>
			<psa30 value="0.000952269749865" flag="0"/>
		</comp>
		<comp name=".HNN" depth="0.0">
			<acc value="0.00801300511484" flag="0"/>
			<vel value="0.00634880806712" flag="0"/>
			<psa03 value="0.0230806565844" flag="0"/>
			<psa10 value="0.0133312096897" flag="0"/>
			<psa30 value="0.000776761352461" flag="0"/>
		</comp>
		<comp name=".HNZ" depth="0.0">
			<acc value="0.0183234934593" flag="0"/>
			<vel value="0.00422597785805" flag="0"/>
			<psa03 value="0.0112987823431" flag="0"/>
			<psa10 value="0.00630475265892" flag="0"/>
			<psa30 value="0.00028533351132" flag="0"/>
		</comp>
	</station>
	<station code="NPS1" name="NPS1" netid="HI" source="ITSAK Strong Motion Network" insttype="" lat="36.51263" lon="23.06248">
		<comp name=".HNE" depth="0.0">
			<acc value="0.0112779448911" flag="0"/>
			<vel value="0.00653656015623" flag="0"/>
			<psa03 value="0.0275405509889" flag="0"/>
			<psa10 value="0.00363538723281" flag="0"/>
			<psa30 value="0.000367758554908" flag="0"/>
		</comp>
		<comp name=".HNN" depth="0.0">
			<acc value="0.0158937464291" flag="0"/>
			<vel value="0.00973621986978" flag="0"/>
			<psa03 value="0.0531801427152" flag="0"/>
			<psa10 value="0.00585122808389" flag="0"/>
			<psa30 value="0.000402689618919" flag="0"/>
		</comp>
		<comp name=".HNZ" depth="0.0">
			<acc value="0.00828974624061" flag="0"/>
			<vel value="0.00284722302026" flag="0"/>
			<psa03 value="0.0214459844933" flag="0"/>
			<psa10 value="0.00172957602123" flag="0"/>
			<psa30 value="0.000204876553837" flag="0"/>
		</comp>
	</station>
	<station code="SKY1" name="SKY1" netid="HI" source="ITSAK Strong Motion Network" insttype="" lat="38.904483" lon="24.564572">
		<comp name=".HNE" depth="0.0">
			<acc value="0.00320135137124" flag="0"/>
			<vel value="0.00203244584381" flag="0"/>
			<psa03 value="0.00869412542232" flag="0"/>
			<psa10 value="0.00231997399939" flag="0"/>
			<psa30 value="0.000163819445984" flag="0"/>
		</comp>
		<comp name=".HNN" depth="0.0">
			<acc value="0.00326234659153" flag="0"/>
			<vel value="0.00236695988167" flag="0"/>
			<psa03 value="0.0107838387254" flag="0"/>
			<psa10 value="0.00314748413038" flag="0"/>
			<psa30 value="0.000321792541135" flag="0"/>
		</comp>
		<comp name=".HNZ" depth="0.0">
			<acc value="0.00289367631963" flag="0"/>
			<vel value="0.00117487370961" flag="0"/>
			<psa03 value="0.00832974711737" flag="0"/>
			<psa10 value="0.0011916190561" flag="0"/>
			<psa30 value="0.000139381668247" flag="0"/>
		</comp>
	</station>
	<station code="VAS2" name="VAS2" netid="HI" source="ITSAK Strong Motion Network" insttype="" lat="38.630558" lon="20.608081">
		<comp name=".HNE" depth="0.0">
			<acc value="0.00572478129156" flag="0"/>
			<vel value="0.007985312373" flag="0"/>
			<psa03 value="0.0169146608779" flag="0"/>
			<psa10 value="0.0158888538086" flag="0"/>
			<psa30 value="0.000727317504133" flag="0"/>
		</comp>
		<comp name=".HNN" depth="0.0">
			<acc value="0.00942176180378" flag="0"/>
			<vel value="0.0117549633957" flag="0"/>
			<psa03 value="0.0192145814655" flag="0"/>
			<psa10 value="0.0297013994469" flag="0"/>
			<psa30 value="0.00114569673012" flag="0"/>
		</comp>
		<comp name=".HNZ" depth="0.0">
			<acc value="0.00349368411144" flag="0"/>
			<vel value="0.00387849145681" flag="0"/>
			<psa03 value="0.00815275622591" flag="0"/>
			<psa10 value="0.00788366256645" flag="0"/>
			<psa30 value="0.000495072119014" flag="0"/>
		</comp>
	</station>
	<station code="VOL2" name="VOL2" netid="HI" source="ITSAK Strong Motion Network" insttype="" lat="39.366" lon="22.9506">
		<comp name=".HNE" depth="0.0">
			<acc value="0.00802694024878" flag="0"/>
			<vel value="0.00271946322105" flag="0"/>
			<psa03 value="0.018766154624" flag="0"/>
			<psa10 value="0.00186357169466" flag="0"/>
			<psa30 value="0.000287312548671" flag="0"/>
		</comp>
		<comp name=".HNN" depth="0.0">
			<acc value="0.0103421443177" flag="0"/>
			<vel value="0.00259681858687" flag="0"/>
			<psa03 value="0.00793583886142" flag="0"/>
			<psa10 value="0.00324604769098" flag="0"/>
			<psa30 value="0.000268731213582" flag="0"/>
		</comp>
		<comp name=".HNZ" depth="0.0">
			<acc value="0.0169543610972" flag="0"/>
			<vel value="0.00213004905146" flag="0"/>
			<psa03 value="0.0033660390643" flag="0"/>
			<psa10 value="0.00111795726231" flag="0"/>
			<psa30 value="0.00031991882326" flag="0"/>
		</comp>
	</station>
	<station code="ATHP" name="ATHP" netid="HL" source="National Observatory of Athens Seismic Network" insttype="" lat="38.000799" lon="23.773487">
		<comp name="00.HNE" depth="0.0">
			<acc value="0.0146779304099" flag="0"/>
			<vel value="0.00687137325673" flag="0"/>
			<psa03 value="0.0236946451748" flag="0"/>
			<psa10 value="0.00624630878731" flag="0"/>
			<psa30 value="0.00046804751627" flag="0"/>
		</comp>
		<comp name="00.HNN" depth="0.0">
			<acc value="0.0107545368566" flag="0"/>
			<vel value="0.00485536416072" flag="0"/>
			<psa03 value="0.0221564938006" flag="0"/>
			<psa10 value="0.00501573179887" flag="0"/>
			<psa30 value="0.000370824252787" flag="0"/>
		</comp>
		<comp name="00.HNZ" depth="0.0">
			<acc value="0.0138233404718" flag="0"/>
			<vel value="0.0030723443841" flag="0"/>
			<psa03 value="0.0191552064384" flag="0"/>
			<psa10 value="0.0025640544654" flag="0"/>
			<psa30 value="0.000430498961152" flag="0"/>
		</comp>
	</station>
	<station code="DLFA" name="DLFA" netid="HL" source="National Observatory of Athens Seismic Network" insttype="" lat="38.47836" lon="22.49583">
		<comp name="00.HNE" depth="0.0">
			<acc value="0.0438220437791" flag="0"/>
			<vel value="0.0139301476611" flag="0"/>
			<psa03 value="0.077241731469" flag="0"/>
			<psa10 value="0.0133680390045" flag="0"/>
			<psa30 value="0.000791300284345" flag="0"/>
		</comp>
		<comp name="00.HNN" depth="0.0">
			<acc value="0.0502758850026" flag="0"/>
			<vel value="0.0122823065688" flag="0"/>
			<psa03 value="0.0559434716056" flag="0"/>
			<psa10 value="0.013455728251" flag="0"/>
			<psa30 value="0.00101149513159" flag="0"/>
		</comp>
		<comp name="00.HNZ" depth="0.0">
			<acc value="0.0434795736387" flag="0"/>
			<vel value="0.0167295847006" flag="0"/>
			<psa03 value="0.107688852608" flag="0"/>
			<psa10 value="0.0113276188366" flag="0"/>
			<psa30 value="0.000888877737954" flag="0"/>
		</comp>
	</station>
	<station code="GINA" name="GINA" netid="HL" source="National Observatory of Athens Seismic Network" insttype="" lat="39.66886" lon="22.389">
		<comp name="00.HNE" depth="0.0">
			<acc value="0.00226943679237" flag="0"/>
			<vel value="0.0017958759452" flag="0"/>
			<psa03 value="0.00339205608728" flag="0"/>
			<psa10 value="0.00289442299132" flag="0"/>
			<psa30 value="0.000346757658493" flag="0"/>
		</comp>
		<comp name="00.HNN" depth="0.0">
			<acc value="0.00176216985135" flag="0"/>
			<vel value="0.00212819460077" flag="0"/>
			<psa03 value="0.00331758761244" flag="0"/>
			<psa10 value="0.00284531747269" flag="0"/>
			<psa30 value="0.000462763207877" flag="0"/>
		</comp>
		<comp name="00.HNZ" depth="0.0">
			<acc value="0.00391095962697" flag="0"/>
			<vel value="0.0011353701437" flag="0"/>
			<psa03 value="0.00334832858117" flag="0"/>
			<psa10 value="0.00256263218368" flag="0"/>
			<psa30 value="0.000193364202658" flag="0"/>
		</comp>
	</station>
	<station code="KTHA" name="KTHA" netid="HL" source="National Observatory of Athens Seismic Network" insttype="" lat="36.2566" lon="23.0621">
		<comp name=".HNE" depth="0.0">
			<acc value="0.0454055059665" flag="0"/>
			<vel value="0.0255448653743" flag="0"/>
			<psa03 value="0.158785550013" flag="0"/>
			<psa10 value="0.0292503270656" flag="0"/>
			<psa30 value="0.00179365944614" flag="0"/>
		</comp>
		<comp name=".HNN" depth="0.0">
			<acc value="0.0344928663367" flag="0"/>
			<vel value="0.0159734864516" flag="0"/>
			<psa03 value="0.094657197658" flag="0"/>
			<psa10 value="0.0245599082234" flag="0"/>
			<psa30 value="0.00536997281768" flag="0"/>
		</comp>
		<comp name=".HNZ" depth="0.0">
			<acc value="0.0247371101436" flag="0"/>
			<vel value="0.0115358779853" flag="0"/>
			<psa03 value="0.0537820107108" flag="0"/>
			<psa10 value="0.0217027270742" flag="0"/>
			<psa30 value="0.00207104657167" flag="0"/>
		</comp>
	</station>
