<?xml version="1.0" encoding="UTF-8" standalone="yes"?>
<!DOCTYPE earthquake SYSTEM "stationlist.dtd">
<stationlist created="" xmlns="ch.ethz.sed.shakemap.usgs.xml">
  <station code="GR22" name="GR22" netid="1Y" insttype="Horizon,120s,1200" lat="39.0895" lon="22.8264">
    <comp name="00.HHZ">
      <acc value="0.0027382956" flag="0"/>
      <vel value="0.0018654756" flag="0"/>
      <psa03 value="0.0084072891" flag="0"/>
      <psa10 value="0.0038082315" flag="0"/>
      <psa30 value="0.0003327700" flag="0"/>
    </comp>
    <comp name="00.HHN">
      <acc value="0.0061489084" flag="0"/>
      <vel value="0.0027959024" flag="0"/>
      <psa03 value="0.0182181912" flag="0"/>
      <psa10 value="0.0048108134" flag="0"/>
      <psa30 value="0.0002190983" flag="0"/>
    </comp>
    <comp name="00.HHE">
      <acc value="0.0062448632" flag="0"/>
      <vel value="0.0024596828" flag="0"/>
      <psa03 value="0.0231899106" flag="0"/>
      <psa10 value="0.0020896958" flag="0"/>
      <psa30 value="0.0002832168" flag="0"/>
    </comp>
  </station>
  <station code="GR23" name="GR23" netid="1Y" insttype="Horizon,120s,1200" lat="38.8076" lon="23.229">
    <comp name="00.HHN">
      <acc value="0.0149057366" flag="0"/>
      <vel value="0.0194729463" flag="0"/>
      <psa03 value="0.0284287348" flag="0"/>
      <psa10 value="0.0447411005" flag="0"/>
      <psa30 value="0.0024415854" flag="0"/>
    </comp>
    <comp name="00.HHE">
      <acc value="0.0098588106" flag="0"/>
      <vel value="0.0139019158" flag="0"/>
      <psa03 value="0.0258770877" flag="0"/>
      <psa10 value="0.0232805346" flag="0"/>
      <psa30 value="0.0015236630" flag="0"/>
    </comp>
    <comp name="00.HHZ">
      <acc value="0.0069216485" flag="0"/>
      <vel value="0.0091320765" flag="0"/>
      <psa03 value="0.0138439435" flag="0"/>
      <psa10 value="0.0183082892" flag="0"/>
      <psa30 value="0.0006674355" flag="0"/>
    </comp>
  </station>
  <station code="GR24" name="GR24" netid="1Y" insttype="Horizon,120s,1200" lat="38.6887" lon="22.1944">
    <comp name="00.HHN">
      <acc value="0.0238084190" flag="0"/>
      <vel value="0.0086254411" flag="0"/>
      <psa03 value="0.0439612406" flag="0"/>
      <psa10 value="0.0056034711" flag="0"/>
      <psa30 value="0.0005998409" flag="0"/>
    </comp>
    <comp name="00.HHE">
      <acc value="0.0185462174" flag="0"/>
      <vel value="0.0053338464" flag="0"/>
      <psa03 value="0.0367234428" flag="0"/>
      <psa10 value="0.0038292767" flag="0"/>
      <psa30 value="0.0007017214" flag="0"/>
    </comp>
    <comp name="00.HHZ">
      <acc value="0.0106719596" flag="0"/>
      <vel value="0.0038869116" flag="0"/>
      <psa03 value="0.0228883389" flag="0"/>
      <psa10 value="0.0043635297" flag="0"/>
      <psa30 value="0.0004221814" flag="0"/>
    </comp>
  </station>
  <station code="GR26" name="GR26" netid="1Y" insttype="Horizon,120s,1200" lat="38.4" lon="23.4107">
    <comp name="00.HHE">
      <acc value="0.0124208172" flag="0"/>
      <vel value="0.0074903022" flag="0"/>
      <psa03 value="0.0259551788" flag="0"/>
      <psa10 value="0.0069842677" flag="0"/>
      <psa30 value="0.0005793702" flag="0"/>
    </comp>
    <comp name="00.HHN">
      <acc value="0.0201347712" flag="0"/>
      <vel value="0.0070668017" flag="0"/>
      <psa03 value="0.0622786337" flag="0"/>
      <psa10 value="0.0106508991" flag="0"/>
      <psa30 value="0.0006242110" flag="0"/>
    </comp>
    <comp name="00.HHZ">
      <acc value="0.0108611724" flag="0"/>
      <vel value="0.0044196668" flag="0"/>
      <psa03 value="0.0170477220" flag="0"/>
      <psa10 value="0.0061918048" flag="0"/>
      <psa30 value="0.0004775468" flag="0"/>
    </comp>
  </station>
  <station code="GR29" name="GR29" netid="1Y" insttype="Horizon,120s,1200" lat="37.7042" lon="21.9225">
    <comp name="00.HHE">
      <acc value="0.0232522887" flag="0"/>
      <vel value="0.0096769863" flag="0"/>
      <psa03 value="0.0392224319" flag="0"/>
      <psa10 value="0.0110679976" flag="0"/>
      <psa30 value="0.0005962451" flag="0"/>
    </comp>
    <comp name="00.HHZ">
      <acc value="0.0155069764" flag="0"/>
      <vel value="0.0062245416" flag="0"/>
      <psa03 value="0.0531416382" flag="0"/>
      <psa10 value="0.0063750218" flag="0"/>
      <psa30 value="0.0004641240" flag="0"/>
    </comp>
    <comp name="00.HHN">
      <acc value="0.0225376379" flag="0"/>
      <vel value="0.0100963504" flag="0"/>
      <psa03 value="0.0407684852" flag="0"/>
      <psa10 value="0.0138996482" flag="0"/>
      <psa30 value="0.0006068063" flag="0"/>
    </comp>
  </station>
  <station code="GR30" name="GR30" netid="1Y" insttype="Horizon,120s,1200" lat="37.5217" lon="22.5774">
    <comp name="00.HHN">
      <acc value="0.0890861121" flag="0"/>
      <vel value="0.0218990409" flag="0"/>
      <psa03 value="0.0888094426" flag="0"/>
      <psa10 value="0.0088233923" flag="0"/>
      <psa30 value="0.0007514639" flag="0"/>
    </comp>
    <comp name="00.HHZ">
      <acc value="0.0658811785" flag="0"/>
      <vel value="0.0120865956" flag="0"/>
      <psa03 value="0.0495805230" flag="0"/>
      <psa10 value="0.0055555937" flag="0"/>
      <psa30 value="0.0008657254" flag="0"/>
    </comp>
    <comp name="00.HHE">
      <acc value="0.1210736142" flag="0"/>
      <vel value="0.0179043581" flag="0"/>
      <psa03 value="0.0940334455" flag="0"/>
      <psa10 value="0.0074624229" flag="0"/>
      <psa30 value="0.0005819591" flag="0"/>
    </comp>
  </station>
  <station code="GR31" name="GR31" netid="1Y" insttype="Horizon,120s,1200" lat="37.0331" lon="22.5212">
    <comp name="00.HHN">
      <acc value="0.0113047837" flag="0"/>
      <vel value="0.0074592707" flag="0"/>
      <psa03 value="0.0270091467" flag="0"/>
      <psa10 value="0.0082753110" flag="0"/>
      <psa30 value="0.0004966139" flag="0"/>
    </comp>
    <comp name="00.HHE">
      <acc value="0.0166689043" flag="0"/>
      <vel value="0.0072391675" flag="0"/>
      <psa03 value="0.0401910579" flag="0"/>
      <psa10 value="0.0085788664" flag="0"/>
      <psa30 value="0.0005626928" flag="0"/>
    </comp>
    <comp name="00.HHZ">
      <acc value="0.0187525587" flag="0"/>
      <vel value="0.0060110102" flag="0"/>
      <psa03 value="0.0291262096" flag="0"/>
      <psa10 value="0.0062730154" flag="0"/>
      <psa30 value="0.0004669381" flag="0"/>
    </comp>
  </station>
  <station code="AGRP" name="AGRP" netid="CL" insttype="CMG40-T" lat="38.3959" lon="21.7228">
    <comp name="00.HHN">
      <acc value="0.0058418718" flag="0"/>
      <vel value="0.0033468181" flag="0"/>
      <psa03 value="0.0254357653" flag="0"/>
      <psa10 value="0.0041086130" flag="0"/>
      <psa30 value="0.0003469325" flag="0"/>
    </comp>
    <comp name="00.HHE">
      <acc value="0.0083753130" flag="0"/>
      <vel value="0.0035540927" flag="0"/>
      <psa03 value="0.0205204642" flag="0"/>
      <psa10 value="0.0040267454" flag="0"/>
      <psa30 value="0.0004517094" flag="0"/>
    </comp>
    <comp name="00.HHZ">
      <acc value="0.0047165912" flag="0"/>
      <vel value="0.0019038979" flag="0"/>
      <psa03 value="0.0133945909" flag="0"/>
      <psa10 value="0.0029962693" flag="0"/>
      <psa30 value="0.0002571051" flag="0"/>
    </comp>
  </station>
  <station code="TRIZ" name="TRIZ" netid="CL" insttype="STS-2" lat="38.3654" lon="22.0727">
    <comp name="00.HHZ">
      <acc value="0.0218596719" flag="0"/>
      <vel value="0.0063078142" flag="0"/>
      <psa03 value="0.0241939400" flag="0"/>
      <psa10 value="0.0060055314" flag="0"/>
      <psa30 value="0.0004719756" flag="0"/>
    </comp>
    <comp name="00.HH2">
      <acc value="0.0192893228" flag="0"/>
      <vel value="0.0093619594" flag="0"/>
      <psa03 value="0.0570643437" flag="0"/>
      <psa10 value="0.0066629355" flag="0"/>
      <psa30 value="0.0010819402" flag="0"/>
    </comp>
    <comp name="00.HH3">
      <acc value="0.0237532003" flag="0"/>
      <vel value="0.0165226913" flag="0"/>
      <psa03 value="0.0711930067" flag="0"/>
      <psa10 value="0.0140566214" flag="0"/>
      <psa30 value="0.0008920589" flag="0"/>
    </comp>
  </station>
  <station code="ACOR" name="ACOR" netid="HA" insttype="Horizon,120s,1200" lat="37.8905" lon="22.8694">
    <comp name="--.HHE">
      <acc value="0.0973603716" flag="0"/>
      <vel value="0.0361154441" flag="0"/>
      <psa03 value="0.1264603615" flag="0"/>
      <psa10 value="0.0542235754" flag="0"/>
      <psa30 value="0.0027817703" flag="0"/>
    </comp>
    <comp name="--.HHZ">
      <acc value="0.0994357338" flag="0"/>
      <vel value="0.0358239531" flag="0"/>
      <psa03 value="0.2622656112" flag="0"/>
      <psa10 value="0.0393563428" flag="0"/>
      <psa30 value="0.0037429459" flag="0"/>
    </comp>
    <comp name="--.HHN">
      <acc value="0.1196200004" flag="0"/>
      <vel value="0.0503305522" flag="0"/>
      <psa03 value="0.1498929027" flag="0"/>
      <psa10 value="0.0505070958" flag="0"/>
      <psa30 value="0.0055208319" flag="0"/>
    </comp>
  </station>
  <station code="AMPE" name="AMPE" netid="HA" insttype="1s-100Hz," lat="38.3015" lon="23.2688">
    <comp name="--.HHE">
      <acc value="0.0194752687" flag="0"/>
      <vel value="0.0088767319" flag="0"/>
      <psa03 value="0.0336595657" flag="0"/>
      <psa10 value="0.0146282433" flag="0"/>
      <psa30 value="0.0010493684" flag="0"/>
    </comp>
    <comp name="--.HHN">
      <acc value="0.0177959684" flag="0"/>
      <vel value="0.0098529074" flag="0"/>
      <psa03 value="0.0415802676" flag="0"/>
      <psa10 value="0.0124280517" flag="0"/>
      <psa30 value="0.0020700436" flag="0"/>
    </comp>
    <comp name="--.HHZ">
      <acc value="0.0131472030" flag="0"/>
      <vel value="0.0056360756" flag="0"/>
      <psa03 value="0.0216573126" flag="0"/>
      <psa10 value="0.0092178602" flag="0"/>
      <psa30 value="0.0004805220" flag="0"/>
    </comp>
  </station>
  <station code="ATHU" name="ATHU" netid="HA" insttype="60s," lat="37.9665" lon="23.7845">
    <comp name="--.HHE">
      <acc value="0.0048572438" flag="0"/>
      <vel value="0.0016471153" flag="0"/>
      <psa03 value="0.0072126514" flag="0"/>
      <psa10 value="0.0011632604" flag="0"/>
      <psa30 value="0.0001216654" flag="0"/>
    </comp>
    <comp name="--.HHN">
      <acc value="0.0040420593" flag="0"/>
      <vel value="0.0014240189" flag="0"/>
      <psa03 value="0.0101308535" flag="0"/>
      <psa10 value="0.0011591584" flag="0"/>
      <psa30 value="0.0000919231" flag="0"/>
    </comp>
    <comp name="--.HHZ">
      <acc value="0.0034879350" flag="0"/>
      <vel value="0.0013195123" flag="0"/>
      <psa03 value="0.0055538789" flag="0"/>
      <psa10 value="0.0012712091" flag="0"/>
      <psa30 value="0.0001373195" flag="0"/>
    </comp>
  </station>
  <station code="AXAR" name="AXAR" netid="HA" insttype="Horizon,120s,1200" lat="38.7664" lon="22.659">
    <comp name="--.HHN">
      <acc value="0.0359291487" flag="0"/>
      <vel value="0.0166585356" flag="0"/>
      <psa03 value="0.1142982411" flag="0"/>
      <psa10 value="0.0156820059" flag="0"/>
      <psa30 value="0.0010924665" flag="0"/>
    </comp>
    <comp name="--.HHZ">
      <acc value="0.0214310941" flag="0"/>
      <vel value="0.0107923605" flag="0"/>
      <psa03 value="0.0804370845" flag="0"/>
      <psa10 value="0.0191336665" flag="0"/>
      <psa30 value="0.0006676404" flag="0"/>
    </comp>
    <comp name="--.HHE">
      <acc value="0.0428853123" flag="0"/>
      <vel value="0.0181707878" flag="0"/>
      <psa03 value="0.1354130357" flag="0"/>
      <psa10 value="0.0215773141" flag="0"/>
      <psa30 value="0.0022426878" flag="0"/>
    </comp>
  </station>
  <station code="DOMV" name="DOMV" netid="HA" insttype="60" lat="38.2569" lon="22.9795">
    <comp name="--.HHN">
      <acc value="0.0823469625" flag="0"/>
      <vel value="0.0180035075" flag="0"/>
      <psa03 value="0.1294909344" flag="0"/>
      <psa10 value="0.0120930296" flag="0"/>
      <psa30 value="0.0007930276" flag="0"/>
    </comp>
    <comp name="--.HHE">
      <acc value="0.0971434330" flag="0"/>
      <vel value="0.0218793156" flag="0"/>
      <psa03 value="0.1094068862" flag="0"/>
      <psa10 value="0.0150917199" flag="0"/>
      <psa30 value="0.0012335745" flag="0"/>
    </comp>
    <comp name="--.HHZ">
      <acc value="0.0593115011" flag="0"/>
      <vel value="0.0113331045" flag="0"/>
      <psa03 value="0.0470596718" flag="0"/>
      <psa10 value="0.0057839122" flag="0"/>
      <psa30 value="0.0004190459" flag="0"/>
    </comp>
  </station>
  <station code="EPID" name="EPID" netid="HA" insttype="30" lat="37.6144" lon="23.1189">
    <comp name="--.HHE">
      <acc value="0.0812312726" flag="0"/>
      <vel value="0.0298656709" flag="0"/>
      <psa03 value="0.1009407055" flag="0"/>
      <psa10 value="0.0118226158" flag="0"/>
      <psa30 value="0.0009675764" flag="0"/>
    </comp>
    <comp name="--.HHZ">
      <acc value="0.0763963660" flag="0"/>
      <vel value="0.0192516668" flag="0"/>
      <psa03 value="0.1259863305" flag="0"/>
      <psa10 value="0.0094891982" flag="0"/>
      <psa30 value="0.0008342376" flag="0"/>
    </comp>
    <comp name="--.HHN">
      <acc value="0.0882444778" flag="0"/>
      <vel value="0.0264834109" flag="0"/>
      <psa03 value="0.1142017318" flag="0"/>
      <psa10 value="0.0133006329" flag="0"/>
      <psa30 value="0.0009642627" flag="0"/>
    </comp>
  </station>
  <station code="ERTR" name="ERTR" netid="HA" insttype="Horizon,120s,1200" lat="38.4066" lon="23.7865">
    <comp name="--.HHZ">
      <acc value="0.0046179909" flag="0"/>
      <vel value="0.0024005614" flag="0"/>
      <psa03 value="0.0130690193" flag="0"/>
      <psa10 value="0.0021464021" flag="0"/>
      <psa30 value="0.0001913175" flag="0"/>
    </comp>
    <comp name="--.HHE">
      <acc value="0.0061982280" flag="0"/>
      <vel value="0.0032765336" flag="0"/>
      <psa03 value="0.0168848046" flag="0"/>
      <psa10 value="0.0034353071" flag="0"/>
      <psa30 value="0.0002765745" flag="0"/>
    </comp>
    <comp name="--.HHN">
      <acc value="0.0072032355" flag="0"/>
      <vel value="0.0043109322" flag="0"/>
      <psa03 value="0.0237024395" flag="0"/>
      <psa10 value="0.0063365343" flag="0"/>
      <psa30 value="0.0004292365" flag="0"/>
    </comp>
  </station>
  <station code="KALE" name="KALE" netid="HA" insttype="40," lat="38.3911" lon="22.1398">
    <comp name="--.HHE">
      <acc value="0.0221315201" flag="0"/>
      <vel value="0.0083493620" flag="0"/>
      <psa03 value="0.0468973690" flag="0"/>
      <psa10 value="0.0092021343" flag="0"/>
      <psa30 value="0.0010963415" flag="0"/>
    </comp>
    <comp name="--.HHZ">
      <acc value="0.0179642305" flag="0"/>
      <vel value="0.0057611788" flag="0"/>
      <psa03 value="0.0219722882" flag="0"/>
      <psa10 value="0.0057595880" flag="0"/>
      <psa30 value="0.0005731012" flag="0"/>
    </comp>
    <comp name="--.HHN">
      <acc value="0.0378784154" flag="0"/>
      <vel value="0.0101453176" flag="0"/>
      <psa03 value="0.0613538155" flag="0"/>
      <psa10 value="0.0078453544" flag="0"/>
      <psa30 value="0.0006585431" flag="0"/>
    </comp>
  </station>
  <station code="KIAS" name="KIAS" netid="HA" insttype="DC" lat="37.9875" lon="22.7543">
    <comp name="--.HNN">
      <acc value="6.7692514602" flag="0"/>
      <vel value="1.7203855908" flag="0"/>
      <psa03 value="5.5319527253" flag="0"/>
      <psa10 value="0.3285270897" flag="0"/>
      <psa30 value="0.0254671791" flag="0"/>
    </comp>
    <comp name="--.HNE">
      <acc value="7.2130554121" flag="0"/>
      <vel value="2.3710142113" flag="0"/>
      <psa03 value="9.7917060442" flag="0"/>
      <psa10 value="0.7987200360" flag="0"/>
      <psa30 value="0.0969608181" flag="0"/>
    </comp>
    <comp name="--.HNZ">
      <acc value="3.4124346726" flag="0"/>
      <vel value="0.4415513053" flag="0"/>
      <psa03 value="1.8684956857" flag="0"/>
      <psa10 value="0.1758204145" flag="0"/>
      <psa30 value="0.0099350764" flag="0"/>
    </comp>
  </station>
  <station code="LAKA" name="LAKA" netid="HA" insttype="120s," lat="38.2401" lon="21.9785">
    <comp name="--.HHN">
      <acc value="0.0052521044" flag="0"/>
      <vel value="0.0014098313" flag="0"/>
      <psa03 value="0.0066886391" flag="0"/>
      <psa10 value="0.0007995649" flag="0"/>
      <psa30 value="0.0002035089" flag="0"/>
    </comp>
    <comp name="--.HHE">
      <acc value="0.0036193612" flag="0"/>
      <vel value="0.0015097218" flag="0"/>
      <psa03 value="0.0079343190" flag="0"/>
      <psa10 value="0.0013673114" flag="0"/>
      <psa30 value="0.0001373115" flag="0"/>
    </comp>
    <comp name="--.HHZ">
      <acc value="0.0031976481" flag="0"/>
      <vel value="0.0011497930" flag="0"/>
      <psa03 value="0.0034182151" flag="0"/>
      <psa10 value="0.0013888193" flag="0"/>
      <psa30 value="0.0001019113" flag="0"/>
    </comp>
  </station>
  <station code="LOUT" name="LOUT" netid="HA" insttype="30" lat="37.9879" lon="22.9743">
    <comp name="--.HHN">
      <acc value="0.2585080124" flag="0"/>
      <vel value="0.0716778730" flag="0"/>
      <psa03 value="0.3305577668" flag="0"/>
      <psa10 value="0.0797581532" flag="0"/>
      <psa30 value="0.0034957503" flag="0"/>
    </comp>
    <comp name="--.HHZ">
      <acc value="0.2206093713" flag="0"/>
      <vel value="0.0412058189" flag="0"/>
      <psa03 value="0.1491677543" flag="0"/>
      <psa10 value="0.0338660149" flag="0"/>
      <psa30 value="0.0015113250" flag="0"/>
    </comp>
    <comp name="--.HHE">
      <acc value="0.3066260316" flag="0"/>
      <vel value="0.0940612909" flag="0"/>
      <psa03 value="0.4271803571" flag="0"/>
      <psa10 value="0.0772193345" flag="0"/>
      <psa30 value="0.0038289950" flag="0"/>
    </comp>
  </station>
  <station code="LTRS" name="LTRS" netid="HA" insttype="DC" lat="37.9753" lon="22.9765">
    <comp name="--.HNZ">
      <acc value="0.1570703778" flag="0"/>
      <vel value="0.0548593337" flag="0"/>
      <psa03 value="0.3419131051" flag="0"/>
      <psa10 value="0.0720025827" flag="0"/>
      <psa30 value="0.0036812495" flag="0"/>
    </comp>
    <comp name="--.HNN">
      <acc value="0.1585650731" flag="0"/>
      <vel value="0.1212613692" flag="0"/>
      <psa03 value="0.5022996111" flag="0"/>
      <psa10 value="0.1598002169" flag="0"/>
      <psa30 value="0.0069005222" flag="0"/>
    </comp>
    <comp name="--.HNE">
      <acc value="0.1388644127" flag="0"/>
      <vel value="0.0879243397" flag="0"/>
      <psa03 value="0.3614454420" flag="0"/>
      <psa10 value="0.1334495116" flag="0"/>
      <psa30 value="0.0064904930" flag="0"/>
    </comp>
  </station>
  <station code="MDRA" name="MDRA" netid="HA" insttype="60" lat="38.0606" lon="23.4662">
    <comp name="--.HHN">
      <acc value="0.0102741133" flag="0"/>
      <vel value="0.0037285389" flag="0"/>
      <psa03 value="0.0167737868" flag="0"/>
      <psa10 value="0.0034029552" flag="0"/>
      <psa30 value="0.0002153284" flag="0"/>
    </comp>
    <comp name="--.HHE">
      <acc value="0.0088041136" flag="0"/>
      <vel value="0.0023365101" flag="0"/>
      <psa03 value="0.0112229328" flag="0"/>
      <psa10 value="0.0023748419" flag="0"/>
      <psa30 value="0.0001941520" flag="0"/>
    </comp>
    <comp name="--.HHZ">
      <acc value="0.0098235762" flag="0"/>
      <vel value="0.0023923010" flag="0"/>
      <psa03 value="0.0119608241" flag="0"/>
      <psa10 value="0.0026570610" flag="0"/>
      <psa30 value="0.0002181743" flag="0"/>
    </comp>
  </station>
  <station code="MRKA" name="MRKA" netid="HA" insttype="Horizon,120s,1200" lat="38.7047" lon="23.5863">
    <comp name="--.HHN">
      <acc value="0.0084086075" flag="0"/>
      <vel value="0.0038670523" flag="0"/>
      <psa03 value="0.0160238725" flag="0"/>
      <psa10 value="0.0070035794" flag="0"/>
      <psa30 value="0.0004245220" flag="0"/>
    </comp>
    <comp name="--.HHE">
