<?xml version="1.0" encoding="UTF-8" standalone="yes"?>
<!DOCTYPE earthquake SYSTEM "stationlist.dtd">
<stationlist created="" xmlns="ch.ethz.sed.shakemap.usgs.xml">
  <station code="GR22" name="GR22" netid="1Y" insttype="Horizon,120s,1200" lat="39.0895" lon="22.8264">
    <comp name="00.HHE">
      <acc value="0.0062448632" flag="0"/>
      <vel value="0.0024596827" flag="0"/>
      <psa03 value="0.0231899106" flag="0"/>
      <psa10 value="0.0020896958" flag="0"/>
      <psa30 value="0.0002832168" flag="0"/>
    </comp>
    <comp name="00.HHN">
      <acc value="0.0061489085" flag="0"/>
      <vel value="0.0027959024" flag="0"/>
      <psa03 value="0.0182181912" flag="0"/>
      <psa10 value="0.0048108134" flag="0"/>
      <psa30 value="0.0002190985" flag="0"/>
    </comp>
    <comp name="00.HHZ">
      <acc value="0.0027382956" flag="0"/>
      <vel value="0.0018654756" flag="0"/>
      <psa03 value="0.0084072891" flag="0"/>
      <psa10 value="0.0038082315" flag="0"/>
      <psa30 value="0.0003327699" flag="0"/>
    </comp>
  </station>
  <station code="GR23" name="GR23" netid="1Y" insttype="Horizon,120s,1200" lat="38.8076" lon="23.229">
    <comp name="00.HHZ">
      <acc value="0.0069216485" flag="0"/>
      <vel value="0.0091320765" flag="0"/>
      <psa03 value="0.0138439435" flag="0"/>
      <psa10 value="0.0183082892" flag="0"/>
      <psa30 value="0.0006674355" flag="0"/>
    </comp>
    <comp name="00.HHE">
      <acc value="0.0098588106" flag="0"/>
      <vel value="0.0139019158" flag="0"/>
      <psa03 value="0.0258770877" flag="0"/>
      <psa10 value="0.0232805346" flag="0"/>
      <psa30 value="0.0015236630" flag="0"/>
    </comp>
    <comp name="00.HHN">
      <acc value="0.0149057366" flag="0"/>
      <vel value="0.0194729463" flag="0"/>
      <psa03 value="0.0284287348" flag="0"/>
      <psa10 value="0.0447411005" flag="0"/>
      <psa30 value="0.0024415854" flag="0"/>
    </comp>
  </station>
  <station code="GR24" name="GR24" netid="1Y" insttype="Horizon,120s,1200" lat="38.6887" lon="22.1944">
    <comp name="00.HHZ">
      <acc value="0.0106719596" flag="0"/>
      <vel value="0.0038869116" flag="0"/>
      <psa03 value="0.0228883389" flag="0"/>
      <psa10 value="0.0043635297" flag="0"/>
      <psa30 value="0.0004221814" flag="0"/>
    </comp>
    <comp name="00.HHE">
      <acc value="0.0185462174" flag="0"/>
      <vel value="0.0053338463" flag="0"/>
      <psa03 value="0.0367234428" flag="0"/>
      <psa10 value="0.0038292767" flag="0"/>
      <psa30 value="0.0007017207" flag="0"/>
    </comp>
    <comp name="00.HHN">
      <acc value="0.0238084190" flag="0"/>
      <vel value="0.0086254411" flag="0"/>
      <psa03 value="0.0439612406" flag="0"/>
      <psa10 value="0.0056034711" flag="0"/>
      <psa30 value="0.0005998407" flag="0"/>
    </comp>
  </station>
  <station code="GR26" name="GR26" netid="1Y" insttype="Horizon,120s,1200" lat="38.4" lon="23.4107">
    <comp name="00.HHZ">
      <acc value="0.0108611724" flag="0"/>
      <vel value="0.0044196666" flag="0"/>
      <psa03 value="0.0170477220" flag="0"/>
      <psa10 value="0.0061918048" flag="0"/>
      <psa30 value="0.0004775496" flag="0"/>
    </comp>
    <comp name="00.HHE">
      <acc value="0.0124208172" flag="0"/>
      <vel value="0.0074903024" flag="0"/>
      <psa03 value="0.0259551788" flag="0"/>
      <psa10 value="0.0069842677" flag="0"/>
      <psa30 value="0.0005793704" flag="0"/>
    </comp>
    <comp name="00.HHN">
      <acc value="0.0201347713" flag="0"/>
      <vel value="0.0070668018" flag="0"/>
      <psa03 value="0.0622786337" flag="0"/>
      <psa10 value="0.0106508991" flag="0"/>
      <psa30 value="0.0006242102" flag="0"/>
    </comp>
  </station>
  <station code="GR29" name="GR29" netid="1Y" insttype="Horizon,120s,1200" lat="37.7042" lon="21.9225">
    <comp name="00.HHN">
      <acc value="0.0225376379" flag="0"/>
      <vel value="0.0100963503" flag="0"/>
      <psa03 value="0.0407684852" flag="0"/>
      <psa10 value="0.0138996482" flag="0"/>
      <psa30 value="0.0006068235" flag="0"/>
    </comp>
    <comp name="00.HHZ">
      <acc value="0.0155069764" flag="0"/>
      <vel value="0.0062245417" flag="0"/>
      <psa03 value="0.0531416382" flag="0"/>
      <psa10 value="0.0063750217" flag="0"/>
      <psa30 value="0.0004640967" flag="0"/>
    </comp>
    <comp name="00.HHE">
      <acc value="0.0232522887" flag="0"/>
      <vel value="0.0096769868" flag="0"/>
      <psa03 value="0.0392224319" flag="0"/>
      <psa10 value="0.0110679977" flag="0"/>
      <psa30 value="0.0005962518" flag="0"/>
    </comp>
  </station>
  <station code="GR30" name="GR30" netid="1Y" insttype="Horizon,120s,1200" lat="37.5217" lon="22.5774">
    <comp name="00.HHE">
      <acc value="0.1210736143" flag="0"/>
      <vel value="0.0179043579" flag="0"/>
      <psa03 value="0.0940334455" flag="0"/>
      <psa10 value="0.0074624228" flag="0"/>
      <psa30 value="0.0005819522" flag="0"/>
    </comp>
    <comp name="00.HHN">
      <acc value="0.0890861120" flag="0"/>
      <vel value="0.0218990407" flag="0"/>
      <psa03 value="0.0888094426" flag="0"/>
      <psa10 value="0.0088233924" flag="0"/>
      <psa30 value="0.0007514917" flag="0"/>
    </comp>
    <comp name="00.HHZ">
      <acc value="0.0658811786" flag="0"/>
      <vel value="0.0120865951" flag="0"/>
      <psa03 value="0.0495805230" flag="0"/>
      <psa10 value="0.0055555937" flag="0"/>
      <psa30 value="0.0008657143" flag="0"/>
    </comp>
  </station>
  <station code="GR31" name="GR31" netid="1Y" insttype="Horizon,120s,1200" lat="37.0331" lon="22.5212">
    <comp name="00.HHE">
      <acc value="0.0166689044" flag="0"/>
      <vel value="0.0072391678" flag="0"/>
      <psa03 value="0.0401910579" flag="0"/>
      <psa10 value="0.0085788663" flag="0"/>
      <psa30 value="0.0005627493" flag="0"/>
    </comp>
    <comp name="00.HHN">
      <acc value="0.0113047838" flag="0"/>
      <vel value="0.0074592714" flag="0"/>
      <psa03 value="0.0270091467" flag="0"/>
      <psa10 value="0.0082753110" flag="0"/>
      <psa30 value="0.0004965728" flag="0"/>
    </comp>
    <comp name="00.HHZ">
      <acc value="0.0187525588" flag="0"/>
      <vel value="0.0060110115" flag="0"/>
      <psa03 value="0.0291262096" flag="0"/>
      <psa10 value="0.0062730154" flag="0"/>
      <psa30 value="0.0004669887" flag="0"/>
    </comp>
  </station>
  <station code="ACOR" name="ACOR" netid="HA" insttype="Horizon,120s,1200" lat="37.8905" lon="22.8694">
    <comp name="--.HHN">
      <acc value="0.1196200004" flag="0"/>
      <vel value="0.0503305519" flag="0"/>
      <psa03 value="0.1498929027" flag="0"/>
      <psa10 value="0.0505070959" flag="0"/>
      <psa30 value="0.0055208539" flag="0"/>
    </comp>
    <comp name="--.HHZ">
      <acc value="0.0994357337" flag="0"/>
      <vel value="0.0358239536" flag="0"/>
      <psa03 value="0.2622656112" flag="0"/>
      <psa10 value="0.0393563403" flag="0"/>
      <psa30 value="0.0037429067" flag="0"/>
    </comp>
    <comp name="--.HHE">
      <acc value="0.0973603716" flag="0"/>
      <vel value="0.0361154443" flag="0"/>
      <psa03 value="0.1264603615" flag="0"/>
      <psa10 value="0.0542235753" flag="0"/>
      <psa30 value="0.0027818048" flag="0"/>
    </comp>
  </station>
  <station code="AMPE" name="AMPE" netid="HA" insttype="1s-100Hz," lat="38.3015" lon="23.2688">
    <comp name="--.HHE">
      <acc value="0.0194752701" flag="0"/>
      <vel value="0.0088771601" flag="0"/>
      <psa03 value="0.0336595671" flag="0"/>
      <psa10 value="0.0146282419" flag="0"/>
      <psa30 value="0.0010493794" flag="0"/>
    </comp>
    <comp name="--.HHZ">
      <acc value="0.0131472036" flag="0"/>
      <vel value="0.0056358791" flag="0"/>
      <psa03 value="0.0216573132" flag="0"/>
      <psa10 value="0.0092178608" flag="0"/>
      <psa30 value="0.0004805391" flag="0"/>
    </comp>
    <comp name="--.HHN">
      <acc value="0.0177959658" flag="0"/>
      <vel value="0.0098519830" flag="0"/>
      <psa03 value="0.0415802650" flag="0"/>
      <psa10 value="0.0124280542" flag="0"/>
      <psa30 value="0.0020700753" flag="0"/>
    </comp>
  </station>
  <station code="ATHU" name="ATHU" netid="HA" insttype="60s," lat="37.9665" lon="23.7845">
    <comp name="--.HHE">
      <acc value="0.0048572439" flag="0"/>
      <vel value="0.0016471154" flag="0"/>
      <psa03 value="0.0072126514" flag="0"/>
      <psa10 value="0.0011632605" flag="0"/>
      <psa30 value="0.0001216650" flag="0"/>
    </comp>
    <comp name="--.HHZ">
      <acc value="0.0034879349" flag="0"/>
      <vel value="0.0013195123" flag="0"/>
      <psa03 value="0.0055538789" flag="0"/>
      <psa10 value="0.0012712091" flag="0"/>
      <psa30 value="0.0001373200" flag="0"/>
    </comp>
    <comp name="--.HHN">
      <acc value="0.0040420593" flag="0"/>
      <vel value="0.0014240190" flag="0"/>
      <psa03 value="0.0101308535" flag="0"/>
      <psa10 value="0.0011591584" flag="0"/>
      <psa30 value="0.0000919236" flag="0"/>
    </comp>
  </station>
  <station code="AXAR" name="AXAR" netid="HA" insttype="Horizon,120s,1200" lat="38.7664" lon="22.659">
    <comp name="--.HHN">
      <acc value="0.0359291487" flag="0"/>
      <vel value="0.0166585352" flag="0"/>
      <psa03 value="0.1142982411" flag="0"/>
      <psa10 value="0.0156820059" flag="0"/>
      <psa30 value="0.0010924686" flag="0"/>
    </comp>
    <comp name="--.HHE">
      <acc value="0.0428853123" flag="0"/>
      <vel value="0.0181707876" flag="0"/>
      <psa03 value="0.1354130357" flag="0"/>
      <psa10 value="0.0215773141" flag="0"/>
      <psa30 value="0.0022426920" flag="0"/>
    </comp>
    <comp name="--.HHZ">
      <acc value="0.0214310941" flag="0"/>
      <vel value="0.0107923604" flag="0"/>
      <psa03 value="0.0804370845" flag="0"/>
      <psa10 value="0.0191336665" flag="0"/>
      <psa30 value="0.0006676410" flag="0"/>
    </comp>
  </station>
  <station code="DOMV" name="DOMV" netid="HA" insttype="60" lat="38.2569" lon="22.9795">
    <comp name="--.HHN">
      <acc value="0.0823469625" flag="0"/>
      <vel value="0.0180035074" flag="0"/>
      <psa03 value="0.1294909344" flag="0"/>
      <psa10 value="0.0120930296" flag="0"/>
      <psa30 value="0.0007930349" flag="0"/>
    </comp>
    <comp name="--.HHE">
      <acc value="0.0971434330" flag="0"/>
      <vel value="0.0218793159" flag="0"/>
      <psa03 value="0.1094068862" flag="0"/>
      <psa10 value="0.0150917199" flag="0"/>
      <psa30 value="0.0012335756" flag="0"/>
    </comp>
    <comp name="--.HHZ">
      <acc value="0.0593115011" flag="0"/>
      <vel value="0.0113331045" flag="0"/>
      <psa03 value="0.0470596718" flag="0"/>
      <psa10 value="0.0057839121" flag="0"/>
      <psa30 value="0.0004190523" flag="0"/>
    </comp>
  </station>
  <station code="EPID" name="EPID" netid="HA" insttype="30" lat="37.6144" lon="23.1189">
    <comp name="--.HHE">
      <acc value="0.0812312725" flag="0"/>
      <vel value="0.0298656702" flag="0"/>
      <psa03 value="0.1009407055" flag="0"/>
      <psa10 value="0.0118226157" flag="0"/>
      <psa30 value="0.0009675227" flag="0"/>
    </comp>
    <comp name="--.HHN">
      <acc value="0.0882444779" flag="0"/>
      <vel value="0.0264834110" flag="0"/>
      <psa03 value="0.1142017318" flag="0"/>
      <psa10 value="0.0133006333" flag="0"/>
      <psa30 value="0.0009642770" flag="0"/>
    </comp>
    <comp name="--.HHZ">
      <acc value="0.0763963662" flag="0"/>
      <vel value="0.0192516676" flag="0"/>
      <psa03 value="0.1259863305" flag="0"/>
      <psa10 value="0.0094891981" flag="0"/>
      <psa30 value="0.0008342339" flag="0"/>
    </comp>
  </station>
  <station code="ERTR" name="ERTR" netid="HA" insttype="Horizon,120s,1200" lat="38.4066" lon="23.7865">
    <comp name="--.HHN">
      <acc value="0.0072032354" flag="0"/>
      <vel value="0.0043109322" flag="0"/>
      <psa03 value="0.0237024395" flag="0"/>
      <psa10 value="0.0063365343" flag="0"/>
      <psa30 value="0.0004292352" flag="0"/>
    </comp>
    <comp name="--.HHZ">
      <acc value="0.0046179909" flag="0"/>
      <vel value="0.0024005614" flag="0"/>
      <psa03 value="0.0130690193" flag="0"/>
      <psa10 value="0.0021464021" flag="0"/>
      <psa30 value="0.0001913185" flag="0"/>
    </comp>
    <comp name="--.HHE">
      <acc value="0.0061982281" flag="0"/>
      <vel value="0.0032765337" flag="0"/>
      <psa03 value="0.0168848046" flag="0"/>
      <psa10 value="0.0034353071" flag="0"/>
      <psa30 value="0.0002765791" flag="0"/>
    </comp>
  </station>
  <station code="KALE" name="KALE" netid="HA" insttype="40," lat="38.3911" lon="22.1398">
    <comp name="--.HHZ">
      <acc value="0.0179642305" flag="0"/>
      <vel value="0.0057611772" flag="0"/>
      <psa03 value="0.0219722882" flag="0"/>
      <psa10 value="0.0057595880" flag="0"/>
      <psa30 value="0.0005731015" flag="0"/>
    </comp>
    <comp name="--.HHE">
      <acc value="0.0221315201" flag="0"/>
      <vel value="0.0083493620" flag="0"/>
      <psa03 value="0.0468973690" flag="0"/>
      <psa10 value="0.0092021343" flag="0"/>
      <psa30 value="0.0010963411" flag="0"/>
    </comp>
    <comp name="--.HHN">
      <acc value="0.0378784154" flag="0"/>
      <vel value="0.0101453162" flag="0"/>
      <psa03 value="0.0613538155" flag="0"/>
      <psa10 value="0.0078453544" flag="0"/>
      <psa30 value="0.0006585388" flag="0"/>
    </comp>
  </station>
  <station code="KIAS" name="KIAS" netid="HA" insttype="DC" lat="37.9875" lon="22.7543">
    <comp name="--.HNN">
      <acc value="6.7692514606" flag="0"/>
      <vel value="1.7203855913" flag="0"/>
      <psa03 value="5.5319527253" flag="0"/>
      <psa10 value="0.3285270863" flag="0"/>
      <psa30 value="0.0254668083" flag="0"/>
    </comp>
    <comp name="--.HNZ">
      <acc value="3.4124346734" flag="0"/>
      <vel value="0.4415513063" flag="0"/>
      <psa03 value="1.8684956857" flag="0"/>
      <psa10 value="0.1758204142" flag="0"/>
      <psa30 value="0.0099349814" flag="0"/>
    </comp>
    <comp name="--.HNE">
      <acc value="7.2130554115" flag="0"/>
      <vel value="2.3710142106" flag="0"/>
      <psa03 value="9.7917060442" flag="0"/>
      <psa10 value="0.7987200372" flag="0"/>
      <psa30 value="0.0969612818" flag="0"/>
    </comp>
  </station>
  <station code="LAKA" name="LAKA" netid="HA" insttype="120s," lat="38.2401" lon="21.9785">
    <comp name="--.HHE">
      <acc value="0.0036193612" flag="0"/>
      <vel value="0.0015097219" flag="0"/>
      <psa03 value="0.0079343190" flag="0"/>
      <psa10 value="0.0013673114" flag="0"/>
      <psa30 value="0.0001373113" flag="0"/>
    </comp>
    <comp name="--.HHN">
      <acc value="0.0052521044" flag="0"/>
      <vel value="0.0014098315" flag="0"/>
      <psa03 value="0.0066886391" flag="0"/>
      <psa10 value="0.0007995649" flag="0"/>
      <psa30 value="0.0002035090" flag="0"/>
    </comp>
    <comp name="--.HHZ">
      <acc value="0.0031976481" flag="0"/>
      <vel value="0.0011497930" flag="0"/>
      <psa03 value="0.0034182151" flag="0"/>
      <psa10 value="0.0013888193" flag="0"/>
      <psa30 value="0.0001019044" flag="0"/>
    </comp>
  </station>
  <station code="LOUT" name="LOUT" netid="HA" insttype="30" lat="37.9879" lon="22.9743">
    <comp name="--.HHE">
      <acc value="0.3066260316" flag="0"/>
      <vel value="0.0940612910" flag="0"/>
      <psa03 value="0.4271803571" flag="0"/>
      <psa10 value="0.0772193345" flag="0"/>
      <psa30 value="0.0038290008" flag="0"/>
    </comp>
    <comp name="--.HHN">
      <acc value="0.2585080125" flag="0"/>
      <vel value="0.0716778733" flag="0"/>
      <psa03 value="0.3305577668" flag="0"/>
      <psa10 value="0.0797581532" flag="0"/>
      <psa30 value="0.0034957611" flag="0"/>
    </comp>
    <comp name="--.HHZ">
      <acc value="0.2206093712" flag="0"/>
      <vel value="0.0412058230" flag="0"/>
      <psa03 value="0.1491677543" flag="0"/>
      <psa10 value="0.0338660149" flag="0"/>
      <psa30 value="0.0015112528" flag="0"/>
    </comp>
  </station>
  <station code="LTRS" name="LTRS" netid="HA" insttype="DC" lat="37.9753" lon="22.9765">
    <comp name="--.HNE">
      <acc value="0.1388644108" flag="0"/>
      <vel value="0.0879243372" flag="0"/>
      <psa03 value="0.3614454420" flag="0"/>
      <psa10 value="0.1334495117" flag="0"/>
      <psa30 value="0.0064904445" flag="0"/>
    </comp>
    <comp name="--.HNN">
      <acc value="0.1585650721" flag="0"/>
      <vel value="0.1212613722" flag="0"/>
      <psa03 value="0.5022996111" flag="0"/>
      <psa10 value="0.1598002170" flag="0"/>
      <psa30 value="0.0069004791" flag="0"/>
    </comp>
    <comp name="--.HNZ">
      <acc value="0.1570703774" flag="0"/>
      <vel value="0.0548593336" flag="0"/>
      <psa03 value="0.3419131051" flag="0"/>
      <psa10 value="0.0720025838" flag="0"/>
      <psa30 value="0.0036807461" flag="0"/>
    </comp>
  </station>
  <station code="MDRA" name="MDRA" netid="HA" insttype="60" lat="38.0606" lon="23.4662">
    <comp name="--.HHE">
      <acc value="0.0088041136" flag="0"/>
      <vel value="0.0023365101" flag="0"/>
      <psa03 value="0.0112229328" flag="0"/>
      <psa10 value="0.0023748419" flag="0"/>
      <psa30 value="0.0001941518" flag="0"/>
    </comp>
    <comp name="--.HHN">
      <acc value="0.0102741133" flag="0"/>
      <vel value="0.0037285389" flag="0"/>
      <psa03 value="0.0167737868" flag="0"/>
      <psa10 value="0.0034029552" flag="0"/>
      <psa30 value="0.0002153265" flag="0"/>
    </comp>
    <comp name="--.HHZ">
      <acc value="0.0098235762" flag="0"/>
      <vel value="0.0023923009" flag="0"/>
      <psa03 value="0.0119608241" flag="0"/>
      <psa10 value="0.0026570610" flag="0"/>
      <psa30 value="0.0002181743" flag="0"/>
    </comp>
  </station>
  <station code="MRKA" name="MRKA" netid="HA" insttype="Horizon,120s,1200" lat="38.7047" lon="23.5863">
    <comp name="--.HHE">
      <acc value="0.0078318001" flag="0"/>
      <vel value="0.0036122396" flag="0"/>
      <psa03 value="0.0154613776" flag="0"/>
      <psa10 value="0.0048393864" flag="0"/>
      <psa30 value="0.0005781063" flag="0"/>
    </comp>
    <comp name="--.HHN">
      <acc value="0.0084086075" flag="0"/>
      <vel value="0.0038670522" flag="0"/>
      <psa03 value="0.0160238725" flag="0"/>
      <psa10 value="0.0070035794" flag="0"/>
      <psa30 value="0.0004245213" flag="0"/>
    </comp>
    <comp name="--.HHZ">
      <acc value="0.0051364131" flag="0"/>
      <vel value="0.0036540232" flag="0"/>
      <psa03 value="0.0109540947" flag="0"/>
      <psa10 value="0.0046157046" flag="0"/>
      <psa30 value="0.0003648042" flag="0"/>
    </comp>
  </station>
  <station code="MRTH" name="MRTH" netid="HA" insttype="S100," lat="38.1225" lon="23.9409">
    <comp name="--.HHZ">
      <acc value="0.0143179194" flag="0"/>
      <vel value="0.0057910554" flag="0"/>
      <psa03 value="0.0403128340" flag="0"/>
      <psa10 value="0.0044956842" flag="0"/>
      <psa30 value="0.0003138087" flag="0"/>
    </comp>
    <comp name="--.HHE">
      <acc value="0.0202410306" flag="0"/>
      <vel value="0.0063212237" flag="0"/>
      <psa03 value="0.0357311174" flag="0"/>
      <psa10 value="0.0070309094" flag="0"/>
      <psa30 value="0.0004627547" flag="0"/>
    </comp>
    <comp name="--.HHN">
      <acc value="0.0175603974" flag="0"/>
      <vel value="0.0087152921" flag="0"/>
      <psa03 value="0.0291345027" flag="0"/>
      <psa10 value="0.0089273479" flag="0"/>
      <psa30 value="0.0003443737" flag="0"/>
    </comp>
  </station>
  <station code="PSAH" name="PSAH" netid="HA" insttype="25" lat="38.5694" lon="23.6473">
    <comp name="--.HHN">
      <acc value="0.0014494822" flag="0"/>
      <vel value="0.0010956974" flag="0"/>
      <psa03 value="0.0039860332" flag="0"/>
      <psa10 value="0.0016138421" flag="0"/>
      <psa30 value="0.0001464345" flag="0"/>
    </comp>
    <comp name="--.HHZ">
