<?xml version="1.0" encoding="UTF-8" standalone="yes"?>
<!DOCTYPE earthquake SYSTEM "stationlist.dtd">
<stationlist created="" xmlns="ch.ethz.sed.shakemap.usgs.xml">
  <station code="KLV" name="KLV" netid="MN" insttype="" lat="38.0437" lon="22.1504">
    <comp name="--.HHE">
      <acc value="0.0460429255" flag="0"/>
      <vel value="0.0079929983" flag="0"/>
      <psa03 value="0.0405751461" flag="0"/>
      <psa10 value="0.0067633732" flag="0"/>
      <psa30 value="0.0004733208" flag="0"/>
    </comp>
    <comp name="--.HHN">
      <acc value="0.0543555269" flag="0"/>
      <vel value="0.0078547813" flag="0"/>
      <psa03 value="0.0379993950" flag="0"/>
      <psa10 value="0.0046233025" flag="0"/>
      <psa30 value="0.0004048850" flag="0"/>
    </comp>
    <comp name="--.HHZ">
      <acc value="0.0535745803" flag="0"/>
      <vel value="0.0076686438" flag="0"/>
      <psa03 value="0.0249181590" flag="0"/>
      <psa10 value="0.0083743567" flag="0"/>
      <psa30 value="0.0007657195" flag="0"/>
    </comp>
  </station>
</stationlist>
