<?xml version="1.0" encoding="UTF-8" standalone="yes"?>
<!DOCTYPE earthquake SYSTEM "stationlist.dtd">
<stationlist created="" xmlns="ch.ethz.sed.shakemap.usgs.xml">
  <station code="BAYT" name="BAYT" netid="KO" insttype="CMG-3ESPC" lat="40.3937" lon="40.141">
    <comp name="--.HHZ">
      <acc value="0.0015417806" flag="0"/>
      <vel value="0.0006548766" flag="0"/>
      <psa03 value="0.0059550397" flag="0"/>
      <psa10 value="0.0001632783" flag="0"/>
      <psa30 value="0.0000205908" flag="0"/>
    </comp>
    <comp name="--.HHE">
      <acc value="0.0281764804" flag="0"/>
      <vel value="0.0111213284" flag="0"/>
      <psa03 value="0.0330783815" flag="0"/>
      <psa10 value="0.0072431097" flag="0"/>
      <psa30 value="0.0012337141" flag="0"/>
    </comp>
    <comp name="--.HHN">
      <acc value="0.0274130948" flag="0"/>
      <vel value="0.0093585216" flag="0"/>
      <psa03 value="0.0641730595" flag="0"/>
      <psa10 value="0.0088396104" flag="0"/>
      <psa30 value="0.0005440152" flag="0"/>
    </comp>
  </station>
  <station code="ERZN" name="ERZN" netid="KO" insttype="CMG-3ESP" lat="39.5867" lon="39.722">
    <comp name="--.HHN">
      <acc value="0.2147798214" flag="0"/>
      <vel value="0.0388006388" flag="0"/>
      <psa03 value="0.1061675948" flag="0"/>
      <psa10 value="0.0116474675" flag="0"/>
      <psa30 value="0.0014190898" flag="0"/>
    </comp>
  </station>
  <station code="YEDI" name="YEDI" netid="KO" insttype="CMG-3T" lat="39.4377" lon="40.5443">
    <comp name="--.HHE">
      <acc value="0.0119835714" flag="0"/>
      <vel value="0.0049892675" flag="0"/>
      <psa03 value="0.0182295017" flag="0"/>
      <psa10 value="0.0050319409" flag="0"/>
      <psa30 value="0.0002884679" flag="0"/>
    </comp>
    <comp name="--.HHZ">
      <acc value="0.0000335986" flag="0"/>
      <vel value="0.0000032143" flag="0"/>
      <psa03 value="0.0000097407" flag="0"/>
      <psa10 value="0.0000037881" flag="0"/>
      <psa30 value="0.0000006584" flag="0"/>
    </comp>
  </station>
</stationlist>
