<stationlist created="1741951943">
	<station code="BODA" name="BODA" netid="KO" source="Bogazici University Kandilli Observatory And Earthquake Research Institute (KOERI)" insttype="" lat="37.0348" lon="27.4304">
		<comp name=".HNE" depth="0.0">
			<acc value="0.0059979413401746" flag="0"/>
			<vel value="0.00221084044565" flag="0"/>
			<psa03 value="0.0133844725931396" flag="0"/>
			<psa10 value="0.00195791270992127" flag="0"/>
			<psa30 value="0.000242690347877799" flag="0"/>
		</comp>
		<comp name=".HNN" depth="0.0">
			<acc value="0.0056711678023638" flag="0"/>
			<vel value="0.00234499216603" flag="0"/>
			<psa03 value="0.0140439576870117" flag="0"/>
			<psa10 value="0.00243744584382471" flag="0"/>
			<psa30 value="0.000219331352542543" flag="0"/>
		</comp>
		<comp name=".HNZ" depth="0.0">
			<acc value="0.010231012878762" flag="0"/>
			<vel value="0.00136972853141" flag="0"/>
			<psa03 value="0.00317310636157608" flag="0"/>
			<psa10 value="0.000846127594770348" flag="0"/>
			<psa30 value="0.000218013153239126" flag="0"/>
		</comp>
	</station>
	<station code="BODM" name="BODM" netid="KO" source="Bogazici University Kandilli Observatory And Earthquake Research Institute (KOERI)" insttype="" lat="37.031" lon="27.4247">
		<comp name=".HNE" depth="0.0">
			<acc value="0.0046097411286642" flag="0"/>
			<vel value="0.00287019046415" flag="0"/>
			<psa03 value="0.0111968146506869" flag="0"/>
			<psa10 value="0.00178172592122477" flag="0"/>
			<psa30 value="0.0002191842334214" flag="0"/>
		</comp>
		<comp name=".HNN" depth="0.0">
			<acc value="0.0070085471345442" flag="0"/>
			<vel value="0.00507426595825" flag="0"/>
			<psa03 value="0.0152603689974796" flag="0"/>
			<psa10 value="0.00361164230045125" flag="0"/>
			<psa30 value="0.000243069930315023" flag="0"/>
		</comp>
		<comp name=".HNZ" depth="0.0">
			<acc value="0.0032165610325476" flag="0"/>
			<vel value="0.000766306531718" flag="0"/>
			<psa03 value="0.00329247722504172" flag="0"/>
			<psa10 value="0.000603494724656428" flag="0"/>
			<psa30 value="0.000242772462692565" flag="0"/>
		</comp>
	</station>
	<station code="CESE" name="CESE" netid="KO" source="Bogazici University Kandilli Observatory And Earthquake Research Institute (KOERI)" insttype="" lat="38.3306" lon="26.2997">
		<comp name=".HNE" depth="0.0">
			<acc value="0.074464153947042" flag="0"/>
			<vel value="0.00387700121737" flag="0"/>
			<psa03 value="0.00328041815795864" flag="0"/>
			<psa10 value="0.0018451423878791" flag="0"/>
			<psa30 value="0.00055750068168341" flag="0"/>
		</comp>
		<comp name=".HNN" depth="0.0">
			<acc value="0.05138535043896" flag="0"/>
			<vel value="0.00390572308132" flag="0"/>
			<psa03 value="0.00475672168498906" flag="0"/>
			<psa10 value="0.00278096180319769" flag="0"/>
			<psa30 value="0.00103543244648321" flag="0"/>
		</comp>
		<comp name=".HNZ" depth="0.0">
			<acc value="0.009042721089507" flag="0"/>
			<vel value="0.00129475061555" flag="0"/>
			<psa03 value="0.00282272149665609" flag="0"/>
			<psa10 value="0.00126220130995478" flag="0"/>
			<psa30 value="0.000458680020718529" flag="0"/>
		</comp>
	</station>
	<station code="DATC" name="DATC" netid="KO" source="Bogazici University Kandilli Observatory And Earthquake Research Institute (KOERI)" insttype="" lat="36.7584" lon="27.6602">
		<comp name=".HNE" depth="0.0">
			<acc value="0.016580432700132" flag="0"/>
			<vel value="0.00302000825764" flag="0"/>
			<psa03 value="0.00843049858332295" flag="0"/>
			<psa10 value="0.00475695153093929" flag="0"/>
			<psa30 value="0.000616379790471218" flag="0"/>
		</comp>
		<comp name=".HNN" depth="0.0">
			<acc value="0.021177824017014" flag="0"/>
			<vel value="0.00271420286136" flag="0"/>
			<psa03 value="0.00661741037616113" flag="0"/>
			<psa10 value="0.00324833932716333" flag="0"/>
			<psa30 value="0.000817948195472487" flag="0"/>
		</comp>
		<comp name=".HNZ" depth="0.0">
			<acc value="0.029395550685882" flag="0"/>
			<vel value="0.00493015745468" flag="0"/>
			<psa03 value="0.00679510183487214" flag="0"/>
			<psa10 value="0.00603413754450662" flag="0"/>
			<psa30 value="0.000631588245872077" flag="0"/>
		</comp>
	</station>
	<station code="DIDI" name="DIDI" netid="KO" source="Bogazici University Kandilli Observatory And Earthquake Research Institute (KOERI)" insttype="" lat="37.3767" lon="27.2398">
		<comp name=".HNE" depth="0.0">
			<acc value="0.043049070962436" flag="0"/>
			<vel value="0.00865207275499" flag="0"/>
			<psa03 value="0.0312848849700857" flag="0"/>
			<psa10 value="0.00774615923879244" flag="0"/>
			<psa30 value="0.00141426577150055" flag="0"/>
		</comp>
		<comp name=".HNN" depth="0.0">
			<acc value="0.048839640825894" flag="0"/>
			<vel value="0.0070378913511" flag="0"/>
			<psa03 value="0.032105733618113" flag="0"/>
			<psa10 value="0.00777709222542654" flag="0"/>
			<psa30 value="0.00106125790729461" flag="0"/>
		</comp>
		<comp name=".HNZ" depth="0.0">
			<acc value="0.084922411839588" flag="0"/>
			<vel value="0.0113890369313" flag="0"/>
			<psa03 value="0.025693209861576" flag="0"/>
			<psa10 value="0.00359976666999837" flag="0"/>
			<psa30 value="0.000411460173883964" flag="0"/>
		</comp>
	</station>
	<station code="GMLD" name="GMLD" netid="KO" source="Bogazici University Kandilli Observatory And Earthquake Research Institute (KOERI)" insttype="" lat="38.0766" lon="26.9157">
		<comp name=".HNE" depth="0.0">
			<acc value="0.0122155453113" flag="0"/>
			<vel value="0.00619505226042" flag="0"/>
			<psa03 value="0.0393622898501831" flag="0"/>
			<psa10 value="0.00469424175172995" flag="0"/>
			<psa30 value="0.000691069634138466" flag="0"/>
		</comp>
		<comp name=".HNN" depth="0.0">
			<acc value="0.01026845758815" flag="0"/>
			<vel value="0.00642624115748" flag="0"/>
			<psa03 value="0.0229272662146936" flag="0"/>
			<psa10 value="0.00557115624924904" flag="0"/>
			<psa30 value="0.000396573458545497" flag="0"/>
		</comp>
		<comp name=".HNZ" depth="0.0">
			<acc value="0.0073992668168454" flag="0"/>
			<vel value="0.00260789288217" flag="0"/>
			<psa03 value="0.0173961198554944" flag="0"/>
			<psa10 value="0.00145843329373398" flag="0"/>
			<psa30 value="0.000387346388964087" flag="0"/>
		</comp>
	</station>
	<station code="KUSD" name="KUSD" netid="KO" source="Bogazici University Kandilli Observatory And Earthquake Research Institute (KOERI)" insttype="" lat="37.8606" lon="27.2868">
		<comp name=".HNE" depth="0.0">
			<acc value="0.0056201555060598" flag="0"/>
			<vel value="0.00183322998197" flag="0"/>
			<psa03 value="0.00616064964927603" flag="0"/>
			<psa10 value="0.00242178129050197" flag="0"/>
			<psa30 value="0.000413012672562548" flag="0"/>
		</comp>
		<comp name=".HNN" depth="0.0">
			<acc value="0.0140276950083" flag="0"/>
			<vel value="0.00202187990299" flag="0"/>
			<psa03 value="0.00707224454313662" flag="0"/>
			<psa10 value="0.00220396357989731" flag="0"/>
			<psa30 value="0.000569698156375533" flag="0"/>
		</comp>
		<comp name=".HNZ" depth="0.0">
			<acc value="0.0028506287587542" flag="0"/>
			<vel value="0.00113187538956" flag="0"/>
			<psa03 value="0.00359122553127625" flag="0"/>
			<psa10 value="0.000994319657859017" flag="0"/>
			<psa30 value="0.000435621331733641" flag="0"/>
		</comp>
	</station>
	<station code="YKAV" name="YKAV" netid="KO" source="Bogazici University Kandilli Observatory And Earthquake Research Institute (KOERI)" insttype="" lat="37.1246" lon="27.2801">
		<comp name=".HNE" depth="0.0">
			<acc value="0.0080796939184296" flag="0"/>
			<vel value="0.00304963239339" flag="0"/>
			<psa03 value="0.0132850884052188" flag="0"/>
			<psa10 value="0.00350547229846243" flag="0"/>
			<psa30 value="0.000512313886196283" flag="0"/>
		</comp>
		<comp name=".HNN" depth="0.0">
			<acc value="0.0072766561202496" flag="0"/>
			<vel value="0.00252425017006" flag="0"/>
			<psa03 value="0.010513163893441" flag="0"/>
			<psa10 value="0.00282793858705432" flag="0"/>
			<psa30 value="0.000419320746691727" flag="0"/>
		</comp>
		<comp name=".HNZ" depth="0.0">
			<acc value="0.0063898581816654" flag="0"/>
			<vel value="0.00212311514957" flag="0"/>
			<psa03 value="0.015517288360879" flag="0"/>
			<psa10 value="0.00187996508533718" flag="0"/>
			<psa30 value="0.000475624893230157" flag="0"/>
		</comp>
	</station>
</stationlist>
