<?xml version="1.0" encoding="UTF-8" standalone="yes"?>
<!DOCTYPE earthquake SYSTEM "stationlist.dtd">
<stationlist created="" xmlns="ch.ethz.sed.shakemap.usgs.xml">
  <station code="APE" name="APE" netid="GE" insttype="STS-2/N" lat="37.0727" lon="25.523">
    <comp name="--.HHZ">
      <acc value="0.0522816014" flag="0"/>
      <vel value="0.0134974343" flag="0"/>
      <psa03 value="0.0485670094" flag="0"/>
      <psa10 value="0.0067539649" flag="0"/>
      <psa30 value="0.0026673247" flag="0"/>
    </comp>
    <comp name="--.HHE">
      <acc value="0.1381333702" flag="0"/>
      <vel value="0.0275303801" flag="0"/>
      <psa03 value="0.0774081579" flag="0"/>
      <psa10 value="0.0065666007" flag="0"/>
      <psa30 value="0.0019196618" flag="0"/>
    </comp>
    <comp name="--.HHN">
      <acc value="0.1638339730" flag="0"/>
      <vel value="0.0526984390" flag="0"/>
      <psa03 value="0.1091955539" flag="0"/>
      <psa10 value="0.0075484613" flag="0"/>
      <psa30 value="0.0023086160" flag="0"/>
    </comp>
  </station>
  <station code="THERA" name="THERA" netid="GE" insttype="STS-2/N" lat="36.367" lon="25.4753">
    <comp name="--.HHE">
      <acc value="0.0769446185" flag="0"/>
      <vel value="0.0160024902" flag="0"/>
      <psa03 value="0.0900220720" flag="0"/>
      <psa10 value="0.0140776323" flag="0"/>
      <psa30 value="0.0025732988" flag="0"/>
    </comp>
    <comp name="--.HHN">
      <acc value="0.0602422069" flag="0"/>
      <vel value="0.0142467274" flag="0"/>
      <psa03 value="0.0814158333" flag="0"/>
      <psa10 value="0.0055386590" flag="0"/>
      <psa30 value="0.0011885338" flag="0"/>
    </comp>
    <comp name="--.HHZ">
      <acc value="0.0900991679" flag="0"/>
      <vel value="0.0178253376" flag="0"/>
      <psa03 value="0.0667374865" flag="0"/>
      <psa10 value="0.0090334992" flag="0"/>
      <psa30 value="0.0014621868" flag="0"/>
    </comp>
  </station>
  <station code="SERI" name="SERI" netid="HA" insttype="30" lat="37.1609" lon="24.4853">
    <comp name="--.HHZ">
      <acc value="0.0183884185" flag="0"/>
      <vel value="0.0053136039" flag="0"/>
      <psa03 value="0.0231669716" flag="0"/>
      <psa10 value="0.0021177270" flag="0"/>
      <psa30 value="0.0010427996" flag="0"/>
    </comp>
    <comp name="--.HHE">
      <acc value="0.0206119152" flag="0"/>
      <vel value="0.0061146506" flag="0"/>
      <psa03 value="0.0362504732" flag="0"/>
      <psa10 value="0.0019910966" flag="0"/>
      <psa30 value="0.0005140358" flag="0"/>
    </comp>
    <comp name="--.HHN">
      <acc value="0.0314532976" flag="0"/>
      <vel value="0.0085541241" flag="0"/>
      <psa03 value="0.0533848275" flag="0"/>
      <psa10 value="0.0035261872" flag="0"/>
      <psa30 value="0.0006356803" flag="0"/>
    </comp>
  </station>
  <station code="SNT1" name="SNT1" netid="HA" insttype="30" lat="36.4159" lon="25.4282">
    <comp name="--.HHE">
      <acc value="0.0615055755" flag="0"/>
      <vel value="0.0229169229" flag="0"/>
      <psa03 value="0.0696714550" flag="0"/>
      <psa10 value="0.0270433282" flag="0"/>
      <psa30 value="0.0052705885" flag="0"/>
    </comp>
    <comp name="--.HHZ">
      <acc value="0.0646201422" flag="0"/>
      <vel value="0.0162759846" flag="0"/>
      <psa03 value="0.0623682632" flag="0"/>
      <psa10 value="0.0147828775" flag="0"/>
      <psa30 value="0.0028149513" flag="0"/>
    </comp>
    <comp name="--.HHN">
      <acc value="0.0607095101" flag="0"/>
      <vel value="0.0219851272" flag="0"/>
      <psa03 value="0.0861877493" flag="0"/>
      <psa10 value="0.0272430487" flag="0"/>
      <psa30 value="0.0069662693" flag="0"/>
    </comp>
  </station>
  <station code="NAX1" name="NAX1" netid="HI" insttype="CMG-5TD,ACCELEROMETER,GURALP" lat="37.1014" lon="25.3741">
    <comp name="--.HNE">
      <acc value="0.1314270694" flag="0"/>
      <vel value="0.0447715006" flag="0"/>
      <psa03 value="0.1515011718" flag="0"/>
      <psa10 value="0.0122099629" flag="0"/>
      <psa30 value="0.0009483345" flag="0"/>
    </comp>
    <comp name="--.HNN">
      <acc value="0.1147782029" flag="0"/>
      <vel value="0.0257197300" flag="0"/>
      <psa03 value="0.0778694154" flag="0"/>
      <psa10 value="0.0067710186" flag="0"/>
      <psa30 value="0.0017655936" flag="0"/>
    </comp>
    <comp name="--.HNZ">
      <acc value="0.0709393401" flag="0"/>
      <vel value="0.0160601452" flag="0"/>
      <psa03 value="0.0396683993" flag="0"/>
      <psa10 value="0.0061311284" flag="0"/>
      <psa30 value="0.0022673424" flag="0"/>
    </comp>
  </station>
  <station code="SFR2" name="SFR2" netid="HI" insttype="unknown" lat="36.3998" lon="25.4382">
    <comp name="--.HNZ">
      <acc value="0.2412324428" flag="0"/>
      <vel value="0.0566018961" flag="0"/>
      <psa03 value="0.2236861566" flag="0"/>
      <psa10 value="0.0233074803" flag="0"/>
      <psa30 value="0.0031774366" flag="0"/>
    </comp>
    <comp name="--.HNE">
      <acc value="0.2060946791" flag="0"/>
      <vel value="0.0813962398" flag="0"/>
      <psa03 value="0.2656994771" flag="0"/>
      <psa10 value="0.0331099388" flag="0"/>
      <psa30 value="0.0057884212" flag="0"/>
    </comp>
    <comp name="--.HNN">
      <acc value="0.2921866423" flag="0"/>
      <vel value="0.0742491498" flag="0"/>
      <psa03 value="0.3486261143" flag="0"/>
      <psa10 value="0.0551787983" flag="0"/>
      <psa30 value="0.0046102039" flag="0"/>
    </comp>
  </station>
  <station code="AMGA" name="AMGA" netid="HL" insttype="SMART24" lat="36.8316" lon="25.8938">
    <comp name="--.HHZ">
      <acc value="0.4815753388" flag="0"/>
      <vel value="0.0999617788" flag="0"/>
      <psa03 value="0.2060001631" flag="0"/>
      <psa10 value="0.0290116102" flag="0"/>
      <psa30 value="0.0040657420" flag="0"/>
    </comp>
    <comp name="--.HHN">
      <acc value="0.5376019916" flag="0"/>
      <vel value="0.1531751229" flag="0"/>
      <psa03 value="0.4816669624" flag="0"/>
      <psa10 value="0.0297523313" flag="0"/>
      <psa30 value="0.0054713954" flag="0"/>
    </comp>
    <comp name="--.HHE">
      <acc value="0.5671285890" flag="0"/>
      <vel value="0.1387147394" flag="0"/>
      <psa03 value="0.4285633117" flag="0"/>
      <psa10 value="0.0307064832" flag="0"/>
      <psa30 value="0.0054743218" flag="0"/>
    </comp>
  </station>
  <station code="APE" name="APE" netid="HL" insttype="120" lat="37.0727" lon="25.523">
    <comp name="--.HHE">
      <acc value="0.1243482588" flag="0"/>
      <vel value="0.0267773502" flag="0"/>
      <psa03 value="0.0746595812" flag="0"/>
      <psa10 value="0.0064575366" flag="0"/>
      <psa30 value="0.0019160468" flag="0"/>
    </comp>
    <comp name="--.HHN">
      <acc value="0.1524043036" flag="0"/>
      <vel value="0.0497084731" flag="0"/>
      <psa03 value="0.1049893292" flag="0"/>
      <psa10 value="0.0073291513" flag="0"/>
      <psa30 value="0.0023026435" flag="0"/>
    </comp>
    <comp name="--.HHZ">
      <acc value="0.0502672254" flag="0"/>
      <vel value="0.0130019254" flag="0"/>
      <psa03 value="0.0473209413" flag="0"/>
      <psa10 value="0.0066893111" flag="0"/>
      <psa30 value="0.0026648635" flag="0"/>
    </comp>
  </station>
  <station code="MHLO" name="MHLO" netid="HL" insttype="20" lat="36.6898" lon="24.4017">
    <comp name="--.HHE">
      <acc value="0.0446576424" flag="0"/>
      <vel value="0.0292947691" flag="0"/>
      <psa03 value="0.1183080153" flag="0"/>
      <psa10 value="0.0211151287" flag="0"/>
      <psa30 value="0.0023545929" flag="0"/>
    </comp>
    <comp name="--.HHN">
      <acc value="0.0520445938" flag="0"/>
      <vel value="0.0291242231" flag="0"/>
      <psa03 value="0.0822102074" flag="0"/>
      <psa10 value="0.0224747261" flag="0"/>
      <psa30 value="0.0014851602" flag="0"/>
    </comp>
    <comp name="--.HHZ">
      <acc value="0.0225080903" flag="0"/>
      <vel value="0.0137483871" flag="0"/>
      <psa03 value="0.0591586305" flag="0"/>
      <psa10 value="0.0122471489" flag="0"/>
      <psa30 value="0.0013819026" flag="0"/>
    </comp>
  </station>
  <station code="MILA" name="MILA" netid="HL" insttype="CMG-5" lat="36.7429" lon="24.4282">
    <comp name="00.HNE">
      <acc value="0.0625907194" flag="0"/>
      <vel value="0.0321326084" flag="0"/>
      <psa03 value="0.1121205207" flag="0"/>
      <psa10 value="0.0179704173" flag="0"/>
      <psa30 value="0.0021072123" flag="0"/>
    </comp>
    <comp name="00.HNN">
      <acc value="0.0808405863" flag="0"/>
      <vel value="0.0423789238" flag="0"/>
      <psa03 value="0.2127818307" flag="0"/>
      <psa10 value="0.0221209929" flag="0"/>
      <psa30 value="0.0018036897" flag="0"/>
    </comp>
    <comp name="00.HNZ">
      <acc value="0.0417656678" flag="0"/>
      <vel value="0.0170941132" flag="0"/>
      <psa03 value="0.1138110336" flag="0"/>
      <psa10 value="0.0134774455" flag="0"/>
      <psa30 value="0.0008506702" flag="0"/>
    </comp>
  </station>
  <station code="SANT" name="SANT" netid="HL" insttype="30" lat="36.3705" lon="25.4593">
    <comp name="--.HHE">
      <acc value="0.2273825150" flag="0"/>
      <vel value="0.0396867846" flag="0"/>
      <psa03 value="0.1483084751" flag="0"/>
      <psa10 value="0.0204956439" flag="0"/>
      <psa30 value="0.0026048634" flag="0"/>
    </comp>
    <comp name="--.HHN">
      <acc value="0.1934162823" flag="0"/>
      <vel value="0.0229334080" flag="0"/>
      <psa03 value="0.0911768721" flag="0"/>
      <psa10 value="0.0143946418" flag="0"/>
      <psa30 value="0.0022724843" flag="0"/>
    </comp>
    <comp name="--.HHZ">
      <acc value="0.1826745514" flag="0"/>
      <vel value="0.0385134555" flag="0"/>
      <psa03 value="0.0952963288" flag="0"/>
      <psa10 value="0.0109891027" flag="0"/>
      <psa30 value="0.0012679555" flag="0"/>
    </comp>
  </station>
  <station code="SAP3" name="SAP3" netid="HL" insttype="65535" lat="36.4356" lon="25.3454">
    <comp name="--.HHE">
      <acc value="0.1910074495" flag="0"/>
      <vel value="0.0530440061" flag="0"/>
      <psa03 value="0.2496239285" flag="0"/>
      <psa10 value="0.0249665353" flag="0"/>
      <psa30 value="0.0052896237" flag="0"/>
    </comp>
    <comp name="--.HHN">
      <acc value="0.1462772847" flag="0"/>
      <vel value="0.0402500386" flag="0"/>
      <psa03 value="0.1746880694" flag="0"/>
      <psa10 value="0.0251287412" flag="0"/>
      <psa30 value="0.0042377902" flag="0"/>
    </comp>
    <comp name="--.HHZ">
      <acc value="0.1624484476" flag="0"/>
      <vel value="0.0386790466" flag="0"/>
      <psa03 value="0.1855841686" flag="0"/>
      <psa10 value="0.0112144200" flag="0"/>
      <psa30 value="0.0017206810" flag="0"/>
    </comp>
  </station>
  <station code="THERA" name="THERA" netid="HL" insttype="120" lat="36.367" lon="25.4753">
    <comp name="--.HHE">
      <acc value="0.0776324952" flag="0"/>
      <vel value="0.0158473344" flag="0"/>
      <psa03 value="0.0874036382" flag="0"/>
      <psa10 value="0.0139264014" flag="0"/>
      <psa30 value="0.0025729066" flag="0"/>
    </comp>
    <comp name="--.HHN">
      <acc value="0.1217193082" flag="0"/>
      <vel value="0.0281804742" flag="0"/>
      <psa03 value="0.1585410322" flag="0"/>
      <psa10 value="0.0110086121" flag="0"/>
      <psa30 value="0.0023771183" flag="0"/>
    </comp>
    <comp name="--.HHZ">
      <acc value="0.0907012090" flag="0"/>
      <vel value="0.0175874874" flag="0"/>
      <psa03 value="0.0646205526" flag="0"/>
      <psa10 value="0.0089748585" flag="0"/>
      <psa30 value="0.0014617329" flag="0"/>
    </comp>
  </station>
  <station code="THRA" name="THRA" netid="HL" insttype="CMG-5" lat="36.415" lon="25.4324">
    <comp name="00.HNE">
      <acc value="0.3051949908" flag="0"/>
      <vel value="0.0743372924" flag="0"/>
      <psa03 value="0.3755571116" flag="0"/>
      <psa10 value="0.0687010263" flag="0"/>
      <psa30 value="0.0093135889" flag="0"/>
    </comp>
    <comp name="00.HNN">
      <acc value="0.3433038973" flag="0"/>
      <vel value="0.1122226389" flag="0"/>
      <psa03 value="0.4651970587" flag="0"/>
      <psa10 value="0.1021055308" flag="0"/>
      <psa30 value="0.0105292557" flag="0"/>
    </comp>
    <comp name="00.HNZ">
      <acc value="0.1710080819" flag="0"/>
      <vel value="0.0551038809" flag="0"/>
      <psa03 value="0.2443387878" flag="0"/>
      <psa10 value="0.0301858287" flag="0"/>
      <psa30 value="0.0038987710" flag="0"/>
    </comp>
  </station>
  <station code="TNSA" name="TNSA" netid="HL" insttype="CMG-5" lat="37.5394" lon="25.1631">
    <comp name="00.HNE">
      <acc value="0.0348800320" flag="0"/>
      <vel value="0.0092013404" flag="0"/>
      <psa03 value="0.0728110097" flag="0"/>
      <psa10 value="0.0030747482" flag="0"/>
      <psa30 value="0.0007924683" flag="0"/>
    </comp>
    <comp name="00.HNN">
      <acc value="0.0624488238" flag="0"/>
      <vel value="0.0191286912" flag="0"/>
      <psa03 value="0.0645576506" flag="0"/>
      <psa10 value="0.0085657512" flag="0"/>
      <psa30 value="0.0010628063" flag="0"/>
    </comp>
    <comp name="00.HNZ">
      <acc value="0.0296134158" flag="0"/>
      <vel value="0.0123199012" flag="0"/>
      <psa03 value="0.0449095212" flag="0"/>
      <psa10 value="0.0062999021" flag="0"/>
      <psa30 value="0.0012177446" flag="0"/>
    </comp>
  </station>
  <station code="AKRO" name="AKRO" netid="HT" insttype="Compact," lat="36.3584" lon="25.3967">
    <comp name="--.HHE">
      <acc value="0.3507255093" flag="0"/>
      <vel value="0.0916963663" flag="0"/>
      <psa03 value="0.4071632839" flag="0"/>
      <psa10 value="0.0245543450" flag="0"/>
      <psa30 value="0.0035423056" flag="0"/>
    </comp>
    <comp name="--.HHN">
      <acc value="0.2234661541" flag="0"/>
      <vel value="0.0511007082" flag="0"/>
      <psa03 value="0.1562455384" flag="0"/>
      <psa10 value="0.0220187732" flag="0"/>
      <psa30 value="0.0034755992" flag="0"/>
    </comp>
    <comp name="--.HHZ">
      <acc value="0.2089019730" flag="0"/>
      <vel value="0.0387351750" flag="0"/>
      <psa03 value="0.1552788270" flag="0"/>
      <psa10 value="0.0144801989" flag="0"/>
      <psa30 value="0.0014207100" flag="0"/>
    </comp>
  </station>
  <station code="CMBO" name="CMBO" netid="HT" insttype="120P," lat="36.4709" lon="25.4056">
    <comp name="--.HHE">
      <acc value="0.1491607876" flag="0"/>
      <vel value="0.0426079325" flag="0"/>
      <psa03 value="0.2167826501" flag="0"/>
      <psa10 value="0.0395019052" flag="0"/>
      <psa30 value="0.0055486779" flag="0"/>
    </comp>
    <comp name="--.HHN">
      <acc value="0.2789023067" flag="0"/>
      <vel value="0.0891958075" flag="0"/>
      <psa03 value="0.3003458276" flag="0"/>
      <psa10 value="0.0588528994" flag="0"/>
      <psa30 value="0.0043511680" flag="0"/>
    </comp>
    <comp name="--.HHZ">
      <acc value="0.1663440457" flag="0"/>
      <vel value="0.0506283506" flag="0"/>
      <psa03 value="0.2435978399" flag="0"/>
      <psa10 value="0.0150763844" flag="0"/>
      <psa30 value="0.0046278488" flag="0"/>
    </comp>
  </station>
</stationlist>
