<?xml version="1.0" encoding="UTF-8" standalone="yes"?>
<!DOCTYPE earthquake SYSTEM "stationlist.dtd">
<stationlist created="" xmlns="ch.ethz.sed.shakemap.usgs.xml">
  <station code="ARG" name="ARG" netid="HL" insttype="LE3D20_DR24" commtype="DIG" lat="36.2136" lon="28.1212">
    <comp name="--.HHE">
      <acc value="0.0018646658" flag="0"/>
      <vel value="0.0009102026" flag="0"/>
      <psa03 value="0.0018469063" flag="0"/>
      <psa10 value="0.0015173425" flag="0"/>
      <psa30 value="0.0002975699" flag="0"/>
    </comp>
    <comp name="--.HHN">
      <acc value="0.0019612800" flag="0"/>
      <vel value="0.0020312955" flag="0"/>
      <psa03 value="0.0019687974" flag="0"/>
      <psa10 value="0.0024148765" flag="0"/>
      <psa30 value="0.0005834669" flag="0"/>
    </comp>
    <comp name="--.HHZ">
      <acc value="0.0012117787" flag="0"/>
      <vel value="0.0006494273" flag="0"/>
      <psa03 value="0.0012088836" flag="0"/>
      <psa10 value="0.0012076099" flag="0"/>
      <psa30 value="0.0001843394" flag="0"/>
    </comp>
  </station>
</stationlist>
