<stationlist created="1778136453">
	<station code="MALA" name="MALA" netid="CL" source="Corinth Riff Laboratory (CRLNET)" insttype="" lat="38.39341" lon="21.87263">
		<comp name="01.HNE" depth="0.0">
			<acc value="0.0140079216593195" flag="0"/>
			<vel value="0.0301936787632722" flag="0"/>
			<psa03 value="0.0765091733172447" flag="0"/>
			<psa10 value="0.120063026927735" flag="0"/>
			<psa30 value="0.0114177637069168" flag="0"/>
		</comp>
		<comp name="01.HNN" depth="0.0">
			<acc value="0.0168477567892889" flag="0"/>
			<vel value="0.0325629589730493" flag="0"/>
			<psa03 value="0.072929796787783" flag="0"/>
			<psa10 value="0.108445712979301" flag="0"/>
			<psa30 value="0.00647330245353156" flag="0"/>
		</comp>
		<comp name="01.HNZ" depth="0.0">
			<acc value="0.00705424341813424" flag="0"/>
			<vel value="0.0140106590092688" flag="0"/>
			<psa03 value="0.0257715110121245" flag="0"/>
			<psa10 value="0.0337123578427354" flag="0"/>
			<psa30 value="0.00734085383985985" flag="0"/>
		</comp>
	</station>
	<station code="ROD3" name="ROD3" netid="CL" source="Corinth Riff Laboratory (CRLNET)" insttype="" lat="38.30811" lon="21.89204">
		<comp name="00.HNE" depth="0.0">
			<acc value="0.0212520324539254" flag="0"/>
			<vel value="0.0180217371221118" flag="0"/>
			<psa03 value="0.0868446230460655" flag="0"/>
			<psa10 value="0.0355364976065623" flag="0"/>
			<psa30 value="0.00269929732528033" flag="0"/>
		</comp>
		<comp name="00.HNN" depth="0.0">
			<acc value="0.0161395858733535" flag="0"/>
			<vel value="0.0120546408213086" flag="0"/>
			<psa03 value="0.0729745389944012" flag="0"/>
			<psa10 value="0.0227634924611781" flag="0"/>
			<psa30 value="0.00322412340891266" flag="0"/>
		</comp>
		<comp name="00.HNZ" depth="0.0">
			<acc value="0.00706849780113999" flag="0"/>
			<vel value="0.00723052532564936" flag="0"/>
			<psa03 value="0.0166888430686154" flag="0"/>
			<psa10 value="0.0102240416343413" flag="0"/>
			<psa30 value="0.00191988808599004" flag="0"/>
		</comp>
	</station>
	<station code="E02" name="E02" netid="EG" source="EUROSEISTEST Strong Motion Network" insttype="" lat="40.674206" lon="23.315498">
		<comp name="--.EN1" depth="0.0">
			<acc value="0.0484589727964177" flag="0"/>
			<vel value="0.0399678535268406" flag="0"/>
			<psa03 value="0.148299511614641" flag="0"/>
			<psa10 value="0.104151142002167" flag="0"/>
			<psa30 value="0.00447386595499555" flag="0"/>
		</comp>
		<comp name="--.EN2" depth="0.0">
			<acc value="0.0561978162791558" flag="0"/>
			<vel value="0.0391477179260755" flag="0"/>
			<psa03 value="0.227379166920404" flag="0"/>
			<psa10 value="0.0566737956106679" flag="0"/>
			<psa30 value="0.00246116970708094" flag="0"/>
		</comp>
		<comp name="--.EN3" depth="0.0">
			<acc value="0.01699440690608" flag="0"/>
			<vel value="0.0178226749439168" flag="0"/>
			<psa03 value="0.0596004013592736" flag="0"/>
			<psa10 value="0.0203793656579399" flag="0"/>
			<psa30 value="0.0026329635875836" flag="0"/>
		</comp>
	</station>
	<station code="MMAA" name="MMAA" netid="EG" source="EUROSEISTEST Strong Motion Network" insttype="" lat="40.630855" lon="22.943725">
		<comp name="--.EN1" depth="0.0">
			<acc value="0.0504290568029186" flag="0"/>
			<vel value="0.0312185159377296" flag="0"/>
			<psa03 value="0.137463772966993" flag="0"/>
			<psa10 value="0.0536547931168974" flag="0"/>
			<psa30 value="0.00329003815721329" flag="0"/>
		</comp>
		<comp name="--.EN2" depth="0.0">
			<acc value="0.0431076704462341" flag="0"/>
			<vel value="0.0261380285226061" flag="0"/>
			<psa03 value="0.150263902162846" flag="0"/>
			<psa10 value="0.0479923867600547" flag="0"/>
			<psa30 value="0.0035982942026627" flag="0"/>
		</comp>
		<comp name="--.EN3" depth="0.0">
			<acc value="0.0730777297144052" flag="0"/>
			<vel value="0.0181686633055764" flag="0"/>
			<psa03 value="0.101574707992399" flag="0"/>
			<psa10 value="0.0176172870588223" flag="0"/>
			<psa30 value="0.00305028581646406" flag="0"/>
		</comp>
	</station>
	<station code="STC" name="STC" netid="EG" source="EUROSEISTEST Strong Motion Network" insttype="" lat="40.64865" lon="23.304856">
		<comp name="--.EN1" depth="0.0">
			<acc value="0.0579926735331997" flag="0"/>
			<vel value="0.0363738725854039" flag="0"/>
			<psa03 value="0.208361282078954" flag="0"/>
			<psa10 value="0.0306542006903513" flag="0"/>
			<psa30 value="0.00376151793210253" flag="0"/>
		</comp>
		<comp name="--.EN2" depth="0.0">
			<acc value="0.0478479868551413" flag="0"/>
			<vel value="0.0339012893120826" flag="0"/>
			<psa03 value="0.146852384499713" flag="0"/>
			<psa10 value="0.0179942676569199" flag="0"/>
			<psa30 value="0.00259031617906615" flag="0"/>
		</comp>
		<comp name="--.EN3" depth="0.0">
			<acc value="0.0223251452403389" flag="0"/>
			<vel value="0.0129777557203738" flag="0"/>
			<psa03 value="0.0826590747161557" flag="0"/>
			<psa10 value="0.0155429946471319" flag="0"/>
			<psa30 value="0.00344740733214797" flag="0"/>
		</comp>
	</station>
	<station code="TST" name="TST" netid="EG" source="EUROSEISTEST Strong Motion Network" insttype="" lat="40.6638" lon="23.2906">
		<comp name="00.EN1" depth="0.0">
			<acc value="0.023567592458082" flag="0"/>
			<vel value="0.016933366453936" flag="0"/>
			<psa03 value="0.0720990835022002" flag="0"/>
			<psa10 value="0.0168588311898196" flag="0"/>
			<psa30 value="0.00206880100624497" flag="0"/>
		</comp>
		<comp name="00.EN2" depth="0.0">
			<acc value="0.0132403416511299" flag="0"/>
			<vel value="0.00983918985386513" flag="0"/>
			<psa03 value="0.0425043078892753" flag="0"/>
			<psa10 value="0.00844961818323431" flag="0"/>
			<psa30 value="0.00204227029038392" flag="0"/>
		</comp>
		<comp name="00.EN3" depth="0.0">
			<acc value="0.0340683412051073" flag="0"/>
			<vel value="0.0249231827144376" flag="0"/>
			<psa03 value="0.0886203602473775" flag="0"/>
			<psa10 value="0.039170891129308" flag="0"/>
			<psa30 value="0.00361616163629386" flag="0"/>
		</comp>
	</station>
	<station code="W02" name="W02" netid="EG" source="EUROSEISTEST Strong Motion Network" insttype="" lat="40.661088" lon="23.260065">
		<comp name="--.EN1" depth="0.0">
			<acc value="0.0268313683560026" flag="0"/>
			<vel value="0.0290658179104618" flag="0"/>
			<psa03 value="0.109303511654507" flag="0"/>
			<psa10 value="0.0623717318213022" flag="0"/>
			<psa30 value="0.0062233831019135" flag="0"/>
		</comp>
		<comp name="--.EN2" depth="0.0">
			<acc value="0.0372209993530384" flag="0"/>
			<vel value="0.0272474698132069" flag="0"/>
			<psa03 value="0.10699461911832" flag="0"/>
			<psa10 value="0.0527813752569996" flag="0"/>
			<psa30 value="0.00679963669254371" flag="0"/>
		</comp>
		<comp name="--.EN3" depth="0.0">
			<acc value="0.0112368852189313" flag="0"/>
			<vel value="0.0133635414292946" flag="0"/>
			<psa03 value="0.0312166304485685" flag="0"/>
			<psa10 value="0.028032310127956" flag="0"/>
			<psa30 value="0.00182046955550848" flag="0"/>
		</comp>
	</station>
	<station code="AIGS" name="AIGS" netid="HA" source="Hellenic Seismological Network, University of Athens, Seismological Laboratory (HA)" insttype="" lat="38.25001" lon="22.0878">
		<comp name="--.HNE" depth="0.0">
			<acc value="0.0190277464457432" flag="0"/>
			<vel value="0.0136127795914406" flag="0"/>
			<psa03 value="0.0412075722954283" flag="0"/>
			<psa10 value="0.0137072224195737" flag="0"/>
			<psa30 value="0.00421829523997066" flag="0"/>
		</comp>
		<comp name="--.HNN" depth="0.0">
			<acc value="0.0144761693958459" flag="0"/>
			<vel value="0.0124391902042726" flag="0"/>
			<psa03 value="0.0552566251735656" flag="0"/>
			<psa10 value="0.0168521521227721" flag="0"/>
			<psa30 value="0.00357087551020427" flag="0"/>
		</comp>
		<comp name="--.HNZ" depth="0.0">
			<acc value="0.00810631715759477" flag="0"/>
			<vel value="0.00976099002921373" flag="0"/>
			<psa03 value="0.0155702879031586" flag="0"/>
			<psa10 value="0.0194091692310063" flag="0"/>
			<psa30 value="0.00340219739125338" flag="0"/>
		</comp>
	</station>
	<station code="LTRS" name="LTRS" netid="HA" source="Hellenic Seismological Network, University of Athens, Seismological Laboratory (HA)" insttype="" lat="37.97528" lon="22.9765">
		<comp name="--.HNE" depth="0.0">
			<acc value="0.0355398660861409" flag="0"/>
			<vel value="0.00950440534439338" flag="0"/>
			<psa03 value="0.0263084174915438" flag="0"/>
			<psa10 value="0.0153783438367662" flag="0"/>
			<psa30 value="0.00175210481117152" flag="0"/>
		</comp>
		<comp name="--.HNN" depth="0.0">
			<acc value="0.0214042899356808" flag="0"/>
			<vel value="0.00717677992301789" flag="0"/>
			<psa03 value="0.0146754437707931" flag="0"/>
			<psa10 value="0.0125313972296456" flag="0"/>
			<psa30 value="0.00165098742421423" flag="0"/>
		</comp>
		<comp name="--.HNZ" depth="0.0">
			<acc value="0.101398399686069" flag="0"/>
			<vel value="0.0243784456754621" flag="0"/>
			<psa03 value="0.0352568588151981" flag="0"/>
			<psa10 value="0.0115085903863519" flag="0"/>
			<psa30 value="0.0014263815469905" flag="0"/>
		</comp>
	</station>
	<station code="XLKS" name="XLKS" netid="HA" source="Hellenic Seismological Network, University of Athens, Seismological Laboratory (HA)" insttype="" lat="38.0772" lon="22.6361">
		<comp name="--.HNE" depth="0.0">
			<acc value="0.0129064498378986" flag="0"/>
			<vel value="0.0172708049611555" flag="0"/>
			<psa03 value="0.0244739870201947" flag="0"/>
			<psa10 value="0.022187660262001" flag="0"/>
			<psa30 value="0.00602543296528266" flag="0"/>
		</comp>
		<comp name="--.HNN" depth="0.0">
			<acc value="0.0150594235757039" flag="0"/>
			<vel value="0.0183544081354194" flag="0"/>
			<psa03 value="0.0300667628474786" flag="0"/>
			<psa10 value="0.0235728789789027" flag="0"/>
			<psa30 value="0.00408988510697622" flag="0"/>
		</comp>
		<comp name="--.HNZ" depth="0.0">
			<acc value="0.0230646842001016" flag="0"/>
			<vel value="0.00685878459410175" flag="0"/>
			<psa03 value="0.021073579317206" flag="0"/>
			<psa10 value="0.0092294223812171" flag="0"/>
			<psa30 value="0.00257625625708009" flag="0"/>
		</comp>
	</station>
	<station code="ART2" name="ART2" netid="HI" source="ITSAK Strong Motion Network" insttype="" lat="39.1474" lon="20.9937">
		<comp name="--.HNE" depth="0.0">
			<acc value="0.00632335788060749" flag="0"/>
			<vel value="0.00697402777792692" flag="0"/>
			<psa03 value="0.0137633258153026" flag="0"/>
			<psa10 value="0.0107622923240303" flag="0"/>
			<psa30 value="0.00250934164823633" flag="0"/>
		</comp>
		<comp name="--.HNN" depth="0.0">
			<acc value="0.00625009011285659" flag="0"/>
			<vel value="0.00538325504732286" flag="0"/>
			<psa03 value="0.0175730742861712" flag="0"/>
			<psa10 value="0.00766180583829437" flag="0"/>
			<psa30 value="0.00232017724202012" flag="0"/>
		</comp>
		<comp name="--.HNZ" depth="0.0">
			<acc value="0.00386732423664226" flag="0"/>
			<vel value="0.00401901014949337" flag="0"/>
			<psa03 value="0.00867858858579732" flag="0"/>
			<psa10 value="0.00451340758483789" flag="0"/>
			<psa30 value="0.00142703713837425" flag="0"/>
		</comp>
	</station>
	<station code="KLV1" name="KLV1" netid="HI" source="ITSAK Strong Motion Network" insttype="" lat="38.03256" lon="22.10797">
		<comp name="--.HNE" depth="0.0">
			<acc value="0.0136140813427315" flag="0"/>
			<vel value="0.00902914988189506" flag="0"/>
			<psa03 value="0.0382726551672289" flag="0"/>
			<psa10 value="0.0124330645670066" flag="0"/>
			<psa30 value="0.00160813069743514" flag="0"/>
		</comp>
		<comp name="--.HNN" depth="0.0">
			<acc value="0.0114456928839618" flag="0"/>
			<vel value="0.00780852778494959" flag="0"/>
			<psa03 value="0.0425856934890256" flag="0"/>
			<psa10 value="0.012681534464421" flag="0"/>
			<psa30 value="0.00142878392075543" flag="0"/>
		</comp>
		<comp name="--.HNZ" depth="0.0">
			<acc value="0.00525212118787807" flag="0"/>
			<vel value="0.00431304573459343" flag="0"/>
			<psa03 value="0.0105847838722865" flag="0"/>
			<psa10 value="0.00691971605348197" flag="0"/>
			<psa30 value="0.00136904194231183" flag="0"/>
		</comp>
	</station>
	<station code="LAM2" name="LAM2" netid="HI" source="ITSAK Strong Motion Network" insttype="" lat="38.90203" lon="22.431301">
		<comp name="--.HNE" depth="0.0">
			<acc value="0.0518203527019946" flag="0"/>
			<vel value="0.0242620694250143" flag="0"/>
			<psa03 value="0.114545504744364" flag="0"/>
			<psa10 value="0.0292338372232263" flag="0"/>
			<psa30 value="0.00272547617441975" flag="0"/>
		</comp>
		<comp name="--.HNN" depth="0.0">
			<acc value="0.0418648702798437" flag="0"/>
			<vel value="0.0205382306532618" flag="0"/>
			<psa03 value="0.124745815881434" flag="0"/>
			<psa10 value="0.0311542138137735" flag="0"/>
			<psa30 value="0.00596045401749052" flag="0"/>
		</comp>
		<comp name="--.HNZ" depth="0.0">
			<acc value="0.0231458582510449" flag="0"/>
			<vel value="0.0299227751097558" flag="0"/>
			<psa03 value="0.0462276508967551" flag="0"/>
			<psa10 value="0.0214401553050807" flag="0"/>
			<psa30 value="0.00638313743486792" flag="0"/>
		</comp>
	</station>
	<station code="LMS2" name="LMS2" netid="HI" source="ITSAK Strong Motion Network" insttype="" lat="40.834985" lon="21.141815">
		<comp name="--.HNE" depth="0.0">
			<acc value="0.011561498972664" flag="0"/>
			<vel value="0.00706819362694183" flag="0"/>
			<psa03 value="0.0248692125674684" flag="0"/>
			<psa10 value="0.0106350182677729" flag="0"/>
			<psa30 value="0.00117900112387321" flag="0"/>
		</comp>
		<comp name="--.HNN" depth="0.0">
			<acc value="0.0135627797322825" flag="0"/>
			<vel value="0.00710160048234815" flag="0"/>
			<psa03 value="0.033665836967321" flag="0"/>
			<psa10 value="0.0202143753531779" flag="0"/>
			<psa30 value="0.00119004404291216" flag="0"/>
		</comp>
		<comp name="--.HNZ" depth="0.0">
			<acc value="0.0060243265702833" flag="0"/>
			<vel value="0.00680233125216193" flag="0"/>
			<psa03 value="0.0186030123062017" flag="0"/>
			<psa10 value="0.015428832396921" flag="0"/>
			<psa30 value="0.00115521027701112" flag="0"/>
		</comp>
	</station>
	<station code="SKO1" name="SKO1" netid="HI" source="ITSAK Strong Motion Network" insttype="" lat="39.123383" lon="23.728705">
		<comp name="--.HNE" depth="0.0">
			<acc value="0.00774766795131928" flag="0"/>
			<vel value="0.00671105630113712" flag="0"/>
			<psa03 value="0.0233862862058342" flag="0"/>
			<psa10 value="0.00719469739464702" flag="0"/>
			<psa30 value="0.000947204101789998" flag="0"/>
		</comp>
		<comp name="--.HNN" depth="0.0">
			<acc value="0.00694565877099531" flag="0"/>
			<vel value="0.00441318003289721" flag="0"/>
			<psa03 value="0.0220003141836836" flag="0"/>
			<psa10 value="0.00444969695808577" flag="0"/>
			<psa30 value="0.0010959953126435" flag="0"/>
		</comp>
		<comp name="--.HNZ" depth="0.0">
			<acc value="0.00563505950967034" flag="0"/>
			<vel value="0.00572782955898712" flag="0"/>
			<psa03 value="0.0173964584195929" flag="0"/>
			<psa10 value="0.00543712518286812" flag="0"/>
			<psa30 value="0.000896048317134575" flag="0"/>
		</comp>
	</station>
	<station code="VAS2" name="VAS2" netid="HI" source="ITSAK Strong Motion Network" insttype="" lat="38.630558" lon="20.608081">
		<comp name="--.HNE" depth="0.0">
			<acc value="0.0327580122025172" flag="0"/>
			<vel value="0.0487387231969966" flag="0"/>
			<psa03 value="0.0564145132262832" flag="0"/>
			<psa10 value="0.109550914710509" flag="0"/>
			<psa30 value="0.00614455704675877" flag="0"/>
		</comp>
		<comp name="--.HNN" depth="0.0">
			<acc value="0.0414127628724179" flag="0"/>
			<vel value="0.0611972136374162" flag="0"/>
			<psa03 value="0.0634156645182912" flag="0"/>
			<psa10 value="0.124523774088931" flag="0"/>
			<psa30 value="0.00974012606889074" flag="0"/>
		</comp>
		<comp name="--.HNZ" depth="0.0">
			<acc value="0.0171315933629749" flag="0"/>
			<vel value="0.0182953403184389" flag="0"/>
			<psa03 value="0.0285316244550809" flag="0"/>
			<psa10 value="0.0561550837488965" flag="0"/>
			<psa30 value="0.00282144023990142" flag="0"/>
		</comp>
	</station>
	<station code="VOL2" name="VOL2" netid="HI" source="ITSAK Strong Motion Network" insttype="" lat="39.366" lon="22.9506">
		<comp name="--.HNE" depth="0.0">
			<acc value="0.0366717416515882" flag="0"/>
			<vel value="0.0215314395208216" flag="0"/>
			<psa03 value="0.118219633553934" flag="0"/>
			<psa10 value="0.0148704700956432" flag="0"/>
			<psa30 value="0.00309817503055544" flag="0"/>
		</comp>
		<comp name="--.HNN" depth="0.0">
			<acc value="0.0347120748321022" flag="0"/>
			<vel value="0.0209679895692621" flag="0"/>
			<psa03 value="0.111151248641547" flag="0"/>
			<psa10 value="0.0213700256593169" flag="0"/>
			<psa30 value="0.00241880190042016" flag="0"/>
		</comp>
		<comp name="--.HNZ" depth="0.0">
			<acc value="0.0249652871013056" flag="0"/>
			<vel value="0.0109728250690459" flag="0"/>
			<psa03 value="0.0589241638534111" flag="0"/>
			<psa10 value="0.00916782076063248" flag="0"/>
			<psa30 value="0.00250341500562479" flag="0"/>
		</comp>
	</station>
	<station code="DLFA" name="DLFA" netid="HL" source="National Observatory of Athens Seismic Network" insttype="" lat="38.47836" lon="22.49583">
		<comp name="00.HNE" depth="0.0">
			<acc value="0.0172105482054763" flag="0"/>
			<vel value="0.0166381416772614" flag="0"/>
			<psa03 value="0.0323038731783922" flag="0"/>
			<psa10 value="0.0190064893714418" flag="0"/>
			<psa30 value="0.00224561135017106" flag="0"/>
		</comp>
		<comp name="00.HNN" depth="0.0">
			<acc value="0.0130975596878345" flag="0"/>
			<vel value="0.0106799625038582" flag="0"/>
			<psa03 value="0.018925953399529" flag="0"/>
			<psa10 value="0.0170816796427238" flag="0"/>
			<psa30 value="0.00138163934037223" flag="0"/>
		</comp>
		<comp name="00.HNZ" depth="0.0">
			<acc value="0.00846460193956296" flag="0"/>
			<vel value="0.00705320184305633" flag="0"/>
			<psa03 value="0.0135568886053363" flag="0"/>
			<psa10 value="0.00885895691041781" flag="0"/>
			<psa30 value="0.00200400343443239" flag="0"/>
		</comp>
	</station>
	<station code="JAN" name="JAN" netid="HL" source="National Observatory of Athens Seismic Network" insttype="" lat="39.65616" lon="20.84874">
		<comp name="00.HNE" depth="0.0">
			<acc value="0.0155260089171829" flag="0"/>
			<vel value="0.00964549236718193" flag="0"/>
			<psa03 value="0.0216999702098618" flag="0"/>
			<psa10 value="0.0142226526398162" flag="0"/>
			<psa30 value="0.00512208781365975" flag="0"/>
		</comp>
		<comp name="00.HNN" depth="0.0">
			<acc value="0.0123883767691858" flag="0"/>
			<vel value="0.00957264369916026" flag="0"/>
			<psa03 value="0.0225053299289907" flag="0"/>
			<psa10 value="0.0115528851709039" flag="0"/>
			<psa30 value="0.00307960608153564" flag="0"/>
		</comp>
		<comp name="00.HNZ" depth="0.0">
			<acc value="0.0100437300068126" flag="0"/>
			<vel value="0.00650622901768638" flag="0"/>
			<psa03 value="0.0235791428878292" flag="0"/>
			<psa10 value="0.00882674252165265" flag="0"/>
			<psa30 value="0.00389928330678238" flag="0"/>
		</comp>
	</station>
	<station code="KYMI" name="KYMI" netid="HL" source="National Observatory of Athens Seismic Network" insttype="" lat="38.633147" lon="24.100138">
		<comp name="--.HNE" depth="1.0">
			<acc value="0.00152771906618953" flag="0"/>
			<vel value="0.00172550436015449" flag="0"/>
			<psa03 value="0.00399595807198835" flag="0"/>
			<psa10 value="0.00191281315979613" flag="0"/>
			<psa30 value="0.000855337911939409" flag="0"/>
		</comp>
		<comp name="--.HNN" depth="1.0">
			<acc value="0.00116096676635545" flag="0"/>
			<vel value="0.00162962540692735" flag="0"/>
			<psa03 value="0.00252021952378949" flag="0"/>
			<psa10 value="0.0014108597515978" flag="0"/>
			<psa30 value="0.000460486182034665" flag="0"/>
		</comp>
		<comp name="--.HNZ" depth="1.0">
			<acc value="0.00080031223002164" flag="0"/>
			<vel value="0.00154663485373691" flag="0"/>
			<psa03 value="0.00278545079848558" flag="0"/>
			<psa10 value="0.00185240884580552" flag="0"/>
			<psa30 value="0.000562772489246893" flag="0"/>
		</comp>
	</station>
