<?xml version="1.0" encoding="UTF-8" standalone="yes"?>
<!DOCTYPE earthquake SYSTEM "stationlist.dtd">
<stationlist created="" xmlns="ch.ethz.sed.shakemap.usgs.xml">
  <station code="KBN" name="KBN" netid="AC" insttype="" lat="40.6236" lon="20.7874">
    <comp name="--.HHN">
      <acc value="0.0084197130" flag="0"/>
      <vel value="0.0121003743" flag="0"/>
      <psa03 value="0.0142573426" flag="0"/>
      <psa10 value="0.0190007004" flag="0"/>
      <psa30 value="0.0016925892" flag="0"/>
    </comp>
    <comp name="--.HHZ">
      <acc value="0.0060347448" flag="0"/>
      <vel value="0.0070925309" flag="0"/>
      <psa03 value="0.0098102855" flag="0"/>
      <psa10 value="0.0152300022" flag="0"/>
      <psa30 value="0.0023831536" flag="0"/>
    </comp>
    <comp name="--.HHE">
      <acc value="0.0049600038" flag="0"/>
      <vel value="0.0071304372" flag="0"/>
      <psa03 value="0.0098184584" flag="0"/>
      <psa10 value="0.0107077047" flag="0"/>
      <psa30 value="0.0017583775" flag="0"/>
    </comp>
  </station>
  <station code="EVR" name="EVR" netid="HL" insttype="DR24" lat="38.9166" lon="21.8105">
    <comp name="--.HHE">
      <acc value="0.0436670006" flag="0"/>
      <vel value="0.0194197309" flag="0"/>
      <psa03 value="0.0802537263" flag="0"/>
      <psa10 value="0.0380698479" flag="0"/>
      <psa30 value="0.0038911420" flag="0"/>
    </comp>
    <comp name="--.HHN">
      <acc value="0.0598274585" flag="0"/>
      <vel value="0.0303863176" flag="0"/>
      <psa03 value="0.1397065383" flag="0"/>
      <psa10 value="0.0302849600" flag="0"/>
      <psa30 value="0.0042858786" flag="0"/>
    </comp>
    <comp name="--.HHZ">
      <acc value="0.0311757591" flag="0"/>
      <vel value="0.0198350066" flag="0"/>
      <psa03 value="0.0764012815" flag="0"/>
      <psa10 value="0.0311404994" flag="0"/>
      <psa30 value="0.0027722567" flag="0"/>
    </comp>
  </station>
  <station code="KZN" name="KZN" netid="HL" insttype="120" lat="40.3033" lon="21.7821">
    <comp name="--.HHN">
      <acc value="0.0682083492" flag="0"/>
      <vel value="0.0263377557" flag="0"/>
      <psa03 value="0.1422916061" flag="0"/>
      <psa10 value="0.0156572362" flag="0"/>
      <psa30 value="0.0042127430" flag="0"/>
    </comp>
    <comp name="--.HHE">
      <acc value="0.1082217156" flag="0"/>
      <vel value="0.0414007045" flag="0"/>
      <psa03 value="0.2343648212" flag="0"/>
      <psa10 value="0.0201454805" flag="0"/>
      <psa30 value="0.0023649021" flag="0"/>
    </comp>
    <comp name="--.HHZ">
      <acc value="0.0258106799" flag="0"/>
      <vel value="0.0168221911" flag="0"/>
      <psa03 value="0.0612431878" flag="0"/>
      <psa10 value="0.0226675549" flag="0"/>
      <psa30 value="0.0035591031" flag="0"/>
    </comp>
  </station>
  <station code="NEO" name="NEO" netid="HL" insttype="120" lat="39.3057" lon="23.2219">
    <comp name="--.HHE">
      <acc value="0.0056893299" flag="0"/>
      <vel value="0.0003199682" flag="0"/>
      <psa03 value="0.0003662210" flag="0"/>
      <psa10 value="0.0000969718" flag="0"/>
      <psa30 value="0.0000395720" flag="0"/>
    </comp>
    <comp name="--.HHZ">
      <acc value="0.0191937895" flag="0"/>
      <vel value="0.0120594767" flag="0"/>
      <psa03 value="0.0619629509" flag="0"/>
      <psa10 value="0.0123793308" flag="0"/>
      <psa30 value="0.0024277083" flag="0"/>
    </comp>
    <comp name="--.HHN">
      <acc value="0.0435564069" flag="0"/>
      <vel value="0.0203698463" flag="0"/>
      <psa03 value="0.1332661768" flag="0"/>
      <psa10 value="0.0270893412" flag="0"/>
      <psa30 value="0.0031024807" flag="0"/>
    </comp>
  </station>
  <station code="PENT" name="PENT" netid="HL" insttype="30" lat="40.1959" lon="21.1384">
    <comp name="--.HHE">
      <acc value="0.0100940644" flag="0"/>
      <vel value="0.0095038479" flag="0"/>
      <psa03 value="0.0191158350" flag="0"/>
      <psa10 value="0.0159006095" flag="0"/>
      <psa30 value="0.0014010488" flag="0"/>
    </comp>
    <comp name="--.HHN">
      <acc value="0.0007070760" flag="0"/>
      <vel value="0.0003525904" flag="0"/>
      <psa03 value="0.0011663813" flag="0"/>
      <psa10 value="0.0006506963" flag="0"/>
      <psa30 value="0.0001646389" flag="0"/>
    </comp>
    <comp name="--.HHZ">
      <acc value="0.0112153467" flag="0"/>
      <vel value="0.0099334549" flag="0"/>
      <psa03 value="0.0186924194" flag="0"/>
      <psa10 value="0.0146511853" flag="0"/>
      <psa30 value="0.0026126028" flag="0"/>
    </comp>
  </station>
  <station code="PLG" name="PLG" netid="HL" insttype="CMG3ESPC-120s" lat="40.3733" lon="23.4444">
    <comp name="--.HHZ">
      <acc value="0.0148355902" flag="0"/>
      <vel value="0.0110948800" flag="0"/>
      <psa03 value="0.0599694254" flag="0"/>
      <psa10 value="0.0084447843" flag="0"/>
      <psa30 value="0.0030226077" flag="0"/>
    </comp>
  </station>
  <station code="TETR" name="TETR" netid="HL" insttype="60" lat="39.3445" lon="21.2747">
    <comp name="--.HHZ">
      <acc value="0.0501219332" flag="0"/>
      <vel value="0.0223263460" flag="0"/>
      <psa03 value="0.1284944563" flag="0"/>
      <psa10 value="0.0181654552" flag="0"/>
      <psa30 value="0.0022576400" flag="0"/>
    </comp>
    <comp name="--.HHE">
      <acc value="0.1307959952" flag="0"/>
      <vel value="0.0488440398" flag="0"/>
      <psa03 value="0.2341453540" flag="0"/>
      <psa10 value="0.0420656820" flag="0"/>
      <psa30 value="0.0044618433" flag="0"/>
    </comp>
    <comp name="--.HHN">
      <acc value="0.1172187317" flag="0"/>
      <vel value="0.0456163819" flag="0"/>
      <psa03 value="0.2909677504" flag="0"/>
      <psa10 value="0.0309269196" flag="0"/>
      <psa30 value="0.0032907705" flag="0"/>
    </comp>
  </station>
  <station code="THL" name="THL" netid="HL" insttype="120" lat="39.5647" lon="22.0144">
    <comp name="--.HHE">
      <acc value="0.3535008352" flag="0"/>
      <vel value="0.1081259295" flag="0"/>
      <psa03 value="0.3314298113" flag="0"/>
      <psa10 value="0.1135689341" flag="0"/>
      <psa30 value="0.0089193353" flag="0"/>
    </comp>
    <comp name="--.HHZ">
      <acc value="0.4002266405" flag="0"/>
      <vel value="0.1403409889" flag="0"/>
      <psa03 value="0.4895178140" flag="0"/>
      <psa10 value="0.1208344921" flag="0"/>
      <psa30 value="0.0221855420" flag="0"/>
    </comp>
    <comp name="--.HHN">
      <acc value="0.4396064263" flag="0"/>
      <vel value="0.1349805883" flag="0"/>
      <psa03 value="0.3589113463" flag="0"/>
      <psa10 value="0.1218914848" flag="0"/>
      <psa30 value="0.0259289818" flag="0"/>
    </comp>
  </station>
  <station code="AMPL" name="AMPL" netid="HP" insttype="Compact," lat="38.9224" lon="21.2135">
    <comp name="--.HHE">
      <acc value="0.0127728337" flag="0"/>
      <vel value="0.0129311531" flag="0"/>
      <psa03 value="0.0321139906" flag="0"/>
      <psa10 value="0.0221322020" flag="0"/>
      <psa30 value="0.0022535788" flag="0"/>
    </comp>
    <comp name="--.HHZ">
      <acc value="0.0091563907" flag="0"/>
      <vel value="0.0084111785" flag="0"/>
      <psa03 value="0.0149654519" flag="0"/>
      <psa10 value="0.0129582970" flag="0"/>
      <psa30 value="0.0020664704" flag="0"/>
    </comp>
    <comp name="--.HHN">
      <acc value="0.0108202106" flag="0"/>
      <vel value="0.0076533971" flag="0"/>
      <psa03 value="0.0199828535" flag="0"/>
      <psa10 value="0.0095883389" flag="0"/>
      <psa30 value="0.0019909477" flag="0"/>
    </comp>
  </station>
  <station code="ANX" name="ANX" netid="HP" insttype="120" lat="38.5933" lon="21.9209">
    <comp name="--.HHE">
      <acc value="0.0460946805" flag="0"/>
      <vel value="0.0329070619" flag="0"/>
      <psa03 value="0.1382363838" flag="0"/>
      <psa10 value="0.0440442182" flag="0"/>
      <psa30 value="0.0016186269" flag="0"/>
    </comp>
    <comp name="--.HHN">
      <acc value="0.0594453362" flag="0"/>
      <vel value="0.0333461663" flag="0"/>
      <psa03 value="0.2960088746" flag="0"/>
      <psa10 value="0.0384761012" flag="0"/>
      <psa30 value="0.0022659149" flag="0"/>
    </comp>
    <comp name="--.HHZ">
      <acc value="0.0321302332" flag="0"/>
      <vel value="0.0237671741" flag="0"/>
      <psa03 value="0.0783433091" flag="0"/>
      <psa10 value="0.0214224447" flag="0"/>
      <psa30 value="0.0020242979" flag="0"/>
    </comp>
  </station>
  <station code="EFP" name="EFP" netid="HP" insttype="40," lat="38.4269" lon="21.9058">
    <comp name="--.HHN">
      <acc value="0.0237249599" flag="0"/>
      <vel value="0.0210611342" flag="0"/>
      <psa03 value="0.0789508808" flag="0"/>
      <psa10 value="0.0202459438" flag="0"/>
      <psa30 value="0.0025908421" flag="0"/>
    </comp>
    <comp name="--.HHZ">
      <acc value="0.0147063965" flag="0"/>
      <vel value="0.0115622626" flag="0"/>
      <psa03 value="0.0575173714" flag="0"/>
      <psa10 value="0.0241004869" flag="0"/>
      <psa30 value="0.0033446836" flag="0"/>
    </comp>
    <comp name="--.HHE">
      <acc value="0.0314827228" flag="0"/>
      <vel value="0.0267444337" flag="0"/>
      <psa03 value="0.0687188883" flag="0"/>
      <psa10 value="0.0613722129" flag="0"/>
      <psa30 value="0.0031911774" flag="0"/>
    </comp>
  </station>
  <station code="PRMD" name="PRMD" netid="HP" insttype="120P," lat="39.5299" lon="21.0965">
    <comp name="--.HHE">
      <acc value="0.0314281093" flag="0"/>
      <vel value="0.0238066270" flag="0"/>
      <psa03 value="0.0743210282" flag="0"/>
      <psa10 value="0.0278079626" flag="0"/>
      <psa30 value="0.0037239289" flag="0"/>
    </comp>
    <comp name="--.HHZ">
      <acc value="0.0222601278" flag="0"/>
      <vel value="0.0170895805" flag="0"/>
      <psa03 value="0.0348835689" flag="0"/>
      <psa10 value="0.0221636832" flag="0"/>
      <psa30 value="0.0040393468" flag="0"/>
    </comp>
    <comp name="--.HHN">
      <acc value="0.0316491111" flag="0"/>
      <vel value="0.0194890626" flag="0"/>
      <psa03 value="0.0772736028" flag="0"/>
      <psa10 value="0.0392038786" flag="0"/>
      <psa30 value="0.0029724606" flag="0"/>
    </comp>
  </station>
  <station code="PVO" name="PVO" netid="HP" insttype="120P," lat="38.616" lon="21.525">
    <comp name="--.HHE">
      <acc value="0.0120977570" flag="0"/>
      <vel value="0.0100469997" flag="0"/>
      <psa03 value="0.0328295274" flag="0"/>
      <psa10 value="0.0117614975" flag="0"/>
      <psa30 value="0.0028697743" flag="0"/>
    </comp>
    <comp name="--.HHZ">
      <acc value="0.0076468577" flag="0"/>
      <vel value="0.0091709598" flag="0"/>
      <psa03 value="0.0212140724" flag="0"/>
      <psa10 value="0.0131184381" flag="0"/>
      <psa30 value="0.0044957785" flag="0"/>
    </comp>
    <comp name="--.HHN">
      <acc value="0.0107963233" flag="0"/>
      <vel value="0.0084600701" flag="0"/>
      <psa03 value="0.0299800243" flag="0"/>
      <psa10 value="0.0127727849" flag="0"/>
      <psa30 value="0.0027122150" flag="0"/>
    </comp>
  </station>
  <station code="SERG" name="SERG" netid="HP" insttype="2000" lat="38.4133" lon="22.0566">
    <comp name="00.HHE">
      <acc value="0.0388639166" flag="0"/>
      <vel value="0.0352625701" flag="0"/>
      <psa03 value="0.0969006411" flag="0"/>
      <psa10 value="0.0370341978" flag="0"/>
      <psa30 value="0.0026536921" flag="0"/>
    </comp>
    <comp name="00.HHN">
      <acc value="0.0340374749" flag="0"/>
      <vel value="0.0191552488" flag="0"/>
      <psa03 value="0.1243499975" flag="0"/>
      <psa10 value="0.0214264379" flag="0"/>
      <psa30 value="0.0029345138" flag="0"/>
    </comp>
    <comp name="00.HHZ">
      <acc value="0.0249118361" flag="0"/>
      <vel value="0.0147676377" flag="0"/>
      <psa03 value="0.0934136677" flag="0"/>
      <psa10 value="0.0172704410" flag="0"/>
      <psa30 value="0.0032552744" flag="0"/>
    </comp>
  </station>
  <station code="AGG" name="AGG" netid="HT" insttype="120P," lat="39.0211" lon="22.336">
    <comp name="--.HHE">
      <acc value="0.0528382045" flag="0"/>
      <vel value="0.0266982819" flag="0"/>
      <psa03 value="0.1352851979" flag="0"/>
      <psa10 value="0.0210179438" flag="0"/>
      <psa30 value="0.0025004722" flag="0"/>
    </comp>
    <comp name="--.HHN">
      <acc value="0.0649986525" flag="0"/>
      <vel value="0.0307812291" flag="0"/>
      <psa03 value="0.2302336552" flag="0"/>
      <psa10 value="0.0267865986" flag="0"/>
      <psa30 value="0.0026395828" flag="0"/>
    </comp>
    <comp name="--.HHZ">
      <acc value="0.0386094589" flag="0"/>
      <vel value="0.0136487483" flag="0"/>
      <psa03 value="0.0422958878" flag="0"/>
      <psa10 value="0.0204257100" flag="0"/>
      <psa30 value="0.0050226581" flag="0"/>
    </comp>
  </station>
  <station code="GRG" name="GRG" netid="HT" insttype="100" lat="40.957" lon="22.401">
    <comp name="--.HHE">
      <acc value="0.0256960413" flag="0"/>
      <vel value="0.0296183255" flag="0"/>
      <psa03 value="0.0627276157" flag="0"/>
      <psa10 value="0.0370960680" flag="0"/>
      <psa30 value="0.0046503784" flag="0"/>
    </comp>
    <comp name="--.HHN">
      <acc value="0.0260446812" flag="0"/>
      <vel value="0.0237990749" flag="0"/>
      <psa03 value="0.0720299486" flag="0"/>
      <psa10 value="0.0277791124" flag="0"/>
      <psa30 value="0.0056855906" flag="0"/>
    </comp>
    <comp name="--.HHZ">
      <acc value="0.0169744576" flag="0"/>
      <vel value="0.0159388480" flag="0"/>
      <psa03 value="0.0766211642" flag="0"/>
      <psa10 value="0.0278194773" flag="0"/>
      <psa30 value="0.0034189889" flag="0"/>
    </comp>
  </station>
  <station code="KPRO" name="KPRO" netid="HT" insttype="100" lat="39.9549" lon="21.3632">
    <comp name="--.HHZ">
      <acc value="0.0232995654" flag="0"/>
      <vel value="0.0166771224" flag="0"/>
      <psa03 value="0.0385126444" flag="0"/>
      <psa10 value="0.0206654484" flag="0"/>
      <psa30 value="0.0026838722" flag="0"/>
    </comp>
    <comp name="--.HHN">
      <acc value="0.0347625998" flag="0"/>
      <vel value="0.0338424807" flag="0"/>
      <psa03 value="0.0774926635" flag="0"/>
      <psa10 value="0.0833323903" flag="0"/>
      <psa30 value="0.0119533708" flag="0"/>
    </comp>
    <comp name="--.HHE">
      <acc value="0.0427854232" flag="0"/>
      <vel value="0.0264462308" flag="0"/>
      <psa03 value="0.0710060573" flag="0"/>
      <psa10 value="0.0507500602" flag="0"/>
      <psa30 value="0.0040645290" flag="0"/>
    </comp>
  </station>
  <station code="LIT" name="LIT" netid="HT" insttype="100" lat="40.1033" lon="22.4892">
    <comp name="--.HHE">
      <acc value="0.2965288207" flag="0"/>
      <vel value="0.1247731305" flag="0"/>
      <psa03 value="0.7584048660" flag="0"/>
      <psa10 value="0.0410631788" flag="0"/>
      <psa30 value="0.0072848903" flag="0"/>
    </comp>
    <comp name="--.HHN">
      <acc value="0.3240432464" flag="0"/>
      <vel value="0.1371236939" flag="0"/>
      <psa03 value="0.6329843652" flag="0"/>
      <psa10 value="0.0442299314" flag="0"/>
      <psa30 value="0.0059531425" flag="0"/>
    </comp>
    <comp name="--.HHZ">
      <acc value="0.1247965697" flag="0"/>
      <vel value="0.0688739929" flag="0"/>
      <psa03 value="0.4632865296" flag="0"/>
      <psa10 value="0.0381422252" flag="0"/>
      <psa30 value="0.0078746115" flag="0"/>
    </comp>
  </station>
  <station code="NEST" name="NEST" netid="HT" insttype="120P," lat="40.4147" lon="21.0489">
    <comp name="--.HHE">
      <acc value="0.0108561249" flag="0"/>
      <vel value="0.0124230101" flag="0"/>
      <psa03 value="0.0341322970" flag="0"/>
      <psa10 value="0.0147927162" flag="0"/>
      <psa30 value="0.0026910389" flag="0"/>
    </comp>
    <comp name="--.HHZ">
      <acc value="0.0115369047" flag="0"/>
      <vel value="0.0115149564" flag="0"/>
      <psa03 value="0.0205952972" flag="0"/>
      <psa10 value="0.0152853530" flag="0"/>
      <psa30 value="0.0024967424" flag="0"/>
    </comp>
    <comp name="--.HHN">
      <acc value="0.0126412722" flag="0"/>
      <vel value="0.0137618867" flag="0"/>
      <psa03 value="0.0328114129" flag="0"/>
      <psa10 value="0.0228813455" flag="0"/>
      <psa30 value="0.0030533320" flag="0"/>
    </comp>
  </station>
  <station code="PAIG" name="PAIG" netid="HT" insttype="100" lat="39.9363" lon="23.6768">
    <comp name="--.HHE">
      <acc value="0.0042657114" flag="0"/>
      <vel value="0.0021711096" flag="0"/>
      <psa03 value="0.0151357382" flag="0"/>
      <psa10 value="0.0027520841" flag="0"/>
      <psa30 value="0.0003712602" flag="0"/>
    </comp>
    <comp name="--.HHN">
      <acc value="0.0034354098" flag="0"/>
      <vel value="0.0027655535" flag="0"/>
      <psa03 value="0.0101663862" flag="0"/>
      <psa10 value="0.0041607685" flag="0"/>
      <psa30 value="0.0007188107" flag="0"/>
    </comp>
    <comp name="--.HHZ">
      <acc value="0.0026997965" flag="0"/>
      <vel value="0.0021099748" flag="0"/>
      <psa03 value="0.0087547296" flag="0"/>
      <psa10 value="0.0024098001" flag="0"/>
      <psa30 value="0.0002695000" flag="0"/>
    </comp>
  </station>
  <station code="THE" name="THE" netid="HT" insttype="30s-100Hz," lat="40.6319" lon="22.9628">
    <comp name="--.HHE">
      <acc value="0.0078003061" flag="0"/>
      <vel value="0.0052610010" flag="0"/>
      <psa03 value="0.0291298093" flag="0"/>
      <psa10 value="0.0059172931" flag="0"/>
      <psa30 value="0.0010247193" flag="0"/>
    </comp>
    <comp name="--.HHN">
      <acc value="0.0081399514" flag="0"/>
      <vel value="0.0053655994" flag="0"/>
      <psa03 value="0.0326813808" flag="0"/>
      <psa10 value="0.0068535631" flag="0"/>
      <psa30 value="0.0018043805" flag="0"/>
    </comp>
    <comp name="--.HHZ">
      <acc value="0.0046464859" flag="0"/>
      <vel value="0.0045518001" flag="0"/>
      <psa03 value="0.0133711011" flag="0"/>
      <psa10 value="0.0041842230" flag="0"/>
      <psa30 value="0.0016203275" flag="0"/>
    </comp>
  </station>
  <station code="TYRN" name="TYRN" netid="HT" insttype="120P," lat="39.711" lon="22.2325">
    <comp name="--.HHZ">
      <acc value="0.8426459042" flag="0"/>
      <vel value="0.4413401320" flag="0"/>
      <psa03 value="0.9240644121" flag="0"/>
      <psa10 value="0.3624365117" flag="0"/>
      <psa30 value="0.0303985550" flag="0"/>
    </comp>
    <comp name="--.HHE">
      <acc value="0.8389735720" flag="0"/>
      <vel value="0.4741140009" flag="0"/>
      <psa03 value="1.0091428310" flag="0"/>
      <psa10 value="0.4379693273" flag="0"/>
      <psa30 value="0.0256507509" flag="0"/>
    </comp>
    <comp name="--.HHN">
      <acc value="0.6931998902" flag="0"/>
      <vel value="0.4927606783" flag="0"/>
      <psa03 value="1.0219077611" flag="0"/>
      <psa10 value="0.4494601968" flag="0"/>
      <psa30 value="0.0431570882" flag="0"/>
    </comp>
  </station>
  <station code="THL" name="THL" netid="MN" insttype="" lat="39.5647" lon="22.0144">
    <comp name="--.HHE">
      <acc value="0.3535008352" flag="0"/>
      <vel value="0.1081259295" flag="0"/>
      <psa03 value="0.3314298113" flag="0"/>
      <psa10 value="0.1135689341" flag="0"/>
      <psa30 value="0.0089193353" flag="0"/>
    </comp>
    <comp name="--.HHN">
      <acc value="0.4396064263" flag="0"/>
      <vel value="0.1349805883" flag="0"/>
      <psa03 value="0.3589113463" flag="0"/>
      <psa10 value="0.1218914848" flag="0"/>
      <psa30 value="0.0259289818" flag="0"/>
    </comp>
    <comp name="--.HHZ">
      <acc value="0.4002266405" flag="0"/>
      <vel value="0.1403409889" flag="0"/>
      <psa03 value="0.4895178140" flag="0"/>
      <psa10 value="0.1208344921" flag="0"/>
      <psa30 value="0.0221855420" flag="0"/>
    </comp>
  </station>
</stationlist>
