<stationlist created="1778136806">
	<station code="KRL1" name="KRL1" netid="HI" source="ITSAK Strong Motion Network" insttype="" lat="37.7951" lon="26.7065">
		<comp name="--.HNE" depth="0.0">
			<acc value="0.00267289712034972" flag="0"/>
			<vel value="0.00283657927471823" flag="0"/>
			<psa03 value="0.00890311322504391" flag="0"/>
			<psa10 value="0.0044506757729195" flag="0"/>
			<psa30 value="0.000697688353846221" flag="0"/>
		</comp>
		<comp name="--.HNN" depth="0.0">
			<acc value="0.0022035660293476" flag="0"/>
			<vel value="0.00183473224026963" flag="0"/>
			<psa03 value="0.005247345006709" flag="0"/>
			<psa10 value="0.00465524479338146" flag="0"/>
			<psa30 value="0.00067975695764685" flag="0"/>
		</comp>
		<comp name="--.HNZ" depth="0.0">
			<acc value="0.00193354107876338" flag="0"/>
			<vel value="0.00205179103778642" flag="0"/>
			<psa03 value="0.00422144371242889" flag="0"/>
			<psa10 value="0.00229968093632641" flag="0"/>
			<psa30 value="0.000462902852540849" flag="0"/>
		</comp>
	</station>
	<station code="MYT1" name="MYT1" netid="HI" source="ITSAK Strong Motion Network" insttype="" lat="39.085" lon="26.5694">
		<comp name="--.HNE" depth="0.0">
			<acc value="0.0161833640933146" flag="0"/>
			<vel value="0.0111429012769537" flag="0"/>
			<psa03 value="0.0401727732282483" flag="0"/>
			<psa10 value="0.0185709264827489" flag="0"/>
			<psa30 value="0.00318686340572682" flag="0"/>
		</comp>
		<comp name="--.HNN" depth="0.0">
			<acc value="0.0171818406818794" flag="0"/>
			<vel value="0.0188919800794222" flag="0"/>
			<psa03 value="0.039595508424778" flag="0"/>
			<psa10 value="0.0316004971278455" flag="0"/>
			<psa30 value="0.00363590836108482" flag="0"/>
		</comp>
		<comp name="--.HNZ" depth="0.0">
			<acc value="0.0121783488377848" flag="0"/>
			<vel value="0.00830770366861462" flag="0"/>
			<psa03 value="0.0269623043495182" flag="0"/>
			<psa10 value="0.00962014853762194" flag="0"/>
			<psa30 value="0.00161820365638256" flag="0"/>
		</comp>
	</station>
	<station code="SKY1" name="SKY1" netid="HI" source="ITSAK Strong Motion Network" insttype="" lat="38.904483" lon="24.564572">
		<comp name="--.HNE" depth="0.0">
			<acc value="0.00374618385852844" flag="0"/>
			<vel value="0.00226931048437519" flag="0"/>
			<psa03 value="0.0112220077258614" flag="0"/>
			<psa10 value="0.00334551342072082" flag="0"/>
			<psa30 value="0.000291042300957545" flag="0"/>
		</comp>
		<comp name="--.HNN" depth="0.0">
			<acc value="0.00334055306875588" flag="0"/>
			<vel value="0.0022701250027657" flag="0"/>
			<psa03 value="0.010178166441093" flag="0"/>
			<psa10 value="0.00307967002864856" flag="0"/>
			<psa30 value="0.000251836370423468" flag="0"/>
		</comp>
		<comp name="--.HNZ" depth="0.0">
			<acc value="0.00230447272171572" flag="0"/>
			<vel value="0.00134568694022933" flag="0"/>
			<psa03 value="0.00786699966574804" flag="0"/>
			<psa10 value="0.00143681791651127" flag="0"/>
			<psa30 value="0.000278208872680901" flag="0"/>
		</comp>
	</station>
	<station code="EFSA" name="EFSA" netid="HL" source="National Observatory of Athens Seismic Network" insttype="" lat="39.54015" lon="24.98864">
		<comp name="00.HNE" depth="0.0">
			<acc value="0.00614029368145527" flag="0"/>
			<vel value="0.00619427173444941" flag="0"/>
			<psa03 value="0.0166659582045967" flag="0"/>
			<psa10 value="0.00472120369405668" flag="0"/>
			<psa30 value="0.00111240056607652" flag="0"/>
		</comp>
		<comp name="00.HNN" depth="0.0">
			<acc value="0.00661706750084506" flag="0"/>
			<vel value="0.00534345743782362" flag="0"/>
			<psa03 value="0.0158910761432914" flag="0"/>
			<psa10 value="0.0049522297796562" flag="0"/>
			<psa30 value="0.00109197035850953" flag="0"/>
		</comp>
		<comp name="00.HNZ" depth="0.0">
			<acc value="0.00391489085783182" flag="0"/>
			<vel value="0.00367832683682554" flag="0"/>
			<psa03 value="0.0108716134201837" flag="0"/>
			<psa10 value="0.00491018574446137" flag="0"/>
			<psa30 value="0.000275652870024798" flag="0"/>
		</comp>
	</station>
	<station code="LIA" name="LIA" netid="HL" source="National Observatory of Athens Seismic Network" insttype="" lat="39.89725" lon="25.18055">
		<comp name="00.HNE" depth="0.0">
			<acc value="0.0239190661687805" flag="0"/>
			<vel value="0.00488012362148614" flag="0"/>
			<psa03 value="0.0172131988836923" flag="0"/>
			<psa10 value="0.00657660160508154" flag="0"/>
			<psa30 value="0.000735021712412245" flag="0"/>
		</comp>
		<comp name="00.HNN" depth="0.0">
			<acc value="0.0138644098073285" flag="0"/>
			<vel value="0.00497334154860338" flag="0"/>
			<psa03 value="0.0134483661486898" flag="0"/>
			<psa10 value="0.00568105306061858" flag="0"/>
			<psa30 value="0.00100005666551366" flag="0"/>
		</comp>
		<comp name="00.HNZ" depth="0.0">
			<acc value="0.0146507154081454" flag="0"/>
			<vel value="0.00309124768508436" flag="0"/>
			<psa03 value="0.00743023505515208" flag="0"/>
			<psa10 value="0.00455966033638235" flag="0"/>
			<psa30 value="0.00046885663236557" flag="0"/>
		</comp>
	</station>
	<station code="PRK" name="PRK" netid="HL" source="National Observatory of Athens Seismic Network" insttype="" lat="39.24565" lon="26.26499">
		<comp name="--.HNE" depth="0.0">
			<acc value="0.0229351430657929" flag="0"/>
			<vel value="0.0197542974375112" flag="0"/>
			<psa03 value="0.0574620409530417" flag="0"/>
			<psa10 value="0.0264949257838005" flag="0"/>
			<psa30 value="0.00364849669500055" flag="0"/>
		</comp>
		<comp name="--.HNN" depth="0.0">
			<acc value="0.0335644369213233" flag="0"/>
			<vel value="0.0184171076983652" flag="0"/>
			<psa03 value="0.0866223841411903" flag="0"/>
			<psa10 value="0.0273453246185713" flag="0"/>
			<psa30 value="0.00492787853109029" flag="0"/>
		</comp>
		<comp name="--.HNZ" depth="0.0">
			<acc value="0.0249353643504615" flag="0"/>
			<vel value="0.0128081002388338" flag="0"/>
			<psa03 value="0.0686152537572112" flag="0"/>
			<psa10 value="0.0134981379353792" flag="0"/>
			<psa30 value="0.00176741541592938" flag="0"/>
		</comp>
	</station>
	<station code="SMTH" name="SMTH" netid="HL" source="National Observatory of Athens Seismic Network" insttype="" lat="40.47094" lon="25.53045">
		<comp name="00.HNE" depth="0.0">
			<acc value="0.00119012441081324" flag="0"/>
			<vel value="0.000980493798534762" flag="0"/>
			<psa03 value="0.00282002665667472" flag="0"/>
			<psa10 value="0.00175433703652997" flag="0"/>
			<psa30 value="0.000261738198246142" flag="0"/>
		</comp>
		<comp name="00.HNN" depth="0.0">
			<acc value="0.00149537190493597" flag="0"/>
			<vel value="0.00110307723014065" flag="0"/>
			<psa03 value="0.00359927261383224" flag="0"/>
			<psa10 value="0.00200472506882358" flag="0"/>
			<psa30 value="0.000343829704114014" flag="0"/>
		</comp>
		<comp name="00.HNZ" depth="0.0">
			<acc value="0.00106115960340608" flag="0"/>
			<vel value="0.000744635438009567" flag="0"/>
			<psa03 value="0.00330523067406209" flag="0"/>
			<psa10 value="0.00109363713559179" flag="0"/>
			<psa30 value="0.000156380476626705" flag="0"/>
		</comp>
	</station>
	<station code="TNSA" name="TNSA" netid="HL" source="National Observatory of Athens Seismic Network" insttype="" lat="37.53942" lon="25.1631">
		<comp name="00.HNE" depth="0.0">
			<acc value="0.00215856628052409" flag="0"/>
			<vel value="0.00101763479559217" flag="0"/>
			<psa03 value="0.00441293947099811" flag="0"/>
			<psa10 value="0.0011390350648567" flag="0"/>
			<psa30 value="0.000230589702519372" flag="0"/>
		</comp>
		<comp name="00.HNN" depth="0.0">
			<acc value="0.00214007365448048" flag="0"/>
			<vel value="0.00133065676289062" flag="0"/>
			<psa03 value="0.00618209573140041" flag="0"/>
			<psa10 value="0.00179073507272152" flag="0"/>
			<psa30 value="0.000199151877730549" flag="0"/>
		</comp>
		<comp name="00.HNZ" depth="0.0">
			<acc value="0.00227551702484321" flag="0"/>
			<vel value="0.000991513544827858" flag="0"/>
			<psa03 value="0.0051501074453887" flag="0"/>
			<psa10 value="0.00118353551279545" flag="0"/>
			<psa30 value="0.000273464001064546" flag="0"/>
		</comp>
	</station>
	<station code="BIGA" name="BIGA" netid="KO" source="Bogazici University Kandilli Observatory And Earthquake Research Institute (KOERI)" insttype="" lat="40.28134" lon="27.15048">
		<comp name="--.HNE" depth="0.0">
			<acc value="0.00342181298109839" flag="0"/>
			<vel value="0.00176050818005476" flag="0"/>
			<psa03 value="0.00916822323521927" flag="0"/>
			<psa10 value="0.00176474198362141" flag="0"/>
			<psa30 value="0.00083820287057555" flag="0"/>
		</comp>
		<comp name="--.HNN" depth="0.0">
			<acc value="0.00379882676610196" flag="0"/>
			<vel value="0.00176455727251196" flag="0"/>
			<psa03 value="0.0109901355946422" flag="0"/>
			<psa10 value="0.00263922725772727" flag="0"/>
			<psa30 value="0.000441169746163728" flag="0"/>
		</comp>
		<comp name="--.HNZ" depth="0.0">
			<acc value="0.00187265763675218" flag="0"/>
			<vel value="0.00110877370539134" flag="0"/>
			<psa03 value="0.00426418287181185" flag="0"/>
			<psa10 value="0.00128844039191672" flag="0"/>
			<psa30 value="0.000489546232119292" flag="0"/>
		</comp>
	</station>
	<station code="EDC" name="EDC" netid="KO" source="Bogazici University Kandilli Observatory And Earthquake Research Institute (KOERI)" insttype="" lat="40.3465" lon="27.8618">
		<comp name="--.HNE" depth="0.0">
			<acc value="0.00197099076984598" flag="0"/>
			<vel value="0.00108962595933287" flag="0"/>
			<psa03 value="0.00711725924393173" flag="0"/>
			<psa10 value="0.00169459499297841" flag="0"/>
			<psa30 value="0.000387646382795511" flag="0"/>
		</comp>
		<comp name="--.HNN" depth="0.0">
			<acc value="0.00220652083420822" flag="0"/>
			<vel value="0.00142938874991087" flag="0"/>
			<psa03 value="0.00880065396369557" flag="0"/>
			<psa10 value="0.00180262160233297" flag="0"/>
			<psa30 value="0.000308635054932696" flag="0"/>
		</comp>
		<comp name="--.HNZ" depth="0.0">
			<acc value="0.00134651708298813" flag="0"/>
			<vel value="0.00084455758249962" flag="0"/>
			<psa03 value="0.00218437940493671" flag="0"/>
			<psa10 value="0.00104612863682731" flag="0"/>
			<psa30 value="0.000194134045323563" flag="0"/>
		</comp>
	</station>
	<station code="ENZZ" name="ENZZ" netid="KO" source="Bogazici University Kandilli Observatory And Earthquake Research Institute (KOERI)" insttype="" lat="40.607" lon="26.1406">
		<comp name="--.HNE" depth="0.0">
			<acc value="0.115185646003407" flag="0"/>
			<vel value="0.0147606816165048" flag="0"/>
			<psa03 value="0.0223409252891541" flag="0"/>
			<psa10 value="0.01047107615741" flag="0"/>
			<psa30 value="0.00100405151348479" flag="0"/>
		</comp>
		<comp name="--.HNN" depth="0.0">
			<acc value="0.0353477835063074" flag="0"/>
			<vel value="0.00436353956704462" flag="0"/>
			<psa03 value="0.0145993317174004" flag="0"/>
			<psa10 value="0.0135674884670098" flag="0"/>
			<psa30 value="0.0015887847283562" flag="0"/>
		</comp>
		<comp name="--.HNZ" depth="0.0">
			<acc value="0.190946291814752" flag="0"/>
			<vel value="0.0217850653881688" flag="0"/>
			<psa03 value="0.0128493277674132" flag="0"/>
			<psa10 value="0.00227075128550501" flag="0"/>
			<psa30 value="0.00111149988141284" flag="0"/>
		</comp>
	</station>
	<station code="GONE" name="GONE" netid="KO" source="Bogazici University Kandilli Observatory And Earthquake Research Institute (KOERI)" insttype="" lat="40.0466" lon="27.686">
		<comp name="--.HNE" depth="0.0">
			<acc value="0.00173611313630609" flag="0"/>
			<vel value="0.00149249029310612" flag="0"/>
			<psa03 value="0.00438763766466881" flag="0"/>
			<psa10 value="0.00338491915615832" flag="0"/>
			<psa30 value="0.000453610778654404" flag="0"/>
		</comp>
		<comp name="--.HNN" depth="0.0">
			<acc value="0.00317601011425701" flag="0"/>
			<vel value="0.00337699372408465" flag="0"/>
			<psa03 value="0.00617948748571838" flag="0"/>
			<psa10 value="0.00605735814525192" flag="0"/>
			<psa30 value="0.000512631823927255" flag="0"/>
		</comp>
		<comp name="--.HNZ" depth="0.0">
			<acc value="0.00176117643301566" flag="0"/>
			<vel value="0.00109022901344393" flag="0"/>
			<psa03 value="0.00286780846781946" flag="0"/>
			<psa10 value="0.00149273154238859" flag="0"/>
			<psa30 value="0.000243626555730524" flag="0"/>
		</comp>
	</station>
	<station code="GORD" name="GORD" netid="KO" source="Bogazici University Kandilli Observatory And Earthquake Research Institute (KOERI)" insttype="" lat="38.9088" lon="28.1769">
		<comp name="--.HNE" depth="0.0">
			<acc value="0.00214722509062252" flag="0"/>
			<vel value="0.00199690293290734" flag="0"/>
			<psa03 value="0.00371586008978717" flag="0"/>
			<psa10 value="0.00497246471388474" flag="0"/>
			<psa30 value="0.000512081943747049" flag="0"/>
		</comp>
		<comp name="--.HNN" depth="0.0">
			<acc value="0.00148338407343099" flag="0"/>
			<vel value="0.00204630231297449" flag="0"/>
			<psa03 value="0.00261389760450449" flag="0"/>
			<psa10 value="0.00260517593949401" flag="0"/>
			<psa30 value="0.000475953404578098" flag="0"/>
		</comp>
		<comp name="--.HNZ" depth="0.0">
			<acc value="0.00101216986786114" flag="0"/>
			<vel value="0.00152978997373579" flag="0"/>
			<psa03 value="0.00162660352272776" flag="0"/>
			<psa10 value="0.00269830257743005" flag="0"/>
			<psa30 value="0.000400993673237786" flag="0"/>
		</comp>
	</station>
	<station code="KRBG" name="KRBG" netid="KO" source="Bogazici University Kandilli Observatory And Earthquake Research Institute (KOERI)" insttype="" lat="40.3932" lon="27.2977">
		<comp name="--.HNE" depth="0.0">
			<acc value="0.00279442570792523" flag="0"/>
			<vel value="0.00201633799003772" flag="0"/>
			<psa03 value="0.00773813110280706" flag="0"/>
			<psa10 value="0.00184224719608526" flag="0"/>
			<psa30 value="0.000254579494850621" flag="0"/>
		</comp>
		<comp name="--.HNN" depth="0.0">
			<acc value="0.00220344911256441" flag="0"/>
			<vel value="0.00151015106845043" flag="0"/>
			<psa03 value="0.0064067401703213" flag="0"/>
			<psa10 value="0.00211246126831842" flag="0"/>
			<psa30 value="0.000219904333207695" flag="0"/>
		</comp>
		<comp name="--.HNZ" depth="0.0">
			<acc value="0.00123127687527408" flag="0"/>
			<vel value="0.000709987637756596" flag="0"/>
			<psa03 value="0.00333432277054192" flag="0"/>
			<psa10 value="0.00140786119358332" flag="0"/>
			<psa30 value="0.000198311926254454" flag="0"/>
		</comp>
	</station>
	<station code="SOMA" name="SOMA" netid="KO" source="Bogazici University Kandilli Observatory And Earthquake Research Institute (KOERI)" insttype="" lat="39.1564" lon="27.5341">
		<comp name="--.HNE" depth="0.0">
			<acc value="0.00306058382775512" flag="0"/>
			<vel value="0.00252191164233947" flag="0"/>
			<psa03 value="0.0102031700505614" flag="0"/>
			<psa10 value="0.00478099765511447" flag="0"/>
			<psa30 value="0.000578774330542555" flag="0"/>
		</comp>
		<comp name="--.HNN" depth="0.0">
			<acc value="0.00331892839275997" flag="0"/>
			<vel value="0.00258060281137665" flag="0"/>
			<psa03 value="0.00786522936616061" flag="0"/>
			<psa10 value="0.00413125820682785" flag="0"/>
			<psa30 value="0.000681394305695727" flag="0"/>
		</comp>
		<comp name="--.HNZ" depth="0.0">
			<acc value="0.00195621791899587" flag="0"/>
			<vel value="0.0015848569043504" flag="0"/>
			<psa03 value="0.00444784022050142" flag="0"/>
			<psa10 value="0.00315594844109381" flag="0"/>
			<psa30 value="0.000350583458808467" flag="0"/>
		</comp>
	</station>
</stationlist>
