<?xml version="1.0" encoding="UTF-8" standalone="yes"?>
<!DOCTYPE earthquake SYSTEM "stationlist.dtd">
<stationlist created="" xmlns="ch.ethz.sed.shakemap.usgs.xml">
  <station code="MYT1" name="MYT1" netid="HI" insttype="CMG-5TD,ACCELEROMETER,GURALP" lat="39.085" lon="26.5694">
    <comp name="--.HNE">
      <acc value="0.0159321707" flag="0"/>
      <vel value="0.0102126445" flag="0"/>
      <psa03 value="0.0394646601" flag="0"/>
      <psa10 value="0.0183862133" flag="0"/>
      <psa30 value="0.0027750530" flag="0"/>
    </comp>
    <comp name="--.HNZ">
      <acc value="0.0122782480" flag="0"/>
      <vel value="0.0082453840" flag="0"/>
      <psa03 value="0.0268118358" flag="0"/>
      <psa10 value="0.0096243988" flag="0"/>
      <psa30 value="0.0014668186" flag="0"/>
    </comp>
    <comp name="--.HNN">
      <acc value="0.0172867591" flag="0"/>
      <vel value="0.0179765312" flag="0"/>
      <psa03 value="0.0395522602" flag="0"/>
      <psa10 value="0.0315651911" flag="0"/>
      <psa30 value="0.0031526088" flag="0"/>
    </comp>
  </station>
  <station code="PRK" name="PRK" netid="HL" insttype="120" lat="39.2456" lon="26.265">
    <comp name="--.HHN">
      <acc value="0.0278963805" flag="0"/>
      <vel value="0.0154288585" flag="0"/>
      <psa03 value="0.0734902219" flag="0"/>
      <psa10 value="0.0213204922" flag="0"/>
      <psa30 value="0.0037152196" flag="0"/>
    </comp>
    <comp name="--.HHZ">
      <acc value="0.0243707996" flag="0"/>
      <vel value="0.0114104743" flag="0"/>
      <psa03 value="0.0680278768" flag="0"/>
      <psa10 value="0.0132400516" flag="0"/>
      <psa30 value="0.0015863571" flag="0"/>
    </comp>
    <comp name="--.HHE">
      <acc value="0.0255044968" flag="0"/>
      <vel value="0.0229606030" flag="0"/>
      <psa03 value="0.0644980660" flag="0"/>
      <psa10 value="0.0295289476" flag="0"/>
      <psa30 value="0.0034824968" flag="0"/>
    </comp>
  </station>
  <station code="CHOS" name="CHOS" netid="HT" insttype="100" lat="38.3869" lon="26.0506">
    <comp name="--.HHN">
      <acc value="0.0157166007" flag="0"/>
      <vel value="0.0074033857" flag="0"/>
      <psa03 value="0.0365076884" flag="0"/>
      <psa10 value="0.0105586706" flag="0"/>
      <psa30 value="0.0019995931" flag="0"/>
    </comp>
    <comp name="--.HHE">
      <acc value="0.0279112513" flag="0"/>
      <vel value="0.0114282630" flag="0"/>
      <psa03 value="0.0541607269" flag="0"/>
      <psa10 value="0.0151722376" flag="0"/>
      <psa30 value="0.0018772171" flag="0"/>
    </comp>
    <comp name="--.HHZ">
      <acc value="0.0104178546" flag="0"/>
      <vel value="0.0048766584" flag="0"/>
      <psa03 value="0.0234572845" flag="0"/>
      <psa10 value="0.0073196958" flag="0"/>
      <psa30 value="0.0013163241" flag="0"/>
    </comp>
  </station>
  <station code="SIGR" name="SIGR" netid="HT" insttype="100" lat="39.2114" lon="25.8553">
    <comp name="--.HHZ">
      <acc value="0.0404941192" flag="0"/>
      <vel value="0.0171421068" flag="0"/>
      <psa03 value="0.0730153809" flag="0"/>
      <psa10 value="0.0114504735" flag="0"/>
      <psa30 value="0.0013697544" flag="0"/>
    </comp>
    <comp name="--.HHN">
      <acc value="0.0440212006" flag="0"/>
      <vel value="0.0239120716" flag="0"/>
      <psa03 value="0.0670068281" flag="0"/>
      <psa10 value="0.0261471811" flag="0"/>
      <psa30 value="0.0017054265" flag="0"/>
    </comp>
    <comp name="--.HHE">
      <acc value="0.0392613287" flag="0"/>
      <vel value="0.0241460262" flag="0"/>
      <psa03 value="0.0933003737" flag="0"/>
      <psa10 value="0.0293446838" flag="0"/>
      <psa30 value="0.0017294927" flag="0"/>
    </comp>
  </station>
  <station code="EZN" name="EZN" netid="KO" insttype="120s," lat="39.8255" lon="26.3247">
    <comp name="--.HHE">
      <acc value="0.0119253663" flag="0"/>
      <vel value="0.0096022693" flag="0"/>
      <psa03 value="0.0244350915" flag="0"/>
      <psa10 value="0.0174720921" flag="0"/>
      <psa30 value="0.0007867851" flag="0"/>
    </comp>
  </station>
  <station code="YAYO" name="YAYO" netid="KO" insttype="30s," lat="39.6113" lon="27.0726">
    <comp name="--.HHN">
      <acc value="0.0092504838" flag="0"/>
      <vel value="0.0052883753" flag="0"/>
      <psa03 value="0.0205779933" flag="0"/>
      <psa10 value="0.0064537481" flag="0"/>
      <psa30 value="0.0005013770" flag="0"/>
    </comp>
    <comp name="--.HHE">
      <acc value="0.0098375534" flag="0"/>
      <vel value="0.0060976341" flag="0"/>
      <psa03 value="0.0334345512" flag="0"/>
      <psa10 value="0.0064123954" flag="0"/>
      <psa30 value="0.0005538316" flag="0"/>
    </comp>
    <comp name="--.HHZ">
      <acc value="0.0038372432" flag="0"/>
      <vel value="0.0023919608" flag="0"/>
      <psa03 value="0.0151584570" flag="0"/>
      <psa10 value="0.0030671253" flag="0"/>
      <psa30 value="0.0002371071" flag="0"/>
    </comp>
  </station>
</stationlist>
