<?xml version="1.0" encoding="UTF-8" standalone="yes"?>
<!DOCTYPE earthquake SYSTEM "stationlist.dtd">
<stationlist created="" xmlns="ch.ethz.sed.shakemap.usgs.xml">
  <station code="SKR" name="SKR" netid="VI" insttype="LE-3D/5s" lat="64.5601" lon="-18.3865">
    <comp name="--.HHZ">
      <acc value="0.2678724316" flag="0"/>
      <vel value="0.9101570192" flag="0"/>
      <psa03 value="0.3479784482" flag="0"/>
      <psa10 value="0.6044850845" flag="0"/>
      <psa30 value="0.3552079158" flag="0"/>
    </comp>
    <comp name="--.HHN">
      <acc value="0.2794151552" flag="0"/>
      <vel value="0.8790545664" flag="0"/>
      <psa03 value="0.2865146076" flag="0"/>
      <psa10 value="0.4875588972" flag="0"/>
      <psa30 value="0.3722954782" flag="0"/>
    </comp>
    <comp name="--.HHE">
      <acc value="0.3161668778" flag="0"/>
      <vel value="0.8562744621" flag="0"/>
      <psa03 value="0.3213374493" flag="0"/>
      <psa10 value="0.8179270272" flag="0"/>
      <psa30 value="0.4945466083" flag="0"/>
    </comp>
  </station>
</stationlist>
