<stationlist created="1778138690">
	<station code="S2604" name="S2604" netid="S2" source="IceSMN Icelandic Strong Motion Network (IceSMN)" insttype="" lat="63.9843" lon="-21.6486">
		<comp name="00.HN1" depth="0.0">
			<acc value="0.00824994179624561" flag="0"/>
			<vel value="0.0302041980992673" flag="0"/>
			<psa03 value="0.00852202678203478" flag="0"/>
			<psa10 value="0.0211036830154206" flag="0"/>
			<psa30 value="0.0186260805530893" flag="0"/>
		</comp>
		<comp name="00.HN2" depth="0.0">
			<acc value="0.00702390889468454" flag="0"/>
			<vel value="0.0246903869747482" flag="0"/>
			<psa03 value="0.00791659735237731" flag="0"/>
			<psa10 value="0.013612954603945" flag="0"/>
			<psa30 value="0.0219216255334561" flag="0"/>
		</comp>
		<comp name="00.HNZ" depth="0.0">
			<acc value="0.007691339049858" flag="0"/>
			<vel value="0.0243283203736563" flag="0"/>
			<psa03 value="0.00759951905583924" flag="0"/>
			<psa10 value="0.00854646647396568" flag="0"/>
			<psa30 value="0.0224365996479307" flag="0"/>
		</comp>
	</station>
</stationlist>
