<?xml version="1.0" encoding="UTF-8" standalone="yes"?>
<!DOCTYPE earthquake SYSTEM "stationlist.dtd">
<stationlist created="" xmlns="ch.ethz.sed.shakemap.usgs.xml">
  <station code="BRSN" name="BRSN" netid="IV" insttype="" commtype="DIG" lat="44.2842" lon="12.0802">
    <comp name="--.HNE">
      <acc value="1.5662204500" flag="0"/>
      <vel value="0.3820695972" flag="0"/>
      <psa03 value="1.6501488763" flag="0"/>
      <psa10 value="0.1674801355" flag="0"/>
      <psa30 value="0.0122620584" flag="0"/>
    </comp>
    <comp name="--.HNN">
      <acc value="1.3528847107" flag="0"/>
      <vel value="0.3692102373" flag="0"/>
      <psa03 value="1.3059549125" flag="0"/>
      <psa10 value="0.1645296886" flag="0"/>
      <psa30 value="0.0080239423" flag="0"/>
    </comp>
    <comp name="--.HNZ">
      <acc value="1.8849903465" flag="0"/>
      <vel value="0.2472364581" flag="0"/>
      <psa03 value="0.7017905632" flag="0"/>
      <psa10 value="0.0428043789" flag="0"/>
      <psa30 value="0.0029999575" flag="0"/>
    </comp>
  </station>
  <station code="CRMI" name="CRMI" netid="IV" insttype="" commtype="DIG" lat="43.7956" lon="10.9795">
    <comp name="--.HNZ">
      <acc value="0.0072453147" flag="0"/>
      <vel value="0.0028370423" flag="0"/>
      <psa03 value="0.0247726873" flag="0"/>
      <psa10 value="0.0017522117" flag="0"/>
      <psa30 value="0.0002064150" flag="0"/>
    </comp>
    <comp name="--.HNN">
      <acc value="0.0108241784" flag="0"/>
      <vel value="0.0054745182" flag="0"/>
      <psa03 value="0.0300754257" flag="0"/>
      <psa10 value="0.0059000206" flag="0"/>
      <psa30 value="0.0004199803" flag="0"/>
    </comp>
    <comp name="--.HNE">
      <acc value="0.0092780438" flag="0"/>
      <vel value="0.0030524863" flag="0"/>
      <psa03 value="0.0193011183" flag="0"/>
      <psa10 value="0.0042022519" flag="0"/>
      <psa30 value="0.0002915837" flag="0"/>
    </comp>
  </station>
  <station code="FAEN" name="FAEN" netid="IV" insttype="" commtype="DIG" lat="44.2895" lon="11.877">
    <comp name="--.HNE">
      <acc value="1.0959857727" flag="0"/>
      <vel value="0.4067627449" flag="0"/>
      <psa03 value="2.2791472375" flag="0"/>
      <psa10 value="0.1569125335" flag="0"/>
      <psa30 value="0.0116918726" flag="0"/>
    </comp>
    <comp name="--.HNN">
      <acc value="1.0675255362" flag="0"/>
      <vel value="0.3225332618" flag="0"/>
      <psa03 value="1.7839338458" flag="0"/>
      <psa10 value="0.1542646895" flag="0"/>
      <psa30 value="0.0140972636" flag="0"/>
    </comp>
    <comp name="--.HNZ">
      <acc value="0.2901724867" flag="0"/>
      <vel value="0.0377595691" flag="0"/>
      <psa03 value="0.2405520828" flag="0"/>
      <psa10 value="0.0122551414" flag="0"/>
      <psa30 value="0.0009773857" flag="0"/>
    </comp>
  </station>
  <station code="IMOL" name="IMOL" netid="IV" insttype="" commtype="DIG" lat="44.3595" lon="11.7425">
    <comp name="--.HNE">
      <acc value="0.3342910821" flag="0"/>
      <vel value="0.0950585739" flag="0"/>
      <psa03 value="0.2757479563" flag="0"/>
      <psa10 value="0.0427431048" flag="0"/>
      <psa30 value="0.0049693361" flag="0"/>
    </comp>
    <comp name="--.HNN">
      <acc value="0.3804266299" flag="0"/>
      <vel value="0.1097651208" flag="0"/>
      <psa03 value="0.4414880925" flag="0"/>
      <psa10 value="0.0495415488" flag="0"/>
      <psa30 value="0.0031727377" flag="0"/>
    </comp>
    <comp name="--.HNZ">
      <acc value="0.3664485530" flag="0"/>
      <vel value="0.0469661497" flag="0"/>
      <psa03 value="0.0725596577" flag="0"/>
      <psa10 value="0.0240632501" flag="0"/>
      <psa30 value="0.0015034041" flag="0"/>
    </comp>
  </station>
  <station code="LMD" name="LMD" netid="IV" insttype="" commtype="DIG" lat="44.0775" lon="11.7073">
    <comp name="--.HHE">
      <acc value="0.1799216007" flag="0"/>
      <vel value="0.0536654419" flag="0"/>
      <psa03 value="0.3992476178" flag="0"/>
      <psa10 value="0.0294532934" flag="0"/>
      <psa30 value="0.0022619621" flag="0"/>
    </comp>
    <comp name="--.HHN">
      <acc value="0.2400015063" flag="0"/>
      <vel value="0.1046798203" flag="0"/>
      <psa03 value="0.6149022965" flag="0"/>
      <psa10 value="0.0326835231" flag="0"/>
      <psa30 value="0.0032781565" flag="0"/>
    </comp>
    <comp name="--.HHZ">
      <acc value="0.1050495524" flag="0"/>
      <vel value="0.0375432437" flag="0"/>
      <psa03 value="0.1580088616" flag="0"/>
      <psa10 value="0.0127873581" flag="0"/>
      <psa30 value="0.0011602438" flag="0"/>
    </comp>
  </station>
  <station code="MTRZ" name="MTRZ" netid="IV" insttype="" commtype="DIG" lat="44.3128" lon="11.4248">
    <comp name="--.HNE">
      <acc value="0.0325318198" flag="0"/>
      <vel value="0.0197810314" flag="0"/>
      <psa03 value="0.0876317334" flag="0"/>
      <psa10 value="0.0170250964" flag="0"/>
      <psa30 value="0.0011746811" flag="0"/>
    </comp>
    <comp name="--.HNN">
      <acc value="0.0334275928" flag="0"/>
      <vel value="0.0156278895" flag="0"/>
      <psa03 value="0.1096380266" flag="0"/>
      <psa10 value="0.0124529336" flag="0"/>
      <psa30 value="0.0011409068" flag="0"/>
    </comp>
    <comp name="--.HNZ">
      <acc value="0.0196520060" flag="0"/>
      <vel value="0.0112918135" flag="0"/>
      <psa03 value="0.0493579457" flag="0"/>
      <psa10 value="0.0078324972" flag="0"/>
      <psa30 value="0.0007843099" flag="0"/>
    </comp>
  </station>
  <station code="SERM" name="SERM" netid="IV" insttype="" commtype="DIG" lat="45.01" lon="11.2958">
    <comp name="--.HNE">
      <acc value="0.0986899638" flag="0"/>
      <vel value="0.0248235262" flag="0"/>
      <psa03 value="0.1536962186" flag="0"/>
      <psa10 value="0.0303929274" flag="0"/>
      <psa30 value="0.0029025478" flag="0"/>
    </comp>
    <comp name="--.HNN">
      <acc value="0.1203698507" flag="0"/>
      <vel value="0.0491660408" flag="0"/>
      <psa03 value="0.2241055148" flag="0"/>
      <psa10 value="0.0211025915" flag="0"/>
      <psa30 value="0.0022431592" flag="0"/>
    </comp>
    <comp name="--.HNZ">
      <acc value="0.0674534700" flag="0"/>
      <vel value="0.0105206848" flag="0"/>
      <psa03 value="0.0602753455" flag="0"/>
      <psa10 value="0.0044180398" flag="0"/>
      <psa30 value="0.0007042932" flag="0"/>
    </comp>
  </station>
</stationlist>
