<stationlist created="1775808506">
	<station code="MK14" name="MK14" netid="CR" source="Croatian Seismograph Network (CSN)" insttype="" lat="44.873001" lon="13.849577">
		<comp name="--.HNE" depth="0.0">
			<acc value="0.00834782339280495" flag="0"/>
			<vel value="0.001918865408265" flag="0"/>
			<psa03 value="0.00414699184025287" flag="0"/>
			<psa10 value="0.00019685245945465" flag="0"/>
			<psa30 value="2.13413551662918e-05" flag="0"/>
		</comp>
		<comp name="--.HNN" depth="0.0">
			<acc value="0.00862795270424216" flag="0"/>
			<vel value="0.00177353107897136" flag="0"/>
			<psa03 value="0.00410989335401439" flag="0"/>
			<psa10 value="0.000146550377188569" flag="0"/>
			<psa30 value="1.61650487197271e-05" flag="0"/>
		</comp>
		<comp name="--.HNZ" depth="0.0">
			<acc value="0.00444459065741796" flag="0"/>
			<vel value="0.000999344061540045" flag="0"/>
			<psa03 value="0.00314231298052162" flag="0"/>
			<psa10 value="0.000122292356639541" flag="0"/>
			<psa30 value="1.28789081774812e-05" flag="0"/>
		</comp>
	</station>
	<station code="MK26" name="MK26" netid="CR" source="Croatian Seismograph Network (CSN)" insttype="" lat="45.228525" lon="13.593657">
		<comp name="--.HNE" depth="0.0">
			<acc value="0.0217507707320154" flag="0"/>
			<vel value="0.00819121129375199" flag="0"/>
			<psa03 value="0.024251726349516" flag="0"/>
			<psa10 value="0.00332170614047972" flag="0"/>
			<psa30 value="0.000367918305073728" flag="0"/>
		</comp>
		<comp name="--.HNN" depth="0.0">
			<acc value="0.0169816260420738" flag="0"/>
			<vel value="0.0065274284717977" flag="0"/>
			<psa03 value="0.0345561172981784" flag="0"/>
			<psa10 value="0.00366303593940374" flag="0"/>
			<psa30 value="0.000345917967450999" flag="0"/>
		</comp>
		<comp name="--.HNZ" depth="0.0">
			<acc value="0.0125736882100483" flag="0"/>
			<vel value="0.00544811552498687" flag="0"/>
			<psa03 value="0.0266839004899497" flag="0"/>
			<psa10 value="0.00489279631124302" flag="0"/>
			<psa30 value="0.000323451192679099" flag="0"/>
		</comp>
	</station>
	<station code="0REN" name="0REN" netid="IT" source="Italian Strong Motion Network (RAN)" insttype="" lat="43.5462" lon="12.264">
		<comp name="--.HNE" depth="0.0">
			<acc value="0.00814483677259727" flag="0"/>
			<vel value="0.00164829948504778" flag="0"/>
			<psa03 value="0.00250289871491252" flag="0"/>
			<psa10 value="0.000141083701571576" flag="0"/>
			<psa30 value="1.53868542645178e-05" flag="0"/>
		</comp>
		<comp name="--.HNN" depth="0.0">
			<acc value="0.0110809884888352" flag="0"/>
			<vel value="0.00206421550122857" flag="0"/>
			<psa03 value="0.00268155752283799" flag="0"/>
			<psa10 value="0.000185184015579071" flag="0"/>
			<psa30 value="2.01737696814628e-05" flag="0"/>
		</comp>
		<comp name="--.HNZ" depth="0.0">
			<acc value="0.00767468047358516" flag="0"/>
			<vel value="0.0012623690806802" flag="0"/>
			<psa03 value="0.00159019404697843" flag="0"/>
			<psa10 value="0.000114646991773203" flag="0"/>
			<psa30 value="1.2445992129126e-05" flag="0"/>
		</comp>
	</station>
	<station code="ALF" name="ALF" netid="IT" source="Italian Strong Motion Network (RAN)" insttype="" lat="44.5022" lon="12.0334">
		<comp name="--.HGE" depth="0.0">
			<acc value="0.106252668473242" flag="0"/>
			<vel value="0.0362487838732238" flag="0"/>
			<psa03 value="0.275766455674297" flag="0"/>
			<psa10 value="0.00952208047859976" flag="0"/>
			<psa30 value="0.000850743076303574" flag="0"/>
		</comp>
		<comp name="--.HGN" depth="0.0">
			<acc value="0.126809618526713" flag="0"/>
			<vel value="0.0328669627542588" flag="0"/>
			<psa03 value="0.197180603913964" flag="0"/>
			<psa10 value="0.0066549161680355" flag="0"/>
			<psa30 value="0.000653518396553136" flag="0"/>
		</comp>
		<comp name="--.HGZ" depth="0.0">
			<acc value="0.156709277836731" flag="0"/>
			<vel value="0.0336592402516867" flag="0"/>
			<psa03 value="0.147371783490726" flag="0"/>
			<psa10 value="0.00456516382594881" flag="0"/>
			<psa30 value="0.000459605759125914" flag="0"/>
		</comp>
	</station>
	<station code="ANB" name="ANB" netid="IT" source="Italian Strong Motion Network (RAN)" insttype="" lat="43.5922" lon="13.5074">
		<comp name="--.HGE" depth="0.0">
			<acc value="0.0516839149895231" flag="0"/>
			<vel value="0.0267017480153548" flag="0"/>
			<psa03 value="0.0956709418970387" flag="0"/>
			<psa10 value="0.0174968965835283" flag="0"/>
			<psa30 value="0.00130647133898104" flag="0"/>
		</comp>
		<comp name="--.HGN" depth="0.0">
			<acc value="0.0748148799180574" flag="0"/>
			<vel value="0.0249247891537675" flag="0"/>
			<psa03 value="0.15869775253059" flag="0"/>
			<psa10 value="0.0236256275818787" flag="0"/>
			<psa30 value="0.00106730247438421" flag="0"/>
		</comp>
		<comp name="--.HGZ" depth="0.0">
			<acc value="0.0284721041592063" flag="0"/>
			<vel value="0.0090258438049556" flag="0"/>
			<psa03 value="0.048724436088097" flag="0"/>
			<psa10 value="0.00699085967264395" flag="0"/>
			<psa30 value="0.000496001920192961" flag="0"/>
		</comp>
	</station>
	<station code="APNO" name="APNO" netid="IT" source="Italian Strong Motion Network (RAN)" insttype="" lat="43.3638" lon="13.3451">
		<comp name="--.HNE" depth="0.0">
			<acc value="0.0234883150061336" flag="0"/>
			<vel value="0.00954148269120346" flag="0"/>
			<psa03 value="0.0517041074350336" flag="0"/>
			<psa10 value="0.012716823364637" flag="0"/>
			<psa30 value="0.00078709781845093" flag="0"/>
		</comp>
		<comp name="--.HNN" depth="0.0">
			<acc value="0.0269013765591519" flag="0"/>
			<vel value="0.0111186147454886" flag="0"/>
			<psa03 value="0.0785792679908573" flag="0"/>
			<psa10 value="0.0105822747737686" flag="0"/>
			<psa30 value="0.00205038832816396" flag="0"/>
		</comp>
		<comp name="--.HNZ" depth="0.0">
			<acc value="0.0228419977921066" flag="0"/>
			<vel value="0.00494335412117171" flag="0"/>
			<psa03 value="0.0327494845967951" flag="0"/>
			<psa10 value="0.00775636178965231" flag="0"/>
			<psa30 value="0.000969174411381626" flag="0"/>
		</comp>
	</station>
	<station code="ARCV" name="ARCV" netid="IT" source="Italian Strong Motion Network (RAN)" insttype="" lat="43.495" lon="12.9396">
		<comp name="--.HNE" depth="0.0">
			<acc value="0.0161649234884123" flag="0"/>
			<vel value="0.00611251518060098" flag="0"/>
			<psa03 value="0.0462371515260351" flag="0"/>
			<psa10 value="0.00510878718207818" flag="0"/>
			<psa30 value="0.000720701909631158" flag="0"/>
		</comp>
		<comp name="--.HNN" depth="0.0">
			<acc value="0.019355069827284" flag="0"/>
			<vel value="0.00598065502017786" flag="0"/>
			<psa03 value="0.0326874596546137" flag="0"/>
			<psa10 value="0.00432431865238806" flag="0"/>
			<psa30 value="0.000451390579493915" flag="0"/>
		</comp>
		<comp name="--.HNZ" depth="0.0">
			<acc value="0.0116941872335102" flag="0"/>
			<vel value="0.00467649088953012" flag="0"/>
			<psa03 value="0.020664926241612" flag="0"/>
			<psa10 value="0.00324609620981789" flag="0"/>
			<psa30 value="0.000237692412622469" flag="0"/>
		</comp>
	</station>
	<station code="ARG" name="ARG" netid="IT" source="Italian Strong Motion Network (RAN)" insttype="" lat="44.6306" lon="11.8251">
		<comp name="--.HNE" depth="0.0">
			<acc value="0.059134710776697" flag="0"/>
			<vel value="0.0405059882006787" flag="0"/>
			<psa03 value="0.111233545759834" flag="0"/>
			<psa10 value="0.100072341801515" flag="0"/>
			<psa30 value="0.00536639049703355" flag="0"/>
		</comp>
		<comp name="--.HNN" depth="0.0">
			<acc value="0.0893752668734976" flag="0"/>
			<vel value="0.0478299890980035" flag="0"/>
			<psa03 value="0.0901378878593635" flag="0"/>
			<psa10 value="0.0997021022749632" flag="0"/>
			<psa30 value="0.00421105021140974" flag="0"/>
		</comp>
		<comp name="--.HNZ" depth="0.0">
			<acc value="0.0434342211816309" flag="0"/>
			<vel value="0.011053903306409" flag="0"/>
			<psa03 value="0.0410717754910565" flag="0"/>
			<psa10 value="0.0139737106897538" flag="0"/>
			<psa30 value="0.00161284257207164" flag="0"/>
		</comp>
	</station>
	<station code="ARO" name="ARO" netid="IT" source="Italian Strong Motion Network (RAN)" insttype="" lat="43.4662" lon="11.8828">
		<comp name="--.HNE" depth="0.0">
			<acc value="0.0025379997031978" flag="0"/>
			<vel value="0.000289435334676517" flag="0"/>
			<psa03 value="0.00038289784231643" flag="0"/>
			<psa10 value="2.08732675171573e-05" flag="0"/>
			<psa30 value="2.25764060578729e-06" flag="0"/>
		</comp>
		<comp name="--.HNN" depth="0.0">
			<acc value="0.00409380850084084" flag="0"/>
			<vel value="0.000727334117085545" flag="0"/>
			<psa03 value="0.000686684079945017" flag="0"/>
			<psa10 value="4.94027404625371e-05" flag="0"/>
			<psa30 value="5.41237433099729e-06" flag="0"/>
		</comp>
		<comp name="--.HNZ" depth="0.0">
			<acc value="0.00761322292440306" flag="0"/>
			<vel value="0.00115770323246488" flag="0"/>
			<psa03 value="0.000877244392432581" flag="0"/>
			<psa10 value="7.11792025775288e-05" flag="0"/>
			<psa30 value="7.82781510381287e-06" flag="0"/>
		</comp>
	</station>
	<station code="ASS" name="ASS" netid="IT" source="Italian Strong Motion Network (RAN)" insttype="" lat="43.075" lon="12.6041">
		<comp name="--.HNE" depth="0.0">
			<acc value="0.00303291414259514" flag="0"/>
			<vel value="0.000318232376036768" flag="0"/>
			<psa03 value="0.00062572484149933" flag="0"/>
			<psa10 value="2.74141897127532e-05" flag="0"/>
			<psa30 value="2.91426308329608e-06" flag="0"/>
		</comp>
		<comp name="--.HNN" depth="0.0">
			<acc value="0.00303257124925092" flag="0"/>
			<vel value="0.000277041605201669" flag="0"/>
			<psa03 value="0.000438906272652148" flag="0"/>
			<psa10 value="2.38526384698453e-05" flag="0"/>
			<psa30 value="2.60535732520928e-06" flag="0"/>
		</comp>
		<comp name="--.HNZ" depth="0.0">
			<acc value="0.00250886697121486" flag="0"/>
			<vel value="0.000348426862531222" flag="0"/>
			<psa03 value="0.000384810322524483" flag="0"/>
			<psa10 value="2.74652374059357e-05" flag="0"/>
			<psa30 value="3.01524552158493e-06" flag="0"/>
		</comp>
	</station>
	<station code="AUL" name="AUL" netid="IT" source="Italian Strong Motion Network (RAN)" insttype="" lat="44.2087" lon="9.9731">
		<comp name="--.HNE" depth="0.0">
			<acc value="0.00487492618383144" flag="0"/>
			<vel value="0.00390830910949217" flag="0"/>
			<psa03 value="0.0136453648759551" flag="0"/>
			<psa10 value="0.00449746762265757" flag="0"/>
			<psa30 value="0.000455988696596606" flag="0"/>
		</comp>
		<comp name="--.HNN" depth="0.0">
			<acc value="0.00253208308252523" flag="0"/>
			<vel value="0.00197897034978766" flag="0"/>
			<psa03 value="0.0105443078836485" flag="0"/>
			<psa10 value="0.00327743164501168" flag="0"/>
			<psa30 value="0.000371271548042951" flag="0"/>
		</comp>
		<comp name="--.HNZ" depth="0.0">
			<acc value="0.00196244723237409" flag="0"/>
			<vel value="0.00173395716506931" flag="0"/>
			<psa03 value="0.00512734714856404" flag="0"/>
			<psa10 value="0.00278019792446799" flag="0"/>
			<psa30 value="0.000391984196195906" flag="0"/>
		</comp>
	</station>
	<station code="BBN" name="BBN" netid="IT" source="Italian Strong Motion Network (RAN)" insttype="" lat="43.7476" lon="11.8214">
		<comp name="--.HNE" depth="0.0">
			<acc value="0.0097183306736452" flag="0"/>
			<vel value="0.00316032444141258" flag="0"/>
			<psa03 value="0.0289874176699911" flag="0"/>
			<psa10 value="0.00063266298503656" flag="0"/>
			<psa30 value="5.59147587658528e-05" flag="0"/>
		</comp>
		<comp name="--.HNN" depth="0.0">
			<acc value="0.01552149316045" flag="0"/>
			<vel value="0.00528276155297674" flag="0"/>
			<psa03 value="0.0274860343565483" flag="0"/>
			<psa10 value="0.000735900937325483" flag="0"/>
			<psa30 value="8.15891353485481e-05" flag="0"/>
		</comp>
		<comp name="--.HNZ" depth="0.0">
			<acc value="0.0108020548687594" flag="0"/>
			<vel value="0.00411860195810015" flag="0"/>
			<psa03 value="0.0314937659949338" flag="0"/>
			<psa10 value="0.00101466897465233" flag="0"/>
			<psa30 value="8.8274962366359e-05" flag="0"/>
		</comp>
	</station>
	<station code="BDT" name="BDT" netid="IT" source="Italian Strong Motion Network (RAN)" insttype="" lat="43.7068" lon="12.188">
		<comp name="--.HNE" depth="0.0">
			<acc value="0.000813873070402084" flag="0"/>
			<vel value="6.30049172347909e-05" flag="0"/>
			<psa03 value="4.16174928758789e-05" flag="0"/>
			<psa10 value="3.34984807066245e-06" flag="0"/>
			<psa30 value="3.69292041910385e-07" flag="0"/>
		</comp>
		<comp name="--.HNN" depth="0.0">
			<acc value="0.00184621733014681" flag="0"/>
			<vel value="9.4848587354244e-05" flag="0"/>
			<psa03 value="5.18563201550981e-05" flag="0"/>
			<psa10 value="3.05372219156924e-06" flag="0"/>
			<psa30 value="3.35074789019946e-07" flag="0"/>
		</comp>
		<comp name="--.HNZ" depth="0.0">
			<acc value="0.0012313068186833" flag="0"/>
			<vel value="7.16511942686046e-05" flag="0"/>
			<psa03 value="3.27532683760977e-05" flag="0"/>
			<psa10 value="2.35327242412091e-06" flag="0"/>
			<psa30 value="2.59246198039608e-07" flag="0"/>
		</comp>
	</station>
	<station code="BGL" name="BGL" netid="IT" source="Italian Strong Motion Network (RAN)" insttype="" lat="43.9958" lon="10.5769">
		<comp name="--.HNE" depth="0.0">
			<acc value="0.0113292497946355" flag="0"/>
			<vel value="0.00471805265150172" flag="0"/>
			<psa03 value="0.0269831833368028" flag="0"/>
			<psa10 value="0.005323681574027" flag="0"/>
			<psa30 value="0.000557338483439252" flag="0"/>
		</comp>
		<comp name="--.HNN" depth="0.0">
			<acc value="0.00813602525178905" flag="0"/>
			<vel value="0.00388894161273063" flag="0"/>
			<psa03 value="0.0162221618781935" flag="0"/>
			<psa10 value="0.0083414300788051" flag="0"/>
			<psa30 value="0.000478035677934252" flag="0"/>
		</comp>
		<comp name="--.HNZ" depth="0.0">
			<acc value="0.00798477068381178" flag="0"/>
			<vel value="0.00326735180693552" flag="0"/>
			<psa03 value="0.020683409236853" flag="0"/>
			<psa10 value="0.00371246515134644" flag="0"/>
			<psa30 value="0.000242987034198497" flag="0"/>
		</comp>
	</station>
	<station code="BGN" name="BGN" netid="IT" source="Italian Strong Motion Network (RAN)" insttype="" lat="44.3224" lon="9.9917">
		<comp name="--.HGE" depth="0.0">
			<acc value="0.00277269651781563" flag="0"/>
			<vel value="0.00115981090193967" flag="0"/>
			<psa03 value="0.00417628381976525" flag="0"/>
			<psa10 value="0.00190304294225527" flag="0"/>
			<psa30 value="0.00020942180285415" flag="0"/>
		</comp>
		<comp name="--.HGN" depth="0.0">
			<acc value="0.0020455839908348" flag="0"/>
			<vel value="0.00148914647196274" flag="0"/>
			<psa03 value="0.00405054860240335" flag="0"/>
			<psa10 value="0.00215280058122311" flag="0"/>
			<psa30 value="0.0002181073521875" flag="0"/>
		</comp>
		<comp name="--.HGZ" depth="0.0">
			<acc value="0.00199405878726993" flag="0"/>
			<vel value="0.00114871663964611" flag="0"/>
			<psa03 value="0.00342557002616074" flag="0"/>
			<psa10 value="0.00264351074461315" flag="0"/>
			<psa30 value="0.000216838075395809" flag="0"/>
		</comp>
	</station>
	<station code="BOZL" name="BOZL" netid="IT" source="Italian Strong Motion Network (RAN)" insttype="" lat="45.0995" lon="10.4798">
		<comp name="--.HNE" depth="0.0">
			<acc value="0.0155848867191234" flag="0"/>
			<vel value="0.00686466644130578" flag="0"/>
			<psa03 value="0.0226219491139394" flag="0"/>
			<psa10 value="0.00749298418592866" flag="0"/>
			<psa30 value="0.00191914734242608" flag="0"/>
		</comp>
		<comp name="--.HNN" depth="0.0">
			<acc value="0.0137915554394144" flag="0"/>
			<vel value="0.00662330771567026" flag="0"/>
			<psa03 value="0.0186107315675463" flag="0"/>
			<psa10 value="0.0105447085351897" flag="0"/>
			<psa30 value="0.00201624877491944" flag="0"/>
		</comp>
		<comp name="--.HNZ" depth="0.0">
			<acc value="0.0138298094831477" flag="0"/>
			<vel value="0.00274147577775878" flag="0"/>
			<psa03 value="0.00842357820300684" flag="0"/>
			<psa10 value="0.00282482916231846" flag="0"/>
			<psa30 value="0.00102826040887231" flag="0"/>
		</comp>
	</station>
	<station code="BRB" name="BRB" netid="IT" source="Italian Strong Motion Network (RAN)" insttype="" lat="43.9542" lon="11.2128">
		<comp name="--.HNE" depth="0.0">
			<acc value="0.0146024679331671" flag="0"/>
			<vel value="0.00304846873710571" flag="0"/>
			<psa03 value="0.019124921880131" flag="0"/>
			<psa10 value="0.000559431708042609" flag="0"/>
			<psa30 value="5.70652972229624e-05" flag="0"/>
		</comp>
		<comp name="--.HNN" depth="0.0">
			<acc value="0.0118592927012481" flag="0"/>
			<vel value="0.00343895261812881" flag="0"/>
			<psa03 value="0.0255518463302507" flag="0"/>
			<psa10 value="0.000605746573050114" flag="0"/>
			<psa30 value="5.73171107793747e-05" flag="0"/>
		</comp>
		<comp name="--.HNZ" depth="0.0">
			<acc value="0.0230075537509069" flag="0"/>
			<vel value="0.00530523585352214" flag="0"/>
			<psa03 value="0.0120215606923138" flag="0"/>
			<psa10 value="0.000551904549249031" flag="0"/>
			<psa30 value="5.93800143636962e-05" flag="0"/>
		</comp>
	</station>
	<station code="BRH" name="BRH" netid="IT" source="Italian Strong Motion Network (RAN)" insttype="" lat="44.2076" lon="11.7639">
		<comp name="--.HGE" depth="0.0">
			<acc value="0.697205229039847" flag="0"/>
			<vel value="0.162368001267062" flag="0"/>
			<psa03 value="0.733076312707965" flag="0"/>
			<psa10 value="0.0335897564065119" flag="0"/>
			<psa30 value="0.00278669773004821" flag="0"/>
		</comp>
		<comp name="--.HGN" depth="0.0">
			<acc value="1.22613032458196" flag="0"/>
			<vel value="0.259971303973689" flag="0"/>
			<psa03 value="1.17158411169756" flag="0"/>
			<psa10 value="0.035433153522524" flag="0"/>
			<psa30 value="0.00365068517330943" flag="0"/>
		</comp>
		<comp name="--.HGZ" depth="0.0">
			<acc value="0.308774064878497" flag="0"/>
			<vel value="0.0617742733946191" flag="0"/>
			<psa03 value="0.412643752290105" flag="0"/>
			<psa10 value="0.0163947210698098" flag="0"/>
			<psa30 value="0.0013663452011639" flag="0"/>
		</comp>
	</station>
	<station code="BRM" name="BRM" netid="IT" source="Italian Strong Motion Network (RAN)" insttype="" lat="44.1293" lon="11.1176">
		<comp name="--.HGE" depth="0.0">
			<acc value="0.214989635805627" flag="0"/>
			<vel value="0.0110107263489206" flag="0"/>
			<psa03 value="0.0102062334045401" flag="0"/>
			<psa10 value="0.0069123711919173" flag="0"/>
			<psa30 value="0.000357086181248686" flag="0"/>
		</comp>
		<comp name="--.HGN" depth="0.0">
			<acc value="0.137690218713619" flag="0"/>
			<vel value="0.00559082983373513" flag="0"/>
			<psa03 value="0.0156300992194481" flag="0"/>
			<psa10 value="0.00356404110023148" flag="0"/>
			<psa30 value="0.000601591987933407" flag="0"/>
		</comp>
		<comp name="--.HGZ" depth="0.0">
			<acc value="0.0143891122132694" flag="0"/>
			<vel value="0.00251681687131473" flag="0"/>
			<psa03 value="0.00752215130039851" flag="0"/>
			<psa10 value="0.00295613051663879" flag="0"/>
			<psa30 value="0.000391611228780312" flag="0"/>
		</comp>
	</station>
	<station code="BRR" name="BRR" netid="IT" source="Italian Strong Motion Network (RAN)" insttype="" lat="44.5063" lon="9.9872">
		<comp name="--.HGE" depth="0.0">
			<acc value="0.0096350849730837" flag="0"/>
			<vel value="0.002439010134385" flag="0"/>
			<psa03 value="0.00574094671579482" flag="0"/>
			<psa10 value="0.00308426994274689" flag="0"/>
			<psa30 value="0.000407321930995563" flag="0"/>
		</comp>
		<comp name="--.HGN" depth="0.0">
			<acc value="0.00733199704212067" flag="0"/>
			<vel value="0.00216599984686735" flag="0"/>
			<psa03 value="0.00616610704203818" flag="0"/>
			<psa10 value="0.00380715072067572" flag="0"/>
			<psa30 value="0.000364459169672985" flag="0"/>
		</comp>
		<comp name="--.HGZ" depth="0.0">
			<acc value="0.0105870441903071" flag="0"/>
			<vel value="0.00123397218872811" flag="0"/>
			<psa03 value="0.00347675147657648" flag="0"/>
			<psa10 value="0.00241241270112694" flag="0"/>
			<psa30 value="0.000451064255793238" flag="0"/>
		</comp>
	</station>
