<stationlist created="1778723761">
	<station code="MK14" name="MK14" netid="CR" source="Croatian Seismograph Network (CSN)" insttype="" lat="44.873001" lon="13.849577">
		<comp name="--.HNE" depth="0.0">
			<acc value="0.00834782339280495" flag="0"/>
			<vel value="0.001918865408265" flag="0"/>
			<psa03 value="0.00414699184025287" flag="0"/>
			<psa10 value="0.00019685245945465" flag="0"/>
			<psa30 value="2.13413551662918e-05" flag="0"/>
		</comp>
		<comp name="--.HNN" depth="0.0">
			<acc value="0.00862795270424216" flag="0"/>
			<vel value="0.00177353107897136" flag="0"/>
			<psa03 value="0.00410989335401439" flag="0"/>
			<psa10 value="0.000146550377188569" flag="0"/>
			<psa30 value="1.61650487197271e-05" flag="0"/>
		</comp>
		<comp name="--.HNZ" depth="0.0">
			<acc value="0.00444459065741796" flag="0"/>
			<vel value="0.000999344061540045" flag="0"/>
			<psa03 value="0.00314231298052162" flag="0"/>
			<psa10 value="0.000122292356639541" flag="0"/>
			<psa30 value="1.28789081774812e-05" flag="0"/>
		</comp>
	</station>
	<station code="MK26" name="MK26" netid="CR" source="Croatian Seismograph Network (CSN)" insttype="" lat="45.228525" lon="13.593657">
		<comp name="--.HNE" depth="0.0">
			<acc value="0.0217507707320154" flag="0"/>
			<vel value="0.00819121129375199" flag="0"/>
			<psa03 value="0.024251726349516" flag="0"/>
			<psa10 value="0.00332170614047972" flag="0"/>
			<psa30 value="0.000367918305073728" flag="0"/>
		</comp>
		<comp name="--.HNN" depth="0.0">
			<acc value="0.0169816260420738" flag="0"/>
			<vel value="0.0065274284717977" flag="0"/>
			<psa03 value="0.0345561172981784" flag="0"/>
			<psa10 value="0.00366303593940374" flag="0"/>
			<psa30 value="0.000345917967450999" flag="0"/>
		</comp>
		<comp name="--.HNZ" depth="0.0">
			<acc value="0.0125736882100483" flag="0"/>
			<vel value="0.00544811552498687" flag="0"/>
			<psa03 value="0.0266839004899497" flag="0"/>
			<psa10 value="0.00489279631124302" flag="0"/>
			<psa30 value="0.000323451192679099" flag="0"/>
		</comp>
	</station>
	<station code="ALF" name="ALF" netid="IT" source="Italian Strong Motion Network (RAN)" insttype="" lat="44.5022" lon="12.0334">
		<comp name="--.HGE" depth="0.0">
			<acc value="0.25498572491739" flag="0"/>
			<vel value="0.1940961467397" flag="0"/>
			<psa03 value="0.642082368139046" flag="0"/>
			<psa10 value="0.236431787445571" flag="0"/>
			<psa30 value="0.00969213622312491" flag="0"/>
		</comp>
		<comp name="--.HGN" depth="0.0">
			<acc value="0.205098390715433" flag="0"/>
			<vel value="0.120609110101881" flag="0"/>
			<psa03 value="0.431005385324846" flag="0"/>
			<psa10 value="0.098936421552373" flag="0"/>
			<psa30 value="0.0134924296405796" flag="0"/>
		</comp>
		<comp name="--.HGZ" depth="0.0">
			<acc value="0.15987194842007" flag="0"/>
			<vel value="0.0408358456355268" flag="0"/>
			<psa03 value="0.249248573994779" flag="0"/>
			<psa10 value="0.0333038524667791" flag="0"/>
			<psa30 value="0.00190467242520052" flag="0"/>
		</comp>
	</station>
	<station code="ANB" name="ANB" netid="IT" source="Italian Strong Motion Network (RAN)" insttype="" lat="43.5922" lon="13.5074">
		<comp name="--.HGE" depth="0.0">
			<acc value="0.0516839149895231" flag="0"/>
			<vel value="0.0267017480153548" flag="0"/>
			<psa03 value="0.0956709418970387" flag="0"/>
			<psa10 value="0.0174968965835283" flag="0"/>
			<psa30 value="0.00130647133898104" flag="0"/>
		</comp>
		<comp name="--.HGN" depth="0.0">
			<acc value="0.0748148799180574" flag="0"/>
			<vel value="0.0249247891537675" flag="0"/>
			<psa03 value="0.15869775253059" flag="0"/>
			<psa10 value="0.0236256275818787" flag="0"/>
			<psa30 value="0.00106730247438421" flag="0"/>
		</comp>
		<comp name="--.HGZ" depth="0.0">
			<acc value="0.0284721041592063" flag="0"/>
			<vel value="0.0090258438049556" flag="0"/>
			<psa03 value="0.048724436088097" flag="0"/>
			<psa10 value="0.00699085967264395" flag="0"/>
			<psa30 value="0.000496001920192961" flag="0"/>
		</comp>
	</station>
	<station code="APNO" name="APNO" netid="IT" source="Italian Strong Motion Network (RAN)" insttype="" lat="43.3638" lon="13.3451">
		<comp name="--.HNE" depth="0.0">
			<acc value="0.0234883150061336" flag="0"/>
			<vel value="0.00954148269120346" flag="0"/>
			<psa03 value="0.0517041074350336" flag="0"/>
			<psa10 value="0.012716823364637" flag="0"/>
			<psa30 value="0.00078709781845093" flag="0"/>
		</comp>
		<comp name="--.HNN" depth="0.0">
			<acc value="0.0269013765591519" flag="0"/>
			<vel value="0.0111186147454886" flag="0"/>
			<psa03 value="0.0785792679908573" flag="0"/>
			<psa10 value="0.0105822747737686" flag="0"/>
			<psa30 value="0.00205038832816396" flag="0"/>
		</comp>
		<comp name="--.HNZ" depth="0.0">
			<acc value="0.0228419977921066" flag="0"/>
			<vel value="0.00494335412117171" flag="0"/>
			<psa03 value="0.0327494845967951" flag="0"/>
			<psa10 value="0.00775636178965231" flag="0"/>
			<psa30 value="0.000969174411381626" flag="0"/>
		</comp>
	</station>
	<station code="ARCV" name="ARCV" netid="IT" source="Italian Strong Motion Network (RAN)" insttype="" lat="43.495" lon="12.9396">
		<comp name="--.HNE" depth="0.0">
			<acc value="0.0161649234884123" flag="0"/>
			<vel value="0.00611251518060098" flag="0"/>
			<psa03 value="0.0462371515260351" flag="0"/>
			<psa10 value="0.00510878718207818" flag="0"/>
			<psa30 value="0.000720701909631158" flag="0"/>
		</comp>
		<comp name="--.HNN" depth="0.0">
			<acc value="0.019355069827284" flag="0"/>
			<vel value="0.00598065502017786" flag="0"/>
			<psa03 value="0.0326874596546137" flag="0"/>
			<psa10 value="0.00432431865238806" flag="0"/>
			<psa30 value="0.000451390579493915" flag="0"/>
		</comp>
		<comp name="--.HNZ" depth="0.0">
			<acc value="0.0116941872335102" flag="0"/>
			<vel value="0.00467649088953012" flag="0"/>
			<psa03 value="0.020664926241612" flag="0"/>
			<psa10 value="0.00324609620981789" flag="0"/>
			<psa30 value="0.000237692412622469" flag="0"/>
		</comp>
	</station>
	<station code="ARG" name="ARG" netid="IT" source="Italian Strong Motion Network (RAN)" insttype="" lat="44.6306" lon="11.8251">
		<comp name="--.HNE" depth="0.0">
			<acc value="0.0591346665932157" flag="0"/>
			<vel value="0.0405048526162107" flag="0"/>
			<psa03 value="0.111233504090407" flag="0"/>
			<psa10 value="0.10008378755974" flag="0"/>
			<psa30 value="0.00540522473627798" flag="0"/>
		</comp>
		<comp name="--.HNN" depth="0.0">
			<acc value="0.08937522234463" flag="0"/>
			<vel value="0.0478277935293708" flag="0"/>
			<psa03 value="0.0901378878593635" flag="0"/>
			<psa10 value="0.0996981195111246" flag="0"/>
			<psa30 value="0.00429776303904234" flag="0"/>
		</comp>
		<comp name="--.HNZ" depth="0.0">
			<acc value="0.0310959759988504" flag="0"/>
			<vel value="0.0110522928758846" flag="0"/>
			<psa03 value="0.0410716322524009" flag="0"/>
			<psa10 value="0.0139767840183467" flag="0"/>
			<psa30 value="0.00160068030804801" flag="0"/>
		</comp>
	</station>
	<station code="ASS" name="ASS" netid="IT" source="Italian Strong Motion Network (RAN)" insttype="" lat="43.075" lon="12.6041">
		<comp name="--.HNE" depth="0.0">
			<acc value="0.00303291414259514" flag="0"/>
			<vel value="0.000318232376036768" flag="0"/>
			<psa03 value="0.00062572484149933" flag="0"/>
			<psa10 value="2.74141897127532e-05" flag="0"/>
			<psa30 value="2.91426308329608e-06" flag="0"/>
		</comp>
		<comp name="--.HNN" depth="0.0">
			<acc value="0.00303257124925092" flag="0"/>
			<vel value="0.000277041605201669" flag="0"/>
			<psa03 value="0.000438906272652148" flag="0"/>
			<psa10 value="2.38526384698453e-05" flag="0"/>
			<psa30 value="2.60535732520928e-06" flag="0"/>
		</comp>
		<comp name="--.HNZ" depth="0.0">
			<acc value="0.00250886697121486" flag="0"/>
			<vel value="0.000348426862531222" flag="0"/>
			<psa03 value="0.000384810322524483" flag="0"/>
			<psa10 value="2.74652374059357e-05" flag="0"/>
			<psa30 value="3.01524552158493e-06" flag="0"/>
		</comp>
	</station>
	<station code="AUL" name="AUL" netid="IT" source="Italian Strong Motion Network (RAN)" insttype="" lat="44.2087" lon="9.9731">
		<comp name="--.HNE" depth="0.0">
			<acc value="0.00487492618383144" flag="0"/>
			<vel value="0.00390830910949217" flag="0"/>
			<psa03 value="0.0136453648759551" flag="0"/>
			<psa10 value="0.00449746762265757" flag="0"/>
			<psa30 value="0.000455988696596606" flag="0"/>
		</comp>
		<comp name="--.HNN" depth="0.0">
			<acc value="0.00253208308252523" flag="0"/>
			<vel value="0.00197897034978766" flag="0"/>
			<psa03 value="0.0105443078836485" flag="0"/>
			<psa10 value="0.00327743164501168" flag="0"/>
			<psa30 value="0.000371271548042951" flag="0"/>
		</comp>
		<comp name="--.HNZ" depth="0.0">
			<acc value="0.00196244723237409" flag="0"/>
			<vel value="0.00173395716506931" flag="0"/>
			<psa03 value="0.00512734714856404" flag="0"/>
			<psa10 value="0.00278019792446799" flag="0"/>
			<psa30 value="0.000391984196195906" flag="0"/>
		</comp>
	</station>
	<station code="BGL" name="BGL" netid="IT" source="Italian Strong Motion Network (RAN)" insttype="" lat="43.9958" lon="10.5769">
		<comp name="--.HNE" depth="0.0">
			<acc value="0.0113292497946355" flag="0"/>
			<vel value="0.00471805265150172" flag="0"/>
			<psa03 value="0.0269831833368028" flag="0"/>
			<psa10 value="0.005323681574027" flag="0"/>
			<psa30 value="0.000557338483439252" flag="0"/>
		</comp>
		<comp name="--.HNN" depth="0.0">
			<acc value="0.00813602525178905" flag="0"/>
			<vel value="0.00388894161273063" flag="0"/>
			<psa03 value="0.0162221618781935" flag="0"/>
			<psa10 value="0.0083414300788051" flag="0"/>
			<psa30 value="0.000478035677934252" flag="0"/>
		</comp>
		<comp name="--.HNZ" depth="0.0">
			<acc value="0.00798477068381178" flag="0"/>
			<vel value="0.00326735180693552" flag="0"/>
			<psa03 value="0.020683409236853" flag="0"/>
			<psa10 value="0.00371246515134644" flag="0"/>
			<psa30 value="0.000242987034198497" flag="0"/>
		</comp>
	</station>
	<station code="BGN" name="BGN" netid="IT" source="Italian Strong Motion Network (RAN)" insttype="" lat="44.3224" lon="9.9917">
		<comp name="--.HGE" depth="0.0">
			<acc value="0.00277269651781563" flag="0"/>
			<vel value="0.00115981090193967" flag="0"/>
			<psa03 value="0.00417628381976525" flag="0"/>
			<psa10 value="0.00190304294225527" flag="0"/>
			<psa30 value="0.00020942180285415" flag="0"/>
		</comp>
		<comp name="--.HGN" depth="0.0">
			<acc value="0.0020455839908348" flag="0"/>
			<vel value="0.00148914647196274" flag="0"/>
			<psa03 value="0.00405054860240335" flag="0"/>
			<psa10 value="0.00215280058122311" flag="0"/>
			<psa30 value="0.0002181073521875" flag="0"/>
		</comp>
		<comp name="--.HGZ" depth="0.0">
			<acc value="0.00199405878726993" flag="0"/>
			<vel value="0.00114871663964611" flag="0"/>
			<psa03 value="0.00342557002616074" flag="0"/>
			<psa10 value="0.00264351074461315" flag="0"/>
			<psa30 value="0.000216838075395809" flag="0"/>
		</comp>
	</station>
	<station code="BOZL" name="BOZL" netid="IT" source="Italian Strong Motion Network (RAN)" insttype="" lat="45.0995" lon="10.4798">
		<comp name="--.HNE" depth="0.0">
			<acc value="0.0155848867191234" flag="0"/>
			<vel value="0.00686466644130578" flag="0"/>
			<psa03 value="0.0226219491139394" flag="0"/>
			<psa10 value="0.00749298418592866" flag="0"/>
			<psa30 value="0.00191914734242608" flag="0"/>
		</comp>
		<comp name="--.HNN" depth="0.0">
			<acc value="0.0137915554394144" flag="0"/>
			<vel value="0.00662330771567026" flag="0"/>
			<psa03 value="0.0186107315675463" flag="0"/>
			<psa10 value="0.0105447085351897" flag="0"/>
			<psa30 value="0.00201624877491944" flag="0"/>
		</comp>
		<comp name="--.HNZ" depth="0.0">
			<acc value="0.0138298094831477" flag="0"/>
			<vel value="0.00274147577775878" flag="0"/>
			<psa03 value="0.00842357820300684" flag="0"/>
			<psa10 value="0.00282482916231846" flag="0"/>
			<psa30 value="0.00102826040887231" flag="0"/>
		</comp>
	</station>
	<station code="BRH" name="BRH" netid="IT" source="Italian Strong Motion Network (RAN)" insttype="" lat="44.2076" lon="11.7639">
		<comp name="--.HGE" depth="0.0">
			<acc value="0.700711209381359" flag="0"/>
			<vel value="0.167466747931453" flag="0"/>
			<psa03 value="0.768076881323862" flag="0"/>
			<psa10 value="0.0694086679836138" flag="0"/>
			<psa30 value="0.00328113152552727" flag="0"/>
		</comp>
		<comp name="--.HGN" depth="0.0">
			<acc value="1.22588561572505" flag="0"/>
			<vel value="0.261437261924385" flag="0"/>
			<psa03 value="1.18822029709653" flag="0"/>
			<psa10 value="0.0720779223086128" flag="0"/>
			<psa30 value="0.00498001573493512" flag="0"/>
		</comp>
		<comp name="--.HGZ" depth="0.0">
			<acc value="0.307660658571745" flag="0"/>
			<vel value="0.0635241045285024" flag="0"/>
			<psa03 value="0.446459867441773" flag="0"/>
			<psa10 value="0.0393892718459473" flag="0"/>
			<psa30 value="0.00199013725349262" flag="0"/>
		</comp>
	</station>
	<station code="BRR" name="BRR" netid="IT" source="Italian Strong Motion Network (RAN)" insttype="" lat="44.5063" lon="9.9872">
		<comp name="--.HGE" depth="0.0">
			<acc value="0.0096350849730837" flag="0"/>
			<vel value="0.002439010134385" flag="0"/>
			<psa03 value="0.00574094671579482" flag="0"/>
			<psa10 value="0.00308426994274689" flag="0"/>
			<psa30 value="0.000407321930995563" flag="0"/>
		</comp>
		<comp name="--.HGN" depth="0.0">
			<acc value="0.00733199704212067" flag="0"/>
			<vel value="0.00216599984686735" flag="0"/>
			<psa03 value="0.00616610704203818" flag="0"/>
			<psa10 value="0.00380715072067572" flag="0"/>
			<psa30 value="0.000364459169672985" flag="0"/>
		</comp>
		<comp name="--.HGZ" depth="0.0">
			<acc value="0.0105870441903071" flag="0"/>
			<vel value="0.00123397218872811" flag="0"/>
			<psa03 value="0.00347675147657648" flag="0"/>
			<psa10 value="0.00241241270112694" flag="0"/>
			<psa30 value="0.000451064255793238" flag="0"/>
		</comp>
	</station>
	<station code="BSG" name="BSG" netid="IT" source="Italian Strong Motion Network (RAN)" insttype="" lat="45.7496" lon="11.7408">
		<comp name="--.HNE" depth="0.0">
			<acc value="0.0831407755724646" flag="0"/>
			<vel value="0.00549973676461467" flag="0"/>
			<psa03 value="0.0260369670087815" flag="0"/>
			<psa10 value="0.00473719944121401" flag="0"/>
			<psa30 value="0.000311067611910982" flag="0"/>
		</comp>
		<comp name="--.HNN" depth="0.0">
			<acc value="0.0475977288923916" flag="0"/>
			<vel value="0.00477043150488072" flag="0"/>
			<psa03 value="0.0216007226085286" flag="0"/>
			<psa10 value="0.00289480645422062" flag="0"/>
			<psa30 value="0.000435725505301296" flag="0"/>
		</comp>
		<comp name="--.HNZ" depth="0.0">
			<acc value="0.0109161442936729" flag="0"/>
			<vel value="0.00222420944017597" flag="0"/>
			<psa03 value="0.0149469419844673" flag="0"/>
			<psa10 value="0.00142930159827874" flag="0"/>
			<psa30 value="0.000294044687350774" flag="0"/>
		</comp>
	</station>
	<station code="BSZ" name="BSZ" netid="IT" source="Italian Strong Motion Network (RAN)" insttype="" lat="44.031" lon="11.467">
		<comp name="--.HNE" depth="0.0">
			<acc value="0.0417346830211095" flag="0"/>
			<vel value="0.00961591526138119" flag="0"/>
			<psa03 value="0.0295199373218046" flag="0"/>
			<psa10 value="0.00805230186297977" flag="0"/>
			<psa30 value="0.000577120210548256" flag="0"/>
		</comp>
		<comp name="--.HNN" depth="0.0">
			<acc value="0.0372084543726377" flag="0"/>
			<vel value="0.010208613407257" flag="0"/>
			<psa03 value="0.0389148487510789" flag="0"/>
			<psa10 value="0.00883649193672355" flag="0"/>
			<psa30 value="0.000668451989997078" flag="0"/>
		</comp>
		<comp name="--.HNZ" depth="0.0">
			<acc value="0.024354325738008" flag="0"/>
			<vel value="0.00792635801138984" flag="0"/>
			<psa03 value="0.044213975833908" flag="0"/>
			<psa10 value="0.00794960318469635" flag="0"/>
			<psa30 value="0.000623681367913088" flag="0"/>
		</comp>
	</station>
	<station code="BVG" name="BVG" netid="IT" source="Italian Strong Motion Network (RAN)" insttype="" lat="42.9323" lon="12.611">
		<comp name="--.HGE" depth="0.0">
			<acc value="0.0068427740686605" flag="0"/>
			<vel value="0.00230727386923843" flag="0"/>
			<psa03 value="0.00308590917894241" flag="0"/>
			<psa10 value="0.00359408574679187" flag="0"/>
			<psa30 value="0.000613028422624411" flag="0"/>
		</comp>
		<comp name="--.HGN" depth="0.0">
			<acc value="0.00913861407130914" flag="0"/>
			<vel value="0.00280930736178145" flag="0"/>
			<psa03 value="0.00341552020676369" flag="0"/>
			<psa10 value="0.00333861226042719" flag="0"/>
			<psa30 value="0.00056229625978427" flag="0"/>
		</comp>
		<comp name="--.HGZ" depth="0.0">
			<acc value="0.00744711409351445" flag="0"/>
			<vel value="0.00138633238280296" flag="0"/>
			<psa03 value="0.00263968837551454" flag="0"/>
			<psa10 value="0.00176011874766632" flag="0"/>
			<psa30 value="0.000174940872828426" flag="0"/>
		</comp>
	</station>
	<station code="CDCT" name="CDCT" netid="IT" source="Italian Strong Motion Network (RAN)" insttype="" lat="43.366" lon="12.2363">
		<comp name="--.HNE" depth="0.0">
			<acc value="0.0204749844849733" flag="0"/>
			<vel value="0.0147974990349511" flag="0"/>
			<psa03 value="0.0652752668744094" flag="0"/>
			<psa10 value="0.0212471450190819" flag="0"/>
			<psa30 value="0.0013960026866601" flag="0"/>
		</comp>
		<comp name="--.HNN" depth="0.0">
			<acc value="0.0228473241683422" flag="0"/>
			<vel value="0.0149373847017071" flag="0"/>
			<psa03 value="0.0785416248721855" flag="0"/>
			<psa10 value="0.0273023898993376" flag="0"/>
			<psa30 value="0.00113808414248901" flag="0"/>
		</comp>
		<comp name="--.HNZ" depth="0.0">
			<acc value="0.0125200941642166" flag="0"/>
			<vel value="0.00669618512108263" flag="0"/>
			<psa03 value="0.0343992709703789" flag="0"/>
			<psa10 value="0.00817966123741328" flag="0"/>
			<psa30 value="0.000494468485277091" flag="0"/>
		</comp>
	</station>
	<station code="CLF" name="CLF" netid="IT" source="Italian Strong Motion Network (RAN)" insttype="" lat="43.0367" lon="12.9204">
		<comp name="--.HGE" depth="0.0">
			<acc value="0.00925707465636888" flag="0"/>
			<vel value="0.0101427968275777" flag="0"/>
			<psa03 value="0.0217739072582451" flag="0"/>
			<psa10 value="0.027854855872497" flag="0"/>
			<psa30 value="0.00107324943084089" flag="0"/>
		</comp>
		<comp name="--.HGN" depth="0.0">
			<acc value="0.00886572500389237" flag="0"/>
			<vel value="0.00737866559602035" flag="0"/>
			<psa03 value="0.0358482758140051" flag="0"/>
			<psa10 value="0.017883935347947" flag="0"/>
			<psa30 value="0.000564015644518404" flag="0"/>
		</comp>
		<comp name="--.HGZ" depth="0.0">
			<acc value="0.00858808621761017" flag="0"/>
			<vel value="0.00528101780303373" flag="0"/>
			<psa03 value="0.0265210459516357" flag="0"/>
			<psa10 value="0.00552785963107123" flag="0"/>
			<psa30 value="0.000340436119930505" flag="0"/>
		</comp>
	</station>
	<station code="CLL" name="CLL" netid="IT" source="Italian Strong Motion Network (RAN)" insttype="" lat="43.4787" lon="11.2691">
		<comp name="--.HNE" depth="0.0">
			<acc value="0.00604975444298034" flag="0"/>
			<vel value="0.00495348361085843" flag="0"/>
			<psa03 value="0.017791787993637" flag="0"/>
			<psa10 value="0.00856024769939857" flag="0"/>
			<psa30 value="0.000797775140354438" flag="0"/>
		</comp>
		<comp name="--.HNN" depth="0.0">
			<acc value="0.00430766987205851" flag="0"/>
			<vel value="0.00304131877837773" flag="0"/>
			<psa03 value="0.0103832119253736" flag="0"/>
			<psa10 value="0.00516755732531174" flag="0"/>
			<psa30 value="0.000495967595002419" flag="0"/>
		</comp>
		<comp name="--.HNZ" depth="0.0">
			<acc value="0.00505340248863994" flag="0"/>
			<vel value="0.00185883260211913" flag="0"/>
			<psa03 value="0.00986875336585216" flag="0"/>
			<psa10 value="0.002896893467475" flag="0"/>
			<psa30 value="0.000361715211857579" flag="0"/>
		</comp>
	</station>
