<stationlist created="1770374047">
	<station code="FIVI" name="FIVI" netid="GU" source="Regional Seismic Network of North Western Italy (RSNI)" insttype="" lat="44.2394" lon="10.1271">
		<comp name="--.HNE" depth="0.0">
			<acc value="0.0057292403342088" flag="0"/>
			<vel value="0.00211169125187" flag="0"/>
			<psa03 value="0.006679749792328" flag="0"/>
			<psa10 value="0.00218625185970748" flag="0"/>
			<psa30 value="0.00036560127658181" flag="0"/>
		</comp>
		<comp name="--.HNN" depth="0.0">
			<acc value="0.0056978999078856" flag="0"/>
			<vel value="0.00243181094548" flag="0"/>
			<psa03 value="0.00932066367218445" flag="0"/>
			<psa10 value="0.00364212056948739" flag="0"/>
			<psa30 value="0.000362883752809499" flag="0"/>
		</comp>
		<comp name="--.HNZ" depth="0.0">
			<acc value="0.0068871461559288" flag="0"/>
			<vel value="0.00198522135207" flag="0"/>
			<psa03 value="0.00488531288580111" flag="0"/>
			<psa10 value="0.00242366180569983" flag="0"/>
			<psa30 value="0.000515559934566066" flag="0"/>
		</comp>
	</station>
	<station code="BRH" name="BRH" netid="IT" source="Italian Strong Motion Network (RAN)" insttype="" lat="44.2076" lon="11.7639">
		<comp name="--.HGE" depth="0.0">
			<acc value="0.69540815037798" flag="0"/>
			<vel value="0.16753246588" flag="0"/>
			<psa03 value="0.768126134587442" flag="0"/>
			<psa10 value="0.0696512565537294" flag="0"/>
			<psa30 value="0.00371545238048748" flag="0"/>
		</comp>
		<comp name="--.HGN" depth="0.0">
			<acc value="1.226182722888" flag="0"/>
			<vel value="0.263017179866" flag="0"/>
			<psa03 value="1.1883162201171" flag="0"/>
			<psa10 value="0.0722243770103509" flag="0"/>
			<psa30 value="0.00586709783310901" flag="0"/>
		</comp>
		<comp name="--.HGZ" depth="0.0">
			<acc value="0.3067943407794" flag="0"/>
			<vel value="0.0636868478711" flag="0"/>
			<psa03 value="0.446520913152242" flag="0"/>
			<psa10 value="0.0394898722602163" flag="0"/>
			<psa30 value="0.00228743611475072" flag="0"/>
		</comp>
	</station>
	<station code="BSZ" name="BSZ" netid="IT" source="Italian Strong Motion Network (RAN)" insttype="" lat="44.031" lon="11.467">
		<comp name="--.HNE" depth="0.0">
			<acc value="0.04346015244486" flag="0"/>
			<vel value="0.00946704531082" flag="0"/>
			<psa03 value="0.0295645809042342" flag="0"/>
			<psa10 value="0.00809267234982453" flag="0"/>
			<psa30 value="0.000867649508770368" flag="0"/>
		</comp>
		<comp name="--.HNN" depth="0.0">
			<acc value="0.038250130563162" flag="0"/>
			<vel value="0.0106299819537" flag="0"/>
			<psa03 value="0.038877307201628" flag="0"/>
			<psa10 value="0.00891515433522267" flag="0"/>
			<psa30 value="0.000848137174507422" flag="0"/>
		</comp>
		<comp name="--.HNZ" depth="0.0">
			<acc value="0.02490529840185" flag="0"/>
			<vel value="0.00806028815885" flag="0"/>
			<psa03 value="0.0442159186709566" flag="0"/>
			<psa10 value="0.00796892727733407" flag="0"/>
			<psa30 value="0.000782096393379358" flag="0"/>
		</comp>
	</station>
	<station code="CSN" name="CSN" netid="IT" source="Italian Strong Motion Network (RAN)" insttype="" lat="44.137" lon="12.2414">
		<comp name="--.HNE" depth="0.0">
			<acc value="0.8693604621822" flag="0"/>
			<vel value="0.15424137546" flag="0"/>
			<psa03 value="0.658451244164529" flag="0"/>
			<psa10 value="0.0345240032957753" flag="0"/>
			<psa30 value="0.00241912275501191" flag="0"/>
		</comp>
		<comp name="--.HNN" depth="0.0">
			<acc value="0.6891770514078" flag="0"/>
			<vel value="0.115532825164" flag="0"/>
			<psa03 value="0.474208038954417" flag="0"/>
			<psa10 value="0.0347116732279916" flag="0"/>
			<psa30 value="0.00306914977444466" flag="0"/>
		</comp>
		<comp name="--.HNZ" depth="0.0">
			<acc value="0.38229557846052" flag="0"/>
			<vel value="0.0742448732351" flag="0"/>
			<psa03 value="0.286496020622099" flag="0"/>
			<psa10 value="0.0163911489581773" flag="0"/>
			<psa30 value="0.00115312482636263" flag="0"/>
		</comp>
	</station>
	<station code="CVT" name="CVT" netid="IT" source="Italian Strong Motion Network (RAN)" insttype="" lat="44.0061" lon="11.9368">
		<comp name="--.HGE" depth="0.0">
			<acc value="0.38350994605482" flag="0"/>
			<vel value="0.116676688654" flag="0"/>
			<psa03 value="0.623981627387497" flag="0"/>
			<psa10 value="0.0324309071384254" flag="0"/>
			<psa30 value="0.00222636331897707" flag="0"/>
		</comp>
		<comp name="--.HGN" depth="0.0">
			<acc value="0.35516888661906" flag="0"/>
			<vel value="0.114870836825" flag="0"/>
			<psa03 value="0.615668326670837" flag="0"/>
			<psa10 value="0.0311027266529893" flag="0"/>
			<psa30 value="0.00341552334499056" flag="0"/>
		</comp>
		<comp name="--.HGZ" depth="0.0">
			<acc value="0.16903851060102" flag="0"/>
			<vel value="0.0400393441536" flag="0"/>
			<psa03 value="0.194083065383999" flag="0"/>
			<psa10 value="0.028308896575484" flag="0"/>
			<psa30 value="0.00141655675659806" flag="0"/>
		</comp>
	</station>
	<station code="FAZ" name="FAZ" netid="IT" source="Italian Strong Motion Network (RAN)" insttype="" lat="44.298" lon="11.8907">
		<comp name="--.HNE" depth="0.0">
			<acc value="1.0707304636842" flag="0"/>
			<vel value="0.367381141128" flag="0"/>
			<psa03 value="2.38393925760815" flag="0"/>
			<psa10 value="0.0832182753023339" flag="0"/>
			<psa30 value="0.0139571945956306" flag="0"/>
		</comp>
		<comp name="--.HNN" depth="0.0">
			<acc value="0.83784929688396" flag="0"/>
			<vel value="0.268384722103" flag="0"/>
			<psa03 value="1.70453608381489" flag="0"/>
			<psa10 value="0.111481062573242" flag="0"/>
			<psa30 value="0.0132131153040556" flag="0"/>
		</comp>
		<comp name="--.HNZ" depth="0.0">
			<acc value="1.1678294006184" flag="0"/>
			<vel value="0.187787429757" flag="0"/>
			<psa03 value="0.636881815293189" flag="0"/>
			<psa10 value="0.0491626967874323" flag="0"/>
			<psa30 value="0.00483525197836404" flag="0"/>
		</comp>
	</station>
	<station code="FOR" name="FOR" netid="IT" source="Italian Strong Motion Network (RAN)" insttype="" lat="44.1994" lon="12.0419">
		<comp name="--.HNE" depth="0.0">
			<acc value="1.1623963435884" flag="0"/>
			<vel value="0.249668109812" flag="0"/>
			<psa03 value="0.992055135450128" flag="0"/>
			<psa10 value="0.0760296940939276" flag="0"/>
			<psa30 value="0.00549345849800047" flag="0"/>
		</comp>
		<comp name="--.HNN" depth="0.0">
			<acc value="1.5358040804184" flag="0"/>
			<vel value="0.382889427316" flag="0"/>
			<psa03 value="1.60739014837722" flag="0"/>
			<psa10 value="0.15377590689927" flag="0"/>
			<psa30 value="0.0176081181180791" flag="0"/>
		</comp>
		<comp name="--.HNZ" depth="0.0">
			<acc value="2.0220141431808" flag="0"/>
			<vel value="0.396868603195" flag="0"/>
			<psa03 value="1.159271879406" flag="0"/>
			<psa10 value="0.084590701218751" flag="0"/>
			<psa30 value="0.00612611707519868" flag="0"/>
		</comp>
	</station>
	<station code="FRE" name="FRE" netid="IT" source="Italian Strong Motion Network (RAN)" insttype="" lat="44.1214" lon="11.3978">
		<comp name="--.HNE" depth="0.0">
			<acc value="0.022775725270236" flag="0"/>
			<vel value="0.00663876205984" flag="0"/>
			<psa03 value="0.0241229183374287" flag="0"/>
			<psa10 value="0.0042369763038731" flag="0"/>
			<psa30 value="0.00059107988530987" flag="0"/>
		</comp>
		<comp name="--.HNN" depth="0.0">
			<acc value="0.030914323957962" flag="0"/>
			<vel value="0.00500854952651" flag="0"/>
			<psa03 value="0.0218505829105504" flag="0"/>
			<psa10 value="0.00677144388741499" flag="0"/>
			<psa30 value="0.00050243719024914" flag="0"/>
		</comp>
		<comp name="--.HNZ" depth="0.0">
			<acc value="0.019078093510512" flag="0"/>
			<vel value="0.00547022814578" flag="0"/>
			<psa03 value="0.0250912793616026" flag="0"/>
			<psa10 value="0.00526676030325545" flag="0"/>
			<psa30 value="0.000730927899552496" flag="0"/>
		</comp>
	</station>
	<station code="MCS" name="MCS" netid="IT" source="Italian Strong Motion Network (RAN)" insttype="" lat="43.9937" lon="12.1067">
		<comp name="--.HGE" depth="0.0">
			<acc value="0.41779027130196" flag="0"/>
			<vel value="0.100541395093" flag="0"/>
			<psa03 value="0.661706751493161" flag="0"/>
			<psa10 value="0.0288558140560465" flag="0"/>
			<psa30 value="0.00238088668039206" flag="0"/>
		</comp>
		<comp name="--.HGN" depth="0.0">
			<acc value="0.38421351798282" flag="0"/>
			<vel value="0.0852794928625" flag="0"/>
			<psa03 value="0.429310523048489" flag="0"/>
			<psa10 value="0.0231282658841242" flag="0"/>
			<psa30 value="0.00239765383280088" flag="0"/>
		</comp>
		<comp name="--.HGZ" depth="0.0">
			<acc value="0.22028714359986" flag="0"/>
			<vel value="0.0553472144859" flag="0"/>
			<psa03 value="0.169428182118684" flag="0"/>
			<psa10 value="0.0160296981388455" flag="0"/>
			<psa30 value="0.00154577083722969" flag="0"/>
		</comp>
	</station>
	<station code="MDG" name="MDG" netid="IT" source="Italian Strong Motion Network (RAN)" insttype="" lat="44.1592" lon="11.7885">
		<comp name="--.HGE" depth="0.0">
			<acc value="1.1317012031904" flag="0"/>
			<vel value="0.288444608048" flag="0"/>
			<psa03 value="0.936178017198676" flag="0"/>
			<psa10 value="0.0780235361764631" flag="0"/>
			<psa30 value="0.00507911854999848" flag="0"/>
		</comp>
		<comp name="--.HGN" depth="0.0">
			<acc value="1.1257202606064" flag="0"/>
			<vel value="0.241164252616" flag="0"/>
			<psa03 value="0.603610861255847" flag="0"/>
			<psa10 value="0.041178027842318" flag="0"/>
			<psa30 value="0.00463504788251634" flag="0"/>
		</comp>
		<comp name="--.HGZ" depth="0.0">
			<acc value="0.39421240485822" flag="0"/>
			<vel value="0.0809967736432" flag="0"/>
			<psa03 value="0.337446249991168" flag="0"/>
			<psa10 value="0.0256633194439749" flag="0"/>
			<psa30 value="0.00218457909264419" flag="0"/>
		</comp>
	</station>
	<station code="MDT" name="MDT" netid="IT" source="Italian Strong Motion Network (RAN)" insttype="" lat="44.135" lon="11.8297">
		<comp name="--.HGE" depth="0.0">
			<acc value="0.73095560047848" flag="0"/>
			<vel value="0.232764358077" flag="0"/>
			<psa03 value="0.792760766509472" flag="0"/>
			<psa10 value="0.0625312486384631" flag="0"/>
			<psa30 value="0.00533889075863858" flag="0"/>
		</comp>
		<comp name="--.HGN" depth="0.0">
			<acc value="0.9821996533524" flag="0"/>
			<vel value="0.197122454963" flag="0"/>
			<psa03 value="1.0110933966428" flag="0"/>
			<psa10 value="0.0691806078758425" flag="0"/>
			<psa30 value="0.00590469199021222" flag="0"/>
		</comp>
		<comp name="--.HGZ" depth="0.0">
			<acc value="0.39752909126706" flag="0"/>
			<vel value="0.120154892592" flag="0"/>
			<psa03 value="0.546881728228511" flag="0"/>
			<psa10 value="0.0428851521807957" flag="0"/>
			<psa30 value="0.00337714163572752" flag="0"/>
		</comp>
	</station>
	<station code="MLD" name="MLD" netid="IT" source="Italian Strong Motion Network (RAN)" insttype="" lat="44.1184" lon="12.071">
		<comp name="--.HGE" depth="0.0">
			<acc value="1.2838659623694" flag="0"/>
			<vel value="0.350376194327" flag="0"/>
			<psa03 value="2.42407191620144" flag="0"/>
			<psa10 value="0.0959459134458933" flag="0"/>
			<psa30 value="0.0081710637928887" flag="0"/>
		</comp>
		<comp name="--.HGN" depth="0.0">
			<acc value="1.1890148100432" flag="0"/>
			<vel value="0.297941107717" flag="0"/>
			<psa03 value="1.94028903462815" flag="0"/>
			<psa10 value="0.100255061405755" flag="0"/>
			<psa30 value="0.00760780231289793" flag="0"/>
		</comp>
		<comp name="--.HGZ" depth="0.0">
			<acc value="0.75199100071566" flag="0"/>
			<vel value="0.184179809804" flag="0"/>
			<psa03 value="0.626993785259214" flag="0"/>
			<psa10 value="0.0527348834273756" flag="0"/>
			<psa30 value="0.00320026658528666" flag="0"/>
		</comp>
	</station>
	<station code="MOG" name="MOG" netid="IT" source="Italian Strong Motion Network (RAN)" insttype="" lat="44.1703" lon="11.7669">
		<comp name="--.HNE" depth="0.0">
			<acc value="1.2411224440062" flag="0"/>
			<vel value="0.285536266252" flag="0"/>
			<psa03 value="1.3186640216878" flag="0"/>
			<psa10 value="0.0674105131156836" flag="0"/>
			<psa30 value="0.00680158432160317" flag="0"/>
		</comp>
		<comp name="--.HNN" depth="0.0">
			<acc value="0.80067081458292" flag="0"/>
			<vel value="0.182750439894" flag="0"/>
			<psa03 value="1.3108753390572" flag="0"/>
			<psa10 value="0.0742374728683622" flag="0"/>
			<psa30 value="0.00493262426213732" flag="0"/>
		</comp>
		<comp name="--.HNZ" depth="0.0">
			<acc value="0.33160589434674" flag="0"/>
			<vel value="0.0843343659792" flag="0"/>
			<psa03 value="0.512669961870981" flag="0"/>
			<psa10 value="0.0337279268096204" flag="0"/>
			<psa30 value="0.00220457125035766" flag="0"/>
		</comp>
	</station>
	<station code="MRR" name="MRR" netid="IT" source="Italian Strong Motion Network (RAN)" insttype="" lat="44.0641" lon="11.6033">
		<comp name="--.HGE" depth="0.0">
			<acc value="0.1816661229318" flag="0"/>
			<vel value="0.0521753802755" flag="0"/>
			<psa03 value="0.292951531601148" flag="0"/>
			<psa10 value="0.0214428311073113" flag="0"/>
			<psa30 value="0.00195418528851727" flag="0"/>
		</comp>
		<comp name="--.HGN" depth="0.0">
			<acc value="0.19716129447276" flag="0"/>
			<vel value="0.0586854977299" flag="0"/>
			<psa03 value="0.271907450034197" flag="0"/>
			<psa10 value="0.0122636245924548" flag="0"/>
			<psa30 value="0.00120339159378853" flag="0"/>
		</comp>
		<comp name="--.HGZ" depth="0.0">
			<acc value="0.086518156844022" flag="0"/>
			<vel value="0.0232183663779" flag="0"/>
			<psa03 value="0.0830257292135786" flag="0"/>
			<psa10 value="0.0101556493244158" flag="0"/>
			<psa30 value="0.00162424061880152" flag="0"/>
		</comp>
	</station>
	<station code="PRM" name="PRM" netid="IT" source="Italian Strong Motion Network (RAN)" insttype="" lat="43.9792" lon="11.7814">
		<comp name="--.HGE" depth="0.0">
			<acc value="0.25551722499456" flag="0"/>
			<vel value="0.0472649985681" flag="0"/>
			<psa03 value="0.191591504496773" flag="0"/>
			<psa10 value="0.0141353004567935" flag="0"/>
			<psa30 value="0.00100090172149388" flag="0"/>
		</comp>
		<comp name="--.HGN" depth="0.0">
			<acc value="0.21928579268622" flag="0"/>
			<vel value="0.0418324629847" flag="0"/>
			<psa03 value="0.140681152769227" flag="0"/>
			<psa10 value="0.0161875442203565" flag="0"/>
			<psa30 value="0.00133008800763523" flag="0"/>
		</comp>
		<comp name="--.HGZ" depth="0.0">
			<acc value="0.085501166153184" flag="0"/>
			<vel value="0.0212150437528" flag="0"/>
			<psa03 value="0.101925231212946" flag="0"/>
			<psa10 value="0.0146740377079797" flag="0"/>
			<psa30 value="0.00186979990673286" flag="0"/>
		</comp>
	</station>
	<station code="RIM" name="RIM" netid="IT" source="Italian Strong Motion Network (RAN)" insttype="" lat="44.0056" lon="12.4856">
		<comp name="--.HNE" depth="0.0">
			<acc value="0.20020821693342" flag="0"/>
			<vel value="0.0268047611838" flag="0"/>
			<psa03 value="0.135857010276695" flag="0"/>
			<psa10 value="0.0292513808854318" flag="0"/>
			<psa30 value="0.00198891842275275" flag="0"/>
		</comp>
		<comp name="--.HNN" depth="0.0">
			<acc value="0.1747463887698" flag="0"/>
			<vel value="0.0424749526354" flag="0"/>
			<psa03 value="0.242045430155045" flag="0"/>
			<psa10 value="0.038797377635848" flag="0"/>
			<psa30 value="0.0020844316250317" flag="0"/>
		</comp>
		<comp name="--.HNZ" depth="0.0">
			<acc value="0.2354784613881" flag="0"/>
			<vel value="0.025608904955" flag="0"/>
			<psa03 value="0.0693615011091855" flag="0"/>
			<psa10 value="0.0238074658777765" flag="0"/>
			<psa30 value="0.00111695711792867" flag="0"/>
		</comp>
	</station>
	<station code="RINI" name="RINI" netid="IT" source="Italian Strong Motion Network (RAN)" insttype="" lat="44.0577" lon="12.5382">
		<comp name="--.HNE" depth="0.0">
			<acc value="0.050281711567794" flag="0"/>
			<vel value="0.0283220299966" flag="0"/>
			<psa03 value="0.184900936279374" flag="0"/>
			<psa10 value="0.0685378377952926" flag="0"/>
			<psa30 value="0.00371313889389445" flag="0"/>
		</comp>
		<comp name="--.HNN" depth="0.0">
			<acc value="0.056767620574602" flag="0"/>
			<vel value="0.0402239614399" flag="0"/>
			<psa03 value="0.1762811569283" flag="0"/>
			<psa10 value="0.0651359199350913" flag="0"/>
			<psa30 value="0.00365604886196017" flag="0"/>
		</comp>
		<comp name="--.HNZ" depth="0.0">
			<acc value="0.04836563375643" flag="0"/>
			<vel value="0.0171710357559" flag="0"/>
			<psa03 value="0.100062253633033" flag="0"/>
			<psa10 value="0.0215103299537817" flag="0"/>
			<psa30 value="0.00222818343955295" flag="0"/>
		</comp>
	</station>
	<station code="SNM" name="SNM" netid="IT" source="Italian Strong Motion Network (RAN)" insttype="" lat="43.9343" lon="12.4493">
		<comp name="--.HGE" depth="0.0">
			<acc value="0.025436494883334" flag="0"/>
			<vel value="0.0111420282058" flag="0"/>
			<psa03 value="0.0625670405927274" flag="0"/>
			<psa10 value="0.0277534172776942" flag="0"/>
			<psa30 value="0.00150496875929339" flag="0"/>
		</comp>
		<comp name="--.HGN" depth="0.0">
			<acc value="0.029016960611082" flag="0"/>
			<vel value="0.00872436191165" flag="0"/>
			<psa03 value="0.0449850998335367" flag="0"/>
			<psa10 value="0.0225523889851068" flag="0"/>
			<psa30 value="0.00105407211877076" flag="0"/>
		</comp>
		<comp name="--.HGZ" depth="0.0">
			<acc value="0.016243977298596" flag="0"/>
			<vel value="0.00620815815283" flag="0"/>
			<psa03 value="0.0262563539379271" flag="0"/>
			<psa10 value="0.0110080076639731" flag="0"/>
			<psa30 value="0.00137656389893534" flag="0"/>
		</comp>
	</station>
	<station code="STF" name="STF" netid="IT" source="Italian Strong Motion Network (RAN)" insttype="" lat="43.9081" lon="11.7944">
		<comp name="--.HNE" depth="0.0">
			<acc value="0.11646895526724" flag="0"/>
			<vel value="0.0407333482909" flag="0"/>
			<psa03 value="0.234176867234808" flag="0"/>
			<psa10 value="0.0225503826021834" flag="0"/>
			<psa30 value="0.00131622083900364" flag="0"/>
		</comp>
		<comp name="--.HNN" depth="0.0">
			<acc value="0.092538541775994" flag="0"/>
			<vel value="0.0279427769185" flag="0"/>
			<psa03 value="0.131677327143144" flag="0"/>
			<psa10 value="0.0156830326739288" flag="0"/>
			<psa30 value="0.00117088527373579" flag="0"/>
		</comp>
		<comp name="--.HNZ" depth="0.0">
			<acc value="0.060641456868084" flag="0"/>
			<vel value="0.0180427001506" flag="0"/>
			<psa03 value="0.0961056061082483" flag="0"/>
			<psa10 value="0.0094437087243471" flag="0"/>
			<psa30 value="0.000765836097465435" flag="0"/>
		</comp>
	</station>
	<station code="STS" name="STS" netid="IT" source="Italian Strong Motion Network (RAN)" insttype="" lat="43.9424" lon="11.905">
		<comp name="--.HGE" depth="0.0">
			<acc value="0.18360508356066" flag="0"/>
			<vel value="0.0407175138358" flag="0"/>
			<psa03 value="0.258538210221047" flag="0"/>
			<psa10 value="0.0200759799351245" flag="0"/>
			<psa30 value="0.0013722843446034" flag="0"/>
		</comp>
		<comp name="--.HGN" depth="0.0">
			<acc value="0.19297812969906" flag="0"/>
			<vel value="0.0503513144574" flag="0"/>
			<psa03 value="0.358098388927482" flag="0"/>
			<psa10 value="0.0195600845095918" flag="0"/>
			<psa30 value="0.0018122417187867" flag="0"/>
		</comp>
		<comp name="--.HGZ" depth="0.0">
			<acc value="0.069273564712542" flag="0"/>
			<vel value="0.0200481188" flag="0"/>
			<psa03 value="0.165354245573939" flag="0"/>
			<psa10 value="0.0133675008438323" flag="0"/>
			<psa30 value="0.00123794784130296" flag="0"/>
		</comp>
	</station>
	<station code="APEC" name="APEC" netid="IV" source="Italian National Seismic Network (INSN)" insttype="" lat="43.55846" lon="12.41991">
		<comp name="--.HNE" depth="0.0">
			<acc value="0.04271595283566" flag="0"/>
			<vel value="0.0210911486489" flag="0"/>
			<psa03 value="0.0702314858245815" flag="0"/>
			<psa10 value="0.0101974402178565" flag="0"/>
			<psa30 value="0.00074465401717415" flag="0"/>
		</comp>
		<comp name="--.HNN" depth="0.0">
			<acc value="0.028693595284176" flag="0"/>
			<vel value="0.0130665971984" flag="0"/>
			<psa03 value="0.0643357150505971" flag="0"/>
