<?xml version="1.0" encoding="UTF-8" standalone="yes"?>
<!DOCTYPE earthquake SYSTEM "stationlist.dtd">
<stationlist created="" xmlns="ch.ethz.sed.shakemap.usgs.xml">
  <station code="ATBU" name="ATBU" netid="IV" insttype="" commtype="DIG" lat="43.4757" lon="12.5483">
    <comp name="--.HNE">
      <acc value="0.0559990844" flag="0"/>
      <vel value="0.0380720283" flag="0"/>
      <psa03 value="0.1720320919" flag="0"/>
      <psa10 value="0.0332165188" flag="0"/>
      <psa30 value="0.0012614361" flag="0"/>
    </comp>
    <comp name="--.HNN">
      <acc value="0.0573363809" flag="0"/>
      <vel value="0.0301130042" flag="0"/>
      <psa03 value="0.2353003723" flag="0"/>
      <psa10 value="0.0214196109" flag="0"/>
      <psa30 value="0.0011646987" flag="0"/>
    </comp>
    <comp name="--.HNZ">
      <acc value="0.0173543480" flag="0"/>
      <vel value="0.0107019010" flag="0"/>
      <psa03 value="0.0458571605" flag="0"/>
      <psa10 value="0.0114481225" flag="0"/>
      <psa30 value="0.0006022512" flag="0"/>
    </comp>
  </station>
  <station code="ATPI" name="ATPI" netid="IV" insttype="" commtype="DIG" lat="43.4507" lon="12.4022">
    <comp name="--.HNE">
      <acc value="0.0121266731" flag="0"/>
      <vel value="0.0072903290" flag="0"/>
      <psa03 value="0.0374485941" flag="0"/>
      <psa10 value="0.0093200424" flag="0"/>
      <psa30 value="0.0007722201" flag="0"/>
    </comp>
    <comp name="--.HNZ">
      <acc value="0.0115047355" flag="0"/>
      <vel value="0.0048900275" flag="0"/>
      <psa03 value="0.0240656234" flag="0"/>
      <psa10 value="0.0039825581" flag="0"/>
      <psa30 value="0.0005199615" flag="0"/>
    </comp>
    <comp name="--.HNN">
      <acc value="0.0127671065" flag="0"/>
      <vel value="0.0072863578" flag="0"/>
      <psa03 value="0.0352851722" flag="0"/>
      <psa10 value="0.0062238734" flag="0"/>
      <psa30 value="0.0007688199" flag="0"/>
    </comp>
  </station>
  <station code="ATVO" name="ATVO" netid="IV" insttype="" commtype="DIG" lat="43.3821" lon="12.4066">
    <comp name="--.HNZ">
      <acc value="0.0097172473" flag="0"/>
      <vel value="0.0037208008" flag="0"/>
      <psa03 value="0.0174626697" flag="0"/>
      <psa10 value="0.0053361936" flag="0"/>
      <psa30 value="0.0006356412" flag="0"/>
    </comp>
    <comp name="--.HNN">
      <acc value="0.0127735166" flag="0"/>
      <vel value="0.0097298535" flag="0"/>
      <psa03 value="0.0257239909" flag="0"/>
      <psa10 value="0.0126959694" flag="0"/>
      <psa30 value="0.0011767226" flag="0"/>
    </comp>
    <comp name="--.HNE">
      <acc value="0.0131483516" flag="0"/>
      <vel value="0.0077677572" flag="0"/>
      <psa03 value="0.0319640429" flag="0"/>
      <psa10 value="0.0148049202" flag="0"/>
      <psa30 value="0.0009031000" flag="0"/>
    </comp>
  </station>
  <station code="BRSN" name="BRSN" netid="IV" insttype="" commtype="DIG" lat="44.2842" lon="12.0802">
    <comp name="--.HNE">
      <acc value="1.5662204460" flag="0"/>
      <vel value="0.3820695878" flag="0"/>
      <psa03 value="1.6501488763" flag="0"/>
      <psa10 value="0.1674824487" flag="0"/>
      <psa30 value="0.0122321139" flag="0"/>
    </comp>
    <comp name="--.HNN">
      <acc value="1.3528847130" flag="0"/>
      <vel value="0.3692102731" flag="0"/>
      <psa03 value="1.3059549125" flag="0"/>
      <psa10 value="0.1645288669" flag="0"/>
      <psa30 value="0.0080552398" flag="0"/>
    </comp>
    <comp name="--.HNZ">
      <acc value="1.8849903561" flag="0"/>
      <vel value="0.2472365375" flag="0"/>
      <psa03 value="0.7017905632" flag="0"/>
      <psa10 value="0.0428078415" flag="0"/>
      <psa30 value="0.0030393521" flag="0"/>
    </comp>
  </station>
  <station code="CRMI" name="CRMI" netid="IV" insttype="" commtype="DIG" lat="43.7956" lon="10.9795">
    <comp name="--.HNE">
      <acc value="0.0092780339" flag="0"/>
      <vel value="0.0030524979" flag="0"/>
      <psa03 value="0.0193011183" flag="0"/>
      <psa10 value="0.0042022499" flag="0"/>
      <psa30 value="0.0002912598" flag="0"/>
    </comp>
    <comp name="--.HNN">
      <acc value="0.0108241752" flag="0"/>
      <vel value="0.0054745174" flag="0"/>
      <psa03 value="0.0300754257" flag="0"/>
      <psa10 value="0.0059000214" flag="0"/>
      <psa30 value="0.0004198202" flag="0"/>
    </comp>
    <comp name="--.HNZ">
      <acc value="0.0072453160" flag="0"/>
      <vel value="0.0028370476" flag="0"/>
      <psa03 value="0.0247726873" flag="0"/>
      <psa10 value="0.0017522097" flag="0"/>
      <psa30 value="0.0002087846" flag="0"/>
    </comp>
  </station>
  <station code="FAEN" name="FAEN" netid="IV" insttype="" commtype="DIG" lat="44.2895" lon="11.877">
    <comp name="--.HNN">
      <acc value="1.0675255363" flag="0"/>
      <vel value="0.3225333018" flag="0"/>
      <psa03 value="1.7839338458" flag="0"/>
      <psa10 value="0.1542646258" flag="0"/>
      <psa30 value="0.0140973043" flag="0"/>
    </comp>
    <comp name="--.HNZ">
      <acc value="0.2901724840" flag="0"/>
      <vel value="0.0377595775" flag="0"/>
      <psa03 value="0.2405520828" flag="0"/>
      <psa10 value="0.0122549429" flag="0"/>
      <psa30 value="0.0009764571" flag="0"/>
    </comp>
    <comp name="--.HNE">
      <acc value="1.0959857756" flag="0"/>
      <vel value="0.4067627286" flag="0"/>
      <psa03 value="2.2791472375" flag="0"/>
      <psa10 value="0.1569117716" flag="0"/>
      <psa30 value="0.0116852390" flag="0"/>
    </comp>
  </station>
  <station code="IMOL" name="IMOL" netid="IV" insttype="" commtype="DIG" lat="44.3595" lon="11.7425">
    <comp name="--.HNE">
      <acc value="0.3342910825" flag="0"/>
      <vel value="0.0950586041" flag="0"/>
      <psa03 value="0.2757479563" flag="0"/>
      <psa10 value="0.0427424658" flag="0"/>
      <psa30 value="0.0049718373" flag="0"/>
    </comp>
    <comp name="--.HNZ">
      <acc value="0.3664485590" flag="0"/>
      <vel value="0.0469661574" flag="0"/>
      <psa03 value="0.0725596577" flag="0"/>
      <psa10 value="0.0240632421" flag="0"/>
      <psa30 value="0.0015034037" flag="0"/>
    </comp>
    <comp name="--.HNN">
      <acc value="0.3804266434" flag="0"/>
      <vel value="0.1097650872" flag="0"/>
      <psa03 value="0.4414880925" flag="0"/>
      <psa10 value="0.0495415513" flag="0"/>
      <psa30 value="0.0031666222" flag="0"/>
    </comp>
  </station>
  <station code="LMD" name="LMD" netid="IV" insttype="" commtype="DIG" lat="44.0775" lon="11.7073">
    <comp name="--.HHZ">
      <acc value="0.1050495523" flag="0"/>
      <vel value="0.0375432323" flag="0"/>
      <psa03 value="0.1580088616" flag="0"/>
      <psa10 value="0.0127874100" flag="0"/>
      <psa30 value="0.0011599199" flag="0"/>
    </comp>
    <comp name="--.HHE">
      <acc value="0.1799216019" flag="0"/>
      <vel value="0.0536654444" flag="0"/>
      <psa03 value="0.3992476178" flag="0"/>
      <psa10 value="0.0294533011" flag="0"/>
      <psa30 value="0.0022629630" flag="0"/>
    </comp>
    <comp name="--.HHN">
      <acc value="0.2400015068" flag="0"/>
      <vel value="0.1046798180" flag="0"/>
      <psa03 value="0.6149022965" flag="0"/>
      <psa10 value="0.0326833661" flag="0"/>
      <psa30 value="0.0032787915" flag="0"/>
    </comp>
  </station>
  <station code="MTRZ" name="MTRZ" netid="IV" insttype="" commtype="DIG" lat="44.3128" lon="11.4248">
    <comp name="--.HNE">
      <acc value="0.0325318247" flag="0"/>
      <vel value="0.0197810647" flag="0"/>
      <psa03 value="0.0876317334" flag="0"/>
      <psa10 value="0.0170250970" flag="0"/>
      <psa30 value="0.0011727457" flag="0"/>
    </comp>
    <comp name="--.HNN">
      <acc value="0.0334275982" flag="0"/>
      <vel value="0.0156278494" flag="0"/>
      <psa03 value="0.1096380266" flag="0"/>
      <psa10 value="0.0124529335" flag="0"/>
      <psa30 value="0.0011383181" flag="0"/>
    </comp>
    <comp name="--.HNZ">
      <acc value="0.0196520007" flag="0"/>
      <vel value="0.0112917928" flag="0"/>
      <psa03 value="0.0493579457" flag="0"/>
      <psa10 value="0.0078324914" flag="0"/>
      <psa30 value="0.0007844206" flag="0"/>
    </comp>
  </station>
  <station code="SERM" name="SERM" netid="IV" insttype="" commtype="DIG" lat="45.01" lon="11.2958">
    <comp name="--.HNE">
      <acc value="0.0986899677" flag="0"/>
      <vel value="0.0248234969" flag="0"/>
      <psa03 value="0.1536962186" flag="0"/>
      <psa10 value="0.0303929287" flag="0"/>
      <psa30 value="0.0029022360" flag="0"/>
    </comp>
    <comp name="--.HNN">
      <acc value="0.1203698518" flag="0"/>
      <vel value="0.0491661053" flag="0"/>
      <psa03 value="0.2241055148" flag="0"/>
      <psa10 value="0.0211026002" flag="0"/>
      <psa30 value="0.0022444384" flag="0"/>
    </comp>
    <comp name="--.HNZ">
      <acc value="0.0674534738" flag="0"/>
      <vel value="0.0105206546" flag="0"/>
      <psa03 value="0.0602753455" flag="0"/>
      <psa10 value="0.0044180418" flag="0"/>
      <psa30 value="0.0007459103" flag="0"/>
    </comp>
  </station>
  <station code="SSFR" name="SSFR" netid="IV" insttype="" commtype="DIG" lat="43.4363" lon="12.7822">
    <comp name="--.HNE">
      <acc value="0.0712424112" flag="0"/>
      <vel value="0.0234378755" flag="0"/>
      <psa03 value="0.1717496361" flag="0"/>
      <psa10 value="0.0060940099" flag="0"/>
      <psa30 value="0.0007554793" flag="0"/>
    </comp>
    <comp name="--.HNN">
      <acc value="0.0660114030" flag="0"/>
      <vel value="0.0228677282" flag="0"/>
      <psa03 value="0.1517463328" flag="0"/>
      <psa10 value="0.0073830214" flag="0"/>
      <psa30 value="0.0005625800" flag="0"/>
    </comp>
    <comp name="--.HNZ">
      <acc value="0.0261430572" flag="0"/>
      <vel value="0.0105241536" flag="0"/>
      <psa03 value="0.0653578649" flag="0"/>
      <psa10 value="0.0031670127" flag="0"/>
      <psa30 value="0.0004052453" flag="0"/>
    </comp>
  </station>
</stationlist>
