<?xml version="1.0" encoding="UTF-8" standalone="yes"?>
<!DOCTYPE earthquake SYSTEM "stationlist.dtd">
<stationlist created="" xmlns="ch.ethz.sed.shakemap.usgs.xml">
  <station code="SVRC" name="SVRC" netid="KO" insttype="CMG-3T" lat="38.3775" lon="39.306">
    <comp name="--.HHN">
      <acc value="0.0061455969" flag="0"/>
      <vel value="0.0023590189" flag="0"/>
      <psa03 value="0.0176882120" flag="0"/>
      <psa10 value="0.0018755416" flag="0"/>
      <psa30 value="0.0001401408" flag="0"/>
    </comp>
    <comp name="--.HHZ">
      <acc value="0.0044607522" flag="0"/>
      <vel value="0.0020543047" flag="0"/>
      <psa03 value="0.0095342670" flag="0"/>
      <psa10 value="0.0013115510" flag="0"/>
      <psa30 value="0.0001272018" flag="0"/>
    </comp>
    <comp name="--.HHE">
      <acc value="0.0063919432" flag="0"/>
      <vel value="0.0035356909" flag="0"/>
      <psa03 value="0.0145826474" flag="0"/>
      <psa10 value="0.0021079173" flag="0"/>
      <psa30 value="0.0002539147" flag="0"/>
    </comp>
  </station>
  <station code="URFA" name="URFA" netid="KO" insttype="CMG-3ESP" lat="37.4409" lon="38.8213">
    <comp name="--.HHN">
      <acc value="0.0109104983" flag="0"/>
      <vel value="0.0030884426" flag="0"/>
      <psa03 value="0.0171955376" flag="0"/>
      <psa10 value="0.0013855805" flag="0"/>
      <psa30 value="0.0001140122" flag="0"/>
    </comp>
    <comp name="--.HHZ">
      <acc value="0.0090864125" flag="0"/>
      <vel value="0.0015290186" flag="0"/>
      <psa03 value="0.0063923515" flag="0"/>
      <psa10 value="0.0010227918" flag="0"/>
      <psa30 value="0.0000731796" flag="0"/>
    </comp>
  </station>
</stationlist>
