<?xml version="1.0" encoding="UTF-8" standalone="yes"?>
<!DOCTYPE earthquake SYSTEM "stationlist.dtd">
<stationlist created="" xmlns="ch.ethz.sed.shakemap.usgs.xml">
  <station code="GVD" name="GVD" netid="GE" insttype="STS-2/N" lat="34.8391" lon="24.0874">
    <comp name="--.HHE">
      <acc value="1.0666058178" flag="0"/>
      <vel value="0.2868215378" flag="0"/>
      <psa03 value="1.5410518055" flag="0"/>
      <psa10 value="0.1448465087" flag="0"/>
      <psa30 value="0.0107930995" flag="0"/>
    </comp>
  </station>
  <station code="IMMV" name="IMMV" netid="GE" insttype="STS-2/N" lat="35.4606" lon="23.9811">
    <comp name="--.HHN">
      <acc value="0.0808261424" flag="0"/>
      <vel value="0.0283859442" flag="0"/>
      <psa03 value="0.1867089370" flag="0"/>
      <psa10 value="0.0174453326" flag="0"/>
      <psa30 value="0.0009940572" flag="0"/>
    </comp>
    <comp name="--.HHZ">
      <acc value="0.0591138714" flag="0"/>
      <vel value="0.0202123010" flag="0"/>
      <psa03 value="0.1188013568" flag="0"/>
      <psa10 value="0.0136747582" flag="0"/>
      <psa30 value="0.0007374544" flag="0"/>
    </comp>
  </station>
  <station code="IDI" name="IDI" netid="MN" insttype="" lat="35.288" lon="24.89">
    <comp name="--.HHE">
      <acc value="0.0069684097" flag="0"/>
      <vel value="0.0038725256" flag="0"/>
      <psa03 value="0.0189159532" flag="0"/>
      <psa10 value="0.0043550201" flag="0"/>
      <psa30 value="0.0004884424" flag="0"/>
    </comp>
    <comp name="--.HHN">
      <acc value="0.0068974126" flag="0"/>
      <vel value="0.0054283563" flag="0"/>
      <psa03 value="0.0201518062" flag="0"/>
      <psa10 value="0.0068136276" flag="0"/>
      <psa30 value="0.0008786069" flag="0"/>
    </comp>
    <comp name="--.HHZ">
      <acc value="0.0050883230" flag="0"/>
      <vel value="0.0031999740" flag="0"/>
      <psa03 value="0.0163946561" flag="0"/>
      <psa10 value="0.0037264667" flag="0"/>
      <psa30 value="0.0006621024" flag="0"/>
    </comp>
  </station>
</stationlist>
