<stationlist xmlns:esm="https://esm-db.eu/esmws/shakemap/1/" created="1784080540">
	<station code="ABEA" name="ABEA" netid="HC" source="Seismological Network of Crete (HC)" insttype="" lat="35.5163" lon="24.0113" esm:processing="manual (Paolucci et al 2011)" esm:quality="good">
		<comp name="--.HNE" depth="0.0">
			<acc value="0.0241328324691749" flag="0"/>
			<vel value="0.0215436306319135" flag="0"/>
			<psa03 value="0.0749007847260608" flag="0"/>
			<psa10 value="0.0362305238443945" flag="0"/>
			<psa30 value="0.00277874095295078" flag="0"/>
		</comp>
		<comp name="--.HNN" depth="0.0">
			<acc value="0.0210922298919078" flag="0"/>
			<vel value="0.0170944303260598" flag="0"/>
			<psa03 value="0.0646383184297009" flag="0"/>
			<psa10 value="0.0247913679314557" flag="0"/>
			<psa30 value="0.00209446770653978" flag="0"/>
		</comp>
		<comp name="--.HNZ" depth="0.0">
			<acc value="0.0182002981573921" flag="0"/>
			<vel value="0.0106534211386415" flag="0"/>
			<psa03 value="0.0486846886633585" flag="0"/>
			<psa10 value="0.0251064056761602" flag="0"/>
			<psa30 value="0.00117689838040845" flag="0"/>
		</comp>
	</station>
	<station code="ATEI" name="ATEI" netid="HC" source="Seismological Network of Crete (HC)" insttype="" lat="35.5193" lon="24.0432" esm:processing="automatic (Paolucci et al 2011)" esm:quality="best">
		<comp name="--.HNE" depth="0.0">
			<acc value="0.0255804053567982" flag="0"/>
			<vel value="0.0165876273715128" flag="0"/>
			<psa03 value="0.0902994089759882" flag="0"/>
			<psa10 value="0.023712638970961" flag="0"/>
			<psa30 value="0.0020891608966558" flag="0"/>
		</comp>
		<comp name="--.HNN" depth="0.0">
			<acc value="0.0178984254225466" flag="0"/>
			<vel value="0.0127349852444958" flag="0"/>
			<psa03 value="0.0588744834789782" flag="0"/>
			<psa10 value="0.0187168730259709" flag="0"/>
			<psa30 value="0.00162405091873576" flag="0"/>
		</comp>
		<comp name="--.HNZ" depth="0.0">
			<acc value="0.0159139433514868" flag="0"/>
			<vel value="0.007693735062492" flag="0"/>
			<psa03 value="0.0570582746225007" flag="0"/>
			<psa10 value="0.0162396520472322" flag="0"/>
			<psa30 value="0.00132222092397869" flag="0"/>
		</comp>
	</station>
	<station code="DEYA" name="DEYA" netid="HC" source="Seismological Network of Crete (HC)" insttype="" lat="35.4825" lon="24.014" esm:processing="automatic (Paolucci et al 2011)" esm:quality="best">
		<comp name="--.HNE" depth="0.0">
			<acc value="0.111546491408938" flag="0"/>
			<vel value="0.0586618191810179" flag="0"/>
			<psa03 value="0.35733833857792" flag="0"/>
			<psa10 value="0.0492391155997918" flag="0"/>
			<psa30 value="0.00316524322349761" flag="0"/>
		</comp>
		<comp name="--.HNN" depth="0.0">
			<acc value="0.109464721193301" flag="0"/>
			<vel value="0.0557011780324616" flag="0"/>
			<psa03 value="0.358315069948292" flag="0"/>
			<psa10 value="0.0756736530083107" flag="0"/>
			<psa30 value="0.00323215390600245" flag="0"/>
		</comp>
		<comp name="--.HNZ" depth="0.0">
			<acc value="0.0576890200123331" flag="0"/>
			<vel value="0.0253801448149235" flag="0"/>
			<psa03 value="0.0865243359792277" flag="0"/>
			<psa10 value="0.026986112697527" flag="0"/>
			<psa30 value="0.00185604337043301" flag="0"/>
		</comp>
	</station>
	<station code="G0LD" name="G0LD" netid="HC" source="Seismological Network of Crete (HC)" insttype="" lat="35.4955" lon="24.0306" esm:processing="manual (Paolucci et al 2011)" esm:quality="good">
		<comp name="--.HNE" depth="0.0">
			<acc value="0.0763611823545353" flag="0"/>
			<vel value="0.0523418120646466" flag="0"/>
			<psa03 value="0.323397215145019" flag="0"/>
			<psa10 value="0.108829449416917" flag="0"/>
			<psa30 value="0.00445801782180188" flag="0"/>
		</comp>
		<comp name="--.HNN" depth="0.0">
			<acc value="0.106301648769807" flag="0"/>
			<vel value="0.0489097502584376" flag="0"/>
			<psa03 value="0.278770363001748" flag="0"/>
			<psa10 value="0.123527483089513" flag="0"/>
			<psa30 value="0.00471881843189568" flag="0"/>
		</comp>
		<comp name="--.HNZ" depth="0.0">
			<acc value="0.0481792148972215" flag="0"/>
			<vel value="0.0361961476916982" flag="0"/>
			<psa03 value="0.145885539201003" flag="0"/>
			<psa10 value="0.0776772832387942" flag="0"/>
			<psa30 value="0.00222388732162078" flag="0"/>
		</comp>
	</station>
	<station code="CH01" name="CH01" netid="HI" source="ITSAK Strong Motion Network" insttype="" lat="35.517" lon="24.0208" esm:processing="manual (Paolucci et al 2011)" esm:quality="best">
		<comp name="--.HNE" depth="0.0">
			<acc value="0.0242388038676406" flag="0"/>
			<vel value="0.018664918994073" flag="0"/>
			<psa03 value="0.0661058062686498" flag="0"/>
			<psa10 value="0.0252189656327043" flag="0"/>
			<psa30 value="0.00310028621208008" flag="0"/>
		</comp>
		<comp name="--.HNN" depth="0.0">
			<acc value="0.0395594129531977" flag="0"/>
			<vel value="0.0186988751287972" flag="0"/>
			<psa03 value="0.11787392315233" flag="0"/>
			<psa10 value="0.0222072592469474" flag="0"/>
			<psa30 value="0.00249521446237834" flag="0"/>
		</comp>
		<comp name="--.HNZ" depth="0.0">
			<acc value="0.0175723108606072" flag="0"/>
			<vel value="0.0108916534053237" flag="0"/>
			<psa03 value="0.0361307554644019" flag="0"/>
			<psa10 value="0.013173996462594" flag="0"/>
			<psa30 value="0.000959762225369613" flag="0"/>
		</comp>
	</station>
	<station code="IMMV" name="IMMV" netid="HL" source="National Observatory of Athens Seismic Network" insttype="" lat="35.4606" lon="23.9811" esm:processing="manual (Paolucci et al 2011)" esm:quality="best">
		<comp name="--.HNE" depth="0.0">
			<acc value="0.0768475517976275" flag="0"/>
			<vel value="0.0338696190049513" flag="0"/>
			<psa03 value="0.328055357057359" flag="0"/>
			<psa10 value="0.0184782915961245" flag="0"/>
			<psa30 value="0.00146625796572714" flag="0"/>
		</comp>
		<comp name="--.HNN" depth="0.0">
			<acc value="0.0765928105348086" flag="0"/>
			<vel value="0.0270634923092894" flag="0"/>
			<psa03 value="0.17728949455897" flag="0"/>
			<psa10 value="0.0168658329036616" flag="0"/>
			<psa30 value="0.00100978856020386" flag="0"/>
		</comp>
		<comp name="--.HNZ" depth="0.0">
			<acc value="0.0573562452049844" flag="0"/>
			<vel value="0.0195352452123809" flag="0"/>
			<psa03 value="0.115825381196595" flag="0"/>
			<psa10 value="0.0134127119638541" flag="0"/>
			<psa30 value="0.000781619434700734" flag="0"/>
		</comp>
	</station>
	<station code="LENT" name="LENT" netid="HC" source="Seismological Network of Crete (HC)" insttype="" lat="35.5074" lon="24.0402" esm:processing="automatic (Paolucci et al 2011)" esm:quality="bad">
		<comp name="--.HNE" depth="0.0">
			<acc value="0" flag="1"/>
			<vel value="0" flag="1"/>
			<psa03 value="0" flag="1"/>
			<psa10 value="0" flag="1"/>
			<psa30 value="0" flag="1"/>
		</comp>
		<comp name="--.HNN" depth="0.0">
			<acc value="0" flag="1"/>
			<vel value="0" flag="1"/>
			<psa03 value="0" flag="1"/>
			<psa10 value="0" flag="1"/>
			<psa30 value="0" flag="1"/>
		</comp>
		<comp name="--.HNZ" depth="0.0">
			<acc value="0" flag="1"/>
			<vel value="0" flag="1"/>
			<psa03 value="0" flag="1"/>
			<psa10 value="0" flag="1"/>
			<psa30 value="0" flag="1"/>
		</comp>
	</station>
	<station code="MULT" name="MULT" netid="HC" source="Seismological Network of Crete (HC)" insttype="" lat="35.5091" lon="24.0118" esm:processing="automatic (Paolucci et al 2011)" esm:quality="bad">
		<comp name="--.HNE" depth="0.0">
			<acc value="0" flag="1"/>
			<vel value="0" flag="1"/>
			<psa03 value="0" flag="1"/>
			<psa10 value="0" flag="1"/>
			<psa30 value="0" flag="1"/>
		</comp>
		<comp name="--.HNN" depth="0.0">
			<acc value="0" flag="1"/>
			<vel value="0" flag="1"/>
			<psa03 value="0" flag="1"/>
			<psa10 value="0" flag="1"/>
			<psa30 value="0" flag="1"/>
		</comp>
		<comp name="--.HNZ" depth="0.0">
			<acc value="0" flag="1"/>
			<vel value="0" flag="1"/>
			<psa03 value="0" flag="1"/>
			<psa10 value="0" flag="1"/>
			<psa30 value="0" flag="1"/>
		</comp>
	</station>
	<station code="PASK" name="PASK" netid="HC" source="Seismological Network of Crete (HC)" insttype="" lat="35.4996" lon="24.0121" esm:processing="automatic (Paolucci et al 2011)" esm:quality="bad">
		<comp name="--.HNE" depth="0.0">
			<acc value="0" flag="1"/>
			<vel value="0" flag="1"/>
			<psa03 value="0" flag="1"/>
			<psa10 value="0" flag="1"/>
			<psa30 value="0" flag="1"/>
		</comp>
		<comp name="--.HNN" depth="0.0">
			<acc value="0" flag="1"/>
			<vel value="0" flag="1"/>
			<psa03 value="0" flag="1"/>
			<psa10 value="0" flag="1"/>
			<psa30 value="0" flag="1"/>
		</comp>
		<comp name="--.HNZ" depth="0.0">
			<acc value="0" flag="1"/>
			<vel value="0" flag="1"/>
			<psa03 value="0" flag="1"/>
			<psa10 value="0" flag="1"/>
			<psa30 value="0" flag="1"/>
		</comp>
	</station>
	<station code="POLY" name="POLY" netid="HC" source="Seismological Network of Crete (HC)" insttype="" lat="35.5226" lon="24.0602" esm:processing="automatic (Paolucci et al 2011)" esm:quality="bad">
		<comp name="--.HNE" depth="0.0">
			<acc value="0" flag="1"/>
			<vel value="0" flag="1"/>
			<psa03 value="0" flag="1"/>
			<psa10 value="0" flag="1"/>
			<psa30 value="0" flag="1"/>
		</comp>
		<comp name="--.HNN" depth="0.0">
			<acc value="0" flag="1"/>
			<vel value="0" flag="1"/>
			<psa03 value="0" flag="1"/>
			<psa10 value="0" flag="1"/>
			<psa30 value="0" flag="1"/>
		</comp>
		<comp name="--.HNZ" depth="0.0">
			<acc value="0" flag="1"/>
			<vel value="0" flag="1"/>
			<psa03 value="0" flag="1"/>
			<psa10 value="0" flag="1"/>
			<psa30 value="0" flag="1"/>
		</comp>
	</station>
	<station code="SOUD" name="SOUD" netid="HC" source="Seismological Network of Crete (HC)" insttype="" lat="35.4878" lon="24.0678" esm:processing="automatic (Paolucci et al 2011)" esm:quality="bad">
		<comp name="--.HNE" depth="0.0">
			<acc value="0" flag="1"/>
			<vel value="0" flag="1"/>
			<psa03 value="0" flag="1"/>
			<psa10 value="0" flag="1"/>
			<psa30 value="0" flag="1"/>
		</comp>
		<comp name="--.HNN" depth="0.0">
			<acc value="0" flag="1"/>
			<vel value="0" flag="1"/>
			<psa03 value="0" flag="1"/>
			<psa10 value="0" flag="1"/>
			<psa30 value="0" flag="1"/>
		</comp>
		<comp name="--.HNZ" depth="0.0">
			<acc value="0" flag="1"/>
			<vel value="0" flag="1"/>
			<psa03 value="0" flag="1"/>
			<psa10 value="0" flag="1"/>
			<psa30 value="0" flag="1"/>
		</comp>
	</station>
	<station code="SIVA" name="SIVA" netid="HL" source="National Observatory of Athens Seismic Network" insttype="" lat="35.01777" lon="24.81204" esm:processing="discarded" esm:quality="best">
		<comp name="00.HNE" depth="0.0">
			<acc value="0" flag="1"/>
			<vel value="0" flag="1"/>
			<psa03 value="0" flag="1"/>
			<psa10 value="0" flag="1"/>
			<psa30 value="0" flag="1"/>
		</comp>
		<comp name="00.HNN" depth="0.0">
			<acc value="0" flag="1"/>
			<vel value="0" flag="1"/>
			<psa03 value="0" flag="1"/>
			<psa10 value="0" flag="1"/>
			<psa30 value="0" flag="1"/>
		</comp>
		<comp name="00.HNZ" depth="0.0">
			<acc value="0" flag="1"/>
			<vel value="0" flag="1"/>
			<psa03 value="0" flag="1"/>
			<psa10 value="0" flag="1"/>
			<psa30 value="0" flag="1"/>
		</comp>
	</station>
</stationlist>
