<?xml version="1.0" encoding="UTF-8" standalone="yes"?>
<!DOCTYPE earthquake SYSTEM "stationlist.dtd">
<stationlist created="" xmlns="ch.ethz.sed.shakemap.usgs.xml">
  <station code="GVD" name="GVD" netid="GE" insttype="STS-2/N" lat="34.8391" lon="24.0874">
    <comp name="--.HHE">
      <acc value="1.0666058178" flag="0"/>
      <vel value="0.2868215378" flag="0"/>
      <psa03 value="1.5410518055" flag="0"/>
      <psa10 value="0.1448465087" flag="0"/>
      <psa30 value="0.0107930995" flag="0"/>
    </comp>
    <comp name="--.HHZ">
      <acc value="0.6634575503" flag="0"/>
      <vel value="0.1804206411" flag="0"/>
      <psa03 value="0.5804412738" flag="0"/>
      <psa10 value="0.0303802523" flag="0"/>
      <psa30 value="0.0025669753" flag="0"/>
    </comp>
    <comp name="--.HHN">
      <acc value="1.1162544295" flag="0"/>
      <vel value="0.3357265192" flag="0"/>
      <psa03 value="1.6973809910" flag="0"/>
      <psa10 value="0.1283387974" flag="0"/>
      <psa30 value="0.0118718022" flag="0"/>
    </comp>
  </station>
  <station code="IMMV" name="IMMV" netid="GE" insttype="STS-2/N" lat="35.4606" lon="23.9811">
    <comp name="--.HHN">
      <acc value="0.0808261424" flag="0"/>
      <vel value="0.0283859442" flag="0"/>
      <psa03 value="0.1867089370" flag="0"/>
      <psa10 value="0.0174453326" flag="0"/>
      <psa30 value="0.0009940572" flag="0"/>
    </comp>
    <comp name="--.HHZ">
      <acc value="0.0591138714" flag="0"/>
      <vel value="0.0202123010" flag="0"/>
      <psa03 value="0.1188013568" flag="0"/>
      <psa10 value="0.0136747582" flag="0"/>
      <psa30 value="0.0007374544" flag="0"/>
    </comp>
    <comp name="--.HHE">
      <acc value="0.0815827372" flag="0"/>
      <vel value="0.0360172299" flag="0"/>
      <psa03 value="0.3478443695" flag="0"/>
      <psa10 value="0.0192513197" flag="0"/>
      <psa30 value="0.0014338792" flag="0"/>
    </comp>
  </station>
  <station code="CHAN" name="CHAN" netid="HC" insttype="120" lat="35.5193" lon="24.0428">
    <comp name="--.HHE">
      <acc value="0.0516354625" flag="0"/>
      <vel value="0.0298538776" flag="0"/>
      <psa03 value="0.1725896000" flag="0"/>
      <psa10 value="0.0436287655" flag="0"/>
      <psa30 value="0.0034208322" flag="0"/>
    </comp>
    <comp name="--.HHN">
      <acc value="0.0362768468" flag="0"/>
      <vel value="0.0242962767" flag="0"/>
      <psa03 value="0.1090201578" flag="0"/>
      <psa10 value="0.0360706819" flag="0"/>
      <psa30 value="0.0029090605" flag="0"/>
    </comp>
    <comp name="--.HHZ">
      <acc value="0.0288335236" flag="0"/>
      <vel value="0.0151826787" flag="0"/>
      <psa03 value="0.1095529197" flag="0"/>
      <psa10 value="0.0308302598" flag="0"/>
      <psa30 value="0.0013287584" flag="0"/>
    </comp>
  </station>
  <station code="DEYA" name="DEYA" netid="HC" insttype="DC" lat="35.4825" lon="24.014">
    <comp name="--.HNZ">
      <acc value="0.0058648051" flag="0"/>
      <vel value="0.0025810265" flag="0"/>
      <psa03 value="0.0088034559" flag="0"/>
      <psa10 value="0.0027405940" flag="0"/>
      <psa30 value="0.0001732920" flag="0"/>
    </comp>
    <comp name="--.HNE">
      <acc value="0.0113900829" flag="0"/>
      <vel value="0.0059378038" flag="0"/>
      <psa03 value="0.0363608382" flag="0"/>
      <psa10 value="0.0050137240" flag="0"/>
      <psa30 value="0.0003050581" flag="0"/>
    </comp>
    <comp name="--.HNN">
      <acc value="0.0111298934" flag="0"/>
      <vel value="0.0056538801" flag="0"/>
      <psa03 value="0.0362537009" flag="0"/>
      <psa10 value="0.0077047259" flag="0"/>
      <psa30 value="0.0003215616" flag="0"/>
    </comp>
  </station>
  <station code="GVDS" name="GVDS" netid="HC" insttype="60" lat="34.8389" lon="24.0585">
    <comp name="--.HHN">
      <acc value="1.7560775264" flag="0"/>
      <vel value="0.5582844341" flag="0"/>
      <psa03 value="2.3499721732" flag="0"/>
      <psa10 value="0.1570944949" flag="0"/>
      <psa30 value="0.0156648370" flag="0"/>
    </comp>
    <comp name="--.HHE">
      <acc value="1.7029623434" flag="0"/>
      <vel value="0.5371180637" flag="0"/>
      <psa03 value="1.5746843999" flag="0"/>
      <psa10 value="0.1424552872" flag="0"/>
      <psa30 value="0.0151264674" flag="0"/>
    </comp>
    <comp name="--.HHZ">
      <acc value="1.0010224141" flag="0"/>
      <vel value="0.2059520148" flag="0"/>
      <psa03 value="0.6385758293" flag="0"/>
      <psa10 value="0.0342211003" flag="0"/>
      <psa30 value="0.0027172346" flag="0"/>
    </comp>
  </station>
  <station code="IMOD" name="IMOD" netid="HC" insttype="120" lat="34.9731" lon="24.7995">
    <comp name="--.HHE">
      <acc value="0.0248432091" flag="0"/>
      <vel value="0.0198727285" flag="0"/>
      <psa03 value="0.0721321904" flag="0"/>
      <psa10 value="0.0185397966" flag="0"/>
      <psa30 value="0.0011626863" flag="0"/>
    </comp>
    <comp name="--.HHN">
      <acc value="0.0317938227" flag="0"/>
      <vel value="0.0206012651" flag="0"/>
      <psa03 value="0.1023929671" flag="0"/>
      <psa10 value="0.0267333653" flag="0"/>
      <psa30 value="0.0018187259" flag="0"/>
    </comp>
    <comp name="--.HHZ">
      <acc value="0.0189698832" flag="0"/>
      <vel value="0.0091545452" flag="0"/>
      <psa03 value="0.0487633822" flag="0"/>
      <psa10 value="0.0085637689" flag="0"/>
      <psa30 value="0.0006412556" flag="0"/>
    </comp>
  </station>
  <station code="IPPL" name="IPPL" netid="HC" insttype="60" lat="35.3486" lon="24.4632">
    <comp name="--.HHN">
      <acc value="0.0000000000" flag="0"/>
      <vel value="-100.0000000000" flag="0"/>
      <psa03 value="0.0000000000" flag="0"/>
      <psa10 value="0.0000000000" flag="0"/>
      <psa30 value="0.0000000000" flag="0"/>
    </comp>
    <comp name="--.HHZ">
      <acc value="0.0182340393" flag="0"/>
      <vel value="0.0084516099" flag="0"/>
      <psa03 value="0.0601850206" flag="0"/>
      <psa10 value="0.0140440022" flag="0"/>
      <psa30 value="0.0010160622" flag="0"/>
    </comp>
    <comp name="--.HHE">
      <acc value="0.0000000000" flag="0"/>
      <vel value="-100.0000000000" flag="0"/>
      <psa03 value="0.0000000000" flag="0"/>
      <psa10 value="0.0000000000" flag="0"/>
      <psa30 value="0.0000000000" flag="0"/>
    </comp>
  </station>
  <station code="KNDR" name="KNDR" netid="HC" insttype="120" lat="35.2348" lon="23.6248">
    <comp name="--.HHZ">
      <acc value="0.0547409013" flag="0"/>
      <vel value="0.0113781450" flag="0"/>
      <psa03 value="0.0843306555" flag="0"/>
      <psa10 value="0.0107730871" flag="0"/>
      <psa30 value="0.0007920365" flag="0"/>
    </comp>
    <comp name="--.HHE">
      <acc value="0.0542189978" flag="0"/>
      <vel value="0.0220039609" flag="0"/>
      <psa03 value="0.0904814457" flag="0"/>
      <psa10 value="0.0231978867" flag="0"/>
      <psa30 value="0.0011673218" flag="0"/>
    </comp>
    <comp name="--.HHN">
      <acc value="0.0464515533" flag="0"/>
      <vel value="0.0185886716" flag="0"/>
      <psa03 value="0.1325587057" flag="0"/>
      <psa10 value="0.0217003099" flag="0"/>
      <psa30 value="0.0012727822" flag="0"/>
    </comp>
  </station>
  <station code="RODP" name="RODP" netid="HC" insttype="120" lat="35.5604" lon="23.7577">
    <comp name="--.HHZ">
      <acc value="0.0090139579" flag="0"/>
      <vel value="0.0056107143" flag="0"/>
      <psa03 value="0.0350642800" flag="0"/>
      <psa10 value="0.0032034044" flag="0"/>
      <psa30 value="0.0006471402" flag="0"/>
    </comp>
    <comp name="--.HHE">
      <acc value="0.0194122390" flag="0"/>
      <vel value="0.0093593080" flag="0"/>
      <psa03 value="0.0468593539" flag="0"/>
      <psa10 value="0.0080107497" flag="0"/>
      <psa30 value="0.0007782129" flag="0"/>
    </comp>
    <comp name="--.HHN">
      <acc value="0.0163529634" flag="0"/>
      <vel value="0.0089083150" flag="0"/>
      <psa03 value="0.0445926036" flag="0"/>
      <psa10 value="0.0085576795" flag="0"/>
      <psa30 value="0.0007375367" flag="0"/>
    </comp>
  </station>
  <station code="CH01" name="CH01" netid="HI" insttype="CMG-5TD,ACCELEROMETER,GURALP" lat="35.517" lon="24.0208">
    <comp name="--.HNE">
      <acc value="0.0247345844" flag="0"/>
      <vel value="0.0184702226" flag="0"/>
      <psa03 value="0.0668544155" flag="0"/>
      <psa10 value="0.0251498390" flag="0"/>
      <psa30 value="0.0030350649" flag="0"/>
    </comp>
    <comp name="--.HNZ">
      <acc value="0.0177865528" flag="0"/>
      <vel value="0.0109386797" flag="0"/>
      <psa03 value="0.0360012265" flag="0"/>
      <psa10 value="0.0131772722" flag="0"/>
      <psa30 value="0.0009081734" flag="0"/>
    </comp>
    <comp name="--.HNN">
      <acc value="0.0396272264" flag="0"/>
      <vel value="0.0185177179" flag="0"/>
      <psa03 value="0.1189226132" flag="0"/>
      <psa10 value="0.0221964968" flag="0"/>
      <psa30 value="0.0023895334" flag="0"/>
    </comp>
  </station>
  <station code="GVD" name="GVD" netid="HL" insttype="120" lat="34.8391" lon="24.0874">
    <comp name="--.HHE">
      <acc value="1.0281899358" flag="0"/>
      <vel value="0.2822199519" flag="0"/>
      <psa03 value="1.4979732128" flag="0"/>
      <psa10 value="0.1423325755" flag="0"/>
      <psa30 value="0.0106035721" flag="0"/>
    </comp>
    <comp name="--.HHN">
      <acc value="1.1026883578" flag="0"/>
      <vel value="0.3314921400" flag="0"/>
      <psa03 value="1.6517989095" flag="0"/>
      <psa10 value="0.1263790953" flag="0"/>
      <psa30 value="0.0116374109" flag="0"/>
    </comp>
    <comp name="--.HHZ">
      <acc value="0.6409250128" flag="0"/>
      <vel value="0.1756093359" flag="0"/>
      <psa03 value="0.5633390485" flag="0"/>
      <psa10 value="0.0296312604" flag="0"/>
      <psa30 value="0.0025090946" flag="0"/>
    </comp>
  </station>
  <station code="IDI" name="IDI" netid="HL" insttype="120" lat="35.288" lon="24.89">
    <comp name="--.HHN">
      <acc value="0.0068008309" flag="0"/>
      <vel value="0.0054349758" flag="0"/>
      <psa03 value="0.0199939326" flag="0"/>
      <psa10 value="0.0068594606" flag="0"/>
      <psa30 value="0.0008888895" flag="0"/>
    </comp>
    <comp name="--.HHE">
      <acc value="0.0067594269" flag="0"/>
      <vel value="0.0038620104" flag="0"/>
      <psa03 value="0.0186062051" flag="0"/>
      <psa10 value="0.0043835790" flag="0"/>
      <psa30 value="0.0004934916" flag="0"/>
    </comp>
    <comp name="--.HHZ">
      <acc value="0.0048753398" flag="0"/>
      <vel value="0.0032205975" flag="0"/>
      <psa03 value="0.0162166978" flag="0"/>
      <psa10 value="0.0037511158" flag="0"/>
      <psa30 value="0.0006699282" flag="0"/>
    </comp>
  </station>
  <station code="IMMV" name="IMMV" netid="HL" insttype="120" lat="35.4606" lon="23.9811">
    <comp name="--.HHE">
      <acc value="0.0796932617" flag="0"/>
      <vel value="0.0348810086" flag="0"/>
      <psa03 value="0.3377311276" flag="0"/>
      <psa10 value="0.0190952060" flag="0"/>
      <psa30 value="0.0014293986" flag="0"/>
    </comp>
    <comp name="--.HHZ">
      <acc value="0.0574663863" flag="0"/>
      <vel value="0.0196773146" flag="0"/>
      <psa03 value="0.1155386280" flag="0"/>
      <psa10 value="0.0135792798" flag="0"/>
      <psa30 value="0.0007353481" flag="0"/>
    </comp>
    <comp name="--.HHN">
      <acc value="0.0782437351" flag="0"/>
      <vel value="0.0276233747" flag="0"/>
      <psa03 value="0.1811376816" flag="0"/>
      <psa10 value="0.0173007019" flag="0"/>
      <psa30 value="0.0009888712" flag="0"/>
    </comp>
  </station>
  <station code="SIVA" name="SIVA" netid="HL" insttype="60" lat="35.0178" lon="24.812">
    <comp name="--.HHE">
      <acc value="0.0306867928" flag="0"/>
      <vel value="0.0224748346" flag="0"/>
      <psa03 value="0.1255511385" flag="0"/>
      <psa10 value="0.0259818530" flag="0"/>
      <psa30 value="0.0016694612" flag="0"/>
    </comp>
    <comp name="--.HHZ">
      <acc value="0.0173790249" flag="0"/>
      <vel value="0.0095396120" flag="0"/>
      <psa03 value="0.0595698959" flag="0"/>
      <psa10 value="0.0098297625" flag="0"/>
      <psa30 value="0.0006721834" flag="0"/>
    </comp>
    <comp name="--.HHN">
      <acc value="0.0346871908" flag="0"/>
      <vel value="0.0160927072" flag="0"/>
      <psa03 value="0.0794631422" flag="0"/>
      <psa10 value="0.0230739729" flag="0"/>
      <psa30 value="0.0010898828" flag="0"/>
    </comp>
  </station>
  <station code="VAM" name="VAM" netid="HL" insttype="CMG3ESPC-120s" lat="35.407" lon="24.1997">
    <comp name="--.HHE">
      <acc value="0.0789427076" flag="0"/>
      <vel value="0.0537130277" flag="0"/>
      <psa03 value="0.2195573344" flag="0"/>
      <psa10 value="0.0321865475" flag="0"/>
      <psa30 value="0.0027185473" flag="0"/>
    </comp>
    <comp name="--.HHN">
      <acc value="0.0661161616" flag="0"/>
      <vel value="0.0409222753" flag="0"/>
      <psa03 value="0.2318266539" flag="0"/>
      <psa10 value="0.0324983479" flag="0"/>
      <psa30 value="0.0013004864" flag="0"/>
    </comp>
    <comp name="--.HHZ">
      <acc value="0.0325809609" flag="0"/>
      <vel value="0.0143057543" flag="0"/>
      <psa03 value="0.1166222637" flag="0"/>
      <psa10 value="0.0182180108" flag="0"/>
      <psa30 value="0.0007737832" flag="0"/>
    </comp>
  </station>
  <station code="IDI" name="IDI" netid="MN" insttype="" lat="35.288" lon="24.89">
    <comp name="--.HHE">
      <acc value="0.0069684097" flag="0"/>
      <vel value="0.0038725256" flag="0"/>
      <psa03 value="0.0189159532" flag="0"/>
      <psa10 value="0.0043550201" flag="0"/>
      <psa30 value="0.0004884424" flag="0"/>
    </comp>
    <comp name="--.HHN">
      <acc value="0.0068974126" flag="0"/>
      <vel value="0.0054283563" flag="0"/>
      <psa03 value="0.0201518062" flag="0"/>
      <psa10 value="0.0068136276" flag="0"/>
      <psa30 value="0.0008786069" flag="0"/>
    </comp>
    <comp name="--.HHZ">
      <acc value="0.0050883230" flag="0"/>
      <vel value="0.0031999740" flag="0"/>
      <psa03 value="0.0163946561" flag="0"/>
      <psa10 value="0.0037264667" flag="0"/>
      <psa30 value="0.0006621024" flag="0"/>
    </comp>
  </station>
</stationlist>
