<?xml version="1.0" encoding="UTF-8" standalone="yes"?>
<!DOCTYPE earthquake SYSTEM "stationlist.dtd">
<stationlist created="" xmlns="ch.ethz.sed.shakemap.usgs.xml">
  <station code="GVD" name="GVD" netid="GE" insttype="STS-2/N" lat="34.8391" lon="24.0874">
    <comp name="--.HHE">
      <acc value="1.0666058178" flag="0"/>
      <vel value="0.2868215315" flag="0"/>
      <psa03 value="1.5410518055" flag="0"/>
      <psa10 value="0.1448464860" flag="0"/>
      <psa30 value="0.0107876623" flag="0"/>
    </comp>
    <comp name="--.HHN">
      <acc value="1.1162544295" flag="0"/>
      <vel value="0.3357265190" flag="0"/>
      <psa03 value="1.6973809910" flag="0"/>
      <psa10 value="0.1283387977" flag="0"/>
      <psa30 value="0.0118717701" flag="0"/>
    </comp>
    <comp name="--.HHZ">
      <acc value="0.6634575503" flag="0"/>
      <vel value="0.1804206412" flag="0"/>
      <psa03 value="0.5804412738" flag="0"/>
      <psa10 value="0.0303802524" flag="0"/>
      <psa30 value="0.0025669366" flag="0"/>
    </comp>
  </station>
  <station code="IMMV" name="IMMV" netid="GE" insttype="STS-2/N" lat="35.4606" lon="23.9811">
    <comp name="--.HHE">
      <acc value="0.0815827371" flag="0"/>
      <vel value="0.0360172294" flag="0"/>
      <psa03 value="0.3478443695" flag="0"/>
      <psa10 value="0.0192513192" flag="0"/>
      <psa30 value="0.0014338787" flag="0"/>
    </comp>
    <comp name="--.HHN">
      <acc value="0.0808261424" flag="0"/>
      <vel value="0.0283859438" flag="0"/>
      <psa03 value="0.1867089370" flag="0"/>
      <psa10 value="0.0174453326" flag="0"/>
      <psa30 value="0.0009940642" flag="0"/>
    </comp>
    <comp name="--.HHZ">
      <acc value="0.0591138713" flag="0"/>
      <vel value="0.0202123014" flag="0"/>
      <psa03 value="0.1188013568" flag="0"/>
      <psa10 value="0.0136747581" flag="0"/>
      <psa30 value="0.0007374546" flag="0"/>
    </comp>
  </station>
  <station code="CHAN" name="CHAN" netid="HC" insttype="120" lat="35.5193" lon="24.0428">
    <comp name="--.HHN">
      <acc value="0.0362768469" flag="0"/>
      <vel value="0.0242962756" flag="0"/>
      <psa03 value="0.1090201578" flag="0"/>
      <psa10 value="0.0360706819" flag="0"/>
      <psa30 value="0.0029090822" flag="0"/>
    </comp>
    <comp name="--.HHZ">
      <acc value="0.0288335236" flag="0"/>
      <vel value="0.0151826798" flag="0"/>
      <psa03 value="0.1095529197" flag="0"/>
      <psa10 value="0.0308302598" flag="0"/>
      <psa30 value="0.0013287576" flag="0"/>
    </comp>
    <comp name="--.HHE">
      <acc value="0.0516354624" flag="0"/>
      <vel value="0.0298538774" flag="0"/>
      <psa03 value="0.1725896000" flag="0"/>
      <psa10 value="0.0436287656" flag="0"/>
      <psa30 value="0.0034208080" flag="0"/>
    </comp>
  </station>
  <station code="GVDS" name="GVDS" netid="HC" insttype="60" lat="34.8389" lon="24.0585">
    <comp name="--.HHN">
      <acc value="1.7560775264" flag="0"/>
      <vel value="0.5582844342" flag="0"/>
      <psa03 value="2.3499721732" flag="0"/>
      <psa10 value="0.1570944943" flag="0"/>
      <psa30 value="0.0156648463" flag="0"/>
    </comp>
    <comp name="--.HHE">
      <acc value="1.7029623434" flag="0"/>
      <vel value="0.5371180638" flag="0"/>
      <psa03 value="1.5746843999" flag="0"/>
      <psa10 value="0.1424552871" flag="0"/>
      <psa30 value="0.0151265553" flag="0"/>
    </comp>
    <comp name="--.HHZ">
      <acc value="1.0010224142" flag="0"/>
      <vel value="0.2059520148" flag="0"/>
      <psa03 value="0.6385758293" flag="0"/>
      <psa10 value="0.0342211000" flag="0"/>
      <psa30 value="0.0027172281" flag="0"/>
    </comp>
  </station>
  <station code="IMOD" name="IMOD" netid="HC" insttype="120" lat="34.9731" lon="24.7995">
    <comp name="--.HHE">
      <acc value="0.0248432091" flag="0"/>
      <vel value="0.0198727284" flag="0"/>
      <psa03 value="0.0721321904" flag="0"/>
      <psa10 value="0.0185397966" flag="0"/>
      <psa30 value="0.0011626863" flag="0"/>
    </comp>
    <comp name="--.HHN">
      <acc value="0.0317938227" flag="0"/>
      <vel value="0.0206012651" flag="0"/>
      <psa03 value="0.1023929671" flag="0"/>
      <psa10 value="0.0267333653" flag="0"/>
      <psa30 value="0.0018187280" flag="0"/>
    </comp>
    <comp name="--.HHZ">
      <acc value="0.0189698832" flag="0"/>
      <vel value="0.0091545451" flag="0"/>
      <psa03 value="0.0487633822" flag="0"/>
      <psa10 value="0.0085637689" flag="0"/>
      <psa30 value="0.0006412563" flag="0"/>
    </comp>
  </station>
  <station code="IPPL" name="IPPL" netid="HC" insttype="60" lat="35.3486" lon="24.4632">
    <comp name="--.HHE">
      <acc value="0.0000000000" flag="0"/>
      <vel value="-100.0000000000" flag="0"/>
      <psa03 value="0.0000000000" flag="0"/>
      <psa10 value="0.0000000000" flag="0"/>
      <psa30 value="0.0000000000" flag="0"/>
    </comp>
    <comp name="--.HHN">
      <acc value="0.0000000000" flag="0"/>
      <vel value="-100.0000000000" flag="0"/>
      <psa03 value="0.0000000000" flag="0"/>
      <psa10 value="0.0000000000" flag="0"/>
      <psa30 value="0.0000000000" flag="0"/>
    </comp>
    <comp name="--.HHZ">
      <acc value="0.0182340392" flag="0"/>
      <vel value="0.0084516099" flag="0"/>
      <psa03 value="0.0601850206" flag="0"/>
      <psa10 value="0.0140440022" flag="0"/>
      <psa30 value="0.0010160579" flag="0"/>
    </comp>
  </station>
  <station code="KNDR" name="KNDR" netid="HC" insttype="120" lat="35.2348" lon="23.6248">
    <comp name="--.HHE">
      <acc value="0.0542189978" flag="0"/>
      <vel value="0.0220039607" flag="0"/>
      <psa03 value="0.0904814457" flag="0"/>
      <psa10 value="0.0231978867" flag="0"/>
      <psa30 value="0.0011673197" flag="0"/>
    </comp>
    <comp name="--.HHN">
      <acc value="0.0464515533" flag="0"/>
      <vel value="0.0185886720" flag="0"/>
      <psa03 value="0.1325587057" flag="0"/>
      <psa10 value="0.0217003099" flag="0"/>
      <psa30 value="0.0012727826" flag="0"/>
    </comp>
    <comp name="--.HHZ">
      <acc value="0.0547409013" flag="0"/>
      <vel value="0.0113781451" flag="0"/>
      <psa03 value="0.0843306555" flag="0"/>
      <psa10 value="0.0107730871" flag="0"/>
      <psa30 value="0.0007920371" flag="0"/>
    </comp>
  </station>
  <station code="RODP" name="RODP" netid="HC" insttype="120" lat="35.5604" lon="23.7577">
    <comp name="--.HHE">
      <acc value="0.0194122390" flag="0"/>
      <vel value="0.0093593083" flag="0"/>
      <psa03 value="0.0468593539" flag="0"/>
      <psa10 value="0.0080107497" flag="0"/>
      <psa30 value="0.0007782126" flag="0"/>
    </comp>
    <comp name="--.HHN">
      <acc value="0.0163529634" flag="0"/>
      <vel value="0.0089083179" flag="0"/>
      <psa03 value="0.0445926036" flag="0"/>
      <psa10 value="0.0085576795" flag="0"/>
      <psa30 value="0.0007375495" flag="0"/>
    </comp>
    <comp name="--.HHZ">
      <acc value="0.0090139579" flag="0"/>
      <vel value="0.0056107146" flag="0"/>
      <psa03 value="0.0350642800" flag="0"/>
      <psa10 value="0.0032034044" flag="0"/>
      <psa30 value="0.0006471400" flag="0"/>
    </comp>
  </station>
  <station code="CH01" name="CH01" netid="HI" insttype="CMG-5TD,ACCELEROMETER,GURALP" lat="35.517" lon="24.0208">
    <comp name="--.HNZ">
      <acc value="0.0177865529" flag="0"/>
      <vel value="0.0109386802" flag="0"/>
      <psa03 value="0.0360012265" flag="0"/>
      <psa10 value="0.0131772722" flag="0"/>
      <psa30 value="0.0009081722" flag="0"/>
    </comp>
    <comp name="--.HNE">
      <acc value="0.0247345847" flag="0"/>
      <vel value="0.0184702233" flag="0"/>
      <psa03 value="0.0668544155" flag="0"/>
      <psa10 value="0.0251498390" flag="0"/>
      <psa30 value="0.0030350822" flag="0"/>
    </comp>
    <comp name="--.HNN">
      <acc value="0.0396272271" flag="0"/>
      <vel value="0.0185177170" flag="0"/>
      <psa03 value="0.1189226132" flag="0"/>
      <psa10 value="0.0221964968" flag="0"/>
      <psa30 value="0.0023895375" flag="0"/>
    </comp>
  </station>
  <station code="GVD" name="GVD" netid="HL" insttype="120" lat="34.8391" lon="24.0874">
    <comp name="--.HHE">
      <acc value="1.0281899357" flag="0"/>
      <vel value="0.2822199545" flag="0"/>
      <psa03 value="1.4979732128" flag="0"/>
      <psa10 value="0.1423325789" flag="0"/>
      <psa30 value="0.0106049942" flag="0"/>
    </comp>
    <comp name="--.HHZ">
      <acc value="0.6409250128" flag="0"/>
      <vel value="0.1756093360" flag="0"/>
      <psa03 value="0.5633390485" flag="0"/>
      <psa10 value="0.0296312604" flag="0"/>
      <psa30 value="0.0025090558" flag="0"/>
    </comp>
    <comp name="--.HHN">
      <acc value="1.1026883578" flag="0"/>
      <vel value="0.3314921398" flag="0"/>
      <psa03 value="1.6517989095" flag="0"/>
      <psa10 value="0.1263790955" flag="0"/>
      <psa30 value="0.0116373787" flag="0"/>
    </comp>
  </station>
  <station code="IDI" name="IDI" netid="HL" insttype="120" lat="35.288" lon="24.89">
    <comp name="--.HHE">
      <acc value="0.0067594269" flag="0"/>
      <vel value="0.0038620104" flag="0"/>
      <psa03 value="0.0186062051" flag="0"/>
      <psa10 value="0.0043835790" flag="0"/>
      <psa30 value="0.0004934917" flag="0"/>
    </comp>
    <comp name="--.HHN">
      <acc value="0.0068008309" flag="0"/>
      <vel value="0.0054349758" flag="0"/>
      <psa03 value="0.0199939326" flag="0"/>
      <psa10 value="0.0068594606" flag="0"/>
      <psa30 value="0.0008888902" flag="0"/>
    </comp>
    <comp name="--.HHZ">
      <acc value="0.0048753398" flag="0"/>
      <vel value="0.0032205975" flag="0"/>
      <psa03 value="0.0162166978" flag="0"/>
      <psa10 value="0.0037511158" flag="0"/>
      <psa30 value="0.0006699282" flag="0"/>
    </comp>
  </station>
  <station code="IMMV" name="IMMV" netid="HL" insttype="120" lat="35.4606" lon="23.9811">
    <comp name="--.HHE">
      <acc value="0.0796932617" flag="0"/>
      <vel value="0.0348810082" flag="0"/>
      <psa03 value="0.3377311276" flag="0"/>
      <psa10 value="0.0190952060" flag="0"/>
      <psa30 value="0.0014293982" flag="0"/>
    </comp>
    <comp name="--.HHZ">
      <acc value="0.0574663863" flag="0"/>
      <vel value="0.0196773148" flag="0"/>
      <psa03 value="0.1155386280" flag="0"/>
      <psa10 value="0.0135792798" flag="0"/>
      <psa30 value="0.0007353486" flag="0"/>
    </comp>
    <comp name="--.HHN">
      <acc value="0.0782437351" flag="0"/>
      <vel value="0.0276233742" flag="0"/>
      <psa03 value="0.1811376816" flag="0"/>
      <psa10 value="0.0173007019" flag="0"/>
      <psa30 value="0.0009888754" flag="0"/>
    </comp>
  </station>
  <station code="SIVA" name="SIVA" netid="HL" insttype="60" lat="35.0178" lon="24.812">
    <comp name="--.HHN">
      <acc value="0.0346871908" flag="0"/>
      <vel value="0.0160927074" flag="0"/>
      <psa03 value="0.0794631422" flag="0"/>
      <psa10 value="0.0230739729" flag="0"/>
      <psa30 value="0.0010898823" flag="0"/>
    </comp>
    <comp name="--.HHE">
      <acc value="0.0306867928" flag="0"/>
      <vel value="0.0224748357" flag="0"/>
      <psa03 value="0.1255511385" flag="0"/>
      <psa10 value="0.0259818530" flag="0"/>
      <psa30 value="0.0016694616" flag="0"/>
    </comp>
    <comp name="--.HHZ">
      <acc value="0.0173790249" flag="0"/>
      <vel value="0.0095396120" flag="0"/>
      <psa03 value="0.0595698959" flag="0"/>
      <psa10 value="0.0098297625" flag="0"/>
      <psa30 value="0.0006721836" flag="0"/>
    </comp>
  </station>
  <station code="VAM" name="VAM" netid="HL" insttype="CMG3ESPC-120s" lat="35.407" lon="24.1997">
    <comp name="--.HHZ">
      <acc value="0.0325809608" flag="0"/>
      <vel value="0.0143057548" flag="0"/>
      <psa03 value="0.1166222637" flag="0"/>
      <psa10 value="0.0182180108" flag="0"/>
      <psa30 value="0.0007737733" flag="0"/>
    </comp>
    <comp name="--.HHE">
      <acc value="0.0789427077" flag="0"/>
      <vel value="0.0537130280" flag="0"/>
      <psa03 value="0.2195573344" flag="0"/>
      <psa10 value="0.0321865474" flag="0"/>
      <psa30 value="0.0027185534" flag="0"/>
    </comp>
    <comp name="--.HHN">
      <acc value="0.0661161615" flag="0"/>
      <vel value="0.0409222747" flag="0"/>
      <psa03 value="0.2318266539" flag="0"/>
      <psa10 value="0.0324983479" flag="0"/>
      <psa30 value="0.0013004821" flag="0"/>
    </comp>
  </station>
  <station code="IDI" name="IDI" netid="MN" insttype="" lat="35.288" lon="24.89">
    <comp name="--.HHE">
      <acc value="0.0069684098" flag="0"/>
      <vel value="0.0038725257" flag="0"/>
      <psa03 value="0.0189159532" flag="0"/>
      <psa10 value="0.0043550201" flag="0"/>
      <psa30 value="0.0004884421" flag="0"/>
    </comp>
    <comp name="--.HHZ">
      <acc value="0.0050883230" flag="0"/>
      <vel value="0.0031999740" flag="0"/>
      <psa03 value="0.0163946561" flag="0"/>
      <psa10 value="0.0037264667" flag="0"/>
      <psa30 value="0.0006621015" flag="0"/>
    </comp>
    <comp name="--.HHN">
      <acc value="0.0068974126" flag="0"/>
      <vel value="0.0054283564" flag="0"/>
      <psa03 value="0.0201518062" flag="0"/>
      <psa10 value="0.0068136276" flag="0"/>
      <psa30 value="0.0008786071" flag="0"/>
    </comp>
  </station>
</stationlist>
