<?xml version="1.0" encoding="UTF-8" standalone="yes"?>
<!DOCTYPE earthquake SYSTEM "stationlist.dtd">
<stationlist created="" xmlns="ch.ethz.sed.shakemap.usgs.xml">
  <station code="AGRP" name="AGRP" netid="CL" insttype="CMG40-T" lat="38.3959" lon="21.7228">
    <comp name="00.HHE">
      <acc value="0.0140537126" flag="0"/>
      <vel value="0.0052600883" flag="0"/>
      <psa03 value="0.0196056740" flag="0"/>
      <psa10 value="0.0071550840" flag="0"/>
      <psa30 value="0.0006240964" flag="0"/>
    </comp>
    <comp name="00.HHZ">
      <acc value="0.0063968151" flag="0"/>
      <vel value="0.0034018596" flag="0"/>
      <psa03 value="0.0149576881" flag="0"/>
      <psa10 value="0.0043195406" flag="0"/>
      <psa30 value="0.0008276669" flag="0"/>
    </comp>
    <comp name="00.HHN">
      <acc value="0.0075757888" flag="0"/>
      <vel value="0.0050242756" flag="0"/>
      <psa03 value="0.0168211229" flag="0"/>
      <psa10 value="0.0055291214" flag="0"/>
      <psa30 value="0.0009648683" flag="0"/>
    </comp>
  </station>
  <station code="KLV" name="KLV" netid="MN" insttype="" lat="38.0437" lon="22.1504">
    <comp name="--.HHN">
      <acc value="0.0194513395" flag="0"/>
      <vel value="0.0146100468" flag="0"/>
      <psa03 value="0.0264875216" flag="0"/>
      <psa10 value="0.0117548060" flag="0"/>
      <psa30 value="0.0011752538" flag="0"/>
    </comp>
    <comp name="--.HHE">
      <acc value="0.0194918336" flag="0"/>
      <vel value="0.0133128592" flag="0"/>
      <psa03 value="0.0238060738" flag="0"/>
      <psa10 value="0.0223373934" flag="0"/>
      <psa30 value="0.0012565359" flag="0"/>
    </comp>
    <comp name="--.HHZ">
      <acc value="0.0094117130" flag="0"/>
      <vel value="0.0104655680" flag="0"/>
      <psa03 value="0.0195167064" flag="0"/>
      <psa10 value="0.0165689690" flag="0"/>
      <psa30 value="0.0005665527" flag="0"/>
    </comp>
  </station>
</stationlist>
