<?xml version="1.0" encoding="UTF-8" standalone="yes"?>
<!DOCTYPE earthquake SYSTEM "stationlist.dtd">
<stationlist created="" xmlns="ch.ethz.sed.shakemap.usgs.xml">
  <station code="KLV" name="KLV" netid="MN" insttype="" lat="38.0437" lon="22.1504">
    <comp name="--.HHZ">
      <acc value="0.0094117129" flag="0"/>
      <vel value="0.0104655680" flag="0"/>
      <psa03 value="0.0195167064" flag="0"/>
      <psa10 value="0.0165689690" flag="0"/>
      <psa30 value="0.0005665530" flag="0"/>
    </comp>
    <comp name="--.HHE">
      <acc value="0.0194918336" flag="0"/>
      <vel value="0.0133128593" flag="0"/>
      <psa03 value="0.0238060738" flag="0"/>
      <psa10 value="0.0223373934" flag="0"/>
      <psa30 value="0.0012565432" flag="0"/>
    </comp>
    <comp name="--.HHN">
      <acc value="0.0194513395" flag="0"/>
      <vel value="0.0146100469" flag="0"/>
      <psa03 value="0.0264875216" flag="0"/>
      <psa10 value="0.0117548060" flag="0"/>
      <psa30 value="0.0011752547" flag="0"/>
    </comp>
  </station>
</stationlist>
