<?xml version="1.0" encoding="UTF-8" standalone="yes"?>
<!DOCTYPE earthquake SYSTEM "stationlist.dtd">
<stationlist created="" xmlns="ch.ethz.sed.shakemap.usgs.xml">
  <station code="KRBN" name="KRBN" netid="KO" insttype="100" lat="38.5936" lon="26.5537">
    <comp name="--.HNE">
      <acc value="0.0497638952" flag="0"/>
      <vel value="0.0338095124" flag="0"/>
      <psa03 value="0.0872201634" flag="0"/>
      <psa10 value="0.0569927371" flag="0"/>
      <psa30 value="0.0065192703" flag="0"/>
    </comp>
    <comp name="--.HNZ">
      <acc value="0.0365680268" flag="0"/>
      <vel value="0.0189494376" flag="0"/>
      <psa03 value="0.0501845305" flag="0"/>
      <psa10 value="0.0305378636" flag="0"/>
      <psa30 value="0.0040422226" flag="0"/>
    </comp>
  </station>
</stationlist>
