<stationlist created="1641587242">
	<station code="ASTA" name="ASTA" netid="HL" source="National Observatory of Athens Seismic Network" insttype="" lat="36.54543" lon="26.3528">
		<comp name="00.HNE" depth="0.0">
			<acc value="0.009459276" flag="0"/>
			<vel value="0.019188" flag="0"/>
			<psa03 value="0.0231764630283" flag="0"/>
			<psa10 value="0.0074858185893" flag="0"/>
			<psa30 value="0.00512700945639" flag="0"/>
		</comp>
		<comp name="00.HNN" depth="0.0">
			<acc value="0.013352922" flag="0"/>
			<vel value="0.033612" flag="0"/>
			<psa03 value="0.0344514990961" flag="0"/>
			<psa10 value="0.006104626671" flag="0"/>
			<psa30 value="0.00617755646778" flag="0"/>
		</comp>
		<comp name="00.HNZ" depth="0.0">
			<acc value="0.01322991" flag="0"/>
			<vel value="0.024315" flag="0"/>
			<psa03 value="0.0303352160872" flag="0"/>
			<psa10 value="0.00700260275783" flag="0"/>
			<psa30 value="0.00622945742746" flag="0"/>
		</comp>
	</station>
	<station code="PRK" name="PRK" netid="HL" source="National Observatory of Athens Seismic Network" insttype="" lat="39.24565" lon="26.26499">
		<comp name=".HNE" depth="0.0">
			<acc value="0.019841346" flag="0"/>
			<vel value="0.037317" flag="0"/>
			<psa03 value="0.0392836574108" flag="0"/>
			<psa10 value="0.042374001622" flag="0"/>
			<psa30 value="0.00883613838504" flag="0"/>
		</comp>
		<comp name=".HNN" depth="0.0">
			<acc value="0.021028626" flag="0"/>
			<vel value="0.043848" flag="0"/>
			<psa03 value="0.0511403421647" flag="0"/>
			<psa10 value="0.0236091201663" flag="0"/>
			<psa30 value="0.0104240392979" flag="0"/>
		</comp>
		<comp name=".HNZ" depth="0.0">
			<acc value="0.009789348" flag="0"/>
			<vel value="0.023849" flag="0"/>
			<psa03 value="0.0241160493672" flag="0"/>
			<psa10 value="0.0135018556912" flag="0"/>
			<psa30 value="0.00553282127042" flag="0"/>
		</comp>
	</station>
	<station code="RODB" name="RODB" netid="HL" source="National Observatory of Athens Seismic Network" insttype="" lat="36.4471" lon="28.22116">
		<comp name="00.HNE" depth="0.0">
			<acc value="0.018511368" flag="0"/>
			<vel value="0.11042" flag="0"/>
			<psa03 value="0.0207603838709" flag="0"/>
			<psa10 value="0.0182252904439" flag="0"/>
			<psa30 value="0.0365360385024" flag="0"/>
		</comp>
		<comp name="00.HNN" depth="0.0">
			<acc value="0.01509804" flag="0"/>
			<vel value="0.092012" flag="0"/>
			<psa03 value="0.0185680157466" flag="0"/>
			<psa10 value="0.0201017785895" flag="0"/>
			<psa30 value="0.0391811977577" flag="0"/>
		</comp>
		<comp name="00.HNZ" depth="0.0">
			<acc value="0.007446" flag="0"/>
			<vel value="0.034933" flag="0"/>
			<psa03 value="0.00984328545602" flag="0"/>
			<psa10 value="0.00681334322383" flag="0"/>
			<psa30 value="0.0106830966742" flag="0"/>
		</comp>
	</station>
	<station code="THRA" name="THRA" netid="HL" source="National Observatory of Athens Seismic Network" insttype="" lat="36.41502" lon="25.43244">
		<comp name="00.HNE" depth="0.0">
			<acc value="0.035959794" flag="0"/>
			<vel value="0.082533" flag="0"/>
			<psa03 value="0.104115114801" flag="0"/>
			<psa10 value="0.0263553968085" flag="0"/>
			<psa30 value="0.0362385028284" flag="0"/>
		</comp>
		<comp name="00.HNN" depth="0.0">
			<acc value="0.0259845" flag="0"/>
			<vel value="0.043171" flag="0"/>
			<psa03 value="0.124204365572" flag="0"/>
			<psa10 value="0.0243379707121" flag="0"/>
			<psa30 value="0.0261840341571" flag="0"/>
		</comp>
		<comp name="00.HNZ" depth="0.0">
			<acc value="0.020398674" flag="0"/>
			<vel value="0.029164" flag="0"/>
			<psa03 value="0.0744957740194" flag="0"/>
			<psa10 value="0.00982538857337" flag="0"/>
			<psa30 value="0.00858245007352" flag="0"/>
		</comp>
	</station>
	<station code="TNSA" name="TNSA" netid="HL" source="National Observatory of Athens Seismic Network" insttype="" lat="37.53942" lon="25.1631">
		<comp name="00.HNE" depth="0.0">
			<acc value="0.014377818" flag="0"/>
			<vel value="0.025787" flag="0"/>
			<psa03 value="0.0235791428878" flag="0"/>
			<psa10 value="0.00542007090974" flag="0"/>
			<psa30 value="0.00497309626562" flag="0"/>
		</comp>
		<comp name="00.HNN" depth="0.0">
			<acc value="0.018381114" flag="0"/>
			<vel value="0.022305" flag="0"/>
			<psa03 value="0.0310510913931" flag="0"/>
			<psa10 value="0.00346304679225" flag="0"/>
			<psa30 value="0.00677352265994" flag="0"/>
		</comp>
		<comp name="00.HNZ" depth="0.0">
			<acc value="0.013203084" flag="0"/>
			<vel value="0.031142" flag="0"/>
			<psa03 value="0.0301562472607" flag="0"/>
			<psa10 value="0.00464692557937" flag="0"/>
			<psa30 value="0.00770595024586" flag="0"/>
		</comp>
	</station>
	<station code="EZNE" name="EZNE" netid="KO" source="Bogazici University Kandilli Observatory And Earthquake Research Institute (KOERI)" insttype="" lat="39.756" lon="26.3655">
		<comp name=".HNE" depth="0.0">
			<acc value="0.022268742" flag="0"/>
			<vel value="0.092847" flag="0"/>
			<psa03 value="0.0570463134383" flag="0"/>
			<psa10 value="0.0281392685864" flag="0"/>
			<psa30 value="0.0239540825793" flag="0"/>
		</comp>
		<comp name=".HNN" depth="0.0">
			<acc value="0.028396086" flag="0"/>
			<vel value="0.094609" flag="0"/>
			<psa03 value="0.0839811218225" flag="0"/>
			<psa10 value="0.0310063491865" flag="0"/>
			<psa30 value="0.023458786352" flag="0"/>
		</comp>
		<comp name=".HNZ" depth="0.0">
			<acc value="0.015892722" flag="0"/>
			<vel value="0.063026" flag="0"/>
			<psa03 value="0.0323933575916" flag="0"/>
			<psa10 value="0.0131233366232" flag="0"/>
			<psa30 value="0.0181460967382" flag="0"/>
		</comp>
	</station>
	<station code="FOCM" name="FOCM" netid="KO" source="Bogazici University Kandilli Observatory And Earthquake Research Institute (KOERI)" insttype="" lat="38.7131" lon="26.7309">
		<comp name=".HNE" depth="0.0">
			<acc value="0.03730956" flag="0"/>
			<vel value="0.040688" flag="0"/>
			<psa03 value="0.104025630387" flag="0"/>
			<psa10 value="0.0172024836006" flag="0"/>
			<psa30 value="0.00751848040013" flag="0"/>
		</comp>
		<comp name=".HNN" depth="0.0">
			<acc value="0.050034774" flag="0"/>
			<vel value="0.044692" flag="0"/>
			<psa03 value="0.0656815593156" flag="0"/>
			<psa10 value="0.0202427165403" flag="0"/>
			<psa30 value="0.00944239528472" flag="0"/>
		</comp>
		<comp name=".HNZ" depth="0.0">
			<acc value="0.024888612" flag="0"/>
			<vel value="0.023104" flag="0"/>
			<psa03 value="0.0598203302486" flag="0"/>
			<psa10 value="0.00860929539749" flag="0"/>
			<psa30 value="0.00773234814777" flag="0"/>
		</comp>
	</station>
	<station code="GORD" name="GORD" netid="KO" source="Bogazici University Kandilli Observatory And Earthquake Research Institute (KOERI)" insttype="" lat="38.9088" lon="28.1769">
		<comp name=".HNE" depth="0.0">
			<acc value="0.050297832" flag="0"/>
			<vel value="0.129501" flag="0"/>
			<psa03 value="0.142190732633" flag="0"/>
			<psa10 value="0.0911667202054" flag="0"/>
			<psa30 value="0.0286448555211" flag="0"/>
		</comp>
		<comp name=".HNN" depth="0.0">
			<acc value="0.034480488" flag="0"/>
			<vel value="0.139528" flag="0"/>
			<psa03 value="0.0903345151623" flag="0"/>
			<psa10 value="0.0497108286632" flag="0"/>
			<psa30 value="0.0363244078651" flag="0"/>
		</comp>
		<comp name=".HNZ" depth="0.0">
			<acc value="0.0480471" flag="0"/>
			<vel value="0.131382" flag="0"/>
			<psa03 value="0.0876499827652" flag="0"/>
			<psa10 value="0.0570597361003" flag="0"/>
			<psa30 value="0.0189975409301" flag="0"/>
		</comp>
	</station>
	<station code="NAZL" name="NAZL" netid="KO" source="Bogazici University Kandilli Observatory And Earthquake Research Institute (KOERI)" insttype="" lat="37.9641" lon="28.2922">
		<comp name=".HNE" depth="0.0">
			<acc value="0.16130076" flag="0"/>
			<vel value="0.121074" flag="0"/>
			<psa03 value="0.577666629649" flag="0"/>
			<psa10 value="0.0960834412907" flag="0"/>
			<psa30 value="0.0259858261818" flag="0"/>
		</comp>
		<comp name=".HNN" depth="0.0">
			<acc value="0.127009686" flag="0"/>
			<vel value="0.094253" flag="0"/>
			<psa03 value="0.346259937019" flag="0"/>
			<psa10 value="0.0423417872332" flag="0"/>
			<psa30 value="0.0275831229581" flag="0"/>
		</comp>
		<comp name=".HNZ" depth="0.0">
			<acc value="0.072591258" flag="0"/>
			<vel value="0.11323" flag="0"/>
			<psa03 value="0.122325192894" flag="0"/>
			<psa10 value="0.0258480201854" flag="0"/>
			<psa30 value="0.0224628248327" flag="0"/>
		</comp>
	</station>
	<station code="SOMA" name="SOMA" netid="KO" source="Bogazici University Kandilli Observatory And Earthquake Research Institute (KOERI)" insttype="" lat="39.1564" lon="27.5341">
		<comp name=".HNE" depth="0.0">
			<acc value="0.126196644" flag="0"/>
			<vel value="0.172829" flag="0"/>
			<psa03 value="0.379816591983" flag="0"/>
			<psa10 value="0.0472705887143" flag="0"/>
			<psa30 value="0.0399556853542" flag="0"/>
		</comp>
		<comp name=".HNN" depth="0.0">
			<acc value="0.14823813" flag="0"/>
			<vel value="0.154229" flag="0"/>
			<psa03 value="0.413820669012" flag="0"/>
			<psa10 value="0.0553362663013" flag="0"/>
			<psa30 value="0.0325490604707" flag="0"/>
		</comp>
		<comp name=".HNZ" depth="0.0">
			<acc value="0.0992715" flag="0"/>
			<vel value="0.115766" flag="0"/>
			<psa03 value="0.234717615919" flag="0"/>
			<psa10 value="0.0240279072202" flag="0"/>
			<psa30 value="0.0276063889055" flag="0"/>
		</comp>
	</station>
</stationlist>
