<?xml version="1.0" encoding="UTF-8" standalone="yes"?>
<!DOCTYPE earthquake SYSTEM "stationlist.dtd">
<stationlist created="" xmlns="ch.ethz.sed.shakemap.usgs.xml">
  <station code="URFA" name="URFA" netid="KO" insttype="CMG-3ESP" lat="37.4409" lon="38.8213">
    <comp name="--.HHN">
      <acc value="0.0810326148" flag="0"/>
      <vel value="0.0145158387" flag="0"/>
      <psa03 value="0.0466416036" flag="0"/>
      <psa10 value="0.0080455998" flag="0"/>
      <psa30 value="0.0009729414" flag="0"/>
    </comp>
    <comp name="--.HHZ">
      <acc value="0.0777645711" flag="0"/>
      <vel value="0.0096298341" flag="0"/>
      <psa03 value="0.0429280666" flag="0"/>
      <psa10 value="0.0067591603" flag="0"/>
      <psa30 value="0.0008992119" flag="0"/>
    </comp>
  </station>
</stationlist>
