<?xml version="1.0" encoding="UTF-8" standalone="yes"?>
<!DOCTYPE earthquake SYSTEM "stationlist.dtd">
<stationlist created="" xmlns="ch.ethz.sed.shakemap.usgs.xml">
  <station code="MYT1" name="MYT1" netid="HI" insttype="CMG-5TD,ACCELEROMETER,GURALP" lat="39.085" lon="26.5694">
    <comp name="--.HNE">
      <acc value="0.0155552383" flag="0"/>
      <vel value="0.0051821087" flag="0"/>
      <psa03 value="0.0270712965" flag="0"/>
      <psa10 value="0.0037071086" flag="0"/>
      <psa30 value="0.0005273801" flag="0"/>
    </comp>
    <comp name="--.HNN">
      <acc value="0.0176224093" flag="0"/>
      <vel value="0.0051614799" flag="0"/>
      <psa03 value="0.0221239675" flag="0"/>
      <psa10 value="0.0036421066" flag="0"/>
      <psa30 value="0.0003198758" flag="0"/>
    </comp>
    <comp name="--.HNZ">
      <acc value="0.0099110292" flag="0"/>
      <vel value="0.0036190369" flag="0"/>
      <psa03 value="0.0203207718" flag="0"/>
      <psa10 value="0.0041658369" flag="0"/>
      <psa30 value="0.0003029751" flag="0"/>
    </comp>
  </station>
  <station code="PRK" name="PRK" netid="HL" insttype="120" lat="39.2456" lon="26.265">
    <comp name="--.HHE">
      <acc value="0.0222810859" flag="0"/>
      <vel value="0.0101374867" flag="0"/>
      <psa03 value="0.0488245630" flag="0"/>
      <psa10 value="0.0145102578" flag="0"/>
      <psa30 value="0.0012320670" flag="0"/>
    </comp>
    <comp name="--.HHZ">
      <acc value="0.0143980076" flag="0"/>
      <vel value="0.0055396802" flag="0"/>
      <psa03 value="0.0365921887" flag="0"/>
      <psa10 value="0.0045489230" flag="0"/>
      <psa30 value="0.0006600488" flag="0"/>
    </comp>
    <comp name="--.HHN">
      <acc value="0.0169822585" flag="0"/>
      <vel value="0.0104485659" flag="0"/>
      <psa03 value="0.0347858494" flag="0"/>
      <psa10 value="0.0094660794" flag="0"/>
      <psa30 value="0.0011719763" flag="0"/>
    </comp>
  </station>
  <station code="CHOS" name="CHOS" netid="HT" insttype="100" lat="38.3869" lon="26.0506">
    <comp name="--.HHZ">
      <acc value="0.0058611972" flag="0"/>
      <vel value="0.0018988015" flag="0"/>
      <psa03 value="0.0086700605" flag="0"/>
      <psa10 value="0.0012812995" flag="0"/>
      <psa30 value="0.0002824810" flag="0"/>
    </comp>
    <comp name="--.HHN">
      <acc value="0.0088105299" flag="0"/>
      <vel value="0.0031300080" flag="0"/>
      <psa03 value="0.0142976243" flag="0"/>
      <psa10 value="0.0026727209" flag="0"/>
      <psa30 value="0.0005458665" flag="0"/>
    </comp>
    <comp name="--.HHE">
      <acc value="0.0153692828" flag="0"/>
      <vel value="0.0063043278" flag="0"/>
      <psa03 value="0.0259611347" flag="0"/>
      <psa10 value="0.0032175663" flag="0"/>
      <psa30 value="0.0002890113" flag="0"/>
    </comp>
  </station>
  <station code="EZN" name="EZN" netid="KO" insttype="120s," lat="39.8255" lon="26.3247">
    <comp name="--.HHE">
      <acc value="0.0085734359" flag="0"/>
      <vel value="0.0044177031" flag="0"/>
      <psa03 value="0.0104242441" flag="0"/>
      <psa10 value="0.0038711175" flag="0"/>
      <psa30 value="0.0002460836" flag="0"/>
    </comp>
    <comp name="--.HHN">
      <acc value="0.0067339866" flag="0"/>
      <vel value="0.0051949460" flag="0"/>
      <psa03 value="0.0150800891" flag="0"/>
      <psa10 value="0.0051168243" flag="0"/>
      <psa30 value="0.0002927415" flag="0"/>
    </comp>
    <comp name="--.HHZ">
      <acc value="0.0049521184" flag="0"/>
      <vel value="0.0029852087" flag="0"/>
      <psa03 value="0.0102074875" flag="0"/>
      <psa10 value="0.0028299009" flag="0"/>
      <psa30 value="0.0002092978" flag="0"/>
    </comp>
  </station>
</stationlist>
