<?xml version="1.0" encoding="UTF-8" standalone="yes"?>
<!DOCTYPE earthquake SYSTEM "stationlist.dtd">
<stationlist created="" xmlns="ch.ethz.sed.shakemap.usgs.xml">
  <station code="ACOR" name="ACOR" netid="HA" insttype="Horizon,120s,1200" lat="37.8905" lon="22.8694">
    <comp name="--.HHE">
      <acc value="0.0274572118" flag="0"/>
      <vel value="0.0114123901" flag="0"/>
      <psa03 value="0.0637681399" flag="0"/>
      <psa10 value="0.0207297390" flag="0"/>
      <psa30 value="0.0023955649" flag="0"/>
    </comp>
    <comp name="--.HHN">
      <acc value="0.0411805286" flag="0"/>
      <vel value="0.0153639036" flag="0"/>
      <psa03 value="0.0450266482" flag="0"/>
      <psa10 value="0.0275539732" flag="0"/>
      <psa30 value="0.0053498862" flag="0"/>
    </comp>
    <comp name="--.HHZ">
      <acc value="0.0248183604" flag="0"/>
      <vel value="0.0128869875" flag="0"/>
      <psa03 value="0.0468362581" flag="0"/>
      <psa10 value="0.0169026937" flag="0"/>
      <psa30 value="0.0039001080" flag="0"/>
    </comp>
  </station>
  <station code="AMPE" name="AMPE" netid="HA" insttype="1s-100Hz," lat="38.3015" lon="23.2688">
    <comp name="--.HHZ">
      <acc value="0.0429480490" flag="0"/>
      <vel value="0.0181276187" flag="0"/>
      <psa03 value="0.1085270342" flag="0"/>
      <psa10 value="0.0233567662" flag="0"/>
      <psa30 value="0.0013069359" flag="0"/>
    </comp>
    <comp name="--.HHN">
      <acc value="0.0665183868" flag="0"/>
      <vel value="0.0346337311" flag="0"/>
      <psa03 value="0.1280826982" flag="0"/>
      <psa10 value="0.0499666408" flag="0"/>
      <psa30 value="0.0034938764" flag="0"/>
    </comp>
    <comp name="--.HHE">
      <acc value="0.0717741135" flag="0"/>
      <vel value="0.0433450929" flag="0"/>
      <psa03 value="0.1690596390" flag="0"/>
      <psa10 value="0.0732237854" flag="0"/>
      <psa30 value="0.0033826637" flag="0"/>
    </comp>
  </station>
  <station code="ATAL" name="ATAL" netid="HA" insttype="120s," lat="38.6926" lon="23.0213">
    <comp name="--.HHN">
      <acc value="0.0339297556" flag="0"/>
      <vel value="0.0213122152" flag="0"/>
      <psa03 value="0.0951256011" flag="0"/>
      <psa10 value="0.0262210896" flag="0"/>
      <psa30 value="0.0021310771" flag="0"/>
    </comp>
    <comp name="--.HHE">
      <acc value="0.0301525667" flag="0"/>
      <vel value="0.0117148518" flag="0"/>
      <psa03 value="0.0811845496" flag="0"/>
      <psa10 value="0.0181465870" flag="0"/>
      <psa30 value="0.0011073026" flag="0"/>
    </comp>
    <comp name="--.HHZ">
      <acc value="0.0200885081" flag="0"/>
      <vel value="0.0083616161" flag="0"/>
      <psa03 value="0.0389678152" flag="0"/>
      <psa10 value="0.0138458513" flag="0"/>
      <psa30 value="0.0017902855" flag="0"/>
    </comp>
  </station>
  <station code="ATHU" name="ATHU" netid="HA" insttype="60s," lat="37.9665" lon="23.7845">
    <comp name="--.HHE">
      <acc value="0.0131303792" flag="0"/>
      <vel value="0.0062342484" flag="0"/>
      <psa03 value="0.0195836362" flag="0"/>
      <psa10 value="0.0078817114" flag="0"/>
      <psa30 value="0.0008322188" flag="0"/>
    </comp>
    <comp name="--.HHZ">
      <acc value="0.0105450027" flag="0"/>
      <vel value="0.0032945277" flag="0"/>
      <psa03 value="0.0111710673" flag="0"/>
      <psa10 value="0.0032113066" flag="0"/>
      <psa30 value="0.0009069185" flag="0"/>
    </comp>
    <comp name="--.HHN">
      <acc value="0.0176560482" flag="0"/>
      <vel value="0.0069954075" flag="0"/>
      <psa03 value="0.0222378123" flag="0"/>
      <psa10 value="0.0051846544" flag="0"/>
      <psa30 value="0.0006637634" flag="0"/>
    </comp>
  </station>
  <station code="AXAR" name="AXAR" netid="HA" insttype="Horizon,120s,1200" lat="38.7664" lon="22.659">
    <comp name="--.HHE">
      <acc value="0.1149750194" flag="0"/>
      <vel value="0.0603828375" flag="0"/>
      <psa03 value="0.5264858286" flag="0"/>
      <psa10 value="0.0234599532" flag="0"/>
      <psa30 value="0.0048589546" flag="0"/>
    </comp>
    <comp name="--.HHZ">
      <acc value="0.0371580658" flag="0"/>
      <vel value="0.0225300024" flag="0"/>
      <psa03 value="0.1021633615" flag="0"/>
      <psa10 value="0.0222820454" flag="0"/>
      <psa30 value="0.0021270276" flag="0"/>
    </comp>
    <comp name="--.HHN">
      <acc value="0.0739303941" flag="0"/>
      <vel value="0.0369452274" flag="0"/>
      <psa03 value="0.1677815894" flag="0"/>
      <psa10 value="0.0278095689" flag="0"/>
      <psa30 value="0.0025740169" flag="0"/>
    </comp>
  </station>
  <station code="DOMV" name="DOMV" netid="HA" insttype="60" lat="38.2569" lon="22.9795">
    <comp name="--.HHE">
      <acc value="0.6656510471" flag="0"/>
      <vel value="0.1852868632" flag="0"/>
      <psa03 value="1.7268127745" flag="0"/>
      <psa10 value="0.0766960027" flag="0"/>
      <psa30 value="0.0057581963" flag="0"/>
    </comp>
    <comp name="--.HHZ">
      <acc value="0.4115529588" flag="0"/>
      <vel value="0.1049257178" flag="0"/>
      <psa03 value="0.5714148040" flag="0"/>
      <psa10 value="0.0617448151" flag="0"/>
      <psa30 value="0.0045652640" flag="0"/>
    </comp>
    <comp name="--.HHN">
      <acc value="0.4516635087" flag="0"/>
      <vel value="0.1355218822" flag="0"/>
      <psa03 value="0.7978679454" flag="0"/>
      <psa10 value="0.1207455978" flag="0"/>
      <psa30 value="0.0082650985" flag="0"/>
    </comp>
  </station>
  <station code="EPID" name="EPID" netid="HA" insttype="30" lat="37.6144" lon="23.1189">
    <comp name="--.HHN">
      <acc value="0.0329937012" flag="0"/>
      <vel value="0.0112078253" flag="0"/>
      <psa03 value="0.0612562216" flag="0"/>
      <psa10 value="0.0069798915" flag="0"/>
      <psa30 value="0.0019190199" flag="0"/>
    </comp>
    <comp name="--.HHZ">
      <acc value="0.0198933227" flag="0"/>
      <vel value="0.0054567965" flag="0"/>
      <psa03 value="0.0294723165" flag="0"/>
      <psa10 value="0.0043724482" flag="0"/>
      <psa30 value="0.0013647783" flag="0"/>
    </comp>
    <comp name="--.HHE">
      <acc value="0.0255926465" flag="0"/>
      <vel value="0.0083584966" flag="0"/>
      <psa03 value="0.0586458629" flag="0"/>
      <psa10 value="0.0057612481" flag="0"/>
      <psa30 value="0.0006858728" flag="0"/>
    </comp>
  </station>
  <station code="ERTR" name="ERTR" netid="HA" insttype="Horizon,120s,1200" lat="38.4066" lon="23.7865">
    <comp name="--.HHE">
      <acc value="0.0271221940" flag="0"/>
      <vel value="0.0126791631" flag="0"/>
      <psa03 value="0.0413460884" flag="0"/>
      <psa10 value="0.0170255907" flag="0"/>
      <psa30 value="0.0010596748" flag="0"/>
    </comp>
    <comp name="--.HHZ">
      <acc value="0.0139601779" flag="0"/>
      <vel value="0.0094064921" flag="0"/>
      <psa03 value="0.0328125834" flag="0"/>
      <psa10 value="0.0116027296" flag="0"/>
      <psa30 value="0.0009154795" flag="0"/>
    </comp>
    <comp name="--.HHN">
      <acc value="0.0280136834" flag="0"/>
      <vel value="0.0202657336" flag="0"/>
      <psa03 value="0.0474516697" flag="0"/>
      <psa10 value="0.0269214928" flag="0"/>
      <psa30 value="0.0011725608" flag="0"/>
    </comp>
  </station>
  <station code="KALE" name="KALE" netid="HA" insttype="40," lat="38.3911" lon="22.1398">
    <comp name="--.HHZ">
      <acc value="0.0167003196" flag="0"/>
      <vel value="0.0047259307" flag="0"/>
      <psa03 value="0.0212504677" flag="0"/>
      <psa10 value="0.0043807161" flag="0"/>
      <psa30 value="0.0009017590" flag="0"/>
    </comp>
    <comp name="--.HHN">
      <acc value="0.0250241424" flag="0"/>
      <vel value="0.0092532739" flag="0"/>
      <psa03 value="0.0337809988" flag="0"/>
      <psa10 value="0.0099102119" flag="0"/>
      <psa30 value="0.0009597044" flag="0"/>
    </comp>
    <comp name="--.HHE">
      <acc value="0.0190365562" flag="0"/>
      <vel value="0.0085269788" flag="0"/>
      <psa03 value="0.0323457683" flag="0"/>
      <psa10 value="0.0122647911" flag="0"/>
      <psa30 value="0.0012297472" flag="0"/>
    </comp>
  </station>
  <station code="KIAS" name="KIAS" netid="HA" insttype="DC" lat="37.9875" lon="22.7543">
    <comp name="--.HNZ">
      <acc value="0.2854989828" flag="0"/>
      <vel value="0.0611040711" flag="0"/>
      <psa03 value="0.4066306108" flag="0"/>
      <psa10 value="0.0891656869" flag="0"/>
      <psa30 value="0.0061198732" flag="0"/>
    </comp>
    <comp name="--.HNE">
      <acc value="0.9472592478" flag="0"/>
      <vel value="0.2583469804" flag="0"/>
      <psa03 value="0.7579043892" flag="0"/>
      <psa10 value="0.1340791451" flag="0"/>
      <psa30 value="0.0132611636" flag="0"/>
    </comp>
    <comp name="--.HNN">
      <acc value="0.5611646300" flag="0"/>
      <vel value="0.1555950461" flag="0"/>
      <psa03 value="0.7084529604" flag="0"/>
      <psa10 value="0.0915918759" flag="0"/>
      <psa30 value="0.0108888583" flag="0"/>
    </comp>
  </station>
  <station code="LAKA" name="LAKA" netid="HA" insttype="120s," lat="38.2401" lon="21.9785">
    <comp name="--.HHZ">
      <acc value="0.0048922359" flag="0"/>
      <vel value="0.0015741584" flag="0"/>
      <psa03 value="0.0053609700" flag="0"/>
      <psa10 value="0.0015341520" flag="0"/>
      <psa30 value="0.0005637206" flag="0"/>
    </comp>
    <comp name="--.HHE">
      <acc value="0.0052185473" flag="0"/>
      <vel value="0.0020733047" flag="0"/>
      <psa03 value="0.0083786985" flag="0"/>
      <psa10 value="0.0029110995" flag="0"/>
      <psa30 value="0.0005260938" flag="0"/>
    </comp>
    <comp name="--.HHN">
      <acc value="0.0066747838" flag="0"/>
      <vel value="0.0021530875" flag="0"/>
      <psa03 value="0.0067261892" flag="0"/>
      <psa10 value="0.0019021777" flag="0"/>
      <psa30 value="0.0005068890" flag="0"/>
    </comp>
  </station>
  <station code="LOUT" name="LOUT" netid="HA" insttype="30" lat="37.9879" lon="22.9743">
    <comp name="--.HHE">
      <acc value="0.1976559799" flag="0"/>
      <vel value="0.0950572247" flag="0"/>
      <psa03 value="0.5115050649" flag="0"/>
      <psa10 value="0.1106384699" flag="0"/>
      <psa30 value="0.0053413989" flag="0"/>
    </comp>
    <comp name="--.HHZ">
      <acc value="0.1921134113" flag="0"/>
      <vel value="0.0411100823" flag="0"/>
      <psa03 value="0.1755177315" flag="0"/>
      <psa10 value="0.0243956012" flag="0"/>
      <psa30 value="0.0030044914" flag="0"/>
    </comp>
    <comp name="--.HHN">
      <acc value="0.2447664207" flag="0"/>
      <vel value="0.0849052555" flag="0"/>
      <psa03 value="0.3036512606" flag="0"/>
      <psa10 value="0.0605887625" flag="0"/>
      <psa30 value="0.0031843408" flag="0"/>
    </comp>
  </station>
  <station code="MRKA" name="MRKA" netid="HA" insttype="Horizon,120s,1200" lat="38.7047" lon="23.5863">
    <comp name="--.HHN">
      <acc value="0.0315797242" flag="0"/>
      <vel value="0.0198477194" flag="0"/>
      <psa03 value="0.0763937637" flag="0"/>
      <psa10 value="0.0360708118" flag="0"/>
      <psa30 value="0.0017303262" flag="0"/>
    </comp>
    <comp name="--.HHZ">
      <acc value="0.0148674112" flag="0"/>
      <vel value="0.0114460126" flag="0"/>
      <psa03 value="0.0680277367" flag="0"/>
      <psa10 value="0.0196609642" flag="0"/>
      <psa30 value="0.0014682224" flag="0"/>
    </comp>
    <comp name="--.HHE">
      <acc value="0.0301204741" flag="0"/>
      <vel value="0.0219722359" flag="0"/>
      <psa03 value="0.0756288529" flag="0"/>
      <psa10 value="0.0331965370" flag="0"/>
      <psa30 value="0.0014096521" flag="0"/>
    </comp>
  </station>
  <station code="MRTH" name="MRTH" netid="HA" insttype="S100," lat="38.1225" lon="23.9409">
    <comp name="--.HHN">
      <acc value="0.0441729825" flag="0"/>
      <vel value="0.0205073150" flag="0"/>
      <psa03 value="0.1010848081" flag="0"/>
      <psa10 value="0.0243950801" flag="0"/>
      <psa30 value="0.0010216098" flag="0"/>
    </comp>
    <comp name="--.HHZ">
      <acc value="0.0361113632" flag="0"/>
      <vel value="0.0168614410" flag="0"/>
      <psa03 value="0.0795209017" flag="0"/>
      <psa10 value="0.0114310698" flag="0"/>
      <psa30 value="0.0011400694" flag="0"/>
    </comp>
    <comp name="--.HHE">
      <acc value="0.0366876662" flag="0"/>
      <vel value="0.0221719957" flag="0"/>
      <psa03 value="0.0936576233" flag="0"/>
      <psa10 value="0.0136355114" flag="0"/>
      <psa30 value="0.0010199187" flag="0"/>
    </comp>
  </station>
  <station code="PSAH" name="PSAH" netid="HA" insttype="25" lat="38.5694" lon="23.6473">
    <comp name="--.HHE">
      <acc value="0.0101932173" flag="0"/>
      <vel value="0.0096567862" flag="0"/>
      <psa03 value="0.0206943820" flag="0"/>
      <psa10 value="0.0120821252" flag="0"/>
      <psa30 value="0.0007342912" flag="0"/>
    </comp>
    <comp name="--.HHN">
      <acc value="0.0105877518" flag="0"/>
      <vel value="0.0075026111" flag="0"/>
      <psa03 value="0.0194550888" flag="0"/>
      <psa10 value="0.0078310271" flag="0"/>
      <psa30 value="0.0008187735" flag="0"/>
    </comp>
    <comp name="--.HHZ">
      <acc value="0.0082241143" flag="0"/>
      <vel value="0.0071366110" flag="0"/>
      <psa03 value="0.0173467863" flag="0"/>
      <psa10 value="0.0123726875" flag="0"/>
      <psa30 value="0.0007598719" flag="0"/>
    </comp>
  </station>
  <station code="STFN" name="STFN" netid="HA" insttype="1s-100Hz," lat="38.1766" lon="23.544">
    <comp name="--.HHE">
      <acc value="0.0283443567" flag="0"/>
      <vel value="0.0166033860" flag="0"/>
      <psa03 value="0.0624173607" flag="0"/>
      <psa10 value="0.0149685594" flag="0"/>
      <psa30 value="0.0010398060" flag="0"/>
    </comp>
    <comp name="--.HHN">
      <acc value="0.0421986859" flag="0"/>
      <vel value="0.0164537480" flag="0"/>
      <psa03 value="0.0824606163" flag="0"/>
      <psa10 value="0.0146221003" flag="0"/>
      <psa30 value="0.0013200868" flag="0"/>
    </comp>
    <comp name="--.HHZ">
      <acc value="0.0224579444" flag="0"/>
      <vel value="0.0133728412" flag="0"/>
      <psa03 value="0.0595503717" flag="0"/>
      <psa10 value="0.0107596517" flag="0"/>
      <psa30 value="0.0008002422" flag="0"/>
    </comp>
  </station>
  <station code="THAL" name="THAL" netid="HA" insttype="30" lat="38.0357" lon="22.6634">
    <comp name="--.HHE">
      <acc value="0.7349048011" flag="0"/>
      <vel value="0.2451958231" flag="0"/>
      <psa03 value="1.6296095946" flag="0"/>
      <psa10 value="0.1065673875" flag="0"/>
      <psa30 value="0.0073415134" flag="0"/>
    </comp>
    <comp name="--.HHN">
      <acc value="1.0513339308" flag="0"/>
      <vel value="0.3496275451" flag="0"/>
      <psa03 value="1.7411366161" flag="0"/>
      <psa10 value="0.1094183829" flag="0"/>
      <psa30 value="0.0097597963" flag="0"/>
    </comp>
    <comp name="--.HHZ">
      <acc value="0.4621447425" flag="0"/>
      <vel value="0.1416693997" flag="0"/>
      <psa03 value="1.0367827354" flag="0"/>
      <psa10 value="0.0762018875" flag="0"/>
      <psa30 value="0.0072244373" flag="0"/>
    </comp>
  </station>
  <station code="THIV" name="THIV" netid="HA" insttype="25" lat="38.299" lon="23.332">
    <comp name="--.HHN">
      <acc value="0.0835208437" flag="0"/>
      <vel value="0.0266536348" flag="0"/>
      <psa03 value="0.0867242554" flag="0"/>
      <psa10 value="0.0401636390" flag="0"/>
      <psa30 value="0.0019431288" flag="0"/>
    </comp>
    <comp name="--.HHE">
      <acc value="0.0907140734" flag="0"/>
      <vel value="0.0399607989" flag="0"/>
      <psa03 value="0.0979323186" flag="0"/>
      <psa10 value="0.0237597554" flag="0"/>
      <psa30 value="0.0025638373" flag="0"/>
    </comp>
    <comp name="--.HHZ">
      <acc value="0.0636231409" flag="0"/>
      <vel value="0.0136290218" flag="0"/>
      <psa03 value="0.0525416718" flag="0"/>
      <psa10 value="0.0259167132" flag="0"/>
      <psa30 value="0.0014932454" flag="0"/>
    </comp>
  </station>
  <station code="VILL" name="VILL" netid="HA" insttype="Horizon,120s,1200" lat="38.1642" lon="23.3122">
    <comp name="--.HHE">
      <acc value="0.0460269591" flag="0"/>
      <vel value="0.0244137437" flag="0"/>
      <psa03 value="0.1299201715" flag="0"/>
      <psa10 value="0.0354848955" flag="0"/>
      <psa30 value="0.0030553138" flag="0"/>
    </comp>
    <comp name="--.HHZ">
      <acc value="0.0232227649" flag="0"/>
      <vel value="0.0141942169" flag="0"/>
      <psa03 value="0.0569940102" flag="0"/>
      <psa10 value="0.0163944088" flag="0"/>
      <psa30 value="0.0019466526" flag="0"/>
    </comp>
    <comp name="--.HHN">
      <acc value="0.0503599273" flag="0"/>
      <vel value="0.0175775283" flag="0"/>
      <psa03 value="0.1117186150" flag="0"/>
      <psa10 value="0.0278443767" flag="0"/>
      <psa30 value="0.0015830629" flag="0"/>
    </comp>
  </station>
  <station code="ARS1" name="ARS1" netid="HI" insttype="CMG-5TD,ACCELEROMETER,GURALP" lat="37.6349" lon="22.7293">
    <comp name="--.HNN">
      <acc value="0.0394891258" flag="0"/>
      <vel value="0.0216423490" flag="0"/>
      <psa03 value="0.1478295800" flag="0"/>
      <psa10 value="0.0230271953" flag="0"/>
      <psa30 value="0.0029451322" flag="0"/>
    </comp>
    <comp name="--.HNZ">
      <acc value="0.0280211060" flag="0"/>
      <vel value="0.0129542327" flag="0"/>
      <psa03 value="0.0922951099" flag="0"/>
      <psa10 value="0.0094352155" flag="0"/>
      <psa30 value="0.0024401633" flag="0"/>
    </comp>
    <comp name="--.HNE">
      <acc value="0.0425127029" flag="0"/>
      <vel value="0.0161124069" flag="0"/>
      <psa03 value="0.1113227852" flag="0"/>
      <psa10 value="0.0187711393" flag="0"/>
      <psa30 value="0.0015032180" flag="0"/>
    </comp>
  </station>
  <station code="ATH5" name="ATH5" netid="HI" insttype="CMG-5TD,ACCELEROMETER,GURALP" lat="37.9754" lon="23.7371">
    <comp name="--.HNN">
      <acc value="0.0260927764" flag="0"/>
      <vel value="0.0144103937" flag="0"/>
      <psa03 value="0.0667802238" flag="0"/>
      <psa10 value="0.0121132238" flag="0"/>
      <psa30 value="0.0012779883" flag="0"/>
    </comp>
    <comp name="--.HNE">
      <acc value="0.0229672855" flag="0"/>
      <vel value="0.0113858833" flag="0"/>
      <psa03 value="0.0383908008" flag="0"/>
      <psa10 value="0.0210118099" flag="0"/>
      <psa30 value="0.0013051354" flag="0"/>
    </comp>
    <comp name="--.HNZ">
      <acc value="0.0104127277" flag="0"/>
      <vel value="0.0055223844" flag="0"/>
      <psa03 value="0.0269066408" flag="0"/>
      <psa10 value="0.0112051428" flag="0"/>
      <psa30 value="0.0011273365" flag="0"/>
    </comp>
  </station>
  <station code="KLV1" name="KLV1" netid="HI" insttype="CMG-5TD,ACCELEROMETER,GURALP" lat="38.0326" lon="22.108">
    <comp name="--.HNE">
      <acc value="0.0289940809" flag="0"/>
      <vel value="0.0109387286" flag="0"/>
      <psa03 value="0.0475991025" flag="0"/>
      <psa10 value="0.0066893992" flag="0"/>
      <psa30 value="0.0010542278" flag="0"/>
    </comp>
    <comp name="--.HNN">
      <acc value="0.0293763647" flag="0"/>
      <vel value="0.0120299016" flag="0"/>
      <psa03 value="0.0558556931" flag="0"/>
      <psa10 value="0.0069123524" flag="0"/>
      <psa30 value="0.0011311866" flag="0"/>
    </comp>
    <comp name="--.HNZ">
      <acc value="0.0253068410" flag="0"/>
      <vel value="0.0065479503" flag="0"/>
      <psa03 value="0.0160115840" flag="0"/>
      <psa10 value="0.0050535789" flag="0"/>
      <psa30 value="0.0011272583" flag="0"/>
    </comp>
  </station>
  <station code="ATH" name="ATH" netid="HL" insttype="DR24" lat="37.9738" lon="23.7177">
    <comp name="--.HHE">
      <acc value="0.0336198025" flag="0"/>
      <vel value="0.0144024281" flag="0"/>
      <psa03 value="0.0654813149" flag="0"/>
      <psa10 value="0.0182921749" flag="0"/>
      <psa30 value="0.0014144377" flag="0"/>
    </comp>
    <comp name="--.HHN">
