<stationlist created="1770374111">
	<station code="KRL1" name="KRL1" netid="HI" source="ITSAK Strong Motion Network" insttype="" lat="37.7951" lon="26.7065">
		<comp name="--.HNE" depth="0.0">
			<acc value="0.051554760202122" flag="0"/>
			<vel value="0.0449954768731" flag="0"/>
			<psa03 value="0.0967096148708781" flag="0"/>
			<psa10 value="0.0478143212139465" flag="0"/>
			<psa30 value="0.0055643652785558" flag="0"/>
		</comp>
		<comp name="--.HNN" depth="0.0">
			<acc value="0.046970312876796" flag="0"/>
			<vel value="0.0485451842828" flag="0"/>
			<psa03 value="0.130656676196812" flag="0"/>
			<psa10 value="0.103633262695099" flag="0"/>
			<psa30 value="0.00848247608908578" flag="0"/>
		</comp>
		<comp name="--.HNZ" depth="0.0">
			<acc value="0.01904658652947" flag="0"/>
			<vel value="0.0190670147998" flag="0"/>
			<psa03 value="0.053161276881859" flag="0"/>
			<psa10 value="0.0253519438168483" flag="0"/>
			<psa30 value="0.0032812327822362" flag="0"/>
		</comp>
	</station>
	<station code="MYT1" name="MYT1" netid="HI" source="ITSAK Strong Motion Network" insttype="" lat="39.085" lon="26.5694">
		<comp name="--.HNE" depth="0.0">
			<acc value="0.23148708032634" flag="0"/>
			<vel value="0.224887951036" flag="0"/>
			<psa03 value="0.409783312800043" flag="0"/>
			<psa10 value="0.414228440603081" flag="0"/>
			<psa30 value="0.0262978621042948" flag="0"/>
		</comp>
		<comp name="--.HNN" depth="0.0">
			<acc value="0.24028773096966" flag="0"/>
			<vel value="0.279571308212" flag="0"/>
			<psa03 value="0.356911435297536" flag="0"/>
			<psa10 value="0.433940616437922" flag="0"/>
			<psa30 value="0.025212580209685" flag="0"/>
		</comp>
		<comp name="--.HNZ" depth="0.0">
			<acc value="0.077627117060622" flag="0"/>
			<vel value="0.0792213154798" flag="0"/>
			<psa03 value="0.177145568358021" flag="0"/>
			<psa10 value="0.147197311099378" flag="0"/>
			<psa30 value="0.00835842620470654" flag="0"/>
		</comp>
	</station>
	<station code="PLM1" name="PLM1" netid="HI" source="ITSAK Strong Motion Network" insttype="" lat="38.9751" lon="26.3688">
		<comp name="--.HNE" depth="0.0">
			<acc value="0.05983281213123" flag="0"/>
			<vel value="0.0370134171435" flag="0"/>
			<psa03 value="0.173356150660829" flag="0"/>
			<psa10 value="0.0445070258721027" flag="0"/>
			<psa30 value="0.00273698777034146" flag="0"/>
		</comp>
		<comp name="--.HNN" depth="0.0">
			<acc value="0.056481107460198" flag="0"/>
			<vel value="0.0332893281147" flag="0"/>
			<psa03 value="0.115403509499489" flag="0"/>
			<psa10 value="0.0435016930237344" flag="0"/>
			<psa30 value="0.00569888460649001" flag="0"/>
		</comp>
		<comp name="--.HNZ" depth="0.0">
			<acc value="0.028870558642446" flag="0"/>
			<vel value="0.0212951695827" flag="0"/>
			<psa03 value="0.0449316640023047" flag="0"/>
			<psa10 value="0.0250940354816824" flag="0"/>
			<psa30 value="0.00399127648581165" flag="0"/>
		</comp>
	</station>
	<station code="PRK" name="PRK" netid="HL" source="National Observatory of Athens Seismic Network" insttype="" lat="39.24565" lon="26.26499">
		<comp name="--.HNE" depth="0.0">
			<acc value="0.12304358711112" flag="0"/>
			<vel value="0.0849866360909" flag="0"/>
			<psa03 value="0.261916892375153" flag="0"/>
			<psa10 value="0.0914880606351799" flag="0"/>
			<psa30 value="0.00711930911926876" flag="0"/>
		</comp>
		<comp name="--.HNN" depth="0.0">
			<acc value="0.065488569879276" flag="0"/>
			<vel value="0.0548231857589" flag="0"/>
			<psa03 value="0.156080204130974" flag="0"/>
			<psa10 value="0.106055870681047" flag="0"/>
			<psa30 value="0.00910626491200531" flag="0"/>
		</comp>
		<comp name="--.HNZ" depth="0.0">
			<acc value="0.094031768325546" flag="0"/>
			<vel value="0.0606218780451" flag="0"/>
			<psa03 value="0.178666502445618" flag="0"/>
			<psa10 value="0.0366881066570129" flag="0"/>
			<psa30 value="0.00534136300573041" flag="0"/>
		</comp>
	</station>
	<station code="SMG" name="SMG" netid="HL" source="National Observatory of Athens Seismic Network" insttype="" lat="37.70425" lon="26.83772">
		<comp name="00.HNE" depth="0.0">
			<acc value="0.024981425696502" flag="0"/>
			<vel value="0.0230919719722" flag="0"/>
			<psa03 value="0.0909254817001014" flag="0"/>
			<psa10 value="0.0218888219020086" flag="0"/>
			<psa30 value="0.00275498646266742" flag="0"/>
		</comp>
		<comp name="00.HNN" depth="0.0">
			<acc value="0.027457883916414" flag="0"/>
			<vel value="0.0244081324522" flag="0"/>
			<psa03 value="0.075429486416736" flag="0"/>
			<psa10 value="0.0549321952384367" flag="0"/>
			<psa30 value="0.00388512945409051" flag="0"/>
		</comp>
		<comp name="00.HNZ" depth="0.0">
			<acc value="0.014210844049164" flag="0"/>
			<vel value="0.0135141701522" flag="0"/>
			<psa03 value="0.0330944267183648" flag="0"/>
			<psa10 value="0.0225514364219798" flag="0"/>
			<psa30 value="0.00335646651609994" flag="0"/>
		</comp>
	</station>
	<station code="LES3" name="LES3" netid="HT" source="Aristotle University of Thessaloniki Seismological Network" insttype="" lat="39.303248" lon="26.180664">
		<comp name="--.HNE" depth="0.0">
			<acc value="0.094285548548142" flag="0"/>
			<vel value="0.0481321958296" flag="0"/>
			<psa03 value="0.241485205543112" flag="0"/>
			<psa10 value="0.0356434374527845" flag="0"/>
			<psa30 value="0.00711680895366639" flag="0"/>
		</comp>
		<comp name="--.HNN" depth="0.0">
			<acc value="0.092339267485362" flag="0"/>
			<vel value="0.0457256602527" flag="0"/>
			<psa03 value="0.237367682777349" flag="0"/>
			<psa10 value="0.0479368755829108" flag="0"/>
			<psa30 value="0.00941733718568691" flag="0"/>
		</comp>
		<comp name="--.HNZ" depth="0.0">
			<acc value="0.065103020685768" flag="0"/>
			<vel value="0.0399947437637" flag="0"/>
			<psa03 value="0.143500568708258" flag="0"/>
			<psa10 value="0.0300698763567301" flag="0"/>
			<psa30 value="0.0104423975909314" flag="0"/>
		</comp>
	</station>
	<station code="AKS" name="AKS" netid="KO" source="Bogazici University Kandilli Observatory And Earthquake Research Institute (KOERI)" insttype="" lat="38.8785" lon="27.8129">
		<comp name="--.HNE" depth="0.0">
			<acc value="0.38737487791446" flag="0"/>
			<vel value="0.172518769622" flag="0"/>
			<psa03 value="0.5454922611854" flag="0"/>
			<psa10 value="0.219164773590792" flag="0"/>
			<psa30 value="0.0142013574369136" flag="0"/>
		</comp>
		<comp name="--.HNN" depth="0.0">
			<acc value="0.42401366289816" flag="0"/>
			<vel value="0.197992668144" flag="0"/>
			<psa03 value="0.755333453801667" flag="0"/>
			<psa10 value="0.146136665837047" flag="0"/>
			<psa30 value="0.0248427223750981" flag="0"/>
		</comp>
		<comp name="--.HNZ" depth="0.0">
			<acc value="0.21295416020982" flag="0"/>
			<vel value="0.100848440809" flag="0"/>
			<psa03 value="0.339100838766151" flag="0"/>
			<psa10 value="0.081490415839914" flag="0"/>
			<psa30 value="0.0186383830347381" flag="0"/>
		</comp>
	</station>
	<station code="ALT" name="ALT" netid="KO" source="Bogazici University Kandilli Observatory And Earthquake Research Institute (KOERI)" insttype="" lat="39.0541" lon="30.1104">
		<comp name="--.HNE" depth="0.0">
			<acc value="0.026266115450274" flag="0"/>
			<vel value="0.0106220790239" flag="0"/>
			<psa03 value="0.0642469331271405" flag="0"/>
			<psa10 value="0.00770644692051906" flag="0"/>
			<psa30 value="0.00257840934862966" flag="0"/>
		</comp>
		<comp name="--.HNN" depth="0.0">
			<acc value="0.02734513917297" flag="0"/>
			<vel value="0.0213468321132" flag="0"/>
			<psa03 value="0.097773987463491" flag="0"/>
			<psa10 value="0.00931029644893867" flag="0"/>
			<psa30 value="0.00540365046532304" flag="0"/>
		</comp>
		<comp name="--.HNZ" depth="0.0">
			<acc value="0.015333351483558" flag="0"/>
			<vel value="0.00969144183372" flag="0"/>
			<psa03 value="0.0352093246324715" flag="0"/>
			<psa10 value="0.011698786549714" flag="0"/>
			<psa30 value="0.00222993938920511" flag="0"/>
		</comp>
	</station>
	<station code="ARMT" name="ARMT" netid="KO" source="Bogazici University Kandilli Observatory And Earthquake Research Institute (KOERI)" insttype="" lat="40.5683" lon="28.866">
		<comp name="--.HNE" depth="0.0">
			<acc value="0.19366224430188" flag="0"/>
			<vel value="0.110886630923" flag="0"/>
			<psa03 value="0.599104062701671" flag="0"/>
			<psa10 value="0.174003081850128" flag="0"/>
			<psa30 value="0.0063439373380469" flag="0"/>
		</comp>
		<comp name="--.HNN" depth="0.0">
			<acc value="0.19554604572264" flag="0"/>
			<vel value="0.186154973248" flag="0"/>
			<psa03 value="0.802178140363903" flag="0"/>
			<psa10 value="0.262441245444401" flag="0"/>
			<psa30 value="0.0126984353756744" flag="0"/>
		</comp>
		<comp name="--.HNZ" depth="0.0">
			<acc value="0.11254798225038" flag="0"/>
			<vel value="0.0798619859214" flag="0"/>
			<psa03 value="0.359041909764573" flag="0"/>
			<psa10 value="0.112858266306327" flag="0"/>
			<psa30 value="0.0103439302346266" flag="0"/>
		</comp>
	</station>
	<station code="ASYA" name="ASYA" netid="KO" source="Bogazici University Kandilli Observatory And Earthquake Research Institute (KOERI)" insttype="" lat="40.8956" lon="27.465">
		<comp name="--.HNE" depth="0.0">
			<acc value="0.12500016184458" flag="0"/>
			<vel value="0.127937646313" flag="0"/>
			<psa03 value="0.337194879172479" flag="0"/>
			<psa10 value="0.137333677682186" flag="0"/>
			<psa30 value="0.00841996861492694" flag="0"/>
		</comp>
		<comp name="--.HNN" depth="0.0">
			<acc value="0.14696877459432" flag="0"/>
			<vel value="0.145095157076" flag="0"/>
			<psa03 value="0.422413649498017" flag="0"/>
			<psa10 value="0.232478785578432" flag="0"/>
			<psa30 value="0.0108846535548706" flag="0"/>
		</comp>
		<comp name="--.HNZ" depth="0.0">
			<acc value="0.08813241973038" flag="0"/>
			<vel value="0.0495994843675" flag="0"/>
			<psa03 value="0.250766507883804" flag="0"/>
			<psa10 value="0.0392186092904044" flag="0"/>
			<psa30 value="0.00429461324705135" flag="0"/>
		</comp>
	</station>
	<station code="AVCI" name="AVCI" netid="KO" source="Bogazici University Kandilli Observatory And Earthquake Research Institute (KOERI)" insttype="" lat="40.9958" lon="28.7225">
		<comp name="--.HNE" depth="0.0">
			<acc value="0.16705397422914" flag="0"/>
			<vel value="0.210869654931" flag="0"/>
			<psa03 value="0.273196847950588" flag="0"/>
			<psa10 value="0.441393620162254" flag="0"/>
			<psa30 value="0.0196142660155131" flag="0"/>
		</comp>
		<comp name="--.HNN" depth="0.0">
			<acc value="0.10309536603846" flag="0"/>
			<vel value="0.158897241683" flag="0"/>
			<psa03 value="0.2494013757837" flag="0"/>
			<psa10 value="0.27373210340831" flag="0"/>
			<psa30 value="0.0335861815863736" flag="0"/>
		</comp>
		<comp name="--.HNZ" depth="0.0">
			<acc value="0.057405646617264" flag="0"/>
			<vel value="0.0601857987527" flag="0"/>
			<psa03 value="0.140303231900513" flag="0"/>
			<psa10 value="0.112123262615753" flag="0"/>
			<psa30 value="0.00948013967939703" flag="0"/>
		</comp>
	</station>
	<station code="BALB" name="BALB" netid="KO" source="Bogazici University Kandilli Observatory And Earthquake Research Institute (KOERI)" insttype="" lat="39.6507" lon="27.8642">
		<comp name="--.HNE" depth="0.0">
			<acc value="0.4391524595757" flag="0"/>
			<vel value="0.199788844755" flag="0"/>
			<psa03 value="0.908149910472532" flag="0"/>
			<psa10 value="0.338692706729609" flag="0"/>
			<psa30 value="0.0211619252070092" flag="0"/>
		</comp>
		<comp name="--.HNN" depth="0.0">
			<acc value="0.45363265846206" flag="0"/>
			<vel value="0.324757404353" flag="0"/>
			<psa03 value="1.05757172560123" flag="0"/>
			<psa10 value="0.367617322843519" flag="0"/>
			<psa30 value="0.0337204471474737" flag="0"/>
		</comp>
		<comp name="--.HNZ" depth="0.0">
			<acc value="0.22688994757548" flag="0"/>
			<vel value="0.0983176222289" flag="0"/>
			<psa03 value="0.415124166605234" flag="0"/>
			<psa10 value="0.0814757823708654" flag="0"/>
			<psa30 value="0.0143965453671554" flag="0"/>
		</comp>
	</station>
	<station code="BASM" name="BASM" netid="KO" source="Bogazici University Kandilli Observatory And Earthquake Research Institute (KOERI)" insttype="" lat="37.9194" lon="30.035">
		<comp name="--.HNE" depth="0.0">
			<acc value="0.016941774838602" flag="0"/>
			<vel value="0.029831268823" flag="0"/>
			<psa03 value="0.0429675781619937" flag="0"/>
			<psa10 value="0.0354715035630316" flag="0"/>
			<psa30 value="0.00431863775522402" flag="0"/>
		</comp>
		<comp name="--.HNN" depth="0.0">
			<acc value="0.020066643401814" flag="0"/>
			<vel value="0.0350126958208" flag="0"/>
			<psa03 value="0.0524779503648521" flag="0"/>
			<psa10 value="0.0402789882852284" flag="0"/>
			<psa30 value="0.00522217594351353" flag="0"/>
		</comp>
		<comp name="--.HNZ" depth="0.0">
			<acc value="0.014286589380744" flag="0"/>
			<vel value="0.0121180702565" flag="0"/>
			<psa03 value="0.0312253966543029" flag="0"/>
			<psa10 value="0.0178062602023512" flag="0"/>
			<psa30 value="0.00225091640382937" flag="0"/>
		</comp>
	</station>
	<station code="BIGA" name="BIGA" netid="KO" source="Bogazici University Kandilli Observatory And Earthquake Research Institute (KOERI)" insttype="" lat="40.28134" lon="27.15048">
		<comp name="--.HNE" depth="0.0">
			<acc value="0.25742773188804" flag="0"/>
			<vel value="0.116478257963" flag="0"/>
			<psa03 value="0.604211817734224" flag="0"/>
			<psa10 value="0.125671830141922" flag="0"/>
			<psa30 value="0.00695231889035349" flag="0"/>
		</comp>
		<comp name="--.HNN" depth="0.0">
			<acc value="0.2291031761808" flag="0"/>
			<vel value="0.145851406166" flag="0"/>
			<psa03 value="0.61915547434485" flag="0"/>
			<psa10 value="0.0947324005567779" flag="0"/>
			<psa30 value="0.00900067375046599" flag="0"/>
		</comp>
		<comp name="--.HNZ" depth="0.0">
			<acc value="0.067643500735374" flag="0"/>
			<vel value="0.0366105523202" flag="0"/>
			<psa03 value="0.176997766899882" flag="0"/>
			<psa10 value="0.0309341473604499" flag="0"/>
			<psa30 value="0.00584309290955766" flag="0"/>
		</comp>
	</station>
	<station code="BMYO" name="BMYO" netid="KO" source="Bogazici University Kandilli Observatory And Earthquake Research Institute (KOERI)" insttype="" lat="39.8098" lon="26.6009">
		<comp name="--.HNE" depth="0.0">
			<acc value="0.15829308903246" flag="0"/>
			<vel value="0.103509677123" flag="0"/>
			<psa03 value="0.295044524418358" flag="0"/>
			<psa10 value="0.124834482171789" flag="0"/>
			<psa30 value="0.0109518913424042" flag="0"/>
		</comp>
		<comp name="--.HNN" depth="0.0">
			<acc value="0.14820789461226" flag="0"/>
			<vel value="0.103415556231" flag="0"/>
			<psa03 value="0.367709358940414" flag="0"/>
			<psa10 value="0.117206641864702" flag="0"/>
			<psa30 value="0.00802209725789098" flag="0"/>
		</comp>
		<comp name="--.HNZ" depth="0.0">
			<acc value="0.060430494454062" flag="0"/>
			<vel value="0.0441820250583" flag="0"/>
			<psa03 value="0.155820989042403" flag="0"/>
			<psa10 value="0.0910849089282418" flag="0"/>
			<psa30 value="0.00695177802119106" flag="0"/>
		</comp>
	</station>
	<station code="BOTS" name="BOTS" netid="KO" source="Bogazici University Kandilli Observatory And Earthquake Research Institute (KOERI)" insttype="" lat="40.9902" lon="27.981">
		<comp name="--.HNE" depth="0.0">
			<acc value="0.155280131817" flag="0"/>
			<vel value="0.16709636727" flag="0"/>
			<psa03 value="0.411450214890687" flag="0"/>
			<psa10 value="0.198912862000859" flag="0"/>
			<psa30 value="0.0109846785143661" flag="0"/>
		</comp>
		<comp name="--.HNN" depth="0.0">
			<acc value="0.14304022780512" flag="0"/>
			<vel value="0.112302722596" flag="0"/>
			<psa03 value="0.587917404975013" flag="0"/>
			<psa10 value="0.0812213655168441" flag="0"/>
			<psa30 value="0.0118190687886267" flag="0"/>
		</comp>
		<comp name="--.HNZ" depth="0.0">
			<acc value="0.035349328597344" flag="0"/>
			<vel value="0.0293173411985" flag="0"/>
			<psa03 value="0.10063722922253" flag="0"/>
			<psa10 value="0.0427471430385519" flag="0"/>
			<psa30 value="0.00523517972162293" flag="0"/>
		</comp>
	</station>
	<station code="BRGA" name="BRGA" netid="KO" source="Bogazici University Kandilli Observatory And Earthquake Research Institute (KOERI)" insttype="" lat="40.8846" lon="29.065">
		<comp name="--.HNE" depth="0.0">
			<acc value="0.12030741925092" flag="0"/>
			<vel value="0.11461532236" flag="0"/>
			<psa03 value="0.548863026147433" flag="0"/>
			<psa10 value="0.152720241966543" flag="0"/>
			<psa30 value="0.0134507127103595" flag="0"/>
		</comp>
		<comp name="--.HNN" depth="0.0">
			<acc value="0.09360237461574" flag="0"/>
			<vel value="0.0891007054392" flag="0"/>
			<psa03 value="0.325853607035506" flag="0"/>
			<psa10 value="0.153250512094497" flag="0"/>
			<psa30 value="0.0117246166983006" flag="0"/>
		</comp>
		<comp name="--.HNZ" depth="0.0">
			<acc value="0.047999438250084" flag="0"/>
			<vel value="0.0395380080213" flag="0"/>
			<psa03 value="0.179610127455989" flag="0"/>
			<psa10 value="0.0640239562728101" flag="0"/>
			<psa30 value="0.00430618693041777" flag="0"/>
		</comp>
	</station>
	<station code="BUYK" name="BUYK" netid="KO" source="Bogazici University Kandilli Observatory And Earthquake Research Institute (KOERI)" insttype="" lat="41.0168" lon="28.5828">
		<comp name="--.HNE" depth="0.0">
			<acc value="0.11115833246742" flag="0"/>
			<vel value="0.182426662216" flag="0"/>
			<psa03 value="0.32523531607686" flag="0"/>
			<psa10 value="0.309892838879571" flag="0"/>
			<psa30 value="0.0223763589906461" flag="0"/>
		</comp>
		<comp name="--.HNN" depth="0.0">
			<acc value="0.16468470224166" flag="0"/>
			<vel value="0.208798808032" flag="0"/>
			<psa03 value="0.350285621369748" flag="0"/>
			<psa10 value="0.377612034943918" flag="0"/>
			<psa30 value="0.0324307750463667" flag="0"/>
		</comp>
		<comp name="--.HNZ" depth="0.0">
			<acc value="0.067520131039326" flag="0"/>
			<vel value="0.0926281404793" flag="0"/>
			<psa03 value="0.121888814118849" flag="0"/>
			<psa10 value="0.213876443264851" flag="0"/>
			<psa30 value="0.0118028835497867" flag="0"/>
		</comp>
	</station>
	<station code="CANM" name="CANM" netid="KO" source="Bogazici University Kandilli Observatory And Earthquake Research Institute (KOERI)" insttype="" lat="40.0113" lon="27.0529">
		<comp name="--.HNE" depth="0.0">
			<acc value="0.15391497316224" flag="0"/>
			<vel value="0.138253514301" flag="0"/>
			<psa03 value="0.266852031804105" flag="0"/>
			<psa10 value="0.213500578365317" flag="0"/>
			<psa30 value="0.0114121643332247" flag="0"/>
		</comp>
		<comp name="--.HNN" depth="0.0">
			<acc value="0.18347070057006" flag="0"/>
			<vel value="0.162479764721" flag="0"/>
			<psa03 value="0.483387272033813" flag="0"/>
			<psa10 value="0.225792497644677" flag="0"/>
			<psa30 value="0.0135614292114419" flag="0"/>
		</comp>
		<comp name="--.HNZ" depth="0.0">
			<acc value="0.1180151881776" flag="0"/>
			<vel value="0.0744456971059" flag="0"/>
			<psa03 value="0.289294039310426" flag="0"/>
			<psa10 value="0.0648622493055941" flag="0"/>
			<psa30 value="0.010791903243948" flag="0"/>
		</comp>
	</station>
	<station code="CESE" name="CESE" netid="KO" source="Bogazici University Kandilli Observatory And Earthquake Research Institute (KOERI)" insttype="" lat="38.3306" lon="26.2997">
		<comp name="--.HNE" depth="0.0">
			<acc value="0.019611722124162" flag="0"/>
			<vel value="0.0168119879404" flag="0"/>
			<psa03 value="0.0289869827453294" flag="0"/>
			<psa10 value="0.0277832992572104" flag="0"/>
			<psa30 value="0.00575645175335165" flag="0"/>
		</comp>
		<comp name="--.HNN" depth="0.0">
			<acc value="0.021316584086694" flag="0"/>
			<vel value="0.0230752162353" flag="0"/>
			<psa03 value="0.0432474612862083" flag="0"/>
			<psa10 value="0.041981334807441" flag="0"/>
			<psa30 value="0.00469601275447248" flag="0"/>
		</comp>
		<comp name="--.HNZ" depth="0.0">
			<acc value="0.01064817790404" flag="0"/>
			<vel value="0.016331974674" flag="0"/>
			<psa03 value="0.025471992081953" flag="0"/>
			<psa10 value="0.0235822747099585" flag="0"/>
