<?xml version="1.0" encoding="UTF-8" standalone="yes"?>
<!DOCTYPE earthquake SYSTEM "stationlist.dtd">
<stationlist created="" xmlns="ch.ethz.sed.shakemap.usgs.xml">
  <station code="MYT1" name="MYT1" netid="HI" insttype="CMG-5TD,ACCELEROMETER,GURALP" commtype="DIG" lat="39.085" lon="26.5694">
    <comp name="--.HNZ">
      <acc value="0.0777021954" flag="0"/>
      <vel value="0.0817660730" flag="0"/>
      <psa03 value="0.1777126487" flag="0"/>
      <psa10 value="0.1466579730" flag="0"/>
      <psa30 value="0.0079322591" flag="0"/>
    </comp>
    <comp name="--.HNN">
      <acc value="0.2412942088" flag="0"/>
      <vel value="0.2774765994" flag="0"/>
      <psa03 value="0.3547436603" flag="0"/>
      <psa10 value="0.4340120015" flag="0"/>
      <psa30 value="0.0218341039" flag="0"/>
    </comp>
    <comp name="--.HNE">
      <acc value="0.2314299008" flag="0"/>
      <vel value="0.2208430807" flag="0"/>
      <psa03 value="0.4091993064" flag="0"/>
      <psa10 value="0.4141563456" flag="0"/>
      <psa30 value="0.0252494427" flag="0"/>
    </comp>
  </station>
</stationlist>
