<?xml version="1.0" encoding="UTF-8" standalone="yes"?>
<!DOCTYPE earthquake SYSTEM "stationlist.dtd">
<stationlist created="" xmlns="ch.ethz.sed.shakemap.usgs.xml">
  <station code="MYT1" name="MYT1" netid="HI" insttype="CMG-5TD,ACCELEROMETER,GURALP" commtype="DIG" lat="39.085" lon="26.5694">
    <comp name="--.HNZ">
      <acc value="0.0777021954" flag="0"/>
      <vel value="0.0817660730" flag="0"/>
      <psa03 value="0.1777126487" flag="0"/>
      <psa10 value="0.1466579730" flag="0"/>
      <psa30 value="0.0079322591" flag="0"/>
    </comp>
    <comp name="--.HNN">
      <acc value="0.2412942088" flag="0"/>
      <vel value="0.2774765994" flag="0"/>
      <psa03 value="0.3547436603" flag="0"/>
      <psa10 value="0.4340120015" flag="0"/>
      <psa30 value="0.0218341039" flag="0"/>
    </comp>
    <comp name="--.HNE">
      <acc value="0.2314299008" flag="0"/>
      <vel value="0.2208430807" flag="0"/>
      <psa03 value="0.4091993064" flag="0"/>
      <psa10 value="0.4141563456" flag="0"/>
      <psa30 value="0.0252494427" flag="0"/>
    </comp>
  </station>
  <station code="AKS" name="AKS" netid="KO" insttype="CMG-5T" commtype="DIG" lat="38.8785" lon="27.8129">
    <comp name="--.HNN">
      <acc value="0.4277270150" flag="0"/>
      <vel value="0.1967997387" flag="0"/>
      <psa03 value="0.7628896176" flag="0"/>
      <psa10 value="0.1461513441" flag="0"/>
      <psa30 value="0.0220077203" flag="0"/>
    </comp>
    <comp name="--.HNZ">
      <acc value="0.2234078444" flag="0"/>
      <vel value="0.0994397240" flag="0"/>
      <psa03 value="0.3349221112" flag="0"/>
      <psa10 value="0.0811444580" flag="0"/>
      <psa30 value="0.0158564465" flag="0"/>
    </comp>
    <comp name="--.HNE">
      <acc value="0.3928821920" flag="0"/>
      <vel value="0.1792514093" flag="0"/>
      <psa03 value="0.5457254555" flag="0"/>
      <psa10 value="0.2182342730" flag="0"/>
      <psa30 value="0.0123285562" flag="0"/>
    </comp>
  </station>
  <station code="AYDB" name="AYDB" netid="KO" insttype="CMG-3ESPC" commtype="DIG" lat="37.9467" lon="27.8908">
    <comp name="--.HHE">
      <acc value="0.0829901673" flag="0"/>
      <vel value="0.0692098682" flag="0"/>
      <psa03 value="0.2839132250" flag="0"/>
      <psa10 value="0.0605789681" flag="0"/>
      <psa30 value="0.0054855510" flag="0"/>
    </comp>
    <comp name="--.HHN">
      <acc value="0.0716381559" flag="0"/>
      <vel value="0.0615334709" flag="0"/>
      <psa03 value="0.1601654559" flag="0"/>
      <psa10 value="0.0435958738" flag="0"/>
      <psa30 value="0.0077204035" flag="0"/>
    </comp>
    <comp name="--.HHZ">
      <acc value="0.0446701062" flag="0"/>
      <vel value="0.0265150543" flag="0"/>
      <psa03 value="0.1043490207" flag="0"/>
      <psa10 value="0.0534765569" flag="0"/>
      <psa30 value="0.0051575433" flag="0"/>
    </comp>
  </station>
  <station code="AYVL" name="AYVL" netid="KO" insttype="CMG-6T" commtype="DIG" lat="39.2907" lon="26.69">
    <comp name="--.HHE">
      <acc value="0.3648025671" flag="0"/>
      <vel value="0.2518642676" flag="0"/>
      <psa03 value="0.7517779980" flag="0"/>
      <psa10 value="0.2098998725" flag="0"/>
      <psa30 value="0.0097601367" flag="0"/>
    </comp>
    <comp name="--.HHN">
      <acc value="0.4054384981" flag="0"/>
      <vel value="0.2126409201" flag="0"/>
      <psa03 value="1.3038230738" flag="0"/>
      <psa10 value="0.1819043191" flag="0"/>
      <psa30 value="0.0095905202" flag="0"/>
    </comp>
    <comp name="--.HHZ">
      <acc value="0.1031130097" flag="0"/>
      <vel value="0.0740069019" flag="0"/>
      <psa03 value="0.2320730764" flag="0"/>
      <psa10 value="0.0753883636" flag="0"/>
      <psa30 value="0.0037744627" flag="0"/>
    </comp>
  </station>
  <station code="BALB" name="BALB" netid="KO" insttype="CMG-5T" commtype="DIG" lat="39.6507" lon="27.8642">
    <comp name="--.HNE">
      <acc value="0.4439293974" flag="0"/>
      <vel value="0.1954015727" flag="0"/>
      <psa03 value="0.8973805889" flag="0"/>
      <psa10 value="0.3386305081" flag="0"/>
      <psa30 value="0.0178086553" flag="0"/>
    </comp>
    <comp name="--.HNN">
      <acc value="0.4554919864" flag="0"/>
      <vel value="0.3257288923" flag="0"/>
      <psa03 value="1.0496986131" flag="0"/>
      <psa10 value="0.3666415203" flag="0"/>
      <psa30 value="0.0315252637" flag="0"/>
    </comp>
    <comp name="--.HNZ">
      <acc value="0.2281288107" flag="0"/>
      <vel value="0.0983061940" flag="0"/>
      <psa03 value="0.4111225246" flag="0"/>
      <psa10 value="0.0828424963" flag="0"/>
      <psa30 value="0.0132844652" flag="0"/>
    </comp>
  </station>
  <station code="BLCB" name="BLCB" netid="KO" insttype="CMG-3T" commtype="DIG" lat="38.3853" lon="27.042">
    <comp name="--.HHE">
      <acc value="0.1008989268" flag="0"/>
      <vel value="0.0673027180" flag="0"/>
      <psa03 value="0.2906063051" flag="0"/>
      <psa10 value="0.0982474326" flag="0"/>
      <psa30 value="0.0095494789" flag="0"/>
    </comp>
    <comp name="--.HHZ">
      <acc value="0.1011322690" flag="0"/>
      <vel value="0.0386752459" flag="0"/>
      <psa03 value="0.2492622717" flag="0"/>
      <psa10 value="0.0488246172" flag="0"/>
      <psa30 value="0.0066499800" flag="0"/>
    </comp>
    <comp name="--.HHN">
      <acc value="0.1441401941" flag="0"/>
      <vel value="0.0935865902" flag="0"/>
      <psa03 value="0.5207874075" flag="0"/>
      <psa10 value="0.1251747025" flag="0"/>
      <psa30 value="0.0088623054" flag="0"/>
    </comp>
  </station>
  <station code="CANM" name="CANM" netid="KO" insttype="CMG-5T" commtype="DIG" lat="40.0113" lon="27.0529">
    <comp name="--.HNE">
      <acc value="0.1537957782" flag="0"/>
      <vel value="0.1386370590" flag="0"/>
      <psa03 value="0.2632010651" flag="0"/>
      <psa10 value="0.2131965640" flag="0"/>
      <psa30 value="0.0113928197" flag="0"/>
    </comp>
    <comp name="--.HNZ">
      <acc value="0.1180523912" flag="0"/>
      <vel value="0.0728084279" flag="0"/>
      <psa03 value="0.2903817711" flag="0"/>
      <psa10 value="0.0649991168" flag="0"/>
      <psa30 value="0.0098266178" flag="0"/>
    </comp>
    <comp name="--.HNN">
      <acc value="0.1830684940" flag="0"/>
      <vel value="0.1651450429" flag="0"/>
      <psa03 value="0.4768428820" flag="0"/>
      <psa10 value="0.2262008038" flag="0"/>
      <psa30 value="0.0133970988" flag="0"/>
    </comp>
  </station>
  <station code="DKL" name="DKL" netid="KO" insttype="CMG-3ESPC" commtype="DIG" lat="39.0713" lon="26.9053">
    <comp name="--.HHZ">
      <acc value="0.0646026611" flag="0"/>
      <vel value="0.0479259433" flag="0"/>
      <psa03 value="0.2251162960" flag="0"/>
      <psa10 value="0.0640349851" flag="0"/>
      <psa30 value="0.0074769795" flag="0"/>
    </comp>
    <comp name="--.HHE">
      <acc value="0.0940216826" flag="0"/>
      <vel value="0.0771575329" flag="0"/>
      <psa03 value="0.2058024259" flag="0"/>
      <psa10 value="0.1075007886" flag="0"/>
      <psa30 value="0.0076511444" flag="0"/>
    </comp>
    <comp name="--.HHN">
      <acc value="0.1323439677" flag="0"/>
      <vel value="0.0923175261" flag="0"/>
      <psa03 value="0.3224236597" flag="0"/>
      <psa10 value="0.1473652400" flag="0"/>
      <psa30 value="0.0164306094" flag="0"/>
    </comp>
  </station>
  <station code="DST" name="DST" netid="KO" insttype="CMG-5T" commtype="DIG" lat="39.6041" lon="28.6267">
    <comp name="--.HNN">
      <acc value="0.2262285795" flag="0"/>
      <vel value="0.1447410526" flag="0"/>
      <psa03 value="0.4848439720" flag="0"/>
      <psa10 value="0.1999909045" flag="0"/>
      <psa30 value="0.0129411837" flag="0"/>
    </comp>
    <comp name="--.HNZ">
      <acc value="0.1854798605" flag="0"/>
      <vel value="0.1153105075" flag="0"/>
      <psa03 value="0.4295275348" flag="0"/>
      <psa10 value="0.0830725728" flag="0"/>
      <psa30 value="0.0095036526" flag="0"/>
    </comp>
    <comp name="--.HNE">
      <acc value="0.1913459353" flag="0"/>
      <vel value="0.1005905305" flag="0"/>
      <psa03 value="0.7054926172" flag="0"/>
      <psa10 value="0.1402311316" flag="0"/>
      <psa30 value="0.0077532228" flag="0"/>
    </comp>
  </station>
  <station code="EDC" name="EDC" netid="KO" insttype="CMG-3T" commtype="DIG" lat="40.3465" lon="27.8618">
    <comp name="--.HHN">
      <acc value="0.2804262041" flag="0"/>
      <vel value="0.2308445536" flag="0"/>
      <psa03 value="1.0381575568" flag="0"/>
      <psa10 value="0.2699233978" flag="0"/>
      <psa30 value="0.0217462733" flag="0"/>
    </comp>
    <comp name="--.HHZ">
      <acc value="0.0979989133" flag="0"/>
      <vel value="0.1025388380" flag="0"/>
      <psa03 value="0.2641018085" flag="0"/>
      <psa10 value="0.1117074055" flag="0"/>
      <psa30 value="0.0097946023" flag="0"/>
    </comp>
    <comp name="--.HHE">
      <acc value="0.2369946508" flag="0"/>
      <vel value="0.1643997463" flag="0"/>
      <psa03 value="0.5576057621" flag="0"/>
      <psa10 value="0.1963432449" flag="0"/>
      <psa30 value="0.0145722275" flag="0"/>
    </comp>
  </station>
  <station code="FOCM" name="FOCM" netid="KO" insttype="CMG-5T" commtype="DIG" lat="38.7131" lon="26.7309">
    <comp name="--.HNE">
      <acc value="0.0973500676" flag="0"/>
      <vel value="0.0768905340" flag="0"/>
      <psa03 value="0.2698238445" flag="0"/>
      <psa10 value="0.1016829657" flag="0"/>
      <psa30 value="0.0104703017" flag="0"/>
    </comp>
    <comp name="--.HNN">
      <acc value="0.0815619408" flag="0"/>
      <vel value="0.0620928068" flag="0"/>
      <psa03 value="0.1716685247" flag="0"/>
      <psa10 value="0.0962613678" flag="0"/>
      <psa30 value="0.0115348718" flag="0"/>
    </comp>
    <comp name="--.HNZ">
      <acc value="0.0678484849" flag="0"/>
      <vel value="0.0585917762" flag="0"/>
      <psa03 value="0.1334558820" flag="0"/>
      <psa10 value="0.0631423652" flag="0"/>
      <psa30 value="0.0066131723" flag="0"/>
    </comp>
  </station>
  <station code="GEDZ" name="GEDZ" netid="KO" insttype="CMG-6T" commtype="DIG" lat="39.0445" lon="29.4105">
    <comp name="--.HHE">
      <acc value="0.2991589318" flag="0"/>
      <vel value="0.1488671672" flag="0"/>
      <psa03 value="1.5093035805" flag="0"/>
      <psa10 value="0.2135769640" flag="0"/>
      <psa30 value="0.0137999814" flag="0"/>
    </comp>
    <comp name="--.HHZ">
      <acc value="0.1116169479" flag="0"/>
      <vel value="0.0470640182" flag="0"/>
      <psa03 value="0.2464614788" flag="0"/>
      <psa10 value="0.0790513950" flag="0"/>
      <psa30 value="0.0053842039" flag="0"/>
    </comp>
    <comp name="--.HHN">
      <acc value="0.2329176364" flag="0"/>
      <vel value="0.1650804598" flag="0"/>
      <psa03 value="0.8548199297" flag="0"/>
      <psa10 value="0.2762274609" flag="0"/>
      <psa30 value="0.0141760396" flag="0"/>
    </comp>
  </station>
  <station code="GOMA" name="GOMA" netid="KO" insttype="CMG-5T" commtype="DIG" lat="38.7077" lon="27.9175">
    <comp name="--.HNZ">
      <acc value="0.2441380246" flag="0"/>
      <vel value="0.0960669012" flag="0"/>
      <psa03 value="0.3915915919" flag="0"/>
      <psa10 value="0.0771415553" flag="0"/>
      <psa30 value="0.0116816491" flag="0"/>
    </comp>
    <comp name="--.HNE">
      <acc value="0.4618336596" flag="0"/>
      <vel value="0.3021915075" flag="0"/>
      <psa03 value="1.3772063827" flag="0"/>
      <psa10 value="0.1779719385" flag="0"/>
      <psa30 value="0.0123267807" flag="0"/>
    </comp>
    <comp name="--.HNN">
      <acc value="0.5506641328" flag="0"/>
      <vel value="0.3297168757" flag="0"/>
      <psa03 value="1.3693716110" flag="0"/>
      <psa10 value="0.1331689767" flag="0"/>
      <psa30 value="0.0160643059" flag="0"/>
    </comp>
  </station>
  <station code="GONE" name="GONE" netid="KO" insttype="CMG-5T" commtype="DIG" lat="40.0466" lon="27.686">
    <comp name="--.HNE">
      <acc value="0.3213450356" flag="0"/>
      <vel value="0.2119550518" flag="0"/>
      <psa03 value="1.0616700432" flag="0"/>
      <psa10 value="0.3081461734" flag="0"/>
      <psa30 value="0.0157914653" flag="0"/>
    </comp>
    <comp name="--.HNN">
      <acc value="0.4659682131" flag="0"/>
      <vel value="0.2895825332" flag="0"/>
      <psa03 value="1.0698376285" flag="0"/>
      <psa10 value="0.3123128908" flag="0"/>
      <psa30 value="0.0162594421" flag="0"/>
    </comp>
    <comp name="--.HNZ">
      <acc value="0.1440301922" flag="0"/>
      <vel value="0.0643079965" flag="0"/>
      <psa03 value="0.3952019845" flag="0"/>
      <psa10 value="0.0960546184" flag="0"/>
      <psa30 value="0.0063578680" flag="0"/>
    </comp>
  </station>
  <station code="GORD" name="GORD" netid="KO" insttype="CMG-5T" commtype="DIG" lat="38.9088" lon="28.1769">
    <comp name="--.HNE">
      <acc value="0.3028443701" flag="0"/>
      <vel value="0.2982333739" flag="0"/>
      <psa03 value="0.5788706632" flag="0"/>
      <psa10 value="0.4644456219" flag="0"/>
      <psa30 value="0.0326566028" flag="0"/>
    </comp>
    <comp name="--.HNN">
      <acc value="0.3560577214" flag="0"/>
      <vel value="0.2438557562" flag="0"/>
      <psa03 value="0.6378820776" flag="0"/>
      <psa10 value="0.4342654770" flag="0"/>
      <psa30 value="0.0453077837" flag="0"/>
    </comp>
    <comp name="--.HNZ">
      <acc value="0.3497470388" flag="0"/>
      <vel value="0.2655984236" flag="0"/>
      <psa03 value="0.5529103595" flag="0"/>
      <psa10 value="0.4501038894" flag="0"/>
      <psa30 value="0.0669207403" flag="0"/>
    </comp>
  </station>
  <station code="KULA" name="KULA" netid="KO" insttype="CMG-3T" commtype="DIG" lat="38.5145" lon="28.6607">
    <comp name="--.HHE">
      <acc value="0.1925908291" flag="0"/>
      <vel value="0.0939671889" flag="0"/>
      <psa03 value="0.2971393688" flag="0"/>
      <psa10 value="0.0975964105" flag="0"/>
      <psa30 value="0.0097196993" flag="0"/>
    </comp>
    <comp name="--.HHN">
      <acc value="0.1709954960" flag="0"/>
      <vel value="0.0475282909" flag="0"/>
      <psa03 value="0.2959612809" flag="0"/>
      <psa10 value="0.0423148529" flag="0"/>
      <psa30 value="0.0059743089" flag="0"/>
    </comp>
    <comp name="--.HHZ">
      <acc value="0.1230439868" flag="0"/>
      <vel value="0.0678630249" flag="0"/>
      <psa03 value="0.2715145079" flag="0"/>
      <psa10 value="0.0519914895" flag="0"/>
      <psa30 value="0.0091680477" flag="0"/>
    </comp>
  </station>
  <station code="MDNY" name="MDNY" netid="KO" insttype="CMG-3ESP" commtype="DIG" lat="40.3709" lon="28.8846">
    <comp name="--.HHE">
      <acc value="0.5601746669" flag="0"/>
      <vel value="0.2066061772" flag="0"/>
      <psa03 value="2.2497087636" flag="0"/>
      <psa10 value="0.1398629117" flag="0"/>
      <psa30 value="0.0178045419" flag="0"/>
    </comp>
    <comp name="--.HHN">
      <acc value="0.4964416246" flag="0"/>
      <vel value="0.2872325998" flag="0"/>
      <psa03 value="1.6597225376" flag="0"/>
      <psa10 value="0.2227108741" flag="0"/>
      <psa30 value="0.0138605688" flag="0"/>
    </comp>
    <comp name="--.HHZ">
      <acc value="0.1611447665" flag="0"/>
      <vel value="0.0951288700" flag="0"/>
      <psa03 value="0.2534306732" flag="0"/>
      <psa10 value="0.1140853408" flag="0"/>
      <psa30 value="0.0217305955" flag="0"/>
    </comp>
  </station>
  <station code="NAZL" name="NAZL" netid="KO" insttype="CMG-5T" commtype="DIG" lat="37.9641" lon="28.2922">
    <comp name="--.HNE">
      <acc value="0.0761126635" flag="0"/>
      <vel value="0.0668196259" flag="0"/>
      <psa03 value="0.1837315794" flag="0"/>
      <psa10 value="0.1182667765" flag="0"/>
      <psa30 value="0.0102231547" flag="0"/>
    </comp>
    <comp name="--.HNZ">
      <acc value="0.0336383618" flag="0"/>
      <vel value="0.0268090209" flag="0"/>
      <psa03 value="0.0665674140" flag="0"/>
      <psa10 value="0.0335188167" flag="0"/>
      <psa30 value="0.0043751140" flag="0"/>
    </comp>
    <comp name="--.HNN">
      <acc value="0.0734293038" flag="0"/>
      <vel value="0.0518476800" flag="0"/>
      <psa03 value="0.2244117527" flag="0"/>
      <psa10 value="0.0619936447" flag="0"/>
      <psa30 value="0.0041073586" flag="0"/>
    </comp>
  </station>
  <station code="ORLT" name="ORLT" netid="KO" insttype="CMG-5T" commtype="DIG" lat="40.0452" lon="28.8914">
    <comp name="--.HNE">
      <acc value="0.2864220666" flag="0"/>
      <vel value="0.2214865994" flag="0"/>
      <psa03 value="1.5025187751" flag="0"/>
      <psa10 value="0.3133749190" flag="0"/>
      <psa30 value="0.0186900163" flag="0"/>
    </comp>
    <comp name="--.HNN">
      <acc value="0.3581488412" flag="0"/>
      <vel value="0.2304694020" flag="0"/>
      <psa03 value="1.3653519372" flag="0"/>
      <psa10 value="0.5072468549" flag="0"/>
      <psa30 value="0.0193622441" flag="0"/>
    </comp>
    <comp name="--.HNZ">
      <acc value="0.1494908516" flag="0"/>
      <vel value="0.1731505508" flag="0"/>
      <psa03 value="0.6370245529" flag="0"/>
      <psa10 value="0.3166336441" flag="0"/>
      <psa30 value="0.0145042791" flag="0"/>
    </comp>
  </station>
  <station code="SHAP" name="SHAP" netid="KO" insttype="CMG-5T" commtype="DIG" lat="39.0231" lon="29.222">
    <comp name="--.HNN">
      <acc value="0.3838302161" flag="0"/>
      <vel value="0.1157956284" flag="0"/>
      <psa03 value="0.7581431636" flag="0"/>
      <psa10 value="0.0641477559" flag="0"/>
      <psa30 value="0.0067171816" flag="0"/>
    </comp>
    <comp name="--.HNE">
      <acc value="0.4075743725" flag="0"/>
      <vel value="0.1313681230" flag="0"/>
      <psa03 value="0.9988452002" flag="0"/>
      <psa10 value="0.0445973098" flag="0"/>
      <psa30 value="0.0062920175" flag="0"/>
    </comp>
    <comp name="--.HNZ">
      <acc value="0.2060076526" flag="0"/>
      <vel value="0.0437339997" flag="0"/>
      <psa03 value="0.1840367620" flag="0"/>
      <psa10 value="0.0232697270" flag="0"/>
      <psa30 value="0.0046057928" flag="0"/>
    </comp>
  </station>
  <station code="SIMA" name="SIMA" netid="KO" insttype="CMG-6T" commtype="DIG" lat="39.0833" lon="28.9825">
    <comp name="--.HHE">
      <acc value="0.4108877702" flag="0"/>
      <vel value="0.1126699614" flag="0"/>
      <psa03 value="0.9396521728" flag="0"/>
      <psa10 value="0.0408028605" flag="0"/>
      <psa30 value="0.0082476008" flag="0"/>
    </comp>
    <comp name="--.HHN">
      <acc value="0.4299131394" flag="0"/>
      <vel value="0.0978340015" flag="0"/>
      <psa03 value="0.9371538384" flag="0"/>
      <psa10 value="0.0490658924" flag="0"/>
      <psa30 value="0.0115259860" flag="0"/>
    </comp>
    <comp name="--.HHZ">
      <acc value="0.3225251568" flag="0"/>
      <vel value="0.0629302447" flag="0"/>
      <psa03 value="0.4666922437" flag="0"/>
      <psa10 value="0.0289676167" flag="0"/>
      <psa30 value="0.0050074818" flag="0"/>
    </comp>
  </station>
  <station code="SMAA" name="SMAA" netid="KO" insttype="CMG-5T" commtype="DIG" lat="39.1005" lon="28.9805">
    <comp name="--.HNE">
      <acc value="0.3816992603" flag="0"/>
      <vel value="0.1972044179" flag="0"/>
      <psa03 value="0.9906264224" flag="0"/>
      <psa10 value="0.2917387899" flag="0"/>
      <psa30 value="0.0398302572" flag="0"/>
    </comp>
    <comp name="--.HNN">
      <acc value="0.3048457098" flag="0"/>
      <vel value="0.1746141349" flag="0"/>
      <psa03 value="1.0273170453" flag="0"/>
      <psa10 value="0.2754375911" flag="0"/>
      <psa30 value="0.0223678959" flag="0"/>
    </comp>
    <comp name="--.HNZ">
      <acc value="0.1677303355" flag="0"/>
      <vel value="0.0708852025" flag="0"/>
      <psa03 value="0.1994315741" flag="0"/>
      <psa10 value="0.1535770370" flag="0"/>
      <psa30 value="0.0075365835" flag="0"/>
    </comp>
  </station>
  <station code="SOMA" name="SOMA" netid="KO" insttype="CMG-5T" commtype="DIG" lat="39.1564" lon="27.5341">
