<?xml version="1.0" encoding="UTF-8" standalone="yes"?>
<!DOCTYPE earthquake SYSTEM "stationlist.dtd">
<stationlist created="" xmlns="ch.ethz.sed.shakemap.usgs.xml">
  <station code="FX11" name="FX11" netid="1J" insttype="" lat="38.1019" lon="15.4868">
    <comp name="--.HHE">
      <acc value="0.0142480919" flag="0"/>
      <vel value="0.0121114589" flag="0"/>
      <psa03 value="0.0307532158" flag="0"/>
      <psa10 value="0.0183610051" flag="0"/>
      <psa30 value="0.0009414664" flag="0"/>
    </comp>
    <comp name="--.HHN">
      <acc value="0.0163026898" flag="0"/>
      <vel value="0.0094428440" flag="0"/>
      <psa03 value="0.0450520904" flag="0"/>
      <psa10 value="0.0103626223" flag="0"/>
      <psa30 value="0.0007186099" flag="0"/>
    </comp>
    <comp name="--.HHZ">
      <acc value="0.0100979364" flag="0"/>
      <vel value="0.0060928658" flag="0"/>
      <psa03 value="0.0197566811" flag="0"/>
      <psa10 value="0.0145222433" flag="0"/>
      <psa30 value="0.0007459168" flag="0"/>
    </comp>
  </station>
  <station code="OEM4" name="OEM4" netid="3D" insttype="" lat="38.4095" lon="14.9422">
    <comp name="--.HHE">
      <acc value="0.1627906738" flag="0"/>
      <vel value="0.0709751277" flag="0"/>
      <psa03 value="0.3087001401" flag="0"/>
      <psa10 value="0.0758123060" flag="0"/>
      <psa30 value="0.0119339888" flag="0"/>
    </comp>
    <comp name="--.HHN">
      <acc value="0.1549446475" flag="0"/>
      <vel value="0.0593996274" flag="0"/>
      <psa03 value="0.2545989051" flag="0"/>
      <psa10 value="0.0626328736" flag="0"/>
      <psa30 value="0.0090779582" flag="0"/>
    </comp>
    <comp name="--.HHZ">
      <acc value="0.0730493849" flag="0"/>
      <vel value="0.0238650663" flag="0"/>
      <psa03 value="0.1407464778" flag="0"/>
      <psa10 value="0.0278737806" flag="0"/>
      <psa30 value="0.0056429687" flag="0"/>
    </comp>
  </station>
  <station code="OEM5" name="OEM5" netid="3D" insttype="" lat="38.4223" lon="14.9661">
    <comp name="--.HHE">
      <acc value="0.0281470161" flag="0"/>
      <vel value="0.0372369007" flag="0"/>
      <psa03 value="0.0725187584" flag="0"/>
      <psa10 value="0.0458591300" flag="0"/>
      <psa30 value="0.0083307003" flag="0"/>
    </comp>
    <comp name="--.HHN">
      <acc value="0.0363317298" flag="0"/>
      <vel value="0.0346501756" flag="0"/>
      <psa03 value="0.0874338499" flag="0"/>
      <psa10 value="0.0594628335" flag="0"/>
      <psa30 value="0.0079952196" flag="0"/>
    </comp>
    <comp name="--.HHZ">
      <acc value="0.0224813459" flag="0"/>
      <vel value="0.0199876347" flag="0"/>
      <psa03 value="0.0477567559" flag="0"/>
      <psa10 value="0.0328574259" flag="0"/>
      <psa30 value="0.0036268755" flag="0"/>
    </comp>
  </station>
  <station code="OEM9" name="OEM9" netid="3D" insttype="" lat="38.3879" lon="14.9908">
    <comp name="--.HHN">
      <acc value="0.0162514283" flag="0"/>
      <vel value="0.0170630163" flag="0"/>
      <psa03 value="0.0373988876" flag="0"/>
      <psa10 value="0.0171419822" flag="0"/>
      <psa30 value="0.0033084396" flag="0"/>
    </comp>
    <comp name="--.HHE">
      <acc value="0.0199123095" flag="0"/>
      <vel value="0.0181017363" flag="0"/>
      <psa03 value="0.0613949694" flag="0"/>
      <psa10 value="0.0378222434" flag="0"/>
      <psa30 value="0.0035788208" flag="0"/>
    </comp>
    <comp name="--.HHZ">
      <acc value="0.0091864852" flag="0"/>
      <vel value="0.0075852708" flag="0"/>
      <psa03 value="0.0205833970" flag="0"/>
      <psa10 value="0.0090386685" flag="0"/>
      <psa30 value="0.0018162377" flag="0"/>
    </comp>
  </station>
  <station code="AIO" name="AIO" netid="IV" insttype="" lat="37.9712" lon="15.233">
    <comp name="--.HHE">
      <acc value="0.0120617238" flag="0"/>
      <vel value="0.0057442262" flag="0"/>
      <psa03 value="0.0374481772" flag="0"/>
      <psa10 value="0.0112532209" flag="0"/>
      <psa30 value="0.0018680199" flag="0"/>
    </comp>
    <comp name="--.HHN">
      <acc value="0.0145233460" flag="0"/>
      <vel value="0.0074509219" flag="0"/>
      <psa03 value="0.0356837417" flag="0"/>
      <psa10 value="0.0100601939" flag="0"/>
      <psa30 value="0.0016794320" flag="0"/>
    </comp>
    <comp name="--.HHZ">
      <acc value="0.0058903392" flag="0"/>
      <vel value="0.0049709285" flag="0"/>
      <psa03 value="0.0218289419" flag="0"/>
      <psa10 value="0.0103139466" flag="0"/>
      <psa30 value="0.0020435117" flag="0"/>
    </comp>
  </station>
  <station code="ALJA" name="ALJA" netid="IV" insttype="" lat="37.749" lon="13.7537">
    <comp name="--.HHE">
      <acc value="0.0448720919" flag="0"/>
      <vel value="0.0386039251" flag="0"/>
      <psa03 value="0.0986974373" flag="0"/>
      <psa10 value="0.0924672436" flag="0"/>
      <psa30 value="0.0060615984" flag="0"/>
    </comp>
    <comp name="--.HHN">
      <acc value="0.0230337536" flag="0"/>
      <vel value="0.0277761837" flag="0"/>
      <psa03 value="0.0525361271" flag="0"/>
      <psa10 value="0.0628968273" flag="0"/>
      <psa30 value="0.0036191385" flag="0"/>
    </comp>
    <comp name="--.HHZ">
      <acc value="0.0224290213" flag="0"/>
      <vel value="0.0296146732" flag="0"/>
      <psa03 value="0.0744631061" flag="0"/>
      <psa10 value="0.0687027148" flag="0"/>
      <psa30 value="0.0036302085" flag="0"/>
    </comp>
  </station>
  <station code="CIMI" name="CIMI" netid="IV" insttype="" lat="37.8815" lon="13.5726">
    <comp name="--.HHZ">
      <acc value="0.0261215070" flag="0"/>
      <vel value="0.0161765218" flag="0"/>
      <psa03 value="0.0768777240" flag="0"/>
      <psa10 value="0.0184067633" flag="0"/>
      <psa30 value="0.0042198256" flag="0"/>
    </comp>
    <comp name="--.HHN">
      <acc value="0.0293061954" flag="0"/>
      <vel value="0.0328992845" flag="0"/>
      <psa03 value="0.0634481697" flag="0"/>
      <psa10 value="0.0515013948" flag="0"/>
      <psa30 value="0.0044485713" flag="0"/>
    </comp>
    <comp name="--.HHE">
      <acc value="0.0414240656" flag="0"/>
      <vel value="0.0446673848" flag="0"/>
      <psa03 value="0.0586981594" flag="0"/>
      <psa10 value="0.0528793312" flag="0"/>
      <psa30 value="0.0048526440" flag="0"/>
    </comp>
  </station>
  <station code="CMDO" name="CMDO" netid="IV" insttype="" lat="37.4639" lon="13.8229">
    <comp name="--.HHE">
      <acc value="0.0053136804" flag="0"/>
      <vel value="0.0126725741" flag="0"/>
      <psa03 value="0.0086415745" flag="0"/>
      <psa10 value="0.0138519920" flag="0"/>
      <psa30 value="0.0058589205" flag="0"/>
    </comp>
    <comp name="--.HHN">
      <acc value="0.0046937047" flag="0"/>
      <vel value="0.0079029933" flag="0"/>
      <psa03 value="0.0077465963" flag="0"/>
      <psa10 value="0.0179533679" flag="0"/>
      <psa30 value="0.0032717161" flag="0"/>
    </comp>
    <comp name="--.HHZ">
      <acc value="0.0027630753" flag="0"/>
      <vel value="0.0058472044" flag="0"/>
      <psa03 value="0.0043189516" flag="0"/>
      <psa10 value="0.0105634044" flag="0"/>
      <psa30 value="0.0033881658" flag="0"/>
    </comp>
  </station>
  <station code="CORL" name="CORL" netid="IV" insttype="" lat="37.8943" lon="13.3038">
    <comp name="--.HHE">
      <acc value="0.0148732293" flag="0"/>
      <vel value="0.0186579389" flag="0"/>
      <psa03 value="0.0612336710" flag="0"/>
      <psa10 value="0.0233410395" flag="0"/>
      <psa30 value="0.0030992784" flag="0"/>
    </comp>
    <comp name="--.HHN">
      <acc value="0.0116048138" flag="0"/>
      <vel value="0.0123229186" flag="0"/>
      <psa03 value="0.0496447030" flag="0"/>
      <psa10 value="0.0202632654" flag="0"/>
      <psa30 value="0.0031056772" flag="0"/>
    </comp>
    <comp name="--.HHZ">
      <acc value="0.0065042157" flag="0"/>
      <vel value="0.0085077559" flag="0"/>
      <psa03 value="0.0205272438" flag="0"/>
      <psa10 value="0.0156935568" flag="0"/>
      <psa30 value="0.0024548836" flag="0"/>
    </comp>
  </station>
  <station code="CPTP" name="CPTP" netid="IV" insttype="" lat="37.4075" lon="14.1625">
    <comp name="--.HHE">
      <acc value="0.0000000000" flag="0"/>
      <vel value="-100.0000000000" flag="0"/>
      <psa03 value="0.0000000000" flag="0"/>
      <psa10 value="0.0000000000" flag="0"/>
      <psa30 value="0.0000000000" flag="0"/>
    </comp>
    <comp name="--.HHN">
      <acc value="0.0055652482" flag="0"/>
      <vel value="0.0107793449" flag="0"/>
      <psa03 value="0.0134363393" flag="0"/>
      <psa10 value="0.0147140162" flag="0"/>
      <psa30 value="0.0055817485" flag="0"/>
    </comp>
    <comp name="--.HHZ">
      <acc value="0.0039187102" flag="0"/>
      <vel value="0.0063122772" flag="0"/>
      <psa03 value="0.0068543389" flag="0"/>
      <psa10 value="0.0080519603" flag="0"/>
      <psa30 value="0.0028030655" flag="0"/>
    </comp>
  </station>
  <station code="CRJA" name="CRJA" netid="IV" insttype="" lat="37.8016" lon="13.0043">
    <comp name="--.HHE">
      <acc value="0.0056042260" flag="0"/>
      <vel value="0.0122771178" flag="0"/>
      <psa03 value="0.0100487874" flag="0"/>
      <psa10 value="0.0170970855" flag="0"/>
      <psa30 value="0.0023959961" flag="0"/>
    </comp>
    <comp name="--.HHN">
      <acc value="0.0054341164" flag="0"/>
      <vel value="0.0065978128" flag="0"/>
      <psa03 value="0.0100545513" flag="0"/>
      <psa10 value="0.0151253065" flag="0"/>
      <psa30 value="0.0028779237" flag="0"/>
    </comp>
    <comp name="--.HHZ">
      <acc value="0.0062280187" flag="0"/>
      <vel value="0.0115697015" flag="0"/>
      <psa03 value="0.0086812850" flag="0"/>
      <psa10 value="0.0165302500" flag="0"/>
      <psa30 value="0.0023673102" flag="0"/>
    </comp>
  </station>
  <station code="CSLB" name="CSLB" netid="IV" insttype="" lat="37.9374" lon="14.0579">
    <comp name="--.HHE">
      <acc value="0.0254670267" flag="0"/>
      <vel value="0.0190560233" flag="0"/>
      <psa03 value="0.0838131573" flag="0"/>
      <psa10 value="0.0302048514" flag="0"/>
      <psa30 value="0.0033954356" flag="0"/>
    </comp>
    <comp name="--.HHZ">
      <acc value="0.0231944778" flag="0"/>
      <vel value="0.0141707239" flag="0"/>
      <psa03 value="0.0789697845" flag="0"/>
      <psa10 value="0.0262820955" flag="0"/>
      <psa30 value="0.0018933759" flag="0"/>
    </comp>
    <comp name="--.HHN">
      <acc value="0.0282605807" flag="0"/>
      <vel value="0.0227578872" flag="0"/>
      <psa03 value="0.0668091454" flag="0"/>
      <psa10 value="0.0440011366" flag="0"/>
      <psa30 value="0.0021033598" flag="0"/>
    </comp>
  </station>
  <station code="ECBD" name="ECBD" netid="IV" insttype="" lat="37.7802" lon="15.0865">
    <comp name="--.HHE">
      <acc value="0.0198456228" flag="0"/>
      <vel value="0.0200914693" flag="0"/>
      <psa03 value="0.0515800456" flag="0"/>
      <psa10 value="0.0381124406" flag="0"/>
      <psa30 value="0.0047519416" flag="0"/>
    </comp>
    <comp name="--.HHN">
      <acc value="0.0159309159" flag="0"/>
      <vel value="0.0172143264" flag="0"/>
      <psa03 value="0.0356760316" flag="0"/>
      <psa10 value="0.0286353107" flag="0"/>
      <psa30 value="0.0028988067" flag="0"/>
    </comp>
    <comp name="--.HHZ">
      <acc value="0.0096200385" flag="0"/>
      <vel value="0.0103404451" flag="0"/>
      <psa03 value="0.0357447554" flag="0"/>
      <psa10 value="0.0148129032" flag="0"/>
      <psa30 value="0.0022594736" flag="0"/>
    </comp>
  </station>
  <station code="ECHR" name="ECHR" netid="IV" insttype="" lat="37.6863" lon="14.9129">
    <comp name="--.HHE">
      <acc value="0.0159830230" flag="0"/>
      <vel value="0.0173360385" flag="0"/>
      <psa03 value="0.0357942373" flag="0"/>
      <psa10 value="0.0335897256" flag="0"/>
      <psa30 value="0.0045702155" flag="0"/>
    </comp>
    <comp name="--.HHN">
      <acc value="0.0146722732" flag="0"/>
      <vel value="0.0189471177" flag="0"/>
      <psa03 value="0.0379966102" flag="0"/>
      <psa10 value="0.0283914828" flag="0"/>
      <psa30 value="0.0075884026" flag="0"/>
    </comp>
    <comp name="--.HHZ">
      <acc value="0.0091779380" flag="0"/>
      <vel value="0.0108412342" flag="0"/>
      <psa03 value="0.0284624567" flag="0"/>
      <psa10 value="0.0103386195" flag="0"/>
      <psa30 value="0.0062792072" flag="0"/>
    </comp>
  </station>
  <station code="ECTS" name="ECTS" netid="IV" insttype="" lat="37.882" lon="15.121">
    <comp name="--.HHN">
      <acc value="0.0137228144" flag="0"/>
      <vel value="0.0106308179" flag="0"/>
      <psa03 value="0.0663825127" flag="0"/>
      <psa10 value="0.0143395456" flag="0"/>
      <psa30 value="0.0015716681" flag="0"/>
    </comp>
    <comp name="--.HHE">
      <acc value="0.0110758675" flag="0"/>
      <vel value="0.0118484278" flag="0"/>
      <psa03 value="0.0326127663" flag="0"/>
      <psa10 value="0.0154055815" flag="0"/>
      <psa30 value="0.0022407912" flag="0"/>
    </comp>
    <comp name="--.HHZ">
      <acc value="0.0069649493" flag="0"/>
      <vel value="0.0078950773" flag="0"/>
      <psa03 value="0.0208221118" flag="0"/>
      <psa10 value="0.0098422427" flag="0"/>
      <psa30 value="0.0019281485" flag="0"/>
    </comp>
  </station>
  <station code="ECZM" name="ECZM" netid="IV" insttype="" lat="37.7313" lon="14.9041">
    <comp name="--.HHE">
      <acc value="0.0177159307" flag="0"/>
      <vel value="0.0171787329" flag="0"/>
      <psa03 value="0.0619229210" flag="0"/>
      <psa10 value="0.0381284996" flag="0"/>
      <psa30 value="0.0034158921" flag="0"/>
    </comp>
    <comp name="--.HHN">
      <acc value="0.0226963485" flag="0"/>
      <vel value="0.0223409803" flag="0"/>
      <psa03 value="0.0581763394" flag="0"/>
      <psa10 value="0.0409333547" flag="0"/>
      <psa30 value="0.0089759083" flag="0"/>
    </comp>
    <comp name="--.HHZ">
      <acc value="0.0107950291" flag="0"/>
      <vel value="0.0116943840" flag="0"/>
      <psa03 value="0.0408827597" flag="0"/>
      <psa10 value="0.0147533482" flag="0"/>
      <psa30 value="0.0038665131" flag="0"/>
    </comp>
  </station>
  <station code="EFIU" name="EFIU" netid="IV" insttype="" lat="37.7896" lon="15.2103">
    <comp name="--.HHE">
      <acc value="0.0059193022" flag="0"/>
      <vel value="0.0170089852" flag="0"/>
      <psa03 value="0.0096980107" flag="0"/>
      <psa10 value="0.0141626517" flag="0"/>
      <psa30 value="0.0102550913" flag="0"/>
    </comp>
    <comp name="--.HHN">
      <acc value="0.0073523818" flag="0"/>
      <vel value="0.0127772312" flag="0"/>
      <psa03 value="0.0125419007" flag="0"/>
      <psa10 value="0.0208066494" flag="0"/>
      <psa30 value="0.0071178998" flag="0"/>
    </comp>
    <comp name="--.HHZ">
      <acc value="0.0054206803" flag="0"/>
      <vel value="0.0111342265" flag="0"/>
      <psa03 value="0.0115422814" flag="0"/>
      <psa10 value="0.0205877185" flag="0"/>
      <psa30 value="0.0028328571" flag="0"/>
    </comp>
  </station>
  <station code="EMAS" name="EMAS" netid="IV" insttype="" lat="37.5792" lon="15.0526">
    <comp name="--.HHE">
      <acc value="0.0211495101" flag="0"/>
      <vel value="0.0090943997" flag="0"/>
      <psa03 value="0.0198167022" flag="0"/>
      <psa10 value="0.0131601030" flag="0"/>
      <psa30 value="0.0044595111" flag="0"/>
    </comp>
    <comp name="--.HHN">
      <acc value="0.0104933194" flag="0"/>
      <vel value="0.0053537469" flag="0"/>
      <psa03 value="0.0168551266" flag="0"/>
      <psa10 value="0.0043955876" flag="0"/>
      <psa30 value="0.0016352425" flag="0"/>
    </comp>
    <comp name="--.HHZ">
      <acc value="0.0111353195" flag="0"/>
      <vel value="0.0056193515" flag="0"/>
      <psa03 value="0.0364831165" flag="0"/>
      <psa10 value="0.0096975858" flag="0"/>
      <psa30 value="0.0035832051" flag="0"/>
    </comp>
  </station>
  <station code="EMCN" name="EMCN" netid="IV" insttype="" lat="37.7912" lon="15.0336">
    <comp name="--.HHE">
      <acc value="0.0276370598" flag="0"/>
      <vel value="0.0198986900" flag="0"/>
      <psa03 value="0.0552690797" flag="0"/>
      <psa10 value="0.0576445321" flag="0"/>
      <psa30 value="0.0044687910" flag="0"/>
    </comp>
    <comp name="--.HHN">
      <acc value="0.0158798059" flag="0"/>
      <vel value="0.0239766399" flag="0"/>
      <psa03 value="0.0444189076" flag="0"/>
      <psa10 value="0.0378608439" flag="0"/>
      <psa30 value="0.0030923906" flag="0"/>
    </comp>
    <comp name="--.HHZ">
      <acc value="0.0165225227" flag="0"/>
      <vel value="0.0111990198" flag="0"/>
      <psa03 value="0.0558859172" flag="0"/>
      <psa10 value="0.0196968954" flag="0"/>
      <psa30 value="0.0018165379" flag="0"/>
    </comp>
  </station>
  <station code="EMFO" name="EMFO" netid="IV" insttype="" lat="37.7357" lon="15.0902">
    <comp name="--.HHE">
      <acc value="0.0169102420" flag="0"/>
      <vel value="0.0153574470" flag="0"/>
      <psa03 value="0.0526656232" flag="0"/>
      <psa10 value="0.0279831933" flag="0"/>
      <psa30 value="0.0032163390" flag="0"/>
    </comp>
    <comp name="--.HHN">
      <acc value="0.0232246568" flag="0"/>
      <vel value="0.0169835297" flag="0"/>
      <psa03 value="0.0517858500" flag="0"/>
      <psa10 value="0.0205378072" flag="0"/>
      <psa30 value="0.0027202930" flag="0"/>
    </comp>
    <comp name="--.HHZ">
      <acc value="0.0076347715" flag="0"/>
      <vel value="0.0077091924" flag="0"/>
      <psa03 value="0.0254178649" flag="0"/>
      <psa10 value="0.0106452874" flag="0"/>
      <psa30 value="0.0016326438" flag="0"/>
    </comp>
  </station>
  <station code="EMFS" name="EMFS" netid="IV" insttype="" lat="37.7196" lon="14.9979">
    <comp name="--.HHE">
      <acc value="0.0161674438" flag="0"/>
      <vel value="0.0165206940" flag="0"/>
      <psa03 value="0.0519293748" flag="0"/>
      <psa10 value="0.0341313632" flag="0"/>
      <psa30 value="0.0039978742" flag="0"/>
    </comp>
    <comp name="--.HHN">
      <acc value="0.0206367901" flag="0"/>
      <vel value="0.0203776673" flag="0"/>
      <psa03 value="0.0418351501" flag="0"/>
      <psa10 value="0.0339588521" flag="0"/>
      <psa30 value="0.0041471981" flag="0"/>
    </comp>
    <comp name="--.HHZ">
      <acc value="0.0074763307" flag="0"/>
      <vel value="0.0055362141" flag="0"/>
      <psa03 value="0.0229857148" flag="0"/>
      <psa10 value="0.0089263060" flag="0"/>
      <psa30 value="0.0009841922" flag="0"/>
    </comp>
  </station>
  <station code="EMNR" name="EMNR" netid="IV" insttype="" lat="37.8168" lon="15.026">
    <comp name="--.HHE">
      <acc value="0.0247436325" flag="0"/>
      <vel value="0.0288059880" flag="0"/>
      <psa03 value="0.0745959892" flag="0"/>
      <psa10 value="0.0372760819" flag="0"/>
      <psa30 value="0.0046866857" flag="0"/>
    </comp>
    <comp name="--.HHZ">
      <acc value="0.0136722214" flag="0"/>
      <vel value="0.0116954470" flag="0"/>
      <psa03 value="0.0455260466" flag="0"/>
      <psa10 value="0.0202684783" flag="0"/>
      <psa30 value="0.0021070321" flag="0"/>
    </comp>
    <comp name="--.HHN">
      <acc value="0.0324923535" flag="0"/>
      <vel value="0.0243684355" flag="0"/>
      <psa03 value="0.0864854340" flag="0"/>
      <psa10 value="0.0425309764" flag="0"/>
      <psa30 value="0.0040031097" flag="0"/>
    </comp>
  </station>
  <station code="EMPL" name="EMPL" netid="IV" insttype="" lat="37.679" lon="14.9703">
    <comp name="--.HHE">
      <acc value="0.0206024346" flag="0"/>
      <vel value="0.0155446636" flag="0"/>
      <psa03 value="0.0583632941" flag="0"/>
      <psa10 value="0.0269522081" flag="0"/>
      <psa30 value="0.0053046958" flag="0"/>
    </comp>
    <comp name="--.HHZ">
      <acc value="0.0139216794" flag="0"/>
      <vel value="0.0104762693" flag="0"/>
      <psa03 value="0.0442219300" flag="0"/>
      <psa10 value="0.0153501308" flag="0"/>
      <psa30 value="0.0034300523" flag="0"/>
    </comp>
