<?xml version="1.0" encoding="UTF-8" standalone="yes"?>
<!DOCTYPE earthquake SYSTEM "stationlist.dtd">
<stationlist created="" xmlns="ch.ethz.sed.shakemap.usgs.xml">
  <station code="OEM4" name="OEM4" netid="3D" insttype="" lat="38.4095" lon="14.9422">
    <comp name="--.HHE">
      <acc value="0.1627906875" flag="0"/>
      <vel value="0.0709751281" flag="0"/>
      <psa03 value="0.3087001401" flag="0"/>
      <psa10 value="0.0758123052" flag="0"/>
      <psa30 value="0.0119338686" flag="0"/>
    </comp>
    <comp name="--.HHZ">
      <acc value="0.0730493760" flag="0"/>
      <vel value="0.0238650665" flag="0"/>
      <psa03 value="0.1407464778" flag="0"/>
      <psa10 value="0.0278737806" flag="0"/>
      <psa30 value="0.0056429687" flag="0"/>
    </comp>
    <comp name="--.HHN">
      <acc value="0.1549446300" flag="0"/>
      <vel value="0.0593996293" flag="0"/>
      <psa03 value="0.2545989051" flag="0"/>
      <psa10 value="0.0626328721" flag="0"/>
      <psa30 value="0.0090781537" flag="0"/>
    </comp>
  </station>
  <station code="OEM5" name="OEM5" netid="3D" insttype="" lat="38.4223" lon="14.9661">
    <comp name="--.HHE">
      <acc value="0.0281470156" flag="0"/>
      <vel value="0.0372369126" flag="0"/>
      <psa03 value="0.0725187584" flag="0"/>
      <psa10 value="0.0458591301" flag="0"/>
      <psa30 value="0.0083305737" flag="0"/>
    </comp>
    <comp name="--.HHN">
      <acc value="0.0363317289" flag="0"/>
      <vel value="0.0346501714" flag="0"/>
      <psa03 value="0.0874338499" flag="0"/>
      <psa10 value="0.0594628335" flag="0"/>
      <psa30 value="0.0079951546" flag="0"/>
    </comp>
    <comp name="--.HHZ">
      <acc value="0.0224813455" flag="0"/>
      <vel value="0.0199876261" flag="0"/>
      <psa03 value="0.0477567558" flag="0"/>
      <psa10 value="0.0328574259" flag="0"/>
      <psa30 value="0.0036268941" flag="0"/>
    </comp>
  </station>
  <station code="OEM9" name="OEM9" netid="3D" insttype="" lat="38.3879" lon="14.9908">
    <comp name="--.HHN">
      <acc value="0.0162514281" flag="0"/>
      <vel value="0.0170630164" flag="0"/>
      <psa03 value="0.0373988876" flag="0"/>
      <psa10 value="0.0171419815" flag="0"/>
      <psa30 value="0.0033084357" flag="0"/>
    </comp>
    <comp name="--.HHE">
      <acc value="0.0199123113" flag="0"/>
      <vel value="0.0181017360" flag="0"/>
      <psa03 value="0.0613949694" flag="0"/>
      <psa10 value="0.0378222434" flag="0"/>
      <psa30 value="0.0035788228" flag="0"/>
    </comp>
    <comp name="--.HHZ">
      <acc value="0.0091864866" flag="0"/>
      <vel value="0.0075852706" flag="0"/>
      <psa03 value="0.0205833970" flag="0"/>
      <psa10 value="0.0090386690" flag="0"/>
      <psa30 value="0.0018162384" flag="0"/>
    </comp>
  </station>
  <station code="AIO" name="AIO" netid="IV" insttype="" lat="37.9712" lon="15.233">
    <comp name="--.HHE">
      <acc value="0.0120617239" flag="0"/>
      <vel value="0.0057442265" flag="0"/>
      <psa03 value="0.0374481772" flag="0"/>
      <psa10 value="0.0112532209" flag="0"/>
      <psa30 value="0.0018680192" flag="0"/>
    </comp>
    <comp name="--.HHN">
      <acc value="0.0145233462" flag="0"/>
      <vel value="0.0074509225" flag="0"/>
      <psa03 value="0.0356837417" flag="0"/>
      <psa10 value="0.0100601939" flag="0"/>
      <psa30 value="0.0016794295" flag="0"/>
    </comp>
    <comp name="--.HHZ">
      <acc value="0.0058903391" flag="0"/>
      <vel value="0.0049709268" flag="0"/>
      <psa03 value="0.0218289419" flag="0"/>
      <psa10 value="0.0103139466" flag="0"/>
      <psa30 value="0.0020435115" flag="0"/>
    </comp>
  </station>
  <station code="ALJA" name="ALJA" netid="IV" insttype="" lat="37.749" lon="13.7537">
    <comp name="--.HHZ">
      <acc value="0.0224290213" flag="0"/>
      <vel value="0.0296146745" flag="0"/>
      <psa03 value="0.0744631061" flag="0"/>
      <psa10 value="0.0687027148" flag="0"/>
      <psa30 value="0.0036302262" flag="0"/>
    </comp>
    <comp name="--.HHN">
      <acc value="0.0230337536" flag="0"/>
      <vel value="0.0277761825" flag="0"/>
      <psa03 value="0.0525361270" flag="0"/>
      <psa10 value="0.0628968273" flag="0"/>
      <psa30 value="0.0036191377" flag="0"/>
    </comp>
    <comp name="--.HHE">
      <acc value="0.0448720923" flag="0"/>
      <vel value="0.0386039266" flag="0"/>
      <psa03 value="0.0986974372" flag="0"/>
      <psa10 value="0.0924672436" flag="0"/>
      <psa30 value="0.0060616068" flag="0"/>
    </comp>
  </station>
  <station code="CIMI" name="CIMI" netid="IV" insttype="" lat="37.8815" lon="13.5726">
    <comp name="--.HHE">
      <acc value="0.0414240654" flag="0"/>
      <vel value="0.0446673840" flag="0"/>
      <psa03 value="0.0586981594" flag="0"/>
      <psa10 value="0.0528793312" flag="0"/>
      <psa30 value="0.0048526314" flag="0"/>
    </comp>
    <comp name="--.HHN">
      <acc value="0.0293061962" flag="0"/>
      <vel value="0.0328992849" flag="0"/>
      <psa03 value="0.0634481697" flag="0"/>
      <psa10 value="0.0515013948" flag="0"/>
      <psa30 value="0.0044485966" flag="0"/>
    </comp>
    <comp name="--.HHZ">
      <acc value="0.0261215071" flag="0"/>
      <vel value="0.0161765224" flag="0"/>
      <psa03 value="0.0768777240" flag="0"/>
      <psa10 value="0.0184067633" flag="0"/>
      <psa30 value="0.0042198180" flag="0"/>
    </comp>
  </station>
  <station code="CORL" name="CORL" netid="IV" insttype="" lat="37.8943" lon="13.3038">
    <comp name="--.HHE">
      <acc value="0.0148732301" flag="0"/>
      <vel value="0.0186579392" flag="0"/>
      <psa03 value="0.0612336710" flag="0"/>
      <psa10 value="0.0233410395" flag="0"/>
      <psa30 value="0.0030992596" flag="0"/>
    </comp>
    <comp name="--.HHN">
      <acc value="0.0116048128" flag="0"/>
      <vel value="0.0123229193" flag="0"/>
      <psa03 value="0.0496447030" flag="0"/>
      <psa10 value="0.0202632654" flag="0"/>
      <psa30 value="0.0031056801" flag="0"/>
    </comp>
    <comp name="--.HHZ">
      <acc value="0.0065042142" flag="0"/>
      <vel value="0.0085077563" flag="0"/>
      <psa03 value="0.0205272438" flag="0"/>
      <psa10 value="0.0156935568" flag="0"/>
      <psa30 value="0.0024535357" flag="0"/>
    </comp>
  </station>
  <station code="CSLB" name="CSLB" netid="IV" insttype="" lat="37.9374" lon="14.0579">
    <comp name="--.HHE">
      <acc value="0.0254670273" flag="0"/>
      <vel value="0.0190560235" flag="0"/>
      <psa03 value="0.0838131573" flag="0"/>
      <psa10 value="0.0302048515" flag="0"/>
      <psa30 value="0.0033954222" flag="0"/>
    </comp>
    <comp name="--.HHN">
      <acc value="0.0282605812" flag="0"/>
      <vel value="0.0227578875" flag="0"/>
      <psa03 value="0.0668091454" flag="0"/>
      <psa10 value="0.0440011365" flag="0"/>
      <psa30 value="0.0021033603" flag="0"/>
    </comp>
    <comp name="--.HHZ">
      <acc value="0.0231944783" flag="0"/>
      <vel value="0.0141707244" flag="0"/>
      <psa03 value="0.0789697845" flag="0"/>
      <psa10 value="0.0262820955" flag="0"/>
      <psa30 value="0.0018934598" flag="0"/>
    </comp>
  </station>
  <station code="ECBD" name="ECBD" netid="IV" insttype="" lat="37.7802" lon="15.0865">
    <comp name="--.HHE">
      <acc value="0.0198456225" flag="0"/>
      <vel value="0.0200914694" flag="0"/>
      <psa03 value="0.0515800456" flag="0"/>
      <psa10 value="0.0381124406" flag="0"/>
      <psa30 value="0.0047519412" flag="0"/>
    </comp>
    <comp name="--.HHN">
      <acc value="0.0159309171" flag="0"/>
      <vel value="0.0172143293" flag="0"/>
      <psa03 value="0.0356760316" flag="0"/>
      <psa10 value="0.0286353107" flag="0"/>
      <psa30 value="0.0028988056" flag="0"/>
    </comp>
    <comp name="--.HHZ">
      <acc value="0.0096200385" flag="0"/>
      <vel value="0.0103404531" flag="0"/>
      <psa03 value="0.0357447554" flag="0"/>
      <psa10 value="0.0148129032" flag="0"/>
      <psa30 value="0.0022594726" flag="0"/>
    </comp>
  </station>
  <station code="ECHR" name="ECHR" netid="IV" insttype="" lat="37.6863" lon="14.9129">
    <comp name="--.HHE">
      <acc value="0.0159830223" flag="0"/>
      <vel value="0.0173360415" flag="0"/>
      <psa03 value="0.0357942373" flag="0"/>
      <psa10 value="0.0335897256" flag="0"/>
      <psa30 value="0.0039435151" flag="0"/>
    </comp>
    <comp name="--.HHZ">
      <acc value="0.0091779380" flag="0"/>
      <vel value="0.0108412295" flag="0"/>
      <psa03 value="0.0284624567" flag="0"/>
      <psa10 value="0.0103386195" flag="0"/>
      <psa30 value="0.0062792055" flag="0"/>
    </comp>
    <comp name="--.HHN">
      <acc value="0.0146722732" flag="0"/>
      <vel value="0.0189471201" flag="0"/>
      <psa03 value="0.0379966102" flag="0"/>
      <psa10 value="0.0283914828" flag="0"/>
      <psa30 value="0.0075883956" flag="0"/>
    </comp>
  </station>
  <station code="ECTS" name="ECTS" netid="IV" insttype="" lat="37.882" lon="15.121">
    <comp name="--.HHE">
      <acc value="0.0110758673" flag="0"/>
      <vel value="0.0118484260" flag="0"/>
      <psa03 value="0.0326127663" flag="0"/>
      <psa10 value="0.0154055815" flag="0"/>
      <psa30 value="0.0022407931" flag="0"/>
    </comp>
    <comp name="--.HHN">
      <acc value="0.0137228142" flag="0"/>
      <vel value="0.0106308150" flag="0"/>
      <psa03 value="0.0663825127" flag="0"/>
      <psa10 value="0.0143395456" flag="0"/>
      <psa30 value="0.0015716666" flag="0"/>
    </comp>
    <comp name="--.HHZ">
      <acc value="0.0069649491" flag="0"/>
      <vel value="0.0078950774" flag="0"/>
      <psa03 value="0.0208221118" flag="0"/>
      <psa10 value="0.0098422427" flag="0"/>
      <psa30 value="0.0019281504" flag="0"/>
    </comp>
  </station>
  <station code="ECZM" name="ECZM" netid="IV" insttype="" lat="37.7313" lon="14.9041">
    <comp name="--.HHE">
      <acc value="0.0177159297" flag="0"/>
      <vel value="0.0171787285" flag="0"/>
      <psa03 value="0.0619229210" flag="0"/>
      <psa10 value="0.0381284997" flag="0"/>
      <psa30 value="0.0034158814" flag="0"/>
    </comp>
    <comp name="--.HHN">
      <acc value="0.0226963469" flag="0"/>
      <vel value="0.0223409564" flag="0"/>
      <psa03 value="0.0581763394" flag="0"/>
      <psa10 value="0.0409333547" flag="0"/>
      <psa30 value="0.0089758783" flag="0"/>
    </comp>
    <comp name="--.HHZ">
      <acc value="0.0107950297" flag="0"/>
      <vel value="0.0116943950" flag="0"/>
      <psa03 value="0.0408827597" flag="0"/>
      <psa10 value="0.0147533468" flag="0"/>
      <psa30 value="0.0038672813" flag="0"/>
    </comp>
  </station>
  <station code="EMCN" name="EMCN" netid="IV" insttype="" lat="37.7912" lon="15.0336">
    <comp name="--.HHE">
      <acc value="0.0276370591" flag="0"/>
      <vel value="0.0198987028" flag="0"/>
      <psa03 value="0.0552690797" flag="0"/>
      <psa10 value="0.0576445321" flag="0"/>
      <psa30 value="0.0044688188" flag="0"/>
    </comp>
    <comp name="--.HHN">
      <acc value="0.0158798057" flag="0"/>
      <vel value="0.0239766589" flag="0"/>
      <psa03 value="0.0444189076" flag="0"/>
      <psa10 value="0.0378608438" flag="0"/>
      <psa30 value="0.0030923981" flag="0"/>
    </comp>
    <comp name="--.HHZ">
      <acc value="0.0165225227" flag="0"/>
      <vel value="0.0111990442" flag="0"/>
      <psa03 value="0.0558859173" flag="0"/>
      <psa10 value="0.0196968954" flag="0"/>
      <psa30 value="0.0018165278" flag="0"/>
    </comp>
  </station>
  <station code="EMNR" name="EMNR" netid="IV" insttype="" lat="37.8168" lon="15.026">
    <comp name="--.HHE">
      <acc value="0.0247436327" flag="0"/>
      <vel value="0.0288059774" flag="0"/>
      <psa03 value="0.0745959892" flag="0"/>
      <psa10 value="0.0372760819" flag="0"/>
      <psa30 value="0.0046873448" flag="0"/>
    </comp>
    <comp name="--.HHN">
      <acc value="0.0324923536" flag="0"/>
      <vel value="0.0243684379" flag="0"/>
      <psa03 value="0.0864854340" flag="0"/>
      <psa10 value="0.0425309764" flag="0"/>
      <psa30 value="0.0040031203" flag="0"/>
    </comp>
    <comp name="--.HHZ">
      <acc value="0.0136722214" flag="0"/>
      <vel value="0.0116954463" flag="0"/>
      <psa03 value="0.0455260466" flag="0"/>
      <psa10 value="0.0202684784" flag="0"/>
      <psa30 value="0.0021070352" flag="0"/>
    </comp>
  </station>
  <station code="EMSG" name="EMSG" netid="IV" insttype="" lat="37.8208" lon="14.9498">
    <comp name="--.HHE">
      <acc value="0.0303848390" flag="0"/>
      <vel value="0.0316507027" flag="0"/>
      <psa03 value="0.0814681037" flag="0"/>
      <psa10 value="0.0529014649" flag="0"/>
      <psa30 value="0.0039019992" flag="0"/>
    </comp>
    <comp name="--.HHN">
      <acc value="0.0245958281" flag="0"/>
      <vel value="0.0218388123" flag="0"/>
      <psa03 value="0.0784008244" flag="0"/>
      <psa10 value="0.0423036483" flag="0"/>
      <psa30 value="0.0031529028" flag="0"/>
    </comp>
    <comp name="--.HHZ">
      <acc value="0.0176592457" flag="0"/>
      <vel value="0.0120859486" flag="0"/>
      <psa03 value="0.0470394580" flag="0"/>
      <psa10 value="0.0198765639" flag="0"/>
      <psa30 value="0.0025695200" flag="0"/>
    </comp>
  </station>
  <station code="EPIT" name="EPIT" netid="IV" insttype="" lat="37.8113" lon="15.0567">
    <comp name="--.HHE">
      <acc value="0.0214164460" flag="0"/>
      <vel value="0.0202711455" flag="0"/>
      <psa03 value="0.0709068216" flag="0"/>
      <psa10 value="0.0265845484" flag="0"/>
      <psa30 value="0.0043140649" flag="0"/>
    </comp>
    <comp name="--.HHN">
      <acc value="0.0278232405" flag="0"/>
      <vel value="0.0234157918" flag="0"/>
      <psa03 value="0.1186666635" flag="0"/>
      <psa10 value="0.0448328395" flag="0"/>
      <psa30 value="0.0041264421" flag="0"/>
    </comp>
    <comp name="--.HHZ">
      <acc value="0.0198530527" flag="0"/>
      <vel value="0.0166455389" flag="0"/>
      <psa03 value="0.0655743133" flag="0"/>
      <psa10 value="0.0314881738" flag="0"/>
      <psa30 value="0.0031764340" flag="0"/>
    </comp>
  </station>
  <station code="EPZF" name="EPZF" netid="IV" insttype="" lat="37.824" lon="14.857">
    <comp name="--.HHE">
      <acc value="0.0195457328" flag="0"/>
      <vel value="0.0168995196" flag="0"/>
      <psa03 value="0.0585914616" flag="0"/>
      <psa10 value="0.0259271653" flag="0"/>
      <psa30 value="0.0039866718" flag="0"/>
    </comp>
    <comp name="--.HHN">
      <acc value="0.0216598313" flag="0"/>
      <vel value="0.0185616236" flag="0"/>
      <psa03 value="0.1050934952" flag="0"/>
      <psa10 value="0.0377841939" flag="0"/>
      <psa30 value="0.0032904626" flag="0"/>
    </comp>
    <comp name="--.HHZ">
      <acc value="0.0085441975" flag="0"/>
      <vel value="0.0102386857" flag="0"/>
      <psa03 value="0.0279604437" flag="0"/>
      <psa10 value="0.0199037059" flag="0"/>
      <psa30 value="0.0044077132" flag="0"/>
    </comp>
  </station>
  <station code="ESCV" name="ESCV" netid="IV" insttype="" lat="37.747" lon="14.8152">
    <comp name="--.HHE">
      <acc value="0.0220980962" flag="0"/>
      <vel value="0.0148734608" flag="0"/>
      <psa03 value="0.0507456665" flag="0"/>
      <psa10 value="0.0226016202" flag="0"/>
      <psa30 value="0.0021207791" flag="0"/>
    </comp>
    <comp name="--.HHN">
      <acc value="0.0212518690" flag="0"/>
      <vel value="0.0179656758" flag="0"/>
      <psa03 value="0.0724075542" flag="0"/>
      <psa10 value="0.0298520818" flag="0"/>
      <psa30 value="0.0032789688" flag="0"/>
    </comp>
    <comp name="--.HHZ">
      <acc value="0.0109495588" flag="0"/>
      <vel value="0.0084937170" flag="0"/>
      <psa03 value="0.0302824072" flag="0"/>
      <psa10 value="0.0160926972" flag="0"/>
      <psa30 value="0.0037548750" flag="0"/>
    </comp>
  </station>
  <station code="ESVO" name="ESVO" netid="IV" insttype="" lat="37.7731" lon="14.9469">
    <comp name="--.HHE">
      <acc value="0.0227282962" flag="0"/>
      <vel value="0.0305215894" flag="0"/>
      <psa03 value="0.0664675482" flag="0"/>
      <psa10 value="0.0546521786" flag="0"/>
      <psa30 value="0.0067660711" flag="0"/>
    </comp>
    <comp name="--.HHN">
      <acc value="0.0268711875" flag="0"/>
      <vel value="0.0310643077" flag="0"/>
      <psa03 value="0.0705740128" flag="0"/>
      <psa10 value="0.0446276108" flag="0"/>
      <psa30 value="0.0068639761" flag="0"/>
    </comp>
    <comp name="--.HHZ">
      <acc value="0.0113034176" flag="0"/>
      <vel value="0.0121617524" flag="0"/>
      <psa03 value="0.0346178425" flag="0"/>
      <psa10 value="0.0172563667" flag="0"/>
      <psa30 value="0.0033654888" flag="0"/>
    </comp>
  </station>
  <station code="GALF" name="GALF" netid="IV" insttype="" lat="37.7107" lon="14.5665">
    <comp name="--.HHE">
      <acc value="0.0308991958" flag="0"/>
      <vel value="0.0289242476" flag="0"/>
      <psa03 value="0.0796169314" flag="0"/>
      <psa10 value="0.0460217087" flag="0"/>
      <psa30 value="0.0038150512" flag="0"/>
    </comp>
    <comp name="--.HHN">
      <acc value="0.0320996225" flag="0"/>
      <vel value="0.0326506458" flag="0"/>
      <psa03 value="0.0940909073" flag="0"/>
      <psa10 value="0.0613240503" flag="0"/>
      <psa30 value="0.0033531083" flag="0"/>
    </comp>
    <comp name="--.HHZ">
      <acc value="0.0228788827" flag="0"/>
      <vel value="0.0156880523" flag="0"/>
      <psa03 value="0.0542486399" flag="0"/>
      <psa10 value="0.0207618658" flag="0"/>
      <psa30 value="0.0032183650" flag="0"/>
    </comp>
  </station>
  <station code="GIB" name="GIB" netid="IV" insttype="" lat="37.9901" lon="14.026">
    <comp name="--.HHE">
      <acc value="0.0686640229" flag="0"/>
      <vel value="0.0557535303" flag="0"/>
      <psa03 value="0.2868355163" flag="0"/>
      <psa10 value="0.1110088542" flag="0"/>
      <psa30 value="0.0093923843" flag="0"/>
    </comp>
    <comp name="--.HHN">
      <acc value="0.1013287846" flag="0"/>
      <vel value="0.0618371140" flag="0"/>
      <psa03 value="0.3826965720" flag="0"/>
      <psa10 value="0.0577793787" flag="0"/>
      <psa30 value="0.0069211801" flag="0"/>
    </comp>
    <comp name="--.HHZ">
      <acc value="0.0405437537" flag="0"/>
      <vel value="0.0277969254" flag="0"/>
      <psa03 value="0.1476263265" flag="0"/>
      <psa10 value="0.0377694865" flag="0"/>
      <psa30 value="0.0036888165" flag="0"/>
    </comp>
  </station>
  <station code="IFIL" name="IFIL" netid="IV" insttype="" lat="38.5642" lon="14.5753">
    <comp name="--.HHN">
      <acc value="0.3240769211" flag="0"/>
      <vel value="0.1148527091" flag="0"/>
      <psa03 value="0.3429093700" flag="0"/>
      <psa10 value="0.0838699991" flag="0"/>
      <psa30 value="0.0227595638" flag="0"/>
    </comp>
    <comp name="--.HHE">
      <acc value="1.0396686738" flag="0"/>
      <vel value="0.2918294893" flag="0"/>
      <psa03 value="1.1890001145" flag="0"/>
      <psa10 value="0.2635311063" flag="0"/>
      <psa30 value="0.0377120591" flag="0"/>
    </comp>
    <comp name="--.HHZ">
      <acc value="0.4751575733" flag="0"/>
      <vel value="0.1611017044" flag="0"/>
      <psa03 value="0.6874211056" flag="0"/>
      <psa10 value="0.1054933728" flag="0"/>
      <psa30 value="0.0213971314" flag="0"/>
    </comp>
  </station>
  <station code="ILOS" name="ILOS" netid="IV" insttype="" lat="38.4457" lon="14.9483">
    <comp name="--.HHE">
      <acc value="0.0430794066" flag="0"/>
      <vel value="0.0309187273" flag="0"/>
      <psa03 value="0.1608795512" flag="0"/>
      <psa10 value="0.0524850866" flag="0"/>
      <psa30 value="0.0076127335" flag="0"/>
    </comp>
    <comp name="--.HHN">
      <acc value="0.0596601852" flag="0"/>
      <vel value="0.0556051938" flag="0"/>
      <psa03 value="0.1633652762" flag="0"/>
      <psa10 value="0.0625372926" flag="0"/>
      <psa30 value="0.0053228928" flag="0"/>
    </comp>
