<?xml version="1.0" encoding="UTF-8" standalone="yes"?>
<!DOCTYPE earthquake SYSTEM "stationlist.dtd">
<stationlist created="" xmlns="ch.ethz.sed.shakemap.usgs.xml">
  <station code="KTHR" name="KTHR" netid="HC" insttype="120s" lat="36.2447" lon="22.9939">
    <comp name="--.HHE">
      <acc value="0.0093871935" flag="0"/>
      <vel value="0.0050724493" flag="0"/>
      <psa03 value="0.0370882241" flag="0"/>
      <psa10 value="0.0054895711" flag="0"/>
      <psa30 value="0.0007414332" flag="0"/>
    </comp>
    <comp name="--.HHZ">
      <acc value="0.0056964898" flag="0"/>
      <vel value="0.0028119892" flag="0"/>
      <psa03 value="0.0215625371" flag="0"/>
      <psa10 value="0.0032039089" flag="0"/>
      <psa30 value="0.0002832379" flag="0"/>
    </comp>
    <comp name="--.HHN">
      <acc value="0.0138177237" flag="0"/>
      <vel value="0.0076208057" flag="0"/>
      <psa03 value="0.0563016820" flag="0"/>
      <psa10 value="0.0066104521" flag="0"/>
      <psa30 value="0.0004847280" flag="0"/>
    </comp>
  </station>
  <station code="ANKY" name="ANKY" netid="HL" insttype="60" lat="35.867" lon="23.3012">
    <comp name="--.HHE">
      <acc value="0.0033491688" flag="0"/>
      <vel value="0.0042453700" flag="0"/>
      <psa03 value="0.0074028328" flag="0"/>
      <psa10 value="0.0107259603" flag="0"/>
      <psa30 value="0.0005672097" flag="0"/>
    </comp>
    <comp name="--.HHN">
      <acc value="0.0035106550" flag="0"/>
      <vel value="0.0043347232" flag="0"/>
      <psa03 value="0.0084103754" flag="0"/>
      <psa10 value="0.0043356422" flag="0"/>
      <psa30 value="0.0005838232" flag="0"/>
    </comp>
    <comp name="--.HHZ">
      <acc value="0.0020322091" flag="0"/>
      <vel value="0.0019977463" flag="0"/>
      <psa03 value="0.0060130450" flag="0"/>
      <psa10 value="0.0025312887" flag="0"/>
      <psa30 value="0.0004394708" flag="0"/>
    </comp>
  </station>
</stationlist>
