<?xml version="1.0" encoding="UTF-8" standalone="yes"?>
<!DOCTYPE earthquake SYSTEM "stationlist.dtd">
<stationlist created="" xmlns="ch.ethz.sed.shakemap.usgs.xml">
  <station code="ARGN" name="ARGN" netid="KO" insttype="CMG-6T" commtype="DIG" lat="38.7763" lon="38.2639">
    <comp name="--.HHE">
      <acc value="0.3257463958" flag="0"/>
      <vel value="0.1128557313" flag="0"/>
      <psa03 value="0.3907158268" flag="0"/>
      <psa10 value="0.0924507639" flag="0"/>
      <psa30 value="0.0035528938" flag="0"/>
    </comp>
    <comp name="--.HHZ">
      <acc value="0.1491307220" flag="0"/>
      <vel value="0.0564195974" flag="0"/>
      <psa03 value="0.1882293027" flag="0"/>
      <psa10 value="0.0676330453" flag="0"/>
      <psa30 value="0.0027401045" flag="0"/>
    </comp>
    <comp name="--.HHN">
      <acc value="0.2680972803" flag="0"/>
      <vel value="0.1129832764" flag="0"/>
      <psa03 value="0.3879980029" flag="0"/>
      <psa10 value="0.0834837549" flag="0"/>
      <psa30 value="0.0039129151" flag="0"/>
    </comp>
  </station>
  <station code="DIVR" name="DIVR" netid="KO" insttype="CMG-6T" commtype="DIG" lat="39.3562" lon="38.1237">
    <comp name="--.HHZ">
      <acc value="0.1537880330" flag="0"/>
      <vel value="0.1386488110" flag="0"/>
      <psa03 value="0.4002939026" flag="0"/>
      <psa10 value="0.1448622323" flag="0"/>
      <psa30 value="0.0116047771" flag="0"/>
    </comp>
    <comp name="--.HHE">
      <acc value="0.1316486895" flag="0"/>
      <vel value="0.1216665768" flag="0"/>
      <psa03 value="0.3734931673" flag="0"/>
      <psa10 value="0.2138841159" flag="0"/>
      <psa30 value="0.0147906191" flag="0"/>
    </comp>
    <comp name="--.HHN">
      <acc value="0.1837738477" flag="0"/>
      <vel value="0.1077524495" flag="0"/>
      <psa03 value="0.4200750755" flag="0"/>
      <psa10 value="0.1593916267" flag="0"/>
      <psa30 value="0.0089029898" flag="0"/>
    </comp>
  </station>
  <station code="KBAN" name="KBAN" netid="KO" insttype="CMG-6T" commtype="DIG" lat="38.797" lon="38.7278">
    <comp name="--.HHE">
      <acc value="0.1414938936" flag="0"/>
      <vel value="0.0716517959" flag="0"/>
      <psa03 value="0.3281927866" flag="0"/>
      <psa10 value="0.0638494839" flag="0"/>
      <psa30 value="0.0039251196" flag="0"/>
    </comp>
    <comp name="--.HHN">
      <acc value="0.1266976822" flag="0"/>
      <vel value="0.0446790662" flag="0"/>
      <psa03 value="0.2490486525" flag="0"/>
      <psa10 value="0.0287297573" flag="0"/>
      <psa30 value="0.0040963735" flag="0"/>
    </comp>
    <comp name="--.HHZ">
      <acc value="0.0860996162" flag="0"/>
      <vel value="0.0419901502" flag="0"/>
      <psa03 value="0.1710348602" flag="0"/>
      <psa10 value="0.0366507607" flag="0"/>
      <psa30 value="0.0059486114" flag="0"/>
    </comp>
  </station>
  <station code="KYHL" name="KYHL" netid="KO" insttype="CMG-5T" commtype="DIG" lat="40.3244" lon="37.8955">
    <comp name="--.HNZ">
      <acc value="0.0764741710" flag="0"/>
      <vel value="0.0393771534" flag="0"/>
      <psa03 value="0.2258769836" flag="0"/>
      <psa10 value="0.0411965840" flag="0"/>
      <psa30 value="0.0036510140" flag="0"/>
    </comp>
    <comp name="--.HNN">
      <acc value="0.1207204761" flag="0"/>
      <vel value="0.0791234714" flag="0"/>
      <psa03 value="0.3728302377" flag="0"/>
      <psa10 value="0.0677200787" flag="0"/>
      <psa30 value="0.0047144481" flag="0"/>
    </comp>
    <comp name="--.HNE">
      <acc value="0.1259702029" flag="0"/>
      <vel value="0.1111453410" flag="0"/>
      <psa03 value="0.3572751283" flag="0"/>
      <psa10 value="0.0678566205" flag="0"/>
      <psa30 value="0.0081507825" flag="0"/>
    </comp>
  </station>
  <station code="RFHY" name="RFHY" netid="KO" insttype="CMG-5T" commtype="DIG" lat="39.927" lon="38.833">
    <comp name="--.HNE">
      <acc value="0.0151650459" flag="0"/>
      <vel value="0.0093680145" flag="0"/>
      <psa03 value="0.0498790591" flag="0"/>
      <psa10 value="0.0087827956" flag="0"/>
      <psa30 value="0.0019646183" flag="0"/>
    </comp>
    <comp name="--.HNN">
      <acc value="1.5478507077" flag="0"/>
      <vel value="0.6805463568" flag="0"/>
      <psa03 value="3.2256781193" flag="0"/>
      <psa10 value="0.5664577258" flag="0"/>
      <psa30 value="0.0891032586" flag="0"/>
    </comp>
    <comp name="--.HNZ">
      <acc value="0.8789370493" flag="0"/>
      <vel value="0.3360251944" flag="0"/>
      <psa03 value="1.9803237939" flag="0"/>
      <psa10 value="0.3082949122" flag="0"/>
      <psa30 value="0.0290675845" flag="0"/>
    </comp>
  </station>
  <station code="SINE" name="SINE" netid="KO" insttype="CMG-6T" commtype="DIG" lat="39.1636" lon="39.3871">
    <comp name="--.HHN">
      <acc value="0.2021713275" flag="0"/>
      <vel value="0.0738961956" flag="0"/>
      <psa03 value="0.2967999574" flag="0"/>
      <psa10 value="0.0358786367" flag="0"/>
      <psa30 value="0.0021686238" flag="0"/>
    </comp>
    <comp name="--.HHZ">
      <acc value="0.1704644296" flag="0"/>
      <vel value="0.0613731234" flag="0"/>
      <psa03 value="0.3526564419" flag="0"/>
      <psa10 value="0.0244309564" flag="0"/>
      <psa30 value="0.0016875423" flag="0"/>
    </comp>
    <comp name="--.HHE">
      <acc value="0.1583156395" flag="0"/>
      <vel value="0.0495383591" flag="0"/>
      <psa03 value="0.2220999908" flag="0"/>
      <psa10 value="0.0248799257" flag="0"/>
      <psa30 value="0.0015132365" flag="0"/>
    </comp>
  </station>
</stationlist>
