<stationlist created="1775808440">
	<station code="ARPRA" name="ARPRA" netid="KO" source="Bogazici University Kandilli Observatory And Earthquake Research Institute (KOERI)" insttype="" lat="39.0929" lon="38.3356">
		<comp name="--.HNE" depth="0.0">
			<acc value="0.376395325580504" flag="0"/>
			<vel value="0.193340994367224" flag="0"/>
			<psa03 value="0.783574324620089" flag="0"/>
			<psa10 value="0.141982890669691" flag="0"/>
			<psa30 value="0.0136546312189715" flag="0"/>
		</comp>
		<comp name="--.HNN" depth="0.0">
			<acc value="0.408496946636387" flag="0"/>
			<vel value="0.168037226477281" flag="0"/>
			<psa03 value="0.873297268324772" flag="0"/>
			<psa10 value="0.2206242802758" flag="0"/>
			<psa30 value="0.0167974160797112" flag="0"/>
		</comp>
		<comp name="--.HNZ" depth="0.0">
			<acc value="0.135561765900085" flag="0"/>
			<vel value="0.0722774207235657" flag="0"/>
			<psa03 value="0.327858281502104" flag="0"/>
			<psa10 value="0.110721562260106" flag="0"/>
			<psa30 value="0.013990975166774" flag="0"/>
		</comp>
	</station>
	<station code="CHAY" name="CHAY" netid="KO" source="Bogazici University Kandilli Observatory And Earthquake Research Institute (KOERI)" insttype="" lat="41.0862" lon="40.7253">
		<comp name="--.HNE" depth="0.0">
			<acc value="0.0427276357825052" flag="0"/>
			<vel value="0.0151875278355424" flag="0"/>
			<psa03 value="0.0512040691016148" flag="0"/>
			<psa10 value="0.0322606346087158" flag="0"/>
			<psa30 value="0.0026755149480679" flag="0"/>
		</comp>
		<comp name="--.HNN" depth="0.0">
			<acc value="0.0458765167359564" flag="0"/>
			<vel value="0.0239242365915708" flag="0"/>
			<psa03 value="0.0820492374426371" flag="0"/>
			<psa10 value="0.0237236534506114" flag="0"/>
			<psa30 value="0.00207601877605534" flag="0"/>
		</comp>
		<comp name="--.HNZ" depth="0.0">
			<acc value="0.0237199172581773" flag="0"/>
			<vel value="0.00806173544529653" flag="0"/>
			<psa03 value="0.0277906977681708" flag="0"/>
			<psa10 value="0.017725566106762" flag="0"/>
			<psa30 value="0.0021713694675707" flag="0"/>
		</comp>
	</station>
	<station code="ERBG" name="ERBG" netid="KO" source="Bogazici University Kandilli Observatory And Earthquake Research Institute (KOERI)" insttype="" lat="40.712" lon="36.6768">
		<comp name="--.HNE" depth="0.0">
			<acc value="0.0118958931582381" flag="0"/>
			<vel value="0.0145105524605463" flag="0"/>
			<psa03 value="0.025178503889813" flag="0"/>
			<psa10 value="0.0313633520431495" flag="0"/>
			<psa30 value="0.00317598518509825" flag="0"/>
		</comp>
		<comp name="--.HNN" depth="0.0">
			<acc value="0.0137098756056181" flag="0"/>
			<vel value="0.0170924963720885" flag="0"/>
			<psa03 value="0.0229303158958919" flag="0"/>
			<psa10 value="0.0318219342969732" flag="0"/>
			<psa30 value="0.00358518583429967" flag="0"/>
		</comp>
		<comp name="--.HNZ" depth="0.0">
			<acc value="0.0051563997941346" flag="0"/>
			<vel value="0.00714731749450618" flag="0"/>
			<psa03 value="0.0109900535579452" flag="0"/>
			<psa10 value="0.0152957163911434" flag="0"/>
			<psa30 value="0.00214223441251629" flag="0"/>
		</comp>
	</station>
	<station code="GUMT" name="GUMT" netid="KO" source="Bogazici University Kandilli Observatory And Earthquake Research Institute (KOERI)" insttype="" lat="40.4665" lon="39.478">
		<comp name="--.HNE" depth="0.0">
			<acc value="0.0628995872931524" flag="0"/>
			<vel value="0.0187709212517848" flag="0"/>
			<psa03 value="0.0553731213225304" flag="0"/>
			<psa10 value="0.0139704929765961" flag="0"/>
			<psa30 value="0.00187045745029302" flag="0"/>
		</comp>
		<comp name="--.HNN" depth="0.0">
			<acc value="0.0547336669171682" flag="0"/>
			<vel value="0.016206730887479" flag="0"/>
			<psa03 value="0.057217634137452" flag="0"/>
			<psa10 value="0.0139195758535866" flag="0"/>
			<psa30 value="0.00252947381522624" flag="0"/>
		</comp>
		<comp name="--.HNZ" depth="0.0">
			<acc value="0.0429293963079867" flag="0"/>
			<vel value="0.0148252513544962" flag="0"/>
			<psa03 value="0.0560657505391501" flag="0"/>
			<psa10 value="0.0178880887480894" flag="0"/>
			<psa30 value="0.00370630385777431" flag="0"/>
		</comp>
	</station>
	<station code="KYHL" name="KYHL" netid="KO" source="Bogazici University Kandilli Observatory And Earthquake Research Institute (KOERI)" insttype="" lat="40.3244" lon="37.8955">
		<comp name="--.HNE" depth="0.0">
			<acc value="0.12600022385151" flag="0"/>
			<vel value="0.110648381803273" flag="0"/>
			<psa03 value="0.359561694197603" flag="0"/>
			<psa10 value="0.0678864121416351" flag="0"/>
			<psa30 value="0.00915326719236292" flag="0"/>
		</comp>
		<comp name="--.HNN" depth="0.0">
			<acc value="0.121002935622695" flag="0"/>
			<vel value="0.0793382670460264" flag="0"/>
			<psa03 value="0.373550037523364" flag="0"/>
			<psa10 value="0.0684774887975627" flag="0"/>
			<psa30 value="0.00618418217171848" flag="0"/>
		</comp>
		<comp name="--.HNZ" depth="0.0">
			<acc value="0.0763750568786625" flag="0"/>
			<vel value="0.0396229066721015" flag="0"/>
			<psa03 value="0.226863445256527" flag="0"/>
			<psa10 value="0.0412848011654619" flag="0"/>
			<psa30 value="0.00403759163729716" flag="0"/>
		</comp>
	</station>
	<station code="RFHY" name="RFHY" netid="KO" source="Bogazici University Kandilli Observatory And Earthquake Research Institute (KOERI)" insttype="" lat="39.927" lon="38.833">
		<comp name="--.HNE" depth="0.0">
			<acc value="0.0152650938206051" flag="0"/>
			<vel value="0.0093433268806779" flag="0"/>
			<psa03 value="0.0512573851335402" flag="0"/>
			<psa10 value="0.00876662105812075" flag="0"/>
			<psa30 value="0.00124237771809322" flag="0"/>
		</comp>
		<comp name="--.HNN" depth="0.0">
			<acc value="1.55118960581284" flag="0"/>
			<vel value="0.688626980089925" flag="0"/>
			<psa03 value="3.267934151266" flag="0"/>
			<psa10 value="0.565580426927559" flag="0"/>
			<psa30 value="0.090761532506094" flag="0"/>
		</comp>
		<comp name="--.HNZ" depth="0.0">
			<acc value="0.875601707836418" flag="0"/>
			<vel value="0.340481225490125" flag="0"/>
			<psa03 value="2.01575286706797" flag="0"/>
			<psa10 value="0.309049843035363" flag="0"/>
			<psa30 value="0.0312814889117855" flag="0"/>
		</comp>
	</station>
	<station code="TUNC" name="TUNC" netid="KO" source="Bogazici University Kandilli Observatory And Earthquake Research Institute (KOERI)" insttype="" lat="39.6942" lon="37.5388">
		<comp name="--.HNE" depth="0.0">
			<acc value="0.113233649766805" flag="0"/>
			<vel value="0.11579698254103" flag="0"/>
			<psa03 value="0.304550945838837" flag="0"/>
			<psa10 value="0.15916978421704" flag="0"/>
			<psa30 value="0.0193054588919053" flag="0"/>
		</comp>
		<comp name="--.HNN" depth="0.0">
			<acc value="0.0907537655115195" flag="0"/>
			<vel value="0.0924114285823474" flag="0"/>
			<psa03 value="0.297774809453057" flag="0"/>
			<psa10 value="0.120831639503106" flag="0"/>
			<psa30 value="0.011526450237426" flag="0"/>
		</comp>
		<comp name="--.HNZ" depth="0.0">
			<acc value="0.0596061988270859" flag="0"/>
			<vel value="0.0669125297004015" flag="0"/>
			<psa03 value="0.162394987037565" flag="0"/>
			<psa10 value="0.0760923382439668" flag="0"/>
			<psa30 value="0.0280163392783134" flag="0"/>
		</comp>
	</station>
</stationlist>
