<?xml version="1.0" encoding="UTF-8" standalone="yes"?>
<!DOCTYPE earthquake SYSTEM "stationlist.dtd">
<stationlist created="" xmlns="ch.ethz.sed.shakemap.usgs.xml">
  <station code="ARGN" name="ARGN" netid="KO" insttype="CMG-6T" commtype="DIG" lat="38.7763" lon="38.2639">
    <comp name="--.HHZ">
      <acc value="0.1491307208" flag="0"/>
      <vel value="0.0564195983" flag="0"/>
      <psa03 value="0.1882293027" flag="0"/>
      <psa10 value="0.0676330453" flag="0"/>
      <psa30 value="0.0027401028" flag="0"/>
    </comp>
    <comp name="--.HHN">
      <acc value="0.2680972806" flag="0"/>
      <vel value="0.1129832715" flag="0"/>
      <psa03 value="0.3879980029" flag="0"/>
      <psa10 value="0.0834837550" flag="0"/>
      <psa30 value="0.0039129138" flag="0"/>
    </comp>
    <comp name="--.HHE">
      <acc value="0.3257463954" flag="0"/>
      <vel value="0.1128557383" flag="0"/>
      <psa03 value="0.3907158268" flag="0"/>
      <psa10 value="0.0924507639" flag="0"/>
      <psa30 value="0.0035529037" flag="0"/>
    </comp>
  </station>
  <station code="ARPRA" name="ARPRA" netid="KO" insttype="CMG-5T" commtype="DIG" lat="39.0929" lon="38.3356">
    <comp name="--.HNN">
      <acc value="0.4109272478" flag="0"/>
      <vel value="0.1668484185" flag="0"/>
      <psa03 value="0.8745894956" flag="0"/>
      <psa10 value="0.2207330350" flag="0"/>
      <psa30 value="0.0148152812" flag="0"/>
    </comp>
    <comp name="--.HNE">
      <acc value="0.3755182406" flag="0"/>
      <vel value="0.1897046183" flag="0"/>
      <psa03 value="0.7682441259" flag="0"/>
      <psa10 value="0.1417521689" flag="0"/>
      <psa30 value="0.0122474711" flag="0"/>
    </comp>
    <comp name="--.HNZ">
      <acc value="0.1348401565" flag="0"/>
      <vel value="0.0736870882" flag="0"/>
      <psa03 value="0.3247353659" flag="0"/>
      <psa10 value="0.1106051484" flag="0"/>
      <psa30 value="0.0125178557" flag="0"/>
    </comp>
  </station>
  <station code="DIVR" name="DIVR" netid="KO" insttype="CMG-6T" commtype="DIG" lat="39.3562" lon="38.1237">
    <comp name="--.HHE">
      <acc value="0.1316486968" flag="0"/>
      <vel value="0.1216665881" flag="0"/>
      <psa03 value="0.3734931673" flag="0"/>
      <psa10 value="0.2138841145" flag="0"/>
      <psa30 value="0.0147905085" flag="0"/>
    </comp>
    <comp name="--.HHZ">
      <acc value="0.1537880381" flag="0"/>
      <vel value="0.1386488128" flag="0"/>
      <psa03 value="0.4002939026" flag="0"/>
      <psa10 value="0.1448622326" flag="0"/>
      <psa30 value="0.0116047956" flag="0"/>
    </comp>
    <comp name="--.HHN">
      <acc value="0.1837738737" flag="0"/>
      <vel value="0.1077524564" flag="0"/>
      <psa03 value="0.4200750755" flag="0"/>
      <psa10 value="0.1593916266" flag="0"/>
      <psa30 value="0.0089029227" flag="0"/>
    </comp>
  </station>
  <station code="KBAN" name="KBAN" netid="KO" insttype="CMG-6T" commtype="DIG" lat="38.797" lon="38.7278">
    <comp name="--.HHZ">
      <acc value="0.0860996131" flag="0"/>
      <vel value="0.0419901499" flag="0"/>
      <psa03 value="0.1710348602" flag="0"/>
      <psa10 value="0.0366507607" flag="0"/>
      <psa30 value="0.0059486114" flag="0"/>
    </comp>
    <comp name="--.HHN">
      <acc value="0.1266976885" flag="0"/>
      <vel value="0.0446790842" flag="0"/>
      <psa03 value="0.2490486525" flag="0"/>
      <psa10 value="0.0287297573" flag="0"/>
      <psa30 value="0.0040963676" flag="0"/>
    </comp>
    <comp name="--.HHE">
      <acc value="0.1414938995" flag="0"/>
      <vel value="0.0716517949" flag="0"/>
      <psa03 value="0.3281927866" flag="0"/>
      <psa10 value="0.0638494838" flag="0"/>
      <psa30 value="0.0039251152" flag="0"/>
    </comp>
  </station>
  <station code="KYHL" name="KYHL" netid="KO" insttype="CMG-5T" commtype="DIG" lat="40.3244" lon="37.8955">
    <comp name="--.HNE">
      <acc value="0.1259702027" flag="0"/>
      <vel value="0.1111453400" flag="0"/>
      <psa03 value="0.3572751283" flag="0"/>
      <psa10 value="0.0678566203" flag="0"/>
      <psa30 value="0.0081507843" flag="0"/>
    </comp>
    <comp name="--.HNN">
      <acc value="0.1207204758" flag="0"/>
      <vel value="0.0791234749" flag="0"/>
      <psa03 value="0.3728302377" flag="0"/>
      <psa10 value="0.0677200787" flag="0"/>
      <psa30 value="0.0047144694" flag="0"/>
    </comp>
    <comp name="--.HNZ">
      <acc value="0.0764741693" flag="0"/>
      <vel value="0.0393771524" flag="0"/>
      <psa03 value="0.2258769836" flag="0"/>
      <psa10 value="0.0411965609" flag="0"/>
      <psa30 value="0.0036507329" flag="0"/>
    </comp>
  </station>
  <station code="RFHY" name="RFHY" netid="KO" insttype="CMG-5T" commtype="DIG" lat="39.927" lon="38.833">
    <comp name="--.HNE">
      <acc value="0.0151650485" flag="0"/>
      <vel value="0.0093680265" flag="0"/>
      <psa03 value="0.0498790592" flag="0"/>
      <psa10 value="0.0087828062" flag="0"/>
      <psa30 value="0.0016765198" flag="0"/>
    </comp>
    <comp name="--.HNZ">
      <acc value="0.8789370847" flag="0"/>
      <vel value="0.3360251834" flag="0"/>
      <psa03 value="1.9803237939" flag="0"/>
      <psa10 value="0.3082948894" flag="0"/>
      <psa30 value="0.0290774655" flag="0"/>
    </comp>
    <comp name="--.HNN">
      <acc value="1.5478507370" flag="0"/>
      <vel value="0.6805463564" flag="0"/>
      <psa03 value="3.2256781193" flag="0"/>
      <psa10 value="0.5664577257" flag="0"/>
      <psa30 value="0.0891041808" flag="0"/>
    </comp>
  </station>
  <station code="SINE" name="SINE" netid="KO" insttype="CMG-6T" commtype="DIG" lat="39.1636" lon="39.3871">
    <comp name="--.HHE">
      <acc value="0.1583156393" flag="0"/>
      <vel value="0.0495383594" flag="0"/>
      <psa03 value="0.2220999908" flag="0"/>
      <psa10 value="0.0248799258" flag="0"/>
      <psa30 value="0.0015132362" flag="0"/>
    </comp>
    <comp name="--.HHN">
      <acc value="0.2021713261" flag="0"/>
      <vel value="0.0738961957" flag="0"/>
      <psa03 value="0.2967999574" flag="0"/>
      <psa10 value="0.0358786370" flag="0"/>
      <psa30 value="0.0021686316" flag="0"/>
    </comp>
    <comp name="--.HHZ">
      <acc value="0.1704644300" flag="0"/>
      <vel value="0.0613731233" flag="0"/>
      <psa03 value="0.3526564419" flag="0"/>
      <psa10 value="0.0244309564" flag="0"/>
      <psa30 value="0.0016875432" flag="0"/>
    </comp>
  </station>
</stationlist>
