<?xml version="1.0" encoding="UTF-8" standalone="yes"?>
<!DOCTYPE earthquake SYSTEM "stationlist.dtd">
<stationlist created="" xmlns="ch.ethz.sed.shakemap.usgs.xml">
  <station code="BEHE" name="BEHE" netid="HU" insttype="" lat="46.4703" lon="16.7755">
    <comp name="--.HHE">
      <acc value="0.0059894000" flag="0"/>
      <vel value="0.0025978584" flag="0"/>
      <psa03 value="0.0144899004" flag="0"/>
      <psa10 value="0.0031107643" flag="0"/>
      <psa30 value="0.0001770901" flag="0"/>
    </comp>
    <comp name="--.HHZ">
      <acc value="0.0033740494" flag="0"/>
      <vel value="0.0014150322" flag="0"/>
      <psa03 value="0.0085912778" flag="0"/>
      <psa10 value="0.0011754220" flag="0"/>
      <psa30 value="0.0001026113" flag="0"/>
    </comp>
    <comp name="--.HHN">
      <acc value="0.0076704553" flag="0"/>
      <vel value="0.0046731975" flag="0"/>
      <psa03 value="0.0181889784" flag="0"/>
      <psa10 value="0.0034206965" flag="0"/>
      <psa30 value="0.0002229954" flag="0"/>
    </comp>
  </station>
  <station code="BLY" name="BLY" netid="MN" insttype="" lat="44.7488" lon="17.1839">
    <comp name="--.HHN">
      <acc value="0.0087707342" flag="0"/>
      <vel value="0.0035541806" flag="0"/>
      <psa03 value="0.0267103414" flag="0"/>
      <psa10 value="0.0038907133" flag="0"/>
      <psa30 value="0.0004249177" flag="0"/>
    </comp>
    <comp name="--.HHE">
      <acc value="0.0107436765" flag="0"/>
      <vel value="0.0051862253" flag="0"/>
      <psa03 value="0.0268835301" flag="0"/>
      <psa10 value="0.0043770881" flag="0"/>
      <psa30 value="0.0003283641" flag="0"/>
    </comp>
    <comp name="--.HHZ">
      <acc value="0.0070220924" flag="0"/>
      <vel value="0.0036274295" flag="0"/>
      <psa03 value="0.0191797510" flag="0"/>
      <psa10 value="0.0024246559" flag="0"/>
      <psa30 value="0.0003972793" flag="0"/>
    </comp>
  </station>
</stationlist>
