<stationlist xmlns:esm="https://esm-db.eu/esmws/shakemap/1/" created="1784685239">
	<station code="BLY" name="BLY" netid="MN" source="Mediterranean Very Broadband Seismographic Network (MedNet)" insttype="" lat="44.7488" lon="17.1839" esm:processing="manual (Paolucci et al 2011)" esm:quality="best">
		<comp name="--.HNE" depth="1.0">
			<acc value="0.0106921302299294" flag="0"/>
			<vel value="0.00509189720751193" flag="0"/>
			<psa03 value="0.0274410053319493" flag="0"/>
			<psa10 value="0.00427133748640458" flag="0"/>
			<psa30 value="0.000392865973359161" flag="0"/>
		</comp>
		<comp name="--.HNN" depth="1.0">
			<acc value="0.00882344108762827" flag="0"/>
			<vel value="0.00372583499504475" flag="0"/>
			<psa03 value="0.0266352774772552" flag="0"/>
			<psa10 value="0.00404270968469382" flag="0"/>
			<psa30 value="0.0004462009127872" flag="0"/>
		</comp>
		<comp name="--.HNZ" depth="1.0">
			<acc value="0.00692804149153748" flag="0"/>
			<vel value="0.00353650540321741" flag="0"/>
			<psa03 value="0.0189743468011218" flag="0"/>
			<psa10 value="0.00243618130692885" flag="0"/>
			<psa30 value="0.000450594745525944" flag="0"/>
		</comp>
	</station>
	<station code="BOJS" name="BOJS" netid="SL" source="Seismic Network of the Republic of Slovenia (SNRS)" insttype="" lat="45.5043" lon="15.2518" esm:processing="manual (Paolucci et al 2011)" esm:quality="best">
		<comp name="--.HNE" depth="0.0">
			<acc value="0.0152727919885156" flag="0"/>
			<vel value="0.00499154953769165" flag="0"/>
			<psa03 value="0.0330197484842846" flag="0"/>
			<psa10 value="0.00332210884140668" flag="0"/>
			<psa30 value="0.000289482076820218" flag="0"/>
		</comp>
		<comp name="--.HNN" depth="0.0">
			<acc value="0.0151320173047312" flag="0"/>
			<vel value="0.00585350882009091" flag="0"/>
			<psa03 value="0.0342277880629779" flag="0"/>
			<psa10 value="0.00363619913186695" flag="0"/>
			<psa30 value="0.00034406756889451" flag="0"/>
		</comp>
		<comp name="--.HNZ" depth="0.0">
			<acc value="0.012336868196282" flag="0"/>
			<vel value="0.0034349294010761" flag="0"/>
			<psa03 value="0.0182548203002549" flag="0"/>
			<psa10 value="0.00299996495375512" flag="0"/>
			<psa30 value="0.000264426441113986" flag="0"/>
		</comp>
	</station>
	<station code="CADS" name="CADS" netid="SL" source="Seismic Network of the Republic of Slovenia (SNRS)" insttype="" lat="46.2281" lon="13.7368" esm:processing="manual (Paolucci et al 2011)" esm:quality="best">
		<comp name="--.HNE" depth="0.0">
			<acc value="0.00368045013428827" flag="0"/>
			<vel value="0.00215443854293242" flag="0"/>
			<psa03 value="0.0104305249554629" flag="0"/>
			<psa10 value="0.0016008964421575" flag="0"/>
			<psa30 value="0.000165057470705707" flag="0"/>
		</comp>
		<comp name="--.HNN" depth="0.0">
			<acc value="0.00407393826287495" flag="0"/>
			<vel value="0.00215822519248061" flag="0"/>
			<psa03 value="0.00996333580334945" flag="0"/>
			<psa10 value="0.00193698163583966" flag="0"/>
			<psa30 value="0.000211950655274045" flag="0"/>
		</comp>
		<comp name="--.HNZ" depth="0.0">
			<acc value="0.00247264258562415" flag="0"/>
			<vel value="0.00148145256465391" flag="0"/>
			<psa03 value="0.00660812460478241" flag="0"/>
			<psa10 value="0.00249347291471827" flag="0"/>
			<psa30 value="9.61776147845475e-05" flag="0"/>
		</comp>
	</station>
	<station code="CEY" name="CEY" netid="SL" source="Seismic Network of the Republic of Slovenia (SNRS)" insttype="" lat="45.7381" lon="14.4221" esm:processing="manual (Paolucci et al 2011)" esm:quality="good">
		<comp name="--.HNE" depth="0.0">
			<acc value="0.0082979154667443" flag="0"/>
			<vel value="0.00313353630923983" flag="0"/>
			<psa03 value="0.0241424013989509" flag="0"/>
			<psa10 value="0.0028193601281476" flag="0"/>
			<psa30 value="0.000152704061207159" flag="0"/>
		</comp>
		<comp name="--.HNN" depth="0.0">
			<acc value="0.0068300764644866" flag="0"/>
			<vel value="0.00421615731795716" flag="0"/>
			<psa03 value="0.0186759663577844" flag="0"/>
			<psa10 value="0.00434518456592166" flag="0"/>
			<psa30 value="0.000214378055660834" flag="0"/>
		</comp>
		<comp name="--.HNZ" depth="0.0">
			<acc value="0.00671027213533727" flag="0"/>
			<vel value="0.00422841535704602" flag="0"/>
			<psa03 value="0.0161416018540003" flag="0"/>
			<psa10 value="0.00465033009278264" flag="0"/>
			<psa30 value="0.000279237768964913" flag="0"/>
		</comp>
	</station>
	<station code="CRES" name="CRES" netid="SL" source="Seismic Network of the Republic of Slovenia (SNRS)" insttype="" lat="45.826" lon="15.4569" esm:processing="manual (Paolucci et al 2011)" esm:quality="best">
		<comp name="--.HNE" depth="0.0">
			<acc value="0.0278268688577953" flag="0"/>
			<vel value="0.00824516764139326" flag="0"/>
			<psa03 value="0.0488137474205345" flag="0"/>
			<psa10 value="0.00345901999365859" flag="0"/>
			<psa30 value="0.000331539751041394" flag="0"/>
		</comp>
		<comp name="--.HNN" depth="0.0">
			<acc value="0.0188288016800869" flag="0"/>
			<vel value="0.00556388126890979" flag="0"/>
			<psa03 value="0.0361517029475636" flag="0"/>
			<psa10 value="0.00271406225346436" flag="0"/>
			<psa30 value="0.000272927460371458" flag="0"/>
		</comp>
		<comp name="--.HNZ" depth="0.0">
			<acc value="0.0130200792108865" flag="0"/>
			<vel value="0.00354538530703516" flag="0"/>
			<psa03 value="0.0205366728377867" flag="0"/>
			<psa10 value="0.00205769408237432" flag="0"/>
			<psa30 value="0.000604914633479034" flag="0"/>
		</comp>
	</station>
	<station code="CRNS" name="CRNS" netid="SL" source="Seismic Network of the Republic of Slovenia (SNRS)" insttype="" lat="46.0807" lon="14.2613" esm:processing="manual (Paolucci et al 2011)" esm:quality="good">
		<comp name="--.HNE" depth="0.0">
			<acc value="0.0112467443962517" flag="0"/>
			<vel value="0.00628906033132842" flag="0"/>
			<psa03 value="0.0252559126636001" flag="0"/>
			<psa10 value="0.00423698521070865" flag="0"/>
			<psa30 value="0.000346777816078449" flag="0"/>
		</comp>
		<comp name="--.HNN" depth="0.0">
			<acc value="0.0135169801619761" flag="0"/>
			<vel value="0.00530900836411152" flag="0"/>
			<psa03 value="0.0259136411307004" flag="0"/>
			<psa10 value="0.00475930153037199" flag="0"/>
			<psa30 value="0.000278383311320028" flag="0"/>
		</comp>
		<comp name="--.HNZ" depth="0.0">
			<acc value="0.00434286887498552" flag="0"/>
			<vel value="0.00192153177089032" flag="0"/>
			<psa03 value="0.0078838035132897" flag="0"/>
			<psa10 value="0.0034390884477301" flag="0"/>
			<psa30 value="0.000245509232531761" flag="0"/>
		</comp>
	</station>
	<station code="DOBS" name="DOBS" netid="SL" source="Seismic Network of the Republic of Slovenia (SNRS)" insttype="" lat="46.1495" lon="15.4695" esm:processing="manual (Paolucci et al 2011)" esm:quality="best">
		<comp name="--.HNE" depth="0.0">
			<acc value="0.014633407424024" flag="0"/>
			<vel value="0.00707849134118217" flag="0"/>
			<psa03 value="0.0299764831907359" flag="0"/>
			<psa10 value="0.00557855267673498" flag="0"/>
			<psa30 value="0.00037473899128583" flag="0"/>
		</comp>
		<comp name="--.HNN" depth="0.0">
			<acc value="0.0218447801421127" flag="0"/>
			<vel value="0.00804301386939319" flag="0"/>
			<psa03 value="0.0329055756662195" flag="0"/>
			<psa10 value="0.00420103251652794" flag="0"/>
			<psa30 value="0.000253604247953287" flag="0"/>
		</comp>
		<comp name="--.HNZ" depth="0.0">
			<acc value="0.00729925830469861" flag="0"/>
			<vel value="0.0028913655678081" flag="0"/>
			<psa03 value="0.01526326892915" flag="0"/>
			<psa10 value="0.00292989541931599" flag="0"/>
			<psa30 value="0.000176780929619152" flag="0"/>
		</comp>
	</station>
	<station code="GBAS" name="GBAS" netid="SL" source="Seismic Network of the Republic of Slovenia (SNRS)" insttype="" lat="45.9348" lon="14.4434" esm:processing="manual (Paolucci et al 2011)" esm:quality="best">
		<comp name="--.HNE" depth="0.0">
			<acc value="0.00339319291194486" flag="0"/>
			<vel value="0.00249979384610318" flag="0"/>
			<psa03 value="0.00991940776311823" flag="0"/>
			<psa10 value="0.0019843478595578" flag="0"/>
			<psa30 value="0.000112427760287449" flag="0"/>
		</comp>
		<comp name="--.HNN" depth="0.0">
			<acc value="0.00511953247266837" flag="0"/>
			<vel value="0.00454371451150209" flag="0"/>
			<psa03 value="0.0108833804757385" flag="0"/>
			<psa10 value="0.00592776643542557" flag="0"/>
			<psa30 value="0.000281043331283126" flag="0"/>
		</comp>
		<comp name="--.HNZ" depth="0.0">
			<acc value="0.00317458174697723" flag="0"/>
			<vel value="0.0023043132097966" flag="0"/>
			<psa03 value="0.00706395818691951" flag="0"/>
			<psa10 value="0.00243257544306004" flag="0"/>
			<psa30 value="0.000176264775634658" flag="0"/>
		</comp>
	</station>
	<station code="GBRS" name="GBRS" netid="SL" source="Seismic Network of the Republic of Slovenia (SNRS)" insttype="" lat="45.5311" lon="14.8101" esm:processing="manual (Paolucci et al 2011)" esm:quality="best">
		<comp name="--.HNE" depth="0.0">
			<acc value="0.0110022060950076" flag="0"/>
			<vel value="0.00272422631475918" flag="0"/>
			<psa03 value="0.0139779663362528" flag="0"/>
			<psa10 value="0.00288193958622876" flag="0"/>
			<psa30 value="0.000129727890711088" flag="0"/>
		</comp>
		<comp name="--.HNN" depth="0.0">
			<acc value="0.0112005177511372" flag="0"/>
			<vel value="0.00277660458880335" flag="0"/>
			<psa03 value="0.0207143735276687" flag="0"/>
			<psa10 value="0.00348177869762603" flag="0"/>
			<psa30 value="0.000199526446814543" flag="0"/>
		</comp>
		<comp name="--.HNZ" depth="0.0">
			<acc value="0.00576790554682901" flag="0"/>
			<vel value="0.00228956266758207" flag="0"/>
			<psa03 value="0.0127077545867916" flag="0"/>
			<psa10 value="0.00173608094434232" flag="0"/>
			<psa30 value="0.000115417151028151" flag="0"/>
		</comp>
	</station>
	<station code="GCIS" name="GCIS" netid="SL" source="Seismic Network of the Republic of Slovenia (SNRS)" insttype="" lat="45.8672" lon="15.6275" esm:processing="manual (Paolucci et al 2011)" esm:quality="best">
		<comp name="--.HNE" depth="0.0">
			<acc value="0.0166371281235844" flag="0"/>
			<vel value="0.00605164531372832" flag="0"/>
			<psa03 value="0.0377566912996635" flag="0"/>
			<psa10 value="0.00304505007899777" flag="0"/>
			<psa30 value="0.000168378654259587" flag="0"/>
		</comp>
		<comp name="--.HNN" depth="0.0">
			<acc value="0.0155168395589556" flag="0"/>
			<vel value="0.00620650175563765" flag="0"/>
			<psa03 value="0.0235407625850106" flag="0"/>
			<psa10 value="0.0035881408998494" flag="0"/>
			<psa30 value="0.000199640803348567" flag="0"/>
		</comp>
		<comp name="--.HNZ" depth="0.0">
			<acc value="0.011070012661861" flag="0"/>
			<vel value="0.00474049460489549" flag="0"/>
			<psa03 value="0.0221940744151679" flag="0"/>
			<psa10 value="0.00405281847935235" flag="0"/>
			<psa30 value="0.000203306970693202" flag="0"/>
		</comp>
	</station>
	<station code="GORS" name="GORS" netid="SL" source="Seismic Network of the Republic of Slovenia (SNRS)" insttype="" lat="46.3174" lon="13.9999" esm:processing="manual (Paolucci et al 2011)" esm:quality="best">
		<comp name="--.HNE" depth="0.0">
			<acc value="0.00220038614602918" flag="0"/>
			<vel value="0.00113693170741983" flag="0"/>
			<psa03 value="0.00972654212212275" flag="0"/>
			<psa10 value="0.00106890846619159" flag="0"/>
			<psa30 value="0.000116209924899797" flag="0"/>
		</comp>
		<comp name="--.HNN" depth="0.0">
			<acc value="0.00292875434674415" flag="0"/>
			<vel value="0.00128840015331551" flag="0"/>
			<psa03 value="0.00639819142692336" flag="0"/>
			<psa10 value="0.00149705112541487" flag="0"/>
			<psa30 value="9.62534466308074e-05" flag="0"/>
		</comp>
		<comp name="--.HNZ" depth="0.0">
			<acc value="0.00219126664265568" flag="0"/>
			<vel value="0.00141869911084362" flag="0"/>
			<psa03 value="0.00582335647189037" flag="0"/>
			<psa10 value="0.00170295710942457" flag="0"/>
			<psa30 value="0.000142842379273433" flag="0"/>
		</comp>
	</station>
	<station code="GROS" name="GROS" netid="SL" source="Seismic Network of the Republic of Slovenia (SNRS)" insttype="" lat="46.461" lon="15.5018" esm:processing="manual (Paolucci et al 2011)" esm:quality="bad">
		<comp name="--.HNE" depth="0.0">
			<acc value="0.0121557276759208" flag="0"/>
			<vel value="0.0032738488966414" flag="0"/>
			<psa03 value="0.0158982146370286" flag="0"/>
			<psa10 value="0.00239231301024606" flag="0"/>
			<psa30 value="0.000379027035764284" flag="0"/>
		</comp>
		<comp name="--.HNN" depth="0.0">
			<acc value="0.0100247755809484" flag="0"/>
			<vel value="0.00267013722049245" flag="0"/>
			<psa03 value="0.011173887350615" flag="0"/>
			<psa10 value="0.00209018408943783" flag="0"/>
			<psa30 value="0.000333852220237796" flag="0"/>
		</comp>
		<comp name="--.HNZ" depth="0.0">
			<acc value="0.00716128819167844" flag="0"/>
			<vel value="0.00348548139324833" flag="0"/>
			<psa03 value="0.0137391992170196" flag="0"/>
			<psa10 value="0.00502559120200281" flag="0"/>
			<psa30 value="0.000403661480175327" flag="0"/>
		</comp>
	</station>
	<station code="JAVS" name="JAVS" netid="SL" source="Seismic Network of the Republic of Slovenia (SNRS)" insttype="" lat="45.8934" lon="14.0643" esm:processing="manual (Paolucci et al 2011)" esm:quality="best">
		<comp name="--.HNE" depth="0.0">
			<acc value="0.00504526522320396" flag="0"/>
			<vel value="0.00403349191385934" flag="0"/>
			<psa03 value="0.0126332756946021" flag="0"/>
			<psa10 value="0.0042063939654648" flag="0"/>
			<psa30 value="0.000218323004494097" flag="0"/>
		</comp>
		<comp name="--.HNN" depth="0.0">
			<acc value="0.00335542360153268" flag="0"/>
			<vel value="0.00203150614131002" flag="0"/>
			<psa03 value="0.00967635976133943" flag="0"/>
			<psa10 value="0.00305908257108324" flag="0"/>
			<psa30 value="0.000110626325847188" flag="0"/>
		</comp>
		<comp name="--.HNZ" depth="0.0">
			<acc value="0.00235350403785094" flag="0"/>
			<vel value="0.00239744922956012" flag="0"/>
			<psa03 value="0.00676675425386474" flag="0"/>
			<psa10 value="0.00191261791248913" flag="0"/>
			<psa30 value="0.000116071725640446" flag="0"/>
		</comp>
	</station>
	<station code="KNDS" name="KNDS" netid="SL" source="Seismic Network of the Republic of Slovenia (SNRS)" insttype="" lat="45.5278" lon="14.3807" esm:processing="manual (Paolucci et al 2011)" esm:quality="best">
		<comp name="--.HNE" depth="0.0">
			<acc value="0.0054127191856404" flag="0"/>
			<vel value="0.00479656338281605" flag="0"/>
			<psa03 value="0.0179662956476413" flag="0"/>
			<psa10 value="0.00493415451975493" flag="0"/>
			<psa30 value="0.000316872970445905" flag="0"/>
		</comp>
		<comp name="--.HNN" depth="0.0">
			<acc value="0.00880576753864345" flag="0"/>
			<vel value="0.00472233258486114" flag="0"/>
			<psa03 value="0.0161176627681586" flag="0"/>
			<psa10 value="0.00304936661494958" flag="0"/>
			<psa30 value="0.00027577522188002" flag="0"/>
		</comp>
		<comp name="--.HNZ" depth="0.0">
			<acc value="0.00376414654203062" flag="0"/>
			<vel value="0.00233965523168449" flag="0"/>
			<psa03 value="0.0143102904344464" flag="0"/>
			<psa10 value="0.00252018968457432" flag="0"/>
			<psa30 value="0.000223440869569168" flag="0"/>
		</comp>
	</station>
	<station code="KOGS" name="KOGS" netid="SL" source="Seismic Network of the Republic of Slovenia (SNRS)" insttype="" lat="46.4481" lon="16.2504" esm:processing="manual (Paolucci et al 2011)" esm:quality="best">
		<comp name="--.HNE" depth="0.0">
			<acc value="0.0339579457556414" flag="0"/>
			<vel value="0.0112529536860244" flag="0"/>
			<psa03 value="0.03359463954251" flag="0"/>
			<psa10 value="0.00544935802447146" flag="0"/>
			<psa30 value="0.000385824048533187" flag="0"/>
		</comp>
		<comp name="--.HNN" depth="0.0">
			<acc value="0.0322141824032453" flag="0"/>
			<vel value="0.0100377146969058" flag="0"/>
			<psa03 value="0.03993708313577" flag="0"/>
			<psa10 value="0.00485119433656489" flag="0"/>
			<psa30 value="0.000468390195219512" flag="0"/>
		</comp>
		<comp name="--.HNZ" depth="0.0">
			<acc value="0.0161916947530413" flag="0"/>
			<vel value="0.00593443071516084" flag="0"/>
			<psa03 value="0.0171888444057457" flag="0"/>
			<psa10 value="0.00332737604733443" flag="0"/>
			<psa30 value="0.000388026251709925" flag="0"/>
		</comp>
	</station>
	<station code="LEGS" name="LEGS" netid="SL" source="Seismic Network of the Republic of Slovenia (SNRS)" insttype="" lat="45.9488" lon="15.3177" esm:processing="manual (Paolucci et al 2011)" esm:quality="good">
		<comp name="--.HNE" depth="0.0">
			<acc value="0.0406609238485759" flag="0"/>
			<vel value="0.0187004844047164" flag="0"/>
			<psa03 value="0.109927282142875" flag="0"/>
			<psa10 value="0.00740214238684012" flag="0"/>
			<psa30 value="0.000612358534495387" flag="0"/>
		</comp>
		<comp name="--.HNN" depth="0.0">
			<acc value="0.0184496452484532" flag="0"/>
			<vel value="0.0104513445038035" flag="0"/>
			<psa03 value="0.0639896921282591" flag="0"/>
			<psa10 value="0.00722901076148206" flag="0"/>
			<psa30 value="0.000417448721637194" flag="0"/>
		</comp>
		<comp name="--.HNZ" depth="0.0">
			<acc value="0.0105167105718366" flag="0"/>
			<vel value="0.00529008093949013" flag="0"/>
			<psa03 value="0.0391214014966872" flag="0"/>
			<psa10 value="0.00373851437698049" flag="0"/>
			<psa30 value="0.000213869115695867" flag="0"/>
		</comp>
	</station>
	<station code="LJU" name="LJU" netid="SL" source="Seismic Network of the Republic of Slovenia (SNRS)" insttype="" lat="46.0438" lon="14.5278" esm:processing="manual (Paolucci et al 2011)" esm:quality="best">
		<comp name="--.HNE" depth="0.0">
			<acc value="0.0108713639372311" flag="0"/>
			<vel value="0.00803545726561748" flag="0"/>
			<psa03 value="0.0254503760666908" flag="0"/>
			<psa10 value="0.0121354973546611" flag="0"/>
			<psa30 value="0.000535995663330307" flag="0"/>
		</comp>
		<comp name="--.HNN" depth="0.0">
			<acc value="0.0104905757571676" flag="0"/>
			<vel value="0.00657129080436252" flag="0"/>
			<psa03 value="0.0368380132542322" flag="0"/>
			<psa10 value="0.00747954095163307" flag="0"/>
			<psa30 value="0.00034776327198493" flag="0"/>
		</comp>
		<comp name="--.HNZ" depth="0.0">
			<acc value="0.00452857771607135" flag="0"/>
			<vel value="0.00454396181605287" flag="0"/>
			<psa03 value="0.0095217466544091" flag="0"/>
			<psa10 value="0.00628980041842804" flag="0"/>
			<psa30 value="0.000699443209681183" flag="0"/>
		</comp>
	</station>
	<station code="MOZS" name="MOZS" netid="SL" source="Seismic Network of the Republic of Slovenia (SNRS)" insttype="" lat="46.2941" lon="14.4433" esm:processing="manual (Paolucci et al 2011)" esm:quality="good">
		<comp name="--.HNE" depth="0.0">
			<acc value="0.0109020995322493" flag="0"/>
			<vel value="0.00556728242406236" flag="0"/>
			<psa03 value="0.0202109235099281" flag="0"/>
			<psa10 value="0.00285308353403174" flag="0"/>
			<psa30 value="0.000245519910322457" flag="0"/>
		</comp>
		<comp name="--.HNN" depth="0.0">
			<acc value="0.00608046345100061" flag="0"/>
			<vel value="0.00326151520012537" flag="0"/>
			<psa03 value="0.0165303541694237" flag="0"/>
			<psa10 value="0.0023793155867325" flag="0"/>
			<psa30 value="0.000294081252272856" flag="0"/>
		</comp>
		<comp name="--.HNZ" depth="0.0">
			<acc value="0.0026077044567309" flag="0"/>
			<vel value="0.00163632780763081" flag="0"/>
			<psa03 value="0.00581003788130655" flag="0"/>
			<psa10 value="0.00236927218702947" flag="0"/>
			<psa30 value="0.000245652861838192" flag="0"/>
		</comp>
	</station>
	<station code="PERS" name="PERS" netid="SL" source="Seismic Network of the Republic of Slovenia (SNRS)" insttype="" lat="46.6365" lon="15.1139" esm:processing="manual (Paolucci et al 2011)" esm:quality="best">
		<comp name="--.HNE" depth="0.0">
			<acc value="0.00682916930999379" flag="0"/>
			<vel value="0.00425788312781409" flag="0"/>
			<psa03 value="0.0169985036716296" flag="0"/>
			<psa10 value="0.00306906760754325" flag="0"/>
			<psa30 value="0.000163841569845795" flag="0"/>
		</comp>
