<?xml version="1.0" encoding="UTF-8" standalone="yes"?>
<!DOCTYPE earthquake SYSTEM "stationlist.dtd">
<stationlist created="" xmlns="ch.ethz.sed.shakemap.usgs.xml">
  <station code="IDI" name="IDI" netid="MN" insttype="" lat="35.288" lon="24.89">
    <comp name="--.HHN">
      <acc value="0.0017892295" flag="0"/>
      <vel value="0.0019140791" flag="0"/>
      <psa03 value="0.0049259976" flag="0"/>
      <psa10 value="0.0032551769" flag="0"/>
      <psa30 value="0.0003612518" flag="0"/>
    </comp>
    <comp name="--.HHE">
      <acc value="0.0013362451" flag="0"/>
      <vel value="0.0015102927" flag="0"/>
      <psa03 value="0.0042844508" flag="0"/>
      <psa10 value="0.0033540639" flag="0"/>
      <psa30 value="0.0002658492" flag="0"/>
    </comp>
    <comp name="--.HHZ">
      <acc value="0.0014989877" flag="0"/>
      <vel value="0.0013060819" flag="0"/>
      <psa03 value="0.0039020153" flag="0"/>
      <psa10 value="0.0020400831" flag="0"/>
      <psa30 value="0.0002516291" flag="0"/>
    </comp>
  </station>
</stationlist>
