<?xml version="1.0" encoding="UTF-8" standalone="yes"?>
<!DOCTYPE earthquake SYSTEM "stationlist.dtd">
<stationlist created="" xmlns="ch.ethz.sed.shakemap.usgs.xml">
  <station code="IMMV" name="IMMV" netid="GE" insttype="STS-2/N" lat="35.4606" lon="23.9811">
    <comp name="--.HHE">
      <acc value="0.0114073266" flag="0"/>
      <vel value="0.0104549114" flag="0"/>
      <psa03 value="0.0336671503" flag="0"/>
      <psa10 value="0.0184943461" flag="0"/>
      <psa30 value="0.0014288786" flag="0"/>
    </comp>
    <comp name="--.HHZ">
      <acc value="0.0119747703" flag="0"/>
      <vel value="0.0059599823" flag="0"/>
      <psa03 value="0.0280627042" flag="0"/>
      <psa10 value="0.0051157690" flag="0"/>
      <psa30 value="0.0006308212" flag="0"/>
    </comp>
    <comp name="--.HHN">
      <acc value="0.0116771370" flag="0"/>
      <vel value="0.0072972601" flag="0"/>
      <psa03 value="0.0304441699" flag="0"/>
      <psa10 value="0.0105628222" flag="0"/>
      <psa30 value="0.0014149334" flag="0"/>
    </comp>
  </station>
  <station code="CHAN" name="CHAN" netid="HC" insttype="120" lat="35.5193" lon="24.0428">
    <comp name="--.HHE">
      <acc value="0.0177917611" flag="0"/>
      <vel value="0.0164251876" flag="0"/>
      <psa03 value="0.0526563272" flag="0"/>
      <psa10 value="0.0367125983" flag="0"/>
      <psa30 value="0.0022242119" flag="0"/>
    </comp>
    <comp name="--.HHN">
      <acc value="0.0183186473" flag="0"/>
      <vel value="0.0175832603" flag="0"/>
      <psa03 value="0.0414960538" flag="0"/>
      <psa10 value="0.0248670412" flag="0"/>
      <psa30 value="0.0028057000" flag="0"/>
    </comp>
    <comp name="--.HHZ">
      <acc value="0.0137981423" flag="0"/>
      <vel value="0.0099230879" flag="0"/>
      <psa03 value="0.0364734453" flag="0"/>
      <psa10 value="0.0193216379" flag="0"/>
      <psa30 value="0.0011499064" flag="0"/>
    </comp>
  </station>
  <station code="GVDS" name="GVDS" netid="HC" insttype="60" lat="34.8389" lon="24.0585">
    <comp name="--.HHZ">
      <acc value="0.0562667274" flag="0"/>
      <vel value="0.0142964164" flag="0"/>
      <psa03 value="0.0446941487" flag="0"/>
      <psa10 value="0.0071217804" flag="0"/>
      <psa30 value="0.0004940250" flag="0"/>
    </comp>
    <comp name="--.HHE">
      <acc value="0.0965682015" flag="0"/>
      <vel value="0.0230804289" flag="0"/>
      <psa03 value="0.0832658515" flag="0"/>
      <psa10 value="0.0107638295" flag="0"/>
      <psa30 value="0.0005355415" flag="0"/>
    </comp>
    <comp name="--.HHN">
      <acc value="0.0978490491" flag="0"/>
      <vel value="0.0198756885" flag="0"/>
      <psa03 value="0.1239166495" flag="0"/>
      <psa10 value="0.0099191080" flag="0"/>
      <psa30 value="0.0009072975" flag="0"/>
    </comp>
  </station>
  <station code="IMOD" name="IMOD" netid="HC" insttype="120" lat="34.9731" lon="24.7995">
    <comp name="--.HHE">
      <acc value="0.0061106100" flag="0"/>
      <vel value="0.0072463945" flag="0"/>
      <psa03 value="0.0113946640" flag="0"/>
      <psa10 value="0.0155379826" flag="0"/>
      <psa30 value="0.0013073301" flag="0"/>
    </comp>
    <comp name="--.HHN">
      <acc value="0.0080038861" flag="0"/>
      <vel value="0.0081093964" flag="0"/>
      <psa03 value="0.0294213446" flag="0"/>
      <psa10 value="0.0132527098" flag="0"/>
      <psa30 value="0.0015942444" flag="0"/>
    </comp>
    <comp name="--.HHZ">
      <acc value="0.0036577532" flag="0"/>
      <vel value="0.0028060323" flag="0"/>
      <psa03 value="0.0093192082" flag="0"/>
      <psa10 value="0.0033830852" flag="0"/>
      <psa30 value="0.0004133605" flag="0"/>
    </comp>
  </station>
  <station code="IPPL" name="IPPL" netid="HC" insttype="60" lat="35.3486" lon="24.4632">
    <comp name="--.HHZ">
      <acc value="0.0048937635" flag="0"/>
      <vel value="0.0028008811" flag="0"/>
      <psa03 value="0.0118084347" flag="0"/>
      <psa10 value="0.0053556081" flag="0"/>
      <psa30 value="0.0004341837" flag="0"/>
    </comp>
    <comp name="--.HHN">
      <acc value="0.0000000000" flag="0"/>
      <vel value="-100.0000000000" flag="0"/>
      <psa03 value="0.0000000000" flag="0"/>
      <psa10 value="0.0000000000" flag="0"/>
      <psa30 value="0.0000000000" flag="0"/>
    </comp>
    <comp name="--.HHE">
      <acc value="0.0000000000" flag="0"/>
      <vel value="-100.0000000000" flag="0"/>
      <psa03 value="0.0000000000" flag="0"/>
      <psa10 value="0.0000000000" flag="0"/>
      <psa30 value="0.0000000000" flag="0"/>
    </comp>
  </station>
  <station code="KNDR" name="KNDR" netid="HC" insttype="120" lat="35.2348" lon="23.6248">
    <comp name="--.HHE">
      <acc value="0.0475811637" flag="0"/>
      <vel value="0.0248732038" flag="0"/>
      <psa03 value="0.1222462628" flag="0"/>
      <psa10 value="0.0251553348" flag="0"/>
      <psa30 value="0.0023307425" flag="0"/>
    </comp>
    <comp name="--.HHZ">
      <acc value="0.0248961133" flag="0"/>
      <vel value="0.0102795572" flag="0"/>
      <psa03 value="0.0633123064" flag="0"/>
      <psa10 value="0.0101775484" flag="0"/>
      <psa30 value="0.0010294638" flag="0"/>
    </comp>
    <comp name="--.HHN">
      <acc value="0.0417277448" flag="0"/>
      <vel value="0.0224922634" flag="0"/>
      <psa03 value="0.1412089839" flag="0"/>
      <psa10 value="0.0404378739" flag="0"/>
      <psa30 value="0.0019958323" flag="0"/>
    </comp>
  </station>
  <station code="ANKY" name="ANKY" netid="HL" insttype="60" lat="35.867" lon="23.3012">
    <comp name="--.HHN">
      <acc value="0.0045610187" flag="0"/>
      <vel value="0.0051789391" flag="0"/>
      <psa03 value="0.0137280893" flag="0"/>
      <psa10 value="0.0117743794" flag="0"/>
      <psa30 value="0.0010587166" flag="0"/>
    </comp>
    <comp name="--.HHZ">
      <acc value="0.0035210557" flag="0"/>
      <vel value="0.0034591243" flag="0"/>
      <psa03 value="0.0115834291" flag="0"/>
      <psa10 value="0.0038887377" flag="0"/>
      <psa30 value="0.0009415849" flag="0"/>
    </comp>
    <comp name="--.HHE">
      <acc value="0.0046966720" flag="0"/>
      <vel value="0.0062511210" flag="0"/>
      <psa03 value="0.0118639742" flag="0"/>
      <psa10 value="0.0119245164" flag="0"/>
      <psa30 value="0.0010530006" flag="0"/>
    </comp>
  </station>
  <station code="IMMV" name="IMMV" netid="HL" insttype="120" lat="35.4606" lon="23.9811">
    <comp name="--.HHZ">
      <acc value="0.0116095206" flag="0"/>
      <vel value="0.0058717867" flag="0"/>
      <psa03 value="0.0272459232" flag="0"/>
      <psa10 value="0.0050833169" flag="0"/>
      <psa30 value="0.0006291786" flag="0"/>
    </comp>
    <comp name="--.HHN">
      <acc value="0.0113493426" flag="0"/>
      <vel value="0.0072294832" flag="0"/>
      <psa03 value="0.0295571228" flag="0"/>
      <psa10 value="0.0104953088" flag="0"/>
      <psa30 value="0.0014143463" flag="0"/>
    </comp>
    <comp name="--.HHE">
      <acc value="0.0111876212" flag="0"/>
      <vel value="0.0103110538" flag="0"/>
      <psa03 value="0.0326848555" flag="0"/>
      <psa10 value="0.0183521605" flag="0"/>
      <psa30 value="0.0014254674" flag="0"/>
    </comp>
  </station>
  <station code="SIVA" name="SIVA" netid="HL" insttype="60" lat="35.0178" lon="24.812">
    <comp name="--.HHZ">
      <acc value="0.0040390078" flag="0"/>
      <vel value="0.0035102113" flag="0"/>
      <psa03 value="0.0125155310" flag="0"/>
      <psa10 value="0.0048461139" flag="0"/>
      <psa30 value="0.0005507364" flag="0"/>
    </comp>
    <comp name="--.HHN">
      <acc value="0.0078313174" flag="0"/>
      <vel value="0.0050640302" flag="0"/>
      <psa03 value="0.0141455686" flag="0"/>
      <psa10 value="0.0095548800" flag="0"/>
      <psa30 value="0.0007596978" flag="0"/>
    </comp>
    <comp name="--.HHE">
      <acc value="0.0094982972" flag="0"/>
      <vel value="0.0082078489" flag="0"/>
      <psa03 value="0.0253529562" flag="0"/>
      <psa10 value="0.0138904250" flag="0"/>
      <psa30 value="0.0011402869" flag="0"/>
    </comp>
  </station>
  <station code="VAM" name="VAM" netid="HL" insttype="CMG3ESPC-120s" lat="35.407" lon="24.1997">
    <comp name="--.HHE">
      <acc value="0.0100123407" flag="0"/>
      <vel value="0.0088757723" flag="0"/>
      <psa03 value="0.0180317760" flag="0"/>
      <psa10 value="0.0164786127" flag="0"/>
      <psa30 value="0.0006167924" flag="0"/>
    </comp>
    <comp name="--.HHZ">
      <acc value="0.0068083128" flag="0"/>
      <vel value="0.0041206078" flag="0"/>
      <psa03 value="0.0134004452" flag="0"/>
      <psa10 value="0.0049950176" flag="0"/>
      <psa30 value="0.0004876229" flag="0"/>
    </comp>
    <comp name="--.HHN">
      <acc value="0.0115951415" flag="0"/>
      <vel value="0.0075016499" flag="0"/>
      <psa03 value="0.0362355049" flag="0"/>
      <psa10 value="0.0099317687" flag="0"/>
      <psa30 value="0.0013361657" flag="0"/>
    </comp>
  </station>
</stationlist>
