<?xml version="1.0" encoding="UTF-8" standalone="yes"?>
<!DOCTYPE earthquake SYSTEM "stationlist.dtd">
<stationlist created="" xmlns="ch.ethz.sed.shakemap.usgs.xml">
  <station code="IMMV" name="IMMV" netid="GE" insttype="STS-2/N" lat="35.4606" lon="23.9811">
    <comp name="--.HHE">
      <acc value="0.0114073266" flag="0"/>
      <vel value="0.0104549123" flag="0"/>
      <psa03 value="0.0336671503" flag="0"/>
      <psa10 value="0.0184943462" flag="0"/>
      <psa30 value="0.0014289235" flag="0"/>
    </comp>
    <comp name="--.HHZ">
      <acc value="0.0119747702" flag="0"/>
      <vel value="0.0059599823" flag="0"/>
      <psa03 value="0.0280627042" flag="0"/>
      <psa10 value="0.0051157690" flag="0"/>
      <psa30 value="0.0006308008" flag="0"/>
    </comp>
    <comp name="--.HHN">
      <acc value="0.0116771364" flag="0"/>
      <vel value="0.0072972613" flag="0"/>
      <psa03 value="0.0304441699" flag="0"/>
      <psa10 value="0.0105628222" flag="0"/>
      <psa30 value="0.0014149421" flag="0"/>
    </comp>
  </station>
  <station code="CHAN" name="CHAN" netid="HC" insttype="120" lat="35.5193" lon="24.0428">
    <comp name="--.HHZ">
      <acc value="0.0137981427" flag="0"/>
      <vel value="0.0099230873" flag="0"/>
      <psa03 value="0.0364734453" flag="0"/>
      <psa10 value="0.0193216379" flag="0"/>
      <psa30 value="0.0011499684" flag="0"/>
    </comp>
    <comp name="--.HHE">
      <acc value="0.0177917606" flag="0"/>
      <vel value="0.0164251889" flag="0"/>
      <psa03 value="0.0526563272" flag="0"/>
      <psa10 value="0.0367125982" flag="0"/>
      <psa30 value="0.0022243501" flag="0"/>
    </comp>
    <comp name="--.HHN">
      <acc value="0.0183186480" flag="0"/>
      <vel value="0.0175832603" flag="0"/>
      <psa03 value="0.0414960538" flag="0"/>
      <psa10 value="0.0248670412" flag="0"/>
      <psa30 value="0.0028055635" flag="0"/>
    </comp>
  </station>
  <station code="GVDS" name="GVDS" netid="HC" insttype="60" lat="34.8389" lon="24.0585">
    <comp name="--.HHE">
      <acc value="0.0965682027" flag="0"/>
      <vel value="0.0230804132" flag="0"/>
      <psa03 value="0.0832658515" flag="0"/>
      <psa10 value="0.0107638355" flag="0"/>
      <psa30 value="0.0005356497" flag="0"/>
    </comp>
    <comp name="--.HHN">
      <acc value="0.0978490505" flag="0"/>
      <vel value="0.0198756845" flag="0"/>
      <psa03 value="0.1239166495" flag="0"/>
      <psa10 value="0.0099191080" flag="0"/>
      <psa30 value="0.0009073018" flag="0"/>
    </comp>
    <comp name="--.HHZ">
      <acc value="0.0562667268" flag="0"/>
      <vel value="0.0142964180" flag="0"/>
      <psa03 value="0.0446941487" flag="0"/>
      <psa10 value="0.0071217787" flag="0"/>
      <psa30 value="0.0004939877" flag="0"/>
    </comp>
  </station>
  <station code="IMOD" name="IMOD" netid="HC" insttype="120" lat="34.9731" lon="24.7995">
    <comp name="--.HHE">
      <acc value="0.0061106099" flag="0"/>
      <vel value="0.0072463943" flag="0"/>
      <psa03 value="0.0113946640" flag="0"/>
      <psa10 value="0.0155379826" flag="0"/>
      <psa30 value="0.0013073301" flag="0"/>
    </comp>
    <comp name="--.HHN">
      <acc value="0.0080038861" flag="0"/>
      <vel value="0.0081093966" flag="0"/>
      <psa03 value="0.0294213446" flag="0"/>
      <psa10 value="0.0132527098" flag="0"/>
      <psa30 value="0.0015942470" flag="0"/>
    </comp>
    <comp name="--.HHZ">
      <acc value="0.0036577533" flag="0"/>
      <vel value="0.0028060322" flag="0"/>
      <psa03 value="0.0093192082" flag="0"/>
      <psa10 value="0.0033830852" flag="0"/>
      <psa30 value="0.0004133614" flag="0"/>
    </comp>
  </station>
  <station code="IPPL" name="IPPL" netid="HC" insttype="60" lat="35.3486" lon="24.4632">
    <comp name="--.HHE">
      <acc value="0.0000000000" flag="0"/>
      <vel value="-100.0000000000" flag="0"/>
      <psa03 value="0.0000000000" flag="0"/>
      <psa10 value="0.0000000000" flag="0"/>
      <psa30 value="0.0000000000" flag="0"/>
    </comp>
    <comp name="--.HHN">
      <acc value="0.0000000000" flag="0"/>
      <vel value="-100.0000000000" flag="0"/>
      <psa03 value="0.0000000000" flag="0"/>
      <psa10 value="0.0000000000" flag="0"/>
      <psa30 value="0.0000000000" flag="0"/>
    </comp>
    <comp name="--.HHZ">
      <acc value="0.0048937635" flag="0"/>
      <vel value="0.0028008801" flag="0"/>
      <psa03 value="0.0118084347" flag="0"/>
      <psa10 value="0.0053556081" flag="0"/>
      <psa30 value="0.0004341643" flag="0"/>
    </comp>
  </station>
  <station code="KNDR" name="KNDR" netid="HC" insttype="120" lat="35.2348" lon="23.6248">
    <comp name="--.HHE">
      <acc value="0.0475811629" flag="0"/>
      <vel value="0.0248732136" flag="0"/>
      <psa03 value="0.1222462628" flag="0"/>
      <psa10 value="0.0251553526" flag="0"/>
      <psa30 value="0.0023307373" flag="0"/>
    </comp>
    <comp name="--.HHZ">
      <acc value="0.0248961132" flag="0"/>
      <vel value="0.0102795568" flag="0"/>
      <psa03 value="0.0633123064" flag="0"/>
      <psa10 value="0.0101775461" flag="0"/>
      <psa30 value="0.0010294695" flag="0"/>
    </comp>
    <comp name="--.HHN">
      <acc value="0.0417277446" flag="0"/>
      <vel value="0.0224922660" flag="0"/>
      <psa03 value="0.1412089839" flag="0"/>
      <psa10 value="0.0404378825" flag="0"/>
      <psa30 value="0.0019958731" flag="0"/>
    </comp>
  </station>
  <station code="ANKY" name="ANKY" netid="HL" insttype="60" lat="35.867" lon="23.3012">
    <comp name="--.HHE">
      <acc value="0.0046966719" flag="0"/>
      <vel value="0.0062511203" flag="0"/>
      <psa03 value="0.0118639742" flag="0"/>
      <psa10 value="0.0119245164" flag="0"/>
      <psa30 value="0.0010530007" flag="0"/>
    </comp>
    <comp name="--.HHZ">
      <acc value="0.0035210552" flag="0"/>
      <vel value="0.0034591238" flag="0"/>
      <psa03 value="0.0115834291" flag="0"/>
      <psa10 value="0.0038887377" flag="0"/>
      <psa30 value="0.0009415433" flag="0"/>
    </comp>
    <comp name="--.HHN">
      <acc value="0.0045610185" flag="0"/>
      <vel value="0.0051789458" flag="0"/>
      <psa03 value="0.0137280893" flag="0"/>
      <psa10 value="0.0117743794" flag="0"/>
      <psa30 value="0.0010587138" flag="0"/>
    </comp>
  </station>
  <station code="IMMV" name="IMMV" netid="HL" insttype="120" lat="35.4606" lon="23.9811">
    <comp name="--.HHE">
      <acc value="0.0111876213" flag="0"/>
      <vel value="0.0103110547" flag="0"/>
      <psa03 value="0.0326848555" flag="0"/>
      <psa10 value="0.0183521606" flag="0"/>
      <psa30 value="0.0014255126" flag="0"/>
    </comp>
    <comp name="--.HHN">
      <acc value="0.0113493419" flag="0"/>
      <vel value="0.0072294844" flag="0"/>
      <psa03 value="0.0295571228" flag="0"/>
      <psa10 value="0.0104953088" flag="0"/>
      <psa30 value="0.0014143550" flag="0"/>
    </comp>
    <comp name="--.HHZ">
      <acc value="0.0116095208" flag="0"/>
      <vel value="0.0058717867" flag="0"/>
      <psa03 value="0.0272459232" flag="0"/>
      <psa10 value="0.0050833169" flag="0"/>
      <psa30 value="0.0006291582" flag="0"/>
    </comp>
  </station>
  <station code="SIVA" name="SIVA" netid="HL" insttype="60" lat="35.0178" lon="24.812">
    <comp name="--.HHE">
      <acc value="0.0094982971" flag="0"/>
      <vel value="0.0082078502" flag="0"/>
      <psa03 value="0.0253529562" flag="0"/>
      <psa10 value="0.0138904250" flag="0"/>
      <psa30 value="0.0011402904" flag="0"/>
    </comp>
    <comp name="--.HHN">
      <acc value="0.0078313174" flag="0"/>
      <vel value="0.0050640304" flag="0"/>
      <psa03 value="0.0141455686" flag="0"/>
      <psa10 value="0.0095548800" flag="0"/>
      <psa30 value="0.0007596995" flag="0"/>
    </comp>
    <comp name="--.HHZ">
      <acc value="0.0040390078" flag="0"/>
      <vel value="0.0035102097" flag="0"/>
      <psa03 value="0.0125155310" flag="0"/>
      <psa10 value="0.0048461139" flag="0"/>
      <psa30 value="0.0005507376" flag="0"/>
    </comp>
  </station>
  <station code="VAM" name="VAM" netid="HL" insttype="CMG3ESPC-120s" lat="35.407" lon="24.1997">
    <comp name="--.HHE">
      <acc value="0.0100123411" flag="0"/>
      <vel value="0.0088757715" flag="0"/>
      <psa03 value="0.0180317760" flag="0"/>
      <psa10 value="0.0164786126" flag="0"/>
      <psa30 value="0.0006167851" flag="0"/>
    </comp>
    <comp name="--.HHN">
      <acc value="0.0115951425" flag="0"/>
      <vel value="0.0075016495" flag="0"/>
      <psa03 value="0.0362355049" flag="0"/>
      <psa10 value="0.0099317687" flag="0"/>
      <psa30 value="0.0013361780" flag="0"/>
    </comp>
    <comp name="--.HHZ">
      <acc value="0.0068083125" flag="0"/>
      <vel value="0.0041206077" flag="0"/>
      <psa03 value="0.0134004452" flag="0"/>
      <psa10 value="0.0049950175" flag="0"/>
      <psa30 value="0.0004876536" flag="0"/>
    </comp>
  </station>
  <station code="IDI" name="IDI" netid="MN" insttype="" lat="35.288" lon="24.89">
    <comp name="--.HHN">
      <acc value="0.0017892295" flag="0"/>
      <vel value="0.0019140791" flag="0"/>
      <psa03 value="0.0049259976" flag="0"/>
      <psa10 value="0.0032551769" flag="0"/>
      <psa30 value="0.0003612518" flag="0"/>
    </comp>
    <comp name="--.HHE">
      <acc value="0.0013362451" flag="0"/>
      <vel value="0.0015102927" flag="0"/>
      <psa03 value="0.0042844508" flag="0"/>
      <psa10 value="0.0033540639" flag="0"/>
      <psa30 value="0.0002658492" flag="0"/>
    </comp>
    <comp name="--.HHZ">
      <acc value="0.0014989877" flag="0"/>
      <vel value="0.0013060819" flag="0"/>
      <psa03 value="0.0039020153" flag="0"/>
      <psa10 value="0.0020400831" flag="0"/>
      <psa30 value="0.0002516291" flag="0"/>
    </comp>
  </station>
</stationlist>
