<stationlist xmlns:esm="https://esm-db.eu/esmws/shakemap/1/" created="1784080595">
	<station code="ABEA" name="ABEA" netid="HC" source="Seismological Network of Crete (HC)" insttype="" lat="35.5163" lon="24.0113" esm:processing="manual (Paolucci et al 2011)" esm:quality="good">
		<comp name="--.HNE" depth="0.0">
			<acc value="0.0123561205890211" flag="0"/>
			<vel value="0.0120417778129216" flag="0"/>
			<psa03 value="0.0274340829983591" flag="0"/>
			<psa10 value="0.0164827506513375" flag="0"/>
			<psa30 value="0.00192047430533086" flag="0"/>
		</comp>
		<comp name="--.HNN" depth="0.0">
			<acc value="0.0133766135421256" flag="0"/>
			<vel value="0.014251555181813" flag="0"/>
			<psa03 value="0.0448493304230314" flag="0"/>
			<psa10 value="0.0246724906814213" flag="0"/>
			<psa30 value="0.00191431660574682" flag="0"/>
		</comp>
		<comp name="--.HNZ" depth="0.0">
			<acc value="0.00577459953984598" flag="0"/>
			<vel value="0.00732768571923972" flag="0"/>
			<psa03 value="0.017368874561031" flag="0"/>
			<psa10 value="0.0140262207307863" flag="0"/>
			<psa30 value="0.000865519471833926" flag="0"/>
		</comp>
	</station>
	<station code="ATEI" name="ATEI" netid="HC" source="Seismological Network of Crete (HC)" insttype="" lat="35.5193" lon="24.0432" esm:processing="manual (Paolucci et al 2011)" esm:quality="good">
		<comp name="--.HNE" depth="0.0">
			<acc value="0.00854099933253357" flag="0"/>
			<vel value="0.00760292114701897" flag="0"/>
			<psa03 value="0.0287211422180492" flag="0"/>
			<psa10 value="0.019871572644163" flag="0"/>
			<psa30 value="0.00148056610107129" flag="0"/>
		</comp>
		<comp name="--.HNN" depth="0.0">
			<acc value="0.00891545075101597" flag="0"/>
			<vel value="0.0111186780776906" flag="0"/>
			<psa03 value="0.0217565714744178" flag="0"/>
			<psa10 value="0.0142968452208306" flag="0"/>
			<psa30 value="0.00201670380506295" flag="0"/>
		</comp>
		<comp name="--.HNZ" depth="0.0">
			<acc value="0.00672199308652136" flag="0"/>
			<vel value="0.00514758178573208" flag="0"/>
			<psa03 value="0.0188502161822267" flag="0"/>
			<psa10 value="0.0104101421208252" flag="0"/>
			<psa30 value="0.00081546855203946" flag="0"/>
		</comp>
	</station>
	<station code="LENT" name="LENT" netid="HC" source="Seismological Network of Crete (HC)" insttype="" lat="35.5074" lon="24.0402" esm:processing="manual (Paolucci et al 2011)" esm:quality="good">
		<comp name="--.HNE" depth="0.0">
			<acc value="0.0122911929432776" flag="0"/>
			<vel value="0.00998044169310681" flag="0"/>
			<psa03 value="0.0420661174029948" flag="0"/>
			<psa10 value="0.016810109837277" flag="0"/>
			<psa30 value="0.00127093544323569" flag="0"/>
		</comp>
		<comp name="--.HNN" depth="0.0">
			<acc value="0.0151436302228496" flag="0"/>
			<vel value="0.0153309643327732" flag="0"/>
			<psa03 value="0.0264036136931583" flag="0"/>
			<psa10 value="0.0225616520987247" flag="0"/>
			<psa30 value="0.00159356879527852" flag="0"/>
		</comp>
		<comp name="--.HNZ" depth="0.0">
			<acc value="0.00977143181006281" flag="0"/>
			<vel value="0.00967647950126192" flag="0"/>
			<psa03 value="0.0224494585206174" flag="0"/>
			<psa10 value="0.00870236805167441" flag="0"/>
			<psa30 value="0.000844783306498074" flag="0"/>
		</comp>
	</station>
	<station code="PASK" name="PASK" netid="HC" source="Seismological Network of Crete (HC)" insttype="" lat="35.4996" lon="24.0121" esm:processing="manual (Paolucci et al 2011)" esm:quality="good">
		<comp name="--.HNE" depth="0.0">
			<acc value="0.0270654402763304" flag="0"/>
			<vel value="0.0207601968402379" flag="0"/>
			<psa03 value="0.0662680149307626" flag="0"/>
			<psa10 value="0.0301450200846365" flag="0"/>
			<psa30 value="0.00270683806473732" flag="0"/>
		</comp>
		<comp name="--.HNN" depth="0.0">
			<acc value="0.0215854447926966" flag="0"/>
			<vel value="0.0152422851119019" flag="0"/>
			<psa03 value="0.0539388023476043" flag="0"/>
			<psa10 value="0.0172412271466829" flag="0"/>
			<psa30 value="0.00173550153095903" flag="0"/>
		</comp>
		<comp name="--.HNZ" depth="0.0">
			<acc value="0.00970370188375181" flag="0"/>
			<vel value="0.00654833969332177" flag="0"/>
			<psa03 value="0.0349404474456644" flag="0"/>
			<psa10 value="0.0151331740610118" flag="0"/>
			<psa30 value="0.00104328755018001" flag="0"/>
		</comp>
	</station>
	<station code="CH03" name="CH03" netid="HI" source="ITSAK Strong Motion Network" insttype="" lat="35.53303" lon="24.0705" esm:processing="manual (Paolucci et al 2011)" esm:quality="good">
		<comp name="--.HNE" depth="0.0">
			<acc value="0.00687761521193219" flag="0"/>
			<vel value="0.00745772571684952" flag="0"/>
			<psa03 value="0.0175534870511191" flag="0"/>
			<psa10 value="0.0134739235188065" flag="0"/>
			<psa30 value="0.00143481379937251" flag="0"/>
		</comp>
		<comp name="--.HNN" depth="0.0">
			<acc value="0.0108353845350496" flag="0"/>
			<vel value="0.0124759908436204" flag="0"/>
			<psa03 value="0.0240009336940668" flag="0"/>
			<psa10 value="0.0172473381765086" flag="0"/>
			<psa30 value="0.0019771849371319" flag="0"/>
		</comp>
		<comp name="--.HNZ" depth="0.0">
			<acc value="0.00421277544125733" flag="0"/>
			<vel value="0.00398199131157264" flag="0"/>
			<psa03 value="0.0113615378023699" flag="0"/>
			<psa10 value="0.0070687790531705" flag="0"/>
			<psa30 value="0.000641333891472806" flag="0"/>
		</comp>
	</station>
	<station code="GOR1" name="GOR1" netid="HI" source="ITSAK Strong Motion Network" insttype="" lat="35.0582" lon="24.9628" esm:processing="manual (Paolucci et al 2011)" esm:quality="good">
		<comp name="--.HNE" depth="0.0">
			<acc value="0.00375157880245882" flag="0"/>
			<vel value="0.00604761143671383" flag="0"/>
			<psa03 value="0.00799988021321942" flag="0"/>
			<psa10 value="0.0104622002569212" flag="0"/>
			<psa30 value="0.00103999108180516" flag="0"/>
		</comp>
		<comp name="--.HNN" depth="0.0">
			<acc value="0.00297671170489945" flag="0"/>
			<vel value="0.00528153753633133" flag="0"/>
			<psa03 value="0.00754358891845217" flag="0"/>
			<psa10 value="0.00845259025512124" flag="0"/>
			<psa30 value="0.00150758789113226" flag="0"/>
		</comp>
		<comp name="--.HNZ" depth="0.0">
			<acc value="0.00215576229228819" flag="0"/>
			<vel value="0.00342992032825259" flag="0"/>
			<psa03 value="0.00533305934369572" flag="0"/>
			<psa10 value="0.00516405506205399" flag="0"/>
			<psa30 value="0.000597427805826779" flag="0"/>
		</comp>
	</station>
	<station code="HER1" name="HER1" netid="HI" source="ITSAK Strong Motion Network" insttype="" lat="35.317672" lon="25.10217" esm:processing="manual (Paolucci et al 2011)" esm:quality="good">
		<comp name="--.HNE" depth="0.0">
			<acc value="0.00624443333885795" flag="0"/>
			<vel value="0.00859975927471752" flag="0"/>
			<psa03 value="0.0123848829377128" flag="0"/>
			<psa10 value="0.0169482689896428" flag="0"/>
			<psa30 value="0.00126752188377079" flag="0"/>
		</comp>
		<comp name="--.HNN" depth="0.0">
			<acc value="0.0071503679580049" flag="0"/>
			<vel value="0.0110532323511573" flag="0"/>
			<psa03 value="0.0118848927845689" flag="0"/>
			<psa10 value="0.0251070057159099" flag="0"/>
			<psa30 value="0.00124278128649431" flag="0"/>
		</comp>
		<comp name="--.HNZ" depth="0.0">
			<acc value="0.00782718580733563" flag="0"/>
			<vel value="0.00864005932974109" flag="0"/>
			<psa03 value="0.0126083287294832" flag="0"/>
			<psa10 value="0.0176225242807467" flag="0"/>
			<psa30 value="0.000522010101440661" flag="0"/>
		</comp>
	</station>
	<station code="KIS1" name="KIS1" netid="HI" source="ITSAK Strong Motion Network" insttype="" lat="35.493933" lon="23.658993" esm:processing="manual (Paolucci et al 2011)" esm:quality="good">
		<comp name="--.HNE" depth="0.0">
			<acc value="0.0184372257495425" flag="0"/>
			<vel value="0.0144202471122746" flag="0"/>
			<psa03 value="0.0608437493497888" flag="0"/>
			<psa10 value="0.0183124556103113" flag="0"/>
			<psa30 value="0.00203126976998664" flag="0"/>
		</comp>
		<comp name="--.HNN" depth="0.0">
			<acc value="0.0196734530566742" flag="0"/>
			<vel value="0.0153300705391386" flag="0"/>
			<psa03 value="0.0677084228507181" flag="0"/>
			<psa10 value="0.0246439906684353" flag="0"/>
			<psa30 value="0.00114191502126593" flag="0"/>
		</comp>
		<comp name="--.HNZ" depth="0.0">
			<acc value="0.00981718729713317" flag="0"/>
			<vel value="0.0084538220194839" flag="0"/>
			<psa03 value="0.0331075708182498" flag="0"/>
			<psa10 value="0.00993129821226628" flag="0"/>
			<psa30 value="0.00101020858802778" flag="0"/>
		</comp>
	</station>
	<station code="IMMV" name="IMMV" netid="HL" source="National Observatory of Athens Seismic Network" insttype="" lat="35.4606" lon="23.9811" esm:processing="manual (Paolucci et al 2011)" esm:quality="best">
		<comp name="--.HNE" depth="0.0">
			<acc value="0.0108431611205942" flag="0"/>
			<vel value="0.0102194558253969" flag="0"/>
			<psa03 value="0.0321421032149356" flag="0"/>
			<psa10 value="0.0179007645878069" flag="0"/>
			<psa30 value="0.0015125820761382" flag="0"/>
		</comp>
		<comp name="--.HNN" depth="0.0">
			<acc value="0.0109753992851319" flag="0"/>
			<vel value="0.0073720471306748" flag="0"/>
			<psa03 value="0.0294127062599434" flag="0"/>
			<psa10 value="0.0101797671721155" flag="0"/>
			<psa30 value="0.00152138672190233" flag="0"/>
		</comp>
		<comp name="--.HNZ" depth="0.0">
			<acc value="0.0115223973087947" flag="0"/>
			<vel value="0.00584593589312621" flag="0"/>
			<psa03 value="0.0269452641581603" flag="0"/>
			<psa10 value="0.00501434795719958" flag="0"/>
			<psa30 value="0.000685422801730154" flag="0"/>
		</comp>
	</station>
	<station code="SIVA" name="SIVA" netid="HL" source="National Observatory of Athens Seismic Network" insttype="" lat="35.01777" lon="24.81204" esm:processing="manual (Paolucci et al 2011)" esm:quality="good">
		<comp name="00.HNE" depth="0.0">
			<acc value="0.00875469333625515" flag="0"/>
			<vel value="0.00775085926986604" flag="0"/>
			<psa03 value="0.0237447891215728" flag="0"/>
			<psa10 value="0.0129674721563836" flag="0"/>
			<psa30 value="0.00114560234886825" flag="0"/>
		</comp>
		<comp name="00.HNN" depth="0.0">
			<acc value="0.00809443263564511" flag="0"/>
			<vel value="0.00565427116990063" flag="0"/>
			<psa03 value="0.0159663493589668" flag="0"/>
			<psa10 value="0.0113894323065033" flag="0"/>
			<psa30 value="0.000944360788433498" flag="0"/>
		</comp>
		<comp name="00.HNZ" depth="0.0">
			<acc value="0.00395332701844802" flag="0"/>
			<vel value="0.00361210090995133" flag="0"/>
			<psa03 value="0.0125651826421158" flag="0"/>
			<psa10 value="0.0048667709934272" flag="0"/>
			<psa30 value="0.000676972606527715" flag="0"/>
		</comp>
	</station>
	<station code="G0LD" name="G0LD" netid="HC" source="Seismological Network of Crete (HC)" insttype="" lat="35.4955" lon="24.0306" esm:processing="automatic (Paolucci et al 2011)" esm:quality="bad">
		<comp name="--.HNE" depth="0.0">
			<acc value="0" flag="1"/>
			<vel value="0" flag="1"/>
			<psa03 value="0" flag="1"/>
			<psa10 value="0" flag="1"/>
			<psa30 value="0" flag="1"/>
		</comp>
		<comp name="--.HNN" depth="0.0">
			<acc value="0" flag="1"/>
			<vel value="0" flag="1"/>
			<psa03 value="0" flag="1"/>
			<psa10 value="0" flag="1"/>
			<psa30 value="0" flag="1"/>
		</comp>
		<comp name="--.HNZ" depth="0.0">
			<acc value="0" flag="1"/>
			<vel value="0" flag="1"/>
			<psa03 value="0" flag="1"/>
			<psa10 value="0" flag="1"/>
			<psa30 value="0" flag="1"/>
		</comp>
	</station>
	<station code="MULT" name="MULT" netid="HC" source="Seismological Network of Crete (HC)" insttype="" lat="35.5091" lon="24.0118" esm:processing="automatic (Paolucci et al 2011)" esm:quality="bad">
		<comp name="--.HNE" depth="0.0">
			<acc value="0" flag="1"/>
			<vel value="0" flag="1"/>
			<psa03 value="0" flag="1"/>
			<psa10 value="0" flag="1"/>
			<psa30 value="0" flag="1"/>
		</comp>
		<comp name="--.HNN" depth="0.0">
			<acc value="0" flag="1"/>
			<vel value="0" flag="1"/>
			<psa03 value="0" flag="1"/>
			<psa10 value="0" flag="1"/>
			<psa30 value="0" flag="1"/>
		</comp>
		<comp name="--.HNZ" depth="0.0">
			<acc value="0" flag="1"/>
			<vel value="0" flag="1"/>
			<psa03 value="0" flag="1"/>
			<psa10 value="0" flag="1"/>
			<psa30 value="0" flag="1"/>
		</comp>
	</station>
	<station code="POLY" name="POLY" netid="HC" source="Seismological Network of Crete (HC)" insttype="" lat="35.5226" lon="24.0602" esm:processing="automatic (Paolucci et al 2011)" esm:quality="bad">
		<comp name="--.HNE" depth="0.0">
			<acc value="0" flag="1"/>
			<vel value="0" flag="1"/>
			<psa03 value="0" flag="1"/>
			<psa10 value="0" flag="1"/>
			<psa30 value="0" flag="1"/>
		</comp>
		<comp name="--.HNN" depth="0.0">
			<acc value="0" flag="1"/>
			<vel value="0" flag="1"/>
			<psa03 value="0" flag="1"/>
			<psa10 value="0" flag="1"/>
			<psa30 value="0" flag="1"/>
		</comp>
		<comp name="--.HNZ" depth="0.0">
			<acc value="0" flag="1"/>
			<vel value="0" flag="1"/>
			<psa03 value="0" flag="1"/>
			<psa10 value="0" flag="1"/>
			<psa30 value="0" flag="1"/>
		</comp>
	</station>
	<station code="AGN1" name="AGN1" netid="HI" source="ITSAK Strong Motion Network" insttype="" lat="35.1879" lon="25.7155" esm:processing="automatic (Paolucci et al 2011)" esm:quality="bad">
		<comp name="--.HNE" depth="0.0">
			<acc value="0" flag="1"/>
			<vel value="0" flag="1"/>
			<psa03 value="0" flag="1"/>
			<psa10 value="0" flag="1"/>
			<psa30 value="0" flag="1"/>
		</comp>
		<comp name="--.HNN" depth="0.0">
			<acc value="0" flag="1"/>
			<vel value="0" flag="1"/>
			<psa03 value="0" flag="1"/>
			<psa10 value="0" flag="1"/>
			<psa30 value="0" flag="1"/>
		</comp>
		<comp name="--.HNZ" depth="0.0">
			<acc value="0" flag="1"/>
			<vel value="0" flag="1"/>
			<psa03 value="0" flag="1"/>
			<psa10 value="0" flag="1"/>
			<psa30 value="0" flag="1"/>
		</comp>
	</station>
	<station code="ARK1" name="ARK1" netid="HI" source="ITSAK Strong Motion Network" insttype="" lat="35.148777" lon="25.264194" esm:processing="automatic (Paolucci et al 2011)" esm:quality="bad">
		<comp name="--.HNE" depth="0.0">
			<acc value="0" flag="1"/>
			<vel value="0" flag="1"/>
			<psa03 value="0" flag="1"/>
			<psa10 value="0" flag="1"/>
			<psa30 value="0" flag="1"/>
		</comp>
		<comp name="--.HNN" depth="0.0">
			<acc value="0" flag="1"/>
			<vel value="0" flag="1"/>
			<psa03 value="0" flag="1"/>
			<psa10 value="0" flag="1"/>
			<psa30 value="0" flag="1"/>
		</comp>
		<comp name="--.HNZ" depth="0.0">
			<acc value="0" flag="1"/>
			<vel value="0" flag="1"/>
			<psa03 value="0" flag="1"/>
			<psa10 value="0" flag="1"/>
			<psa30 value="0" flag="1"/>
		</comp>
	</station>
	<station code="CH01" name="CH01" netid="HI" source="ITSAK Strong Motion Network" insttype="" lat="35.517" lon="24.0208" esm:processing="automatic (Paolucci et al 2011)" esm:quality="bad">
		<comp name="--.HNE" depth="0.0">
			<acc value="0" flag="1"/>
			<vel value="0" flag="1"/>
			<psa03 value="0" flag="1"/>
			<psa10 value="0" flag="1"/>
			<psa30 value="0" flag="1"/>
		</comp>
		<comp name="--.HNN" depth="0.0">
			<acc value="0" flag="1"/>
			<vel value="0" flag="1"/>
			<psa03 value="0" flag="1"/>
			<psa10 value="0" flag="1"/>
			<psa30 value="0" flag="1"/>
		</comp>
		<comp name="--.HNZ" depth="0.0">
			<acc value="0" flag="1"/>
			<vel value="0" flag="1"/>
			<psa03 value="0" flag="1"/>
			<psa10 value="0" flag="1"/>
			<psa30 value="0" flag="1"/>
		</comp>
	</station>
	<station code="CH02" name="CH02" netid="HI" source="ITSAK Strong Motion Network" insttype="" lat="35.5145" lon="24.0315" esm:processing="automatic (Paolucci et al 2011)" esm:quality="bad">
		<comp name="--.HNE" depth="0.0">
			<acc value="0" flag="1"/>
			<vel value="0" flag="1"/>
			<psa03 value="0" flag="1"/>
			<psa10 value="0" flag="1"/>
			<psa30 value="0" flag="1"/>
		</comp>
		<comp name="--.HNN" depth="0.0">
			<acc value="0" flag="1"/>
			<vel value="0" flag="1"/>
			<psa03 value="0" flag="1"/>
			<psa10 value="0" flag="1"/>
			<psa30 value="0" flag="1"/>
		</comp>
		<comp name="--.HNZ" depth="0.0">
			<acc value="0" flag="1"/>
			<vel value="0" flag="1"/>
			<psa03 value="0" flag="1"/>
			<psa10 value="0" flag="1"/>
			<psa30 value="0" flag="1"/>
		</comp>
	</station>
	<station code="GTH2" name="GTH2" netid="HI" source="ITSAK Strong Motion Network" insttype="" lat="36.7603" lon="22.5659" esm:processing="automatic (Paolucci et al 2011)" esm:quality="bad">
		<comp name="--.HNE" depth="0.0">
			<acc value="0" flag="1"/>
			<vel value="0" flag="1"/>
			<psa03 value="0" flag="1"/>
			<psa10 value="0" flag="1"/>
			<psa30 value="0" flag="1"/>
		</comp>
		<comp name="--.HNN" depth="0.0">
			<acc value="0" flag="1"/>
			<vel value="0" flag="1"/>
			<psa03 value="0" flag="1"/>
			<psa10 value="0" flag="1"/>
			<psa30 value="0" flag="1"/>
		</comp>
		<comp name="--.HNZ" depth="0.0">
			<acc value="0" flag="1"/>
			<vel value="0" flag="1"/>
			<psa03 value="0" flag="1"/>
			<psa10 value="0" flag="1"/>
			<psa30 value="0" flag="1"/>
		</comp>
	</station>
	<station code="HER3" name="HER3" netid="HI" source="ITSAK Strong Motion Network" insttype="" lat="35.3296" lon="25.1065" esm:processing="automatic (Paolucci et al 2011)" esm:quality="bad">
		<comp name="--.HNE" depth="0.0">
			<acc value="0" flag="1"/>
			<vel value="0" flag="1"/>
			<psa03 value="0" flag="1"/>
			<psa10 value="0" flag="1"/>
			<psa30 value="0" flag="1"/>
		</comp>
		<comp name="--.HNN" depth="0.0">
			<acc value="0" flag="1"/>
			<vel value="0" flag="1"/>
			<psa03 value="0" flag="1"/>
			<psa10 value="0" flag="1"/>
			<psa30 value="0" flag="1"/>
		</comp>
		<comp name="--.HNZ" depth="0.0">
			<acc value="0" flag="1"/>
			<vel value="0" flag="1"/>
			<psa03 value="0" flag="1"/>
			<psa10 value="0" flag="1"/>
			<psa30 value="0" flag="1"/>
		</comp>
	</station>
	<station code="KTL1" name="KTL1" netid="HI" source="ITSAK Strong Motion Network" insttype="" lat="35.20778" lon="25.34272" esm:processing="automatic (Paolucci et al 2011)" esm:quality="bad">
		<comp name="--.HNE" depth="0.0">
			<acc value="0" flag="1"/>
			<vel value="0" flag="1"/>
			<psa03 value="0" flag="1"/>
			<psa10 value="0" flag="1"/>
			<psa30 value="0" flag="1"/>
		</comp>
		<comp name="--.HNN" depth="0.0">
			<acc value="0" flag="1"/>
			<vel value="0" flag="1"/>
			<psa03 value="0" flag="1"/>
			<psa10 value="0" flag="1"/>
			<psa30 value="0" flag="1"/>
		</comp>
		<comp name="--.HNZ" depth="0.0">
			<acc value="0" flag="1"/>
			<vel value="0" flag="1"/>
			<psa03 value="0" flag="1"/>
			<psa10 value="0" flag="1"/>
			<psa30 value="0" flag="1"/>
		</comp>
	</station>
	<station code="RTH1" name="RTH1" netid="HI" source="ITSAK Strong Motion Network" insttype="" lat="35.365393" lon="24.471773" esm:processing="automatic (Paolucci et al 2011)" esm:quality="bad">
		<comp name="--.HNE" depth="0.0">
			<acc value="0" flag="1"/>
			<vel value="0" flag="1"/>
			<psa03 value="0" flag="1"/>
			<psa10 value="0" flag="1"/>
			<psa30 value="0" flag="1"/>
		</comp>
		<comp name="--.HNN" depth="0.0">
			<acc value="0" flag="1"/>
			<vel value="0" flag="1"/>
			<psa03 value="0" flag="1"/>
			<psa10 value="0" flag="1"/>
			<psa30 value="0" flag="1"/>
		</comp>
		<comp name="--.HNZ" depth="0.0">
			<acc value="0" flag="1"/>
			<vel value="0" flag="1"/>
			<psa03 value="0" flag="1"/>
			<psa10 value="0" flag="1"/>
			<psa30 value="0" flag="1"/>
		</comp>
	</station>
	<station code="AGNA" name="AGNA" netid="HL" source="National Observatory of Athens Seismic Network" insttype="" lat="35.1895" lon="25.71853" esm:processing="discarded" esm:quality="bad">
		<comp name="00.HNE" depth="0.0">
			<acc value="0" flag="1"/>
			<vel value="0" flag="1"/>
			<psa03 value="0" flag="1"/>
			<psa10 value="0" flag="1"/>
			<psa30 value="0" flag="1"/>
		</comp>
		<comp name="00.HNN" depth="0.0">
			<acc value="0" flag="1"/>
			<vel value="0" flag="1"/>
			<psa03 value="0" flag="1"/>
			<psa10 value="0" flag="1"/>
			<psa30 value="0" flag="1"/>
		</comp>
