<?xml version="1.0" encoding="UTF-8" standalone="yes"?>
<!DOCTYPE earthquake SYSTEM "stationlist.dtd">
<stationlist created="" xmlns="ch.ethz.sed.shakemap.usgs.xml">
  <station code="SARI" name="SARI" netid="KO" insttype="CMG-3T" lat="38.4072" lon="36.4181">
    <comp name="--.HHZ">
      <acc value="0.0694976999" flag="0"/>
      <vel value="0.0264981912" flag="0"/>
      <psa03 value="0.1182588929" flag="0"/>
      <psa10 value="0.0169089584" flag="0"/>
      <psa30 value="0.0011665895" flag="0"/>
    </comp>
    <comp name="--.HHN">
      <acc value="0.1565115393" flag="0"/>
      <vel value="0.0419028354" flag="0"/>
      <psa03 value="0.2194595626" flag="0"/>
      <psa10 value="0.0155984269" flag="0"/>
      <psa30 value="0.0012776621" flag="0"/>
    </comp>
    <comp name="--.HHE">
      <acc value="0.1386782456" flag="0"/>
      <vel value="0.0432845202" flag="0"/>
      <psa03 value="0.1509951735" flag="0"/>
      <psa10 value="0.0144261688" flag="0"/>
      <psa30 value="0.0010078957" flag="0"/>
    </comp>
  </station>
  <station code="ANDN" name="ANDN" netid="TU" insttype="T" lat="37.58" lon="36.3452">
    <comp name="--.HHE">
      <acc value="0.0435685219" flag="0"/>
      <vel value="0.0196589284" flag="0"/>
      <psa03 value="0.0463258533" flag="0"/>
      <psa10 value="0.0281612616" flag="0"/>
      <psa30 value="0.0020492773" flag="0"/>
    </comp>
    <comp name="--.HHZ">
      <acc value="0.0227066659" flag="0"/>
      <vel value="0.0111386721" flag="0"/>
      <psa03 value="0.0300654330" flag="0"/>
      <psa10 value="0.0161194016" flag="0"/>
      <psa30 value="0.0017321369" flag="0"/>
    </comp>
    <comp name="--.HHN">
      <acc value="0.0671446156" flag="0"/>
      <vel value="0.0192420992" flag="0"/>
      <psa03 value="0.0533506168" flag="0"/>
      <psa10 value="0.0126122115" flag="0"/>
      <psa30 value="0.0027527341" flag="0"/>
    </comp>
  </station>
</stationlist>
