<?xml version="1.0" encoding="UTF-8" standalone="yes"?>
<!DOCTYPE earthquake SYSTEM "stationlist.dtd">
<stationlist created="" xmlns="ch.ethz.sed.shakemap.usgs.xml">
  <station code="APE" name="APE" netid="GE" insttype="STS-2/N" lat="37.0727" lon="25.523">
    <comp name="--.HHE">
      <acc value="0.0175863455" flag="0"/>
      <vel value="0.0100410610" flag="0"/>
      <psa03 value="0.0310997142" flag="0"/>
      <psa10 value="0.0071638750" flag="0"/>
      <psa30 value="0.0046044188" flag="0"/>
    </comp>
    <comp name="--.HHN">
      <acc value="0.0247193377" flag="0"/>
      <vel value="0.0134531977" flag="0"/>
      <psa03 value="0.0259191996" flag="0"/>
      <psa10 value="0.0109812468" flag="0"/>
      <psa30 value="0.0030952667" flag="0"/>
    </comp>
    <comp name="--.HHZ">
      <acc value="0.0086082276" flag="0"/>
      <vel value="0.0047841308" flag="0"/>
      <psa03 value="0.0167148879" flag="0"/>
      <psa10 value="0.0050348300" flag="0"/>
      <psa30 value="0.0015802745" flag="0"/>
    </comp>
  </station>
  <station code="KARP" name="KARP" netid="GE" insttype="STS-2/N" lat="35.5471" lon="27.1611">
    <comp name="--.HHE">
      <acc value="0.1357038011" flag="0"/>
      <vel value="0.0470447162" flag="0"/>
      <psa03 value="0.1772066185" flag="0"/>
      <psa10 value="0.0571205924" flag="0"/>
      <psa30 value="0.0022882742" flag="0"/>
    </comp>
    <comp name="--.HHN">
      <acc value="0.1293631826" flag="0"/>
      <vel value="0.0633752709" flag="0"/>
      <psa03 value="0.1402759980" flag="0"/>
      <psa10 value="0.0816224419" flag="0"/>
      <psa30 value="0.0032025798" flag="0"/>
    </comp>
    <comp name="--.HHZ">
      <acc value="0.0917382581" flag="0"/>
      <vel value="0.0345934440" flag="0"/>
      <psa03 value="0.1497770310" flag="0"/>
      <psa10 value="0.0378833549" flag="0"/>
      <psa30 value="0.0020183859" flag="0"/>
    </comp>
  </station>
  <station code="THERA" name="THERA" netid="GE" insttype="STS-2/N" lat="36.367" lon="25.4753">
    <comp name="--.HHE">
      <acc value="0.0297237651" flag="0"/>
      <vel value="0.0139430024" flag="0"/>
      <psa03 value="0.0681934365" flag="0"/>
      <psa10 value="0.0101534751" flag="0"/>
      <psa30 value="0.0030708109" flag="0"/>
    </comp>
    <comp name="--.HHN">
      <acc value="0.0215558915" flag="0"/>
      <vel value="0.0097761773" flag="0"/>
      <psa03 value="0.0702033938" flag="0"/>
      <psa10 value="0.0076344314" flag="0"/>
      <psa30 value="0.0013446947" flag="0"/>
    </comp>
    <comp name="--.HHZ">
      <acc value="0.0202797489" flag="0"/>
      <vel value="0.0111548998" flag="0"/>
      <psa03 value="0.0590187898" flag="0"/>
      <psa10 value="0.0062147889" flag="0"/>
      <psa30 value="0.0020123617" flag="0"/>
    </comp>
  </station>
  <station code="ZKR" name="ZKR" netid="GE" insttype="STS-2/N" lat="35.1147" lon="26.2169">
    <comp name="--.HHZ">
      <acc value="0.0164994729" flag="0"/>
      <vel value="0.0070969380" flag="0"/>
      <psa03 value="0.0341724668" flag="0"/>
      <psa10 value="0.0059484482" flag="0"/>
      <psa30 value="0.0009644197" flag="0"/>
    </comp>
    <comp name="--.HHN">
      <acc value="0.0074845308" flag="0"/>
      <vel value="0.0049620390" flag="0"/>
      <psa03 value="0.0318311839" flag="0"/>
      <psa10 value="0.0057711550" flag="0"/>
      <psa30 value="0.0006539831" flag="0"/>
    </comp>
    <comp name="--.HHE">
      <acc value="0.0174316592" flag="0"/>
      <vel value="0.0125155629" flag="0"/>
      <psa03 value="0.0437646702" flag="0"/>
      <psa10 value="0.0129695359" flag="0"/>
      <psa30 value="0.0014486505" flag="0"/>
    </comp>
  </station>
  <station code="SNT1" name="SNT1" netid="HA" insttype="30" lat="36.4159" lon="25.4282">
    <comp name="--.HHE">
      <acc value="0.0168108332" flag="0"/>
      <vel value="0.0164702949" flag="0"/>
      <psa03 value="0.0454857704" flag="0"/>
      <psa10 value="0.0171666668" flag="0"/>
      <psa30 value="0.0059918840" flag="0"/>
    </comp>
    <comp name="--.HHN">
      <acc value="0.0185836708" flag="0"/>
      <vel value="0.0148631715" flag="0"/>
      <psa03 value="0.0419476619" flag="0"/>
      <psa10 value="0.0173637859" flag="0"/>
      <psa30 value="0.0049108885" flag="0"/>
    </comp>
    <comp name="--.HHZ">
      <acc value="0.0140774662" flag="0"/>
      <vel value="0.0094021669" flag="0"/>
      <psa03 value="0.0321090681" flag="0"/>
      <psa10 value="0.0148944817" flag="0"/>
      <psa30 value="0.0020428374" flag="0"/>
    </comp>
  </station>
  <station code="SNT5" name="SNT5" netid="HA" insttype="1s-100Hz," lat="36.4037" lon="25.3953">
    <comp name="--.HHE">
      <acc value="0.0763205984" flag="0"/>
      <vel value="0.0336804197" flag="0"/>
      <psa03 value="0.1695504006" flag="0"/>
      <psa10 value="0.0295370479" flag="0"/>
      <psa30 value="0.0111033585" flag="0"/>
    </comp>
    <comp name="--.HHN">
      <acc value="0.0504352244" flag="0"/>
      <vel value="0.0210364880" flag="0"/>
      <psa03 value="0.1008973072" flag="0"/>
      <psa10 value="0.0097828980" flag="0"/>
      <psa30 value="0.0075966427" flag="0"/>
    </comp>
    <comp name="--.HHZ">
      <acc value="0.0167504274" flag="0"/>
      <vel value="0.0088614271" flag="0"/>
      <psa03 value="0.0245360108" flag="0"/>
      <psa10 value="0.0087301481" flag="0"/>
      <psa30 value="0.0023863182" flag="0"/>
    </comp>
  </station>
  <station code="RDI1" name="RDI1" netid="HI" insttype="CMG-5TD,ACCELEROMETER,GURALP" lat="36.4514" lon="28.224">
    <comp name="--.HNZ">
      <acc value="0.0205564664" flag="0"/>
      <vel value="0.0261891265" flag="0"/>
      <psa03 value="0.0933223518" flag="0"/>
      <psa10 value="0.0217071202" flag="0"/>
      <psa30 value="0.0120845153" flag="0"/>
    </comp>
    <comp name="--.HNN">
      <acc value="0.0264781873" flag="0"/>
      <vel value="0.0481521407" flag="0"/>
      <psa03 value="0.0662626676" flag="0"/>
      <psa10 value="0.0529522169" flag="0"/>
      <psa30 value="0.0385906896" flag="0"/>
    </comp>
    <comp name="--.HNE">
      <acc value="0.0329565519" flag="0"/>
      <vel value="0.0623952307" flag="0"/>
      <psa03 value="0.0660833260" flag="0"/>
      <psa10 value="0.0591988231" flag="0"/>
      <psa30 value="0.0424162050" flag="0"/>
    </comp>
  </station>
  <station code="SIT2" name="SIT2" netid="HI" insttype="CMG-5TD,ACCELEROMETER,GURALP" lat="35.2059" lon="26.107">
    <comp name="--.HNZ">
      <acc value="0.0313830637" flag="0"/>
      <vel value="0.0153853680" flag="0"/>
      <psa03 value="0.1059000457" flag="0"/>
      <psa10 value="0.0062254895" flag="0"/>
      <psa30 value="0.0010575817" flag="0"/>
    </comp>
    <comp name="--.HNN">
      <acc value="0.0525941533" flag="0"/>
      <vel value="0.0311863326" flag="0"/>
      <psa03 value="0.1792103460" flag="0"/>
      <psa10 value="0.0198340941" flag="0"/>
      <psa30 value="0.0020338641" flag="0"/>
    </comp>
    <comp name="--.HNE">
      <acc value="0.0583108936" flag="0"/>
      <vel value="0.0372411268" flag="0"/>
      <psa03 value="0.1551198320" flag="0"/>
      <psa10 value="0.0290915904" flag="0"/>
      <psa30 value="0.0020377248" flag="0"/>
    </comp>
  </station>
  <station code="APE" name="APE" netid="HL" insttype="120" lat="37.0727" lon="25.523">
    <comp name="--.HHE">
      <acc value="0.0169079550" flag="0"/>
      <vel value="0.0099597625" flag="0"/>
      <psa03 value="0.0299403856" flag="0"/>
      <psa10 value="0.0071170220" flag="0"/>
      <psa30 value="0.0045983461" flag="0"/>
    </comp>
    <comp name="--.HHN">
      <acc value="0.0239704054" flag="0"/>
      <vel value="0.0131768522" flag="0"/>
      <psa03 value="0.0250818664" flag="0"/>
      <psa10 value="0.0109088737" flag="0"/>
      <psa30 value="0.0030902847" flag="0"/>
    </comp>
    <comp name="--.HHZ">
      <acc value="0.0081183473" flag="0"/>
      <vel value="0.0047457966" flag="0"/>
      <psa03 value="0.0162335613" flag="0"/>
      <psa10 value="0.0050116152" flag="0"/>
      <psa30 value="0.0015780852" flag="0"/>
    </comp>
  </station>
  <station code="ARG" name="ARG" netid="HL" insttype="LE3D20_DR24" lat="36.2136" lon="28.1212">
    <comp name="--.HHE">
      <acc value="0.0751492927" flag="0"/>
      <vel value="0.0452749411" flag="0"/>
      <psa03 value="0.2453421835" flag="0"/>
      <psa10 value="0.0550030743" flag="0"/>
      <psa30 value="0.0082008655" flag="0"/>
    </comp>
    <comp name="--.HHN">
      <acc value="0.0731975561" flag="0"/>
      <vel value="0.0461916783" flag="0"/>
      <psa03 value="0.2056308242" flag="0"/>
      <psa10 value="0.0313341168" flag="0"/>
      <psa30 value="0.0060317583" flag="0"/>
    </comp>
    <comp name="--.HHZ">
      <acc value="0.0303447944" flag="0"/>
      <vel value="0.0306656148" flag="0"/>
      <psa03 value="0.0780579682" flag="0"/>
      <psa10 value="0.0388064125" flag="0"/>
      <psa30 value="0.0082217440" flag="0"/>
    </comp>
  </station>
  <station code="KARP" name="KARP" netid="HL" insttype="120" lat="35.5471" lon="27.1611">
    <comp name="--.HHZ">
      <acc value="0.0864932817" flag="0"/>
      <vel value="0.0341028529" flag="0"/>
      <psa03 value="0.1456868550" flag="0"/>
      <psa10 value="0.0375644269" flag="0"/>
      <psa30 value="0.0020132874" flag="0"/>
    </comp>
    <comp name="--.HHN">
      <acc value="0.1239064697" flag="0"/>
      <vel value="0.0619237055" flag="0"/>
      <psa03 value="0.1372008080" flag="0"/>
      <psa10 value="0.0810067563" flag="0"/>
      <psa30 value="0.0031732303" flag="0"/>
    </comp>
    <comp name="--.HHE">
      <acc value="0.1279017385" flag="0"/>
      <vel value="0.0456729964" flag="0"/>
      <psa03 value="0.1727570118" flag="0"/>
      <psa10 value="0.0567305956" flag="0"/>
      <psa30 value="0.0022687481" flag="0"/>
    </comp>
  </station>
  <station code="KLNA" name="KLNA" netid="HL" insttype="CMG-5" lat="36.9571" lon="26.9727">
    <comp name="00.HNE">
      <acc value="0.1932704972" flag="0"/>
      <vel value="0.0727814690" flag="0"/>
      <psa03 value="0.6233824835" flag="0"/>
      <psa10 value="0.0566257317" flag="0"/>
      <psa30 value="0.0161626625" flag="0"/>
    </comp>
    <comp name="00.HNN">
      <acc value="0.1457236602" flag="0"/>
      <vel value="0.0594306665" flag="0"/>
      <psa03 value="0.2390063507" flag="0"/>
      <psa10 value="0.0557409684" flag="0"/>
      <psa30 value="0.0093213003" flag="0"/>
    </comp>
    <comp name="00.HNZ">
      <acc value="0.1810815903" flag="0"/>
      <vel value="0.0609409681" flag="0"/>
      <psa03 value="0.1269670237" flag="0"/>
      <psa10 value="0.0406971489" flag="0"/>
      <psa30 value="0.0084280173" flag="0"/>
    </comp>
  </station>
  <station code="NISR" name="NISR" netid="HL" insttype="65535" lat="36.6106" lon="27.131">
    <comp name="--.HHE">
      <acc value="6.2943307806" flag="0"/>
      <vel value="2.5105446510" flag="0"/>
      <psa03 value="20.5932383594" flag="0"/>
      <psa10 value="0.8615414866" flag="0"/>
      <psa30 value="0.0756677967" flag="0"/>
    </comp>
    <comp name="--.HHN">
      <acc value="4.7202448074" flag="0"/>
      <vel value="1.5589494232" flag="0"/>
      <psa03 value="8.0918686866" flag="0"/>
      <psa10 value="0.5698909391" flag="0"/>
      <psa30 value="0.7591369651" flag="0"/>
    </comp>
    <comp name="--.HHZ">
      <acc value="2.0034123404" flag="0"/>
      <vel value="0.4708120270" flag="0"/>
      <psa03 value="4.3681507599" flag="0"/>
      <psa10 value="0.3872206523" flag="0"/>
      <psa30 value="0.0272761063" flag="0"/>
    </comp>
  </station>
  <station code="RODB" name="RODB" netid="HL" insttype="CMG-5" lat="36.4471" lon="28.2212">
    <comp name="00.HNE">
      <acc value="0.0275369492" flag="0"/>
      <vel value="0.0632198544" flag="0"/>
      <psa03 value="0.1089742997" flag="0"/>
      <psa10 value="0.0660602012" flag="0"/>
      <psa30 value="0.0389667365" flag="0"/>
    </comp>
    <comp name="00.HNN">
      <acc value="0.0319545019" flag="0"/>
      <vel value="0.0536360736" flag="0"/>
      <psa03 value="0.0933905820" flag="0"/>
      <psa10 value="0.0415713640" flag="0"/>
      <psa30 value="0.0328948018" flag="0"/>
    </comp>
    <comp name="00.HNZ">
      <acc value="0.0212646408" flag="0"/>
      <vel value="0.0253587184" flag="0"/>
      <psa03 value="0.0574112319" flag="0"/>
      <psa10 value="0.0319348504" flag="0"/>
      <psa30 value="0.0114408867" flag="0"/>
    </comp>
  </station>
  <station code="SAP3" name="SAP3" netid="HL" insttype="LE3D20_SMART24" lat="36.4356" lon="25.3454">
    <comp name="--.HHE">
      <acc value="0.0343771286" flag="0"/>
      <vel value="0.0343821464" flag="0"/>
      <psa03 value="0.0942764147" flag="0"/>
      <psa10 value="0.0451806386" flag="0"/>
      <psa30 value="0.0198042184" flag="0"/>
    </comp>
    <comp name="--.HHN">
      <acc value="0.0449710821" flag="0"/>
      <vel value="0.0339395495" flag="0"/>
      <psa03 value="0.1208466206" flag="0"/>
      <psa10 value="0.0363591283" flag="0"/>
      <psa30 value="0.0121487836" flag="0"/>
    </comp>
    <comp name="--.HHZ">
      <acc value="0.0307852507" flag="0"/>
      <vel value="0.0219753844" flag="0"/>
      <psa03 value="0.0513386332" flag="0"/>
      <psa10 value="0.0206312183" flag="0"/>
      <psa30 value="0.0051371901" flag="0"/>
    </comp>
  </station>
  <station code="SMG" name="SMG" netid="HL" insttype="120" lat="37.7043" lon="26.8377">
    <comp name="--.HHN">
      <acc value="0.0312016729" flag="0"/>
      <vel value="0.0259809728" flag="0"/>
      <psa03 value="0.0665559725" flag="0"/>
      <psa10 value="0.0314002536" flag="0"/>
      <psa30 value="0.0056556012" flag="0"/>
    </comp>
    <comp name="--.HHZ">
      <acc value="0.0129599367" flag="0"/>
      <vel value="0.0146463287" flag="0"/>
      <psa03 value="0.0328366867" flag="0"/>
      <psa10 value="0.0283575450" flag="0"/>
      <psa30 value="0.0044792360" flag="0"/>
    </comp>
    <comp name="--.HHE">
      <acc value="0.0286757574" flag="0"/>
      <vel value="0.0282685883" flag="0"/>
      <psa03 value="0.0745087968" flag="0"/>
      <psa10 value="0.0400188983" flag="0"/>
      <psa30 value="0.0072122146" flag="0"/>
    </comp>
  </station>
  <station code="THERA" name="THERA" netid="HL" insttype="120" lat="36.367" lon="25.4753">
    <comp name="--.HHN">
      <acc value="0.0209298803" flag="0"/>
      <vel value="0.0095117014" flag="0"/>
      <psa03 value="0.0682550171" flag="0"/>
      <psa10 value="0.0075616240" flag="0"/>
      <psa30 value="0.0013445248" flag="0"/>
    </comp>
    <comp name="--.HHE">
      <acc value="0.0287930519" flag="0"/>
      <vel value="0.0136126764" flag="0"/>
      <psa03 value="0.0665976757" flag="0"/>
      <psa10 value="0.0100798728" flag="0"/>
      <psa30 value="0.0030714230" flag="0"/>
    </comp>
    <comp name="--.HHZ">
      <acc value="0.0196505210" flag="0"/>
      <vel value="0.0109155474" flag="0"/>
      <psa03 value="0.0573107339" flag="0"/>
      <psa10 value="0.0061533840" flag="0"/>
      <psa30 value="0.0020135264" flag="0"/>
    </comp>
  </station>
  <station code="ZKR" name="ZKR" netid="HL" insttype="120" lat="35.1147" lon="26.2169">
    <comp name="--.HHN">
      <acc value="0.0072937194" flag="0"/>
      <vel value="0.0048849794" flag="0"/>
      <psa03 value="0.0309779619" flag="0"/>
      <psa10 value="0.0057344591" flag="0"/>
      <psa30 value="0.0006540809" flag="0"/>
    </comp>
    <comp name="--.HHE">
      <acc value="0.0171455431" flag="0"/>
      <vel value="0.0122429099" flag="0"/>
      <psa03 value="0.0424876167" flag="0"/>
      <psa10 value="0.0128842103" flag="0"/>
      <psa30 value="0.0014490931" flag="0"/>
    </comp>
    <comp name="--.HHZ">
      <acc value="0.0160776299" flag="0"/>
      <vel value="0.0070051570" flag="0"/>
      <psa03 value="0.0331729178" flag="0"/>
      <psa10 value="0.0058825355" flag="0"/>
      <psa30 value="0.0009648314" flag="0"/>
    </comp>
  </station>
  <station code="CMBO" name="CMBO" netid="HT" insttype="120P," lat="36.4709" lon="25.4056">
    <comp name="--.HHN">
      <acc value="0.1513461632" flag="0"/>
      <vel value="0.0938386382" flag="0"/>
      <psa03 value="0.4536466399" flag="0"/>
      <psa10 value="0.0668624229" flag="0"/>
      <psa30 value="0.0087494667" flag="0"/>
    </comp>
    <comp name="--.HHE">
      <acc value="0.0914624204" flag="0"/>
      <vel value="0.0755730994" flag="0"/>
      <psa03 value="0.3313978435" flag="0"/>
      <psa10 value="0.0674880139" flag="0"/>
      <psa30 value="0.0137209184" flag="0"/>
    </comp>
    <comp name="--.HHZ">
      <acc value="0.0918199372" flag="0"/>
      <vel value="0.0449253387" flag="0"/>
      <psa03 value="0.2479536728" flag="0"/>
      <psa10 value="0.0242369005" flag="0"/>
      <psa30 value="0.0078314191" flag="0"/>
    </comp>
  </station>
  <station code="AYDN" name="AYDN" netid="TU" source="ODC" insttype="T" lat="37.6608" lon="27.8792">
    <comp name="--.HHZ">
      <acc value="0.0155710603" flag="0"/>
      <vel value="0.0279445723" flag="0"/>
      <psa03 value="0.0569831379" flag="0"/>
      <psa10 value="0.0276065295" flag="0"/>
      <psa30 value="0.0074049577" flag="0"/>
    </comp>
    <comp name="--.HHE">
      <acc value="0.0284380684" flag="0"/>
      <vel value="0.0252413284" flag="0"/>
      <psa03 value="0.0665135386" flag="0"/>
      <psa10 value="0.0534500975" flag="0"/>
      <psa30 value="0.0070399355" flag="0"/>
    </comp>
    <comp name="--.HHN">
      <acc value="0.0274539723" flag="0"/>
      <vel value="0.0194580715" flag="0"/>
      <psa03 value="0.0417704623" flag="0"/>
      <psa10 value="0.0403449455" flag="0"/>
      <psa30 value="0.0088285626" flag="0"/>
    </comp>
  </station>
</stationlist>
