<stationlist created="1778138299">
	<station code="ATEI" name="ATEI" netid="HC" source="Seismological Network of Crete (HC)" insttype="" lat="35.5193" lon="24.0432">
		<comp name="--.HNE" depth="0.0">
			<acc value="0.0034703890168913" flag="0"/>
			<vel value="0.00409951524728454" flag="0"/>
			<psa03 value="0.0107349136093107" flag="0"/>
			<psa10 value="0.00521651259961579" flag="0"/>
			<psa30 value="0.00126035692996253" flag="0"/>
		</comp>
		<comp name="--.HNN" depth="0.0">
			<acc value="0.00384859278169424" flag="0"/>
			<vel value="0.00440892937453736" flag="0"/>
			<psa03 value="0.0111270066408302" flag="0"/>
			<psa10 value="0.00501050395254903" flag="0"/>
			<psa30 value="0.00160860072857053" flag="0"/>
		</comp>
		<comp name="--.HNZ" depth="0.0">
			<acc value="0.00323932694175109" flag="0"/>
			<vel value="0.00345916578368459" flag="0"/>
			<psa03 value="0.0068935230683153" flag="0"/>
			<psa10 value="0.00253410029358433" flag="0"/>
			<psa30 value="0.00100516502474944" flag="0"/>
		</comp>
	</station>
	<station code="KRL1" name="KRL1" netid="HI" source="ITSAK Strong Motion Network" insttype="" lat="37.7951" lon="26.7065">
		<comp name="--.HNE" depth="0.0">
			<acc value="0.0402726871577343" flag="0"/>
			<vel value="0.0715701691540413" flag="0"/>
			<psa03 value="0.0875924900726307" flag="0"/>
			<psa10 value="0.109309511218825" flag="0"/>
			<psa30 value="0.0120507399690391" flag="0"/>
		</comp>
		<comp name="--.HNN" depth="0.0">
			<acc value="0.0404514358988904" flag="0"/>
			<vel value="0.0651111091050732" flag="0"/>
			<psa03 value="0.0580262137434601" flag="0"/>
			<psa10 value="0.0938980002817394" flag="0"/>
			<psa30 value="0.0105243671876624" flag="0"/>
		</comp>
		<comp name="--.HNZ" depth="0.0">
			<acc value="0.0157386642645824" flag="0"/>
			<vel value="0.024091887633758" flag="0"/>
			<psa03 value="0.0246254698581901" flag="0"/>
			<psa10 value="0.0533606461307705" flag="0"/>
			<psa30 value="0.00721390121887646" flag="0"/>
		</comp>
	</station>
	<station code="KSS1" name="KSS1" netid="HI" source="ITSAK Strong Motion Network" insttype="" lat="35.4189" lon="26.9207">
		<comp name="--.HNE" depth="0.0">
			<acc value="0.0287799984844412" flag="0"/>
			<vel value="0.0112354627729586" flag="0"/>
			<psa03 value="0.063831311844264" flag="0"/>
			<psa10 value="0.00659069269480193" flag="0"/>
			<psa30 value="0.00104322858793942" flag="0"/>
		</comp>
		<comp name="--.HNN" depth="0.0">
			<acc value="0.0338896135530505" flag="0"/>
			<vel value="0.0123591081540215" flag="0"/>
			<psa03 value="0.0993885006672726" flag="0"/>
			<psa10 value="0.00627747991474811" flag="0"/>
			<psa30 value="0.00116564315563755" flag="0"/>
		</comp>
		<comp name="--.HNZ" depth="0.0">
			<acc value="0.0208644963699497" flag="0"/>
			<vel value="0.00823223470810273" flag="0"/>
			<psa03 value="0.0254583948270631" flag="0"/>
			<psa10 value="0.00682284901151999" flag="0"/>
			<psa30 value="0.00102358645341207" flag="0"/>
		</comp>
	</station>
	<station code="RDI1" name="RDI1" netid="HI" source="ITSAK Strong Motion Network" insttype="" lat="36.4514" lon="28.224">
		<comp name="--.HNE" depth="0.0">
			<acc value="0.0334039410458095" flag="0"/>
			<vel value="0.0737543701481987" flag="0"/>
			<psa03 value="0.0643676755009418" flag="0"/>
			<psa10 value="0.0607742009924621" flag="0"/>
			<psa30 value="0.0433673362065192" flag="0"/>
		</comp>
		<comp name="--.HNN" depth="0.0">
			<acc value="0.0269502655246023" flag="0"/>
			<vel value="0.0550851793020534" flag="0"/>
			<psa03 value="0.0669595190730192" flag="0"/>
			<psa10 value="0.0534685070261522" flag="0"/>
			<psa30 value="0.0387578108480803" flag="0"/>
		</comp>
		<comp name="--.HNZ" depth="0.0">
			<acc value="0.0203453199913224" flag="0"/>
			<vel value="0.0265432182984411" flag="0"/>
			<psa03 value="0.0935148511498516" flag="0"/>
			<psa10 value="0.0217580619898429" flag="0"/>
			<psa30 value="0.0123358113536276" flag="0"/>
		</comp>
	</station>
	<station code="SIT2" name="SIT2" netid="HI" source="ITSAK Strong Motion Network" insttype="" lat="35.2059" lon="26.107">
		<comp name="--.HNE" depth="0.0">
			<acc value="0.058022100489205" flag="0"/>
			<vel value="0.037855196118862" flag="0"/>
			<psa03 value="0.159198608626372" flag="0"/>
			<psa10 value="0.0289642243627146" flag="0"/>
			<psa30 value="0.00168261052718893" flag="0"/>
		</comp>
		<comp name="--.HNN" depth="0.0">
			<acc value="0.052796292904987" flag="0"/>
			<vel value="0.0315463773523339" flag="0"/>
			<psa03 value="0.176086373191278" flag="0"/>
			<psa10 value="0.019921975983145" flag="0"/>
			<psa30 value="0.00146143066677394" flag="0"/>
		</comp>
		<comp name="--.HNZ" depth="0.0">
			<acc value="0.0314004580704049" flag="0"/>
			<vel value="0.0151505570476051" flag="0"/>
			<psa03 value="0.10534381184368" flag="0"/>
			<psa10 value="0.00626179590697882" flag="0"/>
			<psa30 value="0.000654131822607056" flag="0"/>
		</comp>
	</station>
	<station code="KARP" name="KARP" netid="HL" source="National Observatory of Athens Seismic Network" insttype="" lat="35.5471" lon="27.16106">
		<comp name="--.HNE" depth="0.0">
			<acc value="0.110818353936719" flag="0"/>
			<vel value="0.0378969695894753" flag="0"/>
			<psa03 value="0.143305670380629" flag="0"/>
			<psa10 value="0.038936673113494" flag="0"/>
			<psa30 value="0.00168554051295124" flag="0"/>
		</comp>
		<comp name="--.HNN" depth="0.0">
			<acc value="0.107547676305422" flag="0"/>
			<vel value="0.0543820642527431" flag="0"/>
			<psa03 value="0.119989146608718" flag="0"/>
			<psa10 value="0.0748368975771615" flag="0"/>
			<psa30 value="0.00282199819353093" flag="0"/>
		</comp>
		<comp name="--.HNZ" depth="0.0">
			<acc value="0.0706097789855917" flag="0"/>
			<vel value="0.0277532348306102" flag="0"/>
			<psa03 value="0.120656159544939" flag="0"/>
			<psa10 value="0.0300253271555797" flag="0"/>
			<psa30 value="0.00141970113156501" flag="0"/>
		</comp>
	</station>
	<station code="KLNA" name="KLNA" netid="HL" source="National Observatory of Athens Seismic Network" insttype="" lat="36.95708" lon="26.97274">
		<comp name="00.HNE" depth="0.0">
			<acc value="0.192871649362192" flag="0"/>
			<vel value="0.0707718662594046" flag="0"/>
			<psa03 value="0.625444432625309" flag="0"/>
			<psa10 value="0.0564921598284156" flag="0"/>
			<psa30 value="0.0148894580202069" flag="0"/>
		</comp>
		<comp name="00.HNN" depth="0.0">
			<acc value="0.146245221854926" flag="0"/>
			<vel value="0.0592593852568157" flag="0"/>
			<psa03 value="0.238337267841049" flag="0"/>
			<psa10 value="0.0556332291782013" flag="0"/>
			<psa30 value="0.00879749362410528" flag="0"/>
		</comp>
		<comp name="00.HNZ" depth="0.0">
			<acc value="0.18088845260047" flag="0"/>
			<vel value="0.0597660931481432" flag="0"/>
			<psa03 value="0.127315402770789" flag="0"/>
			<psa10 value="0.0405463997499942" flag="0"/>
			<psa30 value="0.00780803641076651" flag="0"/>
		</comp>
	</station>
	<station code="MILA" name="MILA" netid="HL" source="National Observatory of Athens Seismic Network" insttype="" lat="36.74288" lon="24.4282">
		<comp name="00.HNE" depth="0.0">
			<acc value="0.00963786653866901" flag="0"/>
			<vel value="0.00938382483963296" flag="0"/>
			<psa03 value="0.0324248797599795" flag="0"/>
			<psa10 value="0.0144234226684709" flag="0"/>
			<psa30 value="0.0028312844337003" flag="0"/>
		</comp>
		<comp name="00.HNN" depth="0.0">
			<acc value="0.0160876828185427" flag="0"/>
			<vel value="0.0102065391711908" flag="0"/>
			<psa03 value="0.0415001736619828" flag="0"/>
			<psa10 value="0.0110163819687332" flag="0"/>
			<psa30 value="0.00241242835320395" flag="0"/>
		</comp>
		<comp name="00.HNZ" depth="0.0">
			<acc value="0.00713750175802173" flag="0"/>
			<vel value="0.00661302076857798" flag="0"/>
			<psa03 value="0.0169820924281815" flag="0"/>
			<psa10 value="0.00950360112943606" flag="0"/>
			<psa30 value="0.0015491432481367" flag="0"/>
		</comp>
	</station>
	<station code="NISR" name="NISR" netid="HL" source="National Observatory of Athens Seismic Network" insttype="" lat="36.6106" lon="27.131">
		<comp name="--.HNE" depth="0.0">
			<acc value="5.41465151296587" flag="0"/>
			<vel value="2.25413259279703" flag="0"/>
			<psa03 value="18.3532771478681" flag="0"/>
			<psa10 value="0.805454357396461" flag="0"/>
			<psa30 value="0.126130515527442" flag="0"/>
		</comp>
		<comp name="--.HNN" depth="0.0">
			<acc value="4.75726381389138" flag="0"/>
			<vel value="1.63785278626972" flag="0"/>
			<psa03 value="10.2704823690364" flag="0"/>
			<psa10 value="0.341591558764185" flag="0"/>
			<psa30 value="0.101868514956055" flag="0"/>
		</comp>
		<comp name="--.HNZ" depth="0.0">
			<acc value="1.64217878578573" flag="0"/>
			<vel value="0.439590528721137" flag="0"/>
			<psa03 value="3.43322943460053" flag="0"/>
			<psa10 value="0.385817698528936" flag="0"/>
			<psa30 value="0.0280609355659412" flag="0"/>
		</comp>
	</station>
	<station code="SMG" name="SMG" netid="HL" source="National Observatory of Athens Seismic Network" insttype="" lat="37.70425" lon="26.83772">
		<comp name="00.HNE" depth="0.0">
			<acc value="0.0309337048410417" flag="0"/>
			<vel value="0.0272024093842077" flag="0"/>
			<psa03 value="0.072656250620098" flag="0"/>
			<psa10 value="0.0411017927921071" flag="0"/>
			<psa30 value="0.00550364292264796" flag="0"/>
		</comp>
		<comp name="00.HNN" depth="0.0">
			<acc value="0.028051167748912" flag="0"/>
			<vel value="0.021708621054071" flag="0"/>
			<psa03 value="0.0660861955943902" flag="0"/>
			<psa10 value="0.03052014993514" flag="0"/>
			<psa30 value="0.00344507717778993" flag="0"/>
		</comp>
		<comp name="00.HNZ" depth="0.0">
			<acc value="0.0133425376494157" flag="0"/>
			<vel value="0.014345828207697" flag="0"/>
			<psa03 value="0.0342003359169237" flag="0"/>
			<psa10 value="0.0291032441970975" flag="0"/>
			<psa30 value="0.00290356109667294" flag="0"/>
		</comp>
	</station>
	<station code="THRA" name="THRA" netid="HL" source="National Observatory of Athens Seismic Network" insttype="" lat="36.41502" lon="25.43244">
		<comp name="00.HNE" depth="0.0">
			<acc value="0.0668509407004676" flag="0"/>
			<vel value="0.0568792676481696" flag="0"/>
			<psa03 value="0.164928717384874" flag="0"/>
			<psa10 value="0.062245232191179" flag="0"/>
			<psa30 value="0.00920323300233492" flag="0"/>
		</comp>
		<comp name="00.HNN" depth="0.0">
			<acc value="0.0723785508456035" flag="0"/>
			<vel value="0.0408842454516002" flag="0"/>
			<psa03 value="0.197755308651837" flag="0"/>
			<psa10 value="0.0596832274708755" flag="0"/>
			<psa30 value="0.0086630688858043" flag="0"/>
		</comp>
		<comp name="00.HNZ" depth="0.0">
			<acc value="0.0449893626590049" flag="0"/>
			<vel value="0.0359809249814618" flag="0"/>
			<psa03 value="0.137275114635818" flag="0"/>
			<psa10 value="0.0305142414187551" flag="0"/>
			<psa30 value="0.00297592380701172" flag="0"/>
		</comp>
	</station>
	<station code="BASM" name="BASM" netid="KO" source="Bogazici University Kandilli Observatory And Earthquake Research Institute (KOERI)" insttype="" lat="37.9194" lon="30.035">
		<comp name="--.HNE" depth="0.0">
			<acc value="0.00429754650090274" flag="0"/>
			<vel value="0.0101789062522421" flag="0"/>
			<psa03 value="0.00521246346418042" flag="0"/>
			<psa10 value="0.00803379532451126" flag="0"/>
			<psa30 value="0.00575057053042427" flag="0"/>
		</comp>
		<comp name="--.HNN" depth="0.0">
			<acc value="0.00323241188063372" flag="0"/>
			<vel value="0.00895778324466931" flag="0"/>
			<psa03 value="0.00407292703798789" flag="0"/>
			<psa10 value="0.00612193648573299" flag="0"/>
			<psa30 value="0.00350742651645833" flag="0"/>
		</comp>
		<comp name="--.HNZ" depth="0.0">
			<acc value="0.00155836655749728" flag="0"/>
			<vel value="0.00464510154056298" flag="0"/>
			<psa03 value="0.00180851938235686" flag="0"/>
			<psa10 value="0.00319985236514088" flag="0"/>
			<psa30 value="0.00304547320598804" flag="0"/>
		</comp>
	</station>
	<station code="GORD" name="GORD" netid="KO" source="Bogazici University Kandilli Observatory And Earthquake Research Institute (KOERI)" insttype="" lat="38.9088" lon="28.1769">
		<comp name="--.HNE" depth="0.0">
			<acc value="0.00369694911345482" flag="0"/>
			<vel value="0.0100431815025807" flag="0"/>
			<psa03 value="0.0037889580311252" flag="0"/>
			<psa10 value="0.0118818764910053" flag="0"/>
			<psa30 value="0.00468734093000681" flag="0"/>
		</comp>
		<comp name="--.HNN" depth="0.0">
			<acc value="0.00290001809133916" flag="0"/>
			<vel value="0.00712641900944234" flag="0"/>
			<psa03 value="0.00364094138980914" flag="0"/>
			<psa10 value="0.0109187442507141" flag="0"/>
			<psa30 value="0.00198780751582456" flag="0"/>
		</comp>
		<comp name="--.HNZ" depth="0.0">
			<acc value="0.00217035969850777" flag="0"/>
			<vel value="0.00492105754549012" flag="0"/>
			<psa03 value="0.00304246326700763" flag="0"/>
			<psa10 value="0.00757409877814228" flag="0"/>
			<psa30 value="0.00226351598849063" flag="0"/>
		</comp>
	</station>
	<station code="SOMA" name="SOMA" netid="KO" source="Bogazici University Kandilli Observatory And Earthquake Research Institute (KOERI)" insttype="" lat="39.1564" lon="27.5341">
		<comp name="--.HNE" depth="0.0">
			<acc value="0.0024017784470941" flag="0"/>
			<vel value="0.00522216711831918" flag="0"/>
			<psa03 value="0.00427242820969383" flag="0"/>
			<psa10 value="0.00831286349892632" flag="0"/>
			<psa30 value="0.0028870460442989" flag="0"/>
		</comp>
		<comp name="--.HNN" depth="0.0">
			<acc value="0.00355591322590585" flag="0"/>
			<vel value="0.00709637345240165" flag="0"/>
			<psa03 value="0.0045692597222984" flag="0"/>
			<psa10 value="0.0100697742606338" flag="0"/>
			<psa30 value="0.00381666533534847" flag="0"/>
		</comp>
		<comp name="--.HNZ" depth="0.0">
			<acc value="0.00125861609368492" flag="0"/>
			<vel value="0.00304005083172085" flag="0"/>
			<psa03 value="0.00356359056257484" flag="0"/>
			<psa10 value="0.00472402716237432" flag="0"/>
			<psa30 value="0.00514961905364454" flag="0"/>
		</comp>
	</station>
</stationlist>
