<?xml version="1.0" encoding="UTF-8" standalone="yes"?>
<!DOCTYPE earthquake SYSTEM "stationlist.dtd">
<stationlist created="" xmlns="ch.ethz.sed.shakemap.usgs.xml">
  <station code="BLY" name="BLY" netid="MN" insttype="" lat="44.7488" lon="17.1839">
    <comp name="--.HHZ">
      <acc value="0.0108389734" flag="0"/>
      <vel value="0.0044026492" flag="0"/>
      <psa03 value="0.0260748200" flag="0"/>
      <psa10 value="0.0018944979" flag="0"/>
      <psa30 value="0.0001509366" flag="0"/>
    </comp>
    <comp name="--.HHN">
      <acc value="0.0101216766" flag="0"/>
      <vel value="0.0037751690" flag="0"/>
      <psa03 value="0.0349195805" flag="0"/>
      <psa10 value="0.0038093364" flag="0"/>
      <psa30 value="0.0002336108" flag="0"/>
    </comp>
    <comp name="--.HHE">
      <acc value="0.0192097743" flag="0"/>
      <vel value="0.0059709147" flag="0"/>
      <psa03 value="0.0450222271" flag="0"/>
      <psa10 value="0.0025019727" flag="0"/>
      <psa30 value="0.0003095935" flag="0"/>
    </comp>
  </station>
</stationlist>
