<?xml version="1.0" encoding="UTF-8" standalone="yes"?>
<!DOCTYPE earthquake SYSTEM "stationlist.dtd">
<stationlist created="" xmlns="ch.ethz.sed.shakemap.usgs.xml">
  <station code="APE" name="APE" netid="GE" insttype="STS-2/N" lat="37.0727" lon="25.523">
    <comp name="--.HHN">
      <acc value="0.2823913347" flag="0"/>
      <vel value="0.0644602624" flag="0"/>
      <psa03 value="0.2849758526" flag="0"/>
      <psa10 value="0.0220339386" flag="0"/>
      <psa30 value="0.0070394637" flag="0"/>
    </comp>
    <comp name="--.HHE">
      <acc value="0.2783659898" flag="0"/>
      <vel value="0.0544478762" flag="0"/>
      <psa03 value="0.2974337662" flag="0"/>
      <psa10 value="0.0193561219" flag="0"/>
      <psa30 value="0.0069641924" flag="0"/>
    </comp>
    <comp name="--.HHZ">
      <acc value="0.1185053234" flag="0"/>
      <vel value="0.0324669147" flag="0"/>
      <psa03 value="0.2550119649" flag="0"/>
      <psa10 value="0.0138513080" flag="0"/>
      <psa30 value="0.0076188138" flag="0"/>
    </comp>
  </station>
  <station code="THERA" name="THERA" netid="GE" insttype="STS-2/N" lat="36.367" lon="25.4753">
    <comp name="--.HHE">
      <acc value="0.3955904733" flag="0"/>
      <vel value="0.1375991429" flag="0"/>
      <psa03 value="0.9458726139" flag="0"/>
      <psa10 value="0.0759394583" flag="0"/>
      <psa30 value="0.0063238237" flag="0"/>
    </comp>
    <comp name="--.HHN">
      <acc value="0.2081961939" flag="0"/>
      <vel value="0.0770062786" flag="0"/>
      <psa03 value="0.6731073006" flag="0"/>
      <psa10 value="0.0276508391" flag="0"/>
      <psa30 value="0.0023657570" flag="0"/>
    </comp>
    <comp name="--.HHZ">
      <acc value="0.2121031917" flag="0"/>
      <vel value="0.0735084707" flag="0"/>
      <psa03 value="0.5494431082" flag="0"/>
      <psa10 value="0.0512995738" flag="0"/>
      <psa30 value="0.0039421768" flag="0"/>
    </comp>
  </station>
</stationlist>
