<?xml version="1.0" encoding="UTF-8" standalone="yes"?>
<!DOCTYPE earthquake SYSTEM "stationlist.dtd">
<stationlist created="" xmlns="ch.ethz.sed.shakemap.usgs.xml">
  <station code="APE" name="APE" netid="GE" insttype="STS-2/N" lat="37.0727" lon="25.523">
    <comp name="--.HHN">
      <acc value="0.2823913347" flag="0"/>
      <vel value="0.0644602624" flag="0"/>
      <psa03 value="0.2849758526" flag="0"/>
      <psa10 value="0.0220339386" flag="0"/>
      <psa30 value="0.0070394637" flag="0"/>
    </comp>
    <comp name="--.HHE">
      <acc value="0.2783659898" flag="0"/>
      <vel value="0.0544478762" flag="0"/>
      <psa03 value="0.2974337662" flag="0"/>
      <psa10 value="0.0193561219" flag="0"/>
      <psa30 value="0.0069641924" flag="0"/>
    </comp>
    <comp name="--.HHZ">
      <acc value="0.1185053234" flag="0"/>
      <vel value="0.0324669147" flag="0"/>
      <psa03 value="0.2550119649" flag="0"/>
      <psa10 value="0.0138513080" flag="0"/>
      <psa30 value="0.0076188138" flag="0"/>
    </comp>
  </station>
  <station code="THERA" name="THERA" netid="GE" insttype="STS-2/N" lat="36.367" lon="25.4753">
    <comp name="--.HHE">
      <acc value="0.3955904733" flag="0"/>
      <vel value="0.1375991429" flag="0"/>
      <psa03 value="0.9458726139" flag="0"/>
      <psa10 value="0.0759394583" flag="0"/>
      <psa30 value="0.0063238237" flag="0"/>
    </comp>
    <comp name="--.HHN">
      <acc value="0.2081961939" flag="0"/>
      <vel value="0.0770062786" flag="0"/>
      <psa03 value="0.6731073006" flag="0"/>
      <psa10 value="0.0276508391" flag="0"/>
      <psa30 value="0.0023657570" flag="0"/>
    </comp>
    <comp name="--.HHZ">
      <acc value="0.2121031917" flag="0"/>
      <vel value="0.0735084707" flag="0"/>
      <psa03 value="0.5494431082" flag="0"/>
      <psa10 value="0.0512995738" flag="0"/>
      <psa30 value="0.0039421768" flag="0"/>
    </comp>
  </station>
  <station code="SNT1" name="SNT1" netid="HA" insttype="30" lat="36.4159" lon="25.4282">
    <comp name="--.HHN">
      <acc value="0.4351191776" flag="0"/>
      <vel value="0.1963548637" flag="0"/>
      <psa03 value="0.7155001789" flag="0"/>
      <psa10 value="0.1115217476" flag="0"/>
      <psa30 value="0.0076950992" flag="0"/>
    </comp>
    <comp name="--.HHE">
      <acc value="0.3614348108" flag="0"/>
      <vel value="0.1339859989" flag="0"/>
      <psa03 value="0.5669711481" flag="0"/>
      <psa10 value="0.0970310261" flag="0"/>
      <psa30 value="0.0108694177" flag="0"/>
    </comp>
    <comp name="--.HHZ">
      <acc value="0.3559574521" flag="0"/>
      <vel value="0.0906158419" flag="0"/>
      <psa03 value="0.4096166645" flag="0"/>
      <psa10 value="0.0702170363" flag="0"/>
      <psa30 value="0.0046209303" flag="0"/>
    </comp>
  </station>
  <station code="NAX1" name="NAX1" netid="HI" insttype="CMG-5TD,ACCELEROMETER,GURALP" lat="37.1014" lon="25.3741">
    <comp name="--.HNN">
      <acc value="0.1804119253" flag="0"/>
      <vel value="0.0431226544" flag="0"/>
      <psa03 value="0.1559857671" flag="0"/>
      <psa10 value="0.0186335981" flag="0"/>
      <psa30 value="0.0036930177" flag="0"/>
    </comp>
    <comp name="--.HNE">
      <acc value="0.2176954898" flag="0"/>
      <vel value="0.0484056524" flag="0"/>
      <psa03 value="0.2629866665" flag="0"/>
      <psa10 value="0.0145931316" flag="0"/>
      <psa30 value="0.0027861386" flag="0"/>
    </comp>
    <comp name="--.HNZ">
      <acc value="0.1575659746" flag="0"/>
      <vel value="0.0325743824" flag="0"/>
      <psa03 value="0.1123919206" flag="0"/>
      <psa10 value="0.0137086069" flag="0"/>
      <psa30 value="0.0053052639" flag="0"/>
    </comp>
  </station>
  <station code="APE" name="APE" netid="HL" insttype="120" lat="37.0727" lon="25.523">
    <comp name="--.HHE">
      <acc value="0.2424347341" flag="0"/>
      <vel value="0.0530390515" flag="0"/>
      <psa03 value="0.2870977180" flag="0"/>
      <psa10 value="0.0190331941" flag="0"/>
      <psa30 value="0.0069492457" flag="0"/>
    </comp>
    <comp name="--.HHN">
      <acc value="0.2709847496" flag="0"/>
      <vel value="0.0612011183" flag="0"/>
      <psa03 value="0.2765633520" flag="0"/>
      <psa10 value="0.0216940519" flag="0"/>
      <psa30 value="0.0070287594" flag="0"/>
    </comp>
    <comp name="--.HHZ">
      <acc value="0.1113925776" flag="0"/>
      <vel value="0.0316434216" flag="0"/>
      <psa03 value="0.2477842225" flag="0"/>
      <psa10 value="0.0136675440" flag="0"/>
      <psa30 value="0.0076008985" flag="0"/>
    </comp>
  </station>
  <station code="MHLO" name="MHLO" netid="HL" insttype="20" lat="36.6898" lon="24.4017">
    <comp name="--.HHN">
      <acc value="0.3058169535" flag="0"/>
      <vel value="0.1545263199" flag="0"/>
      <psa03 value="0.7609808247" flag="0"/>
      <psa10 value="0.1672680626" flag="0"/>
      <psa30 value="0.0074027941" flag="0"/>
    </comp>
    <comp name="--.HHE">
      <acc value="0.2234602735" flag="0"/>
      <vel value="0.1436852465" flag="0"/>
      <psa03 value="0.5664562678" flag="0"/>
      <psa10 value="0.1716694005" flag="0"/>
      <psa30 value="0.0094877126" flag="0"/>
    </comp>
    <comp name="--.HHZ">
      <acc value="0.1077681702" flag="0"/>
      <vel value="0.0676141551" flag="0"/>
      <psa03 value="0.3725338353" flag="0"/>
      <psa10 value="0.1087091374" flag="0"/>
      <psa30 value="0.0069654252" flag="0"/>
    </comp>
  </station>
  <station code="NISR" name="NISR" netid="HL" insttype="65535" lat="36.6106" lon="27.131">
    <comp name="--.HHE">
      <acc value="0.0000000000" flag="0"/>
      <vel value="-100.0000000000" flag="0"/>
      <psa03 value="0.0000000000" flag="0"/>
      <psa10 value="0.0000000000" flag="0"/>
      <psa30 value="0.0000000000" flag="0"/>
    </comp>
    <comp name="--.HHN">
      <acc value="0.0272963236" flag="0"/>
      <vel value="0.0186251657" flag="0"/>
      <psa03 value="0.0551666341" flag="0"/>
      <psa10 value="0.0148008133" flag="0"/>
      <psa30 value="0.0043969236" flag="0"/>
    </comp>
    <comp name="--.HHZ">
      <acc value="0.0157416451" flag="0"/>
      <vel value="0.0092405751" flag="0"/>
      <psa03 value="0.0375044666" flag="0"/>
      <psa10 value="0.0096969480" flag="0"/>
      <psa30 value="0.0008865541" flag="0"/>
    </comp>
  </station>
  <station code="NISR2" name="NISR2" netid="HL" insttype="120" lat="36.5744" lon="27.1767">
    <comp name="--.HHE">
      <acc value="0.0344216949" flag="0"/>
      <vel value="0.0286551286" flag="0"/>
      <psa03 value="0.1010022522" flag="0"/>
      <psa10 value="0.0516656470" flag="0"/>
      <psa30 value="0.0037707228" flag="0"/>
    </comp>
    <comp name="--.HHN">
      <acc value="0.0500570682" flag="0"/>
      <vel value="0.0381557632" flag="0"/>
      <psa03 value="0.0997884814" flag="0"/>
      <psa10 value="0.0516473595" flag="0"/>
      <psa30 value="0.0031340685" flag="0"/>
    </comp>
    <comp name="--.HHZ">
      <acc value="0.0148633991" flag="0"/>
      <vel value="0.0099770091" flag="0"/>
      <psa03 value="0.0410610522" flag="0"/>
      <psa10 value="0.0119539255" flag="0"/>
      <psa30 value="0.0015633673" flag="0"/>
    </comp>
  </station>
  <station code="SAP3" name="SAP3" netid="HL" insttype="LE3D20_SMART24" lat="36.4356" lon="25.3454">
    <comp name="--.HHE">
      <acc value="1.2634964996" flag="0"/>
      <vel value="0.5403828075" flag="0"/>
      <psa03 value="1.9889179160" flag="0"/>
      <psa10 value="0.3049221863" flag="0"/>
      <psa30 value="0.0416398497" flag="0"/>
    </comp>
    <comp name="--.HHN">
      <acc value="1.3635541374" flag="0"/>
      <vel value="0.5171401685" flag="0"/>
      <psa03 value="2.2207612997" flag="0"/>
      <psa10 value="0.3450131981" flag="0"/>
      <psa30 value="0.0473876391" flag="0"/>
    </comp>
    <comp name="--.HHZ">
      <acc value="1.4713951263" flag="0"/>
      <vel value="0.3999082913" flag="0"/>
      <psa03 value="1.8749181791" flag="0"/>
      <psa10 value="0.1367468773" flag="0"/>
      <psa30 value="0.0231013952" flag="0"/>
    </comp>
  </station>
  <station code="THERA" name="THERA" netid="HL" insttype="120" lat="36.367" lon="25.4753">
    <comp name="--.HHE">
      <acc value="0.3893880441" flag="0"/>
      <vel value="0.1346030295" flag="0"/>
      <psa03 value="0.9206294631" flag="0"/>
      <psa10 value="0.0748015941" flag="0"/>
      <psa30 value="0.0062545599" flag="0"/>
    </comp>
    <comp name="--.HHN">
      <acc value="0.2079868590" flag="0"/>
      <vel value="0.0751272371" flag="0"/>
      <psa03 value="0.6543225289" flag="0"/>
      <psa10 value="0.0272140915" flag="0"/>
      <psa30 value="0.0023663580" flag="0"/>
    </comp>
    <comp name="--.HHZ">
      <acc value="0.2146789078" flag="0"/>
      <vel value="0.0721953299" flag="0"/>
      <psa03 value="0.5345533444" flag="0"/>
      <psa10 value="0.0508337757" flag="0"/>
      <psa30 value="0.0039445835" flag="0"/>
    </comp>
  </station>
  <station code="THRA" name="THRA" netid="HL" insttype="CMG-5" lat="36.415" lon="25.4324">
    <comp name="00.HNE">
      <acc value="1.4022270877" flag="0"/>
      <vel value="0.4678999319" flag="0"/>
      <psa03 value="3.2947277142" flag="0"/>
      <psa10 value="0.2458317736" flag="0"/>
      <psa30 value="0.0264232928" flag="0"/>
    </comp>
    <comp name="00.HNN">
      <acc value="1.2278382790" flag="0"/>
      <vel value="0.5039479525" flag="0"/>
      <psa03 value="2.3808131001" flag="0"/>
      <psa10 value="0.4005591402" flag="0"/>
      <psa30 value="0.0193082549" flag="0"/>
    </comp>
    <comp name="00.HNZ">
      <acc value="0.7041529241" flag="0"/>
      <vel value="0.2805099256" flag="0"/>
      <psa03 value="1.7633585682" flag="0"/>
      <psa10 value="0.1348787007" flag="0"/>
      <psa30 value="0.0115355242" flag="0"/>
    </comp>
  </station>
  <station code="TNSA" name="TNSA" netid="HL" insttype="CMG-5" lat="37.5394" lon="25.1631">
    <comp name="00.HNE">
      <acc value="0.1070521442" flag="0"/>
      <vel value="0.0405011316" flag="0"/>
      <psa03 value="0.1485456637" flag="0"/>
      <psa10 value="0.0126711553" flag="0"/>
      <psa30 value="0.0015086077" flag="0"/>
    </comp>
    <comp name="00.HNN">
      <acc value="0.1145864694" flag="0"/>
      <vel value="0.0481830404" flag="0"/>
      <psa03 value="0.2452134720" flag="0"/>
      <psa10 value="0.0144462627" flag="0"/>
      <psa30 value="0.0021404952" flag="0"/>
    </comp>
    <comp name="00.HNZ">
      <acc value="0.0896983797" flag="0"/>
      <vel value="0.0280388513" flag="0"/>
      <psa03 value="0.1951923894" flag="0"/>
      <psa10 value="0.0131273739" flag="0"/>
      <psa30 value="0.0031246342" flag="0"/>
    </comp>
  </station>
  <station code="CMBO" name="CMBO" netid="HT" insttype="120P," lat="36.4709" lon="25.4056">
    <comp name="--.HHE">
      <acc value="1.3900441957" flag="0"/>
      <vel value="0.5960622357" flag="0"/>
      <psa03 value="3.8209963417" flag="0"/>
      <psa10 value="0.3521971446" flag="0"/>
      <psa30 value="0.0286986714" flag="0"/>
    </comp>
    <comp name="--.HHZ">
      <acc value="1.4122908026" flag="0"/>
      <vel value="0.4267207100" flag="0"/>
      <psa03 value="2.6232874477" flag="0"/>
      <psa10 value="0.1382269024" flag="0"/>
      <psa30 value="0.0156066982" flag="0"/>
    </comp>
    <comp name="--.HHN">
      <acc value="2.6281229794" flag="0"/>
      <vel value="0.7306761193" flag="0"/>
      <psa03 value="2.6675835770" flag="0"/>
      <psa10 value="0.5409525841" flag="0"/>
      <psa30 value="0.0282800207" flag="0"/>
    </comp>
  </station>
</stationlist>
