<?xml version="1.0" encoding="UTF-8" standalone="yes"?>
<!DOCTYPE earthquake SYSTEM "stationlist.dtd">
<stationlist created="" xmlns="ch.ethz.sed.shakemap.usgs.xml">
  <station code="KSP" name="KSP" netid="PL" insttype="STS-2/N" lat="50.8428" lon="16.2931">
    <comp name="--.HHE">
      <acc value="0.0018198871" flag="0"/>
      <vel value="0.0004913676" flag="0"/>
      <psa03 value="0.0015068771" flag="0"/>
      <psa10 value="0.0004624382" flag="0"/>
      <psa30 value="0.0001529647" flag="0"/>
    </comp>
    <comp name="--.HHZ">
      <acc value="0.0017199108" flag="0"/>
      <vel value="0.0008269925" flag="0"/>
      <psa03 value="0.0012319914" flag="0"/>
      <psa10 value="0.0005315759" flag="0"/>
      <psa30 value="0.0003096690" flag="0"/>
    </comp>
    <comp name="--.HHN">
      <acc value="0.0016947895" flag="0"/>
      <vel value="0.0009208242" flag="0"/>
      <psa03 value="0.0018331614" flag="0"/>
      <psa10 value="0.0005870189" flag="0"/>
      <psa30 value="0.0003023020" flag="0"/>
    </comp>
  </station>
</stationlist>
