<?xml version="1.0" encoding="UTF-8" standalone="yes"?>
<!DOCTYPE earthquake SYSTEM "stationlist.dtd">
<stationlist created="" xmlns="ch.ethz.sed.shakemap.usgs.xml">
  <station code="CEYT" name="CEYT" netid="KO" insttype="CMG-3ESP" lat="37.0105" lon="35.7478">
    <comp name="--.HHE">
      <acc value="0.0139330894" flag="0"/>
      <vel value="0.0056168765" flag="0"/>
      <psa03 value="0.0514982270" flag="0"/>
      <psa10 value="0.0028878193" flag="0"/>
      <psa30 value="0.0002407439" flag="0"/>
    </comp>
    <comp name="--.HHZ">
      <acc value="0.0078349298" flag="0"/>
      <vel value="0.0034505425" flag="0"/>
      <psa03 value="0.0236759792" flag="0"/>
      <psa10 value="0.0028965149" flag="0"/>
      <psa30 value="0.0001899123" flag="0"/>
    </comp>
    <comp name="--.HHN">
      <acc value="0.0138947000" flag="0"/>
      <vel value="0.0089087631" flag="0"/>
      <psa03 value="0.0379836310" flag="0"/>
      <psa10 value="0.0063973246" flag="0"/>
      <psa30 value="0.0004761960" flag="0"/>
    </comp>
  </station>
</stationlist>
