<?xml version="1.0" encoding="UTF-8" standalone="yes"?>
<!DOCTYPE earthquake SYSTEM "stationlist.dtd">
<stationlist created="" xmlns="ch.ethz.sed.shakemap.usgs.xml">
  <station code="THERA" name="THERA" netid="GE" insttype="STS-2/N" lat="36.367" lon="25.4753">
    <comp name="--.HHE">
      <acc value="0.3647211028" flag="0"/>
      <vel value="0.1142235090" flag="0"/>
      <psa03 value="1.0329325058" flag="0"/>
      <psa10 value="0.0402696436" flag="0"/>
      <psa30 value="0.0053388103" flag="0"/>
    </comp>
    <comp name="--.HHZ">
      <acc value="0.3304198214" flag="0"/>
      <vel value="0.0913185197" flag="0"/>
      <psa03 value="0.4500956934" flag="0"/>
      <psa10 value="0.0380856227" flag="0"/>
      <psa30 value="0.0046038954" flag="0"/>
    </comp>
    <comp name="--.HHN">
      <acc value="0.2741101861" flag="0"/>
      <vel value="0.0798454515" flag="0"/>
      <psa03 value="0.7164601335" flag="0"/>
      <psa10 value="0.0196056634" flag="0"/>
      <psa30 value="0.0022781866" flag="0"/>
    </comp>
  </station>
</stationlist>
