<?xml version="1.0" encoding="UTF-8" standalone="yes"?>
<!DOCTYPE earthquake SYSTEM "stationlist.dtd">
<stationlist created="" xmlns="ch.ethz.sed.shakemap.usgs.xml">
  <station code="APE" name="APE" netid="GE" insttype="STS-2/N" lat="37.0727" lon="25.523">
    <comp name="--.HHZ">
      <acc value="0.1726018025" flag="0"/>
      <vel value="0.0369189959" flag="0"/>
      <psa03 value="0.1535915200" flag="0"/>
      <psa10 value="0.0265945779" flag="0"/>
      <psa30 value="0.0107791705" flag="0"/>
    </comp>
    <comp name="--.HHN">
      <acc value="0.4453759623" flag="0"/>
      <vel value="0.0708492626" flag="0"/>
      <psa03 value="0.2621344164" flag="0"/>
      <psa10 value="0.0300935215" flag="0"/>
      <psa30 value="0.0096578651" flag="0"/>
    </comp>
    <comp name="--.HHE">
      <acc value="0.3233005376" flag="0"/>
      <vel value="0.0611839606" flag="0"/>
      <psa03 value="0.2961817357" flag="0"/>
      <psa10 value="0.0246227521" flag="0"/>
      <psa30 value="0.0095881952" flag="0"/>
    </comp>
  </station>
  <station code="THERA" name="THERA" netid="GE" insttype="STS-2/N" lat="36.367" lon="25.4753">
    <comp name="--.HHE">
      <acc value="0.3647211024" flag="0"/>
      <vel value="0.1142234460" flag="0"/>
      <psa03 value="1.0329325059" flag="0"/>
      <psa10 value="0.0402695049" flag="0"/>
      <psa30 value="0.0053428639" flag="0"/>
    </comp>
    <comp name="--.HHN">
      <acc value="0.2741101845" flag="0"/>
      <vel value="0.0798454289" flag="0"/>
      <psa03 value="0.7164601335" flag="0"/>
      <psa10 value="0.0196057987" flag="0"/>
      <psa30 value="0.0022787306" flag="0"/>
    </comp>
    <comp name="--.HHZ">
      <acc value="0.3304198220" flag="0"/>
      <vel value="0.0913185216" flag="0"/>
      <psa03 value="0.4500956934" flag="0"/>
      <psa10 value="0.0380855826" flag="0"/>
      <psa30 value="0.0046045502" flag="0"/>
    </comp>
  </station>
  <station code="SNT1" name="SNT1" netid="HA" insttype="30" lat="36.4159" lon="25.4282">
    <comp name="--.HHE">
      <acc value="0.3539637889" flag="0"/>
      <vel value="0.1574900027" flag="0"/>
      <psa03 value="0.5899652966" flag="0"/>
      <psa10 value="0.0661385638" flag="0"/>
      <psa30 value="0.0085675222" flag="0"/>
    </comp>
    <comp name="--.HHN">
      <acc value="0.2957144372" flag="0"/>
      <vel value="0.1654398589" flag="0"/>
      <psa03 value="0.5461216817" flag="0"/>
      <psa10 value="0.0889672109" flag="0"/>
      <psa30 value="0.0069174043" flag="0"/>
    </comp>
    <comp name="--.HHZ">
      <acc value="0.3019654696" flag="0"/>
      <vel value="0.0848279143" flag="0"/>
      <psa03 value="0.3923951542" flag="0"/>
      <psa10 value="0.0359517726" flag="0"/>
      <psa30 value="0.0043719436" flag="0"/>
    </comp>
  </station>
  <station code="APE" name="APE" netid="HL" insttype="120" lat="37.0727" lon="25.523">
    <comp name="--.HHE">
      <acc value="0.3014781893" flag="0"/>
      <vel value="0.0573462803" flag="0"/>
      <psa03 value="0.2881520613" flag="0"/>
      <psa10 value="0.0243267464" flag="0"/>
      <psa30 value="0.0095696929" flag="0"/>
    </comp>
    <comp name="--.HHZ">
      <acc value="0.1524548994" flag="0"/>
      <vel value="0.0347013422" flag="0"/>
      <psa03 value="0.1494380775" flag="0"/>
      <psa10 value="0.0264192367" flag="0"/>
      <psa30 value="0.0107602845" flag="0"/>
    </comp>
    <comp name="--.HHN">
      <acc value="0.4115427476" flag="0"/>
      <vel value="0.0681259361" flag="0"/>
      <psa03 value="0.2534706442" flag="0"/>
      <psa10 value="0.0298145957" flag="0"/>
      <psa30 value="0.0096333520" flag="0"/>
    </comp>
  </station>
  <station code="MHLO" name="MHLO" netid="HL" insttype="20" lat="36.6898" lon="24.4017">
    <comp name="--.HHE">
      <acc value="0.3230374769" flag="0"/>
      <vel value="0.1181645046" flag="0"/>
      <psa03 value="1.2178115100" flag="0"/>
      <psa10 value="0.0883583150" flag="0"/>
      <psa30 value="0.0072163196" flag="0"/>
    </comp>
    <comp name="--.HHN">
      <acc value="0.3649881984" flag="0"/>
      <vel value="0.1516293689" flag="0"/>
      <psa03 value="1.2859113302" flag="0"/>
      <psa10 value="0.1087017865" flag="0"/>
      <psa30 value="0.0065281032" flag="0"/>
    </comp>
    <comp name="--.HHZ">
      <acc value="0.1399863450" flag="0"/>
      <vel value="0.0580187449" flag="0"/>
      <psa03 value="0.4689527825" flag="0"/>
      <psa10 value="0.0531184240" flag="0"/>
      <psa30 value="0.0055916354" flag="0"/>
    </comp>
  </station>
  <station code="NISR" name="NISR" netid="HL" insttype="65535" lat="36.6106" lon="27.131">
    <comp name="--.HHE">
      <acc value="0.0000000000" flag="0"/>
      <vel value="-100.0000000000" flag="0"/>
      <psa03 value="0.0000000000" flag="0"/>
      <psa10 value="0.0000000000" flag="0"/>
      <psa30 value="0.0000000000" flag="0"/>
    </comp>
    <comp name="--.HHZ">
      <acc value="0.0445446543" flag="0"/>
      <vel value="0.0252411640" flag="0"/>
      <psa03 value="0.0804458353" flag="0"/>
      <psa10 value="0.0222193353" flag="0"/>
      <psa30 value="0.0019757108" flag="0"/>
    </comp>
    <comp name="--.HHN">
      <acc value="0.0806246698" flag="0"/>
      <vel value="0.0473081226" flag="0"/>
      <psa03 value="0.1193344921" flag="0"/>
      <psa10 value="0.0269690238" flag="0"/>
      <psa30 value="0.0098515940" flag="0"/>
    </comp>
  </station>
  <station code="NISR2" name="NISR2" netid="HL" insttype="120" lat="36.5744" lon="27.1767">
    <comp name="--.HHN">
      <acc value="0.0860529535" flag="0"/>
      <vel value="0.0819989500" flag="0"/>
      <psa03 value="0.2280110267" flag="0"/>
      <psa10 value="0.0968496461" flag="0"/>
      <psa30 value="0.0079588849" flag="0"/>
    </comp>
    <comp name="--.HHE">
      <acc value="0.0839002919" flag="0"/>
      <vel value="0.0776276651" flag="0"/>
      <psa03 value="0.2391357421" flag="0"/>
      <psa10 value="0.1088544707" flag="0"/>
      <psa30 value="0.0086244412" flag="0"/>
    </comp>
    <comp name="--.HHZ">
      <acc value="0.0343887557" flag="0"/>
      <vel value="0.0210862407" flag="0"/>
      <psa03 value="0.0886993729" flag="0"/>
      <psa10 value="0.0195458475" flag="0"/>
      <psa30 value="0.0036314558" flag="0"/>
    </comp>
  </station>
  <station code="SAP3" name="SAP3" netid="HL" insttype="LE3D20_SMART24" lat="36.4356" lon="25.3454">
    <comp name="--.HHN">
      <acc value="1.7552789218" flag="0"/>
      <vel value="0.6398045292" flag="0"/>
      <psa03 value="1.8843762953" flag="0"/>
      <psa10 value="0.2165934437" flag="0"/>
      <psa30 value="0.0321976740" flag="0"/>
    </comp>
    <comp name="--.HHE">
      <acc value="2.3823041471" flag="0"/>
      <vel value="0.6369392494" flag="0"/>
      <psa03 value="2.6897183274" flag="0"/>
      <psa10 value="0.2371532395" flag="0"/>
      <psa30 value="0.0298755418" flag="0"/>
    </comp>
    <comp name="--.HHZ">
      <acc value="1.3285872525" flag="0"/>
      <vel value="0.3411839319" flag="0"/>
      <psa03 value="1.3366833238" flag="0"/>
      <psa10 value="0.0983946153" flag="0"/>
      <psa30 value="0.0110745823" flag="0"/>
    </comp>
  </station>
  <station code="THERA" name="THERA" netid="HL" insttype="120" lat="36.367" lon="25.4753">
    <comp name="--.HHE">
      <acc value="0.3696882247" flag="0"/>
      <vel value="0.1116583932" flag="0"/>
      <psa03 value="1.0039542253" flag="0"/>
      <psa10 value="0.0395745954" flag="0"/>
      <psa30 value="0.0052733055" flag="0"/>
    </comp>
    <comp name="--.HHZ">
      <acc value="0.3244212038" flag="0"/>
      <vel value="0.0884964641" flag="0"/>
      <psa03 value="0.4360284167" flag="0"/>
      <psa10 value="0.0376335942" flag="0"/>
      <psa30 value="0.0046025012" flag="0"/>
    </comp>
    <comp name="--.HHN">
      <acc value="0.2667704696" flag="0"/>
      <vel value="0.0775362039" flag="0"/>
      <psa03 value="0.6960225060" flag="0"/>
      <psa10 value="0.0191410441" flag="0"/>
      <psa30 value="0.0022729505" flag="0"/>
    </comp>
  </station>
  <station code="THRA" name="THRA" netid="HL" insttype="CMG-5" lat="36.415" lon="25.4324">
    <comp name="00.HNE">
      <acc value="0.9044245307" flag="0"/>
      <vel value="0.3458927757" flag="0"/>
      <psa03 value="2.1058602313" flag="0"/>
      <psa10 value="0.1698095501" flag="0"/>
      <psa30 value="0.0165011939" flag="0"/>
    </comp>
    <comp name="00.HNN">
      <acc value="0.8462502872" flag="0"/>
      <vel value="0.3453805173" flag="0"/>
      <psa03 value="2.2682868220" flag="0"/>
      <psa10 value="0.2759990062" flag="0"/>
      <psa30 value="0.0206441531" flag="0"/>
    </comp>
    <comp name="00.HNZ">
      <acc value="0.8697603801" flag="0"/>
      <vel value="0.3150134337" flag="0"/>
      <psa03 value="1.9493981164" flag="0"/>
      <psa10 value="0.0946101230" flag="0"/>
      <psa30 value="0.0089751741" flag="0"/>
    </comp>
  </station>
  <station code="TNSA" name="TNSA" netid="HL" insttype="CMG-5" lat="37.5394" lon="25.1631">
    <comp name="00.HNE">
      <acc value="0.1052998108" flag="0"/>
      <vel value="0.0269042162" flag="0"/>
      <psa03 value="0.1209014721" flag="0"/>
      <psa10 value="0.0088717884" flag="0"/>
      <psa30 value="0.0022412857" flag="0"/>
    </comp>
    <comp name="00.HNZ">
      <acc value="0.0745400078" flag="0"/>
      <vel value="0.0275874709" flag="0"/>
      <psa03 value="0.1527447114" flag="0"/>
      <psa10 value="0.0131466133" flag="0"/>
      <psa30 value="0.0040702964" flag="0"/>
    </comp>
    <comp name="00.HNN">
      <acc value="0.1265513809" flag="0"/>
      <vel value="0.0442446050" flag="0"/>
      <psa03 value="0.1906920010" flag="0"/>
      <psa10 value="0.0160210054" flag="0"/>
      <psa30 value="0.0036248920" flag="0"/>
    </comp>
  </station>
  <station code="CMBO" name="CMBO" netid="HT" insttype="120P," lat="36.4709" lon="25.4056">
    <comp name="--.HHE">
      <acc value="1.3398228665" flag="0"/>
      <vel value="0.4466392062" flag="0"/>
      <psa03 value="2.0351975082" flag="0"/>
      <psa10 value="0.2039731960" flag="0"/>
      <psa30 value="0.0275425983" flag="0"/>
    </comp>
    <comp name="--.HHZ">
      <acc value="1.4996111359" flag="0"/>
      <vel value="0.4091556208" flag="0"/>
      <psa03 value="2.2575826027" flag="0"/>
      <psa10 value="0.0822744865" flag="0"/>
      <psa30 value="0.0118748911" flag="0"/>
    </comp>
    <comp name="--.HHN">
      <acc value="1.6279718185" flag="0"/>
      <vel value="0.6304114065" flag="0"/>
      <psa03 value="2.5612686874" flag="0"/>
      <psa10 value="0.2111184358" flag="0"/>
      <psa30 value="0.0158920325" flag="0"/>
    </comp>
  </station>
</stationlist>
