<?xml version="1.0" encoding="UTF-8" standalone="yes"?>
<!DOCTYPE earthquake SYSTEM "stationlist.dtd">
<stationlist created="" xmlns="ch.ethz.sed.shakemap.usgs.xml">
  <station code="APE" name="APE" netid="GE" insttype="STS-2/N" lat="37.0727" lon="25.523">
    <comp name="--.HHZ">
      <acc value="0.1726018025" flag="0"/>
      <vel value="0.0369189959" flag="0"/>
      <psa03 value="0.1535915200" flag="0"/>
      <psa10 value="0.0265945779" flag="0"/>
      <psa30 value="0.0107791705" flag="0"/>
    </comp>
    <comp name="--.HHN">
      <acc value="0.4453759623" flag="0"/>
      <vel value="0.0708492626" flag="0"/>
      <psa03 value="0.2621344164" flag="0"/>
      <psa10 value="0.0300935215" flag="0"/>
      <psa30 value="0.0096578651" flag="0"/>
    </comp>
    <comp name="--.HHE">
      <acc value="0.3233005376" flag="0"/>
      <vel value="0.0611839606" flag="0"/>
      <psa03 value="0.2961817357" flag="0"/>
      <psa10 value="0.0246227521" flag="0"/>
      <psa30 value="0.0095881952" flag="0"/>
    </comp>
  </station>
  <station code="THERA" name="THERA" netid="GE" insttype="STS-2/N" lat="36.367" lon="25.4753">
    <comp name="--.HHE">
      <acc value="0.3647211024" flag="0"/>
      <vel value="0.1142234460" flag="0"/>
      <psa03 value="1.0329325059" flag="0"/>
      <psa10 value="0.0402695049" flag="0"/>
      <psa30 value="0.0053428639" flag="0"/>
    </comp>
    <comp name="--.HHN">
      <acc value="0.2741101845" flag="0"/>
      <vel value="0.0798454289" flag="0"/>
      <psa03 value="0.7164601335" flag="0"/>
      <psa10 value="0.0196057987" flag="0"/>
      <psa30 value="0.0022787306" flag="0"/>
    </comp>
    <comp name="--.HHZ">
      <acc value="0.3304198220" flag="0"/>
      <vel value="0.0913185216" flag="0"/>
      <psa03 value="0.4500956934" flag="0"/>
      <psa10 value="0.0380855826" flag="0"/>
      <psa30 value="0.0046045502" flag="0"/>
    </comp>
  </station>
</stationlist>
