<?xml version="1.0" encoding="UTF-8" standalone="yes"?>
<!DOCTYPE earthquake SYSTEM "stationlist.dtd">
<stationlist created="" xmlns="ch.ethz.sed.shakemap.usgs.xml">
  <station code="ACOR" name="ACOR" netid="HA" insttype="30" lat="37.8902" lon="22.8692">
    <comp name="--.HHE">
      <acc value="0.0018352280" flag="0"/>
      <vel value="0.0008164193" flag="0"/>
      <psa03 value="0.0033563060" flag="0"/>
      <psa10 value="0.0013146774" flag="0"/>
      <psa30 value="0.0002871661" flag="0"/>
    </comp>
    <comp name="--.HHN">
      <acc value="0.0064052846" flag="0"/>
      <vel value="0.0026548143" flag="0"/>
      <psa03 value="0.0103012026" flag="0"/>
      <psa10 value="0.0051186107" flag="0"/>
      <psa30 value="0.0007268442" flag="0"/>
    </comp>
    <comp name="--.HHZ">
      <acc value="0.0016274929" flag="0"/>
      <vel value="0.0006205063" flag="0"/>
      <psa03 value="0.0035570473" flag="0"/>
      <psa10 value="0.0008308425" flag="0"/>
      <psa30 value="0.0001315630" flag="0"/>
    </comp>
  </station>
  <station code="ATAL" name="ATAL" netid="HA" insttype="120" lat="38.6926" lon="23.0213">
    <comp name="--.HHN">
      <acc value="0.0000320090" flag="0"/>
      <vel value="0.0000026487" flag="0"/>
      <psa03 value="0.0000113376" flag="0"/>
      <psa10 value="0.0000026713" flag="0"/>
      <psa30 value="0.0000005329" flag="0"/>
    </comp>
    <comp name="--.HHE">
      <acc value="0.0000302677" flag="0"/>
      <vel value="0.0000029126" flag="0"/>
      <psa03 value="0.0000107977" flag="0"/>
      <psa10 value="0.0000026877" flag="0"/>
      <psa30 value="0.0000005718" flag="0"/>
    </comp>
    <comp name="--.HHZ">
      <acc value="0.0044710371" flag="0"/>
      <vel value="0.0022409646" flag="0"/>
      <psa03 value="0.0072126864" flag="0"/>
      <psa10 value="0.0021493252" flag="0"/>
      <psa30 value="0.0002895111" flag="0"/>
    </comp>
  </station>
  <station code="KALE" name="KALE" netid="HA" insttype="40," lat="38.3911" lon="22.1398">
    <comp name="--.HHE">
      <acc value="0.5067017272" flag="0"/>
      <vel value="0.1556908468" flag="0"/>
      <psa03 value="0.5125449013" flag="0"/>
      <psa10 value="0.0569252686" flag="0"/>
      <psa30 value="0.0040605242" flag="0"/>
    </comp>
    <comp name="--.HHZ">
      <acc value="0.3151016975" flag="0"/>
      <vel value="0.0605951327" flag="0"/>
      <psa03 value="0.2506937437" flag="0"/>
      <psa10 value="0.0311184015" flag="0"/>
      <psa30 value="0.0040951512" flag="0"/>
    </comp>
    <comp name="--.HHN">
      <acc value="0.4697293478" flag="0"/>
      <vel value="0.1032342422" flag="0"/>
      <psa03 value="0.2311196608" flag="0"/>
      <psa10 value="0.0563736720" flag="0"/>
      <psa30 value="0.0045350058" flag="0"/>
    </comp>
  </station>
  <station code="LAKA" name="LAKA" netid="HA" insttype="120s" lat="38.2401" lon="21.9785">
    <comp name="--.HHZ">
      <acc value="0.1004223718" flag="0"/>
      <vel value="0.0153656438" flag="0"/>
      <psa03 value="0.0931692011" flag="0"/>
      <psa10 value="0.0106852499" flag="0"/>
      <psa30 value="0.0034629600" flag="0"/>
    </comp>
    <comp name="--.HHE">
      <acc value="0.1339046763" flag="0"/>
      <vel value="0.0248793752" flag="0"/>
      <psa03 value="0.0537922746" flag="0"/>
      <psa10 value="0.0189429807" flag="0"/>
      <psa30 value="0.0007814515" flag="0"/>
    </comp>
    <comp name="--.HHN">
      <acc value="0.1999006718" flag="0"/>
      <vel value="0.0287202553" flag="0"/>
      <psa03 value="0.0796183084" flag="0"/>
      <psa10 value="0.0177445774" flag="0"/>
      <psa30 value="0.0034116507" flag="0"/>
    </comp>
  </station>
  <station code="THAL" name="THAL" netid="HA" insttype="30" lat="38.0357" lon="22.6634">
    <comp name="--.HHN">
      <acc value="0.0260992481" flag="0"/>
      <vel value="0.0058481754" flag="0"/>
      <psa03 value="0.0307838241" flag="0"/>
      <psa10 value="0.0042920600" flag="0"/>
      <psa30 value="0.0003829370" flag="0"/>
    </comp>
    <comp name="--.HHE">
      <acc value="0.0355174752" flag="0"/>
      <vel value="0.0073255469" flag="0"/>
      <psa03 value="0.0400634765" flag="0"/>
      <psa10 value="0.0050045610" flag="0"/>
      <psa30 value="0.0004629692" flag="0"/>
    </comp>
    <comp name="--.HHZ">
      <acc value="0.0170675080" flag="0"/>
      <vel value="0.0034543552" flag="0"/>
      <psa03 value="0.0154576607" flag="0"/>
      <psa10 value="0.0032676914" flag="0"/>
      <psa30 value="0.0002368507" flag="0"/>
    </comp>
  </station>
  <station code="KLV1" name="KLV1" netid="HI" insttype="CMG-5TD,ACCELEROMETER,GURALP" lat="38.0326" lon="22.108">
    <comp name="--.HNZ">
      <acc value="0.0381995071" flag="0"/>
      <vel value="0.0094095412" flag="0"/>
      <psa03 value="0.0520180162" flag="0"/>
      <psa10 value="0.0108252688" flag="0"/>
      <psa30 value="0.0007965750" flag="0"/>
    </comp>
    <comp name="--.HNE">
      <acc value="0.0425677092" flag="0"/>
      <vel value="0.0134409025" flag="0"/>
      <psa03 value="0.0775151078" flag="0"/>
      <psa10 value="0.0137901870" flag="0"/>
      <psa30 value="0.0010074195" flag="0"/>
    </comp>
    <comp name="--.HNN">
      <acc value="0.0605372437" flag="0"/>
      <vel value="0.0158836124" flag="0"/>
      <psa03 value="0.0806306719" flag="0"/>
      <psa10 value="0.0105180640" flag="0"/>
      <psa30 value="0.0007791981" flag="0"/>
    </comp>
  </station>
  <station code="MSL1" name="MSL1" netid="HI" insttype="CMG-5TD,ACCELEROMETER,GURALP" lat="38.3727" lon="21.4243">
    <comp name="--.HNN">
      <acc value="0.0342982491" flag="0"/>
      <vel value="0.0192284856" flag="0"/>
      <psa03 value="0.1051876163" flag="0"/>
      <psa10 value="0.0251715207" flag="0"/>
      <psa30 value="0.0012750716" flag="0"/>
    </comp>
    <comp name="--.HNE">
      <acc value="0.0381423948" flag="0"/>
      <vel value="0.0179914404" flag="0"/>
      <psa03 value="0.0942311590" flag="0"/>
      <psa10 value="0.0328551425" flag="0"/>
      <psa30 value="0.0014173045" flag="0"/>
    </comp>
    <comp name="--.HNZ">
      <acc value="0.0276886773" flag="0"/>
      <vel value="0.0140502365" flag="0"/>
      <psa03 value="0.0460792381" flag="0"/>
      <psa10 value="0.0177878004" flag="0"/>
      <psa30 value="0.0007170523" flag="0"/>
    </comp>
  </station>
  <station code="DLFA" name="DLFA" netid="HL" insttype="CMG-5" lat="38.4784" lon="22.4958">
    <comp name="00.HNE">
      <acc value="0.0578630747" flag="0"/>
      <vel value="0.0149986196" flag="0"/>
      <psa03 value="0.0503041791" flag="0"/>
      <psa10 value="0.0090930533" flag="0"/>
      <psa30 value="0.0006431898" flag="0"/>
    </comp>
    <comp name="00.HNN">
      <acc value="0.0618613318" flag="0"/>
      <vel value="0.0164246345" flag="0"/>
      <psa03 value="0.0651822948" flag="0"/>
      <psa10 value="0.0080463750" flag="0"/>
      <psa30 value="0.0006128023" flag="0"/>
    </comp>
    <comp name="00.HNZ">
      <acc value="0.0670788881" flag="0"/>
      <vel value="0.0177891957" flag="0"/>
      <psa03 value="0.0627944334" flag="0"/>
      <psa10 value="0.0077012898" flag="0"/>
      <psa30 value="0.0006845170" flag="0"/>
    </comp>
  </station>
  <station code="EVR" name="EVR" netid="HL" insttype="DR24" lat="38.9166" lon="21.8105">
    <comp name="--.HHN">
      <acc value="0.0696700687" flag="0"/>
      <vel value="0.0209346433" flag="0"/>
      <psa03 value="0.0551085856" flag="0"/>
      <psa10 value="0.0115161009" flag="0"/>
      <psa30 value="0.0008567466" flag="0"/>
    </comp>
    <comp name="--.HHE">
      <acc value="0.0560367044" flag="0"/>
      <vel value="0.0199774517" flag="0"/>
      <psa03 value="0.1431831235" flag="0"/>
      <psa10 value="0.0164724176" flag="0"/>
      <psa30 value="0.0010408651" flag="0"/>
    </comp>
    <comp name="--.HHZ">
      <acc value="0.0424061666" flag="0"/>
      <vel value="0.0127982084" flag="0"/>
      <psa03 value="0.0889800807" flag="0"/>
      <psa10 value="0.0095627139" flag="0"/>
      <psa30 value="0.0009184832" flag="0"/>
    </comp>
  </station>
  <station code="KLV" name="KLV" netid="HL" insttype="120" lat="38.0435" lon="22.1504">
    <comp name="--.HHN">
      <acc value="0.0299475859" flag="0"/>
      <vel value="0.0050734174" flag="0"/>
      <psa03 value="0.0182670173" flag="0"/>
      <psa10 value="0.0040465599" flag="0"/>
      <psa30 value="0.0005997249" flag="0"/>
    </comp>
    <comp name="--.HHZ">
      <acc value="0.0291918929" flag="0"/>
      <vel value="0.0053987569" flag="0"/>
      <psa03 value="0.0134572067" flag="0"/>
      <psa10 value="0.0037497551" flag="0"/>
      <psa30 value="0.0006788057" flag="0"/>
    </comp>
    <comp name="--.HHE">
      <acc value="0.0280281722" flag="0"/>
      <vel value="0.0049048095" flag="0"/>
      <psa03 value="0.0220390026" flag="0"/>
      <psa10 value="0.0047644701" flag="0"/>
      <psa30 value="0.0002902863" flag="0"/>
    </comp>
  </station>
  <station code="LKR" name="LKR" netid="HL" insttype="30" lat="38.6496" lon="22.9989">
    <comp name="--.HHN">
      <acc value="0.0166408039" flag="0"/>
      <vel value="0.0045253676" flag="0"/>
      <psa03 value="0.0236018095" flag="0"/>
      <psa10 value="0.0036039348" flag="0"/>
      <psa30 value="0.0003596097" flag="0"/>
    </comp>
    <comp name="--.HHZ">
      <acc value="0.0152971641" flag="0"/>
      <vel value="0.0036122306" flag="0"/>
      <psa03 value="0.0087229137" flag="0"/>
      <psa10 value="0.0010539238" flag="0"/>
      <psa30 value="0.0002815369" flag="0"/>
    </comp>
    <comp name="--.HHE">
      <acc value="0.0313100847" flag="0"/>
      <vel value="0.0074757080" flag="0"/>
      <psa03 value="0.0262496155" flag="0"/>
      <psa10 value="0.0022494693" flag="0"/>
      <psa30 value="0.0004372781" flag="0"/>
    </comp>
  </station>
  <station code="PATC" name="PATC" netid="HL" insttype="CMG-5" lat="38.2693" lon="21.76">
    <comp name="00.HNN">
      <acc value="0.1737460356" flag="0"/>
      <vel value="0.0831861963" flag="0"/>
      <psa03 value="0.3615840319" flag="0"/>
      <psa10 value="0.0531011382" flag="0"/>
      <psa30 value="0.0042161129" flag="0"/>
    </comp>
    <comp name="00.HNE">
      <acc value="0.1870920331" flag="0"/>
      <vel value="0.0678823795" flag="0"/>
      <psa03 value="0.3731000881" flag="0"/>
      <psa10 value="0.0412792259" flag="0"/>
      <psa30 value="0.0052872392" flag="0"/>
    </comp>
    <comp name="00.HNZ">
      <acc value="0.1757944249" flag="0"/>
      <vel value="0.0353219836" flag="0"/>
      <psa03 value="0.2168965002" flag="0"/>
      <psa10 value="0.0318595648" flag="0"/>
      <psa30 value="0.0030615641" flag="0"/>
    </comp>
  </station>
  <station code="PATG" name="PATG" netid="HL" insttype="CMG-5" lat="38.2386" lon="21.7266">
    <comp name="00.HNE">
      <acc value="0.1773383841" flag="0"/>
      <vel value="0.0620017826" flag="0"/>
      <psa03 value="0.3187134616" flag="0"/>
      <psa10 value="0.0462946952" flag="0"/>
      <psa30 value="0.0055251764" flag="0"/>
    </comp>
    <comp name="00.HNZ">
      <acc value="0.0849230168" flag="0"/>
      <vel value="0.0241423031" flag="0"/>
      <psa03 value="0.1080386247" flag="0"/>
      <psa10 value="0.0282951668" flag="0"/>
      <psa30 value="0.0025409942" flag="0"/>
    </comp>
    <comp name="00.HNN">
      <acc value="0.1079762922" flag="0"/>
      <vel value="0.0518852501" flag="0"/>
      <psa03 value="0.3595466797" flag="0"/>
      <psa10 value="0.0464731501" flag="0"/>
      <psa30 value="0.0064308657" flag="0"/>
    </comp>
  </station>
  <station code="RIOA" name="RIOA" netid="HL" insttype="CMG-5" lat="38.2959" lon="21.7912">
    <comp name="00.HNE">
      <acc value="0.2598545765" flag="0"/>
      <vel value="0.0756984059" flag="0"/>
      <psa03 value="0.5682316893" flag="0"/>
      <psa10 value="0.0393800480" flag="0"/>
      <psa30 value="0.0032522251" flag="0"/>
    </comp>
    <comp name="00.HNN">
      <acc value="0.2004949968" flag="0"/>
      <vel value="0.0528234125" flag="0"/>
      <psa03 value="0.3687248637" flag="0"/>
      <psa10 value="0.0353436843" flag="0"/>
      <psa30 value="0.0028513831" flag="0"/>
    </comp>
    <comp name="00.HNZ">
      <acc value="0.1716260336" flag="0"/>
      <vel value="0.0333767447" flag="0"/>
      <psa03 value="0.2273851736" flag="0"/>
      <psa10 value="0.0207302335" flag="0"/>
      <psa30 value="0.0031197391" flag="0"/>
    </comp>
  </station>
  <station code="AMPL" name="AMPL" netid="HP" insttype="Compact," lat="38.9224" lon="21.2135">
    <comp name="--.HHE">
      <acc value="0.0068680209" flag="0"/>
      <vel value="0.0030618909" flag="0"/>
      <psa03 value="0.0194346505" flag="0"/>
      <psa10 value="0.0030298434" flag="0"/>
      <psa30 value="0.0003000338" flag="0"/>
    </comp>
    <comp name="--.HHN">
      <acc value="0.0082944532" flag="0"/>
      <vel value="0.0047915041" flag="0"/>
      <psa03 value="0.0171765577" flag="0"/>
      <psa10 value="0.0037258245" flag="0"/>
      <psa30 value="0.0002373448" flag="0"/>
    </comp>
    <comp name="--.HHZ">
      <acc value="0.0037741164" flag="0"/>
      <vel value="0.0028517841" flag="0"/>
      <psa03 value="0.0090811098" flag="0"/>
      <psa10 value="0.0025574169" flag="0"/>
      <psa30 value="0.0002674562" flag="0"/>
    </comp>
  </station>
  <station code="ANX" name="ANX" netid="HP" insttype="120" lat="38.5933" lon="21.9209">
    <comp name="--.HHN">
      <acc value="0.3330332550" flag="0"/>
      <vel value="0.1090749717" flag="0"/>
      <psa03 value="0.5181654984" flag="0"/>
      <psa10 value="0.0820958589" flag="0"/>
      <psa30 value="0.0031821709" flag="0"/>
    </comp>
    <comp name="--.HHZ">
      <acc value="0.3282273911" flag="0"/>
      <vel value="0.0571737779" flag="0"/>
      <psa03 value="0.2980111319" flag="0"/>
      <psa10 value="0.0393435343" flag="0"/>
      <psa30 value="0.0026969260" flag="0"/>
    </comp>
    <comp name="--.HHE">
      <acc value="0.3008603672" flag="0"/>
      <vel value="0.1088835649" flag="0"/>
      <psa03 value="0.4919478276" flag="0"/>
      <psa10 value="0.0447715746" flag="0"/>
      <psa30 value="0.0026169397" flag="0"/>
    </comp>
  </station>
  <station code="AXS" name="AXS" netid="HP" insttype="40," lat="38.1962" lon="21.3763">
    <comp name="--.HHN">
      <acc value="0.0144010979" flag="0"/>
      <vel value="0.0046865897" flag="0"/>
      <psa03 value="0.0282499387" flag="0"/>
      <psa10 value="0.0028997300" flag="0"/>
      <psa30 value="0.0002918099" flag="0"/>
    </comp>
    <comp name="--.HHE">
      <acc value="0.0197567937" flag="0"/>
      <vel value="0.0049459479" flag="0"/>
      <psa03 value="0.0287256470" flag="0"/>
      <psa10 value="0.0025933737" flag="0"/>
      <psa30 value="0.0001900911" flag="0"/>
    </comp>
    <comp name="--.HHZ">
      <acc value="0.0120765203" flag="0"/>
      <vel value="0.0043545956" flag="0"/>
      <psa03 value="0.0248538479" flag="0"/>
      <psa10 value="0.0019323911" flag="0"/>
      <psa30 value="0.0002068566" flag="0"/>
    </comp>
  </station>
  <station code="DRO" name="DRO" netid="HP" insttype="120P," lat="37.952" lon="21.71">
    <comp name="--.HHE">
      <acc value="0.0960117722" flag="0"/>
      <vel value="0.0289247890" flag="0"/>
      <psa03 value="0.1964753973" flag="0"/>
      <psa10 value="0.0072494870" flag="0"/>
      <psa30 value="0.0008876570" flag="0"/>
    </comp>
    <comp name="--.HHN">
      <acc value="0.0728105408" flag="0"/>
      <vel value="0.0223474491" flag="0"/>
      <psa03 value="0.0990668714" flag="0"/>
      <psa10 value="0.0103845820" flag="0"/>
      <psa30 value="0.0014149367" flag="0"/>
    </comp>
    <comp name="--.HHZ">
      <acc value="0.0489503538" flag="0"/>
      <vel value="0.0136403053" flag="0"/>
      <psa03 value="0.0738348453" flag="0"/>
      <psa10 value="0.0053088733" flag="0"/>
      <psa30 value="0.0011509902" flag="0"/>
    </comp>
  </station>
  <station code="EFP" name="EFP" netid="HP" insttype="40," lat="38.4269" lon="21.9058">
    <comp name="--.HHE">
      <acc value="0.4538531355" flag="0"/>
      <vel value="0.0835174714" flag="0"/>
      <psa03 value="0.2133876065" flag="0"/>
      <psa10 value="0.0196402846" flag="0"/>
      <psa30 value="0.0014760028" flag="0"/>
    </comp>
    <comp name="--.HHZ">
      <acc value="0.2162077847" flag="0"/>
      <vel value="0.0438047053" flag="0"/>
      <psa03 value="0.1676529979" flag="0"/>
      <psa10 value="0.0121421979" flag="0"/>
      <psa30 value="0.0013084420" flag="0"/>
    </comp>
    <comp name="--.HHN">
      <acc value="0.2780161391" flag="0"/>
      <vel value="0.0663588244" flag="0"/>
      <psa03 value="0.3394479652" flag="0"/>
      <psa10 value="0.0185861718" flag="0"/>
      <psa30 value="0.0019964643" flag="0"/>
    </comp>
  </station>
  <station code="GUR" name="GUR" netid="HP" insttype="40," lat="37.9363" lon="22.3423">
    <comp name="--.HHE">
      <acc value="0.0289751733" flag="0"/>
      <vel value="0.0076596241" flag="0"/>
      <psa03 value="0.0291181651" flag="0"/>
      <psa10 value="0.0032581937" flag="0"/>
      <psa30 value="0.0002686895" flag="0"/>
    </comp>
    <comp name="--.HHN">
      <acc value="0.0240128454" flag="0"/>
      <vel value="0.0076212791" flag="0"/>
      <psa03 value="0.0476774918" flag="0"/>
      <psa10 value="0.0062139059" flag="0"/>
      <psa30 value="0.0004285210" flag="0"/>
    </comp>
    <comp name="--.HHZ">
      <acc value="0.0204406072" flag="0"/>
      <vel value="0.0035239844" flag="0"/>
      <psa03 value="0.0150869116" flag="0"/>
      <psa10 value="0.0035089176" flag="0"/>
      <psa30 value="0.0004857855" flag="0"/>
    </comp>
  </station>
  <station code="LTK" name="LTK" netid="HP" insttype="120s" lat="38.0228" lon="22.9673">
    <comp name="--.HHE">
      <acc value="0.0027555307" flag="0"/>
      <vel value="0.0013731133" flag="0"/>
      <psa03 value="0.0058997219" flag="0"/>
      <psa10 value="0.0020366390" flag="0"/>
      <psa30 value="0.0002392432" flag="0"/>
    </comp>
    <comp name="--.HHN">
      <acc value="0.0029648374" flag="0"/>
      <vel value="0.0016582484" flag="0"/>
      <psa03 value="0.0054098395" flag="0"/>
      <psa10 value="0.0016721763" flag="0"/>
      <psa30 value="0.0002500701" flag="0"/>
    </comp>
    <comp name="--.HHZ">
      <acc value="0.0029806582" flag="0"/>
      <vel value="0.0011430997" flag="0"/>
      <psa03 value="0.0083084075" flag="0"/>
      <psa10 value="0.0010279090" flag="0"/>
      <psa30 value="0.0002896327" flag="0"/>
    </comp>
  </station>
  <station code="PLEV" name="PLEV" netid="HP" insttype="Compact," lat="38.4124" lon="21.4073">
    <comp name="--.HHN">
      <acc value="0.0186788869" flag="0"/>
      <vel value="0.0063966661" flag="0"/>
      <psa03 value="0.0297727201" flag="0"/>
      <psa10 value="0.0051267205" flag="0"/>
      <psa30 value="0.0004105987" flag="0"/>
    </comp>
    <comp name="--.HHZ">
      <acc value="0.0125948195" flag="0"/>
      <vel value="0.0045499994" flag="0"/>
      <psa03 value="0.0188443493" flag="0"/>
      <psa10 value="0.0058005960" flag="0"/>
      <psa30 value="0.0002560871" flag="0"/>
    </comp>
    <comp name="--.HHE">
      <acc value="0.0168974029" flag="0"/>
      <vel value="0.0058059338" flag="0"/>
      <psa03 value="0.0333293713" flag="0"/>
      <psa10 value="0.0059851163" flag="0"/>
      <psa30 value="0.0004092019" flag="0"/>
    </comp>
  </station>
  <station code="PVO" name="PVO" netid="HP" insttype="120P," lat="38.616" lon="21.525">
    <comp name="--.HHE">
      <acc value="0.1034053184" flag="0"/>
      <vel value="0.0115035667" flag="0"/>
      <psa03 value="0.0314513420" flag="0"/>
      <psa10 value="0.0047225563" flag="0"/>
      <psa30 value="0.0005222007" flag="0"/>
    </comp>
    <comp name="--.HHZ">
      <acc value="0.0170434746" flag="0"/>
      <vel value="0.0048393551" flag="0"/>
