<stationlist created="1778135947">
	<station code="AGRP" name="AGRP" netid="CL" source="Corinth Riff Laboratory (CRLNET)" insttype="" lat="38.3959" lon="21.72277">
		<comp name="00.HNE" depth="0.0">
			<acc value="0.140251718785795" flag="0"/>
			<vel value="0.052878067741186" flag="0"/>
			<psa03 value="0.262099846369836" flag="0"/>
			<psa10 value="0.0257795646093158" flag="0"/>
			<psa30 value="0.00173286566232566" flag="0"/>
		</comp>
		<comp name="00.HNN" depth="0.0">
			<acc value="0.071429400725548" flag="0"/>
			<vel value="0.0220776386222831" flag="0"/>
			<psa03 value="0.172660175339911" flag="0"/>
			<psa10 value="0.0115891263582647" flag="0"/>
			<psa30 value="0.00182682429622404" flag="0"/>
		</comp>
		<comp name="00.HNZ" depth="0.0">
			<acc value="0.0816686434252248" flag="0"/>
			<vel value="0.0207338483300034" flag="0"/>
			<psa03 value="0.137805996384277" flag="0"/>
			<psa10 value="0.0121206637728898" flag="0"/>
			<psa30 value="0.00127962710928257" flag="0"/>
		</comp>
	</station>
	<station code="MALA" name="MALA" netid="CL" source="Corinth Riff Laboratory (CRLNET)" insttype="" lat="38.39341" lon="21.87263">
		<comp name="01.HNE" depth="0.0">
			<acc value="0.830981210820183" flag="0"/>
			<vel value="0.235045639473479" flag="0"/>
			<psa03 value="0.982628341750484" flag="0"/>
			<psa10 value="0.139830581233754" flag="0"/>
			<psa30 value="0.0103909300650274" flag="0"/>
		</comp>
		<comp name="01.HNN" depth="0.0">
			<acc value="0.857603689317587" flag="0"/>
			<vel value="0.260628011709085" flag="0"/>
			<psa03 value="1.21099256433014" flag="0"/>
			<psa10 value="0.10397193973954" flag="0"/>
			<psa30 value="0.0075878308203927" flag="0"/>
		</comp>
		<comp name="01.HNZ" depth="0.0">
			<acc value="0.398837148835147" flag="0"/>
			<vel value="0.0989386302590115" flag="0"/>
			<psa03 value="0.311897922335972" flag="0"/>
			<psa10 value="0.0405659690525223" flag="0"/>
			<psa30 value="0.00436191772321531" flag="0"/>
		</comp>
	</station>
	<station code="AIGS" name="AIGS" netid="HA" source="Hellenic Seismological Network, University of Athens, Seismological Laboratory (HA)" insttype="" lat="38.25001" lon="22.0878">
		<comp name="--.HNE" depth="0.0">
			<acc value="0.413043945833446" flag="0"/>
			<vel value="0.0981214968575997" flag="0"/>
			<psa03 value="0.259549540592594" flag="0"/>
			<psa10 value="0.0353633452669496" flag="0"/>
			<psa30 value="0.00515564446862345" flag="0"/>
		</comp>
		<comp name="--.HNN" depth="0.0">
			<acc value="0.468498044921502" flag="0"/>
			<vel value="0.117560545260325" flag="0"/>
			<psa03 value="0.305186591343232" flag="0"/>
			<psa10 value="0.0319445932592475" flag="0"/>
			<psa30 value="0.00493909218859102" flag="0"/>
		</comp>
		<comp name="--.HNZ" depth="0.0">
			<acc value="0.326321971736582" flag="0"/>
			<vel value="0.0655132898183559" flag="0"/>
			<psa03 value="0.0970905883616497" flag="0"/>
			<psa10 value="0.0281432953849591" flag="0"/>
			<psa30 value="0.0037641618427952" flag="0"/>
		</comp>
	</station>
	<station code="ART2" name="ART2" netid="HI" source="ITSAK Strong Motion Network" insttype="" lat="39.1474" lon="20.9937">
		<comp name="--.HNE" depth="0.0">
			<acc value="0.00182204827245896" flag="0"/>
			<vel value="0.00136999277883519" flag="0"/>
			<psa03 value="0.00389300984592267" flag="0"/>
			<psa10 value="0.00112478060494551" flag="0"/>
			<psa30 value="0.000108824481223351" flag="0"/>
		</comp>
		<comp name="--.HNN" depth="0.0">
			<acc value="0.00168910256017155" flag="0"/>
			<vel value="0.00112939757164287" flag="0"/>
			<psa03 value="0.0037983072832788" flag="0"/>
			<psa10 value="0.00144684783875698" flag="0"/>
			<psa30 value="0.000121578353448626" flag="0"/>
		</comp>
		<comp name="--.HNZ" depth="0.0">
			<acc value="0.00146037640378135" flag="0"/>
			<vel value="0.000971188211667294" flag="0"/>
			<psa03 value="0.00391140103820474" flag="0"/>
			<psa10 value="0.00133934099039221" flag="0"/>
			<psa30 value="7.93446181705881e-05" flag="0"/>
		</comp>
	</station>
	<station code="KLV1" name="KLV1" netid="HI" source="ITSAK Strong Motion Network" insttype="" lat="38.03256" lon="22.10797">
		<comp name="--.HNE" depth="0.0">
			<acc value="0.0420557947721329" flag="0"/>
			<vel value="0.0135174170063596" flag="0"/>
			<psa03 value="0.0796411277805237" flag="0"/>
			<psa10 value="0.0137877583914866" flag="0"/>
			<psa30 value="0.00107470780297089" flag="0"/>
		</comp>
		<comp name="--.HNN" depth="0.0">
			<acc value="0.0587581612155397" flag="0"/>
			<vel value="0.0162861003804099" flag="0"/>
			<psa03 value="0.0830862776901306" flag="0"/>
			<psa10 value="0.0104857835430582" flag="0"/>
			<psa30 value="0.000858155522938452" flag="0"/>
		</comp>
		<comp name="--.HNZ" depth="0.0">
			<acc value="0.0374227397470731" flag="0"/>
			<vel value="0.00967954498647267" flag="0"/>
			<psa03 value="0.0522588973301414" flag="0"/>
			<psa10 value="0.0107918202363271" flag="0"/>
			<psa30 value="0.000896186398563983" flag="0"/>
		</comp>
	</station>
	<station code="LAM2" name="LAM2" netid="HI" source="ITSAK Strong Motion Network" insttype="" lat="38.90203" lon="22.431301">
		<comp name="--.HNE" depth="0.0">
			<acc value="0.0152541688410881" flag="0"/>
			<vel value="0.00464530413276861" flag="0"/>
			<psa03 value="0.0279694231495058" flag="0"/>
			<psa10 value="0.00414577823121518" flag="0"/>
			<psa30 value="0.0008448519047927" flag="0"/>
		</comp>
		<comp name="--.HNN" depth="0.0">
			<acc value="0.0188263149746806" flag="0"/>
			<vel value="0.00676246826854264" flag="0"/>
			<psa03 value="0.0244943387755506" flag="0"/>
			<psa10 value="0.002803747609519" flag="0"/>
			<psa30 value="0.000801540129351962" flag="0"/>
		</comp>
		<comp name="--.HNZ" depth="0.0">
			<acc value="0.0109702894716511" flag="0"/>
			<vel value="0.00358673101132308" flag="0"/>
			<psa03 value="0.0104620270423318" flag="0"/>
			<psa10 value="0.00471906370855981" flag="0"/>
			<psa30 value="0.00076625456268869" flag="0"/>
		</comp>
	</station>
	<station code="MSL1" name="MSL1" netid="HI" source="ITSAK Strong Motion Network" insttype="" lat="38.3727" lon="21.4243">
		<comp name="--.HNE" depth="0.0">
			<acc value="0.0380523927513961" flag="0"/>
			<vel value="0.0178490964612983" flag="0"/>
			<psa03 value="0.0931980163858601" flag="0"/>
			<psa10 value="0.0329029713250109" flag="0"/>
			<psa30 value="0.00146038562402039" flag="0"/>
		</comp>
		<comp name="--.HNN" depth="0.0">
			<acc value="0.0340868582198661" flag="0"/>
			<vel value="0.019330065009004" flag="0"/>
			<psa03 value="0.105009958933084" flag="0"/>
			<psa10 value="0.0252359467989038" flag="0"/>
			<psa30 value="0.00131228892011391" flag="0"/>
		</comp>
		<comp name="--.HNZ" depth="0.0">
			<acc value="0.0275710366986157" flag="0"/>
			<vel value="0.0141225482755738" flag="0"/>
			<psa03 value="0.0463529260565295" flag="0"/>
			<psa10 value="0.0178065033899398" flag="0"/>
			<psa30 value="0.000751221649120783" flag="0"/>
		</comp>
	</station>
	<station code="PYL1" name="PYL1" netid="HI" source="ITSAK Strong Motion Network" insttype="" lat="36.914188" lon="21.695161">
		<comp name="--.HNE" depth="0.0">
			<acc value="0.00118963937403382" flag="0"/>
			<vel value="0.00108050968647295" flag="0"/>
			<psa03 value="0.00425702289229298" flag="0"/>
			<psa10 value="0.0013790358465461" flag="0"/>
			<psa30 value="0.000157278830408897" flag="0"/>
		</comp>
		<comp name="--.HNN" depth="0.0">
			<acc value="0.00092010179869914" flag="0"/>
			<vel value="0.000656004771217909" flag="0"/>
			<psa03 value="0.00228347174405665" flag="0"/>
			<psa10 value="0.000932279005003267" flag="0"/>
			<psa30 value="0.00013358081521938" flag="0"/>
		</comp>
		<comp name="--.HNZ" depth="0.0">
			<acc value="0.00101106691614098" flag="0"/>
			<vel value="0.000717706936809301" flag="0"/>
			<psa03 value="0.00214490299424298" flag="0"/>
			<psa10 value="0.000815459293614601" flag="0"/>
			<psa30 value="0.000155061964802554" flag="0"/>
		</comp>
	</station>
	<station code="SKO1" name="SKO1" netid="HI" source="ITSAK Strong Motion Network" insttype="" lat="39.123383" lon="23.728705">
		<comp name="--.HNE" depth="0.0">
			<acc value="0.000598218360265651" flag="0"/>
			<vel value="0.000544659560225592" flag="0"/>
			<psa03 value="0.00204228812359841" flag="0"/>
			<psa10 value="0.000624899736383647" flag="0"/>
			<psa30 value="6.56617065368092e-05" flag="0"/>
		</comp>
		<comp name="--.HNN" depth="0.0">
			<acc value="0.000465131231153782" flag="0"/>
			<vel value="0.000411097533271902" flag="0"/>
			<psa03 value="0.00184450337418984" flag="0"/>
			<psa10 value="0.000625621073233343" flag="0"/>
			<psa30 value="5.37163742015653e-05" flag="0"/>
		</comp>
		<comp name="--.HNZ" depth="0.0">
			<acc value="0.000448765963588747" flag="0"/>
			<vel value="0.000329380437724748" flag="0"/>
			<psa03 value="0.00103741524059494" flag="0"/>
			<psa10 value="0.000626392628248057" flag="0"/>
			<psa30 value="5.99883424227872e-05" flag="0"/>
		</comp>
	</station>
	<station code="VAS2" name="VAS2" netid="HI" source="ITSAK Strong Motion Network" insttype="" lat="38.630558" lon="20.608081">
		<comp name="--.HNE" depth="0.0">
			<acc value="0.0143847143912958" flag="0"/>
			<vel value="0.0103251724052254" flag="0"/>
			<psa03 value="0.0417630009688476" flag="0"/>
			<psa10 value="0.0194658032639455" flag="0"/>
			<psa30 value="0.00079471051025563" flag="0"/>
		</comp>
		<comp name="--.HNN" depth="0.0">
			<acc value="0.0258639098845391" flag="0"/>
			<vel value="0.0180903122724883" flag="0"/>
			<psa03 value="0.0828571399204356" flag="0"/>
			<psa10 value="0.0288471472319117" flag="0"/>
			<psa30 value="0.00107071395037962" flag="0"/>
		</comp>
		<comp name="--.HNZ" depth="0.0">
			<acc value="0.00808582331199417" flag="0"/>
			<vel value="0.00724204442018802" flag="0"/>
			<psa03 value="0.0181527637294147" flag="0"/>
			<psa10 value="0.00735047802686424" flag="0"/>
			<psa30 value="0.000374247786870719" flag="0"/>
		</comp>
	</station>
	<station code="ATHP" name="ATHP" netid="HL" source="National Observatory of Athens Seismic Network" insttype="" lat="38.000799" lon="23.773487">
		<comp name="00.HNE" depth="0.0">
			<acc value="0.00591424289680338" flag="0"/>
			<vel value="0.00096882729170747" flag="0"/>
			<psa03 value="0.00322143887651557" flag="0"/>
			<psa10 value="0.00219057843603058" flag="0"/>
			<psa30 value="0.000260399642518342" flag="0"/>
		</comp>
		<comp name="00.HNN" depth="0.0">
			<acc value="0.00401929604422465" flag="0"/>
			<vel value="0.000871203498086434" flag="0"/>
			<psa03 value="0.00232659474415013" flag="0"/>
			<psa10 value="0.00182816656242258" flag="0"/>
			<psa30 value="0.00024697698053286" flag="0"/>
		</comp>
		<comp name="00.HNZ" depth="0.0">
			<acc value="0.00472559666403851" flag="0"/>
			<vel value="0.000662573821732086" flag="0"/>
			<psa03 value="0.00147649281840297" flag="0"/>
			<psa10 value="0.00131273634218009" flag="0"/>
			<psa30 value="0.000171362651347981" flag="0"/>
		</comp>
	</station>
	<station code="DION" name="DION" netid="HL" source="National Observatory of Athens Seismic Network" insttype="" lat="38.07794" lon="23.93306">
		<comp name="--.HNE" depth="0.0">
			<acc value="0.0" flag="1"/>
			<vel value="0.0" flag="1"/>
			<psa03 value="0.0" flag="1"/>
			<psa10 value="0.0" flag="1"/>
			<psa30 value="0.0" flag="1"/>
		</comp>
		<comp name="--.HNN" depth="0.0">
			<acc value="0.0" flag="1"/>
			<vel value="0.0" flag="1"/>
			<psa03 value="0.0" flag="1"/>
			<psa10 value="0.0" flag="1"/>
			<psa30 value="0.0" flag="1"/>
		</comp>
		<comp name="--.HNZ" depth="0.0">
			<acc value="0.0" flag="1"/>
			<vel value="0.0" flag="1"/>
			<psa03 value="0.0" flag="1"/>
			<psa10 value="0.0" flag="1"/>
			<psa30 value="0.0" flag="1"/>
		</comp>
	</station>
	<station code="DLFA" name="DLFA" netid="HL" source="National Observatory of Athens Seismic Network" insttype="" lat="38.47836" lon="22.49583">
		<comp name="00.HNE" depth="0.0">
			<acc value="0.0585733998675413" flag="0"/>
			<vel value="0.0149287473140012" flag="0"/>
			<psa03 value="0.0504244668587923" flag="0"/>
			<psa10 value="0.00908848443036954" flag="0"/>
			<psa30 value="0.000696636157046491" flag="0"/>
		</comp>
		<comp name="00.HNN" depth="0.0">
			<acc value="0.0605834612477723" flag="0"/>
			<vel value="0.0163967337860405" flag="0"/>
			<psa03 value="0.0650551684229671" flag="0"/>
			<psa10 value="0.00804151679550198" flag="0"/>
			<psa30 value="0.000676949586134452" flag="0"/>
		</comp>
		<comp name="00.HNZ" depth="0.0">
			<acc value="0.0674778109843424" flag="0"/>
			<vel value="0.0178163805838192" flag="0"/>
			<psa03 value="0.0626838314721987" flag="0"/>
			<psa10 value="0.00773145330363736" flag="0"/>
			<psa30 value="0.000737798987135301" flag="0"/>
		</comp>
	</station>
	<station code="ITM" name="ITM" netid="HL" source="National Observatory of Athens Seismic Network" insttype="" lat="37.17872" lon="21.92522">
		<comp name="--.HNE" depth="0.0">
			<acc value="0.00271036619908697" flag="0"/>
			<vel value="0.00119163943452094" flag="0"/>
			<psa03 value="0.00800885498467064" flag="0"/>
			<psa10 value="0.00162279983404472" flag="0"/>
			<psa30 value="0.000280981057562747" flag="0"/>
		</comp>
		<comp name="--.HNN" depth="0.0">
			<acc value="0.00325491902208024" flag="0"/>
			<vel value="0.0017954217026251" flag="0"/>
			<psa03 value="0.00689029981921385" flag="0"/>
			<psa10 value="0.00230735559530427" flag="0"/>
			<psa30 value="0.00029798309607769" flag="0"/>
		</comp>
		<comp name="--.HNZ" depth="0.0">
			<acc value="0.00197896980885263" flag="0"/>
			<vel value="0.000986272047222133" flag="0"/>
			<psa03 value="0.00420576742211754" flag="0"/>
			<psa10 value="0.00145367429302765" flag="0"/>
			<psa30 value="0.000222816188958993" flag="0"/>
		</comp>
	</station>
	<station code="JAN" name="JAN" netid="HL" source="National Observatory of Athens Seismic Network" insttype="" lat="39.65616" lon="20.84874">
		<comp name="00.HNE" depth="0.0">
			<acc value="0.0058642067328664" flag="0"/>
			<vel value="0.00155748369261327" flag="0"/>
			<psa03 value="0.00487690052139162" flag="0"/>
			<psa10 value="0.00231540919249556" flag="0"/>
			<psa30 value="0.000180758514737818" flag="0"/>
		</comp>
		<comp name="00.HNN" depth="0.0">
			<acc value="0.00199018975453197" flag="0"/>
			<vel value="0.00110306509362306" flag="0"/>
			<psa03 value="0.0055480336206657" flag="0"/>
			<psa10 value="0.00160669263966214" flag="0"/>
			<psa30 value="0.000183443047134914" flag="0"/>
		</comp>
		<comp name="00.HNZ" depth="0.0">
			<acc value="0.00119527463327154" flag="0"/>
			<vel value="0.000980828328735879" flag="0"/>
			<psa03 value="0.00286350122356939" flag="0"/>
			<psa10 value="0.00177581818067921" flag="0"/>
			<psa30 value="0.000259057376319793" flag="0"/>
		</comp>
	</station>
	<station code="KYMI" name="KYMI" netid="HL" source="National Observatory of Athens Seismic Network" insttype="" lat="38.633147" lon="24.100138">
		<comp name="--.HNE" depth="1.0">
			<acc value="0.000785876340759756" flag="0"/>
			<vel value="0.000564682266220016" flag="0"/>
			<psa03 value="0.00129752399192988" flag="0"/>
			<psa10 value="0.000934217274189514" flag="0"/>
			<psa30 value="0.000124830756464978" flag="0"/>
		</comp>
		<comp name="--.HNN" depth="1.0">
			<acc value="0.000730050863425392" flag="0"/>
			<vel value="0.000659535735037267" flag="0"/>
			<psa03 value="0.00134226619854815" flag="0"/>
			<psa10 value="0.0012322003702672" flag="0"/>
			<psa30 value="8.67998808394472e-05" flag="0"/>
		</comp>
		<comp name="--.HNZ" depth="1.0">
			<acc value="0.000346192665868668" flag="0"/>
			<vel value="0.000352633594075847" flag="0"/>
			<psa03 value="0.000850101925747163" flag="0"/>
			<psa10 value="0.000531537414625068" flag="0"/>
			<psa30 value="0.000158387411428682" flag="0"/>
		</comp>
	</station>
	<station code="MNVA" name="MNVA" netid="HL" source="National Observatory of Athens Seismic Network" insttype="" lat="36.68709" lon="23.03734">
		<comp name="00.HNE" depth="0.0">
			<acc value="0.00251435798797497" flag="0"/>
			<vel value="0.000420203731035507" flag="0"/>
			<psa03 value="0.000939586338983707" flag="0"/>
			<psa10 value="0.000599992990751024" flag="0"/>
			<psa30 value="0.000105144185552939" flag="0"/>
		</comp>
		<comp name="00.HNN" depth="0.0">
			<acc value="0.00303711836591892" flag="0"/>
			<vel value="0.000324706692573023" flag="0"/>
			<psa03 value="0.000850101925747163" flag="0"/>
			<psa10 value="0.000394626262373157" flag="0"/>
			<psa30 value="0.000114092626876593" flag="0"/>
		</comp>
		<comp name="00.HNZ" depth="0.0">
			<acc value="0.00255749461810574" flag="0"/>
			<vel value="0.000268887314873858" flag="0"/>
			<psa03 value="0.000850101925747163" flag="0"/>
			<psa10 value="0.000507376623051202" flag="0"/>
			<psa30 value="0.000111855516545679" flag="0"/>
		</comp>
	</station>
	<station code="NOAC" name="NOAC" netid="HL" source="National Observatory of Athens Seismic Network" insttype="" lat="37.97384" lon="23.71767">
		<comp name="00.HNE" depth="0.0">
			<acc value="0.00308855433205001" flag="0"/>
			<vel value="0.0014532506739411" flag="0"/>
			<psa03 value="0.00590597127361187" flag="0"/>
			<psa10 value="0.0022550072135609" flag="0"/>
			<psa30 value="0.000167335852752336" flag="0"/>
		</comp>
		<comp name="00.HNN" depth="0.0">
			<acc value="0.0017306504211525" flag="0"/>
			<vel value="0.000841051448181979" flag="0"/>
			<psa03 value="0.00335566549637038" flag="0"/>
			<psa10 value="0.00157045145230134" flag="0"/>
			<psa30 value="0.000163756476222875" flag="0"/>
		</comp>
		<comp name="00.HNZ" depth="0.0">
			<acc value="0.00124039852839797" flag="0"/>
			<vel value="0.000900372865983504" flag="0"/>
			<psa03 value="0.00263979019047803" flag="0"/>
			<psa10 value="0.00133689713375396" flag="0"/>
			<psa30 value="0.000134226619854815" flag="0"/>
		</comp>
	</station>
	<station code="PATC" name="PATC" netid="HL" source="National Observatory of Athens Seismic Network" insttype="" lat="38.26933" lon="21.76001">
		<comp name="00.HNE" depth="0.0">
			<acc value="0.185833639224567" flag="0"/>
			<vel value="0.0694101163527044" flag="0"/>
			<psa03 value="0.373865878502279" flag="0"/>
			<psa10 value="0.0412062300292297" flag="0"/>
			<psa30 value="0.00571134267482239" flag="0"/>
		</comp>
		<comp name="00.HNN" depth="0.0">
			<acc value="0.172360133541662" flag="0"/>
			<vel value="0.0833744600825171" flag="0"/>
			<psa03 value="0.363977850839641" flag="0"/>
			<psa10 value="0.0530289107060419" flag="0"/>
			<psa30 value="0.00420576742211754" flag="0"/>
		</comp>
		<comp name="00.HNZ" depth="0.0">
			<acc value="0.172153292645121" flag="0"/>
			<vel value="0.0361712000777805" flag="0"/>
			<psa03 value="0.216194342379489" flag="0"/>
			<psa10 value="0.0319204324676736" flag="0"/>
			<psa30 value="0.00310779367170516" flag="0"/>
		</comp>
	</station>
	<station code="PATG" name="PATG" netid="HL" source="National Observatory of Athens Seismic Network" insttype="" lat="38.23865" lon="21.72657">
		<comp name="00.HNE" depth="0.0">
			<acc value="0.177277757537378" flag="0"/>
			<vel value="0.0630798368728373" flag="0"/>
			<psa03 value="0.319951519527261" flag="0"/>
			<psa10 value="0.0463605322316546" flag="0"/>
			<psa30 value="0.00627196252374933" flag="0"/>
		</comp>
		<comp name="00.HNN" depth="0.0">
			<acc value="0.108219019434728" flag="0"/>
			<vel value="0.053584330243838" flag="0"/>
			<psa03 value="0.359548372384432" flag="0"/>
			<psa10 value="0.0466263009389672" flag="0"/>
			<psa30 value="0.00685182152152213" flag="0"/>
		</comp>
		<comp name="00.HNZ" depth="0.0">
			<acc value="0.0809089399620516" flag="0"/>
			<vel value="0.0240757224121689" flag="0"/>
			<psa03 value="0.10796294456989" flag="0"/>
			<psa10 value="0.0283003405301893" flag="0"/>
			<psa30 value="0.00272837975958221" flag="0"/>
		</comp>
	</station>
