<stationlist created="1740445319">
	<station code="ATHU" name="ATHU" netid="HA" source="Hellenic Seismological Network, University of Athens, Seismological Laboratory (HA)" insttype="" lat="37.9665" lon="23.7845">
		<comp name=".HNE" depth="0.0">
			<acc value="0.00022473147687456" flag="0"/>
			<vel value="0.00011563839089" flag="0"/>
			<psa03 value="0.000826125446158826" flag="0"/>
			<psa10 value="6.65912350728429e-05" flag="0"/>
			<psa30 value="1.76448814519128e-05" flag="0"/>
		</comp>
		<comp name=".HNN" depth="0.0">
			<acc value="9.4785855903894e-05" flag="0"/>
			<vel value="3.93560840945e-05" flag="0"/>
			<psa03 value="7.67204499882145e-05" flag="0"/>
			<psa10 value="4.2562895266545e-05" flag="0"/>
			<psa30 value="1.13147086910517e-05" flag="0"/>
		</comp>
		<comp name=".HNZ" depth="0.0">
			<acc value="0.00011618020409148" flag="0"/>
			<vel value="3.6662252657e-05" flag="0"/>
			<psa03 value="5.75997578806678e-05" flag="0"/>
			<psa10 value="2.83754362519382e-05" flag="0"/>
			<psa30 value="1.87644217617893e-05" flag="0"/>
		</comp>
	</station>
	<station code="ABEA" name="ABEA" netid="HC" source="Seismological Network of Crete (HC)" insttype="" lat="35.5163" lon="24.0113">
		<comp name=".HNE" depth="0.0">
			<acc value="0.0042019095615498" flag="0"/>
			<vel value="0.00205479284884" flag="0"/>
			<psa03 value="0.00126891316083004" flag="0"/>
			<psa10 value="0.00112884001448502" flag="0"/>
			<psa30 value="0.000732713747020932" flag="0"/>
		</comp>
		<comp name=".HNN" depth="0.0">
			<acc value="0.003031043547981" flag="0"/>
			<vel value="0.00151413350111" flag="0"/>
			<psa03 value="0.0012879295572938" flag="0"/>
			<psa10 value="0.000982939939165816" flag="0"/>
			<psa30 value="0.000726623343561853" flag="0"/>
		</comp>
		<comp name=".HNZ" depth="0.0">
			<acc value="0.0031825250316102" flag="0"/>
			<vel value="0.0015465414374" flag="0"/>
			<psa03 value="0.00118461281723341" flag="0"/>
			<psa10 value="0.000881992392510764" flag="0"/>
			<psa30 value="0.000680906773400134" flag="0"/>
		</comp>
	</station>
	<station code="ATEI" name="ATEI" netid="HC" source="Seismological Network of Crete (HC)" insttype="" lat="35.5193" lon="24.0432">
		<comp name=".HNE" depth="0.0">
			<acc value="0.011481340149354" flag="0"/>
			<vel value="0.00533184432949" flag="0"/>
			<psa03 value="0.0249631094126479" flag="0"/>
			<psa10 value="0.0075304702629342" flag="0"/>
			<psa30 value="0.00109566685338443" flag="0"/>
		</comp>
		<comp name=".HNN" depth="0.0">
			<acc value="0.0097369789019094" flag="0"/>
			<vel value="0.00429671851138" flag="0"/>
			<psa03 value="0.0266030357580711" flag="0"/>
			<psa10 value="0.00594314292278738" flag="0"/>
			<psa30 value="0.000694853218116783" flag="0"/>
		</comp>
		<comp name=".HNZ" depth="0.0">
			<acc value="0.0076777668709704" flag="0"/>
			<vel value="0.00318717824532" flag="0"/>
			<psa03 value="0.0142868005970925" flag="0"/>
			<psa10 value="0.00495035371790833" flag="0"/>
			<psa30 value="0.00118120168631341" flag="0"/>
		</comp>
	</station>
	<station code="G0LD" name="G0LD" netid="HC" source="Seismological Network of Crete (HC)" insttype="" lat="35.4955" lon="24.0306">
		<comp name=".HNE" depth="0.0">
			<acc value="0.009970970207607" flag="0"/>
			<vel value="0.00309296653349" flag="0"/>
			<psa03 value="0.00217141240010242" flag="0"/>
			<psa10 value="0.00152988853510712" flag="0"/>
			<psa30 value="0.00161087462920543" flag="0"/>
		</comp>
		<comp name=".HNN" depth="0.0">
			<acc value="0.0068538805128168" flag="0"/>
			<vel value="0.00189326221832" flag="0"/>
			<psa03 value="0.00264983650871654" flag="0"/>
			<psa10 value="0.00130013718239441" flag="0"/>
			<psa30 value="0.00105870909261404" flag="0"/>
		</comp>
		<comp name=".HNZ" depth="0.0">
			<acc value="0.012218452192266" flag="0"/>
			<vel value="0.00483593927844" flag="0"/>
			<psa03 value="0.00254264711627763" flag="0"/>
			<psa10 value="0.0020468916902776" flag="0"/>
			<psa30 value="0.00241165767715123" flag="0"/>
		</comp>
	</station>
	<station code="PASK" name="PASK" netid="HC" source="Seismological Network of Crete (HC)" insttype="" lat="35.4996" lon="24.0121">
		<comp name=".HNE" depth="0.0">
			<acc value="0.016470625894512" flag="0"/>
			<vel value="0.0102010242656" flag="0"/>
			<psa03 value="0.0289924674836716" flag="0"/>
			<psa10 value="0.0161555339748575" flag="0"/>
			<psa30 value="0.00128829951018446" flag="0"/>
		</comp>
		<comp name=".HNN" depth="0.0">
			<acc value="0.015933116456568" flag="0"/>
			<vel value="0.00920602292972" flag="0"/>
			<psa03 value="0.0282856263880786" flag="0"/>
			<psa10 value="0.00960145354918866" flag="0"/>
			<psa30 value="0.00124303213644403" flag="0"/>
		</comp>
		<comp name=".HNZ" depth="0.0">
			<acc value="0.017505202559982" flag="0"/>
			<vel value="0.00484236063911" flag="0"/>
			<psa03 value="0.0270309260828529" flag="0"/>
			<psa10 value="0.00559884620857427" flag="0"/>
			<psa30 value="0.00108428672450855" flag="0"/>
		</comp>
	</station>
	<station code="POLY" name="POLY" netid="HC" source="Seismological Network of Crete (HC)" insttype="" lat="35.5226" lon="24.0602">
		<comp name=".HNE" depth="0.0">
			<acc value="0.0015650644845324" flag="0"/>
			<vel value="0.00185499903264" flag="0"/>
			<psa03 value="0.0011812768214983" flag="0"/>
			<psa10 value="0.000967373771264191" flag="0"/>
			<psa30 value="0.000866863310858707" flag="0"/>
		</comp>
		<comp name=".HNN" depth="0.0">
			<acc value="0.002475626658282" flag="0"/>
			<vel value="0.00323524500081" flag="0"/>
			<psa03 value="0.00222151191035474" flag="0"/>
			<psa10 value="0.00229634344960828" flag="0"/>
			<psa30 value="0.00136514658009571" flag="0"/>
		</comp>
		<comp name=".HNZ" depth="0.0">
			<acc value="0.0032863121101764" flag="0"/>
			<vel value="0.00197544439046" flag="0"/>
			<psa03 value="0.00141524805011485" flag="0"/>
			<psa10 value="0.000956913625208208" flag="0"/>
			<psa30 value="0.000720489499728821" flag="0"/>
		</comp>
	</station>
	<station code="TEFL" name="TEFL" netid="HC" source="Seismological Network of Crete (HC)" insttype="" lat="35.093273" lon="25.163418">
		<comp name=".HNE" depth="0.0">
			<acc value="0.20171846359404" flag="0"/>
			<vel value="0.193065712836" flag="0"/>
			<psa03 value="0.329350609528174" flag="0"/>
			<psa10 value="0.104878555189469" flag="0"/>
			<psa30 value="0.0700047508044457" flag="0"/>
		</comp>
		<comp name=".HNN" depth="0.0">
			<acc value="0.2063724527871" flag="0"/>
			<vel value="0.166991790913" flag="0"/>
			<psa03 value="0.32949891101895" flag="0"/>
			<psa10 value="0.139594522451847" flag="0"/>
			<psa30 value="0.0520785699495169" flag="0"/>
		</comp>
		<comp name=".HNZ" depth="0.0">
			<acc value="0.21508608499152" flag="0"/>
			<vel value="0.126970662878" flag="0"/>
			<psa03 value="0.274654006980087" flag="0"/>
			<psa10 value="0.131962811888765" flag="0"/>
			<psa30 value="0.0576815811216588" flag="0"/>
		</comp>
	</station>
	<station code="AGN1" name="AGN1" netid="HI" source="ITSAK Strong Motion Network" insttype="" lat="35.1879" lon="25.7155">
		<comp name=".HNE" depth="0.0">
			<acc value="0.0017907131018244" flag="0"/>
			<vel value="0.000248846773603" flag="0"/>
			<psa03 value="0.000575145603828987" flag="0"/>
			<psa10 value="6.10747990794674e-05" flag="0"/>
			<psa30 value="7.51513065300288e-05" flag="0"/>
		</comp>
		<comp name=".HNN" depth="0.0">
			<acc value="0.0012772540031502" flag="0"/>
			<vel value="0.000209894142094" flag="0"/>
			<psa03 value="0.000485402638941759" flag="0"/>
			<psa10 value="7.7193758727017e-05" flag="0"/>
			<psa30 value="3.05786956103689e-05" flag="0"/>
		</comp>
		<comp name=".HNZ" depth="0.0">
			<acc value="0.0043940414075274" flag="0"/>
			<vel value="0.000386730622067" flag="0"/>
			<psa03 value="0.000276106689964338" flag="0"/>
			<psa10 value="7.89590197100881e-05" flag="0"/>
			<psa30 value="2.65783655039925e-05" flag="0"/>
		</comp>
	</station>
	<station code="ARK1" name="ARK1" netid="HI" source="ITSAK Strong Motion Network" insttype="" lat="35.148777" lon="25.264194">
		<comp name=".HNE" depth="0.0">
			<acc value="0.016793387026356" flag="0"/>
			<vel value="0.00575036477434" flag="0"/>
			<psa03 value="0.0469108628227069" flag="0"/>
			<psa10 value="0.00755622790677947" flag="0"/>
			<psa30 value="0.000780464931136442" flag="0"/>
		</comp>
		<comp name=".HNN" depth="0.0">
			<acc value="0.01465910236776" flag="0"/>
			<vel value="0.00756570246747" flag="0"/>
			<psa03 value="0.0579107217177191" flag="0"/>
			<psa10 value="0.00816385675294421" flag="0"/>
			<psa30 value="0.000697709969862154" flag="0"/>
		</comp>
		<comp name=".HNZ" depth="0.0">
			<acc value="0.008868193611546" flag="0"/>
			<vel value="0.0052833572399" flag="0"/>
			<psa03 value="0.0249310864579774" flag="0"/>
			<psa10 value="0.00572159090232184" flag="0"/>
			<psa30 value="0.000529501743560584" flag="0"/>
		</comp>
	</station>
	<station code="CH02" name="CH02" netid="HI" source="ITSAK Strong Motion Network" insttype="" lat="35.5145" lon="24.0315">
		<comp name=".HNE" depth="0.0">
			<acc value="0.012123486700092" flag="0"/>
			<vel value="0.00590175794758" flag="0"/>
			<psa03 value="0.0323385797721816" flag="0"/>
			<psa10 value="0.00814701907502819" flag="0"/>
			<psa30 value="0.000689010956094432" flag="0"/>
		</comp>
		<comp name=".HNN" depth="0.0">
			<acc value="0.01583875584867" flag="0"/>
			<vel value="0.00845716787138" flag="0"/>
			<psa03 value="0.0282766961090036" flag="0"/>
			<psa10 value="0.0117106082703215" flag="0"/>
			<psa30 value="0.000829741268369904" flag="0"/>
		</comp>
		<comp name=".HNZ" depth="0.0">
			<acc value="0.0096345980077056" flag="0"/>
			<vel value="0.00329928011714" flag="0"/>
			<psa03 value="0.0121234723913988" flag="0"/>
			<psa10 value="0.00716780717580456" flag="0"/>
			<psa30 value="0.000503406733643081" flag="0"/>
		</comp>
	</station>
	<station code="CH03" name="CH03" netid="HI" source="ITSAK Strong Motion Network" insttype="" lat="35.53303" lon="24.0705">
		<comp name=".HNE" depth="0.0">
			<acc value="0.008615843627391" flag="0"/>
			<vel value="0.00543161035478" flag="0"/>
			<psa03 value="0.0194381353373159" flag="0"/>
			<psa10 value="0.00612070687302377" flag="0"/>
			<psa30 value="0.000536074001855855" flag="0"/>
		</comp>
		<comp name=".HNN" depth="0.0">
			<acc value="0.011872440319542" flag="0"/>
			<vel value="0.0049110182414" flag="0"/>
			<psa03 value="0.0200493320761085" flag="0"/>
			<psa10 value="0.00711952178962993" flag="0"/>
			<psa30 value="0.000441758743515595" flag="0"/>
		</comp>
		<comp name=".HNZ" depth="0.0">
			<acc value="0.0071154542069808" flag="0"/>
			<vel value="0.00367769383606" flag="0"/>
			<psa03 value="0.0128965092783762" flag="0"/>
			<psa10 value="0.00351032535432771" flag="0"/>
			<psa30 value="0.000353012968710071" flag="0"/>
		</comp>
	</station>
	<station code="GOR1" name="GOR1" netid="HI" source="ITSAK Strong Motion Network" insttype="" lat="35.0582" lon="24.9628">
		<comp name=".HNE" depth="0.0">
			<acc value="0.007577735346867" flag="0"/>
			<vel value="0.00362939695403" flag="0"/>
			<psa03 value="0.0253746054222403" flag="0"/>
			<psa10 value="0.00795162925640661" flag="0"/>
			<psa30 value="0.000595106766651752" flag="0"/>
		</comp>
		<comp name=".HNN" depth="0.0">
			<acc value="0.0057263638197852" flag="0"/>
			<vel value="0.00455089805904" flag="0"/>
			<psa03 value="0.0178014761354254" flag="0"/>
			<psa10 value="0.00919450471581744" flag="0"/>
			<psa30 value="0.000555885366343586" flag="0"/>
		</comp>
		<comp name=".HNZ" depth="0.0">
			<acc value="0.0044765080312086" flag="0"/>
			<vel value="0.00284073760736" flag="0"/>
			<psa03 value="0.0111784306203525" flag="0"/>
			<psa10 value="0.00466374848171737" flag="0"/>
			<psa30 value="0.000346643223828861" flag="0"/>
		</comp>
	</station>
	<station code="HER3" name="HER3" netid="HI" source="ITSAK Strong Motion Network" insttype="" lat="35.3296" lon="25.1065">
		<comp name=".HNE" depth="0.0">
			<acc value="0.033373885666326" flag="0"/>
			<vel value="0.01628293189" flag="0"/>
			<psa03 value="0.0865004177279972" flag="0"/>
			<psa10 value="0.0221640751361987" flag="0"/>
			<psa30 value="0.0010800935300626" flag="0"/>
		</comp>
		<comp name=".HNN" depth="0.0">
			<acc value="0.038146809179682" flag="0"/>
			<vel value="0.0155645312885" flag="0"/>
			<psa03 value="0.114328865392866" flag="0"/>
			<psa10 value="0.0199868815328237" flag="0"/>
			<psa30 value="0.00106658555189259" flag="0"/>
		</comp>
		<comp name=".HNZ" depth="0.0">
			<acc value="0.05367939655893" flag="0"/>
			<vel value="0.00907629121827" flag="0"/>
			<psa03 value="0.0588743272186113" flag="0"/>
			<psa10 value="0.0107022817861604" flag="0"/>
			<psa30 value="0.000489939174817441" flag="0"/>
		</comp>
	</station>
	<station code="KRL1" name="KRL1" netid="HI" source="ITSAK Strong Motion Network" insttype="" lat="37.7951" lon="26.7065">
		<comp name=".HNE" depth="0.0">
			<acc value="0.031212463098156" flag="0"/>
			<vel value="0.011572522748" flag="0"/>
			<psa03 value="0.0666726250675306" flag="0"/>
			<psa10 value="0.0157862451362588" flag="0"/>
			<psa30 value="0.000994463065798907" flag="0"/>
		</comp>
		<comp name=".HNN" depth="0.0">
			<acc value="0.025667342839038" flag="0"/>
			<vel value="0.011873126042" flag="0"/>
			<psa03 value="0.0743087975929836" flag="0"/>
			<psa10 value="0.0157316977727547" flag="0"/>
			<psa30 value="0.000904512419507881" flag="0"/>
		</comp>
		<comp name=".HNZ" depth="0.0">
			<acc value="0.014196086865318" flag="0"/>
			<vel value="0.00851722787545" flag="0"/>
			<psa03 value="0.0308224064164852" flag="0"/>
			<psa10 value="0.010009555583947" flag="0"/>
			<psa30 value="0.00075145155081086" flag="0"/>
		</comp>
	</station>
	<station code="KTL1" name="KTL1" netid="HI" source="ITSAK Strong Motion Network" insttype="" lat="35.20778" lon="25.34272">
		<comp name=".HNE" depth="0.0">
			<acc value="0.01159014885978" flag="0"/>
			<vel value="0.00696567407028" flag="0"/>
			<psa03 value="0.0471233196051699" flag="0"/>
			<psa10 value="0.00494882408530804" flag="0"/>
			<psa30 value="0.000529206515667219" flag="0"/>
		</comp>
		<comp name=".HNN" depth="0.0">
			<acc value="0.018854502278814" flag="0"/>
			<vel value="0.0100235417865" flag="0"/>
			<psa03 value="0.0513755648373437" flag="0"/>
			<psa10 value="0.00530570475815018" flag="0"/>
			<psa30 value="0.000320678951740201" flag="0"/>
		</comp>
		<comp name=".HNZ" depth="0.0">
			<acc value="0.0092566225035606" flag="0"/>
			<vel value="0.0031059456646" flag="0"/>
			<psa03 value="0.0166147777308203" flag="0"/>
			<psa10 value="0.00331168078885094" flag="0"/>
			<psa30 value="0.0002147585105514" flag="0"/>
		</comp>
	</station>
	<station code="NAX1" name="NAX1" netid="HI" source="ITSAK Strong Motion Network" insttype="" lat="37.101394" lon="25.374103">
		<comp name=".HNE" depth="0.0">
			<acc value="0.30249613509864" flag="0"/>
			<vel value="0.0812371238172" flag="0"/>
			<psa03 value="0.338052685997925" flag="0"/>
			<psa10 value="0.0411803042431071" flag="0"/>
			<psa30 value="0.00249537509801854" flag="0"/>
		</comp>
		<comp name=".HNN" depth="0.0">
			<acc value="0.25786354180452" flag="0"/>
			<vel value="0.0442056627625" flag="0"/>
			<psa03 value="0.176267614364359" flag="0"/>
			<psa10 value="0.0226279302393422" flag="0"/>
			<psa30 value="0.00192055368558796" flag="0"/>
		</comp>
		<comp name=".HNZ" depth="0.0">
			<acc value="0.13146113510886" flag="0"/>
			<vel value="0.0431473638004" flag="0"/>
			<psa03 value="0.14034597431528" flag="0"/>
			<psa10 value="0.0203616851117228" flag="0"/>
			<psa30 value="0.00218590334703526" flag="0"/>
		</comp>
	</station>
	<station code="RTH1" name="RTH1" netid="HI" source="ITSAK Strong Motion Network" insttype="" lat="35.365393" lon="24.471773">
		<comp name=".HNE" depth="0.0">
			<acc value="0.0088330691840106" flag="0"/>
			<vel value="0.00385312566957" flag="0"/>
			<psa03 value="0.0310340740842742" flag="0"/>
			<psa10 value="0.00326636513066116" flag="0"/>
			<psa30 value="0.00122605351169583" flag="0"/>
		</comp>
		<comp name=".HNN" depth="0.0">
			<acc value="0.0089682312344436" flag="0"/>
			<vel value="0.00398253701028" flag="0"/>
			<psa03 value="0.0228070811696834" flag="0"/>
			<psa10 value="0.00306076080725759" flag="0"/>
			<psa30 value="0.00122506865478504" flag="0"/>
		</comp>
		<comp name=".HNZ" depth="0.0">
			<acc value="0.0076741073727228" flag="0"/>
			<vel value="0.00260965390831" flag="0"/>
			<psa03 value="0.0111895954224508" flag="0"/>
			<psa10 value="0.00224785555002228" flag="0"/>
			<psa30 value="0.000418299298817345" flag="0"/>
		</comp>
	</station>
	<station code="AMGA" name="AMGA" netid="HL" source="National Observatory of Athens Seismic Network" insttype="" lat="36.831561" lon="25.893836">
		<comp name="00.HNE" depth="0.0">
			<acc value="0.89476502574144" flag="0"/>
			<vel value="0.203899276425" flag="0"/>
			<psa03 value="0.456403901183374" flag="0"/>
			<psa10 value="0.066964323557966" flag="0"/>
			<psa30 value="0.00743684682126769" flag="0"/>
		</comp>
		<comp name="00.HNN" depth="0.0">
			<acc value="1.1404423930092" flag="0"/>
			<vel value="0.185621895576" flag="0"/>
			<psa03 value="0.349179693940888" flag="0"/>
			<psa10 value="0.108684637323705" flag="0"/>
			<psa30 value="0.00930359631760927" flag="0"/>
		</comp>
		<comp name="00.HNZ" depth="0.0">
			<acc value="0.57042485858676" flag="0"/>
			<vel value="0.178886698787" flag="0"/>
			<psa03 value="0.348671972806873" flag="0"/>
			<psa10 value="0.110996170451549" flag="0"/>
			<psa30 value="0.00743773354665821" flag="0"/>
		</comp>
	</station>
	<station code="ANAF" name="ANAF" netid="HL" source="National Observatory of Athens Seismic Network" insttype="" lat="36.35675" lon="25.77262">
		<comp name=".HNE" depth="0.0">
			<acc value="1.7715823562256" flag="0"/>
			<vel value="0.321410642533" flag="0"/>
			<psa03 value="1.4306067706775" flag="0"/>
			<psa10 value="0.0674616740049908" flag="0"/>
			<psa30 value="0.00758082302565974" flag="0"/>
		</comp>
		<comp name=".HNN" depth="0.0">
			<acc value="1.4197699957374" flag="0"/>
			<vel value="0.352191356372" flag="0"/>
			<psa03 value="2.67583742776456" flag="0"/>
			<psa10 value="0.0530270615324765" flag="0"/>
			<psa30 value="0.00592718264675558" flag="0"/>
		</comp>
		<comp name=".HNZ" depth="0.0">
			<acc value="1.2647418031962" flag="0"/>
			<vel value="0.212151090147" flag="0"/>
			<psa03 value="1.29617994889303" flag="0"/>
			<psa10 value="0.0408352401343555" flag="0"/>
			<psa30 value="0.00656085087417226" flag="0"/>
		</comp>
	</station>
	<station code="ASTA" name="ASTA" netid="HL" source="National Observatory of Athens Seismic Network" insttype="" lat="36.54552" lon="26.35295">
		<comp name="00.HNE" depth="0.0">
			<acc value="0.056521489380864" flag="0"/>
			<vel value="0.0148329115979" flag="0"/>
			<psa03 value="0.0886912191081794" flag="0"/>
			<psa10 value="0.0138940582256688" flag="0"/>
			<psa30 value="0.00108581515909153" flag="0"/>
		</comp>
		<comp name="00.HNN" depth="0.0">
			<acc value="0.061226614199958" flag="0"/>
			<vel value="0.0201066828374" flag="0"/>
			<psa03 value="0.136573578579413" flag="0"/>
			<psa10 value="0.0122869295737982" flag="0"/>
			<psa30 value="0.00121140097853435" flag="0"/>
		</comp>
		<comp name="00.HNZ" depth="0.0">
			<acc value="0.040822047605082" flag="0"/>
			<vel value="0.0166604534776" flag="0"/>
			<psa03 value="0.0719397916999945" flag="0"/>
			<psa10 value="0.0123082637995604" flag="0"/>
			<psa30 value="0.00120348930859331" flag="0"/>
		</comp>
	</station>
	<station code="CHNB" name="CHNB" netid="HL" source="National Observatory of Athens Seismic Network" insttype="" lat="35.48765" lon="24.06605">
		<comp name="00.HNE" depth="0.0">
			<acc value="0.021276253919196" flag="0"/>
			<vel value="0.0104992686981" flag="0"/>
			<psa03 value="0.0481019781865846" flag="0"/>
			<psa10 value="0.0170286443141061" flag="0"/>
			<psa30 value="0.00109280176775432" flag="0"/>
