<?xml version="1.0" encoding="UTF-8" standalone="yes"?>
<!DOCTYPE earthquake SYSTEM "stationlist.dtd">
<stationlist created="" xmlns="ch.ethz.sed.shakemap.usgs.xml">
  <station code="APE" name="APE" netid="GE" insttype="STS-2/N" lat="37.0727" lon="25.523">
    <comp name="--.HHE">
      <acc value="0.5036877540" flag="0"/>
      <vel value="0.0809054961" flag="0"/>
      <psa03 value="0.3704952980" flag="0"/>
      <psa10 value="0.0296428792" flag="0"/>
      <psa30 value="0.0020122189" flag="0"/>
    </comp>
    <comp name="--.HHN">
      <acc value="0.6297334707" flag="0"/>
      <vel value="0.1070805291" flag="0"/>
      <psa03 value="0.3121215587" flag="0"/>
      <psa10 value="0.0227906735" flag="0"/>
      <psa30 value="0.0024753651" flag="0"/>
    </comp>
    <comp name="--.HHZ">
      <acc value="0.2043273828" flag="0"/>
      <vel value="0.0392305866" flag="0"/>
      <psa03 value="0.1736766183" flag="0"/>
      <psa10 value="0.0144124267" flag="0"/>
      <psa30 value="0.0018799169" flag="0"/>
    </comp>
  </station>
  <station code="THERA" name="THERA" netid="GE" insttype="STS-2/N" lat="36.367" lon="25.4753">
    <comp name="--.HHE">
      <acc value="0.1747094666" flag="0"/>
      <vel value="0.0308236457" flag="0"/>
      <psa03 value="0.1684335715" flag="0"/>
      <psa10 value="0.0110082014" flag="0"/>
      <psa30 value="0.0011014004" flag="0"/>
    </comp>
    <comp name="--.HHZ">
      <acc value="0.0842450058" flag="0"/>
      <vel value="0.0180149835" flag="0"/>
      <psa03 value="0.0738519758" flag="0"/>
      <psa10 value="0.0055622392" flag="0"/>
      <psa30 value="0.0008470896" flag="0"/>
    </comp>
    <comp name="--.HHN">
      <acc value="0.0731253063" flag="0"/>
      <vel value="0.0203839792" flag="0"/>
      <psa03 value="0.1245376551" flag="0"/>
      <psa10 value="0.0065394041" flag="0"/>
      <psa30 value="0.0006423211" flag="0"/>
    </comp>
  </station>
  <station code="SERI" name="SERI" netid="HA" insttype="30" lat="37.1609" lon="24.4853">
    <comp name="--.HHZ">
      <acc value="0.0417676771" flag="0"/>
      <vel value="0.0189919544" flag="0"/>
      <psa03 value="0.0768879555" flag="0"/>
      <psa10 value="0.0177665749" flag="0"/>
      <psa30 value="0.0011563781" flag="0"/>
    </comp>
    <comp name="--.HHE">
      <acc value="0.0471498547" flag="0"/>
      <vel value="0.0140921397" flag="0"/>
      <psa03 value="0.1218948094" flag="0"/>
      <psa10 value="0.0084731460" flag="0"/>
      <psa30 value="0.0005289218" flag="0"/>
    </comp>
    <comp name="--.HHN">
      <acc value="0.0563172598" flag="0"/>
      <vel value="0.0156847996" flag="0"/>
      <psa03 value="0.0904841295" flag="0"/>
      <psa10 value="0.0076473600" flag="0"/>
      <psa30 value="0.0010641560" flag="0"/>
    </comp>
  </station>
  <station code="SNT1" name="SNT1" netid="HA" insttype="30" lat="36.4159" lon="25.4282">
    <comp name="--.HHN">
      <acc value="0.0840719270" flag="0"/>
      <vel value="0.0291341540" flag="0"/>
      <psa03 value="0.1214544235" flag="0"/>
      <psa10 value="0.0301660323" flag="0"/>
      <psa30 value="0.0046446940" flag="0"/>
    </comp>
    <comp name="--.HHZ">
      <acc value="0.1158102653" flag="0"/>
      <vel value="0.0236741992" flag="0"/>
      <psa03 value="0.1007965413" flag="0"/>
      <psa10 value="0.0125914459" flag="0"/>
      <psa30 value="0.0016186984" flag="0"/>
    </comp>
    <comp name="--.HHE">
      <acc value="0.1172033270" flag="0"/>
      <vel value="0.0330676644" flag="0"/>
      <psa03 value="0.1462378497" flag="0"/>
      <psa10 value="0.0239304682" flag="0"/>
      <psa30 value="0.0029663247" flag="0"/>
    </comp>
  </station>
  <station code="SNT5" name="SNT5" netid="HA" insttype="1s-100Hz," lat="36.4037" lon="25.3953">
    <comp name="--.HHE">
      <acc value="0.6319289541" flag="0"/>
      <vel value="0.1217970482" flag="0"/>
      <psa03 value="0.4801594351" flag="0"/>
      <psa10 value="0.0407736070" flag="0"/>
      <psa30 value="0.0061444002" flag="0"/>
    </comp>
    <comp name="--.HHN">
      <acc value="0.2964751619" flag="0"/>
      <vel value="0.0684281237" flag="0"/>
      <psa03 value="0.3969770852" flag="0"/>
      <psa10 value="0.0138644050" flag="0"/>
      <psa30 value="0.0066028239" flag="0"/>
    </comp>
    <comp name="--.HHZ">
      <acc value="0.1577230009" flag="0"/>
      <vel value="0.0225273345" flag="0"/>
      <psa03 value="0.0954013863" flag="0"/>
      <psa10 value="0.0138363317" flag="0"/>
      <psa30 value="0.0012965290" flag="0"/>
    </comp>
  </station>
  <station code="NAX1" name="NAX1" netid="HI" insttype="CMG-5TD,ACCELEROMETER,GURALP" lat="37.1014" lon="25.3741">
    <comp name="--.HNN">
      <acc value="0.2593491392" flag="0"/>
      <vel value="0.0444361740" flag="0"/>
      <psa03 value="0.1735409314" flag="0"/>
      <psa10 value="0.0225926753" flag="0"/>
      <psa30 value="0.0017107998" flag="0"/>
    </comp>
    <comp name="--.HNZ">
      <acc value="0.1539164118" flag="0"/>
      <vel value="0.0418694503" flag="0"/>
      <psa03 value="0.1400117264" flag="0"/>
      <psa10 value="0.0200791712" flag="0"/>
      <psa30 value="0.0018712051" flag="0"/>
    </comp>
    <comp name="--.HNE">
      <acc value="0.3237444575" flag="0"/>
      <vel value="0.0810229922" flag="0"/>
      <psa03 value="0.3322172502" flag="0"/>
      <psa10 value="0.0412285677" flag="0"/>
      <psa30 value="0.0023143290" flag="0"/>
    </comp>
  </station>
  <station code="SFR2" name="SFR2" netid="HI" insttype="unknown" lat="36.3998" lon="25.4382">
    <comp name="--.HNE">
      <acc value="0.2214256174" flag="0"/>
      <vel value="0.0826662144" flag="0"/>
      <psa03 value="0.5409970592" flag="0"/>
      <psa10 value="0.0315869815" flag="0"/>
      <psa30 value="0.0041796307" flag="0"/>
    </comp>
    <comp name="--.HNN">
      <acc value="0.2843198433" flag="0"/>
      <vel value="0.0900358455" flag="0"/>
      <psa03 value="0.5614738854" flag="0"/>
      <psa10 value="0.0847867691" flag="0"/>
      <psa30 value="0.0044254064" flag="0"/>
    </comp>
    <comp name="--.HNZ">
      <acc value="0.3257176562" flag="0"/>
      <vel value="0.0669308010" flag="0"/>
      <psa03 value="0.4232343113" flag="0"/>
      <psa10 value="0.0344798251" flag="0"/>
      <psa30 value="0.0020706598" flag="0"/>
    </comp>
  </station>
  <station code="AMGA" name="AMGA" netid="HL" insttype="SMART24" lat="36.8316" lon="25.8938">
    <comp name="--.HHN">
      <acc value="1.9921673744" flag="0"/>
      <vel value="0.3133370513" flag="0"/>
      <psa03 value="0.6187868018" flag="0"/>
      <psa10 value="0.1778257197" flag="0"/>
      <psa30 value="0.0150498180" flag="0"/>
    </comp>
    <comp name="--.HHE">
      <acc value="1.4856268780" flag="0"/>
      <vel value="0.3208190448" flag="0"/>
      <psa03 value="0.7222357059" flag="0"/>
      <psa10 value="0.0977989439" flag="0"/>
      <psa30 value="0.0105318526" flag="0"/>
    </comp>
    <comp name="--.HHZ">
      <acc value="0.9550647773" flag="0"/>
      <vel value="0.2823833898" flag="0"/>
      <psa03 value="0.5698586811" flag="0"/>
      <psa10 value="0.1824823312" flag="0"/>
      <psa30 value="0.0119649905" flag="0"/>
    </comp>
  </station>
  <station code="APE" name="APE" netid="HL" insttype="120" lat="37.0727" lon="25.523">
    <comp name="--.HHE">
      <acc value="0.4615518376" flag="0"/>
      <vel value="0.0779907033" flag="0"/>
      <psa03 value="0.3600897812" flag="0"/>
      <psa10 value="0.0292724053" flag="0"/>
      <psa30 value="0.0020002667" flag="0"/>
    </comp>
    <comp name="--.HHN">
      <acc value="0.5444648738" flag="0"/>
      <vel value="0.1007323630" flag="0"/>
      <psa03 value="0.3025137475" flag="0"/>
      <psa10 value="0.0223741708" flag="0"/>
      <psa30 value="0.0024394078" flag="0"/>
    </comp>
    <comp name="--.HHZ">
      <acc value="0.1817592573" flag="0"/>
      <vel value="0.0377675298" flag="0"/>
      <psa03 value="0.1691494540" flag="0"/>
      <psa10 value="0.0142356778" flag="0"/>
      <psa30 value="0.0018713086" flag="0"/>
    </comp>
  </station>
  <station code="MHLO" name="MHLO" netid="HL" insttype="20" lat="36.6898" lon="24.4017">
    <comp name="--.HHN">
      <acc value="0.0823642822" flag="0"/>
      <vel value="0.0396826695" flag="0"/>
      <psa03 value="0.1877630330" flag="0"/>
      <psa10 value="0.0402651243" flag="0"/>
      <psa30 value="0.0020074920" flag="0"/>
    </comp>
    <comp name="--.HHE">
      <acc value="0.0638084281" flag="0"/>
      <vel value="0.0487903002" flag="0"/>
      <psa03 value="0.2290519534" flag="0"/>
      <psa10 value="0.0604477898" flag="0"/>
      <psa30 value="0.0029813873" flag="0"/>
    </comp>
    <comp name="--.HHZ">
      <acc value="0.0280330930" flag="0"/>
      <vel value="0.0202371023" flag="0"/>
      <psa03 value="0.0597841788" flag="0"/>
      <psa10 value="0.0199988239" flag="0"/>
      <psa30 value="0.0017060897" flag="0"/>
    </comp>
  </station>
  <station code="MILA" name="MILA" netid="HL" insttype="CMG-5" lat="36.7429" lon="24.4282">
    <comp name="00.HNN">
      <acc value="0.1096170058" flag="0"/>
      <vel value="0.0389625288" flag="0"/>
      <psa03 value="0.2511221412" flag="0"/>
      <psa10 value="0.0448199528" flag="0"/>
      <psa30 value="0.0028007235" flag="0"/>
    </comp>
    <comp name="00.HNZ">
      <acc value="0.0961115461" flag="0"/>
      <vel value="0.0319573736" flag="0"/>
      <psa03 value="0.1366907430" flag="0"/>
      <psa10 value="0.0438421284" flag="0"/>
      <psa30 value="0.0016993978" flag="0"/>
    </comp>
    <comp name="00.HNE">
      <acc value="0.0883834221" flag="0"/>
      <vel value="0.0332406721" flag="0"/>
      <psa03 value="0.1492944545" flag="0"/>
      <psa10 value="0.0467140668" flag="0"/>
      <psa30 value="0.0027061758" flag="0"/>
    </comp>
  </station>
  <station code="SANT" name="SANT" netid="HL" insttype="30" lat="36.3705" lon="25.4593">
    <comp name="--.HHE">
      <acc value="0.5081830842" flag="0"/>
      <vel value="0.0771462671" flag="0"/>
      <psa03 value="0.3043312564" flag="0"/>
      <psa10 value="0.0185332907" flag="0"/>
      <psa30 value="0.0017016941" flag="0"/>
    </comp>
    <comp name="--.HHN">
      <acc value="0.2837694927" flag="0"/>
      <vel value="0.0431709901" flag="0"/>
      <psa03 value="0.1241556764" flag="0"/>
      <psa10 value="0.0119616458" flag="0"/>
      <psa30 value="0.0015507103" flag="0"/>
    </comp>
    <comp name="--.HHZ">
      <acc value="0.2773981231" flag="0"/>
      <vel value="0.0486884064" flag="0"/>
      <psa03 value="0.2145693196" flag="0"/>
      <psa10 value="0.0103129221" flag="0"/>
      <psa30 value="0.0010434572" flag="0"/>
    </comp>
  </station>
  <station code="SAP3" name="SAP3" netid="HL" insttype="65535" lat="36.4356" lon="25.3454">
    <comp name="--.HHN">
      <acc value="0.2562722970" flag="0"/>
      <vel value="0.0759338906" flag="0"/>
      <psa03 value="0.4472095456" flag="0"/>
      <psa10 value="0.0391168841" flag="0"/>
      <psa30 value="0.0071822882" flag="0"/>
    </comp>
    <comp name="--.HHZ">
      <acc value="0.2337422453" flag="0"/>
      <vel value="0.0589830861" flag="0"/>
      <psa03 value="0.3267726096" flag="0"/>
      <psa10 value="0.0260907524" flag="0"/>
      <psa30 value="0.0022756384" flag="0"/>
    </comp>
    <comp name="--.HHE">
      <acc value="0.3937748788" flag="0"/>
      <vel value="0.1411921297" flag="0"/>
      <psa03 value="0.4194809114" flag="0"/>
      <psa10 value="0.0593167841" flag="0"/>
      <psa30 value="0.0067653069" flag="0"/>
    </comp>
  </station>
  <station code="THERA" name="THERA" netid="HL" insttype="120" lat="36.367" lon="25.4753">
    <comp name="--.HHE">
      <acc value="0.1774530997" flag="0"/>
      <vel value="0.0303139568" flag="0"/>
      <psa03 value="0.1639318111" flag="0"/>
      <psa10 value="0.0108549190" flag="0"/>
      <psa30 value="0.0010937616" flag="0"/>
    </comp>
    <comp name="--.HHZ">
      <acc value="0.0871517644" flag="0"/>
      <vel value="0.0175719309" flag="0"/>
      <psa03 value="0.0718497472" flag="0"/>
      <psa10 value="0.0055056871" flag="0"/>
      <psa30 value="0.0008437218" flag="0"/>
    </comp>
    <comp name="--.HHN">
      <acc value="0.1499591758" flag="0"/>
      <vel value="0.0398426717" flag="0"/>
      <psa03 value="0.2419290282" flag="0"/>
      <psa10 value="0.0129328116" flag="0"/>
      <psa30 value="0.0012643359" flag="0"/>
    </comp>
  </station>
  <station code="THRA" name="THRA" netid="HL" insttype="CMG-5" lat="36.415" lon="25.4324">
    <comp name="00.HNZ">
      <acc value="0.2832338023" flag="0"/>
      <vel value="0.0782785743" flag="0"/>
      <psa03 value="0.3885374178" flag="0"/>
      <psa10 value="0.0348990987" flag="0"/>
      <psa30 value="0.0025457653" flag="0"/>
    </comp>
    <comp name="00.HNN">
      <acc value="0.3234048060" flag="0"/>
      <vel value="0.0970703348" flag="0"/>
      <psa03 value="0.6954782829" flag="0"/>
      <psa10 value="0.0966825955" flag="0"/>
      <psa30 value="0.0069044448" flag="0"/>
    </comp>
    <comp name="00.HNE">
      <acc value="0.3391824942" flag="0"/>
      <vel value="0.1024913781" flag="0"/>
      <psa03 value="0.5057166786" flag="0"/>
      <psa10 value="0.0942913293" flag="0"/>
      <psa30 value="0.0056996746" flag="0"/>
    </comp>
  </station>
  <station code="TNSA" name="TNSA" netid="HL" insttype="CMG-5" lat="37.5394" lon="25.1631">
    <comp name="00.HNE">
      <acc value="0.1483067810" flag="0"/>
      <vel value="0.0366691090" flag="0"/>
      <psa03 value="0.3194197872" flag="0"/>
      <psa10 value="0.0114847276" flag="0"/>
      <psa30 value="0.0015900655" flag="0"/>
    </comp>
    <comp name="00.HNN">
      <acc value="0.1933879882" flag="0"/>
      <vel value="0.0527583428" flag="0"/>
      <psa03 value="0.2318008515" flag="0"/>
      <psa10 value="0.0128454429" flag="0"/>
      <psa30 value="0.0020533356" flag="0"/>
    </comp>
    <comp name="00.HNZ">
      <acc value="0.1305666157" flag="0"/>
      <vel value="0.0319550931" flag="0"/>
      <psa03 value="0.1913830704" flag="0"/>
      <psa10 value="0.0101286927" flag="0"/>
      <psa30 value="0.0009174992" flag="0"/>
    </comp>
  </station>
  <station code="AKRO" name="AKRO" netid="HT" insttype="Compact," lat="36.3584" lon="25.3967">
    <comp name="--.HHZ">
      <acc value="0.2763538686" flag="0"/>
      <vel value="0.0452584714" flag="0"/>
      <psa03 value="0.2145044196" flag="0"/>
      <psa10 value="0.0185353211" flag="0"/>
      <psa30 value="0.0016394510" flag="0"/>
    </comp>
    <comp name="--.HHN">
      <acc value="0.2547748808" flag="0"/>
      <vel value="0.0639258983" flag="0"/>
      <psa03 value="0.4025542622" flag="0"/>
      <psa10 value="0.0282493768" flag="0"/>
      <psa30 value="0.0025412319" flag="0"/>
    </comp>
    <comp name="--.HHE">
      <acc value="0.5699439778" flag="0"/>
      <vel value="0.1431045595" flag="0"/>
      <psa03 value="0.5802793645" flag="0"/>
      <psa10 value="0.0328770522" flag="0"/>
      <psa30 value="0.0030529628" flag="0"/>
    </comp>
  </station>
  <station code="CMBO" name="CMBO" netid="HT" insttype="120P," lat="36.4709" lon="25.4056">
    <comp name="--.HHE">
      <acc value="0.2574645801" flag="0"/>
      <vel value="0.0624939103" flag="0"/>
      <psa03 value="0.3026412617" flag="0"/>
      <psa10 value="0.0471449102" flag="0"/>
      <psa30 value="0.0046131480" flag="0"/>
    </comp>
    <comp name="--.HHN">
      <acc value="0.3052676512" flag="0"/>
      <vel value="0.1029160420" flag="0"/>
      <psa03 value="0.3820751888" flag="0"/>
      <psa10 value="0.0672422237" flag="0"/>
      <psa30 value="0.0049232798" flag="0"/>
    </comp>
    <comp name="--.HHZ">
      <acc value="0.2901331553" flag="0"/>
      <vel value="0.0754057836" flag="0"/>
      <psa03 value="0.4112757732" flag="0"/>
      <psa10 value="0.0212496973" flag="0"/>
      <psa30 value="0.0033813486" flag="0"/>
    </comp>
  </station>
</stationlist>
