<?xml version="1.0" encoding="UTF-8" standalone="yes"?>
<!DOCTYPE earthquake SYSTEM "stationlist.dtd">
<stationlist created="" xmlns="ch.ethz.sed.shakemap.usgs.xml">
  <station code="APE" name="APE" netid="GE" insttype="STS-2/N" lat="37.0727" lon="25.523">
    <comp name="--.HHE">
      <acc value="0.5036877540" flag="0"/>
      <vel value="0.0809054963" flag="0"/>
      <psa03 value="0.3704952980" flag="0"/>
      <psa10 value="0.0296428805" flag="0"/>
      <psa30 value="0.0020122439" flag="0"/>
    </comp>
    <comp name="--.HHZ">
      <acc value="0.2043273827" flag="0"/>
      <vel value="0.0392305859" flag="0"/>
      <psa03 value="0.1736766183" flag="0"/>
      <psa10 value="0.0144124273" flag="0"/>
      <psa30 value="0.0018800158" flag="0"/>
    </comp>
    <comp name="--.HHN">
      <acc value="0.6297334700" flag="0"/>
      <vel value="0.1070805293" flag="0"/>
      <psa03 value="0.3121215587" flag="0"/>
      <psa10 value="0.0227906749" flag="0"/>
      <psa30 value="0.0024754597" flag="0"/>
    </comp>
  </station>
  <station code="THERA" name="THERA" netid="GE" insttype="STS-2/N" lat="36.367" lon="25.4753">
    <comp name="--.HHZ">
      <acc value="0.0842450053" flag="0"/>
      <vel value="0.0180149844" flag="0"/>
      <psa03 value="0.0738519758" flag="0"/>
      <psa10 value="0.0055622391" flag="0"/>
      <psa30 value="0.0008468139" flag="0"/>
    </comp>
    <comp name="--.HHE">
      <acc value="0.1747094658" flag="0"/>
      <vel value="0.0308236453" flag="0"/>
      <psa03 value="0.1684335715" flag="0"/>
      <psa10 value="0.0110081972" flag="0"/>
      <psa30 value="0.0011015805" flag="0"/>
    </comp>
    <comp name="--.HHN">
      <acc value="0.0731253069" flag="0"/>
      <vel value="0.0203839787" flag="0"/>
      <psa03 value="0.1245376551" flag="0"/>
      <psa10 value="0.0065394032" flag="0"/>
      <psa30 value="0.0006422974" flag="0"/>
    </comp>
  </station>
  <station code="SERI" name="SERI" netid="HA" insttype="30" lat="37.1609" lon="24.4853">
    <comp name="--.HHN">
      <acc value="0.0563172593" flag="0"/>
      <vel value="0.0156848015" flag="0"/>
      <psa03 value="0.0904841295" flag="0"/>
      <psa10 value="0.0076473600" flag="0"/>
      <psa30 value="0.0010641502" flag="0"/>
    </comp>
    <comp name="--.HHE">
      <acc value="0.0471498548" flag="0"/>
      <vel value="0.0140921375" flag="0"/>
      <psa03 value="0.1218948094" flag="0"/>
      <psa10 value="0.0084731460" flag="0"/>
      <psa30 value="0.0005289201" flag="0"/>
    </comp>
    <comp name="--.HHZ">
      <acc value="0.0417676773" flag="0"/>
      <vel value="0.0189919574" flag="0"/>
      <psa03 value="0.0768879555" flag="0"/>
      <psa10 value="0.0177665749" flag="0"/>
      <psa30 value="0.0011563567" flag="0"/>
    </comp>
  </station>
  <station code="SNT1" name="SNT1" netid="HA" insttype="30" lat="36.4159" lon="25.4282">
    <comp name="--.HHE">
      <acc value="0.1172033268" flag="0"/>
      <vel value="0.0330676619" flag="0"/>
      <psa03 value="0.1462378497" flag="0"/>
      <psa10 value="0.0239304681" flag="0"/>
      <psa30 value="0.0029663278" flag="0"/>
    </comp>
    <comp name="--.HHN">
      <acc value="0.0840719265" flag="0"/>
      <vel value="0.0291341511" flag="0"/>
      <psa03 value="0.1214544235" flag="0"/>
      <psa10 value="0.0301660283" flag="0"/>
      <psa30 value="0.0046447082" flag="0"/>
    </comp>
    <comp name="--.HHZ">
      <acc value="0.1158102648" flag="0"/>
      <vel value="0.0236741938" flag="0"/>
      <psa03 value="0.1007965413" flag="0"/>
      <psa10 value="0.0125914469" flag="0"/>
      <psa30 value="0.0016187398" flag="0"/>
    </comp>
  </station>
  <station code="SNT5" name="SNT5" netid="HA" insttype="1s-100Hz," lat="36.4037" lon="25.3953">
    <comp name="--.HHN">
      <acc value="0.2964751606" flag="0"/>
      <vel value="0.0684276612" flag="0"/>
      <psa03 value="0.3969770864" flag="0"/>
      <psa10 value="0.0138644068" flag="0"/>
      <psa30 value="0.0066019832" flag="0"/>
    </comp>
    <comp name="--.HHZ">
      <acc value="0.1577230051" flag="0"/>
      <vel value="0.0225262777" flag="0"/>
      <psa03 value="0.0954013902" flag="0"/>
      <psa10 value="0.0138363359" flag="0"/>
      <psa30 value="0.0012964781" flag="0"/>
    </comp>
    <comp name="--.HHE">
      <acc value="0.6319289573" flag="0"/>
      <vel value="0.1217978917" flag="0"/>
      <psa03 value="0.4801594382" flag="0"/>
      <psa10 value="0.0407736094" flag="0"/>
      <psa30 value="0.0061455584" flag="0"/>
    </comp>
  </station>
  <station code="NAX1" name="NAX1" netid="HI" insttype="CMG-5TD,ACCELEROMETER,GURALP" lat="37.1014" lon="25.3741">
    <comp name="--.HNE">
      <acc value="0.3237444594" flag="0"/>
      <vel value="0.0810229933" flag="0"/>
      <psa03 value="0.3322172502" flag="0"/>
      <psa10 value="0.0412285657" flag="0"/>
      <psa30 value="0.0023145911" flag="0"/>
    </comp>
    <comp name="--.HNN">
      <acc value="0.2593491408" flag="0"/>
      <vel value="0.0444361751" flag="0"/>
      <psa03 value="0.1735409314" flag="0"/>
      <psa10 value="0.0225926729" flag="0"/>
      <psa30 value="0.0017099250" flag="0"/>
    </comp>
    <comp name="--.HNZ">
      <acc value="0.1539164096" flag="0"/>
      <vel value="0.0418694501" flag="0"/>
      <psa03 value="0.1400117264" flag="0"/>
      <psa10 value="0.0200791768" flag="0"/>
      <psa30 value="0.0018707161" flag="0"/>
    </comp>
  </station>
  <station code="SFR2" name="SFR2" netid="HI" insttype="unknown" lat="36.3998" lon="25.4382">
    <comp name="--.HNN">
      <acc value="0.2843198089" flag="0"/>
      <vel value="0.0900358385" flag="0"/>
      <psa03 value="0.5614738854" flag="0"/>
      <psa10 value="0.0847867657" flag="0"/>
      <psa30 value="0.0044210881" flag="0"/>
    </comp>
    <comp name="--.HNZ">
      <acc value="0.3257176552" flag="0"/>
      <vel value="0.0669307990" flag="0"/>
      <psa03 value="0.4232343113" flag="0"/>
      <psa10 value="0.0344798251" flag="0"/>
      <psa30 value="0.0020708567" flag="0"/>
    </comp>
    <comp name="--.HNE">
      <acc value="0.2214256177" flag="0"/>
      <vel value="0.0826662127" flag="0"/>
      <psa03 value="0.5409970592" flag="0"/>
      <psa10 value="0.0315869815" flag="0"/>
      <psa30 value="0.0041795660" flag="0"/>
    </comp>
  </station>
  <station code="AMGA" name="AMGA" netid="HL" insttype="SMART24" lat="36.8316" lon="25.8938">
    <comp name="--.HHZ">
      <acc value="0.9550647772" flag="0"/>
      <vel value="0.2823833855" flag="0"/>
      <psa03 value="0.5698586811" flag="0"/>
      <psa10 value="0.1824823179" flag="0"/>
      <psa30 value="0.0119654121" flag="0"/>
    </comp>
    <comp name="--.HHE">
      <acc value="1.4856268788" flag="0"/>
      <vel value="0.3208190109" flag="0"/>
      <psa03 value="0.7222357060" flag="0"/>
      <psa10 value="0.0977989538" flag="0"/>
      <psa30 value="0.0105318978" flag="0"/>
    </comp>
    <comp name="--.HHN">
      <acc value="1.9921673741" flag="0"/>
      <vel value="0.3133370505" flag="0"/>
      <psa03 value="0.6187868018" flag="0"/>
      <psa10 value="0.1778256705" flag="0"/>
      <psa30 value="0.0150505365" flag="0"/>
    </comp>
  </station>
  <station code="APE" name="APE" netid="HL" insttype="120" lat="37.0727" lon="25.523">
    <comp name="--.HHE">
      <acc value="0.4615518377" flag="0"/>
      <vel value="0.0779907035" flag="0"/>
      <psa03 value="0.3600897812" flag="0"/>
      <psa10 value="0.0292724065" flag="0"/>
      <psa30 value="0.0020002924" flag="0"/>
    </comp>
    <comp name="--.HHZ">
      <acc value="0.1817592574" flag="0"/>
      <vel value="0.0377675291" flag="0"/>
      <psa03 value="0.1691494540" flag="0"/>
      <psa10 value="0.0142356783" flag="0"/>
      <psa30 value="0.0018714074" flag="0"/>
    </comp>
    <comp name="--.HHN">
      <acc value="0.5444648741" flag="0"/>
      <vel value="0.1007323631" flag="0"/>
      <psa03 value="0.3025137475" flag="0"/>
      <psa10 value="0.0223741722" flag="0"/>
      <psa30 value="0.0024395028" flag="0"/>
    </comp>
  </station>
  <station code="MHLO" name="MHLO" netid="HL" insttype="20" lat="36.6898" lon="24.4017">
    <comp name="--.HHN">
      <acc value="0.0823642823" flag="0"/>
      <vel value="0.0396826936" flag="0"/>
      <psa03 value="0.1877630330" flag="0"/>
      <psa10 value="0.0402651244" flag="0"/>
      <psa30 value="0.0020074847" flag="0"/>
    </comp>
    <comp name="--.HHZ">
      <acc value="0.0280330930" flag="0"/>
      <vel value="0.0202370962" flag="0"/>
      <psa03 value="0.0597841788" flag="0"/>
      <psa10 value="0.0199988234" flag="0"/>
      <psa30 value="0.0017059994" flag="0"/>
    </comp>
    <comp name="--.HHE">
      <acc value="0.0638084286" flag="0"/>
      <vel value="0.0487902869" flag="0"/>
      <psa03 value="0.2290519534" flag="0"/>
      <psa10 value="0.0604477899" flag="0"/>
      <psa30 value="0.0029815902" flag="0"/>
    </comp>
  </station>
  <station code="MILA" name="MILA" netid="HL" insttype="CMG-5" lat="36.7429" lon="24.4282">
    <comp name="00.HNE">
      <acc value="0.0883834222" flag="0"/>
      <vel value="0.0332406729" flag="0"/>
      <psa03 value="0.1492944545" flag="0"/>
      <psa10 value="0.0467140668" flag="0"/>
      <psa30 value="0.0027063621" flag="0"/>
    </comp>
    <comp name="00.HNN">
      <acc value="0.1096170029" flag="0"/>
      <vel value="0.0389625315" flag="0"/>
      <psa03 value="0.2511221412" flag="0"/>
      <psa10 value="0.0448199528" flag="0"/>
      <psa30 value="0.0028008326" flag="0"/>
    </comp>
    <comp name="00.HNZ">
      <acc value="0.0961115461" flag="0"/>
      <vel value="0.0319573752" flag="0"/>
      <psa03 value="0.1366907430" flag="0"/>
      <psa10 value="0.0438421284" flag="0"/>
      <psa30 value="0.0016991625" flag="0"/>
    </comp>
  </station>
  <station code="SANT" name="SANT" netid="HL" insttype="30" lat="36.3705" lon="25.4593">
    <comp name="--.HHE">
      <acc value="0.5081830849" flag="0"/>
      <vel value="0.0771462707" flag="0"/>
      <psa03 value="0.3043312564" flag="0"/>
      <psa10 value="0.0185332894" flag="0"/>
      <psa30 value="0.0017020857" flag="0"/>
    </comp>
    <comp name="--.HHZ">
      <acc value="0.2773981237" flag="0"/>
      <vel value="0.0486884100" flag="0"/>
      <psa03 value="0.2145693196" flag="0"/>
      <psa10 value="0.0103129201" flag="0"/>
      <psa30 value="0.0010435453" flag="0"/>
    </comp>
    <comp name="--.HHN">
      <acc value="0.2837694924" flag="0"/>
      <vel value="0.0431709914" flag="0"/>
      <psa03 value="0.1241556764" flag="0"/>
      <psa10 value="0.0119616463" flag="0"/>
      <psa30 value="0.0015510857" flag="0"/>
    </comp>
  </station>
  <station code="SAP3" name="SAP3" netid="HL" insttype="65535" lat="36.4356" lon="25.3454">
    <comp name="--.HHE">
      <acc value="0.3937748793" flag="0"/>
      <vel value="0.1411921409" flag="0"/>
      <psa03 value="0.4194809114" flag="0"/>
      <psa10 value="0.0593167773" flag="0"/>
      <psa30 value="0.0067654306" flag="0"/>
    </comp>
    <comp name="--.HHN">
      <acc value="0.2562722968" flag="0"/>
      <vel value="0.0759338956" flag="0"/>
      <psa03 value="0.4472095456" flag="0"/>
      <psa10 value="0.0391168842" flag="0"/>
      <psa30 value="0.0071824234" flag="0"/>
    </comp>
    <comp name="--.HHZ">
      <acc value="0.2337422453" flag="0"/>
      <vel value="0.0589830860" flag="0"/>
      <psa03 value="0.3267726096" flag="0"/>
      <psa10 value="0.0260907524" flag="0"/>
      <psa30 value="0.0022754971" flag="0"/>
    </comp>
  </station>
  <station code="THERA" name="THERA" netid="HL" insttype="120" lat="36.367" lon="25.4753">
    <comp name="--.HHN">
      <acc value="0.1499591741" flag="0"/>
      <vel value="0.0398426707" flag="0"/>
      <psa03 value="0.2419290283" flag="0"/>
      <psa10 value="0.0129328097" flag="0"/>
      <psa30 value="0.0012642892" flag="0"/>
    </comp>
    <comp name="--.HHE">
      <acc value="0.1774530986" flag="0"/>
      <vel value="0.0303139564" flag="0"/>
      <psa03 value="0.1639318111" flag="0"/>
      <psa10 value="0.0108549148" flag="0"/>
      <psa30 value="0.0010939433" flag="0"/>
    </comp>
    <comp name="--.HHZ">
      <acc value="0.0871517639" flag="0"/>
      <vel value="0.0175719318" flag="0"/>
      <psa03 value="0.0718497472" flag="0"/>
      <psa10 value="0.0055056871" flag="0"/>
      <psa30 value="0.0008434470" flag="0"/>
    </comp>
  </station>
  <station code="THRA" name="THRA" netid="HL" insttype="CMG-5" lat="36.415" lon="25.4324">
    <comp name="00.HNN">
      <acc value="0.3234048076" flag="0"/>
      <vel value="0.0970703314" flag="0"/>
      <psa03 value="0.6954782829" flag="0"/>
      <psa10 value="0.0966825960" flag="0"/>
      <psa30 value="0.0069049010" flag="0"/>
    </comp>
    <comp name="00.HNE">
      <acc value="0.3391824984" flag="0"/>
      <vel value="0.1024913848" flag="0"/>
      <psa03 value="0.5057166786" flag="0"/>
      <psa10 value="0.0942913293" flag="0"/>
      <psa30 value="0.0057009871" flag="0"/>
    </comp>
    <comp name="00.HNZ">
      <acc value="0.2832338052" flag="0"/>
      <vel value="0.0782785725" flag="0"/>
      <psa03 value="0.3885374178" flag="0"/>
      <psa10 value="0.0348991053" flag="0"/>
      <psa30 value="0.0025462946" flag="0"/>
    </comp>
  </station>
  <station code="TNSA" name="TNSA" netid="HL" insttype="CMG-5" lat="37.5394" lon="25.1631">
    <comp name="00.HNZ">
      <acc value="0.1305666135" flag="0"/>
      <vel value="0.0319550930" flag="0"/>
      <psa03 value="0.1913830704" flag="0"/>
      <psa10 value="0.0101286918" flag="0"/>
      <psa30 value="0.0009175598" flag="0"/>
    </comp>
    <comp name="00.HNN">
      <acc value="0.1933879900" flag="0"/>
      <vel value="0.0527583436" flag="0"/>
      <psa03 value="0.2318008515" flag="0"/>
      <psa10 value="0.0128454425" flag="0"/>
      <psa30 value="0.0020535762" flag="0"/>
    </comp>
    <comp name="00.HNE">
      <acc value="0.1483067817" flag="0"/>
      <vel value="0.0366691090" flag="0"/>
      <psa03 value="0.3194197872" flag="0"/>
      <psa10 value="0.0114847276" flag="0"/>
      <psa30 value="0.0015902731" flag="0"/>
    </comp>
  </station>
  <station code="AKRO" name="AKRO" netid="HT" insttype="Compact," lat="36.3584" lon="25.3967">
    <comp name="--.HHE">
      <acc value="0.5699439773" flag="0"/>
      <vel value="0.1431045542" flag="0"/>
      <psa03 value="0.5802793645" flag="0"/>
      <psa10 value="0.0328770736" flag="0"/>
      <psa30 value="0.0030527571" flag="0"/>
    </comp>
    <comp name="--.HHZ">
      <acc value="0.2763538679" flag="0"/>
      <vel value="0.0452584692" flag="0"/>
      <psa03 value="0.2145044196" flag="0"/>
      <psa10 value="0.0185353234" flag="0"/>
      <psa30 value="0.0016384223" flag="0"/>
    </comp>
    <comp name="--.HHN">
      <acc value="0.2547748811" flag="0"/>
      <vel value="0.0639258951" flag="0"/>
      <psa03 value="0.4025542622" flag="0"/>
      <psa10 value="0.0282493696" flag="0"/>
      <psa30 value="0.0025415085" flag="0"/>
    </comp>
  </station>
  <station code="CMBO" name="CMBO" netid="HT" insttype="120P," lat="36.4709" lon="25.4056">
    <comp name="--.HHZ">
      <acc value="0.2901331553" flag="0"/>
      <vel value="0.0754057794" flag="0"/>
      <psa03 value="0.4112757732" flag="0"/>
      <psa10 value="0.0212496983" flag="0"/>
      <psa30 value="0.0033813405" flag="0"/>
    </comp>
    <comp name="--.HHE">
      <acc value="0.2574645802" flag="0"/>
      <vel value="0.0624939105" flag="0"/>
      <psa03 value="0.3026412617" flag="0"/>
      <psa10 value="0.0471449051" flag="0"/>
      <psa30 value="0.0046136455" flag="0"/>
    </comp>
    <comp name="--.HHN">
      <acc value="0.3052676514" flag="0"/>
      <vel value="0.1029160438" flag="0"/>
      <psa03 value="0.3820751888" flag="0"/>
      <psa10 value="0.0672422334" flag="0"/>
      <psa30 value="0.0049233132" flag="0"/>
    </comp>
  </station>
</stationlist>
