<?xml version="1.0" encoding="UTF-8" standalone="yes"?>
<!DOCTYPE earthquake SYSTEM "stationlist.dtd">
<stationlist created="" xmlns="ch.ethz.sed.shakemap.usgs.xml">
  <station code="APE" name="APE" netid="GE" insttype="STS-2/N" lat="37.0727" lon="25.523">
    <comp name="--.HHN">
      <acc value="0.6297334700" flag="0"/>
      <vel value="0.1070805293" flag="0"/>
      <psa03 value="0.3121215587" flag="0"/>
      <psa10 value="0.0227906749" flag="0"/>
      <psa30 value="0.0024754597" flag="0"/>
    </comp>
    <comp name="--.HHZ">
      <acc value="0.2043273827" flag="0"/>
      <vel value="0.0392305859" flag="0"/>
      <psa03 value="0.1736766183" flag="0"/>
      <psa10 value="0.0144124273" flag="0"/>
      <psa30 value="0.0018800158" flag="0"/>
    </comp>
    <comp name="--.HHE">
      <acc value="0.5036877540" flag="0"/>
      <vel value="0.0809054963" flag="0"/>
      <psa03 value="0.3704952980" flag="0"/>
      <psa10 value="0.0296428805" flag="0"/>
      <psa30 value="0.0020122439" flag="0"/>
    </comp>
  </station>
  <station code="THERA" name="THERA" netid="GE" insttype="STS-2/N" lat="36.367" lon="25.4753">
    <comp name="--.HHE">
      <acc value="0.1747094658" flag="0"/>
      <vel value="0.0308236453" flag="0"/>
      <psa03 value="0.1684335715" flag="0"/>
      <psa10 value="0.0110081972" flag="0"/>
      <psa30 value="0.0011015805" flag="0"/>
    </comp>
    <comp name="--.HHN">
      <acc value="0.0731253069" flag="0"/>
      <vel value="0.0203839787" flag="0"/>
      <psa03 value="0.1245376551" flag="0"/>
      <psa10 value="0.0065394032" flag="0"/>
      <psa30 value="0.0006422974" flag="0"/>
    </comp>
    <comp name="--.HHZ">
      <acc value="0.0842450053" flag="0"/>
      <vel value="0.0180149844" flag="0"/>
      <psa03 value="0.0738519758" flag="0"/>
      <psa10 value="0.0055622391" flag="0"/>
      <psa30 value="0.0008468139" flag="0"/>
    </comp>
  </station>
</stationlist>
