<?xml version="1.0" encoding="UTF-8" standalone="yes"?>
<!DOCTYPE earthquake SYSTEM "stationlist.dtd">
<stationlist created="" xmlns="ch.ethz.sed.shakemap.usgs.xml">
  <station code="THERA" name="THERA" netid="GE" insttype="STS-2/N" lat="36.367" lon="25.4753">
    <comp name="--.HHE">
      <acc value="0.0463965824" flag="0"/>
      <vel value="0.0105385006" flag="0"/>
      <psa03 value="0.0441988727" flag="0"/>
      <psa10 value="0.0034743387" flag="0"/>
      <psa30 value="0.0002514660" flag="0"/>
    </comp>
    <comp name="--.HHN">
      <acc value="0.0259946024" flag="0"/>
      <vel value="0.0076602082" flag="0"/>
      <psa03 value="0.0507807732" flag="0"/>
      <psa10 value="0.0015777736" flag="0"/>
      <psa30 value="0.0001866570" flag="0"/>
    </comp>
    <comp name="--.HHZ">
      <acc value="0.0307801188" flag="0"/>
      <vel value="0.0089020575" flag="0"/>
      <psa03 value="0.0525310320" flag="0"/>
      <psa10 value="0.0028392107" flag="0"/>
      <psa30 value="0.0002182575" flag="0"/>
    </comp>
  </station>
  <station code="IDI" name="IDI" netid="MN" insttype="" lat="35.288" lon="24.89">
    <comp name="--.HHN">
      <acc value="0.0290851358" flag="0"/>
      <vel value="0.0077760678" flag="0"/>
      <psa03 value="0.0378794139" flag="0"/>
      <psa10 value="0.0024601543" flag="0"/>
      <psa30 value="0.0001723147" flag="0"/>
    </comp>
    <comp name="--.HHZ">
      <acc value="0.0267033985" flag="0"/>
      <vel value="0.0077980635" flag="0"/>
      <psa03 value="0.0341640666" flag="0"/>
      <psa10 value="0.0022452363" flag="0"/>
      <psa30 value="0.0003018811" flag="0"/>
    </comp>
    <comp name="--.HHE">
      <acc value="0.0275398983" flag="0"/>
      <vel value="0.0070618182" flag="0"/>
      <psa03 value="0.0579517314" flag="0"/>
      <psa10 value="0.0031081050" flag="0"/>
      <psa30 value="0.0002257311" flag="0"/>
    </comp>
  </station>
</stationlist>
