<?xml version="1.0" encoding="UTF-8" standalone="yes"?>
<!DOCTYPE earthquake SYSTEM "stationlist.dtd">
<stationlist created="" xmlns="ch.ethz.sed.shakemap.usgs.xml">
  <station code="THERA" name="THERA" netid="GE" insttype="STS-2/N" lat="36.367" lon="25.4753">
    <comp name="--.HHE">
      <acc value="0.0463965824" flag="0"/>
      <vel value="0.0105385006" flag="0"/>
      <psa03 value="0.0441988727" flag="0"/>
      <psa10 value="0.0034743387" flag="0"/>
      <psa30 value="0.0002514660" flag="0"/>
    </comp>
    <comp name="--.HHN">
      <acc value="0.0259946024" flag="0"/>
      <vel value="0.0076602082" flag="0"/>
      <psa03 value="0.0507807732" flag="0"/>
      <psa10 value="0.0015777736" flag="0"/>
      <psa30 value="0.0001866570" flag="0"/>
    </comp>
    <comp name="--.HHZ">
      <acc value="0.0307801188" flag="0"/>
      <vel value="0.0089020575" flag="0"/>
      <psa03 value="0.0525310320" flag="0"/>
      <psa10 value="0.0028392107" flag="0"/>
      <psa30 value="0.0002182575" flag="0"/>
    </comp>
  </station>
  <station code="ZKR" name="ZKR" netid="GE" insttype="STS-2/N" lat="35.1147" lon="26.2169">
    <comp name="--.HHE">
      <acc value="0.0404102546" flag="0"/>
      <vel value="0.0109438404" flag="0"/>
      <psa03 value="0.0406666690" flag="0"/>
      <psa10 value="0.0032050950" flag="0"/>
      <psa30 value="0.0003748704" flag="0"/>
    </comp>
    <comp name="--.HHN">
      <acc value="0.0168377814" flag="0"/>
      <vel value="0.0048061608" flag="0"/>
      <psa03 value="0.0253940776" flag="0"/>
      <psa10 value="0.0021194223" flag="0"/>
      <psa30 value="0.0001191160" flag="0"/>
    </comp>
    <comp name="--.HHZ">
      <acc value="0.0294862490" flag="0"/>
      <vel value="0.0064737613" flag="0"/>
      <psa03 value="0.0329906062" flag="0"/>
      <psa10 value="0.0028858718" flag="0"/>
      <psa30 value="0.0001955689" flag="0"/>
    </comp>
  </station>
  <station code="SNT1" name="SNT1" netid="HA" insttype="30" lat="36.4159" lon="25.4282">
    <comp name="--.HHE">
      <acc value="0.0225556046" flag="0"/>
      <vel value="0.0085251846" flag="0"/>
      <psa03 value="0.0323070623" flag="0"/>
      <psa10 value="0.0056512719" flag="0"/>
      <psa30 value="0.0004703692" flag="0"/>
    </comp>
    <comp name="--.HHN">
      <acc value="0.0177773614" flag="0"/>
      <vel value="0.0062525307" flag="0"/>
      <psa03 value="0.0357423486" flag="0"/>
      <psa10 value="0.0064317638" flag="0"/>
      <psa30 value="0.0003449447" flag="0"/>
    </comp>
    <comp name="--.HHZ">
      <acc value="0.0185222269" flag="0"/>
      <vel value="0.0056072104" flag="0"/>
      <psa03 value="0.0274093951" flag="0"/>
      <psa10 value="0.0028178567" flag="0"/>
      <psa30 value="0.0001760228" flag="0"/>
    </comp>
  </station>
  <station code="SNT5" name="SNT5" netid="HA" insttype="1s-100Hz," lat="36.4037" lon="25.3953">
    <comp name="--.HHN">
      <acc value="0.0825675212" flag="0"/>
      <vel value="0.0228078846" flag="0"/>
      <psa03 value="0.2055974360" flag="0"/>
      <psa10 value="0.0044869849" flag="0"/>
      <psa30 value="0.0005676524" flag="0"/>
    </comp>
    <comp name="--.HHE">
      <acc value="0.1146031899" flag="0"/>
      <vel value="0.0319552204" flag="0"/>
      <psa03 value="0.1649264597" flag="0"/>
      <psa10 value="0.0092721367" flag="0"/>
      <psa30 value="0.0010534983" flag="0"/>
    </comp>
    <comp name="--.HHZ">
      <acc value="0.0495748347" flag="0"/>
      <vel value="0.0101170329" flag="0"/>
      <psa03 value="0.0702610123" flag="0"/>
      <psa10 value="0.0029206054" flag="0"/>
      <psa30 value="0.0002276628" flag="0"/>
    </comp>
  </station>
  <station code="IMOD" name="IMOD" netid="HC" insttype="120" lat="34.9731" lon="24.7995">
    <comp name="--.HHE">
      <acc value="0.0091570222" flag="0"/>
      <vel value="0.0048480686" flag="0"/>
      <psa03 value="0.0244069781" flag="0"/>
      <psa10 value="0.0034067204" flag="0"/>
      <psa30 value="0.0002609061" flag="0"/>
    </comp>
    <comp name="--.HHZ">
      <acc value="0.0064643214" flag="0"/>
      <vel value="0.0023673199" flag="0"/>
      <psa03 value="0.0153117560" flag="0"/>
      <psa10 value="0.0015815349" flag="0"/>
      <psa30 value="0.0001494820" flag="0"/>
    </comp>
    <comp name="--.HHN">
      <acc value="0.0066660423" flag="0"/>
      <vel value="0.0050692777" flag="0"/>
      <psa03 value="0.0273785919" flag="0"/>
      <psa10 value="0.0050413595" flag="0"/>
      <psa30 value="0.0002320103" flag="0"/>
    </comp>
  </station>
  <station code="KNSS" name="KNSS" netid="HC" insttype="60" lat="35.3042" lon="25.1802">
    <comp name="--.HHZ">
      <acc value="0.0294629070" flag="0"/>
      <vel value="0.0076318277" flag="0"/>
      <psa03 value="0.0444132356" flag="0"/>
      <psa10 value="0.0018547537" flag="0"/>
      <psa30 value="0.0001630294" flag="0"/>
    </comp>
    <comp name="--.HHE">
      <acc value="0.0263829474" flag="0"/>
      <vel value="0.0074687207" flag="0"/>
      <psa03 value="0.0549834089" flag="0"/>
      <psa10 value="0.0030607920" flag="0"/>
      <psa30 value="0.0002438403" flag="0"/>
    </comp>
    <comp name="--.HHN">
      <acc value="0.0237509917" flag="0"/>
      <vel value="0.0067298961" flag="0"/>
      <psa03 value="0.0474165321" flag="0"/>
      <psa10 value="0.0046025484" flag="0"/>
      <psa30 value="0.0002612220" flag="0"/>
    </comp>
  </station>
  <station code="PFKS" name="PFKS" netid="HC" insttype="120" lat="35.0429" lon="25.4733">
    <comp name="--.HHE">
      <acc value="0.0248021160" flag="0"/>
      <vel value="0.0093086403" flag="0"/>
      <psa03 value="0.0600781186" flag="0"/>
      <psa10 value="0.0044931427" flag="0"/>
      <psa30 value="0.0002920803" flag="0"/>
    </comp>
    <comp name="--.HHZ">
      <acc value="0.0173225723" flag="0"/>
      <vel value="0.0046385196" flag="0"/>
      <psa03 value="0.0182049385" flag="0"/>
      <psa10 value="0.0013147040" flag="0"/>
      <psa30 value="0.0001112738" flag="0"/>
    </comp>
    <comp name="--.HHN">
      <acc value="0.0272396771" flag="0"/>
      <vel value="0.0083662183" flag="0"/>
      <psa03 value="0.0677694538" flag="0"/>
      <psa10 value="0.0037063116" flag="0"/>
      <psa30 value="0.0002616645" flag="0"/>
    </comp>
  </station>
  <station code="STIA" name="STIA" netid="HC" insttype="120" lat="35.2021" lon="26.0909">
    <comp name="--.HHN">
      <acc value="0.0770003656" flag="0"/>
      <vel value="0.0140832811" flag="0"/>
      <psa03 value="0.0704903256" flag="0"/>
      <psa10 value="0.0065639013" flag="0"/>
      <psa30 value="0.0004942698" flag="0"/>
    </comp>
    <comp name="--.HHE">
      <acc value="0.0591467333" flag="0"/>
      <vel value="0.0128084682" flag="0"/>
      <psa03 value="0.0568583691" flag="0"/>
      <psa10 value="0.0049059762" flag="0"/>
      <psa30 value="0.0002853831" flag="0"/>
    </comp>
    <comp name="--.HHZ">
      <acc value="0.0796189137" flag="0"/>
      <vel value="0.0137341662" flag="0"/>
      <psa03 value="0.0492895313" flag="0"/>
      <psa10 value="0.0032980318" flag="0"/>
      <psa30 value="0.0002335817" flag="0"/>
    </comp>
  </station>
  <station code="KSS1" name="KSS1" netid="HI" insttype="CMG-5TD,ACCELEROMETER,GURALP" lat="35.4189" lon="26.9207">
    <comp name="--.HNE">
      <acc value="0.0289908521" flag="0"/>
      <vel value="0.0047855614" flag="0"/>
      <psa03 value="0.0308309765" flag="0"/>
      <psa10 value="0.0013720004" flag="0"/>
      <psa30 value="0.0001090422" flag="0"/>
    </comp>
    <comp name="--.HNN">
      <acc value="0.0334480940" flag="0"/>
      <vel value="0.0076910313" flag="0"/>
      <psa03 value="0.0483584168" flag="0"/>
      <psa10 value="0.0011444449" flag="0"/>
      <psa30 value="0.0001279702" flag="0"/>
    </comp>
    <comp name="--.HNZ">
      <acc value="0.0252505636" flag="0"/>
      <vel value="0.0052208092" flag="0"/>
      <psa03 value="0.0127319385" flag="0"/>
      <psa10 value="0.0010717101" flag="0"/>
      <psa30 value="0.0001116765" flag="0"/>
    </comp>
  </station>
  <station code="IDI" name="IDI" netid="HL" insttype="120" lat="35.288" lon="24.89">
    <comp name="--.HHN">
      <acc value="0.0281893891" flag="0"/>
      <vel value="0.0075937045" flag="0"/>
      <psa03 value="0.0372582635" flag="0"/>
      <psa10 value="0.0024581574" flag="0"/>
      <psa30 value="0.0001706549" flag="0"/>
    </comp>
    <comp name="--.HHZ">
      <acc value="0.0227351398" flag="0"/>
      <vel value="0.0077724136" flag="0"/>
      <psa03 value="0.0339261006" flag="0"/>
      <psa10 value="0.0022378801" flag="0"/>
      <psa30 value="0.0003018747" flag="0"/>
    </comp>
    <comp name="--.HHE">
      <acc value="0.0263439978" flag="0"/>
      <vel value="0.0068637666" flag="0"/>
      <psa03 value="0.0567353124" flag="0"/>
      <psa10 value="0.0031102267" flag="0"/>
      <psa30 value="0.0002255787" flag="0"/>
    </comp>
  </station>
  <station code="KSTE" name="KSTE" netid="HL" insttype="60" lat="35.1801" lon="25.3372">
    <comp name="--.HHZ">
      <acc value="0.0150648917" flag="0"/>
      <vel value="0.0047958258" flag="0"/>
      <psa03 value="0.0326262319" flag="0"/>
      <psa10 value="0.0014929656" flag="0"/>
      <psa30 value="0.0001530474" flag="0"/>
    </comp>
    <comp name="--.HHE">
      <acc value="0.0108960588" flag="0"/>
      <vel value="0.0028697962" flag="0"/>
      <psa03 value="0.0186652880" flag="0"/>
      <psa10 value="0.0025801691" flag="0"/>
      <psa30 value="0.0001138770" flag="0"/>
    </comp>
    <comp name="--.HHN">
      <acc value="0.0602800217" flag="0"/>
      <vel value="0.0061636714" flag="0"/>
      <psa03 value="0.0230001239" flag="0"/>
      <psa10 value="0.0036324715" flag="0"/>
      <psa30 value="0.0008219049" flag="0"/>
    </comp>
  </station>
  <station code="SIVA" name="SIVA" netid="HL" insttype="60" lat="35.0178" lon="24.812">
    <comp name="--.HHE">
      <acc value="0.0155602498" flag="0"/>
      <vel value="0.0063778839" flag="0"/>
      <psa03 value="0.0393673069" flag="0"/>
      <psa10 value="0.0056536051" flag="0"/>
      <psa30 value="0.0003220471" flag="0"/>
    </comp>
    <comp name="--.HHN">
      <acc value="0.0126424832" flag="0"/>
      <vel value="0.0046136941" flag="0"/>
      <psa03 value="0.0229245972" flag="0"/>
      <psa10 value="0.0021640851" flag="0"/>
      <psa30 value="0.0002347613" flag="0"/>
    </comp>
    <comp name="--.HHZ">
      <acc value="0.0075624922" flag="0"/>
      <vel value="0.0028879606" flag="0"/>
      <psa03 value="0.0178668390" flag="0"/>
      <psa10 value="0.0018181043" flag="0"/>
      <psa30 value="0.0001274220" flag="0"/>
    </comp>
  </station>
  <station code="THERA" name="THERA" netid="HL" insttype="120" lat="36.367" lon="25.4753">
    <comp name="--.HHE">
      <acc value="0.0450694616" flag="0"/>
      <vel value="0.0102307582" flag="0"/>
      <psa03 value="0.0429285816" flag="0"/>
      <psa10 value="0.0033939606" flag="0"/>
      <psa30 value="0.0002500922" flag="0"/>
    </comp>
    <comp name="--.HHN">
      <acc value="0.0255592448" flag="0"/>
      <vel value="0.0074980163" flag="0"/>
      <psa03 value="0.0492604902" flag="0"/>
      <psa10 value="0.0015311257" flag="0"/>
      <psa30 value="0.0001833721" flag="0"/>
    </comp>
    <comp name="--.HHZ">
      <acc value="0.0298624957" flag="0"/>
      <vel value="0.0085759186" flag="0"/>
      <psa03 value="0.0510068560" flag="0"/>
      <psa10 value="0.0027870763" flag="0"/>
      <psa30 value="0.0002149656" flag="0"/>
    </comp>
  </station>
  <station code="THRA" name="THRA" netid="HL" insttype="CMG-5" lat="36.415" lon="25.4324">
    <comp name="00.HNN">
      <acc value="0.0964731510" flag="0"/>
      <vel value="0.0352436186" flag="0"/>
      <psa03 value="0.1419384739" flag="0"/>
      <psa10 value="0.0227196725" flag="0"/>
      <psa30 value="0.0010916085" flag="0"/>
    </comp>
    <comp name="00.HNZ">
      <acc value="0.0677948665" flag="0"/>
      <vel value="0.0263955485" flag="0"/>
      <psa03 value="0.1443640064" flag="0"/>
      <psa10 value="0.0088062945" flag="0"/>
      <psa30 value="0.0006511616" flag="0"/>
    </comp>
    <comp name="00.HNE">
      <acc value="0.0985908000" flag="0"/>
      <vel value="0.0451927427" flag="0"/>
      <psa03 value="0.2213034443" flag="0"/>
      <psa10 value="0.0247817071" flag="0"/>
      <psa30 value="0.0016501265" flag="0"/>
    </comp>
  </station>
  <station code="ZKR" name="ZKR" netid="HL" insttype="120" lat="35.1147" lon="26.2169">
    <comp name="--.HHE">
      <acc value="0.0390902680" flag="0"/>
      <vel value="0.0106207604" flag="0"/>
      <psa03 value="0.0395044888" flag="0"/>
      <psa10 value="0.0031619466" flag="0"/>
      <psa30 value="0.0003704086" flag="0"/>
    </comp>
    <comp name="--.HHN">
      <acc value="0.0164775232" flag="0"/>
      <vel value="0.0046933741" flag="0"/>
      <psa03 value="0.0246940318" flag="0"/>
      <psa10 value="0.0020917334" flag="0"/>
      <psa30 value="0.0001176593" flag="0"/>
    </comp>
    <comp name="--.HHZ">
      <acc value="0.0294468726" flag="0"/>
      <vel value="0.0062808741" flag="0"/>
      <psa03 value="0.0319645248" flag="0"/>
      <psa10 value="0.0028540983" flag="0"/>
      <psa30 value="0.0001923108" flag="0"/>
    </comp>
  </station>
  <station code="CMBO" name="CMBO" netid="HT" insttype="120P," lat="36.4709" lon="25.4056">
    <comp name="--.HHE">
      <acc value="0.1161054824" flag="0"/>
      <vel value="0.0444138679" flag="0"/>
      <psa03 value="0.1734616002" flag="0"/>
      <psa10 value="0.0111150332" flag="0"/>
      <psa30 value="0.0011466938" flag="0"/>
    </comp>
    <comp name="--.HHN">
      <acc value="0.1328280037" flag="0"/>
      <vel value="0.0375271130" flag="0"/>
      <psa03 value="0.1780127528" flag="0"/>
      <psa10 value="0.0202483634" flag="0"/>
      <psa30 value="0.0007451302" flag="0"/>
    </comp>
    <comp name="--.HHZ">
      <acc value="0.1036595432" flag="0"/>
      <vel value="0.0266536587" flag="0"/>
      <psa03 value="0.1718166695" flag="0"/>
      <psa10 value="0.0075996621" flag="0"/>
      <psa30 value="0.0006983504" flag="0"/>
    </comp>
  </station>
  <station code="IDI" name="IDI" netid="MN" insttype="" lat="35.288" lon="24.89">
    <comp name="--.HHN">
      <acc value="0.0290851358" flag="0"/>
      <vel value="0.0077760678" flag="0"/>
      <psa03 value="0.0378794139" flag="0"/>
      <psa10 value="0.0024601543" flag="0"/>
      <psa30 value="0.0001723147" flag="0"/>
    </comp>
    <comp name="--.HHZ">
      <acc value="0.0267033985" flag="0"/>
      <vel value="0.0077980635" flag="0"/>
      <psa03 value="0.0341640666" flag="0"/>
      <psa10 value="0.0022452363" flag="0"/>
      <psa30 value="0.0003018811" flag="0"/>
    </comp>
    <comp name="--.HHE">
      <acc value="0.0275398983" flag="0"/>
      <vel value="0.0070618182" flag="0"/>
      <psa03 value="0.0579517314" flag="0"/>
      <psa10 value="0.0031081050" flag="0"/>
      <psa30 value="0.0002257311" flag="0"/>
    </comp>
  </station>
</stationlist>
