<?xml version="1.0" encoding="UTF-8" standalone="yes"?>
<!DOCTYPE earthquake SYSTEM "stationlist.dtd">
<stationlist created="" xmlns="ch.ethz.sed.shakemap.usgs.xml">
  <station code="LMN1" name="LMN1" netid="HI" insttype="CMG-5TD,ACCELEROMETER,GURALP" lat="39.875" lon="25.0588">
    <comp name="--.HNZ">
      <acc value="0.0852133102" flag="0"/>
      <vel value="0.0495756046" flag="0"/>
      <psa03 value="0.1305703788" flag="0"/>
      <psa10 value="0.0396741158" flag="0"/>
      <psa30 value="0.0041101114" flag="0"/>
    </comp>
    <comp name="--.HNE">
      <acc value="0.1616623633" flag="0"/>
      <vel value="0.0809263313" flag="0"/>
      <psa03 value="0.6237955224" flag="0"/>
      <psa10 value="0.0551806257" flag="0"/>
      <psa30 value="0.0058788571" flag="0"/>
    </comp>
    <comp name="--.HNN">
      <acc value="0.1928870581" flag="0"/>
      <vel value="0.1311821974" flag="0"/>
      <psa03 value="0.5867080137" flag="0"/>
      <psa10 value="0.0790070195" flag="0"/>
      <psa30 value="0.0102320625" flag="0"/>
    </comp>
  </station>
  <station code="MYT1" name="MYT1" netid="HI" insttype="CMG-5TD,ACCELEROMETER,GURALP" lat="39.085" lon="26.5694">
    <comp name="--.HNE">
      <acc value="0.5576199624" flag="0"/>
      <vel value="0.1634029982" flag="0"/>
      <psa03 value="0.3793013157" flag="0"/>
      <psa10 value="0.1024185482" flag="0"/>
      <psa30 value="0.0198204371" flag="0"/>
    </comp>
    <comp name="--.HNZ">
      <acc value="0.3336158155" flag="0"/>
      <vel value="0.0972058190" flag="0"/>
      <psa03 value="0.2776803564" flag="0"/>
      <psa10 value="0.0544755989" flag="0"/>
      <psa30 value="0.0113255769" flag="0"/>
    </comp>
    <comp name="--.HNN">
      <acc value="0.3207666971" flag="0"/>
      <vel value="0.1485352594" flag="0"/>
      <psa03 value="0.6623319514" flag="0"/>
      <psa10 value="0.1571846979" flag="0"/>
      <psa30 value="0.0249135517" flag="0"/>
    </comp>
  </station>
  <station code="SKY1" name="SKY1" netid="HI" insttype="CMG-5TD,ACCELEROMETER,GURALP" lat="38.9045" lon="24.5646">
    <comp name="--.HNN">
      <acc value="0.0681007608" flag="0"/>
      <vel value="0.0487710014" flag="0"/>
      <psa03 value="0.2973825149" flag="0"/>
      <psa10 value="0.0415848509" flag="0"/>
      <psa30 value="0.0053181312" flag="0"/>
    </comp>
    <comp name="--.HNZ">
      <acc value="0.0382095105" flag="0"/>
      <vel value="0.0252813146" flag="0"/>
      <psa03 value="0.1811839988" flag="0"/>
      <psa10 value="0.0200740425" flag="0"/>
      <psa30 value="0.0026199222" flag="0"/>
    </comp>
    <comp name="--.HNE">
      <acc value="0.0535137746" flag="0"/>
      <vel value="0.0345628358" flag="0"/>
      <psa03 value="0.2449305560" flag="0"/>
      <psa10 value="0.0637141942" flag="0"/>
      <psa30 value="0.0045239828" flag="0"/>
    </comp>
  </station>
  <station code="EFSA" name="EFSA" netid="HL" insttype="CMG-5" lat="39.5401" lon="24.9886">
    <comp name="00.HNN">
      <acc value="0.1133343370" flag="0"/>
      <vel value="0.1048262067" flag="0"/>
      <psa03 value="0.1981695489" flag="0"/>
      <psa10 value="0.1438424711" flag="0"/>
      <psa30 value="0.0184263725" flag="0"/>
    </comp>
    <comp name="00.HNE">
      <acc value="0.0854109255" flag="0"/>
      <vel value="0.0518420454" flag="0"/>
      <psa03 value="0.2214466291" flag="0"/>
      <psa10 value="0.1452553657" flag="0"/>
      <psa30 value="0.0130024706" flag="0"/>
    </comp>
    <comp name="00.HNZ">
      <acc value="0.0614101764" flag="0"/>
      <vel value="0.0586698822" flag="0"/>
      <psa03 value="0.1265963322" flag="0"/>
      <psa10 value="0.0664073492" flag="0"/>
      <psa30 value="0.0049771444" flag="0"/>
    </comp>
  </station>
  <station code="LIA" name="LIA" netid="HL" insttype="P6C" lat="39.8972" lon="25.1806">
    <comp name="--.HHE">
      <acc value="0.0934418408" flag="0"/>
      <vel value="0.0721896303" flag="0"/>
      <psa03 value="0.2710321891" flag="0"/>
      <psa10 value="0.0899822516" flag="0"/>
      <psa30 value="0.0095348069" flag="0"/>
    </comp>
    <comp name="--.HHZ">
      <acc value="0.0517399941" flag="0"/>
      <vel value="0.0406337074" flag="0"/>
      <psa03 value="0.1201407924" flag="0"/>
      <psa10 value="0.0828755515" flag="0"/>
      <psa30 value="0.0040654094" flag="0"/>
    </comp>
    <comp name="--.HHN">
      <acc value="0.1023568650" flag="0"/>
      <vel value="0.0937862326" flag="0"/>
      <psa03 value="0.2469742736" flag="0"/>
      <psa10 value="0.1061883090" flag="0"/>
      <psa30 value="0.0106869888" flag="0"/>
    </comp>
  </station>
  <station code="PRK" name="PRK" netid="HL" insttype="120" lat="39.2456" lon="26.265">
    <comp name="--.HHZ">
      <acc value="0.5728889920" flag="0"/>
      <vel value="0.1960768743" flag="0"/>
      <psa03 value="1.3743724560" flag="0"/>
      <psa10 value="0.1121297967" flag="0"/>
      <psa30 value="0.0121484871" flag="0"/>
    </comp>
    <comp name="--.HHE">
      <acc value="0.5510742329" flag="0"/>
      <vel value="0.2397988933" flag="0"/>
      <psa03 value="1.5079976618" flag="0"/>
      <psa10 value="0.1635187991" flag="0"/>
      <psa30 value="0.0214416778" flag="0"/>
    </comp>
    <comp name="--.HHN">
      <acc value="0.5079713779" flag="0"/>
      <vel value="0.2887529370" flag="0"/>
      <psa03 value="1.9193758225" flag="0"/>
      <psa10 value="0.1698953928" flag="0"/>
      <psa30 value="0.0232770191" flag="0"/>
    </comp>
  </station>
  <station code="SKY" name="SKY" netid="HL" insttype="120" lat="38.8831" lon="24.5482">
    <comp name="--.HHE">
      <acc value="0.0841238509" flag="0"/>
      <vel value="0.0384326132" flag="0"/>
      <psa03 value="0.3022572732" flag="0"/>
      <psa10 value="0.0317649235" flag="0"/>
      <psa30 value="0.0048533233" flag="0"/>
    </comp>
    <comp name="--.HHN">
      <acc value="0.1075137320" flag="0"/>
      <vel value="0.0435054302" flag="0"/>
      <psa03 value="0.2811958218" flag="0"/>
      <psa10 value="0.0456901589" flag="0"/>
      <psa30 value="0.0038876752" flag="0"/>
    </comp>
    <comp name="--.HHZ">
      <acc value="0.0307992356" flag="0"/>
      <vel value="0.0191856994" flag="0"/>
      <psa03 value="0.1049307930" flag="0"/>
      <psa10 value="0.0277653742" flag="0"/>
      <psa30 value="0.0024201526" flag="0"/>
    </comp>
  </station>
  <station code="CHOS" name="CHOS" netid="HT" insttype="100" lat="38.3869" lon="26.0506">
    <comp name="--.HHE">
      <acc value="0.4513804290" flag="0"/>
      <vel value="0.2055373496" flag="0"/>
      <psa03 value="0.5445374589" flag="0"/>
      <psa10 value="0.2345653159" flag="0"/>
      <psa30 value="0.0147830414" flag="0"/>
    </comp>
    <comp name="--.HHZ">
      <acc value="0.1319134801" flag="0"/>
      <vel value="0.0808151512" flag="0"/>
      <psa03 value="0.2288743434" flag="0"/>
      <psa10 value="0.0574939787" flag="0"/>
      <psa30 value="0.0076321554" flag="0"/>
    </comp>
    <comp name="--.HHN">
      <acc value="0.3415660073" flag="0"/>
      <vel value="0.2248275928" flag="0"/>
      <psa03 value="0.6145224549" flag="0"/>
      <psa10 value="0.1722095886" flag="0"/>
      <psa30 value="0.0147103499" flag="0"/>
    </comp>
  </station>
  <station code="EZN" name="EZN" netid="KO" insttype="120s," lat="39.8255" lon="26.3247">
    <comp name="--.HHN">
      <acc value="0.1598579782" flag="0"/>
      <vel value="0.1037072047" flag="0"/>
      <psa03 value="0.2628181653" flag="0"/>
      <psa10 value="0.0934987294" flag="0"/>
      <psa30 value="0.0113426422" flag="0"/>
    </comp>
    <comp name="--.HHE">
      <acc value="0.2970225657" flag="0"/>
      <vel value="0.1668130338" flag="0"/>
      <psa03 value="0.4592625494" flag="0"/>
      <psa10 value="0.1845969867" flag="0"/>
      <psa30 value="0.0162178410" flag="0"/>
    </comp>
    <comp name="--.HHZ">
      <acc value="0.1334727504" flag="0"/>
      <vel value="0.0572662711" flag="0"/>
      <psa03 value="0.3017270613" flag="0"/>
      <psa10 value="0.0505868567" flag="0"/>
      <psa30 value="0.0069993905" flag="0"/>
    </comp>
  </station>
  <station code="FOCM" name="FOCM" netid="KO" insttype="100" lat="38.7131" lon="26.7309">
    <comp name="--.HNE">
      <acc value="0.0191609696" flag="0"/>
      <vel value="0.0074962943" flag="0"/>
      <psa03 value="0.0409034260" flag="0"/>
      <psa10 value="0.0080563222" flag="0"/>
      <psa30 value="0.0006647564" flag="0"/>
    </comp>
    <comp name="--.HNN">
      <acc value="0.0292247943" flag="0"/>
      <vel value="0.0092795076" flag="0"/>
      <psa03 value="0.0300432163" flag="0"/>
      <psa10 value="0.0084467969" flag="0"/>
      <psa30 value="0.0013109309" flag="0"/>
    </comp>
    <comp name="--.HNZ">
      <acc value="0.0110497586" flag="0"/>
      <vel value="0.0049995843" flag="0"/>
      <psa03 value="0.0209293108" flag="0"/>
      <psa10 value="0.0030876444" flag="0"/>
      <psa30 value="0.0006381419" flag="0"/>
    </comp>
  </station>
  <station code="KRBN" name="KRBN" netid="KO" insttype="100" lat="38.5936" lon="26.5537">
    <comp name="--.HNZ">
      <acc value="0.0860581261" flag="0"/>
      <vel value="0.0454435405" flag="0"/>
      <psa03 value="0.2249726962" flag="0"/>
      <psa10 value="0.0646730040" flag="0"/>
      <psa30 value="0.0072010040" flag="0"/>
    </comp>
    <comp name="--.HNE">
      <acc value="0.2989358172" flag="0"/>
      <vel value="0.0843647899" flag="0"/>
      <psa03 value="0.2112201401" flag="0"/>
      <psa10 value="0.0925659899" flag="0"/>
      <psa30 value="0.0074258425" flag="0"/>
    </comp>
    <comp name="--.HNN">
      <acc value="0.2908213184" flag="0"/>
      <vel value="0.1076014970" flag="0"/>
      <psa03 value="0.4923731182" flag="0"/>
      <psa10 value="0.1889606868" flag="0"/>
      <psa30 value="0.0156786874" flag="0"/>
    </comp>
  </station>
</stationlist>
