<stationlist created="1778069986">
	<station code="KRL1" name="KRL1" netid="HI" source="ITSAK Strong Motion Network" insttype="" lat="37.7951" lon="26.7065">
		<comp name="--.HNE" depth="0.0">
			<acc value="0.0267056350284501" flag="0"/>
			<vel value="0.0303853123146946" flag="0"/>
			<psa03 value="0.0826835978305662" flag="0"/>
			<psa10 value="0.0387176684971215" flag="0"/>
			<psa30 value="0.0087426271732103" flag="0"/>
		</comp>
		<comp name="--.HNN" depth="0.0">
			<acc value="0.0342938265839555" flag="0"/>
			<vel value="0.0330895318067574" flag="0"/>
			<psa03 value="0.0802675186731795" flag="0"/>
			<psa10 value="0.0427203063011921" flag="0"/>
			<psa30 value="0.00963523419524482" flag="0"/>
		</comp>
		<comp name="--.HNZ" depth="0.0">
			<acc value="0.0172996947225514" flag="0"/>
			<vel value="0.0169584193124611" flag="0"/>
			<psa03 value="0.0458160195771103" flag="0"/>
			<psa10 value="0.0347150306930509" flag="0"/>
			<psa30 value="0.00542901935106109" flag="0"/>
		</comp>
	</station>
	<station code="LMN1" name="LMN1" netid="HI" source="ITSAK Strong Motion Network" insttype="" lat="39.875" lon="25.0588">
		<comp name="--.HNE" depth="0.0">
			<acc value="0.162395235959006" flag="0"/>
			<vel value="0.0859296008179414" flag="0"/>
			<psa03 value="0.624332751151364" flag="0"/>
			<psa10 value="0.0556986781749541" flag="0"/>
			<psa30 value="0.00743078567516257" flag="0"/>
		</comp>
		<comp name="--.HNN" depth="0.0">
			<acc value="0.191937013373572" flag="0"/>
			<vel value="0.132493084757261" flag="0"/>
			<psa03 value="0.580530130872076" flag="0"/>
			<psa10 value="0.0786071353855755" flag="0"/>
			<psa30 value="0.0117421447048992" flag="0"/>
		</comp>
		<comp name="--.HNZ" depth="0.0">
			<acc value="0.0847525413492888" flag="0"/>
			<vel value="0.0499177402184649" flag="0"/>
			<psa03 value="0.130647243325354" flag="0"/>
			<psa10 value="0.0398814132912627" flag="0"/>
			<psa30 value="0.00465005753383698" flag="0"/>
		</comp>
	</station>
	<station code="MYT1" name="MYT1" netid="HI" source="ITSAK Strong Motion Network" insttype="" lat="39.085" lon="26.5694">
		<comp name="--.HNE" depth="0.0">
			<acc value="0.562833532642002" flag="0"/>
			<vel value="0.161857985421754" flag="0"/>
			<psa03 value="0.388451837859835" flag="0"/>
			<psa10 value="0.10290886491029" flag="0"/>
			<psa30 value="0.0222802766297008" flag="0"/>
		</comp>
		<comp name="--.HNN" depth="0.0">
			<acc value="0.324930299300368" flag="0"/>
			<vel value="0.147183478754283" flag="0"/>
			<psa03 value="0.656860335362848" flag="0"/>
			<psa10 value="0.15880485621643" flag="0"/>
			<psa30 value="0.0273061686991312" flag="0"/>
		</comp>
		<comp name="--.HNZ" depth="0.0">
			<acc value="0.333562924753891" flag="0"/>
			<vel value="0.0984591669684428" flag="0"/>
			<psa03 value="0.274493437603097" flag="0"/>
			<psa10 value="0.0542127894931613" flag="0"/>
			<psa30 value="0.0125828507672566" flag="0"/>
		</comp>
	</station>
	<station code="SKY1" name="SKY1" netid="HI" source="ITSAK Strong Motion Network" insttype="" lat="38.904483" lon="24.564572">
		<comp name="--.HNE" depth="0.0">
			<acc value="0.0533776741643814" flag="0"/>
			<vel value="0.0342243799375573" flag="0"/>
			<psa03 value="0.245768940954167" flag="0"/>
			<psa10 value="0.0639133473100688" flag="0"/>
			<psa30 value="0.00482589440584679" flag="0"/>
		</comp>
		<comp name="--.HNN" depth="0.0">
			<acc value="0.0675590802368135" flag="0"/>
			<vel value="0.0519170677789301" flag="0"/>
			<psa03 value="0.301696699227006" flag="0"/>
			<psa10 value="0.04176998183262" flag="0"/>
			<psa30 value="0.00562856959257859" flag="0"/>
		</comp>
		<comp name="--.HNZ" depth="0.0">
			<acc value="0.0382654016843302" flag="0"/>
			<vel value="0.0257256433637679" flag="0"/>
			<psa03 value="0.179326764126033" flag="0"/>
			<psa10 value="0.0200816445964789" flag="0"/>
			<psa30 value="0.00307915865946946" flag="0"/>
		</comp>
	</station>
	<station code="EFSA" name="EFSA" netid="HL" source="National Observatory of Athens Seismic Network" insttype="" lat="39.54015" lon="24.98864">
		<comp name="00.HNE" depth="0.0">
			<acc value="0.0854745881087143" flag="0"/>
			<vel value="0.0570610254134031" flag="0"/>
			<psa03 value="0.221742376000155" flag="0"/>
			<psa10 value="0.145069446206687" flag="0"/>
			<psa30 value="0.0160543985787683" flag="0"/>
		</comp>
		<comp name="00.HNN" depth="0.0">
			<acc value="0.114105101988317" flag="0"/>
			<vel value="0.105072851199951" flag="0"/>
			<psa03 value="0.198789624004981" flag="0"/>
			<psa10 value="0.143841272635016" flag="0"/>
			<psa30 value="0.0195599504673099" flag="0"/>
		</comp>
		<comp name="00.HNZ" depth="0.0">
			<acc value="0.0607383322575471" flag="0"/>
			<vel value="0.0580759481768587" flag="0"/>
			<psa03 value="0.127202093415747" flag="0"/>
			<psa10 value="0.0664381500295379" flag="0"/>
			<psa30 value="0.00549255328445904" flag="0"/>
		</comp>
	</station>
	<station code="KYMI" name="KYMI" netid="HL" source="National Observatory of Athens Seismic Network" insttype="" lat="38.633147" lon="24.100138">
		<comp name="--.HNE" depth="1.0">
			<acc value="0.0138109870960358" flag="0"/>
			<vel value="0.0135590183150361" flag="0"/>
			<psa03 value="0.039507368443934" flag="0"/>
			<psa10 value="0.0200252694161399" flag="0"/>
			<psa30 value="0.00321249043519191" flag="0"/>
		</comp>
		<comp name="--.HNN" depth="1.0">
			<acc value="0.0188214053330861" flag="0"/>
			<vel value="0.0182435216353177" flag="0"/>
			<psa03 value="0.0485452941808249" flag="0"/>
			<psa10 value="0.0182373708396737" flag="0"/>
			<psa30 value="0.00484871293122211" flag="0"/>
		</comp>
		<comp name="--.HNZ" depth="1.0">
			<acc value="0.00956231650085827" flag="0"/>
			<vel value="0.00928798408742744" flag="0"/>
			<psa03 value="0.0226842987554638" flag="0"/>
			<psa10 value="0.00933009234610821" flag="0"/>
			<psa30 value="0.00138611356103406" flag="0"/>
		</comp>
	</station>
	<station code="PRK" name="PRK" netid="HL" source="National Observatory of Athens Seismic Network" insttype="" lat="39.24565" lon="26.26499">
		<comp name="--.HNE" depth="0.0">
			<acc value="0.508861622124963" flag="0"/>
			<vel value="0.229838637794974" flag="0"/>
			<psa03 value="1.17470663476273" flag="0"/>
			<psa10 value="0.149905631320056" flag="0"/>
			<psa30 value="0.0204167637240498" flag="0"/>
		</comp>
		<comp name="--.HNN" depth="0.0">
			<acc value="0.647318841863918" flag="0"/>
			<vel value="0.363777691177904" flag="0"/>
			<psa03 value="2.39585567999522" flag="0"/>
			<psa10 value="0.200619132833603" flag="0"/>
			<psa30 value="0.0302694450434594" flag="0"/>
		</comp>
		<comp name="--.HNZ" depth="0.0">
			<acc value="0.561513585496549" flag="0"/>
			<vel value="0.193435062008923" flag="0"/>
			<psa03 value="1.37913377680161" flag="0"/>
			<psa10 value="0.112750360678045" flag="0"/>
			<psa30 value="0.0135336226578948" flag="0"/>
		</comp>
	</station>
	<station code="SMG" name="SMG" netid="HL" source="National Observatory of Athens Seismic Network" insttype="" lat="37.70425" lon="26.83772">
		<comp name="00.HNE" depth="0.0">
			<acc value="0.0451568918496106" flag="0"/>
			<vel value="0.0337587373588672" flag="0"/>
			<psa03 value="0.184158922440807" flag="0"/>
			<psa10 value="0.0350734157680632" flag="0"/>
			<psa30 value="0.00719052002562245" flag="0"/>
		</comp>
		<comp name="00.HNN" depth="0.0">
			<acc value="0.0479408572288824" flag="0"/>
			<vel value="0.0270273743218728" flag="0"/>
			<psa03 value="0.111676547719206" flag="0"/>
			<psa10 value="0.0304103829943069" flag="0"/>
			<psa30 value="0.00345723030539386" flag="0"/>
		</comp>
		<comp name="00.HNZ" depth="0.0">
			<acc value="0.0204377293727217" flag="0"/>
			<vel value="0.0130808659845319" flag="0"/>
			<psa03 value="0.0358832497078539" flag="0"/>
			<psa10 value="0.0151971378999622" flag="0"/>
			<psa30 value="0.00315924720931617" flag="0"/>
		</comp>
	</station>
	<station code="TNSA" name="TNSA" netid="HL" source="National Observatory of Athens Seismic Network" insttype="" lat="37.53942" lon="25.1631">
		<comp name="00.HNE" depth="0.0">
			<acc value="0.03564571843612" flag="0"/>
			<vel value="0.0253099934368845" flag="0"/>
			<psa03 value="0.099775120758746" flag="0"/>
			<psa10 value="0.0161555159657256" flag="0"/>
			<psa30 value="0.00288229295034907" flag="0"/>
		</comp>
		<comp name="00.HNN" depth="0.0">
			<acc value="0.0402283042388444" flag="0"/>
			<vel value="0.0312604531404669" flag="0"/>
			<psa03 value="0.0945850247910265" flag="0"/>
			<psa10 value="0.0291902630198267" flag="0"/>
			<psa30 value="0.00311763695716118" flag="0"/>
		</comp>
		<comp name="00.HNZ" depth="0.0">
			<acc value="0.0322900704998226" flag="0"/>
			<vel value="0.0255110468459174" flag="0"/>
			<psa03 value="0.108052428983126" flag="0"/>
			<psa10 value="0.027736588726799" flag="0"/>
			<psa30 value="0.00413104793706503" flag="0"/>
		</comp>
	</station>
	<station code="LTK" name="LTK" netid="HP" source="University of Patras, Seismological Laboratory (PSLNET)" insttype="" lat="38.0228" lon="22.9673">
		<comp name="--.HNE" depth="0.0">
			<acc value="0.0138132937680709" flag="0"/>
			<vel value="0.014979418225868" flag="0"/>
			<psa03 value="0.0247424402599043" flag="0"/>
			<psa10 value="0.0185192467413689" flag="0"/>
			<psa30 value="0.00168230696884702" flag="0"/>
		</comp>
		<comp name="--.HNN" depth="0.0">
			<acc value="0.00876651072445528" flag="0"/>
			<vel value="0.0104250446595641" flag="0"/>
			<psa03 value="0.0189706956061472" flag="0"/>
			<psa10 value="0.0118790558571511" flag="0"/>
			<psa30 value="0.00217133928718473" flag="0"/>
		</comp>
		<comp name="--.HNZ" depth="0.0">
			<acc value="0.00543234846206796" flag="0"/>
			<vel value="0.0066320096549659" flag="0"/>
			<psa03 value="0.0199102819451309" flag="0"/>
			<psa10 value="0.00808178478145843" flag="0"/>
			<psa30 value="0.00297759385044598" flag="0"/>
		</comp>
	</station>
	<station code="BIGA" name="BIGA" netid="KO" source="Bogazici University Kandilli Observatory And Earthquake Research Institute (KOERI)" insttype="" lat="40.28134" lon="27.15048">
		<comp name="--.HNE" depth="0.0">
			<acc value="0.192272266028938" flag="0"/>
			<vel value="0.163108421908114" flag="0"/>
			<psa03 value="0.491269428668624" flag="0"/>
			<psa10 value="0.0811399917022358" flag="0"/>
			<psa30 value="0.0301616163255094" flag="0"/>
		</comp>
		<comp name="--.HNN" depth="0.0">
			<acc value="0.334088345829152" flag="0"/>
			<vel value="0.146603553310875" flag="0"/>
			<psa03 value="0.624422235564601" flag="0"/>
			<psa10 value="0.147513712954243" flag="0"/>
			<psa30 value="0.0185872548954286" flag="0"/>
		</comp>
		<comp name="--.HNZ" depth="0.0">
			<acc value="0.126776459749265" flag="0"/>
			<vel value="0.0681276929860804" flag="0"/>
			<psa03 value="0.232927927654723" flag="0"/>
			<psa10 value="0.101982701233292" flag="0"/>
			<psa30 value="0.0143425617535532" flag="0"/>
		</comp>
	</station>
	<station code="EZNE" name="EZNE" netid="KO" source="Bogazici University Kandilli Observatory And Earthquake Research Institute (KOERI)" insttype="" lat="39.756" lon="26.3655">
		<comp name="--.HNE" depth="0.0">
			<acc value="1.3787790993456" flag="0"/>
			<vel value="0.524183929651684" flag="0"/>
			<psa03 value="1.99451808662932" flag="0"/>
			<psa10 value="0.422584325022716" flag="0"/>
			<psa30 value="0.0334895416537764" flag="0"/>
		</comp>
		<comp name="--.HNN" depth="0.0">
			<acc value="1.77814616075347" flag="0"/>
			<vel value="0.798718501862507" flag="0"/>
			<psa03 value="3.85208027880011" flag="0"/>
			<psa10 value="0.522195241883173" flag="0"/>
			<psa30 value="0.0565630976068191" flag="0"/>
		</comp>
		<comp name="--.HNZ" depth="0.0">
			<acc value="0.813490522390851" flag="0"/>
			<vel value="0.283118643818606" flag="0"/>
			<psa03 value="1.59429904842888" flag="0"/>
			<psa10 value="0.179031465562353" flag="0"/>
			<psa30 value="0.0362689275289034" flag="0"/>
		</comp>
	</station>
	<station code="FOCM" name="FOCM" netid="KO" source="Bogazici University Kandilli Observatory And Earthquake Research Institute (KOERI)" insttype="" lat="38.7131" lon="26.7309">
		<comp name="--.HNE" depth="0.0">
			<acc value="0.122390066618834" flag="0"/>
			<vel value="0.0476847516380389" flag="0"/>
			<psa03 value="0.260936548997761" flag="0"/>
			<psa10 value="0.0509873238180501" flag="0"/>
			<psa30 value="0.00467869254607268" flag="0"/>
		</comp>
		<comp name="--.HNN" depth="0.0">
			<acc value="0.184618630197689" flag="0"/>
			<vel value="0.0597787139259562" flag="0"/>
			<psa03 value="0.190378089160746" flag="0"/>
			<psa10 value="0.0533389741979065" flag="0"/>
			<psa30 value="0.00990637196735155" flag="0"/>
		</comp>
		<comp name="--.HNZ" depth="0.0">
			<acc value="0.0706229697949192" flag="0"/>
			<vel value="0.0327401744286318" flag="0"/>
			<psa03 value="0.132347447176848" flag="0"/>
			<psa10 value="0.0194131960296019" flag="0"/>
			<psa30 value="0.00448853816794502" flag="0"/>
		</comp>
	</station>
	<station code="GONE" name="GONE" netid="KO" source="Bogazici University Kandilli Observatory And Earthquake Research Institute (KOERI)" insttype="" lat="40.0466" lon="27.686">
		<comp name="--.HNE" depth="0.0">
			<acc value="0.126240554042757" flag="0"/>
			<vel value="0.0924575484508337" flag="0"/>
			<psa03 value="0.321070074692718" flag="0"/>
			<psa10 value="0.112363788012863" flag="0"/>
			<psa30 value="0.0181671255752831" flag="0"/>
		</comp>
		<comp name="--.HNN" depth="0.0">
			<acc value="0.179489757799832" flag="0"/>
			<vel value="0.187185097796644" flag="0"/>
			<psa03 value="0.631715215243379" flag="0"/>
			<psa10 value="0.168267832916195" flag="0"/>
			<psa30 value="0.0229138262754155" flag="0"/>
		</comp>
		<comp name="--.HNZ" depth="0.0">
			<acc value="0.0845347023297039" flag="0"/>
			<vel value="0.0570085938793151" flag="0"/>
			<psa03 value="0.153421026494054" flag="0"/>
			<psa10 value="0.046231674676594" flag="0"/>
			<psa30 value="0.0159031699203985" flag="0"/>
		</comp>
	</station>
	<station code="KRBN" name="KRBN" netid="KO" source="Bogazici University Kandilli Observatory And Earthquake Research Institute (KOERI)" insttype="" lat="38.5936" lon="26.5537">
		<comp name="--.HNE" depth="0.0">
			<acc value="1.86606931691682" flag="0"/>
			<vel value="0.546086962808574" flag="0"/>
			<psa03 value="1.33971589277091" flag="0"/>
			<psa10 value="0.580744893463844" flag="0"/>
			<psa30 value="0.0505331904208747" flag="0"/>
		</comp>
		<comp name="--.HNN" depth="0.0">
			<acc value="1.83023908877665" flag="0"/>
			<vel value="0.67444926312068" flag="0"/>
			<psa03 value="3.12242437326933" flag="0"/>
			<psa10 value="1.19055119239245" flag="0"/>
			<psa30 value="0.104624281112034" flag="0"/>
		</comp>
		<comp name="--.HNZ" depth="0.0">
			<acc value="0.541444410615829" flag="0"/>
			<vel value="0.290132469995193" flag="0"/>
			<psa03 value="1.43085576765233" flag="0"/>
			<psa10 value="0.406271763911761" flag="0"/>
			<psa30 value="0.0467994532785799" flag="0"/>
		</comp>
	</station>
	<station code="SOMA" name="SOMA" netid="KO" source="Bogazici University Kandilli Observatory And Earthquake Research Institute (KOERI)" insttype="" lat="39.1564" lon="27.5341">
		<comp name="--.HNE" depth="0.0">
			<acc value="0.130426235190682" flag="0"/>
			<vel value="0.0670808431747769" flag="0"/>
			<psa03 value="0.377489997238359" flag="0"/>
			<psa10 value="0.10175317371334" flag="0"/>
			<psa30 value="0.0176015840836281" flag="0"/>
		</comp>
		<comp name="--.HNN" depth="0.0">
			<acc value="0.143597057588389" flag="0"/>
			<vel value="0.116010877665685" flag="0"/>
			<psa03 value="0.440934446223068" flag="0"/>
			<psa10 value="0.123727413649772" flag="0"/>
			<psa30 value="0.0238923383341571" flag="0"/>
		</comp>
		<comp name="--.HNZ" depth="0.0">
			<acc value="0.14947215092331" flag="0"/>
			<vel value="0.0567348246166784" flag="0"/>
			<psa03 value="0.275433023942081" flag="0"/>
			<psa10 value="0.0622301454970895" flag="0"/>
			<psa30 value="0.0124445973488061" flag="0"/>
		</comp>
	</station>
	<station code="SUSR" name="SUSR" netid="KO" source="Bogazici University Kandilli Observatory And Earthquake Research Institute (KOERI)" insttype="" lat="39.9627" lon="28.0835">
		<comp name="--.HNE" depth="0.0">
			<acc value="0.122515847659543" flag="0"/>
			<vel value="0.0758172628708465" flag="0"/>
			<psa03 value="0.312434828815392" flag="0"/>
			<psa10 value="0.0515792632116099" flag="0"/>
			<psa30 value="0.0195429484287949" flag="0"/>
		</comp>
		<comp name="--.HNN" depth="0.0">
			<acc value="0.13244093775818" flag="0"/>
			<vel value="0.099859373053857" flag="0"/>
			<psa03 value="0.319638324080933" flag="0"/>
			<psa10 value="0.0579416049927281" flag="0"/>
			<psa30 value="0.0163018229813673" flag="0"/>
		</comp>
		<comp name="--.HNZ" depth="0.0">
			<acc value="0.151392292335415" flag="0"/>
			<vel value="0.0751089433829591" flag="0"/>
			<psa03 value="0.253598827112364" flag="0"/>
			<psa10 value="0.0527228740127729" flag="0"/>
			<psa30 value="0.00645272103848715" flag="0"/>
		</comp>
	</station>
	<station code="YENI" name="YENI" netid="KO" source="Bogazici University Kandilli Observatory And Earthquake Research Institute (KOERI)" insttype="" lat="39.9364" lon="27.24216">
		<comp name="--.HNE" depth="0.0">
			<acc value="1.13696399888027" flag="0"/>
			<vel value="0.464378204795836" flag="0"/>
			<psa03 value="1.91724829579956" flag="0"/>
			<psa10 value="0.274748468180821" flag="0"/>
			<psa30 value="0.0441654795749622" flag="0"/>
		</comp>
		<comp name="--.HNN" depth="0.0">
			<acc value="0.909614047500926" flag="0"/>
			<vel value="0.436654240550185" flag="0"/>
			<psa03 value="2.9332990658939" flag="0"/>
			<psa10 value="0.28552015442417" flag="0"/>
			<psa30 value="0.0217988504864882" flag="0"/>
		</comp>
		<comp name="--.HNZ" depth="0.0">
			<acc value="0.408983970656103" flag="0"/>
			<vel value="0.198224799335249" flag="0"/>
			<psa03 value="1.11649702395235" flag="0"/>
			<psa10 value="0.127335425191469" flag="0"/>
			<psa30 value="0.0245147024282173" flag="0"/>
		</comp>
	</station>
</stationlist>
