<?xml version="1.0" encoding="UTF-8" standalone="yes"?>
<!DOCTYPE earthquake SYSTEM "stationlist.dtd">
<stationlist created="" xmlns="ch.ethz.sed.shakemap.usgs.xml">
  <station code="URFA" name="URFA" netid="KO" insttype="CMG-3ESP" lat="37.4409" lon="38.8213">
    <comp name="--.HHZ">
      <acc value="0.0034702169" flag="0"/>
      <vel value="0.0015842449" flag="0"/>
      <psa03 value="0.0054941444" flag="0"/>
      <psa10 value="0.0006896060" flag="0"/>
      <psa30 value="0.0000646894" flag="0"/>
    </comp>
    <comp name="--.HHE">
      <acc value="0.0041268739" flag="0"/>
      <vel value="0.0015286535" flag="0"/>
      <psa03 value="0.0049274514" flag="0"/>
      <psa10 value="0.0007344957" flag="0"/>
      <psa30 value="0.0000649460" flag="0"/>
    </comp>
    <comp name="--.HHN">
      <acc value="0.0031060510" flag="0"/>
      <vel value="0.0010085856" flag="0"/>
      <psa03 value="0.0057200740" flag="0"/>
      <psa10 value="0.0009889157" flag="0"/>
      <psa30 value="0.0000553997" flag="0"/>
    </comp>
  </station>
  <station code="ANDN" name="ANDN" netid="TU" insttype="T" lat="37.58" lon="36.3452">
    <comp name="--.HHE">
      <acc value="0.0055112564" flag="0"/>
      <vel value="0.0019555455" flag="0"/>
      <psa03 value="0.0096511600" flag="0"/>
      <psa10 value="0.0027334477" flag="0"/>
      <psa30 value="0.0001604296" flag="0"/>
    </comp>
    <comp name="--.HHZ">
      <acc value="0.0045872973" flag="0"/>
      <vel value="0.0019364078" flag="0"/>
      <psa03 value="0.0076560031" flag="0"/>
      <psa10 value="0.0017412349" flag="0"/>
      <psa30 value="0.0000950732" flag="0"/>
    </comp>
    <comp name="--.HHN">
      <acc value="0.0122910268" flag="0"/>
      <vel value="0.0034644519" flag="0"/>
      <psa03 value="0.0269214964" flag="0"/>
      <psa10 value="0.0031267787" flag="0"/>
      <psa30 value="0.0001243406" flag="0"/>
    </comp>
  </station>
</stationlist>
