<?xml version="1.0" encoding="UTF-8" standalone="yes"?>
<!DOCTYPE earthquake SYSTEM "stationlist.dtd">
<stationlist created="" xmlns="ch.ethz.sed.shakemap.usgs.xml">
  <station code="ASB" name="ASB" netid="VI" insttype="STS-2.5" lat="64.7482" lon="-21.3254">
    <comp name="--.HHZ">
      <acc value="0.0900284427" flag="0"/>
      <vel value="0.0855523564" flag="0"/>
      <psa03 value="0.1696776917" flag="0"/>
      <psa10 value="0.1855088235" flag="0"/>
      <psa30 value="0.0199196525" flag="0"/>
    </comp>
    <comp name="--.HHN">
      <acc value="0.1589807484" flag="0"/>
      <vel value="0.0593751780" flag="0"/>
      <psa03 value="0.1964817867" flag="0"/>
      <psa10 value="0.1322700927" flag="0"/>
      <psa30 value="0.0130008255" flag="0"/>
    </comp>
    <comp name="--.HHE">
      <acc value="0.1681723415" flag="0"/>
      <vel value="0.0681315850" flag="0"/>
      <psa03 value="0.2910458328" flag="0"/>
      <psa10 value="0.0995357197" flag="0"/>
      <psa30 value="0.0203487443" flag="0"/>
    </comp>
  </station>
</stationlist>
