<?xml version="1.0" encoding="UTF-8" standalone="yes"?>
<!DOCTYPE earthquake SYSTEM "stationlist.dtd">
<stationlist created="" xmlns="ch.ethz.sed.shakemap.usgs.xml">
  <station code="ASB" name="ASB" netid="VI" insttype="STS-2.5" lat="64.7482" lon="-21.3254">
    <comp name="--.HHE">
      <acc value="0.1678402480" flag="0"/>
      <vel value="0.0725953139" flag="0"/>
      <psa03 value="0.2914371219" flag="0"/>
      <psa10 value="0.1009047658" flag="0"/>
      <psa30 value="0.0158794894" flag="0"/>
    </comp>
    <comp name="--.HHZ">
      <acc value="0.0901986112" flag="0"/>
      <vel value="0.0800813571" flag="0"/>
      <psa03 value="0.1698266992" flag="0"/>
      <psa10 value="0.1848230184" flag="0"/>
      <psa30 value="0.0173417154" flag="0"/>
    </comp>
    <comp name="--.HHN">
      <acc value="0.1586640606" flag="0"/>
      <vel value="0.0610287211" flag="0"/>
      <psa03 value="0.1965858740" flag="0"/>
      <psa10 value="0.1314280852" flag="0"/>
      <psa30 value="0.0104015752" flag="0"/>
    </comp>
  </station>
  <station code="GOD" name="GOD" netid="VI" insttype="CMG-3ESP" lat="63.6598" lon="-19.3224">
    <comp name="--.HHN">
      <acc value="0.1267178971" flag="0"/>
      <vel value="0.1347564088" flag="0"/>
      <psa03 value="0.2746449222" flag="0"/>
      <psa10 value="0.2231373997" flag="0"/>
      <psa30 value="0.0407824226" flag="0"/>
    </comp>
    <comp name="--.HHE">
      <acc value="0.0665705057" flag="0"/>
      <vel value="0.1022841153" flag="0"/>
      <psa03 value="0.1447152602" flag="0"/>
      <psa10 value="0.1657655214" flag="0"/>
      <psa30 value="0.0259564520" flag="0"/>
    </comp>
    <comp name="--.HHZ">
      <acc value="0.0870257157" flag="0"/>
      <vel value="0.0624089785" flag="0"/>
      <psa03 value="0.1508054576" flag="0"/>
      <psa10 value="0.1506866924" flag="0"/>
      <psa30 value="0.0309133114" flag="0"/>
    </comp>
  </station>
</stationlist>
