<?xml version="1.0" encoding="UTF-8" standalone="yes"?>
<!DOCTYPE earthquake SYSTEM "stationlist.dtd">
<stationlist created="" xmlns="ch.ethz.sed.shakemap.usgs.xml">
  <station code="KMRS" name="KMRS" netid="KO" insttype="CMG-3T" lat="37.5087" lon="36.9">
    <comp name="--.HHE">
      <acc value="0.0025960057" flag="0"/>
      <vel value="0.0008581453" flag="0"/>
      <psa03 value="0.0032613308" flag="0"/>
      <psa10 value="0.0005004547" flag="0"/>
      <psa30 value="0.0000444971" flag="0"/>
    </comp>
    <comp name="--.HHZ">
      <acc value="0.0026846396" flag="0"/>
      <vel value="0.0006153424" flag="0"/>
      <psa03 value="0.0024924372" flag="0"/>
      <psa10 value="0.0003086957" flag="0"/>
      <psa30 value="0.0000507704" flag="0"/>
    </comp>
    <comp name="--.HHN">
      <acc value="0.0036821813" flag="0"/>
      <vel value="0.0011012864" flag="0"/>
      <psa03 value="0.0068921616" flag="0"/>
      <psa10 value="0.0005206350" flag="0"/>
      <psa30 value="0.0000521916" flag="0"/>
    </comp>
  </station>
  <station code="ANDN" name="ANDN" netid="TU" insttype="T" lat="37.58" lon="36.3452">
    <comp name="--.HHE">
      <acc value="0.0075957313" flag="0"/>
      <vel value="0.0028275942" flag="0"/>
      <psa03 value="0.0150447307" flag="0"/>
      <psa10 value="0.0012095149" flag="0"/>
      <psa30 value="0.0000807203" flag="0"/>
    </comp>
    <comp name="--.HHN">
      <acc value="0.0144938154" flag="0"/>
      <vel value="0.0031860071" flag="0"/>
      <psa03 value="0.0155101523" flag="0"/>
      <psa10 value="0.0012394378" flag="0"/>
      <psa30 value="0.0000781608" flag="0"/>
    </comp>
    <comp name="--.HHZ">
      <acc value="0.0053453965" flag="0"/>
      <vel value="0.0011399129" flag="0"/>
      <psa03 value="0.0072713561" flag="0"/>
      <psa10 value="0.0006799447" flag="0"/>
      <psa30 value="0.0000593355" flag="0"/>
    </comp>
  </station>
</stationlist>
