<?xml version="1.0" encoding="UTF-8" standalone="yes"?>
<!DOCTYPE earthquake SYSTEM "stationlist.dtd">
<stationlist created="" xmlns="ch.ethz.sed.shakemap.usgs.xml">
  <station code="APE" name="APE" netid="GE" insttype="STS-2/N" lat="37.0727" lon="25.523">
    <comp name="--.HHN">
      <acc value="0.2458457583" flag="0"/>
      <vel value="0.0571861203" flag="0"/>
      <psa03 value="0.1759286179" flag="0"/>
      <psa10 value="0.0186630493" flag="0"/>
      <psa30 value="0.0018603713" flag="0"/>
    </comp>
    <comp name="--.HHZ">
      <acc value="0.1231739951" flag="0"/>
      <vel value="0.0262307015" flag="0"/>
      <psa03 value="0.1432608257" flag="0"/>
      <psa10 value="0.0186879569" flag="0"/>
      <psa30 value="0.0016648713" flag="0"/>
    </comp>
    <comp name="--.HHE">
      <acc value="0.3891851798" flag="0"/>
      <vel value="0.0885055875" flag="0"/>
      <psa03 value="0.2565848054" flag="0"/>
      <psa10 value="0.0260978044" flag="0"/>
      <psa30 value="0.0026859014" flag="0"/>
    </comp>
  </station>
  <station code="THERA" name="THERA" netid="GE" insttype="STS-2/N" lat="36.367" lon="25.4753">
    <comp name="--.HHN">
      <acc value="0.0885884649" flag="0"/>
      <vel value="0.0113076727" flag="0"/>
      <psa03 value="0.0504389821" flag="0"/>
      <psa10 value="0.0082123777" flag="0"/>
      <psa30 value="0.0009316428" flag="0"/>
    </comp>
    <comp name="--.HHZ">
      <acc value="0.0753755206" flag="0"/>
      <vel value="0.0144557328" flag="0"/>
      <psa03 value="0.0539807961" flag="0"/>
      <psa10 value="0.0078035974" flag="0"/>
      <psa30 value="0.0017340856" flag="0"/>
    </comp>
    <comp name="--.HHE">
      <acc value="0.0918221753" flag="0"/>
      <vel value="0.0196524813" flag="0"/>
      <psa03 value="0.0776289114" flag="0"/>
      <psa10 value="0.0102488392" flag="0"/>
      <psa30 value="0.0019818496" flag="0"/>
    </comp>
  </station>
</stationlist>
