<?xml version="1.0" encoding="UTF-8" standalone="yes"?>
<!DOCTYPE earthquake SYSTEM "stationlist.dtd">
<stationlist created="" xmlns="ch.ethz.sed.shakemap.usgs.xml">
  <station code="APE" name="APE" netid="GE" insttype="STS-2/N" lat="37.0727" lon="25.523">
    <comp name="--.HHZ">
      <acc value="0.1231739951" flag="0"/>
      <vel value="0.0262307010" flag="0"/>
      <psa03 value="0.1432608257" flag="0"/>
      <psa10 value="0.0186879568" flag="0"/>
      <psa30 value="0.0016648717" flag="0"/>
    </comp>
    <comp name="--.HHE">
      <acc value="0.3891851799" flag="0"/>
      <vel value="0.0885055873" flag="0"/>
      <psa03 value="0.2565848054" flag="0"/>
      <psa10 value="0.0260978046" flag="0"/>
      <psa30 value="0.0026858904" flag="0"/>
    </comp>
    <comp name="--.HHN">
      <acc value="0.2458457584" flag="0"/>
      <vel value="0.0571861209" flag="0"/>
      <psa03 value="0.1759286179" flag="0"/>
      <psa10 value="0.0186630495" flag="0"/>
      <psa30 value="0.0018604052" flag="0"/>
    </comp>
  </station>
  <station code="THERA" name="THERA" netid="GE" insttype="STS-2/N" lat="36.367" lon="25.4753">
    <comp name="--.HHN">
      <acc value="0.0885884649" flag="0"/>
      <vel value="0.0113076730" flag="0"/>
      <psa03 value="0.0504389821" flag="0"/>
      <psa10 value="0.0082123778" flag="0"/>
      <psa30 value="0.0009316395" flag="0"/>
    </comp>
    <comp name="--.HHZ">
      <acc value="0.0753755205" flag="0"/>
      <vel value="0.0144557337" flag="0"/>
      <psa03 value="0.0539807961" flag="0"/>
      <psa10 value="0.0078035975" flag="0"/>
      <psa30 value="0.0017340701" flag="0"/>
    </comp>
    <comp name="--.HHE">
      <acc value="0.0918221752" flag="0"/>
      <vel value="0.0196524812" flag="0"/>
      <psa03 value="0.0776289114" flag="0"/>
      <psa10 value="0.0102488385" flag="0"/>
      <psa30 value="0.0019818490" flag="0"/>
    </comp>
  </station>
  <station code="SNT1" name="SNT1" netid="HA" insttype="30" lat="36.4159" lon="25.4282">
    <comp name="--.HHN">
      <acc value="0.0499668965" flag="0"/>
      <vel value="0.0247085186" flag="0"/>
      <psa03 value="0.0656174192" flag="0"/>
      <psa10 value="0.0209561508" flag="0"/>
      <psa30 value="0.0024460697" flag="0"/>
    </comp>
    <comp name="--.HHE">
      <acc value="0.0698145246" flag="0"/>
      <vel value="0.0174942324" flag="0"/>
      <psa03 value="0.0471703017" flag="0"/>
      <psa10 value="0.0236865470" flag="0"/>
      <psa30 value="0.0033077161" flag="0"/>
    </comp>
    <comp name="--.HHZ">
      <acc value="0.0462006301" flag="0"/>
      <vel value="0.0168023785" flag="0"/>
      <psa03 value="0.0640152193" flag="0"/>
      <psa10 value="0.0138630751" flag="0"/>
      <psa30 value="0.0015627144" flag="0"/>
    </comp>
  </station>
  <station code="NAX1" name="NAX1" netid="HI" insttype="CMG-5TD,ACCELEROMETER,GURALP" lat="37.1014" lon="25.3741">
    <comp name="--.HNN">
      <acc value="0.1668466326" flag="0"/>
      <vel value="0.0350019005" flag="0"/>
      <psa03 value="0.1082786902" flag="0"/>
      <psa10 value="0.0137089328" flag="0"/>
      <psa30 value="0.0010730737" flag="0"/>
    </comp>
    <comp name="--.HNZ">
      <acc value="0.1199078233" flag="0"/>
      <vel value="0.0249442408" flag="0"/>
      <psa03 value="0.1143422542" flag="0"/>
      <psa10 value="0.0169980036" flag="0"/>
      <psa30 value="0.0014116269" flag="0"/>
    </comp>
    <comp name="--.HNE">
      <acc value="0.2514617943" flag="0"/>
      <vel value="0.0738236348" flag="0"/>
      <psa03 value="0.2952586337" flag="0"/>
      <psa10 value="0.0324800825" flag="0"/>
      <psa30 value="0.0023778676" flag="0"/>
    </comp>
  </station>
  <station code="APE" name="APE" netid="HL" insttype="120" lat="37.0727" lon="25.523">
    <comp name="--.HHZ">
      <acc value="0.1165801107" flag="0"/>
      <vel value="0.0254663101" flag="0"/>
      <psa03 value="0.1401060588" flag="0"/>
      <psa10 value="0.0185099724" flag="0"/>
      <psa30 value="0.0016607487" flag="0"/>
    </comp>
    <comp name="--.HHE">
      <acc value="0.3594144966" flag="0"/>
      <vel value="0.0850530818" flag="0"/>
      <psa03 value="0.2486888835" flag="0"/>
      <psa10 value="0.0256696170" flag="0"/>
      <psa30 value="0.0026387067" flag="0"/>
    </comp>
  </station>
  <station code="MHLO" name="MHLO" netid="HL" insttype="20" lat="36.6898" lon="24.4017">
    <comp name="--.HHN">
      <acc value="0.0596219228" flag="0"/>
      <vel value="0.0271670458" flag="0"/>
      <psa03 value="0.1474202359" flag="0"/>
      <psa10 value="0.0514748435" flag="0"/>
      <psa30 value="0.0024363421" flag="0"/>
    </comp>
    <comp name="--.HHE">
      <acc value="0.0580966511" flag="0"/>
      <vel value="0.0332102387" flag="0"/>
      <psa03 value="0.1543571992" flag="0"/>
      <psa10 value="0.0452861307" flag="0"/>
      <psa30 value="0.0036659218" flag="0"/>
    </comp>
    <comp name="--.HHZ">
      <acc value="0.0244574885" flag="0"/>
      <vel value="0.0170437721" flag="0"/>
      <psa03 value="0.0791811001" flag="0"/>
      <psa10 value="0.0278544538" flag="0"/>
      <psa30 value="0.0021777638" flag="0"/>
    </comp>
  </station>
  <station code="SAP3" name="SAP3" netid="HL" insttype="LE3D20_SMART24" lat="36.4356" lon="25.3454">
    <comp name="--.HHE">
      <acc value="0.2970499996" flag="0"/>
      <vel value="0.0799741472" flag="0"/>
      <psa03 value="0.3298171776" flag="0"/>
      <psa10 value="0.1268892321" flag="0"/>
      <psa30 value="0.0145851160" flag="0"/>
    </comp>
    <comp name="--.HHZ">
      <acc value="0.3751821151" flag="0"/>
      <vel value="0.0908241270" flag="0"/>
      <psa03 value="0.3147350540" flag="0"/>
      <psa10 value="0.0453114500" flag="0"/>
      <psa30 value="0.0055345420" flag="0"/>
    </comp>
  </station>
  <station code="THERA" name="THERA" netid="HL" insttype="120" lat="36.367" lon="25.4753">
    <comp name="--.HHE">
      <acc value="0.0942845970" flag="0"/>
      <vel value="0.0198456802" flag="0"/>
      <psa03 value="0.0751773573" flag="0"/>
      <psa10 value="0.0101423822" flag="0"/>
      <psa30 value="0.0019833490" flag="0"/>
    </comp>
    <comp name="--.HHN">
      <acc value="0.0897164358" flag="0"/>
      <vel value="0.0110131127" flag="0"/>
      <psa03 value="0.0489724379" flag="0"/>
      <psa10 value="0.0081690014" flag="0"/>
      <psa30 value="0.0009299861" flag="0"/>
    </comp>
    <comp name="--.HHZ">
      <acc value="0.0765252412" flag="0"/>
      <vel value="0.0142629179" flag="0"/>
      <psa03 value="0.0524245304" flag="0"/>
      <psa10 value="0.0077577201" flag="0"/>
      <psa30 value="0.0017353654" flag="0"/>
    </comp>
  </station>
  <station code="THRA" name="THRA" netid="HL" insttype="CMG-5" lat="36.415" lon="25.4324">
    <comp name="00.HNE">
      <acc value="0.1971987113" flag="0"/>
      <vel value="0.0613503943" flag="0"/>
      <psa03 value="0.3057977006" flag="0"/>
      <psa10 value="0.0645286329" flag="0"/>
      <psa30 value="0.0063717521" flag="0"/>
    </comp>
    <comp name="00.HNN">
      <acc value="0.1745794085" flag="0"/>
      <vel value="0.0794934264" flag="0"/>
      <psa03 value="0.2632671671" flag="0"/>
      <psa10 value="0.0743473239" flag="0"/>
      <psa30 value="0.0049696936" flag="0"/>
    </comp>
    <comp name="00.HNZ">
      <acc value="0.1895115567" flag="0"/>
      <vel value="0.0526316719" flag="0"/>
      <psa03 value="0.2450652938" flag="0"/>
      <psa10 value="0.0462555993" flag="0"/>
      <psa30 value="0.0026807687" flag="0"/>
    </comp>
  </station>
  <station code="TNSA" name="TNSA" netid="HL" insttype="CMG-5" lat="37.5394" lon="25.1631">
    <comp name="00.HNN">
      <acc value="0.0811085173" flag="0"/>
      <vel value="0.0296669026" flag="0"/>
      <psa03 value="0.1167624080" flag="0"/>
      <psa10 value="0.0205853328" flag="0"/>
      <psa30 value="0.0014035315" flag="0"/>
    </comp>
    <comp name="00.HNE">
      <acc value="0.0524072814" flag="0"/>
      <vel value="0.0157658309" flag="0"/>
      <psa03 value="0.0856091488" flag="0"/>
      <psa10 value="0.0097976660" flag="0"/>
      <psa30 value="0.0008238030" flag="0"/>
    </comp>
  </station>
  <station code="CMBO" name="CMBO" netid="HT" insttype="120P," lat="36.4709" lon="25.4056">
    <comp name="--.HHE">
      <acc value="0.3646737336" flag="0"/>
      <vel value="0.0859173942" flag="0"/>
      <psa03 value="0.4173429940" flag="0"/>
      <psa10 value="0.0938618236" flag="0"/>
      <psa30 value="0.0094277778" flag="0"/>
    </comp>
    <comp name="--.HHZ">
      <acc value="0.3612521287" flag="0"/>
      <vel value="0.0727464777" flag="0"/>
      <psa03 value="0.3096712929" flag="0"/>
      <psa10 value="0.0553601971" flag="0"/>
      <psa30 value="0.0068961010" flag="0"/>
    </comp>
    <comp name="--.HHN">
      <acc value="0.3417858130" flag="0"/>
      <vel value="0.1346643310" flag="0"/>
      <psa03 value="0.4763492537" flag="0"/>
      <psa10 value="0.1534295203" flag="0"/>
      <psa30 value="0.0079970535" flag="0"/>
    </comp>
  </station>
</stationlist>
