<?xml version="1.0" encoding="UTF-8" standalone="yes"?>
<!DOCTYPE earthquake SYSTEM "stationlist.dtd">
<stationlist created="" xmlns="ch.ethz.sed.shakemap.usgs.xml">
  <station code="APE" name="APE" netid="GE" insttype="STS-2/N" lat="37.0727" lon="25.523">
    <comp name="--.HHZ">
      <acc value="0.1231739951" flag="0"/>
      <vel value="0.0262307010" flag="0"/>
      <psa03 value="0.1432608257" flag="0"/>
      <psa10 value="0.0186879568" flag="0"/>
      <psa30 value="0.0016648717" flag="0"/>
    </comp>
    <comp name="--.HHE">
      <acc value="0.3891851799" flag="0"/>
      <vel value="0.0885055873" flag="0"/>
      <psa03 value="0.2565848054" flag="0"/>
      <psa10 value="0.0260978046" flag="0"/>
      <psa30 value="0.0026858904" flag="0"/>
    </comp>
    <comp name="--.HHN">
      <acc value="0.2458457584" flag="0"/>
      <vel value="0.0571861209" flag="0"/>
      <psa03 value="0.1759286179" flag="0"/>
      <psa10 value="0.0186630495" flag="0"/>
      <psa30 value="0.0018604052" flag="0"/>
    </comp>
  </station>
  <station code="THERA" name="THERA" netid="GE" insttype="STS-2/N" lat="36.367" lon="25.4753">
    <comp name="--.HHN">
      <acc value="0.0885884649" flag="0"/>
      <vel value="0.0113076730" flag="0"/>
      <psa03 value="0.0504389821" flag="0"/>
      <psa10 value="0.0082123778" flag="0"/>
      <psa30 value="0.0009316395" flag="0"/>
    </comp>
    <comp name="--.HHZ">
      <acc value="0.0753755205" flag="0"/>
      <vel value="0.0144557337" flag="0"/>
      <psa03 value="0.0539807961" flag="0"/>
      <psa10 value="0.0078035975" flag="0"/>
      <psa30 value="0.0017340701" flag="0"/>
    </comp>
    <comp name="--.HHE">
      <acc value="0.0918221752" flag="0"/>
      <vel value="0.0196524812" flag="0"/>
      <psa03 value="0.0776289114" flag="0"/>
      <psa10 value="0.0102488385" flag="0"/>
      <psa30 value="0.0019818490" flag="0"/>
    </comp>
  </station>
</stationlist>
