<?xml version="1.0" encoding="UTF-8" standalone="yes"?>
<!DOCTYPE earthquake SYSTEM "stationlist.dtd">
<stationlist created="" xmlns="ch.ethz.sed.shakemap.usgs.xml">
  <station code="APE" name="APE" netid="GE" insttype="STS-2/N" lat="37.0727" lon="25.523">
    <comp name="--.HHN">
      <acc value="0.2458457583" flag="0"/>
      <vel value="0.0571861203" flag="0"/>
      <psa03 value="0.1759286179" flag="0"/>
      <psa10 value="0.0186630493" flag="0"/>
      <psa30 value="0.0018603713" flag="0"/>
    </comp>
    <comp name="--.HHZ">
      <acc value="0.1231739951" flag="0"/>
      <vel value="0.0262307015" flag="0"/>
      <psa03 value="0.1432608257" flag="0"/>
      <psa10 value="0.0186879569" flag="0"/>
      <psa30 value="0.0016648713" flag="0"/>
    </comp>
    <comp name="--.HHE">
      <acc value="0.3891851798" flag="0"/>
      <vel value="0.0885055875" flag="0"/>
      <psa03 value="0.2565848054" flag="0"/>
      <psa10 value="0.0260978044" flag="0"/>
      <psa30 value="0.0026859014" flag="0"/>
    </comp>
  </station>
  <station code="THERA" name="THERA" netid="GE" insttype="STS-2/N" lat="36.367" lon="25.4753">
    <comp name="--.HHN">
      <acc value="0.0885884649" flag="0"/>
      <vel value="0.0113076727" flag="0"/>
      <psa03 value="0.0504389821" flag="0"/>
      <psa10 value="0.0082123777" flag="0"/>
      <psa30 value="0.0009316428" flag="0"/>
    </comp>
    <comp name="--.HHZ">
      <acc value="0.0753755206" flag="0"/>
      <vel value="0.0144557328" flag="0"/>
      <psa03 value="0.0539807961" flag="0"/>
      <psa10 value="0.0078035974" flag="0"/>
      <psa30 value="0.0017340856" flag="0"/>
    </comp>
    <comp name="--.HHE">
      <acc value="0.0918221753" flag="0"/>
      <vel value="0.0196524813" flag="0"/>
      <psa03 value="0.0776289114" flag="0"/>
      <psa10 value="0.0102488392" flag="0"/>
      <psa30 value="0.0019818496" flag="0"/>
    </comp>
  </station>
  <station code="SNT1" name="SNT1" netid="HA" insttype="30" lat="36.4159" lon="25.4282">
    <comp name="--.HHE">
      <acc value="0.0698145246" flag="0"/>
      <vel value="0.0174942329" flag="0"/>
      <psa03 value="0.0471703017" flag="0"/>
      <psa10 value="0.0236865470" flag="0"/>
      <psa30 value="0.0033076995" flag="0"/>
    </comp>
    <comp name="--.HHN">
      <acc value="0.0499668970" flag="0"/>
      <vel value="0.0247085176" flag="0"/>
      <psa03 value="0.0656174192" flag="0"/>
      <psa10 value="0.0209561508" flag="0"/>
      <psa30 value="0.0024460657" flag="0"/>
    </comp>
    <comp name="--.HHZ">
      <acc value="0.0462006303" flag="0"/>
      <vel value="0.0168023760" flag="0"/>
      <psa03 value="0.0640152193" flag="0"/>
      <psa10 value="0.0138630746" flag="0"/>
      <psa30 value="0.0015626971" flag="0"/>
    </comp>
  </station>
  <station code="NAX1" name="NAX1" netid="HI" insttype="CMG-5TD,ACCELEROMETER,GURALP" lat="37.1014" lon="25.3741">
    <comp name="--.HNN">
      <acc value="0.1668466337" flag="0"/>
      <vel value="0.0350019000" flag="0"/>
      <psa03 value="0.1082786902" flag="0"/>
      <psa10 value="0.0137089329" flag="0"/>
      <psa30 value="0.0010728900" flag="0"/>
    </comp>
    <comp name="--.HNZ">
      <acc value="0.1199078240" flag="0"/>
      <vel value="0.0249442403" flag="0"/>
      <psa03 value="0.1143422542" flag="0"/>
      <psa10 value="0.0169980034" flag="0"/>
      <psa30 value="0.0014117860" flag="0"/>
    </comp>
    <comp name="--.HNE">
      <acc value="0.2514617938" flag="0"/>
      <vel value="0.0738236349" flag="0"/>
      <psa03 value="0.2952586337" flag="0"/>
      <psa10 value="0.0324800825" flag="0"/>
      <psa30 value="0.0023777873" flag="0"/>
    </comp>
  </station>
  <station code="APE" name="APE" netid="HL" insttype="120" lat="37.0727" lon="25.523">
    <comp name="--.HHZ">
      <acc value="0.1165801106" flag="0"/>
      <vel value="0.0254663106" flag="0"/>
      <psa03 value="0.1401060588" flag="0"/>
      <psa10 value="0.0185099724" flag="0"/>
      <psa30 value="0.0016607483" flag="0"/>
    </comp>
    <comp name="--.HHN">
      <acc value="0.2292651908" flag="0"/>
      <vel value="0.0536161706" flag="0"/>
      <psa03 value="0.1711353380" flag="0"/>
      <psa10 value="0.0185037527" flag="0"/>
      <psa30 value="0.0018442750" flag="0"/>
    </comp>
    <comp name="--.HHE">
      <acc value="0.3594144965" flag="0"/>
      <vel value="0.0850530820" flag="0"/>
      <psa03 value="0.2486888835" flag="0"/>
      <psa10 value="0.0256696168" flag="0"/>
      <psa30 value="0.0026387176" flag="0"/>
    </comp>
  </station>
  <station code="MHLO" name="MHLO" netid="HL" insttype="20" lat="36.6898" lon="24.4017">
    <comp name="--.HHZ">
      <acc value="0.0244574888" flag="0"/>
      <vel value="0.0170437671" flag="0"/>
      <psa03 value="0.0791811001" flag="0"/>
      <psa10 value="0.0278544537" flag="0"/>
      <psa30 value="0.0021777710" flag="0"/>
    </comp>
    <comp name="--.HHE">
      <acc value="0.0580966510" flag="0"/>
      <vel value="0.0332102381" flag="0"/>
      <psa03 value="0.1543571992" flag="0"/>
      <psa10 value="0.0452861307" flag="0"/>
      <psa30 value="0.0036659435" flag="0"/>
    </comp>
    <comp name="--.HHN">
      <acc value="0.0596219228" flag="0"/>
      <vel value="0.0271670462" flag="0"/>
      <psa03 value="0.1474202359" flag="0"/>
      <psa10 value="0.0514748435" flag="0"/>
      <psa30 value="0.0024363515" flag="0"/>
    </comp>
  </station>
  <station code="SAP3" name="SAP3" netid="HL" insttype="LE3D20_SMART24" lat="36.4356" lon="25.3454">
    <comp name="--.HHE">
      <acc value="0.2970499996" flag="0"/>
      <vel value="0.0799741596" flag="0"/>
      <psa03 value="0.3298171776" flag="0"/>
      <psa10 value="0.1268892321" flag="0"/>
      <psa30 value="0.0145851208" flag="0"/>
    </comp>
    <comp name="--.HHN">
      <acc value="0.2467593891" flag="0"/>
      <vel value="0.1146951176" flag="0"/>
      <psa03 value="0.4899213233" flag="0"/>
      <psa10 value="0.1161791440" flag="0"/>
      <psa30 value="0.0135579739" flag="0"/>
    </comp>
    <comp name="--.HHZ">
      <acc value="0.3751821151" flag="0"/>
      <vel value="0.0908241036" flag="0"/>
      <psa03 value="0.3147350541" flag="0"/>
      <psa10 value="0.0453114493" flag="0"/>
      <psa30 value="0.0055346455" flag="0"/>
    </comp>
  </station>
  <station code="THERA" name="THERA" netid="HL" insttype="120" lat="36.367" lon="25.4753">
    <comp name="--.HHE">
      <acc value="0.0942845973" flag="0"/>
      <vel value="0.0198456803" flag="0"/>
      <psa03 value="0.0751773573" flag="0"/>
      <psa10 value="0.0101423829" flag="0"/>
      <psa30 value="0.0019833496" flag="0"/>
    </comp>
    <comp name="--.HHN">
      <acc value="0.0897164357" flag="0"/>
      <vel value="0.0110131124" flag="0"/>
      <psa03 value="0.0489724379" flag="0"/>
      <psa10 value="0.0081690013" flag="0"/>
      <psa30 value="0.0009299894" flag="0"/>
    </comp>
    <comp name="--.HHZ">
      <acc value="0.0765252413" flag="0"/>
      <vel value="0.0142629169" flag="0"/>
      <psa03 value="0.0524245304" flag="0"/>
      <psa10 value="0.0077577200" flag="0"/>
      <psa30 value="0.0017353809" flag="0"/>
    </comp>
  </station>
  <station code="THRA" name="THRA" netid="HL" insttype="CMG-5" lat="36.415" lon="25.4324">
    <comp name="00.HNN">
      <acc value="0.1745794090" flag="0"/>
      <vel value="0.0794934274" flag="0"/>
      <psa03 value="0.2632671671" flag="0"/>
      <psa10 value="0.0743473239" flag="0"/>
      <psa30 value="0.0049696945" flag="0"/>
    </comp>
    <comp name="00.HNE">
      <acc value="0.1971987110" flag="0"/>
      <vel value="0.0613503933" flag="0"/>
      <psa03 value="0.3057977006" flag="0"/>
      <psa10 value="0.0645286335" flag="0"/>
      <psa30 value="0.0063717137" flag="0"/>
    </comp>
    <comp name="00.HNZ">
      <acc value="0.1895115550" flag="0"/>
      <vel value="0.0526316716" flag="0"/>
      <psa03 value="0.2450652938" flag="0"/>
      <psa10 value="0.0462556015" flag="0"/>
      <psa30 value="0.0026805965" flag="0"/>
    </comp>
  </station>
  <station code="TNSA" name="TNSA" netid="HL" insttype="CMG-5" lat="37.5394" lon="25.1631">
    <comp name="00.HNE">
      <acc value="0.0524072815" flag="0"/>
      <vel value="0.0157658319" flag="0"/>
      <psa03 value="0.0856091488" flag="0"/>
      <psa10 value="0.0097976660" flag="0"/>
      <psa30 value="0.0008236243" flag="0"/>
    </comp>
    <comp name="00.HNN">
      <acc value="0.0811085173" flag="0"/>
      <vel value="0.0296669017" flag="0"/>
      <psa03 value="0.1167624080" flag="0"/>
      <psa10 value="0.0205853328" flag="0"/>
      <psa30 value="0.0014034860" flag="0"/>
    </comp>
    <comp name="00.HNZ">
      <acc value="0.0442843971" flag="0"/>
      <vel value="0.0248272729" flag="0"/>
      <psa03 value="0.0783963345" flag="0"/>
      <psa10 value="0.0144386930" flag="0"/>
      <psa30 value="0.0015365497" flag="0"/>
    </comp>
  </station>
  <station code="CMBO" name="CMBO" netid="HT" insttype="120P," lat="36.4709" lon="25.4056">
    <comp name="--.HHE">
      <acc value="0.3646737336" flag="0"/>
      <vel value="0.0859173967" flag="0"/>
      <psa03 value="0.4173429940" flag="0"/>
      <psa10 value="0.0938618236" flag="0"/>
      <psa30 value="0.0094275060" flag="0"/>
    </comp>
    <comp name="--.HHN">
      <acc value="0.3417858130" flag="0"/>
      <vel value="0.1346643689" flag="0"/>
      <psa03 value="0.4763492537" flag="0"/>
      <psa10 value="0.1534295185" flag="0"/>
      <psa30 value="0.0079974342" flag="0"/>
    </comp>
    <comp name="--.HHZ">
      <acc value="0.3612521286" flag="0"/>
      <vel value="0.0727464755" flag="0"/>
      <psa03 value="0.3096712929" flag="0"/>
      <psa10 value="0.0553601953" flag="0"/>
      <psa30 value="0.0068963126" flag="0"/>
    </comp>
  </station>
</stationlist>
