<?xml version="1.0" encoding="UTF-8" standalone="yes"?>
<!DOCTYPE earthquake SYSTEM "stationlist.dtd">
<stationlist created="" xmlns="ch.ethz.sed.shakemap.usgs.xml">
  <station code="AMGA" name="AMGA" netid="HL" insttype="SMART24" lat="36.8316" lon="25.8938">
    <comp name="--.HHE">
      <acc value="0.0124883428" flag="0"/>
      <vel value="0.0015518077" flag="0"/>
      <psa03 value="0.0023556122" flag="0"/>
      <psa10 value="0.0001061780" flag="0"/>
      <psa30 value="0.0000174080" flag="0"/>
    </comp>
    <comp name="--.HHN">
      <acc value="0.0173026764" flag="0"/>
      <vel value="0.0015956688" flag="0"/>
      <psa03 value="0.0019413875" flag="0"/>
      <psa10 value="0.0001147477" flag="0"/>
      <psa30 value="0.0000172931" flag="0"/>
    </comp>
    <comp name="--.HHZ">
      <acc value="0.0083098369" flag="0"/>
      <vel value="0.0010362525" flag="0"/>
      <psa03 value="0.0023646891" flag="0"/>
      <psa10 value="0.0000859092" flag="0"/>
      <psa30 value="0.0000138129" flag="0"/>
    </comp>
  </station>
</stationlist>
