<?xml version="1.0" encoding="UTF-8" standalone="yes"?>
<!DOCTYPE earthquake SYSTEM "stationlist.dtd">
<stationlist created="" xmlns="ch.ethz.sed.shakemap.usgs.xml">
  <station code="BAYT" name="BAYT" netid="KO" insttype="CMG-3ESPC" lat="40.3937" lon="40.141">
    <comp name="--.HHE">
      <acc value="0.0044096273" flag="0"/>
      <vel value="0.0019819474" flag="0"/>
      <psa03 value="0.0100408921" flag="0"/>
      <psa10 value="0.0024756084" flag="0"/>
      <psa30 value="0.0001396444" flag="0"/>
    </comp>
    <comp name="--.HHN">
      <acc value="0.0047797151" flag="0"/>
      <vel value="0.0035181135" flag="0"/>
      <psa03 value="0.0159734613" flag="0"/>
      <psa10 value="0.0087337164" flag="0"/>
      <psa30 value="0.0007416722" flag="0"/>
    </comp>
    <comp name="--.HHZ">
      <acc value="0.0006630513" flag="0"/>
      <vel value="0.0004240575" flag="0"/>
      <psa03 value="0.0032630168" flag="0"/>
      <psa10 value="0.0002502904" flag="0"/>
      <psa30 value="0.0000265659" flag="0"/>
    </comp>
  </station>
  <station code="DYBB" name="DYBB" netid="KO" insttype="CMG-3T" lat="37.9532" lon="40.1393">
    <comp name="--.HHE">
      <acc value="0.0100967176" flag="0"/>
      <vel value="0.0106137178" flag="0"/>
      <psa03 value="0.0136429210" flag="0"/>
      <psa10 value="0.0196247921" flag="0"/>
      <psa30 value="0.0028907729" flag="0"/>
    </comp>
    <comp name="--.HHN">
      <acc value="0.0159597918" flag="0"/>
      <vel value="0.0128871896" flag="0"/>
      <psa03 value="0.0304919043" flag="0"/>
      <psa10 value="0.0198722869" flag="0"/>
      <psa30 value="0.0026167203" flag="0"/>
    </comp>
    <comp name="--.HHZ">
      <acc value="0.0085783719" flag="0"/>
      <vel value="0.0067851558" flag="0"/>
      <psa03 value="0.0171673746" flag="0"/>
      <psa10 value="0.0149263209" flag="0"/>
      <psa30 value="0.0010903150" flag="0"/>
    </comp>
  </station>
  <station code="ERZN" name="ERZN" netid="KO" insttype="CMG-3ESP" lat="39.5867" lon="39.722">
    <comp name="--.HHZ">
      <acc value="0.0223237107" flag="0"/>
      <vel value="0.0069965927" flag="0"/>
      <psa03 value="0.0250364819" flag="0"/>
      <psa10 value="0.0090992714" flag="0"/>
      <psa30 value="0.0010902247" flag="0"/>
    </comp>
  </station>
  <station code="SVAN" name="SVAN" netid="KO" insttype="CMG-3T" lat="38.1511" lon="41.1984">
    <comp name="--.HHZ">
      <acc value="0.0088516158" flag="0"/>
      <vel value="0.0065652846" flag="0"/>
      <psa03 value="0.0258939781" flag="0"/>
      <psa10 value="0.0102107907" flag="0"/>
      <psa30 value="0.0016430486" flag="0"/>
    </comp>
    <comp name="--.HHE">
      <acc value="0.0115148476" flag="0"/>
      <vel value="0.0116581779" flag="0"/>
      <psa03 value="0.0327126353" flag="0"/>
      <psa10 value="0.0171955444" flag="0"/>
      <psa30 value="0.0044419407" flag="0"/>
    </comp>
  </station>
  <station code="SVRC" name="SVRC" netid="KO" insttype="CMG-3T" lat="38.3775" lon="39.306">
    <comp name="--.HHZ">
      <acc value="0.0052853371" flag="0"/>
      <vel value="0.0048895891" flag="0"/>
      <psa03 value="0.0140077054" flag="0"/>
      <psa10 value="0.0076303811" flag="0"/>
      <psa30 value="0.0010789601" flag="0"/>
    </comp>
  </station>
</stationlist>
