<?xml version="1.0" encoding="UTF-8" standalone="yes"?>
<!DOCTYPE earthquake SYSTEM "stationlist.dtd">
<stationlist created="" xmlns="ch.ethz.sed.shakemap.usgs.xml">
  <station code="APE" name="APE" netid="GE" insttype="STS-2/N" lat="37.0727" lon="25.523">
    <comp name="--.HHZ">
      <acc value="0.0818860288" flag="0"/>
      <vel value="0.0148682636" flag="0"/>
      <psa03 value="0.0599063945" flag="0"/>
      <psa10 value="0.0061140878" flag="0"/>
      <psa30 value="0.0011000766" flag="0"/>
    </comp>
    <comp name="--.HHE">
      <acc value="0.1634832248" flag="0"/>
      <vel value="0.0462569886" flag="0"/>
      <psa03 value="0.1444605153" flag="0"/>
      <psa10 value="0.0078188619" flag="0"/>
      <psa30 value="0.0013016657" flag="0"/>
    </comp>
    <comp name="--.HHN">
      <acc value="0.1578999472" flag="0"/>
      <vel value="0.0322453763" flag="0"/>
      <psa03 value="0.1063314608" flag="0"/>
      <psa10 value="0.0060412462" flag="0"/>
      <psa30 value="0.0011100108" flag="0"/>
    </comp>
  </station>
  <station code="THERA" name="THERA" netid="GE" insttype="STS-2/N" lat="36.367" lon="25.4753">
    <comp name="--.HHE">
      <acc value="0.1559830404" flag="0"/>
      <vel value="0.0428216282" flag="0"/>
      <psa03 value="0.2094556407" flag="0"/>
      <psa10 value="0.0131395154" flag="0"/>
      <psa30 value="0.0014157214" flag="0"/>
    </comp>
    <comp name="--.HHZ">
      <acc value="0.1593148300" flag="0"/>
      <vel value="0.0340144216" flag="0"/>
      <psa03 value="0.1321979799" flag="0"/>
      <psa10 value="0.0139474594" flag="0"/>
      <psa30 value="0.0012957395" flag="0"/>
    </comp>
    <comp name="--.HHN">
      <acc value="0.1239586386" flag="0"/>
      <vel value="0.0288058243" flag="0"/>
      <psa03 value="0.1662695969" flag="0"/>
      <psa10 value="0.0049622350" flag="0"/>
      <psa30 value="0.0007012946" flag="0"/>
    </comp>
  </station>
</stationlist>
