<?xml version="1.0" encoding="UTF-8" standalone="yes"?>
<!DOCTYPE earthquake SYSTEM "stationlist.dtd">
<stationlist created="" xmlns="ch.ethz.sed.shakemap.usgs.xml">
  <station code="APE" name="APE" netid="GE" insttype="STS-2/N" lat="37.0727" lon="25.523">
    <comp name="--.HHN">
      <acc value="0.1578999470" flag="0"/>
      <vel value="0.0322453766" flag="0"/>
      <psa03 value="0.1063314608" flag="0"/>
      <psa10 value="0.0060412460" flag="0"/>
      <psa30 value="0.0011100085" flag="0"/>
    </comp>
    <comp name="--.HHE">
      <acc value="0.1634832250" flag="0"/>
      <vel value="0.0462569889" flag="0"/>
      <psa03 value="0.1444605153" flag="0"/>
      <psa10 value="0.0078188611" flag="0"/>
      <psa30 value="0.0013017247" flag="0"/>
    </comp>
    <comp name="--.HHZ">
      <acc value="0.0818860287" flag="0"/>
      <vel value="0.0148682632" flag="0"/>
      <psa03 value="0.0599063945" flag="0"/>
      <psa10 value="0.0061140877" flag="0"/>
      <psa30 value="0.0011001145" flag="0"/>
    </comp>
  </station>
  <station code="THERA" name="THERA" netid="GE" insttype="STS-2/N" lat="36.367" lon="25.4753">
    <comp name="--.HHE">
      <acc value="0.1559830404" flag="0"/>
      <vel value="0.0428216275" flag="0"/>
      <psa03 value="0.2094556407" flag="0"/>
      <psa10 value="0.0131395141" flag="0"/>
      <psa30 value="0.0014158442" flag="0"/>
    </comp>
    <comp name="--.HHN">
      <acc value="0.1239586383" flag="0"/>
      <vel value="0.0288058243" flag="0"/>
      <psa03 value="0.1662695969" flag="0"/>
      <psa10 value="0.0049622410" flag="0"/>
      <psa30 value="0.0007012689" flag="0"/>
    </comp>
    <comp name="--.HHZ">
      <acc value="0.1593148304" flag="0"/>
      <vel value="0.0340144212" flag="0"/>
      <psa03 value="0.1321979799" flag="0"/>
      <psa10 value="0.0139474633" flag="0"/>
      <psa30 value="0.0012957994" flag="0"/>
    </comp>
  </station>
</stationlist>
