<?xml version="1.0" encoding="UTF-8" standalone="yes"?>
<!DOCTYPE earthquake SYSTEM "stationlist.dtd">
<stationlist created="" xmlns="ch.ethz.sed.shakemap.usgs.xml">
  <station code="APE" name="APE" netid="GE" insttype="STS-2/N" lat="37.0727" lon="25.523">
    <comp name="--.HHZ">
      <acc value="0.0818860288" flag="0"/>
      <vel value="0.0148682636" flag="0"/>
      <psa03 value="0.0599063945" flag="0"/>
      <psa10 value="0.0061140878" flag="0"/>
      <psa30 value="0.0011000766" flag="0"/>
    </comp>
    <comp name="--.HHE">
      <acc value="0.1634832248" flag="0"/>
      <vel value="0.0462569886" flag="0"/>
      <psa03 value="0.1444605153" flag="0"/>
      <psa10 value="0.0078188619" flag="0"/>
      <psa30 value="0.0013016657" flag="0"/>
    </comp>
    <comp name="--.HHN">
      <acc value="0.1578999472" flag="0"/>
      <vel value="0.0322453763" flag="0"/>
      <psa03 value="0.1063314608" flag="0"/>
      <psa10 value="0.0060412462" flag="0"/>
      <psa30 value="0.0011100108" flag="0"/>
    </comp>
  </station>
  <station code="THERA" name="THERA" netid="GE" insttype="STS-2/N" lat="36.367" lon="25.4753">
    <comp name="--.HHE">
      <acc value="0.1559830404" flag="0"/>
      <vel value="0.0428216282" flag="0"/>
      <psa03 value="0.2094556407" flag="0"/>
      <psa10 value="0.0131395154" flag="0"/>
      <psa30 value="0.0014157214" flag="0"/>
    </comp>
    <comp name="--.HHZ">
      <acc value="0.1593148300" flag="0"/>
      <vel value="0.0340144216" flag="0"/>
      <psa03 value="0.1321979799" flag="0"/>
      <psa10 value="0.0139474594" flag="0"/>
      <psa30 value="0.0012957395" flag="0"/>
    </comp>
    <comp name="--.HHN">
      <acc value="0.1239586386" flag="0"/>
      <vel value="0.0288058243" flag="0"/>
      <psa03 value="0.1662695969" flag="0"/>
      <psa10 value="0.0049622350" flag="0"/>
      <psa30 value="0.0007012946" flag="0"/>
    </comp>
  </station>
  <station code="SNT1" name="SNT1" netid="HA" insttype="30" lat="36.4159" lon="25.4282">
    <comp name="--.HHE">
      <acc value="0.2741171993" flag="0"/>
      <vel value="0.0454719967" flag="0"/>
      <psa03 value="0.1706745260" flag="0"/>
      <psa10 value="0.0324234246" flag="0"/>
      <psa30 value="0.0028655177" flag="0"/>
    </comp>
    <comp name="--.HHN">
      <acc value="0.1370190055" flag="0"/>
      <vel value="0.0637699222" flag="0"/>
      <psa03 value="0.2630309275" flag="0"/>
      <psa10 value="0.0391955403" flag="0"/>
      <psa30 value="0.0021463695" flag="0"/>
    </comp>
    <comp name="--.HHZ">
      <acc value="0.1484070579" flag="0"/>
      <vel value="0.0310727058" flag="0"/>
      <psa03 value="0.1923395769" flag="0"/>
      <psa10 value="0.0121211786" flag="0"/>
      <psa30 value="0.0012893008" flag="0"/>
    </comp>
  </station>
  <station code="APE" name="APE" netid="HL" insttype="120" lat="37.0727" lon="25.523">
    <comp name="--.HHE">
      <acc value="0.1436666573" flag="0"/>
      <vel value="0.0448105598" flag="0"/>
      <psa03 value="0.1407193277" flag="0"/>
      <psa10 value="0.0077270414" flag="0"/>
      <psa30 value="0.0012976348" flag="0"/>
    </comp>
    <comp name="--.HHZ">
      <acc value="0.0729372901" flag="0"/>
      <vel value="0.0144170417" flag="0"/>
      <psa03 value="0.0582561428" flag="0"/>
      <psa10 value="0.0060691711" flag="0"/>
      <psa30 value="0.0010969661" flag="0"/>
    </comp>
  </station>
  <station code="MHLO" name="MHLO" netid="HL" insttype="20" lat="36.6898" lon="24.4017">
    <comp name="--.HHZ">
      <acc value="0.0582934667" flag="0"/>
      <vel value="0.0255807749" flag="0"/>
      <psa03 value="0.1018815514" flag="0"/>
      <psa10 value="0.0236869986" flag="0"/>
      <psa30 value="0.0018368417" flag="0"/>
    </comp>
    <comp name="--.HHN">
      <acc value="0.1431110192" flag="0"/>
      <vel value="0.0550010754" flag="0"/>
      <psa03 value="0.3909915958" flag="0"/>
      <psa10 value="0.0583968041" flag="0"/>
      <psa30 value="0.0022632427" flag="0"/>
    </comp>
    <comp name="--.HHE">
      <acc value="0.1325819712" flag="0"/>
      <vel value="0.0520583360" flag="0"/>
      <psa03 value="0.4143637108" flag="0"/>
      <psa10 value="0.0516225241" flag="0"/>
      <psa30 value="0.0021340522" flag="0"/>
    </comp>
  </station>
  <station code="SAP3" name="SAP3" netid="HL" insttype="LE3D20_SMART24" lat="36.4356" lon="25.3454">
    <comp name="--.HHE">
      <acc value="0.6097893752" flag="0"/>
      <vel value="0.1740795482" flag="0"/>
      <psa03 value="0.8952614971" flag="0"/>
      <psa10 value="0.1062987624" flag="0"/>
      <psa30 value="0.0109534377" flag="0"/>
    </comp>
    <comp name="--.HHN">
      <acc value="0.7592522913" flag="0"/>
      <vel value="0.2802756068" flag="0"/>
      <psa03 value="1.0612629045" flag="0"/>
      <psa10 value="0.1070180842" flag="0"/>
      <psa30 value="0.0092638038" flag="0"/>
    </comp>
    <comp name="--.HHZ">
      <acc value="0.5488945747" flag="0"/>
      <vel value="0.1174563836" flag="0"/>
      <psa03 value="0.6426006800" flag="0"/>
      <psa10 value="0.0340961996" flag="0"/>
      <psa30 value="0.0043949825" flag="0"/>
    </comp>
  </station>
  <station code="THERA" name="THERA" netid="HL" insttype="120" lat="36.367" lon="25.4753">
    <comp name="--.HHE">
      <acc value="0.1566078779" flag="0"/>
      <vel value="0.0416196545" flag="0"/>
      <psa03 value="0.2034976375" flag="0"/>
      <psa10 value="0.0129690051" flag="0"/>
      <psa30 value="0.0014072351" flag="0"/>
    </comp>
    <comp name="--.HHN">
      <acc value="0.1234140298" flag="0"/>
      <vel value="0.0279277735" flag="0"/>
      <psa03 value="0.1612267815" flag="0"/>
      <psa10 value="0.0048692360" flag="0"/>
      <psa30 value="0.0006883370" flag="0"/>
    </comp>
    <comp name="--.HHZ">
      <acc value="0.1605970014" flag="0"/>
      <vel value="0.0331210711" flag="0"/>
      <psa03 value="0.1279720264" flag="0"/>
      <psa10 value="0.0138130897" flag="0"/>
      <psa30 value="0.0012765803" flag="0"/>
    </comp>
  </station>
  <station code="THRA" name="THRA" netid="HL" insttype="CMG-5" lat="36.415" lon="25.4324">
    <comp name="00.HNE">
      <acc value="0.4151113796" flag="0"/>
      <vel value="0.1690677033" flag="0"/>
      <psa03 value="1.0826365042" flag="0"/>
      <psa10 value="0.0739431501" flag="0"/>
      <psa30 value="0.0056496923" flag="0"/>
    </comp>
    <comp name="00.HNN">
      <acc value="0.3510959914" flag="0"/>
      <vel value="0.1203970060" flag="0"/>
      <psa03 value="0.8357859590" flag="0"/>
      <psa10 value="0.1352804163" flag="0"/>
      <psa30 value="0.0052799297" flag="0"/>
    </comp>
    <comp name="00.HNZ">
      <acc value="0.3996075949" flag="0"/>
      <vel value="0.1314963793" flag="0"/>
      <psa03 value="0.5745465833" flag="0"/>
      <psa10 value="0.0382406320" flag="0"/>
      <psa30 value="0.0030552380" flag="0"/>
    </comp>
  </station>
  <station code="CMBO" name="CMBO" netid="HT" insttype="120P," lat="36.4709" lon="25.4056">
    <comp name="--.HHE">
      <acc value="0.7463937283" flag="0"/>
      <vel value="0.2222426984" flag="0"/>
      <psa03 value="0.6480869654" flag="0"/>
      <psa10 value="0.1043668485" flag="0"/>
      <psa30 value="0.0076964311" flag="0"/>
    </comp>
    <comp name="--.HHN">
      <acc value="0.6694297265" flag="0"/>
      <vel value="0.2379778124" flag="0"/>
      <psa03 value="0.9570899405" flag="0"/>
      <psa10 value="0.1157687974" flag="0"/>
      <psa30 value="0.0094008139" flag="0"/>
    </comp>
    <comp name="--.HHZ">
      <acc value="0.6987616537" flag="0"/>
      <vel value="0.1875599089" flag="0"/>
      <psa03 value="0.8090496056" flag="0"/>
      <psa10 value="0.0452539323" flag="0"/>
      <psa30 value="0.0050705914" flag="0"/>
    </comp>
  </station>
</stationlist>
