<?xml version="1.0" encoding="UTF-8" standalone="yes"?>
<!DOCTYPE earthquake SYSTEM "stationlist.dtd">
<stationlist created="" xmlns="ch.ethz.sed.shakemap.usgs.xml">
  <station code="ARPRA" name="ARPRA" netid="KO" insttype="CMG-5T" lat="39.0929" lon="38.3356">
    <comp name="--.HNE">
      <acc value="0.0400516690" flag="0"/>
      <vel value="0.0164372596" flag="0"/>
      <psa03 value="0.0813611394" flag="0"/>
      <psa10 value="0.0116540589" flag="0"/>
      <psa30 value="0.0009046977" flag="0"/>
    </comp>
    <comp name="--.HNN">
      <acc value="0.0381749579" flag="0"/>
      <vel value="0.0226826868" flag="0"/>
      <psa03 value="0.1051286501" flag="0"/>
      <psa10 value="0.0144501153" flag="0"/>
      <psa30 value="0.0009576833" flag="0"/>
    </comp>
    <comp name="--.HNZ">
      <acc value="0.0147063031" flag="0"/>
      <vel value="0.0077651635" flag="0"/>
      <psa03 value="0.0405074534" flag="0"/>
      <psa10 value="0.0072899233" flag="0"/>
      <psa30 value="0.0004706667" flag="0"/>
    </comp>
  </station>
  <station code="DARE" name="DARE" netid="KO" insttype="CMG-3ESP" lat="38.5712" lon="37.4832">
    <comp name="--.HHE">
      <acc value="0.0023497944" flag="0"/>
      <vel value="0.0021592159" flag="0"/>
      <psa03 value="0.0058656684" flag="0"/>
      <psa10 value="0.0022008007" flag="0"/>
      <psa30 value="0.0003027734" flag="0"/>
    </comp>
    <comp name="--.HHZ">
      <acc value="0.0031111803" flag="0"/>
      <vel value="0.0015562555" flag="0"/>
      <psa03 value="0.0060172933" flag="0"/>
      <psa10 value="0.0019982200" flag="0"/>
      <psa30 value="0.0002971850" flag="0"/>
    </comp>
    <comp name="--.HHN">
      <acc value="0.0029974677" flag="0"/>
      <vel value="0.0023052322" flag="0"/>
      <psa03 value="0.0076773171" flag="0"/>
      <psa10 value="0.0026264184" flag="0"/>
      <psa30 value="0.0001833496" flag="0"/>
    </comp>
  </station>
  <station code="SVRC" name="SVRC" netid="KO" insttype="CMG-3T" lat="38.3775" lon="39.306">
    <comp name="--.HHE">
      <acc value="0.0385124878" flag="0"/>
      <vel value="0.0171412482" flag="0"/>
      <psa03 value="0.0960795705" flag="0"/>
      <psa10 value="0.0092363161" flag="0"/>
      <psa30 value="0.0009416222" flag="0"/>
    </comp>
    <comp name="--.HHN">
      <acc value="0.0235119576" flag="0"/>
      <vel value="0.0105018954" flag="0"/>
      <psa03 value="0.0548627320" flag="0"/>
      <psa10 value="0.0060241268" flag="0"/>
      <psa30 value="0.0007411563" flag="0"/>
    </comp>
    <comp name="--.HHZ">
      <acc value="0.0162747147" flag="0"/>
      <vel value="0.0073702338" flag="0"/>
      <psa03 value="0.0491393129" flag="0"/>
      <psa10 value="0.0065324426" flag="0"/>
      <psa30 value="0.0007047167" flag="0"/>
    </comp>
  </station>
  <station code="URFA" name="URFA" netid="KO" insttype="CMG-3ESP" lat="37.4409" lon="38.8213">
    <comp name="--.HHN">
      <acc value="0.0552044481" flag="0"/>
      <vel value="0.0119144027" flag="0"/>
      <psa03 value="0.0587344614" flag="0"/>
      <psa10 value="0.0075911928" flag="0"/>
      <psa30 value="0.0014121399" flag="0"/>
    </comp>
    <comp name="--.HHE">
      <acc value="0.0507361279" flag="0"/>
      <vel value="0.0161594382" flag="0"/>
      <psa03 value="0.0856646584" flag="0"/>
      <psa10 value="0.0091867510" flag="0"/>
      <psa30 value="0.0011507917" flag="0"/>
    </comp>
  </station>
</stationlist>
