<?xml version="1.0" encoding="UTF-8" standalone="yes"?>
<!DOCTYPE earthquake SYSTEM "stationlist.dtd">
<stationlist created="" xmlns="ch.ethz.sed.shakemap.usgs.xml">
  <station code="ARPRA" name="ARPRA" netid="KO" insttype="CMG-5T" lat="39.0929" lon="38.3356">
    <comp name="--.HNE">
      <acc value="0.0400516697" flag="0"/>
      <vel value="0.0164372568" flag="0"/>
      <psa03 value="0.0813611394" flag="0"/>
      <psa10 value="0.0116540590" flag="0"/>
      <psa30 value="0.0009045719" flag="0"/>
    </comp>
    <comp name="--.HNZ">
      <acc value="0.0147062999" flag="0"/>
      <vel value="0.0077651634" flag="0"/>
      <psa03 value="0.0405074534" flag="0"/>
      <psa10 value="0.0072899232" flag="0"/>
      <psa30 value="0.0004701782" flag="0"/>
    </comp>
    <comp name="--.HNN">
      <acc value="0.0381749585" flag="0"/>
      <vel value="0.0226826861" flag="0"/>
      <psa03 value="0.1051286501" flag="0"/>
      <psa10 value="0.0144501156" flag="0"/>
      <psa30 value="0.0009584459" flag="0"/>
    </comp>
  </station>
  <station code="SVRC" name="SVRC" netid="KO" insttype="CMG-3T" lat="38.3775" lon="39.306">
    <comp name="--.HHE">
      <acc value="0.0385124878" flag="0"/>
      <vel value="0.0171412482" flag="0"/>
      <psa03 value="0.0960795705" flag="0"/>
      <psa10 value="0.0092363162" flag="0"/>
      <psa30 value="0.0009416248" flag="0"/>
    </comp>
    <comp name="--.HHZ">
      <acc value="0.0162747146" flag="0"/>
      <vel value="0.0073702337" flag="0"/>
      <psa03 value="0.0491393129" flag="0"/>
      <psa10 value="0.0065324427" flag="0"/>
      <psa30 value="0.0007047107" flag="0"/>
    </comp>
    <comp name="--.HHN">
      <acc value="0.0235119575" flag="0"/>
      <vel value="0.0105018954" flag="0"/>
      <psa03 value="0.0548627320" flag="0"/>
      <psa10 value="0.0060241268" flag="0"/>
      <psa30 value="0.0007411578" flag="0"/>
    </comp>
  </station>
  <station code="URFA" name="URFA" netid="KO" insttype="CMG-3ESP" lat="37.4409" lon="38.8213">
    <comp name="--.HHE">
      <acc value="0.0507361279" flag="0"/>
      <vel value="0.0161594378" flag="0"/>
      <psa03 value="0.0856646584" flag="0"/>
      <psa10 value="0.0091867510" flag="0"/>
      <psa30 value="0.0011508208" flag="0"/>
    </comp>
    <comp name="--.HHN">
      <acc value="0.0552044481" flag="0"/>
      <vel value="0.0119144025" flag="0"/>
      <psa03 value="0.0587344614" flag="0"/>
      <psa10 value="0.0075911928" flag="0"/>
      <psa30 value="0.0014121415" flag="0"/>
    </comp>
    <comp name="--.HHZ">
      <acc value="0.0331239657" flag="0"/>
      <vel value="0.0066206251" flag="0"/>
      <psa03 value="0.0630582086" flag="0"/>
      <psa10 value="0.0060093756" flag="0"/>
      <psa30 value="0.0008775533" flag="0"/>
    </comp>
  </station>
</stationlist>
