<?xml version="1.0" encoding="UTF-8" standalone="yes"?>
<!DOCTYPE earthquake SYSTEM "stationlist.dtd">
<stationlist created="" xmlns="ch.ethz.sed.shakemap.usgs.xml">
  <station code="GAZ" name="GAZ" netid="KO" insttype="CMG-3T" lat="37.1721" lon="37.2096">
    <comp name="--.HHE">
      <acc value="0.0687118105" flag="0"/>
      <vel value="0.0196394063" flag="0"/>
      <psa03 value="0.0778223884" flag="0"/>
      <psa10 value="0.0188283931" flag="0"/>
      <psa30 value="0.0020885317" flag="0"/>
    </comp>
    <comp name="--.HHZ">
      <acc value="0.0377906227" flag="0"/>
      <vel value="0.0146522234" flag="0"/>
      <psa03 value="0.0585172623" flag="0"/>
      <psa10 value="0.0237096566" flag="0"/>
      <psa30 value="0.0027658312" flag="0"/>
    </comp>
    <comp name="--.HHN">
      <acc value="0.0512307902" flag="0"/>
      <vel value="0.0275778348" flag="0"/>
      <psa03 value="0.0786584685" flag="0"/>
      <psa10 value="0.0406014707" flag="0"/>
      <psa30 value="0.0024867752" flag="0"/>
    </comp>
  </station>
  <station code="SARI" name="SARI" netid="KO" insttype="CMG-3T" lat="38.4072" lon="36.4181">
    <comp name="--.HHE">
      <acc value="0.0230959107" flag="0"/>
      <vel value="0.0075776817" flag="0"/>
      <psa03 value="0.0344197678" flag="0"/>
      <psa10 value="0.0047368604" flag="0"/>
      <psa30 value="0.0003562426" flag="0"/>
    </comp>
    <comp name="--.HHN">
      <acc value="0.0180120583" flag="0"/>
      <vel value="0.0068180071" flag="0"/>
      <psa03 value="0.0282279218" flag="0"/>
      <psa10 value="0.0050487006" flag="0"/>
      <psa30 value="0.0002570766" flag="0"/>
    </comp>
    <comp name="--.HHZ">
      <acc value="0.0148846998" flag="0"/>
      <vel value="0.0036787846" flag="0"/>
      <psa03 value="0.0204480929" flag="0"/>
      <psa10 value="0.0032478248" flag="0"/>
      <psa30 value="0.0002310280" flag="0"/>
    </comp>
  </station>
</stationlist>
