<?xml version="1.0" encoding="UTF-8" standalone="yes"?>
<!DOCTYPE earthquake SYSTEM "stationlist.dtd">
<stationlist created="" xmlns="ch.ethz.sed.shakemap.usgs.xml">
  <station code="BABD" name="BABD" netid="KO" insttype="CMG-6T" commtype="DIG" lat="37.802" lon="28.8531">
    <comp name="--.HHZ">
      <acc value="0.1191687072" flag="0"/>
      <vel value="0.0214833598" flag="0"/>
      <psa03 value="0.0551913326" flag="0"/>
      <psa10 value="0.0174251134" flag="0"/>
      <psa30 value="0.0009882053" flag="0"/>
    </comp>
    <comp name="--.HHN">
      <acc value="0.2174529477" flag="0"/>
      <vel value="0.0305903583" flag="0"/>
      <psa03 value="0.1325607494" flag="0"/>
      <psa10 value="0.0175067025" flag="0"/>
      <psa30 value="0.0014697167" flag="0"/>
    </comp>
    <comp name="--.HHE">
      <acc value="0.2417080761" flag="0"/>
      <vel value="0.0286982539" flag="0"/>
      <psa03 value="0.1034539285" flag="0"/>
      <psa10 value="0.0237737244" flag="0"/>
      <psa30 value="0.0015029905" flag="0"/>
    </comp>
  </station>
  <station code="BAKL" name="BAKL" netid="KO" insttype="CMG-6T" commtype="DIG" lat="37.9793" lon="29.6135">
    <comp name="--.HHN">
      <acc value="0.0224883966" flag="0"/>
      <vel value="0.0106273944" flag="0"/>
      <psa03 value="0.0601197837" flag="0"/>
      <psa10 value="0.0177437047" flag="0"/>
      <psa30 value="0.0011535921" flag="0"/>
    </comp>
    <comp name="--.HHE">
      <acc value="0.0288034553" flag="0"/>
      <vel value="0.0173979238" flag="0"/>
      <psa03 value="0.0689820498" flag="0"/>
      <psa10 value="0.0148806858" flag="0"/>
      <psa30 value="0.0010542696" flag="0"/>
    </comp>
    <comp name="--.HHZ">
      <acc value="0.0182507480" flag="0"/>
      <vel value="0.0089826435" flag="0"/>
      <psa03 value="0.0545520837" flag="0"/>
      <psa10 value="0.0098808924" flag="0"/>
      <psa30 value="0.0005168192" flag="0"/>
    </comp>
  </station>
  <station code="BASM" name="BASM" netid="KO" insttype="CMG-5T" commtype="DIG" lat="37.9194" lon="30.035">
    <comp name="--.HNZ">
      <acc value="0.0238902094" flag="0"/>
      <vel value="0.0214856231" flag="0"/>
      <psa03 value="0.0537210383" flag="0"/>
      <psa10 value="0.0256304267" flag="0"/>
      <psa30 value="0.0010076938" flag="0"/>
    </comp>
    <comp name="--.HNE">
      <acc value="0.0332375898" flag="0"/>
      <vel value="0.0216179322" flag="0"/>
      <psa03 value="0.0754550135" flag="0"/>
      <psa10 value="0.0326456061" flag="0"/>
      <psa30 value="0.0013439120" flag="0"/>
    </comp>
    <comp name="--.HNN">
      <acc value="0.0322915337" flag="0"/>
      <vel value="0.0194740843" flag="0"/>
      <psa03 value="0.0729361742" flag="0"/>
      <psa10 value="0.0295000589" flag="0"/>
      <psa30 value="0.0017512697" flag="0"/>
    </comp>
  </station>
  <station code="GEDZ" name="GEDZ" netid="KO" insttype="CMG-6T" commtype="DIG" lat="39.0445" lon="29.4105">
    <comp name="--.HHN">
      <acc value="0.0687794524" flag="0"/>
      <vel value="0.0349267048" flag="0"/>
      <psa03 value="0.3043901366" flag="0"/>
      <psa10 value="0.0226191680" flag="0"/>
      <psa30 value="0.0015828385" flag="0"/>
    </comp>
    <comp name="--.HHE">
      <acc value="0.0666216214" flag="0"/>
      <vel value="0.0341810898" flag="0"/>
      <psa03 value="0.3726132444" flag="0"/>
      <psa10 value="0.0175448680" flag="0"/>
      <psa30 value="0.0014885060" flag="0"/>
    </comp>
    <comp name="--.HHZ">
      <acc value="0.0261481640" flag="0"/>
      <vel value="0.0172912813" flag="0"/>
      <psa03 value="0.0746570800" flag="0"/>
      <psa10 value="0.0139185238" flag="0"/>
      <psa30 value="0.0008576548" flag="0"/>
    </comp>
  </station>
  <station code="GORD" name="GORD" netid="KO" insttype="CMG-5T" commtype="DIG" lat="38.9088" lon="28.1769">
    <comp name="--.HNE">
      <acc value="0.0117691068" flag="0"/>
      <vel value="0.0104397829" flag="0"/>
      <psa03 value="0.0285052597" flag="0"/>
      <psa10 value="0.0174924307" flag="0"/>
      <psa30 value="0.0009616611" flag="0"/>
    </comp>
    <comp name="--.HNN">
      <acc value="0.0146121805" flag="0"/>
      <vel value="0.0147833477" flag="0"/>
      <psa03 value="0.0345132443" flag="0"/>
      <psa10 value="0.0218013709" flag="0"/>
      <psa30 value="0.0021057383" flag="0"/>
    </comp>
    <comp name="--.HNZ">
      <acc value="0.0079831131" flag="0"/>
      <vel value="0.0079919503" flag="0"/>
      <psa03 value="0.0162261787" flag="0"/>
      <psa10 value="0.0098717828" flag="0"/>
      <psa30 value="0.0006488278" flag="0"/>
    </comp>
  </station>
  <station code="KHL" name="KHL" netid="KO" insttype="CMG-5T" commtype="DIG" lat="38.3231" lon="29.5286">
    <comp name="--.HNN">
      <acc value="0.0889940081" flag="0"/>
      <vel value="0.0401896321" flag="0"/>
      <psa03 value="0.2677747210" flag="0"/>
      <psa10 value="0.0147320768" flag="0"/>
      <psa30 value="0.0014658010" flag="0"/>
    </comp>
    <comp name="--.HNE">
      <acc value="0.1050575332" flag="0"/>
      <vel value="0.0397238978" flag="0"/>
      <psa03 value="0.3732770821" flag="0"/>
      <psa10 value="0.0110094499" flag="0"/>
      <psa30 value="0.0014554773" flag="0"/>
    </comp>
    <comp name="--.HNZ">
      <acc value="0.0585549586" flag="0"/>
      <vel value="0.0176114223" flag="0"/>
      <psa03 value="0.2343806731" flag="0"/>
      <psa10 value="0.0073158591" flag="0"/>
      <psa30 value="0.0006960244" flag="0"/>
    </comp>
  </station>
  <station code="NAZL" name="NAZL" netid="KO" insttype="CMG-5T" commtype="DIG" lat="37.9641" lon="28.2922">
    <comp name="--.HNE">
      <acc value="0.2518799176" flag="0"/>
      <vel value="0.0993106010" flag="0"/>
      <psa03 value="0.8033900921" flag="0"/>
      <psa10 value="0.0294961197" flag="0"/>
      <psa30 value="0.0026709996" flag="0"/>
    </comp>
    <comp name="--.HNN">
      <acc value="0.1945946582" flag="0"/>
      <vel value="0.0565902104" flag="0"/>
      <psa03 value="0.4164658286" flag="0"/>
      <psa10 value="0.0169115768" flag="0"/>
      <psa30 value="0.0011368343" flag="0"/>
    </comp>
    <comp name="--.HNZ">
      <acc value="0.1036124993" flag="0"/>
      <vel value="0.0302236413" flag="0"/>
      <psa03 value="0.2371933009" flag="0"/>
      <psa10 value="0.0085216895" flag="0"/>
      <psa30 value="0.0007472192" flag="0"/>
    </comp>
  </station>
  <station code="ODEM" name="ODEM" netid="KO" insttype="CMG-5T" commtype="DIG" lat="38.2762" lon="28.0747">
    <comp name="--.HNN">
      <acc value="0.0421715538" flag="0"/>
      <vel value="0.0087935775" flag="0"/>
      <psa03 value="0.0334444721" flag="0"/>
      <psa10 value="0.0070956340" flag="0"/>
      <psa30 value="0.0004322531" flag="0"/>
    </comp>
    <comp name="--.HNE">
      <acc value="0.0263483969" flag="0"/>
      <vel value="0.0071842651" flag="0"/>
      <psa03 value="0.0241054809" flag="0"/>
      <psa10 value="0.0096255284" flag="0"/>
      <psa30 value="0.0004304191" flag="0"/>
    </comp>
    <comp name="--.HNZ">
      <acc value="0.0191331062" flag="0"/>
      <vel value="0.0054647911" flag="0"/>
      <psa03 value="0.0160627238" flag="0"/>
      <psa10 value="0.0043285286" flag="0"/>
      <psa30 value="0.0004592034" flag="0"/>
    </comp>
  </station>
  <station code="SERH" name="SERH" netid="KO" insttype="CMG-6T" commtype="DIG" lat="37.582" lon="29.2588">
    <comp name="--.HHE">
      <acc value="0.0574951956" flag="0"/>
      <vel value="0.0129350763" flag="0"/>
      <psa03 value="0.0511025875" flag="0"/>
      <psa10 value="0.0096856559" flag="0"/>
      <psa30 value="0.0011088931" flag="0"/>
    </comp>
    <comp name="--.HHN">
      <acc value="0.0493759097" flag="0"/>
      <vel value="0.0127171478" flag="0"/>
      <psa03 value="0.0735167226" flag="0"/>
      <psa10 value="0.0093978286" flag="0"/>
      <psa30 value="0.0008656691" flag="0"/>
    </comp>
    <comp name="--.HHZ">
      <acc value="0.0271970070" flag="0"/>
      <vel value="0.0079486662" flag="0"/>
      <psa03 value="0.0246333596" flag="0"/>
      <psa10 value="0.0098889930" flag="0"/>
      <psa30 value="0.0006410245" flag="0"/>
    </comp>
  </station>
  <station code="SHAP" name="SHAP" netid="KO" insttype="CMG-5T" commtype="DIG" lat="39.0231" lon="29.222">
    <comp name="--.HNN">
      <acc value="0.0371002049" flag="0"/>
      <vel value="0.0111938298" flag="0"/>
      <psa03 value="0.0614956630" flag="0"/>
      <psa10 value="0.0073214106" flag="0"/>
      <psa30 value="0.0009745523" flag="0"/>
    </comp>
    <comp name="--.HNE">
      <acc value="0.0258742387" flag="0"/>
      <vel value="0.0086122240" flag="0"/>
      <psa03 value="0.0450218947" flag="0"/>
      <psa10 value="0.0104233864" flag="0"/>
      <psa30 value="0.0006079640" flag="0"/>
    </comp>
    <comp name="--.HNZ">
      <acc value="0.0206864618" flag="0"/>
      <vel value="0.0087016094" flag="0"/>
      <psa03 value="0.0477861644" flag="0"/>
      <psa10 value="0.0059152678" flag="0"/>
      <psa30 value="0.0004775146" flag="0"/>
    </comp>
  </station>
  <station code="SIMA" name="SIMA" netid="KO" insttype="CMG-6T" commtype="DIG" lat="39.0833" lon="28.9825">
    <comp name="--.HHE">
      <acc value="0.0240686405" flag="0"/>
      <vel value="0.0095363219" flag="0"/>
      <psa03 value="0.0509670548" flag="0"/>
      <psa10 value="0.0060716866" flag="0"/>
      <psa30 value="0.0006692247" flag="0"/>
    </comp>
    <comp name="--.HHN">
      <acc value="0.0318891752" flag="0"/>
      <vel value="0.0116758250" flag="0"/>
      <psa03 value="0.0973175651" flag="0"/>
      <psa10 value="0.0070205628" flag="0"/>
      <psa30 value="0.0006181977" flag="0"/>
    </comp>
    <comp name="--.HHZ">
      <acc value="0.0185979554" flag="0"/>
      <vel value="0.0055320289" flag="0"/>
      <psa03 value="0.0281776945" flag="0"/>
      <psa10 value="0.0034553477" flag="0"/>
      <psa30 value="0.0005311271" flag="0"/>
    </comp>
  </station>
  <station code="SMAA" name="SMAA" netid="KO" insttype="CMG-5T" commtype="DIG" lat="39.1005" lon="28.9805">
    <comp name="--.HNN">
      <acc value="0.0312953530" flag="0"/>
      <vel value="0.0204956573" flag="0"/>
      <psa03 value="0.0737643883" flag="0"/>
      <psa10 value="0.0361951232" flag="0"/>
      <psa30 value="0.0022885485" flag="0"/>
    </comp>
    <comp name="--.HNZ">
      <acc value="0.0149536682" flag="0"/>
      <vel value="0.0086918271" flag="0"/>
      <psa03 value="0.0338679959" flag="0"/>
      <psa10 value="0.0169439717" flag="0"/>
      <psa30 value="0.0008770940" flag="0"/>
    </comp>
    <comp name="--.HNE">
      <acc value="0.0341185778" flag="0"/>
      <vel value="0.0255926378" flag="0"/>
      <psa03 value="0.0900251040" flag="0"/>
      <psa10 value="0.0510478174" flag="0"/>
      <psa30 value="0.0028848103" flag="0"/>
    </comp>
  </station>
</stationlist>
