<stationlist created="1739287500">
	<station code="T1811" name="T1811" netid="3Q" source="XVIII-INGV SISMIKO Emergency Seismic Network (XVIII-ISESN) (XVIII-ISESN)" insttype="" lat="39.56904" lon="16.77169">
		<comp name="00.EHE" depth="0.0">
			<acc value="0.24690726230778" flag="0"/>
			<vel value="2.52298718663" flag="0"/>
			<psa03 value="0.172022874837791" flag="0"/>
			<psa10 value="0.179887176642528" flag="0"/>
			<psa30 value="0.22719742404759" flag="0"/>
		</comp>
		<comp name="00.EHN" depth="0.0">
			<acc value="0.00052751964873726" flag="0"/>
			<vel value="0.000549574976701" flag="0"/>
			<psa03 value="0.000779515669035773" flag="0"/>
			<psa10 value="0.00079143004554294" flag="0"/>
			<psa30 value="0.000377622124987431" flag="0"/>
		</comp>
		<comp name="00.EHZ" depth="0.0">
			<acc value="0.00029734872944604" flag="0"/>
			<vel value="0.00029926096248" flag="0"/>
			<psa03 value="0.000795619437655239" flag="0"/>
			<psa10 value="0.000386760572161731" flag="0"/>
			<psa30 value="0.000134950827850835" flag="0"/>
		</comp>
		<comp name="00.HNE" depth="0.0">
			<acc value="0.00035668205053068" flag="0"/>
			<vel value="0.000158168378572" flag="0"/>
			<psa03 value="0.000286954169624265" flag="0"/>
			<psa10 value="0.000153359334107778" flag="0"/>
			<psa30 value="9.11565269540005e-05" flag="0"/>
		</comp>
		<comp name="00.HNN" depth="0.0">
			<acc value="0.0021007449579366" flag="0"/>
			<vel value="0.00033810623244" flag="0"/>
			<psa03 value="0.00085921976089058" flag="0"/>
			<psa10 value="0.00044121734371954" flag="0"/>
			<psa30 value="0.00021333936706124" flag="0"/>
		</comp>
		<comp name="00.HNZ" depth="0.0">
			<acc value="0.0011501329784178" flag="0"/>
			<vel value="0.000270687088948" flag="0"/>
			<psa03 value="0.000477032007928401" flag="0"/>
			<psa10 value="0.000268719334540247" flag="0"/>
			<psa30 value="9.8435941470892e-05" flag="0"/>
		</comp>
	</station>
	<station code="T1812" name="T1812" netid="3Q" source="XVIII-INGV SISMIKO Emergency Seismic Network (XVIII-ISESN) (XVIII-ISESN)" insttype="" lat="39.48464" lon="16.50149">
		<comp name="01.EHE" depth="0.0">
			<acc value="0.00036623632766298" flag="0"/>
			<vel value="0.00018851606435" flag="0"/>
			<psa03 value="0.000420366307491128" flag="0"/>
			<psa10 value="0.0002820194734215" flag="0"/>
			<psa30 value="7.1644023408468e-05" flag="0"/>
		</comp>
		<comp name="01.EHN" depth="0.0">
			<acc value="0.00033303513084582" flag="0"/>
			<vel value="0.0001638790233" flag="0"/>
			<psa03 value="0.000342635083960655" flag="0"/>
			<psa10 value="0.000245785657093382" flag="0"/>
			<psa30 value="7.30991328234327e-05" flag="0"/>
		</comp>
		<comp name="01.EHZ" depth="0.0">
			<acc value="0.00018568626558228" flag="0"/>
			<vel value="0.000100217146516" flag="0"/>
			<psa03 value="0.000207446562954612" flag="0"/>
			<psa10 value="0.000108383893768198" flag="0"/>
			<psa30 value="4.77869091379835e-05" flag="0"/>
		</comp>
		<comp name="01.HNE" depth="0.0">
			<acc value="0.20237163189054" flag="0"/>
			<vel value="0.707819824538" flag="0"/>
			<psa03 value="0.339118860793646" flag="0"/>
			<psa10 value="0.304137557620465" flag="0"/>
			<psa30 value="0.230254853253973" flag="0"/>
		</comp>
		<comp name="01.HNN" depth="0.0">
			<acc value="0.01434466956366" flag="0"/>
			<vel value="0.00914447970546" flag="0"/>
			<psa03 value="0.015496418488757" flag="0"/>
			<psa10 value="0.00843544505683471" flag="0"/>
			<psa30 value="0.00377219738956201" flag="0"/>
		</comp>
		<comp name="01.HNZ" depth="0.0">
			<acc value="0.010783849349868" flag="0"/>
			<vel value="0.0264483305269" flag="0"/>
			<psa03 value="0.0169889483511316" flag="0"/>
			<psa10 value="0.0123583380542465" flag="0"/>
			<psa30 value="0.00833255699098793" flag="0"/>
		</comp>
	</station>
	<station code="T1813" name="T1813" netid="3Q" source="XVIII-INGV SISMIKO Emergency Seismic Network (XVIII-ISESN) (XVIII-ISESN)" insttype="" lat="39.31469" lon="16.75119">
		<comp name="00.EHE" depth="0.0">
			<acc value="0.00087030269717004" flag="0"/>
			<vel value="0.000328701763644" flag="0"/>
			<psa03 value="0.000208825865752705" flag="0"/>
			<psa10 value="0.000165370105348617" flag="0"/>
			<psa30 value="8.28235856144377e-05" flag="0"/>
		</comp>
		<comp name="00.EHN" depth="0.0">
			<acc value="0.0012269741244354" flag="0"/>
			<vel value="0.000236767606411" flag="0"/>
			<psa03 value="0.000198205818150856" flag="0"/>
			<psa10 value="0.000215782160720099" flag="0"/>
			<psa30 value="6.44468734558235e-05" flag="0"/>
		</comp>
		<comp name="00.EHZ" depth="0.0">
			<acc value="0.0011515794366132" flag="0"/>
			<vel value="0.00012248215365" flag="0"/>
			<psa03 value="0.000183737452466077" flag="0"/>
			<psa10 value="0.000107365239861758" flag="0"/>
			<psa30 value="4.38859964245986e-05" flag="0"/>
		</comp>
		<comp name="00.HNE" depth="0.0">
			<acc value="0.004366843466853" flag="0"/>
			<vel value="0.000223114906082" flag="0"/>
			<psa03 value="0.000445444628963213" flag="0"/>
			<psa10 value="0.000231309800678259" flag="0"/>
			<psa30 value="0.00010141501902839" flag="0"/>
		</comp>
		<comp name="00.HNN" depth="0.0">
			<acc value="0.0021746294029752" flag="0"/>
			<vel value="0.000300252974049" flag="0"/>
			<psa03 value="0.000329024766653757" flag="0"/>
			<psa10 value="0.000286716776782551" flag="0"/>
			<psa30 value="8.494654526054e-05" flag="0"/>
		</comp>
		<comp name="00.HNZ" depth="0.0">
			<acc value="0.0017225485304616" flag="0"/>
			<vel value="0.000223078517198" flag="0"/>
			<psa03 value="0.000274870747900421" flag="0"/>
			<psa10 value="0.000152606193395796" flag="0"/>
			<psa30 value="7.58008222138333e-05" flag="0"/>
		</comp>
	</station>
	<station code="T1886" name="T1886" netid="3Q" source="XVIII-INGV SISMIKO Emergency Seismic Network (XVIII-ISESN) (XVIII-ISESN)" insttype="" lat="39.287" lon="16.97583">
		<comp name="00.EHE" depth="0.0">
			<acc value="0.00030283275747234" flag="0"/>
			<vel value="0.000234116724572" flag="0"/>
			<psa03 value="0.00062686810571177" flag="0"/>
			<psa10 value="0.000353893160481976" flag="0"/>
			<psa30 value="0.000145643684637459" flag="0"/>
		</comp>
		<comp name="00.EHN" depth="0.0">
			<acc value="0.0002292373053087" flag="0"/>
			<vel value="9.08628636364e-05" flag="0"/>
			<psa03 value="0.000293400193972751" flag="0"/>
			<psa10 value="4.30852638552622e-05" flag="0"/>
			<psa30 value="2.44489373304592e-05" flag="0"/>
		</comp>
		<comp name="00.EHZ" depth="0.0">
			<acc value="0.0003691433236095" flag="0"/>
			<vel value="0.000151572506389" flag="0"/>
			<psa03 value="0.000183429733513713" flag="0"/>
			<psa10 value="0.000163363898228385" flag="0"/>
			<psa30 value="6.96591653588761e-05" flag="0"/>
		</comp>
		<comp name="00.HNE" depth="0.0">
			<acc value="0.012871928540394" flag="0"/>
			<vel value="0.00972858123096" flag="0"/>
			<psa03 value="0.0155582988901072" flag="0"/>
			<psa10 value="0.00739406997709008" flag="0"/>
			<psa30 value="0.00430147411821659" flag="0"/>
		</comp>
		<comp name="00.HNN" depth="0.0">
			<acc value="0.013629453333204" flag="0"/>
			<vel value="0.00826517432126" flag="0"/>
			<psa03 value="0.0170616081123716" flag="0"/>
			<psa10 value="0.00716973199080838" flag="0"/>
			<psa30 value="0.00454526360141826" flag="0"/>
		</comp>
		<comp name="00.HNZ" depth="0.0">
			<acc value="0.01329186410028" flag="0"/>
			<vel value="0.00971622215923" flag="0"/>
			<psa03 value="0.020040334084178" flag="0"/>
			<psa10 value="0.00779136238953816" flag="0"/>
			<psa30 value="0.00389030896387765" flag="0"/>
		</comp>
	</station>
	<station code="CSMBE" name="CSMBE" netid="7C" source="Urban Seismic Network (RUSN-CAL-INGV)" insttype="" lat="39.2895" lon="16.2642">
		<comp name=".HNE" depth="0.0">
			<acc value="0.002336621883258" flag="0"/>
			<vel value="0.000314402728024" flag="0"/>
			<psa03 value="0.000776266755894088" flag="0"/>
			<psa10 value="0.000378686756061141" flag="0"/>
			<psa30 value="8.90879589315438e-05" flag="0"/>
		</comp>
		<comp name=".HNN" depth="0.0">
			<acc value="0.0019485784043736" flag="0"/>
			<vel value="0.000260814787076" flag="0"/>
			<psa03 value="0.00128076233445463" flag="0"/>
			<psa10 value="0.000212208408351333" flag="0"/>
			<psa30 value="7.96593004751615e-05" flag="0"/>
		</comp>
		<comp name=".HNZ" depth="0.0">
			<acc value="0.0019806072000144" flag="0"/>
			<vel value="0.000234488527327" flag="0"/>
			<psa03 value="0.00054295894199719" flag="0"/>
			<psa10 value="0.000180463683348993" flag="0"/>
			<psa30 value="6.37347429473469e-05" flag="0"/>
		</comp>
	</station>
	<station code="SPAOL" name="SPAOL" netid="7C" source="Urban Seismic Network (RUSN-CAL-INGV)" insttype="" lat="37.54939" lon="15.071367">
		<comp name=".HNE" depth="0.0">
			<acc value="0.035313058188252" flag="0"/>
			<vel value="0.00484069291756" flag="0"/>
			<psa03 value="0.0185016501226858" flag="0"/>
			<psa10 value="0.000884838303695081" flag="0"/>
			<psa30 value="0.000150826749344589" flag="0"/>
		</comp>
		<comp name=".HNN" depth="0.0">
			<acc value="0.025394010239604" flag="0"/>
			<vel value="0.00209220449801" flag="0"/>
			<psa03 value="0.00426939903767189" flag="0"/>
			<psa10 value="0.000491724254007604" flag="0"/>
			<psa30 value="0.000365265837694216" flag="0"/>
		</comp>
		<comp name=".HNZ" depth="0.0">
			<acc value="0.049212840396534" flag="0"/>
			<vel value="0.00344931043207" flag="0"/>
			<psa03 value="0.0175822571861877" flag="0"/>
			<psa10 value="0.000502821707907009" flag="0"/>
			<psa30 value="0.000238054936637738" flag="0"/>
		</comp>
	</station>
	<station code="BRICA" name="BRICA" netid="IV" source="Italian National Seismic Network (INSN)" insttype="" lat="38.72384" lon="16.02905">
		<comp name=".EHE" depth="0.0">
			<acc value="0.0067303028180628" flag="0"/>
			<vel value="0.000540410134194" flag="0"/>
			<psa03 value="0.000758673223872993" flag="0"/>
			<psa10 value="0.000182655337324405" flag="0"/>
			<psa30 value="2.95925332767489e-05" flag="0"/>
		</comp>
		<comp name=".EHN" depth="0.0">
			<acc value="0.0072371939559522" flag="0"/>
			<vel value="0.00052019945077" flag="0"/>
			<psa03 value="0.000951431680022194" flag="0"/>
			<psa10 value="0.000148632263150318" flag="0"/>
			<psa30 value="5.41918581739272e-05" flag="0"/>
		</comp>
		<comp name=".EHZ" depth="0.0">
			<acc value="0.005527524791142" flag="0"/>
			<vel value="0.000459474407728" flag="0"/>
			<psa03 value="0.000280831510610458" flag="0"/>
			<psa10 value="9.43390302593296e-05" flag="0"/>
			<psa30 value="2.83444427843731e-05" flag="0"/>
		</comp>
		<comp name=".HNE" depth="0.0">
			<acc value="0.0088107661028436" flag="0"/>
			<vel value="0.000651580960586" flag="0"/>
			<psa03 value="0.00093743441488358" flag="0"/>
			<psa10 value="0.000155293129204681" flag="0"/>
			<psa30 value="6.84357184263941e-05" flag="0"/>
		</comp>
		<comp name=".HNN" depth="0.0">
			<acc value="0.0063036903290172" flag="0"/>
			<vel value="0.000488518988948" flag="0"/>
			<psa03 value="0.000680062059236949" flag="0"/>
			<psa10 value="0.000182085709745764" flag="0"/>
			<psa30 value="4.19217582305417e-05" flag="0"/>
		</comp>
		<comp name=".HNZ" depth="0.0">
			<acc value="0.0057958249841094" flag="0"/>
			<vel value="0.000486368809071" flag="0"/>
			<psa03 value="0.000309957626270496" flag="0"/>
			<psa10 value="0.000116434160945637" flag="0"/>
			<psa30 value="6.55490623556513e-05" flag="0"/>
		</comp>
	</station>
	<station code="CELI" name="CELI" netid="IV" source="Italian National Seismic Network (INSN)" insttype="" lat="39.4027" lon="16.5088">
		<comp name=".HHE" depth="0.0">
			<acc value="7.9853037799812e-05" flag="0"/>
			<vel value="0.000122028840981" flag="0"/>
			<psa03 value="0.00024187460454843" flag="0"/>
			<psa10 value="0.000163230339576029" flag="0"/>
			<psa30 value="4.11104968061743e-05" flag="0"/>
		</comp>
		<comp name=".HHN" depth="0.0">
			<acc value="8.5763971985316e-05" flag="0"/>
			<vel value="0.000141684964026" flag="0"/>
			<psa03 value="0.000255394665225162" flag="0"/>
			<psa10 value="0.000171653617303529" flag="0"/>
			<psa30 value="7.50207379846655e-05" flag="0"/>
		</comp>
		<comp name=".HHZ" depth="0.0">
			<acc value="5.8985856379302e-05" flag="0"/>
			<vel value="0.000113850306037" flag="0"/>
			<psa03 value="0.000107950612298746" flag="0"/>
			<psa10 value="0.000121340767722365" flag="0"/>
			<psa30 value="5.92128027660321e-05" flag="0"/>
		</comp>
		<comp name=".HNE" depth="0.0">
			<acc value="0.00010453705871736" flag="0"/>
			<vel value="0.000125010750654" flag="0"/>
			<psa03 value="0.000259684215337416" flag="0"/>
			<psa10 value="0.000169899658338895" flag="0"/>
			<psa30 value="4.46476842524803e-05" flag="0"/>
		</comp>
		<comp name=".HNN" depth="0.0">
			<acc value="0.00010713443585484" flag="0"/>
			<vel value="0.000157346960946" flag="0"/>
			<psa03 value="0.000267874414473383" flag="0"/>
			<psa10 value="0.000175559325256197" flag="0"/>
			<psa30 value="7.16043658337251e-05" flag="0"/>
		</comp>
		<comp name=".HNZ" depth="0.0">
			<acc value="9.1229331024342e-05" flag="0"/>
			<vel value="0.000119723395803" flag="0"/>
			<psa03 value="0.000122562389583327" flag="0"/>
			<psa10 value="0.000108435488983169" flag="0"/>
			<psa30 value="6.19664096581985e-05" flag="0"/>
		</comp>
	</station>
	<station code="EFIU" name="EFIU" netid="IV" source="Italian National Seismic Network (INSN)" insttype="" lat="37.7896" lon="15.2103">
		<comp name=".HHE" depth="0.0">
			<acc value="0.00014648786099082" flag="0"/>
			<vel value="0.000176758316117" flag="0"/>
			<psa03 value="0.000287045524960164" flag="0"/>
			<psa10 value="0.000253918129423637" flag="0"/>
			<psa30 value="7.7686975808011e-05" flag="0"/>
		</comp>
		<comp name=".HHN" depth="0.0">
			<acc value="0.0002114358629544" flag="0"/>
			<vel value="0.00015251493007" flag="0"/>
			<psa03 value="0.00036930404628632" flag="0"/>
			<psa10 value="0.000253221667271001" flag="0"/>
			<psa30 value="7.96666642441698e-05" flag="0"/>
		</comp>
		<comp name=".HHZ" depth="0.0">
			<acc value="0.00011451795757452" flag="0"/>
			<vel value="0.000151122940419" flag="0"/>
			<psa03 value="0.000337894332083197" flag="0"/>
			<psa10 value="0.000202720704642582" flag="0"/>
			<psa30 value="7.18971977322621e-05" flag="0"/>
		</comp>
		<comp name=".HNE" depth="0.0">
			<acc value="0.00026700030574668" flag="0"/>
			<vel value="0.000269775356049" flag="0"/>
			<psa03 value="0.000463259122888888" flag="0"/>
			<psa10 value="0.00029658121931566" flag="0"/>
			<psa30 value="0.000113246655681113" flag="0"/>
		</comp>
		<comp name=".HNN" depth="0.0">
			<acc value="0.00035199679886088" flag="0"/>
			<vel value="0.000486786759508" flag="0"/>
			<psa03 value="0.00042789264429031" flag="0"/>
			<psa10 value="0.000251202422177443" flag="0"/>
			<psa30 value="0.000200745199425742" flag="0"/>
		</comp>
		<comp name=".HNZ" depth="0.0">
			<acc value="0.00024064632525414" flag="0"/>
			<vel value="0.000289190028058" flag="0"/>
			<psa03 value="0.000391310346218243" flag="0"/>
			<psa10 value="0.000255556958691362" flag="0"/>
			<psa30 value="9.01347860915424e-05" flag="0"/>
		</comp>
	</station>
	<station code="EPOZ" name="EPOZ" netid="IV" source="Italian National Seismic Network (INSN)" insttype="" lat="37.6719" lon="15.1885">
		<comp name=".HHE" depth="0.0">
			<acc value="0.0027443463332058" flag="0"/>
			<vel value="0.00048275397009" flag="0"/>
			<psa03 value="0.00136282546930092" flag="0"/>
			<psa10 value="0.000227634161677204" flag="0"/>
			<psa30 value="7.96902856008822e-05" flag="0"/>
		</comp>
		<comp name=".HHN" depth="0.0">
			<acc value="0.0018121972211766" flag="0"/>
			<vel value="0.00039028146017" flag="0"/>
			<psa03 value="0.0014739339039075" flag="0"/>
			<psa10 value="0.000252693321723651" flag="0"/>
			<psa30 value="6.99217543691064e-05" flag="0"/>
		</comp>
		<comp name=".HHZ" depth="0.0">
			<acc value="0.0011902530954798" flag="0"/>
			<vel value="0.000263526563098" flag="0"/>
			<psa03 value="0.000813430676153173" flag="0"/>
			<psa10 value="0.000134825254753647" flag="0"/>
			<psa30 value="3.62274161645865e-05" flag="0"/>
		</comp>
		<comp name=".HNE" depth="0.0">
			<acc value="0.0026539590889488" flag="0"/>
			<vel value="0.000466183117383" flag="0"/>
			<psa03 value="0.00139313916363058" flag="0"/>
			<psa10 value="0.000324234496522299" flag="0"/>
			<psa30 value="0.000105041033973638" flag="0"/>
		</comp>
		<comp name=".HNN" depth="0.0">
			<acc value="0.002196709464243" flag="0"/>
			<vel value="0.000458680708394" flag="0"/>
			<psa03 value="0.00174605853890159" flag="0"/>
			<psa10 value="0.000256633514382589" flag="0"/>
			<psa30 value="8.19105303373245e-05" flag="0"/>
		</comp>
		<comp name=".HNZ" depth="0.0">
			<acc value="0.0014899340566986" flag="0"/>
			<vel value="0.000287873681828" flag="0"/>
			<psa03 value="0.000901801846068246" flag="0"/>
			<psa10 value="0.000197330147349" flag="0"/>
			<psa30 value="0.000113201496439546" flag="0"/>
		</comp>
	</station>
	<station code="EVRN" name="EVRN" netid="IV" source="Italian National Seismic Network (INSN)" insttype="" lat="37.6892" lon="15.1356">
		<comp name=".HHE" depth="0.0">
			<acc value="0.0018468417213924" flag="0"/>
			<vel value="0.00039699205062" flag="0"/>
			<psa03 value="0.00174616857223361" flag="0"/>
			<psa10 value="0.000331273830031162" flag="0"/>
			<psa30 value="4.60822747297468e-05" flag="0"/>
		</comp>
		<comp name=".HHN" depth="0.0">
			<acc value="0.0019664261196144" flag="0"/>
			<vel value="0.000430060487706" flag="0"/>
			<psa03 value="0.00182943531871479" flag="0"/>
			<psa10 value="0.000300559441838109" flag="0"/>
			<psa30 value="3.51623195654876e-05" flag="0"/>
		</comp>
		<comp name=".HHZ" depth="0.0">
			<acc value="0.000852152197008" flag="0"/>
			<vel value="0.000167546608146" flag="0"/>
			<psa03 value="0.000766837745853446" flag="0"/>
			<psa10 value="0.000125705969004984" flag="0"/>
			<psa30 value="2.56822042496985e-05" flag="0"/>
		</comp>
		<comp name=".HNE" depth="0.0">
			<acc value="0.001504263877599" flag="0"/>
			<vel value="0.000310466768257" flag="0"/>
			<psa03 value="0.00175031728456386" flag="0"/>
			<psa10 value="0.000356040001918348" flag="0"/>
			<psa30 value="4.80713094884872e-05" flag="0"/>
		</comp>
		<comp name=".HNN" depth="0.0">
			<acc value="0.0021126201397692" flag="0"/>
			<vel value="0.000391210999245" flag="0"/>
			<psa03 value="0.00188586630308646" flag="0"/>
			<psa10 value="0.000267836912802984" flag="0"/>
			<psa30 value="4.37679612615872e-05" flag="0"/>
		</comp>
		<comp name=".HNZ" depth="0.0">
			<acc value="0.00075665435159826" flag="0"/>
			<vel value="0.000177272439592" flag="0"/>
			<psa03 value="0.000777015096485143" flag="0"/>
			<psa10 value="0.000128092899588394" flag="0"/>
			<psa30 value="2.82152545388132e-05" flag="0"/>
		</comp>
	</station>
	<station code="GMB1" name="GMB1" netid="IV" source="Italian National Seismic Network (INSN)" insttype="" lat="38.1723" lon="15.8179">
		<comp name=".HHE" depth="0.0">
			<acc value="0.0003448831076148" flag="0"/>
			<vel value="0.000127825545384" flag="0"/>
			<psa03 value="0.000709013033087998" flag="0"/>
			<psa10 value="0.000170037919451215" flag="0"/>
			<psa30 value="3.80382978453554e-05" flag="0"/>
		</comp>
		<comp name=".HHN" depth="0.0">
			<acc value="0.0004831945168308" flag="0"/>
			<vel value="0.000167339493189" flag="0"/>
			<psa03 value="0.000696993193864324" flag="0"/>
			<psa10 value="0.000175161960065686" flag="0"/>
			<psa30 value="2.98881062424588e-05" flag="0"/>
		</comp>
		<comp name=".HHZ" depth="0.0">
			<acc value="0.00019237081395216" flag="0"/>
			<vel value="8.76074592021e-05" flag="0"/>
			<psa03 value="0.000373250311938652" flag="0"/>
			<psa10 value="0.000119697499684347" flag="0"/>
			<psa30 value="2.10601825686538e-05" flag="0"/>
		</comp>
		<comp name=".HNE" depth="0.0">
			<acc value="0.00048721950539928" flag="0"/>
			<vel value="0.000166443071929" flag="0"/>
			<psa03 value="0.000573840545043648" flag="0"/>
			<psa10 value="0.000171375190656035" flag="0"/>
