<stationlist created="1775808417">
	<station code="GUMT" name="GUMT" netid="KO" source="Bogazici University Kandilli Observatory And Earthquake Research Institute (KOERI)" insttype="" lat="40.4665" lon="39.478">
		<comp name="--.HNE" depth="0.0">
			<acc value="0.0190814141338984" flag="0"/>
			<vel value="0.00576836805664307" flag="0"/>
			<psa03 value="0.0287346925948618" flag="0"/>
			<psa10 value="0.00319155470608594" flag="0"/>
			<psa30 value="0.000203928326959166" flag="0"/>
		</comp>
		<comp name="--.HNN" depth="0.0">
			<acc value="0.0161975696252112" flag="0"/>
			<vel value="0.00487906178663202" flag="0"/>
			<psa03 value="0.0356255449133427" flag="0"/>
			<psa10 value="0.00241735318465973" flag="0"/>
			<psa30 value="0.000205082713327431" flag="0"/>
		</comp>
		<comp name="--.HNZ" depth="0.0">
			<acc value="0.0162583758648573" flag="0"/>
			<vel value="0.0046131488872973" flag="0"/>
			<psa03 value="0.0204802239018218" flag="0"/>
			<psa10 value="0.00407408191918259" flag="0"/>
			<psa30 value="0.000238673336978893" flag="0"/>
		</comp>
	</station>
	<station code="KYHL" name="KYHL" netid="KO" source="Bogazici University Kandilli Observatory And Earthquake Research Institute (KOERI)" insttype="" lat="40.3244" lon="37.8955">
		<comp name="--.HNE" depth="0.0">
			<acc value="0.021965738253938" flag="0"/>
			<vel value="0.011297905840506" flag="0"/>
			<psa03 value="0.0736133556902055" flag="0"/>
			<psa10 value="0.00709834132402586" flag="0"/>
			<psa30 value="0.000575129453670383" flag="0"/>
		</comp>
		<comp name="--.HNN" depth="0.0">
			<acc value="0.0268855073065668" flag="0"/>
			<vel value="0.0170789674376363" flag="0"/>
			<psa03 value="0.0980357860563582" flag="0"/>
			<psa10 value="0.0116513721587235" flag="0"/>
			<psa30 value="0.000796438801828569" flag="0"/>
		</comp>
		<comp name="--.HNZ" depth="0.0">
			<acc value="0.0149227594939282" flag="0"/>
			<vel value="0.00652564269720029" flag="0"/>
			<psa03 value="0.0529682693045533" flag="0"/>
			<psa10 value="0.00469700709116807" flag="0"/>
			<psa30 value="0.000474255740031917" flag="0"/>
		</comp>
	</station>
	<station code="RFHY" name="RFHY" netid="KO" source="Bogazici University Kandilli Observatory And Earthquake Research Institute (KOERI)" insttype="" lat="39.927" lon="38.833">
		<comp name="--.HNE" depth="0.0">
			<acc value="0.00405502335313435" flag="0"/>
			<vel value="0.00217840070003" flag="0"/>
			<psa03 value="0.0155962519251476" flag="0"/>
			<psa10 value="0.00176833132295913" flag="0"/>
			<psa30 value="0.000102157952358812" flag="0"/>
		</comp>
		<comp name="--.HNN" depth="0.0">
			<acc value="0.590704794368255" flag="0"/>
			<vel value="0.436202018720023" flag="0"/>
			<psa03 value="1.6624749641407" flag="0"/>
			<psa10 value="0.217215799480676" flag="0"/>
			<psa30 value="0.0154937930544169" flag="0"/>
		</comp>
		<comp name="--.HNZ" depth="0.0">
			<acc value="0.23964273098236" flag="0"/>
			<vel value="0.110909151180127" flag="0"/>
			<psa03 value="0.584377378800037" flag="0"/>
			<psa10 value="0.0880016646783951" flag="0"/>
			<psa30 value="0.00466185299154817" flag="0"/>
		</comp>
	</station>
	<station code="TUNC" name="TUNC" netid="KO" source="Bogazici University Kandilli Observatory And Earthquake Research Institute (KOERI)" insttype="" lat="39.6942" lon="37.5388">
		<comp name="--.HNE" depth="0.0">
			<acc value="0.011347146139572" flag="0"/>
			<vel value="0.00979287151379462" flag="0"/>
			<psa03 value="0.0339550696692227" flag="0"/>
			<psa10 value="0.0157418796972728" flag="0"/>
			<psa30 value="0.00140011952188023" flag="0"/>
		</comp>
		<comp name="--.HNN" depth="0.0">
			<acc value="0.0165714080778431" flag="0"/>
			<vel value="0.01069259025882" flag="0"/>
			<psa03 value="0.060028044271664" flag="0"/>
			<psa10 value="0.0205653123510139" flag="0"/>
			<psa30 value="0.00177762963423911" flag="0"/>
		</comp>
		<comp name="--.HNZ" depth="0.0">
			<acc value="0.00721842654625567" flag="0"/>
			<vel value="0.00613338743305393" flag="0"/>
			<psa03 value="0.0227526765239887" flag="0"/>
			<psa10 value="0.00811062197640107" flag="0"/>
			<psa30 value="0.00215883238705064" flag="0"/>
		</comp>
	</station>
</stationlist>
