<?xml version="1.0" encoding="UTF-8" standalone="yes"?>
<!DOCTYPE earthquake SYSTEM "stationlist.dtd">
<stationlist created="" xmlns="ch.ethz.sed.shakemap.usgs.xml">
  <station code="ARGN" name="ARGN" netid="KO" insttype="CMG-6T" commtype="DIG" lat="38.7763" lon="38.2639">
    <comp name="--.HHE">
      <acc value="0.0321083033" flag="0"/>
      <vel value="0.0095856331" flag="0"/>
      <psa03 value="0.0327221433" flag="0"/>
      <psa10 value="0.0083287757" flag="0"/>
      <psa30 value="0.0002751260" flag="0"/>
    </comp>
    <comp name="--.HHN">
      <acc value="0.0248991690" flag="0"/>
      <vel value="0.0076240256" flag="0"/>
      <psa03 value="0.0273566357" flag="0"/>
      <psa10 value="0.0081858054" flag="0"/>
      <psa30 value="0.0003289631" flag="0"/>
    </comp>
    <comp name="--.HHZ">
      <acc value="0.0186468729" flag="0"/>
      <vel value="0.0040980743" flag="0"/>
      <psa03 value="0.0183734317" flag="0"/>
      <psa10 value="0.0060182969" flag="0"/>
      <psa30 value="0.0002452423" flag="0"/>
    </comp>
  </station>
  <station code="DIVR" name="DIVR" netid="KO" insttype="CMG-6T" commtype="DIG" lat="39.3562" lon="38.1237">
    <comp name="--.HHZ">
      <acc value="0.0220799123" flag="0"/>
      <vel value="0.0092658259" flag="0"/>
      <psa03 value="0.0410581597" flag="0"/>
      <psa10 value="0.0093076501" flag="0"/>
      <psa30 value="0.0008113832" flag="0"/>
    </comp>
    <comp name="--.HHE">
      <acc value="0.0196803849" flag="0"/>
      <vel value="0.0089766452" flag="0"/>
      <psa03 value="0.0333037900" flag="0"/>
      <psa10 value="0.0084336579" flag="0"/>
      <psa30 value="0.0005259317" flag="0"/>
    </comp>
    <comp name="--.HHN">
      <acc value="0.0224548925" flag="0"/>
      <vel value="0.0114413985" flag="0"/>
      <psa03 value="0.0397057052" flag="0"/>
      <psa10 value="0.0172484529" flag="0"/>
      <psa30 value="0.0008841812" flag="0"/>
    </comp>
  </station>
  <station code="ERZN" name="ERZN" netid="KO" insttype="CMG-3ESP" commtype="DIG" lat="39.5867" lon="39.722">
    <comp name="--.HHZ">
      <acc value="0.0433308372" flag="0"/>
      <vel value="0.0115360166" flag="0"/>
      <psa03 value="0.0826565568" flag="0"/>
      <psa10 value="0.0074385395" flag="0"/>
      <psa30 value="0.0009096680" flag="0"/>
    </comp>
    <comp name="--.HHN">
      <acc value="0.0967725387" flag="0"/>
      <vel value="0.0220955207" flag="0"/>
      <psa03 value="0.1333567243" flag="0"/>
      <psa10 value="0.0075357908" flag="0"/>
      <psa30 value="0.0005797272" flag="0"/>
    </comp>
    <comp name="--.HHE">
      <acc value="0.1177540451" flag="0"/>
      <vel value="0.0311224645" flag="0"/>
      <psa03 value="0.0900723621" flag="0"/>
      <psa10 value="0.0058250785" flag="0"/>
      <psa30 value="0.0006667247" flag="0"/>
    </comp>
  </station>
  <station code="GUMT" name="GUMT" netid="KO" insttype="CMG-5T" commtype="DIG" lat="40.4665" lon="39.478">
    <comp name="--.HNN">
      <acc value="0.0163318827" flag="0"/>
      <vel value="0.0049663595" flag="0"/>
      <psa03 value="0.0357738079" flag="0"/>
      <psa10 value="0.0024201680" flag="0"/>
      <psa30 value="0.0003640736" flag="0"/>
    </comp>
    <comp name="--.HNZ">
      <acc value="0.0172215809" flag="0"/>
      <vel value="0.0045923712" flag="0"/>
      <psa03 value="0.0204539224" flag="0"/>
      <psa10 value="0.0041387778" flag="0"/>
      <psa30 value="0.0004494505" flag="0"/>
    </comp>
    <comp name="--.HNE">
      <acc value="0.0189618866" flag="0"/>
      <vel value="0.0056705835" flag="0"/>
      <psa03 value="0.0282510496" flag="0"/>
      <psa10 value="0.0032826162" flag="0"/>
      <psa30 value="0.0004714413" flag="0"/>
    </comp>
  </station>
  <station code="KBAN" name="KBAN" netid="KO" insttype="CMG-6T" commtype="DIG" lat="38.797" lon="38.7278">
    <comp name="--.HHE">
      <acc value="0.0151554192" flag="0"/>
      <vel value="0.0054910668" flag="0"/>
      <psa03 value="0.0217492284" flag="0"/>
      <psa10 value="0.0034082315" flag="0"/>
      <psa30 value="0.0003356326" flag="0"/>
    </comp>
    <comp name="--.HHN">
      <acc value="0.0140772420" flag="0"/>
      <vel value="0.0046181981" flag="0"/>
      <psa03 value="0.0230925452" flag="0"/>
      <psa10 value="0.0022407385" flag="0"/>
      <psa30 value="0.0002234738" flag="0"/>
    </comp>
    <comp name="--.HHZ">
      <acc value="0.0096506114" flag="0"/>
      <vel value="0.0039187774" flag="0"/>
      <psa03 value="0.0152235041" flag="0"/>
      <psa10 value="0.0024062181" flag="0"/>
      <psa30 value="0.0003610267" flag="0"/>
    </comp>
  </station>
  <station code="KMAH" name="KMAH" netid="KO" insttype="CMG-3ESP" commtype="DIG" lat="39.6082" lon="39.0275">
    <comp name="--.HHE">
      <acc value="0.9446545041" flag="0"/>
      <vel value="0.2875275359" flag="0"/>
      <psa03 value="0.8838763796" flag="0"/>
      <psa10 value="0.2129237988" flag="0"/>
      <psa30 value="0.0150178664" flag="0"/>
    </comp>
    <comp name="--.HHN">
      <acc value="1.4405897725" flag="0"/>
      <vel value="0.2863503723" flag="0"/>
      <psa03 value="1.3926301103" flag="0"/>
      <psa10 value="0.1147704864" flag="0"/>
      <psa30 value="0.0151355566" flag="0"/>
    </comp>
    <comp name="--.HHZ">
      <acc value="0.2536085993" flag="0"/>
      <vel value="0.1079413064" flag="0"/>
      <psa03 value="0.5811635902" flag="0"/>
      <psa10 value="0.2224344241" flag="0"/>
      <psa30 value="0.0111785761" flag="0"/>
    </comp>
  </station>
  <station code="KYHL" name="KYHL" netid="KO" insttype="CMG-5T" commtype="DIG" lat="40.3244" lon="37.8955">
    <comp name="--.HNN">
      <acc value="0.0269127333" flag="0"/>
      <vel value="0.0170570230" flag="0"/>
      <psa03 value="0.0981591391" flag="0"/>
      <psa10 value="0.0116688755" flag="0"/>
      <psa30 value="0.0008223593" flag="0"/>
    </comp>
    <comp name="--.HNZ">
      <acc value="0.0150978364" flag="0"/>
      <vel value="0.0064932038" flag="0"/>
      <psa03 value="0.0534296059" flag="0"/>
      <psa10 value="0.0047238852" flag="0"/>
      <psa30 value="0.0005452232" flag="0"/>
    </comp>
    <comp name="--.HNE">
      <acc value="0.0219511264" flag="0"/>
      <vel value="0.0112570256" flag="0"/>
      <psa03 value="0.0714148140" flag="0"/>
      <psa10 value="0.0071055653" flag="0"/>
      <psa30 value="0.0006155404" flag="0"/>
    </comp>
  </station>
  <station code="RFHY" name="RFHY" netid="KO" insttype="CMG-5T" commtype="DIG" lat="39.927" lon="38.833">
    <comp name="--.HNZ">
      <acc value="0.2378833043" flag="0"/>
      <vel value="0.1155046383" flag="0"/>
      <psa03 value="0.5793446792" flag="0"/>
      <psa10 value="0.0926286775" flag="0"/>
      <psa30 value="0.0068406870" flag="0"/>
    </comp>
    <comp name="--.HNE">
      <acc value="0.0043209460" flag="0"/>
      <vel value="0.0024518257" flag="0"/>
      <psa03 value="0.0157608065" flag="0"/>
      <psa10 value="0.0018877229" flag="0"/>
      <psa30 value="0.0003868351" flag="0"/>
    </comp>
    <comp name="--.HNN">
      <acc value="0.5936280726" flag="0"/>
      <vel value="0.4407879532" flag="0"/>
      <psa03 value="1.6494161111" flag="0"/>
      <psa10 value="0.2256847813" flag="0"/>
      <psa30 value="0.0170544286" flag="0"/>
    </comp>
  </station>
  <station code="SINE" name="SINE" netid="KO" insttype="CMG-6T" commtype="DIG" lat="39.1636" lon="39.3871">
    <comp name="--.HHE">
      <acc value="0.0503327909" flag="0"/>
      <vel value="0.0118230891" flag="0"/>
      <psa03 value="0.0414226430" flag="0"/>
      <psa10 value="0.0029450337" flag="0"/>
      <psa30 value="0.0001866938" flag="0"/>
    </comp>
    <comp name="--.HHZ">
      <acc value="0.0384274611" flag="0"/>
      <vel value="0.0123266874" flag="0"/>
      <psa03 value="0.0707955364" flag="0"/>
      <psa10 value="0.0053679774" flag="0"/>
      <psa30 value="0.0002404403" flag="0"/>
    </comp>
    <comp name="--.HHN">
      <acc value="0.0378678902" flag="0"/>
      <vel value="0.0093243988" flag="0"/>
      <psa03 value="0.0675011083" flag="0"/>
      <psa10 value="0.0049205871" flag="0"/>
      <psa30 value="0.0002582768" flag="0"/>
    </comp>
  </station>
  <station code="TUNC" name="TUNC" netid="KO" insttype="CMG-5T" commtype="DIG" lat="39.6942" lon="37.5388">
    <comp name="--.HNE">
      <acc value="0.0113672833" flag="0"/>
      <vel value="0.0094500076" flag="0"/>
      <psa03 value="0.0341680052" flag="0"/>
      <psa10 value="0.0156454864" flag="0"/>
      <psa30 value="0.0012845229" flag="0"/>
    </comp>
    <comp name="--.HNN">
      <acc value="0.0166352946" flag="0"/>
      <vel value="0.0108526416" flag="0"/>
      <psa03 value="0.0601243839" flag="0"/>
      <psa10 value="0.0205369783" flag="0"/>
      <psa30 value="0.0015481961" flag="0"/>
    </comp>
    <comp name="--.HNZ">
      <acc value="0.0071832745" flag="0"/>
      <vel value="0.0061365673" flag="0"/>
      <psa03 value="0.0225970068" flag="0"/>
      <psa10 value="0.0080823729" flag="0"/>
      <psa30 value="0.0018727208" flag="0"/>
    </comp>
  </station>
</stationlist>
