<?xml version="1.0" encoding="UTF-8" standalone="yes"?>
<!DOCTYPE earthquake SYSTEM "stationlist.dtd">
<stationlist created="" xmlns="ch.ethz.sed.shakemap.usgs.xml">
  <station code="ANTB" name="ANTB" netid="KO" insttype="CMG-3T" lat="36.8998" lon="30.6538">
    <comp name="--.HHZ">
      <acc value="0.0309657481" flag="0"/>
      <vel value="0.0112674546" flag="0"/>
      <psa03 value="0.0511203544" flag="0"/>
      <psa10 value="0.0138771796" flag="0"/>
      <psa30 value="0.0012575493" flag="0"/>
    </comp>
    <comp name="--.HHE">
      <acc value="0.0273967081" flag="0"/>
      <vel value="0.0094969732" flag="0"/>
      <psa03 value="0.0555047618" flag="0"/>
      <psa10 value="0.0113384978" flag="0"/>
      <psa30 value="0.0008744446" flag="0"/>
    </comp>
    <comp name="--.HHN">
      <acc value="0.0210948398" flag="0"/>
      <vel value="0.0124355935" flag="0"/>
      <psa03 value="0.0602205354" flag="0"/>
      <psa10 value="0.0119670543" flag="0"/>
      <psa30 value="0.0013142311" flag="0"/>
    </comp>
  </station>
  <station code="APMY" name="APMY" netid="KO" insttype="CMG-6T" lat="37.4717" lon="29.3018">
    <comp name="--.HHE">
      <acc value="0.0347430781" flag="0"/>
      <vel value="0.0155135298" flag="0"/>
      <psa03 value="0.0819071143" flag="0"/>
      <psa10 value="0.0121455233" flag="0"/>
      <psa30 value="0.0007787477" flag="0"/>
    </comp>
    <comp name="--.HHN">
      <acc value="0.0362377631" flag="0"/>
      <vel value="0.0200614516" flag="0"/>
      <psa03 value="0.1189495125" flag="0"/>
      <psa10 value="0.0251581023" flag="0"/>
      <psa30 value="0.0016960280" flag="0"/>
    </comp>
    <comp name="--.HHZ">
      <acc value="0.0132486381" flag="0"/>
      <vel value="0.0055145893" flag="0"/>
      <psa03 value="0.0298147407" flag="0"/>
      <psa10 value="0.0062367555" flag="0"/>
      <psa30 value="0.0004188129" flag="0"/>
    </comp>
  </station>
  <station code="BASM" name="BASM" netid="KO" insttype="CMG-5T" lat="37.9194" lon="30.035">
    <comp name="--.HNE">
      <acc value="0.0851774255" flag="0"/>
      <vel value="0.0502017151" flag="0"/>
      <psa03 value="0.3372652426" flag="0"/>
      <psa10 value="0.0509397990" flag="0"/>
      <psa30 value="0.0033950810" flag="0"/>
    </comp>
    <comp name="--.HNZ">
      <acc value="0.0372232218" flag="0"/>
      <vel value="0.0193435899" flag="0"/>
      <psa03 value="0.0895233678" flag="0"/>
      <psa10 value="0.0188057918" flag="0"/>
      <psa30 value="0.0011410819" flag="0"/>
    </comp>
    <comp name="--.HNN">
      <acc value="0.0744188098" flag="0"/>
      <vel value="0.0391314367" flag="0"/>
      <psa03 value="0.1999942926" flag="0"/>
      <psa10 value="0.0679005763" flag="0"/>
      <psa30 value="0.0029067854" flag="0"/>
    </comp>
  </station>
  <station code="BCK" name="BCK" netid="KO" insttype="CMG-3T" lat="37.4602" lon="30.5885">
    <comp name="--.HHN">
      <acc value="0.0860203465" flag="0"/>
      <vel value="0.0459072673" flag="0"/>
      <psa03 value="0.1784119100" flag="0"/>
      <psa10 value="0.0273373072" flag="0"/>
      <psa30 value="0.0019275163" flag="0"/>
    </comp>
    <comp name="--.HHE">
      <acc value="0.1053095990" flag="0"/>
      <vel value="0.0437192256" flag="0"/>
      <psa03 value="0.2481147402" flag="0"/>
      <psa10 value="0.0365196196" flag="0"/>
      <psa30 value="0.0029671292" flag="0"/>
    </comp>
    <comp name="--.HHZ">
      <acc value="0.0695416485" flag="0"/>
      <vel value="0.0216025070" flag="0"/>
      <psa03 value="0.1676527143" flag="0"/>
      <psa10 value="0.0231073076" flag="0"/>
      <psa30 value="0.0008533807" flag="0"/>
    </comp>
  </station>
  <station code="CAME" name="CAME" netid="KO" insttype="CMG-5T" lat="36.9435" lon="29.3023">
    <comp name="--.HNE">
      <acc value="0.0853305431" flag="0"/>
      <vel value="0.0273410672" flag="0"/>
      <psa03 value="0.1490816893" flag="0"/>
      <psa10 value="0.0167331325" flag="0"/>
      <psa30 value="0.0009026995" flag="0"/>
    </comp>
    <comp name="--.HNN">
      <acc value="0.0872998237" flag="0"/>
      <vel value="0.0339293255" flag="0"/>
      <psa03 value="0.2433871713" flag="0"/>
      <psa10 value="0.0090041576" flag="0"/>
      <psa30 value="0.0008496551" flag="0"/>
    </comp>
    <comp name="--.HNZ">
      <acc value="0.0397700873" flag="0"/>
      <vel value="0.0156415902" flag="0"/>
      <psa03 value="0.0724254230" flag="0"/>
      <psa10 value="0.0048270966" flag="0"/>
      <psa30 value="0.0005265437" flag="0"/>
    </comp>
  </station>
  <station code="ELL" name="ELL" netid="KO" insttype="CMG-3T" lat="36.7483" lon="29.9085">
    <comp name="--.HHZ">
      <acc value="0.0122192310" flag="0"/>
      <vel value="0.0075442879" flag="0"/>
      <psa03 value="0.0419120696" flag="0"/>
      <psa10 value="0.0077010225" flag="0"/>
      <psa30 value="0.0005853305" flag="0"/>
    </comp>
    <comp name="--.HHN">
      <acc value="0.0234334362" flag="0"/>
      <vel value="0.0149303894" flag="0"/>
      <psa03 value="0.0763017261" flag="0"/>
      <psa10 value="0.0182941982" flag="0"/>
      <psa30 value="0.0008156017" flag="0"/>
    </comp>
    <comp name="--.HHE">
      <acc value="0.0161487952" flag="0"/>
      <vel value="0.0117327325" flag="0"/>
      <psa03 value="0.0560658536" flag="0"/>
      <psa10 value="0.0109021562" flag="0"/>
      <psa30 value="0.0013380361" flag="0"/>
    </comp>
  </station>
</stationlist>
