<?xml version="1.0" encoding="UTF-8" standalone="yes"?>
<!DOCTYPE earthquake SYSTEM "stationlist.dtd">
<stationlist created="" xmlns="ch.ethz.sed.shakemap.usgs.xml">
  <station code="AKS" name="AKS" netid="KO" insttype="CMG-5T" commtype="DIG" lat="38.8785" lon="27.8129">
    <comp name="--.HNZ">
      <acc value="0.0157821278" flag="0"/>
      <vel value="0.0050384586" flag="0"/>
      <psa03 value="0.0186566945" flag="0"/>
      <psa10 value="0.0032664301" flag="0"/>
      <psa30 value="0.0003718847" flag="0"/>
    </comp>
    <comp name="--.HNN">
      <acc value="0.0309666092" flag="0"/>
      <vel value="0.0093392233" flag="0"/>
      <psa03 value="0.0408274703" flag="0"/>
      <psa10 value="0.0061378746" flag="0"/>
      <psa30 value="0.0005786830" flag="0"/>
    </comp>
    <comp name="--.HNE">
      <acc value="0.0262934034" flag="0"/>
      <vel value="0.0086890805" flag="0"/>
      <psa03 value="0.0388927499" flag="0"/>
      <psa10 value="0.0070828815" flag="0"/>
      <psa30 value="0.0004516429" flag="0"/>
    </comp>
  </station>
  <station code="DST" name="DST" netid="KO" insttype="CMG-5T" commtype="DIG" lat="39.6041" lon="28.6267">
    <comp name="--.HNE">
      <acc value="0.0428928758" flag="0"/>
      <vel value="0.0110319433" flag="0"/>
      <psa03 value="0.0454667946" flag="0"/>
      <psa10 value="0.0110963951" flag="0"/>
      <psa30 value="0.0006922417" flag="0"/>
    </comp>
    <comp name="--.HNN">
      <acc value="0.0349283966" flag="0"/>
      <vel value="0.0077164584" flag="0"/>
      <psa03 value="0.0359378862" flag="0"/>
      <psa10 value="0.0057117945" flag="0"/>
      <psa30 value="0.0005060214" flag="0"/>
    </comp>
    <comp name="--.HNZ">
      <acc value="0.0474636620" flag="0"/>
      <vel value="0.0064530625" flag="0"/>
      <psa03 value="0.0218115924" flag="0"/>
      <psa10 value="0.0034397789" flag="0"/>
      <psa30 value="0.0004089620" flag="0"/>
    </comp>
  </station>
  <station code="GEDZ" name="GEDZ" netid="KO" insttype="CMG-6T" commtype="DIG" lat="39.0445" lon="29.4105">
    <comp name="--.HHE">
      <acc value="0.1302427937" flag="0"/>
      <vel value="0.0286569500" flag="0"/>
      <psa03 value="0.1250089288" flag="0"/>
      <psa10 value="0.0340343041" flag="0"/>
      <psa30 value="0.0013080445" flag="0"/>
    </comp>
    <comp name="--.HHZ">
      <acc value="0.0575650422" flag="0"/>
      <vel value="0.0105680889" flag="0"/>
      <psa03 value="0.0575481688" flag="0"/>
      <psa10 value="0.0075554216" flag="0"/>
      <psa30 value="0.0004186800" flag="0"/>
    </comp>
    <comp name="--.HHN">
      <acc value="0.1401419596" flag="0"/>
      <vel value="0.0477809576" flag="0"/>
      <psa03 value="0.2714174083" flag="0"/>
      <psa10 value="0.0308476495" flag="0"/>
      <psa30 value="0.0017290921" flag="0"/>
    </comp>
  </station>
  <station code="GOMA" name="GOMA" netid="KO" insttype="CMG-5T" commtype="DIG" lat="38.7077" lon="27.9175">
    <comp name="--.HNE">
      <acc value="0.0304637418" flag="0"/>
      <vel value="0.0106325204" flag="0"/>
      <psa03 value="0.0747401050" flag="0"/>
      <psa10 value="0.0046554863" flag="0"/>
      <psa30 value="0.0005190712" flag="0"/>
    </comp>
    <comp name="--.HNN">
      <acc value="0.0327795738" flag="0"/>
      <vel value="0.0141295970" flag="0"/>
      <psa03 value="0.0663243191" flag="0"/>
      <psa10 value="0.0055939750" flag="0"/>
      <psa30 value="0.0004427449" flag="0"/>
    </comp>
  </station>
  <station code="GORD" name="GORD" netid="KO" insttype="CMG-5T" commtype="DIG" lat="38.9088" lon="28.1769">
    <comp name="--.HNZ">
      <acc value="0.0190730864" flag="0"/>
      <vel value="0.0084404613" flag="0"/>
      <psa03 value="0.0373627079" flag="0"/>
      <psa10 value="0.0073588737" flag="0"/>
      <psa30 value="0.0006031661" flag="0"/>
    </comp>
    <comp name="--.HNN">
      <acc value="0.0252912432" flag="0"/>
      <vel value="0.0137480595" flag="0"/>
      <psa03 value="0.0482608570" flag="0"/>
      <psa10 value="0.0187548233" flag="0"/>
      <psa30 value="0.0010910287" flag="0"/>
    </comp>
    <comp name="--.HNE">
      <acc value="0.0253778368" flag="0"/>
      <vel value="0.0100363429" flag="0"/>
      <psa03 value="0.0377668250" flag="0"/>
      <psa10 value="0.0186661573" flag="0"/>
      <psa30 value="0.0007369634" flag="0"/>
    </comp>
  </station>
  <station code="ORLT" name="ORLT" netid="KO" insttype="CMG-5T" commtype="DIG" lat="40.0452" lon="28.8914">
    <comp name="--.HNE">
      <acc value="0.0300513503" flag="0"/>
      <vel value="0.0193765304" flag="0"/>
      <psa03 value="0.0727263000" flag="0"/>
      <psa10 value="0.0096591655" flag="0"/>
      <psa30 value="0.0006378350" flag="0"/>
    </comp>
    <comp name="--.HNN">
      <acc value="0.0370024426" flag="0"/>
      <vel value="0.0097246346" flag="0"/>
      <psa03 value="0.0749387283" flag="0"/>
      <psa10 value="0.0112147520" flag="0"/>
      <psa30 value="0.0007254081" flag="0"/>
    </comp>
    <comp name="--.HNZ">
      <acc value="0.0125922379" flag="0"/>
      <vel value="0.0048831136" flag="0"/>
      <psa03 value="0.0121638783" flag="0"/>
      <psa10 value="0.0040023205" flag="0"/>
      <psa30 value="0.0003258473" flag="0"/>
    </comp>
  </station>
  <station code="SHAP" name="SHAP" netid="KO" insttype="CMG-5T" commtype="DIG" lat="39.0231" lon="29.222">
    <comp name="--.HNE">
      <acc value="0.2287577696" flag="0"/>
      <vel value="0.0543720020" flag="0"/>
      <psa03 value="0.3198420264" flag="0"/>
      <psa10 value="0.0163247454" flag="0"/>
      <psa30 value="0.0013522656" flag="0"/>
    </comp>
    <comp name="--.HNZ">
      <acc value="0.1415137003" flag="0"/>
      <vel value="0.0271448288" flag="0"/>
      <psa03 value="0.1335331554" flag="0"/>
      <psa10 value="0.0082875033" flag="0"/>
      <psa30 value="0.0006948980" flag="0"/>
    </comp>
    <comp name="--.HNN">
      <acc value="0.2959339021" flag="0"/>
      <vel value="0.0811545108" flag="0"/>
      <psa03 value="0.3384845508" flag="0"/>
      <psa10 value="0.0232931876" flag="0"/>
      <psa30 value="0.0014332728" flag="0"/>
    </comp>
  </station>
  <station code="SIMA" name="SIMA" netid="KO" insttype="CMG-6T" commtype="DIG" lat="39.0833" lon="28.9825">
    <comp name="--.HHZ">
      <acc value="0.6812162702" flag="0"/>
      <vel value="0.0692061194" flag="0"/>
      <psa03 value="0.1773000841" flag="0"/>
      <psa10 value="0.0133594535" flag="0"/>
      <psa30 value="0.0012448216" flag="0"/>
    </comp>
    <comp name="--.HHE">
      <acc value="0.6700710143" flag="0"/>
      <vel value="0.0971375729" flag="0"/>
      <psa03 value="0.5354813526" flag="0"/>
      <psa10 value="0.0331614009" flag="0"/>
      <psa30 value="0.0030719732" flag="0"/>
    </comp>
    <comp name="--.HHN">
      <acc value="0.4239407469" flag="0"/>
      <vel value="0.1043099985" flag="0"/>
      <psa03 value="0.4345564532" flag="0"/>
      <psa10 value="0.0256852953" flag="0"/>
      <psa30 value="0.0024297622" flag="0"/>
    </comp>
  </station>
  <station code="SMAA" name="SMAA" netid="KO" insttype="CMG-5T" commtype="DIG" lat="39.1005" lon="28.9805">
    <comp name="--.HNE">
      <acc value="0.7122141902" flag="0"/>
      <vel value="0.2442067660" flag="0"/>
      <psa03 value="1.6598927646" flag="0"/>
      <psa10 value="0.1829182755" flag="0"/>
      <psa30 value="0.0112014454" flag="0"/>
    </comp>
    <comp name="--.HNN">
      <acc value="0.5108958009" flag="0"/>
      <vel value="0.1681691622" flag="0"/>
      <psa03 value="1.1281314550" flag="0"/>
      <psa10 value="0.2532264356" flag="0"/>
      <psa30 value="0.0143389838" flag="0"/>
    </comp>
    <comp name="--.HNZ">
      <acc value="1.2577804420" flag="0"/>
      <vel value="0.1284363288" flag="0"/>
      <psa03 value="0.2897261307" flag="0"/>
      <psa10 value="0.0672474932" flag="0"/>
      <psa30 value="0.0046962019" flag="0"/>
    </comp>
  </station>
  <station code="SUSR" name="SUSR" netid="KO" insttype="CMG-5T" commtype="DIG" lat="39.9627" lon="28.0835">
    <comp name="--.HNE">
      <acc value="0.0427785959" flag="0"/>
      <vel value="0.0122090458" flag="0"/>
      <psa03 value="0.0320475491" flag="0"/>
      <psa10 value="0.0040018999" flag="0"/>
      <psa30 value="0.0004349765" flag="0"/>
    </comp>
    <comp name="--.HNN">
      <acc value="0.0302441525" flag="0"/>
      <vel value="0.0109699368" flag="0"/>
      <psa03 value="0.0494723794" flag="0"/>
      <psa10 value="0.0085928103" flag="0"/>
      <psa30 value="0.0007048375" flag="0"/>
    </comp>
    <comp name="--.HNZ">
      <acc value="0.0312712186" flag="0"/>
      <vel value="0.0072478972" flag="0"/>
      <psa03 value="0.0147013896" flag="0"/>
      <psa10 value="0.0039171681" flag="0"/>
      <psa30 value="0.0002730851" flag="0"/>
    </comp>
  </station>
  <station code="TVSB" name="TVSB" netid="KO" insttype="CMG-3T" commtype="DIG" lat="39.4497" lon="29.4615">
    <comp name="--.HHN">
      <acc value="0.1832501853" flag="0"/>
      <vel value="0.0457524733" flag="0"/>
      <psa03 value="0.1326923020" flag="0"/>
      <psa10 value="0.0150276433" flag="0"/>
      <psa30 value="0.0013138597" flag="0"/>
    </comp>
    <comp name="--.HHZ">
      <acc value="0.0611850769" flag="0"/>
      <vel value="0.0174475833" flag="0"/>
      <psa03 value="0.0478974435" flag="0"/>
      <psa10 value="0.0125125616" flag="0"/>
      <psa30 value="0.0007949367" flag="0"/>
    </comp>
    <comp name="--.HHE">
      <acc value="0.1343104345" flag="0"/>
      <vel value="0.0342053918" flag="0"/>
      <psa03 value="0.1972136475" flag="0"/>
      <psa10 value="0.0109501044" flag="0"/>
      <psa30 value="0.0008070548" flag="0"/>
    </comp>
  </station>
</stationlist>
