<?xml version="1.0" encoding="UTF-8" standalone="yes"?>
<!DOCTYPE earthquake SYSTEM "stationlist.dtd">
<stationlist created="" xmlns="ch.ethz.sed.shakemap.usgs.xml">
  <station code="PSAM" name="PSAM" netid="CL" insttype="CMG40-T" lat="38.3218" lon="22.1842">
    <comp name="00.HHZ">
      <acc value="0.0359373929" flag="0"/>
      <vel value="0.0211697528" flag="0"/>
      <psa03 value="0.0681346807" flag="0"/>
      <psa10 value="0.0230639304" flag="0"/>
      <psa30 value="0.0019792940" flag="0"/>
    </comp>
    <comp name="00.HHN">
      <acc value="0.0700367900" flag="0"/>
      <vel value="0.0402130191" flag="0"/>
      <psa03 value="0.2340366629" flag="0"/>
      <psa10 value="0.0583546072" flag="0"/>
      <psa30 value="0.0037378473" flag="0"/>
    </comp>
    <comp name="00.HHE">
      <acc value="0.1084494870" flag="0"/>
      <vel value="0.0566705443" flag="0"/>
      <psa03 value="0.3292450363" flag="0"/>
      <psa10 value="0.0553809287" flag="0"/>
      <psa30 value="0.0051877600" flag="0"/>
    </comp>
  </station>
  <station code="ROD3" name="ROD3" netid="CL" insttype="CMG40-T" lat="38.3081" lon="21.892">
    <comp name="00.HHE">
      <acc value="0.7697334061" flag="0"/>
      <vel value="0.4119709585" flag="0"/>
      <psa03 value="2.2667057771" flag="0"/>
      <psa10 value="0.1918566273" flag="0"/>
      <psa30 value="0.0118947306" flag="0"/>
    </comp>
    <comp name="00.HHZ">
      <acc value="0.4686007230" flag="0"/>
      <vel value="0.1533411604" flag="0"/>
      <psa03 value="0.8343473806" flag="0"/>
      <psa10 value="0.0741338876" flag="0"/>
      <psa30 value="0.0063197582" flag="0"/>
    </comp>
    <comp name="00.HHN">
      <acc value="0.8144097715" flag="0"/>
      <vel value="0.4140931226" flag="0"/>
      <psa03 value="1.6332406235" flag="0"/>
      <psa10 value="0.1962974668" flag="0"/>
      <psa30 value="0.0148981314" flag="0"/>
    </comp>
  </station>
  <station code="TRIZ" name="TRIZ" netid="CL" insttype="STS-2" lat="38.3654" lon="22.0727">
    <comp name="00.HH2">
      <acc value="0.1143987945" flag="0"/>
      <vel value="0.0533194640" flag="0"/>
      <psa03 value="0.4087166431" flag="0"/>
      <psa10 value="0.0399580904" flag="0"/>
      <psa30 value="0.0028055670" flag="0"/>
    </comp>
    <comp name="00.HH3">
      <acc value="0.1853901772" flag="0"/>
      <vel value="0.0912430179" flag="0"/>
      <psa03 value="0.7558001034" flag="0"/>
      <psa10 value="0.0484161055" flag="0"/>
      <psa30 value="0.0048853008" flag="0"/>
    </comp>
    <comp name="00.HHZ">
      <acc value="0.0635686794" flag="0"/>
      <vel value="0.0253935539" flag="0"/>
      <psa03 value="0.1779628756" flag="0"/>
      <psa10 value="0.0276325947" flag="0"/>
      <psa30 value="0.0018926431" flag="0"/>
    </comp>
  </station>
  <station code="ZIRI" name="ZIRI" netid="CL" insttype="TRILLIUM-40" lat="38.3051" lon="21.9476">
    <comp name="01.HHZ">
      <acc value="0.2099166121" flag="0"/>
      <vel value="0.1064402305" flag="0"/>
      <psa03 value="0.6577354978" flag="0"/>
      <psa10 value="0.0354467030" flag="0"/>
      <psa30 value="0.0044004897" flag="0"/>
    </comp>
    <comp name="01.HHN">
      <acc value="0.3583195928" flag="0"/>
      <vel value="0.1853184443" flag="0"/>
      <psa03 value="0.8825998059" flag="0"/>
      <psa10 value="0.0962155900" flag="0"/>
      <psa30 value="0.0089017674" flag="0"/>
    </comp>
    <comp name="01.HHE">
      <acc value="0.5178408737" flag="0"/>
      <vel value="0.3169959478" flag="0"/>
      <psa03 value="1.3197413657" flag="0"/>
      <psa10 value="0.1319803956" flag="0"/>
      <psa30 value="0.0109235947" flag="0"/>
    </comp>
  </station>
  <station code="KLV" name="KLV" netid="MN" insttype="" lat="38.0437" lon="22.1504">
    <comp name="--.HHE">
      <acc value="0.0481493372" flag="0"/>
      <vel value="0.0266086766" flag="0"/>
      <psa03 value="0.1557724686" flag="0"/>
      <psa10 value="0.0205781912" flag="0"/>
      <psa30 value="0.0024364363" flag="0"/>
    </comp>
    <comp name="--.HHN">
      <acc value="0.0631817692" flag="0"/>
      <vel value="0.0413899673" flag="0"/>
      <psa03 value="0.1805791450" flag="0"/>
      <psa10 value="0.0510183591" flag="0"/>
      <psa30 value="0.0029674255" flag="0"/>
    </comp>
    <comp name="--.HHZ">
      <acc value="0.0740470220" flag="0"/>
      <vel value="0.0260431583" flag="0"/>
      <psa03 value="0.1875510549" flag="0"/>
      <psa10 value="0.0442798955" flag="0"/>
      <psa30 value="0.0019743553" flag="0"/>
    </comp>
  </station>
</stationlist>
