<stationlist created="1720445491">
	<station code="MALA" name="MALA" netid="CL" source="Corinth Riff Laboratory (CRLNET)" insttype="" lat="38.39341" lon="21.87263">
		<comp name="00.HNE" depth="0.0">
			<acc value="0.44640589507008" flag="0"/>
			<vel value="0.175245674903" flag="0"/>
			<psa03 value="0.675932193858776" flag="0"/>
			<psa10 value="0.191577046039192" flag="0"/>
			<psa30 value="0.0232938814386602" flag="0"/>
		</comp>
		<comp name="00.HNN" depth="0.0">
			<acc value="0.49480942436988" flag="0"/>
			<vel value="0.160116461399" flag="0"/>
			<psa03 value="0.562669190740002" flag="0"/>
			<psa10 value="0.188260881359351" flag="0"/>
			<psa30 value="0.0151905629669286" flag="0"/>
		</comp>
		<comp name="00.HNZ" depth="0.0">
			<acc value="0.10776549256686" flag="0"/>
			<vel value="0.0689404406186" flag="0"/>
			<psa03 value="0.170079298168581" flag="0"/>
			<psa10 value="0.0893650824981527" flag="0"/>
			<psa30 value="0.00533485132439637" flag="0"/>
		</comp>
	</station>
	<station code="ROD3" name="ROD3" netid="CL" source="Corinth Riff Laboratory (CRLNET)" insttype="" lat="38.30811" lon="21.89204">
		<comp name="00.HNE" depth="0.0">
			<acc value="0.60615652317198" flag="0"/>
			<vel value="0.331252889181" flag="0"/>
			<psa03 value="1.85686784171411" flag="0"/>
			<psa10 value="0.155766418760979" flag="0"/>
			<psa30 value="0.00993780499745947" flag="0"/>
		</comp>
		<comp name="00.HNN" depth="0.0">
			<acc value="0.66846320540256" flag="0"/>
			<vel value="0.34628574668" flag="0"/>
			<psa03 value="1.34070164823944" flag="0"/>
			<psa10 value="0.16281859593282" flag="0"/>
			<psa30 value="0.0129921423323557" flag="0"/>
		</comp>
		<comp name="00.HNZ" depth="0.0">
			<acc value="0.35097295067832" flag="0"/>
			<vel value="0.109247463749" flag="0"/>
			<psa03 value="0.572555428987303" flag="0"/>
			<psa10 value="0.0577705970184" flag="0"/>
			<psa30 value="0.00463682341680771" flag="0"/>
		</comp>
	</station>
	<station code="TRIZ" name="TRIZ" netid="CL" source="Corinth Riff Laboratory (CRLNET)" insttype="" lat="38.36543" lon="22.07272">
		<comp name="00.HNE" depth="0.0">
			<acc value="0.079525130257764" flag="0"/>
			<vel value="0.0413487153927" flag="0"/>
			<psa03 value="0.193302472006864" flag="0"/>
			<psa10 value="0.035656548321352" flag="0"/>
			<psa30 value="0.00298950199816909" flag="0"/>
		</comp>
		<comp name="00.HNN" depth="0.0">
			<acc value="0.20590759474758" flag="0"/>
			<vel value="0.0990437102284" flag="0"/>
			<psa03 value="0.835953961178896" flag="0"/>
			<psa10 value="0.0500192910327263" flag="0"/>
			<psa30 value="0.00523208534998682" flag="0"/>
		</comp>
		<comp name="00.HNZ" depth="0.0">
			<acc value="0.060731806030896" flag="0"/>
			<vel value="0.0250999357223" flag="0"/>
			<psa03 value="0.166252805099142" flag="0"/>
			<psa10 value="0.0278235356727034" flag="0"/>
			<psa30 value="0.00199011954398721" flag="0"/>
		</comp>
	</station>
	<station code="AIGS" name="AIGS" netid="HA" source="Hellenic Seismological Network, University of Athens, Seismological Laboratory (HA)" insttype="" lat="38.25001" lon="22.0878">
		<comp name=".HNE" depth="0.0">
			<acc value="0.27639076038012" flag="0"/>
			<vel value="0.107061785467" flag="0"/>
			<psa03 value="1.11348384617309" flag="0"/>
			<psa10 value="0.0471890197908004" flag="0"/>
			<psa30 value="0.00643340618157719" flag="0"/>
		</comp>
		<comp name=".HNN" depth="0.0">
			<acc value="0.27450306939744" flag="0"/>
			<vel value="0.122906487512" flag="0"/>
			<psa03 value="0.587337199873901" flag="0"/>
			<psa10 value="0.121701749643551" flag="0"/>
			<psa30 value="0.00795940893846226" flag="0"/>
		</comp>
		<comp name=".HNZ" depth="0.0">
			<acc value="0.17729691329154" flag="0"/>
			<vel value="0.0563705435872" flag="0"/>
			<psa03 value="0.345253829705256" flag="0"/>
			<psa10 value="0.0410000110494658" flag="0"/>
			<psa30 value="0.00723041481285144" flag="0"/>
		</comp>
	</station>
	<station code="KIAS" name="KIAS" netid="HA" source="Hellenic Seismological Network, University of Athens, Seismological Laboratory (HA)" insttype="" lat="37.9875" lon="22.7543">
		<comp name=".HNE" depth="0.0">
			<acc value="0.0390699340074" flag="0"/>
			<vel value="0.0380176422603" flag="0"/>
			<psa03 value="0.104877364277162" flag="0"/>
			<psa10 value="0.0714292118345432" flag="0"/>
			<psa30 value="0.0102251298646708" flag="0"/>
		</comp>
		<comp name=".HNN" depth="0.0">
			<acc value="0.05901475929147" flag="0"/>
			<vel value="0.0356643291911" flag="0"/>
			<psa03 value="0.141722315491149" flag="0"/>
			<psa10 value="0.0610184696741641" flag="0"/>
			<psa30 value="0.010465309942101" flag="0"/>
		</comp>
		<comp name=".HNZ" depth="0.0">
			<acc value="0.02682653407557" flag="0"/>
			<vel value="0.0293519500305" flag="0"/>
			<psa03 value="0.0634895392038169" flag="0"/>
			<psa10 value="0.0529525065935107" flag="0"/>
			<psa30 value="0.00480966820023708" flag="0"/>
		</comp>
	</station>
	<station code="ARG2" name="ARG2" netid="HI" source="ITSAK Strong Motion Network" insttype="" lat="38.1783" lon="20.4878">
		<comp name=".HNE" depth="0.0">
			<acc value="0.13759595269068" flag="0"/>
			<vel value="0.0563013421954" flag="0"/>
			<psa03 value="0.356955729898645" flag="0"/>
			<psa10 value="0.0580643989815776" flag="0"/>
			<psa30 value="0.00499263282074631" flag="0"/>
		</comp>
		<comp name=".HNN" depth="0.0">
			<acc value="0.1315650421386" flag="0"/>
			<vel value="0.0620631738727" flag="0"/>
			<psa03 value="0.306565558463815" flag="0"/>
			<psa10 value="0.057305948737932" flag="0"/>
			<psa30 value="0.00356866015622322" flag="0"/>
		</comp>
		<comp name=".HNZ" depth="0.0">
			<acc value="0.097438628592858" flag="0"/>
			<vel value="0.0364445412302" flag="0"/>
			<psa03 value="0.281436581292226" flag="0"/>
			<psa10 value="0.0403429525224138" flag="0"/>
			<psa30 value="0.00266441317096123" flag="0"/>
		</comp>
	</station>
	<station code="ARS1" name="ARS1" netid="HI" source="ITSAK Strong Motion Network" insttype="" lat="37.6349" lon="22.7293">
		<comp name=".HNE" depth="0.0">
			<acc value="0.02999124405747" flag="0"/>
			<vel value="0.0380543153762" flag="0"/>
			<psa03 value="0.0816383300138723" flag="0"/>
			<psa10 value="0.0652422844809739" flag="0"/>
			<psa30 value="0.00390739259558258" flag="0"/>
		</comp>
		<comp name=".HNN" depth="0.0">
			<acc value="0.036156103501512" flag="0"/>
			<vel value="0.0327963422387" flag="0"/>
			<psa03 value="0.0894217675030603" flag="0"/>
			<psa10 value="0.0462699314059122" flag="0"/>
			<psa30 value="0.00421932909317708" flag="0"/>
		</comp>
		<comp name=".HNZ" depth="0.0">
			<acc value="0.014590246863432" flag="0"/>
			<vel value="0.0164587724344" flag="0"/>
			<psa03 value="0.0489634415044377" flag="0"/>
			<psa10 value="0.015785896363152" flag="0"/>
			<psa30 value="0.0042550877120098" flag="0"/>
		</comp>
	</station>
	<station code="ART2" name="ART2" netid="HI" source="ITSAK Strong Motion Network" insttype="" lat="39.1474" lon="20.9937">
		<comp name=".HNE" depth="0.0">
			<acc value="0.017022914113272" flag="0"/>
			<vel value="0.0146007564497" flag="0"/>
			<psa03 value="0.0393883670985184" flag="0"/>
			<psa10 value="0.0180305119329158" flag="0"/>
			<psa30 value="0.00292299384233098" flag="0"/>
		</comp>
		<comp name=".HNN" depth="0.0">
			<acc value="0.016621369736826" flag="0"/>
			<vel value="0.0142605848666" flag="0"/>
			<psa03 value="0.0369996333357708" flag="0"/>
			<psa10 value="0.0338378353405041" flag="0"/>
			<psa30 value="0.00274254480513214" flag="0"/>
		</comp>
		<comp name=".HNZ" depth="0.0">
			<acc value="0.013201454379762" flag="0"/>
			<vel value="0.0125910616826" flag="0"/>
			<psa03 value="0.0401858652413448" flag="0"/>
			<psa10 value="0.0247253223062379" flag="0"/>
			<psa30 value="0.00168294138244237" flag="0"/>
		</comp>
	</station>
	<station code="KRI1" name="KRI1" netid="HI" source="ITSAK Strong Motion Network" insttype="" lat="37.6621" lon="20.8172">
		<comp name=".HNE" depth="0.0">
			<acc value="0.39435797979372" flag="0"/>
			<vel value="0.179945644451" flag="0"/>
			<psa03 value="0.731537544103874" flag="0"/>
			<psa10 value="0.110480436286535" flag="0"/>
			<psa30 value="0.0117278394117931" flag="0"/>
		</comp>
		<comp name=".HNN" depth="0.0">
			<acc value="0.30066013421124" flag="0"/>
			<vel value="0.145003796667" flag="0"/>
			<psa03 value="0.917069334676557" flag="0"/>
			<psa10 value="0.123733161714702" flag="0"/>
			<psa30 value="0.0103124073130409" flag="0"/>
		</comp>
		<comp name=".HNZ" depth="0.0">
			<acc value="0.1973016146916" flag="0"/>
			<vel value="0.0762995175863" flag="0"/>
			<psa03 value="0.338059644792246" flag="0"/>
			<psa10 value="0.068834467445705" flag="0"/>
			<psa30 value="0.00634892850202091" flag="0"/>
		</comp>
	</station>
	<station code="LAM2" name="LAM2" netid="HI" source="ITSAK Strong Motion Network" insttype="" lat="38.90203" lon="22.431301">
		<comp name=".HNE" depth="0.0">
			<acc value="0.01456154149191" flag="0"/>
			<vel value="0.013495722388" flag="0"/>
			<psa03 value="0.0474650089074407" flag="0"/>
			<psa10 value="0.0157943813002573" flag="0"/>
			<psa30 value="0.00289937561107205" flag="0"/>
		</comp>
		<comp name=".HNN" depth="0.0">
			<acc value="0.018116164217424" flag="0"/>
			<vel value="0.0126148364307" flag="0"/>
			<psa03 value="0.0508299870287998" flag="0"/>
			<psa10 value="0.015854259641873" flag="0"/>
			<psa30 value="0.00180150850776278" flag="0"/>
		</comp>
		<comp name=".HNZ" depth="0.0">
			<acc value="0.0094851573525714" flag="0"/>
			<vel value="0.00855989025086" flag="0"/>
			<psa03 value="0.0184670006918976" flag="0"/>
			<psa10 value="0.0156282181052375" flag="0"/>
			<psa30 value="0.00173153574741012" flag="0"/>
		</comp>
	</station>
	<station code="MSL1" name="MSL1" netid="HI" source="ITSAK Strong Motion Network" insttype="" lat="38.3727" lon="21.4243">
		<comp name=".HNE" depth="0.0">
			<acc value="0.66003178200108" flag="0"/>
			<vel value="0.380404250577" flag="0"/>
			<psa03 value="1.47148331188261" flag="0"/>
			<psa10 value="0.330474352303856" flag="0"/>
			<psa30 value="0.0266947050598772" flag="0"/>
		</comp>
		<comp name=".HNN" depth="0.0">
			<acc value="0.38782894794132" flag="0"/>
			<vel value="0.303878102862" flag="0"/>
			<psa03 value="1.38696904656134" flag="0"/>
			<psa10 value="0.342804779134167" flag="0"/>
			<psa30 value="0.0165648790086026" flag="0"/>
		</comp>
		<comp name=".HNZ" depth="0.0">
			<acc value="0.16879522597626" flag="0"/>
			<vel value="0.109941670497" flag="0"/>
			<psa03 value="0.440863496709634" flag="0"/>
			<psa10 value="0.184736667897498" flag="0"/>
			<psa30 value="0.00764084866872239" flag="0"/>
		</comp>
	</station>
	<station code="PYL1" name="PYL1" netid="HI" source="ITSAK Strong Motion Network" insttype="" lat="36.914188" lon="21.695161">
		<comp name=".HNE" depth="0.0">
			<acc value="0.0097567469905302" flag="0"/>
			<vel value="0.0120906655681" flag="0"/>
			<psa03 value="0.0349179954374982" flag="0"/>
			<psa10 value="0.024148633478464" flag="0"/>
			<psa30 value="0.00278689732660258" flag="0"/>
		</comp>
		<comp name=".HNN" depth="0.0">
			<acc value="0.01093843370271" flag="0"/>
			<vel value="0.0093171018476" flag="0"/>
			<psa03 value="0.0372665364334553" flag="0"/>
			<psa10 value="0.0139458154043187" flag="0"/>
			<psa30 value="0.00240897229092518" flag="0"/>
		</comp>
		<comp name=".HNZ" depth="0.0">
			<acc value="0.0071262940417098" flag="0"/>
			<vel value="0.00706128275719" flag="0"/>
			<psa03 value="0.0166140433071852" flag="0"/>
			<psa10 value="0.010921846643733" flag="0"/>
			<psa30 value="0.0021231368974007" flag="0"/>
		</comp>
	</station>
	<station code="PYR2" name="PYR2" netid="HI" source="ITSAK Strong Motion Network" insttype="" lat="37.6671" lon="21.4506">
		<comp name=".HNE" depth="0.0">
			<acc value="0.5108818332633" flag="0"/>
			<vel value="0.258100205462" flag="0"/>
			<psa03 value="1.11829558159445" flag="0"/>
			<psa10 value="0.308366487766576" flag="0"/>
			<psa30 value="0.0268790022686668" flag="0"/>
		</comp>
		<comp name=".HNN" depth="0.0">
			<acc value="0.44419034432256" flag="0"/>
			<vel value="0.270835581696" flag="0"/>
			<psa03 value="1.19750232865085" flag="0"/>
			<psa10 value="0.287148242161944" flag="0"/>
			<psa30 value="0.04137246738958" flag="0"/>
		</comp>
		<comp name=".HNZ" depth="0.0">
			<acc value="0.28198519002096" flag="0"/>
			<vel value="0.115628349621" flag="0"/>
			<psa03 value="0.428025937951041" flag="0"/>
			<psa10 value="0.124539555134372" flag="0"/>
			<psa30 value="0.0211797863902526" flag="0"/>
		</comp>
	</station>
	<station code="VAS2" name="VAS2" netid="HI" source="ITSAK Strong Motion Network" insttype="" lat="38.630558" lon="20.608081">
		<comp name=".HNE" depth="0.0">
			<acc value="0.23331847596168" flag="0"/>
			<vel value="0.176602920327" flag="0"/>
			<psa03 value="0.657725946114129" flag="0"/>
			<psa10 value="0.438893344532093" flag="0"/>
			<psa30 value="0.0150991535781487" flag="0"/>
		</comp>
		<comp name=".HNN" depth="0.0">
			<acc value="0.2906527893459" flag="0"/>
			<vel value="0.202839631217" flag="0"/>
			<psa03 value="0.93938631306542" flag="0"/>
			<psa10 value="0.583061144937775" flag="0"/>
			<psa30 value="0.0195745867203081" flag="0"/>
		</comp>
		<comp name=".HNZ" depth="0.0">
			<acc value="0.19821380665248" flag="0"/>
			<vel value="0.137843118506" flag="0"/>
			<psa03 value="0.415917177471757" flag="0"/>
			<psa10 value="0.0855730187926331" flag="0"/>
			<psa30 value="0.00693564320234372" flag="0"/>
		</comp>
	</station>
	<station code="DLFA" name="DLFA" netid="HL" source="National Observatory of Athens Seismic Network" insttype="" lat="38.47836" lon="22.49583">
		<comp name="00.HNE" depth="0.0">
			<acc value="0.017013360989418" flag="0"/>
			<vel value="0.0141594512535" flag="0"/>
			<psa03 value="0.0416235672528657" flag="0"/>
			<psa10 value="0.0199243892679861" flag="0"/>
			<psa30 value="0.00228881328931551" flag="0"/>
		</comp>
		<comp name="00.HNN" depth="0.0">
			<acc value="0.024455625552354" flag="0"/>
			<vel value="0.0214750884759" flag="0"/>
			<psa03 value="0.0442060430167512" flag="0"/>
			<psa10 value="0.0231736457653019" flag="0"/>
			<psa30 value="0.0026017825636592" flag="0"/>
		</comp>
		<comp name="00.HNZ" depth="0.0">
			<acc value="0.021346802744394" flag="0"/>
			<vel value="0.0141140589461" flag="0"/>
			<psa03 value="0.0440423863419575" flag="0"/>
			<psa10 value="0.0189072843897855" flag="0"/>
			<psa30 value="0.00198295406930658" flag="0"/>
		</comp>
	</station>
	<station code="PATC" name="PATC" netid="HL" source="National Observatory of Athens Seismic Network" insttype="" lat="38.26933" lon="21.76001">
		<comp name="00.HNE" depth="0.0">
			<acc value="0.45852206425794" flag="0"/>
			<vel value="0.221423644946" flag="0"/>
			<psa03 value="0.999503378858706" flag="0"/>
			<psa10 value="0.410768491397459" flag="0"/>
			<psa30 value="0.0233916245803382" flag="0"/>
		</comp>
		<comp name="00.HNN" depth="0.0">
			<acc value="0.44070392001156" flag="0"/>
			<vel value="0.208262202671" flag="0"/>
			<psa03 value="1.17845365010337" flag="0"/>
			<psa10 value="0.183941360212483" flag="0"/>
			<psa30 value="0.0276700630058909" flag="0"/>
		</comp>
		<comp name="00.HNZ" depth="0.0">
			<acc value="0.23941370624904" flag="0"/>
			<vel value="0.104545915024" flag="0"/>
			<psa03 value="0.460319077212771" flag="0"/>
			<psa10 value="0.12975034532347" flag="0"/>
			<psa30 value="0.00943537671405035" flag="0"/>
		</comp>
	</station>
	<station code="PATG" name="PATG" netid="HL" source="National Observatory of Athens Seismic Network" insttype="" lat="38.23865" lon="21.72657">
		<comp name="00.HNE" depth="0.0">
			<acc value="0.80106597447918" flag="0"/>
			<vel value="0.497684329825" flag="0"/>
			<psa03 value="2.39394658721041" flag="0"/>
			<psa10 value="0.394817604728458" flag="0"/>
			<psa30 value="0.029119822378658" flag="0"/>
		</comp>
		<comp name="00.HNN" depth="0.0">
			<acc value="0.9660928379424" flag="0"/>
			<vel value="0.435156241302" flag="0"/>
			<psa03 value="1.88301957413675" flag="0"/>
			<psa10 value="0.321401991304726" flag="0"/>
			<psa30 value="0.0381095512373873" flag="0"/>
		</comp>
		<comp name="00.HNZ" depth="0.0">
			<acc value="0.26216951732916" flag="0"/>
			<vel value="0.102845235007" flag="0"/>
			<psa03 value="0.691860415692329" flag="0"/>
			<psa10 value="0.139239808953808" flag="0"/>
			<psa30 value="0.0183790375210238" flag="0"/>
		</comp>
	</station>
	<station code="RIOA" name="RIOA" netid="HL" source="National Observatory of Athens Seismic Network" insttype="" lat="38.29585" lon="21.79118">
		<comp name="00.HNE" depth="0.0">
			<acc value="0.3735406587216" flag="0"/>
			<vel value="0.148330807465" flag="0"/>
			<psa03 value="0.561032373973509" flag="0"/>
			<psa10 value="0.163079943245878" flag="0"/>
			<psa30 value="0.0106663832622014" flag="0"/>
		</comp>
		<comp name="00.HNN" depth="0.0">
			<acc value="0.29066559960036" flag="0"/>
			<vel value="0.141197400643" flag="0"/>
			<psa03 value="0.702321775368587" flag="0"/>
			<psa10 value="0.176734042762823" flag="0"/>
			<psa30 value="0.0165938175923255" flag="0"/>
		</comp>
		<comp name="00.HNZ" depth="0.0">
			<acc value="0.30990402252324" flag="0"/>
			<vel value="0.086980258684" flag="0"/>
			<psa03 value="0.344127900951219" flag="0"/>
			<psa10 value="0.0539280774705044" flag="0"/>
			<psa30 value="0.00845349916947967" flag="0"/>
		</comp>
	</station>
	<station code="FSK" name="FSK" netid="HP" source="University of Patras, Seismological Laboratory (PSLNET)" insttype="" lat="38.4593" lon="20.5623">
		<comp name=".HNE" depth="0.0">
			<acc value="0.093799732503546" flag="0"/>
			<vel value="0.0472410691287" flag="0"/>
			<psa03 value="0.177682520594847" flag="0"/>
			<psa10 value="0.0661755338041893" flag="0"/>
			<psa30 value="0.00540275123909422" flag="0"/>
		</comp>
		<comp name=".HNN" depth="0.0">
			<acc value="0.043291493360592" flag="0"/>
			<vel value="0.0289923724867" flag="0"/>
			<psa03 value="0.0949790835647272" flag="0"/>
			<psa10 value="0.0384015989174481" flag="0"/>
			<psa30 value="0.00805462107910392" flag="0"/>
		</comp>
		<comp name=".HNZ" depth="0.0">
			<acc value="0.031387705853208" flag="0"/>
			<vel value="0.0274807523113" flag="0"/>
			<psa03 value="0.0679492721391434" flag="0"/>
			<psa10 value="0.0333868904676277" flag="0"/>
			<psa30 value="0.00541536582474801" flag="0"/>
		</comp>
	</station>
	<station code="GUR" name="GUR" netid="HP" source="University of Patras, Seismological Laboratory (PSLNET)" insttype="" lat="37.9363" lon="22.3423">
		<comp name=".HNE" depth="0.0">
			<acc value="0.14058712205946" flag="0"/>
			<vel value="0.0682805341279" flag="0"/>
			<psa03 value="0.3761631272944" flag="0"/>
			<psa10 value="0.0554430803317764" flag="0"/>
			<psa30 value="0.00351121551746062" flag="0"/>
		</comp>
		<comp name=".HNN" depth="0.0">
			<acc value="0.1049509825173" flag="0"/>
			<vel value="0.0682204864577" flag="0"/>
			<psa03 value="0.300991460040261" flag="0"/>
			<psa10 value="0.0491759689166797" flag="0"/>
			<psa30 value="0.00303869254846738" flag="0"/>
		</comp>
		<comp name=".HNZ" depth="0.0">
			<acc value="0.067371472380564" flag="0"/>
			<vel value="0.0448397175736" flag="0"/>
			<psa03 value="0.113499935480185" flag="0"/>
			<psa10 value="0.0310575605359451" flag="0"/>
			<psa30 value="0.00210741543926355" flag="0"/>
		</comp>
	</station>
	<station code="LTHK" name="LTHK" netid="HP" source="University of Patras, Seismological Laboratory (PSLNET)" insttype="" lat="37.7095" lon="20.8367">
		<comp name=".HNE" depth="0.0">
			<acc value="0.63461056294752" flag="0"/>
			<vel value="0.157992446374" flag="0"/>
			<psa03 value="0.825736701004483" flag="0"/>
			<psa10 value="0.0992666234265948" flag="0"/>
			<psa30 value="0.00635301168917481" flag="0"/>
		</comp>
		<comp name=".HNN" depth="0.0">
			<acc value="0.57435958868022" flag="0"/>
			<vel value="0.166160976797" flag="0"/>
