<?xml version="1.0" encoding="UTF-8" standalone="yes"?>
<!DOCTYPE earthquake SYSTEM "stationlist.dtd">
<stationlist created="" xmlns="ch.ethz.sed.shakemap.usgs.xml">
  <station code="PSAM" name="PSAM" netid="CL" insttype="CMG40-T" lat="38.3218" lon="22.1842">
    <comp name="00.HHN">
      <acc value="0.0700367899" flag="0"/>
      <vel value="0.0402130198" flag="0"/>
      <psa03 value="0.2340366629" flag="0"/>
      <psa10 value="0.0583546073" flag="0"/>
      <psa30 value="0.0037378676" flag="0"/>
    </comp>
    <comp name="00.HHZ">
      <acc value="0.0359373928" flag="0"/>
      <vel value="0.0211697526" flag="0"/>
      <psa03 value="0.0681346807" flag="0"/>
      <psa10 value="0.0230639304" flag="0"/>
      <psa30 value="0.0019792339" flag="0"/>
    </comp>
    <comp name="00.HHE">
      <acc value="0.1084494874" flag="0"/>
      <vel value="0.0566705440" flag="0"/>
      <psa03 value="0.3292450363" flag="0"/>
      <psa10 value="0.0553809292" flag="0"/>
      <psa30 value="0.0051876501" flag="0"/>
    </comp>
  </station>
  <station code="ROD3" name="ROD3" netid="CL" insttype="CMG40-T" lat="38.3081" lon="21.892">
    <comp name="00.HHN">
      <acc value="0.8144097697" flag="0"/>
      <vel value="0.4140931230" flag="0"/>
      <psa03 value="1.6332406235" flag="0"/>
      <psa10 value="0.1962974672" flag="0"/>
      <psa30 value="0.0148985317" flag="0"/>
    </comp>
    <comp name="00.HHZ">
      <acc value="0.4686007228" flag="0"/>
      <vel value="0.1533411608" flag="0"/>
      <psa03 value="0.8343473806" flag="0"/>
      <psa10 value="0.0741338880" flag="0"/>
      <psa30 value="0.0063198807" flag="0"/>
    </comp>
    <comp name="00.HHE">
      <acc value="0.7697334061" flag="0"/>
      <vel value="0.4119709560" flag="0"/>
      <psa03 value="2.2667057771" flag="0"/>
      <psa10 value="0.1918566284" flag="0"/>
      <psa30 value="0.0118947141" flag="0"/>
    </comp>
  </station>
  <station code="TRIZ" name="TRIZ" netid="CL" insttype="STS-2" lat="38.3654" lon="22.0727">
    <comp name="00.HHZ">
      <acc value="0.0635686797" flag="0"/>
      <vel value="0.0253935540" flag="0"/>
      <psa03 value="0.1779628756" flag="0"/>
      <psa10 value="0.0276325947" flag="0"/>
      <psa30 value="0.0018926547" flag="0"/>
    </comp>
    <comp name="00.HH2">
      <acc value="0.1143987943" flag="0"/>
      <vel value="0.0533194633" flag="0"/>
      <psa03 value="0.4087166431" flag="0"/>
      <psa10 value="0.0399580902" flag="0"/>
      <psa30 value="0.0028054561" flag="0"/>
    </comp>
    <comp name="00.HH3">
      <acc value="0.1853901774" flag="0"/>
      <vel value="0.0912430162" flag="0"/>
      <psa03 value="0.7558001034" flag="0"/>
      <psa10 value="0.0484161056" flag="0"/>
      <psa30 value="0.0048852868" flag="0"/>
    </comp>
  </station>
  <station code="ZIRI" name="ZIRI" netid="CL" insttype="TRILLIUM-40" lat="38.3051" lon="21.9476">
    <comp name="01.HHE">
      <acc value="0.5178408741" flag="0"/>
      <vel value="0.3169959470" flag="0"/>
      <psa03 value="1.3197413657" flag="0"/>
      <psa10 value="0.1319803960" flag="0"/>
      <psa30 value="0.0109235083" flag="0"/>
    </comp>
    <comp name="01.HHZ">
      <acc value="0.2099166119" flag="0"/>
      <vel value="0.1064402308" flag="0"/>
      <psa03 value="0.6577354978" flag="0"/>
      <psa10 value="0.0354467035" flag="0"/>
      <psa30 value="0.0044004908" flag="0"/>
    </comp>
    <comp name="01.HHN">
      <acc value="0.3583195934" flag="0"/>
      <vel value="0.1853184431" flag="0"/>
      <psa03 value="0.8825998059" flag="0"/>
      <psa10 value="0.0962155900" flag="0"/>
      <psa30 value="0.0089018146" flag="0"/>
    </comp>
  </station>
  <station code="ACOR" name="ACOR" netid="HA" insttype="Horizon,120s,1200" lat="37.8905" lon="22.8694">
    <comp name="--.HHE">
      <acc value="0.0123710289" flag="0"/>
      <vel value="0.0111360483" flag="0"/>
      <psa03 value="0.0271085292" flag="0"/>
      <psa10 value="0.0177772662" flag="0"/>
      <psa30 value="0.0019945755" flag="0"/>
    </comp>
    <comp name="--.HHZ">
      <acc value="0.0094855908" flag="0"/>
      <vel value="0.0090295824" flag="0"/>
      <psa03 value="0.0193379662" flag="0"/>
      <psa10 value="0.0164089647" flag="0"/>
      <psa30 value="0.0013206531" flag="0"/>
    </comp>
    <comp name="--.HHN">
      <acc value="0.0102305274" flag="0"/>
      <vel value="0.0110244525" flag="0"/>
      <psa03 value="0.0216027423" flag="0"/>
      <psa10 value="0.0152524525" flag="0"/>
      <psa30 value="0.0023915562" flag="0"/>
    </comp>
  </station>
  <station code="AIGS" name="AIGS" netid="HA" insttype="DC" lat="38.25" lon="22.0878">
    <comp name="--.HNN">
      <acc value="0.2748845926" flag="0"/>
      <vel value="0.1213288670" flag="0"/>
      <psa03 value="0.5792730398" flag="0"/>
      <psa10 value="0.1215442927" flag="0"/>
      <psa30 value="0.0074906826" flag="0"/>
    </comp>
    <comp name="--.HNE">
      <acc value="0.2786475585" flag="0"/>
      <vel value="0.1053687884" flag="0"/>
      <psa03 value="1.1115232706" flag="0"/>
      <psa10 value="0.0470438013" flag="0"/>
      <psa30 value="0.0062966515" flag="0"/>
    </comp>
    <comp name="--.HNZ">
      <acc value="0.1801025073" flag="0"/>
      <vel value="0.0565850964" flag="0"/>
      <psa03 value="0.3439053983" flag="0"/>
      <psa10 value="0.0409258718" flag="0"/>
      <psa30 value="0.0064984195" flag="0"/>
    </comp>
  </station>
  <station code="ANTK" name="ANTK" netid="HA" insttype="25" lat="38.3605" lon="22.6385">
    <comp name="--.HHZ">
      <acc value="0.0053160216" flag="0"/>
      <vel value="0.0050523475" flag="0"/>
      <psa03 value="0.0138096540" flag="0"/>
      <psa10 value="0.0082208252" flag="0"/>
      <psa30 value="0.0005168728" flag="0"/>
    </comp>
    <comp name="--.HHN">
      <acc value="0.0003204106" flag="0"/>
      <vel value="0.0001549422" flag="0"/>
      <psa03 value="0.0007500098" flag="0"/>
      <psa10 value="0.0001712712" flag="0"/>
      <psa30 value="0.0000091767" flag="0"/>
    </comp>
    <comp name="--.HHE">
      <acc value="0.0055969451" flag="0"/>
      <vel value="0.0069169027" flag="0"/>
      <psa03 value="0.0141895622" flag="0"/>
      <psa10 value="0.0123890741" flag="0"/>
      <psa30 value="0.0007283472" flag="0"/>
    </comp>
  </station>
  <station code="ATHR" name="ATHR" netid="HA" insttype="GEOtiny," lat="38.3172" lon="20.4165">
    <comp name="--.HHN">
      <acc value="0.0371911448" flag="0"/>
      <vel value="0.0261152130" flag="0"/>
      <psa03 value="0.1464393758" flag="0"/>
      <psa10 value="0.0257714641" flag="0"/>
      <psa30 value="0.0047905856" flag="0"/>
    </comp>
    <comp name="--.HHE">
      <acc value="0.0389317576" flag="0"/>
      <vel value="0.0275079921" flag="0"/>
      <psa03 value="0.0977958729" flag="0"/>
      <psa10 value="0.0338071401" flag="0"/>
      <psa30 value="0.0030967090" flag="0"/>
    </comp>
    <comp name="--.HHZ">
      <acc value="0.0282239458" flag="0"/>
      <vel value="0.0193522911" flag="0"/>
      <psa03 value="0.0680617435" flag="0"/>
      <psa10 value="0.0401815597" flag="0"/>
      <psa30 value="0.0030131116" flag="0"/>
    </comp>
  </station>
  <station code="HAVD" name="HAVD" netid="HA" insttype="GEOtiny," lat="38.2036" lon="20.3848">
    <comp name="--.HHE">
      <acc value="0.0536424466" flag="0"/>
      <vel value="0.0237300521" flag="0"/>
      <psa03 value="0.1109249316" flag="0"/>
      <psa10 value="0.0455748900" flag="0"/>
      <psa30 value="0.0021974996" flag="0"/>
    </comp>
    <comp name="--.HHN">
      <acc value="0.0866891523" flag="0"/>
      <vel value="0.0378559428" flag="0"/>
      <psa03 value="0.1615518926" flag="0"/>
      <psa10 value="0.0531290705" flag="0"/>
      <psa30 value="0.0035324438" flag="0"/>
    </comp>
    <comp name="--.HHZ">
      <acc value="0.0468235116" flag="0"/>
      <vel value="0.0206293165" flag="0"/>
      <psa03 value="0.1277404437" flag="0"/>
      <psa10 value="0.0188997071" flag="0"/>
      <psa30 value="0.0017925194" flag="0"/>
    </comp>
  </station>
  <station code="KALE" name="KALE" netid="HA" insttype="40," lat="38.3911" lon="22.1398">
    <comp name="--.HHN">
      <acc value="0.1109085508" flag="0"/>
      <vel value="0.0698543179" flag="0"/>
      <psa03 value="0.2358949447" flag="0"/>
      <psa10 value="0.0424617904" flag="0"/>
      <psa30 value="0.0033748507" flag="0"/>
    </comp>
    <comp name="--.HHZ">
      <acc value="0.0773152414" flag="0"/>
      <vel value="0.0288558958" flag="0"/>
      <psa03 value="0.2052891524" flag="0"/>
      <psa10 value="0.0186768342" flag="0"/>
      <psa30 value="0.0023555328" flag="0"/>
    </comp>
    <comp name="--.HHE">
      <acc value="0.1512384398" flag="0"/>
      <vel value="0.0775751974" flag="0"/>
      <psa03 value="0.2422181977" flag="0"/>
      <psa10 value="0.0528323526" flag="0"/>
      <psa30 value="0.0030204701" flag="0"/>
    </comp>
  </station>
  <station code="LAKA" name="LAKA" netid="HA" insttype="120s," lat="38.2401" lon="21.9785">
    <comp name="--.HHE">
      <acc value="0.0861856689" flag="0"/>
      <vel value="0.0371221137" flag="0"/>
      <psa03 value="0.2045438088" flag="0"/>
      <psa10 value="0.0343957223" flag="0"/>
      <psa30 value="0.0037489467" flag="0"/>
    </comp>
    <comp name="--.HHZ">
      <acc value="0.0446026758" flag="0"/>
      <vel value="0.0317226636" flag="0"/>
      <psa03 value="0.1089043828" flag="0"/>
      <psa10 value="0.0277560101" flag="0"/>
      <psa30 value="0.0036314284" flag="0"/>
    </comp>
    <comp name="--.HHN">
      <acc value="0.1016119509" flag="0"/>
      <vel value="0.0569872645" flag="0"/>
      <psa03 value="0.1767860398" flag="0"/>
      <psa10 value="0.0528075558" flag="0"/>
      <psa30 value="0.0051484856" flag="0"/>
    </comp>
  </station>
  <station code="THAL" name="THAL" netid="HA" insttype="30" lat="38.0357" lon="22.6634">
    <comp name="--.HHN">
      <acc value="0.0795728540" flag="0"/>
      <vel value="0.0598413191" flag="0"/>
      <psa03 value="0.1979303609" flag="0"/>
      <psa10 value="0.0810614825" flag="0"/>
      <psa30 value="0.0042277740" flag="0"/>
    </comp>
    <comp name="--.HHZ">
      <acc value="0.0415904349" flag="0"/>
      <vel value="0.0281016011" flag="0"/>
      <psa03 value="0.1176337129" flag="0"/>
      <psa10 value="0.0413082283" flag="0"/>
      <psa30 value="0.0021267552" flag="0"/>
    </comp>
    <comp name="--.HHE">
      <acc value="0.0858161383" flag="0"/>
      <vel value="0.0725283302" flag="0"/>
      <psa03 value="0.2213199266" flag="0"/>
      <psa10 value="0.0845613589" flag="0"/>
      <psa30 value="0.0067027898" flag="0"/>
    </comp>
  </station>
  <station code="ARG2" name="ARG2" netid="HI" insttype="CMG-5TD,ACCELEROMETER,GURALP" lat="38.1783" lon="20.4878">
    <comp name="--.HNE">
      <acc value="0.1390779303" flag="0"/>
      <vel value="0.0560991742" flag="0"/>
      <psa03 value="0.3544248554" flag="0"/>
      <psa10 value="0.0579872892" flag="0"/>
      <psa30 value="0.0045229836" flag="0"/>
    </comp>
    <comp name="--.HNZ">
      <acc value="0.0980567502" flag="0"/>
      <vel value="0.0363482516" flag="0"/>
      <psa03 value="0.2793481926" flag="0"/>
      <psa10 value="0.0402476742" flag="0"/>
      <psa30 value="0.0023941145" flag="0"/>
    </comp>
    <comp name="--.HNN">
      <acc value="0.1317812973" flag="0"/>
      <vel value="0.0622813900" flag="0"/>
      <psa03 value="0.3097465211" flag="0"/>
      <psa10 value="0.0573630032" flag="0"/>
      <psa30 value="0.0035280480" flag="0"/>
    </comp>
  </station>
  <station code="KRI1" name="KRI1" netid="HI" insttype="CMG-5TD,ACCELEROMETER,GURALP" lat="37.6621" lon="20.8172">
    <comp name="--.HNE">
      <acc value="0.3967541578" flag="0"/>
      <vel value="0.1768668805" flag="0"/>
      <psa03 value="0.7359029182" flag="0"/>
      <psa10 value="0.1102845383" flag="0"/>
      <psa30 value="0.0111071088" flag="0"/>
    </comp>
    <comp name="--.HNN">
      <acc value="0.3040681081" flag="0"/>
      <vel value="0.1449331296" flag="0"/>
      <psa03 value="0.9224781262" flag="0"/>
      <psa10 value="0.1236439246" flag="0"/>
      <psa30 value="0.0097105327" flag="0"/>
    </comp>
    <comp name="--.HNZ">
      <acc value="0.1987676083" flag="0"/>
      <vel value="0.0753141607" flag="0"/>
      <psa03 value="0.3367090960" flag="0"/>
      <psa10 value="0.0686259347" flag="0"/>
      <psa30 value="0.0061983491" flag="0"/>
    </comp>
  </station>
  <station code="MSL1" name="MSL1" netid="HI" insttype="CMG-5TD,ACCELEROMETER,GURALP" lat="38.3727" lon="21.4243">
    <comp name="--.HNN">
      <acc value="0.3888881400" flag="0"/>
      <vel value="0.3031639468" flag="0"/>
      <psa03 value="1.3722576515" flag="0"/>
      <psa10 value="0.3425079885" flag="0"/>
      <psa30 value="0.0171032108" flag="0"/>
    </comp>
    <comp name="--.HNE">
      <acc value="0.6596249548" flag="0"/>
      <vel value="0.3767166337" flag="0"/>
      <psa03 value="1.4422525351" flag="0"/>
      <psa10 value="0.3301449304" flag="0"/>
      <psa30 value="0.0265328635" flag="0"/>
    </comp>
    <comp name="--.HNZ">
      <acc value="0.1689162774" flag="0"/>
      <vel value="0.1100442926" flag="0"/>
      <psa03 value="0.4352072162" flag="0"/>
      <psa10 value="0.1844455568" flag="0"/>
      <psa30 value="0.0076399227" flag="0"/>
    </comp>
  </station>
  <station code="PYL1" name="PYL1" netid="HI" insttype="CMG-5TD,ACCELEROMETER,GURALP" lat="36.9142" lon="21.6952">
    <comp name="--.HNE">
      <acc value="0.0097662011" flag="0"/>
      <vel value="0.0129858166" flag="0"/>
      <psa03 value="0.0347385432" flag="0"/>
      <psa10 value="0.0239154192" flag="0"/>
      <psa30 value="0.0024653819" flag="0"/>
    </comp>
    <comp name="--.HNN">
      <acc value="0.0109926985" flag="0"/>
      <vel value="0.0086555160" flag="0"/>
      <psa03 value="0.0367882336" flag="0"/>
      <psa10 value="0.0139447541" flag="0"/>
      <psa30 value="0.0021626924" flag="0"/>
    </comp>
    <comp name="--.HNZ">
      <acc value="0.0071240977" flag="0"/>
      <vel value="0.0062589856" flag="0"/>
      <psa03 value="0.0162631592" flag="0"/>
      <psa10 value="0.0062414171" flag="0"/>
      <psa30 value="0.0012133373" flag="0"/>
    </comp>
  </station>
  <station code="VAS2" name="VAS2" netid="HI" insttype="CMG-5TD,ACCELEROMETER,GURALP" lat="38.6306" lon="20.6081">
    <comp name="--.HNE">
      <acc value="0.2343535286" flag="0"/>
      <vel value="0.1765200623" flag="0"/>
      <psa03 value="0.6678753999" flag="0"/>
      <psa10 value="0.4383595813" flag="0"/>
      <psa30 value="0.0147702226" flag="0"/>
    </comp>
    <comp name="--.HNN">
      <acc value="0.2902002231" flag="0"/>
      <vel value="0.2016705937" flag="0"/>
      <psa03 value="0.9368428511" flag="0"/>
      <psa10 value="0.5816363091" flag="0"/>
      <psa30 value="0.0183750787" flag="0"/>
    </comp>
    <comp name="--.HNZ">
      <acc value="0.1978944361" flag="0"/>
      <vel value="0.1378297446" flag="0"/>
      <psa03 value="0.4229161918" flag="0"/>
      <psa10 value="0.0852145383" flag="0"/>
      <psa30 value="0.0065887483" flag="0"/>
    </comp>
  </station>
  <station code="ELIN" name="ELIN" netid="HL" insttype="LE3D20_SMART24" lat="38.0995" lon="22.4874">
    <comp name="--.HHE">
      <acc value="0.1641560997" flag="0"/>
      <vel value="0.1268694026" flag="0"/>
      <psa03 value="0.5267896470" flag="0"/>
      <psa10 value="0.1224723814" flag="0"/>
      <psa30 value="0.0066665079" flag="0"/>
    </comp>
    <comp name="--.HHN">
      <acc value="0.2068273769" flag="0"/>
      <vel value="0.1293402107" flag="0"/>
      <psa03 value="0.5105980678" flag="0"/>
      <psa10 value="0.0932970641" flag="0"/>
      <psa30 value="0.0061583250" flag="0"/>
    </comp>
    <comp name="--.HHZ">
      <acc value="0.1252924133" flag="0"/>
      <vel value="0.0681520373" flag="0"/>
      <psa03 value="0.3618682266" flag="0"/>
      <psa10 value="0.0443503298" flag="0"/>
      <psa30 value="0.0063368933" flag="0"/>
    </comp>
  </station>
  <station code="EVR" name="EVR" netid="HL" insttype="DR24" lat="38.9166" lon="21.8105">
    <comp name="--.HHN">
      <acc value="0.0354061381" flag="0"/>
      <vel value="0.0231418159" flag="0"/>
      <psa03 value="0.0853811467" flag="0"/>
      <psa10 value="0.0403114741" flag="0"/>
      <psa30 value="0.0026699156" flag="0"/>
    </comp>
    <comp name="--.HHE">
      <acc value="0.0417125389" flag="0"/>
      <vel value="0.0280093030" flag="0"/>
      <psa03 value="0.1197829703" flag="0"/>
      <psa10 value="0.0331003487" flag="0"/>
      <psa30 value="0.0031962672" flag="0"/>
    </comp>
    <comp name="--.HHZ">
      <acc value="0.0257725066" flag="0"/>
      <vel value="0.0167452735" flag="0"/>
      <psa03 value="0.0547369304" flag="0"/>
      <psa10 value="0.0249465782" flag="0"/>
      <psa30 value="0.0015743485" flag="0"/>
    </comp>
  </station>
  <station code="ITM" name="ITM" netid="HL" insttype="DR24" lat="37.1787" lon="21.9252">
    <comp name="--.HHE">
      <acc value="0.0276471237" flag="0"/>
      <vel value="0.0458374855" flag="0"/>
      <psa03 value="0.0887379447" flag="0"/>
      <psa10 value="0.0502104699" flag="0"/>
      <psa30 value="0.0061825011" flag="0"/>
    </comp>
    <comp name="--.HHZ">
      <acc value="0.0218365792" flag="0"/>
      <vel value="0.0214927420" flag="0"/>
      <psa03 value="0.0534623453" flag="0"/>
      <psa10 value="0.0269474086" flag="0"/>
      <psa30 value="0.0051168329" flag="0"/>
    </comp>
    <comp name="--.HHN">
      <acc value="0.0287145139" flag="0"/>
      <vel value="0.0291406979" flag="0"/>
      <psa03 value="0.0725714786" flag="0"/>
      <psa10 value="0.0511972868" flag="0"/>
      <psa30 value="0.0051175030" flag="0"/>
    </comp>
  </station>
  <station code="KLV" name="KLV" netid="HL" insttype="120" lat="38.0435" lon="22.1504">
    <comp name="--.HHE">
      <acc value="0.0466340340" flag="0"/>
      <vel value="0.0262593100" flag="0"/>
      <psa03 value="0.1514718171" flag="0"/>
      <psa10 value="0.0204517041" flag="0"/>
      <psa30 value="0.0024290542" flag="0"/>
    </comp>
    <comp name="--.HHN">
      <acc value="0.0614427891" flag="0"/>
      <vel value="0.0408713278" flag="0"/>
      <psa03 value="0.1769864272" flag="0"/>
      <psa10 value="0.0507058430" flag="0"/>
      <psa30 value="0.0029439603" flag="0"/>
    </comp>
    <comp name="--.HHZ">
      <acc value="0.0715308070" flag="0"/>
      <vel value="0.0249481054" flag="0"/>
      <psa03 value="0.1831454092" flag="0"/>
      <psa10 value="0.0439205047" flag="0"/>
      <psa30 value="0.0019637688" flag="0"/>
    </comp>
  </station>
  <station code="ORTH" name="ORTH" netid="HL" insttype="30" lat="37.8511" lon="20.6963">
    <comp name="--.HHZ">
      <acc value="0.1612798050" flag="0"/>
      <vel value="0.0414236918" flag="0"/>
      <psa03 value="0.2608916719" flag="0"/>
      <psa10 value="0.0279797439" flag="0"/>
      <psa30 value="0.0087702246" flag="0"/>
    </comp>
    <comp name="--.HHE">
      <acc value="0.2581119627" flag="0"/>
      <vel value="0.1074611514" flag="0"/>
      <psa03 value="0.5943465816" flag="0"/>
      <psa10 value="0.0807732977" flag="0"/>
      <psa30 value="0.0123299742" flag="0"/>
    </comp>
    <comp name="--.HHN">
      <acc value="0.3664614357" flag="0"/>
      <vel value="0.1224386693" flag="0"/>
      <psa03 value="0.4219325798" flag="0"/>
      <psa10 value="0.0827382611" flag="0"/>
      <psa30 value="0.0136677187" flag="0"/>
    </comp>
  </station>
  <station code="PATC" name="PATC" netid="HL" insttype="CMG-5" lat="38.2693" lon="21.76">
    <comp name="00.HNN">
      <acc value="0.4419100367" flag="0"/>
      <vel value="0.2042092015" flag="0"/>
      <psa03 value="1.1837878658" flag="0"/>
      <psa10 value="0.1837941021" flag="0"/>
      <psa30 value="0.0209374289" flag="0"/>
    </comp>
