<?xml version="1.0" encoding="UTF-8" standalone="yes"?>
<!DOCTYPE earthquake SYSTEM "stationlist.dtd">
<stationlist created="" xmlns="ch.ethz.sed.shakemap.usgs.xml">
  <station code="PSAM" name="PSAM" netid="CL" insttype="CMG40-T" lat="38.3218" lon="22.1842">
    <comp name="00.HHZ">
      <acc value="0.0359373929" flag="0"/>
      <vel value="0.0211697528" flag="0"/>
      <psa03 value="0.0681346807" flag="0"/>
      <psa10 value="0.0230639304" flag="0"/>
      <psa30 value="0.0019792940" flag="0"/>
    </comp>
    <comp name="00.HHN">
      <acc value="0.0700367900" flag="0"/>
      <vel value="0.0402130191" flag="0"/>
      <psa03 value="0.2340366629" flag="0"/>
      <psa10 value="0.0583546072" flag="0"/>
      <psa30 value="0.0037378473" flag="0"/>
    </comp>
    <comp name="00.HHE">
      <acc value="0.1084494870" flag="0"/>
      <vel value="0.0566705443" flag="0"/>
      <psa03 value="0.3292450363" flag="0"/>
      <psa10 value="0.0553809287" flag="0"/>
      <psa30 value="0.0051877600" flag="0"/>
    </comp>
  </station>
  <station code="ROD3" name="ROD3" netid="CL" insttype="CMG40-T" lat="38.3081" lon="21.892">
    <comp name="00.HHE">
      <acc value="0.7697334061" flag="0"/>
      <vel value="0.4119709585" flag="0"/>
      <psa03 value="2.2667057771" flag="0"/>
      <psa10 value="0.1918566273" flag="0"/>
      <psa30 value="0.0118947306" flag="0"/>
    </comp>
    <comp name="00.HHZ">
      <acc value="0.4686007230" flag="0"/>
      <vel value="0.1533411604" flag="0"/>
      <psa03 value="0.8343473806" flag="0"/>
      <psa10 value="0.0741338876" flag="0"/>
      <psa30 value="0.0063197582" flag="0"/>
    </comp>
    <comp name="00.HHN">
      <acc value="0.8144097715" flag="0"/>
      <vel value="0.4140931226" flag="0"/>
      <psa03 value="1.6332406235" flag="0"/>
      <psa10 value="0.1962974668" flag="0"/>
      <psa30 value="0.0148981314" flag="0"/>
    </comp>
  </station>
  <station code="TRIZ" name="TRIZ" netid="CL" insttype="STS-2" lat="38.3654" lon="22.0727">
    <comp name="00.HH2">
      <acc value="0.1143987945" flag="0"/>
      <vel value="0.0533194640" flag="0"/>
      <psa03 value="0.4087166431" flag="0"/>
      <psa10 value="0.0399580904" flag="0"/>
      <psa30 value="0.0028055670" flag="0"/>
    </comp>
    <comp name="00.HH3">
      <acc value="0.1853901772" flag="0"/>
      <vel value="0.0912430179" flag="0"/>
      <psa03 value="0.7558001034" flag="0"/>
      <psa10 value="0.0484161055" flag="0"/>
      <psa30 value="0.0048853008" flag="0"/>
    </comp>
    <comp name="00.HHZ">
      <acc value="0.0635686794" flag="0"/>
      <vel value="0.0253935539" flag="0"/>
      <psa03 value="0.1779628756" flag="0"/>
      <psa10 value="0.0276325947" flag="0"/>
      <psa30 value="0.0018926431" flag="0"/>
    </comp>
  </station>
  <station code="ZIRI" name="ZIRI" netid="CL" insttype="TRILLIUM-40" lat="38.3051" lon="21.9476">
    <comp name="01.HHZ">
      <acc value="0.2099166121" flag="0"/>
      <vel value="0.1064402305" flag="0"/>
      <psa03 value="0.6577354978" flag="0"/>
      <psa10 value="0.0354467030" flag="0"/>
      <psa30 value="0.0044004897" flag="0"/>
    </comp>
    <comp name="01.HHN">
      <acc value="0.3583195928" flag="0"/>
      <vel value="0.1853184443" flag="0"/>
      <psa03 value="0.8825998059" flag="0"/>
      <psa10 value="0.0962155900" flag="0"/>
      <psa30 value="0.0089017674" flag="0"/>
    </comp>
    <comp name="01.HHE">
      <acc value="0.5178408737" flag="0"/>
      <vel value="0.3169959478" flag="0"/>
      <psa03 value="1.3197413657" flag="0"/>
      <psa10 value="0.1319803956" flag="0"/>
      <psa30 value="0.0109235947" flag="0"/>
    </comp>
  </station>
  <station code="ANTK" name="ANTK" netid="HA" insttype="25" lat="38.3605" lon="22.6385">
    <comp name="--.HHE">
      <acc value="0.0055969449" flag="0"/>
      <vel value="0.0069169012" flag="0"/>
      <psa03 value="0.0141895622" flag="0"/>
      <psa10 value="0.0123890741" flag="0"/>
      <psa30 value="0.0007283424" flag="0"/>
    </comp>
    <comp name="--.HHN">
      <acc value="0.0003204108" flag="0"/>
      <vel value="0.0001549414" flag="0"/>
      <psa03 value="0.0007500098" flag="0"/>
      <psa10 value="0.0001712712" flag="0"/>
      <psa30 value="0.0000091650" flag="0"/>
    </comp>
    <comp name="--.HHZ">
      <acc value="0.0053160217" flag="0"/>
      <vel value="0.0050523468" flag="0"/>
      <psa03 value="0.0138096540" flag="0"/>
      <psa10 value="0.0082208253" flag="0"/>
      <psa30 value="0.0005168732" flag="0"/>
    </comp>
  </station>
  <station code="ATHR" name="ATHR" netid="HA" insttype="GEOtiny," lat="38.3172" lon="20.4165">
    <comp name="--.HHN">
      <acc value="0.0371911440" flag="0"/>
      <vel value="0.0261149407" flag="0"/>
      <psa03 value="0.1464393750" flag="0"/>
      <psa10 value="0.0257714653" flag="0"/>
      <psa30 value="0.0047906029" flag="0"/>
    </comp>
    <comp name="--.HHZ">
      <acc value="0.0282239465" flag="0"/>
      <vel value="0.0193529231" flag="0"/>
      <psa03 value="0.0680617441" flag="0"/>
      <psa10 value="0.0401815589" flag="0"/>
      <psa30 value="0.0030132291" flag="0"/>
    </comp>
    <comp name="--.HHE">
      <acc value="0.0389317526" flag="0"/>
      <vel value="0.0275089817" flag="0"/>
      <psa03 value="0.0977958718" flag="0"/>
      <psa10 value="0.0338071383" flag="0"/>
      <psa30 value="0.0030966782" flag="0"/>
    </comp>
  </station>
  <station code="HAVD" name="HAVD" netid="HA" insttype="GEOtiny," lat="38.2036" lon="20.3848">
    <comp name="--.HHZ">
      <acc value="0.0468235132" flag="0"/>
      <vel value="0.0206293234" flag="0"/>
      <psa03 value="0.1277404430" flag="0"/>
      <psa10 value="0.0188997081" flag="0"/>
      <psa30 value="0.0017924669" flag="0"/>
    </comp>
    <comp name="--.HHN">
      <acc value="0.0866891504" flag="0"/>
      <vel value="0.0378556670" flag="0"/>
      <psa03 value="0.1615518931" flag="0"/>
      <psa10 value="0.0531290712" flag="0"/>
      <psa30 value="0.0035324208" flag="0"/>
    </comp>
    <comp name="--.HHE">
      <acc value="0.0536424474" flag="0"/>
      <vel value="0.0237300090" flag="0"/>
      <psa03 value="0.1109249342" flag="0"/>
      <psa10 value="0.0455748866" flag="0"/>
      <psa30 value="0.0021974975" flag="0"/>
    </comp>
  </station>
  <station code="KALE" name="KALE" netid="HA" insttype="40," lat="38.3911" lon="22.1398">
    <comp name="--.HHE">
      <acc value="0.1512384393" flag="0"/>
      <vel value="0.0775751969" flag="0"/>
      <psa03 value="0.2422181978" flag="0"/>
      <psa10 value="0.0528323526" flag="0"/>
      <psa30 value="0.0030204219" flag="0"/>
    </comp>
    <comp name="--.HHZ">
      <acc value="0.0773152417" flag="0"/>
      <vel value="0.0288558971" flag="0"/>
      <psa03 value="0.2052891524" flag="0"/>
      <psa10 value="0.0186768342" flag="0"/>
      <psa30 value="0.0023554934" flag="0"/>
    </comp>
    <comp name="--.HHN">
      <acc value="0.1109085504" flag="0"/>
      <vel value="0.0698542676" flag="0"/>
      <psa03 value="0.2358949448" flag="0"/>
      <psa10 value="0.0424617905" flag="0"/>
      <psa30 value="0.0033750140" flag="0"/>
    </comp>
  </station>
  <station code="LAKA" name="LAKA" netid="HA" insttype="120s," lat="38.2401" lon="21.9785">
    <comp name="--.HHE">
      <acc value="0.0861856688" flag="0"/>
      <vel value="0.0371221123" flag="0"/>
      <psa03 value="0.2045438088" flag="0"/>
      <psa10 value="0.0343957223" flag="0"/>
      <psa30 value="0.0037489707" flag="0"/>
    </comp>
    <comp name="--.HHN">
      <acc value="0.1016119508" flag="0"/>
      <vel value="0.0569872647" flag="0"/>
      <psa03 value="0.1767860398" flag="0"/>
      <psa10 value="0.0528075557" flag="0"/>
      <psa30 value="0.0051484303" flag="0"/>
    </comp>
    <comp name="--.HHZ">
      <acc value="0.0446026761" flag="0"/>
      <vel value="0.0317226635" flag="0"/>
      <psa03 value="0.1089043828" flag="0"/>
      <psa10 value="0.0277560100" flag="0"/>
      <psa30 value="0.0036313825" flag="0"/>
    </comp>
  </station>
  <station code="THAL" name="THAL" netid="HA" insttype="30" lat="38.0357" lon="22.6634">
    <comp name="--.HHZ">
      <acc value="0.0415904348" flag="0"/>
      <vel value="0.0281015985" flag="0"/>
      <psa03 value="0.1176337129" flag="0"/>
      <psa10 value="0.0413082283" flag="0"/>
      <psa30 value="0.0021267255" flag="0"/>
    </comp>
    <comp name="--.HHE">
      <acc value="0.0858161388" flag="0"/>
      <vel value="0.0725283290" flag="0"/>
      <psa03 value="0.2213199266" flag="0"/>
      <psa10 value="0.0845613589" flag="0"/>
      <psa30 value="0.0067027651" flag="0"/>
    </comp>
    <comp name="--.HHN">
      <acc value="0.0795728542" flag="0"/>
      <vel value="0.0598413209" flag="0"/>
      <psa03 value="0.1979303609" flag="0"/>
      <psa10 value="0.0810614825" flag="0"/>
      <psa30 value="0.0042278325" flag="0"/>
    </comp>
  </station>
  <station code="ARG2" name="ARG2" netid="HI" insttype="CMG-5TD,ACCELEROMETER,GURALP" lat="38.1783" lon="20.4878">
    <comp name="--.HNN">
      <acc value="0.1317812971" flag="0"/>
      <vel value="0.0622813938" flag="0"/>
      <psa03 value="0.3097465211" flag="0"/>
      <psa10 value="0.0573630033" flag="0"/>
      <psa30 value="0.0035279784" flag="0"/>
    </comp>
    <comp name="--.HNZ">
      <acc value="0.0980567481" flag="0"/>
      <vel value="0.0363482522" flag="0"/>
      <psa03 value="0.2793481926" flag="0"/>
      <psa10 value="0.0402476743" flag="0"/>
      <psa30 value="0.0023933892" flag="0"/>
    </comp>
    <comp name="--.HNE">
      <acc value="0.1390779326" flag="0"/>
      <vel value="0.0560991733" flag="0"/>
      <psa03 value="0.3544248554" flag="0"/>
      <psa10 value="0.0579872892" flag="0"/>
      <psa30 value="0.0045230098" flag="0"/>
    </comp>
  </station>
  <station code="KRI1" name="KRI1" netid="HI" insttype="CMG-5TD,ACCELEROMETER,GURALP" lat="37.6621" lon="20.8172">
    <comp name="--.HNN">
      <acc value="0.3040681049" flag="0"/>
      <vel value="0.1449331308" flag="0"/>
      <psa03 value="0.9224781262" flag="0"/>
      <psa10 value="0.1236439233" flag="0"/>
      <psa30 value="0.0097093993" flag="0"/>
    </comp>
    <comp name="--.HNE">
      <acc value="0.3967541574" flag="0"/>
      <vel value="0.1768668844" flag="0"/>
      <psa03 value="0.7359029182" flag="0"/>
      <psa10 value="0.1102845394" flag="0"/>
      <psa30 value="0.0111069949" flag="0"/>
    </comp>
    <comp name="--.HNZ">
      <acc value="0.1987676135" flag="0"/>
      <vel value="0.0753141593" flag="0"/>
      <psa03 value="0.3367090960" flag="0"/>
      <psa10 value="0.0686259369" flag="0"/>
      <psa30 value="0.0061976691" flag="0"/>
    </comp>
  </station>
  <station code="MSL1" name="MSL1" netid="HI" insttype="CMG-5TD,ACCELEROMETER,GURALP" lat="38.3727" lon="21.4243">
    <comp name="--.HNE">
      <acc value="0.6596249563" flag="0"/>
      <vel value="0.3767166318" flag="0"/>
      <psa03 value="1.4422525351" flag="0"/>
      <psa10 value="0.3301449248" flag="0"/>
      <psa30 value="0.0265317683" flag="0"/>
    </comp>
    <comp name="--.HNZ">
      <acc value="0.1689162772" flag="0"/>
      <vel value="0.1100442911" flag="0"/>
      <psa03 value="0.4352072162" flag="0"/>
      <psa10 value="0.1844455568" flag="0"/>
      <psa30 value="0.0076398786" flag="0"/>
    </comp>
    <comp name="--.HNN">
      <acc value="0.3888881399" flag="0"/>
      <vel value="0.3031639456" flag="0"/>
      <psa03 value="1.3722576515" flag="0"/>
      <psa10 value="0.3425079921" flag="0"/>
      <psa30 value="0.0171019262" flag="0"/>
    </comp>
  </station>
  <station code="VAS2" name="VAS2" netid="HI" insttype="CMG-5TD,ACCELEROMETER,GURALP" lat="38.6306" lon="20.6081">
    <comp name="--.HNE">
      <acc value="0.2343535298" flag="0"/>
      <vel value="0.1765200630" flag="0"/>
      <psa03 value="0.6678753999" flag="0"/>
      <psa10 value="0.4383595813" flag="0"/>
      <psa30 value="0.0147701136" flag="0"/>
    </comp>
    <comp name="--.HNN">
      <acc value="0.2902002228" flag="0"/>
      <vel value="0.2016705968" flag="0"/>
      <psa03 value="0.9368428511" flag="0"/>
      <psa10 value="0.5816363092" flag="0"/>
      <psa30 value="0.0183749670" flag="0"/>
    </comp>
    <comp name="--.HNZ">
      <acc value="0.1978944364" flag="0"/>
      <vel value="0.1378297409" flag="0"/>
      <psa03 value="0.4229161918" flag="0"/>
      <psa10 value="0.0852145383" flag="0"/>
      <psa30 value="0.0065887647" flag="0"/>
    </comp>
  </station>
  <station code="ELIN" name="ELIN" netid="HL" insttype="LE3D20_SMART24" lat="38.0995" lon="22.4874">
    <comp name="--.HHE">
      <acc value="0.1641560981" flag="0"/>
      <vel value="0.1268693914" flag="0"/>
      <psa03 value="0.5267896470" flag="0"/>
      <psa10 value="0.1224723818" flag="0"/>
      <psa30 value="0.0066665724" flag="0"/>
    </comp>
    <comp name="--.HHN">
      <acc value="0.2068273771" flag="0"/>
      <vel value="0.1293398493" flag="0"/>
      <psa03 value="0.5105980672" flag="0"/>
      <psa10 value="0.0932970635" flag="0"/>
      <psa30 value="0.0061582306" flag="0"/>
    </comp>
    <comp name="--.HHZ">
      <acc value="0.1252924158" flag="0"/>
      <vel value="0.0681519686" flag="0"/>
      <psa03 value="0.3618682269" flag="0"/>
      <psa10 value="0.0443503299" flag="0"/>
      <psa30 value="0.0063361941" flag="0"/>
    </comp>
  </station>
  <station code="EVR" name="EVR" netid="HL" insttype="DR24" lat="38.9166" lon="21.8105">
    <comp name="--.HHN">
      <acc value="0.0354061385" flag="0"/>
      <vel value="0.0231418147" flag="0"/>
      <psa03 value="0.0853811467" flag="0"/>
      <psa10 value="0.0403114741" flag="0"/>
      <psa30 value="0.0026698961" flag="0"/>
    </comp>
    <comp name="--.HHZ">
      <acc value="0.0257725063" flag="0"/>
      <vel value="0.0167452773" flag="0"/>
      <psa03 value="0.0547369304" flag="0"/>
      <psa10 value="0.0249465782" flag="0"/>
      <psa30 value="0.0015743522" flag="0"/>
    </comp>
    <comp name="--.HHE">
      <acc value="0.0417125383" flag="0"/>
      <vel value="0.0280093025" flag="0"/>
      <psa03 value="0.1197829703" flag="0"/>
      <psa10 value="0.0331003487" flag="0"/>
      <psa30 value="0.0031961785" flag="0"/>
    </comp>
  </station>
  <station code="ITM" name="ITM" netid="HL" insttype="DR24" lat="37.1787" lon="21.9252">
    <comp name="--.HHE">
      <acc value="0.0276471239" flag="0"/>
      <vel value="0.0458374856" flag="0"/>
      <psa03 value="0.0887379447" flag="0"/>
      <psa10 value="0.0502104698" flag="0"/>
      <psa30 value="0.0061825429" flag="0"/>
    </comp>
    <comp name="--.HHN">
      <acc value="0.0287145143" flag="0"/>
      <vel value="0.0291406949" flag="0"/>
      <psa03 value="0.0725714786" flag="0"/>
      <psa10 value="0.0511972868" flag="0"/>
      <psa30 value="0.0051174142" flag="0"/>
    </comp>
    <comp name="--.HHZ">
      <acc value="0.0218365800" flag="0"/>
      <vel value="0.0214927415" flag="0"/>
      <psa03 value="0.0534623453" flag="0"/>
      <psa10 value="0.0269474086" flag="0"/>
      <psa30 value="0.0051169104" flag="0"/>
    </comp>
  </station>
  <station code="KLV" name="KLV" netid="HL" insttype="120" lat="38.0435" lon="22.1504">
    <comp name="--.HHN">
      <acc value="0.0614427890" flag="0"/>
      <vel value="0.0408713275" flag="0"/>
      <psa03 value="0.1769864272" flag="0"/>
      <psa10 value="0.0507058430" flag="0"/>
      <psa30 value="0.0029440053" flag="0"/>
    </comp>
    <comp name="--.HHE">
      <acc value="0.0466340342" flag="0"/>
      <vel value="0.0262593101" flag="0"/>
      <psa03 value="0.1514718171" flag="0"/>
      <psa10 value="0.0204517041" flag="0"/>
      <psa30 value="0.0024290583" flag="0"/>
    </comp>
    <comp name="--.HHZ">
      <acc value="0.0715308071" flag="0"/>
      <vel value="0.0249481056" flag="0"/>
      <psa03 value="0.1831454092" flag="0"/>
      <psa10 value="0.0439205047" flag="0"/>
      <psa30 value="0.0019637929" flag="0"/>
    </comp>
  </station>
  <station code="ORTH" name="ORTH" netid="HL" insttype="30" lat="37.8511" lon="20.6963">
    <comp name="--.HHE">
      <acc value="0.2581119622" flag="0"/>
      <vel value="0.1074611489" flag="0"/>
      <psa03 value="0.5943465817" flag="0"/>
      <psa10 value="0.0807732974" flag="0"/>
      <psa30 value="0.0123300091" flag="0"/>
    </comp>
    <comp name="--.HHN">
      <acc value="0.3664614354" flag="0"/>
      <vel value="0.1224386712" flag="0"/>
      <psa03 value="0.4219325798" flag="0"/>
      <psa10 value="0.0827382611" flag="0"/>
      <psa30 value="0.0136678434" flag="0"/>
    </comp>
    <comp name="--.HHZ">
      <acc value="0.1612798040" flag="0"/>
      <vel value="0.0414236936" flag="0"/>
      <psa03 value="0.2608916719" flag="0"/>
      <psa10 value="0.0279797436" flag="0"/>
      <psa30 value="0.0087701936" flag="0"/>
    </comp>
  </station>
  <station code="PATC" name="PATC" netid="HL" insttype="CMG-5" lat="38.2693" lon="21.76">
    <comp name="00.HNE">
      <acc value="0.4621179478" flag="0"/>
      <vel value="0.2216600962" flag="0"/>
      <psa03 value="0.9961015163" flag="0"/>
      <psa10 value="0.4100392847" flag="0"/>
      <psa30 value="0.0233194334" flag="0"/>
    </comp>
    <comp name="00.HNZ">
      <acc value="0.2435273448" flag="0"/>
      <vel value="0.1052126150" flag="0"/>
      <psa03 value="0.4555586622" flag="0"/>
      <psa10 value="0.1297560580" flag="0"/>
      <psa30 value="0.0087083987" flag="0"/>
    </comp>
    <comp name="00.HNN">
      <acc value="0.4419100386" flag="0"/>
      <vel value="0.2042092003" flag="0"/>
      <psa03 value="1.1837878658" flag="0"/>
      <psa10 value="0.1837941019" flag="0"/>
      <psa30 value="0.0209374205" flag="0"/>
    </comp>
  </station>
  <station code="PATG" name="PATG" netid="HL" insttype="CMG-5" lat="38.2386" lon="21.7266">
    <comp name="00.HNE">
      <acc value="0.8020640349" flag="0"/>
      <vel value="0.4953450789" flag="0"/>
      <psa03 value="2.3989229938" flag="0"/>
      <psa10 value="0.3943799153" flag="0"/>
      <psa30 value="0.0278966651" flag="0"/>
    </comp>
    <comp name="00.HNN">
      <acc value="0.9668090062" flag="0"/>
      <vel value="0.4352239414" flag="0"/>
      <psa03 value="1.8748132160" flag="0"/>
      <psa10 value="0.3205811470" flag="0"/>
      <psa30 value="0.0370804137" flag="0"/>
    </comp>
    <comp name="00.HNZ">
      <acc value="0.2638979113" flag="0"/>
      <vel value="0.1017993495" flag="0"/>
      <psa03 value="0.6916832013" flag="0"/>
      <psa10 value="0.1389942829" flag="0"/>
      <psa30 value="0.0175170939" flag="0"/>
    </comp>
  </station>
  <station code="RIOA" name="RIOA" netid="HL" insttype="CMG-5" lat="38.2959" lon="21.7912">
    <comp name="00.HNE">
      <acc value="0.3753127378" flag="0"/>
      <vel value="0.1496648073" flag="0"/>
      <psa03 value="0.5602038518" flag="0"/>
      <psa10 value="0.1630987324" flag="0"/>
      <psa30 value="0.0099311697" flag="0"/>
    </comp>
    <comp name="00.HNZ">
      <acc value="0.3290025747" flag="0"/>
      <vel value="0.0863757107" flag="0"/>
      <psa03 value="0.3435289998" flag="0"/>
      <psa10 value="0.0537589526" flag="0"/>
      <psa30 value="0.0076817324" flag="0"/>
    </comp>
    <comp name="00.HNN">
      <acc value="0.3018356273" flag="0"/>
      <vel value="0.1409033269" flag="0"/>
      <psa03 value="0.7040613829" flag="0"/>
      <psa10 value="0.1772476480" flag="0"/>
      <psa30 value="0.0147732134" flag="0"/>
    </comp>
  </station>
  <station code="RLS" name="RLS" netid="HL" insttype="CMG3ESPC-120s" lat="38.0559" lon="21.4647">
    <comp name="--.HHN">
      <acc value="0.8150558531" flag="0"/>
      <vel value="0.2564420922" flag="0"/>
      <psa03 value="1.1237064934" flag="0"/>
      <psa10 value="0.0780846847" flag="0"/>
      <psa30 value="0.0128546885" flag="0"/>
    </comp>
    <comp name="--.HHZ">
