<?xml version="1.0" encoding="UTF-8" standalone="yes"?>
<!DOCTYPE earthquake SYSTEM "stationlist.dtd">
<stationlist created="" xmlns="ch.ethz.sed.shakemap.usgs.xml">
  <station code="GVD" name="GVD" netid="GE" insttype="STS-2/N" lat="34.8391" lon="24.0874">
    <comp name="--.HHE">
      <acc value="0.3954606845" flag="0"/>
      <vel value="0.0719971620" flag="0"/>
      <psa03 value="0.5326106764" flag="0"/>
      <psa10 value="0.0433700179" flag="0"/>
      <psa30 value="0.0038878667" flag="0"/>
    </comp>
    <comp name="--.HHN">
      <acc value="0.2077863718" flag="0"/>
      <vel value="0.0680681269" flag="0"/>
      <psa03 value="0.7044664179" flag="0"/>
      <psa10 value="0.0209469662" flag="0"/>
      <psa30 value="0.0019889740" flag="0"/>
    </comp>
    <comp name="--.HHZ">
      <acc value="0.2377173987" flag="0"/>
      <vel value="0.0786842975" flag="0"/>
      <psa03 value="0.3192300546" flag="0"/>
      <psa10 value="0.0172360262" flag="0"/>
      <psa30 value="0.0014555592" flag="0"/>
    </comp>
  </station>
  <station code="IMMV" name="IMMV" netid="GE" insttype="STS-2/N" lat="35.4606" lon="23.9811">
    <comp name="--.HHN">
      <acc value="0.0753246276" flag="0"/>
      <vel value="0.0304226906" flag="0"/>
      <psa03 value="0.2179013849" flag="0"/>
      <psa10 value="0.0197749354" flag="0"/>
      <psa30 value="0.0015619815" flag="0"/>
    </comp>
    <comp name="--.HHZ">
      <acc value="0.0559920129" flag="0"/>
      <vel value="0.0213291155" flag="0"/>
      <psa03 value="0.1245432238" flag="0"/>
      <psa10 value="0.0143142782" flag="0"/>
      <psa30 value="0.0009468897" flag="0"/>
    </comp>
    <comp name="--.HHE">
      <acc value="0.0720077970" flag="0"/>
      <vel value="0.0338792510" flag="0"/>
      <psa03 value="0.2329921374" flag="0"/>
      <psa10 value="0.0234478508" flag="0"/>
      <psa30 value="0.0016188565" flag="0"/>
    </comp>
  </station>
  <station code="CHAN" name="CHAN" netid="HC" insttype="120" lat="35.5193" lon="24.0428">
    <comp name="--.HHZ">
      <acc value="0.0570320533" flag="0"/>
      <vel value="0.0318274796" flag="0"/>
      <psa03 value="0.1063116148" flag="0"/>
      <psa10 value="0.0278822395" flag="0"/>
      <psa30 value="0.0020769263" flag="0"/>
    </comp>
    <comp name="--.HHE">
      <acc value="0.0657965571" flag="0"/>
      <vel value="0.0304359202" flag="0"/>
      <psa03 value="0.1705820138" flag="0"/>
      <psa10 value="0.0469050474" flag="0"/>
      <psa30 value="0.0038060607" flag="0"/>
    </comp>
    <comp name="--.HHN">
      <acc value="0.0487211999" flag="0"/>
      <vel value="0.0304073407" flag="0"/>
      <psa03 value="0.1269155382" flag="0"/>
      <psa10 value="0.0397576538" flag="0"/>
      <psa30 value="0.0054532127" flag="0"/>
    </comp>
  </station>
  <station code="GVDS" name="GVDS" netid="HC" insttype="60" lat="34.8389" lon="24.0585">
    <comp name="--.HHN">
      <acc value="0.2674430269" flag="0"/>
      <vel value="0.0718718219" flag="0"/>
      <psa03 value="0.5002507316" flag="0"/>
      <psa10 value="0.0354442612" flag="0"/>
      <psa30 value="0.0019950904" flag="0"/>
    </comp>
    <comp name="--.HHE">
      <acc value="0.2218213478" flag="0"/>
      <vel value="0.0477596631" flag="0"/>
      <psa03 value="0.3887230458" flag="0"/>
      <psa10 value="0.0236187479" flag="0"/>
      <psa30 value="0.0012974712" flag="0"/>
    </comp>
    <comp name="--.HHZ">
      <acc value="0.1475394970" flag="0"/>
      <vel value="0.0365299322" flag="0"/>
      <psa03 value="0.1420311817" flag="0"/>
      <psa10 value="0.0100180638" flag="0"/>
      <psa30 value="0.0009979588" flag="0"/>
    </comp>
  </station>
  <station code="IPPL" name="IPPL" netid="HC" insttype="60" lat="35.3486" lon="24.4632">
    <comp name="--.HHZ">
      <acc value="0.1429400690" flag="0"/>
      <vel value="0.0501571600" flag="0"/>
      <psa03 value="0.1789828952" flag="0"/>
      <psa10 value="0.0126401182" flag="0"/>
      <psa30 value="0.0016589103" flag="0"/>
    </comp>
    <comp name="--.HHE">
      <acc value="0.1242725431" flag="0"/>
      <vel value="0.0539645186" flag="0"/>
      <psa03 value="0.2028798923" flag="0"/>
      <psa10 value="0.0603557433" flag="0"/>
      <psa30 value="0.0045533404" flag="0"/>
    </comp>
    <comp name="--.HHN">
      <acc value="0.1507441475" flag="0"/>
      <vel value="0.0698904537" flag="0"/>
      <psa03 value="0.2373948311" flag="0"/>
      <psa10 value="0.0446011641" flag="0"/>
      <psa30 value="0.0033597348" flag="0"/>
    </comp>
  </station>
  <station code="KNDR" name="KNDR" netid="HC" insttype="120" lat="35.2348" lon="23.6248">
    <comp name="--.HHE">
      <acc value="0.0529739711" flag="0"/>
      <vel value="0.0201615732" flag="0"/>
      <psa03 value="0.1490283060" flag="0"/>
      <psa10 value="0.0188624422" flag="0"/>
      <psa30 value="0.0008828825" flag="0"/>
    </comp>
    <comp name="--.HHZ">
      <acc value="0.0443561164" flag="0"/>
      <vel value="0.0167417043" flag="0"/>
      <psa03 value="0.0846433328" flag="0"/>
      <psa10 value="0.0062683969" flag="0"/>
      <psa30 value="0.0004345173" flag="0"/>
    </comp>
    <comp name="--.HHN">
      <acc value="0.0489964335" flag="0"/>
      <vel value="0.0193689141" flag="0"/>
      <psa03 value="0.0950762093" flag="0"/>
      <psa10 value="0.0221509855" flag="0"/>
      <psa30 value="0.0008034591" flag="0"/>
    </comp>
  </station>
  <station code="KNSS" name="KNSS" netid="HC" insttype="60" lat="35.3042" lon="25.1802">
    <comp name="--.HHZ">
      <acc value="0.0878807407" flag="0"/>
      <vel value="0.0239296468" flag="0"/>
      <psa03 value="0.0710132003" flag="0"/>
      <psa10 value="0.0076794552" flag="0"/>
      <psa30 value="0.0017404307" flag="0"/>
    </comp>
    <comp name="--.HHE">
      <acc value="0.0722288693" flag="0"/>
      <vel value="0.0218466564" flag="0"/>
      <psa03 value="0.0878645088" flag="0"/>
      <psa10 value="0.0117040594" flag="0"/>
      <psa30 value="0.0019067072" flag="0"/>
    </comp>
    <comp name="--.HHN">
      <acc value="0.0845917322" flag="0"/>
      <vel value="0.0280387335" flag="0"/>
      <psa03 value="0.1104900239" flag="0"/>
      <psa10 value="0.0140354924" flag="0"/>
      <psa30 value="0.0018360750" flag="0"/>
    </comp>
  </station>
  <station code="PFKS" name="PFKS" netid="HC" insttype="120" lat="35.0429" lon="25.4733">
    <comp name="--.HHE">
      <acc value="0.2038215547" flag="0"/>
      <vel value="0.0575689615" flag="0"/>
      <psa03 value="0.2335006667" flag="0"/>
      <psa10 value="0.0198538777" flag="0"/>
      <psa30 value="0.0012019958" flag="0"/>
    </comp>
    <comp name="--.HHN">
      <acc value="0.1819831068" flag="0"/>
      <vel value="0.0537513523" flag="0"/>
      <psa03 value="0.3502421579" flag="0"/>
      <psa10 value="0.0351075938" flag="0"/>
      <psa30 value="0.0017113654" flag="0"/>
    </comp>
    <comp name="--.HHZ">
      <acc value="0.1192633127" flag="0"/>
      <vel value="0.0241411296" flag="0"/>
      <psa03 value="0.0881516435" flag="0"/>
      <psa10 value="0.0193835282" flag="0"/>
      <psa30 value="0.0008522971" flag="0"/>
    </comp>
  </station>
  <station code="RODP" name="RODP" netid="HC" insttype="120" lat="35.5604" lon="23.7577">
    <comp name="--.HHZ">
      <acc value="0.0227120105" flag="0"/>
      <vel value="0.0099391318" flag="0"/>
      <psa03 value="0.0706049963" flag="0"/>
      <psa10 value="0.0082774887" flag="0"/>
      <psa30 value="0.0008028452" flag="0"/>
    </comp>
    <comp name="--.HHE">
      <acc value="0.0467077451" flag="0"/>
      <vel value="0.0234844252" flag="0"/>
      <psa03 value="0.0997890646" flag="0"/>
      <psa10 value="0.0202286405" flag="0"/>
      <psa30 value="0.0014263539" flag="0"/>
    </comp>
    <comp name="--.HHN">
      <acc value="0.0405902832" flag="0"/>
      <vel value="0.0168268162" flag="0"/>
      <psa03 value="0.0886672175" flag="0"/>
      <psa10 value="0.0175154276" flag="0"/>
      <psa30 value="0.0015462274" flag="0"/>
    </comp>
  </station>
  <station code="STIA" name="STIA" netid="HC" insttype="120" lat="35.2021" lon="26.0909">
    <comp name="--.HHZ">
      <acc value="0.0095589587" flag="0"/>
      <vel value="0.0048798973" flag="0"/>
      <psa03 value="0.0204476433" flag="0"/>
      <psa10 value="0.0039290716" flag="0"/>
      <psa30 value="0.0010511492" flag="0"/>
    </comp>
    <comp name="--.HHN">
      <acc value="0.0094588866" flag="0"/>
      <vel value="0.0045831501" flag="0"/>
      <psa03 value="0.0208017888" flag="0"/>
      <psa10 value="0.0077094011" flag="0"/>
      <psa30 value="0.0005801705" flag="0"/>
    </comp>
    <comp name="--.HHE">
      <acc value="0.0116719575" flag="0"/>
      <vel value="0.0065523027" flag="0"/>
      <psa03 value="0.0186135351" flag="0"/>
      <psa10 value="0.0102478554" flag="0"/>
      <psa30 value="0.0009297247" flag="0"/>
    </comp>
  </station>
  <station code="TEFL" name="TEFL" netid="HC" insttype="GEOtiny," lat="35.0933" lon="25.1634">
    <comp name="--.HHZ">
      <acc value="0.3396403562" flag="0"/>
      <vel value="0.0585276539" flag="0"/>
      <psa03 value="0.2619705937" flag="0"/>
      <psa10 value="0.0297298348" flag="0"/>
      <psa30 value="0.0036789833" flag="0"/>
    </comp>
    <comp name="--.HHE">
      <acc value="0.7448739832" flag="0"/>
      <vel value="0.1377122426" flag="0"/>
      <psa03 value="0.4957825292" flag="0"/>
      <psa10 value="0.0550148856" flag="0"/>
      <psa30 value="0.0058174231" flag="0"/>
    </comp>
    <comp name="--.HHN">
      <acc value="0.7292255834" flag="0"/>
      <vel value="0.1466779179" flag="0"/>
      <psa03 value="0.3496674247" flag="0"/>
      <psa10 value="0.0643291387" flag="0"/>
      <psa30 value="0.0073858131" flag="0"/>
    </comp>
  </station>
  <station code="GVD" name="GVD" netid="HL" insttype="120" lat="34.8391" lon="24.0874">
    <comp name="--.HHE">
      <acc value="0.4256188705" flag="0"/>
      <vel value="0.0695069337" flag="0"/>
      <psa03 value="0.5179194502" flag="0"/>
      <psa10 value="0.0430849930" flag="0"/>
      <psa30 value="0.0038559132" flag="0"/>
    </comp>
    <comp name="--.HHN">
      <acc value="0.2008686749" flag="0"/>
      <vel value="0.0662889523" flag="0"/>
      <psa03 value="0.6837654572" flag="0"/>
      <psa10 value="0.0206745162" flag="0"/>
      <psa30 value="0.0019489852" flag="0"/>
    </comp>
    <comp name="--.HHZ">
      <acc value="0.2303620228" flag="0"/>
      <vel value="0.0760616379" flag="0"/>
      <psa03 value="0.3095357409" flag="0"/>
      <psa10 value="0.0168064324" flag="0"/>
      <psa30 value="0.0014163255" flag="0"/>
    </comp>
  </station>
  <station code="IACM" name="IACM" netid="HL" insttype="120" lat="35.3058" lon="25.0709">
    <comp name="--.HHN">
      <acc value="0.2560400072" flag="0"/>
      <vel value="0.0909766444" flag="0"/>
      <psa03 value="0.3496936146" flag="0"/>
      <psa10 value="0.1116732215" flag="0"/>
      <psa30 value="0.0049901295" flag="0"/>
    </comp>
    <comp name="--.HHE">
      <acc value="0.2523946428" flag="0"/>
      <vel value="0.0975290629" flag="0"/>
      <psa03 value="0.3175878876" flag="0"/>
      <psa10 value="0.1333916779" flag="0"/>
      <psa30 value="0.0060216500" flag="0"/>
    </comp>
    <comp name="--.HHZ">
      <acc value="0.3479047384" flag="0"/>
      <vel value="0.0744759092" flag="0"/>
      <psa03 value="0.2827362546" flag="0"/>
      <psa10 value="0.0471228827" flag="0"/>
      <psa30 value="0.0027445481" flag="0"/>
    </comp>
  </station>
  <station code="IDI" name="IDI" netid="HL" insttype="120" lat="35.288" lon="24.89">
    <comp name="--.HHZ">
      <acc value="0.1921637127" flag="0"/>
      <vel value="0.0351911832" flag="0"/>
      <psa03 value="0.1671097321" flag="0"/>
      <psa10 value="0.0204174587" flag="0"/>
      <psa30 value="0.0018934653" flag="0"/>
    </comp>
    <comp name="--.HHN">
      <acc value="0.1814708064" flag="0"/>
      <vel value="0.0403349858" flag="0"/>
      <psa03 value="0.2179969563" flag="0"/>
      <psa10 value="0.0147187483" flag="0"/>
      <psa30 value="0.0019895633" flag="0"/>
    </comp>
    <comp name="--.HHE">
      <acc value="0.2443071273" flag="0"/>
      <vel value="0.0435484195" flag="0"/>
      <psa03 value="0.1874522745" flag="0"/>
      <psa10 value="0.0211209004" flag="0"/>
      <psa30 value="0.0016032771" flag="0"/>
    </comp>
  </station>
  <station code="IMMV" name="IMMV" netid="HL" insttype="120" lat="35.4606" lon="23.9811">
    <comp name="--.HHE">
      <acc value="0.0699630786" flag="0"/>
      <vel value="0.0331808799" flag="0"/>
      <psa03 value="0.2264316136" flag="0"/>
      <psa10 value="0.0231046509" flag="0"/>
      <psa30 value="0.0016097835" flag="0"/>
    </comp>
    <comp name="--.HHN">
      <acc value="0.0732552574" flag="0"/>
      <vel value="0.0296293325" flag="0"/>
      <psa03 value="0.2115355671" flag="0"/>
      <psa10 value="0.0196001078" flag="0"/>
      <psa30 value="0.0015498295" flag="0"/>
    </comp>
    <comp name="--.HHZ">
      <acc value="0.0546141493" flag="0"/>
      <vel value="0.0206669655" flag="0"/>
      <psa03 value="0.1212470286" flag="0"/>
      <psa10 value="0.0141374160" flag="0"/>
      <psa30 value="0.0009472858" flag="0"/>
    </comp>
  </station>
  <station code="KSTE" name="KSTE" netid="HL" insttype="60" lat="35.1801" lon="25.3372">
    <comp name="--.HHE">
      <acc value="0.0933690730" flag="0"/>
      <vel value="0.0199161267" flag="0"/>
      <psa03 value="0.0830413421" flag="0"/>
      <psa10 value="0.0127867261" flag="0"/>
      <psa30 value="0.0011877160" flag="0"/>
    </comp>
    <comp name="--.HHN">
      <acc value="0.1603982345" flag="0"/>
      <vel value="0.0431523190" flag="0"/>
      <psa03 value="0.0889106902" flag="0"/>
      <psa10 value="0.0257058643" flag="0"/>
      <psa30 value="0.0031781876" flag="0"/>
    </comp>
    <comp name="--.HHZ">
      <acc value="0.0585118851" flag="0"/>
      <vel value="0.0221343034" flag="0"/>
      <psa03 value="0.0752762796" flag="0"/>
      <psa10 value="0.0080045820" flag="0"/>
      <psa30 value="0.0014278107" flag="0"/>
    </comp>
  </station>
  <station code="NPS" name="NPS" netid="HL" insttype="CMG3ESPC-120s" lat="35.2613" lon="25.6104">
    <comp name="--.HHN">
      <acc value="0.0346554682" flag="0"/>
      <vel value="0.0144588427" flag="0"/>
      <psa03 value="0.0359651077" flag="0"/>
      <psa10 value="0.0145442460" flag="0"/>
      <psa30 value="0.0009296922" flag="0"/>
    </comp>
    <comp name="--.HHE">
      <acc value="0.0193296439" flag="0"/>
      <vel value="0.0077714557" flag="0"/>
      <psa03 value="0.0312347032" flag="0"/>
      <psa10 value="0.0045571185" flag="0"/>
      <psa30 value="0.0003151152" flag="0"/>
    </comp>
    <comp name="--.HHZ">
      <acc value="0.0419356279" flag="0"/>
      <vel value="0.0100829241" flag="0"/>
      <psa03 value="0.0244149025" flag="0"/>
      <psa10 value="0.0093003848" flag="0"/>
      <psa30 value="0.0006538734" flag="0"/>
    </comp>
  </station>
  <station code="SIVA" name="SIVA" netid="HL" insttype="GMG5TD" lat="35.0178" lon="24.812">
    <comp name="00.HNE">
      <acc value="3.0741796699" flag="0"/>
      <vel value="1.0807424474" flag="0"/>
      <psa03 value="5.5520524612" flag="0"/>
      <psa10 value="0.7250321479" flag="0"/>
      <psa30 value="0.0321598694" flag="0"/>
    </comp>
    <comp name="00.HNZ">
      <acc value="3.7518821935" flag="0"/>
      <vel value="0.9789790031" flag="0"/>
      <psa03 value="4.7449928326" flag="0"/>
      <psa10 value="0.3619318479" flag="0"/>
      <psa30 value="0.0295205161" flag="0"/>
    </comp>
    <comp name="00.HNN">
      <acc value="5.7475493809" flag="0"/>
      <vel value="2.9200572955" flag="0"/>
      <psa03 value="12.2544463024" flag="0"/>
      <psa10 value="1.8414587031" flag="0"/>
      <psa30 value="0.1325122967" flag="0"/>
    </comp>
  </station>
  <station code="VAM" name="VAM" netid="HL" insttype="CMG3ESPC-120s" lat="35.407" lon="24.1997">
    <comp name="--.HHE">
      <acc value="0.1419692469" flag="0"/>
      <vel value="0.0531189362" flag="0"/>
      <psa03 value="0.1805496650" flag="0"/>
      <psa10 value="0.0228089793" flag="0"/>
      <psa30 value="0.0014715609" flag="0"/>
    </comp>
    <comp name="--.HHZ">
      <acc value="0.0845472610" flag="0"/>
      <vel value="0.0210015700" flag="0"/>
      <psa03 value="0.1133605582" flag="0"/>
      <psa10 value="0.0120725383" flag="0"/>
      <psa30 value="0.0011488035" flag="0"/>
    </comp>
    <comp name="--.HHN">
      <acc value="0.1780116649" flag="0"/>
      <vel value="0.0506438006" flag="0"/>
      <psa03 value="0.2464396705" flag="0"/>
      <psa10 value="0.0197227311" flag="0"/>
      <psa30 value="0.0018937536" flag="0"/>
    </comp>
  </station>
  <station code="IDI" name="IDI" netid="MN" insttype="" lat="35.288" lon="24.89">
    <comp name="--.HHN">
      <acc value="0.1979821660" flag="0"/>
      <vel value="0.0408552380" flag="0"/>
      <psa03 value="0.2221687013" flag="0"/>
      <psa10 value="0.0146382642" flag="0"/>
      <psa30 value="0.0019764479" flag="0"/>
    </comp>
    <comp name="--.HHE">
      <acc value="0.2986041727" flag="0"/>
      <vel value="0.0445282198" flag="0"/>
      <psa03 value="0.1888783264" flag="0"/>
      <psa10 value="0.0211377673" flag="0"/>
      <psa30 value="0.0015918111" flag="0"/>
    </comp>
    <comp name="--.HHZ">
      <acc value="0.2412197140" flag="0"/>
      <vel value="0.0358285647" flag="0"/>
      <psa03 value="0.1706101453" flag="0"/>
      <psa10 value="0.0204850231" flag="0"/>
      <psa30 value="0.0018857589" flag="0"/>
    </comp>
  </station>
</stationlist>
