<?xml version="1.0" encoding="UTF-8" standalone="yes"?>
<!DOCTYPE earthquake SYSTEM "stationlist.dtd">
<stationlist created="" xmlns="ch.ethz.sed.shakemap.usgs.xml">
  <station code="IMMV" name="IMMV" netid="GE" insttype="STS-2/N" lat="35.4606" lon="23.9811">
    <comp name="--.HHE">
      <acc value="0.0720077970" flag="0"/>
      <vel value="0.0338792504" flag="0"/>
      <psa03 value="0.2329921374" flag="0"/>
      <psa10 value="0.0234478510" flag="0"/>
      <psa30 value="0.0016187401" flag="0"/>
    </comp>
    <comp name="--.HHN">
      <acc value="0.0753246272" flag="0"/>
      <vel value="0.0304226903" flag="0"/>
      <psa03 value="0.2179013849" flag="0"/>
      <psa10 value="0.0197749354" flag="0"/>
      <psa30 value="0.0015614704" flag="0"/>
    </comp>
    <comp name="--.HHZ">
      <acc value="0.0559920137" flag="0"/>
      <vel value="0.0213291172" flag="0"/>
      <psa03 value="0.1245432238" flag="0"/>
      <psa10 value="0.0143142784" flag="0"/>
      <psa30 value="0.0009467975" flag="0"/>
    </comp>
  </station>
  <station code="IPPL" name="IPPL" netid="HC" insttype="60" lat="35.3486" lon="24.4632">
    <comp name="--.HHZ">
      <acc value="0.1429400685" flag="0"/>
      <vel value="0.0501571591" flag="0"/>
      <psa03 value="0.1789828952" flag="0"/>
      <psa10 value="0.0126401213" flag="0"/>
      <psa30 value="0.0016593575" flag="0"/>
    </comp>
    <comp name="--.HHE">
      <acc value="0.1242725423" flag="0"/>
      <vel value="0.0539645204" flag="0"/>
      <psa03 value="0.2028798923" flag="0"/>
      <psa10 value="0.0603557295" flag="0"/>
      <psa30 value="0.0045507800" flag="0"/>
    </comp>
    <comp name="--.HHN">
      <acc value="0.1507441474" flag="0"/>
      <vel value="0.0698904540" flag="0"/>
      <psa03 value="0.2373948311" flag="0"/>
      <psa10 value="0.0446011994" flag="0"/>
      <psa30 value="0.0033612981" flag="0"/>
    </comp>
  </station>
  <station code="KNSS" name="KNSS" netid="HC" insttype="60" lat="35.3042" lon="25.1802">
    <comp name="--.HHE">
      <acc value="0.0722288698" flag="0"/>
      <vel value="0.0218466552" flag="0"/>
      <psa03 value="0.0878645088" flag="0"/>
      <psa10 value="0.0117040439" flag="0"/>
      <psa30 value="0.0019065082" flag="0"/>
    </comp>
    <comp name="--.HHN">
      <acc value="0.0845917321" flag="0"/>
      <vel value="0.0280387311" flag="0"/>
      <psa03 value="0.1104900239" flag="0"/>
      <psa10 value="0.0140354920" flag="0"/>
      <psa30 value="0.0018354069" flag="0"/>
    </comp>
    <comp name="--.HHZ">
      <acc value="0.0878807401" flag="0"/>
      <vel value="0.0239296330" flag="0"/>
      <psa03 value="0.0710132004" flag="0"/>
      <psa10 value="0.0076794551" flag="0"/>
      <psa30 value="0.0017406312" flag="0"/>
    </comp>
  </station>
  <station code="PFKS" name="PFKS" netid="HC" insttype="120" lat="35.0429" lon="25.4733">
    <comp name="--.HHZ">
      <acc value="0.1192633127" flag="0"/>
      <vel value="0.0241411468" flag="0"/>
      <psa03 value="0.0881516435" flag="0"/>
      <psa10 value="0.0193835280" flag="0"/>
      <psa30 value="0.0008545236" flag="0"/>
    </comp>
    <comp name="--.HHE">
      <acc value="0.2038215559" flag="0"/>
      <vel value="0.0575689694" flag="0"/>
      <psa03 value="0.2335006667" flag="0"/>
      <psa10 value="0.0198538817" flag="0"/>
      <psa30 value="0.0012020266" flag="0"/>
    </comp>
    <comp name="--.HHN">
      <acc value="0.1819831062" flag="0"/>
      <vel value="0.0537513519" flag="0"/>
      <psa03 value="0.3502421579" flag="0"/>
      <psa10 value="0.0351075939" flag="0"/>
      <psa30 value="0.0017108932" flag="0"/>
    </comp>
  </station>
  <station code="RODP" name="RODP" netid="HC" insttype="120" lat="35.5604" lon="23.7577">
    <comp name="--.HHE">
      <acc value="0.0467077441" flag="0"/>
      <vel value="0.0234844245" flag="0"/>
      <psa03 value="0.0997890646" flag="0"/>
      <psa10 value="0.0202286405" flag="0"/>
      <psa30 value="0.0014262795" flag="0"/>
    </comp>
    <comp name="--.HHN">
      <acc value="0.0405902835" flag="0"/>
      <vel value="0.0168268122" flag="0"/>
      <psa03 value="0.0886672175" flag="0"/>
      <psa10 value="0.0175154276" flag="0"/>
      <psa30 value="0.0015461623" flag="0"/>
    </comp>
    <comp name="--.HHZ">
      <acc value="0.0227120105" flag="0"/>
      <vel value="0.0099391350" flag="0"/>
      <psa03 value="0.0706049963" flag="0"/>
      <psa10 value="0.0082774887" flag="0"/>
      <psa30 value="0.0008028698" flag="0"/>
    </comp>
  </station>
  <station code="STIA" name="STIA" netid="HC" insttype="120" lat="35.2021" lon="26.0909">
    <comp name="--.HHE">
      <acc value="0.0116719573" flag="0"/>
      <vel value="0.0065523021" flag="0"/>
      <psa03 value="0.0186135351" flag="0"/>
      <psa10 value="0.0102478554" flag="0"/>
      <psa30 value="0.0009297669" flag="0"/>
    </comp>
    <comp name="--.HHN">
      <acc value="0.0094588866" flag="0"/>
      <vel value="0.0045831489" flag="0"/>
      <psa03 value="0.0208017888" flag="0"/>
      <psa10 value="0.0077094012" flag="0"/>
      <psa30 value="0.0005803742" flag="0"/>
    </comp>
    <comp name="--.HHZ">
      <acc value="0.0095589588" flag="0"/>
      <vel value="0.0048798983" flag="0"/>
      <psa03 value="0.0204476433" flag="0"/>
      <psa10 value="0.0039290716" flag="0"/>
      <psa30 value="0.0010512156" flag="0"/>
    </comp>
  </station>
  <station code="TEFL" name="TEFL" netid="HC" insttype="GEOtiny," lat="35.0933" lon="25.1634">
    <comp name="--.HHE">
      <acc value="0.7448739789" flag="0"/>
      <vel value="0.1377131005" flag="0"/>
      <psa03 value="0.4957825290" flag="0"/>
      <psa10 value="0.0550148864" flag="0"/>
      <psa30 value="0.0058176912" flag="0"/>
    </comp>
    <comp name="--.HHN">
      <acc value="0.7292255878" flag="0"/>
      <vel value="0.1466760936" flag="0"/>
      <psa03 value="0.3496674231" flag="0"/>
      <psa10 value="0.0643291335" flag="0"/>
      <psa30 value="0.0073832182" flag="0"/>
    </comp>
    <comp name="--.HHZ">
      <acc value="0.3396403002" flag="0"/>
      <vel value="0.0585761193" flag="0"/>
      <psa03 value="0.2619706071" flag="0"/>
      <psa10 value="0.0297298460" flag="0"/>
      <psa30 value="0.0036810325" flag="0"/>
    </comp>
  </station>
  <station code="IACM" name="IACM" netid="HL" insttype="120" lat="35.3058" lon="25.0709">
    <comp name="--.HHN">
      <acc value="0.2560400068" flag="0"/>
      <vel value="0.0909766416" flag="0"/>
      <psa03 value="0.3496936146" flag="0"/>
      <psa10 value="0.1116732324" flag="0"/>
      <psa30 value="0.0049899811" flag="0"/>
    </comp>
    <comp name="--.HHZ">
      <acc value="0.3479047387" flag="0"/>
      <vel value="0.0744759181" flag="0"/>
      <psa03 value="0.2827362546" flag="0"/>
      <psa10 value="0.0471228836" flag="0"/>
      <psa30 value="0.0027456513" flag="0"/>
    </comp>
    <comp name="--.HHE">
      <acc value="0.2523946429" flag="0"/>
      <vel value="0.0975290669" flag="0"/>
      <psa03 value="0.3175878876" flag="0"/>
      <psa10 value="0.1333916782" flag="0"/>
      <psa30 value="0.0060219043" flag="0"/>
    </comp>
  </station>
  <station code="IDI" name="IDI" netid="HL" insttype="120" lat="35.288" lon="24.89">
    <comp name="--.HHZ">
      <acc value="0.1921637127" flag="0"/>
      <vel value="0.0351911852" flag="0"/>
      <psa03 value="0.1671097321" flag="0"/>
      <psa10 value="0.0204174535" flag="0"/>
      <psa30 value="0.0018899511" flag="0"/>
    </comp>
    <comp name="--.HHN">
      <acc value="0.1814708065" flag="0"/>
      <vel value="0.0403350072" flag="0"/>
      <psa03 value="0.2179969563" flag="0"/>
      <psa10 value="0.0147187429" flag="0"/>
      <psa30 value="0.0019907156" flag="0"/>
    </comp>
    <comp name="--.HHE">
      <acc value="0.2443071273" flag="0"/>
      <vel value="0.0435484192" flag="0"/>
      <psa03 value="0.1874522745" flag="0"/>
      <psa10 value="0.0211208986" flag="0"/>
      <psa30 value="0.0016026176" flag="0"/>
    </comp>
  </station>
  <station code="IMMV" name="IMMV" netid="HL" insttype="120" lat="35.4606" lon="23.9811">
    <comp name="--.HHE">
      <acc value="0.0699630787" flag="0"/>
      <vel value="0.0331808793" flag="0"/>
      <psa03 value="0.2264316136" flag="0"/>
      <psa10 value="0.0231046511" flag="0"/>
      <psa30 value="0.0016096665" flag="0"/>
    </comp>
    <comp name="--.HHN">
      <acc value="0.0732552566" flag="0"/>
      <vel value="0.0296293321" flag="0"/>
      <psa03 value="0.2115355671" flag="0"/>
      <psa10 value="0.0196001078" flag="0"/>
      <psa30 value="0.0015493159" flag="0"/>
    </comp>
    <comp name="--.HHZ">
      <acc value="0.0546141502" flag="0"/>
      <vel value="0.0206669672" flag="0"/>
      <psa03 value="0.1212470286" flag="0"/>
      <psa10 value="0.0141374161" flag="0"/>
      <psa30 value="0.0009471936" flag="0"/>
    </comp>
  </station>
  <station code="KSTE" name="KSTE" netid="HL" insttype="60" lat="35.1801" lon="25.3372">
    <comp name="--.HHE">
      <acc value="0.0933690713" flag="0"/>
      <vel value="0.0199161133" flag="0"/>
      <psa03 value="0.0830413421" flag="0"/>
      <psa10 value="0.0127867302" flag="0"/>
      <psa30 value="0.0011868768" flag="0"/>
    </comp>
    <comp name="--.HHN">
      <acc value="0.1603982354" flag="0"/>
      <vel value="0.0431522982" flag="0"/>
      <psa03 value="0.0889106903" flag="0"/>
      <psa10 value="0.0257097423" flag="0"/>
      <psa30 value="0.0031791855" flag="0"/>
    </comp>
    <comp name="--.HHZ">
      <acc value="0.0585118847" flag="0"/>
      <vel value="0.0221343050" flag="0"/>
      <psa03 value="0.0752762796" flag="0"/>
      <psa10 value="0.0080045774" flag="0"/>
      <psa30 value="0.0014279013" flag="0"/>
    </comp>
  </station>
  <station code="IDI" name="IDI" netid="MN" insttype="" lat="35.288" lon="24.89">
    <comp name="--.HHE">
      <acc value="0.2986041727" flag="0"/>
      <vel value="0.0445282195" flag="0"/>
      <psa03 value="0.1888783264" flag="0"/>
      <psa10 value="0.0211377653" flag="0"/>
      <psa30 value="0.0015911389" flag="0"/>
    </comp>
    <comp name="--.HHN">
      <acc value="0.1979821660" flag="0"/>
      <vel value="0.0408552583" flag="0"/>
      <psa03 value="0.2221687013" flag="0"/>
      <psa10 value="0.0146382587" flag="0"/>
      <psa30 value="0.0019776103" flag="0"/>
    </comp>
    <comp name="--.HHZ">
      <acc value="0.2412197140" flag="0"/>
      <vel value="0.0358285667" flag="0"/>
      <psa03 value="0.1706101453" flag="0"/>
      <psa10 value="0.0204850177" flag="0"/>
      <psa30 value="0.0018822953" flag="0"/>
    </comp>
  </station>
</stationlist>
