<?xml version="1.0" encoding="UTF-8" standalone="yes"?>
<!DOCTYPE earthquake SYSTEM "stationlist.dtd">
<stationlist created="" xmlns="ch.ethz.sed.shakemap.usgs.xml">
  <station code="DARE" name="DARE" netid="KO" insttype="CMG-3ESP" lat="38.5712" lon="37.4832">
    <comp name="--.HHZ">
      <acc value="0.0267653406" flag="0"/>
      <vel value="0.0127178248" flag="0"/>
      <psa03 value="0.0639595060" flag="0"/>
      <psa10 value="0.0198083401" flag="0"/>
      <psa30 value="0.0011464644" flag="0"/>
    </comp>
    <comp name="--.HHN">
      <acc value="0.0299315532" flag="0"/>
      <vel value="0.0133524608" flag="0"/>
      <psa03 value="0.0461742481" flag="0"/>
      <psa10 value="0.0141319147" flag="0"/>
      <psa30 value="0.0006426939" flag="0"/>
    </comp>
    <comp name="--.HHE">
      <acc value="0.0414278714" flag="0"/>
      <vel value="0.0164758583" flag="0"/>
      <psa03 value="0.0709811942" flag="0"/>
      <psa10 value="0.0203854022" flag="0"/>
      <psa30 value="0.0012111950" flag="0"/>
    </comp>
  </station>
  <station code="GAZ" name="GAZ" netid="KO" insttype="CMG-3T" lat="37.1721" lon="37.2096">
    <comp name="--.HHN">
      <acc value="0.0161373123" flag="0"/>
      <vel value="0.0059425812" flag="0"/>
      <psa03 value="0.0356228382" flag="0"/>
      <psa10 value="0.0115511722" flag="0"/>
      <psa30 value="0.0005562244" flag="0"/>
    </comp>
    <comp name="--.HHE">
      <acc value="0.0200133293" flag="0"/>
      <vel value="0.0095621540" flag="0"/>
      <psa03 value="0.0598811152" flag="0"/>
      <psa10 value="0.0113174224" flag="0"/>
      <psa30 value="0.0008482634" flag="0"/>
    </comp>
    <comp name="--.HHZ">
      <acc value="0.0146040802" flag="0"/>
      <vel value="0.0061847769" flag="0"/>
      <psa03 value="0.0451942083" flag="0"/>
      <psa10 value="0.0062135000" flag="0"/>
      <psa30 value="0.0006396236" flag="0"/>
    </comp>
  </station>
  <station code="KHMN" name="KHMN" netid="KO" insttype="CMG-5T" lat="37.3916" lon="37.1574">
    <comp name="--.HNE">
      <acc value="0.0341315927" flag="0"/>
      <vel value="0.0105574040" flag="0"/>
      <psa03 value="0.0758284252" flag="0"/>
      <psa10 value="0.0097757526" flag="0"/>
      <psa30 value="0.0015091544" flag="0"/>
    </comp>
    <comp name="--.HNN">
      <acc value="0.0369378609" flag="0"/>
      <vel value="0.0132531728" flag="0"/>
      <psa03 value="0.0566796400" flag="0"/>
      <psa10 value="0.0115787830" flag="0"/>
      <psa30 value="0.0009060342" flag="0"/>
    </comp>
    <comp name="--.HNZ">
      <acc value="0.0269107037" flag="0"/>
      <vel value="0.0087486410" flag="0"/>
      <psa03 value="0.0360133103" flag="0"/>
      <psa10 value="0.0073599873" flag="0"/>
      <psa30 value="0.0010618530" flag="0"/>
    </comp>
  </station>
  <station code="KMRS" name="KMRS" netid="KO" insttype="CMG-3T" lat="37.5053" lon="36.9">
    <comp name="--.HHN">
      <acc value="0.0249694732" flag="0"/>
      <vel value="0.0144000769" flag="0"/>
      <psa03 value="0.0697429700" flag="0"/>
      <psa10 value="0.0099617077" flag="0"/>
      <psa30 value="0.0014379451" flag="0"/>
    </comp>
    <comp name="--.HHE">
      <acc value="0.0217059964" flag="0"/>
      <vel value="0.0115042219" flag="0"/>
      <psa03 value="0.0439529171" flag="0"/>
      <psa10 value="0.0079030309" flag="0"/>
      <psa30 value="0.0009927339" flag="0"/>
    </comp>
    <comp name="--.HHZ">
      <acc value="0.0278449015" flag="0"/>
      <vel value="0.0129028848" flag="0"/>
      <psa03 value="0.0508912797" flag="0"/>
      <psa10 value="0.0085656389" flag="0"/>
      <psa30 value="0.0012168535" flag="0"/>
    </comp>
  </station>
  <station code="SARI" name="SARI" netid="KO" insttype="CMG-3T" lat="38.4072" lon="36.4181">
    <comp name="--.HHE">
      <acc value="0.0252645470" flag="0"/>
      <vel value="0.0096174353" flag="0"/>
      <psa03 value="0.0618588543" flag="0"/>
      <psa10 value="0.0076369842" flag="0"/>
      <psa30 value="0.0005073315" flag="0"/>
    </comp>
    <comp name="--.HHN">
      <acc value="0.0209711175" flag="0"/>
      <vel value="0.0115987621" flag="0"/>
      <psa03 value="0.0675381854" flag="0"/>
      <psa10 value="0.0109606223" flag="0"/>
      <psa30 value="0.0005978350" flag="0"/>
    </comp>
    <comp name="--.HHZ">
      <acc value="0.0147855516" flag="0"/>
      <vel value="0.0068152262" flag="0"/>
      <psa03 value="0.0377295919" flag="0"/>
      <psa10 value="0.0057077503" flag="0"/>
      <psa30 value="0.0005126050" flag="0"/>
    </comp>
  </station>
  <station code="ANDN" name="ANDN" netid="TU" insttype="T" lat="37.58" lon="36.3452">
    <comp name="--.HHN">
      <acc value="0.0905813217" flag="0"/>
      <vel value="0.0387251953" flag="0"/>
      <psa03 value="0.2474684897" flag="0"/>
      <psa10 value="0.0373848602" flag="0"/>
      <psa30 value="0.0021081668" flag="0"/>
    </comp>
    <comp name="--.HHE">
      <acc value="0.0589746504" flag="0"/>
      <vel value="0.0279118459" flag="0"/>
      <psa03 value="0.1229747601" flag="0"/>
      <psa10 value="0.0314222079" flag="0"/>
      <psa30 value="0.0017742583" flag="0"/>
    </comp>
    <comp name="--.HHZ">
      <acc value="0.0469607120" flag="0"/>
      <vel value="0.0222452408" flag="0"/>
      <psa03 value="0.0832966061" flag="0"/>
      <psa10 value="0.0208590654" flag="0"/>
      <psa30 value="0.0019015995" flag="0"/>
    </comp>
  </station>
</stationlist>
