<?xml version="1.0" encoding="UTF-8" standalone="yes"?>
<!DOCTYPE earthquake SYSTEM "stationlist.dtd">
<stationlist created="" xmlns="ch.ethz.sed.shakemap.usgs.xml">
  <station code="ANDN" name="ANDN" netid="TU" insttype="T" lat="37.58" lon="36.3452">
    <comp name="--.HHE">
      <acc value="0.1236722036" flag="0"/>
      <vel value="0.0892052931" flag="0"/>
      <psa03 value="0.2086390698" flag="0"/>
      <psa10 value="0.1226091546" flag="0"/>
      <psa30 value="0.0118106995" flag="0"/>
    </comp>
    <comp name="--.HHN">
      <acc value="0.1455481123" flag="0"/>
      <vel value="0.0672763689" flag="0"/>
      <psa03 value="0.3031715564" flag="0"/>
      <psa10 value="0.1038662151" flag="0"/>
      <psa30 value="0.0066858876" flag="0"/>
    </comp>
  </station>
</stationlist>
