<?xml version="1.0" encoding="UTF-8" standalone="yes"?>
<!DOCTYPE earthquake SYSTEM "stationlist.dtd">
<stationlist created="" xmlns="ch.ethz.sed.shakemap.usgs.xml">
  <station code="CEYT" name="CEYT" netid="KO" insttype="CMG-3ESP" lat="37.0105" lon="35.7478">
    <comp name="--.HHZ">
      <acc value="0.0058378974" flag="0"/>
      <vel value="0.0025782329" flag="0"/>
      <psa03 value="0.0126819140" flag="0"/>
      <psa10 value="0.0039123711" flag="0"/>
      <psa30 value="0.0002438183" flag="0"/>
    </comp>
    <comp name="--.HHE">
      <acc value="0.0107002017" flag="0"/>
      <vel value="0.0046894960" flag="0"/>
      <psa03 value="0.0255753976" flag="0"/>
      <psa10 value="0.0033128769" flag="0"/>
      <psa30 value="0.0001920790" flag="0"/>
    </comp>
    <comp name="--.HHN">
      <acc value="0.0089629592" flag="0"/>
      <vel value="0.0045480817" flag="0"/>
      <psa03 value="0.0153519960" flag="0"/>
      <psa10 value="0.0074123068" flag="0"/>
      <psa30 value="0.0004377410" flag="0"/>
    </comp>
  </station>
  <station code="TAHT" name="TAHT" netid="KO" insttype="CMG-3ESPC" lat="36.3755" lon="36.1855">
    <comp name="--.HHN">
      <acc value="0.5053591120" flag="0"/>
      <vel value="0.1229871660" flag="0"/>
      <psa03 value="0.2956057431" flag="0"/>
      <psa10 value="0.0466579106" flag="0"/>
      <psa30 value="0.0028770179" flag="0"/>
    </comp>
    <comp name="--.HHE">
      <acc value="0.5529979305" flag="0"/>
      <vel value="0.1329699493" flag="0"/>
      <psa03 value="0.7590270878" flag="0"/>
      <psa10 value="0.0457069345" flag="0"/>
      <psa30 value="0.0031897584" flag="0"/>
    </comp>
    <comp name="--.HHZ">
      <acc value="0.4246139447" flag="0"/>
      <vel value="0.0662026615" flag="0"/>
      <psa03 value="0.1625604304" flag="0"/>
      <psa10 value="0.0366492855" flag="0"/>
      <psa30 value="0.0020645191" flag="0"/>
    </comp>
  </station>
</stationlist>
