<stationlist created="1641587238">
	<station code="MYT1" name="MYT1" netid="HI" source="ITSAK Strong Motion Network" insttype="" lat="39.085" lon="26.5694">
		<comp name=".HNE" depth="0.0">
			<acc value="0.011024772" flag="0"/>
			<vel value="0.008649" flag="0"/>
			<psa03 value="0.041610252155" flag="0"/>
			<psa10 value="0.00865761698064" flag="0"/>
			<psa30 value="0.000513193109912" flag="0"/>
		</comp>
		<comp name=".HNN" depth="0.0">
			<acc value="0.010977852" flag="0"/>
			<vel value="0.007477" flag="0"/>
			<psa03 value="0.0410733456756" flag="0"/>
			<psa10 value="0.00879050133429" flag="0"/>
			<psa30 value="0.000666211456546" flag="0"/>
		</comp>
		<comp name=".HNZ" depth="0.0">
			<acc value="0.00924783" flag="0"/>
			<vel value="0.004633" flag="0"/>
			<psa03 value="0.0230422364084" flag="0"/>
			<psa10 value="0.00531537414625" flag="0"/>
			<psa30 value="0.000461739572301" flag="0"/>
		</comp>
	</station>
	<station code="NAX1" name="NAX1" netid="HI" source="ITSAK Strong Motion Network" insttype="" lat="37.101394" lon="25.374103">
		<comp name=".HNE" depth="0.0">
			<acc value="0.011506518" flag="0"/>
			<vel value="0.003482" flag="0"/>
			<psa03 value="0.0165098742421" flag="0"/>
			<psa10 value="0.00319727808494" flag="0"/>
			<psa30 value="0.000258609954254" flag="0"/>
		</comp>
		<comp name=".HNN" depth="0.0">
			<acc value="0.01083342" flag="0"/>
			<vel value="0.002901" flag="0"/>
			<psa03 value="0.0140937950848" flag="0"/>
			<psa10 value="0.00260131189279" flag="0"/>
			<psa30 value="0.000291719187151" flag="0"/>
		</comp>
		<comp name=".HNZ" depth="0.0">
			<acc value="0.005730666" flag="0"/>
			<vel value="0.0023" flag="0"/>
			<psa03 value="0.0137805996384" flag="0"/>
			<psa10 value="0.0020295064922" flag="0"/>
			<psa30 value="0.000299772784342" flag="0"/>
		</comp>
	</station>
	<station code="RDI1" name="RDI1" netid="HI" source="ITSAK Strong Motion Network" insttype="" lat="36.4514" lon="28.224">
		<comp name=".HNE" depth="0.0">
			<acc value="0.002981052" flag="0"/>
			<vel value="0.003182" flag="0"/>
			<psa03 value="0.00559277582728" flag="0"/>
			<psa10 value="0.00475967594005" flag="0"/>
			<psa30 value="0.00103891403768" flag="0"/>
		</comp>
		<comp name=".HNN" depth="0.0">
			<acc value="0.002639352" flag="0"/>
			<vel value="0.002902" flag="0"/>
			<psa03 value="0.00621916671994" flag="0"/>
			<psa10 value="0.0032375460709" flag="0"/>
			<psa30 value="0.000961957442293" flag="0"/>
		</comp>
		<comp name=".HNZ" depth="0.0">
			<acc value="0.003819798" flag="0"/>
			<vel value="0.001392" flag="0"/>
			<psa03 value="0.00398205638903" flag="0"/>
			<psa10 value="0.00278654462819" flag="0"/>
			<psa30 value="0.000442053001389" flag="0"/>
		</comp>
	</station>
	<station code="SKY1" name="SKY1" netid="HI" source="ITSAK Strong Motion Network" insttype="" lat="38.904483" lon="24.564572">
		<comp name=".HNE" depth="0.0">
			<acc value="0.00155193" flag="0"/>
			<vel value="0.000976" flag="0"/>
			<psa03 value="0.00384782976917" flag="0"/>
			<psa10 value="0.00097045846155" flag="0"/>
			<psa30 value="0.000198207975319" flag="0"/>
		</comp>
		<comp name=".HNN" depth="0.0">
			<acc value="0.00194259" flag="0"/>
			<vel value="0.00105" flag="0"/>
			<psa03 value="0.00389257197579" flag="0"/>
			<psa10 value="0.00117582518993" flag="0"/>
			<psa30 value="0.000198207975319" flag="0"/>
		</comp>
		<comp name=".HNZ" depth="0.0">
			<acc value="0.002659854" flag="0"/>
			<vel value="0.000721" flag="0"/>
			<psa03 value="0.00250556357062" flag="0"/>
			<psa10 value="0.000708716552833" flag="0"/>
			<psa30 value="0.000183890469201" flag="0"/>
		</comp>
	</station>
	<station code="ASTA" name="ASTA" netid="HL" source="National Observatory of Athens Seismic Network" insttype="" lat="36.54543" lon="26.3528">
		<comp name="00.HNE" depth="0.0">
			<acc value="0.005175276" flag="0"/>
			<vel value="0.001947" flag="0"/>
			<psa03 value="0.00885895691042" flag="0"/>
			<psa10 value="0.00200534570063" flag="0"/>
			<psa30 value="0.000235791428878" flag="0"/>
		</comp>
		<comp name="00.HNN" depth="0.0">
			<acc value="0.006015552" flag="0"/>
			<vel value="0.002308" flag="0"/>
			<psa03 value="0.0111855516546" flag="0"/>
			<psa10 value="0.00175165738911" flag="0"/>
			<psa30 value="0.000335566549637" flag="0"/>
		</comp>
		<comp name="00.HNZ" depth="0.0">
			<acc value="0.003923634" flag="0"/>
			<vel value="0.001754" flag="0"/>
			<psa03 value="0.00854576146409" flag="0"/>
			<psa10 value="0.00189259533995" flag="0"/>
			<psa30 value="0.000307826381534" flag="0"/>
		</comp>
	</station>
	<station code="PRK" name="PRK" netid="HL" source="National Observatory of Athens Seismic Network" insttype="" lat="39.24565" lon="26.26499">
		<comp name=".HNE" depth="0.0">
			<acc value="0.009948468" flag="0"/>
			<vel value="0.008942" flag="0"/>
			<psa03 value="0.0293956297482" flag="0"/>
			<psa10 value="0.0142830546188" flag="0"/>
			<psa30 value="0.000608941432075" flag="0"/>
		</comp>
		<comp name=".HNN" depth="0.0">
			<acc value="0.014541426" flag="0"/>
			<vel value="0.008218" flag="0"/>
			<psa03 value="0.0511403421647" flag="0"/>
			<psa10 value="0.0107797398405" flag="0"/>
			<psa30 value="0.000519457018838" flag="0"/>
		</comp>
		<comp name=".HNZ" depth="0.0">
			<acc value="0.008190702" flag="0"/>
			<vel value="0.005034" flag="0"/>
			<psa03 value="0.0223711033091" flag="0"/>
			<psa10 value="0.00502141784877" flag="0"/>
			<psa30 value="0.000302904738806" flag="0"/>
		</comp>
	</station>
	<station code="RODB" name="RODB" netid="HL" source="National Observatory of Athens Seismic Network" insttype="" lat="36.4471" lon="28.22116">
		<comp name="00.HNE" depth="0.0">
			<acc value="0.003265632" flag="0"/>
			<vel value="0.002384" flag="0"/>
			<psa03 value="0.00581648686038" flag="0"/>
			<psa10 value="0.00281473221836" flag="0"/>
			<psa30 value="0.000869341074593" flag="0"/>
		</comp>
		<comp name="00.HNN" depth="0.0">
			<acc value="0.00282438" flag="0"/>
			<vel value="0.002818" flag="0"/>
			<psa03 value="0.00568226024052" flag="0"/>
			<psa10 value="0.0043489424833" flag="0"/>
			<psa30 value="0.000909609060549" flag="0"/>
		</comp>
		<comp name="00.HNZ" depth="0.0">
			<acc value="0.005524524" flag="0"/>
			<vel value="0.002015" flag="0"/>
			<psa03 value="0.00380308756255" flag="0"/>
			<psa10 value="0.00252480271947" flag="0"/>
			<psa30 value="0.00030245731674" flag="0"/>
		</comp>
	</station>
	<station code="THRA" name="THRA" netid="HL" source="National Observatory of Athens Seismic Network" insttype="" lat="36.41502" lon="25.43244">
		<comp name="00.HNE" depth="0.0">
			<acc value="0.019352868" flag="0"/>
			<vel value="0.006538" flag="0"/>
			<psa03 value="0.0296640829879" flag="0"/>
			<psa10 value="0.00759454215139" flag="0"/>
			<psa30 value="0.000513193109912" flag="0"/>
		</comp>
		<comp name="00.HNN" depth="0.0">
			<acc value="0.014234202" flag="0"/>
			<vel value="0.0076" flag="0"/>
			<psa03 value="0.0332434595174" flag="0"/>
			<psa10 value="0.0098898173509" flag="0"/>
			<psa30 value="0.00131721056284" flag="0"/>
		</comp>
		<comp name="00.HNZ" depth="0.0">
			<acc value="0.015522054" flag="0"/>
			<vel value="0.005016" flag="0"/>
			<psa03 value="0.0258162532187" flag="0"/>
			<psa10 value="0.00327781405685" flag="0"/>
			<psa30 value="0.000354805698483" flag="0"/>
		</comp>
	</station>
	<station code="TNSA" name="TNSA" netid="HL" source="National Observatory of Athens Seismic Network" insttype="" lat="37.53942" lon="25.1631">
		<comp name="00.HNE" depth="0.0">
			<acc value="0.00872151" flag="0"/>
			<vel value="0.003462" flag="0"/>
			<psa03 value="0.0225500721356" flag="0"/>
			<psa10 value="0.00275433023942" flag="0"/>
			<psa30 value="0.000217447124165" flag="0"/>
		</comp>
		<comp name="00.HNN" depth="0.0">
			<acc value="0.012024984" flag="0"/>
			<vel value="0.004475" flag="0"/>
			<psa03 value="0.0360174763277" flag="0"/>
			<psa10 value="0.00189662213855" flag="0"/>
			<psa30 value="0.000189259533995" flag="0"/>
		</comp>
		<comp name="00.HNZ" depth="0.0">
			<acc value="0.006419574" flag="0"/>
			<vel value="0.002446" flag="0"/>
			<psa03 value="0.0137805996384" flag="0"/>
			<psa10 value="0.00109126241942" flag="0"/>
			<psa30 value="0.000178521404407" flag="0"/>
		</comp>
	</station>
	<station code="DATC" name="DATC" netid="KO" source="Bogazici University Kandilli Observatory And Earthquake Research Institute (KOERI)" insttype="" lat="36.7584" lon="27.6602">
		<comp name=".HNE" depth="0.0">
			<acc value="0.047196522" flag="0"/>
			<vel value="0.029842" flag="0"/>
			<psa03 value="0.159192771148" flag="0"/>
			<psa10 value="0.0279016874692" flag="0"/>
			<psa30 value="0.00429927863395" flag="0"/>
		</comp>
		<comp name=".HNN" depth="0.0">
			<acc value="0.051537132" flag="0"/>
			<vel value="0.028156" flag="0"/>
			<psa03 value="0.134897752954" flag="0"/>
			<psa10 value="0.0351861661287" flag="0"/>
			<psa30 value="0.00354268792003" flag="0"/>
		</comp>
		<comp name=".HNZ" depth="0.0">
			<acc value="0.115679322" flag="0"/>
			<vel value="0.027014" flag="0"/>
			<psa03 value="0.117985198852" flag="0"/>
			<psa10 value="0.0234963698056" flag="0"/>
			<psa30 value="0.00252793467393" flag="0"/>
		</comp>
	</station>
	<station code="EZNE" name="EZNE" netid="KO" source="Bogazici University Kandilli Observatory And Earthquake Research Institute (KOERI)" insttype="" lat="39.756" lon="26.3655">
		<comp name=".HNE" depth="0.0">
			<acc value="0.014910462" flag="0"/>
			<vel value="0.008605" flag="0"/>
			<psa03 value="0.0305589271203" flag="0"/>
			<psa10 value="0.00922942238122" flag="0"/>
			<psa30 value="0.00194807567616" flag="0"/>
		</comp>
		<comp name=".HNN" depth="0.0">
			<acc value="0.017613768" flag="0"/>
			<vel value="0.012564" flag="0"/>
			<psa03 value="0.0544512654544" flag="0"/>
			<psa10 value="0.0107918202363" flag="0"/>
			<psa30 value="0.00134450330888" flag="0"/>
		</comp>
		<comp name=".HNZ" depth="0.0">
			<acc value="0.0128622" flag="0"/>
			<vel value="0.005456" flag="0"/>
			<psa03 value="0.0249214090864" flag="0"/>
			<psa10 value="0.00614892145555" flag="0"/>
			<psa30 value="0.00131944767317" flag="0"/>
		</comp>
	</station>
	<station code="FOCM" name="FOCM" netid="KO" source="Bogazici University Kandilli Observatory And Earthquake Research Institute (KOERI)" insttype="" lat="38.7131" lon="26.7309">
		<comp name=".HNE" depth="0.0">
			<acc value="0.019085628" flag="0"/>
			<vel value="0.008826" flag="0"/>
			<psa03 value="0.0387020087248" flag="0"/>
			<psa10 value="0.0106790698756" flag="0"/>
			<psa30 value="0.000731535078209" flag="0"/>
		</comp>
		<comp name=".HNN" depth="0.0">
			<acc value="0.02420307" flag="0"/>
			<vel value="0.011648" flag="0"/>
			<psa03 value="0.0406259236094" flag="0"/>
			<psa10 value="0.00945089630398" flag="0"/>
			<psa30 value="0.000525273505699" flag="0"/>
		</comp>
		<comp name=".HNZ" depth="0.0">
			<acc value="0.01118073" flag="0"/>
			<vel value="0.004734" flag="0"/>
			<psa03 value="0.0293508875416" flag="0"/>
			<psa10 value="0.00339056441753" flag="0"/>
			<psa30 value="0.000294851141614" flag="0"/>
		</comp>
	</station>
	<station code="GOMA" name="GOMA" netid="KO" source="Bogazici University Kandilli Observatory And Earthquake Research Institute (KOERI)" insttype="" lat="38.7077" lon="27.9175">
		<comp name=".HNE" depth="0.0">
			<acc value="0.01307895" flag="0"/>
			<vel value="0.007413" flag="0"/>
			<psa03 value="0.0401337593366" flag="0"/>
			<psa10 value="0.00413552215773" flag="0"/>
			<psa30 value="0.000424156118741" flag="0"/>
		</comp>
		<comp name=".HNN" depth="0.0">
			<acc value="0.011259066" flag="0"/>
			<vel value="0.005383" flag="0"/>
			<psa03 value="0.0416997365682" flag="0"/>
			<psa10 value="0.00410733456756" flag="0"/>
			<psa30 value="0.000309616069798" flag="0"/>
		</comp>
		<comp name=".HNZ" depth="0.0">
			<acc value="0.008614002" flag="0"/>
			<vel value="0.003501" flag="0"/>
			<psa03 value="0.0266663551445" flag="0"/>
			<psa10 value="0.00269795505908" flag="0"/>
			<psa30 value="0.000352121166086" flag="0"/>
		</comp>
	</station>
	<station code="GORD" name="GORD" netid="KO" source="Bogazici University Kandilli Observatory And Earthquake Research Institute (KOERI)" insttype="" lat="38.9088" lon="28.1769">
		<comp name=".HNE" depth="0.0">
			<acc value="0.023302002" flag="0"/>
			<vel value="0.019477" flag="0"/>
			<psa03 value="0.0670685677208" flag="0"/>
			<psa10 value="0.0324318358893" flag="0"/>
			<psa30 value="0.00224247939571" flag="0"/>
		</comp>
		<comp name=".HNN" depth="0.0">
			<acc value="0.015162198" flag="0"/>
			<vel value="0.013339" flag="0"/>
			<psa03 value="0.0587017750832" flag="0"/>
			<psa10 value="0.0178669053689" flag="0"/>
			<psa30 value="0.00162056272371" flag="0"/>
		</comp>
		<comp name=".HNZ" depth="0.0">
			<acc value="0.01554531" flag="0"/>
			<vel value="0.013038" flag="0"/>
			<psa03 value="0.0437578780727" flag="0"/>
			<psa10 value="0.0245352838433" flag="0"/>
			<psa30 value="0.00155568652412" flag="0"/>
		</comp>
	</station>
	<station code="NAZL" name="NAZL" netid="KO" source="Bogazici University Kandilli Observatory And Earthquake Research Institute (KOERI)" insttype="" lat="37.9641" lon="28.2922">
		<comp name=".HNE" depth="0.0">
			<acc value="0.04948224" flag="0"/>
			<vel value="0.033344" flag="0"/>
			<psa03 value="0.23444916268" flag="0"/>
			<psa10 value="0.0188655514206" flag="0"/>
			<psa30 value="0.00131676314078" flag="0"/>
		</comp>
		<comp name=".HNN" depth="0.0">
			<acc value="0.042598668" flag="0"/>
			<vel value="0.02258" flag="0"/>
			<psa03 value="0.112034485372" flag="0"/>
			<psa10 value="0.0188736050178" flag="0"/>
			<psa30 value="0.00130557758912" flag="0"/>
		</comp>
		<comp name=".HNZ" depth="0.0">
			<acc value="0.0224961" flag="0"/>
			<vel value="0.009114" flag="0"/>
			<psa03 value="0.0530195148427" flag="0"/>
			<psa10 value="0.0062858326078" flag="0"/>
			<psa30 value="0.000848312237482" flag="0"/>
		</comp>
	</station>
	<station code="SOMA" name="SOMA" netid="KO" source="Bogazici University Kandilli Observatory And Earthquake Research Institute (KOERI)" insttype="" lat="39.1564" lon="27.5341">
		<comp name=".HNE" depth="0.0">
			<acc value="0.048074742" flag="0"/>
			<vel value="0.022682" flag="0"/>
			<psa03 value="0.148544125973" flag="0"/>
			<psa10 value="0.0148709672137" flag="0"/>
			<psa30 value="0.00150378556444" flag="0"/>
		</comp>
		<comp name=".HNN" depth="0.0">
			<acc value="0.047352684" flag="0"/>
			<vel value="0.028066" flag="0"/>
			<psa03 value="0.116150768381" flag="0"/>
			<psa10 value="0.0220628295055" flag="0"/>
			<psa30 value="0.00163174827537" flag="0"/>
		</comp>
		<comp name=".HNZ" depth="0.0">
			<acc value="0.031725774" flag="0"/>
			<vel value="0.019286" flag="0"/>
			<psa03 value="0.0798648388136" flag="0"/>
			<psa10 value="0.00976095979584" flag="0"/>
			<psa30 value="0.00106933873818" flag="0"/>
		</comp>
	</station>
	<station code="YKAV" name="YKAV" netid="KO" source="Bogazici University Kandilli Observatory And Earthquake Research Institute (KOERI)" insttype="" lat="37.1246" lon="27.2801">
		<comp name=".HNE" depth="0.0">
			<acc value="0.01674075" flag="0"/>
			<vel value="0.009793" flag="0"/>
			<psa03 value="0.0616995029266" flag="0"/>
			<psa10 value="0.00474759554426" flag="0"/>
			<psa30 value="0.000721244370687" flag="0"/>
		</comp>
		<comp name=".HNN" depth="0.0">
			<acc value="0.018766878" flag="0"/>
			<vel value="0.011686" flag="0"/>
			<psa03 value="0.0282770745827" flag="0"/>
			<psa10 value="0.00880660852867" flag="0"/>
			<psa30 value="0.000755695869783" flag="0"/>
		</comp>
		<comp name=".HNZ" depth="0.0">
			<acc value="0.00859146" flag="0"/>
			<vel value="0.004883" flag="0"/>
			<psa03 value="0.0190601800194" flag="0"/>
			<psa10 value="0.00333418923719" flag="0"/>
			<psa30 value="0.000441158157256" flag="0"/>
		</comp>
	</station>
</stationlist>
