<stationlist xmlns:esm="https://esm-db.eu/esmws/shakemap/1/" created="1780710962">
	<station code="KOS2" name="KOS2" netid="HI" source="ITSAK Strong Motion Network" insttype="" lat="36.8941" lon="27.2888" esm:processing="manual (Paolucci et al 2011)" esm:quality="good">
		<comp name="--.HNE" depth="0.0">
			<acc value="0.0503635493479698" flag="0"/>
			<vel value="0.0384325783058995" flag="0"/>
			<psa03 value="0.179885958228565" flag="0"/>
			<psa10 value="0.0335291373907997" flag="0"/>
			<psa30 value="0.00256621062385952" flag="0"/>
		</comp>
		<comp name="--.HNN" depth="0.0">
			<acc value="0.0641302699905918" flag="0"/>
			<vel value="0.0394302820406675" flag="0"/>
			<psa03 value="0.188531697633036" flag="0"/>
			<psa10 value="0.029416403067335" flag="0"/>
			<psa30 value="0.00338193403653225" flag="0"/>
		</comp>
		<comp name="--.HNZ" depth="0.0">
			<acc value="0.0177373536545113" flag="0"/>
			<vel value="0.00888470244772171" flag="0"/>
			<psa03 value="0.0416086808500682" flag="0"/>
			<psa10 value="0.0095949412427678" flag="0"/>
			<psa30 value="0.0021814680532191" flag="0"/>
		</comp>
	</station>
	<station code="NAX1" name="NAX1" netid="HI" source="ITSAK Strong Motion Network" insttype="" lat="37.101394" lon="25.374103" esm:processing="manual (Paolucci et al 2011)" esm:quality="good">
		<comp name="--.HNE" depth="0.0">
			<acc value="0.0109607258303991" flag="0"/>
			<vel value="0.00349351967595499" flag="0"/>
			<psa03 value="0.0164794640794586" flag="0"/>
			<psa10 value="0.00318065226510238" flag="0"/>
			<psa30 value="0.000181337780967124" flag="0"/>
		</comp>
		<comp name="--.HNN" depth="0.0">
			<acc value="0.0104076184085256" flag="0"/>
			<vel value="0.00289318826404196" flag="0"/>
			<psa03 value="0.0140580432555259" flag="0"/>
			<psa10 value="0.00259065755584992" flag="0"/>
			<psa30 value="0.000223802065371971" flag="0"/>
		</comp>
		<comp name="--.HNZ" depth="0.0">
			<acc value="0.00541503100190736" flag="0"/>
			<vel value="0.00207274448706643" flag="0"/>
			<psa03 value="0.0137546403441059" flag="0"/>
			<psa10 value="0.00200009655908276" flag="0"/>
			<psa30 value="0.000209653745302712" flag="0"/>
		</comp>
	</station>
	<station code="SGR1" name="SGR1" netid="HI" source="ITSAK Strong Motion Network" insttype="" lat="39.211392" lon="25.855221" esm:processing="manual (Paolucci et al 2011)" esm:quality="good">
		<comp name="--.HNE" depth="0.0">
			<acc value="0.00511399180546912" flag="0"/>
			<vel value="0.0031538028388664" flag="0"/>
			<psa03 value="0.0218450981722104" flag="0"/>
			<psa10 value="0.00333396265553869" flag="0"/>
			<psa30 value="0.000324393442598532" flag="0"/>
		</comp>
		<comp name="--.HNN" depth="0.0">
			<acc value="0.00495047483758908" flag="0"/>
			<vel value="0.00332264271917965" flag="0"/>
			<psa03 value="0.0209488851566632" flag="0"/>
			<psa10 value="0.00646266436979739" flag="0"/>
			<psa30 value="0.000264698003693674" flag="0"/>
		</comp>
		<comp name="--.HNZ" depth="0.0">
			<acc value="0.00420529614942303" flag="0"/>
			<vel value="0.0019420832501875" flag="0"/>
			<psa03 value="0.0118494021522387" flag="0"/>
			<psa10 value="0.00153248980117826" flag="0"/>
			<psa30 value="0.000199751617981028" flag="0"/>
		</comp>
	</station>
</stationlist>
