<?xml version="1.0" encoding="UTF-8" standalone="yes"?>
<!DOCTYPE earthquake SYSTEM "stationlist.dtd">
<stationlist created="" xmlns="ch.ethz.sed.shakemap.usgs.xml">
  <station code="TAHT" name="TAHT" netid="KO" insttype="CMG-3ESPC" lat="36.3755" lon="36.1855">
    <comp name="--.HHN">
      <acc value="0.2118277753" flag="0"/>
      <vel value="0.0516553656" flag="0"/>
      <psa03 value="0.2240239758" flag="0"/>
      <psa10 value="0.0394489708" flag="0"/>
      <psa30 value="0.0014451010" flag="0"/>
    </comp>
    <comp name="--.HHE">
      <acc value="0.2063028231" flag="0"/>
      <vel value="0.0427024067" flag="0"/>
      <psa03 value="0.2870812561" flag="0"/>
      <psa10 value="0.0305670679" flag="0"/>
      <psa30 value="0.0023686347" flag="0"/>
    </comp>
  </station>
</stationlist>
