<?xml version="1.0" encoding="UTF-8" standalone="yes"?>
<!DOCTYPE earthquake SYSTEM "stationlist.dtd">
<stationlist created="" xmlns="ch.ethz.sed.shakemap.usgs.xml">
  <station code="GVD" name="GVD" netid="GE" insttype="STS-2/N" lat="34.8391" lon="24.0874">
    <comp name="--.HHE">
      <acc value="0.2324088708" flag="0"/>
      <vel value="0.0390232090" flag="0"/>
      <psa03 value="0.1864429903" flag="0"/>
      <psa10 value="0.0277111780" flag="0"/>
      <psa30 value="0.0053691189" flag="0"/>
    </comp>
    <comp name="--.HHN">
      <acc value="0.0555350165" flag="0"/>
      <vel value="0.0252895316" flag="0"/>
      <psa03 value="0.2068680169" flag="0"/>
      <psa10 value="0.0167894237" flag="0"/>
      <psa30 value="0.0008062699" flag="0"/>
    </comp>
    <comp name="--.HHZ">
      <acc value="0.0307306010" flag="0"/>
      <vel value="0.0136347354" flag="0"/>
      <psa03 value="0.1193483779" flag="0"/>
      <psa10 value="0.0129983546" flag="0"/>
      <psa30 value="0.0007672450" flag="0"/>
    </comp>
  </station>
  <station code="IMMV" name="IMMV" netid="GE" insttype="STS-2/N" lat="35.4606" lon="23.9811">
    <comp name="--.HHZ">
      <acc value="0.0089208980" flag="0"/>
      <vel value="0.0050776070" flag="0"/>
      <psa03 value="0.0237589463" flag="0"/>
      <psa10 value="0.0067763072" flag="0"/>
      <psa30 value="0.0004603858" flag="0"/>
    </comp>
    <comp name="--.HHE">
      <acc value="0.0119883468" flag="0"/>
      <vel value="0.0062192618" flag="0"/>
      <psa03 value="0.0321599390" flag="0"/>
      <psa10 value="0.0091319953" flag="0"/>
      <psa30 value="0.0006886339" flag="0"/>
    </comp>
    <comp name="--.HHN">
      <acc value="0.0101207286" flag="0"/>
      <vel value="0.0066550292" flag="0"/>
      <psa03 value="0.0271824412" flag="0"/>
      <psa10 value="0.0087596536" flag="0"/>
      <psa30 value="0.0007754425" flag="0"/>
    </comp>
  </station>
  <station code="IDI" name="IDI" netid="MN" insttype="" lat="35.288" lon="24.89">
    <comp name="--.HHE">
      <acc value="0.1026803374" flag="0"/>
      <vel value="0.0216721458" flag="0"/>
      <psa03 value="0.1035259865" flag="0"/>
      <psa10 value="0.0095175527" flag="0"/>
      <psa30 value="0.0007429460" flag="0"/>
    </comp>
    <comp name="--.HHN">
      <acc value="0.0978032980" flag="0"/>
      <vel value="0.0167909758" flag="0"/>
      <psa03 value="0.0759771882" flag="0"/>
      <psa10 value="0.0051344071" flag="0"/>
      <psa30 value="0.0004475915" flag="0"/>
    </comp>
    <comp name="--.HHZ">
      <acc value="0.0612620425" flag="0"/>
      <vel value="0.0113606969" flag="0"/>
      <psa03 value="0.0666885010" flag="0"/>
      <psa10 value="0.0066655468" flag="0"/>
      <psa30 value="0.0003133316" flag="0"/>
    </comp>
  </station>
</stationlist>
