<?xml version="1.0" encoding="UTF-8" standalone="yes"?>
<!DOCTYPE earthquake SYSTEM "stationlist.dtd">
<stationlist created="" xmlns="ch.ethz.sed.shakemap.usgs.xml">
  <station code="GVD" name="GVD" netid="GE" insttype="STS-2/N" lat="34.8391" lon="24.0874">
    <comp name="--.HHE">
      <acc value="0.2324088708" flag="0"/>
      <vel value="0.0390232090" flag="0"/>
      <psa03 value="0.1864429903" flag="0"/>
      <psa10 value="0.0277111780" flag="0"/>
      <psa30 value="0.0053691189" flag="0"/>
    </comp>
    <comp name="--.HHN">
      <acc value="0.0555350165" flag="0"/>
      <vel value="0.0252895316" flag="0"/>
      <psa03 value="0.2068680169" flag="0"/>
      <psa10 value="0.0167894237" flag="0"/>
      <psa30 value="0.0008062699" flag="0"/>
    </comp>
    <comp name="--.HHZ">
      <acc value="0.0307306010" flag="0"/>
      <vel value="0.0136347354" flag="0"/>
      <psa03 value="0.1193483779" flag="0"/>
      <psa10 value="0.0129983546" flag="0"/>
      <psa30 value="0.0007672450" flag="0"/>
    </comp>
  </station>
  <station code="IMMV" name="IMMV" netid="GE" insttype="STS-2/N" lat="35.4606" lon="23.9811">
    <comp name="--.HHZ">
      <acc value="0.0089208980" flag="0"/>
      <vel value="0.0050776070" flag="0"/>
      <psa03 value="0.0237589463" flag="0"/>
      <psa10 value="0.0067763072" flag="0"/>
      <psa30 value="0.0004603858" flag="0"/>
    </comp>
    <comp name="--.HHE">
      <acc value="0.0119883468" flag="0"/>
      <vel value="0.0062192618" flag="0"/>
      <psa03 value="0.0321599390" flag="0"/>
      <psa10 value="0.0091319953" flag="0"/>
      <psa30 value="0.0006886339" flag="0"/>
    </comp>
    <comp name="--.HHN">
      <acc value="0.0101207286" flag="0"/>
      <vel value="0.0066550292" flag="0"/>
      <psa03 value="0.0271824412" flag="0"/>
      <psa10 value="0.0087596536" flag="0"/>
      <psa30 value="0.0007754425" flag="0"/>
    </comp>
  </station>
  <station code="CHAN" name="CHAN" netid="HC" insttype="120" lat="35.5193" lon="24.0428">
    <comp name="--.HHN">
      <acc value="0.0131558022" flag="0"/>
      <vel value="0.0121625491" flag="0"/>
      <psa03 value="0.0296270547" flag="0"/>
      <psa10 value="0.0303571490" flag="0"/>
      <psa30 value="0.0017639144" flag="0"/>
    </comp>
    <comp name="--.HHE">
      <acc value="0.0133010279" flag="0"/>
      <vel value="0.0133594797" flag="0"/>
      <psa03 value="0.0387779828" flag="0"/>
      <psa10 value="0.0370153669" flag="0"/>
      <psa30 value="0.0017982670" flag="0"/>
    </comp>
    <comp name="--.HHZ">
      <acc value="0.0116441578" flag="0"/>
      <vel value="0.0100047423" flag="0"/>
      <psa03 value="0.0362211981" flag="0"/>
      <psa10 value="0.0127763651" flag="0"/>
      <psa30 value="0.0010241391" flag="0"/>
    </comp>
  </station>
  <station code="GVDS" name="GVDS" netid="HC" insttype="60" lat="34.8389" lon="24.0585">
    <comp name="--.HHN">
      <acc value="0.0451786323" flag="0"/>
      <vel value="0.0167274423" flag="0"/>
      <psa03 value="0.1406739834" flag="0"/>
      <psa10 value="0.0128754570" flag="0"/>
      <psa30 value="0.0007961197" flag="0"/>
    </comp>
    <comp name="--.HHZ">
      <acc value="0.0239428234" flag="0"/>
      <vel value="0.0097209979" flag="0"/>
      <psa03 value="0.0373798191" flag="0"/>
      <psa10 value="0.0056015370" flag="0"/>
      <psa30 value="0.0004983402" flag="0"/>
    </comp>
    <comp name="--.HHE">
      <acc value="0.0508855277" flag="0"/>
      <vel value="0.0217435407" flag="0"/>
      <psa03 value="0.1392583968" flag="0"/>
      <psa10 value="0.0137386054" flag="0"/>
      <psa30 value="0.0008442771" flag="0"/>
    </comp>
  </station>
  <station code="IMOD" name="IMOD" netid="HC" insttype="120" lat="34.9731" lon="24.7995">
    <comp name="--.HHE">
      <acc value="0.4956350650" flag="0"/>
      <vel value="0.0928507310" flag="0"/>
      <psa03 value="0.7229618034" flag="0"/>
      <psa10 value="0.0652700443" flag="0"/>
      <psa30 value="0.0045614881" flag="0"/>
    </comp>
    <comp name="--.HHN">
      <acc value="0.4628364082" flag="0"/>
      <vel value="0.1527483550" flag="0"/>
      <psa03 value="0.8373526165" flag="0"/>
      <psa10 value="0.0939380459" flag="0"/>
      <psa30 value="0.0044492051" flag="0"/>
    </comp>
    <comp name="--.HHZ">
      <acc value="0.7131886241" flag="0"/>
      <vel value="0.0940384104" flag="0"/>
      <psa03 value="0.3229177480" flag="0"/>
      <psa10 value="0.0397890573" flag="0"/>
      <psa30 value="0.0020802557" flag="0"/>
    </comp>
  </station>
  <station code="IPPL" name="IPPL" netid="HC" insttype="60" lat="35.3486" lon="24.4632">
    <comp name="--.HHE">
      <acc value="0.0000000000" flag="0"/>
      <vel value="-100.0000000000" flag="0"/>
      <psa03 value="0.0000000000" flag="0"/>
      <psa10 value="0.0000000000" flag="0"/>
      <psa30 value="0.0000000000" flag="0"/>
    </comp>
    <comp name="--.HHN">
      <acc value="0.0000000000" flag="0"/>
      <vel value="-100.0000000000" flag="0"/>
      <psa03 value="0.0000000000" flag="0"/>
      <psa10 value="0.0000000000" flag="0"/>
      <psa30 value="0.0000000000" flag="0"/>
    </comp>
    <comp name="--.HHZ">
      <acc value="0.0236132689" flag="0"/>
      <vel value="0.0089299932" flag="0"/>
      <psa03 value="0.0468025537" flag="0"/>
      <psa10 value="0.0051195665" flag="0"/>
      <psa30 value="0.0004024370" flag="0"/>
    </comp>
  </station>
  <station code="KNDR" name="KNDR" netid="HC" insttype="120" lat="35.2348" lon="23.6248">
    <comp name="--.HHN">
      <acc value="0.0099417101" flag="0"/>
      <vel value="0.0058874246" flag="0"/>
      <psa03 value="0.0233681492" flag="0"/>
      <psa10 value="0.0091676258" flag="0"/>
      <psa30 value="0.0003759842" flag="0"/>
    </comp>
    <comp name="--.HHZ">
      <acc value="0.0070618258" flag="0"/>
      <vel value="0.0039871675" flag="0"/>
      <psa03 value="0.0177186425" flag="0"/>
      <psa10 value="0.0039088039" flag="0"/>
      <psa30 value="0.0001814454" flag="0"/>
    </comp>
    <comp name="--.HHE">
      <acc value="0.0080316166" flag="0"/>
      <vel value="0.0046613289" flag="0"/>
      <psa03 value="0.0272370804" flag="0"/>
      <psa10 value="0.0086658442" flag="0"/>
      <psa30 value="0.0004209454" flag="0"/>
    </comp>
  </station>
  <station code="KNSS" name="KNSS" netid="HC" insttype="60" lat="35.3042" lon="25.1802">
    <comp name="--.HHE">
      <acc value="0.0340737448" flag="0"/>
      <vel value="0.0124453801" flag="0"/>
      <psa03 value="0.0719607815" flag="0"/>
      <psa10 value="0.0086200176" flag="0"/>
      <psa30 value="0.0004820075" flag="0"/>
    </comp>
    <comp name="--.HHN">
      <acc value="0.0321921302" flag="0"/>
      <vel value="0.0150736458" flag="0"/>
      <psa03 value="0.1045165435" flag="0"/>
      <psa10 value="0.0082433527" flag="0"/>
      <psa30 value="0.0006419541" flag="0"/>
    </comp>
    <comp name="--.HHZ">
      <acc value="0.0307764546" flag="0"/>
      <vel value="0.0110257023" flag="0"/>
      <psa03 value="0.0433400274" flag="0"/>
      <psa10 value="0.0034648815" flag="0"/>
      <psa30 value="0.0003071348" flag="0"/>
    </comp>
  </station>
  <station code="PFKS" name="PFKS" netid="HC" insttype="120" lat="35.0429" lon="25.4733">
    <comp name="--.HHN">
      <acc value="0.0999566763" flag="0"/>
      <vel value="0.0407612733" flag="0"/>
      <psa03 value="0.2752223710" flag="0"/>
      <psa10 value="0.0092246833" flag="0"/>
      <psa30 value="0.0010674617" flag="0"/>
    </comp>
    <comp name="--.HHZ">
      <acc value="0.0325936179" flag="0"/>
      <vel value="0.0100319072" flag="0"/>
      <psa03 value="0.0657297094" flag="0"/>
      <psa10 value="0.0051255017" flag="0"/>
      <psa30 value="0.0003579020" flag="0"/>
    </comp>
    <comp name="--.HHE">
      <acc value="0.0599836600" flag="0"/>
      <vel value="0.0180584097" flag="0"/>
      <psa03 value="0.1180683741" flag="0"/>
      <psa10 value="0.0148789299" flag="0"/>
      <psa30 value="0.0008677137" flag="0"/>
    </comp>
  </station>
  <station code="GVD" name="GVD" netid="HL" insttype="120" lat="34.8391" lon="24.0874">
    <comp name="--.HHZ">
      <acc value="0.0296071902" flag="0"/>
      <vel value="0.0133676856" flag="0"/>
      <psa03 value="0.1158201182" flag="0"/>
      <psa10 value="0.0128908475" flag="0"/>
      <psa30 value="0.0007579115" flag="0"/>
    </comp>
    <comp name="--.HHE">
      <acc value="0.2401109817" flag="0"/>
      <vel value="0.0386238008" flag="0"/>
      <psa03 value="0.1809494854" flag="0"/>
      <psa10 value="0.0275364787" flag="0"/>
      <psa30 value="0.0053610456" flag="0"/>
    </comp>
    <comp name="--.HHN">
      <acc value="0.0540490310" flag="0"/>
      <vel value="0.0246120630" flag="0"/>
      <psa03 value="0.2011824420" flag="0"/>
      <psa10 value="0.0166518516" flag="0"/>
      <psa30 value="0.0007902368" flag="0"/>
    </comp>
  </station>
  <station code="IACM" name="IACM" netid="HL" insttype="120" lat="35.3058" lon="25.0709">
    <comp name="--.HHE">
      <acc value="0.1135165952" flag="0"/>
      <vel value="0.0430118517" flag="0"/>
      <psa03 value="0.1847484203" flag="0"/>
      <psa10 value="0.0437005359" flag="0"/>
      <psa30 value="0.0020869611" flag="0"/>
    </comp>
    <comp name="--.HHN">
      <acc value="0.1147214859" flag="0"/>
      <vel value="0.0389424031" flag="0"/>
      <psa03 value="0.1757938999" flag="0"/>
      <psa10 value="0.0466448954" flag="0"/>
      <psa30 value="0.0023075319" flag="0"/>
    </comp>
    <comp name="--.HHZ">
      <acc value="0.1057887256" flag="0"/>
      <vel value="0.0312855077" flag="0"/>
      <psa03 value="0.0930632833" flag="0"/>
      <psa10 value="0.0252147795" flag="0"/>
      <psa30 value="0.0009729470" flag="0"/>
    </comp>
  </station>
  <station code="IDI" name="IDI" netid="HL" insttype="120" lat="35.288" lon="24.89">
    <comp name="--.HHZ">
      <acc value="0.0541557539" flag="0"/>
      <vel value="0.0108328267" flag="0"/>
      <psa03 value="0.0652878032" flag="0"/>
      <psa10 value="0.0066961307" flag="0"/>
      <psa30 value="0.0003149254" flag="0"/>
    </comp>
    <comp name="--.HHE">
      <acc value="0.0933741858" flag="0"/>
      <vel value="0.0210955570" flag="0"/>
      <psa03 value="0.1030001166" flag="0"/>
      <psa10 value="0.0095437597" flag="0"/>
      <psa30 value="0.0007482138" flag="0"/>
    </comp>
    <comp name="--.HHN">
      <acc value="0.0848340527" flag="0"/>
      <vel value="0.0157663664" flag="0"/>
      <psa03 value="0.0742243200" flag="0"/>
      <psa10 value="0.0051334895" flag="0"/>
      <psa30 value="0.0004486459" flag="0"/>
    </comp>
  </station>
  <station code="IMMV" name="IMMV" netid="HL" insttype="120" lat="35.4606" lon="23.9811">
    <comp name="--.HHN">
      <acc value="0.0098929926" flag="0"/>
      <vel value="0.0064995258" flag="0"/>
      <psa03 value="0.0264338956" flag="0"/>
      <psa10 value="0.0086949776" flag="0"/>
      <psa30 value="0.0007751325" flag="0"/>
    </comp>
    <comp name="--.HHZ">
      <acc value="0.0087294841" flag="0"/>
      <vel value="0.0049567347" flag="0"/>
      <psa03 value="0.0231338189" flag="0"/>
      <psa10 value="0.0067229748" flag="0"/>
      <psa30 value="0.0004582055" flag="0"/>
    </comp>
    <comp name="--.HHE">
      <acc value="0.0116438497" flag="0"/>
      <vel value="0.0061104418" flag="0"/>
      <psa03 value="0.0313333189" flag="0"/>
      <psa10 value="0.0090652717" flag="0"/>
      <psa30 value="0.0006859365" flag="0"/>
    </comp>
  </station>
  <station code="KSTE" name="KSTE" netid="HL" insttype="60" lat="35.1801" lon="25.3372">
    <comp name="--.HHN">
      <acc value="0.0578982937" flag="0"/>
      <vel value="0.0078189004" flag="0"/>
      <psa03 value="0.0402371385" flag="0"/>
      <psa10 value="0.0041385088" flag="0"/>
      <psa30 value="0.0012288466" flag="0"/>
    </comp>
    <comp name="--.HHE">
      <acc value="0.0273793595" flag="0"/>
      <vel value="0.0087139437" flag="0"/>
      <psa03 value="0.0722411898" flag="0"/>
      <psa10 value="0.0047436506" flag="0"/>
      <psa30 value="0.0003974301" flag="0"/>
    </comp>
    <comp name="--.HHZ">
      <acc value="0.0230649717" flag="0"/>
      <vel value="0.0069912723" flag="0"/>
      <psa03 value="0.0317460774" flag="0"/>
      <psa10 value="0.0030906240" flag="0"/>
      <psa30 value="0.0003009719" flag="0"/>
    </comp>
  </station>
  <station code="SIVA" name="SIVA" netid="HL" insttype="60" lat="35.0178" lon="24.812">
    <comp name="--.HHN">
      <acc value="1.0870662619" flag="0"/>
      <vel value="0.2438405479" flag="0"/>
      <psa03 value="1.0434624000" flag="0"/>
      <psa10 value="0.0656700333" flag="0"/>
      <psa30 value="0.0044926688" flag="0"/>
    </comp>
    <comp name="--.HHZ">
      <acc value="0.8402528942" flag="0"/>
      <vel value="0.2157911109" flag="0"/>
      <psa03 value="0.6206877314" flag="0"/>
      <psa10 value="0.0449733600" flag="0"/>
      <psa30 value="0.0024838950" flag="0"/>
    </comp>
    <comp name="--.HHE">
      <acc value="2.2795581704" flag="0"/>
      <vel value="0.6383790086" flag="0"/>
      <psa03 value="2.6001969292" flag="0"/>
      <psa10 value="0.1085754251" flag="0"/>
      <psa30 value="0.0130575410" flag="0"/>
    </comp>
  </station>
  <station code="VAM" name="VAM" netid="HL" insttype="CMG3ESPC-120s" lat="35.407" lon="24.1997">
    <comp name="--.HHE">
      <acc value="0.0191904710" flag="0"/>
      <vel value="0.0117469067" flag="0"/>
      <psa03 value="0.0412967830" flag="0"/>
      <psa10 value="0.0187942398" flag="0"/>
      <psa30 value="0.0006209176" flag="0"/>
    </comp>
    <comp name="--.HHZ">
      <acc value="0.0151997731" flag="0"/>
      <vel value="0.0054485394" flag="0"/>
      <psa03 value="0.0306207115" flag="0"/>
      <psa10 value="0.0032648528" flag="0"/>
      <psa30 value="0.0003757444" flag="0"/>
    </comp>
    <comp name="--.HHN">
      <acc value="0.0244068811" flag="0"/>
      <vel value="0.0095711738" flag="0"/>
      <psa03 value="0.0525228326" flag="0"/>
      <psa10 value="0.0108913079" flag="0"/>
      <psa30 value="0.0006078225" flag="0"/>
    </comp>
  </station>
  <station code="IDI" name="IDI" netid="MN" insttype="" lat="35.288" lon="24.89">
    <comp name="--.HHE">
      <acc value="0.1026803374" flag="0"/>
      <vel value="0.0216721458" flag="0"/>
      <psa03 value="0.1035259865" flag="0"/>
      <psa10 value="0.0095175527" flag="0"/>
      <psa30 value="0.0007429460" flag="0"/>
    </comp>
    <comp name="--.HHN">
      <acc value="0.0978032980" flag="0"/>
      <vel value="0.0167909758" flag="0"/>
      <psa03 value="0.0759771882" flag="0"/>
      <psa10 value="0.0051344071" flag="0"/>
      <psa30 value="0.0004475915" flag="0"/>
    </comp>
    <comp name="--.HHZ">
      <acc value="0.0612620425" flag="0"/>
      <vel value="0.0113606969" flag="0"/>
      <psa03 value="0.0666885010" flag="0"/>
      <psa10 value="0.0066655468" flag="0"/>
      <psa30 value="0.0003133316" flag="0"/>
    </comp>
  </station>
</stationlist>
