<?xml version="1.0" encoding="UTF-8" standalone="yes"?>
<!DOCTYPE earthquake SYSTEM "stationlist.dtd">
<stationlist created="" xmlns="ch.ethz.sed.shakemap.usgs.xml">
  <station code="DALY" name="DALY" netid="KO" insttype="CMG-3T" lat="36.8162" lon="28.6532">
    <comp name="--.HHN">
      <acc value="0.0113247239" flag="0"/>
      <vel value="0.0164501323" flag="0"/>
      <psa03 value="0.0328866960" flag="0"/>
      <psa10 value="0.0206509054" flag="0"/>
      <psa30 value="0.0023752400" flag="0"/>
    </comp>
    <comp name="--.HHZ">
      <acc value="0.0056330593" flag="0"/>
      <vel value="0.0100074496" flag="0"/>
      <psa03 value="0.0204563184" flag="0"/>
      <psa10 value="0.0144070935" flag="0"/>
      <psa30 value="0.0024177119" flag="0"/>
    </comp>
  </station>
  <station code="FETY" name="FETY" netid="KO" insttype="CMG-3ESP" lat="36.6353" lon="29.0835">
    <comp name="--.HHE">
      <acc value="0.0145761791" flag="0"/>
      <vel value="0.0121710935" flag="0"/>
      <psa03 value="0.0353543304" flag="0"/>
      <psa10 value="0.0299213870" flag="0"/>
      <psa30 value="0.0039300167" flag="0"/>
    </comp>
    <comp name="--.HHN">
      <acc value="0.0147745006" flag="0"/>
      <vel value="0.0155136999" flag="0"/>
      <psa03 value="0.0434042150" flag="0"/>
      <psa10 value="0.0244108228" flag="0"/>
      <psa30 value="0.0055313062" flag="0"/>
    </comp>
  </station>
</stationlist>
