<stationlist created="1729067499">
	<station code="RDI1" name="RDI1" netid="HI" source="ITSAK Strong Motion Network" insttype="" lat="36.4514" lon="28.224">
		<comp name=".HNE" depth="0.0">
			<acc value="0.051922502309886" flag="0"/>
			<vel value="0.0852304355249" flag="0"/>
			<psa03 value="0.133050626451192" flag="0"/>
			<psa10 value="0.167671732429501" flag="0"/>
			<psa30 value="0.01899318653875" flag="0"/>
		</comp>
		<comp name=".HNN" depth="0.0">
			<acc value="0.045244986113358" flag="0"/>
			<vel value="0.0593476437872" flag="0"/>
			<psa03 value="0.105025082396229" flag="0"/>
			<psa10 value="0.121719165797541" flag="0"/>
			<psa30 value="0.0221800259845196" flag="0"/>
		</comp>
		<comp name=".HNZ" depth="0.0">
			<acc value="0.026572020470526" flag="0"/>
			<vel value="0.0313430385907" flag="0"/>
			<psa03 value="0.0647138390574311" flag="0"/>
			<psa10 value="0.0656002156922951" flag="0"/>
			<psa30 value="0.0103496181114011" flag="0"/>
		</comp>
	</station>
	<station code="CAME" name="CAME" netid="KO" source="Bogazici University Kandilli Observatory And Earthquake Research Institute (KOERI)" insttype="" lat="36.9435" lon="29.3023">
		<comp name=".HNE" depth="0.0">
			<acc value="0.0084739196855826" flag="0"/>
			<vel value="0.0113571896528" flag="0"/>
			<psa03 value="0.0255726133309479" flag="0"/>
			<psa10 value="0.0112175556080017" flag="0"/>
			<psa30 value="0.00345944792144691" flag="0"/>
		</comp>
		<comp name=".HNN" depth="0.0">
			<acc value="0.0061145434467192" flag="0"/>
			<vel value="0.00891115038993" flag="0"/>
			<psa03 value="0.019785008576387" flag="0"/>
			<psa10 value="0.00955890510556429" flag="0"/>
			<psa30 value="0.00313795641587879" flag="0"/>
		</comp>
		<comp name=".HNZ" depth="0.0">
			<acc value="0.0042994520705556" flag="0"/>
			<vel value="0.00576652186321" flag="0"/>
			<psa03 value="0.0168803109460741" flag="0"/>
			<psa10 value="0.0116529969538595" flag="0"/>
			<psa30 value="0.00230329883224436" flag="0"/>
		</comp>
	</station>
	<station code="DATC" name="DATC" netid="KO" source="Bogazici University Kandilli Observatory And Earthquake Research Institute (KOERI)" insttype="" lat="36.7584" lon="27.6602">
		<comp name=".HNE" depth="0.0">
			<acc value="0.078423266588784" flag="0"/>
			<vel value="0.0726087501145" flag="0"/>
			<psa03 value="0.128591789408308" flag="0"/>
			<psa10 value="0.109822972732805" flag="0"/>
			<psa30 value="0.012351433221823" flag="0"/>
		</comp>
		<comp name=".HNN" depth="0.0">
			<acc value="0.084792518679582" flag="0"/>
			<vel value="0.0748217996096" flag="0"/>
			<psa03 value="0.13273930374406" flag="0"/>
			<psa10 value="0.150002676941113" flag="0"/>
			<psa30 value="0.0149186616214602" flag="0"/>
		</comp>
		<comp name=".HNZ" depth="0.0">
			<acc value="0.06956576520894" flag="0"/>
			<vel value="0.0424428504538" flag="0"/>
			<psa03 value="0.118479171580119" flag="0"/>
			<psa10 value="0.070507520777107" flag="0"/>
			<psa30 value="0.0110504703727512" flag="0"/>
		</comp>
	</station>
	<station code="DEMR" name="DEMR" netid="KO" source="Bogazici University Kandilli Observatory And Earthquake Research Institute (KOERI)" insttype="" lat="36.2365" lon="29.9056">
		<comp name=".HNE" depth="0.0">
			<acc value="0.004628980160319" flag="0"/>
			<vel value="0.00809315653657" flag="0"/>
			<psa03 value="0.0113676671146617" flag="0"/>
			<psa10 value="0.00988454574012448" flag="0"/>
			<psa30 value="0.00269790372288061" flag="0"/>
		</comp>
		<comp name=".HNN" depth="0.0">
			<acc value="0.0071393832907722" flag="0"/>
			<vel value="0.0139080824798" flag="0"/>
			<psa03 value="0.0110042224653336" flag="0"/>
			<psa10 value="0.0167218608662186" flag="0"/>
			<psa30 value="0.00377994540283327" flag="0"/>
		</comp>
		<comp name=".HNZ" depth="0.0">
			<acc value="0.0047975366227236" flag="0"/>
			<vel value="0.00383711280917" flag="0"/>
			<psa03 value="0.0107456845050935" flag="0"/>
			<psa10 value="0.00665072245270241" flag="0"/>
			<psa30 value="0.00234070401848582" flag="0"/>
		</comp>
	</station>
	<station code="FETI" name="FETI" netid="KO" source="Bogazici University Kandilli Observatory And Earthquake Research Institute (KOERI)" insttype="" lat="36.6903" lon="29.096">
		<comp name=".HNE" depth="0.0">
			<acc value="0.010891473161484" flag="0"/>
			<vel value="0.0156281692616" flag="0"/>
			<psa03 value="0.0177642314806375" flag="0"/>
			<psa10 value="0.020198463049042" flag="0"/>
			<psa30 value="0.00724885853461381" flag="0"/>
		</comp>
		<comp name=".HNN" depth="0.0">
			<acc value="0.0012305421683712" flag="0"/>
			<vel value="0.00136714977862" flag="0"/>
			<psa03 value="0.00151903487339503" flag="0"/>
			<psa10 value="0.000816848819258369" flag="0"/>
			<psa30 value="0.000504914281427552" flag="0"/>
		</comp>
		<comp name=".HNZ" depth="0.0">
			<acc value="0.039120917078868" flag="0"/>
			<vel value="0.0135650704626" flag="0"/>
			<psa03 value="0.0167523636681199" flag="0"/>
			<psa10 value="0.0170969644649685" flag="0"/>
			<psa30 value="0.00329956149642042" flag="0"/>
		</comp>
	</station>
	<station code="KEMT" name="KEMT" netid="KO" source="Bogazici University Kandilli Observatory And Earthquake Research Institute (KOERI)" insttype="" lat="36.6037" lon="30.5558">
		<comp name=".HNE" depth="0.0">
			<acc value="0.006841912901481" flag="0"/>
			<vel value="0.00465007499954" flag="0"/>
			<psa03 value="0.0155150694638924" flag="0"/>
			<psa10 value="0.00325699794763023" flag="0"/>
			<psa30 value="0.00140813682382061" flag="0"/>
		</comp>
		<comp name=".HNN" depth="0.0">
			<acc value="0.0066258720232596" flag="0"/>
			<vel value="0.00508016291963" flag="0"/>
			<psa03 value="0.0146546127232735" flag="0"/>
			<psa10 value="0.00459415230880874" flag="0"/>
			<psa30 value="0.00192487001319053" flag="0"/>
		</comp>
		<comp name=".HNZ" depth="0.0">
			<acc value="0.018151202685204" flag="0"/>
			<vel value="0.00308728123257" flag="0"/>
			<psa03 value="0.00459139139672674" flag="0"/>
			<psa10 value="0.00238213717989889" flag="0"/>
			<psa30 value="0.0011748839761317" flag="0"/>
		</comp>
	</station>
	<station code="YKAV" name="YKAV" netid="KO" source="Bogazici University Kandilli Observatory And Earthquake Research Institute (KOERI)" insttype="" lat="37.1246" lon="27.2801">
		<comp name=".HNE" depth="0.0">
			<acc value="0.011076996623526" flag="0"/>
			<vel value="0.0173641858545" flag="0"/>
			<psa03 value="0.0280602312484421" flag="0"/>
			<psa10 value="0.0270794957586997" flag="0"/>
			<psa30 value="0.00284128217933398" flag="0"/>
		</comp>
		<comp name=".HNN" depth="0.0">
			<acc value="0.0093719749177944" flag="0"/>
			<vel value="0.0109103942485" flag="0"/>
			<psa03 value="0.0234564288733027" flag="0"/>
			<psa10 value="0.0125181427030247" flag="0"/>
			<psa30 value="0.00308557836275497" flag="0"/>
		</comp>
		<comp name=".HNZ" depth="0.0">
			<acc value="0.008011476605784" flag="0"/>
			<vel value="0.0100861787098" flag="0"/>
			<psa03 value="0.0271915148460593" flag="0"/>
			<psa10 value="0.0220559142210869" flag="0"/>
			<psa30 value="0.00157435502246184" flag="0"/>
		</comp>
	</station>
</stationlist>
