<?xml version="1.0" encoding="UTF-8" standalone="yes"?>
<!DOCTYPE earthquake SYSTEM "stationlist.dtd">
<stationlist created="" xmlns="ch.ethz.sed.shakemap.usgs.xml">
  <station code="MYT1" name="MYT1" netid="HI" insttype="CMG-5TD,ACCELEROMETER,GURALP" lat="39.085" lon="26.5694">
    <comp name="--.HNE">
      <acc value="0.0306639467" flag="0"/>
      <vel value="0.0149763667" flag="0"/>
      <psa03 value="0.0442051459" flag="0"/>
      <psa10 value="0.0150548277" flag="0"/>
      <psa30 value="0.0012911103" flag="0"/>
    </comp>
    <comp name="--.HNN">
      <acc value="0.0359673969" flag="0"/>
      <vel value="0.0187408889" flag="0"/>
      <psa03 value="0.0757491080" flag="0"/>
      <psa10 value="0.0276497353" flag="0"/>
      <psa30 value="0.0014961872" flag="0"/>
    </comp>
    <comp name="--.HNZ">
      <acc value="0.0317784990" flag="0"/>
      <vel value="0.0133238084" flag="0"/>
      <psa03 value="0.0374442755" flag="0"/>
      <psa10 value="0.0184355265" flag="0"/>
      <psa30 value="0.0012929489" flag="0"/>
    </comp>
  </station>
  <station code="PRK" name="PRK" netid="HL" insttype="120" lat="39.2456" lon="26.265">
    <comp name="--.HHZ">
      <acc value="0.1642340183" flag="0"/>
      <vel value="0.0734353402" flag="0"/>
      <psa03 value="0.2810769825" flag="0"/>
      <psa10 value="0.0787325067" flag="0"/>
      <psa30 value="0.0034760343" flag="0"/>
    </comp>
    <comp name="--.HHN">
      <acc value="0.2024929616" flag="0"/>
      <vel value="0.1242807132" flag="0"/>
      <psa03 value="0.5275231382" flag="0"/>
      <psa10 value="0.1758285051" flag="0"/>
      <psa30 value="0.0086116490" flag="0"/>
    </comp>
    <comp name="--.HHE">
      <acc value="0.1456900095" flag="0"/>
      <vel value="0.0824308747" flag="0"/>
      <psa03 value="0.6785256606" flag="0"/>
      <psa10 value="0.0815021816" flag="0"/>
      <psa30 value="0.0037245315" flag="0"/>
    </comp>
  </station>
  <station code="CHOS" name="CHOS" netid="HT" insttype="100" lat="38.3869" lon="26.0506">
    <comp name="--.HHZ">
      <acc value="0.0036063611" flag="0"/>
      <vel value="0.0020781746" flag="0"/>
      <psa03 value="0.0054697855" flag="0"/>
      <psa10 value="0.0016002070" flag="0"/>
      <psa30 value="0.0002312590" flag="0"/>
    </comp>
    <comp name="--.HHE">
      <acc value="0.0116359524" flag="0"/>
      <vel value="0.0041589192" flag="0"/>
      <psa03 value="0.0222871786" flag="0"/>
      <psa10 value="0.0022471351" flag="0"/>
      <psa30 value="0.0001979614" flag="0"/>
    </comp>
    <comp name="--.HHN">
      <acc value="0.0068219938" flag="0"/>
      <vel value="0.0035359194" flag="0"/>
      <psa03 value="0.0118956047" flag="0"/>
      <psa10 value="0.0048445781" flag="0"/>
      <psa30 value="0.0004107936" flag="0"/>
    </comp>
  </station>
  <station code="SIGR" name="SIGR" netid="HT" insttype="100" lat="39.2114" lon="25.8553">
    <comp name="--.HHE">
      <acc value="0.0458647324" flag="0"/>
      <vel value="0.0174143224" flag="0"/>
      <psa03 value="0.1060003913" flag="0"/>
      <psa10 value="0.0109306422" flag="0"/>
      <psa30 value="0.0008269156" flag="0"/>
    </comp>
    <comp name="--.HHZ">
      <acc value="0.0390103315" flag="0"/>
      <vel value="0.0206033218" flag="0"/>
      <psa03 value="0.0753326497" flag="0"/>
      <psa10 value="0.0082312305" flag="0"/>
      <psa30 value="0.0005707363" flag="0"/>
    </comp>
    <comp name="--.HHN">
      <acc value="0.0695154561" flag="0"/>
      <vel value="0.0509603072" flag="0"/>
      <psa03 value="0.1711695434" flag="0"/>
      <psa10 value="0.0289785800" flag="0"/>
      <psa30 value="0.0020405148" flag="0"/>
    </comp>
  </station>
  <station code="CANM" name="CANM" netid="KO" insttype="CMG-5T" lat="40.0113" lon="27.0529">
    <comp name="--.HNE">
      <acc value="0.0108565503" flag="0"/>
      <vel value="0.0043433265" flag="0"/>
      <psa03 value="0.0157696426" flag="0"/>
      <psa10 value="0.0050834902" flag="0"/>
      <psa30 value="0.0002703481" flag="0"/>
    </comp>
    <comp name="--.HNZ">
      <acc value="0.0086571660" flag="0"/>
      <vel value="0.0027937023" flag="0"/>
      <psa03 value="0.0169999088" flag="0"/>
      <psa10 value="0.0023505706" flag="0"/>
      <psa30 value="0.0001528484" flag="0"/>
    </comp>
    <comp name="--.HNN">
      <acc value="0.0115658980" flag="0"/>
      <vel value="0.0076298351" flag="0"/>
      <psa03 value="0.0279423315" flag="0"/>
      <psa10 value="0.0069004149" flag="0"/>
      <psa30 value="0.0003936007" flag="0"/>
    </comp>
  </station>
  <station code="EZN" name="EZN" netid="KO" insttype="120s," lat="39.8255" lon="26.3247">
    <comp name="--.HHE">
      <acc value="0.0477049759" flag="0"/>
      <vel value="0.0072750520" flag="0"/>
      <psa03 value="0.0469115712" flag="0"/>
      <psa10 value="0.0040553880" flag="0"/>
      <psa30 value="0.0002650720" flag="0"/>
    </comp>
    <comp name="--.HHZ">
      <acc value="0.0227211672" flag="0"/>
      <vel value="0.0052844008" flag="0"/>
      <psa03 value="0.0271411323" flag="0"/>
      <psa10 value="0.0045384154" flag="0"/>
      <psa30 value="0.0003777407" flag="0"/>
    </comp>
    <comp name="--.HHN">
      <acc value="0.0493431684" flag="0"/>
      <vel value="0.0097065699" flag="0"/>
      <psa03 value="0.0519345895" flag="0"/>
      <psa10 value="0.0061520245" flag="0"/>
      <psa30 value="0.0003627329" flag="0"/>
    </comp>
  </station>
  <station code="EZNE" name="EZNE" netid="KO" insttype="CMG-5T" lat="39.756" lon="26.3655">
    <comp name="--.HNE">
      <acc value="0.0346155607" flag="0"/>
      <vel value="0.0126504600" flag="0"/>
      <psa03 value="0.0840700668" flag="0"/>
      <psa10 value="0.0054395644" flag="0"/>
      <psa30 value="0.0004543701" flag="0"/>
    </comp>
    <comp name="--.HNN">
      <acc value="0.0395469696" flag="0"/>
      <vel value="0.0189670055" flag="0"/>
      <psa03 value="0.0894388562" flag="0"/>
      <psa10 value="0.0107241526" flag="0"/>
      <psa30 value="0.0008807095" flag="0"/>
    </comp>
    <comp name="--.HNZ">
      <acc value="0.0347954559" flag="0"/>
      <vel value="0.0115829284" flag="0"/>
      <psa03 value="0.0484653057" flag="0"/>
      <psa10 value="0.0056688784" flag="0"/>
      <psa30 value="0.0005184070" flag="0"/>
    </comp>
  </station>
  <station code="FOCM" name="FOCM" netid="KO" insttype="CMG-5T" lat="38.7131" lon="26.7309">
    <comp name="--.HNN">
      <acc value="0.0144024124" flag="0"/>
      <vel value="0.0064586414" flag="0"/>
      <psa03 value="0.0191941145" flag="0"/>
      <psa10 value="0.0087649315" flag="0"/>
      <psa30 value="0.0004810142" flag="0"/>
    </comp>
    <comp name="--.HNE">
      <acc value="0.0142114229" flag="0"/>
      <vel value="0.0070374972" flag="0"/>
      <psa03 value="0.0266879178" flag="0"/>
      <psa10 value="0.0083055174" flag="0"/>
      <psa30 value="0.0003968964" flag="0"/>
    </comp>
    <comp name="--.HNZ">
      <acc value="0.0102235824" flag="0"/>
      <vel value="0.0031329268" flag="0"/>
      <psa03 value="0.0226479606" flag="0"/>
      <psa10 value="0.0026531153" flag="0"/>
      <psa30 value="0.0002182281" flag="0"/>
    </comp>
  </station>
  <station code="GELI" name="GELI" netid="KO" insttype="30s," lat="40.398" lon="26.4742">
    <comp name="--.HHZ">
      <acc value="0.0036162182" flag="0"/>
      <vel value="0.0012692549" flag="0"/>
      <psa03 value="0.0083195168" flag="0"/>
      <psa10 value="0.0012559481" flag="0"/>
      <psa30 value="0.0001646874" flag="0"/>
    </comp>
    <comp name="--.HHN">
      <acc value="0.0043625894" flag="0"/>
      <vel value="0.0021907942" flag="0"/>
      <psa03 value="0.0217053221" flag="0"/>
      <psa10 value="0.0019136438" flag="0"/>
      <psa30 value="0.0001257609" flag="0"/>
    </comp>
    <comp name="--.HHE">
      <acc value="0.0048732537" flag="0"/>
      <vel value="0.0021269655" flag="0"/>
      <psa03 value="0.0144657213" flag="0"/>
      <psa10 value="0.0020748484" flag="0"/>
      <psa30 value="0.0001945521" flag="0"/>
    </comp>
  </station>
  <station code="GPNR" name="GPNR" netid="KO" insttype="CMG-5T" lat="39.456" lon="26.1331">
    <comp name="--.HNE">
      <acc value="0.3549688866" flag="0"/>
      <vel value="0.1683087043" flag="0"/>
      <psa03 value="0.7328793480" flag="0"/>
      <psa10 value="0.0824256647" flag="0"/>
      <psa30 value="0.0064062507" flag="0"/>
    </comp>
    <comp name="--.HNN">
      <acc value="0.3922984064" flag="0"/>
      <vel value="0.1241686396" flag="0"/>
      <psa03 value="0.6113179976" flag="0"/>
      <psa10 value="0.0595840267" flag="0"/>
      <psa30 value="0.0061666189" flag="0"/>
    </comp>
    <comp name="--.HNZ">
      <acc value="0.3320926255" flag="0"/>
      <vel value="0.0947159086" flag="0"/>
      <psa03 value="0.5470353081" flag="0"/>
      <psa10 value="0.0277460587" flag="0"/>
      <psa30 value="0.0022278181" flag="0"/>
    </comp>
  </station>
  <station code="LAP" name="LAP" netid="KO" insttype="30s," lat="40.3703" lon="26.7593">
    <comp name="--.HHE">
      <acc value="0.0137807645" flag="0"/>
      <vel value="0.0101734910" flag="0"/>
      <psa03 value="0.0451976036" flag="0"/>
      <psa10 value="0.0086024295" flag="0"/>
      <psa30 value="0.0004935561" flag="0"/>
    </comp>
    <comp name="--.HHN">
      <acc value="0.0152941979" flag="0"/>
      <vel value="0.0123497001" flag="0"/>
      <psa03 value="0.0342609236" flag="0"/>
      <psa10 value="0.0096741867" flag="0"/>
      <psa30 value="0.0005911457" flag="0"/>
    </comp>
    <comp name="--.HHZ">
      <acc value="0.0071582937" flag="0"/>
      <vel value="0.0041589912" flag="0"/>
      <psa03 value="0.0267146759" flag="0"/>
      <psa10 value="0.0029819275" flag="0"/>
      <psa30 value="0.0001896504" flag="0"/>
    </comp>
  </station>
  <station code="LAPK" name="LAPK" netid="KO" insttype="CMG-5T" lat="40.3151" lon="26.6425">
    <comp name="--.HNN">
      <acc value="0.0463137378" flag="0"/>
      <vel value="0.0307539437" flag="0"/>
      <psa03 value="0.1211122919" flag="0"/>
      <psa10 value="0.0142412066" flag="0"/>
      <psa30 value="0.0012026517" flag="0"/>
    </comp>
    <comp name="--.HNE">
      <acc value="0.0544253419" flag="0"/>
      <vel value="0.0327477171" flag="0"/>
      <psa03 value="0.1315581453" flag="0"/>
      <psa10 value="0.0202255192" flag="0"/>
      <psa30 value="0.0014258079" flag="0"/>
    </comp>
    <comp name="--.HNZ">
      <acc value="0.0149390936" flag="0"/>
      <vel value="0.0070400823" flag="0"/>
      <psa03 value="0.0314436704" flag="0"/>
      <psa10 value="0.0033934460" flag="0"/>
      <psa30 value="0.0003926216" flag="0"/>
    </comp>
  </station>
  <station code="SOMA" name="SOMA" netid="KO" insttype="CMG-5T" lat="39.1564" lon="27.5341">
    <comp name="--.HNE">
      <acc value="0.0035242339" flag="0"/>
      <vel value="0.0027117411" flag="0"/>
      <psa03 value="0.0087666966" flag="0"/>
      <psa10 value="0.0040177627" flag="0"/>
      <psa30 value="0.0002939686" flag="0"/>
    </comp>
    <comp name="--.HNN">
      <acc value="0.0036326980" flag="0"/>
      <vel value="0.0027649505" flag="0"/>
      <psa03 value="0.0074548189" flag="0"/>
      <psa10 value="0.0030609235" flag="0"/>
      <psa30 value="0.0001993703" flag="0"/>
    </comp>
    <comp name="--.HNZ">
      <acc value="0.0028072841" flag="0"/>
      <vel value="0.0017107015" flag="0"/>
      <psa03 value="0.0058739484" flag="0"/>
      <psa10 value="0.0017550721" flag="0"/>
      <psa30 value="0.0002658202" flag="0"/>
    </comp>
  </station>
  <station code="YAYO" name="YAYO" netid="KO" insttype="CMG-6T" lat="39.6113" lon="27.0726">
    <comp name="--.HHE">
      <acc value="0.0194058485" flag="0"/>
      <vel value="0.0103350687" flag="0"/>
      <psa03 value="0.0307628678" flag="0"/>
      <psa10 value="0.0042935119" flag="0"/>
      <psa30 value="0.0003241568" flag="0"/>
    </comp>
    <comp name="--.HHN">
      <acc value="0.0196592615" flag="0"/>
      <vel value="0.0084927672" flag="0"/>
      <psa03 value="0.0494145082" flag="0"/>
      <psa10 value="0.0025815227" flag="0"/>
      <psa30 value="0.0002824309" flag="0"/>
    </comp>
    <comp name="--.HHZ">
      <acc value="0.0099299806" flag="0"/>
      <vel value="0.0036146169" flag="0"/>
      <psa03 value="0.0222977511" flag="0"/>
      <psa10 value="0.0018264211" flag="0"/>
      <psa30 value="0.0001223837" flag="0"/>
    </comp>
  </station>
</stationlist>
