<?xml version="1.0" encoding="UTF-8" standalone="yes"?>
<!DOCTYPE earthquake SYSTEM "stationlist.dtd">
<stationlist created="" xmlns="ch.ethz.sed.shakemap.usgs.xml">
  <station code="BNN" name="BNN" netid="KO" insttype="CMG-3T" lat="38.8521" lon="35.8472">
    <comp name="--.HHN">
      <acc value="0.1391793144" flag="0"/>
      <vel value="0.0561557982" flag="0"/>
      <psa03 value="0.3513837759" flag="0"/>
      <psa10 value="0.0913431643" flag="0"/>
      <psa30 value="0.0087879906" flag="0"/>
    </comp>
  </station>
  <station code="CEYT" name="CEYT" netid="KO" insttype="CMG-3ESP" lat="37.0105" lon="35.7478">
    <comp name="--.HHE">
      <acc value="0.0165133317" flag="0"/>
      <vel value="0.0240666253" flag="0"/>
      <psa03 value="0.0413692250" flag="0"/>
      <psa10 value="0.0439688330" flag="0"/>
      <psa30 value="0.0057459862" flag="0"/>
    </comp>
    <comp name="--.HHN">
      <acc value="0.0202704482" flag="0"/>
      <vel value="0.0217672054" flag="0"/>
      <psa03 value="0.0479310956" flag="0"/>
      <psa10 value="0.0246304278" flag="0"/>
      <psa30 value="0.0091678772" flag="0"/>
    </comp>
    <comp name="--.HHZ">
      <acc value="0.0079439265" flag="0"/>
      <vel value="0.0139653307" flag="0"/>
      <psa03 value="0.0233259849" flag="0"/>
      <psa10 value="0.0207393556" flag="0"/>
      <psa30 value="0.0057993834" flag="0"/>
    </comp>
  </station>
  <station code="CMRD" name="CMRD" netid="KO" insttype="CMG-5T" lat="37.6623" lon="34.9902">
    <comp name="--.HNE">
      <acc value="0.0220105152" flag="0"/>
      <vel value="0.0178126201" flag="0"/>
      <psa03 value="0.0567994641" flag="0"/>
      <psa10 value="0.0321857151" flag="0"/>
      <psa30 value="0.0025008952" flag="0"/>
    </comp>
    <comp name="--.HNZ">
      <acc value="0.0194057493" flag="0"/>
      <vel value="0.0193646209" flag="0"/>
      <psa03 value="0.0520816645" flag="0"/>
      <psa10 value="0.0302939871" flag="0"/>
      <psa30 value="0.0039864817" flag="0"/>
    </comp>
    <comp name="--.HNN">
      <acc value="0.0328466009" flag="0"/>
      <vel value="0.0231683944" flag="0"/>
      <psa03 value="0.1131098058" flag="0"/>
      <psa10 value="0.0309143712" flag="0"/>
      <psa30 value="0.0063659951" flag="0"/>
    </comp>
  </station>
  <station code="GAZ" name="GAZ" netid="KO" insttype="CMG-3T" lat="37.1721" lon="37.2096">
    <comp name="--.HHE">
      <acc value="0.0675110106" flag="0"/>
      <vel value="0.0633736110" flag="0"/>
      <psa03 value="0.0958375058" flag="0"/>
      <psa10 value="0.0968987312" flag="0"/>
      <psa30 value="0.0084786022" flag="0"/>
    </comp>
    <comp name="--.HHZ">
      <acc value="0.0449304811" flag="0"/>
      <vel value="0.0383428405" flag="0"/>
      <psa03 value="0.1654461545" flag="0"/>
      <psa10 value="0.0348120061" flag="0"/>
      <psa30 value="0.0040451301" flag="0"/>
    </comp>
    <comp name="--.HHN">
      <acc value="0.0531017566" flag="0"/>
      <vel value="0.0603872551" flag="0"/>
      <psa03 value="0.1879576680" flag="0"/>
      <psa10 value="0.0630532312" flag="0"/>
      <psa30 value="0.0296188803" flag="0"/>
    </comp>
  </station>
  <station code="KMRS" name="KMRS" netid="KO" insttype="CMG-3T" lat="37.5053" lon="36.9">
    <comp name="--.HHZ">
      <acc value="0.0827663006" flag="0"/>
      <vel value="0.0425000450" flag="0"/>
      <psa03 value="0.2600096276" flag="0"/>
      <psa10 value="0.0216847209" flag="0"/>
      <psa30 value="0.0057804649" flag="0"/>
    </comp>
    <comp name="--.HHN">
      <acc value="0.1143496338" flag="0"/>
      <vel value="0.0625262589" flag="0"/>
      <psa03 value="0.4601384338" flag="0"/>
      <psa10 value="0.0646667185" flag="0"/>
      <psa30 value="0.0071336292" flag="0"/>
    </comp>
    <comp name="--.HHE">
      <acc value="0.0800033300" flag="0"/>
      <vel value="0.0817711318" flag="0"/>
      <psa03 value="0.1368522912" flag="0"/>
      <psa10 value="0.0888956846" flag="0"/>
      <psa30 value="0.0067702383" flag="0"/>
    </comp>
  </station>
  <station code="ANDN" name="ANDN" netid="TU" insttype="T" lat="37.58" lon="36.3452">
    <comp name="--.HHE">
      <acc value="0.2119904402" flag="0"/>
      <vel value="0.1370270813" flag="0"/>
      <psa03 value="0.6580811952" flag="0"/>
      <psa10 value="0.1580069237" flag="0"/>
      <psa30 value="0.0230475553" flag="0"/>
    </comp>
    <comp name="--.HHN">
      <acc value="0.2485901520" flag="0"/>
      <vel value="0.1297909343" flag="0"/>
      <psa03 value="0.4179984751" flag="0"/>
      <psa10 value="0.1717490080" flag="0"/>
      <psa30 value="0.0128872958" flag="0"/>
    </comp>
    <comp name="--.HHZ">
      <acc value="0.1333809448" flag="0"/>
      <vel value="0.1907476558" flag="0"/>
      <psa03 value="0.3625912337" flag="0"/>
      <psa10 value="0.2767949253" flag="0"/>
      <psa30 value="0.0410276221" flag="0"/>
    </comp>
  </station>
</stationlist>
