<stationlist created="1778136331">
	<station code="MALA" name="MALA" netid="CL" source="Corinth Riff Laboratory (CRLNET)" insttype="" lat="38.39341" lon="21.87263">
		<comp name="01.HNE" depth="0.0">
			<acc value="0.120639215447332" flag="0"/>
			<vel value="0.143976472907257" flag="0"/>
			<psa03 value="0.187992203560699" flag="0"/>
			<psa10 value="0.238793363888272" flag="0"/>
			<psa30 value="0.0440624455874421" flag="0"/>
		</comp>
		<comp name="01.HNN" depth="0.0">
			<acc value="0.0623914772726159" flag="0"/>
			<vel value="0.10274488798769" flag="0"/>
			<psa03 value="0.121795537106518" flag="0"/>
			<psa10 value="0.171041105633789" flag="0"/>
			<psa30 value="0.0295896301678001" flag="0"/>
		</comp>
		<comp name="01.HNZ" depth="0.0">
			<acc value="0.0399785237422826" flag="0"/>
			<vel value="0.0813666919425387" flag="0"/>
			<psa03 value="0.0554493919999213" flag="0"/>
			<psa10 value="0.0738844019791879" flag="0"/>
			<psa30 value="0.0176957739248478" flag="0"/>
		</comp>
	</station>
	<station code="ROD3" name="ROD3" netid="CL" source="Corinth Riff Laboratory (CRLNET)" insttype="" lat="38.30811" lon="21.89204">
		<comp name="00.HNE" depth="0.0">
			<acc value="0.0408749511774145" flag="0"/>
			<vel value="0.0503012142819521" flag="0"/>
			<psa03 value="0.120783918008589" flag="0"/>
			<psa10 value="0.0571346148876793" flag="0"/>
			<psa30 value="0.0203673209017411" flag="0"/>
		</comp>
		<comp name="00.HNN" depth="0.0">
			<acc value="0.0357273791491648" flag="0"/>
			<vel value="0.0503577130051142" flag="0"/>
			<psa03 value="0.11847968203098" flag="0"/>
			<psa10 value="0.0852836346221411" flag="0"/>
			<psa30 value="0.0126384530688393" flag="0"/>
		</comp>
		<comp name="00.HNZ" depth="0.0">
			<acc value="0.0196237298324281" flag="0"/>
			<vel value="0.0212833415725561" flag="0"/>
			<psa03 value="0.0375967718516358" flag="0"/>
			<psa10 value="0.0314157936421556" flag="0"/>
			<psa30 value="0.00998991344938831" flag="0"/>
		</comp>
	</station>
	<station code="MMAA" name="MMAA" netid="EG" source="EUROSEISTEST Strong Motion Network" insttype="" lat="40.630855" lon="22.943725">
		<comp name="--.EN1" depth="0.0">
			<acc value="0.253193414747436" flag="0"/>
			<vel value="0.237600961736647" flag="0"/>
			<psa03 value="0.796577769368076" flag="0"/>
			<psa10 value="0.538286418832736" flag="0"/>
			<psa30 value="0.0215129234589201" flag="0"/>
		</comp>
		<comp name="--.EN2" depth="0.0">
			<acc value="0.211907492665173" flag="0"/>
			<vel value="0.218970866291357" flag="0"/>
			<psa03 value="0.597674968032014" flag="0"/>
			<psa10 value="0.523316147125427" flag="0"/>
			<psa30 value="0.045635853151205" flag="0"/>
		</comp>
		<comp name="--.EN3" depth="0.0">
			<acc value="0.127061987248648" flag="0"/>
			<vel value="0.0759730587400462" flag="0"/>
			<psa03 value="0.307111344619365" flag="0"/>
			<psa10 value="0.121045268654852" flag="0"/>
			<psa30 value="0.0150766587546294" flag="0"/>
		</comp>
	</station>
	<station code="PRR" name="PRR" netid="EG" source="EUROSEISTEST Strong Motion Network" insttype="" lat="40.682635" lon="23.300668">
		<comp name="--.EN1" depth="0.0">
			<acc value="0.0112328634272237" flag="0"/>
			<vel value="0.0102664090169871" flag="0"/>
			<psa03 value="0.0422400455915682" flag="0"/>
			<psa10 value="0.0164983554350833" flag="0"/>
			<psa30 value="0.00228217055759744" flag="0"/>
		</comp>
		<comp name="--.EN2" depth="0.0">
			<acc value="0.0313617890590637" flag="0"/>
			<vel value="0.0374448938897046" flag="0"/>
			<psa03 value="0.0929207284587552" flag="0"/>
			<psa10 value="0.0506170093783724" flag="0"/>
			<psa30 value="0.00646772887197669" flag="0"/>
		</comp>
		<comp name="--.EN3" depth="0.0">
			<acc value="0.0198509452653328" flag="0"/>
			<vel value="0.031290889125759" flag="0"/>
			<psa03 value="0.0687476948225337" flag="0"/>
			<psa10 value="0.0313407492958334" flag="0"/>
			<psa30 value="0.00949918677451335" flag="0"/>
		</comp>
	</station>
	<station code="SHTA" name="SHTA" netid="EG" source="EUROSEISTEST Strong Motion Network" insttype="" lat="40.613764" lon="22.952972">
		<comp name="--.EN1" depth="0.0">
			<acc value="0.191696107355257" flag="0"/>
			<vel value="0.239350992441135" flag="0"/>
			<psa03 value="0.409206316243551" flag="0"/>
			<psa10 value="0.308320974751424" flag="0"/>
			<psa30 value="0.0732941020410618" flag="0"/>
		</comp>
		<comp name="--.EN2" depth="0.0">
			<acc value="0.161124130553626" flag="0"/>
			<vel value="0.169244084203905" flag="0"/>
			<psa03 value="0.397659009624479" flag="0"/>
			<psa10 value="0.307688382845259" flag="0"/>
			<psa30 value="0.0449363034760696" flag="0"/>
		</comp>
		<comp name="--.EN3" depth="0.0">
			<acc value="0.103401261930996" flag="0"/>
			<vel value="0.102893201528703" flag="0"/>
			<psa03 value="0.199937994910715" flag="0"/>
			<psa10 value="0.233781726892087" flag="0"/>
			<psa30 value="0.0189472618297939" flag="0"/>
		</comp>
	</station>
	<station code="STC" name="STC" netid="EG" source="EUROSEISTEST Strong Motion Network" insttype="" lat="40.64865" lon="23.304856">
		<comp name="--.EN1" depth="0.0">
			<acc value="0.167374531321859" flag="0"/>
			<vel value="0.140545171462515" flag="0"/>
			<psa03 value="0.477327995638393" flag="0"/>
			<psa10 value="0.210428794875125" flag="0"/>
			<psa30 value="0.0197067171399532" flag="0"/>
		</comp>
		<comp name="--.EN2" depth="0.0">
			<acc value="0.156372749737757" flag="0"/>
			<vel value="0.128880759726219" flag="0"/>
			<psa03 value="0.310749189775404" flag="0"/>
			<psa10 value="0.167598287564144" flag="0"/>
			<psa30 value="0.0185089111245279" flag="0"/>
		</comp>
		<comp name="--.EN3" depth="0.0">
			<acc value="0.0553456886914236" flag="0"/>
			<vel value="0.0782047370597371" flag="0"/>
			<psa03 value="0.158269401237728" flag="0"/>
			<psa10 value="0.130936638909627" flag="0"/>
			<psa30 value="0.0137432045865153" flag="0"/>
		</comp>
	</station>
	<station code="TST" name="TST" netid="EG" source="EUROSEISTEST Strong Motion Network" insttype="" lat="40.6638" lon="23.2906">
		<comp name="00.EN1" depth="0.0">
			<acc value="0.127716495390779" flag="0"/>
			<vel value="0.114267703993127" flag="0"/>
			<psa03 value="0.327309120122712" flag="0"/>
			<psa10 value="0.163562495212493" flag="0"/>
			<psa30 value="0.0197572571546344" flag="0"/>
		</comp>
		<comp name="00.EN2" depth="0.0">
			<acc value="0.0524888955117438" flag="0"/>
			<vel value="0.0431773708492413" flag="0"/>
			<psa03 value="0.147235034848301" flag="0"/>
			<psa10 value="0.0830368607846109" flag="0"/>
			<psa30 value="0.00879689025079607" flag="0"/>
		</comp>
		<comp name="00.EN3" depth="0.0">
			<acc value="0.0804429234745181" flag="0"/>
			<vel value="0.109372988371774" flag="0"/>
			<psa03 value="0.203587486671634" flag="0"/>
			<psa10 value="0.217193192982958" flag="0"/>
			<psa30 value="0.0128347877417025" flag="0"/>
		</comp>
	</station>
	<station code="AIGS" name="AIGS" netid="HA" source="Hellenic Seismological Network, University of Athens, Seismological Laboratory (HA)" insttype="" lat="38.25001" lon="22.0878">
		<comp name="--.HNE" depth="0.0">
			<acc value="0.02303871836772" flag="0"/>
			<vel value="0.0426356002212441" flag="0"/>
			<psa03 value="0.0684555761259558" flag="0"/>
			<psa10 value="0.0394827602302939" flag="0"/>
			<psa30 value="0.0123018697096938" flag="0"/>
		</comp>
		<comp name="--.HNN" depth="0.0">
			<acc value="0.0272810750325159" flag="0"/>
			<vel value="0.0412408519312311" flag="0"/>
			<psa03 value="0.0907819372284734" flag="0"/>
			<psa10 value="0.0361083030071438" flag="0"/>
			<psa30 value="0.023363038029863" flag="0"/>
		</comp>
		<comp name="--.HNZ" depth="0.0">
			<acc value="0.013284314713107" flag="0"/>
			<vel value="0.0306682473562552" flag="0"/>
			<psa03 value="0.0321696465585374" flag="0"/>
			<psa10 value="0.0310989655541621" flag="0"/>
			<psa30 value="0.0163470126100518" flag="0"/>
		</comp>
	</station>
	<station code="XLKS" name="XLKS" netid="HA" source="Hellenic Seismological Network, University of Athens, Seismological Laboratory (HA)" insttype="" lat="38.0772" lon="22.6361">
		<comp name="--.HNE" depth="0.0">
			<acc value="0.0608093375190899" flag="0"/>
			<vel value="0.0543894359313912" flag="0"/>
			<psa03 value="0.104517794660283" flag="0"/>
			<psa10 value="0.0885009795350739" flag="0"/>
			<psa30 value="0.0235232151295564" flag="0"/>
		</comp>
		<comp name="--.HNN" depth="0.0">
			<acc value="0.0437228640423797" flag="0"/>
			<vel value="0.0600124006479402" flag="0"/>
			<psa03 value="0.0913188437078927" flag="0"/>
			<psa10 value="0.0928338148239873" flag="0"/>
			<psa30 value="0.0222212169169647" flag="0"/>
		</comp>
		<comp name="--.HNZ" depth="0.0">
			<acc value="0.0222111557245408" flag="0"/>
			<vel value="0.0272626859257585" flag="0"/>
			<psa03 value="0.0478294188749325" flag="0"/>
			<psa10 value="0.0299754887459773" flag="0"/>
			<psa30 value="0.0147188437112129" flag="0"/>
		</comp>
	</station>
	<station code="ART2" name="ART2" netid="HI" source="ITSAK Strong Motion Network" insttype="" lat="39.1474" lon="20.9937">
		<comp name="--.HNE" depth="0.0">
			<acc value="0.0375516905135936" flag="0"/>
			<vel value="0.0218846428250412" flag="0"/>
			<psa03 value="0.0679186696465365" flag="0"/>
			<psa10 value="0.0211648534187073" flag="0"/>
			<psa30 value="0.00638829226095684" flag="0"/>
		</comp>
		<comp name="--.HNN" depth="0.0">
			<acc value="0.0307506484574134" flag="0"/>
			<vel value="0.0294889454783967" flag="0"/>
			<psa03 value="0.0494848805198086" flag="0"/>
			<psa10 value="0.0254131259371122" flag="0"/>
			<psa30 value="0.0118347610725991" flag="0"/>
		</comp>
		<comp name="--.HNZ" depth="0.0">
			<acc value="0.0239218580496695" flag="0"/>
			<vel value="0.0225121491197245" flag="0"/>
			<psa03 value="0.0632654801582363" flag="0"/>
			<psa10 value="0.0185796487203035" flag="0"/>
			<psa30 value="0.00678649789985946" flag="0"/>
		</comp>
	</station>
	<station code="KLV1" name="KLV1" netid="HI" source="ITSAK Strong Motion Network" insttype="" lat="38.03256" lon="22.10797">
		<comp name="--.HNE" depth="0.0">
			<acc value="0.0235771584196026" flag="0"/>
			<vel value="0.0357325144843563" flag="0"/>
			<psa03 value="0.054496007661055" flag="0"/>
			<psa10 value="0.0631885235628528" flag="0"/>
			<psa30 value="0.00841779875316165" flag="0"/>
		</comp>
		<comp name="--.HNN" depth="0.0">
			<acc value="0.0237656249214331" flag="0"/>
			<vel value="0.0305938095396174" flag="0"/>
			<psa03 value="0.0519904440904318" flag="0"/>
			<psa10 value="0.0534597781557758" flag="0"/>
			<psa30 value="0.00566391593580702" flag="0"/>
		</comp>
		<comp name="--.HNZ" depth="0.0">
			<acc value="0.00869946483410758" flag="0"/>
			<vel value="0.0222856885962778" flag="0"/>
			<psa03 value="0.0191496644326203" flag="0"/>
			<psa10 value="0.0269513630006484" flag="0"/>
			<psa30 value="0.00866343346749596" flag="0"/>
		</comp>
	</station>
	<station code="KRK1" name="KRK1" netid="HI" source="ITSAK Strong Motion Network" insttype="" lat="39.618861" lon="19.9202">
		<comp name="--.HNE" depth="0.0">
			<acc value="0.0836571975202707" flag="0"/>
			<vel value="0.0487945814827562" flag="0"/>
			<psa03 value="0.230198653051008" flag="0"/>
			<psa10 value="0.0439082118869072" flag="0"/>
			<psa30 value="0.00686927098210326" flag="0"/>
		</comp>
		<comp name="--.HNN" depth="0.0">
			<acc value="0.0687027420605982" flag="0"/>
			<vel value="0.0415018923270441" flag="0"/>
			<psa03 value="0.263218401535293" flag="0"/>
			<psa10 value="0.0328425693460762" flag="0"/>
			<psa30 value="0.00929206147048268" flag="0"/>
		</comp>
		<comp name="--.HNZ" depth="0.0">
			<acc value="0.0326847508709334" flag="0"/>
			<vel value="0.0217987744172353" flag="0"/>
			<psa03 value="0.10174377784995" flag="0"/>
			<psa10 value="0.0177903961955572" flag="0"/>
			<psa30 value="0.00502454980323192" flag="0"/>
		</comp>
	</station>
	<station code="LAM2" name="LAM2" netid="HI" source="ITSAK Strong Motion Network" insttype="" lat="38.90203" lon="22.431301">
		<comp name="--.HNE" depth="0.0">
			<acc value="0.1030549624693" flag="0"/>
			<vel value="0.0737831957203523" flag="0"/>
			<psa03 value="0.295209079267357" flag="0"/>
			<psa10 value="0.114055043423034" flag="0"/>
			<psa30 value="0.0252475797726246" flag="0"/>
		</comp>
		<comp name="--.HNN" depth="0.0">
			<acc value="0.128191722506339" flag="0"/>
			<vel value="0.0949990725408662" flag="0"/>
			<psa03 value="0.381919475693568" flag="0"/>
			<psa10 value="0.139295017020533" flag="0"/>
			<psa30 value="0.0207899137272461" flag="0"/>
		</comp>
		<comp name="--.HNZ" depth="0.0">
			<acc value="0.0524455417001113" flag="0"/>
			<vel value="0.0745830712907378" flag="0"/>
			<psa03 value="0.140222075541664" flag="0"/>
			<psa10 value="0.106734323576152" flag="0"/>
			<psa30 value="0.0297660952190038" flag="0"/>
		</comp>
	</station>
	<station code="LMS2" name="LMS2" netid="HI" source="ITSAK Strong Motion Network" insttype="" lat="40.834985" lon="21.141815">
		<comp name="--.HNE" depth="0.0">
			<acc value="0.0649052974174077" flag="0"/>
			<vel value="0.043761000642425" flag="0"/>
			<psa03 value="0.228945871265697" flag="0"/>
			<psa10 value="0.0404169775044834" flag="0"/>
			<psa30 value="0.00956006728812612" flag="0"/>
		</comp>
		<comp name="--.HNN" depth="0.0">
			<acc value="0.100242097303548" flag="0"/>
			<vel value="0.0661836452993418" flag="0"/>
			<psa03 value="0.193733754657117" flag="0"/>
			<psa10 value="0.0429941286056959" flag="0"/>
			<psa30 value="0.00628359549747008" flag="0"/>
		</comp>
		<comp name="--.HNZ" depth="0.0">
			<acc value="0.0361653793156108" flag="0"/>
			<vel value="0.0396441220111155" flag="0"/>
			<psa03 value="0.109081499735347" flag="0"/>
			<psa10 value="0.0720313732788881" flag="0"/>
			<psa30 value="0.00957796417077343" flag="0"/>
		</comp>
	</station>
	<station code="MSL1" name="MSL1" netid="HI" source="ITSAK Strong Motion Network" insttype="" lat="38.3727" lon="21.4243">
		<comp name="--.HNE" depth="0.0">
			<acc value="0.0760527340646083" flag="0"/>
			<vel value="0.124969328252201" flag="0"/>
			<psa03 value="0.129170750506951" flag="0"/>
			<psa10 value="0.24474881864327" flag="0"/>
			<psa30 value="0.0401480768427076" flag="0"/>
		</comp>
		<comp name="--.HNN" depth="0.0">
			<acc value="0.0559132203964616" flag="0"/>
			<vel value="0.101032139137231" flag="0"/>
			<psa03 value="0.127738999895166" flag="0"/>
			<psa10 value="0.125990474460524" flag="0"/>
			<psa30 value="0.0302721295758565" flag="0"/>
		</comp>
		<comp name="--.HNZ" depth="0.0">
			<acc value="0.0365614769584058" flag="0"/>
			<vel value="0.0521502550164705" flag="0"/>
			<psa03 value="0.0846522549217702" flag="0"/>
			<psa10 value="0.0801091312617508" flag="0"/>
			<psa30 value="0.00941599738281529" flag="0"/>
		</comp>
	</station>
	<station code="SKO1" name="SKO1" netid="HI" source="ITSAK Strong Motion Network" insttype="" lat="39.123383" lon="23.728705">
		<comp name="--.HNE" depth="0.0">
			<acc value="0.0405159464460773" flag="0"/>
			<vel value="0.0432726497071031" flag="0"/>
			<psa03 value="0.0796897790569116" flag="0"/>
			<psa10 value="0.056541445593454" flag="0"/>
			<psa30 value="0.00420954927864848" flag="0"/>
		</comp>
		<comp name="--.HNN" depth="0.0">
			<acc value="0.0383826881770875" flag="0"/>
			<vel value="0.0367856891250904" flag="0"/>
			<psa03 value="0.0795416077829591" flag="0"/>
			<psa10 value="0.0438700386745999" flag="0"/>
			<psa30 value="0.00719462910884967" flag="0"/>
		</comp>
		<comp name="--.HNZ" depth="0.0">
			<acc value="0.0372403437216981" flag="0"/>
			<vel value="0.0527156693447737" flag="0"/>
			<psa03 value="0.0599183963830889" flag="0"/>
			<psa10 value="0.0599300613223422" flag="0"/>
			<psa30 value="0.00558017882612274" flag="0"/>
		</comp>
	</station>
	<station code="SKY1" name="SKY1" netid="HI" source="ITSAK Strong Motion Network" insttype="" lat="38.904483" lon="24.564572">
		<comp name="--.HNE" depth="0.0">
			<acc value="0.00843887487190415" flag="0"/>
			<vel value="0.0117200253907636" flag="0"/>
			<psa03 value="0.0185687665479684" flag="0"/>
			<psa10 value="0.0183001566705718" flag="0"/>
			<psa30 value="0.00219724805690209" flag="0"/>
		</comp>
		<comp name="--.HNN" depth="0.0">
			<acc value="0.010458235273536" flag="0"/>
			<vel value="0.0126712173591528" flag="0"/>
			<psa03 value="0.0249867880645746" flag="0"/>
			<psa10 value="0.0160166191474223" flag="0"/>
			<psa30 value="0.00313575293657781" flag="0"/>
		</comp>
		<comp name="--.HNZ" depth="0.0">
			<acc value="0.00897279761604741" flag="0"/>
			<vel value="0.00933672258542524" flag="0"/>
			<psa03 value="0.0182291242566833" flag="0"/>
			<psa10 value="0.0123579827182231" flag="0"/>
			<psa30 value="0.00331376181212207" flag="0"/>
		</comp>
	</station>
	<station code="THS1" name="THS1" netid="HI" source="ITSAK Strong Motion Network" insttype="" lat="40.738476" lon="24.575145">
		<comp name="--.HNE" depth="0.0">
			<acc value="0.007885374376762" flag="0"/>
			<vel value="0.00886178530291291" flag="0"/>
			<psa03 value="0.0282949863831626" flag="0"/>
			<psa10 value="0.0145928992079647" flag="0"/>
			<psa30 value="0.00243294762917562" flag="0"/>
		</comp>
		<comp name="--.HNN" depth="0.0">
			<acc value="0.0127032281928642" flag="0"/>
			<vel value="0.00980432233273426" flag="0"/>
			<psa03 value="0.0313184418805722" flag="0"/>
			<psa10 value="0.018730117028312" flag="0"/>
			<psa30 value="0.00278360210831056" flag="0"/>
		</comp>
		<comp name="--.HNZ" depth="0.0">
			<acc value="0.00653481070553893" flag="0"/>
			<vel value="0.00994341832621756" flag="0"/>
			<psa03 value="0.0184290294264929" flag="0"/>
			<psa10 value="0.00958407583550091" flag="0"/>
			<psa30 value="0.00304530298637927" flag="0"/>
		</comp>
	</station>
	<station code="VAS2" name="VAS2" netid="HI" source="ITSAK Strong Motion Network" insttype="" lat="38.630558" lon="20.608081">
		<comp name="--.HNE" depth="0.0">
			<acc value="0.113570185296462" flag="0"/>
			<vel value="0.15117865785176" flag="0"/>
			<psa03 value="0.189420819032823" flag="0"/>
			<psa10 value="0.4497704750859" flag="0"/>
			<psa30 value="0.0304513405851827" flag="0"/>
		</comp>
		<comp name="--.HNN" depth="0.0">
			<acc value="0.128378991059603" flag="0"/>
			<vel value="0.179253524739348" flag="0"/>
			<psa03 value="0.258152455499777" flag="0"/>
			<psa10 value="0.266800534226158" flag="0"/>
			<psa30 value="0.0514192829418318" flag="0"/>
		</comp>
		<comp name="--.HNZ" depth="0.0">
			<acc value="0.0570444494799305" flag="0"/>
			<vel value="0.0661555873070416" flag="0"/>
			<psa03 value="0.121452691478158" flag="0"/>
			<psa10 value="0.105824735369542" flag="0"/>
			<psa30 value="0.00980729301837049" flag="0"/>
		</comp>
	</station>
	<station code="VOL2" name="VOL2" netid="HI" source="ITSAK Strong Motion Network" insttype="" lat="39.366" lon="22.9506">
		<comp name="--.HNE" depth="0.0">
			<acc value="0.16013006854266" flag="0"/>
			<vel value="0.129436364428957" flag="0"/>
			<psa03 value="0.446527222050352" flag="0"/>
			<psa10 value="0.118846933751851" flag="0"/>
			<psa30 value="0.0131045448964256" flag="0"/>
		</comp>
		<comp name="--.HNN" depth="0.0">
			<acc value="0.181811575626182" flag="0"/>
			<vel value="0.208241225419395" flag="0"/>
			<psa03 value="0.427019619964786" flag="0"/>
			<psa10 value="0.351012006783732" flag="0"/>
			<psa30 value="0.0146553097778149" flag="0"/>
		</comp>
		<comp name="--.HNZ" depth="0.0">
			<acc value="0.0760896717632698" flag="0"/>
			<vel value="0.0658997242962688" flag="0"/>
			<psa03 value="0.14187753718654" flag="0"/>
			<psa10 value="0.0633697294996568" flag="0"/>
			<psa30 value="0.00738201666994866" flag="0"/>
		</comp>
	</station>
	<station code="DLFA" name="DLFA" netid="HL" source="National Observatory of Athens Seismic Network" insttype="" lat="38.47836" lon="22.49583">
		<comp name="00.HNE" depth="0.0">
			<acc value="0.0359916868239893" flag="0"/>
			<vel value="0.0544554619376189" flag="0"/>
