<?xml version="1.0" encoding="UTF-8" standalone="yes"?>
<!DOCTYPE earthquake SYSTEM "stationlist.dtd">
<stationlist created="" xmlns="ch.ethz.sed.shakemap.usgs.xml">
  <station code="ART2" name="ART2" netid="HI" insttype="CMG-5TD,ACCELEROMETER,GURALP" lat="39.1474" lon="20.9937">
    <comp name="--.HNZ">
      <acc value="0.0238301082" flag="0"/>
      <vel value="0.0207420772" flag="0"/>
      <psa03 value="0.0621424397" flag="0"/>
      <psa10 value="0.0185623901" flag="0"/>
      <psa30 value="0.0067585241" flag="0"/>
    </comp>
    <comp name="--.HNE">
      <acc value="0.0371521089" flag="0"/>
      <vel value="0.0218380715" flag="0"/>
      <psa03 value="0.0674530931" flag="0"/>
      <psa10 value="0.0210523115" flag="0"/>
      <psa30 value="0.0062146474" flag="0"/>
    </comp>
    <comp name="--.HNN">
      <acc value="0.0310728960" flag="0"/>
      <vel value="0.0253276892" flag="0"/>
      <psa03 value="0.0501188125" flag="0"/>
      <psa10 value="0.0249019866" flag="0"/>
      <psa30 value="0.0113367900" flag="0"/>
    </comp>
  </station>
  <station code="LAM2" name="LAM2" netid="HI" insttype="CMG-5TD,ACCELEROMETER,GURALP" lat="38.902" lon="22.4313">
    <comp name="--.HNE">
      <acc value="0.1029560193" flag="0"/>
      <vel value="0.0719185784" flag="0"/>
      <psa03 value="0.2961059358" flag="0"/>
      <psa10 value="0.1137163083" flag="0"/>
      <psa30 value="0.0250110272" flag="0"/>
    </comp>
    <comp name="--.HNN">
      <acc value="0.1281650818" flag="0"/>
      <vel value="0.0891199754" flag="0"/>
      <psa03 value="0.3904551271" flag="0"/>
      <psa10 value="0.1387740436" flag="0"/>
      <psa30 value="0.0203588590" flag="0"/>
    </comp>
    <comp name="--.HNZ">
      <acc value="0.0524225578" flag="0"/>
      <vel value="0.0709090019" flag="0"/>
      <psa03 value="0.1397059706" flag="0"/>
      <psa10 value="0.1068345239" flag="0"/>
      <psa30 value="0.0294432624" flag="0"/>
    </comp>
  </station>
  <station code="LMS2" name="LMS2" netid="HI" insttype="CMG-5TD,ACCELEROMETER,GURALP" lat="40.835" lon="21.1418">
    <comp name="--.HNZ">
      <acc value="0.0361201595" flag="0"/>
      <vel value="0.0376567948" flag="0"/>
      <psa03 value="0.1107509022" flag="0"/>
      <psa10 value="0.0719276128" flag="0"/>
      <psa30 value="0.0095885670" flag="0"/>
    </comp>
    <comp name="--.HNE">
      <acc value="0.0647286270" flag="0"/>
      <vel value="0.0413973911" flag="0"/>
      <psa03 value="0.2272374383" flag="0"/>
      <psa10 value="0.0405669063" flag="0"/>
      <psa30 value="0.0095902946" flag="0"/>
    </comp>
    <comp name="--.HNN">
      <acc value="0.1006319701" flag="0"/>
      <vel value="0.0640631536" flag="0"/>
      <psa03 value="0.1930090819" flag="0"/>
      <psa10 value="0.0428656350" flag="0"/>
      <psa30 value="0.0061166712" flag="0"/>
    </comp>
  </station>
  <station code="MSL1" name="MSL1" netid="HI" insttype="CMG-5TD,ACCELEROMETER,GURALP" lat="38.3727" lon="21.4243">
    <comp name="--.HNE">
      <acc value="0.0760469237" flag="0"/>
      <vel value="0.1258670082" flag="0"/>
      <psa03 value="0.1300977877" flag="0"/>
      <psa10 value="0.2451251827" flag="0"/>
      <psa30 value="0.0401765815" flag="0"/>
    </comp>
    <comp name="--.HNN">
      <acc value="0.0555123216" flag="0"/>
      <vel value="0.1006476994" flag="0"/>
      <psa03 value="0.1286750921" flag="0"/>
      <psa10 value="0.1261604306" flag="0"/>
      <psa30 value="0.0298082159" flag="0"/>
    </comp>
    <comp name="--.HNZ">
      <acc value="0.0365947201" flag="0"/>
      <vel value="0.0508274931" flag="0"/>
      <psa03 value="0.0848869020" flag="0"/>
      <psa10 value="0.0798792710" flag="0"/>
      <psa30 value="0.0091255430" flag="0"/>
    </comp>
  </station>
  <station code="VOL2" name="VOL2" netid="HI" insttype="CMG-5TD,ACCELEROMETER,GURALP" lat="39.366" lon="22.9506">
    <comp name="--.HNZ">
      <acc value="0.0756766636" flag="0"/>
      <vel value="0.0632277572" flag="0"/>
      <psa03 value="0.1411898762" flag="0"/>
      <psa10 value="0.0634256851" flag="0"/>
      <psa30 value="0.0069526876" flag="0"/>
    </comp>
    <comp name="--.HNE">
      <acc value="0.1603289889" flag="0"/>
      <vel value="0.1281940520" flag="0"/>
      <psa03 value="0.4465877251" flag="0"/>
      <psa10 value="0.1187273198" flag="0"/>
      <psa30 value="0.0129835378" flag="0"/>
    </comp>
    <comp name="--.HNN">
      <acc value="0.1818130221" flag="0"/>
      <vel value="0.2024542272" flag="0"/>
      <psa03 value="0.4251486980" flag="0"/>
      <psa10 value="0.3505006349" flag="0"/>
      <psa30 value="0.0140993369" flag="0"/>
    </comp>
  </station>
  <station code="KZN" name="KZN" netid="HL" insttype="120" lat="40.3033" lon="21.7821">
    <comp name="--.HHN">
      <acc value="0.3556440283" flag="0"/>
      <vel value="0.1708331317" flag="0"/>
      <psa03 value="0.8601847903" flag="0"/>
      <psa10 value="0.1289868181" flag="0"/>
      <psa30 value="0.0184022465" flag="0"/>
    </comp>
    <comp name="--.HHZ">
      <acc value="0.1678702027" flag="0"/>
      <vel value="0.1401513413" flag="0"/>
      <psa03 value="0.4484646702" flag="0"/>
      <psa10 value="0.1441486829" flag="0"/>
      <psa30 value="0.0202636847" flag="0"/>
    </comp>
    <comp name="--.HHE">
      <acc value="0.7868320932" flag="0"/>
      <vel value="0.4731183755" flag="0"/>
      <psa03 value="2.8670949009" flag="0"/>
      <psa10 value="0.2357434147" flag="0"/>
      <psa30 value="0.0234105282" flag="0"/>
    </comp>
  </station>
  <station code="TETR" name="TETR" netid="HL" insttype="60" lat="39.3445" lon="21.2747">
    <comp name="--.HHE">
      <acc value="0.4931551947" flag="0"/>
      <vel value="0.2343197973" flag="0"/>
      <psa03 value="1.7961192091" flag="0"/>
      <psa10 value="0.2030060708" flag="0"/>
      <psa30 value="0.0206831616" flag="0"/>
    </comp>
    <comp name="--.HHZ">
      <acc value="0.2064964212" flag="0"/>
      <vel value="0.1192440059" flag="0"/>
      <psa03 value="0.5276602446" flag="0"/>
      <psa10 value="0.0956563553" flag="0"/>
      <psa30 value="0.0215922396" flag="0"/>
    </comp>
    <comp name="--.HHN">
      <acc value="0.4950182909" flag="0"/>
      <vel value="0.1775807775" flag="0"/>
      <psa03 value="1.2096896228" flag="0"/>
      <psa10 value="0.1111774964" flag="0"/>
      <psa30 value="0.0267418072" flag="0"/>
    </comp>
  </station>
  <station code="THL" name="THL" netid="HL" insttype="120" lat="39.5647" lon="22.0144">
    <comp name="--.HHN">
      <acc value="0.7431150880" flag="0"/>
      <vel value="0.4441445590" flag="0"/>
      <psa03 value="1.7361398184" flag="0"/>
      <psa10 value="0.3829074932" flag="0"/>
      <psa30 value="0.0464060502" flag="0"/>
    </comp>
    <comp name="--.HHE">
      <acc value="0.7797841596" flag="0"/>
      <vel value="0.3345268191" flag="0"/>
      <psa03 value="1.1748269233" flag="0"/>
      <psa10 value="0.2300781634" flag="0"/>
      <psa30 value="0.0612764645" flag="0"/>
    </comp>
    <comp name="--.HHZ">
      <acc value="0.4938150964" flag="0"/>
      <vel value="0.3075744284" flag="0"/>
      <psa03 value="1.2668906177" flag="0"/>
      <psa10 value="0.3069658754" flag="0"/>
      <psa30 value="0.0429667597" flag="0"/>
    </comp>
  </station>
  <station code="ANX" name="ANX" netid="HP" insttype="120" lat="38.5933" lon="21.9209">
    <comp name="--.HHE">
      <acc value="0.0861281061" flag="0"/>
      <vel value="0.0713576573" flag="0"/>
      <psa03 value="0.2088684929" flag="0"/>
      <psa10 value="0.1273193820" flag="0"/>
      <psa30 value="0.0117591733" flag="0"/>
    </comp>
    <comp name="--.HHN">
      <acc value="0.0729019351" flag="0"/>
      <vel value="0.0696912279" flag="0"/>
      <psa03 value="0.1765041107" flag="0"/>
      <psa10 value="0.0810858408" flag="0"/>
      <psa30 value="0.0086429532" flag="0"/>
    </comp>
    <comp name="--.HHZ">
      <acc value="0.0367043904" flag="0"/>
      <vel value="0.0436681406" flag="0"/>
      <psa03 value="0.1673412128" flag="0"/>
      <psa10 value="0.0634850556" flag="0"/>
      <psa30 value="0.0138137566" flag="0"/>
    </comp>
  </station>
  <station code="EFP" name="EFP" netid="HP" insttype="40," lat="38.4269" lon="21.9058">
    <comp name="--.HHE">
      <acc value="0.0415856398" flag="0"/>
      <vel value="0.0591252438" flag="0"/>
      <psa03 value="0.0954906862" flag="0"/>
      <psa10 value="0.1130407203" flag="0"/>
      <psa30 value="0.0232380031" flag="0"/>
    </comp>
    <comp name="--.HHZ">
      <acc value="0.0228145827" flag="0"/>
      <vel value="0.0353932155" flag="0"/>
      <psa03 value="0.0706109356" flag="0"/>
      <psa10 value="0.0554200750" flag="0"/>
      <psa30 value="0.0101474166" flag="0"/>
    </comp>
    <comp name="--.HHN">
      <acc value="0.0360847417" flag="0"/>
      <vel value="0.0538543522" flag="0"/>
      <psa03 value="0.0918207186" flag="0"/>
      <psa10 value="0.0730574298" flag="0"/>
      <psa30 value="0.0109209834" flag="0"/>
    </comp>
  </station>
  <station code="PRMD" name="PRMD" netid="HP" insttype="120P," lat="39.5299" lon="21.0965">
    <comp name="--.HHN">
      <acc value="0.1326609133" flag="0"/>
      <vel value="0.1103672345" flag="0"/>
      <psa03 value="0.4844285479" flag="0"/>
      <psa10 value="0.1256318154" flag="0"/>
      <psa30 value="0.0242692566" flag="0"/>
    </comp>
    <comp name="--.HHE">
      <acc value="0.1628013162" flag="0"/>
      <vel value="0.1289175327" flag="0"/>
      <psa03 value="0.5571474930" flag="0"/>
      <psa10 value="0.1163646695" flag="0"/>
      <psa30 value="0.0385272059" flag="0"/>
    </comp>
    <comp name="--.HHZ">
      <acc value="0.1135465066" flag="0"/>
      <vel value="0.1113438269" flag="0"/>
      <psa03 value="0.2557812499" flag="0"/>
      <psa10 value="0.0709003090" flag="0"/>
      <psa30 value="0.0294195654" flag="0"/>
    </comp>
  </station>
  <station code="PVO" name="PVO" netid="HP" insttype="DC_100" lat="38.616" lon="21.525">
    <comp name="--.HNN">
      <acc value="0.0240810321" flag="0"/>
      <vel value="0.0403574992" flag="0"/>
      <psa03 value="0.0850892723" flag="0"/>
      <psa10 value="0.0485697417" flag="0"/>
      <psa30 value="0.0200503112" flag="0"/>
    </comp>
    <comp name="--.HNE">
      <acc value="0.0321543427" flag="0"/>
      <vel value="0.0389047603" flag="0"/>
      <psa03 value="0.0707528864" flag="0"/>
      <psa10 value="0.0761581594" flag="0"/>
      <psa30 value="0.0132851417" flag="0"/>
    </comp>
    <comp name="--.HNZ">
      <acc value="0.0169831561" flag="0"/>
      <vel value="0.0343384872" flag="0"/>
      <psa03 value="0.0482914052" flag="0"/>
      <psa10 value="0.0405356255" flag="0"/>
      <psa30 value="0.0145597270" flag="0"/>
    </comp>
  </station>
  <station code="SERG" name="SERG" netid="HP" insttype="DC_100" lat="38.4133" lon="22.0566">
    <comp name="--.HNZ">
      <acc value="0.0280554041" flag="0"/>
      <vel value="0.0554543187" flag="0"/>
      <psa03 value="0.0621543576" flag="0"/>
      <psa10 value="0.0603336355" flag="0"/>
      <psa30 value="0.0166102314" flag="0"/>
    </comp>
    <comp name="--.HNE">
      <acc value="0.0631948299" flag="0"/>
      <vel value="0.0637027745" flag="0"/>
      <psa03 value="0.1482087758" flag="0"/>
      <psa10 value="0.0858800063" flag="0"/>
      <psa30 value="0.0189428908" flag="0"/>
    </comp>
    <comp name="--.HNN">
      <acc value="0.0422731467" flag="0"/>
      <vel value="0.0508789827" flag="0"/>
      <psa03 value="0.1346542355" flag="0"/>
      <psa10 value="0.0413893682" flag="0"/>
      <psa30 value="0.0167752639" flag="0"/>
    </comp>
  </station>
  <station code="AGG" name="AGG" netid="HT" insttype="120P," lat="39.0211" lon="22.336">
    <comp name="--.HHE">
      <acc value="0.3350515018" flag="0"/>
      <vel value="0.1739822886" flag="0"/>
      <psa03 value="0.8202732319" flag="0"/>
      <psa10 value="0.1916901382" flag="0"/>
      <psa30 value="0.0170278542" flag="0"/>
    </comp>
    <comp name="--.HHZ">
      <acc value="0.0845952611" flag="0"/>
      <vel value="0.0619832925" flag="0"/>
      <psa03 value="0.1563854121" flag="0"/>
      <psa10 value="0.1162345594" flag="0"/>
      <psa30 value="0.0146013765" flag="0"/>
    </comp>
    <comp name="--.HHN">
      <acc value="0.2039076341" flag="0"/>
      <vel value="0.1708475798" flag="0"/>
      <psa03 value="0.4515164952" flag="0"/>
      <psa10 value="0.1082252704" flag="0"/>
      <psa30 value="0.0336032421" flag="0"/>
    </comp>
  </station>
  <station code="DRAG" name="DRAG" netid="HT" insttype="1s-100Hz," lat="38.6839" lon="20.5746">
    <comp name="--.HHE">
      <acc value="0.1039451715" flag="0"/>
      <vel value="0.0713238410" flag="0"/>
      <psa03 value="0.3000211167" flag="0"/>
      <psa10 value="0.0903270787" flag="0"/>
      <psa30 value="0.0185239436" flag="0"/>
    </comp>
    <comp name="--.HHZ">
      <acc value="0.0252039886" flag="0"/>
      <vel value="0.0307041965" flag="0"/>
      <psa03 value="0.0570754991" flag="0"/>
      <psa10 value="0.0372865813" flag="0"/>
      <psa30 value="0.0080776950" flag="0"/>
    </comp>
    <comp name="--.HHN">
      <acc value="0.0681403368" flag="0"/>
      <vel value="0.0547549621" flag="0"/>
      <psa03 value="0.2137262434" flag="0"/>
      <psa10 value="0.0598523944" flag="0"/>
      <psa30 value="0.0098276195" flag="0"/>
    </comp>
  </station>
  <station code="GRG" name="GRG" netid="HT" insttype="100" lat="40.957" lon="22.401">
    <comp name="--.HHN">
      <acc value="0.1622872006" flag="0"/>
      <vel value="0.1648047484" flag="0"/>
      <psa03 value="0.2847064073" flag="0"/>
      <psa10 value="0.2844973343" flag="0"/>
      <psa30 value="0.0276628075" flag="0"/>
    </comp>
    <comp name="--.HHE">
      <acc value="0.1113611439" flag="0"/>
      <vel value="0.1874675546" flag="0"/>
      <psa03 value="0.2162361451" flag="0"/>
      <psa10 value="0.2581382543" flag="0"/>
      <psa30 value="0.0198522422" flag="0"/>
    </comp>
    <comp name="--.HHZ">
      <acc value="0.0945030441" flag="0"/>
      <vel value="0.1593925790" flag="0"/>
      <psa03 value="0.1979596696" flag="0"/>
      <psa10 value="0.2875214019" flag="0"/>
      <psa30 value="0.0469111129" flag="0"/>
    </comp>
  </station>
  <station code="KNT" name="KNT" netid="HT" insttype="100" lat="41.162" lon="22.898">
    <comp name="--.HHE">
      <acc value="0.0184338261" flag="0"/>
      <vel value="0.0302968663" flag="0"/>
      <psa03 value="0.0587168121" flag="0"/>
      <psa10 value="0.0311614795" flag="0"/>
      <psa30 value="0.0070336591" flag="0"/>
    </comp>
    <comp name="--.HHN">
      <acc value="0.0234870827" flag="0"/>
      <vel value="0.0269031676" flag="0"/>
      <psa03 value="0.0674256200" flag="0"/>
      <psa10 value="0.0434760124" flag="0"/>
      <psa30 value="0.0086671760" flag="0"/>
    </comp>
    <comp name="--.HHZ">
      <acc value="0.0209657962" flag="0"/>
      <vel value="0.0357565391" flag="0"/>
      <psa03 value="0.0600961721" flag="0"/>
      <psa10 value="0.0424566819" flag="0"/>
      <psa30 value="0.0123108666" flag="0"/>
    </comp>
  </station>
  <station code="LIT" name="LIT" netid="HT" insttype="100" lat="40.1033" lon="22.4892">
    <comp name="--.HHZ">
      <acc value="0.7365417706" flag="0"/>
      <vel value="0.3363958092" flag="0"/>
      <psa03 value="2.7296671567" flag="0"/>
      <psa10 value="0.1331182107" flag="0"/>
      <psa30 value="0.0285048789" flag="0"/>
    </comp>
    <comp name="--.HHE">
      <acc value="1.0414243666" flag="0"/>
      <vel value="0.4053801083" flag="0"/>
      <psa03 value="2.9850675227" flag="0"/>
      <psa10 value="0.1603509475" flag="0"/>
      <psa30 value="0.0291103831" flag="0"/>
    </comp>
    <comp name="--.HHN">
      <acc value="1.9694644987" flag="0"/>
      <vel value="0.6970347817" flag="0"/>
      <psa03 value="4.7172603451" flag="0"/>
      <psa10 value="0.2383634398" flag="0"/>
      <psa30 value="0.0486711578" flag="0"/>
    </comp>
  </station>
  <station code="NYDR" name="NYDR" netid="HT" insttype="1s-100Hz," lat="38.7135" lon="20.6983">
    <comp name="--.HHE">
      <acc value="0.0266709289" flag="0"/>
      <vel value="0.0269598638" flag="0"/>
      <psa03 value="0.0531069396" flag="0"/>
      <psa10 value="0.0369531624" flag="0"/>
      <psa30 value="0.0063748063" flag="0"/>
    </comp>
    <comp name="--.HHN">
      <acc value="0.0191026923" flag="0"/>
      <vel value="0.0253229682" flag="0"/>
      <psa03 value="0.0415248224" flag="0"/>
      <psa10 value="0.0397532934" flag="0"/>
      <psa30 value="0.0076818771" flag="0"/>
    </comp>
    <comp name="--.HHZ">
      <acc value="0.0166290967" flag="0"/>
      <vel value="0.0247382978" flag="0"/>
      <psa03 value="0.0351229878" flag="0"/>
      <psa10 value="0.0184755956" flag="0"/>
      <psa30 value="0.0066453563" flag="0"/>
    </comp>
  </station>
  <station code="TSLK" name="TSLK" netid="HT" insttype="1s-100Hz," lat="38.8249" lon="20.6554">
    <comp name="--.HHZ">
      <acc value="0.0231024675" flag="0"/>
      <vel value="0.0432826761" flag="0"/>
      <psa03 value="0.0489747380" flag="0"/>
      <psa10 value="0.0420400121" flag="0"/>
      <psa30 value="0.0156046288" flag="0"/>
    </comp>
    <comp name="--.HHE">
      <acc value="0.0364007779" flag="0"/>
      <vel value="0.0484622851" flag="0"/>
      <psa03 value="0.1117602092" flag="0"/>
      <psa10 value="0.0405739398" flag="0"/>
      <psa30 value="0.0124124685" flag="0"/>
    </comp>
    <comp name="--.HHN">
      <acc value="0.0328746374" flag="0"/>
      <vel value="0.0478879150" flag="0"/>
      <psa03 value="0.1101587492" flag="0"/>
      <psa10 value="0.0571125028" flag="0"/>
      <psa30 value="0.0329791304" flag="0"/>
    </comp>
  </station>
  <station code="TYRN" name="TYRN" netid="HT" insttype="120P," lat="39.711" lon="22.2325">
    <comp name="--.HHN">
      <acc value="0.3990120413" flag="0"/>
      <vel value="0.2062820364" flag="0"/>
      <psa03 value="0.8899934338" flag="0"/>
      <psa10 value="0.3288458197" flag="0"/>
      <psa30 value="0.0354209687" flag="0"/>
    </comp>
    <comp name="--.HHZ">
      <acc value="0.4589228886" flag="0"/>
      <vel value="0.1716236180" flag="0"/>
      <psa03 value="0.9601345804" flag="0"/>
      <psa10 value="0.1728125392" flag="0"/>
      <psa30 value="0.0412955687" flag="0"/>
    </comp>
    <comp name="--.HHE">
      <acc value="0.5448371831" flag="0"/>
      <vel value="0.3212402778" flag="0"/>
      <psa03 value="1.1967874167" flag="0"/>
      <psa10 value="0.2992835060" flag="0"/>
      <psa30 value="0.0380324265" flag="0"/>
    </comp>
  </station>
  <station code="THL" name="THL" netid="MN" insttype="" lat="39.5647" lon="22.0144">
    <comp name="--.HHN">
      <acc value="0.7431150880" flag="0"/>
      <vel value="0.4441445590" flag="0"/>
      <psa03 value="1.7361398184" flag="0"/>
      <psa10 value="0.3829074932" flag="0"/>
      <psa30 value="0.0464060502" flag="0"/>
    </comp>
    <comp name="--.HHZ">
      <acc value="0.4938150964" flag="0"/>
      <vel value="0.3075744284" flag="0"/>
      <psa03 value="1.2668906177" flag="0"/>
      <psa10 value="0.3069658754" flag="0"/>
      <psa30 value="0.0429667597" flag="0"/>
    </comp>
    <comp name="--.HHE">
      <acc value="0.7797841596" flag="0"/>
      <vel value="0.3345268191" flag="0"/>
      <psa03 value="1.1748269233" flag="0"/>
      <psa10 value="0.2300781634" flag="0"/>
      <psa30 value="0.0612764645" flag="0"/>
    </comp>
  </station>
</stationlist>
