<?xml version="1.0" encoding="UTF-8" standalone="yes"?>
<!DOCTYPE earthquake SYSTEM "stationlist.dtd">
<stationlist created="" xmlns="ch.ethz.sed.shakemap.usgs.xml">
  <station code="KSS1" name="KSS1" netid="HI" insttype="CMG-5TD,ACCELEROMETER,GURALP" lat="35.4189" lon="26.9207">
    <comp name="--.HNE">
      <acc value="0.0049613234" flag="0"/>
      <vel value="0.0033323149" flag="0"/>
      <psa03 value="0.0218037034" flag="0"/>
      <psa10 value="0.0027425260" flag="0"/>
      <psa30 value="0.0002465359" flag="0"/>
    </comp>
    <comp name="--.HNN">
      <acc value="0.0050968368" flag="0"/>
      <vel value="0.0026562036" flag="0"/>
      <psa03 value="0.0331741827" flag="0"/>
      <psa10 value="0.0028521152" flag="0"/>
      <psa30 value="0.0002143531" flag="0"/>
    </comp>
    <comp name="--.HNZ">
      <acc value="0.0025726844" flag="0"/>
      <vel value="0.0012154300" flag="0"/>
      <psa03 value="0.0059246377" flag="0"/>
      <psa10 value="0.0014690531" flag="0"/>
      <psa30 value="0.0001140778" flag="0"/>
    </comp>
  </station>
</stationlist>
