<?xml version="1.0" encoding="UTF-8" standalone="yes"?>
<!DOCTYPE earthquake SYSTEM "stationlist.dtd">
<stationlist created="" xmlns="ch.ethz.sed.shakemap.usgs.xml">
  <station code="CEYT" name="CEYT" netid="KO" insttype="CMG-3ESP" lat="37.0105" lon="35.7478">
    <comp name="--.HHE">
      <acc value="0.0126580267" flag="0"/>
      <vel value="0.0047944946" flag="0"/>
      <psa03 value="0.0310869956" flag="0"/>
      <psa10 value="0.0014968189" flag="0"/>
      <psa30 value="0.0002258953" flag="0"/>
    </comp>
    <comp name="--.HHN">
      <acc value="0.0126817765" flag="0"/>
      <vel value="0.0038085139" flag="0"/>
      <psa03 value="0.0197425142" flag="0"/>
      <psa10 value="0.0030081867" flag="0"/>
      <psa30 value="0.0001562503" flag="0"/>
    </comp>
    <comp name="--.HHZ">
      <acc value="0.0109349091" flag="0"/>
      <vel value="0.0028839114" flag="0"/>
      <psa03 value="0.0154643906" flag="0"/>
      <psa10 value="0.0016775963" flag="0"/>
      <psa30 value="0.0002137229" flag="0"/>
    </comp>
  </station>
  <station code="GAZ" name="GAZ" netid="KO" insttype="CMG-3T" lat="37.1721" lon="37.2096">
    <comp name="--.HHZ">
      <acc value="0.0338231697" flag="0"/>
      <vel value="0.0064991954" flag="0"/>
      <psa03 value="0.0175295617" flag="0"/>
      <psa10 value="0.0038416345" flag="0"/>
      <psa30 value="0.0003780496" flag="0"/>
    </comp>
    <comp name="--.HHN">
      <acc value="0.0167532413" flag="0"/>
      <vel value="0.0046362977" flag="0"/>
      <psa03 value="0.0195091884" flag="0"/>
      <psa10 value="0.0041709184" flag="0"/>
      <psa30 value="0.0002110700" flag="0"/>
    </comp>
    <comp name="--.HHE">
      <acc value="0.0196832045" flag="0"/>
      <vel value="0.0070648778" flag="0"/>
      <psa03 value="0.0245574845" flag="0"/>
      <psa10 value="0.0040368820" flag="0"/>
      <psa30 value="0.0003303374" flag="0"/>
    </comp>
  </station>
  <station code="KMRS" name="KMRS" netid="KO" insttype="CMG-3T" lat="37.5087" lon="36.9">
    <comp name="--.HHN">
      <acc value="0.0143180827" flag="0"/>
      <vel value="0.0037244270" flag="0"/>
      <psa03 value="0.0207945278" flag="0"/>
      <psa10 value="0.0022603018" flag="0"/>
      <psa30 value="0.0001523724" flag="0"/>
    </comp>
    <comp name="--.HHE">
      <acc value="0.0180569548" flag="0"/>
      <vel value="0.0047285738" flag="0"/>
      <psa03 value="0.0250116254" flag="0"/>
      <psa10 value="0.0026854217" flag="0"/>
      <psa30 value="0.0001252332" flag="0"/>
    </comp>
    <comp name="--.HHZ">
      <acc value="0.0164166896" flag="0"/>
      <vel value="0.0039110962" flag="0"/>
      <psa03 value="0.0142993063" flag="0"/>
      <psa10 value="0.0016634278" flag="0"/>
      <psa30 value="0.0001749659" flag="0"/>
    </comp>
  </station>
  <station code="TAHT" name="TAHT" netid="KO" insttype="CMG-3ESPC" lat="36.3755" lon="36.1855">
    <comp name="--.HHE">
      <acc value="0.2195670755" flag="0"/>
      <vel value="0.0479232192" flag="0"/>
      <psa03 value="0.2468162523" flag="0"/>
      <psa10 value="0.0118936895" flag="0"/>
      <psa30 value="0.0007961943" flag="0"/>
    </comp>
    <comp name="--.HHN">
      <acc value="0.2165454905" flag="0"/>
      <vel value="0.0528686764" flag="0"/>
      <psa03 value="0.1860800189" flag="0"/>
      <psa10 value="0.0097469557" flag="0"/>
      <psa30 value="0.0007088980" flag="0"/>
    </comp>
    <comp name="--.HHZ">
      <acc value="0.2112596516" flag="0"/>
      <vel value="0.0367117268" flag="0"/>
      <psa03 value="0.0903925536" flag="0"/>
      <psa10 value="0.0064161878" flag="0"/>
      <psa30 value="0.0004045200" flag="0"/>
    </comp>
  </station>
  <station code="ANDN" name="ANDN" netid="TU" insttype="T" lat="37.58" lon="36.3452">
    <comp name="--.HHZ">
      <acc value="0.0182851534" flag="0"/>
      <vel value="0.0066985175" flag="0"/>
      <psa03 value="0.0198863294" flag="0"/>
      <psa10 value="0.0025607776" flag="0"/>
      <psa30 value="0.0001840168" flag="0"/>
    </comp>
    <comp name="--.HHE">
      <acc value="0.0447302057" flag="0"/>
      <vel value="0.0099776893" flag="0"/>
      <psa03 value="0.0423336694" flag="0"/>
      <psa10 value="0.0022996402" flag="0"/>
      <psa30 value="0.0002300706" flag="0"/>
    </comp>
    <comp name="--.HHN">
      <acc value="0.0467685612" flag="0"/>
      <vel value="0.0103630540" flag="0"/>
      <psa03 value="0.0570144721" flag="0"/>
      <psa10 value="0.0039101029" flag="0"/>
      <psa30 value="0.0004186221" flag="0"/>
    </comp>
  </station>
</stationlist>
