<?xml version="1.0" encoding="UTF-8" standalone="yes"?>
<!DOCTYPE earthquake SYSTEM "stationlist.dtd">
<stationlist created="" xmlns="ch.ethz.sed.shakemap.usgs.xml">
  <station code="CMRD" name="CMRD" netid="KO" insttype="CMG-5T" lat="37.6623" lon="34.9902">
    <comp name="--.HNE">
      <acc value="0.1822864368" flag="0"/>
      <vel value="0.0873996306" flag="0"/>
      <psa03 value="0.3957660276" flag="0"/>
      <psa10 value="0.1230165402" flag="0"/>
      <psa30 value="0.0164139267" flag="0"/>
    </comp>
    <comp name="--.HNN">
      <acc value="0.2492243489" flag="0"/>
      <vel value="0.1236934796" flag="0"/>
      <psa03 value="0.5081731643" flag="0"/>
      <psa10 value="0.2082201854" flag="0"/>
      <psa30 value="0.0224633416" flag="0"/>
    </comp>
    <comp name="--.HNZ">
      <acc value="0.2328380232" flag="0"/>
      <vel value="0.0766365850" flag="0"/>
      <psa03 value="0.3187249382" flag="0"/>
      <psa10 value="0.1407061728" flag="0"/>
      <psa30 value="0.0235016817" flag="0"/>
    </comp>
  </station>
  <station code="GULA" name="GULA" netid="KO" insttype="CMG-6T" lat="38.3444" lon="34.236">
    <comp name="--.HHN">
      <acc value="0.1409666408" flag="0"/>
      <vel value="0.0974136681" flag="0"/>
      <psa03 value="0.2686865106" flag="0"/>
      <psa10 value="0.0922054104" flag="0"/>
      <psa30 value="0.0254503618" flag="0"/>
    </comp>
    <comp name="--.HHE">
      <acc value="0.0875535753" flag="0"/>
      <vel value="0.0557256911" flag="0"/>
      <psa03 value="0.1639301469" flag="0"/>
      <psa10 value="0.0513640740" flag="0"/>
      <psa30 value="0.0141291888" flag="0"/>
    </comp>
    <comp name="--.HHZ">
      <acc value="0.0550257440" flag="0"/>
      <vel value="0.0482402021" flag="0"/>
      <psa03 value="0.1642948553" flag="0"/>
      <psa10 value="0.0758613095" flag="0"/>
      <psa30 value="0.0245485892" flag="0"/>
    </comp>
  </station>
  <station code="KHMN" name="KHMN" netid="KO" insttype="CMG-5T" lat="37.3916" lon="37.1574">
    <comp name="--.HNZ">
      <acc value="0.1756248201" flag="0"/>
      <vel value="0.1251552254" flag="0"/>
      <psa03 value="0.5475613437" flag="0"/>
      <psa10 value="0.1487482610" flag="0"/>
      <psa30 value="0.0504248964" flag="0"/>
    </comp>
    <comp name="--.HNN">
      <acc value="0.2177194780" flag="0"/>
      <vel value="0.2545172336" flag="0"/>
      <psa03 value="0.4113631512" flag="0"/>
      <psa10 value="0.4041366840" flag="0"/>
      <psa30 value="0.0594690094" flag="0"/>
    </comp>
    <comp name="--.HNE">
      <acc value="0.3276295864" flag="0"/>
      <vel value="0.1931116271" flag="0"/>
      <psa03 value="0.7263541365" flag="0"/>
      <psa10 value="0.3198752543" flag="0"/>
      <psa30 value="0.0449573905" flag="0"/>
    </comp>
  </station>
  <station code="KMRS" name="KMRS" netid="KO" insttype="CMG-3T" lat="37.5087" lon="36.9">
    <comp name="--.HHN">
      <acc value="0.3606037379" flag="0"/>
      <vel value="0.2727158802" flag="0"/>
      <psa03 value="1.0514891722" flag="0"/>
      <psa10 value="0.3277655834" flag="0"/>
      <psa30 value="0.0947974123" flag="0"/>
    </comp>
    <comp name="--.HHE">
      <acc value="0.2761220233" flag="0"/>
      <vel value="0.2259893925" flag="0"/>
      <psa03 value="0.9997452225" flag="0"/>
      <psa10 value="0.3223958966" flag="0"/>
      <psa30 value="0.0611068985" flag="0"/>
    </comp>
    <comp name="--.HHZ">
      <acc value="0.2366259904" flag="0"/>
      <vel value="0.1306690979" flag="0"/>
      <psa03 value="0.6891873448" flag="0"/>
      <psa10 value="0.2252239947" flag="0"/>
      <psa30 value="0.0513391854" flag="0"/>
    </comp>
  </station>
  <station code="KOZK" name="KOZK" netid="KO" insttype="CMG-5T" lat="39.2101" lon="34.868">
    <comp name="--.HNE">
      <acc value="0.0850782941" flag="0"/>
      <vel value="0.1222365222" flag="0"/>
      <psa03 value="0.1556849947" flag="0"/>
      <psa10 value="0.2735915927" flag="0"/>
      <psa30 value="0.0416699053" flag="0"/>
    </comp>
    <comp name="--.HNN">
      <acc value="0.0845229566" flag="0"/>
      <vel value="0.1279011053" flag="0"/>
      <psa03 value="0.1708338129" flag="0"/>
      <psa10 value="0.2288664468" flag="0"/>
      <psa30 value="0.0283775218" flag="0"/>
    </comp>
    <comp name="--.HNZ">
      <acc value="0.0377966186" flag="0"/>
      <vel value="0.0448349179" flag="0"/>
      <psa03 value="0.1237733684" flag="0"/>
      <psa10 value="0.0647668965" flag="0"/>
      <psa30 value="0.0217055758" flag="0"/>
    </comp>
  </station>
  <station code="MERS" name="MERS" netid="KO" insttype="CMG-3T" lat="36.8678" lon="34.522">
    <comp name="--.HHZ">
      <acc value="0.1022068018" flag="0"/>
      <vel value="0.1075234124" flag="0"/>
      <psa03 value="0.2878114672" flag="0"/>
      <psa10 value="0.1374306272" flag="0"/>
      <psa30 value="0.0137124088" flag="0"/>
    </comp>
    <comp name="--.HHE">
      <acc value="0.4576888804" flag="0"/>
      <vel value="0.2864993778" flag="0"/>
      <psa03 value="1.0160652811" flag="0"/>
      <psa10 value="0.1945070805" flag="0"/>
      <psa30 value="0.0240141972" flag="0"/>
    </comp>
    <comp name="--.HHN">
      <acc value="0.2754716823" flag="0"/>
      <vel value="0.2354039146" flag="0"/>
      <psa03 value="0.4453405008" flag="0"/>
      <psa10 value="0.1679922855" flag="0"/>
      <psa30 value="0.0304555209" flag="0"/>
    </comp>
  </station>
  <station code="YESY" name="YESY" netid="KO" insttype="CMG-6T" lat="37.7825" lon="33.7431">
    <comp name="--.HHN">
      <acc value="0.0343400226" flag="0"/>
      <vel value="0.0724792433" flag="0"/>
      <psa03 value="0.0704208454" flag="0"/>
      <psa10 value="0.0999153934" flag="0"/>
      <psa30 value="0.0402658956" flag="0"/>
    </comp>
    <comp name="--.HHZ">
      <acc value="0.0304200473" flag="0"/>
      <vel value="0.0663910322" flag="0"/>
      <psa03 value="0.0654551417" flag="0"/>
      <psa10 value="0.1157742584" flag="0"/>
      <psa30 value="0.0198402737" flag="0"/>
    </comp>
    <comp name="--.HHE">
      <acc value="0.0412159030" flag="0"/>
      <vel value="0.0749308693" flag="0"/>
      <psa03 value="0.0663604501" flag="0"/>
      <psa10 value="0.1367038682" flag="0"/>
      <psa30 value="0.0423399604" flag="0"/>
    </comp>
  </station>
</stationlist>
