<?xml version="1.0" encoding="UTF-8" standalone="yes"?>
<!DOCTYPE earthquake SYSTEM "stationlist.dtd">
<stationlist created="" xmlns="ch.ethz.sed.shakemap.usgs.xml">
  <station code="KALE" name="KALE" netid="HA" insttype="40," lat="38.3911" lon="22.1398">
    <comp name="--.HHE">
      <acc value="0.0182944794" flag="0"/>
      <vel value="0.0084538174" flag="0"/>
      <psa03 value="0.0263820466" flag="0"/>
      <psa10 value="0.0105950175" flag="0"/>
      <psa30 value="0.0006214810" flag="0"/>
    </comp>
    <comp name="--.HHN">
      <acc value="0.0133524336" flag="0"/>
      <vel value="0.0107840893" flag="0"/>
      <psa03 value="0.0250884856" flag="0"/>
      <psa10 value="0.0136755524" flag="0"/>
      <psa30 value="0.0008590527" flag="0"/>
    </comp>
    <comp name="--.HHZ">
      <acc value="0.0091448128" flag="0"/>
      <vel value="0.0058723788" flag="0"/>
      <psa03 value="0.0165781575" flag="0"/>
      <psa10 value="0.0063104593" flag="0"/>
      <psa30 value="0.0005079978" flag="0"/>
    </comp>
  </station>
  <station code="MSL1" name="MSL1" netid="HI" insttype="CMG-5TD,ACCELEROMETER,GURALP" lat="38.3727" lon="21.4243">
    <comp name="--.HNE">
      <acc value="0.0814933306" flag="0"/>
      <vel value="0.0639476037" flag="0"/>
      <psa03 value="0.2118575362" flag="0"/>
      <psa10 value="0.1498600493" flag="0"/>
      <psa30 value="0.0078466389" flag="0"/>
    </comp>
    <comp name="--.HNZ">
      <acc value="0.0549707271" flag="0"/>
      <vel value="0.0316062954" flag="0"/>
      <psa03 value="0.0756768417" flag="0"/>
      <psa10 value="0.0543118828" flag="0"/>
      <psa30 value="0.0023561339" flag="0"/>
    </comp>
    <comp name="--.HNN">
      <acc value="0.1288449814" flag="0"/>
      <vel value="0.1089259819" flag="0"/>
      <psa03 value="0.2970303722" flag="0"/>
      <psa10 value="0.1154028166" flag="0"/>
      <psa30 value="0.0067131509" flag="0"/>
    </comp>
  </station>
  <station code="KLV" name="KLV" netid="HL" insttype="120" lat="38.0435" lon="22.1504">
    <comp name="--.HHZ">
      <acc value="0.0112331554" flag="0"/>
      <vel value="0.0048189311" flag="0"/>
      <psa03 value="0.0187091151" flag="0"/>
      <psa10 value="0.0064336622" flag="0"/>
      <psa30 value="0.0006712259" flag="0"/>
    </comp>
    <comp name="--.HHN">
      <acc value="0.0092353341" flag="0"/>
      <vel value="0.0059884868" flag="0"/>
      <psa03 value="0.0241419096" flag="0"/>
      <psa10 value="0.0105624842" flag="0"/>
      <psa30 value="0.0006085680" flag="0"/>
    </comp>
    <comp name="--.HHE">
      <acc value="0.0079449656" flag="0"/>
      <vel value="0.0044418590" flag="0"/>
      <psa03 value="0.0156128884" flag="0"/>
      <psa10 value="0.0065210916" flag="0"/>
      <psa30 value="0.0004078052" flag="0"/>
    </comp>
  </station>
  <station code="PATC" name="PATC" netid="HL" insttype="CMG-5" lat="38.2693" lon="21.76">
    <comp name="00.HNE">
      <acc value="0.0728598819" flag="0"/>
      <vel value="0.0384997208" flag="0"/>
      <psa03 value="0.1445914630" flag="0"/>
      <psa10 value="0.0648333236" flag="0"/>
      <psa30 value="0.0066320619" flag="0"/>
    </comp>
    <comp name="00.HNN">
      <acc value="0.0717619943" flag="0"/>
      <vel value="0.0365555439" flag="0"/>
      <psa03 value="0.1316936441" flag="0"/>
      <psa10 value="0.0579508892" flag="0"/>
      <psa30 value="0.0048745767" flag="0"/>
    </comp>
    <comp name="00.HNZ">
      <acc value="0.0574711718" flag="0"/>
      <vel value="0.0302747142" flag="0"/>
      <psa03 value="0.1099036429" flag="0"/>
      <psa10 value="0.0384407652" flag="0"/>
      <psa30 value="0.0026583644" flag="0"/>
    </comp>
  </station>
  <station code="PATG" name="PATG" netid="HL" insttype="CMG-5" lat="38.2386" lon="21.7266">
    <comp name="00.HNE">
      <acc value="0.0923719114" flag="0"/>
      <vel value="0.0665524386" flag="0"/>
      <psa03 value="0.1860439330" flag="0"/>
      <psa10 value="0.0810920193" flag="0"/>
      <psa30 value="0.0066500328" flag="0"/>
    </comp>
    <comp name="00.HNZ">
      <acc value="0.0468777857" flag="0"/>
      <vel value="0.0249767346" flag="0"/>
      <psa03 value="0.1118323882" flag="0"/>
      <psa10 value="0.0338470263" flag="0"/>
      <psa30 value="0.0053368164" flag="0"/>
    </comp>
    <comp name="00.HNN">
      <acc value="0.1345600087" flag="0"/>
      <vel value="0.0941329797" flag="0"/>
      <psa03 value="0.4162377688" flag="0"/>
      <psa10 value="0.0902694267" flag="0"/>
      <psa30 value="0.0091421165" flag="0"/>
    </comp>
  </station>
  <station code="RIOA" name="RIOA" netid="HL" insttype="CMG-5" lat="38.2959" lon="21.7912">
    <comp name="00.HNE">
      <acc value="0.0800590959" flag="0"/>
      <vel value="0.0319096241" flag="0"/>
      <psa03 value="0.0704341316" flag="0"/>
      <psa10 value="0.0412795384" flag="0"/>
      <psa30 value="0.0029351263" flag="0"/>
    </comp>
    <comp name="00.HNZ">
      <acc value="0.0544214380" flag="0"/>
      <vel value="0.0223780345" flag="0"/>
      <psa03 value="0.0633401390" flag="0"/>
      <psa10 value="0.0221705293" flag="0"/>
      <psa30 value="0.0016694676" flag="0"/>
    </comp>
    <comp name="00.HNN">
      <acc value="0.0561113443" flag="0"/>
      <vel value="0.0262690901" flag="0"/>
      <psa03 value="0.1292854541" flag="0"/>
      <psa10 value="0.0309139993" flag="0"/>
      <psa30 value="0.0033579508" flag="0"/>
    </comp>
  </station>
  <station code="RLS" name="RLS" netid="HL" insttype="CMG3ESPC-120s" lat="38.0559" lon="21.4647">
    <comp name="--.HHN">
      <acc value="0.0545973649" flag="0"/>
      <vel value="0.0278879552" flag="0"/>
      <psa03 value="0.1848551861" flag="0"/>
      <psa10 value="0.0166376567" flag="0"/>
      <psa30 value="0.0019176339" flag="0"/>
    </comp>
    <comp name="--.HHE">
      <acc value="0.0590189573" flag="0"/>
      <vel value="0.0282601719" flag="0"/>
      <psa03 value="0.1522238139" flag="0"/>
      <psa10 value="0.0228370494" flag="0"/>
      <psa30 value="0.0017984285" flag="0"/>
    </comp>
    <comp name="--.HHZ">
      <acc value="0.0328841333" flag="0"/>
      <vel value="0.0136792982" flag="0"/>
      <psa03 value="0.0676838696" flag="0"/>
      <psa10 value="0.0128273626" flag="0"/>
      <psa30 value="0.0018259795" flag="0"/>
    </comp>
  </station>
  <station code="VLS" name="VLS" netid="HL" insttype="120P," lat="38.1768" lon="20.5886">
    <comp name="--.HHZ">
      <acc value="0.1146324254" flag="0"/>
      <vel value="0.0360919844" flag="0"/>
      <psa03 value="0.1260910947" flag="0"/>
      <psa10 value="0.0133632533" flag="0"/>
      <psa30 value="0.0017271020" flag="0"/>
    </comp>
    <comp name="--.HHN">
      <acc value="0.3415343960" flag="0"/>
      <vel value="0.0998728481" flag="0"/>
      <psa03 value="0.3256269063" flag="0"/>
      <psa10 value="0.0277535346" flag="0"/>
      <psa30 value="0.0024982864" flag="0"/>
    </comp>
    <comp name="--.HHE">
      <acc value="0.5007076620" flag="0"/>
      <vel value="0.0693252577" flag="0"/>
      <psa03 value="0.3955472898" flag="0"/>
      <psa10 value="0.0156593686" flag="0"/>
      <psa30 value="0.0011901529" flag="0"/>
    </comp>
  </station>
  <station code="AMPL" name="AMPL" netid="HP" insttype="Compact," lat="38.9224" lon="21.2135">
    <comp name="--.HHN">
      <acc value="0.0225139478" flag="0"/>
      <vel value="0.0059781338" flag="0"/>
      <psa03 value="0.0278290017" flag="0"/>
      <psa10 value="0.0123281230" flag="0"/>
      <psa30 value="0.0005987664" flag="0"/>
    </comp>
    <comp name="--.HHE">
      <acc value="0.0189882853" flag="0"/>
      <vel value="0.0083365032" flag="0"/>
      <psa03 value="0.0340492845" flag="0"/>
      <psa10 value="0.0179064867" flag="0"/>
      <psa30 value="0.0008075739" flag="0"/>
    </comp>
    <comp name="--.HHZ">
      <acc value="0.0073150165" flag="0"/>
      <vel value="0.0056805893" flag="0"/>
      <psa03 value="0.0236587410" flag="0"/>
      <psa10 value="0.0096681028" flag="0"/>
      <psa30 value="0.0005690447" flag="0"/>
    </comp>
  </station>
  <station code="AMT" name="AMT" netid="HP" insttype="CMG-3T," lat="37.5324" lon="21.7089">
    <comp name="00.HHN">
      <acc value="0.0240261700" flag="0"/>
      <vel value="0.0171580747" flag="0"/>
      <psa03 value="0.0534691681" flag="0"/>
      <psa10 value="0.0267702451" flag="0"/>
      <psa30 value="0.0010886077" flag="0"/>
    </comp>
    <comp name="00.HHE">
      <acc value="0.0228014574" flag="0"/>
      <vel value="0.0126063982" flag="0"/>
      <psa03 value="0.0845321463" flag="0"/>
      <psa10 value="0.0263668447" flag="0"/>
      <psa30 value="0.0016931435" flag="0"/>
    </comp>
    <comp name="00.HHZ">
      <acc value="0.0197678436" flag="0"/>
      <vel value="0.0112592328" flag="0"/>
      <psa03 value="0.0500782719" flag="0"/>
      <psa10 value="0.0116476036" flag="0"/>
      <psa30 value="0.0006543224" flag="0"/>
    </comp>
  </station>
  <station code="ANX" name="ANX" netid="HP" insttype="120" lat="38.5933" lon="21.9209">
    <comp name="--.HHZ">
      <acc value="0.0103739205" flag="0"/>
      <vel value="0.0077502906" flag="0"/>
      <psa03 value="0.0230258608" flag="0"/>
      <psa10 value="0.0139145957" flag="0"/>
      <psa30 value="0.0010225303" flag="0"/>
    </comp>
    <comp name="--.HHN">
      <acc value="0.0160985388" flag="0"/>
      <vel value="0.0153877219" flag="0"/>
      <psa03 value="0.0387662073" flag="0"/>
      <psa10 value="0.0193999022" flag="0"/>
      <psa30 value="0.0011769190" flag="0"/>
    </comp>
    <comp name="--.HHE">
      <acc value="0.0154667831" flag="0"/>
      <vel value="0.0099849536" flag="0"/>
      <psa03 value="0.0417009014" flag="0"/>
      <psa10 value="0.0091903918" flag="0"/>
      <psa30 value="0.0009048418" flag="0"/>
    </comp>
  </station>
  <station code="AXS" name="AXS" netid="HP" insttype="40," lat="38.1962" lon="21.3763">
    <comp name="--.HHN">
      <acc value="0.0487410047" flag="0"/>
      <vel value="0.0244856071" flag="0"/>
      <psa03 value="0.0899820301" flag="0"/>
      <psa10 value="0.0250496706" flag="0"/>
      <psa30 value="0.0022376010" flag="0"/>
    </comp>
    <comp name="--.HHZ">
      <acc value="0.0314597276" flag="0"/>
      <vel value="0.0190547627" flag="0"/>
      <psa03 value="0.0488596717" flag="0"/>
      <psa10 value="0.0167785714" flag="0"/>
      <psa30 value="0.0019014971" flag="0"/>
    </comp>
    <comp name="--.HHE">
      <acc value="0.0615244353" flag="0"/>
      <vel value="0.0161913531" flag="0"/>
      <psa03 value="0.0632501701" flag="0"/>
      <psa10 value="0.0168080173" flag="0"/>
      <psa30 value="0.0020565780" flag="0"/>
    </comp>
  </station>
  <station code="DRO" name="DRO" netid="HP" insttype="120P," lat="37.952" lon="21.71">
    <comp name="--.HHZ">
      <acc value="0.0485977208" flag="0"/>
      <vel value="0.0161031071" flag="0"/>
      <psa03 value="0.1027384829" flag="0"/>
      <psa10 value="0.0154889263" flag="0"/>
      <psa30 value="0.0010589475" flag="0"/>
    </comp>
    <comp name="--.HHN">
      <acc value="0.0886299911" flag="0"/>
      <vel value="0.0236048320" flag="0"/>
      <psa03 value="0.1766834252" flag="0"/>
      <psa10 value="0.0231018055" flag="0"/>
      <psa30 value="0.0011302952" flag="0"/>
    </comp>
    <comp name="--.HHE">
      <acc value="0.1051972986" flag="0"/>
      <vel value="0.0382323642" flag="0"/>
      <psa03 value="0.2808216698" flag="0"/>
      <psa10 value="0.0374814241" flag="0"/>
      <psa30 value="0.0015645059" flag="0"/>
    </comp>
  </station>
  <station code="EFP" name="EFP" netid="HP" insttype="40," lat="38.4269" lon="21.9058">
    <comp name="--.HHN">
      <acc value="0.0213117323" flag="0"/>
      <vel value="0.0083693791" flag="0"/>
      <psa03 value="0.0363715652" flag="0"/>
      <psa10 value="0.0108555496" flag="0"/>
      <psa30 value="0.0009384789" flag="0"/>
    </comp>
    <comp name="--.HHZ">
      <acc value="0.0121166676" flag="0"/>
      <vel value="0.0049443212" flag="0"/>
      <psa03 value="0.0307421421" flag="0"/>
      <psa10 value="0.0077094184" flag="0"/>
      <psa30 value="0.0007804642" flag="0"/>
    </comp>
    <comp name="--.HHE">
      <acc value="0.0183431570" flag="0"/>
      <vel value="0.0091072235" flag="0"/>
      <psa03 value="0.0409138416" flag="0"/>
      <psa10 value="0.0118317839" flag="0"/>
      <psa30 value="0.0008005367" flag="0"/>
    </comp>
  </station>
  <station code="FSK" name="FSK" netid="HP" insttype="40," lat="38.4593" lon="20.5623">
    <comp name="--.HHZ">
      <acc value="0.0419386224" flag="0"/>
      <vel value="0.0100693076" flag="0"/>
      <psa03 value="0.0587891326" flag="0"/>
      <psa10 value="0.0158433125" flag="0"/>
      <psa30 value="0.0010618825" flag="0"/>
    </comp>
    <comp name="--.HHE">
      <acc value="0.1045373319" flag="0"/>
      <vel value="0.0268323925" flag="0"/>
      <psa03 value="0.0966538961" flag="0"/>
      <psa10 value="0.0253622818" flag="0"/>
      <psa30 value="0.0024680224" flag="0"/>
    </comp>
    <comp name="--.HHN">
      <acc value="0.0390518741" flag="0"/>
      <vel value="0.0112413985" flag="0"/>
      <psa03 value="0.0578128438" flag="0"/>
      <psa10 value="0.0147980303" flag="0"/>
      <psa30 value="0.0013363292" flag="0"/>
    </comp>
  </station>
  <station code="LTHK" name="LTHK" netid="HP" insttype="DC_100" lat="37.7095" lon="20.8367">
    <comp name="--.HNZ">
      <acc value="0.2008902013" flag="0"/>
      <vel value="0.0744098878" flag="0"/>
      <psa03 value="0.4956010685" flag="0"/>
      <psa10 value="0.0873948355" flag="0"/>
      <psa30 value="0.0059640214" flag="0"/>
    </comp>
  </station>
  <station code="PDO" name="PDO" netid="HP" insttype="120s" lat="38.5986" lon="21.1833">
    <comp name="--.HHE">
      <acc value="0.0974020521" flag="0"/>
      <vel value="0.0294100888" flag="0"/>
      <psa03 value="0.2197511485" flag="0"/>
      <psa10 value="0.0336690178" flag="0"/>
      <psa30 value="0.0025809573" flag="0"/>
    </comp>
    <comp name="--.HHN">
      <acc value="0.1938511540" flag="0"/>
      <vel value="0.0544148027" flag="0"/>
      <psa03 value="0.3254174934" flag="0"/>
      <psa10 value="0.0398102706" flag="0"/>
      <psa30 value="0.0018341265" flag="0"/>
    </comp>
    <comp name="--.HHZ">
      <acc value="0.0936641514" flag="0"/>
      <vel value="0.0281948617" flag="0"/>
      <psa03 value="0.1097745638" flag="0"/>
      <psa10 value="0.0232107673" flag="0"/>
      <psa30 value="0.0010010793" flag="0"/>
    </comp>
  </station>
  <station code="PLEV" name="PLEV" netid="HP" insttype="Compact," lat="38.4124" lon="21.4073">
    <comp name="--.HHN">
      <acc value="0.0355435296" flag="0"/>
      <vel value="0.0170085467" flag="0"/>
      <psa03 value="0.0687286131" flag="0"/>
      <psa10 value="0.0208402162" flag="0"/>
      <psa30 value="0.0021322949" flag="0"/>
    </comp>
    <comp name="--.HHZ">
      <acc value="0.0303468040" flag="0"/>
      <vel value="0.0162190958" flag="0"/>
      <psa03 value="0.0410237813" flag="0"/>
      <psa10 value="0.0134375565" flag="0"/>
      <psa30 value="0.0012826187" flag="0"/>
    </comp>
    <comp name="--.HHE">
      <acc value="0.0457342543" flag="0"/>
      <vel value="0.0135145032" flag="0"/>
      <psa03 value="0.0512826068" flag="0"/>
      <psa10 value="0.0172799130" flag="0"/>
      <psa30 value="0.0019082502" flag="0"/>
    </comp>
  </station>
  <station code="PVO" name="PVO" netid="HP" insttype="120P," lat="38.616" lon="21.525">
    <comp name="--.HHE">
      <acc value="0.0624241131" flag="0"/>
      <vel value="0.0199281374" flag="0"/>
      <psa03 value="0.0633066859" flag="0"/>
      <psa10 value="0.0315995291" flag="0"/>
      <psa30 value="0.0021835554" flag="0"/>
    </comp>
    <comp name="--.HHZ">
      <acc value="0.0360822928" flag="0"/>
      <vel value="0.0111815499" flag="0"/>
      <psa03 value="0.0398243504" flag="0"/>
      <psa10 value="0.0122559025" flag="0"/>
      <psa30 value="0.0016563874" flag="0"/>
    </comp>
    <comp name="--.HHN">
      <acc value="0.0564257296" flag="0"/>
      <vel value="0.0143996102" flag="0"/>
      <psa03 value="0.0665041614" flag="0"/>
      <psa10 value="0.0169438996" flag="0"/>
      <psa30 value="0.0016249796" flag="0"/>
    </comp>
  </station>
  <station code="SERG" name="SERG" netid="HP" insttype="2000" lat="38.4133" lon="22.0566">
    <comp name="00.HHN">
      <acc value="0.0307283240" flag="0"/>
      <vel value="0.0101528108" flag="0"/>
      <psa03 value="0.0375440952" flag="0"/>
      <psa10 value="0.0100833350" flag="0"/>
      <psa30 value="0.0008098303" flag="0"/>
    </comp>
    <comp name="00.HHZ">
      <acc value="0.0164397953" flag="0"/>
      <vel value="0.0054085180" flag="0"/>
      <psa03 value="0.0171948619" flag="0"/>
      <psa10 value="0.0065978880" flag="0"/>
      <psa30 value="0.0005107148" flag="0"/>
    </comp>
    <comp name="00.HHE">
      <acc value="0.0189617246" flag="0"/>
      <vel value="0.0087762464" flag="0"/>
      <psa03 value="0.0557092769" flag="0"/>
      <psa10 value="0.0084255028" flag="0"/>
      <psa30 value="0.0008559686" flag="0"/>
    </comp>
  </station>
  <station code="UPR" name="UPR" netid="HP" insttype="120" lat="38.2836" lon="21.7864">
    <comp name="--.HHE">
      <acc value="0.0597330132" flag="0"/>
      <vel value="0.0394376665" flag="0"/>
      <psa03 value="0.0955015634" flag="0"/>
      <psa10 value="0.0468952169" flag="0"/>
      <psa30 value="0.0041276180" flag="0"/>
    </comp>
    <comp name="--.HHZ">
      <acc value="0.0420043900" flag="0"/>
      <vel value="0.0335435102" flag="0"/>
      <psa03 value="0.1000818687" flag="0"/>
      <psa10 value="0.0664473519" flag="0"/>
      <psa30 value="0.0030295786" flag="0"/>
    </comp>
    <comp name="--.HHN">
      <acc value="0.0543263570" flag="0"/>
      <vel value="0.0498488629" flag="0"/>
      <psa03 value="0.0940324176" flag="0"/>
      <psa10 value="0.0789256842" flag="0"/>
      <psa30 value="0.0047236138" flag="0"/>
    </comp>
  </station>
  <station code="VVK" name="VVK" netid="HP" insttype="40," lat="38.4222" lon="21.8115">
    <comp name="--.HHN">
      <acc value="0.0267385300" flag="0"/>
      <vel value="0.0131250987" flag="0"/>
      <psa03 value="0.0404758548" flag="0"/>
      <psa10 value="0.0127531737" flag="0"/>
      <psa30 value="0.0012287304" flag="0"/>
    </comp>
    <comp name="--.HHZ">
      <acc value="0.0151469065" flag="0"/>
      <vel value="0.0062555630" flag="0"/>
      <psa03 value="0.0308424034" flag="0"/>
      <psa10 value="0.0085880237" flag="0"/>
      <psa30 value="0.0007684223" flag="0"/>
    </comp>
    <comp name="--.HHE">
      <acc value="0.0274234815" flag="0"/>
      <vel value="0.0100928519" flag="0"/>
      <psa03 value="0.0495240173" flag="0"/>
      <psa10 value="0.0120482447" flag="0"/>
      <psa30 value="0.0011616726" flag="0"/>
    </comp>
  </station>
  <station code="DMLN" name="DMLN" netid="HT" insttype="1s-100Hz," lat="38.2385" lon="20.3734">
    <comp name="--.HHE">
      <acc value="0.1749257472" flag="0"/>
      <vel value="0.0464518271" flag="0"/>
      <psa03 value="0.3155645021" flag="0"/>
      <psa10 value="0.0407902549" flag="0"/>
      <psa30 value="0.0031658102" flag="0"/>
    </comp>
    <comp name="--.HHZ">
      <acc value="0.1205314509" flag="0"/>
      <vel value="0.0327088583" flag="0"/>
      <psa03 value="0.1821137073" flag="0"/>
      <psa10 value="0.0101898184" flag="0"/>
      <psa30 value="0.0014561294" flag="0"/>
    </comp>
    <comp name="--.HHN">
      <acc value="0.1696740050" flag="0"/>
      <vel value="0.0577250468" flag="0"/>
      <psa03 value="0.4011894578" flag="0"/>
      <psa10 value="0.0429522011" flag="0"/>
      <psa30 value="0.0032584396" flag="0"/>
    </comp>
  </station>
  <station code="DRAG" name="DRAG" netid="HT" insttype="1s-100Hz," lat="38.6839" lon="20.5746">
    <comp name="--.HHE">
