<?xml version="1.0" encoding="UTF-8" standalone="yes"?>
<!DOCTYPE earthquake SYSTEM "stationlist.dtd">
<stationlist created="" xmlns="ch.ethz.sed.shakemap.usgs.xml">
  <station code="KMRS" name="KMRS" netid="KO" insttype="CMG-3T" commtype="DIG" lat="37.5087" lon="36.9">
    <comp name="--.HHZ">
      <acc value="0.0058747120" flag="0"/>
      <vel value="0.0020220342" flag="0"/>
      <psa03 value="0.0099277939" flag="0"/>
      <psa10 value="0.0036342777" flag="0"/>
      <psa30 value="0.0003205295" flag="0"/>
    </comp>
    <comp name="--.HHE">
      <acc value="0.0062712571" flag="0"/>
      <vel value="0.0038061180" flag="0"/>
      <psa03 value="0.0175129933" flag="0"/>
      <psa10 value="0.0049118940" flag="0"/>
      <psa30 value="0.0006282846" flag="0"/>
    </comp>
    <comp name="--.HHN">
      <acc value="0.0092530609" flag="0"/>
      <vel value="0.0043883938" flag="0"/>
      <psa03 value="0.0179107294" flag="0"/>
      <psa10 value="0.0037927421" flag="0"/>
      <psa30 value="0.0005278780" flag="0"/>
    </comp>
  </station>
  <station code="KOZT" name="KOZT" netid="KO" insttype="CMG-3T" commtype="DIG" lat="37.4795" lon="35.8264">
    <comp name="--.HHN">
      <acc value="0.0034187984" flag="0"/>
      <vel value="0.0022383503" flag="0"/>
      <psa03 value="0.0104399240" flag="0"/>
      <psa10 value="0.0049364213" flag="0"/>
      <psa30 value="0.0004037447" flag="0"/>
    </comp>
    <comp name="--.HHZ">
      <acc value="0.0031939561" flag="0"/>
      <vel value="0.0019601597" flag="0"/>
      <psa03 value="0.0076532367" flag="0"/>
      <psa10 value="0.0032432600" flag="0"/>
      <psa30 value="0.0002032874" flag="0"/>
    </comp>
    <comp name="--.HHE">
      <acc value="0.0047213494" flag="0"/>
      <vel value="0.0036646599" flag="0"/>
      <psa03 value="0.0123008791" flag="0"/>
      <psa10 value="0.0066504530" flag="0"/>
      <psa30 value="0.0002477665" flag="0"/>
    </comp>
  </station>
  <station code="NURH" name="NURH" netid="KO" insttype="CMG-6T" commtype="DIG" lat="37.9693" lon="37.4363">
    <comp name="--.HHN">
      <acc value="0.0190585274" flag="0"/>
      <vel value="0.0086068958" flag="0"/>
      <psa03 value="0.0476443882" flag="0"/>
      <psa10 value="0.0045559046" flag="0"/>
      <psa30 value="0.0003588374" flag="0"/>
    </comp>
    <comp name="--.HHE">
      <acc value="0.0101661321" flag="0"/>
      <vel value="0.0046540776" flag="0"/>
      <psa03 value="0.0237556595" flag="0"/>
      <psa10 value="0.0048193195" flag="0"/>
      <psa30 value="0.0004374699" flag="0"/>
    </comp>
    <comp name="--.HHZ">
      <acc value="0.0069673320" flag="0"/>
      <vel value="0.0039534093" flag="0"/>
      <psa03 value="0.0111937206" flag="0"/>
      <psa10 value="0.0035627226" flag="0"/>
      <psa30 value="0.0004614115" flag="0"/>
    </comp>
  </station>
  <station code="SARI" name="SARI" netid="KO" insttype="CMG-3T" commtype="DIG" lat="38.4072" lon="36.4181">
    <comp name="--.HHE">
      <acc value="0.1833381661" flag="0"/>
      <vel value="0.0416014642" flag="0"/>
      <psa03 value="0.1862995738" flag="0"/>
      <psa10 value="0.0159411857" flag="0"/>
      <psa30 value="0.0011634589" flag="0"/>
    </comp>
    <comp name="--.HHN">
      <acc value="0.1433375126" flag="0"/>
      <vel value="0.0325230871" flag="0"/>
      <psa03 value="0.1205311082" flag="0"/>
      <psa10 value="0.0116428915" flag="0"/>
      <psa30 value="0.0013100380" flag="0"/>
    </comp>
    <comp name="--.HHZ">
      <acc value="0.0927993077" flag="0"/>
      <vel value="0.0242128243" flag="0"/>
      <psa03 value="0.1177776447" flag="0"/>
      <psa10 value="0.0125898845" flag="0"/>
      <psa30 value="0.0016416760" flag="0"/>
    </comp>
  </station>
  <station code="ANDN" name="ANDN" netid="TU" insttype="T" commtype="DIG" lat="37.58" lon="36.3452">
    <comp name="--.HHN">
      <acc value="0.0808676691" flag="0"/>
      <vel value="0.0243906349" flag="0"/>
      <psa03 value="0.1772304182" flag="0"/>
      <psa10 value="0.0193925116" flag="0"/>
      <psa30 value="0.0017301253" flag="0"/>
    </comp>
    <comp name="--.HHZ">
      <acc value="0.0213112454" flag="0"/>
      <vel value="0.0136024226" flag="0"/>
      <psa03 value="0.0536580673" flag="0"/>
      <psa10 value="0.0256024504" flag="0"/>
      <psa30 value="0.0020174735" flag="0"/>
    </comp>
  </station>
</stationlist>
