<stationlist created="1778138430">
	<station code="KSS1" name="KSS1" netid="HI" source="ITSAK Strong Motion Network" insttype="" lat="35.4189" lon="26.9207">
		<comp name="--.HNE" depth="0.0">
			<acc value="0.00827588725136755" flag="0"/>
			<vel value="0.00381079889722561" flag="0"/>
			<psa03 value="0.0254104567555425" flag="0"/>
			<psa10 value="0.00353851456547291" flag="0"/>
			<psa30 value="0.000305099508220063" flag="0"/>
		</comp>
		<comp name="--.HNN" depth="0.0">
			<acc value="0.00622655503403458" flag="0"/>
			<vel value="0.00330101139097035" flag="0"/>
			<psa03 value="0.0174516378561828" flag="0"/>
			<psa10 value="0.00242833391207899" flag="0"/>
			<psa30 value="0.000391707901851316" flag="0"/>
		</comp>
		<comp name="--.HNZ" depth="0.0">
			<acc value="0.00584545786313281" flag="0"/>
			<vel value="0.0020018693369231" flag="0"/>
			<psa03 value="0.00697886270603466" flag="0"/>
			<psa10 value="0.00161975198812012" flag="0"/>
			<psa30 value="0.000202836900490705" flag="0"/>
		</comp>
	</station>
	<station code="RDI1" name="RDI1" netid="HI" source="ITSAK Strong Motion Network" insttype="" lat="36.4514" lon="28.224">
		<comp name="--.HNE" depth="0.0">
			<acc value="0.00700351160800746" flag="0"/>
			<vel value="0.009997515443016" flag="0"/>
			<psa03 value="0.0204182250030414" flag="0"/>
			<psa10 value="0.0114551450971409" flag="0"/>
			<psa30 value="0.00401631189428662" flag="0"/>
		</comp>
		<comp name="--.HNN" depth="0.0">
			<acc value="0.0071992512945216" flag="0"/>
			<vel value="0.00804917761071235" flag="0"/>
			<psa03 value="0.0213924041209473" flag="0"/>
			<psa10 value="0.00925926963116589" flag="0"/>
			<psa30 value="0.00349449899340889" flag="0"/>
		</comp>
		<comp name="--.HNZ" depth="0.0">
			<acc value="0.00669947905784082" flag="0"/>
			<vel value="0.00490529271041932" flag="0"/>
			<psa03 value="0.0200262289831403" flag="0"/>
			<psa10 value="0.00715376015150227" flag="0"/>
			<psa30 value="0.00167006115418717" flag="0"/>
		</comp>
	</station>
	<station code="KARP" name="KARP" netid="HL" source="National Observatory of Athens Seismic Network" insttype="" lat="35.5471" lon="27.16106">
		<comp name="--.HNE" depth="0.0">
			<acc value="0.0260916187096257" flag="0"/>
			<vel value="0.0120401078315313" flag="0"/>
			<psa03 value="0.031115154976309" flag="0"/>
			<psa10 value="0.0113724989972347" flag="0"/>
			<psa30 value="0.00107569459282107" flag="0"/>
		</comp>
		<comp name="--.HNN" depth="0.0">
			<acc value="0.0190850928586498" flag="0"/>
			<vel value="0.00947683717335774" flag="0"/>
			<psa03 value="0.0300307419934275" flag="0"/>
			<psa10 value="0.0170258991322699" flag="0"/>
			<psa30 value="0.00106358889504337" flag="0"/>
		</comp>
		<comp name="--.HNZ" depth="0.0">
			<acc value="0.0123226705036354" flag="0"/>
			<vel value="0.00571048882643725" flag="0"/>
			<psa03 value="0.0312929922780142" flag="0"/>
			<psa10 value="0.00757230850327143" flag="0"/>
			<psa30 value="0.000673306894944198" flag="0"/>
		</comp>
	</station>
	<station code="KLNA" name="KLNA" netid="HL" source="National Observatory of Athens Seismic Network" insttype="" lat="36.95708" lon="26.97274">
		<comp name="00.HNE" depth="0.0">
			<acc value="0.0194224699434464" flag="0"/>
			<vel value="0.00622606863822059" flag="0"/>
			<psa03 value="0.0378908408114259" flag="0"/>
			<psa10 value="0.00361605399895578" flag="0"/>
			<psa30 value="0.000532558143944534" flag="0"/>
		</comp>
		<comp name="00.HNN" depth="0.0">
			<acc value="0.0198498477665597" flag="0"/>
			<vel value="0.00557835134141042" flag="0"/>
			<psa03 value="0.0345988727346867" flag="0"/>
			<psa10 value="0.00237126520968346" flag="0"/>
			<psa30 value="0.000336549247861194" flag="0"/>
		</comp>
		<comp name="00.HNZ" depth="0.0">
			<acc value="0.0438823646612843" flag="0"/>
			<vel value="0.00834743122421455" flag="0"/>
			<psa03 value="0.0175337787142687" flag="0"/>
			<psa10 value="0.00179174201442935" flag="0"/>
			<psa30 value="0.000451664191368015" flag="0"/>
		</comp>
	</station>
	<station code="NISR" name="NISR" netid="HL" source="National Observatory of Athens Seismic Network" insttype="" lat="36.6106" lon="27.131">
		<comp name="--.HNE" depth="0.0">
			<acc value="0.754195045558872" flag="0"/>
			<vel value="0.223224489434298" flag="0"/>
			<psa03 value="1.5468771396837" flag="0"/>
			<psa10 value="0.143502851359534" flag="0"/>
			<psa30 value="0.0424263205355084" flag="0"/>
		</comp>
		<comp name="--.HNN" depth="0.0">
			<acc value="0.767428156202712" flag="0"/>
			<vel value="0.17191732621399" flag="0"/>
			<psa03 value="0.945246117916389" flag="0"/>
			<psa10 value="0.113343338440011" flag="0"/>
			<psa30 value="0.0212591649819949" flag="0"/>
		</comp>
		<comp name="--.HNZ" depth="0.0">
			<acc value="0.364142150947724" flag="0"/>
			<vel value="0.0843624761344335" flag="0"/>
			<psa03 value="0.583064750179326" flag="0"/>
			<psa10 value="0.0680548207978683" flag="0"/>
			<psa30 value="0.00864340925010332" flag="0"/>
		</comp>
	</station>
	<station code="CAME" name="CAME" netid="KO" source="Bogazici University Kandilli Observatory And Earthquake Research Institute (KOERI)" insttype="" lat="36.9435" lon="29.3023">
		<comp name="--.HNE" depth="0.0">
			<acc value="0.00199233286168842" flag="0"/>
			<vel value="0.00145040447726862" flag="0"/>
			<psa03 value="0.00878947158229479" flag="0"/>
			<psa10 value="0.00139363954834381" flag="0"/>
			<psa30 value="0.000513679757931147" flag="0"/>
		</comp>
		<comp name="--.HNN" depth="0.0">
			<acc value="0.00197358413149672" flag="0"/>
			<vel value="0.0014534884839478" flag="0"/>
			<psa03 value="0.00809168056536155" flag="0"/>
			<psa10 value="0.00118571464152497" flag="0"/>
			<psa30 value="0.000561734295473733" flag="0"/>
		</comp>
		<comp name="--.HNZ" depth="0.0">
			<acc value="0.000979103231258179" flag="0"/>
			<vel value="0.000978175618083413" flag="0"/>
			<psa03 value="0.00315561366631435" flag="0"/>
			<psa10 value="0.00124844750820688" flag="0"/>
			<psa30 value="0.000337266144309967" flag="0"/>
		</comp>
	</station>
	<station code="NAZL" name="NAZL" netid="KO" source="Bogazici University Kandilli Observatory And Earthquake Research Institute (KOERI)" insttype="" lat="37.9641" lon="28.2922">
		<comp name="--.HNE" depth="0.0">
			<acc value="0.00161451771367177" flag="0"/>
			<vel value="0.00120094740036654" flag="0"/>
			<psa03 value="0.00442402614293533" flag="0"/>
			<psa10 value="0.00152892835431208" flag="0"/>
			<psa30 value="0.000338484818791266" flag="0"/>
		</comp>
		<comp name="--.HNN" depth="0.0">
			<acc value="0.0018192489997238" flag="0"/>
			<vel value="0.000970165720098624" flag="0"/>
			<psa03 value="0.00473706250507694" flag="0"/>
			<psa10 value="0.00117777173253455" flag="0"/>
			<psa30 value="0.000284821107583876" flag="0"/>
		</comp>
		<comp name="--.HNZ" depth="0.0">
			<acc value="0.000651871418187861" flag="0"/>
			<vel value="0.000436608855626562" flag="0"/>
			<psa03 value="0.0015182283421057" flag="0"/>
			<psa10 value="0.000648036132336808" flag="0"/>
			<psa30 value="0.000163429511298926" flag="0"/>
		</comp>
	</station>
	<station code="ODEM" name="ODEM" netid="KO" source="Bogazici University Kandilli Observatory And Earthquake Research Institute (KOERI)" insttype="" lat="38.2762" lon="28.0747">
		<comp name="--.HNE" depth="0.0">
			<acc value="0.000404033995039499" flag="0"/>
			<vel value="0.000712013181379707" flag="0"/>
			<psa03 value="0.00104016200458718" flag="0"/>
			<psa10 value="0.000626789568606886" flag="0"/>
			<psa30 value="0.00038967060543177" flag="0"/>
		</comp>
		<comp name="--.HNN" depth="0.0">
			<acc value="0.000407465090233197" flag="0"/>
			<vel value="0.000584068387376404" flag="0"/>
			<psa03 value="0.000896858566125446" flag="0"/>
			<psa10 value="0.0006440650880254" flag="0"/>
			<psa30 value="0.000197859448363219" flag="0"/>
		</comp>
		<comp name="--.HNZ" depth="0.0">
			<acc value="0.000388901146089493" flag="0"/>
			<vel value="0.000436417622592326" flag="0"/>
			<psa03 value="0.000774059985356389" flag="0"/>
			<psa10 value="0.000646340551263076" flag="0"/>
			<psa30 value="0.000213802770155046" flag="0"/>
		</comp>
	</station>
</stationlist>
