<?xml version="1.0" encoding="UTF-8" standalone="yes"?>
<!DOCTYPE earthquake SYSTEM "stationlist.dtd">
<stationlist created="" xmlns="ch.ethz.sed.shakemap.usgs.xml">
  <station code="KARP" name="KARP" netid="GE" insttype="STS-2/N" lat="35.5471" lon="27.1611">
    <comp name="--.HHZ">
      <acc value="0.0162122979" flag="0"/>
      <vel value="0.0071389633" flag="0"/>
      <psa03 value="0.0396745158" flag="0"/>
      <psa10 value="0.0094717038" flag="0"/>
      <psa30 value="0.0008262497" flag="0"/>
    </comp>
    <comp name="--.HHN">
      <acc value="0.0221565142" flag="0"/>
      <vel value="0.0108855371" flag="0"/>
      <psa03 value="0.0366735229" flag="0"/>
      <psa10 value="0.0191044818" flag="0"/>
      <psa30 value="0.0010954658" flag="0"/>
    </comp>
    <comp name="--.HHE">
      <acc value="0.0301759470" flag="0"/>
      <vel value="0.0140421335" flag="0"/>
      <psa03 value="0.0380913327" flag="0"/>
      <psa10 value="0.0126185963" flag="0"/>
      <psa30 value="0.0012355515" flag="0"/>
    </comp>
  </station>
  <station code="ARG" name="ARG" netid="HL" insttype="LE3D20_DR24" lat="36.2136" lon="28.1212">
    <comp name="--.HHE">
      <acc value="0.0319878746" flag="0"/>
      <vel value="0.0120199807" flag="0"/>
      <psa03 value="0.0585511299" flag="0"/>
      <psa10 value="0.0078395585" flag="0"/>
      <psa30 value="0.0012867162" flag="0"/>
    </comp>
    <comp name="--.HHZ">
      <acc value="0.0112925616" flag="0"/>
      <vel value="0.0052158400" flag="0"/>
      <psa03 value="0.0243701244" flag="0"/>
      <psa10 value="0.0054274880" flag="0"/>
      <psa30 value="0.0011828121" flag="0"/>
    </comp>
    <comp name="--.HHN">
      <acc value="0.0228983075" flag="0"/>
      <vel value="0.0101113447" flag="0"/>
      <psa03 value="0.0536716344" flag="0"/>
      <psa10 value="0.0064992647" flag="0"/>
      <psa30 value="0.0012399826" flag="0"/>
    </comp>
  </station>
  <station code="KARP" name="KARP" netid="HL" insttype="120" lat="35.5471" lon="27.1611">
    <comp name="--.HHE">
      <acc value="0.0292453060" flag="0"/>
      <vel value="0.0137967357" flag="0"/>
      <psa03 value="0.0369372674" flag="0"/>
      <psa10 value="0.0125374188" flag="0"/>
      <psa30 value="0.0012320077" flag="0"/>
    </comp>
    <comp name="--.HHN">
      <acc value="0.0216819601" flag="0"/>
      <vel value="0.0106747232" flag="0"/>
      <psa03 value="0.0355769928" flag="0"/>
      <psa10 value="0.0189616282" flag="0"/>
      <psa30 value="0.0010902465" flag="0"/>
    </comp>
    <comp name="--.HHZ">
      <acc value="0.0147355471" flag="0"/>
      <vel value="0.0069971160" flag="0"/>
      <psa03 value="0.0386614126" flag="0"/>
      <psa10 value="0.0094169731" flag="0"/>
      <psa30 value="0.0008218507" flag="0"/>
    </comp>
  </station>
  <station code="NISR" name="NISR" netid="HL" insttype="65535" lat="36.6106" lon="27.131">
    <comp name="--.HHZ">
      <acc value="0.3857016776" flag="0"/>
      <vel value="0.0945491084" flag="0"/>
      <psa03 value="0.5691502130" flag="0"/>
      <psa10 value="0.0675211245" flag="0"/>
      <psa30 value="0.0081304881" flag="0"/>
    </comp>
    <comp name="--.HHN">
      <acc value="0.7740221885" flag="0"/>
      <vel value="0.3836972205" flag="0"/>
      <psa03 value="1.0762048600" flag="0"/>
      <psa10 value="0.1903406601" flag="0"/>
      <psa30 value="0.1411572075" flag="0"/>
    </comp>
    <comp name="--.HHE">
      <acc value="0.8869327732" flag="0"/>
      <vel value="0.2341363275" flag="0"/>
      <psa03 value="1.5602727096" flag="0"/>
      <psa10 value="0.1479484370" flag="0"/>
      <psa30 value="0.0361779179" flag="0"/>
    </comp>
  </station>
</stationlist>
