<?xml version="1.0" encoding="UTF-8" standalone="yes"?>
<!DOCTYPE earthquake SYSTEM "stationlist.dtd">
<stationlist created="" xmlns="ch.ethz.sed.shakemap.usgs.xml">
  <station code="IMMV" name="IMMV" netid="GE" insttype="STS-2/N" lat="35.4606" lon="23.9811">
    <comp name="--.HHE">
      <acc value="0.0502426344" flag="0"/>
      <vel value="0.0232318003" flag="0"/>
      <psa03 value="0.1676773191" flag="0"/>
      <psa10 value="0.0129890482" flag="0"/>
      <psa30 value="0.0009487377" flag="0"/>
    </comp>
    <comp name="--.HHN">
      <acc value="0.0538167413" flag="0"/>
      <vel value="0.0324130908" flag="0"/>
      <psa03 value="0.1831042940" flag="0"/>
      <psa10 value="0.0260778472" flag="0"/>
      <psa30 value="0.0013483396" flag="0"/>
    </comp>
    <comp name="--.HHZ">
      <acc value="0.0460547126" flag="0"/>
      <vel value="0.0183317949" flag="0"/>
      <psa03 value="0.1139223317" flag="0"/>
      <psa10 value="0.0132193380" flag="0"/>
      <psa30 value="0.0008276676" flag="0"/>
    </comp>
  </station>
  <station code="ANKY" name="ANKY" netid="HL" insttype="60" lat="35.867" lon="23.3012">
    <comp name="--.HHN">
      <acc value="0.0290822017" flag="0"/>
      <vel value="0.0132888099" flag="0"/>
      <psa03 value="0.1011553608" flag="0"/>
      <psa10 value="0.0105777246" flag="0"/>
      <psa30 value="0.0005769439" flag="0"/>
    </comp>
    <comp name="--.HHE">
      <acc value="0.0305520692" flag="0"/>
      <vel value="0.0086174479" flag="0"/>
      <psa03 value="0.0519687166" flag="0"/>
      <psa10 value="0.0103650013" flag="0"/>
      <psa30 value="0.0005068649" flag="0"/>
    </comp>
    <comp name="--.HHZ">
      <acc value="0.0270495598" flag="0"/>
      <vel value="0.0096501581" flag="0"/>
      <psa03 value="0.0522210219" flag="0"/>
      <psa10 value="0.0049476662" flag="0"/>
      <psa30 value="0.0003144448" flag="0"/>
    </comp>
  </station>
  <station code="IMMV" name="IMMV" netid="HL" insttype="120" lat="35.4606" lon="23.9811">
    <comp name="--.HHE">
      <acc value="0.0489046340" flag="0"/>
      <vel value="0.0227695593" flag="0"/>
      <psa03 value="0.1631734279" flag="0"/>
      <psa10 value="0.0129017490" flag="0"/>
      <psa30 value="0.0009428797" flag="0"/>
    </comp>
    <comp name="--.HHN">
      <acc value="0.0525335467" flag="0"/>
      <vel value="0.0319684700" flag="0"/>
      <psa03 value="0.1775193401" flag="0"/>
      <psa10 value="0.0258428428" flag="0"/>
      <psa30 value="0.0013333657" flag="0"/>
    </comp>
    <comp name="--.HHZ">
      <acc value="0.0446444025" flag="0"/>
      <vel value="0.0179839103" flag="0"/>
      <psa03 value="0.1107562034" flag="0"/>
      <psa10 value="0.0130752699" flag="0"/>
      <psa30 value="0.0008172322" flag="0"/>
    </comp>
  </station>
  <station code="VAM" name="VAM" netid="HL" insttype="CMG3ESPC-120s" lat="35.407" lon="24.1997">
    <comp name="--.HHE">
      <acc value="0.0373041073" flag="0"/>
      <vel value="0.0110680443" flag="0"/>
      <psa03 value="0.0556658662" flag="0"/>
      <psa10 value="0.0058196619" flag="0"/>
      <psa30 value="0.0005084359" flag="0"/>
    </comp>
    <comp name="--.HHZ">
      <acc value="0.0240142423" flag="0"/>
      <vel value="0.0063946225" flag="0"/>
      <psa03 value="0.0245450208" flag="0"/>
      <psa10 value="0.0027159043" flag="0"/>
      <psa30 value="0.0003683342" flag="0"/>
    </comp>
    <comp name="--.HHN">
      <acc value="0.0454994929" flag="0"/>
      <vel value="0.0126826037" flag="0"/>
      <psa03 value="0.0665901905" flag="0"/>
      <psa10 value="0.0118506132" flag="0"/>
      <psa30 value="0.0004675701" flag="0"/>
    </comp>
  </station>
  <station code="VLI" name="VLI" netid="HL" insttype="60" lat="36.718" lon="22.9469">
    <comp name="--.HHE">
      <acc value="0.0201482121" flag="0"/>
      <vel value="0.0165541812" flag="0"/>
      <psa03 value="0.0610528179" flag="0"/>
      <psa10 value="0.0162596828" flag="0"/>
      <psa30 value="0.0015036610" flag="0"/>
    </comp>
    <comp name="--.HHZ">
      <acc value="0.0175867508" flag="0"/>
      <vel value="0.0063653737" flag="0"/>
      <psa03 value="0.0375703092" flag="0"/>
      <psa10 value="0.0073594550" flag="0"/>
      <psa30 value="0.0006050336" flag="0"/>
    </comp>
    <comp name="--.HHN">
      <acc value="0.0221346334" flag="0"/>
      <vel value="0.0122764484" flag="0"/>
      <psa03 value="0.0638477919" flag="0"/>
      <psa10 value="0.0106441573" flag="0"/>
      <psa30 value="0.0008450585" flag="0"/>
    </comp>
  </station>
</stationlist>
