<?xml version="1.0" encoding="UTF-8" standalone="yes"?>
<!DOCTYPE earthquake SYSTEM "stationlist.dtd">
<stationlist created="" xmlns="ch.ethz.sed.shakemap.usgs.xml">
  <station code="IMMV" name="IMMV" netid="GE" insttype="STS-2/N" lat="35.4606" lon="23.9811">
    <comp name="--.HHE">
      <acc value="0.0502426344" flag="0"/>
      <vel value="0.0232318003" flag="0"/>
      <psa03 value="0.1676773191" flag="0"/>
      <psa10 value="0.0129890482" flag="0"/>
      <psa30 value="0.0009487377" flag="0"/>
    </comp>
    <comp name="--.HHN">
      <acc value="0.0538167413" flag="0"/>
      <vel value="0.0324130908" flag="0"/>
      <psa03 value="0.1831042940" flag="0"/>
      <psa10 value="0.0260778472" flag="0"/>
      <psa30 value="0.0013483396" flag="0"/>
    </comp>
    <comp name="--.HHZ">
      <acc value="0.0460547126" flag="0"/>
      <vel value="0.0183317949" flag="0"/>
      <psa03 value="0.1139223317" flag="0"/>
      <psa10 value="0.0132193380" flag="0"/>
      <psa30 value="0.0008276676" flag="0"/>
    </comp>
  </station>
  <station code="SERI" name="SERI" netid="HA" insttype="30" lat="37.1609" lon="24.4853">
    <comp name="--.HHZ">
      <acc value="0.0160464425" flag="0"/>
      <vel value="0.0027974102" flag="0"/>
      <psa03 value="0.0173090402" flag="0"/>
      <psa10 value="0.0016096451" flag="0"/>
      <psa30 value="0.0002457760" flag="0"/>
    </comp>
    <comp name="--.HHN">
      <acc value="0.0223479795" flag="0"/>
      <vel value="0.0041793286" flag="0"/>
      <psa03 value="0.0132828691" flag="0"/>
      <psa10 value="0.0017857466" flag="0"/>
      <psa30 value="0.0001594164" flag="0"/>
    </comp>
    <comp name="--.HHE">
      <acc value="0.0161927184" flag="0"/>
      <vel value="0.0035581032" flag="0"/>
      <psa03 value="0.0155927212" flag="0"/>
      <psa10 value="0.0028378308" flag="0"/>
      <psa30 value="0.0001856022" flag="0"/>
    </comp>
  </station>
  <station code="ATEI" name="ATEI" netid="HC" insttype="DC" lat="35.5193" lon="24.0432">
    <comp name="--.HNE">
      <acc value="0.1357359125" flag="0"/>
      <vel value="0.0623292716" flag="0"/>
      <psa03 value="0.3648159454" flag="0"/>
      <psa10 value="0.0251594963" flag="0"/>
      <psa30 value="0.0028149432" flag="0"/>
    </comp>
    <comp name="--.HNN">
      <acc value="0.0779538769" flag="0"/>
      <vel value="0.0459297822" flag="0"/>
      <psa03 value="0.2432338349" flag="0"/>
      <psa10 value="0.0175762581" flag="0"/>
      <psa30 value="0.0013394854" flag="0"/>
    </comp>
    <comp name="--.HNZ">
      <acc value="0.0649434418" flag="0"/>
      <vel value="0.0191928036" flag="0"/>
      <psa03 value="0.1239222811" flag="0"/>
      <psa10 value="0.0119863163" flag="0"/>
      <psa30 value="0.0007518106" flag="0"/>
    </comp>
  </station>
  <station code="CHAN" name="CHAN" netid="HC" insttype="120" lat="35.5193" lon="24.0428">
    <comp name="--.HHE">
      <acc value="0.2588968753" flag="0"/>
      <vel value="0.1289351757" flag="0"/>
      <psa03 value="0.7031209664" flag="0"/>
      <psa10 value="0.0522117156" flag="0"/>
      <psa30 value="0.0046818460" flag="0"/>
    </comp>
    <comp name="--.HHZ">
      <acc value="0.1218282864" flag="0"/>
      <vel value="0.0374577650" flag="0"/>
      <psa03 value="0.2264748576" flag="0"/>
      <psa10 value="0.0220064203" flag="0"/>
      <psa30 value="0.0010804507" flag="0"/>
    </comp>
    <comp name="--.HHN">
      <acc value="0.1203718250" flag="0"/>
      <vel value="0.0747872964" flag="0"/>
      <psa03 value="0.3706488350" flag="0"/>
      <psa10 value="0.0322586191" flag="0"/>
      <psa30 value="0.0026683522" flag="0"/>
    </comp>
  </station>
  <station code="IPPL" name="IPPL" netid="HC" insttype="60" lat="35.3486" lon="24.4632">
    <comp name="--.HHE">
      <acc value="0.0000000000" flag="0"/>
      <vel value="-100.0000000000" flag="0"/>
      <psa03 value="0.0000000000" flag="0"/>
      <psa10 value="0.0000000000" flag="0"/>
      <psa30 value="0.0000000000" flag="0"/>
    </comp>
    <comp name="--.HHN">
      <acc value="0.0000000000" flag="0"/>
      <vel value="-100.0000000000" flag="0"/>
      <psa03 value="0.0000000000" flag="0"/>
      <psa10 value="0.0000000000" flag="0"/>
      <psa30 value="0.0000000000" flag="0"/>
    </comp>
    <comp name="--.HHZ">
      <acc value="0.0254534494" flag="0"/>
      <vel value="0.0102192937" flag="0"/>
      <psa03 value="0.0681166826" flag="0"/>
      <psa10 value="0.0061346055" flag="0"/>
      <psa30 value="0.0004324453" flag="0"/>
    </comp>
  </station>
  <station code="PASK" name="PASK" netid="HC" insttype="DC" lat="35.4996" lon="24.0121">
    <comp name="--.HNZ">
      <acc value="0.0771913675" flag="0"/>
      <vel value="0.0241234675" flag="0"/>
      <psa03 value="0.1954353295" flag="0"/>
      <psa10 value="0.0130996938" flag="0"/>
      <psa30 value="0.0011000926" flag="0"/>
    </comp>
    <comp name="--.HNN">
      <acc value="0.1269200318" flag="0"/>
      <vel value="0.0572543500" flag="0"/>
      <psa03 value="0.1825156413" flag="0"/>
      <psa10 value="0.0271871737" flag="0"/>
      <psa30 value="0.0026773689" flag="0"/>
    </comp>
    <comp name="--.HNE">
      <acc value="0.1039900303" flag="0"/>
      <vel value="0.0533002189" flag="0"/>
      <psa03 value="0.2314023065" flag="0"/>
      <psa10 value="0.0303548128" flag="0"/>
      <psa30 value="0.0018778768" flag="0"/>
    </comp>
  </station>
  <station code="CH01" name="CH01" netid="HI" insttype="CMG-5TD,ACCELEROMETER,GURALP" lat="35.517" lon="24.0208">
    <comp name="--.HNN">
      <acc value="0.1220412873" flag="0"/>
      <vel value="0.0480809982" flag="0"/>
      <psa03 value="0.2093221798" flag="0"/>
      <psa10 value="0.0211133065" flag="0"/>
      <psa30 value="0.0019441965" flag="0"/>
    </comp>
    <comp name="--.HNE">
      <acc value="0.1494120655" flag="0"/>
      <vel value="0.0393370462" flag="0"/>
      <psa03 value="0.1382387255" flag="0"/>
      <psa10 value="0.0131816930" flag="0"/>
      <psa30 value="0.0015289577" flag="0"/>
    </comp>
    <comp name="--.HNZ">
      <acc value="0.0623010946" flag="0"/>
      <vel value="0.0177603177" flag="0"/>
      <psa03 value="0.1198663346" flag="0"/>
      <psa10 value="0.0111815473" flag="0"/>
      <psa30 value="0.0006291188" flag="0"/>
    </comp>
  </station>
  <station code="ANKY" name="ANKY" netid="HL" insttype="60" lat="35.867" lon="23.3012">
    <comp name="--.HHN">
      <acc value="0.0290822017" flag="0"/>
      <vel value="0.0132888099" flag="0"/>
      <psa03 value="0.1011553608" flag="0"/>
      <psa10 value="0.0105777246" flag="0"/>
      <psa30 value="0.0005769439" flag="0"/>
    </comp>
    <comp name="--.HHE">
      <acc value="0.0305520692" flag="0"/>
      <vel value="0.0086174479" flag="0"/>
      <psa03 value="0.0519687166" flag="0"/>
      <psa10 value="0.0103650013" flag="0"/>
      <psa30 value="0.0005068649" flag="0"/>
    </comp>
    <comp name="--.HHZ">
      <acc value="0.0270495598" flag="0"/>
      <vel value="0.0096501581" flag="0"/>
      <psa03 value="0.0522210219" flag="0"/>
      <psa10 value="0.0049476662" flag="0"/>
      <psa30 value="0.0003144448" flag="0"/>
    </comp>
  </station>
  <station code="IMMV" name="IMMV" netid="HL" insttype="120" lat="35.4606" lon="23.9811">
    <comp name="--.HHE">
      <acc value="0.0489046340" flag="0"/>
      <vel value="0.0227695593" flag="0"/>
      <psa03 value="0.1631734279" flag="0"/>
      <psa10 value="0.0129017490" flag="0"/>
      <psa30 value="0.0009428797" flag="0"/>
    </comp>
    <comp name="--.HHN">
      <acc value="0.0525335467" flag="0"/>
      <vel value="0.0319684700" flag="0"/>
      <psa03 value="0.1775193401" flag="0"/>
      <psa10 value="0.0258428428" flag="0"/>
      <psa30 value="0.0013333657" flag="0"/>
    </comp>
    <comp name="--.HHZ">
      <acc value="0.0446444025" flag="0"/>
      <vel value="0.0179839103" flag="0"/>
      <psa03 value="0.1107562034" flag="0"/>
      <psa10 value="0.0130752699" flag="0"/>
      <psa30 value="0.0008172322" flag="0"/>
    </comp>
  </station>
  <station code="VAM" name="VAM" netid="HL" insttype="CMG3ESPC-120s" lat="35.407" lon="24.1997">
    <comp name="--.HHE">
      <acc value="0.0373041073" flag="0"/>
      <vel value="0.0110680443" flag="0"/>
      <psa03 value="0.0556658662" flag="0"/>
      <psa10 value="0.0058196619" flag="0"/>
      <psa30 value="0.0005084359" flag="0"/>
    </comp>
    <comp name="--.HHZ">
      <acc value="0.0240142423" flag="0"/>
      <vel value="0.0063946225" flag="0"/>
      <psa03 value="0.0245450208" flag="0"/>
      <psa10 value="0.0027159043" flag="0"/>
      <psa30 value="0.0003683342" flag="0"/>
    </comp>
    <comp name="--.HHN">
      <acc value="0.0454994929" flag="0"/>
      <vel value="0.0126826037" flag="0"/>
      <psa03 value="0.0665901905" flag="0"/>
      <psa10 value="0.0118506132" flag="0"/>
      <psa30 value="0.0004675701" flag="0"/>
    </comp>
  </station>
  <station code="VLI" name="VLI" netid="HL" insttype="60" lat="36.718" lon="22.9469">
    <comp name="--.HHE">
      <acc value="0.0201482121" flag="0"/>
      <vel value="0.0165541812" flag="0"/>
      <psa03 value="0.0610528179" flag="0"/>
      <psa10 value="0.0162596828" flag="0"/>
      <psa30 value="0.0015036610" flag="0"/>
    </comp>
    <comp name="--.HHZ">
      <acc value="0.0175867508" flag="0"/>
      <vel value="0.0063653737" flag="0"/>
      <psa03 value="0.0375703092" flag="0"/>
      <psa10 value="0.0073594550" flag="0"/>
      <psa30 value="0.0006050336" flag="0"/>
    </comp>
    <comp name="--.HHN">
      <acc value="0.0221346334" flag="0"/>
      <vel value="0.0122764484" flag="0"/>
      <psa03 value="0.0638477919" flag="0"/>
      <psa10 value="0.0106441573" flag="0"/>
      <psa30 value="0.0008450585" flag="0"/>
    </comp>
  </station>
</stationlist>
