<stationlist created="1778136566">
	<station code="CHAY" name="CHAY" netid="KO" source="Bogazici University Kandilli Observatory And Earthquake Research Institute (KOERI)" insttype="" lat="41.0862" lon="40.7253">
		<comp name="--.HNE" depth="0.0">
			<acc value="0.0343203614293112" flag="0"/>
			<vel value="0.00773346887910594" flag="0"/>
			<psa03 value="0.0157981468101202" flag="0"/>
			<psa10 value="0.00268669555851974" flag="0"/>
			<psa30 value="0.000268014968217981" flag="0"/>
		</comp>
		<comp name="--.HNN" depth="0.0">
			<acc value="0.0295825322743212" flag="0"/>
			<vel value="0.00743335033002236" flag="0"/>
			<psa03 value="0.0260872594029013" flag="0"/>
			<psa10 value="0.00376511770182149" flag="0"/>
			<psa30 value="0.000376663285427283" flag="0"/>
		</comp>
		<comp name="--.HNZ" depth="0.0">
			<acc value="0.0172493509563489" flag="0"/>
			<vel value="0.00364203363997868" flag="0"/>
			<psa03 value="0.0130639318276101" flag="0"/>
			<psa10 value="0.0012738664577122" flag="0"/>
			<psa30 value="0.000215997590030118" flag="0"/>
		</comp>
	</station>
	<station code="HOPA" name="HOPA" netid="KO" source="Bogazici University Kandilli Observatory And Earthquake Research Institute (KOERI)" insttype="" lat="41.3867" lon="41.4458">
		<comp name="--.HNE" depth="0.0">
			<acc value="0.284005328820005" flag="0"/>
			<vel value="0.064792600811731" flag="0"/>
			<psa03 value="0.134522078094035" flag="0"/>
			<psa10 value="0.00907797043350507" flag="0"/>
			<psa30 value="0.000928584014132715" flag="0"/>
		</comp>
		<comp name="--.HNN" depth="0.0">
			<acc value="0.24104096803546" flag="0"/>
			<vel value="0.0505692007925062" flag="0"/>
			<psa03 value="0.130197999978434" flag="0"/>
			<psa10 value="0.00880595460126677" flag="0"/>
			<psa30 value="0.000757177971824075" flag="0"/>
		</comp>
		<comp name="--.HNZ" depth="0.0">
			<acc value="0.0676379318731266" flag="0"/>
			<vel value="0.0130816108427335" flag="0"/>
			<psa03 value="0.0217875774346478" flag="0"/>
			<psa10 value="0.00260350379747263" flag="0"/>
			<psa30 value="0.00049584440975961" flag="0"/>
		</comp>
	</station>
</stationlist>
