<?xml version="1.0" encoding="UTF-8" standalone="yes"?>
<!DOCTYPE earthquake SYSTEM "stationlist.dtd">
<stationlist created="" xmlns="ch.ethz.sed.shakemap.usgs.xml">
  <station code="HOPA" name="HOPA" netid="KO" insttype="CMG-5T" lat="41.3867" lon="41.4458">
    <comp name="--.HNN">
      <acc value="0.2382139705" flag="0"/>
      <vel value="0.0503153300" flag="0"/>
      <psa03 value="0.1269416972" flag="0"/>
      <psa10 value="0.0087014166" flag="0"/>
      <psa30 value="0.0007458743" flag="0"/>
    </comp>
    <comp name="--.HNZ">
      <acc value="0.0697015804" flag="0"/>
      <vel value="0.0129772521" flag="0"/>
      <psa03 value="0.0216148432" flag="0"/>
      <psa10 value="0.0025829859" flag="0"/>
      <psa30 value="0.0004793566" flag="0"/>
    </comp>
    <comp name="--.HNE">
      <acc value="0.2798977921" flag="0"/>
      <vel value="0.0642015047" flag="0"/>
      <psa03 value="0.1314602736" flag="0"/>
      <psa10 value="0.0090062853" flag="0"/>
      <psa30 value="0.0009425029" flag="0"/>
    </comp>
  </station>
</stationlist>
