<?xml version="1.0" encoding="UTF-8" standalone="yes"?>
<!DOCTYPE earthquake SYSTEM "stationlist.dtd">
<stationlist created="" xmlns="ch.ethz.sed.shakemap.usgs.xml">
  <station code="AGRP" name="AGRP" netid="CL" insttype="CMG40-T" commtype="DIG" lat="38.3959" lon="21.7228">
    <comp name="00.HHE">
      <acc value="0.0423761679" flag="0"/>
      <vel value="0.0263104487" flag="0"/>
      <psa03 value="0.0891187322" flag="0"/>
      <psa10 value="0.0275495549" flag="0"/>
      <psa30 value="0.0016193086" flag="0"/>
    </comp>
    <comp name="00.HHN">
      <acc value="0.0357653193" flag="0"/>
      <vel value="0.0217697945" flag="0"/>
      <psa03 value="0.0850844597" flag="0"/>
      <psa10 value="0.0276171894" flag="0"/>
      <psa30 value="0.0021417693" flag="0"/>
    </comp>
    <comp name="00.HHZ">
      <acc value="0.0166888079" flag="0"/>
      <vel value="0.0108217071" flag="0"/>
      <psa03 value="0.0428771082" flag="0"/>
      <psa10 value="0.0131832708" flag="0"/>
      <psa30 value="0.0011510149" flag="0"/>
    </comp>
  </station>
  <station code="MALA" name="MALA" netid="CL" insttype="TRILLIUM-40" commtype="DIG" lat="38.3934" lon="21.8726">
    <comp name="01.HHE">
      <acc value="0.0873348173" flag="0"/>
      <vel value="0.0740837414" flag="0"/>
      <psa03 value="0.2037438847" flag="0"/>
      <psa10 value="0.0789471138" flag="0"/>
      <psa30 value="0.0056929213" flag="0"/>
    </comp>
    <comp name="01.HHN">
      <acc value="6.9779375173" flag="0"/>
      <vel value="0.6067698151" flag="0"/>
      <psa03 value="3.8184797769" flag="0"/>
      <psa10 value="0.5240878813" flag="0"/>
      <psa30 value="0.0880378453" flag="0"/>
    </comp>
    <comp name="01.HHZ">
      <acc value="3.6665552439" flag="0"/>
      <vel value="0.5364873615" flag="0"/>
      <psa03 value="1.6893308437" flag="0"/>
      <psa10 value="0.3248537302" flag="0"/>
      <psa30 value="0.0439207434" flag="0"/>
    </comp>
  </station>
  <station code="MG06" name="MG06" netid="CL" insttype="TRILLIUM-40" commtype="DIG" lat="38.4129" lon="21.9462">
    <comp name="06.HHE">
      <acc value="0.0367062617" flag="0"/>
      <vel value="0.0235816494" flag="0"/>
      <psa03 value="0.0945200321" flag="0"/>
      <psa10 value="0.0175197271" flag="0"/>
      <psa30 value="0.0018358738" flag="0"/>
    </comp>
    <comp name="06.HHN">
      <acc value="0.0344211932" flag="0"/>
      <vel value="0.0218696361" flag="0"/>
      <psa03 value="0.0858068314" flag="0"/>
      <psa10 value="0.0124328944" flag="0"/>
      <psa30 value="0.0024818888" flag="0"/>
    </comp>
    <comp name="06.HHZ">
      <acc value="0.0134467884" flag="0"/>
      <vel value="0.0066021712" flag="0"/>
      <psa03 value="0.0297220518" flag="0"/>
      <psa10 value="0.0072714612" flag="0"/>
      <psa30 value="0.0010799666" flag="0"/>
    </comp>
  </station>
  <station code="PANR" name="PANR" netid="CL" insttype="TRILLIUM-40" commtype="DIG" lat="38.3735" lon="22.2497">
    <comp name="01.HHE">
      <acc value="0.0194916426" flag="0"/>
      <vel value="0.0132293853" flag="0"/>
      <psa03 value="0.0462279954" flag="0"/>
      <psa10 value="0.0123108480" flag="0"/>
      <psa30 value="0.0022009663" flag="0"/>
    </comp>
    <comp name="01.HHN">
      <acc value="0.0159788043" flag="0"/>
      <vel value="0.0152938713" flag="0"/>
      <psa03 value="0.0350168327" flag="0"/>
      <psa10 value="0.0223795120" flag="0"/>
      <psa30 value="0.0018113562" flag="0"/>
    </comp>
    <comp name="01.HHZ">
      <acc value="0.0079018617" flag="0"/>
      <vel value="0.0043322713" flag="0"/>
      <psa03 value="0.0188140782" flag="0"/>
      <psa10 value="0.0048387585" flag="0"/>
      <psa30 value="0.0008072060" flag="0"/>
    </comp>
  </station>
  <station code="PSAM" name="PSAM" netid="CL" insttype="CMG40-T" commtype="DIG" lat="38.3218" lon="22.1842">
    <comp name="00.HHE">
      <acc value="0.0380732738" flag="0"/>
      <vel value="0.0381907469" flag="0"/>
      <psa03 value="0.1128153777" flag="0"/>
      <psa10 value="0.0465084143" flag="0"/>
      <psa30 value="0.0047805352" flag="0"/>
    </comp>
    <comp name="00.HHN">
      <acc value="0.0384231848" flag="0"/>
      <vel value="0.0221456527" flag="0"/>
      <psa03 value="0.0992200860" flag="0"/>
      <psa10 value="0.0397712038" flag="0"/>
      <psa30 value="0.0024311403" flag="0"/>
    </comp>
    <comp name="00.HHZ">
      <acc value="0.0148434750" flag="0"/>
      <vel value="0.0117327493" flag="0"/>
      <psa03 value="0.0459626761" flag="0"/>
      <psa10 value="0.0158687648" flag="0"/>
      <psa30 value="0.0010396891" flag="0"/>
    </comp>
  </station>
  <station code="TRIZ" name="TRIZ" netid="CL" insttype="STS-2" commtype="DIG" lat="38.3654" lon="22.0727">
    <comp name="00.HH2">
      <acc value="0.0338035319" flag="0"/>
      <vel value="0.0202238965" flag="0"/>
      <psa03 value="0.0935857120" flag="0"/>
      <psa10 value="0.0231617409" flag="0"/>
      <psa30 value="0.0026049472" flag="0"/>
    </comp>
    <comp name="00.HHZ">
      <acc value="0.0224941882" flag="0"/>
      <vel value="0.0112442226" flag="0"/>
      <psa03 value="0.0402841326" flag="0"/>
      <psa10 value="0.0161672281" flag="0"/>
      <psa30 value="0.0024209205" flag="0"/>
    </comp>
    <comp name="00.HH3">
      <acc value="0.0430418574" flag="0"/>
      <vel value="0.0301036285" flag="0"/>
      <psa03 value="0.1216694417" flag="0"/>
      <psa10 value="0.0270923871" flag="0"/>
      <psa30 value="0.0044682848" flag="0"/>
    </comp>
  </station>
  <station code="ZIRI" name="ZIRI" netid="CL" insttype="TRILLIUM-40" commtype="DIG" lat="38.3051" lon="21.9476">
    <comp name="01.HHE">
      <acc value="0.1697660845" flag="0"/>
      <vel value="0.1128638778" flag="0"/>
      <psa03 value="0.5412942671" flag="0"/>
      <psa10 value="0.0468754593" flag="0"/>
      <psa30 value="0.0031229926" flag="0"/>
    </comp>
    <comp name="01.HHN">
      <acc value="0.1666867352" flag="0"/>
      <vel value="0.0845194760" flag="0"/>
      <psa03 value="0.7058233327" flag="0"/>
      <psa10 value="0.0339312902" flag="0"/>
      <psa30 value="0.0030669382" flag="0"/>
    </comp>
    <comp name="01.HHZ">
      <acc value="0.0956876176" flag="0"/>
      <vel value="0.0346062227" flag="0"/>
      <psa03 value="0.2043605576" flag="0"/>
      <psa10 value="0.0195108695" flag="0"/>
      <psa30 value="0.0017035683" flag="0"/>
    </comp>
  </station>
  <station code="KTHA" name="KTHA" netid="GE" insttype="STS-2/N" commtype="DIG" lat="36.2566" lon="23.0621">
    <comp name="--.HHZ">
      <acc value="0.0075107806" flag="0"/>
      <vel value="0.0089897441" flag="0"/>
      <psa03 value="0.0194291331" flag="0"/>
      <psa10 value="0.0107619791" flag="0"/>
      <psa30 value="0.0024714420" flag="0"/>
    </comp>
    <comp name="--.HHE">
      <acc value="0.0230651951" flag="0"/>
      <vel value="0.0212120841" flag="0"/>
      <psa03 value="0.0653770750" flag="0"/>
      <psa10 value="0.0273451825" flag="0"/>
      <psa30 value="0.0035929694" flag="0"/>
    </comp>
    <comp name="--.HHN">
      <acc value="0.0112852858" flag="0"/>
      <vel value="0.0133500846" flag="0"/>
      <psa03 value="0.0408318183" flag="0"/>
      <psa10 value="0.0190440465" flag="0"/>
      <psa30 value="0.0022786482" flag="0"/>
    </comp>
  </station>
</stationlist>
