<?xml version="1.0" encoding="UTF-8" standalone="yes"?>
<!DOCTYPE earthquake SYSTEM "stationlist.dtd">
<stationlist created="" xmlns="ch.ethz.sed.shakemap.usgs.xml">
  <station code="RP05B" name="RP05B" netid="5B" insttype="Compact" commtype="DIG" lat="37.6182" lon="21.6541">
    <comp name="--.HHE">
      <acc value="1.3577930284" flag="0"/>
      <vel value="0.6850251277" flag="0"/>
      <psa03 value="3.6964190275" flag="0"/>
      <psa10 value="0.3666708525" flag="0"/>
      <psa30 value="0.0175720413" flag="0"/>
    </comp>
    <comp name="--.HHN">
      <acc value="1.4888656555" flag="0"/>
      <vel value="0.5876798424" flag="0"/>
      <psa03 value="4.9179644993" flag="0"/>
      <psa10 value="0.2275950751" flag="0"/>
      <psa30 value="0.0188846499" flag="0"/>
    </comp>
    <comp name="--.HHZ">
      <acc value="0.9202688239" flag="0"/>
      <vel value="0.3413222054" flag="0"/>
      <psa03 value="1.9684867578" flag="0"/>
      <psa10 value="0.0873931143" flag="0"/>
      <psa30 value="0.0090018097" flag="0"/>
    </comp>
  </station>
  <station code="AGRP" name="AGRP" netid="CL" insttype="CMG40-T" commtype="DIG" lat="38.3959" lon="21.7228">
    <comp name="00.HHE">
      <acc value="0.0423761679" flag="0"/>
      <vel value="0.0263104487" flag="0"/>
      <psa03 value="0.0891187322" flag="0"/>
      <psa10 value="0.0275495549" flag="0"/>
      <psa30 value="0.0016193086" flag="0"/>
    </comp>
    <comp name="00.HHN">
      <acc value="0.0357653193" flag="0"/>
      <vel value="0.0217697945" flag="0"/>
      <psa03 value="0.0850844597" flag="0"/>
      <psa10 value="0.0276171894" flag="0"/>
      <psa30 value="0.0021417693" flag="0"/>
    </comp>
    <comp name="00.HHZ">
      <acc value="0.0166888079" flag="0"/>
      <vel value="0.0108217071" flag="0"/>
      <psa03 value="0.0428771082" flag="0"/>
      <psa10 value="0.0131832708" flag="0"/>
      <psa30 value="0.0011510149" flag="0"/>
    </comp>
  </station>
  <station code="MALA" name="MALA" netid="CL" insttype="TRILLIUM-40" commtype="DIG" lat="38.3934" lon="21.8726">
    <comp name="01.HHE">
      <acc value="0.0873348173" flag="0"/>
      <vel value="0.0740837414" flag="0"/>
      <psa03 value="0.2037438847" flag="0"/>
      <psa10 value="0.0789471138" flag="0"/>
      <psa30 value="0.0056929213" flag="0"/>
    </comp>
    <comp name="01.HHN">
      <acc value="6.9779375173" flag="0"/>
      <vel value="0.6067698151" flag="0"/>
      <psa03 value="3.8184797769" flag="0"/>
      <psa10 value="0.5240878813" flag="0"/>
      <psa30 value="0.0880378453" flag="0"/>
    </comp>
    <comp name="01.HHZ">
      <acc value="3.6665552439" flag="0"/>
      <vel value="0.5364873615" flag="0"/>
      <psa03 value="1.6893308437" flag="0"/>
      <psa10 value="0.3248537302" flag="0"/>
      <psa30 value="0.0439207434" flag="0"/>
    </comp>
  </station>
  <station code="MG06" name="MG06" netid="CL" insttype="TRILLIUM-40" commtype="DIG" lat="38.4129" lon="21.9462">
    <comp name="06.HHE">
      <acc value="0.0367062617" flag="0"/>
      <vel value="0.0235816494" flag="0"/>
      <psa03 value="0.0945200321" flag="0"/>
      <psa10 value="0.0175197271" flag="0"/>
      <psa30 value="0.0018358738" flag="0"/>
    </comp>
    <comp name="06.HHN">
      <acc value="0.0344211932" flag="0"/>
      <vel value="0.0218696361" flag="0"/>
      <psa03 value="0.0858068314" flag="0"/>
      <psa10 value="0.0124328944" flag="0"/>
      <psa30 value="0.0024818888" flag="0"/>
    </comp>
    <comp name="06.HHZ">
      <acc value="0.0134467884" flag="0"/>
      <vel value="0.0066021712" flag="0"/>
      <psa03 value="0.0297220518" flag="0"/>
      <psa10 value="0.0072714612" flag="0"/>
      <psa30 value="0.0010799666" flag="0"/>
    </comp>
  </station>
  <station code="PANR" name="PANR" netid="CL" insttype="TRILLIUM-40" commtype="DIG" lat="38.3735" lon="22.2497">
    <comp name="01.HHE">
      <acc value="0.0194916426" flag="0"/>
      <vel value="0.0132293853" flag="0"/>
      <psa03 value="0.0462279954" flag="0"/>
      <psa10 value="0.0123108480" flag="0"/>
      <psa30 value="0.0022009663" flag="0"/>
    </comp>
    <comp name="01.HHN">
      <acc value="0.0159788043" flag="0"/>
      <vel value="0.0152938713" flag="0"/>
      <psa03 value="0.0350168327" flag="0"/>
      <psa10 value="0.0223795120" flag="0"/>
      <psa30 value="0.0018113562" flag="0"/>
    </comp>
    <comp name="01.HHZ">
      <acc value="0.0079018617" flag="0"/>
      <vel value="0.0043322713" flag="0"/>
      <psa03 value="0.0188140782" flag="0"/>
      <psa10 value="0.0048387585" flag="0"/>
      <psa30 value="0.0008072060" flag="0"/>
    </comp>
  </station>
  <station code="PSAM" name="PSAM" netid="CL" insttype="CMG40-T" commtype="DIG" lat="38.3218" lon="22.1842">
    <comp name="00.HHE">
      <acc value="0.0380732738" flag="0"/>
      <vel value="0.0381907469" flag="0"/>
      <psa03 value="0.1128153777" flag="0"/>
      <psa10 value="0.0465084143" flag="0"/>
      <psa30 value="0.0047805352" flag="0"/>
    </comp>
    <comp name="00.HHN">
      <acc value="0.0384231848" flag="0"/>
      <vel value="0.0221456527" flag="0"/>
      <psa03 value="0.0992200860" flag="0"/>
      <psa10 value="0.0397712038" flag="0"/>
      <psa30 value="0.0024311403" flag="0"/>
    </comp>
    <comp name="00.HHZ">
      <acc value="0.0148434750" flag="0"/>
      <vel value="0.0117327493" flag="0"/>
      <psa03 value="0.0459626761" flag="0"/>
      <psa10 value="0.0158687648" flag="0"/>
      <psa30 value="0.0010396891" flag="0"/>
    </comp>
  </station>
  <station code="TRIZ" name="TRIZ" netid="CL" insttype="STS-2" commtype="DIG" lat="38.3654" lon="22.0727">
    <comp name="00.HH2">
      <acc value="0.0338035319" flag="0"/>
      <vel value="0.0202238965" flag="0"/>
      <psa03 value="0.0935857120" flag="0"/>
      <psa10 value="0.0231617409" flag="0"/>
      <psa30 value="0.0026049472" flag="0"/>
    </comp>
    <comp name="00.HHZ">
      <acc value="0.0224941882" flag="0"/>
      <vel value="0.0112442226" flag="0"/>
      <psa03 value="0.0402841326" flag="0"/>
      <psa10 value="0.0161672281" flag="0"/>
      <psa30 value="0.0024209205" flag="0"/>
    </comp>
    <comp name="00.HH3">
      <acc value="0.0430418574" flag="0"/>
      <vel value="0.0301036285" flag="0"/>
      <psa03 value="0.1216694417" flag="0"/>
      <psa10 value="0.0270923871" flag="0"/>
      <psa30 value="0.0044682848" flag="0"/>
    </comp>
  </station>
  <station code="ZIRI" name="ZIRI" netid="CL" insttype="TRILLIUM-40" commtype="DIG" lat="38.3051" lon="21.9476">
    <comp name="01.HHE">
      <acc value="0.1697660845" flag="0"/>
      <vel value="0.1128638778" flag="0"/>
      <psa03 value="0.5412942671" flag="0"/>
      <psa10 value="0.0468754593" flag="0"/>
      <psa30 value="0.0031229926" flag="0"/>
    </comp>
    <comp name="01.HHN">
      <acc value="0.1666867352" flag="0"/>
      <vel value="0.0845194760" flag="0"/>
      <psa03 value="0.7058233327" flag="0"/>
      <psa10 value="0.0339312902" flag="0"/>
      <psa30 value="0.0030669382" flag="0"/>
    </comp>
    <comp name="01.HHZ">
      <acc value="0.0956876176" flag="0"/>
      <vel value="0.0346062227" flag="0"/>
      <psa03 value="0.2043605576" flag="0"/>
      <psa10 value="0.0195108695" flag="0"/>
      <psa30 value="0.0017035683" flag="0"/>
    </comp>
  </station>
  <station code="KTHA" name="KTHA" netid="GE" insttype="STS-2/N" commtype="DIG" lat="36.2566" lon="23.0621">
    <comp name="--.HHZ">
      <acc value="0.0075107806" flag="0"/>
      <vel value="0.0089897441" flag="0"/>
      <psa03 value="0.0194291331" flag="0"/>
      <psa10 value="0.0107619791" flag="0"/>
      <psa30 value="0.0024714420" flag="0"/>
    </comp>
    <comp name="--.HHE">
      <acc value="0.0230651951" flag="0"/>
      <vel value="0.0212120841" flag="0"/>
      <psa03 value="0.0653770750" flag="0"/>
      <psa10 value="0.0273451825" flag="0"/>
      <psa30 value="0.0035929694" flag="0"/>
    </comp>
    <comp name="--.HHN">
      <acc value="0.0112852858" flag="0"/>
      <vel value="0.0133500846" flag="0"/>
      <psa03 value="0.0408318183" flag="0"/>
      <psa10 value="0.0190440465" flag="0"/>
      <psa30 value="0.0022786482" flag="0"/>
    </comp>
  </station>
  <station code="ACOR" name="ACOR" netid="HA" insttype="Horizon,120s,1200" commtype="DIG" lat="37.8905" lon="22.8694">
    <comp name="--.HHE">
      <acc value="0.0176683943" flag="0"/>
      <vel value="0.0147402992" flag="0"/>
      <psa03 value="0.0640265625" flag="0"/>
      <psa10 value="0.0148592116" flag="0"/>
      <psa30 value="0.0025579119" flag="0"/>
    </comp>
    <comp name="--.HHN">
      <acc value="0.0182780614" flag="0"/>
      <vel value="0.0160368871" flag="0"/>
      <psa03 value="0.0622423806" flag="0"/>
      <psa10 value="0.0166464429" flag="0"/>
      <psa30 value="0.0019105776" flag="0"/>
    </comp>
    <comp name="--.HHZ">
      <acc value="0.0135437798" flag="0"/>
      <vel value="0.0117025093" flag="0"/>
      <psa03 value="0.0432139242" flag="0"/>
      <psa10 value="0.0192341627" flag="0"/>
      <psa30 value="0.0012595845" flag="0"/>
    </comp>
  </station>
  <station code="EPID" name="EPID" netid="HA" insttype="30" commtype="DIG" lat="37.6144" lon="23.1189">
    <comp name="--.HHE">
      <acc value="0.0269838753" flag="0"/>
      <vel value="0.0138857966" flag="0"/>
      <psa03 value="0.0772186919" flag="0"/>
      <psa10 value="0.0119388723" flag="0"/>
      <psa30 value="0.0010865929" flag="0"/>
    </comp>
    <comp name="--.HHN">
      <acc value="0.0432965917" flag="0"/>
      <vel value="0.0169687071" flag="0"/>
      <psa03 value="0.0672169665" flag="0"/>
      <psa10 value="0.0127879696" flag="0"/>
      <psa30 value="0.0015974744" flag="0"/>
    </comp>
    <comp name="--.HHZ">
      <acc value="0.0289755886" flag="0"/>
      <vel value="0.0136682496" flag="0"/>
      <psa03 value="0.0454447906" flag="0"/>
      <psa10 value="0.0092829185" flag="0"/>
      <psa30 value="0.0011033773" flag="0"/>
    </comp>
  </station>
  <station code="KALE" name="KALE" netid="HA" insttype="40," commtype="DIG" lat="38.3911" lon="22.1398">
    <comp name="--.HHN">
      <acc value="0.0342449144" flag="0"/>
      <vel value="0.0186184508" flag="0"/>
      <psa03 value="0.0991738352" flag="0"/>
      <psa10 value="0.0236537893" flag="0"/>
      <psa30 value="0.0033123409" flag="0"/>
    </comp>
    <comp name="--.HHZ">
      <acc value="0.0183137783" flag="0"/>
      <vel value="0.0121142181" flag="0"/>
      <psa03 value="0.0692826023" flag="0"/>
      <psa10 value="0.0126861562" flag="0"/>
      <psa30 value="0.0017501261" flag="0"/>
    </comp>
    <comp name="--.HHE">
      <acc value="0.0454594304" flag="0"/>
      <vel value="0.0239018531" flag="0"/>
      <psa03 value="0.1217435903" flag="0"/>
      <psa10 value="0.0284076878" flag="0"/>
      <psa30 value="0.0021080585" flag="0"/>
    </comp>
  </station>
  <station code="KIAS" name="KIAS" netid="HA" insttype="DC" commtype="DIG" lat="37.9875" lon="22.7543">
    <comp name="--.HNN">
      <acc value="0.0700525978" flag="0"/>
      <vel value="0.0556854459" flag="0"/>
      <psa03 value="0.1729401228" flag="0"/>
      <psa10 value="0.1102650379" flag="0"/>
      <psa30 value="0.0064097572" flag="0"/>
    </comp>
    <comp name="--.HNE">
      <acc value="0.0722994940" flag="0"/>
      <vel value="0.0711358642" flag="0"/>
      <psa03 value="0.2175240525" flag="0"/>
      <psa10 value="0.1148418467" flag="0"/>
      <psa30 value="0.0072107298" flag="0"/>
    </comp>
    <comp name="--.HNZ">
      <acc value="0.0375496608" flag="0"/>
      <vel value="0.0272367067" flag="0"/>
      <psa03 value="0.1181933509" flag="0"/>
      <psa10 value="0.0474104361" flag="0"/>
      <psa30 value="0.0027493435" flag="0"/>
    </comp>
  </station>
  <station code="LAKA" name="LAKA" netid="HA" insttype="120s," commtype="DIG" lat="38.2401" lon="21.9785">
    <comp name="--.HHE">
      <acc value="0.0341380856" flag="0"/>
      <vel value="0.0211997455" flag="0"/>
      <psa03 value="0.0890608487" flag="0"/>
      <psa10 value="0.0169281772" flag="0"/>
      <psa30 value="0.0024013663" flag="0"/>
    </comp>
    <comp name="--.HHZ">
      <acc value="0.0203851206" flag="0"/>
      <vel value="0.0109424519" flag="0"/>
      <psa03 value="0.0662666405" flag="0"/>
      <psa10 value="0.0132300418" flag="0"/>
      <psa30 value="0.0013051847" flag="0"/>
    </comp>
    <comp name="--.HHN">
      <acc value="0.0323630189" flag="0"/>
      <vel value="0.0195916184" flag="0"/>
      <psa03 value="0.1026575142" flag="0"/>
      <psa10 value="0.0191205547" flag="0"/>
      <psa30 value="0.0016650550" flag="0"/>
    </comp>
  </station>
  <station code="LOUT" name="LOUT" netid="HA" insttype="30" commtype="DIG" lat="37.9879" lon="22.9743">
    <comp name="--.HHZ">
      <acc value="0.0174823557" flag="0"/>
      <vel value="0.0132295267" flag="0"/>
      <psa03 value="0.0522206015" flag="0"/>
      <psa10 value="0.0144847997" flag="0"/>
      <psa30 value="0.0010741843" flag="0"/>
    </comp>
    <comp name="--.HHN">
      <acc value="0.0335891849" flag="0"/>
      <vel value="0.0233703959" flag="0"/>
      <psa03 value="0.0914031775" flag="0"/>
      <psa10 value="0.0284026462" flag="0"/>
      <psa30 value="0.0020189518" flag="0"/>
    </comp>
    <comp name="--.HHE">
      <acc value="0.0416719409" flag="0"/>
      <vel value="0.0239239339" flag="0"/>
      <psa03 value="0.1321291417" flag="0"/>
      <psa10 value="0.0363209228" flag="0"/>
      <psa30 value="0.0015973109" flag="0"/>
    </comp>
  </station>
  <station code="THAL" name="THAL" netid="HA" insttype="30" commtype="DIG" lat="38.0357" lon="22.6634">
    <comp name="--.HHN">
      <acc value="0.1104353933" flag="0"/>
      <vel value="0.0677871336" flag="0"/>
      <psa03 value="0.3707548589" flag="0"/>
      <psa10 value="0.1114499495" flag="0"/>
      <psa30 value="0.0057129533" flag="0"/>
    </comp>
    <comp name="--.HHZ">
      <acc value="0.0619721662" flag="0"/>
      <vel value="0.0325638944" flag="0"/>
      <psa03 value="0.2005481954" flag="0"/>
      <psa10 value="0.0522036280" flag="0"/>
      <psa30 value="0.0027409184" flag="0"/>
    </comp>
    <comp name="--.HHE">
      <acc value="0.1125155079" flag="0"/>
      <vel value="0.0653008325" flag="0"/>
      <psa03 value="0.3029228666" flag="0"/>
      <psa10 value="0.0877342124" flag="0"/>
      <psa30 value="0.0070896121" flag="0"/>
    </comp>
  </station>
  <station code="KTHR" name="KTHR" netid="HC" insttype="120s" commtype="DIG" lat="36.2447" lon="22.9939">
    <comp name="--.HHZ">
      <acc value="0.0218456947" flag="0"/>
      <vel value="0.0143267902" flag="0"/>
      <psa03 value="0.0854689828" flag="0"/>
      <psa10 value="0.0202045965" flag="0"/>
      <psa30 value="0.0014353447" flag="0"/>
    </comp>
    <comp name="--.HHN">
      <acc value="0.0505949647" flag="0"/>
      <vel value="0.0399651853" flag="0"/>
      <psa03 value="0.1332332875" flag="0"/>
      <psa10 value="0.0418137497" flag="0"/>
      <psa30 value="0.0023755704" flag="0"/>
    </comp>
    <comp name="--.HHE">
      <acc value="0.0744674220" flag="0"/>
      <vel value="0.0529761877" flag="0"/>
      <psa03 value="0.2154028751" flag="0"/>
      <psa10 value="0.0300180398" flag="0"/>
      <psa30 value="0.0044096208" flag="0"/>
    </comp>
  </station>
  <station code="AIG2" name="AIG2" netid="HI" insttype="unknown" commtype="DIG" lat="38.2417" lon="22.0726">
    <comp name="--.HNE">
      <acc value="0.0692822286" flag="0"/>
      <vel value="0.0422248667" flag="0"/>
      <psa03 value="0.2068872811" flag="0"/>
      <psa10 value="0.0425272989" flag="0"/>
      <psa30 value="0.0040003334" flag="0"/>
    </comp>
    <comp name="--.HNZ">
      <acc value="0.0405516863" flag="0"/>
      <vel value="0.0222462717" flag="0"/>
      <psa03 value="0.1173081760" flag="0"/>
      <psa10 value="0.0279451792" flag="0"/>
      <psa30 value="0.0027200309" flag="0"/>
    </comp>
    <comp name="--.HNN">
      <acc value="0.0683323688" flag="0"/>
      <vel value="0.0465797241" flag="0"/>
      <psa03 value="0.1897159273" flag="0"/>
      <psa10 value="0.0326065891" flag="0"/>
      <psa30 value="0.0046697132" flag="0"/>
    </comp>
  </station>
  <station code="AKR1" name="AKR1" netid="HI" insttype="unknown" commtype="DIG" lat="38.1536" lon="22.3133">
    <comp name="--.HNE">
      <acc value="0.1403437554" flag="0"/>
      <vel value="0.0857396174" flag="0"/>
      <psa03 value="0.4523391684" flag="0"/>
      <psa10 value="0.1178464013" flag="0"/>
      <psa30 value="0.0056933279" flag="0"/>
    </comp>
    <comp name="--.HNN">
      <acc value="0.1368578929" flag="0"/>
      <vel value="0.0617114395" flag="0"/>
      <psa03 value="0.4387292012" flag="0"/>
      <psa10 value="0.0680869295" flag="0"/>
      <psa30 value="0.0032220608" flag="0"/>
    </comp>
    <comp name="--.HNZ">
      <acc value="0.0731691066" flag="0"/>
      <vel value="0.0287088063" flag="0"/>
      <psa03 value="0.1209023857" flag="0"/>
      <psa10 value="0.0425128725" flag="0"/>
      <psa30 value="0.0026382021" flag="0"/>
    </comp>
  </station>
  <station code="AOL1" name="AOL1" netid="HI" insttype="unknown" commtype="DIG" lat="37.6424" lon="21.6246">
    <comp name="--.HNE">
      <acc value="0.4914360449" flag="0"/>
      <vel value="0.1924132309" flag="0"/>
      <psa03 value="1.0550582481" flag="0"/>
      <psa10 value="0.1653171518" flag="0"/>
      <psa30 value="0.0095437125" flag="0"/>
    </comp>
    <comp name="--.HNN">
      <acc value="0.4460337044" flag="0"/>
      <vel value="0.1834605963" flag="0"/>
      <psa03 value="0.7160305971" flag="0"/>
      <psa10 value="0.2547870323" flag="0"/>
      <psa30 value="0.0093626437" flag="0"/>
    </comp>
    <comp name="--.HNZ">
      <acc value="0.1994599837" flag="0"/>
      <vel value="0.0940275911" flag="0"/>
      <psa03 value="0.4238863743" flag="0"/>
      <psa10 value="0.0936960765" flag="0"/>
      <psa30 value="0.0054568359" flag="0"/>
    </comp>
  </station>
  <station code="ARE2" name="ARE2" netid="HI" insttype="unknown" commtype="DIG" lat="36.6663" lon="22.3826">
    <comp name="--.HNE">
      <acc value="0.0865028774" flag="0"/>
      <vel value="0.0515434577" flag="0"/>
      <psa03 value="0.2076990085" flag="0"/>
      <psa10 value="0.0647028653" flag="0"/>
      <psa30 value="0.0035277585" flag="0"/>
    </comp>
    <comp name="--.HNN">
      <acc value="0.0715931838" flag="0"/>
      <vel value="0.0327446062" flag="0"/>
      <psa03 value="0.1823226063" flag="0"/>
      <psa10 value="0.0379780782" flag="0"/>
      <psa30 value="0.0032978285" flag="0"/>
    </comp>
    <comp name="--.HNZ">
      <acc value="0.0481787632" flag="0"/>
      <vel value="0.0238293586" flag="0"/>
      <psa03 value="0.0867333769" flag="0"/>
      <psa10 value="0.0363752874" flag="0"/>
      <psa30 value="0.0021781181" flag="0"/>
    </comp>
  </station>
  <station code="GTH2" name="GTH2" netid="HI" insttype="unknown" commtype="DIG" lat="36.7603" lon="22.5659">
    <comp name="--.HNZ">
      <acc value="0.1630825865" flag="0"/>
      <vel value="0.0988031870" flag="0"/>
      <psa03 value="0.4402348151" flag="0"/>
      <psa10 value="0.0848030742" flag="0"/>
      <psa30 value="0.0059668704" flag="0"/>
    </comp>
    <comp name="--.HNE">
      <acc value="0.4941739852" flag="0"/>
      <vel value="0.3282538265" flag="0"/>
      <psa03 value="1.8374521931" flag="0"/>
      <psa10 value="0.2029307202" flag="0"/>
      <psa30 value="0.0142274199" flag="0"/>
    </comp>
    <comp name="--.HNN">
      <acc value="0.6343691449" flag="0"/>
      <vel value="0.3825169775" flag="0"/>
      <psa03 value="1.6176769440" flag="0"/>
      <psa10 value="0.2034418481" flag="0"/>
      <psa30 value="0.0145155115" flag="0"/>
    </comp>
  </station>
  <station code="KAC1" name="KAC1" netid="HI" insttype="unknown" commtype="DIG" lat="38.1434" lon="21.5497">
