<?xml version="1.0" encoding="UTF-8" standalone="yes"?>
<!DOCTYPE earthquake SYSTEM "stationlist.dtd">
<stationlist created="" xmlns="ch.ethz.sed.shakemap.usgs.xml">
  <station code="AGRP" name="AGRP" netid="CL" insttype="CMG40-T" commtype="DIG" lat="38.3959" lon="21.7228">
    <comp name="00.HHN">
      <acc value="0.0357653177" flag="0"/>
      <vel value="0.0217697883" flag="0"/>
      <psa03 value="0.0850844597" flag="0"/>
      <psa10 value="0.0276171894" flag="0"/>
      <psa30 value="0.0021416797" flag="0"/>
    </comp>
    <comp name="00.HHE">
      <acc value="0.0423761688" flag="0"/>
      <vel value="0.0263104487" flag="0"/>
      <psa03 value="0.0891187322" flag="0"/>
      <psa10 value="0.0275495549" flag="0"/>
      <psa30 value="0.0016192682" flag="0"/>
    </comp>
    <comp name="00.HHZ">
      <acc value="0.0166888084" flag="0"/>
      <vel value="0.0108217063" flag="0"/>
      <psa03 value="0.0428771082" flag="0"/>
      <psa10 value="0.0131832708" flag="0"/>
      <psa30 value="0.0011510152" flag="0"/>
    </comp>
  </station>
  <station code="MALA" name="MALA" netid="CL" insttype="TRILLIUM-40" commtype="DIG" lat="38.3934" lon="21.8726">
    <comp name="01.HHN">
      <acc value="6.9779375059" flag="0"/>
      <vel value="0.6067698885" flag="0"/>
      <psa03 value="3.8184797765" flag="0"/>
      <psa10 value="0.5240977014" flag="0"/>
      <psa30 value="0.0880378502" flag="0"/>
    </comp>
    <comp name="01.HHE">
      <acc value="0.0873348172" flag="0"/>
      <vel value="0.0740837377" flag="0"/>
      <psa03 value="0.2037438847" flag="0"/>
      <psa10 value="0.0789471139" flag="0"/>
      <psa30 value="0.0056927831" flag="0"/>
    </comp>
    <comp name="01.HHZ">
      <acc value="3.6665552436" flag="0"/>
      <vel value="0.5364873857" flag="0"/>
      <psa03 value="1.6893308436" flag="0"/>
      <psa10 value="0.3248537302" flag="0"/>
      <psa30 value="0.0439206703" flag="0"/>
    </comp>
  </station>
  <station code="MG06" name="MG06" netid="CL" insttype="TRILLIUM-40" commtype="DIG" lat="38.4129" lon="21.9462">
    <comp name="06.HHE">
      <acc value="0.0367062612" flag="0"/>
      <vel value="0.0235816531" flag="0"/>
      <psa03 value="0.0945200321" flag="0"/>
      <psa10 value="0.0175197271" flag="0"/>
      <psa30 value="0.0018358397" flag="0"/>
    </comp>
    <comp name="06.HHZ">
      <acc value="0.0134467886" flag="0"/>
      <vel value="0.0066021721" flag="0"/>
      <psa03 value="0.0297220518" flag="0"/>
      <psa10 value="0.0072714612" flag="0"/>
      <psa30 value="0.0010799543" flag="0"/>
    </comp>
    <comp name="06.HHN">
      <acc value="0.0344211932" flag="0"/>
      <vel value="0.0218696352" flag="0"/>
      <psa03 value="0.0858068314" flag="0"/>
      <psa10 value="0.0124328944" flag="0"/>
      <psa30 value="0.0024818453" flag="0"/>
    </comp>
  </station>
  <station code="PANR" name="PANR" netid="CL" insttype="TRILLIUM-40" commtype="DIG" lat="38.3735" lon="22.2497">
    <comp name="01.HHE">
      <acc value="0.0194916426" flag="0"/>
      <vel value="0.0132293855" flag="0"/>
      <psa03 value="0.0462279954" flag="0"/>
      <psa10 value="0.0123108480" flag="0"/>
      <psa30 value="0.0022009574" flag="0"/>
    </comp>
    <comp name="01.HHN">
      <acc value="0.0159788040" flag="0"/>
      <vel value="0.0152938702" flag="0"/>
      <psa03 value="0.0350168327" flag="0"/>
      <psa10 value="0.0223795120" flag="0"/>
      <psa30 value="0.0018113169" flag="0"/>
    </comp>
    <comp name="01.HHZ">
      <acc value="0.0079018620" flag="0"/>
      <vel value="0.0043322688" flag="0"/>
      <psa03 value="0.0188140782" flag="0"/>
      <psa10 value="0.0048387711" flag="0"/>
      <psa30 value="0.0008071001" flag="0"/>
    </comp>
  </station>
  <station code="PSAM" name="PSAM" netid="CL" insttype="CMG40-T" commtype="DIG" lat="38.3218" lon="22.1842">
    <comp name="00.HHE">
      <acc value="0.0380732743" flag="0"/>
      <vel value="0.0381907447" flag="0"/>
      <psa03 value="0.1128153777" flag="0"/>
      <psa10 value="0.0465084143" flag="0"/>
      <psa30 value="0.0047807554" flag="0"/>
    </comp>
    <comp name="00.HHN">
      <acc value="0.0384231847" flag="0"/>
      <vel value="0.0221456547" flag="0"/>
      <psa03 value="0.0992200860" flag="0"/>
      <psa10 value="0.0397712038" flag="0"/>
      <psa30 value="0.0024311520" flag="0"/>
    </comp>
    <comp name="00.HHZ">
      <acc value="0.0148434750" flag="0"/>
      <vel value="0.0117327491" flag="0"/>
      <psa03 value="0.0459626761" flag="0"/>
      <psa10 value="0.0158687648" flag="0"/>
      <psa30 value="0.0010397006" flag="0"/>
    </comp>
  </station>
  <station code="TRIZ" name="TRIZ" netid="CL" insttype="STS-2" commtype="DIG" lat="38.3654" lon="22.0727">
    <comp name="00.HHZ">
      <acc value="0.0224941880" flag="0"/>
      <vel value="0.0112442233" flag="0"/>
      <psa03 value="0.0402841326" flag="0"/>
      <psa10 value="0.0161672281" flag="0"/>
      <psa30 value="0.0024209085" flag="0"/>
    </comp>
    <comp name="00.HH2">
      <acc value="0.0338035322" flag="0"/>
      <vel value="0.0202238987" flag="0"/>
      <psa03 value="0.0935857120" flag="0"/>
      <psa10 value="0.0231617409" flag="0"/>
      <psa30 value="0.0026049391" flag="0"/>
    </comp>
    <comp name="00.HH3">
      <acc value="0.0430418574" flag="0"/>
      <vel value="0.0301036287" flag="0"/>
      <psa03 value="0.1216694417" flag="0"/>
      <psa10 value="0.0270923871" flag="0"/>
      <psa30 value="0.0044683060" flag="0"/>
    </comp>
  </station>
  <station code="ZIRI" name="ZIRI" netid="CL" insttype="TRILLIUM-40" commtype="DIG" lat="38.3051" lon="21.9476">
    <comp name="01.HHE">
      <acc value="0.1697660848" flag="0"/>
      <vel value="0.1128638755" flag="0"/>
      <psa03 value="0.5412942671" flag="0"/>
      <psa10 value="0.0468754593" flag="0"/>
      <psa30 value="0.0031230179" flag="0"/>
    </comp>
    <comp name="01.HHN">
      <acc value="0.1666867353" flag="0"/>
      <vel value="0.0845194740" flag="0"/>
      <psa03 value="0.7058233327" flag="0"/>
      <psa10 value="0.0339312902" flag="0"/>
      <psa30 value="0.0030670088" flag="0"/>
    </comp>
    <comp name="01.HHZ">
      <acc value="0.0956876175" flag="0"/>
      <vel value="0.0346062237" flag="0"/>
      <psa03 value="0.2043605576" flag="0"/>
      <psa10 value="0.0195108695" flag="0"/>
      <psa30 value="0.0017035815" flag="0"/>
    </comp>
  </station>
  <station code="KTHA" name="KTHA" netid="GE" insttype="STS-2/N" commtype="DIG" lat="36.2566" lon="23.0621">
    <comp name="--.HHN">
      <acc value="0.0112852863" flag="0"/>
      <vel value="0.0133500817" flag="0"/>
      <psa03 value="0.0408318183" flag="0"/>
      <psa10 value="0.0190440465" flag="0"/>
      <psa30 value="0.0022789229" flag="0"/>
    </comp>
    <comp name="--.HHE">
      <acc value="0.0230651954" flag="0"/>
      <vel value="0.0212120851" flag="0"/>
      <psa03 value="0.0653770750" flag="0"/>
      <psa10 value="0.0273451825" flag="0"/>
      <psa30 value="0.0035929635" flag="0"/>
    </comp>
    <comp name="--.HHZ">
      <acc value="0.0075107805" flag="0"/>
      <vel value="0.0089897443" flag="0"/>
      <psa03 value="0.0194291331" flag="0"/>
      <psa10 value="0.0107619792" flag="0"/>
      <psa30 value="0.0024716366" flag="0"/>
    </comp>
  </station>
  <station code="KLV" name="KLV" netid="MN" insttype="" commtype="DIG" lat="38.0437" lon="22.1504">
    <comp name="--.HHE">
      <acc value="0.0697626022" flag="0"/>
      <vel value="0.0290027412" flag="0"/>
      <psa03 value="0.0872456662" flag="0"/>
      <psa10 value="0.0264897014" flag="0"/>
      <psa30 value="0.0023896008" flag="0"/>
    </comp>
    <comp name="--.HHN">
      <acc value="0.0472661736" flag="0"/>
      <vel value="0.0178997191" flag="0"/>
      <psa03 value="0.0961813796" flag="0"/>
      <psa10 value="0.0233185427" flag="0"/>
      <psa30 value="0.0027764563" flag="0"/>
    </comp>
    <comp name="--.HHZ">
      <acc value="0.0705327398" flag="0"/>
      <vel value="0.0300142611" flag="0"/>
      <psa03 value="0.1061038349" flag="0"/>
      <psa10 value="0.0317022418" flag="0"/>
      <psa30 value="0.0016810904" flag="0"/>
    </comp>
  </station>
</stationlist>
