<stationlist xmlns:esm="https://esm-db.eu/esmws/shakemap/1/" created="1784080697">
	<station code="AGRP" name="AGRP" netid="CL" source="Corinth Riff Laboratory (CRLNET)" insttype="" lat="38.3959" lon="21.72277" esm:processing="automatic (Paolucci et al 2011)" esm:quality="best">
		<comp name="00.HNE" depth="0.0">
			<acc value="0.0417581195545031" flag="0"/>
			<vel value="0.0256155926260043" flag="0"/>
			<psa03 value="0.0896562726212384" flag="0"/>
			<psa10 value="0.0264911174065324" flag="0"/>
			<psa30 value="0.00169137485778197" flag="0"/>
		</comp>
		<comp name="00.HNN" depth="0.0">
			<acc value="0.0353667323866171" flag="0"/>
			<vel value="0.0219660449178922" flag="0"/>
			<psa03 value="0.076877795901743" flag="0"/>
			<psa10 value="0.0264735981209549" flag="0"/>
			<psa30 value="0.00223386402419336" flag="0"/>
		</comp>
		<comp name="00.HNZ" depth="0.0">
			<acc value="0.0175216063205905" flag="0"/>
			<vel value="0.0118260956920624" flag="0"/>
			<psa03 value="0.0467037866051274" flag="0"/>
			<psa10 value="0.0116101756796506" flag="0"/>
			<psa30 value="0.00111545868533077" flag="0"/>
		</comp>
	</station>
	<station code="MALA" name="MALA" netid="CL" source="Corinth Riff Laboratory (CRLNET)" insttype="" lat="38.39341" lon="21.87263" esm:processing="automatic (Paolucci et al 2011)" esm:quality="good">
		<comp name="01.HNE" depth="0.0">
			<acc value="0.0748427709296738" flag="0"/>
			<vel value="0.0757497708254511" flag="0"/>
			<psa03 value="0.210539009676297" flag="0"/>
			<psa10 value="0.0932017816606205" flag="0"/>
			<psa30 value="0.00650156569682175" flag="0"/>
		</comp>
		<comp name="01.HNN" depth="0.0">
			<acc value="0.056243672129206" flag="0"/>
			<vel value="0.0356910591475374" flag="0"/>
			<psa03 value="0.173333097050505" flag="0"/>
			<psa10 value="0.0597353184218008" flag="0"/>
			<psa30 value="0.00397732472824431" flag="0"/>
		</comp>
		<comp name="01.HNZ" depth="0.0">
			<acc value="0.0167353597733834" flag="0"/>
			<vel value="0.0131979474665575" flag="0"/>
			<psa03 value="0.0618105217271901" flag="0"/>
			<psa10 value="0.0236205422449893" flag="0"/>
			<psa30 value="0.00144129193684882" flag="0"/>
		</comp>
	</station>
	<station code="TRIZ" name="TRIZ" netid="CL" source="Corinth Riff Laboratory (CRLNET)" insttype="" lat="38.36543" lon="22.07272" esm:processing="automatic (Paolucci et al 2011)" esm:quality="good">
		<comp name="00.HNE" depth="0.0">
			<acc value="0.0244319023895611" flag="0"/>
			<vel value="0.0152036121630253" flag="0"/>
			<psa03 value="0.0912293143278436" flag="0"/>
			<psa10 value="0.0205158784512482" flag="0"/>
			<psa30 value="0.00372301038116419" flag="0"/>
		</comp>
		<comp name="00.HNN" depth="0.0">
			<acc value="0.042102422000344" flag="0"/>
			<vel value="0.0306223150242682" flag="0"/>
			<psa03 value="0.120898373507289" flag="0"/>
			<psa10 value="0.0247662675186587" flag="0"/>
			<psa30 value="0.00515979097749847" flag="0"/>
		</comp>
		<comp name="00.HNZ" depth="0.0">
			<acc value="0.0222425588593433" flag="0"/>
			<vel value="0.0117498908675869" flag="0"/>
			<psa03 value="0.0397213683248803" flag="0"/>
			<psa10 value="0.0148539052483118" flag="0"/>
			<psa30 value="0.0026818072399031" flag="0"/>
		</comp>
	</station>
	<station code="KTHA" name="KTHA" netid="GE" source="GEOFON" insttype="" lat="36.2566" lon="23.0621" esm:processing="automatic (Paolucci et al 2011)" esm:quality="best">
		<comp name="--.HNE" depth="0.0">
			<acc value="0.0228348327188641" flag="0"/>
			<vel value="0.0214406707669724" flag="0"/>
			<psa03 value="0.0633005266825959" flag="0"/>
			<psa10 value="0.0291810712277575" flag="0"/>
			<psa30 value="0.00385593502010375" flag="0"/>
		</comp>
		<comp name="--.HNN" depth="0.0">
			<acc value="0.0121507869949682" flag="0"/>
			<vel value="0.0138187084987412" flag="0"/>
			<psa03 value="0.0438202726696685" flag="0"/>
			<psa10 value="0.0182596614879675" flag="0"/>
			<psa30 value="0.00402960069126771" flag="0"/>
		</comp>
		<comp name="--.HNZ" depth="0.0">
			<acc value="0.00757113589905459" flag="0"/>
			<vel value="0.00877876126331807" flag="0"/>
			<psa03 value="0.0194529266817461" flag="0"/>
			<psa10 value="0.0110300835014072" flag="0"/>
			<psa30 value="0.00289225743119462" flag="0"/>
		</comp>
	</station>
	<station code="KIAS" name="KIAS" netid="HA" source="Hellenic Seismological Network, University of Athens, Seismological Laboratory (HA)" insttype="" lat="37.9875" lon="22.7543" esm:processing="automatic (Paolucci et al 2011)" esm:quality="best">
		<comp name="--.HNE" depth="0.0">
			<acc value="0.0721089563678264" flag="0"/>
			<vel value="0.0717321840664692" flag="0"/>
			<psa03 value="0.220999723480458" flag="0"/>
			<psa10 value="0.114751811744442" flag="0"/>
			<psa30 value="0.00770444788184989" flag="0"/>
		</comp>
		<comp name="--.HNN" depth="0.0">
			<acc value="0.071224520843364" flag="0"/>
			<vel value="0.0562343014866318" flag="0"/>
			<psa03 value="0.176214235828207" flag="0"/>
			<psa10 value="0.110225509399009" flag="0"/>
			<psa30 value="0.00678146840568446" flag="0"/>
		</comp>
		<comp name="--.HNZ" depth="0.0">
			<acc value="0.0365886261532833" flag="0"/>
			<vel value="0.027577245965893" flag="0"/>
			<psa03 value="0.11928109970399" flag="0"/>
			<psa10 value="0.0474961576375142" flag="0"/>
			<psa30 value="0.00296160723361229" flag="0"/>
		</comp>
	</station>
	<station code="AGR3" name="AGR3" netid="HI" source="ITSAK Strong Motion Network" insttype="" lat="38.5893" lon="21.4162" esm:processing="manual (Paolucci et al 2011)" esm:quality="good">
		<comp name="--.HNE" depth="0.0">
			<acc value="0.0373399309927874" flag="0"/>
			<vel value="0.0235029117717807" flag="0"/>
			<psa03 value="0.100285299658928" flag="0"/>
			<psa10 value="0.0499731817280338" flag="0"/>
			<psa30 value="0.00408751536116552" flag="0"/>
		</comp>
		<comp name="--.HNN" depth="0.0">
			<acc value="0.0319343199095816" flag="0"/>
			<vel value="0.0246103892268323" flag="0"/>
			<psa03 value="0.0883348100809764" flag="0"/>
			<psa10 value="0.0390363284651804" flag="0"/>
			<psa30 value="0.00482394372926404" flag="0"/>
		</comp>
		<comp name="--.HNZ" depth="0.0">
			<acc value="0.0142638321373058" flag="0"/>
			<vel value="0.0192600165581287" flag="0"/>
			<psa03 value="0.0358912031368963" flag="0"/>
			<psa10 value="0.0273123674353004" flag="0"/>
			<psa30 value="0.00253008156381994" flag="0"/>
		</comp>
	</station>
	<station code="AIG2" name="AIG2" netid="HI" source="ITSAK Strong Motion Network" insttype="" lat="38.2417" lon="22.0726" esm:processing="automatic (Paolucci et al 2011)" esm:quality="best">
		<comp name="--.HNE" depth="0.0">
			<acc value="0.0698634195377704" flag="0"/>
			<vel value="0.044521473360466" flag="0"/>
			<psa03 value="0.205633934739078" flag="0"/>
			<psa10 value="0.0425534727088362" flag="0"/>
			<psa30 value="0.00458273816725637" flag="0"/>
		</comp>
		<comp name="--.HNN" depth="0.0">
			<acc value="0.0687671091155185" flag="0"/>
			<vel value="0.0481017454024896" flag="0"/>
			<psa03 value="0.187320450727278" flag="0"/>
			<psa10 value="0.032709539346457" flag="0"/>
			<psa30 value="0.00484424340737342" flag="0"/>
		</comp>
		<comp name="--.HNZ" depth="0.0">
			<acc value="0.040522599951588" flag="0"/>
			<vel value="0.0226769030475935" flag="0"/>
			<psa03 value="0.117865641353777" flag="0"/>
			<psa10 value="0.0279438361419848" flag="0"/>
			<psa30 value="0.00297196354466787" flag="0"/>
		</comp>
	</station>
	<station code="AKR1" name="AKR1" netid="HI" source="ITSAK Strong Motion Network" insttype="" lat="38.153583" lon="22.31326" esm:processing="automatic (Paolucci et al 2011)" esm:quality="best">
		<comp name="--.HNE" depth="0.0">
			<acc value="0.141131063244612" flag="0"/>
			<vel value="0.0868476942383459" flag="0"/>
			<psa03 value="0.458609755646763" flag="0"/>
			<psa10 value="0.117930897343255" flag="0"/>
			<psa30 value="0.00600001913850362" flag="0"/>
		</comp>
		<comp name="--.HNN" depth="0.0">
			<acc value="0.136810089377132" flag="0"/>
			<vel value="0.061797729039677" flag="0"/>
			<psa03 value="0.440017690679115" flag="0"/>
			<psa10 value="0.0682105161118876" flag="0"/>
			<psa30 value="0.003368182083867" flag="0"/>
		</comp>
		<comp name="--.HNZ" depth="0.0">
			<acc value="0.0737053735970463" flag="0"/>
			<vel value="0.0283617131297766" flag="0"/>
			<psa03 value="0.126227684881326" flag="0"/>
			<psa10 value="0.0424117733217832" flag="0"/>
			<psa30 value="0.00281060806398888" flag="0"/>
		</comp>
	</station>
	<station code="AOL1" name="AOL1" netid="HI" source="ITSAK Strong Motion Network" insttype="" lat="37.642378" lon="21.624555" esm:processing="automatic (Paolucci et al 2011)" esm:quality="best">
		<comp name="--.HNE" depth="0.0">
			<acc value="0.490436495476412" flag="0"/>
			<vel value="0.194345049858114" flag="0"/>
			<psa03 value="1.04260331735135" flag="0"/>
			<psa10 value="0.165871823194151" flag="0"/>
			<psa30 value="0.0108931457841189" flag="0"/>
		</comp>
		<comp name="--.HNN" depth="0.0">
			<acc value="0.443864388807083" flag="0"/>
			<vel value="0.184098074113606" flag="0"/>
			<psa03 value="0.737342845345481" flag="0"/>
			<psa10 value="0.255168073632657" flag="0"/>
			<psa30 value="0.00938293157316888" flag="0"/>
		</comp>
		<comp name="--.HNZ" depth="0.0">
			<acc value="0.200189715072958" flag="0"/>
			<vel value="0.0945955402676346" flag="0"/>
			<psa03 value="0.417736422988061" flag="0"/>
			<psa10 value="0.093774737116089" flag="0"/>
			<psa30 value="0.00549469066293491" flag="0"/>
		</comp>
	</station>
	<station code="ARE2" name="ARE2" netid="HI" source="ITSAK Strong Motion Network" insttype="" lat="36.66629" lon="22.382635" esm:processing="automatic (Paolucci et al 2011)" esm:quality="best">
		<comp name="--.HNE" depth="0.0">
			<acc value="0.0861516123233486" flag="0"/>
			<vel value="0.0518481879317063" flag="0"/>
			<psa03 value="0.207584897313951" flag="0"/>
			<psa10 value="0.0647783187456866" flag="0"/>
			<psa30 value="0.00367225243536895" flag="0"/>
		</comp>
		<comp name="--.HNN" depth="0.0">
			<acc value="0.0712917950898117" flag="0"/>
			<vel value="0.0324760969105211" flag="0"/>
			<psa03 value="0.183637644259351" flag="0"/>
			<psa10 value="0.0380149258022854" flag="0"/>
			<psa30 value="0.00344537178063914" flag="0"/>
		</comp>
		<comp name="--.HNZ" depth="0.0">
			<acc value="0.0481018666774147" flag="0"/>
			<vel value="0.0232958555121328" flag="0"/>
			<psa03 value="0.0881552669370748" flag="0"/>
			<psa10 value="0.0364255967670127" flag="0"/>
			<psa30 value="0.00244506259839758" flag="0"/>
		</comp>
	</station>
	<station code="ARS1" name="ARS1" netid="HI" source="ITSAK Strong Motion Network" insttype="" lat="37.6349" lon="22.7293" esm:processing="automatic (Paolucci et al 2011)" esm:quality="best">
		<comp name="--.HNE" depth="0.0">
			<acc value="0.0673370169008556" flag="0"/>
			<vel value="0.0511071151115038" flag="0"/>
			<psa03 value="0.253522690467134" flag="0"/>
			<psa10 value="0.0465531651686572" flag="0"/>
			<psa30 value="0.00306543056973214" flag="0"/>
		</comp>
		<comp name="--.HNN" depth="0.0">
			<acc value="0.0660275892090251" flag="0"/>
			<vel value="0.0478175753218883" flag="0"/>
			<psa03 value="0.26488365140855" flag="0"/>
			<psa10 value="0.0458825869963232" flag="0"/>
			<psa30 value="0.0031077673326661" flag="0"/>
		</comp>
		<comp name="--.HNZ" depth="0.0">
			<acc value="0.0385868107441051" flag="0"/>
			<vel value="0.0218790435773735" flag="0"/>
			<psa03 value="0.129440928993172" flag="0"/>
			<psa10 value="0.0121501120728012" flag="0"/>
			<psa30 value="0.00291853875553511" flag="0"/>
		</comp>
	</station>
	<station code="AST1" name="AST1" netid="HI" source="ITSAK Strong Motion Network" insttype="" lat="38.5416" lon="21.0895" esm:processing="automatic (Paolucci et al 2011)" esm:quality="best">
		<comp name="--.HNE" depth="0.0">
			<acc value="0.0277088441664154" flag="0"/>
			<vel value="0.0210052403214267" flag="0"/>
			<psa03 value="0.104237498972789" flag="0"/>
			<psa10 value="0.0278782855495866" flag="0"/>
			<psa30 value="0.00202447036122591" flag="0"/>
		</comp>
		<comp name="--.HNN" depth="0.0">
			<acc value="0.0245680073431086" flag="0"/>
			<vel value="0.0207949905811893" flag="0"/>
			<psa03 value="0.0547876762895127" flag="0"/>
			<psa10 value="0.0175322164232804" flag="0"/>
			<psa30 value="0.00124663477093445" flag="0"/>
		</comp>
		<comp name="--.HNZ" depth="0.0">
			<acc value="0.0128558941026582" flag="0"/>
			<vel value="0.0117136094748327" flag="0"/>
			<psa03 value="0.0426280739006845" flag="0"/>
			<psa10 value="0.0134903074166691" flag="0"/>
			<psa30 value="0.00103505106705489" flag="0"/>
		</comp>
	</station>
	<station code="GTH2" name="GTH2" netid="HI" source="ITSAK Strong Motion Network" insttype="" lat="36.7603" lon="22.5659" esm:processing="manual (Paolucci et al 2011)" esm:quality="good">
		<comp name="--.HNE" depth="0.0">
			<acc value="0.494792287486528" flag="0"/>
			<vel value="0.329040719395054" flag="0"/>
			<psa03 value="1.84895381744954" flag="0"/>
			<psa10 value="0.203615358518209" flag="0"/>
			<psa30 value="0.0143711403508517" flag="0"/>
		</comp>
		<comp name="--.HNN" depth="0.0">
			<acc value="0.631979815858037" flag="0"/>
			<vel value="0.383435974813958" flag="0"/>
			<psa03 value="1.6192817694702" flag="0"/>
			<psa10 value="0.204163224811663" flag="0"/>
			<psa30 value="0.0146392964482104" flag="0"/>
		</comp>
		<comp name="--.HNZ" depth="0.0">
			<acc value="0.162089829746344" flag="0"/>
			<vel value="0.0990858088189059" flag="0"/>
			<psa03 value="0.43396203952201" flag="0"/>
			<psa10 value="0.0849418744823113" flag="0"/>
			<psa30 value="0.00601230453566863" flag="0"/>
		</comp>
	</station>
	<station code="KAC1" name="KAC1" netid="HI" source="ITSAK Strong Motion Network" insttype="" lat="38.143412" lon="21.549694" esm:processing="automatic (Paolucci et al 2011)" esm:quality="best">
		<comp name="--.HNE" depth="0.0">
			<acc value="0.153177966370017" flag="0"/>
			<vel value="0.0935329029633902" flag="0"/>
			<psa03 value="0.405076167641393" flag="0"/>
			<psa10 value="0.0823288663833412" flag="0"/>
			<psa30 value="0.00970718972032701" flag="0"/>
		</comp>
		<comp name="--.HNN" depth="0.0">
			<acc value="0.158642487670317" flag="0"/>
			<vel value="0.0924020673538915" flag="0"/>
			<psa03 value="0.50614152939035" flag="0"/>
			<psa10 value="0.0974222287446251" flag="0"/>
			<psa30 value="0.00837979678708653" flag="0"/>
		</comp>
		<comp name="--.HNZ" depth="0.0">
			<acc value="0.0574999985524775" flag="0"/>
			<vel value="0.0375820637656774" flag="0"/>
			<psa03 value="0.155801841940804" flag="0"/>
			<psa10 value="0.0864119493674994" flag="0"/>
			<psa30 value="0.00447017321037213" flag="0"/>
		</comp>
	</station>
	<station code="KLV1" name="KLV1" netid="HI" source="ITSAK Strong Motion Network" insttype="" lat="38.03256" lon="22.10797" esm:processing="automatic (Paolucci et al 2011)" esm:quality="best">
		<comp name="--.HNE" depth="0.0">
			<acc value="0.179254401431536" flag="0"/>
			<vel value="0.0702985882012018" flag="0"/>
			<psa03 value="0.398070745233286" flag="0"/>
			<psa10 value="0.0567108480654641" flag="0"/>
			<psa30 value="0.00312845578650927" flag="0"/>
		</comp>
		<comp name="--.HNN" depth="0.0">
			<acc value="0.135411784002966" flag="0"/>
			<vel value="0.0728667549320157" flag="0"/>
			<psa03 value="0.390415488110201" flag="0"/>
			<psa10 value="0.0703682365502959" flag="0"/>
			<psa30 value="0.00295716652276928" flag="0"/>
		</comp>
		<comp name="--.HNZ" depth="0.0">
			<acc value="0.0654022436173105" flag="0"/>
			<vel value="0.029952841617278" flag="0"/>
			<psa03 value="0.127740993463823" flag="0"/>
			<psa10 value="0.0481825618583877" flag="0"/>
			<psa30 value="0.00267673023690951" flag="0"/>
		</comp>
	</station>
	<station code="KMV1" name="KMV1" netid="HI" source="ITSAK Strong Motion Network" insttype="" lat="38.7794" lon="22.7846" esm:processing="manual (Paolucci et al 2011)" esm:quality="good">
		<comp name="--.HNE" depth="0.0">
			<acc value="0.0201023504675706" flag="0"/>
			<vel value="0.0172084243237966" flag="0"/>
			<psa03 value="0.0643097549973193" flag="0"/>
			<psa10 value="0.0491747350848623" flag="0"/>
			<psa30 value="0.00205694292904076" flag="0"/>
		</comp>
		<comp name="--.HNN" depth="0.0">
			<acc value="0.0211199325266401" flag="0"/>
			<vel value="0.0208565785501791" flag="0"/>
			<psa03 value="0.0684087504939875" flag="0"/>
			<psa10 value="0.0330994039230664" flag="0"/>
			<psa30 value="0.002463999894567" flag="0"/>
		</comp>
		<comp name="--.HNZ" depth="0.0">
			<acc value="0.0105186109998226" flag="0"/>
			<vel value="0.00837028055504786" flag="0"/>
			<psa03 value="0.0341792876475634" flag="0"/>
			<psa10 value="0.0125162947681016" flag="0"/>
			<psa30 value="0.0008862420425192" flag="0"/>
		</comp>
	</station>
	<station code="KOR2" name="KOR2" netid="HI" source="ITSAK Strong Motion Network" insttype="" lat="37.9401" lon="22.9495" esm:processing="manual (Paolucci et al 2011)" esm:quality="good">
		<comp name="--.HNE" depth="0.0">
			<acc value="0.0655878660736931" flag="0"/>
			<vel value="0.0441672771729534" flag="0"/>
			<psa03 value="0.206014730798181" flag="0"/>
			<psa10 value="0.0624972076332853" flag="0"/>
			<psa30 value="0.00344764463953721" flag="0"/>
		</comp>
		<comp name="--.HNN" depth="0.0">
			<acc value="0.0745741534703561" flag="0"/>
			<vel value="0.0405172725945698" flag="0"/>
			<psa03 value="0.245585289653503" flag="0"/>
			<psa10 value="0.0420102567233323" flag="0"/>
			<psa30 value="0.00325708597429418" flag="0"/>
		</comp>
		<comp name="--.HNZ" depth="0.0">
			<acc value="0.045599961599862" flag="0"/>
			<vel value="0.0237779351406928" flag="0"/>
			<psa03 value="0.127035530063742" flag="0"/>
			<psa10 value="0.027270784680647" flag="0"/>
			<psa30 value="0.00184261456417179" flag="0"/>
		</comp>
	</station>
	<station code="KYP2" name="KYP2" netid="HI" source="ITSAK Strong Motion Network" insttype="" lat="37.2497" lon="21.667" esm:processing="automatic (Paolucci et al 2011)" esm:quality="best">
		<comp name="--.HNE" depth="0.0">
			<acc value="1.82132966994677" flag="0"/>
			<vel value="0.362337772894015" flag="0"/>
			<psa03 value="0.829542203098113" flag="0"/>
			<psa10 value="0.247881265917526" flag="0"/>
			<psa30 value="0.0137046011959225" flag="0"/>
		</comp>
		<comp name="--.HNN" depth="0.0">
			<acc value="2.78539579798094" flag="0"/>
			<vel value="0.533360494126527" flag="0"/>
			<psa03 value="1.63378089663403" flag="0"/>
			<psa10 value="0.174918832514277" flag="0"/>
			<psa30 value="0.0199168743951858" flag="0"/>
		</comp>
		<comp name="--.HNZ" depth="0.0">
			<acc value="2.5594133658374" flag="0"/>
			<vel value="0.40228303566758" flag="0"/>
			<psa03 value="0.790032419102979" flag="0"/>
			<psa10 value="0.117598917851042" flag="0"/>
			<psa30 value="0.00631957530752641" flag="0"/>
		</comp>
	</station>
	<station code="LEF2" name="LEF2" netid="HI" source="ITSAK Strong Motion Network" insttype="" lat="38.830093" lon="20.708346" esm:processing="manual (Paolucci et al 2011)" esm:quality="good">
		<comp name="--.HNE" depth="0.0">
			<acc value="0.0289216480150042" flag="0"/>
			<vel value="0.0314489923527719" flag="0"/>
			<psa03 value="0.0723784509671615" flag="0"/>
			<psa10 value="0.0418099672051346" flag="0"/>
			<psa30 value="0.00285196080340653" flag="0"/>
		</comp>
		<comp name="--.HNN" depth="0.0">
			<acc value="0.025658149006177" flag="0"/>
			<vel value="0.0302956843416534" flag="0"/>
			<psa03 value="0.066218657494408" flag="0"/>
			<psa10 value="0.0404140234807138" flag="0"/>
			<psa30 value="0.00369618735427227" flag="0"/>
		</comp>
		<comp name="--.HNZ" depth="0.0">
			<acc value="0.0207211075880392" flag="0"/>
			<vel value="0.0182680140597989" flag="0"/>
			<psa03 value="0.0354341233784388" flag="0"/>
			<psa10 value="0.0467719396614578" flag="0"/>
			<psa30 value="0.00218663318705054" flag="0"/>
		</comp>
	</station>
