<?xml version="1.0" encoding="UTF-8" standalone="yes"?>
<!DOCTYPE earthquake SYSTEM "stationlist.dtd">
<stationlist created="" xmlns="ch.ethz.sed.shakemap.usgs.xml">
  <station code="BEHE" name="BEHE" netid="HU" insttype="" lat="46.4703" lon="16.7755">
    <comp name="--.HHE">
      <acc value="0.0106116523" flag="0"/>
      <vel value="0.0047038125" flag="0"/>
      <psa03 value="0.0233053850" flag="0"/>
      <psa10 value="0.0042577474" flag="0"/>
      <psa30 value="0.0002012213" flag="0"/>
    </comp>
    <comp name="--.HHN">
      <acc value="0.0101834029" flag="0"/>
      <vel value="0.0068450759" flag="0"/>
      <psa03 value="0.0266062041" flag="0"/>
      <psa10 value="0.0062850552" flag="0"/>
      <psa30 value="0.0003390428" flag="0"/>
    </comp>
    <comp name="--.HHZ">
      <acc value="0.0176624576" flag="0"/>
      <vel value="0.0055684735" flag="0"/>
      <psa03 value="0.0340563370" flag="0"/>
      <psa10 value="0.0018974406" flag="0"/>
      <psa30 value="0.0001222303" flag="0"/>
    </comp>
  </station>
  <station code="BLY" name="BLY" netid="MN" insttype="" lat="44.7488" lon="17.1839">
    <comp name="--.HHZ">
      <acc value="0.0091823775" flag="0"/>
      <vel value="0.0039040578" flag="0"/>
      <psa03 value="0.0209790353" flag="0"/>
      <psa10 value="0.0024932845" flag="0"/>
      <psa30 value="0.0001372550" flag="0"/>
    </comp>
    <comp name="--.HHN">
      <acc value="0.0110869696" flag="0"/>
      <vel value="0.0040640892" flag="0"/>
      <psa03 value="0.0242981899" flag="0"/>
      <psa10 value="0.0018410196" flag="0"/>
      <psa30 value="0.0002114090" flag="0"/>
    </comp>
    <comp name="--.HHE">
      <acc value="0.0129064062" flag="0"/>
      <vel value="0.0045291340" flag="0"/>
      <psa03 value="0.0258479453" flag="0"/>
      <psa10 value="0.0026165987" flag="0"/>
      <psa30 value="0.0002303912" flag="0"/>
    </comp>
  </station>
</stationlist>
