<?xml version="1.0" encoding="UTF-8" standalone="yes"?>
<!DOCTYPE earthquake SYSTEM "stationlist.dtd">
<stationlist created="" xmlns="ch.ethz.sed.shakemap.usgs.xml">
  <station code="ARPRA" name="ARPRA" netid="KO" insttype="CMG-5T" lat="39.0929" lon="38.3356">
    <comp name="--.HNE">
      <acc value="0.0182650690" flag="0"/>
      <vel value="0.0100649460" flag="0"/>
      <psa03 value="0.0420650238" flag="0"/>
      <psa10 value="0.0094166427" flag="0"/>
      <psa30 value="0.0011672077" flag="0"/>
    </comp>
    <comp name="--.HNN">
      <acc value="0.0241467030" flag="0"/>
      <vel value="0.0102825237" flag="0"/>
      <psa03 value="0.0429031993" flag="0"/>
      <psa10 value="0.0178800476" flag="0"/>
      <psa30 value="0.0007591545" flag="0"/>
    </comp>
    <comp name="--.HNZ">
      <acc value="0.0103209454" flag="0"/>
      <vel value="0.0050013535" flag="0"/>
      <psa03 value="0.0229020475" flag="0"/>
      <psa10 value="0.0063455656" flag="0"/>
      <psa30 value="0.0005134979" flag="0"/>
    </comp>
  </station>
  <station code="DARE" name="DARE" netid="KO" insttype="CMG-3ESP" lat="38.5712" lon="37.4832">
    <comp name="--.HHN">
      <acc value="0.0447875277" flag="0"/>
      <vel value="0.0169489359" flag="0"/>
      <psa03 value="0.0516503073" flag="0"/>
      <psa10 value="0.0084496097" flag="0"/>
      <psa30 value="0.0010571611" flag="0"/>
    </comp>
    <comp name="--.HHZ">
      <acc value="0.0303873634" flag="0"/>
      <vel value="0.0082666074" flag="0"/>
      <psa03 value="0.0420584994" flag="0"/>
      <psa10 value="0.0055175057" flag="0"/>
      <psa30 value="0.0009034699" flag="0"/>
    </comp>
    <comp name="--.HHE">
      <acc value="0.0466279827" flag="0"/>
      <vel value="0.0156302814" flag="0"/>
      <psa03 value="0.0655115100" flag="0"/>
      <psa10 value="0.0125722699" flag="0"/>
      <psa30 value="0.0008028961" flag="0"/>
    </comp>
  </station>
  <station code="GAZ" name="GAZ" netid="KO" insttype="CMG-3T" lat="37.1721" lon="37.2096">
    <comp name="--.HHN">
      <acc value="0.0128566333" flag="0"/>
      <vel value="0.0050392636" flag="0"/>
      <psa03 value="0.0312017781" flag="0"/>
      <psa10 value="0.0053490368" flag="0"/>
      <psa30 value="0.0003016683" flag="0"/>
    </comp>
    <comp name="--.HHZ">
      <acc value="0.0131527609" flag="0"/>
      <vel value="0.0043565110" flag="0"/>
      <psa03 value="0.0251720005" flag="0"/>
      <psa10 value="0.0040996441" flag="0"/>
      <psa30 value="0.0004736676" flag="0"/>
    </comp>
    <comp name="--.HHE">
      <acc value="0.0158077922" flag="0"/>
      <vel value="0.0080331337" flag="0"/>
      <psa03 value="0.0447382136" flag="0"/>
      <psa10 value="0.0067770354" flag="0"/>
      <psa30 value="0.0004072772" flag="0"/>
    </comp>
  </station>
  <station code="KHMN" name="KHMN" netid="KO" insttype="CMG-5T" lat="37.3916" lon="37.1574">
    <comp name="--.HNE">
      <acc value="0.0343944498" flag="0"/>
      <vel value="0.0142432562" flag="0"/>
      <psa03 value="0.0363360671" flag="0"/>
      <psa10 value="0.0062055542" flag="0"/>
      <psa30 value="0.0005183100" flag="0"/>
    </comp>
    <comp name="--.HNZ">
      <acc value="0.0175684590" flag="0"/>
      <vel value="0.0041495008" flag="0"/>
      <psa03 value="0.0202032536" flag="0"/>
      <psa10 value="0.0034940334" flag="0"/>
      <psa30 value="0.0006688746" flag="0"/>
    </comp>
    <comp name="--.HNN">
      <acc value="0.0335696435" flag="0"/>
      <vel value="0.0075741653" flag="0"/>
      <psa03 value="0.0430707843" flag="0"/>
      <psa10 value="0.0037709780" flag="0"/>
      <psa30 value="0.0007633758" flag="0"/>
    </comp>
  </station>
  <station code="KMRS" name="KMRS" netid="KO" insttype="CMG-3T" lat="37.5053" lon="36.9">
    <comp name="--.HHE">
      <acc value="0.0208159145" flag="0"/>
      <vel value="0.0122706578" flag="0"/>
      <psa03 value="0.0769211723" flag="0"/>
      <psa10 value="0.0099842745" flag="0"/>
      <psa30 value="0.0006240131" flag="0"/>
    </comp>
    <comp name="--.HHZ">
      <acc value="0.0197259666" flag="0"/>
      <vel value="0.0075589536" flag="0"/>
      <psa03 value="0.0490675448" flag="0"/>
      <psa10 value="0.0062241511" flag="0"/>
      <psa30 value="0.0004098849" flag="0"/>
    </comp>
    <comp name="--.HHN">
      <acc value="0.0247459401" flag="0"/>
      <vel value="0.0149327702" flag="0"/>
      <psa03 value="0.0837520046" flag="0"/>
      <psa10 value="0.0100787074" flag="0"/>
      <psa30 value="0.0010227951" flag="0"/>
    </comp>
  </station>
</stationlist>
