<?xml version="1.0" encoding="UTF-8" standalone="yes"?>
<!DOCTYPE earthquake SYSTEM "stationlist.dtd">
<stationlist created="" xmlns="ch.ethz.sed.shakemap.usgs.xml">
  <station code="DARE" name="DARE" netid="KO" insttype="CMG-3ESP" lat="38.5712" lon="37.4832">
    <comp name="--.HHN">
      <acc value="0.0447875277" flag="0"/>
      <vel value="0.0169489364" flag="0"/>
      <psa03 value="0.0516503073" flag="0"/>
      <psa10 value="0.0084496098" flag="0"/>
      <psa30 value="0.0010571582" flag="0"/>
    </comp>
    <comp name="--.HHZ">
      <acc value="0.0303873634" flag="0"/>
      <vel value="0.0082666073" flag="0"/>
      <psa03 value="0.0420584994" flag="0"/>
      <psa10 value="0.0055175057" flag="0"/>
      <psa30 value="0.0009034679" flag="0"/>
    </comp>
    <comp name="--.HHE">
      <acc value="0.0466279826" flag="0"/>
      <vel value="0.0156302837" flag="0"/>
      <psa03 value="0.0655115100" flag="0"/>
      <psa10 value="0.0125722700" flag="0"/>
      <psa30 value="0.0008028512" flag="0"/>
    </comp>
  </station>
  <station code="GAZ" name="GAZ" netid="KO" insttype="CMG-3T" lat="37.1721" lon="37.2096">
    <comp name="--.HHE">
      <acc value="0.0158077924" flag="0"/>
      <vel value="0.0080331345" flag="0"/>
      <psa03 value="0.0447382136" flag="0"/>
      <psa10 value="0.0067770354" flag="0"/>
      <psa30 value="0.0004072663" flag="0"/>
    </comp>
    <comp name="--.HHN">
      <acc value="0.0128566328" flag="0"/>
      <vel value="0.0050392655" flag="0"/>
      <psa03 value="0.0312017781" flag="0"/>
      <psa10 value="0.0053490367" flag="0"/>
      <psa30 value="0.0003016991" flag="0"/>
    </comp>
    <comp name="--.HHZ">
      <acc value="0.0131527608" flag="0"/>
      <vel value="0.0043565115" flag="0"/>
      <psa03 value="0.0251720005" flag="0"/>
      <psa10 value="0.0040996441" flag="0"/>
      <psa30 value="0.0004736652" flag="0"/>
    </comp>
  </station>
  <station code="KHMN" name="KHMN" netid="KO" insttype="CMG-5T" lat="37.3916" lon="37.1574">
    <comp name="--.HNN">
      <acc value="0.0335696443" flag="0"/>
      <vel value="0.0075741648" flag="0"/>
      <psa03 value="0.0430707843" flag="0"/>
      <psa10 value="0.0037709781" flag="0"/>
      <psa30 value="0.0007633489" flag="0"/>
    </comp>
    <comp name="--.HNZ">
      <acc value="0.0175684543" flag="0"/>
      <vel value="0.0041495003" flag="0"/>
      <psa03 value="0.0202032536" flag="0"/>
      <psa10 value="0.0034940365" flag="0"/>
      <psa30 value="0.0006689889" flag="0"/>
    </comp>
    <comp name="--.HNE">
      <acc value="0.0343944488" flag="0"/>
      <vel value="0.0142432548" flag="0"/>
      <psa03 value="0.0363360671" flag="0"/>
      <psa10 value="0.0062055541" flag="0"/>
      <psa30 value="0.0005183935" flag="0"/>
    </comp>
  </station>
  <station code="KMRS" name="KMRS" netid="KO" insttype="CMG-3T" lat="37.5053" lon="36.9">
    <comp name="--.HHE">
      <acc value="0.0208159145" flag="0"/>
      <vel value="0.0122706574" flag="0"/>
      <psa03 value="0.0769211723" flag="0"/>
      <psa10 value="0.0099842745" flag="0"/>
      <psa30 value="0.0006240188" flag="0"/>
    </comp>
    <comp name="--.HHN">
      <acc value="0.0247459400" flag="0"/>
      <vel value="0.0149327698" flag="0"/>
      <psa03 value="0.0837520046" flag="0"/>
      <psa10 value="0.0100787074" flag="0"/>
      <psa30 value="0.0010227773" flag="0"/>
    </comp>
    <comp name="--.HHZ">
      <acc value="0.0197259666" flag="0"/>
      <vel value="0.0075589538" flag="0"/>
      <psa03 value="0.0490675448" flag="0"/>
      <psa10 value="0.0062241511" flag="0"/>
      <psa30 value="0.0004098817" flag="0"/>
    </comp>
  </station>
  <station code="SARI" name="SARI" netid="KO" insttype="CMG-3T" lat="38.4072" lon="36.4181">
    <comp name="--.HHE">
      <acc value="0.0225588811" flag="0"/>
      <vel value="0.0082607496" flag="0"/>
      <psa03 value="0.0382040484" flag="0"/>
      <psa10 value="0.0102737173" flag="0"/>
      <psa30 value="0.0004130025" flag="0"/>
    </comp>
    <comp name="--.HHN">
      <acc value="0.0205982987" flag="0"/>
      <vel value="0.0101934294" flag="0"/>
      <psa03 value="0.0431446967" flag="0"/>
      <psa10 value="0.0070222367" flag="0"/>
      <psa30 value="0.0005330465" flag="0"/>
    </comp>
    <comp name="--.HHZ">
      <acc value="0.0190719965" flag="0"/>
      <vel value="0.0079739842" flag="0"/>
      <psa03 value="0.0546275737" flag="0"/>
      <psa10 value="0.0080962648" flag="0"/>
      <psa30 value="0.0004099060" flag="0"/>
    </comp>
  </station>
</stationlist>
