<?xml version="1.0" encoding="UTF-8" standalone="yes"?>
<!DOCTYPE earthquake SYSTEM "stationlist.dtd">
<stationlist created="" xmlns="ch.ethz.sed.shakemap.usgs.xml">
  <station code="APE" name="APE" netid="GE" insttype="STS-2/N" lat="37.0727" lon="25.523">
    <comp name="--.HHE">
      <acc value="0.1600995807" flag="0"/>
      <vel value="0.0302862975" flag="0"/>
      <psa03 value="0.1004600112" flag="0"/>
      <psa10 value="0.0080967902" flag="0"/>
      <psa30 value="0.0014362217" flag="0"/>
    </comp>
    <comp name="--.HHZ">
      <acc value="0.0671136595" flag="0"/>
      <vel value="0.0104799567" flag="0"/>
      <psa03 value="0.0453599207" flag="0"/>
      <psa10 value="0.0074778180" flag="0"/>
      <psa30 value="0.0020314172" flag="0"/>
    </comp>
    <comp name="--.HHN">
      <acc value="0.1884442505" flag="0"/>
      <vel value="0.0352400246" flag="0"/>
      <psa03 value="0.0812498812" flag="0"/>
      <psa10 value="0.0080428569" flag="0"/>
      <psa30 value="0.0017454974" flag="0"/>
    </comp>
  </station>
  <station code="THERA" name="THERA" netid="GE" insttype="STS-2/N" lat="36.367" lon="25.4753">
    <comp name="--.HHE">
      <acc value="0.1813678203" flag="0"/>
      <vel value="0.0425825972" flag="0"/>
      <psa03 value="0.1718148695" flag="0"/>
      <psa10 value="0.0185031129" flag="0"/>
      <psa30 value="0.0018262009" flag="0"/>
    </comp>
    <comp name="--.HHZ">
      <acc value="0.1781084441" flag="0"/>
      <vel value="0.0293526274" flag="0"/>
      <psa03 value="0.1006479399" flag="0"/>
      <psa10 value="0.0081734542" flag="0"/>
      <psa30 value="0.0015966806" flag="0"/>
    </comp>
    <comp name="--.HHN">
      <acc value="0.1170286318" flag="0"/>
      <vel value="0.0262533661" flag="0"/>
      <psa03 value="0.1269394983" flag="0"/>
      <psa10 value="0.0134378128" flag="0"/>
      <psa30 value="0.0007100033" flag="0"/>
    </comp>
  </station>
  <station code="SNT1" name="SNT1" netid="HA" insttype="30" lat="36.4159" lon="25.4282">
    <comp name="--.HHZ">
      <acc value="0.1845854414" flag="0"/>
      <vel value="0.0297335230" flag="0"/>
      <psa03 value="0.0605085660" flag="0"/>
      <psa10 value="0.0300533036" flag="0"/>
      <psa30 value="0.0022214800" flag="0"/>
    </comp>
    <comp name="--.HHE">
      <acc value="0.1227767281" flag="0"/>
      <vel value="0.0339417926" flag="0"/>
      <psa03 value="0.1073330267" flag="0"/>
      <psa10 value="0.0425333664" flag="0"/>
      <psa30 value="0.0048164713" flag="0"/>
    </comp>
    <comp name="--.HHN">
      <acc value="0.1826418162" flag="0"/>
      <vel value="0.0274267181" flag="0"/>
      <psa03 value="0.0614938603" flag="0"/>
      <psa10 value="0.0454537872" flag="0"/>
      <psa30 value="0.0022495922" flag="0"/>
    </comp>
  </station>
  <station code="NAX1" name="NAX1" netid="HI" insttype="CMG-5TD,ACCELEROMETER,GURALP" lat="37.1014" lon="25.3741">
    <comp name="--.HNN">
      <acc value="0.1326704235" flag="0"/>
      <vel value="0.0232854700" flag="0"/>
      <psa03 value="0.0744089712" flag="0"/>
      <psa10 value="0.0034967094" flag="0"/>
      <psa30 value="0.0013663361" flag="0"/>
    </comp>
    <comp name="--.HNZ">
      <acc value="0.0530640632" flag="0"/>
      <vel value="0.0105678417" flag="0"/>
      <psa03 value="0.0484097716" flag="0"/>
      <psa10 value="0.0055741708" flag="0"/>
      <psa30 value="0.0020990238" flag="0"/>
    </comp>
  </station>
  <station code="AMGA" name="AMGA" netid="HL" insttype="SMART24" lat="36.8316" lon="25.8938">
    <comp name="--.HHE">
      <acc value="0.9215611030" flag="0"/>
      <vel value="0.1699141657" flag="0"/>
      <psa03 value="0.3616641744" flag="0"/>
      <psa10 value="0.0338972777" flag="0"/>
      <psa30 value="0.0030574736" flag="0"/>
    </comp>
    <comp name="--.HHN">
      <acc value="1.2302453924" flag="0"/>
      <vel value="0.1861831446" flag="0"/>
      <psa03 value="0.2403475772" flag="0"/>
      <psa10 value="0.0526010096" flag="0"/>
      <psa30 value="0.0048890237" flag="0"/>
    </comp>
    <comp name="--.HHZ">
      <acc value="0.9925639315" flag="0"/>
      <vel value="0.1986322650" flag="0"/>
      <psa03 value="0.3611924633" flag="0"/>
      <psa10 value="0.0340401634" flag="0"/>
      <psa30 value="0.0027759960" flag="0"/>
    </comp>
  </station>
  <station code="APE" name="APE" netid="HL" insttype="120" lat="37.0727" lon="25.523">
    <comp name="--.HHE">
      <acc value="0.1278528370" flag="0"/>
      <vel value="0.0282477964" flag="0"/>
      <psa03 value="0.0968128854" flag="0"/>
      <psa10 value="0.0079863638" flag="0"/>
      <psa30 value="0.0014338702" flag="0"/>
    </comp>
    <comp name="--.HHN">
      <acc value="0.1759141983" flag="0"/>
      <vel value="0.0341190973" flag="0"/>
      <psa03 value="0.0782226057" flag="0"/>
      <psa10 value="0.0079329748" flag="0"/>
      <psa30 value="0.0017359723" flag="0"/>
    </comp>
    <comp name="--.HHZ">
      <acc value="0.0591995120" flag="0"/>
      <vel value="0.0100447789" flag="0"/>
      <psa03 value="0.0440569356" flag="0"/>
      <psa10 value="0.0074005820" flag="0"/>
      <psa30 value="0.0020292331" flag="0"/>
    </comp>
  </station>
  <station code="SAP3" name="SAP3" netid="HL" insttype="LE3D20_SMART24" lat="36.4356" lon="25.3454">
    <comp name="--.HHE">
      <acc value="0.5976395434" flag="0"/>
      <vel value="0.1341342174" flag="0"/>
      <psa03 value="0.4279985439" flag="0"/>
      <psa10 value="0.0610680781" flag="0"/>
      <psa30 value="0.0105032056" flag="0"/>
    </comp>
    <comp name="--.HHZ">
      <acc value="0.5594429912" flag="0"/>
      <vel value="0.1100303104" flag="0"/>
      <psa03 value="0.3955028112" flag="0"/>
      <psa10 value="0.0313428312" flag="0"/>
      <psa30 value="0.0052478938" flag="0"/>
    </comp>
  </station>
  <station code="THERA" name="THERA" netid="HL" insttype="120" lat="36.367" lon="25.4753">
    <comp name="--.HHN">
      <acc value="0.1189826573" flag="0"/>
      <vel value="0.0254425560" flag="0"/>
      <psa03 value="0.1232538125" flag="0"/>
      <psa10 value="0.0132849672" flag="0"/>
      <psa30 value="0.0007089542" flag="0"/>
    </comp>
    <comp name="--.HHZ">
      <acc value="0.1736337115" flag="0"/>
      <vel value="0.0289284677" flag="0"/>
      <psa03 value="0.0984217894" flag="0"/>
      <psa10 value="0.0081116320" flag="0"/>
      <psa30 value="0.0015933433" flag="0"/>
    </comp>
  </station>
  <station code="THRA" name="THRA" netid="HL" insttype="CMG-5" lat="36.415" lon="25.4324">
    <comp name="00.HNN">
      <acc value="0.3042715959" flag="0"/>
      <vel value="0.0966136168" flag="0"/>
      <psa03 value="0.6111210896" flag="0"/>
      <psa10 value="0.1422910680" flag="0"/>
      <psa30 value="0.0054772953" flag="0"/>
    </comp>
    <comp name="00.HNE">
      <acc value="0.4211230602" flag="0"/>
      <vel value="0.1035523753" flag="0"/>
      <psa03 value="0.6036467374" flag="0"/>
      <psa10 value="0.1057566293" flag="0"/>
      <psa30 value="0.0103961234" flag="0"/>
    </comp>
  </station>
  <station code="TNSA" name="TNSA" netid="HL" insttype="CMG-5" lat="37.5394" lon="25.1631">
    <comp name="00.HNN">
      <acc value="0.0440898818" flag="0"/>
      <vel value="0.0177146359" flag="0"/>
      <psa03 value="0.0884901471" flag="0"/>
      <psa10 value="0.0059518805" flag="0"/>
      <psa30 value="0.0006219809" flag="0"/>
    </comp>
    <comp name="00.HNZ">
      <acc value="0.0327607063" flag="0"/>
      <vel value="0.0106220634" flag="0"/>
      <psa03 value="0.0531299159" flag="0"/>
      <psa10 value="0.0077129023" flag="0"/>
      <psa30 value="0.0013789951" flag="0"/>
    </comp>
  </station>
</stationlist>
