<?xml version="1.0" encoding="UTF-8" standalone="yes"?>
<!DOCTYPE earthquake SYSTEM "stationlist.dtd">
<stationlist created="" xmlns="ch.ethz.sed.shakemap.usgs.xml">
  <station code="APE" name="APE" netid="GE" insttype="STS-2/N" lat="37.0727" lon="25.523">
    <comp name="--.HHE">
      <acc value="0.1600995807" flag="0"/>
      <vel value="0.0302862975" flag="0"/>
      <psa03 value="0.1004600112" flag="0"/>
      <psa10 value="0.0080967902" flag="0"/>
      <psa30 value="0.0014362217" flag="0"/>
    </comp>
    <comp name="--.HHZ">
      <acc value="0.0671136595" flag="0"/>
      <vel value="0.0104799567" flag="0"/>
      <psa03 value="0.0453599207" flag="0"/>
      <psa10 value="0.0074778180" flag="0"/>
      <psa30 value="0.0020314172" flag="0"/>
    </comp>
    <comp name="--.HHN">
      <acc value="0.1884442505" flag="0"/>
      <vel value="0.0352400246" flag="0"/>
      <psa03 value="0.0812498812" flag="0"/>
      <psa10 value="0.0080428569" flag="0"/>
      <psa30 value="0.0017454974" flag="0"/>
    </comp>
  </station>
  <station code="THERA" name="THERA" netid="GE" insttype="STS-2/N" lat="36.367" lon="25.4753">
    <comp name="--.HHE">
      <acc value="0.1813678203" flag="0"/>
      <vel value="0.0425825972" flag="0"/>
      <psa03 value="0.1718148695" flag="0"/>
      <psa10 value="0.0185031129" flag="0"/>
      <psa30 value="0.0018262009" flag="0"/>
    </comp>
    <comp name="--.HHZ">
      <acc value="0.1781084441" flag="0"/>
      <vel value="0.0293526274" flag="0"/>
      <psa03 value="0.1006479399" flag="0"/>
      <psa10 value="0.0081734542" flag="0"/>
      <psa30 value="0.0015966806" flag="0"/>
    </comp>
    <comp name="--.HHN">
      <acc value="0.1170286318" flag="0"/>
      <vel value="0.0262533661" flag="0"/>
      <psa03 value="0.1269394983" flag="0"/>
      <psa10 value="0.0134378128" flag="0"/>
      <psa30 value="0.0007100033" flag="0"/>
    </comp>
  </station>
</stationlist>
