<?xml version="1.0" encoding="UTF-8" standalone="yes"?>
<!DOCTYPE earthquake SYSTEM "stationlist.dtd">
<stationlist created="" xmlns="ch.ethz.sed.shakemap.usgs.xml">
  <station code="CEYT" name="CEYT" netid="KO" insttype="CMG-3ESP" lat="37.0105" lon="35.7478">
    <comp name="--.HHN">
      <acc value="0.0080417384" flag="0"/>
      <vel value="0.0057647374" flag="0"/>
      <psa03 value="0.0214671554" flag="0"/>
      <psa10 value="0.0082600104" flag="0"/>
      <psa30 value="0.0019229728" flag="0"/>
    </comp>
  </station>
  <station code="GAZ" name="GAZ" netid="KO" insttype="CMG-3T" lat="37.1721" lon="37.2096">
    <comp name="--.HHE">
      <acc value="0.0439154137" flag="0"/>
      <vel value="0.0250199330" flag="0"/>
      <psa03 value="0.0761699953" flag="0"/>
      <psa10 value="0.0233584527" flag="0"/>
      <psa30 value="0.0021415901" flag="0"/>
    </comp>
    <comp name="--.HHN">
      <acc value="0.0265746200" flag="0"/>
      <vel value="0.0197968954" flag="0"/>
      <psa03 value="0.1043723613" flag="0"/>
      <psa10 value="0.0195472233" flag="0"/>
      <psa30 value="0.0034528274" flag="0"/>
    </comp>
    <comp name="--.HHZ">
      <acc value="0.0248609844" flag="0"/>
      <vel value="0.0116991408" flag="0"/>
      <psa03 value="0.0643140758" flag="0"/>
      <psa10 value="0.0120357677" flag="0"/>
      <psa30 value="0.0014166325" flag="0"/>
    </comp>
  </station>
  <station code="KHMN" name="KHMN" netid="KO" insttype="CMG-5T" lat="37.3916" lon="37.1574">
    <comp name="--.HNE">
      <acc value="0.0539770440" flag="0"/>
      <vel value="0.0277184060" flag="0"/>
      <psa03 value="0.1157277829" flag="0"/>
      <psa10 value="0.0126458677" flag="0"/>
      <psa30 value="0.0014744116" flag="0"/>
    </comp>
    <comp name="--.HNN">
      <acc value="0.0568053336" flag="0"/>
      <vel value="0.0228503066" flag="0"/>
      <psa03 value="0.1019781466" flag="0"/>
      <psa10 value="0.0212503598" flag="0"/>
      <psa30 value="0.0018526505" flag="0"/>
    </comp>
    <comp name="--.HNZ">
      <acc value="0.0324752868" flag="0"/>
      <vel value="0.0105864687" flag="0"/>
      <psa03 value="0.0591866785" flag="0"/>
      <psa10 value="0.0090433619" flag="0"/>
      <psa30 value="0.0012891757" flag="0"/>
    </comp>
  </station>
  <station code="KMRS" name="KMRS" netid="KO" insttype="CMG-3T" lat="37.5053" lon="36.9">
    <comp name="--.HHZ">
      <acc value="0.0937068488" flag="0"/>
      <vel value="0.0337685160" flag="0"/>
      <psa03 value="0.1704659415" flag="0"/>
      <psa10 value="0.0150870587" flag="0"/>
      <psa30 value="0.0017616503" flag="0"/>
    </comp>
    <comp name="--.HHE">
      <acc value="0.0404742273" flag="0"/>
      <vel value="0.0211035403" flag="0"/>
      <psa03 value="0.1242165218" flag="0"/>
      <psa10 value="0.0248946863" flag="0"/>
      <psa30 value="0.0036427794" flag="0"/>
    </comp>
    <comp name="--.HHN">
      <acc value="0.0726067033" flag="0"/>
      <vel value="0.0374771628" flag="0"/>
      <psa03 value="0.2324416495" flag="0"/>
      <psa10 value="0.0224372232" flag="0"/>
      <psa30 value="0.0040061487" flag="0"/>
    </comp>
  </station>
  <station code="SARI" name="SARI" netid="KO" insttype="CMG-3T" lat="38.4072" lon="36.4181">
    <comp name="--.HHZ">
      <acc value="0.0765044403" flag="0"/>
      <vel value="0.0359785816" flag="0"/>
      <psa03 value="0.1001073740" flag="0"/>
      <psa10 value="0.0389957557" flag="0"/>
      <psa30 value="0.0036230501" flag="0"/>
    </comp>
  </station>
  <station code="ANDN" name="ANDN" netid="TU" insttype="T" lat="37.58" lon="36.3452">
    <comp name="--.HHE">
      <acc value="0.4300788922" flag="0"/>
      <vel value="0.2559587189" flag="0"/>
      <psa03 value="0.9488249563" flag="0"/>
      <psa10 value="0.2091509508" flag="0"/>
      <psa30 value="0.0211953865" flag="0"/>
    </comp>
    <comp name="--.HHZ">
      <acc value="0.2535829666" flag="0"/>
      <vel value="0.1377126051" flag="0"/>
      <psa03 value="0.5419042861" flag="0"/>
      <psa10 value="0.1676092659" flag="0"/>
      <psa30 value="0.0103744357" flag="0"/>
    </comp>
    <comp name="--.HHN">
      <acc value="0.6475392782" flag="0"/>
      <vel value="0.3195720869" flag="0"/>
      <psa03 value="1.7596910965" flag="0"/>
      <psa10 value="0.3223767861" flag="0"/>
      <psa30 value="0.0216903635" flag="0"/>
    </comp>
  </station>
</stationlist>
