<?xml version="1.0" encoding="UTF-8" standalone="yes"?>
<!DOCTYPE earthquake SYSTEM "stationlist.dtd">
<stationlist created="" xmlns="ch.ethz.sed.shakemap.usgs.xml">
  <station code="RP05B" name="RP05B" netid="5B" insttype="Compact" commtype="DIG" lat="37.6182" lon="21.6541">
    <comp name="--.HHE">
      <acc value="0.0364457091" flag="0"/>
      <vel value="0.0152774944" flag="0"/>
      <psa03 value="0.1505509299" flag="0"/>
      <psa10 value="0.0082804942" flag="0"/>
      <psa30 value="0.0006373865" flag="0"/>
    </comp>
    <comp name="--.HHZ">
      <acc value="0.0244575894" flag="0"/>
      <vel value="0.0103392134" flag="0"/>
      <psa03 value="0.0713937869" flag="0"/>
      <psa10 value="0.0043606954" flag="0"/>
      <psa30 value="0.0003750571" flag="0"/>
    </comp>
    <comp name="--.HHN">
      <acc value="0.0407065503" flag="0"/>
      <vel value="0.0188418836" flag="0"/>
      <psa03 value="0.1508818775" flag="0"/>
      <psa10 value="0.0105611554" flag="0"/>
      <psa30 value="0.0007099058" flag="0"/>
    </comp>
  </station>
  <station code="ATHR" name="ATHR" netid="HA" insttype="GEOtiny," commtype="DIG" lat="38.3172" lon="20.4165">
    <comp name="--.HHE">
      <acc value="0.0072547188" flag="0"/>
      <vel value="0.0049558240" flag="0"/>
      <psa03 value="0.0245586597" flag="0"/>
      <psa10 value="0.0044536589" flag="0"/>
      <psa30 value="0.0006174824" flag="0"/>
    </comp>
    <comp name="--.HHN">
      <acc value="0.0062761580" flag="0"/>
      <vel value="0.0037231019" flag="0"/>
      <psa03 value="0.0163297559" flag="0"/>
      <psa10 value="0.0054746582" flag="0"/>
      <psa30 value="0.0005494779" flag="0"/>
    </comp>
    <comp name="--.HHZ">
      <acc value="0.0055096408" flag="0"/>
      <vel value="0.0028684674" flag="0"/>
      <psa03 value="0.0229965106" flag="0"/>
      <psa10 value="0.0057570855" flag="0"/>
      <psa30 value="0.0001842899" flag="0"/>
    </comp>
  </station>
  <station code="HAVD" name="HAVD" netid="HA" insttype="GEOtiny," commtype="DIG" lat="38.2036" lon="20.3848">
    <comp name="--.HHZ">
      <acc value="0.0140127691" flag="0"/>
      <vel value="0.0049202939" flag="0"/>
      <psa03 value="0.0246467633" flag="0"/>
      <psa10 value="0.0032411478" flag="0"/>
      <psa30 value="0.0001911559" flag="0"/>
    </comp>
    <comp name="--.HHE">
      <acc value="0.0178576392" flag="0"/>
      <vel value="0.0090932268" flag="0"/>
      <psa03 value="0.0357772750" flag="0"/>
      <psa10 value="0.0056818433" flag="0"/>
      <psa30 value="0.0004415481" flag="0"/>
    </comp>
    <comp name="--.HHN">
      <acc value="0.0176134210" flag="0"/>
      <vel value="0.0116540298" flag="0"/>
      <psa03 value="0.0603504683" flag="0"/>
      <psa10 value="0.0073686777" flag="0"/>
      <psa30 value="0.0005157194" flag="0"/>
    </comp>
  </station>
  <station code="AOL1" name="AOL1" netid="HI" insttype="unknown" commtype="DIG" lat="37.6424" lon="21.6246">
    <comp name="--.HNE">
      <acc value="0.0204811548" flag="0"/>
      <vel value="0.0078507454" flag="0"/>
      <psa03 value="0.0437572814" flag="0"/>
      <psa10 value="0.0066260518" flag="0"/>
      <psa30 value="0.0004450563" flag="0"/>
    </comp>
    <comp name="--.HNN">
      <acc value="0.0175464545" flag="0"/>
      <vel value="0.0103480413" flag="0"/>
      <psa03 value="0.0444215198" flag="0"/>
      <psa10 value="0.0086739506" flag="0"/>
      <psa30 value="0.0004751751" flag="0"/>
    </comp>
    <comp name="--.HNZ">
      <acc value="0.0150500359" flag="0"/>
      <vel value="0.0059775926" flag="0"/>
      <psa03 value="0.0420941750" flag="0"/>
      <psa10 value="0.0042243659" flag="0"/>
      <psa30 value="0.0002931855" flag="0"/>
    </comp>
  </station>
  <station code="PYR2" name="PYR2" netid="HI" insttype="unknown" commtype="DIG" lat="37.6671" lon="21.4506">
    <comp name="--.HNE">
      <acc value="0.0283187560" flag="0"/>
      <vel value="0.0118374896" flag="0"/>
      <psa03 value="0.0845265032" flag="0"/>
      <psa10 value="0.0063382580" flag="0"/>
      <psa30 value="0.0005123140" flag="0"/>
    </comp>
    <comp name="--.HNN">
      <acc value="0.0222104981" flag="0"/>
      <vel value="0.0126932584" flag="0"/>
      <psa03 value="0.0480333718" flag="0"/>
      <psa10 value="0.0050120205" flag="0"/>
      <psa30 value="0.0005073663" flag="0"/>
    </comp>
    <comp name="--.HNZ">
      <acc value="0.0272643163" flag="0"/>
      <vel value="0.0076093115" flag="0"/>
      <psa03 value="0.0292532659" flag="0"/>
      <psa10 value="0.0032347339" flag="0"/>
      <psa30 value="0.0002839277" flag="0"/>
    </comp>
  </station>
  <station code="ZAK2" name="ZAK2" netid="HI" insttype="unknown" commtype="DIG" lat="37.7875" lon="20.9">
    <comp name="--.HNN">
      <acc value="0.1135357451" flag="0"/>
      <vel value="0.0531157787" flag="0"/>
      <psa03 value="0.3183747047" flag="0"/>
      <psa10 value="0.0354810812" flag="0"/>
      <psa30 value="0.0023649477" flag="0"/>
    </comp>
    <comp name="--.HNE">
      <acc value="0.0968393141" flag="0"/>
      <vel value="0.0515271394" flag="0"/>
      <psa03 value="0.3001757524" flag="0"/>
      <psa10 value="0.0235069558" flag="0"/>
      <psa30 value="0.0017244562" flag="0"/>
    </comp>
    <comp name="--.HNZ">
      <acc value="0.0880407170" flag="0"/>
      <vel value="0.0270979019" flag="0"/>
      <psa03 value="0.1720373410" flag="0"/>
      <psa10 value="0.0099132181" flag="0"/>
      <psa30 value="0.0008872302" flag="0"/>
    </comp>
  </station>
  <station code="ORTH" name="ORTH" netid="HL" insttype="30" commtype="DIG" lat="37.8511" lon="20.6963">
    <comp name="--.HHE">
      <acc value="0.1082623794" flag="0"/>
      <vel value="0.0372831087" flag="0"/>
      <psa03 value="0.2495911801" flag="0"/>
      <psa10 value="0.0105234465" flag="0"/>
      <psa30 value="0.0010008393" flag="0"/>
    </comp>
    <comp name="--.HHN">
      <acc value="0.1544398176" flag="0"/>
      <vel value="0.0503716697" flag="0"/>
      <psa03 value="0.2899698673" flag="0"/>
      <psa10 value="0.0184261116" flag="0"/>
      <psa30 value="0.0013825217" flag="0"/>
    </comp>
    <comp name="--.HHZ">
      <acc value="0.0509618991" flag="0"/>
      <vel value="0.0131616647" flag="0"/>
      <psa03 value="0.0596173565" flag="0"/>
      <psa10 value="0.0065288073" flag="0"/>
      <psa30 value="0.0003769735" flag="0"/>
    </comp>
  </station>
  <station code="ZARA" name="ZARA" netid="HL" insttype="CMG-5" commtype="DIG" lat="37.4865" lon="21.6491">
    <comp name="00.HNE">
      <acc value="0.0164594170" flag="0"/>
      <vel value="0.0096324603" flag="0"/>
      <psa03 value="0.0382682902" flag="0"/>
      <psa10 value="0.0034354514" flag="0"/>
      <psa30 value="0.0005281773" flag="0"/>
    </comp>
    <comp name="00.HNN">
      <acc value="0.0164522112" flag="0"/>
      <vel value="0.0060989029" flag="0"/>
      <psa03 value="0.0467459899" flag="0"/>
      <psa10 value="0.0058448988" flag="0"/>
      <psa30 value="0.0004513303" flag="0"/>
    </comp>
    <comp name="00.HNZ">
      <acc value="0.0310527121" flag="0"/>
      <vel value="0.0043179252" flag="0"/>
      <psa03 value="0.0218920460" flag="0"/>
      <psa10 value="0.0036686287" flag="0"/>
      <psa30 value="0.0002455354" flag="0"/>
    </comp>
  </station>
  <station code="AMT" name="AMT" netid="HP" insttype="CMG-3T," commtype="DIG" lat="37.5324" lon="21.7089">
    <comp name="00.HHE">
      <acc value="0.0079347350" flag="0"/>
      <vel value="0.0048342288" flag="0"/>
      <psa03 value="0.0308537385" flag="0"/>
      <psa10 value="0.0062883597" flag="0"/>
      <psa30 value="0.0002801711" flag="0"/>
    </comp>
    <comp name="00.HHZ">
      <acc value="0.0075525568" flag="0"/>
      <vel value="0.0037361780" flag="0"/>
      <psa03 value="0.0213681239" flag="0"/>
      <psa10 value="0.0018765664" flag="0"/>
      <psa30 value="0.0001630959" flag="0"/>
    </comp>
    <comp name="00.HHN">
      <acc value="0.0078497218" flag="0"/>
      <vel value="0.0042615165" flag="0"/>
      <psa03 value="0.0317807775" flag="0"/>
      <psa10 value="0.0047315031" flag="0"/>
      <psa30 value="0.0002334739" flag="0"/>
    </comp>
  </station>
  <station code="LTHK" name="LTHK" netid="HP" insttype="40," commtype="DIG" lat="37.7095" lon="20.8367">
    <comp name="--.HHE">
      <acc value="0.1080405171" flag="0"/>
      <vel value="0.0258029999" flag="0"/>
      <psa03 value="0.2123456641" flag="0"/>
      <psa10 value="0.0092709012" flag="0"/>
      <psa30 value="0.0006820410" flag="0"/>
    </comp>
    <comp name="--.HHN">
      <acc value="0.1089387643" flag="0"/>
      <vel value="0.0332036192" flag="0"/>
      <psa03 value="0.1836164843" flag="0"/>
      <psa10 value="0.0113935757" flag="0"/>
      <psa30 value="0.0010472423" flag="0"/>
    </comp>
    <comp name="--.HHZ">
      <acc value="0.0504480664" flag="0"/>
      <vel value="0.0171288239" flag="0"/>
      <psa03 value="0.1110661333" flag="0"/>
      <psa10 value="0.0048057660" flag="0"/>
      <psa30 value="0.0004142442" flag="0"/>
    </comp>
  </station>
  <station code="DMLN" name="DMLN" netid="HT" insttype="1s-100Hz," commtype="DIG" lat="38.2385" lon="20.3734">
    <comp name="--.HHN">
      <acc value="0.0296170200" flag="0"/>
      <vel value="0.0135257263" flag="0"/>
      <psa03 value="0.1043587921" flag="0"/>
      <psa10 value="0.0114015433" flag="0"/>
      <psa30 value="0.0007532378" flag="0"/>
    </comp>
    <comp name="--.HHZ">
      <acc value="0.0206982342" flag="0"/>
      <vel value="0.0066212506" flag="0"/>
      <psa03 value="0.0641454397" flag="0"/>
      <psa10 value="0.0034547650" flag="0"/>
      <psa30 value="0.0003142145" flag="0"/>
    </comp>
    <comp name="--.HHE">
      <acc value="0.0398053777" flag="0"/>
      <vel value="0.0160992542" flag="0"/>
      <psa03 value="0.1224469859" flag="0"/>
      <psa10 value="0.0119992910" flag="0"/>
      <psa30 value="0.0008398198" flag="0"/>
    </comp>
  </station>
  <station code="STRF" name="STRF" netid="HT" insttype="30s-100Hz," commtype="DIG" lat="37.2497" lon="21.013">
    <comp name="--.HHN">
      <acc value="0.1441292230" flag="0"/>
      <vel value="0.0550435706" flag="0"/>
      <psa03 value="0.2778630670" flag="0"/>
      <psa10 value="0.0242700531" flag="0"/>
      <psa30 value="0.0021677359" flag="0"/>
    </comp>
    <comp name="--.HHE">
      <acc value="0.1474287267" flag="0"/>
      <vel value="0.0513405488" flag="0"/>
      <psa03 value="0.2464435131" flag="0"/>
      <psa10 value="0.0207304074" flag="0"/>
      <psa30 value="0.0017571724" flag="0"/>
    </comp>
    <comp name="--.HHZ">
      <acc value="0.0789623918" flag="0"/>
      <vel value="0.0262826223" flag="0"/>
      <psa03 value="0.1132206659" flag="0"/>
      <psa10 value="0.0144536343" flag="0"/>
      <psa30 value="0.0011377512" flag="0"/>
    </comp>
  </station>
</stationlist>
