<?xml version="1.0" encoding="UTF-8" standalone="yes"?>
<!DOCTYPE earthquake SYSTEM "stationlist.dtd">
<stationlist created="" xmlns="ch.ethz.sed.shakemap.usgs.xml">
  <station code="RP05B" name="RP05B" netid="5B" insttype="Compact" commtype="DIG" lat="37.6182" lon="21.6541">
    <comp name="--.HHE">
      <acc value="0.0364457092" flag="0"/>
      <vel value="0.0152775094" flag="0"/>
      <psa03 value="0.1505509299" flag="0"/>
      <psa10 value="0.0082804942" flag="0"/>
      <psa30 value="0.0006373780" flag="0"/>
    </comp>
    <comp name="--.HHZ">
      <acc value="0.0244575893" flag="0"/>
      <vel value="0.0103392066" flag="0"/>
      <psa03 value="0.0713937869" flag="0"/>
      <psa10 value="0.0043606954" flag="0"/>
      <psa30 value="0.0003750522" flag="0"/>
    </comp>
    <comp name="--.HHN">
      <acc value="0.0407065504" flag="0"/>
      <vel value="0.0188418748" flag="0"/>
      <psa03 value="0.1508818775" flag="0"/>
      <psa10 value="0.0105611554" flag="0"/>
      <psa30 value="0.0007099545" flag="0"/>
    </comp>
  </station>
  <station code="ATHR" name="ATHR" netid="HA" insttype="GEOtiny," commtype="DIG" lat="38.3172" lon="20.4165">
    <comp name="--.HHE">
      <acc value="0.0072547184" flag="0"/>
      <vel value="0.0049550695" flag="0"/>
      <psa03 value="0.0245586600" flag="0"/>
      <psa10 value="0.0044536591" flag="0"/>
      <psa30 value="0.0006174938" flag="0"/>
    </comp>
    <comp name="--.HHN">
      <acc value="0.0062761582" flag="0"/>
      <vel value="0.0037227743" flag="0"/>
      <psa03 value="0.0163297562" flag="0"/>
      <psa10 value="0.0054746578" flag="0"/>
      <psa30 value="0.0005494817" flag="0"/>
    </comp>
    <comp name="--.HHZ">
      <acc value="0.0055096402" flag="0"/>
      <vel value="0.0028690069" flag="0"/>
      <psa03 value="0.0229965107" flag="0"/>
      <psa10 value="0.0057570858" flag="0"/>
      <psa30 value="0.0001842909" flag="0"/>
    </comp>
  </station>
  <station code="HAVD" name="HAVD" netid="HA" insttype="GEOtiny," commtype="DIG" lat="38.2036" lon="20.3848">
    <comp name="--.HHE">
      <acc value="0.0178576399" flag="0"/>
      <vel value="0.0090927731" flag="0"/>
      <psa03 value="0.0357772751" flag="0"/>
      <psa10 value="0.0056818432" flag="0"/>
      <psa30 value="0.0004415612" flag="0"/>
    </comp>
    <comp name="--.HHN">
      <acc value="0.0176134210" flag="0"/>
      <vel value="0.0116539794" flag="0"/>
      <psa03 value="0.0603504683" flag="0"/>
      <psa10 value="0.0073686776" flag="0"/>
      <psa30 value="0.0005157137" flag="0"/>
    </comp>
    <comp name="--.HHZ">
      <acc value="0.0140127688" flag="0"/>
      <vel value="0.0049201786" flag="0"/>
      <psa03 value="0.0246467634" flag="0"/>
      <psa10 value="0.0032411476" flag="0"/>
      <psa30 value="0.0001911973" flag="0"/>
    </comp>
  </station>
  <station code="AOL1" name="AOL1" netid="HI" insttype="unknown" commtype="DIG" lat="37.6424" lon="21.6246">
    <comp name="--.HNN">
      <acc value="0.0175464558" flag="0"/>
      <vel value="0.0103480410" flag="0"/>
      <psa03 value="0.0444215198" flag="0"/>
      <psa10 value="0.0086739506" flag="0"/>
      <psa30 value="0.0004751335" flag="0"/>
    </comp>
    <comp name="--.HNZ">
      <acc value="0.0150500356" flag="0"/>
      <vel value="0.0059775931" flag="0"/>
      <psa03 value="0.0420941750" flag="0"/>
      <psa10 value="0.0042243659" flag="0"/>
      <psa30 value="0.0002931663" flag="0"/>
    </comp>
    <comp name="--.HNE">
      <acc value="0.0204811541" flag="0"/>
      <vel value="0.0078507464" flag="0"/>
      <psa03 value="0.0437572814" flag="0"/>
      <psa10 value="0.0066260518" flag="0"/>
      <psa30 value="0.0004450467" flag="0"/>
    </comp>
  </station>
  <station code="ARG2" name="ARG2" netid="HI" insttype="CMG-5TD,ACCELEROMETER,GURALP" commtype="DIG" lat="38.1783" lon="20.4878">
    <comp name="--.HNE">
      <acc value="0.0413342185" flag="0"/>
      <vel value="0.0146714801" flag="0"/>
      <psa03 value="0.0871340453" flag="0"/>
      <psa10 value="0.0062003980" flag="0"/>
      <psa30 value="0.0004666437" flag="0"/>
    </comp>
    <comp name="--.HNZ">
      <acc value="0.0232230360" flag="0"/>
      <vel value="0.0080705493" flag="0"/>
      <psa03 value="0.0675925274" flag="0"/>
      <psa10 value="0.0026785977" flag="0"/>
      <psa30 value="0.0004997929" flag="0"/>
    </comp>
    <comp name="--.HNN">
      <acc value="0.0313650507" flag="0"/>
      <vel value="0.0124481937" flag="0"/>
      <psa03 value="0.0661677568" flag="0"/>
      <psa10 value="0.0058311912" flag="0"/>
      <psa30 value="0.0005964838" flag="0"/>
    </comp>
  </station>
  <station code="PYR2" name="PYR2" netid="HI" insttype="unknown" commtype="DIG" lat="37.6671" lon="21.4506">
    <comp name="--.HNE">
      <acc value="0.0283187560" flag="0"/>
      <vel value="0.0118374892" flag="0"/>
      <psa03 value="0.0845265032" flag="0"/>
      <psa10 value="0.0063382580" flag="0"/>
      <psa30 value="0.0005123064" flag="0"/>
    </comp>
    <comp name="--.HNN">
      <acc value="0.0222104985" flag="0"/>
      <vel value="0.0126932581" flag="0"/>
      <psa03 value="0.0480333718" flag="0"/>
      <psa10 value="0.0050120205" flag="0"/>
      <psa30 value="0.0005073644" flag="0"/>
    </comp>
    <comp name="--.HNZ">
      <acc value="0.0272643165" flag="0"/>
      <vel value="0.0076093134" flag="0"/>
      <psa03 value="0.0292532659" flag="0"/>
      <psa10 value="0.0032347339" flag="0"/>
      <psa30 value="0.0002840070" flag="0"/>
    </comp>
  </station>
  <station code="ZAK2" name="ZAK2" netid="HI" insttype="unknown" commtype="DIG" lat="37.7875" lon="20.9">
    <comp name="--.HNE">
      <acc value="0.0968393141" flag="0"/>
      <vel value="0.0515271407" flag="0"/>
      <psa03 value="0.3001757524" flag="0"/>
      <psa10 value="0.0235069557" flag="0"/>
      <psa30 value="0.0017243647" flag="0"/>
    </comp>
    <comp name="--.HNN">
      <acc value="0.1135357450" flag="0"/>
      <vel value="0.0531157785" flag="0"/>
      <psa03 value="0.3183747047" flag="0"/>
      <psa10 value="0.0354810813" flag="0"/>
      <psa30 value="0.0023648850" flag="0"/>
    </comp>
    <comp name="--.HNZ">
      <acc value="0.0880407188" flag="0"/>
      <vel value="0.0270979010" flag="0"/>
      <psa03 value="0.1720373410" flag="0"/>
      <psa10 value="0.0099132180" flag="0"/>
      <psa30 value="0.0008872514" flag="0"/>
    </comp>
  </station>
  <station code="ORTH" name="ORTH" netid="HL" insttype="30" commtype="DIG" lat="37.8511" lon="20.6963">
    <comp name="--.HHE">
      <acc value="0.1082623797" flag="0"/>
      <vel value="0.0372831089" flag="0"/>
      <psa03 value="0.2495911801" flag="0"/>
      <psa10 value="0.0105234466" flag="0"/>
      <psa30 value="0.0010007915" flag="0"/>
    </comp>
    <comp name="--.HHZ">
      <acc value="0.0509618995" flag="0"/>
      <vel value="0.0131616642" flag="0"/>
      <psa03 value="0.0596173565" flag="0"/>
      <psa10 value="0.0065288073" flag="0"/>
      <psa30 value="0.0003769774" flag="0"/>
    </comp>
    <comp name="--.HHN">
      <acc value="0.1544398179" flag="0"/>
      <vel value="0.0503716702" flag="0"/>
      <psa03 value="0.2899698673" flag="0"/>
      <psa10 value="0.0184261116" flag="0"/>
      <psa30 value="0.0013826006" flag="0"/>
    </comp>
  </station>
  <station code="ZARA" name="ZARA" netid="HL" insttype="CMG-5" commtype="DIG" lat="37.4865" lon="21.6491">
    <comp name="00.HNZ">
      <acc value="0.0310527115" flag="0"/>
      <vel value="0.0043179248" flag="0"/>
      <psa03 value="0.0218920460" flag="0"/>
      <psa10 value="0.0036686287" flag="0"/>
      <psa30 value="0.0002455345" flag="0"/>
    </comp>
    <comp name="00.HNE">
      <acc value="0.0164594159" flag="0"/>
      <vel value="0.0096324585" flag="0"/>
      <psa03 value="0.0382682902" flag="0"/>
      <psa10 value="0.0034354514" flag="0"/>
      <psa30 value="0.0005281895" flag="0"/>
    </comp>
    <comp name="00.HNN">
      <acc value="0.0164522103" flag="0"/>
      <vel value="0.0060989046" flag="0"/>
      <psa03 value="0.0467459899" flag="0"/>
      <psa10 value="0.0058448988" flag="0"/>
      <psa30 value="0.0004513334" flag="0"/>
    </comp>
  </station>
  <station code="AMT" name="AMT" netid="HP" insttype="CMG-3T," commtype="DIG" lat="37.5324" lon="21.7089">
    <comp name="00.HHZ">
      <acc value="0.0075525568" flag="0"/>
      <vel value="0.0037361781" flag="0"/>
      <psa03 value="0.0213681239" flag="0"/>
      <psa10 value="0.0018765664" flag="0"/>
      <psa30 value="0.0001630932" flag="0"/>
    </comp>
    <comp name="00.HHN">
      <acc value="0.0078497218" flag="0"/>
      <vel value="0.0042615163" flag="0"/>
      <psa03 value="0.0317807775" flag="0"/>
      <psa10 value="0.0047315031" flag="0"/>
      <psa30 value="0.0002334734" flag="0"/>
    </comp>
    <comp name="00.HHE">
      <acc value="0.0079347351" flag="0"/>
      <vel value="0.0048342278" flag="0"/>
      <psa03 value="0.0308537385" flag="0"/>
      <psa10 value="0.0062883597" flag="0"/>
      <psa30 value="0.0002801709" flag="0"/>
    </comp>
  </station>
  <station code="LTHK" name="LTHK" netid="HP" insttype="40," commtype="DIG" lat="37.7095" lon="20.8367">
    <comp name="--.HHN">
      <acc value="0.1089387643" flag="0"/>
      <vel value="0.0332036188" flag="0"/>
      <psa03 value="0.1836164843" flag="0"/>
      <psa10 value="0.0113935760" flag="0"/>
      <psa30 value="0.0010471522" flag="0"/>
    </comp>
    <comp name="--.HHZ">
      <acc value="0.0504480663" flag="0"/>
      <vel value="0.0171288258" flag="0"/>
      <psa03 value="0.1110661333" flag="0"/>
      <psa10 value="0.0048057655" flag="0"/>
      <psa30 value="0.0004142857" flag="0"/>
    </comp>
    <comp name="--.HHE">
      <acc value="0.1080405170" flag="0"/>
      <vel value="0.0258030016" flag="0"/>
      <psa03 value="0.2123456641" flag="0"/>
      <psa10 value="0.0092709015" flag="0"/>
      <psa30 value="0.0006818100" flag="0"/>
    </comp>
  </station>
  <station code="DMLN" name="DMLN" netid="HT" insttype="1s-100Hz," commtype="DIG" lat="38.2385" lon="20.3734">
    <comp name="--.HHZ">
      <acc value="0.0206982321" flag="0"/>
      <vel value="0.0066221099" flag="0"/>
      <psa03 value="0.0641454376" flag="0"/>
      <psa10 value="0.0034547628" flag="0"/>
      <psa30 value="0.0003142037" flag="0"/>
    </comp>
    <comp name="--.HHN">
      <acc value="0.0296170199" flag="0"/>
      <vel value="0.0135256530" flag="0"/>
      <psa03 value="0.1043587921" flag="0"/>
      <psa10 value="0.0114015434" flag="0"/>
      <psa30 value="0.0007532662" flag="0"/>
    </comp>
    <comp name="--.HHE">
      <acc value="0.0398053774" flag="0"/>
      <vel value="0.0160991579" flag="0"/>
      <psa03 value="0.1224469861" flag="0"/>
      <psa10 value="0.0119992907" flag="0"/>
      <psa30 value="0.0008398523" flag="0"/>
    </comp>
  </station>
  <station code="STRF" name="STRF" netid="HT" insttype="30s-100Hz," commtype="DIG" lat="37.2497" lon="21.013">
    <comp name="--.HHN">
      <acc value="0.1441292230" flag="0"/>
      <vel value="0.0550435638" flag="0"/>
      <psa03 value="0.2778630670" flag="0"/>
      <psa10 value="0.0242700518" flag="0"/>
      <psa30 value="0.0021678062" flag="0"/>
    </comp>
    <comp name="--.HHE">
      <acc value="0.1474287266" flag="0"/>
      <vel value="0.0513405613" flag="0"/>
      <psa03 value="0.2464435131" flag="0"/>
      <psa10 value="0.0207304077" flag="0"/>
      <psa30 value="0.0017572907" flag="0"/>
    </comp>
    <comp name="--.HHZ">
      <acc value="0.0789623919" flag="0"/>
      <vel value="0.0262826386" flag="0"/>
      <psa03 value="0.1132206659" flag="0"/>
      <psa10 value="0.0144536368" flag="0"/>
      <psa30 value="0.0011377953" flag="0"/>
    </comp>
  </station>
</stationlist>
