<?xml version="1.0" encoding="UTF-8" standalone="yes"?>
<!DOCTYPE earthquake SYSTEM "stationlist.dtd">
<stationlist created="" xmlns="ch.ethz.sed.shakemap.usgs.xml">
  <station code="KTHR" name="KTHR" netid="HC" insttype="120s" lat="36.2447" lon="22.9939">
    <comp name="--.HHN">
      <acc value="0.0980146690" flag="0"/>
      <vel value="0.0380589638" flag="0"/>
      <psa03 value="0.2534456249" flag="0"/>
      <psa10 value="0.0137297060" flag="0"/>
      <psa30 value="0.0009525148" flag="0"/>
    </comp>
    <comp name="--.HHE">
      <acc value="0.1395665510" flag="0"/>
      <vel value="0.0666017327" flag="0"/>
      <psa03 value="0.3558193722" flag="0"/>
      <psa10 value="0.0190722812" flag="0"/>
      <psa30 value="0.0015549790" flag="0"/>
    </comp>
    <comp name="--.HHZ">
      <acc value="0.0633857659" flag="0"/>
      <vel value="0.0193162056" flag="0"/>
      <psa03 value="0.1008154673" flag="0"/>
      <psa10 value="0.0045928560" flag="0"/>
      <psa30 value="0.0004239349" flag="0"/>
    </comp>
  </station>
  <station code="KTRS" name="KTRS" netid="HC" insttype="60" lat="36.9261" lon="22.136">
    <comp name="--.HHZ">
      <acc value="0.0050441111" flag="0"/>
      <vel value="0.0031168622" flag="0"/>
      <psa03 value="0.0113914815" flag="0"/>
      <psa10 value="0.0045891034" flag="0"/>
      <psa30 value="0.0002843340" flag="0"/>
    </comp>
    <comp name="--.HHN">
      <acc value="0.0110058676" flag="0"/>
      <vel value="0.0105202689" flag="0"/>
      <psa03 value="0.0284366526" flag="0"/>
      <psa10 value="0.0141946496" flag="0"/>
      <psa30 value="0.0006355250" flag="0"/>
    </comp>
    <comp name="--.HHE">
      <acc value="0.0060686077" flag="0"/>
      <vel value="0.0038662308" flag="0"/>
      <psa03 value="0.0111660349" flag="0"/>
      <psa10 value="0.0038317917" flag="0"/>
      <psa30 value="0.0002236962" flag="0"/>
    </comp>
  </station>
  <station code="ANKY" name="ANKY" netid="HL" insttype="60" lat="35.867" lon="23.3012">
    <comp name="--.HHZ">
      <acc value="0.0198250313" flag="0"/>
      <vel value="0.0065677572" flag="0"/>
      <psa03 value="0.0508464421" flag="0"/>
      <psa10 value="0.0024770076" flag="0"/>
      <psa30 value="0.0002214177" flag="0"/>
    </comp>
    <comp name="--.HHE">
      <acc value="0.0180417902" flag="0"/>
      <vel value="0.0061020383" flag="0"/>
      <psa03 value="0.0580053616" flag="0"/>
      <psa10 value="0.0043478958" flag="0"/>
      <psa30 value="0.0003082378" flag="0"/>
    </comp>
    <comp name="--.HHN">
      <acc value="0.0172604287" flag="0"/>
      <vel value="0.0083707124" flag="0"/>
      <psa03 value="0.0495253358" flag="0"/>
      <psa10 value="0.0038097931" flag="0"/>
      <psa30 value="0.0003821276" flag="0"/>
    </comp>
  </station>
  <station code="MHLO" name="MHLO" netid="HL" insttype="20" lat="36.6898" lon="24.4017">
    <comp name="--.HHE">
      <acc value="0.0286385731" flag="0"/>
      <vel value="0.0127176176" flag="0"/>
      <psa03 value="0.0876332670" flag="0"/>
      <psa10 value="0.0058980708" flag="0"/>
      <psa30 value="0.0003673824" flag="0"/>
    </comp>
    <comp name="--.HHN">
      <acc value="0.0317622049" flag="0"/>
      <vel value="0.0142409711" flag="0"/>
      <psa03 value="0.0854840806" flag="0"/>
      <psa10 value="0.0137391483" flag="0"/>
      <psa30 value="0.0005716248" flag="0"/>
    </comp>
    <comp name="--.HHZ">
      <acc value="0.0155001079" flag="0"/>
      <vel value="0.0054303109" flag="0"/>
      <psa03 value="0.0288988455" flag="0"/>
      <psa10 value="0.0040918329" flag="0"/>
      <psa30 value="0.0001964784" flag="0"/>
    </comp>
  </station>
  <station code="VLX" name="VLX" netid="HP" insttype="40," lat="37.3703" lon="22.3793">
    <comp name="--.HHN">
      <acc value="0.0062577780" flag="0"/>
      <vel value="0.0042452078" flag="0"/>
      <psa03 value="0.0168939411" flag="0"/>
      <psa10 value="0.0055048172" flag="0"/>
      <psa30 value="0.0003069679" flag="0"/>
    </comp>
    <comp name="--.HHE">
      <acc value="0.0078093416" flag="0"/>
      <vel value="0.0046904128" flag="0"/>
      <psa03 value="0.0186932375" flag="0"/>
      <psa10 value="0.0033325060" flag="0"/>
      <psa30 value="0.0002457917" flag="0"/>
    </comp>
    <comp name="--.HHZ">
      <acc value="0.0035349823" flag="0"/>
      <vel value="0.0019804188" flag="0"/>
      <psa03 value="0.0111083632" flag="0"/>
      <psa10 value="0.0016332900" flag="0"/>
      <psa30 value="0.0001767754" flag="0"/>
    </comp>
  </station>
  <station code="KRND" name="KRND" netid="HT" insttype="100" lat="37.383" lon="23.1502">
    <comp name="--.HHN">
      <acc value="0.0164921482" flag="0"/>
      <vel value="0.0055980116" flag="0"/>
      <psa03 value="0.0376738933" flag="0"/>
      <psa10 value="0.0040449870" flag="0"/>
      <psa30 value="0.0003431690" flag="0"/>
    </comp>
    <comp name="--.HHE">
      <acc value="0.0146261512" flag="0"/>
      <vel value="0.0044125708" flag="0"/>
      <psa03 value="0.0232074941" flag="0"/>
      <psa10 value="0.0026236283" flag="0"/>
      <psa30 value="0.0003331739" flag="0"/>
    </comp>
    <comp name="--.HHZ">
      <acc value="0.0143547038" flag="0"/>
      <vel value="0.0032953478" flag="0"/>
      <psa03 value="0.0135918854" flag="0"/>
      <psa10 value="0.0028914902" flag="0"/>
      <psa30 value="0.0001682639" flag="0"/>
    </comp>
  </station>
</stationlist>
