<?xml version="1.0" encoding="UTF-8" standalone="yes"?>
<!DOCTYPE earthquake SYSTEM "stationlist.dtd">
<stationlist created="" xmlns="ch.ethz.sed.shakemap.usgs.xml">
  <station code="EPID" name="EPID" netid="HA" insttype="30" lat="37.6144" lon="23.1189">
    <comp name="--.HHE">
      <acc value="0.0247581812" flag="0"/>
      <vel value="0.0073925514" flag="0"/>
      <psa03 value="0.0402303254" flag="0"/>
      <psa10 value="0.0031907545" flag="0"/>
      <psa30 value="0.0002599611" flag="0"/>
    </comp>
    <comp name="--.HHZ">
      <acc value="0.0185026923" flag="0"/>
      <vel value="0.0039839484" flag="0"/>
      <psa03 value="0.0237727348" flag="0"/>
      <psa10 value="0.0022751501" flag="0"/>
      <psa30 value="0.0002371175" flag="0"/>
    </comp>
    <comp name="--.HHN">
      <acc value="0.0245179259" flag="0"/>
      <vel value="0.0070390100" flag="0"/>
      <psa03 value="0.0337227654" flag="0"/>
      <psa10 value="0.0037313730" flag="0"/>
      <psa30 value="0.0003558884" flag="0"/>
    </comp>
  </station>
  <station code="KTHR" name="KTHR" netid="HC" insttype="120s" lat="36.2447" lon="22.9939">
    <comp name="--.HHN">
      <acc value="0.0980146693" flag="0"/>
      <vel value="0.0380589597" flag="0"/>
      <psa03 value="0.2534456249" flag="0"/>
      <psa10 value="0.0137297061" flag="0"/>
      <psa30 value="0.0009538390" flag="0"/>
    </comp>
    <comp name="--.HHE">
      <acc value="0.1395665511" flag="0"/>
      <vel value="0.0666017293" flag="0"/>
      <psa03 value="0.3558193722" flag="0"/>
      <psa10 value="0.0190722795" flag="0"/>
      <psa30 value="0.0015542309" flag="0"/>
    </comp>
    <comp name="--.HHZ">
      <acc value="0.0633857662" flag="0"/>
      <vel value="0.0193162077" flag="0"/>
      <psa03 value="0.1008154673" flag="0"/>
      <psa10 value="0.0045928553" flag="0"/>
      <psa30 value="0.0004241316" flag="0"/>
    </comp>
  </station>
  <station code="KTRS" name="KTRS" netid="HC" insttype="60" lat="36.9261" lon="22.136">
    <comp name="--.HHE">
      <acc value="0.0060686077" flag="0"/>
      <vel value="0.0038662290" flag="0"/>
      <psa03 value="0.0111660349" flag="0"/>
      <psa10 value="0.0038317917" flag="0"/>
      <psa30 value="0.0002236255" flag="0"/>
    </comp>
    <comp name="--.HHN">
      <acc value="0.0110058673" flag="0"/>
      <vel value="0.0105202676" flag="0"/>
      <psa03 value="0.0284366526" flag="0"/>
      <psa10 value="0.0141946496" flag="0"/>
      <psa30 value="0.0006354236" flag="0"/>
    </comp>
    <comp name="--.HHZ">
      <acc value="0.0050441109" flag="0"/>
      <vel value="0.0031168622" flag="0"/>
      <psa03 value="0.0113914815" flag="0"/>
      <psa10 value="0.0045891035" flag="0"/>
      <psa30 value="0.0002843305" flag="0"/>
    </comp>
  </station>
  <station code="RODP" name="RODP" netid="HC" insttype="120" lat="35.5604" lon="23.7577">
    <comp name="--.HHE">
      <acc value="0.0329313467" flag="0"/>
      <vel value="0.0101478186" flag="0"/>
      <psa03 value="0.0769249983" flag="0"/>
      <psa10 value="0.0057612739" flag="0"/>
      <psa30 value="0.0003297432" flag="0"/>
    </comp>
    <comp name="--.HHN">
      <acc value="0.0180921663" flag="0"/>
      <vel value="0.0073063363" flag="0"/>
      <psa03 value="0.0616719564" flag="0"/>
      <psa10 value="0.0055848080" flag="0"/>
      <psa30 value="0.0003127488" flag="0"/>
    </comp>
    <comp name="--.HHZ">
      <acc value="0.0111205217" flag="0"/>
      <vel value="0.0043975872" flag="0"/>
      <psa03 value="0.0263247665" flag="0"/>
      <psa10 value="0.0024325000" flag="0"/>
      <psa30 value="0.0002433658" flag="0"/>
    </comp>
  </station>
  <station code="ANKY" name="ANKY" netid="HL" insttype="60" lat="35.867" lon="23.3012">
    <comp name="--.HHN">
      <acc value="0.0172604291" flag="0"/>
      <vel value="0.0083707184" flag="0"/>
      <psa03 value="0.0495253358" flag="0"/>
      <psa10 value="0.0038097945" flag="0"/>
      <psa30 value="0.0003830508" flag="0"/>
    </comp>
    <comp name="--.HHE">
      <acc value="0.0180417906" flag="0"/>
      <vel value="0.0061020372" flag="0"/>
      <psa03 value="0.0580053616" flag="0"/>
      <psa10 value="0.0043478962" flag="0"/>
      <psa30 value="0.0003084496" flag="0"/>
    </comp>
    <comp name="--.HHZ">
      <acc value="0.0198250316" flag="0"/>
      <vel value="0.0065677574" flag="0"/>
      <psa03 value="0.0508464421" flag="0"/>
      <psa10 value="0.0024770093" flag="0"/>
      <psa30 value="0.0002216153" flag="0"/>
    </comp>
  </station>
  <station code="MHLO" name="MHLO" netid="HL" insttype="20" lat="36.6898" lon="24.4017">
    <comp name="--.HHE">
      <acc value="0.0286385730" flag="0"/>
      <vel value="0.0127176399" flag="0"/>
      <psa03 value="0.0876332670" flag="0"/>
      <psa10 value="0.0058980708" flag="0"/>
      <psa30 value="0.0003676115" flag="0"/>
    </comp>
    <comp name="--.HHN">
      <acc value="0.0317622047" flag="0"/>
      <vel value="0.0142409588" flag="0"/>
      <psa03 value="0.0854840806" flag="0"/>
      <psa10 value="0.0137391459" flag="0"/>
      <psa30 value="0.0005715971" flag="0"/>
    </comp>
    <comp name="--.HHZ">
      <acc value="0.0155001077" flag="0"/>
      <vel value="0.0054303194" flag="0"/>
      <psa03 value="0.0288988455" flag="0"/>
      <psa10 value="0.0040918329" flag="0"/>
      <psa30 value="0.0001966192" flag="0"/>
    </comp>
  </station>
  <station code="VLX" name="VLX" netid="HP" insttype="40," lat="37.3703" lon="22.3793">
    <comp name="--.HHE">
      <acc value="0.0078093415" flag="0"/>
      <vel value="0.0046904124" flag="0"/>
      <psa03 value="0.0186932375" flag="0"/>
      <psa10 value="0.0033325060" flag="0"/>
      <psa30 value="0.0002457925" flag="0"/>
    </comp>
    <comp name="--.HHN">
      <acc value="0.0062577779" flag="0"/>
      <vel value="0.0042452074" flag="0"/>
      <psa03 value="0.0168939411" flag="0"/>
      <psa10 value="0.0055048172" flag="0"/>
      <psa30 value="0.0003069698" flag="0"/>
    </comp>
    <comp name="--.HHZ">
      <acc value="0.0035349820" flag="0"/>
      <vel value="0.0019804166" flag="0"/>
      <psa03 value="0.0111083632" flag="0"/>
      <psa10 value="0.0016332900" flag="0"/>
      <psa30 value="0.0001767320" flag="0"/>
    </comp>
  </station>
  <station code="KRND" name="KRND" netid="HT" insttype="100" lat="37.383" lon="23.1502">
    <comp name="--.HHE">
      <acc value="0.0146261509" flag="0"/>
      <vel value="0.0044125713" flag="0"/>
      <psa03 value="0.0232074941" flag="0"/>
      <psa10 value="0.0026236282" flag="0"/>
      <psa30 value="0.0003332511" flag="0"/>
    </comp>
    <comp name="--.HHN">
      <acc value="0.0164921487" flag="0"/>
      <vel value="0.0055980137" flag="0"/>
      <psa03 value="0.0376738933" flag="0"/>
      <psa10 value="0.0040449874" flag="0"/>
      <psa30 value="0.0003429409" flag="0"/>
    </comp>
    <comp name="--.HHZ">
      <acc value="0.0143547037" flag="0"/>
      <vel value="0.0032953473" flag="0"/>
      <psa03 value="0.0135918854" flag="0"/>
      <psa10 value="0.0028914902" flag="0"/>
      <psa30 value="0.0001680115" flag="0"/>
    </comp>
  </station>
</stationlist>
