<stationlist xmlns:esm="https://esm-db.eu/esmws/shakemap/1/" created="1784080529">
	<station code="KIAS" name="KIAS" netid="HA" source="Hellenic Seismological Network, University of Athens, Seismological Laboratory (HA)" insttype="" lat="37.9875" lon="22.7543" esm:processing="manual (Paolucci et al 2011)" esm:quality="good">
		<comp name="--.HNE" depth="0.0">
			<acc value="0.0180022141189743" flag="0"/>
			<vel value="0.00584044059694622" flag="0"/>
			<psa03 value="0.0257097057459956" flag="0"/>
			<psa10 value="0.00541114018023044" flag="0"/>
			<psa30 value="0.000468713237451656" flag="0"/>
		</comp>
		<comp name="--.HNN" depth="0.0">
			<acc value="0.024473624261155" flag="0"/>
			<vel value="0.0063243990228199" flag="0"/>
			<psa03 value="0.0373455130194553" flag="0"/>
			<psa10 value="0.00426051098794345" flag="0"/>
			<psa30 value="0.000608894763373106" flag="0"/>
		</comp>
		<comp name="--.HNZ" depth="0.0">
			<acc value="0.00980946584650698" flag="0"/>
			<vel value="0.00255990811396136" flag="0"/>
			<psa03 value="0.0164467692052433" flag="0"/>
			<psa10 value="0.00295804970627568" flag="0"/>
			<psa30 value="0.000469744086990379" flag="0"/>
		</comp>
	</station>
	<station code="ABEA" name="ABEA" netid="HC" source="Seismological Network of Crete (HC)" insttype="" lat="35.5163" lon="24.0113" esm:processing="manual (Paolucci et al 2011)" esm:quality="good">
		<comp name="--.HNE" depth="0.0">
			<acc value="0.0529957347687236" flag="0"/>
			<vel value="0.0131480606493959" flag="0"/>
			<psa03 value="0.0697073469362953" flag="0"/>
			<psa10 value="0.00618701970344103" flag="0"/>
			<psa30 value="0.000472484528947875" flag="0"/>
		</comp>
		<comp name="--.HNN" depth="0.0">
			<acc value="0.0570626066653792" flag="0"/>
			<vel value="0.0138690074848316" flag="0"/>
			<psa03 value="0.0931809852829664" flag="0"/>
			<psa10 value="0.00558072782082934" flag="0"/>
			<psa30 value="0.000337843317961766" flag="0"/>
		</comp>
		<comp name="--.HNZ" depth="0.0">
			<acc value="0.0269673949695768" flag="0"/>
			<vel value="0.00703450158124225" flag="0"/>
			<psa03 value="0.0398650705527765" flag="0"/>
			<psa10 value="0.00279633782178198" flag="0"/>
			<psa30 value="0.00036048380215773" flag="0"/>
		</comp>
	</station>
	<station code="ATEI" name="ATEI" netid="HC" source="Seismological Network of Crete (HC)" insttype="" lat="35.5193" lon="24.0432" esm:processing="manual (Paolucci et al 2011)" esm:quality="good">
		<comp name="--.HNE" depth="0.0">
			<acc value="0.0235516430035365" flag="0"/>
			<vel value="0.00914798720235364" flag="0"/>
			<psa03 value="0.0558377406429468" flag="0"/>
			<psa10 value="0.00387884890782874" flag="0"/>
			<psa30 value="0.000344250200719638" flag="0"/>
		</comp>
		<comp name="--.HNN" depth="0.0">
			<acc value="0.0268168062258358" flag="0"/>
			<vel value="0.00999593423295152" flag="0"/>
			<psa03 value="0.0574778492920956" flag="0"/>
			<psa10 value="0.00406396609280874" flag="0"/>
			<psa30 value="0.000303589564443704" flag="0"/>
		</comp>
		<comp name="--.HNZ" depth="0.0">
			<acc value="0.0217842563967207" flag="0"/>
			<vel value="0.00681792375421003" flag="0"/>
			<psa03 value="0.0341423320744381" flag="0"/>
			<psa10 value="0.00221396244539644" flag="0"/>
			<psa30 value="0.000275002905092818" flag="0"/>
		</comp>
	</station>
	<station code="DEYA" name="DEYA" netid="HC" source="Seismological Network of Crete (HC)" insttype="" lat="35.4825" lon="24.014" esm:processing="manual (Paolucci et al 2011)" esm:quality="good">
		<comp name="--.HNE" depth="0.0">
			<acc value="0.0585971773478422" flag="0"/>
			<vel value="0.0208410988548492" flag="0"/>
			<psa03 value="0.132604169792128" flag="0"/>
			<psa10 value="0.0174574420948621" flag="0"/>
			<psa30 value="0.000783341423774884" flag="0"/>
		</comp>
		<comp name="--.HNN" depth="0.0">
			<acc value="0.0560446865770935" flag="0"/>
			<vel value="0.0180078775489198" flag="0"/>
			<psa03 value="0.0867210365097306" flag="0"/>
			<psa10 value="0.00944086603604152" flag="0"/>
			<psa30 value="0.000492427725086744" flag="0"/>
		</comp>
		<comp name="--.HNZ" depth="0.0">
			<acc value="0.0368740069511582" flag="0"/>
			<vel value="0.00985536056600894" flag="0"/>
			<psa03 value="0.0440644555122539" flag="0"/>
			<psa10 value="0.00578925944752619" flag="0"/>
			<psa30 value="0.000430732414116843" flag="0"/>
		</comp>
	</station>
	<station code="PASK" name="PASK" netid="HC" source="Seismological Network of Crete (HC)" insttype="" lat="35.4996" lon="24.0121" esm:processing="manual (Paolucci et al 2011)" esm:quality="good">
		<comp name="--.HNE" depth="0.0">
			<acc value="0.0463851976793121" flag="0"/>
			<vel value="0.0174736781184286" flag="0"/>
			<psa03 value="0.112048443492809" flag="0"/>
			<psa10 value="0.00825322048535245" flag="0"/>
			<psa30 value="0.000596209912647333" flag="0"/>
		</comp>
		<comp name="--.HNN" depth="0.0">
			<acc value="0.0381117735841613" flag="0"/>
			<vel value="0.0163710201132257" flag="0"/>
			<psa03 value="0.0767819405934047" flag="0"/>
			<psa10 value="0.00784903933533488" flag="0"/>
			<psa30 value="0.000495190147667016" flag="0"/>
		</comp>
		<comp name="--.HNZ" depth="0.0">
			<acc value="0.0311259658952075" flag="0"/>
			<vel value="0.00969157414672174" flag="0"/>
			<psa03 value="0.0655547853911393" flag="0"/>
			<psa10 value="0.00392925060606889" flag="0"/>
			<psa30 value="0.000306397797350352" flag="0"/>
		</comp>
	</station>
	<station code="POLY" name="POLY" netid="HC" source="Seismological Network of Crete (HC)" insttype="" lat="35.5226" lon="24.0602" esm:processing="manual (Paolucci et al 2011)" esm:quality="good">
		<comp name="--.HNE" depth="0.0">
			<acc value="0.0334111070069661" flag="0"/>
			<vel value="0.00881483062147971" flag="0"/>
			<psa03 value="0.0445308822440691" flag="0"/>
			<psa10 value="0.00355285270280506" flag="0"/>
			<psa30 value="0.000373807705634278" flag="0"/>
		</comp>
		<comp name="--.HNN" depth="0.0">
			<acc value="0.0345903058728101" flag="0"/>
			<vel value="0.00980955301578945" flag="0"/>
			<psa03 value="0.0520081640356245" flag="0"/>
			<psa10 value="0.00416013230709847" flag="0"/>
			<psa30 value="0.000268107057651768" flag="0"/>
		</comp>
		<comp name="--.HNZ" depth="0.0">
			<acc value="0.0258026490997244" flag="0"/>
			<vel value="0.00489101117398094" flag="0"/>
			<psa03 value="0.0256417455147972" flag="0"/>
			<psa10 value="0.0023378359639091" flag="0"/>
			<psa30 value="0.000235774837675873" flag="0"/>
		</comp>
	</station>
	<station code="CH01" name="CH01" netid="HI" source="ITSAK Strong Motion Network" insttype="" lat="35.517" lon="24.0208" esm:processing="manual (Paolucci et al 2011)" esm:quality="best">
		<comp name="--.HNE" depth="0.0">
			<acc value="0.041563150913344" flag="0"/>
			<vel value="0.01152145454233" flag="0"/>
			<psa03 value="0.0481322197733406" flag="0"/>
			<psa10 value="0.00377845194452178" flag="0"/>
			<psa30 value="0.000479095591897226" flag="0"/>
		</comp>
		<comp name="--.HNN" depth="0.0">
			<acc value="0.0596608834327519" flag="0"/>
			<vel value="0.011984477180348" flag="0"/>
			<psa03 value="0.0603692960444397" flag="0"/>
			<psa10 value="0.00386668357068538" flag="0"/>
			<psa30 value="0.000379471440203909" flag="0"/>
		</comp>
		<comp name="--.HNZ" depth="0.0">
			<acc value="0.0286685632697488" flag="0"/>
			<vel value="0.00600904738858976" flag="0"/>
			<psa03 value="0.0241798622138534" flag="0"/>
			<psa10 value="0.00226222908032233" flag="0"/>
			<psa30 value="0.000177021961210975" flag="0"/>
		</comp>
	</station>
	<station code="KLV1" name="KLV1" netid="HI" source="ITSAK Strong Motion Network" insttype="" lat="38.03256" lon="22.10797" esm:processing="manual (Paolucci et al 2011)" esm:quality="bad">
		<comp name="--.HNE" depth="0.0">
			<acc value="0.00818718116253595" flag="0"/>
			<vel value="0.00481962540791157" flag="0"/>
			<psa03 value="0.0215073270986157" flag="0"/>
			<psa10 value="0.00288496509915481" flag="0"/>
			<psa30 value="0.000120850128123699" flag="0"/>
		</comp>
		<comp name="--.HNN" depth="0.0">
			<acc value="0.00986241556203836" flag="0"/>
			<vel value="0.00386939796013288" flag="0"/>
			<psa03 value="0.0236581401523485" flag="0"/>
			<psa10 value="0.00283092050334107" flag="0"/>
			<psa30 value="0.000125469092961707" flag="0"/>
		</comp>
		<comp name="--.HNZ" depth="0.0">
			<acc value="0.00365466438440764" flag="0"/>
			<vel value="0.00177608411589184" flag="0"/>
			<psa03 value="0.00932799879351857" flag="0"/>
			<psa10 value="0.00123308660780929" flag="0"/>
			<psa30 value="6.2585942886448e-05" flag="0"/>
		</comp>
	</station>
	<station code="NPS1" name="NPS1" netid="HI" source="ITSAK Strong Motion Network" insttype="" lat="36.51263" lon="23.06248" esm:processing="manual (Paolucci et al 2011)" esm:quality="best">
		<comp name="--.HNE" depth="0.0">
			<acc value="0.0489866853343523" flag="0"/>
			<vel value="0.0181048649505921" flag="0"/>
			<psa03 value="0.154140940247623" flag="0"/>
			<psa10 value="0.00834362772440441" flag="0"/>
			<psa30 value="0.000603278089210477" flag="0"/>
		</comp>
		<comp name="--.HNN" depth="0.0">
			<acc value="0.0468056523851084" flag="0"/>
			<vel value="0.0179490827094374" flag="0"/>
			<psa03 value="0.0982978763352532" flag="0"/>
			<psa10 value="0.0114481977619119" flag="0"/>
			<psa30 value="0.000991931335580948" flag="0"/>
		</comp>
		<comp name="--.HNZ" depth="0.0">
			<acc value="0.0813204959018657" flag="0"/>
			<vel value="0.0175587014831839" flag="0"/>
			<psa03 value="0.0821593020257502" flag="0"/>
			<psa10 value="0.00372865778652867" flag="0"/>
			<psa30 value="0.000398537338642842" flag="0"/>
		</comp>
	</station>
	<station code="CHNB" name="CHNB" netid="HL" source="National Observatory of Athens Seismic Network" insttype="" lat="35.48765" lon="24.06605" esm:processing="manual (Paolucci et al 2011)" esm:quality="best">
		<comp name="00.HNE" depth="0.0">
			<acc value="0.0465833499895901" flag="0"/>
			<vel value="0.0191042712366681" flag="0"/>
			<psa03 value="0.111428808695227" flag="0"/>
			<psa10 value="0.007512469539236" flag="0"/>
			<psa30 value="0.000414896234839347" flag="0"/>
		</comp>
		<comp name="00.HNN" depth="0.0">
			<acc value="0.05136657833818" flag="0"/>
			<vel value="0.0183644135651951" flag="0"/>
			<psa03 value="0.102655258740534" flag="0"/>
			<psa10 value="0.0107665826082593" flag="0"/>
			<psa30 value="0.000754453260075334" flag="0"/>
		</comp>
		<comp name="00.HNZ" depth="0.0">
			<acc value="0.0428573473329648" flag="0"/>
			<vel value="0.0148742455018649" flag="0"/>
			<psa03 value="0.11589974028899" flag="0"/>
			<psa10 value="0.00486799826225776" flag="0"/>
			<psa30 value="0.000416575616923348" flag="0"/>
		</comp>
	</station>
	<station code="IACM" name="IACM" netid="HL" source="National Observatory of Athens Seismic Network" insttype="" lat="35.3058" lon="25.0709" esm:processing="manual (Paolucci et al 2011)" esm:quality="good">
		<comp name="--.HNE" depth="0.0">
			<acc value="0.0538557660116279" flag="0"/>
			<vel value="0.0224008555079544" flag="0"/>
			<psa03 value="0.186083118760136" flag="0"/>
			<psa10 value="0.0197167230111429" flag="0"/>
			<psa30 value="0.000595958229308806" flag="0"/>
		</comp>
		<comp name="--.HNN" depth="0.0">
			<acc value="0.0525284734747425" flag="0"/>
			<vel value="0.0235854896153019" flag="0"/>
			<psa03 value="0.157242479042511" flag="0"/>
			<psa10 value="0.0151684610860985" flag="0"/>
			<psa30 value="0.000802967880180495" flag="0"/>
		</comp>
		<comp name="--.HNZ" depth="0.0">
			<acc value="0.0509814634524128" flag="0"/>
			<vel value="0.0143336458934733" flag="0"/>
			<psa03 value="0.0904689722922043" flag="0"/>
			<psa10 value="0.00504659634350046" flag="0"/>
			<psa30 value="0.00037996767099341" flag="0"/>
		</comp>
	</station>
	<station code="IMMV" name="IMMV" netid="HL" source="National Observatory of Athens Seismic Network" insttype="" lat="35.4606" lon="23.9811" esm:processing="manual (Paolucci et al 2011)" esm:quality="best">
		<comp name="--.HNE" depth="0.0">
			<acc value="0.0174612070776137" flag="0"/>
			<vel value="0.00567976777224949" flag="0"/>
			<psa03 value="0.0466204373336416" flag="0"/>
			<psa10 value="0.00445794797342715" flag="0"/>
			<psa30 value="0.000463384082337362" flag="0"/>
		</comp>
		<comp name="--.HNN" depth="0.0">
			<acc value="0.0219857994461619" flag="0"/>
			<vel value="0.00895753471164453" flag="0"/>
			<psa03 value="0.0604761312469269" flag="0"/>
			<psa10 value="0.00400972109309253" flag="0"/>
			<psa30 value="0.000276320987200915" flag="0"/>
		</comp>
		<comp name="--.HNZ" depth="0.0">
			<acc value="0.0163689980579607" flag="0"/>
			<vel value="0.00529831454929451" flag="0"/>
			<psa03 value="0.0350982235225489" flag="0"/>
			<psa10 value="0.0020484454650858" flag="0"/>
			<psa30 value="0.000230999234857274" flag="0"/>
		</comp>
	</station>
	<station code="VELA" name="VELA" netid="HL" source="National Observatory of Athens Seismic Network" insttype="" lat="37.974944" lon="22.766063" esm:processing="manual (Paolucci et al 2011)" esm:quality="best">
		<comp name="00.HNE" depth="0.0">
			<acc value="0.0214028241357937" flag="0"/>
			<vel value="0.00837013682198507" flag="0"/>
			<psa03 value="0.0535967536468734" flag="0"/>
			<psa10 value="0.00978234303221303" flag="0"/>
			<psa30 value="0.000581679939690318" flag="0"/>
		</comp>
		<comp name="00.HNN" depth="0.0">
			<acc value="0.0258576132295878" flag="0"/>
			<vel value="0.00789104676926615" flag="0"/>
			<psa03 value="0.0662398932762653" flag="0"/>
			<psa10 value="0.00590500805281074" flag="0"/>
			<psa30 value="0.000573081765939191" flag="0"/>
		</comp>
		<comp name="00.HNZ" depth="0.0">
			<acc value="0.0149568857798863" flag="0"/>
			<vel value="0.00365072210343391" flag="0"/>
			<psa03 value="0.0164778246479173" flag="0"/>
			<psa10 value="0.0046476205382886" flag="0"/>
			<psa30 value="0.000187328907016409" flag="0"/>
		</comp>
	</station>
	<station code="DSF" name="DSF" netid="HP" source="University of Patras, Seismological Laboratory (PSLNET)" insttype="" lat="38.4112" lon="22.5271" esm:processing="manual (Paolucci et al 2011)" esm:quality="good">
		<comp name="--.HNE" depth="1.0">
			<acc value="0.00435863292812303" flag="0"/>
			<vel value="0.00157952005655371" flag="0"/>
			<psa03 value="0.00875901643977864" flag="0"/>
			<psa10 value="0.000857718968110417" flag="0"/>
			<psa30 value="7.17884405276197e-05" flag="0"/>
		</comp>
		<comp name="--.HNN" depth="1.0">
			<acc value="0.00756656802918618" flag="0"/>
			<vel value="0.00264854981700806" flag="0"/>
			<psa03 value="0.0165023054363345" flag="0"/>
			<psa10 value="0.000866440112248243" flag="0"/>
			<psa30 value="6.03739278619182e-05" flag="0"/>
		</comp>
		<comp name="--.HNZ" depth="1.0">
			<acc value="0.00293830143762199" flag="0"/>
			<vel value="0.00156865110215471" flag="0"/>
			<psa03 value="0.00633402832226256" flag="0"/>
			<psa10 value="0.000705040846120141" flag="0"/>
			<psa30 value="4.05509610417194e-05" flag="0"/>
		</comp>
	</station>
	<station code="GUR" name="GUR" netid="HP" source="University of Patras, Seismological Laboratory (PSLNET)" insttype="" lat="37.9363" lon="22.3423" esm:processing="manual (Paolucci et al 2011)" esm:quality="best">
		<comp name="--.HNE" depth="0.0">
			<acc value="0.0183548137333979" flag="0"/>
			<vel value="0.00802732392491608" flag="0"/>
			<psa03 value="0.0407578197971861" flag="0"/>
			<psa10 value="0.00305167301773588" flag="0"/>
			<psa30 value="0.000190792196338268" flag="0"/>
		</comp>
		<comp name="--.HNN" depth="0.0">
			<acc value="0.0162878251644109" flag="0"/>
			<vel value="0.00604286439229394" flag="0"/>
			<psa03 value="0.0677067977431468" flag="0"/>
			<psa10 value="0.0022585695410242" flag="0"/>
			<psa30 value="0.00017278738381625" flag="0"/>
		</comp>
		<comp name="--.HNZ" depth="0.0">
			<acc value="0.0115613379109992" flag="0"/>
			<vel value="0.00406575087934198" flag="0"/>
			<psa03 value="0.0264002775346563" flag="0"/>
			<psa10 value="0.00167655899349366" flag="0"/>
			<psa30 value="0.000117842793486016" flag="0"/>
		</comp>
	</station>
	<station code="LTK" name="LTK" netid="HP" source="University of Patras, Seismological Laboratory (PSLNET)" insttype="" lat="38.0228" lon="22.9673" esm:processing="manual (Paolucci et al 2011)" esm:quality="best">
		<comp name="--.HNE" depth="0.0">
			<acc value="0.00591140130372381" flag="0"/>
			<vel value="0.00221654735241146" flag="0"/>
			<psa03 value="0.0128207998358953" flag="0"/>
			<psa10 value="0.00158651986477993" flag="0"/>
			<psa30 value="0.000108997708844411" flag="0"/>
		</comp>
		<comp name="--.HNN" depth="0.0">
			<acc value="0.00598025381916218" flag="0"/>
			<vel value="0.00186916624042366" flag="0"/>
			<psa03 value="0.0154246155550913" flag="0"/>
			<psa10 value="0.00168679365586567" flag="0"/>
			<psa30 value="0.000188174822429095" flag="0"/>
		</comp>
		<comp name="--.HNZ" depth="0.0">
			<acc value="0.0048024029304221" flag="0"/>
			<vel value="0.00144799898029175" flag="0"/>
			<psa03 value="0.00788834873625405" flag="0"/>
			<psa10 value="0.00105607628799788" flag="0"/>
			<psa30 value="6.89969209678428e-05" flag="0"/>
		</comp>
	</station>
	<station code="VALY" name="VALY" netid="HP" source="University of Patras, Seismological Laboratory (PSLNET)" insttype="" lat="37.1641" lon="21.9836" esm:processing="manual (Paolucci et al 2011)" esm:quality="good">
		<comp name="--.HNE" depth="0.0">
			<acc value="0.00456076632708006" flag="0"/>
			<vel value="0.00300377597747308" flag="0"/>
			<psa03 value="0.013488462554861" flag="0"/>
			<psa10 value="0.00208266249742073" flag="0"/>
			<psa30 value="0.000346818495856462" flag="0"/>
		</comp>
		<comp name="--.HNN" depth="0.0">
			<acc value="0.00566618531782786" flag="0"/>
			<vel value="0.00404270129746474" flag="0"/>
			<psa03 value="0.0155782910999096" flag="0"/>
			<psa10 value="0.00470828221307535" flag="0"/>
			<psa30 value="0.000303583157769299" flag="0"/>
		</comp>
		<comp name="--.HNZ" depth="0.0">
			<acc value="0.0030154329028495" flag="0"/>
			<vel value="0.00171406998156501" flag="0"/>
			<psa03 value="0.00662472010517444" flag="0"/>
			<psa10 value="0.0024516405341536" flag="0"/>
			<psa30 value="0.00017483764984446" flag="0"/>
		</comp>
	</station>
	<station code="AIGS" name="AIGS" netid="HA" source="Hellenic Seismological Network, University of Athens, Seismological Laboratory (HA)" insttype="" lat="38.25001" lon="22.0878" esm:processing="automatic (Paolucci et al 2011)" esm:quality="bad">
		<comp name="--.HNE" depth="0.0">
			<acc value="0" flag="1"/>
			<vel value="0" flag="1"/>
			<psa03 value="0" flag="1"/>
			<psa10 value="0" flag="1"/>
			<psa30 value="0" flag="1"/>
		</comp>
		<comp name="--.HNN" depth="0.0">
			<acc value="0" flag="1"/>
			<vel value="0" flag="1"/>
			<psa03 value="0" flag="1"/>
			<psa10 value="0" flag="1"/>
			<psa30 value="0" flag="1"/>
		</comp>
		<comp name="--.HNZ" depth="0.0">
			<acc value="0" flag="1"/>
			<vel value="0" flag="1"/>
			<psa03 value="0" flag="1"/>
			<psa10 value="0" flag="1"/>
			<psa30 value="0" flag="1"/>
		</comp>
	</station>
	<station code="ATHU" name="ATHU" netid="HA" source="Hellenic Seismological Network, University of Athens, Seismological Laboratory (HA)" insttype="" lat="37.9665" lon="23.7845" esm:processing="automatic (Paolucci et al 2011)" esm:quality="bad">
		<comp name="--.HNE" depth="0.0">
			<acc value="0" flag="1"/>
			<vel value="0" flag="1"/>
			<psa03 value="0" flag="1"/>
			<psa10 value="0" flag="1"/>
			<psa30 value="0" flag="1"/>
		</comp>
		<comp name="--.HNN" depth="0.0">
			<acc value="0" flag="1"/>
			<vel value="0" flag="1"/>
			<psa03 value="0" flag="1"/>
			<psa10 value="0" flag="1"/>
			<psa30 value="0" flag="1"/>
		</comp>
		<comp name="--.HNZ" depth="0.0">
			<acc value="0" flag="1"/>
			<vel value="0" flag="1"/>
			<psa03 value="0" flag="1"/>
			<psa10 value="0" flag="1"/>
			<psa30 value="0" flag="1"/>
		</comp>
	</station>
