<?xml version="1.0" encoding="UTF-8" standalone="yes"?>
<!DOCTYPE earthquake SYSTEM "stationlist.dtd">
<stationlist created="" xmlns="ch.ethz.sed.shakemap.usgs.xml">
  <station code="BAYT" name="BAYT" netid="KO" insttype="CMG-3ESPC" commtype="DIG" lat="40.3937" lon="40.141">
    <comp name="--.HHE">
      <acc value="0.0137688828" flag="0"/>
      <vel value="0.0068692846" flag="0"/>
      <psa03 value="0.0408544686" flag="0"/>
      <psa10 value="0.0049343021" flag="0"/>
      <psa30 value="0.0003531073" flag="0"/>
    </comp>
    <comp name="--.HHZ">
      <acc value="0.0016381934" flag="0"/>
      <vel value="0.0006866633" flag="0"/>
      <psa03 value="0.0069460508" flag="0"/>
      <psa10 value="0.0002112427" flag="0"/>
      <psa30 value="0.0000161283" flag="0"/>
    </comp>
    <comp name="--.HHN">
      <acc value="0.0117129262" flag="0"/>
      <vel value="0.0060648242" flag="0"/>
      <psa03 value="0.0334994739" flag="0"/>
      <psa10 value="0.0056658161" flag="0"/>
      <psa30 value="0.0002726286" flag="0"/>
    </comp>
  </station>
  <station code="BNGB" name="BNGB" netid="KO" insttype="CMG-3ESPC" commtype="DIG" lat="38.9913" lon="40.6792">
    <comp name="--.HHZ">
      <acc value="0.0137146097" flag="0"/>
      <vel value="0.0053601540" flag="0"/>
      <psa03 value="0.0274873992" flag="0"/>
      <psa10 value="0.0062228046" flag="0"/>
      <psa30 value="0.0006734880" flag="0"/>
    </comp>
    <comp name="--.HHN">
      <acc value="0.0155640505" flag="0"/>
      <vel value="0.0080271685" flag="0"/>
      <psa03 value="0.0425432823" flag="0"/>
      <psa10 value="0.0047516184" flag="0"/>
      <psa30 value="0.0010153259" flag="0"/>
    </comp>
    <comp name="--.HHE">
      <acc value="0.0249710547" flag="0"/>
      <vel value="0.0107630700" flag="0"/>
      <psa03 value="0.1014287643" flag="0"/>
      <psa10 value="0.0047475201" flag="0"/>
      <psa30 value="0.0007588628" flag="0"/>
    </comp>
  </station>
  <station code="ERZN" name="ERZN" netid="KO" insttype="CMG-3ESP" commtype="DIG" lat="39.5867" lon="39.722">
    <comp name="--.HHE">
      <acc value="0.8596549637" flag="0"/>
      <vel value="0.2256467480" flag="0"/>
      <psa03 value="1.2860664693" flag="0"/>
      <psa10 value="0.1541902020" flag="0"/>
      <psa30 value="0.0098579618" flag="0"/>
    </comp>
    <comp name="--.HHZ">
      <acc value="0.5477219626" flag="0"/>
      <vel value="0.0899857907" flag="0"/>
      <psa03 value="0.3924916522" flag="0"/>
      <psa10 value="0.0471333971" flag="0"/>
      <psa30 value="0.0042174233" flag="0"/>
    </comp>
  </station>
  <station code="KARO" name="KARO" netid="KO" insttype="CMG-3T" commtype="DIG" lat="39.3089" lon="41.0493">
    <comp name="--.HHE">
      <acc value="0.0368840341" flag="0"/>
      <vel value="0.0213683441" flag="0"/>
      <psa03 value="0.1375635157" flag="0"/>
      <psa10 value="0.0325992377" flag="0"/>
      <psa30 value="0.0014047730" flag="0"/>
    </comp>
    <comp name="--.HHZ">
      <acc value="0.0212479276" flag="0"/>
      <vel value="0.0085345459" flag="0"/>
      <psa03 value="0.0423049291" flag="0"/>
      <psa10 value="0.0090376223" flag="0"/>
      <psa30 value="0.0008506717" flag="0"/>
    </comp>
    <comp name="--.HHN">
      <acc value="0.0520820366" flag="0"/>
      <vel value="0.0311169447" flag="0"/>
      <psa03 value="0.2025368384" flag="0"/>
      <psa10 value="0.0248255553" flag="0"/>
      <psa30 value="0.0011933335" flag="0"/>
    </comp>
  </station>
  <station code="KMAH" name="KMAH" netid="KO" insttype="CMG-3ESP" commtype="DIG" lat="39.6082" lon="39.0275">
    <comp name="--.HHE">
      <acc value="0.2048388008" flag="0"/>
      <vel value="0.0538703041" flag="0"/>
      <psa03 value="0.1909819282" flag="0"/>
      <psa10 value="0.0092621321" flag="0"/>
      <psa30 value="0.0008759674" flag="0"/>
    </comp>
    <comp name="--.HHN">
      <acc value="0.2622363529" flag="0"/>
      <vel value="0.0580509298" flag="0"/>
      <psa03 value="0.2085533195" flag="0"/>
      <psa10 value="0.0119102479" flag="0"/>
      <psa30 value="0.0014702618" flag="0"/>
    </comp>
    <comp name="--.HHZ">
      <acc value="0.0680005159" flag="0"/>
      <vel value="0.0177306880" flag="0"/>
      <psa03 value="0.0788032545" flag="0"/>
      <psa10 value="0.0146880082" flag="0"/>
      <psa30 value="0.0006264974" flag="0"/>
    </comp>
  </station>
  <station code="SINE" name="SINE" netid="KO" insttype="CMG-6T" commtype="DIG" lat="39.1636" lon="39.3871">
    <comp name="--.HHE">
      <acc value="0.1208199503" flag="0"/>
      <vel value="0.0386646852" flag="0"/>
      <psa03 value="0.1251838816" flag="0"/>
      <psa10 value="0.0150968569" flag="0"/>
      <psa30 value="0.0009904140" flag="0"/>
    </comp>
    <comp name="--.HHZ">
      <acc value="0.0856437081" flag="0"/>
      <vel value="0.0186881425" flag="0"/>
      <psa03 value="0.0902154207" flag="0"/>
      <psa10 value="0.0073053936" flag="0"/>
      <psa30 value="0.0004721562" flag="0"/>
    </comp>
    <comp name="--.HHN">
      <acc value="0.0949893431" flag="0"/>
      <vel value="0.0223228415" flag="0"/>
      <psa03 value="0.0844544406" flag="0"/>
      <psa10 value="0.0106665372" flag="0"/>
      <psa30 value="0.0004389851" flag="0"/>
    </comp>
  </station>
  <station code="YEDI" name="YEDI" netid="KO" insttype="CMG-3T" commtype="DIG" lat="39.4377" lon="40.5443">
    <comp name="--.HHE">
      <acc value="0.0771436764" flag="0"/>
      <vel value="0.0343310112" flag="0"/>
      <psa03 value="0.2394160919" flag="0"/>
      <psa10 value="0.0244456097" flag="0"/>
      <psa30 value="0.0013738271" flag="0"/>
    </comp>
    <comp name="--.HHZ">
      <acc value="0.0053430208" flag="0"/>
      <vel value="0.0004485758" flag="0"/>
      <psa03 value="0.0006535640" flag="0"/>
      <psa10 value="0.0001391772" flag="0"/>
      <psa30 value="0.0000210449" flag="0"/>
    </comp>
    <comp name="--.HHN">
      <acc value="0.0640465973" flag="0"/>
      <vel value="0.0307002646" flag="0"/>
      <psa03 value="0.1917535366" flag="0"/>
      <psa10 value="0.0237858672" flag="0"/>
      <psa30 value="0.0019046150" flag="0"/>
    </comp>
  </station>
</stationlist>
