<?xml version="1.0" encoding="UTF-8" standalone="yes"?>
<!DOCTYPE earthquake SYSTEM "stationlist.dtd">
<stationlist created="" xmlns="ch.ethz.sed.shakemap.usgs.xml">
  <station code="MARCO" name="MARCO" netid="GE" insttype="VBB" lat="40.2972" lon="15.8063">
    <comp name="--.HHE">
      <acc value="0.0008299042" flag="0"/>
      <vel value="0.0008543359" flag="0"/>
      <psa03 value="0.0022781111" flag="0"/>
      <psa10 value="0.0014379031" flag="0"/>
      <psa30 value="0.0001615681" flag="0"/>
    </comp>
    <comp name="--.HHN">
      <acc value="0.0009474435" flag="0"/>
      <vel value="0.0006947200" flag="0"/>
      <psa03 value="0.0031601716" flag="0"/>
      <psa10 value="0.0008571014" flag="0"/>
      <psa30 value="0.0001613283" flag="0"/>
    </comp>
    <comp name="--.HHZ">
      <acc value="0.0005940241" flag="0"/>
      <vel value="0.0003356249" flag="0"/>
      <psa03 value="0.0016764919" flag="0"/>
      <psa10 value="0.0004319258" flag="0"/>
      <psa30 value="0.0000720536" flag="0"/>
    </comp>
  </station>
  <station code="CAR1" name="CAR1" netid="IV" insttype="" lat="39.2534" lon="16.2114">
    <comp name="--.HHE">
      <acc value="0.0042261319" flag="0"/>
      <vel value="0.0015787958" flag="0"/>
      <psa03 value="0.0062395653" flag="0"/>
      <psa10 value="0.0010442747" flag="0"/>
      <psa30 value="0.0000771041" flag="0"/>
    </comp>
    <comp name="--.HHN">
      <acc value="0.0042982209" flag="0"/>
      <vel value="0.0023767677" flag="0"/>
      <psa03 value="0.0155871980" flag="0"/>
      <psa10 value="0.0023176236" flag="0"/>
      <psa30 value="0.0002038748" flag="0"/>
    </comp>
    <comp name="--.HHZ">
      <acc value="0.0051616858" flag="0"/>
      <vel value="0.0025512126" flag="0"/>
      <psa03 value="0.0231619203" flag="0"/>
      <psa10 value="0.0020013698" flag="0"/>
      <psa30 value="0.0001897653" flag="0"/>
    </comp>
  </station>
  <station code="CELI" name="CELI" netid="IV" insttype="" lat="39.4027" lon="16.5088">
    <comp name="--.HHE">
      <acc value="0.0018317484" flag="0"/>
      <vel value="0.0018408234" flag="0"/>
      <psa03 value="0.0045647336" flag="0"/>
      <psa10 value="0.0027074971" flag="0"/>
      <psa30 value="0.0002686075" flag="0"/>
    </comp>
    <comp name="--.HHZ">
      <acc value="0.0037687847" flag="0"/>
      <vel value="0.0018284268" flag="0"/>
      <psa03 value="0.0067352181" flag="0"/>
      <psa10 value="0.0014773081" flag="0"/>
      <psa30 value="0.0001120502" flag="0"/>
    </comp>
    <comp name="--.HHN">
      <acc value="0.0015473871" flag="0"/>
      <vel value="0.0004451655" flag="0"/>
      <psa03 value="0.0019030393" flag="0"/>
      <psa10 value="0.0003382888" flag="0"/>
      <psa30 value="0.0000199334" flag="0"/>
    </comp>
  </station>
  <station code="CET2" name="CET2" netid="IV" insttype="" lat="39.5288" lon="15.9546">
    <comp name="--.HHE">
      <acc value="0.0063524299" flag="0"/>
      <vel value="0.0039841159" flag="0"/>
      <psa03 value="0.0088786801" flag="0"/>
      <psa10 value="0.0042850825" flag="0"/>
      <psa30 value="0.0002050838" flag="0"/>
    </comp>
    <comp name="--.HHN">
      <acc value="0.0117484104" flag="0"/>
      <vel value="0.0068631628" flag="0"/>
      <psa03 value="0.0102576706" flag="0"/>
      <psa10 value="0.0129033707" flag="0"/>
      <psa30 value="0.0006553397" flag="0"/>
    </comp>
    <comp name="--.HHZ">
      <acc value="0.0078006116" flag="0"/>
      <vel value="0.0023709087" flag="0"/>
      <psa03 value="0.0090436458" flag="0"/>
      <psa10 value="0.0014770910" flag="0"/>
      <psa30 value="0.0000825625" flag="0"/>
    </comp>
  </station>
  <station code="CMPR" name="CMPR" netid="IV" insttype="" lat="40.3181" lon="15.303">
    <comp name="--.HHE">
      <acc value="0.0002827141" flag="0"/>
      <vel value="0.0001267063" flag="0"/>
      <psa03 value="0.0008549621" flag="0"/>
      <psa10 value="0.0001578967" flag="0"/>
      <psa30 value="0.0000296577" flag="0"/>
    </comp>
    <comp name="--.HHN">
      <acc value="0.0002713816" flag="0"/>
      <vel value="0.0004226688" flag="0"/>
      <psa03 value="0.0011041117" flag="0"/>
      <psa10 value="0.0002529403" flag="0"/>
      <psa30 value="0.0001195541" flag="0"/>
    </comp>
    <comp name="--.HHZ">
      <acc value="0.0002910947" flag="0"/>
      <vel value="0.0002191433" flag="0"/>
      <psa03 value="0.0007257563" flag="0"/>
      <psa10 value="0.0005261306" flag="0"/>
      <psa30 value="0.0000471828" flag="0"/>
    </comp>
  </station>
  <station code="FERC" name="FERC" netid="IV" insttype="" lat="38.4527" lon="16.1281">
    <comp name="--.HNE">
      <acc value="0.0514555508" flag="0"/>
      <vel value="0.0114088040" flag="0"/>
      <psa03 value="0.0208129412" flag="0"/>
      <psa10 value="0.0020530114" flag="0"/>
      <psa30 value="0.0003547556" flag="0"/>
    </comp>
    <comp name="--.HNN">
      <acc value="0.0325149442" flag="0"/>
      <vel value="0.0081801383" flag="0"/>
      <psa03 value="0.0249821623" flag="0"/>
      <psa10 value="0.0019516710" flag="0"/>
      <psa30 value="0.0002523899" flag="0"/>
    </comp>
    <comp name="--.HNZ">
      <acc value="0.0624067257" flag="0"/>
      <vel value="0.0122282823" flag="0"/>
      <psa03 value="0.0287692561" flag="0"/>
      <psa10 value="0.0022087158" flag="0"/>
      <psa30 value="0.0003409173" flag="0"/>
    </comp>
  </station>
  <station code="GIZZ" name="GIZZ" netid="IV" insttype="" lat="38.9798" lon="16.2078">
    <comp name="--.HHE">
      <acc value="0.0149091581" flag="0"/>
      <vel value="0.0040698262" flag="0"/>
      <psa03 value="0.0186974103" flag="0"/>
      <psa10 value="0.0016094622" flag="0"/>
      <psa30 value="0.0001136632" flag="0"/>
    </comp>
    <comp name="--.HHN">
      <acc value="0.0136905326" flag="0"/>
      <vel value="0.0043270562" flag="0"/>
      <psa03 value="0.0158258835" flag="0"/>
      <psa10 value="0.0024307326" flag="0"/>
      <psa30 value="0.0001364305" flag="0"/>
    </comp>
    <comp name="--.HHZ">
      <acc value="0.0138491370" flag="0"/>
      <vel value="0.0024038200" flag="0"/>
      <psa03 value="0.0079562084" flag="0"/>
      <psa10 value="0.0008517713" flag="0"/>
      <psa30 value="0.0000626305" flag="0"/>
    </comp>
  </station>
  <station code="ILOS" name="ILOS" netid="IV" insttype="" lat="38.4457" lon="14.9483">
    <comp name="--.HHE">
      <acc value="0.0027367307" flag="0"/>
      <vel value="0.0018566283" flag="0"/>
      <psa03 value="0.0053396962" flag="0"/>
      <psa10 value="0.0030548881" flag="0"/>
      <psa30 value="0.0002603736" flag="0"/>
    </comp>
    <comp name="--.HHN">
      <acc value="0.0029964907" flag="0"/>
      <vel value="0.0025339133" flag="0"/>
      <psa03 value="0.0065792426" flag="0"/>
      <psa10 value="0.0035955440" flag="0"/>
      <psa30 value="0.0002986000" flag="0"/>
    </comp>
    <comp name="--.HHZ">
      <acc value="0.0022477035" flag="0"/>
      <vel value="0.0009986801" flag="0"/>
      <psa03 value="0.0035132854" flag="0"/>
      <psa10 value="0.0011475028" flag="0"/>
      <psa30 value="0.0001287556" flag="0"/>
    </comp>
  </station>
  <station code="IST3" name="IST3" netid="IV" insttype="" lat="38.7992" lon="15.2304">
    <comp name="--.HHE">
      <acc value="0.0117091040" flag="0"/>
      <vel value="0.0030974990" flag="0"/>
      <psa03 value="0.0098696681" flag="0"/>
      <psa10 value="0.0009651750" flag="0"/>
      <psa30 value="0.0001651718" flag="0"/>
    </comp>
    <comp name="--.HHZ">
      <acc value="0.0162143298" flag="0"/>
      <vel value="0.0058131791" flag="0"/>
      <psa03 value="0.0180202566" flag="0"/>
      <psa10 value="0.0023800487" flag="0"/>
      <psa30 value="0.0002321602" flag="0"/>
    </comp>
    <comp name="--.HHN">
      <acc value="0.0140348235" flag="0"/>
      <vel value="0.0039213178" flag="0"/>
      <psa03 value="0.0111918505" flag="0"/>
      <psa10 value="0.0017194406" flag="0"/>
      <psa30 value="0.0001753935" flag="0"/>
    </comp>
  </station>
  <station code="IVGP" name="IVGP" netid="IV" insttype="" lat="38.3968" lon="14.9608">
    <comp name="--.HHE">
      <acc value="0.0019504354" flag="0"/>
      <vel value="0.0004772298" flag="0"/>
      <psa03 value="0.0020413697" flag="0"/>
      <psa10 value="0.0007312278" flag="0"/>
      <psa30 value="0.0000551649" flag="0"/>
    </comp>
    <comp name="--.HHN">
      <acc value="0.0012453283" flag="0"/>
      <vel value="0.0003578062" flag="0"/>
      <psa03 value="0.0012130290" flag="0"/>
      <psa10 value="0.0003590483" flag="0"/>
      <psa30 value="0.0000594048" flag="0"/>
    </comp>
    <comp name="--.HHZ">
      <acc value="0.0009025444" flag="0"/>
      <vel value="0.0002693683" flag="0"/>
      <psa03 value="0.0010083344" flag="0"/>
      <psa10 value="0.0003410427" flag="0"/>
      <psa30 value="0.0000637993" flag="0"/>
    </comp>
  </station>
  <station code="IVPL" name="IVPL" netid="IV" insttype="" lat="38.3763" lon="14.9801">
    <comp name="--.HHN">
      <acc value="0.0042654724" flag="0"/>
      <vel value="0.0009907025" flag="0"/>
      <psa03 value="0.0027485014" flag="0"/>
      <psa10 value="0.0013912720" flag="0"/>
      <psa30 value="0.0001354084" flag="0"/>
    </comp>
    <comp name="--.HHE">
      <acc value="0.0034405735" flag="0"/>
      <vel value="0.0009727698" flag="0"/>
      <psa03 value="0.0028579396" flag="0"/>
      <psa10 value="0.0013277375" flag="0"/>
      <psa30 value="0.0001752125" flag="0"/>
    </comp>
    <comp name="--.HHZ">
      <acc value="0.0038525602" flag="0"/>
      <vel value="0.0009572870" flag="0"/>
      <psa03 value="0.0022181995" flag="0"/>
      <psa10 value="0.0007105722" flag="0"/>
      <psa30 value="0.0000908242" flag="0"/>
    </comp>
  </station>
  <station code="IVUG" name="IVUG" netid="IV" insttype="" lat="38.396" lon="14.986">
    <comp name="--.HHE">
      <acc value="0.0024808421" flag="0"/>
      <vel value="0.0005992382" flag="0"/>
      <psa03 value="0.0017694062" flag="0"/>
      <psa10 value="0.0006897491" flag="0"/>
      <psa30 value="0.0001202013" flag="0"/>
    </comp>
    <comp name="--.HHN">
      <acc value="0.0025000860" flag="0"/>
      <vel value="0.0005456073" flag="0"/>
      <psa03 value="0.0018045603" flag="0"/>
      <psa10 value="0.0006220720" flag="0"/>
      <psa30 value="0.0000545509" flag="0"/>
    </comp>
    <comp name="--.HHZ">
      <acc value="0.0028839040" flag="0"/>
      <vel value="0.0004170925" flag="0"/>
      <psa03 value="0.0013905183" flag="0"/>
      <psa10 value="0.0005203015" flag="0"/>
      <psa30 value="0.0000786877" flag="0"/>
    </comp>
  </station>
  <station code="JOPP" name="JOPP" netid="IV" insttype="" lat="38.6068" lon="15.8856">
    <comp name="--.HHE">
      <acc value="0.0123207696" flag="0"/>
      <vel value="0.0022475359" flag="0"/>
      <psa03 value="0.0069894068" flag="0"/>
      <psa10 value="0.0015231923" flag="0"/>
      <psa30 value="0.0001054295" flag="0"/>
    </comp>
    <comp name="--.HHN">
      <acc value="0.0049441047" flag="0"/>
      <vel value="0.0012513068" flag="0"/>
      <psa03 value="0.0048787717" flag="0"/>
      <psa10 value="0.0006016010" flag="0"/>
      <psa30 value="0.0000412684" flag="0"/>
    </comp>
    <comp name="--.HHZ">
      <acc value="0.0087378209" flag="0"/>
      <vel value="0.0013560366" flag="0"/>
      <psa03 value="0.0029659216" flag="0"/>
      <psa10 value="0.0004024858" flag="0"/>
      <psa30 value="0.0000524742" flag="0"/>
    </comp>
  </station>
  <station code="MCEL" name="MCEL" netid="IV" insttype="" lat="40.3249" lon="15.8019">
    <comp name="--.HHE">
      <acc value="0.0013428218" flag="0"/>
      <vel value="0.0008671315" flag="0"/>
      <psa03 value="0.0035447544" flag="0"/>
      <psa10 value="0.0014720595" flag="0"/>
      <psa30 value="0.0001161050" flag="0"/>
    </comp>
    <comp name="--.HHN">
      <acc value="0.0009191358" flag="0"/>
      <vel value="0.0011394223" flag="0"/>
      <psa03 value="0.0020561176" flag="0"/>
      <psa10 value="0.0018656797" flag="0"/>
      <psa30 value="0.0002335732" flag="0"/>
    </comp>
    <comp name="--.HHZ">
      <acc value="0.0009216611" flag="0"/>
      <vel value="0.0003796882" flag="0"/>
      <psa03 value="0.0029587249" flag="0"/>
      <psa10 value="0.0003830810" flag="0"/>
      <psa30 value="0.0000710832" flag="0"/>
    </comp>
  </station>
  <station code="MGR" name="MGR" netid="IV" insttype="" lat="40.1376" lon="15.5535">
    <comp name="--.HHN">
      <acc value="0.0005023605" flag="0"/>
      <vel value="0.0007043525" flag="0"/>
      <psa03 value="0.0010802080" flag="0"/>
      <psa10 value="0.0010354077" flag="0"/>
      <psa30 value="0.0001099570" flag="0"/>
    </comp>
    <comp name="--.HHE">
      <acc value="0.0004477656" flag="0"/>
      <vel value="0.0004851399" flag="0"/>
      <psa03 value="0.0013721768" flag="0"/>
      <psa10 value="0.0006640251" flag="0"/>
      <psa30 value="0.0000680791" flag="0"/>
    </comp>
    <comp name="--.HHZ">
      <acc value="0.0004645900" flag="0"/>
      <vel value="0.0002898684" flag="0"/>
      <psa03 value="0.0008071441" flag="0"/>
      <psa10 value="0.0007072119" flag="0"/>
      <psa30 value="0.0000426582" flag="0"/>
    </comp>
  </station>
  <station code="MMN" name="MMN" netid="IV" insttype="" lat="39.891" lon="15.9904">
    <comp name="--.HHE">
      <acc value="0.0025817819" flag="0"/>
      <vel value="0.0008985038" flag="0"/>
      <psa03 value="0.0053011183" flag="0"/>
      <psa10 value="0.0005824407" flag="0"/>
      <psa30 value="0.0000935121" flag="0"/>
    </comp>
    <comp name="--.HHN">
      <acc value="0.0043070191" flag="0"/>
      <vel value="0.0010409784" flag="0"/>
      <psa03 value="0.0063021931" flag="0"/>
      <psa10 value="0.0007108485" flag="0"/>
      <psa30 value="0.0001576698" flag="0"/>
    </comp>
    <comp name="--.HHZ">
      <acc value="0.0016065880" flag="0"/>
      <vel value="0.0004214726" flag="0"/>
      <psa03 value="0.0024260869" flag="0"/>
      <psa10 value="0.0005536414" flag="0"/>
      <psa30 value="0.0000570824" flag="0"/>
    </comp>
  </station>
  <station code="MSRU" name="MSRU" netid="IV" insttype="" lat="38.2639" lon="15.5083">
    <comp name="--.HHE">
      <acc value="0.0046295294" flag="0"/>
      <vel value="0.0013291441" flag="0"/>
      <psa03 value="0.0044840205" flag="0"/>
      <psa10 value="0.0010910897" flag="0"/>
      <psa30 value="0.0000858982" flag="0"/>
    </comp>
    <comp name="--.HHN">
      <acc value="0.0034217424" flag="0"/>
      <vel value="0.0014622399" flag="0"/>
      <psa03 value="0.0076556239" flag="0"/>
      <psa10 value="0.0007448016" flag="0"/>
      <psa30 value="0.0000988848" flag="0"/>
    </comp>
    <comp name="--.HHZ">
      <acc value="0.0052108739" flag="0"/>
      <vel value="0.0010197230" flag="0"/>
      <psa03 value="0.0037168593" flag="0"/>
      <psa10 value="0.0005206327" flag="0"/>
      <psa30 value="0.0000711961" flag="0"/>
    </comp>
  </station>
  <station code="MTSN" name="MTSN" netid="IV" insttype="" lat="40.2663" lon="15.7515">
    <comp name="--.HHE">
      <acc value="0.0007045265" flag="0"/>
      <vel value="0.0004946459" flag="0"/>
      <psa03 value="0.0016095042" flag="0"/>
      <psa10 value="0.0007209435" flag="0"/>
      <psa30 value="0.0000674650" flag="0"/>
    </comp>
    <comp name="--.HHZ">
      <acc value="0.0005747085" flag="0"/>
      <vel value="0.0002154121" flag="0"/>
      <psa03 value="0.0011082385" flag="0"/>
      <psa10 value="0.0003139829" flag="0"/>
      <psa30 value="0.0000727654" flag="0"/>
    </comp>
    <comp name="--.HHN">
      <acc value="0.0009223805" flag="0"/>
      <vel value="0.0004190209" flag="0"/>
      <psa03 value="0.0014656611" flag="0"/>
      <psa10 value="0.0006328026" flag="0"/>
      <psa30 value="0.0000951756" flag="0"/>
    </comp>
  </station>
  <station code="ORI" name="ORI" netid="IV" insttype="" lat="40.051" lon="16.4504">
    <comp name="--.HHE">
      <acc value="0.0047296293" flag="0"/>
      <vel value="0.0025637486" flag="0"/>
      <psa03 value="0.0107279313" flag="0"/>
      <psa10 value="0.0036263048" flag="0"/>
      <psa30 value="0.0001502030" flag="0"/>
    </comp>
    <comp name="--.HHN">
      <acc value="0.0034811374" flag="0"/>
      <vel value="0.0025514458" flag="0"/>
      <psa03 value="0.0113833058" flag="0"/>
      <psa10 value="0.0022291839" flag="0"/>
      <psa30 value="0.0002293079" flag="0"/>
    </comp>
    <comp name="--.HHZ">
      <acc value="0.0015980503" flag="0"/>
      <vel value="0.0008879986" flag="0"/>
      <psa03 value="0.0026777864" flag="0"/>
      <psa10 value="0.0011830695" flag="0"/>
      <psa30 value="0.0001238136" flag="0"/>
    </comp>
  </station>
  <station code="PIPA" name="PIPA" netid="IV" insttype="" lat="39.4851" lon="16.8158">
    <comp name="--.HHE">
      <acc value="0.0041162905" flag="0"/>
      <vel value="0.0010793244" flag="0"/>
      <psa03 value="0.0036114866" flag="0"/>
      <psa10 value="0.0006011447" flag="0"/>
      <psa30 value="0.0000345546" flag="0"/>
    </comp>
    <comp name="--.HHN">
      <acc value="0.0045255787" flag="0"/>
      <vel value="0.0019336692" flag="0"/>
      <psa03 value="0.0098864677" flag="0"/>
      <psa10 value="0.0008441656" flag="0"/>
      <psa30 value="0.0002279707" flag="0"/>
    </comp>
    <comp name="--.HHZ">
      <acc value="0.0046625345" flag="0"/>
      <vel value="0.0011615573" flag="0"/>
      <psa03 value="0.0050490115" flag="0"/>
      <psa10 value="0.0009551372" flag="0"/>
      <psa30 value="0.0000743453" flag="0"/>
    </comp>
  </station>
  <station code="SELL" name="SELL" netid="IV" insttype="" lat="38.983" lon="16.6279">
    <comp name="--.HHN">
      <acc value="0.0010939608" flag="0"/>
      <vel value="0.0003293432" flag="0"/>
      <psa03 value="0.0013626763" flag="0"/>
      <psa10 value="0.0004176113" flag="0"/>
      <psa30 value="0.0000167126" flag="0"/>
    </comp>
    <comp name="--.HHE">
      <acc value="0.0009297222" flag="0"/>
      <vel value="0.0004214403" flag="0"/>
      <psa03 value="0.0025121489" flag="0"/>
      <psa10 value="0.0004430417" flag="0"/>
      <psa30 value="0.0000195153" flag="0"/>
    </comp>
    <comp name="--.HHZ">
      <acc value="0.0026011315" flag="0"/>
      <vel value="0.0006650277" flag="0"/>
      <psa03 value="0.0016775274" flag="0"/>
      <psa10 value="0.0004398362" flag="0"/>
      <psa30 value="0.0000317896" flag="0"/>
    </comp>
  </station>
  <station code="SERS" name="SERS" netid="IV" insttype="" lat="39.0359" lon="16.6886">
    <comp name="--.HHN">
      <acc value="0.0021474556" flag="0"/>
      <vel value="0.0006834164" flag="0"/>
      <psa03 value="0.0031939207" flag="0"/>
      <psa10 value="0.0003850874" flag="0"/>
      <psa30 value="0.0000248371" flag="0"/>
    </comp>
    <comp name="--.HHE">
      <acc value="0.0019104258" flag="0"/>
      <vel value="0.0006628908" flag="0"/>
      <psa03 value="0.0064150496" flag="0"/>
      <psa10 value="0.0006164619" flag="0"/>
      <psa30 value="0.0000374117" flag="0"/>
    </comp>
    <comp name="--.HHZ">
      <acc value="0.0068201305" flag="0"/>
      <vel value="0.0017823280" flag="0"/>
      <psa03 value="0.0052630418" flag="0"/>
      <psa10 value="0.0010243694" flag="0"/>
      <psa30 value="0.0000929935" flag="0"/>
    </comp>
  </station>
  <station code="SIRI" name="SIRI" netid="IV" insttype="" lat="40.1821" lon="15.8675">
    <comp name="--.HHE">
      <acc value="0.0007247849" flag="0"/>
      <vel value="0.0002461121" flag="0"/>
      <psa03 value="0.0010908021" flag="0"/>
      <psa10 value="0.0003340474" flag="0"/>
      <psa30 value="0.0000529805" flag="0"/>
    </comp>
    <comp name="--.HHN">
      <acc value="0.0010757244" flag="0"/>
      <vel value="0.0005576500" flag="0"/>
      <psa03 value="0.0024007973" flag="0"/>
      <psa10 value="0.0006936342" flag="0"/>
      <psa30 value="0.0001019370" flag="0"/>
    </comp>
