<stationlist created="1778136828">
	<station code="EMCN" name="EMCN" netid="IV" source="Italian National Seismic Network (INSN)" insttype="" lat="37.7912" lon="15.0336">
		<comp name="--.HNE" depth="0.0">
			<acc value="0.00301410746570558" flag="0"/>
			<vel value="0.00124007878822317" flag="0"/>
			<psa03 value="0.00299918793929322" flag="0"/>
			<psa10 value="0.00193040510642545" flag="0"/>
			<psa30 value="0.000207985900440978" flag="0"/>
		</comp>
		<comp name="--.HNN" depth="0.0">
			<acc value="0.00241302291652554" flag="0"/>
			<vel value="0.00129738065173686" flag="0"/>
			<psa03 value="0.00388444287215158" flag="0"/>
			<psa10 value="0.00143680807210816" flag="0"/>
			<psa30 value="0.00044941581325822" flag="0"/>
		</comp>
		<comp name="--.HNZ" depth="0.0">
			<acc value="0.00316657648023216" flag="0"/>
			<vel value="0.000734139623709813" flag="0"/>
			<psa03 value="0.00235426321749817" flag="0"/>
			<psa10 value="0.000777701089194716" flag="0"/>
			<psa30 value="0.000174373218036497" flag="0"/>
		</comp>
	</station>
	<station code="IVPL" name="IVPL" netid="IV" source="Italian National Seismic Network (INSN)" insttype="" lat="38.3763" lon="14.9801">
		<comp name="--.HNE" depth="0.0">
			<acc value="0.00306416562321047" flag="0"/>
			<vel value="0.000897509650376907" flag="0"/>
			<psa03 value="0.0026095045725989" flag="0"/>
			<psa10 value="0.00132607308020694" flag="0"/>
			<psa30 value="0.000191712687003688" flag="0"/>
		</comp>
		<comp name="--.HNN" depth="0.0">
			<acc value="0.00383906714354665" flag="0"/>
			<vel value="0.000931295937295018" flag="0"/>
			<psa03 value="0.00255718697921173" flag="0"/>
			<psa10 value="0.00135886900277581" flag="0"/>
			<psa30 value="0.000107675075653643" flag="0"/>
		</comp>
		<comp name="--.HNZ" depth="0.0">
			<acc value="0.00369318431284283" flag="0"/>
			<vel value="0.000915307436833138" flag="0"/>
			<psa03 value="0.00210296418084801" flag="0"/>
			<psa10 value="0.000678577921205399" flag="0"/>
			<psa30 value="9.36414181280918e-05" flag="0"/>
		</comp>
	</station>
	<station code="NOV" name="NOV" netid="IV" source="Italian National Seismic Network (INSN)" insttype="" lat="38.0278" lon="15.1367">
		<comp name="--.HNE" depth="0.0">
			<acc value="0.00323798411519758" flag="0"/>
			<vel value="0.00145263885998433" flag="0"/>
			<psa03 value="0.00392896795713629" flag="0"/>
			<psa10 value="0.00141992855548493" flag="0"/>
			<psa30 value="0.000151316078635297" flag="0"/>
		</comp>
		<comp name="--.HNN" depth="0.0">
			<acc value="0.00421864782879614" flag="0"/>
			<vel value="0.00150235187503674" flag="0"/>
			<psa03 value="0.0052975439701619" flag="0"/>
			<psa10 value="0.00181216492984439" flag="0"/>
			<psa30 value="0.000268949743683859" flag="0"/>
		</comp>
		<comp name="--.HNZ" depth="0.0">
			<acc value="0.00440141868681752" flag="0"/>
			<vel value="0.000989338483011941" flag="0"/>
			<psa03 value="0.0042354677534292" flag="0"/>
			<psa10 value="0.000862404786334767" flag="0"/>
			<psa30 value="9.31797664523036e-05" flag="0"/>
		</comp>
	</station>
	<station code="PIPA" name="PIPA" netid="IV" source="Italian National Seismic Network (INSN)" insttype="" lat="39.48514" lon="16.8158">
		<comp name="--.HNE" depth="0.0">
			<acc value="0.00802942507228352" flag="0"/>
			<vel value="0.00261449189202045" flag="0"/>
			<psa03 value="0.0126145504958149" flag="0"/>
			<psa10 value="0.00140572097367845" flag="0"/>
			<psa30 value="0.000138006017221192" flag="0"/>
		</comp>
		<comp name="--.HNN" depth="0.0">
			<acc value="0.00398177357496261" flag="0"/>
			<vel value="0.00193813037546598" flag="0"/>
			<psa03 value="0.0100388004379219" flag="0"/>
			<psa10 value="0.000793085897424421" flag="0"/>
			<psa30 value="0.000276646685860015" flag="0"/>
		</comp>
		<comp name="--.HNZ" depth="0.0">
			<acc value="0.00444697395794186" flag="0"/>
			<vel value="0.00117203508220848" flag="0"/>
			<psa03 value="0.0050670007029712" flag="0"/>
			<psa10 value="0.000998084086921062" flag="0"/>
			<psa30 value="8.82966109359752e-05" flag="0"/>
		</comp>
	</station>
	<station code="PLAC" name="PLAC" netid="IV" source="Italian National Seismic Network (INSN)" insttype="" lat="38.4494" lon="16.4383">
		<comp name="--.HNE" depth="1.0">
			<acc value="0.00243529421507017" flag="0"/>
			<vel value="0.000644487653368066" flag="0"/>
			<psa03 value="0.00442614737720606" flag="0"/>
			<psa10 value="0.000762331867933258" flag="0"/>
			<psa30 value="2.2807635568397e-05" flag="0"/>
		</comp>
		<comp name="--.HNN" depth="1.0">
			<acc value="0.00156055762981544" flag="0"/>
			<vel value="0.000609269992405117" flag="0"/>
			<psa03 value="0.00224393510802174" flag="0"/>
			<psa10 value="0.000682810955532692" flag="0"/>
			<psa30 value="2.16211051436639e-05" flag="0"/>
		</comp>
		<comp name="--.HNZ" depth="1.0">
			<acc value="0.00394836415778727" flag="0"/>
			<vel value="0.000706575490384527" flag="0"/>
			<psa03 value="0.00226429111145337" flag="0"/>
			<psa10 value="0.000846703023512493" flag="0"/>
			<psa30 value="3.33177572681158e-05" flag="0"/>
		</comp>
	</station>
	<station code="SIRI" name="SIRI" netid="IV" source="Italian National Seismic Network (INSN)" insttype="" lat="40.1821" lon="15.8675">
		<comp name="--.HNE" depth="0.0">
			<acc value="0.00106379667399893" flag="0"/>
			<vel value="0.000500720040968752" flag="0"/>
			<psa03 value="0.00261906786888286" flag="0"/>
			<psa10 value="0.000764347450674029" flag="0"/>
			<psa30 value="7.66522327820107e-05" flag="0"/>
		</comp>
		<comp name="--.HNN" depth="0.0">
			<acc value="0.00102698230014889" flag="0"/>
			<vel value="0.000537954804170156" flag="0"/>
			<psa03 value="0.00233670769254985" flag="0"/>
			<psa10 value="0.00066503442635903" flag="0"/>
			<psa30 value="0.000106928867366984" flag="0"/>
		</comp>
		<comp name="--.HNZ" depth="0.0">
			<acc value="0.000710934994744165" flag="0"/>
			<vel value="0.000230707774601695" flag="0"/>
			<psa03 value="0.00102941967511945" flag="0"/>
			<psa10 value="0.000313327191935622" flag="0"/>
			<psa30 value="6.40895711404216e-05" flag="0"/>
		</comp>
	</station>
	<station code="AND3" name="AND3" netid="IX" source="Irpinia Seismic Network (ISNet)" insttype="" lat="40.9298" lon="15.3331">
		<comp name="01.HNE" depth="0.0">
			<acc value="0.000530807768652892" flag="0"/>
			<vel value="0.000422181666130298" flag="0"/>
			<psa03 value="0.00102681720779944" flag="0"/>
			<psa10 value="0.00068414856367022" flag="0"/>
			<psa30 value="0.000208341145328514" flag="0"/>
		</comp>
		<comp name="01.HNN" depth="0.0">
			<acc value="0.000739848187824028" flag="0"/>
			<vel value="0.0005362227863093" flag="0"/>
			<psa03 value="0.00209358074674027" flag="0"/>
			<psa10 value="0.000589353944148754" flag="0"/>
			<psa30 value="0.000255330742533442" flag="0"/>
		</comp>
		<comp name="01.HNZ" depth="0.0">
			<acc value="0.000541807539596336" flag="0"/>
			<vel value="0.000355070507931181" flag="0"/>
			<psa03 value="0.0013309961309458" flag="0"/>
			<psa10 value="0.000331720519778473" flag="0"/>
			<psa30 value="0.000223215464012248" flag="0"/>
		</comp>
	</station>
	<station code="BEL3" name="BEL3" netid="IX" source="Irpinia Seismic Network (ISNet)" insttype="" lat="40.7153" lon="15.6369">
		<comp name="01.HNE" depth="0.0">
			<acc value="0.000626124381065955" flag="0"/>
			<vel value="0.000389029375488467" flag="0"/>
			<psa03 value="0.00163385693291802" flag="0"/>
			<psa10 value="0.000770833212354268" flag="0"/>
			<psa30 value="0.000231267403663617" flag="0"/>
		</comp>
		<comp name="01.HNN" depth="0.0">
			<acc value="0.000532932723018761" flag="0"/>
			<vel value="0.000402185497383828" flag="0"/>
			<psa03 value="0.00114250073389394" flag="0"/>
			<psa10 value="0.000714496570173089" flag="0"/>
			<psa30 value="0.000204715110850608" flag="0"/>
		</comp>
		<comp name="01.HNZ" depth="0.0">
			<acc value="0.000762310129542264" flag="0"/>
			<vel value="0.000431693534016822" flag="0"/>
			<psa03 value="0.00119499818945732" flag="0"/>
			<psa10 value="0.000430851539848679" flag="0"/>
			<psa30 value="0.000345740846342443" flag="0"/>
		</comp>
		<comp name="02.HNE" depth="0.0">
			<acc value="0.000330633550574043" flag="0"/>
			<vel value="0.000154478634054548" flag="0"/>
			<psa03 value="0.000832563209868693" flag="0"/>
			<psa10 value="0.000366230012894135" flag="0"/>
			<psa30 value="6.36244101172635e-05" flag="0"/>
		</comp>
		<comp name="02.HNN" depth="0.0">
			<acc value="0.000239002863118134" flag="0"/>
			<vel value="0.000121288033146834" flag="0"/>
			<psa03 value="0.000559553587861987" flag="0"/>
			<psa10 value="0.000342270642500377" flag="0"/>
			<psa30 value="8.90749763006594e-05" flag="0"/>
		</comp>
		<comp name="02.HNZ" depth="0.0">
			<acc value="0.000299048214766868" flag="0"/>
			<vel value="0.000103343749836942" flag="0"/>
			<psa03 value="0.000495151575777385" flag="0"/>
			<psa10 value="0.000114192684333874" flag="0"/>
			<psa30 value="7.58095597717145e-05" flag="0"/>
		</comp>
	</station>
	<station code="BSC3" name="BSC3" netid="IX" source="Irpinia Seismic Network (ISNet)" insttype="" lat="41.012" lon="15.3852">
		<comp name="01.HNE" depth="0.0">
			<acc value="0.00498047471641421" flag="0"/>
			<vel value="0.000746533228496136" flag="0"/>
			<psa03 value="0.00085413088210731" flag="0"/>
			<psa10 value="0.000305029357088712" flag="0"/>
			<psa30 value="0.000259754577257714" flag="0"/>
		</comp>
		<comp name="01.HNN" depth="0.0">
			<acc value="0.00223052802412041" flag="0"/>
			<vel value="0.000492833974521962" flag="0"/>
			<psa03 value="0.0018185423445058" flag="0"/>
			<psa10 value="0.000299820789390027" flag="0"/>
			<psa30 value="0.000256706120104012" flag="0"/>
		</comp>
		<comp name="01.HNZ" depth="0.0">
			<acc value="0.00134051866686306" flag="0"/>
			<vel value="0.000515814013347392" flag="0"/>
			<psa03 value="0.000453167349212719" flag="0"/>
			<psa10 value="0.000246956877259389" flag="0"/>
			<psa30 value="0.000185379142437385" flag="0"/>
		</comp>
	</station>
	<station code="CGG3" name="CGG3" netid="IX" source="Irpinia Seismic Network (ISNet)" insttype="" lat="40.542" lon="15.5225">
		<comp name="01.HNE" depth="0.0">
			<acc value="0.000505217409359686" flag="0"/>
			<vel value="0.000257324606014514" flag="0"/>
			<psa03 value="0.00169561997624326" flag="0"/>
			<psa10 value="0.000355572158425945" flag="0"/>
			<psa30 value="0.000129436777676121" flag="0"/>
		</comp>
		<comp name="01.HNN" depth="0.0">
			<acc value="0.0005420484145182" flag="0"/>
			<vel value="0.000233374636672714" flag="0"/>
			<psa03 value="0.00143715347259571" flag="0"/>
			<psa10 value="0.000364893430211473" flag="0"/>
			<psa30 value="0.000103129702930412" flag="0"/>
		</comp>
		<comp name="01.HNZ" depth="0.0">
			<acc value="0.000270716407456653" flag="0"/>
			<vel value="0.000171014253798137" flag="0"/>
			<psa03 value="0.000657757440390501" flag="0"/>
			<psa10 value="0.00015201078285876" flag="0"/>
			<psa30 value="0.000124652489386459" flag="0"/>
		</comp>
		<comp name="02.HNE" depth="0.0">
			<acc value="0.000611518822935614" flag="0"/>
			<vel value="0.000250575239183829" flag="0"/>
			<psa03 value="0.00198999201600498" flag="0"/>
			<psa10 value="0.000406149473767226" flag="0"/>
			<psa30 value="3.660121045784e-05" flag="0"/>
		</comp>
		<comp name="02.HNN" depth="0.0">
			<acc value="0.000369631489808218" flag="0"/>
			<vel value="0.000230250932053103" flag="0"/>
			<psa03 value="0.00125083001304329" flag="0"/>
			<psa10 value="0.000481082338093887" flag="0"/>
			<psa30 value="7.2204405583214e-05" flag="0"/>
		</comp>
		<comp name="02.HNZ" depth="0.0">
			<acc value="0.000273860023596221" flag="0"/>
			<vel value="9.49027682038706e-05" flag="0"/>
			<psa03 value="0.000586596720484075" flag="0"/>
			<psa10 value="0.000143127381877125" flag="0"/>
			<psa30 value="3.66145414191071e-05" flag="0"/>
		</comp>
	</station>
	<station code="CLT3" name="CLT3" netid="IX" source="Irpinia Seismic Network (ISNet)" insttype="" lat="40.903" lon="15.4043">
		<comp name="01.HNE" depth="0.0">
			<acc value="0.0013749298292623" flag="0"/>
			<vel value="0.000501601300033092" flag="0"/>
			<psa03 value="0.00251634280213413" flag="0"/>
			<psa10 value="0.000381528418916564" flag="0"/>
			<psa30 value="0.000199273239936483" flag="0"/>
		</comp>
		<comp name="01.HNN" depth="0.0">
			<acc value="0.00179388931105668" flag="0"/>
			<vel value="0.000653323769755745" flag="0"/>
			<psa03 value="0.00165061471621929" flag="0"/>
			<psa10 value="0.00052129361517322" flag="0"/>
			<psa30 value="0.000209752488822994" flag="0"/>
		</comp>
		<comp name="01.HNZ" depth="0.0">
			<acc value="0.000760061171321454" flag="0"/>
			<vel value="0.000399120789940109" flag="0"/>
			<psa03 value="0.00105239108618523" flag="0"/>
			<psa10 value="0.000360296944076143" flag="0"/>
			<psa30 value="0.000328903220515744" flag="0"/>
		</comp>
	</station>
	<station code="CMP3" name="CMP3" netid="IX" source="Irpinia Seismic Network (ISNet)" insttype="" lat="40.6519" lon="15.0802">
		<comp name="01.HNE" depth="0.0">
			<acc value="0.00236158376689792" flag="0"/>
			<vel value="0.00134103955476482" flag="0"/>
			<psa03 value="0.0047160366981323" flag="0"/>
			<psa10 value="0.00117159413579923" flag="0"/>
			<psa30 value="0.000529183180789934" flag="0"/>
		</comp>
		<comp name="01.HNN" depth="0.0">
			<acc value="0.000888907217735612" flag="0"/>
			<vel value="0.000462804684699277" flag="0"/>
			<psa03 value="0.00193509417356621" flag="0"/>
			<psa10 value="0.000378083259050922" flag="0"/>
			<psa30 value="0.000212082942683135" flag="0"/>
		</comp>
		<comp name="01.HNZ" depth="0.0">
			<acc value="0.000394967835950172" flag="0"/>
			<vel value="0.000441286847028838" flag="0"/>
			<psa03 value="0.000638029571016848" flag="0"/>
			<psa10 value="0.000358529200018858" flag="0"/>
			<psa30 value="0.000208975549333823" flag="0"/>
		</comp>
	</station>
	<station code="COL3" name="COL3" netid="IX" source="Irpinia Seismic Network (ISNet)" insttype="" lat="40.6871" lon="15.3304">
		<comp name="01.HNE" depth="0.0">
			<acc value="0.000659791592926155" flag="0"/>
			<vel value="0.000435908294675164" flag="0"/>
			<psa03 value="0.00165599821086728" flag="0"/>
			<psa10 value="0.000567677273800479" flag="0"/>
			<psa30 value="0.000198615240618452" flag="0"/>
		</comp>
		<comp name="01.HNN" depth="0.0">
			<acc value="0.000393097205415967" flag="0"/>
			<vel value="0.000324853631368204" flag="0"/>
			<psa03 value="0.00113336292152976" flag="0"/>
			<psa10 value="0.000462999050322638" flag="0"/>
			<psa30 value="0.000208897536353017" flag="0"/>
		</comp>
		<comp name="01.HNZ" depth="0.0">
			<acc value="0.000402734851333963" flag="0"/>
			<vel value="0.000383896759315885" flag="0"/>
			<psa03 value="0.000787523360964679" flag="0"/>
			<psa10 value="0.000382159193124233" flag="0"/>
			<psa30 value="0.000258959550632637" flag="0"/>
		</comp>
	</station>
	<station code="CSG3" name="CSG3" netid="IX" source="Irpinia Seismic Network (ISNet)" insttype="" lat="40.8181" lon="15.4633">
		<comp name="01.HNE" depth="0.0">
			<acc value="0.000319936362339915" flag="0"/>
			<vel value="0.000491014266758775" flag="0"/>
			<psa03 value="0.000413244335044583" flag="0"/>
			<psa10 value="0.000435861695961895" flag="0"/>
			<psa30 value="0.000252788881439651" flag="0"/>
		</comp>
		<comp name="01.HNN" depth="0.0">
			<acc value="0.000263556031341753" flag="0"/>
			<vel value="0.000430144021981455" flag="0"/>
			<psa03 value="0.000401903373800623" flag="0"/>
			<psa10 value="0.000396508229614853" flag="0"/>
			<psa30 value="0.00023111512795126" flag="0"/>
		</comp>
		<comp name="01.HNZ" depth="0.0">
			<acc value="0.000254638420687215" flag="0"/>
			<vel value="0.000345003750633937" flag="0"/>
			<psa03 value="0.000368405915500628" flag="0"/>
			<psa10 value="0.000302609978066519" flag="0"/>
			<psa30 value="0.000222860544667218" flag="0"/>
		</comp>
	</station>
	<station code="LGS3" name="LGS3" netid="IX" source="Irpinia Seismic Network (ISNet)" insttype="" lat="40.9865" lon="14.9906">
		<comp name="01.HNE" depth="0.0">
			<acc value="0.002536619130448" flag="0"/>
			<vel value="0.000468563382786981" flag="0"/>
			<psa03 value="0.000859417283741911" flag="0"/>
			<psa10 value="0.000356880379855097" flag="0"/>
			<psa30 value="0.000314778118130508" flag="0"/>
		</comp>
		<comp name="01.HNN" depth="0.0">
			<acc value="0.00283512214764701" flag="0"/>
			<vel value="0.000432780890866665" flag="0"/>
			<psa03 value="0.000764940566137518" flag="0"/>
			<psa10 value="0.000341072203734491" flag="0"/>
			<psa30 value="0.000199278839266148" flag="0"/>
		</comp>
		<comp name="01.HNZ" depth="0.0">
			<acc value="0.00324005492250881" flag="0"/>
			<vel value="0.00047972155498376" flag="0"/>
			<psa03 value="0.000482867396125014" flag="0"/>
			<psa10 value="0.000237665768604979" flag="0"/>
			<psa30 value="0.000249083792245458" flag="0"/>
		</comp>
	</station>
	<station code="LIO3" name="LIO3" netid="IX" source="Irpinia Seismic Network (ISNet)" insttype="" lat="40.8969" lon="15.1804">
		<comp name="01.HNE" depth="0.0">
			<acc value="0.00111631439703559" flag="0"/>
			<vel value="0.000403610079136694" flag="0"/>
			<psa03 value="0.000544066355852086" flag="0"/>
			<psa10 value="0.000233741587748786" flag="0"/>
			<psa30 value="0.000190515068604818" flag="0"/>
		</comp>
		<comp name="01.HNN" depth="0.0">
			<acc value="0.000970722280734725" flag="0"/>
			<vel value="0.000530846229700136" flag="0"/>
			<psa03 value="0.000512816605048244" flag="0"/>
			<psa10 value="0.000277017667467111" flag="0"/>
			<psa30 value="0.000245570043851775" flag="0"/>
		</comp>
		<comp name="01.HNZ" depth="0.0">
			<acc value="0.000407985587596844" flag="0"/>
			<vel value="0.000405833198678632" flag="0"/>
			<psa03 value="0.000404022125811316" flag="0"/>
			<psa10 value="0.000323972389315299" flag="0"/>
			<psa30 value="0.00021846034432143" flag="0"/>
		</comp>
	</station>
	<station code="MNT3" name="MNT3" netid="IX" source="Irpinia Seismic Network (ISNet)" insttype="" lat="40.837" lon="15.0067">
		<comp name="01.HNE" depth="0.0">
			<acc value="0.000351147381661348" flag="0"/>
			<vel value="0.000502701854499345" flag="0"/>
			<psa03 value="0.00115049483442905" flag="0"/>
			<psa10 value="0.000264874656021063" flag="0"/>
			<psa30 value="0.000233613991405524" flag="0"/>
		</comp>
		<comp name="01.HNN" depth="0.0">
			<acc value="0.000512963750876194" flag="0"/>
			<vel value="0.000500790290746615" flag="0"/>
			<psa03 value="0.00117663898171435" flag="0"/>
			<psa10 value="0.000316575932539233" flag="0"/>
			<psa30 value="0.000273898040234274" flag="0"/>
		</comp>
		<comp name="01.HNZ" depth="0.0">
			<acc value="0.000297071906095011" flag="0"/>
			<vel value="0.00041556180400943" flag="0"/>
			<psa03 value="0.00062231421517082" flag="0"/>
			<psa10 value="0.000365977252009493" flag="0"/>
			<psa30 value="0.000231966851040619" flag="0"/>
		</comp>
	</station>
	<station code="NSC3" name="NSC3" netid="IX" source="Irpinia Seismic Network (ISNet)" insttype="" lat="40.8468" lon="15.1222">
		<comp name="01.HNE" depth="0.0">
			<acc value="0.000393642350608145" flag="0"/>
			<vel value="0.000353991682132439" flag="0"/>
			<psa03 value="0.000707484123208565" flag="0"/>
			<psa10 value="0.000338996939305565" flag="0"/>
			<psa30 value="0.000154705352637032" flag="0"/>
		</comp>
		<comp name="01.HNN" depth="0.0">
			<acc value="0.000465306422033992" flag="0"/>
			<vel value="0.000348575556334485" flag="0"/>
			<psa03 value="0.000640426783853248" flag="0"/>
			<psa10 value="0.000375171425531354" flag="0"/>
			<psa30 value="0.0002467274903186" flag="0"/>
		</comp>
		<comp name="01.HNZ" depth="0.0">
			<acc value="0.00027381965712657" flag="0"/>
			<vel value="0.00028430842229305" flag="0"/>
			<psa03 value="0.000431804931455022" flag="0"/>
			<psa10 value="0.000295015724984508" flag="0"/>
			<psa30 value="0.000234583196235635" flag="0"/>
		</comp>
	</station>
