<stationlist xmlns:esm="https://esm-db.eu/esmws/shakemap/1/" created="1783994380">
	<station code="EMCN" name="EMCN" netid="IV" source="Italian National Seismic Network (INSN)" insttype="" lat="37.7912" lon="15.0336" esm:processing="manual (Paolucci et al 2011)" esm:quality="good">
		<comp name="--.HNE" depth="0.0">
			<acc value="0.00301410746570558" flag="0"/>
			<vel value="0.00124007878822317" flag="0"/>
			<psa03 value="0.00299918793929322" flag="0"/>
			<psa10 value="0.00193040510642545" flag="0"/>
			<psa30 value="0.000207985900440978" flag="0"/>
		</comp>
		<comp name="--.HNN" depth="0.0">
			<acc value="0.00241302291652554" flag="0"/>
			<vel value="0.00129738065173686" flag="0"/>
			<psa03 value="0.00388444287215158" flag="0"/>
			<psa10 value="0.00143680807210816" flag="0"/>
			<psa30 value="0.00044941581325822" flag="0"/>
		</comp>
		<comp name="--.HNZ" depth="0.0">
			<acc value="0.00316657648023216" flag="0"/>
			<vel value="0.000734139623709813" flag="0"/>
			<psa03 value="0.00235426321749817" flag="0"/>
			<psa10 value="0.000777701089194716" flag="0"/>
			<psa30 value="0.000174373218036497" flag="0"/>
		</comp>
	</station>
	<station code="IVPL" name="IVPL" netid="IV" source="Italian National Seismic Network (INSN)" insttype="" lat="38.3763" lon="14.9801" esm:processing="manual (Paolucci et al 2011)" esm:quality="best">
		<comp name="--.HNE" depth="0.0">
			<acc value="0.00306416562321047" flag="0"/>
			<vel value="0.000897509650376907" flag="0"/>
			<psa03 value="0.0026095045725989" flag="0"/>
			<psa10 value="0.00132607308020694" flag="0"/>
			<psa30 value="0.000191712687003688" flag="0"/>
		</comp>
		<comp name="--.HNN" depth="0.0">
			<acc value="0.00383906714354665" flag="0"/>
			<vel value="0.000931295937295018" flag="0"/>
			<psa03 value="0.00255718697921173" flag="0"/>
			<psa10 value="0.00135886900277581" flag="0"/>
			<psa30 value="0.000107675075653643" flag="0"/>
		</comp>
		<comp name="--.HNZ" depth="0.0">
			<acc value="0.00369318431284283" flag="0"/>
			<vel value="0.000915307436833138" flag="0"/>
			<psa03 value="0.00210296418084801" flag="0"/>
			<psa10 value="0.000678577921205399" flag="0"/>
			<psa30 value="9.36414181280918e-05" flag="0"/>
		</comp>
	</station>
	<station code="NOV" name="NOV" netid="IV" source="Italian National Seismic Network (INSN)" insttype="" lat="38.0278" lon="15.1367" esm:processing="manual (Paolucci et al 2011)" esm:quality="bad">
		<comp name="--.HNE" depth="0.0">
			<acc value="0.00323798411519758" flag="0"/>
			<vel value="0.00145263885998433" flag="0"/>
			<psa03 value="0.00392896795713629" flag="0"/>
			<psa10 value="0.00141992855548493" flag="0"/>
			<psa30 value="0.000151316078635297" flag="0"/>
		</comp>
		<comp name="--.HNN" depth="0.0">
			<acc value="0.00421864782879614" flag="0"/>
			<vel value="0.00150235187503674" flag="0"/>
			<psa03 value="0.0052975439701619" flag="0"/>
			<psa10 value="0.00181216492984439" flag="0"/>
			<psa30 value="0.000268949743683859" flag="0"/>
		</comp>
		<comp name="--.HNZ" depth="0.0">
			<acc value="0.00440141868681752" flag="0"/>
			<vel value="0.000989338483011941" flag="0"/>
			<psa03 value="0.0042354677534292" flag="0"/>
			<psa10 value="0.000862404786334767" flag="0"/>
			<psa30 value="9.31797664523036e-05" flag="0"/>
		</comp>
	</station>
	<station code="PIPA" name="PIPA" netid="IV" source="Italian National Seismic Network (INSN)" insttype="" lat="39.48514" lon="16.8158" esm:processing="manual (Paolucci et al 2011)" esm:quality="good">
		<comp name="--.HNE" depth="0.0">
			<acc value="0.00802942507228352" flag="0"/>
			<vel value="0.00261449189202045" flag="0"/>
			<psa03 value="0.0126145504958149" flag="0"/>
			<psa10 value="0.00140572097367845" flag="0"/>
			<psa30 value="0.000138006017221192" flag="0"/>
		</comp>
		<comp name="--.HNN" depth="0.0">
			<acc value="0.00398177357496261" flag="0"/>
			<vel value="0.00193813037546598" flag="0"/>
			<psa03 value="0.0100388004379219" flag="0"/>
			<psa10 value="0.000793085897424421" flag="0"/>
			<psa30 value="0.000276646685860015" flag="0"/>
		</comp>
		<comp name="--.HNZ" depth="0.0">
			<acc value="0.00444697395794186" flag="0"/>
			<vel value="0.00117203508220848" flag="0"/>
			<psa03 value="0.0050670007029712" flag="0"/>
			<psa10 value="0.000998084086921062" flag="0"/>
			<psa30 value="8.82966109359752e-05" flag="0"/>
		</comp>
	</station>
	<station code="PLAC" name="PLAC" netid="IV" source="Italian National Seismic Network (INSN)" insttype="" lat="38.4494" lon="16.4383" esm:processing="manual (Paolucci et al 2011)" esm:quality="bad">
		<comp name="--.HNE" depth="1.0">
			<acc value="0.00243529421507017" flag="0"/>
			<vel value="0.000644487653368066" flag="0"/>
			<psa03 value="0.00442614737720606" flag="0"/>
			<psa10 value="0.000762331867933258" flag="0"/>
			<psa30 value="2.2807635568397e-05" flag="0"/>
		</comp>
		<comp name="--.HNN" depth="1.0">
			<acc value="0.00156055762981544" flag="0"/>
			<vel value="0.000609269992405117" flag="0"/>
			<psa03 value="0.00224393510802174" flag="0"/>
			<psa10 value="0.000682810955532692" flag="0"/>
			<psa30 value="2.16211051436639e-05" flag="0"/>
		</comp>
		<comp name="--.HNZ" depth="1.0">
			<acc value="0.00394836415778727" flag="0"/>
			<vel value="0.000706575490384527" flag="0"/>
			<psa03 value="0.00226429111145337" flag="0"/>
			<psa10 value="0.000846703023512493" flag="0"/>
			<psa30 value="3.33177572681158e-05" flag="0"/>
		</comp>
	</station>
	<station code="SIRI" name="SIRI" netid="IV" source="Italian National Seismic Network (INSN)" insttype="" lat="40.1821" lon="15.8675" esm:processing="manual (Paolucci et al 2011)" esm:quality="bad">
		<comp name="--.HNE" depth="0.0">
			<acc value="0.00106379667399893" flag="0"/>
			<vel value="0.000500720040968752" flag="0"/>
			<psa03 value="0.00261906786888286" flag="0"/>
			<psa10 value="0.000764347450674029" flag="0"/>
			<psa30 value="7.66522327820107e-05" flag="0"/>
		</comp>
		<comp name="--.HNN" depth="0.0">
			<acc value="0.00102698230014889" flag="0"/>
			<vel value="0.000537954804170156" flag="0"/>
			<psa03 value="0.00233670769254985" flag="0"/>
			<psa10 value="0.00066503442635903" flag="0"/>
			<psa30 value="0.000106928867366984" flag="0"/>
		</comp>
		<comp name="--.HNZ" depth="0.0">
			<acc value="0.000710934994744165" flag="0"/>
			<vel value="0.000230707774601695" flag="0"/>
			<psa03 value="0.00102941967511945" flag="0"/>
			<psa10 value="0.000313327191935622" flag="0"/>
			<psa30 value="6.40895711404216e-05" flag="0"/>
		</comp>
	</station>
	<station code="TIP" name="TIP" netid="MN" source="Mediterranean Very Broadband Seismographic Network (MedNet)" insttype="" lat="39.1794" lon="16.7583" esm:processing="manual (Paolucci et al 2011)" esm:quality="good">
		<comp name="--.HNE" depth="0.0">
			<acc value="0.00194720784997172" flag="0"/>
			<vel value="0.000866571002707756" flag="0"/>
			<psa03 value="0.00292562740220716" flag="0"/>
			<psa10 value="0.000786279548098701" flag="0"/>
			<psa30 value="5.44698290619763e-05" flag="0"/>
		</comp>
		<comp name="--.HNN" depth="0.0">
			<acc value="0.00162113737220803" flag="0"/>
			<vel value="0.00094339425235643" flag="0"/>
			<psa03 value="0.00188992809559646" flag="0"/>
			<psa10 value="0.000827467296116119" flag="0"/>
			<psa30 value="0.000119869620461566" flag="0"/>
		</comp>
		<comp name="--.HNZ" depth="0.0">
			<acc value="0.00711197913066239" flag="0"/>
			<vel value="0.00271237349159982" flag="0"/>
			<psa03 value="0.00455564912012541" flag="0"/>
			<psa10 value="0.00119929722099254" flag="0"/>
			<psa30 value="0.000110921449564159" flag="0"/>
		</comp>
	</station>
	<station code="MARCO" name="MARCO" netid="GE" source="GEOFON" insttype="" lat="40.29724" lon="15.80632" esm:processing="discarded" esm:quality="bad">
		<comp name="--.HLE" depth="1.0">
			<acc value="0" flag="1"/>
			<vel value="0" flag="1"/>
			<psa03 value="0" flag="1"/>
			<psa10 value="0" flag="1"/>
			<psa30 value="0" flag="1"/>
		</comp>
		<comp name="--.HLN" depth="1.0">
			<acc value="0" flag="1"/>
			<vel value="0" flag="1"/>
			<psa03 value="0" flag="1"/>
			<psa10 value="0" flag="1"/>
			<psa30 value="0" flag="1"/>
		</comp>
		<comp name="--.HLZ" depth="1.0">
			<acc value="0" flag="1"/>
			<vel value="0" flag="1"/>
			<psa03 value="0" flag="1"/>
			<psa10 value="0" flag="1"/>
			<psa30 value="0" flag="1"/>
		</comp>
	</station>
	<station code="ACER" name="ACER" netid="IV" source="Italian National Seismic Network (INSN)" insttype="" lat="40.7867" lon="15.9427" esm:processing="discarded" esm:quality="bad">
		<comp name="--.HNE" depth="1.0">
			<acc value="0" flag="1"/>
			<vel value="0" flag="1"/>
			<psa03 value="0" flag="1"/>
			<psa10 value="0" flag="1"/>
			<psa30 value="0" flag="1"/>
		</comp>
		<comp name="--.HNN" depth="1.0">
			<acc value="0" flag="1"/>
			<vel value="0" flag="1"/>
			<psa03 value="0" flag="1"/>
			<psa10 value="0" flag="1"/>
			<psa30 value="0" flag="1"/>
		</comp>
		<comp name="--.HNZ" depth="1.0">
			<acc value="0" flag="1"/>
			<vel value="0" flag="1"/>
			<psa03 value="0" flag="1"/>
			<psa10 value="0" flag="1"/>
			<psa30 value="0" flag="1"/>
		</comp>
	</station>
	<station code="AMUR" name="AMUR" netid="IV" source="Italian National Seismic Network (INSN)" insttype="" lat="40.9071" lon="16.6041" esm:processing="discarded" esm:quality="bad">
		<comp name="--.HNE" depth="0.0">
			<acc value="0" flag="1"/>
			<vel value="0" flag="1"/>
			<psa03 value="0" flag="1"/>
			<psa10 value="0" flag="1"/>
			<psa30 value="0" flag="1"/>
		</comp>
		<comp name="--.HNN" depth="0.0">
			<acc value="0" flag="1"/>
			<vel value="0" flag="1"/>
			<psa03 value="0" flag="1"/>
			<psa10 value="0" flag="1"/>
			<psa30 value="0" flag="1"/>
		</comp>
		<comp name="--.HNZ" depth="0.0">
			<acc value="0" flag="1"/>
			<vel value="0" flag="1"/>
			<psa03 value="0" flag="1"/>
			<psa10 value="0" flag="1"/>
			<psa30 value="0" flag="1"/>
		</comp>
	</station>
	<station code="CAR1" name="CAR1" netid="IV" source="Italian National Seismic Network (INSN)" insttype="" lat="39.2534" lon="16.2114" esm:processing="discarded" esm:quality="bad">
		<comp name="--.HNE" depth="0.0">
			<acc value="0" flag="1"/>
			<vel value="0" flag="1"/>
			<psa03 value="0" flag="1"/>
			<psa10 value="0" flag="1"/>
			<psa30 value="0" flag="1"/>
		</comp>
		<comp name="--.HNN" depth="0.0">
			<acc value="0" flag="1"/>
			<vel value="0" flag="1"/>
			<psa03 value="0" flag="1"/>
			<psa10 value="0" flag="1"/>
			<psa30 value="0" flag="1"/>
		</comp>
		<comp name="--.HNZ" depth="0.0">
			<acc value="0" flag="1"/>
			<vel value="0" flag="1"/>
			<psa03 value="0" flag="1"/>
			<psa10 value="0" flag="1"/>
			<psa30 value="0" flag="1"/>
		</comp>
	</station>
	<station code="CDRU" name="CDRU" netid="IV" source="Italian National Seismic Network (INSN)" insttype="" lat="40.4896" lon="15.3046" esm:processing="discarded" esm:quality="bad">
		<comp name="--.HNE" depth="0.0">
			<acc value="0" flag="1"/>
			<vel value="0" flag="1"/>
			<psa03 value="0" flag="1"/>
			<psa10 value="0" flag="1"/>
			<psa30 value="0" flag="1"/>
		</comp>
		<comp name="--.HNN" depth="0.0">
			<acc value="0" flag="1"/>
			<vel value="0" flag="1"/>
			<psa03 value="0" flag="1"/>
			<psa10 value="0" flag="1"/>
			<psa30 value="0" flag="1"/>
		</comp>
		<comp name="--.HNZ" depth="0.0">
			<acc value="0" flag="1"/>
			<vel value="0" flag="1"/>
			<psa03 value="0" flag="1"/>
			<psa10 value="0" flag="1"/>
			<psa30 value="0" flag="1"/>
		</comp>
	</station>
	<station code="CELI" name="CELI" netid="IV" source="Italian National Seismic Network (INSN)" insttype="" lat="39.4027" lon="16.5088" esm:processing="discarded" esm:quality="bad">
		<comp name="--.HNE" depth="0.0">
			<acc value="0" flag="1"/>
			<vel value="0" flag="1"/>
			<psa03 value="0" flag="1"/>
			<psa10 value="0" flag="1"/>
			<psa30 value="0" flag="1"/>
		</comp>
		<comp name="--.HNN" depth="0.0">
			<acc value="0" flag="1"/>
			<vel value="0" flag="1"/>
			<psa03 value="0" flag="1"/>
			<psa10 value="0" flag="1"/>
			<psa30 value="0" flag="1"/>
		</comp>
		<comp name="--.HNZ" depth="0.0">
			<acc value="0" flag="1"/>
			<vel value="0" flag="1"/>
			<psa03 value="0" flag="1"/>
			<psa10 value="0" flag="1"/>
			<psa30 value="0" flag="1"/>
		</comp>
	</station>
	<station code="CMPR" name="CMPR" netid="IV" source="Italian National Seismic Network (INSN)" insttype="" lat="40.3181" lon="15.303" esm:processing="discarded" esm:quality="bad">
		<comp name="--.HNE" depth="0.0">
			<acc value="0" flag="1"/>
			<vel value="0" flag="1"/>
			<psa03 value="0" flag="1"/>
			<psa10 value="0" flag="1"/>
			<psa30 value="0" flag="1"/>
		</comp>
		<comp name="--.HNN" depth="0.0">
			<acc value="0" flag="1"/>
			<vel value="0" flag="1"/>
			<psa03 value="0" flag="1"/>
			<psa10 value="0" flag="1"/>
			<psa30 value="0" flag="1"/>
		</comp>
		<comp name="--.HNZ" depth="0.0">
			<acc value="0" flag="1"/>
			<vel value="0" flag="1"/>
			<psa03 value="0" flag="1"/>
			<psa10 value="0" flag="1"/>
			<psa30 value="0" flag="1"/>
		</comp>
	</station>
	<station code="ECHR" name="ECHR" netid="IV" source="Italian National Seismic Network (INSN)" insttype="" lat="37.6863" lon="14.9129" esm:processing="discarded" esm:quality="bad">
		<comp name="--.HNE" depth="0.0">
			<acc value="0" flag="1"/>
			<vel value="0" flag="1"/>
			<psa03 value="0" flag="1"/>
			<psa10 value="0" flag="1"/>
			<psa30 value="0" flag="1"/>
		</comp>
		<comp name="--.HNN" depth="0.0">
			<acc value="0" flag="1"/>
			<vel value="0" flag="1"/>
			<psa03 value="0" flag="1"/>
			<psa10 value="0" flag="1"/>
			<psa30 value="0" flag="1"/>
		</comp>
		<comp name="--.HNZ" depth="0.0">
			<acc value="0" flag="1"/>
			<vel value="0" flag="1"/>
			<psa03 value="0" flag="1"/>
			<psa10 value="0" flag="1"/>
			<psa30 value="0" flag="1"/>
		</comp>
	</station>
	<station code="ENIC" name="ENIC" netid="IV" source="Italian National Seismic Network (INSN)" insttype="" lat="37.6314" lon="15.0216" esm:processing="discarded" esm:quality="bad">
		<comp name="--.HNE" depth="0.0">
			<acc value="0" flag="1"/>
			<vel value="0" flag="1"/>
			<psa03 value="0" flag="1"/>
			<psa10 value="0" flag="1"/>
			<psa30 value="0" flag="1"/>
		</comp>
		<comp name="--.HNN" depth="0.0">
			<acc value="0" flag="1"/>
			<vel value="0" flag="1"/>
			<psa03 value="0" flag="1"/>
			<psa10 value="0" flag="1"/>
			<psa30 value="0" flag="1"/>
		</comp>
		<comp name="--.HNZ" depth="0.0">
			<acc value="0" flag="1"/>
			<vel value="0" flag="1"/>
			<psa03 value="0" flag="1"/>
			<psa10 value="0" flag="1"/>
			<psa30 value="0" flag="1"/>
		</comp>
	</station>
	<station code="EPOZ" name="EPOZ" netid="IV" source="Italian National Seismic Network (INSN)" insttype="" lat="37.6719" lon="15.1885" esm:processing="discarded" esm:quality="bad">
		<comp name="--.HNE" depth="0.0">
			<acc value="0" flag="1"/>
			<vel value="0" flag="1"/>
			<psa03 value="0" flag="1"/>
			<psa10 value="0" flag="1"/>
			<psa30 value="0" flag="1"/>
		</comp>
		<comp name="--.HNN" depth="0.0">
			<acc value="0" flag="1"/>
			<vel value="0" flag="1"/>
			<psa03 value="0" flag="1"/>
			<psa10 value="0" flag="1"/>
			<psa30 value="0" flag="1"/>
		</comp>
		<comp name="--.HNZ" depth="0.0">
			<acc value="0" flag="1"/>
			<vel value="0" flag="1"/>
			<psa03 value="0" flag="1"/>
			<psa10 value="0" flag="1"/>
			<psa30 value="0" flag="1"/>
		</comp>
	</station>
	<station code="ESML" name="ESML" netid="IV" source="Italian National Seismic Network (INSN)" insttype="" lat="37.6181" lon="14.8794" esm:processing="discarded" esm:quality="bad">
		<comp name="--.HNE" depth="0.0">
			<acc value="0" flag="1"/>
			<vel value="0" flag="1"/>
			<psa03 value="0" flag="1"/>
			<psa10 value="0" flag="1"/>
			<psa30 value="0" flag="1"/>
		</comp>
		<comp name="--.HNN" depth="0.0">
			<acc value="0" flag="1"/>
			<vel value="0" flag="1"/>
			<psa03 value="0" flag="1"/>
			<psa10 value="0" flag="1"/>
			<psa30 value="0" flag="1"/>
		</comp>
		<comp name="--.HNZ" depth="0.0">
			<acc value="0" flag="1"/>
			<vel value="0" flag="1"/>
			<psa03 value="0" flag="1"/>
			<psa10 value="0" flag="1"/>
			<psa30 value="0" flag="1"/>
		</comp>
	</station>
	<station code="EVRN" name="EVRN" netid="IV" source="Italian National Seismic Network (INSN)" insttype="" lat="37.6892" lon="15.1356" esm:processing="discarded" esm:quality="bad">
		<comp name="--.HNE" depth="0.0">
			<acc value="0" flag="1"/>
			<vel value="0" flag="1"/>
			<psa03 value="0" flag="1"/>
			<psa10 value="0" flag="1"/>
			<psa30 value="0" flag="1"/>
		</comp>
		<comp name="--.HNN" depth="0.0">
			<acc value="0" flag="1"/>
			<vel value="0" flag="1"/>
			<psa03 value="0" flag="1"/>
			<psa10 value="0" flag="1"/>
			<psa30 value="0" flag="1"/>
		</comp>
		<comp name="--.HNZ" depth="0.0">
			<acc value="0" flag="1"/>
			<vel value="0" flag="1"/>
			<psa03 value="0" flag="1"/>
			<psa10 value="0" flag="1"/>
			<psa30 value="0" flag="1"/>
		</comp>
	</station>
	<station code="FERC" name="FERC" netid="IV" source="Italian National Seismic Network (INSN)" insttype="" lat="38.45271" lon="16.12807" esm:processing="discarded" esm:quality="good">
		<comp name="--.HNE" depth="0.0">
			<acc value="0" flag="1"/>
			<vel value="0" flag="1"/>
			<psa03 value="0" flag="1"/>
			<psa10 value="0" flag="1"/>
			<psa30 value="0" flag="1"/>
		</comp>
		<comp name="--.HNN" depth="0.0">
			<acc value="0" flag="1"/>
			<vel value="0" flag="1"/>
			<psa03 value="0" flag="1"/>
			<psa10 value="0" flag="1"/>
			<psa30 value="0" flag="1"/>
		</comp>
		<comp name="--.HNZ" depth="0.0">
			<acc value="0" flag="1"/>
			<vel value="0" flag="1"/>
			<psa03 value="0" flag="1"/>
			<psa10 value="0" flag="1"/>
			<psa30 value="0" flag="1"/>
		</comp>
	</station>
	<station code="GALF" name="GALF" netid="IV" source="Italian National Seismic Network (INSN)" insttype="" lat="37.7107" lon="14.5665" esm:processing="discarded" esm:quality="bad">
		<comp name="--.HNE" depth="0.0">
			<acc value="0" flag="1"/>
			<vel value="0" flag="1"/>
			<psa03 value="0" flag="1"/>
			<psa10 value="0" flag="1"/>
			<psa30 value="0" flag="1"/>
		</comp>
		<comp name="--.HNN" depth="0.0">
			<acc value="0" flag="1"/>
			<vel value="0" flag="1"/>
			<psa03 value="0" flag="1"/>
			<psa10 value="0" flag="1"/>
			<psa30 value="0" flag="1"/>
		</comp>
		<comp name="--.HNZ" depth="0.0">
			<acc value="0" flag="1"/>
			<vel value="0" flag="1"/>
			<psa03 value="0" flag="1"/>
			<psa10 value="0" flag="1"/>
			<psa30 value="0" flag="1"/>
		</comp>
	</station>
	<station code="GRIS" name="GRIS" netid="IV" source="Italian National Seismic Network (INSN)" insttype="" lat="39.7405" lon="15.8531" esm:processing="discarded" esm:quality="bad">
		<comp name="--.HNE" depth="0.0">
			<acc value="0" flag="1"/>
			<vel value="0" flag="1"/>
			<psa03 value="0" flag="1"/>
			<psa10 value="0" flag="1"/>
			<psa30 value="0" flag="1"/>
		</comp>
		<comp name="--.HNN" depth="0.0">
			<acc value="0" flag="1"/>
			<vel value="0" flag="1"/>
			<psa03 value="0" flag="1"/>
			<psa10 value="0" flag="1"/>
			<psa30 value="0" flag="1"/>
		</comp>
		<comp name="--.HNZ" depth="0.0">
			<acc value="0" flag="1"/>
			<vel value="0" flag="1"/>
			<psa03 value="0" flag="1"/>
			<psa10 value="0" flag="1"/>
			<psa30 value="0" flag="1"/>
		</comp>
	</station>
	<station code="ILOS" name="ILOS" netid="IV" source="Italian National Seismic Network (INSN)" insttype="" lat="38.4457" lon="14.9483" esm:processing="discarded" esm:quality="bad">
		<comp name="--.HNE" depth="0.0">
			<acc value="0" flag="1"/>
			<vel value="0" flag="1"/>
			<psa03 value="0" flag="1"/>
			<psa10 value="0" flag="1"/>
			<psa30 value="0" flag="1"/>
		</comp>
		<comp name="--.HNN" depth="0.0">
			<acc value="0" flag="1"/>
			<vel value="0" flag="1"/>
			<psa03 value="0" flag="1"/>
			<psa10 value="0" flag="1"/>
			<psa30 value="0" flag="1"/>
		</comp>
		<comp name="--.HNZ" depth="0.0">
			<acc value="0" flag="1"/>
			<vel value="0" flag="1"/>
			<psa03 value="0" flag="1"/>
