<?xml version="1.0" encoding="UTF-8" standalone="yes"?>
<!DOCTYPE earthquake SYSTEM "stationlist.dtd">
<stationlist created="" xmlns="ch.ethz.sed.shakemap.usgs.xml">
  <station code="LPDG" name="LPDG" netid="IV" insttype="" lat="35.5183" lon="12.6302">
    <comp name="--.HHE">
      <acc value="0.0521185605" flag="0"/>
      <vel value="0.0430652753" flag="0"/>
      <psa03 value="0.1531252870" flag="0"/>
      <psa10 value="0.0641736727" flag="0"/>
      <psa30 value="0.0214600067" flag="0"/>
    </comp>
    <comp name="--.HHN">
      <acc value="0.0551696492" flag="0"/>
      <vel value="0.0563795366" flag="0"/>
      <psa03 value="0.1421514917" flag="0"/>
      <psa10 value="0.0805699710" flag="0"/>
      <psa30 value="0.0124168088" flag="0"/>
    </comp>
    <comp name="--.HHZ">
      <acc value="0.0292504887" flag="0"/>
      <vel value="0.0270168617" flag="0"/>
      <psa03 value="0.0747719405" flag="0"/>
      <psa10 value="0.0193853279" flag="0"/>
      <psa30 value="0.0102231154" flag="0"/>
    </comp>
  </station>
  <station code="XLND" name="XLND" netid="ML" insttype="" lat="36.0323" lon="14.2201">
    <comp name="--.HHE">
      <acc value="0.0315639652" flag="0"/>
      <vel value="0.0329859384" flag="0"/>
      <psa03 value="0.0961863240" flag="0"/>
      <psa10 value="0.0496944725" flag="0"/>
      <psa30 value="0.0125546382" flag="0"/>
    </comp>
    <comp name="--.HHN">
      <acc value="0.0388961495" flag="0"/>
      <vel value="0.0397432181" flag="0"/>
      <psa03 value="0.0736433603" flag="0"/>
      <psa10 value="0.0683377471" flag="0"/>
      <psa30 value="0.0144864430" flag="0"/>
    </comp>
    <comp name="--.HHZ">
      <acc value="0.0283230680" flag="0"/>
      <vel value="0.0369353001" flag="0"/>
      <psa03 value="0.0827523760" flag="0"/>
      <psa10 value="0.0304218387" flag="0"/>
      <psa30 value="0.0225100591" flag="0"/>
    </comp>
  </station>
</stationlist>
