<?xml version="1.0" encoding="UTF-8" standalone="yes"?>
<!DOCTYPE earthquake SYSTEM "stationlist.dtd">
<stationlist created="" xmlns="ch.ethz.sed.shakemap.usgs.xml">
  <station code="KARP" name="KARP" netid="GE" insttype="STS-2/N" commtype="DIG" lat="35.5471" lon="27.1611">
    <comp name="--.HHE">
      <acc value="0.3315389858" flag="0"/>
      <vel value="0.0537385641" flag="0"/>
      <psa03 value="0.2207158720" flag="0"/>
      <psa10 value="0.0110208130" flag="0"/>
      <psa30 value="0.0014457018" flag="0"/>
    </comp>
    <comp name="--.HHZ">
      <acc value="0.1126571187" flag="0"/>
      <vel value="0.0279086587" flag="0"/>
      <psa03 value="0.0692680113" flag="0"/>
      <psa10 value="0.0141769010" flag="0"/>
      <psa30 value="0.0005660406" flag="0"/>
    </comp>
    <comp name="--.HHN">
      <acc value="0.2920172359" flag="0"/>
      <vel value="0.0633399012" flag="0"/>
      <psa03 value="0.4564926852" flag="0"/>
      <psa10 value="0.0295421988" flag="0"/>
      <psa30 value="0.0016277308" flag="0"/>
    </comp>
  </station>
  <station code="THERA" name="THERA" netid="GE" insttype="STS-2/N" commtype="DIG" lat="36.367" lon="25.4753">
    <comp name="--.HHN">
      <acc value="0.0029897413" flag="0"/>
      <vel value="0.0003465231" flag="0"/>
      <psa03 value="0.0012705427" flag="0"/>
      <psa10 value="0.0003016806" flag="0"/>
      <psa30 value="0.0000845389" flag="0"/>
    </comp>
    <comp name="--.HHZ">
      <acc value="0.0299337877" flag="0"/>
      <vel value="0.0125196840" flag="0"/>
      <psa03 value="0.0735776891" flag="0"/>
      <psa10 value="0.0049533307" flag="0"/>
      <psa30 value="0.0005730935" flag="0"/>
    </comp>
    <comp name="--.HHE">
      <acc value="0.0163278211" flag="0"/>
      <vel value="0.0072852979" flag="0"/>
      <psa03 value="0.0352344809" flag="0"/>
      <psa10 value="0.0040397171" flag="0"/>
      <psa30 value="0.0003326322" flag="0"/>
    </comp>
  </station>
  <station code="BODA" name="BODA" netid="KO" insttype="SA10" commtype="DIG" lat="37.0348" lon="27.4304">
    <comp name="--.HNZ">
      <acc value="0.0276056032" flag="0"/>
      <vel value="0.0116727416" flag="0"/>
      <psa03 value="0.0567859103" flag="0"/>
      <psa10 value="0.0048871751" flag="0"/>
      <psa30 value="0.0005669875" flag="0"/>
    </comp>
    <comp name="--.HNN">
      <acc value="0.0146908469" flag="0"/>
      <vel value="0.0064433695" flag="0"/>
      <psa03 value="0.0301059715" flag="0"/>
      <psa10 value="0.0054137158" flag="0"/>
      <psa30 value="0.0004752081" flag="0"/>
    </comp>
    <comp name="--.HNE">
      <acc value="0.0156715359" flag="0"/>
      <vel value="0.0077480198" flag="0"/>
      <psa03 value="0.0378730477" flag="0"/>
      <psa10 value="0.0032694683" flag="0"/>
      <psa30 value="0.0002994637" flag="0"/>
    </comp>
  </station>
  <station code="BODT" name="BODT" netid="KO" insttype="CMG-3ESP" commtype="DIG" lat="37.0622" lon="27.3103">
    <comp name="--.HHN">
      <acc value="0.0081752234" flag="0"/>
      <vel value="0.0062601665" flag="0"/>
      <psa03 value="0.0136167499" flag="0"/>
      <psa10 value="0.0058906608" flag="0"/>
      <psa30 value="0.0005211371" flag="0"/>
    </comp>
    <comp name="--.HHE">
      <acc value="0.0208736786" flag="0"/>
      <vel value="0.0080938387" flag="0"/>
      <psa03 value="0.0273092441" flag="0"/>
      <psa10 value="0.0061432076" flag="0"/>
      <psa30 value="0.0006393764" flag="0"/>
    </comp>
    <comp name="--.HHZ">
      <acc value="0.0370526203" flag="0"/>
      <vel value="0.0130617745" flag="0"/>
      <psa03 value="0.0461040321" flag="0"/>
      <psa10 value="0.0045045271" flag="0"/>
      <psa30 value="0.0004844489" flag="0"/>
    </comp>
  </station>
  <station code="DAT" name="DAT" netid="KO" insttype="CMG-3T" commtype="DIG" lat="36.7308" lon="27.5767">
    <comp name="--.HHN">
      <acc value="0.0272449446" flag="0"/>
      <vel value="0.0097107790" flag="0"/>
      <psa03 value="0.1004288673" flag="0"/>
      <psa10 value="0.0037079801" flag="0"/>
      <psa30 value="0.0003628008" flag="0"/>
    </comp>
    <comp name="--.HHE">
      <acc value="0.0313068142" flag="0"/>
      <vel value="0.0140980218" flag="0"/>
      <psa03 value="0.1166314823" flag="0"/>
      <psa10 value="0.0056504914" flag="0"/>
      <psa30 value="0.0006452679" flag="0"/>
    </comp>
    <comp name="--.HHZ">
      <acc value="0.0000309807" flag="0"/>
      <vel value="0.0000030005" flag="0"/>
      <psa03 value="0.0000096540" flag="0"/>
      <psa10 value="0.0000033487" flag="0"/>
      <psa30 value="0.0000004790" flag="0"/>
    </comp>
  </station>
  <station code="DATC" name="DATC" netid="KO" insttype="CMG-5T" commtype="DIG" lat="36.7584" lon="27.6602">
    <comp name="--.HNE">
      <acc value="0.0229837521" flag="0"/>
      <vel value="0.0126178360" flag="0"/>
      <psa03 value="0.0739412027" flag="0"/>
      <psa10 value="0.0116502301" flag="0"/>
      <psa30 value="0.0011402871" flag="0"/>
    </comp>
    <comp name="--.HNN">
      <acc value="0.0449076494" flag="0"/>
      <vel value="0.0157566561" flag="0"/>
      <psa03 value="0.0901998884" flag="0"/>
      <psa10 value="0.0095013697" flag="0"/>
      <psa30 value="0.0006698967" flag="0"/>
    </comp>
    <comp name="--.HNZ">
      <acc value="0.0723528349" flag="0"/>
      <vel value="0.0280706229" flag="0"/>
      <psa03 value="0.1402190223" flag="0"/>
      <psa10 value="0.0096179465" flag="0"/>
      <psa30 value="0.0011015015" flag="0"/>
    </comp>
  </station>
  <station code="MLSB" name="MLSB" netid="KO" insttype="CMG-3ESP" commtype="DIG" lat="37.2953" lon="27.7767">
    <comp name="--.HHZ">
      <acc value="0.0239407516" flag="0"/>
      <vel value="0.0080901288" flag="0"/>
      <psa03 value="0.0415331824" flag="0"/>
      <psa10 value="0.0024190647" flag="0"/>
      <psa30 value="0.0003115436" flag="0"/>
    </comp>
    <comp name="--.HHN">
      <acc value="0.0060504739" flag="0"/>
      <vel value="0.0034786389" flag="0"/>
      <psa03 value="0.0151823277" flag="0"/>
      <psa10 value="0.0043427447" flag="0"/>
      <psa30 value="0.0004091997" flag="0"/>
    </comp>
    <comp name="--.HHE">
      <acc value="0.0109643144" flag="0"/>
      <vel value="0.0041240473" flag="0"/>
      <psa03 value="0.0135289327" flag="0"/>
      <psa10 value="0.0049543611" flag="0"/>
      <psa30 value="0.0003117098" flag="0"/>
    </comp>
  </station>
  <station code="YER" name="YER" netid="KO" insttype="CMG-3T" commtype="DIG" lat="37.1336" lon="28.284">
    <comp name="--.HHZ">
      <acc value="0.0133012391" flag="0"/>
      <vel value="0.0076576928" flag="0"/>
      <psa03 value="0.0266143463" flag="0"/>
      <psa10 value="0.0056182761" flag="0"/>
      <psa30 value="0.0004608340" flag="0"/>
    </comp>
    <comp name="--.HHE">
      <acc value="0.0146198996" flag="0"/>
      <vel value="0.0047970094" flag="0"/>
      <psa03 value="0.0210678752" flag="0"/>
      <psa10 value="0.0072688804" flag="0"/>
      <psa30 value="0.0003923888" flag="0"/>
    </comp>
    <comp name="--.HHN">
      <acc value="0.0125962036" flag="0"/>
      <vel value="0.0042197734" flag="0"/>
      <psa03 value="0.0147363905" flag="0"/>
      <psa10 value="0.0056414536" flag="0"/>
      <psa30 value="0.0007225916" flag="0"/>
    </comp>
  </station>
  <station code="AYDN" name="AYDN" netid="TU" insttype="T" commtype="DIG" lat="37.6608" lon="27.8792">
    <comp name="--.HHN">
      <acc value="0.0138313353" flag="0"/>
      <vel value="0.0056390433" flag="0"/>
      <psa03 value="0.0588135949" flag="0"/>
      <psa10 value="0.0067633848" flag="0"/>
      <psa30 value="0.0009363644" flag="0"/>
    </comp>
    <comp name="--.HHZ">
      <acc value="0.0479626175" flag="0"/>
      <vel value="0.0159023148" flag="0"/>
      <psa03 value="0.0685898913" flag="0"/>
      <psa10 value="0.0046002364" flag="0"/>
      <psa30 value="0.0005742615" flag="0"/>
    </comp>
    <comp name="--.HHE">
      <acc value="0.0211929878" flag="0"/>
      <vel value="0.0067135140" flag="0"/>
      <psa03 value="0.0357724080" flag="0"/>
      <psa10 value="0.0110502984" flag="0"/>
      <psa30 value="0.0008281197" flag="0"/>
    </comp>
  </station>
</stationlist>
