<?xml version="1.0" encoding="UTF-8" standalone="yes"?>
<!DOCTYPE earthquake SYSTEM "stationlist.dtd">
<stationlist created="" xmlns="ch.ethz.sed.shakemap.usgs.xml">
  <station code="KARP" name="KARP" netid="GE" insttype="STS-2/N" commtype="DIG" lat="35.5471" lon="27.1611">
    <comp name="--.HHE">
      <acc value="0.3315389858" flag="0"/>
      <vel value="0.0537385641" flag="0"/>
      <psa03 value="0.2207158720" flag="0"/>
      <psa10 value="0.0110208130" flag="0"/>
      <psa30 value="0.0014457018" flag="0"/>
    </comp>
    <comp name="--.HHZ">
      <acc value="0.1126571187" flag="0"/>
      <vel value="0.0279086587" flag="0"/>
      <psa03 value="0.0692680113" flag="0"/>
      <psa10 value="0.0141769010" flag="0"/>
      <psa30 value="0.0005660406" flag="0"/>
    </comp>
    <comp name="--.HHN">
      <acc value="0.2920172359" flag="0"/>
      <vel value="0.0633399012" flag="0"/>
      <psa03 value="0.4564926852" flag="0"/>
      <psa10 value="0.0295421988" flag="0"/>
      <psa30 value="0.0016277308" flag="0"/>
    </comp>
  </station>
  <station code="THERA" name="THERA" netid="GE" insttype="STS-2/N" commtype="DIG" lat="36.367" lon="25.4753">
    <comp name="--.HHN">
      <acc value="0.0029897413" flag="0"/>
      <vel value="0.0003465231" flag="0"/>
      <psa03 value="0.0012705427" flag="0"/>
      <psa10 value="0.0003016806" flag="0"/>
      <psa30 value="0.0000845389" flag="0"/>
    </comp>
    <comp name="--.HHZ">
      <acc value="0.0299337877" flag="0"/>
      <vel value="0.0125196840" flag="0"/>
      <psa03 value="0.0735776891" flag="0"/>
      <psa10 value="0.0049533307" flag="0"/>
      <psa30 value="0.0005730935" flag="0"/>
    </comp>
    <comp name="--.HHE">
      <acc value="0.0163278211" flag="0"/>
      <vel value="0.0072852979" flag="0"/>
      <psa03 value="0.0352344809" flag="0"/>
      <psa10 value="0.0040397171" flag="0"/>
      <psa30 value="0.0003326322" flag="0"/>
    </comp>
  </station>
  <station code="IOSI" name="IOSI" netid="HA" insttype="60s," commtype="DIG" lat="36.7225" lon="25.2887">
    <comp name="--.HHN">
      <acc value="0.0062999111" flag="0"/>
      <vel value="0.0044378121" flag="0"/>
      <psa03 value="0.0111433292" flag="0"/>
      <psa10 value="0.0043600201" flag="0"/>
      <psa30 value="0.0003890618" flag="0"/>
    </comp>
    <comp name="--.HHE">
      <acc value="0.0158999966" flag="0"/>
      <vel value="0.0065892806" flag="0"/>
      <psa03 value="0.0261701213" flag="0"/>
      <psa10 value="0.0034460227" flag="0"/>
      <psa30 value="0.0002916735" flag="0"/>
    </comp>
    <comp name="--.HHZ">
      <acc value="0.0281108011" flag="0"/>
      <vel value="0.0108421143" flag="0"/>
      <psa03 value="0.0423236033" flag="0"/>
      <psa10 value="0.0050346267" flag="0"/>
      <psa30 value="0.0004875051" flag="0"/>
    </comp>
  </station>
  <station code="SNT1" name="SNT1" netid="HA" insttype="30" commtype="DIG" lat="36.4159" lon="25.4282">
    <comp name="--.HHZ">
      <acc value="0.0189325057" flag="0"/>
      <vel value="0.0111751946" flag="0"/>
      <psa03 value="0.0708495992" flag="0"/>
      <psa10 value="0.0078555547" flag="0"/>
      <psa30 value="0.0006441647" flag="0"/>
    </comp>
    <comp name="--.HHE">
      <acc value="0.0091237106" flag="0"/>
      <vel value="0.0064576486" flag="0"/>
      <psa03 value="0.0321769675" flag="0"/>
      <psa10 value="0.0084592143" flag="0"/>
      <psa30 value="0.0005496123" flag="0"/>
    </comp>
    <comp name="--.HHN">
      <acc value="0.0101383150" flag="0"/>
      <vel value="0.0058296296" flag="0"/>
      <psa03 value="0.0354818995" flag="0"/>
      <psa10 value="0.0066280201" flag="0"/>
      <psa30 value="0.0003477574" flag="0"/>
    </comp>
  </station>
  <station code="SNT5" name="SNT5" netid="HA" insttype="1s-100Hz," commtype="DIG" lat="36.4037" lon="25.3953">
    <comp name="--.HHE">
      <acc value="0.0309450307" flag="0"/>
      <vel value="0.0141816097" flag="0"/>
      <psa03 value="0.1313074443" flag="0"/>
      <psa10 value="0.0080700165" flag="0"/>
      <psa30 value="0.0006531476" flag="0"/>
    </comp>
    <comp name="--.HHN">
      <acc value="0.0260146810" flag="0"/>
      <vel value="0.0086892070" flag="0"/>
      <psa03 value="0.0527850428" flag="0"/>
      <psa10 value="0.0031414081" flag="0"/>
      <psa30 value="0.0003680665" flag="0"/>
    </comp>
    <comp name="--.HHZ">
      <acc value="0.0157699626" flag="0"/>
      <vel value="0.0094973236" flag="0"/>
      <psa03 value="0.0454866530" flag="0"/>
      <psa10 value="0.0063608700" flag="0"/>
      <psa30 value="0.0005242922" flag="0"/>
    </comp>
  </station>
  <station code="KOS2" name="KOS2" netid="HI" insttype="unknown" commtype="DIG" lat="36.8941" lon="27.2888">
    <comp name="--.HNZ">
      <acc value="0.0430096803" flag="0"/>
      <vel value="0.0200027239" flag="0"/>
      <psa03 value="0.0729301550" flag="0"/>
      <psa10 value="0.0104542390" flag="0"/>
      <psa30 value="0.0010290954" flag="0"/>
    </comp>
    <comp name="--.HNE">
      <acc value="0.0147429412" flag="0"/>
      <vel value="0.0137276447" flag="0"/>
      <psa03 value="0.0543341079" flag="0"/>
      <psa10 value="0.0159071929" flag="0"/>
      <psa30 value="0.0020630214" flag="0"/>
    </comp>
    <comp name="--.HNN">
      <acc value="0.0165706981" flag="0"/>
      <vel value="0.0164255070" flag="0"/>
      <psa03 value="0.0550378832" flag="0"/>
      <psa10 value="0.0216755116" flag="0"/>
      <psa30 value="0.0016798986" flag="0"/>
    </comp>
  </station>
  <station code="KSS1" name="KSS1" netid="HI" insttype="CMG-5TD,ACCELEROMETER,GURALP" commtype="DIG" lat="35.4189" lon="26.9207">
    <comp name="--.HNN">
      <acc value="0.1331896411" flag="0"/>
      <vel value="0.0241559607" flag="0"/>
      <psa03 value="0.2342704627" flag="0"/>
      <psa10 value="0.0098144959" flag="0"/>
      <psa30 value="0.0008740928" flag="0"/>
    </comp>
    <comp name="--.HNZ">
      <acc value="0.1055426738" flag="0"/>
      <vel value="0.0149015442" flag="0"/>
      <psa03 value="0.0502319299" flag="0"/>
      <psa10 value="0.0059268347" flag="0"/>
      <psa30 value="0.0003092348" flag="0"/>
    </comp>
    <comp name="--.HNE">
      <acc value="0.1254306158" flag="0"/>
      <vel value="0.0246679932" flag="0"/>
      <psa03 value="0.2253909631" flag="0"/>
      <psa10 value="0.0081249675" flag="0"/>
      <psa30 value="0.0011927816" flag="0"/>
    </comp>
  </station>
  <station code="NAX1" name="NAX1" netid="HI" insttype="CMG-5TD,ACCELEROMETER,GURALP" commtype="DIG" lat="37.1014" lon="25.3741">
    <comp name="--.HNZ">
      <acc value="0.0188294147" flag="0"/>
      <vel value="0.0072276737" flag="0"/>
      <psa03 value="0.0332685944" flag="0"/>
      <psa10 value="0.0023762088" flag="0"/>
      <psa30 value="0.0003282739" flag="0"/>
    </comp>
    <comp name="--.HNE">
      <acc value="0.0056272690" flag="0"/>
      <vel value="0.0027396403" flag="0"/>
      <psa03 value="0.0108285558" flag="0"/>
      <psa10 value="0.0014327879" flag="0"/>
      <psa30 value="0.0001840086" flag="0"/>
    </comp>
    <comp name="--.HNN">
      <acc value="0.0057354165" flag="0"/>
      <vel value="0.0024070502" flag="0"/>
      <psa03 value="0.0074903094" flag="0"/>
      <psa10 value="0.0034445705" flag="0"/>
      <psa30 value="0.0003381070" flag="0"/>
    </comp>
  </station>
  <station code="RDI1" name="RDI1" netid="HI" insttype="CMG-5TD,ACCELEROMETER,GURALP" commtype="DIG" lat="36.4514" lon="28.224">
    <comp name="--.HNE">
      <acc value="0.0138491484" flag="0"/>
      <vel value="0.0056210452" flag="0"/>
      <psa03 value="0.0436009351" flag="0"/>
      <psa10 value="0.0049245571" flag="0"/>
      <psa30 value="0.0003846530" flag="0"/>
    </comp>
    <comp name="--.HNZ">
      <acc value="0.0159700664" flag="0"/>
      <vel value="0.0082089290" flag="0"/>
      <psa03 value="0.0372920101" flag="0"/>
      <psa10 value="0.0037618960" flag="0"/>
      <psa30 value="0.0003633233" flag="0"/>
    </comp>
    <comp name="--.HNN">
      <acc value="0.0106733793" flag="0"/>
      <vel value="0.0044765941" flag="0"/>
      <psa03 value="0.0359389300" flag="0"/>
      <psa10 value="0.0049233425" flag="0"/>
      <psa30 value="0.0004616059" flag="0"/>
    </comp>
  </station>
  <station code="RKL1" name="RKL1" netid="HI" insttype="unknown" commtype="DIG" lat="36.3367" lon="28.1712">
    <comp name="--.HNE">
      <acc value="0.0454182681" flag="0"/>
      <vel value="0.0215510688" flag="0"/>
      <psa03 value="0.0796907257" flag="0"/>
      <psa10 value="0.0124413359" flag="0"/>
      <psa30 value="0.0005419947" flag="0"/>
    </comp>
    <comp name="--.HNN">
      <acc value="0.0403374154" flag="0"/>
      <vel value="0.0170556100" flag="0"/>
      <psa03 value="0.0950809848" flag="0"/>
      <psa10 value="0.0059519267" flag="0"/>
      <psa30 value="0.0004511991" flag="0"/>
    </comp>
    <comp name="--.HNZ">
      <acc value="0.0502324687" flag="0"/>
      <vel value="0.0178457539" flag="0"/>
      <psa03 value="0.0775166860" flag="0"/>
      <psa10 value="0.0053371426" flag="0"/>
      <psa30 value="0.0004070035" flag="0"/>
    </comp>
  </station>
  <station code="RLN1" name="RLN1" netid="HI" insttype="unknown" commtype="DIG" lat="36.0891" lon="28.0869">
    <comp name="--.HNN">
      <acc value="0.0511383526" flag="0"/>
      <vel value="0.0107067058" flag="0"/>
      <psa03 value="0.0824021331" flag="0"/>
      <psa10 value="0.0083512194" flag="0"/>
      <psa30 value="0.0005462992" flag="0"/>
    </comp>
    <comp name="--.HNE">
      <acc value="0.0458863321" flag="0"/>
      <vel value="0.0094961480" flag="0"/>
      <psa03 value="0.0675872585" flag="0"/>
      <psa10 value="0.0086883209" flag="0"/>
      <psa30 value="0.0004985507" flag="0"/>
    </comp>
    <comp name="--.HNZ">
      <acc value="0.1569163467" flag="0"/>
      <vel value="0.0230239237" flag="0"/>
      <psa03 value="0.0635918737" flag="0"/>
      <psa10 value="0.0046885713" flag="0"/>
      <psa30 value="0.0003333071" flag="0"/>
    </comp>
  </station>
  <station code="RPN1" name="RPN1" netid="HI" insttype="unknown" commtype="DIG" lat="36.4487" lon="28.218">
    <comp name="--.HNN">
      <acc value="0.0211520150" flag="0"/>
      <vel value="0.0076569452" flag="0"/>
      <psa03 value="0.0566530651" flag="0"/>
      <psa10 value="0.0054650944" flag="0"/>
      <psa30 value="0.0003584120" flag="0"/>
    </comp>
    <comp name="--.HNE">
      <acc value="0.0224326926" flag="0"/>
      <vel value="0.0072551398" flag="0"/>
      <psa03 value="0.0541440798" flag="0"/>
      <psa10 value="0.0048283476" flag="0"/>
      <psa30 value="0.0003996119" flag="0"/>
    </comp>
    <comp name="--.HNZ">
      <acc value="0.0600214262" flag="0"/>
      <vel value="0.0110712944" flag="0"/>
      <psa03 value="0.0535191714" flag="0"/>
      <psa10 value="0.0040967220" flag="0"/>
      <psa30 value="0.0004217939" flag="0"/>
    </comp>
  </station>
  <station code="AMGA" name="AMGA" netid="HL" insttype="LE3D20_SMART24" commtype="DIG" lat="36.8316" lon="25.8938">
    <comp name="--.HHN">
      <acc value="0.0298151834" flag="0"/>
      <vel value="0.0139852457" flag="0"/>
      <psa03 value="0.0508934556" flag="0"/>
      <psa10 value="0.0140600407" flag="0"/>
      <psa30 value="0.0013569935" flag="0"/>
    </comp>
    <comp name="--.HHZ">
      <acc value="0.0620037708" flag="0"/>
      <vel value="0.0232805189" flag="0"/>
      <psa03 value="0.0996924066" flag="0"/>
      <psa10 value="0.0084777398" flag="0"/>
      <psa30 value="0.0009339275" flag="0"/>
    </comp>
    <comp name="--.HHE">
      <acc value="0.0231231708" flag="0"/>
      <vel value="0.0112420381" flag="0"/>
      <psa03 value="0.0544616452" flag="0"/>
      <psa10 value="0.0144821981" flag="0"/>
      <psa30 value="0.0012725985" flag="0"/>
    </comp>
  </station>
  <station code="ARG" name="ARG" netid="HL" insttype="LE3D20_DR24" commtype="DIG" lat="36.2136" lon="28.1212">
    <comp name="--.HHZ">
      <acc value="0.1492106175" flag="0"/>
      <vel value="0.0240861682" flag="0"/>
      <psa03 value="0.0850957405" flag="0"/>
      <psa10 value="0.0069710976" flag="0"/>
      <psa30 value="0.0004075476" flag="0"/>
    </comp>
    <comp name="--.HHN">
      <acc value="0.1238057849" flag="0"/>
      <vel value="0.0188834724" flag="0"/>
      <psa03 value="0.0535867034" flag="0"/>
      <psa10 value="0.0053789932" flag="0"/>
      <psa30 value="0.0003323081" flag="0"/>
    </comp>
    <comp name="--.HHE">
      <acc value="0.1725882021" flag="0"/>
      <vel value="0.0201593580" flag="0"/>
      <psa03 value="0.0929502440" flag="0"/>
      <psa10 value="0.0055890242" flag="0"/>
      <psa30 value="0.0005018264" flag="0"/>
    </comp>
  </station>
  <station code="ASTA" name="ASTA" netid="HL" insttype="LE3D20_SMART24" commtype="DIG" lat="36.5475" lon="26.3471">
    <comp name="--.HHN">
      <acc value="0.0197472146" flag="0"/>
      <vel value="0.0164591296" flag="0"/>
      <psa03 value="0.0679607302" flag="0"/>
      <psa10 value="0.0084588345" flag="0"/>
      <psa30 value="0.0007546365" flag="0"/>
    </comp>
    <comp name="--.HHE">
      <acc value="0.0234938925" flag="0"/>
      <vel value="0.0230197283" flag="0"/>
      <psa03 value="0.0639945141" flag="0"/>
      <psa10 value="0.0173882676" flag="0"/>
      <psa30 value="0.0018562403" flag="0"/>
    </comp>
    <comp name="--.HHZ">
      <acc value="0.0224125815" flag="0"/>
      <vel value="0.0101269548" flag="0"/>
      <psa03 value="0.0471088893" flag="0"/>
      <psa10 value="0.0049495793" flag="0"/>
      <psa30 value="0.0004890199" flag="0"/>
    </comp>
  </station>
  <station code="KARP" name="KARP" netid="HL" insttype="120" commtype="DIG" lat="35.5471" lon="27.1611">
    <comp name="--.HHZ">
      <acc value="0.1082613274" flag="0"/>
      <vel value="0.0270439046" flag="0"/>
      <psa03 value="0.0678709647" flag="0"/>
      <psa10 value="0.0140891520" flag="0"/>
      <psa30 value="0.0005582525" flag="0"/>
    </comp>
    <comp name="--.HHE">
      <acc value="0.2924012651" flag="0"/>
      <vel value="0.0499724989" flag="0"/>
      <psa03 value="0.2151653317" flag="0"/>
      <psa10 value="0.0108836904" flag="0"/>
      <psa30 value="0.0014325524" flag="0"/>
    </comp>
    <comp name="--.HHN">
      <acc value="0.2672152391" flag="0"/>
      <vel value="0.0612032786" flag="0"/>
      <psa03 value="0.4416463144" flag="0"/>
      <psa10 value="0.0290760224" flag="0"/>
      <psa30 value="0.0015944040" flag="0"/>
    </comp>
  </station>
  <station code="KLNA" name="KLNA" netid="HL" insttype="CMG-5" commtype="DIG" lat="36.9571" lon="26.9727">
    <comp name="00.HNN">
      <acc value="0.0133013951" flag="0"/>
      <vel value="0.0069336782" flag="0"/>
      <psa03 value="0.0273404014" flag="0"/>
      <psa10 value="0.0053882026" flag="0"/>
      <psa30 value="0.0005382426" flag="0"/>
    </comp>
    <comp name="00.HNE">
      <acc value="0.0140860923" flag="0"/>
      <vel value="0.0090832838" flag="0"/>
      <psa03 value="0.0298251602" flag="0"/>
      <psa10 value="0.0096730980" flag="0"/>
      <psa30 value="0.0009128344" flag="0"/>
    </comp>
    <comp name="00.HNZ">
      <acc value="0.0275596285" flag="0"/>
      <vel value="0.0104527641" flag="0"/>
      <psa03 value="0.0303083965" flag="0"/>
      <psa10 value="0.0038000031" flag="0"/>
      <psa30 value="0.0003360454" flag="0"/>
    </comp>
  </station>
  <station code="NISR" name="NISR" netid="HL" insttype="65535" commtype="DIG" lat="36.6106" lon="27.131">
    <comp name="--.HHN">
      <acc value="0.0069055787" flag="0"/>
      <vel value="0.0044684228" flag="0"/>
      <psa03 value="0.0194130880" flag="0"/>
      <psa10 value="0.0034713195" flag="0"/>
      <psa30 value="0.0002688530" flag="0"/>
    </comp>
    <comp name="--.HHZ">
      <acc value="0.0046836933" flag="0"/>
      <vel value="0.0028033634" flag="0"/>
      <psa03 value="0.0112623475" flag="0"/>
      <psa10 value="0.0021438505" flag="0"/>
      <psa30 value="0.0001535965" flag="0"/>
    </comp>
    <comp name="--.HHE">
      <acc value="0.0000000000" flag="0"/>
      <vel value="-100.0000000000" flag="0"/>
      <psa03 value="0.0000000000" flag="0"/>
      <psa10 value="0.0000000000" flag="0"/>
      <psa30 value="0.0000000000" flag="0"/>
    </comp>
  </station>
  <station code="NISR2" name="NISR2" netid="HL" insttype="120" commtype="DIG" lat="36.5744" lon="27.1767">
    <comp name="--.HHN">
      <acc value="0.0193676505" flag="0"/>
      <vel value="0.0156678746" flag="0"/>
      <psa03 value="0.0645256360" flag="0"/>
      <psa10 value="0.0272148332" flag="0"/>
      <psa30 value="0.0016279367" flag="0"/>
    </comp>
    <comp name="--.HHE">
      <acc value="0.0153825584" flag="0"/>
      <vel value="0.0117163280" flag="0"/>
      <psa03 value="0.0582374774" flag="0"/>
      <psa10 value="0.0240514729" flag="0"/>
      <psa30 value="0.0012488339" flag="0"/>
    </comp>
    <comp name="--.HHZ">
      <acc value="0.0096560099" flag="0"/>
      <vel value="0.0058473163" flag="0"/>
      <psa03 value="0.0227101019" flag="0"/>
      <psa10 value="0.0055491868" flag="0"/>
      <psa30 value="0.0003959845" flag="0"/>
    </comp>
  </station>
  <station code="RODB" name="RODB" netid="HL" insttype="CMG-5" commtype="DIG" lat="36.4471" lon="28.2212">
    <comp name="00.HNE">
      <acc value="0.0146709054" flag="0"/>
      <vel value="0.0058387694" flag="0"/>
      <psa03 value="0.0362151935" flag="0"/>
      <psa10 value="0.0049023407" flag="0"/>
      <psa30 value="0.0003241560" flag="0"/>
    </comp>
    <comp name="00.HNZ">
      <acc value="0.0314887526" flag="0"/>
      <vel value="0.0103504302" flag="0"/>
      <psa03 value="0.0429601739" flag="0"/>
      <psa10 value="0.0037294992" flag="0"/>
      <psa30 value="0.0003794140" flag="0"/>
    </comp>
    <comp name="00.HNN">
      <acc value="0.0129446222" flag="0"/>
      <vel value="0.0056101898" flag="0"/>
      <psa03 value="0.0353522225" flag="0"/>
      <psa10 value="0.0041029101" flag="0"/>
      <psa30 value="0.0004112187" flag="0"/>
    </comp>
  </station>
  <station code="SANT" name="SANT" netid="HL" insttype="30" commtype="DIG" lat="36.3705" lon="25.4593">
    <comp name="--.HHN">
      <acc value="0.0136509420" flag="0"/>
      <vel value="0.0052938999" flag="0"/>
      <psa03 value="0.0262767634" flag="0"/>
      <psa10 value="0.0023736824" flag="0"/>
      <psa30 value="0.0001850286" flag="0"/>
    </comp>
    <comp name="--.HHZ">
      <acc value="0.0480799023" flag="0"/>
      <vel value="0.0153325087" flag="0"/>
      <psa03 value="0.0722044092" flag="0"/>
      <psa10 value="0.0054104156" flag="0"/>
      <psa30 value="0.0007277654" flag="0"/>
    </comp>
    <comp name="--.HHE">
      <acc value="0.0288450393" flag="0"/>
      <vel value="0.0101182188" flag="0"/>
      <psa03 value="0.0575962840" flag="0"/>
      <psa10 value="0.0052805649" flag="0"/>
      <psa30 value="0.0003968940" flag="0"/>
    </comp>
  </station>
  <station code="SAP3" name="SAP3" netid="HL" insttype="65535" commtype="DIG" lat="36.4356" lon="25.3454">
    <comp name="--.HHN">
      <acc value="0.0166721102" flag="0"/>
      <vel value="0.0075341697" flag="0"/>
      <psa03 value="0.0415378956" flag="0"/>
      <psa10 value="0.0065902596" flag="0"/>
      <psa30 value="0.0008732853" flag="0"/>
    </comp>
    <comp name="--.HHE">
      <acc value="0.0129707860" flag="0"/>
      <vel value="0.0065641846" flag="0"/>
      <psa03 value="0.0356083459" flag="0"/>
      <psa10 value="0.0056406428" flag="0"/>
      <psa30 value="0.0005139370" flag="0"/>
    </comp>
    <comp name="--.HHZ">
      <acc value="0.0119020700" flag="0"/>
      <vel value="0.0060006808" flag="0"/>
      <psa03 value="0.0300528575" flag="0"/>
      <psa10 value="0.0065532194" flag="0"/>
      <psa30 value="0.0004182823" flag="0"/>
    </comp>
  </station>
