<stationlist created="1778450086">
	<station code="KOS2" name="KOS2" netid="HI" source="ITSAK Strong Motion Network" insttype="" lat="36.8941" lon="27.2888">
		<comp name="--.HNE" depth="0.0">
			<acc value="0.014357700560433" flag="0"/>
			<vel value="0.0139403635980446" flag="0"/>
			<psa03 value="0.0543322763299912" flag="0"/>
			<psa10 value="0.0160549823137845" flag="0"/>
			<psa30 value="0.00233926663160048" flag="0"/>
		</comp>
		<comp name="--.HNN" depth="0.0">
			<acc value="0.0164242059471508" flag="0"/>
			<vel value="0.0162016670007525" flag="0"/>
			<psa03 value="0.0549293210896097" flag="0"/>
			<psa10 value="0.0217491945273979" flag="0"/>
			<psa30 value="0.00180380303476511" flag="0"/>
		</comp>
		<comp name="--.HNZ" depth="0.0">
			<acc value="0.0416338219864477" flag="0"/>
			<vel value="0.0196650441523612" flag="0"/>
			<psa03 value="0.0733139764828023" flag="0"/>
			<psa10 value="0.0104760236726547" flag="0"/>
			<psa30 value="0.00115490338168106" flag="0"/>
		</comp>
	</station>
	<station code="KRL1" name="KRL1" netid="HI" source="ITSAK Strong Motion Network" insttype="" lat="37.7951" lon="26.7065">
		<comp name="--.HNE" depth="0.0">
			<acc value="0.00244957499658962" flag="0"/>
			<vel value="0.00210563291092308" flag="0"/>
			<psa03 value="0.00775073740664788" flag="0"/>
			<psa10 value="0.00270990256462039" flag="0"/>
			<psa30 value="0.000470275372185415" flag="0"/>
		</comp>
		<comp name="--.HNN" depth="0.0">
			<acc value="0.00312811054270432" flag="0"/>
			<vel value="0.00346919842439088" flag="0"/>
			<psa03 value="0.00544767761367692" flag="0"/>
			<psa10 value="0.00549241134529627" flag="0"/>
			<psa30 value="0.000483433743862961" flag="0"/>
		</comp>
		<comp name="--.HNZ" depth="0.0">
			<acc value="0.0030961999490972" flag="0"/>
			<vel value="0.00154706397513416" flag="0"/>
			<psa03 value="0.00868210639693923" flag="0"/>
			<psa10 value="0.00210502054102994" flag="0"/>
			<psa30 value="0.000155181256559157" flag="0"/>
		</comp>
	</station>
	<station code="KSS1" name="KSS1" netid="HI" source="ITSAK Strong Motion Network" insttype="" lat="35.4189" lon="26.9207">
		<comp name="--.HNE" depth="0.0">
			<acc value="0.123102262977335" flag="0"/>
			<vel value="0.0251394234967842" flag="0"/>
			<psa03 value="0.226059725347361" flag="0"/>
			<psa10 value="0.00813116771245525" flag="0"/>
			<psa30 value="0.0012825612133859" flag="0"/>
		</comp>
		<comp name="--.HNN" depth="0.0">
			<acc value="0.132279014436384" flag="0"/>
			<vel value="0.0249768709489413" flag="0"/>
			<psa03 value="0.237485544751821" flag="0"/>
			<psa10 value="0.00987232368049298" flag="0"/>
			<psa30 value="0.000899620637118766" flag="0"/>
		</comp>
		<comp name="--.HNZ" depth="0.0">
			<acc value="0.0970046268995031" flag="0"/>
			<vel value="0.0155507091808481" flag="0"/>
			<psa03 value="0.0507981099171445" flag="0"/>
			<psa10 value="0.0059332642996409" flag="0"/>
			<psa30 value="0.000307501594429825" flag="0"/>
		</comp>
	</station>
	<station code="NAX1" name="NAX1" netid="HI" source="ITSAK Strong Motion Network" insttype="" lat="37.101394" lon="25.374103">
		<comp name="--.HNE" depth="0.0">
			<acc value="0.00556212403741912" flag="0"/>
			<vel value="0.00275197640775296" flag="0"/>
			<psa03 value="0.0108001614212314" flag="0"/>
			<psa10 value="0.00143352672192244" flag="0"/>
			<psa30 value="0.00018325062903816" flag="0"/>
		</comp>
		<comp name="--.HNN" depth="0.0">
			<acc value="0.00556372938271123" flag="0"/>
			<vel value="0.00241977434484915" flag="0"/>
			<psa03 value="0.00761948717550587" flag="0"/>
			<psa10 value="0.00343528335191257" flag="0"/>
			<psa30 value="0.000361601193887782" flag="0"/>
		</comp>
		<comp name="--.HNZ" depth="0.0">
			<acc value="0.0187018713208253" flag="0"/>
			<vel value="0.00727936736970959" flag="0"/>
			<psa03 value="0.0336797884123572" flag="0"/>
			<psa10 value="0.00239015146080402" flag="0"/>
			<psa30 value="0.000323008663363703" flag="0"/>
		</comp>
	</station>
	<station code="RDI1" name="RDI1" netid="HI" source="ITSAK Strong Motion Network" insttype="" lat="36.4514" lon="28.224">
		<comp name="--.HNE" depth="0.0">
			<acc value="0.0132514106530547" flag="0"/>
			<vel value="0.00565285946637987" flag="0"/>
			<psa03 value="0.0446090436718801" flag="0"/>
			<psa10 value="0.00493882217273046" flag="0"/>
			<psa30 value="0.000435539529439641" flag="0"/>
		</comp>
		<comp name="--.HNN" depth="0.0">
			<acc value="0.0104383934986139" flag="0"/>
			<vel value="0.00450087431229646" flag="0"/>
			<psa03 value="0.0361220882235668" flag="0"/>
			<psa10 value="0.00493155700394868" flag="0"/>
			<psa30 value="0.000515734998245871" flag="0"/>
		</comp>
		<comp name="--.HNZ" depth="0.0">
			<acc value="0.0149556186286637" flag="0"/>
			<vel value="0.00823331031030401" flag="0"/>
			<psa03 value="0.0377888627016959" flag="0"/>
			<psa10 value="0.00376673007425627" flag="0"/>
			<psa30 value="0.000363114210784392" flag="0"/>
		</comp>
	</station>
	<station code="RKL1" name="RKL1" netid="HI" source="ITSAK Strong Motion Network" insttype="" lat="36.336699" lon="28.171224">
		<comp name="--.HNE" depth="0.0">
			<acc value="0.0459029840703421" flag="0"/>
			<vel value="0.021643970565563" flag="0"/>
			<psa03 value="0.0807309678220778" flag="0"/>
			<psa10 value="0.0124742451075179" flag="0"/>
			<psa30 value="0.000547474600838773" flag="0"/>
		</comp>
		<comp name="--.HNN" depth="0.0">
			<acc value="0.0404796128831703" flag="0"/>
			<vel value="0.0172558068848875" flag="0"/>
			<psa03 value="0.0967433046024717" flag="0"/>
			<psa10 value="0.00596759079235258" flag="0"/>
			<psa30 value="0.000456520658919833" flag="0"/>
		</comp>
		<comp name="--.HNZ" depth="0.0">
			<acc value="0.0520297596620487" flag="0"/>
			<vel value="0.0179725794606273" flag="0"/>
			<psa03 value="0.0767814249342449" flag="0"/>
			<psa10 value="0.00536553481534884" flag="0"/>
			<psa30 value="0.000402463432060519" flag="0"/>
		</comp>
	</station>
	<station code="RLN1" name="RLN1" netid="HI" source="ITSAK Strong Motion Network" insttype="" lat="36.089085" lon="28.086909">
		<comp name="--.HNE" depth="0.0">
			<acc value="0.0251430808092589" flag="0"/>
			<vel value="0.00971288199966278" flag="0"/>
			<psa03 value="0.0687881297926708" flag="0"/>
			<psa10 value="0.0086826201809749" flag="0"/>
			<psa30 value="0.000545476083030109" flag="0"/>
		</comp>
		<comp name="--.HNN" depth="0.0">
			<acc value="0.0303012412902156" flag="0"/>
			<vel value="0.0108217878946027" flag="0"/>
			<psa03 value="0.0840913935587908" flag="0"/>
			<psa10 value="0.00836812528473148" flag="0"/>
			<psa30 value="0.000579244049158807" flag="0"/>
		</comp>
		<comp name="--.HNZ" depth="0.0">
			<acc value="0.0192320158237003" flag="0"/>
			<vel value="0.00748556126296026" flag="0"/>
			<psa03 value="0.0635465950667193" flag="0"/>
			<psa10 value="0.00306277047163745" flag="0"/>
			<psa30 value="0.000353112167989811" flag="0"/>
		</comp>
	</station>
	<station code="RPN1" name="RPN1" netid="HI" source="ITSAK Strong Motion Network" insttype="" lat="36.448678" lon="28.218047">
		<comp name="--.HNE" depth="0.0">
			<acc value="0.0223579806785003" flag="0"/>
			<vel value="0.00727654096401547" flag="0"/>
			<psa03 value="0.0550480529133437" flag="0"/>
			<psa10 value="0.00484023611063768" flag="0"/>
			<psa30 value="0.000559309968207109" flag="0"/>
		</comp>
		<comp name="--.HNN" depth="0.0">
			<acc value="0.0212279999056522" flag="0"/>
			<vel value="0.00768539195158912" flag="0"/>
			<psa03 value="0.0569390010960471" flag="0"/>
			<psa10 value="0.00546882181385558" flag="0"/>
			<psa30 value="0.000544184122444061" flag="0"/>
		</comp>
		<comp name="--.HNZ" depth="0.0">
			<acc value="0.0584196437569154" flag="0"/>
			<vel value="0.011113906915852" flag="0"/>
			<psa03 value="0.054260875766721" flag="0"/>
			<psa10 value="0.00410737849991765" flag="0"/>
			<psa30 value="0.000411875253464163" flag="0"/>
		</comp>
	</station>
	<station code="RSO1" name="RSO1" netid="HI" source="ITSAK Strong Motion Network" insttype="" lat="36.3632" lon="28.0016">
		<comp name="--.HNE" depth="0.0">
			<acc value="0.0318494169377148" flag="0"/>
			<vel value="0.0107850930834112" flag="0"/>
			<psa03 value="0.0773994294156754" flag="0"/>
			<psa10 value="0.00616789812423025" flag="0"/>
			<psa30 value="0.000240924657992862" flag="0"/>
		</comp>
		<comp name="--.HNN" depth="0.0">
			<acc value="0.0249349364859621" flag="0"/>
			<vel value="0.00894394975239204" flag="0"/>
			<psa03 value="0.0910216443205585" flag="0"/>
			<psa10 value="0.0048113840430798" flag="0"/>
			<psa30 value="0.000249481370666415" flag="0"/>
		</comp>
		<comp name="--.HNZ" depth="0.0">
			<acc value="0.0366033976866519" flag="0"/>
			<vel value="0.00739856429951492" flag="0"/>
			<psa03 value="0.0513637046766882" flag="0"/>
			<psa10 value="0.0035453172817454" flag="0"/>
			<psa30 value="0.000230083705457961" flag="0"/>
		</comp>
	</station>
	<station code="AMGA" name="AMGA" netid="HL" source="National Observatory of Athens Seismic Network" insttype="" lat="36.831561" lon="25.893836">
		<comp name="00.HNE" depth="0.0">
			<acc value="0.0227945607231664" flag="0"/>
			<vel value="0.0122173678025766" flag="0"/>
			<psa03 value="0.0546843465279139" flag="0"/>
			<psa10 value="0.0142181059422398" flag="0"/>
			<psa30 value="0.00126924678970401" flag="0"/>
		</comp>
		<comp name="00.HNN" depth="0.0">
			<acc value="0.0283803296432497" flag="0"/>
			<vel value="0.0139548157725812" flag="0"/>
			<psa03 value="0.050580100683436" flag="0"/>
			<psa10 value="0.0134283926901126" flag="0"/>
			<psa30 value="0.00122590818956778" flag="0"/>
		</comp>
		<comp name="00.HNZ" depth="0.0">
			<acc value="0.0603444864435329" flag="0"/>
			<vel value="0.0229249349787269" flag="0"/>
			<psa03 value="0.0972944765315737" flag="0"/>
			<psa10 value="0.00847673810479777" flag="0"/>
			<psa30 value="0.000835229704868852" flag="0"/>
		</comp>
	</station>
	<station code="DILO" name="DILO" netid="HL" source="National Observatory of Athens Seismic Network" insttype="" lat="37.401112" lon="25.269207">
		<comp name="00.HNE" depth="0.0">
			<acc value="0.00722597057046946" flag="0"/>
			<vel value="0.00262266517599507" flag="0"/>
			<psa03 value="0.0138632295688384" flag="0"/>
			<psa10 value="0.00158089460932174" flag="0"/>
			<psa30 value="8.53136984888269e-05" flag="0"/>
		</comp>
		<comp name="00.HNN" depth="0.0">
			<acc value="0.00510251104543661" flag="0"/>
			<vel value="0.00151739501828186" flag="0"/>
			<psa03 value="0.00949170104423633" flag="0"/>
			<psa10 value="0.00166225812425529" flag="0"/>
			<psa30 value="7.87719695584738e-05" flag="0"/>
		</comp>
		<comp name="00.HNZ" depth="0.0">
			<acc value="0.0098868040132833" flag="0"/>
			<vel value="0.0045183152252406" flag="0"/>
			<psa03 value="0.019017771552781" flag="0"/>
			<psa10 value="0.00171581964119292" flag="0"/>
			<psa30 value="0.000162104124019317" flag="0"/>
		</comp>
	</station>
	<station code="IKRA" name="IKRA" netid="HL" source="National Observatory of Athens Seismic Network" insttype="" lat="37.61117" lon="26.29283">
		<comp name="00.HNE" depth="0.0">
			<acc value="0.00235297304399437" flag="0"/>
			<vel value="0.00212432502180289" flag="0"/>
			<psa03 value="0.00637278544700985" flag="0"/>
			<psa10 value="0.00363137118551919" flag="0"/>
			<psa30 value="0.000337696745752076" flag="0"/>
		</comp>
		<comp name="00.HNN" depth="0.0">
			<acc value="0.00275495714433102" flag="0"/>
			<vel value="0.00356728129146883" flag="0"/>
			<psa03 value="0.00815922996206656" flag="0"/>
			<psa10 value="0.00500199135737892" flag="0"/>
			<psa30 value="0.000358612558405348" flag="0"/>
		</comp>
		<comp name="00.HNZ" depth="0.0">
			<acc value="0.00454443016281699" flag="0"/>
			<vel value="0.00167653785386594" flag="0"/>
			<psa03 value="0.00727027914635443" flag="0"/>
			<psa10 value="0.00239397155761669" flag="0"/>
			<psa30 value="0.000169834571019325" flag="0"/>
		</comp>
	</station>
	<station code="KARP" name="KARP" netid="HL" source="National Observatory of Athens Seismic Network" insttype="" lat="35.5471" lon="27.16106">
		<comp name="--.HNE" depth="0.0">
			<acc value="0.288770995873116" flag="0"/>
			<vel value="0.0469881904092156" flag="0"/>
			<psa03 value="0.23223421771051" flag="0"/>
			<psa10 value="0.0113683024692458" flag="0"/>
			<psa30 value="0.00153363128304583" flag="0"/>
		</comp>
		<comp name="--.HNN" depth="0.0">
			<acc value="0.230886651663816" flag="0"/>
			<vel value="0.0655297191915864" flag="0"/>
			<psa03 value="0.44793875707762" flag="0"/>
			<psa10 value="0.0289204195858635" flag="0"/>
			<psa30 value="0.00167667930094164" flag="0"/>
		</comp>
		<comp name="--.HNZ" depth="0.0">
			<acc value="0.109154623970282" flag="0"/>
			<vel value="0.0288218561050035" flag="0"/>
			<psa03 value="0.0675610953826631" flag="0"/>
			<psa10 value="0.0139623905648511" flag="0"/>
			<psa30 value="0.000584401734580154" flag="0"/>
		</comp>
	</station>
	<station code="KLNA" name="KLNA" netid="HL" source="National Observatory of Athens Seismic Network" insttype="" lat="36.95708" lon="26.97274">
		<comp name="00.HNE" depth="0.0">
			<acc value="0.0134820749513661" flag="0"/>
			<vel value="0.00924845883358933" flag="0"/>
			<psa03 value="0.0299732772491832" flag="0"/>
			<psa10 value="0.00964123055920784" flag="0"/>
			<psa30 value="0.000993499564470303" flag="0"/>
		</comp>
		<comp name="00.HNN" depth="0.0">
			<acc value="0.012473672960805" flag="0"/>
			<vel value="0.00707631634156565" flag="0"/>
			<psa03 value="0.0272764397427671" flag="0"/>
			<psa10 value="0.00542289674029485" flag="0"/>
			<psa30 value="0.000606867806180473" flag="0"/>
		</comp>
		<comp name="00.HNZ" depth="0.0">
			<acc value="0.0273016865928919" flag="0"/>
			<vel value="0.0104858156639187" flag="0"/>
			<psa03 value="0.0303864270141608" flag="0"/>
			<psa10 value="0.00381096472333467" flag="0"/>
			<psa30 value="0.000328057148842756" flag="0"/>
		</comp>
	</station>
	<station code="NISR" name="NISR" netid="HL" source="National Observatory of Athens Seismic Network" insttype="" lat="36.6106" lon="27.131">
		<comp name="--.HNE" depth="0.0">
			<acc value="0.00890032936963403" flag="0"/>
			<vel value="0.00731100023205602" flag="0"/>
			<psa03 value="0.0267603404495552" flag="0"/>
			<psa10 value="0.00753218693916866" flag="0"/>
			<psa30 value="0.000968867724398451" flag="0"/>
		</comp>
		<comp name="--.HNN" depth="0.0">
			<acc value="0.00673697073753242" flag="0"/>
			<vel value="0.00546488183085572" flag="0"/>
			<psa03 value="0.0214954526140748" flag="0"/>
			<psa10 value="0.00570639911468579" flag="0"/>
			<psa30 value="0.000957157990352706" flag="0"/>
		</comp>
		<comp name="--.HNZ" depth="0.0">
			<acc value="0.00472421842729772" flag="0"/>
			<vel value="0.00304252964089244" flag="0"/>
			<psa03 value="0.0116191512221613" flag="0"/>
			<psa10 value="0.00566561891319758" flag="0"/>
			<psa30 value="0.000575717669720143" flag="0"/>
		</comp>
	</station>
	<station code="RODB" name="RODB" netid="HL" source="National Observatory of Athens Seismic Network" insttype="" lat="36.4471" lon="28.22116">
		<comp name="00.HNE" depth="0.0">
			<acc value="0.0135405411969448" flag="0"/>
			<vel value="0.00578363814077367" flag="0"/>
			<psa03 value="0.03613631312423" flag="0"/>
			<psa10 value="0.00490241101066967" flag="0"/>
			<psa30 value="0.000461773038114177" flag="0"/>
		</comp>
		<comp name="00.HNN" depth="0.0">
			<acc value="0.0126395585001719" flag="0"/>
			<vel value="0.0056091335722724" flag="0"/>
			<psa03 value="0.0354456007012551" flag="0"/>
			<psa10 value="0.00410459019020582" flag="0"/>
			<psa30 value="0.000523193617342781" flag="0"/>
		</comp>
		<comp name="00.HNZ" depth="0.0">
			<acc value="0.0301168503561551" flag="0"/>
			<vel value="0.0103746939970407" flag="0"/>
			<psa03 value="0.0429810347826144" flag="0"/>
			<psa10 value="0.00372314914035828" flag="0"/>
			<psa30 value="0.000375005753749086" flag="0"/>
		</comp>
	</station>
	<station code="SAP3" name="SAP3" netid="HL" source="National Observatory of Athens Seismic Network" insttype="" lat="36.4356" lon="25.345419">
		<comp name="--.HNE" depth="0.0">
			<acc value="0.0124163218227433" flag="0"/>
			<vel value="0.00653815110866374" flag="0"/>
			<psa03 value="0.0351431093085183" flag="0"/>
			<psa10 value="0.00633831222582814" flag="0"/>
			<psa30 value="0.000692144340749039" flag="0"/>
		</comp>
		<comp name="--.HNN" depth="0.0">
			<acc value="0.0163716179783929" flag="0"/>
			<vel value="0.00743771143802261" flag="0"/>
			<psa03 value="0.0408540501303198" flag="0"/>
			<psa10 value="0.00631372137805516" flag="0"/>
			<psa30 value="0.000972332016390794" flag="0"/>
		</comp>
		<comp name="--.HNZ" depth="0.0">
			<acc value="0.0114819149541295" flag="0"/>
			<vel value="0.00586255192937811" flag="0"/>
			<psa03 value="0.0295815924478207" flag="0"/>
			<psa10 value="0.0063903905195095" flag="0"/>
			<psa30 value="0.000427448733047421" flag="0"/>
		</comp>
	</station>
	<station code="SMG" name="SMG" netid="HL" source="National Observatory of Athens Seismic Network" insttype="" lat="37.70425" lon="26.83772">
		<comp name="00.HNE" depth="0.0">
			<acc value="0.00302418290508553" flag="0"/>
			<vel value="0.00336862967155085" flag="0"/>
			<psa03 value="0.00801085880508058" flag="0"/>
			<psa10 value="0.00370570790683716" flag="0"/>
			<psa30 value="0.000431422590045945" flag="0"/>
		</comp>
		<comp name="00.HNN" depth="0.0">
			<acc value="0.00297888662982176" flag="0"/>
			<vel value="0.00269020021410802" flag="0"/>
			<psa03 value="0.00649509042411435" flag="0"/>
			<psa10 value="0.00264065539921053" flag="0"/>
			<psa30 value="0.000358226829727717" flag="0"/>
		</comp>
		<comp name="00.HNZ" depth="0.0">
			<acc value="0.00502610068728936" flag="0"/>
			<vel value="0.00229489295519214" flag="0"/>
			<psa03 value="0.0103476692062595" flag="0"/>
			<psa10 value="0.00127882522370742" flag="0"/>
			<psa30 value="0.00014327294165007" flag="0"/>
		</comp>
	</station>
	<station code="THERA" name="THERA" netid="HL" source="National Observatory of Athens Seismic Network" insttype="" lat="36.366992" lon="25.475263">
		<comp name="00.HNE" depth="0.0">
			<acc value="0.0179629303608613" flag="0"/>
			<vel value="0.00639505794008045" flag="0"/>
			<psa03 value="0.0314715978597369" flag="0"/>
			<psa10 value="0.0028662089347753" flag="0"/>
			<psa30 value="0.000232276454883516" flag="0"/>
		</comp>
		<comp name="00.HNN" depth="0.0">
			<acc value="0.0144716281440492" flag="0"/>
			<vel value="0.00556803478287978" flag="0"/>
			<psa03 value="0.0338936150773243" flag="0"/>
			<psa10 value="0.00301520864902512" flag="0"/>
			<psa30 value="0.00024139593921293" flag="0"/>
		</comp>
		<comp name="00.HNZ" depth="0.0">
			<acc value="0.0321981962623928" flag="0"/>
			<vel value="0.0149167698194021" flag="0"/>
			<psa03 value="0.0951896912665463" flag="0"/>
			<psa10 value="0.00576134259817192" flag="0"/>
			<psa30 value="0.000656062627595956" flag="0"/>
		</comp>
	</station>
	<station code="THRA" name="THRA" netid="HL" source="National Observatory of Athens Seismic Network" insttype="" lat="36.41502" lon="25.43244">
		<comp name="00.HNE" depth="0.0">
			<acc value="0.0420650188659124" flag="0"/>
			<vel value="0.0216087970260854" flag="0"/>
			<psa03 value="0.181596175688745" flag="0"/>
			<psa10 value="0.013416385332184" flag="0"/>
			<psa30 value="0.00101611502096664" flag="0"/>
		</comp>
		<comp name="00.HNN" depth="0.0">
			<acc value="0.0341706327402651" flag="0"/>
			<vel value="0.0175551675813894" flag="0"/>
			<psa03 value="0.114989742506101" flag="0"/>
			<psa10 value="0.0126681592033751" flag="0"/>
			<psa30 value="0.000797314953619325" flag="0"/>
		</comp>
		<comp name="00.HNZ" depth="0.0">
			<acc value="0.0446409284605895" flag="0"/>
			<vel value="0.0275485098885837" flag="0"/>
			<psa03 value="0.16913439182339" flag="0"/>
			<psa10 value="0.0202863782479985" flag="0"/>
