<stationlist created="1778135704">
	<station code="ERCV" name="ERCV" netid="KO" source="Bogazici University Kandilli Observatory And Earthquake Research Institute (KOERI)" insttype="" lat="39.0198" lon="43.3381">
		<comp name="--.HNE" depth="0.0">
			<acc value="0.0205374836555372" flag="0"/>
			<vel value="0.0144090061083336" flag="0"/>
			<psa03 value="0.0373744003497861" flag="0"/>
			<psa10 value="0.0311569552453716" flag="0"/>
			<psa30 value="0.00767085482315039" flag="0"/>
		</comp>
		<comp name="--.HNN" depth="0.0">
			<acc value="0.0427869236190868" flag="0"/>
			<vel value="0.0212720369710598" flag="0"/>
			<psa03 value="0.0466104158363972" flag="0"/>
			<psa10 value="0.0261548420049347" flag="0"/>
			<psa30 value="0.00699567342902173" flag="0"/>
		</comp>
		<comp name="--.HNZ" depth="0.0">
			<acc value="0.0501814567139813" flag="0"/>
			<vel value="0.00982997769360869" flag="0"/>
			<psa03 value="0.0178399539448007" flag="0"/>
			<psa10 value="0.0193204342589564" flag="0"/>
			<psa30 value="0.0023553362377996" flag="0"/>
		</comp>
	</station>
</stationlist>
