<?xml version="1.0" encoding="UTF-8" standalone="yes"?>
<!DOCTYPE earthquake SYSTEM "stationlist.dtd">
<stationlist created="" xmlns="ch.ethz.sed.shakemap.usgs.xml">
  <station code="AGRB" name="AGRB" netid="KO" insttype="120s," lat="39.5755" lon="42.992">
    <comp name="--.HHN">
      <acc value="0.0145654707" flag="0"/>
      <vel value="0.0117867344" flag="0"/>
      <psa03 value="0.0393857895" flag="0"/>
      <psa10 value="0.0205123193" flag="0"/>
      <psa30 value="0.0008813094" flag="0"/>
    </comp>
    <comp name="--.HHE">
      <acc value="0.0190647808" flag="0"/>
      <vel value="0.0122822956" flag="0"/>
      <psa03 value="0.0754427783" flag="0"/>
      <psa10 value="0.0175701533" flag="0"/>
      <psa30 value="0.0009027279" flag="0"/>
    </comp>
    <comp name="--.HHZ">
      <acc value="0.0104826682" flag="0"/>
      <vel value="0.0066781834" flag="0"/>
      <psa03 value="0.0412640969" flag="0"/>
      <psa10 value="0.0110682213" flag="0"/>
      <psa30 value="0.0006023487" flag="0"/>
    </comp>
  </station>
  <station code="KARS" name="KARS" netid="KO" insttype="120s," lat="40.6152" lon="43.0937">
    <comp name="--.HHN">
      <acc value="0.0042649099" flag="0"/>
      <vel value="0.0043508504" flag="0"/>
      <psa03 value="0.0085143051" flag="0"/>
      <psa10 value="0.0106789328" flag="0"/>
      <psa30 value="0.0006368811" flag="0"/>
    </comp>
    <comp name="--.HHE">
      <acc value="0.0054212960" flag="0"/>
      <vel value="0.0055500988" flag="0"/>
      <psa03 value="0.0117951070" flag="0"/>
      <psa10 value="0.0076682715" flag="0"/>
      <psa30 value="0.0008406607" flag="0"/>
    </comp>
    <comp name="--.HHZ">
      <acc value="0.0029425810" flag="0"/>
      <vel value="0.0028318057" flag="0"/>
      <psa03 value="0.0088085650" flag="0"/>
      <psa10 value="0.0058025260" flag="0"/>
      <psa30 value="0.0006588495" flag="0"/>
    </comp>
  </station>
  <station code="TASB" name="TASB" netid="KO" insttype="120s," lat="39.9839" lon="44.2384">
    <comp name="--.HHZ">
      <acc value="0.4385159227" flag="0"/>
      <vel value="0.1221194295" flag="0"/>
      <psa03 value="0.5047807372" flag="0"/>
      <psa10 value="0.1821388011" flag="0"/>
      <psa30 value="0.0136676176" flag="0"/>
    </comp>
    <comp name="--.HHN">
      <acc value="0.4192055441" flag="0"/>
      <vel value="0.2662261876" flag="0"/>
      <psa03 value="0.6935782837" flag="0"/>
      <psa10 value="0.2728873949" flag="0"/>
      <psa30 value="0.0216075458" flag="0"/>
    </comp>
    <comp name="--.HHE">
      <acc value="0.5921795636" flag="0"/>
      <vel value="0.6080755780" flag="0"/>
      <psa03 value="1.2165142969" flag="0"/>
      <psa10 value="0.6471647003" flag="0"/>
      <psa30 value="0.0536467564" flag="0"/>
    </comp>
  </station>
</stationlist>
