<?xml version="1.0" encoding="UTF-8" standalone="yes"?>
<!DOCTYPE earthquake SYSTEM "stationlist.dtd">
<stationlist created="" xmlns="ch.ethz.sed.shakemap.usgs.xml">
  <station code="KARP" name="KARP" netid="GE" insttype="STS-2/N" lat="35.5471" lon="27.1611">
    <comp name="--.HHZ">
      <acc value="0.0148455653" flag="0"/>
      <vel value="0.0048987507" flag="0"/>
      <psa03 value="0.0237305139" flag="0"/>
      <psa10 value="0.0043486804" flag="0"/>
      <psa30 value="0.0003425434" flag="0"/>
    </comp>
    <comp name="--.HHE">
      <acc value="0.0223101478" flag="0"/>
      <vel value="0.0113270326" flag="0"/>
      <psa03 value="0.0343144848" flag="0"/>
      <psa10 value="0.0137012292" flag="0"/>
      <psa30 value="0.0007475498" flag="0"/>
    </comp>
    <comp name="--.HHN">
      <acc value="0.0213797150" flag="0"/>
      <vel value="0.0077183347" flag="0"/>
      <psa03 value="0.0224801413" flag="0"/>
      <psa10 value="0.0102155842" flag="0"/>
      <psa30 value="0.0004807349" flag="0"/>
    </comp>
  </station>
  <station code="ARG" name="ARG" netid="HL" insttype="LE3D20_DR24" lat="36.2136" lon="28.1212">
    <comp name="--.HHN">
      <acc value="0.0103242149" flag="0"/>
      <vel value="0.0048814205" flag="0"/>
      <psa03 value="0.0291236235" flag="0"/>
      <psa10 value="0.0082280764" flag="0"/>
      <psa30 value="0.0005259541" flag="0"/>
    </comp>
    <comp name="--.HHE">
      <acc value="0.0202402405" flag="0"/>
      <vel value="0.0130462356" flag="0"/>
      <psa03 value="0.0425300584" flag="0"/>
      <psa10 value="0.0075139057" flag="0"/>
      <psa30 value="0.0014002245" flag="0"/>
    </comp>
    <comp name="--.HHZ">
      <acc value="0.0049556183" flag="0"/>
      <vel value="0.0032820599" flag="0"/>
      <psa03 value="0.0094523855" flag="0"/>
      <psa10 value="0.0053493465" flag="0"/>
      <psa30 value="0.0007721083" flag="0"/>
    </comp>
  </station>
  <station code="KARP" name="KARP" netid="HL" insttype="120" lat="35.5471" lon="27.1611">
    <comp name="--.HHZ">
      <acc value="0.0137704824" flag="0"/>
      <vel value="0.0047922020" flag="0"/>
      <psa03 value="0.0231827203" flag="0"/>
      <psa10 value="0.0043142599" flag="0"/>
      <psa30 value="0.0003413420" flag="0"/>
    </comp>
    <comp name="--.HHN">
      <acc value="0.0204210068" flag="0"/>
      <vel value="0.0074961604" flag="0"/>
      <psa03 value="0.0219046316" flag="0"/>
      <psa10 value="0.0101266842" flag="0"/>
      <psa30 value="0.0004766255" flag="0"/>
    </comp>
    <comp name="--.HHE">
      <acc value="0.0211564251" flag="0"/>
      <vel value="0.0110544731" flag="0"/>
      <psa03 value="0.0335468562" flag="0"/>
      <psa10 value="0.0136129508" flag="0"/>
      <psa30 value="0.0007410934" flag="0"/>
    </comp>
  </station>
  <station code="NISR" name="NISR" netid="HL" insttype="65535" lat="36.6106" lon="27.131">
    <comp name="--.HHE">
      <acc value="0.5925756860" flag="0"/>
      <vel value="0.2725469954" flag="0"/>
      <psa03 value="1.4715523141" flag="0"/>
      <psa10 value="0.0818703527" flag="0"/>
      <psa30 value="0.0062051955" flag="0"/>
    </comp>
    <comp name="--.HHN">
      <acc value="0.3992802845" flag="0"/>
      <vel value="0.1165773558" flag="0"/>
      <psa03 value="0.6180272618" flag="0"/>
      <psa10 value="0.0545360403" flag="0"/>
      <psa30 value="0.0454878729" flag="0"/>
    </comp>
    <comp name="--.HHZ">
      <acc value="0.1999294570" flag="0"/>
      <vel value="0.0635736237" flag="0"/>
      <psa03 value="0.3013787345" flag="0"/>
      <psa10 value="0.0500857822" flag="0"/>
      <psa30 value="0.0022293587" flag="0"/>
    </comp>
  </station>
</stationlist>
