<?xml version="1.0" encoding="UTF-8" standalone="yes"?>
<!DOCTYPE earthquake SYSTEM "stationlist.dtd">
<stationlist created="" xmlns="ch.ethz.sed.shakemap.usgs.xml">
  <station code="APE" name="APE" netid="GE" insttype="STS-2/N" lat="37.0727" lon="25.523">
    <comp name="--.HHZ">
      <acc value="0.2423002172" flag="0"/>
      <vel value="0.0476644713" flag="0"/>
      <psa03 value="0.1821389496" flag="0"/>
      <psa10 value="0.0246987240" flag="0"/>
      <psa30 value="0.0089637515" flag="0"/>
    </comp>
    <comp name="--.HHE">
      <acc value="0.4983782291" flag="0"/>
      <vel value="0.1504747255" flag="0"/>
      <psa03 value="0.5032313452" flag="0"/>
      <psa10 value="0.0370258011" flag="0"/>
      <psa30 value="0.0091395655" flag="0"/>
    </comp>
    <comp name="--.HHN">
      <acc value="0.5160993433" flag="0"/>
      <vel value="0.1198392320" flag="0"/>
      <psa03 value="0.3374999236" flag="0"/>
      <psa10 value="0.0372368611" flag="0"/>
      <psa30 value="0.0088143473" flag="0"/>
    </comp>
  </station>
  <station code="THERA" name="THERA" netid="GE" insttype="STS-2/N" lat="36.367" lon="25.4753">
    <comp name="--.HHN">
      <acc value="1.0833386986" flag="0"/>
      <vel value="0.2546537211" flag="0"/>
      <psa03 value="1.1821091265" flag="0"/>
      <psa10 value="0.1066970488" flag="0"/>
      <psa30 value="0.0181363355" flag="0"/>
    </comp>
    <comp name="--.HHZ">
      <acc value="0.6343125891" flag="0"/>
      <vel value="0.2181581592" flag="0"/>
      <psa03 value="1.0348388103" flag="0"/>
      <psa10 value="0.1340111866" flag="0"/>
      <psa30 value="0.0201558621" flag="0"/>
    </comp>
    <comp name="--.HHE">
      <acc value="0.8482951557" flag="0"/>
      <vel value="0.2751852684" flag="0"/>
      <psa03 value="1.0897419689" flag="0"/>
      <psa10 value="0.2609156078" flag="0"/>
      <psa30 value="0.0367548341" flag="0"/>
    </comp>
  </station>
</stationlist>
