<?xml version="1.0" encoding="UTF-8" standalone="yes"?>
<!DOCTYPE earthquake SYSTEM "stationlist.dtd">
<stationlist created="" xmlns="ch.ethz.sed.shakemap.usgs.xml">
  <station code="APE" name="APE" netid="GE" insttype="STS-2/N" lat="37.0727" lon="25.523">
    <comp name="--.HHZ">
      <acc value="0.2423002172" flag="0"/>
      <vel value="0.0476644713" flag="0"/>
      <psa03 value="0.1821389496" flag="0"/>
      <psa10 value="0.0246987240" flag="0"/>
      <psa30 value="0.0089637515" flag="0"/>
    </comp>
    <comp name="--.HHE">
      <acc value="0.4983782291" flag="0"/>
      <vel value="0.1504747255" flag="0"/>
      <psa03 value="0.5032313452" flag="0"/>
      <psa10 value="0.0370258011" flag="0"/>
      <psa30 value="0.0091395655" flag="0"/>
    </comp>
    <comp name="--.HHN">
      <acc value="0.5160993433" flag="0"/>
      <vel value="0.1198392320" flag="0"/>
      <psa03 value="0.3374999236" flag="0"/>
      <psa10 value="0.0372368611" flag="0"/>
      <psa30 value="0.0088143473" flag="0"/>
    </comp>
  </station>
  <station code="THERA" name="THERA" netid="GE" insttype="STS-2/N" lat="36.367" lon="25.4753">
    <comp name="--.HHN">
      <acc value="1.0833386986" flag="0"/>
      <vel value="0.2546537211" flag="0"/>
      <psa03 value="1.1821091265" flag="0"/>
      <psa10 value="0.1066970488" flag="0"/>
      <psa30 value="0.0181363355" flag="0"/>
    </comp>
    <comp name="--.HHZ">
      <acc value="0.6343125891" flag="0"/>
      <vel value="0.2181581592" flag="0"/>
      <psa03 value="1.0348388103" flag="0"/>
      <psa10 value="0.1340111866" flag="0"/>
      <psa30 value="0.0201558621" flag="0"/>
    </comp>
    <comp name="--.HHE">
      <acc value="0.8482951557" flag="0"/>
      <vel value="0.2751852684" flag="0"/>
      <psa03 value="1.0897419689" flag="0"/>
      <psa10 value="0.2609156078" flag="0"/>
      <psa30 value="0.0367548341" flag="0"/>
    </comp>
  </station>
  <station code="SNT1" name="SNT1" netid="HA" insttype="30" lat="36.4159" lon="25.4282">
    <comp name="--.HHN">
      <acc value="1.1483846214" flag="0"/>
      <vel value="0.3941285926" flag="0"/>
      <psa03 value="1.3594596750" flag="0"/>
      <psa10 value="0.2772312201" flag="0"/>
      <psa30 value="0.0529444674" flag="0"/>
    </comp>
    <comp name="--.HHE">
      <acc value="1.0867093364" flag="0"/>
      <vel value="0.5715284420" flag="0"/>
      <psa03 value="2.1734130421" flag="0"/>
      <psa10 value="0.4982757020" flag="0"/>
      <psa30 value="0.0664292844" flag="0"/>
    </comp>
    <comp name="--.HHZ">
      <acc value="0.8286457139" flag="0"/>
      <vel value="0.2933199483" flag="0"/>
      <psa03 value="1.0655655432" flag="0"/>
      <psa10 value="0.1868827785" flag="0"/>
      <psa30 value="0.0267416374" flag="0"/>
    </comp>
  </station>
  <station code="KNSS" name="KNSS" netid="HC" insttype="60" lat="35.3042" lon="25.1802">
    <comp name="--.HHE">
      <acc value="0.0756166014" flag="0"/>
      <vel value="0.0527606587" flag="0"/>
      <psa03 value="0.3946479896" flag="0"/>
      <psa10 value="0.0389840334" flag="0"/>
      <psa30 value="0.0086671945" flag="0"/>
    </comp>
    <comp name="--.HHZ">
      <acc value="0.1012296589" flag="0"/>
      <vel value="0.0501530622" flag="0"/>
      <psa03 value="0.2868485867" flag="0"/>
      <psa10 value="0.0367427169" flag="0"/>
      <psa30 value="0.0055669501" flag="0"/>
    </comp>
    <comp name="--.HHN">
      <acc value="0.0825990607" flag="0"/>
      <vel value="0.0377618733" flag="0"/>
      <psa03 value="0.2220534026" flag="0"/>
      <psa10 value="0.0365860236" flag="0"/>
      <psa30 value="0.0056607711" flag="0"/>
    </comp>
  </station>
  <station code="APE" name="APE" netid="HL" insttype="120" lat="37.0727" lon="25.523">
    <comp name="--.HHE">
      <acc value="0.4635836323" flag="0"/>
      <vel value="0.1460087378" flag="0"/>
      <psa03 value="0.4907192373" flag="0"/>
      <psa10 value="0.0366852724" flag="0"/>
      <psa30 value="0.0091237777" flag="0"/>
    </comp>
    <comp name="--.HHN">
      <acc value="0.4402276982" flag="0"/>
      <vel value="0.1138159480" flag="0"/>
      <psa03 value="0.3279793173" flag="0"/>
      <psa10 value="0.0369526779" flag="0"/>
      <psa30 value="0.0087936017" flag="0"/>
    </comp>
    <comp name="--.HHZ">
      <acc value="0.2129606127" flag="0"/>
      <vel value="0.0458863517" flag="0"/>
      <psa03 value="0.1787094630" flag="0"/>
      <psa10 value="0.0244849182" flag="0"/>
      <psa30 value="0.0089428252" flag="0"/>
    </comp>
  </station>
  <station code="IACM" name="IACM" netid="HL" insttype="120" lat="35.3058" lon="25.0709">
    <comp name="--.HHE">
      <acc value="0.2359948241" flag="0"/>
      <vel value="0.1519737726" flag="0"/>
      <psa03 value="0.9805315343" flag="0"/>
      <psa10 value="0.1433415763" flag="0"/>
      <psa30 value="0.0179953923" flag="0"/>
    </comp>
    <comp name="--.HHZ">
      <acc value="0.1543464533" flag="0"/>
      <vel value="0.0940397316" flag="0"/>
      <psa03 value="0.4288536054" flag="0"/>
      <psa10 value="0.0810479699" flag="0"/>
      <psa30 value="0.0041916618" flag="0"/>
    </comp>
    <comp name="--.HHN">
      <acc value="0.2726450529" flag="0"/>
      <vel value="0.1562254773" flag="0"/>
      <psa03 value="0.8584341611" flag="0"/>
      <psa10 value="0.1642183132" flag="0"/>
      <psa30 value="0.0094834427" flag="0"/>
    </comp>
  </station>
  <station code="KLNA" name="KLNA" netid="HL" insttype="CMG-5" lat="36.9571" lon="26.9727">
    <comp name="00.HNE">
      <acc value="0.0677338632" flag="0"/>
      <vel value="0.0259145535" flag="0"/>
      <psa03 value="0.1575957148" flag="0"/>
      <psa10 value="0.0116626768" flag="0"/>
      <psa30 value="0.0012871820" flag="0"/>
    </comp>
    <comp name="00.HNN">
      <acc value="0.0553330590" flag="0"/>
      <vel value="0.0245116006" flag="0"/>
      <psa03 value="0.1431810236" flag="0"/>
      <psa10 value="0.0092492531" flag="0"/>
      <psa30 value="0.0017480991" flag="0"/>
    </comp>
  </station>
  <station code="MHLO" name="MHLO" netid="HL" insttype="20" lat="36.6898" lon="24.4017">
    <comp name="--.HHE">
      <acc value="0.4428847706" flag="0"/>
      <vel value="0.2644178253" flag="0"/>
      <psa03 value="1.3748754168" flag="0"/>
      <psa10 value="0.4027321213" flag="0"/>
      <psa30 value="0.0237328425" flag="0"/>
    </comp>
    <comp name="--.HHN">
      <acc value="0.3657670116" flag="0"/>
      <vel value="0.2669195964" flag="0"/>
      <psa03 value="1.0592415952" flag="0"/>
      <psa10 value="0.5235036001" flag="0"/>
      <psa30 value="0.0202080067" flag="0"/>
    </comp>
    <comp name="--.HHZ">
      <acc value="0.2108100552" flag="0"/>
      <vel value="0.1240455659" flag="0"/>
      <psa03 value="0.5800010514" flag="0"/>
      <psa10 value="0.1858270430" flag="0"/>
      <psa30 value="0.0162444642" flag="0"/>
    </comp>
  </station>
  <station code="NISR" name="NISR" netid="HL" insttype="65535" lat="36.6106" lon="27.131">
    <comp name="--.HHN">
      <acc value="0.0706960892" flag="0"/>
      <vel value="0.0333841530" flag="0"/>
      <psa03 value="0.1849112971" flag="0"/>
      <psa10 value="0.0186484810" flag="0"/>
      <psa30 value="0.0049222318" flag="0"/>
    </comp>
    <comp name="--.HHE">
      <acc value="0.0000000000" flag="0"/>
      <vel value="-100.0000000000" flag="0"/>
      <psa03 value="0.0000000000" flag="0"/>
      <psa10 value="0.0000000000" flag="0"/>
      <psa30 value="0.0000000000" flag="0"/>
    </comp>
    <comp name="--.HHZ">
      <acc value="0.0346269823" flag="0"/>
      <vel value="0.0177446200" flag="0"/>
      <psa03 value="0.0964444842" flag="0"/>
      <psa10 value="0.0181095567" flag="0"/>
      <psa30 value="0.0013459629" flag="0"/>
    </comp>
  </station>
  <station code="NISR2" name="NISR2" netid="HL" insttype="120" lat="36.5744" lon="27.1767">
    <comp name="--.HHE">
      <acc value="0.0876317109" flag="0"/>
      <vel value="0.0574714825" flag="0"/>
      <psa03 value="0.2921606938" flag="0"/>
      <psa10 value="0.0667756577" flag="0"/>
      <psa30 value="0.0049532327" flag="0"/>
    </comp>
    <comp name="--.HHN">
      <acc value="0.1015713410" flag="0"/>
      <vel value="0.0682972415" flag="0"/>
      <psa03 value="0.5131803102" flag="0"/>
      <psa10 value="0.0673689155" flag="0"/>
      <psa30 value="0.0071564071" flag="0"/>
    </comp>
    <comp name="--.HHZ">
      <acc value="0.0326524623" flag="0"/>
      <vel value="0.0190976292" flag="0"/>
      <psa03 value="0.1270986257" flag="0"/>
      <psa10 value="0.0187830308" flag="0"/>
      <psa30 value="0.0022336931" flag="0"/>
    </comp>
  </station>
  <station code="NPS" name="NPS" netid="HL" insttype="CMG3ESPC-120s" lat="35.2613" lon="25.6104">
    <comp name="--.HHE">
      <acc value="0.0372439218" flag="0"/>
      <vel value="0.0177623747" flag="0"/>
      <psa03 value="0.0887436304" flag="0"/>
      <psa10 value="0.0185668664" flag="0"/>
      <psa30 value="0.0019033709" flag="0"/>
    </comp>
    <comp name="--.HHN">
      <acc value="0.0781581979" flag="0"/>
      <vel value="0.0387974099" flag="0"/>
      <psa03 value="0.1658553544" flag="0"/>
      <psa10 value="0.0360053374" flag="0"/>
      <psa30 value="0.0050668139" flag="0"/>
    </comp>
    <comp name="--.HHZ">
      <acc value="0.0620303505" flag="0"/>
      <vel value="0.0269942995" flag="0"/>
      <psa03 value="0.1358096974" flag="0"/>
      <psa10 value="0.0167961160" flag="0"/>
      <psa30 value="0.0060370043" flag="0"/>
    </comp>
  </station>
  <station code="SAP3" name="SAP3" netid="HL" insttype="LE3D20_SMART24" lat="36.4356" lon="25.3454">
    <comp name="--.HHN">
      <acc value="2.8678477502" flag="0"/>
      <vel value="0.8625833586" flag="0"/>
      <psa03 value="4.1426696097" flag="0"/>
      <psa10 value="0.8537404470" flag="0"/>
      <psa30 value="0.1305288758" flag="0"/>
    </comp>
    <comp name="--.HHE">
      <acc value="3.3091385420" flag="0"/>
      <vel value="1.1283499549" flag="0"/>
      <psa03 value="3.7217431100" flag="0"/>
      <psa10 value="1.6617693784" flag="0"/>
      <psa30 value="0.1916665387" flag="0"/>
    </comp>
    <comp name="--.HHZ">
      <acc value="3.2699605348" flag="0"/>
      <vel value="0.6590428331" flag="0"/>
      <psa03 value="2.4895924373" flag="0"/>
      <psa10 value="0.3942675567" flag="0"/>
      <psa30 value="0.0637465612" flag="0"/>
    </comp>
  </station>
  <station code="THERA" name="THERA" netid="HL" insttype="120" lat="36.367" lon="25.4753">
    <comp name="--.HHE">
      <acc value="0.8457237179" flag="0"/>
      <vel value="0.2699747446" flag="0"/>
      <psa03 value="1.0556036613" flag="0"/>
      <psa10 value="0.2597779358" flag="0"/>
      <psa30 value="0.0367664654" flag="0"/>
    </comp>
    <comp name="--.HHN">
      <acc value="1.1011677774" flag="0"/>
      <vel value="0.2502052857" flag="0"/>
      <psa03 value="1.1469486465" flag="0"/>
      <psa10 value="0.1053250144" flag="0"/>
      <psa30 value="0.0181528352" flag="0"/>
    </comp>
    <comp name="--.HHZ">
      <acc value="0.6148145396" flag="0"/>
      <vel value="0.2136424137" flag="0"/>
      <psa03 value="1.0049041625" flag="0"/>
      <psa10 value="0.1328973925" flag="0"/>
      <psa30 value="0.0201697985" flag="0"/>
    </comp>
  </station>
  <station code="THRA" name="THRA" netid="HL" insttype="CMG-5" lat="36.415" lon="25.4324">
    <comp name="00.HNN">
      <acc value="2.7224980292" flag="0"/>
      <vel value="1.0474366454" flag="0"/>
      <psa03 value="4.3230451681" flag="0"/>
      <psa10 value="1.4352338973" flag="0"/>
      <psa30 value="0.0794487707" flag="0"/>
    </comp>
    <comp name="00.HNE">
      <acc value="3.2216747522" flag="0"/>
      <vel value="1.2109480008" flag="0"/>
      <psa03 value="6.0406459533" flag="0"/>
      <psa10 value="1.1902103765" flag="0"/>
      <psa30 value="0.1093656948" flag="0"/>
    </comp>
    <comp name="00.HNZ">
      <acc value="2.1452414735" flag="0"/>
      <vel value="0.8214641414" flag="0"/>
      <psa03 value="4.0443409102" flag="0"/>
      <psa10 value="0.3825798420" flag="0"/>
      <psa30 value="0.0393863089" flag="0"/>
    </comp>
  </station>
</stationlist>
