<stationlist created="1667989834">
	<station code="APEC" name="APEC" netid="IV" source="Italian National Seismic Network (INSN)" insttype="" lat="43.55846" lon="12.41991">
		<comp name=".HHE" depth="0.0">
			<acc value="0.0196397779171" flag="0"/>
			<vel value="0.0124237284459" flag="0"/>
			<psa03 value="0.0542444163429" flag="0"/>
			<psa10 value="0.010449355656" flag="0"/>
			<psa30 value="0.0018373542157" flag="0"/>
		</comp>
		<comp name=".HHN" depth="0.0">
			<acc value="0.0190253139924" flag="0"/>
			<vel value="0.0114359216911" flag="0"/>
			<psa03 value="0.0633775526186" flag="0"/>
			<psa10 value="0.00775178461144" flag="0"/>
			<psa30 value="0.00175232004093" flag="0"/>
		</comp>
		<comp name=".HHZ" depth="0.0">
			<acc value="0.0132220309539" flag="0"/>
			<vel value="0.00648579778143" flag="0"/>
			<psa03 value="0.0251512390628" flag="0"/>
			<psa10 value="0.00484363571084" flag="0"/>
			<psa30 value="0.0031197068736" flag="0"/>
		</comp>
		<comp name=".HNE" depth="0.0">
			<acc value="0.0175403380865" flag="0"/>
			<vel value="0.00882698062853" flag="0"/>
			<psa03 value="0.068469447223" flag="0"/>
			<psa10 value="0.0073705756082" flag="0"/>
			<psa30 value="0.0020473385428" flag="0"/>
		</comp>
		<comp name=".HNN" depth="0.0">
			<acc value="0.0152326293435" flag="0"/>
			<vel value="0.00980807988446" flag="0"/>
			<psa03 value="0.0542514324328" flag="0"/>
			<psa10 value="0.00733597909763" flag="0"/>
			<psa30 value="0.00178684107779" flag="0"/>
		</comp>
		<comp name=".HNZ" depth="0.0">
			<acc value="0.0128426908026" flag="0"/>
			<vel value="0.00692880883517" flag="0"/>
			<psa03 value="0.0231518279658" flag="0"/>
			<psa10 value="0.00436856502099" flag="0"/>
			<psa30 value="0.00328257953812" flag="0"/>
		</comp>
	</station>
	<station code="ASCOL" name="ASCOL" netid="IV" source="Italian National Seismic Network (INSN)" insttype="" lat="42.851223" lon="13.58969">
		<comp name=".EHE" depth="0.0">
			<acc value="0.0102521385226" flag="0"/>
			<vel value="0.00442953416206" flag="0"/>
			<psa03 value="0.00943138194421" flag="0"/>
			<psa10 value="0.00214280640353" flag="0"/>
			<psa30 value="0.00156991847856" flag="0"/>
		</comp>
		<comp name=".EHN" depth="0.0">
			<acc value="0.00686680032401" flag="0"/>
			<vel value="0.00461394458783" flag="0"/>
			<psa03 value="0.00876799489914" flag="0"/>
			<psa10 value="0.00140244407691" flag="0"/>
			<psa30 value="0.00162454657657" flag="0"/>
		</comp>
		<comp name=".EHZ" depth="0.0">
			<acc value="0.00809548494551" flag="0"/>
			<vel value="0.00281164114983" flag="0"/>
			<psa03 value="0.00617093548688" flag="0"/>
			<psa10 value="0.00178871474357" flag="0"/>
			<psa30 value="0.00154427584236" flag="0"/>
		</comp>
		<comp name=".HNE" depth="0.0">
			<acc value="0.00505079231542" flag="0"/>
			<vel value="0.00225274172808" flag="0"/>
			<psa03 value="0.0048952097003" flag="0"/>
			<psa10 value="0.00112635606087" flag="0"/>
			<psa30 value="0.000697480162972" flag="0"/>
		</comp>
		<comp name=".HNN" depth="0.0">
			<acc value="0.00388433992601" flag="0"/>
			<vel value="0.00211440368142" flag="0"/>
			<psa03 value="0.00436497665828" flag="0"/>
			<psa10 value="0.000809616758137" flag="0"/>
			<psa30 value="0.000828257263814" flag="0"/>
		</comp>
		<comp name=".HNZ" depth="0.0">
			<acc value="0.00429919501857" flag="0"/>
			<vel value="0.00139749531328" flag="0"/>
			<psa03 value="0.00312969886365" flag="0"/>
			<psa10 value="0.000913727053369" flag="0"/>
			<psa30 value="0.000765459614195" flag="0"/>
		</comp>
	</station>
	<station code="ATBU" name="ATBU" netid="IV" source="Italian National Seismic Network (INSN)" insttype="" lat="43.47571" lon="12.54828">
		<comp name=".EHE" depth="1.0">
			<acc value="0.0211176654836" flag="0"/>
			<vel value="0.0127956154527" flag="0"/>
			<psa03 value="0.0906532865855" flag="0"/>
			<psa10 value="0.0168138919628" flag="0"/>
			<psa30 value="0.00424599627641" flag="0"/>
		</comp>
		<comp name=".EHN" depth="1.0">
			<acc value="0.0211053490989" flag="0"/>
			<vel value="0.0129216302359" flag="0"/>
			<psa03 value="0.0535129824725" flag="0"/>
			<psa10 value="0.0224564295033" flag="0"/>
			<psa30 value="0.0025012896565" flag="0"/>
		</comp>
		<comp name=".EHZ" depth="1.0">
			<acc value="0.0076913705754" flag="0"/>
			<vel value="0.00585560418818" flag="0"/>
			<psa03 value="0.0305068881191" flag="0"/>
			<psa10 value="0.00604070844852" flag="0"/>
			<psa30 value="0.00229829037546" flag="0"/>
		</comp>
	</station>
	<station code="ATCC" name="ATCC" netid="IV" source="Italian National Seismic Network (INSN)" insttype="" lat="43.18514" lon="12.63994">
		<comp name=".EHE" depth="1.0">
			<acc value="0.012801397382" flag="0"/>
			<vel value="0.0073813227258" flag="0"/>
			<psa03 value="0.0297758501081" flag="0"/>
			<psa10 value="0.00866414551963" flag="0"/>
			<psa30 value="0.00299614410484" flag="0"/>
		</comp>
		<comp name=".EHN" depth="1.0">
			<acc value="0.0111129578018" flag="0"/>
			<vel value="0.00760387050297" flag="0"/>
			<psa03 value="0.0290879165151" flag="0"/>
			<psa10 value="0.00680854884546" flag="0"/>
			<psa30 value="0.00342201356661" flag="0"/>
		</comp>
		<comp name=".EHZ" depth="1.0">
			<acc value="0.00831313241159" flag="0"/>
			<vel value="0.00524427377477" flag="0"/>
			<psa03 value="0.0232892693623" flag="0"/>
			<psa10 value="0.00531405468628" flag="0"/>
			<psa30 value="0.00203778853516" flag="0"/>
		</comp>
		<comp name=".HNE" depth="1.0">
			<acc value="0.0130389638415" flag="0"/>
			<vel value="0.0071656419835" flag="0"/>
			<psa03 value="0.0258860325309" flag="0"/>
			<psa10 value="0.00911657267821" flag="0"/>
			<psa30 value="0.00309076162279" flag="0"/>
		</comp>
		<comp name=".HNN" depth="1.0">
			<acc value="0.0118708162218" flag="0"/>
			<vel value="0.00723799308354" flag="0"/>
			<psa03 value="0.0351961128197" flag="0"/>
			<psa10 value="0.00590503524212" flag="0"/>
			<psa30 value="0.00301499618703" flag="0"/>
		</comp>
		<comp name=".HNZ" depth="1.0">
			<acc value="0.00863434373482" flag="0"/>
			<vel value="0.00531679029387" flag="0"/>
			<psa03 value="0.0236855612397" flag="0"/>
			<psa10 value="0.00545810969796" flag="0"/>
			<psa30 value="0.00197335030811" flag="0"/>
		</comp>
	</station>
	<station code="ATFO" name="ATFO" netid="IV" source="Italian National Seismic Network (INSN)" insttype="" lat="43.3666" lon="12.5715">
		<comp name=".HNE" depth="1.0">
			<acc value="0.0120810104964" flag="0"/>
			<vel value="0.00865796470649" flag="0"/>
			<psa03 value="0.0373625636282" flag="0"/>
			<psa10 value="0.0100743008105" flag="0"/>
			<psa30 value="0.00313571085046" flag="0"/>
		</comp>
		<comp name=".HNN" depth="1.0">
			<acc value="0.00928047353829" flag="0"/>
			<vel value="0.00615710868722" flag="0"/>
			<psa03 value="0.0324432481643" flag="0"/>
			<psa10 value="0.00916242134043" flag="0"/>
			<psa30 value="0.00148223027382" flag="0"/>
		</comp>
		<comp name=".HNZ" depth="1.0">
			<acc value="0.00609714683963" flag="0"/>
			<vel value="0.00369718086545" flag="0"/>
			<psa03 value="0.0136843075599" flag="0"/>
			<psa10 value="0.00386336436643" flag="0"/>
			<psa30 value="0.00119574035776" flag="0"/>
		</comp>
	</station>
	<station code="ATLO" name="ATLO" netid="IV" source="Italian National Seismic Network (INSN)" insttype="" lat="43.31516" lon="12.40726">
		<comp name=".EHE" depth="1.0">
			<acc value="0.00603341784371" flag="0"/>
			<vel value="0.00457069162636" flag="0"/>
			<psa03 value="0.0196633794253" flag="0"/>
			<psa10 value="0.00278665843057" flag="0"/>
			<psa30 value="0.00179384633352" flag="0"/>
		</comp>
		<comp name=".EHN" depth="1.0">
			<acc value="0.00598696500275" flag="0"/>
			<vel value="0.00465826668637" flag="0"/>
			<psa03 value="0.0209852143862" flag="0"/>
			<psa10 value="0.00389966770885" flag="0"/>
			<psa30 value="0.00145999223816" flag="0"/>
		</comp>
		<comp name=".EHZ" depth="1.0">
			<acc value="0.003864110326" flag="0"/>
			<vel value="0.0029631792669" flag="0"/>
			<psa03 value="0.00992056474079" flag="0"/>
			<psa10 value="0.00413944312404" flag="0"/>
			<psa30 value="0.00123180503854" flag="0"/>
		</comp>
		<comp name=".HNE" depth="1.0">
			<acc value="0.00603427768223" flag="0"/>
			<vel value="0.00451156223417" flag="0"/>
			<psa03 value="0.0200405346183" flag="0"/>
			<psa10 value="0.00293129191808" flag="0"/>
			<psa30 value="0.00172170103341" flag="0"/>
		</comp>
		<comp name=".HNN" depth="1.0">
			<acc value="0.00604573312037" flag="0"/>
			<vel value="0.0047150505903" flag="0"/>
			<psa03 value="0.0212688894283" flag="0"/>
			<psa10 value="0.00407399378835" flag="0"/>
			<psa30 value="0.00148230423705" flag="0"/>
		</comp>
		<comp name=".HNZ" depth="1.0">
			<acc value="0.000992086262506" flag="0"/>
			<vel value="0.000733535235651" flag="0"/>
			<psa03 value="0.00256721401064" flag="0"/>
			<psa10 value="0.00106738363862" flag="0"/>
			<psa30 value="0.000313837899596" flag="0"/>
		</comp>
	</station>
	<station code="ATPC" name="ATPC" netid="IV" source="Italian National Seismic Network (INSN)" insttype="" lat="43.4807" lon="12.457">
		<comp name=".HHE" depth="1.0">
			<acc value="0.0154250451887" flag="0"/>
			<vel value="0.00994169625691" flag="0"/>
			<psa03 value="0.0495980772959" flag="0"/>
			<psa10 value="0.0138060727096" flag="0"/>
			<psa30 value="0.00216513634632" flag="0"/>
		</comp>
		<comp name=".HHN" depth="1.0">
			<acc value="0.0117009005006" flag="0"/>
			<vel value="0.00719489007879" flag="0"/>
			<psa03 value="0.0320652205177" flag="0"/>
			<psa10 value="0.00813588740012" flag="0"/>
			<psa30 value="0.00191677822715" flag="0"/>
		</comp>
		<comp name=".HHZ" depth="1.0">
			<acc value="0.00715415673769" flag="0"/>
			<vel value="0.00465758692406" flag="0"/>
			<psa03 value="0.0175073238368" flag="0"/>
			<psa10 value="0.00501311084397" flag="0"/>
			<psa30 value="0.00235156036267" flag="0"/>
		</comp>
		<comp name=".HNE" depth="1.0">
			<acc value="0.0148705379416" flag="0"/>
			<vel value="0.00962740949592" flag="0"/>
			<psa03 value="0.048214105406" flag="0"/>
			<psa10 value="0.0136415652493" flag="0"/>
			<psa30 value="0.00215146481565" flag="0"/>
		</comp>
		<comp name=".HNN" depth="1.0">
			<acc value="0.0113363750404" flag="0"/>
			<vel value="0.00694842605003" flag="0"/>
			<psa03 value="0.0313453733521" flag="0"/>
			<psa10 value="0.00796656743351" flag="0"/>
			<psa30 value="0.00190711529536" flag="0"/>
		</comp>
		<comp name=".HNZ" depth="1.0">
			<acc value="0.00694745361708" flag="0"/>
			<vel value="0.0044616614374" flag="0"/>
			<psa03 value="0.0171212969623" flag="0"/>
			<psa10 value="0.00489262942518" flag="0"/>
			<psa30 value="0.00230346092631" flag="0"/>
		</comp>
	</station>
	<station code="ATPI" name="ATPI" netid="IV" source="Italian National Seismic Network (INSN)" insttype="" lat="43.45068" lon="12.40222">
		<comp name=".EHE" depth="1.0">
			<acc value="0.00412330251862" flag="0"/>
			<vel value="0.00420112782883" flag="0"/>
			<psa03 value="0.00961383673931" flag="0"/>
			<psa10 value="0.00688653385532" flag="0"/>
			<psa30 value="0.00104798504887" flag="0"/>
		</comp>
		<comp name=".EHN" depth="1.0">
			<acc value="0.00403767520684" flag="0"/>
			<vel value="0.00369305900661" flag="0"/>
			<psa03 value="0.0115974531702" flag="0"/>
			<psa10 value="0.00427988992796" flag="0"/>
			<psa30 value="0.00100924081558" flag="0"/>
		</comp>
		<comp name=".EHZ" depth="1.0">
			<acc value="0.00462741287542" flag="0"/>
			<vel value="0.00404485113742" flag="0"/>
			<psa03 value="0.00888704640549" flag="0"/>
			<psa10 value="0.00908658100391" flag="0"/>
			<psa30 value="0.000880086426406" flag="0"/>
		</comp>
		<comp name=".HNE" depth="1.0">
			<acc value="0.00620890356145" flag="0"/>
			<vel value="0.00617557029073" flag="0"/>
			<psa03 value="0.0145630454595" flag="0"/>
			<psa10 value="0.0104544813081" flag="0"/>
			<psa30 value="0.00156803772897" flag="0"/>
		</comp>
		<comp name=".HNN" depth="1.0">
			<acc value="0.00607191610822" flag="0"/>
			<vel value="0.00541281332498" flag="0"/>
			<psa03 value="0.0173429405514" flag="0"/>
			<psa10 value="0.00617984125917" flag="0"/>
			<psa30 value="0.00151198339064" flag="0"/>
		</comp>
		<comp name=".HNZ" depth="1.0">
			<acc value="0.00684546851823" flag="0"/>
			<vel value="0.00597597554326" flag="0"/>
			<psa03 value="0.013063512529" flag="0"/>
			<psa10 value="0.0134582568559" flag="0"/>
			<psa30 value="0.00130261639611" flag="0"/>
		</comp>
	</station>
	<station code="ATVO" name="ATVO" netid="IV" source="Italian National Seismic Network (INSN)" insttype="" lat="43.38211" lon="12.40663">
		<comp name=".HHE" depth="1.0">
			<acc value="0.00699032590157" flag="0"/>
			<vel value="0.00550175247729" flag="0"/>
			<psa03 value="0.0252515529998" flag="0"/>
			<psa10 value="0.00825242449511" flag="0"/>
			<psa30 value="0.00169772267413" flag="0"/>
		</comp>
		<comp name=".HHN" depth="1.0">
			<acc value="0.00603652725775" flag="0"/>
			<vel value="0.00547505864918" flag="0"/>
			<psa03 value="0.0154999655987" flag="0"/>
			<psa10 value="0.00550105754307" flag="0"/>
			<psa30 value="0.00153986211248" flag="0"/>
		</comp>
		<comp name=".HHZ" depth="1.0">
			<acc value="0.00291929932196" flag="0"/>
			<vel value="0.00335784308127" flag="0"/>
			<psa03 value="0.00906297472655" flag="0"/>
			<psa10 value="0.00494241537953" flag="0"/>
			<psa30 value="0.00181586133357" flag="0"/>
		</comp>
		<comp name=".HNE" depth="1.0">
			<acc value="0.00661464635171" flag="0"/>
			<vel value="0.00522060718818" flag="0"/>
			<psa03 value="0.0240501687265" flag="0"/>
			<psa10 value="0.00802029161746" flag="0"/>
			<psa30 value="0.00160218332428" flag="0"/>
		</comp>
		<comp name=".HNN" depth="1.0">
			<acc value="0.00571197727361" flag="0"/>
			<vel value="0.00533657849026" flag="0"/>
			<psa03 value="0.0148494433382" flag="0"/>
			<psa10 value="0.00557360609903" flag="0"/>
			<psa30 value="0.00158301851304" flag="0"/>
		</comp>
		<comp name=".HNZ" depth="1.0">
			<acc value="0.00288361627956" flag="0"/>
			<vel value="0.00324349794839" flag="0"/>
			<psa03 value="0.00870801957191" flag="0"/>
			<psa10 value="0.00473120420029" flag="0"/>
			<psa30 value="0.00185788286729" flag="0"/>
		</comp>
	</station>
	<station code="BOSL" name="BOSL" netid="IV" source="Italian National Seismic Network (INSN)" insttype="" lat="43.93096" lon="11.374336">
		<comp name=".HHE" depth="0.0">
			<acc value="0.000587726957564" flag="0"/>
			<vel value="0.00105895871542" flag="0"/>
			<psa03 value="0.00172686114087" flag="0"/>
			<psa10 value="0.00147929463664" flag="0"/>
			<psa30 value="0.000320598503702" flag="0"/>
		</comp>
		<comp name=".HHN" depth="0.0">
			<acc value="0.000840143580057" flag="0"/>
			<vel value="0.000990371461773" flag="0"/>
			<psa03 value="0.00231782721004" flag="0"/>
			<psa10 value="0.0017524423407" flag="0"/>
			<psa30 value="0.000328225910022" flag="0"/>
		</comp>
		<comp name=".HHZ" depth="0.0">
			<acc value="0.000617039778229" flag="0"/>
			<vel value="0.00104250605826" flag="0"/>
			<psa03 value="0.00121214979767" flag="0"/>
			<psa10 value="0.00139903814816" flag="0"/>
			<psa30 value="0.000323949767374" flag="0"/>
		</comp>
	</station>
	<station code="BRIS" name="BRIS" netid="IV" source="Italian National Seismic Network (INSN)" insttype="" lat="44.22454" lon="11.76657">
		<comp name=".HHE" depth="0.0">
			<acc value="0.00292684834079" flag="0"/>
			<vel value="0.00283759270333" flag="0"/>
			<psa03 value="0.00915218896987" flag="0"/>
			<psa10 value="0.00257730784337" flag="0"/>
			<psa30 value="0.00133290069396" flag="0"/>
		</comp>
		<comp name=".HHN" depth="0.0">
			<acc value="0.00279331377229" flag="0"/>
			<vel value="0.00360527437153" flag="0"/>
			<psa03 value="0.00829461002409" flag="0"/>
			<psa10 value="0.00212874086238" flag="0"/>
			<psa30 value="0.00157075499231" flag="0"/>
		</comp>
		<comp name=".HHZ" depth="0.0">
			<acc value="0.00227032848366" flag="0"/>
			<vel value="0.00273146088318" flag="0"/>
			<psa03 value="0.00523805500325" flag="0"/>
			<psa10 value="0.0042788670477" flag="0"/>
			<psa30 value="0.0011040641805" flag="0"/>
		</comp>
		<comp name=".HNE" depth="0.0">
			<acc value="0.00724646823974" flag="0"/>
			<vel value="0.00791776931167" flag="0"/>
			<psa03 value="0.0225326645534" flag="0"/>
			<psa10 value="0.00615183674776" flag="0"/>
			<psa30 value="0.00330455870246" flag="0"/>
		</comp>
		<comp name=".HNN" depth="0.0">
			<acc value="0.00716163835764" flag="0"/>
			<vel value="0.0083475813151" flag="0"/>
			<psa03 value="0.0206208504051" flag="0"/>
			<psa10 value="0.00513552129685" flag="0"/>
			<psa30 value="0.0037671912246" flag="0"/>
		</comp>
		<comp name=".HNZ" depth="0.0">
			<acc value="0.00588942604327" flag="0"/>
			<vel value="0.00670017692052" flag="0"/>
			<psa03 value="0.0132874375192" flag="0"/>
			<psa10 value="0.0105727669564" flag="0"/>
			<psa30 value="0.00276609365679" flag="0"/>
		</comp>
	</station>
	<station code="BRSN" name="BRSN" netid="IV" source="Italian National Seismic Network (INSN)" insttype="" lat="44.28418" lon="12.08023">
		<comp name=".EHE" depth="0.0">
			<acc value="0.0985922708235" flag="0"/>
			<vel value="0.0260021622265" flag="0"/>
			<psa03 value="0.0447074824846" flag="0"/>
			<psa10 value="0.0216120779441" flag="0"/>
			<psa30 value="0.0128077742855" flag="0"/>
		</comp>
		<comp name=".EHN" depth="0.0">
			<acc value="0.0475192932483" flag="0"/>
			<vel value="0.0335884742775" flag="0"/>
			<psa03 value="0.0438517747565" flag="0"/>
			<psa10 value="0.016415011789" flag="0"/>
			<psa30 value="0.0137234191092" flag="0"/>
		</comp>
		<comp name=".EHZ" depth="0.0">
			<acc value="0.01852657883" flag="0"/>
			<vel value="0.0217382030446" flag="0"/>
			<psa03 value="0.0106785511516" flag="0"/>
			<psa10 value="0.0076660567449" flag="0"/>
			<psa30 value="0.0149493869902" flag="0"/>
		</comp>
		<comp name=".HNE" depth="0.0">
			<acc value="0.112418582932" flag="0"/>
			<vel value="0.0323123164384" flag="0"/>
			<psa03 value="0.0513425261902" flag="0"/>
			<psa10 value="0.029111937273" flag="0"/>
			<psa30 value="0.0219908701205" flag="0"/>
		</comp>
		<comp name=".HNN" depth="0.0">
			<acc value="0.052141151369" flag="0"/>
			<vel value="0.0247121313027" flag="0"/>
			<psa03 value="0.0435923799687" flag="0"/>
			<psa10 value="0.0160689932419" flag="0"/>
			<psa30 value="0.010769482592" flag="0"/>
		</comp>
		<comp name=".HNZ" depth="0.0">
			<acc value="0.0345378413505" flag="0"/>
			<vel value="0.0172544155072" flag="0"/>
			<psa03 value="0.0102069574108" flag="0"/>
			<psa10 value="0.00731130902584" flag="0"/>
			<psa30 value="0.0116546428962" flag="0"/>
		</comp>
	</station>
	<station code="CADA" name="CADA" netid="IV" source="Italian National Seismic Network (INSN)" insttype="" lat="43.1942" lon="13.7614">
		<comp name=".HNE" depth="0.0">
			<acc value="0.0246606433772" flag="0"/>
			<vel value="0.0290477588519" flag="0"/>
			<psa03 value="0.0612378587908" flag="0"/>
			<psa10 value="0.0115516764919" flag="0"/>
			<psa30 value="0.0111635045274" flag="0"/>
		</comp>
		<comp name=".HNN" depth="0.0">
			<acc value="0.0226747970659" flag="0"/>
			<vel value="0.021525165991" flag="0"/>
			<psa03 value="0.0416794589763" flag="0"/>
			<psa10 value="0.00730760237404" flag="0"/>
			<psa30 value="0.00837823501696" flag="0"/>
		</comp>
		<comp name=".HNZ" depth="0.0">
			<acc value="0.0180752265017" flag="0"/>
			<vel value="0.0112015105804" flag="0"/>
			<psa03 value="0.0304778184851" flag="0"/>
			<psa10 value="0.00515163189532" flag="0"/>
			<psa30 value="0.00570596757569" flag="0"/>
		</comp>
	</station>
	<station code="CAFI" name="CAFI" netid="IV" source="Italian National Seismic Network (INSN)" insttype="" lat="43.3292" lon="11.9663">
		<comp name=".HHE" depth="0.0">
			<acc value="0.00475568974088" flag="0"/>
			<vel value="0.00595385311145" flag="0"/>
			<psa03 value="0.0101512961715" flag="0"/>
			<psa10 value="0.00771497920452" flag="0"/>
			<psa30 value="0.00161842533773" flag="0"/>
		</comp>
