<?xml version="1.0" encoding="UTF-8" standalone="yes"?>
<!DOCTYPE earthquake SYSTEM "stationlist.dtd">
<stationlist created="" xmlns="ch.ethz.sed.shakemap.usgs.xml">
  <station code="ATBU" name="ATBU" netid="IV" insttype="" lat="43.4757" lon="12.5483">
    <comp name="--.HNE">
      <acc value="0.0210078046" flag="0"/>
      <vel value="0.0118149609" flag="0"/>
      <psa03 value="0.0900044701" flag="0"/>
      <psa10 value="0.0158832370" flag="0"/>
      <psa30 value="0.0033028438" flag="0"/>
    </comp>
    <comp name="--.HNN">
      <acc value="0.0210358530" flag="0"/>
      <vel value="0.0129156671" flag="0"/>
      <psa03 value="0.0533120317" flag="0"/>
      <psa10 value="0.0229402676" flag="0"/>
      <psa30 value="0.0020473919" flag="0"/>
    </comp>
    <comp name="--.HNZ">
      <acc value="0.0077042601" flag="0"/>
      <vel value="0.0050777458" flag="0"/>
      <psa03 value="0.0291341512" flag="0"/>
      <psa10 value="0.0061096160" flag="0"/>
      <psa30 value="0.0019465783" flag="0"/>
    </comp>
  </station>
  <station code="ATPC" name="ATPC" netid="IV" insttype="" lat="43.4807" lon="12.457">
    <comp name="--.HNN">
      <acc value="0.0113156726" flag="0"/>
      <vel value="0.0065989387" flag="0"/>
      <psa03 value="0.0314161095" flag="0"/>
      <psa10 value="0.0079857122" flag="0"/>
      <psa30 value="0.0014530294" flag="0"/>
    </comp>
    <comp name="--.HNE">
      <acc value="0.0146839600" flag="0"/>
      <vel value="0.0100474004" flag="0"/>
      <psa03 value="0.0481361584" flag="0"/>
      <psa10 value="0.0137512055" flag="0"/>
      <psa30 value="0.0016250274" flag="0"/>
    </comp>
    <comp name="--.HNZ">
      <acc value="0.0070165124" flag="0"/>
      <vel value="0.0041494208" flag="0"/>
      <psa03 value="0.0170084183" flag="0"/>
      <psa10 value="0.0049207757" flag="0"/>
      <psa30 value="0.0019232380" flag="0"/>
    </comp>
  </station>
  <station code="CESI" name="CESI" netid="IV" insttype="" lat="43.0049" lon="12.9046">
    <comp name="--.HNE">
      <acc value="0.0127081522" flag="0"/>
      <vel value="0.0050701156" flag="0"/>
      <psa03 value="0.0338937694" flag="0"/>
      <psa10 value="0.0038571415" flag="0"/>
      <psa30 value="0.0016693441" flag="0"/>
    </comp>
    <comp name="--.HNZ">
      <acc value="0.0131283418" flag="0"/>
      <vel value="0.0040553966" flag="0"/>
      <psa03 value="0.0230141665" flag="0"/>
      <psa10 value="0.0029380779" flag="0"/>
      <psa30 value="0.0010566893" flag="0"/>
    </comp>
    <comp name="--.HNN">
      <acc value="0.0146872160" flag="0"/>
      <vel value="0.0070538313" flag="0"/>
      <psa03 value="0.0485312358" flag="0"/>
      <psa10 value="0.0054739903" flag="0"/>
      <psa30 value="0.0012637253" flag="0"/>
    </comp>
  </station>
  <station code="COR1" name="COR1" netid="IV" insttype="" lat="43.6318" lon="13.0003">
    <comp name="--.HNE">
      <acc value="0.0753635613" flag="0"/>
      <vel value="0.0259780683" flag="0"/>
      <psa03 value="0.1323669516" flag="0"/>
      <psa10 value="0.0317032825" flag="0"/>
      <psa30 value="0.0081998174" flag="0"/>
    </comp>
    <comp name="--.HNN">
      <acc value="0.1129286990" flag="0"/>
      <vel value="0.0350892542" flag="0"/>
      <psa03 value="0.1003774680" flag="0"/>
      <psa10 value="0.0974659717" flag="0"/>
      <psa30 value="0.0158315789" flag="0"/>
    </comp>
    <comp name="--.HNZ">
      <acc value="0.0711985873" flag="0"/>
      <vel value="0.0189377021" flag="0"/>
      <psa03 value="0.0900284512" flag="0"/>
      <psa10 value="0.0271686441" flag="0"/>
      <psa30 value="0.0181467523" flag="0"/>
    </comp>
  </station>
  <station code="CRE" name="CRE" netid="IV" insttype="" lat="43.6189" lon="11.9517">
    <comp name="--.HHZ">
      <acc value="0.0002245069" flag="0"/>
      <vel value="-100.0000000000" flag="0"/>
      <psa03 value="0.0000221908" flag="0"/>
      <psa10 value="0.0000190995" flag="0"/>
      <psa30 value="0.0000237921" flag="0"/>
    </comp>
    <comp name="--.HHE">
      <acc value="0.0003740725" flag="0"/>
      <vel value="-100.0000000000" flag="0"/>
      <psa03 value="0.0000192718" flag="0"/>
      <psa10 value="0.0000207226" flag="0"/>
      <psa30 value="0.0000318579" flag="0"/>
    </comp>
    <comp name="--.HHN">
      <acc value="0.0052506433" flag="0"/>
      <vel value="0.0059511220" flag="0"/>
      <psa03 value="0.0136101012" flag="0"/>
      <psa10 value="0.0052606016" flag="0"/>
      <psa30 value="0.0018435013" flag="0"/>
    </comp>
  </station>
  <station code="FANO" name="FANO" netid="IV" insttype="" lat="43.8435" lon="13.0184">
    <comp name="--.HNE">
      <acc value="0.2331884297" flag="0"/>
      <vel value="0.1352238615" flag="0"/>
      <psa03 value="0.5014433973" flag="0"/>
      <psa10 value="0.1359053064" flag="0"/>
      <psa30 value="0.0087656234" flag="0"/>
    </comp>
    <comp name="--.HNZ">
      <acc value="0.1399875336" flag="0"/>
      <vel value="0.0376126286" flag="0"/>
      <psa03 value="0.2198516245" flag="0"/>
      <psa10 value="0.0554087874" flag="0"/>
      <psa30 value="0.0103876649" flag="0"/>
    </comp>
    <comp name="--.HNN">
      <acc value="0.2199590417" flag="0"/>
      <vel value="0.1292382971" flag="0"/>
      <psa03 value="0.4960831747" flag="0"/>
      <psa10 value="0.1751884208" flag="0"/>
      <psa30 value="0.0133942443" flag="0"/>
    </comp>
  </station>
  <station code="MURB" name="MURB" netid="IV" insttype="" lat="43.263" lon="12.5246">
    <comp name="--.HNE">
      <acc value="0.0268145674" flag="0"/>
      <vel value="0.0131704284" flag="0"/>
      <psa03 value="0.0914881615" flag="0"/>
      <psa10 value="0.0073522162" flag="0"/>
      <psa30 value="0.0016264340" flag="0"/>
    </comp>
    <comp name="--.HNN">
      <acc value="0.0219229884" flag="0"/>
      <vel value="0.0114339794" flag="0"/>
      <psa03 value="0.1012794614" flag="0"/>
      <psa10 value="0.0108934900" flag="0"/>
      <psa30 value="0.0025468842" flag="0"/>
    </comp>
    <comp name="--.HNZ">
      <acc value="0.0066980384" flag="0"/>
      <vel value="0.0040952243" flag="0"/>
      <psa03 value="0.0135205170" flag="0"/>
      <psa10 value="0.0051965673" flag="0"/>
      <psa30 value="0.0017477700" flag="0"/>
    </comp>
  </station>
  <station code="PCRO" name="PCRO" netid="IV" insttype="" lat="43.6077" lon="13.5323">
    <comp name="--.HNE">
      <acc value="0.2724292814" flag="0"/>
      <vel value="0.0346372646" flag="0"/>
      <psa03 value="0.1128916075" flag="0"/>
      <psa10 value="0.0088027447" flag="0"/>
      <psa30 value="0.0031193051" flag="0"/>
    </comp>
    <comp name="--.HNN">
      <acc value="0.1774911642" flag="0"/>
      <vel value="0.0239211162" flag="0"/>
      <psa03 value="0.0630047243" flag="0"/>
      <psa10 value="0.0073262295" flag="0"/>
      <psa30 value="0.0025259304" flag="0"/>
    </comp>
    <comp name="--.HNZ">
      <acc value="0.0899068902" flag="0"/>
      <vel value="0.0140465254" flag="0"/>
      <psa03 value="0.0571874930" flag="0"/>
      <psa10 value="0.0051505995" flag="0"/>
      <psa30 value="0.0019073237" flag="0"/>
    </comp>
  </station>
  <station code="SENI" name="SENI" netid="IV" insttype="" lat="43.7052" lon="13.2331">
    <comp name="--.HNE">
      <acc value="0.3464130140" flag="0"/>
      <vel value="0.0805592179" flag="0"/>
      <psa03 value="0.5013611002" flag="0"/>
      <psa10 value="0.0339183098" flag="0"/>
      <psa30 value="0.0062582855" flag="0"/>
    </comp>
    <comp name="--.HNZ">
      <acc value="0.1172720239" flag="0"/>
      <vel value="0.0244644572" flag="0"/>
      <psa03 value="0.0911371770" flag="0"/>
      <psa10 value="0.0225792321" flag="0"/>
      <psa30 value="0.0049920199" flag="0"/>
    </comp>
    <comp name="--.HNN">
      <acc value="0.2557579467" flag="0"/>
      <vel value="0.0784974358" flag="0"/>
      <psa03 value="0.4580247011" flag="0"/>
      <psa10 value="0.0354816091" flag="0"/>
      <psa30 value="0.0092473934" flag="0"/>
    </comp>
  </station>
  <station code="SNTG" name="SNTG" netid="IV" insttype="" lat="43.255" lon="12.9406">
    <comp name="--.HNN">
      <acc value="0.0096647256" flag="0"/>
      <vel value="0.0042911416" flag="0"/>
      <psa03 value="0.0287987716" flag="0"/>
      <psa10 value="0.0024745677" flag="0"/>
      <psa30 value="0.0018087337" flag="0"/>
    </comp>
    <comp name="--.HNZ">
      <acc value="0.0071686583" flag="0"/>
      <vel value="0.0032759689" flag="0"/>
      <psa03 value="0.0204703939" flag="0"/>
      <psa10 value="0.0036260146" flag="0"/>
      <psa30 value="0.0008863291" flag="0"/>
    </comp>
    <comp name="--.HNE">
      <acc value="0.0097824702" flag="0"/>
      <vel value="0.0044257941" flag="0"/>
      <psa03 value="0.0164924933" flag="0"/>
      <psa10 value="0.0029977466" flag="0"/>
      <psa30 value="0.0013353637" flag="0"/>
    </comp>
  </station>
</stationlist>
