<?xml version="1.0" encoding="UTF-8" standalone="yes"?>
<!DOCTYPE earthquake SYSTEM "stationlist.dtd">
<stationlist created="" xmlns="ch.ethz.sed.shakemap.usgs.xml">
  <station code="KTHA" name="KTHA" netid="GE" insttype="STS-2/N" lat="36.2566" lon="23.0621">
    <comp name="--.HHN">
      <acc value="0.6752728646" flag="0"/>
      <vel value="0.1226634651" flag="0"/>
      <psa03 value="0.5409216817" flag="0"/>
      <psa10 value="0.0355876844" flag="0"/>
      <psa30 value="0.0024140879" flag="0"/>
    </comp>
    <comp name="--.HHZ">
      <acc value="0.5024249780" flag="0"/>
      <vel value="0.0894017566" flag="0"/>
      <psa03 value="0.2595756188" flag="0"/>
      <psa10 value="0.0202327399" flag="0"/>
      <psa30 value="0.0015577083" flag="0"/>
    </comp>
    <comp name="--.HHE">
      <acc value="0.7983116198" flag="0"/>
      <vel value="0.2004467624" flag="0"/>
      <psa03 value="0.9009497999" flag="0"/>
      <psa10 value="0.0820092789" flag="0"/>
      <psa30 value="0.0059874977" flag="0"/>
    </comp>
  </station>
  <station code="ABEA" name="ABEA" netid="HC" insttype="DC" lat="35.5163" lon="24.0113">
    <comp name="--.HNN">
      <acc value="0.0437797394" flag="0"/>
      <vel value="0.0159622688" flag="0"/>
      <psa03 value="0.0560254864" flag="0"/>
      <psa10 value="0.0127391533" flag="0"/>
      <psa30 value="0.0011999191" flag="0"/>
    </comp>
    <comp name="--.HNZ">
      <acc value="0.0272195613" flag="0"/>
      <vel value="0.0070509167" flag="0"/>
      <psa03 value="0.0298392245" flag="0"/>
      <psa10 value="0.0075047140" flag="0"/>
      <psa30 value="0.0006778024" flag="0"/>
    </comp>
    <comp name="--.HNE">
      <acc value="0.0472457773" flag="0"/>
      <vel value="0.0148979343" flag="0"/>
      <psa03 value="0.0747614659" flag="0"/>
      <psa10 value="0.0167965680" flag="0"/>
      <psa30 value="0.0015474695" flag="0"/>
    </comp>
  </station>
  <station code="KNDR" name="KNDR" netid="HC" insttype="120" lat="35.2348" lon="23.6248">
    <comp name="--.HHZ">
      <acc value="0.0179734669" flag="0"/>
      <vel value="0.0063450392" flag="0"/>
      <psa03 value="0.0330778128" flag="0"/>
      <psa10 value="0.0057510444" flag="0"/>
      <psa30 value="0.0001964032" flag="0"/>
    </comp>
    <comp name="--.HHN">
      <acc value="0.0273872340" flag="0"/>
      <vel value="0.0093237764" flag="0"/>
      <psa03 value="0.0627980562" flag="0"/>
      <psa10 value="0.0059038371" flag="0"/>
      <psa30 value="0.0002717070" flag="0"/>
    </comp>
    <comp name="--.HHE">
      <acc value="0.0208717215" flag="0"/>
      <vel value="0.0094981455" flag="0"/>
      <psa03 value="0.0941645805" flag="0"/>
      <psa10 value="0.0155951356" flag="0"/>
      <psa30 value="0.0005917866" flag="0"/>
    </comp>
  </station>
  <station code="KTHR" name="KTHR" netid="HC" insttype="60" lat="36.2447" lon="22.9939">
    <comp name="--.HHN">
      <acc value="1.8511044517" flag="0"/>
      <vel value="0.3866795437" flag="0"/>
      <psa03 value="2.1658886606" flag="0"/>
      <psa10 value="0.1083031429" flag="0"/>
      <psa30 value="0.0083971260" flag="0"/>
    </comp>
    <comp name="--.HHE">
      <acc value="12.3706811920" flag="0"/>
      <vel value="0.7139486513" flag="0"/>
      <psa03 value="2.4834905035" flag="0"/>
      <psa10 value="0.1563472225" flag="0"/>
      <psa30 value="0.0183892584" flag="0"/>
    </comp>
    <comp name="--.HHZ">
      <acc value="1.6159606097" flag="0"/>
      <vel value="0.4141151062" flag="0"/>
      <psa03 value="1.1977677194" flag="0"/>
      <psa10 value="0.0687851537" flag="0"/>
      <psa30 value="0.0080349672" flag="0"/>
    </comp>
  </station>
  <station code="RODP" name="RODP" netid="HC" insttype="120" lat="35.5604" lon="23.7577">
    <comp name="--.HHE">
      <acc value="0.0406699113" flag="0"/>
      <vel value="0.0179168693" flag="0"/>
      <psa03 value="0.1230253996" flag="0"/>
      <psa10 value="0.0106923050" flag="0"/>
      <psa30 value="0.0005975010" flag="0"/>
    </comp>
    <comp name="--.HHN">
      <acc value="0.0234808846" flag="0"/>
      <vel value="0.0097876653" flag="0"/>
      <psa03 value="0.0709852949" flag="0"/>
      <psa10 value="0.0059556762" flag="0"/>
      <psa30 value="0.0004921070" flag="0"/>
    </comp>
    <comp name="--.HHZ">
      <acc value="0.0174097158" flag="0"/>
      <vel value="0.0085417969" flag="0"/>
      <psa03 value="0.0451958081" flag="0"/>
      <psa10 value="0.0049785976" flag="0"/>
      <psa30 value="0.0003910043" flag="0"/>
    </comp>
  </station>
  <station code="STPG" name="STPG" netid="HC" insttype="60" lat="36.9347" lon="22.1902">
    <comp name="--.HHE">
      <acc value="0.0261470249" flag="0"/>
      <vel value="0.0125782796" flag="0"/>
      <psa03 value="0.0866859757" flag="0"/>
      <psa10 value="0.0082873966" flag="0"/>
      <psa30 value="0.0004463148" flag="0"/>
    </comp>
    <comp name="--.HHN">
      <acc value="0.0202719613" flag="0"/>
      <vel value="0.0105698825" flag="0"/>
      <psa03 value="0.0874774095" flag="0"/>
      <psa10 value="0.0050143104" flag="0"/>
      <psa30 value="0.0005454390" flag="0"/>
    </comp>
    <comp name="--.HHZ">
      <acc value="0.0103283305" flag="0"/>
      <vel value="0.0047493923" flag="0"/>
      <psa03 value="0.0286164973" flag="0"/>
      <psa10 value="0.0019233265" flag="0"/>
      <psa30 value="0.0002086653" flag="0"/>
    </comp>
  </station>
  <station code="NPS1" name="NPS1" netid="HI" insttype="CMG-5TD,ACCELEROMETER,GURALP" lat="36.5126" lon="23.0625">
    <comp name="--.HNE">
      <acc value="0.0963332783" flag="0"/>
      <vel value="0.0578525338" flag="0"/>
      <psa03 value="0.3130428476" flag="0"/>
      <psa10 value="0.0227591508" flag="0"/>
      <psa30 value="0.0019193002" flag="0"/>
    </comp>
    <comp name="--.HNN">
      <acc value="0.0859147884" flag="0"/>
      <vel value="0.0317186001" flag="0"/>
      <psa03 value="0.2521054111" flag="0"/>
      <psa10 value="0.0171367750" flag="0"/>
      <psa30 value="0.0012822244" flag="0"/>
    </comp>
    <comp name="--.HNZ">
      <acc value="0.1614673498" flag="0"/>
      <vel value="0.0255289663" flag="0"/>
      <psa03 value="0.0908615256" flag="0"/>
      <psa10 value="0.0115034803" flag="0"/>
      <psa30 value="0.0006903376" flag="0"/>
    </comp>
  </station>
  <station code="ANKY" name="ANKY" netid="HL" insttype="60" lat="35.867" lon="23.3012">
    <comp name="--.HHZ">
      <acc value="0.1357342106" flag="0"/>
      <vel value="0.0243487787" flag="0"/>
      <psa03 value="0.1224570509" flag="0"/>
      <psa10 value="0.0072026562" flag="0"/>
      <psa30 value="0.0005856409" flag="0"/>
    </comp>
    <comp name="--.HHE">
      <acc value="0.0802097275" flag="0"/>
      <vel value="0.0258560371" flag="0"/>
      <psa03 value="0.1901745128" flag="0"/>
      <psa10 value="0.0110829064" flag="0"/>
      <psa30 value="0.0007462513" flag="0"/>
    </comp>
    <comp name="--.HHN">
      <acc value="0.0578593814" flag="0"/>
      <vel value="0.0255606880" flag="0"/>
      <psa03 value="0.1026230227" flag="0"/>
      <psa10 value="0.0157270507" flag="0"/>
      <psa30 value="0.0007626098" flag="0"/>
    </comp>
  </station>
  <station code="KTHA" name="KTHA" netid="HL" insttype="120" lat="36.2566" lon="23.0621">
    <comp name="--.HHE">
      <acc value="0.7466183033" flag="0"/>
      <vel value="0.1947043143" flag="0"/>
      <psa03 value="0.8812057385" flag="0"/>
      <psa10 value="0.0812699404" flag="0"/>
      <psa30 value="0.0059057350" flag="0"/>
    </comp>
    <comp name="--.HHN">
      <acc value="0.5186270315" flag="0"/>
      <vel value="0.1186094555" flag="0"/>
      <psa03 value="0.5288665881" flag="0"/>
      <psa10 value="0.0349889570" flag="0"/>
      <psa30 value="0.0023308337" flag="0"/>
    </comp>
    <comp name="--.HHZ">
      <acc value="0.4610687820" flag="0"/>
      <vel value="0.0861994490" flag="0"/>
      <psa03 value="0.2515550082" flag="0"/>
      <psa10 value="0.0199806898" flag="0"/>
      <psa30 value="0.0015113498" flag="0"/>
    </comp>
  </station>
  <station code="MNVA" name="MNVA" netid="HL" insttype="CMG-5" lat="36.6871" lon="23.0373">
    <comp name="00.HNE">
      <acc value="0.0162389368" flag="0"/>
      <vel value="0.0086826869" flag="0"/>
      <psa03 value="0.0394843435" flag="0"/>
      <psa10 value="0.0040610930" flag="0"/>
      <psa30 value="0.0004122852" flag="0"/>
    </comp>
    <comp name="00.HNZ">
      <acc value="0.0214130777" flag="0"/>
      <vel value="0.0094231269" flag="0"/>
      <psa03 value="0.0496943677" flag="0"/>
      <psa10 value="0.0052308830" flag="0"/>
      <psa30 value="0.0003823870" flag="0"/>
    </comp>
    <comp name="00.HNN">
      <acc value="0.0245704362" flag="0"/>
      <vel value="0.0051534328" flag="0"/>
      <psa03 value="0.0214965806" flag="0"/>
      <psa10 value="0.0027980520" flag="0"/>
      <psa30 value="0.0003116848" flag="0"/>
    </comp>
  </station>
  <station code="VLI" name="VLI" netid="HL" insttype="60" lat="36.718" lon="22.9469">
    <comp name="--.HHZ">
      <acc value="0.0461298564" flag="0"/>
      <vel value="0.0107430971" flag="0"/>
      <psa03 value="0.0543935479" flag="0"/>
      <psa10 value="0.0052493778" flag="0"/>
      <psa30 value="0.0003685294" flag="0"/>
    </comp>
    <comp name="--.HHN">
      <acc value="0.0358103434" flag="0"/>
      <vel value="0.0108811153" flag="0"/>
      <psa03 value="0.0803794390" flag="0"/>
      <psa10 value="0.0066376548" flag="0"/>
      <psa30 value="0.0006466782" flag="0"/>
    </comp>
    <comp name="--.HHE">
      <acc value="0.0478418390" flag="0"/>
      <vel value="0.0153565593" flag="0"/>
      <psa03 value="0.0938902338" flag="0"/>
      <psa10 value="0.0081694653" flag="0"/>
      <psa30 value="0.0004893532" flag="0"/>
    </comp>
  </station>
</stationlist>
