<?xml version="1.0" encoding="UTF-8" standalone="yes"?>
<!DOCTYPE earthquake SYSTEM "stationlist.dtd">
<stationlist created="" xmlns="ch.ethz.sed.shakemap.usgs.xml">
  <station code="BNN" name="BNN" netid="KO" insttype="CMG-3T" lat="38.8521" lon="35.8472">
    <comp name="--.HHE">
      <acc value="0.0104201878" flag="0"/>
      <vel value="0.0073901751" flag="0"/>
      <psa03 value="0.0210963148" flag="0"/>
      <psa10 value="0.0150438080" flag="0"/>
      <psa30 value="0.0006486595" flag="0"/>
    </comp>
  </station>
  <station code="DARE" name="DARE" netid="KO" insttype="CMG-3ESP" lat="38.5712" lon="37.4832">
    <comp name="--.HHE">
      <acc value="0.0122889207" flag="0"/>
      <vel value="0.0072632635" flag="0"/>
      <psa03 value="0.0309332857" flag="0"/>
      <psa10 value="0.0100400764" flag="0"/>
      <psa30 value="0.0006115761" flag="0"/>
    </comp>
    <comp name="--.HHZ">
      <acc value="0.0125996807" flag="0"/>
      <vel value="0.0062056010" flag="0"/>
      <psa03 value="0.0225669151" flag="0"/>
      <psa10 value="0.0077278089" flag="0"/>
      <psa30 value="0.0007445795" flag="0"/>
    </comp>
    <comp name="--.HHN">
      <acc value="0.0112193544" flag="0"/>
      <vel value="0.0087907514" flag="0"/>
      <psa03 value="0.0298393714" flag="0"/>
      <psa10 value="0.0099394703" flag="0"/>
      <psa30 value="0.0004954415" flag="0"/>
    </comp>
  </station>
  <station code="GAZ" name="GAZ" netid="KO" insttype="CMG-3T" lat="37.1721" lon="37.2096">
    <comp name="--.HHZ">
      <acc value="0.0174604520" flag="0"/>
      <vel value="0.0058910410" flag="0"/>
      <psa03 value="0.0450479106" flag="0"/>
      <psa10 value="0.0044171963" flag="0"/>
      <psa30 value="0.0004650900" flag="0"/>
    </comp>
    <comp name="--.HHN">
      <acc value="0.0220219518" flag="0"/>
      <vel value="0.0081949148" flag="0"/>
      <psa03 value="0.0634373311" flag="0"/>
      <psa10 value="0.0122609376" flag="0"/>
      <psa30 value="0.0009699261" flag="0"/>
    </comp>
    <comp name="--.HHE">
      <acc value="0.0177167096" flag="0"/>
      <vel value="0.0103267000" flag="0"/>
      <psa03 value="0.0622754233" flag="0"/>
      <psa10 value="0.0085943107" flag="0"/>
      <psa30 value="0.0008013587" flag="0"/>
    </comp>
  </station>
  <station code="KMRS" name="KMRS" netid="KO" insttype="CMG-3T" lat="37.5053" lon="36.9">
    <comp name="--.HHN">
      <acc value="0.0539239243" flag="0"/>
      <vel value="0.0219609440" flag="0"/>
      <psa03 value="0.1182459176" flag="0"/>
      <psa10 value="0.0143167423" flag="0"/>
      <psa30 value="0.0015391491" flag="0"/>
    </comp>
    <comp name="--.HHE">
      <acc value="0.0360882793" flag="0"/>
      <vel value="0.0231026841" flag="0"/>
      <psa03 value="0.1312978413" flag="0"/>
      <psa10 value="0.0174960949" flag="0"/>
      <psa30 value="0.0011906482" flag="0"/>
    </comp>
    <comp name="--.HHZ">
      <acc value="0.0198136645" flag="0"/>
      <vel value="0.0085458103" flag="0"/>
      <psa03 value="0.0754480858" flag="0"/>
      <psa10 value="0.0059729697" flag="0"/>
      <psa30 value="0.0009622288" flag="0"/>
    </comp>
  </station>
  <station code="SARI" name="SARI" netid="KO" insttype="CMG-3T" lat="38.4072" lon="36.4181">
    <comp name="--.HHE">
      <acc value="0.2419467827" flag="0"/>
      <vel value="0.0440947146" flag="0"/>
      <psa03 value="0.2345678867" flag="0"/>
      <psa10 value="0.0244815477" flag="0"/>
      <psa30 value="0.0024380176" flag="0"/>
    </comp>
    <comp name="--.HHZ">
      <acc value="0.1178256063" flag="0"/>
      <vel value="0.0397713668" flag="0"/>
      <psa03 value="0.1836429287" flag="0"/>
      <psa10 value="0.0395518714" flag="0"/>
      <psa30 value="0.0017940299" flag="0"/>
    </comp>
  </station>
  <station code="ANDN" name="ANDN" netid="TU" insttype="T" lat="37.58" lon="36.3452">
    <comp name="--.HHE">
      <acc value="0.1561732116" flag="0"/>
      <vel value="0.0749061948" flag="0"/>
      <psa03 value="0.4056799802" flag="0"/>
      <psa10 value="0.0479230206" flag="0"/>
      <psa30 value="0.0031554190" flag="0"/>
    </comp>
    <comp name="--.HHZ">
      <acc value="0.0730033949" flag="0"/>
      <vel value="0.0375281474" flag="0"/>
      <psa03 value="0.1570328375" flag="0"/>
      <psa10 value="0.0558978086" flag="0"/>
      <psa30 value="0.0034199411" flag="0"/>
    </comp>
    <comp name="--.HHN">
      <acc value="0.1775654735" flag="0"/>
      <vel value="0.0786079309" flag="0"/>
      <psa03 value="0.5334426765" flag="0"/>
      <psa10 value="0.0457582844" flag="0"/>
      <psa30 value="0.0025246295" flag="0"/>
    </comp>
  </station>
</stationlist>
