<?xml version="1.0" encoding="UTF-8" standalone="yes"?>
<!DOCTYPE earthquake SYSTEM "stationlist.dtd">
<stationlist created="" xmlns="ch.ethz.sed.shakemap.usgs.xml">
  <station code="AKDM" name="AKDM" netid="KO" insttype="30s," lat="38.3285" lon="42.98">
    <comp name="--.HHZ">
      <acc value="0.0036120390" flag="0"/>
      <vel value="0.0016682811" flag="0"/>
      <psa03 value="0.0066848206" flag="0"/>
      <psa10 value="0.0023991532" flag="0"/>
      <psa30 value="0.0006770038" flag="0"/>
    </comp>
    <comp name="--.HHN">
      <acc value="0.0048137352" flag="0"/>
      <vel value="0.0037771486" flag="0"/>
      <psa03 value="0.0116946797" flag="0"/>
      <psa10 value="0.0058895230" flag="0"/>
      <psa30 value="0.0006259034" flag="0"/>
    </comp>
    <comp name="--.HHE">
      <acc value="0.0042626712" flag="0"/>
      <vel value="0.0030692174" flag="0"/>
      <psa03 value="0.0095824915" flag="0"/>
      <psa10 value="0.0056625556" flag="0"/>
      <psa30 value="0.0006206130" flag="0"/>
    </comp>
  </station>
  <station code="VANB" name="VANB" netid="KO" insttype="360s," lat="38.509" lon="43.4058">
    <comp name="--.HHE">
      <acc value="0.0098075986" flag="0"/>
      <vel value="0.0096600672" flag="0"/>
      <psa03 value="0.0297755650" flag="0"/>
      <psa10 value="0.0176943389" flag="0"/>
      <psa30 value="0.0019379938" flag="0"/>
    </comp>
    <comp name="--.HHZ">
      <acc value="0.0051500238" flag="0"/>
      <vel value="0.0064646030" flag="0"/>
      <psa03 value="0.0130473839" flag="0"/>
      <psa10 value="0.0105825752" flag="0"/>
      <psa30 value="0.0021718774" flag="0"/>
    </comp>
    <comp name="--.HHN">
      <acc value="0.0076200046" flag="0"/>
      <vel value="0.0077997673" flag="0"/>
      <psa03 value="0.0155335599" flag="0"/>
      <psa10 value="0.0167947956" flag="0"/>
      <psa30 value="0.0020637648" flag="0"/>
    </comp>
  </station>
</stationlist>
