<?xml version="1.0" encoding="UTF-8" standalone="yes"?>
<!DOCTYPE earthquake SYSTEM "stationlist.dtd">
<stationlist created="" xmlns="ch.ethz.sed.shakemap.usgs.xml">
  <station code="APE" name="APE" netid="GE" insttype="STS-2/N" lat="37.0727" lon="25.523">
    <comp name="--.HHN">
      <acc value="0.3166291665" flag="0"/>
      <vel value="0.0797863712" flag="0"/>
      <psa03 value="0.2273441407" flag="0"/>
      <psa10 value="0.0297477167" flag="0"/>
      <psa30 value="0.0047888528" flag="0"/>
    </comp>
    <comp name="--.HHZ">
      <acc value="0.1066662591" flag="0"/>
      <vel value="0.0262840934" flag="0"/>
      <psa03 value="0.0702524953" flag="0"/>
      <psa10 value="0.0288281662" flag="0"/>
      <psa30 value="0.0054655044" flag="0"/>
    </comp>
    <comp name="--.HHE">
      <acc value="0.3265163997" flag="0"/>
      <vel value="0.0682379778" flag="0"/>
      <psa03 value="0.2044304524" flag="0"/>
      <psa10 value="0.0250576725" flag="0"/>
      <psa30 value="0.0047249586" flag="0"/>
    </comp>
  </station>
  <station code="AMGA" name="AMGA" netid="HL" insttype="SMART24" lat="36.8316" lon="25.8938">
    <comp name="--.HHE">
      <acc value="2.5849105517" flag="0"/>
      <vel value="0.5928269101" flag="0"/>
      <psa03 value="0.9728777963" flag="0"/>
      <psa10 value="0.0844823471" flag="0"/>
      <psa30 value="0.0075345828" flag="0"/>
    </comp>
    <comp name="--.HHN">
      <acc value="2.6241604705" flag="0"/>
      <vel value="0.6641947583" flag="0"/>
      <psa03 value="2.0812283360" flag="0"/>
      <psa10 value="0.1051631789" flag="0"/>
      <psa30 value="0.0089291930" flag="0"/>
    </comp>
    <comp name="--.HHZ">
      <acc value="2.1361284445" flag="0"/>
      <vel value="0.5078377796" flag="0"/>
      <psa03 value="1.8876459286" flag="0"/>
      <psa10 value="0.0990400743" flag="0"/>
      <psa30 value="0.0110312393" flag="0"/>
    </comp>
  </station>
  <station code="APE" name="APE" netid="HL" insttype="120" lat="37.0727" lon="25.523">
    <comp name="--.HHE">
      <acc value="0.3002458323" flag="0"/>
      <vel value="0.0661669087" flag="0"/>
      <psa03 value="0.1983414191" flag="0"/>
      <psa10 value="0.0249172710" flag="0"/>
      <psa30 value="0.0047167444" flag="0"/>
    </comp>
    <comp name="--.HHZ">
      <acc value="0.1030727294" flag="0"/>
      <vel value="0.0254719293" flag="0"/>
      <psa03 value="0.0679130142" flag="0"/>
      <psa10 value="0.0286705068" flag="0"/>
      <psa30 value="0.0054507472" flag="0"/>
    </comp>
    <comp name="--.HHN">
      <acc value="0.2955385789" flag="0"/>
      <vel value="0.0751558282" flag="0"/>
      <psa03 value="0.2207556557" flag="0"/>
      <psa10 value="0.0291998499" flag="0"/>
      <psa30 value="0.0047731338" flag="0"/>
    </comp>
  </station>
  <station code="THERA" name="THERA" netid="HL" insttype="120" lat="36.367" lon="25.4753">
    <comp name="--.HHE">
      <acc value="0.1514484867" flag="0"/>
      <vel value="0.0300029107" flag="0"/>
      <psa03 value="0.1527157892" flag="0"/>
      <psa10 value="0.0185463253" flag="0"/>
      <psa30 value="0.0029840365" flag="0"/>
    </comp>
    <comp name="--.HHN">
      <acc value="0.0878090943" flag="0"/>
      <vel value="0.0217242229" flag="0"/>
      <psa03 value="0.1370870931" flag="0"/>
      <psa10 value="0.0143462209" flag="0"/>
      <psa30 value="0.0013395481" flag="0"/>
    </comp>
    <comp name="--.HHZ">
      <acc value="0.1076260089" flag="0"/>
      <vel value="0.0225767045" flag="0"/>
      <psa03 value="0.1091718036" flag="0"/>
      <psa10 value="0.0124619187" flag="0"/>
      <psa30 value="0.0020808550" flag="0"/>
    </comp>
  </station>
</stationlist>
