<?xml version="1.0" encoding="UTF-8" standalone="yes"?>
<!DOCTYPE earthquake SYSTEM "stationlist.dtd">
<stationlist created="" xmlns="ch.ethz.sed.shakemap.usgs.xml">
  <station code="APE" name="APE" netid="GE" insttype="STS-2/N" lat="37.0727" lon="25.523">
    <comp name="--.HHN">
      <acc value="0.3166291665" flag="0"/>
      <vel value="0.0797863712" flag="0"/>
      <psa03 value="0.2273441407" flag="0"/>
      <psa10 value="0.0297477167" flag="0"/>
      <psa30 value="0.0047888528" flag="0"/>
    </comp>
    <comp name="--.HHZ">
      <acc value="0.1066662591" flag="0"/>
      <vel value="0.0262840934" flag="0"/>
      <psa03 value="0.0702524953" flag="0"/>
      <psa10 value="0.0288281662" flag="0"/>
      <psa30 value="0.0054655044" flag="0"/>
    </comp>
    <comp name="--.HHE">
      <acc value="0.3265163997" flag="0"/>
      <vel value="0.0682379778" flag="0"/>
      <psa03 value="0.2044304524" flag="0"/>
      <psa10 value="0.0250576725" flag="0"/>
      <psa30 value="0.0047249586" flag="0"/>
    </comp>
  </station>
</stationlist>
