<?xml version="1.0" encoding="UTF-8" standalone="yes"?>
<!DOCTYPE earthquake SYSTEM "stationlist.dtd">
<stationlist created="" xmlns="ch.ethz.sed.shakemap.usgs.xml">
  <station code="ARPRA" name="ARPRA" netid="KO" insttype="CMG-5T" lat="39.0929" lon="38.3356">
    <comp name="--.HNZ">
      <acc value="0.0257918766" flag="0"/>
      <vel value="0.0136818840" flag="0"/>
      <psa03 value="0.0304752071" flag="0"/>
      <psa10 value="0.0129264865" flag="0"/>
      <psa30 value="0.0008308133" flag="0"/>
    </comp>
    <comp name="--.HNN">
      <acc value="0.0281230232" flag="0"/>
      <vel value="0.0139720962" flag="0"/>
      <psa03 value="0.0662047011" flag="0"/>
      <psa10 value="0.0130835001" flag="0"/>
      <psa30 value="0.0009090893" flag="0"/>
    </comp>
    <comp name="--.HNE">
      <acc value="0.0379305968" flag="0"/>
      <vel value="0.0239414690" flag="0"/>
      <psa03 value="0.0762024081" flag="0"/>
      <psa10 value="0.0163700986" flag="0"/>
      <psa30 value="0.0020649952" flag="0"/>
    </comp>
  </station>
</stationlist>
