<?xml version="1.0" encoding="UTF-8" standalone="yes"?>
<!DOCTYPE earthquake SYSTEM "stationlist.dtd">
<stationlist created="" xmlns="ch.ethz.sed.shakemap.usgs.xml">
  <station code="CEYT" name="CEYT" netid="KO" insttype="CMG-3ESP" lat="37.0105" lon="35.7478">
    <comp name="--.HHN">
      <acc value="0.0072995068" flag="0"/>
      <vel value="0.0047690428" flag="0"/>
      <psa03 value="0.0178912379" flag="0"/>
      <psa10 value="0.0039184791" flag="0"/>
      <psa30 value="0.0003350934" flag="0"/>
    </comp>
    <comp name="--.HHE">
      <acc value="0.0075111750" flag="0"/>
      <vel value="0.0029182553" flag="0"/>
      <psa03 value="0.0179196916" flag="0"/>
      <psa10 value="0.0045970696" flag="0"/>
      <psa30 value="0.0002119638" flag="0"/>
    </comp>
    <comp name="--.HHZ">
      <acc value="0.0055570625" flag="0"/>
      <vel value="0.0019249281" flag="0"/>
      <psa03 value="0.0095381501" flag="0"/>
      <psa10 value="0.0015673327" flag="0"/>
      <psa30 value="0.0001875728" flag="0"/>
    </comp>
  </station>
</stationlist>
