<?xml version="1.0" encoding="UTF-8" standalone="yes"?>
<!DOCTYPE earthquake SYSTEM "stationlist.dtd">
<stationlist created="" xmlns="ch.ethz.sed.shakemap.usgs.xml">
  <station code="AGRP" name="AGRP" netid="CL" source="RESIF" insttype="30" lat="38.3959" lon="21.7228">
    <comp name="00.HHE">
      <acc value="0.0425020541" flag="0"/>
      <vel value="0.0319682407" flag="0"/>
      <psa03 value="0.0796833960" flag="0"/>
      <psa10 value="0.0281066793" flag="0"/>
      <psa30 value="0.0082325417" flag="0"/>
    </comp>
    <comp name="00.HHN">
      <acc value="0.0373803096" flag="0"/>
      <vel value="0.0340625094" flag="0"/>
      <psa03 value="0.0769101529" flag="0"/>
      <psa10 value="0.0653961963" flag="0"/>
      <psa30 value="0.0061602266" flag="0"/>
    </comp>
    <comp name="00.HHZ">
      <acc value="0.0215596756" flag="0"/>
      <vel value="0.0180802474" flag="0"/>
      <psa03 value="0.0681851058" flag="0"/>
      <psa10 value="0.0294005838" flag="0"/>
      <psa30 value="0.0066468828" flag="0"/>
    </comp>
  </station>
  <station code="MALA" name="MALA" netid="CL" source="RESIF" insttype="30" lat="38.3935" lon="21.8726">
    <comp name="00.HH2">
      <acc value="0.0201846070" flag="0"/>
      <vel value="0.0243816326" flag="0"/>
      <psa03 value="0.0604438863" flag="0"/>
      <psa10 value="0.0303947316" flag="0"/>
      <psa30 value="0.0121708477" flag="0"/>
    </comp>
    <comp name="00.HH3">
      <acc value="0.0213225927" flag="0"/>
      <vel value="0.0281734057" flag="0"/>
      <psa03 value="0.0456991995" flag="0"/>
      <psa10 value="0.0405037332" flag="0"/>
      <psa30 value="0.0192217152" flag="0"/>
    </comp>
    <comp name="00.HHZ">
      <acc value="0.0147293608" flag="0"/>
      <vel value="0.0195858646" flag="0"/>
      <psa03 value="0.0325344786" flag="0"/>
      <psa10 value="0.0456175078" flag="0"/>
      <psa30 value="0.0051193891" flag="0"/>
    </comp>
  </station>
  <station code="MG00" name="MG00" netid="CL" source="RESIF" insttype="40" lat="38.4145" lon="21.9467">
    <comp name="00.HHE">
      <acc value="0.0501595630" flag="0"/>
      <vel value="0.0367031389" flag="0"/>
      <psa03 value="0.1646560058" flag="0"/>
      <psa10 value="0.0568465832" flag="0"/>
      <psa30 value="0.0083926700" flag="0"/>
    </comp>
    <comp name="00.HHN">
      <acc value="0.0690899392" flag="0"/>
      <vel value="0.0488981541" flag="0"/>
      <psa03 value="0.1864257976" flag="0"/>
      <psa10 value="0.0689658507" flag="0"/>
      <psa30 value="0.0082378825" flag="0"/>
    </comp>
    <comp name="00.HHZ">
      <acc value="0.0336660081" flag="0"/>
      <vel value="0.0149853545" flag="0"/>
      <psa03 value="0.0693776281" flag="0"/>
      <psa10 value="0.0311634298" flag="0"/>
      <psa30 value="0.0027653962" flag="0"/>
    </comp>
  </station>
  <station code="MG02" name="MG02" netid="CL" source="RESIF" insttype="40" lat="38.415" lon="21.947">
    <comp name="02.HHE">
      <acc value="0.0568449820" flag="0"/>
      <vel value="0.0475809025" flag="0"/>
      <psa03 value="0.1394297391" flag="0"/>
      <psa10 value="0.0642607198" flag="0"/>
      <psa30 value="0.0088835128" flag="0"/>
    </comp>
    <comp name="02.HHN">
      <acc value="0.0550475536" flag="0"/>
      <vel value="0.0398108379" flag="0"/>
      <psa03 value="0.1924816915" flag="0"/>
      <psa10 value="0.0803544646" flag="0"/>
      <psa30 value="0.0080006583" flag="0"/>
    </comp>
    <comp name="02.HHZ">
      <acc value="0.0318863215" flag="0"/>
      <vel value="0.0143622083" flag="0"/>
      <psa03 value="0.0728436758" flag="0"/>
      <psa10 value="0.0348171651" flag="0"/>
      <psa30 value="0.0028942310" flag="0"/>
    </comp>
  </station>
  <station code="MG03" name="MG03" netid="CL" source="RESIF" insttype="40" lat="38.4141" lon="21.946">
    <comp name="03.HHE">
      <acc value="0.0378175995" flag="0"/>
      <vel value="0.0316344729" flag="0"/>
      <psa03 value="0.1226894225" flag="0"/>
      <psa10 value="0.0480926455" flag="0"/>
      <psa30 value="0.0090376897" flag="0"/>
    </comp>
    <comp name="03.HHN">
      <acc value="0.0258896804" flag="0"/>
      <vel value="0.0186969687" flag="0"/>
      <psa03 value="0.0720192534" flag="0"/>
      <psa10 value="0.0289982119" flag="0"/>
      <psa30 value="0.0030296468" flag="0"/>
    </comp>
    <comp name="03.HHZ">
      <acc value="0.0248089256" flag="0"/>
      <vel value="0.0106136356" flag="0"/>
      <psa03 value="0.0446647150" flag="0"/>
      <psa10 value="0.0299784775" flag="0"/>
      <psa30 value="0.0028286559" flag="0"/>
    </comp>
  </station>
  <station code="MG04" name="MG04" netid="CL" source="RESIF" insttype="40" lat="38.4142" lon="21.9481">
    <comp name="04.HHE">
      <acc value="0.0508175258" flag="0"/>
      <vel value="0.0327724389" flag="0"/>
      <psa03 value="0.1370305290" flag="0"/>
      <psa10 value="0.0566762986" flag="0"/>
      <psa30 value="0.0096087870" flag="0"/>
    </comp>
    <comp name="04.HHN">
      <acc value="0.0494001451" flag="0"/>
      <vel value="0.0334940715" flag="0"/>
      <psa03 value="0.1244524028" flag="0"/>
      <psa10 value="0.0639647751" flag="0"/>
      <psa30 value="0.0060357427" flag="0"/>
    </comp>
    <comp name="04.HHZ">
      <acc value="0.0318186604" flag="0"/>
      <vel value="0.0121672552" flag="0"/>
      <psa03 value="0.0508093469" flag="0"/>
      <psa10 value="0.0274145414" flag="0"/>
      <psa30 value="0.0028173083" flag="0"/>
    </comp>
  </station>
  <station code="MG05" name="MG05" netid="CL" source="RESIF" insttype="30" lat="38.4155" lon="21.9458">
    <comp name="05.HHE">
      <acc value="0.1042783774" flag="0"/>
      <vel value="0.0736169109" flag="0"/>
      <psa03 value="0.3330454637" flag="0"/>
      <psa10 value="0.1134766745" flag="0"/>
      <psa30 value="0.0113647812" flag="0"/>
    </comp>
    <comp name="05.HHN">
      <acc value="0.0952101739" flag="0"/>
      <vel value="0.0886612151" flag="0"/>
      <psa03 value="0.2757875793" flag="0"/>
      <psa10 value="0.1289919209" flag="0"/>
      <psa30 value="0.0211936236" flag="0"/>
    </comp>
    <comp name="05.HHZ">
      <acc value="0.0577724949" flag="0"/>
      <vel value="0.0355822448" flag="0"/>
      <psa03 value="0.1452315425" flag="0"/>
      <psa10 value="0.0845397960" flag="0"/>
      <psa30 value="0.0059177165" flag="0"/>
    </comp>
  </station>
  <station code="MG06" name="MG06" netid="CL" source="RESIF" insttype="40" lat="38.4129" lon="21.9462">
    <comp name="06.HHE">
      <acc value="0.0265386172" flag="0"/>
      <vel value="0.0222013125" flag="0"/>
      <psa03 value="0.0597071155" flag="0"/>
      <psa10 value="0.0446611761" flag="0"/>
      <psa30 value="0.0058974913" flag="0"/>
    </comp>
    <comp name="06.HHN">
      <acc value="0.0308432099" flag="0"/>
      <vel value="0.0242295913" flag="0"/>
      <psa03 value="0.0572337475" flag="0"/>
      <psa10 value="0.0406894338" flag="0"/>
      <psa30 value="0.0089779271" flag="0"/>
    </comp>
    <comp name="06.HHZ">
      <acc value="0.0146592516" flag="0"/>
      <vel value="0.0093042503" flag="0"/>
      <psa03 value="0.0273623948" flag="0"/>
      <psa10 value="0.0233142653" flag="0"/>
      <psa30 value="0.0026702184" flag="0"/>
    </comp>
  </station>
  <station code="MG07" name="MG07" netid="CL" source="RESIF" insttype="40" lat="38.4155" lon="21.9488">
    <comp name="07.HHE">
      <acc value="0.0650451934" flag="0"/>
      <vel value="0.0550804900" flag="0"/>
      <psa03 value="0.1502153499" flag="0"/>
      <psa10 value="0.0838480598" flag="0"/>
      <psa30 value="0.0087576502" flag="0"/>
    </comp>
    <comp name="07.HHN">
      <acc value="0.0650758682" flag="0"/>
      <vel value="0.0557610976" flag="0"/>
      <psa03 value="0.1352343607" flag="0"/>
      <psa10 value="0.0885598015" flag="0"/>
      <psa30 value="0.0077437230" flag="0"/>
    </comp>
    <comp name="07.HHZ">
      <acc value="0.0261023221" flag="0"/>
      <vel value="0.0170306476" flag="0"/>
      <psa03 value="0.0656675245" flag="0"/>
      <psa10 value="0.0372705533" flag="0"/>
      <psa30 value="0.0031384463" flag="0"/>
    </comp>
  </station>
  <station code="ROD3" name="ROD3" netid="CL" source="RESIF" insttype="30" lat="38.3081" lon="21.892">
    <comp name="00.HHE">
      <acc value="0.0783262321" flag="0"/>
      <vel value="0.0295653886" flag="0"/>
      <psa03 value="0.2073746180" flag="0"/>
      <psa10 value="0.0319918068" flag="0"/>
      <psa30 value="0.0027153306" flag="0"/>
    </comp>
    <comp name="00.HHN">
      <acc value="0.1206831061" flag="0"/>
      <vel value="0.0759614896" flag="0"/>
      <psa03 value="0.2550923205" flag="0"/>
      <psa10 value="0.0706459228" flag="0"/>
      <psa30 value="0.0105306909" flag="0"/>
    </comp>
    <comp name="00.HHZ">
      <acc value="0.0493401325" flag="0"/>
      <vel value="0.0392353216" flag="0"/>
      <psa03 value="0.1058033198" flag="0"/>
      <psa10 value="0.0681319739" flag="0"/>
      <psa30 value="0.0051473945" flag="0"/>
    </comp>
  </station>
  <station code="ARG2" name="ARG2" netid="HI" source="NOA" insttype="CMG-5TD,ACCELEROMETER,GURALP" lat="38.1783" lon="20.4878">
    <comp name="--.HNE">
      <acc value="0.6898597228" flag="0"/>
      <vel value="0.2144065722" flag="0"/>
      <psa03 value="0.9413066039" flag="0"/>
      <psa10 value="0.1091207596" flag="0"/>
      <psa30 value="0.0101266608" flag="0"/>
    </comp>
    <comp name="--.HNN">
      <acc value="0.5887108843" flag="0"/>
      <vel value="0.1877481731" flag="0"/>
      <psa03 value="0.8249392508" flag="0"/>
      <psa10 value="0.1115658524" flag="0"/>
      <psa30 value="0.0077243581" flag="0"/>
    </comp>
    <comp name="--.HNZ">
      <acc value="0.4316383418" flag="0"/>
      <vel value="0.1027883192" flag="0"/>
      <psa03 value="0.9645602927" flag="0"/>
      <psa10 value="0.0615368394" flag="0"/>
      <psa30 value="0.0057516802" flag="0"/>
    </comp>
  </station>
  <station code="KLV1" name="KLV1" netid="HI" source="NOA" insttype="CMG-5TD,ACCELEROMETER,GURALP" lat="38.0326" lon="22.108">
    <comp name="--.HNE">
      <acc value="0.0393691860" flag="0"/>
      <vel value="0.0493552620" flag="0"/>
      <psa03 value="0.0887064793" flag="0"/>
      <psa10 value="0.0809593308" flag="0"/>
      <psa30 value="0.0079197508" flag="0"/>
    </comp>
    <comp name="--.HNN">
      <acc value="0.0357570743" flag="0"/>
      <vel value="0.0383395851" flag="0"/>
      <psa03 value="0.1018271418" flag="0"/>
      <psa10 value="0.0889659719" flag="0"/>
      <psa30 value="0.0053496921" flag="0"/>
    </comp>
    <comp name="--.HNZ">
      <acc value="0.0230264906" flag="0"/>
      <vel value="0.0228759190" flag="0"/>
      <psa03 value="0.0374799938" flag="0"/>
      <psa10 value="0.0468259519" flag="0"/>
      <psa30 value="0.0042532870" flag="0"/>
    </comp>
  </station>
  <station code="KRI1" name="KRI1" netid="HI" source="NOA" insttype="CMG-5TD,ACCELEROMETER,GURALP" lat="37.6621" lon="20.8172">
    <comp name="--.HNE">
      <acc value="4.0347382349" flag="0"/>
      <vel value="1.8832099958" flag="0"/>
      <psa03 value="8.1686142673" flag="0"/>
      <psa10 value="0.9242003627" flag="0"/>
      <psa30 value="0.0785129815" flag="0"/>
    </comp>
    <comp name="--.HNN">
      <acc value="2.8911562884" flag="0"/>
      <vel value="1.3920920336" flag="0"/>
      <psa03 value="5.4833671322" flag="0"/>
      <psa10 value="1.2810700188" flag="0"/>
      <psa30 value="0.0924401524" flag="0"/>
    </comp>
    <comp name="--.HNZ">
      <acc value="1.6190709322" flag="0"/>
      <vel value="0.6372115725" flag="0"/>
      <psa03 value="3.6777023298" flag="0"/>
      <psa10 value="0.3092926514" flag="0"/>
      <psa30 value="0.0325056293" flag="0"/>
    </comp>
  </station>
  <station code="MSL1" name="MSL1" netid="HI" source="NOA" insttype="CMG-5TD,ACCELEROMETER,GURALP" lat="38.3727" lon="21.4243">
    <comp name="--.HNE">
      <acc value="0.1476544273" flag="0"/>
      <vel value="0.1959629541" flag="0"/>
      <psa03 value="0.4070634175" flag="0"/>
      <psa10 value="0.3209532290" flag="0"/>
      <psa30 value="0.0294277313" flag="0"/>
    </comp>
    <comp name="--.HNN">
      <acc value="0.1904751413" flag="0"/>
      <vel value="0.1876337262" flag="0"/>
      <psa03 value="0.5203511383" flag="0"/>
      <psa10 value="0.4303325490" flag="0"/>
      <psa30 value="0.0218651766" flag="0"/>
    </comp>
    <comp name="--.HNZ">
      <acc value="0.0951055240" flag="0"/>
      <vel value="0.1141422753" flag="0"/>
      <psa03 value="0.1701605538" flag="0"/>
      <psa10 value="0.3433421771" flag="0"/>
      <psa30 value="0.0123642294" flag="0"/>
    </comp>
  </station>
  <station code="PYL1" name="PYL1" netid="HI" source="NOA" insttype="CMG-5TD,ACCELEROMETER,GURALP" lat="36.9142" lon="21.6952">
    <comp name="--.HNE">
      <acc value="0.1029748088" flag="0"/>
      <vel value="0.0508238446" flag="0"/>
      <psa03 value="0.3401539935" flag="0"/>
      <psa10 value="0.0266418128" flag="0"/>
      <psa30 value="0.0068505156" flag="0"/>
    </comp>
    <comp name="--.HNN">
      <acc value="0.1356069076" flag="0"/>
      <vel value="0.0419170059" flag="0"/>
      <psa03 value="0.1991000073" flag="0"/>
      <psa10 value="0.0243742707" flag="0"/>
      <psa30 value="0.0073558504" flag="0"/>
    </comp>
    <comp name="--.HNZ">
      <acc value="0.0512213982" flag="0"/>
      <vel value="0.0202996239" flag="0"/>
      <psa03 value="0.0828636929" flag="0"/>
      <psa10 value="0.0210719227" flag="0"/>
      <psa30 value="0.0038121705" flag="0"/>
    </comp>
  </station>
  <station code="ITM" name="ITM" netid="HL" source="NOA" insttype="DR24" lat="37.1787" lon="21.9252">
    <comp name="--.HHE">
      <acc value="0.0632581040" flag="0"/>
      <vel value="0.0344138363" flag="0"/>
      <psa03 value="0.1162421009" flag="0"/>
      <psa10 value="0.0418705450" flag="0"/>
      <psa30 value="0.0052344959" flag="0"/>
    </comp>
    <comp name="--.HHN">
      <acc value="0.0542389138" flag="0"/>
      <vel value="0.0367653568" flag="0"/>
      <psa03 value="0.1560602528" flag="0"/>
      <psa10 value="0.0319253987" flag="0"/>
      <psa30 value="0.0074861279" flag="0"/>
    </comp>
    <comp name="--.HHZ">
      <acc value="0.0498673025" flag="0"/>
      <vel value="0.0330315923" flag="0"/>
      <psa03 value="0.1302302576" flag="0"/>
      <psa10 value="0.0265970704" flag="0"/>
      <psa30 value="0.0056480227" flag="0"/>
    </comp>
  </station>
  <station code="KLV" name="KLV" netid="HL" source="NOA" insttype="120" lat="38.0435" lon="22.1504">
    <comp name="--.HHE">
      <acc value="0.0138925069" flag="0"/>
      <vel value="0.0206079950" flag="0"/>
      <psa03 value="0.0259183674" flag="0"/>
      <psa10 value="0.0373467862" flag="0"/>
      <psa30 value="0.0043336258" flag="0"/>
    </comp>
    <comp name="--.HHN">
      <acc value="0.0138843450" flag="0"/>
      <vel value="0.0130445417" flag="0"/>
      <psa03 value="0.0339531048" flag="0"/>
      <psa10 value="0.0289715206" flag="0"/>
      <psa30 value="0.0034402476" flag="0"/>
    </comp>
    <comp name="--.HHZ">
      <acc value="0.0119272033" flag="0"/>
      <vel value="0.0173029989" flag="0"/>
      <psa03 value="0.0295224987" flag="0"/>
      <psa10 value="0.0261481141" flag="0"/>
      <psa30 value="0.0025029213" flag="0"/>
    </comp>
  </station>
  <station code="LXRA" name="LXRA" netid="HL" source="NOA" insttype="CMG-5" lat="38.2001" lon="20.4372">
    <comp name="00.HNE">
      <acc value="0.8241476523" flag="0"/>
      <vel value="0.2179894595" flag="0"/>
      <psa03 value="0.8216437693" flag="0"/>
      <psa10 value="0.1853580962" flag="0"/>
      <psa30 value="0.0219625458" flag="0"/>
    </comp>
    <comp name="00.HNN">
      <acc value="0.8620312948" flag="0"/>
      <vel value="0.2406914500" flag="0"/>
      <psa03 value="1.3991343231" flag="0"/>
      <psa10 value="0.2069701537" flag="0"/>
      <psa30 value="0.0253497138" flag="0"/>
    </comp>
    <comp name="00.HNZ">
      <acc value="0.5295285947" flag="0"/>
      <vel value="0.1210777573" flag="0"/>
      <psa03 value="0.5881880614" flag="0"/>
      <psa10 value="0.1556582523" flag="0"/>
      <psa30 value="0.0100412707" flag="0"/>
    </comp>
  </station>
  <station code="PATC" name="PATC" netid="HL" source="NOA" insttype="CMG-5" lat="38.2693" lon="21.76">
    <comp name="00.HNE">
      <acc value="0.0925025565" flag="0"/>
      <vel value="0.1288556198" flag="0"/>
      <psa03 value="0.2328088845" flag="0"/>
      <psa10 value="0.1725313111" flag="0"/>
      <psa30 value="0.0260508810" flag="0"/>
    </comp>
    <comp name="00.HNN">
      <acc value="0.0761885555" flag="0"/>
      <vel value="0.1125713452" flag="0"/>
      <psa03 value="0.1690846762" flag="0"/>
      <psa10 value="0.1496285704" flag="0"/>
      <psa30 value="0.0221874991" flag="0"/>
    </comp>
    <comp name="00.HNZ">
      <acc value="0.0744011502" flag="0"/>
      <vel value="0.0464886624" flag="0"/>
      <psa03 value="0.0970660879" flag="0"/>
      <psa10 value="0.0998238760" flag="0"/>
      <psa30 value="0.0064455232" flag="0"/>
    </comp>
  </station>
  <station code="RLS" name="RLS" netid="HL" source="NOA" insttype="120" lat="38.0559" lon="21.4647">
    <comp name="--.HHE">
      <acc value="0.0534540052" flag="0"/>
      <vel value="0.0348735501" flag="0"/>
      <psa03 value="0.1135837396" flag="0"/>
      <psa10 value="0.0512415989" flag="0"/>
      <psa30 value="0.0048576113" flag="0"/>
    </comp>
    <comp name="--.HHN">
      <acc value="0.0599669951" flag="0"/>
      <vel value="0.0287696632" flag="0"/>
      <psa03 value="0.1133420112" flag="0"/>
      <psa10 value="0.0490562399" flag="0"/>
      <psa30 value="0.0046539124" flag="0"/>
    </comp>
    <comp name="--.HHZ">
      <acc value="0.0308567589" flag="0"/>
      <vel value="0.0204059313" flag="0"/>
      <psa03 value="0.0796870896" flag="0"/>
      <psa10 value="0.0266051778" flag="0"/>
      <psa30 value="0.0046172162" flag="0"/>
    </comp>
  </station>
  <station code="VLS" name="VLS" netid="HL" source="NOA" insttype="120P," lat="38.1768" lon="20.5886">
    <comp name="--.HHE">
      <acc value="1.6030108021" flag="0"/>
      <vel value="0.2687539773" flag="0"/>
      <psa03 value="0.6785403511" flag="0"/>
      <psa10 value="0.0511137187" flag="0"/>
      <psa30 value="0.0055978275" flag="0"/>
    </comp>
    <comp name="--.HHN">
      <acc value="0.6836980008" flag="0"/>
      <vel value="0.1177198675" flag="0"/>
      <psa03 value="0.6098843991" flag="0"/>
      <psa10 value="0.0682752209" flag="0"/>
      <psa30 value="0.0032338136" flag="0"/>
    </comp>
    <comp name="--.HHZ">
      <acc value="0.4655053826" flag="0"/>
      <vel value="0.0884884353" flag="0"/>
      <psa03 value="0.4829632710" flag="0"/>
      <psa10 value="0.0396145728" flag="0"/>
      <psa30 value="0.0031338381" flag="0"/>
    </comp>
  </station>
  <station code="AMT" name="AMT" netid="HP" source="NOA" insttype="CMG-3T," lat="37.5324" lon="21.7089">
    <comp name="00.HHE">
      <acc value="0.1095630237" flag="0"/>
      <vel value="0.0836051186" flag="0"/>
      <psa03 value="0.3068323837" flag="0"/>
      <psa10 value="0.1593607650" flag="0"/>
      <psa30 value="0.0093360810" flag="0"/>
    </comp>
    <comp name="00.HHN">
      <acc value="0.0982096656" flag="0"/>
      <vel value="0.0650791022" flag="0"/>
      <psa03 value="0.3156878718" flag="0"/>
      <psa10 value="0.1257702420" flag="0"/>
      <psa30 value="0.0088878268" flag="0"/>
    </comp>
    <comp name="00.HHZ">
      <acc value="0.0871065978" flag="0"/>
      <vel value="0.0461925534" flag="0"/>
      <psa03 value="0.1927600868" flag="0"/>
      <psa10 value="0.0626801488" flag="0"/>
      <psa30 value="0.0043282372" flag="0"/>
    </comp>
  </station>
  <station code="AXS" name="AXS" netid="HP" source="NOA" insttype="40," lat="38.1962" lon="21.3763">
