<stationlist xmlns:esm="https://esm-db.eu/esmws/shakemap/1/" created="1783994204">
	<station code="ROD3" name="ROD3" netid="CL" source="Corinth Riff Laboratory (CRLNET)" insttype="" lat="38.30811" lon="21.89204" esm:processing="manual (Paolucci et al 2011)" esm:quality="good">
		<comp name="00.HNE" depth="0.0">
			<acc value="0.096080761393237" flag="0"/>
			<vel value="0.0668194523831206" flag="0"/>
			<psa03 value="0.217805061817747" flag="0"/>
			<psa10 value="0.107265860990777" flag="0"/>
			<psa30 value="0.00975782784137889" flag="0"/>
		</comp>
		<comp name="00.HNN" depth="0.0">
			<acc value="0.0986394902624282" flag="0"/>
			<vel value="0.0622939110949417" flag="0"/>
			<psa03 value="0.200400343443239" flag="0"/>
			<psa10 value="0.0620247787687116" flag="0"/>
			<psa30 value="0.00963702388350955" flag="0"/>
		</comp>
		<comp name="00.HNZ" depth="0.0">
			<acc value="0.038023606361445" flag="0"/>
			<vel value="0.0317441334858644" flag="0"/>
			<psa03 value="0.0835784419629317" flag="0"/>
			<psa10 value="0.0519376482866222" flag="0"/>
			<psa30 value="0.00433954661990618" flag="0"/>
		</comp>
	</station>
	<station code="ARG2" name="ARG2" netid="HI" source="ITSAK Strong Motion Network" insttype="" lat="38.1783" lon="20.4878" esm:processing="manual (Paolucci et al 2011)" esm:quality="good">
		<comp name="--.HNE" depth="0.0">
			<acc value="0.699736994366638" flag="0"/>
			<vel value="0.220832834378028" flag="0"/>
			<psa03 value="0.919944108448528" flag="0"/>
			<psa10 value="0.109580759187363" flag="0"/>
			<psa30 value="0.0109665714815564" flag="0"/>
		</comp>
		<comp name="--.HNN" depth="0.0">
			<acc value="0.605981590514285" flag="0"/>
			<vel value="0.187109053956373" flag="0"/>
			<psa03 value="0.846165720992511" flag="0"/>
			<psa10 value="0.112363908557495" flag="0"/>
			<psa30 value="0.00814872897998335" flag="0"/>
		</comp>
		<comp name="--.HNZ" depth="0.0">
			<acc value="0.431664458710937" flag="0"/>
			<vel value="0.104525340178021" flag="0"/>
			<psa03 value="0.972789192510126" flag="0"/>
			<psa10 value="0.0620114079514896" flag="0"/>
			<psa30 value="0.00706751318807377" flag="0"/>
		</comp>
	</station>
	<station code="ART2" name="ART2" netid="HI" source="ITSAK Strong Motion Network" insttype="" lat="39.1474" lon="20.9937" esm:processing="manual (Paolucci et al 2011)" esm:quality="best">
		<comp name="--.HNE" depth="0.0">
			<acc value="0.0241135861892503" flag="0"/>
			<vel value="0.0189845139300724" flag="0"/>
			<psa03 value="0.0610731120339409" flag="0"/>
			<psa10 value="0.0276399455605036" flag="0"/>
			<psa30 value="0.0032697604596633" flag="0"/>
		</comp>
		<comp name="--.HNN" depth="0.0">
			<acc value="0.0213673175651337" flag="0"/>
			<vel value="0.0168521361212474" flag="0"/>
			<psa03 value="0.0544512654544367" flag="0"/>
			<psa10 value="0.0219742399364318" flag="0"/>
			<psa30 value="0.00374044847328752" flag="0"/>
		</comp>
		<comp name="--.HNZ" depth="0.0">
			<acc value="0.0137420579049527" flag="0"/>
			<vel value="0.0117350821304334" flag="0"/>
			<psa03 value="0.0304694427070431" flag="0"/>
			<psa10 value="0.0112911432621871" flag="0"/>
			<psa30 value="0.00162369467817708" flag="0"/>
		</comp>
	</station>
	<station code="KLV1" name="KLV1" netid="HI" source="ITSAK Strong Motion Network" insttype="" lat="38.03256" lon="22.10797" esm:processing="manual (Paolucci et al 2011)" esm:quality="best">
		<comp name="--.HNE" depth="0.0">
			<acc value="0.0391908530238839" flag="0"/>
			<vel value="0.0522181141267833" flag="0"/>
			<psa03 value="0.0894396710299252" flag="0"/>
			<psa10 value="0.0810393217373447" flag="0"/>
			<psa30 value="0.00876768280891653" flag="0"/>
		</comp>
		<comp name="--.HNN" depth="0.0">
			<acc value="0.0357352549171341" flag="0"/>
			<vel value="0.0390765094540022" flag="0"/>
			<psa03 value="0.103399239494826" flag="0"/>
			<psa10 value="0.089076811734251" flag="0"/>
			<psa30 value="0.00588941665716311" flag="0"/>
		</comp>
		<comp name="--.HNZ" depth="0.0">
			<acc value="0.0225346479755515" flag="0"/>
			<vel value="0.0258831719778813" flag="0"/>
			<psa03 value="0.0372702581130204" flag="0"/>
			<psa10 value="0.0475242770257959" flag="0"/>
			<psa30 value="0.0054133595787447" flag="0"/>
		</comp>
	</station>
	<station code="KRI1" name="KRI1" netid="HI" source="ITSAK Strong Motion Network" insttype="" lat="37.6621" lon="20.8172" esm:processing="manual (Paolucci et al 2011)" esm:quality="good">
		<comp name="--.HNE" depth="0.0">
			<acc value="4.05521495640095" flag="0"/>
			<vel value="1.86914076676885" flag="0"/>
			<psa03 value="8.08824647330934" flag="0"/>
			<psa10 value="0.928093781657033" flag="0"/>
			<psa30 value="0.085972595262367" flag="0"/>
		</comp>
		<comp name="--.HNN" depth="0.0">
			<acc value="2.86050105430551" flag="0"/>
			<vel value="1.35847033938699" flag="0"/>
			<psa03 value="5.42675816275643" flag="0"/>
			<psa10 value="1.29158796136358" flag="0"/>
			<psa30 value="0.111674904580907" flag="0"/>
		</comp>
		<comp name="--.HNZ" depth="0.0">
			<acc value="1.63851982620761" flag="0"/>
			<vel value="0.666703833284365" flag="0"/>
			<psa03 value="3.64796132620339" flag="0"/>
			<psa10 value="0.307980782215292" flag="0"/>
			<psa30 value="0.0358161526443139" flag="0"/>
		</comp>
	</station>
	<station code="MSL1" name="MSL1" netid="HI" source="ITSAK Strong Motion Network" insttype="" lat="38.3727" lon="21.4243" esm:processing="manual (Paolucci et al 2011)" esm:quality="good">
		<comp name="--.HNE" depth="0.0">
			<acc value="0.148923230847557" flag="0"/>
			<vel value="0.204659455272266" flag="0"/>
			<psa03 value="0.407064595813036" flag="0"/>
			<psa10 value="0.321161348794219" flag="0"/>
			<psa30 value="0.0328904435071577" flag="0"/>
		</comp>
		<comp name="--.HNN" depth="0.0">
			<acc value="0.190460867266311" flag="0"/>
			<vel value="0.190919052671443" flag="0"/>
			<psa03 value="0.527689584855897" flag="0"/>
			<psa10 value="0.431185566823013" flag="0"/>
			<psa30 value="0.0236914458264411" flag="0"/>
		</comp>
		<comp name="--.HNZ" depth="0.0">
			<acc value="0.0948820901804931" flag="0"/>
			<vel value="0.113459969669251" flag="0"/>
			<psa03 value="0.171765331207545" flag="0"/>
			<psa10 value="0.343836251686293" flag="0"/>
			<psa30 value="0.0133662868051425" flag="0"/>
		</comp>
	</station>
	<station code="PYL1" name="PYL1" netid="HI" source="ITSAK Strong Motion Network" insttype="" lat="36.914188" lon="21.695161" esm:processing="manual (Paolucci et al 2011)" esm:quality="best">
		<comp name="--.HNE" depth="0.0">
			<acc value="0.102934217507364" flag="0"/>
			<vel value="0.0527690343734794" flag="0"/>
			<psa03 value="0.339459121612828" flag="0"/>
			<psa10 value="0.0265285491481057" flag="0"/>
			<psa30 value="0.0077511398745494" flag="0"/>
		</comp>
		<comp name="--.HNN" depth="0.0">
			<acc value="0.134380208360488" flag="0"/>
			<vel value="0.0449749253037813" flag="0"/>
			<psa03 value="0.201474156402078" flag="0"/>
			<psa10 value="0.0242977027261187" flag="0"/>
			<psa30 value="0.00794800558366979" flag="0"/>
		</comp>
		<comp name="--.HNZ" depth="0.0">
			<acc value="0.052317747232277" flag="0"/>
			<vel value="0.0220680839674183" flag="0"/>
			<psa03 value="0.0834889575496951" flag="0"/>
			<psa10 value="0.020782307552121" flag="0"/>
			<psa30 value="0.00478741610815508" flag="0"/>
		</comp>
	</station>
	<station code="ARTB" name="ARTB" netid="HL" source="National Observatory of Athens Seismic Network" insttype="" lat="39.15702" lon="20.9785" esm:processing="manual (Paolucci et al 2011)" esm:quality="good">
		<comp name="00.HNE" depth="0.0">
			<acc value="0.0663622414733659" flag="0"/>
			<vel value="0.0307307475150364" flag="0"/>
			<psa03 value="0.214799271064041" flag="0"/>
			<psa10 value="0.0341716074513055" flag="0"/>
			<psa30 value="0.00344298578924659" flag="0"/>
		</comp>
		<comp name="00.HNN" depth="0.0">
			<acc value="0.0617616469712572" flag="0"/>
			<vel value="0.0320709632959728" flag="0"/>
			<psa03 value="0.193226508641041" flag="0"/>
			<psa10 value="0.0280387324284058" flag="0"/>
			<psa30 value="0.00312229225320652" flag="0"/>
		</comp>
		<comp name="00.HNZ" depth="0.0">
			<acc value="0.0228683315388911" flag="0"/>
			<vel value="0.0133975672163821" flag="0"/>
			<psa03 value="0.056697406966647" flag="0"/>
			<psa10 value="0.0186593760920922" flag="0"/>
			<psa30 value="0.00153629354274193" flag="0"/>
		</comp>
	</station>
	<station code="DLFA" name="DLFA" netid="HL" source="National Observatory of Athens Seismic Network" insttype="" lat="38.47836" lon="22.49583" esm:processing="manual (Paolucci et al 2011)" esm:quality="bad">
		<comp name="00.HNE" depth="0.0">
			<acc value="0.00943500102739277" flag="0"/>
			<vel value="0.0126856371649198" flag="0"/>
			<psa03 value="0.0211209512426783" flag="0"/>
			<psa10 value="0.01964319001495" flag="0"/>
			<psa30 value="0.00531778936076493" flag="0"/>
		</comp>
		<comp name="00.HNN" depth="0.0">
			<acc value="0.0100549561735787" flag="0"/>
			<vel value="0.0131189232840117" flag="0"/>
			<psa03 value="0.026086811456546" flag="0"/>
			<psa10 value="0.0322279436930859" flag="0"/>
			<psa30 value="0.00464038031910308" flag="0"/>
		</comp>
		<comp name="00.HNZ" depth="0.0">
			<acc value="0.00955489132045675" flag="0"/>
			<vel value="0.00962445404682388" flag="0"/>
			<psa03 value="0.0188144026118171" flag="0"/>
			<psa10 value="0.0255093379934641" flag="0"/>
			<psa30 value="0.00211620268804076" flag="0"/>
		</comp>
	</station>
	<station code="ITM" name="ITM" netid="HL" source="National Observatory of Athens Seismic Network" insttype="" lat="37.17872" lon="21.92522" esm:processing="manual (Paolucci et al 2011)" esm:quality="best">
		<comp name="--.HNE" depth="0.0">
			<acc value="0.0616524512368125" flag="0"/>
			<vel value="0.0336592657484938" flag="0"/>
			<psa03 value="0.111194011890971" flag="0"/>
			<psa10 value="0.0412749567631276" flag="0"/>
			<psa30 value="0.00569747659654048" flag="0"/>
		</comp>
		<comp name="--.HNN" depth="0.0">
			<acc value="0.0534848918638653" flag="0"/>
			<vel value="0.0378192194108857" flag="0"/>
			<psa03 value="0.15184013158031" flag="0"/>
			<psa10 value="0.0315489612138456" flag="0"/>
			<psa30 value="0.00775754639939378" flag="0"/>
		</comp>
		<comp name="--.HNZ" depth="0.0">
			<acc value="0.0461381949529549" flag="0"/>
			<vel value="0.0303976461346869" flag="0"/>
			<psa03 value="0.120036847685468" flag="0"/>
			<psa10 value="0.024711315128356" flag="0"/>
			<psa30 value="0.00563650422409031" flag="0"/>
		</comp>
	</station>
	<station code="KIAA" name="KIAA" netid="HL" source="National Observatory of Athens Seismic Network" insttype="" lat="38.0139" lon="22.7495" esm:processing="manual (Paolucci et al 2011)" esm:quality="good">
		<comp name="00.HNE" depth="0.0">
			<acc value="0.0504068007159583" flag="0"/>
			<vel value="0.0999459242842757" flag="0"/>
			<psa03 value="0.0870552461492788" flag="0"/>
			<psa10 value="0.188338511501989" flag="0"/>
			<psa30 value="0.026036343113287" flag="0"/>
		</comp>
		<comp name="00.HNN" depth="0.0">
			<acc value="0.0469284690817004" flag="0"/>
			<vel value="0.0906062093677966" flag="0"/>
			<psa03 value="0.0963041921802688" flag="0"/>
			<psa10 value="0.121976132820294" flag="0"/>
			<psa30 value="0.0259128749341032" flag="0"/>
		</comp>
		<comp name="00.HNZ" depth="0.0">
			<acc value="0.0287495648086689" flag="0"/>
			<vel value="0.036257764443739" flag="0"/>
			<psa03 value="0.0863787169577858" flag="0"/>
			<psa10 value="0.131643635744833" flag="0"/>
			<psa30 value="0.0100873957404671" flag="0"/>
		</comp>
	</station>
	<station code="LXRA" name="LXRA" netid="HL" source="National Observatory of Athens Seismic Network" insttype="" lat="38.20006" lon="20.43718" esm:processing="manual (Paolucci et al 2011)" esm:quality="good">
		<comp name="00.HNE" depth="0.0">
			<acc value="0.811810817088366" flag="0"/>
			<vel value="0.220332025821768" flag="0"/>
			<psa03 value="0.824330414735039" flag="0"/>
			<psa10 value="0.185273003385602" flag="0"/>
			<psa30 value="0.0243173892970307" flag="0"/>
		</comp>
		<comp name="00.HNN" depth="0.0">
			<acc value="0.852874609488128" flag="0"/>
			<vel value="0.239668218547246" flag="0"/>
			<psa03 value="1.40078900480485" flag="0"/>
			<psa10 value="0.206836509865278" flag="0"/>
			<psa30 value="0.0274815581490749" flag="0"/>
		</comp>
		<comp name="00.HNZ" depth="0.0">
			<acc value="0.521092960992977" flag="0"/>
			<vel value="0.12350027716657" flag="0"/>
			<psa03 value="0.589657541022203" flag="0"/>
			<psa10 value="0.15577267687391" flag="0"/>
			<psa30 value="0.0110285065093378" flag="0"/>
		</comp>
	</station>
	<station code="PATC" name="PATC" netid="HL" source="National Observatory of Athens Seismic Network" insttype="" lat="38.26933" lon="21.76001" esm:processing="manual (Paolucci et al 2011)" esm:quality="best">
		<comp name="00.HNE" depth="0.0">
			<acc value="0.083627819335978" flag="0"/>
			<vel value="0.131365169363662" flag="0"/>
			<psa03 value="0.232480067330125" flag="0"/>
			<psa10 value="0.173030237404103" flag="0"/>
			<psa30 value="0.0268264854563183" flag="0"/>
		</comp>
		<comp name="00.HNN" depth="0.0">
			<acc value="0.076123516480007" flag="0"/>
			<vel value="0.113355596934257" flag="0"/>
			<psa03 value="0.169612204725939" flag="0"/>
			<psa10 value="0.149164736431594" flag="0"/>
			<psa30 value="0.0241808435288772" flag="0"/>
		</comp>
		<comp name="00.HNZ" depth="0.0">
			<acc value="0.0463099838025716" flag="0"/>
			<vel value="0.0462945830071603" flag="0"/>
			<psa03 value="0.0967100940693068" flag="0"/>
			<psa10 value="0.0999099485437479" flag="0"/>
			<psa30 value="0.00745830240927655" flag="0"/>
		</comp>
	</station>
	<station code="PATG" name="PATG" netid="HL" source="National Observatory of Athens Seismic Network" insttype="" lat="38.23865" lon="21.72657" esm:processing="manual (Paolucci et al 2011)" esm:quality="good">
		<comp name="00.HNE" depth="0.0">
			<acc value="0.103436765392503" flag="0"/>
			<vel value="0.113552145242949" flag="0"/>
			<psa03 value="0.234373067732013" flag="0"/>
			<psa10 value="0.215320618934347" flag="0"/>
			<psa30 value="0.0289892770639853" flag="0"/>
		</comp>
		<comp name="00.HNN" depth="0.0">
			<acc value="0.124727310932556" flag="0"/>
			<vel value="0.133797189520535" flag="0"/>
			<psa03 value="0.224087094670385" flag="0"/>
			<psa10 value="0.250358590027892" flag="0"/>
			<psa30 value="0.0360941877294465" flag="0"/>
		</comp>
		<comp name="00.HNZ" depth="0.0">
			<acc value="0.064557309079131" flag="0"/>
			<vel value="0.0714985003643539" flag="0"/>
			<psa03 value="0.0973431255877411" flag="0"/>
			<psa10 value="0.124458924792824" flag="0"/>
			<psa30 value="0.0184897965249653" flag="0"/>
		</comp>
	</station>
	<station code="PRGA" name="PRGA" netid="HL" source="National Observatory of Athens Seismic Network" insttype="" lat="39.28557" lon="20.40157" esm:processing="manual (Paolucci et al 2011)" esm:quality="bad">
		<comp name="00.HNE" depth="0.0">
			<acc value="0.0909611741546445" flag="0"/>
			<vel value="0.0375286546563198" flag="0"/>
			<psa03 value="0.261215137554414" flag="0"/>
			<psa10 value="0.0350094879567745" flag="0"/>
			<psa30 value="0.00511364292041327" flag="0"/>
		</comp>
		<comp name="00.HNN" depth="0.0">
			<acc value="0.112944161265985" flag="0"/>
			<vel value="0.051316232639418" flag="0"/>
			<psa03 value="0.263743700892591" flag="0"/>
			<psa10 value="0.0476289764360974" flag="0"/>
			<psa30 value="0.00355924119892867" flag="0"/>
		</comp>
		<comp name="00.HNZ" depth="0.0">
			<acc value="0.0589268479496731" flag="0"/>
			<vel value="0.0114828100487181" flag="0"/>
			<psa03 value="0.0609339792852708" flag="0"/>
			<psa10 value="0.0147654078233123" flag="0"/>
			<psa30 value="0.00493209964406021" flag="0"/>
		</comp>
	</station>
	<station code="RIOA" name="RIOA" netid="HL" source="National Observatory of Athens Seismic Network" insttype="" lat="38.29585" lon="21.79118" esm:processing="manual (Paolucci et al 2011)" esm:quality="good">
		<comp name="00.HNE" depth="0.0">
			<acc value="0.0445610158400776" flag="0"/>
			<vel value="0.0503390465362305" flag="0"/>
			<psa03 value="0.093019912112598" flag="0"/>
			<psa10 value="0.115996721713481" flag="0"/>
			<psa30 value="0.0236251150479089" flag="0"/>
		</comp>
		<comp name="00.HNN" depth="0.0">
			<acc value="0.0517103780144326" flag="0"/>
			<vel value="0.0801418331867457" flag="0"/>
			<psa03 value="0.102796049317264" flag="0"/>
			<psa10 value="0.134683062091819" flag="0"/>
			<psa30 value="0.0238533201654121" flag="0"/>
		</comp>
		<comp name="00.HNZ" depth="0.0">
			<acc value="0.0388260485627549" flag="0"/>
			<vel value="0.036395145319966" flag="0"/>
			<psa03 value="0.0679043785401103" flag="0"/>
			<psa10 value="0.0506064186769946" flag="0"/>
			<psa30 value="0.0130620052937405" flag="0"/>
		</comp>
	</station>
	<station code="SMHA" name="SMHA" netid="HL" source="National Observatory of Athens Seismic Network" insttype="" lat="38.25123" lon="20.6477" esm:processing="manual (Paolucci et al 2011)" esm:quality="good">
		<comp name="00.HNE" depth="0.0">
			<acc value="1.3233520672423" flag="0"/>
			<vel value="0.351922950753503" flag="0"/>
			<psa03 value="1.77880950406501" flag="0"/>
			<psa10 value="0.182964900526812" flag="0"/>
			<psa30 value="0.0122978371713442" flag="0"/>
		</comp>
		<comp name="00.HNN" depth="0.0">
			<acc value="1.17096785516138" flag="0"/>
			<vel value="0.559485611139723" flag="0"/>
			<psa03 value="2.82328769562105" flag="0"/>
			<psa10 value="0.197353898727102" flag="0"/>
			<psa30 value="0.0132712524886874" flag="0"/>
		</comp>
		<comp name="00.HNZ" depth="0.0">
			<acc value="0.843235867776753" flag="0"/>
			<vel value="0.176462578657685" flag="0"/>
			<psa03 value="1.07113054047489" flag="0"/>
			<psa10 value="0.0910298927835698" flag="0"/>
			<psa30 value="0.00583801423980501" flag="0"/>
		</comp>
	</station>
	<station code="ZARA" name="ZARA" netid="HL" source="National Observatory of Athens Seismic Network" insttype="" lat="37.4865" lon="21.6491" esm:processing="manual (Paolucci et al 2011)" esm:quality="best">
		<comp name="00.HNE" depth="0.0">
			<acc value="0.169404599462505" flag="0"/>
			<vel value="0.107496666916192" flag="0"/>
			<psa03 value="0.471456315002222" flag="0"/>
			<psa10 value="0.123093646849815" flag="0"/>
			<psa30 value="0.0200455829214729" flag="0"/>
		</comp>
		<comp name="00.HNN" depth="0.0">
			<acc value="0.156204261033788" flag="0"/>
			<vel value="0.10393846535642" flag="0"/>
			<psa03 value="0.500644873599007" flag="0"/>
			<psa10 value="0.126360285748898" flag="0"/>
			<psa30 value="0.0187956617870378" flag="0"/>
		</comp>
		<comp name="00.HNZ" depth="0.0">
			<acc value="0.0855082474481676" flag="0"/>
			<vel value="0.0550317764282488" flag="0"/>
			<psa03 value="0.195191097118925" flag="0"/>
			<psa10 value="0.081326732497065" flag="0"/>
			<psa30 value="0.0122788542471561" flag="0"/>
		</comp>
	</station>
	<station code="ANX" name="ANX" netid="HP" source="University of Patras, Seismological Laboratory (PSLNET)" insttype="" lat="38.5933" lon="21.9209" esm:processing="automatic (Paolucci et al 2011)" esm:quality="best">
		<comp name="--.HNE" depth="0.0">
			<acc value="0.047010090564189" flag="0"/>
			<vel value="0.0438536716807185" flag="0"/>
			<psa03 value="0.112485014080343" flag="0"/>
			<psa10 value="0.0624414939425675" flag="0"/>
			<psa30 value="0.00540172658788768" flag="0"/>
		</comp>
		<comp name="--.HNN" depth="0.0">
			<acc value="0.0750884859515631" flag="0"/>
			<vel value="0.066392297839386" flag="0"/>
			<psa03 value="0.149351768821719" flag="0"/>
			<psa10 value="0.0939938641320383" flag="0"/>
			<psa30 value="0.00956450860174509" flag="0"/>
		</comp>
		<comp name="--.HNZ" depth="0.0">
			<acc value="0.027900616786818" flag="0"/>
			<vel value="0.0286020941565076" flag="0"/>
			<psa03 value="0.0681533533666551" flag="0"/>
			<psa10 value="0.0436928056840005" flag="0"/>
