<?xml version="1.0" encoding="UTF-8" standalone="yes"?>
<!DOCTYPE earthquake SYSTEM "stationlist.dtd">
<stationlist created="" xmlns="ch.ethz.sed.shakemap.usgs.xml">
  <station code="TYRN" name="TYRN" netid="HT" insttype="120P," lat="39.711" lon="22.2325">
    <comp name="--.HHZ">
      <acc value="1.1827414718" flag="0"/>
      <vel value="0.3300135249" flag="0"/>
      <psa03 value="1.3792748985" flag="0"/>
      <psa10 value="0.2268386118" flag="0"/>
      <psa30 value="0.0177954270" flag="0"/>
    </comp>
    <comp name="--.HHE">
      <acc value="0.7118628892" flag="0"/>
      <vel value="0.3095812322" flag="0"/>
      <psa03 value="1.2790006969" flag="0"/>
      <psa10 value="0.2894563081" flag="0"/>
      <psa30 value="0.0234398836" flag="0"/>
    </comp>
    <comp name="--.HHN">
      <acc value="0.4975725181" flag="0"/>
      <vel value="0.2402393454" flag="0"/>
      <psa03 value="0.6849760763" flag="0"/>
      <psa10 value="0.1972954695" flag="0"/>
      <psa30 value="0.0160437008" flag="0"/>
    </comp>
  </station>
</stationlist>
