<stationlist created="1778136287">
	<station code="STC" name="STC" netid="EG" source="EUROSEISTEST Strong Motion Network" insttype="" lat="40.64865" lon="23.304856">
		<comp name="--.EN1" depth="0.0">
			<acc value="0.0195892576988637" flag="0"/>
			<vel value="0.0115797089771616" flag="0"/>
			<psa03 value="0.0436795419927754" flag="0"/>
			<psa10 value="0.00884048313863512" flag="0"/>
			<psa30 value="0.00126708341722564" flag="0"/>
		</comp>
		<comp name="--.EN2" depth="0.0">
			<acc value="0.0191959083407322" flag="0"/>
			<vel value="0.00924948599714131" flag="0"/>
			<psa03 value="0.0380670894661867" flag="0"/>
			<psa10 value="0.00668630387230767" flag="0"/>
			<psa30 value="0.00099634173191456" flag="0"/>
		</comp>
		<comp name="--.EN3" depth="0.0">
			<acc value="0.00941125254997791" flag="0"/>
			<vel value="0.00709047805853564" flag="0"/>
			<psa03 value="0.0208882860902088" flag="0"/>
			<psa10 value="0.00404832990074193" flag="0"/>
			<psa30 value="0.00117503013164576" flag="0"/>
		</comp>
	</station>
	<station code="TST" name="TST" netid="EG" source="EUROSEISTEST Strong Motion Network" insttype="" lat="40.6638" lon="23.2906">
		<comp name="00.EN1" depth="0.0">
			<acc value="0.00741025220267981" flag="0"/>
			<vel value="0.00617270025242123" flag="0"/>
			<psa03 value="0.0207592267593845" flag="0"/>
			<psa10 value="0.00586480351446208" flag="0"/>
			<psa30 value="0.000781937372431706" flag="0"/>
		</comp>
		<comp name="00.EN2" depth="0.0">
			<acc value="0.00399919022479352" flag="0"/>
			<vel value="0.00303543542033943" flag="0"/>
			<psa03 value="0.0111532284299825" flag="0"/>
			<psa10 value="0.00451421060679909" flag="0"/>
			<psa30 value="0.000601667149161821" flag="0"/>
		</comp>
		<comp name="00.EN3" depth="0.0">
			<acc value="0.0109237065436623" flag="0"/>
			<vel value="0.00666556783998934" flag="0"/>
			<psa03 value="0.0314735068403446" flag="0"/>
			<psa10 value="0.00853398377204636" flag="0"/>
			<psa30 value="0.000822188684717165" flag="0"/>
		</comp>
	</station>
	<station code="ANX" name="ANX" netid="HP" source="University of Patras, Seismological Laboratory (PSLNET)" insttype="" lat="38.5933" lon="21.9209">
		<comp name="--.HNE" depth="0.0">
			<acc value="0.0208291318414711" flag="0"/>
			<vel value="0.0138981638248955" flag="0"/>
			<psa03 value="0.0539883420879118" flag="0"/>
			<psa10 value="0.0146818926033178" flag="0"/>
			<psa30 value="0.000663654484685626" flag="0"/>
		</comp>
		<comp name="--.HNN" depth="0.0">
			<acc value="0.0386911316361611" flag="0"/>
			<vel value="0.0236442643078236" flag="0"/>
			<psa03 value="0.181926843427402" flag="0"/>
			<psa10 value="0.0221702180431473" flag="0"/>
			<psa30 value="0.000878744670854489" flag="0"/>
		</comp>
		<comp name="--.HNZ" depth="0.0">
			<acc value="0.011362776171953" flag="0"/>
			<vel value="0.00831764396705433" flag="0"/>
			<psa03 value="0.0408565398785922" flag="0"/>
			<psa10 value="0.00937874129557923" flag="0"/>
			<psa30 value="0.000512868662534057" flag="0"/>
		</comp>
	</station>
	<station code="PDO" name="PDO" netid="HP" source="University of Patras, Seismological Laboratory (PSLNET)" insttype="" lat="38.5986" lon="21.1833">
		<comp name="--.HNE" depth="0.0">
			<acc value="0.00952956563358247" flag="0"/>
			<vel value="0.00605531459069164" flag="0"/>
			<psa03 value="0.0327029268250616" flag="0"/>
			<psa10 value="0.013899947990823" flag="0"/>
			<psa30 value="0.000435809338979805" flag="0"/>
		</comp>
		<comp name="--.HNN" depth="0.0">
			<acc value="0.0115624256603474" flag="0"/>
			<vel value="0.00941590539528624" flag="0"/>
			<psa03 value="0.0414670881369067" flag="0"/>
			<psa10 value="0.0120881054651625" flag="0"/>
			<psa30 value="0.000517187594473088" flag="0"/>
		</comp>
		<comp name="--.HNZ" depth="0.0">
			<acc value="0.00497764398842448" flag="0"/>
			<vel value="0.00355434421483631" flag="0"/>
			<psa03 value="0.0160463038743167" flag="0"/>
			<psa10 value="0.00343267880437405" flag="0"/>
			<psa30 value="0.000254505948311597" flag="0"/>
		</comp>
	</station>
	<station code="PVO" name="PVO" netid="HP" source="University of Patras, Seismological Laboratory (PSLNET)" insttype="" lat="38.616" lon="21.525">
		<comp name="--.HNE" depth="0.0">
			<acc value="0.00683988477067071" flag="0"/>
			<vel value="0.00456240822645207" flag="0"/>
			<psa03 value="0.0213321292947106" flag="0"/>
			<psa10 value="0.00478852487253558" flag="0"/>
			<psa30 value="0.000230310621531782" flag="0"/>
		</comp>
		<comp name="--.HNN" depth="0.0">
			<acc value="0.00665904097422225" flag="0"/>
			<vel value="0.00471050662342177" flag="0"/>
			<psa03 value="0.0188258252435208" flag="0"/>
			<psa10 value="0.00510615638279433" flag="0"/>
			<psa30 value="0.000194171573851142" flag="0"/>
		</comp>
		<comp name="--.HNZ" depth="0.0">
			<acc value="0.00366017520916058" flag="0"/>
			<vel value="0.00315597679443205" flag="0"/>
			<psa03 value="0.011829519324662" flag="0"/>
			<psa10 value="0.00467597616672324" flag="0"/>
			<psa30 value="0.000181166350339836" flag="0"/>
		</comp>
	</station>
	<station code="SERG" name="SERG" netid="HP" source="University of Patras, Seismological Laboratory (PSLNET)" insttype="" lat="38.4133" lon="22.0566">
		<comp name="--.HNE" depth="0.0">
			<acc value="0.0124991562345951" flag="0"/>
			<vel value="0.00883923313554837" flag="0"/>
			<psa03 value="0.0314294075648285" flag="0"/>
			<psa10 value="0.0199188163988345" flag="0"/>
			<psa30 value="0.000607547278276476" flag="0"/>
		</comp>
		<comp name="--.HNN" depth="0.0">
			<acc value="0.0101826332833995" flag="0"/>
			<vel value="0.00636676285479846" flag="0"/>
			<psa03 value="0.0207661217473816" flag="0"/>
			<psa10 value="0.0139191061349865" flag="0"/>
			<psa30 value="0.000568801586563104" flag="0"/>
		</comp>
		<comp name="--.HNZ" depth="0.0">
			<acc value="0.00798122327132431" flag="0"/>
			<vel value="0.00568182887032982" flag="0"/>
			<psa03 value="0.0195076060852513" flag="0"/>
			<psa10 value="0.010721575876776" flag="0"/>
			<psa30 value="0.000551095569878451" flag="0"/>
		</comp>
	</station>
</stationlist>
