<?xml version="1.0" encoding="UTF-8" standalone="yes"?>
<!DOCTYPE earthquake SYSTEM "stationlist.dtd">
<stationlist created="" xmlns="ch.ethz.sed.shakemap.usgs.xml">
  <station code="ASB" name="ASB" netid="VI" insttype="STS-2.5" lat="64.7482" lon="-21.3254">
    <comp name="--.HHN">
      <acc value="0.8052146083" flag="0"/>
      <vel value="0.2053880807" flag="0"/>
      <psa03 value="0.7549764544" flag="0"/>
      <psa10 value="0.1425554203" flag="0"/>
      <psa30 value="0.0131196698" flag="0"/>
    </comp>
    <comp name="--.HHE">
      <acc value="0.2465582144" flag="0"/>
      <vel value="0.1143978974" flag="0"/>
      <psa03 value="0.3255419478" flag="0"/>
      <psa10 value="0.0767031095" flag="0"/>
      <psa30 value="0.0043880717" flag="0"/>
    </comp>
    <comp name="--.HHZ">
      <acc value="0.1618703628" flag="0"/>
      <vel value="0.0631364720" flag="0"/>
      <psa03 value="0.2496588389" flag="0"/>
      <psa10 value="0.0325927181" flag="0"/>
      <psa30 value="0.0032164390" flag="0"/>
    </comp>
  </station>
</stationlist>
