<stationlist created="1675762321">
	<station code="TUNC" name="TUNC" netid="KO" source="Bogazici University Kandilli Observatory And Earthquake Research Institute (KOERI)" insttype="" lat="39.6942" lon="37.5388">
		<comp name=".HNE" depth="0.0">
			<acc value="0.00772345507977" flag="0"/>
			<vel value="0.00443101188442" flag="0"/>
			<psa03 value="0.0258873451179" flag="0"/>
			<psa10 value="0.00586174659318" flag="0"/>
			<psa30 value="0.000690652418999" flag="0"/>
		</comp>
		<comp name=".HNN" depth="0.0">
			<acc value="0.00679861477807" flag="0"/>
			<vel value="0.00470528048671" flag="0"/>
			<psa03 value="0.0208903734681" flag="0"/>
			<psa10 value="0.00465336076232" flag="0"/>
			<psa30 value="0.000751345710468" flag="0"/>
		</comp>
		<comp name=".HNZ" depth="0.0">
			<acc value="0.00350753139075" flag="0"/>
			<vel value="0.00325500779431" flag="0"/>
			<psa03 value="0.0107211027986" flag="0"/>
			<psa10 value="0.00567545628364" flag="0"/>
			<psa30 value="0.000805015932523" flag="0"/>
		</comp>
	</station>
</stationlist>
