<?xml version="1.0" encoding="UTF-8" standalone="yes"?>
<!DOCTYPE earthquake SYSTEM "stationlist.dtd">
<stationlist created="" xmlns="ch.ethz.sed.shakemap.usgs.xml">
  <station code="DARE" name="DARE" netid="KO" insttype="CMG-3ESP" lat="38.5712" lon="37.4832">
    <comp name="--.HHE">
      <acc value="0.0257610633" flag="0"/>
      <vel value="0.0118970295" flag="0"/>
      <psa03 value="0.0416933514" flag="0"/>
      <psa10 value="0.0116559830" flag="0"/>
      <psa30 value="0.0015119057" flag="0"/>
    </comp>
    <comp name="--.HHN">
      <acc value="0.0000339535" flag="0"/>
      <vel value="0.0000071162" flag="0"/>
      <psa03 value="0.0000284639" flag="0"/>
      <psa10 value="0.0000046924" flag="0"/>
      <psa30 value="0.0000009416" flag="0"/>
    </comp>
    <comp name="--.HHZ">
      <acc value="0.0207294755" flag="0"/>
      <vel value="0.0065993405" flag="0"/>
      <psa03 value="0.0312603612" flag="0"/>
      <psa10 value="0.0085878575" flag="0"/>
      <psa30 value="0.0007940068" flag="0"/>
    </comp>
  </station>
  <station code="ANDN" name="ANDN" netid="TU" insttype="T" lat="37.58" lon="36.3452">
    <comp name="--.HHZ">
      <acc value="0.0352507373" flag="0"/>
      <vel value="0.0179935224" flag="0"/>
      <psa03 value="0.0962099341" flag="0"/>
      <psa10 value="0.0386997217" flag="0"/>
      <psa30 value="0.0011991853" flag="0"/>
    </comp>
    <comp name="--.HHN">
      <acc value="0.0682277325" flag="0"/>
      <vel value="0.0277397582" flag="0"/>
      <psa03 value="0.2425014974" flag="0"/>
      <psa10 value="0.0466622282" flag="0"/>
      <psa30 value="0.0022145395" flag="0"/>
    </comp>
    <comp name="--.HHE">
      <acc value="0.0434934132" flag="0"/>
      <vel value="0.0263171494" flag="0"/>
      <psa03 value="0.1667246178" flag="0"/>
      <psa10 value="0.0219349240" flag="0"/>
      <psa30 value="0.0021087729" flag="0"/>
    </comp>
  </station>
</stationlist>
