<?xml version="1.0" encoding="UTF-8" standalone="yes"?>
<!DOCTYPE earthquake SYSTEM "stationlist.dtd">
<stationlist created="" xmlns="ch.ethz.sed.shakemap.usgs.xml">
  <station code="DARE" name="DARE" netid="KO" insttype="CMG-3ESP" lat="38.5712" lon="37.4832">
    <comp name="--.HHN">
      <acc value="0.0000339535" flag="0"/>
      <vel value="0.0000071162" flag="0"/>
      <psa03 value="0.0000284639" flag="0"/>
      <psa10 value="0.0000046924" flag="0"/>
      <psa30 value="0.0000009415" flag="0"/>
    </comp>
    <comp name="--.HHE">
      <acc value="0.0257610632" flag="0"/>
      <vel value="0.0118970419" flag="0"/>
      <psa03 value="0.0416933514" flag="0"/>
      <psa10 value="0.0116559817" flag="0"/>
      <psa30 value="0.0015119067" flag="0"/>
    </comp>
    <comp name="--.HHZ">
      <acc value="0.0207294755" flag="0"/>
      <vel value="0.0065993356" flag="0"/>
      <psa03 value="0.0312603612" flag="0"/>
      <psa10 value="0.0085878578" flag="0"/>
      <psa30 value="0.0007938298" flag="0"/>
    </comp>
  </station>
  <station code="ANDN" name="ANDN" netid="TU" insttype="T" lat="37.58" lon="36.3452">
    <comp name="--.HHZ">
      <acc value="0.0352507369" flag="0"/>
      <vel value="0.0179935120" flag="0"/>
      <psa03 value="0.0962099341" flag="0"/>
      <psa10 value="0.0386997230" flag="0"/>
      <psa30 value="0.0011991808" flag="0"/>
    </comp>
    <comp name="--.HHN">
      <acc value="0.0682277327" flag="0"/>
      <vel value="0.0277397606" flag="0"/>
      <psa03 value="0.2425014974" flag="0"/>
      <psa10 value="0.0466622294" flag="0"/>
      <psa30 value="0.0022145932" flag="0"/>
    </comp>
    <comp name="--.HHE">
      <acc value="0.0434934128" flag="0"/>
      <vel value="0.0263171490" flag="0"/>
      <psa03 value="0.1667246178" flag="0"/>
      <psa10 value="0.0219349228" flag="0"/>
      <psa30 value="0.0021087535" flag="0"/>
    </comp>
  </station>
</stationlist>
