<?xml version="1.0" encoding="UTF-8" standalone="yes"?>
<!DOCTYPE earthquake SYSTEM "stationlist.dtd">
<stationlist created="" xmlns="ch.ethz.sed.shakemap.usgs.xml">
  <station code="ARR" name="ARR" netid="RO" insttype="w/attenuator" lat="45.3657" lon="24.6332">
    <comp name="--.HHE">
      <acc value="0.0067565521" flag="0"/>
      <vel value="0.0024314312" flag="0"/>
      <psa03 value="0.0103746637" flag="0"/>
      <psa10 value="0.0024480458" flag="0"/>
      <psa30 value="0.0002087361" flag="0"/>
    </comp>
    <comp name="--.HHN">
      <acc value="0.0088077781" flag="0"/>
      <vel value="0.0029038554" flag="0"/>
      <psa03 value="0.0144686111" flag="0"/>
      <psa10 value="0.0026569050" flag="0"/>
      <psa30 value="0.0002126275" flag="0"/>
    </comp>
  </station>
  <station code="DEV" name="DEV" netid="RO" insttype="CMG40T.1to100/Quanterra" lat="45.887" lon="22.898">
    <comp name="--.HHE">
      <acc value="0.1458357320" flag="0"/>
      <vel value="0.0328002827" flag="0"/>
      <psa03 value="0.0677134735" flag="0"/>
      <psa10 value="0.0116732413" flag="0"/>
      <psa30 value="0.0005133720" flag="0"/>
    </comp>
    <comp name="--.HHN">
      <acc value="0.1244911787" flag="0"/>
      <vel value="0.0267585461" flag="0"/>
      <psa03 value="0.1138455673" flag="0"/>
      <psa10 value="0.0087916830" flag="0"/>
      <psa30 value="0.0005463392" flag="0"/>
    </comp>
    <comp name="--.HHZ">
      <acc value="0.1106332945" flag="0"/>
      <vel value="0.0291067840" flag="0"/>
      <psa03 value="0.0611992897" flag="0"/>
      <psa10 value="0.0059071541" flag="0"/>
      <psa30 value="0.0005593678" flag="0"/>
    </comp>
  </station>
  <station code="GZR" name="GZR" netid="RO" insttype="330" lat="45.3933" lon="22.7767">
    <comp name="--.HHN">
      <acc value="0.9794341496" flag="0"/>
      <vel value="0.2320951445" flag="0"/>
      <psa03 value="1.0516539092" flag="0"/>
      <psa10 value="0.0555056464" flag="0"/>
      <psa30 value="0.0042157035" flag="0"/>
    </comp>
    <comp name="--.HHE">
      <acc value="1.6140452718" flag="0"/>
      <vel value="0.2837706405" flag="0"/>
      <psa03 value="1.0944017566" flag="0"/>
      <psa10 value="0.0363799385" flag="0"/>
      <psa30 value="0.0044201175" flag="0"/>
    </comp>
    <comp name="--.HHZ">
      <acc value="1.0830946074" flag="0"/>
      <vel value="0.2638444373" flag="0"/>
      <psa03 value="0.7768980848" flag="0"/>
      <psa10 value="0.0389420263" flag="0"/>
      <psa30 value="0.0045713613" flag="0"/>
    </comp>
  </station>
  <station code="HERR" name="HERR" netid="RO" insttype="CMG40T.1to100/Quanterra" lat="44.881" lon="22.416">
    <comp name="--.HHE">
      <acc value="0.1536577762" flag="0"/>
      <vel value="0.0265221121" flag="0"/>
      <psa03 value="0.0606655772" flag="0"/>
      <psa10 value="0.0082796775" flag="0"/>
      <psa30 value="0.0004649220" flag="0"/>
    </comp>
    <comp name="--.HHN">
      <acc value="0.1716892971" flag="0"/>
      <vel value="0.0346165025" flag="0"/>
      <psa03 value="0.0924980555" flag="0"/>
      <psa10 value="0.0049932998" flag="0"/>
      <psa30 value="0.0004579531" flag="0"/>
    </comp>
    <comp name="--.HHZ">
      <acc value="0.1125305393" flag="0"/>
      <vel value="0.0116212755" flag="0"/>
      <psa03 value="0.0211733527" flag="0"/>
      <psa10 value="0.0038743703" flag="0"/>
      <psa30 value="0.0002705889" flag="0"/>
    </comp>
  </station>
  <station code="LOT" name="LOT" netid="RO" insttype="330" lat="45.446" lon="23.7698">
    <comp name="--.HHN">
      <acc value="0.2701894299" flag="0"/>
      <vel value="0.0392247357" flag="0"/>
      <psa03 value="0.1820373043" flag="0"/>
      <psa10 value="0.0098063033" flag="0"/>
      <psa30 value="0.0007696842" flag="0"/>
    </comp>
    <comp name="--.HHE">
      <acc value="0.2536360827" flag="0"/>
      <vel value="0.0389532413" flag="0"/>
      <psa03 value="0.1438583866" flag="0"/>
      <psa10 value="0.0072083179" flag="0"/>
      <psa30 value="0.0005717779" flag="0"/>
    </comp>
    <comp name="--.HHZ">
      <acc value="0.1842945755" flag="0"/>
      <vel value="0.0270452457" flag="0"/>
      <psa03 value="0.0733805945" flag="0"/>
      <psa10 value="0.0070846776" flag="0"/>
      <psa30 value="0.0006057160" flag="0"/>
    </comp>
  </station>
  <station code="MDVR" name="MDVR" netid="RO" insttype="CMG40T.1to100/Quanterra" lat="44.7815" lon="21.7128">
    <comp name="--.HHE">
      <acc value="0.0440609215" flag="0"/>
      <vel value="0.0075554755" flag="0"/>
      <psa03 value="0.0388497054" flag="0"/>
      <psa10 value="0.0038925084" flag="0"/>
      <psa30 value="0.0002223965" flag="0"/>
    </comp>
    <comp name="--.HHN">
      <acc value="0.0388838127" flag="0"/>
      <vel value="0.0077771327" flag="0"/>
      <psa03 value="0.0310607048" flag="0"/>
      <psa10 value="0.0037021325" flag="0"/>
      <psa30 value="0.0002145239" flag="0"/>
    </comp>
  </station>
  <station code="MHISU" name="MHISU" netid="RO" insttype="200" lat="44.6227" lon="22.6535">
    <comp name="--.HNZ">
      <acc value="0.0427357190" flag="0"/>
      <vel value="0.0161264056" flag="0"/>
      <psa03 value="0.1003104521" flag="0"/>
      <psa10 value="0.0086627967" flag="0"/>
      <psa30 value="0.0006702691" flag="0"/>
    </comp>
    <comp name="--.HNN">
      <acc value="0.0658485831" flag="0"/>
      <vel value="0.0277566782" flag="0"/>
      <psa03 value="0.2254908492" flag="0"/>
      <psa10 value="0.0257263423" flag="0"/>
      <psa30 value="0.0014447314" flag="0"/>
    </comp>
  </station>
  <station code="RMGR" name="RMGR" netid="RO" insttype="MBB2/Quanterra" lat="44.6627" lon="22.6922">
    <comp name="--.HHE">
      <acc value="0.1036973312" flag="0"/>
      <vel value="0.0545772561" flag="0"/>
      <psa03 value="0.4078412296" flag="0"/>
      <psa10 value="0.0476503331" flag="0"/>
      <psa30 value="0.0034538501" flag="0"/>
    </comp>
    <comp name="--.HHZ">
      <acc value="0.0461855093" flag="0"/>
      <vel value="0.0169638773" flag="0"/>
      <psa03 value="0.0939996553" flag="0"/>
      <psa10 value="0.0208271452" flag="0"/>
      <psa30 value="0.0009972520" flag="0"/>
    </comp>
    <comp name="--.HHN">
      <acc value="0.1309731555" flag="0"/>
      <vel value="0.0551610204" flag="0"/>
      <psa03 value="0.4323756394" flag="0"/>
      <psa10 value="0.0280369051" flag="0"/>
      <psa30 value="0.0020363667" flag="0"/>
    </comp>
  </station>
  <station code="SRE" name="SRE" netid="RO" insttype="Seismometer/Quanterra" lat="44.6609" lon="23.2038">
    <comp name="--.HHN">
      <acc value="0.1388075596" flag="0"/>
      <vel value="0.0638147709" flag="0"/>
      <psa03 value="0.2730622896" flag="0"/>
      <psa10 value="0.0464305049" flag="0"/>
      <psa30 value="0.0042768135" flag="0"/>
    </comp>
    <comp name="--.HHZ">
      <acc value="0.0880217939" flag="0"/>
      <vel value="0.0307117838" flag="0"/>
      <psa03 value="0.1975462534" flag="0"/>
      <psa10 value="0.0249884812" flag="0"/>
      <psa30 value="0.0020857248" flag="0"/>
    </comp>
    <comp name="--.HHE">
      <acc value="0.2256845562" flag="0"/>
      <vel value="0.0723717023" flag="0"/>
      <psa03 value="0.4522212470" flag="0"/>
      <psa10 value="0.0337081086" flag="0"/>
      <psa30 value="0.0041813263" flag="0"/>
    </comp>
  </station>
  <station code="SURR" name="SURR" netid="RO" insttype="Linear" lat="45.754" lon="22.1246">
    <comp name="--.HHE">
      <acc value="0.1637878536" flag="0"/>
      <vel value="0.0170771213" flag="0"/>
      <psa03 value="0.0339809336" flag="0"/>
      <psa10 value="0.0037112398" flag="0"/>
      <psa30 value="0.0004780329" flag="0"/>
    </comp>
    <comp name="--.HHN">
      <acc value="0.1525340736" flag="0"/>
      <vel value="0.0216535940" flag="0"/>
      <psa03 value="0.0477517506" flag="0"/>
      <psa10 value="0.0069555707" flag="0"/>
      <psa30 value="0.0004292787" flag="0"/>
    </comp>
    <comp name="--.HHZ">
      <acc value="0.0502695638" flag="0"/>
      <vel value="0.0077716453" flag="0"/>
      <psa03 value="0.0225992535" flag="0"/>
      <psa10 value="0.0038698049" flag="0"/>
      <psa30 value="0.0003868444" flag="0"/>
    </comp>
  </station>
  <station code="TNR" name="TNR" netid="RO" insttype="CMG40T.1to100/Quanterra" lat="45.652" lon="24.273">
    <comp name="--.HHN">
      <acc value="0.0114793534" flag="0"/>
      <vel value="0.0041338288" flag="0"/>
      <psa03 value="0.0105340246" flag="0"/>
      <psa10 value="0.0089265499" flag="0"/>
      <psa30 value="0.0005011209" flag="0"/>
    </comp>
    <comp name="--.HHE">
      <acc value="0.0296686347" flag="0"/>
      <vel value="0.0067694569" flag="0"/>
      <psa03 value="0.0145281322" flag="0"/>
      <psa10 value="0.0084746281" flag="0"/>
      <psa30 value="0.0004834082" flag="0"/>
    </comp>
    <comp name="--.HHZ">
      <acc value="0.0118622866" flag="0"/>
      <vel value="0.0028069546" flag="0"/>
      <psa03 value="0.0079496083" flag="0"/>
      <psa10 value="0.0036884208" flag="0"/>
      <psa30 value="0.0001794496" flag="0"/>
    </comp>
  </station>
</stationlist>
