<?xml version="1.0" encoding="UTF-8" standalone="yes"?>
<!DOCTYPE earthquake SYSTEM "stationlist.dtd">
<stationlist created="" xmlns="ch.ethz.sed.shakemap.usgs.xml">
  <station code="ARPRA" name="ARPRA" netid="KO" insttype="CMG-5T" lat="39.0929" lon="38.3356">
    <comp name="--.HNZ">
      <acc value="0.0119527833" flag="0"/>
      <vel value="0.0105749731" flag="0"/>
      <psa03 value="0.0484999424" flag="0"/>
      <psa10 value="0.0233592817" flag="0"/>
      <psa30 value="0.0014009642" flag="0"/>
    </comp>
    <comp name="--.HNN">
      <acc value="0.0348297680" flag="0"/>
      <vel value="0.0194994385" flag="0"/>
      <psa03 value="0.0892773985" flag="0"/>
      <psa10 value="0.0187912686" flag="0"/>
      <psa30 value="0.0016718982" flag="0"/>
    </comp>
  </station>
  <station code="DARE" name="DARE" netid="KO" insttype="CMG-3ESP" lat="38.5712" lon="37.4832">
    <comp name="--.HHE">
      <acc value="0.0102712779" flag="0"/>
      <vel value="0.0071538689" flag="0"/>
      <psa03 value="0.0307522203" flag="0"/>
      <psa10 value="0.0084036944" flag="0"/>
      <psa30 value="0.0009018138" flag="0"/>
    </comp>
    <comp name="--.HHZ">
      <acc value="0.0080778640" flag="0"/>
      <vel value="0.0076054898" flag="0"/>
      <psa03 value="0.0268752261" flag="0"/>
      <psa10 value="0.0095167594" flag="0"/>
      <psa30 value="0.0013171406" flag="0"/>
    </comp>
    <comp name="--.HHN">
      <acc value="0.0083231801" flag="0"/>
      <vel value="0.0053602620" flag="0"/>
      <psa03 value="0.0182858417" flag="0"/>
      <psa10 value="0.0086064984" flag="0"/>
      <psa30 value="0.0006214404" flag="0"/>
    </comp>
  </station>
  <station code="DYBB" name="DYBB" netid="KO" insttype="CMG-3T" lat="37.9532" lon="40.1393">
    <comp name="--.HHE">
      <acc value="0.0073551893" flag="0"/>
      <vel value="0.0075467389" flag="0"/>
      <psa03 value="0.0134624540" flag="0"/>
      <psa10 value="0.0168261676" flag="0"/>
      <psa30 value="0.0014595356" flag="0"/>
    </comp>
    <comp name="--.HHZ">
      <acc value="0.0066406528" flag="0"/>
      <vel value="0.0047813132" flag="0"/>
      <psa03 value="0.0112040453" flag="0"/>
      <psa10 value="0.0084446610" flag="0"/>
      <psa30 value="0.0014161667" flag="0"/>
    </comp>
    <comp name="--.HHN">
      <acc value="0.0088511408" flag="0"/>
      <vel value="0.0068851707" flag="0"/>
      <psa03 value="0.0142753749" flag="0"/>
      <psa10 value="0.0165162427" flag="0"/>
      <psa30 value="0.0037865737" flag="0"/>
    </comp>
  </station>
  <station code="URFA" name="URFA" netid="KO" insttype="CMG-3ESP" lat="37.4409" lon="38.8213">
    <comp name="--.HHZ">
      <acc value="0.0439332937" flag="0"/>
      <vel value="0.0122000904" flag="0"/>
      <psa03 value="0.0344002788" flag="0"/>
      <psa10 value="0.0223509989" flag="0"/>
      <psa30 value="0.0039918522" flag="0"/>
    </comp>
  </station>
</stationlist>
