<?xml version="1.0" encoding="UTF-8" standalone="yes"?>
<!DOCTYPE earthquake SYSTEM "stationlist.dtd">
<stationlist created="" xmlns="ch.ethz.sed.shakemap.usgs.xml">
  <station code="PLN1" name="PLN1" netid="HI" insttype="CMG-5TD,ACCELEROMETER,GURALP" lat="39.998" lon="23.575">
    <comp name="--.HNN">
      <acc value="0.1021674826" flag="0"/>
      <vel value="0.0570957200" flag="0"/>
      <psa03 value="0.1946198107" flag="0"/>
      <psa10 value="0.0580007725" flag="0"/>
      <psa30 value="0.0068686244" flag="0"/>
    </comp>
    <comp name="--.HNE">
      <acc value="0.0995498778" flag="0"/>
      <vel value="0.0430477992" flag="0"/>
      <psa03 value="0.2072221011" flag="0"/>
      <psa10 value="0.0545382797" flag="0"/>
      <psa30 value="0.0069962078" flag="0"/>
    </comp>
    <comp name="--.HNZ">
      <acc value="0.0981894025" flag="0"/>
      <vel value="0.0255382654" flag="0"/>
      <psa03 value="0.0919482475" flag="0"/>
      <psa10 value="0.0200807389" flag="0"/>
      <psa30 value="0.0024750221" flag="0"/>
    </comp>
  </station>
  <station code="KVLA" name="KVLA" netid="HL" insttype="CMG-5" lat="40.937" lon="24.3859">
    <comp name="00.HNN">
      <acc value="0.0567456491" flag="0"/>
      <vel value="0.0203341154" flag="0"/>
      <psa03 value="0.0944451213" flag="0"/>
      <psa10 value="0.0217930615" flag="0"/>
      <psa30 value="0.0017720276" flag="0"/>
    </comp>
    <comp name="00.HNZ">
      <acc value="0.0456133481" flag="0"/>
      <vel value="0.0188899158" flag="0"/>
      <psa03 value="0.1056444656" flag="0"/>
      <psa10 value="0.0125850194" flag="0"/>
      <psa30 value="0.0010197738" flag="0"/>
    </comp>
    <comp name="00.HNE">
      <acc value="0.1014475930" flag="0"/>
      <vel value="0.0627585442" flag="0"/>
      <psa03 value="0.3364885996" flag="0"/>
      <psa10 value="0.0347093785" flag="0"/>
      <psa30 value="0.0023809950" flag="0"/>
    </comp>
  </station>
  <station code="LIA" name="LIA" netid="HL" insttype="GMG5TD" lat="39.8972" lon="25.1806">
    <comp name="00.HNE">
      <acc value="0.0265634615" flag="0"/>
      <vel value="0.0152149751" flag="0"/>
      <psa03 value="0.0464824155" flag="0"/>
      <psa10 value="0.0144800183" flag="0"/>
      <psa30 value="0.0009185967" flag="0"/>
    </comp>
    <comp name="00.HNZ">
      <acc value="0.0218799304" flag="0"/>
      <vel value="0.0143908947" flag="0"/>
      <psa03 value="0.0426079064" flag="0"/>
      <psa10 value="0.0172751963" flag="0"/>
      <psa30 value="0.0016026651" flag="0"/>
    </comp>
    <comp name="00.HNN">
      <acc value="0.0285594996" flag="0"/>
      <vel value="0.0146619997" flag="0"/>
      <psa03 value="0.0638886774" flag="0"/>
      <psa10 value="0.0132391693" flag="0"/>
      <psa30 value="0.0026097729" flag="0"/>
    </comp>
  </station>
  <station code="PLG" name="PLG" netid="HL" insttype="120" lat="40.3733" lon="23.4444">
    <comp name="--.HHN">
      <acc value="0.1329710079" flag="0"/>
      <vel value="0.0371698596" flag="0"/>
      <psa03 value="0.1583875644" flag="0"/>
      <psa10 value="0.0162325917" flag="0"/>
      <psa30 value="0.0021611728" flag="0"/>
    </comp>
    <comp name="--.HHE">
      <acc value="0.1703645558" flag="0"/>
      <vel value="0.0486621603" flag="0"/>
      <psa03 value="0.1998989845" flag="0"/>
      <psa10 value="0.0129134744" flag="0"/>
      <psa30 value="0.0015691849" flag="0"/>
    </comp>
    <comp name="--.HHZ">
      <acc value="0.1257351404" flag="0"/>
      <vel value="0.0331362228" flag="0"/>
      <psa03 value="0.2448097569" flag="0"/>
      <psa10 value="0.0138146788" flag="0"/>
      <psa30 value="0.0011202329" flag="0"/>
    </comp>
  </station>
  <station code="PRAS" name="PRAS" netid="HL" insttype="120" lat="41.3524" lon="24.55">
    <comp name="--.HHN">
      <acc value="0.0237978754" flag="0"/>
      <vel value="0.0126221081" flag="0"/>
      <psa03 value="0.0688188377" flag="0"/>
      <psa10 value="0.0098942711" flag="0"/>
      <psa30 value="0.0018222828" flag="0"/>
    </comp>
    <comp name="--.HHZ">
      <acc value="0.0184015786" flag="0"/>
      <vel value="0.0107910141" flag="0"/>
      <psa03 value="0.0389217397" flag="0"/>
      <psa10 value="0.0120335195" flag="0"/>
      <psa30 value="0.0018527321" flag="0"/>
    </comp>
    <comp name="--.HHE">
      <acc value="0.0414033344" flag="0"/>
      <vel value="0.0143329330" flag="0"/>
      <psa03 value="0.0443352247" flag="0"/>
      <psa10 value="0.0133853231" flag="0"/>
      <psa30 value="0.0017403032" flag="0"/>
    </comp>
  </station>
  <station code="HORT" name="HORT" netid="HT" insttype="100" lat="40.5978" lon="23.0996">
    <comp name="--.HHE">
      <acc value="0.0621188401" flag="0"/>
      <vel value="0.0129233210" flag="0"/>
      <psa03 value="0.0460937160" flag="0"/>
      <psa10 value="0.0054695148" flag="0"/>
      <psa30 value="0.0008399318" flag="0"/>
    </comp>
    <comp name="--.HHN">
      <acc value="0.0000115546" flag="0"/>
      <vel value="0.0000019731" flag="0"/>
      <psa03 value="0.0000100503" flag="0"/>
      <psa10 value="0.0000017120" flag="0"/>
      <psa30 value="0.0000004096" flag="0"/>
    </comp>
    <comp name="--.HHZ">
      <acc value="0.0498173046" flag="0"/>
      <vel value="0.0079071141" flag="0"/>
      <psa03 value="0.0331425570" flag="0"/>
      <psa10 value="0.0060301493" flag="0"/>
      <psa30 value="0.0005337115" flag="0"/>
    </comp>
  </station>
  <station code="KAVA" name="KAVA" netid="HT" insttype="Compact," lat="40.9967" lon="24.5137">
    <comp name="--.HHE">
      <acc value="0.1567253380" flag="0"/>
      <vel value="0.0957671090" flag="0"/>
      <psa03 value="0.3194939507" flag="0"/>
      <psa10 value="0.1062334205" flag="0"/>
      <psa30 value="0.0066279944" flag="0"/>
    </comp>
    <comp name="--.HHZ">
      <acc value="0.1257107467" flag="0"/>
      <vel value="0.0493312428" flag="0"/>
      <psa03 value="0.2566457895" flag="0"/>
      <psa10 value="0.0611385533" flag="0"/>
      <psa30 value="0.0043521670" flag="0"/>
    </comp>
    <comp name="--.HHN">
      <acc value="0.1984114048" flag="0"/>
      <vel value="0.0536852691" flag="0"/>
      <psa03 value="0.2587776974" flag="0"/>
      <psa10 value="0.0208287638" flag="0"/>
      <psa30 value="0.0033930342" flag="0"/>
    </comp>
  </station>
  <station code="KOKK" name="KOKK" netid="HT" insttype="Compact," lat="40.8178" lon="23.9992">
    <comp name="--.HHE">
      <acc value="0.0896132254" flag="0"/>
      <vel value="0.0260830603" flag="0"/>
      <psa03 value="0.1365236872" flag="0"/>
      <psa10 value="0.0113406847" flag="0"/>
      <psa30 value="0.0006675060" flag="0"/>
    </comp>
    <comp name="--.HHZ">
      <acc value="0.0553426659" flag="0"/>
      <vel value="0.0124844063" flag="0"/>
      <psa03 value="0.0544069174" flag="0"/>
      <psa10 value="0.0069469799" flag="0"/>
      <psa30 value="0.0006832839" flag="0"/>
    </comp>
    <comp name="--.HHN">
      <acc value="0.0819026198" flag="0"/>
      <vel value="0.0249116778" flag="0"/>
      <psa03 value="0.1159849601" flag="0"/>
      <psa10 value="0.0134061074" flag="0"/>
      <psa30 value="0.0009195411" flag="0"/>
    </comp>
  </station>
  <station code="OUR" name="OUR" netid="HT" insttype="100" lat="40.3325" lon="23.9791">
    <comp name="--.HHE">
      <acc value="0.8723008560" flag="0"/>
      <vel value="0.2591691132" flag="0"/>
      <psa03 value="0.9432835033" flag="0"/>
      <psa10 value="0.1568669448" flag="0"/>
      <psa30 value="0.0154724454" flag="0"/>
    </comp>
    <comp name="--.HHN">
      <acc value="1.7274458008" flag="0"/>
      <vel value="0.5058039410" flag="0"/>
      <psa03 value="1.7461472036" flag="0"/>
      <psa10 value="0.4631620004" flag="0"/>
      <psa30 value="0.0278576058" flag="0"/>
    </comp>
    <comp name="--.HHZ">
      <acc value="0.7843702591" flag="0"/>
      <vel value="0.1600458085" flag="0"/>
      <psa03 value="0.8036269111" flag="0"/>
      <psa10 value="0.0982846678" flag="0"/>
      <psa30 value="0.0077848058" flag="0"/>
    </comp>
  </station>
  <station code="PAIG" name="PAIG" netid="HT" insttype="100" lat="39.9363" lon="23.6768">
    <comp name="--.HHE">
      <acc value="0.1239197657" flag="0"/>
      <vel value="0.0316678336" flag="0"/>
      <psa03 value="0.1426818425" flag="0"/>
      <psa10 value="0.0249855807" flag="0"/>
      <psa30 value="0.0026866787" flag="0"/>
    </comp>
    <comp name="--.HHZ">
      <acc value="0.0931416403" flag="0"/>
      <vel value="0.0177327339" flag="0"/>
      <psa03 value="0.0998362231" flag="0"/>
      <psa10 value="0.0157107957" flag="0"/>
      <psa30 value="0.0029745611" flag="0"/>
    </comp>
    <comp name="--.HHN">
      <acc value="0.1323096782" flag="0"/>
      <vel value="0.0319489770" flag="0"/>
      <psa03 value="0.1585472390" flag="0"/>
      <psa10 value="0.0234587371" flag="0"/>
      <psa30 value="0.0022672709" flag="0"/>
    </comp>
  </station>
  <station code="SOH" name="SOH" netid="HT" insttype="120P," lat="40.8217" lon="23.3539">
    <comp name="--.HHN">
      <acc value="0.0679717672" flag="0"/>
      <vel value="0.0270760603" flag="0"/>
      <psa03 value="0.2147991515" flag="0"/>
      <psa10 value="0.0157559512" flag="0"/>
      <psa30 value="0.0025989247" flag="0"/>
    </comp>
    <comp name="--.HHZ">
      <acc value="0.0609043368" flag="0"/>
      <vel value="0.0242677953" flag="0"/>
      <psa03 value="0.1486940319" flag="0"/>
      <psa10 value="0.0186023727" flag="0"/>
      <psa30 value="0.0015501214" flag="0"/>
    </comp>
    <comp name="--.HHE">
      <acc value="0.0947120922" flag="0"/>
      <vel value="0.0353493726" flag="0"/>
      <psa03 value="0.1874902794" flag="0"/>
      <psa10 value="0.0533752160" flag="0"/>
      <psa30 value="0.0032273921" flag="0"/>
    </comp>
  </station>
  <station code="THAS" name="THAS" netid="HT" insttype="100" lat="40.6064" lon="24.7194">
    <comp name="--.HHE">
      <acc value="0.2276537542" flag="0"/>
      <vel value="0.1117454385" flag="0"/>
      <psa03 value="0.4421188548" flag="0"/>
      <psa10 value="0.0602557017" flag="0"/>
      <psa30 value="0.0039058790" flag="0"/>
    </comp>
    <comp name="--.HHN">
      <acc value="0.2686926263" flag="0"/>
      <vel value="0.0923546049" flag="0"/>
      <psa03 value="0.6916027980" flag="0"/>
      <psa10 value="0.0405940286" flag="0"/>
      <psa30 value="0.0030885695" flag="0"/>
    </comp>
    <comp name="--.HHZ">
      <acc value="0.1780129787" flag="0"/>
      <vel value="0.0498623553" flag="0"/>
      <psa03 value="0.3753071051" flag="0"/>
      <psa10 value="0.0371387503" flag="0"/>
      <psa30 value="0.0017859645" flag="0"/>
    </comp>
  </station>
  <station code="THE" name="THE" netid="HT" insttype="30s-100Hz," lat="40.6319" lon="22.9628">
    <comp name="--.HHN">
      <acc value="0.0167613390" flag="0"/>
      <vel value="0.0066855868" flag="0"/>
      <psa03 value="0.0205485043" flag="0"/>
      <psa10 value="0.0112884308" flag="0"/>
      <psa30 value="0.0008936881" flag="0"/>
    </comp>
    <comp name="--.HHE">
      <acc value="0.0201342860" flag="0"/>
      <vel value="0.0069091146" flag="0"/>
      <psa03 value="0.0222151941" flag="0"/>
      <psa10 value="0.0066856941" flag="0"/>
      <psa30 value="0.0008270429" flag="0"/>
    </comp>
    <comp name="--.HHZ">
      <acc value="0.0143455291" flag="0"/>
      <vel value="0.0037562785" flag="0"/>
      <psa03 value="0.0128957030" flag="0"/>
      <psa10 value="0.0073703005" flag="0"/>
      <psa30 value="0.0004656102" flag="0"/>
    </comp>
  </station>
</stationlist>
