<?xml version="1.0" encoding="UTF-8" standalone="yes"?>
<!DOCTYPE earthquake SYSTEM "stationlist.dtd">
<stationlist created="" xmlns="ch.ethz.sed.shakemap.usgs.xml">
  <station code="GAZ" name="GAZ" netid="KO" insttype="CMG-3T" lat="37.1721" lon="37.2096">
    <comp name="--.HHN">
      <acc value="0.0276186781" flag="0"/>
      <vel value="0.0132694847" flag="0"/>
      <psa03 value="0.0518480478" flag="0"/>
      <psa10 value="0.0171528234" flag="0"/>
      <psa30 value="0.0013991966" flag="0"/>
    </comp>
    <comp name="--.HHZ">
      <acc value="0.0283818703" flag="0"/>
      <vel value="0.0085607975" flag="0"/>
      <psa03 value="0.0372564352" flag="0"/>
      <psa10 value="0.0093832297" flag="0"/>
      <psa30 value="0.0021238649" flag="0"/>
    </comp>
    <comp name="--.HHE">
      <acc value="0.0504502258" flag="0"/>
      <vel value="0.0143958632" flag="0"/>
      <psa03 value="0.0505261428" flag="0"/>
      <psa10 value="0.0148863025" flag="0"/>
      <psa30 value="0.0019137587" flag="0"/>
    </comp>
  </station>
  <station code="KHMN" name="KHMN" netid="KO" insttype="CMG-5T" lat="37.3916" lon="37.1574">
    <comp name="--.HNE">
      <acc value="0.2301683308" flag="0"/>
      <vel value="0.0712470153" flag="0"/>
      <psa03 value="0.1725027718" flag="0"/>
      <psa10 value="0.0323735736" flag="0"/>
      <psa30 value="0.0100323956" flag="0"/>
    </comp>
    <comp name="--.HNZ">
      <acc value="0.2266890703" flag="0"/>
      <vel value="0.0508767013" flag="0"/>
      <psa03 value="0.1077748718" flag="0"/>
      <psa10 value="0.0194874618" flag="0"/>
      <psa30 value="0.0030485185" flag="0"/>
    </comp>
    <comp name="--.HNN">
      <acc value="0.2969576092" flag="0"/>
      <vel value="0.0537474017" flag="0"/>
      <psa03 value="0.2663861266" flag="0"/>
      <psa10 value="0.0221261232" flag="0"/>
      <psa30 value="0.0059878618" flag="0"/>
    </comp>
  </station>
  <station code="ANDN" name="ANDN" netid="TU" insttype="T" lat="37.58" lon="36.3452">
    <comp name="--.HHE">
      <acc value="0.0699580742" flag="0"/>
      <vel value="0.0182021877" flag="0"/>
      <psa03 value="0.1000417907" flag="0"/>
      <psa10 value="0.0099838791" flag="0"/>
      <psa30 value="0.0016892842" flag="0"/>
    </comp>
    <comp name="--.HHZ">
      <acc value="0.0402077206" flag="0"/>
      <vel value="0.0150462593" flag="0"/>
      <psa03 value="0.0607805487" flag="0"/>
      <psa10 value="0.0123701038" flag="0"/>
      <psa30 value="0.0019522203" flag="0"/>
    </comp>
    <comp name="--.HHN">
      <acc value="0.1041537636" flag="0"/>
      <vel value="0.0242525013" flag="0"/>
      <psa03 value="0.1127043786" flag="0"/>
      <psa10 value="0.0133116500" flag="0"/>
      <psa30 value="0.0025961981" flag="0"/>
    </comp>
  </station>
</stationlist>
