<?xml version="1.0" encoding="UTF-8" standalone="yes"?>
<!DOCTYPE earthquake SYSTEM "stationlist.dtd">
<stationlist created="" xmlns="ch.ethz.sed.shakemap.usgs.xml">
  <station code="PHP" name="PHP" netid="AC" insttype="" lat="41.6847" lon="20.4408">
    <comp name="--.HHE">
      <acc value="0.0711074109" flag="0"/>
      <vel value="0.0094139572" flag="0"/>
      <psa03 value="0.0419418264" flag="0"/>
      <psa10 value="0.0061133304" flag="0"/>
      <psa30 value="0.0004607744" flag="0"/>
    </comp>
    <comp name="--.HHN">
      <acc value="0.0151253243" flag="0"/>
      <vel value="0.0061018185" flag="0"/>
      <psa03 value="0.0481806356" flag="0"/>
      <psa10 value="0.0086077469" flag="0"/>
      <psa30 value="0.0006741402" flag="0"/>
    </comp>
    <comp name="--.HHZ">
      <acc value="0.0122000893" flag="0"/>
      <vel value="0.0038976365" flag="0"/>
      <psa03 value="0.0253172113" flag="0"/>
      <psa10 value="0.0039895703" flag="0"/>
      <psa30 value="0.0003756393" flag="0"/>
    </comp>
  </station>
  <station code="PUK" name="PUK" netid="AC" insttype="" lat="42.0426" lon="19.8926">
    <comp name="--.HHE">
      <acc value="0.1317224906" flag="0"/>
      <vel value="0.0376297388" flag="0"/>
      <psa03 value="0.1765336908" flag="0"/>
      <psa10 value="0.0104895321" flag="0"/>
      <psa30 value="0.0009766957" flag="0"/>
    </comp>
    <comp name="--.HHN">
      <acc value="0.1635733246" flag="0"/>
      <vel value="0.0440517076" flag="0"/>
      <psa03 value="0.1155724549" flag="0"/>
      <psa10 value="0.0114476797" flag="0"/>
      <psa30 value="0.0007021400" flag="0"/>
    </comp>
    <comp name="--.HHZ">
      <acc value="0.0968155206" flag="0"/>
      <vel value="0.0164343148" flag="0"/>
      <psa03 value="0.0547491686" flag="0"/>
      <psa10 value="0.0042716273" flag="0"/>
      <psa30 value="0.0002511063" flag="0"/>
    </comp>
  </station>
  <station code="PDG" name="PDG" netid="MN" insttype="" lat="42.4297" lon="19.2608">
    <comp name="--.HHE">
      <acc value="0.0623342130" flag="0"/>
      <vel value="0.0195110870" flag="0"/>
      <psa03 value="0.1166502224" flag="0"/>
      <psa10 value="0.0074429753" flag="0"/>
      <psa30 value="0.0005482846" flag="0"/>
    </comp>
    <comp name="--.HHN">
      <acc value="0.0647538860" flag="0"/>
      <vel value="0.0350693245" flag="0"/>
      <psa03 value="0.1296559576" flag="0"/>
      <psa10 value="0.0199807730" flag="0"/>
      <psa30 value="0.0015897332" flag="0"/>
    </comp>
    <comp name="--.HHZ">
      <acc value="0.0420437952" flag="0"/>
      <vel value="0.0237108614" flag="0"/>
      <psa03 value="0.1153144291" flag="0"/>
      <psa10 value="0.0138729970" flag="0"/>
      <psa30 value="0.0009448834" flag="0"/>
    </comp>
  </station>
  <station code="TIR" name="TIR" netid="MN" insttype="" lat="41.3472" lon="19.8631">
    <comp name="--.HHE">
      <acc value="0.0100962898" flag="0"/>
      <vel value="0.0043392778" flag="0"/>
      <psa03 value="0.0258478996" flag="0"/>
      <psa10 value="0.0052985487" flag="0"/>
      <psa30 value="0.0004754200" flag="0"/>
    </comp>
    <comp name="--.HHN">
      <acc value="0.0104545772" flag="0"/>
      <vel value="0.0044976820" flag="0"/>
      <psa03 value="0.0212939647" flag="0"/>
      <psa10 value="0.0048944481" flag="0"/>
      <psa30 value="0.0004140631" flag="0"/>
    </comp>
    <comp name="--.HHZ">
      <acc value="0.0076002089" flag="0"/>
      <vel value="0.0051381830" flag="0"/>
      <psa03 value="0.0194027682" flag="0"/>
      <psa10 value="0.0041935267" flag="0"/>
      <psa30 value="0.0003307390" flag="0"/>
    </comp>
  </station>
</stationlist>
