<?xml version="1.0" encoding="UTF-8" standalone="yes"?>
<!DOCTYPE earthquake SYSTEM "stationlist.dtd">
<stationlist created="" xmlns="ch.ethz.sed.shakemap.usgs.xml">
  <station code="PHP" name="PHP" netid="AC" insttype="" lat="41.6847" lon="20.4408">
    <comp name="--.HHE">
      <acc value="0.0711074107" flag="0"/>
      <vel value="0.0094139662" flag="0"/>
      <psa03 value="0.0419418264" flag="0"/>
      <psa10 value="0.0061133277" flag="0"/>
      <psa30 value="0.0004607981" flag="0"/>
    </comp>
    <comp name="--.HHN">
      <acc value="0.0151253243" flag="0"/>
      <vel value="0.0061018179" flag="0"/>
      <psa03 value="0.0481806356" flag="0"/>
      <psa10 value="0.0086077469" flag="0"/>
      <psa30 value="0.0006740771" flag="0"/>
    </comp>
    <comp name="--.HHZ">
      <acc value="0.0122000894" flag="0"/>
      <vel value="0.0038976364" flag="0"/>
      <psa03 value="0.0253172113" flag="0"/>
      <psa10 value="0.0039895703" flag="0"/>
      <psa30 value="0.0003756546" flag="0"/>
    </comp>
  </station>
  <station code="PUK" name="PUK" netid="AC" insttype="" lat="42.0426" lon="19.8926">
    <comp name="--.HHN">
      <acc value="0.1635733247" flag="0"/>
      <vel value="0.0440517076" flag="0"/>
      <psa03 value="0.1155724549" flag="0"/>
      <psa10 value="0.0114476795" flag="0"/>
      <psa30 value="0.0007021911" flag="0"/>
    </comp>
    <comp name="--.HHE">
      <acc value="0.1317224906" flag="0"/>
      <vel value="0.0376297390" flag="0"/>
      <psa03 value="0.1765336908" flag="0"/>
      <psa10 value="0.0104895326" flag="0"/>
      <psa30 value="0.0009768391" flag="0"/>
    </comp>
    <comp name="--.HHZ">
      <acc value="0.0968155205" flag="0"/>
      <vel value="0.0164343148" flag="0"/>
      <psa03 value="0.0547491686" flag="0"/>
      <psa10 value="0.0042716273" flag="0"/>
      <psa30 value="0.0002510696" flag="0"/>
    </comp>
  </station>
  <station code="PDG" name="PDG" netid="MN" insttype="" lat="42.4297" lon="19.2608">
    <comp name="--.HHE">
      <acc value="0.0623342130" flag="0"/>
      <vel value="0.0195110857" flag="0"/>
      <psa03 value="0.1166502224" flag="0"/>
      <psa10 value="0.0074429752" flag="0"/>
      <psa30 value="0.0005480654" flag="0"/>
    </comp>
    <comp name="--.HHN">
      <acc value="0.0647538860" flag="0"/>
      <vel value="0.0350693237" flag="0"/>
      <psa03 value="0.1296559576" flag="0"/>
      <psa10 value="0.0199807732" flag="0"/>
      <psa30 value="0.0015898843" flag="0"/>
    </comp>
    <comp name="--.HHZ">
      <acc value="0.0420437950" flag="0"/>
      <vel value="0.0237108605" flag="0"/>
      <psa03 value="0.1153144291" flag="0"/>
      <psa10 value="0.0138729970" flag="0"/>
      <psa30 value="0.0009449477" flag="0"/>
    </comp>
  </station>
  <station code="TIR" name="TIR" netid="MN" insttype="" lat="41.3472" lon="19.8631">
    <comp name="--.HHE">
      <acc value="0.0100962896" flag="0"/>
      <vel value="0.0043392763" flag="0"/>
      <psa03 value="0.0258478996" flag="0"/>
      <psa10 value="0.0052985487" flag="0"/>
      <psa30 value="0.0004754148" flag="0"/>
    </comp>
    <comp name="--.HHN">
      <acc value="0.0104545775" flag="0"/>
      <vel value="0.0044976809" flag="0"/>
      <psa03 value="0.0212939647" flag="0"/>
      <psa10 value="0.0048944481" flag="0"/>
      <psa30 value="0.0004140876" flag="0"/>
    </comp>
    <comp name="--.HHZ">
      <acc value="0.0076002089" flag="0"/>
      <vel value="0.0051381822" flag="0"/>
      <psa03 value="0.0194027682" flag="0"/>
      <psa10 value="0.0041935267" flag="0"/>
      <psa30 value="0.0003307534" flag="0"/>
    </comp>
  </station>
</stationlist>
