<?xml version="1.0" encoding="UTF-8" standalone="yes"?>
<!DOCTYPE earthquake SYSTEM "stationlist.dtd">
<stationlist created="" xmlns="ch.ethz.sed.shakemap.usgs.xml">
  <station code="WDD" name="WDD" netid="MN" insttype="" lat="35.8373" lon="14.5242">
    <comp name="--.HHE">
      <acc value="0.0323526255" flag="0"/>
      <vel value="0.0124807908" flag="0"/>
      <psa03 value="0.0488165309" flag="0"/>
      <psa10 value="0.0136389508" flag="0"/>
      <psa30 value="0.0013102249" flag="0"/>
    </comp>
    <comp name="--.HHZ">
      <acc value="0.0271211204" flag="0"/>
      <vel value="0.0068478064" flag="0"/>
      <psa03 value="0.0388801795" flag="0"/>
      <psa10 value="0.0070764904" flag="0"/>
      <psa30 value="0.0004041512" flag="0"/>
    </comp>
    <comp name="--.HHN">
      <acc value="0.0312144797" flag="0"/>
      <vel value="0.0109361313" flag="0"/>
      <psa03 value="0.0410753109" flag="0"/>
      <psa10 value="0.0074394639" flag="0"/>
      <psa30 value="0.0010122499" flag="0"/>
    </comp>
  </station>
</stationlist>
