<?xml version="1.0" encoding="UTF-8" standalone="yes"?>
<!DOCTYPE earthquake SYSTEM "stationlist.dtd">
<stationlist created="" xmlns="ch.ethz.sed.shakemap.usgs.xml">
  <station code="CROCE" name="CROCE" netid="IV" insttype="" lat="36.8326" lon="14.5345">
    <comp name="--.HHN">
      <acc value="0.0537785933" flag="0"/>
      <vel value="0.0271558136" flag="0"/>
      <psa03 value="0.1317189796" flag="0"/>
      <psa10 value="0.0228618622" flag="0"/>
      <psa30 value="0.0021500545" flag="0"/>
    </comp>
    <comp name="--.HHE">
      <acc value="0.1351581675" flag="0"/>
      <vel value="0.0756367663" flag="0"/>
      <psa03 value="0.3946527934" flag="0"/>
      <psa10 value="0.0428012343" flag="0"/>
      <psa30 value="0.0042792845" flag="0"/>
    </comp>
    <comp name="--.HHZ">
      <acc value="0.0690703270" flag="0"/>
      <vel value="0.0156629150" flag="0"/>
      <psa03 value="0.0518038283" flag="0"/>
      <psa10 value="0.0160977185" flag="0"/>
      <psa30 value="0.0014298965" flag="0"/>
    </comp>
  </station>
  <station code="HAVL" name="HAVL" netid="IV" insttype="" lat="36.9596" lon="15.122">
    <comp name="--.HHE">
      <acc value="0.0340342825" flag="0"/>
      <vel value="0.0129821824" flag="0"/>
      <psa03 value="0.0913709516" flag="0"/>
      <psa10 value="0.0085883028" flag="0"/>
      <psa30 value="0.0014101085" flag="0"/>
    </comp>
    <comp name="--.HHN">
      <acc value="0.0440639988" flag="0"/>
      <vel value="0.0174218802" flag="0"/>
      <psa03 value="0.1414830230" flag="0"/>
      <psa10 value="0.0101192965" flag="0"/>
      <psa30 value="0.0011076252" flag="0"/>
    </comp>
    <comp name="--.HHZ">
      <acc value="0.0256874898" flag="0"/>
      <vel value="0.0090839464" flag="0"/>
      <psa03 value="0.0481667286" flag="0"/>
      <psa10 value="0.0071847563" flag="0"/>
      <psa30 value="0.0006610444" flag="0"/>
    </comp>
  </station>
  <station code="HMDC" name="HMDC" netid="IV" insttype="" lat="36.959" lon="14.7831">
    <comp name="--.HHE">
      <acc value="0.0077381635" flag="0"/>
      <vel value="0.0031426981" flag="0"/>
      <psa03 value="0.0168453761" flag="0"/>
      <psa10 value="0.0035349514" flag="0"/>
      <psa30 value="0.0002541740" flag="0"/>
    </comp>
    <comp name="--.HHN">
      <acc value="0.0644427903" flag="0"/>
      <vel value="0.0266275079" flag="0"/>
      <psa03 value="0.1464244350" flag="0"/>
      <psa10 value="0.0187273042" flag="0"/>
      <psa30 value="0.0013090638" flag="0"/>
    </comp>
    <comp name="--.HHZ">
      <acc value="0.0321985670" flag="0"/>
      <vel value="0.0099285469" flag="0"/>
      <psa03 value="0.0693105966" flag="0"/>
      <psa10 value="0.0103236088" flag="0"/>
      <psa30 value="0.0008949403" flag="0"/>
    </comp>
  </station>
  <station code="HVZN" name="HVZN" netid="IV" insttype="" lat="37.1783" lon="14.7155">
    <comp name="--.HHE">
      <acc value="0.0459777758" flag="0"/>
      <vel value="0.0336840556" flag="0"/>
      <psa03 value="0.1019538019" flag="0"/>
      <psa10 value="0.0565058164" flag="0"/>
      <psa30 value="0.0029037611" flag="0"/>
    </comp>
    <comp name="--.HHN">
      <acc value="0.0435328712" flag="0"/>
      <vel value="0.0231136944" flag="0"/>
      <psa03 value="0.1479316207" flag="0"/>
      <psa10 value="0.0254692137" flag="0"/>
      <psa30 value="0.0013853677" flag="0"/>
    </comp>
    <comp name="--.HHZ">
      <acc value="0.0319991346" flag="0"/>
      <vel value="0.0171351115" flag="0"/>
      <psa03 value="0.0852070909" flag="0"/>
      <psa10 value="0.0204183226" flag="0"/>
      <psa30 value="0.0013125222" flag="0"/>
    </comp>
  </station>
</stationlist>
