<?xml version="1.0" encoding="UTF-8" standalone="yes"?>
<!DOCTYPE earthquake SYSTEM "stationlist.dtd">
<stationlist created="" xmlns="ch.ethz.sed.shakemap.usgs.xml">
  <station code="CROCE" name="CROCE" netid="IV" insttype="" lat="36.8326" lon="14.5345">
    <comp name="--.HHE">
      <acc value="0.1351581680" flag="0"/>
      <vel value="0.0756367786" flag="0"/>
      <psa03 value="0.3946527934" flag="0"/>
      <psa10 value="0.0428012266" flag="0"/>
      <psa30 value="0.0042790173" flag="0"/>
    </comp>
    <comp name="--.HHN">
      <acc value="0.0537785935" flag="0"/>
      <vel value="0.0271558595" flag="0"/>
      <psa03 value="0.1317189797" flag="0"/>
      <psa10 value="0.0228618641" flag="0"/>
      <psa30 value="0.0021491678" flag="0"/>
    </comp>
    <comp name="--.HHZ">
      <acc value="0.0690703265" flag="0"/>
      <vel value="0.0156629050" flag="0"/>
      <psa03 value="0.0518038283" flag="0"/>
      <psa10 value="0.0160977181" flag="0"/>
      <psa30 value="0.0014286766" flag="0"/>
    </comp>
  </station>
  <station code="HMDC" name="HMDC" netid="IV" insttype="" lat="36.959" lon="14.7831">
    <comp name="--.HHE">
      <acc value="0.0077381664" flag="0"/>
      <vel value="0.0031426982" flag="0"/>
      <psa03 value="0.0168453761" flag="0"/>
      <psa10 value="0.0035349514" flag="0"/>
      <psa30 value="0.0002541991" flag="0"/>
    </comp>
    <comp name="--.HHZ">
      <acc value="0.0321985674" flag="0"/>
      <vel value="0.0099285379" flag="0"/>
      <psa03 value="0.0693105966" flag="0"/>
      <psa10 value="0.0103236088" flag="0"/>
      <psa30 value="0.0008950691" flag="0"/>
    </comp>
    <comp name="--.HHN">
      <acc value="0.0644427905" flag="0"/>
      <vel value="0.0266275093" flag="0"/>
      <psa03 value="0.1464244350" flag="0"/>
      <psa10 value="0.0187273043" flag="0"/>
      <psa30 value="0.0013090973" flag="0"/>
    </comp>
  </station>
</stationlist>
