<stationlist created="1661950816">
	<station code="KRL1" name="KRL1" netid="HI" source="ITSAK Strong Motion Network" insttype="" lat="37.7951" lon="26.7065">
		<comp name=".HNE" depth="0.0">
			<acc value="1.70580357434" flag="0"/>
			<vel value="0.54243964985" flag="0"/>
			<psa03 value="2.16832197402" flag="0"/>
			<psa10 value="0.264555935532" flag="0"/>
			<psa30 value="0.0386410164444" flag="0"/>
		</comp>
		<comp name=".HNN" depth="0.0">
			<acc value="0.909281134698" flag="0"/>
			<vel value="0.38230779796" flag="0"/>
			<psa03 value="1.46607362018" flag="0"/>
			<psa10 value="0.368846864295" flag="0"/>
			<psa30 value="0.0264097178475" flag="0"/>
		</comp>
		<comp name=".HNZ" depth="0.0">
			<acc value="0.411119724597" flag="0"/>
			<vel value="0.211278279" flag="0"/>
			<psa03 value="0.788369058915" flag="0"/>
			<psa10 value="0.169507944069" flag="0"/>
			<psa30 value="0.0298023009228" flag="0"/>
		</comp>
	</station>
	<station code="MYT1" name="MYT1" netid="HI" source="ITSAK Strong Motion Network" insttype="" lat="39.085" lon="26.5694">
		<comp name=".HNE" depth="0.0">
			<acc value="0.0143157953867" flag="0"/>
			<vel value="0.0196127219573" flag="0"/>
			<psa03 value="0.0292330328991" flag="0"/>
			<psa10 value="0.035292455452" flag="0"/>
			<psa30 value="0.00665674847692" flag="0"/>
		</comp>
		<comp name=".HNN" depth="0.0">
			<acc value="0.0142295193006" flag="0"/>
			<vel value="0.0160809024336" flag="0"/>
			<psa03 value="0.0270493335522" flag="0"/>
			<psa10 value="0.0270866924854" flag="0"/>
			<psa30 value="0.00441684759447" flag="0"/>
		</comp>
		<comp name=".HNZ" depth="0.0">
			<acc value="0.0102124443581" flag="0"/>
			<vel value="0.0163592417478" flag="0"/>
			<psa03 value="0.0214927193601" flag="0"/>
			<psa10 value="0.0142210470746" flag="0"/>
			<psa30 value="0.00399230363719" flag="0"/>
		</comp>
	</station>
	<station code="NAX1" name="NAX1" netid="HI" source="ITSAK Strong Motion Network" insttype="" lat="37.101394" lon="25.374103">
		<comp name=".HNE" depth="0.0">
			<acc value="0.0321565756886" flag="0"/>
			<vel value="0.00999503434144" flag="0"/>
			<psa03 value="0.0709745767172" flag="0"/>
			<psa10 value="0.0185975269949" flag="0"/>
			<psa30 value="0.00277986394401" flag="0"/>
		</comp>
		<comp name=".HNN" depth="0.0">
			<acc value="0.0377465352261" flag="0"/>
			<vel value="0.0155272370279" flag="0"/>
			<psa03 value="0.0735645399565" flag="0"/>
			<psa10 value="0.0185595913569" flag="0"/>
			<psa30 value="0.00445371045313" flag="0"/>
		</comp>
		<comp name=".HNZ" depth="0.0">
			<acc value="0.0210798488231" flag="0"/>
			<vel value="0.0107263688423" flag="0"/>
			<psa03 value="0.0608932526291" flag="0"/>
			<psa10 value="0.00890746820104" flag="0"/>
			<psa30 value="0.0018611507921" flag="0"/>
		</comp>
	</station>
	<station code="KLNA" name="KLNA" netid="HL" source="National Observatory of Athens Seismic Network" insttype="" lat="36.95708" lon="26.97274">
		<comp name="00.HNE" depth="0.0">
			<acc value="0.603669705858" flag="0"/>
			<vel value="0.233349771304" flag="0"/>
			<psa03 value="2.79060003022" flag="0"/>
			<psa10 value="0.0905942114218" flag="0"/>
			<psa30 value="0.010417385934" flag="0"/>
		</comp>
		<comp name="00.HNN" depth="0.0">
			<acc value="0.747963793679" flag="0"/>
			<vel value="0.276084004002" flag="0"/>
			<psa03 value="2.05989795813" flag="0"/>
			<psa10 value="0.216920189898" flag="0"/>
			<psa30 value="0.00990587621569" flag="0"/>
		</comp>
		<comp name="00.HNZ" depth="0.0">
			<acc value="0.721111162998" flag="0"/>
			<vel value="0.240918149655" flag="0"/>
			<psa03 value="0.83040534361" flag="0"/>
			<psa10 value="0.150423004786" flag="0"/>
			<psa30 value="0.00872046102106" flag="0"/>
		</comp>
	</station>
	<station code="NISR" name="NISR" netid="HL" source="National Observatory of Athens Seismic Network" insttype="" lat="36.6106" lon="27.131">
		<comp name=".HNE" depth="0.0">
			<acc value="0.0825510680758" flag="0"/>
			<vel value="0.0391206012009" flag="0"/>
			<psa03 value="0.215973494684" flag="0"/>
			<psa10 value="0.0444628629463" flag="0"/>
			<psa30 value="0.00895029207957" flag="0"/>
		</comp>
		<comp name=".HNN" depth="0.0">
			<acc value="0.0535591395867" flag="0"/>
			<vel value="0.0311239360716" flag="0"/>
			<psa03 value="0.154840997039" flag="0"/>
			<psa10 value="0.0360019949555" flag="0"/>
			<psa30 value="0.00965239442377" flag="0"/>
		</comp>
		<comp name=".HNZ" depth="0.0">
			<acc value="0.0222002116266" flag="0"/>
			<vel value="0.0208696974689" flag="0"/>
			<psa03 value="0.0800134046619" flag="0"/>
			<psa10 value="0.0333411486875" flag="0"/>
			<psa30 value="0.00317431403273" flag="0"/>
		</comp>
	</station>
	<station code="PRK" name="PRK" netid="HL" source="National Observatory of Athens Seismic Network" insttype="" lat="39.24565" lon="26.26499">
		<comp name=".HNE" depth="0.0">
			<acc value="0.0155800893919" flag="0"/>
			<vel value="0.0228771374415" flag="0"/>
			<psa03 value="0.0388100996245" flag="0"/>
			<psa10 value="0.0413422212191" flag="0"/>
			<psa30 value="0.00469139369846" flag="0"/>
		</comp>
		<comp name=".HNN" depth="0.0">
			<acc value="0.0215726332306" flag="0"/>
			<vel value="0.0198579002139" flag="0"/>
			<psa03 value="0.0466259793673" flag="0"/>
			<psa10 value="0.0374506071689" flag="0"/>
			<psa30 value="0.00342031678753" flag="0"/>
		</comp>
		<comp name=".HNZ" depth="0.0">
			<acc value="0.0115704770098" flag="0"/>
			<vel value="0.0140089594498" flag="0"/>
			<psa03 value="0.0326196634968" flag="0"/>
			<psa10 value="0.00941705383359" flag="0"/>
			<psa30 value="0.00310030788018" flag="0"/>
		</comp>
	</station>
	<station code="RODB" name="RODB" netid="HL" source="National Observatory of Athens Seismic Network" insttype="" lat="36.4471" lon="28.22116">
		<comp name="00.HNE" depth="0.0">
			<acc value="0.0283490963717" flag="0"/>
			<vel value="0.0351697841763" flag="0"/>
			<psa03 value="0.0981817644769" flag="0"/>
			<psa10 value="0.0417647129571" flag="0"/>
			<psa30 value="0.0109724327032" flag="0"/>
		</comp>
		<comp name="00.HNN" depth="0.0">
			<acc value="0.026308723928" flag="0"/>
			<vel value="0.0248034752021" flag="0"/>
			<psa03 value="0.0932436977708" flag="0"/>
			<psa10 value="0.0390683218346" flag="0"/>
			<psa30 value="0.0116749084054" flag="0"/>
		</comp>
		<comp name="00.HNZ" depth="0.0">
			<acc value="0.015212060194" flag="0"/>
			<vel value="0.0156297442359" flag="0"/>
			<psa03 value="0.0634464582248" flag="0"/>
			<psa10 value="0.0230642116408" flag="0"/>
			<psa30 value="0.00479981504751" flag="0"/>
		</comp>
	</station>
	<station code="SMG" name="SMG" netid="HL" source="National Observatory of Athens Seismic Network" insttype="" lat="37.70425" lon="26.83772">
		<comp name="00.HNE" depth="0.0">
			<acc value="1.68893650371" flag="0"/>
			<vel value="0.540898982248" flag="0"/>
			<psa03 value="4.98656466877" flag="0"/>
			<psa10 value="0.301058213629" flag="0"/>
			<psa30 value="0.0289595550951" flag="0"/>
		</comp>
		<comp name="00.HNN" depth="0.0">
			<acc value="2.8680435018" flag="0"/>
			<vel value="0.864717835842" flag="0"/>
			<psa03 value="3.61023016003" flag="0"/>
			<psa10 value="0.20737159235" flag="0"/>
			<psa30 value="0.0478984630379" flag="0"/>
		</comp>
		<comp name="00.HNZ" depth="0.0">
			<acc value="1.45827674014" flag="0"/>
			<vel value="0.436122272242" flag="0"/>
			<psa03 value="1.8475320566" flag="0"/>
			<psa10 value="0.153602195392" flag="0"/>
			<psa30 value="0.0254122334357" flag="0"/>
		</comp>
	</station>
	<station code="THRA" name="THRA" netid="HL" source="National Observatory of Athens Seismic Network" insttype="" lat="36.41502" lon="25.43244">
		<comp name="00.HNE" depth="0.0">
			<acc value="0.0622151054986" flag="0"/>
			<vel value="0.0856042533097" flag="0"/>
			<psa03 value="0.160999738359" flag="0"/>
			<psa10 value="0.139291367369" flag="0"/>
			<psa30 value="0.0104828327696" flag="0"/>
		</comp>
		<comp name="00.HNN" depth="0.0">
			<acc value="0.0771930426707" flag="0"/>
			<vel value="0.0760241556927" flag="0"/>
			<psa03 value="0.129906397328" flag="0"/>
			<psa10 value="0.123014111581" flag="0"/>
			<psa30 value="0.00946972065583" flag="0"/>
		</comp>
		<comp name="00.HNZ" depth="0.0">
			<acc value="0.0540879156126" flag="0"/>
			<vel value="0.0374434185785" flag="0"/>
			<psa03 value="0.146595992515" flag="0"/>
			<psa10 value="0.0443547957874" flag="0"/>
			<psa30 value="0.00511354916419" flag="0"/>
		</comp>
	</station>
	<station code="TNSA" name="TNSA" netid="HL" source="National Observatory of Athens Seismic Network" insttype="" lat="37.53942" lon="25.1631">
		<comp name="00.HNE" depth="0.0">
			<acc value="0.0257571929132" flag="0"/>
			<vel value="0.0114961449734" flag="0"/>
			<psa03 value="0.0547305787574" flag="0"/>
			<psa10 value="0.0111223255495" flag="0"/>
			<psa30 value="0.00119071189965" flag="0"/>
		</comp>
		<comp name="00.HNN" depth="0.0">
			<acc value="0.0369553430963" flag="0"/>
			<vel value="0.0118729185433" flag="0"/>
			<psa03 value="0.0559410964481" flag="0"/>
			<psa10 value="0.00894254802494" flag="0"/>
			<psa30 value="0.00131973992629" flag="0"/>
		</comp>
		<comp name="00.HNZ" depth="0.0">
			<acc value="0.0200992510589" flag="0"/>
			<vel value="0.00818256696921" flag="0"/>
			<psa03 value="0.0298421852316" flag="0"/>
			<psa10 value="0.00712510825345" flag="0"/>
			<psa30 value="0.00123469991781" flag="0"/>
		</comp>
	</station>
	<station code="AKS" name="AKS" netid="KO" source="Bogazici University Kandilli Observatory And Earthquake Research Institute (KOERI)" insttype="" lat="38.8785" lon="27.8129">
		<comp name=".HNE" depth="0.0">
			<acc value="0.0289806802802" flag="0"/>
			<vel value="0.0199004031849" flag="0"/>
			<psa03 value="0.102048176858" flag="0"/>
			<psa10 value="0.0110036498753" flag="0"/>
			<psa30 value="0.00243444376995" flag="0"/>
		</comp>
		<comp name=".HNN" depth="0.0">
			<acc value="0.0240838619489" flag="0"/>
			<vel value="0.0180152822486" flag="0"/>
			<psa03 value="0.0768841192373" flag="0"/>
			<psa10 value="0.0153273103591" flag="0"/>
			<psa30 value="0.00380020174471" flag="0"/>
		</comp>
		<comp name=".HNZ" depth="0.0">
			<acc value="0.00874122545222" flag="0"/>
			<vel value="0.0071269132717" flag="0"/>
			<psa03 value="0.020569874372" flag="0"/>
			<psa10 value="0.00637125722076" flag="0"/>
			<psa30 value="0.0021175586112" flag="0"/>
		</comp>
	</station>
	<station code="CESE" name="CESE" netid="KO" source="Bogazici University Kandilli Observatory And Earthquake Research Institute (KOERI)" insttype="" lat="38.3306" lon="26.2997">
		<comp name=".HNE" depth="0.0">
			<acc value="0.0285814459008" flag="0"/>
			<vel value="0.0236212206718" flag="0"/>
			<psa03 value="0.0424281830547" flag="0"/>
			<psa10 value="0.0257831605078" flag="0"/>
			<psa30 value="0.00531844273738" flag="0"/>
		</comp>
		<comp name=".HNN" depth="0.0">
			<acc value="0.0306212328928" flag="0"/>
			<vel value="0.0495358429892" flag="0"/>
			<psa03 value="0.0895677355061" flag="0"/>
			<psa10 value="0.0740964260244" flag="0"/>
			<psa30 value="0.00909661010578" flag="0"/>
		</comp>
		<comp name=".HNZ" depth="0.0">
			<acc value="0.0297187674383" flag="0"/>
			<vel value="0.0283368186862" flag="0"/>
			<psa03 value="0.0515672962888" flag="0"/>
			<psa10 value="0.0377715496798" flag="0"/>
			<psa30 value="0.00479525932906" flag="0"/>
		</comp>
	</station>
	<station code="DATC" name="DATC" netid="KO" source="Bogazici University Kandilli Observatory And Earthquake Research Institute (KOERI)" insttype="" lat="36.7584" lon="27.6602">
		<comp name=".HNE" depth="0.0">
			<acc value="0.155741026512" flag="0"/>
			<vel value="0.113129977544" flag="0"/>
			<psa03 value="0.570108141868" flag="0"/>
			<psa10 value="0.0988154610392" flag="0"/>
			<psa30 value="0.0199930094387" flag="0"/>
		</comp>
		<comp name=".HNN" depth="0.0">
			<acc value="0.191716529261" flag="0"/>
			<vel value="0.109031613851" flag="0"/>
			<psa03 value="0.715967762682" flag="0"/>
			<psa10 value="0.106803430203" flag="0"/>
			<psa30 value="0.0170188424148" flag="0"/>
		</comp>
		<comp name=".HNZ" depth="0.0">
			<acc value="0.119692292829" flag="0"/>
			<vel value="0.0488169199635" flag="0"/>
			<psa03 value="0.395896767885" flag="0"/>
			<psa10 value="0.0692421644535" flag="0"/>
			<psa30 value="0.00821100060517" flag="0"/>
		</comp>
	</station>
	<station code="DIDI" name="DIDI" netid="KO" source="Bogazici University Kandilli Observatory And Earthquake Research Institute (KOERI)" insttype="" lat="37.3767" lon="27.2398">
		<comp name=".HNE" depth="0.0">
			<acc value="1.17683770764" flag="0"/>
			<vel value="0.368329684786" flag="0"/>
			<psa03 value="1.76793245018" flag="0"/>
			<psa10 value="0.208757369151" flag="0"/>
			<psa30 value="0.0702391329979" flag="0"/>
		</comp>
		<comp name=".HNN" depth="0.0">
			<acc value="1.47357808901" flag="0"/>
			<vel value="0.414291471242" flag="0"/>
			<psa03 value="2.83604320728" flag="0"/>
			<psa10 value="0.151665552099" flag="0"/>
			<psa30 value="0.0388989501979" flag="0"/>
		</comp>
		<comp name=".HNZ" depth="0.0">
			<acc value="2.21612874869" flag="0"/>
			<vel value="0.608196926195" flag="0"/>
			<psa03 value="2.66040390537" flag="0"/>
			<psa10 value="0.0991832854061" flag="0"/>
			<psa30 value="0.0227551457501" flag="0"/>
		</comp>
	</station>
	<station code="GMLD" name="GMLD" netid="KO" source="Bogazici University Kandilli Observatory And Earthquake Research Institute (KOERI)" insttype="" lat="38.0766" lon="26.9157">
		<comp name=".HNE" depth="0.0">
			<acc value="0.448703995013" flag="0"/>
			<vel value="0.171296529333" flag="0"/>
			<psa03 value="0.645838575303" flag="0"/>
			<psa10 value="0.0823891028737" flag="0"/>
			<psa30 value="0.0117871341731" flag="0"/>
		</comp>
		<comp name=".HNN" depth="0.0">
			<acc value="0.482949775889" flag="0"/>
			<vel value="0.25797754419" flag="0"/>
			<psa03 value="0.733992373395" flag="0"/>
			<psa10 value="0.129143795143" flag="0"/>
			<psa30 value="0.0166569917773" flag="0"/>
		</comp>
		<comp name=".HNZ" depth="0.0">
			<acc value="0.277982552652" flag="0"/>
			<vel value="0.112234673762" flag="0"/>
			<psa03 value="0.412849140896" flag="0"/>
			<psa10 value="0.0325673149248" flag="0"/>
			<psa30 value="0.00755576803254" flag="0"/>
		</comp>
	</station>
	<station code="GOMA" name="GOMA" netid="KO" source="Bogazici University Kandilli Observatory And Earthquake Research Institute (KOERI)" insttype="" lat="38.7077" lon="27.9175">
		<comp name=".HNE" depth="0.0">
			<acc value="0.0530972632754" flag="0"/>
			<vel value="0.0324402873186" flag="0"/>
			<psa03 value="0.113415929915" flag="0"/>
			<psa10 value="0.0221741501786" flag="0"/>
			<psa30 value="0.00249176694233" flag="0"/>
		</comp>
		<comp name=".HNN" depth="0.0">
			<acc value="0.0214859424437" flag="0"/>
			<vel value="0.0152123746745" flag="0"/>
			<psa03 value="0.0619574845875" flag="0"/>
			<psa10 value="0.0152136768939" flag="0"/>
			<psa30 value="0.00217942270939" flag="0"/>
		</comp>
		<comp name=".HNZ" depth="0.0">
			<acc value="0.022669593114" flag="0"/>
			<vel value="0.0129879126229" flag="0"/>
			<psa03 value="0.0552710676872" flag="0"/>
			<psa10 value="0.00985988410641" flag="0"/>
			<psa30 value="0.00214734766791" flag="0"/>
		</comp>
	</station>
	<station code="GORD" name="GORD" netid="KO" source="Bogazici University Kandilli Observatory And Earthquake Research Institute (KOERI)" insttype="" lat="38.9088" lon="28.1769">
		<comp name=".HNE" depth="0.0">
			<acc value="0.0139707690334" flag="0"/>
			<vel value="0.0179297869097" flag="0"/>
			<psa03 value="0.0316224073293" flag="0"/>
			<psa10 value="0.0263717976272" flag="0"/>
			<psa30 value="0.00361097837626" flag="0"/>
		</comp>
		<comp name=".HNN" depth="0.0">
			<acc value="0.0154979353814" flag="0"/>
			<vel value="0.0210604390293" flag="0"/>
			<psa03 value="0.0258123531709" flag="0"/>
			<psa10 value="0.0192185643856" flag="0"/>
			<psa30 value="0.00375245733188" flag="0"/>
		</comp>
		<comp name=".HNZ" depth="0.0">
			<acc value="0.0130867922108" flag="0"/>
			<vel value="0.0161388978238" flag="0"/>
			<psa03 value="0.0220596748869" flag="0"/>
			<psa10 value="0.0147912179706" flag="0"/>
			<psa30 value="0.00231302093462" flag="0"/>
		</comp>
	</station>
	<station code="KRBN" name="KRBN" netid="KO" source="Bogazici University Kandilli Observatory And Earthquake Research Institute (KOERI)" insttype="" lat="38.5936" lon="26.5537">
		<comp name=".HNE" depth="0.0">
			<acc value="0.066654080042" flag="0"/>
			<vel value="0.0402805222587" flag="0"/>
			<psa03 value="0.106459021138" flag="0"/>
			<psa10 value="0.0445573917087" flag="0"/>
			<psa30 value="0.00753375074067" flag="0"/>
		</comp>
		<comp name=".HNN" depth="0.0">
			<acc value="0.0576362301166" flag="0"/>
			<vel value="0.0425913511882" flag="0"/>
			<psa03 value="0.104849226997" flag="0"/>
			<psa10 value="0.0445568104202" flag="0"/>
			<psa30 value="0.00821072642032" flag="0"/>
		</comp>
		<comp name=".HNZ" depth="0.0">
			<acc value="0.0261044119575" flag="0"/>
			<vel value="0.022467125794" flag="0"/>
			<psa03 value="0.0469831696961" flag="0"/>
			<psa10 value="0.0377821028789" flag="0"/>
			<psa30 value="0.00594887408373" flag="0"/>
		</comp>
	</station>
	<station code="KUSD" name="KUSD" netid="KO" source="Bogazici University Kandilli Observatory And Earthquake Research Institute (KOERI)" insttype="" lat="37.8606" lon="27.2868">
		<comp name=".HNE" depth="0.0">
			<acc value="0.136987573382" flag="0"/>
			<vel value="0.0674269856478" flag="0"/>
			<psa03 value="0.210531634188" flag="0"/>
			<psa10 value="0.0879222269159" flag="0"/>
			<psa30 value="0.0103588337219" flag="0"/>
		</comp>
		<comp name=".HNN" depth="0.0">
			<acc value="0.185884173067" flag="0"/>
			<vel value="0.11977809456" flag="0"/>
			<psa03 value="0.231598967295" flag="0"/>
			<psa10 value="0.11040334618" flag="0"/>
			<psa30 value="0.00936455035551" flag="0"/>
		</comp>
		<comp name=".HNZ" depth="0.0">
			<acc value="0.0930816501037" flag="0"/>
			<vel value="0.0433182685382" flag="0"/>
			<psa03 value="0.161065055186" flag="0"/>
			<psa10 value="0.0395201442656" flag="0"/>
			<psa30 value="0.00625111702248" flag="0"/>
		</comp>
	</station>
	<station code="NAZL" name="NAZL" netid="KO" source="Bogazici University Kandilli Observatory And Earthquake Research Institute (KOERI)" insttype="" lat="37.9641" lon="28.2922">
		<comp name=".HNE" depth="0.0">
			<acc value="0.115423994631" flag="0"/>
			<vel value="0.0775375510347" flag="0"/>
			<psa03 value="0.246525414432" flag="0"/>
			<psa10 value="0.042948827649" flag="0"/>
			<psa30 value="0.00390505202387" flag="0"/>
		</comp>
		<comp name=".HNN" depth="0.0">
			<acc value="0.112780045624" flag="0"/>
			<vel value="0.0672361740692" flag="0"/>
			<psa03 value="0.269275838203" flag="0"/>
			<psa10 value="0.0455386479618" flag="0"/>
			<psa30 value="0.00727041662943" flag="0"/>
		</comp>
		<comp name=".HNZ" depth="0.0">
			<acc value="0.0309663706488" flag="0"/>
			<vel value="0.0205869964449" flag="0"/>
			<psa03 value="0.102847011027" flag="0"/>
			<psa10 value="0.011958591573" flag="0"/>
			<psa30 value="0.00223479179399" flag="0"/>
		</comp>
	</station>
	<station code="ODEM" name="ODEM" netid="KO" source="Bogazici University Kandilli Observatory And Earthquake Research Institute (KOERI)" insttype="" lat="38.2762" lon="28.0747">
		<comp name=".HNE" depth="0.0">
			<acc value="0.0250678643921" flag="0"/>
			<vel value="0.0161827183346" flag="0"/>
			<psa03 value="0.0691318921486" flag="0"/>
			<psa10 value="0.014975894267" flag="0"/>
			<psa30 value="0.00223746134583" flag="0"/>
		</comp>
		<comp name=".HNN" depth="0.0">
			<acc value="0.0276008164838" flag="0"/>
			<vel value="0.0165170219856" flag="0"/>
			<psa03 value="0.0716133065302" flag="0"/>
			<psa10 value="0.00963533516868" flag="0"/>
			<psa30 value="0.00256757571429" flag="0"/>
		</comp>
		<comp name=".HNZ" depth="0.0">
			<acc value="0.0205368689573" flag="0"/>
