<?xml version="1.0" encoding="UTF-8" standalone="yes"?>
<!DOCTYPE earthquake SYSTEM "stationlist.dtd">
<stationlist created="" xmlns="ch.ethz.sed.shakemap.usgs.xml">
  <station code="APE" name="APE" netid="GE" insttype="STS-2/N" lat="37.0727" lon="25.523">
    <comp name="--.HHE">
      <acc value="0.0404103388" flag="0"/>
      <vel value="0.0145115221" flag="0"/>
      <psa03 value="0.0576928299" flag="0"/>
      <psa10 value="0.0114896153" flag="0"/>
      <psa30 value="0.0025163700" flag="0"/>
    </comp>
    <comp name="--.HHZ">
      <acc value="0.0328611060" flag="0"/>
      <vel value="0.0127438484" flag="0"/>
      <psa03 value="0.0453313736" flag="0"/>
      <psa10 value="0.0152053159" flag="0"/>
      <psa30 value="0.0049284016" flag="0"/>
    </comp>
    <comp name="--.HHN">
      <acc value="0.0451055521" flag="0"/>
      <vel value="0.0156672555" flag="0"/>
      <psa03 value="0.0670560548" flag="0"/>
      <psa10 value="0.0175765662" flag="0"/>
      <psa30 value="0.0033362572" flag="0"/>
    </comp>
  </station>
  <station code="AYDB" name="AYDB" netid="KO" insttype="30s," lat="37.9467" lon="27.8908">
    <comp name="--.HHE">
      <acc value="0.1683513035" flag="0"/>
      <vel value="0.1228532448" flag="0"/>
      <psa03 value="0.3927181593" flag="0"/>
      <psa10 value="0.0588331933" flag="0"/>
      <psa30 value="0.0049882907" flag="0"/>
    </comp>
    <comp name="--.HHZ">
      <acc value="0.0651889361" flag="0"/>
      <vel value="0.0419863335" flag="0"/>
      <psa03 value="0.2017572179" flag="0"/>
      <psa10 value="0.0217325355" flag="0"/>
      <psa30 value="0.0031557413" flag="0"/>
    </comp>
    <comp name="--.HHN">
      <acc value="0.1004315917" flag="0"/>
      <vel value="0.0632338423" flag="0"/>
      <psa03 value="0.2020697353" flag="0"/>
      <psa10 value="0.0360153687" flag="0"/>
      <psa30 value="0.0060182694" flag="0"/>
    </comp>
  </station>
  <station code="DIDI" name="DIDI" netid="KO" insttype="CMG-5T" lat="37.3767" lon="27.2398">
    <comp name="--.HNN">
      <acc value="1.4793029502" flag="0"/>
      <vel value="0.4294937858" flag="0"/>
      <psa03 value="2.8168492706" flag="0"/>
      <psa10 value="0.1535739525" flag="0"/>
      <psa30 value="0.0362600760" flag="0"/>
    </comp>
    <comp name="--.HNE">
      <acc value="1.1814125616" flag="0"/>
      <vel value="0.3697041293" flag="0"/>
      <psa03 value="1.7359985826" flag="0"/>
      <psa10 value="0.2074566073" flag="0"/>
      <psa30 value="0.0611778565" flag="0"/>
    </comp>
    <comp name="--.HNZ">
      <acc value="2.2079899843" flag="0"/>
      <vel value="0.6109687283" flag="0"/>
      <psa03 value="2.5694725770" flag="0"/>
      <psa10 value="0.0978794624" flag="0"/>
      <psa30 value="0.0210440732" flag="0"/>
    </comp>
  </station>
  <station code="GMLD" name="GMLD" netid="KO" insttype="CMG-5T" lat="38.0766" lon="26.9157">
    <comp name="--.HNN">
      <acc value="0.4820926620" flag="0"/>
      <vel value="0.2539956713" flag="0"/>
      <psa03 value="0.7264693719" flag="0"/>
      <psa10 value="0.1292765489" flag="0"/>
      <psa30 value="0.0149369333" flag="0"/>
    </comp>
    <comp name="--.HNE">
      <acc value="0.4461870698" flag="0"/>
      <vel value="0.1723245830" flag="0"/>
      <psa03 value="0.6371720130" flag="0"/>
      <psa10 value="0.0822394231" flag="0"/>
      <psa30 value="0.0100696188" flag="0"/>
    </comp>
    <comp name="--.HNZ">
      <acc value="0.2818341157" flag="0"/>
      <vel value="0.1090455407" flag="0"/>
      <psa03 value="0.4026963230" flag="0"/>
      <psa10 value="0.0321939063" flag="0"/>
      <psa30 value="0.0065796098" flag="0"/>
    </comp>
  </station>
  <station code="KUSD" name="KUSD" netid="KO" insttype="CMG-5T" lat="37.8606" lon="27.2868">
    <comp name="--.HNE">
      <acc value="0.1383060261" flag="0"/>
      <vel value="0.0604388364" flag="0"/>
      <psa03 value="0.2099587067" flag="0"/>
      <psa10 value="0.0876935284" flag="0"/>
      <psa30 value="0.0081956382" flag="0"/>
    </comp>
    <comp name="--.HNZ">
      <acc value="0.0935887111" flag="0"/>
      <vel value="0.0383007171" flag="0"/>
      <psa03 value="0.1592325257" flag="0"/>
      <psa10 value="0.0393053161" flag="0"/>
      <psa30 value="0.0047579148" flag="0"/>
    </comp>
    <comp name="--.HNN">
      <acc value="0.1891624641" flag="0"/>
      <vel value="0.1220540221" flag="0"/>
      <psa03 value="0.2334111829" flag="0"/>
      <psa10 value="0.1102750632" flag="0"/>
      <psa30 value="0.0091796075" flag="0"/>
    </comp>
  </station>
  <station code="YKAV" name="YKAV" netid="KO" insttype="CMG-5T" lat="37.1246" lon="27.2801">
    <comp name="--.HNE">
      <acc value="0.4617875436" flag="0"/>
      <vel value="0.1792038932" flag="0"/>
      <psa03 value="1.2786884115" flag="0"/>
      <psa10 value="0.1280854617" flag="0"/>
      <psa30 value="0.0119379823" flag="0"/>
    </comp>
    <comp name="--.HNZ">
      <acc value="0.1539285822" flag="0"/>
      <vel value="0.0579958851" flag="0"/>
      <psa03 value="0.4482005615" flag="0"/>
      <psa10 value="0.0532592933" flag="0"/>
      <psa30 value="0.0046868675" flag="0"/>
    </comp>
    <comp name="--.HNN">
      <acc value="0.2837951853" flag="0"/>
      <vel value="0.1441133289" flag="0"/>
      <psa03 value="0.7793595628" flag="0"/>
      <psa10 value="0.1012102010" flag="0"/>
      <psa30 value="0.0091245171" flag="0"/>
    </comp>
  </station>
  <station code="AYDN" name="AYDN" netid="TU" insttype="T" lat="37.6608" lon="27.8792">
    <comp name="--.HHZ">
      <acc value="0.1616172368" flag="0"/>
      <vel value="0.0632820473" flag="0"/>
      <psa03 value="0.2826680896" flag="0"/>
      <psa10 value="0.0473271906" flag="0"/>
      <psa30 value="0.0073524701" flag="0"/>
    </comp>
    <comp name="--.HHN">
      <acc value="0.2687039783" flag="0"/>
      <vel value="0.1604147046" flag="0"/>
      <psa03 value="0.9605380021" flag="0"/>
      <psa10 value="0.0597656615" flag="0"/>
      <psa30 value="0.0076033815" flag="0"/>
    </comp>
    <comp name="--.HHE">
      <acc value="0.3245667185" flag="0"/>
      <vel value="0.1581344729" flag="0"/>
      <psa03 value="1.1054221340" flag="0"/>
      <psa10 value="0.0833264722" flag="0"/>
      <psa30 value="0.0065113357" flag="0"/>
    </comp>
  </station>
</stationlist>
