<?xml version="1.0" encoding="UTF-8" standalone="yes"?>
<!DOCTYPE earthquake SYSTEM "stationlist.dtd">
<stationlist created="" xmlns="ch.ethz.sed.shakemap.usgs.xml">
  <station code="APE" name="APE" netid="GE" insttype="STS-2/N" lat="37.0727" lon="25.523">
    <comp name="--.HHE">
      <acc value="0.0404103388" flag="0"/>
      <vel value="0.0145115221" flag="0"/>
      <psa03 value="0.0576928299" flag="0"/>
      <psa10 value="0.0114896153" flag="0"/>
      <psa30 value="0.0025163700" flag="0"/>
    </comp>
    <comp name="--.HHZ">
      <acc value="0.0328611060" flag="0"/>
      <vel value="0.0127438484" flag="0"/>
      <psa03 value="0.0453313736" flag="0"/>
      <psa10 value="0.0152053159" flag="0"/>
      <psa30 value="0.0049284016" flag="0"/>
    </comp>
    <comp name="--.HHN">
      <acc value="0.0451055521" flag="0"/>
      <vel value="0.0156672555" flag="0"/>
      <psa03 value="0.0670560548" flag="0"/>
      <psa10 value="0.0175765662" flag="0"/>
      <psa30 value="0.0033362572" flag="0"/>
    </comp>
  </station>
  <station code="KRL1" name="KRL1" netid="HI" insttype="CMG-5TD,ACCELEROMETER,GURALP" lat="37.7951" lon="26.7065">
    <comp name="--.HNN">
      <acc value="0.9052929174" flag="0"/>
      <vel value="0.3746516042" flag="0"/>
      <psa03 value="1.4555981486" flag="0"/>
      <psa10 value="0.3670069617" flag="0"/>
      <psa30 value="0.0257089768" flag="0"/>
    </comp>
    <comp name="--.HNZ">
      <acc value="0.4229886497" flag="0"/>
      <vel value="0.1988614398" flag="0"/>
      <psa03 value="0.7872449293" flag="0"/>
      <psa10 value="0.1693324837" flag="0"/>
      <psa30 value="0.0281893937" flag="0"/>
    </comp>
    <comp name="--.HNE">
      <acc value="1.7040787042" flag="0"/>
      <vel value="0.5472842950" flag="0"/>
      <psa03 value="2.1467758724" flag="0"/>
      <psa10 value="0.2663431324" flag="0"/>
      <psa30 value="0.0342959460" flag="0"/>
    </comp>
  </station>
  <station code="APE" name="APE" netid="HL" insttype="120" lat="37.0727" lon="25.523">
    <comp name="--.HHN">
      <acc value="0.0431305288" flag="0"/>
      <vel value="0.0153074850" flag="0"/>
      <psa03 value="0.0653279155" flag="0"/>
      <psa10 value="0.0174741550" flag="0"/>
      <psa30 value="0.0033296042" flag="0"/>
    </comp>
    <comp name="--.HHE">
      <acc value="0.0386303994" flag="0"/>
      <vel value="0.0141251432" flag="0"/>
      <psa03 value="0.0562000258" flag="0"/>
      <psa10 value="0.0114288529" flag="0"/>
      <psa30 value="0.0025122772" flag="0"/>
    </comp>
    <comp name="--.HHZ">
      <acc value="0.0310587456" flag="0"/>
      <vel value="0.0124636167" flag="0"/>
      <psa03 value="0.0441438999" flag="0"/>
      <psa10 value="0.0151306498" flag="0"/>
      <psa30 value="0.0049214042" flag="0"/>
    </comp>
  </station>
  <station code="KLNA" name="KLNA" netid="HL" insttype="CMG-5" lat="36.9571" lon="26.9727">
    <comp name="00.HNN">
      <acc value="0.7493093796" flag="0"/>
      <vel value="0.2788184716" flag="0"/>
      <psa03 value="2.0472059143" flag="0"/>
      <psa10 value="0.2162813261" flag="0"/>
      <psa30 value="0.0106451308" flag="0"/>
    </comp>
    <comp name="00.HNZ">
      <acc value="0.7184330206" flag="0"/>
      <vel value="0.2441653085" flag="0"/>
      <psa03 value="0.8298499988" flag="0"/>
      <psa10 value="0.1506165003" flag="0"/>
      <psa30 value="0.0081397166" flag="0"/>
    </comp>
    <comp name="00.HNE">
      <acc value="0.5999395581" flag="0"/>
      <vel value="0.2335683548" flag="0"/>
      <psa03 value="2.7800647343" flag="0"/>
      <psa10 value="0.0900392883" flag="0"/>
      <psa30 value="0.0095307411" flag="0"/>
    </comp>
  </station>
  <station code="NISR" name="NISR" netid="HL" insttype="65535" lat="36.6106" lon="27.131">
    <comp name="--.HHE">
      <acc value="0.0868596780" flag="0"/>
      <vel value="0.0372420527" flag="0"/>
      <psa03 value="0.2281227574" flag="0"/>
      <psa10 value="0.0455361466" flag="0"/>
      <psa30 value="0.0073803084" flag="0"/>
    </comp>
    <comp name="--.HHN">
      <acc value="0.0530181174" flag="0"/>
      <vel value="0.0285287387" flag="0"/>
      <psa03 value="0.1512230163" flag="0"/>
      <psa10 value="0.0334635887" flag="0"/>
      <psa30 value="0.0078950374" flag="0"/>
    </comp>
    <comp name="--.HHZ">
      <acc value="0.0229826196" flag="0"/>
      <vel value="0.0190464446" flag="0"/>
      <psa03 value="0.0787456750" flag="0"/>
      <psa10 value="0.0320316912" flag="0"/>
      <psa30 value="0.0025732323" flag="0"/>
    </comp>
  </station>
  <station code="NISR2" name="NISR2" netid="HL" insttype="120" lat="36.5744" lon="27.1767">
    <comp name="--.HHN">
      <acc value="0.0750151531" flag="0"/>
      <vel value="0.0724652351" flag="0"/>
      <psa03 value="0.2494318273" flag="0"/>
      <psa10 value="0.1195121567" flag="0"/>
      <psa30 value="0.0141230780" flag="0"/>
    </comp>
    <comp name="--.HHZ">
      <acc value="0.0327719271" flag="0"/>
      <vel value="0.0218722688" flag="0"/>
      <psa03 value="0.0948469104" flag="0"/>
      <psa10 value="0.0280787095" flag="0"/>
      <psa30 value="0.0057727776" flag="0"/>
    </comp>
    <comp name="--.HHE">
      <acc value="0.0766322248" flag="0"/>
      <vel value="0.0570904312" flag="0"/>
      <psa03 value="0.2613956863" flag="0"/>
      <psa10 value="0.1356865343" flag="0"/>
      <psa30 value="0.0112517110" flag="0"/>
    </comp>
  </station>
  <station code="SMG" name="SMG" netid="HL" insttype="0" lat="37.7043" lon="26.8377">
    <comp name="00.HNN">
      <acc value="2.8836942121" flag="0"/>
      <vel value="0.8874767902" flag="0"/>
      <psa03 value="3.5976169697" flag="0"/>
      <psa10 value="0.2036505347" flag="0"/>
      <psa30 value="0.0419068003" flag="0"/>
    </comp>
    <comp name="00.HNE">
      <acc value="1.6857669782" flag="0"/>
      <vel value="0.5434567302" flag="0"/>
      <psa03 value="4.9970165400" flag="0"/>
      <psa10 value="0.3009979478" flag="0"/>
      <psa30 value="0.0270298073" flag="0"/>
    </comp>
    <comp name="00.HNZ">
      <acc value="1.4636354414" flag="0"/>
      <vel value="0.4529223249" flag="0"/>
      <psa03 value="1.8448332488" flag="0"/>
      <psa10 value="0.1537794351" flag="0"/>
      <psa30 value="0.0222285082" flag="0"/>
    </comp>
  </station>
  <station code="CHOS" name="CHOS" netid="HT" insttype="100" lat="38.3869" lon="26.0506">
    <comp name="--.HHE">
      <acc value="0.0692480987" flag="0"/>
      <vel value="0.0319782509" flag="0"/>
      <psa03 value="0.2442105616" flag="0"/>
      <psa10 value="0.0173985372" flag="0"/>
      <psa30 value="0.0029707132" flag="0"/>
    </comp>
    <comp name="--.HHN">
      <acc value="0.0525433572" flag="0"/>
      <vel value="0.0340806032" flag="0"/>
      <psa03 value="0.1655714315" flag="0"/>
      <psa10 value="0.0457496478" flag="0"/>
      <psa30 value="0.0061516584" flag="0"/>
    </comp>
    <comp name="--.HHZ">
      <acc value="0.0194687185" flag="0"/>
      <vel value="0.0216805616" flag="0"/>
      <psa03 value="0.0716273892" flag="0"/>
      <psa10 value="0.0248623327" flag="0"/>
      <psa30 value="0.0053988128" flag="0"/>
    </comp>
  </station>
  <station code="AYDB" name="AYDB" netid="KO" insttype="30s," lat="37.9467" lon="27.8908">
    <comp name="--.HHE">
      <acc value="0.1683513035" flag="0"/>
      <vel value="0.1228532448" flag="0"/>
      <psa03 value="0.3927181593" flag="0"/>
      <psa10 value="0.0588331933" flag="0"/>
      <psa30 value="0.0049882907" flag="0"/>
    </comp>
    <comp name="--.HHZ">
      <acc value="0.0651889361" flag="0"/>
      <vel value="0.0419863335" flag="0"/>
      <psa03 value="0.2017572179" flag="0"/>
      <psa10 value="0.0217325355" flag="0"/>
      <psa30 value="0.0031557413" flag="0"/>
    </comp>
    <comp name="--.HHN">
      <acc value="0.1004315917" flag="0"/>
      <vel value="0.0632338423" flag="0"/>
      <psa03 value="0.2020697353" flag="0"/>
      <psa10 value="0.0360153687" flag="0"/>
      <psa30 value="0.0060182694" flag="0"/>
    </comp>
  </station>
  <station code="DIDI" name="DIDI" netid="KO" insttype="CMG-5T" lat="37.3767" lon="27.2398">
    <comp name="--.HNN">
      <acc value="1.4793029502" flag="0"/>
      <vel value="0.4294937858" flag="0"/>
      <psa03 value="2.8168492706" flag="0"/>
      <psa10 value="0.1535739525" flag="0"/>
      <psa30 value="0.0362600760" flag="0"/>
    </comp>
    <comp name="--.HNE">
      <acc value="1.1814125616" flag="0"/>
      <vel value="0.3697041293" flag="0"/>
      <psa03 value="1.7359985826" flag="0"/>
      <psa10 value="0.2074566073" flag="0"/>
      <psa30 value="0.0611778565" flag="0"/>
    </comp>
    <comp name="--.HNZ">
      <acc value="2.2079899843" flag="0"/>
      <vel value="0.6109687283" flag="0"/>
      <psa03 value="2.5694725770" flag="0"/>
      <psa10 value="0.0978794624" flag="0"/>
      <psa30 value="0.0210440732" flag="0"/>
    </comp>
  </station>
  <station code="GMLD" name="GMLD" netid="KO" insttype="CMG-5T" lat="38.0766" lon="26.9157">
    <comp name="--.HNN">
      <acc value="0.4820926620" flag="0"/>
      <vel value="0.2539956713" flag="0"/>
      <psa03 value="0.7264693719" flag="0"/>
      <psa10 value="0.1292765489" flag="0"/>
      <psa30 value="0.0149369333" flag="0"/>
    </comp>
    <comp name="--.HNE">
      <acc value="0.4461870698" flag="0"/>
      <vel value="0.1723245830" flag="0"/>
      <psa03 value="0.6371720130" flag="0"/>
      <psa10 value="0.0822394231" flag="0"/>
      <psa30 value="0.0100696188" flag="0"/>
    </comp>
    <comp name="--.HNZ">
      <acc value="0.2818341157" flag="0"/>
      <vel value="0.1090455407" flag="0"/>
      <psa03 value="0.4026963230" flag="0"/>
      <psa10 value="0.0321939063" flag="0"/>
      <psa30 value="0.0065796098" flag="0"/>
    </comp>
  </station>
  <station code="KUSD" name="KUSD" netid="KO" insttype="CMG-5T" lat="37.8606" lon="27.2868">
    <comp name="--.HNE">
      <acc value="0.1383060261" flag="0"/>
      <vel value="0.0604388364" flag="0"/>
      <psa03 value="0.2099587067" flag="0"/>
      <psa10 value="0.0876935284" flag="0"/>
      <psa30 value="0.0081956382" flag="0"/>
    </comp>
    <comp name="--.HNZ">
      <acc value="0.0935887111" flag="0"/>
      <vel value="0.0383007171" flag="0"/>
      <psa03 value="0.1592325257" flag="0"/>
      <psa10 value="0.0393053161" flag="0"/>
      <psa30 value="0.0047579148" flag="0"/>
    </comp>
    <comp name="--.HNN">
      <acc value="0.1891624641" flag="0"/>
      <vel value="0.1220540221" flag="0"/>
      <psa03 value="0.2334111829" flag="0"/>
      <psa10 value="0.1102750632" flag="0"/>
      <psa30 value="0.0091796075" flag="0"/>
    </comp>
  </station>
  <station code="YKAV" name="YKAV" netid="KO" insttype="CMG-5T" lat="37.1246" lon="27.2801">
    <comp name="--.HNE">
      <acc value="0.4617875436" flag="0"/>
      <vel value="0.1792038932" flag="0"/>
      <psa03 value="1.2786884115" flag="0"/>
      <psa10 value="0.1280854617" flag="0"/>
      <psa30 value="0.0119379823" flag="0"/>
    </comp>
    <comp name="--.HNZ">
      <acc value="0.1539285822" flag="0"/>
      <vel value="0.0579958851" flag="0"/>
      <psa03 value="0.4482005615" flag="0"/>
      <psa10 value="0.0532592933" flag="0"/>
      <psa30 value="0.0046868675" flag="0"/>
    </comp>
    <comp name="--.HNN">
      <acc value="0.2837951853" flag="0"/>
      <vel value="0.1441133289" flag="0"/>
      <psa03 value="0.7793595628" flag="0"/>
      <psa10 value="0.1012102010" flag="0"/>
      <psa30 value="0.0091245171" flag="0"/>
    </comp>
  </station>
  <station code="AYDN" name="AYDN" netid="TU" insttype="T" lat="37.6608" lon="27.8792">
    <comp name="--.HHZ">
      <acc value="0.1616172368" flag="0"/>
      <vel value="0.0632820473" flag="0"/>
      <psa03 value="0.2826680896" flag="0"/>
      <psa10 value="0.0473271906" flag="0"/>
      <psa30 value="0.0073524701" flag="0"/>
    </comp>
    <comp name="--.HHN">
      <acc value="0.2687039783" flag="0"/>
      <vel value="0.1604147046" flag="0"/>
      <psa03 value="0.9605380021" flag="0"/>
      <psa10 value="0.0597656615" flag="0"/>
      <psa30 value="0.0076033815" flag="0"/>
    </comp>
    <comp name="--.HHE">
      <acc value="0.3245667185" flag="0"/>
      <vel value="0.1581344729" flag="0"/>
      <psa03 value="1.1054221340" flag="0"/>
      <psa10 value="0.0833264722" flag="0"/>
      <psa30 value="0.0065113357" flag="0"/>
    </comp>
  </station>
</stationlist>
