<?xml version="1.0" encoding="UTF-8" standalone="yes"?>
<!DOCTYPE earthquake SYSTEM "stationlist.dtd">
<stationlist created="" xmlns="ch.ethz.sed.shakemap.usgs.xml">
  <station code="KARP" name="KARP" netid="GE" insttype="STS-2/N" lat="35.5471" lon="27.1611">
    <comp name="--.HHE">
      <acc value="0.0214721635" flag="0"/>
      <vel value="0.0053636152" flag="0"/>
      <psa03 value="0.0254273041" flag="0"/>
      <psa10 value="0.0107660853" flag="0"/>
      <psa30 value="0.0003544261" flag="0"/>
    </comp>
    <comp name="--.HHN">
      <acc value="0.0234382751" flag="0"/>
      <vel value="0.0053930383" flag="0"/>
      <psa03 value="0.0195045524" flag="0"/>
      <psa10 value="0.0059302925" flag="0"/>
      <psa30 value="0.0002773344" flag="0"/>
    </comp>
    <comp name="--.HHZ">
      <acc value="0.0147119694" flag="0"/>
      <vel value="0.0034809759" flag="0"/>
      <psa03 value="0.0171188293" flag="0"/>
      <psa10 value="0.0033210234" flag="0"/>
      <psa30 value="0.0002059186" flag="0"/>
    </comp>
  </station>
  <station code="ARG" name="ARG" netid="HL" insttype="LE3D20_DR24" lat="36.2136" lon="28.1212">
    <comp name="--.HHE">
      <acc value="0.0162410047" flag="0"/>
      <vel value="0.0059897206" flag="0"/>
      <psa03 value="0.0347128817" flag="0"/>
      <psa10 value="0.0034987480" flag="0"/>
      <psa30 value="0.0005166703" flag="0"/>
    </comp>
    <comp name="--.HHN">
      <acc value="0.0101992750" flag="0"/>
      <vel value="0.0048723229" flag="0"/>
      <psa03 value="0.0228288854" flag="0"/>
      <psa10 value="0.0044203301" flag="0"/>
      <psa30 value="0.0003417677" flag="0"/>
    </comp>
    <comp name="--.HHZ">
      <acc value="0.0075267667" flag="0"/>
      <vel value="0.0031718030" flag="0"/>
      <psa03 value="0.0085989613" flag="0"/>
      <psa10 value="0.0025891959" flag="0"/>
      <psa30 value="0.0004540637" flag="0"/>
    </comp>
  </station>
  <station code="KARP" name="KARP" netid="HL" insttype="120" lat="35.5471" lon="27.1611">
    <comp name="--.HHN">
      <acc value="0.0183852774" flag="0"/>
      <vel value="0.0052353518" flag="0"/>
      <psa03 value="0.0189494084" flag="0"/>
      <psa10 value="0.0058858295" flag="0"/>
      <psa30 value="0.0002752704" flag="0"/>
    </comp>
    <comp name="--.HHZ">
      <acc value="0.0136230217" flag="0"/>
      <vel value="0.0034286429" flag="0"/>
      <psa03 value="0.0166675828" flag="0"/>
      <psa10 value="0.0033025105" flag="0"/>
      <psa30 value="0.0002040524" flag="0"/>
    </comp>
    <comp name="--.HHE">
      <acc value="0.0193617832" flag="0"/>
      <vel value="0.0052456206" flag="0"/>
      <psa03 value="0.0249197110" flag="0"/>
      <psa10 value="0.0107039959" flag="0"/>
      <psa30 value="0.0003529814" flag="0"/>
    </comp>
  </station>
  <station code="NISR" name="NISR" netid="HL" insttype="65535" lat="36.6106" lon="27.131">
    <comp name="--.HHE">
      <acc value="0.7725386850" flag="0"/>
      <vel value="0.2397477309" flag="0"/>
      <psa03 value="0.7737325562" flag="0"/>
      <psa10 value="0.1470349167" flag="0"/>
      <psa30 value="0.0103207521" flag="0"/>
    </comp>
    <comp name="--.HHN">
      <acc value="0.6798098886" flag="0"/>
      <vel value="0.1770676571" flag="0"/>
      <psa03 value="0.5348566758" flag="0"/>
      <psa10 value="0.0542420125" flag="0"/>
      <psa30 value="0.0079864700" flag="0"/>
    </comp>
    <comp name="--.HHZ">
      <acc value="0.3634347339" flag="0"/>
      <vel value="0.0647770047" flag="0"/>
      <psa03 value="0.2941918963" flag="0"/>
      <psa10 value="0.0780639379" flag="0"/>
      <psa30 value="0.0034629726" flag="0"/>
    </comp>
  </station>
  <station code="DATC" name="DATC" netid="KO" insttype="CMG-5T" lat="36.7584" lon="27.6602">
    <comp name="--.HNN">
      <acc value="0.0628629731" flag="0"/>
      <vel value="0.0135990914" flag="0"/>
      <psa03 value="0.0469469972" flag="0"/>
      <psa10 value="0.0165029078" flag="0"/>
      <psa30 value="0.0012800525" flag="0"/>
    </comp>
    <comp name="--.HNZ">
      <acc value="0.0664177087" flag="0"/>
      <vel value="0.0153155665" flag="0"/>
      <psa03 value="0.0387858251" flag="0"/>
      <psa10 value="0.0166941583" flag="0"/>
      <psa30 value="0.0010520332" flag="0"/>
    </comp>
    <comp name="--.HNE">
      <acc value="0.0342461491" flag="0"/>
      <vel value="0.0298392015" flag="0"/>
      <psa03 value="0.0548511788" flag="0"/>
      <psa10 value="0.0344891905" flag="0"/>
      <psa30 value="0.0025301256" flag="0"/>
    </comp>
  </station>
</stationlist>
