<stationlist created="1778136516">
	<station code="RDI1" name="RDI1" netid="HI" source="ITSAK Strong Motion Network" insttype="" lat="36.4514" lon="28.224">
		<comp name="--.HNE" depth="0.0">
			<acc value="0.00498477827013148" flag="0"/>
			<vel value="0.00536163091001989" flag="0"/>
			<psa03 value="0.0117672003406055" flag="0"/>
			<psa10 value="0.0074455506033466" flag="0"/>
			<psa30 value="0.00120535504629624" flag="0"/>
		</comp>
		<comp name="--.HNN" depth="0.0">
			<acc value="0.00494206922312531" flag="0"/>
			<vel value="0.00527491741727914" flag="0"/>
			<psa03 value="0.0125278178531161" flag="0"/>
			<psa10 value="0.00974082580286394" flag="0"/>
			<psa30 value="0.0008232566017762" flag="0"/>
		</comp>
		<comp name="--.HNZ" depth="0.0">
			<acc value="0.00449826004980018" flag="0"/>
			<vel value="0.00317398650700011" flag="0"/>
			<psa03 value="0.0126620444729709" flag="0"/>
			<psa10 value="0.00565765202688046" flag="0"/>
			<psa30 value="0.000506929200985019" flag="0"/>
		</comp>
	</station>
	<station code="SIT2" name="SIT2" netid="HI" source="ITSAK Strong Motion Network" insttype="" lat="35.2059" lon="26.107">
		<comp name="--.HNE" depth="0.0">
			<acc value="0.0116410951760661" flag="0"/>
			<vel value="0.00838401898348399" flag="0"/>
			<psa03 value="0.0276506836900919" flag="0"/>
			<psa10 value="0.00513014141085104" flag="0"/>
			<psa30 value="0.000378071645924396" flag="0"/>
		</comp>
		<comp name="--.HNN" depth="0.0">
			<acc value="0.0103245426786127" flag="0"/>
			<vel value="0.0063933360383144" flag="0"/>
			<psa03 value="0.0298877940210055" flag="0"/>
			<psa10 value="0.00819453514213647" flag="0"/>
			<psa30 value="0.000420576742211754" flag="0"/>
		</comp>
		<comp name="--.HNZ" depth="0.0">
			<acc value="0.00511735061447978" flag="0"/>
			<vel value="0.00236402799545258" flag="0"/>
			<psa03 value="0.0143622483244652" flag="0"/>
			<psa10 value="0.00206977447816125" flag="0"/>
			<psa30 value="0.000175389449943625" flag="0"/>
		</comp>
	</station>
	<station code="KLNA" name="KLNA" netid="HL" source="National Observatory of Athens Seismic Network" insttype="" lat="36.95708" lon="26.97274">
		<comp name="00.HNE" depth="0.0">
			<acc value="0.0268984382922147" flag="0"/>
			<vel value="0.0107233383390201" flag="0"/>
			<psa03 value="0.0400890171299715" flag="0"/>
			<psa10 value="0.00406303978300526" flag="0"/>
			<psa30 value="0.000417892209814658" flag="0"/>
		</comp>
		<comp name="00.HNN" depth="0.0">
			<acc value="0.0228628763500242" flag="0"/>
			<vel value="0.00624051026590103" flag="0"/>
			<psa03 value="0.0307378959467527" flag="0"/>
			<psa10 value="0.00224695361636961" flag="0"/>
			<psa30 value="0.000271585194172909" flag="0"/>
		</comp>
		<comp name="00.HNZ" depth="0.0">
			<acc value="0.0350902044999481" flag="0"/>
			<vel value="0.00681854149757114" flag="0"/>
			<psa03 value="0.0168230696884702" flag="0"/>
			<psa10 value="0.00162682663264036" flag="0"/>
			<psa30 value="0.000348094367490154" flag="0"/>
		</comp>
	</station>
	<station code="NISR" name="NISR" netid="HL" source="National Observatory of Athens Seismic Network" insttype="" lat="36.6106" lon="27.131">
		<comp name="--.HNE" depth="0.0">
			<acc value="0.724376302102551" flag="0"/>
			<vel value="0.220272935475356" flag="0"/>
			<psa03 value="0.70755325546135" flag="0"/>
			<psa10 value="0.148343233464946" flag="0"/>
			<psa30 value="0.0119935959060939" flag="0"/>
		</comp>
		<comp name="--.HNN" depth="0.0">
			<acc value="0.625284343984949" flag="0"/>
			<vel value="0.168266620741289" flag="0"/>
			<psa03 value="0.590641869567805" flag="0"/>
			<psa10 value="0.0541080927296746" flag="0"/>
			<psa30 value="0.00864732627311338" flag="0"/>
		</comp>
		<comp name="--.HNZ" depth="0.0">
			<acc value="0.328722053036322" flag="0"/>
			<vel value="0.0591729900935456" flag="0"/>
			<psa03 value="0.280667862116419" flag="0"/>
			<psa10 value="0.0825091032247549" flag="0"/>
			<psa30 value="0.0040800418215202" flag="0"/>
		</comp>
	</station>
	<station code="SMG" name="SMG" netid="HL" source="National Observatory of Athens Seismic Network" insttype="" lat="37.70425" lon="26.83772">
		<comp name="00.HNE" depth="0.0">
			<acc value="0.0035277439784627" flag="0"/>
			<vel value="0.00173439841903256" flag="0"/>
			<psa03 value="0.011856684753842" flag="0"/>
			<psa10 value="0.0023637307756433" flag="0"/>
			<psa30 value="0.000298430518143873" flag="0"/>
		</comp>
		<comp name="00.HNN" depth="0.0">
			<acc value="0.00272173245935766" flag="0"/>
			<vel value="0.00146825605148455" flag="0"/>
			<psa03 value="0.00756143291848793" flag="0"/>
			<psa10 value="0.00163488022983165" flag="0"/>
			<psa30 value="0.00028813981062167" flag="0"/>
		</comp>
		<comp name="00.HNZ" depth="0.0">
			<acc value="0.0017728286906887" flag="0"/>
			<vel value="0.000954806683053164" flag="0"/>
			<psa03 value="0.00429525183535409" flag="0"/>
			<psa10 value="0.00135300432813654" flag="0"/>
			<psa30 value="0.000139148262582825" flag="0"/>
		</comp>
	</station>
</stationlist>
