<?xml version="1.0" encoding="UTF-8" standalone="yes"?>
<!DOCTYPE earthquake SYSTEM "stationlist.dtd">
<stationlist created="" xmlns="ch.ethz.sed.shakemap.usgs.xml">
  <station code="MYT1" name="MYT1" netid="HI" insttype="CMG-5TD,ACCELEROMETER,GURALP" commtype="DIG" lat="39.085" lon="26.5694">
    <comp name="--.HNE">
      <acc value="0.1195563236" flag="0"/>
      <vel value="0.0755508792" flag="0"/>
      <psa03 value="0.3427037930" flag="0"/>
      <psa10 value="0.1002118043" flag="0"/>
      <psa30 value="0.0233089553" flag="0"/>
    </comp>
    <comp name="--.HNN">
      <acc value="0.0920364593" flag="0"/>
      <vel value="0.0791897944" flag="0"/>
      <psa03 value="0.3447311506" flag="0"/>
      <psa10 value="0.0832028528" flag="0"/>
      <psa30 value="0.0246696304" flag="0"/>
    </comp>
    <comp name="--.HNZ">
      <acc value="0.0698070782" flag="0"/>
      <vel value="0.0450576464" flag="0"/>
      <psa03 value="0.1832012599" flag="0"/>
      <psa10 value="0.0616159295" flag="0"/>
      <psa30 value="0.0074163252" flag="0"/>
    </comp>
  </station>
  <station code="AKS" name="AKS" netid="KO" insttype="CMG-5T" commtype="DIG" lat="38.8785" lon="27.8129">
    <comp name="--.HNZ">
      <acc value="0.3905491994" flag="0"/>
      <vel value="0.0865782452" flag="0"/>
      <psa03 value="0.5528526556" flag="0"/>
      <psa10 value="0.0345471318" flag="0"/>
      <psa30 value="0.0146546498" flag="0"/>
    </comp>
    <comp name="--.HNE">
      <acc value="0.4240058038" flag="0"/>
      <vel value="0.1568391416" flag="0"/>
      <psa03 value="1.0047173590" flag="0"/>
      <psa10 value="0.0676389240" flag="0"/>
      <psa30 value="0.0219509633" flag="0"/>
    </comp>
  </station>
  <station code="ALT" name="ALT" netid="KO" insttype="CMG-5T" commtype="DIG" lat="39.0541" lon="30.1104">
    <comp name="--.HNN">
      <acc value="0.0460030012" flag="0"/>
      <vel value="0.0247496240" flag="0"/>
      <psa03 value="0.0870751714" flag="0"/>
      <psa10 value="0.0150911814" flag="0"/>
      <psa30 value="0.0092924261" flag="0"/>
    </comp>
    <comp name="--.HNE">
      <acc value="0.0420024650" flag="0"/>
      <vel value="0.0187455576" flag="0"/>
      <psa03 value="0.1043777748" flag="0"/>
      <psa10 value="0.0139330969" flag="0"/>
      <psa30 value="0.0032576035" flag="0"/>
    </comp>
    <comp name="--.HNZ">
      <acc value="0.0281375565" flag="0"/>
      <vel value="0.0158237570" flag="0"/>
      <psa03 value="0.0696723678" flag="0"/>
      <psa10 value="0.0115034248" flag="0"/>
      <psa30 value="0.0055724195" flag="0"/>
    </comp>
  </station>
  <station code="ARMT" name="ARMT" netid="KO" insttype="CMG-3ESP" commtype="DIG" lat="40.5683" lon="28.866">
    <comp name="--.HHN">
      <acc value="0.1090431828" flag="0"/>
      <vel value="0.0553016595" flag="0"/>
      <psa03 value="0.2308433836" flag="0"/>
      <psa10 value="0.0605285479" flag="0"/>
      <psa30 value="0.0057600231" flag="0"/>
    </comp>
    <comp name="--.HHZ">
      <acc value="0.0952506163" flag="0"/>
      <vel value="0.0590589562" flag="0"/>
      <psa03 value="0.1572526558" flag="0"/>
      <psa10 value="0.0296216208" flag="0"/>
      <psa30 value="0.0128859138" flag="0"/>
    </comp>
  </station>
  <station code="AYDB" name="AYDB" netid="KO" insttype="CMG-3ESPC" commtype="DIG" lat="37.9467" lon="27.8908">
    <comp name="--.HHE">
      <acc value="0.1192439226" flag="0"/>
      <vel value="0.0568536901" flag="0"/>
      <psa03 value="0.5114570775" flag="0"/>
      <psa10 value="0.0243266476" flag="0"/>
      <psa30 value="0.0097131450" flag="0"/>
    </comp>
    <comp name="--.HHN">
      <acc value="0.1026129689" flag="0"/>
      <vel value="0.0503679811" flag="0"/>
      <psa03 value="0.3155482767" flag="0"/>
      <psa10 value="0.0377975954" flag="0"/>
      <psa30 value="0.0088608846" flag="0"/>
    </comp>
    <comp name="--.HHZ">
      <acc value="0.1099119945" flag="0"/>
      <vel value="0.0408618626" flag="0"/>
      <psa03 value="0.1681942940" flag="0"/>
      <psa10 value="0.0210332711" flag="0"/>
      <psa30 value="0.0099034771" flag="0"/>
    </comp>
  </station>
  <station code="AYVL" name="AYVL" netid="KO" insttype="CMG-6T" commtype="DIG" lat="39.2907" lon="26.69">
    <comp name="--.HHZ">
      <acc value="0.1245684696" flag="0"/>
      <vel value="0.0367910202" flag="0"/>
      <psa03 value="0.2169809518" flag="0"/>
      <psa10 value="0.0264957509" flag="0"/>
      <psa30 value="0.0009777282" flag="0"/>
    </comp>
    <comp name="--.HHN">
      <acc value="0.2769986332" flag="0"/>
      <vel value="0.0868890442" flag="0"/>
      <psa03 value="0.4420368822" flag="0"/>
      <psa10 value="0.0621787239" flag="0"/>
      <psa30 value="0.0031154419" flag="0"/>
    </comp>
    <comp name="--.HHE">
      <acc value="0.2973390331" flag="0"/>
      <vel value="0.0988166121" flag="0"/>
      <psa03 value="0.5058281101" flag="0"/>
      <psa10 value="0.0583611565" flag="0"/>
      <psa30 value="0.0029410334" flag="0"/>
    </comp>
  </station>
  <station code="BABD" name="BABD" netid="KO" insttype="CMG-6T" commtype="DIG" lat="37.802" lon="28.8531">
    <comp name="--.HHE">
      <acc value="0.0153670626" flag="0"/>
      <vel value="0.0201734320" flag="0"/>
      <psa03 value="0.0425379389" flag="0"/>
      <psa10 value="0.0233242715" flag="0"/>
      <psa30 value="0.0085455647" flag="0"/>
    </comp>
    <comp name="--.HHZ">
      <acc value="0.0144625637" flag="0"/>
      <vel value="0.0152884232" flag="0"/>
      <psa03 value="0.0199564041" flag="0"/>
      <psa10 value="0.0123188523" flag="0"/>
      <psa30 value="0.0043387481" flag="0"/>
    </comp>
    <comp name="--.HHN">
      <acc value="0.0172152697" flag="0"/>
      <vel value="0.0209953787" flag="0"/>
      <psa03 value="0.0277675469" flag="0"/>
      <psa10 value="0.0364071654" flag="0"/>
      <psa30 value="0.0041055852" flag="0"/>
    </comp>
  </station>
  <station code="BAKL" name="BAKL" netid="KO" insttype="CMG-6T" commtype="DIG" lat="37.9793" lon="29.6135">
    <comp name="--.HHE">
      <acc value="0.0237505267" flag="0"/>
      <vel value="0.0227240376" flag="0"/>
      <psa03 value="0.0888292704" flag="0"/>
      <psa10 value="0.0314055159" flag="0"/>
      <psa30 value="0.0071991153" flag="0"/>
    </comp>
    <comp name="--.HHN">
      <acc value="0.0298865112" flag="0"/>
      <vel value="0.0396500934" flag="0"/>
      <psa03 value="0.0540663719" flag="0"/>
      <psa10 value="0.0747430386" flag="0"/>
      <psa30 value="0.0117113433" flag="0"/>
    </comp>
    <comp name="--.HHZ">
      <acc value="0.0140694927" flag="0"/>
      <vel value="0.0153568302" flag="0"/>
      <psa03 value="0.0320079786" flag="0"/>
      <psa10 value="0.0301969806" flag="0"/>
      <psa30 value="0.0058468734" flag="0"/>
    </comp>
  </station>
  <station code="BALB" name="BALB" netid="KO" insttype="CMG-5T" commtype="DIG" lat="39.6507" lon="27.8642">
    <comp name="--.HNE">
      <acc value="0.6158312516" flag="0"/>
      <vel value="0.1577571574" flag="0"/>
      <psa03 value="0.7683425973" flag="0"/>
      <psa10 value="0.0785628798" flag="0"/>
      <psa30 value="0.0250235626" flag="0"/>
    </comp>
    <comp name="--.HNZ">
      <acc value="0.3037164737" flag="0"/>
      <vel value="0.0737992170" flag="0"/>
      <psa03 value="0.3894383580" flag="0"/>
      <psa10 value="0.0432723566" flag="0"/>
      <psa30 value="0.0185677951" flag="0"/>
    </comp>
    <comp name="--.HNN">
      <acc value="0.4717505682" flag="0"/>
      <vel value="0.1727885594" flag="0"/>
      <psa03 value="0.9711720033" flag="0"/>
      <psa10 value="0.1225793159" flag="0"/>
      <psa30 value="0.0228878331" flag="0"/>
    </comp>
  </station>
  <station code="BIGA" name="BIGA" netid="KO" insttype="CMG-5T" commtype="DIG" lat="40.2813" lon="27.1505">
    <comp name="--.HNN">
      <acc value="0.2439878126" flag="0"/>
      <vel value="0.1018768959" flag="0"/>
      <psa03 value="0.6385014989" flag="0"/>
      <psa10 value="0.0503893243" flag="0"/>
      <psa30 value="0.0041911956" flag="0"/>
    </comp>
    <comp name="--.HNZ">
      <acc value="0.1172351206" flag="0"/>
      <vel value="0.0547874792" flag="0"/>
      <psa03 value="0.1598804220" flag="0"/>
      <psa10 value="0.0186694484" flag="0"/>
      <psa30 value="0.0090685083" flag="0"/>
    </comp>
    <comp name="--.HNE">
      <acc value="0.2188384671" flag="0"/>
      <vel value="0.0719775769" flag="0"/>
      <psa03 value="0.3945250374" flag="0"/>
      <psa10 value="0.0438288939" flag="0"/>
      <psa30 value="0.0067313421" flag="0"/>
    </comp>
  </station>
  <station code="BLCB" name="BLCB" netid="KO" insttype="CMG-3T" commtype="DIG" lat="38.3853" lon="27.042">
    <comp name="--.HHE">
      <acc value="0.1641619299" flag="0"/>
      <vel value="0.0783501013" flag="0"/>
      <psa03 value="1.0211733793" flag="0"/>
      <psa10 value="0.0315200520" flag="0"/>
      <psa30 value="0.0110447441" flag="0"/>
    </comp>
    <comp name="--.HHN">
      <acc value="0.0001063486" flag="0"/>
      <vel value="0.0000431224" flag="0"/>
      <psa03 value="0.0003056857" flag="0"/>
      <psa10 value="0.0000202537" flag="0"/>
      <psa30 value="0.0000062952" flag="0"/>
    </comp>
    <comp name="--.HHZ">
      <acc value="0.1257329660" flag="0"/>
      <vel value="0.0561614356" flag="0"/>
      <psa03 value="0.5579811392" flag="0"/>
      <psa10 value="0.0169590072" flag="0"/>
      <psa30 value="0.0061755042" flag="0"/>
    </comp>
  </station>
  <station code="BMYO" name="BMYO" netid="KO" insttype="CMG-5T" commtype="DIG" lat="39.8098" lon="26.6009">
    <comp name="--.HNN">
      <acc value="0.2263508201" flag="0"/>
      <vel value="0.0972519890" flag="0"/>
      <psa03 value="0.4796832711" flag="0"/>
      <psa10 value="0.0654365229" flag="0"/>
      <psa30 value="0.0069012314" flag="0"/>
    </comp>
    <comp name="--.HNE">
      <acc value="0.1161052915" flag="0"/>
      <vel value="0.0593949313" flag="0"/>
      <psa03 value="0.3568247355" flag="0"/>
      <psa10 value="0.0369338063" flag="0"/>
      <psa30 value="0.0083900830" flag="0"/>
    </comp>
    <comp name="--.HNZ">
      <acc value="0.0604027697" flag="0"/>
      <vel value="0.0319514894" flag="0"/>
      <psa03 value="0.1445804862" flag="0"/>
      <psa10 value="0.0412906179" flag="0"/>
      <psa30 value="0.0058564922" flag="0"/>
    </comp>
  </station>
  <station code="CANM" name="CANM" netid="KO" insttype="CMG-5T" commtype="DIG" lat="40.0113" lon="27.0529">
    <comp name="--.HNE">
      <acc value="0.1653347480" flag="0"/>
      <vel value="0.0930248296" flag="0"/>
      <psa03 value="0.4034502365" flag="0"/>
      <psa10 value="0.0493699750" flag="0"/>
      <psa30 value="0.0068474736" flag="0"/>
    </comp>
    <comp name="--.HNN">
      <acc value="0.1486847425" flag="0"/>
      <vel value="0.0759861898" flag="0"/>
      <psa03 value="0.3810459915" flag="0"/>
      <psa10 value="0.0896550666" flag="0"/>
      <psa30 value="0.0070688658" flag="0"/>
    </comp>
    <comp name="--.HNZ">
      <acc value="0.0927819140" flag="0"/>
      <vel value="0.0507285622" flag="0"/>
      <psa03 value="0.1780128802" flag="0"/>
      <psa10 value="0.0269567947" flag="0"/>
      <psa30 value="0.0085585430" flag="0"/>
    </comp>
  </station>
  <station code="DKL" name="DKL" netid="KO" insttype="CMG-3ESPC" commtype="DIG" lat="39.0713" lon="26.9053">
    <comp name="--.HHE">
      <acc value="0.0518415986" flag="0"/>
      <vel value="0.0349528343" flag="0"/>
      <psa03 value="0.1131899297" flag="0"/>
      <psa10 value="0.0355193339" flag="0"/>
      <psa30 value="0.0080437637" flag="0"/>
    </comp>
    <comp name="--.HHN">
      <acc value="0.0550638713" flag="0"/>
      <vel value="0.0405333479" flag="0"/>
      <psa03 value="0.2303230495" flag="0"/>
      <psa10 value="0.0251350403" flag="0"/>
      <psa30 value="0.0152423906" flag="0"/>
    </comp>
    <comp name="--.HHZ">
      <acc value="0.0613160087" flag="0"/>
      <vel value="0.0298841526" flag="0"/>
      <psa03 value="0.1400108012" flag="0"/>
      <psa10 value="0.0162905695" flag="0"/>
      <psa30 value="0.0112561303" flag="0"/>
    </comp>
  </station>
  <station code="DST" name="DST" netid="KO" insttype="CMG-5T" commtype="DIG" lat="39.6041" lon="28.6267">
    <comp name="--.HNE">
      <acc value="0.3000590607" flag="0"/>
      <vel value="0.0921415720" flag="0"/>
      <psa03 value="0.3623535428" flag="0"/>
      <psa10 value="0.0932438268" flag="0"/>
      <psa30 value="0.0132472601" flag="0"/>
    </comp>
    <comp name="--.HNN">
      <acc value="0.4373989844" flag="0"/>
      <vel value="0.1547549496" flag="0"/>
      <psa03 value="0.5356004377" flag="0"/>
      <psa10 value="0.0923346282" flag="0"/>
      <psa30 value="0.0217272690" flag="0"/>
    </comp>
    <comp name="--.HNZ">
      <acc value="0.2921084316" flag="0"/>
      <vel value="0.0959185069" flag="0"/>
      <psa03 value="0.6618957675" flag="0"/>
      <psa10 value="0.0760893018" flag="0"/>
      <psa30 value="0.0108576466" flag="0"/>
    </comp>
  </station>
  <station code="EDC" name="EDC" netid="KO" insttype="CMG-3T" commtype="DIG" lat="40.3465" lon="27.8618">
    <comp name="--.HHE">
      <acc value="0.1615193985" flag="0"/>
      <vel value="0.1015260277" flag="0"/>
      <psa03 value="0.4531092182" flag="0"/>
      <psa10 value="0.0816839268" flag="0"/>
      <psa30 value="0.0201291275" flag="0"/>
    </comp>
    <comp name="--.HHN">
      <acc value="0.2381113328" flag="0"/>
      <vel value="0.1468991981" flag="0"/>
      <psa03 value="0.7424030693" flag="0"/>
      <psa10 value="0.0804092219" flag="0"/>
      <psa30 value="0.0146005865" flag="0"/>
    </comp>
    <comp name="--.HHZ">
      <acc value="0.0943202189" flag="0"/>
      <vel value="0.0555099439" flag="0"/>
      <psa03 value="0.1828783294" flag="0"/>
      <psa10 value="0.0346419938" flag="0"/>
      <psa30 value="0.0110983704" flag="0"/>
    </comp>
  </station>
  <station code="ESKY" name="ESKY" netid="KO" insttype="CMG-5T" commtype="DIG" lat="40.5918" lon="28.9071">
    <comp name="--.HNE">
      <acc value="0.1540230396" flag="0"/>
      <vel value="0.0967097422" flag="0"/>
      <psa03 value="0.3984461264" flag="0"/>
      <psa10 value="0.0653019727" flag="0"/>
      <psa30 value="0.0117037724" flag="0"/>
    </comp>
    <comp name="--.HNN">
      <acc value="0.1360474005" flag="0"/>
      <vel value="0.1074889027" flag="0"/>
      <psa03 value="0.4008126666" flag="0"/>
      <psa10 value="0.1103691518" flag="0"/>
      <psa30 value="0.0095769464" flag="0"/>
    </comp>
    <comp name="--.HNZ">
      <acc value="0.0790200969" flag="0"/>
      <vel value="0.0639178658" flag="0"/>
      <psa03 value="0.1942465395" flag="0"/>
      <psa10 value="0.0664715299" flag="0"/>
      <psa30 value="0.0114187818" flag="0"/>
    </comp>
  </station>
  <station code="GEML" name="GEML" netid="KO" insttype="CMG-3T" commtype="DIG" lat="40.4646" lon="29.2116">
    <comp name="--.HHZ">
      <acc value="0.0975712813" flag="0"/>
      <vel value="0.0344939430" flag="0"/>
      <psa03 value="0.1414125997" flag="0"/>
      <psa10 value="0.0282532487" flag="0"/>
      <psa30 value="0.0118466818" flag="0"/>
    </comp>
    <comp name="--.HHE">
      <acc value="0.1818281665" flag="0"/>
      <vel value="0.0807967615" flag="0"/>
      <psa03 value="0.2218165235" flag="0"/>
      <psa10 value="0.0332250434" flag="0"/>
      <psa30 value="0.0093266560" flag="0"/>
    </comp>
    <comp name="--.HHN">
      <acc value="0.1260334086" flag="0"/>
      <vel value="0.0567457410" flag="0"/>
      <psa03 value="0.2130514539" flag="0"/>
      <psa10 value="0.0272726398" flag="0"/>
      <psa30 value="0.0105592081" flag="0"/>
    </comp>
  </station>
  <station code="GMLD" name="GMLD" netid="KO" insttype="CMG-5T" commtype="DIG" lat="38.0766" lon="26.9157">
    <comp name="--.HNE">
      <acc value="0.1846105435" flag="0"/>
      <vel value="0.1029688913" flag="0"/>
      <psa03 value="0.5052273727" flag="0"/>
      <psa10 value="0.0562961737" flag="0"/>
      <psa30 value="0.0102112236" flag="0"/>
    </comp>
    <comp name="--.HNN">
      <acc value="0.1622261346" flag="0"/>
      <vel value="0.0940578069" flag="0"/>
      <psa03 value="0.4097510765" flag="0"/>
      <psa10 value="0.0480921928" flag="0"/>
      <psa30 value="0.0082930736" flag="0"/>
    </comp>
    <comp name="--.HNZ">
      <acc value="0.1166547465" flag="0"/>
      <vel value="0.0613927601" flag="0"/>
      <psa03 value="0.4194475733" flag="0"/>
      <psa10 value="0.0309950168" flag="0"/>
      <psa30 value="0.0065337958" flag="0"/>
    </comp>
  </station>
  <station code="GOMA" name="GOMA" netid="KO" insttype="CMG-5T" commtype="DIG" lat="38.7077" lon="27.9175">
    <comp name="--.HNZ">
      <acc value="0.4282281683" flag="0"/>
      <vel value="0.1511713852" flag="0"/>
      <psa03 value="1.1860871216" flag="0"/>
      <psa10 value="0.0461287592" flag="0"/>
      <psa30 value="0.0248220489" flag="0"/>
    </comp>
    <comp name="--.HNN">
      <acc value="1.0494722410" flag="0"/>
      <vel value="0.6896430777" flag="0"/>
      <psa03 value="4.2042540712" flag="0"/>
      <psa10 value="0.2096169046" flag="0"/>
      <psa30 value="0.0338166461" flag="0"/>
    </comp>
  </station>
  <station code="GONE" name="GONE" netid="KO" insttype="CMG-5T" commtype="DIG" lat="40.0466" lon="27.686">
    <comp name="--.HNE">
      <acc value="0.2145788378" flag="0"/>
      <vel value="0.1074643700" flag="0"/>
      <psa03 value="0.4420377889" flag="0"/>
      <psa10 value="0.0924329383" flag="0"/>
      <psa30 value="0.0150412321" flag="0"/>
    </comp>
    <comp name="--.HNN">
      <acc value="0.3979275435" flag="0"/>
      <vel value="0.1602549779" flag="0"/>
      <psa03 value="1.0866737550" flag="0"/>
      <psa10 value="0.1305064798" flag="0"/>
      <psa30 value="0.0122679590" flag="0"/>
    </comp>
    <comp name="--.HNZ">
      <acc value="0.1104727436" flag="0"/>
      <vel value="0.0489188167" flag="0"/>
      <psa03 value="0.2111210759" flag="0"/>
      <psa10 value="0.0325113192" flag="0"/>
      <psa30 value="0.0059137260" flag="0"/>
    </comp>
  </station>
  <station code="GORD" name="GORD" netid="KO" insttype="CMG-5T" commtype="DIG" lat="38.9088" lon="28.1769">
    <comp name="--.HNE">
      <acc value="0.4744188868" flag="0"/>
      <vel value="0.1605932989" flag="0"/>
      <psa03 value="0.9077895816" flag="0"/>
      <psa10 value="0.1368790047" flag="0"/>
      <psa30 value="0.0275368930" flag="0"/>
    </comp>
    <comp name="--.HNN">
      <acc value="0.3603360441" flag="0"/>
      <vel value="0.2768466901" flag="0"/>
      <psa03 value="0.6699819101" flag="0"/>
      <psa10 value="0.2791424632" flag="0"/>
      <psa30 value="0.0710432347" flag="0"/>
    </comp>
    <comp name="--.HNZ">
      <acc value="0.4047166996" flag="0"/>
      <vel value="0.2136087633" flag="0"/>
      <psa03 value="0.6705739630" flag="0"/>
      <psa10 value="0.1438686991" flag="0"/>
      <psa30 value="0.0726784000" flag="0"/>
    </comp>
  </station>
  <station code="KCTX" name="KCTX" netid="KO" insttype="CMG-3ESP" commtype="DIG" lat="40.2626" lon="28.3353">
    <comp name="--.HHE">
      <acc value="0.1160669520" flag="0"/>
      <vel value="0.0560842556" flag="0"/>
      <psa03 value="0.1706306957" flag="0"/>
      <psa10 value="0.0458313820" flag="0"/>
      <psa30 value="0.0124334547" flag="0"/>
    </comp>
    <comp name="--.HHN">
      <acc value="0.1332270716" flag="0"/>
      <vel value="0.0495300845" flag="0"/>
      <psa03 value="0.2176534952" flag="0"/>
      <psa10 value="0.0366867041" flag="0"/>
      <psa30 value="0.0106577006" flag="0"/>
    </comp>
    <comp name="--.HHZ">
      <acc value="0.1032085477" flag="0"/>
      <vel value="0.0490428656" flag="0"/>
      <psa03 value="0.1436473187" flag="0"/>
      <psa10 value="0.0289118789" flag="0"/>
      <psa30 value="0.0079836836" flag="0"/>
    </comp>
  </station>
