<?xml version="1.0" encoding="UTF-8" standalone="yes"?>
<!DOCTYPE earthquake SYSTEM "stationlist.dtd">
<stationlist created="" xmlns="ch.ethz.sed.shakemap.usgs.xml">
  <station code="MYT1" name="MYT1" netid="HI" insttype="CMG-5TD,ACCELEROMETER,GURALP" commtype="DIG" lat="39.085" lon="26.5694">
    <comp name="--.HNE">
      <acc value="0.1195563236" flag="0"/>
      <vel value="0.0755508792" flag="0"/>
      <psa03 value="0.3427037930" flag="0"/>
      <psa10 value="0.1002118043" flag="0"/>
      <psa30 value="0.0233089553" flag="0"/>
    </comp>
    <comp name="--.HNN">
      <acc value="0.0920364593" flag="0"/>
      <vel value="0.0791897944" flag="0"/>
      <psa03 value="0.3447311506" flag="0"/>
      <psa10 value="0.0832028528" flag="0"/>
      <psa30 value="0.0246696304" flag="0"/>
    </comp>
    <comp name="--.HNZ">
      <acc value="0.0698070782" flag="0"/>
      <vel value="0.0450576464" flag="0"/>
      <psa03 value="0.1832012599" flag="0"/>
      <psa10 value="0.0616159295" flag="0"/>
      <psa30 value="0.0074163252" flag="0"/>
    </comp>
  </station>
  <station code="AYDN" name="AYDN" netid="TU" insttype="T" commtype="DIG" lat="37.6608" lon="27.8792">
    <comp name="--.HHN">
      <acc value="0.0441027754" flag="0"/>
      <vel value="0.0158611025" flag="0"/>
      <psa03 value="0.0882336043" flag="0"/>
      <psa10 value="0.0137839264" flag="0"/>
      <psa30 value="0.0017250789" flag="0"/>
    </comp>
    <comp name="--.HHE">
      <acc value="0.0372323308" flag="0"/>
      <vel value="0.0150735975" flag="0"/>
      <psa03 value="0.1241379263" flag="0"/>
      <psa10 value="0.0160883965" flag="0"/>
      <psa30 value="0.0017054251" flag="0"/>
    </comp>
    <comp name="--.HHZ">
      <acc value="0.0510671705" flag="0"/>
      <vel value="0.0228182503" flag="0"/>
      <psa03 value="0.0911427369" flag="0"/>
      <psa10 value="0.0171551386" flag="0"/>
      <psa30 value="0.0083204477" flag="0"/>
    </comp>
  </station>
</stationlist>
