<?xml version="1.0" encoding="UTF-8" standalone="yes"?>
<!DOCTYPE earthquake SYSTEM "stationlist.dtd">
<stationlist created="" xmlns="ch.ethz.sed.shakemap.usgs.xml">
  <station code="GVD" name="GVD" netid="GE" insttype="STS-2/N" lat="34.8391" lon="24.0874">
    <comp name="--.HHE">
      <acc value="0.0202886981" flag="0"/>
      <vel value="0.0095441108" flag="0"/>
      <psa03 value="0.0547610840" flag="0"/>
      <psa10 value="0.0067582942" flag="0"/>
      <psa30 value="0.0004981371" flag="0"/>
    </comp>
    <comp name="--.HHN">
      <acc value="0.0166824016" flag="0"/>
      <vel value="0.0107028684" flag="0"/>
      <psa03 value="0.0505497481" flag="0"/>
      <psa10 value="0.0066463037" flag="0"/>
      <psa30 value="0.0008422515" flag="0"/>
    </comp>
    <comp name="--.HHZ">
      <acc value="0.0142887341" flag="0"/>
      <vel value="0.0044506664" flag="0"/>
      <psa03 value="0.0225893644" flag="0"/>
      <psa10 value="0.0040875460" flag="0"/>
      <psa30 value="0.0002900887" flag="0"/>
    </comp>
  </station>
  <station code="IMMV" name="IMMV" netid="GE" insttype="STS-2/N" lat="35.4606" lon="23.9811">
    <comp name="--.HHE">
      <acc value="0.0080551521" flag="0"/>
      <vel value="0.0065376982" flag="0"/>
      <psa03 value="0.0242852943" flag="0"/>
      <psa10 value="0.0061929745" flag="0"/>
      <psa30 value="0.0006979448" flag="0"/>
    </comp>
    <comp name="--.HHN">
      <acc value="0.0081256996" flag="0"/>
      <vel value="0.0072340092" flag="0"/>
      <psa03 value="0.0213768662" flag="0"/>
      <psa10 value="0.0072492831" flag="0"/>
      <psa30 value="0.0006528456" flag="0"/>
    </comp>
    <comp name="--.HHZ">
      <acc value="0.0047104497" flag="0"/>
      <vel value="0.0032199942" flag="0"/>
      <psa03 value="0.0132928129" flag="0"/>
      <psa10 value="0.0037195554" flag="0"/>
      <psa30 value="0.0003013791" flag="0"/>
    </comp>
  </station>
</stationlist>
