<?xml version="1.0" encoding="UTF-8" standalone="yes"?>
<!DOCTYPE earthquake SYSTEM "stationlist.dtd">
<stationlist created="" xmlns="ch.ethz.sed.shakemap.usgs.xml">
  <station code="GAZ" name="GAZ" netid="KO" insttype="CMG-3T" lat="37.1721" lon="37.2096">
    <comp name="--.HHE">
      <acc value="0.0265966772" flag="0"/>
      <vel value="0.0094469216" flag="0"/>
      <psa03 value="0.0392829766" flag="0"/>
      <psa10 value="0.0136588578" flag="0"/>
      <psa30 value="0.0007193378" flag="0"/>
    </comp>
    <comp name="--.HHN">
      <acc value="0.0258805673" flag="0"/>
      <vel value="0.0086844564" flag="0"/>
      <psa03 value="0.0310699312" flag="0"/>
      <psa10 value="0.0146754712" flag="0"/>
      <psa30 value="0.0008012736" flag="0"/>
    </comp>
    <comp name="--.HHZ">
      <acc value="0.0220987620" flag="0"/>
      <vel value="0.0075551940" flag="0"/>
      <psa03 value="0.0278175399" flag="0"/>
      <psa10 value="0.0093079065" flag="0"/>
      <psa30 value="0.0007990027" flag="0"/>
    </comp>
  </station>
  <station code="KMRS" name="KMRS" netid="KO" insttype="CMG-3T" lat="37.5053" lon="36.9">
    <comp name="--.HHN">
      <acc value="0.0344661192" flag="0"/>
      <vel value="0.0200483512" flag="0"/>
      <psa03 value="0.0893647020" flag="0"/>
      <psa10 value="0.0253559446" flag="0"/>
      <psa30 value="0.0012702966" flag="0"/>
    </comp>
    <comp name="--.HHZ">
      <acc value="0.0297984762" flag="0"/>
      <vel value="0.0171768202" flag="0"/>
      <psa03 value="0.0675220680" flag="0"/>
      <psa10 value="0.0254751340" flag="0"/>
      <psa30 value="0.0015917336" flag="0"/>
    </comp>
    <comp name="--.HHE">
      <acc value="0.0322109199" flag="0"/>
      <vel value="0.0173307314" flag="0"/>
      <psa03 value="0.0765622816" flag="0"/>
      <psa10 value="0.0146764916" flag="0"/>
      <psa30 value="0.0016415326" flag="0"/>
    </comp>
  </station>
</stationlist>
