<?xml version="1.0" encoding="UTF-8" standalone="yes"?>
<!DOCTYPE earthquake SYSTEM "stationlist.dtd">
<stationlist created="" xmlns="ch.ethz.sed.shakemap.usgs.xml">
  <station code="APE" name="APE" netid="GE" insttype="STS-2/N" lat="37.0727" lon="25.523">
    <comp name="--.HHZ">
      <acc value="0.0662651042" flag="0"/>
      <vel value="0.0097320326" flag="0"/>
      <psa03 value="0.0500462994" flag="0"/>
      <psa10 value="0.0083706777" flag="0"/>
      <psa30 value="0.0025594502" flag="0"/>
    </comp>
    <comp name="--.HHE">
      <acc value="0.1449204121" flag="0"/>
      <vel value="0.0230306361" flag="0"/>
      <psa03 value="0.0644477912" flag="0"/>
      <psa10 value="0.0087871239" flag="0"/>
      <psa30 value="0.0021779191" flag="0"/>
    </comp>
    <comp name="--.HHN">
      <acc value="0.1035719091" flag="0"/>
      <vel value="0.0210788630" flag="0"/>
      <psa03 value="0.0457708538" flag="0"/>
      <psa10 value="0.0120621708" flag="0"/>
      <psa30 value="0.0023359607" flag="0"/>
    </comp>
  </station>
  <station code="THERA" name="THERA" netid="GE" insttype="STS-2/N" lat="36.367" lon="25.4753">
    <comp name="--.HHZ">
      <acc value="0.1682529001" flag="0"/>
      <vel value="0.0379215796" flag="0"/>
      <psa03 value="0.1515448408" flag="0"/>
      <psa10 value="0.0181576585" flag="0"/>
      <psa30 value="0.0015303047" flag="0"/>
    </comp>
    <comp name="--.HHE">
      <acc value="0.2143367044" flag="0"/>
      <vel value="0.0565720030" flag="0"/>
      <psa03 value="0.3518771934" flag="0"/>
      <psa10 value="0.0234762945" flag="0"/>
      <psa30 value="0.0024360220" flag="0"/>
    </comp>
    <comp name="--.HHN">
      <acc value="0.1226120121" flag="0"/>
      <vel value="0.0264145686" flag="0"/>
      <psa03 value="0.1784278008" flag="0"/>
      <psa10 value="0.0088291091" flag="0"/>
      <psa30 value="0.0010246749" flag="0"/>
    </comp>
  </station>
  <station code="SNT1" name="SNT1" netid="HA" insttype="30" lat="36.4159" lon="25.4282">
    <comp name="--.HHN">
      <acc value="0.1485914670" flag="0"/>
      <vel value="0.0698804380" flag="0"/>
      <psa03 value="0.2666030619" flag="0"/>
      <psa10 value="0.0376264700" flag="0"/>
      <psa30 value="0.0035658996" flag="0"/>
    </comp>
    <comp name="--.HHE">
      <acc value="0.1576153131" flag="0"/>
      <vel value="0.0667611912" flag="0"/>
      <psa03 value="0.2042964602" flag="0"/>
      <psa10 value="0.0274356433" flag="0"/>
      <psa30 value="0.0037653640" flag="0"/>
    </comp>
    <comp name="--.HHZ">
      <acc value="0.1484158713" flag="0"/>
      <vel value="0.0364242492" flag="0"/>
      <psa03 value="0.1672111031" flag="0"/>
      <psa10 value="0.0259480441" flag="0"/>
      <psa30 value="0.0022028281" flag="0"/>
    </comp>
  </station>
  <station code="NAX1" name="NAX1" netid="HI" insttype="CMG-5TD,ACCELEROMETER,GURALP" lat="37.1014" lon="25.3741">
    <comp name="--.HNE">
      <acc value="0.0934389364" flag="0"/>
      <vel value="0.0209796760" flag="0"/>
      <psa03 value="0.0700628817" flag="0"/>
      <psa10 value="0.0064682513" flag="0"/>
      <psa30 value="0.0009246889" flag="0"/>
    </comp>
    <comp name="--.HNN">
      <acc value="0.0847416737" flag="0"/>
      <vel value="0.0132420668" flag="0"/>
      <psa03 value="0.0518533391" flag="0"/>
      <psa10 value="0.0084988821" flag="0"/>
      <psa30 value="0.0014083192" flag="0"/>
    </comp>
    <comp name="--.HNZ">
      <acc value="0.0459311387" flag="0"/>
      <vel value="0.0082237072" flag="0"/>
      <psa03 value="0.0374780695" flag="0"/>
      <psa10 value="0.0075919757" flag="0"/>
      <psa30 value="0.0021162963" flag="0"/>
    </comp>
  </station>
  <station code="AMGA" name="AMGA" netid="HL" insttype="CMG-5TD" lat="36.8316" lon="25.8938">
    <comp name="00.HNE">
      <acc value="0.2120570141" flag="0"/>
      <vel value="0.0368231202" flag="0"/>
      <psa03 value="0.1006372362" flag="0"/>
      <psa10 value="0.0169623332" flag="0"/>
      <psa30 value="0.0017736899" flag="0"/>
    </comp>
    <comp name="00.HNZ">
      <acc value="0.1737716688" flag="0"/>
      <vel value="0.0402499199" flag="0"/>
      <psa03 value="0.1047123156" flag="0"/>
      <psa10 value="0.0075978871" flag="0"/>
      <psa30 value="0.0021792446" flag="0"/>
    </comp>
    <comp name="00.HNN">
      <acc value="0.2176003968" flag="0"/>
      <vel value="0.0386054095" flag="0"/>
      <psa03 value="0.0752583663" flag="0"/>
      <psa10 value="0.0129689231" flag="0"/>
      <psa30 value="0.0033163521" flag="0"/>
    </comp>
  </station>
  <station code="APE" name="APE" netid="HL" insttype="120" lat="37.0727" lon="25.523">
    <comp name="--.HHE">
      <acc value="0.1262495473" flag="0"/>
      <vel value="0.0222030751" flag="0"/>
      <psa03 value="0.0623227736" flag="0"/>
      <psa10 value="0.0086903605" flag="0"/>
      <psa30 value="0.0021725520" flag="0"/>
    </comp>
    <comp name="--.HHN">
      <acc value="0.0918669558" flag="0"/>
      <vel value="0.0204376607" flag="0"/>
      <psa03 value="0.0445262898" flag="0"/>
      <psa10 value="0.0119274966" flag="0"/>
      <psa30 value="0.0023280139" flag="0"/>
    </comp>
    <comp name="--.HHZ">
      <acc value="0.0607157525" flag="0"/>
      <vel value="0.0094563382" flag="0"/>
      <psa03 value="0.0483510990" flag="0"/>
      <psa10 value="0.0083096730" flag="0"/>
      <psa30 value="0.0025551906" flag="0"/>
    </comp>
  </station>
  <station code="MHLO" name="MHLO" netid="HL" insttype="20" lat="36.6898" lon="24.4017">
    <comp name="--.HHE">
      <acc value="0.1303263297" flag="0"/>
      <vel value="0.0472602230" flag="0"/>
      <psa03 value="0.3485452895" flag="0"/>
      <psa10 value="0.0814758191" flag="0"/>
      <psa30 value="0.0034831457" flag="0"/>
    </comp>
    <comp name="--.HHZ">
      <acc value="0.0331735514" flag="0"/>
      <vel value="0.0273908317" flag="0"/>
      <psa03 value="0.1015149861" flag="0"/>
      <psa10 value="0.0456065386" flag="0"/>
      <psa30 value="0.0025825542" flag="0"/>
    </comp>
  </station>
  <station code="SAP3" name="SAP3" netid="HL" insttype="LE3D20_SMART24" lat="36.4356" lon="25.3454">
    <comp name="--.HHE">
      <acc value="0.5842183207" flag="0"/>
      <vel value="0.2378584922" flag="0"/>
      <psa03 value="0.9493483200" flag="0"/>
      <psa10 value="0.1209927168" flag="0"/>
      <psa30 value="0.0134470440" flag="0"/>
    </comp>
    <comp name="--.HHN">
      <acc value="0.7384124572" flag="0"/>
      <vel value="0.2397314645" flag="0"/>
      <psa03 value="1.2609495460" flag="0"/>
      <psa10 value="0.1038489885" flag="0"/>
      <psa30 value="0.0108357208" flag="0"/>
    </comp>
    <comp name="--.HHZ">
      <acc value="0.7222534049" flag="0"/>
      <vel value="0.1489900962" flag="0"/>
      <psa03 value="0.7938479128" flag="0"/>
      <psa10 value="0.0460456749" flag="0"/>
      <psa30 value="0.0067918858" flag="0"/>
    </comp>
  </station>
  <station code="THERA" name="THERA" netid="HL" insttype="120" lat="36.367" lon="25.4753">
    <comp name="--.HHE">
      <acc value="0.2100172379" flag="0"/>
      <vel value="0.0556408776" flag="0"/>
      <psa03 value="0.3415403688" flag="0"/>
      <psa10 value="0.0232182069" flag="0"/>
      <psa30 value="0.0024338880" flag="0"/>
    </comp>
    <comp name="--.HHN">
      <acc value="0.1216575517" flag="0"/>
      <vel value="0.0256886862" flag="0"/>
      <psa03 value="0.1731758613" flag="0"/>
      <psa10 value="0.0087193867" flag="0"/>
      <psa30 value="0.0010225972" flag="0"/>
    </comp>
    <comp name="--.HHZ">
      <acc value="0.1654273665" flag="0"/>
      <vel value="0.0367844224" flag="0"/>
      <psa03 value="0.1480674631" flag="0"/>
      <psa10 value="0.0178636550" flag="0"/>
      <psa30 value="0.0015293257" flag="0"/>
    </comp>
  </station>
  <station code="THRA" name="THRA" netid="HL" insttype="CMG-5" lat="36.415" lon="25.4324">
    <comp name="00.HNE">
      <acc value="0.5273255180" flag="0"/>
      <vel value="0.1268508814" flag="0"/>
      <psa03 value="1.0101440666" flag="0"/>
      <psa10 value="0.0820892587" flag="0"/>
      <psa30 value="0.0084303234" flag="0"/>
    </comp>
    <comp name="00.HNN">
      <acc value="0.4618097657" flag="0"/>
      <vel value="0.1452408257" flag="0"/>
      <psa03 value="1.0425414900" flag="0"/>
      <psa10 value="0.1078765403" flag="0"/>
      <psa30 value="0.0073763819" flag="0"/>
    </comp>
    <comp name="00.HNZ">
      <acc value="0.4173116800" flag="0"/>
      <vel value="0.1003393182" flag="0"/>
      <psa03 value="0.4162582301" flag="0"/>
      <psa10 value="0.0491509747" flag="0"/>
      <psa30 value="0.0033161441" flag="0"/>
    </comp>
  </station>
  <station code="TNSA" name="TNSA" netid="HL" insttype="CMG-5" lat="37.5394" lon="25.1631">
    <comp name="00.HNE">
      <acc value="0.0291578400" flag="0"/>
      <vel value="0.0095800877" flag="0"/>
      <psa03 value="0.0472102278" flag="0"/>
      <psa10 value="0.0040412637" flag="0"/>
      <psa30 value="0.0007202547" flag="0"/>
    </comp>
    <comp name="00.HNN">
      <acc value="0.0306800763" flag="0"/>
      <vel value="0.0080179812" flag="0"/>
      <psa03 value="0.0539424400" flag="0"/>
      <psa10 value="0.0052682657" flag="0"/>
      <psa30 value="0.0009528471" flag="0"/>
    </comp>
    <comp name="00.HNZ">
      <acc value="0.0238617753" flag="0"/>
      <vel value="0.0076707000" flag="0"/>
      <psa03 value="0.0323327179" flag="0"/>
      <psa10 value="0.0050891643" flag="0"/>
      <psa30 value="0.0011078113" flag="0"/>
    </comp>
  </station>
  <station code="CMBO" name="CMBO" netid="HT" insttype="120P," lat="36.4709" lon="25.4056">
    <comp name="--.HHE">
      <acc value="0.6619802725" flag="0"/>
      <vel value="0.1980941728" flag="0"/>
      <psa03 value="1.0144581810" flag="0"/>
      <psa10 value="0.1393631111" flag="0"/>
      <psa30 value="0.0098460169" flag="0"/>
    </comp>
    <comp name="--.HHN">
      <acc value="0.6424776990" flag="0"/>
      <vel value="0.2648499895" flag="0"/>
      <psa03 value="1.4986153358" flag="0"/>
      <psa10 value="0.1840309705" flag="0"/>
      <psa30 value="0.0095334337" flag="0"/>
    </comp>
    <comp name="--.HHZ">
      <acc value="0.5414867588" flag="0"/>
      <vel value="0.1886904089" flag="0"/>
      <psa03 value="1.1138379877" flag="0"/>
      <psa10 value="0.0587846196" flag="0"/>
      <psa30 value="0.0064343231" flag="0"/>
    </comp>
  </station>
</stationlist>
