<?xml version="1.0" encoding="UTF-8" standalone="yes"?>
<!DOCTYPE earthquake SYSTEM "stationlist.dtd">
<stationlist created="" xmlns="ch.ethz.sed.shakemap.usgs.xml">
  <station code="APE" name="APE" netid="GE" insttype="STS-2/N" lat="37.0727" lon="25.523">
    <comp name="--.HHE">
      <acc value="0.1449204120" flag="0"/>
      <vel value="0.0230306373" flag="0"/>
      <psa03 value="0.0644477912" flag="0"/>
      <psa10 value="0.0087871249" flag="0"/>
      <psa30 value="0.0021774535" flag="0"/>
    </comp>
    <comp name="--.HHN">
      <acc value="0.1035719091" flag="0"/>
      <vel value="0.0210788658" flag="0"/>
      <psa03 value="0.0457708538" flag="0"/>
      <psa10 value="0.0120621707" flag="0"/>
      <psa30 value="0.0023356463" flag="0"/>
    </comp>
    <comp name="--.HHZ">
      <acc value="0.0662651043" flag="0"/>
      <vel value="0.0097320483" flag="0"/>
      <psa03 value="0.0500462994" flag="0"/>
      <psa10 value="0.0083706786" flag="0"/>
      <psa30 value="0.0025588161" flag="0"/>
    </comp>
  </station>
  <station code="THERA" name="THERA" netid="GE" insttype="STS-2/N" lat="36.367" lon="25.4753">
    <comp name="--.HHE">
      <acc value="0.2143367043" flag="0"/>
      <vel value="0.0565719964" flag="0"/>
      <psa03 value="0.3518771934" flag="0"/>
      <psa10 value="0.0234762915" flag="0"/>
      <psa30 value="0.0024362489" flag="0"/>
    </comp>
    <comp name="--.HHN">
      <acc value="0.1226120118" flag="0"/>
      <vel value="0.0264145691" flag="0"/>
      <psa03 value="0.1784278008" flag="0"/>
      <psa10 value="0.0088291083" flag="0"/>
      <psa30 value="0.0010245265" flag="0"/>
    </comp>
    <comp name="--.HHZ">
      <acc value="0.1682529003" flag="0"/>
      <vel value="0.0379215806" flag="0"/>
      <psa03 value="0.1515448408" flag="0"/>
      <psa10 value="0.0181576500" flag="0"/>
      <psa30 value="0.0015306191" flag="0"/>
    </comp>
  </station>
  <station code="SNT1" name="SNT1" netid="HA" insttype="30" lat="36.4159" lon="25.4282">
    <comp name="--.HHZ">
      <acc value="0.1484158707" flag="0"/>
      <vel value="0.0364242380" flag="0"/>
      <psa03 value="0.1672111031" flag="0"/>
      <psa10 value="0.0259480520" flag="0"/>
      <psa30 value="0.0022034895" flag="0"/>
    </comp>
    <comp name="--.HHE">
      <acc value="0.1576153129" flag="0"/>
      <vel value="0.0667611651" flag="0"/>
      <psa03 value="0.2042964601" flag="0"/>
      <psa10 value="0.0274356301" flag="0"/>
      <psa30 value="0.0037629646" flag="0"/>
    </comp>
    <comp name="--.HHN">
      <acc value="0.1485914676" flag="0"/>
      <vel value="0.0698804120" flag="0"/>
      <psa03 value="0.2666030619" flag="0"/>
      <psa10 value="0.0376264614" flag="0"/>
      <psa30 value="0.0035655425" flag="0"/>
    </comp>
  </station>
  <station code="NAX1" name="NAX1" netid="HI" insttype="CMG-5TD,ACCELEROMETER,GURALP" lat="37.1014" lon="25.3741">
    <comp name="--.HNE">
      <acc value="0.0934389366" flag="0"/>
      <vel value="0.0209796656" flag="0"/>
      <psa03 value="0.0700628817" flag="0"/>
      <psa10 value="0.0064682524" flag="0"/>
      <psa30 value="0.0009248045" flag="0"/>
    </comp>
    <comp name="--.HNN">
      <acc value="0.0847416746" flag="0"/>
      <vel value="0.0132420688" flag="0"/>
      <psa03 value="0.0518533391" flag="0"/>
      <psa10 value="0.0084988828" flag="0"/>
      <psa30 value="0.0014080097" flag="0"/>
    </comp>
    <comp name="--.HNZ">
      <acc value="0.0459311394" flag="0"/>
      <vel value="0.0082237025" flag="0"/>
      <psa03 value="0.0374780695" flag="0"/>
      <psa10 value="0.0075919779" flag="0"/>
      <psa30 value="0.0021163743" flag="0"/>
    </comp>
  </station>
  <station code="AMGA" name="AMGA" netid="HL" insttype="CMG-5TD" lat="36.8316" lon="25.8938">
    <comp name="00.HNE">
      <acc value="0.2120570140" flag="0"/>
      <vel value="0.0368231184" flag="0"/>
      <psa03 value="0.1006372362" flag="0"/>
      <psa10 value="0.0169623367" flag="0"/>
      <psa30 value="0.0017712358" flag="0"/>
    </comp>
    <comp name="00.HNN">
      <acc value="0.2176003956" flag="0"/>
      <vel value="0.0386054196" flag="0"/>
      <psa03 value="0.0752583663" flag="0"/>
      <psa10 value="0.0129689264" flag="0"/>
      <psa30 value="0.0033192434" flag="0"/>
    </comp>
    <comp name="00.HNZ">
      <acc value="0.1737716688" flag="0"/>
      <vel value="0.0402499204" flag="0"/>
      <psa03 value="0.1047123156" flag="0"/>
      <psa10 value="0.0075978871" flag="0"/>
      <psa30 value="0.0021785202" flag="0"/>
    </comp>
  </station>
  <station code="APE" name="APE" netid="HL" insttype="120" lat="37.0727" lon="25.523">
    <comp name="--.HHE">
      <acc value="0.1262495473" flag="0"/>
      <vel value="0.0222030762" flag="0"/>
      <psa03 value="0.0623227736" flag="0"/>
      <psa10 value="0.0086903615" flag="0"/>
      <psa30 value="0.0021720817" flag="0"/>
    </comp>
    <comp name="--.HHN">
      <acc value="0.0918669558" flag="0"/>
      <vel value="0.0204376635" flag="0"/>
      <psa03 value="0.0445262898" flag="0"/>
      <psa10 value="0.0119274966" flag="0"/>
      <psa30 value="0.0023277008" flag="0"/>
    </comp>
    <comp name="--.HHZ">
      <acc value="0.0607157526" flag="0"/>
      <vel value="0.0094563538" flag="0"/>
      <psa03 value="0.0483510990" flag="0"/>
      <psa10 value="0.0083096740" flag="0"/>
      <psa30 value="0.0025545570" flag="0"/>
    </comp>
  </station>
  <station code="MHLO" name="MHLO" netid="HL" insttype="20" lat="36.6898" lon="24.4017">
    <comp name="--.HHE">
      <acc value="0.1303263300" flag="0"/>
      <vel value="0.0472601842" flag="0"/>
      <psa03 value="0.3485452894" flag="0"/>
      <psa10 value="0.0814758192" flag="0"/>
      <psa30 value="0.0034829381" flag="0"/>
    </comp>
    <comp name="--.HHN">
      <acc value="0.1057111609" flag="0"/>
      <vel value="0.0469356550" flag="0"/>
      <psa03 value="0.2396062655" flag="0"/>
      <psa10 value="0.0674073686" flag="0"/>
      <psa30 value="0.0030029691" flag="0"/>
    </comp>
    <comp name="--.HHZ">
      <acc value="0.0331735513" flag="0"/>
      <vel value="0.0273908402" flag="0"/>
      <psa03 value="0.1015149861" flag="0"/>
      <psa10 value="0.0456065389" flag="0"/>
      <psa30 value="0.0025827219" flag="0"/>
    </comp>
  </station>
  <station code="SAP3" name="SAP3" netid="HL" insttype="LE3D20_SMART24" lat="36.4356" lon="25.3454">
    <comp name="--.HHE">
      <acc value="0.5842183191" flag="0"/>
      <vel value="0.2378579398" flag="0"/>
      <psa03 value="0.9493483212" flag="0"/>
      <psa10 value="0.1209927165" flag="0"/>
      <psa30 value="0.0134458232" flag="0"/>
    </comp>
    <comp name="--.HHN">
      <acc value="0.7384124573" flag="0"/>
      <vel value="0.2397313438" flag="0"/>
      <psa03 value="1.2609495461" flag="0"/>
      <psa10 value="0.1038489710" flag="0"/>
      <psa30 value="0.0108353875" flag="0"/>
    </comp>
    <comp name="--.HHZ">
      <acc value="0.7222534051" flag="0"/>
      <vel value="0.1489900031" flag="0"/>
      <psa03 value="0.7938479126" flag="0"/>
      <psa10 value="0.0460456716" flag="0"/>
      <psa30 value="0.0067915337" flag="0"/>
    </comp>
  </station>
  <station code="THERA" name="THERA" netid="HL" insttype="120" lat="36.367" lon="25.4753">
    <comp name="--.HHE">
      <acc value="0.2100172377" flag="0"/>
      <vel value="0.0556408710" flag="0"/>
      <psa03 value="0.3415403688" flag="0"/>
      <psa10 value="0.0232182039" flag="0"/>
      <psa30 value="0.0024341159" flag="0"/>
    </comp>
    <comp name="--.HHN">
      <acc value="0.1216575513" flag="0"/>
      <vel value="0.0256886867" flag="0"/>
      <psa03 value="0.1731758613" flag="0"/>
      <psa10 value="0.0087193858" flag="0"/>
      <psa30 value="0.0010224535" flag="0"/>
    </comp>
    <comp name="--.HHZ">
      <acc value="0.1654273667" flag="0"/>
      <vel value="0.0367844233" flag="0"/>
      <psa03 value="0.1480674631" flag="0"/>
      <psa10 value="0.0178636466" flag="0"/>
      <psa30 value="0.0015296390" flag="0"/>
    </comp>
  </station>
  <station code="THRA" name="THRA" netid="HL" insttype="CMG-5" lat="36.415" lon="25.4324">
    <comp name="00.HNE">
      <acc value="0.5273255190" flag="0"/>
      <vel value="0.1268509197" flag="0"/>
      <psa03 value="1.0101440666" flag="0"/>
      <psa10 value="0.0820892630" flag="0"/>
      <psa30 value="0.0084252403" flag="0"/>
    </comp>
    <comp name="00.HNZ">
      <acc value="0.4173116789" flag="0"/>
      <vel value="0.1003393268" flag="0"/>
      <psa03 value="0.4162582301" flag="0"/>
      <psa10 value="0.0491509759" flag="0"/>
      <psa30 value="0.0033170274" flag="0"/>
    </comp>
  </station>
  <station code="TNSA" name="TNSA" netid="HL" insttype="CMG-5" lat="37.5394" lon="25.1631">
    <comp name="00.HNE">
      <acc value="0.0291578413" flag="0"/>
      <vel value="0.0095800858" flag="0"/>
      <psa03 value="0.0472102278" flag="0"/>
      <psa10 value="0.0040412634" flag="0"/>
      <psa30 value="0.0007202161" flag="0"/>
    </comp>
    <comp name="00.HNN">
      <acc value="0.0306800764" flag="0"/>
      <vel value="0.0080179827" flag="0"/>
      <psa03 value="0.0539424400" flag="0"/>
      <psa10 value="0.0052682657" flag="0"/>
      <psa30 value="0.0009532005" flag="0"/>
    </comp>
    <comp name="00.HNZ">
      <acc value="0.0238617739" flag="0"/>
      <vel value="0.0076706944" flag="0"/>
      <psa03 value="0.0323327179" flag="0"/>
      <psa10 value="0.0050891638" flag="0"/>
      <psa30 value="0.0011076669" flag="0"/>
    </comp>
  </station>
  <station code="CMBO" name="CMBO" netid="HT" insttype="120P," lat="36.4709" lon="25.4056">
    <comp name="--.HHN">
      <acc value="0.6424776988" flag="0"/>
      <vel value="0.2648500490" flag="0"/>
      <psa03 value="1.4986153358" flag="0"/>
      <psa10 value="0.1840309729" flag="0"/>
      <psa30 value="0.0095368836" flag="0"/>
    </comp>
    <comp name="--.HHE">
      <acc value="0.6619802725" flag="0"/>
      <vel value="0.1980941908" flag="0"/>
      <psa03 value="1.0144581810" flag="0"/>
      <psa10 value="0.1393631050" flag="0"/>
      <psa30 value="0.0098451056" flag="0"/>
    </comp>
    <comp name="--.HHZ">
      <acc value="0.5414867588" flag="0"/>
      <vel value="0.1886905006" flag="0"/>
      <psa03 value="1.1138379877" flag="0"/>
      <psa10 value="0.0587846095" flag="0"/>
      <psa30 value="0.0064296149" flag="0"/>
    </comp>
  </station>
</stationlist>
