<?xml version="1.0" encoding="UTF-8" standalone="yes"?>
<!DOCTYPE earthquake SYSTEM "stationlist.dtd">
<stationlist created="" xmlns="ch.ethz.sed.shakemap.usgs.xml">
  <station code="APE" name="APE" netid="GE" insttype="STS-2/N" lat="37.0727" lon="25.523">
    <comp name="--.HHE">
      <acc value="0.1449204120" flag="0"/>
      <vel value="0.0230306373" flag="0"/>
      <psa03 value="0.0644477912" flag="0"/>
      <psa10 value="0.0087871249" flag="0"/>
      <psa30 value="0.0021774535" flag="0"/>
    </comp>
    <comp name="--.HHN">
      <acc value="0.1035719091" flag="0"/>
      <vel value="0.0210788658" flag="0"/>
      <psa03 value="0.0457708538" flag="0"/>
      <psa10 value="0.0120621707" flag="0"/>
      <psa30 value="0.0023356463" flag="0"/>
    </comp>
    <comp name="--.HHZ">
      <acc value="0.0662651043" flag="0"/>
      <vel value="0.0097320483" flag="0"/>
      <psa03 value="0.0500462994" flag="0"/>
      <psa10 value="0.0083706786" flag="0"/>
      <psa30 value="0.0025588161" flag="0"/>
    </comp>
  </station>
  <station code="THERA" name="THERA" netid="GE" insttype="STS-2/N" lat="36.367" lon="25.4753">
    <comp name="--.HHE">
      <acc value="0.2143367043" flag="0"/>
      <vel value="0.0565719964" flag="0"/>
      <psa03 value="0.3518771934" flag="0"/>
      <psa10 value="0.0234762915" flag="0"/>
      <psa30 value="0.0024362489" flag="0"/>
    </comp>
    <comp name="--.HHZ">
      <acc value="0.1682529003" flag="0"/>
      <vel value="0.0379215806" flag="0"/>
      <psa03 value="0.1515448408" flag="0"/>
      <psa10 value="0.0181576500" flag="0"/>
      <psa30 value="0.0015306191" flag="0"/>
    </comp>
    <comp name="--.HHN">
      <acc value="0.1226120118" flag="0"/>
      <vel value="0.0264145691" flag="0"/>
      <psa03 value="0.1784278008" flag="0"/>
      <psa10 value="0.0088291083" flag="0"/>
      <psa30 value="0.0010245265" flag="0"/>
    </comp>
  </station>
</stationlist>
