<stationlist created="1778138270">
	<station code="KRL1" name="KRL1" netid="HI" source="ITSAK Strong Motion Network" insttype="" lat="37.7951" lon="26.7065">
		<comp name="--.HNE" depth="0.0">
			<acc value="0.0131544132748722" flag="0"/>
			<vel value="0.0163448952704116" flag="0"/>
			<psa03 value="0.0325461039363402" flag="0"/>
			<psa10 value="0.0260100467879405" flag="0"/>
			<psa30 value="0.00165551925335742" flag="0"/>
		</comp>
		<comp name="--.HNN" depth="0.0">
			<acc value="0.012029568186405" flag="0"/>
			<vel value="0.011360142085021" flag="0"/>
			<psa03 value="0.0397898285891841" flag="0"/>
			<psa10 value="0.0189131479032329" flag="0"/>
			<psa30 value="0.00140812213534791" flag="0"/>
		</comp>
		<comp name="--.HNZ" depth="0.0">
			<acc value="0.00861674691495654" flag="0"/>
			<vel value="0.00753760456435687" flag="0"/>
			<psa03 value="0.0214669337977474" flag="0"/>
			<psa10 value="0.00938155398190202" flag="0"/>
			<psa30 value="0.000687324646469884" flag="0"/>
		</comp>
	</station>
	<station code="KSS1" name="KSS1" netid="HI" source="ITSAK Strong Motion Network" insttype="" lat="35.4189" lon="26.9207">
		<comp name="--.HNE" depth="0.0">
			<acc value="0.0120972596037762" flag="0"/>
			<vel value="0.00455649275837828" flag="0"/>
			<psa03 value="0.024135807212093" flag="0"/>
			<psa10 value="0.00232107961950877" flag="0"/>
			<psa30 value="0.000307974229906289" flag="0"/>
		</comp>
		<comp name="--.HNN" depth="0.0">
			<acc value="0.00947773975060448" flag="0"/>
			<vel value="0.00367030157151905" flag="0"/>
			<psa03 value="0.0334642064227682" flag="0"/>
			<psa10 value="0.00295865888725596" flag="0"/>
			<psa30 value="0.000387966534212032" flag="0"/>
		</comp>
		<comp name="--.HNZ" depth="0.0">
			<acc value="0.00678096160875164" flag="0"/>
			<vel value="0.00257788274222728" flag="0"/>
			<psa03 value="0.00628080539543379" flag="0"/>
			<psa10 value="0.00190381068842805" flag="0"/>
			<psa30 value="0.000320714266579547" flag="0"/>
		</comp>
	</station>
	<station code="NAX1" name="NAX1" netid="HI" source="ITSAK Strong Motion Network" insttype="" lat="37.101394" lon="25.374103">
		<comp name="--.HNE" depth="0.0">
			<acc value="0.00235951817058273" flag="0"/>
			<vel value="0.00162256270560033" flag="0"/>
			<psa03 value="0.00775716491575192" flag="0"/>
			<psa10 value="0.00416176554027346" flag="0"/>
			<psa30 value="0.0003880922196216" flag="0"/>
		</comp>
		<comp name="--.HNN" depth="0.0">
			<acc value="0.00462108115859204" flag="0"/>
			<vel value="0.00309997816729327" flag="0"/>
			<psa03 value="0.00873985631631831" flag="0"/>
			<psa10 value="0.00351233103406739" flag="0"/>
			<psa30 value="0.000505588596928127" flag="0"/>
		</comp>
		<comp name="--.HNZ" depth="0.0">
			<acc value="0.00315082159625844" flag="0"/>
			<vel value="0.0036830572328746" flag="0"/>
			<psa03 value="0.00810356090966003" flag="0"/>
			<psa10 value="0.00288312724303176" flag="0"/>
			<psa30 value="0.000669955422924566" flag="0"/>
		</comp>
	</station>
	<station code="RDI1" name="RDI1" netid="HI" source="ITSAK Strong Motion Network" insttype="" lat="36.4514" lon="28.224">
		<comp name="--.HNE" depth="0.0">
			<acc value="0.0134807062311713" flag="0"/>
			<vel value="0.0170657073543065" flag="0"/>
			<psa03 value="0.0274897455399157" flag="0"/>
			<psa10 value="0.0253924933780657" flag="0"/>
			<psa30 value="0.0101888132921952" flag="0"/>
		</comp>
		<comp name="--.HNN" depth="0.0">
			<acc value="0.0113662165289909" flag="0"/>
			<vel value="0.0134936458772793" flag="0"/>
			<psa03 value="0.0300435423205803" flag="0"/>
			<psa10 value="0.0286440431522823" flag="0"/>
			<psa30 value="0.00815428018103905" flag="0"/>
		</comp>
		<comp name="--.HNZ" depth="0.0">
			<acc value="0.00839948126742412" flag="0"/>
			<vel value="0.0103174921886809" flag="0"/>
			<psa03 value="0.0304602027347627" flag="0"/>
			<psa10 value="0.019689807478113" flag="0"/>
			<psa30 value="0.00268117969833038" flag="0"/>
		</comp>
	</station>
	<station code="SIT2" name="SIT2" netid="HI" source="ITSAK Strong Motion Network" insttype="" lat="35.2059" lon="26.107">
		<comp name="--.HNE" depth="0.0">
			<acc value="0.0189071216068166" flag="0"/>
			<vel value="0.0140227963645895" flag="0"/>
			<psa03 value="0.0650299172879788" flag="0"/>
			<psa10 value="0.00745507011178864" flag="0"/>
			<psa30 value="0.000647319704670925" flag="0"/>
		</comp>
		<comp name="--.HNN" depth="0.0">
			<acc value="0.0208512106393735" flag="0"/>
			<vel value="0.0136188936245346" flag="0"/>
			<psa03 value="0.0799543747099191" flag="0"/>
			<psa10 value="0.00744016943723069" flag="0"/>
			<psa30 value="0.000558516999009675" flag="0"/>
		</comp>
		<comp name="--.HNZ" depth="0.0">
			<acc value="0.0113477767598219" flag="0"/>
			<vel value="0.00495462951030098" flag="0"/>
			<psa03 value="0.0353067477529216" flag="0"/>
			<psa10 value="0.00251987607004609" flag="0"/>
			<psa30 value="0.000389371835639737" flag="0"/>
		</comp>
	</station>
	<station code="AGNA" name="AGNA" netid="HL" source="National Observatory of Athens Seismic Network" insttype="" lat="35.1895" lon="25.71853">
		<comp name="00.HNE" depth="0.0">
			<acc value="0.00455318969495287" flag="0"/>
			<vel value="0.00332785924976858" flag="0"/>
			<psa03 value="0.0151176954835515" flag="0"/>
			<psa10 value="0.00347307460539572" flag="0"/>
			<psa30 value="0.000595295008291598" flag="0"/>
		</comp>
		<comp name="00.HNN" depth="0.0">
			<acc value="0.00572320390134561" flag="0"/>
			<vel value="0.00459679787683636" flag="0"/>
			<psa03 value="0.017359479407384" flag="0"/>
			<psa10 value="0.00674036370353403" flag="0"/>
			<psa30 value="0.00107491766635367" flag="0"/>
		</comp>
		<comp name="00.HNZ" depth="0.0">
			<acc value="0.0073930239735728" flag="0"/>
			<vel value="0.0018306338101025" flag="0"/>
			<psa03 value="0.0116732667862351" flag="0"/>
			<psa10 value="0.00145950059099981" flag="0"/>
			<psa30 value="0.000535943107765301" flag="0"/>
		</comp>
	</station>
	<station code="KLNA" name="KLNA" netid="HL" source="National Observatory of Athens Seismic Network" insttype="" lat="36.95708" lon="26.97274">
		<comp name="00.HNE" depth="0.0">
			<acc value="0.0621111825668336" flag="0"/>
			<vel value="0.0291855267393745" flag="0"/>
			<psa03 value="0.218298002838073" flag="0"/>
			<psa10 value="0.0152537173589081" flag="0"/>
			<psa30 value="0.00228101777289897" flag="0"/>
		</comp>
		<comp name="00.HNN" depth="0.0">
			<acc value="0.0570567732733424" flag="0"/>
			<vel value="0.0216095432969148" flag="0"/>
			<psa03 value="0.170371880050799" flag="0"/>
			<psa10 value="0.0105535825605455" flag="0"/>
			<psa30 value="0.00132358101408087" flag="0"/>
		</comp>
		<comp name="00.HNZ" depth="0.0">
			<acc value="0.0540383350250452" flag="0"/>
			<vel value="0.0162740383043864" flag="0"/>
			<psa03 value="0.0762506762332609" flag="0"/>
			<psa10 value="0.0110634682129836" flag="0"/>
			<psa30 value="0.00135091074120725" flag="0"/>
		</comp>
	</station>
	<station code="NISR" name="NISR" netid="HL" source="National Observatory of Athens Seismic Network" insttype="" lat="36.6106" lon="27.131">
		<comp name="--.HNE" depth="0.0">
			<acc value="1.61224589843144" flag="0"/>
			<vel value="0.523422017775137" flag="0"/>
			<psa03 value="2.19324512506119" flag="0"/>
			<psa10 value="0.133539716350647" flag="0"/>
			<psa30 value="0.0164732679398075" flag="0"/>
		</comp>
		<comp name="--.HNN" depth="0.0">
			<acc value="0.953739531007371" flag="0"/>
			<vel value="0.253681976706768" flag="0"/>
			<psa03 value="0.801245495250318" flag="0"/>
			<psa10 value="0.0558772240919606" flag="0"/>
			<psa30 value="0.0145213869706078" flag="0"/>
		</comp>
		<comp name="--.HNZ" depth="0.0">
			<acc value="0.336545893449832" flag="0"/>
			<vel value="0.0935943800002504" flag="0"/>
			<psa03 value="0.416934036500418" flag="0"/>
			<psa10 value="0.0847999500805689" flag="0"/>
			<psa30 value="0.00361183343290609" flag="0"/>
		</comp>
	</station>
	<station code="THRA" name="THRA" netid="HL" source="National Observatory of Athens Seismic Network" insttype="" lat="36.41502" lon="25.43244">
		<comp name="00.HNE" depth="0.0">
			<acc value="0.0306635978835145" flag="0"/>
			<vel value="0.0177347878930583" flag="0"/>
			<psa03 value="0.0624666745688046" flag="0"/>
			<psa10 value="0.0189367332156371" flag="0"/>
			<psa30 value="0.00302103346197273" flag="0"/>
		</comp>
		<comp name="00.HNN" depth="0.0">
			<acc value="0.0282076448760982" flag="0"/>
			<vel value="0.014339416958649" flag="0"/>
			<psa03 value="0.0892661530279176" flag="0"/>
			<psa10 value="0.0167058191785473" flag="0"/>
			<psa30 value="0.00306216785359287" flag="0"/>
		</comp>
		<comp name="00.HNZ" depth="0.0">
			<acc value="0.0191750024716463" flag="0"/>
			<vel value="0.0110849412342607" flag="0"/>
			<psa03 value="0.0557635326020981" flag="0"/>
			<psa10 value="0.00794005036435832" flag="0"/>
			<psa30 value="0.000967425024660964" flag="0"/>
		</comp>
	</station>
</stationlist>
