<?xml version="1.0" encoding="UTF-8" standalone="yes"?>
<!DOCTYPE earthquake SYSTEM "stationlist.dtd">
<stationlist created="" xmlns="ch.ethz.sed.shakemap.usgs.xml">
  <station code="KARP" name="KARP" netid="GE" insttype="STS-2/N" lat="35.5471" lon="27.1611">
    <comp name="--.HHE">
      <acc value="0.0363122716" flag="0"/>
      <vel value="0.0147335169" flag="0"/>
      <psa03 value="0.0606432541" flag="0"/>
      <psa10 value="0.0213696262" flag="0"/>
      <psa30 value="0.0007334777" flag="0"/>
    </comp>
    <comp name="--.HHZ">
      <acc value="0.0269614120" flag="0"/>
      <vel value="0.0089083961" flag="0"/>
      <psa03 value="0.0374957156" flag="0"/>
      <psa10 value="0.0122742350" flag="0"/>
      <psa30 value="0.0006667424" flag="0"/>
    </comp>
    <comp name="--.HHN">
      <acc value="0.0422674396" flag="0"/>
      <vel value="0.0265320363" flag="0"/>
      <psa03 value="0.0522938329" flag="0"/>
      <psa10 value="0.0348699865" flag="0"/>
      <psa30 value="0.0011128652" flag="0"/>
    </comp>
  </station>
  <station code="KARP" name="KARP" netid="HL" insttype="120" lat="35.5471" lon="27.1611">
    <comp name="--.HHE">
      <acc value="0.0346509867" flag="0"/>
      <vel value="0.0145005565" flag="0"/>
      <psa03 value="0.0589280356" flag="0"/>
      <psa10 value="0.0212028105" flag="0"/>
      <psa30 value="0.0007276134" flag="0"/>
    </comp>
    <comp name="--.HHN">
      <acc value="0.0391536697" flag="0"/>
      <vel value="0.0260521960" flag="0"/>
      <psa03 value="0.0511205762" flag="0"/>
      <psa10 value="0.0345956924" flag="0"/>
      <psa30 value="0.0011061566" flag="0"/>
    </comp>
    <comp name="--.HHZ">
      <acc value="0.0250460219" flag="0"/>
      <vel value="0.0087561976" flag="0"/>
      <psa03 value="0.0365643112" flag="0"/>
      <psa10 value="0.0121853513" flag="0"/>
      <psa30 value="0.0006629544" flag="0"/>
    </comp>
  </station>
</stationlist>
