<?xml version="1.0" encoding="UTF-8" standalone="yes"?>
<!DOCTYPE earthquake SYSTEM "stationlist.dtd">
<stationlist created="" xmlns="ch.ethz.sed.shakemap.usgs.xml">
  <station code="KARO" name="KARO" netid="KO" insttype="120s," lat="39.3089" lon="41.0493">
    <comp name="--.HHN">
      <acc value="0.1403751570" flag="0"/>
      <vel value="0.0515852502" flag="0"/>
      <psa03 value="0.3252930250" flag="0"/>
      <psa10 value="0.0320864155" flag="0"/>
      <psa30 value="0.0027910698" flag="0"/>
    </comp>
    <comp name="--.HHZ">
      <acc value="0.1053147710" flag="0"/>
      <vel value="0.0292559626" flag="0"/>
      <psa03 value="0.1582626935" flag="0"/>
      <psa10 value="0.0126302646" flag="0"/>
      <psa30 value="0.0011083545" flag="0"/>
    </comp>
    <comp name="--.HHE">
      <acc value="0.2016149515" flag="0"/>
      <vel value="0.0781067179" flag="0"/>
      <psa03 value="0.4035022930" flag="0"/>
      <psa10 value="0.0448668639" flag="0"/>
      <psa30 value="0.0032859089" flag="0"/>
    </comp>
  </station>
</stationlist>
