<stationlist created="1778135756">
	<station code="ARPRA" name="ARPRA" netid="KO" source="Bogazici University Kandilli Observatory And Earthquake Research Institute (KOERI)" insttype="" lat="39.0929" lon="38.3356">
		<comp name="--.HNE" depth="0.0">
			<acc value="0.00530714835840416" flag="0"/>
			<vel value="0.00312791321760562" flag="0"/>
			<psa03 value="0.0143622483244652" flag="0"/>
			<psa10 value="0.00290332178745965" flag="0"/>
			<psa30 value="0.00039015204171133" flag="0"/>
		</comp>
		<comp name="--.HNN" depth="0.0">
			<acc value="0.00528237260436802" flag="0"/>
			<vel value="0.00334042375750032" flag="0"/>
			<psa03 value="0.0222368766892811" flag="0"/>
			<psa10 value="0.00367244031922775" flag="0"/>
			<psa30 value="0.000480531299080239" flag="0"/>
		</comp>
		<comp name="--.HNZ" depth="0.0">
			<acc value="0.00284947867202359" flag="0"/>
			<vel value="0.00177884195709795" flag="0"/>
			<psa03 value="0.00742720629863311" flag="0"/>
			<psa10 value="0.0030523133354985" flag="0"/>
			<psa30 value="0.000334671705504673" flag="0"/>
		</comp>
	</station>
	<station code="GUMT" name="GUMT" netid="KO" source="Bogazici University Kandilli Observatory And Earthquake Research Institute (KOERI)" insttype="" lat="40.4665" lon="39.478">
		<comp name="--.HNE" depth="0.0">
			<acc value="0.00557817689356144" flag="0"/>
			<vel value="0.00912852453781186" flag="0"/>
			<psa03 value="0.00706926864568694" flag="0"/>
			<psa10 value="0.00564154483249788" flag="0"/>
			<psa30 value="0.00411941496334428" flag="0"/>
		</comp>
		<comp name="--.HNN" depth="0.0">
			<acc value="0.0038923441725275" flag="0"/>
			<vel value="0.00342628155743893" flag="0"/>
			<psa03 value="0.00666658878612249" flag="0"/>
			<psa10 value="0.00418384374087459" flag="0"/>
			<psa30 value="0.00227200925207584" flag="0"/>
		</comp>
		<comp name="--.HNZ" depth="0.0">
			<acc value="0.00498724667103629" flag="0"/>
			<vel value="0.00234309781246219" flag="0"/>
			<psa03 value="0.00876947249718126" flag="0"/>
			<psa10 value="0.00359190434731486" flag="0"/>
			<psa30 value="0.00135703112673218" flag="0"/>
		</comp>
	</station>
</stationlist>
