<?xml version="1.0" encoding="UTF-8" standalone="yes"?>
<!DOCTYPE earthquake SYSTEM "stationlist.dtd">
<stationlist created="" xmlns="ch.ethz.sed.shakemap.usgs.xml">
  <station code="ARMT" name="ARMT" netid="KO" insttype="CMG-3ESP" commtype="DIG" lat="40.5683" lon="28.866">
    <comp name="--.HHE">
      <acc value="0.0371957983" flag="0"/>
      <vel value="0.0095469142" flag="0"/>
      <psa03 value="0.0469324492" flag="0"/>
      <psa10 value="0.0019191505" flag="0"/>
      <psa30 value="0.0001764536" flag="0"/>
    </comp>
  </station>
  <station code="AVCI" name="AVCI" netid="KO" insttype="CMG-5T" commtype="DIG" lat="40.9958" lon="28.7225">
    <comp name="--.HNE">
      <acc value="0.1811165579" flag="0"/>
      <vel value="0.0464083598" flag="0"/>
      <psa03 value="0.1299807391" flag="0"/>
      <psa10 value="0.0273654381" flag="0"/>
      <psa30 value="0.0017354288" flag="0"/>
    </comp>
    <comp name="--.HNN">
      <acc value="0.1503259395" flag="0"/>
      <vel value="0.0379885991" flag="0"/>
      <psa03 value="0.1636414501" flag="0"/>
      <psa10 value="0.0120397658" flag="0"/>
      <psa30 value="0.0013310253" flag="0"/>
    </comp>
    <comp name="--.HNZ">
      <acc value="0.4307509526" flag="0"/>
      <vel value="0.0755334773" flag="0"/>
      <psa03 value="0.1409306086" flag="0"/>
      <psa10 value="0.0077657229" flag="0"/>
      <psa30 value="0.0010265086" flag="0"/>
    </comp>
  </station>
  <station code="BGKT" name="BGKT" netid="KO" insttype="CMG-3ESP" commtype="DIG" lat="41.181" lon="28.773">
    <comp name="--.HHE">
      <acc value="0.2585417625" flag="0"/>
      <vel value="0.0222459292" flag="0"/>
      <psa03 value="0.0410950798" flag="0"/>
      <psa10 value="0.0027621021" flag="0"/>
      <psa30 value="0.0001899618" flag="0"/>
    </comp>
    <comp name="--.HHN">
      <acc value="0.1847594672" flag="0"/>
      <vel value="0.0249258092" flag="0"/>
      <psa03 value="0.0495004349" flag="0"/>
      <psa10 value="0.0021872716" flag="0"/>
      <psa30 value="0.0002915395" flag="0"/>
    </comp>
    <comp name="--.HHZ">
      <acc value="0.2600196913" flag="0"/>
      <vel value="0.0362009607" flag="0"/>
      <psa03 value="0.0389809318" flag="0"/>
      <psa10 value="0.0035228205" flag="0"/>
      <psa30 value="0.0004059390" flag="0"/>
    </comp>
  </station>
  <station code="BIGA" name="BIGA" netid="KO" insttype="CMG-5T" commtype="DIG" lat="40.2813" lon="27.1505">
    <comp name="--.HNN">
      <acc value="0.0113009896" flag="0"/>
      <vel value="0.0044570439" flag="0"/>
      <psa03 value="0.0161005570" flag="0"/>
      <psa10 value="0.0025761811" flag="0"/>
      <psa30 value="0.0003804358" flag="0"/>
    </comp>
    <comp name="--.HNZ">
      <acc value="0.0097245139" flag="0"/>
      <vel value="0.0014430498" flag="0"/>
      <psa03 value="0.0071528515" flag="0"/>
      <psa10 value="0.0009465484" flag="0"/>
      <psa30 value="0.0004085277" flag="0"/>
    </comp>
    <comp name="--.HNE">
      <acc value="0.0128209894" flag="0"/>
      <vel value="0.0029593618" flag="0"/>
      <psa03 value="0.0146648465" flag="0"/>
      <psa10 value="0.0014814931" flag="0"/>
      <psa30 value="0.0003315015" flag="0"/>
    </comp>
  </station>
  <station code="BOTS" name="BOTS" netid="KO" insttype="CMG-5T" commtype="DIG" lat="40.9902" lon="27.981">
    <comp name="--.HNZ">
      <acc value="0.0309041391" flag="0"/>
      <vel value="0.0052173294" flag="0"/>
      <psa03 value="0.0222507938" flag="0"/>
      <psa10 value="0.0024561471" flag="0"/>
      <psa30 value="0.0004293366" flag="0"/>
    </comp>
    <comp name="--.HNN">
      <acc value="0.0193072086" flag="0"/>
      <vel value="0.0057587632" flag="0"/>
      <psa03 value="0.0305604865" flag="0"/>
      <psa10 value="0.0027226970" flag="0"/>
      <psa30 value="0.0003540323" flag="0"/>
    </comp>
    <comp name="--.HNE">
      <acc value="0.0283438288" flag="0"/>
      <vel value="0.0052664381" flag="0"/>
      <psa03 value="0.0225793223" flag="0"/>
      <psa10 value="0.0037724502" flag="0"/>
      <psa30 value="0.0003653388" flag="0"/>
    </comp>
  </station>
  <station code="BRGA" name="BRGA" netid="KO" insttype="CMG-5T" commtype="DIG" lat="40.8846" lon="29.065">
    <comp name="--.HNN">
      <acc value="0.1109069497" flag="0"/>
      <vel value="0.0292703446" flag="0"/>
      <psa03 value="0.0899712490" flag="0"/>
      <psa10 value="0.0063287102" flag="0"/>
      <psa30 value="0.0006838206" flag="0"/>
    </comp>
    <comp name="--.HNZ">
      <acc value="0.0779205072" flag="0"/>
      <vel value="0.0155298097" flag="0"/>
      <psa03 value="0.0575598426" flag="0"/>
      <psa10 value="0.0027350938" flag="0"/>
      <psa30 value="0.0004279456" flag="0"/>
    </comp>
    <comp name="--.HNE">
      <acc value="0.0863539982" flag="0"/>
      <vel value="0.0219619636" flag="0"/>
      <psa03 value="0.0904932661" flag="0"/>
      <psa10 value="0.0038882729" flag="0"/>
      <psa30 value="0.0003755908" flag="0"/>
    </comp>
  </station>
  <station code="CRLU" name="CRLU" netid="KO" insttype="ACEBOX" commtype="DIG" lat="41.1428" lon="27.8215">
    <comp name="--.HNE">
      <acc value="0.1112580516" flag="0"/>
      <vel value="0.0438777901" flag="0"/>
      <psa03 value="0.2451921822" flag="0"/>
      <psa10 value="0.0399102291" flag="0"/>
      <psa30 value="0.0041693409" flag="0"/>
    </comp>
    <comp name="--.HNZ">
      <acc value="0.3140805881" flag="0"/>
      <vel value="0.0828764002" flag="0"/>
      <psa03 value="0.3588901794" flag="0"/>
      <psa10 value="0.0254506172" flag="0"/>
      <psa30 value="0.0019362399" flag="0"/>
    </comp>
    <comp name="--.HNN">
      <acc value="0.1088869798" flag="0"/>
      <vel value="0.0581605698" flag="0"/>
      <psa03 value="0.2197786632" flag="0"/>
      <psa10 value="0.0541282798" flag="0"/>
      <psa30 value="0.0049487116" flag="0"/>
    </comp>
  </station>
  <station code="CTYL" name="CTYL" netid="KO" insttype="CMG-3T" commtype="DIG" lat="41.476" lon="28.2897">
    <comp name="--.HHE">
      <acc value="0.0840267973" flag="0"/>
      <vel value="0.0223963295" flag="0"/>
      <psa03 value="0.1708607500" flag="0"/>
      <psa10 value="0.0068785416" flag="0"/>
      <psa30 value="0.0006032753" flag="0"/>
    </comp>
    <comp name="--.HHZ">
      <acc value="0.0457042489" flag="0"/>
      <vel value="0.0094205408" flag="0"/>
      <psa03 value="0.0745757872" flag="0"/>
      <psa10 value="0.0037691422" flag="0"/>
      <psa30 value="0.0002479455" flag="0"/>
    </comp>
    <comp name="--.HHN">
      <acc value="0.0833846683" flag="0"/>
      <vel value="0.0198755965" flag="0"/>
      <psa03 value="0.0753613769" flag="0"/>
      <psa10 value="0.0042379932" flag="0"/>
      <psa30 value="0.0003875739" flag="0"/>
    </comp>
  </station>
  <station code="DOGC" name="DOGC" netid="KO" insttype="CMG-5T" commtype="DIG" lat="41.3949" lon="26.9852">
    <comp name="--.HNE">
      <acc value="0.0054299055" flag="0"/>
      <vel value="0.0028303183" flag="0"/>
      <psa03 value="0.0130244577" flag="0"/>
      <psa10 value="0.0015184688" flag="0"/>
      <psa30 value="0.0005670231" flag="0"/>
    </comp>
    <comp name="--.HNN">
      <acc value="0.0049756200" flag="0"/>
      <vel value="0.0027487905" flag="0"/>
      <psa03 value="0.0160911863" flag="0"/>
      <psa10 value="0.0020660551" flag="0"/>
      <psa30 value="0.0003238929" flag="0"/>
    </comp>
    <comp name="--.HNZ">
      <acc value="0.0091303908" flag="0"/>
      <vel value="0.0022578739" flag="0"/>
      <psa03 value="0.0141888732" flag="0"/>
      <psa10 value="0.0012110857" flag="0"/>
      <psa30 value="0.0003017177" flag="0"/>
    </comp>
  </station>
  <station code="EDC" name="EDC" netid="KO" insttype="CMG-3T" commtype="DIG" lat="40.3465" lon="27.8618">
    <comp name="--.HHZ">
      <acc value="0.0085509556" flag="0"/>
      <vel value="0.0015656581" flag="0"/>
      <psa03 value="0.0047634486" flag="0"/>
      <psa10 value="0.0005239333" flag="0"/>
      <psa30 value="0.0000694699" flag="0"/>
    </comp>
    <comp name="--.HHN">
      <acc value="0.0140389648" flag="0"/>
      <vel value="0.0025318063" flag="0"/>
      <psa03 value="0.0153094778" flag="0"/>
      <psa10 value="0.0016842423" flag="0"/>
      <psa30 value="0.0000839294" flag="0"/>
    </comp>
    <comp name="--.HHE">
      <acc value="0.0141341495" flag="0"/>
      <vel value="0.0026907588" flag="0"/>
      <psa03 value="0.0123352517" flag="0"/>
      <psa10 value="0.0011862974" flag="0"/>
      <psa30 value="0.0001020591" flag="0"/>
    </comp>
  </station>
  <station code="GAZK" name="GAZK" netid="KO" insttype="CMG-6T" commtype="DIG" lat="40.7479" lon="27.3275">
    <comp name="--.HHN">
      <acc value="0.0110654856" flag="0"/>
      <vel value="0.0033031231" flag="0"/>
      <psa03 value="0.0159863491" flag="0"/>
      <psa10 value="0.0030093250" flag="0"/>
      <psa30 value="0.0002477105" flag="0"/>
    </comp>
    <comp name="--.HHE">
      <acc value="0.0122674080" flag="0"/>
      <vel value="0.0033031123" flag="0"/>
      <psa03 value="0.0137321878" flag="0"/>
      <psa10 value="0.0026981440" flag="0"/>
      <psa30 value="0.0001719136" flag="0"/>
    </comp>
    <comp name="--.HHZ">
      <acc value="0.0088997238" flag="0"/>
      <vel value="0.0023686372" flag="0"/>
      <psa03 value="0.0108867136" flag="0"/>
      <psa10 value="0.0018159600" flag="0"/>
      <psa30 value="0.0001473802" flag="0"/>
    </comp>
  </station>
  <station code="GEML" name="GEML" netid="KO" insttype="CMG-3T" commtype="DIG" lat="40.4646" lon="29.2116">
    <comp name="--.HHN">
      <acc value="0.0768803163" flag="0"/>
      <vel value="0.0143882198" flag="0"/>
      <psa03 value="0.0719285974" flag="0"/>
      <psa10 value="0.0021787628" flag="0"/>
      <psa30 value="0.0001919438" flag="0"/>
    </comp>
    <comp name="--.HHE">
      <acc value="0.0777557968" flag="0"/>
      <vel value="0.0176533645" flag="0"/>
      <psa03 value="0.1046973886" flag="0"/>
      <psa10 value="0.0038731228" flag="0"/>
      <psa30 value="0.0003270293" flag="0"/>
    </comp>
    <comp name="--.HHZ">
      <acc value="0.0495916411" flag="0"/>
      <vel value="0.0107472610" flag="0"/>
      <psa03 value="0.0528613732" flag="0"/>
      <psa10 value="0.0016293778" flag="0"/>
      <psa30 value="0.0001266301" flag="0"/>
    </comp>
  </station>
  <station code="GONE" name="GONE" netid="KO" insttype="CMG-5T" commtype="DIG" lat="40.0466" lon="27.686">
    <comp name="--.HNE">
      <acc value="0.0041807744" flag="0"/>
      <vel value="0.0023889242" flag="0"/>
      <psa03 value="0.0052707890" flag="0"/>
      <psa10 value="0.0039787963" flag="0"/>
      <psa30 value="0.0001922700" flag="0"/>
    </comp>
    <comp name="--.HNZ">
      <acc value="0.0028931925" flag="0"/>
      <vel value="0.0014575792" flag="0"/>
      <psa03 value="0.0049807973" flag="0"/>
      <psa10 value="0.0012968279" flag="0"/>
      <psa30 value="0.0000930725" flag="0"/>
    </comp>
    <comp name="--.HNN">
      <acc value="0.0046810767" flag="0"/>
      <vel value="0.0024763837" flag="0"/>
      <psa03 value="0.0109099203" flag="0"/>
      <psa10 value="0.0025267837" flag="0"/>
      <psa30 value="0.0001373381" flag="0"/>
    </comp>
  </station>
  <station code="HRTX" name="HRTX" netid="KO" insttype="CMG-3ESP" commtype="DIG" lat="40.8009" lon="29.6729">
    <comp name="--.HHN">
      <acc value="0.0301804426" flag="0"/>
      <vel value="0.0072358661" flag="0"/>
      <psa03 value="0.0417095591" flag="0"/>
      <psa10 value="0.0031246831" flag="0"/>
      <psa30 value="0.0002625525" flag="0"/>
    </comp>
    <comp name="--.HHZ">
      <acc value="0.0162876766" flag="0"/>
      <vel value="0.0063532096" flag="0"/>
      <psa03 value="0.0338594387" flag="0"/>
      <psa10 value="0.0041728908" flag="0"/>
      <psa30 value="0.0002299449" flag="0"/>
    </comp>
  </station>
  <station code="ISK" name="ISK" netid="KO" insttype="CMG-3T" commtype="DIG" lat="41.0615" lon="29.0592">
    <comp name="--.HHE">
      <acc value="0.0726804996" flag="0"/>
      <vel value="0.0129105169" flag="0"/>
      <psa03 value="0.0225198783" flag="0"/>
      <psa10 value="0.0017890939" flag="0"/>
      <psa30 value="0.0001623561" flag="0"/>
    </comp>
    <comp name="--.HHN">
      <acc value="0.0601165171" flag="0"/>
      <vel value="0.0104912724" flag="0"/>
      <psa03 value="0.0184259760" flag="0"/>
      <psa10 value="0.0035583788" flag="0"/>
      <psa30 value="0.0001466609" flag="0"/>
    </comp>
    <comp name="--.HHZ">
      <acc value="0.0560960293" flag="0"/>
      <vel value="0.0068265384" flag="0"/>
      <psa03 value="0.0267680352" flag="0"/>
      <psa10 value="0.0021129233" flag="0"/>
      <psa30 value="0.0001668032" flag="0"/>
    </comp>
  </station>
  <station code="IZI" name="IZI" netid="KO" insttype="CMG-5T" commtype="DIG" lat="40.3483" lon="29.4612">
    <comp name="--.HNE">
      <acc value="0.0117513041" flag="0"/>
      <vel value="0.0029705249" flag="0"/>
      <psa03 value="0.0165872602" flag="0"/>
      <psa10 value="0.0013082280" flag="0"/>
      <psa30 value="0.0002868669" flag="0"/>
    </comp>
    <comp name="--.HNN">
      <acc value="0.0136395813" flag="0"/>
      <vel value="0.0034322100" flag="0"/>
      <psa03 value="0.0121880824" flag="0"/>
      <psa10 value="0.0020669309" flag="0"/>
      <psa30 value="0.0002280390" flag="0"/>
    </comp>
    <comp name="--.HNZ">
      <acc value="0.0073987082" flag="0"/>
      <vel value="0.0018847886" flag="0"/>
      <psa03 value="0.0127980853" flag="0"/>
      <psa10 value="0.0014939232" flag="0"/>
      <psa30 value="0.0004528255" flag="0"/>
    </comp>
  </station>
  <station code="KAVV" name="KAVV" netid="KO" insttype="CMG-3ESPC" commtype="DIG" lat="41.0638" lon="29.06">
    <comp name="--.HHN">
      <acc value="0.1026947551" flag="0"/>
      <vel value="0.0200469862" flag="0"/>
      <psa03 value="0.0763367897" flag="0"/>
      <psa10 value="0.0041557876" flag="0"/>
      <psa30 value="0.0002881481" flag="0"/>
    </comp>
    <comp name="--.HHZ">
      <acc value="0.0873393443" flag="0"/>
      <vel value="0.0153196429" flag="0"/>
      <psa03 value="0.0331371835" flag="0"/>
      <psa10 value="0.0027416572" flag="0"/>
      <psa30 value="0.0001987797" flag="0"/>
    </comp>
    <comp name="--.HHE">
      <acc value="0.1071355436" flag="0"/>
      <vel value="0.0227005546" flag="0"/>
      <psa03 value="0.0609580947" flag="0"/>
      <psa10 value="0.0033178597" flag="0"/>
      <psa30 value="0.0002832311" flag="0"/>
    </comp>
  </station>
  <station code="KCTX" name="KCTX" netid="KO" insttype="CMG-3ESP" commtype="DIG" lat="40.2626" lon="28.3353">
    <comp name="--.HHZ">
      <acc value="0.0171094215" flag="0"/>
      <vel value="0.0049865978" flag="0"/>
      <psa03 value="0.0336799637" flag="0"/>
      <psa10 value="0.0013431064" flag="0"/>
      <psa30 value="0.0001061273" flag="0"/>
    </comp>
    <comp name="--.HHN">
      <acc value="0.0172955449" flag="0"/>
      <vel value="0.0067857126" flag="0"/>
      <psa03 value="0.0257317676" flag="0"/>
      <psa10 value="0.0028366453" flag="0"/>
      <psa30 value="0.0002399003" flag="0"/>
    </comp>
    <comp name="--.HHE">
      <acc value="0.0249408468" flag="0"/>
      <vel value="0.0143570500" flag="0"/>
      <psa03 value="0.0534437783" flag="0"/>
      <psa10 value="0.0078276456" flag="0"/>
      <psa30 value="0.0005666089" flag="0"/>
    </comp>
  </station>
  <station code="KOUK" name="KOUK" netid="KO" insttype="CMG-5T" commtype="DIG" lat="40.6572" lon="29.1918">
    <comp name="--.HNE">
      <acc value="0.0278649001" flag="0"/>
      <vel value="0.0163209159" flag="0"/>
      <psa03 value="0.0684296611" flag="0"/>
      <psa10 value="0.0105809355" flag="0"/>
      <psa30 value="0.0007108849" flag="0"/>
    </comp>
    <comp name="--.HNN">
      <acc value="0.0253867116" flag="0"/>
      <vel value="0.0161106230" flag="0"/>
      <psa03 value="0.0530104317" flag="0"/>
      <psa10 value="0.0154335202" flag="0"/>
      <psa30 value="0.0007495966" flag="0"/>
    </comp>
    <comp name="--.HNZ">
      <acc value="0.0180046190" flag="0"/>
      <vel value="0.0060064130" flag="0"/>
      <psa03 value="0.0273410121" flag="0"/>
      <psa10 value="0.0027335039" flag="0"/>
      <psa30 value="0.0005674043" flag="0"/>
    </comp>
  </station>
  <station code="KRBG" name="KRBG" netid="KO" insttype="CMG-3ESP" commtype="DIG" lat="40.3932" lon="27.2977">
    <comp name="--.HHE">
      <acc value="0.0139071136" flag="0"/>
      <vel value="0.0064630854" flag="0"/>
      <psa03 value="0.0244187086" flag="0"/>
      <psa10 value="0.0038004818" flag="0"/>
      <psa30 value="0.0002437448" flag="0"/>
    </comp>
  </station>
  <station code="KRTL" name="KRTL" netid="KO" insttype="CMG-5T" commtype="DIG" lat="40.9089" lon="29.1987">
    <comp name="--.HNE">
      <acc value="0.0724144326" flag="0"/>
      <vel value="0.0101572588" flag="0"/>
      <psa03 value="0.0342511496" flag="0"/>
      <psa10 value="0.0014535080" flag="0"/>
      <psa30 value="0.0002041158" flag="0"/>
    </comp>
    <comp name="--.HNZ">
      <acc value="0.0302985730" flag="0"/>
      <vel value="0.0068380533" flag="0"/>
      <psa03 value="0.0244515506" flag="0"/>
      <psa10 value="0.0009716311" flag="0"/>
      <psa30 value="0.0002721299" flag="0"/>
    </comp>
    <comp name="--.HNN">
      <acc value="0.0626719377" flag="0"/>
      <vel value="0.0122241465" flag="0"/>
      <psa03 value="0.0399851574" flag="0"/>
      <psa10 value="0.0041541528" flag="0"/>
      <psa30 value="0.0003909184" flag="0"/>
    </comp>
  </station>
  <station code="KUMB" name="KUMB" netid="KO" insttype="CMG-5T" commtype="DIG" lat="40.8626" lon="27.4592">
    <comp name="--.HNE">
      <acc value="0.0208819121" flag="0"/>
      <vel value="0.0028158735" flag="0"/>
      <psa03 value="0.0091047325" flag="0"/>
      <psa10 value="0.0016851948" flag="0"/>
      <psa30 value="0.0003027626" flag="0"/>
    </comp>
    <comp name="--.HNN">
      <acc value="0.0116963880" flag="0"/>
      <vel value="0.0040346278" flag="0"/>
      <psa03 value="0.0116896040" flag="0"/>
      <psa10 value="0.0025465922" flag="0"/>
      <psa30 value="0.0003244552" flag="0"/>
    </comp>
    <comp name="--.HNZ">
      <acc value="0.0005858382" flag="0"/>
      <vel value="0.0004572301" flag="0"/>
      <psa03 value="0.0007093656" flag="0"/>
      <psa10 value="0.0004846290" flag="0"/>
      <psa30 value="0.0002726914" flag="0"/>
    </comp>
  </station>
  <station code="MAEG" name="MAEG" netid="KO" insttype="CMG-5T" commtype="DIG" lat="40.9653" lon="27.9448">
    <comp name="--.HNN">
      <acc value="0.0390677029" flag="0"/>
      <vel value="0.0085646954" flag="0"/>
      <psa03 value="0.0184547849" flag="0"/>
      <psa10 value="0.0039115456" flag="0"/>
      <psa30 value="0.0003097971" flag="0"/>
    </comp>
    <comp name="--.HNZ">
      <acc value="0.0280332596" flag="0"/>
      <vel value="0.0049303145" flag="0"/>
      <psa03 value="0.0255124676" flag="0"/>
      <psa10 value="0.0018106581" flag="0"/>
      <psa30 value="0.0002460733" flag="0"/>
    </comp>
    <comp name="--.HNE">
      <acc value="0.0314086138" flag="0"/>
      <vel value="0.0061318594" flag="0"/>
      <psa03 value="0.0288884750" flag="0"/>
      <psa10 value="0.0033864597" flag="0"/>
      <psa30 value="0.0003035699" flag="0"/>
    </comp>
  </station>
  <station code="MDNY" name="MDNY" netid="KO" insttype="CMG-3ESP" commtype="DIG" lat="40.3709" lon="28.8846">
    <comp name="--.HHE">
      <acc value="0.0646831435" flag="0"/>
      <vel value="0.0177241951" flag="0"/>
      <psa03 value="0.0857350377" flag="0"/>
      <psa10 value="0.0033500013" flag="0"/>
      <psa30 value="0.0002753993" flag="0"/>
    </comp>
  </station>
  <station code="ORLT" name="ORLT" netid="KO" insttype="CMG-5T" commtype="DIG" lat="40.0452" lon="28.8914">
    <comp name="--.HNE">
