<?xml version="1.0" encoding="UTF-8" standalone="yes"?>
<!DOCTYPE earthquake SYSTEM "stationlist.dtd">
<stationlist created="" xmlns="ch.ethz.sed.shakemap.usgs.xml">
  <station code="AKDM" name="AKDM" netid="KO" insttype="CMG-3ESP" lat="38.3285" lon="42.98">
    <comp name="--.HHZ">
      <acc value="0.0017226918" flag="0"/>
      <vel value="0.0019474118" flag="0"/>
      <psa03 value="0.0053632557" flag="0"/>
      <psa10 value="0.0032114391" flag="0"/>
      <psa30 value="0.0005789506" flag="0"/>
    </comp>
    <comp name="--.HHE">
      <acc value="0.0033729805" flag="0"/>
      <vel value="0.0030559596" flag="0"/>
      <psa03 value="0.0086946019" flag="0"/>
      <psa10 value="0.0048926925" flag="0"/>
      <psa30 value="0.0005180644" flag="0"/>
    </comp>
    <comp name="--.HHN">
      <acc value="0.0022371059" flag="0"/>
      <vel value="0.0021356654" flag="0"/>
      <psa03 value="0.0066673017" flag="0"/>
      <psa10 value="0.0039316853" flag="0"/>
      <psa30 value="0.0002741768" flag="0"/>
    </comp>
  </station>
  <station code="SIRT" name="SIRT" netid="KO" insttype="CMG-3T" lat="37.501" lon="42.4392">
    <comp name="--.HHE">
      <acc value="0.0129764085" flag="0"/>
      <vel value="0.0068060739" flag="0"/>
      <psa03 value="0.0276659733" flag="0"/>
      <psa10 value="0.0134629536" flag="0"/>
      <psa30 value="0.0008927870" flag="0"/>
    </comp>
    <comp name="--.HHZ">
      <acc value="0.0090878511" flag="0"/>
      <vel value="0.0045857312" flag="0"/>
      <psa03 value="0.0121956721" flag="0"/>
      <psa10 value="0.0071814699" flag="0"/>
      <psa30 value="0.0004452891" flag="0"/>
    </comp>
  </station>
</stationlist>
