<?xml version="1.0" encoding="UTF-8" standalone="yes"?>
<!DOCTYPE earthquake SYSTEM "stationlist.dtd">
<stationlist created="" xmlns="ch.ethz.sed.shakemap.usgs.xml">
  <station code="JMI" name="JMI" netid="NS" insttype="" commtype="DIG" lat="70.9268" lon="-8.72667">
    <comp name="00.HHE">
      <acc value="0.1353212039" flag="0"/>
      <vel value="0.0912437170" flag="0"/>
      <psa03 value="0.1525136403" flag="0"/>
      <psa10 value="0.1077585554" flag="0"/>
      <psa30 value="0.0130987817" flag="0"/>
    </comp>
    <comp name="00.HHN">
      <acc value="0.1708582695" flag="0"/>
      <vel value="0.0679354164" flag="0"/>
      <psa03 value="0.1852445153" flag="0"/>
      <psa10 value="0.1198124318" flag="0"/>
      <psa30 value="0.0160069659" flag="0"/>
    </comp>
    <comp name="00.HHZ">
      <acc value="0.0890971341" flag="0"/>
      <vel value="0.0548368137" flag="0"/>
      <psa03 value="0.1713214729" flag="0"/>
      <psa10 value="0.0720834341" flag="0"/>
      <psa30 value="0.0293377792" flag="0"/>
    </comp>
  </station>
  <station code="JNW" name="JNW" netid="NS" insttype="" commtype="DIG" lat="71.0273" lon="-8.42367">
    <comp name="00.HHE">
      <acc value="1.2876215116" flag="0"/>
      <vel value="0.7045235414" flag="0"/>
      <psa03 value="2.5290849869" flag="0"/>
      <psa10 value="0.5305479867" flag="0"/>
      <psa30 value="0.0674684673" flag="0"/>
    </comp>
    <comp name="00.HHN">
      <acc value="0.8466212446" flag="0"/>
      <vel value="0.4318370462" flag="0"/>
      <psa03 value="1.2031484890" flag="0"/>
      <psa10 value="0.6342312151" flag="0"/>
      <psa30 value="0.0602427472" flag="0"/>
    </comp>
    <comp name="00.HHZ">
      <acc value="0.5662605408" flag="0"/>
      <vel value="0.2058912402" flag="0"/>
      <psa03 value="1.0760876219" flag="0"/>
      <psa10 value="0.1670226253" flag="0"/>
      <psa30 value="0.0354538853" flag="0"/>
    </comp>
  </station>
</stationlist>
