<?xml version="1.0" encoding="UTF-8" standalone="yes"?>
<!DOCTYPE earthquake SYSTEM "stationlist.dtd">
<stationlist created="" xmlns="ch.ethz.sed.shakemap.usgs.xml">
  <station code="ALT" name="ALT" netid="KO" insttype="CMG-5T" commtype="DIG" lat="39.0541" lon="30.1104">
    <comp name="--.HNE">
      <acc value="0.0055579382" flag="0"/>
      <vel value="0.0024601325" flag="0"/>
      <psa03 value="0.0155159876" flag="0"/>
      <psa10 value="0.0027971575" flag="0"/>
      <psa30 value="0.0004842128" flag="0"/>
    </comp>
    <comp name="--.HNN">
      <acc value="0.0068940544" flag="0"/>
      <vel value="0.0033060915" flag="0"/>
      <psa03 value="0.0234077464" flag="0"/>
      <psa10 value="0.0019154237" flag="0"/>
      <psa30 value="0.0003245355" flag="0"/>
    </comp>
    <comp name="--.HNZ">
      <acc value="0.0042546620" flag="0"/>
      <vel value="0.0019961967" flag="0"/>
      <psa03 value="0.0068835626" flag="0"/>
      <psa10 value="0.0033203529" flag="0"/>
      <psa30 value="0.0004398664" flag="0"/>
    </comp>
  </station>
  <station code="BASM" name="BASM" netid="KO" insttype="CMG-5T" commtype="DIG" lat="37.9194" lon="30.035">
    <comp name="--.HNE">
      <acc value="0.1254378866" flag="0"/>
      <vel value="0.0351661291" flag="0"/>
      <psa03 value="0.1518027311" flag="0"/>
      <psa10 value="0.0415683401" flag="0"/>
      <psa30 value="0.0027242961" flag="0"/>
    </comp>
    <comp name="--.HNN">
      <acc value="0.1014374346" flag="0"/>
      <vel value="0.0275494952" flag="0"/>
      <psa03 value="0.1095512429" flag="0"/>
      <psa10 value="0.0364621403" flag="0"/>
      <psa30 value="0.0025888873" flag="0"/>
    </comp>
    <comp name="--.HNZ">
      <acc value="0.0742598586" flag="0"/>
      <vel value="0.0191357495" flag="0"/>
      <psa03 value="0.0891472280" flag="0"/>
      <psa10 value="0.0232389178" flag="0"/>
      <psa30 value="0.0012994121" flag="0"/>
    </comp>
  </station>
  <station code="GEDZ" name="GEDZ" netid="KO" insttype="CMG-6T" commtype="DIG" lat="39.0445" lon="29.4105">
    <comp name="--.HHE">
      <acc value="0.0541582227" flag="0"/>
      <vel value="0.0180918087" flag="0"/>
      <psa03 value="0.1432136008" flag="0"/>
      <psa10 value="0.0140480454" flag="0"/>
      <psa30 value="0.0011907650" flag="0"/>
    </comp>
    <comp name="--.HHN">
      <acc value="0.0348953154" flag="0"/>
      <vel value="0.0180800686" flag="0"/>
      <psa03 value="0.1217717239" flag="0"/>
      <psa10 value="0.0233625920" flag="0"/>
      <psa30 value="0.0017424304" flag="0"/>
    </comp>
    <comp name="--.HHZ">
      <acc value="0.0156511801" flag="0"/>
      <vel value="0.0075477797" flag="0"/>
      <psa03 value="0.0298967770" flag="0"/>
      <psa10 value="0.0061548247" flag="0"/>
      <psa30 value="0.0006085372" flag="0"/>
    </comp>
  </station>
  <station code="KHL" name="KHL" netid="KO" insttype="CMG-5T" commtype="DIG" lat="38.3231" lon="29.5286">
    <comp name="--.HNE">
      <acc value="0.3001037411" flag="0"/>
      <vel value="0.0790670863" flag="0"/>
      <psa03 value="0.3919134910" flag="0"/>
      <psa10 value="0.0293746520" flag="0"/>
      <psa30 value="0.0023284397" flag="0"/>
    </comp>
    <comp name="--.HNN">
      <acc value="0.4023023506" flag="0"/>
      <vel value="0.0871372565" flag="0"/>
      <psa03 value="0.4184915833" flag="0"/>
      <psa10 value="0.0446914746" flag="0"/>
      <psa30 value="0.0036895665" flag="0"/>
    </comp>
    <comp name="--.HNZ">
      <acc value="0.2770625032" flag="0"/>
      <vel value="0.0592846685" flag="0"/>
      <psa03 value="0.2137016631" flag="0"/>
      <psa10 value="0.0321471267" flag="0"/>
      <psa30 value="0.0031632008" flag="0"/>
    </comp>
  </station>
  <station code="KULA" name="KULA" netid="KO" insttype="CMG-3T" commtype="DIG" lat="38.5145" lon="28.6607">
    <comp name="--.HHE">
      <acc value="0.0128317384" flag="0"/>
      <vel value="0.0081360371" flag="0"/>
      <psa03 value="0.0229459154" flag="0"/>
      <psa10 value="0.0104888480" flag="0"/>
      <psa30 value="0.0006685279" flag="0"/>
    </comp>
  </station>
  <station code="NAZL" name="NAZL" netid="KO" insttype="CMG-5T" commtype="DIG" lat="37.9641" lon="28.2922">
    <comp name="--.HNE">
      <acc value="0.0237854703" flag="0"/>
      <vel value="0.0108142230" flag="0"/>
      <psa03 value="0.0494760058" flag="0"/>
      <psa10 value="0.0120539054" flag="0"/>
      <psa30 value="0.0008371602" flag="0"/>
    </comp>
    <comp name="--.HNZ">
      <acc value="0.0079284756" flag="0"/>
      <vel value="0.0051524907" flag="0"/>
      <psa03 value="0.0116192777" flag="0"/>
      <psa10 value="0.0072882163" flag="0"/>
      <psa30 value="0.0006741873" flag="0"/>
    </comp>
    <comp name="--.HNN">
      <acc value="0.0142199973" flag="0"/>
      <vel value="0.0087064184" flag="0"/>
      <psa03 value="0.0463567172" flag="0"/>
      <psa10 value="0.0175297768" flag="0"/>
      <psa30 value="0.0006868860" flag="0"/>
    </comp>
  </station>
  <station code="SDAG" name="SDAG" netid="KO" insttype="CMG-6T" commtype="DIG" lat="38.4396" lon="30.9175">
    <comp name="--.HHN">
      <acc value="0.0045654211" flag="0"/>
      <vel value="0.0047219331" flag="0"/>
      <psa03 value="0.0110079263" flag="0"/>
      <psa10 value="0.0070533454" flag="0"/>
      <psa30 value="0.0007019546" flag="0"/>
    </comp>
    <comp name="--.HHZ">
      <acc value="0.0028100416" flag="0"/>
      <vel value="0.0027784457" flag="0"/>
      <psa03 value="0.0083122919" flag="0"/>
      <psa10 value="0.0053834943" flag="0"/>
      <psa30 value="0.0003318249" flag="0"/>
    </comp>
    <comp name="--.HHE">
      <acc value="0.0045563843" flag="0"/>
      <vel value="0.0045675262" flag="0"/>
      <psa03 value="0.0095559300" flag="0"/>
      <psa10 value="0.0085110288" flag="0"/>
      <psa30 value="0.0003985356" flag="0"/>
    </comp>
  </station>
  <station code="SHAP" name="SHAP" netid="KO" insttype="CMG-5T" commtype="DIG" lat="39.0231" lon="29.222">
    <comp name="--.HNN">
      <acc value="0.0308412807" flag="0"/>
      <vel value="0.0114614293" flag="0"/>
      <psa03 value="0.0586269401" flag="0"/>
      <psa10 value="0.0141311949" flag="0"/>
      <psa30 value="0.0010837709" flag="0"/>
    </comp>
    <comp name="--.HNE">
      <acc value="0.0213915190" flag="0"/>
      <vel value="0.0073419483" flag="0"/>
      <psa03 value="0.0414679376" flag="0"/>
      <psa10 value="0.0087501141" flag="0"/>
      <psa30 value="0.0004409337" flag="0"/>
    </comp>
    <comp name="--.HNZ">
      <acc value="0.0116908979" flag="0"/>
      <vel value="0.0035551300" flag="0"/>
      <psa03 value="0.0167513947" flag="0"/>
      <psa10 value="0.0042208469" flag="0"/>
      <psa30 value="0.0007103753" flag="0"/>
    </comp>
  </station>
  <station code="SHUT" name="SHUT" netid="KO" insttype="CMG-3T" commtype="DIG" lat="38.553" lon="30.551">
    <comp name="--.HHZ">
      <acc value="0.0099902947" flag="0"/>
      <vel value="0.0045264053" flag="0"/>
      <psa03 value="0.0252705298" flag="0"/>
      <psa10 value="0.0054040841" flag="0"/>
      <psa30 value="0.0006869262" flag="0"/>
    </comp>
    <comp name="--.HHE">
      <acc value="0.0183841029" flag="0"/>
      <vel value="0.0092865485" flag="0"/>
      <psa03 value="0.0376370867" flag="0"/>
      <psa10 value="0.0089562498" flag="0"/>
      <psa30 value="0.0008599106" flag="0"/>
    </comp>
    <comp name="--.HHN">
      <acc value="0.0142931093" flag="0"/>
      <vel value="0.0085628575" flag="0"/>
      <psa03 value="0.0350683709" flag="0"/>
      <psa10 value="0.0090962862" flag="0"/>
      <psa30 value="0.0008875716" flag="0"/>
    </comp>
  </station>
  <station code="SIMA" name="SIMA" netid="KO" insttype="CMG-6T" commtype="DIG" lat="39.0833" lon="28.9825">
    <comp name="--.HHE">
      <acc value="0.0145417329" flag="0"/>
      <vel value="0.0069842909" flag="0"/>
      <psa03 value="0.0412303510" flag="0"/>
      <psa10 value="0.0068684795" flag="0"/>
      <psa30 value="0.0006457823" flag="0"/>
    </comp>
    <comp name="--.HHN">
      <acc value="0.0161661882" flag="0"/>
      <vel value="0.0073691082" flag="0"/>
      <psa03 value="0.0420085669" flag="0"/>
      <psa10 value="0.0090248467" flag="0"/>
      <psa30 value="0.0006428144" flag="0"/>
    </comp>
    <comp name="--.HHZ">
      <acc value="0.0113660330" flag="0"/>
      <vel value="0.0051081900" flag="0"/>
      <psa03 value="0.0138193120" flag="0"/>
      <psa10 value="0.0036096341" flag="0"/>
      <psa30 value="0.0005213647" flag="0"/>
    </comp>
  </station>
  <station code="SMAA" name="SMAA" netid="KO" insttype="CMG-5T" commtype="DIG" lat="39.1005" lon="28.9805">
    <comp name="--.HNE">
      <acc value="0.0254170898" flag="0"/>
      <vel value="0.0253705646" flag="0"/>
      <psa03 value="0.0737941556" flag="0"/>
      <psa10 value="0.0499242489" flag="0"/>
      <psa30 value="0.0021811806" flag="0"/>
    </comp>
    <comp name="--.HNN">
      <acc value="0.0263558027" flag="0"/>
      <vel value="0.0223810165" flag="0"/>
      <psa03 value="0.0646886124" flag="0"/>
      <psa10 value="0.0359555931" flag="0"/>
      <psa30 value="0.0027999285" flag="0"/>
    </comp>
    <comp name="--.HNZ">
      <acc value="0.0095446323" flag="0"/>
      <vel value="0.0057335975" flag="0"/>
      <psa03 value="0.0163270767" flag="0"/>
      <psa10 value="0.0115125509" flag="0"/>
      <psa30 value="0.0009164832" flag="0"/>
    </comp>
  </station>
</stationlist>
