<stationlist xmlns:esm="https://esm-db.eu/esmws/shakemap/1/" created="1781229252">
	<station code="BLY" name="BLY" netid="MN" source="Mediterranean Very Broadband Seismographic Network (MedNet)" insttype="" lat="44.7488" lon="17.1839" esm:processing="manual (Paolucci et al 2011)" esm:quality="best">
		<comp name="--.HLE" depth="1.0">
			<acc value="0.0243077890336714" flag="0"/>
			<vel value="0.0158080703710854" flag="0"/>
			<psa03 value="0.0643392931170748" flag="0"/>
			<psa10 value="0.0159139080499869" flag="0"/>
			<psa30 value="0.0019856591297189" flag="0"/>
		</comp>
		<comp name="--.HLN" depth="1.0">
			<acc value="0.0191643872829828" flag="0"/>
			<vel value="0.0123469620398916" flag="0"/>
			<psa03 value="0.0452343708910727" flag="0"/>
			<psa10 value="0.0170534920525543" flag="0"/>
			<psa30 value="0.00258565212046992" flag="0"/>
		</comp>
		<comp name="--.HLZ" depth="1.0">
			<acc value="0.0158488192092261" flag="0"/>
			<vel value="0.0115601998955586" flag="0"/>
			<psa03 value="0.0557487894463666" flag="0"/>
			<psa10 value="0.00986968335792457" flag="0"/>
			<psa30 value="0.00163890702842729" flag="0"/>
		</comp>
	</station>
</stationlist>
