<?xml version="1.0" encoding="UTF-8" standalone="yes"?>
<!DOCTYPE earthquake SYSTEM "stationlist.dtd">
<stationlist created="" xmlns="ch.ethz.sed.shakemap.usgs.xml">
  <station code="BLY" name="BLY" netid="MN" source="INGV" insttype="" lat="44.7488" lon="17.1839">
    <comp name="--.HHE">
      <acc value="0.0247302399" flag="0"/>
      <vel value="0.0144819692" flag="0"/>
      <psa03 value="0.0637988216" flag="0"/>
      <psa10 value="0.0149673156" flag="0"/>
      <psa30 value="0.0017251809" flag="0"/>
    </comp>
    <comp name="--.HHN">
      <acc value="0.0192444810" flag="0"/>
      <vel value="0.0114811392" flag="0"/>
      <psa03 value="0.0445330190" flag="0"/>
      <psa10 value="0.0171627679" flag="0"/>
      <psa30 value="0.0022709911" flag="0"/>
    </comp>
    <comp name="--.HHZ">
      <acc value="0.0165444976" flag="0"/>
      <vel value="0.0118132237" flag="0"/>
      <psa03 value="0.0574057936" flag="0"/>
      <psa10 value="0.0101013713" flag="0"/>
      <psa30 value="0.0014740423" flag="0"/>
    </comp>
  </station>
</stationlist>
