<?xml version="1.0" encoding="UTF-8" standalone="yes"?>
<!DOCTYPE earthquake SYSTEM "stationlist.dtd">
<stationlist created="" xmlns="ch.ethz.sed.shakemap.usgs.xml">
  <station code="ARPRA" name="ARPRA" netid="KO" insttype="CMG-5T" lat="39.0929" lon="38.3356">
    <comp name="--.HNN">
      <acc value="0.1718439098" flag="0"/>
      <vel value="0.0554047356" flag="0"/>
      <psa03 value="0.2520640043" flag="0"/>
      <psa10 value="0.0151368192" flag="0"/>
      <psa30 value="0.0012172293" flag="0"/>
    </comp>
    <comp name="--.HNE">
      <acc value="0.1714590436" flag="0"/>
      <vel value="0.0541673287" flag="0"/>
      <psa03 value="0.2959287215" flag="0"/>
      <psa10 value="0.0182298522" flag="0"/>
      <psa30 value="0.0013031553" flag="0"/>
    </comp>
    <comp name="--.HNZ">
      <acc value="0.1132538498" flag="0"/>
      <vel value="0.0254039090" flag="0"/>
      <psa03 value="0.1359466861" flag="0"/>
      <psa10 value="0.0156902745" flag="0"/>
      <psa30 value="0.0010363434" flag="0"/>
    </comp>
  </station>
</stationlist>
