<stationlist created="1750820556">
	<station code="ARPRA" name="ARPRA" netid="KO" source="Bogazici University Kandilli Observatory And Earthquake Research Institute (KOERI)" insttype="" lat="39.0929" lon="38.3356">
		<comp name=".HNE" depth="0.0">
			<acc value="0.0088424830856472" flag="0"/>
			<vel value="0.00734033794924" flag="0"/>
			<psa03 value="0.0253404469094306" flag="0"/>
			<psa10 value="0.0167925117964832" flag="0"/>
			<psa30 value="0.00133667792335285" flag="0"/>
		</comp>
		<comp name=".HNN" depth="0.0">
			<acc value="0.0088704021590694" flag="0"/>
			<vel value="0.00893101914431" flag="0"/>
			<psa03 value="0.0291828342611972" flag="0"/>
			<psa10 value="0.0180169679106836" flag="0"/>
			<psa30 value="0.00212971295803187" flag="0"/>
		</comp>
		<comp name=".HNZ" depth="0.0">
			<acc value="0.0067141694147412" flag="0"/>
			<vel value="0.00680102534572" flag="0"/>
			<psa03 value="0.013803892304707" flag="0"/>
			<psa10 value="0.0121560496536116" flag="0"/>
			<psa30 value="0.0015501461270741" flag="0"/>
		</comp>
	</station>
	<station code="CMRD" name="CMRD" netid="KO" source="Bogazici University Kandilli Observatory And Earthquake Research Institute (KOERI)" insttype="" lat="37.6623" lon="34.9902">
		<comp name=".HNE" depth="0.0">
			<acc value="0.026406115179402" flag="0"/>
			<vel value="0.0116572393994" flag="0"/>
			<psa03 value="0.0423069979434654" flag="0"/>
			<psa10 value="0.0126167311090116" flag="0"/>
			<psa30 value="0.000715849661109162" flag="0"/>
		</comp>
		<comp name=".HNN" depth="0.0">
			<acc value="0.029717311692834" flag="0"/>
			<vel value="0.0136244029963" flag="0"/>
			<psa03 value="0.0442850586678118" flag="0"/>
			<psa10 value="0.0115475052780618" flag="0"/>
			<psa30 value="0.000921311969896165" flag="0"/>
		</comp>
		<comp name=".HNZ" depth="0.0">
			<acc value="0.022982835360906" flag="0"/>
			<vel value="0.0106519741337" flag="0"/>
			<psa03 value="0.0451320731116411" flag="0"/>
			<psa10 value="0.0111381562856827" flag="0"/>
			<psa30 value="0.000881925714918789" flag="0"/>
		</comp>
	</station>
	<station code="KOZK" name="KOZK" netid="KO" source="Bogazici University Kandilli Observatory And Earthquake Research Institute (KOERI)" insttype="" lat="39.2101" lon="34.868">
		<comp name=".HNE" depth="0.0">
			<acc value="0.013906135362432" flag="0"/>
			<vel value="0.0180292907232" flag="0"/>
			<psa03 value="0.0314682460751801" flag="0"/>
			<psa10 value="0.0333068301640371" flag="0"/>
			<psa30 value="0.00166024362882396" flag="0"/>
		</comp>
		<comp name=".HNN" depth="0.0">
			<acc value="0.01416455675649" flag="0"/>
			<vel value="0.0168128105612" flag="0"/>
			<psa03 value="0.0323596514806034" flag="0"/>
			<psa10 value="0.0544434628624116" flag="0"/>
			<psa30 value="0.00158252275103123" flag="0"/>
		</comp>
		<comp name=".HNZ" depth="0.0">
			<acc value="0.0090248017252842" flag="0"/>
			<vel value="0.00784234877864" flag="0"/>
			<psa03 value="0.0324967360825964" flag="0"/>
			<psa10 value="0.0112206383122305" flag="0"/>
			<psa30 value="0.000629193295550632" flag="0"/>
		</comp>
	</station>
	<station code="KRTS" name="KRTS" netid="KO" source="Bogazici University Kandilli Observatory And Earthquake Research Institute (KOERI)" insttype="" lat="36.573" lon="35.375">
		<comp name=".HNE" depth="0.0">
			<acc value="0.0065555252145186" flag="0"/>
			<vel value="0.00637083314548" flag="0"/>
			<psa03 value="0.0129549389302849" flag="0"/>
			<psa10 value="0.0135283049337939" flag="0"/>
			<psa30 value="0.00131084464952311" flag="0"/>
		</comp>
		<comp name=".HNN" depth="0.0">
			<acc value="0.0089560512621066" flag="0"/>
			<vel value="0.0101497317471" flag="0"/>
			<psa03 value="0.0192115734537257" flag="0"/>
			<psa10 value="0.0106636092242906" flag="0"/>
			<psa30 value="0.00142252058917335" flag="0"/>
		</comp>
		<comp name=".HNZ" depth="0.0">
			<acc value="0.0069387910479912" flag="0"/>
			<vel value="0.00539319464318" flag="0"/>
			<psa03 value="0.0138520621623789" flag="0"/>
			<psa10 value="0.00570836658877088" flag="0"/>
			<psa30 value="0.00132753367175741" flag="0"/>
		</comp>
	</station>
	<station code="TUNC" name="TUNC" netid="KO" source="Bogazici University Kandilli Observatory And Earthquake Research Institute (KOERI)" insttype="" lat="39.6942" lon="37.5388">
		<comp name=".HNE" depth="0.0">
			<acc value="0.0074564213227212" flag="0"/>
			<vel value="0.00922403460738" flag="0"/>
			<psa03 value="0.0246204799443133" flag="0"/>
			<psa10 value="0.0157242788438001" flag="0"/>
			<psa30 value="0.00272270974115841" flag="0"/>
		</comp>
		<comp name=".HNN" depth="0.0">
			<acc value="0.007122736338687" flag="0"/>
			<vel value="0.0113554047636" flag="0"/>
			<psa03 value="0.018803944887812" flag="0"/>
			<psa10 value="0.0238069127161312" flag="0"/>
			<psa30 value="0.00281748101929036" flag="0"/>
		</comp>
		<comp name=".HNZ" depth="0.0">
			<acc value="0.0048084130436796" flag="0"/>
			<vel value="0.00669208723114" flag="0"/>
			<psa03 value="0.0117100387534355" flag="0"/>
			<psa10 value="0.0178441433369331" flag="0"/>
			<psa30 value="0.00267376108188218" flag="0"/>
		</comp>
	</station>
</stationlist>
