<?xml version="1.0" encoding="UTF-8" standalone="yes"?>
<!DOCTYPE earthquake SYSTEM "stationlist.dtd">
<stationlist created="" xmlns="ch.ethz.sed.shakemap.usgs.xml">
  <station code="BNN" name="BNN" netid="KO" insttype="CMG-3T" commtype="DIG" lat="38.8521" lon="35.8472">
    <comp name="--.HHZ">
      <acc value="0.0134737176" flag="0"/>
      <vel value="0.0083939365" flag="0"/>
      <psa03 value="0.0275096155" flag="0"/>
      <psa10 value="0.0176407508" flag="0"/>
      <psa30 value="0.0010512290" flag="0"/>
    </comp>
    <comp name="--.HHE">
      <acc value="0.0227355541" flag="0"/>
      <vel value="0.0141048906" flag="0"/>
      <psa03 value="0.0416457792" flag="0"/>
      <psa10 value="0.0333452169" flag="0"/>
      <psa30 value="0.0019889760" flag="0"/>
    </comp>
  </station>
  <station code="CEYT" name="CEYT" netid="KO" insttype="CMG-3ESP" commtype="DIG" lat="37.0105" lon="35.7478">
    <comp name="--.HHZ">
      <acc value="0.0098979962" flag="0"/>
      <vel value="0.0077425553" flag="0"/>
      <psa03 value="0.0249999941" flag="0"/>
      <psa10 value="0.0173145180" flag="0"/>
      <psa30 value="0.0024457940" flag="0"/>
    </comp>
    <comp name="--.HHE">
      <acc value="0.0193121151" flag="0"/>
      <vel value="0.0170206602" flag="0"/>
      <psa03 value="0.0543012993" flag="0"/>
      <psa10 value="0.0197410792" flag="0"/>
      <psa30 value="0.0038543669" flag="0"/>
    </comp>
    <comp name="--.HHN">
      <acc value="0.0156492275" flag="0"/>
      <vel value="0.0171234180" flag="0"/>
      <psa03 value="0.0465804650" flag="0"/>
      <psa10 value="0.0221917552" flag="0"/>
      <psa30 value="0.0012768603" flag="0"/>
    </comp>
  </station>
  <station code="CMRD" name="CMRD" netid="KO" insttype="CMG-5T" commtype="DIG" lat="37.6623" lon="34.9902">
    <comp name="--.HNN">
      <acc value="0.0299528303" flag="0"/>
      <vel value="0.0128869268" flag="0"/>
      <psa03 value="0.0439887876" flag="0"/>
      <psa10 value="0.0115640795" flag="0"/>
      <psa30 value="0.0009382156" flag="0"/>
    </comp>
    <comp name="--.HNZ">
      <acc value="0.0226884597" flag="0"/>
      <vel value="0.0108252213" flag="0"/>
      <psa03 value="0.0445661741" flag="0"/>
      <psa10 value="0.0110811557" flag="0"/>
      <psa30 value="0.0007993212" flag="0"/>
    </comp>
    <comp name="--.HNE">
      <acc value="0.0270156631" flag="0"/>
      <vel value="0.0112622093" flag="0"/>
      <psa03 value="0.0420304222" flag="0"/>
      <psa10 value="0.0125910829" flag="0"/>
      <psa30 value="0.0006950184" flag="0"/>
    </comp>
  </station>
  <station code="KOZT" name="KOZT" netid="KO" insttype="CMG-3T" commtype="DIG" lat="37.4795" lon="35.8264">
    <comp name="--.HHN">
      <acc value="0.1148228184" flag="0"/>
      <vel value="0.0499021108" flag="0"/>
      <psa03 value="0.1760402331" flag="0"/>
      <psa10 value="0.0378057903" flag="0"/>
      <psa30 value="0.0029045792" flag="0"/>
    </comp>
    <comp name="--.HHE">
      <acc value="0.0713934590" flag="0"/>
      <vel value="0.0520841084" flag="0"/>
      <psa03 value="0.2090489278" flag="0"/>
      <psa10 value="0.0866540995" flag="0"/>
      <psa30 value="0.0050520804" flag="0"/>
    </comp>
    <comp name="--.HHZ">
      <acc value="0.0424059443" flag="0"/>
      <vel value="0.0323960125" flag="0"/>
      <psa03 value="0.1201580446" flag="0"/>
      <psa10 value="0.0655157483" flag="0"/>
      <psa30 value="0.0024690555" flag="0"/>
    </comp>
  </station>
  <station code="NURH" name="NURH" netid="KO" insttype="CMG-6T" commtype="DIG" lat="37.9693" lon="37.4363">
    <comp name="--.HHZ">
      <acc value="0.0371107456" flag="0"/>
      <vel value="0.0264790256" flag="0"/>
      <psa03 value="0.1078155929" flag="0"/>
      <psa10 value="0.0377387050" flag="0"/>
      <psa30 value="0.0025895084" flag="0"/>
    </comp>
    <comp name="--.HHE">
      <acc value="0.0742129566" flag="0"/>
      <vel value="0.0426962025" flag="0"/>
      <psa03 value="0.2030764081" flag="0"/>
      <psa10 value="0.0696708972" flag="0"/>
      <psa30 value="0.0025842752" flag="0"/>
    </comp>
    <comp name="--.HHN">
      <acc value="0.1278550174" flag="0"/>
      <vel value="0.0837280409" flag="0"/>
      <psa03 value="0.5126586899" flag="0"/>
      <psa10 value="0.0465596621" flag="0"/>
      <psa30 value="0.0041409136" flag="0"/>
    </comp>
  </station>
  <station code="ANDN" name="ANDN" netid="TU" insttype="T" commtype="DIG" lat="37.58" lon="36.3452">
    <comp name="--.HHE">
      <acc value="0.4943462502" flag="0"/>
      <vel value="0.2543040463" flag="0"/>
      <psa03 value="1.7113331518" flag="0"/>
      <psa10 value="0.3233234458" flag="0"/>
      <psa30 value="0.0218444529" flag="0"/>
    </comp>
    <comp name="--.HHZ">
      <acc value="0.4097119679" flag="0"/>
      <vel value="0.2057485055" flag="0"/>
      <psa03 value="0.8702562378" flag="0"/>
      <psa10 value="0.2769857383" flag="0"/>
      <psa30 value="0.0108955773" flag="0"/>
    </comp>
    <comp name="--.HHN">
      <acc value="0.4952314685" flag="0"/>
      <vel value="0.2154981223" flag="0"/>
      <psa03 value="1.1638651166" flag="0"/>
      <psa10 value="0.2750707239" flag="0"/>
      <psa30 value="0.0179045374" flag="0"/>
    </comp>
  </station>
</stationlist>
