<?xml version="1.0" encoding="UTF-8" standalone="yes"?>
<!DOCTYPE earthquake SYSTEM "stationlist.dtd">
<stationlist created="" xmlns="ch.ethz.sed.shakemap.usgs.xml">
  <station code="BNN" name="BNN" netid="KO" insttype="CMG-3T" commtype="DIG" lat="38.8521" lon="35.8472">
    <comp name="--.HHE">
      <acc value="0.0227355537" flag="0"/>
      <vel value="0.0141048908" flag="0"/>
      <psa03 value="0.0416457792" flag="0"/>
      <psa10 value="0.0333452169" flag="0"/>
      <psa30 value="0.0019889468" flag="0"/>
    </comp>
  </station>
  <station code="CEYT" name="CEYT" netid="KO" insttype="CMG-3ESP" commtype="DIG" lat="37.0105" lon="35.7478">
    <comp name="--.HHN">
      <acc value="0.0156492275" flag="0"/>
      <vel value="0.0171234173" flag="0"/>
      <psa03 value="0.0465804650" flag="0"/>
      <psa10 value="0.0221917552" flag="0"/>
      <psa30 value="0.0012768713" flag="0"/>
    </comp>
    <comp name="--.HHZ">
      <acc value="0.0098979960" flag="0"/>
      <vel value="0.0077425550" flag="0"/>
      <psa03 value="0.0249999941" flag="0"/>
      <psa10 value="0.0173145180" flag="0"/>
      <psa30 value="0.0024458148" flag="0"/>
    </comp>
    <comp name="--.HHE">
      <acc value="0.0193121152" flag="0"/>
      <vel value="0.0170206620" flag="0"/>
      <psa03 value="0.0543012993" flag="0"/>
      <psa10 value="0.0197410792" flag="0"/>
      <psa30 value="0.0038543514" flag="0"/>
    </comp>
  </station>
  <station code="GAZ" name="GAZ" netid="KO" insttype="CMG-3T" commtype="DIG" lat="37.1721" lon="37.2096">
    <comp name="--.HHE">
      <acc value="0.0294415857" flag="0"/>
      <vel value="0.0210052870" flag="0"/>
      <psa03 value="0.0742979723" flag="0"/>
      <psa10 value="0.0280054801" flag="0"/>
      <psa30 value="0.0018874592" flag="0"/>
    </comp>
    <comp name="--.HHZ">
      <acc value="0.0219083963" flag="0"/>
      <vel value="0.0147939748" flag="0"/>
      <psa03 value="0.0752657864" flag="0"/>
      <psa10 value="0.0149173611" flag="0"/>
      <psa30 value="0.0008241788" flag="0"/>
    </comp>
    <comp name="--.HHN">
      <acc value="0.0247412248" flag="0"/>
      <vel value="0.0176956091" flag="0"/>
      <psa03 value="0.1137848727" flag="0"/>
      <psa10 value="0.0335863859" flag="0"/>
      <psa30 value="0.0017868947" flag="0"/>
    </comp>
  </station>
  <station code="KOZT" name="KOZT" netid="KO" insttype="CMG-3T" commtype="DIG" lat="37.4795" lon="35.8264">
    <comp name="--.HHN">
      <acc value="0.1148228185" flag="0"/>
      <vel value="0.0499021109" flag="0"/>
      <psa03 value="0.1760402331" flag="0"/>
      <psa10 value="0.0378057903" flag="0"/>
      <psa30 value="0.0029045777" flag="0"/>
    </comp>
    <comp name="--.HHE">
      <acc value="0.0713934590" flag="0"/>
      <vel value="0.0520841087" flag="0"/>
      <psa03 value="0.2090489278" flag="0"/>
      <psa10 value="0.0866540995" flag="0"/>
      <psa30 value="0.0050520721" flag="0"/>
    </comp>
    <comp name="--.HHZ">
      <acc value="0.0424059444" flag="0"/>
      <vel value="0.0323960126" flag="0"/>
      <psa03 value="0.1201580446" flag="0"/>
      <psa10 value="0.0655157483" flag="0"/>
      <psa30 value="0.0024690397" flag="0"/>
    </comp>
  </station>
  <station code="NURH" name="NURH" netid="KO" insttype="CMG-6T" commtype="DIG" lat="37.9693" lon="37.4363">
    <comp name="--.HHZ">
      <acc value="0.0371107461" flag="0"/>
      <vel value="0.0264790281" flag="0"/>
      <psa03 value="0.1078155929" flag="0"/>
      <psa10 value="0.0377387050" flag="0"/>
      <psa30 value="0.0025894936" flag="0"/>
    </comp>
    <comp name="--.HHE">
      <acc value="0.0742129472" flag="0"/>
      <vel value="0.0426962008" flag="0"/>
      <psa03 value="0.2030764081" flag="0"/>
      <psa10 value="0.0696708972" flag="0"/>
      <psa30 value="0.0025842492" flag="0"/>
    </comp>
    <comp name="--.HHN">
      <acc value="0.1278550199" flag="0"/>
      <vel value="0.0837280409" flag="0"/>
      <psa03 value="0.5126586899" flag="0"/>
      <psa10 value="0.0465596621" flag="0"/>
      <psa30 value="0.0041409188" flag="0"/>
    </comp>
  </station>
  <station code="ANDN" name="ANDN" netid="TU" insttype="T" commtype="DIG" lat="37.58" lon="36.3452">
    <comp name="--.HHE">
      <acc value="0.4943462494" flag="0"/>
      <vel value="0.2543040453" flag="0"/>
      <psa03 value="1.7113331518" flag="0"/>
      <psa10 value="0.3233234458" flag="0"/>
      <psa30 value="0.0218443265" flag="0"/>
    </comp>
    <comp name="--.HHZ">
      <acc value="0.4097119682" flag="0"/>
      <vel value="0.2057485052" flag="0"/>
      <psa03 value="0.8702562378" flag="0"/>
      <psa10 value="0.2769857383" flag="0"/>
      <psa30 value="0.0108955310" flag="0"/>
    </comp>
  </station>
</stationlist>
