<?xml version="1.0" encoding="UTF-8" standalone="yes"?>
<!DOCTYPE earthquake SYSTEM "stationlist.dtd">
<stationlist created="" xmlns="ch.ethz.sed.shakemap.usgs.xml">
  <station code="ASB" name="ASB" netid="VI" insttype="STS-2.5" lat="64.7482" lon="-21.3254">
    <comp name="--.HHZ">
      <acc value="0.0179476550" flag="0"/>
      <vel value="0.0075359267" flag="0"/>
      <psa03 value="0.0245123945" flag="0"/>
      <psa10 value="0.0055015752" flag="0"/>
      <psa30 value="0.0028504385" flag="0"/>
    </comp>
    <comp name="--.HHE">
      <acc value="0.0317266472" flag="0"/>
      <vel value="0.0133177165" flag="0"/>
      <psa03 value="0.0437344231" flag="0"/>
      <psa10 value="0.0178798114" flag="0"/>
      <psa30 value="0.0024212954" flag="0"/>
    </comp>
    <comp name="--.HHN">
      <acc value="0.0261393125" flag="0"/>
      <vel value="0.0097588131" flag="0"/>
      <psa03 value="0.0446102059" flag="0"/>
      <psa10 value="0.0083526961" flag="0"/>
      <psa30 value="0.0026348494" flag="0"/>
    </comp>
  </station>
</stationlist>
