<?xml version="1.0" encoding="UTF-8" standalone="yes"?>
<!DOCTYPE earthquake SYSTEM "stationlist.dtd">
<stationlist created="" xmlns="ch.ethz.sed.shakemap.usgs.xml">
  <station code="KOSP" name="KOSP" netid="HC" insttype="60" commtype="DIG" lat="36.881" lon="27.281">
    <comp name="--.HHE">
      <acc value="0.0000000000" flag="0"/>
      <vel value="-100.0000000000" flag="0"/>
      <psa03 value="0.0000000000" flag="0"/>
      <psa10 value="0.0000000000" flag="0"/>
      <psa30 value="0.0000000000" flag="0"/>
    </comp>
    <comp name="--.HHZ">
      <acc value="0.0247482163" flag="0"/>
      <vel value="0.0134173011" flag="0"/>
      <psa03 value="0.0770585481" flag="0"/>
      <psa10 value="0.0131109473" flag="0"/>
      <psa30 value="0.0019428435" flag="0"/>
    </comp>
    <comp name="--.HHN">
      <acc value="0.0405363919" flag="0"/>
      <vel value="0.0202859100" flag="0"/>
      <psa03 value="0.1472354016" flag="0"/>
      <psa10 value="0.0238404836" flag="0"/>
      <psa30 value="0.0045442405" flag="0"/>
    </comp>
  </station>
  <station code="KOS2" name="KOS2" netid="HI" insttype="unknown" commtype="DIG" lat="36.8941" lon="27.2888">
    <comp name="--.HNE">
      <acc value="0.0892962682" flag="0"/>
      <vel value="0.0417483083" flag="0"/>
      <psa03 value="0.4135003517" flag="0"/>
      <psa10 value="0.0408012197" flag="0"/>
      <psa30 value="0.0053547676" flag="0"/>
    </comp>
    <comp name="--.HNN">
      <acc value="0.1320981598" flag="0"/>
      <vel value="0.0750730554" flag="0"/>
      <psa03 value="0.7287662554" flag="0"/>
      <psa10 value="0.0497933736" flag="0"/>
      <psa30 value="0.0041796473" flag="0"/>
    </comp>
    <comp name="--.HNZ">
      <acc value="0.0374378386" flag="0"/>
      <vel value="0.0163973811" flag="0"/>
      <psa03 value="0.1246256506" flag="0"/>
      <psa10 value="0.0244982535" flag="0"/>
      <psa30 value="0.0029646202" flag="0"/>
    </comp>
  </station>
  <station code="RDI1" name="RDI1" netid="HI" insttype="CMG-5TD,ACCELEROMETER,GURALP" commtype="DIG" lat="36.4514" lon="28.224">
    <comp name="--.HNE">
      <acc value="0.3640945373" flag="0"/>
      <vel value="0.1946890264" flag="0"/>
      <psa03 value="0.7730940605" flag="0"/>
      <psa10 value="0.2427755353" flag="0"/>
      <psa30 value="0.0133200302" flag="0"/>
    </comp>
    <comp name="--.HNZ">
      <acc value="0.1607167661" flag="0"/>
      <vel value="0.1039895276" flag="0"/>
      <psa03 value="0.5388058401" flag="0"/>
      <psa10 value="0.0886111275" flag="0"/>
      <psa30 value="0.0062195584" flag="0"/>
    </comp>
    <comp name="--.HNN">
      <acc value="0.3505785745" flag="0"/>
      <vel value="0.2250676951" flag="0"/>
      <psa03 value="0.8391493252" flag="0"/>
      <psa10 value="0.1631192088" flag="0"/>
      <psa30 value="0.0096356780" flag="0"/>
    </comp>
  </station>
  <station code="RPN1" name="RPN1" netid="HI" insttype="unknown" commtype="DIG" lat="36.4487" lon="28.218">
    <comp name="--.HNE">
      <acc value="0.3412148966" flag="0"/>
      <vel value="0.2028580348" flag="0"/>
      <psa03 value="1.3428460562" flag="0"/>
      <psa10 value="0.1797553879" flag="0"/>
      <psa30 value="0.0116967992" flag="0"/>
    </comp>
    <comp name="--.HNN">
      <acc value="0.5748664359" flag="0"/>
      <vel value="0.2950079909" flag="0"/>
      <psa03 value="1.8862879821" flag="0"/>
      <psa10 value="0.1492489098" flag="0"/>
      <psa30 value="0.0152411541" flag="0"/>
    </comp>
    <comp name="--.HNZ">
      <acc value="0.2343214343" flag="0"/>
      <vel value="0.0895815157" flag="0"/>
      <psa03 value="0.5700434308" flag="0"/>
      <psa10 value="0.1172811267" flag="0"/>
      <psa30 value="0.0057502921" flag="0"/>
    </comp>
  </station>
  <station code="ARG" name="ARG" netid="HL" insttype="LE3D20_DR24" commtype="DIG" lat="36.2136" lon="28.1212">
    <comp name="--.HHZ">
      <acc value="0.0991321641" flag="0"/>
      <vel value="0.0399124218" flag="0"/>
      <psa03 value="0.2323827656" flag="0"/>
      <psa10 value="0.0281795921" flag="0"/>
      <psa30 value="0.0023398392" flag="0"/>
    </comp>
    <comp name="--.HHN">
      <acc value="0.1367444695" flag="0"/>
      <vel value="0.0437615900" flag="0"/>
      <psa03 value="0.5019989052" flag="0"/>
      <psa10 value="0.0306789464" flag="0"/>
      <psa30 value="0.0025748479" flag="0"/>
    </comp>
    <comp name="--.HHE">
      <acc value="0.1489387396" flag="0"/>
      <vel value="0.0731459779" flag="0"/>
      <psa03 value="0.5533837151" flag="0"/>
      <psa10 value="0.0308078467" flag="0"/>
      <psa30 value="0.0039986217" flag="0"/>
    </comp>
  </station>
  <station code="KLNA" name="KLNA" netid="HL" insttype="CMG-5" commtype="DIG" lat="36.9571" lon="26.9727">
    <comp name="00.HNE">
      <acc value="0.0390392639" flag="0"/>
      <vel value="0.0142873211" flag="0"/>
      <psa03 value="0.0995905894" flag="0"/>
      <psa10 value="0.0053691811" flag="0"/>
      <psa30 value="0.0004700345" flag="0"/>
    </comp>
    <comp name="00.HNN">
      <acc value="0.0310649105" flag="0"/>
      <vel value="0.0136312631" flag="0"/>
      <psa03 value="0.1008264616" flag="0"/>
      <psa10 value="0.0081509299" flag="0"/>
      <psa30 value="0.0006399328" flag="0"/>
    </comp>
    <comp name="00.HNZ">
      <acc value="0.0416175949" flag="0"/>
      <vel value="0.0128359202" flag="0"/>
      <psa03 value="0.0393250416" flag="0"/>
      <psa10 value="0.0046170606" flag="0"/>
      <psa30 value="0.0004532860" flag="0"/>
    </comp>
  </station>
  <station code="NISR" name="NISR" netid="HL" insttype="65535" commtype="DIG" lat="36.6106" lon="27.131">
    <comp name="--.HHE">
      <acc value="0.0000000000" flag="0"/>
      <vel value="-100.0000000000" flag="0"/>
      <psa03 value="0.0000000000" flag="0"/>
      <psa10 value="0.0000000000" flag="0"/>
      <psa30 value="0.0000000000" flag="0"/>
    </comp>
    <comp name="--.HHZ">
      <acc value="0.0181795373" flag="0"/>
      <vel value="0.0121696043" flag="0"/>
      <psa03 value="0.0369852840" flag="0"/>
      <psa10 value="0.0195506232" flag="0"/>
      <psa30 value="0.0012537782" flag="0"/>
    </comp>
    <comp name="--.HHN">
      <acc value="0.0207410117" flag="0"/>
      <vel value="0.0127215278" flag="0"/>
      <psa03 value="0.0556380161" flag="0"/>
      <psa10 value="0.0139572409" flag="0"/>
      <psa30 value="0.0015476700" flag="0"/>
    </comp>
  </station>
  <station code="NISR2" name="NISR2" netid="HL" insttype="120" commtype="DIG" lat="36.5744" lon="27.1767">
    <comp name="--.HHN">
      <acc value="0.1320509578" flag="0"/>
      <vel value="0.0963188678" flag="0"/>
      <psa03 value="0.3829974331" flag="0"/>
      <psa10 value="0.0920926351" flag="0"/>
      <psa30 value="0.0051832476" flag="0"/>
    </comp>
    <comp name="--.HHE">
      <acc value="0.1442622674" flag="0"/>
      <vel value="0.0891242963" flag="0"/>
      <psa03 value="0.3664132386" flag="0"/>
      <psa10 value="0.1151903017" flag="0"/>
      <psa30 value="0.0034119679" flag="0"/>
    </comp>
    <comp name="--.HHZ">
      <acc value="0.0560013620" flag="0"/>
      <vel value="0.0335055528" flag="0"/>
      <psa03 value="0.1737710420" flag="0"/>
      <psa10 value="0.0241081936" flag="0"/>
      <psa30 value="0.0013776354" flag="0"/>
    </comp>
  </station>
  <station code="RODB" name="RODB" netid="HL" insttype="CMG-5" commtype="DIG" lat="36.4471" lon="28.2212">
    <comp name="00.HNE">
      <acc value="0.2769626068" flag="0"/>
      <vel value="0.1270534566" flag="0"/>
      <psa03 value="1.1822162236" flag="0"/>
      <psa10 value="0.0916133521" flag="0"/>
      <psa30 value="0.0087132279" flag="0"/>
    </comp>
    <comp name="00.HNZ">
      <acc value="0.1970685694" flag="0"/>
      <vel value="0.0863186961" flag="0"/>
      <psa03 value="0.3180721156" flag="0"/>
      <psa10 value="0.0865807069" flag="0"/>
      <psa30 value="0.0048105332" flag="0"/>
    </comp>
    <comp name="00.HNN">
      <acc value="0.3239294137" flag="0"/>
      <vel value="0.2304965397" flag="0"/>
      <psa03 value="1.1474090964" flag="0"/>
      <psa10 value="0.1659861503" flag="0"/>
      <psa30 value="0.0169307741" flag="0"/>
    </comp>
  </station>
  <station code="APMY" name="APMY" netid="KO" insttype="CMG-6T" commtype="DIG" lat="37.4717" lon="29.3018">
    <comp name="--.HHE">
      <acc value="0.0662273120" flag="0"/>
      <vel value="0.0642009915" flag="0"/>
      <psa03 value="0.1764733651" flag="0"/>
      <psa10 value="0.0529512921" flag="0"/>
      <psa30 value="0.0035368902" flag="0"/>
    </comp>
    <comp name="--.HHZ">
      <acc value="0.0719529304" flag="0"/>
      <vel value="0.0408555265" flag="0"/>
      <psa03 value="0.1940920258" flag="0"/>
      <psa10 value="0.0269787547" flag="0"/>
      <psa30 value="0.0014088333" flag="0"/>
    </comp>
    <comp name="--.HHN">
      <acc value="0.1483196113" flag="0"/>
      <vel value="0.0806452463" flag="0"/>
      <psa03 value="0.4497703401" flag="0"/>
      <psa10 value="0.0401441556" flag="0"/>
      <psa30 value="0.0025533647" flag="0"/>
    </comp>
  </station>
  <station code="BABD" name="BABD" netid="KO" insttype="CMG-6T" commtype="DIG" lat="37.802" lon="28.8531">
    <comp name="--.HHN">
      <acc value="0.0624273079" flag="0"/>
      <vel value="0.0339228271" flag="0"/>
      <psa03 value="0.1657412477" flag="0"/>
      <psa10 value="0.0380872531" flag="0"/>
      <psa30 value="0.0017216719" flag="0"/>
    </comp>
    <comp name="--.HHZ">
      <acc value="0.0412091884" flag="0"/>
      <vel value="0.0204248026" flag="0"/>
      <psa03 value="0.0825709779" flag="0"/>
      <psa10 value="0.0274940354" flag="0"/>
      <psa30 value="0.0012881537" flag="0"/>
    </comp>
    <comp name="--.HHE">
      <acc value="0.0819994679" flag="0"/>
      <vel value="0.0310524057" flag="0"/>
      <psa03 value="0.1931539419" flag="0"/>
      <psa10 value="0.0193234314" flag="0"/>
      <psa30 value="0.0014339461" flag="0"/>
    </comp>
  </station>
  <station code="CAME" name="CAME" netid="KO" insttype="CMG-5T" commtype="DIG" lat="36.9435" lon="29.3023">
    <comp name="--.HNN">
      <acc value="0.3554953290" flag="0"/>
      <vel value="0.1556153776" flag="0"/>
      <psa03 value="1.4045169074" flag="0"/>
      <psa10 value="0.0344725769" flag="0"/>
      <psa30 value="0.0041217366" flag="0"/>
    </comp>
    <comp name="--.HNZ">
      <acc value="0.1762765704" flag="0"/>
      <vel value="0.0460134603" flag="0"/>
      <psa03 value="0.3504952149" flag="0"/>
      <psa10 value="0.0425867525" flag="0"/>
      <psa30 value="0.0034450133" flag="0"/>
    </comp>
    <comp name="--.HNE">
      <acc value="0.3251752597" flag="0"/>
      <vel value="0.1807104008" flag="0"/>
      <psa03 value="1.0083345261" flag="0"/>
      <psa10 value="0.0755079871" flag="0"/>
      <psa30 value="0.0059637635" flag="0"/>
    </comp>
  </station>
  <station code="DALY" name="DALY" netid="KO" insttype="CMG-3T" commtype="DIG" lat="36.8162" lon="28.6532">
    <comp name="--.HHE">
      <acc value="0.9703814672" flag="0"/>
      <vel value="0.2801287086" flag="0"/>
      <psa03 value="0.9181818683" flag="0"/>
      <psa10 value="0.1267579827" flag="0"/>
      <psa30 value="0.0106160072" flag="0"/>
    </comp>
    <comp name="--.HHN">
      <acc value="0.9229012919" flag="0"/>
      <vel value="0.2816158054" flag="0"/>
      <psa03 value="2.2269816518" flag="0"/>
      <psa10 value="0.0831113390" flag="0"/>
      <psa30 value="0.0077633323" flag="0"/>
    </comp>
    <comp name="--.HHZ">
      <acc value="0.6043926494" flag="0"/>
      <vel value="0.1450161438" flag="0"/>
      <psa03 value="0.6011758093" flag="0"/>
      <psa10 value="0.1001793896" flag="0"/>
      <psa30 value="0.0040795468" flag="0"/>
    </comp>
  </station>
  <station code="DAT" name="DAT" netid="KO" insttype="CMG-3T" commtype="DIG" lat="36.7308" lon="27.5767">
    <comp name="--.HHZ">
      <acc value="0.0000299500" flag="0"/>
      <vel value="0.0000026076" flag="0"/>
      <psa03 value="0.0000120468" flag="0"/>
      <psa10 value="0.0000023274" flag="0"/>
      <psa30 value="0.0000006904" flag="0"/>
    </comp>
    <comp name="--.HHE">
      <acc value="0.0917157625" flag="0"/>
      <vel value="0.0425669853" flag="0"/>
      <psa03 value="0.2616982869" flag="0"/>
      <psa10 value="0.0435800516" flag="0"/>
      <psa30 value="0.0031353785" flag="0"/>
    </comp>
    <comp name="--.HHN">
      <acc value="0.0974888353" flag="0"/>
      <vel value="0.0547672138" flag="0"/>
      <psa03 value="0.3872789478" flag="0"/>
      <psa10 value="0.0472786625" flag="0"/>
      <psa30 value="0.0028384403" flag="0"/>
    </comp>
  </station>
  <station code="DATC" name="DATC" netid="KO" insttype="CMG-5T" commtype="DIG" lat="36.7584" lon="27.6602">
    <comp name="--.HNE">
      <acc value="0.3845447372" flag="0"/>
      <vel value="0.1444365838" flag="0"/>
      <psa03 value="0.7878396835" flag="0"/>
      <psa10 value="0.3228105445" flag="0"/>
      <psa30 value="0.0184627376" flag="0"/>
    </comp>
    <comp name="--.HNN">
      <acc value="0.2650046294" flag="0"/>
      <vel value="0.1449389795" flag="0"/>
      <psa03 value="0.7398625008" flag="0"/>
      <psa10 value="0.2144033169" flag="0"/>
      <psa30 value="0.0085501443" flag="0"/>
    </comp>
    <comp name="--.HNZ">
      <acc value="0.2776175903" flag="0"/>
      <vel value="0.1038476162" flag="0"/>
      <psa03 value="0.4140133234" flag="0"/>
      <psa10 value="0.1142134033" flag="0"/>
      <psa30 value="0.0080404314" flag="0"/>
    </comp>
  </station>
  <station code="ELL" name="ELL" netid="KO" insttype="CMG-3T" commtype="DIG" lat="36.7483" lon="29.9085">
    <comp name="--.HHE">
      <acc value="0.0477988888" flag="0"/>
      <vel value="0.0300593967" flag="0"/>
      <psa03 value="0.1037988814" flag="0"/>
      <psa10 value="0.0559260159" flag="0"/>
      <psa30 value="0.0024679516" flag="0"/>
    </comp>
    <comp name="--.HHN">
      <acc value="0.0377225736" flag="0"/>
      <vel value="0.0243039251" flag="0"/>
      <psa03 value="0.1061677696" flag="0"/>
      <psa10 value="0.0309458596" flag="0"/>
      <psa30 value="0.0017315025" flag="0"/>
    </comp>
    <comp name="--.HHZ">
      <acc value="0.0186885342" flag="0"/>
      <vel value="0.0151272634" flag="0"/>
      <psa03 value="0.0514612024" flag="0"/>
      <psa10 value="0.0280884139" flag="0"/>
      <psa30 value="0.0024886465" flag="0"/>
    </comp>
  </station>
  <station code="FETI" name="FETI" netid="KO" insttype="CMG-5T" commtype="DIG" lat="36.6903" lon="29.096">
    <comp name="--.HNE">
      <acc value="0.3709433581" flag="0"/>
      <vel value="0.0996785684" flag="0"/>
      <psa03 value="0.4090361645" flag="0"/>
      <psa10 value="0.0954454092" flag="0"/>
      <psa30 value="0.0063495578" flag="0"/>
    </comp>
    <comp name="--.HNZ">
      <acc value="0.2638239357" flag="0"/>
      <vel value="0.1090433611" flag="0"/>
      <psa03 value="0.4497036297" flag="0"/>
      <psa10 value="0.1152581975" flag="0"/>
      <psa30 value="0.0069969238" flag="0"/>
    </comp>
    <comp name="--.HNN">
      <acc value="0.2839544870" flag="0"/>
      <vel value="0.0878949931" flag="0"/>
      <psa03 value="0.6760408945" flag="0"/>
      <psa10 value="0.0417578021" flag="0"/>
      <psa30 value="0.0037022760" flag="0"/>
    </comp>
  </station>
  <station code="MLSB" name="MLSB" netid="KO" insttype="CMG-3ESP" commtype="DIG" lat="37.2953" lon="27.7767">
    <comp name="--.HHE">
      <acc value="0.0485967396" flag="0"/>
      <vel value="0.0429955180" flag="0"/>
      <psa03 value="0.0950743516" flag="0"/>
      <psa10 value="0.0409201769" flag="0"/>
      <psa30 value="0.0030843378" flag="0"/>
    </comp>
    <comp name="--.HHN">
      <acc value="0.0305330215" flag="0"/>
      <vel value="0.0237287023" flag="0"/>
      <psa03 value="0.0543325253" flag="0"/>
      <psa10 value="0.0334151958" flag="0"/>
      <psa30 value="0.0030105142" flag="0"/>
    </comp>
  </station>
  <station code="SERH" name="SERH" netid="KO" insttype="CMG-6T" commtype="DIG" lat="37.582" lon="29.2588">
    <comp name="--.HHZ">
      <acc value="0.0439258384" flag="0"/>
      <vel value="0.0253813380" flag="0"/>
      <psa03 value="0.1709021459" flag="0"/>
      <psa10 value="0.0270837896" flag="0"/>
      <psa30 value="0.0014472495" flag="0"/>
    </comp>
    <comp name="--.HHN">
      <acc value="0.1232532903" flag="0"/>
      <vel value="0.0504932239" flag="0"/>
      <psa03 value="0.3012713743" flag="0"/>
      <psa10 value="0.0296587937" flag="0"/>
      <psa30 value="0.0028276482" flag="0"/>
    </comp>
    <comp name="--.HHE">
      <acc value="0.0670450947" flag="0"/>
      <vel value="0.0381378296" flag="0"/>
      <psa03 value="0.1728024773" flag="0"/>
      <psa10 value="0.0407874896" flag="0"/>
      <psa30 value="0.0035160863" flag="0"/>
    </comp>
  </station>
  <station code="YER" name="YER" netid="KO" insttype="CMG-3T" commtype="DIG" lat="37.1336" lon="28.284">
    <comp name="--.HHZ">
      <acc value="0.0722167051" flag="0"/>
      <vel value="0.0407201310" flag="0"/>
      <psa03 value="0.1675769528" flag="0"/>
      <psa10 value="0.0409869954" flag="0"/>
      <psa30 value="0.0044901216" flag="0"/>
    </comp>
    <comp name="--.HHE">
      <acc value="0.1685369483" flag="0"/>
      <vel value="0.0829305455" flag="0"/>
      <psa03 value="0.5492847284" flag="0"/>
      <psa10 value="0.0785622804" flag="0"/>
      <psa30 value="0.0050319424" flag="0"/>
    </comp>
    <comp name="--.HHN">
      <acc value="0.1648856187" flag="0"/>
      <vel value="0.1119318427" flag="0"/>
      <psa03 value="0.4108460568" flag="0"/>
      <psa10 value="0.1109596143" flag="0"/>
      <psa30 value="0.0054749937" flag="0"/>
    </comp>
  </station>
  <station code="YKAV" name="YKAV" netid="KO" insttype="CMG-5T" commtype="DIG" lat="37.1246" lon="27.2801">
    <comp name="--.HNE">
      <acc value="0.0303261710" flag="0"/>
      <vel value="0.0157707038" flag="0"/>
      <psa03 value="0.0670393235" flag="0"/>
      <psa10 value="0.0164137628" flag="0"/>
      <psa30 value="0.0012367677" flag="0"/>
    </comp>
    <comp name="--.HNN">
      <acc value="0.0280998038" flag="0"/>
      <vel value="0.0132078965" flag="0"/>
      <psa03 value="0.0906996282" flag="0"/>
      <psa10 value="0.0149644591" flag="0"/>
      <psa30 value="0.0011502875" flag="0"/>
    </comp>
    <comp name="--.HNZ">
      <acc value="0.0297155760" flag="0"/>
      <vel value="0.0096329859" flag="0"/>
      <psa03 value="0.0399613601" flag="0"/>
      <psa10 value="0.0161766877" flag="0"/>
      <psa30 value="0.0007523776" flag="0"/>
    </comp>
  </station>
  <station code="AYDN" name="AYDN" netid="TU" insttype="T" commtype="DIG" lat="37.6608" lon="27.8792">
    <comp name="--.HHN">
      <acc value="0.1450217507" flag="0"/>
      <vel value="0.0765415067" flag="0"/>
      <psa03 value="0.2874731616" flag="0"/>
      <psa10 value="0.0482182484" flag="0"/>
      <psa30 value="0.0070636262" flag="0"/>
    </comp>
    <comp name="--.HHZ">
      <acc value="0.0848048307" flag="0"/>
      <vel value="0.0263578335" flag="0"/>
      <psa03 value="0.1859362491" flag="0"/>
      <psa10 value="0.0351629511" flag="0"/>
      <psa30 value="0.0020687305" flag="0"/>
    </comp>
    <comp name="--.HHE">
      <acc value="0.1709382872" flag="0"/>
      <vel value="0.0734819163" flag="0"/>
      <psa03 value="0.4707363089" flag="0"/>
      <psa10 value="0.0425265681" flag="0"/>
      <psa30 value="0.0030142038" flag="0"/>
    </comp>
  </station>
</stationlist>
