<stationlist created="1778136850">
	<station code="ROD3" name="ROD3" netid="CL" source="Corinth Riff Laboratory (CRLNET)" insttype="" lat="38.30811" lon="21.89204">
		<comp name="00.HNE" depth="0.0">
			<acc value="0.00989110242299963" flag="0"/>
			<vel value="0.00427768915387303" flag="0"/>
			<psa03 value="0.0332512157507033" flag="0"/>
			<psa10 value="0.00423908394350623" flag="0"/>
			<psa30 value="0.000275889057546141" flag="0"/>
		</comp>
		<comp name="00.HNN" depth="0.0">
			<acc value="0.0130971287809069" flag="0"/>
			<vel value="0.00429571173842107" flag="0"/>
			<psa03 value="0.0321663886778942" flag="0"/>
			<psa10 value="0.00212976608655036" flag="0"/>
			<psa30 value="0.000288281779544814" flag="0"/>
		</comp>
		<comp name="00.HNZ" depth="0.0">
			<acc value="0.00581344650446916" flag="0"/>
			<vel value="0.00162810640232859" flag="0"/>
			<psa03 value="0.00770064229122933" flag="0"/>
			<psa10 value="0.00220908032510359" flag="0"/>
			<psa30 value="0.000158985714314792" flag="0"/>
		</comp>
	</station>
	<station code="AIGS" name="AIGS" netid="HA" source="Hellenic Seismological Network, University of Athens, Seismological Laboratory (HA)" insttype="" lat="38.25001" lon="22.0878">
		<comp name="--.HNE" depth="0.0">
			<acc value="0.00834718976924035" flag="0"/>
			<vel value="0.00249842505884969" flag="0"/>
			<psa03 value="0.0101495499620189" flag="0"/>
			<psa10 value="0.00380286278037189" flag="0"/>
			<psa30 value="0.00064928165755857" flag="0"/>
		</comp>
		<comp name="--.HNN" depth="0.0">
			<acc value="0.00464549810392428" flag="0"/>
			<vel value="0.00218916948504951" flag="0"/>
			<psa03 value="0.0121270012709791" flag="0"/>
			<psa10 value="0.00341865170327392" flag="0"/>
			<psa30 value="0.000540311209631037" flag="0"/>
		</comp>
		<comp name="--.HNZ" depth="0.0">
			<acc value="0.00387323789151209" flag="0"/>
			<vel value="0.00174871140595348" flag="0"/>
			<psa03 value="0.00458642394527214" flag="0"/>
			<psa10 value="0.00395920665300921" flag="0"/>
			<psa30 value="0.000563940639551089" flag="0"/>
		</comp>
	</station>
	<station code="KIAS" name="KIAS" netid="HA" source="Hellenic Seismological Network, University of Athens, Seismological Laboratory (HA)" insttype="" lat="37.9875" lon="22.7543">
		<comp name="--.HNE" depth="0.0">
			<acc value="0.00255755450525599" flag="0"/>
			<vel value="0.00103921729880205" flag="0"/>
			<psa03 value="0.00417767616460342" flag="0"/>
			<psa10 value="0.00177999436120491" flag="0"/>
			<psa30 value="0.000544019319860183" flag="0"/>
		</comp>
		<comp name="--.HNN" depth="0.0">
			<acc value="0.00237337991980243" flag="0"/>
			<vel value="0.00149271618083498" flag="0"/>
			<psa03 value="0.00373579858509399" flag="0"/>
			<psa10 value="0.00298741555786728" flag="0"/>
			<psa30 value="0.000755653547923555" flag="0"/>
		</comp>
		<comp name="--.HNZ" depth="0.0">
			<acc value="0.00256332363669935" flag="0"/>
			<vel value="0.0010661330725596" flag="0"/>
			<psa03 value="0.00357717967892896" flag="0"/>
			<psa10 value="0.00314539383565676" flag="0"/>
			<psa30 value="0.000591212602435055" flag="0"/>
		</comp>
	</station>
	<station code="LTRS" name="LTRS" netid="HA" source="Hellenic Seismological Network, University of Athens, Seismological Laboratory (HA)" insttype="" lat="37.97528" lon="22.9765">
		<comp name="--.HNE" depth="0.0">
			<acc value="0.00235172574906831" flag="0"/>
			<vel value="0.00150393903067821" flag="0"/>
			<psa03 value="0.0042000399507855" flag="0"/>
			<psa10 value="0.00239515780807498" flag="0"/>
			<psa30 value="0.000551076870723297" flag="0"/>
		</comp>
		<comp name="--.HNN" depth="0.0">
			<acc value="0.00291115428726486" flag="0"/>
			<vel value="0.00124593755388244" flag="0"/>
			<psa03 value="0.00429600496685114" flag="0"/>
			<psa10 value="0.00194371508970982" flag="0"/>
			<psa30 value="0.000686827113508123" flag="0"/>
		</comp>
		<comp name="--.HNZ" depth="0.0">
			<acc value="0.00987929366793678" flag="0"/>
			<vel value="0.00142716007357964" flag="0"/>
			<psa03 value="0.00264264332386747" flag="0"/>
			<psa10 value="0.00184941767109538" flag="0"/>
			<psa30 value="0.000542921903409748" flag="0"/>
		</comp>
	</station>
	<station code="XLKS" name="XLKS" netid="HA" source="Hellenic Seismological Network, University of Athens, Seismological Laboratory (HA)" insttype="" lat="38.0772" lon="22.6361">
		<comp name="--.HNE" depth="0.0">
			<acc value="0.00341670697006761" flag="0"/>
			<vel value="0.00251336246215123" flag="0"/>
			<psa03 value="0.00670892815754499" flag="0"/>
			<psa10 value="0.00642337723595452" flag="0"/>
			<psa30 value="0.000504716924601126" flag="0"/>
		</comp>
		<comp name="--.HNN" depth="0.0">
			<acc value="0.00367484056051741" flag="0"/>
			<vel value="0.00237718300475444" flag="0"/>
			<psa03 value="0.00744849668154733" flag="0"/>
			<psa10 value="0.00291217010447692" flag="0"/>
			<psa30 value="0.000677419354874699" flag="0"/>
		</comp>
		<comp name="--.HNZ" depth="0.0">
			<acc value="0.00601609261762066" flag="0"/>
			<vel value="0.0016551799942169" flag="0"/>
			<psa03 value="0.00628469041845974" flag="0"/>
			<psa10 value="0.00235138631467814" flag="0"/>
			<psa30 value="0.000571363839632542" flag="0"/>
		</comp>
	</station>
	<station code="ARG2" name="ARG2" netid="HI" source="ITSAK Strong Motion Network" insttype="" lat="38.1783" lon="20.4878">
		<comp name="--.HNE" depth="0.0">
			<acc value="0.0341051639941482" flag="0"/>
			<vel value="0.0122569076037288" flag="0"/>
			<psa03 value="0.0808616639801192" flag="0"/>
			<psa10 value="0.00526683202677997" flag="0"/>
			<psa30 value="0.000437001032506951" flag="0"/>
		</comp>
		<comp name="--.HNN" depth="0.0">
			<acc value="0.0370251553894577" flag="0"/>
			<vel value="0.00979709237815853" flag="0"/>
			<psa03 value="0.0571114083503267" flag="0"/>
			<psa10 value="0.00506387889463548" flag="0"/>
			<psa30 value="0.000327801480864359" flag="0"/>
		</comp>
		<comp name="--.HNZ" depth="0.0">
			<acc value="0.0233003000359018" flag="0"/>
			<vel value="0.00591683337834828" flag="0"/>
			<psa03 value="0.0516164974647744" flag="0"/>
			<psa10 value="0.00318185796997546" flag="0"/>
			<psa30 value="0.000199809043660104" flag="0"/>
		</comp>
	</station>
	<station code="ART2" name="ART2" netid="HI" source="ITSAK Strong Motion Network" insttype="" lat="39.1474" lon="20.9937">
		<comp name="--.HNE" depth="0.0">
			<acc value="0.0074566034397507" flag="0"/>
			<vel value="0.00216979270617885" flag="0"/>
			<psa03 value="0.0104382683069558" flag="0"/>
			<psa10 value="0.00280640677005008" flag="0"/>
			<psa30 value="0.000189745798894503" flag="0"/>
		</comp>
		<comp name="--.HNN" depth="0.0">
			<acc value="0.0102704776268638" flag="0"/>
			<vel value="0.00200280321913545" flag="0"/>
			<psa03 value="0.0106739024061285" flag="0"/>
			<psa10 value="0.00189695523428543" flag="0"/>
			<psa30 value="0.000168674142583914" flag="0"/>
		</comp>
		<comp name="--.HNZ" depth="0.0">
			<acc value="0.00629885854586392" flag="0"/>
			<vel value="0.00169664761385578" flag="0"/>
			<psa03 value="0.0119349664141932" flag="0"/>
			<psa10 value="0.001496577773746" flag="0"/>
			<psa30 value="0.000147896451059747" flag="0"/>
		</comp>
	</station>
	<station code="KLV1" name="KLV1" netid="HI" source="ITSAK Strong Motion Network" insttype="" lat="38.03256" lon="22.10797">
		<comp name="--.HNE" depth="0.0">
			<acc value="0.00226093057360006" flag="0"/>
			<vel value="0.00132725141354267" flag="0"/>
			<psa03 value="0.00732305412681564" flag="0"/>
			<psa10 value="0.00155711967497224" flag="0"/>
			<psa30 value="0.000138645981490851" flag="0"/>
		</comp>
		<comp name="--.HNN" depth="0.0">
			<acc value="0.00245507731425202" flag="0"/>
			<vel value="0.00150543342059902" flag="0"/>
			<psa03 value="0.00746716198054221" flag="0"/>
			<psa10 value="0.00137733639802627" flag="0"/>
			<psa30 value="9.43096394779364e-05" flag="0"/>
		</comp>
		<comp name="--.HNZ" depth="0.0">
			<acc value="0.0017138641749443" flag="0"/>
			<vel value="0.000855085479251186" flag="0"/>
			<psa03 value="0.00401933266731496" flag="0"/>
			<psa10 value="0.00137990156795604" flag="0"/>
			<psa30 value="0.000105904229177299" flag="0"/>
		</comp>
	</station>
	<station code="KRK1" name="KRK1" netid="HI" source="ITSAK Strong Motion Network" insttype="" lat="39.618861" lon="19.9202">
		<comp name="--.HNE" depth="0.0">
			<acc value="0.0156692077382103" flag="0"/>
			<vel value="0.00543052114636276" flag="0"/>
			<psa03 value="0.0322194859453408" flag="0"/>
			<psa10 value="0.00242915029428546" flag="0"/>
			<psa30 value="0.000219259785301202" flag="0"/>
		</comp>
		<comp name="--.HNN" depth="0.0">
			<acc value="0.0165707056770948" flag="0"/>
			<vel value="0.0057341915628356" flag="0"/>
			<psa03 value="0.0247369147408752" flag="0"/>
			<psa10 value="0.00383504811561606" flag="0"/>
			<psa30 value="0.000215263465877458" flag="0"/>
		</comp>
		<comp name="--.HNZ" depth="0.0">
			<acc value="0.00837971614877017" flag="0"/>
			<vel value="0.00232255329888041" flag="0"/>
			<psa03 value="0.0165019564548633" flag="0"/>
			<psa10 value="0.00107222450617235" flag="0"/>
			<psa30 value="0.0001255449313187" flag="0"/>
		</comp>
	</station>
	<station code="MSL1" name="MSL1" netid="HI" source="ITSAK Strong Motion Network" insttype="" lat="38.3727" lon="21.4243">
		<comp name="--.HNE" depth="0.0">
			<acc value="0.026754231338222" flag="0"/>
			<vel value="0.0163423395280925" flag="0"/>
			<psa03 value="0.0867301881578629" flag="0"/>
			<psa10 value="0.0357875670006693" flag="0"/>
			<psa30 value="0.00155101243446154" flag="0"/>
		</comp>
		<comp name="--.HNN" depth="0.0">
			<acc value="0.0347555262935177" flag="0"/>
			<vel value="0.0148041144755106" flag="0"/>
			<psa03 value="0.102693490439764" flag="0"/>
			<psa10 value="0.0128823968330842" flag="0"/>
			<psa30 value="0.000879528160256404" flag="0"/>
		</comp>
		<comp name="--.HNZ" depth="0.0">
			<acc value="0.0158601662998273" flag="0"/>
			<vel value="0.00756282048352123" flag="0"/>
			<psa03 value="0.0466055353045984" flag="0"/>
			<psa10 value="0.0104873653614783" flag="0"/>
			<psa30 value="0.000711014757488652" flag="0"/>
		</comp>
	</station>
	<station code="VAS2" name="VAS2" netid="HI" source="ITSAK Strong Motion Network" insttype="" lat="38.630558" lon="20.608081">
		<comp name="--.HNE" depth="0.0">
			<acc value="1.05868540468553" flag="0"/>
			<vel value="0.409513383347114" flag="0"/>
			<psa03 value="2.7473438313776" flag="0"/>
			<psa10 value="0.319370496728095" flag="0"/>
			<psa30 value="0.0185462452644002" flag="0"/>
		</comp>
		<comp name="--.HNN" depth="0.0">
			<acc value="3.54964850297408" flag="0"/>
			<vel value="1.00547367273491" flag="0"/>
			<psa03 value="5.63131438028967" flag="0"/>
			<psa10 value="0.596523996787978" flag="0"/>
			<psa30 value="0.0294756692851115" flag="0"/>
		</comp>
		<comp name="--.HNZ" depth="0.0">
			<acc value="0.802457495202116" flag="0"/>
			<vel value="0.224091607738235" flag="0"/>
			<psa03 value="1.12168472277582" flag="0"/>
			<psa10 value="0.174041034364477" flag="0"/>
			<psa30 value="0.00945124859883287" flag="0"/>
		</comp>
	</station>
	<station code="DLFA" name="DLFA" netid="HL" source="National Observatory of Athens Seismic Network" insttype="" lat="38.47836" lon="22.49583">
		<comp name="00.HNE" depth="0.0">
			<acc value="0.00114611783443761" flag="0"/>
			<vel value="0.000681116271493551" flag="0"/>
			<psa03 value="0.00230070986516486" flag="0"/>
			<psa10 value="0.000761544491554379" flag="0"/>
			<psa30 value="0.000133668412167865" flag="0"/>
		</comp>
		<comp name="00.HNN" depth="0.0">
			<acc value="0.000992490952506644" flag="0"/>
			<vel value="0.000819140465670515" flag="0"/>
			<psa03 value="0.00175300105610184" flag="0"/>
			<psa10 value="0.00117650825039818" flag="0"/>
			<psa30 value="0.000160344905917404" flag="0"/>
		</comp>
		<comp name="00.HNZ" depth="0.0">
			<acc value="0.00133712408528787" flag="0"/>
			<vel value="0.000554049338255644" flag="0"/>
			<psa03 value="0.00150918428594825" flag="0"/>
			<psa10 value="0.000621856526975352" flag="0"/>
			<psa30 value="0.000187411230178182" flag="0"/>
		</comp>
	</station>
	<station code="ITM" name="ITM" netid="HL" source="National Observatory of Athens Seismic Network" insttype="" lat="37.17872" lon="21.92522">
		<comp name="--.HNE" depth="0.0">
			<acc value="0.0010243106815188" flag="0"/>
			<vel value="0.000624191887795574" flag="0"/>
			<psa03 value="0.00221244848442805" flag="0"/>
			<psa10 value="0.000718244650497264" flag="0"/>
			<psa30 value="0.000194768475372416" flag="0"/>
		</comp>
		<comp name="--.HNN" depth="0.0">
			<acc value="0.000792410702734562" flag="0"/>
			<vel value="0.000521285982090418" flag="0"/>
			<psa03 value="0.0023390931044816" flag="0"/>
			<psa10 value="0.000607086466498258" flag="0"/>
			<psa30 value="0.000177145706387728" flag="0"/>
		</comp>
		<comp name="--.HNZ" depth="0.0">
			<acc value="0.000630892370465083" flag="0"/>
			<vel value="0.000418112050886086" flag="0"/>
			<psa03 value="0.00143481217166094" flag="0"/>
			<psa10 value="0.000505955685048225" flag="0"/>
			<psa30 value="0.000119090089654874" flag="0"/>
		</comp>
	</station>
	<station code="JAN" name="JAN" netid="HL" source="National Observatory of Athens Seismic Network" insttype="" lat="39.65616" lon="20.84874">
		<comp name="00.HNE" depth="0.0">
			<acc value="0.00599542934855884" flag="0"/>
			<vel value="0.00339086522436789" flag="0"/>
			<psa03 value="0.0150981368962003" flag="0"/>
			<psa10 value="0.00370949706409861" flag="0"/>
			<psa30 value="0.000219003856889224" flag="0"/>
		</comp>
		<comp name="00.HNN" depth="0.0">
			<acc value="0.00494084542113747" flag="0"/>
			<vel value="0.0021249721556318" flag="0"/>
			<psa03 value="0.013955432291386" flag="0"/>
			<psa10 value="0.00183502796784736" flag="0"/>
			<psa30 value="0.000150165572732134" flag="0"/>
		</comp>
		<comp name="00.HNZ" depth="0.0">
			<acc value="0.00279842995767935" flag="0"/>
			<vel value="0.00176821798759632" flag="0"/>
			<psa03 value="0.00638242736177612" flag="0"/>
			<psa10 value="0.001705349885124" flag="0"/>
			<psa30 value="0.000147319225321592" flag="0"/>
		</comp>
	</station>
	<station code="PATC" name="PATC" netid="HL" source="National Observatory of Athens Seismic Network" insttype="" lat="38.26933" lon="21.76001">
		<comp name="00.HNE" depth="0.0">
			<acc value="0.00872662178001686" flag="0"/>
			<vel value="0.00466870748256061" flag="0"/>
			<psa03 value="0.0237960711645877" flag="0"/>
			<psa10 value="0.00675372536989651" flag="0"/>
			<psa30 value="0.000552066415440624" flag="0"/>
		</comp>
		<comp name="00.HNN" depth="0.0">
			<acc value="0.00739729263796059" flag="0"/>
			<vel value="0.00410683101146916" flag="0"/>
			<psa03 value="0.0226157403693085" flag="0"/>
			<psa10 value="0.00500908213961534" flag="0"/>
			<psa30 value="0.000749568248968602" flag="0"/>
		</comp>
		<comp name="00.HNZ" depth="0.0">
			<acc value="0.00771596159609497" flag="0"/>
			<vel value="0.00281898092999409" flag="0"/>
			<psa03 value="0.00924463584926186" flag="0"/>
			<psa10 value="0.00416603051031492" flag="0"/>
			<psa30 value="0.000313157073244194" flag="0"/>
		</comp>
	</station>
	<station code="PATG" name="PATG" netid="HL" source="National Observatory of Athens Seismic Network" insttype="" lat="38.23865" lon="21.72657">
		<comp name="00.HNE" depth="0.0">
			<acc value="0.00662639011343928" flag="0"/>
			<vel value="0.0040864902349499" flag="0"/>
			<psa03 value="0.014298227135283" flag="0"/>
			<psa10 value="0.00704820050245835" flag="0"/>
			<psa30 value="0.000912232722606207" flag="0"/>
		</comp>
		<comp name="00.HNN" depth="0.0">
			<acc value="0.00734750588449166" flag="0"/>
			<vel value="0.00511055684429851" flag="0"/>
			<psa03 value="0.0198049955775253" flag="0"/>
			<psa10 value="0.00793484314442509" flag="0"/>
			<psa30 value="0.000748002884852843" flag="0"/>
		</comp>
		<comp name="00.HNZ" depth="0.0">
			<acc value="0.00918237438984544" flag="0"/>
			<vel value="0.00270805741752391" flag="0"/>
			<psa03 value="0.0104791746626359" flag="0"/>
			<psa10 value="0.00340892004297204" flag="0"/>
			<psa30 value="0.000827667433071173" flag="0"/>
		</comp>
	</station>
	<station code="RIOA" name="RIOA" netid="HL" source="National Observatory of Athens Seismic Network" insttype="" lat="38.29585" lon="21.79118">
		<comp name="00.HNE" depth="0.0">
			<acc value="0.0083817785593397" flag="0"/>
			<vel value="0.00250891667145231" flag="0"/>
			<psa03 value="0.0172544008318923" flag="0"/>
			<psa10 value="0.00344422910077252" flag="0"/>
			<psa30 value="0.000367748371941479" flag="0"/>
		</comp>
		<comp name="00.HNN" depth="0.0">
			<acc value="0.00906919146145898" flag="0"/>
			<vel value="0.00287761002540646" flag="0"/>
			<psa03 value="0.0154713360980166" flag="0"/>
			<psa10 value="0.00572114556030294" flag="0"/>
			<psa30 value="0.000575840177835627" flag="0"/>
		</comp>
		<comp name="00.HNZ" depth="0.0">
			<acc value="0.00541406877016802" flag="0"/>
			<vel value="0.00158415238153167" flag="0"/>
			<psa03 value="0.00758234734539146" flag="0"/>
			<psa10 value="0.00155044059970604" flag="0"/>
			<psa30 value="0.000255290453406345" flag="0"/>
		</comp>
	</station>
	<station code="ANX" name="ANX" netid="HP" source="University of Patras, Seismological Laboratory (PSLNET)" insttype="" lat="38.5933" lon="21.9209">
		<comp name="--.HNE" depth="0.0">
			<acc value="0.00775991361595719" flag="0"/>
			<vel value="0.00325581780671115" flag="0"/>
			<psa03 value="0.0198072991155366" flag="0"/>
			<psa10 value="0.00538825475794415" flag="0"/>
			<psa30 value="0.000177156162809646" flag="0"/>
		</comp>
		<comp name="--.HNN" depth="0.0">
			<acc value="0.00616162216586391" flag="0"/>
			<vel value="0.00357711714079634" flag="0"/>
			<psa03 value="0.0138450721159844" flag="0"/>
			<psa10 value="0.00421742579002486" flag="0"/>
			<psa30 value="0.000165048095084684" flag="0"/>
		</comp>
		<comp name="--.HNZ" depth="0.0">
			<acc value="0.00432374074989185" flag="0"/>
			<vel value="0.00225451667663651" flag="0"/>
			<psa03 value="0.011427633326696" flag="0"/>
			<psa10 value="0.0027812294771767" flag="0"/>
			<psa30 value="0.000125479236862891" flag="0"/>
		</comp>
	</station>
	<station code="FSK" name="FSK" netid="HP" source="University of Patras, Seismological Laboratory (PSLNET)" insttype="" lat="38.4593" lon="20.5623">
		<comp name="--.HNE" depth="0.0">
			<acc value="0.0722157165408962" flag="0"/>
			<vel value="0.021687423708681" flag="0"/>
			<psa03 value="0.109577436050883" flag="0"/>
			<psa10 value="0.0133209921378552" flag="0"/>
			<psa30 value="0.00168144701261133" flag="0"/>
		</comp>
		<comp name="--.HNN" depth="0.0">
			<acc value="0.0292427843205179" flag="0"/>
			<vel value="0.0102487251635667" flag="0"/>
			<psa03 value="0.0706535346167106" flag="0"/>
			<psa10 value="0.00921494356978455" flag="0"/>
			<psa30 value="0.000776535920861501" flag="0"/>
		</comp>
		<comp name="--.HNZ" depth="0.0">
			<acc value="0.0320325354222697" flag="0"/>
			<vel value="0.0106809316467977" flag="0"/>
			<psa03 value="0.0564829708865011" flag="0"/>
			<psa10 value="0.00756853903482396" flag="0"/>
			<psa30 value="0.000513051695492023" flag="0"/>
		</comp>
	</station>
	<station code="PDO" name="PDO" netid="HP" source="University of Patras, Seismological Laboratory (PSLNET)" insttype="" lat="38.5986" lon="21.1833">
		<comp name="--.HNE" depth="0.0">
			<acc value="0.0271477126976396" flag="0"/>
			<vel value="0.00819979598378291" flag="0"/>
			<psa03 value="0.0439050855797605" flag="0"/>
			<psa10 value="0.00684692091864229" flag="0"/>
			<psa30 value="0.000584311364009848" flag="0"/>
		</comp>
		<comp name="--.HNN" depth="0.0">
			<acc value="0.0346502546835209" flag="0"/>
			<vel value="0.0138963482363204" flag="0"/>
			<psa03 value="0.0808479964077957" flag="0"/>
			<psa10 value="0.00604307016750947" flag="0"/>
			<psa30 value="0.000434011485505764" flag="0"/>
		</comp>
