<?xml version="1.0" encoding="UTF-8" standalone="yes"?>
<!DOCTYPE earthquake SYSTEM "stationlist.dtd">
<stationlist created="" xmlns="ch.ethz.sed.shakemap.usgs.xml">
  <station code="MSL1" name="MSL1" netid="HI" insttype="CMG-5TD,ACCELEROMETER,GURALP" lat="38.3727" lon="21.4243">
    <comp name="--.HNE">
      <acc value="0.0268065076" flag="0"/>
      <vel value="0.0163265198" flag="0"/>
      <psa03 value="0.0856455229" flag="0"/>
      <psa10 value="0.0359190119" flag="0"/>
      <psa30 value="0.0018574190" flag="0"/>
    </comp>
    <comp name="--.HNN">
      <acc value="0.0346395525" flag="0"/>
      <vel value="0.0146046379" flag="0"/>
      <psa03 value="0.1038156045" flag="0"/>
      <psa10 value="0.0128592104" flag="0"/>
      <psa30 value="0.0010301173" flag="0"/>
    </comp>
    <comp name="--.HNZ">
      <acc value="0.0159768988" flag="0"/>
      <vel value="0.0076312911" flag="0"/>
      <psa03 value="0.0468453913" flag="0"/>
      <psa10 value="0.0105259580" flag="0"/>
      <psa30 value="0.0009153224" flag="0"/>
    </comp>
  </station>
  <station code="JAN" name="JAN" netid="HL" insttype="CMG3EPSC60_DR24" lat="39.6562" lon="20.8487">
    <comp name="--.HHE">
      <acc value="0.0057748633" flag="0"/>
      <vel value="0.0033598942" flag="0"/>
      <psa03 value="0.0145166411" flag="0"/>
      <psa10 value="0.0036999210" flag="0"/>
      <psa30 value="0.0002174134" flag="0"/>
    </comp>
    <comp name="--.HHZ">
      <acc value="0.0031028824" flag="0"/>
      <vel value="0.0017562636" flag="0"/>
      <psa03 value="0.0061380357" flag="0"/>
      <psa10 value="0.0017120115" flag="0"/>
      <psa30 value="0.0001344714" flag="0"/>
    </comp>
    <comp name="--.HHN">
      <acc value="0.0050481422" flag="0"/>
      <vel value="0.0021545535" flag="0"/>
      <psa03 value="0.0138977774" flag="0"/>
      <psa10 value="0.0018297240" flag="0"/>
      <psa30 value="0.0001283865" flag="0"/>
    </comp>
  </station>
  <station code="RLS" name="RLS" netid="HL" insttype="CMG3ESPC-120s" lat="38.0559" lon="21.4647">
    <comp name="--.HHN">
      <acc value="0.0031211000" flag="0"/>
      <vel value="0.0015945317" flag="0"/>
      <psa03 value="0.0075626610" flag="0"/>
      <psa10 value="0.0016718105" flag="0"/>
      <psa30 value="0.0001926792" flag="0"/>
    </comp>
    <comp name="--.HHZ">
      <acc value="0.0023655895" flag="0"/>
      <vel value="0.0008059642" flag="0"/>
      <psa03 value="0.0048840390" flag="0"/>
      <psa10 value="0.0009160691" flag="0"/>
      <psa30 value="0.0000882528" flag="0"/>
    </comp>
    <comp name="--.HHE">
      <acc value="0.0026853414" flag="0"/>
      <vel value="0.0015728104" flag="0"/>
      <psa03 value="0.0064310083" flag="0"/>
      <psa10 value="0.0022483724" flag="0"/>
      <psa30 value="0.0002185375" flag="0"/>
    </comp>
  </station>
  <station code="TETR" name="TETR" netid="HL" insttype="60" lat="39.3445" lon="21.2747">
    <comp name="--.HHE">
      <acc value="0.0130106385" flag="0"/>
      <vel value="0.0063816038" flag="0"/>
      <psa03 value="0.0294322123" flag="0"/>
      <psa10 value="0.0052995490" flag="0"/>
      <psa30 value="0.0003238310" flag="0"/>
    </comp>
    <comp name="--.HHN">
      <acc value="0.0115195631" flag="0"/>
      <vel value="0.0044352452" flag="0"/>
      <psa03 value="0.0220250402" flag="0"/>
      <psa10 value="0.0047021157" flag="0"/>
      <psa30 value="0.0003042318" flag="0"/>
    </comp>
    <comp name="--.HHZ">
      <acc value="0.0048972740" flag="0"/>
      <vel value="0.0022540686" flag="0"/>
      <psa03 value="0.0204399994" flag="0"/>
      <psa10 value="0.0043124960" flag="0"/>
      <psa30 value="0.0001482679" flag="0"/>
    </comp>
  </station>
  <station code="VLS" name="VLS" netid="HL" insttype="120P," lat="38.1768" lon="20.5886">
    <comp name="--.HHE">
      <acc value="0.0343457361" flag="0"/>
      <vel value="0.0057108206" flag="0"/>
      <psa03 value="0.0402255481" flag="0"/>
      <psa10 value="0.0026023272" flag="0"/>
      <psa30 value="0.0002167718" flag="0"/>
    </comp>
    <comp name="--.HHZ">
      <acc value="0.0207938503" flag="0"/>
      <vel value="0.0055619467" flag="0"/>
      <psa03 value="0.0256220288" flag="0"/>
      <psa10 value="0.0025901772" flag="0"/>
      <psa30 value="0.0002803780" flag="0"/>
    </comp>
    <comp name="--.HHN">
      <acc value="0.0277349696" flag="0"/>
      <vel value="0.0069226627" flag="0"/>
      <psa03 value="0.0486264453" flag="0"/>
      <psa10 value="0.0040539989" flag="0"/>
      <psa30 value="0.0002861280" flag="0"/>
    </comp>
  </station>
  <station code="AMPL" name="AMPL" netid="HP" insttype="Compact," lat="38.9224" lon="21.2135">
    <comp name="--.HHE">
      <acc value="0.0657533894" flag="0"/>
      <vel value="0.0134117558" flag="0"/>
      <psa03 value="0.0588121346" flag="0"/>
      <psa10 value="0.0042415625" flag="0"/>
      <psa30 value="0.0004663549" flag="0"/>
    </comp>
    <comp name="--.HHN">
      <acc value="0.0927478933" flag="0"/>
      <vel value="0.0181627744" flag="0"/>
      <psa03 value="0.0720785998" flag="0"/>
      <psa10 value="0.0085311261" flag="0"/>
      <psa30 value="0.0005597243" flag="0"/>
    </comp>
    <comp name="--.HHZ">
      <acc value="0.0258195292" flag="0"/>
      <vel value="0.0064516139" flag="0"/>
      <psa03 value="0.0300665939" flag="0"/>
      <psa10 value="0.0042491842" flag="0"/>
      <psa30 value="0.0002731090" flag="0"/>
    </comp>
  </station>
  <station code="ANX" name="ANX" netid="HP" insttype="120" lat="38.5933" lon="21.9209">
    <comp name="--.HHE">
      <acc value="0.0062091335" flag="0"/>
      <vel value="0.0026352690" flag="0"/>
      <psa03 value="0.0159907866" flag="0"/>
      <psa10 value="0.0041713315" flag="0"/>
      <psa30 value="0.0001509833" flag="0"/>
    </comp>
    <comp name="--.HHN">
      <acc value="0.0048691596" flag="0"/>
      <vel value="0.0027542877" flag="0"/>
      <psa03 value="0.0107640616" flag="0"/>
      <psa10 value="0.0035085736" flag="0"/>
      <psa30 value="0.0001321578" flag="0"/>
    </comp>
    <comp name="--.HHZ">
      <acc value="0.0035590776" flag="0"/>
      <vel value="0.0018312019" flag="0"/>
      <psa03 value="0.0095996528" flag="0"/>
      <psa10 value="0.0022575572" flag="0"/>
      <psa30 value="0.0000985282" flag="0"/>
    </comp>
  </station>
  <station code="AXS" name="AXS" netid="HP" insttype="40," lat="38.1962" lon="21.3763">
    <comp name="--.HHN">
      <acc value="0.0036500630" flag="0"/>
      <vel value="0.0022657423" flag="0"/>
      <psa03 value="0.0094408194" flag="0"/>
      <psa10 value="0.0022544377" flag="0"/>
      <psa30 value="0.0001643732" flag="0"/>
    </comp>
    <comp name="--.HHE">
      <acc value="0.0035147813" flag="0"/>
      <vel value="0.0016721154" flag="0"/>
      <psa03 value="0.0086217345" flag="0"/>
      <psa10 value="0.0009028240" flag="0"/>
      <psa30 value="0.0001133566" flag="0"/>
    </comp>
    <comp name="--.HHZ">
      <acc value="0.0023636117" flag="0"/>
      <vel value="0.0010567882" flag="0"/>
      <psa03 value="0.0042970623" flag="0"/>
      <psa10 value="0.0010468105" flag="0"/>
      <psa30 value="0.0001390687" flag="0"/>
    </comp>
  </station>
  <station code="EFP" name="EFP" netid="HP" insttype="40," lat="38.4269" lon="21.9058">
    <comp name="--.HHE">
      <acc value="0.0078413310" flag="0"/>
      <vel value="0.0024276255" flag="0"/>
      <psa03 value="0.0120227628" flag="0"/>
      <psa10 value="0.0015999168" flag="0"/>
      <psa30 value="0.0001761513" flag="0"/>
    </comp>
    <comp name="--.HHN">
      <acc value="0.0084695110" flag="0"/>
      <vel value="0.0027177217" flag="0"/>
      <psa03 value="0.0121315340" flag="0"/>
      <psa10 value="0.0016711759" flag="0"/>
      <psa30 value="0.0001154028" flag="0"/>
    </comp>
    <comp name="--.HHZ">
      <acc value="0.0038046668" flag="0"/>
      <vel value="0.0017038601" flag="0"/>
      <psa03 value="0.0090773178" flag="0"/>
      <psa10 value="0.0014992245" flag="0"/>
      <psa30 value="0.0001573624" flag="0"/>
    </comp>
  </station>
  <station code="FSK" name="FSK" netid="HP" insttype="40," lat="38.4593" lon="20.5623">
    <comp name="--.HHZ">
      <acc value="0.0314361176" flag="0"/>
      <vel value="0.0108190672" flag="0"/>
      <psa03 value="0.0563202849" flag="0"/>
      <psa10 value="0.0076853185" flag="0"/>
      <psa30 value="0.0005044792" flag="0"/>
    </comp>
    <comp name="--.HHE">
      <acc value="0.0692532106" flag="0"/>
      <vel value="0.0191270754" flag="0"/>
      <psa03 value="0.1048362153" flag="0"/>
      <psa10 value="0.0124596103" flag="0"/>
      <psa30 value="0.0014161434" flag="0"/>
    </comp>
    <comp name="--.HHN">
      <acc value="0.0337225653" flag="0"/>
      <vel value="0.0138116456" flag="0"/>
      <psa03 value="0.0877033108" flag="0"/>
      <psa10 value="0.0109907835" flag="0"/>
      <psa30 value="0.0006576283" flag="0"/>
    </comp>
  </station>
  <station code="LTHK" name="LTHK" netid="HP" insttype="40," lat="37.7095" lon="20.8367">
    <comp name="--.HHE">
      <acc value="0.0052046203" flag="0"/>
      <vel value="0.0020680730" flag="0"/>
      <psa03 value="0.0120236310" flag="0"/>
      <psa10 value="0.0012144355" flag="0"/>
      <psa30 value="0.0001129026" flag="0"/>
    </comp>
    <comp name="--.HHZ">
      <acc value="0.0033527441" flag="0"/>
      <vel value="0.0013288316" flag="0"/>
      <psa03 value="0.0071597598" flag="0"/>
      <psa10 value="0.0011466804" flag="0"/>
      <psa30 value="0.0000681111" flag="0"/>
    </comp>
    <comp name="--.HHN">
      <acc value="0.0055703636" flag="0"/>
      <vel value="0.0021362873" flag="0"/>
      <psa03 value="0.0144636233" flag="0"/>
      <psa10 value="0.0018192349" flag="0"/>
      <psa30 value="0.0001307100" flag="0"/>
    </comp>
  </station>
  <station code="PDO" name="PDO" netid="HP" insttype="120s" lat="38.5986" lon="21.1833">
    <comp name="--.HHN">
      <acc value="0.0356470149" flag="0"/>
      <vel value="0.0142438130" flag="0"/>
      <psa03 value="0.0825350632" flag="0"/>
      <psa10 value="0.0063040697" flag="0"/>
      <psa30 value="0.0004542750" flag="0"/>
    </comp>
    <comp name="--.HHE">
      <acc value="0.0273823078" flag="0"/>
      <vel value="0.0080533061" flag="0"/>
      <psa03 value="0.0433141539" flag="0"/>
      <psa10 value="0.0069015165" flag="0"/>
      <psa30 value="0.0005659826" flag="0"/>
    </comp>
    <comp name="--.HHZ">
      <acc value="0.0186506726" flag="0"/>
      <vel value="0.0061681909" flag="0"/>
      <psa03 value="0.0332654472" flag="0"/>
      <psa10 value="0.0036624155" flag="0"/>
      <psa30 value="0.0004023685" flag="0"/>
    </comp>
  </station>
  <station code="PLEV" name="PLEV" netid="HP" insttype="Compact," lat="38.4124" lon="21.4073">
    <comp name="--.HHZ">
      <acc value="0.0052748642" flag="0"/>
      <vel value="0.0027154693" flag="0"/>
      <psa03 value="0.0194661604" flag="0"/>
      <psa10 value="0.0037341889" flag="0"/>
      <psa30 value="0.0004231942" flag="0"/>
    </comp>
    <comp name="--.HHN">
      <acc value="0.0120517142" flag="0"/>
      <vel value="0.0048196313" flag="0"/>
      <psa03 value="0.0270223179" flag="0"/>
      <psa10 value="0.0071859916" flag="0"/>
      <psa30 value="0.0002917594" flag="0"/>
    </comp>
    <comp name="--.HHE">
      <acc value="0.0076447735" flag="0"/>
      <vel value="0.0028368680" flag="0"/>
      <psa03 value="0.0121852700" flag="0"/>
      <psa10 value="0.0030790647" flag="0"/>
      <psa30 value="0.0003755526" flag="0"/>
    </comp>
  </station>
  <station code="PRMD" name="PRMD" netid="HP" insttype="120P," lat="39.5299" lon="21.0965">
    <comp name="--.HHE">
      <acc value="0.0046077966" flag="0"/>
      <vel value="0.0025251571" flag="0"/>
      <psa03 value="0.0153509775" flag="0"/>
      <psa10 value="0.0031341347" flag="0"/>
      <psa30 value="0.0002462254" flag="0"/>
    </comp>
    <comp name="--.HHN">
      <acc value="0.0040575081" flag="0"/>
      <vel value="0.0020353017" flag="0"/>
      <psa03 value="0.0082297789" flag="0"/>
      <psa10 value="0.0031703875" flag="0"/>
      <psa30 value="0.0002622377" flag="0"/>
    </comp>
    <comp name="--.HHZ">
      <acc value="0.0028190275" flag="0"/>
      <vel value="0.0017244227" flag="0"/>
      <psa03 value="0.0061853044" flag="0"/>
      <psa10 value="0.0017275090" flag="0"/>
      <psa30 value="0.0001805349" flag="0"/>
    </comp>
  </station>
  <station code="PVO" name="PVO" netid="HP" insttype="120P," lat="38.616" lon="21.525">
    <comp name="--.HHE">
      <acc value="0.0219020403" flag="0"/>
      <vel value="0.0067799577" flag="0"/>
      <psa03 value="0.0298034664" flag="0"/>
      <psa10 value="0.0035367899" flag="0"/>
      <psa30 value="0.0003640268" flag="0"/>
    </comp>
    <comp name="--.HHN">
      <acc value="0.0147259472" flag="0"/>
      <vel value="0.0050456804" flag="0"/>
      <psa03 value="0.0347864730" flag="0"/>
      <psa10 value="0.0038745942" flag="0"/>
      <psa30 value="0.0003628570" flag="0"/>
    </comp>
    <comp name="--.HHZ">
      <acc value="0.0130480293" flag="0"/>
      <vel value="0.0041133397" flag="0"/>
      <psa03 value="0.0228085052" flag="0"/>
      <psa10 value="0.0022886075" flag="0"/>
      <psa30 value="0.0003755060" flag="0"/>
    </comp>
  </station>
  <station code="VVK" name="VVK" netid="HP" insttype="40," lat="38.4222" lon="21.8115">
    <comp name="--.HHE">
      <acc value="0.0049713471" flag="0"/>
      <vel value="0.0019872904" flag="0"/>
      <psa03 value="0.0107960903" flag="0"/>
      <psa10 value="0.0023707346" flag="0"/>
      <psa30 value="0.0001954887" flag="0"/>
    </comp>
    <comp name="--.HHZ">
      <acc value="0.0030480093" flag="0"/>
      <vel value="0.0014564140" flag="0"/>
      <psa03 value="0.0057173501" flag="0"/>
      <psa10 value="0.0010425466" flag="0"/>
      <psa30 value="0.0001089914" flag="0"/>
    </comp>
    <comp name="--.HHN">
      <acc value="0.0042779380" flag="0"/>
      <vel value="0.0018526098" flag="0"/>
      <psa03 value="0.0089143730" flag="0"/>
      <psa10 value="0.0013210591" flag="0"/>
      <psa30 value="0.0002865555" flag="0"/>
    </comp>
  </station>
  <station code="DMLN" name="DMLN" netid="HT" insttype="1s-100Hz," lat="38.2385" lon="20.3734">
    <comp name="--.HHZ">
      <acc value="0.0271679616" flag="0"/>
      <vel value="0.0087074099" flag="0"/>
      <psa03 value="0.0342731263" flag="0"/>
      <psa10 value="0.0035280846" flag="0"/>
      <psa30 value="0.0003028028" flag="0"/>
    </comp>
    <comp name="--.HHN">
      <acc value="0.0343833641" flag="0"/>
      <vel value="0.0119774607" flag="0"/>
      <psa03 value="0.1030889927" flag="0"/>
      <psa10 value="0.0085469756" flag="0"/>
      <psa30 value="0.0006324670" flag="0"/>
    </comp>
    <comp name="--.HHE">
      <acc value="0.0399687000" flag="0"/>
      <vel value="0.0134708341" flag="0"/>
      <psa03 value="0.0708914761" flag="0"/>
      <psa10 value="0.0097277849" flag="0"/>
      <psa30 value="0.0006783417" flag="0"/>
    </comp>
  </station>
  <station code="DRAG" name="DRAG" netid="HT" insttype="1s-100Hz," lat="38.6839" lon="20.5746">
    <comp name="--.HHZ">
      <acc value="1.9049482165" flag="0"/>
      <vel value="0.3734522296" flag="0"/>
      <psa03 value="1.8340178407" flag="0"/>
      <psa10 value="0.1106029658" flag="0"/>
      <psa30 value="0.0110989503" flag="0"/>
    </comp>
    <comp name="--.HHN">
      <acc value="6.1473315155" flag="0"/>
      <vel value="0.7457837869" flag="0"/>
      <psa03 value="3.4942499350" flag="0"/>
      <psa10 value="0.2653411329" flag="0"/>
      <psa30 value="0.0172542541" flag="0"/>
    </comp>
    <comp name="--.HHE">
      <acc value="9.1875604116" flag="0"/>
      <vel value="0.8383079774" flag="0"/>
      <psa03 value="5.3855216877" flag="0"/>
      <psa10 value="0.2585891111" flag="0"/>
      <psa30 value="0.1035545098" flag="0"/>
    </comp>
  </station>
  <station code="EVGI" name="EVGI" netid="HT" insttype="30" lat="38.621" lon="20.656">
    <comp name="--.HHN">
      <acc value="1.2624424902" flag="0"/>
      <vel value="0.3358015727" flag="0"/>
      <psa03 value="1.2584587414" flag="0"/>
      <psa10 value="0.0897086850" flag="0"/>
      <psa30 value="0.0087799074" flag="0"/>
    </comp>
    <comp name="--.HHE">
      <acc value="1.2359346558" flag="0"/>
      <vel value="0.2229732662" flag="0"/>
      <psa03 value="0.5864428238" flag="0"/>
      <psa10 value="0.0396388899" flag="0"/>
      <psa30 value="0.0037327776" flag="0"/>
    </comp>
    <comp name="--.HHZ">
      <acc value="0.9469017191" flag="0"/>
      <vel value="0.1688479000" flag="0"/>
      <psa03 value="0.6328215939" flag="0"/>
      <psa10 value="0.0392274387" flag="0"/>
      <psa30 value="0.0037163006" flag="0"/>
    </comp>
  </station>
  <station code="IGT" name="IGT" netid="HT" insttype="100" lat="39.5315" lon="20.3299">
    <comp name="--.HHE">
      <acc value="0.0074199052" flag="0"/>
      <vel value="0.0035773864" flag="0"/>
      <psa03 value="0.0145385169" flag="0"/>
      <psa10 value="0.0048306592" flag="0"/>
      <psa30 value="0.0002109120" flag="0"/>
    </comp>
    <comp name="--.HHN">
      <acc value="0.0111533528" flag="0"/>
      <vel value="0.0051852928" flag="0"/>
      <psa03 value="0.0241158253" flag="0"/>
      <psa10 value="0.0034946161" flag="0"/>
      <psa30 value="0.0001802014" flag="0"/>
    </comp>
    <comp name="--.HHZ">
      <acc value="0.0057728859" flag="0"/>
      <vel value="0.0027434846" flag="0"/>
      <psa03 value="0.0146587609" flag="0"/>
      <psa10 value="0.0017879036" flag="0"/>
      <psa30 value="0.0001925771" flag="0"/>
    </comp>
  </station>
  <station code="LKD2" name="LKD2" netid="HT" insttype="100" lat="38.7889" lon="20.6578">
    <comp name="--.HHZ">
      <acc value="1.1646848629" flag="0"/>
      <vel value="0.2004935780" flag="0"/>
      <psa03 value="0.6626729834" flag="0"/>
      <psa10 value="0.0400834415" flag="0"/>
      <psa30 value="0.0043809866" flag="0"/>
    </comp>
    <comp name="--.HHE">
      <acc value="1.2353954194" flag="0"/>
      <vel value="0.3595374459" flag="0"/>
      <psa03 value="1.2414907121" flag="0"/>
      <psa10 value="0.0664405411" flag="0"/>
      <psa30 value="0.0077770768" flag="0"/>
    </comp>
    <comp name="--.HHN">
      <acc value="0.9027613456" flag="0"/>
      <vel value="0.1805864988" flag="0"/>
      <psa03 value="0.9112633672" flag="0"/>
      <psa10 value="0.0877509589" flag="0"/>
      <psa30 value="0.0059036208" flag="0"/>
    </comp>
  </station>
  <station code="NYDR" name="NYDR" netid="HT" insttype="1s-100Hz," lat="38.7135" lon="20.6983">
    <comp name="--.HHE">
      <acc value="1.0869685719" flag="0"/>
      <vel value="0.2095118482" flag="0"/>
      <psa03 value="0.8420819770" flag="0"/>
      <psa10 value="0.0648325046" flag="0"/>
      <psa30 value="0.0057193394" flag="0"/>
    </comp>
    <comp name="--.HHZ">
      <acc value="0.8953321332" flag="0"/>
      <vel value="0.1864938165" flag="0"/>
      <psa03 value="0.6561978670" flag="0"/>
      <psa10 value="0.0737929628" flag="0"/>
      <psa30 value="0.0050356177" flag="0"/>
    </comp>
    <comp name="--.HHN">
      <acc value="1.2930543147" flag="0"/>
      <vel value="0.4241570437" flag="0"/>
      <psa03 value="1.5475031598" flag="0"/>
      <psa10 value="0.0708520082" flag="0"/>
      <psa30 value="0.0091332129" flag="0"/>
    </comp>
  </station>
  <station code="PSDA" name="PSDA" netid="HT" insttype="30" lat="38.114" lon="20.5841">
    <comp name="--.HHE">
      <acc value="0.0360085840" flag="0"/>
      <vel value="0.0085026464" flag="0"/>
      <psa03 value="0.0723900994" flag="0"/>
      <psa10 value="0.0071119209" flag="0"/>
      <psa30 value="0.0003734857" flag="0"/>
    </comp>
    <comp name="--.HHZ">
      <acc value="0.0209671190" flag="0"/>
      <vel value="0.0062920414" flag="0"/>
