<stationlist xmlns:esm="https://esm-db.eu/esmws/shakemap/1/" created="1780970060">
	<station code="IMMV" name="IMMV" netid="GE" source="GEOFON" insttype="" lat="35.4606" lon="23.9811" esm:processing="manual (Paolucci et al 2011)" esm:quality="good">
		<comp name="--.HNE" depth="0.0">
			<acc value="0.157857654618963" flag="0"/>
			<vel value="0.0786254081732804" flag="0"/>
			<psa03 value="0.430196316634683" flag="0"/>
			<psa10 value="0.0735977979325938" flag="0"/>
			<psa30 value="0.00815650426651094" flag="0"/>
		</comp>
		<comp name="--.HNN" depth="0.0">
			<acc value="0.160262391514109" flag="0"/>
			<vel value="0.0796611982824037" flag="0"/>
			<psa03 value="0.523797012880107" flag="0"/>
			<psa10 value="0.0760380378815543" flag="0"/>
			<psa30 value="0.00890951560389645" flag="0"/>
		</comp>
		<comp name="--.HNZ" depth="0.0">
			<acc value="0.0913320972386235" flag="0"/>
			<vel value="0.0563512563162597" flag="0"/>
			<psa03 value="0.245142550061511" flag="0"/>
			<psa10 value="0.0625241017945715" flag="0"/>
			<psa30 value="0.0128343019684512" flag="0"/>
		</comp>
	</station>
	<station code="ARK1" name="ARK1" netid="HI" source="ITSAK Strong Motion Network" insttype="" lat="35.148777" lon="25.264194" esm:processing="automatic (Paolucci et al 2011)" esm:quality="best">
		<comp name="--.HNE" depth="0.0">
			<acc value="0.0376513506640479" flag="0"/>
			<vel value="0.0389678845242579" flag="0"/>
			<psa03 value="0.104879687347897" flag="0"/>
			<psa10 value="0.0506688115600962" flag="0"/>
			<psa30 value="0.0058643676522428" flag="0"/>
		</comp>
		<comp name="--.HNN" depth="0.0">
			<acc value="0.044436598939491" flag="0"/>
			<vel value="0.047639914075299" flag="0"/>
			<psa03 value="0.12122539517082" flag="0"/>
			<psa10 value="0.0866451323147836" flag="0"/>
			<psa30 value="0.00684634437004773" flag="0"/>
		</comp>
		<comp name="--.HNZ" depth="0.0">
			<acc value="0.0209624505114082" flag="0"/>
			<vel value="0.027214192182333" flag="0"/>
			<psa03 value="0.0567313050455365" flag="0"/>
			<psa10 value="0.0443301304035782" flag="0"/>
			<psa30 value="0.00505997853207799" flag="0"/>
		</comp>
	</station>
	<station code="CH01" name="CH01" netid="HI" source="ITSAK Strong Motion Network" insttype="" lat="35.517" lon="24.0208" esm:processing="manual (Paolucci et al 2011)" esm:quality="good">
		<comp name="--.HNE" depth="0.0">
			<acc value="0.057817834133765" flag="0"/>
			<vel value="0.0500246630847235" flag="0"/>
			<psa03 value="0.158521638048537" flag="0"/>
			<psa10 value="0.0902526369241792" flag="0"/>
			<psa30 value="0.0190413882926041" flag="0"/>
		</comp>
		<comp name="--.HNN" depth="0.0">
			<acc value="0.0771059248580272" flag="0"/>
			<vel value="0.0803309974438568" flag="0"/>
			<psa03 value="0.173912957125222" flag="0"/>
			<psa10 value="0.0829439974730845" flag="0"/>
			<psa30 value="0.0163975713035304" flag="0"/>
		</comp>
		<comp name="--.HNZ" depth="0.0">
			<acc value="0.0440206440708663" flag="0"/>
			<vel value="0.0548091594015058" flag="0"/>
			<psa03 value="0.0880974048313771" flag="0"/>
			<psa10 value="0.0666918383410635" flag="0"/>
			<psa30 value="0.0156284527717623" flag="0"/>
		</comp>
	</station>
	<station code="CH02" name="CH02" netid="HI" source="ITSAK Strong Motion Network" insttype="" lat="35.5145" lon="24.0315" esm:processing="automatic (Paolucci et al 2011)" esm:quality="best">
		<comp name="--.HNE" depth="0.0">
			<acc value="0.044450508262384" flag="0"/>
			<vel value="0.0417650019554385" flag="0"/>
			<psa03 value="0.131280154999312" flag="0"/>
			<psa10 value="0.0736189968972411" flag="0"/>
			<psa30 value="0.013602830287414" flag="0"/>
		</comp>
		<comp name="--.HNN" depth="0.0">
			<acc value="0.0751562568015487" flag="0"/>
			<vel value="0.0890085730943931" flag="0"/>
			<psa03 value="0.193967682740371" flag="0"/>
			<psa10 value="0.139930259692963" flag="0"/>
			<psa30 value="0.0125826385380508" flag="0"/>
		</comp>
		<comp name="--.HNZ" depth="0.0">
			<acc value="0.0447665211285014" flag="0"/>
			<vel value="0.0466105795895223" flag="0"/>
			<psa03 value="0.107456618473604" flag="0"/>
			<psa10 value="0.0792179678015852" flag="0"/>
			<psa30 value="0.0125343736740737" flag="0"/>
		</comp>
	</station>
	<station code="HER1" name="HER1" netid="HI" source="ITSAK Strong Motion Network" insttype="" lat="35.317672" lon="25.10217" esm:processing="manual (Paolucci et al 2011)" esm:quality="good">
		<comp name="--.HNE" depth="0.0">
			<acc value="0.0842697520842114" flag="0"/>
			<vel value="0.126966807196439" flag="0"/>
			<psa03 value="0.151941179940816" flag="0"/>
			<psa10 value="0.304665802614201" flag="0"/>
			<psa30 value="0.0131899946057428" flag="0"/>
		</comp>
		<comp name="--.HNN" depth="0.0">
			<acc value="0.14272488306027" flag="0"/>
			<vel value="0.197988587141206" flag="0"/>
			<psa03 value="0.232410229370419" flag="0"/>
			<psa10 value="0.411778148281421" flag="0"/>
			<psa30 value="0.0143459753504606" flag="0"/>
		</comp>
		<comp name="--.HNZ" depth="0.0">
			<acc value="0.107740193687499" flag="0"/>
			<vel value="0.111248073171513" flag="0"/>
			<psa03 value="0.15921840160437" flag="0"/>
			<psa10 value="0.209833150416407" flag="0"/>
			<psa30 value="0.00862835408611244" flag="0"/>
		</comp>
	</station>
	<station code="HER2" name="HER2" netid="HI" source="ITSAK Strong Motion Network" insttype="" lat="35.337866" lon="25.135624" esm:processing="manual (Paolucci et al 2011)" esm:quality="good">
		<comp name="--.HNE" depth="0.0">
			<acc value="0.0684517953624854" flag="0"/>
			<vel value="0.0755187089129202" flag="0"/>
			<psa03 value="0.217239578555923" flag="0"/>
			<psa10 value="0.121896912572219" flag="0"/>
			<psa30 value="0.00605172923069452" flag="0"/>
		</comp>
		<comp name="--.HNN" depth="0.0">
			<acc value="0.063783169437152" flag="0"/>
			<vel value="0.0684904300282394" flag="0"/>
			<psa03 value="0.145446270518275" flag="0"/>
			<psa10 value="0.128743868649456" flag="0"/>
			<psa30 value="0.00868979232276076" flag="0"/>
		</comp>
		<comp name="--.HNZ" depth="0.0">
			<acc value="0.0366219874121146" flag="0"/>
			<vel value="0.0290689106641162" flag="0"/>
			<psa03 value="0.0938824380007664" flag="0"/>
			<psa10 value="0.0384927412051923" flag="0"/>
			<psa30 value="0.0024190685847549" flag="0"/>
		</comp>
	</station>
	<station code="HER3" name="HER3" netid="HI" source="ITSAK Strong Motion Network" insttype="" lat="35.3296" lon="25.1065" esm:processing="manual (Paolucci et al 2011)" esm:quality="good">
		<comp name="--.HNE" depth="0.0">
			<acc value="0.0948960040619234" flag="0"/>
			<vel value="0.118804298879853" flag="0"/>
			<psa03 value="0.219860022980839" flag="0"/>
			<psa10 value="0.365741178558115" flag="0"/>
			<psa30 value="0.0109798240261222" flag="0"/>
		</comp>
		<comp name="--.HNN" depth="0.0">
			<acc value="0.140237873502872" flag="0"/>
			<vel value="0.147593614503471" flag="0"/>
			<psa03 value="0.255048062349086" flag="0"/>
			<psa10 value="0.397410706508916" flag="0"/>
			<psa30 value="0.0169133870955551" flag="0"/>
		</comp>
		<comp name="--.HNZ" depth="0.0">
			<acc value="0.0570527386776685" flag="0"/>
			<vel value="0.0552373968964432" flag="0"/>
			<psa03 value="0.134526745069971" flag="0"/>
			<psa10 value="0.121793083194032" flag="0"/>
			<psa30 value="0.00359878006818429" flag="0"/>
		</comp>
	</station>
	<station code="RTH1" name="RTH1" netid="HI" source="ITSAK Strong Motion Network" insttype="" lat="35.365393" lon="24.471773" esm:processing="automatic (Paolucci et al 2011)" esm:quality="best">
		<comp name="--.HNE" depth="0.0">
			<acc value="0.104241445682562" flag="0"/>
			<vel value="0.0897104338667421" flag="0"/>
			<psa03 value="0.380540208921247" flag="0"/>
			<psa10 value="0.126906726947834" flag="0"/>
			<psa30 value="0.0100017642344611" flag="0"/>
		</comp>
		<comp name="--.HNN" depth="0.0">
			<acc value="0.193816597377207" flag="0"/>
			<vel value="0.131317166118491" flag="0"/>
			<psa03 value="0.623083026192552" flag="0"/>
			<psa10 value="0.136586103159004" flag="0"/>
			<psa30 value="0.0124709694738566" flag="0"/>
		</comp>
		<comp name="--.HNZ" depth="0.0">
			<acc value="0.0722598793469274" flag="0"/>
			<vel value="0.0633333389086391" flag="0"/>
			<psa03 value="0.135445170494481" flag="0"/>
			<psa10 value="0.0427411876439185" flag="0"/>
			<psa30 value="0.0134923246336234" flag="0"/>
		</comp>
	</station>
	<station code="SIT2" name="SIT2" netid="HI" source="ITSAK Strong Motion Network" insttype="" lat="35.2059" lon="26.107" esm:processing="manual (Paolucci et al 2011)" esm:quality="bad">
		<comp name="--.HNE" depth="0.0">
			<acc value="0.0295498641978515" flag="0"/>
			<vel value="0.0248522218005387" flag="0"/>
			<psa03 value="0.0567407640055545" flag="0"/>
			<psa10 value="0.0378367289976032" flag="0"/>
			<psa30 value="0.00329330212343639" flag="0"/>
		</comp>
		<comp name="--.HNN" depth="0.0">
			<acc value="0.0335540027641255" flag="0"/>
			<vel value="0.0256914610762733" flag="0"/>
			<psa03 value="0.070775834384846" flag="0"/>
			<psa10 value="0.0229032997311943" flag="0"/>
			<psa30 value="0.00191727846862381" flag="0"/>
		</comp>
		<comp name="--.HNZ" depth="0.0">
			<acc value="0.0118166746810064" flag="0"/>
			<vel value="0.00827953017695007" flag="0"/>
			<psa03 value="0.0199771541175622" flag="0"/>
			<psa10 value="0.0108640271884945" flag="0"/>
			<psa30 value="0.00181182356608776" flag="0"/>
		</comp>
	</station>
	<station code="ANKY" name="ANKY" netid="HL" source="National Observatory of Athens Seismic Network" insttype="" lat="35.86704" lon="23.30117" esm:processing="manual (Paolucci et al 2011)" esm:quality="good">
		<comp name="00.HNE" depth="0.0">
			<acc value="0.0100305095768678" flag="0"/>
			<vel value="0.010703683373532" flag="0"/>
			<psa03 value="0.0325275842114836" flag="0"/>
			<psa10 value="0.0211608266201116" flag="0"/>
			<psa30 value="0.00279951986810526" flag="0"/>
		</comp>
		<comp name="00.HNN" depth="0.0">
			<acc value="0.00989163417546539" flag="0"/>
			<vel value="0.0086072639712421" flag="0"/>
			<psa03 value="0.0273822304503823" flag="0"/>
			<psa10 value="0.0125273704310499" flag="0"/>
			<psa30 value="0.00211138473031624" flag="0"/>
		</comp>
		<comp name="00.HNZ" depth="0.0">
			<acc value="0.00913532787285525" flag="0"/>
			<vel value="0.00573142410566687" flag="0"/>
			<psa03 value="0.025682026598888" flag="0"/>
			<psa10 value="0.00481605112039077" flag="0"/>
			<psa30 value="0.0017579212980319" flag="0"/>
		</comp>
	</station>
	<station code="IACM" name="IACM" netid="HL" source="National Observatory of Athens Seismic Network" insttype="" lat="35.3058" lon="25.0709" esm:processing="manual (Paolucci et al 2011)" esm:quality="good">
		<comp name="--.HNE" depth="0.0">
			<acc value="0.136442643951705" flag="0"/>
			<vel value="0.132641786983763" flag="0"/>
			<psa03 value="0.292345578043788" flag="0"/>
			<psa10 value="0.344500673454575" flag="0"/>
			<psa30 value="0.0122047791213322" flag="0"/>
		</comp>
		<comp name="--.HNN" depth="0.0">
			<acc value="0.165601852276296" flag="0"/>
			<vel value="0.195434171598621" flag="0"/>
			<psa03 value="0.350689415474014" flag="0"/>
			<psa10 value="0.327463288596403" flag="0"/>
			<psa30 value="0.0150051938335698" flag="0"/>
		</comp>
		<comp name="--.HNZ" depth="0.0">
			<acc value="0.0856362691929179" flag="0"/>
			<vel value="0.0627955530885729" flag="0"/>
			<psa03 value="0.176194809662754" flag="0"/>
			<psa10 value="0.141139290777338" flag="0"/>
			<psa30 value="0.0063686056900448" flag="0"/>
		</comp>
	</station>
	<station code="IMMV" name="IMMV" netid="HL" source="National Observatory of Athens Seismic Network" insttype="" lat="35.4606" lon="23.9811" esm:processing="manual (Paolucci et al 2011)" esm:quality="good">
		<comp name="--.HNE" depth="0.0">
			<acc value="0.154654604578915" flag="0"/>
			<vel value="0.077029933836322" flag="0"/>
			<psa03 value="0.42147158634412" flag="0"/>
			<psa10 value="0.0721038556536096" flag="0"/>
			<psa30 value="0.00799095810202333" flag="0"/>
		</comp>
		<comp name="--.HNN" depth="0.0">
			<acc value="0.157010514546224" flag="0"/>
			<vel value="0.0780449273380767" flag="0"/>
			<psa03 value="0.513148367704959" flag="0"/>
			<psa10 value="0.0744917472208268" flag="0"/>
			<psa30 value="0.00872875708915863" flag="0"/>
		</comp>
		<comp name="--.HNZ" depth="0.0">
			<acc value="0.089478918341872" flag="0"/>
			<vel value="0.0552078498510033" flag="0"/>
			<psa03 value="0.240176165126883" flag="0"/>
			<psa10 value="0.0612556602369435" flag="0"/>
			<psa30 value="0.0125739023259329" flag="0"/>
		</comp>
	</station>
</stationlist>
