<?xml version="1.0" encoding="UTF-8" standalone="yes"?>
<!DOCTYPE earthquake SYSTEM "stationlist.dtd">
<stationlist created="" xmlns="ch.ethz.sed.shakemap.usgs.xml">
  <station code="GVD" name="GVD" netid="GE" source="GFZ" insttype="STS-2/N" lat="34.8391" lon="24.0874">
    <comp name="--.HHE">
      <acc value="1.0761228909" flag="0"/>
      <vel value="0.4510499205" flag="0"/>
      <psa03 value="1.9326579022" flag="0"/>
      <psa10 value="0.3178846613" flag="0"/>
      <psa30 value="0.0171293589" flag="0"/>
    </comp>
    <comp name="--.HHN">
      <acc value="0.9783483548" flag="0"/>
      <vel value="0.6489259594" flag="0"/>
      <psa03 value="3.2631224999" flag="0"/>
      <psa10 value="0.4898130313" flag="0"/>
      <psa30 value="0.0439505034" flag="0"/>
    </comp>
    <comp name="--.HHZ">
      <acc value="0.4960706047" flag="0"/>
      <vel value="0.2258153607" flag="0"/>
      <psa03 value="1.4145995536" flag="0"/>
      <psa10 value="0.1447137760" flag="0"/>
      <psa30 value="0.0108461347" flag="0"/>
    </comp>
  </station>
  <station code="IMMV" name="IMMV" netid="GE" source="GFZ" insttype="STS-2/N" lat="35.4606" lon="23.9811">
    <comp name="--.HHE">
      <acc value="0.1644421190" flag="0"/>
      <vel value="0.0792986891" flag="0"/>
      <psa03 value="0.4447275353" flag="0"/>
      <psa10 value="0.0749027500" flag="0"/>
      <psa30 value="0.0071389263" flag="0"/>
    </comp>
    <comp name="--.HHN">
      <acc value="0.1655307034" flag="0"/>
      <vel value="0.0805034625" flag="0"/>
      <psa03 value="0.5359701348" flag="0"/>
      <psa10 value="0.0760453319" flag="0"/>
      <psa30 value="0.0087204239" flag="0"/>
    </comp>
    <comp name="--.HHZ">
      <acc value="0.0925056347" flag="0"/>
      <vel value="0.0544836380" flag="0"/>
      <psa03 value="0.2467342326" flag="0"/>
      <psa10 value="0.0622850858" flag="0"/>
      <psa30 value="0.0113594992" flag="0"/>
    </comp>
  </station>
  <station code="CHAN" name="CHAN" netid="HC" source="NOA" insttype="120" lat="35.5193" lon="24.0428">
    <comp name="--.HHE">
      <acc value="0.1296060480" flag="0"/>
      <vel value="0.1394320031" flag="0"/>
      <psa03 value="0.4085238394" flag="0"/>
      <psa10 value="0.2017792270" flag="0"/>
      <psa30 value="0.0171326904" flag="0"/>
    </comp>
    <comp name="--.HHN">
      <acc value="0.1399257774" flag="0"/>
      <vel value="0.1582363205" flag="0"/>
      <psa03 value="0.2859905633" flag="0"/>
      <psa10 value="0.2779188958" flag="0"/>
      <psa30 value="0.0223444965" flag="0"/>
    </comp>
    <comp name="--.HHZ">
      <acc value="0.0943313629" flag="0"/>
      <vel value="0.0713778633" flag="0"/>
      <psa03 value="0.2606643424" flag="0"/>
      <psa10 value="0.1067236475" flag="0"/>
      <psa30 value="0.0186436041" flag="0"/>
    </comp>
  </station>
  <station code="HRKL" name="HRKL" netid="HC" source="NOA" insttype="120" lat="35.3115" lon="25.1016">
    <comp name="--.HHE">
      <acc value="0.1728419923" flag="0"/>
      <vel value="0.1954666684" flag="0"/>
      <psa03 value="0.3372247713" flag="0"/>
      <psa10 value="0.4572947725" flag="0"/>
      <psa30 value="0.0159424865" flag="0"/>
    </comp>
    <comp name="--.HHN">
      <acc value="0.1345885581" flag="0"/>
      <vel value="0.1955056042" flag="0"/>
      <psa03 value="0.2896089711" flag="0"/>
      <psa10 value="0.4426805118" flag="0"/>
      <psa30 value="0.0161737726" flag="0"/>
    </comp>
    <comp name="--.HHZ">
      <acc value="0.1298307107" flag="0"/>
      <vel value="0.1139859020" flag="0"/>
      <psa03 value="0.2757444887" flag="0"/>
      <psa10 value="0.1385076238" flag="0"/>
      <psa30 value="0.0069607149" flag="0"/>
    </comp>
  </station>
  <station code="PRNS" name="PRNS" netid="HC" source="NOA" insttype="120" lat="35.3445" lon="24.4266">
    <comp name="--.HHE">
      <acc value="0.1544077481" flag="0"/>
      <vel value="0.1691321149" flag="0"/>
      <psa03 value="0.4098225658" flag="0"/>
      <psa10 value="0.2643643073" flag="0"/>
      <psa30 value="0.0174745989" flag="0"/>
    </comp>
    <comp name="--.HHN">
      <acc value="0.2941393646" flag="0"/>
      <vel value="0.2575451177" flag="0"/>
      <psa03 value="0.5652121691" flag="0"/>
      <psa10 value="0.3310071835" flag="0"/>
      <psa30 value="0.0307658216" flag="0"/>
    </comp>
    <comp name="--.HHZ">
      <acc value="0.1547333832" flag="0"/>
      <vel value="0.1683207102" flag="0"/>
      <psa03 value="0.3015247771" flag="0"/>
      <psa10 value="0.2754401291" flag="0"/>
      <psa30 value="0.0303492776" flag="0"/>
    </comp>
  </station>
  <station code="RODP" name="RODP" netid="HC" source="NOA" insttype="1s-100Hz," lat="35.5604" lon="23.7577">
    <comp name="--.HHE">
      <acc value="0.0251633580" flag="0"/>
      <vel value="0.0174579817" flag="0"/>
      <psa03 value="0.0846633127" flag="0"/>
      <psa10 value="0.0138289746" flag="0"/>
      <psa30 value="0.0036877211" flag="0"/>
    </comp>
    <comp name="--.HHN">
      <acc value="0.0373559784" flag="0"/>
      <vel value="0.0306418945" flag="0"/>
      <psa03 value="0.1093236056" flag="0"/>
      <psa10 value="0.0346468961" flag="0"/>
      <psa30 value="0.0039711428" flag="0"/>
    </comp>
    <comp name="--.HHZ">
      <acc value="0.0544986708" flag="0"/>
      <vel value="0.0280505633" flag="0"/>
      <psa03 value="0.1489093310" flag="0"/>
      <psa10 value="0.0266408985" flag="0"/>
      <psa30 value="0.0055464988" flag="0"/>
    </comp>
  </station>
  <station code="TMBK" name="TMBK" netid="HC" source="NOA" insttype="120" lat="35.0724" lon="24.7662">
    <comp name="--.HHE">
      <acc value="0.0000000000" flag="0"/>
      <vel value="-100.0000000000" flag="0"/>
      <psa03 value="0.0000000000" flag="0"/>
      <psa10 value="0.0000000000" flag="0"/>
      <psa30 value="0.0000000000" flag="0"/>
    </comp>
    <comp name="--.HHN">
      <acc value="0.0000000000" flag="0"/>
      <vel value="-100.0000000000" flag="0"/>
      <psa03 value="0.0000000000" flag="0"/>
      <psa10 value="0.0000000000" flag="0"/>
      <psa30 value="0.0000000000" flag="0"/>
    </comp>
    <comp name="--.HHZ">
      <acc value="0.1616809696" flag="0"/>
      <vel value="0.1468761204" flag="0"/>
      <psa03 value="0.3918710730" flag="0"/>
      <psa10 value="0.3160737841" flag="0"/>
      <psa30 value="0.0229856544" flag="0"/>
    </comp>
  </station>
  <station code="ANKY" name="ANKY" netid="HL" source="NOA" insttype="60" lat="35.867" lon="23.3012">
    <comp name="--.HHE">
      <acc value="0.0104553665" flag="0"/>
      <vel value="0.0095832481" flag="0"/>
      <psa03 value="0.0314493266" flag="0"/>
      <psa10 value="0.0198304739" flag="0"/>
      <psa30 value="0.0025703835" flag="0"/>
    </comp>
    <comp name="--.HHN">
      <acc value="0.0096972542" flag="0"/>
      <vel value="0.0075307577" flag="0"/>
      <psa03 value="0.0267785240" flag="0"/>
      <psa10 value="0.0135972121" flag="0"/>
      <psa30 value="0.0018602657" flag="0"/>
    </comp>
    <comp name="--.HHZ">
      <acc value="0.0091658135" flag="0"/>
      <vel value="0.0053827878" flag="0"/>
      <psa03 value="0.0286612719" flag="0"/>
      <psa10 value="0.0051548336" flag="0"/>
      <psa30 value="0.0016711930" flag="0"/>
    </comp>
  </station>
  <station code="GVD" name="GVD" netid="HL" source="NOA" insttype="120" lat="34.8391" lon="24.0874">
    <comp name="--.HHE">
      <acc value="1.0557057667" flag="0"/>
      <vel value="0.4371558378" flag="0"/>
      <psa03 value="1.8769329642" flag="0"/>
      <psa10 value="0.3145249604" flag="0"/>
      <psa30 value="0.0168521466" flag="0"/>
    </comp>
    <comp name="--.HHN">
      <acc value="0.9472805044" flag="0"/>
      <vel value="0.6412446116" flag="0"/>
      <psa03 value="3.1688562694" flag="0"/>
      <psa10 value="0.4873800793" flag="0"/>
      <psa30 value="0.0435358564" flag="0"/>
    </comp>
    <comp name="--.HHZ">
      <acc value="0.4790007858" flag="0"/>
      <vel value="0.2216036293" flag="0"/>
      <psa03 value="1.3776248866" flag="0"/>
      <psa10 value="0.1436642958" flag="0"/>
      <psa30 value="0.0107622990" flag="0"/>
    </comp>
  </station>
  <station code="IACM" name="IACM" netid="HL" source="NOA" insttype="120" lat="35.3058" lon="25.0709">
    <comp name="--.HHE">
      <acc value="0.0749450115" flag="0"/>
      <vel value="0.0461551158" flag="0"/>
      <psa03 value="0.1509795356" flag="0"/>
      <psa10 value="0.0302163558" flag="0"/>
      <psa30 value="0.0020292904" flag="0"/>
    </comp>
    <comp name="--.HHN">
      <acc value="0.1641345554" flag="0"/>
      <vel value="0.1945822965" flag="0"/>
      <psa03 value="0.3511097237" flag="0"/>
      <psa10 value="0.3232085497" flag="0"/>
      <psa30 value="0.0145047545" flag="0"/>
    </comp>
    <comp name="--.HHZ">
      <acc value="0.0861293701" flag="0"/>
      <vel value="0.0612826190" flag="0"/>
      <psa03 value="0.1772757235" flag="0"/>
      <psa10 value="0.1419937522" flag="0"/>
      <psa30 value="0.0059893739" flag="0"/>
    </comp>
  </station>
  <station code="IDI" name="IDI" netid="HL" source="NOA" insttype="120" lat="35.288" lon="24.89">
    <comp name="--.HHE">
      <acc value="0.0334783337" flag="0"/>
      <vel value="0.0320448373" flag="0"/>
      <psa03 value="0.0702260612" flag="0"/>
      <psa10 value="0.0373249170" flag="0"/>
      <psa30 value="0.0035782058" flag="0"/>
    </comp>
    <comp name="--.HHN">
      <acc value="0.0361345637" flag="0"/>
      <vel value="0.0281892366" flag="0"/>
      <psa03 value="0.0689289714" flag="0"/>
      <psa10 value="0.0374915893" flag="0"/>
      <psa30 value="0.0028218636" flag="0"/>
    </comp>
    <comp name="--.HHZ">
      <acc value="0.0220544376" flag="0"/>
      <vel value="0.0196439405" flag="0"/>
      <psa03 value="0.0605966094" flag="0"/>
      <psa10 value="0.0281772904" flag="0"/>
      <psa30 value="0.0022170925" flag="0"/>
    </comp>
  </station>
  <station code="IMMV" name="IMMV" netid="HL" source="NOA" insttype="120" lat="35.4606" lon="23.9811">
    <comp name="--.HHE">
      <acc value="0.1593278333" flag="0"/>
      <vel value="0.0776502302" flag="0"/>
      <psa03 value="0.4334895401" flag="0"/>
      <psa10 value="0.0742979499" flag="0"/>
      <psa30 value="0.0071402635" flag="0"/>
    </comp>
    <comp name="--.HHN">
      <acc value="0.1604336566" flag="0"/>
      <vel value="0.0796438863" flag="0"/>
      <psa03 value="0.5206089390" flag="0"/>
      <psa10 value="0.0755199212" flag="0"/>
      <psa30 value="0.0087099647" flag="0"/>
    </comp>
    <comp name="--.HHZ">
      <acc value="0.0902857970" flag="0"/>
      <vel value="0.0539475270" flag="0"/>
      <psa03 value="0.2401569030" flag="0"/>
      <psa10 value="0.0619000118" flag="0"/>
      <psa30 value="0.0113547661" flag="0"/>
    </comp>
  </station>
  <station code="IDI" name="IDI" netid="MN" source="INGV" insttype="" lat="35.288" lon="24.89">
    <comp name="--.HHE">
      <acc value="0.0321292018" flag="0"/>
      <vel value="0.0303995975" flag="0"/>
      <psa03 value="0.0666696109" flag="0"/>
      <psa10 value="0.0350865441" flag="0"/>
      <psa30 value="0.0033580990" flag="0"/>
    </comp>
    <comp name="--.HHN">
      <acc value="0.0349544794" flag="0"/>
      <vel value="0.0269519798" flag="0"/>
      <psa03 value="0.0665548841" flag="0"/>
      <psa10 value="0.0357915809" flag="0"/>
      <psa30 value="0.0026804134" flag="0"/>
    </comp>
    <comp name="--.HHZ">
      <acc value="0.0211864490" flag="0"/>
      <vel value="0.0187369624" flag="0"/>
      <psa03 value="0.0588158829" flag="0"/>
      <psa10 value="0.0267995532" flag="0"/>
      <psa30 value="0.0020975241" flag="0"/>
    </comp>
  </station>
</stationlist>
