<?xml version="1.0" encoding="UTF-8" standalone="yes"?>
<!DOCTYPE earthquake SYSTEM "stationlist.dtd">
<stationlist created="" xmlns="ch.ethz.sed.shakemap.usgs.xml">
  <station code="ARPRA" name="ARPRA" netid="KO" insttype="CMG-5T" lat="39.0929" lon="38.3356">
    <comp name="--.HNZ">
      <acc value="0.0071626603" flag="0"/>
      <vel value="0.0035992854" flag="0"/>
      <psa03 value="0.0167847143" flag="0"/>
      <psa10 value="0.0035027560" flag="0"/>
      <psa30 value="0.0002032339" flag="0"/>
    </comp>
    <comp name="--.HNE">
      <acc value="0.0179155718" flag="0"/>
      <vel value="0.0062620350" flag="0"/>
      <psa03 value="0.0386836342" flag="0"/>
      <psa10 value="0.0042512262" flag="0"/>
      <psa30 value="0.0002924438" flag="0"/>
    </comp>
    <comp name="--.HNN">
      <acc value="0.0124555699" flag="0"/>
      <vel value="0.0056209014" flag="0"/>
      <psa03 value="0.0350676981" flag="0"/>
      <psa10 value="0.0034565336" flag="0"/>
      <psa30 value="0.0002763022" flag="0"/>
    </comp>
  </station>
  <station code="DARE" name="DARE" netid="KO" insttype="CMG-3ESP" lat="38.5712" lon="37.4832">
    <comp name="--.HHN">
      <acc value="0.0031010471" flag="0"/>
      <vel value="0.0011641887" flag="0"/>
      <psa03 value="0.0065750016" flag="0"/>
      <psa10 value="0.0009298324" flag="0"/>
      <psa30 value="0.0000920907" flag="0"/>
    </comp>
    <comp name="--.HHZ">
      <acc value="0.0025842768" flag="0"/>
      <vel value="0.0012677678" flag="0"/>
      <psa03 value="0.0075728129" flag="0"/>
      <psa10 value="0.0009249883" flag="0"/>
      <psa30 value="0.0000556633" flag="0"/>
    </comp>
  </station>
  <station code="SVRC" name="SVRC" netid="KO" insttype="CMG-3T" lat="38.3775" lon="39.306">
    <comp name="--.HHN">
      <acc value="0.0117788903" flag="0"/>
      <vel value="0.0058210430" flag="0"/>
      <psa03 value="0.0323935152" flag="0"/>
      <psa10 value="0.0033082652" flag="0"/>
      <psa30 value="0.0002492959" flag="0"/>
    </comp>
    <comp name="--.HHE">
      <acc value="0.0139519923" flag="0"/>
      <vel value="0.0064754491" flag="0"/>
      <psa03 value="0.0352522393" flag="0"/>
      <psa10 value="0.0058673730" flag="0"/>
      <psa30 value="0.0002843238" flag="0"/>
    </comp>
    <comp name="--.HHZ">
      <acc value="0.0158035578" flag="0"/>
      <vel value="0.0049403780" flag="0"/>
      <psa03 value="0.0222922325" flag="0"/>
      <psa10 value="0.0031641379" flag="0"/>
      <psa30 value="0.0001796703" flag="0"/>
    </comp>
  </station>
  <station code="URFA" name="URFA" netid="KO" insttype="CMG-3ESP" lat="37.4409" lon="38.8213">
    <comp name="--.HHE">
      <acc value="0.0301641178" flag="0"/>
      <vel value="0.0081921283" flag="0"/>
      <psa03 value="0.0359322678" flag="0"/>
      <psa10 value="0.0054805824" flag="0"/>
      <psa30 value="0.0002879512" flag="0"/>
    </comp>
    <comp name="--.HHN">
      <acc value="0.0224674490" flag="0"/>
      <vel value="0.0082809100" flag="0"/>
      <psa03 value="0.0226859002" flag="0"/>
      <psa10 value="0.0040290425" flag="0"/>
      <psa30 value="0.0002501386" flag="0"/>
    </comp>
    <comp name="--.HHZ">
      <acc value="0.0194760646" flag="0"/>
      <vel value="0.0041564306" flag="0"/>
      <psa03 value="0.0274333897" flag="0"/>
      <psa10 value="0.0018048177" flag="0"/>
      <psa30 value="0.0001314091" flag="0"/>
    </comp>
  </station>
</stationlist>
