<?xml version="1.0" encoding="UTF-8" standalone="yes"?>
<!DOCTYPE earthquake SYSTEM "stationlist.dtd">
<stationlist created="" xmlns="ch.ethz.sed.shakemap.usgs.xml">
  <station code="GIL" name="GIL" netid="VI" source="ODC" insttype="CMG-3ESP" lat="66.0773" lon="-16.3513">
    <comp name="--.HHE">
      <acc value="0.1022821605" flag="0"/>
      <vel value="0.0415248357" flag="0"/>
      <psa03 value="0.2598109608" flag="0"/>
      <psa10 value="0.0450305835" flag="0"/>
      <psa30 value="0.0028138191" flag="0"/>
    </comp>
    <comp name="--.HHZ">
      <acc value="0.0596059844" flag="0"/>
      <vel value="0.0330295999" flag="0"/>
      <psa03 value="0.1199602573" flag="0"/>
      <psa10 value="0.0251285791" flag="0"/>
      <psa30 value="0.0016976463" flag="0"/>
    </comp>
    <comp name="--.HHN">
      <acc value="0.1641142504" flag="0"/>
      <vel value="0.1065766316" flag="0"/>
      <psa03 value="0.3258559271" flag="0"/>
      <psa10 value="0.0969517354" flag="0"/>
      <psa30 value="0.0067659499" flag="0"/>
    </comp>
  </station>
</stationlist>
