<?xml version="1.0" encoding="UTF-8" standalone="yes"?>
<!DOCTYPE earthquake SYSTEM "stationlist.dtd">
<stationlist created="" xmlns="ch.ethz.sed.shakemap.usgs.xml">
  <station code="CANT" name="CANT" netid="KO" insttype="CMG-3ESP" lat="40.6062" lon="33.6193">
    <comp name="--.HHE">
      <acc value="0.0092722333" flag="0"/>
      <vel value="0.0094044650" flag="0"/>
      <psa03 value="0.0244870681" flag="0"/>
      <psa10 value="0.0191461009" flag="0"/>
      <psa30 value="0.0019517216" flag="0"/>
    </comp>
    <comp name="--.HHZ">
      <acc value="0.0080524274" flag="0"/>
      <vel value="0.0072390637" flag="0"/>
      <psa03 value="0.0163539209" flag="0"/>
      <psa10 value="0.0083755376" flag="0"/>
      <psa30 value="0.0008984348" flag="0"/>
    </comp>
    <comp name="--.HHN">
      <acc value="0.0119834270" flag="0"/>
      <vel value="0.0159150403" flag="0"/>
      <psa03 value="0.0250639493" flag="0"/>
      <psa10 value="0.0289132624" flag="0"/>
      <psa30 value="0.0016687220" flag="0"/>
    </comp>
  </station>
  <station code="CAYL" name="CAYL" netid="KO" insttype="CMG-6T" lat="40.3745" lon="36.159">
    <comp name="--.HHZ">
      <acc value="0.0393613062" flag="0"/>
      <vel value="0.0290313081" flag="0"/>
      <psa03 value="0.1241415240" flag="0"/>
      <psa10 value="0.0217118337" flag="0"/>
      <psa30 value="0.0010337365" flag="0"/>
    </comp>
    <comp name="--.HHE">
      <acc value="0.0669238857" flag="0"/>
      <vel value="0.0400466074" flag="0"/>
      <psa03 value="0.2611762724" flag="0"/>
      <psa10 value="0.0184420204" flag="0"/>
      <psa30 value="0.0011774757" flag="0"/>
    </comp>
    <comp name="--.HHN">
      <acc value="0.0631338350" flag="0"/>
      <vel value="0.0385999526" flag="0"/>
      <psa03 value="0.1536096613" flag="0"/>
      <psa10 value="0.0461348042" flag="0"/>
      <psa30 value="0.0015828484" flag="0"/>
    </comp>
  </station>
  <station code="CORM" name="CORM" netid="KO" insttype="CMG-3ESP" lat="40.1785" lon="34.6302">
    <comp name="--.HHE">
      <acc value="0.0400541952" flag="0"/>
      <vel value="0.0298510356" flag="0"/>
      <psa03 value="0.1144308564" flag="0"/>
      <psa10 value="0.0360710480" flag="0"/>
      <psa30 value="0.0026579217" flag="0"/>
    </comp>
    <comp name="--.HHN">
      <acc value="0.0455169730" flag="0"/>
      <vel value="0.0438021386" flag="0"/>
      <psa03 value="0.1689665983" flag="0"/>
      <psa10 value="0.0352788822" flag="0"/>
      <psa30 value="0.0034519460" flag="0"/>
    </comp>
    <comp name="--.HHZ">
      <acc value="0.0657047071" flag="0"/>
      <vel value="0.0317323006" flag="0"/>
      <psa03 value="0.1571148016" flag="0"/>
      <psa10 value="0.0142413816" flag="0"/>
      <psa30 value="0.0016339257" flag="0"/>
    </comp>
  </station>
  <station code="DIKM" name="DIKM" netid="KO" insttype="CMG-3T" lat="41.6497" lon="35.2578">
    <comp name="--.HHN">
      <acc value="0.0358294448" flag="0"/>
      <vel value="0.0230324597" flag="0"/>
      <psa03 value="0.0860701620" flag="0"/>
      <psa10 value="0.0244945470" flag="0"/>
      <psa30 value="0.0010491244" flag="0"/>
    </comp>
    <comp name="--.HHZ">
      <acc value="0.0264789187" flag="0"/>
      <vel value="0.0146404380" flag="0"/>
      <psa03 value="0.0842616233" flag="0"/>
      <psa10 value="0.0196424344" flag="0"/>
      <psa30 value="0.0014681379" flag="0"/>
    </comp>
    <comp name="--.HHE">
      <acc value="0.0312925570" flag="0"/>
      <vel value="0.0172106249" flag="0"/>
      <psa03 value="0.1171412794" flag="0"/>
      <psa10 value="0.0234665035" flag="0"/>
      <psa30 value="0.0019552964" flag="0"/>
    </comp>
  </station>
  <station code="ERBG" name="ERBG" netid="KO" insttype="CMG-5T" lat="40.712" lon="36.6768">
    <comp name="--.HNN">
      <acc value="0.0328924679" flag="0"/>
      <vel value="0.0171403322" flag="0"/>
      <psa03 value="0.0493471210" flag="0"/>
      <psa10 value="0.0243719121" flag="0"/>
      <psa30 value="0.0016126538" flag="0"/>
    </comp>
    <comp name="--.HNE">
      <acc value="0.0316879731" flag="0"/>
      <vel value="0.0236271433" flag="0"/>
      <psa03 value="0.0574148585" flag="0"/>
      <psa10 value="0.0271512265" flag="0"/>
      <psa30 value="0.0018796918" flag="0"/>
    </comp>
    <comp name="--.HNZ">
      <acc value="0.0254099482" flag="0"/>
      <vel value="0.0115102601" flag="0"/>
      <psa03 value="0.0590434943" flag="0"/>
      <psa10 value="0.0127377585" flag="0"/>
      <psa30 value="0.0010258419" flag="0"/>
    </comp>
  </station>
  <station code="KVT" name="KVT" netid="KO" insttype="CMG-3T" lat="41.0807" lon="36.0463">
    <comp name="--.HHN">
      <acc value="0.0424789749" flag="0"/>
      <vel value="0.0242062220" flag="0"/>
      <psa03 value="0.1029250538" flag="0"/>
      <psa10 value="0.0240835329" flag="0"/>
      <psa30 value="0.0017342157" flag="0"/>
    </comp>
    <comp name="--.HHE">
      <acc value="0.0549696991" flag="0"/>
      <vel value="0.0265981725" flag="0"/>
      <psa03 value="0.0814772369" flag="0"/>
      <psa10 value="0.0265898294" flag="0"/>
      <psa30 value="0.0021763590" flag="0"/>
    </comp>
  </station>
  <station code="SNOP" name="SNOP" netid="KO" insttype="CMG-3T" lat="42.0195" lon="35.2069">
    <comp name="--.HHN">
      <acc value="0.0543149790" flag="0"/>
      <vel value="0.0294613646" flag="0"/>
      <psa03 value="0.2361748092" flag="0"/>
      <psa10 value="0.0201964715" flag="0"/>
      <psa30 value="0.0013789188" flag="0"/>
    </comp>
    <comp name="--.HHZ">
      <acc value="0.0250226014" flag="0"/>
      <vel value="0.0128356404" flag="0"/>
      <psa03 value="0.0834796659" flag="0"/>
      <psa10 value="0.0100198156" flag="0"/>
      <psa30 value="0.0009314406" flag="0"/>
    </comp>
    <comp name="--.HHE">
      <acc value="0.0366009277" flag="0"/>
      <vel value="0.0182455230" flag="0"/>
      <psa03 value="0.1138140114" flag="0"/>
      <psa10 value="0.0152088664" flag="0"/>
      <psa30 value="0.0022489503" flag="0"/>
    </comp>
  </station>
  <station code="TOKT" name="TOKT" netid="KO" insttype="CMG-3T" lat="40.3173" lon="36.5443">
    <comp name="--.HHZ">
      <acc value="0.0000575950" flag="0"/>
      <vel value="0.0000040754" flag="0"/>
      <psa03 value="0.0000132463" flag="0"/>
      <psa10 value="0.0000035089" flag="0"/>
      <psa30 value="0.0000006598" flag="0"/>
    </comp>
    <comp name="--.HHE">
      <acc value="0.0223682146" flag="0"/>
      <vel value="0.0129979159" flag="0"/>
      <psa03 value="0.0358174327" flag="0"/>
      <psa10 value="0.0205567694" flag="0"/>
      <psa30 value="0.0014421035" flag="0"/>
    </comp>
    <comp name="--.HHN">
      <acc value="0.0238364752" flag="0"/>
      <vel value="0.0147670843" flag="0"/>
      <psa03 value="0.0451189042" flag="0"/>
      <psa10 value="0.0175831720" flag="0"/>
      <psa30 value="0.0020396923" flag="0"/>
    </comp>
  </station>
  <station code="YOZ" name="YOZ" netid="KO" insttype="CMG-3T" lat="39.6376" lon="35.3152">
    <comp name="--.HHN">
      <acc value="0.0507164879" flag="0"/>
      <vel value="0.0226156231" flag="0"/>
      <psa03 value="0.1816317657" flag="0"/>
      <psa10 value="0.0195753631" flag="0"/>
      <psa30 value="0.0008963403" flag="0"/>
    </comp>
    <comp name="--.HHZ">
      <acc value="0.0382502405" flag="0"/>
      <vel value="0.0138848982" flag="0"/>
      <psa03 value="0.1099286534" flag="0"/>
      <psa10 value="0.0081062966" flag="0"/>
      <psa30 value="0.0006524498" flag="0"/>
    </comp>
    <comp name="--.HHE">
      <acc value="0.0483317920" flag="0"/>
      <vel value="0.0294712546" flag="0"/>
      <psa03 value="0.1663477468" flag="0"/>
      <psa10 value="0.0254584708" flag="0"/>
      <psa30 value="0.0018296159" flag="0"/>
    </comp>
  </station>
</stationlist>
