<?xml version="1.0" encoding="UTF-8" standalone="yes"?>
<!DOCTYPE earthquake SYSTEM "stationlist.dtd">
<stationlist created="" xmlns="ch.ethz.sed.shakemap.usgs.xml">
  <station code="CAYL" name="CAYL" netid="KO" insttype="CMG-6T" lat="40.3745" lon="36.159">
    <comp name="--.HHE">
      <acc value="0.0669238944" flag="0"/>
      <vel value="0.0400466117" flag="0"/>
      <psa03 value="0.2611762724" flag="0"/>
      <psa10 value="0.0184420204" flag="0"/>
      <psa30 value="0.0011774775" flag="0"/>
    </comp>
    <comp name="--.HHZ">
      <acc value="0.0393612969" flag="0"/>
      <vel value="0.0290313087" flag="0"/>
      <psa03 value="0.1241415240" flag="0"/>
      <psa10 value="0.0217118338" flag="0"/>
      <psa30 value="0.0010337424" flag="0"/>
    </comp>
    <comp name="--.HHN">
      <acc value="0.0631338543" flag="0"/>
      <vel value="0.0385999501" flag="0"/>
      <psa03 value="0.1536096613" flag="0"/>
      <psa10 value="0.0461348041" flag="0"/>
      <psa30 value="0.0015828546" flag="0"/>
    </comp>
  </station>
  <station code="CORM" name="CORM" netid="KO" insttype="CMG-3ESP" lat="40.1785" lon="34.6302">
    <comp name="--.HHE">
      <acc value="0.0400541953" flag="0"/>
      <vel value="0.0298510356" flag="0"/>
      <psa03 value="0.1144308564" flag="0"/>
      <psa10 value="0.0360710480" flag="0"/>
      <psa30 value="0.0026579261" flag="0"/>
    </comp>
    <comp name="--.HHZ">
      <acc value="0.0657047073" flag="0"/>
      <vel value="0.0317322979" flag="0"/>
      <psa03 value="0.1571148015" flag="0"/>
      <psa10 value="0.0142413815" flag="0"/>
      <psa30 value="0.0016338734" flag="0"/>
    </comp>
    <comp name="--.HHN">
      <acc value="0.0455169728" flag="0"/>
      <vel value="0.0438021387" flag="0"/>
      <psa03 value="0.1689665983" flag="0"/>
      <psa10 value="0.0352788822" flag="0"/>
      <psa30 value="0.0034519470" flag="0"/>
    </comp>
  </station>
  <station code="DIKM" name="DIKM" netid="KO" insttype="CMG-3T" lat="41.6497" lon="35.2578">
    <comp name="--.HHN">
      <acc value="0.0358294443" flag="0"/>
      <vel value="0.0230324598" flag="0"/>
      <psa03 value="0.0860701620" flag="0"/>
      <psa10 value="0.0244945470" flag="0"/>
      <psa30 value="0.0010491213" flag="0"/>
    </comp>
    <comp name="--.HHE">
      <acc value="0.0312925565" flag="0"/>
      <vel value="0.0172106249" flag="0"/>
      <psa03 value="0.1171412794" flag="0"/>
      <psa10 value="0.0234665035" flag="0"/>
      <psa30 value="0.0019552944" flag="0"/>
    </comp>
    <comp name="--.HHZ">
      <acc value="0.0264789182" flag="0"/>
      <vel value="0.0146404377" flag="0"/>
      <psa03 value="0.0842616233" flag="0"/>
      <psa10 value="0.0196424344" flag="0"/>
      <psa30 value="0.0014681374" flag="0"/>
    </comp>
  </station>
  <station code="ERBG" name="ERBG" netid="KO" insttype="CMG-5T" lat="40.712" lon="36.6768">
    <comp name="--.HNE">
      <acc value="0.0316879808" flag="0"/>
      <vel value="0.0236271444" flag="0"/>
      <psa03 value="0.0574148585" flag="0"/>
      <psa10 value="0.0271512263" flag="0"/>
      <psa30 value="0.0018808504" flag="0"/>
    </comp>
    <comp name="--.HNZ">
      <acc value="0.0254099961" flag="0"/>
      <vel value="0.0115102728" flag="0"/>
      <psa03 value="0.0590434943" flag="0"/>
      <psa10 value="0.0127377585" flag="0"/>
      <psa30 value="0.0010254778" flag="0"/>
    </comp>
    <comp name="--.HNN">
      <acc value="0.0328924108" flag="0"/>
      <vel value="0.0171403274" flag="0"/>
      <psa03 value="0.0493471210" flag="0"/>
      <psa10 value="0.0243719120" flag="0"/>
      <psa30 value="0.0016125254" flag="0"/>
    </comp>
  </station>
  <station code="KVT" name="KVT" netid="KO" insttype="CMG-3T" lat="41.0807" lon="36.0463">
    <comp name="--.HHN">
      <acc value="0.0424789752" flag="0"/>
      <vel value="0.0242062221" flag="0"/>
      <psa03 value="0.1029250538" flag="0"/>
      <psa10 value="0.0240835331" flag="0"/>
      <psa30 value="0.0017342208" flag="0"/>
    </comp>
    <comp name="--.HHE">
      <acc value="0.0549696992" flag="0"/>
      <vel value="0.0265981731" flag="0"/>
      <psa03 value="0.0814772369" flag="0"/>
      <psa10 value="0.0265898294" flag="0"/>
      <psa30 value="0.0021763604" flag="0"/>
    </comp>
  </station>
  <station code="TOKT" name="TOKT" netid="KO" insttype="CMG-3T" lat="40.3173" lon="36.5443">
    <comp name="--.HHE">
      <acc value="0.0223682142" flag="0"/>
      <vel value="0.0129979157" flag="0"/>
      <psa03 value="0.0358174327" flag="0"/>
      <psa10 value="0.0205567694" flag="0"/>
      <psa30 value="0.0014421011" flag="0"/>
    </comp>
    <comp name="--.HHN">
      <acc value="0.0238364735" flag="0"/>
      <vel value="0.0147670843" flag="0"/>
      <psa03 value="0.0451189042" flag="0"/>
      <psa10 value="0.0175831720" flag="0"/>
      <psa30 value="0.0020396868" flag="0"/>
    </comp>
    <comp name="--.HHZ">
      <acc value="0.0000575960" flag="0"/>
      <vel value="0.0000040754" flag="0"/>
      <psa03 value="0.0000131844" flag="0"/>
      <psa10 value="0.0000035079" flag="0"/>
      <psa30 value="0.0000006618" flag="0"/>
    </comp>
  </station>
  <station code="YOZ" name="YOZ" netid="KO" insttype="CMG-3T" lat="39.6376" lon="35.3152">
    <comp name="--.HHE">
      <acc value="0.0483317924" flag="0"/>
      <vel value="0.0294712545" flag="0"/>
      <psa03 value="0.1663477468" flag="0"/>
      <psa10 value="0.0254584708" flag="0"/>
      <psa30 value="0.0018295968" flag="0"/>
    </comp>
    <comp name="--.HHN">
      <acc value="0.0507164882" flag="0"/>
      <vel value="0.0226156232" flag="0"/>
      <psa03 value="0.1816317657" flag="0"/>
      <psa10 value="0.0195753631" flag="0"/>
      <psa30 value="0.0008963424" flag="0"/>
    </comp>
    <comp name="--.HHZ">
      <acc value="0.0382502403" flag="0"/>
      <vel value="0.0138848986" flag="0"/>
      <psa03 value="0.1099286534" flag="0"/>
      <psa10 value="0.0081062966" flag="0"/>
      <psa30 value="0.0006524514" flag="0"/>
    </comp>
  </station>
</stationlist>
