<?xml version="1.0" encoding="UTF-8" standalone="yes"?>
<!DOCTYPE earthquake SYSTEM "stationlist.dtd">
<stationlist created="" xmlns="ch.ethz.sed.shakemap.usgs.xml">
  <station code="BAYT" name="BAYT" netid="KO" insttype="CMG-3ESPC" lat="40.3937" lon="40.141">
    <comp name="--.HHE">
      <acc value="0.0678745337" flag="0"/>
      <vel value="0.0327640454" flag="0"/>
      <psa03 value="0.1879366529" flag="0"/>
      <psa10 value="0.0385213871" flag="0"/>
      <psa30 value="0.0031173785" flag="0"/>
    </comp>
    <comp name="--.HHZ">
      <acc value="0.0031598398" flag="0"/>
      <vel value="0.0014354865" flag="0"/>
      <psa03 value="0.0209444817" flag="0"/>
      <psa10 value="0.0013736092" flag="0"/>
      <psa30 value="0.0001134656" flag="0"/>
    </comp>
    <comp name="--.HHN">
      <acc value="0.0289910491" flag="0"/>
      <vel value="0.0195922101" flag="0"/>
      <psa03 value="0.1439196132" flag="0"/>
      <psa10 value="0.0245685546" flag="0"/>
      <psa30 value="0.0036054366" flag="0"/>
    </comp>
  </station>
  <station code="KARO" name="KARO" netid="KO" insttype="CMG-3T" lat="39.3089" lon="41.0493">
    <comp name="--.HHN">
      <acc value="0.0558885007" flag="0"/>
      <vel value="0.0524158766" flag="0"/>
      <psa03 value="0.1050014954" flag="0"/>
      <psa10 value="0.0378208634" flag="0"/>
      <psa30 value="0.0031206849" flag="0"/>
    </comp>
    <comp name="--.HHE">
      <acc value="0.0579489783" flag="0"/>
      <vel value="0.0525156896" flag="0"/>
      <psa03 value="0.1064118035" flag="0"/>
      <psa10 value="0.0558514801" flag="0"/>
      <psa30 value="0.0040605384" flag="0"/>
    </comp>
    <comp name="--.HHZ">
      <acc value="0.0248672410" flag="0"/>
      <vel value="0.0219953311" flag="0"/>
      <psa03 value="0.0766864258" flag="0"/>
      <psa10 value="0.0202614888" flag="0"/>
      <psa30 value="0.0027535492" flag="0"/>
    </comp>
  </station>
  <station code="KOPR" name="KOPR" netid="KO" insttype="CMG-3T" lat="39.9917" lon="41.8535">
    <comp name="--.HHZ">
      <acc value="0.0135519967" flag="0"/>
      <vel value="0.0151599597" flag="0"/>
      <psa03 value="0.0410744629" flag="0"/>
      <psa10 value="0.0215942856" flag="0"/>
      <psa30 value="0.0078348952" flag="0"/>
    </comp>
    <comp name="--.HHE">
      <acc value="0.0276879213" flag="0"/>
      <vel value="0.0198589554" flag="0"/>
      <psa03 value="0.0648942165" flag="0"/>
      <psa10 value="0.0308629460" flag="0"/>
      <psa30 value="0.0084431524" flag="0"/>
    </comp>
    <comp name="--.HHN">
      <acc value="0.0396152864" flag="0"/>
      <vel value="0.0425883898" flag="0"/>
      <psa03 value="0.0705829542" flag="0"/>
      <psa10 value="0.0296919124" flag="0"/>
      <psa30 value="0.0056975020" flag="0"/>
    </comp>
  </station>
  <station code="SENK" name="SENK" netid="KO" insttype="CMG-3T" lat="40.5614" lon="42.3505">
    <comp name="--.HHZ">
      <acc value="0.0039293348" flag="0"/>
      <vel value="0.0047934645" flag="0"/>
      <psa03 value="0.0115523239" flag="0"/>
      <psa10 value="0.0114758450" flag="0"/>
      <psa30 value="0.0012399627" flag="0"/>
    </comp>
    <comp name="--.HHN">
      <acc value="0.0059250879" flag="0"/>
      <vel value="0.0085253715" flag="0"/>
      <psa03 value="0.0119548789" flag="0"/>
      <psa10 value="0.0118919182" flag="0"/>
      <psa30 value="0.0015563881" flag="0"/>
    </comp>
    <comp name="--.HHE">
      <acc value="0.0055816854" flag="0"/>
      <vel value="0.0060094173" flag="0"/>
      <psa03 value="0.0153078906" flag="0"/>
      <psa10 value="0.0159721122" flag="0"/>
      <psa30 value="0.0013781306" flag="0"/>
    </comp>
  </station>
  <station code="VRTB" name="VRTB" netid="KO" insttype="CMG-3ESPC" lat="39.1603" lon="41.4558">
    <comp name="--.HHN">
      <acc value="0.0120952220" flag="0"/>
      <vel value="0.0181679289" flag="0"/>
      <psa03 value="0.0300799982" flag="0"/>
      <psa10 value="0.0310844838" flag="0"/>
      <psa30 value="0.0087602652" flag="0"/>
    </comp>
    <comp name="--.HHZ">
      <acc value="0.0108660065" flag="0"/>
      <vel value="0.0139127196" flag="0"/>
      <psa03 value="0.0229965714" flag="0"/>
      <psa10 value="0.0271354639" flag="0"/>
      <psa30 value="0.0044312032" flag="0"/>
    </comp>
    <comp name="--.HHE">
      <acc value="0.0061962475" flag="0"/>
      <vel value="0.0082322963" flag="0"/>
      <psa03 value="0.0102034379" flag="0"/>
      <psa10 value="0.0167138833" flag="0"/>
      <psa30 value="0.0023296596" flag="0"/>
    </comp>
  </station>
  <station code="YEDI" name="YEDI" netid="KO" insttype="CMG-3T" lat="39.4377" lon="40.5443">
    <comp name="--.HHN">
      <acc value="0.0190816235" flag="0"/>
      <vel value="0.0152482679" flag="0"/>
      <psa03 value="0.0570767148" flag="0"/>
      <psa10 value="0.0165493603" flag="0"/>
      <psa30 value="0.0017711805" flag="0"/>
    </comp>
    <comp name="--.HHZ">
      <acc value="0.0000266180" flag="0"/>
      <vel value="0.0000033652" flag="0"/>
      <psa03 value="0.0000095660" flag="0"/>
      <psa10 value="0.0000033255" flag="0"/>
      <psa30 value="0.0000006270" flag="0"/>
    </comp>
  </station>
</stationlist>
