<?xml version="1.0" encoding="UTF-8" standalone="yes"?>
<!DOCTYPE earthquake SYSTEM "stationlist.dtd">
<stationlist created="" xmlns="ch.ethz.sed.shakemap.usgs.xml">
  <station code="KTHA" name="KTHA" netid="GE" insttype="STS-2/N" commtype="DIG" lat="36.2566" lon="23.0621">
    <comp name="--.HHN">
      <acc value="0.0375505058" flag="0"/>
      <vel value="0.0202250074" flag="0"/>
      <psa03 value="0.0717782416" flag="0"/>
      <psa10 value="0.0158369214" flag="0"/>
      <psa30 value="0.0034319839" flag="0"/>
    </comp>
    <comp name="--.HHE">
      <acc value="0.0467137396" flag="0"/>
      <vel value="0.0266419220" flag="0"/>
      <psa03 value="0.1134749742" flag="0"/>
      <psa10 value="0.0288562246" flag="0"/>
      <psa30 value="0.0032235903" flag="0"/>
    </comp>
    <comp name="--.HHZ">
      <acc value="0.0229726992" flag="0"/>
      <vel value="0.0108028461" flag="0"/>
      <psa03 value="0.0430305721" flag="0"/>
      <psa10 value="0.0117339725" flag="0"/>
      <psa30 value="0.0021579900" flag="0"/>
    </comp>
  </station>
</stationlist>
