<stationlist created="1778138831">
	<station code="BLY" name="BLY" netid="MN" source="Mediterranean Very Broadband Seismographic Network (MedNet)" insttype="" lat="44.7488" lon="17.1839">
		<comp name="--.HNE" depth="1.0">
			<acc value="0.00308724181513938" flag="0"/>
			<vel value="0.00220087630822883" flag="0"/>
			<psa03 value="0.0106701716902484" flag="0"/>
			<psa10 value="0.00369760338557873" flag="0"/>
			<psa30 value="0.000150373607347018" flag="0"/>
		</comp>
		<comp name="--.HNN" depth="1.0">
			<acc value="0.00193293398620823" flag="0"/>
			<vel value="0.00132853890603758" flag="0"/>
			<psa03 value="0.00667377999580449" flag="0"/>
			<psa10 value="0.00127920212367374" flag="0"/>
			<psa30 value="0.000140845866805629" flag="0"/>
		</comp>
		<comp name="--.HNZ" depth="1.0">
			<acc value="0.00163712704482451" flag="0"/>
			<vel value="0.000759086950108447" flag="0"/>
			<psa03 value="0.00484915456601809" flag="0"/>
			<psa10 value="0.00126978267155679" flag="0"/>
			<psa30 value="0.000112609725466837" flag="0"/>
		</comp>
	</station>
</stationlist>
