<?xml version="1.0" encoding="UTF-8" standalone="yes"?>
<!DOCTYPE earthquake SYSTEM "stationlist.dtd">
<stationlist created="" xmlns="ch.ethz.sed.shakemap.usgs.xml">
  <station code="PDG" name="PDG" netid="MN" insttype="" lat="42.4297" lon="19.2608">
    <comp name="--.HHN">
      <acc value="0.0063004858" flag="0"/>
      <vel value="0.0038569037" flag="0"/>
      <psa03 value="0.0136185231" flag="0"/>
      <psa10 value="0.0031984354" flag="0"/>
      <psa30 value="0.0004129993" flag="0"/>
    </comp>
    <comp name="--.HHZ">
      <acc value="0.0042138148" flag="0"/>
      <vel value="0.0025054556" flag="0"/>
      <psa03 value="0.0115664601" flag="0"/>
      <psa10 value="0.0036647410" flag="0"/>
      <psa30 value="0.0001906508" flag="0"/>
    </comp>
    <comp name="--.HHE">
      <acc value="0.0059320770" flag="0"/>
      <vel value="0.0028272026" flag="0"/>
      <psa03 value="0.0174443383" flag="0"/>
      <psa10 value="0.0032856455" flag="0"/>
      <psa30 value="0.0002538417" flag="0"/>
    </comp>
  </station>
</stationlist>
