<?xml version="1.0" encoding="UTF-8" standalone="yes"?>
<!DOCTYPE earthquake SYSTEM "stationlist.dtd">
<stationlist created="" xmlns="ch.ethz.sed.shakemap.usgs.xml">
  <station code="ZKR" name="ZKR" netid="GE" insttype="STS-2/N" lat="35.1147" lon="26.2169">
    <comp name="--.HHN">
      <acc value="0.0032028538" flag="0"/>
      <vel value="0.0020074725" flag="0"/>
      <psa03 value="0.0100078545" flag="0"/>
      <psa10 value="0.0017145938" flag="0"/>
      <psa30 value="0.0002425124" flag="0"/>
    </comp>
    <comp name="--.HHE">
      <acc value="0.0052247505" flag="0"/>
      <vel value="0.0036706910" flag="0"/>
      <psa03 value="0.0148772069" flag="0"/>
      <psa10 value="0.0071404327" flag="0"/>
      <psa30 value="0.0004200700" flag="0"/>
    </comp>
    <comp name="--.HHZ">
      <acc value="0.0028464790" flag="0"/>
      <vel value="0.0021426891" flag="0"/>
      <psa03 value="0.0061074990" flag="0"/>
      <psa10 value="0.0028880137" flag="0"/>
      <psa30 value="0.0002891183" flag="0"/>
    </comp>
  </station>
  <station code="ZKR" name="ZKR" netid="HL" insttype="120" lat="35.1147" lon="26.2169">
    <comp name="--.HHE">
      <acc value="0.0050946940" flag="0"/>
      <vel value="0.0036296267" flag="0"/>
      <psa03 value="0.0145015692" flag="0"/>
      <psa10 value="0.0070904924" flag="0"/>
      <psa30 value="0.0004191291" flag="0"/>
    </comp>
    <comp name="--.HHN">
      <acc value="0.0031548515" flag="0"/>
      <vel value="0.0019905026" flag="0"/>
      <psa03 value="0.0097400373" flag="0"/>
      <psa10 value="0.0016964777" flag="0"/>
      <psa30 value="0.0002425734" flag="0"/>
    </comp>
    <comp name="--.HHZ">
      <acc value="0.0028373780" flag="0"/>
      <vel value="0.0021194000" flag="0"/>
      <psa03 value="0.0059279132" flag="0"/>
      <psa10 value="0.0028742901" flag="0"/>
      <psa30 value="0.0002879788" flag="0"/>
    </comp>
  </station>
</stationlist>
