<stationlist created="1778136239">
	<station code="S2114" name="S2114" netid="S2" source="IceSMN Icelandic Strong Motion Network (IceSMN)" insttype="" lat="63.7515" lon="-20.2168">
		<comp name="00.HN1" depth="0.0">
			<acc value="0.335147079437186" flag="0"/>
			<vel value="0.121304297626121" flag="0"/>
			<psa03 value="0.640881788604897" flag="0"/>
			<psa10 value="0.0628226316908385" flag="0"/>
			<psa30 value="0.0111733368454072" flag="0"/>
		</comp>
		<comp name="00.HN2" depth="0.0">
			<acc value="0.47466844618389" flag="0"/>
			<vel value="0.166460273132338" flag="0"/>
			<psa03 value="0.460180943063621" flag="0"/>
			<psa10 value="0.103305610989778" flag="0"/>
			<psa30 value="0.0062757644885957" flag="0"/>
		</comp>
		<comp name="00.HNZ" depth="0.0">
			<acc value="0.133135847406899" flag="0"/>
			<vel value="0.0456494836174699" flag="0"/>
			<psa03 value="0.191673447425404" flag="0"/>
			<psa10 value="0.0487487181131517" flag="0"/>
			<psa30 value="0.00897922399616973" flag="0"/>
		</comp>
	</station>
	<station code="S2119" name="S2119" netid="S2" source="IceSMN Icelandic Strong Motion Network (IceSMN)" insttype="" lat="64.1301" lon="-20.32">
		<comp name="00.HN1" depth="0.0">
			<acc value="0.097771289161734" flag="0"/>
			<vel value="0.0701490721169077" flag="0"/>
			<psa03 value="0.406962000901953" flag="0"/>
			<psa10 value="0.0551709660559096" flag="0"/>
			<psa30 value="0.0127605794924226" flag="0"/>
		</comp>
		<comp name="00.HN2" depth="0.0">
			<acc value="0.0930864389252081" flag="0"/>
			<vel value="0.0959490851640237" flag="0"/>
			<psa03 value="0.197385534156411" flag="0"/>
			<psa10 value="0.0953082662049603" flag="0"/>
			<psa30 value="0.00916735145869214" flag="0"/>
		</comp>
		<comp name="00.HNZ" depth="0.0">
			<acc value="0.070933836273827" flag="0"/>
			<vel value="0.0331771783126961" flag="0"/>
			<psa03 value="0.0964970382884723" flag="0"/>
			<psa10 value="0.0388894574857081" flag="0"/>
			<psa30 value="0.00846529995126243" flag="0"/>
		</comp>
	</station>
	<station code="S2405" name="S2405" netid="S2" source="IceSMN Icelandic Strong Motion Network (IceSMN)" insttype="" lat="64.0447" lon="-21.9848">
		<comp name="00.HN1" depth="0.0">
			<acc value="5.55799323751316" flag="0"/>
			<vel value="2.95420742433004" flag="0"/>
			<psa03 value="12.1799615293328" flag="0"/>
			<psa10 value="1.39302696119817" flag="0"/>
			<psa30 value="0.17309431998268" flag="0"/>
		</comp>
		<comp name="00.HN2" depth="0.0">
			<acc value="2.47070387060485" flag="0"/>
			<vel value="1.31123827653979" flag="0"/>
			<psa03 value="4.58453370288009" flag="0"/>
			<psa10 value="1.34185965161564" flag="0"/>
			<psa30 value="0.0752307836700159" flag="0"/>
		</comp>
		<comp name="00.HNZ" depth="0.0">
			<acc value="2.01055260975973" flag="0"/>
			<vel value="0.562686113234387" flag="0"/>
			<psa03 value="2.5151259480857" flag="0"/>
			<psa10 value="0.324935505382357" flag="0"/>
			<psa30 value="0.0463619979214673" flag="0"/>
		</comp>
	</station>
	<station code="S2602" name="S2602" netid="S2" source="IceSMN Icelandic Strong Motion Network (IceSMN)" insttype="" lat="63.8464" lon="-22.4268">
		<comp name="00.HN1" depth="0.0">
			<acc value="0.232314763837547" flag="0"/>
			<vel value="0.264981974520981" flag="0"/>
			<psa03 value="0.493946429860636" flag="0"/>
			<psa10 value="0.484933404456568" flag="0"/>
			<psa30 value="0.0942672714109207" flag="0"/>
		</comp>
		<comp name="00.HN2" depth="0.0">
			<acc value="0.353471297180035" flag="0"/>
			<vel value="0.247307949146213" flag="0"/>
			<psa03 value="0.972185819205397" flag="0"/>
			<psa10 value="0.20597315471051" flag="0"/>
			<psa30 value="0.0904132027642977" flag="0"/>
		</comp>
		<comp name="00.HNZ" depth="0.0">
			<acc value="0.178491229988424" flag="0"/>
			<vel value="0.118361168713003" flag="0"/>
			<psa03 value="0.287745540896519" flag="0"/>
			<psa10 value="0.154589080768052" flag="0"/>
			<psa30 value="0.0321705044713786" flag="0"/>
		</comp>
	</station>
	<station code="S2604" name="S2604" netid="S2" source="IceSMN Icelandic Strong Motion Network (IceSMN)" insttype="" lat="63.9843" lon="-21.6486">
		<comp name="00.HN1" depth="0.0">
			<acc value="2.293200850341" flag="0"/>
			<vel value="1.04802229760198" flag="0"/>
			<psa03 value="3.86746953420963" flag="0"/>
			<psa10 value="1.35477694732372" flag="0"/>
			<psa30 value="0.14712601304317" flag="0"/>
		</comp>
		<comp name="00.HN2" depth="0.0">
			<acc value="1.70283801908272" flag="0"/>
			<vel value="0.561275278953262" flag="0"/>
			<psa03 value="2.16444021687737" flag="0"/>
			<psa10 value="0.908016151613655" flag="0"/>
			<psa30 value="0.0662349744084489" flag="0"/>
		</comp>
		<comp name="00.HNZ" depth="0.0">
			<acc value="1.46148608572832" flag="0"/>
			<vel value="0.451446316254945" flag="0"/>
			<psa03 value="2.4155526851791" flag="0"/>
			<psa10 value="0.480189040168515" flag="0"/>
			<psa30 value="0.0467440132282561" flag="0"/>
		</comp>
	</station>
</stationlist>
