<?xml version="1.0" encoding="UTF-8" standalone="yes"?>
<!DOCTYPE earthquake SYSTEM "stationlist.dtd">
<stationlist created="" xmlns="ch.ethz.sed.shakemap.usgs.xml">
  <station code="GOD" name="GOD" netid="VI" source="ODC" insttype="CMG-3ESP" lat="63.6598" lon="-19.3224">
    <comp name="--.HHN">
      <acc value="0.0825733250" flag="0"/>
      <vel value="0.0628099868" flag="0"/>
      <psa03 value="0.1655540175" flag="0"/>
      <psa10 value="0.1296766626" flag="0"/>
      <psa30 value="0.0157262419" flag="0"/>
    </comp>
    <comp name="--.HHE">
      <acc value="0.0809887975" flag="0"/>
      <vel value="0.0352695866" flag="0"/>
      <psa03 value="0.1053505882" flag="0"/>
      <psa10 value="0.0596625823" flag="0"/>
      <psa30 value="0.0141003785" flag="0"/>
    </comp>
    <comp name="--.HHZ">
      <acc value="0.0691205271" flag="0"/>
      <vel value="0.0250855011" flag="0"/>
      <psa03 value="0.0989483023" flag="0"/>
      <psa10 value="0.0503718462" flag="0"/>
      <psa30 value="0.0056447071" flag="0"/>
    </comp>
  </station>
</stationlist>
