<?xml version="1.0" encoding="UTF-8" standalone="yes"?>
<!DOCTYPE earthquake SYSTEM "stationlist.dtd">
<stationlist created="" xmlns="ch.ethz.sed.shakemap.usgs.xml">
  <station code="ARPRA" name="ARPRA" netid="KO" insttype="CMG-5T" lat="39.0929" lon="38.3356">
    <comp name="--.HNZ">
      <acc value="0.0300994823" flag="0"/>
      <vel value="0.0285271533" flag="0"/>
      <psa03 value="0.1014355213" flag="0"/>
      <psa10 value="0.0471587407" flag="0"/>
      <psa30 value="0.0040536893" flag="0"/>
    </comp>
    <comp name="--.HNE">
      <acc value="0.0871782938" flag="0"/>
      <vel value="0.0493224933" flag="0"/>
      <psa03 value="0.2518238644" flag="0"/>
      <psa10 value="0.0647980410" flag="0"/>
      <psa30 value="0.0066899080" flag="0"/>
    </comp>
    <comp name="--.HNN">
      <acc value="0.0601180264" flag="0"/>
      <vel value="0.0442009182" flag="0"/>
      <psa03 value="0.1609311467" flag="0"/>
      <psa10 value="0.0831443780" flag="0"/>
      <psa30 value="0.0056195931" flag="0"/>
    </comp>
  </station>
  <station code="DYBB" name="DYBB" netid="KO" insttype="CMG-3T" lat="37.9532" lon="40.1393">
    <comp name="--.HHE">
      <acc value="0.1290067364" flag="0"/>
      <vel value="0.0819422167" flag="0"/>
      <psa03 value="0.2328219835" flag="0"/>
      <psa10 value="0.0983539595" flag="0"/>
      <psa30 value="0.0253087745" flag="0"/>
    </comp>
    <comp name="--.HHN">
      <acc value="0.2303907907" flag="0"/>
      <vel value="0.0766723955" flag="0"/>
      <psa03 value="0.5588089591" flag="0"/>
      <psa10 value="0.1334476665" flag="0"/>
      <psa30 value="0.0222292212" flag="0"/>
    </comp>
    <comp name="--.HHZ">
      <acc value="0.0967027231" flag="0"/>
      <vel value="0.0437983496" flag="0"/>
      <psa03 value="0.1267417985" flag="0"/>
      <psa10 value="0.0937062948" flag="0"/>
      <psa30 value="0.0167487735" flag="0"/>
    </comp>
  </station>
  <station code="ERZN" name="ERZN" netid="KO" insttype="CMG-3ESP" lat="39.5867" lon="39.722">
    <comp name="--.HHE">
      <acc value="0.0512874492" flag="0"/>
      <vel value="0.0355637538" flag="0"/>
      <psa03 value="0.1353549169" flag="0"/>
      <psa10 value="0.0508555405" flag="0"/>
      <psa30 value="0.0060016588" flag="0"/>
    </comp>
    <comp name="--.HHN">
      <acc value="0.0456972991" flag="0"/>
      <vel value="0.0317558211" flag="0"/>
      <psa03 value="0.1070509647" flag="0"/>
      <psa10 value="0.0492693170" flag="0"/>
      <psa30 value="0.0038407744" flag="0"/>
    </comp>
    <comp name="--.HHZ">
      <acc value="0.0248969695" flag="0"/>
      <vel value="0.0169930088" flag="0"/>
      <psa03 value="0.0738829805" flag="0"/>
      <psa10 value="0.0215530254" flag="0"/>
      <psa30 value="0.0046548391" flag="0"/>
    </comp>
  </station>
  <station code="KARO" name="KARO" netid="KO" insttype="CMG-3T" lat="39.3089" lon="41.0493">
    <comp name="--.HHE">
      <acc value="0.0902259381" flag="0"/>
      <vel value="0.1233193327" flag="0"/>
      <psa03 value="0.1420404239" flag="0"/>
      <psa10 value="0.1702568046" flag="0"/>
      <psa30 value="0.0165194636" flag="0"/>
    </comp>
    <comp name="--.HHZ">
      <acc value="0.0263667530" flag="0"/>
      <vel value="0.0238758098" flag="0"/>
      <psa03 value="0.0897834456" flag="0"/>
      <psa10 value="0.0480560818" flag="0"/>
      <psa30 value="0.0076272929" flag="0"/>
    </comp>
    <comp name="--.HHN">
      <acc value="0.0511592826" flag="0"/>
      <vel value="0.0666241927" flag="0"/>
      <psa03 value="0.0940308110" flag="0"/>
      <psa10 value="0.1262398197" flag="0"/>
      <psa30 value="0.0123751052" flag="0"/>
    </comp>
  </station>
  <station code="MAZI" name="MAZI" netid="KO" insttype="CMG-3T" lat="37.4593" lon="40.4465">
    <comp name="--.HHN">
      <acc value="0.3411341563" flag="0"/>
      <vel value="0.2689788641" flag="0"/>
      <psa03 value="1.0501550047" flag="0"/>
      <psa10 value="0.1822824178" flag="0"/>
      <psa30 value="0.0186302505" flag="0"/>
    </comp>
    <comp name="--.HHE">
      <acc value="0.3524075594" flag="0"/>
      <vel value="0.1801178446" flag="0"/>
      <psa03 value="0.8808496192" flag="0"/>
      <psa10 value="0.1431371991" flag="0"/>
      <psa30 value="0.0131364359" flag="0"/>
    </comp>
    <comp name="--.HHZ">
      <acc value="0.3591952759" flag="0"/>
      <vel value="0.1534426895" flag="0"/>
      <psa03 value="0.6582446215" flag="0"/>
      <psa10 value="0.1086498065" flag="0"/>
      <psa30 value="0.0069279777" flag="0"/>
    </comp>
  </station>
  <station code="SINE" name="SINE" netid="KO" insttype="CMG-6T" lat="39.1636" lon="39.3871">
    <comp name="--.HHZ">
      <acc value="0.1602948142" flag="0"/>
      <vel value="0.0949848692" flag="0"/>
      <psa03 value="0.3796627985" flag="0"/>
      <psa10 value="0.0626086664" flag="0"/>
      <psa30 value="0.0037523604" flag="0"/>
    </comp>
    <comp name="--.HHE">
      <acc value="0.1727135269" flag="0"/>
      <vel value="0.1026288005" flag="0"/>
      <psa03 value="0.4117031281" flag="0"/>
      <psa10 value="0.0323103910" flag="0"/>
      <psa30 value="0.0029259181" flag="0"/>
    </comp>
    <comp name="--.HHN">
      <acc value="0.2143146674" flag="0"/>
      <vel value="0.1038133205" flag="0"/>
      <psa03 value="0.5114919308" flag="0"/>
      <psa10 value="0.0512644795" flag="0"/>
      <psa30 value="0.0037319885" flag="0"/>
    </comp>
  </station>
  <station code="YEDI" name="YEDI" netid="KO" insttype="CMG-3T" lat="39.4377" lon="40.5443">
    <comp name="--.HHE">
      <acc value="0.0257463051" flag="0"/>
      <vel value="0.0213351496" flag="0"/>
      <psa03 value="0.0700407487" flag="0"/>
      <psa10 value="0.0456238869" flag="0"/>
      <psa30 value="0.0052867992" flag="0"/>
    </comp>
    <comp name="--.HHZ">
      <acc value="0.0000270169" flag="0"/>
      <vel value="0.0000026115" flag="0"/>
      <psa03 value="0.0000089936" flag="0"/>
      <psa10 value="0.0000034127" flag="0"/>
      <psa30 value="0.0000005255" flag="0"/>
    </comp>
  </station>
</stationlist>
