<?xml version="1.0" encoding="UTF-8" standalone="yes"?>
<!DOCTYPE earthquake SYSTEM "stationlist.dtd">
<stationlist created="" xmlns="ch.ethz.sed.shakemap.usgs.xml">
  <station code="CEYT" name="CEYT" netid="KO" insttype="CMG-3ESP" lat="37.0105" lon="35.7478">
    <comp name="--.HHN">
      <acc value="0.0935810653" flag="0"/>
      <vel value="0.0495469057" flag="0"/>
      <psa03 value="0.2653946824" flag="0"/>
      <psa10 value="0.0606577158" flag="0"/>
      <psa30 value="0.0094416050" flag="0"/>
    </comp>
    <comp name="--.HHZ">
      <acc value="0.0947055225" flag="0"/>
      <vel value="0.0384089394" flag="0"/>
      <psa03 value="0.2111216388" flag="0"/>
      <psa10 value="0.0477355702" flag="0"/>
      <psa30 value="0.0064293174" flag="0"/>
    </comp>
    <comp name="--.HHE">
      <acc value="0.1201926425" flag="0"/>
      <vel value="0.0635395459" flag="0"/>
      <psa03 value="0.4916537499" flag="0"/>
      <psa10 value="0.0748374253" flag="0"/>
      <psa30 value="0.0151562847" flag="0"/>
    </comp>
  </station>
  <station code="CMRD" name="CMRD" netid="KO" insttype="CMG-5T" lat="37.6623" lon="34.9902">
    <comp name="--.HNE">
      <acc value="0.0090511822" flag="0"/>
      <vel value="0.0053187809" flag="0"/>
      <psa03 value="0.0256142573" flag="0"/>
      <psa10 value="0.0070932090" flag="0"/>
      <psa30 value="0.0011683114" flag="0"/>
    </comp>
    <comp name="--.HNN">
      <acc value="0.0131254374" flag="0"/>
      <vel value="0.0067732394" flag="0"/>
      <psa03 value="0.0462561652" flag="0"/>
      <psa10 value="0.0078388572" flag="0"/>
      <psa30 value="0.0009822188" flag="0"/>
    </comp>
    <comp name="--.HNZ">
      <acc value="0.0081449382" flag="0"/>
      <vel value="0.0045823927" flag="0"/>
      <psa03 value="0.0215137771" flag="0"/>
      <psa10 value="0.0078158595" flag="0"/>
      <psa30 value="0.0013563332" flag="0"/>
    </comp>
  </station>
  <station code="GAZ" name="GAZ" netid="KO" insttype="CMG-3T" lat="37.1721" lon="37.2096">
    <comp name="--.HHE">
      <acc value="0.0522175457" flag="0"/>
      <vel value="0.0281794659" flag="0"/>
      <psa03 value="0.0981567161" flag="0"/>
      <psa10 value="0.0278312271" flag="0"/>
      <psa30 value="0.0043124543" flag="0"/>
    </comp>
    <comp name="--.HHZ">
      <acc value="0.0396182457" flag="0"/>
      <vel value="0.0230236077" flag="0"/>
      <psa03 value="0.0732485467" flag="0"/>
      <psa10 value="0.0217752602" flag="0"/>
      <psa30 value="0.0035039339" flag="0"/>
    </comp>
    <comp name="--.HHN">
      <acc value="0.0513811072" flag="0"/>
      <vel value="0.0315668034" flag="0"/>
      <psa03 value="0.1306308714" flag="0"/>
      <psa10 value="0.0293537581" flag="0"/>
      <psa30 value="0.0055469176" flag="0"/>
    </comp>
  </station>
  <station code="KRTS" name="KRTS" netid="KO" insttype="CMG-5T" lat="36.573" lon="35.375">
    <comp name="--.HNE">
      <acc value="0.0636189975" flag="0"/>
      <vel value="0.0483163397" flag="0"/>
      <psa03 value="0.2738038884" flag="0"/>
      <psa10 value="0.0503488691" flag="0"/>
      <psa30 value="0.0089076727" flag="0"/>
    </comp>
    <comp name="--.HNN">
      <acc value="0.0985672624" flag="0"/>
      <vel value="0.0550291868" flag="0"/>
      <psa03 value="0.3390527777" flag="0"/>
      <psa10 value="0.0472135896" flag="0"/>
      <psa30 value="0.0072289634" flag="0"/>
    </comp>
    <comp name="--.HNZ">
      <acc value="0.0682796523" flag="0"/>
      <vel value="0.0392354330" flag="0"/>
      <psa03 value="0.3099112051" flag="0"/>
      <psa10 value="0.0456123663" flag="0"/>
      <psa30 value="0.0079843705" flag="0"/>
    </comp>
  </station>
  <station code="MERS" name="MERS" netid="KO" insttype="CMG-3T" lat="36.8678" lon="34.522">
    <comp name="--.HHZ">
      <acc value="0.0155255220" flag="0"/>
      <vel value="0.0142256764" flag="0"/>
      <psa03 value="0.0320567072" flag="0"/>
      <psa10 value="0.0161176255" flag="0"/>
      <psa30 value="0.0030095161" flag="0"/>
    </comp>
    <comp name="--.HHE">
      <acc value="0.0357978318" flag="0"/>
      <vel value="0.0250781467" flag="0"/>
      <psa03 value="0.1086777309" flag="0"/>
      <psa10 value="0.0211200515" flag="0"/>
      <psa30 value="0.0019608511" flag="0"/>
    </comp>
  </station>
  <station code="ANDN" name="ANDN" netid="TU" insttype="T" lat="37.58" lon="36.3452">
    <comp name="--.HHN">
      <acc value="0.1006845260" flag="0"/>
      <vel value="0.0415626855" flag="0"/>
      <psa03 value="0.2092634058" flag="0"/>
      <psa10 value="0.0421453162" flag="0"/>
      <psa30 value="0.0033590325" flag="0"/>
    </comp>
    <comp name="--.HHE">
      <acc value="0.0818039627" flag="0"/>
      <vel value="0.0475222820" flag="0"/>
      <psa03 value="0.2090381070" flag="0"/>
      <psa10 value="0.0420120058" flag="0"/>
      <psa30 value="0.0051757445" flag="0"/>
    </comp>
    <comp name="--.HHZ">
      <acc value="0.0460455993" flag="0"/>
      <vel value="0.0225407672" flag="0"/>
      <psa03 value="0.0736039264" flag="0"/>
      <psa10 value="0.0469445783" flag="0"/>
      <psa30 value="0.0034766885" flag="0"/>
    </comp>
  </station>
</stationlist>
