<?xml version="1.0" encoding="UTF-8" standalone="yes"?>
<!DOCTYPE earthquake SYSTEM "stationlist.dtd">
<stationlist created="" xmlns="ch.ethz.sed.shakemap.usgs.xml">
  <station code="VANB" name="VANB" netid="KO" insttype="360s," lat="38.509" lon="43.4058">
    <comp name="--.HHE">
      <acc value="0.0000500145" flag="0"/>
      <vel value="0.0000141124" flag="0"/>
      <psa03 value="0.0000360321" flag="0"/>
      <psa10 value="0.0000242104" flag="0"/>
      <psa30 value="0.0000017342" flag="0"/>
    </comp>
    <comp name="--.HHZ">
      <acc value="0.0070765715" flag="0"/>
      <vel value="0.0094102215" flag="0"/>
      <psa03 value="0.0127035635" flag="0"/>
      <psa10 value="0.0175505854" flag="0"/>
      <psa30 value="0.0022730066" flag="0"/>
    </comp>
    <comp name="--.HHN">
      <acc value="0.0108557345" flag="0"/>
      <vel value="0.0137356541" flag="0"/>
      <psa03 value="0.0170600523" flag="0"/>
      <psa10 value="0.0320573516" flag="0"/>
      <psa30 value="0.0017518344" flag="0"/>
    </comp>
  </station>
</stationlist>
