<?xml version="1.0" encoding="UTF-8" standalone="yes"?>
<!DOCTYPE earthquake SYSTEM "stationlist.dtd">
<stationlist created="" xmlns="ch.ethz.sed.shakemap.usgs.xml">
  <station code="FOCM" name="FOCM" netid="KO" insttype="CMG-5T" lat="38.7131" lon="26.7309">
    <comp name="--.HNZ">
      <acc value="0.0190112448" flag="0"/>
      <vel value="0.0054519029" flag="0"/>
      <psa03 value="0.0267959101" flag="0"/>
      <psa10 value="0.0051048547" flag="0"/>
      <psa30 value="0.0004882063" flag="0"/>
    </comp>
    <comp name="--.HNE">
      <acc value="0.0345210074" flag="0"/>
      <vel value="0.0267203052" flag="0"/>
      <psa03 value="0.0973786576" flag="0"/>
      <psa10 value="0.0172420300" flag="0"/>
      <psa30 value="0.0013517271" flag="0"/>
    </comp>
    <comp name="--.HNN">
      <acc value="0.0437224939" flag="0"/>
      <vel value="0.0156208801" flag="0"/>
      <psa03 value="0.0700455222" flag="0"/>
      <psa10 value="0.0119976765" flag="0"/>
      <psa30 value="0.0007267363" flag="0"/>
    </comp>
  </station>
  <station code="KRBN" name="KRBN" netid="KO" insttype="CMG-5T" lat="38.5936" lon="26.5537">
    <comp name="--.HNE">
      <acc value="0.0590639021" flag="0"/>
      <vel value="0.0263431164" flag="0"/>
      <psa03 value="0.0698900868" flag="0"/>
      <psa10 value="0.0279437374" flag="0"/>
      <psa30 value="0.0015260580" flag="0"/>
    </comp>
    <comp name="--.HNZ">
      <acc value="0.0361106604" flag="0"/>
      <vel value="0.0199481087" flag="0"/>
      <psa03 value="0.0632048265" flag="0"/>
      <psa10 value="0.0229586374" flag="0"/>
      <psa30 value="0.0015925162" flag="0"/>
    </comp>
    <comp name="--.HNN">
      <acc value="0.0685691250" flag="0"/>
      <vel value="0.0349751745" flag="0"/>
      <psa03 value="0.1216119606" flag="0"/>
      <psa10 value="0.0207615580" flag="0"/>
      <psa30 value="0.0012701084" flag="0"/>
    </comp>
  </station>
</stationlist>
