<?xml version="1.0" encoding="UTF-8" standalone="yes"?>
<!DOCTYPE earthquake SYSTEM "stationlist.dtd">
<stationlist created="" xmlns="ch.ethz.sed.shakemap.usgs.xml">
  <station code="KARY" name="KARY" netid="HA" insttype="60" lat="38.0321" lon="24.437">
    <comp name="--.HHE">
      <acc value="0.0122432841" flag="0"/>
      <vel value="0.0104077342" flag="0"/>
      <psa03 value="0.0194876619" flag="0"/>
      <psa10 value="0.0099004912" flag="0"/>
      <psa30 value="0.0010150481" flag="0"/>
    </comp>
    <comp name="--.HHN">
      <acc value="0.0119930949" flag="0"/>
      <vel value="0.0057862104" flag="0"/>
      <psa03 value="0.0255065411" flag="0"/>
      <psa10 value="0.0050564259" flag="0"/>
      <psa30 value="0.0011038817" flag="0"/>
    </comp>
    <comp name="--.HHZ">
      <acc value="0.0112074867" flag="0"/>
      <vel value="0.0055163107" flag="0"/>
      <psa03 value="0.0226094116" flag="0"/>
      <psa10 value="0.0063034306" flag="0"/>
      <psa30 value="0.0004768131" flag="0"/>
    </comp>
  </station>
  <station code="THNO" name="THNO" netid="HC" insttype="60" lat="37.6541" lon="25.0221">
    <comp name="--.HHE">
      <acc value="0.0211127655" flag="0"/>
      <vel value="0.0102143565" flag="0"/>
      <psa03 value="0.0233299480" flag="0"/>
      <psa10 value="0.0106295992" flag="0"/>
      <psa30 value="0.0012380008" flag="0"/>
    </comp>
    <comp name="--.HHN">
      <acc value="0.0000000000" flag="0"/>
      <vel value="-100.0000000000" flag="0"/>
      <psa03 value="0.0000000000" flag="0"/>
      <psa10 value="0.0000000000" flag="0"/>
      <psa30 value="0.0000000000" flag="0"/>
    </comp>
    <comp name="--.HHZ">
      <acc value="0.0146048715" flag="0"/>
      <vel value="0.0071046770" flag="0"/>
      <psa03 value="0.0251647393" flag="0"/>
      <psa10 value="0.0089785804" flag="0"/>
      <psa30 value="0.0006302267" flag="0"/>
    </comp>
  </station>
  <station code="MYT1" name="MYT1" netid="HI" insttype="CMG-5TD,ACCELEROMETER,GURALP" lat="39.085" lon="26.5694">
    <comp name="--.HNE">
      <acc value="0.0317641740" flag="0"/>
      <vel value="0.0258267818" flag="0"/>
      <psa03 value="0.1046219268" flag="0"/>
      <psa10 value="0.0295104990" flag="0"/>
      <psa30 value="0.0021642315" flag="0"/>
    </comp>
    <comp name="--.HNN">
      <acc value="0.0184305076" flag="0"/>
      <vel value="0.0147267634" flag="0"/>
      <psa03 value="0.0744768443" flag="0"/>
      <psa10 value="0.0355393704" flag="0"/>
      <psa30 value="0.0026395374" flag="0"/>
    </comp>
    <comp name="--.HNZ">
      <acc value="0.0296463690" flag="0"/>
      <vel value="0.0189409070" flag="0"/>
      <psa03 value="0.0882845400" flag="0"/>
      <psa10 value="0.0169147035" flag="0"/>
      <psa30 value="0.0016438524" flag="0"/>
    </comp>
  </station>
  <station code="SKY1" name="SKY1" netid="HI" insttype="CMG-5TD,ACCELEROMETER,GURALP" lat="38.9045" lon="24.5646">
    <comp name="--.HNE">
      <acc value="0.0285059688" flag="0"/>
      <vel value="0.0170604646" flag="0"/>
      <psa03 value="0.0767737343" flag="0"/>
      <psa10 value="0.0105119487" flag="0"/>
      <psa30 value="0.0007156104" flag="0"/>
    </comp>
    <comp name="--.HNN">
      <acc value="0.0228890329" flag="0"/>
      <vel value="0.0156505764" flag="0"/>
      <psa03 value="0.0719010284" flag="0"/>
      <psa10 value="0.0156911966" flag="0"/>
      <psa30 value="0.0008275959" flag="0"/>
    </comp>
    <comp name="--.HNZ">
      <acc value="0.0105842907" flag="0"/>
      <vel value="0.0062891202" flag="0"/>
      <psa03 value="0.0355968691" flag="0"/>
      <psa10 value="0.0049483566" flag="0"/>
      <psa30 value="0.0003974380" flag="0"/>
    </comp>
  </station>
  <station code="EFSA" name="EFSA" netid="HL" insttype="CMG-5" lat="39.5401" lon="24.9886">
    <comp name="00.HNE">
      <acc value="0.0374268542" flag="0"/>
      <vel value="0.0336867520" flag="0"/>
      <psa03 value="0.1229588177" flag="0"/>
      <psa10 value="0.0224532268" flag="0"/>
      <psa30 value="0.0036204311" flag="0"/>
    </comp>
    <comp name="00.HNZ">
      <acc value="0.0206862355" flag="0"/>
      <vel value="0.0172716833" flag="0"/>
      <psa03 value="0.0526770297" flag="0"/>
      <psa10 value="0.0156799657" flag="0"/>
      <psa30 value="0.0011647799" flag="0"/>
    </comp>
    <comp name="00.HNN">
      <acc value="0.0356572681" flag="0"/>
      <vel value="0.0278022383" flag="0"/>
      <psa03 value="0.1178557029" flag="0"/>
      <psa10 value="0.0303426843" flag="0"/>
      <psa30 value="0.0038188229" flag="0"/>
    </comp>
  </station>
  <station code="PRK" name="PRK" netid="HL" insttype="120" lat="39.2456" lon="26.265">
    <comp name="--.HHN">
      <acc value="0.0521021354" flag="0"/>
      <vel value="0.0285768150" flag="0"/>
      <psa03 value="0.1618331802" flag="0"/>
      <psa10 value="0.0310486617" flag="0"/>
      <psa30 value="0.0021598303" flag="0"/>
    </comp>
    <comp name="--.HHZ">
      <acc value="0.0433749441" flag="0"/>
      <vel value="0.0237927560" flag="0"/>
      <psa03 value="0.1101010555" flag="0"/>
      <psa10 value="0.0142303417" flag="0"/>
      <psa30 value="0.0010102456" flag="0"/>
    </comp>
    <comp name="--.HHE">
      <acc value="0.0530405056" flag="0"/>
      <vel value="0.0254238441" flag="0"/>
      <psa03 value="0.1252890962" flag="0"/>
      <psa10 value="0.0376826054" flag="0"/>
      <psa30 value="0.0024861293" flag="0"/>
    </comp>
  </station>
  <station code="PSRA" name="PSRA" netid="HL" insttype="CMG-5" lat="38.5398" lon="25.562">
    <comp name="00.HNE">
      <acc value="1.8998731058" flag="0"/>
      <vel value="0.5251534512" flag="0"/>
      <psa03 value="3.3575726529" flag="0"/>
      <psa10 value="0.2668888519" flag="0"/>
      <psa30 value="0.0213699789" flag="0"/>
    </comp>
    <comp name="00.HNN">
      <acc value="1.9541356018" flag="0"/>
      <vel value="0.4426969196" flag="0"/>
      <psa03 value="2.0397192899" flag="0"/>
      <psa10 value="0.1152523976" flag="0"/>
      <psa30 value="0.0090772386" flag="0"/>
    </comp>
    <comp name="00.HNZ">
      <acc value="1.3853155111" flag="0"/>
      <vel value="0.1996137440" flag="0"/>
      <psa03 value="0.6155339395" flag="0"/>
      <psa10 value="0.1395916477" flag="0"/>
      <psa30 value="0.0089436157" flag="0"/>
    </comp>
  </station>
  <station code="LES3" name="LES3" netid="HT" insttype="" lat="39.3032" lon="26.1807">
    <comp name="--.HHN">
      <acc value="0.0638431647" flag="0"/>
      <vel value="0.0356270868" flag="0"/>
      <psa03 value="0.2250373640" flag="0"/>
      <psa10 value="0.0254704210" flag="0"/>
      <psa30 value="0.0013013031" flag="0"/>
    </comp>
    <comp name="--.HHE">
      <acc value="0.0795758826" flag="0"/>
      <vel value="0.0339426625" flag="0"/>
      <psa03 value="0.3130474814" flag="0"/>
      <psa10 value="0.0217005398" flag="0"/>
      <psa30 value="0.0016478113" flag="0"/>
    </comp>
    <comp name="--.HHZ">
      <acc value="0.0367812983" flag="0"/>
      <vel value="0.0166903912" flag="0"/>
      <psa03 value="0.0971879830" flag="0"/>
      <psa10 value="0.0182256171" flag="0"/>
      <psa30 value="0.0009195942" flag="0"/>
    </comp>
  </station>
  <station code="FOCM" name="FOCM" netid="KO" insttype="CMG-5T" lat="38.7131" lon="26.7309">
    <comp name="--.HNN">
      <acc value="0.0437225033" flag="0"/>
      <vel value="0.0156208794" flag="0"/>
      <psa03 value="0.0700455222" flag="0"/>
      <psa10 value="0.0119976765" flag="0"/>
      <psa30 value="0.0007270058" flag="0"/>
    </comp>
    <comp name="--.HNE">
      <acc value="0.0345210044" flag="0"/>
      <vel value="0.0267203103" flag="0"/>
      <psa03 value="0.0973786576" flag="0"/>
      <psa10 value="0.0172420307" flag="0"/>
      <psa30 value="0.0013508789" flag="0"/>
    </comp>
    <comp name="--.HNZ">
      <acc value="0.0190112517" flag="0"/>
      <vel value="0.0054519034" flag="0"/>
      <psa03 value="0.0267959101" flag="0"/>
      <psa10 value="0.0051048548" flag="0"/>
      <psa30 value="0.0004897111" flag="0"/>
    </comp>
  </station>
  <station code="KRBN" name="KRBN" netid="KO" insttype="CMG-5T" lat="38.5936" lon="26.5537">
    <comp name="--.HNE">
      <acc value="0.0590638998" flag="0"/>
      <vel value="0.0263431160" flag="0"/>
      <psa03 value="0.0698900868" flag="0"/>
      <psa10 value="0.0279437363" flag="0"/>
      <psa30 value="0.0015253106" flag="0"/>
    </comp>
    <comp name="--.HNN">
      <acc value="0.0685691255" flag="0"/>
      <vel value="0.0349751738" flag="0"/>
      <psa03 value="0.1216119606" flag="0"/>
      <psa10 value="0.0207615569" flag="0"/>
      <psa30 value="0.0012697031" flag="0"/>
    </comp>
    <comp name="--.HNZ">
      <acc value="0.0361106576" flag="0"/>
      <vel value="0.0199481160" flag="0"/>
      <psa03 value="0.0632048265" flag="0"/>
      <psa10 value="0.0229586361" flag="0"/>
      <psa30 value="0.0015921680" flag="0"/>
    </comp>
  </station>
</stationlist>
