<?xml version="1.0" encoding="UTF-8" standalone="yes"?>
<!DOCTYPE earthquake SYSTEM "stationlist.dtd">
<stationlist created="" xmlns="ch.ethz.sed.shakemap.usgs.xml">
  <station code="KARP" name="KARP" netid="GE" insttype="STS-2/N" commtype="DIG" lat="35.5471" lon="27.1611">
    <comp name="--.HHZ">
      <acc value="0.1450466266" flag="0"/>
      <vel value="0.0426193671" flag="0"/>
      <psa03 value="0.2863910868" flag="0"/>
      <psa10 value="0.0228789791" flag="0"/>
      <psa30 value="0.0024996618" flag="0"/>
    </comp>
    <comp name="--.HHE">
      <acc value="0.2931832116" flag="0"/>
      <vel value="0.0724733679" flag="0"/>
      <psa03 value="0.4024858284" flag="0"/>
      <psa10 value="0.0390402256" flag="0"/>
      <psa30 value="0.0052835486" flag="0"/>
    </comp>
    <comp name="--.HHN">
      <acc value="0.2238079040" flag="0"/>
      <vel value="0.0711746636" flag="0"/>
      <psa03 value="0.4374606773" flag="0"/>
      <psa10 value="0.0541050244" flag="0"/>
      <psa30 value="0.0032384003" flag="0"/>
    </comp>
  </station>
  <station code="ZKR" name="ZKR" netid="GE" insttype="STS-2/N" commtype="DIG" lat="35.1147" lon="26.2169">
    <comp name="--.HHZ">
      <acc value="0.1411061506" flag="0"/>
      <vel value="0.0299775996" flag="0"/>
      <psa03 value="0.1045163232" flag="0"/>
      <psa10 value="0.0208797624" flag="0"/>
      <psa30 value="0.0034930422" flag="0"/>
    </comp>
    <comp name="--.HHE">
      <acc value="0.3514427266" flag="0"/>
      <vel value="0.0871286419" flag="0"/>
      <psa03 value="0.4001766998" flag="0"/>
      <psa10 value="0.0312922028" flag="0"/>
      <psa30 value="0.0023532803" flag="0"/>
    </comp>
    <comp name="--.HHN">
      <acc value="0.1102337026" flag="0"/>
      <vel value="0.0430964754" flag="0"/>
      <psa03 value="0.1098248209" flag="0"/>
      <psa10 value="0.0183705136" flag="0"/>
      <psa30 value="0.0023929830" flag="0"/>
    </comp>
  </station>
  <station code="PFKS" name="PFKS" netid="HC" insttype="120" commtype="DIG" lat="35.0429" lon="25.4733">
    <comp name="--.HHZ">
      <acc value="0.0223427653" flag="0"/>
      <vel value="0.0088807843" flag="0"/>
      <psa03 value="0.0419681643" flag="0"/>
      <psa10 value="0.0073551640" flag="0"/>
      <psa30 value="0.0008229059" flag="0"/>
    </comp>
    <comp name="--.HHE">
      <acc value="0.0377602647" flag="0"/>
      <vel value="0.0184064905" flag="0"/>
      <psa03 value="0.1229159459" flag="0"/>
      <psa10 value="0.0145258182" flag="0"/>
      <psa30 value="0.0013376263" flag="0"/>
    </comp>
    <comp name="--.HHN">
      <acc value="0.0663063554" flag="0"/>
      <vel value="0.0264185323" flag="0"/>
      <psa03 value="0.1095697200" flag="0"/>
      <psa10 value="0.0125639829" flag="0"/>
      <psa30 value="0.0017114637" flag="0"/>
    </comp>
  </station>
  <station code="STIA" name="STIA" netid="HC" insttype="120" commtype="DIG" lat="35.2021" lon="26.0909">
    <comp name="--.HHZ">
      <acc value="0.2136059385" flag="0"/>
      <vel value="0.0940771313" flag="0"/>
      <psa03 value="0.3869226858" flag="0"/>
      <psa10 value="0.0261674768" flag="0"/>
      <psa30 value="0.0040038632" flag="0"/>
    </comp>
    <comp name="--.HHE">
      <acc value="0.2305910903" flag="0"/>
      <vel value="0.0979700065" flag="0"/>
      <psa03 value="0.5240043854" flag="0"/>
      <psa10 value="0.0486423111" flag="0"/>
      <psa30 value="0.0048361024" flag="0"/>
    </comp>
    <comp name="--.HHN">
      <acc value="0.2655545238" flag="0"/>
      <vel value="0.1280309257" flag="0"/>
      <psa03 value="0.6752870971" flag="0"/>
      <psa10 value="0.0793814080" flag="0"/>
      <psa30 value="0.0063923206" flag="0"/>
    </comp>
  </station>
  <station code="AGN1" name="AGN1" netid="HI" insttype="unknown" commtype="DIG" lat="35.1879" lon="25.7155">
    <comp name="--.HNN">
      <acc value="0.1156306113" flag="0"/>
      <vel value="0.0409850119" flag="0"/>
      <psa03 value="0.2283622784" flag="0"/>
      <psa10 value="0.0125778682" flag="0"/>
      <psa30 value="0.0025292320" flag="0"/>
    </comp>
    <comp name="--.HNZ">
      <acc value="0.0424547854" flag="0"/>
      <vel value="0.0152340176" flag="0"/>
      <psa03 value="0.0849304243" flag="0"/>
      <psa10 value="0.0063302541" flag="0"/>
      <psa30 value="0.0017027021" flag="0"/>
    </comp>
    <comp name="--.HNE">
      <acc value="0.0022491252" flag="0"/>
      <vel value="0.0034039886" flag="0"/>
      <psa03 value="0.0033276628" flag="0"/>
      <psa10 value="0.0024296549" flag="0"/>
      <psa30 value="0.0014710251" flag="0"/>
    </comp>
  </station>
  <station code="ARK1" name="ARK1" netid="HI" insttype="unknown" commtype="DIG" lat="35.1488" lon="25.2642">
    <comp name="--.HNN">
      <acc value="0.0394619792" flag="0"/>
      <vel value="0.0201347764" flag="0"/>
      <psa03 value="0.0817831600" flag="0"/>
      <psa10 value="0.0225747900" flag="0"/>
      <psa30 value="0.0038835028" flag="0"/>
    </comp>
    <comp name="--.HNZ">
      <acc value="0.0280954770" flag="0"/>
      <vel value="0.0110158281" flag="0"/>
      <psa03 value="0.0729039398" flag="0"/>
      <psa10 value="0.0151550793" flag="0"/>
      <psa30 value="0.0020317615" flag="0"/>
    </comp>
    <comp name="--.HNE">
      <acc value="0.0305375931" flag="0"/>
      <vel value="0.0175111655" flag="0"/>
      <psa03 value="0.0751275505" flag="0"/>
      <psa10 value="0.0188048271" flag="0"/>
      <psa30 value="0.0027780490" flag="0"/>
    </comp>
  </station>
  <station code="KSS1" name="KSS1" netid="HI" insttype="CMG-5TD,ACCELEROMETER,GURALP" commtype="DIG" lat="35.4189" lon="26.9207">
    <comp name="--.HNE">
      <acc value="0.4059074410" flag="0"/>
      <vel value="0.1419040160" flag="0"/>
      <psa03 value="1.0114672503" flag="0"/>
      <psa10 value="0.0387308416" flag="0"/>
      <psa30 value="0.0073063395" flag="0"/>
    </comp>
    <comp name="--.HNN">
      <acc value="0.3841135349" flag="0"/>
      <vel value="0.1754673281" flag="0"/>
      <psa03 value="0.9090304338" flag="0"/>
      <psa10 value="0.1274881506" flag="0"/>
      <psa30 value="0.0107684132" flag="0"/>
    </comp>
    <comp name="--.HNZ">
      <acc value="0.3115973560" flag="0"/>
      <vel value="0.0964429410" flag="0"/>
      <psa03 value="0.3250521413" flag="0"/>
      <psa10 value="0.0775021943" flag="0"/>
      <psa30 value="0.0090158978" flag="0"/>
    </comp>
  </station>
  <station code="KTL1" name="KTL1" netid="HI" insttype="unknown" commtype="DIG" lat="35.2078" lon="25.3427">
    <comp name="--.HNE">
      <acc value="0.0433206138" flag="0"/>
      <vel value="0.0300488229" flag="0"/>
      <psa03 value="0.0914120054" flag="0"/>
      <psa10 value="0.0166208067" flag="0"/>
      <psa30 value="0.0024017459" flag="0"/>
    </comp>
    <comp name="--.HNN">
      <acc value="0.0487213446" flag="0"/>
      <vel value="0.0181246500" flag="0"/>
      <psa03 value="0.1293417856" flag="0"/>
      <psa10 value="0.0164611968" flag="0"/>
      <psa30 value="0.0017915627" flag="0"/>
    </comp>
    <comp name="--.HNZ">
      <acc value="0.0249720359" flag="0"/>
      <vel value="0.0095524548" flag="0"/>
      <psa03 value="0.0444184231" flag="0"/>
      <psa10 value="0.0085009301" flag="0"/>
      <psa30 value="0.0013962378" flag="0"/>
    </comp>
  </station>
  <station code="SIT2" name="SIT2" netid="HI" insttype="CMG-5TD,ACCELEROMETER,GURALP" commtype="DIG" lat="35.2059" lon="26.107">
    <comp name="--.HNE">
      <acc value="0.5277810414" flag="0"/>
      <vel value="0.2499881453" flag="0"/>
      <psa03 value="1.5450499592" flag="0"/>
      <psa10 value="0.0843497088" flag="0"/>
      <psa30 value="0.0062241414" flag="0"/>
    </comp>
    <comp name="--.HNZ">
      <acc value="0.4360395820" flag="0"/>
      <vel value="0.1547993764" flag="0"/>
      <psa03 value="1.1830727425" flag="0"/>
      <psa10 value="0.0420025515" flag="0"/>
      <psa30 value="0.0045537882" flag="0"/>
    </comp>
    <comp name="--.HNN">
      <acc value="0.5511875152" flag="0"/>
      <vel value="0.3734362230" flag="0"/>
      <psa03 value="1.5334187621" flag="0"/>
      <psa10 value="0.1712196536" flag="0"/>
      <psa30 value="0.0111841114" flag="0"/>
    </comp>
  </station>
  <station code="ASTA" name="ASTA" netid="HL" insttype="LE3D20_SMART24" commtype="DIG" lat="36.5475" lon="26.3471">
    <comp name="--.HHE">
      <acc value="0.0259433732" flag="0"/>
      <vel value="0.0086833430" flag="0"/>
      <psa03 value="0.0482674356" flag="0"/>
      <psa10 value="0.0097413171" flag="0"/>
      <psa30 value="0.0005864840" flag="0"/>
    </comp>
    <comp name="--.HHN">
      <acc value="0.0178249266" flag="0"/>
      <vel value="0.0062728989" flag="0"/>
      <psa03 value="0.0214302600" flag="0"/>
      <psa10 value="0.0072599839" flag="0"/>
      <psa30 value="0.0005218056" flag="0"/>
    </comp>
    <comp name="--.HHZ">
      <acc value="0.0090859961" flag="0"/>
      <vel value="0.0038304515" flag="0"/>
      <psa03 value="0.0125556487" flag="0"/>
      <psa10 value="0.0068493967" flag="0"/>
      <psa30 value="0.0005388124" flag="0"/>
    </comp>
  </station>
  <station code="KARP" name="KARP" netid="HL" insttype="120" commtype="DIG" lat="35.5471" lon="27.1611">
    <comp name="--.HHE">
      <acc value="0.2845245485" flag="0"/>
      <vel value="0.0702074864" flag="0"/>
      <psa03 value="0.3901908365" flag="0"/>
      <psa10 value="0.0387712254" flag="0"/>
      <psa30 value="0.0052584294" flag="0"/>
    </comp>
    <comp name="--.HHN">
      <acc value="0.2143036671" flag="0"/>
      <vel value="0.0686530118" flag="0"/>
      <psa03 value="0.4223804863" flag="0"/>
      <psa10 value="0.0537420552" flag="0"/>
      <psa30 value="0.0032140480" flag="0"/>
    </comp>
    <comp name="--.HHZ">
      <acc value="0.1388744608" flag="0"/>
      <vel value="0.0415068978" flag="0"/>
      <psa03 value="0.2786740371" flag="0"/>
      <psa10 value="0.0227352140" flag="0"/>
      <psa30 value="0.0024869555" flag="0"/>
    </comp>
  </station>
</stationlist>
