<?xml version="1.0" encoding="UTF-8" standalone="yes"?>
<!DOCTYPE earthquake SYSTEM "stationlist.dtd">
<stationlist created="" xmlns="ch.ethz.sed.shakemap.usgs.xml">
  <station code="KARP" name="KARP" netid="GE" insttype="STS-2/N" commtype="DIG" lat="35.5471" lon="27.1611">
    <comp name="--.HHN">
      <acc value="0.2238079040" flag="0"/>
      <vel value="0.0711746631" flag="0"/>
      <psa03 value="0.4374606773" flag="0"/>
      <psa10 value="0.0541050243" flag="0"/>
      <psa30 value="0.0032384101" flag="0"/>
    </comp>
    <comp name="--.HHZ">
      <acc value="0.1450466265" flag="0"/>
      <vel value="0.0426193671" flag="0"/>
      <psa03 value="0.2863910868" flag="0"/>
      <psa10 value="0.0228789791" flag="0"/>
      <psa30 value="0.0024996586" flag="0"/>
    </comp>
    <comp name="--.HHE">
      <acc value="0.2931832117" flag="0"/>
      <vel value="0.0724733679" flag="0"/>
      <psa03 value="0.4024858284" flag="0"/>
      <psa10 value="0.0390402257" flag="0"/>
      <psa30 value="0.0052835566" flag="0"/>
    </comp>
  </station>
  <station code="ZKR" name="ZKR" netid="GE" insttype="STS-2/N" commtype="DIG" lat="35.1147" lon="26.2169">
    <comp name="--.HHN">
      <acc value="0.1102337026" flag="0"/>
      <vel value="0.0430964755" flag="0"/>
      <psa03 value="0.1098248209" flag="0"/>
      <psa10 value="0.0183705134" flag="0"/>
      <psa30 value="0.0023929656" flag="0"/>
    </comp>
    <comp name="--.HHE">
      <acc value="0.3514427266" flag="0"/>
      <vel value="0.0871286421" flag="0"/>
      <psa03 value="0.4001766998" flag="0"/>
      <psa10 value="0.0312922027" flag="0"/>
      <psa30 value="0.0023532578" flag="0"/>
    </comp>
    <comp name="--.HHZ">
      <acc value="0.1411061505" flag="0"/>
      <vel value="0.0299776002" flag="0"/>
      <psa03 value="0.1045163232" flag="0"/>
      <psa10 value="0.0208797624" flag="0"/>
      <psa30 value="0.0034930260" flag="0"/>
    </comp>
  </station>
  <station code="PFKS" name="PFKS" netid="HC" insttype="120" commtype="DIG" lat="35.0429" lon="25.4733">
    <comp name="--.HHZ">
      <acc value="0.0223427653" flag="0"/>
      <vel value="0.0088807845" flag="0"/>
      <psa03 value="0.0419681643" flag="0"/>
      <psa10 value="0.0073551640" flag="0"/>
      <psa30 value="0.0008229048" flag="0"/>
    </comp>
    <comp name="--.HHE">
      <acc value="0.0377602647" flag="0"/>
      <vel value="0.0184064902" flag="0"/>
      <psa03 value="0.1229159459" flag="0"/>
      <psa10 value="0.0145258182" flag="0"/>
      <psa30 value="0.0013376306" flag="0"/>
    </comp>
    <comp name="--.HHN">
      <acc value="0.0663063555" flag="0"/>
      <vel value="0.0264185323" flag="0"/>
      <psa03 value="0.1095697200" flag="0"/>
      <psa10 value="0.0125639829" flag="0"/>
      <psa30 value="0.0017114584" flag="0"/>
    </comp>
  </station>
  <station code="STIA" name="STIA" netid="HC" insttype="120" commtype="DIG" lat="35.2021" lon="26.0909">
    <comp name="--.HHE">
      <acc value="0.2305910903" flag="0"/>
      <vel value="0.0979700069" flag="0"/>
      <psa03 value="0.5240043854" flag="0"/>
      <psa10 value="0.0486423107" flag="0"/>
      <psa30 value="0.0048361761" flag="0"/>
    </comp>
    <comp name="--.HHZ">
      <acc value="0.2136059385" flag="0"/>
      <vel value="0.0940771313" flag="0"/>
      <psa03 value="0.3869226858" flag="0"/>
      <psa10 value="0.0261674769" flag="0"/>
      <psa30 value="0.0040038608" flag="0"/>
    </comp>
    <comp name="--.HHN">
      <acc value="0.2655545238" flag="0"/>
      <vel value="0.1280309262" flag="0"/>
      <psa03 value="0.6752870971" flag="0"/>
      <psa10 value="0.0793814067" flag="0"/>
      <psa30 value="0.0063921285" flag="0"/>
    </comp>
  </station>
  <station code="AGN1" name="AGN1" netid="HI" insttype="unknown" commtype="DIG" lat="35.1879" lon="25.7155">
    <comp name="--.HNE">
      <acc value="0.0022491248" flag="0"/>
      <vel value="0.0034039912" flag="0"/>
      <psa03 value="0.0033276628" flag="0"/>
      <psa10 value="0.0024296549" flag="0"/>
      <psa30 value="0.0014677013" flag="0"/>
    </comp>
    <comp name="--.HNZ">
      <acc value="0.0424547852" flag="0"/>
      <vel value="0.0152340165" flag="0"/>
      <psa03 value="0.0849304243" flag="0"/>
      <psa10 value="0.0063302544" flag="0"/>
      <psa30 value="0.0017028158" flag="0"/>
    </comp>
    <comp name="--.HNN">
      <acc value="0.1156306114" flag="0"/>
      <vel value="0.0409850119" flag="0"/>
      <psa03 value="0.2283622784" flag="0"/>
      <psa10 value="0.0125778683" flag="0"/>
      <psa30 value="0.0025293182" flag="0"/>
    </comp>
  </station>
  <station code="KSS1" name="KSS1" netid="HI" insttype="CMG-5TD,ACCELEROMETER,GURALP" commtype="DIG" lat="35.4189" lon="26.9207">
    <comp name="--.HNN">
      <acc value="0.3841135348" flag="0"/>
      <vel value="0.1754673281" flag="0"/>
      <psa03 value="0.9090304338" flag="0"/>
      <psa10 value="0.1274881505" flag="0"/>
      <psa30 value="0.0107683664" flag="0"/>
    </comp>
    <comp name="--.HNE">
      <acc value="0.4059074408" flag="0"/>
      <vel value="0.1419040160" flag="0"/>
      <psa03 value="1.0114672503" flag="0"/>
      <psa10 value="0.0387308416" flag="0"/>
      <psa30 value="0.0073063732" flag="0"/>
    </comp>
    <comp name="--.HNZ">
      <acc value="0.3115973559" flag="0"/>
      <vel value="0.0964429409" flag="0"/>
      <psa03 value="0.3250521413" flag="0"/>
      <psa10 value="0.0775021951" flag="0"/>
      <psa30 value="0.0090157680" flag="0"/>
    </comp>
  </station>
  <station code="KTL1" name="KTL1" netid="HI" insttype="unknown" commtype="DIG" lat="35.2078" lon="25.3427">
    <comp name="--.HNZ">
      <acc value="0.0249720353" flag="0"/>
      <vel value="0.0095524545" flag="0"/>
      <psa03 value="0.0444184231" flag="0"/>
      <psa10 value="0.0085009301" flag="0"/>
      <psa30 value="0.0013962332" flag="0"/>
    </comp>
    <comp name="--.HNE">
      <acc value="0.0433206145" flag="0"/>
      <vel value="0.0300488246" flag="0"/>
      <psa03 value="0.0914120054" flag="0"/>
      <psa10 value="0.0166208067" flag="0"/>
      <psa30 value="0.0024017449" flag="0"/>
    </comp>
    <comp name="--.HNN">
      <acc value="0.0487213455" flag="0"/>
      <vel value="0.0181246499" flag="0"/>
      <psa03 value="0.1293417856" flag="0"/>
      <psa10 value="0.0164611967" flag="0"/>
      <psa30 value="0.0017915627" flag="0"/>
    </comp>
  </station>
  <station code="SIT2" name="SIT2" netid="HI" insttype="CMG-5TD,ACCELEROMETER,GURALP" commtype="DIG" lat="35.2059" lon="26.107">
    <comp name="--.HNE">
      <acc value="0.5277810409" flag="0"/>
      <vel value="0.2499881451" flag="0"/>
      <psa03 value="1.5450499592" flag="0"/>
      <psa10 value="0.0843497089" flag="0"/>
      <psa30 value="0.0062241577" flag="0"/>
    </comp>
    <comp name="--.HNN">
      <acc value="0.5511875161" flag="0"/>
      <vel value="0.3734362240" flag="0"/>
      <psa03 value="1.5334187621" flag="0"/>
      <psa10 value="0.1712196545" flag="0"/>
      <psa30 value="0.0111843655" flag="0"/>
    </comp>
    <comp name="--.HNZ">
      <acc value="0.4360395824" flag="0"/>
      <vel value="0.1547993752" flag="0"/>
      <psa03 value="1.1830727425" flag="0"/>
      <psa10 value="0.0420025514" flag="0"/>
      <psa30 value="0.0045537248" flag="0"/>
    </comp>
  </station>
  <station code="ASTA" name="ASTA" netid="HL" insttype="LE3D20_SMART24" commtype="DIG" lat="36.5475" lon="26.3471">
    <comp name="--.HHE">
      <acc value="0.0259433731" flag="0"/>
      <vel value="0.0086833458" flag="0"/>
      <psa03 value="0.0482674356" flag="0"/>
      <psa10 value="0.0097413171" flag="0"/>
      <psa30 value="0.0005864838" flag="0"/>
    </comp>
    <comp name="--.HHN">
      <acc value="0.0178249267" flag="0"/>
      <vel value="0.0062728937" flag="0"/>
      <psa03 value="0.0214302600" flag="0"/>
      <psa10 value="0.0072599839" flag="0"/>
      <psa30 value="0.0005218062" flag="0"/>
    </comp>
    <comp name="--.HHZ">
      <acc value="0.0090859961" flag="0"/>
      <vel value="0.0038304523" flag="0"/>
      <psa03 value="0.0125556487" flag="0"/>
      <psa10 value="0.0068493966" flag="0"/>
      <psa30 value="0.0005388128" flag="0"/>
    </comp>
  </station>
  <station code="KARP" name="KARP" netid="HL" insttype="120" commtype="DIG" lat="35.5471" lon="27.1611">
    <comp name="--.HHE">
      <acc value="0.2845245484" flag="0"/>
      <vel value="0.0702074864" flag="0"/>
      <psa03 value="0.3901908365" flag="0"/>
      <psa10 value="0.0387712254" flag="0"/>
      <psa30 value="0.0052584374" flag="0"/>
    </comp>
    <comp name="--.HHN">
      <acc value="0.2143036671" flag="0"/>
      <vel value="0.0686530113" flag="0"/>
      <psa03 value="0.4223804863" flag="0"/>
      <psa10 value="0.0537420552" flag="0"/>
      <psa30 value="0.0032140579" flag="0"/>
    </comp>
    <comp name="--.HHZ">
      <acc value="0.1388744608" flag="0"/>
      <vel value="0.0415068978" flag="0"/>
      <psa03 value="0.2786740371" flag="0"/>
      <psa10 value="0.0227352140" flag="0"/>
      <psa30 value="0.0024869523" flag="0"/>
    </comp>
  </station>
</stationlist>
