<stationlist created="1779847003">
	<station code="TEFL" name="TEFL" netid="HC" source="Seismological Network of Crete (HC)" insttype="" lat="35.093273" lon="25.163418">
		<comp name="--.HNE" depth="0.0">
			<acc value="0.22181489160181" flag="0"/>
			<vel value="0.142677647348619" flag="0"/>
			<psa03 value="0.398608405850619" flag="0"/>
			<psa10 value="0.156559266283038" flag="0"/>
			<psa30 value="0.076993527109973" flag="0"/>
		</comp>
		<comp name="--.HNN" depth="0.0">
			<acc value="0.24395999930435" flag="0"/>
			<vel value="0.139047425493683" flag="0"/>
			<psa03 value="0.346261438120912" flag="0"/>
			<psa10 value="0.163715520349749" flag="0"/>
			<psa30 value="0.0758316834768677" flag="0"/>
		</comp>
		<comp name="--.HNZ" depth="0.0">
			<acc value="0.211799256514359" flag="0"/>
			<vel value="0.129171321232333" flag="0"/>
			<psa03 value="0.279638962208849" flag="0"/>
			<psa10 value="0.168713926469624" flag="0"/>
			<psa30 value="0.0592767334593432" flag="0"/>
		</comp>
	</station>
	<station code="AGN1" name="AGN1" netid="HI" source="ITSAK Strong Motion Network" insttype="" lat="35.1879" lon="25.7155">
		<comp name="--.HNE" depth="0.0">
			<acc value="0.00229067836125018" flag="0"/>
			<vel value="0.00393251153316329" flag="0"/>
			<psa03 value="0.0033404026003826" flag="0"/>
			<psa10 value="0.0024340870275697" flag="0"/>
			<psa30 value="0.00156015991543753" flag="0"/>
		</comp>
		<comp name="--.HNN" depth="0.0">
			<acc value="0.115896533542751" flag="0"/>
			<vel value="0.041270047495964" flag="0"/>
			<psa03 value="0.228003791632211" flag="0"/>
			<psa10 value="0.0126540488936363" flag="0"/>
			<psa30 value="0.00254780711305058" flag="0"/>
		</comp>
		<comp name="--.HNZ" depth="0.0">
			<acc value="0.0422709819047483" flag="0"/>
			<vel value="0.0153643199473436" flag="0"/>
			<psa03 value="0.0861825320864554" flag="0"/>
			<psa10 value="0.00633110471711606" flag="0"/>
			<psa30 value="0.00186955489050286" flag="0"/>
		</comp>
	</station>
	<station code="ARK1" name="ARK1" netid="HI" source="ITSAK Strong Motion Network" insttype="" lat="35.148777" lon="25.264194">
		<comp name="--.HNE" depth="0.0">
			<acc value="0.030707787989885" flag="0"/>
			<vel value="0.019149892904872" flag="0"/>
			<psa03 value="0.0778642727092623" flag="0"/>
			<psa10 value="0.0189783103449196" flag="0"/>
			<psa30 value="0.00312207036350592" flag="0"/>
		</comp>
		<comp name="--.HNN" depth="0.0">
			<acc value="0.0392678895874387" flag="0"/>
			<vel value="0.0198895958498403" flag="0"/>
			<psa03 value="0.0841796129445588" flag="0"/>
			<psa10 value="0.0222775689046073" flag="0"/>
			<psa30 value="0.00523308041589492" flag="0"/>
		</comp>
		<comp name="--.HNZ" depth="0.0">
			<acc value="0.0281135577625439" flag="0"/>
			<vel value="0.0116895719059253" flag="0"/>
			<psa03 value="0.0740305604113041" flag="0"/>
			<psa10 value="0.0153384729735572" flag="0"/>
			<psa30 value="0.00240738718591956" flag="0"/>
		</comp>
	</station>
	<station code="GOR1" name="GOR1" netid="HI" source="ITSAK Strong Motion Network" insttype="" lat="35.0582" lon="24.9628">
		<comp name="--.HNE" depth="0.0">
			<acc value="0.0136300907325875" flag="0"/>
			<vel value="0.00947407892667117" flag="0"/>
			<psa03 value="0.0314607481826658" flag="0"/>
			<psa10 value="0.0118673630295587" flag="0"/>
			<psa30 value="0.0029363780623023" flag="0"/>
		</comp>
		<comp name="--.HNN" depth="0.0">
			<acc value="0.0157124159822826" flag="0"/>
			<vel value="0.0145028535239164" flag="0"/>
			<psa03 value="0.0480181601341146" flag="0"/>
			<psa10 value="0.0174928538157148" flag="0"/>
			<psa30 value="0.00425198167291818" flag="0"/>
		</comp>
		<comp name="--.HNZ" depth="0.0">
			<acc value="0.0117630317071336" flag="0"/>
			<vel value="0.00845955235331596" flag="0"/>
			<psa03 value="0.0282769982123553" flag="0"/>
			<psa10 value="0.0092716932666758" flag="0"/>
			<psa30 value="0.00192387328049629" flag="0"/>
		</comp>
	</station>
	<station code="HER1" name="HER1" netid="HI" source="ITSAK Strong Motion Network" insttype="" lat="35.317672" lon="25.10217">
		<comp name="--.HNE" depth="0.0">
			<acc value="0.0368815507612561" flag="0"/>
			<vel value="0.0513005626737776" flag="0"/>
			<psa03 value="0.142622198020665" flag="0"/>
			<psa10 value="0.0688996392629593" flag="0"/>
			<psa30 value="0.0058475682060286" flag="0"/>
		</comp>
		<comp name="--.HNN" depth="0.0">
			<acc value="0.0475163060161699" flag="0"/>
			<vel value="0.0335485041769205" flag="0"/>
			<psa03 value="0.112693829996498" flag="0"/>
			<psa10 value="0.0890323754579258" flag="0"/>
			<psa30 value="0.00381022282522923" flag="0"/>
		</comp>
		<comp name="--.HNZ" depth="0.0">
			<acc value="0.0524837293147477" flag="0"/>
			<vel value="0.0322738954675158" flag="0"/>
			<psa03 value="0.11693052732357" flag="0"/>
			<psa10 value="0.0331623743445478" flag="0"/>
			<psa30 value="0.00246019672595907" flag="0"/>
		</comp>
	</station>
	<station code="HER3" name="HER3" netid="HI" source="ITSAK Strong Motion Network" insttype="" lat="35.3296" lon="25.1065">
		<comp name="--.HNE" depth="0.0">
			<acc value="0.0989989219554942" flag="0"/>
			<vel value="0.0365386770266506" flag="0"/>
			<psa03 value="0.161154102751737" flag="0"/>
			<psa10 value="0.0683680265462258" flag="0"/>
			<psa30 value="0.00323007647671419" flag="0"/>
		</comp>
		<comp name="--.HNN" depth="0.0">
			<acc value="0.0591482840939057" flag="0"/>
			<vel value="0.0418838972535392" flag="0"/>
			<psa03 value="0.146690207089635" flag="0"/>
			<psa10 value="0.060580448157377" flag="0"/>
			<psa30 value="0.00320720496158856" flag="0"/>
		</comp>
		<comp name="--.HNZ" depth="0.0">
			<acc value="0.0419425568508363" flag="0"/>
			<vel value="0.0188051769351947" flag="0"/>
			<psa03 value="0.149364175893612" flag="0"/>
			<psa10 value="0.0215394412572732" flag="0"/>
			<psa30 value="0.00156668795205458" flag="0"/>
		</comp>
	</station>
	<station code="KSS1" name="KSS1" netid="HI" source="ITSAK Strong Motion Network" insttype="" lat="35.4189" lon="26.9207">
		<comp name="--.HNE" depth="0.0">
			<acc value="0.40802308161292" flag="0"/>
			<vel value="0.143708228487158" flag="0"/>
			<psa03 value="1.02417401316865" flag="0"/>
			<psa10 value="0.0387991065003895" flag="0"/>
			<psa30 value="0.00792385491649995" flag="0"/>
		</comp>
		<comp name="--.HNN" depth="0.0">
			<acc value="0.386537843153345" flag="0"/>
			<vel value="0.181740165125454" flag="0"/>
			<psa03 value="0.9123881912399" flag="0"/>
			<psa10 value="0.128244785587652" flag="0"/>
			<psa30 value="0.0111791272289813" flag="0"/>
		</comp>
		<comp name="--.HNZ" depth="0.0">
			<acc value="0.297857364517499" flag="0"/>
			<vel value="0.100477248850392" flag="0"/>
			<psa03 value="0.324902877387753" flag="0"/>
			<psa10 value="0.0773579045815256" flag="0"/>
			<psa30 value="0.0106483037311964" flag="0"/>
		</comp>
	</station>
	<station code="KTL1" name="KTL1" netid="HI" source="ITSAK Strong Motion Network" insttype="" lat="35.20778" lon="25.34272">
		<comp name="--.HNE" depth="0.0">
			<acc value="0.043020207964759" flag="0"/>
			<vel value="0.0301965575938114" flag="0"/>
			<psa03 value="0.0942941631922064" flag="0"/>
			<psa10 value="0.0168073552798011" flag="0"/>
			<psa30 value="0.00276323971773669" flag="0"/>
		</comp>
		<comp name="--.HNN" depth="0.0">
			<acc value="0.0486480278847378" flag="0"/>
			<vel value="0.018002529156556" flag="0"/>
			<psa03 value="0.129324962977437" flag="0"/>
			<psa10 value="0.0164684040759473" flag="0"/>
			<psa30 value="0.0021303798772115" flag="0"/>
		</comp>
		<comp name="--.HNZ" depth="0.0">
			<acc value="0.0250536156621152" flag="0"/>
			<vel value="0.0096800463820321" flag="0"/>
			<psa03 value="0.0448544765972735" flag="0"/>
			<psa10 value="0.00843558569115233" flag="0"/>
			<psa30 value="0.00162482940780735" flag="0"/>
		</comp>
	</station>
	<station code="RKT1" name="RKT1" netid="HI" source="ITSAK Strong Motion Network" insttype="" lat="35.954336" lon="27.767327">
		<comp name="--.HNE" depth="0.0">
			<acc value="0.0350649795160803" flag="0"/>
			<vel value="0.01777830043719" flag="0"/>
			<psa03 value="0.0943308114533072" flag="0"/>
			<psa10 value="0.0274080493987609" flag="0"/>
			<psa30 value="0.00177753962827666" flag="0"/>
		</comp>
		<comp name="--.HNN" depth="0.0">
			<acc value="0.0546010009405556" flag="0"/>
			<vel value="0.0223385297628213" flag="0"/>
			<psa03 value="0.125815803429505" flag="0"/>
			<psa10 value="0.0208210117898468" flag="0"/>
			<psa30 value="0.00162298313966781" flag="0"/>
		</comp>
		<comp name="--.HNZ" depth="0.0">
			<acc value="0.0212289278127423" flag="0"/>
			<vel value="0.0113573296018522" flag="0"/>
			<psa03 value="0.0353820834727171" flag="0"/>
			<psa10 value="0.0129527168039196" flag="0"/>
			<psa30 value="0.00150108350191507" flag="0"/>
		</comp>
	</station>
	<station code="RLN1" name="RLN1" netid="HI" source="ITSAK Strong Motion Network" insttype="" lat="36.089085" lon="28.086909">
		<comp name="--.HNE" depth="0.0">
			<acc value="0.0152399173906389" flag="0"/>
			<vel value="0.0114059979755697" flag="0"/>
			<psa03 value="0.0368111000130497" flag="0"/>
			<psa10 value="0.0102408230917705" flag="0"/>
			<psa30 value="0.000900890304561336" flag="0"/>
		</comp>
		<comp name="--.HNN" depth="0.0">
			<acc value="0.0102291380368425" flag="0"/>
			<vel value="0.00796131001396059" flag="0"/>
			<psa03 value="0.0332367642725155" flag="0"/>
			<psa10 value="0.0130156637863483" flag="0"/>
			<psa30 value="0.00100058305455009" flag="0"/>
		</comp>
		<comp name="--.HNZ" depth="0.0">
			<acc value="0.00888990077581454" flag="0"/>
			<vel value="0.00531998095648308" flag="0"/>
			<psa03 value="0.0293554394454609" flag="0"/>
			<psa10 value="0.00773911111562982" flag="0"/>
			<psa30 value="0.00059531094684526" flag="0"/>
		</comp>
	</station>
	<station code="RSO1" name="RSO1" netid="HI" source="ITSAK Strong Motion Network" insttype="" lat="36.3632" lon="28.0016">
		<comp name="--.HNE" depth="0.0">
			<acc value="0.0178772300676608" flag="0"/>
			<vel value="0.0109008376082083" flag="0"/>
			<psa03 value="0.0577021037311849" flag="0"/>
			<psa10 value="0.0138009404945763" flag="0"/>
			<psa30 value="0.00271118356093845" flag="0"/>
		</comp>
		<comp name="--.HNN" depth="0.0">
			<acc value="0.0188324774411732" flag="0"/>
			<vel value="0.0106596299857867" flag="0"/>
			<psa03 value="0.0497208718887452" flag="0"/>
			<psa10 value="0.0165092649077769" flag="0"/>
			<psa30 value="0.00157176537174205" flag="0"/>
		</comp>
		<comp name="--.HNZ" depth="0.0">
			<acc value="0.0129225675951977" flag="0"/>
			<vel value="0.00746876267488053" flag="0"/>
			<psa03 value="0.0250321035665101" flag="0"/>
			<psa10 value="0.00983311577066137" flag="0"/>
			<psa30 value="0.00182425188940137" flag="0"/>
		</comp>
	</station>
	<station code="SIT2" name="SIT2" netid="HI" source="ITSAK Strong Motion Network" insttype="" lat="35.2059" lon="26.107">
		<comp name="--.HNE" depth="0.0">
			<acc value="0.527988684251382" flag="0"/>
			<vel value="0.25150138575803" flag="0"/>
			<psa03 value="1.57235782765602" flag="0"/>
			<psa10 value="0.0846567505942531" flag="0"/>
			<psa30 value="0.00627228300796651" flag="0"/>
		</comp>
		<comp name="--.HNN" depth="0.0">
			<acc value="0.552827876234799" flag="0"/>
			<vel value="0.374460855176467" flag="0"/>
			<psa03 value="1.51254853225039" flag="0"/>
			<psa10 value="0.171878311094575" flag="0"/>
			<psa30 value="0.0111672197735041" flag="0"/>
		</comp>
		<comp name="--.HNZ" depth="0.0">
			<acc value="0.437615748191054" flag="0"/>
			<vel value="0.15524841188808" flag="0"/>
			<psa03 value="1.2057264567937" flag="0"/>
			<psa10 value="0.0421659445368858" flag="0"/>
			<psa30 value="0.00473075505597178" flag="0"/>
		</comp>
	</station>
	<station code="ANAF" name="ANAF" netid="HL" source="National Observatory of Athens Seismic Network" insttype="" lat="36.35675" lon="25.77262">
		<comp name="--.HNE" depth="0.0">
			<acc value="0.106330720833793" flag="0"/>
			<vel value="0.0441975690895732" flag="0"/>
			<psa03 value="0.233250660044826" flag="0"/>
			<psa10 value="0.0225771837526205" flag="0"/>
			<psa30 value="0.00314020718998166" flag="0"/>
		</comp>
		<comp name="--.HNN" depth="0.0">
			<acc value="0.14284773120318" flag="0"/>
			<vel value="0.0482312545030842" flag="0"/>
			<psa03 value="0.223494576252156" flag="0"/>
			<psa10 value="0.0322823560476546" flag="0"/>
			<psa30 value="0.00221489422587233" flag="0"/>
		</comp>
		<comp name="--.HNZ" depth="0.0">
			<acc value="0.0589575937410368" flag="0"/>
			<vel value="0.0216387534618286" flag="0"/>
			<psa03 value="0.0932210712717998" flag="0"/>
			<psa10 value="0.0212015176214908" flag="0"/>
			<psa30 value="0.00305664644615915" flag="0"/>
		</comp>
	</station>
	<station code="HERG" name="HERG" netid="HL" source="National Observatory of Athens Seismic Network" insttype="" lat="35.32622" lon="25.06586">
		<comp name="00.HNE" depth="0.0">
			<acc value="0.0350216409534915" flag="0"/>
			<vel value="0.0256757559263077" flag="0"/>
			<psa03 value="0.101111437719853" flag="0"/>
			<psa10 value="0.0449845787575698" flag="0"/>
			<psa30 value="0.00346185224738817" flag="0"/>
		</comp>
		<comp name="00.HNN" depth="0.0">
			<acc value="0.0400359296565256" flag="0"/>
			<vel value="0.0256012041709013" flag="0"/>
			<psa03 value="0.156401673343279" flag="0"/>
			<psa10 value="0.0524716122367934" flag="0"/>
			<psa30 value="0.00423441800941168" flag="0"/>
		</comp>
		<comp name="00.HNZ" depth="0.0">
			<acc value="0.0351428637826253" flag="0"/>
			<vel value="0.0214316947907684" flag="0"/>
			<psa03 value="0.0869667767471487" flag="0"/>
			<psa10 value="0.0196248513000848" flag="0"/>
			<psa30 value="0.00167093517042118" flag="0"/>
		</comp>
	</station>
	<station code="IACM" name="IACM" netid="HL" source="National Observatory of Athens Seismic Network" insttype="" lat="35.3058" lon="25.0709">
		<comp name="--.HNE" depth="0.0">
			<acc value="0.0922618069170485" flag="0"/>
			<vel value="0.0503789270290318" flag="0"/>
			<psa03 value="0.202233959507305" flag="0"/>
			<psa10 value="0.0646665088388438" flag="0"/>
			<psa30 value="0.00424888896804167" flag="0"/>
		</comp>
		<comp name="--.HNN" depth="0.0">
			<acc value="0.0662182562106088" flag="0"/>
			<vel value="0.0357353255449899" flag="0"/>
			<psa03 value="0.258122891041397" flag="0"/>
			<psa10 value="0.065106307973378" flag="0"/>
			<psa30 value="0.00286155102204478" flag="0"/>
		</comp>
		<comp name="--.HNZ" depth="0.0">
			<acc value="0.0663320077957546" flag="0"/>
			<vel value="0.0268561613515481" flag="0"/>
			<psa03 value="0.130875846965889" flag="0"/>
			<psa10 value="0.0170832610572047" flag="0"/>
			<psa30 value="0.0015550060323514" flag="0"/>
		</comp>
	</station>
	<station code="KARP" name="KARP" netid="HL" source="National Observatory of Athens Seismic Network" insttype="" lat="35.5471" lon="27.16106">
		<comp name="--.HNE" depth="0.0">
			<acc value="0.258509634068412" flag="0"/>
			<vel value="0.0696587511450399" flag="0"/>
			<psa03 value="0.375574463298303" flag="0"/>
			<psa10 value="0.0357500870178126" flag="0"/>
			<psa30 value="0.00556985314210191" flag="0"/>
		</comp>
		<comp name="--.HNN" depth="0.0">
			<acc value="0.215703293229379" flag="0"/>
			<vel value="0.069810312776058" flag="0"/>
			<psa03 value="0.457249457199142" flag="0"/>
			<psa10 value="0.0578860034136364" flag="0"/>
			<psa30 value="0.0041333133950605" flag="0"/>
		</comp>
		<comp name="--.HNZ" depth="0.0">
			<acc value="0.132153263692697" flag="0"/>
			<vel value="0.0434105284041327" flag="0"/>
			<psa03 value="0.281738330448359" flag="0"/>
			<psa10 value="0.0226756446501718" flag="0"/>
			<psa30 value="0.00304847257134672" flag="0"/>
		</comp>
	</station>
	<station code="SAP3" name="SAP3" netid="HL" source="National Observatory of Athens Seismic Network" insttype="" lat="36.4356" lon="25.345419">
		<comp name="--.HNE" depth="0.0">
			<acc value="0.0129477654373329" flag="0"/>
			<vel value="0.012339578678047" flag="0"/>
			<psa03 value="0.035057296332163" flag="0"/>
			<psa10 value="0.0170283330434934" flag="0"/>
			<psa30 value="0.00201287646818733" flag="0"/>
		</comp>
		<comp name="--.HNN" depth="0.0">
			<acc value="0.0117260826382655" flag="0"/>
			<vel value="0.00882056911883632" flag="0"/>
			<psa03 value="0.0242437284238594" flag="0"/>
			<psa10 value="0.0109814155898888" flag="0"/>
			<psa30 value="0.00159398017669719" flag="0"/>
		</comp>
		<comp name="--.HNZ" depth="0.0">
			<acc value="0.00887165106724264" flag="0"/>
			<vel value="0.0065761659547798" flag="0"/>
			<psa03 value="0.0212481341471068" flag="0"/>
			<psa10 value="0.00530481782439617" flag="0"/>
			<psa30 value="0.000862473801323202" flag="0"/>
		</comp>
	</station>
	<station code="THERA" name="THERA" netid="HL" source="National Observatory of Athens Seismic Network" insttype="" lat="36.366992" lon="25.475263">
		<comp name="00.HNE" depth="0.0">
			<acc value="0.0128326246450539" flag="0"/>
			<vel value="0.00617716005457348" flag="0"/>
			<psa03 value="0.0209628170691673" flag="0"/>
			<psa10 value="0.0139410994669203" flag="0"/>
			<psa30 value="0.000913122989916706" flag="0"/>
		</comp>
		<comp name="00.HNN" depth="0.0">
			<acc value="0.0166860720921365" flag="0"/>
			<vel value="0.0061645147144036" flag="0"/>
			<psa03 value="0.0459716547715114" flag="0"/>
			<psa10 value="0.00786056947414999" flag="0"/>
			<psa30 value="0.000582246175118252" flag="0"/>
		</comp>
		<comp name="00.HNZ" depth="0.0">
			<acc value="0.00726765554434827" flag="0"/>
			<vel value="0.00463577793889719" flag="0"/>
			<psa03 value="0.0201691629309757" flag="0"/>
			<psa10 value="0.00505423513077251" flag="0"/>
			<psa30 value="0.00118325546820098" flag="0"/>
		</comp>
	</station>
	<station code="THRA" name="THRA" netid="HL" source="National Observatory of Athens Seismic Network" insttype="" lat="36.41502" lon="25.43244">
		<comp name="00.HNE" depth="0.0">
			<acc value="0.0415738628398908" flag="0"/>
			<vel value="0.0419188965168505" flag="0"/>
			<psa03 value="0.0862215711309339" flag="0"/>
			<psa10 value="0.059487404498599" flag="0"/>
			<psa30 value="0.00340147533104711" flag="0"/>
		</comp>
		<comp name="00.HNN" depth="0.0">
			<acc value="0.0302289713636615" flag="0"/>
			<vel value="0.029395890589474" flag="0"/>
			<psa03 value="0.0568530422766972" flag="0"/>
			<psa10 value="0.0410911120845109" flag="0"/>
			<psa30 value="0.00228490823895708" flag="0"/>
		</comp>
		<comp name="00.HNZ" depth="0.0">
			<acc value="0.0269120635035384" flag="0"/>
			<vel value="0.0110572900771906" flag="0"/>
			<psa03 value="0.0483911744278143" flag="0"/>
			<psa10 value="0.0199107158622091" flag="0"/>
			<psa30 value="0.00131778396338689" flag="0"/>
		</comp>
	</station>
</stationlist>
