<?xml version="1.0" encoding="UTF-8" standalone="yes"?>
<!DOCTYPE earthquake SYSTEM "stationlist.dtd">
<stationlist created="" xmlns="ch.ethz.sed.shakemap.usgs.xml">
  <station code="KARP" name="KARP" netid="GE" insttype="STS-2/N" commtype="DIG" lat="35.5471" lon="27.1611">
    <comp name="--.HHE">
      <acc value="0.2931832117" flag="0"/>
      <vel value="0.0724733679" flag="0"/>
      <psa03 value="0.4024858284" flag="0"/>
      <psa10 value="0.0390402257" flag="0"/>
      <psa30 value="0.0052835616" flag="0"/>
    </comp>
    <comp name="--.HHZ">
      <acc value="0.1450466265" flag="0"/>
      <vel value="0.0426193671" flag="0"/>
      <psa03 value="0.2863910868" flag="0"/>
      <psa10 value="0.0228789791" flag="0"/>
      <psa30 value="0.0024996580" flag="0"/>
    </comp>
    <comp name="--.HHN">
      <acc value="0.2238079040" flag="0"/>
      <vel value="0.0711746635" flag="0"/>
      <psa03 value="0.4374606773" flag="0"/>
      <psa10 value="0.0541050243" flag="0"/>
      <psa30 value="0.0032384049" flag="0"/>
    </comp>
  </station>
  <station code="ZKR" name="ZKR" netid="GE" insttype="STS-2/N" commtype="DIG" lat="35.1147" lon="26.2169">
    <comp name="--.HHZ">
      <acc value="0.1411061507" flag="0"/>
      <vel value="0.0299775994" flag="0"/>
      <psa03 value="0.1045163232" flag="0"/>
      <psa10 value="0.0208797625" flag="0"/>
      <psa30 value="0.0034930475" flag="0"/>
    </comp>
    <comp name="--.HHE">
      <acc value="0.3514427266" flag="0"/>
      <vel value="0.0871286414" flag="0"/>
      <psa03 value="0.4001766998" flag="0"/>
      <psa10 value="0.0312922028" flag="0"/>
      <psa30 value="0.0023532746" flag="0"/>
    </comp>
    <comp name="--.HHN">
      <acc value="0.1102337026" flag="0"/>
      <vel value="0.0430964753" flag="0"/>
      <psa03 value="0.1098248209" flag="0"/>
      <psa10 value="0.0183705136" flag="0"/>
      <psa30 value="0.0023929880" flag="0"/>
    </comp>
  </station>
</stationlist>
