<?xml version="1.0" encoding="UTF-8" standalone="yes"?>
<!DOCTYPE earthquake SYSTEM "stationlist.dtd">
<stationlist created="" xmlns="ch.ethz.sed.shakemap.usgs.xml">
  <station code="ARPRA" name="ARPRA" netid="KO" insttype="CMG-5T" lat="39.0929" lon="38.3356">
    <comp name="--.HNZ">
      <acc value="0.0266056725" flag="0"/>
      <vel value="0.0096494192" flag="0"/>
      <psa03 value="0.0504924139" flag="0"/>
      <psa10 value="0.0151948816" flag="0"/>
      <psa30 value="0.0005581694" flag="0"/>
    </comp>
    <comp name="--.HNN">
      <acc value="0.0473832957" flag="0"/>
      <vel value="0.0239648947" flag="0"/>
      <psa03 value="0.1592765987" flag="0"/>
      <psa10 value="0.0190208155" flag="0"/>
      <psa30 value="0.0009251792" flag="0"/>
    </comp>
    <comp name="--.HNE">
      <acc value="0.0580561974" flag="0"/>
      <vel value="0.0200988771" flag="0"/>
      <psa03 value="0.1135235506" flag="0"/>
      <psa10 value="0.0137732908" flag="0"/>
      <psa30 value="0.0009795218" flag="0"/>
    </comp>
  </station>
  <station code="DARE" name="DARE" netid="KO" insttype="CMG-3ESP" lat="38.5712" lon="37.4832">
    <comp name="--.HHE">
      <acc value="0.0151062255" flag="0"/>
      <vel value="0.0061897846" flag="0"/>
      <psa03 value="0.0340968117" flag="0"/>
      <psa10 value="0.0048093542" flag="0"/>
      <psa30 value="0.0002988149" flag="0"/>
    </comp>
    <comp name="--.HHZ">
      <acc value="0.0190306407" flag="0"/>
      <vel value="0.0084806370" flag="0"/>
      <psa03 value="0.0660929688" flag="0"/>
      <psa10 value="0.0048636857" flag="0"/>
      <psa30 value="0.0005736774" flag="0"/>
    </comp>
    <comp name="--.HHN">
      <acc value="0.0185089193" flag="0"/>
      <vel value="0.0080212115" flag="0"/>
      <psa03 value="0.0390557324" flag="0"/>
      <psa10 value="0.0051067916" flag="0"/>
      <psa30 value="0.0003079628" flag="0"/>
    </comp>
  </station>
  <station code="SVRC" name="SVRC" netid="KO" insttype="CMG-3T" lat="38.3775" lon="39.306">
    <comp name="--.HHN">
      <acc value="0.0153669614" flag="0"/>
      <vel value="0.0063901894" flag="0"/>
      <psa03 value="0.0559736143" flag="0"/>
      <psa10 value="0.0059361450" flag="0"/>
      <psa30 value="0.0010891798" flag="0"/>
    </comp>
    <comp name="--.HHE">
      <acc value="0.0152900583" flag="0"/>
      <vel value="0.0077394235" flag="0"/>
      <psa03 value="0.0462647668" flag="0"/>
      <psa10 value="0.0066919616" flag="0"/>
      <psa30 value="0.0017422053" flag="0"/>
    </comp>
    <comp name="--.HHZ">
      <acc value="0.0118196548" flag="0"/>
      <vel value="0.0049921842" flag="0"/>
      <psa03 value="0.0211716495" flag="0"/>
      <psa10 value="0.0061307647" flag="0"/>
      <psa30 value="0.0014488664" flag="0"/>
    </comp>
  </station>
  <station code="URFA" name="URFA" netid="KO" insttype="CMG-3ESP" lat="37.4409" lon="38.8213">
    <comp name="--.HHE">
      <acc value="0.0256721021" flag="0"/>
      <vel value="0.0087769473" flag="0"/>
      <psa03 value="0.0529132953" flag="0"/>
      <psa10 value="0.0108926490" flag="0"/>
      <psa30 value="0.0035796147" flag="0"/>
    </comp>
    <comp name="--.HHN">
      <acc value="0.0292998725" flag="0"/>
      <vel value="0.0097568275" flag="0"/>
      <psa03 value="0.0265444771" flag="0"/>
      <psa10 value="0.0060478858" flag="0"/>
      <psa30 value="0.0013931434" flag="0"/>
    </comp>
    <comp name="--.HHZ">
      <acc value="0.0150917079" flag="0"/>
      <vel value="0.0047312200" flag="0"/>
      <psa03 value="0.0199377816" flag="0"/>
      <psa10 value="0.0052957343" flag="0"/>
      <psa30 value="0.0008027469" flag="0"/>
    </comp>
  </station>
</stationlist>
