<?xml version="1.0" encoding="UTF-8" standalone="yes"?>
<!DOCTYPE earthquake SYSTEM "stationlist.dtd">
<stationlist created="" xmlns="ch.ethz.sed.shakemap.usgs.xml">
  <station code="ARPRA" name="ARPRA" netid="KO" insttype="CMG-5T" lat="39.0929" lon="38.3356">
    <comp name="--.HNN">
      <acc value="0.0473833023" flag="0"/>
      <vel value="0.0239648993" flag="0"/>
      <psa03 value="0.1592765987" flag="0"/>
      <psa10 value="0.0190208110" flag="0"/>
      <psa30 value="0.0009224960" flag="0"/>
    </comp>
    <comp name="--.HNZ">
      <acc value="0.0266056734" flag="0"/>
      <vel value="0.0096494068" flag="0"/>
      <psa03 value="0.0504924139" flag="0"/>
      <psa10 value="0.0151948824" flag="0"/>
      <psa30 value="0.0005567714" flag="0"/>
    </comp>
    <comp name="--.HNE">
      <acc value="0.0580562010" flag="0"/>
      <vel value="0.0200988813" flag="0"/>
      <psa03 value="0.1135235506" flag="0"/>
      <psa10 value="0.0137732902" flag="0"/>
      <psa30 value="0.0009791518" flag="0"/>
    </comp>
  </station>
  <station code="DARE" name="DARE" netid="KO" insttype="CMG-3ESP" lat="38.5712" lon="37.4832">
    <comp name="--.HHZ">
      <acc value="0.0190306407" flag="0"/>
      <vel value="0.0084806369" flag="0"/>
      <psa03 value="0.0660929688" flag="0"/>
      <psa10 value="0.0048636857" flag="0"/>
      <psa30 value="0.0005736667" flag="0"/>
    </comp>
    <comp name="--.HHE">
      <acc value="0.0151062255" flag="0"/>
      <vel value="0.0061897845" flag="0"/>
      <psa03 value="0.0340968117" flag="0"/>
      <psa10 value="0.0048093542" flag="0"/>
      <psa30 value="0.0002988155" flag="0"/>
    </comp>
    <comp name="--.HHN">
      <acc value="0.0185089194" flag="0"/>
      <vel value="0.0080212121" flag="0"/>
      <psa03 value="0.0390557324" flag="0"/>
      <psa10 value="0.0051067916" flag="0"/>
      <psa30 value="0.0003079831" flag="0"/>
    </comp>
  </station>
  <station code="SVRC" name="SVRC" netid="KO" insttype="CMG-3T" lat="38.3775" lon="39.306">
    <comp name="--.HHE">
      <acc value="0.0152900581" flag="0"/>
      <vel value="0.0077394231" flag="0"/>
      <psa03 value="0.0462647668" flag="0"/>
      <psa10 value="0.0066919616" flag="0"/>
      <psa30 value="0.0017422121" flag="0"/>
    </comp>
    <comp name="--.HHZ">
      <acc value="0.0118196550" flag="0"/>
      <vel value="0.0049921848" flag="0"/>
      <psa03 value="0.0211716495" flag="0"/>
      <psa10 value="0.0061307647" flag="0"/>
      <psa30 value="0.0014488697" flag="0"/>
    </comp>
    <comp name="--.HHN">
      <acc value="0.0153669615" flag="0"/>
      <vel value="0.0063901895" flag="0"/>
      <psa03 value="0.0559736143" flag="0"/>
      <psa10 value="0.0059361450" flag="0"/>
      <psa30 value="0.0010891874" flag="0"/>
    </comp>
  </station>
  <station code="URFA" name="URFA" netid="KO" insttype="CMG-3ESP" lat="37.4409" lon="38.8213">
    <comp name="--.HHE">
      <acc value="0.0256721021" flag="0"/>
      <vel value="0.0087769471" flag="0"/>
      <psa03 value="0.0529132953" flag="0"/>
      <psa10 value="0.0108926490" flag="0"/>
      <psa30 value="0.0035796147" flag="0"/>
    </comp>
    <comp name="--.HHN">
      <acc value="0.0292998725" flag="0"/>
      <vel value="0.0097568274" flag="0"/>
      <psa03 value="0.0265444771" flag="0"/>
      <psa10 value="0.0060478858" flag="0"/>
      <psa30 value="0.0013931425" flag="0"/>
    </comp>
    <comp name="--.HHZ">
      <acc value="0.0150917079" flag="0"/>
      <vel value="0.0047312214" flag="0"/>
      <psa03 value="0.0199377816" flag="0"/>
      <psa10 value="0.0052957343" flag="0"/>
      <psa30 value="0.0008027468" flag="0"/>
    </comp>
  </station>
</stationlist>
