<?xml version="1.0" encoding="UTF-8" standalone="yes"?>
<!DOCTYPE earthquake SYSTEM "stationlist.dtd">
<stationlist created="" xmlns="ch.ethz.sed.shakemap.usgs.xml">
  <station code="BCI" name="BCI" netid="AC" insttype="" lat="42.3666" lon="20.0675">
    <comp name="--.HHZ">
      <acc value="0.0210033205" flag="0"/>
      <vel value="0.0058272196" flag="0"/>
      <psa03 value="0.0332668900" flag="0"/>
      <psa10 value="0.0055757928" flag="0"/>
      <psa30 value="0.0003607388" flag="0"/>
    </comp>
    <comp name="--.HHE">
      <acc value="0.0276961327" flag="0"/>
      <vel value="0.0070491512" flag="0"/>
      <psa03 value="0.0329456987" flag="0"/>
      <psa10 value="0.0068371035" flag="0"/>
      <psa30 value="0.0004518113" flag="0"/>
    </comp>
    <comp name="--.HHN">
      <acc value="0.0278232383" flag="0"/>
      <vel value="0.0066108647" flag="0"/>
      <psa03 value="0.0254592042" flag="0"/>
      <psa10 value="0.0099173722" flag="0"/>
      <psa30 value="0.0005387044" flag="0"/>
    </comp>
  </station>
  <station code="PHP" name="PHP" netid="AC" insttype="" lat="41.6847" lon="20.4408">
    <comp name="--.HHE">
      <acc value="0.4218424660" flag="0"/>
      <vel value="0.0428516648" flag="0"/>
      <psa03 value="0.1120980841" flag="0"/>
      <psa10 value="0.0167140931" flag="0"/>
      <psa30 value="0.0014009812" flag="0"/>
    </comp>
    <comp name="--.HHN">
      <acc value="0.1888681765" flag="0"/>
      <vel value="0.0328353440" flag="0"/>
      <psa03 value="0.1443616109" flag="0"/>
      <psa10 value="0.0215223788" flag="0"/>
      <psa30 value="0.0013366167" flag="0"/>
    </comp>
    <comp name="--.HHZ">
      <acc value="0.2243670170" flag="0"/>
      <vel value="0.0227553760" flag="0"/>
      <psa03 value="0.0623557011" flag="0"/>
      <psa10 value="0.0092588184" flag="0"/>
      <psa30 value="0.0008582226" flag="0"/>
    </comp>
  </station>
  <station code="PUK" name="PUK" netid="AC" insttype="" lat="42.0426" lon="19.8926">
    <comp name="--.HHE">
      <acc value="0.0257182475" flag="0"/>
      <vel value="0.0055111099" flag="0"/>
      <psa03 value="0.0309995119" flag="0"/>
      <psa10 value="0.0027930582" flag="0"/>
      <psa30 value="0.0001935326" flag="0"/>
    </comp>
    <comp name="--.HHN">
      <acc value="0.0242387770" flag="0"/>
      <vel value="0.0050164901" flag="0"/>
      <psa03 value="0.0245457804" flag="0"/>
      <psa10 value="0.0015549096" flag="0"/>
      <psa30 value="0.0002520194" flag="0"/>
    </comp>
    <comp name="--.HHZ">
      <acc value="0.0140650721" flag="0"/>
      <vel value="0.0030246915" flag="0"/>
      <psa03 value="0.0106264468" flag="0"/>
      <psa10 value="0.0009790527" flag="0"/>
      <psa30 value="0.0000952252" flag="0"/>
    </comp>
  </station>
</stationlist>
