<?xml version="1.0" encoding="UTF-8" standalone="yes"?>
<!DOCTYPE earthquake SYSTEM "stationlist.dtd">
<stationlist created="" xmlns="ch.ethz.sed.shakemap.usgs.xml">
  <station code="LMS2" name="LMS2" netid="HI" insttype="CMG-5TD,ACCELEROMETER,GURALP" lat="40.835" lon="21.1418">
    <comp name="--.HNE">
      <acc value="0.0915028908" flag="0"/>
      <vel value="0.0357911277" flag="0"/>
      <psa03 value="0.3353773950" flag="0"/>
      <psa10 value="0.0154645368" flag="0"/>
      <psa30 value="0.0008976894" flag="0"/>
    </comp>
    <comp name="--.HNN">
      <acc value="0.1129810212" flag="0"/>
      <vel value="0.0448168374" flag="0"/>
      <psa03 value="0.2912243074" flag="0"/>
      <psa10 value="0.0230091729" flag="0"/>
      <psa30 value="0.0016948963" flag="0"/>
    </comp>
    <comp name="--.HNZ">
      <acc value="0.0531967082" flag="0"/>
      <vel value="0.0282794475" flag="0"/>
      <psa03 value="0.2059468348" flag="0"/>
      <psa10 value="0.0169311990" flag="0"/>
      <psa30 value="0.0012682514" flag="0"/>
    </comp>
  </station>
  <station code="KZN" name="KZN" netid="HL" insttype="120" lat="40.3033" lon="21.7821">
    <comp name="--.HHE">
      <acc value="0.3226676756" flag="0"/>
      <vel value="0.0975069227" flag="0"/>
      <psa03 value="0.3620428004" flag="0"/>
      <psa10 value="0.0851060614" flag="0"/>
      <psa30 value="0.0045298602" flag="0"/>
    </comp>
    <comp name="--.HHN">
      <acc value="0.2799180482" flag="0"/>
      <vel value="0.0980645239" flag="0"/>
      <psa03 value="0.2647610247" flag="0"/>
      <psa10 value="0.0679560049" flag="0"/>
      <psa30 value="0.0047397985" flag="0"/>
    </comp>
    <comp name="--.HHZ">
      <acc value="0.1269456356" flag="0"/>
      <vel value="0.0829630855" flag="0"/>
      <psa03 value="0.1565948195" flag="0"/>
      <psa10 value="0.0695528883" flag="0"/>
      <psa30 value="0.0058226202" flag="0"/>
    </comp>
  </station>
  <station code="PENT" name="PENT" netid="HL" insttype="30" lat="40.1959" lon="21.1384">
    <comp name="--.HHE">
      <acc value="0.0357086513" flag="0"/>
      <vel value="0.0175209255" flag="0"/>
      <psa03 value="0.1068072002" flag="0"/>
      <psa10 value="0.0152178867" flag="0"/>
      <psa30 value="0.0018507966" flag="0"/>
    </comp>
    <comp name="--.HHN">
      <acc value="0.0015849519" flag="0"/>
      <vel value="0.0009026143" flag="0"/>
      <psa03 value="0.0041024260" flag="0"/>
      <psa10 value="0.0011419333" flag="0"/>
      <psa30 value="0.0001740902" flag="0"/>
    </comp>
    <comp name="--.HHZ">
      <acc value="0.0311306288" flag="0"/>
      <vel value="0.0176698898" flag="0"/>
      <psa03 value="0.0573775428" flag="0"/>
      <psa10 value="0.0215668905" flag="0"/>
      <psa30 value="0.0013789795" flag="0"/>
    </comp>
  </station>
  <station code="THL" name="THL" netid="HL" insttype="120" lat="39.5647" lon="22.0144">
    <comp name="--.HHE">
      <acc value="0.0060870196" flag="0"/>
      <vel value="0.0060683297" flag="0"/>
      <psa03 value="0.0127872902" flag="0"/>
      <psa10 value="0.0117977135" flag="0"/>
      <psa30 value="0.0008074368" flag="0"/>
    </comp>
    <comp name="--.HHN">
      <acc value="0.0059422023" flag="0"/>
      <vel value="0.0055857568" flag="0"/>
      <psa03 value="0.0122047106" flag="0"/>
      <psa10 value="0.0092312259" flag="0"/>
      <psa30 value="0.0005419905" flag="0"/>
    </comp>
    <comp name="--.HHZ">
      <acc value="0.0044309911" flag="0"/>
      <vel value="0.0039154800" flag="0"/>
      <psa03 value="0.0110410972" flag="0"/>
      <psa10 value="0.0057292068" flag="0"/>
      <psa30 value="0.0005798313" flag="0"/>
    </comp>
  </station>
  <station code="GRG" name="GRG" netid="HT" insttype="100" lat="40.957" lon="22.401">
    <comp name="--.HHE">
      <acc value="0.0291234516" flag="0"/>
      <vel value="0.0198744864" flag="0"/>
      <psa03 value="0.0625204115" flag="0"/>
      <psa10 value="0.0307327312" flag="0"/>
      <psa30 value="0.0021932980" flag="0"/>
    </comp>
    <comp name="--.HHN">
      <acc value="0.0538639275" flag="0"/>
      <vel value="0.0338851831" flag="0"/>
      <psa03 value="0.0907413326" flag="0"/>
      <psa10 value="0.0335433783" flag="0"/>
      <psa30 value="0.0026285645" flag="0"/>
    </comp>
    <comp name="--.HHZ">
      <acc value="0.0204503384" flag="0"/>
      <vel value="0.0149610953" flag="0"/>
      <psa03 value="0.0508089336" flag="0"/>
      <psa10 value="0.0285045410" flag="0"/>
      <psa30 value="0.0013959988" flag="0"/>
    </comp>
  </station>
  <station code="HORT" name="HORT" netid="HT" insttype="100" lat="40.5978" lon="23.0996">
    <comp name="--.HHE">
      <acc value="0.0063988050" flag="0"/>
      <vel value="0.0044895841" flag="0"/>
      <psa03 value="0.0127057304" flag="0"/>
      <psa10 value="0.0059430027" flag="0"/>
      <psa30 value="0.0003619246" flag="0"/>
    </comp>
    <comp name="--.HHN">
      <acc value="0.0000112163" flag="0"/>
      <vel value="0.0000020770" flag="0"/>
      <psa03 value="0.0000105732" flag="0"/>
      <psa10 value="0.0000019934" flag="0"/>
      <psa30 value="0.0000006126" flag="0"/>
    </comp>
    <comp name="--.HHZ">
      <acc value="0.0068458206" flag="0"/>
      <vel value="0.0062428212" flag="0"/>
      <psa03 value="0.0084314063" flag="0"/>
      <psa10 value="0.0093757674" flag="0"/>
      <psa30 value="0.0007184250" flag="0"/>
    </comp>
  </station>
  <station code="KNT" name="KNT" netid="HT" insttype="100" lat="41.162" lon="22.898">
    <comp name="--.HHN">
      <acc value="0.0107841266" flag="0"/>
      <vel value="0.0066779991" flag="0"/>
      <psa03 value="0.0402330558" flag="0"/>
      <psa10 value="0.0072221887" flag="0"/>
      <psa30 value="0.0006848838" flag="0"/>
    </comp>
    <comp name="--.HHZ">
      <acc value="0.0077150072" flag="0"/>
      <vel value="0.0038899661" flag="0"/>
      <psa03 value="0.0204700507" flag="0"/>
      <psa10 value="0.0055134818" flag="0"/>
      <psa30 value="0.0003125112" flag="0"/>
    </comp>
    <comp name="--.HHE">
      <acc value="0.0060511872" flag="0"/>
      <vel value="0.0032613766" flag="0"/>
      <psa03 value="0.0194805785" flag="0"/>
      <psa10 value="0.0035583090" flag="0"/>
      <psa30 value="0.0004820123" flag="0"/>
    </comp>
  </station>
  <station code="KPRO" name="KPRO" netid="HT" insttype="100" lat="39.9549" lon="21.3632">
    <comp name="--.HHE">
      <acc value="0.0287952624" flag="0"/>
      <vel value="0.0154398570" flag="0"/>
      <psa03 value="0.0930658114" flag="0"/>
      <psa10 value="0.0161179359" flag="0"/>
      <psa30 value="0.0016233893" flag="0"/>
    </comp>
    <comp name="--.HHN">
      <acc value="0.0277172769" flag="0"/>
      <vel value="0.0200478710" flag="0"/>
      <psa03 value="0.1029836895" flag="0"/>
      <psa10 value="0.0117540545" flag="0"/>
      <psa30 value="0.0013475464" flag="0"/>
    </comp>
    <comp name="--.HHZ">
      <acc value="0.0144542224" flag="0"/>
      <vel value="0.0091141784" flag="0"/>
      <psa03 value="0.0467960254" flag="0"/>
      <psa10 value="0.0135053504" flag="0"/>
      <psa30 value="0.0011240169" flag="0"/>
    </comp>
  </station>
  <station code="LIT" name="LIT" netid="HT" insttype="100" lat="40.1033" lon="22.4892">
    <comp name="--.HHE">
      <acc value="0.0507273815" flag="0"/>
      <vel value="0.0154095156" flag="0"/>
      <psa03 value="0.0591019203" flag="0"/>
      <psa10 value="0.0113599056" flag="0"/>
      <psa30 value="0.0010657617" flag="0"/>
    </comp>
    <comp name="--.HHN">
      <acc value="0.0647915358" flag="0"/>
      <vel value="0.0242872392" flag="0"/>
      <psa03 value="0.0507962990" flag="0"/>
      <psa10 value="0.0194048509" flag="0"/>
      <psa30 value="0.0017686026" flag="0"/>
    </comp>
    <comp name="--.HHZ">
      <acc value="0.0223958810" flag="0"/>
      <vel value="0.0086712781" flag="0"/>
      <psa03 value="0.0313661463" flag="0"/>
      <psa10 value="0.0058907472" flag="0"/>
      <psa30 value="0.0005106499" flag="0"/>
    </comp>
  </station>
  <station code="NEST" name="NEST" netid="HT" insttype="120P," lat="40.4147" lon="21.0489">
    <comp name="--.HHE">
      <acc value="0.0487680850" flag="0"/>
      <vel value="0.0188617730" flag="0"/>
      <psa03 value="0.1163504181" flag="0"/>
      <psa10 value="0.0091880414" flag="0"/>
      <psa30 value="0.0010338635" flag="0"/>
    </comp>
    <comp name="--.HHN">
      <acc value="0.0444463909" flag="0"/>
      <vel value="0.0141785411" flag="0"/>
      <psa03 value="0.0898324345" flag="0"/>
      <psa10 value="0.0189601080" flag="0"/>
      <psa30 value="0.0012221408" flag="0"/>
    </comp>
    <comp name="--.HHZ">
      <acc value="0.0343029671" flag="0"/>
      <vel value="0.0162029872" flag="0"/>
      <psa03 value="0.1119527193" flag="0"/>
      <psa10 value="0.0121353785" flag="0"/>
      <psa30 value="0.0011702258" flag="0"/>
    </comp>
  </station>
  <station code="TYRN" name="TYRN" netid="HT" insttype="120P," lat="39.711" lon="22.2325">
    <comp name="--.HHE">
      <acc value="0.0079573959" flag="0"/>
      <vel value="0.0081177543" flag="0"/>
      <psa03 value="0.0125672576" flag="0"/>
      <psa10 value="0.0171650406" flag="0"/>
      <psa30 value="0.0010920703" flag="0"/>
    </comp>
    <comp name="--.HHN">
      <acc value="0.0124542851" flag="0"/>
      <vel value="0.0114334269" flag="0"/>
      <psa03 value="0.0182285115" flag="0"/>
      <psa10 value="0.0145067289" flag="0"/>
      <psa30 value="0.0008614567" flag="0"/>
    </comp>
    <comp name="--.HHZ">
      <acc value="0.0071886996" flag="0"/>
      <vel value="0.0075003357" flag="0"/>
      <psa03 value="0.0110234790" flag="0"/>
      <psa10 value="0.0128179675" flag="0"/>
      <psa30 value="0.0009471945" flag="0"/>
    </comp>
  </station>
  <station code="THL" name="THL" netid="MN" insttype="" lat="39.5647" lon="22.0144">
    <comp name="--.HHE">
      <acc value="0.0012735933" flag="0"/>
      <vel value="0.0012696828" flag="0"/>
      <psa03 value="0.0026754978" flag="0"/>
      <psa10 value="0.0024684477" flag="0"/>
      <psa30 value="0.0001689408" flag="0"/>
    </comp>
    <comp name="--.HHN">
      <acc value="0.0012432931" flag="0"/>
      <vel value="0.0011687136" flag="0"/>
      <psa03 value="0.0025536041" flag="0"/>
      <psa10 value="0.0019314588" flag="0"/>
      <psa30 value="0.0001134012" flag="0"/>
    </comp>
    <comp name="--.HHZ">
      <acc value="0.0009271008" flag="0"/>
      <vel value="0.0008192399" flag="0"/>
      <psa03 value="0.0023101401" flag="0"/>
      <psa10 value="0.0011987278" flag="0"/>
      <psa30 value="0.0001213187" flag="0"/>
    </comp>
  </station>
</stationlist>
