<stationlist created="1778069321">
	<station code="STC" name="STC" netid="EG" source="EUROSEISTEST Strong Motion Network" insttype="" lat="40.64865" lon="23.304856">
		<comp name="--.EN1" depth="0.0">
			<acc value="0.0156630482205718" flag="0"/>
			<vel value="0.0113099031826478" flag="0"/>
			<psa03 value="0.0409513091774273" flag="0"/>
			<psa10 value="0.0103042557313567" flag="0"/>
			<psa30 value="0.00147238983026786" flag="0"/>
		</comp>
		<comp name="--.EN2" depth="0.0">
			<acc value="0.0158525952464441" flag="0"/>
			<vel value="0.00994081270834251" flag="0"/>
			<psa03 value="0.0501907832263193" flag="0"/>
			<psa10 value="0.0141762362935789" flag="0"/>
			<psa30 value="0.00175471832480991" flag="0"/>
		</comp>
		<comp name="--.EN3" depth="0.0">
			<acc value="0.0124286235663997" flag="0"/>
			<vel value="0.00743632803470991" flag="0"/>
			<psa03 value="0.0214462162795055" flag="0"/>
			<psa10 value="0.013773466174532" flag="0"/>
			<psa30 value="0.0010991177069858" flag="0"/>
		</comp>
	</station>
	<station code="ART2" name="ART2" netid="HI" source="ITSAK Strong Motion Network" insttype="" lat="39.1474" lon="20.9937">
		<comp name="--.HNE" depth="0.0">
			<acc value="0.00187301403623445" flag="0"/>
			<vel value="0.00148141606793064" flag="0"/>
			<psa03 value="0.00444647880219104" flag="0"/>
			<psa10 value="0.00276968082151344" flag="0"/>
			<psa30 value="0.000314152581899903" flag="0"/>
		</comp>
		<comp name="--.HNN" depth="0.0">
			<acc value="0.00195818398216504" flag="0"/>
			<vel value="0.00128899567403077" flag="0"/>
			<psa03 value="0.00355998908701495" flag="0"/>
			<psa10 value="0.00180079277024544" flag="0"/>
			<psa30 value="0.000163028390976847" flag="0"/>
		</comp>
		<comp name="--.HNZ" depth="0.0">
			<acc value="0.00170680580102571" flag="0"/>
			<vel value="0.00109067919896034" flag="0"/>
			<psa03 value="0.00328794697701652" flag="0"/>
			<psa10 value="0.00252710209561263" flag="0"/>
			<psa30 value="0.000395422991707649" flag="0"/>
		</comp>
	</station>
	<station code="KRK1" name="KRK1" netid="HI" source="ITSAK Strong Motion Network" insttype="" lat="39.618861" lon="19.9202">
		<comp name="--.HNE" depth="0.0">
			<acc value="0.0113508866704825" flag="0"/>
			<vel value="0.00929313953841482" flag="0"/>
			<psa03 value="0.0324245333828626" flag="0"/>
			<psa10 value="0.00642056595599114" flag="0"/>
			<psa30 value="0.00163858375646334" flag="0"/>
		</comp>
		<comp name="--.HNN" depth="0.0">
			<acc value="0.0137214397727461" flag="0"/>
			<vel value="0.0080540744234419" flag="0"/>
			<psa03 value="0.0271502308612338" flag="0"/>
			<psa10 value="0.00711692755527863" flag="0"/>
			<psa30 value="0.000856587005101146" flag="0"/>
		</comp>
		<comp name="--.HNZ" depth="0.0">
			<acc value="0.00476021220296929" flag="0"/>
			<vel value="0.00304186702814184" flag="0"/>
			<psa03 value="0.0171782382343921" flag="0"/>
			<psa10 value="0.003862990279148" flag="0"/>
			<psa30 value="0.000620392347949114" flag="0"/>
		</comp>
	</station>
	<station code="LMS2" name="LMS2" netid="HI" source="ITSAK Strong Motion Network" insttype="" lat="40.834985" lon="21.141815">
		<comp name="--.HNE" depth="0.0">
			<acc value="0.091428402309737" flag="0"/>
			<vel value="0.0358835110849561" flag="0"/>
			<psa03 value="0.342143654009924" flag="0"/>
			<psa10 value="0.0154749870030617" flag="0"/>
			<psa30 value="0.000916767813608388" flag="0"/>
		</comp>
		<comp name="--.HNN" depth="0.0">
			<acc value="0.11272169578148" flag="0"/>
			<vel value="0.0455540929933833" flag="0"/>
			<psa03 value="0.291316507291567" flag="0"/>
			<psa10 value="0.0230775827516384" flag="0"/>
			<psa30 value="0.00184651086713607" flag="0"/>
		</comp>
		<comp name="--.HNZ" depth="0.0">
			<acc value="0.0535910803662554" flag="0"/>
			<vel value="0.0283228051646284" flag="0"/>
			<psa03 value="0.210556824345587" flag="0"/>
			<psa10 value="0.0169407416918762" flag="0"/>
			<psa30 value="0.00129036523887096" flag="0"/>
		</comp>
	</station>
	<station code="JAN" name="JAN" netid="HL" source="National Observatory of Athens Seismic Network" insttype="" lat="39.65616" lon="20.84874">
		<comp name="00.HNE" depth="0.0">
			<acc value="0.0103935856312669" flag="0"/>
			<vel value="0.00616260840777955" flag="0"/>
			<psa03 value="0.0248766668797591" flag="0"/>
			<psa10 value="0.00742541661036838" flag="0"/>
			<psa30 value="0.00110513250347131" flag="0"/>
		</comp>
		<comp name="00.HNN" depth="0.0">
			<acc value="0.00814915129391136" flag="0"/>
			<vel value="0.00554055614780565" flag="0"/>
			<psa03 value="0.024205533780485" flag="0"/>
			<psa10 value="0.00462276478779984" flag="0"/>
			<psa30 value="0.000553013673801839" flag="0"/>
		</comp>
		<comp name="00.HNZ" depth="0.0">
			<acc value="0.00423404094518604" flag="0"/>
			<vel value="0.00333396546464969" flag="0"/>
			<psa03 value="0.0159282255561047" flag="0"/>
			<psa10 value="0.00560933044373273" flag="0"/>
			<psa30 value="0.000485900363874431" flag="0"/>
		</comp>
	</station>
	<station code="NASA" name="NASA" netid="HL" source="National Observatory of Athens Seismic Network" insttype="" lat="40.63111" lon="22.06706">
		<comp name="00.HNE" depth="0.0">
			<acc value="0.445192612707582" flag="0"/>
			<vel value="0.22839163841811" flag="0"/>
			<psa03 value="0.792378074492468" flag="0"/>
			<psa10 value="0.184175810743379" flag="0"/>
			<psa30 value="0.00961818549092157" flag="0"/>
		</comp>
		<comp name="00.HNN" depth="0.0">
			<acc value="0.33740654353786" flag="0"/>
			<vel value="0.151735947529909" flag="0"/>
			<psa03 value="0.779615229018105" flag="0"/>
			<psa10 value="0.168490066639878" flag="0"/>
			<psa30 value="0.0134688514119716" flag="0"/>
		</comp>
		<comp name="00.HNZ" depth="0.0">
			<acc value="0.326557220345576" flag="0"/>
			<vel value="0.0794619129977352" flag="0"/>
			<psa03 value="0.579690443312362" flag="0"/>
			<psa10 value="0.0611263943234319" flag="0"/>
			<psa30 value="0.00417127757666855" flag="0"/>
		</comp>
	</station>
	<station code="OREA" name="OREA" netid="HL" source="National Observatory of Athens Seismic Network" insttype="" lat="40.72705" lon="22.91452">
		<comp name="00.HNE" depth="0.0">
			<acc value="0.0191584330061909" flag="0"/>
			<vel value="0.00978276302063055" flag="0"/>
			<psa03 value="0.0536384491172723" flag="0"/>
			<psa10 value="0.00749648176137784" flag="0"/>
			<psa30 value="0.000931164080882193" flag="0"/>
		</comp>
		<comp name="00.HNN" depth="0.0">
			<acc value="0.0178074987399072" flag="0"/>
			<vel value="0.0164467973723125" flag="0"/>
			<psa03 value="0.0489540190051175" flag="0"/>
			<psa10 value="0.0134058958873199" flag="0"/>
			<psa30 value="0.000992664821674396" flag="0"/>
		</comp>
		<comp name="00.HNZ" depth="0.0">
			<acc value="0.0119702200265619" flag="0"/>
			<vel value="0.005484748432256" flag="0"/>
			<psa03 value="0.0225991533330147" flag="0"/>
			<psa10 value="0.00939980550347571" flag="0"/>
			<psa30 value="0.000425521105351744" flag="0"/>
		</comp>
	</station>
	<station code="TRKA" name="TRKA" netid="HL" source="National Observatory of Athens Seismic Network" insttype="" lat="39.55381" lon="21.76624">
		<comp name="00.HNE" depth="0.0">
			<acc value="0.0191438826257794" flag="0"/>
			<vel value="0.0178421762350381" flag="0"/>
			<psa03 value="0.032415639564525" flag="0"/>
			<psa10 value="0.0365524339193674" flag="0"/>
			<psa30 value="0.00139614988391283" flag="0"/>
		</comp>
		<comp name="00.HNN" depth="0.0">
			<acc value="0.0163300406180263" flag="0"/>
			<vel value="0.0129845393588829" flag="0"/>
			<psa03 value="0.0532112228988261" flag="0"/>
			<psa10 value="0.0301427924370696" flag="0"/>
			<psa30 value="0.00137002857016838" flag="0"/>
		</comp>
		<comp name="00.HNZ" depth="0.0">
			<acc value="0.0106260230976749" flag="0"/>
			<vel value="0.00659736744308716" flag="0"/>
			<psa03 value="0.0344531339135258" flag="0"/>
			<psa10 value="0.00887718588248311" flag="0"/>
			<psa30 value="0.000700013612051175" flag="0"/>
		</comp>
	</station>
	<station code="ANX" name="ANX" netid="HP" source="University of Patras, Seismological Laboratory (PSLNET)" insttype="" lat="38.5933" lon="21.9209">
		<comp name="--.HNE" depth="0.0">
			<acc value="0.00317759779041501" flag="0"/>
			<vel value="0.0034775617050206" flag="0"/>
			<psa03 value="0.010303485940797" flag="0"/>
			<psa10 value="0.00820382502565029" flag="0"/>
			<psa30 value="0.00032034114290356" flag="0"/>
		</comp>
		<comp name="--.HNN" depth="0.0">
			<acc value="0.00380700677930858" flag="0"/>
			<vel value="0.00251204790482589" flag="0"/>
			<psa03 value="0.0155932907914808" flag="0"/>
			<psa10 value="0.00419000631736525" flag="0"/>
			<psa30 value="0.000298316923490597" flag="0"/>
		</comp>
		<comp name="--.HNZ" depth="0.0">
			<acc value="0.00176182764969723" flag="0"/>
			<vel value="0.00207787137502001" flag="0"/>
			<psa03 value="0.00526173430626107" flag="0"/>
			<psa10 value="0.00318206681193573" flag="0"/>
			<psa30 value="0.000214624035497311" flag="0"/>
		</comp>
	</station>
</stationlist>
