<?xml version="1.0" encoding="UTF-8" standalone="yes"?>
<!DOCTYPE earthquake SYSTEM "stationlist.dtd">
<stationlist created="" xmlns="ch.ethz.sed.shakemap.usgs.xml">
  <station code="BNN" name="BNN" netid="KO" insttype="CMG-3T" lat="38.8521" lon="35.8472">
    <comp name="--.HHE">
      <acc value="0.1042373239" flag="0"/>
      <vel value="0.0790862901" flag="0"/>
      <psa03 value="0.1241515427" flag="0"/>
      <psa10 value="0.1422182944" flag="0"/>
      <psa30 value="0.0136379342" flag="0"/>
    </comp>
    <comp name="--.HHN">
      <acc value="0.0619414814" flag="0"/>
      <vel value="0.0644700301" flag="0"/>
      <psa03 value="0.1999836021" flag="0"/>
      <psa10 value="0.1022816058" flag="0"/>
      <psa30 value="0.0170048087" flag="0"/>
    </comp>
    <comp name="--.HHZ">
      <acc value="0.0521823476" flag="0"/>
      <vel value="0.0291797815" flag="0"/>
      <psa03 value="0.1112360928" flag="0"/>
      <psa10 value="0.0377172208" flag="0"/>
      <psa30 value="0.0079981298" flag="0"/>
    </comp>
  </station>
  <station code="CEYT" name="CEYT" netid="KO" insttype="CMG-3ESP" lat="37.0105" lon="35.7478">
    <comp name="--.HHE">
      <acc value="0.0442240777" flag="0"/>
      <vel value="0.0759137596" flag="0"/>
      <psa03 value="0.0690647114" flag="0"/>
      <psa10 value="0.1407989598" flag="0"/>
      <psa30 value="0.0148327536" flag="0"/>
    </comp>
    <comp name="--.HHN">
      <acc value="0.0296265722" flag="0"/>
      <vel value="0.0294469470" flag="0"/>
      <psa03 value="0.0580216772" flag="0"/>
      <psa10 value="0.0731539603" flag="0"/>
      <psa30 value="0.0090885094" flag="0"/>
    </comp>
    <comp name="--.HHZ">
      <acc value="0.0275550057" flag="0"/>
      <vel value="0.0278453453" flag="0"/>
      <psa03 value="0.0379410664" flag="0"/>
      <psa10 value="0.0540043025" flag="0"/>
      <psa30 value="0.0091376034" flag="0"/>
    </comp>
  </station>
  <station code="CMRD" name="CMRD" netid="KO" insttype="CMG-5T" lat="37.6623" lon="34.9902">
    <comp name="--.HNZ">
      <acc value="0.0409156921" flag="0"/>
      <vel value="0.0549451912" flag="0"/>
      <psa03 value="0.1091431724" flag="0"/>
      <psa10 value="0.0760599672" flag="0"/>
      <psa30 value="0.0106044659" flag="0"/>
    </comp>
    <comp name="--.HNE">
      <acc value="0.0343509387" flag="0"/>
      <vel value="0.0527605295" flag="0"/>
      <psa03 value="0.1189552779" flag="0"/>
      <psa10 value="0.0758377314" flag="0"/>
      <psa30 value="0.0070418839" flag="0"/>
    </comp>
    <comp name="--.HNN">
      <acc value="0.0392804861" flag="0"/>
      <vel value="0.0454359020" flag="0"/>
      <psa03 value="0.1003028249" flag="0"/>
      <psa10 value="0.0469667635" flag="0"/>
      <psa30 value="0.0170350376" flag="0"/>
    </comp>
  </station>
  <station code="GAZ" name="GAZ" netid="KO" insttype="CMG-3T" lat="37.1721" lon="37.2096">
    <comp name="--.HHN">
      <acc value="0.1836845082" flag="0"/>
      <vel value="0.1466549735" flag="0"/>
      <psa03 value="0.3596907420" flag="0"/>
      <psa10 value="0.2162345241" flag="0"/>
      <psa30 value="0.0186984184" flag="0"/>
    </comp>
  </station>
  <station code="KHMN" name="KHMN" netid="KO" insttype="CMG-5T" lat="37.3916" lon="37.1574">
    <comp name="--.HNE">
      <acc value="0.3565055542" flag="0"/>
      <vel value="0.1459083223" flag="0"/>
      <psa03 value="0.2810045588" flag="0"/>
      <psa10 value="0.1546853523" flag="0"/>
      <psa30 value="0.0163207022" flag="0"/>
    </comp>
    <comp name="--.HNZ">
      <acc value="0.1678000962" flag="0"/>
      <vel value="0.0744335428" flag="0"/>
      <psa03 value="0.2119628650" flag="0"/>
      <psa10 value="0.0733866637" flag="0"/>
      <psa30 value="0.0128581450" flag="0"/>
    </comp>
    <comp name="--.HNN">
      <acc value="0.3769572293" flag="0"/>
      <vel value="0.1363959443" flag="0"/>
      <psa03 value="0.4774090325" flag="0"/>
      <psa10 value="0.0754863325" flag="0"/>
      <psa30 value="0.0206413659" flag="0"/>
    </comp>
  </station>
  <station code="ANDN" name="ANDN" netid="TU" insttype="T" lat="37.58" lon="36.3452">
    <comp name="--.HHE">
      <acc value="0.4845110487" flag="0"/>
      <vel value="0.2238712411" flag="0"/>
      <psa03 value="0.6780634190" flag="0"/>
      <psa10 value="0.4944627960" flag="0"/>
      <psa30 value="0.0276190202" flag="0"/>
    </comp>
    <comp name="--.HHZ">
      <acc value="0.2950988116" flag="0"/>
      <vel value="0.3265859724" flag="0"/>
      <psa03 value="0.4489553887" flag="0"/>
      <psa10 value="0.5545143748" flag="0"/>
      <psa30 value="0.0397952967" flag="0"/>
    </comp>
    <comp name="--.HHN">
      <acc value="0.5726103435" flag="0"/>
      <vel value="0.3349562964" flag="0"/>
      <psa03 value="0.8632467674" flag="0"/>
      <psa10 value="0.6400654389" flag="0"/>
      <psa30 value="0.0303463048" flag="0"/>
    </comp>
  </station>
</stationlist>
