<?xml version="1.0" encoding="UTF-8" standalone="yes"?>
<!DOCTYPE earthquake SYSTEM "stationlist.dtd">
<stationlist created="" xmlns="ch.ethz.sed.shakemap.usgs.xml">
  <station code="APEC" name="APEC" netid="IV" insttype="" lat="43.5585" lon="12.4199">
    <comp name="--.HHE">
      <acc value="0.0726028059" flag="0"/>
      <vel value="0.0345418737" flag="0"/>
      <psa03 value="0.1590127380" flag="0"/>
      <psa10 value="0.0316621503" flag="0"/>
      <psa30 value="0.0051497006" flag="0"/>
    </comp>
    <comp name="--.HHZ">
      <acc value="0.0463395725" flag="0"/>
      <vel value="0.0230317167" flag="0"/>
      <psa03 value="0.0857831131" flag="0"/>
      <psa10 value="0.0224957259" flag="0"/>
      <psa30 value="0.0068933607" flag="0"/>
    </comp>
    <comp name="--.HHN">
      <acc value="0.0894369025" flag="0"/>
      <vel value="0.0421646556" flag="0"/>
      <psa03 value="0.2129101939" flag="0"/>
      <psa10 value="0.0384338875" flag="0"/>
      <psa30 value="0.0092369106" flag="0"/>
    </comp>
  </station>
  <station code="ARCI" name="ARCI" netid="IV" insttype="" lat="42.8519" lon="11.4754">
    <comp name="--.HHN">
      <acc value="0.0044962600" flag="0"/>
      <vel value="0.0033302448" flag="0"/>
      <psa03 value="0.0147731167" flag="0"/>
      <psa10 value="0.0053714452" flag="0"/>
      <psa30 value="0.0007397900" flag="0"/>
    </comp>
    <comp name="--.HHE">
      <acc value="0.0049439575" flag="0"/>
      <vel value="0.0028579391" flag="0"/>
      <psa03 value="0.0155327246" flag="0"/>
      <psa10 value="0.0036865276" flag="0"/>
      <psa30 value="0.0010084973" flag="0"/>
    </comp>
    <comp name="--.HHZ">
      <acc value="0.0028701646" flag="0"/>
      <vel value="0.0016306540" flag="0"/>
      <psa03 value="0.0065222762" flag="0"/>
      <psa10 value="0.0022333807" flag="0"/>
      <psa30 value="0.0004263624" flag="0"/>
    </comp>
  </station>
  <station code="ARVD" name="ARVD" netid="IV" insttype="" lat="43.4981" lon="12.9415">
    <comp name="--.HHE">
      <acc value="0.0468785366" flag="0"/>
      <vel value="0.0093606721" flag="0"/>
      <psa03 value="0.0451215374" flag="0"/>
      <psa10 value="0.0115292076" flag="0"/>
      <psa30 value="0.0027791216" flag="0"/>
    </comp>
    <comp name="--.HHN">
      <acc value="0.0282443217" flag="0"/>
      <vel value="0.0065761428" flag="0"/>
      <psa03 value="0.0270433085" flag="0"/>
      <psa10 value="0.0058429131" flag="0"/>
      <psa30 value="0.0014100167" flag="0"/>
    </comp>
    <comp name="--.HHZ">
      <acc value="0.0248809712" flag="0"/>
      <vel value="0.0080982966" flag="0"/>
      <psa03 value="0.0418936813" flag="0"/>
      <psa10 value="0.0090372522" flag="0"/>
      <psa30 value="0.0030778516" flag="0"/>
    </comp>
  </station>
  <station code="ASSB" name="ASSB" netid="IV" insttype="" lat="43.0426" lon="12.6587">
    <comp name="--.HHN">
      <acc value="0.1793967659" flag="0"/>
      <vel value="0.0440097471" flag="0"/>
      <psa03 value="0.0859850484" flag="0"/>
      <psa10 value="0.0157779898" flag="0"/>
      <psa30 value="0.0024707655" flag="0"/>
    </comp>
    <comp name="--.HHE">
      <acc value="0.1870910090" flag="0"/>
      <vel value="0.0321951640" flag="0"/>
      <psa03 value="0.0959020403" flag="0"/>
      <psa10 value="0.0173236239" flag="0"/>
      <psa30 value="0.0030738485" flag="0"/>
    </comp>
    <comp name="--.HHZ">
      <acc value="0.1241845208" flag="0"/>
      <vel value="0.0250013984" flag="0"/>
      <psa03 value="0.0707747934" flag="0"/>
      <psa10 value="0.0120993043" flag="0"/>
      <psa30 value="0.0031696966" flag="0"/>
    </comp>
  </station>
  <station code="ATBU" name="ATBU" netid="IV" insttype="" lat="43.4757" lon="12.5483">
    <comp name="--.HNE">
      <acc value="0.2249334404" flag="0"/>
      <vel value="0.0852042808" flag="0"/>
      <psa03 value="0.4232289715" flag="0"/>
      <psa10 value="0.0891404239" flag="0"/>
      <psa30 value="0.0071051548" flag="0"/>
    </comp>
    <comp name="--.HNN">
      <acc value="0.2378287458" flag="0"/>
      <vel value="0.1077254734" flag="0"/>
      <psa03 value="0.3219636102" flag="0"/>
      <psa10 value="0.0692856061" flag="0"/>
      <psa30 value="0.0130680040" flag="0"/>
    </comp>
    <comp name="--.HNZ">
      <acc value="0.0965005440" flag="0"/>
      <vel value="0.0458131888" flag="0"/>
      <psa03 value="0.2000251410" flag="0"/>
      <psa10 value="0.0522867448" flag="0"/>
      <psa30 value="0.0084933368" flag="0"/>
    </comp>
  </station>
  <station code="ATCC" name="ATCC" netid="IV" insttype="" lat="43.1851" lon="12.6399">
    <comp name="--.HNE">
      <acc value="0.4992480956" flag="0"/>
      <vel value="0.1041216596" flag="0"/>
      <psa03 value="0.3417106730" flag="0"/>
      <psa10 value="0.1456216039" flag="0"/>
      <psa30 value="0.0110874771" flag="0"/>
    </comp>
    <comp name="--.HNN">
      <acc value="0.4840645471" flag="0"/>
      <vel value="0.0799239558" flag="0"/>
      <psa03 value="0.5148575003" flag="0"/>
      <psa10 value="0.0965654030" flag="0"/>
      <psa30 value="0.0126080584" flag="0"/>
    </comp>
    <comp name="--.HNZ">
      <acc value="0.1877746253" flag="0"/>
      <vel value="0.0443818459" flag="0"/>
      <psa03 value="0.1952754919" flag="0"/>
      <psa10 value="0.0565233876" flag="0"/>
      <psa30 value="0.0064859717" flag="0"/>
    </comp>
  </station>
  <station code="ATFO" name="ATFO" netid="IV" insttype="" lat="43.3666" lon="12.5715">
    <comp name="--.HHN">
      <acc value="0.4051408885" flag="0"/>
      <vel value="0.1337719803" flag="0"/>
      <psa03 value="0.7080247026" flag="0"/>
      <psa10 value="0.0462979526" flag="0"/>
      <psa30 value="0.0102422792" flag="0"/>
    </comp>
    <comp name="--.HHE">
      <acc value="0.4566941582" flag="0"/>
      <vel value="0.1252332522" flag="0"/>
      <psa03 value="0.5572370353" flag="0"/>
      <psa10 value="0.0678462665" flag="0"/>
      <psa30 value="0.0098643535" flag="0"/>
    </comp>
    <comp name="--.HHZ">
      <acc value="0.2730024989" flag="0"/>
      <vel value="0.0709018968" flag="0"/>
      <psa03 value="0.2940814702" flag="0"/>
      <psa10 value="0.0519916681" flag="0"/>
      <psa30 value="0.0121526339" flag="0"/>
    </comp>
  </station>
  <station code="ATLO" name="ATLO" netid="IV" insttype="" lat="43.3152" lon="12.4073">
    <comp name="--.HNE">
      <acc value="5.1671028497" flag="0"/>
      <vel value="0.9357102918" flag="0"/>
      <psa03 value="1.8687617107" flag="0"/>
      <psa10 value="0.3520512847" flag="0"/>
      <psa30 value="0.0310850225" flag="0"/>
    </comp>
    <comp name="--.HNN">
      <acc value="5.8743297032" flag="0"/>
      <vel value="0.9265356642" flag="0"/>
      <psa03 value="1.7742169733" flag="0"/>
      <psa10 value="0.2525155596" flag="0"/>
      <psa30 value="0.0501919629" flag="0"/>
    </comp>
    <comp name="--.HNZ">
      <acc value="1.1939859075" flag="0"/>
      <vel value="0.1108259255" flag="0"/>
      <psa03 value="0.2165669716" flag="0"/>
      <psa10 value="0.0820084394" flag="0"/>
      <psa30 value="0.0080417244" flag="0"/>
    </comp>
  </station>
  <station code="ATMI" name="ATMI" netid="IV" insttype="" lat="43.3342" lon="12.268">
    <comp name="--.HHE">
      <acc value="0.4907787676" flag="0"/>
      <vel value="0.3146257678" flag="0"/>
      <psa03 value="1.2389989787" flag="0"/>
      <psa10 value="0.1848074323" flag="0"/>
      <psa30 value="0.0149643163" flag="0"/>
    </comp>
    <comp name="--.HHN">
      <acc value="0.3965328761" flag="0"/>
      <vel value="0.2205190558" flag="0"/>
      <psa03 value="1.2361731235" flag="0"/>
      <psa10 value="0.1976945807" flag="0"/>
      <psa30 value="0.0275280303" flag="0"/>
    </comp>
    <comp name="--.HHZ">
      <acc value="0.3673736042" flag="0"/>
      <vel value="0.1686565246" flag="0"/>
      <psa03 value="0.8951513001" flag="0"/>
      <psa10 value="0.0942985086" flag="0"/>
      <psa30 value="0.0114962962" flag="0"/>
    </comp>
  </station>
  <station code="ATPC" name="ATPC" netid="IV" insttype="" lat="43.4807" lon="12.457">
    <comp name="--.HHE">
      <acc value="0.4108506433" flag="0"/>
      <vel value="0.1168878951" flag="0"/>
      <psa03 value="0.3968093335" flag="0"/>
      <psa10 value="0.1233809007" flag="0"/>
      <psa30 value="0.0119950638" flag="0"/>
    </comp>
    <comp name="--.HHZ">
      <acc value="0.1521215451" flag="0"/>
      <vel value="0.0351857882" flag="0"/>
      <psa03 value="0.1576459049" flag="0"/>
      <psa10 value="0.0429584553" flag="0"/>
      <psa30 value="0.0111717967" flag="0"/>
    </comp>
    <comp name="--.HHN">
      <acc value="0.2715770331" flag="0"/>
      <vel value="0.0771194258" flag="0"/>
      <psa03 value="0.3577635674" flag="0"/>
      <psa10 value="0.0526196303" flag="0"/>
      <psa30 value="0.0093502851" flag="0"/>
    </comp>
  </station>
  <station code="ATPI" name="ATPI" netid="IV" insttype="" lat="43.4507" lon="12.4022">
    <comp name="--.HNN">
      <acc value="0.1517857186" flag="0"/>
      <vel value="0.0596606788" flag="0"/>
      <psa03 value="0.3315791277" flag="0"/>
      <psa10 value="0.0444175881" flag="0"/>
      <psa30 value="0.0086180856" flag="0"/>
    </comp>
    <comp name="--.HNE">
      <acc value="0.1404768549" flag="0"/>
      <vel value="0.0858117968" flag="0"/>
      <psa03 value="0.4003006269" flag="0"/>
      <psa10 value="0.1325972045" flag="0"/>
      <psa30 value="0.0097309673" flag="0"/>
    </comp>
    <comp name="--.HNZ">
      <acc value="0.0826429725" flag="0"/>
      <vel value="0.0495002689" flag="0"/>
      <psa03 value="0.2342671355" flag="0"/>
      <psa10 value="0.0723813002" flag="0"/>
      <psa30 value="0.0145320113" flag="0"/>
    </comp>
  </station>
  <station code="ATVO" name="ATVO" netid="IV" insttype="" lat="43.3821" lon="12.4066">
    <comp name="--.HHE">
      <acc value="0.3182961324" flag="0"/>
      <vel value="0.1211166388" flag="0"/>
      <psa03 value="0.3676520982" flag="0"/>
      <psa10 value="0.1371752322" flag="0"/>
      <psa30 value="0.0130181478" flag="0"/>
    </comp>
    <comp name="--.HHZ">
      <acc value="0.1817948227" flag="0"/>
      <vel value="0.1004243476" flag="0"/>
      <psa03 value="0.3767016814" flag="0"/>
      <psa10 value="0.1429165222" flag="0"/>
      <psa30 value="0.0184039085" flag="0"/>
    </comp>
    <comp name="--.HHN">
      <acc value="0.2733778725" flag="0"/>
      <vel value="0.1143738514" flag="0"/>
      <psa03 value="0.4497663320" flag="0"/>
      <psa10 value="0.1469871580" flag="0"/>
      <psa30 value="0.0171071415" flag="0"/>
    </comp>
  </station>
  <station code="BARO" name="BARO" netid="IV" insttype="" lat="42.248" lon="12.0512">
    <comp name="--.HNE">
      <acc value="0.0064920141" flag="0"/>
      <vel value="0.0050250402" flag="0"/>
      <psa03 value="0.0218966313" flag="0"/>
      <psa10 value="0.0076437603" flag="0"/>
      <psa30 value="0.0007629066" flag="0"/>
    </comp>
    <comp name="--.HNN">
      <acc value="0.0066554117" flag="0"/>
      <vel value="0.0061678278" flag="0"/>
      <psa03 value="0.0149888596" flag="0"/>
      <psa10 value="0.0153550491" flag="0"/>
      <psa30 value="0.0007834914" flag="0"/>
    </comp>
    <comp name="--.HNZ">
      <acc value="0.0046818536" flag="0"/>
      <vel value="0.0029639886" flag="0"/>
      <psa03 value="0.0083001475" flag="0"/>
      <psa10 value="0.0053065262" flag="0"/>
      <psa30 value="0.0007068933" flag="0"/>
    </comp>
  </station>
  <station code="BOSL" name="BOSL" netid="IV" insttype="" lat="43.931" lon="11.3743">
    <comp name="--.HHE">
      <acc value="0.0021707852" flag="0"/>
      <vel value="0.0015095157" flag="0"/>
      <psa03 value="0.0062711239" flag="0"/>
      <psa10 value="0.0025711128" flag="0"/>
      <psa30 value="0.0003192334" flag="0"/>
    </comp>
    <comp name="--.HHN">
      <acc value="0.0020349299" flag="0"/>
      <vel value="0.0014681045" flag="0"/>
      <psa03 value="0.0049909909" flag="0"/>
      <psa10 value="0.0024447921" flag="0"/>
      <psa30 value="0.0002218934" flag="0"/>
    </comp>
    <comp name="--.HHZ">
      <acc value="0.0012391747" flag="0"/>
      <vel value="0.0012061045" flag="0"/>
      <psa03 value="0.0039036523" flag="0"/>
      <psa10 value="0.0015051685" flag="0"/>
      <psa30 value="0.0002303661" flag="0"/>
    </comp>
  </station>
  <station code="CAFI" name="CAFI" netid="IV" insttype="" lat="43.3292" lon="11.9663">
    <comp name="--.HHN">
      <acc value="0.0890883324" flag="0"/>
      <vel value="0.0445898093" flag="0"/>
      <psa03 value="0.2359705442" flag="0"/>
      <psa10 value="0.0301677761" flag="0"/>
      <psa30 value="0.0029105295" flag="0"/>
    </comp>
    <comp name="--.HHZ">
      <acc value="0.0958980230" flag="0"/>
      <vel value="0.0503444167" flag="0"/>
      <psa03 value="0.1328720507" flag="0"/>
      <psa10 value="0.0337116604" flag="0"/>
      <psa30 value="0.0069688098" flag="0"/>
    </comp>
    <comp name="--.HHE">
      <acc value="0.1472504920" flag="0"/>
      <vel value="0.0408631712" flag="0"/>
      <psa03 value="0.2130841925" flag="0"/>
      <psa10 value="0.0165324068" flag="0"/>
      <psa30 value="0.0064262922" flag="0"/>
    </comp>
  </station>
  <station code="CDCA" name="CDCA" netid="IV" insttype="" lat="43.4584" lon="12.2336">
    <comp name="--.HNE">
      <acc value="0.3828498793" flag="0"/>
      <vel value="0.0813136265" flag="0"/>
      <psa03 value="0.3855474889" flag="0"/>
      <psa10 value="0.1430733097" flag="0"/>
      <psa30 value="0.0126385128" flag="0"/>
    </comp>
    <comp name="--.HNN">
      <acc value="0.5993536048" flag="0"/>
      <vel value="0.2197677483" flag="0"/>
      <psa03 value="0.6191977437" flag="0"/>
      <psa10 value="0.4226738945" flag="0"/>
      <psa30 value="0.0367435968" flag="0"/>
    </comp>
    <comp name="--.HNZ">
      <acc value="0.2823278598" flag="0"/>
      <vel value="0.1211220044" flag="0"/>
      <psa03 value="0.6683449292" flag="0"/>
      <psa10 value="0.1583476852" flag="0"/>
      <psa30 value="0.0085809283" flag="0"/>
    </comp>
  </station>
  <station code="CESI" name="CESI" netid="IV" insttype="" lat="43.0049" lon="12.9046">
    <comp name="--.HHE">
      <acc value="0.0537980837" flag="0"/>
      <vel value="0.0121854779" flag="0"/>
      <psa03 value="0.0435452446" flag="0"/>
      <psa10 value="0.0106221462" flag="0"/>
      <psa30 value="0.0016146118" flag="0"/>
    </comp>
    <comp name="--.HHZ">
      <acc value="0.0230734163" flag="0"/>
      <vel value="0.0084530583" flag="0"/>
      <psa03 value="0.0358702431" flag="0"/>
      <psa10 value="0.0084933415" flag="0"/>
      <psa30 value="0.0016455142" flag="0"/>
    </comp>
    <comp name="--.HHN">
      <acc value="0.0472123850" flag="0"/>
      <vel value="0.0107419004" flag="0"/>
      <psa03 value="0.0614983447" flag="0"/>
      <psa10 value="0.0110910082" flag="0"/>
      <psa30 value="0.0014625006" flag="0"/>
    </comp>
  </station>
  <station code="CESX" name="CESX" netid="IV" insttype="" lat="42.6085" lon="12.5868">
    <comp name="--.HHE">
      <acc value="0.0164770954" flag="0"/>
      <vel value="0.0100193473" flag="0"/>
      <psa03 value="0.0447339482" flag="0"/>
      <psa10 value="0.0136428415" flag="0"/>
      <psa30 value="0.0010231487" flag="0"/>
    </comp>
    <comp name="--.HHN">
      <acc value="0.0183935720" flag="0"/>
      <vel value="0.0131375281" flag="0"/>
      <psa03 value="0.0566683881" flag="0"/>
      <psa10 value="0.0138323705" flag="0"/>
      <psa30 value="0.0009586526" flag="0"/>
    </comp>
    <comp name="--.HHZ">
      <acc value="0.0084044966" flag="0"/>
      <vel value="0.0049974833" flag="0"/>
      <psa03 value="0.0180000073" flag="0"/>
      <psa10 value="0.0052005134" flag="0"/>
      <psa30 value="0.0006507686" flag="0"/>
    </comp>
  </station>
  <station code="CING" name="CING" netid="IV" insttype="" lat="43.3756" lon="13.1954">
    <comp name="--.HHE">
      <acc value="0.0143107870" flag="0"/>
      <vel value="0.0054204573" flag="0"/>
      <psa03 value="0.0247180022" flag="0"/>
      <psa10 value="0.0047202454" flag="0"/>
      <psa30 value="0.0021733736" flag="0"/>
    </comp>
    <comp name="--.HHN">
      <acc value="0.0258619931" flag="0"/>
      <vel value="0.0074312542" flag="0"/>
      <psa03 value="0.0327692005" flag="0"/>
      <psa10 value="0.0061837726" flag="0"/>
      <psa30 value="0.0009424591" flag="0"/>
    </comp>
    <comp name="--.HHZ">
      <acc value="0.0128822063" flag="0"/>
      <vel value="0.0044313551" flag="0"/>
      <psa03 value="0.0273432744" flag="0"/>
      <psa10 value="0.0036042526" flag="0"/>
      <psa30 value="0.0018276975" flag="0"/>
    </comp>
  </station>
  <station code="CRE" name="CRE" netid="IV" insttype="" lat="43.6189" lon="11.9517">
    <comp name="--.HHE">
      <acc value="0.0248109517" flag="0"/>
      <vel value="0.0108716167" flag="0"/>
      <psa03 value="0.0697608171" flag="0"/>
      <psa10 value="0.0080224041" flag="0"/>
      <psa30 value="0.0023676878" flag="0"/>
    </comp>
    <comp name="--.HHN">
      <acc value="0.0519856503" flag="0"/>
      <vel value="0.0257017020" flag="0"/>
      <psa03 value="0.0942630539" flag="0"/>
      <psa10 value="0.0151501176" flag="0"/>
      <psa30 value="0.0024313933" flag="0"/>
    </comp>
    <comp name="--.HHZ">
      <acc value="0.0122049928" flag="0"/>
      <vel value="0.0065679665" flag="0"/>
      <psa03 value="0.0245731640" flag="0"/>
      <psa10 value="0.0051999663" flag="0"/>
      <psa30 value="0.0020672388" flag="0"/>
    </comp>
  </station>
  <station code="CRTC" name="CRTC" netid="IV" insttype="" lat="43.7685" lon="12.883">
    <comp name="--.HHE">
      <acc value="0.0175945631" flag="0"/>
      <vel value="0.0119915399" flag="0"/>
      <psa03 value="0.0628454274" flag="0"/>
      <psa10 value="0.0150371575" flag="0"/>
      <psa30 value="0.0042920967" flag="0"/>
    </comp>
    <comp name="--.HHN">
      <acc value="0.0189836783" flag="0"/>
      <vel value="0.0173033880" flag="0"/>
      <psa03 value="0.0427344986" flag="0"/>
      <psa10 value="0.0119587704" flag="0"/>
      <psa30 value="0.0027474669" flag="0"/>
    </comp>
    <comp name="--.HHZ">
      <acc value="0.0110137823" flag="0"/>
      <vel value="0.0072154190" flag="0"/>
      <psa03 value="0.0333894362" flag="0"/>
      <psa10 value="0.0074473686" flag="0"/>
      <psa30 value="0.0027943309" flag="0"/>
    </comp>
  </station>
  <station code="CSNT" name="CSNT" netid="IV" insttype="" lat="43.4731" lon="11.2902">
    <comp name="--.HHE">
      <acc value="0.0065961477" flag="0"/>
      <vel value="0.0058955351" flag="0"/>
      <psa03 value="0.0158146798" flag="0"/>
      <psa10 value="0.0060227344" flag="0"/>
      <psa30 value="0.0011313374" flag="0"/>
    </comp>
    <comp name="--.HHN">
      <acc value="0.0065202595" flag="0"/>
      <vel value="0.0068260995" flag="0"/>
      <psa03 value="0.0127882904" flag="0"/>
      <psa10 value="0.0114306637" flag="0"/>
      <psa30 value="0.0013590106" flag="0"/>
    </comp>
    <comp name="--.HHZ">
      <acc value="0.0044743336" flag="0"/>
      <vel value="0.0056373308" flag="0"/>
      <psa03 value="0.0105137907" flag="0"/>
      <psa10 value="0.0058101212" flag="0"/>
      <psa30 value="0.0015781482" flag="0"/>
    </comp>
  </station>
  <station code="FDMO" name="FDMO" netid="IV" insttype="" lat="43.0365" lon="13.0873">
    <comp name="--.HHE">
      <acc value="0.0233679663" flag="0"/>
      <vel value="0.0097726383" flag="0"/>
      <psa03 value="0.0298666406" flag="0"/>
      <psa10 value="0.0068594326" flag="0"/>
      <psa30 value="0.0024671269" flag="0"/>
    </comp>
    <comp name="--.HHN">
      <acc value="0.0219938521" flag="0"/>
      <vel value="0.0076171780" flag="0"/>
      <psa03 value="0.0277095795" flag="0"/>
      <psa10 value="0.0049930296" flag="0"/>
      <psa30 value="0.0032969884" flag="0"/>
    </comp>
