<?xml version="1.0" encoding="UTF-8" standalone="yes"?>
<!DOCTYPE earthquake SYSTEM "stationlist.dtd">
<stationlist created="" xmlns="ch.ethz.sed.shakemap.usgs.xml">
  <station code="RDI1" name="RDI1" netid="HI" insttype="CMG-5TD,ACCELEROMETER,GURALP" lat="36.4514" lon="28.224">
    <comp name="--.HNN">
      <acc value="0.0245275006" flag="0"/>
      <vel value="0.0089279085" flag="0"/>
      <psa03 value="0.0538731740" flag="0"/>
      <psa10 value="0.0049674143" flag="0"/>
      <psa30 value="0.0004805830" flag="0"/>
    </comp>
    <comp name="--.HNE">
      <acc value="0.0444500452" flag="0"/>
      <vel value="0.0121617237" flag="0"/>
      <psa03 value="0.0474514313" flag="0"/>
      <psa10 value="0.0047191028" flag="0"/>
      <psa30 value="0.0007816613" flag="0"/>
    </comp>
    <comp name="--.HNZ">
      <acc value="0.1197037514" flag="0"/>
      <vel value="0.0289363525" flag="0"/>
      <psa03 value="0.0694884216" flag="0"/>
      <psa10 value="0.0036677841" flag="0"/>
      <psa30 value="0.0005656006" flag="0"/>
    </comp>
  </station>
  <station code="ARG" name="ARG" netid="HL" insttype="LE3D20_DR24" lat="36.2136" lon="28.1212">
    <comp name="--.HHE">
      <acc value="0.0517692448" flag="0"/>
      <vel value="0.0125506888" flag="0"/>
      <psa03 value="0.0580451559" flag="0"/>
      <psa10 value="0.0036339097" flag="0"/>
      <psa30 value="0.0003709497" flag="0"/>
    </comp>
    <comp name="--.HHN">
      <acc value="0.0331156181" flag="0"/>
      <vel value="0.0113433602" flag="0"/>
      <psa03 value="0.0459879725" flag="0"/>
      <psa10 value="0.0056641092" flag="0"/>
      <psa30 value="0.0004920941" flag="0"/>
    </comp>
    <comp name="--.HHZ">
      <acc value="0.0307148977" flag="0"/>
      <vel value="0.0099377691" flag="0"/>
      <psa03 value="0.0300790790" flag="0"/>
      <psa10 value="0.0020533389" flag="0"/>
      <psa30 value="0.0002267307" flag="0"/>
    </comp>
  </station>
  <station code="RODB" name="RODB" netid="HL" insttype="CMG-5" lat="36.4471" lon="28.2212">
    <comp name="00.HNZ">
      <acc value="0.1992240202" flag="0"/>
      <vel value="0.0412147730" flag="0"/>
      <psa03 value="0.0923953481" flag="0"/>
      <psa10 value="0.0055573663" flag="0"/>
      <psa30 value="0.0006508256" flag="0"/>
    </comp>
    <comp name="00.HNN">
      <acc value="0.0311721039" flag="0"/>
      <vel value="0.0092606863" flag="0"/>
      <psa03 value="0.0745498156" flag="0"/>
      <psa10 value="0.0030487812" flag="0"/>
      <psa30 value="0.0006156419" flag="0"/>
    </comp>
    <comp name="00.HNE">
      <acc value="0.0304940110" flag="0"/>
      <vel value="0.0097282855" flag="0"/>
      <psa03 value="0.0791511928" flag="0"/>
      <psa10 value="0.0036408391" flag="0"/>
      <psa30 value="0.0004421949" flag="0"/>
    </comp>
  </station>
</stationlist>
