<?xml version="1.0" encoding="UTF-8" standalone="yes"?>
<!DOCTYPE earthquake SYSTEM "stationlist.dtd">
<stationlist created="" xmlns="ch.ethz.sed.shakemap.usgs.xml">
  <station code="KARP" name="KARP" netid="GE" insttype="STS-2/N" lat="35.5471" lon="27.1611">
    <comp name="--.HHE">
      <acc value="0.0289613173" flag="0"/>
      <vel value="0.0060405624" flag="0"/>
      <psa03 value="0.0335543486" flag="0"/>
      <psa10 value="0.0063713736" flag="0"/>
      <psa30 value="0.0003984664" flag="0"/>
    </comp>
    <comp name="--.HHN">
      <acc value="0.0189279613" flag="0"/>
      <vel value="0.0067402295" flag="0"/>
      <psa03 value="0.0282369060" flag="0"/>
      <psa10 value="0.0097232585" flag="0"/>
      <psa30 value="0.0003121375" flag="0"/>
    </comp>
    <comp name="--.HHZ">
      <acc value="0.0125929145" flag="0"/>
      <vel value="0.0052378197" flag="0"/>
      <psa03 value="0.0205992644" flag="0"/>
      <psa10 value="0.0046755386" flag="0"/>
      <psa30 value="0.0004748507" flag="0"/>
    </comp>
  </station>
  <station code="ARG" name="ARG" netid="HL" insttype="LE3D20_DR24" lat="36.2136" lon="28.1212">
    <comp name="--.HHE">
      <acc value="0.0191987640" flag="0"/>
      <vel value="0.0130865293" flag="0"/>
      <psa03 value="0.0534870372" flag="0"/>
      <psa10 value="0.0080574370" flag="0"/>
      <psa30 value="0.0010331409" flag="0"/>
    </comp>
    <comp name="--.HHN">
      <acc value="0.0121349564" flag="0"/>
      <vel value="0.0097974153" flag="0"/>
      <psa03 value="0.0282955299" flag="0"/>
      <psa10 value="0.0073438828" flag="0"/>
      <psa30 value="0.0006186110" flag="0"/>
    </comp>
    <comp name="--.HHZ">
      <acc value="0.0086314760" flag="0"/>
      <vel value="0.0049528816" flag="0"/>
      <psa03 value="0.0235047675" flag="0"/>
      <psa10 value="0.0044479401" flag="0"/>
      <psa30 value="0.0005022148" flag="0"/>
    </comp>
  </station>
  <station code="KARP" name="KARP" netid="HL" insttype="120" lat="35.5471" lon="27.1611">
    <comp name="--.HHE">
      <acc value="0.0205465149" flag="0"/>
      <vel value="0.0058008729" flag="0"/>
      <psa03 value="0.0325583840" flag="0"/>
      <psa10 value="0.0063273502" flag="0"/>
      <psa30 value="0.0003963898" flag="0"/>
    </comp>
    <comp name="--.HHN">
      <acc value="0.0149096602" flag="0"/>
      <vel value="0.0065732562" flag="0"/>
      <psa03 value="0.0275069792" flag="0"/>
      <psa10 value="0.0096556253" flag="0"/>
      <psa30 value="0.0003109805" flag="0"/>
    </comp>
    <comp name="--.HHZ">
      <acc value="0.0121227067" flag="0"/>
      <vel value="0.0051091456" flag="0"/>
      <psa03 value="0.0201249763" flag="0"/>
      <psa10 value="0.0046252155" flag="0"/>
      <psa30 value="0.0004712063" flag="0"/>
    </comp>
  </station>
  <station code="NISR" name="NISR" netid="HL" insttype="65535" lat="36.6106" lon="27.131">
    <comp name="--.HHN">
      <acc value="1.1038417856" flag="0"/>
      <vel value="0.2295516388" flag="0"/>
      <psa03 value="0.4714224422" flag="0"/>
      <psa10 value="0.0812028523" flag="0"/>
      <psa30 value="0.0456872967" flag="0"/>
    </comp>
    <comp name="--.HHE">
      <acc value="0.9306454827" flag="0"/>
      <vel value="0.2473602352" flag="0"/>
      <psa03 value="0.6825025897" flag="0"/>
      <psa10 value="0.1391311067" flag="0"/>
      <psa30 value="0.0096602671" flag="0"/>
    </comp>
    <comp name="--.HHZ">
      <acc value="0.4642463856" flag="0"/>
      <vel value="0.0742579433" flag="0"/>
      <psa03 value="0.2279360220" flag="0"/>
      <psa10 value="0.1122571314" flag="0"/>
      <psa30 value="0.0036013092" flag="0"/>
    </comp>
  </station>
</stationlist>
