<stationlist xmlns:esm="https://esm-db.eu/esmws/shakemap/1/" created="1780710901">
	<station code="KARP" name="KARP" netid="GE" source="GEOFON" insttype="" lat="35.5471" lon="27.16106" esm:processing="manual (Paolucci et al 2011)" esm:quality="best">
		<comp name="--.HNE" depth="0.0">
			<acc value="0.2578607588252" flag="0"/>
			<vel value="0.122675008002025" flag="0"/>
			<psa03 value="0.350778899887251" flag="0"/>
			<psa10 value="0.149551273043639" flag="0"/>
			<psa30 value="0.010742603809047" flag="0"/>
		</comp>
		<comp name="--.HNN" depth="0.0">
			<acc value="0.309824009988717" flag="0"/>
			<vel value="0.121826003806288" flag="0"/>
			<psa03 value="0.392299667629007" flag="0"/>
			<psa10 value="0.157069306021708" flag="0"/>
			<psa30 value="0.00900750103639047" flag="0"/>
		</comp>
		<comp name="--.HNZ" depth="0.0">
			<acc value="0.193723606146555" flag="0"/>
			<vel value="0.118401392248338" flag="0"/>
			<psa03 value="0.309034421112403" flag="0"/>
			<psa10 value="0.151355278814488" flag="0"/>
			<psa30 value="0.00695338633054561" flag="0"/>
		</comp>
	</station>
	<station code="AGN1" name="AGN1" netid="HI" source="ITSAK Strong Motion Network" insttype="" lat="35.1879" lon="25.7155" esm:processing="manual (Paolucci et al 2011)" esm:quality="good">
		<comp name="--.HNE" depth="0.0">
			<acc value="0.0205811204244173" flag="0"/>
			<vel value="0.0137313147216292" flag="0"/>
			<psa03 value="0.0561721742558657" flag="0"/>
			<psa10 value="0.0237511802741284" flag="0"/>
			<psa30 value="0.00333800195958109" flag="0"/>
		</comp>
		<comp name="--.HNN" depth="0.0">
			<acc value="0.0190463849952329" flag="0"/>
			<vel value="0.0143001775878148" flag="0"/>
			<psa03 value="0.065840684538888" flag="0"/>
			<psa10 value="0.0191980542768767" flag="0"/>
			<psa30 value="0.00295692942372913" flag="0"/>
		</comp>
		<comp name="--.HNZ" depth="0.0">
			<acc value="0.0122314456177321" flag="0"/>
			<vel value="0.00777308104941703" flag="0"/>
			<psa03 value="0.0222949508894118" flag="0"/>
			<psa10 value="0.00985438999247416" flag="0"/>
			<psa30 value="0.0032194309798356" flag="0"/>
		</comp>
	</station>
	<station code="ARK1" name="ARK1" netid="HI" source="ITSAK Strong Motion Network" insttype="" lat="35.148777" lon="25.264194" esm:processing="automatic (Paolucci et al 2011)" esm:quality="best">
		<comp name="--.HNE" depth="0.0">
			<acc value="0.0107413910555183" flag="0"/>
			<vel value="0.0120878147090085" flag="0"/>
			<psa03 value="0.0309047295783287" flag="0"/>
			<psa10 value="0.0216602986384816" flag="0"/>
			<psa30 value="0.00361414650280183" flag="0"/>
		</comp>
		<comp name="--.HNN" depth="0.0">
			<acc value="0.0132995856565491" flag="0"/>
			<vel value="0.0173267426882359" flag="0"/>
			<psa03 value="0.0294813931017725" flag="0"/>
			<psa10 value="0.0219723811874188" flag="0"/>
			<psa30 value="0.00523481594753204" flag="0"/>
		</comp>
		<comp name="--.HNZ" depth="0.0">
			<acc value="0.0104461034272238" flag="0"/>
			<vel value="0.00954086679142677" flag="0"/>
			<psa03 value="0.0255942006985198" flag="0"/>
			<psa10 value="0.0176638201413948" flag="0"/>
			<psa30 value="0.00261911892044118" flag="0"/>
		</comp>
	</station>
	<station code="KOS2" name="KOS2" netid="HI" source="ITSAK Strong Motion Network" insttype="" lat="36.8941" lon="27.2888" esm:processing="manual (Paolucci et al 2011)" esm:quality="good">
		<comp name="--.HNE" depth="0.0">
			<acc value="0.0833666845658743" flag="0"/>
			<vel value="0.0724383004839538" flag="0"/>
			<psa03 value="0.27777231771948" flag="0"/>
			<psa10 value="0.0726528653957707" flag="0"/>
			<psa30 value="0.0115265185752864" flag="0"/>
		</comp>
		<comp name="--.HNN" depth="0.0">
			<acc value="0.103987478032879" flag="0"/>
			<vel value="0.0826025054739624" flag="0"/>
			<psa03 value="0.313019360996447" flag="0"/>
			<psa10 value="0.134995832811399" flag="0"/>
			<psa30 value="0.00668081090426802" flag="0"/>
		</comp>
		<comp name="--.HNZ" depth="0.0">
			<acc value="0.0277017925798913" flag="0"/>
			<vel value="0.0302535454056952" flag="0"/>
			<psa03 value="0.0675523083422315" flag="0"/>
			<psa10 value="0.0384819629911885" flag="0"/>
			<psa30 value="0.00461381397586581" flag="0"/>
		</comp>
	</station>
	<station code="RKL1" name="RKL1" netid="HI" source="ITSAK Strong Motion Network" insttype="" lat="36.336699" lon="28.171224" esm:processing="manual (Paolucci et al 2011)" esm:quality="good">
		<comp name="--.HNE" depth="0.0">
			<acc value="0.202616939732932" flag="0"/>
			<vel value="0.141550609312967" flag="0"/>
			<psa03 value="0.587456457773907" flag="0"/>
			<psa10 value="0.226076601465321" flag="0"/>
			<psa30 value="0.0128814424990134" flag="0"/>
		</comp>
		<comp name="--.HNN" depth="0.0">
			<acc value="0.121052564518991" flag="0"/>
			<vel value="0.0850215120656614" flag="0"/>
			<psa03 value="0.357136241856623" flag="0"/>
			<psa10 value="0.102634204012313" flag="0"/>
			<psa30 value="0.00923416255128343" flag="0"/>
		</comp>
		<comp name="--.HNZ" depth="0.0">
			<acc value="0.104239524296068" flag="0"/>
			<vel value="0.0560884892794567" flag="0"/>
			<psa03 value="0.368463408892514" flag="0"/>
			<psa10 value="0.0700625688013338" flag="0"/>
			<psa30 value="0.00424881312968441" flag="0"/>
		</comp>
	</station>
	<station code="RKT1" name="RKT1" netid="HI" source="ITSAK Strong Motion Network" insttype="" lat="35.954336" lon="27.767327" esm:processing="manual (Paolucci et al 2011)" esm:quality="good">
		<comp name="--.HNE" depth="0.0">
			<acc value="0.637691377086065" flag="0"/>
			<vel value="0.338932434085864" flag="0"/>
			<psa03 value="1.47675349433814" flag="0"/>
			<psa10 value="0.215356306298378" flag="0"/>
			<psa30 value="0.0162643290986483" flag="0"/>
		</comp>
		<comp name="--.HNN" depth="0.0">
			<acc value="0.773732587164463" flag="0"/>
			<vel value="0.325938012100578" flag="0"/>
			<psa03 value="2.26454468163802" flag="0"/>
			<psa10 value="0.15778481746979" flag="0"/>
			<psa30 value="0.0100497990832007" flag="0"/>
		</comp>
		<comp name="--.HNZ" depth="0.0">
			<acc value="0.279764963821526" flag="0"/>
			<vel value="0.102774804331692" flag="0"/>
			<psa03 value="0.512323522252329" flag="0"/>
			<psa10 value="0.130989517412665" flag="0"/>
			<psa30 value="0.00555617431928036" flag="0"/>
		</comp>
	</station>
	<station code="RLN1" name="RLN1" netid="HI" source="ITSAK Strong Motion Network" insttype="" lat="36.089085" lon="28.086909" esm:processing="automatic (Paolucci et al 2011)" esm:quality="best">
		<comp name="--.HNE" depth="0.0">
			<acc value="0.0832186472266437" flag="0"/>
			<vel value="0.0772352854141725" flag="0"/>
			<psa03 value="0.257250333238725" flag="0"/>
			<psa10 value="0.132898783892199" flag="0"/>
			<psa30 value="0.0124257823137624" flag="0"/>
		</comp>
		<comp name="--.HNN" depth="0.0">
			<acc value="0.0999867251442333" flag="0"/>
			<vel value="0.0616018927180931" flag="0"/>
			<psa03 value="0.283071522932485" flag="0"/>
			<psa10 value="0.118754729418006" flag="0"/>
			<psa30 value="0.00823254203217307" flag="0"/>
		</comp>
		<comp name="--.HNZ" depth="0.0">
			<acc value="0.0590805348529155" flag="0"/>
			<vel value="0.0409432610036955" flag="0"/>
			<psa03 value="0.215920261991009" flag="0"/>
			<psa10 value="0.0735815544168606" flag="0"/>
			<psa30 value="0.00428035230233315" flag="0"/>
		</comp>
	</station>
	<station code="RPN1" name="RPN1" netid="HI" source="ITSAK Strong Motion Network" insttype="" lat="36.448678" lon="28.218047" esm:processing="automatic (Paolucci et al 2011)" esm:quality="best">
		<comp name="--.HNE" depth="0.0">
			<acc value="0.104242218456726" flag="0"/>
			<vel value="0.0784784707454621" flag="0"/>
			<psa03 value="0.418150742101153" flag="0"/>
			<psa10 value="0.0942264020366957" flag="0"/>
			<psa30 value="0.0273254901796178" flag="0"/>
		</comp>
		<comp name="--.HNN" depth="0.0">
			<acc value="0.143146521365997" flag="0"/>
			<vel value="0.0986464768719733" flag="0"/>
			<psa03 value="0.387868111025464" flag="0"/>
			<psa10 value="0.110375759352361" flag="0"/>
			<psa30 value="0.0182081278657769" flag="0"/>
		</comp>
		<comp name="--.HNZ" depth="0.0">
			<acc value="0.0740495901927129" flag="0"/>
			<vel value="0.0448829115735651" flag="0"/>
			<psa03 value="0.18048710221807" flag="0"/>
			<psa10 value="0.083735577071028" flag="0"/>
			<psa30 value="0.0106467444612357" flag="0"/>
		</comp>
	</station>
	<station code="RSO1" name="RSO1" netid="HI" source="ITSAK Strong Motion Network" insttype="" lat="36.3632" lon="28.0016" esm:processing="automatic (Paolucci et al 2011)" esm:quality="best">
		<comp name="--.HNE" depth="0.0">
			<acc value="0.235263929333296" flag="0"/>
			<vel value="0.129093326578347" flag="0"/>
			<psa03 value="0.999614136197338" flag="0"/>
			<psa10 value="0.138307902219742" flag="0"/>
			<psa30 value="0.0132437815021941" flag="0"/>
		</comp>
		<comp name="--.HNN" depth="0.0">
			<acc value="0.210192464686157" flag="0"/>
			<vel value="0.131350888215985" flag="0"/>
			<psa03 value="0.595711837985664" flag="0"/>
			<psa10 value="0.110866336850713" flag="0"/>
			<psa30 value="0.0279149542287182" flag="0"/>
		</comp>
		<comp name="--.HNZ" depth="0.0">
			<acc value="0.116642323540941" flag="0"/>
			<vel value="0.0755026582383742" flag="0"/>
			<psa03 value="0.476428019351428" flag="0"/>
			<psa10 value="0.0785106409446523" flag="0"/>
			<psa30 value="0.0109813182917766" flag="0"/>
		</comp>
	</station>
	<station code="ASTA" name="ASTA" netid="HL" source="National Observatory of Athens Seismic Network" insttype="" lat="36.54552" lon="26.35295" esm:processing="manual (Paolucci et al 2011)" esm:quality="bad">
		<comp name="00.HNE" depth="0.0">
			<acc value="0.0176435630858658" flag="0"/>
			<vel value="0.0177165960763944" flag="0"/>
			<psa03 value="0.0372255159064021" flag="0"/>
			<psa10 value="0.020544726434978" flag="0"/>
			<psa30 value="0.00322949247370685" flag="0"/>
		</comp>
		<comp name="00.HNN" depth="0.0">
			<acc value="0.0163434110611337" flag="0"/>
			<vel value="0.0131110452198835" flag="0"/>
			<psa03 value="0.0460397306102016" flag="0"/>
			<psa10 value="0.0155595497735702" flag="0"/>
			<psa30 value="0.00227961542720095" flag="0"/>
		</comp>
		<comp name="00.HNZ" depth="0.0">
			<acc value="0.0106310407894852" flag="0"/>
			<vel value="0.00800552093308976" flag="0"/>
			<psa03 value="0.0261294486650707" flag="0"/>
			<psa10 value="0.0108763830068357" flag="0"/>
			<psa30 value="0.0018277191403564" flag="0"/>
		</comp>
	</station>
	<station code="KARP" name="KARP" netid="HL" source="National Observatory of Athens Seismic Network" insttype="" lat="35.5471" lon="27.16106" esm:processing="manual (Paolucci et al 2011)" esm:quality="best">
		<comp name="--.HNE" depth="0.0">
			<acc value="0.252625458753213" flag="0"/>
			<vel value="0.120184366909326" flag="0"/>
			<psa03 value="0.343620146828327" flag="0"/>
			<psa10 value="0.146515066902524" flag="0"/>
			<psa30 value="0.0105242618407499" flag="0"/>
		</comp>
		<comp name="--.HNN" depth="0.0">
			<acc value="0.303533702146861" flag="0"/>
			<vel value="0.119352576618666" flag="0"/>
			<psa03 value="0.384335554850954" flag="0"/>
			<psa10 value="0.153880081533957" flag="0"/>
			<psa30 value="0.00882450541132174" flag="0"/>
		</comp>
		<comp name="--.HNZ" depth="0.0">
			<acc value="0.189790477494841" flag="0"/>
			<vel value="0.115997542124347" flag="0"/>
			<psa03 value="0.302770512185845" flag="0"/>
			<psa10 value="0.148278804687416" flag="0"/>
			<psa30 value="0.00681244837969806" flag="0"/>
		</comp>
	</station>
	<station code="RODB" name="RODB" netid="HL" source="National Observatory of Athens Seismic Network" insttype="" lat="36.4471" lon="28.22116" esm:processing="manual (Paolucci et al 2011)" esm:quality="good">
		<comp name="00.HNE" depth="0.0">
			<acc value="0.0986842559164629" flag="0"/>
			<vel value="0.0880403738125635" flag="0"/>
			<psa03 value="0.297311962978416" flag="0"/>
			<psa10 value="0.0984632792606983" flag="0"/>
			<psa30 value="0.0278005700822632" flag="0"/>
		</comp>
		<comp name="00.HNN" depth="0.0">
			<acc value="0.106321199852321" flag="0"/>
			<vel value="0.0749676126410309" flag="0"/>
			<psa03 value="0.36840732929485" flag="0"/>
			<psa10 value="0.0960472001033116" flag="0"/>
			<psa30 value="0.0186530259391575" flag="0"/>
		</comp>
		<comp name="00.HNZ" depth="0.0">
			<acc value="0.0552965572358997" flag="0"/>
			<vel value="0.0434966659348702" flag="0"/>
			<psa03 value="0.206574767956561" flag="0"/>
			<psa10 value="0.0676099484208704" flag="0"/>
			<psa30 value="0.00744510318128042" flag="0"/>
		</comp>
	</station>
	<station code="ZKR" name="ZKR" netid="HL" source="National Observatory of Athens Seismic Network" insttype="" lat="35.1147" lon="26.21691" esm:processing="manual (Paolucci et al 2011)" esm:quality="best">
		<comp name="00.HNE" depth="0.0">
			<acc value="0.0262549301607036" flag="0"/>
			<vel value="0.026131262765495" flag="0"/>
			<psa03 value="0.0656815593156229" flag="0"/>
			<psa10 value="0.0237903261030675" flag="0"/>
			<psa30 value="0.00271406225346436" flag="0"/>
		</comp>
		<comp name="00.HNN" depth="0.0">
			<acc value="0.0294249561065636" flag="0"/>
			<vel value="0.023216243015245" flag="0"/>
			<psa03 value="0.0615205341001237" flag="0"/>
			<psa10 value="0.0285822164318844" flag="0"/>
			<psa30 value="0.00494714578578231" flag="0"/>
		</comp>
		<comp name="00.HNZ" depth="0.0">
			<acc value="0.0151463983395328" flag="0"/>
			<vel value="0.0154653981681824" flag="0"/>
			<psa03 value="0.0339593348232683" flag="0"/>
			<psa10 value="0.0199205726526531" flag="0"/>
			<psa30 value="0.00268676950742722" flag="0"/>
		</comp>
	</station>
	<station code="DATC" name="DATC" netid="KO" source="Bogazici University Kandilli Observatory And Earthquake Research Institute (KOERI)" insttype="" lat="36.7584" lon="27.6602" esm:processing="manual (Paolucci et al 2011)" esm:quality="good">
		<comp name="--.HNE" depth="0.0">
			<acc value="0.400332699415893" flag="0"/>
			<vel value="0.389700698392822" flag="0"/>
			<psa03 value="1.45546398129238" flag="0"/>
			<psa10 value="0.554296880287651" flag="0"/>
			<psa30 value="0.0451650204708144" flag="0"/>
		</comp>
		<comp name="--.HNN" depth="0.0">
			<acc value="0.364960343999468" flag="0"/>
			<vel value="0.298952207790283" flag="0"/>
			<psa03 value="1.34781423216882" flag="0"/>
			<psa10 value="0.437717034145148" flag="0"/>
			<psa30 value="0.0603473934425926" flag="0"/>
		</comp>
		<comp name="--.HNZ" depth="0.0">
			<acc value="0.377440165035865" flag="0"/>
			<vel value="0.261825077633038" flag="0"/>
			<psa03 value="0.795740144705963" flag="0"/>
			<psa10 value="0.300491791602776" flag="0"/>
			<psa30 value="0.0300797380873979" flag="0"/>
		</comp>
	</station>
</stationlist>
