<?xml version="1.0" encoding="UTF-8" standalone="yes"?>
<!DOCTYPE earthquake SYSTEM "stationlist.dtd">
<stationlist created="" xmlns="ch.ethz.sed.shakemap.usgs.xml">
  <station code="BNGB" name="BNGB" netid="KO" insttype="CMG-3ESPC" lat="38.9913" lon="40.6792">
    <comp name="--.HHE">
      <acc value="0.0307131294" flag="0"/>
      <vel value="0.0119158847" flag="0"/>
      <psa03 value="0.0621777933" flag="0"/>
      <psa10 value="0.0153888465" flag="0"/>
      <psa30 value="0.0010689889" flag="0"/>
    </comp>
  </station>
  <station code="KARO" name="KARO" netid="KO" insttype="CMG-3T" lat="39.3089" lon="41.0493">
    <comp name="--.HHE">
      <acc value="0.0145996482" flag="0"/>
      <vel value="0.0099815126" flag="0"/>
      <psa03 value="0.0424092064" flag="0"/>
      <psa10 value="0.0153076483" flag="0"/>
      <psa30 value="0.0011721387" flag="0"/>
    </comp>
    <comp name="--.HHN">
      <acc value="0.0106426377" flag="0"/>
      <vel value="0.0085057513" flag="0"/>
      <psa03 value="0.0304960037" flag="0"/>
      <psa10 value="0.0094987841" flag="0"/>
      <psa30 value="0.0005902899" flag="0"/>
    </comp>
    <comp name="--.HHZ">
      <acc value="0.0090493949" flag="0"/>
      <vel value="0.0049916240" flag="0"/>
      <psa03 value="0.0178854826" flag="0"/>
      <psa10 value="0.0059233157" flag="0"/>
      <psa30 value="0.0003790000" flag="0"/>
    </comp>
  </station>
  <station code="SINE" name="SINE" netid="KO" insttype="CMG-6T" lat="39.1636" lon="39.3871">
    <comp name="--.HHE">
      <acc value="0.0082477683" flag="0"/>
      <vel value="0.0048519335" flag="0"/>
      <psa03 value="0.0299360133" flag="0"/>
      <psa10 value="0.0047583775" flag="0"/>
      <psa30 value="0.0001885542" flag="0"/>
    </comp>
    <comp name="--.HHZ">
      <acc value="0.0053534281" flag="0"/>
      <vel value="0.0048476961" flag="0"/>
      <psa03 value="0.0166216750" flag="0"/>
      <psa10 value="0.0048096467" flag="0"/>
      <psa30 value="0.0002307755" flag="0"/>
    </comp>
    <comp name="--.HHN">
      <acc value="0.0068403316" flag="0"/>
      <vel value="0.0048644498" flag="0"/>
      <psa03 value="0.0170852572" flag="0"/>
      <psa10 value="0.0073633988" flag="0"/>
      <psa30 value="0.0001805621" flag="0"/>
    </comp>
  </station>
  <station code="SVAN" name="SVAN" netid="KO" insttype="CMG-3T" lat="38.1511" lon="41.1984">
    <comp name="--.HHZ">
      <acc value="0.0218965584" flag="0"/>
      <vel value="0.0051205250" flag="0"/>
      <psa03 value="0.0230412410" flag="0"/>
      <psa10 value="0.0043572439" flag="0"/>
      <psa30 value="0.0005851691" flag="0"/>
    </comp>
  </station>
  <station code="SVRC" name="SVRC" netid="KO" insttype="CMG-3T" lat="38.3775" lon="39.306">
    <comp name="--.HHZ">
      <acc value="0.0371006532" flag="0"/>
      <vel value="0.0113380954" flag="0"/>
      <psa03 value="0.0612916465" flag="0"/>
      <psa10 value="0.0031629465" flag="0"/>
      <psa30 value="0.0003200190" flag="0"/>
    </comp>
  </station>
  <station code="YEDI" name="YEDI" netid="KO" insttype="CMG-3T" lat="39.4377" lon="40.5443">
    <comp name="--.HHZ">
      <acc value="0.0000293276" flag="0"/>
      <vel value="0.0000027820" flag="0"/>
      <psa03 value="0.0000107455" flag="0"/>
      <psa10 value="0.0000032187" flag="0"/>
      <psa30 value="0.0000006582" flag="0"/>
    </comp>
    <comp name="--.HHE">
      <acc value="0.0115804534" flag="0"/>
      <vel value="0.0050568980" flag="0"/>
      <psa03 value="0.0282328592" flag="0"/>
      <psa10 value="0.0038826262" flag="0"/>
      <psa30 value="0.0003659342" flag="0"/>
    </comp>
  </station>
</stationlist>
