<?xml version="1.0" encoding="UTF-8" standalone="yes"?>
<!DOCTYPE earthquake SYSTEM "stationlist.dtd">
<stationlist created="" xmlns="ch.ethz.sed.shakemap.usgs.xml">
  <station code="BNGB" name="BNGB" netid="KO" insttype="CMG-3ESPC" lat="38.9913" lon="40.6792">
    <comp name="--.HHE">
      <acc value="0.0307131296" flag="0"/>
      <vel value="0.0119158236" flag="0"/>
      <psa03 value="0.0621777934" flag="0"/>
      <psa10 value="0.0153888464" flag="0"/>
      <psa30 value="0.0010690121" flag="0"/>
    </comp>
  </station>
  <station code="KARO" name="KARO" netid="KO" insttype="CMG-3T" lat="39.3089" lon="41.0493">
    <comp name="--.HHE">
      <acc value="0.0145996484" flag="0"/>
      <vel value="0.0099815129" flag="0"/>
      <psa03 value="0.0424092064" flag="0"/>
      <psa10 value="0.0153076480" flag="0"/>
      <psa30 value="0.0011721536" flag="0"/>
    </comp>
    <comp name="--.HHN">
      <acc value="0.0106426366" flag="0"/>
      <vel value="0.0085057499" flag="0"/>
      <psa03 value="0.0304960037" flag="0"/>
      <psa10 value="0.0094987840" flag="0"/>
      <psa30 value="0.0005902965" flag="0"/>
    </comp>
    <comp name="--.HHZ">
      <acc value="0.0090493952" flag="0"/>
      <vel value="0.0049916229" flag="0"/>
      <psa03 value="0.0178854826" flag="0"/>
      <psa10 value="0.0059233266" flag="0"/>
      <psa30 value="0.0003790156" flag="0"/>
    </comp>
  </station>
  <station code="SINE" name="SINE" netid="KO" insttype="CMG-6T" lat="39.1636" lon="39.3871">
    <comp name="--.HHE">
      <acc value="0.0082477677" flag="0"/>
      <vel value="0.0048519330" flag="0"/>
      <psa03 value="0.0299360133" flag="0"/>
      <psa10 value="0.0047583775" flag="0"/>
      <psa30 value="0.0001885584" flag="0"/>
    </comp>
    <comp name="--.HHN">
      <acc value="0.0068403312" flag="0"/>
      <vel value="0.0048644485" flag="0"/>
      <psa03 value="0.0170852572" flag="0"/>
      <psa10 value="0.0073633988" flag="0"/>
      <psa30 value="0.0001805643" flag="0"/>
    </comp>
    <comp name="--.HHZ">
      <acc value="0.0053534308" flag="0"/>
      <vel value="0.0048476959" flag="0"/>
      <psa03 value="0.0166216750" flag="0"/>
      <psa10 value="0.0048096467" flag="0"/>
      <psa30 value="0.0002307757" flag="0"/>
    </comp>
  </station>
  <station code="SVAN" name="SVAN" netid="KO" insttype="CMG-3T" lat="38.1511" lon="41.1984">
    <comp name="--.HHZ">
      <acc value="0.0218965584" flag="0"/>
      <vel value="0.0051205243" flag="0"/>
      <psa03 value="0.0230412410" flag="0"/>
      <psa10 value="0.0043572439" flag="0"/>
      <psa30 value="0.0005851713" flag="0"/>
    </comp>
  </station>
  <station code="SVRC" name="SVRC" netid="KO" insttype="CMG-3T" lat="38.3775" lon="39.306">
    <comp name="--.HHE">
      <acc value="0.0561905428" flag="0"/>
      <vel value="0.0188543936" flag="0"/>
      <psa03 value="0.1350723315" flag="0"/>
      <psa10 value="0.0122789112" flag="0"/>
      <psa30 value="0.0007333557" flag="0"/>
    </comp>
    <comp name="--.HHZ">
      <acc value="0.0371006532" flag="0"/>
      <vel value="0.0113380957" flag="0"/>
      <psa03 value="0.0612916465" flag="0"/>
      <psa10 value="0.0031629465" flag="0"/>
      <psa30 value="0.0003200217" flag="0"/>
    </comp>
  </station>
  <station code="YEDI" name="YEDI" netid="KO" insttype="CMG-3T" lat="39.4377" lon="40.5443">
    <comp name="--.HHE">
      <acc value="0.0115804536" flag="0"/>
      <vel value="0.0050568972" flag="0"/>
      <psa03 value="0.0282328592" flag="0"/>
      <psa10 value="0.0038826262" flag="0"/>
      <psa30 value="0.0003659355" flag="0"/>
    </comp>
    <comp name="--.HHZ">
      <acc value="0.0000293224" flag="0"/>
      <vel value="0.0000027821" flag="0"/>
      <psa03 value="0.0000107493" flag="0"/>
      <psa10 value="0.0000032188" flag="0"/>
      <psa30 value="0.0000006963" flag="0"/>
    </comp>
  </station>
</stationlist>
