<?xml version="1.0" encoding="UTF-8" standalone="yes"?>
<!DOCTYPE earthquake SYSTEM "stationlist.dtd">
<stationlist created="" xmlns="ch.ethz.sed.shakemap.usgs.xml">
  <station code="THERA" name="THERA" netid="GE" insttype="STS-2/N" commtype="DIG" lat="36.367" lon="25.4753">
    <comp name="--.HHE">
      <acc value="0.0230653876" flag="0"/>
      <vel value="0.0053062575" flag="0"/>
      <psa03 value="0.0163457558" flag="0"/>
      <psa10 value="0.0014485290" flag="0"/>
      <psa30 value="0.0001505912" flag="0"/>
    </comp>
    <comp name="--.HHN">
      <acc value="0.0138622393" flag="0"/>
      <vel value="0.0029231347" flag="0"/>
      <psa03 value="0.0183951756" flag="0"/>
      <psa10 value="0.0006738714" flag="0"/>
      <psa30 value="0.0001001212" flag="0"/>
    </comp>
    <comp name="--.HHZ">
      <acc value="0.0251855072" flag="0"/>
      <vel value="0.0056860418" flag="0"/>
      <psa03 value="0.0175433685" flag="0"/>
      <psa10 value="0.0006563398" flag="0"/>
      <psa30 value="0.0000857106" flag="0"/>
    </comp>
  </station>
  <station code="ZKR" name="ZKR" netid="GE" insttype="STS-2/N" commtype="DIG" lat="35.1147" lon="26.2169">
    <comp name="--.HHN">
      <acc value="0.0142945694" flag="0"/>
      <vel value="0.0027772717" flag="0"/>
      <psa03 value="0.0133014377" flag="0"/>
      <psa10 value="0.0010656903" flag="0"/>
      <psa30 value="0.0001026497" flag="0"/>
    </comp>
    <comp name="--.HHZ">
      <acc value="0.0226284943" flag="0"/>
      <vel value="0.0042789035" flag="0"/>
      <psa03 value="0.0225635097" flag="0"/>
      <psa10 value="0.0020980879" flag="0"/>
      <psa30 value="0.0001748716" flag="0"/>
    </comp>
    <comp name="--.HHE">
      <acc value="0.0286626967" flag="0"/>
      <vel value="0.0056369779" flag="0"/>
      <psa03 value="0.0372186446" flag="0"/>
      <psa10 value="0.0026477741" flag="0"/>
      <psa30 value="0.0002874531" flag="0"/>
    </comp>
  </station>
  <station code="SNT1" name="SNT1" netid="HA" insttype="30" commtype="DIG" lat="36.4159" lon="25.4282">
    <comp name="--.HHE">
      <acc value="0.0076034424" flag="0"/>
      <vel value="0.0015300071" flag="0"/>
      <psa03 value="0.0094110778" flag="0"/>
      <psa10 value="0.0007094565" flag="0"/>
      <psa30 value="0.0001260157" flag="0"/>
    </comp>
    <comp name="--.HHZ">
      <acc value="0.0069453200" flag="0"/>
      <vel value="0.0012723256" flag="0"/>
      <psa03 value="0.0081904671" flag="0"/>
      <psa10 value="0.0003737540" flag="0"/>
      <psa30 value="0.0000524536" flag="0"/>
    </comp>
    <comp name="--.HHN">
      <acc value="0.0083857428" flag="0"/>
      <vel value="0.0021935912" flag="0"/>
      <psa03 value="0.0139993128" flag="0"/>
      <psa10 value="0.0005185769" flag="0"/>
      <psa30 value="0.0001459369" flag="0"/>
    </comp>
  </station>
  <station code="SNT5" name="SNT5" netid="HA" insttype="1s-100Hz," commtype="DIG" lat="36.4037" lon="25.3953">
    <comp name="--.HHE">
      <acc value="0.0460493223" flag="0"/>
      <vel value="0.0072879332" flag="0"/>
      <psa03 value="0.0287923072" flag="0"/>
      <psa10 value="0.0011128812" flag="0"/>
      <psa30 value="0.0002357409" flag="0"/>
    </comp>
    <comp name="--.HHZ">
      <acc value="0.0242518160" flag="0"/>
      <vel value="0.0031747523" flag="0"/>
      <psa03 value="0.0066957923" flag="0"/>
      <psa10 value="0.0002991296" flag="0"/>
      <psa30 value="0.0000688018" flag="0"/>
    </comp>
    <comp name="--.HHN">
      <acc value="0.0305604574" flag="0"/>
      <vel value="0.0038357617" flag="0"/>
      <psa03 value="0.0131859885" flag="0"/>
      <psa10 value="0.0006221563" flag="0"/>
      <psa30 value="0.0001377058" flag="0"/>
    </comp>
  </station>
  <station code="IMOD" name="IMOD" netid="HC" insttype="120" commtype="DIG" lat="34.9731" lon="24.7995">
    <comp name="--.HHE">
      <acc value="0.0062727445" flag="0"/>
      <vel value="0.0027024613" flag="0"/>
      <psa03 value="0.0146805901" flag="0"/>
      <psa10 value="0.0028698998" flag="0"/>
      <psa30 value="0.0001341677" flag="0"/>
    </comp>
    <comp name="--.HHN">
      <acc value="0.0052078039" flag="0"/>
      <vel value="0.0027430179" flag="0"/>
      <psa03 value="0.0187627088" flag="0"/>
      <psa10 value="0.0025356455" flag="0"/>
      <psa30 value="0.0001216764" flag="0"/>
    </comp>
    <comp name="--.HHZ">
      <acc value="0.0070126074" flag="0"/>
      <vel value="0.0019618558" flag="0"/>
      <psa03 value="0.0087932867" flag="0"/>
      <psa10 value="0.0012934943" flag="0"/>
      <psa30 value="0.0000847716" flag="0"/>
    </comp>
  </station>
  <station code="KNSS" name="KNSS" netid="HC" insttype="60" commtype="DIG" lat="35.3042" lon="25.1802">
    <comp name="--.HHZ">
      <acc value="0.0575234415" flag="0"/>
      <vel value="0.0070938967" flag="0"/>
      <psa03 value="0.0214804902" flag="0"/>
      <psa10 value="0.0011907605" flag="0"/>
      <psa30 value="0.0001323707" flag="0"/>
    </comp>
    <comp name="--.HHN">
      <acc value="0.0396604966" flag="0"/>
      <vel value="0.0084266015" flag="0"/>
      <psa03 value="0.0409810525" flag="0"/>
      <psa10 value="0.0022681327" flag="0"/>
      <psa30 value="0.0002203356" flag="0"/>
    </comp>
    <comp name="--.HHE">
      <acc value="0.0402272309" flag="0"/>
      <vel value="0.0075945140" flag="0"/>
      <psa03 value="0.0309592296" flag="0"/>
      <psa10 value="0.0024809243" flag="0"/>
      <psa30 value="0.0002983991" flag="0"/>
    </comp>
  </station>
  <station code="PFKS" name="PFKS" netid="HC" insttype="120" commtype="DIG" lat="35.0429" lon="25.4733">
    <comp name="--.HHE">
      <acc value="0.0277860472" flag="0"/>
      <vel value="0.0063489134" flag="0"/>
      <psa03 value="0.0469537295" flag="0"/>
      <psa10 value="0.0031515918" flag="0"/>
      <psa30 value="0.0001854189" flag="0"/>
    </comp>
    <comp name="--.HHN">
      <acc value="0.0305459151" flag="0"/>
      <vel value="0.0086067922" flag="0"/>
      <psa03 value="0.0385391317" flag="0"/>
      <psa10 value="0.0030231245" flag="0"/>
      <psa30 value="0.0003014105" flag="0"/>
    </comp>
    <comp name="--.HHZ">
      <acc value="0.0265409168" flag="0"/>
      <vel value="0.0041252969" flag="0"/>
      <psa03 value="0.0146466366" flag="0"/>
      <psa10 value="0.0021209957" flag="0"/>
      <psa30 value="0.0001312177" flag="0"/>
    </comp>
  </station>
  <station code="STIA" name="STIA" netid="HC" insttype="120" commtype="DIG" lat="35.2021" lon="26.0909">
    <comp name="--.HHE">
      <acc value="0.0000000000" flag="0"/>
      <vel value="-100.0000000000" flag="0"/>
      <psa03 value="0.0000000000" flag="0"/>
      <psa10 value="0.0000000000" flag="0"/>
      <psa30 value="0.0000000000" flag="0"/>
    </comp>
    <comp name="--.HHN">
      <acc value="0.0000000000" flag="0"/>
      <vel value="-100.0000000000" flag="0"/>
      <psa03 value="0.0000000000" flag="0"/>
      <psa10 value="0.0000000000" flag="0"/>
      <psa30 value="0.0000000000" flag="0"/>
    </comp>
    <comp name="--.HHZ">
      <acc value="0.0770219055" flag="0"/>
      <vel value="0.0127576181" flag="0"/>
      <psa03 value="0.0372485549" flag="0"/>
      <psa10 value="0.0020214836" flag="0"/>
      <psa30 value="0.0001759599" flag="0"/>
    </comp>
  </station>
  <station code="TEFL" name="TEFL" netid="HC" insttype="GEOtiny," commtype="DIG" lat="35.0933" lon="25.1634">
    <comp name="--.HHE">
      <acc value="0.0385640569" flag="0"/>
      <vel value="0.0035546688" flag="0"/>
      <psa03 value="0.0029843632" flag="0"/>
      <psa10 value="0.0001636087" flag="0"/>
      <psa30 value="0.0000207816" flag="0"/>
    </comp>
    <comp name="--.HHZ">
      <acc value="0.0026785476" flag="0"/>
      <vel value="0.0004065899" flag="0"/>
      <psa03 value="0.0007271191" flag="0"/>
      <psa10 value="0.0000381003" flag="0"/>
      <psa30 value="0.0000161710" flag="0"/>
    </comp>
    <comp name="--.HHN">
      <acc value="0.0245428215" flag="0"/>
      <vel value="0.0023165985" flag="0"/>
      <psa03 value="0.0017641560" flag="0"/>
      <psa10 value="0.0001224531" flag="0"/>
      <psa30 value="0.0000207478" flag="0"/>
    </comp>
  </station>
  <station code="AGN1" name="AGN1" netid="HI" insttype="unknown" commtype="DIG" lat="35.1879" lon="25.7155">
    <comp name="--.HNN">
      <acc value="0.1050964716" flag="0"/>
      <vel value="0.0218915602" flag="0"/>
      <psa03 value="0.1200082329" flag="0"/>
      <psa10 value="0.0055766830" flag="0"/>
      <psa30 value="0.0005182416" flag="0"/>
    </comp>
    <comp name="--.HNE">
      <acc value="0.0738744368" flag="0"/>
      <vel value="0.0157785720" flag="0"/>
      <psa03 value="0.0910032940" flag="0"/>
      <psa10 value="0.0062819332" flag="0"/>
      <psa30 value="0.0004785178" flag="0"/>
    </comp>
    <comp name="--.HNZ">
      <acc value="0.0591576008" flag="0"/>
      <vel value="0.0146077484" flag="0"/>
      <psa03 value="0.0602181114" flag="0"/>
      <psa10 value="0.0023038078" flag="0"/>
      <psa30 value="0.0001873941" flag="0"/>
    </comp>
  </station>
  <station code="ARK1" name="ARK1" netid="HI" insttype="unknown" commtype="DIG" lat="35.1488" lon="25.2642">
    <comp name="--.HNE">
      <acc value="0.0266935521" flag="0"/>
      <vel value="0.0058925778" flag="0"/>
      <psa03 value="0.0302811985" flag="0"/>
      <psa10 value="0.0029080706" flag="0"/>
      <psa30 value="0.0003301501" flag="0"/>
    </comp>
    <comp name="--.HNN">
      <acc value="0.0359253930" flag="0"/>
      <vel value="0.0086474263" flag="0"/>
      <psa03 value="0.0476022901" flag="0"/>
      <psa10 value="0.0022737286" flag="0"/>
      <psa30 value="0.0003015691" flag="0"/>
    </comp>
    <comp name="--.HNZ">
      <acc value="0.0598594695" flag="0"/>
      <vel value="0.0053710462" flag="0"/>
      <psa03 value="0.0290907396" flag="0"/>
      <psa10 value="0.0023427453" flag="0"/>
      <psa30 value="0.0002151108" flag="0"/>
    </comp>
  </station>
  <station code="GOR1" name="GOR1" netid="HI" insttype="unknown" commtype="DIG" lat="35.0582" lon="24.9628">
    <comp name="--.HNE">
      <acc value="0.0132564364" flag="0"/>
      <vel value="0.0048768240" flag="0"/>
      <psa03 value="0.0231798587" flag="0"/>
      <psa10 value="0.0021947453" flag="0"/>
      <psa30 value="0.0002195938" flag="0"/>
    </comp>
    <comp name="--.HNN">
      <acc value="0.0111584615" flag="0"/>
      <vel value="0.0038177767" flag="0"/>
      <psa03 value="0.0207476474" flag="0"/>
      <psa10 value="0.0038920732" flag="0"/>
      <psa30 value="0.0003207857" flag="0"/>
    </comp>
    <comp name="--.HNZ">
      <acc value="0.0105327901" flag="0"/>
      <vel value="0.0033453028" flag="0"/>
      <psa03 value="0.0117253818" flag="0"/>
      <psa10 value="0.0010967937" flag="0"/>
      <psa30 value="0.0001641876" flag="0"/>
    </comp>
  </station>
  <station code="HER1" name="HER1" netid="HI" insttype="unknown" commtype="DIG" lat="35.3177" lon="25.1022">
    <comp name="--.HNE">
      <acc value="0.0549763354" flag="0"/>
      <vel value="0.0145173500" flag="0"/>
      <psa03 value="0.0807595325" flag="0"/>
      <psa10 value="0.0107592507" flag="0"/>
      <psa30 value="0.0005606488" flag="0"/>
    </comp>
    <comp name="--.HNZ">
      <acc value="0.0469343252" flag="0"/>
      <vel value="0.0137592403" flag="0"/>
      <psa03 value="0.0482759376" flag="0"/>
      <psa10 value="0.0076568003" flag="0"/>
      <psa30 value="0.0003652000" flag="0"/>
    </comp>
    <comp name="--.HNN">
      <acc value="0.0531661908" flag="0"/>
      <vel value="0.0126041398" flag="0"/>
      <psa03 value="0.0830015330" flag="0"/>
      <psa10 value="0.0095181706" flag="0"/>
      <psa30 value="0.0005703376" flag="0"/>
    </comp>
  </station>
  <station code="HER3" name="HER3" netid="HI" insttype="unknown" commtype="DIG" lat="35.3296" lon="25.1065">
    <comp name="--.HNE">
      <acc value="0.0931576350" flag="0"/>
      <vel value="0.0277093153" flag="0"/>
      <psa03 value="0.1560668549" flag="0"/>
      <psa10 value="0.0088641618" flag="0"/>
      <psa30 value="0.0006436959" flag="0"/>
    </comp>
    <comp name="--.HNN">
      <acc value="0.0785427974" flag="0"/>
      <vel value="0.0311047039" flag="0"/>
      <psa03 value="0.2470392417" flag="0"/>
      <psa10 value="0.0138997263" flag="0"/>
      <psa30 value="0.0008251591" flag="0"/>
    </comp>
    <comp name="--.HNZ">
      <acc value="0.0603019134" flag="0"/>
      <vel value="0.0188926536" flag="0"/>
      <psa03 value="0.1088186998" flag="0"/>
      <psa10 value="0.0062980845" flag="0"/>
      <psa30 value="0.0004059614" flag="0"/>
    </comp>
  </station>
  <station code="KSS1" name="KSS1" netid="HI" insttype="CMG-5TD,ACCELEROMETER,GURALP" commtype="DIG" lat="35.4189" lon="26.9207">
    <comp name="--.HNE">
      <acc value="0.0297166449" flag="0"/>
      <vel value="0.0041574938" flag="0"/>
      <psa03 value="0.0171330491" flag="0"/>
      <psa10 value="0.0006989201" flag="0"/>
      <psa30 value="0.0001247761" flag="0"/>
    </comp>
    <comp name="--.HNN">
      <acc value="0.0205371960" flag="0"/>
      <vel value="0.0039980116" flag="0"/>
      <psa03 value="0.0182207554" flag="0"/>
      <psa10 value="0.0009426754" flag="0"/>
      <psa30 value="0.0001577974" flag="0"/>
    </comp>
    <comp name="--.HNZ">
      <acc value="0.0185865258" flag="0"/>
      <vel value="0.0028168598" flag="0"/>
      <psa03 value="0.0058551323" flag="0"/>
      <psa10 value="0.0006584619" flag="0"/>
      <psa30 value="0.0001349290" flag="0"/>
    </comp>
  </station>
  <station code="KTL1" name="KTL1" netid="HI" insttype="unknown" commtype="DIG" lat="35.2078" lon="25.3427">
    <comp name="--.HNE">
      <acc value="0.0447743135" flag="0"/>
      <vel value="0.0130304727" flag="0"/>
      <psa03 value="0.0537520644" flag="0"/>
      <psa10 value="0.0029107826" flag="0"/>
      <psa30 value="0.0002235112" flag="0"/>
    </comp>
    <comp name="--.HNN">
      <acc value="0.0467311933" flag="0"/>
      <vel value="0.0128663704" flag="0"/>
      <psa03 value="0.0821520692" flag="0"/>
      <psa10 value="0.0045235210" flag="0"/>
      <psa30 value="0.0004303106" flag="0"/>
    </comp>
    <comp name="--.HNZ">
      <acc value="0.0718206412" flag="0"/>
      <vel value="0.0125432902" flag="0"/>
      <psa03 value="0.0283375478" flag="0"/>
      <psa10 value="0.0018887652" flag="0"/>
      <psa30 value="0.0001627235" flag="0"/>
    </comp>
  </station>
  <station code="AGNA" name="AGNA" netid="HL" insttype="CMG-5" commtype="DIG" lat="35.1895" lon="25.7185">
    <comp name="00.HNE">
      <acc value="0.0265057670" flag="0"/>
      <vel value="0.0078781920" flag="0"/>
      <psa03 value="0.0394004516" flag="0"/>
      <psa10 value="0.0025867144" flag="0"/>
      <psa30 value="0.0002901312" flag="0"/>
    </comp>
    <comp name="00.HNN">
      <acc value="0.0489568934" flag="0"/>
      <vel value="0.0156781553" flag="0"/>
      <psa03 value="0.0729020603" flag="0"/>
      <psa10 value="0.0073036248" flag="0"/>
      <psa30 value="0.0005543256" flag="0"/>
    </comp>
    <comp name="00.HNZ">
      <acc value="0.0291164555" flag="0"/>
      <vel value="0.0057424081" flag="0"/>
      <psa03 value="0.0453389678" flag="0"/>
      <psa10 value="0.0022806608" flag="0"/>
      <psa30 value="0.0001510290" flag="0"/>
    </comp>
  </station>
  <station code="ANAF" name="ANAF" netid="HL" insttype="LE3D20_SMART24" commtype="DIG" lat="36.3567" lon="25.7726">
    <comp name="--.HHE">
      <acc value="0.2937013466" flag="0"/>
      <vel value="0.0626154901" flag="0"/>
      <psa03 value="0.1925942210" flag="0"/>
      <psa10 value="0.0096703929" flag="0"/>
      <psa30 value="0.0007611851" flag="0"/>
    </comp>
    <comp name="--.HHN">
      <acc value="0.3071014290" flag="0"/>
      <vel value="0.0462182934" flag="0"/>
      <psa03 value="0.1862243084" flag="0"/>
      <psa10 value="0.0088938732" flag="0"/>
      <psa30 value="0.0007388533" flag="0"/>
    </comp>
    <comp name="--.HHZ">
      <acc value="0.2539923916" flag="0"/>
      <vel value="0.0347238791" flag="0"/>
      <psa03 value="0.0897603861" flag="0"/>
      <psa10 value="0.0037682055" flag="0"/>
      <psa30 value="0.0004369203" flag="0"/>
    </comp>
  </station>
  <station code="HERG" name="HERG" netid="HL" insttype="CMG-5" commtype="DIG" lat="35.3262" lon="25.0659">
    <comp name="00.HNZ">
      <acc value="0.0484286639" flag="0"/>
      <vel value="0.0131394584" flag="0"/>
      <psa03 value="0.0614208154" flag="0"/>
      <psa10 value="0.0058334562" flag="0"/>
      <psa30 value="0.0004225173" flag="0"/>
    </comp>
    <comp name="00.HNN">
      <acc value="0.0460590304" flag="0"/>
      <vel value="0.0150076972" flag="0"/>
      <psa03 value="0.0905040736" flag="0"/>
      <psa10 value="0.0061985967" flag="0"/>
      <psa30 value="0.0005325467" flag="0"/>
    </comp>
    <comp name="00.HNE">
      <acc value="0.0623055911" flag="0"/>
      <vel value="0.0171714090" flag="0"/>
      <psa03 value="0.0830863409" flag="0"/>
      <psa10 value="0.0074441837" flag="0"/>
      <psa30 value="0.0007926109" flag="0"/>
    </comp>
  </station>
  <station code="NPS" name="NPS" netid="HL" insttype="CMG3ESPC-120s" commtype="DIG" lat="35.2613" lon="25.6104">
    <comp name="--.HHE">
      <acc value="0.0317212728" flag="0"/>
      <vel value="0.0089741793" flag="0"/>
      <psa03 value="0.0408935797" flag="0"/>
      <psa10 value="0.0016427056" flag="0"/>
      <psa30 value="0.0001577335" flag="0"/>
    </comp>
    <comp name="--.HHN">
      <acc value="0.0958979666" flag="0"/>
      <vel value="0.0167990560" flag="0"/>
      <psa03 value="0.0564646774" flag="0"/>
      <psa10 value="0.0036146227" flag="0"/>
      <psa30 value="0.0002442122" flag="0"/>
    </comp>
    <comp name="--.HHZ">
      <acc value="0.0625124566" flag="0"/>
      <vel value="0.0123347005" flag="0"/>
      <psa03 value="0.0449069702" flag="0"/>
      <psa10 value="0.0023045112" flag="0"/>
      <psa30 value="0.0002138888" flag="0"/>
    </comp>
  </station>
  <station code="SANT" name="SANT" netid="HL" insttype="30" commtype="DIG" lat="36.3705" lon="25.4593">
    <comp name="--.HHE">
      <acc value="0.0592727881" flag="0"/>
      <vel value="0.0088531758" flag="0"/>
      <psa03 value="0.0507001501" flag="0"/>
      <psa10 value="0.0023059536" flag="0"/>
      <psa30 value="0.0001957740" flag="0"/>
    </comp>
    <comp name="--.HHN">
      <acc value="0.0491680453" flag="0"/>
      <vel value="0.0067062425" flag="0"/>
      <psa03 value="0.0198668503" flag="0"/>
      <psa10 value="0.0011301260" flag="0"/>
      <psa30 value="0.0001324787" flag="0"/>
    </comp>
    <comp name="--.HHZ">
      <acc value="0.0372298092" flag="0"/>
      <vel value="0.0073698329" flag="0"/>
      <psa03 value="0.0165773788" flag="0"/>
      <psa10 value="0.0008055583" flag="0"/>
      <psa30 value="0.0001653009" flag="0"/>
    </comp>
  </station>
  <station code="SAP3" name="SAP3" netid="HL" insttype="0" commtype="DIG" lat="36.4356" lon="25.3454">
    <comp name="--.HNZ">
      <acc value="0.0223003535" flag="0"/>
      <vel value="0.0053603153" flag="0"/>
      <psa03 value="0.0268216893" flag="0"/>
      <psa10 value="0.0008490868" flag="0"/>
      <psa30 value="0.0001264646" flag="0"/>
    </comp>
    <comp name="--.HNN">
      <acc value="0.0153567323" flag="0"/>
      <vel value="0.0051547994" flag="0"/>
      <psa03 value="0.0265665773" flag="0"/>
      <psa10 value="0.0013311753" flag="0"/>
      <psa30 value="0.0003880597" flag="0"/>
    </comp>
    <comp name="--.HNE">
      <acc value="0.0206527782" flag="0"/>
      <vel value="0.0043635076" flag="0"/>
      <psa03 value="0.0303836762" flag="0"/>
      <psa10 value="0.0014844966" flag="0"/>
      <psa30 value="0.0005529746" flag="0"/>
    </comp>
  </station>
  <station code="SIVA" name="SIVA" netid="HL" insttype="60" commtype="DIG" lat="35.0178" lon="24.812">
