<?xml version="1.0" encoding="UTF-8" standalone="yes"?>
<!DOCTYPE earthquake SYSTEM "stationlist.dtd">
<stationlist created="" xmlns="ch.ethz.sed.shakemap.usgs.xml">
  <station code="THERA" name="THERA" netid="GE" insttype="STS-2/N" commtype="DIG" lat="36.367" lon="25.4753">
    <comp name="--.HHE">
      <acc value="0.0230653876" flag="0"/>
      <vel value="0.0053062575" flag="0"/>
      <psa03 value="0.0163457558" flag="0"/>
      <psa10 value="0.0014485290" flag="0"/>
      <psa30 value="0.0001505912" flag="0"/>
    </comp>
    <comp name="--.HHN">
      <acc value="0.0138622393" flag="0"/>
      <vel value="0.0029231347" flag="0"/>
      <psa03 value="0.0183951756" flag="0"/>
      <psa10 value="0.0006738714" flag="0"/>
      <psa30 value="0.0001001212" flag="0"/>
    </comp>
    <comp name="--.HHZ">
      <acc value="0.0251855072" flag="0"/>
      <vel value="0.0056860418" flag="0"/>
      <psa03 value="0.0175433685" flag="0"/>
      <psa10 value="0.0006563398" flag="0"/>
      <psa30 value="0.0000857106" flag="0"/>
    </comp>
  </station>
  <station code="ZKR" name="ZKR" netid="GE" insttype="STS-2/N" commtype="DIG" lat="35.1147" lon="26.2169">
    <comp name="--.HHN">
      <acc value="0.0142945694" flag="0"/>
      <vel value="0.0027772717" flag="0"/>
      <psa03 value="0.0133014377" flag="0"/>
      <psa10 value="0.0010656903" flag="0"/>
      <psa30 value="0.0001026497" flag="0"/>
    </comp>
    <comp name="--.HHZ">
      <acc value="0.0226284943" flag="0"/>
      <vel value="0.0042789035" flag="0"/>
      <psa03 value="0.0225635097" flag="0"/>
      <psa10 value="0.0020980879" flag="0"/>
      <psa30 value="0.0001748716" flag="0"/>
    </comp>
    <comp name="--.HHE">
      <acc value="0.0286626967" flag="0"/>
      <vel value="0.0056369779" flag="0"/>
      <psa03 value="0.0372186446" flag="0"/>
      <psa10 value="0.0026477741" flag="0"/>
      <psa30 value="0.0002874531" flag="0"/>
    </comp>
  </station>
</stationlist>
