<?xml version="1.0" encoding="UTF-8" standalone="yes"?>
<!DOCTYPE earthquake SYSTEM "stationlist.dtd">
<stationlist created="" xmlns="ch.ethz.sed.shakemap.usgs.xml">
  <station code="BNN" name="BNN" netid="KO" insttype="CMG-3T" lat="38.8521" lon="35.8472">
    <comp name="--.HHN">
      <acc value="0.0082810097" flag="0"/>
      <vel value="0.0043178044" flag="0"/>
      <psa03 value="0.0260265040" flag="0"/>
      <psa10 value="0.0053166660" flag="0"/>
      <psa30 value="0.0008420396" flag="0"/>
    </comp>
    <comp name="--.HHZ">
      <acc value="0.0043429913" flag="0"/>
      <vel value="0.0024333441" flag="0"/>
      <psa03 value="0.0105099008" flag="0"/>
      <psa10 value="0.0046134164" flag="0"/>
      <psa30 value="0.0008693822" flag="0"/>
    </comp>
    <comp name="--.HHE">
      <acc value="0.0057307288" flag="0"/>
      <vel value="0.0041331672" flag="0"/>
      <psa03 value="0.0143298557" flag="0"/>
      <psa10 value="0.0072083001" flag="0"/>
      <psa30 value="0.0006821267" flag="0"/>
    </comp>
  </station>
</stationlist>
