<?xml version="1.0" encoding="UTF-8" standalone="yes"?>
<!DOCTYPE earthquake SYSTEM "stationlist.dtd">
<stationlist created="" xmlns="ch.ethz.sed.shakemap.usgs.xml">
  <station code="AKDN" name="AKDN" netid="KO" insttype="CMG-5T" commtype="DIG" lat="35.2977" lon="32.9677">
    <comp name="--.HNE">
      <acc value="0.0266209766" flag="0"/>
      <vel value="0.0116537948" flag="0"/>
      <psa03 value="0.0438049900" flag="0"/>
      <psa10 value="0.0073906986" flag="0"/>
      <psa30 value="0.0005146545" flag="0"/>
    </comp>
    <comp name="--.HNZ">
      <acc value="0.0459390794" flag="0"/>
      <vel value="0.0086163938" flag="0"/>
      <psa03 value="0.0556044106" flag="0"/>
      <psa10 value="0.0027092465" flag="0"/>
      <psa30 value="0.0003332569" flag="0"/>
    </comp>
    <comp name="--.HNN">
      <acc value="0.0200310889" flag="0"/>
      <vel value="0.0078110586" flag="0"/>
      <psa03 value="0.0339119539" flag="0"/>
      <psa10 value="0.0050087945" flag="0"/>
      <psa30 value="0.0003647819" flag="0"/>
    </comp>
  </station>
  <station code="HSY" name="HSY" netid="KO" insttype="CMG-6T" commtype="DIG" lat="35.2916" lon="33.0974">
    <comp name="--.HHE">
      <acc value="0.2312177359" flag="0"/>
      <vel value="0.0586588512" flag="0"/>
      <psa03 value="0.2189181013" flag="0"/>
      <psa10 value="0.0149952339" flag="0"/>
      <psa30 value="0.0011616136" flag="0"/>
    </comp>
    <comp name="--.HHN">
      <acc value="0.2446870927" flag="0"/>
      <vel value="0.0752643193" flag="0"/>
      <psa03 value="0.2135901103" flag="0"/>
      <psa10 value="0.0137413630" flag="0"/>
      <psa30 value="0.0011576134" flag="0"/>
    </comp>
    <comp name="--.HHZ">
      <acc value="0.0556834948" flag="0"/>
      <vel value="0.0105430894" flag="0"/>
      <psa03 value="0.0430581825" flag="0"/>
      <psa10 value="0.0039932952" flag="0"/>
      <psa30 value="0.0002269526" flag="0"/>
    </comp>
  </station>
  <station code="LEF" name="LEF" netid="KO" insttype="CMG-6T" commtype="DIG" lat="35.1118" lon="32.8433">
    <comp name="--.HHE">
      <acc value="0.0371391597" flag="0"/>
      <vel value="0.0081736086" flag="0"/>
      <psa03 value="0.0290928836" flag="0"/>
      <psa10 value="0.0034882239" flag="0"/>
      <psa30 value="0.0003009468" flag="0"/>
    </comp>
    <comp name="--.HHN">
      <acc value="0.0242181360" flag="0"/>
      <vel value="0.0065425246" flag="0"/>
      <psa03 value="0.0456289430" flag="0"/>
      <psa10 value="0.0028656450" flag="0"/>
      <psa30 value="0.0002126750" flag="0"/>
    </comp>
    <comp name="--.HHZ">
      <acc value="0.0358659803" flag="0"/>
      <vel value="0.0058996751" flag="0"/>
      <psa03 value="0.0247647668" flag="0"/>
      <psa10 value="0.0017262883" flag="0"/>
      <psa30 value="0.0001244117" flag="0"/>
    </comp>
  </station>
  <station code="LMOS" name="LMOS" netid="KO" insttype="CMG-6T" commtype="DIG" lat="36.6021" lon="32.6962">
    <comp name="--.HHE">
      <acc value="0.0155558509" flag="0"/>
      <vel value="0.0059663291" flag="0"/>
      <psa03 value="0.0446515726" flag="0"/>
      <psa10 value="0.0021335180" flag="0"/>
      <psa30 value="0.0002053448" flag="0"/>
    </comp>
    <comp name="--.HHN">
      <acc value="0.0138847282" flag="0"/>
      <vel value="0.0050355448" flag="0"/>
      <psa03 value="0.0385716882" flag="0"/>
      <psa10 value="0.0021990087" flag="0"/>
      <psa30 value="0.0001510232" flag="0"/>
    </comp>
    <comp name="--.HHZ">
      <acc value="0.0086639627" flag="0"/>
      <vel value="0.0029944083" flag="0"/>
      <psa03 value="0.0233961138" flag="0"/>
      <psa10 value="0.0018547585" flag="0"/>
      <psa30 value="0.0001238809" flag="0"/>
    </comp>
  </station>
</stationlist>
