<?xml version="1.0" encoding="UTF-8" standalone="yes"?>
<!DOCTYPE earthquake SYSTEM "stationlist.dtd">
<stationlist created="" xmlns="ch.ethz.sed.shakemap.usgs.xml">
  <station code="AKDN" name="AKDN" netid="KO" insttype="CMG-5T" commtype="DIG" lat="35.2977" lon="32.9677">
    <comp name="--.HNE">
      <acc value="0.0266209763" flag="0"/>
      <vel value="0.0116537917" flag="0"/>
      <psa03 value="0.0438049899" flag="0"/>
      <psa10 value="0.0073906987" flag="0"/>
      <psa30 value="0.0005162316" flag="0"/>
    </comp>
    <comp name="--.HNZ">
      <acc value="0.0459390797" flag="0"/>
      <vel value="0.0086163941" flag="0"/>
      <psa03 value="0.0556044106" flag="0"/>
      <psa10 value="0.0027092465" flag="0"/>
      <psa30 value="0.0003332110" flag="0"/>
    </comp>
    <comp name="--.HNN">
      <acc value="0.0200310890" flag="0"/>
      <vel value="0.0078110612" flag="0"/>
      <psa03 value="0.0339119539" flag="0"/>
      <psa10 value="0.0050087945" flag="0"/>
      <psa30 value="0.0003647786" flag="0"/>
    </comp>
  </station>
  <station code="HSY" name="HSY" netid="KO" insttype="CMG-6T" commtype="DIG" lat="35.2916" lon="33.0974">
    <comp name="--.HHE">
      <acc value="0.2312177370" flag="0"/>
      <vel value="0.0586588569" flag="0"/>
      <psa03 value="0.2189181013" flag="0"/>
      <psa10 value="0.0149952339" flag="0"/>
      <psa30 value="0.0011615908" flag="0"/>
    </comp>
    <comp name="--.HHN">
      <acc value="0.2446870933" flag="0"/>
      <vel value="0.0752643315" flag="0"/>
      <psa03 value="0.2135901102" flag="0"/>
      <psa10 value="0.0137413630" flag="0"/>
      <psa30 value="0.0011575893" flag="0"/>
    </comp>
    <comp name="--.HHZ">
      <acc value="0.0556834954" flag="0"/>
      <vel value="0.0105430907" flag="0"/>
      <psa03 value="0.0430581825" flag="0"/>
      <psa10 value="0.0039932952" flag="0"/>
      <psa30 value="0.0002269222" flag="0"/>
    </comp>
  </station>
  <station code="LEF" name="LEF" netid="KO" insttype="CMG-6T" commtype="DIG" lat="35.1118" lon="32.8433">
    <comp name="--.HHE">
      <acc value="0.0371391594" flag="0"/>
      <vel value="0.0081736066" flag="0"/>
      <psa03 value="0.0290928836" flag="0"/>
      <psa10 value="0.0034882239" flag="0"/>
      <psa30 value="0.0003009472" flag="0"/>
    </comp>
    <comp name="--.HHN">
      <acc value="0.0242181375" flag="0"/>
      <vel value="0.0065425252" flag="0"/>
      <psa03 value="0.0456289430" flag="0"/>
      <psa10 value="0.0028656450" flag="0"/>
      <psa30 value="0.0002126809" flag="0"/>
    </comp>
    <comp name="--.HHZ">
      <acc value="0.0358659797" flag="0"/>
      <vel value="0.0058996748" flag="0"/>
      <psa03 value="0.0247647668" flag="0"/>
      <psa10 value="0.0017262883" flag="0"/>
      <psa30 value="0.0001243952" flag="0"/>
    </comp>
  </station>
  <station code="LMOS" name="LMOS" netid="KO" insttype="CMG-6T" commtype="DIG" lat="36.6021" lon="32.6962">
    <comp name="--.HHE">
      <acc value="0.0155558508" flag="0"/>
      <vel value="0.0059663295" flag="0"/>
      <psa03 value="0.0446515726" flag="0"/>
      <psa10 value="0.0021335180" flag="0"/>
      <psa30 value="0.0002053285" flag="0"/>
    </comp>
    <comp name="--.HHN">
      <acc value="0.0138847279" flag="0"/>
      <vel value="0.0050355456" flag="0"/>
      <psa03 value="0.0385716882" flag="0"/>
      <psa10 value="0.0021990087" flag="0"/>
      <psa30 value="0.0001510362" flag="0"/>
    </comp>
    <comp name="--.HHZ">
      <acc value="0.0086639627" flag="0"/>
      <vel value="0.0029944085" flag="0"/>
      <psa03 value="0.0233961138" flag="0"/>
      <psa10 value="0.0018547585" flag="0"/>
      <psa30 value="0.0001238658" flag="0"/>
    </comp>
  </station>
</stationlist>
