<?xml version="1.0" encoding="UTF-8" standalone="yes"?>
<!DOCTYPE earthquake SYSTEM "stationlist.dtd">
<stationlist created="" xmlns="ch.ethz.sed.shakemap.usgs.xml">
  <station code="ACOR" name="ACOR" netid="HA" insttype="30" lat="37.8902" lon="22.8692">
    <comp name="--.HHE">
      <acc value="0.0091088699" flag="0"/>
      <vel value="0.0025144845" flag="0"/>
      <psa03 value="0.0099599538" flag="0"/>
      <psa10 value="0.0009732636" flag="0"/>
      <psa30 value="0.0001025621" flag="0"/>
    </comp>
    <comp name="--.HHZ">
      <acc value="0.0063613627" flag="0"/>
      <vel value="0.0019579120" flag="0"/>
      <psa03 value="0.0113277088" flag="0"/>
      <psa10 value="0.0009838465" flag="0"/>
      <psa30 value="0.0000593913" flag="0"/>
    </comp>
    <comp name="--.HHN">
      <acc value="0.0310616924" flag="0"/>
      <vel value="0.0074455110" flag="0"/>
      <psa03 value="0.0581476424" flag="0"/>
      <psa10 value="0.0044867334" flag="0"/>
      <psa30 value="0.0002506817" flag="0"/>
    </comp>
  </station>
  <station code="AMPE" name="AMPE" netid="HA" insttype="1s-100Hz," lat="38.3015" lon="23.2688">
    <comp name="--.HHE">
      <acc value="0.0096357512" flag="0"/>
      <vel value="0.0037814069" flag="0"/>
      <psa03 value="0.0205332421" flag="0"/>
      <psa10 value="0.0030759010" flag="0"/>
      <psa30 value="0.0002379314" flag="0"/>
    </comp>
    <comp name="--.HHN">
      <acc value="0.0099900239" flag="0"/>
      <vel value="0.0033995441" flag="0"/>
      <psa03 value="0.0115693357" flag="0"/>
      <psa10 value="0.0019280776" flag="0"/>
      <psa30 value="0.0002129967" flag="0"/>
    </comp>
    <comp name="--.HHZ">
      <acc value="0.0065598706" flag="0"/>
      <vel value="0.0019158408" flag="0"/>
      <psa03 value="0.0107033709" flag="0"/>
      <psa10 value="0.0015026377" flag="0"/>
      <psa30 value="0.0001640203" flag="0"/>
    </comp>
  </station>
  <station code="ATAL" name="ATAL" netid="HA" insttype="120" lat="38.6926" lon="23.0213">
    <comp name="--.HHZ">
      <acc value="0.0028693554" flag="0"/>
      <vel value="0.0006867760" flag="0"/>
      <psa03 value="0.0020995435" flag="0"/>
      <psa10 value="0.0002896419" flag="0"/>
      <psa30 value="0.0000420866" flag="0"/>
    </comp>
    <comp name="--.HHE">
      <acc value="0.0093748492" flag="0"/>
      <vel value="0.0026214830" flag="0"/>
      <psa03 value="0.0116725744" flag="0"/>
      <psa10 value="0.0020428922" flag="0"/>
      <psa30 value="0.0001123070" flag="0"/>
    </comp>
    <comp name="--.HHN">
      <acc value="0.0104245243" flag="0"/>
      <vel value="0.0023968979" flag="0"/>
      <psa03 value="0.0120870094" flag="0"/>
      <psa10 value="0.0017235621" flag="0"/>
      <psa30 value="0.0001390153" flag="0"/>
    </comp>
  </station>
  <station code="AXAR" name="AXAR" netid="HA" insttype="30" lat="38.7664" lon="22.659">
    <comp name="--.HHE">
      <acc value="0.0056004251" flag="0"/>
      <vel value="0.0018935046" flag="0"/>
      <psa03 value="0.0140858521" flag="0"/>
      <psa10 value="0.0007431758" flag="0"/>
      <psa30 value="0.0000462511" flag="0"/>
    </comp>
    <comp name="--.HHN">
      <acc value="0.0040932699" flag="0"/>
      <vel value="0.0013580416" flag="0"/>
      <psa03 value="0.0094176380" flag="0"/>
      <psa10 value="0.0010156760" flag="0"/>
      <psa30 value="0.0000692762" flag="0"/>
    </comp>
    <comp name="--.HHZ">
      <acc value="0.0028732388" flag="0"/>
      <vel value="0.0009930592" flag="0"/>
      <psa03 value="0.0045568657" flag="0"/>
      <psa10 value="0.0005717958" flag="0"/>
      <psa30 value="0.0000402707" flag="0"/>
    </comp>
  </station>
  <station code="DOMV" name="DOMV" netid="HA" insttype="60" lat="38.2569" lon="22.9795">
    <comp name="--.HHN">
      <acc value="0.0563260494" flag="0"/>
      <vel value="0.0159423398" flag="0"/>
      <psa03 value="0.0744370700" flag="0"/>
      <psa10 value="0.0036535523" flag="0"/>
      <psa30 value="0.0003739898" flag="0"/>
    </comp>
    <comp name="--.HHE">
      <acc value="0.0624238719" flag="0"/>
      <vel value="0.0140508707" flag="0"/>
      <psa03 value="0.0658850649" flag="0"/>
      <psa10 value="0.0046578242" flag="0"/>
      <psa30 value="0.0002855630" flag="0"/>
    </comp>
    <comp name="--.HHZ">
      <acc value="0.0444407061" flag="0"/>
      <vel value="0.0098727327" flag="0"/>
      <psa03 value="0.0519041482" flag="0"/>
      <psa10 value="0.0025011143" flag="0"/>
      <psa30 value="0.0001799014" flag="0"/>
    </comp>
  </station>
  <station code="EPID" name="EPID" netid="HA" insttype="30" lat="37.6144" lon="23.1189">
    <comp name="--.HHZ">
      <acc value="0.0072709144" flag="0"/>
      <vel value="0.0018349738" flag="0"/>
      <psa03 value="0.0110386540" flag="0"/>
      <psa10 value="0.0006686220" flag="0"/>
      <psa30 value="0.0000691869" flag="0"/>
    </comp>
    <comp name="--.HHE">
      <acc value="0.0147785853" flag="0"/>
      <vel value="0.0035022305" flag="0"/>
      <psa03 value="0.0188187039" flag="0"/>
      <psa10 value="0.0012004326" flag="0"/>
      <psa30 value="0.0000648918" flag="0"/>
    </comp>
    <comp name="--.HHN">
      <acc value="0.0141074531" flag="0"/>
      <vel value="0.0030740686" flag="0"/>
      <psa03 value="0.0161608172" flag="0"/>
      <psa10 value="0.0008149517" flag="0"/>
      <psa30 value="0.0000750095" flag="0"/>
    </comp>
  </station>
  <station code="KALE" name="KALE" netid="HA" insttype="40," lat="38.3911" lon="22.1398">
    <comp name="--.HHE">
      <acc value="0.1156083767" flag="0"/>
      <vel value="0.0403371228" flag="0"/>
      <psa03 value="0.2471096407" flag="0"/>
      <psa10 value="0.0104974722" flag="0"/>
      <psa30 value="0.0007831513" flag="0"/>
    </comp>
    <comp name="--.HHN">
      <acc value="0.1810938095" flag="0"/>
      <vel value="0.0481153832" flag="0"/>
      <psa03 value="0.1958727620" flag="0"/>
      <psa10 value="0.0157077507" flag="0"/>
      <psa30 value="0.0009358304" flag="0"/>
    </comp>
    <comp name="--.HHZ">
      <acc value="0.0933290677" flag="0"/>
      <vel value="0.0245598710" flag="0"/>
      <psa03 value="0.1095490030" flag="0"/>
      <psa10 value="0.0036700465" flag="0"/>
      <psa30 value="0.0003014787" flag="0"/>
    </comp>
  </station>
  <station code="LAKA" name="LAKA" netid="HA" insttype="120s" lat="38.2401" lon="21.9785">
    <comp name="--.HHE">
      <acc value="0.0000301828" flag="0"/>
      <vel value="0.0000027419" flag="0"/>
      <psa03 value="0.0000099784" flag="0"/>
      <psa10 value="0.0000028234" flag="0"/>
      <psa30 value="0.0000007502" flag="0"/>
    </comp>
    <comp name="--.HHZ">
      <acc value="0.0401630744" flag="0"/>
      <vel value="0.0070777748" flag="0"/>
      <psa03 value="0.0213712811" flag="0"/>
      <psa10 value="0.0029645858" flag="0"/>
      <psa30 value="0.0002677932" flag="0"/>
    </comp>
    <comp name="--.HHN">
      <acc value="0.0000311190" flag="0"/>
      <vel value="0.0000027232" flag="0"/>
      <psa03 value="0.0000086847" flag="0"/>
      <psa10 value="0.0000032526" flag="0"/>
      <psa30 value="0.0000007082" flag="0"/>
    </comp>
  </station>
  <station code="LOUT" name="LOUT" netid="HA" insttype="30" lat="37.9879" lon="22.9743">
    <comp name="--.HHN">
      <acc value="0.0271594994" flag="0"/>
      <vel value="0.0060728867" flag="0"/>
      <psa03 value="0.0223831165" flag="0"/>
      <psa10 value="0.0019088373" flag="0"/>
      <psa30 value="0.0001217011" flag="0"/>
    </comp>
    <comp name="--.HHE">
      <acc value="0.0275151551" flag="0"/>
      <vel value="0.0090916686" flag="0"/>
      <psa03 value="0.0369370632" flag="0"/>
      <psa10 value="0.0028690478" flag="0"/>
      <psa30 value="0.0001884533" flag="0"/>
    </comp>
    <comp name="--.HHZ">
      <acc value="0.0150189953" flag="0"/>
      <vel value="0.0041382793" flag="0"/>
      <psa03 value="0.0232912903" flag="0"/>
      <psa10 value="0.0012260436" flag="0"/>
      <psa30 value="0.0000952950" flag="0"/>
    </comp>
  </station>
  <station code="MDRA" name="MDRA" netid="HA" insttype="60" lat="38.0606" lon="23.4662">
    <comp name="--.HHE">
      <acc value="0.0052542894" flag="0"/>
      <vel value="0.0027618901" flag="0"/>
      <psa03 value="0.0152698224" flag="0"/>
      <psa10 value="0.0010634731" flag="0"/>
      <psa30 value="0.0000825185" flag="0"/>
    </comp>
    <comp name="--.HHN">
      <acc value="0.0051544338" flag="0"/>
      <vel value="0.0027689806" flag="0"/>
      <psa03 value="0.0155067234" flag="0"/>
      <psa10 value="0.0008004681" flag="0"/>
      <psa30 value="0.0000802227" flag="0"/>
    </comp>
    <comp name="--.HHZ">
      <acc value="0.0034245715" flag="0"/>
      <vel value="0.0012733051" flag="0"/>
      <psa03 value="0.0043115224" flag="0"/>
      <psa10 value="0.0009952011" flag="0"/>
      <psa30 value="0.0000595402" flag="0"/>
    </comp>
  </station>
  <station code="THAL" name="THAL" netid="HA" insttype="30" lat="38.0357" lon="22.6634">
    <comp name="--.HHN">
      <acc value="0.1545936660" flag="0"/>
      <vel value="0.0252186303" flag="0"/>
      <psa03 value="0.1425115419" flag="0"/>
      <psa10 value="0.0087925436" flag="0"/>
      <psa30 value="0.0004806975" flag="0"/>
    </comp>
    <comp name="--.HHZ">
      <acc value="0.0899806198" flag="0"/>
      <vel value="0.0185836673" flag="0"/>
      <psa03 value="0.0689566320" flag="0"/>
      <psa10 value="0.0046680338" flag="0"/>
      <psa30 value="0.0003252147" flag="0"/>
    </comp>
    <comp name="--.HHE">
      <acc value="0.1316854720" flag="0"/>
      <vel value="0.0311664242" flag="0"/>
      <psa03 value="0.1146734810" flag="0"/>
      <psa10 value="0.0079392110" flag="0"/>
      <psa30 value="0.0006553018" flag="0"/>
    </comp>
  </station>
  <station code="THIV" name="THIV" netid="HA" insttype="1s-100Hz," lat="38.299" lon="23.332">
    <comp name="--.HHE">
      <acc value="0.0189704189" flag="0"/>
      <vel value="0.0076122505" flag="0"/>
      <psa03 value="0.0353505350" flag="0"/>
      <psa10 value="0.0035428934" flag="0"/>
      <psa30 value="0.0002913444" flag="0"/>
    </comp>
    <comp name="--.HHN">
      <acc value="0.0212110667" flag="0"/>
      <vel value="0.0052724393" flag="0"/>
      <psa03 value="0.0255561348" flag="0"/>
      <psa10 value="0.0026880080" flag="0"/>
      <psa30 value="0.0002162512" flag="0"/>
    </comp>
    <comp name="--.HHZ">
      <acc value="0.0134491646" flag="0"/>
      <vel value="0.0031611376" flag="0"/>
      <psa03 value="0.0111920501" flag="0"/>
      <psa10 value="0.0015027026" flag="0"/>
      <psa30 value="0.0002432481" flag="0"/>
    </comp>
  </station>
  <station code="VILL" name="VILL" netid="HA" insttype="30" lat="38.1642" lon="23.3122">
    <comp name="--.HHE">
      <acc value="0.0096477216" flag="0"/>
      <vel value="0.0032948224" flag="0"/>
      <psa03 value="0.0172320902" flag="0"/>
      <psa10 value="0.0023331929" flag="0"/>
      <psa30 value="0.0001189320" flag="0"/>
    </comp>
    <comp name="--.HHN">
      <acc value="0.0077396556" flag="0"/>
      <vel value="0.0027008577" flag="0"/>
      <psa03 value="0.0141540214" flag="0"/>
      <psa10 value="0.0013979771" flag="0"/>
      <psa30 value="0.0000858535" flag="0"/>
    </comp>
    <comp name="--.HHZ">
      <acc value="0.0046668754" flag="0"/>
      <vel value="0.0016224904" flag="0"/>
      <psa03 value="0.0076760541" flag="0"/>
      <psa10 value="0.0007016599" flag="0"/>
      <psa30 value="0.0000652226" flag="0"/>
    </comp>
  </station>
  <station code="KLV1" name="KLV1" netid="HI" insttype="CMG-5TD,ACCELEROMETER,GURALP" lat="38.0326" lon="22.108">
    <comp name="--.HNE">
      <acc value="0.0333941093" flag="0"/>
      <vel value="0.0138405596" flag="0"/>
      <psa03 value="0.0805056992" flag="0"/>
      <psa10 value="0.0069762602" flag="0"/>
      <psa30 value="0.0003761259" flag="0"/>
    </comp>
    <comp name="--.HNN">
      <acc value="0.0544547569" flag="0"/>
      <vel value="0.0165468738" flag="0"/>
      <psa03 value="0.0806174297" flag="0"/>
      <psa10 value="0.0062601575" flag="0"/>
      <psa30 value="0.0004162201" flag="0"/>
    </comp>
    <comp name="--.HNZ">
      <acc value="0.0709475905" flag="0"/>
      <vel value="0.0160413871" flag="0"/>
      <psa03 value="0.0379404359" flag="0"/>
      <psa10 value="0.0047602175" flag="0"/>
      <psa30 value="0.0003259143" flag="0"/>
    </comp>
  </station>
  <station code="KRI1" name="KRI1" netid="HI" insttype="CMG-5TD,ACCELEROMETER,GURALP" lat="37.6621" lon="20.8172">
    <comp name="--.HNN">
      <acc value="0.0070291622" flag="0"/>
      <vel value="0.0028928287" flag="0"/>
      <psa03 value="0.0160450517" flag="0"/>
      <psa10 value="0.0030974978" flag="0"/>
      <psa30 value="0.0002279246" flag="0"/>
    </comp>
    <comp name="--.HNZ">
      <acc value="0.0097285628" flag="0"/>
      <vel value="0.0039627728" flag="0"/>
      <psa03 value="0.0179135817" flag="0"/>
      <psa10 value="0.0011670132" flag="0"/>
      <psa30 value="0.0001273197" flag="0"/>
    </comp>
    <comp name="--.HNE">
      <acc value="0.0074326350" flag="0"/>
      <vel value="0.0026149415" flag="0"/>
      <psa03 value="0.0212362938" flag="0"/>
      <psa10 value="0.0021857843" flag="0"/>
      <psa30 value="0.0001174253" flag="0"/>
    </comp>
  </station>
  <station code="MSL1" name="MSL1" netid="HI" insttype="CMG-5TD,ACCELEROMETER,GURALP" lat="38.3727" lon="21.4243">
    <comp name="--.HNE">
      <acc value="0.0288291899" flag="0"/>
      <vel value="0.0094888212" flag="0"/>
      <psa03 value="0.0632457266" flag="0"/>
      <psa10 value="0.0072206226" flag="0"/>
      <psa30 value="0.0006589857" flag="0"/>
    </comp>
    <comp name="--.HNN">
      <acc value="0.0388503133" flag="0"/>
      <vel value="0.0105688305" flag="0"/>
      <psa03 value="0.0494583311" flag="0"/>
      <psa10 value="0.0100282319" flag="0"/>
      <psa30 value="0.0007180399" flag="0"/>
    </comp>
    <comp name="--.HNZ">
      <acc value="0.0157719436" flag="0"/>
      <vel value="0.0034569637" flag="0"/>
      <psa03 value="0.0199680187" flag="0"/>
      <psa10 value="0.0040341351" flag="0"/>
      <psa30 value="0.0002350096" flag="0"/>
    </comp>
  </station>
  <station code="EVR" name="EVR" netid="HL" insttype="DR24" lat="38.9166" lon="21.8105">
    <comp name="--.HHZ">
      <acc value="0.0053229659" flag="0"/>
      <vel value="0.0025400805" flag="0"/>
      <psa03 value="0.0148431995" flag="0"/>
      <psa10 value="0.0028244856" flag="0"/>
      <psa30 value="0.0002956312" flag="0"/>
    </comp>
    <comp name="--.HHN">
      <acc value="0.0065375788" flag="0"/>
      <vel value="0.0040284495" flag="0"/>
      <psa03 value="0.0144930158" flag="0"/>
      <psa10 value="0.0051779982" flag="0"/>
      <psa30 value="0.0002604224" flag="0"/>
    </comp>
    <comp name="--.HHE">
      <acc value="0.0065181583" flag="0"/>
      <vel value="0.0039379524" flag="0"/>
      <psa03 value="0.0114937984" flag="0"/>
      <psa10 value="0.0036378395" flag="0"/>
      <psa30 value="0.0003288476" flag="0"/>
    </comp>
  </station>
  <station code="ITM" name="ITM" netid="HL" insttype="DR24" lat="37.1787" lon="21.9252">
    <comp name="--.HHE">
      <acc value="0.0068655726" flag="0"/>
      <vel value="0.0033785832" flag="0"/>
      <psa03 value="0.0138501488" flag="0"/>
      <psa10 value="0.0028382081" flag="0"/>
      <psa30 value="0.0002630949" flag="0"/>
    </comp>
    <comp name="--.HHZ">
      <acc value="0.0066193301" flag="0"/>
      <vel value="0.0032845422" flag="0"/>
      <psa03 value="0.0089230675" flag="0"/>
      <psa10 value="0.0023166048" flag="0"/>
      <psa30 value="0.0003746751" flag="0"/>
    </comp>
    <comp name="--.HHN">
      <acc value="0.0074618087" flag="0"/>
      <vel value="0.0026537282" flag="0"/>
      <psa03 value="0.0103112671" flag="0"/>
      <psa10 value="0.0027888180" flag="0"/>
      <psa30 value="0.0002817403" flag="0"/>
    </comp>
  </station>
  <station code="KLV" name="KLV" netid="HL" insttype="120" lat="38.0435" lon="22.1504">
    <comp name="--.HHE">
      <acc value="0.0254138671" flag="0"/>
      <vel value="0.0066774547" flag="0"/>
      <psa03 value="0.0468975443" flag="0"/>
      <psa10 value="0.0034920615" flag="0"/>
      <psa30 value="0.0001874077" flag="0"/>
    </comp>
    <comp name="--.HHN">
      <acc value="0.0231560122" flag="0"/>
      <vel value="0.0057597714" flag="0"/>
      <psa03 value="0.0371341495" flag="0"/>
      <psa10 value="0.0036017527" flag="0"/>
      <psa30 value="0.0002110724" flag="0"/>
    </comp>
    <comp name="--.HHZ">
      <acc value="0.0412641328" flag="0"/>
      <vel value="0.0055703159" flag="0"/>
      <psa03 value="0.0216784832" flag="0"/>
      <psa10 value="0.0023989847" flag="0"/>
      <psa30 value="0.0002335505" flag="0"/>
    </comp>
  </station>
  <station code="LKR" name="LKR" netid="HL" insttype="65535" lat="38.6496" lon="22.9988">
    <comp name="--.HHE">
      <acc value="0.0358752293" flag="0"/>
      <vel value="0.0095608683" flag="0"/>
      <psa03 value="0.0396763345" flag="0"/>
      <psa10 value="0.0022962111" flag="0"/>
      <psa30 value="0.0002160888" flag="0"/>
    </comp>
    <comp name="--.HHN">
      <acc value="0.0253033182" flag="0"/>
      <vel value="0.0072354817" flag="0"/>
      <psa03 value="0.0385520953" flag="0"/>
      <psa10 value="0.0025692236" flag="0"/>
      <psa30 value="0.0002301444" flag="0"/>
    </comp>
    <comp name="--.HHZ">
      <acc value="0.0184439384" flag="0"/>
      <vel value="0.0038933546" flag="0"/>
      <psa03 value="0.0181430357" flag="0"/>
      <psa10 value="0.0012365070" flag="0"/>
      <psa30 value="0.0001462388" flag="0"/>
    </comp>
  </station>
  <station code="PATC" name="PATC" netid="HL" insttype="CMG-5" lat="38.2693" lon="21.76">
    <comp name="00.HNE">
      <acc value="0.0625896727" flag="0"/>
      <vel value="0.0260495141" flag="0"/>
      <psa03 value="0.0989345615" flag="0"/>
      <psa10 value="0.0188989469" flag="0"/>
      <psa30 value="0.0013506509" flag="0"/>
    </comp>
    <comp name="00.HNN">
      <acc value="0.0598469240" flag="0"/>
      <vel value="0.0223528100" flag="0"/>
      <psa03 value="0.1332133477" flag="0"/>
      <psa10 value="0.0188207883" flag="0"/>
      <psa30 value="0.0011999801" flag="0"/>
    </comp>
    <comp name="00.HNZ">
      <acc value="0.0508486205" flag="0"/>
      <vel value="0.0157512394" flag="0"/>
      <psa03 value="0.0767570436" flag="0"/>
      <psa10 value="0.0105370529" flag="0"/>
      <psa30 value="0.0005537291" flag="0"/>
    </comp>
  </station>
  <station code="PATG" name="PATG" netid="HL" insttype="CMG-5" lat="38.2386" lon="21.7266">
    <comp name="00.HNE">
      <acc value="0.0638064210" flag="0"/>
      <vel value="0.0278672615" flag="0"/>
      <psa03 value="0.1050074634" flag="0"/>
      <psa10 value="0.0198021670" flag="0"/>
      <psa30 value="0.0013150001" flag="0"/>
    </comp>
    <comp name="00.HNN">
      <acc value="0.0678225506" flag="0"/>
      <vel value="0.0253366335" flag="0"/>
      <psa03 value="0.1283241174" flag="0"/>
      <psa10 value="0.0148971243" flag="0"/>
      <psa30 value="0.0013164660" flag="0"/>
    </comp>
    <comp name="00.HNZ">
      <acc value="0.0522167161" flag="0"/>
      <vel value="0.0119872046" flag="0"/>
      <psa03 value="0.0827224365" flag="0"/>
      <psa10 value="0.0070475914" flag="0"/>
      <psa30 value="0.0004356583" flag="0"/>
    </comp>
  </station>
  <station code="RLS" name="RLS" netid="HL" insttype="CMG3ESPC-120s" lat="38.0559" lon="21.4647">
    <comp name="--.HHN">
      <acc value="0.0123248472" flag="0"/>
      <vel value="0.0055239928" flag="0"/>
      <psa03 value="0.0215264048" flag="0"/>
      <psa10 value="0.0027223494" flag="0"/>
      <psa30 value="0.0001710213" flag="0"/>
    </comp>
    <comp name="--.HHE">
      <acc value="0.0092865770" flag="0"/>
