<?xml version="1.0" encoding="UTF-8" standalone="yes"?>
<!DOCTYPE earthquake SYSTEM "stationlist.dtd">
<stationlist created="" xmlns="ch.ethz.sed.shakemap.usgs.xml">
  <station code="BERA" name="BERA" netid="AC" insttype="" lat="40.7081" lon="19.9455">
    <comp name="00.HHE">
      <acc value="0.9017702784" flag="0"/>
      <vel value="0.1005789773" flag="0"/>
      <psa03 value="0.3672385835" flag="0"/>
      <psa10 value="0.0233486055" flag="0"/>
      <psa30 value="0.0021504760" flag="0"/>
    </comp>
    <comp name="00.HHN">
      <acc value="0.6136290658" flag="0"/>
      <vel value="0.0794886934" flag="0"/>
      <psa03 value="0.2747615438" flag="0"/>
      <psa10 value="0.0175865590" flag="0"/>
      <psa30 value="0.0015684862" flag="0"/>
    </comp>
    <comp name="00.HHZ">
      <acc value="0.3723215520" flag="0"/>
      <vel value="0.0696996970" flag="0"/>
      <psa03 value="0.2239011898" flag="0"/>
      <psa10 value="0.0112549856" flag="0"/>
      <psa30 value="0.0010430661" flag="0"/>
    </comp>
  </station>
  <station code="LACI" name="LACI" netid="AC" insttype="" lat="41.6367" lon="19.7178">
    <comp name="00.HHE">
      <acc value="0.0030345124" flag="0"/>
      <vel value="0.0016456683" flag="0"/>
      <psa03 value="0.0081270282" flag="0"/>
      <psa10 value="0.0015597366" flag="0"/>
      <psa30 value="0.0001475806" flag="0"/>
    </comp>
    <comp name="00.HHN">
      <acc value="0.0034242882" flag="0"/>
      <vel value="0.0020212192" flag="0"/>
      <psa03 value="0.0081756944" flag="0"/>
      <psa10 value="0.0014280771" flag="0"/>
      <psa30 value="0.0001236703" flag="0"/>
    </comp>
    <comp name="00.HHZ">
      <acc value="0.0028832852" flag="0"/>
      <vel value="0.0013476432" flag="0"/>
      <psa03 value="0.0085804650" flag="0"/>
      <psa10 value="0.0015176834" flag="0"/>
      <psa30 value="0.0001251198" flag="0"/>
    </comp>
  </station>
  <station code="LMS2" name="LMS2" netid="HI" insttype="CMG-5TD,ACCELEROMETER,GURALP" lat="40.835" lon="21.1418">
    <comp name="--.HNN">
      <acc value="0.0069434232" flag="0"/>
      <vel value="0.0020778079" flag="0"/>
      <psa03 value="0.0092154467" flag="0"/>
      <psa10 value="0.0012798686" flag="0"/>
      <psa30 value="0.0001842325" flag="0"/>
    </comp>
    <comp name="--.HNZ">
      <acc value="0.0032964360" flag="0"/>
      <vel value="0.0010057207" flag="0"/>
      <psa03 value="0.0058126706" flag="0"/>
      <psa10 value="0.0016656969" flag="0"/>
      <psa30 value="0.0001986519" flag="0"/>
    </comp>
    <comp name="--.HNE">
      <acc value="0.0054517771" flag="0"/>
      <vel value="0.0024685231" flag="0"/>
      <psa03 value="0.0090652786" flag="0"/>
      <psa10 value="0.0021953428" flag="0"/>
      <psa30 value="0.0001107049" flag="0"/>
    </comp>
  </station>
  <station code="KEK" name="KEK" netid="HL" insttype="120" lat="39.7127" lon="19.7962">
    <comp name="--.HHN">
      <acc value="0.0092131545" flag="0"/>
      <vel value="0.0048856847" flag="0"/>
      <psa03 value="0.0299573537" flag="0"/>
      <psa10 value="0.0026384784" flag="0"/>
      <psa30 value="0.0001598227" flag="0"/>
    </comp>
    <comp name="--.HHE">
      <acc value="0.0135459246" flag="0"/>
      <vel value="0.0050486010" flag="0"/>
      <psa03 value="0.0277419241" flag="0"/>
      <psa10 value="0.0051301960" flag="0"/>
      <psa30 value="0.0002859084" flag="0"/>
    </comp>
    <comp name="--.HHZ">
      <acc value="0.0067547956" flag="0"/>
      <vel value="0.0039641982" flag="0"/>
      <psa03 value="0.0170007094" flag="0"/>
      <psa10 value="0.0024449196" flag="0"/>
      <psa30 value="0.0002098268" flag="0"/>
    </comp>
  </station>
  <station code="OTHN" name="OTHN" netid="HL" insttype="30" lat="39.8416" lon="19.4057">
    <comp name="--.HHE">
      <acc value="0.1004663142" flag="0"/>
      <vel value="0.0204299859" flag="0"/>
      <psa03 value="0.0820963169" flag="0"/>
      <psa10 value="0.0117919906" flag="0"/>
      <psa30 value="0.0006605506" flag="0"/>
    </comp>
    <comp name="--.HHN">
      <acc value="0.0964026694" flag="0"/>
      <vel value="0.0224614060" flag="0"/>
      <psa03 value="0.0571663723" flag="0"/>
      <psa10 value="0.0044108477" flag="0"/>
      <psa30 value="0.0006069807" flag="0"/>
    </comp>
    <comp name="--.HHZ">
      <acc value="0.0453897169" flag="0"/>
      <vel value="0.0089092829" flag="0"/>
      <psa03 value="0.0595547845" flag="0"/>
      <psa10 value="0.0039237857" flag="0"/>
      <psa30 value="0.0003745766" flag="0"/>
    </comp>
  </station>
  <station code="NEST" name="NEST" netid="HT" insttype="120P," lat="40.4147" lon="21.0489">
    <comp name="--.HHE">
      <acc value="0.0047369089" flag="0"/>
      <vel value="0.0032813232" flag="0"/>
      <psa03 value="0.0124254339" flag="0"/>
      <psa10 value="0.0016697589" flag="0"/>
      <psa30 value="0.0001566751" flag="0"/>
    </comp>
    <comp name="--.HHN">
      <acc value="0.0033761743" flag="0"/>
      <vel value="0.0020687470" flag="0"/>
      <psa03 value="0.0149360838" flag="0"/>
      <psa10 value="0.0014432360" flag="0"/>
      <psa30 value="0.0000888795" flag="0"/>
    </comp>
    <comp name="--.HHZ">
      <acc value="0.0038458614" flag="0"/>
      <vel value="0.0023242415" flag="0"/>
      <psa03 value="0.0165078922" flag="0"/>
      <psa10 value="0.0021126147" flag="0"/>
      <psa30 value="0.0001289777" flag="0"/>
    </comp>
  </station>
  <station code="KEK" name="KEK" netid="MN" insttype="" lat="39.7127" lon="19.7962">
    <comp name="--.HHE">
      <acc value="0.0135459152" flag="0"/>
      <vel value="0.0050485975" flag="0"/>
      <psa03 value="0.0277419049" flag="0"/>
      <psa10 value="0.0051301925" flag="0"/>
      <psa30 value="0.0002859082" flag="0"/>
    </comp>
    <comp name="--.HHN">
      <acc value="0.0092131481" flag="0"/>
      <vel value="0.0048856813" flag="0"/>
      <psa03 value="0.0299573330" flag="0"/>
      <psa10 value="0.0026384766" flag="0"/>
      <psa30 value="0.0001598226" flag="0"/>
    </comp>
    <comp name="--.HHZ">
      <acc value="0.0067547909" flag="0"/>
      <vel value="0.0039641954" flag="0"/>
      <psa03 value="0.0170006976" flag="0"/>
      <psa10 value="0.0024449179" flag="0"/>
      <psa30 value="0.0002098267" flag="0"/>
    </comp>
  </station>
  <station code="TIR" name="TIR" netid="MN" insttype="" lat="41.3472" lon="19.8631">
    <comp name="--.HHE">
      <acc value="0.0151665449" flag="0"/>
      <vel value="0.0068802103" flag="0"/>
      <psa03 value="0.0261286133" flag="0"/>
      <psa10 value="0.0079241796" flag="0"/>
      <psa30 value="0.0005259924" flag="0"/>
    </comp>
    <comp name="--.HHZ">
      <acc value="0.0104550546" flag="0"/>
      <vel value="0.0052570766" flag="0"/>
      <psa03 value="0.0237008673" flag="0"/>
      <psa10 value="0.0042488921" flag="0"/>
      <psa30 value="0.0004996604" flag="0"/>
    </comp>
    <comp name="--.HHN">
      <acc value="0.0149796169" flag="0"/>
      <vel value="0.0081186394" flag="0"/>
      <psa03 value="0.0216822051" flag="0"/>
      <psa10 value="0.0084174630" flag="0"/>
      <psa30 value="0.0005419582" flag="0"/>
    </comp>
  </station>
</stationlist>
