<stationlist created="1778069612">
	<station code="IMMV" name="IMMV" netid="GE" source="GEOFON" insttype="" lat="35.4606" lon="23.9811">
		<comp name="--.HNE" depth="0.0">
			<acc value="0.000379358417720607" flag="0"/>
			<vel value="0.000499825034453051" flag="0"/>
			<psa03 value="0.00076061751251062" flag="0"/>
			<psa10 value="0.00113555720397174" flag="0"/>
			<psa30 value="0.000197760553252761" flag="0"/>
		</comp>
		<comp name="--.HNN" depth="0.0">
			<acc value="0.000314898211888135" flag="0"/>
			<vel value="0.000400365016130529" flag="0"/>
			<psa03 value="0.00076061751251062" flag="0"/>
			<psa10 value="0.00108320882222836" flag="0"/>
			<psa30 value="0.000142727639112287" flag="0"/>
		</comp>
		<comp name="--.HNZ" depth="0.0">
			<acc value="0.000265843065675502" flag="0"/>
			<vel value="0.000242438422889242" flag="0"/>
			<psa03 value="0.000671133099274076" flag="0"/>
			<psa10 value="0.000700662955642136" flag="0"/>
			<psa30 value="4.51896286844545e-05" flag="0"/>
		</comp>
	</station>
	<station code="KARP" name="KARP" netid="GE" source="GEOFON" insttype="" lat="35.5471" lon="27.16106">
		<comp name="--.HNE" depth="0.0">
			<acc value="0.000900514000764792" flag="0"/>
			<vel value="0.000281605692125234" flag="0"/>
			<psa03 value="0.00187917267796741" flag="0"/>
			<psa10 value="0.000656368171090047" flag="0"/>
			<psa30 value="8.67998808394472e-05" flag="0"/>
		</comp>
		<comp name="--.HNN" depth="0.0">
			<acc value="0.000572852486610086" flag="0"/>
			<vel value="0.000336122583607711" flag="0"/>
			<psa03 value="0.00076061751251062" flag="0"/>
			<psa10 value="0.000575832199177157" flag="0"/>
			<psa30 value="8.5457614640899e-05" flag="0"/>
		</comp>
		<comp name="--.HNZ" depth="0.0">
			<acc value="0.00042717146705592" flag="0"/>
			<vel value="0.000250675878398947" flag="0"/>
			<psa03 value="0.00147649281840297" flag="0"/>
			<psa10 value="0.00037046547079929" flag="0"/>
			<psa30 value="0.000106933873817669" flag="0"/>
		</comp>
	</station>
</stationlist>
