<?xml version="1.0" encoding="UTF-8" standalone="yes"?>
<!DOCTYPE earthquake SYSTEM "stationlist.dtd">
<stationlist created="" xmlns="ch.ethz.sed.shakemap.usgs.xml">
  <station code="LINA" name="LINA" netid="IV" insttype="" lat="35.8613" lon="12.8643">
    <comp name="--.HHN">
      <acc value="0.0806283902" flag="0"/>
      <vel value="0.0755514259" flag="0"/>
      <psa03 value="0.2603874444" flag="0"/>
      <psa10 value="0.1445772904" flag="0"/>
      <psa30 value="0.0306996704" flag="0"/>
    </comp>
    <comp name="--.HHE">
      <acc value="0.0703283527" flag="0"/>
      <vel value="0.0870505340" flag="0"/>
      <psa03 value="0.2549786229" flag="0"/>
      <psa10 value="0.1496944752" flag="0"/>
      <psa30 value="0.0374404988" flag="0"/>
    </comp>
    <comp name="--.HHZ">
      <acc value="0.0536423432" flag="0"/>
      <vel value="0.0491567033" flag="0"/>
      <psa03 value="0.1533095048" flag="0"/>
      <psa10 value="0.0641171126" flag="0"/>
      <psa30 value="0.0152735034" flag="0"/>
    </comp>
  </station>
  <station code="LPDG" name="LPDG" netid="IV" insttype="" lat="35.5183" lon="12.6302">
    <comp name="--.HHE">
      <acc value="0.0797827352" flag="0"/>
      <vel value="0.0953495537" flag="0"/>
      <psa03 value="0.2269466213" flag="0"/>
      <psa10 value="0.1054811795" flag="0"/>
      <psa30 value="0.0360411498" flag="0"/>
    </comp>
    <comp name="--.HHZ">
      <acc value="0.0642864035" flag="0"/>
      <vel value="0.0595359701" flag="0"/>
      <psa03 value="0.1827082371" flag="0"/>
      <psa10 value="0.0436395668" flag="0"/>
      <psa30 value="0.0148790029" flag="0"/>
    </comp>
    <comp name="--.HHN">
      <acc value="0.1003924920" flag="0"/>
      <vel value="0.1010943858" flag="0"/>
      <psa03 value="0.3752946993" flag="0"/>
      <psa10 value="0.1234376692" flag="0"/>
      <psa30 value="0.0184260470" flag="0"/>
    </comp>
  </station>
  <station code="XLND" name="XLND" netid="ML" insttype="" lat="36.0323" lon="14.2201">
    <comp name="--.HHE">
      <acc value="0.0685417442" flag="0"/>
      <vel value="0.0567297497" flag="0"/>
      <psa03 value="0.1880928540" flag="0"/>
      <psa10 value="0.1005319824" flag="0"/>
      <psa30 value="0.0291580825" flag="0"/>
    </comp>
    <comp name="--.HHN">
      <acc value="0.0683320665" flag="0"/>
      <vel value="0.0806106511" flag="0"/>
      <psa03 value="0.2636724269" flag="0"/>
      <psa10 value="0.1069441944" flag="0"/>
      <psa30 value="0.0323943764" flag="0"/>
    </comp>
    <comp name="--.HHZ">
      <acc value="0.0573939318" flag="0"/>
      <vel value="0.0781538876" flag="0"/>
      <psa03 value="0.1705965275" flag="0"/>
      <psa10 value="0.0803708526" flag="0"/>
      <psa30 value="0.0444667840" flag="0"/>
    </comp>
  </station>
</stationlist>
