<stationlist created="1739289481">
	<station code="ABEA" name="ABEA" netid="HC" source="Seismological Network of Crete (HC)" insttype="" lat="35.5163" lon="24.0113">
		<comp name=".HNE" depth="0.0">
			<acc value="0.0029640272372526" flag="0"/>
			<vel value="0.00310027808513" flag="0"/>
			<psa03 value="0.00272023895898907" flag="0"/>
			<psa10 value="0.00193160014653185" flag="0"/>
			<psa30 value="0.00131848942678786" flag="0"/>
		</comp>
		<comp name=".HNN" depth="0.0">
			<acc value="0.0035027616028968" flag="0"/>
			<vel value="0.00265651502852" flag="0"/>
			<psa03 value="0.00289384209346078" flag="0"/>
			<psa10 value="0.00150678641876692" flag="0"/>
			<psa30 value="0.00109747603573463" flag="0"/>
		</comp>
		<comp name=".HNZ" depth="0.0">
			<acc value="0.0060125567415522" flag="0"/>
			<vel value="0.00161926970912" flag="0"/>
			<psa03 value="0.00202301992008974" flag="0"/>
			<psa10 value="0.00122351351270467" flag="0"/>
			<psa30 value="0.000507164222141016" flag="0"/>
		</comp>
	</station>
	<station code="ATEI" name="ATEI" netid="HC" source="Seismological Network of Crete (HC)" insttype="" lat="35.5193" lon="24.0432">
		<comp name=".HNE" depth="0.0">
			<acc value="0.0053545051162674" flag="0"/>
			<vel value="0.00317897622934" flag="0"/>
			<psa03 value="0.0119357307877692" flag="0"/>
			<psa10 value="0.00475212542997657" flag="0"/>
			<psa30 value="0.000536563878056952" flag="0"/>
		</comp>
		<comp name=".HNN" depth="0.0">
			<acc value="0.0053272325039022" flag="0"/>
			<vel value="0.00327552369657" flag="0"/>
			<psa03 value="0.0135236237382838" flag="0"/>
			<psa10 value="0.00450768704963958" flag="0"/>
			<psa30 value="0.000923711920548456" flag="0"/>
		</comp>
		<comp name=".HNZ" depth="0.0">
			<acc value="0.005409300250698" flag="0"/>
			<vel value="0.00209198712952" flag="0"/>
			<psa03 value="0.0119648681346287" flag="0"/>
			<psa10 value="0.00256967749414761" flag="0"/>
			<psa30 value="0.000773940384337487" flag="0"/>
		</comp>
	</station>
	<station code="G0LD" name="G0LD" netid="HC" source="Seismological Network of Crete (HC)" insttype="" lat="35.4955" lon="24.0306">
		<comp name=".HNE" depth="0.0">
			<acc value="0.0093033449854158" flag="0"/>
			<vel value="0.0031711670204" flag="0"/>
			<psa03 value="0.00276143065258409" flag="0"/>
			<psa10 value="0.00205632778412229" flag="0"/>
			<psa30 value="0.00209030847267686" flag="0"/>
		</comp>
		<comp name=".HNN" depth="0.0">
			<acc value="0.011627453520618" flag="0"/>
			<vel value="0.00258509039579" flag="0"/>
			<psa03 value="0.00188287652169159" flag="0"/>
			<psa10 value="0.00213277050432995" flag="0"/>
			<psa30 value="0.00120153001213101" flag="0"/>
		</comp>
		<comp name=".HNZ" depth="0.0">
			<acc value="0.011449758155676" flag="0"/>
			<vel value="0.00447935855685" flag="0"/>
			<psa03 value="0.0034040070742823" flag="0"/>
			<psa10 value="0.00201037669321618" flag="0"/>
			<psa30 value="0.00202274545529162" flag="0"/>
		</comp>
	</station>
	<station code="PASK" name="PASK" netid="HC" source="Seismological Network of Crete (HC)" insttype="" lat="35.4996" lon="24.0121">
		<comp name=".HNE" depth="0.0">
			<acc value="0.016607467414572" flag="0"/>
			<vel value="0.00636354336288" flag="0"/>
			<psa03 value="0.0224415543511674" flag="0"/>
			<psa10 value="0.00885823306445783" flag="0"/>
			<psa30 value="0.00107588564714394" flag="0"/>
		</comp>
		<comp name=".HNN" depth="0.0">
			<acc value="0.019099950548178" flag="0"/>
			<vel value="0.00483299672732" flag="0"/>
			<psa03 value="0.0207226201677019" flag="0"/>
			<psa10 value="0.00875121878777631" flag="0"/>
			<psa30 value="0.000942847250669786" flag="0"/>
		</comp>
		<comp name=".HNZ" depth="0.0">
			<acc value="0.02849042424399" flag="0"/>
			<vel value="0.00377726226087" flag="0"/>
			<psa03 value="0.0163363816842669" flag="0"/>
			<psa10 value="0.00405729674472756" flag="0"/>
			<psa30 value="0.00108123235550579" flag="0"/>
		</comp>
	</station>
	<station code="POLY" name="POLY" netid="HC" source="Seismological Network of Crete (HC)" insttype="" lat="35.5226" lon="24.0602">
		<comp name=".HNE" depth="0.0">
			<acc value="0.0018556489706952" flag="0"/>
			<vel value="0.00188513726798" flag="0"/>
			<psa03 value="0.00145779269791331" flag="0"/>
			<psa10 value="0.00119665106913639" flag="0"/>
			<psa30 value="0.000878087231469962" flag="0"/>
		</comp>
		<comp name=".HNN" depth="0.0">
			<acc value="0.0033706937707098" flag="0"/>
			<vel value="0.00176007124797" flag="0"/>
			<psa03 value="0.00161430501921141" flag="0"/>
			<psa10 value="0.00138928668186206" flag="0"/>
			<psa30 value="0.000886198081272056" flag="0"/>
		</comp>
		<comp name=".HNZ" depth="0.0">
			<acc value="0.0042134986852596" flag="0"/>
			<vel value="0.00168387719621" flag="0"/>
			<psa03 value="0.00142488231463909" flag="0"/>
			<psa10 value="0.000964405918410463" flag="0"/>
			<psa30 value="0.000815398443227929" flag="0"/>
		</comp>
	</station>
	<station code="ARK1" name="ARK1" netid="HI" source="ITSAK Strong Motion Network" insttype="" lat="35.148777" lon="25.264194">
		<comp name=".HNE" depth="0.0">
			<acc value="0.013228235242212" flag="0"/>
			<vel value="0.0101218767277" flag="0"/>
			<psa03 value="0.0423869146959008" flag="0"/>
			<psa10 value="0.00962023666845815" flag="0"/>
			<psa30 value="0.000861177986313939" flag="0"/>
		</comp>
		<comp name=".HNN" depth="0.0">
			<acc value="0.013424466800322" flag="0"/>
			<vel value="0.00911178531933" flag="0"/>
			<psa03 value="0.0502469171535483" flag="0"/>
			<psa10 value="0.0111707168801887" flag="0"/>
			<psa30 value="0.000816209590713896" flag="0"/>
		</comp>
		<comp name=".HNZ" depth="0.0">
			<acc value="0.0098051289781644" flag="0"/>
			<vel value="0.00518917906238" flag="0"/>
			<psa03 value="0.0192769501804055" flag="0"/>
			<psa10 value="0.00865985804807911" flag="0"/>
			<psa30 value="0.000330788423526396" flag="0"/>
		</comp>
	</station>
	<station code="CH01" name="CH01" netid="HI" source="ITSAK Strong Motion Network" insttype="" lat="35.517" lon="24.0208">
		<comp name=".HNE" depth="0.0">
			<acc value="0.0074389027164882" flag="0"/>
			<vel value="0.00407049751618" flag="0"/>
			<psa03 value="0.0103831012409597" flag="0"/>
			<psa10 value="0.00520916773806436" flag="0"/>
			<psa30 value="0.000637880381444276" flag="0"/>
		</comp>
		<comp name=".HNN" depth="0.0">
			<acc value="0.0074567680400502" flag="0"/>
			<vel value="0.0039034341195" flag="0"/>
			<psa03 value="0.0175993937380305" flag="0"/>
			<psa10 value="0.00582267838010728" flag="0"/>
			<psa30 value="0.000437458302382474" flag="0"/>
		</comp>
		<comp name=".HNZ" depth="0.0">
			<acc value="0.006687161718051" flag="0"/>
			<vel value="0.00228375872493" flag="0"/>
			<psa03 value="0.00910865548707585" flag="0"/>
			<psa10 value="0.005350881188349" flag="0"/>
			<psa30 value="0.000375406457376936" flag="0"/>
		</comp>
	</station>
	<station code="CH02" name="CH02" netid="HI" source="ITSAK Strong Motion Network" insttype="" lat="35.5145" lon="24.0315">
		<comp name=".HNE" depth="0.0">
			<acc value="0.006178940246712" flag="0"/>
			<vel value="0.0033501100212" flag="0"/>
			<psa03 value="0.0171731688881547" flag="0"/>
			<psa10 value="0.00564661218532681" flag="0"/>
			<psa30 value="0.000547905775236287" flag="0"/>
		</comp>
		<comp name=".HNN" depth="0.0">
			<acc value="0.0084883015918344" flag="0"/>
			<vel value="0.00369743687749" flag="0"/>
			<psa03 value="0.0185430916700555" flag="0"/>
			<psa10 value="0.00350755415512428" flag="0"/>
			<psa30 value="0.000458934204223374" flag="0"/>
		</comp>
		<comp name=".HNZ" depth="0.0">
			<acc value="0.004122291358626" flag="0"/>
			<vel value="0.00170673148834" flag="0"/>
			<psa03 value="0.00806760930929652" flag="0"/>
			<psa10 value="0.00226758537265366" flag="0"/>
			<psa30 value="0.000369304073957585" flag="0"/>
		</comp>
	</station>
	<station code="CH03" name="CH03" netid="HI" source="ITSAK Strong Motion Network" insttype="" lat="35.53303" lon="24.0705">
		<comp name=".HNE" depth="0.0">
			<acc value="0.0052723389078108" flag="0"/>
			<vel value="0.00311324757591" flag="0"/>
			<psa03 value="0.0106980602564839" flag="0"/>
			<psa10 value="0.00299291037499778" flag="0"/>
			<psa30 value="0.000412676999284404" flag="0"/>
		</comp>
		<comp name=".HNN" depth="0.0">
			<acc value="0.004742988979257" flag="0"/>
			<vel value="0.00308363243094" flag="0"/>
			<psa03 value="0.014886139779553" flag="0"/>
			<psa10 value="0.00282734206316264" flag="0"/>
			<psa30 value="0.000369343321349201" flag="0"/>
		</comp>
		<comp name=".HNZ" depth="0.0">
			<acc value="0.003463482064734" flag="0"/>
			<vel value="0.00153786976442" flag="0"/>
			<psa03 value="0.0059129639704899" flag="0"/>
			<psa10 value="0.00151231135507845" flag="0"/>
			<psa30 value="0.000249935958072374" flag="0"/>
		</comp>
	</station>
	<station code="GOR1" name="GOR1" netid="HI" source="ITSAK Strong Motion Network" insttype="" lat="35.0582" lon="24.9628">
		<comp name=".HNE" depth="0.0">
			<acc value="0.0062280011775684" flag="0"/>
			<vel value="0.00350728382313" flag="0"/>
			<psa03 value="0.0202048697234685" flag="0"/>
			<psa10 value="0.00541437289437001" flag="0"/>
			<psa30 value="0.00057942755089807" flag="0"/>
		</comp>
		<comp name=".HNN" depth="0.0">
			<acc value="0.0065472978496182" flag="0"/>
			<vel value="0.00326841787256" flag="0"/>
			<psa03 value="0.0138780664891947" flag="0"/>
			<psa10 value="0.00558113191009375" flag="0"/>
			<psa30 value="0.000605819768001252" flag="0"/>
		</comp>
		<comp name=".HNZ" depth="0.0">
			<acc value="0.0042167815513632" flag="0"/>
			<vel value="0.00329522444598" flag="0"/>
			<psa03 value="0.00812556627366239" flag="0"/>
			<psa10 value="0.00549589016951709" flag="0"/>
			<psa30 value="0.000339954994308078" flag="0"/>
		</comp>
	</station>
	<station code="KIS1" name="KIS1" netid="HI" source="ITSAK Strong Motion Network" insttype="" lat="35.493933" lon="23.658993">
		<comp name=".HNE" depth="0.0">
			<acc value="0.0059688438352932" flag="0"/>
			<vel value="0.00252760689194" flag="0"/>
			<psa03 value="0.00890134683198802" flag="0"/>
			<psa10 value="0.00378354103164982" flag="0"/>
			<psa30 value="0.000464041157117647" flag="0"/>
		</comp>
		<comp name=".HNN" depth="0.0">
			<acc value="0.0045010238583516" flag="0"/>
			<vel value="0.00269175419432" flag="0"/>
			<psa03 value="0.00793997259881041" flag="0"/>
			<psa10 value="0.00383183063685033" flag="0"/>
			<psa30 value="0.000522276577425164" flag="0"/>
		</comp>
		<comp name=".HNZ" depth="0.0">
			<acc value="0.030126902764722" flag="0"/>
			<vel value="0.00217370759087" flag="0"/>
			<psa03 value="0.00577199825195778" flag="0"/>
			<psa10 value="0.00188245267200149" flag="0"/>
			<psa30 value="0.000220615812631607" flag="0"/>
		</comp>
	</station>
	<station code="KRL1" name="KRL1" netid="HI" source="ITSAK Strong Motion Network" insttype="" lat="37.7951" lon="26.7065">
		<comp name=".HNE" depth="0.0">
			<acc value="0.013819096748034" flag="0"/>
			<vel value="0.00505352111424" flag="0"/>
			<psa03 value="0.0235168938162892" flag="0"/>
			<psa10 value="0.00517231779692924" flag="0"/>
			<psa30 value="0.000404890572013141" flag="0"/>
		</comp>
		<comp name=".HNN" depth="0.0">
			<acc value="0.013311978709788" flag="0"/>
			<vel value="0.00466554257315" flag="0"/>
			<psa03 value="0.0308610313710319" flag="0"/>
			<psa10 value="0.0042074398159852" flag="0"/>
			<psa30 value="0.000299835748063241" flag="0"/>
		</comp>
		<comp name=".HNZ" depth="0.0">
			<acc value="0.0057663409074798" flag="0"/>
			<vel value="0.00216313844736" flag="0"/>
			<psa03 value="0.00892327015932012" flag="0"/>
			<psa10 value="0.0016896451338212" flag="0"/>
			<psa30 value="0.000217756560719918" flag="0"/>
		</comp>
	</station>
	<station code="KTL1" name="KTL1" netid="HI" source="ITSAK Strong Motion Network" insttype="" lat="35.20778" lon="25.34272">
		<comp name=".HNE" depth="0.0">
			<acc value="0.01272788621181" flag="0"/>
			<vel value="0.00681234886484" flag="0"/>
			<psa03 value="0.033710339915392" flag="0"/>
			<psa10 value="0.00637570829687373" flag="0"/>
			<psa30 value="0.000771215412153309" flag="0"/>
		</comp>
		<comp name=".HNN" depth="0.0">
			<acc value="0.016546160094252" flag="0"/>
			<vel value="0.00889624179886" flag="0"/>
			<psa03 value="0.0465183576545703" flag="0"/>
			<psa10 value="0.011017916757931" flag="0"/>
			<psa30 value="0.000386289990857733" flag="0"/>
		</comp>
		<comp name=".HNZ" depth="0.0">
			<acc value="0.00924731671101" flag="0"/>
			<vel value="0.00256245095001" flag="0"/>
			<psa03 value="0.0154033888884797" flag="0"/>
			<psa10 value="0.0029641000289531" flag="0"/>
			<psa30 value="0.000301695975460965" flag="0"/>
		</comp>
	</station>
	<station code="NAX1" name="NAX1" netid="HI" source="ITSAK Strong Motion Network" insttype="" lat="37.101394" lon="25.374103">
		<comp name=".HNE" depth="0.0">
			<acc value="0.15044959756614" flag="0"/>
			<vel value="0.0620205117844" flag="0"/>
			<psa03 value="0.350048230644117" flag="0"/>
			<psa10 value="0.0133275428843212" flag="0"/>
			<psa30 value="0.00149358863041751" flag="0"/>
		</comp>
		<comp name=".HNN" depth="0.0">
			<acc value="0.11738629510182" flag="0"/>
			<vel value="0.035970515661" flag="0"/>
			<psa03 value="0.103239099500292" flag="0"/>
			<psa10 value="0.00731963129590704" flag="0"/>
			<psa30 value="0.000964191581293815" flag="0"/>
		</comp>
		<comp name=".HNZ" depth="0.0">
			<acc value="0.063480913206666" flag="0"/>
			<vel value="0.0157873446274" flag="0"/>
			<psa03 value="0.141330279104113" flag="0"/>
			<psa10 value="0.00816555092766256" flag="0"/>
			<psa30 value="0.000716842383122705" flag="0"/>
		</comp>
	</station>
	<station code="RTH1" name="RTH1" netid="HI" source="ITSAK Strong Motion Network" insttype="" lat="35.365393" lon="24.471773">
		<comp name=".HNE" depth="0.0">
			<acc value="0.0057545493945234" flag="0"/>
			<vel value="0.00255635329106" flag="0"/>
			<psa03 value="0.0128156067835415" flag="0"/>
			<psa10 value="0.0019405422623379" flag="0"/>
			<psa30 value="0.000442900433730246" flag="0"/>
		</comp>
		<comp name=".HNN" depth="0.0">
			<acc value="0.0056051518839918" flag="0"/>
			<vel value="0.00314239330589" flag="0"/>
			<psa03 value="0.0155556528815106" flag="0"/>
			<psa10 value="0.00253587884890485" flag="0"/>
			<psa30 value="0.000385072175808451" flag="0"/>
		</comp>
		<comp name=".HNZ" depth="0.0">
			<acc value="0.0061072506783102" flag="0"/>
			<vel value="0.00178023961084" flag="0"/>
			<psa03 value="0.00707295227231844" flag="0"/>
			<psa10 value="0.00220645960462143" flag="0"/>
			<psa30 value="0.000229604090352524" flag="0"/>
		</comp>
	</station>
	<station code="SFR2" name="SFR2" netid="HI" source="ITSAK Strong Motion Network" insttype="" lat="36.399841" lon="25.438209">
		<comp name=".HNE" depth="0.0">
			<acc value="0.32833005920208" flag="0"/>
			<vel value="0.084391473006" flag="0"/>
			<psa03 value="0.39726548355507" flag="0"/>
			<psa10 value="0.05348089409688" flag="0"/>
			<psa30 value="0.00482725186506696" flag="0"/>
		</comp>
		<comp name=".HNN" depth="0.0">
			<acc value="0.33728554840356" flag="0"/>
			<vel value="0.122920417297" flag="0"/>
			<psa03 value="0.538364372329673" flag="0"/>
			<psa10 value="0.0645160938744238" flag="0"/>
			<psa30 value="0.00459194919410305" flag="0"/>
		</comp>
		<comp name=".HNZ" depth="0.0">
			<acc value="0.29102857883526" flag="0"/>
			<vel value="0.0760173324445" flag="0"/>
			<psa03 value="0.336332759561175" flag="0"/>
			<psa10 value="0.0278461890483705" flag="0"/>
			<psa30 value="0.00271576719791372" flag="0"/>
		</comp>
	</station>
	<station code="AMGA" name="AMGA" netid="HL" source="National Observatory of Athens Seismic Network" insttype="" lat="36.831561" lon="25.893836">
		<comp name="00.HNE" depth="0.0">
			<acc value="0.11355145459062" flag="0"/>
			<vel value="0.0355488365241" flag="0"/>
			<psa03 value="0.126779013070568" flag="0"/>
			<psa10 value="0.00812691493073482" flag="0"/>
			<psa30 value="0.00182676143064525" flag="0"/>
		</comp>
		<comp name="00.HNN" depth="0.0">
			<acc value="0.14678226560532" flag="0"/>
			<vel value="0.0371686110366" flag="0"/>
			<psa03 value="0.184048588148995" flag="0"/>
			<psa10 value="0.0103440486799498" flag="0"/>
			<psa30 value="0.00102781360844115" flag="0"/>
		</comp>
		<comp name="00.HNZ" depth="0.0">
			<acc value="0.14940220393818" flag="0"/>
			<vel value="0.0334281946146" flag="0"/>
			<psa03 value="0.152180727059565" flag="0"/>
			<psa10 value="0.00855951640096325" flag="0"/>
			<psa30 value="0.00122893839030278" flag="0"/>
		</comp>
	</station>
	<station code="ANAF" name="ANAF" netid="HL" source="National Observatory of Athens Seismic Network" insttype="" lat="36.35675" lon="25.77262">
		<comp name=".HNE" depth="0.0">
			<acc value="1.5580699879302" flag="0"/>
			<vel value="0.363319936088" flag="0"/>
			<psa03 value="1.71266312219297" flag="0"/>
			<psa10 value="0.121406950114711" flag="0"/>
			<psa30 value="0.00862417880952262" flag="0"/>
		</comp>
		<comp name=".HNN" depth="0.0">
			<acc value="1.5823087795542" flag="0"/>
			<vel value="0.366743286831" flag="0"/>
			<psa03 value="1.28297340735817" flag="0"/>
			<psa10 value="0.0588425492799152" flag="0"/>
			<psa30 value="0.00542281465150995" flag="0"/>
		</comp>
		<comp name=".HNZ" depth="0.0">
			<acc value="0.68186466684024" flag="0"/>
			<vel value="0.150873990019" flag="0"/>
			<psa03 value="0.500383856308223" flag="0"/>
			<psa10 value="0.0252105275737359" flag="0"/>
			<psa30 value="0.00458387490923397" flag="0"/>
		</comp>
	</station>
	<station code="ASTA" name="ASTA" netid="HL" source="National Observatory of Athens Seismic Network" insttype="" lat="36.54552" lon="26.35295">
		<comp name="00.HNE" depth="0.0">
			<acc value="0.042473676071676" flag="0"/>
			<vel value="0.0151837508508" flag="0"/>
			<psa03 value="0.0510675392236856" flag="0"/>
			<psa10 value="0.00686134671803642" flag="0"/>
			<psa30 value="0.000859664865243346" flag="0"/>
		</comp>
		<comp name="00.HNN" depth="0.0">
			<acc value="0.048173637767904" flag="0"/>
			<vel value="0.013017200018" flag="0"/>
			<psa03 value="0.0667853200328826" flag="0"/>
			<psa10 value="0.0069312391605578" flag="0"/>
			<psa30 value="0.000609521002776043" flag="0"/>
		</comp>
		<comp name="00.HNZ" depth="0.0">
			<acc value="0.033023527670604" flag="0"/>
			<vel value="0.0110651764362" flag="0"/>
			<psa03 value="0.0408670640132756" flag="0"/>
			<psa10 value="0.00685320352236164" flag="0"/>
			<psa30 value="0.000851346970477447" flag="0"/>
		</comp>
	</station>
	<station code="CHNB" name="CHNB" netid="HL" source="National Observatory of Athens Seismic Network" insttype="" lat="35.48765" lon="24.06605">
		<comp name="00.HNE" depth="0.0">
			<acc value="0.014998657348254" flag="0"/>
			<vel value="0.0080426283403" flag="0"/>
			<psa03 value="0.0298226865441109" flag="0"/>
			<psa10 value="0.00928411033922635" flag="0"/>
			<psa30 value="0.000760605698894714" flag="0"/>
		</comp>
		<comp name="00.HNN" depth="0.0">
			<acc value="0.016301205777738" flag="0"/>
			<vel value="0.00919240417224" flag="0"/>
			<psa03 value="0.0288227583245956" flag="0"/>
			<psa10 value="0.0116528403809772" flag="0"/>
			<psa30 value="0.00067868673049847" flag="0"/>
		</comp>
		<comp name="00.HNZ" depth="0.0">
			<acc value="0.010413797595924" flag="0"/>
			<vel value="0.00486055304069" flag="0"/>
			<psa03 value="0.0273743785223787" flag="0"/>
			<psa10 value="0.00290099319218496" flag="0"/>
			<psa30 value="0.000311704633277239" flag="0"/>
		</comp>
	</station>
	<station code="HERG" name="HERG" netid="HL" source="National Observatory of Athens Seismic Network" insttype="" lat="35.32622" lon="25.06586">
		<comp name="00.HNE" depth="0.0">
			<acc value="0.016186457061408" flag="0"/>
			<vel value="0.0119564513823" flag="0"/>
			<psa03 value="0.0304141345788023" flag="0"/>
			<psa10 value="0.0147949719692664" flag="0"/>
			<psa30 value="0.00144307403407471" flag="0"/>
