<?xml version="1.0" encoding="UTF-8" standalone="yes"?>
<!DOCTYPE earthquake SYSTEM "stationlist.dtd">
<stationlist created="" xmlns="ch.ethz.sed.shakemap.usgs.xml">
  <station code="THERA" name="THERA" netid="GE" insttype="STS-2/N" lat="36.367" lon="25.4753">
    <comp name="--.HHE">
      <acc value="0.0391041464" flag="0"/>
      <vel value="0.0059045644" flag="0"/>
      <psa03 value="0.0167800294" flag="0"/>
      <psa10 value="0.0019654711" flag="0"/>
      <psa30 value="0.0001962989" flag="0"/>
    </comp>
    <comp name="--.HHN">
      <acc value="0.0314692796" flag="0"/>
      <vel value="0.0045766024" flag="0"/>
      <psa03 value="0.0164764717" flag="0"/>
      <psa10 value="0.0015942559" flag="0"/>
      <psa30 value="0.0001243705" flag="0"/>
    </comp>
    <comp name="--.HHZ">
      <acc value="0.0331007089" flag="0"/>
      <vel value="0.0068129663" flag="0"/>
      <psa03 value="0.0248951315" flag="0"/>
      <psa10 value="0.0010644318" flag="0"/>
      <psa30 value="0.0001188664" flag="0"/>
    </comp>
  </station>
</stationlist>
