<stationlist created="1675764050">
	<station code="KHMN" name="KHMN" netid="KO" source="Bogazici University Kandilli Observatory And Earthquake Research Institute (KOERI)" insttype="" lat="37.3916" lon="37.1574">
		<comp name=".HNE" depth="0.0">
			<acc value="0.916665796116" flag="0"/>
			<vel value="0.149476178129" flag="0"/>
			<psa03 value="0.72903587838" flag="0"/>
			<psa10 value="0.0964940647582" flag="0"/>
			<psa30 value="0.00703099410217" flag="0"/>
		</comp>
		<comp name=".HNN" depth="0.0">
			<acc value="0.752738058629" flag="0"/>
			<vel value="0.138571899334" flag="0"/>
			<psa03 value="0.775047509762" flag="0"/>
			<psa10 value="0.103097982235" flag="0"/>
			<psa30 value="0.00587109226439" flag="0"/>
		</comp>
		<comp name=".HNZ" depth="0.0">
			<acc value="0.384823376774" flag="0"/>
			<vel value="0.074155173907" flag="0"/>
			<psa03 value="0.33821836364" flag="0"/>
			<psa10 value="0.0412911615868" flag="0"/>
			<psa30 value="0.0034069915298" flag="0"/>
		</comp>
	</station>
</stationlist>
