<stationlist created="1675762251">
	<station code="CMRD" name="CMRD" netid="KO" source="Bogazici University Kandilli Observatory And Earthquake Research Institute (KOERI)" insttype="" lat="37.6623" lon="34.9902">
		<comp name=".HNE" depth="0.0">
			<acc value="0.00321043186417" flag="0"/>
			<vel value="0.00250669313095" flag="0"/>
			<psa03 value="0.00872617572258" flag="0"/>
			<psa10 value="0.00232797796711" flag="0"/>
			<psa30 value="0.000236636092647" flag="0"/>
		</comp>
		<comp name=".HNN" depth="0.0">
			<acc value="0.00381059170051" flag="0"/>
			<vel value="0.0023315199896" flag="0"/>
			<psa03 value="0.012683961344" flag="0"/>
			<psa10 value="0.00196219279814" flag="0"/>
			<psa30 value="0.000265428807314" flag="0"/>
		</comp>
		<comp name=".HNZ" depth="0.0">
			<acc value="0.00225991508917" flag="0"/>
			<vel value="0.00142507831963" flag="0"/>
			<psa03 value="0.00579239478545" flag="0"/>
			<psa10 value="0.00163410536083" flag="0"/>
			<psa30 value="0.000180177040011" flag="0"/>
		</comp>
	</station>
	<station code="KHMN" name="KHMN" netid="KO" source="Bogazici University Kandilli Observatory And Earthquake Research Institute (KOERI)" insttype="" lat="37.3916" lon="37.1574">
		<comp name=".HNE" depth="0.0">
			<acc value="0.916665796116" flag="0"/>
			<vel value="0.149476178129" flag="0"/>
			<psa03 value="0.72903587838" flag="0"/>
			<psa10 value="0.0964940647582" flag="0"/>
			<psa30 value="0.00703099410217" flag="0"/>
		</comp>
		<comp name=".HNN" depth="0.0">
			<acc value="0.752738058629" flag="0"/>
			<vel value="0.138571899334" flag="0"/>
			<psa03 value="0.775047509762" flag="0"/>
			<psa10 value="0.103097982235" flag="0"/>
			<psa30 value="0.00587109226439" flag="0"/>
		</comp>
		<comp name=".HNZ" depth="0.0">
			<acc value="0.384823376774" flag="0"/>
			<vel value="0.074155173907" flag="0"/>
			<psa03 value="0.33821836364" flag="0"/>
			<psa10 value="0.0412911615868" flag="0"/>
			<psa30 value="0.0034069915298" flag="0"/>
		</comp>
	</station>
</stationlist>
