<?xml version="1.0" encoding="UTF-8" standalone="yes"?>
<!DOCTYPE earthquake SYSTEM "stationlist.dtd">
<stationlist created="" xmlns="ch.ethz.sed.shakemap.usgs.xml">
  <station code="CEYT" name="CEYT" netid="KO" insttype="CMG-3ESP" lat="37.0105" lon="35.7478">
    <comp name="--.HHN">
      <acc value="0.0069750693" flag="0"/>
      <vel value="0.0032096341" flag="0"/>
      <psa03 value="0.0176973664" flag="0"/>
      <psa10 value="0.0025089960" flag="0"/>
      <psa30 value="0.0003307086" flag="0"/>
    </comp>
    <comp name="--.HHZ">
      <acc value="0.0065732541" flag="0"/>
      <vel value="0.0025885692" flag="0"/>
      <psa03 value="0.0150744325" flag="0"/>
      <psa10 value="0.0023837444" flag="0"/>
      <psa30 value="0.0002783244" flag="0"/>
    </comp>
    <comp name="--.HHE">
      <acc value="0.0092963723" flag="0"/>
      <vel value="0.0035772609" flag="0"/>
      <psa03 value="0.0340133758" flag="0"/>
      <psa10 value="0.0038414830" flag="0"/>
      <psa30 value="0.0003123251" flag="0"/>
    </comp>
  </station>
</stationlist>
