<?xml version="1.0" encoding="UTF-8" standalone="yes"?>
<!DOCTYPE earthquake SYSTEM "stationlist.dtd">
<stationlist created="" xmlns="ch.ethz.sed.shakemap.usgs.xml">
  <station code="CEYT" name="CEYT" netid="KO" insttype="CMG-3ESP" lat="37.0105" lon="35.7478">
    <comp name="--.HHN">
      <acc value="0.0069750693" flag="0"/>
      <vel value="0.0032096341" flag="0"/>
      <psa03 value="0.0176973664" flag="0"/>
      <psa10 value="0.0025089960" flag="0"/>
      <psa30 value="0.0003307086" flag="0"/>
    </comp>
    <comp name="--.HHZ">
      <acc value="0.0065732541" flag="0"/>
      <vel value="0.0025885692" flag="0"/>
      <psa03 value="0.0150744325" flag="0"/>
      <psa10 value="0.0023837444" flag="0"/>
      <psa30 value="0.0002783244" flag="0"/>
    </comp>
    <comp name="--.HHE">
      <acc value="0.0092963723" flag="0"/>
      <vel value="0.0035772609" flag="0"/>
      <psa03 value="0.0340133758" flag="0"/>
      <psa10 value="0.0038414830" flag="0"/>
      <psa30 value="0.0003123251" flag="0"/>
    </comp>
  </station>
  <station code="ANDN" name="ANDN" netid="TU" insttype="T" lat="37.58" lon="36.3452">
    <comp name="--.HHE">
      <acc value="0.1928457802" flag="0"/>
      <vel value="0.0716595238" flag="0"/>
      <psa03 value="0.2948739711" flag="0"/>
      <psa10 value="0.0226353134" flag="0"/>
      <psa30 value="0.0015892174" flag="0"/>
    </comp>
    <comp name="--.HHZ">
      <acc value="0.1030861201" flag="0"/>
      <vel value="0.0278320047" flag="0"/>
      <psa03 value="0.1849701303" flag="0"/>
      <psa10 value="0.0188802784" flag="0"/>
      <psa30 value="0.0014343813" flag="0"/>
    </comp>
    <comp name="--.HHN">
      <acc value="0.3386233616" flag="0"/>
      <vel value="0.0850463003" flag="0"/>
      <psa03 value="0.4123750028" flag="0"/>
      <psa10 value="0.0279082157" flag="0"/>
      <psa30 value="0.0023230524" flag="0"/>
    </comp>
  </station>
</stationlist>
