<stationlist created="1778138234">
	<station code="VRI" name="VRI" netid="EU" source="Generic European Strong Motion Network" insttype="" lat="45.8657" lon="26.7277">
		<comp name="00.HNE" depth="0.0">
			<acc value="0.0316285300167569" flag="0"/>
			<vel value="0.00777777509117511" flag="0"/>
			<psa03 value="0.0438126107037858" flag="0"/>
			<psa10 value="0.00541417084975048" flag="0"/>
			<psa30 value="0.00220816419670622" flag="0"/>
		</comp>
		<comp name="00.HNN" depth="0.0">
			<acc value="0.00955432876116982" flag="0"/>
			<vel value="0.00372515013562524" flag="0"/>
			<psa03 value="0.0131231805442233" flag="0"/>
			<psa10 value="0.00408588348224756" flag="0"/>
			<psa30 value="0.000288506664233993" flag="0"/>
		</comp>
		<comp name="00.HNZ" depth="0.0">
			<acc value="0.00708897979964819" flag="0"/>
			<vel value="0.00197716656067517" flag="0"/>
			<psa03 value="0.00829560748599581" flag="0"/>
			<psa10 value="0.00206211090160158" flag="0"/>
			<psa30 value="0.000303997508134585" flag="0"/>
		</comp>
	</station>
	<station code="KIS" name="KIS" netid="MD" source="Moldova Digital Seismic Network" insttype="" lat="46.9975" lon="28.8175">
		<comp name="--.HNE" depth="0.0">
			<acc value="0.060249314485968" flag="0"/>
			<vel value="0.0239249146736242" flag="0"/>
			<psa03 value="0.0989407210039251" flag="0"/>
			<psa10 value="0.0157915461124256" flag="0"/>
			<psa30 value="0.000610358662431036" flag="0"/>
		</comp>
		<comp name="--.HNN" depth="0.0">
			<acc value="0.0497929189938456" flag="0"/>
			<vel value="0.0269924810579021" flag="0"/>
			<psa03 value="0.107652454363547" flag="0"/>
			<psa10 value="0.0149258753284812" flag="0"/>
			<psa30 value="0.000768387829006781" flag="0"/>
		</comp>
		<comp name="--.HNZ" depth="0.0">
			<acc value="0.0403601920892665" flag="0"/>
			<vel value="0.00930931376279981" flag="0"/>
			<psa03 value="0.0383206505341876" flag="0"/>
			<psa10 value="0.00381957013715264" flag="0"/>
			<psa30 value="0.000193287713216416" flag="0"/>
		</comp>
	</station>
	<station code="PURM" name="PURM" netid="MD" source="Moldova Digital Seismic Network" insttype="" lat="46.5293" lon="29.8723">
		<comp name="--.HNE" depth="0.0">
			<acc value="0.0153122916692607" flag="0"/>
			<vel value="0.00530659695163304" flag="0"/>
			<psa03 value="0.0260148717950816" flag="0"/>
			<psa10 value="0.00419483523100652" flag="0"/>
			<psa30 value="0.000338465364377821" flag="0"/>
		</comp>
		<comp name="--.HNN" depth="0.0">
			<acc value="0.0179943680178113" flag="0"/>
			<vel value="0.00848983806756209" flag="0"/>
			<psa03 value="0.0180731568933589" flag="0"/>
			<psa10 value="0.00879021668372458" flag="0"/>
			<psa30 value="0.000737277747282704" flag="0"/>
		</comp>
		<comp name="--.HNZ" depth="0.0">
			<acc value="0.0170106160571164" flag="0"/>
			<vel value="0.0033854115782179" flag="0"/>
			<psa03 value="0.0135501359112474" flag="0"/>
			<psa10 value="0.00234238196818298" flag="0"/>
			<psa30 value="0.000159169593683452" flag="0"/>
		</comp>
	</station>
	<station code="SORM" name="SORM" netid="MD" source="Moldova Digital Seismic Network" insttype="" lat="48.135" lon="28.3513">
		<comp name="--.HNE" depth="0.0">
			<acc value="0.0448306618498347" flag="0"/>
			<vel value="0.00747859436919877" flag="0"/>
			<psa03 value="0.0227785532382102" flag="0"/>
			<psa10 value="0.00514251691649245" flag="0"/>
			<psa30 value="0.000262368682720954" flag="0"/>
		</comp>
		<comp name="--.HNN" depth="0.0">
			<acc value="0.0451435130359585" flag="0"/>
			<vel value="0.00930637608843999" flag="0"/>
			<psa03 value="0.0241845135636764" flag="0"/>
			<psa10 value="0.00367017781877018" flag="0"/>
			<psa30 value="0.00014939742288793" flag="0"/>
		</comp>
		<comp name="--.HNZ" depth="0.0">
			<acc value="0.0341182642594868" flag="0"/>
			<vel value="0.00431725395577546" flag="0"/>
			<psa03 value="0.0177371059858008" flag="0"/>
			<psa10 value="0.00102614907108798" flag="0"/>
			<psa30 value="8.96194264306546e-05" flag="0"/>
		</comp>
	</station>
	<station code="BAC" name="BAC" netid="RO" source="Romanian Seismic Network (NIEP)" insttype="" lat="46.5669" lon="26.9124">
		<comp name="--.HNE" depth="0.0">
			<acc value="0.0446882449701648" flag="0"/>
			<vel value="0.0131869013510115" flag="0"/>
			<psa03 value="0.0341294666388385" flag="0"/>
			<psa10 value="0.0174790153989877" flag="0"/>
			<psa30 value="0.00283901515415343" flag="0"/>
		</comp>
		<comp name="--.HNN" depth="0.0">
			<acc value="0.0380404662204515" flag="0"/>
			<vel value="0.015166851013603" flag="0"/>
			<psa03 value="0.0355546079224657" flag="0"/>
			<psa10 value="0.0163592962230799" flag="0"/>
			<psa30 value="0.00309776750356234" flag="0"/>
		</comp>
		<comp name="--.HNZ" depth="0.0">
			<acc value="0.0811634352420723" flag="0"/>
			<vel value="0.01428190474231" flag="0"/>
			<psa03 value="0.0331368097343334" flag="0"/>
			<psa10 value="0.016729200102413" flag="0"/>
			<psa30 value="0.00172060731512319" flag="0"/>
		</comp>
	</station>
	<station code="GHRR" name="GHRR" netid="RO" source="Romanian Seismic Network (NIEP)" insttype="" lat="46.0605" lon="27.408">
		<comp name="--.HNE" depth="0.0">
			<acc value="0.109605748384224" flag="0"/>
			<vel value="0.0349693573833536" flag="0"/>
			<psa03 value="0.061887615376006" flag="0"/>
			<psa10 value="0.0169478395862054" flag="0"/>
			<psa30 value="0.00455937078592154" flag="0"/>
		</comp>
		<comp name="--.HNN" depth="0.0">
			<acc value="0.111211460321285" flag="0"/>
			<vel value="0.0228034068185156" flag="0"/>
			<psa03 value="0.0447042947734704" flag="0"/>
			<psa10 value="0.0164846013989556" flag="0"/>
			<psa30 value="0.00269606297594167" flag="0"/>
		</comp>
		<comp name="--.HNZ" depth="0.0">
			<acc value="0.0367025383010884" flag="0"/>
			<vel value="0.00973292473227578" flag="0"/>
			<psa03 value="0.0218215614567889" flag="0"/>
			<psa10 value="0.00836075229629773" flag="0"/>
			<psa30 value="0.00190606230894202" flag="0"/>
		</comp>
	</station>
	<station code="IASR" name="IASR" netid="RO" source="Romanian Seismic Network (NIEP)" insttype="" lat="47.1777" lon="27.5748">
		<comp name="--.HNE" depth="0.0">
			<acc value="0.222427515988373" flag="0"/>
			<vel value="0.0770635819056837" flag="0"/>
			<psa03 value="0.252151078771585" flag="0"/>
			<psa10 value="0.0340919184222904" flag="0"/>
			<psa30 value="0.00337339888778669" flag="0"/>
		</comp>
		<comp name="--.HNN" depth="0.0">
			<acc value="0.128497302280457" flag="0"/>
			<vel value="0.0478349226983164" flag="0"/>
			<psa03 value="0.333375105297924" flag="0"/>
			<psa10 value="0.0162413059068108" flag="0"/>
			<psa30 value="0.00144422515199623" flag="0"/>
		</comp>
		<comp name="--.HNZ" depth="0.0">
			<acc value="0.175535997105472" flag="0"/>
			<vel value="0.0329801758343085" flag="0"/>
			<psa03 value="0.229087342578993" flag="0"/>
			<psa10 value="0.00770765965711671" flag="0"/>
			<psa30 value="0.000571323003595056" flag="0"/>
		</comp>
	</station>
	<station code="LEOM" name="LEOM" netid="RO" source="Romanian Seismic Network (NIEP)" insttype="" lat="46.4733" lon="28.2467">
		<comp name="--.HNE" depth="0.0">
			<acc value="0.200984237532722" flag="0"/>
			<vel value="0.0340650898972067" flag="0"/>
			<psa03 value="0.153537858629419" flag="0"/>
			<psa10 value="0.0184425086006996" flag="0"/>
			<psa30 value="0.00159735144169185" flag="0"/>
		</comp>
		<comp name="--.HNN" depth="0.0">
			<acc value="0.2008474631337" flag="0"/>
			<vel value="0.0316954986517268" flag="0"/>
			<psa03 value="0.181659284035864" flag="0"/>
			<psa10 value="0.0162557124861744" flag="0"/>
			<psa30 value="0.00310316744461328" flag="0"/>
		</comp>
		<comp name="--.HNZ" depth="0.0">
			<acc value="0.129446996645067" flag="0"/>
			<vel value="0.0169290345346381" flag="0"/>
			<psa03 value="0.0744625890312578" flag="0"/>
			<psa10 value="0.0041548650831814" flag="0"/>
			<psa30 value="0.000793840556789981" flag="0"/>
		</comp>
	</station>
	<station code="MLR" name="MLR" netid="RO" source="Romanian Seismic Network (NIEP)" insttype="" lat="45.4909" lon="25.945">
		<comp name="--.HNE" depth="0.0">
			<acc value="0.000945182788309659" flag="0"/>
			<vel value="0.00101318335169589" flag="0"/>
			<psa03 value="0.00131968597415181" flag="0"/>
			<psa10 value="0.00181226899924071" flag="0"/>
			<psa30 value="0.00013300592036451" flag="0"/>
		</comp>
		<comp name="--.HNN" depth="0.0">
			<acc value="0.000902532980825428" flag="0"/>
			<vel value="0.00108253710591948" flag="0"/>
			<psa03 value="0.00159091772773334" flag="0"/>
			<psa10 value="0.00169063449623775" flag="0"/>
			<psa30 value="0.000224207821417971" flag="0"/>
		</comp>
		<comp name="--.HNZ" depth="0.0">
			<acc value="0.000651544883116997" flag="0"/>
			<vel value="0.000591452460665757" flag="0"/>
			<psa03 value="0.00112595341375815" flag="0"/>
			<psa10 value="0.000926856848936681" flag="0"/>
			<psa30 value="0.000118493565763194" flag="0"/>
		</comp>
	</station>
	<station code="PLOR" name="PLOR" netid="RO" source="Romanian Seismic Network (NIEP)" insttype="" lat="45.8512" lon="26.6498">
		<comp name="--.HNE" depth="0.0">
			<acc value="0.0206526276406111" flag="0"/>
			<vel value="0.00706092501498184" flag="0"/>
			<psa03 value="0.0198229446832315" flag="0"/>
			<psa10 value="0.00486360531499995" flag="0"/>
			<psa30 value="0.00044912636700201" flag="0"/>
		</comp>
		<comp name="--.HNN" depth="0.0">
			<acc value="0.0221180874457188" flag="0"/>
			<vel value="0.00651834011056583" flag="0"/>
			<psa03 value="0.0293185359591218" flag="0"/>
			<psa10 value="0.00619212988570496" flag="0"/>
			<psa30 value="0.000374529029459903" flag="0"/>
		</comp>
		<comp name="--.HNZ" depth="0.0">
			<acc value="0.00954620567984588" flag="0"/>
			<vel value="0.00282803994849457" flag="0"/>
			<psa03 value="0.0101710377136341" flag="0"/>
			<psa10 value="0.00328675921604254" flag="0"/>
			<psa30 value="0.000254508500564108" flag="0"/>
		</comp>
	</station>
	<station code="PLOR4" name="PLOR4" netid="RO" source="Romanian Seismic Network (NIEP)" insttype="" lat="45.8512" lon="26.6498">
		<comp name="--.HNE" depth="0.0">
			<acc value="0.0206526310948759" flag="0"/>
			<vel value="0.00706139320099601" flag="0"/>
			<psa03 value="0.0198229446832315" flag="0"/>
			<psa10 value="0.00486360484620006" flag="0"/>
			<psa30 value="0.000449117772681829" flag="0"/>
		</comp>
		<comp name="--.HNN" depth="0.0">
			<acc value="0.0221180862786563" flag="0"/>
			<vel value="0.00651813001615447" flag="0"/>
			<psa03 value="0.0293185359591218" flag="0"/>
			<psa10 value="0.00619212988570496" flag="0"/>
			<psa30 value="0.000374426496625946" flag="0"/>
		</comp>
		<comp name="--.HNZ" depth="0.0">
			<acc value="0.00954620703086007" flag="0"/>
			<vel value="0.0028280660975736" flag="0"/>
			<psa03 value="0.0101710377136341" flag="0"/>
			<psa10 value="0.00328675921604254" flag="0"/>
			<psa30 value="0.000254605121548112" flag="0"/>
		</comp>
	</station>
	<station code="TESR" name="TESR" netid="RO" source="Romanian Seismic Network (NIEP)" insttype="" lat="46.5118" lon="26.6489">
		<comp name="--.HNE" depth="0.0">
			<acc value="0.0204434282723228" flag="0"/>
			<vel value="0.00538196556805048" flag="0"/>
			<psa03 value="0.0236807926946517" flag="0"/>
			<psa10 value="0.00484692608508525" flag="0"/>
			<psa30 value="0.000507687121365727" flag="0"/>
		</comp>
		<comp name="--.HNN" depth="0.0">
			<acc value="0.0192845328856496" flag="0"/>
			<vel value="0.00505771010596481" flag="0"/>
			<psa03 value="0.0171354684740377" flag="0"/>
			<psa10 value="0.00342167580985572" flag="0"/>
			<psa30 value="0.000546101280697099" flag="0"/>
		</comp>
		<comp name="--.HNZ" depth="0.0">
			<acc value="0.0176846773529101" flag="0"/>
			<vel value="0.00422792780691791" flag="0"/>
			<psa03 value="0.0100802172441041" flag="0"/>
			<psa10 value="0.00378918726506111" flag="0"/>
			<psa30 value="0.000338383900647619" flag="0"/>
		</comp>
	</station>
</stationlist>
