<?xml version="1.0" encoding="UTF-8" standalone="yes"?>
<!DOCTYPE earthquake SYSTEM "stationlist.dtd">
<stationlist created="" xmlns="ch.ethz.sed.shakemap.usgs.xml">
  <station code="KIS" name="KIS" netid="MD" insttype="CMG40T.1to100/Quanterra" lat="46.9975" lon="28.8175">
    <comp name="--.HHZ">
      <acc value="0.0414297363" flag="0"/>
      <vel value="0.0093716476" flag="0"/>
      <psa03 value="0.0455793538" flag="0"/>
      <psa10 value="0.0041028616" flag="0"/>
      <psa30 value="0.0001814212" flag="0"/>
    </comp>
    <comp name="--.HHN">
      <acc value="0.0514759664" flag="0"/>
      <vel value="0.0275062148" flag="0"/>
      <psa03 value="0.1109431376" flag="0"/>
      <psa10 value="0.0156264941" flag="0"/>
      <psa30 value="0.0008012848" flag="0"/>
    </comp>
    <comp name="--.HHE">
      <acc value="0.0718999487" flag="0"/>
      <vel value="0.0237501036" flag="0"/>
      <psa03 value="0.1195605630" flag="0"/>
      <psa10 value="0.0164267519" flag="0"/>
      <psa30 value="0.0006241585" flag="0"/>
    </comp>
  </station>
  <station code="BAC" name="BAC" netid="RO" insttype="2.5V" lat="46.5669" lon="26.9124">
    <comp name="--.HNN">
      <acc value="0.0376849895" flag="0"/>
      <vel value="0.0145334256" flag="0"/>
      <psa03 value="0.0348079627" flag="0"/>
      <psa10 value="0.0163848311" flag="0"/>
      <psa30 value="0.0028636897" flag="0"/>
    </comp>
    <comp name="--.HNE">
      <acc value="0.0445001530" flag="0"/>
      <vel value="0.0128905721" flag="0"/>
      <psa03 value="0.0328831325" flag="0"/>
      <psa10 value="0.0174245613" flag="0"/>
      <psa30 value="0.0027779477" flag="0"/>
    </comp>
    <comp name="--.HNZ">
      <acc value="0.0784069580" flag="0"/>
      <vel value="0.0139655337" flag="0"/>
      <psa03 value="0.0324821860" flag="0"/>
      <psa10 value="0.0167272522" flag="0"/>
      <psa30 value="0.0015800124" flag="0"/>
    </comp>
  </station>
  <station code="GHRR" name="GHRR" netid="RO" insttype="w/attenuator" lat="46.0605" lon="27.408">
    <comp name="--.HHE">
      <acc value="0.1205561888" flag="0"/>
      <vel value="0.0375084294" flag="0"/>
      <psa03 value="0.0659707228" flag="0"/>
      <psa10 value="0.0173159478" flag="0"/>
      <psa30 value="0.0043944942" flag="0"/>
    </comp>
    <comp name="--.HHZ">
      <acc value="0.0414658546" flag="0"/>
      <vel value="0.0101188930" flag="0"/>
      <psa03 value="0.0228742556" flag="0"/>
      <psa10 value="0.0082130449" flag="0"/>
      <psa30 value="0.0020339111" flag="0"/>
    </comp>
    <comp name="--.HHN">
      <acc value="0.1107307058" flag="0"/>
      <vel value="0.0220054699" flag="0"/>
      <psa03 value="0.0441078782" flag="0"/>
      <psa10 value="0.0166592749" flag="0"/>
      <psa30 value="0.0024013518" flag="0"/>
    </comp>
  </station>
  <station code="IASR" name="IASR" netid="RO" insttype="200" lat="47.1777" lon="27.5748">
    <comp name="--.HNE">
      <acc value="0.2266684264" flag="0"/>
      <vel value="0.0759331600" flag="0"/>
      <psa03 value="0.2500367991" flag="0"/>
      <psa10 value="0.0339967435" flag="0"/>
      <psa30 value="0.0032829928" flag="0"/>
    </comp>
    <comp name="--.HNN">
      <acc value="0.1354018728" flag="0"/>
      <vel value="0.0475526586" flag="0"/>
      <psa03 value="0.3352917185" flag="0"/>
      <psa10 value="0.0161647438" flag="0"/>
      <psa30 value="0.0014754540" flag="0"/>
    </comp>
    <comp name="--.HNZ">
      <acc value="0.1871535572" flag="0"/>
      <vel value="0.0317762565" flag="0"/>
      <psa03 value="0.2243267782" flag="0"/>
      <psa10 value="0.0076838060" flag="0"/>
      <psa30 value="0.0005662998" flag="0"/>
    </comp>
  </station>
  <station code="LEOM" name="LEOM" netid="RO" insttype="CMG40T.1to100/k2" lat="46.4733" lon="28.2467">
    <comp name="--.HHZ">
      <acc value="0.0790971393" flag="0"/>
      <vel value="0.0108938871" flag="0"/>
      <psa03 value="0.0407016561" flag="0"/>
      <psa10 value="0.0023496136" flag="0"/>
      <psa30 value="0.0002537927" flag="0"/>
    </comp>
    <comp name="--.HHE">
      <acc value="0.1083109407" flag="0"/>
      <vel value="0.0177640815" flag="0"/>
      <psa03 value="0.0817861997" flag="0"/>
      <psa10 value="0.0095195789" flag="0"/>
      <psa30 value="0.0007925125" flag="0"/>
    </comp>
    <comp name="--.HHN">
      <acc value="0.1132206198" flag="0"/>
      <vel value="0.0165027558" flag="0"/>
      <psa03 value="0.0892476784" flag="0"/>
      <psa10 value="0.0077012147" flag="0"/>
      <psa30 value="0.0015240061" flag="0"/>
    </comp>
  </station>
  <station code="PLOR" name="PLOR" netid="RO" insttype="330" lat="45.8512" lon="26.6498">
    <comp name="--.HHE">
      <acc value="0.0110372709" flag="0"/>
      <vel value="0.0036321533" flag="0"/>
      <psa03 value="0.0106204958" flag="0"/>
      <psa10 value="0.0024328992" flag="0"/>
      <psa30 value="0.0001956895" flag="0"/>
    </comp>
    <comp name="--.HHZ">
      <acc value="0.0046935254" flag="0"/>
      <vel value="0.0013859252" flag="0"/>
      <psa03 value="0.0049068836" flag="0"/>
      <psa10 value="0.0016235447" flag="0"/>
      <psa30 value="0.0001066556" flag="0"/>
    </comp>
    <comp name="--.HHN">
      <acc value="0.0115942876" flag="0"/>
      <vel value="0.0034167566" flag="0"/>
      <psa03 value="0.0147069905" flag="0"/>
      <psa10 value="0.0033028130" flag="0"/>
      <psa30 value="0.0001828496" flag="0"/>
    </comp>
  </station>
  <station code="PLOR4" name="PLOR4" netid="RO" insttype="330" lat="45.8512" lon="26.6498">
    <comp name="--.HHE">
      <acc value="0.0110372709" flag="0"/>
      <vel value="0.0036321533" flag="0"/>
      <psa03 value="0.0106204958" flag="0"/>
      <psa10 value="0.0024328992" flag="0"/>
      <psa30 value="0.0001956895" flag="0"/>
    </comp>
    <comp name="--.HHZ">
      <acc value="0.0046935254" flag="0"/>
      <vel value="0.0013859252" flag="0"/>
      <psa03 value="0.0049068836" flag="0"/>
      <psa10 value="0.0016235447" flag="0"/>
      <psa30 value="0.0001066556" flag="0"/>
    </comp>
    <comp name="--.HHN">
      <acc value="0.0115942876" flag="0"/>
      <vel value="0.0034167566" flag="0"/>
      <psa03 value="0.0147069905" flag="0"/>
      <psa10 value="0.0033028130" flag="0"/>
      <psa30 value="0.0001828496" flag="0"/>
    </comp>
  </station>
  <station code="TESR" name="TESR" netid="RO" insttype="330" lat="46.5118" lon="26.6489">
    <comp name="--.HHN">
      <acc value="0.0210470081" flag="0"/>
      <vel value="0.0050092992" flag="0"/>
      <psa03 value="0.0165770974" flag="0"/>
      <psa10 value="0.0033010595" flag="0"/>
      <psa30 value="0.0005348481" flag="0"/>
    </comp>
    <comp name="--.HHE">
      <acc value="0.0214056725" flag="0"/>
      <vel value="0.0054417815" flag="0"/>
      <psa03 value="0.0238228450" flag="0"/>
      <psa10 value="0.0048645311" flag="0"/>
      <psa30 value="0.0005086362" flag="0"/>
    </comp>
    <comp name="--.HHZ">
      <acc value="0.0189794944" flag="0"/>
      <vel value="0.0042224109" flag="0"/>
      <psa03 value="0.0101614628" flag="0"/>
      <psa10 value="0.0038210812" flag="0"/>
      <psa30 value="0.0002853908" flag="0"/>
    </comp>
  </station>
  <station code="VRI" name="VRI" netid="RO" insttype="Linear" lat="45.8657" lon="26.7277">
    <comp name="--.HHZ">
      <acc value="0.0078766078" flag="0"/>
      <vel value="0.0020151757" flag="0"/>
      <psa03 value="0.0083036531" flag="0"/>
      <psa10 value="0.0020529722" flag="0"/>
      <psa30 value="0.0002792573" flag="0"/>
    </comp>
    <comp name="--.HHN">
      <acc value="0.0099440622" flag="0"/>
      <vel value="0.0038542786" flag="0"/>
      <psa03 value="0.0132713200" flag="0"/>
      <psa10 value="0.0041449498" flag="0"/>
      <psa30 value="0.0002415062" flag="0"/>
    </comp>
    <comp name="--.HHE">
      <acc value="0.0331014204" flag="0"/>
      <vel value="0.0084579271" flag="0"/>
      <psa03 value="0.0448854243" flag="0"/>
      <psa10 value="0.0051060919" flag="0"/>
      <psa30 value="0.0003282867" flag="0"/>
    </comp>
  </station>
</stationlist>
