<stationlist xmlns:esm="https://esm-db.eu/esmws/shakemap/1/" created="1784685217">
	<station code="MZ01" name="MZ01" netid="3A" source="Centro di microzonazione sismica Network, 2016 Central Italy seismic sequence (CentroMZ)" insttype="" lat="42.671575" lon="13.270813" esm:processing="manual (Paolucci et al 2011)" esm:quality="good">
		<comp name="--.HNE" depth="0.0">
			<acc value="15.5239956205442" flag="0"/>
			<vel value="12.2836104195618" flag="0"/>
			<psa03 value="30.2054636879953" flag="0"/>
			<psa10 value="12.7502134653329" flag="0"/>
			<psa30 value="2.40947520768982" flag="0"/>
		</comp>
		<comp name="--.HNN" depth="0.0">
			<acc value="15.0546619594324" flag="0"/>
			<vel value="11.9124032154694" flag="0"/>
			<psa03 value="39.4353782334852" flag="0"/>
			<psa10 value="10.4977834028732" flag="0"/>
			<psa30 value="1.60688950537126" flag="0"/>
		</comp>
		<comp name="--.HNZ" depth="0.0">
			<acc value="4.45851441115879" flag="0"/>
			<vel value="3.53063479722636" flag="0"/>
			<psa03 value="9.99755658443959" flag="0"/>
			<psa10 value="4.47578663905881" flag="0"/>
			<psa30 value="1.68838296050578" flag="0"/>
		</comp>
	</station>
	<station code="MZ04" name="MZ04" netid="3A" source="Centro di microzonazione sismica Network, 2016 Central Italy seismic sequence (CentroMZ)" insttype="" lat="42.673895" lon="13.29381" esm:processing="manual (Paolucci et al 2011)" esm:quality="good">
		<comp name="--.HNE" depth="0.0">
			<acc value="13.9353650459768" flag="0"/>
			<vel value="12.5601685392144" flag="0"/>
			<psa03 value="35.2972162855678" flag="0"/>
			<psa10 value="11.1861243548127" flag="0"/>
			<psa30 value="1.80535698548859" flag="0"/>
		</comp>
		<comp name="--.HNN" depth="0.0">
			<acc value="17.1149816713365" flag="0"/>
			<vel value="16.4808771171607" flag="0"/>
			<psa03 value="43.3172120796864" flag="0"/>
			<psa10 value="20.5514511886328" flag="0"/>
			<psa30 value="2.05634734195511" flag="0"/>
		</comp>
		<comp name="--.HNZ" depth="0.0">
			<acc value="5.76671999419927" flag="0"/>
			<vel value="5.0589406702838" flag="0"/>
			<psa03 value="15.7911354350264" flag="0"/>
			<psa10 value="6.56927896094841" flag="0"/>
			<psa30 value="1.8818930041298" flag="0"/>
		</comp>
	</station>
	<station code="MZ08" name="MZ08" netid="3A" source="Centro di microzonazione sismica Network, 2016 Central Italy seismic sequence (CentroMZ)" insttype="" lat="42.63254" lon="13.286562" esm:processing="manual (Paolucci et al 2011)" esm:quality="best">
		<comp name="--.HNE" depth="0.0">
			<acc value="8.98661277703006" flag="0"/>
			<vel value="4.9846890538893" flag="0"/>
			<psa03 value="31.4123847115231" flag="0"/>
			<psa10 value="3.95216188367419" flag="0"/>
			<psa30 value="1.16501547280921" flag="0"/>
		</comp>
		<comp name="--.HNN" depth="0.0">
			<acc value="7.96435200664026" flag="0"/>
			<vel value="4.52674846686866" flag="0"/>
			<psa03 value="24.2003436845173" flag="0"/>
			<psa10 value="3.86704744175805" flag="0"/>
			<psa30 value="1.19400394847719" flag="0"/>
		</comp>
		<comp name="--.HNZ" depth="0.0">
			<acc value="4.80965709736125" flag="0"/>
			<vel value="2.54315080855763" flag="0"/>
			<psa03 value="16.1538157618741" flag="0"/>
			<psa10 value="2.88816491754565" flag="0"/>
			<psa30 value="1.60314458267731" flag="0"/>
		</comp>
	</station>
	<station code="MZ10" name="MZ10" netid="3A" source="Centro di microzonazione sismica Network, 2016 Central Italy seismic sequence (CentroMZ)" insttype="" lat="42.625117" lon="13.29985" esm:processing="manual (Paolucci et al 2011)" esm:quality="best">
		<comp name="--.HNE" depth="0.0">
			<acc value="8.52346968870583" flag="0"/>
			<vel value="5.03340560185799" flag="0"/>
			<psa03 value="16.014578014878" flag="0"/>
			<psa10 value="4.8171383560116" flag="0"/>
			<psa30 value="1.13001364457173" flag="0"/>
		</comp>
		<comp name="--.HNN" depth="0.0">
			<acc value="8.82319295504422" flag="0"/>
			<vel value="5.01050729025738" flag="0"/>
			<psa03 value="19.4343590933324" flag="0"/>
			<psa10 value="7.09546073344127" flag="0"/>
			<psa30 value="1.58054976833508" flag="0"/>
		</comp>
		<comp name="--.HNZ" depth="0.0">
			<acc value="3.30225128662955" flag="0"/>
			<vel value="3.18884752747737" flag="0"/>
			<psa03 value="6.57880457673744" flag="0"/>
			<psa10 value="5.32974981723713" flag="0"/>
			<psa30 value="1.56397725500367" flag="0"/>
		</comp>
	</station>
	<station code="MZ102" name="MZ102" netid="3A" source="Centro di microzonazione sismica Network, 2016 Central Italy seismic sequence (CentroMZ)" insttype="" lat="42.70367" lon="13.232048" esm:processing="manual (Paolucci et al 2011)" esm:quality="best">
		<comp name="--.HNE" depth="0.0">
			<acc value="5.8725106711589" flag="0"/>
			<vel value="5.36419961927508" flag="0"/>
			<psa03 value="12.1756966870303" flag="0"/>
			<psa10 value="6.66882142223274" flag="0"/>
			<psa30 value="3.04395549130221" flag="0"/>
		</comp>
		<comp name="--.HNN" depth="0.0">
			<acc value="5.13417401327264" flag="0"/>
			<vel value="3.42110093127466" flag="0"/>
			<psa03 value="10.9136532649487" flag="0"/>
			<psa10 value="5.1183428909658" flag="0"/>
			<psa30 value="2.24878357262029" flag="0"/>
		</comp>
		<comp name="--.HNZ" depth="0.0">
			<acc value="2.6651056587701" flag="0"/>
			<vel value="3.06237705733494" flag="0"/>
			<psa03 value="6.40985800454685" flag="0"/>
			<psa10 value="2.98992211805758" flag="0"/>
			<psa30 value="1.59827663059724" flag="0"/>
		</comp>
	</station>
	<station code="MZ11" name="MZ11" netid="3A" source="Centro di microzonazione sismica Network, 2016 Central Italy seismic sequence (CentroMZ)" insttype="" lat="42.66291" lon="13.307648" esm:processing="manual (Paolucci et al 2011)" esm:quality="best">
		<comp name="--.HNE" depth="0.0">
			<acc value="4.41030340345994" flag="0"/>
			<vel value="4.95666935430945" flag="0"/>
			<psa03 value="7.58035887188746" flag="0"/>
			<psa10 value="6.31816780052402" flag="0"/>
			<psa30 value="0.774049122937425" flag="0"/>
		</comp>
		<comp name="--.HNN" depth="0.0">
			<acc value="3.94165417083468" flag="0"/>
			<vel value="4.70499908531948" flag="0"/>
			<psa03 value="8.80786131045974" flag="0"/>
			<psa10 value="13.727356412552" flag="0"/>
			<psa30 value="1.57084965794024" flag="0"/>
		</comp>
		<comp name="--.HNZ" depth="0.0">
			<acc value="3.07939559226052" flag="0"/>
			<vel value="2.75625464717845" flag="0"/>
			<psa03 value="4.36755524124922" flag="0"/>
			<psa10 value="8.24704459582367" flag="0"/>
			<psa30 value="1.04871705514633" flag="0"/>
		</comp>
	</station>
	<station code="MZ12" name="MZ12" netid="3A" source="Centro di microzonazione sismica Network, 2016 Central Italy seismic sequence (CentroMZ)" insttype="" lat="42.628018" lon="13.29179" esm:processing="manual (Paolucci et al 2011)" esm:quality="good">
		<comp name="--.HNE" depth="0.0">
			<acc value="17.3062044104749" flag="0"/>
			<vel value="11.1258748558444" flag="0"/>
			<psa03 value="40.2650329708078" flag="0"/>
			<psa10 value="12.6734626840999" flag="0"/>
			<psa30 value="1.2942399139641" flag="0"/>
		</comp>
		<comp name="--.HNN" depth="0.0">
			<acc value="10.1804057842631" flag="0"/>
			<vel value="10.3037605560767" flag="0"/>
			<psa03 value="32.90681915478" flag="0"/>
			<psa10 value="12.6712479448723" flag="0"/>
			<psa30 value="1.61450462893769" flag="0"/>
		</comp>
		<comp name="--.HNZ" depth="0.0">
			<acc value="7.08067454623521" flag="0"/>
			<vel value="3.52904212571328" flag="0"/>
			<psa03 value="13.9457878652624" flag="0"/>
			<psa10 value="4.68836133692289" flag="0"/>
			<psa30 value="1.62743960087103" flag="0"/>
		</comp>
	</station>
	<station code="MZ14" name="MZ14" netid="3A" source="Centro di microzonazione sismica Network, 2016 Central Italy seismic sequence (CentroMZ)" insttype="" lat="42.6254" lon="13.357295" esm:processing="manual (Paolucci et al 2011)" esm:quality="best">
		<comp name="--.HNE" depth="0.0">
			<acc value="5.15416034689847" flag="0"/>
			<vel value="2.16540115847145" flag="0"/>
			<psa03 value="3.77091791599456" flag="0"/>
			<psa10 value="1.78663416170711" flag="0"/>
			<psa30 value="0.618878676164597" flag="0"/>
		</comp>
		<comp name="--.HNN" depth="0.0">
			<acc value="5.88250319910458" flag="0"/>
			<vel value="1.88275443783164" flag="0"/>
			<psa03 value="7.39906345067022" flag="0"/>
			<psa10 value="2.32038228876118" flag="0"/>
			<psa30 value="0.390985141598562" flag="0"/>
		</comp>
		<comp name="--.HNZ" depth="0.0">
			<acc value="2.50556950520285" flag="0"/>
			<vel value="1.00279290963285" flag="0"/>
			<psa03 value="3.63570696759414" flag="0"/>
			<psa10 value="1.29139833642177" flag="0"/>
			<psa30 value="0.522096809028613" flag="0"/>
		</comp>
	</station>
	<station code="MZ19" name="MZ19" netid="3A" source="Centro di microzonazione sismica Network, 2016 Central Italy seismic sequence (CentroMZ)" insttype="" lat="42.64109" lon="13.206917" esm:processing="manual (Paolucci et al 2011)" esm:quality="best">
		<comp name="--.HNE" depth="0.0">
			<acc value="9.57534827348027" flag="0"/>
			<vel value="3.85718720489427" flag="0"/>
			<psa03 value="15.2434908260187" flag="0"/>
			<psa10 value="2.8028773232899" flag="0"/>
			<psa30 value="0.942516953517203" flag="0"/>
		</comp>
		<comp name="--.HNN" depth="0.0">
			<acc value="7.35767783390576" flag="0"/>
			<vel value="3.62871953739846" flag="0"/>
			<psa03 value="16.0317590222194" flag="0"/>
			<psa10 value="2.09035544578359" flag="0"/>
			<psa30 value="0.788062382050268" flag="0"/>
		</comp>
		<comp name="--.HNZ" depth="0.0">
			<acc value="3.69436070324154" flag="0"/>
			<vel value="2.05949989179883" flag="0"/>
			<psa03 value="6.45536082867763" flag="0"/>
			<psa10 value="2.63384439864053" flag="0"/>
			<psa30 value="0.767941811734031" flag="0"/>
		</comp>
	</station>
	<station code="MZ21" name="MZ21" netid="3A" source="Centro di microzonazione sismica Network, 2016 Central Italy seismic sequence (CentroMZ)" insttype="" lat="42.651632" lon="13.267547" esm:processing="manual (Paolucci et al 2011)" esm:quality="best">
		<comp name="--.HNE" depth="0.0">
			<acc value="18.270635403988" flag="0"/>
			<vel value="11.2215578002057" flag="0"/>
			<psa03 value="37.6146388773612" flag="0"/>
			<psa10 value="6.87455056248422" flag="0"/>
			<psa30 value="1.51539616705755" flag="0"/>
		</comp>
		<comp name="--.HNN" depth="0.0">
			<acc value="12.6686291054265" flag="0"/>
			<vel value="9.01844635444922" flag="0"/>
			<psa03 value="36.2344312876008" flag="0"/>
			<psa10 value="8.06918090185406" flag="0"/>
			<psa30 value="1.38207333977643" flag="0"/>
		</comp>
		<comp name="--.HNZ" depth="0.0">
			<acc value="7.11465329233722" flag="0"/>
			<vel value="5.42611757747318" flag="0"/>
			<psa03 value="17.9586268924419" flag="0"/>
			<psa10 value="7.09823922447227" flag="0"/>
			<psa30 value="1.1780846713624" flag="0"/>
		</comp>
	</station>
	<station code="MZ24" name="MZ24" netid="3A" source="Centro di microzonazione sismica Network, 2016 Central Italy seismic sequence (CentroMZ)" insttype="" lat="42.655239" lon="13.288519" esm:processing="manual (Paolucci et al 2011)" esm:quality="good">
		<comp name="--.HNE" depth="0.0">
			<acc value="9.88722025320466" flag="0"/>
			<vel value="9.16652571721755" flag="0"/>
			<psa03 value="22.1985326182092" flag="0"/>
			<psa10 value="7.2893108178356" flag="0"/>
			<psa30 value="1.42937480061327" flag="0"/>
		</comp>
		<comp name="--.HNN" depth="0.0">
			<acc value="21.0744169254235" flag="0"/>
			<vel value="15.8988327796381" flag="0"/>
			<psa03 value="44.6274876005025" flag="0"/>
			<psa10 value="10.2185249202652" flag="0"/>
			<psa30 value="1.39930356354513" flag="0"/>
		</comp>
		<comp name="--.HNZ" depth="0.0">
			<acc value="4.65854382391103" flag="0"/>
			<vel value="4.07756502359891" flag="0"/>
			<psa03 value="11.1144115460449" flag="0"/>
			<psa10 value="8.56298721363794" flag="0"/>
			<psa30 value="1.46595602874436" flag="0"/>
		</comp>
	</station>
	<station code="MZ26" name="MZ26" netid="3A" source="Centro di microzonazione sismica Network, 2016 Central Italy seismic sequence (CentroMZ)" insttype="" lat="42.623556" lon="13.3164" esm:processing="manual (Paolucci et al 2011)" esm:quality="good">
		<comp name="--.HNE" depth="0.0">
			<acc value="6.01895413191271" flag="0"/>
			<vel value="4.1629464264582" flag="0"/>
			<psa03 value="12.7493365180832" flag="0"/>
			<psa10 value="7.91672630702296" flag="0"/>
			<psa30 value="0.751073999838942" flag="0"/>
		</comp>
		<comp name="--.HNN" depth="0.0">
			<acc value="8.19822261982755" flag="0"/>
			<vel value="3.04981116654262" flag="0"/>
			<psa03 value="14.0691421289089" flag="0"/>
			<psa10 value="4.66955618748123" flag="0"/>
			<psa30 value="1.13402702050539" flag="0"/>
		</comp>
		<comp name="--.HNZ" depth="0.0">
			<acc value="3.05325416197126" flag="0"/>
			<vel value="2.46049583359053" flag="0"/>
			<psa03 value="7.27163764622138" flag="0"/>
			<psa10 value="5.06454486172799" flag="0"/>
			<psa30 value="1.38254760716658" flag="0"/>
		</comp>
	</station>
	<station code="MZ27" name="MZ27" netid="3A" source="Centro di microzonazione sismica Network, 2016 Central Italy seismic sequence (CentroMZ)" insttype="" lat="42.612412" lon="13.296578" esm:processing="manual (Paolucci et al 2011)" esm:quality="best">
		<comp name="--.HNE" depth="0.0">
			<acc value="5.6187524384519" flag="0"/>
			<vel value="5.70571098002864" flag="0"/>
			<psa03 value="17.0446778378505" flag="0"/>
			<psa10 value="6.93833505223923" flag="0"/>
			<psa30 value="1.75611371288452" flag="0"/>
		</comp>
		<comp name="--.HNN" depth="0.0">
			<acc value="7.03889839827021" flag="0"/>
			<vel value="4.23925073049826" flag="0"/>
			<psa03 value="15.6412490428552" flag="0"/>
			<psa10 value="4.99186114707661" flag="0"/>
			<psa30 value="1.44548646921651" flag="0"/>
		</comp>
		<comp name="--.HNZ" depth="0.0">
			<acc value="2.5381767956384" flag="0"/>
			<vel value="2.74102429734461" flag="0"/>
			<psa03 value="9.72767159411817" flag="0"/>
			<psa10 value="5.30808564079257" flag="0"/>
			<psa30 value="1.56197280414718" flag="0"/>
		</comp>
	</station>
	<station code="MZ28" name="MZ28" netid="3A" source="Centro di microzonazione sismica Network, 2016 Central Italy seismic sequence (CentroMZ)" insttype="" lat="42.621375" lon="13.307882" esm:processing="manual (Paolucci et al 2011)" esm:quality="good">
		<comp name="--.HNE" depth="0.0">
			<acc value="18.2589586761374" flag="0"/>
			<vel value="13.7865078573336" flag="0"/>
			<psa03 value="44.8209529019199" flag="0"/>
			<psa10 value="8.10892540399307" flag="0"/>
			<psa30 value="1.06486004329421" flag="0"/>
		</comp>
		<comp name="--.HNN" depth="0.0">
			<acc value="11.2696990296177" flag="0"/>
			<vel value="8.51324952839115" flag="0"/>
			<psa03 value="33.8931610996798" flag="0"/>
			<psa10 value="5.62048467584266" flag="0"/>
			<psa30 value="1.40231023982987" flag="0"/>
		</comp>
		<comp name="--.HNZ" depth="0.0">
			<acc value="3.83893707592847" flag="0"/>
			<vel value="2.61929831643155" flag="0"/>
			<psa03 value="10.6694055590196" flag="0"/>
			<psa10 value="5.32568275065553" flag="0"/>
			<psa30 value="1.5296197145415" flag="0"/>
		</comp>
	</station>
	<station code="MZ50" name="MZ50" netid="3A" source="Centro di microzonazione sismica Network, 2016 Central Italy seismic sequence (CentroMZ)" insttype="" lat="42.598" lon="13.218" esm:processing="manual (Paolucci et al 2011)" esm:quality="good">
		<comp name="--.HNE" depth="0.0">
			<acc value="11.0843703213653" flag="0"/>
			<vel value="5.31237036705585" flag="0"/>
			<psa03 value="25.0062850523322" flag="0"/>
			<psa10 value="8.95584168462901" flag="0"/>
			<psa30 value="1.1694583739264" flag="0"/>
		</comp>
		<comp name="--.HNN" depth="0.0">
			<acc value="10.0989474730033" flag="0"/>
			<vel value="5.09959045246618" flag="0"/>
			<psa03 value="27.6967234207021" flag="0"/>
			<psa10 value="4.89235895377823" flag="0"/>
			<psa30 value="1.93700198002153" flag="0"/>
		</comp>
		<comp name="--.HNZ" depth="0.0">
			<acc value="6.33614855495075" flag="0"/>
			<vel value="3.76029838646277" flag="0"/>
			<psa03 value="20.1267447407501" flag="0"/>
			<psa10 value="2.82228246572231" flag="0"/>
			<psa30 value="1.0437282991084" flag="0"/>
		</comp>
	</station>
	<station code="MZ51" name="MZ51" netid="3A" source="Centro di microzonazione sismica Network, 2016 Central Italy seismic sequence (CentroMZ)" insttype="" lat="42.637948" lon="13.285578" esm:processing="manual (Paolucci et al 2011)" esm:quality="good">
		<comp name="--.HNE" depth="0.0">
			<acc value="11.7592665787721" flag="0"/>
			<vel value="7.83091209552444" flag="0"/>
			<psa03 value="31.0557445825689" flag="0"/>
			<psa10 value="8.80000457897757" flag="0"/>
			<psa30 value="1.87793779306475" flag="0"/>
		</comp>
		<comp name="--.HNN" depth="0.0">
			<acc value="15.3549034529327" flag="0"/>
			<vel value="7.91154576149163" flag="0"/>
			<psa03 value="35.21198238196" flag="0"/>
			<psa10 value="6.31808726455211" flag="0"/>
			<psa30 value="1.84281963509007" flag="0"/>
		</comp>
		<comp name="--.HNZ" depth="0.0">
			<acc value="4.47114698037135" flag="0"/>
			<vel value="3.55601566172994" flag="0"/>
			<psa03 value="10.3853820314068" flag="0"/>
			<psa10 value="3.60177000387419" flag="0"/>
			<psa30 value="2.35031258787848" flag="0"/>
		</comp>
	</station>
	<station code="MZ61" name="MZ61" netid="3A" source="Centro di microzonazione sismica Network, 2016 Central Italy seismic sequence (CentroMZ)" insttype="" lat="42.634324" lon="13.314377" esm:processing="manual (Paolucci et al 2011)" esm:quality="good">
		<comp name="--.HNE" depth="0.0">
			<acc value="7.58972617530359" flag="0"/>
			<vel value="3.99617533162634" flag="0"/>
			<psa03 value="16.7191335424959" flag="0"/>
			<psa10 value="6.66008326928019" flag="0"/>
			<psa30 value="0.787167537917902" flag="0"/>
		</comp>
		<comp name="--.HNN" depth="0.0">
			<acc value="5.54346363398917" flag="0"/>
			<vel value="2.76693966882242" flag="0"/>
			<psa03 value="11.4965994749782" flag="0"/>
			<psa10 value="3.67051550949903" flag="0"/>
			<psa30 value="1.36048522508311" flag="0"/>
		</comp>
		<comp name="--.HNZ" depth="0.0">
			<acc value="2.38160426066717" flag="0"/>
			<vel value="2.32129378900559" flag="0"/>
			<psa03 value="4.81694596452314" flag="0"/>
			<psa10 value="4.199185843524" flag="0"/>
			<psa30 value="1.26133649521702" flag="0"/>
		</comp>
	</station>
	<station code="MZ63" name="MZ63" netid="3A" source="Centro di microzonazione sismica Network, 2016 Central Italy seismic sequence (CentroMZ)" insttype="" lat="42.629805" lon="13.323448" esm:processing="manual (Paolucci et al 2011)" esm:quality="good">
		<comp name="--.HNE" depth="0.0">
			<acc value="3.83612669798941" flag="0"/>
			<vel value="2.26921727674332" flag="0"/>
			<psa03 value="11.4068466085019" flag="0"/>
			<psa10 value="2.72615472964708" flag="0"/>
			<psa30 value="0.772778444269466" flag="0"/>
		</comp>
		<comp name="--.HNN" depth="0.0">
			<acc value="3.93280707031828" flag="0"/>
			<vel value="2.70763855214698" flag="0"/>
			<psa03 value="12.7406117877926" flag="0"/>
			<psa10 value="2.89605341599452" flag="0"/>
			<psa30 value="1.03157184157021" flag="0"/>
		</comp>
		<comp name="--.HNZ" depth="0.0">
			<acc value="2.07932554856891" flag="0"/>
			<vel value="2.10506342873366" flag="0"/>
			<psa03 value="4.06840884779945" flag="0"/>
			<psa10 value="3.73197250966575" flag="0"/>
			<psa30 value="1.14266674060338" flag="0"/>
		</comp>
	</station>
	<station code="T1201" name="T1201" netid="8P" source="INGV SISMIKO Emergency Seismic Network for 2016 Central Italy Sequence (ISESNCIS)" insttype="" lat="42.6573" lon="13.2508" esm:processing="manual (Paolucci et al 2011)" esm:quality="good">
		<comp name="--.HNE" depth="0.0">
			<acc value="9.7223646" flag="0"/>
			<vel value="6.755153" flag="0"/>
			<psa03 value="27.1652307482837" flag="0"/>
			<psa10 value="7.50015399230354" flag="0"/>
			<psa30 value="1.68280360734048" flag="0"/>
		</comp>
		<comp name="--.HNN" depth="0.0">
