<?xml version="1.0" encoding="UTF-8" standalone="yes"?>
<!DOCTYPE earthquake SYSTEM "stationlist.dtd">
<stationlist created="" xmlns="ch.ethz.sed.shakemap.usgs.xml">
  <station code="AOI" name="AOI" netid="IV" source="INGV" insttype="" lat="43.5502" lon="13.602">
    <comp name="--.HHE">
      <acc value="1.9156802474" flag="0"/>
      <vel value="0.7381973049" flag="0"/>
      <psa03 value="1.8229282326" flag="0"/>
      <psa10 value="0.6933830785" flag="0"/>
      <psa30 value="0.5764654637" flag="0"/>
    </comp>
    <comp name="--.HHN">
      <acc value="1.3884204869" flag="0"/>
      <vel value="0.6081085341" flag="0"/>
      <psa03 value="1.7613483914" flag="0"/>
      <psa10 value="0.5958661278" flag="0"/>
      <psa30 value="0.4700082844" flag="0"/>
    </comp>
    <comp name="--.HHZ">
      <acc value="1.3339113581" flag="0"/>
      <vel value="0.6169978003" flag="0"/>
      <psa03 value="1.4867551554" flag="0"/>
      <psa10 value="0.3779163656" flag="0"/>
      <psa30 value="0.5045628583" flag="0"/>
    </comp>
  </station>
  <station code="APEC" name="APEC" netid="IV" source="INGV" insttype="" lat="43.5585" lon="12.4199">
    <comp name="--.HHE">
      <acc value="2.5875418915" flag="0"/>
      <vel value="0.1802708538" flag="0"/>
      <psa03 value="0.5619710015" flag="0"/>
      <psa10 value="0.1550982236" flag="0"/>
      <psa30 value="0.0181152679" flag="0"/>
    </comp>
    <comp name="--.HHN">
      <acc value="0.8630568788" flag="0"/>
      <vel value="0.3300891133" flag="0"/>
      <psa03 value="0.9154494406" flag="0"/>
      <psa10 value="0.5241228090" flag="0"/>
      <psa30 value="0.2602632813" flag="0"/>
    </comp>
    <comp name="--.HHZ">
      <acc value="0.8044184981" flag="0"/>
      <vel value="0.4000595771" flag="0"/>
      <psa03 value="0.9213149193" flag="0"/>
      <psa10 value="0.4467417224" flag="0"/>
      <psa30 value="0.2146041673" flag="0"/>
    </comp>
  </station>
  <station code="ARCI" name="ARCI" netid="IV" source="INGV" insttype="" lat="42.8519" lon="11.4754">
    <comp name="--.HHE">
      <acc value="0.0389107324" flag="0"/>
      <vel value="0.1313049276" flag="0"/>
      <psa03 value="0.0850386991" flag="0"/>
      <psa10 value="0.1049071714" flag="0"/>
      <psa30 value="0.0788610214" flag="0"/>
    </comp>
    <comp name="--.HHN">
      <acc value="0.0379757404" flag="0"/>
      <vel value="0.1241350509" flag="0"/>
      <psa03 value="0.0861270871" flag="0"/>
      <psa10 value="0.0986725831" flag="0"/>
      <psa30 value="0.0493709300" flag="0"/>
    </comp>
    <comp name="--.HHZ">
      <acc value="0.0277609004" flag="0"/>
      <vel value="0.0905077791" flag="0"/>
      <psa03 value="0.0432826716" flag="0"/>
      <psa10 value="0.0651536834" flag="0"/>
      <psa30 value="0.0553206009" flag="0"/>
    </comp>
  </station>
  <station code="ARVD" name="ARVD" netid="IV" source="INGV" insttype="" lat="43.4981" lon="12.9415">
    <comp name="--.HHE">
      <acc value="0.3360529502" flag="0"/>
      <vel value="0.0841402701" flag="0"/>
      <psa03 value="0.3821181753" flag="0"/>
      <psa10 value="0.0417992498" flag="0"/>
      <psa30 value="0.0096499537" flag="0"/>
    </comp>
    <comp name="--.HHN">
      <acc value="0.4482866842" flag="0"/>
      <vel value="0.1590791202" flag="0"/>
      <psa03 value="0.4786220361" flag="0"/>
      <psa10 value="0.1125655025" flag="0"/>
      <psa30 value="0.0506343944" flag="0"/>
    </comp>
    <comp name="--.HHZ">
      <acc value="0.4793234124" flag="0"/>
      <vel value="0.1350966978" flag="0"/>
      <psa03 value="0.4054171652" flag="0"/>
      <psa10 value="0.0686686689" flag="0"/>
      <psa30 value="0.0161730379" flag="0"/>
    </comp>
  </station>
  <station code="ATCC" name="ATCC" netid="IV" source="INGV" insttype="" lat="43.1851" lon="12.6399">
    <comp name="--.HNE">
      <acc value="5.0514448440" flag="0"/>
      <vel value="2.8594517741" flag="0"/>
      <psa03 value="12.2734390352" flag="0"/>
      <psa10 value="2.5530153388" flag="0"/>
      <psa30 value="0.7534041136" flag="0"/>
    </comp>
    <comp name="--.HNN">
      <acc value="4.8595089854" flag="0"/>
      <vel value="2.3541099696" flag="0"/>
      <psa03 value="6.3427479618" flag="0"/>
      <psa10 value="2.5637083261" flag="0"/>
      <psa30 value="0.6573627084" flag="0"/>
    </comp>
    <comp name="--.HNZ">
      <acc value="3.2058292544" flag="0"/>
      <vel value="1.3927175563" flag="0"/>
      <psa03 value="6.8906021158" flag="0"/>
      <psa10 value="1.1827444336" flag="0"/>
      <psa30 value="0.8931208426" flag="0"/>
    </comp>
  </station>
  <station code="ATFO" name="ATFO" netid="IV" source="INGV" insttype="" lat="43.3666" lon="12.5715">
    <comp name="--.HHE">
      <acc value="1.1249629978" flag="0"/>
      <vel value="0.6837748540" flag="0"/>
      <psa03 value="1.7348631768" flag="0"/>
      <psa10 value="1.0531575792" flag="0"/>
      <psa30 value="0.1705661928" flag="0"/>
    </comp>
    <comp name="--.HHN">
      <acc value="1.5954514084" flag="0"/>
      <vel value="0.5658064762" flag="0"/>
      <psa03 value="2.1282714112" flag="0"/>
      <psa10 value="0.6364193099" flag="0"/>
      <psa30 value="0.3094925694" flag="0"/>
    </comp>
    <comp name="--.HHZ">
      <acc value="1.4378800060" flag="0"/>
      <vel value="0.5007853461" flag="0"/>
      <psa03 value="1.4820449070" flag="0"/>
      <psa10 value="0.4744726781" flag="0"/>
      <psa30 value="0.1929389458" flag="0"/>
    </comp>
  </station>
  <station code="ATLO" name="ATLO" netid="IV" source="INGV" insttype="" lat="43.3152" lon="12.4073">
    <comp name="--.HNE">
      <acc value="0.9476007145" flag="0"/>
      <vel value="0.5044357593" flag="0"/>
      <psa03 value="1.0492256824" flag="0"/>
      <psa10 value="0.5836103254" flag="0"/>
      <psa30 value="0.2352904210" flag="0"/>
    </comp>
    <comp name="--.HNN">
      <acc value="0.9738930449" flag="0"/>
      <vel value="0.8625430870" flag="0"/>
      <psa03 value="1.1937550229" flag="0"/>
      <psa10 value="0.9028086965" flag="0"/>
      <psa30 value="0.5927179133" flag="0"/>
    </comp>
    <comp name="--.HNZ">
      <acc value="0.1207100691" flag="0"/>
      <vel value="0.1816551655" flag="0"/>
      <psa03 value="0.2360330714" flag="0"/>
      <psa10 value="0.0976365491" flag="0"/>
      <psa30 value="0.1229599281" flag="0"/>
    </comp>
  </station>
  <station code="ATPC" name="ATPC" netid="IV" source="INGV" insttype="" lat="43.4807" lon="12.457">
    <comp name="--.HHE">
      <acc value="2.8570221149" flag="0"/>
      <vel value="0.5860633499" flag="0"/>
      <psa03 value="3.1764390785" flag="0"/>
      <psa10 value="0.9694191754" flag="0"/>
      <psa30 value="0.3962336230" flag="0"/>
    </comp>
    <comp name="--.HHN">
      <acc value="2.1994918429" flag="0"/>
      <vel value="0.6353821931" flag="0"/>
      <psa03 value="3.7421137039" flag="0"/>
      <psa10 value="0.9710417218" flag="0"/>
      <psa30 value="0.3318495718" flag="0"/>
    </comp>
    <comp name="--.HHZ">
      <acc value="1.4624991092" flag="0"/>
      <vel value="0.5780698422" flag="0"/>
      <psa03 value="1.6948836932" flag="0"/>
      <psa10 value="0.6145272773" flag="0"/>
      <psa30 value="0.2997144397" flag="0"/>
    </comp>
  </station>
  <station code="ATTE" name="ATTE" netid="IV" source="INGV" insttype="" lat="43.1979" lon="12.3536">
    <comp name="--.HNE">
      <acc value="0.4003592305" flag="0"/>
      <vel value="0.6342646599" flag="0"/>
      <psa03 value="1.1988075012" flag="0"/>
      <psa10 value="0.6549492082" flag="0"/>
      <psa30 value="0.2120106459" flag="0"/>
    </comp>
    <comp name="--.HNN">
      <acc value="0.3794123553" flag="0"/>
      <vel value="0.5706668830" flag="0"/>
      <psa03 value="1.2292870099" flag="0"/>
      <psa10 value="0.8382564289" flag="0"/>
      <psa30 value="0.2295648841" flag="0"/>
    </comp>
    <comp name="--.HNZ">
      <acc value="0.2242425644" flag="0"/>
      <vel value="0.4969042865" flag="0"/>
      <psa03 value="0.5178248405" flag="0"/>
      <psa10 value="0.3567664288" flag="0"/>
      <psa30 value="0.2000939125" flag="0"/>
    </comp>
  </station>
  <station code="ATVO" name="ATVO" netid="IV" source="INGV" insttype="" lat="43.3821" lon="12.4066">
    <comp name="--.HNE">
      <acc value="0.6909016042" flag="0"/>
      <vel value="0.6983072348" flag="0"/>
      <psa03 value="2.1087622680" flag="0"/>
      <psa10 value="0.5636344504" flag="0"/>
      <psa30 value="0.4059475404" flag="0"/>
    </comp>
    <comp name="--.HNN">
      <acc value="0.4954127561" flag="0"/>
      <vel value="0.7344885881" flag="0"/>
      <psa03 value="1.5409389399" flag="0"/>
      <psa10 value="0.6709423945" flag="0"/>
      <psa30 value="0.2596727302" flag="0"/>
    </comp>
    <comp name="--.HNZ">
      <acc value="0.3747568329" flag="0"/>
      <vel value="0.6558744630" flag="0"/>
      <psa03 value="0.8857455653" flag="0"/>
      <psa10 value="0.5610773230" flag="0"/>
      <psa30 value="0.2111882521" flag="0"/>
    </comp>
  </station>
  <station code="BRIS" name="BRIS" netid="IV" source="INGV" insttype="" lat="44.2245" lon="11.7666">
    <comp name="--.HHE">
      <acc value="0.2329912245" flag="0"/>
      <vel value="0.4680721852" flag="0"/>
      <psa03 value="0.6925661783" flag="0"/>
      <psa10 value="0.4042883503" flag="0"/>
      <psa30 value="0.3300368149" flag="0"/>
    </comp>
    <comp name="--.HHN">
      <acc value="0.1833962423" flag="0"/>
      <vel value="0.3958301596" flag="0"/>
      <psa03 value="0.4222946388" flag="0"/>
      <psa10 value="0.3932489408" flag="0"/>
      <psa30 value="0.1905653467" flag="0"/>
    </comp>
    <comp name="--.HHZ">
      <acc value="0.1919744586" flag="0"/>
      <vel value="0.2870804131" flag="0"/>
      <psa03 value="0.3437019192" flag="0"/>
      <psa10 value="0.2932436738" flag="0"/>
      <psa30 value="0.1019647393" flag="0"/>
    </comp>
  </station>
  <station code="BSSO" name="BSSO" netid="IV" source="INGV" insttype="" lat="41.5461" lon="14.5938">
    <comp name="--.HHE">
      <acc value="0.0357122909" flag="0"/>
      <vel value="0.0988402644" flag="0"/>
      <psa03 value="0.0560209950" flag="0"/>
      <psa10 value="0.0709011073" flag="0"/>
      <psa30 value="0.0760641206" flag="0"/>
    </comp>
    <comp name="--.HHN">
      <acc value="0.0264470937" flag="0"/>
      <vel value="0.0811381364" flag="0"/>
      <psa03 value="0.0386572459" flag="0"/>
      <psa10 value="0.0631869997" flag="0"/>
      <psa30 value="0.0567783396" flag="0"/>
    </comp>
    <comp name="--.HHZ">
      <acc value="0.0166263186" flag="0"/>
      <vel value="0.0496479539" flag="0"/>
      <psa03 value="0.0275139772" flag="0"/>
      <psa10 value="0.0442298037" flag="0"/>
      <psa30 value="0.0509409316" flag="0"/>
    </comp>
  </station>
  <station code="CADA" name="CADA" netid="IV" source="INGV" insttype="" lat="43.1942" lon="13.7614">
    <comp name="--.HNE">
      <acc value="2.6126164038" flag="0"/>
      <vel value="4.0074045147" flag="0"/>
      <psa03 value="10.1509604561" flag="0"/>
      <psa10 value="4.4242076554" flag="0"/>
      <psa30 value="3.3467753253" flag="0"/>
    </comp>
    <comp name="--.HNN">
      <acc value="2.5396359948" flag="0"/>
      <vel value="3.1188884264" flag="0"/>
      <psa03 value="5.6105324210" flag="0"/>
      <psa10 value="4.1506851359" flag="0"/>
      <psa30 value="1.3539319774" flag="0"/>
    </comp>
    <comp name="--.HNZ">
      <acc value="1.6246217418" flag="0"/>
      <vel value="2.1280710057" flag="0"/>
      <psa03 value="2.9754124737" flag="0"/>
      <psa10 value="2.0472168362" flag="0"/>
      <psa30 value="2.0322507457" flag="0"/>
    </comp>
  </station>
  <station code="CAFI" name="CAFI" netid="IV" source="INGV" insttype="" lat="43.3292" lon="11.9663">
    <comp name="--.HNE">
      <acc value="0.3004221680" flag="0"/>
      <vel value="0.3908402272" flag="0"/>
      <psa03 value="0.7476885919" flag="0"/>
      <psa10 value="0.3990646934" flag="0"/>
      <psa30 value="0.1078250187" flag="0"/>
    </comp>
    <comp name="--.HNN">
      <acc value="0.3748454944" flag="0"/>
      <vel value="0.5062128126" flag="0"/>
      <psa03 value="0.6279816939" flag="0"/>
      <psa10 value="0.6137803749" flag="0"/>
      <psa30 value="0.0996417864" flag="0"/>
    </comp>
    <comp name="--.HNZ">
      <acc value="0.3593669649" flag="0"/>
      <vel value="0.4762612509" flag="0"/>
      <psa03 value="0.6995188765" flag="0"/>
      <psa10 value="0.4640727781" flag="0"/>
      <psa30 value="0.1198547176" flag="0"/>
    </comp>
  </station>
  <station code="CAFR" name="CAFR" netid="IV" source="INGV" insttype="" lat="42.2273" lon="14.347">
    <comp name="--.HHE">
      <acc value="0.2473261126" flag="0"/>
      <vel value="0.2233832523" flag="0"/>
      <psa03 value="0.6476855935" flag="0"/>
      <psa10 value="0.4489361385" flag="0"/>
      <psa30 value="0.0282665436" flag="0"/>
    </comp>
    <comp name="--.HHN">
      <acc value="0.2343343480" flag="0"/>
      <vel value="0.2282995318" flag="0"/>
      <psa03 value="1.0161269542" flag="0"/>
      <psa10 value="0.4555321847" flag="0"/>
      <psa30 value="0.0506594630" flag="0"/>
    </comp>
    <comp name="--.HHZ">
      <acc value="0.2102366540" flag="0"/>
      <vel value="0.2102950114" flag="0"/>
      <psa03 value="0.8132218352" flag="0"/>
      <psa10 value="0.4560033480" flag="0"/>
      <psa30 value="0.0322276243" flag="0"/>
    </comp>
  </station>
  <station code="CAMP" name="CAMP" netid="IV" source="INGV" insttype="" lat="42.5358" lon="13.409">
    <comp name="--.HHE">
      <acc value="1.1679206605" flag="0"/>
      <vel value="1.2463909286" flag="0"/>
      <psa03 value="1.9936482960" flag="0"/>
      <psa10 value="1.5337611711" flag="0"/>
      <psa30 value="0.6504433275" flag="0"/>
    </comp>
    <comp name="--.HHN">
      <acc value="1.3280277617" flag="0"/>
      <vel value="1.0046363287" flag="0"/>
      <psa03 value="2.5855682937" flag="0"/>
      <psa10 value="1.0758440191" flag="0"/>
      <psa30 value="0.6029766426" flag="0"/>
    </comp>
    <comp name="--.HHZ">
      <acc value="0.8313138782" flag="0"/>
      <vel value="0.8108043028" flag="0"/>
      <psa03 value="2.4091700289" flag="0"/>
      <psa10 value="0.7792470176" flag="0"/>
      <psa30 value="0.4633025313" flag="0"/>
    </comp>
  </station>
  <station code="CASP" name="CASP" netid="IV" source="INGV" insttype="" lat="42.7908" lon="10.8652">
    <comp name="--.HHE">
      <acc value="0.0195995738" flag="0"/>
      <vel value="0.0722964572" flag="0"/>
      <psa03 value="0.0294369334" flag="0"/>
      <psa10 value="0.0620671630" flag="0"/>
      <psa30 value="0.0548945254" flag="0"/>
    </comp>
    <comp name="--.HHN">
      <acc value="0.0228420600" flag="0"/>
      <vel value="0.0616305664" flag="0"/>
      <psa03 value="0.0407044088" flag="0"/>
      <psa10 value="0.0296949440" flag="0"/>
      <psa30 value="0.0306486003" flag="0"/>
    </comp>
    <comp name="--.HHZ">
      <acc value="0.0120657782" flag="0"/>
      <vel value="0.0526829209" flag="0"/>
      <psa03 value="0.0286083480" flag="0"/>
      <psa10 value="0.0308566920" flag="0"/>
      <psa30 value="0.0297140804" flag="0"/>
    </comp>
  </station>
  <station code="CERA" name="CERA" netid="IV" source="INGV" insttype="" lat="41.5978" lon="14.0183">
    <comp name="--.HNE">
      <acc value="0.1281734747" flag="0"/>
      <vel value="0.3438393616" flag="0"/>
      <psa03 value="0.3187415428" flag="0"/>
      <psa10 value="0.4136718039" flag="0"/>
      <psa30 value="0.2947908397" flag="0"/>
    </comp>
    <comp name="--.HNN">
      <acc value="0.1818771252" flag="0"/>
      <vel value="0.3191329662" flag="0"/>
      <psa03 value="0.3600320529" flag="0"/>
      <psa10 value="0.3379363450" flag="0"/>
      <psa30 value="0.1817291855" flag="0"/>
    </comp>
    <comp name="--.HNZ">
      <acc value="0.1245269818" flag="0"/>
      <vel value="0.2189520105" flag="0"/>
      <psa03 value="0.1741146781" flag="0"/>
      <psa10 value="0.3023079285" flag="0"/>
      <psa30 value="0.2108209976" flag="0"/>
    </comp>
  </station>
  <station code="CERT" name="CERT" netid="IV" source="INGV" insttype="" lat="41.949" lon="12.9818">
    <comp name="--.HHE">
      <acc value="0.3963406623" flag="0"/>
      <vel value="0.4128006606" flag="0"/>
      <psa03 value="0.9263686529" flag="0"/>
      <psa10 value="0.3821984451" flag="0"/>
      <psa30 value="0.2058647907" flag="0"/>
    </comp>
    <comp name="--.HHN">
      <acc value="0.2106819574" flag="0"/>
      <vel value="0.3553886769" flag="0"/>
      <psa03 value="0.6163588705" flag="0"/>
      <psa10 value="0.3044467170" flag="0"/>
      <psa30 value="0.2566687064" flag="0"/>
    </comp>
    <comp name="--.HHZ">
      <acc value="0.1224335798" flag="0"/>
      <vel value="0.2961459538" flag="0"/>
      <psa03 value="0.3586703552" flag="0"/>
      <psa10 value="0.2663075768" flag="0"/>
      <psa30 value="0.2058347190" flag="0"/>
    </comp>
  </station>
  <station code="CESI" name="CESI" netid="IV" source="INGV" insttype="" lat="43.0049" lon="12.9046">
    <comp name="--.HHE">
      <acc value="0.7002059695" flag="0"/>
      <vel value="0.2248592366" flag="0"/>
      <psa03 value="1.4255261262" flag="0"/>
      <psa10 value="0.1314211451" flag="0"/>
      <psa30 value="0.0157748986" flag="0"/>
    </comp>
    <comp name="--.HHN">
      <acc value="0.6686341681" flag="0"/>
      <vel value="0.2642104359" flag="0"/>
      <psa03 value="0.6342880428" flag="0"/>
      <psa10 value="0.1491628123" flag="0"/>
      <psa30 value="0.0254305566" flag="0"/>
    </comp>
    <comp name="--.HHZ">
      <acc value="2.3377356502" flag="0"/>
      <vel value="0.5636891958" flag="0"/>
      <psa03 value="1.2445159198" flag="0"/>
      <psa10 value="0.3424610084" flag="0"/>
      <psa30 value="0.0275127866" flag="0"/>
    </comp>
  </station>
  <station code="CESX" name="CESX" netid="IV" source="INGV" insttype="" lat="42.6085" lon="12.5868">
    <comp name="--.HHE">
      <acc value="0.6601107450" flag="0"/>
      <vel value="1.0675362571" flag="0"/>
      <psa03 value="1.4969902883" flag="0"/>
      <psa10 value="1.0995984760" flag="0"/>
      <psa30 value="0.5582017731" flag="0"/>
    </comp>
    <comp name="--.HHN">
      <acc value="0.9594239440" flag="0"/>
      <vel value="0.9254928524" flag="0"/>
      <psa03 value="1.9820166900" flag="0"/>
      <psa10 value="1.0107353408" flag="0"/>
      <psa30 value="0.6703828641" flag="0"/>
    </comp>
    <comp name="--.HHZ">
      <acc value="0.3624855221" flag="0"/>
      <vel value="0.8063595417" flag="0"/>
      <psa03 value="0.9220364643" flag="0"/>
      <psa10 value="0.5092443209" flag="0"/>
      <psa30 value="0.5262668905" flag="0"/>
    </comp>
  </station>
  <station code="CIGN" name="CIGN" netid="IV" source="INGV" insttype="" lat="41.6542" lon="14.905">
    <comp name="--.HHE">
      <acc value="0.0962424231" flag="0"/>
      <vel value="0.1979522186" flag="0"/>
      <psa03 value="0.1288135639" flag="0"/>
      <psa10 value="0.2060472376" flag="0"/>
      <psa30 value="0.1232854255" flag="0"/>
    </comp>
    <comp name="--.HHN">
      <acc value="0.0713026094" flag="0"/>
      <vel value="0.1530035027" flag="0"/>
      <psa03 value="0.1118942464" flag="0"/>
      <psa10 value="0.2500439224" flag="0"/>
      <psa30 value="0.0711803396" flag="0"/>
    </comp>
    <comp name="--.HHZ">
      <acc value="0.0664222980" flag="0"/>
      <vel value="0.1721562462" flag="0"/>
      <psa03 value="0.1044516342" flag="0"/>
      <psa10 value="0.2020605793" flag="0"/>
      <psa30 value="0.0787401313" flag="0"/>
    </comp>
  </station>
  <station code="CIMA" name="CIMA" netid="IV" source="INGV" insttype="" lat="43.3053" lon="13.6701">
    <comp name="--.HNE">
      <acc value="1.6269511893" flag="0"/>
      <vel value="5.5377073147" flag="0"/>
      <psa03 value="3.7990776046" flag="0"/>
      <psa10 value="3.5983358560" flag="0"/>
