<?xml version="1.0" encoding="UTF-8" standalone="yes"?>
<!DOCTYPE earthquake SYSTEM "stationlist.dtd">
<stationlist created="" xmlns="ch.ethz.sed.shakemap.usgs.xml">
  <station code="OSTC" name="OSTC" netid="CZ" insttype="" lat="50.5565" lon="16.2156">
    <comp name="--.HHE">
      <acc value="0.0132602333" flag="0"/>
      <vel value="0.0055369407" flag="0"/>
      <psa03 value="0.0223895174" flag="0"/>
      <psa10 value="0.0103371701" flag="0"/>
      <psa30 value="0.0010195176" flag="0"/>
    </comp>
    <comp name="--.HHN">
      <acc value="0.0150008080" flag="0"/>
      <vel value="0.0151526168" flag="0"/>
      <psa03 value="0.0237351273" flag="0"/>
      <psa10 value="0.0203908852" flag="0"/>
      <psa30 value="0.0011943570" flag="0"/>
    </comp>
    <comp name="--.HHZ">
      <acc value="0.0103587544" flag="0"/>
      <vel value="0.0092777787" flag="0"/>
      <psa03 value="0.0182121937" flag="0"/>
      <psa10 value="0.0108787792" flag="0"/>
      <psa30 value="0.0018653313" flag="0"/>
    </comp>
  </station>
  <station code="UPC" name="UPC" netid="CZ" insttype="" lat="50.5074" lon="16.0121">
    <comp name="--.HHE">
      <acc value="0.0045849717" flag="0"/>
      <vel value="0.0015015107" flag="0"/>
      <psa03 value="0.0051904903" flag="0"/>
      <psa10 value="0.0007093663" flag="0"/>
      <psa30 value="0.0001295968" flag="0"/>
    </comp>
  </station>
</stationlist>
