<?xml version="1.0" encoding="UTF-8" standalone="yes"?>
<!DOCTYPE earthquake SYSTEM "stationlist.dtd">
<stationlist created="" xmlns="ch.ethz.sed.shakemap.usgs.xml">
  <station code="KARP" name="KARP" netid="GE" insttype="STS-2/N" lat="35.5471" lon="27.1611">
    <comp name="--.HHZ">
      <acc value="0.2625524668" flag="0"/>
      <vel value="0.0507748956" flag="0"/>
      <psa03 value="0.1534773330" flag="0"/>
      <psa10 value="0.0173232734" flag="0"/>
      <psa30 value="0.0011429717" flag="0"/>
    </comp>
    <comp name="--.HHE">
      <acc value="0.3582920535" flag="0"/>
      <vel value="0.0733741877" flag="0"/>
      <psa03 value="0.2448939234" flag="0"/>
      <psa10 value="0.0273173486" flag="0"/>
      <psa30 value="0.0019657333" flag="0"/>
    </comp>
    <comp name="--.HHN">
      <acc value="0.3325143815" flag="0"/>
      <vel value="0.0657737277" flag="0"/>
      <psa03 value="0.3342931502" flag="0"/>
      <psa10 value="0.0390105338" flag="0"/>
      <psa30 value="0.0019778772" flag="0"/>
    </comp>
  </station>
</stationlist>
