<?xml version="1.0" encoding="UTF-8" standalone="yes"?>
<!DOCTYPE earthquake SYSTEM "stationlist.dtd">
<stationlist created="" xmlns="ch.ethz.sed.shakemap.usgs.xml">
  <station code="EVR" name="EVR" netid="HL" insttype="DR24" lat="38.9166" lon="21.8105">
    <comp name="--.HHN">
      <acc value="0.0095245801" flag="0"/>
      <vel value="0.0043248789" flag="0"/>
      <psa03 value="0.0244533092" flag="0"/>
      <psa10 value="0.0042505596" flag="0"/>
      <psa30 value="0.0007397734" flag="0"/>
    </comp>
    <comp name="--.HHE">
      <acc value="0.0091546880" flag="0"/>
      <vel value="0.0039928626" flag="0"/>
      <psa03 value="0.0161016994" flag="0"/>
      <psa10 value="0.0057474185" flag="0"/>
      <psa30 value="0.0003645443" flag="0"/>
    </comp>
    <comp name="--.HHZ">
      <acc value="0.0063787261" flag="0"/>
      <vel value="0.0035818438" flag="0"/>
      <psa03 value="0.0154282541" flag="0"/>
      <psa10 value="0.0040317678" flag="0"/>
      <psa30 value="0.0002602993" flag="0"/>
    </comp>
  </station>
  <station code="KZN" name="KZN" netid="HL" insttype="120" lat="40.3033" lon="21.7821">
    <comp name="--.HHE">
      <acc value="0.0596974273" flag="0"/>
      <vel value="0.0391001091" flag="0"/>
      <psa03 value="0.1715343760" flag="0"/>
      <psa10 value="0.0222097816" flag="0"/>
      <psa30 value="0.0015017273" flag="0"/>
    </comp>
    <comp name="--.HHZ">
      <acc value="0.0171412222" flag="0"/>
      <vel value="0.0082562798" flag="0"/>
      <psa03 value="0.0577911193" flag="0"/>
      <psa10 value="0.0073810853" flag="0"/>
      <psa30 value="0.0005766199" flag="0"/>
    </comp>
    <comp name="--.HHN">
      <acc value="0.0271090658" flag="0"/>
      <vel value="0.0148196266" flag="0"/>
      <psa03 value="0.1241110625" flag="0"/>
      <psa10 value="0.0062051162" flag="0"/>
      <psa30 value="0.0005638024" flag="0"/>
    </comp>
  </station>
  <station code="PENT" name="PENT" netid="HL" insttype="30" lat="40.1959" lon="21.1384">
    <comp name="--.HHN">
      <acc value="0.0003956885" flag="0"/>
      <vel value="0.0003204619" flag="0"/>
      <psa03 value="0.0011323092" flag="0"/>
      <psa10 value="0.0002353194" flag="0"/>
      <psa30 value="0.0001457192" flag="0"/>
    </comp>
    <comp name="--.HHZ">
      <acc value="0.0048632143" flag="0"/>
      <vel value="0.0026543900" flag="0"/>
      <psa03 value="0.0159782827" flag="0"/>
      <psa10 value="0.0021304635" flag="0"/>
      <psa30 value="0.0003060176" flag="0"/>
    </comp>
    <comp name="--.HHE">
      <acc value="0.0056301380" flag="0"/>
      <vel value="0.0026570222" flag="0"/>
      <psa03 value="0.0120396756" flag="0"/>
      <psa10 value="0.0030965142" flag="0"/>
      <psa30 value="0.0002283405" flag="0"/>
    </comp>
  </station>
  <station code="TETR" name="TETR" netid="HL" insttype="60" lat="39.3445" lon="21.2747">
    <comp name="--.HHN">
      <acc value="0.0822210989" flag="0"/>
      <vel value="0.0313216671" flag="0"/>
      <psa03 value="0.1710897193" flag="0"/>
      <psa10 value="0.0188977288" flag="0"/>
      <psa30 value="0.0012522519" flag="0"/>
    </comp>
    <comp name="--.HHZ">
      <acc value="0.0327340808" flag="0"/>
      <vel value="0.0134569497" flag="0"/>
      <psa03 value="0.1466192307" flag="0"/>
      <psa10 value="0.0071274047" flag="0"/>
      <psa30 value="0.0004383301" flag="0"/>
    </comp>
    <comp name="--.HHE">
      <acc value="0.1001082935" flag="0"/>
      <vel value="0.0477628823" flag="0"/>
      <psa03 value="0.2672996572" flag="0"/>
      <psa10 value="0.0197992434" flag="0"/>
      <psa30 value="0.0011916878" flag="0"/>
    </comp>
  </station>
  <station code="THL" name="THL" netid="HL" insttype="120" lat="39.5647" lon="22.0144">
    <comp name="--.HHE">
      <acc value="0.2601516519" flag="0"/>
      <vel value="0.0845823437" flag="0"/>
      <psa03 value="0.1896572907" flag="0"/>
      <psa10 value="0.0550567360" flag="0"/>
      <psa30 value="0.0035637614" flag="0"/>
    </comp>
    <comp name="--.HHZ">
      <acc value="0.4455711609" flag="0"/>
      <vel value="0.1081075320" flag="0"/>
      <psa03 value="0.2524142798" flag="0"/>
      <psa10 value="0.0348386282" flag="0"/>
      <psa30 value="0.0022263290" flag="0"/>
    </comp>
    <comp name="--.HHN">
      <acc value="0.3438995949" flag="0"/>
      <vel value="0.0700147931" flag="0"/>
      <psa03 value="0.1243902280" flag="0"/>
      <psa10 value="0.0328712390" flag="0"/>
      <psa30 value="0.0019982249" flag="0"/>
    </comp>
  </station>
  <station code="PRMD" name="PRMD" netid="HP" insttype="120P," lat="39.5299" lon="21.0965">
    <comp name="--.HHN">
      <acc value="0.0276532600" flag="0"/>
      <vel value="0.0143085872" flag="0"/>
      <psa03 value="0.1397370847" flag="0"/>
      <psa10 value="0.0112818394" flag="0"/>
      <psa30 value="0.0007000965" flag="0"/>
    </comp>
    <comp name="--.HHE">
      <acc value="0.0274425733" flag="0"/>
      <vel value="0.0128555415" flag="0"/>
      <psa03 value="0.0900172439" flag="0"/>
      <psa10 value="0.0090550431" flag="0"/>
      <psa30 value="0.0005804251" flag="0"/>
    </comp>
    <comp name="--.HHZ">
      <acc value="0.0216147993" flag="0"/>
      <vel value="0.0108887727" flag="0"/>
      <psa03 value="0.0879907687" flag="0"/>
      <psa10 value="0.0053330152" flag="0"/>
      <psa30 value="0.0002822371" flag="0"/>
    </comp>
  </station>
  <station code="KPRO" name="KPRO" netid="HT" insttype="100" lat="39.9549" lon="21.3632">
    <comp name="--.HHE">
      <acc value="0.0269026794" flag="0"/>
      <vel value="0.0117028657" flag="0"/>
      <psa03 value="0.0791315793" flag="0"/>
      <psa10 value="0.0093980142" flag="0"/>
      <psa30 value="0.0005858891" flag="0"/>
    </comp>
    <comp name="--.HHN">
      <acc value="0.0203405009" flag="0"/>
      <vel value="0.0094016454" flag="0"/>
      <psa03 value="0.0597732144" flag="0"/>
      <psa10 value="0.0097216480" flag="0"/>
      <psa30 value="0.0005463419" flag="0"/>
    </comp>
    <comp name="--.HHZ">
      <acc value="0.0183041478" flag="0"/>
      <vel value="0.0095155581" flag="0"/>
      <psa03 value="0.0460126650" flag="0"/>
      <psa10 value="0.0084338937" flag="0"/>
      <psa30 value="0.0006745026" flag="0"/>
    </comp>
  </station>
  <station code="LIT" name="LIT" netid="HT" insttype="100" lat="40.1033" lon="22.4892">
    <comp name="--.HHZ">
      <acc value="0.0254363380" flag="0"/>
      <vel value="0.0142894911" flag="0"/>
      <psa03 value="0.1101773221" flag="0"/>
      <psa10 value="0.0096088996" flag="0"/>
      <psa30 value="0.0005493752" flag="0"/>
    </comp>
    <comp name="--.HHE">
      <acc value="0.0504068757" flag="0"/>
      <vel value="0.0246877246" flag="0"/>
      <psa03 value="0.1316645051" flag="0"/>
      <psa10 value="0.0115328578" flag="0"/>
      <psa30 value="0.0009373562" flag="0"/>
    </comp>
    <comp name="--.HHN">
      <acc value="0.0546613584" flag="0"/>
      <vel value="0.0273187639" flag="0"/>
      <psa03 value="0.1216363165" flag="0"/>
      <psa10 value="0.0165652710" flag="0"/>
      <psa30 value="0.0013686609" flag="0"/>
    </comp>
  </station>
  <station code="THL" name="THL" netid="MN" insttype="" lat="39.5647" lon="22.0144">
    <comp name="--.HHE">
      <acc value="0.2601516516" flag="0"/>
      <vel value="0.0845823436" flag="0"/>
      <psa03 value="0.1896572907" flag="0"/>
      <psa10 value="0.0550567364" flag="0"/>
      <psa30 value="0.0035638660" flag="0"/>
    </comp>
    <comp name="--.HHZ">
      <acc value="0.4455711611" flag="0"/>
      <vel value="0.1081075321" flag="0"/>
      <psa03 value="0.2524142798" flag="0"/>
      <psa10 value="0.0348386292" flag="0"/>
      <psa30 value="0.0022263569" flag="0"/>
    </comp>
    <comp name="--.HHN">
      <acc value="0.3438995948" flag="0"/>
      <vel value="0.0700147931" flag="0"/>
      <psa03 value="0.1243902280" flag="0"/>
      <psa10 value="0.0328712384" flag="0"/>
      <psa30 value="0.0019982498" flag="0"/>
    </comp>
  </station>
</stationlist>
