<?xml version="1.0" encoding="UTF-8" standalone="yes"?>
<!DOCTYPE earthquake SYSTEM "stationlist.dtd">
<stationlist created="" xmlns="ch.ethz.sed.shakemap.usgs.xml">
  <station code="THERA" name="THERA" netid="GE" insttype="STS-2/N" lat="36.367" lon="25.4753">
    <comp name="--.HHZ">
      <acc value="0.2602649121" flag="0"/>
      <vel value="0.0446630544" flag="0"/>
      <psa03 value="0.2268361739" flag="0"/>
      <psa10 value="0.0249662142" flag="0"/>
      <psa30 value="0.0041304827" flag="0"/>
    </comp>
    <comp name="--.HHE">
      <acc value="0.3186894979" flag="0"/>
      <vel value="0.0826869357" flag="0"/>
      <psa03 value="0.4814757063" flag="0"/>
      <psa10 value="0.0268982150" flag="0"/>
      <psa30 value="0.0038219642" flag="0"/>
    </comp>
    <comp name="--.HHN">
      <acc value="0.1989151899" flag="0"/>
      <vel value="0.0442502138" flag="0"/>
      <psa03 value="0.2531967340" flag="0"/>
      <psa10 value="0.0296596942" flag="0"/>
      <psa30 value="0.0016058846" flag="0"/>
    </comp>
  </station>
  <station code="SNT1" name="SNT1" netid="HA" insttype="30" lat="36.4159" lon="25.4282">
    <comp name="--.HHE">
      <acc value="0.2461358036" flag="0"/>
      <vel value="0.0781436211" flag="0"/>
      <psa03 value="0.2597137010" flag="0"/>
      <psa10 value="0.0703122786" flag="0"/>
      <psa30 value="0.0100382335" flag="0"/>
    </comp>
    <comp name="--.HHN">
      <acc value="0.2652320937" flag="0"/>
      <vel value="0.1147208573" flag="0"/>
      <psa03 value="0.4809305135" flag="0"/>
      <psa10 value="0.0675301940" flag="0"/>
      <psa30 value="0.0053519878" flag="0"/>
    </comp>
    <comp name="--.HHZ">
      <acc value="0.1907713849" flag="0"/>
      <vel value="0.0701232630" flag="0"/>
      <psa03 value="0.2985628665" flag="0"/>
      <psa10 value="0.0525560736" flag="0"/>
      <psa30 value="0.0036359281" flag="0"/>
    </comp>
  </station>
  <station code="MHLO" name="MHLO" netid="HL" insttype="20" lat="36.6898" lon="24.4017">
    <comp name="--.HHZ">
      <acc value="0.1128751952" flag="0"/>
      <vel value="0.0702203916" flag="0"/>
      <psa03 value="0.4703444814" flag="0"/>
      <psa10 value="0.0688401865" flag="0"/>
      <psa30 value="0.0048850667" flag="0"/>
    </comp>
    <comp name="--.HHN">
      <acc value="0.1957440627" flag="0"/>
      <vel value="0.0989998804" flag="0"/>
      <psa03 value="0.6376476276" flag="0"/>
      <psa10 value="0.1448434282" flag="0"/>
      <psa30 value="0.0064117322" flag="0"/>
    </comp>
    <comp name="--.HHE">
      <acc value="0.3726861714" flag="0"/>
      <vel value="0.1594412878" flag="0"/>
      <psa03 value="0.8829923593" flag="0"/>
      <psa10 value="0.1362691151" flag="0"/>
      <psa30 value="0.0070795012" flag="0"/>
    </comp>
  </station>
  <station code="NISR" name="NISR" netid="HL" insttype="65535" lat="36.6106" lon="27.131">
    <comp name="--.HHE">
      <acc value="0.0000000000" flag="0"/>
      <vel value="-100.0000000000" flag="0"/>
      <psa03 value="0.0000000000" flag="0"/>
      <psa10 value="0.0000000000" flag="0"/>
      <psa30 value="0.0000000000" flag="0"/>
    </comp>
    <comp name="--.HHN">
      <acc value="0.0532699020" flag="0"/>
      <vel value="0.0239254036" flag="0"/>
      <psa03 value="0.1356143644" flag="0"/>
      <psa10 value="0.0190060725" flag="0"/>
      <psa30 value="0.0053860918" flag="0"/>
    </comp>
    <comp name="--.HHZ">
      <acc value="0.0269312906" flag="0"/>
      <vel value="0.0139151184" flag="0"/>
      <psa03 value="0.0868001516" flag="0"/>
      <psa10 value="0.0149746827" flag="0"/>
      <psa30 value="0.0012014510" flag="0"/>
    </comp>
  </station>
  <station code="NISR2" name="NISR2" netid="HL" insttype="120" lat="36.5744" lon="27.1767">
    <comp name="--.HHE">
      <acc value="0.0630465337" flag="0"/>
      <vel value="0.0435430640" flag="0"/>
      <psa03 value="0.2031899796" flag="0"/>
      <psa10 value="0.0564222598" flag="0"/>
      <psa30 value="0.0043321831" flag="0"/>
    </comp>
    <comp name="--.HHZ">
      <acc value="0.0306498825" flag="0"/>
      <vel value="0.0158139434" flag="0"/>
      <psa03 value="0.0729898405" flag="0"/>
      <psa10 value="0.0171140488" flag="0"/>
      <psa30 value="0.0021380304" flag="0"/>
    </comp>
    <comp name="--.HHN">
      <acc value="0.0670965834" flag="0"/>
      <vel value="0.0477812911" flag="0"/>
      <psa03 value="0.2527684195" flag="0"/>
      <psa10 value="0.0781480657" flag="0"/>
      <psa30 value="0.0052141260" flag="0"/>
    </comp>
  </station>
  <station code="SAP3" name="SAP3" netid="HL" insttype="LE3D20_SMART24" lat="36.4356" lon="25.3454">
    <comp name="--.HHE">
      <acc value="0.8476491228" flag="0"/>
      <vel value="0.3473080834" flag="0"/>
      <psa03 value="2.1869932156" flag="0"/>
      <psa10 value="0.2369130802" flag="0"/>
      <psa30 value="0.0352649446" flag="0"/>
    </comp>
    <comp name="--.HHZ">
      <acc value="0.8878053286" flag="0"/>
      <vel value="0.2797295979" flag="0"/>
      <psa03 value="1.1030070832" flag="0"/>
      <psa10 value="0.1275100004" flag="0"/>
      <psa30 value="0.0147019024" flag="0"/>
    </comp>
    <comp name="--.HHN">
      <acc value="1.0832992514" flag="0"/>
      <vel value="0.3088025338" flag="0"/>
      <psa03 value="2.0027992572" flag="0"/>
      <psa10 value="0.2611106737" flag="0"/>
      <psa30 value="0.0334145915" flag="0"/>
    </comp>
  </station>
  <station code="THERA" name="THERA" netid="HL" insttype="120" lat="36.367" lon="25.4753">
    <comp name="--.HHN">
      <acc value="0.2004355403" flag="0"/>
      <vel value="0.0426652485" flag="0"/>
      <psa03 value="0.2455936617" flag="0"/>
      <psa10 value="0.0294715226" flag="0"/>
      <psa30 value="0.0015973413" flag="0"/>
    </comp>
    <comp name="--.HHE">
      <acc value="0.3134046102" flag="0"/>
      <vel value="0.0804690250" flag="0"/>
      <psa03 value="0.4680916683" flag="0"/>
      <psa10 value="0.0264806208" flag="0"/>
      <psa30 value="0.0038269512" flag="0"/>
    </comp>
    <comp name="--.HHZ">
      <acc value="0.2633246293" flag="0"/>
      <vel value="0.0436152059" flag="0"/>
      <psa03 value="0.2211504271" flag="0"/>
      <psa10 value="0.0248625038" flag="0"/>
      <psa30 value="0.0041309853" flag="0"/>
    </comp>
  </station>
  <station code="THRA" name="THRA" netid="HL" insttype="CMG-5" lat="36.415" lon="25.4324">
    <comp name="00.HNE">
      <acc value="0.6897946015" flag="0"/>
      <vel value="0.3193636597" flag="0"/>
      <psa03 value="1.7816982516" flag="0"/>
      <psa10 value="0.1767635435" flag="0"/>
      <psa30 value="0.0215467982" flag="0"/>
    </comp>
    <comp name="00.HNN">
      <acc value="0.6717548129" flag="0"/>
      <vel value="0.2864575275" flag="0"/>
      <psa03 value="1.7066697069" flag="0"/>
      <psa10 value="0.1925762426" flag="0"/>
      <psa30 value="0.0125687956" flag="0"/>
    </comp>
    <comp name="00.HNZ">
      <acc value="0.5463213468" flag="0"/>
      <vel value="0.2018050736" flag="0"/>
      <psa03 value="0.9479662796" flag="0"/>
      <psa10 value="0.1702224842" flag="0"/>
      <psa30 value="0.0088076806" flag="0"/>
    </comp>
  </station>
  <station code="CMBO" name="CMBO" netid="HT" insttype="120P," lat="36.4709" lon="25.4056">
    <comp name="--.HHE">
      <acc value="1.4401150925" flag="0"/>
      <vel value="0.4217487002" flag="0"/>
      <psa03 value="2.0517425849" flag="0"/>
      <psa10 value="0.2916994062" flag="0"/>
      <psa30 value="0.0229216853" flag="0"/>
    </comp>
    <comp name="--.HHN">
      <acc value="1.7484109730" flag="0"/>
      <vel value="0.7850550670" flag="0"/>
      <psa03 value="1.8779656445" flag="0"/>
      <psa10 value="0.4917226950" flag="0"/>
      <psa30 value="0.0304577083" flag="0"/>
    </comp>
    <comp name="--.HHZ">
      <acc value="1.4139251188" flag="0"/>
      <vel value="0.3392860311" flag="0"/>
      <psa03 value="1.8918892391" flag="0"/>
      <psa10 value="0.1556605436" flag="0"/>
      <psa30 value="0.0158815258" flag="0"/>
    </comp>
  </station>
</stationlist>
