<?xml version="1.0" encoding="UTF-8" standalone="yes"?>
<!DOCTYPE earthquake SYSTEM "stationlist.dtd">
<stationlist created="" xmlns="ch.ethz.sed.shakemap.usgs.xml">
  <station code="ARPRA" name="ARPRA" netid="KO" insttype="CMG-5T" lat="39.0929" lon="38.3356">
    <comp name="--.HNN">
      <acc value="0.1274914866" flag="0"/>
      <vel value="0.0538630376" flag="0"/>
      <psa03 value="0.4760703166" flag="0"/>
      <psa10 value="0.0419273071" flag="0"/>
      <psa30 value="0.0030056707" flag="0"/>
    </comp>
    <comp name="--.HNE">
      <acc value="0.1707560075" flag="0"/>
      <vel value="0.0608679314" flag="0"/>
      <psa03 value="0.2509474385" flag="0"/>
      <psa10 value="0.0427206431" flag="0"/>
      <psa30 value="0.0026427977" flag="0"/>
    </comp>
    <comp name="--.HNZ">
      <acc value="0.0853495212" flag="0"/>
      <vel value="0.0323973608" flag="0"/>
      <psa03 value="0.2186900584" flag="0"/>
      <psa10 value="0.0454097976" flag="0"/>
      <psa30 value="0.0018530217" flag="0"/>
    </comp>
  </station>
  <station code="DARE" name="DARE" netid="KO" insttype="CMG-3ESP" lat="38.5712" lon="37.4832">
    <comp name="--.HHE">
      <acc value="0.0135274046" flag="0"/>
      <vel value="0.0050462182" flag="0"/>
      <psa03 value="0.0121308677" flag="0"/>
      <psa10 value="0.0046157255" flag="0"/>
      <psa30 value="0.0002366130" flag="0"/>
    </comp>
    <comp name="--.HHN">
      <acc value="0.0122928877" flag="0"/>
      <vel value="0.0034587456" flag="0"/>
      <psa03 value="0.0169999890" flag="0"/>
      <psa10 value="0.0053552495" flag="0"/>
      <psa30 value="0.0004646048" flag="0"/>
    </comp>
    <comp name="--.HHZ">
      <acc value="0.0091595258" flag="0"/>
      <vel value="0.0033964901" flag="0"/>
      <psa03 value="0.0142584318" flag="0"/>
      <psa10 value="0.0041073659" flag="0"/>
      <psa30 value="0.0002558156" flag="0"/>
    </comp>
  </station>
</stationlist>
