<?xml version="1.0" encoding="UTF-8" standalone="yes"?>
<!DOCTYPE earthquake SYSTEM "stationlist.dtd">
<stationlist created="" xmlns="ch.ethz.sed.shakemap.usgs.xml">
  <station code="ARPRA" name="ARPRA" netid="KO" insttype="CMG-5T" lat="39.0929" lon="38.3356">
    <comp name="--.HNE">
      <acc value="0.0188959827" flag="0"/>
      <vel value="0.0088445661" flag="0"/>
      <psa03 value="0.0488303804" flag="0"/>
      <psa10 value="0.0088534072" flag="0"/>
      <psa30 value="0.0004468834" flag="0"/>
    </comp>
    <comp name="--.HNZ">
      <acc value="0.0096049551" flag="0"/>
      <vel value="0.0044493526" flag="0"/>
      <psa03 value="0.0255351519" flag="0"/>
      <psa10 value="0.0064004072" flag="0"/>
      <psa30 value="0.0003137624" flag="0"/>
    </comp>
    <comp name="--.HNN">
      <acc value="0.0224057424" flag="0"/>
      <vel value="0.0132973640" flag="0"/>
      <psa03 value="0.1020242878" flag="0"/>
      <psa10 value="0.0085379442" flag="0"/>
      <psa30 value="0.0005751564" flag="0"/>
    </comp>
  </station>
  <station code="GAZ" name="GAZ" netid="KO" insttype="CMG-3T" lat="37.1721" lon="37.2096">
    <comp name="--.HHZ">
      <acc value="0.0161827106" flag="0"/>
      <vel value="0.0065223649" flag="0"/>
      <psa03 value="0.0273440128" flag="0"/>
      <psa10 value="0.0034663037" flag="0"/>
      <psa30 value="0.0003983550" flag="0"/>
    </comp>
  </station>
  <station code="URFA" name="URFA" netid="KO" insttype="CMG-3ESP" lat="37.4409" lon="38.8213">
    <comp name="--.HHN">
      <acc value="0.1278985740" flag="0"/>
      <vel value="0.0193369892" flag="0"/>
      <psa03 value="0.0725289322" flag="0"/>
      <psa10 value="0.0073788377" flag="0"/>
      <psa30 value="0.0006358695" flag="0"/>
    </comp>
  </station>
</stationlist>
