<?xml version="1.0" encoding="UTF-8" standalone="yes"?>
<!DOCTYPE earthquake SYSTEM "stationlist.dtd">
<stationlist created="" xmlns="ch.ethz.sed.shakemap.usgs.xml">
  <station code="APE" name="APE" netid="GE" insttype="STS-2/N" lat="37.0727" lon="25.523">
    <comp name="--.HHE">
      <acc value="0.0495933389" flag="0"/>
      <vel value="0.0112090087" flag="0"/>
      <psa03 value="0.0663181202" flag="0"/>
      <psa10 value="0.0038668472" flag="0"/>
      <psa30 value="0.0012874622" flag="0"/>
    </comp>
    <comp name="--.HHZ">
      <acc value="0.0257840661" flag="0"/>
      <vel value="0.0070785359" flag="0"/>
      <psa03 value="0.0358004913" flag="0"/>
      <psa10 value="0.0048374445" flag="0"/>
      <psa30 value="0.0016795473" flag="0"/>
    </comp>
    <comp name="--.HHN">
      <acc value="0.0673072873" flag="0"/>
      <vel value="0.0120104677" flag="0"/>
      <psa03 value="0.0675774746" flag="0"/>
      <psa10 value="0.0043558105" flag="0"/>
      <psa30 value="0.0014923558" flag="0"/>
    </comp>
  </station>
  <station code="THERA" name="THERA" netid="GE" insttype="STS-2/N" lat="36.367" lon="25.4753">
    <comp name="--.HHN">
      <acc value="0.0237752816" flag="0"/>
      <vel value="0.0061449121" flag="0"/>
      <psa03 value="0.0259461408" flag="0"/>
      <psa10 value="0.0056390458" flag="0"/>
      <psa30 value="0.0004149401" flag="0"/>
    </comp>
    <comp name="--.HHZ">
      <acc value="0.0254567294" flag="0"/>
      <vel value="0.0076745833" flag="0"/>
      <psa03 value="0.0270127193" flag="0"/>
      <psa10 value="0.0065565971" flag="0"/>
      <psa30 value="0.0005302062" flag="0"/>
    </comp>
    <comp name="--.HHE">
      <acc value="0.0323884582" flag="0"/>
      <vel value="0.0094022669" flag="0"/>
      <psa03 value="0.0269336477" flag="0"/>
      <psa10 value="0.0077062167" flag="0"/>
      <psa30 value="0.0011479850" flag="0"/>
    </comp>
  </station>
</stationlist>
