<stationlist created="1771466595">
	<station code="BCI" name="BCI" netid="AC" source="Albanian Seismological Network (AC)" insttype="" lat="42.3666" lon="20.067499">
		<comp name="01.HNE" depth="0.0">
			<acc value="0.38643289567548" flag="0"/>
			<vel value="0.262479692219" flag="0"/>
			<psa03 value="0.715440977785056" flag="0"/>
			<psa10 value="0.276924524890659" flag="0"/>
			<psa30 value="0.0198038935774238" flag="0"/>
		</comp>
		<comp name="01.HNN" depth="0.0">
			<acc value="0.23112981076686" flag="0"/>
			<vel value="0.208662464295" flag="0"/>
			<psa03 value="0.480954360867245" flag="0"/>
			<psa10 value="0.232485626031675" flag="0"/>
			<psa30 value="0.033052989598326" flag="0"/>
		</comp>
		<comp name="01.HNZ" depth="0.0">
			<acc value="0.23490834455772" flag="0"/>
			<vel value="0.151081947514" flag="0"/>
			<psa03 value="0.567293955441799" flag="0"/>
			<psa10 value="0.238312612041164" flag="0"/>
			<psa30 value="0.0143840745410302" flag="0"/>
		</comp>
	</station>
	<station code="PHP" name="PHP" netid="AC" source="Albanian Seismological Network (AC)" insttype="" lat="41.6847" lon="20.4408">
		<comp name="01.HNE" depth="0.0">
			<acc value="0.07879182093336" flag="0"/>
			<vel value="0.0426669471968" flag="0"/>
			<psa03 value="0.134219183028942" flag="0"/>
			<psa10 value="0.0657552734642321" flag="0"/>
			<psa30 value="0.00417150925868235" flag="0"/>
		</comp>
		<comp name="01.HNN" depth="0.0">
			<acc value="0.12509007901638" flag="0"/>
			<vel value="0.0414057859732" flag="0"/>
			<psa03 value="0.135403615658361" flag="0"/>
			<psa10 value="0.083528788372168" flag="0"/>
			<psa30 value="0.00877966994337686" flag="0"/>
		</comp>
		<comp name="01.HNZ" depth="0.0">
			<acc value="0.093109590091182" flag="0"/>
			<vel value="0.0493471691892" flag="0"/>
			<psa03 value="0.112315346590399" flag="0"/>
			<psa10 value="0.0787583073512294" flag="0"/>
			<psa30 value="0.00678521657062241" flag="0"/>
		</comp>
	</station>
	<station code="SRN" name="SRN" netid="AC" source="Albanian Seismological Network (AC)" insttype="" lat="39.880001" lon="20.0005">
		<comp name="01.HNE" depth="0.0">
			<acc value="0.010268464770378" flag="0"/>
			<vel value="0.0179761763142" flag="0"/>
			<psa03 value="0.0159821863455888" flag="0"/>
			<psa10 value="0.0315089385625264" flag="0"/>
			<psa30 value="0.005811823754806" flag="0"/>
		</comp>
		<comp name="01.HNN" depth="0.0">
			<acc value="0.0077230950496578" flag="0"/>
			<vel value="0.0121219542376" flag="0"/>
			<psa03 value="0.0126863078535476" flag="0"/>
			<psa10 value="0.0165727528635268" flag="0"/>
			<psa30 value="0.00434022710207744" flag="0"/>
		</comp>
		<comp name="01.HNZ" depth="0.0">
			<acc value="0.007535169310146" flag="0"/>
			<vel value="0.014945198344" flag="0"/>
			<psa03 value="0.0184359504578994" flag="0"/>
			<psa10 value="0.0143218181251823" flag="0"/>
			<psa30 value="0.00451133010347437" flag="0"/>
		</comp>
	</station>
	<station code="BLKB" name="BLKB" netid="BS" source="National Seismic Network of Bulgaria (BS)" insttype="" lat="43.6227" lon="22.675">
		<comp name="--.HNE" depth="0.0">
			<acc value="0.010713218477094" flag="0"/>
			<vel value="0.00816832889257" flag="0"/>
			<psa03 value="0.0307793150202462" flag="0"/>
			<psa10 value="0.00962805687401355" flag="0"/>
			<psa30 value="0.00160523352634093" flag="0"/>
		</comp>
		<comp name="--.HNN" depth="0.0">
			<acc value="0.013879513347642" flag="0"/>
			<vel value="0.009533076082" flag="0"/>
			<psa03 value="0.0354544033677081" flag="0"/>
			<psa10 value="0.00986970038169884" flag="0"/>
			<psa30 value="0.00128343460457887" flag="0"/>
		</comp>
		<comp name="--.HNZ" depth="0.0">
			<acc value="0.0059847443327226" flag="0"/>
			<vel value="0.00742794769135" flag="0"/>
			<psa03 value="0.0197213285766417" flag="0"/>
			<psa10 value="0.00656981599933233" flag="0"/>
			<psa30 value="0.00242677722041404" flag="0"/>
		</comp>
	</station>
	<station code="PLNA" name="PLNA" netid="BS" source="National Seismic Network of Bulgaria (BS)" insttype="" lat="42.4762" lon="23.4256">
		<comp name="--.HNE" depth="0.0">
			<acc value="0.1043291321784" flag="0"/>
			<vel value="0.0808753477569" flag="0"/>
			<psa03 value="0.352602233167434" flag="0"/>
			<psa10 value="0.0670231649559371" flag="0"/>
			<psa30 value="0.00330710991313302" flag="0"/>
		</comp>
		<comp name="--.HNN" depth="0.0">
			<acc value="0.10734461716092" flag="0"/>
			<vel value="0.0735063857387" flag="0"/>
			<psa03 value="0.462824326505187" flag="0"/>
			<psa10 value="0.098268562310055" flag="0"/>
			<psa30 value="0.00381397474044054" flag="0"/>
		</comp>
		<comp name="--.HNZ" depth="0.0">
			<acc value="0.06935894290005" flag="0"/>
			<vel value="0.0428569489197" flag="0"/>
			<psa03 value="0.209270300630519" flag="0"/>
			<psa10 value="0.0395390680192189" flag="0"/>
			<psa30 value="0.003349537932115" flag="0"/>
		</comp>
	</station>
	<station code="PLVAM" name="PLVAM" netid="BS" source="National Seismic Network of Bulgaria (BS)" insttype="" lat="43.9523" lon="22.8502">
		<comp name="--.HNE" depth="0.0">
			<acc value="0.04331442468939" flag="0"/>
			<vel value="0.0200055983999" flag="0"/>
			<psa03 value="0.0478121204434595" flag="0"/>
			<psa10 value="0.0333979987035098" flag="0"/>
			<psa30 value="0.00511930412877444" flag="0"/>
		</comp>
		<comp name="--.HNN" depth="0.0">
			<acc value="0.029344373784324" flag="0"/>
			<vel value="0.0275502480606" flag="0"/>
			<psa03 value="0.0818063359348594" flag="0"/>
			<psa10 value="0.0329904404547613" flag="0"/>
			<psa30 value="0.00560570468376303" flag="0"/>
		</comp>
		<comp name="--.HNZ" depth="0.0">
			<acc value="0.063463632162666" flag="0"/>
			<vel value="0.0133324805316" flag="0"/>
			<psa03 value="0.0344638742083685" flag="0"/>
			<psa10 value="0.0165736491729217" flag="0"/>
			<psa30 value="0.00173495607816" flag="0"/>
		</comp>
	</station>
	<station code="TRAN" name="TRAN" netid="BS" source="National Seismic Network of Bulgaria (BS)" insttype="" lat="42.834599" lon="22.651199">
		<comp name="--.HNE" depth="0.0">
			<acc value="0.048513998450784" flag="0"/>
			<vel value="0.0246480189489" flag="0"/>
			<psa03 value="0.199464130186551" flag="0"/>
			<psa10 value="0.0159726774864899" flag="0"/>
			<psa30 value="0.00222619434945212" flag="0"/>
		</comp>
		<comp name="--.HNN" depth="0.0">
			<acc value="0.05358579068106" flag="0"/>
			<vel value="0.0326139206284" flag="0"/>
			<psa03 value="0.202091283389086" flag="0"/>
			<psa10 value="0.0156711528244701" flag="0"/>
			<psa30 value="0.00137035775864488" flag="0"/>
		</comp>
		<comp name="--.HNZ" depth="0.0">
			<acc value="0.018706145291988" flag="0"/>
			<vel value="0.0121860413758" flag="0"/>
			<psa03 value="0.0820481436200764" flag="0"/>
			<psa10 value="0.0204484527346214" flag="0"/>
			<psa30 value="0.00148979494160422" flag="0"/>
		</comp>
	</station>
	<station code="MMAA" name="MMAA" netid="EG" source="EUROSEISTEST Strong Motion Network" insttype="" lat="40.630855" lon="22.943725">
		<comp name="--.EN1" depth="0.0">
			<acc value="0.010901523056754" flag="0"/>
			<vel value="0.00685597325996" flag="0"/>
			<psa03 value="0.0214200088142126" flag="0"/>
			<psa10 value="0.0168943629186496" flag="0"/>
			<psa30 value="0.00101512422616674" flag="0"/>
		</comp>
		<comp name="--.EN2" depth="0.0">
			<acc value="0.0091622020443576" flag="0"/>
			<vel value="0.00721492086421" flag="0"/>
			<psa03 value="0.0237707231312683" flag="0"/>
			<psa10 value="0.015551139249166" flag="0"/>
			<psa30 value="0.000763754397063955" flag="0"/>
		</comp>
		<comp name="--.EN3" depth="0.0">
			<acc value="0.017648601235722" flag="0"/>
			<vel value="0.00339060076918" flag="0"/>
			<psa03 value="0.0121171360341464" flag="0"/>
			<psa10 value="0.00320841136963326" flag="0"/>
			<psa30 value="0.000593198098546544" flag="0"/>
		</comp>
	</station>
	<station code="AIA1" name="AIA1" netid="HI" source="ITSAK Strong Motion Network" insttype="" lat="40.1641" lon="21.8202">
		<comp name="--.HNE" depth="0.0">
			<acc value="0.003905367307305" flag="0"/>
			<vel value="0.00457259244187" flag="0"/>
			<psa03 value="0.00793025580928156" flag="0"/>
			<psa10 value="0.00861027226327052" flag="0"/>
			<psa30 value="0.00148944866866511" flag="0"/>
		</comp>
		<comp name="--.HNN" depth="0.0">
			<acc value="0.0032300950355964" flag="0"/>
			<vel value="0.00619976017572" flag="0"/>
			<psa03 value="0.00729830639364217" flag="0"/>
			<psa10 value="0.00695265120400153" flag="0"/>
			<psa30 value="0.00148770105289322" flag="0"/>
		</comp>
		<comp name="--.HNZ" depth="0.0">
			<acc value="0.003323097390615" flag="0"/>
			<vel value="0.00336440100393" flag="0"/>
			<psa03 value="0.00747782805168828" flag="0"/>
			<psa10 value="0.00634118350978372" flag="0"/>
			<psa30 value="0.000968276018536022" flag="0"/>
		</comp>
	</station>
	<station code="ART2" name="ART2" netid="HI" source="ITSAK Strong Motion Network" insttype="" lat="39.1474" lon="20.9937">
		<comp name="--.HNE" depth="0.0">
			<acc value="0.00100911420804594" flag="0"/>
			<vel value="0.00138306670149" flag="0"/>
			<psa03 value="0.00168445159316218" flag="0"/>
			<psa10 value="0.00231637188576729" flag="0"/>
			<psa30 value="0.0010529273554372" flag="0"/>
		</comp>
		<comp name="--.HNN" depth="0.0">
			<acc value="0.00096708320503704" flag="0"/>
			<vel value="0.00161490519633" flag="0"/>
			<psa03 value="0.00177754467418331" flag="0"/>
			<psa10 value="0.00187479419591377" flag="0"/>
			<psa30 value="0.000558748108068198" flag="0"/>
		</comp>
		<comp name="--.HNZ" depth="0.0">
			<acc value="0.0008970492967317" flag="0"/>
			<vel value="0.00173891301894" flag="0"/>
			<psa03 value="0.00237157246961881" flag="0"/>
			<psa10 value="0.00118497771770703" flag="0"/>
			<psa30 value="0.000747193039539583" flag="0"/>
		</comp>
	</station>
	<station code="DRA2" name="DRA2" netid="HI" source="ITSAK Strong Motion Network" insttype="" lat="41.1593" lon="24.1485">
		<comp name="--.HNE" depth="0.0">
			<acc value="0.0050334507683346" flag="0"/>
			<vel value="0.00231685007086" flag="0"/>
			<psa03 value="0.0223892644288753" flag="0"/>
			<psa10 value="0.00219737861242434" flag="0"/>
			<psa30 value="0.000402286935993591" flag="0"/>
		</comp>
		<comp name="--.HNN" depth="0.0">
			<acc value="0.0044387472571236" flag="0"/>
			<vel value="0.00347573150841" flag="0"/>
			<psa03 value="0.0116309006984357" flag="0"/>
			<psa10 value="0.00425967280739874" flag="0"/>
			<psa30 value="0.00119510125292445" flag="0"/>
		</comp>
		<comp name="--.HNZ" depth="0.0">
			<acc value="0.0045231235557312" flag="0"/>
			<vel value="0.00170954874816" flag="0"/>
			<psa03 value="0.0070047849961802" flag="0"/>
			<psa10 value="0.00180530736619085" flag="0"/>
			<psa30 value="0.000337846469212364" flag="0"/>
		</comp>
	</station>
	<station code="FLO2" name="FLO2" netid="HI" source="ITSAK Strong Motion Network" insttype="" lat="40.7801" lon="21.4052">
		<comp name="--.HNE" depth="0.0">
			<acc value="0.024157108117212" flag="0"/>
			<vel value="0.0144918510558" flag="0"/>
			<psa03 value="0.0584844524331688" flag="0"/>
			<psa10 value="0.0188799582045595" flag="0"/>
			<psa30 value="0.00343709519068825" flag="0"/>
		</comp>
		<comp name="--.HNN" depth="0.0">
			<acc value="0.023207788644504" flag="0"/>
			<vel value="0.0224060433829" flag="0"/>
			<psa03 value="0.0534041888069724" flag="0"/>
			<psa10 value="0.015998966728031" flag="0"/>
			<psa30 value="0.00199441816208301" flag="0"/>
		</comp>
		<comp name="--.HNZ" depth="0.0">
			<acc value="0.015531761532168" flag="0"/>
			<vel value="0.00864554979577" flag="0"/>
			<psa03 value="0.0426252638187026" flag="0"/>
			<psa10 value="0.0105153028372006" flag="0"/>
			<psa30 value="0.00194108087874678" flag="0"/>
		</comp>
	</station>
	<station code="GRE3" name="GRE3" netid="HI" source="ITSAK Strong Motion Network" insttype="" lat="40.08481" lon="21.43829">
		<comp name="--.HNE" depth="0.0">
			<acc value="0.006125770600224" flag="0"/>
			<vel value="0.00929143756264" flag="0"/>
			<psa03 value="0.0102653838073462" flag="0"/>
			<psa10 value="0.0108612538797519" flag="0"/>
			<psa30 value="0.00347671844053458" flag="0"/>
		</comp>
		<comp name="--.HNN" depth="0.0">
			<acc value="0.0042521333052684" flag="0"/>
			<vel value="0.00615777343265" flag="0"/>
			<psa03 value="0.0112976247142546" flag="0"/>
			<psa10 value="0.0102815704785855" flag="0"/>
			<psa30 value="0.00244248388590522" flag="0"/>
		</comp>
		<comp name="--.HNZ" depth="0.0">
			<acc value="0.004980885038928" flag="0"/>
			<vel value="0.0045629153964" flag="0"/>
			<psa03 value="0.00835369076078766" flag="0"/>
			<psa10 value="0.00721384710073463" flag="0"/>
			<psa30 value="0.0019952184234277" flag="0"/>
		</comp>
	</station>
	<station code="ITS1" name="ITS1" netid="HI" source="ITSAK Strong Motion Network" insttype="" lat="40.605" lon="23.0123">
		<comp name="--.HNE" depth="0.0">
			<acc value="0.0047884817196954" flag="0"/>
			<vel value="0.00404746809427" flag="0"/>
			<psa03 value="0.0167272448166421" flag="0"/>
			<psa10 value="0.0083945982884451" flag="0"/>
			<psa30 value="0.000518323971837501" flag="0"/>
		</comp>
		<comp name="--.HNN" depth="0.0">
			<acc value="0.0047533878659766" flag="0"/>
			<vel value="0.00411994160896" flag="0"/>
			<psa03 value="0.0171547796491115" flag="0"/>
			<psa10 value="0.00724461601401031" flag="0"/>
			<psa30 value="0.00058703722166914" flag="0"/>
		</comp>
		<comp name="--.HNZ" depth="0.0">
			<acc value="0.0052927681967232" flag="0"/>
			<vel value="0.00273429249421" flag="0"/>
			<psa03 value="0.0157653178124276" flag="0"/>
			<psa10 value="0.00296294706194983" flag="0"/>
			<psa30 value="0.00042941857708148" flag="0"/>
		</comp>
	</station>
	<station code="JAN2" name="JAN2" netid="HI" source="ITSAK Strong Motion Network" insttype="" lat="39.664" lon="20.85222">
		<comp name="--.HNE" depth="0.0">
			<acc value="0.0054756507013158" flag="0"/>
			<vel value="0.00490534333677" flag="0"/>
			<psa03 value="0.0147439780182595" flag="0"/>
			<psa10 value="0.0069722251569585" flag="0"/>
			<psa30 value="0.00112528256528195" flag="0"/>
		</comp>
		<comp name="--.HNN" depth="0.0">
			<acc value="0.005951207093517" flag="0"/>
			<vel value="0.0042054248027" flag="0"/>
			<psa03 value="0.0207440135120083" flag="0"/>
			<psa10 value="0.00478253713210983" flag="0"/>
			<psa30 value="0.000957835639411086" flag="0"/>
		</comp>
		<comp name="--.HNZ" depth="0.0">
			<acc value="0.006258617294772" flag="0"/>
			<vel value="0.00258606272585" flag="0"/>
			<psa03 value="0.00478240242265446" flag="0"/>
			<psa10 value="0.00375446254284235" flag="0"/>
			<psa30 value="0.000831881462231227" flag="0"/>
		</comp>
	</station>
	<station code="KAR2" name="KAR2" netid="HI" source="ITSAK Strong Motion Network" insttype="" lat="39.365759" lon="21.91933">
		<comp name="--.HNE" depth="0.0">
			<acc value="0.006522874657182" flag="0"/>
			<vel value="0.0145525139436" flag="0"/>
			<psa03 value="0.0105521332718388" flag="0"/>
			<psa10 value="0.0121759700357564" flag="0"/>
			<psa30 value="0.00953393240954686" flag="0"/>
		</comp>
		<comp name="--.HNN" depth="0.0">
			<acc value="0.0070902533407488" flag="0"/>
			<vel value="0.0122087700453" flag="0"/>
			<psa03 value="0.0113977862973889" flag="0"/>
			<psa10 value="0.0159979466604577" flag="0"/>
			<psa30 value="0.00757955377489456" flag="0"/>
		</comp>
		<comp name="--.HNZ" depth="0.0">
			<acc value="0.02906524602684" flag="0"/>
			<vel value="0.00593741645355" flag="0"/>
			<psa03 value="0.00816044683955809" flag="0"/>
			<psa10 value="0.00954914414645301" flag="0"/>
			<psa30 value="0.00154978495731573" flag="0"/>
		</comp>
	</station>
	<station code="KAS2" name="KAS2" netid="HI" source="ITSAK Strong Motion Network" insttype="" lat="40.504878" lon="21.280507">
		<comp name="--.HNE" depth="0.0">
			<acc value="0.0079527236967702" flag="0"/>
			<vel value="0.00964070593114" flag="0"/>
			<psa03 value="0.0174911521925542" flag="0"/>
			<psa10 value="0.0107009391971871" flag="0"/>
			<psa30 value="0.0044616922318783" flag="0"/>
		</comp>
		<comp name="--.HNN" depth="0.0">
			<acc value="0.0069763770789606" flag="0"/>
			<vel value="0.00809683809514" flag="0"/>
			<psa03 value="0.0155024983185812" flag="0"/>
			<psa10 value="0.00733838113175327" flag="0"/>
			<psa30 value="0.00240537976126973" flag="0"/>
		</comp>
		<comp name="--.HNZ" depth="0.0">
			<acc value="0.0075567539908392" flag="0"/>
			<vel value="0.00718236636711" flag="0"/>
			<psa03 value="0.0169024634552478" flag="0"/>
			<psa10 value="0.00862338313179777" flag="0"/>
			<psa30 value="0.00223910124613403" flag="0"/>
		</comp>
	</station>
	<station code="KLR1" name="KLR1" netid="HI" source="ITSAK Strong Motion Network" insttype="" lat="40.58251" lon="22.949554">
		<comp name="--.HNE" depth="0.0">
			<acc value="0.0061668455787498" flag="0"/>
			<vel value="0.00587038470225" flag="0"/>
			<psa03 value="0.0178061587372771" flag="0"/>
			<psa10 value="0.0141503998945328" flag="0"/>
			<psa30 value="0.00189536097503117" flag="0"/>
		</comp>
		<comp name="--.HNN" depth="0.0">
			<acc value="0.0045556487697354" flag="0"/>
			<vel value="0.00565014531698" flag="0"/>
			<psa03 value="0.0133662539383229" flag="0"/>
			<psa10 value="0.0115011137673464" flag="0"/>
			<psa30 value="0.00220756519869266" flag="0"/>
		</comp>
		<comp name="--.HNZ" depth="0.0">
			<acc value="0.009591055799793" flag="0"/>
			<vel value="0.00339247331941" flag="0"/>
			<psa03 value="0.0169329824040432" flag="0"/>
			<psa10 value="0.00369476046287091" flag="0"/>
			<psa30 value="0.000686729763312056" flag="0"/>
		</comp>
	</station>
	<station code="KOZ2" name="KOZ2" netid="HI" source="ITSAK Strong Motion Network" insttype="" lat="40.295728" lon="21.788123">
		<comp name="--.HNE" depth="0.0">
			<acc value="0.0067273332564546" flag="0"/>
			<vel value="0.00488983187071" flag="0"/>
			<psa03 value="0.017717267432011" flag="0"/>
			<psa10 value="0.00647874871656932" flag="0"/>
			<psa30 value="0.00118949744420145" flag="0"/>
		</comp>
		<comp name="--.HNN" depth="0.0">
			<acc value="0.0062403185864802" flag="0"/>
			<vel value="0.00561676109232" flag="0"/>
			<psa03 value="0.0131755824530818" flag="0"/>
			<psa10 value="0.00841460773898563" flag="0"/>
			<psa30 value="0.00125933998759211" flag="0"/>
		</comp>
		<comp name="--.HNZ" depth="0.0">
			<acc value="0.012043935021966" flag="0"/>
			<vel value="0.00425063331498" flag="0"/>
			<psa03 value="0.0170889367456852" flag="0"/>
			<psa10 value="0.00517288549076712" flag="0"/>
			<psa30 value="0.000947316192547643" flag="0"/>
		</comp>
	</station>
	<station code="KRK1" name="KRK1" netid="HI" source="ITSAK Strong Motion Network" insttype="" lat="39.618861" lon="19.9202">
		<comp name="--.HNE" depth="0.0">
			<acc value="0.0071555429278818" flag="0"/>
			<vel value="0.00406878391525" flag="0"/>
			<psa03 value="0.010479016449048" flag="0"/>
			<psa10 value="0.00724130266949605" flag="0"/>
			<psa30 value="0.00120051192385452" flag="0"/>
		</comp>
		<comp name="--.HNN" depth="0.0">
			<acc value="0.0058652294085774" flag="0"/>
			<vel value="0.00441357987162" flag="0"/>
			<psa03 value="0.0127915452937606" flag="0"/>
			<psa10 value="0.00643378605050413" flag="0"/>
			<psa30 value="0.00060800236050373" flag="0"/>
		</comp>
		<comp name="--.HNZ" depth="0.0">
			<acc value="0.0082425900380814" flag="0"/>
			<vel value="0.00239443682744" flag="0"/>
			<psa03 value="0.00752033802921616" flag="0"/>
			<psa10 value="0.00372187944687176" flag="0"/>
			<psa30 value="0.000801572006460551" flag="0"/>
		</comp>
	</station>
	<station code="LAR4" name="LAR4" netid="HI" source="ITSAK Strong Motion Network" insttype="" lat="39.6422" lon="22.4219">
		<comp name="--.HNE" depth="0.0">
			<acc value="0.0078675507945744" flag="0"/>
			<vel value="0.0123476799677" flag="0"/>
			<psa03 value="0.0175826999238343" flag="0"/>
			<psa10 value="0.0227720841638147" flag="0"/>
			<psa30 value="0.00673306311572937" flag="0"/>
		</comp>
