<stationlist created="1775808420">
	<station code="BCI" name="BCI" netid="AC" source="Albanian Seismological Network (AC)" insttype="" lat="42.3666" lon="20.067499">
		<comp name="01.HNE" depth="0.0">
			<acc value="0.386979845620952" flag="0"/>
			<vel value="0.26277233080277" flag="0"/>
			<psa03 value="0.716917908959685" flag="0"/>
			<psa10 value="0.277012730733903" flag="0"/>
			<psa30 value="0.0198108007016534" flag="0"/>
		</comp>
		<comp name="01.HNN" depth="0.0">
			<acc value="0.23191452642867" flag="0"/>
			<vel value="0.208806049969833" flag="0"/>
			<psa03 value="0.482284032283545" flag="0"/>
			<psa10 value="0.232549860286948" flag="0"/>
			<psa30 value="0.0330619435248322" flag="0"/>
		</comp>
		<comp name="01.HNZ" depth="0.0">
			<acc value="0.235227719614504" flag="0"/>
			<vel value="0.151161153511224" flag="0"/>
			<psa03 value="0.568676005327769" flag="0"/>
			<psa10 value="0.238370890901658" flag="0"/>
			<psa30 value="0.0143887065145238" flag="0"/>
		</comp>
	</station>
	<station code="PHP" name="PHP" netid="AC" source="Albanian Seismological Network (AC)" insttype="" lat="41.6847" lon="20.4408">
		<comp name="01.HNE" depth="0.0">
			<acc value="0.0784897379330692" flag="0"/>
			<vel value="0.0423360339828067" flag="0"/>
			<psa03 value="0.134607052473276" flag="0"/>
			<psa10 value="0.0658303159353523" flag="0"/>
			<psa30 value="0.00409554922670302" flag="0"/>
		</comp>
		<comp name="01.HNN" depth="0.0">
			<acc value="0.120027875286375" flag="0"/>
			<vel value="0.0420565801508666" flag="0"/>
			<psa03 value="0.13564507957081" flag="0"/>
			<psa10 value="0.0835007065120062" flag="0"/>
			<psa30 value="0.00882974909420999" flag="0"/>
		</comp>
		<comp name="01.HNZ" depth="0.0">
			<acc value="0.0887999543449231" flag="0"/>
			<vel value="0.0495517377493692" flag="0"/>
			<psa03 value="0.112569655103854" flag="0"/>
			<psa10 value="0.0787936421920961" flag="0"/>
			<psa30 value="0.00683142671515964" flag="0"/>
		</comp>
	</station>
	<station code="BLKB" name="BLKB" netid="BS" source="National Seismic Network of Bulgaria (BS)" insttype="" lat="43.6227" lon="22.675">
		<comp name="--.HNE" depth="0.0">
			<acc value="0.0105314752860265" flag="0"/>
			<vel value="0.00706103183156377" flag="0"/>
			<psa03 value="0.0299029158172503" flag="0"/>
			<psa10 value="0.00482809468132758" flag="0"/>
			<psa30 value="0.000199975213522302" flag="0"/>
		</comp>
		<comp name="--.HNN" depth="0.0">
			<acc value="0.0129735425601059" flag="0"/>
			<vel value="0.00676152749884524" flag="0"/>
			<psa03 value="0.0342064300706157" flag="0"/>
			<psa10 value="0.00343297905863945" flag="0"/>
			<psa30 value="0.000208716990538793" flag="0"/>
		</comp>
		<comp name="--.HNZ" depth="0.0">
			<acc value="0.00471779815161257" flag="0"/>
			<vel value="0.00279863245121119" flag="0"/>
			<psa03 value="0.0193819363019084" flag="0"/>
			<psa10 value="0.00252666308215397" flag="0"/>
			<psa30 value="0.0001396857118262" flag="0"/>
		</comp>
	</station>
	<station code="PLNA" name="PLNA" netid="BS" source="National Seismic Network of Bulgaria (BS)" insttype="" lat="42.4762" lon="23.4256">
		<comp name="--.HNE" depth="0.0">
			<acc value="0.110481620973131" flag="0"/>
			<vel value="0.0848044864727141" flag="0"/>
			<psa03 value="0.378648166916083" flag="0"/>
			<psa10 value="0.0681853144424456" flag="0"/>
			<psa30 value="0.00343059892700907" flag="0"/>
		</comp>
		<comp name="--.HNN" depth="0.0">
			<acc value="0.113717147170609" flag="0"/>
			<vel value="0.0765815893372719" flag="0"/>
			<psa03 value="0.49113974393098" flag="0"/>
			<psa10 value="0.0984803913426097" flag="0"/>
			<psa30 value="0.0038708180893681" flag="0"/>
		</comp>
		<comp name="--.HNZ" depth="0.0">
			<acc value="0.0742211707734376" flag="0"/>
			<vel value="0.0450582762969818" flag="0"/>
			<psa03 value="0.222657437462486" flag="0"/>
			<psa10 value="0.0398548989414572" flag="0"/>
			<psa30 value="0.00340154658576738" flag="0"/>
		</comp>
	</station>
	<station code="TRAN" name="TRAN" netid="BS" source="National Seismic Network of Bulgaria (BS)" insttype="" lat="42.834599" lon="22.651199">
		<comp name="--.HNE" depth="0.0">
			<acc value="0.0486100058219624" flag="0"/>
			<vel value="0.0245994590901941" flag="0"/>
			<psa03 value="0.199893408623962" flag="0"/>
			<psa10 value="0.0159927356902512" flag="0"/>
			<psa30 value="0.00224078573272425" flag="0"/>
		</comp>
		<comp name="--.HNN" depth="0.0">
			<acc value="0.0535090261155781" flag="0"/>
			<vel value="0.0325651306746824" flag="0"/>
			<psa03 value="0.202574148709836" flag="0"/>
			<psa10 value="0.0156725104143983" flag="0"/>
			<psa30 value="0.00138786850197695" flag="0"/>
		</comp>
		<comp name="--.HNZ" depth="0.0">
			<acc value="0.0187311117248427" flag="0"/>
			<vel value="0.012150419523442" flag="0"/>
			<psa03 value="0.0822496621781255" flag="0"/>
			<psa10 value="0.0204454112831566" flag="0"/>
			<psa30 value="0.00150224514136798" flag="0"/>
		</comp>
	</station>
	<station code="FLO2" name="FLO2" netid="HI" source="ITSAK Strong Motion Network" insttype="" lat="40.7801" lon="21.4052">
		<comp name="--.HNE" depth="0.0">
			<acc value="0.024235685782649" flag="0"/>
			<vel value="0.0142127994431264" flag="0"/>
			<psa03 value="0.0586198416101487" flag="0"/>
			<psa10 value="0.0188757973039338" flag="0"/>
			<psa30 value="0.00348636720471711" flag="0"/>
		</comp>
		<comp name="--.HNN" depth="0.0">
			<acc value="0.0233312018271055" flag="0"/>
			<vel value="0.0227355235238157" flag="0"/>
			<psa03 value="0.0534920592113973" flag="0"/>
			<psa10 value="0.0160245171706183" flag="0"/>
			<psa30 value="0.00203764269216146" flag="0"/>
		</comp>
		<comp name="--.HNZ" depth="0.0">
			<acc value="0.0155224117541341" flag="0"/>
			<vel value="0.00863124024854694" flag="0"/>
			<psa03 value="0.0427047169987506" flag="0"/>
			<psa10 value="0.0105366154990658" flag="0"/>
			<psa30 value="0.00197821000503762" flag="0"/>
		</comp>
	</station>
	<station code="KAS2" name="KAS2" netid="HI" source="ITSAK Strong Motion Network" insttype="" lat="40.504878" lon="21.280507">
		<comp name="--.HNE" depth="0.0">
			<acc value="0.00795847997125326" flag="0"/>
			<vel value="0.00964076312775649" flag="0"/>
			<psa03 value="0.0174982242756481" flag="0"/>
			<psa10 value="0.0107005772982303" flag="0"/>
			<psa30 value="0.00446144346540062" flag="0"/>
		</comp>
		<comp name="--.HNN" depth="0.0">
			<acc value="0.00697529860108141" flag="0"/>
			<vel value="0.00810219523370069" flag="0"/>
			<psa03 value="0.0155028967824942" flag="0"/>
			<psa10 value="0.00733905852035874" flag="0"/>
			<psa30 value="0.00240569811569361" flag="0"/>
		</comp>
		<comp name="--.HNZ" depth="0.0">
			<acc value="0.00759191710572963" flag="0"/>
			<vel value="0.00718225107819296" flag="0"/>
			<psa03 value="0.0169086109979121" flag="0"/>
			<psa10 value="0.00862361658477622" flag="0"/>
			<psa30 value="0.00223702319180772" flag="0"/>
		</comp>
	</station>
	<station code="KOZ2" name="KOZ2" netid="HI" source="ITSAK Strong Motion Network" insttype="" lat="40.295728" lon="21.788123">
		<comp name="--.HNE" depth="0.0">
			<acc value="0.00673926244928228" flag="0"/>
			<vel value="0.00489311230255007" flag="0"/>
			<psa03 value="0.0177430321596356" flag="0"/>
			<psa10 value="0.00648091167234163" flag="0"/>
			<psa30 value="0.00118938868699663" flag="0"/>
		</comp>
		<comp name="--.HNN" depth="0.0">
			<acc value="0.00625321139194153" flag="0"/>
			<vel value="0.00562140866309051" flag="0"/>
			<psa03 value="0.013189066419255" flag="0"/>
			<psa10 value="0.00841575156473879" flag="0"/>
			<psa30 value="0.00125927154555971" flag="0"/>
		</comp>
		<comp name="--.HNZ" depth="0.0">
			<acc value="0.0130831708788912" flag="0"/>
			<vel value="0.00425027431938306" flag="0"/>
			<psa03 value="0.0171091021440499" flag="0"/>
			<psa10 value="0.0051712756966356" flag="0"/>
			<psa30 value="0.000947492766745743" flag="0"/>
		</comp>
	</station>
	<station code="LMS2" name="LMS2" netid="HI" source="ITSAK Strong Motion Network" insttype="" lat="40.834985" lon="21.141815">
		<comp name="--.HNE" depth="0.0">
			<acc value="0.0239653148938213" flag="0"/>
			<vel value="0.0123234841813401" flag="0"/>
			<psa03 value="0.0668012950496199" flag="0"/>
			<psa10 value="0.0167929880780445" flag="0"/>
			<psa30 value="0.00160974695033523" flag="0"/>
		</comp>
		<comp name="--.HNN" depth="0.0">
			<acc value="0.0239544659267639" flag="0"/>
			<vel value="0.0133907529997822" flag="0"/>
			<psa03 value="0.0353828882135273" flag="0"/>
			<psa10 value="0.00746474481520894" flag="0"/>
			<psa30 value="0.0017885141052819" flag="0"/>
		</comp>
		<comp name="--.HNZ" depth="0.0">
			<acc value="0.0169104691370866" flag="0"/>
			<vel value="0.0121425193999929" flag="0"/>
			<psa03 value="0.0342188553728977" flag="0"/>
			<psa10 value="0.0110962735111624" flag="0"/>
			<psa30 value="0.00219202666934227" flag="0"/>
		</comp>
	</station>
	<station code="PTO1" name="PTO1" netid="HI" source="ITSAK Strong Motion Network" insttype="" lat="40.510132" lon="21.681568">
		<comp name="--.HNE" depth="0.0">
			<acc value="0.0150202171495612" flag="0"/>
			<vel value="0.0221326792041135" flag="0"/>
			<psa03 value="0.0314091510146066" flag="0"/>
			<psa10 value="0.0471523386110213" flag="0"/>
			<psa30 value="0.00615032034520533" flag="0"/>
		</comp>
		<comp name="--.HNN" depth="0.0">
			<acc value="0.0149616657760778" flag="0"/>
			<vel value="0.0196517092873703" flag="0"/>
			<psa03 value="0.0337078918365711" flag="0"/>
			<psa10 value="0.0404053341550887" flag="0"/>
			<psa30 value="0.00692041302673273" flag="0"/>
		</comp>
		<comp name="--.HNZ" depth="0.0">
			<acc value="0.0101995700511546" flag="0"/>
			<vel value="0.0105953407280851" flag="0"/>
			<psa03 value="0.0261950399803401" flag="0"/>
			<psa10 value="0.0206344256794327" flag="0"/>
			<psa30 value="0.00275600903040581" flag="0"/>
		</comp>
	</station>
	<station code="SIA1" name="SIA1" netid="HI" source="ITSAK Strong Motion Network" insttype="" lat="40.257308" lon="21.553432">
		<comp name="--.HNE" depth="0.0">
			<acc value="0.00487037780274078" flag="0"/>
			<vel value="0.00494766722135483" flag="0"/>
			<psa03 value="0.0169413084764596" flag="0"/>
			<psa10 value="0.00624497604276408" flag="0"/>
			<psa30 value="0.00134294750534805" flag="0"/>
		</comp>
		<comp name="--.HNN" depth="0.0">
			<acc value="0.00662781195418658" flag="0"/>
			<vel value="0.00496601009302505" flag="0"/>
			<psa03 value="0.0162708460928671" flag="0"/>
			<psa10 value="0.00615460021205884" flag="0"/>
			<psa30 value="0.00140652650881167" flag="0"/>
		</comp>
		<comp name="--.HNZ" depth="0.0">
			<acc value="0.00620875350500207" flag="0"/>
			<vel value="0.00441247942537048" flag="0"/>
			<psa03 value="0.019453838200473" flag="0"/>
			<psa10 value="0.00826978533269229" flag="0"/>
			<psa30 value="0.000910866902962018" flag="0"/>
		</comp>
	</station>
	<station code="NASA" name="NASA" netid="HL" source="National Observatory of Athens Seismic Network" insttype="" lat="40.63111" lon="22.06706">
		<comp name="00.HNE" depth="0.0">
			<acc value="0.0237403553721667" flag="0"/>
			<vel value="0.0167506671844364" flag="0"/>
			<psa03 value="0.0524027214231151" flag="0"/>
			<psa10 value="0.0152891525188191" flag="0"/>
			<psa30 value="0.001367399333495" flag="0"/>
		</comp>
		<comp name="00.HNN" depth="0.0">
			<acc value="0.0259696056773875" flag="0"/>
			<vel value="0.0147280704713241" flag="0"/>
			<psa03 value="0.0969985819300085" flag="0"/>
			<psa10 value="0.0297788814547492" flag="0"/>
			<psa30 value="0.00161316821864413" flag="0"/>
		</comp>
		<comp name="00.HNZ" depth="0.0">
			<acc value="0.0131389005654096" flag="0"/>
			<vel value="0.0150919476621628" flag="0"/>
			<psa03 value="0.0700552866522605" flag="0"/>
			<psa10 value="0.0143616382630517" flag="0"/>
			<psa30 value="0.00301159471170284" flag="0"/>
		</comp>
	</station>
	<station code="VERA" name="VERA" netid="HL" source="National Observatory of Athens Seismic Network" insttype="" lat="40.48601" lon="22.32151">
		<comp name="00.HNE" depth="0.0">
			<acc value="0.00800289372470502" flag="0"/>
			<vel value="0.0134253574290585" flag="0"/>
			<psa03 value="0.0176445581883016" flag="0"/>
			<psa10 value="0.0165313388700685" flag="0"/>
			<psa30 value="0.00412255143213328" flag="0"/>
		</comp>
		<comp name="00.HNN" depth="0.0">
			<acc value="0.00673463631034533" flag="0"/>
			<vel value="0.00859298392490858" flag="0"/>
			<psa03 value="0.0151671649064885" flag="0"/>
			<psa10 value="0.0207176530678388" flag="0"/>
			<psa30 value="0.00243697518764613" flag="0"/>
		</comp>
		<comp name="00.HNZ" depth="0.0">
			<acc value="0.0117385769613765" flag="0"/>
			<vel value="0.0107429517336635" flag="0"/>
			<psa03 value="0.0281686524933164" flag="0"/>
			<psa10 value="0.0183236988551211" flag="0"/>
			<psa30 value="0.00237100165055641" flag="0"/>
		</comp>
	</station>
	<station code="DBR" name="DBR" netid="MA" source="Macedonian Seismological Network" insttype="" lat="41.494694" lon="20.498631">
		<comp name="--.HNE" depth="0.0">
			<acc value="0.0501751617608012" flag="0"/>
			<vel value="0.0184984744143325" flag="0"/>
			<psa03 value="0.0640520868864049" flag="0"/>
			<psa10 value="0.0201741539386888" flag="0"/>
			<psa30 value="0.00353978157649043" flag="0"/>
		</comp>
		<comp name="--.HNN" depth="0.0">
			<acc value="0.0571391909084202" flag="0"/>
			<vel value="0.0235567934213897" flag="0"/>
			<psa03 value="0.0576905196304618" flag="0"/>
			<psa10 value="0.0297769875792892" flag="0"/>
			<psa30 value="0.00354079331017949" flag="0"/>
		</comp>
		<comp name="--.HNZ" depth="0.0">
			<acc value="0.0330888230561474" flag="0"/>
			<vel value="0.0166429398445735" flag="0"/>
			<psa03 value="0.0471918085173756" flag="0"/>
			<psa10 value="0.0323265302239769" flag="0"/>
			<psa30 value="0.00260857093002191" flag="0"/>
		</comp>
	</station>
	<station code="LIS" name="LIS" netid="MA" source="Macedonian Seismological Network" insttype="" lat="41.687499" lon="21.597858">
		<comp name="--.HNE" depth="0.0">
			<acc value="0.584763824941531" flag="0"/>
			<vel value="0.37358810856784" flag="0"/>
			<psa03 value="1.57950446775252" flag="0"/>
			<psa10 value="0.241755715129652" flag="0"/>
			<psa30 value="0.0134883435365619" flag="0"/>
		</comp>
		<comp name="--.HNN" depth="0.0">
			<acc value="0.565943892199929" flag="0"/>
			<vel value="0.288632820728692" flag="0"/>
			<psa03 value="1.34038879417933" flag="0"/>
			<psa10 value="0.211930964386287" flag="0"/>
			<psa30 value="0.0109827358856853" flag="0"/>
		</comp>
		<comp name="--.HNZ" depth="0.0">
			<acc value="0.305237957538286" flag="0"/>
			<vel value="0.176754538090559" flag="0"/>
			<psa03 value="1.02407450657683" flag="0"/>
			<psa10 value="0.0546694078299652" flag="0"/>
			<psa30 value="0.00416410460149348" flag="0"/>
		</comp>
	</station>
	<station code="BARME" name="BARME" netid="ME" source="Montenegrin Seismic Network (ME)" insttype="" lat="42.10554" lon="19.088928">
		<comp name="--.HNE" depth="0.0">
			<acc value="0.0350574991423566" flag="0"/>
			<vel value="0.0346472700022461" flag="0"/>
			<psa03 value="0.114078463388331" flag="0"/>
			<psa10 value="0.0501927212714511" flag="0"/>
			<psa30 value="0.00365483419816196" flag="0"/>
		</comp>
		<comp name="--.HNN" depth="0.0">
			<acc value="0.0358761400727997" flag="0"/>
			<vel value="0.0343406408840931" flag="0"/>
			<psa03 value="0.145384703939792" flag="0"/>
			<psa10 value="0.0671084981086482" flag="0"/>
			<psa30 value="0.00290450115894723" flag="0"/>
		</comp>
		<comp name="--.HNZ" depth="0.0">
			<acc value="0.017662070685948" flag="0"/>
			<vel value="0.0153174610139259" flag="0"/>
			<psa03 value="0.0561278119420801" flag="0"/>
			<psa10 value="0.0229772733815949" flag="0"/>
			<psa30 value="0.00149742221770629" flag="0"/>
		</comp>
	</station>
	<station code="CEVME" name="CEVME" netid="ME" source="Montenegrin Seismic Network (ME)" insttype="" lat="42.546741" lon="18.917674">
		<comp name="--.HNE" depth="0.0">
			<acc value="0.00911569386187002" flag="0"/>
			<vel value="0.00705809088609743" flag="0"/>
			<psa03 value="0.0190439087009054" flag="0"/>
			<psa10 value="0.0108812023887561" flag="0"/>
			<psa30 value="0.000892108576981649" flag="0"/>
		</comp>
		<comp name="--.HNN" depth="0.0">
			<acc value="0.00951061153176714" flag="0"/>
			<vel value="0.00570570656998557" flag="0"/>
			<psa03 value="0.0257215164242284" flag="0"/>
			<psa10 value="0.00848421234992983" flag="0"/>
			<psa30 value="0.00115494130085969" flag="0"/>
		</comp>
		<comp name="--.HNZ" depth="0.0">
			<acc value="0.00688527804963794" flag="0"/>
			<vel value="0.00649567498515792" flag="0"/>
			<psa03 value="0.0294288349325517" flag="0"/>
			<psa10 value="0.00797356445951321" flag="0"/>
			<psa30 value="0.000935818972580838" flag="0"/>
		</comp>
	</station>
	<station code="DRME" name="DRME" netid="ME" source="Montenegrin Seismic Network (ME)" insttype="" lat="42.186715" lon="19.184269">
		<comp name="--.HNE" depth="0.0">
			<acc value="0.00467293442173727" flag="0"/>
			<vel value="0.00330805581436157" flag="0"/>
			<psa03 value="0.00891513355259465" flag="0"/>
			<psa10 value="0.00414347135964247" flag="0"/>
			<psa30 value="0.000486690313761401" flag="0"/>
		</comp>
		<comp name="--.HNN" depth="0.0">
			<acc value="0.00449054429200135" flag="0"/>
			<vel value="0.00286169897492873" flag="0"/>
			<psa03 value="0.0124501554908657" flag="0"/>
			<psa10 value="0.00274356831043583" flag="0"/>
			<psa30 value="0.000378122132068856" flag="0"/>
		</comp>
		<comp name="--.HNZ" depth="0.0">
			<acc value="0.00423986731202677" flag="0"/>
			<vel value="0.00286090314288742" flag="0"/>
			<psa03 value="0.0116645956388809" flag="0"/>
			<psa10 value="0.00575013591828438" flag="0"/>
			<psa30 value="0.000762940488979744" flag="0"/>
		</comp>
	</station>
	<station code="HCY" name="HCY" netid="ME" source="Montenegrin Seismic Network (ME)" insttype="" lat="42.44736" lon="18.493828">
		<comp name="--.HNE" depth="0.0">
			<acc value="0.0221519527789706" flag="0"/>
			<vel value="0.0153354477923215" flag="0"/>
			<psa03 value="0.03854727492195" flag="0"/>
			<psa10 value="0.0190518358406229" flag="0"/>
			<psa30 value="0.00111447164077666" flag="0"/>
		</comp>
		<comp name="--.HNN" depth="0.0">
			<acc value="0.0474197098719576" flag="0"/>
			<vel value="0.0150007650068127" flag="0"/>
			<psa03 value="0.059800664625545" flag="0"/>
			<psa10 value="0.0160035457813667" flag="0"/>
			<psa30 value="0.00195279561312554" flag="0"/>
		</comp>
		<comp name="--.HNZ" depth="0.0">
			<acc value="0.0689729235048955" flag="0"/>
			<vel value="0.0125165082071539" flag="0"/>
			<psa03 value="0.0342796380452848" flag="0"/>
			<psa10 value="0.0132699296927167" flag="0"/>
			<psa30 value="0.00309506899146421" flag="0"/>
		</comp>
	</station>
	<station code="KOLME" name="KOLME" netid="ME" source="Montenegrin Seismic Network (ME)" insttype="" lat="42.8505" lon="19.5152">
		<comp name="--.HNE" depth="0.0">
			<acc value="0.00874337316470498" flag="0"/>
			<vel value="0.0124348159849291" flag="0"/>
			<psa03 value="0.0173464668266286" flag="0"/>
			<psa10 value="0.0166468408965109" flag="0"/>
			<psa30 value="0.0022728743167688" flag="0"/>
		</comp>
		<comp name="--.HNN" depth="0.0">
			<acc value="0.0142327299948866" flag="0"/>
			<vel value="0.0187890375825919" flag="0"/>
			<psa03 value="0.0299188439557447" flag="0"/>
			<psa10 value="0.025820981763319" flag="0"/>
			<psa30 value="0.00316953642456618" flag="0"/>
		</comp>
		<comp name="--.HNZ" depth="0.0">
			<acc value="0.00706063762008092" flag="0"/>
			<vel value="0.010868481824964" flag="0"/>
			<psa03 value="0.0216150985608649" flag="0"/>
			<psa10 value="0.0155746167419229" flag="0"/>
			<psa30 value="0.00237155127029935" flag="0"/>
		</comp>
	</station>
	<station code="PLAV0" name="PLAV0" netid="ME" source="Montenegrin Seismic Network (ME)" insttype="" lat="42.594478" lon="19.958714">
