<?xml version="1.0" encoding="UTF-8" standalone="yes"?>
<!DOCTYPE earthquake SYSTEM "stationlist.dtd">
<stationlist created="" xmlns="ch.ethz.sed.shakemap.usgs.xml">
  <station code="ALT" name="ALT" netid="KO" insttype="CMG-5T" lat="39.0541" lon="30.1104">
    <comp name="--.HNE">
      <acc value="0.1086425696" flag="0"/>
      <vel value="0.0244556919" flag="0"/>
      <psa03 value="0.1309030516" flag="0"/>
      <psa10 value="0.0102659059" flag="0"/>
      <psa30 value="0.0015667356" flag="0"/>
    </comp>
    <comp name="--.HNZ">
      <acc value="0.0740676865" flag="0"/>
      <vel value="0.0207409453" flag="0"/>
      <psa03 value="0.0723066330" flag="0"/>
      <psa10 value="0.0114018278" flag="0"/>
      <psa30 value="0.0016445753" flag="0"/>
    </comp>
  </station>
  <station code="BASM" name="BASM" netid="KO" insttype="CMG-5T" lat="37.9194" lon="30.035">
    <comp name="--.HNE">
      <acc value="0.0775719475" flag="0"/>
      <vel value="0.0866244513" flag="0"/>
      <psa03 value="0.1414955645" flag="0"/>
      <psa10 value="0.1527192653" flag="0"/>
      <psa30 value="0.0064656692" flag="0"/>
    </comp>
    <comp name="--.HNN">
      <acc value="0.0734227001" flag="0"/>
      <vel value="0.0930823851" flag="0"/>
      <psa03 value="0.1275506011" flag="0"/>
      <psa10 value="0.1164696314" flag="0"/>
      <psa30 value="0.0073392074" flag="0"/>
    </comp>
    <comp name="--.HNZ">
      <acc value="0.0676130956" flag="0"/>
      <vel value="0.0673002121" flag="0"/>
      <psa03 value="0.0991303031" flag="0"/>
      <psa10 value="0.0765806294" flag="0"/>
      <psa30 value="0.0042079601" flag="0"/>
    </comp>
  </station>
  <station code="BLVD" name="BLVD" netid="KO" insttype="CMG-6T" lat="38.7946" lon="31.095">
    <comp name="--.HHN">
      <acc value="0.2522225538" flag="0"/>
      <vel value="0.0462714116" flag="0"/>
      <psa03 value="0.0756118507" flag="0"/>
      <psa10 value="0.0365668144" flag="0"/>
      <psa30 value="0.0036983456" flag="0"/>
    </comp>
    <comp name="--.HHE">
      <acc value="0.2078221833" flag="0"/>
      <vel value="0.0432437563" flag="0"/>
      <psa03 value="0.0974316447" flag="0"/>
      <psa10 value="0.0238059298" flag="0"/>
      <psa30 value="0.0054918853" flag="0"/>
    </comp>
    <comp name="--.HHZ">
      <acc value="0.1403711505" flag="0"/>
      <vel value="0.0375281533" flag="0"/>
      <psa03 value="0.0740778831" flag="0"/>
      <psa10 value="0.0464042389" flag="0"/>
      <psa30 value="0.0047637123" flag="0"/>
    </comp>
  </station>
  <station code="GEDZ" name="GEDZ" netid="KO" insttype="CMG-6T" lat="39.0445" lon="29.4105">
    <comp name="--.HHE">
      <acc value="0.0357762071" flag="0"/>
      <vel value="0.0310835090" flag="0"/>
      <psa03 value="0.1464144114" flag="0"/>
      <psa10 value="0.0463140333" flag="0"/>
      <psa30 value="0.0079282717" flag="0"/>
    </comp>
    <comp name="--.HHZ">
      <acc value="0.0192149100" flag="0"/>
      <vel value="0.0092023506" flag="0"/>
      <psa03 value="0.0366296691" flag="0"/>
      <psa10 value="0.0158420551" flag="0"/>
      <psa30 value="0.0034543670" flag="0"/>
    </comp>
    <comp name="--.HHN">
      <acc value="0.0381390210" flag="0"/>
      <vel value="0.0246662091" flag="0"/>
      <psa03 value="0.1027115062" flag="0"/>
      <psa10 value="0.0474188918" flag="0"/>
      <psa30 value="0.0034358286" flag="0"/>
    </comp>
  </station>
  <station code="KIZT" name="KIZT" netid="KO" insttype="CMG-3T" lat="38.8808" lon="31.883">
    <comp name="--.HHZ">
      <acc value="0.0106514885" flag="0"/>
      <vel value="0.0086242405" flag="0"/>
      <psa03 value="0.0140673366" flag="0"/>
      <psa10 value="0.0063123183" flag="0"/>
      <psa30 value="0.0027398536" flag="0"/>
    </comp>
    <comp name="--.HHE">
      <acc value="0.0262216067" flag="0"/>
      <vel value="0.0100505190" flag="0"/>
      <psa03 value="0.0179935242" flag="0"/>
      <psa10 value="0.0136187303" flag="0"/>
      <psa30 value="0.0023828213" flag="0"/>
    </comp>
    <comp name="--.HHN">
      <acc value="0.0262954655" flag="0"/>
      <vel value="0.0296889655" flag="0"/>
      <psa03 value="0.0332360899" flag="0"/>
      <psa10 value="0.0506550077" flag="0"/>
      <psa30 value="0.0035296168" flag="0"/>
    </comp>
  </station>
  <station code="SDAG" name="SDAG" netid="KO" insttype="CMG-6T" lat="38.4396" lon="30.9175">
    <comp name="--.HHE">
      <acc value="0.1167603946" flag="0"/>
      <vel value="0.0603331992" flag="0"/>
      <psa03 value="0.3193032693" flag="0"/>
      <psa10 value="0.1114711722" flag="0"/>
      <psa30 value="0.0082609290" flag="0"/>
    </comp>
    <comp name="--.HHN">
      <acc value="0.1536224737" flag="0"/>
      <vel value="0.0625563286" flag="0"/>
      <psa03 value="0.3064719741" flag="0"/>
      <psa10 value="0.0353515531" flag="0"/>
      <psa30 value="0.0048930245" flag="0"/>
    </comp>
    <comp name="--.HHZ">
      <acc value="0.1314396669" flag="0"/>
      <vel value="0.0303571082" flag="0"/>
      <psa03 value="0.1662232921" flag="0"/>
      <psa10 value="0.0357034607" flag="0"/>
      <psa30 value="0.0039112034" flag="0"/>
    </comp>
  </station>
  <station code="SVRH" name="SVRH" netid="KO" insttype="CMG-3T" lat="39.447" lon="31.523">
    <comp name="--.HHE">
      <acc value="0.0310488658" flag="0"/>
      <vel value="0.0098028863" flag="0"/>
      <psa03 value="0.0214440685" flag="0"/>
      <psa10 value="0.0088528349" flag="0"/>
      <psa30 value="0.0017295417" flag="0"/>
    </comp>
    <comp name="--.HHN">
      <acc value="0.0290108390" flag="0"/>
      <vel value="0.0103936588" flag="0"/>
      <psa03 value="0.0225881278" flag="0"/>
      <psa10 value="0.0071483644" flag="0"/>
      <psa30 value="0.0014151297" flag="0"/>
    </comp>
    <comp name="--.HHZ">
      <acc value="0.0257761482" flag="0"/>
      <vel value="0.0097719012" flag="0"/>
      <psa03 value="0.0241597669" flag="0"/>
      <psa10 value="0.0112503407" flag="0"/>
      <psa30 value="0.0021299431" flag="0"/>
    </comp>
  </station>
</stationlist>
