<?xml version="1.0" encoding="UTF-8" standalone="yes"?>
<!DOCTYPE earthquake SYSTEM "stationlist.dtd">
<stationlist created="" xmlns="ch.ethz.sed.shakemap.usgs.xml">
  <station code="ALT" name="ALT" netid="KO" insttype="CMG-5T" lat="39.0541" lon="30.1104">
    <comp name="--.HNE">
      <acc value="0.1086425705" flag="0"/>
      <vel value="0.0244556886" flag="0"/>
      <psa03 value="0.1309030516" flag="0"/>
      <psa10 value="0.0102659073" flag="0"/>
      <psa30 value="0.0015657292" flag="0"/>
    </comp>
    <comp name="--.HNZ">
      <acc value="0.0740676742" flag="0"/>
      <vel value="0.0207409381" flag="0"/>
      <psa03 value="0.0723066330" flag="0"/>
      <psa10 value="0.0114018513" flag="0"/>
      <psa30 value="0.0016493024" flag="0"/>
    </comp>
  </station>
  <station code="BASM" name="BASM" netid="KO" insttype="CMG-5T" lat="37.9194" lon="30.035">
    <comp name="--.HNN">
      <acc value="0.0734227019" flag="0"/>
      <vel value="0.0930823923" flag="0"/>
      <psa03 value="0.1275506011" flag="0"/>
      <psa10 value="0.1164696315" flag="0"/>
      <psa30 value="0.0073384938" flag="0"/>
    </comp>
    <comp name="--.HNZ">
      <acc value="0.0676130971" flag="0"/>
      <vel value="0.0673002017" flag="0"/>
      <psa03 value="0.0991303031" flag="0"/>
      <psa10 value="0.0765806293" flag="0"/>
      <psa30 value="0.0042077297" flag="0"/>
    </comp>
    <comp name="--.HNE">
      <acc value="0.0775719425" flag="0"/>
      <vel value="0.0866244533" flag="0"/>
      <psa03 value="0.1414955645" flag="0"/>
      <psa10 value="0.1527192654" flag="0"/>
      <psa30 value="0.0064659167" flag="0"/>
    </comp>
  </station>
  <station code="BLVD" name="BLVD" netid="KO" insttype="CMG-6T" lat="38.7946" lon="31.095">
    <comp name="--.HHE">
      <acc value="0.2078221816" flag="0"/>
      <vel value="0.0432437558" flag="0"/>
      <psa03 value="0.0974316447" flag="0"/>
      <psa10 value="0.0238059299" flag="0"/>
      <psa30 value="0.0054918440" flag="0"/>
    </comp>
    <comp name="--.HHN">
      <acc value="0.2522225517" flag="0"/>
      <vel value="0.0462714108" flag="0"/>
      <psa03 value="0.0756118507" flag="0"/>
      <psa10 value="0.0365668144" flag="0"/>
      <psa30 value="0.0036983276" flag="0"/>
    </comp>
    <comp name="--.HHZ">
      <acc value="0.1403711518" flag="0"/>
      <vel value="0.0375281556" flag="0"/>
      <psa03 value="0.0740778831" flag="0"/>
      <psa10 value="0.0464042389" flag="0"/>
      <psa30 value="0.0047636970" flag="0"/>
    </comp>
  </station>
  <station code="GEDZ" name="GEDZ" netid="KO" insttype="CMG-6T" lat="39.0445" lon="29.4105">
    <comp name="--.HHE">
      <acc value="0.0357762087" flag="0"/>
      <vel value="0.0310835081" flag="0"/>
      <psa03 value="0.1464144114" flag="0"/>
      <psa10 value="0.0463140333" flag="0"/>
      <psa30 value="0.0079282629" flag="0"/>
    </comp>
    <comp name="--.HHN">
      <acc value="0.0381390182" flag="0"/>
      <vel value="0.0246662031" flag="0"/>
      <psa03 value="0.1027115062" flag="0"/>
      <psa10 value="0.0474188917" flag="0"/>
      <psa30 value="0.0034358366" flag="0"/>
    </comp>
    <comp name="--.HHZ">
      <acc value="0.0192149182" flag="0"/>
      <vel value="0.0092023588" flag="0"/>
      <psa03 value="0.0366296691" flag="0"/>
      <psa10 value="0.0158420552" flag="0"/>
      <psa30 value="0.0034543626" flag="0"/>
    </comp>
  </station>
  <station code="KIZT" name="KIZT" netid="KO" insttype="CMG-3T" lat="38.8808" lon="31.883">
    <comp name="--.HHZ">
      <acc value="0.0106514883" flag="0"/>
      <vel value="0.0086242412" flag="0"/>
      <psa03 value="0.0140673366" flag="0"/>
      <psa10 value="0.0063123184" flag="0"/>
      <psa30 value="0.0027398372" flag="0"/>
    </comp>
    <comp name="--.HHE">
      <acc value="0.0262216069" flag="0"/>
      <vel value="0.0100505217" flag="0"/>
      <psa03 value="0.0179935242" flag="0"/>
      <psa10 value="0.0136187304" flag="0"/>
      <psa30 value="0.0023828541" flag="0"/>
    </comp>
    <comp name="--.HHN">
      <acc value="0.0262954656" flag="0"/>
      <vel value="0.0296889655" flag="0"/>
      <psa03 value="0.0332360899" flag="0"/>
      <psa10 value="0.0506550078" flag="0"/>
      <psa30 value="0.0035295364" flag="0"/>
    </comp>
  </station>
  <station code="SDAG" name="SDAG" netid="KO" insttype="CMG-6T" lat="38.4396" lon="30.9175">
    <comp name="--.HHE">
      <acc value="0.1167603953" flag="0"/>
      <vel value="0.0603332001" flag="0"/>
      <psa03 value="0.3193032693" flag="0"/>
      <psa10 value="0.1114711723" flag="0"/>
      <psa30 value="0.0082609217" flag="0"/>
    </comp>
    <comp name="--.HHN">
      <acc value="0.1536224745" flag="0"/>
      <vel value="0.0625563267" flag="0"/>
      <psa03 value="0.3064719741" flag="0"/>
      <psa10 value="0.0353515534" flag="0"/>
      <psa30 value="0.0048930167" flag="0"/>
    </comp>
    <comp name="--.HHZ">
      <acc value="0.1314396659" flag="0"/>
      <vel value="0.0303571081" flag="0"/>
      <psa03 value="0.1662232921" flag="0"/>
      <psa10 value="0.0357034604" flag="0"/>
      <psa30 value="0.0039112488" flag="0"/>
    </comp>
  </station>
  <station code="SVRH" name="SVRH" netid="KO" insttype="CMG-3T" lat="39.447" lon="31.523">
    <comp name="--.HHZ">
      <acc value="0.0257761477" flag="0"/>
      <vel value="0.0097719006" flag="0"/>
      <psa03 value="0.0241597669" flag="0"/>
      <psa10 value="0.0112503407" flag="0"/>
      <psa30 value="0.0021299311" flag="0"/>
    </comp>
    <comp name="--.HHE">
      <acc value="0.0310488662" flag="0"/>
      <vel value="0.0098028861" flag="0"/>
      <psa03 value="0.0214440685" flag="0"/>
      <psa10 value="0.0088528349" flag="0"/>
      <psa30 value="0.0017295433" flag="0"/>
    </comp>
    <comp name="--.HHN">
      <acc value="0.0290108390" flag="0"/>
      <vel value="0.0103936588" flag="0"/>
      <psa03 value="0.0225881278" flag="0"/>
      <psa10 value="0.0071483644" flag="0"/>
      <psa30 value="0.0014151052" flag="0"/>
    </comp>
  </station>
</stationlist>
