<?xml version="1.0" encoding="UTF-8" standalone="yes"?>
<!DOCTYPE earthquake SYSTEM "stationlist.dtd">
<stationlist created="" xmlns="ch.ethz.sed.shakemap.usgs.xml">
  <station code="ALT" name="ALT" netid="KO" insttype="CMG-5T" lat="39.0541" lon="30.1104">
    <comp name="--.HNZ">
      <acc value="0.0740676846" flag="0"/>
      <vel value="0.0207409386" flag="0"/>
      <psa03 value="0.0723066330" flag="0"/>
      <psa10 value="0.0114018513" flag="0"/>
      <psa30 value="0.0016493024" flag="0"/>
    </comp>
    <comp name="--.HNE">
      <acc value="0.1086425800" flag="0"/>
      <vel value="0.0244556881" flag="0"/>
      <psa03 value="0.1309030516" flag="0"/>
      <psa10 value="0.0102659073" flag="0"/>
      <psa30 value="0.0015657292" flag="0"/>
    </comp>
  </station>
  <station code="BASM" name="BASM" netid="KO" insttype="CMG-5T" lat="37.9194" lon="30.035">
    <comp name="--.HNE">
      <acc value="0.0775719381" flag="0"/>
      <vel value="0.0866244512" flag="0"/>
      <psa03 value="0.1414955645" flag="0"/>
      <psa10 value="0.1527192654" flag="0"/>
      <psa30 value="0.0064659167" flag="0"/>
    </comp>
    <comp name="--.HNN">
      <acc value="0.0734226966" flag="0"/>
      <vel value="0.0930823961" flag="0"/>
      <psa03 value="0.1275506011" flag="0"/>
      <psa10 value="0.1164696316" flag="0"/>
      <psa30 value="0.0073384937" flag="0"/>
    </comp>
    <comp name="--.HNZ">
      <acc value="0.0676130944" flag="0"/>
      <vel value="0.0673002022" flag="0"/>
      <psa03 value="0.0991303031" flag="0"/>
      <psa10 value="0.0765806293" flag="0"/>
      <psa30 value="0.0042077297" flag="0"/>
    </comp>
  </station>
  <station code="BLVD" name="BLVD" netid="KO" insttype="CMG-6T" lat="38.7946" lon="31.095">
    <comp name="--.HHN">
      <acc value="0.2522225536" flag="0"/>
      <vel value="0.0462714109" flag="0"/>
      <psa03 value="0.0756118507" flag="0"/>
      <psa10 value="0.0365668144" flag="0"/>
      <psa30 value="0.0036983276" flag="0"/>
    </comp>
    <comp name="--.HHE">
      <acc value="0.2078221877" flag="0"/>
      <vel value="0.0432437554" flag="0"/>
      <psa03 value="0.0974316447" flag="0"/>
      <psa10 value="0.0238059299" flag="0"/>
      <psa30 value="0.0054918440" flag="0"/>
    </comp>
    <comp name="--.HHZ">
      <acc value="0.1403711496" flag="0"/>
      <vel value="0.0375281557" flag="0"/>
      <psa03 value="0.0740778831" flag="0"/>
      <psa10 value="0.0464042389" flag="0"/>
      <psa30 value="0.0047636970" flag="0"/>
    </comp>
  </station>
  <station code="GEDZ" name="GEDZ" netid="KO" insttype="CMG-6T" lat="39.0445" lon="29.4105">
    <comp name="--.HHE">
      <acc value="0.0357762030" flag="0"/>
      <vel value="0.0310835100" flag="0"/>
      <psa03 value="0.1464144114" flag="0"/>
      <psa10 value="0.0463140333" flag="0"/>
      <psa30 value="0.0079282629" flag="0"/>
    </comp>
    <comp name="--.HHZ">
      <acc value="0.0192149131" flag="0"/>
      <vel value="0.0092023590" flag="0"/>
      <psa03 value="0.0366296691" flag="0"/>
      <psa10 value="0.0158420551" flag="0"/>
      <psa30 value="0.0034543626" flag="0"/>
    </comp>
    <comp name="--.HHN">
      <acc value="0.0381390552" flag="0"/>
      <vel value="0.0246662044" flag="0"/>
      <psa03 value="0.1027115062" flag="0"/>
      <psa10 value="0.0474188917" flag="0"/>
      <psa30 value="0.0034358366" flag="0"/>
    </comp>
  </station>
  <station code="KIZT" name="KIZT" netid="KO" insttype="CMG-3T" lat="38.8808" lon="31.883">
    <comp name="--.HHZ">
      <acc value="0.0106514881" flag="0"/>
      <vel value="0.0086242412" flag="0"/>
      <psa03 value="0.0140673366" flag="0"/>
      <psa10 value="0.0063123184" flag="0"/>
      <psa30 value="0.0027398372" flag="0"/>
    </comp>
    <comp name="--.HHE">
      <acc value="0.0262216065" flag="0"/>
      <vel value="0.0100505218" flag="0"/>
      <psa03 value="0.0179935242" flag="0"/>
      <psa10 value="0.0136187304" flag="0"/>
      <psa30 value="0.0023828541" flag="0"/>
    </comp>
    <comp name="--.HHN">
      <acc value="0.0262954657" flag="0"/>
      <vel value="0.0296889655" flag="0"/>
      <psa03 value="0.0332360899" flag="0"/>
      <psa10 value="0.0506550078" flag="0"/>
      <psa30 value="0.0035295364" flag="0"/>
    </comp>
  </station>
  <station code="SDAG" name="SDAG" netid="KO" insttype="CMG-6T" lat="38.4396" lon="30.9175">
    <comp name="--.HHZ">
      <acc value="0.1314396696" flag="0"/>
      <vel value="0.0303571080" flag="0"/>
      <psa03 value="0.1662232921" flag="0"/>
      <psa10 value="0.0357034604" flag="0"/>
      <psa30 value="0.0039112488" flag="0"/>
    </comp>
    <comp name="--.HHN">
      <acc value="0.1536224775" flag="0"/>
      <vel value="0.0625563270" flag="0"/>
      <psa03 value="0.3064719741" flag="0"/>
      <psa10 value="0.0353515534" flag="0"/>
      <psa30 value="0.0048930167" flag="0"/>
    </comp>
    <comp name="--.HHE">
      <acc value="0.1167603900" flag="0"/>
      <vel value="0.0603332003" flag="0"/>
      <psa03 value="0.3193032693" flag="0"/>
      <psa10 value="0.1114711723" flag="0"/>
      <psa30 value="0.0082609217" flag="0"/>
    </comp>
  </station>
  <station code="SVRH" name="SVRH" netid="KO" insttype="CMG-3T" lat="39.447" lon="31.523">
    <comp name="--.HHZ">
      <acc value="0.0257761476" flag="0"/>
      <vel value="0.0097719006" flag="0"/>
      <psa03 value="0.0241597669" flag="0"/>
      <psa10 value="0.0112503407" flag="0"/>
      <psa30 value="0.0021299311" flag="0"/>
    </comp>
    <comp name="--.HHN">
      <acc value="0.0290108390" flag="0"/>
      <vel value="0.0103936588" flag="0"/>
      <psa03 value="0.0225881278" flag="0"/>
      <psa10 value="0.0071483644" flag="0"/>
      <psa30 value="0.0014151052" flag="0"/>
    </comp>
    <comp name="--.HHE">
      <acc value="0.0310488661" flag="0"/>
      <vel value="0.0098028861" flag="0"/>
      <psa03 value="0.0214440685" flag="0"/>
      <psa10 value="0.0088528349" flag="0"/>
      <psa30 value="0.0017295433" flag="0"/>
    </comp>
  </station>
  <station code="TVSB" name="TVSB" netid="KO" insttype="CMG-3T" lat="39.4497" lon="29.4615">
    <comp name="--.HHN">
      <acc value="0.0116876338" flag="0"/>
      <vel value="0.0078467045" flag="0"/>
      <psa03 value="0.0347232428" flag="0"/>
      <psa10 value="0.0126083638" flag="0"/>
      <psa30 value="0.0012863410" flag="0"/>
    </comp>
    <comp name="--.HHE">
      <acc value="0.0132584697" flag="0"/>
      <vel value="0.0123712108" flag="0"/>
      <psa03 value="0.0313271320" flag="0"/>
      <psa10 value="0.0125279121" flag="0"/>
      <psa30 value="0.0011267493" flag="0"/>
    </comp>
    <comp name="--.HHZ">
      <acc value="0.0078461681" flag="0"/>
      <vel value="0.0050427042" flag="0"/>
      <psa03 value="0.0122785625" flag="0"/>
      <psa10 value="0.0074224363" flag="0"/>
      <psa30 value="0.0012714266" flag="0"/>
    </comp>
  </station>
  <station code="BORA" name="BORA" netid="TU" insttype="T" lat="39.8801" lon="30.4534">
    <comp name="--.HHN">
      <acc value="0.0173725695" flag="0"/>
      <vel value="0.0059485820" flag="0"/>
      <psa03 value="0.0236090804" flag="0"/>
      <psa10 value="0.0068433759" flag="0"/>
      <psa30 value="0.0012232208" flag="0"/>
    </comp>
    <comp name="--.HHZ">
      <acc value="0.0216405455" flag="0"/>
      <vel value="0.0062347443" flag="0"/>
      <psa03 value="0.0190208813" flag="0"/>
      <psa10 value="0.0088116267" flag="0"/>
      <psa30 value="0.0011759785" flag="0"/>
    </comp>
    <comp name="--.HHE">
      <acc value="0.0199835949" flag="0"/>
      <vel value="0.0068590872" flag="0"/>
      <psa03 value="0.0289935384" flag="0"/>
      <psa10 value="0.0035587364" flag="0"/>
      <psa30 value="0.0014749607" flag="0"/>
    </comp>
  </station>
</stationlist>
