<?xml version="1.0" encoding="UTF-8" standalone="yes"?>
<!DOCTYPE earthquake SYSTEM "stationlist.dtd">
<stationlist created="" xmlns="ch.ethz.sed.shakemap.usgs.xml">
  <station code="ACOR" name="ACOR" netid="HA" insttype="Horizon,120s,1200" lat="37.8905" lon="22.8694">
    <comp name="--.HHN">
      <acc value="0.0104118327" flag="0"/>
      <vel value="0.0104097015" flag="0"/>
      <psa03 value="0.0304531516" flag="0"/>
      <psa10 value="0.0159874748" flag="0"/>
      <psa30 value="0.0012421289" flag="0"/>
    </comp>
    <comp name="--.HHE">
      <acc value="0.0112140971" flag="0"/>
      <vel value="0.0114897616" flag="0"/>
      <psa03 value="0.0281419767" flag="0"/>
      <psa10 value="0.0241736798" flag="0"/>
      <psa30 value="0.0015727486" flag="0"/>
    </comp>
    <comp name="--.HHZ">
      <acc value="0.0115958403" flag="0"/>
      <vel value="0.0067582954" flag="0"/>
      <psa03 value="0.0296496179" flag="0"/>
      <psa10 value="0.0068988788" flag="0"/>
      <psa30 value="0.0005406545" flag="0"/>
    </comp>
  </station>
  <station code="AMPE" name="AMPE" netid="HA" insttype="1s-100Hz," lat="38.3015" lon="23.2688">
    <comp name="--.HHZ">
      <acc value="0.0453090178" flag="0"/>
      <vel value="0.0186384817" flag="0"/>
      <psa03 value="0.0597419576" flag="0"/>
      <psa10 value="0.0154805100" flag="0"/>
      <psa30 value="0.0011076513" flag="0"/>
    </comp>
    <comp name="--.HHN">
      <acc value="0.0756266110" flag="0"/>
      <vel value="0.0413090911" flag="0"/>
      <psa03 value="0.1062197649" flag="0"/>
      <psa10 value="0.0208521456" flag="0"/>
      <psa30 value="0.0017918334" flag="0"/>
    </comp>
    <comp name="--.HHE">
      <acc value="0.1057185622" flag="0"/>
      <vel value="0.0493398080" flag="0"/>
      <psa03 value="0.1367560967" flag="0"/>
      <psa10 value="0.0283820477" flag="0"/>
      <psa30 value="0.0022876020" flag="0"/>
    </comp>
  </station>
  <station code="ATAL" name="ATAL" netid="HA" insttype="120" lat="38.6926" lon="23.0213">
    <comp name="--.HHE">
      <acc value="0.0880125103" flag="0"/>
      <vel value="0.0322373930" flag="0"/>
      <psa03 value="0.1685853921" flag="0"/>
      <psa10 value="0.0097173304" flag="0"/>
      <psa30 value="0.0006768580" flag="0"/>
    </comp>
    <comp name="--.HHZ">
      <acc value="0.0959641587" flag="0"/>
      <vel value="0.0326066586" flag="0"/>
      <psa03 value="0.1881585340" flag="0"/>
      <psa10 value="0.0073628525" flag="0"/>
      <psa30 value="0.0010022097" flag="0"/>
    </comp>
    <comp name="--.HHN">
      <acc value="0.1053783479" flag="0"/>
      <vel value="0.0289282404" flag="0"/>
      <psa03 value="0.2563653290" flag="0"/>
      <psa10 value="0.0113004388" flag="0"/>
      <psa30 value="0.0005969832" flag="0"/>
    </comp>
  </station>
  <station code="ATHU" name="ATHU" netid="HA" insttype="60" lat="37.9665" lon="23.7845">
    <comp name="--.HHN">
      <acc value="0.0217501857" flag="0"/>
      <vel value="0.0084906941" flag="0"/>
      <psa03 value="0.0500258922" flag="0"/>
      <psa10 value="0.0047234999" flag="0"/>
      <psa30 value="0.0004701549" flag="0"/>
    </comp>
    <comp name="--.HHE">
      <acc value="0.0233133125" flag="0"/>
      <vel value="0.0070297167" flag="0"/>
      <psa03 value="0.0491051980" flag="0"/>
      <psa10 value="0.0048402400" flag="0"/>
      <psa30 value="0.0003589544" flag="0"/>
    </comp>
    <comp name="--.HHZ">
      <acc value="0.0235225936" flag="0"/>
      <vel value="0.0081188347" flag="0"/>
      <psa03 value="0.0344369329" flag="0"/>
      <psa10 value="0.0039929094" flag="0"/>
      <psa30 value="0.0006535050" flag="0"/>
    </comp>
  </station>
  <station code="AXAR" name="AXAR" netid="HA" insttype="Horizon,120s,1200" lat="38.7664" lon="22.659">
    <comp name="--.HHE">
      <acc value="0.0814881322" flag="0"/>
      <vel value="0.0352184727" flag="0"/>
      <psa03 value="0.2498895541" flag="0"/>
      <psa10 value="0.0172602296" flag="0"/>
      <psa30 value="0.0016025621" flag="0"/>
    </comp>
    <comp name="--.HHZ">
      <acc value="0.0526740875" flag="0"/>
      <vel value="0.0218375563" flag="0"/>
      <psa03 value="0.1098540404" flag="0"/>
      <psa10 value="0.0182358824" flag="0"/>
      <psa30 value="0.0007445201" flag="0"/>
    </comp>
    <comp name="--.HHN">
      <acc value="0.1079823420" flag="0"/>
      <vel value="0.0438727070" flag="0"/>
      <psa03 value="0.2511285308" flag="0"/>
      <psa10 value="0.0225229655" flag="0"/>
      <psa30 value="0.0012591631" flag="0"/>
    </comp>
  </station>
  <station code="DOMV" name="DOMV" netid="HA" insttype="60" lat="38.2569" lon="22.9795">
    <comp name="--.HHN">
      <acc value="0.1180464008" flag="0"/>
      <vel value="0.0334910278" flag="0"/>
      <psa03 value="0.1140723192" flag="0"/>
      <psa10 value="0.0229360601" flag="0"/>
      <psa30 value="0.0011009925" flag="0"/>
    </comp>
    <comp name="--.HHE">
      <acc value="0.1361486531" flag="0"/>
      <vel value="0.0434952302" flag="0"/>
      <psa03 value="0.1741720202" flag="0"/>
      <psa10 value="0.0178155430" flag="0"/>
      <psa30 value="0.0014094469" flag="0"/>
    </comp>
    <comp name="--.HHZ">
      <acc value="0.0925274232" flag="0"/>
      <vel value="0.0215066428" flag="0"/>
      <psa03 value="0.1167919635" flag="0"/>
      <psa10 value="0.0064638151" flag="0"/>
      <psa30 value="0.0005211312" flag="0"/>
    </comp>
  </station>
  <station code="ERTR" name="ERTR" netid="HA" insttype="Horizon,120s,1200" lat="38.4066" lon="23.7865">
    <comp name="--.HHE">
      <acc value="0.1189651770" flag="0"/>
      <vel value="0.0246166694" flag="0"/>
      <psa03 value="0.1453687681" flag="0"/>
      <psa10 value="0.0390234944" flag="0"/>
      <psa30 value="0.0014631764" flag="0"/>
    </comp>
    <comp name="--.HHN">
      <acc value="0.1566226077" flag="0"/>
      <vel value="0.0384989385" flag="0"/>
      <psa03 value="0.3826554595" flag="0"/>
      <psa10 value="0.0162008201" flag="0"/>
      <psa30 value="0.0018888838" flag="0"/>
    </comp>
    <comp name="--.HHZ">
      <acc value="0.1156408691" flag="0"/>
      <vel value="0.0259674997" flag="0"/>
      <psa03 value="0.1545194350" flag="0"/>
      <psa10 value="0.0245301688" flag="0"/>
      <psa30 value="0.0017071394" flag="0"/>
    </comp>
  </station>
  <station code="KARY" name="KARY" netid="HA" insttype="60" lat="38.0321" lon="24.437">
    <comp name="--.HHE">
      <acc value="0.0343972181" flag="0"/>
      <vel value="0.0068915017" flag="0"/>
      <psa03 value="0.0316205208" flag="0"/>
      <psa10 value="0.0029127326" flag="0"/>
      <psa30 value="0.0003264783" flag="0"/>
    </comp>
    <comp name="--.HHZ">
      <acc value="0.0325823316" flag="0"/>
      <vel value="0.0093218563" flag="0"/>
      <psa03 value="0.0227360958" flag="0"/>
      <psa10 value="0.0042477345" flag="0"/>
      <psa30 value="0.0004101549" flag="0"/>
    </comp>
    <comp name="--.HHN">
      <acc value="0.0651187680" flag="0"/>
      <vel value="0.0116482390" flag="0"/>
      <psa03 value="0.0425464570" flag="0"/>
      <psa10 value="0.0058410290" flag="0"/>
      <psa30 value="0.0003448825" flag="0"/>
    </comp>
  </station>
  <station code="LOUT" name="LOUT" netid="HA" insttype="30" lat="37.9879" lon="22.9743">
    <comp name="--.HHZ">
      <acc value="0.0397033222" flag="0"/>
      <vel value="0.0162404221" flag="0"/>
      <psa03 value="0.0547214822" flag="0"/>
      <psa10 value="0.0249467638" flag="0"/>
      <psa30 value="0.0010215562" flag="0"/>
    </comp>
    <comp name="--.HHN">
      <acc value="0.0826808734" flag="0"/>
      <vel value="0.0363525850" flag="0"/>
      <psa03 value="0.1444033846" flag="0"/>
      <psa10 value="0.0380053249" flag="0"/>
      <psa30 value="0.0014534580" flag="0"/>
    </comp>
    <comp name="--.HHE">
      <acc value="0.1095376622" flag="0"/>
      <vel value="0.0382057860" flag="0"/>
      <psa03 value="0.1346520534" flag="0"/>
      <psa10 value="0.0343110885" flag="0"/>
      <psa30 value="0.0020021871" flag="0"/>
    </comp>
  </station>
  <station code="MDRA" name="MDRA" netid="HA" insttype="60" lat="38.0606" lon="23.4662">
    <comp name="--.HHE">
      <acc value="0.0225743097" flag="0"/>
      <vel value="0.0079701843" flag="0"/>
      <psa03 value="0.0365939312" flag="0"/>
      <psa10 value="0.0049313709" flag="0"/>
      <psa30 value="0.0003211981" flag="0"/>
    </comp>
    <comp name="--.HHN">
      <acc value="0.0379549998" flag="0"/>
      <vel value="0.0146686922" flag="0"/>
      <psa03 value="0.0671001463" flag="0"/>
      <psa10 value="0.0038329285" flag="0"/>
      <psa30 value="0.0005180453" flag="0"/>
    </comp>
    <comp name="--.HHZ">
      <acc value="0.0223205459" flag="0"/>
      <vel value="0.0122449096" flag="0"/>
      <psa03 value="0.0383185111" flag="0"/>
      <psa10 value="0.0075833165" flag="0"/>
      <psa30 value="0.0004269429" flag="0"/>
    </comp>
  </station>
  <station code="MRKA" name="MRKA" netid="HA" insttype="Horizon,120s,1200" lat="38.7047" lon="23.5863">
    <comp name="--.HHE">
      <acc value="5.7632150127" flag="0"/>
      <vel value="1.0765438709" flag="0"/>
      <psa03 value="2.2801195386" flag="0"/>
      <psa10 value="0.1800716210" flag="0"/>
      <psa30 value="0.0208105650" flag="0"/>
    </comp>
    <comp name="--.HHZ">
      <acc value="3.8970237334" flag="0"/>
      <vel value="0.5394942629" flag="0"/>
      <psa03 value="0.8947674348" flag="0"/>
      <psa10 value="0.0971624707" flag="0"/>
      <psa30 value="0.0073847758" flag="0"/>
    </comp>
    <comp name="--.HHN">
      <acc value="3.1904074272" flag="0"/>
      <vel value="0.5902851028" flag="0"/>
      <psa03 value="2.0263181666" flag="0"/>
      <psa10 value="0.1677682126" flag="0"/>
      <psa30 value="0.0109505059" flag="0"/>
    </comp>
  </station>
  <station code="MRTH" name="MRTH" netid="HA" insttype="S100," lat="38.1225" lon="23.9409">
    <comp name="--.HHE">
      <acc value="0.0763511219" flag="0"/>
      <vel value="0.0260142007" flag="0"/>
      <psa03 value="0.1383354777" flag="0"/>
      <psa10 value="0.0266690441" flag="0"/>
      <psa30 value="0.0007717680" flag="0"/>
    </comp>
    <comp name="--.HHZ">
      <acc value="0.0568755051" flag="0"/>
      <vel value="0.0182529325" flag="0"/>
      <psa03 value="0.1156494205" flag="0"/>
      <psa10 value="0.0126654301" flag="0"/>
      <psa30 value="0.0007655477" flag="0"/>
    </comp>
    <comp name="--.HHN">
      <acc value="0.0668441811" flag="0"/>
      <vel value="0.0240514099" flag="0"/>
      <psa03 value="0.0990305038" flag="0"/>
      <psa10 value="0.0185858647" flag="0"/>
      <psa30 value="0.0010595516" flag="0"/>
    </comp>
  </station>
  <station code="STFN" name="STFN" netid="HA" insttype="1s-100Hz," lat="38.1766" lon="23.544">
    <comp name="--.HHE">
      <acc value="0.0702691057" flag="0"/>
      <vel value="0.0251596385" flag="0"/>
      <psa03 value="0.1072130818" flag="0"/>
      <psa10 value="0.0206908617" flag="0"/>
      <psa30 value="0.0008695284" flag="0"/>
    </comp>
    <comp name="--.HHZ">
      <acc value="0.0549857361" flag="0"/>
      <vel value="0.0106362643" flag="0"/>
      <psa03 value="0.0447001276" flag="0"/>
      <psa10 value="0.0108191735" flag="0"/>
      <psa30 value="0.0010603009" flag="0"/>
    </comp>
    <comp name="--.HHN">
      <acc value="0.0706407707" flag="0"/>
      <vel value="0.0204221685" flag="0"/>
      <psa03 value="0.0897025913" flag="0"/>
      <psa10 value="0.0143049141" flag="0"/>
      <psa30 value="0.0013832480" flag="0"/>
    </comp>
  </station>
  <station code="THAL" name="THAL" netid="HA" insttype="30" lat="38.0357" lon="22.6634">
    <comp name="--.HHN">
      <acc value="0.0558959886" flag="0"/>
      <vel value="0.0295175630" flag="0"/>
      <psa03 value="0.1239204476" flag="0"/>
      <psa10 value="0.0471707964" flag="0"/>
      <psa30 value="0.0017165801" flag="0"/>
    </comp>
    <comp name="--.HHE">
      <acc value="0.0696545286" flag="0"/>
      <vel value="0.0279160496" flag="0"/>
      <psa03 value="0.1374294752" flag="0"/>
      <psa10 value="0.0377374838" flag="0"/>
      <psa30 value="0.0023012358" flag="0"/>
    </comp>
    <comp name="--.HHZ">
      <acc value="0.0340774438" flag="0"/>
      <vel value="0.0137167786" flag="0"/>
      <psa03 value="0.0641904039" flag="0"/>
      <psa10 value="0.0154748237" flag="0"/>
      <psa30 value="0.0010579293" flag="0"/>
    </comp>
  </station>
  <station code="THIV" name="THIV" netid="HA" insttype="25" lat="38.299" lon="23.332">
    <comp name="--.HHN">
      <acc value="0.0251042128" flag="0"/>
      <vel value="0.0069484983" flag="0"/>
      <psa03 value="0.0281212013" flag="0"/>
      <psa10 value="0.0065843686" flag="0"/>
      <psa30 value="0.0003556557" flag="0"/>
    </comp>
    <comp name="--.HHZ">
      <acc value="0.0285564572" flag="0"/>
      <vel value="0.0054983635" flag="0"/>
      <psa03 value="0.0295759636" flag="0"/>
      <psa10 value="0.0025554659" flag="0"/>
      <psa30 value="0.0005924500" flag="0"/>
    </comp>
    <comp name="--.HHE">
      <acc value="0.0346364752" flag="0"/>
      <vel value="0.0098850158" flag="0"/>
      <psa03 value="0.0472349080" flag="0"/>
      <psa10 value="0.0100603069" flag="0"/>
      <psa30 value="0.0005878094" flag="0"/>
    </comp>
  </station>
  <station code="VILL" name="VILL" netid="HA" insttype="Horizon,120s,1200" lat="38.1642" lon="23.3122">
    <comp name="--.HHE">
      <acc value="0.0581791492" flag="0"/>
      <vel value="0.0194385606" flag="0"/>
      <psa03 value="0.0879586087" flag="0"/>
      <psa10 value="0.0203820200" flag="0"/>
      <psa30 value="0.0012912792" flag="0"/>
    </comp>
    <comp name="--.HHN">
      <acc value="0.0542986644" flag="0"/>
      <vel value="0.0169351874" flag="0"/>
      <psa03 value="0.0813057069" flag="0"/>
      <psa10 value="0.0128101300" flag="0"/>
      <psa30 value="0.0008519310" flag="0"/>
    </comp>
    <comp name="--.HHZ">
      <acc value="0.0250941780" flag="0"/>
      <vel value="0.0076446472" flag="0"/>
      <psa03 value="0.0495830665" flag="0"/>
      <psa10 value="0.0071695689" flag="0"/>
      <psa30 value="0.0005235267" flag="0"/>
    </comp>
  </station>
  <station code="ATH5" name="ATH5" netid="HI" insttype="CMG-5TD,ACCELEROMETER,GURALP" lat="37.9754" lon="23.7371">
    <comp name="--.HNE">
      <acc value="0.0482801386" flag="0"/>
      <vel value="0.0150989208" flag="0"/>
      <psa03 value="0.0693766350" flag="0"/>
      <psa10 value="0.0157009023" flag="0"/>
      <psa30 value="0.0010577134" flag="0"/>
    </comp>
    <comp name="--.HNZ">
      <acc value="0.0245959350" flag="0"/>
      <vel value="0.0095112765" flag="0"/>
      <psa03 value="0.0404143911" flag="0"/>
      <psa10 value="0.0058542701" flag="0"/>
      <psa30 value="0.0008984292" flag="0"/>
    </comp>
    <comp name="--.HNN">
      <acc value="0.0533717874" flag="0"/>
      <vel value="0.0205120332" flag="0"/>
      <psa03 value="0.0979049036" flag="0"/>
      <psa10 value="0.0142809010" flag="0"/>
      <psa30 value="0.0010372616" flag="0"/>
    </comp>
  </station>
  <station code="VOL2" name="VOL2" netid="HI" insttype="CMG-5TD,ACCELEROMETER,GURALP" lat="39.366" lon="22.9506">
    <comp name="--.HNE">
      <acc value="0.1062976748" flag="0"/>
      <vel value="0.0525157234" flag="0"/>
      <psa03 value="0.4019640149" flag="0"/>
      <psa10 value="0.0312673267" flag="0"/>
      <psa30 value="0.0018559632" flag="0"/>
    </comp>
    <comp name="--.HNZ">
      <acc value="0.0521890243" flag="0"/>
      <vel value="0.0173713697" flag="0"/>
      <psa03 value="0.0873972946" flag="0"/>
      <psa10 value="0.0055048302" flag="0"/>
      <psa30 value="0.0005858251" flag="0"/>
    </comp>
    <comp name="--.HNN">
      <acc value="0.1171095914" flag="0"/>
      <vel value="0.0468804206" flag="0"/>
      <psa03 value="0.1790773130" flag="0"/>
      <psa10 value="0.0238251335" flag="0"/>
      <psa30 value="0.0024684998" flag="0"/>
    </comp>
  </station>
  <station code="ATH" name="ATH" netid="HL" insttype="DR24" lat="37.9738" lon="23.7177">
    <comp name="--.HHN">
      <acc value="0.1108769427" flag="0"/>
      <vel value="0.0387021310" flag="0"/>
      <psa03 value="0.2697699865" flag="0"/>
      <psa10 value="0.0181327695" flag="0"/>
      <psa30 value="0.0016261994" flag="0"/>
    </comp>
    <comp name="--.HHE">
      <acc value="0.0803282483" flag="0"/>
      <vel value="0.0250964153" flag="0"/>
      <psa03 value="0.1490307696" flag="0"/>
      <psa10 value="0.0165894386" flag="0"/>
      <psa30 value="0.0010021797" flag="0"/>
    </comp>
    <comp name="--.HHZ">
      <acc value="0.0483786146" flag="0"/>
      <vel value="0.0157622145" flag="0"/>
      <psa03 value="0.0682968539" flag="0"/>
      <psa10 value="0.0064300247" flag="0"/>
      <psa30 value="0.0010460765" flag="0"/>
    </comp>
  </station>
  <station code="ATHP" name="ATHP" netid="HL" insttype="CMG-5" lat="38.0008" lon="23.7735">
    <comp name="00.HNE">
      <acc value="0.0570628483" flag="0"/>
      <vel value="0.0311816894" flag="0"/>
      <psa03 value="0.1751028033" flag="0"/>
      <psa10 value="0.0093915050" flag="0"/>
      <psa30 value="0.0009447120" flag="0"/>
    </comp>
    <comp name="00.HNN">
      <acc value="0.0498682213" flag="0"/>
      <vel value="0.0192963412" flag="0"/>
      <psa03 value="0.0978793858" flag="0"/>
      <psa10 value="0.0125632980" flag="0"/>
      <psa30 value="0.0009058101" flag="0"/>
    </comp>
    <comp name="00.HNZ">
      <acc value="0.0302699662" flag="0"/>
      <vel value="0.0105591760" flag="0"/>
      <psa03 value="0.0509160220" flag="0"/>
      <psa10 value="0.0068828050" flag="0"/>
      <psa30 value="0.0007410741" flag="0"/>
    </comp>
  </station>
  <station code="LKR" name="LKR" netid="HL" insttype="65535" lat="38.6496" lon="22.9988">
    <comp name="--.HHE">
      <acc value="0.1544658672" flag="0"/>
      <vel value="0.0314746832" flag="0"/>
      <psa03 value="0.1001557505" flag="0"/>
      <psa10 value="0.0065736124" flag="0"/>
      <psa30 value="0.0006661136" flag="0"/>
    </comp>
    <comp name="--.HHZ">
      <acc value="0.0833427613" flag="0"/>
      <vel value="0.0179764086" flag="0"/>
      <psa03 value="0.0591094817" flag="0"/>
      <psa10 value="0.0070501455" flag="0"/>
      <psa30 value="0.0004742311" flag="0"/>
    </comp>
    <comp name="--.HHN">
      <acc value="0.1190078483" flag="0"/>
      <vel value="0.0317837101" flag="0"/>
      <psa03 value="0.1200302121" flag="0"/>
      <psa10 value="0.0107745633" flag="0"/>
      <psa30 value="0.0008241271" flag="0"/>
    </comp>
  </station>
  <station code="NEO" name="NEO" netid="HL" insttype="120" lat="39.3057" lon="23.2219">
    <comp name="--.HHN">
      <acc value="0.2219900039" flag="0"/>
      <vel value="0.0874011035" flag="0"/>
      <psa03 value="0.5629271565" flag="0"/>
      <psa10 value="0.0402860963" flag="0"/>
      <psa30 value="0.0028366455" flag="0"/>
    </comp>
    <comp name="--.HHE">
      <acc value="0.2975635077" flag="0"/>
      <vel value="0.1023316537" flag="0"/>
      <psa03 value="0.5226408153" flag="0"/>
      <psa10 value="0.0260791237" flag="0"/>
      <psa30 value="0.0038579199" flag="0"/>
    </comp>
    <comp name="--.HHZ">
      <acc value="0.1305947437" flag="0"/>
      <vel value="0.0429401786" flag="0"/>
      <psa03 value="0.1980501150" flag="0"/>
      <psa10 value="0.0193803806" flag="0"/>
      <psa30 value="0.0015979191" flag="0"/>
    </comp>
  </station>
  <station code="NOAC" name="NOAC" netid="HL" insttype="CMG-5" lat="37.9738" lon="23.7177">
    <comp name="00.HNE">
      <acc value="0.0812332263" flag="0"/>
      <vel value="0.0266206916" flag="0"/>
      <psa03 value="0.1600451122" flag="0"/>
      <psa10 value="0.0176516337" flag="0"/>
      <psa30 value="0.0011000592" flag="0"/>
    </comp>
    <comp name="00.HNN">
      <acc value="0.1025317903" flag="0"/>
