<stationlist created="1631873495">
	<station code="GMLD" name="GMLD" netid="KO" source="Bogazici University Kandilli Observatory And Earthquake Research Institute (KOERI)" insttype="" lat="38.0766" lon="26.9157">
		<comp name="--.HNE" depth="0.0">
			<acc value="0.899458134" flag="0"/>
			<vel value="-0.39344" flag="0"/>
			<psa03 value="2.37997219665" flag="0"/>
			<psa10 value="0.165521556274" flag="0"/>
			<psa30 value="0.0101041325206" flag="0"/>
		</comp>
		<comp name="--.HNN" depth="0.0">
			<acc value="-1.005081174" flag="0"/>
			<vel value="0.353737" flag="0"/>
			<psa03 value="2.16082486863" flag="0"/>
			<psa10 value="0.141078888798" flag="0"/>
			<psa30 value="0.00937975619545" flag="0"/>
		</comp>
		<comp name="--.HNZ" depth="0.0">
			<acc value="0.672710298" flag="0"/>
			<vel value="0.162387" flag="0"/>
			<psa03 value="1.35372020344" flag="0"/>
			<psa10 value="0.050649072736" flag="0"/>
			<psa30 value="0.00463171322912" flag="0"/>
		</comp>
	</station>
</stationlist>
