<stationlist created="1674914423">
	<station code="ARCI" name="ARCI" netid="IV" source="Italian National Seismic Network (INSN)" insttype="" lat="42.8519" lon="11.4754">
		<comp name=".HHE" depth="0.0">
			<acc value="0.000658795204577" flag="0"/>
			<vel value="0.000755962435909" flag="0"/>
			<psa03 value="0.00174257295644" flag="0"/>
			<psa10 value="0.00200635291103" flag="0"/>
			<psa30 value="0.000101909784877" flag="0"/>
		</comp>
		<comp name=".HHN" depth="0.0">
			<acc value="0.00106203395168" flag="0"/>
			<vel value="0.00104789103794" flag="0"/>
			<psa03 value="0.00212079397526" flag="0"/>
			<psa10 value="0.00175088762834" flag="0"/>
			<psa30 value="0.000112911451184" flag="0"/>
		</comp>
		<comp name=".HHZ" depth="0.0">
			<acc value="0.000922416488848" flag="0"/>
			<vel value="0.000407555694997" flag="0"/>
			<psa03 value="0.0009690768919" flag="0"/>
			<psa10 value="0.000571327671871" flag="0"/>
			<psa30 value="6.79759288528e-05" flag="0"/>
		</comp>
		<comp name=".HNE" depth="0.0">
			<acc value="0.000702778200707" flag="0"/>
			<vel value="0.000737589133771" flag="0"/>
			<psa03 value="0.00165886510001" flag="0"/>
			<psa10 value="0.00195513893242" flag="0"/>
			<psa30 value="0.000102527084885" flag="0"/>
		</comp>
		<comp name=".HNN" depth="0.0">
			<acc value="0.00109997387242" flag="0"/>
			<vel value="0.00106371238351" flag="0"/>
			<psa03 value="0.00210203866381" flag="0"/>
			<psa10 value="0.00177254050805" flag="0"/>
			<psa30 value="0.000105025140994" flag="0"/>
		</comp>
		<comp name=".HNZ" depth="0.0">
			<acc value="0.000905677097973" flag="0"/>
			<vel value="0.000405462586691" flag="0"/>
			<psa03 value="0.000942670927141" flag="0"/>
			<psa10 value="0.000539340865404" flag="0"/>
			<psa30 value="6.7343985948e-05" flag="0"/>
		</comp>
	</station>
	<station code="ASCOL" name="ASCOL" netid="IV" source="Italian National Seismic Network (INSN)" insttype="" lat="42.851223" lon="13.58969">
		<comp name=".EHE" depth="0.0">
			<acc value="0.00518009629345" flag="0"/>
			<vel value="0.00151558521639" flag="0"/>
			<psa03 value="0.00591516528817" flag="0"/>
			<psa10 value="0.00272665234609" flag="0"/>
			<psa30 value="0.000251549554549" flag="0"/>
		</comp>
		<comp name=".EHN" depth="0.0">
			<acc value="0.00335350170308" flag="0"/>
			<vel value="0.0013059525862" flag="0"/>
			<psa03 value="0.00626054558979" flag="0"/>
			<psa10 value="0.00154843445118" flag="0"/>
			<psa30 value="0.000207840747596" flag="0"/>
		</comp>
		<comp name=".EHZ" depth="0.0">
			<acc value="0.00512143181022" flag="0"/>
			<vel value="0.000926473315567" flag="0"/>
			<psa03 value="0.00471006006522" flag="0"/>
			<psa10 value="0.00150620477868" flag="0"/>
			<psa30 value="0.000180444310321" flag="0"/>
		</comp>
		<comp name=".HNE" depth="0.0">
			<acc value="0.00277460233932" flag="0"/>
			<vel value="0.000804391751257" flag="0"/>
			<psa03 value="0.00289206593413" flag="0"/>
			<psa10 value="0.00135949951329" flag="0"/>
			<psa30 value="0.000166149418042" flag="0"/>
		</comp>
		<comp name=".HNN" depth="0.0">
			<acc value="0.00176201343462" flag="0"/>
			<vel value="0.000684419236343" flag="0"/>
			<psa03 value="0.00309135062014" flag="0"/>
			<psa10 value="0.00075979300834" flag="0"/>
			<psa30 value="0.00012305156302" flag="0"/>
		</comp>
		<comp name=".HNZ" depth="0.0">
			<acc value="0.00174307805736" flag="0"/>
			<vel value="0.000465402172566" flag="0"/>
			<psa03 value="0.00236173685712" flag="0"/>
			<psa10 value="0.000722156042418" flag="0"/>
			<psa30 value="9.55879533265e-05" flag="0"/>
		</comp>
	</station>
	<station code="ASOL" name="ASOL" netid="IV" source="Italian National Seismic Network (INSN)" insttype="" lat="45.8003" lon="11.9023">
		<comp name=".EHE" depth="0.0">
			<acc value="0.0180983779331" flag="0"/>
			<vel value="0.00701659119178" flag="0"/>
			<psa03 value="0.0428240790726" flag="0"/>
			<psa10 value="0.00517634931401" flag="0"/>
			<psa30 value="0.000617871868481" flag="0"/>
		</comp>
		<comp name=".EHN" depth="0.0">
			<acc value="0.0121749469748" flag="0"/>
			<vel value="0.00608875154607" flag="0"/>
			<psa03 value="0.0318708743098" flag="0"/>
			<psa10 value="0.00350698575809" flag="0"/>
			<psa30 value="0.000302354144062" flag="0"/>
		</comp>
		<comp name=".EHZ" depth="0.0">
			<acc value="0.00705241743884" flag="0"/>
			<vel value="0.00228710256369" flag="0"/>
			<psa03 value="0.0225510485838" flag="0"/>
			<psa10 value="0.00208662322855" flag="0"/>
			<psa30 value="0.000122212640258" flag="0"/>
		</comp>
		<comp name=".HNE" depth="0.0">
			<acc value="0.0370243245381" flag="0"/>
			<vel value="0.014154592839" flag="0"/>
			<psa03 value="0.0859161238134" flag="0"/>
			<psa10 value="0.0104770296768" flag="0"/>
			<psa30 value="0.00123410185736" flag="0"/>
		</comp>
		<comp name=".HNN" depth="0.0">
			<acc value="0.0248643022163" flag="0"/>
			<vel value="0.0123124808033" flag="0"/>
			<psa03 value="0.0647046717838" flag="0"/>
			<psa10 value="0.00705702718091" flag="0"/>
			<psa30 value="0.000687042075664" flag="0"/>
		</comp>
		<comp name=".HNZ" depth="0.0">
			<acc value="0.0136152633279" flag="0"/>
			<vel value="0.00494689871413" flag="0"/>
			<psa03 value="0.0453480144999" flag="0"/>
			<psa10 value="0.00507833375846" flag="0"/>
			<psa30 value="0.000790193804797" flag="0"/>
		</comp>
	</station>
	<station code="ATCC" name="ATCC" netid="IV" source="Italian National Seismic Network (INSN)" insttype="" lat="43.18514" lon="12.63994">
		<comp name=".EHE" depth="1.0">
			<acc value="0.0122996458862" flag="0"/>
			<vel value="0.0054259695949" flag="0"/>
			<psa03 value="0.0326519026117" flag="0"/>
			<psa10 value="0.00470315796738" flag="0"/>
			<psa30 value="0.000540938438684" flag="0"/>
		</comp>
		<comp name=".EHN" depth="1.0">
			<acc value="0.00772456818181" flag="0"/>
			<vel value="0.00395565784642" flag="0"/>
			<psa03 value="0.0234187857546" flag="0"/>
			<psa10 value="0.00467760377455" flag="0"/>
			<psa30 value="0.000419168184502" flag="0"/>
		</comp>
		<comp name=".EHZ" depth="1.0">
			<acc value="0.00419780245627" flag="0"/>
			<vel value="0.00208073589241" flag="0"/>
			<psa03 value="0.016489710852" flag="0"/>
			<psa10 value="0.00252875572078" flag="0"/>
			<psa30 value="0.000600849542915" flag="0"/>
		</comp>
		<comp name=".HNE" depth="1.0">
			<acc value="0.0126745215615" flag="0"/>
			<vel value="0.00504992066848" flag="0"/>
			<psa03 value="0.0289103292299" flag="0"/>
			<psa10 value="0.00459650699604" flag="0"/>
			<psa30 value="0.00107080083113" flag="0"/>
		</comp>
		<comp name=".HNN" depth="1.0">
			<acc value="0.00911053830059" flag="0"/>
			<vel value="0.00495405419848" flag="0"/>
			<psa03 value="0.0271686201002" flag="0"/>
			<psa10 value="0.00456616279839" flag="0"/>
			<psa30 value="0.000529328242482" flag="0"/>
		</comp>
		<comp name=".HNZ" depth="1.0">
			<acc value="0.00420654165602" flag="0"/>
			<vel value="0.00210473939519" flag="0"/>
			<psa03 value="0.0168262982534" flag="0"/>
			<psa10 value="0.00273852094482" flag="0"/>
			<psa30 value="0.000595941717797" flag="0"/>
		</comp>
	</station>
	<station code="ATFO" name="ATFO" netid="IV" source="Italian National Seismic Network (INSN)" insttype="" lat="43.3666" lon="12.5715">
		<comp name=".HHE" depth="1.0">
			<acc value="0.00670969106998" flag="0"/>
			<vel value="0.00542263603495" flag="0"/>
			<psa03 value="0.0211870676017" flag="0"/>
			<psa10 value="0.00636638096023" flag="0"/>
			<psa30 value="0.000513032162946" flag="0"/>
		</comp>
		<comp name=".HHN" depth="1.0">
			<acc value="0.00769418772878" flag="0"/>
			<vel value="0.0039736279708" flag="0"/>
			<psa03 value="0.021972736836" flag="0"/>
			<psa10 value="0.00319805927761" flag="0"/>
			<psa30 value="0.00030125547753" flag="0"/>
		</comp>
		<comp name=".HHZ" depth="1.0">
			<acc value="0.00464344099931" flag="0"/>
			<vel value="0.00207646051156" flag="0"/>
			<psa03 value="0.0122254478967" flag="0"/>
			<psa10 value="0.00262539657589" flag="0"/>
			<psa30 value="0.000183488795857" flag="0"/>
		</comp>
	</station>
	<station code="ATLO" name="ATLO" netid="IV" source="Italian National Seismic Network (INSN)" insttype="" lat="43.31516" lon="12.40726">
		<comp name=".EHE" depth="1.0">
			<acc value="0.00367218798107" flag="0"/>
			<vel value="0.00281453172454" flag="0"/>
			<psa03 value="0.0114768553374" flag="0"/>
			<psa10 value="0.0040282360696" flag="0"/>
			<psa30 value="0.000499023787042" flag="0"/>
		</comp>
		<comp name=".EHN" depth="1.0">
			<acc value="0.00321924474278" flag="0"/>
			<vel value="0.00286580454863" flag="0"/>
			<psa03 value="0.00841875106034" flag="0"/>
			<psa10 value="0.00280385472599" flag="0"/>
			<psa30 value="0.000547774464453" flag="0"/>
		</comp>
		<comp name=".EHZ" depth="1.0">
			<acc value="0.00242649126041" flag="0"/>
			<vel value="0.00174293337949" flag="0"/>
			<psa03 value="0.00641198010074" flag="0"/>
			<psa10 value="0.00142030768216" flag="0"/>
			<psa30 value="0.000269568300285" flag="0"/>
		</comp>
	</station>
	<station code="ATPC" name="ATPC" netid="IV" source="Italian National Seismic Network (INSN)" insttype="" lat="43.4807" lon="12.457">
		<comp name=".HNE" depth="1.0">
			<acc value="0.0116594001949" flag="0"/>
			<vel value="0.00425731673084" flag="0"/>
			<psa03 value="0.0261149721762" flag="0"/>
			<psa10 value="0.00453344516224" flag="0"/>
			<psa30 value="0.000407147961138" flag="0"/>
		</comp>
		<comp name=".HNN" depth="1.0">
			<acc value="0.00972702078495" flag="0"/>
			<vel value="0.00510322744904" flag="0"/>
			<psa03 value="0.0275589454366" flag="0"/>
			<psa10 value="0.00450793175336" flag="0"/>
			<psa30 value="0.000298186602357" flag="0"/>
		</comp>
		<comp name=".HNZ" depth="1.0">
			<acc value="0.00485525667028" flag="0"/>
			<vel value="0.00229148484951" flag="0"/>
			<psa03 value="0.0147972458699" flag="0"/>
			<psa10 value="0.00361237266134" flag="0"/>
			<psa30 value="0.000442471342805" flag="0"/>
		</comp>
	</station>
	<station code="ATVO" name="ATVO" netid="IV" source="Italian National Seismic Network (INSN)" insttype="" lat="43.38211" lon="12.40663">
		<comp name=".HHE" depth="1.0">
			<acc value="0.00869176392826" flag="0"/>
			<vel value="0.00456932756118" flag="0"/>
			<psa03 value="0.028538833266" flag="0"/>
			<psa10 value="0.00578320842167" flag="0"/>
			<psa30 value="0.000483593441943" flag="0"/>
		</comp>
		<comp name=".HHN" depth="1.0">
			<acc value="0.00610309977557" flag="0"/>
			<vel value="0.00376769674433" flag="0"/>
			<psa03 value="0.0180110473102" flag="0"/>
			<psa10 value="0.00428471790404" flag="0"/>
			<psa30 value="0.000458535427804" flag="0"/>
		</comp>
		<comp name=".HHZ" depth="1.0">
			<acc value="0.00389799225253" flag="0"/>
			<vel value="0.00235519070425" flag="0"/>
			<psa03 value="0.0101354806706" flag="0"/>
			<psa10 value="0.00202292854034" flag="0"/>
			<psa30 value="0.00038084923981" flag="0"/>
		</comp>
	</station>
	<station code="BARO" name="BARO" netid="IV" source="Italian National Seismic Network (INSN)" insttype="" lat="42.24795" lon="12.05123">
		<comp name=".EHE" depth="0.0">
			<acc value="0.000486649235939" flag="0"/>
			<vel value="0.000456542029602" flag="0"/>
			<psa03 value="0.000872710644826" flag="0"/>
			<psa10 value="0.000528534524536" flag="0"/>
			<psa30 value="0.000149127378957" flag="0"/>
		</comp>
		<comp name=".EHN" depth="0.0">
			<acc value="0.000462819893592" flag="0"/>
			<vel value="0.000689179320534" flag="0"/>
			<psa03 value="0.0010718774031" flag="0"/>
			<psa10 value="0.00100584335093" flag="0"/>
			<psa30 value="0.000140871441416" flag="0"/>
		</comp>
		<comp name=".EHZ" depth="0.0">
			<acc value="0.000352861317649" flag="0"/>
			<vel value="0.000232489970163" flag="0"/>
			<psa03 value="0.000728466307446" flag="0"/>
			<psa10 value="0.000466505796296" flag="0"/>
			<psa30 value="8.02429719532e-05" flag="0"/>
		</comp>
		<comp name=".HNE" depth="0.0">
			<acc value="0.000575441335097" flag="0"/>
			<vel value="0.000555519658352" flag="0"/>
			<psa03 value="0.00102768070901" flag="0"/>
			<psa10 value="0.000564424577858" flag="0"/>
			<psa30 value="0.00015692065564" flag="0"/>
		</comp>
		<comp name=".HNN" depth="0.0">
			<acc value="0.000485824062563" flag="0"/>
			<vel value="0.000618864328091" flag="0"/>
			<psa03 value="0.00104508754247" flag="0"/>
			<psa10 value="0.000971905301923" flag="0"/>
			<psa30 value="0.000140735286564" flag="0"/>
		</comp>
		<comp name=".HNZ" depth="0.0">
			<acc value="0.000476863324743" flag="0"/>
			<vel value="0.00031823645785" flag="0"/>
			<psa03 value="0.000794237510171" flag="0"/>
			<psa10 value="0.000516038286566" flag="0"/>
			<psa30 value="8.87255911764e-05" flag="0"/>
		</comp>
	</station>
	<station code="BDI" name="BDI" netid="IV" source="Italian National Seismic Network (INSN)" insttype="" lat="44.0628" lon="10.5956">
		<comp name=".HHE" depth="0.0">
			<acc value="0.00499161279123" flag="0"/>
			<vel value="0.00258111776722" flag="0"/>
			<psa03 value="0.0166564002798" flag="0"/>
			<psa10 value="0.00318458463498" flag="0"/>
			<psa30 value="0.000213525251771" flag="0"/>
		</comp>
		<comp name=".HHN" depth="0.0">
			<acc value="0.00395590241742" flag="0"/>
			<vel value="0.00252250080219" flag="0"/>
			<psa03 value="0.0133150161691" flag="0"/>
			<psa10 value="0.00276215524486" flag="0"/>
			<psa30 value="0.000243394404935" flag="0"/>
		</comp>
		<comp name=".HHZ" depth="0.0">
			<acc value="0.004224067303" flag="0"/>
			<vel value="0.00222548307188" flag="0"/>
			<psa03 value="0.0116013023835" flag="0"/>
			<psa10 value="0.00160961412904" flag="0"/>
			<psa30 value="0.000201303517662" flag="0"/>
		</comp>
		<comp name=".HNE" depth="0.0">
			<acc value="0.00438452177094" flag="0"/>
			<vel value="0.00219764948868" flag="0"/>
			<psa03 value="0.0153599719498" flag="0"/>
			<psa10 value="0.00322508778686" flag="0"/>
			<psa30 value="0.00030097530272" flag="0"/>
		</comp>
		<comp name=".HNN" depth="0.0">
			<acc value="0.00398600209055" flag="0"/>
			<vel value="0.00207688320007" flag="0"/>
			<psa03 value="0.0142399641611" flag="0"/>
			<psa10 value="0.00288354844281" flag="0"/>
			<psa30 value="0.000242431710953" flag="0"/>
		</comp>
		<comp name=".HNZ" depth="0.0">
			<acc value="0.00405972473118" flag="0"/>
			<vel value="0.00216609089843" flag="0"/>
			<psa03 value="0.0112469677127" flag="0"/>
			<psa10 value="0.00165786470821" flag="0"/>
			<psa30 value="0.000177574575944" flag="0"/>
		</comp>
	</station>
	<station code="BRIS" name="BRIS" netid="IV" source="Italian National Seismic Network (INSN)" insttype="" lat="44.22454" lon="11.76657">
		<comp name=".HHE" depth="0.0">
			<acc value="0.0120431039322" flag="0"/>
			<vel value="0.00503431067394" flag="0"/>
			<psa03 value="0.0247252316753" flag="0"/>
			<psa10 value="0.0047601322104" flag="0"/>
			<psa30 value="0.00037434360051" flag="0"/>
		</comp>
		<comp name=".HHN" depth="0.0">
			<acc value="0.015234105531" flag="0"/>
			<vel value="0.00357089032601" flag="0"/>
			<psa03 value="0.0295105200313" flag="0"/>
			<psa10 value="0.0033561735019" flag="0"/>
			<psa30 value="0.00038862806241" flag="0"/>
		</comp>
		<comp name=".HHZ" depth="0.0">
			<acc value="0.00888631145577" flag="0"/>
			<vel value="0.0035287461044" flag="0"/>
			<psa03 value="0.0163245462648" flag="0"/>
			<psa10 value="0.00527292243023" flag="0"/>
			<psa30 value="0.000372415816554" flag="0"/>
		</comp>
		<comp name=".HNE" depth="0.0">
			<acc value="0.0304756927773" flag="0"/>
			<vel value="0.0122835055364" flag="0"/>
			<psa03 value="0.0616278273326" flag="0"/>
			<psa10 value="0.0122307386639" flag="0"/>
			<psa30 value="0.00106280978093" flag="0"/>
		</comp>
		<comp name=".HNN" depth="0.0">
			<acc value="0.0297853895635" flag="0"/>
			<vel value="0.00887495989907" flag="0"/>
			<psa03 value="0.0655253928192" flag="0"/>
			<psa10 value="0.00770109484726" flag="0"/>
			<psa30 value="0.000896637627011" flag="0"/>
		</comp>
		<comp name=".HNZ" depth="0.0">
			<acc value="0.0200410286436" flag="0"/>
			<vel value="0.00871601047862" flag="0"/>
			<psa03 value="0.0416587935448" flag="0"/>
			<psa10 value="0.0130721209638" flag="0"/>
			<psa30 value="0.000929564079059" flag="0"/>
		</comp>
	</station>
	<station code="BRSN" name="BRSN" netid="IV" source="Italian National Seismic Network (INSN)" insttype="" lat="44.28418" lon="12.08023">
		<comp name=".EHE" depth="0.0">
			<acc value="0.0779365912528" flag="0"/>
			<vel value="0.0380609048614" flag="0"/>
			<psa03 value="0.209928615074" flag="0"/>
			<psa10 value="0.0500577723318" flag="0"/>
			<psa30 value="0.00298041785472" flag="0"/>
		</comp>
		<comp name=".EHN" depth="0.0">
			<acc value="0.0862096358676" flag="0"/>
			<vel value="0.0367527590383" flag="0"/>
			<psa03 value="0.196647735281" flag="0"/>
			<psa10 value="0.0382113713158" flag="0"/>
			<psa30 value="0.00585944149257" flag="0"/>
		</comp>
		<comp name=".EHZ" depth="0.0">
			<acc value="0.0914397711373" flag="0"/>
			<vel value="0.0186571158909" flag="0"/>
			<psa03 value="0.0851526669882" flag="0"/>
			<psa10 value="0.0189232491974" flag="0"/>
			<psa30 value="0.00220871110794" flag="0"/>
		</comp>
		<comp name=".HNE" depth="0.0">
			<acc value="0.0929854083942" flag="0"/>
			<vel value="0.0488741285747" flag="0"/>
			<psa03 value="0.254849320017" flag="0"/>
			<psa10 value="0.069088074246" flag="0"/>
			<psa30 value="0.00446226268634" flag="0"/>
		</comp>
		<comp name=".HNN" depth="0.0">
			<acc value="0.0873799901947" flag="0"/>
			<vel value="0.0355454503534" flag="0"/>
			<psa03 value="0.195837285759" flag="0"/>
			<psa10 value="0.0380687606185" flag="0"/>
			<psa30 value="0.00516970871783" flag="0"/>
		</comp>
		<comp name=".HNZ" depth="0.0">
			<acc value="0.0857887367532" flag="0"/>
			<vel value="0.0191164900433" flag="0"/>
			<psa03 value="0.0854923717834" flag="0"/>
			<psa10 value="0.0195069228629" flag="0"/>
			<psa30 value="0.00190401446495" flag="0"/>
		</comp>
	</station>
	<station code="CADA" name="CADA" netid="IV" source="Italian National Seismic Network (INSN)" insttype="" lat="43.1942" lon="13.7614">
		<comp name=".HNE" depth="0.0">
			<acc value="0.00582360351687" flag="0"/>
			<vel value="0.00466908600196" flag="0"/>
			<psa03 value="0.0159431420924" flag="0"/>
			<psa10 value="0.00742448355434" flag="0"/>
			<psa30 value="0.000637564214668" flag="0"/>
		</comp>
		<comp name=".HNN" depth="0.0">
			<acc value="0.00505721317167" flag="0"/>
			<vel value="0.00391876384475" flag="0"/>
			<psa03 value="0.017287647826" flag="0"/>
			<psa10 value="0.00735093977619" flag="0"/>
			<psa30 value="0.000820934955829" flag="0"/>
		</comp>
		<comp name=".HNZ" depth="0.0">
			<acc value="0.00457682770738" flag="0"/>
			<vel value="0.0021667217672" flag="0"/>
			<psa03 value="0.00769029069404" flag="0"/>
			<psa10 value="0.00288598516673" flag="0"/>
			<psa30 value="0.00051816229446" flag="0"/>
		</comp>
	</station>
	<station code="CAFI" name="CAFI" netid="IV" source="Italian National Seismic Network (INSN)" insttype="" lat="43.3292" lon="11.9663">
		<comp name=".HHE" depth="0.0">
			<acc value="0.00530302797983" flag="0"/>
			<vel value="0.00318569924765" flag="0"/>
			<psa03 value="0.0088007548818" flag="0"/>
			<psa10 value="0.00390664996826" flag="0"/>
			<psa30 value="0.000278012219028" flag="0"/>
		</comp>
		<comp name=".HHN" depth="0.0">
			<acc value="0.00705935144303" flag="0"/>
			<vel value="0.00287430251646" flag="0"/>
			<psa03 value="0.0154686510243" flag="0"/>
			<psa10 value="0.00397421842872" flag="0"/>
			<psa30 value="0.000219442167175" flag="0"/>
		</comp>
		<comp name=".HHZ" depth="0.0">
			<acc value="0.00410127254734" flag="0"/>
			<vel value="0.00257026257165" flag="0"/>
			<psa03 value="0.00532488399744" flag="0"/>
			<psa10 value="0.00278180982812" flag="0"/>
			<psa30 value="0.000212416285078" flag="0"/>
		</comp>
		<comp name=".HNE" depth="0.0">
			<acc value="0.0051554240246" flag="0"/>
			<vel value="0.00312092041013" flag="0"/>
			<psa03 value="0.00860027740848" flag="0"/>
