<?xml version="1.0" encoding="UTF-8" standalone="yes"?>
<!DOCTYPE earthquake SYSTEM "stationlist.dtd">
<stationlist created="" xmlns="ch.ethz.sed.shakemap.usgs.xml">
  <station code="AOI" name="AOI" netid="IV" insttype="" lat="43.5502" lon="13.602">
    <comp name="--.HHE">
      <acc value="0.0047412918" flag="0"/>
      <vel value="0.0023011404" flag="0"/>
      <psa03 value="0.0112038293" flag="0"/>
      <psa10 value="0.0024209095" flag="0"/>
      <psa30 value="0.0003124871" flag="0"/>
    </comp>
    <comp name="--.HHZ">
      <acc value="0.0033089224" flag="0"/>
      <vel value="0.0012122378" flag="0"/>
      <psa03 value="0.0073934325" flag="0"/>
      <psa10 value="0.0013678920" flag="0"/>
      <psa30 value="0.0002212980" flag="0"/>
    </comp>
    <comp name="--.HHN">
      <acc value="0.0036381981" flag="0"/>
      <vel value="0.0034961211" flag="0"/>
      <psa03 value="0.0126392803" flag="0"/>
      <psa10 value="0.0041063455" flag="0"/>
      <psa30 value="0.0007057539" flag="0"/>
    </comp>
  </station>
  <station code="ARVD" name="ARVD" netid="IV" insttype="" lat="43.4981" lon="12.9415">
    <comp name="--.HHE">
      <acc value="0.0061029975" flag="0"/>
      <vel value="0.0023254079" flag="0"/>
      <psa03 value="0.0130187414" flag="0"/>
      <psa10 value="0.0025144405" flag="0"/>
      <psa30 value="0.0003377872" flag="0"/>
    </comp>
    <comp name="--.HHZ">
      <acc value="0.0063148532" flag="0"/>
      <vel value="0.0023815831" flag="0"/>
      <psa03 value="0.0181550260" flag="0"/>
      <psa10 value="0.0023429512" flag="0"/>
      <psa30 value="0.0002234223" flag="0"/>
    </comp>
    <comp name="--.HHN">
      <acc value="0.0080079375" flag="0"/>
      <vel value="0.0030163528" flag="0"/>
      <psa03 value="0.0233799140" flag="0"/>
      <psa10 value="0.0022684238" flag="0"/>
      <psa30 value="0.0001522375" flag="0"/>
    </comp>
  </station>
  <station code="ATFO" name="ATFO" netid="IV" insttype="" lat="43.3666" lon="12.5715">
    <comp name="--.HHE">
      <acc value="0.0067426310" flag="0"/>
      <vel value="0.0054255030" flag="0"/>
      <psa03 value="0.0206842200" flag="0"/>
      <psa10 value="0.0063599011" flag="0"/>
      <psa30 value="0.0004678255" flag="0"/>
    </comp>
    <comp name="--.HHN">
      <acc value="0.0077621001" flag="0"/>
      <vel value="0.0040067145" flag="0"/>
      <psa03 value="0.0223355555" flag="0"/>
      <psa10 value="0.0031916791" flag="0"/>
      <psa30 value="0.0002766718" flag="0"/>
    </comp>
    <comp name="--.HHZ">
      <acc value="0.0045867871" flag="0"/>
      <vel value="0.0020398925" flag="0"/>
      <psa03 value="0.0121253486" flag="0"/>
      <psa10 value="0.0026216884" flag="0"/>
      <psa30 value="0.0001740340" flag="0"/>
    </comp>
  </station>
  <station code="ATMI" name="ATMI" netid="IV" insttype="" lat="43.3342" lon="12.268">
    <comp name="--.HHE">
      <acc value="0.0091598396" flag="0"/>
      <vel value="0.0061245716" flag="0"/>
      <psa03 value="0.0339237621" flag="0"/>
      <psa10 value="0.0088891426" flag="0"/>
      <psa30 value="0.0006123266" flag="0"/>
    </comp>
    <comp name="--.HHN">
      <acc value="0.0109458873" flag="0"/>
      <vel value="0.0077621410" flag="0"/>
      <psa03 value="0.0315688687" flag="0"/>
      <psa10 value="0.0078146728" flag="0"/>
      <psa30 value="0.0005981500" flag="0"/>
    </comp>
    <comp name="--.HHZ">
      <acc value="0.0053649585" flag="0"/>
      <vel value="0.0027888206" flag="0"/>
      <psa03 value="0.0155750168" flag="0"/>
      <psa10 value="0.0037639265" flag="0"/>
      <psa30 value="0.0003197020" flag="0"/>
    </comp>
  </station>
  <station code="ATPC" name="ATPC" netid="IV" insttype="" lat="43.4807" lon="12.457">
    <comp name="--.HHE">
      <acc value="0.0120479504" flag="0"/>
      <vel value="0.0043098891" flag="0"/>
      <psa03 value="0.0265430406" flag="0"/>
      <psa10 value="0.0045582455" flag="0"/>
      <psa30 value="0.0003456398" flag="0"/>
    </comp>
    <comp name="--.HHN">
      <acc value="0.0100121258" flag="0"/>
      <vel value="0.0050217011" flag="0"/>
      <psa03 value="0.0276970771" flag="0"/>
      <psa10 value="0.0046019383" flag="0"/>
      <psa30 value="0.0002774328" flag="0"/>
    </comp>
    <comp name="--.HHZ">
      <acc value="0.0050395656" flag="0"/>
      <vel value="0.0023188676" flag="0"/>
      <psa03 value="0.0147766571" flag="0"/>
      <psa10 value="0.0036133010" flag="0"/>
      <psa30 value="0.0003938181" flag="0"/>
    </comp>
  </station>
  <station code="ATVO" name="ATVO" netid="IV" insttype="" lat="43.3821" lon="12.4066">
    <comp name="--.HHE">
      <acc value="0.0087213599" flag="0"/>
      <vel value="0.0045928647" flag="0"/>
      <psa03 value="0.0287303385" flag="0"/>
      <psa10 value="0.0057813655" flag="0"/>
      <psa30 value="0.0004625652" flag="0"/>
    </comp>
    <comp name="--.HHN">
      <acc value="0.0060931527" flag="0"/>
      <vel value="0.0037355546" flag="0"/>
      <psa03 value="0.0178912114" flag="0"/>
      <psa10 value="0.0042557486" flag="0"/>
      <psa30 value="0.0004257222" flag="0"/>
    </comp>
    <comp name="--.HHZ">
      <acc value="0.0039498523" flag="0"/>
      <vel value="0.0023421857" flag="0"/>
      <psa03 value="0.0101318363" flag="0"/>
      <psa10 value="0.0020195744" flag="0"/>
      <psa30 value="0.0003365167" flag="0"/>
    </comp>
  </station>
  <station code="BOSL" name="BOSL" netid="IV" insttype="" lat="43.931" lon="11.3743">
    <comp name="--.HHE">
      <acc value="0.0026318019" flag="0"/>
      <vel value="0.0014530716" flag="0"/>
      <psa03 value="0.0066796057" flag="0"/>
      <psa10 value="0.0014803181" flag="0"/>
      <psa30 value="0.0000862966" flag="0"/>
    </comp>
    <comp name="--.HHN">
      <acc value="0.0044059227" flag="0"/>
      <vel value="0.0026672660" flag="0"/>
      <psa03 value="0.0143021870" flag="0"/>
      <psa10 value="0.0030330286" flag="0"/>
      <psa30 value="0.0001603587" flag="0"/>
    </comp>
    <comp name="--.HHZ">
      <acc value="0.0018073654" flag="0"/>
      <vel value="0.0008453729" flag="0"/>
      <psa03 value="0.0041318325" flag="0"/>
      <psa10 value="0.0007731107" flag="0"/>
      <psa30 value="0.0000631902" flag="0"/>
    </comp>
  </station>
  <station code="BRIS" name="BRIS" netid="IV" insttype="" lat="44.2245" lon="11.7666">
    <comp name="--.HHE">
      <acc value="0.0119422796" flag="0"/>
      <vel value="0.0049691213" flag="0"/>
      <psa03 value="0.0242356018" flag="0"/>
      <psa10 value="0.0047494042" flag="0"/>
      <psa30 value="0.0003694903" flag="0"/>
    </comp>
    <comp name="--.HHN">
      <acc value="0.0153813296" flag="0"/>
      <vel value="0.0037225577" flag="0"/>
      <psa03 value="0.0295325946" flag="0"/>
      <psa10 value="0.0033361746" flag="0"/>
      <psa30 value="0.0003623732" flag="0"/>
    </comp>
    <comp name="--.HHZ">
      <acc value="0.0088527322" flag="0"/>
      <vel value="0.0035036021" flag="0"/>
      <psa03 value="0.0159063478" flag="0"/>
      <psa10 value="0.0052612520" flag="0"/>
      <psa30 value="0.0003349119" flag="0"/>
    </comp>
  </station>
  <station code="BRSN" name="BRSN" netid="IV" insttype="" lat="44.2842" lon="12.0802">
    <comp name="--.HNN">
      <acc value="0.0890162589" flag="0"/>
      <vel value="0.0345994246" flag="0"/>
      <psa03 value="0.1964802893" flag="0"/>
      <psa10 value="0.0380203267" flag="0"/>
      <psa30 value="0.0046381957" flag="0"/>
    </comp>
    <comp name="--.HNE">
      <acc value="0.0933361180" flag="0"/>
      <vel value="0.0478372661" flag="0"/>
      <psa03 value="0.2536073014" flag="0"/>
      <psa10 value="0.0691037424" flag="0"/>
      <psa30 value="0.0041471972" flag="0"/>
    </comp>
    <comp name="--.HNZ">
      <acc value="0.0863307320" flag="0"/>
      <vel value="0.0188442577" flag="0"/>
      <psa03 value="0.0856311709" flag="0"/>
      <psa10 value="0.0195006861" flag="0"/>
      <psa30 value="0.0017471696" flag="0"/>
    </comp>
  </station>
  <station code="CAFI" name="CAFI" netid="IV" insttype="" lat="43.3292" lon="11.9663">
    <comp name="--.HHE">
      <acc value="0.0053108191" flag="0"/>
      <vel value="0.0031826759" flag="0"/>
      <psa03 value="0.0088241748" flag="0"/>
      <psa10 value="0.0038995551" flag="0"/>
      <psa30 value="0.0002755267" flag="0"/>
    </comp>
    <comp name="--.HHN">
      <acc value="0.0070252151" flag="0"/>
      <vel value="0.0028257096" flag="0"/>
      <psa03 value="0.0154173080" flag="0"/>
      <psa10 value="0.0039662454" flag="0"/>
      <psa30 value="0.0001916722" flag="0"/>
    </comp>
    <comp name="--.HHZ">
      <acc value="0.0041223285" flag="0"/>
      <vel value="0.0025600674" flag="0"/>
      <psa03 value="0.0052475965" flag="0"/>
      <psa10 value="0.0027784611" flag="0"/>
      <psa30 value="0.0001871422" flag="0"/>
    </comp>
  </station>
  <station code="CING" name="CING" netid="IV" insttype="" lat="43.3756" lon="13.1954">
    <comp name="--.HHE">
      <acc value="0.0030092840" flag="0"/>
      <vel value="0.0016576180" flag="0"/>
      <psa03 value="0.0105451072" flag="0"/>
      <psa10 value="0.0024880163" flag="0"/>
      <psa30 value="0.0003089593" flag="0"/>
    </comp>
    <comp name="--.HHN">
      <acc value="0.0057715252" flag="0"/>
      <vel value="0.0027347127" flag="0"/>
      <psa03 value="0.0175727570" flag="0"/>
      <psa10 value="0.0035383123" flag="0"/>
      <psa30 value="0.0005617369" flag="0"/>
    </comp>
    <comp name="--.HHZ">
      <acc value="0.0035699302" flag="0"/>
      <vel value="0.0023761118" flag="0"/>
      <psa03 value="0.0126610356" flag="0"/>
      <psa10 value="0.0020165439" flag="0"/>
      <psa30 value="0.0003678488" flag="0"/>
    </comp>
  </station>
  <station code="CRE" name="CRE" netid="IV" insttype="" lat="43.6189" lon="11.9517">
    <comp name="--.HHE">
      <acc value="0.0071950416" flag="0"/>
      <vel value="0.0034149032" flag="0"/>
      <psa03 value="0.0190000020" flag="0"/>
      <psa10 value="0.0052311362" flag="0"/>
      <psa30 value="0.0005579099" flag="0"/>
    </comp>
    <comp name="--.HHN">
      <acc value="0.0131586234" flag="0"/>
      <vel value="0.0066135839" flag="0"/>
      <psa03 value="0.0318318144" flag="0"/>
      <psa10 value="0.0042576866" flag="0"/>
      <psa30 value="0.0004864075" flag="0"/>
    </comp>
    <comp name="--.HHZ">
      <acc value="0.0065563369" flag="0"/>
      <vel value="0.0026913999" flag="0"/>
      <psa03 value="0.0095073475" flag="0"/>
      <psa10 value="0.0026765767" flag="0"/>
      <psa30 value="0.0002444442" flag="0"/>
    </comp>
  </station>
  <station code="CSNT" name="CSNT" netid="IV" insttype="" lat="43.4731" lon="11.2902">
    <comp name="--.HHE">
      <acc value="0.0032705966" flag="0"/>
      <vel value="0.0026268735" flag="0"/>
      <psa03 value="0.0140896639" flag="0"/>
      <psa10 value="0.0026498172" flag="0"/>
      <psa30 value="0.0002259004" flag="0"/>
    </comp>
    <comp name="--.HHN">
      <acc value="0.0029360317" flag="0"/>
      <vel value="0.0028275667" flag="0"/>
      <psa03 value="0.0081916997" flag="0"/>
      <psa10 value="0.0053232376" flag="0"/>
      <psa30 value="0.0003891916" flag="0"/>
    </comp>
    <comp name="--.HHZ">
      <acc value="0.0022645053" flag="0"/>
      <vel value="0.0016140665" flag="0"/>
      <psa03 value="0.0069240672" flag="0"/>
      <psa10 value="0.0019314377" flag="0"/>
      <psa30 value="0.0002180298" flag="0"/>
    </comp>
  </station>
  <station code="FNVD" name="FNVD" netid="IV" insttype="" lat="44.1678" lon="11.1229">
    <comp name="--.HHE">
      <acc value="0.0068307053" flag="0"/>
      <vel value="0.0041675859" flag="0"/>
      <psa03 value="0.0234424603" flag="0"/>
      <psa10 value="0.0087205131" flag="0"/>
      <psa30 value="0.0004534978" flag="0"/>
    </comp>
    <comp name="--.HHN">
      <acc value="0.0082819261" flag="0"/>
      <vel value="0.0052123715" flag="0"/>
      <psa03 value="0.0154980187" flag="0"/>
      <psa10 value="0.0078407740" flag="0"/>
      <psa30 value="0.0004699031" flag="0"/>
    </comp>
    <comp name="--.HHZ">
      <acc value="0.0045685032" flag="0"/>
      <vel value="0.0021724856" flag="0"/>
      <psa03 value="0.0167894693" flag="0"/>
      <psa10 value="0.0037297833" flag="0"/>
      <psa30 value="0.0002159080" flag="0"/>
    </comp>
  </station>
  <station code="LMD" name="LMD" netid="IV" insttype="" lat="44.0775" lon="11.7073">
    <comp name="--.HHE">
      <acc value="0.1467800118" flag="0"/>
      <vel value="0.0412699359" flag="0"/>
      <psa03 value="0.1879485049" flag="0"/>
      <psa10 value="0.0106803180" flag="0"/>
      <psa30 value="0.0007391948" flag="0"/>
    </comp>
    <comp name="--.HHN">
      <acc value="0.0777037521" flag="0"/>
      <vel value="0.0226111502" flag="0"/>
      <psa03 value="0.1424244825" flag="0"/>
      <psa10 value="0.0122003039" flag="0"/>
      <psa30 value="0.0010810310" flag="0"/>
    </comp>
    <comp name="--.HHZ">
      <acc value="0.0420520129" flag="0"/>
      <vel value="0.0132440744" flag="0"/>
      <psa03 value="0.0687977762" flag="0"/>
      <psa10 value="0.0047294123" flag="0"/>
      <psa30 value="0.0005090132" flag="0"/>
    </comp>
  </station>
  <station code="MTRZ" name="MTRZ" netid="IV" insttype="" lat="44.3128" lon="11.4248">
    <comp name="--.HHE">
      <acc value="0.0114868163" flag="0"/>
      <vel value="0.0068823588" flag="0"/>
      <psa03 value="0.0309480483" flag="0"/>
      <psa10 value="0.0069818262" flag="0"/>
      <psa30 value="0.0005570417" flag="0"/>
    </comp>
    <comp name="--.HHN">
      <acc value="0.0145439733" flag="0"/>
      <vel value="0.0093159971" flag="0"/>
      <psa03 value="0.0500216068" flag="0"/>
      <psa10 value="0.0085951737" flag="0"/>
      <psa30 value="0.0009284087" flag="0"/>
    </comp>
    <comp name="--.HHZ">
      <acc value="0.0051919342" flag="0"/>
      <vel value="0.0029011266" flag="0"/>
      <psa03 value="0.0149889648" flag="0"/>
      <psa10 value="0.0031485414" flag="0"/>
      <psa30 value="0.0007193877" flag="0"/>
    </comp>
  </station>
  <station code="MURB" name="MURB" netid="IV" insttype="" lat="43.263" lon="12.5246">
    <comp name="--.HHE">
      <acc value="0.0251477398" flag="0"/>
      <vel value="0.0124648749" flag="0"/>
      <psa03 value="0.1292733090" flag="0"/>
      <psa10 value="0.0078584915" flag="0"/>
      <psa30 value="0.0011675749" flag="0"/>
    </comp>
    <comp name="--.HHN">
      <acc value="0.0173980209" flag="0"/>
      <vel value="0.0095697298" flag="0"/>
      <psa03 value="0.0659510013" flag="0"/>
      <psa10 value="0.0056991282" flag="0"/>
      <psa30 value="0.0008584023" flag="0"/>
    </comp>
    <comp name="--.HHZ">
      <acc value="0.0057209865" flag="0"/>
      <vel value="0.0028039399" flag="0"/>
      <psa03 value="0.0159298178" flag="0"/>
      <psa10 value="0.0044843430" flag="0"/>
      <psa30 value="0.0004882096" flag="0"/>
    </comp>
  </station>
  <station code="OSSC" name="OSSC" netid="IV" insttype="" lat="43.5236" lon="11.2458">
    <comp name="--.HHE">
      <acc value="0.0056216352" flag="0"/>
      <vel value="0.0051423620" flag="0"/>
      <psa03 value="0.0122072821" flag="0"/>
      <psa10 value="0.0043508863" flag="0"/>
      <psa30 value="0.0004185429" flag="0"/>
    </comp>
    <comp name="--.HHZ">
      <acc value="0.0043054683" flag="0"/>
      <vel value="0.0032372499" flag="0"/>
      <psa03 value="0.0106902594" flag="0"/>
      <psa10 value="0.0025644511" flag="0"/>
      <psa30 value="0.0003370632" flag="0"/>
    </comp>
    <comp name="--.HHN">
      <acc value="0.0074411505" flag="0"/>
      <vel value="0.0042606098" flag="0"/>
      <psa03 value="0.0160760227" flag="0"/>
      <psa10 value="0.0070200786" flag="0"/>
      <psa30 value="0.0003055994" flag="0"/>
    </comp>
  </station>
  <station code="PARC" name="PARC" netid="IV" insttype="" lat="43.6486" lon="12.2386">
    <comp name="--.HHE">
      <acc value="0.0194228762" flag="0"/>
      <vel value="0.0074358564" flag="0"/>
      <psa03 value="0.0462346787" flag="0"/>
      <psa10 value="0.0036679425" flag="0"/>
      <psa30 value="0.0003657000" flag="0"/>
    </comp>
    <comp name="--.HHN">
      <acc value="0.0135955934" flag="0"/>
      <vel value="0.0043101123" flag="0"/>
      <psa03 value="0.0236176073" flag="0"/>
      <psa10 value="0.0029997925" flag="0"/>
      <psa30 value="0.0005506885" flag="0"/>
    </comp>
    <comp name="--.HHZ">
      <acc value="0.0120245850" flag="0"/>
      <vel value="0.0040868748" flag="0"/>
      <psa03 value="0.0273449733" flag="0"/>
      <psa10 value="0.0040824021" flag="0"/>
      <psa30 value="0.0004379212" flag="0"/>
    </comp>
  </station>
  <station code="PESA" name="PESA" netid="IV" insttype="" lat="43.941" lon="12.8402">
    <comp name="--.HHE">
      <acc value="0.2830030895" flag="0"/>
      <vel value="0.0216127682" flag="0"/>
      <psa03 value="0.0840200774" flag="0"/>
      <psa10 value="0.0098985147" flag="0"/>
      <psa30 value="0.0005881525" flag="0"/>
    </comp>
    <comp name="--.HHN">
      <acc value="0.3181934189" flag="0"/>
      <vel value="0.0306908320" flag="0"/>
      <psa03 value="0.0726667004" flag="0"/>
      <psa10 value="0.0123687629" flag="0"/>
      <psa30 value="0.0010426246" flag="0"/>
    </comp>
    <comp name="--.HHZ">
      <acc value="0.0476621464" flag="0"/>
      <vel value="0.0090921536" flag="0"/>
      <psa03 value="0.0531155245" flag="0"/>
      <psa10 value="0.0046028595" flag="0"/>
      <psa30 value="0.0004039951" flag="0"/>
    </comp>
  </station>
  <station code="PIEI" name="PIEI" netid="IV" insttype="" lat="43.5357" lon="12.535">
    <comp name="--.HHE">
      <acc value="0.0318133044" flag="0"/>
      <vel value="0.0095101057" flag="0"/>
      <psa03 value="0.0543486197" flag="0"/>
      <psa10 value="0.0020202682" flag="0"/>
      <psa30 value="0.0002722588" flag="0"/>
    </comp>
    <comp name="--.HHN">
      <acc value="0.0152875732" flag="0"/>
      <vel value="0.0042714562" flag="0"/>
      <psa03 value="0.0291894454" flag="0"/>
      <psa10 value="0.0011340764" flag="0"/>
      <psa30 value="0.0002161215" flag="0"/>
    </comp>
    <comp name="--.HHZ">
      <acc value="0.0157332338" flag="0"/>
      <vel value="0.0046300676" flag="0"/>
      <psa03 value="0.0302172494" flag="0"/>
      <psa10 value="0.0013273687" flag="0"/>
      <psa30 value="0.0003205984" flag="0"/>
    </comp>
  </station>
  <station code="SEI" name="SEI" netid="IV" insttype="" lat="44.0543" lon="11.3585">
    <comp name="--.HHE">
      <acc value="0.0221171671" flag="0"/>
      <vel value="0.0147510299" flag="0"/>
      <psa03 value="0.0685752762" flag="0"/>
      <psa10 value="0.0064822272" flag="0"/>
      <psa30 value="0.0005836941" flag="0"/>
    </comp>
    <comp name="--.HHN">
      <acc value="0.0407058748" flag="0"/>
      <vel value="0.0209037834" flag="0"/>
      <psa03 value="0.1293282018" flag="0"/>
      <psa10 value="0.0111952987" flag="0"/>
      <psa30 value="0.0008274590" flag="0"/>
    </comp>
    <comp name="--.HHZ">
      <acc value="0.0172165571" flag="0"/>
      <vel value="0.0099655312" flag="0"/>
      <psa03 value="0.0817073133" flag="0"/>
      <psa10 value="0.0045256730" flag="0"/>
      <psa30 value="0.0003149562" flag="0"/>
    </comp>
  </station>
  <station code="SFI" name="SFI" netid="IV" insttype="" lat="43.9048" lon="11.8469">
    <comp name="--.HNE">
      <acc value="0.0519327372" flag="0"/>
      <vel value="0.0119142716" flag="0"/>
      <psa03 value="0.0625122466" flag="0"/>
      <psa10 value="0.0068691206" flag="0"/>
      <psa30 value="0.0009216125" flag="0"/>
    </comp>
    <comp name="--.HNN">
      <acc value="0.0436096188" flag="0"/>
      <vel value="0.0134850255" flag="0"/>
      <psa03 value="0.0382253795" flag="0"/>
      <psa10 value="0.0213257142" flag="0"/>
      <psa30 value="0.0012506121" flag="0"/>
    </comp>
