<?xml version="1.0" encoding="UTF-8" standalone="yes"?>
<!DOCTYPE earthquake SYSTEM "stationlist.dtd">
<stationlist created="" xmlns="ch.ethz.sed.shakemap.usgs.xml">
  <station code="KARP" name="KARP" netid="GE" insttype="STS-2/N" lat="35.5471" lon="27.1611">
    <comp name="--.HHE">
      <acc value="0.0345072370" flag="0"/>
      <vel value="0.0128943312" flag="0"/>
      <psa03 value="0.0600773504" flag="0"/>
      <psa10 value="0.0078757464" flag="0"/>
      <psa30 value="0.0007041484" flag="0"/>
    </comp>
    <comp name="--.HHN">
      <acc value="0.0328648050" flag="0"/>
      <vel value="0.0107622877" flag="0"/>
      <psa03 value="0.0344210171" flag="0"/>
      <psa10 value="0.0105537110" flag="0"/>
      <psa30 value="0.0005542694" flag="0"/>
    </comp>
    <comp name="--.HHZ">
      <acc value="0.0229998069" flag="0"/>
      <vel value="0.0071532759" flag="0"/>
      <psa03 value="0.0369217004" flag="0"/>
      <psa10 value="0.0046804077" flag="0"/>
      <psa30 value="0.0004691295" flag="0"/>
    </comp>
  </station>
</stationlist>
