<?xml version="1.0" encoding="UTF-8" standalone="yes"?>
<!DOCTYPE earthquake SYSTEM "stationlist.dtd">
<stationlist created="" xmlns="ch.ethz.sed.shakemap.usgs.xml">
  <station code="KARP" name="KARP" netid="GE" insttype="STS-2/N" lat="35.5471" lon="27.1611">
    <comp name="--.HHE">
      <acc value="0.0345072370" flag="0"/>
      <vel value="0.0128943312" flag="0"/>
      <psa03 value="0.0600773504" flag="0"/>
      <psa10 value="0.0078757464" flag="0"/>
      <psa30 value="0.0007041484" flag="0"/>
    </comp>
    <comp name="--.HHN">
      <acc value="0.0328648050" flag="0"/>
      <vel value="0.0107622877" flag="0"/>
      <psa03 value="0.0344210171" flag="0"/>
      <psa10 value="0.0105537110" flag="0"/>
      <psa30 value="0.0005542694" flag="0"/>
    </comp>
    <comp name="--.HHZ">
      <acc value="0.0229998069" flag="0"/>
      <vel value="0.0071532759" flag="0"/>
      <psa03 value="0.0369217004" flag="0"/>
      <psa10 value="0.0046804077" flag="0"/>
      <psa30 value="0.0004691295" flag="0"/>
    </comp>
  </station>
  <station code="ARG" name="ARG" netid="HL" insttype="LE3D20_DR24" lat="36.2136" lon="28.1212">
    <comp name="--.HHE">
      <acc value="0.0659540450" flag="0"/>
      <vel value="0.0435583321" flag="0"/>
      <psa03 value="0.1836959418" flag="0"/>
      <psa10 value="0.0180086812" flag="0"/>
      <psa30 value="0.0049694642" flag="0"/>
    </comp>
    <comp name="--.HHN">
      <acc value="0.0536497570" flag="0"/>
      <vel value="0.0223139373" flag="0"/>
      <psa03 value="0.1377796346" flag="0"/>
      <psa10 value="0.0117108039" flag="0"/>
      <psa30 value="0.0017203291" flag="0"/>
    </comp>
    <comp name="--.HHZ">
      <acc value="0.0261488904" flag="0"/>
      <vel value="0.0099483995" flag="0"/>
      <psa03 value="0.0452268950" flag="0"/>
      <psa10 value="0.0184388775" flag="0"/>
      <psa30 value="0.0018770181" flag="0"/>
    </comp>
  </station>
  <station code="KARP" name="KARP" netid="HL" insttype="120" lat="35.5471" lon="27.1611">
    <comp name="--.HHE">
      <acc value="0.0328636079" flag="0"/>
      <vel value="0.0124327972" flag="0"/>
      <psa03 value="0.0586413406" flag="0"/>
      <psa10 value="0.0078277909" flag="0"/>
      <psa30 value="0.0006991532" flag="0"/>
    </comp>
    <comp name="--.HHZ">
      <acc value="0.0215711896" flag="0"/>
      <vel value="0.0069496024" flag="0"/>
      <psa03 value="0.0358394742" flag="0"/>
      <psa10 value="0.0046289948" flag="0"/>
      <psa30 value="0.0004684059" flag="0"/>
    </comp>
    <comp name="--.HHN">
      <acc value="0.0315663169" flag="0"/>
      <vel value="0.0103767043" flag="0"/>
      <psa03 value="0.0333864055" flag="0"/>
      <psa10 value="0.0104952337" flag="0"/>
      <psa30 value="0.0005531775" flag="0"/>
    </comp>
  </station>
  <station code="KLNA" name="KLNA" netid="HL" insttype="CMG-5" lat="36.9571" lon="26.9727">
    <comp name="00.HNN">
      <acc value="0.0841027704" flag="0"/>
      <vel value="0.0232409011" flag="0"/>
      <psa03 value="0.1174431340" flag="0"/>
      <psa10 value="0.0118192105" flag="0"/>
      <psa30 value="0.0010751344" flag="0"/>
    </comp>
    <comp name="00.HNZ">
      <acc value="0.1004871002" flag="0"/>
      <vel value="0.0231443066" flag="0"/>
      <psa03 value="0.0455032921" flag="0"/>
      <psa10 value="0.0081924300" flag="0"/>
      <psa30 value="0.0012263623" flag="0"/>
    </comp>
    <comp name="00.HNE">
      <acc value="0.0625826064" flag="0"/>
      <vel value="0.0244180601" flag="0"/>
      <psa03 value="0.1439968157" flag="0"/>
      <psa10 value="0.0153845798" flag="0"/>
      <psa30 value="0.0021136079" flag="0"/>
    </comp>
  </station>
  <station code="NISR" name="NISR" netid="HL" insttype="65535" lat="36.6106" lon="27.131">
    <comp name="--.HHZ">
      <acc value="0.4244528008" flag="0"/>
      <vel value="0.0775645495" flag="0"/>
      <psa03 value="0.3236171775" flag="0"/>
      <psa10 value="0.0607654720" flag="0"/>
      <psa30 value="0.0027437810" flag="0"/>
    </comp>
    <comp name="--.HHE">
      <acc value="1.2693518606" flag="0"/>
      <vel value="0.3878208219" flag="0"/>
      <psa03 value="1.1075684200" flag="0"/>
      <psa10 value="0.0878233791" flag="0"/>
      <psa30 value="0.0090466650" flag="0"/>
    </comp>
    <comp name="--.HHN">
      <acc value="0.8911442744" flag="0"/>
      <vel value="0.1875349831" flag="0"/>
      <psa03 value="0.3995716788" flag="0"/>
      <psa10 value="0.0679325569" flag="0"/>
      <psa30 value="0.0390584762" flag="0"/>
    </comp>
  </station>
</stationlist>
