<stationlist created="1775820609">
	<station code="KRL1" name="KRL1" netid="HI" source="ITSAK Strong Motion Network" insttype="" lat="37.7951" lon="26.7065">
		<comp name="--.HNE" depth="0.0">
			<acc value="0.0157947045502821" flag="0"/>
			<vel value="0.0129597240244042" flag="0"/>
			<psa03 value="0.0345310166770604" flag="0"/>
			<psa10 value="0.0274736299931564" flag="0"/>
			<psa30 value="0.00162417728127299" flag="0"/>
		</comp>
		<comp name="--.HNN" depth="0.0">
			<acc value="0.0106169892683775" flag="0"/>
			<vel value="0.00988678945385501" flag="0"/>
			<psa03 value="0.0217181900256045" flag="0"/>
			<psa10 value="0.0190106074844607" flag="0"/>
			<psa30 value="0.00180131474493016" flag="0"/>
		</comp>
		<comp name="--.HNZ" depth="0.0">
			<acc value="0.00724700794039168" flag="0"/>
			<vel value="0.00650689342611202" flag="0"/>
			<psa03 value="0.0162724829200527" flag="0"/>
			<psa10 value="0.0102400177259064" flag="0"/>
			<psa30 value="0.00111492114972224" flag="0"/>
		</comp>
	</station>
	<station code="KSS1" name="KSS1" netid="HI" source="ITSAK Strong Motion Network" insttype="" lat="35.4189" lon="26.9207">
		<comp name="--.HNE" depth="0.0">
			<acc value="0.00824035873945607" flag="0"/>
			<vel value="0.00280227489874214" flag="0"/>
			<psa03 value="0.0177779420243158" flag="0"/>
			<psa10 value="0.00232791702557633" flag="0"/>
			<psa30 value="0.000412398334990828" flag="0"/>
		</comp>
		<comp name="--.HNN" depth="0.0">
			<acc value="0.00947517422676547" flag="0"/>
			<vel value="0.00333324264653872" flag="0"/>
			<psa03 value="0.0237768329109887" flag="0"/>
			<psa10 value="0.00239457792591103" flag="0"/>
			<psa30 value="0.000233746291836248" flag="0"/>
		</comp>
		<comp name="--.HNZ" depth="0.0">
			<acc value="0.00524721893828486" flag="0"/>
			<vel value="0.0018277709765166" flag="0"/>
			<psa03 value="0.00968620090807323" flag="0"/>
			<psa10 value="0.002548925494428" flag="0"/>
			<psa30 value="0.000343156690779882" flag="0"/>
		</comp>
	</station>
	<station code="NAX1" name="NAX1" netid="HI" source="ITSAK Strong Motion Network" insttype="" lat="37.101394" lon="25.374103">
		<comp name="--.HNE" depth="0.0">
			<acc value="0.00354073315318435" flag="0"/>
			<vel value="0.00290852286448849" flag="0"/>
			<psa03 value="0.00734235097802991" flag="0"/>
			<psa10 value="0.00528870910103273" flag="0"/>
			<psa30 value="0.000489061772942161" flag="0"/>
		</comp>
		<comp name="--.HNN" depth="0.0">
			<acc value="0.00386501708542185" flag="0"/>
			<vel value="0.00375290687183082" flag="0"/>
			<psa03 value="0.00940157267786028" flag="0"/>
			<psa10 value="0.00479199150841343" flag="0"/>
			<psa30 value="0.000584663314408353" flag="0"/>
		</comp>
		<comp name="--.HNZ" depth="0.0">
			<acc value="0.00307423186542045" flag="0"/>
			<vel value="0.00289396220730429" flag="0"/>
			<psa03 value="0.00616990026205846" flag="0"/>
			<psa10 value="0.0035659368508151" flag="0"/>
			<psa30 value="0.000532495639806712" flag="0"/>
		</comp>
	</station>
	<station code="RDI1" name="RDI1" netid="HI" source="ITSAK Strong Motion Network" insttype="" lat="36.4514" lon="28.224">
		<comp name="--.HNE" depth="0.0">
			<acc value="0.0101322647644066" flag="0"/>
			<vel value="0.0144878991986774" flag="0"/>
			<psa03 value="0.0330521999627185" flag="0"/>
			<psa10 value="0.0213545240074173" flag="0"/>
			<psa30 value="0.00449908512562802" flag="0"/>
		</comp>
		<comp name="--.HNN" depth="0.0">
			<acc value="0.0126575053775986" flag="0"/>
			<vel value="0.0176409800041014" flag="0"/>
			<psa03 value="0.0259642590672454" flag="0"/>
			<psa10 value="0.0269862814587233" flag="0"/>
			<psa30 value="0.00455405501714903" flag="0"/>
		</comp>
		<comp name="--.HNZ" depth="0.0">
			<acc value="0.00904087757325536" flag="0"/>
			<vel value="0.00893186189905605" flag="0"/>
			<psa03 value="0.0239614024294829" flag="0"/>
			<psa10 value="0.017028389297233" flag="0"/>
			<psa30 value="0.00169549711002761" flag="0"/>
		</comp>
	</station>
	<station code="AGNA" name="AGNA" netid="HL" source="National Observatory of Athens Seismic Network" insttype="" lat="35.1895" lon="25.71853">
		<comp name="00.HNE" depth="0.0">
			<acc value="0.00314597834509683" flag="0"/>
			<vel value="0.00319705148958438" flag="0"/>
			<psa03 value="0.0152492992537339" flag="0"/>
			<psa10 value="0.00451588462392742" flag="0"/>
			<psa30 value="0.000555927035771783" flag="0"/>
		</comp>
		<comp name="00.HNN" depth="0.0">
			<acc value="0.00437144979236651" flag="0"/>
			<vel value="0.00633084843306343" flag="0"/>
			<psa03 value="0.0134157181525517" flag="0"/>
			<psa10 value="0.00638024937897818" flag="0"/>
			<psa30 value="0.00129126595669757" flag="0"/>
		</comp>
		<comp name="00.HNZ" depth="0.0">
			<acc value="0.00382373937815571" flag="0"/>
			<vel value="0.00203128596306084" flag="0"/>
			<psa03 value="0.00903780313720456" flag="0"/>
			<psa10 value="0.00212613279898716" flag="0"/>
			<psa30 value="0.000423753488255572" flag="0"/>
		</comp>
	</station>
	<station code="HERG" name="HERG" netid="HL" source="National Observatory of Athens Seismic Network" insttype="" lat="35.32622" lon="25.06586">
		<comp name="00.HNE" depth="0.0">
			<acc value="0.00661622937273929" flag="0"/>
			<vel value="0.00885947119611716" flag="0"/>
			<psa03 value="0.0143630387204218" flag="0"/>
			<psa10 value="0.0119741935440675" flag="0"/>
			<psa30 value="0.00171040580599072" flag="0"/>
		</comp>
		<comp name="00.HNN" depth="0.0">
			<acc value="0.00710065691419215" flag="0"/>
			<vel value="0.00900301648697343" flag="0"/>
			<psa03 value="0.0162787971404273" flag="0"/>
			<psa10 value="0.0113775890219464" flag="0"/>
			<psa30 value="0.00131699495278354" flag="0"/>
		</comp>
		<comp name="00.HNZ" depth="0.0">
			<acc value="0.00525978912957616" flag="0"/>
			<vel value="0.00439341093119989" flag="0"/>
			<psa03 value="0.0126134514646719" flag="0"/>
			<psa10 value="0.00600031921046568" flag="0"/>
			<psa30 value="0.000425177098187961" flag="0"/>
		</comp>
	</station>
	<station code="IACM" name="IACM" netid="HL" source="National Observatory of Athens Seismic Network" insttype="" lat="35.3058" lon="25.0709">
		<comp name="--.HNE" depth="0.0">
			<acc value="0.0108836231178655" flag="0"/>
			<vel value="0.011188322114056" flag="0"/>
			<psa03 value="0.0345344778438299" flag="0"/>
			<psa10 value="0.0183756810486957" flag="0"/>
			<psa30 value="0.00116990562550688" flag="0"/>
		</comp>
		<comp name="--.HNN" depth="0.0">
			<acc value="0.0173768670757256" flag="0"/>
			<vel value="0.0109179253463752" flag="0"/>
			<psa03 value="0.0457947628451229" flag="0"/>
			<psa10 value="0.0160086892470813" flag="0"/>
			<psa30 value="0.000971976888697623" flag="0"/>
		</comp>
		<comp name="--.HNZ" depth="0.0">
			<acc value="0.0117971003419545" flag="0"/>
			<vel value="0.00477444586152052" flag="0"/>
			<psa03 value="0.0205874315246337" flag="0"/>
			<psa10 value="0.00676539473669994" flag="0"/>
			<psa30 value="0.000407439516910084" flag="0"/>
		</comp>
	</station>
	<station code="KARP" name="KARP" netid="HL" source="National Observatory of Athens Seismic Network" insttype="" lat="35.5471" lon="27.16106">
		<comp name="--.HNE" depth="0.0">
			<acc value="0.0282115484729179" flag="0"/>
			<vel value="0.0102626454481864" flag="0"/>
			<psa03 value="0.0473382192579763" flag="0"/>
			<psa10 value="0.0072759118371842" flag="0"/>
			<psa30 value="0.000605888001691827" flag="0"/>
		</comp>
		<comp name="--.HNN" depth="0.0">
			<acc value="0.0265390257596442" flag="0"/>
			<vel value="0.00922065594098151" flag="0"/>
			<psa03 value="0.0298556574782661" flag="0"/>
			<psa10 value="0.00882181908970617" flag="0"/>
			<psa30 value="0.000636152662826967" flag="0"/>
		</comp>
		<comp name="--.HNZ" depth="0.0">
			<acc value="0.0175580034531314" flag="0"/>
			<vel value="0.00576949570013804" flag="0"/>
			<psa03 value="0.0300745391656273" flag="0"/>
			<psa10 value="0.00372524037264225" flag="0"/>
			<psa30 value="0.000506800239695152" flag="0"/>
		</comp>
	</station>
	<station code="KLNA" name="KLNA" netid="HL" source="National Observatory of Athens Seismic Network" insttype="" lat="36.95708" lon="26.97274">
		<comp name="00.HNE" depth="0.0">
			<acc value="0.0615805157119738" flag="0"/>
			<vel value="0.0247014250854246" flag="0"/>
			<psa03 value="0.143922888351809" flag="0"/>
			<psa10 value="0.015423018574289" flag="0"/>
			<psa30 value="0.00238373145217448" flag="0"/>
		</comp>
		<comp name="00.HNN" depth="0.0">
			<acc value="0.0836230319260376" flag="0"/>
			<vel value="0.0237076248206637" flag="0"/>
			<psa03 value="0.118114324494244" flag="0"/>
			<psa10 value="0.0118086172629563" flag="0"/>
			<psa30 value="0.00116031269835655" flag="0"/>
		</comp>
		<comp name="00.HNZ" depth="0.0">
			<acc value="0.0994888398955515" flag="0"/>
			<vel value="0.023309993959751" flag="0"/>
			<psa03 value="0.0455897596811778" flag="0"/>
			<psa10 value="0.00817732952045173" flag="0"/>
			<psa30 value="0.00129212268012091" flag="0"/>
		</comp>
	</station>
	<station code="NISR" name="NISR" netid="HL" source="National Observatory of Athens Seismic Network" insttype="" lat="36.6106" lon="27.131">
		<comp name="--.HNE" depth="0.0">
			<acc value="1.0981741173911" flag="0"/>
			<vel value="0.352270761965613" flag="0"/>
			<psa03 value="1.02460212486221" flag="0"/>
			<psa10 value="0.0850657676897263" flag="0"/>
			<psa30 value="0.00921854735018552" flag="0"/>
		</comp>
		<comp name="--.HNN" depth="0.0">
			<acc value="0.856864502956717" flag="0"/>
			<vel value="0.184011099222203" flag="0"/>
			<psa03 value="0.47645410441114" flag="0"/>
			<psa10 value="0.0452167228859654" flag="0"/>
			<psa30 value="0.00746130594157118" flag="0"/>
		</comp>
		<comp name="--.HNZ" depth="0.0">
			<acc value="0.371803383037599" flag="0"/>
			<vel value="0.0709554842964957" flag="0"/>
			<psa03 value="0.281286842206164" flag="0"/>
			<psa10 value="0.0646562331580915" flag="0"/>
			<psa30 value="0.00361407066444364" flag="0"/>
		</comp>
	</station>
	<station code="RODB" name="RODB" netid="HL" source="National Observatory of Athens Seismic Network" insttype="" lat="36.4471" lon="28.22116">
		<comp name="00.HNE" depth="0.0">
			<acc value="0.0121060197744404" flag="0"/>
			<vel value="0.013595840536864" flag="0"/>
			<psa03 value="0.0296536935783236" flag="0"/>
			<psa10 value="0.0239202771009784" flag="0"/>
			<psa30 value="0.00416863323482655" flag="0"/>
		</comp>
		<comp name="00.HNN" depth="0.0">
			<acc value="0.0121722364278408" flag="0"/>
			<vel value="0.0175310444763767" flag="0"/>
			<psa03 value="0.0306812955060922" flag="0"/>
			<psa10 value="0.0285414907337045" flag="0"/>
			<psa30 value="0.00383307433902851" flag="0"/>
		</comp>
		<comp name="00.HNZ" depth="0.0">
			<acc value="0.0238777590190618" flag="0"/>
			<vel value="0.0083354083442523" flag="0"/>
			<psa03 value="0.0227978800393207" flag="0"/>
			<psa10 value="0.0165345303314736" flag="0"/>
			<psa30 value="0.00189882453780845" flag="0"/>
		</comp>
	</station>
	<station code="THRA" name="THRA" netid="HL" source="National Observatory of Athens Seismic Network" insttype="" lat="36.41502" lon="25.43244">
		<comp name="00.HNE" depth="0.0">
			<acc value="0.0265377949146498" flag="0"/>
			<vel value="0.0186637266199027" flag="0"/>
			<psa03 value="0.0557706528652263" flag="0"/>
			<psa10 value="0.025313471893279" flag="0"/>
			<psa30 value="0.00588159546016515" flag="0"/>
		</comp>
		<comp name="00.HNN" depth="0.0">
			<acc value="0.0183935843279908" flag="0"/>
			<vel value="0.0162019118187722" flag="0"/>
			<psa03 value="0.0604326544085241" flag="0"/>
			<psa10 value="0.02710628940863" flag="0"/>
			<psa30 value="0.00216121087794549" flag="0"/>
		</comp>
		<comp name="00.HNZ" depth="0.0">
			<acc value="0.018408247668741" flag="0"/>
			<vel value="0.00917321172520855" flag="0"/>
			<psa03 value="0.0538628858600065" flag="0"/>
			<psa10 value="0.00753578014593655" flag="0"/>
			<psa30 value="0.00143439835518428" flag="0"/>
		</comp>
	</station>
	<station code="TNSA" name="TNSA" netid="HL" source="National Observatory of Athens Seismic Network" insttype="" lat="37.53942" lon="25.1631">
		<comp name="00.HNE" depth="0.0">
			<acc value="0.0049966991460729" flag="0"/>
			<vel value="0.00599557600938247" flag="0"/>
			<psa03 value="0.00977696212889942" flag="0"/>
			<psa10 value="0.0122719117039382" flag="0"/>
			<psa30 value="0.00102193978183005" flag="0"/>
		</comp>
		<comp name="00.HNN" depth="0.0">
			<acc value="0.00462012671250861" flag="0"/>
			<vel value="0.00407692895918764" flag="0"/>
			<psa03 value="0.00867810873627998" flag="0"/>
			<psa10 value="0.00955892010655683" flag="0"/>
			<psa30 value="0.00047909637319906" flag="0"/>
		</comp>
		<comp name="00.HNZ" depth="0.0">
			<acc value="0.00220941106067229" flag="0"/>
			<vel value="0.00222544907424241" flag="0"/>
			<psa03 value="0.00475875013968147" flag="0"/>
			<psa10 value="0.00334823844499119" flag="0"/>
			<psa30 value="0.000497401804594866" flag="0"/>
		</comp>
	</station>
	<station code="CAME" name="CAME" netid="KO" source="Bogazici University Kandilli Observatory And Earthquake Research Institute (KOERI)" insttype="" lat="36.9435" lon="29.3023">
		<comp name="--.HNE" depth="0.0">
			<acc value="0.00296083053463446" flag="0"/>
			<vel value="0.00248381909823777" flag="0"/>
			<psa03 value="0.00862567687752522" flag="0"/>
			<psa10 value="0.00387453541895704" flag="0"/>
			<psa30 value="0.000589087826259391" flag="0"/>
		</comp>
		<comp name="--.HNN" depth="0.0">
			<acc value="0.00230053989271902" flag="0"/>
			<vel value="0.00200265028151222" flag="0"/>
			<psa03 value="0.00744928384308979" flag="0"/>
			<psa10 value="0.00369363726346485" flag="0"/>
			<psa30 value="0.00041347814610644" flag="0"/>
		</comp>
		<comp name="--.HNZ" depth="0.0">
			<acc value="0.00174980643941018" flag="0"/>
			<vel value="0.00254574221922385" flag="0"/>
			<psa03 value="0.00631496976804074" flag="0"/>
			<psa10 value="0.00376001244174547" flag="0"/>
			<psa30 value="0.000562707224510448" flag="0"/>
		</comp>
	</station>
	<station code="NAZL" name="NAZL" netid="KO" source="Bogazici University Kandilli Observatory And Earthquake Research Institute (KOERI)" insttype="" lat="37.9641" lon="28.2922">
		<comp name="--.HNE" depth="0.0">
			<acc value="0.00388338871640591" flag="0"/>
			<vel value="0.00557840840215498" flag="0"/>
			<psa03 value="0.00859327303822159" flag="0"/>
			<psa10 value="0.00633562704794384" flag="0"/>
			<psa30 value="0.000926861295846253" flag="0"/>
		</comp>
		<comp name="--.HNN" depth="0.0">
			<acc value="0.00323974998721" flag="0"/>
			<vel value="0.00306654501975581" flag="0"/>
			<psa03 value="0.00666428001752356" flag="0"/>
			<psa10 value="0.00503273355014662" flag="0"/>
			<psa30 value="0.000679584498305853" flag="0"/>
		</comp>
		<comp name="--.HNZ" depth="0.0">
			<acc value="0.00127464138741214" flag="0"/>
			<vel value="0.00164335405011799" flag="0"/>
			<psa03 value="0.00225705641995272" flag="0"/>
			<psa10 value="0.00256443558439548" flag="0"/>
			<psa30 value="0.000248018044561527" flag="0"/>
		</comp>
	</station>
</stationlist>
