<?xml version="1.0" encoding="UTF-8" standalone="yes"?>
<!DOCTYPE earthquake SYSTEM "stationlist.dtd">
<stationlist created="" xmlns="ch.ethz.sed.shakemap.usgs.xml">
  <station code="KALE" name="KALE" netid="HA" insttype="40," lat="38.3911" lon="22.1398">
    <comp name="--.HHN">
      <acc value="0.0087729567" flag="0"/>
      <vel value="0.0055283220" flag="0"/>
      <psa03 value="0.0166821286" flag="0"/>
      <psa10 value="0.0048038989" flag="0"/>
      <psa30 value="0.0012869102" flag="0"/>
    </comp>
    <comp name="--.HHE">
      <acc value="0.0064332927" flag="0"/>
      <vel value="0.0048381115" flag="0"/>
      <psa03 value="0.0186731774" flag="0"/>
      <psa10 value="0.0084158582" flag="0"/>
      <psa30 value="0.0011108436" flag="0"/>
    </comp>
    <comp name="--.HHZ">
      <acc value="0.0042095656" flag="0"/>
      <vel value="0.0032171072" flag="0"/>
      <psa03 value="0.0097461253" flag="0"/>
      <psa10 value="0.0046778136" flag="0"/>
      <psa30 value="0.0011868971" flag="0"/>
    </comp>
  </station>
  <station code="LAKA" name="LAKA" netid="HA" insttype="120s" lat="38.2401" lon="21.9785">
    <comp name="--.HHN">
      <acc value="0.0000311638" flag="0"/>
      <vel value="0.0000026488" flag="0"/>
      <psa03 value="0.0000097037" flag="0"/>
      <psa10 value="0.0000030622" flag="0"/>
      <psa30 value="0.0000004996" flag="0"/>
    </comp>
    <comp name="--.HHE">
      <acc value="0.0000298558" flag="0"/>
      <vel value="0.0000034569" flag="0"/>
      <psa03 value="0.0000095782" flag="0"/>
      <psa10 value="0.0000026396" flag="0"/>
      <psa30 value="0.0000004421" flag="0"/>
    </comp>
    <comp name="--.HHZ">
      <acc value="0.0035501001" flag="0"/>
      <vel value="0.0028315895" flag="0"/>
      <psa03 value="0.0072193796" flag="0"/>
      <psa10 value="0.0069129594" flag="0"/>
      <psa30 value="0.0009750729" flag="0"/>
    </comp>
  </station>
  <station code="ART2" name="ART2" netid="HI" insttype="CMG-5TD,ACCELEROMETER,GURALP" lat="39.1474" lon="20.9937">
    <comp name="--.HNZ">
      <acc value="0.0458352072" flag="0"/>
      <vel value="0.0268237586" flag="0"/>
      <psa03 value="0.1080904090" flag="0"/>
      <psa10 value="0.0141640110" flag="0"/>
      <psa30 value="0.0043203173" flag="0"/>
    </comp>
    <comp name="--.HNE">
      <acc value="0.0343471731" flag="0"/>
      <vel value="0.0163688168" flag="0"/>
      <psa03 value="0.0993377223" flag="0"/>
      <psa10 value="0.0098561953" flag="0"/>
      <psa30 value="0.0025923638" flag="0"/>
    </comp>
    <comp name="--.HNN">
      <acc value="0.0430642161" flag="0"/>
      <vel value="0.0169790574" flag="0"/>
      <psa03 value="0.0726393076" flag="0"/>
      <psa10 value="0.0102241487" flag="0"/>
      <psa30 value="0.0035302634" flag="0"/>
    </comp>
  </station>
  <station code="MSL1" name="MSL1" netid="HI" insttype="CMG-5TD,ACCELEROMETER,GURALP" lat="38.3727" lon="21.4243">
    <comp name="--.HNN">
      <acc value="0.0934873567" flag="0"/>
      <vel value="0.0581879460" flag="0"/>
      <psa03 value="0.2245354874" flag="0"/>
      <psa10 value="0.0982122292" flag="0"/>
      <psa30 value="0.0057540088" flag="0"/>
    </comp>
    <comp name="--.HNE">
      <acc value="0.0712995419" flag="0"/>
      <vel value="0.0790695166" flag="0"/>
      <psa03 value="0.2101295609" flag="0"/>
      <psa10 value="0.1409111010" flag="0"/>
      <psa30 value="0.0118066256" flag="0"/>
    </comp>
    <comp name="--.HNZ">
      <acc value="0.0355536137" flag="0"/>
      <vel value="0.0263376101" flag="0"/>
      <psa03 value="0.0763553605" flag="0"/>
      <psa10 value="0.0699172937" flag="0"/>
      <psa30 value="0.0026050857" flag="0"/>
    </comp>
  </station>
  <station code="EVR" name="EVR" netid="HL" insttype="DR24" lat="38.9166" lon="21.8105">
    <comp name="--.HHN">
      <acc value="0.0103577690" flag="0"/>
      <vel value="0.0039734059" flag="0"/>
      <psa03 value="0.0200888242" flag="0"/>
      <psa10 value="0.0058622204" flag="0"/>
      <psa30 value="0.0010129161" flag="0"/>
    </comp>
    <comp name="--.HHZ">
      <acc value="0.0085210206" flag="0"/>
      <vel value="0.0045920202" flag="0"/>
      <psa03 value="0.0155928356" flag="0"/>
      <psa10 value="0.0045786036" flag="0"/>
      <psa30 value="0.0005489786" flag="0"/>
    </comp>
    <comp name="--.HHE">
      <acc value="0.0104776349" flag="0"/>
      <vel value="0.0059354752" flag="0"/>
      <psa03 value="0.0228141611" flag="0"/>
      <psa10 value="0.0046527251" flag="0"/>
      <psa30 value="0.0006638774" flag="0"/>
    </comp>
  </station>
  <station code="JAN" name="JAN" netid="HL" insttype="CMG3EPSC60_DR24" lat="39.6562" lon="20.8487">
    <comp name="--.HHE">
      <acc value="0.0117186194" flag="0"/>
      <vel value="0.0083583246" flag="0"/>
      <psa03 value="0.0311756113" flag="0"/>
      <psa10 value="0.0092428289" flag="0"/>
      <psa30 value="0.0009896148" flag="0"/>
    </comp>
    <comp name="--.HHN">
      <acc value="0.0137862864" flag="0"/>
      <vel value="0.0078535791" flag="0"/>
      <psa03 value="0.0336560723" flag="0"/>
      <psa10 value="0.0060800987" flag="0"/>
      <psa30 value="0.0012637222" flag="0"/>
    </comp>
    <comp name="--.HHZ">
      <acc value="0.0100863163" flag="0"/>
      <vel value="0.0059552692" flag="0"/>
      <psa03 value="0.0396117938" flag="0"/>
      <psa10 value="0.0100652072" flag="0"/>
      <psa30 value="0.0009322510" flag="0"/>
    </comp>
  </station>
  <station code="ORTH" name="ORTH" netid="HL" insttype="30" lat="37.8511" lon="20.6963">
    <comp name="--.HHE">
      <acc value="0.0086931697" flag="0"/>
      <vel value="0.0042275162" flag="0"/>
      <psa03 value="0.0240266884" flag="0"/>
      <psa10 value="0.0056204942" flag="0"/>
      <psa30 value="0.0005110038" flag="0"/>
    </comp>
    <comp name="--.HHZ">
      <acc value="0.0030712432" flag="0"/>
      <vel value="0.0021197804" flag="0"/>
      <psa03 value="0.0075348029" flag="0"/>
      <psa10 value="0.0027781997" flag="0"/>
      <psa30 value="0.0003896713" flag="0"/>
    </comp>
    <comp name="--.HHN">
      <acc value="0.0078738825" flag="0"/>
      <vel value="0.0059313180" flag="0"/>
      <psa03 value="0.0244549630" flag="0"/>
      <psa10 value="0.0088776520" flag="0"/>
      <psa30 value="0.0005241826" flag="0"/>
    </comp>
  </station>
  <station code="RLS" name="RLS" netid="HL" insttype="CMG3ESPC-120s" lat="38.0559" lon="21.4647">
    <comp name="--.HHN">
      <acc value="0.0095156653" flag="0"/>
      <vel value="0.0055246966" flag="0"/>
      <psa03 value="0.0255540393" flag="0"/>
      <psa10 value="0.0051785493" flag="0"/>
      <psa30 value="0.0007376931" flag="0"/>
    </comp>
    <comp name="--.HHE">
      <acc value="0.0076119271" flag="0"/>
      <vel value="0.0063430479" flag="0"/>
      <psa03 value="0.0185653309" flag="0"/>
      <psa10 value="0.0099129849" flag="0"/>
      <psa30 value="0.0008560773" flag="0"/>
    </comp>
    <comp name="--.HHZ">
      <acc value="0.0038360891" flag="0"/>
      <vel value="0.0027862917" flag="0"/>
      <psa03 value="0.0121220463" flag="0"/>
      <psa10 value="0.0032647286" flag="0"/>
      <psa30 value="0.0004004238" flag="0"/>
    </comp>
  </station>
  <station code="TETR" name="TETR" netid="HL" insttype="60" lat="39.3445" lon="21.2747">
    <comp name="--.HHN">
      <acc value="0.0578524994" flag="0"/>
      <vel value="0.0279735081" flag="0"/>
      <psa03 value="0.1689038431" flag="0"/>
      <psa10 value="0.0130241643" flag="0"/>
      <psa30 value="0.0023598086" flag="0"/>
    </comp>
    <comp name="--.HHE">
      <acc value="0.0579333917" flag="0"/>
      <vel value="0.0339964668" flag="0"/>
      <psa03 value="0.1788500226" flag="0"/>
      <psa10 value="0.0216041960" flag="0"/>
      <psa30 value="0.0022640050" flag="0"/>
    </comp>
    <comp name="--.HHZ">
      <acc value="0.0194696218" flag="0"/>
      <vel value="0.0095476410" flag="0"/>
      <psa03 value="0.0542933257" flag="0"/>
      <psa10 value="0.0102368057" flag="0"/>
      <psa30 value="0.0020014426" flag="0"/>
    </comp>
  </station>
  <station code="THL" name="THL" netid="HL" insttype="120" lat="39.5647" lon="22.0144">
    <comp name="--.HHE">
      <acc value="0.0041358915" flag="0"/>
      <vel value="0.0036787284" flag="0"/>
      <psa03 value="0.0095341560" flag="0"/>
      <psa10 value="0.0033128760" flag="0"/>
      <psa30 value="0.0003238339" flag="0"/>
    </comp>
    <comp name="--.HHZ">
      <acc value="0.0023454537" flag="0"/>
      <vel value="0.0019717007" flag="0"/>
      <psa03 value="0.0060578727" flag="0"/>
      <psa10 value="0.0035253716" flag="0"/>
      <psa30 value="0.0002575846" flag="0"/>
    </comp>
    <comp name="--.HHN">
      <acc value="0.0023558448" flag="0"/>
      <vel value="0.0021244621" flag="0"/>
      <psa03 value="0.0053929152" flag="0"/>
      <psa10 value="0.0025420014" flag="0"/>
      <psa30 value="0.0002918665" flag="0"/>
    </comp>
  </station>
  <station code="VLS" name="VLS" netid="HL" insttype="120P," lat="38.1768" lon="20.5886">
    <comp name="--.HHE">
      <acc value="0.0182698734" flag="0"/>
      <vel value="0.0047987420" flag="0"/>
      <psa03 value="0.0255842224" flag="0"/>
      <psa10 value="0.0041808703" flag="0"/>
      <psa30 value="0.0005761063" flag="0"/>
    </comp>
    <comp name="--.HHN">
      <acc value="0.0139155682" flag="0"/>
      <vel value="0.0047273325" flag="0"/>
      <psa03 value="0.0275238808" flag="0"/>
      <psa10 value="0.0039888643" flag="0"/>
      <psa30 value="0.0006125201" flag="0"/>
    </comp>
    <comp name="--.HHZ">
      <acc value="0.0093548950" flag="0"/>
      <vel value="0.0038179033" flag="0"/>
      <psa03 value="0.0134555659" flag="0"/>
      <psa10 value="0.0031771467" flag="0"/>
      <psa30 value="0.0005569141" flag="0"/>
    </comp>
  </station>
  <station code="AMPL" name="AMPL" netid="HP" insttype="Compact," lat="38.9224" lon="21.2135">
    <comp name="--.HHZ">
      <acc value="0.0921534914" flag="0"/>
      <vel value="0.0325755504" flag="0"/>
      <psa03 value="0.1451441790" flag="0"/>
      <psa10 value="0.0692192221" flag="0"/>
      <psa30 value="0.0029402801" flag="0"/>
    </comp>
    <comp name="--.HHE">
      <acc value="0.1686899270" flag="0"/>
      <vel value="0.0626798748" flag="0"/>
      <psa03 value="0.2195990210" flag="0"/>
      <psa10 value="0.0517548821" flag="0"/>
      <psa30 value="0.0040944032" flag="0"/>
    </comp>
    <comp name="--.HHN">
      <acc value="0.2253373512" flag="0"/>
      <vel value="0.0584111594" flag="0"/>
      <psa03 value="0.2746992153" flag="0"/>
      <psa10 value="0.0567093093" flag="0"/>
      <psa30 value="0.0043772654" flag="0"/>
    </comp>
  </station>
  <station code="ANX" name="ANX" netid="HP" insttype="120" lat="38.5933" lon="21.9209">
    <comp name="--.HHZ">
      <acc value="0.0072826456" flag="0"/>
      <vel value="0.0061719002" flag="0"/>
      <psa03 value="0.0250032612" flag="0"/>
      <psa10 value="0.0069697696" flag="0"/>
      <psa30 value="0.0014386280" flag="0"/>
    </comp>
    <comp name="--.HHE">
      <acc value="0.0154837841" flag="0"/>
      <vel value="0.0119383257" flag="0"/>
      <psa03 value="0.0382712865" flag="0"/>
      <psa10 value="0.0116424939" flag="0"/>
      <psa30 value="0.0021037632" flag="0"/>
    </comp>
    <comp name="--.HHN">
      <acc value="0.0166583920" flag="0"/>
      <vel value="0.0113735079" flag="0"/>
      <psa03 value="0.0420027359" flag="0"/>
      <psa10 value="0.0099553428" flag="0"/>
      <psa30 value="0.0014251907" flag="0"/>
    </comp>
  </station>
  <station code="AXS" name="AXS" netid="HP" insttype="40," lat="38.1962" lon="21.3763">
    <comp name="--.HHN">
      <acc value="0.0067417942" flag="0"/>
      <vel value="0.0042297571" flag="0"/>
      <psa03 value="0.0190183278" flag="0"/>
      <psa10 value="0.0035357328" flag="0"/>
      <psa30 value="0.0005665183" flag="0"/>
    </comp>
    <comp name="--.HHE">
      <acc value="0.0065860798" flag="0"/>
      <vel value="0.0053340021" flag="0"/>
      <psa03 value="0.0162176988" flag="0"/>
      <psa10 value="0.0054269727" flag="0"/>
      <psa30 value="0.0005664515" flag="0"/>
    </comp>
    <comp name="--.HHZ">
      <acc value="0.0033297262" flag="0"/>
      <vel value="0.0022685990" flag="0"/>
      <psa03 value="0.0092260983" flag="0"/>
      <psa10 value="0.0027247196" flag="0"/>
      <psa30 value="0.0002906580" flag="0"/>
    </comp>
  </station>
  <station code="DRO" name="DRO" netid="HP" insttype="120P," lat="37.952" lon="21.71">
    <comp name="--.HHE">
      <acc value="0.0033337834" flag="0"/>
      <vel value="0.0021838881" flag="0"/>
      <psa03 value="0.0085951667" flag="0"/>
      <psa10 value="0.0020629919" flag="0"/>
      <psa30 value="0.0001294372" flag="0"/>
    </comp>
    <comp name="--.HHN">
      <acc value="0.0132182829" flag="0"/>
      <vel value="0.0074623842" flag="0"/>
      <psa03 value="0.0546115276" flag="0"/>
      <psa10 value="0.0073988917" flag="0"/>
      <psa30 value="0.0007006852" flag="0"/>
    </comp>
    <comp name="--.HHZ">
      <acc value="0.0047897398" flag="0"/>
      <vel value="0.0029538768" flag="0"/>
      <psa03 value="0.0129813146" flag="0"/>
      <psa10 value="0.0032775735" flag="0"/>
      <psa30 value="0.0004329699" flag="0"/>
    </comp>
  </station>
  <station code="EFP" name="EFP" netid="HP" insttype="40," lat="38.4269" lon="21.9058">
    <comp name="--.HHN">
      <acc value="0.0135545574" flag="0"/>
      <vel value="0.0085962593" flag="0"/>
      <psa03 value="0.0470900434" flag="0"/>
      <psa10 value="0.0087679758" flag="0"/>
      <psa30 value="0.0014252818" flag="0"/>
    </comp>
    <comp name="--.HHE">
      <acc value="0.0138772851" flag="0"/>
      <vel value="0.0081672711" flag="0"/>
      <psa03 value="0.0370764657" flag="0"/>
      <psa10 value="0.0105981593" flag="0"/>
      <psa30 value="0.0022317004" flag="0"/>
    </comp>
    <comp name="--.HHZ">
      <acc value="0.0094060850" flag="0"/>
      <vel value="0.0044778875" flag="0"/>
      <psa03 value="0.0212849409" flag="0"/>
      <psa10 value="0.0073448102" flag="0"/>
      <psa30 value="0.0017189092" flag="0"/>
    </comp>
  </station>
  <station code="FSK" name="FSK" netid="HP" insttype="40," lat="38.4593" lon="20.5623">
    <comp name="--.HHN">
      <acc value="0.0239681356" flag="0"/>
      <vel value="0.0115646873" flag="0"/>
      <psa03 value="0.0484513111" flag="0"/>
      <psa10 value="0.0143457223" flag="0"/>
      <psa30 value="0.0032908115" flag="0"/>
    </comp>
    <comp name="--.HHZ">
      <acc value="0.0157025906" flag="0"/>
      <vel value="0.0083715093" flag="0"/>
      <psa03 value="0.0224913017" flag="0"/>
      <psa10 value="0.0104662803" flag="0"/>
      <psa30 value="0.0022959063" flag="0"/>
    </comp>
    <comp name="--.HHE">
      <acc value="0.0339842216" flag="0"/>
      <vel value="0.0110076589" flag="0"/>
      <psa03 value="0.0607162139" flag="0"/>
      <psa10 value="0.0163242157" flag="0"/>
      <psa30 value="0.0026085150" flag="0"/>
    </comp>
  </station>
  <station code="KSTR" name="KSTR" netid="HP" insttype="Compact," lat="39.2492" lon="20.576">
    <comp name="--.HHN">
      <acc value="0.0088420592" flag="0"/>
      <vel value="0.0038060420" flag="0"/>
      <psa03 value="0.0173689557" flag="0"/>
      <psa10 value="0.0057067054" flag="0"/>
      <psa30 value="0.0004091671" flag="0"/>
    </comp>
    <comp name="--.HHZ">
      <acc value="0.0081653561" flag="0"/>
      <vel value="0.0034555997" flag="0"/>
      <psa03 value="0.0253961177" flag="0"/>
      <psa10 value="0.0032722282" flag="0"/>
      <psa30 value="0.0005381934" flag="0"/>
    </comp>
    <comp name="--.HHE">
      <acc value="0.0094328596" flag="0"/>
      <vel value="0.0043878310" flag="0"/>
      <psa03 value="0.0234213709" flag="0"/>
      <psa10 value="0.0045357894" flag="0"/>
      <psa30 value="0.0005189400" flag="0"/>
    </comp>
  </station>
  <station code="LTHK" name="LTHK" netid="HP" insttype="40," lat="37.7095" lon="20.8367">
    <comp name="--.HHZ">
      <acc value="0.0030860173" flag="0"/>
      <vel value="0.0026824691" flag="0"/>
      <psa03 value="0.0100695024" flag="0"/>
      <psa10 value="0.0037074419" flag="0"/>
      <psa30 value="0.0004093457" flag="0"/>
    </comp>
    <comp name="--.HHE">
      <acc value="0.0050768027" flag="0"/>
      <vel value="0.0033508966" flag="0"/>
      <psa03 value="0.0134902671" flag="0"/>
      <psa10 value="0.0047533650" flag="0"/>
      <psa30 value="0.0004080080" flag="0"/>
    </comp>
    <comp name="--.HHN">
      <acc value="0.0050983716" flag="0"/>
      <vel value="0.0032583063" flag="0"/>
      <psa03 value="0.0124989476" flag="0"/>
      <psa10 value="0.0039880480" flag="0"/>
      <psa30 value="0.0005454352" flag="0"/>
    </comp>
  </station>
  <station code="PDO" name="PDO" netid="HP" insttype="120s" lat="38.5986" lon="21.1833">
    <comp name="--.HHE">
      <acc value="0.1211425680" flag="0"/>
      <vel value="0.0664523094" flag="0"/>
      <psa03 value="0.2848045576" flag="0"/>
      <psa10 value="0.0763551794" flag="0"/>
      <psa30 value="0.0037607144" flag="0"/>
    </comp>
    <comp name="--.HHN">
      <acc value="0.1319245866" flag="0"/>
      <vel value="0.0728610754" flag="0"/>
      <psa03 value="0.3162918719" flag="0"/>
      <psa10 value="0.0684867243" flag="0"/>
      <psa30 value="0.0049201076" flag="0"/>
    </comp>
    <comp name="--.HHZ">
      <acc value="0.0927283426" flag="0"/>
      <vel value="0.0328550599" flag="0"/>
      <psa03 value="0.1975310843" flag="0"/>
      <psa10 value="0.0197211236" flag="0"/>
      <psa30 value="0.0025564930" flag="0"/>
    </comp>
  </station>
  <station code="PRMD" name="PRMD" netid="HP" insttype="120P," lat="39.5299" lon="21.0965">
    <comp name="--.HHE">
      <acc value="0.0171817067" flag="0"/>
      <vel value="0.0097505255" flag="0"/>
      <psa03 value="0.0732467448" flag="0"/>
      <psa10 value="0.0126445018" flag="0"/>
      <psa30 value="0.0043991777" flag="0"/>
    </comp>
    <comp name="--.HHN">
      <acc value="0.0083608203" flag="0"/>
      <vel value="0.0069085189" flag="0"/>
      <psa03 value="0.0384656565" flag="0"/>
      <psa10 value="0.0109318331" flag="0"/>
      <psa30 value="0.0021915629" flag="0"/>
    </comp>
    <comp name="--.HHZ">
      <acc value="0.0078156586" flag="0"/>
      <vel value="0.0060847802" flag="0"/>
      <psa03 value="0.0447945588" flag="0"/>
      <psa10 value="0.0080555954" flag="0"/>
      <psa30 value="0.0029807890" flag="0"/>
    </comp>
  </station>
  <station code="PVO" name="PVO" netid="HP" insttype="120P," lat="38.616" lon="21.525">
    <comp name="--.HHZ">
      <acc value="0.0338634884" flag="0"/>
      <vel value="0.0131034803" flag="0"/>
      <psa03 value="0.0658320191" flag="0"/>
      <psa10 value="0.0111430284" flag="0"/>
      <psa30 value="0.0034255931" flag="0"/>
    </comp>
    <comp name="--.HHE">
      <acc value="0.0728084534" flag="0"/>
      <vel value="0.0412588019" flag="0"/>
      <psa03 value="0.1684559127" flag="0"/>
      <psa10 value="0.0234194455" flag="0"/>
      <psa30 value="0.0026047548" flag="0"/>
    </comp>
    <comp name="--.HHN">
      <acc value="0.0530157290" flag="0"/>
      <vel value="0.0312302612" flag="0"/>
      <psa03 value="0.1521047840" flag="0"/>
      <psa10 value="0.0199863530" flag="0"/>
      <psa30 value="0.0056780415" flag="0"/>
    </comp>
  </station>
  <station code="SERG" name="SERG" netid="HP" insttype="2000" lat="38.4133" lon="22.0566">
    <comp name="00.HHE">
      <acc value="0.0122560838" flag="0"/>
      <vel value="0.0059887365" flag="0"/>
      <psa03 value="0.0465733928" flag="0"/>
      <psa10 value="0.0053539550" flag="0"/>
      <psa30 value="0.0018996969" flag="0"/>
    </comp>
    <comp name="00.HHN">
      <acc value="0.0169291080" flag="0"/>
      <vel value="0.0088630314" flag="0"/>
