<stationlist created="1668160820">
	<station code="ANB" name="ANB" netid="IT" source="Italian Strong Motion Network (RAN)" insttype="" lat="43.59229" lon="13.507411">
		<comp name="00.HGE" depth="0.0">
			<acc value="0.670341738718" flag="0"/>
			<vel value="0.135924689986" flag="0"/>
			<psa03 value="0.888045745338" flag="0"/>
			<psa10 value="0.0850547644606" flag="0"/>
			<psa30 value="0.00456517200356" flag="0"/>
		</comp>
		<comp name="00.HGN" depth="0.0">
			<acc value="0.532971652701" flag="0"/>
			<vel value="0.190530047795" flag="0"/>
			<psa03 value="0.678078877729" flag="0"/>
			<psa10 value="0.0838133572236" flag="0"/>
			<psa30 value="0.00516206862838" flag="0"/>
		</comp>
		<comp name="00.HGZ" depth="0.0">
			<acc value="0.194092206471" flag="0"/>
			<vel value="0.0763552829653" flag="0"/>
			<psa03 value="0.260747919103" flag="0"/>
			<psa10 value="0.0211427606041" flag="0"/>
			<psa30 value="0.00225468915376" flag="0"/>
		</comp>
	</station>
	<station code="APNO" name="APNO" netid="IT" source="Italian Strong Motion Network (RAN)" insttype="" lat="43.3638000488" lon="13.3451004028">
		<comp name="00.HNE" depth="0.0">
			<acc value="0.0840223347816" flag="0"/>
			<vel value="0.0242623418921" flag="0"/>
			<psa03 value="0.132550530822" flag="0"/>
			<psa10 value="0.0165256666193" flag="0"/>
			<psa30 value="0.00177510259184" flag="0"/>
		</comp>
		<comp name="00.HNN" depth="0.0">
			<acc value="0.0871166899332" flag="0"/>
			<vel value="0.0237546739688" flag="0"/>
			<psa03 value="0.143329213607" flag="0"/>
			<psa10 value="0.0190180986057" flag="0"/>
			<psa30 value="0.00236243024941" flag="0"/>
		</comp>
		<comp name="00.HNZ" depth="0.0">
			<acc value="0.0569984997339" flag="0"/>
			<vel value="0.0138038635399" flag="0"/>
			<psa03 value="0.0588524090997" flag="0"/>
			<psa10 value="0.014066581842" flag="0"/>
			<psa30 value="0.00170515118706" flag="0"/>
		</comp>
	</station>
	<station code="CNTN" name="CNTN" netid="IT" source="Italian Strong Motion Network (RAN)" insttype="" lat="43.4729" lon="12.6303">
		<comp name="00.HNE" depth="0.0">
			<acc value="0.047094660892" flag="0"/>
			<vel value="0.0127174361419" flag="0"/>
			<psa03 value="0.0732082403117" flag="0"/>
			<psa10 value="0.00689590572615" flag="0"/>
			<psa30 value="0.000402028481372" flag="0"/>
		</comp>
		<comp name="00.HNN" depth="0.0">
			<acc value="0.0502932630382" flag="0"/>
			<vel value="0.0121912991444" flag="0"/>
			<psa03 value="0.0361397456433" flag="0"/>
			<psa10 value="0.00899686568571" flag="0"/>
			<psa30 value="0.000356014808192" flag="0"/>
		</comp>
		<comp name="00.HNZ" depth="0.0">
			<acc value="0.0137015811532" flag="0"/>
			<vel value="0.00744345351596" flag="0"/>
			<psa03 value="0.0274554437884" flag="0"/>
			<psa10 value="0.00723415000817" flag="0"/>
			<psa30 value="0.000461206281819" flag="0"/>
		</comp>
	</station>
	<station code="CTL" name="CTL" netid="IT" source="Italian Strong Motion Network (RAN)" insttype="" lat="43.955116" lon="12.735809">
		<comp name="00.HNE" depth="0.0">
			<acc value="0.104165922207" flag="0"/>
			<vel value="0.0245802139017" flag="0"/>
			<psa03 value="0.104068706541" flag="0"/>
			<psa10 value="0.0435600018865" flag="0"/>
			<psa30 value="0.00268250478611" flag="0"/>
		</comp>
		<comp name="00.HNN" depth="0.0">
			<acc value="0.0585723017896" flag="0"/>
			<vel value="0.0185155066184" flag="0"/>
			<psa03 value="0.0771658201902" flag="0"/>
			<psa10 value="0.0377240715346" flag="0"/>
			<psa30 value="0.00250864639384" flag="0"/>
		</comp>
		<comp name="00.HNZ" depth="0.0">
			<acc value="0.0472574251159" flag="0"/>
			<vel value="0.0180932619506" flag="0"/>
			<psa03 value="0.03862523842" flag="0"/>
			<psa10 value="0.0116760206666" flag="0"/>
			<psa30 value="0.00119208855335" flag="0"/>
		</comp>
	</station>
	<station code="FBR" name="FBR" netid="IT" source="Italian Strong Motion Network (RAN)" insttype="" lat="43.343601" lon="12.9119">
		<comp name="00.HGE" depth="0.0">
			<acc value="0.0410152947326" flag="0"/>
			<vel value="0.0168472895988" flag="0"/>
			<psa03 value="0.148834161616" flag="0"/>
			<psa10 value="0.0196723069438" flag="0"/>
			<psa30 value="0.00104050080307" flag="0"/>
		</comp>
		<comp name="00.HGN" depth="0.0">
			<acc value="0.0406969182739" flag="0"/>
			<vel value="0.0146547155687" flag="0"/>
			<psa03 value="0.137677276694" flag="0"/>
			<psa10 value="0.0120645960953" flag="0"/>
			<psa30 value="0.00165826203922" flag="0"/>
		</comp>
		<comp name="00.HGZ" depth="0.0">
			<acc value="0.0286660228968" flag="0"/>
			<vel value="0.0127897552891" flag="0"/>
			<psa03 value="0.0594986133663" flag="0"/>
			<psa10 value="0.0116597380254" flag="0"/>
			<psa30 value="0.00143447992309" flag="0"/>
		</comp>
	</station>
	<station code="FMNT" name="FMNT" netid="IT" source="Italian Strong Motion Network (RAN)" insttype="" lat="43.183601" lon="12.9381">
		<comp name="00.HNE" depth="0.0">
			<acc value="0.0504633765111" flag="0"/>
			<vel value="0.032311325401" flag="0"/>
			<psa03 value="0.151191984477" flag="0"/>
			<psa10 value="0.044829768502" flag="0"/>
			<psa30 value="0.00146261043243" flag="0"/>
		</comp>
		<comp name="00.HNN" depth="0.0">
			<acc value="0.0859129208623" flag="0"/>
			<vel value="0.0396743879046" flag="0"/>
			<psa03 value="0.252562293513" flag="0"/>
			<psa10 value="0.049318504609" flag="0"/>
			<psa30 value="0.0016638565765" flag="0"/>
		</comp>
		<comp name="00.HNZ" depth="0.0">
			<acc value="0.0412446945619" flag="0"/>
			<vel value="0.013851246779" flag="0"/>
			<psa03 value="0.081525609005" flag="0"/>
			<psa10 value="0.0100261926236" flag="0"/>
			<psa30 value="0.00171453243353" flag="0"/>
		</comp>
	</station>
	<station code="GBB" name="GBB" netid="IT" source="Italian Strong Motion Network (RAN)" insttype="" lat="43.356972" lon="12.597252">
		<comp name="00.HGE" depth="0.0">
			<acc value="0.0796035980899" flag="0"/>
			<vel value="0.0258911847104" flag="0"/>
			<psa03 value="0.0884514115553" flag="0"/>
			<psa10 value="0.00842576191536" flag="0"/>
			<psa30 value="0.000712234265358" flag="0"/>
		</comp>
		<comp name="00.HGN" depth="0.0">
			<acc value="0.0674736148933" flag="0"/>
			<vel value="0.0199638703896" flag="0"/>
			<psa03 value="0.0803428379436" flag="0"/>
			<psa10 value="0.0103542409176" flag="0"/>
			<psa30 value="0.00072619763828" flag="0"/>
		</comp>
		<comp name="00.HGZ" depth="0.0">
			<acc value="0.0643666757996" flag="0"/>
			<vel value="0.0197936248315" flag="0"/>
			<psa03 value="0.0825721522913" flag="0"/>
			<psa10 value="0.0133263756195" flag="0"/>
			<psa30 value="0.000758391073021" flag="0"/>
		</comp>
	</station>
	<station code="GBP" name="GBP" netid="IT" source="Italian Strong Motion Network (RAN)" insttype="" lat="43.31381" lon="12.58949">
		<comp name="00.HGE" depth="0.0">
			<acc value="0.0566086758249" flag="0"/>
			<vel value="0.0272271547311" flag="0"/>
			<psa03 value="0.116479434941" flag="0"/>
			<psa10 value="0.0302580263207" flag="0"/>
			<psa30 value="0.00515316220505" flag="0"/>
		</comp>
		<comp name="00.HGN" depth="0.0">
			<acc value="0.0523127994506" flag="0"/>
			<vel value="0.0286589235195" flag="0"/>
			<psa03 value="0.105243930227" flag="0"/>
			<psa10 value="0.05333391436" flag="0"/>
			<psa30 value="0.00463714802165" flag="0"/>
		</comp>
		<comp name="00.HGZ" depth="0.0">
			<acc value="0.0311495269597" flag="0"/>
			<vel value="0.0179375976582" flag="0"/>
			<psa03 value="0.0570543785311" flag="0"/>
			<psa10 value="0.0301235555377" flag="0"/>
			<psa30 value="0.00169843532551" flag="0"/>
		</comp>
	</station>
	<station code="GLT" name="GLT" netid="IT" source="Italian Strong Motion Network (RAN)" insttype="" lat="43.233101" lon="12.789001">
		<comp name="00.HNE" depth="0.0">
			<acc value="0.0176426861911" flag="0"/>
			<vel value="0.00974136278438" flag="0"/>
			<psa03 value="0.0364129434288" flag="0"/>
			<psa10 value="0.0141211751461" flag="0"/>
			<psa30 value="0.000689920182994" flag="0"/>
		</comp>
		<comp name="00.HNN" depth="0.0">
			<acc value="0.0148559124634" flag="0"/>
			<vel value="0.00961429107008" flag="0"/>
			<psa03 value="0.0323004704768" flag="0"/>
			<psa10 value="0.0086301110775" flag="0"/>
			<psa30 value="0.000603549200925" flag="0"/>
		</comp>
		<comp name="00.HNZ" depth="0.0">
			<acc value="0.0148481808429" flag="0"/>
			<vel value="0.0057270403175" flag="0"/>
			<psa03 value="0.0401530505676" flag="0"/>
			<psa10 value="0.00511936616415" flag="0"/>
			<psa30 value="0.000679134624752" flag="0"/>
		</comp>
	</station>
	<station code="MCT" name="MCT" netid="IT" source="Italian Strong Motion Network (RAN)" insttype="" lat="43.292511" lon="13.418895">
		<comp name="00.HNE" depth="0.0">
			<acc value="0.0415354139389" flag="0"/>
			<vel value="0.0192447118562" flag="0"/>
			<psa03 value="0.140127282745" flag="0"/>
			<psa10 value="0.0187290688339" flag="0"/>
			<psa30 value="0.00192531316755" flag="0"/>
		</comp>
		<comp name="00.HNN" depth="0.0">
			<acc value="0.0450547968066" flag="0"/>
			<vel value="0.0219499457724" flag="0"/>
			<psa03 value="0.131610437295" flag="0"/>
			<psa10 value="0.0213122999603" flag="0"/>
			<psa30 value="0.00239209575627" flag="0"/>
		</comp>
		<comp name="00.HNZ" depth="0.0">
			<acc value="0.0214217132299" flag="0"/>
			<vel value="0.00870857222414" flag="0"/>
			<psa03 value="0.0580181767528" flag="0"/>
			<psa10 value="0.0102735327586" flag="0"/>
			<psa30 value="0.00179424740175" flag="0"/>
		</comp>
	</station>
	<station code="MNF" name="MNF" netid="IT" source="Italian Strong Motion Network (RAN)" insttype="" lat="43.059684" lon="13.184466">
		<comp name="00.HGE" depth="0.0">
			<acc value="0.0149045040052" flag="0"/>
			<vel value="0.00635871288733" flag="0"/>
			<psa03 value="0.0361626377848" flag="0"/>
			<psa10 value="0.0046997799311" flag="0"/>
			<psa30 value="0.000481502001311" flag="0"/>
		</comp>
		<comp name="00.HGN" depth="0.0">
			<acc value="0.0140840587586" flag="0"/>
			<vel value="0.00680007302852" flag="0"/>
			<psa03 value="0.0358611933364" flag="0"/>
			<psa10 value="0.00650035624172" flag="0"/>
			<psa30 value="0.000499294169539" flag="0"/>
		</comp>
		<comp name="00.HGZ" depth="0.0">
			<acc value="0.0112397876148" flag="0"/>
			<vel value="0.00526076493044" flag="0"/>
			<psa03 value="0.0270666940773" flag="0"/>
			<psa10 value="0.00598556901455" flag="0"/>
			<psa30 value="0.000807534588952" flag="0"/>
		</comp>
	</station>
	<station code="MODF" name="MODF" netid="IT" source="Italian Strong Motion Network (RAN)" insttype="" lat="43.7644996643" lon="13.1346998215">
		<comp name="00.HNE" depth="0.0">
			<acc value="0.529589020025" flag="0"/>
			<vel value="0.20813408496" flag="0"/>
			<psa03 value="0.643254987485" flag="0"/>
			<psa10 value="0.189642532887" flag="0"/>
			<psa30 value="0.0134176730217" flag="0"/>
		</comp>
		<comp name="00.HNN" depth="0.0">
			<acc value="0.320886199312" flag="0"/>
			<vel value="0.109173461982" flag="0"/>
			<psa03 value="0.511172487669" flag="0"/>
			<psa10 value="0.0988879008382" flag="0"/>
			<psa30 value="0.00796313918558" flag="0"/>
		</comp>
		<comp name="00.HNZ" depth="0.0">
			<acc value="0.346914252651" flag="0"/>
			<vel value="0.0671699487603" flag="0"/>
			<psa03 value="0.235317380288" flag="0"/>
			<psa10 value="0.0693314278667" flag="0"/>
			<psa30 value="0.00973125464788" flag="0"/>
		</comp>
	</station>
	<station code="PBN" name="PBN" netid="IT" source="Italian Strong Motion Network (RAN)" insttype="" lat="43.063702" lon="13.0821">
		<comp name="00.HNE" depth="0.0">
			<acc value="0.047748659464" flag="0"/>
			<vel value="0.0157722845123" flag="0"/>
			<psa03 value="0.0866230091827" flag="0"/>
			<psa10 value="0.00573062103176" flag="0"/>
			<psa30 value="0.000625447266145" flag="0"/>
		</comp>
		<comp name="00.HNN" depth="0.0">
			<acc value="0.0564873716136" flag="0"/>
			<vel value="0.0168954507977" flag="0"/>
			<psa03 value="0.101494858953" flag="0"/>
			<psa10 value="0.0118037016248" flag="0"/>
			<psa30 value="0.000590323949814" flag="0"/>
		</comp>
		<comp name="00.HNZ" depth="0.0">
			<acc value="0.0154400768887" flag="0"/>
			<vel value="0.00509470198319" flag="0"/>
			<psa03 value="0.0242953464266" flag="0"/>
			<psa10 value="0.00308362958783" flag="0"/>
			<psa30 value="0.00045045405912" flag="0"/>
		</comp>
	</station>
	<station code="PESR" name="PESR" netid="IT" source="Italian Strong Motion Network (RAN)" insttype="" lat="43.8941993713" lon="12.8762998581">
		<comp name="00.HNE" depth="0.0">
			<acc value="0.169592344117" flag="0"/>
			<vel value="0.0575769068112" flag="0"/>
			<psa03 value="0.181158167506" flag="0"/>
			<psa10 value="0.0439078824316" flag="0"/>
			<psa30 value="0.00357073571038" flag="0"/>
		</comp>
		<comp name="00.HNN" depth="0.0">
			<acc value="0.213270554427" flag="0"/>
			<vel value="0.0826114211366" flag="0"/>
			<psa03 value="0.285538436353" flag="0"/>
			<psa10 value="0.0571104745386" flag="0"/>
			<psa30 value="0.00413721156996" flag="0"/>
		</comp>
		<comp name="00.HNZ" depth="0.0">
			<acc value="0.0821997308528" flag="0"/>
			<vel value="0.0179564402962" flag="0"/>
			<psa03 value="0.0819049466339" flag="0"/>
			<psa10 value="0.0179842432429" flag="0"/>
			<psa30 value="0.00126903823422" flag="0"/>
		</comp>
	</station>
	<station code="PTI" name="PTI" netid="IT" source="Italian Strong Motion Network (RAN)" insttype="" lat="43.066567" lon="13.657076">
		<comp name="00.HGE" depth="0.0">
			<acc value="0.0350942772668" flag="0"/>
			<vel value="0.0160138257242" flag="0"/>
			<psa03 value="0.121625796695" flag="0"/>
			<psa10 value="0.0172678876628" flag="0"/>
			<psa30 value="0.00130637081149" flag="0"/>
		</comp>
		<comp name="00.HGN" depth="0.0">
			<acc value="0.0320412002329" flag="0"/>
			<vel value="0.0241076633189" flag="0"/>
			<psa03 value="0.0741562406119" flag="0"/>
			<psa10 value="0.0283139875377" flag="0"/>
			<psa30 value="0.0014676020131" flag="0"/>
		</comp>
		<comp name="00.HGZ" depth="0.0">
			<acc value="0.0179002916175" flag="0"/>
			<vel value="0.0094425031847" flag="0"/>
			<psa03 value="0.051361449319" flag="0"/>
			<psa10 value="0.00854867349515" flag="0"/>
			<psa30 value="0.00171755919654" flag="0"/>
		</comp>
	</station>
	<station code="PTL" name="PTL" netid="IT" source="Italian Strong Motion Network (RAN)" insttype="" lat="43.427334" lon="12.448597">
		<comp name="00.HGE" depth="0.0">
			<acc value="0.022950290561" flag="0"/>
			<vel value="0.0141650245261" flag="0"/>
			<psa03 value="0.0476351191345" flag="0"/>
			<psa10 value="0.0134755661276" flag="0"/>
			<psa30 value="0.000805935785124" flag="0"/>
		</comp>
		<comp name="00.HGN" depth="0.0">
			<acc value="0.0239194585768" flag="0"/>
			<vel value="0.0108318977169" flag="0"/>
			<psa03 value="0.0443718977538" flag="0"/>
			<psa10 value="0.0162259992678" flag="0"/>
			<psa30 value="0.000764716700395" flag="0"/>
		</comp>
		<comp name="00.HGZ" depth="0.0">
			<acc value="0.00986736228485" flag="0"/>
			<vel value="0.00643226836953" flag="0"/>
			<psa03 value="0.0175063485118" flag="0"/>
			<psa10 value="0.00919675580242" flag="0"/>
			<psa30 value="0.000603531178894" flag="0"/>
		</comp>
	</station>
	<station code="SIG" name="SIG" netid="IT" source="Italian Strong Motion Network (RAN)" insttype="" lat="43.330799" lon="12.7408">
		<comp name="00.HNE" depth="0.0">
			<acc value="0.0252883881259" flag="0"/>
			<vel value="0.0100368445431" flag="0"/>
			<psa03 value="0.0450859815168" flag="0"/>
			<psa10 value="0.00874182816572" flag="0"/>
			<psa30 value="0.000676789834005" flag="0"/>
		</comp>
		<comp name="00.HNN" depth="0.0">
			<acc value="0.0302351437311" flag="0"/>
			<vel value="0.0126607187144" flag="0"/>
			<psa03 value="0.0704930708618" flag="0"/>
			<psa10 value="0.00896563642943" flag="0"/>
			<psa30 value="0.000957574997145" flag="0"/>
		</comp>
		<comp name="00.HNZ" depth="0.0">
			<acc value="0.0206986668202" flag="0"/>
			<vel value="0.00829786992529" flag="0"/>
			<psa03 value="0.0511518000138" flag="0"/>
			<psa10 value="0.00912693555218" flag="0"/>
			<psa30 value="0.00084555726402" flag="0"/>
		</comp>
	</station>
	<station code="SNG" name="SNG" netid="IT" source="Italian Strong Motion Network (RAN)" insttype="" lat="43.68558" lon="13.226162">
		<comp name="00.HGE" depth="0.0">
			<acc value="0.986565913688" flag="0"/>
			<vel value="0.399824408249" flag="0"/>
			<psa03 value="2.12814064554" flag="0"/>
			<psa10 value="0.427589705719" flag="0"/>
			<psa30 value="0.0190985918546" flag="0"/>
		</comp>
		<comp name="00.HGN" depth="0.0">
			<acc value="0.627540820845" flag="0"/>
			<vel value="0.382975699536" flag="0"/>
			<psa03 value="2.0425356413" flag="0"/>
			<psa10 value="0.392710415138" flag="0"/>
			<psa30 value="0.0223508639684" flag="0"/>
		</comp>
		<comp name="00.HGZ" depth="0.0">
			<acc value="0.346354292987" flag="0"/>
			<vel value="0.104760636498" flag="0"/>
			<psa03 value="0.560332452607" flag="0"/>
			<psa10 value="0.062852431165" flag="0"/>
			<psa30 value="0.00973671000925" flag="0"/>
		</comp>
	</station>
	<station code="SRL" name="SRL" netid="IT" source="Italian Strong Motion Network (RAN)" insttype="" lat="43.517905" lon="13.619388">
		<comp name="00.HGE" depth="0.0">
			<acc value="0.113522915688" flag="0"/>
			<vel value="0.0311186353176" flag="0"/>
			<psa03 value="0.111681658779" flag="0"/>
			<psa10 value="0.0315358465951" flag="0"/>
			<psa30 value="0.000958743512053" flag="0"/>
		</comp>
		<comp name="00.HGN" depth="0.0">
			<acc value="0.164656587872" flag="0"/>
			<vel value="0.0298664613064" flag="0"/>
			<psa03 value="0.165805775486" flag="0"/>
			<psa10 value="0.022573808529" flag="0"/>
			<psa30 value="0.00154952118984" flag="0"/>
		</comp>
		<comp name="00.HGZ" depth="0.0">
			<acc value="0.04978404317" flag="0"/>
			<vel value="0.012066428926" flag="0"/>
			<psa03 value="0.0639699981149" flag="0"/>
			<psa10 value="0.00777470191085" flag="0"/>
			<psa30 value="0.000543568560831" flag="0"/>
		</comp>
	</station>
	<station code="TLN" name="TLN" netid="IT" source="Italian Strong Motion Network (RAN)" insttype="" lat="43.215904" lon="13.25838">
		<comp name="00.HNE" depth="0.0">
			<acc value="0.0371149371054" flag="0"/>
			<vel value="0.0123488829787" flag="0"/>
			<psa03 value="0.0708749347001" flag="0"/>
			<psa10 value="0.017238665727" flag="0"/>
			<psa30 value="0.00140416437317" flag="0"/>
		</comp>
		<comp name="00.HNN" depth="0.0">
			<acc value="0.0241377861371" flag="0"/>
			<vel value="0.0119383062549" flag="0"/>
			<psa03 value="0.0639587682045" flag="0"/>
			<psa10 value="0.0085654408559" flag="0"/>
			<psa30 value="0.00203606050402" flag="0"/>
		</comp>
		<comp name="00.HNZ" depth="0.0">
			<acc value="0.0217908097837" flag="0"/>
			<vel value="0.00801434703195" flag="0"/>
			<psa03 value="0.0374248021261" flag="0"/>
			<psa10 value="0.00498190033896" flag="0"/>
			<psa30 value="0.000992746493749" flag="0"/>
		</comp>
	</station>
	<station code="URBN" name="URBN" netid="IT" source="Italian Strong Motion Network (RAN)" insttype="" lat="43.6708984375" lon="12.518699646">
		<comp name="00.HNE" depth="0.0">
			<acc value="0.0457071441172" flag="0"/>
			<vel value="0.0139673170265" flag="0"/>
			<psa03 value="0.0464474467071" flag="0"/>
			<psa10 value="0.0116550417768" flag="0"/>
			<psa30 value="0.000839896055659" flag="0"/>
		</comp>
		<comp name="00.HNN" depth="0.0">
			<acc value="0.0541943294416" flag="0"/>
			<vel value="0.017473241517" flag="0"/>
			<psa03 value="0.0782159366304" flag="0"/>
			<psa10 value="0.00920678959211" flag="0"/>
			<psa30 value="0.000771477877458" flag="0"/>
		</comp>
		<comp name="00.HNZ" depth="0.0">
			<acc value="0.0245414960472" flag="0"/>
			<vel value="0.0079284698821" flag="0"/>
			<psa03 value="0.0312737670461" flag="0"/>
			<psa10 value="0.00653133048109" flag="0"/>
			<psa30 value="0.000663163462574" flag="0"/>
		</comp>
	</station>
