<?xml version="1.0" encoding="UTF-8" standalone="yes"?>
<!DOCTYPE earthquake SYSTEM "stationlist.dtd">
<stationlist created="" xmlns="ch.ethz.sed.shakemap.usgs.xml">
  <station code="AOI" name="AOI" netid="IV" insttype="" lat="43.5502" lon="13.602">
    <comp name="--.HHN">
      <acc value="0.0550736036" flag="0"/>
      <vel value="0.0148187872" flag="0"/>
      <psa03 value="0.0684597662" flag="0"/>
      <psa10 value="0.0091545223" flag="0"/>
      <psa30 value="0.0006603785" flag="0"/>
    </comp>
    <comp name="--.HHE">
      <acc value="0.0611578564" flag="0"/>
      <vel value="0.0160724873" flag="0"/>
      <psa03 value="0.0957064538" flag="0"/>
      <psa10 value="0.0105760181" flag="0"/>
      <psa30 value="0.0006757113" flag="0"/>
    </comp>
    <comp name="--.HHZ">
      <acc value="0.0308746350" flag="0"/>
      <vel value="0.0077503848" flag="0"/>
      <psa03 value="0.0557324709" flag="0"/>
      <psa10 value="0.0069132361" flag="0"/>
      <psa30 value="0.0005026019" flag="0"/>
    </comp>
  </station>
  <station code="APEC" name="APEC" netid="IV" insttype="" lat="43.5585" lon="12.4199">
    <comp name="--.HHE">
      <acc value="0.0240916894" flag="0"/>
      <vel value="0.0103074101" flag="0"/>
      <psa03 value="0.0442003395" flag="0"/>
      <psa10 value="0.0080472433" flag="0"/>
      <psa30 value="0.0004793470" flag="0"/>
    </comp>
    <comp name="--.HHN">
      <acc value="0.0232906567" flag="0"/>
      <vel value="0.0100059284" flag="0"/>
      <psa03 value="0.0592007238" flag="0"/>
      <psa10 value="0.0071348365" flag="0"/>
      <psa30 value="0.0004750259" flag="0"/>
    </comp>
    <comp name="--.HHZ">
      <acc value="0.0151835414" flag="0"/>
      <vel value="0.0063513633" flag="0"/>
      <psa03 value="0.0271805932" flag="0"/>
      <psa10 value="0.0044387560" flag="0"/>
      <psa30 value="0.0003790654" flag="0"/>
    </comp>
  </station>
  <station code="ARVD" name="ARVD" netid="IV" insttype="" lat="43.4981" lon="12.9415">
    <comp name="--.HHE">
      <acc value="0.0287813617" flag="0"/>
      <vel value="0.0107271638" flag="0"/>
      <psa03 value="0.0546841331" flag="0"/>
      <psa10 value="0.0063552733" flag="0"/>
      <psa30 value="0.0010029483" flag="0"/>
    </comp>
    <comp name="--.HHN">
      <acc value="0.0202442020" flag="0"/>
      <vel value="0.0069040910" flag="0"/>
      <psa03 value="0.0374665647" flag="0"/>
      <psa10 value="0.0087764378" flag="0"/>
      <psa30 value="0.0020995299" flag="0"/>
    </comp>
    <comp name="--.HHZ">
      <acc value="0.0215521716" flag="0"/>
      <vel value="0.0071311391" flag="0"/>
      <psa03 value="0.0407654453" flag="0"/>
      <psa10 value="0.0089510055" flag="0"/>
      <psa30 value="0.0014300886" flag="0"/>
    </comp>
  </station>
  <station code="ATBU" name="ATBU" netid="IV" insttype="" lat="43.4757" lon="12.5483">
    <comp name="--.HNN">
      <acc value="0.0357009537" flag="0"/>
      <vel value="0.0251925856" flag="0"/>
      <psa03 value="0.0863824557" flag="0"/>
      <psa10 value="0.0257168474" flag="0"/>
      <psa30 value="0.0010946359" flag="0"/>
    </comp>
    <comp name="--.HNE">
      <acc value="0.0312979470" flag="0"/>
      <vel value="0.0222529410" flag="0"/>
      <psa03 value="0.0935903482" flag="0"/>
      <psa10 value="0.0232403204" flag="0"/>
      <psa30 value="0.0011850465" flag="0"/>
    </comp>
    <comp name="--.HNZ">
      <acc value="0.0168581325" flag="0"/>
      <vel value="0.0086905840" flag="0"/>
      <psa03 value="0.0309798443" flag="0"/>
      <psa10 value="0.0106660524" flag="0"/>
      <psa30 value="0.0008286861" flag="0"/>
    </comp>
  </station>
  <station code="ATCC" name="ATCC" netid="IV" insttype="" lat="43.1851" lon="12.6399">
    <comp name="--.HNN">
      <acc value="0.0397243587" flag="0"/>
      <vel value="0.0153956109" flag="0"/>
      <psa03 value="0.0788808906" flag="0"/>
      <psa10 value="0.0134473192" flag="0"/>
      <psa30 value="0.0009086569" flag="0"/>
    </comp>
    <comp name="--.HNE">
      <acc value="0.0290560101" flag="0"/>
      <vel value="0.0131417786" flag="0"/>
      <psa03 value="0.0605772327" flag="0"/>
      <psa10 value="0.0184377042" flag="0"/>
      <psa30 value="0.0020443234" flag="0"/>
    </comp>
    <comp name="--.HNZ">
      <acc value="0.0184016481" flag="0"/>
      <vel value="0.0055047612" flag="0"/>
      <psa03 value="0.0473401351" flag="0"/>
      <psa10 value="0.0069622283" flag="0"/>
      <psa30 value="0.0008683401" flag="0"/>
    </comp>
  </station>
  <station code="ATFO" name="ATFO" netid="IV" insttype="" lat="43.3666" lon="12.5715">
    <comp name="--.HHE">
      <acc value="0.0290062365" flag="0"/>
      <vel value="0.0137172717" flag="0"/>
      <psa03 value="0.0729163083" flag="0"/>
      <psa10 value="0.0166358964" flag="0"/>
      <psa30 value="0.0010294080" flag="0"/>
    </comp>
    <comp name="--.HHZ">
      <acc value="0.0119768504" flag="0"/>
      <vel value="0.0053350504" flag="0"/>
      <psa03 value="0.0173062925" flag="0"/>
      <psa10 value="0.0102070764" flag="0"/>
      <psa30 value="0.0006709530" flag="0"/>
    </comp>
    <comp name="--.HHN">
      <acc value="0.0234787905" flag="0"/>
      <vel value="0.0123932932" flag="0"/>
      <psa03 value="0.0724856910" flag="0"/>
      <psa10 value="0.0116738536" flag="0"/>
      <psa30 value="0.0007982702" flag="0"/>
    </comp>
  </station>
  <station code="ATMI" name="ATMI" netid="IV" insttype="" lat="43.3342" lon="12.268">
    <comp name="--.HHE">
      <acc value="0.0169111394" flag="0"/>
      <vel value="0.0097450296" flag="0"/>
      <psa03 value="0.0453902314" flag="0"/>
      <psa10 value="0.0105415013" flag="0"/>
      <psa30 value="0.0005972181" flag="0"/>
    </comp>
    <comp name="--.HHN">
      <acc value="0.0135507482" flag="0"/>
      <vel value="0.0099651729" flag="0"/>
      <psa03 value="0.0407260787" flag="0"/>
      <psa10 value="0.0082354767" flag="0"/>
      <psa30 value="0.0008653974" flag="0"/>
    </comp>
    <comp name="--.HHZ">
      <acc value="0.0094576783" flag="0"/>
      <vel value="0.0055746521" flag="0"/>
      <psa03 value="0.0199628439" flag="0"/>
      <psa10 value="0.0049634421" flag="0"/>
      <psa30 value="0.0003267224" flag="0"/>
    </comp>
  </station>
  <station code="ATPC" name="ATPC" netid="IV" insttype="" lat="43.4807" lon="12.457">
    <comp name="--.HHE">
      <acc value="0.0282688549" flag="0"/>
      <vel value="0.0157428309" flag="0"/>
      <psa03 value="0.0495857890" flag="0"/>
      <psa10 value="0.0233827366" flag="0"/>
      <psa30 value="0.0008316522" flag="0"/>
    </comp>
    <comp name="--.HHZ">
      <acc value="0.0117440353" flag="0"/>
      <vel value="0.0061986555" flag="0"/>
      <psa03 value="0.0191862428" flag="0"/>
      <psa10 value="0.0102397908" flag="0"/>
      <psa30 value="0.0005710099" flag="0"/>
    </comp>
    <comp name="--.HHN">
      <acc value="0.0200097162" flag="0"/>
      <vel value="0.0086350108" flag="0"/>
      <psa03 value="0.0380089672" flag="0"/>
      <psa10 value="0.0097249519" flag="0"/>
      <psa30 value="0.0007332271" flag="0"/>
    </comp>
  </station>
  <station code="ATVO" name="ATVO" netid="IV" insttype="" lat="43.3821" lon="12.4066">
    <comp name="--.HHN">
      <acc value="0.0087224719" flag="0"/>
      <vel value="0.0057225352" flag="0"/>
      <psa03 value="0.0322385416" flag="0"/>
      <psa10 value="0.0081930559" flag="0"/>
      <psa30 value="0.0004444503" flag="0"/>
    </comp>
    <comp name="--.HHZ">
      <acc value="0.0056533696" flag="0"/>
      <vel value="0.0035455977" flag="0"/>
      <psa03 value="0.0118719174" flag="0"/>
      <psa10 value="0.0052359753" flag="0"/>
      <psa30 value="0.0004961223" flag="0"/>
    </comp>
    <comp name="--.HHE">
      <acc value="0.0132564443" flag="0"/>
      <vel value="0.0057544989" flag="0"/>
      <psa03 value="0.0273600448" flag="0"/>
      <psa10 value="0.0076981443" flag="0"/>
      <psa30 value="0.0006550418" flag="0"/>
    </comp>
  </station>
  <station code="CAFI" name="CAFI" netid="IV" insttype="" lat="43.3292" lon="11.9663">
    <comp name="--.HHE">
      <acc value="0.0048780958" flag="0"/>
      <vel value="0.0048785851" flag="0"/>
      <psa03 value="0.0087149825" flag="0"/>
      <psa10 value="0.0083469503" flag="0"/>
      <psa30 value="0.0009181660" flag="0"/>
    </comp>
    <comp name="--.HHN">
      <acc value="0.0044818294" flag="0"/>
      <vel value="0.0039425421" flag="0"/>
      <psa03 value="0.0124033934" flag="0"/>
      <psa10 value="0.0059459578" flag="0"/>
      <psa30 value="0.0006581684" flag="0"/>
    </comp>
    <comp name="--.HHZ">
      <acc value="0.0051676825" flag="0"/>
      <vel value="0.0031990145" flag="0"/>
      <psa03 value="0.0081579405" flag="0"/>
      <psa10 value="0.0048467523" flag="0"/>
      <psa30 value="0.0006026793" flag="0"/>
    </comp>
  </station>
  <station code="CESI" name="CESI" netid="IV" insttype="" lat="43.0049" lon="12.9046">
    <comp name="--.HHE">
      <acc value="0.0245051081" flag="0"/>
      <vel value="0.0096366324" flag="0"/>
      <psa03 value="0.0703608273" flag="0"/>
      <psa10 value="0.0084638036" flag="0"/>
      <psa30 value="0.0007331134" flag="0"/>
    </comp>
    <comp name="--.HHN">
      <acc value="0.0392285982" flag="0"/>
      <vel value="0.0166092562" flag="0"/>
      <psa03 value="0.1188083444" flag="0"/>
      <psa10 value="0.0072298802" flag="0"/>
      <psa30 value="0.0006333130" flag="0"/>
    </comp>
    <comp name="--.HHZ">
      <acc value="0.0220707363" flag="0"/>
      <vel value="0.0079532197" flag="0"/>
      <psa03 value="0.0639648250" flag="0"/>
      <psa10 value="0.0060708103" flag="0"/>
      <psa30 value="0.0006807130" flag="0"/>
    </comp>
  </station>
  <station code="CING" name="CING" netid="IV" insttype="" lat="43.3756" lon="13.1954">
    <comp name="--.HHE">
      <acc value="0.0283227037" flag="0"/>
      <vel value="0.0062787488" flag="0"/>
      <psa03 value="0.0367245229" flag="0"/>
      <psa10 value="0.0045903097" flag="0"/>
      <psa30 value="0.0011749408" flag="0"/>
    </comp>
    <comp name="--.HHN">
      <acc value="0.0311698827" flag="0"/>
      <vel value="0.0085319937" flag="0"/>
      <psa03 value="0.0559464890" flag="0"/>
      <psa10 value="0.0067957934" flag="0"/>
      <psa30 value="0.0008444406" flag="0"/>
    </comp>
    <comp name="--.HHZ">
      <acc value="0.0194326614" flag="0"/>
      <vel value="0.0072679776" flag="0"/>
      <psa03 value="0.0469063445" flag="0"/>
      <psa10 value="0.0050717550" flag="0"/>
      <psa30 value="0.0005822922" flag="0"/>
    </comp>
  </station>
  <station code="CRE" name="CRE" netid="IV" insttype="" lat="43.6189" lon="11.9517">
    <comp name="--.HHE">
      <acc value="0.0050020669" flag="0"/>
      <vel value="0.0057483680" flag="0"/>
      <psa03 value="0.0089664664" flag="0"/>
      <psa10 value="0.0057642780" flag="0"/>
      <psa30 value="0.0005604214" flag="0"/>
    </comp>
    <comp name="--.HHZ">
      <acc value="0.0058775965" flag="0"/>
      <vel value="0.0030395498" flag="0"/>
      <psa03 value="0.0076778238" flag="0"/>
      <psa10 value="0.0037825643" flag="0"/>
      <psa30 value="0.0002752224" flag="0"/>
    </comp>
    <comp name="--.HHN">
      <acc value="0.0056027640" flag="0"/>
      <vel value="0.0047271229" flag="0"/>
      <psa03 value="0.0089185234" flag="0"/>
      <psa10 value="0.0054519574" flag="0"/>
      <psa30 value="0.0006389102" flag="0"/>
    </comp>
  </station>
  <station code="CRTC" name="CRTC" netid="IV" insttype="" lat="43.7685" lon="12.883">
    <comp name="--.HHE">
      <acc value="0.0635012474" flag="0"/>
      <vel value="0.0320315322" flag="0"/>
      <psa03 value="0.1219613649" flag="0"/>
      <psa10 value="0.0370322833" flag="0"/>
      <psa30 value="0.0026132033" flag="0"/>
    </comp>
    <comp name="--.HHN">
      <acc value="0.0592274721" flag="0"/>
      <vel value="0.0379380342" flag="0"/>
      <psa03 value="0.1217345645" flag="0"/>
      <psa10 value="0.0533497086" flag="0"/>
      <psa30 value="0.0031214564" flag="0"/>
    </comp>
    <comp name="--.HHZ">
      <acc value="0.0681594116" flag="0"/>
      <vel value="0.0225116537" flag="0"/>
      <psa03 value="0.0994767882" flag="0"/>
      <psa10 value="0.0372413802" flag="0"/>
      <psa30 value="0.0023397666" flag="0"/>
    </comp>
  </station>
  <station code="FANO" name="FANO" netid="IV" insttype="" lat="43.8435" lon="13.0184">
    <comp name="--.HNE">
      <acc value="0.1983341254" flag="0"/>
      <vel value="0.0769423451" flag="0"/>
      <psa03 value="0.2194680737" flag="0"/>
      <psa10 value="0.1425511213" flag="0"/>
      <psa30 value="0.0113456356" flag="0"/>
    </comp>
    <comp name="--.HNN">
      <acc value="0.1805437377" flag="0"/>
      <vel value="0.0760195156" flag="0"/>
      <psa03 value="0.3878526145" flag="0"/>
      <psa10 value="0.1077276936" flag="0"/>
      <psa30 value="0.0073326913" flag="0"/>
    </comp>
    <comp name="--.HNZ">
      <acc value="0.1519635534" flag="0"/>
      <vel value="0.0337867929" flag="0"/>
      <psa03 value="0.2021313089" flag="0"/>
      <psa10 value="0.0436329585" flag="0"/>
      <psa30 value="0.0042815150" flag="0"/>
    </comp>
  </station>
  <station code="FDMO" name="FDMO" netid="IV" insttype="" lat="43.0365" lon="13.0873">
    <comp name="--.HHE">
      <acc value="0.0248853526" flag="0"/>
      <vel value="0.0111644447" flag="0"/>
      <psa03 value="0.0650660078" flag="0"/>
      <psa10 value="0.0050693043" flag="0"/>
      <psa30 value="0.0004034368" flag="0"/>
    </comp>
    <comp name="--.HHN">
      <acc value="0.0126978949" flag="0"/>
      <vel value="0.0041824099" flag="0"/>
      <psa03 value="0.0360866708" flag="0"/>
      <psa10 value="0.0040324177" flag="0"/>
      <psa30 value="0.0003527389" flag="0"/>
    </comp>
    <comp name="--.HHZ">
      <acc value="0.0104058874" flag="0"/>
      <vel value="0.0054717297" flag="0"/>
      <psa03 value="0.0260259236" flag="0"/>
      <psa10 value="0.0042619993" flag="0"/>
      <psa30 value="0.0003244753" flag="0"/>
    </comp>
  </station>
  <station code="FEMA" name="FEMA" netid="IV" insttype="" lat="42.9621" lon="13.0498">
    <comp name="--.HNE">
      <acc value="0.0311909807" flag="0"/>
      <vel value="0.0139678675" flag="0"/>
      <psa03 value="0.0698654458" flag="0"/>
      <psa10 value="0.0147964331" flag="0"/>
      <psa30 value="0.0007729825" flag="0"/>
    </comp>
    <comp name="--.HNN">
      <acc value="0.0352131405" flag="0"/>
      <vel value="0.0176801024" flag="0"/>
      <psa03 value="0.0780133545" flag="0"/>
      <psa10 value="0.0118558155" flag="0"/>
      <psa30 value="0.0012383196" flag="0"/>
    </comp>
    <comp name="--.HNZ">
      <acc value="0.0160905559" flag="0"/>
      <vel value="0.0070039159" flag="0"/>
      <psa03 value="0.0217545969" flag="0"/>
      <psa10 value="0.0120911609" flag="0"/>
      <psa30 value="0.0006474715" flag="0"/>
    </comp>
  </station>
  <station code="FOSV" name="FOSV" netid="IV" insttype="" lat="43.2948" lon="12.7612">
    <comp name="--.HNE">
      <acc value="0.0177414686" flag="0"/>
      <vel value="0.0080819122" flag="0"/>
      <psa03 value="0.0516239539" flag="0"/>
      <psa10 value="0.0107892368" flag="0"/>
      <psa30 value="0.0006728829" flag="0"/>
    </comp>
    <comp name="--.HNN">
      <acc value="0.0252706637" flag="0"/>
      <vel value="0.0118672514" flag="0"/>
      <psa03 value="0.0478958219" flag="0"/>
      <psa10 value="0.0067754270" flag="0"/>
      <psa30 value="0.0004736854" flag="0"/>
    </comp>
    <comp name="--.HNZ">
      <acc value="0.0144950156" flag="0"/>
      <vel value="0.0057997913" flag="0"/>
      <psa03 value="0.0383447197" flag="0"/>
      <psa10 value="0.0060995056" flag="0"/>
      <psa30 value="0.0003939999" flag="0"/>
    </comp>
  </station>
  <station code="GUMA" name="GUMA" netid="IV" insttype="" lat="43.0627" lon="13.3352">
    <comp name="--.HHE">
      <acc value="0.0503972522" flag="0"/>
      <vel value="0.0293108180" flag="0"/>
      <psa03 value="0.1522706414" flag="0"/>
      <psa10 value="0.0165607224" flag="0"/>
      <psa30 value="0.0016856477" flag="0"/>
    </comp>
    <comp name="--.HHN">
      <acc value="0.0356942633" flag="0"/>
      <vel value="0.0182302041" flag="0"/>
      <psa03 value="0.1222336475" flag="0"/>
      <psa10 value="0.0195422128" flag="0"/>
      <psa30 value="0.0009228310" flag="0"/>
    </comp>
    <comp name="--.HHZ">
      <acc value="0.0239217514" flag="0"/>
      <vel value="0.0129466526" flag="0"/>
      <psa03 value="0.0930387554" flag="0"/>
      <psa10 value="0.0072079797" flag="0"/>
      <psa30 value="0.0007959849" flag="0"/>
    </comp>
  </station>
  <station code="MML1" name="MML1" netid="IV" insttype="" lat="43.1135" lon="12.9717">
    <comp name="--.HNE">
      <acc value="0.0352514372" flag="0"/>
      <vel value="0.0150664128" flag="0"/>
      <psa03 value="0.0767758866" flag="0"/>
      <psa10 value="0.0063297747" flag="0"/>
      <psa30 value="0.0006489336" flag="0"/>
    </comp>
    <comp name="--.HNN">
      <acc value="0.0199099879" flag="0"/>
      <vel value="0.0085320495" flag="0"/>
      <psa03 value="0.0509656645" flag="0"/>
      <psa10 value="0.0041461770" flag="0"/>
      <psa30 value="0.0011229590" flag="0"/>
    </comp>
    <comp name="--.HNZ">
      <acc value="0.0190303512" flag="0"/>
      <vel value="0.0065771863" flag="0"/>
      <psa03 value="0.0317398017" flag="0"/>
      <psa10 value="0.0042041852" flag="0"/>
      <psa30 value="0.0007257288" flag="0"/>
    </comp>
  </station>
  <station code="MMUR" name="MMUR" netid="IV" insttype="" lat="43.4418" lon="12.9973">
    <comp name="--.HNN">
      <acc value="0.0544518680" flag="0"/>
      <vel value="0.0186200217" flag="0"/>
      <psa03 value="0.1073761552" flag="0"/>
      <psa10 value="0.0142169995" flag="0"/>
      <psa30 value="0.0027274672" flag="0"/>
    </comp>
    <comp name="--.HNE">
      <acc value="0.0672882087" flag="0"/>
      <vel value="0.0288352674" flag="0"/>
      <psa03 value="0.2578367473" flag="0"/>
      <psa10 value="0.0114459987" flag="0"/>
      <psa30 value="0.0014836844" flag="0"/>
    </comp>
    <comp name="--.HNZ">
      <acc value="0.0343154800" flag="0"/>
      <vel value="0.0134870477" flag="0"/>
      <psa03 value="0.0843434865" flag="0"/>
      <psa10 value="0.0083863392" flag="0"/>
      <psa30 value="0.0021115896" flag="0"/>
    </comp>
  </station>
  <station code="MNTP" name="MNTP" netid="IV" insttype="" lat="43.1374" lon="13.4693">
    <comp name="--.HNE">
      <acc value="0.0546366660" flag="0"/>
      <vel value="0.0212149201" flag="0"/>
      <psa03 value="0.1187295044" flag="0"/>
      <psa10 value="0.0122660048" flag="0"/>
      <psa30 value="0.0015847458" flag="0"/>
    </comp>
    <comp name="--.HNN">
      <acc value="0.0580700412" flag="0"/>
      <vel value="0.0169627115" flag="0"/>
      <psa03 value="0.1004487656" flag="0"/>
      <psa10 value="0.0150843025" flag="0"/>
      <psa30 value="0.0010939223" flag="0"/>
    </comp>
    <comp name="--.HNZ">
      <acc value="0.0362927463" flag="0"/>
      <vel value="0.0088197504" flag="0"/>
      <psa03 value="0.0409250160" flag="0"/>
      <psa10 value="0.0062769751" flag="0"/>
      <psa30 value="0.0008076953" flag="0"/>
    </comp>
  </station>
  <station code="MTL1" name="MTL1" netid="IV" insttype="" lat="43.2567" lon="13.0096">
    <comp name="--.HNE">
      <acc value="0.0292756461" flag="0"/>
      <vel value="0.0171135112" flag="0"/>
      <psa03 value="0.0636242035" flag="0"/>
      <psa10 value="0.0125463760" flag="0"/>
      <psa30 value="0.0027300219" flag="0"/>
    </comp>
    <comp name="--.HNN">
      <acc value="0.0309874332" flag="0"/>
      <vel value="0.0172835708" flag="0"/>
      <psa03 value="0.0592812956" flag="0"/>
      <psa10 value="0.0164621239" flag="0"/>
      <psa30 value="0.0028215265" flag="0"/>
    </comp>
