<?xml version="1.0" encoding="UTF-8" standalone="yes"?>
<!DOCTYPE earthquake SYSTEM "stationlist.dtd">
<stationlist created="" xmlns="ch.ethz.sed.shakemap.usgs.xml">
  <station code="AOI" name="AOI" netid="IV" insttype="" lat="43.5502" lon="13.602">
    <comp name="--.HHE">
      <acc value="0.0611578563" flag="0"/>
      <vel value="0.0160724857" flag="0"/>
      <psa03 value="0.0957064538" flag="0"/>
      <psa10 value="0.0105760182" flag="0"/>
      <psa30 value="0.0006755647" flag="0"/>
    </comp>
    <comp name="--.HHN">
      <acc value="0.0550736036" flag="0"/>
      <vel value="0.0148187928" flag="0"/>
      <psa03 value="0.0684597662" flag="0"/>
      <psa10 value="0.0091545220" flag="0"/>
      <psa30 value="0.0006602021" flag="0"/>
    </comp>
    <comp name="--.HHZ">
      <acc value="0.0308746351" flag="0"/>
      <vel value="0.0077503833" flag="0"/>
      <psa03 value="0.0557324709" flag="0"/>
      <psa10 value="0.0069132359" flag="0"/>
      <psa30 value="0.0005027953" flag="0"/>
    </comp>
  </station>
  <station code="APEC" name="APEC" netid="IV" insttype="" lat="43.5585" lon="12.4199">
    <comp name="--.HHE">
      <acc value="0.0240916899" flag="0"/>
      <vel value="0.0103074115" flag="0"/>
      <psa03 value="0.0442003395" flag="0"/>
      <psa10 value="0.0080472433" flag="0"/>
      <psa30 value="0.0004793336" flag="0"/>
    </comp>
    <comp name="--.HHN">
      <acc value="0.0232906567" flag="0"/>
      <vel value="0.0100059291" flag="0"/>
      <psa03 value="0.0592007238" flag="0"/>
      <psa10 value="0.0071348365" flag="0"/>
      <psa30 value="0.0004749682" flag="0"/>
    </comp>
    <comp name="--.HHZ">
      <acc value="0.0151835415" flag="0"/>
      <vel value="0.0063513613" flag="0"/>
      <psa03 value="0.0271805931" flag="0"/>
      <psa10 value="0.0044387560" flag="0"/>
      <psa30 value="0.0003790625" flag="0"/>
    </comp>
  </station>
  <station code="ARVD" name="ARVD" netid="IV" insttype="" lat="43.4981" lon="12.9415">
    <comp name="--.HHE">
      <acc value="0.0287813616" flag="0"/>
      <vel value="0.0107271648" flag="0"/>
      <psa03 value="0.0546841332" flag="0"/>
      <psa10 value="0.0063552735" flag="0"/>
      <psa30 value="0.0010030500" flag="0"/>
    </comp>
    <comp name="--.HHZ">
      <acc value="0.0215521716" flag="0"/>
      <vel value="0.0071311385" flag="0"/>
      <psa03 value="0.0407654453" flag="0"/>
      <psa10 value="0.0089510048" flag="0"/>
      <psa30 value="0.0014300831" flag="0"/>
    </comp>
    <comp name="--.HHN">
      <acc value="0.0202442018" flag="0"/>
      <vel value="0.0069040903" flag="0"/>
      <psa03 value="0.0374665647" flag="0"/>
      <psa10 value="0.0087764378" flag="0"/>
      <psa30 value="0.0020995263" flag="0"/>
    </comp>
  </station>
  <station code="ATBU" name="ATBU" netid="IV" insttype="" lat="43.4757" lon="12.5483">
    <comp name="--.HNE">
      <acc value="0.0312979457" flag="0"/>
      <vel value="0.0222529412" flag="0"/>
      <psa03 value="0.0935903482" flag="0"/>
      <psa10 value="0.0232403209" flag="0"/>
      <psa30 value="0.0011850015" flag="0"/>
    </comp>
    <comp name="--.HNZ">
      <acc value="0.0168581329" flag="0"/>
      <vel value="0.0086905833" flag="0"/>
      <psa03 value="0.0309798443" flag="0"/>
      <psa10 value="0.0106660524" flag="0"/>
      <psa30 value="0.0008286696" flag="0"/>
    </comp>
    <comp name="--.HNN">
      <acc value="0.0357009537" flag="0"/>
      <vel value="0.0251925843" flag="0"/>
      <psa03 value="0.0863824557" flag="0"/>
      <psa10 value="0.0257168472" flag="0"/>
      <psa30 value="0.0010947148" flag="0"/>
    </comp>
  </station>
  <station code="ATCC" name="ATCC" netid="IV" insttype="" lat="43.1851" lon="12.6399">
    <comp name="--.HNE">
      <acc value="0.0290560064" flag="0"/>
      <vel value="0.0131417416" flag="0"/>
      <psa03 value="0.0605772327" flag="0"/>
      <psa10 value="0.0184377045" flag="0"/>
      <psa30 value="0.0020448566" flag="0"/>
    </comp>
    <comp name="--.HNN">
      <acc value="0.0397243601" flag="0"/>
      <vel value="0.0153956033" flag="0"/>
      <psa03 value="0.0788808906" flag="0"/>
      <psa10 value="0.0134473191" flag="0"/>
      <psa30 value="0.0009086538" flag="0"/>
    </comp>
    <comp name="--.HNZ">
      <acc value="0.0184016488" flag="0"/>
      <vel value="0.0055047622" flag="0"/>
      <psa03 value="0.0473401351" flag="0"/>
      <psa10 value="0.0069622284" flag="0"/>
      <psa30 value="0.0008682925" flag="0"/>
    </comp>
  </station>
  <station code="ATFO" name="ATFO" netid="IV" insttype="" lat="43.3666" lon="12.5715">
    <comp name="--.HHE">
      <acc value="0.0290062365" flag="0"/>
      <vel value="0.0137172695" flag="0"/>
      <psa03 value="0.0729163083" flag="0"/>
      <psa10 value="0.0166358964" flag="0"/>
      <psa30 value="0.0010293758" flag="0"/>
    </comp>
    <comp name="--.HHN">
      <acc value="0.0234787905" flag="0"/>
      <vel value="0.0123932924" flag="0"/>
      <psa03 value="0.0724856910" flag="0"/>
      <psa10 value="0.0116738535" flag="0"/>
      <psa30 value="0.0007982690" flag="0"/>
    </comp>
    <comp name="--.HHZ">
      <acc value="0.0119768506" flag="0"/>
      <vel value="0.0053350485" flag="0"/>
      <psa03 value="0.0173062925" flag="0"/>
      <psa10 value="0.0102070764" flag="0"/>
      <psa30 value="0.0006709519" flag="0"/>
    </comp>
  </station>
  <station code="ATMI" name="ATMI" netid="IV" insttype="" lat="43.3342" lon="12.268">
    <comp name="--.HHE">
      <acc value="0.0169111395" flag="0"/>
      <vel value="0.0097450292" flag="0"/>
      <psa03 value="0.0453902314" flag="0"/>
      <psa10 value="0.0105415013" flag="0"/>
      <psa30 value="0.0005972126" flag="0"/>
    </comp>
    <comp name="--.HHZ">
      <acc value="0.0094576782" flag="0"/>
      <vel value="0.0055746538" flag="0"/>
      <psa03 value="0.0199628439" flag="0"/>
      <psa10 value="0.0049634421" flag="0"/>
      <psa30 value="0.0003267823" flag="0"/>
    </comp>
    <comp name="--.HHN">
      <acc value="0.0135507481" flag="0"/>
      <vel value="0.0099651737" flag="0"/>
      <psa03 value="0.0407260787" flag="0"/>
      <psa10 value="0.0082354767" flag="0"/>
      <psa30 value="0.0008653989" flag="0"/>
    </comp>
  </station>
  <station code="ATPC" name="ATPC" netid="IV" insttype="" lat="43.4807" lon="12.457">
    <comp name="--.HHE">
      <acc value="0.0282688549" flag="0"/>
      <vel value="0.0157428300" flag="0"/>
      <psa03 value="0.0495857890" flag="0"/>
      <psa10 value="0.0233827365" flag="0"/>
      <psa30 value="0.0008315306" flag="0"/>
    </comp>
    <comp name="--.HHN">
      <acc value="0.0200097159" flag="0"/>
      <vel value="0.0086350121" flag="0"/>
      <psa03 value="0.0380089672" flag="0"/>
      <psa10 value="0.0097249518" flag="0"/>
      <psa30 value="0.0007332268" flag="0"/>
    </comp>
    <comp name="--.HHZ">
      <acc value="0.0117440357" flag="0"/>
      <vel value="0.0061986550" flag="0"/>
      <psa03 value="0.0191862428" flag="0"/>
      <psa10 value="0.0102397909" flag="0"/>
      <psa30 value="0.0005710055" flag="0"/>
    </comp>
  </station>
  <station code="ATPI" name="ATPI" netid="IV" insttype="" lat="43.4507" lon="12.4022">
    <comp name="--.HNE">
      <acc value="0.0125198674" flag="0"/>
      <vel value="0.0065722113" flag="0"/>
      <psa03 value="0.0334861695" flag="0"/>
      <psa10 value="0.0098683165" flag="0"/>
      <psa30 value="0.0005093215" flag="0"/>
    </comp>
    <comp name="--.HNN">
      <acc value="0.0106149310" flag="0"/>
      <vel value="0.0063354761" flag="0"/>
      <psa03 value="0.0306432759" flag="0"/>
      <psa10 value="0.0095712720" flag="0"/>
      <psa30 value="0.0004873279" flag="0"/>
    </comp>
    <comp name="--.HNZ">
      <acc value="0.0115350567" flag="0"/>
      <vel value="0.0047731867" flag="0"/>
      <psa03 value="0.0174671728" flag="0"/>
      <psa10 value="0.0090625168" flag="0"/>
      <psa30 value="0.0005649013" flag="0"/>
    </comp>
  </station>
  <station code="ATVO" name="ATVO" netid="IV" insttype="" lat="43.3821" lon="12.4066">
    <comp name="--.HHE">
      <acc value="0.0132564442" flag="0"/>
      <vel value="0.0057544987" flag="0"/>
      <psa03 value="0.0273600448" flag="0"/>
      <psa10 value="0.0076981443" flag="0"/>
      <psa30 value="0.0006550385" flag="0"/>
    </comp>
    <comp name="--.HHN">
      <acc value="0.0087224719" flag="0"/>
      <vel value="0.0057225351" flag="0"/>
      <psa03 value="0.0322385416" flag="0"/>
      <psa10 value="0.0081930559" flag="0"/>
      <psa30 value="0.0004444477" flag="0"/>
    </comp>
    <comp name="--.HHZ">
      <acc value="0.0056533695" flag="0"/>
      <vel value="0.0035455999" flag="0"/>
      <psa03 value="0.0118719174" flag="0"/>
      <psa10 value="0.0052359753" flag="0"/>
      <psa30 value="0.0004961524" flag="0"/>
    </comp>
  </station>
  <station code="CESI" name="CESI" netid="IV" insttype="" lat="43.0049" lon="12.9046">
    <comp name="--.HHE">
      <acc value="0.0245051080" flag="0"/>
      <vel value="0.0096366324" flag="0"/>
      <psa03 value="0.0703608273" flag="0"/>
      <psa10 value="0.0084638036" flag="0"/>
      <psa30 value="0.0007331173" flag="0"/>
    </comp>
    <comp name="--.HHN">
      <acc value="0.0392285982" flag="0"/>
      <vel value="0.0166092559" flag="0"/>
      <psa03 value="0.1188083444" flag="0"/>
      <psa10 value="0.0072298802" flag="0"/>
      <psa30 value="0.0006333125" flag="0"/>
    </comp>
    <comp name="--.HHZ">
      <acc value="0.0220707360" flag="0"/>
      <vel value="0.0079532193" flag="0"/>
      <psa03 value="0.0639648250" flag="0"/>
      <psa10 value="0.0060708103" flag="0"/>
      <psa30 value="0.0006807098" flag="0"/>
    </comp>
  </station>
  <station code="CING" name="CING" netid="IV" insttype="" lat="43.3756" lon="13.1954">
    <comp name="--.HHE">
      <acc value="0.0283227037" flag="0"/>
      <vel value="0.0062787488" flag="0"/>
      <psa03 value="0.0367245229" flag="0"/>
      <psa10 value="0.0045903097" flag="0"/>
      <psa30 value="0.0011749574" flag="0"/>
    </comp>
    <comp name="--.HHN">
      <acc value="0.0311698828" flag="0"/>
      <vel value="0.0085319935" flag="0"/>
      <psa03 value="0.0559464890" flag="0"/>
      <psa10 value="0.0067957934" flag="0"/>
      <psa30 value="0.0008286888" flag="0"/>
    </comp>
    <comp name="--.HHZ">
      <acc value="0.0194326616" flag="0"/>
      <vel value="0.0072679783" flag="0"/>
      <psa03 value="0.0469063445" flag="0"/>
      <psa10 value="0.0050717550" flag="0"/>
      <psa30 value="0.0005823300" flag="0"/>
    </comp>
  </station>
  <station code="CRE" name="CRE" netid="IV" insttype="" lat="43.6189" lon="11.9517">
    <comp name="--.HHN">
      <acc value="0.0056027642" flag="0"/>
      <vel value="0.0047271222" flag="0"/>
      <psa03 value="0.0089185234" flag="0"/>
      <psa10 value="0.0054519574" flag="0"/>
      <psa30 value="0.0006389221" flag="0"/>
    </comp>
    <comp name="--.HHE">
      <acc value="0.0050020669" flag="0"/>
      <vel value="0.0057483677" flag="0"/>
      <psa03 value="0.0089664664" flag="0"/>
      <psa10 value="0.0057642780" flag="0"/>
      <psa30 value="0.0005604336" flag="0"/>
    </comp>
    <comp name="--.HHZ">
      <acc value="0.0058775966" flag="0"/>
      <vel value="0.0030395496" flag="0"/>
      <psa03 value="0.0076778238" flag="0"/>
      <psa10 value="0.0037825643" flag="0"/>
      <psa30 value="0.0002751733" flag="0"/>
    </comp>
  </station>
  <station code="CRTC" name="CRTC" netid="IV" insttype="" lat="43.7685" lon="12.883">
    <comp name="--.HHZ">
      <acc value="0.0681594116" flag="0"/>
      <vel value="0.0225116533" flag="0"/>
      <psa03 value="0.0994767882" flag="0"/>
      <psa10 value="0.0372413802" flag="0"/>
      <psa30 value="0.0023397634" flag="0"/>
    </comp>
    <comp name="--.HHN">
      <acc value="0.0592274721" flag="0"/>
      <vel value="0.0379380353" flag="0"/>
      <psa03 value="0.1217345645" flag="0"/>
      <psa10 value="0.0533497086" flag="0"/>
      <psa30 value="0.0031213597" flag="0"/>
    </comp>
    <comp name="--.HHE">
      <acc value="0.0635012474" flag="0"/>
      <vel value="0.0320315313" flag="0"/>
      <psa03 value="0.1219613649" flag="0"/>
      <psa10 value="0.0370322837" flag="0"/>
      <psa30 value="0.0026132033" flag="0"/>
    </comp>
  </station>
  <station code="FANO" name="FANO" netid="IV" insttype="" lat="43.8435" lon="13.0184">
    <comp name="--.HNE">
      <acc value="0.1983341296" flag="0"/>
      <vel value="0.0769423700" flag="0"/>
      <psa03 value="0.2194680737" flag="0"/>
      <psa10 value="0.1425510776" flag="0"/>
      <psa30 value="0.0113470233" flag="0"/>
    </comp>
    <comp name="--.HNN">
      <acc value="0.1805437362" flag="0"/>
      <vel value="0.0760195195" flag="0"/>
      <psa03 value="0.3878526145" flag="0"/>
      <psa10 value="0.1077276129" flag="0"/>
      <psa30 value="0.0073231614" flag="0"/>
    </comp>
    <comp name="--.HNZ">
      <acc value="0.1519635534" flag="0"/>
      <vel value="0.0337868724" flag="0"/>
      <psa03 value="0.2021313088" flag="0"/>
      <psa10 value="0.0436329580" flag="0"/>
      <psa30 value="0.0042895253" flag="0"/>
    </comp>
  </station>
  <station code="FDMO" name="FDMO" netid="IV" insttype="" lat="43.0365" lon="13.0873">
    <comp name="--.HHE">
      <acc value="0.0248853527" flag="0"/>
      <vel value="0.0111644448" flag="0"/>
      <psa03 value="0.0650660078" flag="0"/>
      <psa10 value="0.0050693043" flag="0"/>
      <psa30 value="0.0004034722" flag="0"/>
    </comp>
    <comp name="--.HHN">
      <acc value="0.0126978949" flag="0"/>
      <vel value="0.0041824102" flag="0"/>
      <psa03 value="0.0360866708" flag="0"/>
      <psa10 value="0.0040324177" flag="0"/>
      <psa30 value="0.0003527539" flag="0"/>
    </comp>
    <comp name="--.HHZ">
      <acc value="0.0104058877" flag="0"/>
      <vel value="0.0054717295" flag="0"/>
      <psa03 value="0.0260259236" flag="0"/>
      <psa10 value="0.0042619993" flag="0"/>
      <psa30 value="0.0003244630" flag="0"/>
    </comp>
  </station>
  <station code="FEMA" name="FEMA" netid="IV" insttype="" lat="42.9621" lon="13.0498">
    <comp name="--.HNE">
      <acc value="0.0311909830" flag="0"/>
      <vel value="0.0139678671" flag="0"/>
      <psa03 value="0.0698654458" flag="0"/>
      <psa10 value="0.0147964331" flag="0"/>
      <psa30 value="0.0007735146" flag="0"/>
    </comp>
    <comp name="--.HNN">
      <acc value="0.0352131392" flag="0"/>
      <vel value="0.0176801033" flag="0"/>
      <psa03 value="0.0780133545" flag="0"/>
      <psa10 value="0.0118558155" flag="0"/>
      <psa30 value="0.0012323672" flag="0"/>
    </comp>
    <comp name="--.HNZ">
      <acc value="0.0160905554" flag="0"/>
      <vel value="0.0070039134" flag="0"/>
      <psa03 value="0.0217545969" flag="0"/>
      <psa10 value="0.0120911608" flag="0"/>
      <psa30 value="0.0006476625" flag="0"/>
    </comp>
  </station>
  <station code="FOSV" name="FOSV" netid="IV" insttype="" lat="43.2948" lon="12.7612">
    <comp name="--.HNE">
      <acc value="0.0177414685" flag="0"/>
      <vel value="0.0080819120" flag="0"/>
      <psa03 value="0.0516239539" flag="0"/>
      <psa10 value="0.0107892368" flag="0"/>
      <psa30 value="0.0006725691" flag="0"/>
    </comp>
    <comp name="--.HNN">
      <acc value="0.0252706639" flag="0"/>
      <vel value="0.0118672505" flag="0"/>
      <psa03 value="0.0478958219" flag="0"/>
      <psa10 value="0.0067754270" flag="0"/>
      <psa30 value="0.0004739229" flag="0"/>
    </comp>
    <comp name="--.HNZ">
      <acc value="0.0144950152" flag="0"/>
      <vel value="0.0057997908" flag="0"/>
      <psa03 value="0.0383447197" flag="0"/>
      <psa10 value="0.0060995053" flag="0"/>
      <psa30 value="0.0003939834" flag="0"/>
    </comp>
  </station>
  <station code="GUMA" name="GUMA" netid="IV" insttype="" lat="43.0627" lon="13.3352">
    <comp name="--.HHE">
      <acc value="0.0503972669" flag="0"/>
      <vel value="0.0293108174" flag="0"/>
      <psa03 value="0.1522706414" flag="0"/>
      <psa10 value="0.0165607224" flag="0"/>
      <psa30 value="0.0016856489" flag="0"/>
    </comp>
    <comp name="--.HHZ">
      <acc value="0.0239217357" flag="0"/>
      <vel value="0.0129466530" flag="0"/>
      <psa03 value="0.0930387554" flag="0"/>
      <psa10 value="0.0072079797" flag="0"/>
      <psa30 value="0.0007959856" flag="0"/>
    </comp>
    <comp name="--.HHN">
      <acc value="0.0356941883" flag="0"/>
      <vel value="0.0182302034" flag="0"/>
      <psa03 value="0.1222336475" flag="0"/>
      <psa10 value="0.0195422129" flag="0"/>
      <psa30 value="0.0009228036" flag="0"/>
    </comp>
  </station>
  <station code="MML1" name="MML1" netid="IV" insttype="" lat="43.1135" lon="12.9717">
    <comp name="--.HNE">
      <acc value="0.0352514370" flag="0"/>
      <vel value="0.0150664121" flag="0"/>
      <psa03 value="0.0767758866" flag="0"/>
      <psa10 value="0.0063297748" flag="0"/>
      <psa30 value="0.0006489357" flag="0"/>
    </comp>
    <comp name="--.HNN">
      <acc value="0.0199099913" flag="0"/>
      <vel value="0.0085320457" flag="0"/>
      <psa03 value="0.0509656645" flag="0"/>
      <psa10 value="0.0041461771" flag="0"/>
      <psa30 value="0.0011229497" flag="0"/>
    </comp>
    <comp name="--.HNZ">
      <acc value="0.0190303524" flag="0"/>
      <vel value="0.0065771825" flag="0"/>
      <psa03 value="0.0317398017" flag="0"/>
      <psa10 value="0.0042041852" flag="0"/>
      <psa30 value="0.0007257227" flag="0"/>
    </comp>
  </station>
  <station code="MMUR" name="MMUR" netid="IV" insttype="" lat="43.4418" lon="12.9973">
    <comp name="--.HNN">
      <acc value="0.0544518662" flag="0"/>
      <vel value="0.0186200246" flag="0"/>
      <psa03 value="0.1073761552" flag="0"/>
      <psa10 value="0.0142169995" flag="0"/>
      <psa30 value="0.0027274811" flag="0"/>
    </comp>
    <comp name="--.HNE">
      <acc value="0.0672882114" flag="0"/>
      <vel value="0.0288352652" flag="0"/>
      <psa03 value="0.2578367473" flag="0"/>
      <psa10 value="0.0114459988" flag="0"/>
      <psa30 value="0.0014837620" flag="0"/>
    </comp>
    <comp name="--.HNZ">
      <acc value="0.0343154809" flag="0"/>
      <vel value="0.0134870480" flag="0"/>
      <psa03 value="0.0843434865" flag="0"/>
      <psa10 value="0.0083863418" flag="0"/>
      <psa30 value="0.0021115858" flag="0"/>
    </comp>
  </station>
  <station code="MNTP" name="MNTP" netid="IV" insttype="" lat="43.1374" lon="13.4693">
    <comp name="--.HNE">
      <acc value="0.0546366672" flag="0"/>
      <vel value="0.0212149388" flag="0"/>
      <psa03 value="0.1187295044" flag="0"/>
      <psa10 value="0.0122660067" flag="0"/>
      <psa30 value="0.0016505308" flag="0"/>
    </comp>
    <comp name="--.HNN">
      <acc value="0.0580700416" flag="0"/>
      <vel value="0.0169627108" flag="0"/>
      <psa03 value="0.1004487656" flag="0"/>
      <psa10 value="0.0150843025" flag="0"/>
      <psa30 value="0.0010451193" flag="0"/>
    </comp>
    <comp name="--.HNZ">
      <acc value="0.0362927463" flag="0"/>
      <vel value="0.0088197525" flag="0"/>
      <psa03 value="0.0409250160" flag="0"/>
      <psa10 value="0.0062769751" flag="0"/>
      <psa30 value="0.0008077286" flag="0"/>
    </comp>
  </station>
  <station code="MTL1" name="MTL1" netid="IV" insttype="" lat="43.2567" lon="13.0096">
    <comp name="--.HNE">
      <acc value="0.0292756466" flag="0"/>
      <vel value="0.0171135421" flag="0"/>
      <psa03 value="0.0636242035" flag="0"/>
      <psa10 value="0.0125463761" flag="0"/>
      <psa30 value="0.0027299706" flag="0"/>
    </comp>
    <comp name="--.HNZ">
      <acc value="0.0373281994" flag="0"/>
      <vel value="0.0107929076" flag="0"/>
      <psa03 value="0.0777538779" flag="0"/>
      <psa10 value="0.0100847786" flag="0"/>
      <psa30 value="0.0016606107" flag="0"/>
    </comp>
