<stationlist created="1668155427">
	<station code="ANB" name="ANB" netid="IT" source="Italian Strong Motion Network (RAN)" insttype="" lat="43.59229" lon="13.507411">
		<comp name="00.HGE" depth="0.0">
			<acc value="0.670341740955" flag="0"/>
			<vel value="0.135923196985" flag="0"/>
			<psa03 value="0.88804582868" flag="0"/>
			<psa10 value="0.0850547419592" flag="0"/>
			<psa30 value="0.00456486323312" flag="0"/>
		</comp>
		<comp name="00.HGN" depth="0.0">
			<acc value="0.532971632186" flag="0"/>
			<vel value="0.190531192799" flag="0"/>
			<psa03 value="0.678078836061" flag="0"/>
			<psa10 value="0.0838105145353" flag="0"/>
			<psa30 value="0.00516661476288" flag="0"/>
		</comp>
		<comp name="00.HGZ" depth="0.0">
			<acc value="0.194092206582" flag="0"/>
			<vel value="0.076354888223" flag="0"/>
			<psa03 value="0.260747898269" flag="0"/>
			<psa10 value="0.0211437337936" flag="0"/>
			<psa30 value="0.0022556242157" flag="0"/>
		</comp>
	</station>
	<station code="APNO" name="APNO" netid="IT" source="Italian Strong Motion Network (RAN)" insttype="" lat="43.3638000488" lon="13.3451004028">
		<comp name="00.HNE" depth="0.0">
			<acc value="0.0840223373744" flag="0"/>
			<vel value="0.0242629486763" flag="0"/>
			<psa03 value="0.132550530822" flag="0"/>
			<psa10 value="0.0165256684944" flag="0"/>
			<psa30 value="0.00177689250208" flag="0"/>
		</comp>
		<comp name="00.HNN" depth="0.0">
			<acc value="0.0871167058745" flag="0"/>
			<vel value="0.0237577092209" flag="0"/>
			<psa03 value="0.143329213607" flag="0"/>
			<psa10 value="0.0190180967306" flag="0"/>
			<psa30 value="0.00249642287576" flag="0"/>
		</comp>
		<comp name="00.HNZ" depth="0.0">
			<acc value="0.0569986238676" flag="0"/>
			<vel value="0.0138039169071" flag="0"/>
			<psa03 value="0.0588524090997" flag="0"/>
			<psa10 value="0.0140665949679" flag="0"/>
			<psa30 value="0.00170525921505" flag="0"/>
		</comp>
	</station>
	<station code="CES" name="CES" netid="IT" source="Italian Strong Motion Network (RAN)" insttype="" lat="44.210281" lon="12.38678">
		<comp name="00.HNE" depth="0.0">
			<acc value="0.0232056856486" flag="0"/>
			<vel value="0.00864912304225" flag="0"/>
			<psa03 value="0.0305280587924" flag="0"/>
			<psa10 value="0.0112144935302" flag="0"/>
			<psa30 value="0.00192259257066" flag="0"/>
		</comp>
		<comp name="00.HNN" depth="0.0">
			<acc value="0.0215759590034" flag="0"/>
			<vel value="0.0107287339642" flag="0"/>
			<psa03 value="0.0373119222526" flag="0"/>
			<psa10 value="0.0136974767656" flag="0"/>
			<psa30 value="0.00272662229201" flag="0"/>
		</comp>
		<comp name="00.HNZ" depth="0.0">
			<acc value="0.0192355843674" flag="0"/>
			<vel value="0.00451286365567" flag="0"/>
			<psa03 value="0.0090609166475" flag="0"/>
			<psa10 value="0.00527743772935" flag="0"/>
			<psa30 value="0.00150162957976" flag="0"/>
		</comp>
	</station>
	<station code="CMRN" name="CMRN" netid="IT" source="Italian Strong Motion Network (RAN)" insttype="" lat="43.139198" lon="13.0718">
		<comp name="00.HNE" depth="0.0">
			<acc value="0.052225790447" flag="0"/>
			<vel value="0.0267349313296" flag="0"/>
			<psa03 value="0.192957240804" flag="0"/>
			<psa10 value="0.0173581186402" flag="0"/>
			<psa30 value="0.00158262119505" flag="0"/>
		</comp>
		<comp name="00.HNN" depth="0.0">
			<acc value="0.0587982782422" flag="0"/>
			<vel value="0.0360790900299" flag="0"/>
			<psa03 value="0.222223492049" flag="0"/>
			<psa10 value="0.0214385333226" flag="0"/>
			<psa30 value="0.0018133463753" flag="0"/>
		</comp>
		<comp name="00.HNZ" depth="0.0">
			<acc value="0.0486911552965" flag="0"/>
			<vel value="0.0140156539891" flag="0"/>
			<psa03 value="0.110498840839" flag="0"/>
			<psa10 value="0.0110866531863" flag="0"/>
			<psa30 value="0.00137645045392" flag="0"/>
		</comp>
	</station>
	<station code="CNTN" name="CNTN" netid="IT" source="Italian Strong Motion Network (RAN)" insttype="" lat="43.4729" lon="12.6303">
		<comp name="00.HNE" depth="0.0">
			<acc value="0.0470991232763" flag="0"/>
			<vel value="0.012798928095" flag="0"/>
			<psa03 value="0.0732078444519" flag="0"/>
			<psa10 value="0.00692832943656" flag="0"/>
			<psa30 value="0.000422988984486" flag="0"/>
		</comp>
		<comp name="00.HNN" depth="0.0">
			<acc value="0.0502872004462" flag="0"/>
			<vel value="0.0123496080712" flag="0"/>
			<psa03 value="0.0361416416022" flag="0"/>
			<psa10 value="0.00901817647245" flag="0"/>
			<psa30 value="0.000375447371546" flag="0"/>
		</comp>
		<comp name="00.HNZ" depth="0.0">
			<acc value="0.0137126074016" flag="0"/>
			<vel value="0.00757150111534" flag="0"/>
			<psa03 value="0.0274395260673" flag="0"/>
			<psa10 value="0.00725691729766" flag="0"/>
			<psa30 value="0.000565765291676" flag="0"/>
		</comp>
	</station>
	<station code="CTL" name="CTL" netid="IT" source="Italian Strong Motion Network (RAN)" insttype="" lat="43.955116" lon="12.735809">
		<comp name="00.HNE" depth="0.0">
			<acc value="0.104165924576" flag="0"/>
			<vel value="0.0245805237706" flag="0"/>
			<psa03 value="0.104068716958" flag="0"/>
			<psa10 value="0.0435599981363" flag="0"/>
			<psa30 value="0.00268365048701" flag="0"/>
		</comp>
		<comp name="00.HNN" depth="0.0">
			<acc value="0.0585723069199" flag="0"/>
			<vel value="0.0185161040028" flag="0"/>
			<psa03 value="0.0771658201902" flag="0"/>
			<psa10 value="0.0377240752848" flag="0"/>
			<psa30 value="0.00251254165189" flag="0"/>
		</comp>
		<comp name="00.HNZ" depth="0.0">
			<acc value="0.0472574196788" flag="0"/>
			<vel value="0.0180922061231" flag="0"/>
			<psa03 value="0.038625230607" flag="0"/>
			<psa10 value="0.0116760225417" flag="0"/>
			<psa30 value="0.00119257285626" flag="0"/>
		</comp>
	</station>
	<station code="FBR" name="FBR" netid="IT" source="Italian Strong Motion Network (RAN)" insttype="" lat="43.343601" lon="12.9119">
		<comp name="00.HGE" depth="0.0">
			<acc value="0.0410152930379" flag="0"/>
			<vel value="0.0168478605872" flag="0"/>
			<psa03 value="0.148834161616" flag="0"/>
			<psa10 value="0.0196724007" flag="0"/>
			<psa30 value="0.00104051340807" flag="0"/>
		</comp>
		<comp name="00.HGN" depth="0.0">
			<acc value="0.0406969190803" flag="0"/>
			<vel value="0.0146546973718" flag="0"/>
			<psa03 value="0.137677276694" flag="0"/>
			<psa10 value="0.012064598908" flag="0"/>
			<psa30 value="0.00165828620749" flag="0"/>
		</comp>
		<comp name="00.HGZ" depth="0.0">
			<acc value="0.0286660234826" flag="0"/>
			<vel value="0.0127898344106" flag="0"/>
			<psa03 value="0.0594986133663" flag="0"/>
			<psa10 value="0.0116597005229" flag="0"/>
			<psa30 value="0.00143454690669" flag="0"/>
		</comp>
	</station>
	<station code="FMNT" name="FMNT" netid="IT" source="Italian Strong Motion Network (RAN)" insttype="" lat="43.183601" lon="12.9381">
		<comp name="00.HNE" depth="0.0">
			<acc value="0.0504633778262" flag="0"/>
			<vel value="0.0323116952327" flag="0"/>
			<psa03 value="0.151192015729" flag="0"/>
			<psa10 value="0.0448298135051" flag="0"/>
			<psa30 value="0.00146201278867" flag="0"/>
		</comp>
		<comp name="00.HNN" depth="0.0">
			<acc value="0.0859129211634" flag="0"/>
			<vel value="0.0396743345534" flag="0"/>
			<psa03 value="0.252562293513" flag="0"/>
			<psa10 value="0.0493184821072" flag="0"/>
			<psa30 value="0.00166341373466" flag="0"/>
		</comp>
		<comp name="00.HNZ" depth="0.0">
			<acc value="0.0412446939237" flag="0"/>
			<vel value="0.0138514414096" flag="0"/>
			<psa03 value="0.0815255985876" flag="0"/>
			<psa10 value="0.0100261682469" flag="0"/>
			<psa30 value="0.00171452493303" flag="0"/>
		</comp>
	</station>
	<station code="FSS" name="FSS" netid="IT" source="Italian Strong Motion Network (RAN)" insttype="" lat="43.690477" lon="12.810074">
		<comp name="00.HGE" depth="0.0">
			<acc value="0.0763895658018" flag="0"/>
			<vel value="0.0143288661373" flag="0"/>
			<psa03 value="0.0304393081215" flag="0"/>
			<psa10 value="0.0142400083307" flag="0"/>
			<psa30 value="0.00145582164937" flag="0"/>
		</comp>
		<comp name="00.HGN" depth="0.0">
			<acc value="0.0534681381714" flag="0"/>
			<vel value="0.0104983793304" flag="0"/>
			<psa03 value="0.0219927121176" flag="0"/>
			<psa10 value="0.0123358375012" flag="0"/>
			<psa30 value="0.00114208680348" flag="0"/>
		</comp>
		<comp name="00.HGZ" depth="0.0">
			<acc value="0.0381943595529" flag="0"/>
			<vel value="0.00890872445649" flag="0"/>
			<psa03 value="0.0237386402768" flag="0"/>
			<psa10 value="0.0160246803064" flag="0"/>
			<psa30 value="0.00127949132252" flag="0"/>
		</comp>
	</station>
	<station code="GBB" name="GBB" netid="IT" source="Italian Strong Motion Network (RAN)" insttype="" lat="43.356972" lon="12.597252">
		<comp name="00.HGE" depth="0.0">
			<acc value="0.0796035950996" flag="0"/>
			<vel value="0.0258914811332" flag="0"/>
			<psa03 value="0.0884514115553" flag="0"/>
			<psa10 value="0.00842579097979" flag="0"/>
			<psa30 value="0.000712777530515" flag="0"/>
		</comp>
		<comp name="00.HGN" depth="0.0">
			<acc value="0.0674736198149" flag="0"/>
			<vel value="0.0199642128322" flag="0"/>
			<psa03 value="0.0803428379436" flag="0"/>
			<psa10 value="0.0103544546818" flag="0"/>
			<psa30 value="0.000725388938873" flag="0"/>
		</comp>
		<comp name="00.HGZ" depth="0.0">
			<acc value="0.0643666732642" flag="0"/>
			<vel value="0.0197938677966" flag="0"/>
			<psa03 value="0.0825721522913" flag="0"/>
			<psa10 value="0.0133264187473" flag="0"/>
			<psa30 value="0.000759114454275" flag="0"/>
		</comp>
	</station>
	<station code="GBP" name="GBP" netid="IT" source="Italian Strong Motion Network (RAN)" insttype="" lat="43.31381" lon="12.58949">
		<comp name="00.HGE" depth="0.0">
			<acc value="0.0566087004142" flag="0"/>
			<vel value="0.0272280859567" flag="0"/>
			<psa03 value="0.116479434941" flag="0"/>
			<psa10 value="0.0302580356964" flag="0"/>
			<psa30 value="0.00515112040313" flag="0"/>
		</comp>
		<comp name="00.HGN" depth="0.0">
			<acc value="0.0523128042118" flag="0"/>
			<vel value="0.02865872318" flag="0"/>
			<psa03 value="0.105243930227" flag="0"/>
			<psa10 value="0.0533338956088" flag="0"/>
			<psa30 value="0.0046379501581" flag="0"/>
		</comp>
		<comp name="00.HGZ" depth="0.0">
			<acc value="0.0311495222379" flag="0"/>
			<vel value="0.0179379857059" flag="0"/>
			<psa03 value="0.0570543785311" flag="0"/>
			<psa10 value="0.030123574289" flag="0"/>
			<psa30 value="0.00169813634737" flag="0"/>
		</comp>
	</station>
	<station code="GLT" name="GLT" netid="IT" source="Italian Strong Motion Network (RAN)" insttype="" lat="43.233101" lon="12.789001">
		<comp name="00.HNE" depth="0.0">
			<acc value="0.0176426901878" flag="0"/>
			<vel value="0.00974027574497" flag="0"/>
			<psa03 value="0.0364129434288" flag="0"/>
			<psa10 value="0.0141211263928" flag="0"/>
			<psa30 value="0.000690300989471" flag="0"/>
		</comp>
		<comp name="00.HNN" depth="0.0">
			<acc value="0.0148559122728" flag="0"/>
			<vel value="0.00961435245646" flag="0"/>
			<psa03 value="0.0323004548508" flag="0"/>
			<psa10 value="0.00863009888918" flag="0"/>
			<psa30 value="0.000603534304101" flag="0"/>
		</comp>
		<comp name="00.HNZ" depth="0.0">
			<acc value="0.0148481790067" flag="0"/>
			<vel value="0.00572747878264" flag="0"/>
			<psa03 value="0.0401530505676" flag="0"/>
			<psa10 value="0.00511934553776" flag="0"/>
			<psa30 value="0.000679126655476" flag="0"/>
		</comp>
	</station>
	<station code="MCR" name="MCR" netid="IT" source="Italian Strong Motion Network (RAN)" insttype="" lat="43.799889" lon="12.447514">
		<comp name="00.HGE" depth="0.0">
			<acc value="0.0652529318135" flag="0"/>
			<vel value="0.0173546018667" flag="0"/>
			<psa03 value="0.0573705505176" flag="0"/>
			<psa10 value="0.00763479514271" flag="0"/>
			<psa30 value="0.000644858604133" flag="0"/>
		</comp>
		<comp name="00.HGN" depth="0.0">
			<acc value="0.0742369879021" flag="0"/>
			<vel value="0.0212145910388" flag="0"/>
			<psa03 value="0.0461040229151" flag="0"/>
			<psa10 value="0.00895345187224" flag="0"/>
			<psa30 value="0.00122870639577" flag="0"/>
		</comp>
		<comp name="00.HGZ" depth="0.0">
			<acc value="0.025064037229" flag="0"/>
			<vel value="0.00694982098117" flag="0"/>
			<psa03 value="0.0253604456301" flag="0"/>
			<psa10 value="0.00609029235821" flag="0"/>
			<psa30 value="0.000579010335759" flag="0"/>
		</comp>
	</station>
	<station code="MCT" name="MCT" netid="IT" source="Italian Strong Motion Network (RAN)" insttype="" lat="43.292511" lon="13.418895">
		<comp name="00.HNE" depth="0.0">
			<acc value="0.041535414171" flag="0"/>
			<vel value="0.0192446548993" flag="0"/>
			<psa03 value="0.140127241075" flag="0"/>
			<psa10 value="0.0187290650836" flag="0"/>
			<psa30 value="0.00192530733383" flag="0"/>
		</comp>
		<comp name="00.HNN" depth="0.0">
			<acc value="0.0450547969413" flag="0"/>
			<vel value="0.0219498685062" flag="0"/>
			<psa03 value="0.131610437295" flag="0"/>
			<psa10 value="0.0213122999603" flag="0"/>
			<psa30 value="0.00239209596462" flag="0"/>
		</comp>
		<comp name="00.HNZ" depth="0.0">
			<acc value="0.0214217128117" flag="0"/>
			<vel value="0.00870868113342" flag="0"/>
			<psa03 value="0.0580181767528" flag="0"/>
			<psa10 value="0.0102735327586" flag="0"/>
			<psa30 value="0.00179430886416" flag="0"/>
		</comp>
	</station>
	<station code="MNF" name="MNF" netid="IT" source="Italian Strong Motion Network (RAN)" insttype="" lat="43.059684" lon="13.184466">
		<comp name="00.HGE" depth="0.0">
			<acc value="0.0149044997501" flag="0"/>
			<vel value="0.00635816319795" flag="0"/>
			<psa03 value="0.0361626377848" flag="0"/>
			<psa10 value="0.00469978836917" flag="0"/>
			<psa30 value="0.00048140970353" flag="0"/>
		</comp>
		<comp name="00.HGN" depth="0.0">
			<acc value="0.0140840549462" flag="0"/>
			<vel value="0.00679944917032" flag="0"/>
			<psa03 value="0.0358611933364" flag="0"/>
			<psa10 value="0.00650036280463" flag="0"/>
			<psa30 value="0.000498121487686" flag="0"/>
		</comp>
		<comp name="00.HGZ" depth="0.0">
			<acc value="0.011239782791" flag="0"/>
			<vel value="0.0052618360232" flag="0"/>
			<psa03 value="0.0270666940773" flag="0"/>
			<psa10 value="0.00598555541992" flag="0"/>
			<psa30 value="0.000855581105134" flag="0"/>
		</comp>
	</station>
	<station code="MODF" name="MODF" netid="IT" source="Italian Strong Motion Network (RAN)" insttype="" lat="43.7644996643" lon="13.1346998215">
		<comp name="00.HNE" depth="0.0">
			<acc value="0.529589020025" flag="0"/>
			<vel value="0.20813408496" flag="0"/>
			<psa03 value="0.643254987485" flag="0"/>
			<psa10 value="0.189642532887" flag="0"/>
			<psa30 value="0.0134176730217" flag="0"/>
		</comp>
		<comp name="00.HNN" depth="0.0">
			<acc value="0.320886199312" flag="0"/>
			<vel value="0.109173461982" flag="0"/>
			<psa03 value="0.511172487669" flag="0"/>
			<psa10 value="0.0988879008382" flag="0"/>
			<psa30 value="0.00796313918558" flag="0"/>
		</comp>
		<comp name="00.HNZ" depth="0.0">
			<acc value="0.346914252651" flag="0"/>
			<vel value="0.0671699487603" flag="0"/>
			<psa03 value="0.235317380288" flag="0"/>
			<psa10 value="0.0693314278667" flag="0"/>
			<psa30 value="0.00973125464788" flag="0"/>
		</comp>
	</station>
	<station code="MTGG" name="MTGG" netid="IT" source="Italian Strong Motion Network (RAN)" insttype="" lat="43.1254997253" lon="13.5417995453">
		<comp name="00.HNE" depth="0.0">
			<acc value="0.120295215661" flag="0"/>
			<vel value="0.0499105391359" flag="0"/>
			<psa03 value="0.330050030862" flag="0"/>
			<psa10 value="0.0220801877041" flag="0"/>
			<psa30 value="0.00171703843287" flag="0"/>
		</comp>
		<comp name="00.HNN" depth="0.0">
			<acc value="0.0861699279678" flag="0"/>
			<vel value="0.0318062415474" flag="0"/>
			<psa03 value="0.329027879816" flag="0"/>
			<psa10 value="0.0148200630064" flag="0"/>
			<psa30 value="0.00157577480401" flag="0"/>
		</comp>
		<comp name="00.HNZ" depth="0.0">
			<acc value="0.0425722365433" flag="0"/>
			<vel value="0.0149494775191" flag="0"/>
			<psa03 value="0.0855451252781" flag="0"/>
			<psa10 value="0.00774256650078" flag="0"/>
			<psa30 value="0.00133525491242" flag="0"/>
		</comp>
	</station>
	<station code="MTL" name="MTL" netid="IT" source="Italian Strong Motion Network (RAN)" insttype="" lat="43.249435" lon="13.008338">
		<comp name="00.HGE" depth="0.0">
			<acc value="0.0356412407561" flag="0"/>
			<vel value="0.0164937068626" flag="0"/>
			<psa03 value="0.0965108204514" flag="0"/>
			<psa10 value="0.0149859468079" flag="0"/>
			<psa30 value="0.00248997224011" flag="0"/>
		</comp>
		<comp name="00.HGN" depth="0.0">
			<acc value="0.0437218338988" flag="0"/>
			<vel value="0.0174348100049" flag="0"/>
			<psa03 value="0.0984099150072" flag="0"/>
			<psa10 value="0.018353012672" flag="0"/>
			<psa30 value="0.00244223366099" flag="0"/>
		</comp>
		<comp name="00.HGZ" depth="0.0">
			<acc value="0.0277163259035" flag="0"/>
			<vel value="0.00727734715274" flag="0"/>
			<psa03 value="0.0493358776345" flag="0"/>
			<psa10 value="0.00906385074812" flag="0"/>
			<psa30 value="0.00258622611645" flag="0"/>
		</comp>
	</station>
	<station code="PBN" name="PBN" netid="IT" source="Italian Strong Motion Network (RAN)" insttype="" lat="43.063702" lon="13.0821">
		<comp name="00.HNE" depth="0.0">
			<acc value="0.0477486650483" flag="0"/>
			<vel value="0.0157730247741" flag="0"/>
			<psa03 value="0.0866230091827" flag="0"/>
			<psa10 value="0.00573062243812" flag="0"/>
			<psa30 value="0.00066337035128" flag="0"/>
		</comp>
		<comp name="00.HNN" depth="0.0">
			<acc value="0.0564873711692" flag="0"/>
			<vel value="0.0168952193985" flag="0"/>
			<psa03 value="0.101494858953" flag="0"/>
			<psa10 value="0.0118037016248" flag="0"/>
			<psa30 value="0.000635877123737" flag="0"/>
		</comp>
		<comp name="00.HNZ" depth="0.0">
			<acc value="0.0163748394387" flag="0"/>
			<vel value="0.00509432478278" flag="0"/>
			<psa03 value="0.0242953464266" flag="0"/>
			<psa10 value="0.00308362888465" flag="0"/>
			<psa30 value="0.000659146842325" flag="0"/>
		</comp>
	</station>
	<station code="PESR" name="PESR" netid="IT" source="Italian Strong Motion Network (RAN)" insttype="" lat="43.8941993713" lon="12.8762998581">
		<comp name="00.HNE" depth="0.0">
			<acc value="0.169592350621" flag="0"/>
			<vel value="0.0575774789481" flag="0"/>
			<psa03 value="0.181158167506" flag="0"/>
			<psa10 value="0.0439080024398" flag="0"/>
			<psa30 value="0.00356947812707" flag="0"/>
		</comp>
		<comp name="00.HNN" depth="0.0">
			<acc value="0.213270553955" flag="0"/>
			<vel value="0.082611178381" flag="0"/>
			<psa03 value="0.285538478023" flag="0"/>
			<psa10 value="0.0571104407863" flag="0"/>
			<psa30 value="0.00413629192571" flag="0"/>
		</comp>
		<comp name="00.HNZ" depth="0.0">
			<acc value="0.0821994469486" flag="0"/>
			<vel value="0.0179567863542" flag="0"/>
			<psa03 value="0.0819049362165" flag="0"/>
			<psa10 value="0.0179842676195" flag="0"/>
			<psa30 value="0.00126688736257" flag="0"/>
		</comp>
	</station>
	<station code="PIBC" name="PIBC" netid="IT" source="Italian Strong Motion Network (RAN)" insttype="" lat="43.587799" lon="12.5135">
		<comp name="00.HNE" depth="0.0">
			<acc value="0.026316019136" flag="0"/>
			<vel value="0.00892081688443" flag="0"/>
			<psa03 value="0.0383599552213" flag="0"/>
			<psa10 value="0.00624845580453" flag="0"/>
			<psa30 value="0.00035305450792" flag="0"/>
		</comp>
		<comp name="00.HNN" depth="0.0">
			<acc value="0.0267188173265" flag="0"/>
			<vel value="0.00915849103996" flag="0"/>
			<psa03 value="0.0310586460246" flag="0"/>
			<psa10 value="0.00633153130786" flag="0"/>
			<psa30 value="0.000400898745074" flag="0"/>
		</comp>
		<comp name="00.HNZ" depth="0.0">
			<acc value="0.021419197854" flag="0"/>
			<vel value="0.00704174264109" flag="0"/>
			<psa03 value="0.0222203105282" flag="0"/>
			<psa10 value="0.00434194106977" flag="0"/>
			<psa30 value="0.000493172514007" flag="0"/>
		</comp>
	</station>
