<?xml version="1.0" encoding="UTF-8" standalone="yes"?>
<!DOCTYPE earthquake SYSTEM "stationlist.dtd">
<stationlist created="" xmlns="ch.ethz.sed.shakemap.usgs.xml">
  <station code="ITM" name="ITM" netid="HL" source="NOA" insttype="DR24" lat="37.1787" lon="21.9252">
    <comp name="--.HHE">
      <acc value="0.0120773772" flag="0"/>
      <vel value="0.0075071154" flag="0"/>
      <psa03 value="0.0367499731" flag="0"/>
      <psa10 value="0.0098518200" flag="0"/>
      <psa30 value="0.0010025484" flag="0"/>
    </comp>
    <comp name="--.HHN">
      <acc value="0.0173512864" flag="0"/>
      <vel value="0.0097899188" flag="0"/>
      <psa03 value="0.0484247988" flag="0"/>
      <psa10 value="0.0112520444" flag="0"/>
      <psa30 value="0.0009468233" flag="0"/>
    </comp>
    <comp name="--.HHZ">
      <acc value="0.0103880194" flag="0"/>
      <vel value="0.0055436568" flag="0"/>
      <psa03 value="0.0165810271" flag="0"/>
      <psa10 value="0.0089951191" flag="0"/>
      <psa30 value="0.0005619975" flag="0"/>
    </comp>
  </station>
  <station code="LTHK" name="LTHK" netid="HP" source="NOA" insttype="40," lat="37.7095" lon="20.8367">
    <comp name="--.HHE">
      <acc value="0.1688305022" flag="0"/>
      <vel value="0.0342642881" flag="0"/>
      <psa03 value="0.1948969964" flag="0"/>
      <psa10 value="0.0311842809" flag="0"/>
      <psa30 value="0.0032224267" flag="0"/>
    </comp>
    <comp name="--.HHN">
      <acc value="0.2024297453" flag="0"/>
      <vel value="0.0370931579" flag="0"/>
      <psa03 value="0.2978060851" flag="0"/>
      <psa10 value="0.0209229141" flag="0"/>
      <psa30 value="0.0030810185" flag="0"/>
    </comp>
    <comp name="--.HHZ">
      <acc value="0.0946013685" flag="0"/>
      <vel value="0.0227183178" flag="0"/>
      <psa03 value="0.0859088083" flag="0"/>
      <psa10 value="0.0108541370" flag="0"/>
      <psa30 value="0.0013339514" flag="0"/>
    </comp>
  </station>
</stationlist>
