<stationlist xmlns:esm="https://esm-db.eu/esmws/shakemap/1/" created="1783994086">
	<station code="ARG2" name="ARG2" netid="HI" source="ITSAK Strong Motion Network" insttype="" lat="38.1783" lon="20.4878" esm:processing="manual (Paolucci et al 2011)" esm:quality="good">
		<comp name="--.HNE" depth="0.0">
			<acc value="0.0313665314256377" flag="0"/>
			<vel value="0.0182119578182561" flag="0"/>
			<psa03 value="0.0531537414625068" flag="0"/>
			<psa10 value="0.0189783017812723" flag="0"/>
			<psa30 value="0.000842048328555874" flag="0"/>
		</comp>
		<comp name="--.HNN" depth="0.0">
			<acc value="0.0404119747093684" flag="0"/>
			<vel value="0.0228590803166587" flag="0"/>
			<psa03 value="0.0703347488039232" flag="0"/>
			<psa10 value="0.0144884213471288" flag="0"/>
			<psa30 value="0.00107202327057379" flag="0"/>
		</comp>
		<comp name="--.HNZ" depth="0.0">
			<acc value="0.0263284984250158" flag="0"/>
			<vel value="0.0101564426280651" flag="0"/>
			<psa03 value="0.0561962115125493" flag="0"/>
			<psa10 value="0.00985760296213763" flag="0"/>
			<psa30 value="0.000835784419629316" flag="0"/>
		</comp>
	</station>
	<station code="KLV1" name="KLV1" netid="HI" source="ITSAK Strong Motion Network" insttype="" lat="38.03256" lon="22.10797" esm:processing="manual (Paolucci et al 2011)" esm:quality="good">
		<comp name="--.HNE" depth="0.0">
			<acc value="0.00761649028306448" flag="0"/>
			<vel value="0.00620803409057639" flag="0"/>
			<psa03 value="0.0247480222475355" flag="0"/>
			<psa10 value="0.00800138380241147" flag="0"/>
			<psa30 value="0.000366107508033899" flag="0"/>
		</comp>
		<comp name="--.HNN" depth="0.0">
			<acc value="0.00731822534571687" flag="0"/>
			<vel value="0.00459935221354176" flag="0"/>
			<psa03 value="0.0228182485761361" flag="0"/>
			<psa10 value="0.00748832215835111" flag="0"/>
			<psa30 value="0.00048097759157125" flag="0"/>
		</comp>
		<comp name="--.HNZ" depth="0.0">
			<acc value="0.00395201867842727" flag="0"/>
			<vel value="0.00341773308716884" flag="0"/>
			<psa03 value="0.00846300464295368" flag="0"/>
			<psa10 value="0.00476065443249998" flag="0"/>
			<psa30 value="0.000245507096973712" flag="0"/>
		</comp>
	</station>
	<station code="KRI1" name="KRI1" netid="HI" source="ITSAK Strong Motion Network" insttype="" lat="37.6621" lon="20.8172" esm:processing="manual (Paolucci et al 2011)" esm:quality="good">
		<comp name="--.HNE" depth="0.0">
			<acc value="0.153389556979851" flag="0"/>
			<vel value="0.0492486602199679" flag="0"/>
			<psa03 value="0.214807333974323" flag="0"/>
			<psa10 value="0.0444316957043409" flag="0"/>
			<psa30 value="0.0045279113097691" flag="0"/>
		</comp>
		<comp name="--.HNN" depth="0.0">
			<acc value="0.120599254778354" flag="0"/>
			<vel value="0.0608978442199786" flag="0"/>
			<psa03 value="0.293732586448954" flag="0"/>
			<psa10 value="0.0499161953916087" flag="0"/>
			<psa30 value="0.00514580118316743" flag="0"/>
		</comp>
		<comp name="--.HNZ" depth="0.0">
			<acc value="0.077737044281692" flag="0"/>
			<vel value="0.0267394996174333" flag="0"/>
			<psa03 value="0.113734689223647" flag="0"/>
			<psa10 value="0.0226426885033088" flag="0"/>
			<psa30 value="0.00339101183959882" flag="0"/>
		</comp>
	</station>
	<station code="MSL1" name="MSL1" netid="HI" source="ITSAK Strong Motion Network" insttype="" lat="38.3727" lon="21.4243" esm:processing="manual (Paolucci et al 2011)" esm:quality="good">
		<comp name="--.HNE" depth="0.0">
			<acc value="0.0160141387599987" flag="0"/>
			<vel value="0.013527298521998" flag="0"/>
			<psa03 value="0.0342828283607905" flag="0"/>
			<psa10 value="0.0293212086361854" flag="0"/>
			<psa30 value="0.00239792801762912" flag="0"/>
		</comp>
		<comp name="--.HNN" depth="0.0">
			<acc value="0.0156006040529628" flag="0"/>
			<vel value="0.0111379211254751" flag="0"/>
			<psa03 value="0.0369214120081824" flag="0"/>
			<psa10 value="0.0286662896259914" flag="0"/>
			<psa30 value="0.00162625721072424" flag="0"/>
		</comp>
		<comp name="--.HNZ" depth="0.0">
			<acc value="0.00628764121699388" flag="0"/>
			<vel value="0.00551609873518206" flag="0"/>
			<psa03 value="0.016169849819035" flag="0"/>
			<psa10 value="0.00945358500360112" flag="0"/>
			<psa30 value="0.000636190373657114" flag="0"/>
		</comp>
	</station>
	<station code="PYL1" name="PYL1" netid="HI" source="ITSAK Strong Motion Network" insttype="" lat="36.914188" lon="21.695161" esm:processing="manual (Paolucci et al 2011)" esm:quality="good">
		<comp name="--.HNE" depth="0.0">
			<acc value="0.02635029915599" flag="0"/>
			<vel value="0.0151722289491516" flag="0"/>
			<psa03 value="0.0566695144938352" flag="0"/>
			<psa10 value="0.00975075187694565" flag="0"/>
			<psa30 value="0.000756355313161622" flag="0"/>
		</comp>
		<comp name="--.HNN" depth="0.0">
			<acc value="0.0345698841834297" flag="0"/>
			<vel value="0.0102274060462918" flag="0"/>
			<psa03 value="0.0331400339062876" flag="0"/>
			<psa10 value="0.0100719212778471" flag="0"/>
			<psa30 value="0.000807198004154763" flag="0"/>
		</comp>
		<comp name="--.HNZ" depth="0.0">
			<acc value="0.0168913303924617" flag="0"/>
			<vel value="0.00561670009823042" flag="0"/>
			<psa03 value="0.0216617435779549" flag="0"/>
			<psa10 value="0.0037749827303291" flag="0"/>
			<psa30 value="0.000309934255581548" flag="0"/>
		</comp>
	</station>
	<station code="ITM" name="ITM" netid="HL" source="National Observatory of Athens Seismic Network" insttype="" lat="37.17872" lon="21.92522" esm:processing="manual (Paolucci et al 2011)" esm:quality="good">
		<comp name="--.HNE" depth="0.0">
			<acc value="0.0115829312374493" flag="0"/>
			<vel value="0.0073314745929122" flag="0"/>
			<psa03 value="0.0361958795702298" flag="0"/>
			<psa10 value="0.00976153477878952" flag="0"/>
			<psa30 value="0.00094640206949061" flag="0"/>
		</comp>
		<comp name="--.HNN" depth="0.0">
			<acc value="0.016849919969629" flag="0"/>
			<vel value="0.00957340556319258" flag="0"/>
			<psa03 value="0.046991321277852" flag="0"/>
			<psa10 value="0.0108660354465369" flag="0"/>
			<psa30 value="0.000908910731709732" flag="0"/>
		</comp>
		<comp name="--.HNZ" depth="0.0">
			<acc value="0.00929581012038697" flag="0"/>
			<vel value="0.00513063431352019" flag="0"/>
			<psa03 value="0.0155211597110893" flag="0"/>
			<psa10 value="0.0083125409775263" flag="0"/>
			<psa30 value="0.000517883994771592" flag="0"/>
		</comp>
	</station>
	<station code="LXRA" name="LXRA" netid="HL" source="National Observatory of Athens Seismic Network" insttype="" lat="38.20006" lon="20.43718" esm:processing="manual (Paolucci et al 2011)" esm:quality="good">
		<comp name="00.HNE" depth="0.0">
			<acc value="0.0384206500104853" flag="0"/>
			<vel value="0.0201363014559375" flag="0"/>
			<psa03 value="0.055480336206657" flag="0"/>
			<psa10 value="0.0212735769807897" flag="0"/>
			<psa30 value="0.00190825511226929" flag="0"/>
		</comp>
		<comp name="00.HNN" depth="0.0">
			<acc value="0.0670484747457769" flag="0"/>
			<vel value="0.0158865201107823" flag="0"/>
			<psa03 value="0.0803570030864161" flag="0"/>
			<psa10 value="0.0190749449475678" flag="0"/>
			<psa30 value="0.00359011465905012" flag="0"/>
		</comp>
		<comp name="00.HNZ" depth="0.0">
			<acc value="0.0361692925512348" flag="0"/>
			<vel value="0.00896841687759677" flag="0"/>
			<psa03 value="0.0424156118741216" flag="0"/>
			<psa10 value="0.0169286612960893" flag="0"/>
			<psa30 value="0.000914978125343657" flag="0"/>
		</comp>
	</station>
	<station code="SMHA" name="SMHA" netid="HL" source="National Observatory of Athens Seismic Network" insttype="" lat="38.25123" lon="20.6477" esm:processing="manual (Paolucci et al 2011)" esm:quality="good">
		<comp name="00.HNE" depth="0.0">
			<acc value="0.0404518731550569" flag="0"/>
			<vel value="0.0174959614292532" flag="0"/>
			<psa03 value="0.0694758263910623" flag="0"/>
			<psa10 value="0.0202089824958965" flag="0"/>
			<psa30 value="0.00110896575520497" flag="0"/>
		</comp>
		<comp name="00.HNN" depth="0.0">
			<acc value="0.0426124828550981" flag="0"/>
			<vel value="0.0228804313020057" flag="0"/>
			<psa03 value="0.165677829509645" flag="0"/>
			<psa10 value="0.0157218336818147" flag="0"/>
			<psa30 value="0.000872336381753314" flag="0"/>
		</comp>
		<comp name="00.HNZ" depth="0.0">
			<acc value="0.0244623694271427" flag="0"/>
			<vel value="0.00772336378687909" flag="0"/>
			<psa03 value="0.0433542183583777" flag="0"/>
			<psa10 value="0.00848111651982763" flag="0"/>
			<psa30 value="0.000458047999681354" flag="0"/>
		</comp>
	</station>
	<station code="ZARA" name="ZARA" netid="HL" source="National Observatory of Athens Seismic Network" insttype="" lat="37.4865" lon="21.6491" esm:processing="manual (Paolucci et al 2011)" esm:quality="best">
		<comp name="00.HNE" depth="0.0">
			<acc value="0.0457291449029364" flag="0"/>
			<vel value="0.0254010747817076" flag="0"/>
			<psa03 value="0.140650067376669" flag="0"/>
			<psa10 value="0.0248658516156311" flag="0"/>
			<psa30 value="0.00178415965015404" flag="0"/>
		</comp>
		<comp name="00.HNN" depth="0.0">
			<acc value="0.0465302965665612" flag="0"/>
			<vel value="0.0254740657651066" flag="0"/>
			<psa03 value="0.148606052754813" flag="0"/>
			<psa10 value="0.0303556584134101" flag="0"/>
			<psa30 value="0.00241566835950562" flag="0"/>
		</comp>
		<comp name="00.HNZ" depth="0.0">
			<acc value="0.0271431085168754" flag="0"/>
			<vel value="0.0113324912320603" flag="0"/>
			<psa03 value="0.0638923888072596" flag="0"/>
			<psa10 value="0.0130674312782098" flag="0"/>
			<psa30 value="0.00123656077024976" flag="0"/>
		</comp>
	</station>
	<station code="ANX" name="ANX" netid="HP" source="University of Patras, Seismological Laboratory (PSLNET)" insttype="" lat="38.5933" lon="21.9209" esm:processing="manual (Paolucci et al 2011)" esm:quality="good">
		<comp name="--.HNE" depth="0.0">
			<acc value="0.00606700002767631" flag="0"/>
			<vel value="0.00446340732322156" flag="0"/>
			<psa03 value="0.0203274234149561" flag="0"/>
			<psa10 value="0.00582691616084863" flag="0"/>
			<psa30 value="0.000791524986729101" flag="0"/>
		</comp>
		<comp name="--.HNN" depth="0.0">
			<acc value="0.00735624023781634" flag="0"/>
			<vel value="0.00581118626953032" flag="0"/>
			<psa03 value="0.0194754854678315" flag="0"/>
			<psa10 value="0.0089125066598259" flag="0"/>
			<psa30 value="0.000523114601691715" flag="0"/>
		</comp>
		<comp name="--.HNZ" depth="0.0">
			<acc value="0.00321033281144721" flag="0"/>
			<vel value="0.00297041549530361" flag="0"/>
			<psa03 value="0.00643929831670271" flag="0"/>
			<psa10 value="0.00394770557862025" flag="0"/>
			<psa30 value="0.000295501997432081" flag="0"/>
		</comp>
	</station>
	<station code="FSK" name="FSK" netid="HP" source="University of Patras, Seismological Laboratory (PSLNET)" insttype="" lat="38.4593" lon="20.5623" esm:processing="manual (Paolucci et al 2011)" esm:quality="good">
		<comp name="--.HNE" depth="0.0">
			<acc value="0.0125931239111015" flag="0"/>
			<vel value="0.00581650088182725" flag="0"/>
			<psa03 value="0.0119773429193533" flag="0"/>
			<psa10 value="0.00874803857712259" flag="0"/>
			<psa30 value="0.000856416629231945" flag="0"/>
		</comp>
		<comp name="--.HNN" depth="0.0">
			<acc value="0.00495036698669078" flag="0"/>
			<vel value="0.00482531477074779" flag="0"/>
			<psa03 value="0.00794081705578344" flag="0"/>
			<psa10 value="0.0106968589269064" flag="0"/>
			<psa30 value="0.000577185683635527" flag="0"/>
		</comp>
		<comp name="--.HNZ" depth="0.0">
			<acc value="0.00600539330967491" flag="0"/>
			<vel value="0.00352895953215998" flag="0"/>
			<psa03 value="0.0111946869055668" flag="0"/>
			<psa10 value="0.00375350482314829" flag="0"/>
			<psa30 value="0.000403438340393412" flag="0"/>
		</comp>
	</station>
	<station code="ROD3" name="ROD3" netid="CL" source="Corinth Riff Laboratory (CRLNET)" insttype="" lat="38.30811" lon="21.89204" esm:processing="discarded" esm:quality="bad">
		<comp name="00.HNE" depth="0.0">
			<acc value="0" flag="1"/>
			<vel value="0" flag="1"/>
			<psa03 value="0" flag="1"/>
			<psa10 value="0" flag="1"/>
			<psa30 value="0" flag="1"/>
		</comp>
		<comp name="00.HNN" depth="0.0">
			<acc value="0" flag="1"/>
			<vel value="0" flag="1"/>
			<psa03 value="0" flag="1"/>
			<psa10 value="0" flag="1"/>
			<psa30 value="0" flag="1"/>
		</comp>
		<comp name="00.HNZ" depth="0.0">
			<acc value="0" flag="1"/>
			<vel value="0" flag="1"/>
			<psa03 value="0" flag="1"/>
			<psa10 value="0" flag="1"/>
			<psa30 value="0" flag="1"/>
		</comp>
	</station>
	<station code="ARS1" name="ARS1" netid="HI" source="ITSAK Strong Motion Network" insttype="" lat="37.6349" lon="22.7293" esm:processing="discarded" esm:quality="bad">
		<comp name="--.HNE" depth="0.0">
			<acc value="0" flag="1"/>
			<vel value="0" flag="1"/>
			<psa03 value="0" flag="1"/>
			<psa10 value="0" flag="1"/>
			<psa30 value="0" flag="1"/>
		</comp>
		<comp name="--.HNN" depth="0.0">
			<acc value="0" flag="1"/>
			<vel value="0" flag="1"/>
			<psa03 value="0" flag="1"/>
			<psa10 value="0" flag="1"/>
			<psa30 value="0" flag="1"/>
		</comp>
		<comp name="--.HNZ" depth="0.0">
			<acc value="0" flag="1"/>
			<vel value="0" flag="1"/>
			<psa03 value="0" flag="1"/>
			<psa10 value="0" flag="1"/>
			<psa30 value="0" flag="1"/>
		</comp>
	</station>
	<station code="ART2" name="ART2" netid="HI" source="ITSAK Strong Motion Network" insttype="" lat="39.1474" lon="20.9937" esm:processing="discarded" esm:quality="bad">
		<comp name="--.HNE" depth="0.0">
			<acc value="0" flag="1"/>
			<vel value="0" flag="1"/>
			<psa03 value="0" flag="1"/>
			<psa10 value="0" flag="1"/>
			<psa30 value="0" flag="1"/>
		</comp>
		<comp name="--.HNN" depth="0.0">
			<acc value="0" flag="1"/>
			<vel value="0" flag="1"/>
			<psa03 value="0" flag="1"/>
			<psa10 value="0" flag="1"/>
			<psa30 value="0" flag="1"/>
		</comp>
		<comp name="--.HNZ" depth="0.0">
			<acc value="0" flag="1"/>
			<vel value="0" flag="1"/>
			<psa03 value="0" flag="1"/>
			<psa10 value="0" flag="1"/>
			<psa30 value="0" flag="1"/>
		</comp>
	</station>
	<station code="ARTB" name="ARTB" netid="HL" source="National Observatory of Athens Seismic Network" insttype="" lat="39.15702" lon="20.9785" esm:processing="discarded" esm:quality="bad">
		<comp name="00.HNE" depth="0.0">
			<acc value="0" flag="1"/>
			<vel value="0" flag="1"/>
			<psa03 value="0" flag="1"/>
			<psa10 value="0" flag="1"/>
			<psa30 value="0" flag="1"/>
		</comp>
		<comp name="00.HNN" depth="0.0">
			<acc value="0" flag="1"/>
			<vel value="0" flag="1"/>
			<psa03 value="0" flag="1"/>
			<psa10 value="0" flag="1"/>
			<psa30 value="0" flag="1"/>
		</comp>
		<comp name="00.HNZ" depth="0.0">
			<acc value="0" flag="1"/>
			<vel value="0" flag="1"/>
			<psa03 value="0" flag="1"/>
			<psa10 value="0" flag="1"/>
			<psa30 value="0" flag="1"/>
		</comp>
	</station>
	<station code="DLFA" name="DLFA" netid="HL" source="National Observatory of Athens Seismic Network" insttype="" lat="38.47836" lon="22.49583" esm:processing="discarded" esm:quality="bad">
		<comp name="00.HNE" depth="0.0">
			<acc value="0" flag="1"/>
			<vel value="0" flag="1"/>
			<psa03 value="0" flag="1"/>
			<psa10 value="0" flag="1"/>
			<psa30 value="0" flag="1"/>
		</comp>
		<comp name="00.HNN" depth="0.0">
			<acc value="0" flag="1"/>
			<vel value="0" flag="1"/>
			<psa03 value="0" flag="1"/>
			<psa10 value="0" flag="1"/>
			<psa30 value="0" flag="1"/>
		</comp>
		<comp name="00.HNZ" depth="0.0">
			<acc value="0" flag="1"/>
			<vel value="0" flag="1"/>
			<psa03 value="0" flag="1"/>
			<psa10 value="0" flag="1"/>
			<psa30 value="0" flag="1"/>
		</comp>
	</station>
	<station code="KIAA" name="KIAA" netid="HL" source="National Observatory of Athens Seismic Network" insttype="" lat="38.0139" lon="22.7495" esm:processing="discarded" esm:quality="bad">
		<comp name="00.HNE" depth="0.0">
			<acc value="0" flag="1"/>
			<vel value="0" flag="1"/>
			<psa03 value="0" flag="1"/>
			<psa10 value="0" flag="1"/>
			<psa30 value="0" flag="1"/>
		</comp>
		<comp name="00.HNN" depth="0.0">
			<acc value="0" flag="1"/>
			<vel value="0" flag="1"/>
			<psa03 value="0" flag="1"/>
			<psa10 value="0" flag="1"/>
			<psa30 value="0" flag="1"/>
		</comp>
		<comp name="00.HNZ" depth="0.0">
			<acc value="0" flag="1"/>
			<vel value="0" flag="1"/>
			<psa03 value="0" flag="1"/>
			<psa10 value="0" flag="1"/>
			<psa30 value="0" flag="1"/>
		</comp>
	</station>
	<station code="MNVA" name="MNVA" netid="HL" source="National Observatory of Athens Seismic Network" insttype="" lat="36.68709" lon="23.03734" esm:processing="discarded" esm:quality="bad">
		<comp name="00.HNE" depth="0.0">
			<acc value="0" flag="1"/>
			<vel value="0" flag="1"/>
			<psa03 value="0" flag="1"/>
			<psa10 value="0" flag="1"/>
			<psa30 value="0" flag="1"/>
		</comp>
		<comp name="00.HNN" depth="0.0">
			<acc value="0" flag="1"/>
			<vel value="0" flag="1"/>
			<psa03 value="0" flag="1"/>
			<psa10 value="0" flag="1"/>
			<psa30 value="0" flag="1"/>
		</comp>
		<comp name="00.HNZ" depth="0.0">
			<acc value="0" flag="1"/>
			<vel value="0" flag="1"/>
			<psa03 value="0" flag="1"/>
			<psa10 value="0" flag="1"/>
			<psa30 value="0" flag="1"/>
		</comp>
	</station>
	<station code="PATC" name="PATC" netid="HL" source="National Observatory of Athens Seismic Network" insttype="" lat="38.26933" lon="21.76001" esm:processing="discarded" esm:quality="good">
		<comp name="00.HNE" depth="0.0">
			<acc value="0" flag="1"/>
			<vel value="0" flag="1"/>
			<psa03 value="0" flag="1"/>
			<psa10 value="0" flag="1"/>
			<psa30 value="0" flag="1"/>
		</comp>
		<comp name="00.HNN" depth="0.0">
			<acc value="0" flag="1"/>
			<vel value="0" flag="1"/>
			<psa03 value="0" flag="1"/>
			<psa10 value="0" flag="1"/>
			<psa30 value="0" flag="1"/>
		</comp>
		<comp name="00.HNZ" depth="0.0">
			<acc value="0" flag="1"/>
			<vel value="0" flag="1"/>
			<psa03 value="0" flag="1"/>
			<psa10 value="0" flag="1"/>
			<psa30 value="0" flag="1"/>
		</comp>
	</station>
	<station code="PATG" name="PATG" netid="HL" source="National Observatory of Athens Seismic Network" insttype="" lat="38.23865" lon="21.72657" esm:processing="discarded" esm:quality="good">
		<comp name="00.HNE" depth="0.0">
			<acc value="0" flag="1"/>
			<vel value="0" flag="1"/>
			<psa03 value="0" flag="1"/>
			<psa10 value="0" flag="1"/>
			<psa30 value="0" flag="1"/>
		</comp>
		<comp name="00.HNN" depth="0.0">
			<acc value="0" flag="1"/>
			<vel value="0" flag="1"/>
			<psa03 value="0" flag="1"/>
			<psa10 value="0" flag="1"/>
			<psa30 value="0" flag="1"/>
		</comp>
		<comp name="00.HNZ" depth="0.0">
			<acc value="0" flag="1"/>
			<vel value="0" flag="1"/>
			<psa03 value="0" flag="1"/>
			<psa10 value="0" flag="1"/>
			<psa30 value="0" flag="1"/>
		</comp>
	</station>
	<station code="PRGA" name="PRGA" netid="HL" source="National Observatory of Athens Seismic Network" insttype="" lat="39.28557" lon="20.40157" esm:processing="discarded" esm:quality="bad">
		<comp name="00.HNE" depth="0.0">
			<acc value="0" flag="1"/>
			<vel value="0" flag="1"/>
			<psa03 value="0" flag="1"/>
			<psa10 value="0" flag="1"/>
			<psa30 value="0" flag="1"/>
		</comp>
		<comp name="00.HNN" depth="0.0">
			<acc value="0" flag="1"/>
			<vel value="0" flag="1"/>
			<psa03 value="0" flag="1"/>
			<psa10 value="0" flag="1"/>
			<psa30 value="0" flag="1"/>
		</comp>
		<comp name="00.HNZ" depth="0.0">
			<acc value="0" flag="1"/>
			<vel value="0" flag="1"/>
			<psa03 value="0" flag="1"/>
			<psa10 value="0" flag="1"/>
			<psa30 value="0" flag="1"/>
		</comp>
	</station>
	<station code="RIOA" name="RIOA" netid="HL" source="National Observatory of Athens Seismic Network" insttype="" lat="38.29585" lon="21.79118" esm:processing="discarded" esm:quality="good">
		<comp name="00.HNE" depth="0.0">
			<acc value="0" flag="1"/>
			<vel value="0" flag="1"/>
			<psa03 value="0" flag="1"/>
			<psa10 value="0" flag="1"/>
			<psa30 value="0" flag="1"/>
		</comp>
