<?xml version="1.0" encoding="UTF-8" standalone="yes"?>
<!DOCTYPE earthquake SYSTEM "stationlist.dtd">
<stationlist created="" xmlns="ch.ethz.sed.shakemap.usgs.xml">
  <station code="THERA" name="THERA" netid="GE" insttype="STS-2/N" lat="36.367" lon="25.4753">
    <comp name="--.HHE">
      <acc value="0.1817818894" flag="0"/>
      <vel value="0.0333755225" flag="0"/>
      <psa03 value="0.1360054438" flag="0"/>
      <psa10 value="0.0122850048" flag="0"/>
      <psa30 value="0.0015131716" flag="0"/>
    </comp>
    <comp name="--.HHZ">
      <acc value="0.1225767113" flag="0"/>
      <vel value="0.0284268176" flag="0"/>
      <psa03 value="0.0755572828" flag="0"/>
      <psa10 value="0.0058667218" flag="0"/>
      <psa30 value="0.0009329223" flag="0"/>
    </comp>
    <comp name="--.HHN">
      <acc value="0.1438618496" flag="0"/>
      <vel value="0.0273330991" flag="0"/>
      <psa03 value="0.1001978288" flag="0"/>
      <psa10 value="0.0072998393" flag="0"/>
      <psa30 value="0.0005804010" flag="0"/>
    </comp>
  </station>
</stationlist>
