<?xml version="1.0" encoding="UTF-8" standalone="yes"?>
<!DOCTYPE earthquake SYSTEM "stationlist.dtd">
<stationlist created="" xmlns="ch.ethz.sed.shakemap.usgs.xml">
  <station code="THERA" name="THERA" netid="GE" insttype="STS-2/N" lat="36.367" lon="25.4753">
    <comp name="--.HHE">
      <acc value="0.1817818894" flag="0"/>
      <vel value="0.0333755225" flag="0"/>
      <psa03 value="0.1360054438" flag="0"/>
      <psa10 value="0.0122850048" flag="0"/>
      <psa30 value="0.0015131716" flag="0"/>
    </comp>
    <comp name="--.HHZ">
      <acc value="0.1225767113" flag="0"/>
      <vel value="0.0284268176" flag="0"/>
      <psa03 value="0.0755572828" flag="0"/>
      <psa10 value="0.0058667218" flag="0"/>
      <psa30 value="0.0009329223" flag="0"/>
    </comp>
    <comp name="--.HHN">
      <acc value="0.1438618496" flag="0"/>
      <vel value="0.0273330991" flag="0"/>
      <psa03 value="0.1001978288" flag="0"/>
      <psa10 value="0.0072998393" flag="0"/>
      <psa30 value="0.0005804010" flag="0"/>
    </comp>
  </station>
  <station code="SNT1" name="SNT1" netid="HA" insttype="30" lat="36.4159" lon="25.4282">
    <comp name="--.HHE">
      <acc value="0.0885637939" flag="0"/>
      <vel value="0.0202677004" flag="0"/>
      <psa03 value="0.0824751822" flag="0"/>
      <psa10 value="0.0162737885" flag="0"/>
      <psa30 value="0.0026957184" flag="0"/>
    </comp>
    <comp name="--.HHN">
      <acc value="0.0660284144" flag="0"/>
      <vel value="0.0187734285" flag="0"/>
      <psa03 value="0.0500832804" flag="0"/>
      <psa10 value="0.0207505027" flag="0"/>
      <psa30 value="0.0015378362" flag="0"/>
    </comp>
    <comp name="--.HHZ">
      <acc value="0.0785028468" flag="0"/>
      <vel value="0.0158214480" flag="0"/>
      <psa03 value="0.0556692909" flag="0"/>
      <psa10 value="0.0126666969" flag="0"/>
      <psa30 value="0.0012794098" flag="0"/>
    </comp>
  </station>
  <station code="NAX1" name="NAX1" netid="HI" insttype="CMG-5TD,ACCELEROMETER,GURALP" lat="37.1014" lon="25.3741">
    <comp name="--.HNZ">
      <acc value="0.0580340482" flag="0"/>
      <vel value="0.0114390860" flag="0"/>
      <psa03 value="0.0397367608" flag="0"/>
      <psa10 value="0.0059419715" flag="0"/>
      <psa30 value="0.0014348997" flag="0"/>
    </comp>
    <comp name="--.HNE">
      <acc value="0.1087071270" flag="0"/>
      <vel value="0.0232236283" flag="0"/>
      <psa03 value="0.0807873874" flag="0"/>
      <psa10 value="0.0075275950" flag="0"/>
      <psa30 value="0.0008523246" flag="0"/>
    </comp>
    <comp name="--.HNN">
      <acc value="0.0945578942" flag="0"/>
      <vel value="0.0194725097" flag="0"/>
      <psa03 value="0.0522030639" flag="0"/>
      <psa10 value="0.0085273550" flag="0"/>
      <psa30 value="0.0010856429" flag="0"/>
    </comp>
  </station>
  <station code="SFR2" name="SFR2" netid="HI" insttype="unknown" lat="36.3998" lon="25.4382">
    <comp name="--.HNE">
      <acc value="0.2231068851" flag="0"/>
      <vel value="0.0626710638" flag="0"/>
      <psa03 value="0.3070561201" flag="0"/>
      <psa10 value="0.0332570857" flag="0"/>
      <psa30 value="0.0029504076" flag="0"/>
    </comp>
    <comp name="--.HNN">
      <acc value="0.2273522113" flag="0"/>
      <vel value="0.0486574330" flag="0"/>
      <psa03 value="0.2403216930" flag="0"/>
      <psa10 value="0.0413563047" flag="0"/>
      <psa30 value="0.0020458568" flag="0"/>
    </comp>
    <comp name="--.HNZ">
      <acc value="0.3385992123" flag="0"/>
      <vel value="0.0545651276" flag="0"/>
      <psa03 value="0.2975800230" flag="0"/>
      <psa10 value="0.0200197992" flag="0"/>
      <psa30 value="0.0013988154" flag="0"/>
    </comp>
  </station>
  <station code="AMGA" name="AMGA" netid="HL" insttype="SMART24" lat="36.8316" lon="25.8938">
    <comp name="--.HHN">
      <acc value="0.4105077531" flag="0"/>
      <vel value="0.0797860091" flag="0"/>
      <psa03 value="0.3494998615" flag="0"/>
      <psa10 value="0.0528407536" flag="0"/>
      <psa30 value="0.0044866946" flag="0"/>
    </comp>
    <comp name="--.HHE">
      <acc value="0.4417184800" flag="0"/>
      <vel value="0.0925490086" flag="0"/>
      <psa03 value="0.3337339147" flag="0"/>
      <psa10 value="0.0401002873" flag="0"/>
      <psa30 value="0.0029900610" flag="0"/>
    </comp>
    <comp name="--.HHZ">
      <acc value="0.3746183905" flag="0"/>
      <vel value="0.0809033323" flag="0"/>
      <psa03 value="0.1993498324" flag="0"/>
      <psa10 value="0.0271019249" flag="0"/>
      <psa30 value="0.0033930144" flag="0"/>
    </comp>
  </station>
  <station code="MHLO" name="MHLO" netid="HL" insttype="20" lat="36.6898" lon="24.4017">
    <comp name="--.HHE">
      <acc value="0.0431037224" flag="0"/>
      <vel value="0.0257474817" flag="0"/>
      <psa03 value="0.1045636640" flag="0"/>
      <psa10 value="0.0372371327" flag="0"/>
      <psa30 value="0.0016433734" flag="0"/>
    </comp>
    <comp name="--.HHN">
      <acc value="0.0355953121" flag="0"/>
      <vel value="0.0188431713" flag="0"/>
      <psa03 value="0.0978619824" flag="0"/>
      <psa10 value="0.0300841305" flag="0"/>
      <psa30 value="0.0014237209" flag="0"/>
    </comp>
    <comp name="--.HHZ">
      <acc value="0.0140450591" flag="0"/>
      <vel value="0.0113977281" flag="0"/>
      <psa03 value="0.0366594776" flag="0"/>
      <psa10 value="0.0266369236" flag="0"/>
      <psa30 value="0.0014115671" flag="0"/>
    </comp>
  </station>
  <station code="MILA" name="MILA" netid="HL" insttype="CMG-5" lat="36.7429" lon="24.4282">
    <comp name="00.HNE">
      <acc value="0.0536070751" flag="0"/>
      <vel value="0.0219580397" flag="0"/>
      <psa03 value="0.0896667272" flag="0"/>
      <psa10 value="0.0137224341" flag="0"/>
      <psa30 value="0.0015066844" flag="0"/>
    </comp>
    <comp name="00.HNZ">
      <acc value="0.0352211932" flag="0"/>
      <vel value="0.0163662481" flag="0"/>
      <psa03 value="0.0498660591" flag="0"/>
      <psa10 value="0.0171751638" flag="0"/>
      <psa30 value="0.0008978776" flag="0"/>
    </comp>
    <comp name="00.HNN">
      <acc value="0.0508395852" flag="0"/>
      <vel value="0.0232506221" flag="0"/>
      <psa03 value="0.0846921352" flag="0"/>
      <psa10 value="0.0235458247" flag="0"/>
      <psa30 value="0.0010862799" flag="0"/>
    </comp>
  </station>
  <station code="SANT" name="SANT" netid="HL" insttype="30" lat="36.3705" lon="25.4593">
    <comp name="--.HHE">
      <acc value="0.6910003452" flag="0"/>
      <vel value="0.1078428103" flag="0"/>
      <psa03 value="0.3098070417" flag="0"/>
      <psa10 value="0.0224011934" flag="0"/>
      <psa30 value="0.0019311415" flag="0"/>
    </comp>
    <comp name="--.HHZ">
      <acc value="0.3743659467" flag="0"/>
      <vel value="0.0497736033" flag="0"/>
      <psa03 value="0.1057113836" flag="0"/>
      <psa10 value="0.0087959064" flag="0"/>
      <psa30 value="0.0009655490" flag="0"/>
    </comp>
    <comp name="--.HHN">
      <acc value="0.4370264990" flag="0"/>
      <vel value="0.0452275109" flag="0"/>
      <psa03 value="0.1053692097" flag="0"/>
      <psa10 value="0.0121697767" flag="0"/>
      <psa30 value="0.0014095328" flag="0"/>
    </comp>
  </station>
  <station code="SAP3" name="SAP3" netid="HL" insttype="65535" lat="36.4356" lon="25.3454">
    <comp name="--.HHE">
      <acc value="0.1016943365" flag="0"/>
      <vel value="0.0250771112" flag="0"/>
      <psa03 value="0.0755130717" flag="0"/>
      <psa10 value="0.0203942019" flag="0"/>
      <psa30 value="0.0036647269" flag="0"/>
    </comp>
    <comp name="--.HHZ">
      <acc value="0.1044753354" flag="0"/>
      <vel value="0.0215434931" flag="0"/>
      <psa03 value="0.0716077026" flag="0"/>
      <psa10 value="0.0099396165" flag="0"/>
      <psa30 value="0.0009272682" flag="0"/>
    </comp>
    <comp name="--.HHN">
      <acc value="0.0754651428" flag="0"/>
      <vel value="0.0239351535" flag="0"/>
      <psa03 value="0.0849468875" flag="0"/>
      <psa10 value="0.0157530269" flag="0"/>
      <psa30 value="0.0023343382" flag="0"/>
    </comp>
  </station>
  <station code="THERA" name="THERA" netid="HL" insttype="120" lat="36.367" lon="25.4753">
    <comp name="--.HHE">
      <acc value="0.1767678163" flag="0"/>
      <vel value="0.0329196734" flag="0"/>
      <psa03 value="0.1318642810" flag="0"/>
      <psa10 value="0.0121330054" flag="0"/>
      <psa30 value="0.0015126395" flag="0"/>
    </comp>
    <comp name="--.HHN">
      <acc value="0.2814610915" flag="0"/>
      <vel value="0.0531018494" flag="0"/>
      <psa03 value="0.1938720948" flag="0"/>
      <psa10 value="0.0143110993" flag="0"/>
      <psa30 value="0.0011579764" flag="0"/>
    </comp>
    <comp name="--.HHZ">
      <acc value="0.1183683299" flag="0"/>
      <vel value="0.0274319896" flag="0"/>
      <psa03 value="0.0733026779" flag="0"/>
      <psa10 value="0.0057964925" flag="0"/>
      <psa30 value="0.0009287904" flag="0"/>
    </comp>
  </station>
  <station code="THRA" name="THRA" netid="HL" insttype="CMG-5" lat="36.415" lon="25.4324">
    <comp name="00.HNE">
      <acc value="0.2379147649" flag="0"/>
      <vel value="0.0668742323" flag="0"/>
      <psa03 value="0.3559748890" flag="0"/>
      <psa10 value="0.0597612532" flag="0"/>
      <psa30 value="0.0048133726" flag="0"/>
    </comp>
    <comp name="00.HNZ">
      <acc value="0.2136493425" flag="0"/>
      <vel value="0.0615671938" flag="0"/>
      <psa03 value="0.2199573363" flag="0"/>
      <psa10 value="0.0235171491" flag="0"/>
      <psa30 value="0.0018390062" flag="0"/>
    </comp>
    <comp name="00.HNN">
      <acc value="0.2123376043" flag="0"/>
      <vel value="0.0669734222" flag="0"/>
      <psa03 value="0.3686305749" flag="0"/>
      <psa10 value="0.0470264603" flag="0"/>
      <psa30 value="0.0027916853" flag="0"/>
    </comp>
  </station>
  <station code="TNSA" name="TNSA" netid="HL" insttype="CMG-5" lat="37.5394" lon="25.1631">
    <comp name="00.HNE">
      <acc value="0.0351028249" flag="0"/>
      <vel value="0.0076399093" flag="0"/>
      <psa03 value="0.0372300203" flag="0"/>
      <psa10 value="0.0038870647" flag="0"/>
      <psa30 value="0.0003603616" flag="0"/>
    </comp>
    <comp name="00.HNN">
      <acc value="0.0341875857" flag="0"/>
      <vel value="0.0128880762" flag="0"/>
      <psa03 value="0.0705892531" flag="0"/>
      <psa10 value="0.0076745721" flag="0"/>
      <psa30 value="0.0005227587" flag="0"/>
    </comp>
    <comp name="00.HNZ">
      <acc value="0.0252586350" flag="0"/>
      <vel value="0.0081931973" flag="0"/>
      <psa03 value="0.0528812401" flag="0"/>
      <psa10 value="0.0057317456" flag="0"/>
      <psa30 value="0.0006872056" flag="0"/>
    </comp>
  </station>
  <station code="AKRO" name="AKRO" netid="HT" insttype="Compact," lat="36.3584" lon="25.3967">
    <comp name="--.HHE">
      <acc value="0.3623470137" flag="0"/>
      <vel value="0.0858692308" flag="0"/>
      <psa03 value="0.3460075347" flag="0"/>
      <psa10 value="0.0247759410" flag="0"/>
      <psa30 value="0.0021298073" flag="0"/>
    </comp>
    <comp name="--.HHN">
      <acc value="0.3321402506" flag="0"/>
      <vel value="0.0643075450" flag="0"/>
      <psa03 value="0.2131972024" flag="0"/>
      <psa10 value="0.0264064684" flag="0"/>
      <psa30 value="0.0020119376" flag="0"/>
    </comp>
    <comp name="--.HHZ">
      <acc value="0.2763272403" flag="0"/>
      <vel value="0.0414488917" flag="0"/>
      <psa03 value="0.1553974130" flag="0"/>
      <psa10 value="0.0131970865" flag="0"/>
      <psa30 value="0.0012222231" flag="0"/>
    </comp>
  </station>
</stationlist>
