<?xml version="1.0" encoding="UTF-8" standalone="yes"?>
<!DOCTYPE earthquake SYSTEM "stationlist.dtd">
<stationlist created="" xmlns="ch.ethz.sed.shakemap.usgs.xml">
  <station code="KARP" name="KARP" netid="GE" insttype="STS-2/N" lat="35.5471" lon="27.1611">
    <comp name="--.HHE">
      <acc value="0.0296851799" flag="0"/>
      <vel value="0.0200322123" flag="0"/>
      <psa03 value="0.0727360959" flag="0"/>
      <psa10 value="0.0260715808" flag="0"/>
      <psa30 value="0.0019015697" flag="0"/>
    </comp>
    <comp name="--.HHZ">
      <acc value="0.0262611718" flag="0"/>
      <vel value="0.0138831627" flag="0"/>
      <psa03 value="0.0879602916" flag="0"/>
      <psa10 value="0.0101488631" flag="0"/>
      <psa30 value="0.0012834025" flag="0"/>
    </comp>
    <comp name="--.HHN">
      <acc value="0.0319615262" flag="0"/>
      <vel value="0.0204962892" flag="0"/>
      <psa03 value="0.0591398819" flag="0"/>
      <psa10 value="0.0433171718" flag="0"/>
      <psa30 value="0.0019831262" flag="0"/>
    </comp>
  </station>
  <station code="ZKR" name="ZKR" netid="GE" insttype="STS-2/N" lat="35.1147" lon="26.2169">
    <comp name="--.HHZ">
      <acc value="0.3941455352" flag="0"/>
      <vel value="0.0665269042" flag="0"/>
      <psa03 value="0.3271212030" flag="0"/>
      <psa10 value="0.0593067290" flag="0"/>
      <psa30 value="0.0039892774" flag="0"/>
    </comp>
    <comp name="--.HHE">
      <acc value="0.5455395516" flag="0"/>
      <vel value="0.1407510236" flag="0"/>
      <psa03 value="1.2315727326" flag="0"/>
      <psa10 value="0.1049817401" flag="0"/>
      <psa30 value="0.0049890301" flag="0"/>
    </comp>
    <comp name="--.HHN">
      <acc value="0.2167077899" flag="0"/>
      <vel value="0.0631534852" flag="0"/>
      <psa03 value="0.2869288499" flag="0"/>
      <psa10 value="0.0222532004" flag="0"/>
      <psa30 value="0.0021032550" flag="0"/>
    </comp>
  </station>
  <station code="SIT2" name="SIT2" netid="HI" insttype="CMG-5TD,ACCELEROMETER,GURALP" lat="35.2059" lon="26.107">
    <comp name="--.HNE">
      <acc value="0.7668685262" flag="0"/>
      <vel value="0.3266692043" flag="0"/>
      <psa03 value="2.4147080953" flag="0"/>
      <psa10 value="0.2219646206" flag="0"/>
      <psa30 value="0.0148964384" flag="0"/>
    </comp>
    <comp name="--.HNN">
      <acc value="0.5220243064" flag="0"/>
      <vel value="0.3396584512" flag="0"/>
      <psa03 value="1.2950975665" flag="0"/>
      <psa10 value="0.2469962366" flag="0"/>
      <psa30 value="0.0138100050" flag="0"/>
    </comp>
    <comp name="--.HNZ">
      <acc value="0.5681940561" flag="0"/>
      <vel value="0.2272843076" flag="0"/>
      <psa03 value="1.1928200757" flag="0"/>
      <psa10 value="0.0555200036" flag="0"/>
      <psa30 value="0.0053080231" flag="0"/>
    </comp>
  </station>
  <station code="IACM" name="IACM" netid="HL" insttype="120" lat="35.3058" lon="25.0709">
    <comp name="--.HHE">
      <acc value="0.1130611997" flag="0"/>
      <vel value="0.0861372989" flag="0"/>
      <psa03 value="0.3119219284" flag="0"/>
      <psa10 value="0.1592799957" flag="0"/>
      <psa30 value="0.0074176571" flag="0"/>
    </comp>
    <comp name="--.HHN">
      <acc value="0.1212098704" flag="0"/>
      <vel value="0.0864330976" flag="0"/>
      <psa03 value="0.3562224797" flag="0"/>
      <psa10 value="0.1367852448" flag="0"/>
      <psa30 value="0.0064205432" flag="0"/>
    </comp>
    <comp name="--.HHZ">
      <acc value="0.0803990337" flag="0"/>
      <vel value="0.0584002589" flag="0"/>
      <psa03 value="0.1776675372" flag="0"/>
      <psa10 value="0.0640576956" flag="0"/>
      <psa30 value="0.0032501864" flag="0"/>
    </comp>
  </station>
  <station code="IDI" name="IDI" netid="HL" insttype="120" lat="35.288" lon="24.89">
    <comp name="--.HHZ">
      <acc value="0.0114698301" flag="0"/>
      <vel value="0.0081665261" flag="0"/>
      <psa03 value="0.0342940124" flag="0"/>
      <psa10 value="0.0091051464" flag="0"/>
      <psa30 value="0.0012499081" flag="0"/>
    </comp>
    <comp name="--.HHE">
      <acc value="0.0174844788" flag="0"/>
      <vel value="0.0092788645" flag="0"/>
      <psa03 value="0.0534299137" flag="0"/>
      <psa10 value="0.0159889643" flag="0"/>
      <psa30 value="0.0007558267" flag="0"/>
    </comp>
    <comp name="--.HHN">
      <acc value="0.0189123500" flag="0"/>
      <vel value="0.0129871191" flag="0"/>
      <psa03 value="0.0427597569" flag="0"/>
      <psa10 value="0.0213393189" flag="0"/>
      <psa30 value="0.0015236714" flag="0"/>
    </comp>
  </station>
  <station code="KARP" name="KARP" netid="HL" insttype="120" lat="35.5471" lon="27.1611">
    <comp name="--.HHE">
      <acc value="0.0283666780" flag="0"/>
      <vel value="0.0196388297" flag="0"/>
      <psa03 value="0.0704776836" flag="0"/>
      <psa10 value="0.0259178625" flag="0"/>
      <psa30 value="0.0018977732" flag="0"/>
    </comp>
    <comp name="--.HHN">
      <acc value="0.0307076207" flag="0"/>
      <vel value="0.0202619470" flag="0"/>
      <psa03 value="0.0579693337" flag="0"/>
      <psa10 value="0.0430458129" flag="0"/>
      <psa30 value="0.0019761747" flag="0"/>
    </comp>
    <comp name="--.HHZ">
      <acc value="0.0248249250" flag="0"/>
      <vel value="0.0136645447" flag="0"/>
      <psa03 value="0.0853326510" flag="0"/>
      <psa10 value="0.0100895559" flag="0"/>
      <psa30 value="0.0012789403" flag="0"/>
    </comp>
  </station>
  <station code="NPS" name="NPS" netid="HL" insttype="CMG3ESPC-120s" lat="35.2613" lon="25.6104">
    <comp name="--.HHE">
      <acc value="0.1066728722" flag="0"/>
      <vel value="0.0437063679" flag="0"/>
      <psa03 value="0.2108683942" flag="0"/>
      <psa10 value="0.0268927230" flag="0"/>
      <psa30 value="0.0017235717" flag="0"/>
    </comp>
    <comp name="--.HHN">
      <acc value="0.1338995173" flag="0"/>
      <vel value="0.0555492197" flag="0"/>
      <psa03 value="0.3021149501" flag="0"/>
      <psa10 value="0.0744171393" flag="0"/>
      <psa30 value="0.0040083681" flag="0"/>
    </comp>
    <comp name="--.HHZ">
      <acc value="0.0805679465" flag="0"/>
      <vel value="0.0326605890" flag="0"/>
      <psa03 value="0.1629046934" flag="0"/>
      <psa10 value="0.0151571046" flag="0"/>
      <psa30 value="0.0025192117" flag="0"/>
    </comp>
  </station>
  <station code="ZKR" name="ZKR" netid="HL" insttype="120" lat="35.1147" lon="26.2169">
    <comp name="--.HHE">
      <acc value="0.5338160161" flag="0"/>
      <vel value="0.1377619328" flag="0"/>
      <psa03 value="1.1955241419" flag="0"/>
      <psa10 value="0.1039901911" flag="0"/>
      <psa30 value="0.0049640164" flag="0"/>
    </comp>
    <comp name="--.HHZ">
      <acc value="0.4131909360" flag="0"/>
      <vel value="0.0645927594" flag="0"/>
      <psa03 value="0.3184686555" flag="0"/>
      <psa10 value="0.0589244421" flag="0"/>
      <psa30 value="0.0039592480" flag="0"/>
    </comp>
    <comp name="--.HHN">
      <acc value="0.2111597324" flag="0"/>
      <vel value="0.0616108669" flag="0"/>
      <psa03 value="0.2787925407" flag="0"/>
      <psa10 value="0.0221206753" flag="0"/>
      <psa30 value="0.0020910741" flag="0"/>
    </comp>
  </station>
  <station code="IDI" name="IDI" netid="MN" insttype="" lat="35.288" lon="24.89">
    <comp name="--.HHE">
      <acc value="0.0177328105" flag="0"/>
      <vel value="0.0092700595" flag="0"/>
      <psa03 value="0.0544712106" flag="0"/>
      <psa10 value="0.0158947202" flag="0"/>
      <psa30 value="0.0007488955" flag="0"/>
    </comp>
    <comp name="--.HHN">
      <acc value="0.0190485987" flag="0"/>
      <vel value="0.0129492784" flag="0"/>
      <psa03 value="0.0433639984" flag="0"/>
      <psa10 value="0.0211827752" flag="0"/>
      <psa30 value="0.0015063527" flag="0"/>
    </comp>
    <comp name="--.HHZ">
      <acc value="0.0116746380" flag="0"/>
      <vel value="0.0081642963" flag="0"/>
      <psa03 value="0.0345326609" flag="0"/>
      <psa10 value="0.0090365775" flag="0"/>
      <psa30 value="0.0012366665" flag="0"/>
    </comp>
  </station>
</stationlist>
