<stationlist created="1778069346">
	<station code="IMMV" name="IMMV" netid="GE" source="GEOFON" insttype="" lat="35.4606" lon="23.9811">
		<comp name="--.HNE" depth="0.0">
			<acc value="0.00861185077202571" flag="0"/>
			<vel value="0.00738320114803746" flag="0"/>
			<psa03 value="0.0301115050540969" flag="0"/>
			<psa10 value="0.0112911432621871" flag="0"/>
			<psa30 value="0.000907371950218551" flag="0"/>
		</comp>
		<comp name="--.HNN" depth="0.0">
			<acc value="0.00772064605504033" flag="0"/>
			<vel value="0.00550055170759753" flag="0"/>
			<psa03 value="0.0224158455157542" flag="0"/>
			<psa10 value="0.00836366068315354" flag="0"/>
			<psa30 value="0.0014858886817928" flag="0"/>
		</comp>
		<comp name="--.HNZ" depth="0.0">
			<acc value="0.00551029684283809" flag="0"/>
			<vel value="0.00368716999745034" flag="0"/>
			<psa03 value="0.0194181176723299" flag="0"/>
			<psa10 value="0.0062495914204402" flag="0"/>
			<psa30 value="0.000798648388136151" flag="0"/>
		</comp>
	</station>
	<station code="KARP" name="KARP" netid="GE" source="GEOFON" insttype="" lat="35.5471" lon="27.16106">
		<comp name="--.HNE" depth="0.0">
			<acc value="0.0233188267975747" flag="0"/>
			<vel value="0.0168414549829384" flag="0"/>
			<psa03 value="0.0618784717530698" flag="0"/>
			<psa10 value="0.0212333089948332" flag="0"/>
			<psa30 value="0.00176194809662754" flag="0"/>
		</comp>
		<comp name="--.HNN" depth="0.0">
			<acc value="0.02439311220023" flag="0"/>
			<vel value="0.0176513905421976" flag="0"/>
			<psa03 value="0.0570463134382965" flag="0"/>
			<psa10 value="0.0388908208367342" flag="0"/>
			<psa30 value="0.0018796201000336" flag="0"/>
		</comp>
		<comp name="--.HNZ" depth="0.0">
			<acc value="0.0209514048665753" flag="0"/>
			<vel value="0.0112672297241265" flag="0"/>
			<psa03 value="0.070961139696579" flag="0"/>
			<psa10 value="0.00811802596881923" flag="0"/>
			<psa30 value="0.00116419221620743" flag="0"/>
		</comp>
	</station>
	<station code="KSS1" name="KSS1" netid="HI" source="ITSAK Strong Motion Network" insttype="" lat="35.4189" lon="26.9207">
		<comp name="--.HNE" depth="0.0">
			<acc value="0.0283139844037041" flag="0"/>
			<vel value="0.0145373209536853" flag="0"/>
			<psa03 value="0.0883658580710867" flag="0"/>
			<psa10 value="0.0168883933101329" flag="0"/>
			<psa30 value="0.00117000870306781" flag="0"/>
		</comp>
		<comp name="--.HNN" depth="0.0">
			<acc value="0.0299399702982984" flag="0"/>
			<vel value="0.016781707818798" flag="0"/>
			<psa03 value="0.145546398129238" flag="0"/>
			<psa10 value="0.0120642885925508" flag="0"/>
			<psa30 value="0.00167738532611901" flag="0"/>
		</comp>
		<comp name="--.HNZ" depth="0.0">
			<acc value="0.0185113031086844" flag="0"/>
			<vel value="0.0071710059511449" flag="0"/>
			<psa03 value="0.0277401681033285" flag="0"/>
			<psa10 value="0.0101233716694502" flag="0"/>
			<psa30 value="0.00120938184489189" flag="0"/>
		</comp>
	</station>
	<station code="SIT2" name="SIT2" netid="HI" source="ITSAK Strong Motion Network" insttype="" lat="35.2059" lon="26.107">
		<comp name="--.HNE" depth="0.0">
			<acc value="0.770228638251902" flag="0"/>
			<vel value="0.329836403898638" flag="0"/>
			<psa03 value="2.42574347401622" flag="0"/>
			<psa10 value="0.222561158381269" flag="0"/>
			<psa30 value="0.0156459022323434" flag="0"/>
		</comp>
		<comp name="--.HNN" depth="0.0">
			<acc value="0.522434654091456" flag="0"/>
			<vel value="0.340132848655805" flag="0"/>
			<psa03 value="1.27707680350533" flag="0"/>
			<psa10 value="0.247535363271456" flag="0"/>
			<psa30 value="0.0141738836346023" flag="0"/>
		</comp>
		<comp name="--.HNZ" depth="0.0">
			<acc value="0.571779328538246" flag="0"/>
			<vel value="0.229917141434781" flag="0"/>
			<psa03 value="1.22119378743911" flag="0"/>
			<psa10 value="0.0555939814114674" flag="0"/>
			<psa30 value="0.00547913062247356" flag="0"/>
		</comp>
	</station>
	<station code="CHNB" name="CHNB" netid="HL" source="National Observatory of Athens Seismic Network" insttype="" lat="35.48765" lon="24.06605">
		<comp name="00.HNE" depth="0.0">
			<acc value="0.01822029123073" flag="0"/>
			<vel value="0.0146941304000603" flag="0"/>
			<psa03 value="0.0672685551701747" flag="0"/>
			<psa10 value="0.0259586552585089" flag="0"/>
			<psa30 value="0.0014921670779103" flag="0"/>
		</comp>
		<comp name="00.HNN" depth="0.0">
			<acc value="0.0162909615326289" flag="0"/>
			<vel value="0.0169354285002145" flag="0"/>
			<psa03 value="0.046301181809563" flag="0"/>
			<psa10 value="0.0405045882301233" flag="0"/>
			<psa30 value="0.00234110133647514" flag="0"/>
		</comp>
		<comp name="00.HNZ" depth="0.0">
			<acc value="0.0205946693619349" flag="0"/>
			<vel value="0.0066067954202151" flag="0"/>
			<psa03 value="0.0296387993624776" flag="0"/>
			<psa10 value="0.00712651881563412" flag="0"/>
			<psa30 value="0.000702188651970744" flag="0"/>
		</comp>
	</station>
	<station code="HERG" name="HERG" netid="HL" source="National Observatory of Athens Seismic Network" insttype="" lat="35.32622" lon="25.06586">
		<comp name="00.HNE" depth="0.0">
			<acc value="0.0648401057609767" flag="0"/>
			<vel value="0.0624187018530482" flag="0"/>
			<psa03 value="0.168222904358286" flag="0"/>
			<psa10 value="0.114653285217464" flag="0"/>
			<psa30 value="0.00864671613585635" flag="0"/>
		</comp>
		<comp name="00.HNN" depth="0.0">
			<acc value="0.0561704012856781" flag="0"/>
			<vel value="0.0902802414690134" flag="0"/>
			<psa03 value="0.194413441436331" flag="0"/>
			<psa10 value="0.14274528617481" flag="0"/>
			<psa30 value="0.00952005732376392" flag="0"/>
		</comp>
		<comp name="00.HNZ" depth="0.0">
			<acc value="0.0560968982588602" flag="0"/>
			<vel value="0.0553146239264912" flag="0"/>
			<psa03 value="0.155950205935995" flag="0"/>
			<psa10 value="0.0456929331827729" flag="0"/>
			<psa30 value="0.00275193126027395" flag="0"/>
		</comp>
	</station>
	<station code="IACM" name="IACM" netid="HL" source="National Observatory of Athens Seismic Network" insttype="" lat="35.3058" lon="25.0709">
		<comp name="--.HNE" depth="0.0">
			<acc value="0.111316763695745" flag="0"/>
			<vel value="0.0869364772316783" flag="0"/>
			<psa03 value="0.302502058946135" flag="0"/>
			<psa10 value="0.158317613586357" flag="0"/>
			<psa30 value="0.00740841457185344" flag="0"/>
		</comp>
		<comp name="--.HNN" depth="0.0">
			<acc value="0.123056069243868" flag="0"/>
			<vel value="0.0892380409167668" flag="0"/>
			<psa03 value="0.383440710718589" flag="0"/>
			<psa10 value="0.138425228523874" flag="0"/>
			<psa30 value="0.006378896397567" flag="0"/>
		</comp>
		<comp name="--.HNZ" depth="0.0">
			<acc value="0.0798206668348606" flag="0"/>
			<vel value="0.0582859816535187" flag="0"/>
			<psa03 value="0.183398304928296" flag="0"/>
			<psa10 value="0.0633133543193178" flag="0"/>
			<psa30 value="0.00333374181512743" flag="0"/>
		</comp>
	</station>
	<station code="IMMV" name="IMMV" netid="HL" source="National Observatory of Athens Seismic Network" insttype="" lat="35.4606" lon="23.9811">
		<comp name="--.HNE" depth="0.0">
			<acc value="0.00843544950898196" flag="0"/>
			<vel value="0.0071630484360944" flag="0"/>
			<psa03 value="0.0294851141614411" flag="0"/>
			<psa10 value="0.0110616157422353" flag="0"/>
			<psa30 value="0.00088902764550506" flag="0"/>
		</comp>
		<comp name="--.HNN" depth="0.0">
			<acc value="0.00756269814928755" flag="0"/>
			<vel value="0.00539827748620111" flag="0"/>
			<psa03 value="0.0219684234495714" flag="0"/>
			<psa10 value="0.00819050834354083" flag="0"/>
			<psa30 value="0.00145546398129238" flag="0"/>
		</comp>
		<comp name="--.HNZ" depth="0.0">
			<acc value="0.00540319502621962" flag="0"/>
			<vel value="0.00355182102381786" flag="0"/>
			<psa03 value="0.0190154378127655" flag="0"/>
			<psa10 value="0.00612476066397522" flag="0"/>
			<psa30 value="0.000782541193753573" flag="0"/>
		</comp>
	</station>
	<station code="KARP" name="KARP" netid="HL" source="National Observatory of Athens Seismic Network" insttype="" lat="35.5471" lon="27.16106">
		<comp name="--.HNE" depth="0.0">
			<acc value="0.02296814618593" flag="0"/>
			<vel value="0.0168104543375895" flag="0"/>
			<psa03 value="0.06058094776114" flag="0"/>
			<psa10 value="0.0208024415450993" flag="0"/>
			<psa30 value="0.00162279983404472" flag="0"/>
		</comp>
		<comp name="--.HNN" depth="0.0">
			<acc value="0.0239428965051255" flag="0"/>
			<vel value="0.017133990203071" flag="0"/>
			<psa03 value="0.0558830160662214" flag="0"/>
			<psa10 value="0.0380814343190096" flag="0"/>
			<psa30 value="0.00175389449943625" flag="0"/>
		</comp>
		<comp name="--.HNZ" depth="0.0">
			<acc value="0.0205733034014934" flag="0"/>
			<vel value="0.0111401769823357" flag="0"/>
			<psa03 value="0.0695293890847943" flag="0"/>
			<psa10 value="0.00795292722639781" flag="0"/>
			<psa30 value="0.00108141913396363" flag="0"/>
		</comp>
	</station>
</stationlist>
