<stationlist xmlns:esm="https://esm-db.eu/esmws/shakemap/1/" created="1783994301">
	<station code="IMMV" name="IMMV" netid="GE" source="GEOFON" insttype="" lat="35.4606" lon="23.9811" esm:processing="automatic (Paolucci et al 2011)" esm:quality="good">
		<comp name="--.HNE" depth="0.0">
			<acc value="0.00861185077202571" flag="0"/>
			<vel value="0.00738320114803746" flag="0"/>
			<psa03 value="0.0301115050540969" flag="0"/>
			<psa10 value="0.0112911432621871" flag="0"/>
			<psa30 value="0.000907371950218551" flag="0"/>
		</comp>
		<comp name="--.HNN" depth="0.0">
			<acc value="0.00772064605504033" flag="0"/>
			<vel value="0.00550055170759753" flag="0"/>
			<psa03 value="0.0224158455157542" flag="0"/>
			<psa10 value="0.00836366068315354" flag="0"/>
			<psa30 value="0.0014858886817928" flag="0"/>
		</comp>
		<comp name="--.HNZ" depth="0.0">
			<acc value="0.00551029684283809" flag="0"/>
			<vel value="0.00368716999745034" flag="0"/>
			<psa03 value="0.0194181176723299" flag="0"/>
			<psa10 value="0.0062495914204402" flag="0"/>
			<psa30 value="0.000798648388136151" flag="0"/>
		</comp>
	</station>
	<station code="AGN1" name="AGN1" netid="HI" source="ITSAK Strong Motion Network" insttype="" lat="35.1879" lon="25.7155" esm:processing="automatic (Paolucci et al 2011)" esm:quality="best">
		<comp name="--.HNE" depth="0.0">
			<acc value="0.183133936769286" flag="0"/>
			<vel value="0.0861972269887489" flag="0"/>
			<psa03 value="0.482810150469626" flag="0"/>
			<psa10 value="0.0693466613759804" flag="0"/>
			<psa30 value="0.00544110377975519" flag="0"/>
		</comp>
		<comp name="--.HNN" depth="0.0">
			<acc value="0.245711859041402" flag="0"/>
			<vel value="0.0880698722715568" flag="0"/>
			<psa03 value="0.731914652420339" flag="0"/>
			<psa10 value="0.0450891919376796" flag="0"/>
			<psa30 value="0.00485874978499441" flag="0"/>
		</comp>
		<comp name="--.HNZ" depth="0.0">
			<acc value="0.0861234378009612" flag="0"/>
			<vel value="0.033658612182064" flag="0"/>
			<psa03 value="0.207327109403489" flag="0"/>
			<psa10 value="0.0176948009437209" flag="0"/>
			<psa30 value="0.00537266549605477" flag="0"/>
		</comp>
	</station>
	<station code="ARK1" name="ARK1" netid="HI" source="ITSAK Strong Motion Network" insttype="" lat="35.148777" lon="25.264194" esm:processing="automatic (Paolucci et al 2011)" esm:quality="best">
		<comp name="--.HNE" depth="0.0">
			<acc value="0.0509200576673597" flag="0"/>
			<vel value="0.0313078820765998" flag="0"/>
			<psa03 value="0.196235437134637" flag="0"/>
			<psa10 value="0.0433370458666015" flag="0"/>
			<psa30 value="0.00409691556721637" flag="0"/>
		</comp>
		<comp name="--.HNN" depth="0.0">
			<acc value="0.0566534523981843" flag="0"/>
			<vel value="0.0340967464819018" flag="0"/>
			<psa03 value="0.223836890595467" flag="0"/>
			<psa10 value="0.0485496924288539" flag="0"/>
			<psa30 value="0.00539026249510293" flag="0"/>
		</comp>
		<comp name="--.HNZ" depth="0.0">
			<acc value="0.0359616170043636" flag="0"/>
			<vel value="0.02012632263541" flag="0"/>
			<psa03 value="0.114523701216486" flag="0"/>
			<psa10 value="0.0243831402633762" flag="0"/>
			<psa30 value="0.00315471815126163" flag="0"/>
		</comp>
	</station>
	<station code="GOR1" name="GOR1" netid="HI" source="ITSAK Strong Motion Network" insttype="" lat="35.0582" lon="24.9628" esm:processing="manual (Paolucci et al 2011)" esm:quality="good">
		<comp name="--.HNE" depth="0.0">
			<acc value="0.0260870220118915" flag="0"/>
			<vel value="0.0208913936591314" flag="0"/>
			<psa03 value="0.0670689534056724" flag="0"/>
			<psa10 value="0.0358835996123667" flag="0"/>
			<psa30 value="0.00335810308284852" flag="0"/>
		</comp>
		<comp name="--.HNN" depth="0.0">
			<acc value="0.0183078785815037" flag="0"/>
			<vel value="0.0195203812828398" flag="0"/>
			<psa03 value="0.0730820027823498" flag="0"/>
			<psa10 value="0.0402091886614123" flag="0"/>
			<psa30 value="0.00450274703489272" flag="0"/>
		</comp>
		<comp name="--.HNZ" depth="0.0">
			<acc value="0.0140629710229512" flag="0"/>
			<vel value="0.0142219376055191" flag="0"/>
			<psa03 value="0.0405371801809075" flag="0"/>
			<psa10 value="0.0186291172125884" flag="0"/>
			<psa30 value="0.00297380804185475" flag="0"/>
		</comp>
	</station>
	<station code="HER1" name="HER1" netid="HI" source="ITSAK Strong Motion Network" insttype="" lat="35.317672" lon="25.10217" esm:processing="automatic (Paolucci et al 2011)" esm:quality="best">
		<comp name="--.HNE" depth="0.0">
			<acc value="0.0800332054974545" flag="0"/>
			<vel value="0.0844959756439034" flag="0"/>
			<psa03 value="0.270262820252127" flag="0"/>
			<psa10 value="0.18252397631765" flag="0"/>
			<psa30 value="0.00771967639067467" flag="0"/>
		</comp>
		<comp name="--.HNN" depth="0.0">
			<acc value="0.0995949225757083" flag="0"/>
			<vel value="0.117588838314271" flag="0"/>
			<psa03 value="0.252970549724071" flag="0"/>
			<psa10 value="0.209158465721858" flag="0"/>
			<psa30 value="0.0101548777108108" flag="0"/>
		</comp>
		<comp name="--.HNZ" depth="0.0">
			<acc value="0.0800141592418962" flag="0"/>
			<vel value="0.0883066255865414" flag="0"/>
			<psa03 value="0.231458082962059" flag="0"/>
			<psa10 value="0.140921255341561" flag="0"/>
			<psa30 value="0.0050862440220378" flag="0"/>
		</comp>
	</station>
	<station code="HER2" name="HER2" netid="HI" source="ITSAK Strong Motion Network" insttype="" lat="35.337866" lon="25.135624" esm:processing="manual (Paolucci et al 2011)" esm:quality="good">
		<comp name="--.HNE" depth="0.0">
			<acc value="0.0690162709209351" flag="0"/>
			<vel value="0.0581137891523294" flag="0"/>
			<psa03 value="0.172598985919079" flag="0"/>
			<psa10 value="0.0653556319898705" flag="0"/>
			<psa30 value="0.00386777872135822" flag="0"/>
		</comp>
		<comp name="--.HNN" depth="0.0">
			<acc value="0.0634948573215505" flag="0"/>
			<vel value="0.0510041060411093" flag="0"/>
			<psa03 value="0.218272230297366" flag="0"/>
			<psa10 value="0.0590392460603019" flag="0"/>
			<psa30 value="0.00496860039539157" flag="0"/>
		</comp>
		<comp name="--.HNZ" depth="0.0">
			<acc value="0.0658672324793265" flag="0"/>
			<vel value="0.0295262142640765" flag="0"/>
			<psa03 value="0.210530321600577" flag="0"/>
			<psa10 value="0.0222499633258732" flag="0"/>
			<psa30 value="0.00106502357341821" flag="0"/>
		</comp>
	</station>
	<station code="KSS1" name="KSS1" netid="HI" source="ITSAK Strong Motion Network" insttype="" lat="35.4189" lon="26.9207" esm:processing="manual (Paolucci et al 2011)" esm:quality="good">
		<comp name="--.HNE" depth="0.0">
			<acc value="0.0283139844037041" flag="0"/>
			<vel value="0.0145373209536853" flag="0"/>
			<psa03 value="0.0883658580710867" flag="0"/>
			<psa10 value="0.0168883933101329" flag="0"/>
			<psa30 value="0.00117000870306781" flag="0"/>
		</comp>
		<comp name="--.HNN" depth="0.0">
			<acc value="0.0299399702982984" flag="0"/>
			<vel value="0.016781707818798" flag="0"/>
			<psa03 value="0.145546398129238" flag="0"/>
			<psa10 value="0.0120642885925508" flag="0"/>
			<psa30 value="0.00167738532611901" flag="0"/>
		</comp>
		<comp name="--.HNZ" depth="0.0">
			<acc value="0.0185113031086844" flag="0"/>
			<vel value="0.0071710059511449" flag="0"/>
			<psa03 value="0.0277401681033285" flag="0"/>
			<psa10 value="0.0101233716694502" flag="0"/>
			<psa30 value="0.00120938184489189" flag="0"/>
		</comp>
	</station>
	<station code="RKT1" name="RKT1" netid="HI" source="ITSAK Strong Motion Network" insttype="" lat="35.954336" lon="27.767327" esm:processing="automatic (Paolucci et al 2011)" esm:quality="best">
		<comp name="--.HNE" depth="0.0">
			<acc value="0.0121023027572177" flag="0"/>
			<vel value="0.00528596929303543" flag="0"/>
			<psa03 value="0.029950382503352" flag="0"/>
			<psa10 value="0.0074856787019762" flag="0"/>
			<psa30 value="0.000818759655475578" flag="0"/>
		</comp>
		<comp name="--.HNN" depth="0.0">
			<acc value="0.00981804950714115" flag="0"/>
			<vel value="0.00525340240700751" flag="0"/>
			<psa03 value="0.0227889185081756" flag="0"/>
			<psa10 value="0.0058258051497496" flag="0"/>
			<psa30 value="0.000893488043364527" flag="0"/>
		</comp>
		<comp name="--.HNZ" depth="0.0">
			<acc value="0.0181600920429499" flag="0"/>
			<vel value="0.00286180344447581" flag="0"/>
			<psa03 value="0.00948502872722807" flag="0"/>
			<psa10 value="0.00356539493991672" flag="0"/>
			<psa30 value="0.000623138102757771" flag="0"/>
		</comp>
	</station>
	<station code="RTH1" name="RTH1" netid="HI" source="ITSAK Strong Motion Network" insttype="" lat="35.365393" lon="24.471773" esm:processing="manual (Paolucci et al 2011)" esm:quality="good">
		<comp name="--.HNE" depth="0.0">
			<acc value="0.0148096053966222" flag="0"/>
			<vel value="0.00937560028197878" flag="0"/>
			<psa03 value="0.0506802271079869" flag="0"/>
			<psa10 value="0.0129193836582623" flag="0"/>
			<psa30 value="0.00145541214307835" flag="0"/>
		</comp>
		<comp name="--.HNN" depth="0.0">
			<acc value="0.0186979392236283" flag="0"/>
			<vel value="0.0124059993643758" flag="0"/>
			<psa03 value="0.0374155489089892" flag="0"/>
			<psa10 value="0.0135433556183424" flag="0"/>
			<psa30 value="0.00193790337658796" flag="0"/>
		</comp>
		<comp name="--.HNZ" depth="0.0">
			<acc value="0.0111246896480534" flag="0"/>
			<vel value="0.00802217391919365" flag="0"/>
			<psa03 value="0.0289617466985819" flag="0"/>
			<psa10 value="0.00712116721112886" flag="0"/>
			<psa30 value="0.000943235088862146" flag="0"/>
		</comp>
	</station>
	<station code="SIT2" name="SIT2" netid="HI" source="ITSAK Strong Motion Network" insttype="" lat="35.2059" lon="26.107" esm:processing="manual (Paolucci et al 2011)" esm:quality="best">
		<comp name="--.HNE" depth="0.0">
			<acc value="0.770228638251902" flag="0"/>
			<vel value="0.329836403898638" flag="0"/>
			<psa03 value="2.42574347401622" flag="0"/>
			<psa10 value="0.222561158381269" flag="0"/>
			<psa30 value="0.0156459022323434" flag="0"/>
		</comp>
		<comp name="--.HNN" depth="0.0">
			<acc value="0.522434654091456" flag="0"/>
			<vel value="0.340132848655805" flag="0"/>
			<psa03 value="1.27707680350533" flag="0"/>
			<psa10 value="0.247535363271456" flag="0"/>
			<psa30 value="0.0141738836346023" flag="0"/>
		</comp>
		<comp name="--.HNZ" depth="0.0">
			<acc value="0.571779328538246" flag="0"/>
			<vel value="0.229917141434781" flag="0"/>
			<psa03 value="1.22119378743911" flag="0"/>
			<psa10 value="0.0555939814114674" flag="0"/>
			<psa30 value="0.00547913062247356" flag="0"/>
		</comp>
	</station>
	<station code="CHNB" name="CHNB" netid="HL" source="National Observatory of Athens Seismic Network" insttype="" lat="35.48765" lon="24.06605" esm:processing="automatic (Paolucci et al 2011)" esm:quality="good">
		<comp name="00.HNE" depth="0.0">
			<acc value="0.01822029123073" flag="0"/>
			<vel value="0.0146941304000603" flag="0"/>
			<psa03 value="0.0672685551701747" flag="0"/>
			<psa10 value="0.0259586552585089" flag="0"/>
			<psa30 value="0.0014921670779103" flag="0"/>
		</comp>
		<comp name="00.HNN" depth="0.0">
			<acc value="0.0162909615326289" flag="0"/>
			<vel value="0.0169354285002145" flag="0"/>
			<psa03 value="0.046301181809563" flag="0"/>
			<psa10 value="0.0405045882301233" flag="0"/>
			<psa30 value="0.00234110133647514" flag="0"/>
		</comp>
		<comp name="00.HNZ" depth="0.0">
			<acc value="0.0205946693619349" flag="0"/>
			<vel value="0.0066067954202151" flag="0"/>
			<psa03 value="0.0296387993624776" flag="0"/>
			<psa10 value="0.00712651881563412" flag="0"/>
			<psa30 value="0.000702188651970744" flag="0"/>
		</comp>
	</station>
	<station code="HERG" name="HERG" netid="HL" source="National Observatory of Athens Seismic Network" insttype="" lat="35.32622" lon="25.06586" esm:processing="manual (Paolucci et al 2011)" esm:quality="good">
		<comp name="00.HNE" depth="0.0">
			<acc value="0.0646372840289719" flag="0"/>
			<vel value="0.0624593151835249" flag="0"/>
			<psa03 value="0.168127710552363" flag="0"/>
			<psa10 value="0.11521486241919" flag="0"/>
			<psa30 value="0.00823201033028377" flag="0"/>
		</comp>
		<comp name="00.HNN" depth="0.0">
			<acc value="0.0561044780596711" flag="0"/>
			<vel value="0.0903360480018367" flag="0"/>
			<psa03 value="0.194517427491596" flag="0"/>
			<psa10 value="0.142654770178411" flag="0"/>
			<psa30 value="0.00945011352364218" flag="0"/>
		</comp>
		<comp name="00.HNZ" depth="0.0">
			<acc value="0.0561343619176748" flag="0"/>
			<vel value="0.0553247242092445" flag="0"/>
			<psa03 value="0.155929871255373" flag="0"/>
			<psa10 value="0.0458040567939679" flag="0"/>
			<psa30 value="0.00273944605819018" flag="0"/>
		</comp>
	</station>
	<station code="IACM" name="IACM" netid="HL" source="National Observatory of Athens Seismic Network" insttype="" lat="35.3058" lon="25.0709" esm:processing="manual (Paolucci et al 2011)" esm:quality="good">
		<comp name="--.HNE" depth="0.0">
			<acc value="0.111316763695745" flag="0"/>
			<vel value="0.0869364772316783" flag="0"/>
			<psa03 value="0.302502058946135" flag="0"/>
			<psa10 value="0.158317613586357" flag="0"/>
			<psa30 value="0.00740841457185344" flag="0"/>
		</comp>
		<comp name="--.HNN" depth="0.0">
			<acc value="0.123056069243868" flag="0"/>
			<vel value="0.0892380409167668" flag="0"/>
			<psa03 value="0.383440710718589" flag="0"/>
			<psa10 value="0.138425228523874" flag="0"/>
			<psa30 value="0.006378896397567" flag="0"/>
		</comp>
		<comp name="--.HNZ" depth="0.0">
			<acc value="0.0798206668348606" flag="0"/>
			<vel value="0.0582859816535187" flag="0"/>
			<psa03 value="0.183398304928296" flag="0"/>
			<psa10 value="0.0633133543193178" flag="0"/>
			<psa30 value="0.00333374181512743" flag="0"/>
		</comp>
	</station>
	<station code="IMMV" name="IMMV" netid="HL" source="National Observatory of Athens Seismic Network" insttype="" lat="35.4606" lon="23.9811" esm:processing="manual (Paolucci et al 2011)" esm:quality="good">
		<comp name="--.HNE" depth="0.0">
			<acc value="0.00843544950898196" flag="0"/>
			<vel value="0.0071630484360944" flag="0"/>
			<psa03 value="0.0294851141614411" flag="0"/>
			<psa10 value="0.0110616157422353" flag="0"/>
			<psa30 value="0.00088902764550506" flag="0"/>
		</comp>
		<comp name="--.HNN" depth="0.0">
			<acc value="0.00756269814928755" flag="0"/>
			<vel value="0.00539827748620111" flag="0"/>
			<psa03 value="0.0219684234495714" flag="0"/>
			<psa10 value="0.00819050834354083" flag="0"/>
			<psa30 value="0.00145546398129238" flag="0"/>
		</comp>
		<comp name="--.HNZ" depth="0.0">
			<acc value="0.00540319502621962" flag="0"/>
			<vel value="0.00355182102381786" flag="0"/>
			<psa03 value="0.0190154378127655" flag="0"/>
			<psa10 value="0.00612476066397522" flag="0"/>
			<psa30 value="0.000782541193753573" flag="0"/>
		</comp>
	</station>
	<station code="KARP" name="KARP" netid="HL" source="National Observatory of Athens Seismic Network" insttype="" lat="35.5471" lon="27.16106" esm:processing="manual (Paolucci et al 2011)" esm:quality="bad">
		<comp name="--.HNE" depth="0.0">
			<acc value="0.02296814618593" flag="0"/>
			<vel value="0.0168104543375895" flag="0"/>
			<psa03 value="0.06058094776114" flag="0"/>
			<psa10 value="0.0208024415450993" flag="0"/>
			<psa30 value="0.00162279983404472" flag="0"/>
		</comp>
		<comp name="--.HNN" depth="0.0">
			<acc value="0.0239428965051255" flag="0"/>
			<vel value="0.017133990203071" flag="0"/>
			<psa03 value="0.0558830160662214" flag="0"/>
			<psa10 value="0.0380814343190096" flag="0"/>
			<psa30 value="0.00175389449943625" flag="0"/>
		</comp>
		<comp name="--.HNZ" depth="0.0">
			<acc value="0.0205733034014934" flag="0"/>
			<vel value="0.0111401769823357" flag="0"/>
			<psa03 value="0.0695293890847943" flag="0"/>
			<psa10 value="0.00795292722639781" flag="0"/>
			<psa30 value="0.00108141913396363" flag="0"/>
		</comp>
	</station>
	<station code="KARP" name="KARP" netid="GE" source="GEOFON" insttype="" lat="35.5471" lon="27.16106" esm:processing="automatic (Paolucci et al 2011)" esm:quality="bad">
		<comp name="--.HNE" depth="0.0">
			<acc value="0" flag="1"/>
			<vel value="0" flag="1"/>
			<psa03 value="0" flag="1"/>
			<psa10 value="0" flag="1"/>
			<psa30 value="0" flag="1"/>
		</comp>
		<comp name="--.HNN" depth="0.0">
			<acc value="0" flag="1"/>
			<vel value="0" flag="1"/>
			<psa03 value="0" flag="1"/>
			<psa10 value="0" flag="1"/>
			<psa30 value="0" flag="1"/>
		</comp>
		<comp name="--.HNZ" depth="0.0">
			<acc value="0" flag="1"/>
			<vel value="0" flag="1"/>
			<psa03 value="0" flag="1"/>
			<psa10 value="0" flag="1"/>
			<psa30 value="0" flag="1"/>
		</comp>
	</station>
	<station code="CH01" name="CH01" netid="HI" source="ITSAK Strong Motion Network" insttype="" lat="35.517" lon="24.0208" esm:processing="discarded" esm:quality="good">
		<comp name="--.HNE" depth="0.0">
			<acc value="0" flag="1"/>
			<vel value="0" flag="1"/>
			<psa03 value="0" flag="1"/>
			<psa10 value="0" flag="1"/>
			<psa30 value="0" flag="1"/>
		</comp>
		<comp name="--.HNN" depth="0.0">
			<acc value="0" flag="1"/>
			<vel value="0" flag="1"/>
			<psa03 value="0" flag="1"/>
			<psa10 value="0" flag="1"/>
			<psa30 value="0" flag="1"/>
		</comp>
		<comp name="--.HNZ" depth="0.0">
			<acc value="0" flag="1"/>
			<vel value="0" flag="1"/>
			<psa03 value="0" flag="1"/>
			<psa10 value="0" flag="1"/>
			<psa30 value="0" flag="1"/>
		</comp>
	</station>
	<station code="KLNA" name="KLNA" netid="HL" source="National Observatory of Athens Seismic Network" insttype="" lat="36.95708" lon="26.97274" esm:processing="discarded" esm:quality="bad">
		<comp name="00.HNE" depth="0.0">
			<acc value="0" flag="1"/>
			<vel value="0" flag="1"/>
			<psa03 value="0" flag="1"/>
			<psa10 value="0" flag="1"/>
			<psa30 value="0" flag="1"/>
		</comp>
		<comp name="00.HNN" depth="0.0">
			<acc value="0" flag="1"/>
			<vel value="0" flag="1"/>
			<psa03 value="0" flag="1"/>
			<psa10 value="0" flag="1"/>
			<psa30 value="0" flag="1"/>
		</comp>
		<comp name="00.HNZ" depth="0.0">
			<acc value="0" flag="1"/>
			<vel value="0" flag="1"/>
			<psa03 value="0" flag="1"/>
			<psa10 value="0" flag="1"/>
			<psa30 value="0" flag="1"/>
		</comp>
	</station>
	<station code="THRA" name="THRA" netid="HL" source="National Observatory of Athens Seismic Network" insttype="" lat="36.41502" lon="25.43244" esm:processing="discarded" esm:quality="bad">
		<comp name="00.HNE" depth="0.0">
			<acc value="0" flag="1"/>
			<vel value="0" flag="1"/>
			<psa03 value="0" flag="1"/>
			<psa10 value="0" flag="1"/>
			<psa30 value="0" flag="1"/>
		</comp>
		<comp name="00.HNN" depth="0.0">
			<acc value="0" flag="1"/>
			<vel value="0" flag="1"/>
			<psa03 value="0" flag="1"/>
			<psa10 value="0" flag="1"/>
			<psa30 value="0" flag="1"/>
		</comp>
		<comp name="00.HNZ" depth="0.0">
			<acc value="0" flag="1"/>
			<vel value="0" flag="1"/>
			<psa03 value="0" flag="1"/>
			<psa10 value="0" flag="1"/>
			<psa30 value="0" flag="1"/>
		</comp>
	</station>
	<station code="DATC" name="DATC" netid="KO" source="Bogazici University Kandilli Observatory And Earthquake Research Institute (KOERI)" insttype="" lat="36.7584" lon="27.6602" esm:processing="discarded" esm:quality="bad">
		<comp name="--.HNE" depth="0.0">
			<acc value="0" flag="1"/>
			<vel value="0" flag="1"/>
			<psa03 value="0" flag="1"/>
			<psa10 value="0" flag="1"/>
			<psa30 value="0" flag="1"/>
		</comp>
		<comp name="--.HNN" depth="0.0">
			<acc value="0" flag="1"/>
			<vel value="0" flag="1"/>
			<psa03 value="0" flag="1"/>
			<psa10 value="0" flag="1"/>
			<psa30 value="0" flag="1"/>
		</comp>
		<comp name="--.HNZ" depth="0.0">
			<acc value="0" flag="1"/>
			<vel value="0" flag="1"/>
			<psa03 value="0" flag="1"/>
			<psa10 value="0" flag="1"/>
			<psa30 value="0" flag="1"/>
		</comp>
	</station>
</stationlist>
