<?xml version="1.0" encoding="UTF-8" standalone="yes"?>
<!DOCTYPE earthquake SYSTEM "stationlist.dtd">
<stationlist created="" xmlns="ch.ethz.sed.shakemap.usgs.xml">
  <station code="VANB" name="VANB" netid="KO" insttype="360s," lat="38.509" lon="43.4058">
    <comp name="--.HHE">
      <acc value="0.0811162199" flag="0"/>
      <vel value="0.0334584960" flag="0"/>
      <psa03 value="0.1620667879" flag="0"/>
      <psa10 value="0.0210330034" flag="0"/>
      <psa30 value="0.0019260461" flag="0"/>
    </comp>
    <comp name="--.HHN">
      <acc value="0.0364965536" flag="0"/>
      <vel value="0.0199411109" flag="0"/>
      <psa03 value="0.1230138497" flag="0"/>
      <psa10 value="0.0187041851" flag="0"/>
      <psa30 value="0.0012256573" flag="0"/>
    </comp>
    <comp name="--.HHZ">
      <acc value="0.0512472417" flag="0"/>
      <vel value="0.0139972720" flag="0"/>
      <psa03 value="0.0483386645" flag="0"/>
      <psa10 value="0.0103702870" flag="0"/>
      <psa30 value="0.0006956159" flag="0"/>
    </comp>
  </station>
</stationlist>
