<?xml version="1.0" encoding="UTF-8" standalone="yes"?>
<!DOCTYPE earthquake SYSTEM "stationlist.dtd">
<stationlist created="" xmlns="ch.ethz.sed.shakemap.usgs.xml">
  <station code="KTHA" name="KTHA" netid="GE" insttype="STS-2/N" lat="36.2566" lon="23.0621">
    <comp name="--.HHE">
      <acc value="0.1475617368" flag="0"/>
      <vel value="0.0510199099" flag="0"/>
      <psa03 value="0.1901317436" flag="0"/>
      <psa10 value="0.0345307147" flag="0"/>
      <psa30 value="0.0022241192" flag="0"/>
    </comp>
    <comp name="--.HHN">
      <acc value="0.1320390214" flag="0"/>
      <vel value="0.0478390056" flag="0"/>
      <psa03 value="0.2078190301" flag="0"/>
      <psa10 value="0.0171585928" flag="0"/>
      <psa30 value="0.0015395028" flag="0"/>
    </comp>
    <comp name="--.HHZ">
      <acc value="0.1128774420" flag="0"/>
      <vel value="0.0270307387" flag="0"/>
      <psa03 value="0.1007245103" flag="0"/>
      <psa10 value="0.0123100257" flag="0"/>
      <psa30 value="0.0012670166" flag="0"/>
    </comp>
  </station>
  <station code="ANKY" name="ANKY" netid="HL" insttype="60" lat="35.867" lon="23.3012">
    <comp name="--.HHE">
      <acc value="0.0287795835" flag="0"/>
      <vel value="0.0084441945" flag="0"/>
      <psa03 value="0.0227464590" flag="0"/>
      <psa10 value="0.0092067392" flag="0"/>
      <psa30 value="0.0005476308" flag="0"/>
    </comp>
    <comp name="--.HHZ">
      <acc value="0.0253548851" flag="0"/>
      <vel value="0.0071692965" flag="0"/>
      <psa03 value="0.0158936810" flag="0"/>
      <psa10 value="0.0067110324" flag="0"/>
      <psa30 value="0.0003354062" flag="0"/>
    </comp>
    <comp name="--.HHN">
      <acc value="0.0232082585" flag="0"/>
      <vel value="0.0095157957" flag="0"/>
      <psa03 value="0.0237243834" flag="0"/>
      <psa10 value="0.0115750850" flag="0"/>
      <psa30 value="0.0004801074" flag="0"/>
    </comp>
  </station>
  <station code="KTHA" name="KTHA" netid="HL" insttype="120" lat="36.2566" lon="23.0621">
    <comp name="--.HHE">
      <acc value="0.1361362267" flag="0"/>
      <vel value="0.0492857630" flag="0"/>
      <psa03 value="0.1844364969" flag="0"/>
      <psa10 value="0.0343365910" flag="0"/>
      <psa30 value="0.0021967174" flag="0"/>
    </comp>
    <comp name="--.HHZ">
      <acc value="0.1040898376" flag="0"/>
      <vel value="0.0254496739" flag="0"/>
      <psa03 value="0.0978461450" flag="0"/>
      <psa10 value="0.0122556285" flag="0"/>
      <psa30 value="0.0012622453" flag="0"/>
    </comp>
    <comp name="--.HHN">
      <acc value="0.1247466158" flag="0"/>
      <vel value="0.0466602993" flag="0"/>
      <psa03 value="0.2022117659" flag="0"/>
      <psa10 value="0.0169766941" flag="0"/>
      <psa30 value="0.0015129853" flag="0"/>
    </comp>
  </station>
  <station code="MNVA" name="MNVA" netid="HL" insttype="CMG-5" lat="36.6871" lon="23.0373">
    <comp name="00.HNE">
      <acc value="0.0221142165" flag="0"/>
      <vel value="0.0064394085" flag="0"/>
      <psa03 value="0.0261390354" flag="0"/>
      <psa10 value="0.0056432641" flag="0"/>
      <psa30 value="0.0005856298" flag="0"/>
    </comp>
    <comp name="00.HNN">
      <acc value="0.0275513416" flag="0"/>
      <vel value="0.0069365796" flag="0"/>
      <psa03 value="0.0296068447" flag="0"/>
      <psa10 value="0.0056838090" flag="0"/>
      <psa30 value="0.0005619288" flag="0"/>
    </comp>
    <comp name="00.HNZ">
      <acc value="0.0292008095" flag="0"/>
      <vel value="0.0075724739" flag="0"/>
      <psa03 value="0.0290130243" flag="0"/>
      <psa10 value="0.0047641822" flag="0"/>
      <psa30 value="0.0005278469" flag="0"/>
    </comp>
  </station>
  <station code="VLI" name="VLI" netid="HL" insttype="60" lat="36.718" lon="22.9469">
    <comp name="--.HHE">
      <acc value="0.0453828140" flag="0"/>
      <vel value="0.0145419217" flag="0"/>
      <psa03 value="0.0900218682" flag="0"/>
      <psa10 value="0.0138723846" flag="0"/>
      <psa30 value="0.0008595572" flag="0"/>
    </comp>
    <comp name="--.HHZ">
      <acc value="0.0483717755" flag="0"/>
      <vel value="0.0137322599" flag="0"/>
      <psa03 value="0.0522384302" flag="0"/>
      <psa10 value="0.0098308290" flag="0"/>
      <psa30 value="0.0007286547" flag="0"/>
    </comp>
    <comp name="--.HHN">
      <acc value="0.0550170829" flag="0"/>
      <vel value="0.0160213441" flag="0"/>
      <psa03 value="0.0869807128" flag="0"/>
      <psa10 value="0.0178514679" flag="0"/>
      <psa30 value="0.0010950882" flag="0"/>
    </comp>
  </station>
  <station code="PYL" name="PYL" netid="HP" insttype="120s" lat="36.8955" lon="21.742">
    <comp name="--.HHE">
      <acc value="0.0009722129" flag="0"/>
      <vel value="0.0005527744" flag="0"/>
      <psa03 value="0.0025794085" flag="0"/>
      <psa10 value="0.0006925609" flag="0"/>
      <psa30 value="0.0000654080" flag="0"/>
    </comp>
    <comp name="--.HHN">
      <acc value="0.0007340542" flag="0"/>
      <vel value="0.0004401644" flag="0"/>
      <psa03 value="0.0019875946" flag="0"/>
      <psa10 value="0.0006325880" flag="0"/>
      <psa30 value="0.0000683476" flag="0"/>
    </comp>
    <comp name="--.HHZ">
      <acc value="0.0006885552" flag="0"/>
      <vel value="0.0002949738" flag="0"/>
      <psa03 value="0.0020413004" flag="0"/>
      <psa10 value="0.0003779646" flag="0"/>
      <psa30 value="0.0000620738" flag="0"/>
    </comp>
  </station>
  <station code="VALY" name="VALY" netid="HP" insttype="DC_100" lat="37.1641" lon="21.9836">
    <comp name="--.HNE">
      <acc value="0.0034893955" flag="0"/>
      <vel value="0.0038595258" flag="0"/>
      <psa03 value="0.0081132353" flag="0"/>
      <psa10 value="0.0044292520" flag="0"/>
      <psa30 value="0.0004305919" flag="0"/>
    </comp>
    <comp name="--.HNZ">
      <acc value="0.0021060260" flag="0"/>
      <vel value="0.0013775276" flag="0"/>
      <psa03 value="0.0048020542" flag="0"/>
      <psa10 value="0.0023892157" flag="0"/>
      <psa30 value="0.0002289527" flag="0"/>
    </comp>
  </station>
</stationlist>
