<?xml version="1.0" encoding="UTF-8" standalone="yes"?>
<!DOCTYPE earthquake SYSTEM "stationlist.dtd">
<stationlist created="" xmlns="ch.ethz.sed.shakemap.usgs.xml">
  <station code="CAMPI" name="CAMPI" netid="GX" insttype="Trillium Compact" lat="40.7071" lon="15.2738">
    <comp name="--.HHE">
      <acc value="0.0016341877" flag="0"/>
      <vel value="0.0014464812" flag="0"/>
      <psa03 value="0.0053554132" flag="0"/>
      <psa10 value="0.0023673920" flag="0"/>
      <psa30 value="0.0002315925" flag="0"/>
    </comp>
    <comp name="--.HHZ">
      <acc value="0.0013298853" flag="0"/>
      <vel value="0.0008770970" flag="0"/>
      <psa03 value="0.0047038447" flag="0"/>
      <psa10 value="0.0014115789" flag="0"/>
      <psa30 value="0.0001151169" flag="0"/>
    </comp>
    <comp name="--.HHN">
      <acc value="0.0021560098" flag="0"/>
      <vel value="0.0016031832" flag="0"/>
      <psa03 value="0.0069619272" flag="0"/>
      <psa10 value="0.0034766749" flag="0"/>
      <psa30 value="0.0001998892" flag="0"/>
    </comp>
  </station>
  <station code="CAAM" name="CAAM" netid="IV" insttype="" lat="40.8201" lon="14.142">
    <comp name="--.HNE">
      <acc value="89.3455019596" flag="0"/>
      <vel value="17.8094804056" flag="0"/>
      <psa03 value="65.0691909839" flag="0"/>
      <psa10 value="5.6271069508" flag="0"/>
      <psa30 value="0.7321063003" flag="0"/>
    </comp>
    <comp name="--.HNN">
      <acc value="113.6351262307" flag="0"/>
      <vel value="13.8811216366" flag="0"/>
      <psa03 value="49.4599250764" flag="0"/>
      <psa10 value="3.9304042420" flag="0"/>
      <psa30 value="0.3747889753" flag="0"/>
    </comp>
    <comp name="--.HNZ">
      <acc value="89.9634122504" flag="0"/>
      <vel value="19.6771505734" flag="0"/>
      <psa03 value="59.4308734610" flag="0"/>
      <psa10 value="4.5978469790" flag="0"/>
      <psa30 value="0.4522557449" flag="0"/>
    </comp>
  </station>
  <station code="CAFE" name="CAFE" netid="IV" insttype="" lat="41.028" lon="15.2366">
    <comp name="--.HHE">
      <acc value="0.0009428704" flag="0"/>
      <vel value="0.0011775085" flag="0"/>
      <psa03 value="0.0026114428" flag="0"/>
      <psa10 value="0.0020143396" flag="0"/>
      <psa30 value="0.0003237382" flag="0"/>
    </comp>
    <comp name="--.HHN">
      <acc value="0.0016085054" flag="0"/>
      <vel value="0.0010127718" flag="0"/>
      <psa03 value="0.0023993762" flag="0"/>
      <psa10 value="0.0018312717" flag="0"/>
      <psa30 value="0.0001488772" flag="0"/>
    </comp>
    <comp name="--.HHZ">
      <acc value="0.0012182441" flag="0"/>
      <vel value="0.0010002586" flag="0"/>
      <psa03 value="0.0026767967" flag="0"/>
      <psa10 value="0.0010934701" flag="0"/>
      <psa30 value="0.0001531675" flag="0"/>
    </comp>
  </station>
  <station code="CBAC" name="CBAC" netid="IV" insttype="" lat="40.8109" lon="14.0806">
    <comp name="--.HHE">
      <acc value="0.5006424916" flag="0"/>
      <vel value="0.3232996027" flag="0"/>
      <psa03 value="0.9735811793" flag="0"/>
      <psa10 value="0.4923971738" flag="0"/>
      <psa30 value="0.0313501921" flag="0"/>
    </comp>
    <comp name="--.HHN">
      <acc value="0.5663248767" flag="0"/>
      <vel value="0.2092643390" flag="0"/>
      <psa03 value="0.5980692145" flag="0"/>
      <psa10 value="0.2542359943" flag="0"/>
      <psa30 value="0.0202099131" flag="0"/>
    </comp>
    <comp name="--.HHZ">
      <acc value="0.5759322055" flag="0"/>
      <vel value="0.1626868342" flag="0"/>
      <psa03 value="0.5933335637" flag="0"/>
      <psa10 value="0.1584708673" flag="0"/>
      <psa30 value="0.0197703930" flag="0"/>
    </comp>
  </station>
  <station code="CDRU" name="CDRU" netid="IV" insttype="" lat="40.4896" lon="15.3046">
    <comp name="--.HHE">
      <acc value="0.0017225029" flag="0"/>
      <vel value="0.0005582732" flag="0"/>
      <psa03 value="0.0035332385" flag="0"/>
      <psa10 value="0.0005676384" flag="0"/>
      <psa30 value="0.0000539132" flag="0"/>
    </comp>
    <comp name="--.HHN">
      <acc value="0.0017150707" flag="0"/>
      <vel value="0.0003668838" flag="0"/>
      <psa03 value="0.0025317396" flag="0"/>
      <psa10 value="0.0004751078" flag="0"/>
      <psa30 value="0.0000637461" flag="0"/>
    </comp>
    <comp name="--.HHZ">
      <acc value="0.0013685373" flag="0"/>
      <vel value="0.0003335074" flag="0"/>
      <psa03 value="0.0031003660" flag="0"/>
      <psa10 value="0.0003482525" flag="0"/>
      <psa30 value="0.0000656888" flag="0"/>
    </comp>
  </station>
  <station code="CERA" name="CERA" netid="IV" insttype="" lat="41.5978" lon="14.0183">
    <comp name="--.HHE">
      <acc value="0.0009921013" flag="0"/>
      <vel value="0.0012073096" flag="0"/>
      <psa03 value="0.0024918177" flag="0"/>
      <psa10 value="0.0029952701" flag="0"/>
      <psa30 value="0.0002400386" flag="0"/>
    </comp>
    <comp name="--.HHN">
      <acc value="0.0009666031" flag="0"/>
      <vel value="0.0010501098" flag="0"/>
      <psa03 value="0.0023773498" flag="0"/>
      <psa10 value="0.0022617496" flag="0"/>
      <psa30 value="0.0001213182" flag="0"/>
    </comp>
    <comp name="--.HHZ">
      <acc value="0.0008398885" flag="0"/>
      <vel value="0.0008804158" flag="0"/>
      <psa03 value="0.0013282493" flag="0"/>
      <psa10 value="0.0016436923" flag="0"/>
      <psa30 value="0.0001399682" flag="0"/>
    </comp>
  </station>
  <station code="CFMN" name="CFMN" netid="IV" insttype="" lat="40.8329" lon="14.0904">
    <comp name="--.HHE">
      <acc value="0.7503586014" flag="0"/>
      <vel value="0.2675215294" flag="0"/>
      <psa03 value="1.0127937858" flag="0"/>
      <psa10 value="0.2732215961" flag="0"/>
      <psa30 value="0.0346283638" flag="0"/>
    </comp>
    <comp name="--.HHN">
      <acc value="0.6761483716" flag="0"/>
      <vel value="0.1540485481" flag="0"/>
      <psa03 value="0.6619965302" flag="0"/>
      <psa10 value="0.1249959197" flag="0"/>
      <psa30 value="0.0184878807" flag="0"/>
    </comp>
    <comp name="--.HHZ">
      <acc value="0.6951065357" flag="0"/>
      <vel value="0.1385988423" flag="0"/>
      <psa03 value="0.6590354033" flag="0"/>
      <psa10 value="0.1522613233" flag="0"/>
      <psa30 value="0.0177001385" flag="0"/>
    </comp>
  </station>
  <station code="CMIS" name="CMIS" netid="IV" insttype="" lat="40.7782" lon="14.089">
    <comp name="--.HHE">
      <acc value="0.5910156666" flag="0"/>
      <vel value="0.3234346236" flag="0"/>
      <psa03 value="1.7248383855" flag="0"/>
      <psa10 value="0.2404633063" flag="0"/>
      <psa30 value="0.0220932377" flag="0"/>
    </comp>
    <comp name="--.HHN">
      <acc value="0.5496007356" flag="0"/>
      <vel value="0.3399880110" flag="0"/>
      <psa03 value="1.5766010843" flag="0"/>
      <psa10 value="0.1986850939" flag="0"/>
      <psa30 value="0.0255279259" flag="0"/>
    </comp>
    <comp name="--.HHZ">
      <acc value="0.8579225918" flag="0"/>
      <vel value="0.2609927006" flag="0"/>
      <psa03 value="1.3497517800" flag="0"/>
      <psa10 value="0.1124958480" flag="0"/>
      <psa30 value="0.0074523147" flag="0"/>
    </comp>
  </station>
  <station code="CMPR" name="CMPR" netid="IV" insttype="" lat="40.3181" lon="15.303">
    <comp name="--.HHE">
      <acc value="0.0010953942" flag="0"/>
      <vel value="0.0008427490" flag="0"/>
      <psa03 value="0.0038947576" flag="0"/>
      <psa10 value="0.0008836958" flag="0"/>
      <psa30 value="0.0000662653" flag="0"/>
    </comp>
    <comp name="--.HHN">
      <acc value="0.0008308894" flag="0"/>
      <vel value="0.0003637005" flag="0"/>
      <psa03 value="0.0030703181" flag="0"/>
      <psa10 value="0.0006411459" flag="0"/>
      <psa30 value="0.0000679335" flag="0"/>
    </comp>
    <comp name="--.HHZ">
      <acc value="0.0006629133" flag="0"/>
      <vel value="0.0003296313" flag="0"/>
      <psa03 value="0.0030655911" flag="0"/>
      <psa10 value="0.0008847822" flag="0"/>
      <psa30 value="0.0000811283" flag="0"/>
    </comp>
  </station>
  <station code="CMSN" name="CMSN" netid="IV" insttype="" lat="40.8382" lon="14.1818">
    <comp name="--.HHZ">
      <acc value="0.9596319437" flag="0"/>
      <vel value="0.2445573570" flag="0"/>
      <psa03 value="1.0854752178" flag="0"/>
      <psa10 value="0.1336927689" flag="0"/>
      <psa30 value="0.0167414160" flag="0"/>
    </comp>
    <comp name="--.HHE">
      <acc value="1.2540025760" flag="0"/>
      <vel value="0.3990903566" flag="0"/>
      <psa03 value="1.2036207038" flag="0"/>
      <psa10 value="0.2837462189" flag="0"/>
      <psa30 value="0.0236628039" flag="0"/>
    </comp>
    <comp name="--.HHN">
      <acc value="1.4666492998" flag="0"/>
      <vel value="0.3895265044" flag="0"/>
      <psa03 value="0.9000282786" flag="0"/>
      <psa10 value="0.3760331793" flag="0"/>
      <psa30 value="0.0342636070" flag="0"/>
    </comp>
  </station>
  <station code="CNIS" name="CNIS" netid="IV" insttype="" lat="40.7982" lon="14.1632">
    <comp name="--.HNE">
      <acc value="27.4788095141" flag="0"/>
      <vel value="9.9558359624" flag="0"/>
      <psa03 value="20.4187602035" flag="0"/>
      <psa10 value="4.1127792699" flag="0"/>
      <psa30 value="0.2364034285" flag="0"/>
    </comp>
    <comp name="--.HNN">
      <acc value="26.7433816311" flag="0"/>
      <vel value="11.1097723734" flag="0"/>
      <psa03 value="26.6780386970" flag="0"/>
      <psa10 value="3.4783310303" flag="0"/>
      <psa30 value="0.3470816303" flag="0"/>
    </comp>
    <comp name="--.HNZ">
      <acc value="46.5487071351" flag="0"/>
      <vel value="6.7829591097" flag="0"/>
      <psa03 value="12.1741948378" flag="0"/>
      <psa10 value="4.0281960665" flag="0"/>
      <psa30 value="0.3472888217" flag="0"/>
    </comp>
  </station>
  <station code="CRTO" name="CRTO" netid="IV" insttype="" lat="40.8212" lon="14.4223">
    <comp name="--.HHE">
      <acc value="0.1123018962" flag="0"/>
      <vel value="0.0638183873" flag="0"/>
      <psa03 value="0.3745036171" flag="0"/>
      <psa10 value="0.1218290579" flag="0"/>
      <psa30 value="0.0042669273" flag="0"/>
    </comp>
    <comp name="--.HHZ">
      <acc value="0.0604377854" flag="0"/>
      <vel value="0.0240534795" flag="0"/>
      <psa03 value="0.1587984855" flag="0"/>
      <psa10 value="0.0201807639" flag="0"/>
      <psa30 value="0.0016741490" flag="0"/>
    </comp>
    <comp name="--.HHN">
      <acc value="0.1138716866" flag="0"/>
      <vel value="0.0553176622" flag="0"/>
      <psa03 value="0.4634843488" flag="0"/>
      <psa10 value="0.0764123955" flag="0"/>
      <psa30 value="0.0037784096" flag="0"/>
    </comp>
  </station>
  <station code="CSFT" name="CSFT" netid="IV" insttype="" lat="40.8292" lon="14.1396">
    <comp name="--.HHE">
      <acc value="53.4070776259" flag="0"/>
      <vel value="4.5041070746" flag="0"/>
      <psa03 value="7.7951586301" flag="0"/>
      <psa10 value="0.3857901208" flag="0"/>
      <psa30 value="0.0454712008" flag="0"/>
    </comp>
    <comp name="--.HHN">
      <acc value="37.1010468871" flag="0"/>
      <vel value="3.1469288427" flag="0"/>
      <psa03 value="11.8516798089" flag="0"/>
      <psa10 value="0.4118638580" flag="0"/>
      <psa30 value="0.0489698105" flag="0"/>
    </comp>
    <comp name="--.HHZ">
      <acc value="34.1723144918" flag="0"/>
      <vel value="2.2985584689" flag="0"/>
      <psa03 value="4.9364182210" flag="0"/>
      <psa10 value="0.1791088030" flag="0"/>
      <psa30 value="0.0199033353" flag="0"/>
    </comp>
  </station>
  <station code="CSOB" name="CSOB" netid="IV" insttype="" lat="40.8265" lon="14.144">
    <comp name="--.HNZ">
      <acc value="12.9233688793" flag="0"/>
      <vel value="1.1768420074" flag="0"/>
      <psa03 value="2.7594220837" flag="0"/>
      <psa10 value="0.1823063433" flag="0"/>
      <psa30 value="0.0235536356" flag="0"/>
    </comp>
    <comp name="--.HNE">
      <acc value="38.2211188144" flag="0"/>
      <vel value="3.9418502246" flag="0"/>
      <psa03 value="8.6054997118" flag="0"/>
      <psa10 value="0.4812468747" flag="0"/>
      <psa30 value="0.0404509761" flag="0"/>
    </comp>
    <comp name="--.HNN">
      <acc value="16.7305988923" flag="0"/>
      <vel value="1.8894152233" flag="0"/>
      <psa03 value="7.3799775997" flag="0"/>
      <psa10 value="0.4503038638" flag="0"/>
      <psa30 value="0.0564801078" flag="0"/>
    </comp>
  </station>
  <station code="CSTH" name="CSTH" netid="IV" insttype="" lat="40.8294" lon="14.1493">
    <comp name="--.HNE">
      <acc value="12.0719202331" flag="0"/>
      <vel value="1.4742375848" flag="0"/>
      <psa03 value="4.6951296944" flag="0"/>
      <psa10 value="0.4288663071" flag="0"/>
      <psa30 value="0.0358967029" flag="0"/>
    </comp>
    <comp name="--.HNN">
      <acc value="17.6024950840" flag="0"/>
      <vel value="1.5600930417" flag="0"/>
      <psa03 value="3.1493344920" flag="0"/>
      <psa10 value="0.2842927709" flag="0"/>
      <psa30 value="0.0363574373" flag="0"/>
    </comp>
    <comp name="--.HNZ">
      <acc value="7.9129947127" flag="0"/>
      <vel value="0.7698919421" flag="0"/>
      <psa03 value="1.6426846228" flag="0"/>
      <psa10 value="0.1451557487" flag="0"/>
      <psa30 value="0.0148495655" flag="0"/>
    </comp>
  </station>
  <station code="GIUL" name="GIUL" netid="IV" insttype="" lat="41.5583" lon="13.2546">
    <comp name="--.HHE">
      <acc value="0.0006736205" flag="0"/>
      <vel value="0.0004091165" flag="0"/>
      <psa03 value="0.0011752839" flag="0"/>
      <psa10 value="0.0010915913" flag="0"/>
      <psa30 value="0.0000918157" flag="0"/>
    </comp>
    <comp name="--.HHN">
      <acc value="0.0006870065" flag="0"/>
      <vel value="0.0005004233" flag="0"/>
      <psa03 value="0.0017105278" flag="0"/>
      <psa10 value="0.0009284779" flag="0"/>
      <psa30 value="0.0000917353" flag="0"/>
    </comp>
    <comp name="--.HHZ">
      <acc value="0.0003722566" flag="0"/>
      <vel value="0.0003394073" flag="0"/>
      <psa03 value="0.0009847856" flag="0"/>
      <psa10 value="0.0005368353" flag="0"/>
      <psa30 value="0.0000836527" flag="0"/>
    </comp>
  </station>
  <station code="IBCM" name="IBCM" netid="IV" insttype="" lat="40.7109" lon="13.9161">
    <comp name="--.HNE">
      <acc value="0.0525359664" flag="0"/>
      <vel value="0.0340722529" flag="0"/>
      <psa03 value="0.1511793088" flag="0"/>
      <psa10 value="0.0421782840" flag="0"/>
      <psa30 value="0.0022001897" flag="0"/>
    </comp>
    <comp name="--.HNZ">
      <acc value="0.0257386589" flag="0"/>
      <vel value="0.0183875869" flag="0"/>
      <psa03 value="0.0748475316" flag="0"/>
      <psa10 value="0.0158968284" flag="0"/>
      <psa30 value="0.0009057325" flag="0"/>
    </comp>
    <comp name="--.HNN">
      <acc value="0.0527709190" flag="0"/>
      <vel value="0.0328156112" flag="0"/>
      <psa03 value="0.1139942579" flag="0"/>
      <psa10 value="0.0366470497" flag="0"/>
      <psa30 value="0.0019814024" flag="0"/>
    </comp>
  </station>
  <station code="IMTC" name="IMTC" netid="IV" insttype="" lat="40.7209" lon="13.8758">
    <comp name="--.HHE">
      <acc value="0.0114405040" flag="0"/>
      <vel value="0.0075592733" flag="0"/>
      <psa03 value="0.0361657625" flag="0"/>
      <psa10 value="0.0100377493" flag="0"/>
      <psa30 value="0.0015782350" flag="0"/>
    </comp>
    <comp name="--.HHZ">
      <acc value="0.0147290882" flag="0"/>
      <vel value="0.0080133661" flag="0"/>
      <psa03 value="0.0491068143" flag="0"/>
      <psa10 value="0.0063262512" flag="0"/>
      <psa30 value="0.0014122176" flag="0"/>
    </comp>
    <comp name="--.HHN">
      <acc value="0.0154964706" flag="0"/>
      <vel value="0.0098910830" flag="0"/>
      <psa03 value="0.0403510789" flag="0"/>
      <psa10 value="0.0095501507" flag="0"/>
      <psa30 value="0.0009661616" flag="0"/>
    </comp>
  </station>
  <station code="IOCA" name="IOCA" netid="IV" insttype="" lat="40.7468" lon="13.9014">
    <comp name="--.HHE">
      <acc value="0.0618998758" flag="0"/>
      <vel value="0.0301244039" flag="0"/>
      <psa03 value="0.1575142090" flag="0"/>
      <psa10 value="0.0222411157" flag="0"/>
      <psa30 value="0.0033205637" flag="0"/>
    </comp>
    <comp name="--.HHN">
      <acc value="0.0382694525" flag="0"/>
      <vel value="0.0189691725" flag="0"/>
      <psa03 value="0.1430425324" flag="0"/>
      <psa10 value="0.0275420006" flag="0"/>
      <psa30 value="0.0026627816" flag="0"/>
    </comp>
    <comp name="--.HHZ">
      <acc value="0.0290079961" flag="0"/>
      <vel value="0.0134851020" flag="0"/>
      <psa03 value="0.1206439052" flag="0"/>
      <psa10 value="0.0070004550" flag="0"/>
      <psa30 value="0.0012681818" flag="0"/>
    </comp>
  </station>
  <station code="MCRV" name="MCRV" netid="IV" insttype="" lat="40.7826" lon="15.1684">
    <comp name="--.HHE">
      <acc value="0.0016841902" flag="0"/>
      <vel value="0.0009422185" flag="0"/>
      <psa03 value="0.0050383800" flag="0"/>
      <psa10 value="0.0014287544" flag="0"/>
      <psa30 value="0.0001387947" flag="0"/>
    </comp>
    <comp name="--.HHN">
      <acc value="0.0021851597" flag="0"/>
      <vel value="0.0013492180" flag="0"/>
      <psa03 value="0.0066232419" flag="0"/>
      <psa10 value="0.0012762907" flag="0"/>
      <psa30 value="0.0001019105" flag="0"/>
    </comp>
    <comp name="--.HHZ">
      <acc value="0.0009110554" flag="0"/>
      <vel value="0.0005926821" flag="0"/>
      <psa03 value="0.0036657000" flag="0"/>
      <psa10 value="0.0009648480" flag="0"/>
      <psa30 value="0.0001056475" flag="0"/>
    </comp>
  </station>
  <station code="MRB1" name="MRB1" netid="IV" insttype="" lat="41.1227" lon="14.9681">
    <comp name="--.HHE">
      <acc value="0.0045711517" flag="0"/>
      <vel value="0.0045667114" flag="0"/>
      <psa03 value="0.0090589518" flag="0"/>
      <psa10 value="0.0041829208" flag="0"/>
      <psa30 value="0.0004598793" flag="0"/>
    </comp>
    <comp name="--.HHN">
      <acc value="0.0044986241" flag="0"/>
      <vel value="0.0046934152" flag="0"/>
      <psa03 value="0.0090918961" flag="0"/>
      <psa10 value="0.0051128454" flag="0"/>
      <psa30 value="0.0005707877" flag="0"/>
    </comp>
    <comp name="--.HHZ">
      <acc value="0.0031698694" flag="0"/>
      <vel value="0.0022970958" flag="0"/>
      <psa03 value="0.0100250016" flag="0"/>
      <psa10 value="0.0022882163" flag="0"/>
      <psa30 value="0.0002999412" flag="0"/>
    </comp>
  </station>
  <station code="MRLC" name="MRLC" netid="IV" insttype="" lat="40.7564" lon="15.4889">
    <comp name="--.HHE">
      <acc value="0.0004864314" flag="0"/>
      <vel value="0.0003664438" flag="0"/>
      <psa03 value="0.0017746116" flag="0"/>
      <psa10 value="0.0007931233" flag="0"/>
      <psa30 value="0.0000938241" flag="0"/>
    </comp>
    <comp name="--.HHN">
      <acc value="0.0007618802" flag="0"/>
      <vel value="0.0003847803" flag="0"/>
      <psa03 value="0.0031558882" flag="0"/>
      <psa10 value="0.0005634754" flag="0"/>
      <psa30 value="0.0001012157" flag="0"/>
    </comp>
    <comp name="--.HHZ">
      <acc value="0.0003306940" flag="0"/>
      <vel value="0.0002491143" flag="0"/>
      <psa03 value="0.0012204765" flag="0"/>
      <psa10 value="0.0003871115" flag="0"/>
      <psa30 value="0.0000481045" flag="0"/>
    </comp>
  </station>
  <station code="OVO" name="OVO" netid="IV" insttype="" lat="40.8275" lon="14.3967">
    <comp name="--.HHN">
      <acc value="0.0405649720" flag="0"/>
      <vel value="0.0454379773" flag="0"/>
      <psa03 value="0.1029412873" flag="0"/>
      <psa10 value="0.0858199618" flag="0"/>
      <psa30 value="0.0031397641" flag="0"/>
    </comp>
    <comp name="--.HHE">
      <acc value="0.0285773172" flag="0"/>
      <vel value="0.0266549753" flag="0"/>
      <psa03 value="0.1060598933" flag="0"/>
      <psa10 value="0.0365156979" flag="0"/>
