<?xml version="1.0" encoding="UTF-8" standalone="yes"?>
<!DOCTYPE earthquake SYSTEM "stationlist.dtd">
<stationlist created="" xmlns="ch.ethz.sed.shakemap.usgs.xml">
  <station code="CAMPI" name="CAMPI" netid="GX" insttype="Trillium Compact" lat="40.7071" lon="15.2738">
    <comp name="--.HHN">
      <acc value="0.0021560098" flag="0"/>
      <vel value="0.0016031848" flag="0"/>
      <psa03 value="0.0069619272" flag="0"/>
      <psa10 value="0.0034766749" flag="0"/>
      <psa30 value="0.0001999168" flag="0"/>
    </comp>
    <comp name="--.HHE">
      <acc value="0.0016341877" flag="0"/>
      <vel value="0.0014464814" flag="0"/>
      <psa03 value="0.0053554132" flag="0"/>
      <psa10 value="0.0023673920" flag="0"/>
      <psa30 value="0.0002315938" flag="0"/>
    </comp>
    <comp name="--.HHZ">
      <acc value="0.0013298853" flag="0"/>
      <vel value="0.0008770970" flag="0"/>
      <psa03 value="0.0047038447" flag="0"/>
      <psa10 value="0.0014115789" flag="0"/>
      <psa30 value="0.0001151150" flag="0"/>
    </comp>
  </station>
  <station code="CAAM" name="CAAM" netid="IV" insttype="" lat="40.8201" lon="14.142">
    <comp name="--.HNE">
      <acc value="89.3455019591" flag="0"/>
      <vel value="17.8094803910" flag="0"/>
      <psa03 value="65.0691909839" flag="0"/>
      <psa10 value="5.6271078021" flag="0"/>
      <psa30 value="0.7321252872" flag="0"/>
    </comp>
    <comp name="--.HNN">
      <acc value="113.6351262257" flag="0"/>
      <vel value="13.8811216550" flag="0"/>
      <psa03 value="49.4599250764" flag="0"/>
      <psa10 value="3.9304045515" flag="0"/>
      <psa30 value="0.3747679775" flag="0"/>
    </comp>
    <comp name="--.HNZ">
      <acc value="89.9634122464" flag="0"/>
      <vel value="19.6771505806" flag="0"/>
      <psa03 value="59.4308734610" flag="0"/>
      <psa10 value="4.5978489108" flag="0"/>
      <psa30 value="0.4522405059" flag="0"/>
    </comp>
  </station>
  <station code="CAFE" name="CAFE" netid="IV" insttype="" lat="41.028" lon="15.2366">
    <comp name="--.HHN">
      <acc value="0.0016085056" flag="0"/>
      <vel value="0.0010127684" flag="0"/>
      <psa03 value="0.0023993762" flag="0"/>
      <psa10 value="0.0018312717" flag="0"/>
      <psa30 value="0.0001488926" flag="0"/>
    </comp>
    <comp name="--.HHE">
      <acc value="0.0009428703" flag="0"/>
      <vel value="0.0011775063" flag="0"/>
      <psa03 value="0.0026114428" flag="0"/>
      <psa10 value="0.0020143396" flag="0"/>
      <psa30 value="0.0003237315" flag="0"/>
    </comp>
    <comp name="--.HHZ">
      <acc value="0.0012182443" flag="0"/>
      <vel value="0.0010002589" flag="0"/>
      <psa03 value="0.0026767967" flag="0"/>
      <psa10 value="0.0010934714" flag="0"/>
      <psa30 value="0.0001531516" flag="0"/>
    </comp>
  </station>
  <station code="CBAC" name="CBAC" netid="IV" insttype="" lat="40.8109" lon="14.0806">
    <comp name="--.HHE">
      <acc value="0.5006424920" flag="0"/>
      <vel value="0.3232996042" flag="0"/>
      <psa03 value="0.9735811793" flag="0"/>
      <psa10 value="0.4923972901" flag="0"/>
      <psa30 value="0.0313495896" flag="0"/>
    </comp>
    <comp name="--.HHN">
      <acc value="0.5663248767" flag="0"/>
      <vel value="0.2092643354" flag="0"/>
      <psa03 value="0.5980692145" flag="0"/>
      <psa10 value="0.2542360501" flag="0"/>
      <psa30 value="0.0202076171" flag="0"/>
    </comp>
    <comp name="--.HHZ">
      <acc value="0.5759322050" flag="0"/>
      <vel value="0.1626868347" flag="0"/>
      <psa03 value="0.5933335637" flag="0"/>
      <psa10 value="0.1584708668" flag="0"/>
      <psa30 value="0.0197704427" flag="0"/>
    </comp>
  </station>
  <station code="CDRU" name="CDRU" netid="IV" insttype="" lat="40.4896" lon="15.3046">
    <comp name="--.HHE">
      <acc value="0.0017225025" flag="0"/>
      <vel value="0.0005582735" flag="0"/>
      <psa03 value="0.0035332385" flag="0"/>
      <psa10 value="0.0005676384" flag="0"/>
      <psa30 value="0.0000539166" flag="0"/>
    </comp>
    <comp name="--.HHN">
      <acc value="0.0017150736" flag="0"/>
      <vel value="0.0003668846" flag="0"/>
      <psa03 value="0.0025317396" flag="0"/>
      <psa10 value="0.0004751078" flag="0"/>
      <psa30 value="0.0000652177" flag="0"/>
    </comp>
    <comp name="--.HHZ">
      <acc value="0.0013685416" flag="0"/>
      <vel value="0.0003335073" flag="0"/>
      <psa03 value="0.0031003660" flag="0"/>
      <psa10 value="0.0003482525" flag="0"/>
      <psa30 value="0.0000656861" flag="0"/>
    </comp>
  </station>
  <station code="CERA" name="CERA" netid="IV" insttype="" lat="41.5978" lon="14.0183">
    <comp name="--.HHZ">
      <acc value="0.0008398885" flag="0"/>
      <vel value="0.0008804152" flag="0"/>
      <psa03 value="0.0013282493" flag="0"/>
      <psa10 value="0.0016436922" flag="0"/>
      <psa30 value="0.0001399673" flag="0"/>
    </comp>
    <comp name="--.HHN">
      <acc value="0.0009666033" flag="0"/>
      <vel value="0.0010501096" flag="0"/>
      <psa03 value="0.0023773498" flag="0"/>
      <psa10 value="0.0022617496" flag="0"/>
      <psa30 value="0.0001213176" flag="0"/>
    </comp>
    <comp name="--.HHE">
      <acc value="0.0009921015" flag="0"/>
      <vel value="0.0012073091" flag="0"/>
      <psa03 value="0.0024918177" flag="0"/>
      <psa10 value="0.0029952701" flag="0"/>
      <psa30 value="0.0002400407" flag="0"/>
    </comp>
  </station>
  <station code="CFMN" name="CFMN" netid="IV" insttype="" lat="40.8329" lon="14.0904">
    <comp name="--.HHE">
      <acc value="0.7503586012" flag="0"/>
      <vel value="0.2675215255" flag="0"/>
      <psa03 value="1.0127937858" flag="0"/>
      <psa10 value="0.2732216020" flag="0"/>
      <psa30 value="0.0346268406" flag="0"/>
    </comp>
    <comp name="--.HHN">
      <acc value="0.6761483713" flag="0"/>
      <vel value="0.1540485474" flag="0"/>
      <psa03 value="0.6619965302" flag="0"/>
      <psa10 value="0.1249959062" flag="0"/>
      <psa30 value="0.0184883415" flag="0"/>
    </comp>
    <comp name="--.HHZ">
      <acc value="0.6951065360" flag="0"/>
      <vel value="0.1385988467" flag="0"/>
      <psa03 value="0.6590354033" flag="0"/>
      <psa10 value="0.1522613360" flag="0"/>
      <psa30 value="0.0176995102" flag="0"/>
    </comp>
  </station>
  <station code="CMIS" name="CMIS" netid="IV" insttype="" lat="40.7782" lon="14.089">
    <comp name="--.HHE">
      <acc value="0.5910156665" flag="0"/>
      <vel value="0.3234346150" flag="0"/>
      <psa03 value="1.7248383855" flag="0"/>
      <psa10 value="0.2404632928" flag="0"/>
      <psa30 value="0.0220908503" flag="0"/>
    </comp>
    <comp name="--.HHN">
      <acc value="0.5496007358" flag="0"/>
      <vel value="0.3399880143" flag="0"/>
      <psa03 value="1.5766010843" flag="0"/>
      <psa10 value="0.1986850958" flag="0"/>
      <psa30 value="0.0255279176" flag="0"/>
    </comp>
    <comp name="--.HHZ">
      <acc value="0.8579225920" flag="0"/>
      <vel value="0.2609927037" flag="0"/>
      <psa03 value="1.3497517800" flag="0"/>
      <psa10 value="0.1124958476" flag="0"/>
      <psa30 value="0.0074506260" flag="0"/>
    </comp>
  </station>
  <station code="CMSN" name="CMSN" netid="IV" insttype="" lat="40.8382" lon="14.1818">
    <comp name="--.HHN">
      <acc value="1.4666492994" flag="0"/>
      <vel value="0.3895265041" flag="0"/>
      <psa03 value="0.9000282786" flag="0"/>
      <psa10 value="0.3760330374" flag="0"/>
      <psa30 value="0.0342634137" flag="0"/>
    </comp>
    <comp name="--.HHE">
      <acc value="1.2540025752" flag="0"/>
      <vel value="0.3990903553" flag="0"/>
      <psa03 value="1.2036207038" flag="0"/>
      <psa10 value="0.2837461893" flag="0"/>
      <psa30 value="0.0236642485" flag="0"/>
    </comp>
    <comp name="--.HHZ">
      <acc value="0.9596319435" flag="0"/>
      <vel value="0.2445573562" flag="0"/>
      <psa03 value="1.0854752178" flag="0"/>
      <psa10 value="0.1336927696" flag="0"/>
      <psa30 value="0.0167415716" flag="0"/>
    </comp>
  </station>
  <station code="CNIS" name="CNIS" netid="IV" insttype="" lat="40.7982" lon="14.1632">
    <comp name="--.HNE">
      <acc value="27.4788095155" flag="0"/>
      <vel value="9.9558359631" flag="0"/>
      <psa03 value="20.4187602035" flag="0"/>
      <psa10 value="4.1127784896" flag="0"/>
      <psa30 value="0.2363983287" flag="0"/>
    </comp>
    <comp name="--.HNN">
      <acc value="26.7433816384" flag="0"/>
      <vel value="11.1097723513" flag="0"/>
      <psa03 value="26.6780386970" flag="0"/>
      <psa10 value="3.4783294195" flag="0"/>
      <psa30 value="0.3471307052" flag="0"/>
    </comp>
    <comp name="--.HNZ">
      <acc value="46.5487071390" flag="0"/>
      <vel value="6.7829590802" flag="0"/>
      <psa03 value="12.1741948378" flag="0"/>
      <psa10 value="4.0281971067" flag="0"/>
      <psa30 value="0.3473075080" flag="0"/>
    </comp>
  </station>
  <station code="CRTO" name="CRTO" netid="IV" insttype="" lat="40.8212" lon="14.4223">
    <comp name="--.HHE">
      <acc value="0.1123019092" flag="0"/>
      <vel value="0.0638183863" flag="0"/>
      <psa03 value="0.3745036171" flag="0"/>
      <psa10 value="0.1218290579" flag="0"/>
      <psa30 value="0.0042669408" flag="0"/>
    </comp>
    <comp name="--.HHZ">
      <acc value="0.0604377735" flag="0"/>
      <vel value="0.0240534812" flag="0"/>
      <psa03 value="0.1587984855" flag="0"/>
      <psa10 value="0.0201807639" flag="0"/>
      <psa30 value="0.0016741489" flag="0"/>
    </comp>
    <comp name="--.HHN">
      <acc value="0.1138716738" flag="0"/>
      <vel value="0.0553176621" flag="0"/>
      <psa03 value="0.4634843488" flag="0"/>
      <psa10 value="0.0764123955" flag="0"/>
      <psa30 value="0.0037783853" flag="0"/>
    </comp>
  </station>
  <station code="CSFT" name="CSFT" netid="IV" insttype="" lat="40.8292" lon="14.1396">
    <comp name="--.HHE">
      <acc value="53.4070776373" flag="0"/>
      <vel value="4.5041070746" flag="0"/>
      <psa03 value="7.7951586301" flag="0"/>
      <psa10 value="0.3857901724" flag="0"/>
      <psa30 value="0.0454709860" flag="0"/>
    </comp>
    <comp name="--.HHN">
      <acc value="37.1010468903" flag="0"/>
      <vel value="3.1469288372" flag="0"/>
      <psa03 value="11.8516798089" flag="0"/>
      <psa10 value="0.4118638840" flag="0"/>
      <psa30 value="0.0489689886" flag="0"/>
    </comp>
    <comp name="--.HHZ">
      <acc value="34.1723144798" flag="0"/>
      <vel value="2.2985584694" flag="0"/>
      <psa03 value="4.9364182210" flag="0"/>
      <psa10 value="0.1791086817" flag="0"/>
      <psa30 value="0.0199044056" flag="0"/>
    </comp>
  </station>
  <station code="CSOB" name="CSOB" netid="IV" insttype="" lat="40.8265" lon="14.144">
    <comp name="--.HNE">
      <acc value="38.2211188147" flag="0"/>
      <vel value="3.9418502231" flag="0"/>
      <psa03 value="8.6054997118" flag="0"/>
      <psa10 value="0.4812469825" flag="0"/>
      <psa30 value="0.0404508756" flag="0"/>
    </comp>
    <comp name="--.HNN">
      <acc value="16.7305988925" flag="0"/>
      <vel value="1.8894152325" flag="0"/>
      <psa03 value="7.3799775997" flag="0"/>
      <psa10 value="0.4503037256" flag="0"/>
      <psa30 value="0.0564730941" flag="0"/>
    </comp>
    <comp name="--.HNZ">
      <acc value="12.9233688798" flag="0"/>
      <vel value="1.1768420078" flag="0"/>
      <psa03 value="2.7594220837" flag="0"/>
      <psa10 value="0.1823064293" flag="0"/>
      <psa30 value="0.0235537008" flag="0"/>
    </comp>
  </station>
  <station code="CSTH" name="CSTH" netid="IV" insttype="" lat="40.8294" lon="14.1493">
    <comp name="--.HNE">
      <acc value="12.0719202321" flag="0"/>
      <vel value="1.4742375831" flag="0"/>
      <psa03 value="4.6951296944" flag="0"/>
      <psa10 value="0.4288663766" flag="0"/>
      <psa30 value="0.0358974719" flag="0"/>
    </comp>
    <comp name="--.HNN">
      <acc value="17.6024950840" flag="0"/>
      <vel value="1.5600930430" flag="0"/>
      <psa03 value="3.1493344920" flag="0"/>
      <psa10 value="0.2842927180" flag="0"/>
      <psa30 value="0.0363624399" flag="0"/>
    </comp>
    <comp name="--.HNZ">
      <acc value="7.9129947131" flag="0"/>
      <vel value="0.7698919385" flag="0"/>
      <psa03 value="1.6426846228" flag="0"/>
      <psa10 value="0.1451557330" flag="0"/>
      <psa30 value="0.0148479411" flag="0"/>
    </comp>
  </station>
  <station code="GIUL" name="GIUL" netid="IV" insttype="" lat="41.5583" lon="13.2546">
    <comp name="--.HHE">
      <acc value="0.0006736206" flag="0"/>
      <vel value="0.0004091154" flag="0"/>
      <psa03 value="0.0011752839" flag="0"/>
      <psa10 value="0.0010915913" flag="0"/>
      <psa30 value="0.0000918103" flag="0"/>
    </comp>
    <comp name="--.HHZ">
      <acc value="0.0003722566" flag="0"/>
      <vel value="0.0003394073" flag="0"/>
      <psa03 value="0.0009847856" flag="0"/>
      <psa10 value="0.0005368353" flag="0"/>
      <psa30 value="0.0000836318" flag="0"/>
    </comp>
    <comp name="--.HHN">
      <acc value="0.0006870063" flag="0"/>
      <vel value="0.0005004226" flag="0"/>
      <psa03 value="0.0017105278" flag="0"/>
      <psa10 value="0.0009284779" flag="0"/>
      <psa30 value="0.0000917643" flag="0"/>
    </comp>
  </station>
  <station code="IBCM" name="IBCM" netid="IV" insttype="" lat="40.7109" lon="13.9161">
    <comp name="--.HNE">
      <acc value="0.0525359669" flag="0"/>
      <vel value="0.0340722500" flag="0"/>
      <psa03 value="0.1511793088" flag="0"/>
      <psa10 value="0.0421782860" flag="0"/>
      <psa30 value="0.0021973690" flag="0"/>
    </comp>
    <comp name="--.HNN">
      <acc value="0.0527709192" flag="0"/>
      <vel value="0.0328156126" flag="0"/>
      <psa03 value="0.1139942579" flag="0"/>
      <psa10 value="0.0366470519" flag="0"/>
      <psa30 value="0.0019801148" flag="0"/>
    </comp>
    <comp name="--.HNZ">
      <acc value="0.0257386584" flag="0"/>
      <vel value="0.0183875852" flag="0"/>
      <psa03 value="0.0748475316" flag="0"/>
      <psa10 value="0.0158968288" flag="0"/>
      <psa30 value="0.0009052330" flag="0"/>
    </comp>
  </station>
  <station code="IFOR" name="IFOR" netid="IV" insttype="" lat="40.7115" lon="13.8552">
    <comp name="--.HHE">
      <acc value="0.0490645950" flag="0"/>
      <vel value="0.0214941810" flag="0"/>
      <psa03 value="0.1463788116" flag="0"/>
      <psa10 value="0.0437790209" flag="0"/>
      <psa30 value="0.0020897231" flag="0"/>
    </comp>
    <comp name="--.HHZ">
      <acc value="0.0395035151" flag="0"/>
      <vel value="0.0148754666" flag="0"/>
      <psa03 value="0.0585168518" flag="0"/>
      <psa10 value="0.0119169487" flag="0"/>
      <psa30 value="0.0010403646" flag="0"/>
    </comp>
    <comp name="--.HHN">
      <acc value="0.0670621560" flag="0"/>
      <vel value="0.0343085432" flag="0"/>
      <psa03 value="0.1723824691" flag="0"/>
      <psa10 value="0.0447923118" flag="0"/>
      <psa30 value="0.0023758847" flag="0"/>
    </comp>
  </station>
  <station code="IMTC" name="IMTC" netid="IV" insttype="" lat="40.7209" lon="13.8758">
    <comp name="--.HHE">
      <acc value="0.0114404975" flag="0"/>
      <vel value="0.0075592736" flag="0"/>
      <psa03 value="0.0361657625" flag="0"/>
      <psa10 value="0.0100377490" flag="0"/>
      <psa30 value="0.0015784806" flag="0"/>
    </comp>
    <comp name="--.HHN">
      <acc value="0.0154964800" flag="0"/>
      <vel value="0.0098910835" flag="0"/>
      <psa03 value="0.0403510789" flag="0"/>
      <psa10 value="0.0095501525" flag="0"/>
      <psa30 value="0.0009660357" flag="0"/>
    </comp>
    <comp name="--.HHZ">
      <acc value="0.0147290994" flag="0"/>
      <vel value="0.0080133662" flag="0"/>
      <psa03 value="0.0491068143" flag="0"/>
      <psa10 value="0.0063262514" flag="0"/>
      <psa30 value="0.0014124951" flag="0"/>
    </comp>
  </station>
  <station code="IOCA" name="IOCA" netid="IV" insttype="" lat="40.7468" lon="13.9014">
    <comp name="--.HHE">
      <acc value="0.0618998759" flag="0"/>
      <vel value="0.0301244022" flag="0"/>
      <psa03 value="0.1575142090" flag="0"/>
      <psa10 value="0.0222411002" flag="0"/>
      <psa30 value="0.0033214430" flag="0"/>
    </comp>
    <comp name="--.HHN">
      <acc value="0.0382694524" flag="0"/>
      <vel value="0.0189691706" flag="0"/>
      <psa03 value="0.1430425324" flag="0"/>
      <psa10 value="0.0275419999" flag="0"/>
      <psa30 value="0.0026627659" flag="0"/>
    </comp>
    <comp name="--.HHZ">
      <acc value="0.0290079960" flag="0"/>
      <vel value="0.0134851023" flag="0"/>
      <psa03 value="0.1206439052" flag="0"/>
      <psa10 value="0.0070004551" flag="0"/>
      <psa30 value="0.0012677028" flag="0"/>
    </comp>
  </station>
  <station code="MCRV" name="MCRV" netid="IV" insttype="" lat="40.7826" lon="15.1684">
    <comp name="--.HHE">
      <acc value="0.0016841899" flag="0"/>
      <vel value="0.0009422182" flag="0"/>
      <psa03 value="0.0050383800" flag="0"/>
      <psa10 value="0.0014287544" flag="0"/>
      <psa30 value="0.0001387949" flag="0"/>
    </comp>
    <comp name="--.HHN">
      <acc value="0.0021851594" flag="0"/>
      <vel value="0.0013492170" flag="0"/>
      <psa03 value="0.0066232419" flag="0"/>
      <psa10 value="0.0012762907" flag="0"/>
      <psa30 value="0.0001019105" flag="0"/>
    </comp>
    <comp name="--.HHZ">
      <acc value="0.0009110555" flag="0"/>
      <vel value="0.0005926812" flag="0"/>
      <psa03 value="0.0036657000" flag="0"/>
      <psa10 value="0.0009648480" flag="0"/>
      <psa30 value="0.0001171968" flag="0"/>
    </comp>
  </station>
  <station code="MRB1" name="MRB1" netid="IV" insttype="" lat="41.1227" lon="14.9681">
    <comp name="--.HHE">
      <acc value="0.0045711517" flag="0"/>
      <vel value="0.0045667123" flag="0"/>
      <psa03 value="0.0090589518" flag="0"/>
      <psa10 value="0.0041829208" flag="0"/>
      <psa30 value="0.0004551908" flag="0"/>
    </comp>
    <comp name="--.HHN">
      <acc value="0.0044986240" flag="0"/>
      <vel value="0.0046934133" flag="0"/>
      <psa03 value="0.0090918961" flag="0"/>
      <psa10 value="0.0051128455" flag="0"/>
      <psa30 value="0.0005708056" flag="0"/>
    </comp>
    <comp name="--.HHZ">
      <acc value="0.0031698694" flag="0"/>
      <vel value="0.0022970951" flag="0"/>
      <psa03 value="0.0100250016" flag="0"/>
      <psa10 value="0.0022882155" flag="0"/>
      <psa30 value="0.0003387309" flag="0"/>
    </comp>
  </station>
  <station code="MRLC" name="MRLC" netid="IV" insttype="" lat="40.7564" lon="15.4889">
    <comp name="--.HHN">
      <acc value="0.0007618801" flag="0"/>
      <vel value="0.0003847804" flag="0"/>
      <psa03 value="0.0031558882" flag="0"/>
      <psa10 value="0.0005634754" flag="0"/>
      <psa30 value="0.0001012179" flag="0"/>
    </comp>
    <comp name="--.HHE">
      <acc value="0.0004864309" flag="0"/>
      <vel value="0.0003664433" flag="0"/>
      <psa03 value="0.0017746116" flag="0"/>
      <psa10 value="0.0007931233" flag="0"/>
      <psa30 value="0.0000938416" flag="0"/>
    </comp>
    <comp name="--.HHZ">
      <acc value="0.0003306941" flag="0"/>
      <vel value="0.0002491143" flag="0"/>
      <psa03 value="0.0012204765" flag="0"/>
      <psa10 value="0.0003871115" flag="0"/>
      <psa30 value="0.0000492357" flag="0"/>
    </comp>
  </station>
  <station code="OVO" name="OVO" netid="IV" insttype="" lat="40.8275" lon="14.3967">
    <comp name="--.HHE">
      <acc value="0.0285773172" flag="0"/>
      <vel value="0.0266549731" flag="0"/>
      <psa03 value="0.1060598933" flag="0"/>
      <psa10 value="0.0365156978" flag="0"/>
      <psa30 value="0.0030606059" flag="0"/>
    </comp>
    <comp name="--.HHZ">
      <acc value="0.0255090877" flag="0"/>
      <vel value="0.0150915736" flag="0"/>
      <psa03 value="0.0957980278" flag="0"/>
      <psa10 value="0.0218779883" flag="0"/>
