<stationlist created="1695816083">
	<station code="AVHO" name="AVHO" netid="IT" source="Italian Strong Motion Network (RAN)" insttype="" lat="40.9221000671" lon="14.798500061">
		<comp name="00.HNE" depth="0.0">
			<acc value="0.0026330311465164" flag="0"/>
			<vel value="0.00219351567802" flag="0"/>
			<psa03 value="0.00806046300257989" flag="0"/>
			<psa10 value="0.00425331051095937" flag="0"/>
			<psa30 value="0.000767392294305739" flag="0"/>
		</comp>
		<comp name="00.HNN" depth="0.0">
			<acc value="0.0031780009484574" flag="0"/>
			<vel value="0.00309561892589" flag="0"/>
			<psa03 value="0.00888158901273606" flag="0"/>
			<psa10 value="0.00444141734711871" flag="0"/>
			<psa30 value="0.000645496719323142" flag="0"/>
		</comp>
		<comp name="00.HNZ" depth="0.0">
			<acc value="0.002963308720611" flag="0"/>
			<vel value="0.00220660543724" flag="0"/>
			<psa03 value="0.0063928251859888" flag="0"/>
			<psa10 value="0.00307719228638737" flag="0"/>
			<psa30 value="0.000576747998389106" flag="0"/>
		</comp>
	</station>
	<station code="BAN" name="BAN" netid="IT" source="Italian Strong Motion Network (RAN)" insttype="" lat="40.8138" lon="14.1652">
		<comp name="00.HNE" depth="0.0">
			<acc value="5.44661375922" flag="0"/>
			<vel value="1.5486638628" flag="0"/>
			<psa03 value="6.3400813326238" flag="0"/>
			<psa10 value="0.523542902146223" flag="0"/>
			<psa30 value="0.0516858239322924" flag="0"/>
		</comp>
		<comp name="00.HNN" depth="0.0">
			<acc value="7.1200020228714" flag="0"/>
			<vel value="1.77264597153" flag="0"/>
			<psa03 value="4.67849992765175" flag="0"/>
			<psa10 value="0.99403779012367" flag="0"/>
			<psa30 value="0.0614304294646025" flag="0"/>
		</comp>
		<comp name="00.HNZ" depth="0.0">
			<acc value="8.5762706114724" flag="0"/>
			<vel value="2.04010949492" flag="0"/>
			<psa03 value="10.0451441081538" flag="0"/>
			<psa10 value="0.570421487622512" flag="0"/>
			<psa30 value="0.0581448051414947" flag="0"/>
		</comp>
	</station>
	<station code="BCLI" name="BCLI" netid="IT" source="Italian Strong Motion Network (RAN)" insttype="" lat="40.796799" lon="14.0777">
		<comp name="00.HNE" depth="0.0">
			<acc value="1.3125282265596" flag="0"/>
			<vel value="0.529333251875" flag="0"/>
			<psa03 value="3.14964031487934" flag="0"/>
			<psa10 value="0.380910423446189" flag="0"/>
			<psa30 value="0.0394615641349583" flag="0"/>
		</comp>
		<comp name="00.HNN" depth="0.0">
			<acc value="1.262558255883" flag="0"/>
			<vel value="0.693273280794" flag="0"/>
			<psa03 value="3.11115009842306" flag="0"/>
			<psa10 value="0.488532922908222" flag="0"/>
			<psa30 value="0.0366093751914511" flag="0"/>
		</comp>
		<comp name="00.HNZ" depth="0.0">
			<acc value="3.542735311209" flag="0"/>
			<vel value="0.675695751102" flag="0"/>
			<psa03 value="2.65238120723938" flag="0"/>
			<psa10 value="0.173731488858642" flag="0"/>
			<psa30 value="0.0197649793328786" flag="0"/>
		</comp>
	</station>
	<station code="CML" name="CML" netid="IT" source="Italian Strong Motion Network (RAN)" insttype="" lat="40.746983" lon="13.901292">
		<comp name="00.HGE" depth="0.0">
			<acc value="0.044735589752724" flag="0"/>
			<vel value="0.0251496970603" flag="0"/>
			<psa03 value="0.116682177538096" flag="0"/>
			<psa10 value="0.0229320285093636" flag="0"/>
			<psa30 value="0.00355355832246716" flag="0"/>
		</comp>
		<comp name="00.HGN" depth="0.0">
			<acc value="0.039299663887758" flag="0"/>
			<vel value="0.0197630528112" flag="0"/>
			<psa03 value="0.119966895134884" flag="0"/>
			<psa10 value="0.0281479752902203" flag="0"/>
			<psa30 value="0.00287421394423313" flag="0"/>
		</comp>
		<comp name="00.HGZ" depth="0.0">
			<acc value="0.032264311002876" flag="0"/>
			<vel value="0.0141524850497" flag="0"/>
			<psa03 value="0.138947798359591" flag="0"/>
			<psa10 value="0.00677881500071343" flag="0"/>
			<psa30 value="0.00150371534292936" flag="0"/>
		</comp>
	</station>
	<station code="MRT" name="MRT" netid="IT" source="Italian Strong Motion Network (RAN)" insttype="" lat="40.790179" lon="14.752924">
		<comp name="00.HGE" depth="0.0">
			<acc value="0.01542363248844" flag="0"/>
			<vel value="0.00759373926832" flag="0"/>
			<psa03 value="0.0750794111426333" flag="0"/>
			<psa10 value="0.005975796804727" flag="0"/>
			<psa30 value="0.000455474339604236" flag="0"/>
		</comp>
		<comp name="00.HGN" depth="0.0">
			<acc value="0.015587350671288" flag="0"/>
			<vel value="0.00881524253343" flag="0"/>
			<psa03 value="0.0591781963067777" flag="0"/>
			<psa10 value="0.00505246501350513" flag="0"/>
			<psa30 value="0.000305132609371176" flag="0"/>
		</comp>
		<comp name="00.HGZ" depth="0.0">
			<acc value="0.010493777930988" flag="0"/>
			<vel value="0.00422205665119" flag="0"/>
			<psa03 value="0.0301542006928115" flag="0"/>
			<psa10 value="0.00175566274935143" flag="0"/>
			<psa30 value="0.000251967316597977" flag="0"/>
		</comp>
	</station>
	<station code="MTC" name="MTC" netid="IT" source="Italian Strong Motion Network (RAN)" insttype="" lat="41.490828" lon="13.815002">
		<comp name="00.HNE" depth="0.0">
			<acc value="0.0022479746448528" flag="0"/>
			<vel value="0.0014176250868" flag="0"/>
			<psa03 value="0.00545007197800562" flag="0"/>
			<psa10 value="0.00127226475004383" flag="0"/>
			<psa30 value="0.000114872961332368" flag="0"/>
		</comp>
		<comp name="00.HNN" depth="0.0">
			<acc value="0.00333788669727" flag="0"/>
			<vel value="0.00211268700801" flag="0"/>
			<psa03 value="0.00670497867715124" flag="0"/>
			<psa10 value="0.00152495414572623" flag="0"/>
			<psa30 value="0.000180450222170679" flag="0"/>
		</comp>
		<comp name="00.HNZ" depth="0.0">
			<acc value="0.00075643575380298" flag="0"/>
			<vel value="0.000449902363311" flag="0"/>
			<psa03 value="0.00162908220255428" flag="0"/>
			<psa10 value="0.000662404154463621" flag="0"/>
			<psa30 value="6.94680524384788e-05" flag="0"/>
		</comp>
	</station>
	<station code="NAD" name="NAD" netid="IT" source="Italian Strong Motion Network (RAN)" insttype="" lat="40.87175" lon="14.28001">
		<comp name="00.HNE" depth="0.0">
			<acc value="0.28015845390168" flag="0"/>
			<vel value="0.123015354182" flag="0"/>
			<psa03 value="0.53398587394557" flag="0"/>
			<psa10 value="0.11851943883114" flag="0"/>
			<psa30 value="0.0130322108200163" flag="0"/>
		</comp>
		<comp name="00.HNN" depth="0.0">
			<acc value="0.3043048397691" flag="0"/>
			<vel value="0.138955797091" flag="0"/>
			<psa03 value="0.548086391367901" flag="0"/>
			<psa10 value="0.121572246064762" flag="0"/>
			<psa30 value="0.00938022389379387" flag="0"/>
		</comp>
		<comp name="00.HNZ" depth="0.0">
			<acc value="0.17141707509654" flag="0"/>
			<vel value="0.066757324421" flag="0"/>
			<psa03 value="0.395417694481837" flag="0"/>
			<psa10 value="0.0994746497072589" flag="0"/>
			<psa30 value="0.0123792558982689" flag="0"/>
		</comp>
	</station>
	<station code="NAP" name="NAP" netid="IT" source="Italian Strong Motion Network (RAN)" insttype="" lat="40.799255" lon="14.179607">
		<comp name="00.HGE" depth="0.0">
			<acc value="8.6528621395608" flag="0"/>
			<vel value="3.3237148797" flag="0"/>
			<psa03 value="8.21319608391157" flag="0"/>
			<psa10 value="1.21671464137218" flag="0"/>
			<psa30 value="0.0810533427194098" flag="0"/>
		</comp>
		<comp name="00.HGN" depth="0.0">
			<acc value="8.0998593565368" flag="0"/>
			<vel value="1.35888067791" flag="0"/>
			<psa03 value="4.65712251152609" flag="0"/>
			<psa10 value="0.682926660540732" flag="0"/>
			<psa30 value="0.0522472011204703" flag="0"/>
		</comp>
		<comp name="00.HGZ" depth="0.0">
			<acc value="4.7305759245678" flag="0"/>
			<vel value="0.987533994095" flag="0"/>
			<psa03 value="4.34465747890247" flag="0"/>
			<psa10 value="0.743047283236089" flag="0"/>
			<psa30 value="0.0341602629497628" flag="0"/>
		</comp>
	</station>
	<station code="CNIS" name="CNIS" netid="IV" source="Italian National Seismic Network (INSN)" insttype="" lat="40.79817" lon="14.163176">
		<comp name=".HNE" depth="0.0">
			<acc value="2.7911482343724" flag="0"/>
			<vel value="1.12336638374" flag="0"/>
			<psa03 value="2.09898004712755" flag="0"/>
			<psa10 value="0.425163384987535" flag="0"/>
			<psa30 value="0.0283972978482957" flag="0"/>
		</comp>
		<comp name=".HNN" depth="0.0">
			<acc value="2.8232773147404" flag="0"/>
			<vel value="1.24375272577" flag="0"/>
			<psa03 value="2.82635123189927" flag="0"/>
			<psa10 value="0.374688401267572" flag="0"/>
			<psa30 value="0.032786665289003" flag="0"/>
		</comp>
		<comp name=".HNZ" depth="0.0">
			<acc value="2.7556539390168" flag="0"/>
			<vel value="0.685633218564" flag="0"/>
			<psa03 value="1.37260501168057" flag="0"/>
			<psa10 value="0.424545674066856" flag="0"/>
			<psa30 value="0.0392675446154516" flag="0"/>
		</comp>
	</station>
	<station code="MELA" name="MELA" netid="IV" source="Italian National Seismic Network (INSN)" insttype="" lat="41.7059" lon="15.127">
		<comp name=".HNE" depth="1.0">
			<acc value="0.0011188307774412" flag="0"/>
			<vel value="0.000762828669367" flag="0"/>
			<psa03 value="0.00139952809598249" flag="0"/>
			<psa10 value="0.000746128099198346" flag="0"/>
			<psa30 value="0.000247618356625847" flag="0"/>
		</comp>
		<comp name=".HNN" depth="1.0">
			<acc value="0.001294022813187" flag="0"/>
			<vel value="0.000618726675909" flag="0"/>
			<psa03 value="0.00110970982467814" flag="0"/>
			<psa10 value="0.00088635305247865" flag="0"/>
			<psa30 value="0.000231675894266037" flag="0"/>
		</comp>
		<comp name=".HNZ" depth="1.0">
			<acc value="0.0004770169511061" flag="0"/>
			<vel value="0.000378342924919" flag="0"/>
			<psa03 value="0.00090181706517457" flag="0"/>
			<psa10 value="0.000490177803905786" flag="0"/>
			<psa30 value="0.00019502525019464" flag="0"/>
		</comp>
	</station>
	<station code="MOCO" name="MOCO" netid="IV" source="Italian National Seismic Network (INSN)" insttype="" lat="41.37" lon="15.158">
		<comp name=".HNE" depth="1.0">
			<acc value="0.00046517023730928" flag="0"/>
			<vel value="0.000512746820752" flag="0"/>
			<psa03 value="0.000843499318446257" flag="0"/>
			<psa10 value="0.000900197387563558" flag="0"/>
			<psa30 value="0.000229692273277609" flag="0"/>
		</comp>
		<comp name=".HNN" depth="1.0">
			<acc value="0.00028799039988396" flag="0"/>
			<vel value="0.000496050911281" flag="0"/>
			<psa03 value="0.000487422710913307" flag="0"/>
			<psa10 value="0.00044809969417077" flag="0"/>
			<psa30 value="0.000233894374562689" flag="0"/>
		</comp>
		<comp name=".HNZ" depth="1.0">
			<acc value="0.0002675731027923" flag="0"/>
			<vel value="0.000490550601255" flag="0"/>
			<psa03 value="0.000435697563996994" flag="0"/>
			<psa10 value="0.000400636901556767" flag="0"/>
			<psa30 value="0.000216221628309051" flag="0"/>
		</comp>
	</station>
	<station code="MRLC" name="MRLC" netid="IV" source="Italian National Seismic Network (INSN)" insttype="" lat="40.7564" lon="15.48892">
		<comp name=".HNE" depth="0.0">
			<acc value="0.00059992025861784" flag="0"/>
			<vel value="0.000466266704042" flag="0"/>
			<psa03 value="0.00210392078718503" flag="0"/>
			<psa10 value="0.000980874314045893" flag="0"/>
			<psa30 value="0.000134634674094548" flag="0"/>
		</comp>
		<comp name=".HNN" depth="0.0">
			<acc value="0.00090894450281262" flag="0"/>
			<vel value="0.00049761421296" flag="0"/>
			<psa03 value="0.00369579007535013" flag="0"/>
			<psa10 value="0.000681732759104256" flag="0"/>
			<psa30 value="0.000134952390454505" flag="0"/>
		</comp>
		<comp name=".HNZ" depth="0.0">
			<acc value="0.0004243332971994" flag="0"/>
			<vel value="0.000277292845924" flag="0"/>
			<psa03 value="0.00146762245065046" flag="0"/>
			<psa10 value="0.000472819691123287" flag="0"/>
			<psa30 value="8.89019635374922e-05" flag="0"/>
		</comp>
	</station>
	<station code="PIGN" name="PIGN" netid="IV" source="Italian National Seismic Network (INSN)" insttype="" lat="41.200001" lon="14.17989">
		<comp name=".HNE" depth="2.0">
			<acc value="0.001674669404592" flag="0"/>
			<vel value="0.00100515565619" flag="0"/>
			<psa03 value="0.00492950461540498" flag="0"/>
			<psa10 value="0.00135263081609059" flag="0"/>
			<psa30 value="0.000264077519881435" flag="0"/>
		</comp>
		<comp name=".HNN" depth="2.0">
			<acc value="0.0017408894858886" flag="0"/>
			<vel value="0.000991432205852" flag="0"/>
			<psa03 value="0.00446050512198799" flag="0"/>
			<psa10 value="0.00154869521064505" flag="0"/>
			<psa30 value="0.000280303881256666" flag="0"/>
		</comp>
		<comp name=".HNZ" depth="2.0">
			<acc value="0.00100076271421494" flag="0"/>
			<vel value="0.000745179289116" flag="0"/>
			<psa03 value="0.00232643617878105" flag="0"/>
			<psa10 value="0.00104612101913509" flag="0"/>
			<psa30 value="0.000233700820073947" flag="0"/>
		</comp>
	</station>
	<station code="PTMR" name="PTMR" netid="IV" source="Italian National Seismic Network (INSN)" insttype="" lat="40.761401" lon="14.034938">
		<comp name=".HNE" depth="0.0">
			<acc value="0.16704944400726" flag="0"/>
			<vel value="0.0901414345891" flag="0"/>
			<psa03 value="0.492806145987051" flag="0"/>
			<psa10 value="0.0869856098698991" flag="0"/>
			<psa30 value="0.00699102228756319" flag="0"/>
		</comp>
		<comp name=".HNN" depth="0.0">
			<acc value="0.14912040975504" flag="0"/>
			<vel value="0.0902129692933" flag="0"/>
			<psa03 value="0.454859465539007" flag="0"/>
			<psa10 value="0.126268599675163" flag="0"/>
			<psa30 value="0.0103390082418803" flag="0"/>
		</comp>
		<comp name=".HNZ" depth="0.0">
			<acc value="0.22886469170562" flag="0"/>
			<vel value="0.112249199249" flag="0"/>
			<psa03 value="0.640661690692907" flag="0"/>
			<psa10 value="0.064714759535179" flag="0"/>
			<psa30 value="0.00940279372225349" flag="0"/>
		</comp>
	</station>
	<station code="SGO" name="SGO" netid="IV" source="Italian National Seismic Network (INSN)" insttype="" lat="40.56045" lon="15.30738">
		<comp name=".HNE" depth="0.0">
			<acc value="0.00025131307630554" flag="0"/>
			<vel value="0.00021611455489" flag="0"/>
			<psa03 value="0.000272726684968414" flag="0"/>
			<psa10 value="0.00014319223480621" flag="0"/>
			<psa30 value="7.4834846764341e-05" flag="0"/>
		</comp>
		<comp name=".HNN" depth="0.0">
			<acc value="0.00024088518546876" flag="0"/>
			<vel value="0.000156552265636" flag="0"/>
			<psa03 value="0.000300107588174346" flag="0"/>
			<psa10 value="0.000147436930058889" flag="0"/>
			<psa30 value="5.10604300288844e-05" flag="0"/>
		</comp>
		<comp name=".HNZ" depth="0.0">
			<acc value="0.00031937318157354" flag="0"/>
			<vel value="0.000209143912988" flag="0"/>
			<psa03 value="0.000273415064717216" flag="0"/>
			<psa10 value="0.000160501872695675" flag="0"/>
			<psa30 value="9.24593541452748e-05" flag="0"/>
		</comp>
	</station>
	<station code="SGTA" name="SGTA" netid="IV" source="Italian National Seismic Network (INSN)" insttype="" lat="41.135" lon="15.365">
		<comp name=".HNE" depth="0.0">
			<acc value="0.00068979209423508" flag="0"/>
			<vel value="0.000670119569075" flag="0"/>
			<psa03 value="0.00198296241621578" flag="0"/>
			<psa10 value="0.00117625839009429" flag="0"/>
			<psa30 value="0.000139284513373664" flag="0"/>
		</comp>
		<comp name=".HNN" depth="0.0">
			<acc value="0.0006085264320444" flag="0"/>
			<vel value="0.000562299463319" flag="0"/>
			<psa03 value="0.00171002652956245" flag="0"/>
			<psa10 value="0.000876674071448604" flag="0"/>
			<psa30 value="0.000241856464512024" flag="0"/>
		</comp>
		<comp name=".HNZ" depth="0.0">
			<acc value="0.00051362249153886" flag="0"/>
			<vel value="0.000428639927966" flag="0"/>
			<psa03 value="0.00118684571254869" flag="0"/>
			<psa10 value="0.000483928425072124" flag="0"/>
			<psa30 value="0.000152592100665442" flag="0"/>
		</comp>
	</station>
	<station code="VAGA" name="VAGA" netid="IV" source="Italian National Seismic Network (INSN)" insttype="" lat="41.4154" lon="14.2342">
		<comp name=".HNE" depth="0.0">
			<acc value="0.0011920927490178" flag="0"/>
			<vel value="0.000984312128257" flag="0"/>
			<psa03 value="0.00334168230755055" flag="0"/>
			<psa10 value="0.001492696501006" flag="0"/>
			<psa30 value="0.000142193755576076" flag="0"/>
		</comp>
		<comp name=".HNN" depth="0.0">
			<acc value="0.0017059925154258" flag="0"/>
			<vel value="0.00118746488612" flag="0"/>
			<psa03 value="0.00473019681588745" flag="0"/>
			<psa10 value="0.0029532064948124" flag="0"/>
			<psa30 value="0.000188954301149453" flag="0"/>
		</comp>
		<comp name=".HNZ" depth="0.0">
			<acc value="0.0007341702676389" flag="0"/>
			<vel value="0.000643759547517" flag="0"/>
			<psa03 value="0.00249530104363534" flag="0"/>
			<psa10 value="0.00132148746393282" flag="0"/>
			<psa30 value="0.000165920483605108" flag="0"/>
		</comp>
	</station>
	<station code="VBKW" name="VBKW" netid="IV" source="Italian National Seismic Network (INSN)" insttype="" lat="40.824231" lon="14.414156">
		<comp name=".HNE" depth="0.0">
			<acc value="0.039285906658974" flag="0"/>
			<vel value="0.0203526695613" flag="0"/>
			<psa03 value="0.088656748074636" flag="0"/>
			<psa10 value="0.0290910896419353" flag="0"/>
			<psa30 value="0.00202858105020618" flag="0"/>
		</comp>
		<comp name=".HNN" depth="0.0">
			<acc value="0.046515325415118" flag="0"/>
			<vel value="0.0233622927588" flag="0"/>
			<psa03 value="0.0926775248480112" flag="0"/>
			<psa10 value="0.0391358638089075" flag="0"/>
			<psa30 value="0.00226216610740117" flag="0"/>
		</comp>
		<comp name=".HNZ" depth="0.0">
			<acc value="0.069405741875418" flag="0"/>
			<vel value="0.0157118351339" flag="0"/>
			<psa03 value="0.0664401461252347" flag="0"/>
			<psa10 value="0.034415418602594" flag="0"/>
			<psa30 value="0.00171129930268021" flag="0"/>
		</comp>
	</station>
	<station code="AND3" name="AND3" netid="IX" source="Irpinia Seismic Network (ISNet)" insttype="" lat="40.9298" lon="15.3331">
		<comp name="01.HNE" depth="0.0">
			<acc value="0.0013691984544792" flag="0"/>
			<vel value="0.0016716203589" flag="0"/>
			<psa03 value="0.00487021195053568" flag="0"/>
			<psa10 value="0.00276777147627789" flag="0"/>
			<psa30 value="0.000419765906389708" flag="0"/>
		</comp>
		<comp name="01.HNN" depth="0.0">
			<acc value="0.0017821699706688" flag="0"/>
			<vel value="0.00159646843092" flag="0"/>
			<psa03 value="0.0070345851473772" flag="0"/>
			<psa10 value="0.00304874032346068" flag="0"/>
			<psa30 value="0.000604607864803265" flag="0"/>
		</comp>
		<comp name="01.HNZ" depth="0.0">
			<acc value="0.0012017986476354" flag="0"/>
			<vel value="0.000829066164266" flag="0"/>
			<psa03 value="0.00332006368792501" flag="0"/>
			<psa10 value="0.00127942596663057" flag="0"/>
			<psa30 value="0.000610189797079373" flag="0"/>
		</comp>
	</station>
	<station code="BEL3" name="BEL3" netid="IX" source="Irpinia Seismic Network (ISNet)" insttype="" lat="40.7153" lon="15.6369">
		<comp name="02.HNE" depth="0.0">
			<acc value="0.0011232737115156" flag="0"/>
			<vel value="0.000912138736291" flag="0"/>
			<psa03 value="0.00300523749369484" flag="0"/>
			<psa10 value="0.0014820445063013" flag="0"/>
			<psa30 value="0.000110347140685871" flag="0"/>
		</comp>
		<comp name="02.HNN" depth="0.0">
			<acc value="0.00086941772012496" flag="0"/>
			<vel value="0.000687196961245" flag="0"/>
			<psa03 value="0.00287933820296103" flag="0"/>
			<psa10 value="0.00105048302684428" flag="0"/>
			<psa30 value="0.000122149055317133" flag="0"/>
		</comp>
		<comp name="02.HNZ" depth="0.0">
			<acc value="0.00066249742136802" flag="0"/>
			<vel value="0.000502610110675" flag="0"/>
			<psa03 value="0.00191368015733568" flag="0"/>
			<psa10 value="0.000460485622101162" flag="0"/>
			<psa30 value="0.000113739683133092" flag="0"/>
		</comp>
	</station>
	<station code="BENI" name="BENI" netid="IX" source="Irpinia Seismic Network (ISNet)" insttype="" lat="41.1298" lon="14.7716">
		<comp name="01.HNE" depth="0.0">
			<acc value="0.0030838056950646" flag="0"/>
			<vel value="0.00288494647424" flag="0"/>
			<psa03 value="0.00897403524099172" flag="0"/>
