<stationlist created="1695810679">
	<station code="ARI" name="ARI" netid="IT" source="Italian Strong Motion Network (RAN)" insttype="" lat="41.15463" lon="15.09039">
		<comp name="00.HGE" depth="0.0">
			<acc value="0.0035701788260736" flag="0"/>
			<vel value="0.00258621599414" flag="0"/>
			<psa03 value="0.0110548260779742" flag="0"/>
			<psa10 value="0.00340983768188822" flag="0"/>
			<psa30 value="0.000880370195202566" flag="0"/>
		</comp>
		<comp name="00.HGN" depth="0.0">
			<acc value="0.0022437273835494" flag="0"/>
			<vel value="0.00224003530556" flag="0"/>
			<psa03 value="0.00566724912536909" flag="0"/>
			<psa10 value="0.00401790226005661" flag="0"/>
			<psa30 value="0.000715315563227804" flag="0"/>
		</comp>
		<comp name="00.HGZ" depth="0.0">
			<acc value="0.0022710752481078" flag="0"/>
			<vel value="0.00199803393388" flag="0"/>
			<psa03 value="0.00399084998620351" flag="0"/>
			<psa10 value="0.00276034293729594" flag="0"/>
			<psa30 value="0.000853212146115351" flag="0"/>
		</comp>
	</station>
	<station code="ARR" name="ARR" netid="IT" source="Italian Strong Motion Network (RAN)" insttype="" lat="41.141762" lon="15.082042">
		<comp name="00.HNE" depth="0.0">
			<acc value="0.0048722844685086" flag="0"/>
			<vel value="0.00265200880266" flag="0"/>
			<psa03 value="0.00701972413687043" flag="0"/>
			<psa10 value="0.0043280060841749" flag="0"/>
			<psa30 value="0.000938136938636275" flag="0"/>
		</comp>
		<comp name="00.HNN" depth="0.0">
			<acc value="0.0031479102979422" flag="0"/>
			<vel value="0.00210269013679" flag="0"/>
			<psa03 value="0.00625526984967402" flag="0"/>
			<psa10 value="0.00477680206467861" flag="0"/>
			<psa30 value="0.00102022258474083" flag="0"/>
		</comp>
		<comp name="00.HNZ" depth="0.0">
			<acc value="0.0027785048699868" flag="0"/>
			<vel value="0.00252546297205" flag="0"/>
			<psa03 value="0.00551673655049071" flag="0"/>
			<psa10 value="0.00356175321429328" flag="0"/>
			<psa30 value="0.000863588979365195" flag="0"/>
		</comp>
	</station>
	<station code="ATI" name="ATI" netid="IT" source="Italian Strong Motion Network (RAN)" insttype="" lat="41.621971" lon="13.794765">
		<comp name="00.HNE" depth="0.0">
			<acc value="0.00061659139588428" flag="0"/>
			<vel value="0.000543832769002" flag="0"/>
			<psa03 value="0.0010188559056597" flag="0"/>
			<psa10 value="0.00112012373395078" flag="0"/>
			<psa30 value="0.000146132909754886" flag="0"/>
		</comp>
		<comp name="00.HNN" depth="0.0">
			<acc value="0.0009094234823268" flag="0"/>
			<vel value="0.00274360102042" flag="0"/>
			<psa03 value="0.00161348269911323" flag="0"/>
			<psa10 value="0.00146757112563484" flag="0"/>
			<psa30 value="0.00118470462670226" flag="0"/>
		</comp>
		<comp name="00.HNZ" depth="0.0">
			<acc value="0.0003696031751106" flag="0"/>
			<vel value="0.000505268995102" flag="0"/>
			<psa03 value="0.000654999567266295" flag="0"/>
			<psa10 value="0.000651863319465699" flag="0"/>
			<psa30 value="0.000210225163364642" flag="0"/>
		</comp>
	</station>
	<station code="AVHO" name="AVHO" netid="IT" source="Italian Strong Motion Network (RAN)" insttype="" lat="40.9221000671" lon="14.798500061">
		<comp name="00.HNE" depth="0.0">
			<acc value="0.0026330311465164" flag="0"/>
			<vel value="0.00219351567802" flag="0"/>
			<psa03 value="0.00806046300257989" flag="0"/>
			<psa10 value="0.00425331051095937" flag="0"/>
			<psa30 value="0.000767392294305739" flag="0"/>
		</comp>
		<comp name="00.HNN" depth="0.0">
			<acc value="0.0031780009484574" flag="0"/>
			<vel value="0.00309561892589" flag="0"/>
			<psa03 value="0.00888158901273606" flag="0"/>
			<psa10 value="0.00444141734711871" flag="0"/>
			<psa30 value="0.000645496719323142" flag="0"/>
		</comp>
		<comp name="00.HNZ" depth="0.0">
			<acc value="0.002963308720611" flag="0"/>
			<vel value="0.00220660543724" flag="0"/>
			<psa03 value="0.0063928251859888" flag="0"/>
			<psa10 value="0.00307719228638737" flag="0"/>
			<psa30 value="0.000576747998389106" flag="0"/>
		</comp>
	</station>
	<station code="BAN" name="BAN" netid="IT" source="Italian Strong Motion Network (RAN)" insttype="" lat="40.8138" lon="14.1652">
		<comp name="00.HNE" depth="0.0">
			<acc value="5.44661375922" flag="0"/>
			<vel value="1.5486638628" flag="0"/>
			<psa03 value="6.3400813326238" flag="0"/>
			<psa10 value="0.523542902146223" flag="0"/>
			<psa30 value="0.0516858239322924" flag="0"/>
		</comp>
		<comp name="00.HNN" depth="0.0">
			<acc value="7.1200020228714" flag="0"/>
			<vel value="1.77264597153" flag="0"/>
			<psa03 value="4.67849992765175" flag="0"/>
			<psa10 value="0.99403779012367" flag="0"/>
			<psa30 value="0.0614304294646025" flag="0"/>
		</comp>
		<comp name="00.HNZ" depth="0.0">
			<acc value="8.5762706114724" flag="0"/>
			<vel value="2.04010949492" flag="0"/>
			<psa03 value="10.0451441081538" flag="0"/>
			<psa10 value="0.570421487622512" flag="0"/>
			<psa30 value="0.0581448051414947" flag="0"/>
		</comp>
	</station>
	<station code="BCLI" name="BCLI" netid="IT" source="Italian Strong Motion Network (RAN)" insttype="" lat="40.796799" lon="14.0777">
		<comp name="00.HNE" depth="0.0">
			<acc value="1.3125282265596" flag="0"/>
			<vel value="0.529333251875" flag="0"/>
			<psa03 value="3.14964031487934" flag="0"/>
			<psa10 value="0.380910423446189" flag="0"/>
			<psa30 value="0.0394615641349583" flag="0"/>
		</comp>
		<comp name="00.HNN" depth="0.0">
			<acc value="1.262558255883" flag="0"/>
			<vel value="0.693273280794" flag="0"/>
			<psa03 value="3.11115009842306" flag="0"/>
			<psa10 value="0.488532922908222" flag="0"/>
			<psa30 value="0.0366093751914511" flag="0"/>
		</comp>
		<comp name="00.HNZ" depth="0.0">
			<acc value="3.542735311209" flag="0"/>
			<vel value="0.675695751102" flag="0"/>
			<psa03 value="2.65238120723938" flag="0"/>
			<psa10 value="0.173731488858642" flag="0"/>
			<psa30 value="0.0197649793328786" flag="0"/>
		</comp>
	</station>
	<station code="BOI" name="BOI" netid="IT" source="Italian Strong Motion Network (RAN)" insttype="" lat="41.481264" lon="14.47253">
		<comp name="00.HGE" depth="0.0">
			<acc value="0.00081643359222534" flag="0"/>
			<vel value="0.000926291494085" flag="0"/>
			<psa03 value="0.00165269281612145" flag="0"/>
			<psa10 value="0.00123086786707943" flag="0"/>
			<psa30 value="0.000254390680259079" flag="0"/>
		</comp>
		<comp name="00.HGN" depth="0.0">
			<acc value="0.00083994893583924" flag="0"/>
			<vel value="0.000861103790974" flag="0"/>
			<psa03 value="0.00120549066513249" flag="0"/>
			<psa10 value="0.00172645276746129" flag="0"/>
			<psa30 value="0.000274639703948968" flag="0"/>
		</comp>
		<comp name="00.HGZ" depth="0.0">
			<acc value="0.000603176130909" flag="0"/>
			<vel value="0.000834116567103" flag="0"/>
			<psa03 value="0.00103050487070594" flag="0"/>
			<psa10 value="0.00138314940029872" flag="0"/>
			<psa30 value="0.000180967222565419" flag="0"/>
		</comp>
	</station>
	<station code="BOJ" name="BOJ" netid="IT" source="Italian Strong Motion Network (RAN)" insttype="" lat="41.484451" lon="14.472103">
		<comp name="00.HNE" depth="0.0">
			<acc value="0.0023367648635328" flag="0"/>
			<vel value="0.00364621807048" flag="0"/>
			<psa03 value="0.00457884564378113" flag="0"/>
			<psa10 value="0.00629233371120939" flag="0"/>
			<psa30 value="0.000857815732330779" flag="0"/>
		</comp>
		<comp name="00.HNN" depth="0.0">
			<acc value="0.002189527771437" flag="0"/>
			<vel value="0.00289570357818" flag="0"/>
			<psa03 value="0.00503206935252337" flag="0"/>
			<psa10 value="0.00639683907169726" flag="0"/>
			<psa30 value="0.00073908307520813" flag="0"/>
		</comp>
		<comp name="00.HNZ" depth="0.0">
			<acc value="0.0021359859138828" flag="0"/>
			<vel value="0.00250730720887" flag="0"/>
			<psa03 value="0.00245256839509802" flag="0"/>
			<psa10 value="0.00447291709007144" flag="0"/>
			<psa30 value="0.000329159253101896" flag="0"/>
		</comp>
	</station>
	<station code="CBAG" name="CBAG" netid="IT" source="Italian Strong Motion Network (RAN)" insttype="" lat="41.595199585" lon="14.6696996689">
		<comp name="00.HNE" depth="0.0">
			<acc value="0.00080928911266584" flag="0"/>
			<vel value="0.000867865035091" flag="0"/>
			<psa03 value="0.00162376104927197" flag="0"/>
			<psa10 value="0.00109495640267647" flag="0"/>
			<psa30 value="0.000417701889450103" flag="0"/>
		</comp>
		<comp name="00.HNN" depth="0.0">
			<acc value="0.00072969820314888" flag="0"/>
			<vel value="0.00102746415917" flag="0"/>
			<psa03 value="0.00162299814066318" flag="0"/>
			<psa10 value="0.0010222768223835" flag="0"/>
			<psa30 value="0.000398863375866219" flag="0"/>
		</comp>
		<comp name="00.HNZ" depth="0.0">
			<acc value="0.00051457261613286" flag="0"/>
			<vel value="0.000765930168061" flag="0"/>
			<psa03 value="0.000832867673394657" flag="0"/>
			<psa10 value="0.000641735773564476" flag="0"/>
			<psa30 value="0.000436979676925559" flag="0"/>
		</comp>
	</station>
	<station code="CBHG" name="CBHG" netid="IT" source="Italian Strong Motion Network (RAN)" insttype="" lat="41.5479011536" lon="14.6147003174">
		<comp name="00.HNE" depth="0.0">
			<acc value="0.0021589355452038" flag="0"/>
			<vel value="0.000888690725983" flag="0"/>
			<psa03 value="0.00180697061439174" flag="0"/>
			<psa10 value="0.00136591993861732" flag="0"/>
			<psa30 value="0.000297708028987728" flag="0"/>
		</comp>
		<comp name="00.HNN" depth="0.0">
			<acc value="0.0021211339042884" flag="0"/>
			<vel value="0.00100695647935" flag="0"/>
			<psa03 value="0.0016017861234912" flag="0"/>
			<psa10 value="0.00164056539815721" flag="0"/>
			<psa30 value="0.000390361562662765" flag="0"/>
		</comp>
		<comp name="00.HNZ" depth="0.0">
			<acc value="0.0018510951511866" flag="0"/>
			<vel value="0.000915231334598" flag="0"/>
			<psa03 value="0.000963160240187804" flag="0"/>
			<psa10 value="0.000971724176647176" flag="0"/>
			<psa30 value="0.000258993433085584" flag="0"/>
		</comp>
	</station>
	<station code="CLPS" name="CLPS" netid="IT" source="Italian Strong Motion Network (RAN)" insttype="" lat="41.521999" lon="14.3921">
		<comp name="00.HNE" depth="0.0">
			<acc value="0.0013387555353156" flag="0"/>
			<vel value="0.00166028977036" flag="0"/>
			<psa03 value="0.00204647394776358" flag="0"/>
			<psa10 value="0.00212382522424945" flag="0"/>
			<psa30 value="0.000387181065511986" flag="0"/>
		</comp>
		<comp name="00.HNN" depth="0.0">
			<acc value="0.0014311088873862" flag="0"/>
			<vel value="0.00140772223103" flag="0"/>
			<psa03 value="0.0023944358006094" flag="0"/>
			<psa10 value="0.00211338711089849" flag="0"/>
			<psa30 value="0.000320033570445235" flag="0"/>
		</comp>
		<comp name="00.HNZ" depth="0.0">
			<acc value="0.00093954202285194" flag="0"/>
			<vel value="0.00111799244792" flag="0"/>
			<psa03 value="0.00152696964382683" flag="0"/>
			<psa10 value="0.00132659928694156" flag="0"/>
			<psa30 value="0.000317798422377303" flag="0"/>
		</comp>
	</station>
	<station code="CMG" name="CMG" netid="IT" source="Italian Strong Motion Network (RAN)" insttype="" lat="40.670071" lon="15.101825">
		<comp name="00.HNE" depth="0.0">
			<acc value="0.002063151005994" flag="0"/>
			<vel value="0.00131003961305" flag="0"/>
			<psa03 value="0.00845442529857095" flag="0"/>
			<psa10 value="0.00132562234722284" flag="0"/>
			<psa30 value="0.000123745710566672" flag="0"/>
		</comp>
		<comp name="00.HNN" depth="0.0">
			<acc value="0.0016672549968072" flag="0"/>
			<vel value="0.000969120511821" flag="0"/>
			<psa03 value="0.00454966174431113" flag="0"/>
			<psa10 value="0.00139522520026015" flag="0"/>
			<psa30 value="0.000260046523681137" flag="0"/>
		</comp>
		<comp name="00.HNZ" depth="0.0">
			<acc value="0.002688227622744" flag="0"/>
			<vel value="0.00127150664089" flag="0"/>
			<psa03 value="0.0132470767725899" flag="0"/>
			<psa10 value="0.00086620876879917" flag="0"/>
			<psa30 value="0.000194908237234989" flag="0"/>
		</comp>
	</station>
	<station code="CML" name="CML" netid="IT" source="Italian Strong Motion Network (RAN)" insttype="" lat="40.746983" lon="13.901292">
		<comp name="00.HGE" depth="0.0">
			<acc value="0.044735589752724" flag="0"/>
			<vel value="0.0251496970603" flag="0"/>
			<psa03 value="0.116682177538096" flag="0"/>
			<psa10 value="0.0229320285093636" flag="0"/>
			<psa30 value="0.00355355832246716" flag="0"/>
		</comp>
		<comp name="00.HGN" depth="0.0">
			<acc value="0.039299663887758" flag="0"/>
			<vel value="0.0197630528112" flag="0"/>
			<psa03 value="0.119966895134884" flag="0"/>
			<psa10 value="0.0281479752902203" flag="0"/>
			<psa30 value="0.00287421394423313" flag="0"/>
		</comp>
		<comp name="00.HGZ" depth="0.0">
			<acc value="0.032264311002876" flag="0"/>
			<vel value="0.0141524850497" flag="0"/>
			<psa03 value="0.138947798359591" flag="0"/>
			<psa10 value="0.00677881500071343" flag="0"/>
			<psa30 value="0.00150371534292936" flag="0"/>
		</comp>
	</station>
	<station code="DUR" name="DUR" netid="IT" source="Italian Strong Motion Network (RAN)" insttype="" lat="41.6611" lon="14.4565">
		<comp name="00.HNE" depth="0.0">
			<acc value="0.00080057959899192" flag="0"/>
			<vel value="0.00171156681255" flag="0"/>
			<psa03 value="0.00136978149650889" flag="0"/>
			<psa10 value="0.00180843530777707" flag="0"/>
			<psa30 value="0.000381043523513209" flag="0"/>
		</comp>
		<comp name="00.HNN" depth="0.0">
			<acc value="0.0006052993144794" flag="0"/>
			<vel value="0.000852789039381" flag="0"/>
			<psa03 value="0.00119565073919875" flag="0"/>
			<psa10 value="0.00101915356861097" flag="0"/>
			<psa30 value="0.000315818473507051" flag="0"/>
		</comp>
		<comp name="00.HNZ" depth="0.0">
			<acc value="0.00038818035127476" flag="0"/>
			<vel value="0.00039465814755" flag="0"/>
			<psa03 value="0.000595614570473392" flag="0"/>
			<psa10 value="0.000369165724948842" flag="0"/>
			<psa30 value="0.000168548353001067" flag="0"/>
		</comp>
	</station>
	<station code="ISNH" name="ISNH" netid="IT" source="Italian Strong Motion Network (RAN)" insttype="" lat="41.583698" lon="14.2231">
		<comp name="00.HNE" depth="0.0">
			<acc value="0.0012237783489102" flag="0"/>
			<vel value="0.000871021082062" flag="0"/>
			<psa03 value="0.00133312029509729" flag="0"/>
			<psa10 value="0.00190240024342867" flag="0"/>
			<psa30 value="0.000196023232973124" flag="0"/>
		</comp>
		<comp name="00.HNN" depth="0.0">
			<acc value="0.0011603562045624" flag="0"/>
			<vel value="0.000661818324095" flag="0"/>
			<psa03 value="0.00186351391089207" flag="0"/>
			<psa10 value="0.000838207421660638" flag="0"/>
			<psa30 value="0.000199218822269293" flag="0"/>
		</comp>
		<comp name="00.HNZ" depth="0.0">
			<acc value="0.00101822023929732" flag="0"/>
			<vel value="0.000539876403311" flag="0"/>
			<psa03 value="0.00143236734824428" flag="0"/>
			<psa10 value="0.00068947971761602" flag="0"/>
			<psa30 value="0.000199952073968612" flag="0"/>
		</comp>
	</station>
	<station code="ISR" name="ISR" netid="IT" source="Italian Strong Motion Network (RAN)" insttype="" lat="41.6106" lon="14.2359">
		<comp name="00.HNE" depth="0.0">
			<acc value="0.0010470725431596" flag="0"/>
			<vel value="0.00112387068287" flag="0"/>
			<psa03 value="0.00437753706065732" flag="0"/>
			<psa10 value="0.0022018210160856" flag="0"/>
			<psa30 value="0.000217934619390581" flag="0"/>
		</comp>
		<comp name="00.HNN" depth="0.0">
			<acc value="0.00097925660927784" flag="0"/>
			<vel value="0.00142196763267" flag="0"/>
			<psa03 value="0.00225958116402858" flag="0"/>
			<psa10 value="0.00228930563964028" flag="0"/>
			<psa30 value="0.000218593699509855" flag="0"/>
		</comp>
		<comp name="00.HNZ" depth="0.0">
			<acc value="0.0010401620843982" flag="0"/>
			<vel value="0.000658272236919" flag="0"/>
			<psa03 value="0.00278593846099889" flag="0"/>
			<psa10 value="0.00131252718285978" flag="0"/>
			<psa30 value="0.000155985932260914" flag="0"/>
		</comp>
	</station>
	<station code="MRT" name="MRT" netid="IT" source="Italian Strong Motion Network (RAN)" insttype="" lat="40.790179" lon="14.752924">
		<comp name="00.HGE" depth="0.0">
			<acc value="0.01542363248844" flag="0"/>
			<vel value="0.00759373926832" flag="0"/>
			<psa03 value="0.0750794111426333" flag="0"/>
			<psa10 value="0.005975796804727" flag="0"/>
			<psa30 value="0.000455474339604236" flag="0"/>
		</comp>
		<comp name="00.HGN" depth="0.0">
			<acc value="0.015587350671288" flag="0"/>
			<vel value="0.00881524253343" flag="0"/>
			<psa03 value="0.0591781963067777" flag="0"/>
			<psa10 value="0.00505246501350513" flag="0"/>
			<psa30 value="0.000305132609371176" flag="0"/>
		</comp>
		<comp name="00.HGZ" depth="0.0">
			<acc value="0.010493777930988" flag="0"/>
			<vel value="0.00422205665119" flag="0"/>
			<psa03 value="0.0301542006928115" flag="0"/>
			<psa10 value="0.00175566274935143" flag="0"/>
			<psa30 value="0.000251967316597977" flag="0"/>
		</comp>
	</station>
	<station code="MTC" name="MTC" netid="IT" source="Italian Strong Motion Network (RAN)" insttype="" lat="41.490828" lon="13.815002">
		<comp name="00.HNE" depth="0.0">
			<acc value="0.0022872212009178" flag="0"/>
			<vel value="0.0015104941434" flag="0"/>
			<psa03 value="0.00545861616382816" flag="0"/>
			<psa10 value="0.00129445368088965" flag="0"/>
			<psa30 value="0.000196385418424321" flag="0"/>
		</comp>
		<comp name="00.HNN" depth="0.0">
			<acc value="0.0033565898399376" flag="0"/>
			<vel value="0.00211309337062" flag="0"/>
			<psa03 value="0.00670209372038414" flag="0"/>
			<psa10 value="0.00159421326505428" flag="0"/>
			<psa30 value="0.000279267718865591" flag="0"/>
		</comp>
		<comp name="00.HNZ" depth="0.0">
			<acc value="0.00079893796088952" flag="0"/>
			<vel value="0.00067334234061" flag="0"/>
			<psa03 value="0.00162450882016498" flag="0"/>
			<psa10 value="0.000650725119063075" flag="0"/>
			<psa30 value="0.000158936622521403" flag="0"/>
		</comp>
	</station>
	<station code="NAD" name="NAD" netid="IT" source="Italian Strong Motion Network (RAN)" insttype="" lat="40.87175" lon="14.28001">
		<comp name="00.HNE" depth="0.0">
			<acc value="0.28015845390168" flag="0"/>
			<vel value="0.123015354182" flag="0"/>
			<psa03 value="0.53398587394557" flag="0"/>
			<psa10 value="0.11851943883114" flag="0"/>
			<psa30 value="0.0130322108200163" flag="0"/>
		</comp>
		<comp name="00.HNN" depth="0.0">
			<acc value="0.3043048397691" flag="0"/>
			<vel value="0.138955797091" flag="0"/>
			<psa03 value="0.548086391367901" flag="0"/>
			<psa10 value="0.121572246064762" flag="0"/>
			<psa30 value="0.00938022389379387" flag="0"/>
		</comp>
		<comp name="00.HNZ" depth="0.0">
			<acc value="0.17141707509654" flag="0"/>
			<vel value="0.066757324421" flag="0"/>
			<psa03 value="0.395417694481837" flag="0"/>
			<psa10 value="0.0994746497072589" flag="0"/>
			<psa30 value="0.0123792558982689" flag="0"/>
		</comp>
	</station>
	<station code="NAP" name="NAP" netid="IT" source="Italian Strong Motion Network (RAN)" insttype="" lat="40.799255" lon="14.179607">
		<comp name="00.HGE" depth="0.0">
			<acc value="8.6528621395608" flag="0"/>
			<vel value="3.3237148797" flag="0"/>
			<psa03 value="8.21319608391157" flag="0"/>
			<psa10 value="1.21671464137218" flag="0"/>
			<psa30 value="0.0810533427194098" flag="0"/>
		</comp>
		<comp name="00.HGN" depth="0.0">
			<acc value="8.0998593565368" flag="0"/>
			<vel value="1.35888067791" flag="0"/>
			<psa03 value="4.65712251152609" flag="0"/>
			<psa10 value="0.682926660540732" flag="0"/>
			<psa30 value="0.0522472011204703" flag="0"/>
		</comp>
		<comp name="00.HGZ" depth="0.0">
			<acc value="4.7305759245678" flag="0"/>
			<vel value="0.987533994095" flag="0"/>
			<psa03 value="4.34465747890247" flag="0"/>
			<psa10 value="0.743047283236089" flag="0"/>
			<psa30 value="0.0341602629497628" flag="0"/>
		</comp>
	</station>
	<station code="PGN" name="PGN" netid="IT" source="Italian Strong Motion Network (RAN)" insttype="" lat="41.452432" lon="13.791633">
		<comp name="00.HGE" depth="0.0">
			<acc value="0.00318402488142" flag="0"/>
