<stationlist created="1695803473">
	<station code="ARI" name="ARI" netid="IT" source="Italian Strong Motion Network (RAN)" insttype="" lat="41.15463" lon="15.09039">
		<comp name="00.HGE" depth="0.0">
			<acc value="0.0035701788260736" flag="0"/>
			<vel value="0.00258621599414" flag="0"/>
			<psa03 value="0.0110548260779742" flag="0"/>
			<psa10 value="0.00340983768188822" flag="0"/>
			<psa30 value="0.000880370195202566" flag="0"/>
		</comp>
		<comp name="00.HGN" depth="0.0">
			<acc value="0.0022437273835494" flag="0"/>
			<vel value="0.00224003530556" flag="0"/>
			<psa03 value="0.00566724912536909" flag="0"/>
			<psa10 value="0.00401790226005661" flag="0"/>
			<psa30 value="0.000715315563227804" flag="0"/>
		</comp>
		<comp name="00.HGZ" depth="0.0">
			<acc value="0.0022710752481078" flag="0"/>
			<vel value="0.00199803393388" flag="0"/>
			<psa03 value="0.00399084998620351" flag="0"/>
			<psa10 value="0.00276034293729594" flag="0"/>
			<psa30 value="0.000853212146115351" flag="0"/>
		</comp>
	</station>
	<station code="ARL" name="ARL" netid="IT" source="Italian Strong Motion Network (RAN)" insttype="" lat="41.057068" lon="14.542928">
		<comp name="00.HNE" depth="0.0">
			<acc value="0.0017792010707754" flag="0"/>
			<vel value="0.00160912324671" flag="0"/>
			<psa03 value="0.00757225813533634" flag="0"/>
			<psa10 value="0.00124466104643578" flag="0"/>
			<psa30 value="0.000278706405639977" flag="0"/>
		</comp>
		<comp name="00.HNN" depth="0.0">
			<acc value="0.0016521787184562" flag="0"/>
			<vel value="0.00148043450994" flag="0"/>
			<psa03 value="0.00505192808992524" flag="0"/>
			<psa10 value="0.00190224636604911" flag="0"/>
			<psa30 value="0.000364842528401823" flag="0"/>
		</comp>
		<comp name="00.HNZ" depth="0.0">
			<acc value="0.0014276529495084" flag="0"/>
			<vel value="0.00120814929402" flag="0"/>
			<psa03 value="0.0041255125527731" flag="0"/>
			<psa10 value="0.00180342392111044" flag="0"/>
			<psa30 value="0.000357663250726745" flag="0"/>
		</comp>
	</station>
	<station code="ARR" name="ARR" netid="IT" source="Italian Strong Motion Network (RAN)" insttype="" lat="41.141762" lon="15.082042">
		<comp name="00.HNE" depth="0.0">
			<acc value="0.0048722844685086" flag="0"/>
			<vel value="0.00265200880266" flag="0"/>
			<psa03 value="0.00701972413687043" flag="0"/>
			<psa10 value="0.0043280060841749" flag="0"/>
			<psa30 value="0.000938136938636275" flag="0"/>
		</comp>
		<comp name="00.HNN" depth="0.0">
			<acc value="0.0031479102979422" flag="0"/>
			<vel value="0.00210269013679" flag="0"/>
			<psa03 value="0.00625526984967402" flag="0"/>
			<psa10 value="0.00477680206467861" flag="0"/>
			<psa30 value="0.00102022258474083" flag="0"/>
		</comp>
		<comp name="00.HNZ" depth="0.0">
			<acc value="0.0027785048699868" flag="0"/>
			<vel value="0.00252546297205" flag="0"/>
			<psa03 value="0.00551673655049071" flag="0"/>
			<psa10 value="0.00356175321429328" flag="0"/>
			<psa30 value="0.000863588979365195" flag="0"/>
		</comp>
	</station>
	<station code="ATI" name="ATI" netid="IT" source="Italian Strong Motion Network (RAN)" insttype="" lat="41.621971" lon="13.794765">
		<comp name="00.HNE" depth="0.0">
			<acc value="0.00061659139588428" flag="0"/>
			<vel value="0.000543832769002" flag="0"/>
			<psa03 value="0.0010188559056597" flag="0"/>
			<psa10 value="0.00112012373395078" flag="0"/>
			<psa30 value="0.000146132909754886" flag="0"/>
		</comp>
		<comp name="00.HNN" depth="0.0">
			<acc value="0.0009094234823268" flag="0"/>
			<vel value="0.00274360102042" flag="0"/>
			<psa03 value="0.00161348269911323" flag="0"/>
			<psa10 value="0.00146757112563484" flag="0"/>
			<psa30 value="0.00118470462670226" flag="0"/>
		</comp>
		<comp name="00.HNZ" depth="0.0">
			<acc value="0.0003696031751106" flag="0"/>
			<vel value="0.000505268995102" flag="0"/>
			<psa03 value="0.000654999567266295" flag="0"/>
			<psa10 value="0.000651863319465699" flag="0"/>
			<psa30 value="0.000210225163364642" flag="0"/>
		</comp>
	</station>
	<station code="ATN" name="ATN" netid="IT" source="Italian Strong Motion Network (RAN)" insttype="" lat="41.620319" lon="13.801154">
		<comp name="00.HGE" depth="0.0">
			<acc value="0.00084533644271598" flag="0"/>
			<vel value="0.000646191524062" flag="0"/>
			<psa03 value="0.00164950429109309" flag="0"/>
			<psa10 value="0.00127955312349141" flag="0"/>
			<psa30 value="0.000213782677678362" flag="0"/>
		</comp>
		<comp name="00.HGN" depth="0.0">
			<acc value="0.0010292268802812" flag="0"/>
			<vel value="0.000718409925436" flag="0"/>
			<psa03 value="0.00264278135384781" flag="0"/>
			<psa10 value="0.000973255801546346" flag="0"/>
			<psa30 value="0.00022384850073957" flag="0"/>
		</comp>
		<comp name="00.HGZ" depth="0.0">
			<acc value="0.00078952140347382" flag="0"/>
			<vel value="0.000603784648832" flag="0"/>
			<psa03 value="0.00110429393856068" flag="0"/>
			<psa10 value="0.000660968102298956" flag="0"/>
			<psa30 value="0.00024633254228012" flag="0"/>
		</comp>
	</station>
	<station code="AVHO" name="AVHO" netid="IT" source="Italian Strong Motion Network (RAN)" insttype="" lat="40.9221000671" lon="14.798500061">
		<comp name="00.HNE" depth="0.0">
			<acc value="0.0026330311465164" flag="0"/>
			<vel value="0.00219351567802" flag="0"/>
			<psa03 value="0.00806046300257989" flag="0"/>
			<psa10 value="0.00425331051095937" flag="0"/>
			<psa30 value="0.000767392294305739" flag="0"/>
		</comp>
		<comp name="00.HNN" depth="0.0">
			<acc value="0.0031780009484574" flag="0"/>
			<vel value="0.00309561892589" flag="0"/>
			<psa03 value="0.00888158901273606" flag="0"/>
			<psa10 value="0.00444141734711871" flag="0"/>
			<psa30 value="0.000645496719323142" flag="0"/>
		</comp>
		<comp name="00.HNZ" depth="0.0">
			<acc value="0.002963308720611" flag="0"/>
			<vel value="0.00220660543724" flag="0"/>
			<psa03 value="0.0063928251859888" flag="0"/>
			<psa10 value="0.00307719228638737" flag="0"/>
			<psa30 value="0.000576747998389106" flag="0"/>
		</comp>
	</station>
	<station code="AVL" name="AVL" netid="IT" source="Italian Strong Motion Network (RAN)" insttype="" lat="40.922832" lon="14.787044">
		<comp name="00.HNE" depth="0.0">
			<acc value="0.002487450578811" flag="0"/>
			<vel value="0.00187504539251" flag="0"/>
			<psa03 value="0.00878494328749957" flag="0"/>
			<psa10 value="0.00308615748966196" flag="0"/>
			<psa30 value="0.00115165389558663" flag="0"/>
		</comp>
		<comp name="00.HNN" depth="0.0">
			<acc value="0.0028698705646968" flag="0"/>
			<vel value="0.00172364028648" flag="0"/>
			<psa03 value="0.0095471031518355" flag="0"/>
			<psa10 value="0.00425534548950846" flag="0"/>
			<psa30 value="0.000483608286673348" flag="0"/>
		</comp>
		<comp name="00.HNZ" depth="0.0">
			<acc value="0.0020852120537376" flag="0"/>
			<vel value="0.00128599705193" flag="0"/>
			<psa03 value="0.00562514737797151" flag="0"/>
			<psa10 value="0.00197522842731582" flag="0"/>
			<psa30 value="0.000584485281781234" flag="0"/>
		</comp>
	</station>
	<station code="BAN" name="BAN" netid="IT" source="Italian Strong Motion Network (RAN)" insttype="" lat="40.8138" lon="14.1652">
		<comp name="00.HNE" depth="0.0">
			<acc value="5.4127342566174" flag="0"/>
			<vel value="1.54305158268" flag="0"/>
			<psa03 value="6.34128407893099" flag="0"/>
			<psa10 value="0.523493038842831" flag="0"/>
			<psa30 value="0.0516981014121304" flag="0"/>
		</comp>
		<comp name="00.HNN" depth="0.0">
			<acc value="6.7801272511308" flag="0"/>
			<vel value="1.77615657144" flag="0"/>
			<psa03 value="4.67785455156701" flag="0"/>
			<psa10 value="0.993840317044017" flag="0"/>
			<psa30 value="0.061413935038502" flag="0"/>
		</comp>
		<comp name="00.HNZ" depth="0.0">
			<acc value="8.2471192719282" flag="0"/>
			<vel value="2.01534826544" flag="0"/>
			<psa03 value="10.0460008315682" flag="0"/>
			<psa10 value="0.570440808902836" flag="0"/>
			<psa30 value="0.058147251970181" flag="0"/>
		</comp>
	</station>
	<station code="BCLI" name="BCLI" netid="IT" source="Italian Strong Motion Network (RAN)" insttype="" lat="40.796799" lon="14.0777">
		<comp name="00.HNE" depth="0.0">
			<acc value="1.3125282265596" flag="0"/>
			<vel value="0.529333251875" flag="0"/>
			<psa03 value="3.14964031487934" flag="0"/>
			<psa10 value="0.380910423446189" flag="0"/>
			<psa30 value="0.0394615641349583" flag="0"/>
		</comp>
		<comp name="00.HNN" depth="0.0">
			<acc value="1.262558255883" flag="0"/>
			<vel value="0.693273280794" flag="0"/>
			<psa03 value="3.11115009842306" flag="0"/>
			<psa10 value="0.488532922908222" flag="0"/>
			<psa30 value="0.0366093751914511" flag="0"/>
		</comp>
		<comp name="00.HNZ" depth="0.0">
			<acc value="3.542735311209" flag="0"/>
			<vel value="0.675695751102" flag="0"/>
			<psa03 value="2.65238120723938" flag="0"/>
			<psa10 value="0.173731488858642" flag="0"/>
			<psa30 value="0.0197649793328786" flag="0"/>
		</comp>
	</station>
	<station code="BGI" name="BGI" netid="IT" source="Italian Strong Motion Network (RAN)" insttype="" lat="40.83113" lon="15.068183">
		<comp name="00.HGE" depth="0.0">
			<acc value="0.0013082045444592" flag="0"/>
			<vel value="0.00185681538806" flag="0"/>
			<psa03 value="0.00332965286482832" flag="0"/>
			<psa10 value="0.00338848540802679" flag="0"/>
			<psa30 value="0.00030627120042248" flag="0"/>
		</comp>
		<comp name="00.HGN" depth="0.0">
			<acc value="0.0017041896672618" flag="0"/>
			<vel value="0.00196001451267" flag="0"/>
			<psa03 value="0.00388615587625622" flag="0"/>
			<psa10 value="0.00318904625866474" flag="0"/>
			<psa30 value="0.000465310928731325" flag="0"/>
		</comp>
		<comp name="00.HGZ" depth="0.0">
			<acc value="0.0023797641449376" flag="0"/>
			<vel value="0.00179842644382" flag="0"/>
			<psa03 value="0.00668489140895156" flag="0"/>
			<psa10 value="0.00206156219337815" flag="0"/>
			<psa30 value="0.000389109474509619" flag="0"/>
		</comp>
	</station>
	<station code="BNE" name="BNE" netid="IT" source="Italian Strong Motion Network (RAN)" insttype="" lat="41.127556" lon="14.784882">
		<comp name="00.HGE" depth="0.0">
			<acc value="0.0016201533209658" flag="0"/>
			<vel value="0.00204747504704" flag="0"/>
			<psa03 value="0.00363087724654844" flag="0"/>
			<psa10 value="0.0041026644376316" flag="0"/>
			<psa30 value="0.000639623934444837" flag="0"/>
		</comp>
		<comp name="00.HGN" depth="0.0">
			<acc value="0.0018217651056954" flag="0"/>
			<vel value="0.00255381237511" flag="0"/>
			<psa03 value="0.00361393471793784" flag="0"/>
			<psa10 value="0.00572696875857037" flag="0"/>
			<psa30 value="0.000870906078668243" flag="0"/>
		</comp>
		<comp name="00.HGZ" depth="0.0">
			<acc value="0.0012798898795716" flag="0"/>
			<vel value="0.00248203016861" flag="0"/>
			<psa03 value="0.00283434531354869" flag="0"/>
			<psa10 value="0.0034212438281143" flag="0"/>
			<psa30 value="0.000454350306811495" flag="0"/>
		</comp>
	</station>
	<station code="BNV" name="BNV" netid="IT" source="Italian Strong Motion Network (RAN)" insttype="" lat="41.117723" lon="14.797374">
		<comp name="00.HGE" depth="0.0">
			<acc value="0.0025015883939016" flag="0"/>
			<vel value="0.00339623782047" flag="0"/>
			<psa03 value="0.00597179013302375" flag="0"/>
			<psa10 value="0.00298210450291353" flag="0"/>
			<psa30 value="0.00108593297939745" flag="0"/>
		</comp>
		<comp name="00.HGN" depth="0.0">
			<acc value="0.0020085434858652" flag="0"/>
			<vel value="0.00237318300431" flag="0"/>
			<psa03 value="0.0039187690393203" flag="0"/>
			<psa10 value="0.00335737100310266" flag="0"/>
			<psa30 value="0.000861353362515716" flag="0"/>
		</comp>
		<comp name="00.HGZ" depth="0.0">
			<acc value="0.0012919086127158" flag="0"/>
			<vel value="0.0015926957983" flag="0"/>
			<psa03 value="0.0032827015123444" flag="0"/>
			<psa10 value="0.0025909144478663" flag="0"/>
			<psa30 value="0.000546708143813409" flag="0"/>
		</comp>
	</station>
	<station code="BOI" name="BOI" netid="IT" source="Italian Strong Motion Network (RAN)" insttype="" lat="41.481264" lon="14.47253">
		<comp name="00.HGE" depth="0.0">
			<acc value="0.00081643359222534" flag="0"/>
			<vel value="0.000926291494085" flag="0"/>
			<psa03 value="0.00165269281612145" flag="0"/>
			<psa10 value="0.00123086786707943" flag="0"/>
			<psa30 value="0.000254390680259079" flag="0"/>
		</comp>
		<comp name="00.HGN" depth="0.0">
			<acc value="0.00083994893583924" flag="0"/>
			<vel value="0.000861103790974" flag="0"/>
			<psa03 value="0.00120549066513249" flag="0"/>
			<psa10 value="0.00172645276746129" flag="0"/>
			<psa30 value="0.000274639703948968" flag="0"/>
		</comp>
		<comp name="00.HGZ" depth="0.0">
			<acc value="0.000603176130909" flag="0"/>
			<vel value="0.000834116567103" flag="0"/>
			<psa03 value="0.00103050487070594" flag="0"/>
			<psa10 value="0.00138314940029872" flag="0"/>
			<psa30 value="0.000180967222565419" flag="0"/>
		</comp>
	</station>
	<station code="BOJ" name="BOJ" netid="IT" source="Italian Strong Motion Network (RAN)" insttype="" lat="41.484451" lon="14.472103">
		<comp name="00.HNE" depth="0.0">
			<acc value="0.0023367648635328" flag="0"/>
			<vel value="0.00364621807048" flag="0"/>
			<psa03 value="0.00457884564378113" flag="0"/>
			<psa10 value="0.00629233371120939" flag="0"/>
			<psa30 value="0.000857815732330779" flag="0"/>
		</comp>
		<comp name="00.HNN" depth="0.0">
			<acc value="0.002189527771437" flag="0"/>
			<vel value="0.00289570357818" flag="0"/>
			<psa03 value="0.00503206935252337" flag="0"/>
			<psa10 value="0.00639683907169726" flag="0"/>
			<psa30 value="0.00073908307520813" flag="0"/>
		</comp>
		<comp name="00.HNZ" depth="0.0">
			<acc value="0.0021359859138828" flag="0"/>
			<vel value="0.00250730720887" flag="0"/>
			<psa03 value="0.00245256839509802" flag="0"/>
			<psa10 value="0.00447291709007144" flag="0"/>
			<psa30 value="0.000329159253101896" flag="0"/>
		</comp>
	</station>
	<station code="CBAG" name="CBAG" netid="IT" source="Italian Strong Motion Network (RAN)" insttype="" lat="41.595199585" lon="14.6696996689">
		<comp name="00.HNE" depth="0.0">
			<acc value="0.00080928911266584" flag="0"/>
			<vel value="0.000867865035091" flag="0"/>
			<psa03 value="0.00162376104927197" flag="0"/>
			<psa10 value="0.00109495640267647" flag="0"/>
			<psa30 value="0.000417701889450103" flag="0"/>
		</comp>
		<comp name="00.HNN" depth="0.0">
			<acc value="0.00072969820314888" flag="0"/>
			<vel value="0.00102746415917" flag="0"/>
			<psa03 value="0.00162299814066318" flag="0"/>
			<psa10 value="0.0010222768223835" flag="0"/>
			<psa30 value="0.000398863375866219" flag="0"/>
		</comp>
		<comp name="00.HNZ" depth="0.0">
			<acc value="0.00051457261613286" flag="0"/>
			<vel value="0.000765930168061" flag="0"/>
			<psa03 value="0.000832867673394657" flag="0"/>
			<psa10 value="0.000641735773564476" flag="0"/>
			<psa30 value="0.000436979676925559" flag="0"/>
		</comp>
	</station>
	<station code="CBHG" name="CBHG" netid="IT" source="Italian Strong Motion Network (RAN)" insttype="" lat="41.5479011536" lon="14.6147003174">
		<comp name="00.HNE" depth="0.0">
			<acc value="0.0021589355452038" flag="0"/>
			<vel value="0.000888690725983" flag="0"/>
			<psa03 value="0.00180697061439174" flag="0"/>
			<psa10 value="0.00136591993861732" flag="0"/>
			<psa30 value="0.000297708028987728" flag="0"/>
		</comp>
		<comp name="00.HNN" depth="0.0">
			<acc value="0.0021211339042884" flag="0"/>
			<vel value="0.00100695647935" flag="0"/>
			<psa03 value="0.0016017861234912" flag="0"/>
			<psa10 value="0.00164056539815721" flag="0"/>
			<psa30 value="0.000390361562662765" flag="0"/>
		</comp>
		<comp name="00.HNZ" depth="0.0">
			<acc value="0.0018510951511866" flag="0"/>
			<vel value="0.000915231334598" flag="0"/>
			<psa03 value="0.000963160240187804" flag="0"/>
			<psa10 value="0.000971724176647176" flag="0"/>
			<psa30 value="0.000258993433085584" flag="0"/>
		</comp>
	</station>
	<station code="CLPS" name="CLPS" netid="IT" source="Italian Strong Motion Network (RAN)" insttype="" lat="41.521999" lon="14.3921">
		<comp name="00.HNE" depth="0.0">
			<acc value="0.0013387555353156" flag="0"/>
			<vel value="0.00166028977036" flag="0"/>
			<psa03 value="0.00204647394776358" flag="0"/>
			<psa10 value="0.00212382522424945" flag="0"/>
			<psa30 value="0.000387181065511986" flag="0"/>
		</comp>
		<comp name="00.HNN" depth="0.0">
			<acc value="0.0014311088873862" flag="0"/>
			<vel value="0.00140772223103" flag="0"/>
			<psa03 value="0.0023944358006094" flag="0"/>
			<psa10 value="0.00211338711089849" flag="0"/>
			<psa30 value="0.000320033570445235" flag="0"/>
		</comp>
		<comp name="00.HNZ" depth="0.0">
			<acc value="0.00093954202285194" flag="0"/>
			<vel value="0.00111799244792" flag="0"/>
			<psa03 value="0.00152696964382683" flag="0"/>
			<psa10 value="0.00132659928694156" flag="0"/>
			<psa30 value="0.000317798422377303" flag="0"/>
		</comp>
	</station>
	<station code="CMG" name="CMG" netid="IT" source="Italian Strong Motion Network (RAN)" insttype="" lat="40.670071" lon="15.101825">
		<comp name="00.HNE" depth="0.0">
			<acc value="0.002063151005994" flag="0"/>
			<vel value="0.00131003961305" flag="0"/>
			<psa03 value="0.00845442529857095" flag="0"/>
			<psa10 value="0.00132562234722284" flag="0"/>
			<psa30 value="0.000123745710566672" flag="0"/>
		</comp>
		<comp name="00.HNN" depth="0.0">
			<acc value="0.0016672549968072" flag="0"/>
			<vel value="0.000969120511821" flag="0"/>
			<psa03 value="0.00454966174431113" flag="0"/>
			<psa10 value="0.00139522520026015" flag="0"/>
			<psa30 value="0.000260046523681137" flag="0"/>
		</comp>
		<comp name="00.HNZ" depth="0.0">
			<acc value="0.002688227622744" flag="0"/>
			<vel value="0.00127150664089" flag="0"/>
			<psa03 value="0.0132470767725899" flag="0"/>
			<psa10 value="0.00086620876879917" flag="0"/>
			<psa30 value="0.000194908237234989" flag="0"/>
		</comp>
	</station>
	<station code="CML" name="CML" netid="IT" source="Italian Strong Motion Network (RAN)" insttype="" lat="40.746983" lon="13.901292">
		<comp name="00.HGE" depth="0.0">
			<acc value="0.044735589752724" flag="0"/>
			<vel value="0.0251496970603" flag="0"/>
			<psa03 value="0.116682177538096" flag="0"/>
			<psa10 value="0.0229320285093636" flag="0"/>
			<psa30 value="0.00355355832246716" flag="0"/>
		</comp>
		<comp name="00.HGN" depth="0.0">
			<acc value="0.039299663887758" flag="0"/>
			<vel value="0.0197630528112" flag="0"/>
			<psa03 value="0.119966895134884" flag="0"/>
			<psa10 value="0.0281479752902203" flag="0"/>
			<psa30 value="0.00287421394423313" flag="0"/>
		</comp>
		<comp name="00.HGZ" depth="0.0">
			<acc value="0.032264311002876" flag="0"/>
			<vel value="0.0141524850497" flag="0"/>
			<psa03 value="0.138947798359591" flag="0"/>
			<psa10 value="0.00677881500071343" flag="0"/>
			<psa30 value="0.00150371534292936" flag="0"/>
		</comp>
	</station>
	<station code="CNC" name="CNC" netid="IT" source="Italian Strong Motion Network (RAN)" insttype="" lat="41.077715" lon="14.025084">
		<comp name="00.HGE" depth="0.0">
			<acc value="0.015857989153902" flag="0"/>
			<vel value="0.016473883152" flag="0"/>
			<psa03 value="0.0275619117788674" flag="0"/>
			<psa10 value="0.0286886542325621" flag="0"/>
			<psa30 value="0.00536818394918082" flag="0"/>
		</comp>
		<comp name="00.HGN" depth="0.0">
			<acc value="0.013952765248524" flag="0"/>
			<vel value="0.0146360332508" flag="0"/>
			<psa03 value="0.0241992463104914" flag="0"/>
			<psa10 value="0.0286910881437931" flag="0"/>
			<psa30 value="0.00615786542837908" flag="0"/>
		</comp>
		<comp name="00.HGZ" depth="0.0">
			<acc value="0.0075290349749946" flag="0"/>
			<vel value="0.00866068013055" flag="0"/>
			<psa03 value="0.0195689512949119" flag="0"/>
			<psa10 value="0.0112799850561504" flag="0"/>
			<psa30 value="0.00512130384456321" flag="0"/>
		</comp>
	</station>
	<station code="DUR" name="DUR" netid="IT" source="Italian Strong Motion Network (RAN)" insttype="" lat="41.6611" lon="14.4565">
		<comp name="00.HNE" depth="0.0">
