<?xml version="1.0" encoding="UTF-8" standalone="yes"?>
<!DOCTYPE earthquake SYSTEM "stationlist.dtd">
<stationlist created="" xmlns="ch.ethz.sed.shakemap.usgs.xml">
  <station code="HVAR" name="HVAR" netid="CR" insttype="120" commtype="DIG" lat="43.1776" lon="16.4488">
    <comp name="--.HHE">
      <acc value="0.0168611009" flag="0"/>
      <vel value="0.0059312117" flag="0"/>
      <psa03 value="0.0307567460" flag="0"/>
      <psa10 value="0.0030424972" flag="0"/>
      <psa30 value="0.0002250900" flag="0"/>
    </comp>
  </station>
  <station code="MK08" name="MK08" netid="CR" insttype="Episensor-ES-T" commtype="DIG" lat="43.5081" lon="16.44">
    <comp name="--.HNN">
      <acc value="0.1951314478" flag="0"/>
      <vel value="0.0322819036" flag="0"/>
      <psa03 value="0.1448674039" flag="0"/>
      <psa10 value="0.0053883585" flag="0"/>
      <psa30 value="0.0005902378" flag="0"/>
    </comp>
    <comp name="--.HNE">
      <acc value="0.1779876809" flag="0"/>
      <vel value="0.0206003643" flag="0"/>
      <psa03 value="0.1601447423" flag="0"/>
      <psa10 value="0.0048355800" flag="0"/>
      <psa30 value="0.0004996970" flag="0"/>
    </comp>
    <comp name="--.HNZ">
      <acc value="0.1068152602" flag="0"/>
      <vel value="0.0204825311" flag="0"/>
      <psa03 value="0.1079043827" flag="0"/>
      <psa10 value="0.0095059583" flag="0"/>
      <psa30 value="0.0005980118" flag="0"/>
    </comp>
  </station>
  <station code="MK21" name="MK21" netid="CR" insttype="Episensor-ES-T" commtype="DIG" lat="43.7008" lon="16.6352">
    <comp name="--.HNE">
      <acc value="0.5081461635" flag="0"/>
      <vel value="0.0808906170" flag="0"/>
      <psa03 value="0.2293679206" flag="0"/>
      <psa10 value="0.0520109637" flag="0"/>
      <psa30 value="0.0044756194" flag="0"/>
    </comp>
    <comp name="--.HNN">
      <acc value="0.3602947046" flag="0"/>
      <vel value="0.0890053113" flag="0"/>
      <psa03 value="0.2526071534" flag="0"/>
      <psa10 value="0.0384954899" flag="0"/>
      <psa30 value="0.0049979047" flag="0"/>
    </comp>
    <comp name="--.HNZ">
      <acc value="0.6505294904" flag="0"/>
      <vel value="0.0836270331" flag="0"/>
      <psa03 value="0.1449476316" flag="0"/>
      <psa10 value="0.0542794954" flag="0"/>
      <psa30 value="0.0034809831" flag="0"/>
    </comp>
  </station>
  <station code="MK22" name="MK22" netid="CR" insttype="Episensor-ES-T" commtype="DIG" lat="43.5171" lon="16.2514">
    <comp name="--.HNE">
      <acc value="0.2347592143" flag="0"/>
      <vel value="0.0669480691" flag="0"/>
      <psa03 value="0.3771174005" flag="0"/>
      <psa10 value="0.0127455429" flag="0"/>
      <psa30 value="0.0013435024" flag="0"/>
    </comp>
    <comp name="--.HNN">
      <acc value="0.2166270035" flag="0"/>
      <vel value="0.0634164142" flag="0"/>
      <psa03 value="0.3274955783" flag="0"/>
      <psa10 value="0.0132023018" flag="0"/>
      <psa30 value="0.0010256743" flag="0"/>
    </comp>
    <comp name="--.HNZ">
      <acc value="0.1399844328" flag="0"/>
      <vel value="0.0309578596" flag="0"/>
      <psa03 value="0.1484948228" flag="0"/>
      <psa10 value="0.0092118149" flag="0"/>
      <psa30 value="0.0008345684" flag="0"/>
    </comp>
  </station>
  <station code="MK27" name="MK27" netid="CR" insttype="Episensor-ES-T" commtype="DIG" lat="44.0343" lon="16.1934">
    <comp name="--.HNE">
      <acc value="1.0242269522" flag="0"/>
      <vel value="0.1964265609" flag="0"/>
      <psa03 value="0.9183853420" flag="0"/>
      <psa10 value="0.0334801159" flag="0"/>
      <psa30 value="0.0029437131" flag="0"/>
    </comp>
    <comp name="--.HNN">
      <acc value="0.9535365343" flag="0"/>
      <vel value="0.2525632965" flag="0"/>
      <psa03 value="1.0513074536" flag="0"/>
      <psa10 value="0.0461165235" flag="0"/>
      <psa30 value="0.0043899789" flag="0"/>
    </comp>
    <comp name="--.HNZ">
      <acc value="0.7275404323" flag="0"/>
      <vel value="0.1253274040" flag="0"/>
      <psa03 value="0.4572939087" flag="0"/>
      <psa10 value="0.0201530017" flag="0"/>
      <psa30 value="0.0016501938" flag="0"/>
    </comp>
  </station>
</stationlist>
