<stationlist created="1779847000">
	<station code="MK01" name="MK01" netid="CR" source="Croatian Seismograph Network (CSN)" insttype="" lat="44.033987" lon="15.609901">
		<comp name="--.HNE" depth="0.0">
			<acc value="0.0824516484209894" flag="0"/>
			<vel value="0.0182576745861546" flag="0"/>
			<psa03 value="0.119580984153327" flag="0"/>
			<psa10 value="0.00526682358871452" flag="0"/>
			<psa30 value="0.000335710181860301" flag="0"/>
		</comp>
		<comp name="--.HNN" depth="0.0">
			<acc value="0.122030742804447" flag="0"/>
			<vel value="0.03087023922051" flag="0"/>
			<psa03 value="0.175078681436737" flag="0"/>
			<psa10 value="0.008815073330346" flag="0"/>
			<psa30 value="0.000605510841288209" flag="0"/>
		</comp>
		<comp name="--.HNZ" depth="0.0">
			<acc value="0.060855108187056" flag="0"/>
			<vel value="0.0152796447715511" flag="0"/>
			<psa03 value="0.0876238046470225" flag="0"/>
			<psa10 value="0.00483079439142012" flag="0"/>
			<psa30 value="0.000445695098029553" flag="0"/>
		</comp>
	</station>
	<station code="MK02" name="MK02" netid="CR" source="Croatian Seismograph Network (CSN)" insttype="" lat="44.115808" lon="15.224273">
		<comp name="--.HNE" depth="0.0">
			<acc value="0.0350541574126577" flag="0"/>
			<vel value="0.00665083313359351" flag="0"/>
			<psa03 value="0.0351448229637062" flag="0"/>
			<psa10 value="0.00215177910730547" flag="0"/>
			<psa30 value="0.00014664403736445" flag="0"/>
		</comp>
		<comp name="--.HNN" depth="0.0">
			<acc value="0.0566607506736763" flag="0"/>
			<vel value="0.00799345180958938" flag="0"/>
			<psa03 value="0.0292153885011065" flag="0"/>
			<psa10 value="0.00278003830451895" flag="0"/>
			<psa30 value="0.000176096053520144" flag="0"/>
		</comp>
		<comp name="--.HNZ" depth="0.0">
			<acc value="0.0280465909289074" flag="0"/>
			<vel value="0.00694600147005082" flag="0"/>
			<psa03 value="0.0205389882113355" flag="0"/>
			<psa10 value="0.00214229988560356" flag="0"/>
			<psa30 value="0.000158551557950083" flag="0"/>
		</comp>
	</station>
	<station code="MK03" name="MK03" netid="CR" source="Croatian Seismograph Network (CSN)" insttype="" lat="44.113266" lon="15.22893">
		<comp name="--.HNE" depth="0.0">
			<acc value="0.0638583930086122" flag="0"/>
			<vel value="0.00767033196353445" flag="0"/>
			<psa03 value="0.0264152941544315" flag="0"/>
			<psa10 value="0.00245530499565595" flag="0"/>
			<psa30 value="0.000160129540087822" flag="0"/>
		</comp>
		<comp name="--.HNN" depth="0.0">
			<acc value="0.087117940383233" flag="0"/>
			<vel value="0.0104088479952055" flag="0"/>
			<psa03 value="0.0312867939507183" flag="0"/>
			<psa10 value="0.00258294681067476" flag="0"/>
			<psa30 value="0.000183944841693008" flag="0"/>
		</comp>
		<comp name="--.HNZ" depth="0.0">
			<acc value="0.034524778289421" flag="0"/>
			<vel value="0.00594961236900397" flag="0"/>
			<psa03 value="0.018363137040624" flag="0"/>
			<psa10 value="0.00226258629148761" flag="0"/>
			<psa30 value="0.000131195709301033" flag="0"/>
		</comp>
	</station>
	<station code="MK08" name="MK08" netid="CR" source="Croatian Seismograph Network (CSN)" insttype="" lat="43.508051" lon="16.440016">
		<comp name="--.HNE" depth="0.0">
			<acc value="0.168258711027169" flag="0"/>
			<vel value="0.0211051703919953" flag="0"/>
			<psa03 value="0.160001724328989" flag="0"/>
			<psa10 value="0.00482024541135196" flag="0"/>
			<psa30 value="0.000537630302869012" flag="0"/>
		</comp>
		<comp name="--.HNN" depth="0.0">
			<acc value="0.186293425288611" flag="0"/>
			<vel value="0.0325215227618165" flag="0"/>
			<psa03 value="0.144492978200671" flag="0"/>
			<psa10 value="0.00538968407136853" flag="0"/>
			<psa30 value="0.000626593748343998" flag="0"/>
		</comp>
		<comp name="--.HNZ" depth="0.0">
			<acc value="0.103897052397778" flag="0"/>
			<vel value="0.0204522001550238" flag="0"/>
			<psa03 value="0.107953453469818" flag="0"/>
			<psa10 value="0.00950753701516668" flag="0"/>
			<psa30 value="0.000635979109661458" flag="0"/>
		</comp>
	</station>
	<station code="MK10" name="MK10" netid="CR" source="Croatian Seismograph Network (CSN)" insttype="" lat="43.734924" lon="15.893086">
		<comp name="--.HNE" depth="0.0">
			<acc value="0.272407206070009" flag="0"/>
			<vel value="0.044767574814189" flag="0"/>
			<psa03 value="0.189346376601519" flag="0"/>
			<psa10 value="0.0249013870946853" flag="0"/>
			<psa30 value="0.00131428675254717" flag="0"/>
		</comp>
		<comp name="--.HNN" depth="0.0">
			<acc value="0.247325492007432" flag="0"/>
			<vel value="0.0401329140940867" flag="0"/>
			<psa03 value="0.14426260877316" flag="0"/>
			<psa10 value="0.0141153341341119" flag="0"/>
			<psa30 value="0.000795337218437408" flag="0"/>
		</comp>
		<comp name="--.HNZ" depth="0.0">
			<acc value="0.167934446253915" flag="0"/>
			<vel value="0.0455928145846199" flag="0"/>
			<psa03 value="0.168348183490946" flag="0"/>
			<psa10 value="0.00914575898664781" flag="0"/>
			<psa30 value="0.00066677990006266" flag="0"/>
		</comp>
	</station>
	<station code="MK22" name="MK22" netid="CR" source="Croatian Seismograph Network (CSN)" insttype="" lat="43.517083073" lon="16.251390509">
		<comp name="--.HNE" depth="0.0">
			<acc value="0.234111381593317" flag="0"/>
			<vel value="0.0671790737487974" flag="0"/>
			<psa03 value="0.378889224551635" flag="0"/>
			<psa10 value="0.0127875933653022" flag="0"/>
			<psa30 value="0.00134561153599367" flag="0"/>
		</comp>
		<comp name="--.HNN" depth="0.0">
			<acc value="0.214784095447341" flag="0"/>
			<vel value="0.0635348360784373" flag="0"/>
			<psa03 value="0.329666567958874" flag="0"/>
			<psa10 value="0.0132175715367458" flag="0"/>
			<psa30 value="0.00101787440835075" flag="0"/>
		</comp>
		<comp name="--.HNZ" depth="0.0">
			<acc value="0.142218036392233" flag="0"/>
			<vel value="0.0311237487334885" flag="0"/>
			<psa03 value="0.148715299575407" flag="0"/>
			<psa10 value="0.00922008422282993" flag="0"/>
			<psa30 value="0.000823742381390049" flag="0"/>
		</comp>
	</station>
	<station code="MK27" name="MK27" netid="CR" source="Croatian Seismograph Network (CSN)" insttype="" lat="44.034317" lon="16.19338">
		<comp name="--.HNE" depth="0.0">
			<acc value="1.02814133678097" flag="0"/>
			<vel value="0.196783347676931" flag="0"/>
			<psa03 value="0.920914339388704" flag="0"/>
			<psa10 value="0.0334761763823928" flag="0"/>
			<psa30 value="0.00296273668343159" flag="0"/>
		</comp>
		<comp name="--.HNN" depth="0.0">
			<acc value="0.916107427965802" flag="0"/>
			<vel value="0.255466513254839" flag="0"/>
			<psa03 value="1.05413941489612" flag="0"/>
			<psa10 value="0.0461810242662129" flag="0"/>
			<psa30 value="0.00439690002304766" flag="0"/>
		</comp>
		<comp name="--.HNZ" depth="0.0">
			<acc value="0.736545530105809" flag="0"/>
			<vel value="0.126476995691112" flag="0"/>
			<psa03 value="0.460322577444943" flag="0"/>
			<psa10 value="0.0202336253783798" flag="0"/>
			<psa30 value="0.00165175983764949" flag="0"/>
		</comp>
	</station>
	<station code="PM13" name="PM13" netid="CR" source="Croatian Seismograph Network (CSN)" insttype="" lat="45.26954" lon="16.90884">
		<comp name="--.HNE" depth="0.0">
			<acc value="0.00696711879889426" flag="0"/>
			<vel value="0.0043775566377316" flag="0"/>
			<psa03 value="0.0236708883926853" flag="0"/>
			<psa10 value="0.00326847745809074" flag="0"/>
			<psa30 value="0.000594593243050906" flag="0"/>
		</comp>
		<comp name="--.HNN" depth="0.0">
			<acc value="0.00705027577963359" flag="0"/>
			<vel value="0.00440439821562675" flag="0"/>
			<psa03 value="0.0202043670859949" flag="0"/>
			<psa10 value="0.00393018371475776" flag="0"/>
			<psa30 value="0.000538406187600901" flag="0"/>
		</comp>
		<comp name="--.HNZ" depth="0.0">
			<acc value="0.00568809193804027" flag="0"/>
			<vel value="0.00169499160357027" flag="0"/>
			<psa03 value="0.00681832537851039" flag="0"/>
			<psa10 value="0.00206998900161238" flag="0"/>
			<psa30 value="0.00034103761811014" flag="0"/>
		</comp>
	</station>
	<station code="PM15" name="PM15" netid="CR" source="Croatian Seismograph Network (CSN)" insttype="" lat="45.314612" lon="16.59289">
		<comp name="--.HNE" depth="0.0">
			<acc value="0.00776640570001836" flag="0"/>
			<vel value="0.00706806243368695" flag="0"/>
			<psa03 value="0.0205023725044747" flag="0"/>
			<psa10 value="0.0100170982710991" flag="0"/>
			<psa30 value="0.00112134532529119" flag="0"/>
		</comp>
		<comp name="--.HNN" depth="0.0">
			<acc value="0.00993543010090808" flag="0"/>
			<vel value="0.00625144051263373" flag="0"/>
			<psa03 value="0.0261042344857551" flag="0"/>
			<psa10 value="0.0117337576163558" flag="0"/>
			<psa30 value="0.000870567097881046" flag="0"/>
		</comp>
		<comp name="--.HNZ" depth="0.0">
			<acc value="0.0040897853180507" flag="0"/>
			<vel value="0.00320415951077099" flag="0"/>
			<psa03 value="0.011496195160259" flag="0"/>
			<psa10 value="0.00414166936526919" flag="0"/>
			<psa30 value="0.000573675451099849" flag="0"/>
		</comp>
	</station>
	<station code="PM32" name="PM32" netid="CR" source="Croatian Seismograph Network (CSN)" insttype="" lat="43.09579" lon="17.61774">
		<comp name="--.HNE" depth="0.0">
			<acc value="0.0110844594692793" flag="0"/>
			<vel value="0.00190068196497602" flag="0"/>
			<psa03 value="0.00703505002191272" flag="0"/>
			<psa10 value="0.00105055603949425" flag="0"/>
			<psa30 value="9.1980507319693e-05" flag="0"/>
		</comp>
		<comp name="--.HNN" depth="0.0">
			<acc value="0.0109530565555635" flag="0"/>
			<vel value="0.00246034453436559" flag="0"/>
			<psa03 value="0.00927121443287208" flag="0"/>
			<psa10 value="0.00121545247088606" flag="0"/>
			<psa30 value="0.000138255408742307" flag="0"/>
		</comp>
		<comp name="--.HNZ" depth="0.0">
			<acc value="0.00588603588008061" flag="0"/>
			<vel value="0.0014561245151182" flag="0"/>
			<psa03 value="0.00550318031389592" flag="0"/>
			<psa10 value="0.00103780871067128" flag="0"/>
			<psa30 value="8.89552157631414e-05" flag="0"/>
		</comp>
	</station>
	<station code="BLY" name="BLY" netid="MN" source="Mediterranean Very Broadband Seismographic Network (MedNet)" insttype="" lat="44.7488" lon="17.1839">
		<comp name="--.HNE" depth="1.0">
			<acc value="0.00666141961023045" flag="0"/>
			<vel value="0.00310988041823604" flag="0"/>
			<psa03 value="0.0138137197786411" flag="0"/>
			<psa10 value="0.002118306733675" flag="0"/>
			<psa30 value="0.000246846456532952" flag="0"/>
		</comp>
		<comp name="--.HNN" depth="1.0">
			<acc value="0.00546322963432759" flag="0"/>
			<vel value="0.00266730453838881" flag="0"/>
			<psa03 value="0.0157001299003037" flag="0"/>
			<psa10 value="0.00289852435676341" flag="0"/>
			<psa30 value="0.000197561394764489" flag="0"/>
		</comp>
		<comp name="--.HNZ" depth="1.0">
			<acc value="0.00608924909233014" flag="0"/>
			<vel value="0.00308237222860351" flag="0"/>
			<psa03 value="0.0131836038178012" flag="0"/>
			<psa10 value="0.00221359398348765" flag="0"/>
			<psa30 value="0.000152471467673942" flag="0"/>
		</comp>
	</station>
</stationlist>
