<?xml version="1.0" encoding="UTF-8" standalone="yes"?>
<!DOCTYPE earthquake SYSTEM "stationlist.dtd">
<stationlist created="" xmlns="ch.ethz.sed.shakemap.usgs.xml">
  <station code="GAZ" name="GAZ" netid="KO" insttype="CMG-3T" lat="37.1721" lon="37.2096">
    <comp name="--.HHN">
      <acc value="0.0363984476" flag="0"/>
      <vel value="0.0240045277" flag="0"/>
      <psa03 value="0.1052173889" flag="0"/>
      <psa10 value="0.0265390126" flag="0"/>
      <psa30 value="0.0021673531" flag="0"/>
    </comp>
    <comp name="--.HHZ">
      <acc value="0.0373443209" flag="0"/>
      <vel value="0.0157629509" flag="0"/>
      <psa03 value="0.0764602855" flag="0"/>
      <psa10 value="0.0107182057" flag="0"/>
      <psa30 value="0.0008336140" flag="0"/>
    </comp>
    <comp name="--.HHE">
      <acc value="0.0452231073" flag="0"/>
      <vel value="0.0169809391" flag="0"/>
      <psa03 value="0.0661862262" flag="0"/>
      <psa10 value="0.0170588021" flag="0"/>
      <psa30 value="0.0011989832" flag="0"/>
    </comp>
  </station>
  <station code="SARI" name="SARI" netid="KO" insttype="CMG-3T" lat="38.4072" lon="36.4181">
    <comp name="--.HHE">
      <acc value="0.6606202396" flag="0"/>
      <vel value="0.1099538347" flag="0"/>
      <psa03 value="0.3399989463" flag="0"/>
      <psa10 value="0.0408211247" flag="0"/>
      <psa30 value="0.0055204806" flag="0"/>
    </comp>
    <comp name="--.HHZ">
      <acc value="0.6773282044" flag="0"/>
      <vel value="0.0916221408" flag="0"/>
      <psa03 value="0.1925537003" flag="0"/>
      <psa10 value="0.0453604650" flag="0"/>
      <psa30 value="0.0053054206" flag="0"/>
    </comp>
    <comp name="--.HHN">
      <acc value="0.4719470883" flag="0"/>
      <vel value="0.1310868642" flag="0"/>
      <psa03 value="0.4161449355" flag="0"/>
      <psa10 value="0.0903963183" flag="0"/>
      <psa30 value="0.0056110728" flag="0"/>
    </comp>
  </station>
  <station code="ANDN" name="ANDN" netid="TU" insttype="T" lat="37.58" lon="36.3452">
    <comp name="--.HHN">
      <acc value="0.2741739784" flag="0"/>
      <vel value="0.1298348457" flag="0"/>
      <psa03 value="0.5636893648" flag="0"/>
      <psa10 value="0.0993312683" flag="0"/>
      <psa30 value="0.0056744245" flag="0"/>
    </comp>
    <comp name="--.HHE">
      <acc value="0.1467231068" flag="0"/>
      <vel value="0.0894794861" flag="0"/>
      <psa03 value="0.4290117193" flag="0"/>
      <psa10 value="0.1091719016" flag="0"/>
      <psa30 value="0.0084782276" flag="0"/>
    </comp>
    <comp name="--.HHZ">
      <acc value="0.0897572913" flag="0"/>
      <vel value="0.0727704833" flag="0"/>
      <psa03 value="0.2379508205" flag="0"/>
      <psa10 value="0.1167395252" flag="0"/>
      <psa30 value="0.0053300023" flag="0"/>
    </comp>
  </station>
</stationlist>
