<?xml version="1.0" encoding="UTF-8" standalone="yes"?>
<!DOCTYPE earthquake SYSTEM "stationlist.dtd">
<stationlist created="" xmlns="ch.ethz.sed.shakemap.usgs.xml">
  <station code="APE" name="APE" netid="GE" insttype="STS-2/N" lat="37.0727" lon="25.523">
    <comp name="--.HHE">
      <acc value="0.1369475439" flag="0"/>
      <vel value="0.0374685543" flag="0"/>
      <psa03 value="0.0957522016" flag="0"/>
      <psa10 value="0.0076080110" flag="0"/>
      <psa30 value="0.0007347681" flag="0"/>
    </comp>
    <comp name="--.HHZ">
      <acc value="0.0516446669" flag="0"/>
      <vel value="0.0119003262" flag="0"/>
      <psa03 value="0.0316073232" flag="0"/>
      <psa10 value="0.0043389114" flag="0"/>
      <psa30 value="0.0009949952" flag="0"/>
    </comp>
    <comp name="--.HHN">
      <acc value="0.2407616242" flag="0"/>
      <vel value="0.0654788175" flag="0"/>
      <psa03 value="0.0955471542" flag="0"/>
      <psa10 value="0.0095314389" flag="0"/>
      <psa30 value="0.0008342133" flag="0"/>
    </comp>
  </station>
  <station code="THERA" name="THERA" netid="GE" insttype="STS-2/N" lat="36.367" lon="25.4753">
    <comp name="--.HHN">
      <acc value="0.0522573819" flag="0"/>
      <vel value="0.0120340612" flag="0"/>
      <psa03 value="0.0413111720" flag="0"/>
      <psa10 value="0.0023918746" flag="0"/>
      <psa30 value="0.0003961363" flag="0"/>
    </comp>
    <comp name="--.HHE">
      <acc value="0.0882310696" flag="0"/>
      <vel value="0.0202878381" flag="0"/>
      <psa03 value="0.0700427312" flag="0"/>
      <psa10 value="0.0046754785" flag="0"/>
      <psa30 value="0.0006553985" flag="0"/>
    </comp>
    <comp name="--.HHZ">
      <acc value="0.0693891538" flag="0"/>
      <vel value="0.0141280897" flag="0"/>
      <psa03 value="0.0492364793" flag="0"/>
      <psa10 value="0.0044986229" flag="0"/>
      <psa30 value="0.0004768188" flag="0"/>
    </comp>
  </station>
</stationlist>
