<?xml version="1.0" encoding="UTF-8" standalone="yes"?>
<!DOCTYPE earthquake SYSTEM "stationlist.dtd">
<stationlist created="" xmlns="ch.ethz.sed.shakemap.usgs.xml">
  <station code="APE" name="APE" netid="GE" insttype="STS-2/N" lat="37.0727" lon="25.523">
    <comp name="--.HHE">
      <acc value="0.1369475438" flag="0"/>
      <vel value="0.0374685548" flag="0"/>
      <psa03 value="0.0957522016" flag="0"/>
      <psa10 value="0.0076080110" flag="0"/>
      <psa30 value="0.0007347360" flag="0"/>
    </comp>
    <comp name="--.HHN">
      <acc value="0.2407616243" flag="0"/>
      <vel value="0.0654788175" flag="0"/>
      <psa03 value="0.0955471542" flag="0"/>
      <psa10 value="0.0095314389" flag="0"/>
      <psa30 value="0.0008342162" flag="0"/>
    </comp>
    <comp name="--.HHZ">
      <acc value="0.0516446669" flag="0"/>
      <vel value="0.0119003263" flag="0"/>
      <psa03 value="0.0316073232" flag="0"/>
      <psa10 value="0.0043389114" flag="0"/>
      <psa30 value="0.0009949999" flag="0"/>
    </comp>
  </station>
  <station code="THERA" name="THERA" netid="GE" insttype="STS-2/N" lat="36.367" lon="25.4753">
    <comp name="--.HHZ">
      <acc value="0.0693891536" flag="0"/>
      <vel value="0.0141280894" flag="0"/>
      <psa03 value="0.0492364793" flag="0"/>
      <psa10 value="0.0044986229" flag="0"/>
      <psa30 value="0.0004768109" flag="0"/>
    </comp>
    <comp name="--.HHE">
      <acc value="0.0882310696" flag="0"/>
      <vel value="0.0202878390" flag="0"/>
      <psa03 value="0.0700427312" flag="0"/>
      <psa10 value="0.0046754796" flag="0"/>
      <psa30 value="0.0006554212" flag="0"/>
    </comp>
    <comp name="--.HHN">
      <acc value="0.0522573819" flag="0"/>
      <vel value="0.0120340623" flag="0"/>
      <psa03 value="0.0413111720" flag="0"/>
      <psa10 value="0.0023918745" flag="0"/>
      <psa30 value="0.0003961158" flag="0"/>
    </comp>
  </station>
</stationlist>
