<?xml version="1.0" encoding="UTF-8" standalone="yes"?>
<!DOCTYPE earthquake SYSTEM "stationlist.dtd">
<stationlist created="" xmlns="ch.ethz.sed.shakemap.usgs.xml">
  <station code="PE01" name="PE01" netid="Z3" source="GFZ" insttype="CMG-3ESP/60" lat="38.017" lon="22.0283">
    <comp name="--.HHE">
      <acc value="0.0240467846" flag="0"/>
      <vel value="0.0123672214" flag="0"/>
      <psa03 value="0.0752609855" flag="0"/>
      <psa10 value="0.0126118435" flag="0"/>
      <psa30 value="0.0017187691" flag="0"/>
    </comp>
    <comp name="--.HHN">
      <acc value="0.0250127991" flag="0"/>
      <vel value="0.0144186461" flag="0"/>
      <psa03 value="0.0541540212" flag="0"/>
      <psa10 value="0.0225393636" flag="0"/>
      <psa30 value="0.0018160291" flag="0"/>
    </comp>
    <comp name="--.HHZ">
      <acc value="0.0139321669" flag="0"/>
      <vel value="0.0094212455" flag="0"/>
      <psa03 value="0.0379743377" flag="0"/>
      <psa10 value="0.0125124320" flag="0"/>
      <psa30 value="0.0020409915" flag="0"/>
    </comp>
  </station>
  <station code="PE02" name="PE02" netid="Z3" source="GFZ" insttype="CMG-3ESP/60" lat="37.8958" lon="22.4907">
    <comp name="--.HHE">
      <acc value="0.0118572844" flag="0"/>
      <vel value="0.0070542065" flag="0"/>
      <psa03 value="0.0268512517" flag="0"/>
      <psa10 value="0.0086473739" flag="0"/>
      <psa30 value="0.0019563131" flag="0"/>
    </comp>
    <comp name="--.HHN">
      <acc value="0.0097899939" flag="0"/>
      <vel value="0.0082234679" flag="0"/>
      <psa03 value="0.0233961270" flag="0"/>
      <psa10 value="0.0091774070" flag="0"/>
      <psa30 value="0.0021150857" flag="0"/>
    </comp>
    <comp name="--.HHZ">
      <acc value="0.0085981768" flag="0"/>
      <vel value="0.0058337605" flag="0"/>
      <psa03 value="0.0197778825" flag="0"/>
      <psa10 value="0.0100975225" flag="0"/>
      <psa30 value="0.0028265769" flag="0"/>
    </comp>
  </station>
  <station code="PE03" name="PE03" netid="Z3" source="GFZ" insttype="CMG-3ESP/60" lat="37.3784" lon="21.7722">
    <comp name="--.HHE">
      <acc value="0.0743710871" flag="0"/>
      <vel value="0.0297612743" flag="0"/>
      <psa03 value="0.2216864369" flag="0"/>
      <psa10 value="0.0197474790" flag="0"/>
      <psa30 value="0.0023197945" flag="0"/>
    </comp>
    <comp name="--.HHN">
      <acc value="0.0848430697" flag="0"/>
      <vel value="0.0275204133" flag="0"/>
      <psa03 value="0.1796927871" flag="0"/>
      <psa10 value="0.0147193331" flag="0"/>
      <psa30 value="0.0036928049" flag="0"/>
    </comp>
    <comp name="--.HHZ">
      <acc value="0.0557567951" flag="0"/>
      <vel value="0.0208699234" flag="0"/>
      <psa03 value="0.1314080626" flag="0"/>
      <psa10 value="0.0094544745" flag="0"/>
      <psa30 value="0.0016875768" flag="0"/>
    </comp>
  </station>
  <station code="PE05" name="PE05" netid="Z3" source="GFZ" insttype="CMG-3ESP/60" lat="37.5128" lon="22.4553">
    <comp name="--.HHE">
      <acc value="0.0115340452" flag="0"/>
      <vel value="0.0065867673" flag="0"/>
      <psa03 value="0.0229256338" flag="0"/>
      <psa10 value="0.0152752505" flag="0"/>
      <psa30 value="0.0016699834" flag="0"/>
    </comp>
    <comp name="--.HHN">
      <acc value="0.0121216853" flag="0"/>
      <vel value="0.0071266145" flag="0"/>
      <psa03 value="0.0338636473" flag="0"/>
      <psa10 value="0.0134344352" flag="0"/>
      <psa30 value="0.0022873990" flag="0"/>
    </comp>
    <comp name="--.HHZ">
      <acc value="0.0088796116" flag="0"/>
      <vel value="0.0047895481" flag="0"/>
      <psa03 value="0.0306432531" flag="0"/>
      <psa10 value="0.0094833360" flag="0"/>
      <psa30 value="0.0014711489" flag="0"/>
    </comp>
  </station>
  <station code="PE06" name="PE06" netid="Z3" source="GFZ" insttype="CMG-3ESP/60" lat="37.1787" lon="21.9252">
    <comp name="--.HHE">
      <acc value="0.0364467493" flag="0"/>
      <vel value="0.0126140408" flag="0"/>
      <psa03 value="0.0821417835" flag="0"/>
      <psa10 value="0.0091008099" flag="0"/>
      <psa30 value="0.0033226073" flag="0"/>
    </comp>
    <comp name="--.HHN">
      <acc value="0.0424721339" flag="0"/>
      <vel value="0.0116408312" flag="0"/>
      <psa03 value="0.0514380839" flag="0"/>
      <psa10 value="0.0189243999" flag="0"/>
      <psa30 value="0.0025801714" flag="0"/>
    </comp>
    <comp name="--.HHZ">
      <acc value="0.0197768176" flag="0"/>
      <vel value="0.0085097201" flag="0"/>
      <psa03 value="0.0303262424" flag="0"/>
      <psa10 value="0.0080916433" flag="0"/>
      <psa30 value="0.0021643605" flag="0"/>
    </comp>
  </station>
  <station code="PE09" name="PE09" netid="Z3" source="GFZ" insttype="CMG-3ESP/60" lat="36.7921" lon="21.8879">
    <comp name="--.HHE">
      <acc value="0.0122501346" flag="0"/>
      <vel value="0.0088921915" flag="0"/>
      <psa03 value="0.0249103757" flag="0"/>
      <psa10 value="0.0094159521" flag="0"/>
      <psa30 value="0.0013697353" flag="0"/>
    </comp>
    <comp name="--.HHN">
      <acc value="0.0132228070" flag="0"/>
      <vel value="0.0059396138" flag="0"/>
      <psa03 value="0.0291538625" flag="0"/>
      <psa10 value="0.0061199954" flag="0"/>
      <psa30 value="0.0013228513" flag="0"/>
    </comp>
    <comp name="--.HHZ">
      <acc value="0.0030337205" flag="0"/>
      <vel value="0.0021097582" flag="0"/>
      <psa03 value="0.0054045277" flag="0"/>
      <psa10 value="0.0015981266" flag="0"/>
      <psa30 value="0.0002262476" flag="0"/>
    </comp>
  </station>
</stationlist>
