<?xml version="1.0" encoding="UTF-8" standalone="yes"?>
<!DOCTYPE earthquake SYSTEM "stationlist.dtd">
<stationlist created="" xmlns="ch.ethz.sed.shakemap.usgs.xml">
  <station code="KRTS" name="KRTS" netid="KO" insttype="CMG-5T" lat="36.573" lon="35.375">
    <comp name="--.HNN">
      <acc value="0.0287363463" flag="0"/>
      <vel value="0.0089280508" flag="0"/>
      <psa03 value="0.0589865428" flag="0"/>
      <psa10 value="0.0129898241" flag="0"/>
      <psa30 value="0.0013295130" flag="0"/>
    </comp>
    <comp name="--.HNE">
      <acc value="0.0271776762" flag="0"/>
      <vel value="0.0081923258" flag="0"/>
      <psa03 value="0.0467501021" flag="0"/>
      <psa10 value="0.0141866216" flag="0"/>
      <psa30 value="0.0014594771" flag="0"/>
    </comp>
    <comp name="--.HNZ">
      <acc value="0.0398202445" flag="0"/>
      <vel value="0.0071781910" flag="0"/>
      <psa03 value="0.0500227936" flag="0"/>
      <psa10 value="0.0087058851" flag="0"/>
      <psa30 value="0.0009794389" flag="0"/>
    </comp>
  </station>
  <station code="TAHT" name="TAHT" netid="KO" insttype="CMG-3ESPC" lat="36.3755" lon="36.1855">
    <comp name="--.HHN">
      <acc value="0.4636388044" flag="0"/>
      <vel value="0.0696935697" flag="0"/>
      <psa03 value="0.5042724355" flag="0"/>
      <psa10 value="0.0317854586" flag="0"/>
      <psa30 value="0.0021045484" flag="0"/>
    </comp>
    <comp name="--.HHE">
      <acc value="0.4711046792" flag="0"/>
      <vel value="0.0913013478" flag="0"/>
      <psa03 value="0.4632155762" flag="0"/>
      <psa10 value="0.0254809738" flag="0"/>
      <psa30 value="0.0024102990" flag="0"/>
    </comp>
    <comp name="--.HHZ">
      <acc value="0.3278258367" flag="0"/>
      <vel value="0.0409022669" flag="0"/>
      <psa03 value="0.0971454030" flag="0"/>
      <psa10 value="0.0161089592" flag="0"/>
      <psa30 value="0.0011436544" flag="0"/>
    </comp>
  </station>
</stationlist>
