<stationlist created="1675692183">
	<station code="CMRD" name="CMRD" netid="KO" source="Bogazici University Kandilli Observatory And Earthquake Research Institute (KOERI)" insttype="" lat="37.6623" lon="34.9902">
		<comp name=".HNE" depth="0.0">
			<acc value="0.00274850948404" flag="0"/>
			<vel value="0.00161932244969" flag="0"/>
			<psa03 value="0.00651993386676" flag="0"/>
			<psa10 value="0.00160546764342" flag="0"/>
			<psa30 value="0.000132348142415" flag="0"/>
		</comp>
		<comp name=".HNN" depth="0.0">
			<acc value="0.0043664351172" flag="0"/>
			<vel value="0.00277959905586" flag="0"/>
			<psa03 value="0.00945236966269" flag="0"/>
			<psa10 value="0.00256433479647" flag="0"/>
			<psa30 value="0.00015164366544" flag="0"/>
		</comp>
		<comp name=".HNZ" depth="0.0">
			<acc value="0.0035217345069" flag="0"/>
			<vel value="0.00134914144181" flag="0"/>
			<psa03 value="0.00673101295386" flag="0"/>
			<psa10 value="0.000775873370461" flag="0"/>
			<psa30 value="0.00014542096155" flag="0"/>
		</comp>
	</station>
	<station code="SLFK" name="SLFK" netid="KO" source="Bogazici University Kandilli Observatory And Earthquake Research Institute (KOERI)" insttype="" lat="36.3925" lon="33.9464">
		<comp name=".HNE" depth="0.0">
			<acc value="0.0285287053291" flag="0"/>
			<vel value="0.00923814879544" flag="0"/>
			<psa03 value="0.048022790649" flag="0"/>
			<psa10 value="0.00196732009092" flag="0"/>
			<psa30 value="0.000261627539874" flag="0"/>
		</comp>
		<comp name=".HNN" depth="0.0">
			<acc value="0.0242188387726" flag="0"/>
			<vel value="0.00910823553278" flag="0"/>
			<psa03 value="0.0266917291336" flag="0"/>
			<psa10 value="0.00350399188789" flag="0"/>
			<psa30 value="0.000530040529248" flag="0"/>
		</comp>
		<comp name=".HNZ" depth="0.0">
			<acc value="0.0108793350068" flag="0"/>
			<vel value="0.00282593612879" flag="0"/>
			<psa03 value="0.0205623686664" flag="0"/>
			<psa10 value="0.00145271076621" flag="0"/>
			<psa30 value="0.000457874602781" flag="0"/>
		</comp>
	</station>
</stationlist>
