<?xml version="1.0" encoding="UTF-8" standalone="yes"?>
<!DOCTYPE earthquake SYSTEM "stationlist.dtd">
<stationlist created="" xmlns="ch.ethz.sed.shakemap.usgs.xml">
  <station code="ATHR" name="ATHR" netid="HA" insttype="GEOtiny," lat="38.3172" lon="20.4165">
    <comp name="--.HHN">
      <acc value="0.0065037902" flag="0"/>
      <vel value="0.0032471858" flag="0"/>
      <psa03 value="0.0146170616" flag="0"/>
      <psa10 value="0.0036886182" flag="0"/>
      <psa30 value="0.0005153957" flag="0"/>
    </comp>
    <comp name="--.HHE">
      <acc value="0.0047697168" flag="0"/>
      <vel value="0.0048304425" flag="0"/>
      <psa03 value="0.0138093615" flag="0"/>
      <psa10 value="0.0049812520" flag="0"/>
      <psa30 value="0.0004781332" flag="0"/>
    </comp>
    <comp name="--.HHZ">
      <acc value="0.0040018942" flag="0"/>
      <vel value="0.0030847604" flag="0"/>
      <psa03 value="0.0107573234" flag="0"/>
      <psa10 value="0.0057468480" flag="0"/>
      <psa30 value="0.0002942571" flag="0"/>
    </comp>
  </station>
  <station code="HAVD" name="HAVD" netid="HA" insttype="GEOtiny," lat="38.2036" lon="20.3848">
    <comp name="--.HHZ">
      <acc value="0.0083316499" flag="0"/>
      <vel value="0.0033227382" flag="0"/>
      <psa03 value="0.0203377727" flag="0"/>
      <psa10 value="0.0031515305" flag="0"/>
      <psa30 value="0.0002939564" flag="0"/>
    </comp>
    <comp name="--.HHE">
      <acc value="0.0109763189" flag="0"/>
      <vel value="0.0050303508" flag="0"/>
      <psa03 value="0.0180098057" flag="0"/>
      <psa10 value="0.0059621149" flag="0"/>
      <psa30 value="0.0005195201" flag="0"/>
    </comp>
    <comp name="--.HHN">
      <acc value="0.0123474354" flag="0"/>
      <vel value="0.0071550663" flag="0"/>
      <psa03 value="0.0420898286" flag="0"/>
      <psa10 value="0.0098130385" flag="0"/>
      <psa30 value="0.0006148489" flag="0"/>
    </comp>
  </station>
  <station code="KALE" name="KALE" netid="HA" insttype="40," lat="38.3911" lon="22.1398">
    <comp name="--.HHN">
      <acc value="0.0067066973" flag="0"/>
      <vel value="0.0040936841" flag="0"/>
      <psa03 value="0.0185124347" flag="0"/>
      <psa10 value="0.0035235210" flag="0"/>
      <psa30 value="0.0003713180" flag="0"/>
    </comp>
    <comp name="--.HHZ">
      <acc value="0.0043809587" flag="0"/>
      <vel value="0.0024392013" flag="0"/>
      <psa03 value="0.0092621414" flag="0"/>
      <psa10 value="0.0021824511" flag="0"/>
      <psa30 value="0.0004465501" flag="0"/>
    </comp>
    <comp name="--.HHE">
      <acc value="0.0065471017" flag="0"/>
      <vel value="0.0030593012" flag="0"/>
      <psa03 value="0.0101582223" flag="0"/>
      <psa10 value="0.0032266079" flag="0"/>
      <psa30 value="0.0002337610" flag="0"/>
    </comp>
  </station>
  <station code="LAKA" name="LAKA" netid="HA" insttype="120s," lat="38.2401" lon="21.9785">
    <comp name="--.HHE">
      <acc value="0.0014461240" flag="0"/>
      <vel value="0.0015526567" flag="0"/>
      <psa03 value="0.0027003585" flag="0"/>
      <psa10 value="0.0023385218" flag="0"/>
      <psa30 value="0.0001803791" flag="0"/>
    </comp>
    <comp name="--.HHN">
      <acc value="0.0014754081" flag="0"/>
      <vel value="0.0014048163" flag="0"/>
      <psa03 value="0.0029288320" flag="0"/>
      <psa10 value="0.0015756811" flag="0"/>
      <psa30 value="0.0001990735" flag="0"/>
    </comp>
    <comp name="--.HHZ">
      <acc value="0.0012825257" flag="0"/>
      <vel value="0.0009827811" flag="0"/>
      <psa03 value="0.0025068408" flag="0"/>
      <psa10 value="0.0011462921" flag="0"/>
      <psa30 value="0.0001908721" flag="0"/>
    </comp>
  </station>
  <station code="THAL" name="THAL" netid="HA" insttype="30" lat="38.0357" lon="22.6634">
    <comp name="--.HHN">
      <acc value="0.0103754536" flag="0"/>
      <vel value="0.0072945548" flag="0"/>
      <psa03 value="0.0248078658" flag="0"/>
      <psa10 value="0.0098815728" flag="0"/>
      <psa30 value="0.0009378546" flag="0"/>
    </comp>
    <comp name="--.HHZ">
      <acc value="0.0067876368" flag="0"/>
      <vel value="0.0037079084" flag="0"/>
      <psa03 value="0.0136164576" flag="0"/>
      <psa10 value="0.0050401286" flag="0"/>
      <psa30 value="0.0004022362" flag="0"/>
    </comp>
    <comp name="--.HHE">
      <acc value="0.0128296243" flag="0"/>
      <vel value="0.0079542980" flag="0"/>
      <psa03 value="0.0336537594" flag="0"/>
      <psa10 value="0.0098978437" flag="0"/>
      <psa30 value="0.0007405536" flag="0"/>
    </comp>
  </station>
  <station code="KTRS" name="KTRS" netid="HC" insttype="60" lat="36.9261" lon="22.136">
    <comp name="--.HHZ">
      <acc value="0.0047656101" flag="0"/>
      <vel value="0.0026224535" flag="0"/>
      <psa03 value="0.0129226259" flag="0"/>
      <psa10 value="0.0021855942" flag="0"/>
      <psa30 value="0.0004414028" flag="0"/>
    </comp>
    <comp name="--.HHE">
      <acc value="0.0056398731" flag="0"/>
      <vel value="0.0035603183" flag="0"/>
      <psa03 value="0.0097333449" flag="0"/>
      <psa10 value="0.0020393089" flag="0"/>
      <psa30 value="0.0007418865" flag="0"/>
    </comp>
    <comp name="--.HHN">
      <acc value="0.0055763832" flag="0"/>
      <vel value="0.0026899130" flag="0"/>
      <psa03 value="0.0117857049" flag="0"/>
      <psa10 value="0.0022333028" flag="0"/>
      <psa30 value="0.0005892453" flag="0"/>
    </comp>
  </station>
  <station code="ITM" name="ITM" netid="HL" insttype="DR24" lat="37.1787" lon="21.9252">
    <comp name="--.HHN">
      <acc value="0.0480191827" flag="0"/>
      <vel value="0.0225671691" flag="0"/>
      <psa03 value="0.0778588630" flag="0"/>
      <psa10 value="0.0129946706" flag="0"/>
      <psa30 value="0.0015792784" flag="0"/>
    </comp>
    <comp name="--.HHZ">
      <acc value="0.0334202445" flag="0"/>
      <vel value="0.0111744558" flag="0"/>
      <psa03 value="0.0476468308" flag="0"/>
      <psa10 value="0.0051951326" flag="0"/>
      <psa30 value="0.0005332924" flag="0"/>
    </comp>
    <comp name="--.HHE">
      <acc value="0.0309125201" flag="0"/>
      <vel value="0.0153920717" flag="0"/>
      <psa03 value="0.0546223926" flag="0"/>
      <psa10 value="0.0055885313" flag="0"/>
      <psa30 value="0.0007377514" flag="0"/>
    </comp>
  </station>
  <station code="KLV" name="KLV" netid="HL" insttype="120" lat="38.0435" lon="22.1504">
    <comp name="--.HHE">
      <acc value="0.0036165968" flag="0"/>
      <vel value="0.0023817719" flag="0"/>
      <psa03 value="0.0075007268" flag="0"/>
      <psa10 value="0.0035861046" flag="0"/>
      <psa30 value="0.0003727055" flag="0"/>
    </comp>
    <comp name="--.HHN">
      <acc value="0.0024454595" flag="0"/>
      <vel value="0.0021121236" flag="0"/>
      <psa03 value="0.0056700410" flag="0"/>
      <psa10 value="0.0034757127" flag="0"/>
      <psa30 value="0.0002731213" flag="0"/>
    </comp>
    <comp name="--.HHZ">
      <acc value="0.0033887015" flag="0"/>
      <vel value="0.0024719579" flag="0"/>
      <psa03 value="0.0075884883" flag="0"/>
      <psa10 value="0.0032474646" flag="0"/>
      <psa30 value="0.0002733194" flag="0"/>
    </comp>
  </station>
  <station code="ORTH" name="ORTH" netid="HL" insttype="30" lat="37.8511" lon="20.6963">
    <comp name="--.HHE">
      <acc value="0.0667408715" flag="0"/>
      <vel value="0.0233581588" flag="0"/>
      <psa03 value="0.1417469713" flag="0"/>
      <psa10 value="0.0176083603" flag="0"/>
      <psa30 value="0.0009911533" flag="0"/>
    </comp>
    <comp name="--.HHN">
      <acc value="0.0649681579" flag="0"/>
      <vel value="0.0185869494" flag="0"/>
      <psa03 value="0.1173388790" flag="0"/>
      <psa10 value="0.0122713386" flag="0"/>
      <psa30 value="0.0009530954" flag="0"/>
    </comp>
    <comp name="--.HHZ">
      <acc value="0.0211654137" flag="0"/>
      <vel value="0.0068130806" flag="0"/>
      <psa03 value="0.0376217454" flag="0"/>
      <psa10 value="0.0050386564" flag="0"/>
      <psa30 value="0.0003972775" flag="0"/>
    </comp>
  </station>
  <station code="PATC" name="PATC" netid="HL" insttype="CMG-5" lat="38.2693" lon="21.76">
    <comp name="00.HNE">
      <acc value="0.0208511939" flag="0"/>
      <vel value="0.0183661474" flag="0"/>
      <psa03 value="0.0365958370" flag="0"/>
      <psa10 value="0.0189380263" flag="0"/>
      <psa30 value="0.0023457183" flag="0"/>
    </comp>
    <comp name="00.HNN">
      <acc value="0.0132371894" flag="0"/>
      <vel value="0.0122823329" flag="0"/>
      <psa03 value="0.0504404536" flag="0"/>
      <psa10 value="0.0267882445" flag="0"/>
      <psa30 value="0.0020506736" flag="0"/>
    </comp>
    <comp name="00.HNZ">
      <acc value="0.0095614272" flag="0"/>
      <vel value="0.0076533365" flag="0"/>
      <psa03 value="0.0251364906" flag="0"/>
      <psa10 value="0.0100440079" flag="0"/>
      <psa30 value="0.0009653770" flag="0"/>
    </comp>
  </station>
  <station code="RLS" name="RLS" netid="HL" insttype="CMG3ESPC-120s" lat="38.0559" lon="21.4647">
    <comp name="--.HHE">
      <acc value="0.0102027848" flag="0"/>
      <vel value="0.0060420557" flag="0"/>
      <psa03 value="0.0270858024" flag="0"/>
      <psa10 value="0.0081540317" flag="0"/>
      <psa30 value="0.0008799653" flag="0"/>
    </comp>
    <comp name="--.HHZ">
      <acc value="0.0070600257" flag="0"/>
      <vel value="0.0041090386" flag="0"/>
      <psa03 value="0.0184982354" flag="0"/>
      <psa10 value="0.0038955799" flag="0"/>
      <psa30 value="0.0011560462" flag="0"/>
    </comp>
    <comp name="--.HHN">
      <acc value="0.0105236494" flag="0"/>
      <vel value="0.0073298521" flag="0"/>
      <psa03 value="0.0310921267" flag="0"/>
      <psa10 value="0.0047208952" flag="0"/>
      <psa30 value="0.0006501307" flag="0"/>
    </comp>
  </station>
  <station code="VLS" name="VLS" netid="HL" insttype="120P," lat="38.1768" lon="20.5886">
    <comp name="--.HHZ">
      <acc value="0.0100279818" flag="0"/>
      <vel value="0.0040720459" flag="0"/>
      <psa03 value="0.0215033351" flag="0"/>
      <psa10 value="0.0045555946" flag="0"/>
      <psa30 value="0.0003301946" flag="0"/>
    </comp>
    <comp name="--.HHE">
      <acc value="0.0224251679" flag="0"/>
      <vel value="0.0051913309" flag="0"/>
      <psa03 value="0.0267679778" flag="0"/>
      <psa10 value="0.0054543084" flag="0"/>
      <psa30 value="0.0005420099" flag="0"/>
    </comp>
    <comp name="--.HHN">
      <acc value="0.0237093443" flag="0"/>
      <vel value="0.0083987947" flag="0"/>
      <psa03 value="0.0352458806" flag="0"/>
      <psa10 value="0.0064655151" flag="0"/>
      <psa30 value="0.0005325254" flag="0"/>
    </comp>
  </station>
  <station code="AMT" name="AMT" netid="HP" insttype="CMG-3T," lat="37.5324" lon="21.7089">
    <comp name="00.HHZ">
      <acc value="0.0472556271" flag="0"/>
      <vel value="0.0175316677" flag="0"/>
      <psa03 value="0.0989399782" flag="0"/>
      <psa10 value="0.0165209508" flag="0"/>
      <psa30 value="0.0010648456" flag="0"/>
    </comp>
    <comp name="00.HHE">
      <acc value="0.0623261934" flag="0"/>
      <vel value="0.0260361841" flag="0"/>
      <psa03 value="0.1379653629" flag="0"/>
      <psa10 value="0.0305235646" flag="0"/>
      <psa30 value="0.0017852512" flag="0"/>
    </comp>
    <comp name="00.HHN">
      <acc value="0.0678432409" flag="0"/>
      <vel value="0.0310433151" flag="0"/>
      <psa03 value="0.1458673091" flag="0"/>
      <psa10 value="0.0295595847" flag="0"/>
      <psa30 value="0.0017958277" flag="0"/>
    </comp>
  </station>
  <station code="ANX" name="ANX" netid="HP" insttype="120" lat="38.5933" lon="21.9209">
    <comp name="--.HHE">
      <acc value="0.0087944471" flag="0"/>
      <vel value="0.0050381379" flag="0"/>
      <psa03 value="0.0219267465" flag="0"/>
      <psa10 value="0.0037705698" flag="0"/>
      <psa30 value="0.0005795657" flag="0"/>
    </comp>
    <comp name="--.HHN">
      <acc value="0.0085936987" flag="0"/>
      <vel value="0.0065640812" flag="0"/>
      <psa03 value="0.0186140084" flag="0"/>
      <psa10 value="0.0057424587" flag="0"/>
      <psa30 value="0.0004074790" flag="0"/>
    </comp>
    <comp name="--.HHZ">
      <acc value="0.0036602198" flag="0"/>
      <vel value="0.0025678075" flag="0"/>
      <psa03 value="0.0103086873" flag="0"/>
      <psa10 value="0.0027487430" flag="0"/>
      <psa30 value="0.0003486885" flag="0"/>
    </comp>
  </station>
  <station code="DRO" name="DRO" netid="HP" insttype="120P," lat="37.952" lon="21.71">
    <comp name="--.HHE">
      <acc value="0.0305091397" flag="0"/>
      <vel value="0.0142763467" flag="0"/>
      <psa03 value="0.0907851732" flag="0"/>
      <psa10 value="0.0101790751" flag="0"/>
      <psa30 value="0.0013093726" flag="0"/>
    </comp>
    <comp name="--.HHN">
      <acc value="0.0438555372" flag="0"/>
      <vel value="0.0268836049" flag="0"/>
      <psa03 value="0.1117794840" flag="0"/>
      <psa10 value="0.0121854046" flag="0"/>
      <psa30 value="0.0013780574" flag="0"/>
    </comp>
    <comp name="--.HHZ">
      <acc value="0.0164228320" flag="0"/>
      <vel value="0.0079767737" flag="0"/>
      <psa03 value="0.0420587443" flag="0"/>
      <psa10 value="0.0056964969" flag="0"/>
      <psa30 value="0.0012573441" flag="0"/>
    </comp>
  </station>
  <station code="EFP" name="EFP" netid="HP" insttype="40," lat="38.4269" lon="21.9058">
    <comp name="--.HHZ">
      <acc value="0.0028532523" flag="0"/>
      <vel value="0.0012319463" flag="0"/>
      <psa03 value="0.0080538230" flag="0"/>
      <psa10 value="0.0016292492" flag="0"/>
      <psa30 value="0.0002867358" flag="0"/>
    </comp>
    <comp name="--.HHE">
      <acc value="0.0051083795" flag="0"/>
      <vel value="0.0024720377" flag="0"/>
      <psa03 value="0.0120632328" flag="0"/>
      <psa10 value="0.0040805471" flag="0"/>
      <psa30 value="0.0010224641" flag="0"/>
    </comp>
    <comp name="--.HHN">
      <acc value="0.0045154463" flag="0"/>
      <vel value="0.0027098884" flag="0"/>
      <psa03 value="0.0110803830" flag="0"/>
      <psa10 value="0.0048978077" flag="0"/>
      <psa30 value="0.0003614790" flag="0"/>
    </comp>
  </station>
  <station code="FSK" name="FSK" netid="HP" insttype="40," lat="38.4593" lon="20.5623">
    <comp name="--.HHN">
      <acc value="0.0067128141" flag="0"/>
      <vel value="0.0026309052" flag="0"/>
      <psa03 value="0.0120944031" flag="0"/>
      <psa10 value="0.0029170621" flag="0"/>
      <psa30 value="0.0007056618" flag="0"/>
    </comp>
    <comp name="--.HHE">
      <acc value="0.0101027427" flag="0"/>
      <vel value="0.0046270482" flag="0"/>
      <psa03 value="0.0208930128" flag="0"/>
      <psa10 value="0.0036430812" flag="0"/>
      <psa30 value="0.0005800913" flag="0"/>
    </comp>
    <comp name="--.HHZ">
      <acc value="0.0038355383" flag="0"/>
      <vel value="0.0019442308" flag="0"/>
      <psa03 value="0.0059976260" flag="0"/>
      <psa10 value="0.0035417143" flag="0"/>
      <psa30 value="0.0003472054" flag="0"/>
    </comp>
  </station>
  <station code="GUR" name="GUR" netid="HP" insttype="40," lat="37.9363" lon="22.3423">
    <comp name="--.HHN">
      <acc value="0.0124313654" flag="0"/>
      <vel value="0.0077155156" flag="0"/>
      <psa03 value="0.0349041670" flag="0"/>
      <psa10 value="0.0094731173" flag="0"/>
      <psa30 value="0.0004590866" flag="0"/>
    </comp>
    <comp name="--.HHE">
      <acc value="0.0087907960" flag="0"/>
      <vel value="0.0056266270" flag="0"/>
      <psa03 value="0.0256721021" flag="0"/>
      <psa10 value="0.0051903495" flag="0"/>
      <psa30 value="0.0004060422" flag="0"/>
    </comp>
    <comp name="--.HHZ">
      <acc value="0.0063000125" flag="0"/>
      <vel value="0.0041015925" flag="0"/>
      <psa03 value="0.0121461479" flag="0"/>
      <psa10 value="0.0040339329" flag="0"/>
      <psa30 value="0.0003463958" flag="0"/>
    </comp>
  </station>
  <station code="LTHK" name="LTHK" netid="HP" insttype="40," lat="37.7095" lon="20.8367">
    <comp name="--.HHE">
      <acc value="0.0612561655" flag="0"/>
      <vel value="0.0177528052" flag="0"/>
      <psa03 value="0.1395389044" flag="0"/>
      <psa10 value="0.0136107316" flag="0"/>
      <psa30 value="0.0009937249" flag="0"/>
    </comp>
    <comp name="--.HHZ">
      <acc value="0.0281769850" flag="0"/>
      <vel value="0.0092624054" flag="0"/>
      <psa03 value="0.0671284820" flag="0"/>
      <psa10 value="0.0076473649" flag="0"/>
      <psa30 value="0.0004886566" flag="0"/>
    </comp>
    <comp name="--.HHN">
      <acc value="0.0509195264" flag="0"/>
      <vel value="0.0172483882" flag="0"/>
      <psa03 value="0.1445636824" flag="0"/>
      <psa10 value="0.0112580267" flag="0"/>
      <psa30 value="0.0009270436" flag="0"/>
    </comp>
  </station>
  <station code="PDO" name="PDO" netid="HP" insttype="120s" lat="38.5986" lon="21.1833">
    <comp name="--.HHE">
      <acc value="0.0116872819" flag="0"/>
      <vel value="0.0059722220" flag="0"/>
      <psa03 value="0.0381681350" flag="0"/>
      <psa10 value="0.0063729902" flag="0"/>
      <psa30 value="0.0008104743" flag="0"/>
    </comp>
    <comp name="--.HHZ">
      <acc value="0.0097388796" flag="0"/>
      <vel value="0.0039192085" flag="0"/>
      <psa03 value="0.0265540295" flag="0"/>
      <psa10 value="0.0026933979" flag="0"/>
      <psa30 value="0.0003426414" flag="0"/>
    </comp>
    <comp name="--.HHN">
      <acc value="0.0165272669" flag="0"/>
      <vel value="0.0084020968" flag="0"/>
      <psa03 value="0.0775080901" flag="0"/>
      <psa10 value="0.0072498263" flag="0"/>
      <psa30 value="0.0005447459" flag="0"/>
    </comp>
  </station>
  <station code="PLEV" name="PLEV" netid="HP" insttype="Compact," lat="38.4124" lon="21.4073">
    <comp name="--.HHE">
      <acc value="0.0045453768" flag="0"/>
      <vel value="0.0035381808" flag="0"/>
      <psa03 value="0.0104393553" flag="0"/>
      <psa10 value="0.0083815349" flag="0"/>
      <psa30 value="0.0004593183" flag="0"/>
    </comp>
    <comp name="--.HHZ">
      <acc value="0.0032551575" flag="0"/>
      <vel value="0.0017409940" flag="0"/>
      <psa03 value="0.0066729107" flag="0"/>
      <psa10 value="0.0025101054" flag="0"/>
      <psa30 value="0.0004146902" flag="0"/>
    </comp>
    <comp name="--.HHN">
      <acc value="0.0048217819" flag="0"/>
      <vel value="0.0031823966" flag="0"/>
      <psa03 value="0.0138155158" flag="0"/>
      <psa10 value="0.0033677762" flag="0"/>
      <psa30 value="0.0003542278" flag="0"/>
    </comp>
  </station>
  <station code="PVO" name="PVO" netid="HP" insttype="120P," lat="38.616" lon="21.525">
    <comp name="--.HHE">
      <acc value="0.0118759279" flag="0"/>
      <vel value="0.0072769768" flag="0"/>
      <psa03 value="0.0404382997" flag="0"/>
      <psa10 value="0.0040846154" flag="0"/>
      <psa30 value="0.0012481677" flag="0"/>
    </comp>
    <comp name="--.HHZ">
      <acc value="0.0072145437" flag="0"/>
      <vel value="0.0026699172" flag="0"/>
      <psa03 value="0.0220024733" flag="0"/>
      <psa10 value="0.0037047310" flag="0"/>
      <psa30 value="0.0007474963" flag="0"/>
    </comp>
    <comp name="--.HHN">
      <acc value="0.0103663710" flag="0"/>
      <vel value="0.0044153764" flag="0"/>
      <psa03 value="0.0279587761" flag="0"/>
      <psa10 value="0.0037994948" flag="0"/>
      <psa30 value="0.0007306751" flag="0"/>
    </comp>
  </station>
  <station code="PYL" name="PYL" netid="HP" insttype="120s" lat="36.8955" lon="21.742">
    <comp name="--.HHN">
      <acc value="0.0128853399" flag="0"/>
      <vel value="0.0062557616" flag="0"/>
      <psa03 value="0.0311248517" flag="0"/>
      <psa10 value="0.0040129660" flag="0"/>
      <psa30 value="0.0006203291" flag="0"/>
    </comp>
    <comp name="--.HHE">
      <acc value="0.0151704186" flag="0"/>
      <vel value="0.0059186206" flag="0"/>
      <psa03 value="0.0424239966" flag="0"/>
