<?xml version="1.0" encoding="UTF-8" standalone="yes"?>
<!DOCTYPE earthquake SYSTEM "stationlist.dtd">
<stationlist created="" xmlns="ch.ethz.sed.shakemap.usgs.xml">
  <station code="KALE" name="KALE" netid="HA" insttype="40," lat="38.3911" lon="22.1398">
    <comp name="--.HHE">
      <acc value="0.3085067246" flag="0"/>
      <vel value="0.1044835002" flag="0"/>
      <psa03 value="0.4032753642" flag="0"/>
      <psa10 value="0.0345896769" flag="0"/>
      <psa30 value="0.0027383419" flag="0"/>
    </comp>
    <comp name="--.HHZ">
      <acc value="0.2006554115" flag="0"/>
      <vel value="0.0641814336" flag="0"/>
      <psa03 value="0.3090308375" flag="0"/>
      <psa10 value="0.0235250272" flag="0"/>
      <psa30 value="0.0019710007" flag="0"/>
    </comp>
    <comp name="--.HHN">
      <acc value="0.3660244521" flag="0"/>
      <vel value="0.0824269562" flag="0"/>
      <psa03 value="0.3160490889" flag="0"/>
      <psa10 value="0.0303513518" flag="0"/>
      <psa30 value="0.0021061512" flag="0"/>
    </comp>
  </station>
  <station code="LAKA" name="LAKA" netid="HA" insttype="120s" lat="38.2401" lon="21.9785">
    <comp name="--.HHE">
      <acc value="0.0610936810" flag="0"/>
      <vel value="0.0111441742" flag="0"/>
      <psa03 value="0.0538090737" flag="0"/>
      <psa10 value="0.0074941433" flag="0"/>
      <psa30 value="0.0004376471" flag="0"/>
    </comp>
    <comp name="--.HHZ">
      <acc value="0.0525827080" flag="0"/>
      <vel value="0.0089659997" flag="0"/>
      <psa03 value="0.0399457386" flag="0"/>
      <psa10 value="0.0084411285" flag="0"/>
      <psa30 value="0.0016647035" flag="0"/>
    </comp>
    <comp name="--.HHN">
      <acc value="0.0679403654" flag="0"/>
      <vel value="0.0122911434" flag="0"/>
      <psa03 value="0.0525716131" flag="0"/>
      <psa10 value="0.0086785252" flag="0"/>
      <psa30 value="0.0014115946" flag="0"/>
    </comp>
  </station>
  <station code="PATC" name="PATC" netid="HL" insttype="CMG-5" lat="38.2693" lon="21.76">
    <comp name="00.HNE">
      <acc value="0.0418421131" flag="0"/>
      <vel value="0.0132100594" flag="0"/>
      <psa03 value="0.0665136221" flag="0"/>
      <psa10 value="0.0140760569" flag="0"/>
      <psa30 value="0.0025082432" flag="0"/>
    </comp>
    <comp name="00.HNN">
      <acc value="0.0488190042" flag="0"/>
      <vel value="0.0174684322" flag="0"/>
      <psa03 value="0.0622399097" flag="0"/>
      <psa10 value="0.0169126898" flag="0"/>
      <psa30 value="0.0019352994" flag="0"/>
    </comp>
    <comp name="00.HNZ">
      <acc value="0.0850848402" flag="0"/>
      <vel value="0.0145716946" flag="0"/>
      <psa03 value="0.0453009038" flag="0"/>
      <psa10 value="0.0112863631" flag="0"/>
      <psa30 value="0.0011928865" flag="0"/>
    </comp>
  </station>
  <station code="RIOA" name="RIOA" netid="HL" insttype="CMG-5" lat="38.2959" lon="21.7912">
    <comp name="00.HNE">
      <acc value="0.0653685644" flag="0"/>
      <vel value="0.0148441420" flag="0"/>
      <psa03 value="0.0606911546" flag="0"/>
      <psa10 value="0.0112384490" flag="0"/>
      <psa30 value="0.0007250051" flag="0"/>
    </comp>
    <comp name="00.HNN">
      <acc value="0.0559512944" flag="0"/>
      <vel value="0.0114184875" flag="0"/>
      <psa03 value="0.0523276611" flag="0"/>
      <psa10 value="0.0132593725" flag="0"/>
      <psa30 value="0.0010411280" flag="0"/>
    </comp>
    <comp name="00.HNZ">
      <acc value="0.0682356855" flag="0"/>
      <vel value="0.0118430700" flag="0"/>
      <psa03 value="0.0331590526" flag="0"/>
      <psa10 value="0.0080082190" flag="0"/>
      <psa30 value="0.0012133452" flag="0"/>
    </comp>
  </station>
  <station code="ANX" name="ANX" netid="HP" insttype="120" lat="38.5933" lon="21.9209">
    <comp name="--.HHE">
      <acc value="0.0951425345" flag="0"/>
      <vel value="0.0292282097" flag="0"/>
      <psa03 value="0.1766604805" flag="0"/>
      <psa10 value="0.0176627212" flag="0"/>
      <psa30 value="0.0012028821" flag="0"/>
    </comp>
    <comp name="--.HHN">
      <acc value="0.1169614648" flag="0"/>
      <vel value="0.0543647987" flag="0"/>
      <psa03 value="0.1643459120" flag="0"/>
      <psa10 value="0.0339755001" flag="0"/>
      <psa30 value="0.0013870342" flag="0"/>
    </comp>
    <comp name="--.HHZ">
      <acc value="0.0926415204" flag="0"/>
      <vel value="0.0193601103" flag="0"/>
      <psa03 value="0.0833978217" flag="0"/>
      <psa10 value="0.0123905926" flag="0"/>
      <psa30 value="0.0008371335" flag="0"/>
    </comp>
  </station>
  <station code="EFP" name="EFP" netid="HP" insttype="40," lat="38.4269" lon="21.9058">
    <comp name="--.HHE">
      <acc value="0.1529397549" flag="0"/>
      <vel value="0.0235938620" flag="0"/>
      <psa03 value="0.0809061639" flag="0"/>
      <psa10 value="0.0090204534" flag="0"/>
      <psa30 value="0.0005622996" flag="0"/>
    </comp>
    <comp name="--.HHZ">
      <acc value="0.0702417254" flag="0"/>
      <vel value="0.0159224881" flag="0"/>
      <psa03 value="0.0621928035" flag="0"/>
      <psa10 value="0.0048337309" flag="0"/>
      <psa30 value="0.0004145307" flag="0"/>
    </comp>
    <comp name="--.HHN">
      <acc value="0.0507477656" flag="0"/>
      <vel value="0.0162368499" flag="0"/>
      <psa03 value="0.0655146555" flag="0"/>
      <psa10 value="0.0079227100" flag="0"/>
      <psa30 value="0.0007281772" flag="0"/>
    </comp>
  </station>
  <station code="SERG" name="SERG" netid="HP" insttype="DC_100" lat="38.4133" lon="22.0566">
    <comp name="--.HNE">
      <acc value="3.3021439371" flag="0"/>
      <vel value="0.7454801345" flag="0"/>
      <psa03 value="1.6873987677" flag="0"/>
      <psa10 value="0.0876687425" flag="0"/>
      <psa30 value="0.0115456476" flag="0"/>
    </comp>
    <comp name="--.HNZ">
      <acc value="1.4797435576" flag="0"/>
      <vel value="0.2623509360" flag="0"/>
      <psa03 value="0.4907345938" flag="0"/>
      <psa10 value="0.0302862911" flag="0"/>
      <psa30 value="0.0041947172" flag="0"/>
    </comp>
    <comp name="--.HNN">
      <acc value="3.8674850897" flag="0"/>
      <vel value="0.8002506266" flag="0"/>
      <psa03 value="1.4954436722" flag="0"/>
      <psa10 value="0.1376109426" flag="0"/>
      <psa30 value="0.0179866794" flag="0"/>
    </comp>
  </station>
  <station code="UPR" name="UPR" netid="HP" insttype="120" lat="0" lon="0">
    <comp name="--.HHZ">
      <acc value="0.0697369958" flag="0"/>
      <vel value="0.0144071023" flag="0"/>
      <psa03 value="0.0544941174" flag="0"/>
      <psa10 value="0.0161806596" flag="0"/>
      <psa30 value="0.0011110940" flag="0"/>
    </comp>
    <comp name="--.HHE">
      <acc value="0.0749879612" flag="0"/>
      <vel value="0.0151066425" flag="0"/>
      <psa03 value="0.0491147256" flag="0"/>
      <psa10 value="0.0186240048" flag="0"/>
      <psa30 value="0.0010921809" flag="0"/>
    </comp>
    <comp name="--.HHN">
      <acc value="0.0661029654" flag="0"/>
      <vel value="0.0211753943" flag="0"/>
      <psa03 value="0.0569492104" flag="0"/>
      <psa10 value="0.0194224960" flag="0"/>
      <psa30 value="0.0014573117" flag="0"/>
    </comp>
  </station>
</stationlist>
