<?xml version="1.0" encoding="UTF-8" standalone="yes"?>
<!DOCTYPE earthquake SYSTEM "stationlist.dtd">
<stationlist created="" xmlns="ch.ethz.sed.shakemap.usgs.xml">
  <station code="ZKR" name="ZKR" netid="GE" insttype="STS-2/N" lat="35.1147" lon="26.2169">
    <comp name="--.HHN">
      <acc value="0.0217595362" flag="0"/>
      <vel value="0.0141731748" flag="0"/>
      <psa03 value="0.0448280392" flag="0"/>
      <psa10 value="0.0195982745" flag="0"/>
      <psa30 value="0.0007777951" flag="0"/>
    </comp>
    <comp name="--.HHE">
      <acc value="0.0429705209" flag="0"/>
      <vel value="0.0201324441" flag="0"/>
      <psa03 value="0.1172523572" flag="0"/>
      <psa10 value="0.0171537814" flag="0"/>
      <psa30 value="0.0015417796" flag="0"/>
    </comp>
    <comp name="--.HHZ">
      <acc value="0.0374221655" flag="0"/>
      <vel value="0.0134990465" flag="0"/>
      <psa03 value="0.0524508468" flag="0"/>
      <psa10 value="0.0213288488" flag="0"/>
      <psa30 value="0.0013011000" flag="0"/>
    </comp>
  </station>
  <station code="IDI" name="IDI" netid="MN" insttype="" lat="35.288" lon="24.89">
    <comp name="--.HHN">
      <acc value="0.0441163242" flag="0"/>
      <vel value="0.0108167778" flag="0"/>
      <psa03 value="0.0543942001" flag="0"/>
      <psa10 value="0.0090249807" flag="0"/>
      <psa30 value="0.0008581613" flag="0"/>
    </comp>
    <comp name="--.HHZ">
      <acc value="0.0361685649" flag="0"/>
      <vel value="0.0116382063" flag="0"/>
      <psa03 value="0.0352710448" flag="0"/>
      <psa10 value="0.0051519309" flag="0"/>
      <psa30 value="0.0008375711" flag="0"/>
    </comp>
    <comp name="--.HHE">
      <acc value="0.0408517611" flag="0"/>
      <vel value="0.0121027016" flag="0"/>
      <psa03 value="0.0663941331" flag="0"/>
      <psa10 value="0.0077361863" flag="0"/>
      <psa30 value="0.0008233709" flag="0"/>
    </comp>
  </station>
</stationlist>
