<stationlist created="1738818141">
	<station code="BODA" name="BODA" netid="KO" source="Bogazici University Kandilli Observatory And Earthquake Research Institute (KOERI)" insttype="" lat="37.0348" lon="27.4304">
		<comp name=".HNE" depth="0.0">
			<acc value="0.0025820827592202" flag="0"/>
			<vel value="0.00124870953536" flag="0"/>
			<psa03 value="0.00660794360321936" flag="0"/>
			<psa10 value="0.00101792360431794" flag="0"/>
			<psa30 value="0.000191221170068291" flag="0"/>
		</comp>
		<comp name=".HNN" depth="0.0">
			<acc value="0.0054206035853406" flag="0"/>
			<vel value="0.00124593488164" flag="0"/>
			<psa03 value="0.00850754860938224" flag="0"/>
			<psa10 value="0.00137760020456322" flag="0"/>
			<psa30 value="0.000137258285396179" flag="0"/>
		</comp>
		<comp name=".HNZ" depth="0.0">
			<acc value="0.0074966281721988" flag="0"/>
			<vel value="0.000986182688255" flag="0"/>
			<psa03 value="0.00145049631612662" flag="0"/>
			<psa10 value="0.000778819483595161" flag="0"/>
			<psa30 value="0.000199078656734031" flag="0"/>
		</comp>
	</station>
	<station code="BODM" name="BODM" netid="KO" source="Bogazici University Kandilli Observatory And Earthquake Research Institute (KOERI)" insttype="" lat="37.031" lon="27.4247">
		<comp name=".HNE" depth="0.0">
			<acc value="0.0085910774360052" flag="0"/>
			<vel value="0.00181627178305" flag="0"/>
			<psa03 value="0.00748594903238768" flag="0"/>
			<psa10 value="0.0012399179197279" flag="0"/>
			<psa30 value="0.000241028050258644" flag="0"/>
		</comp>
		<comp name=".HNN" depth="0.0">
			<acc value="0.00446681878914" flag="0"/>
			<vel value="0.00244499212163" flag="0"/>
			<psa03 value="0.00826683018902411" flag="0"/>
			<psa10 value="0.00211145034197257" flag="0"/>
			<psa30 value="0.000173848639014856" flag="0"/>
		</comp>
		<comp name=".HNZ" depth="0.0">
			<acc value="0.0023281926775752" flag="0"/>
			<vel value="0.000656137849852" flag="0"/>
			<psa03 value="0.00185379370317049" flag="0"/>
			<psa10 value="0.000665885088182486" flag="0"/>
			<psa30 value="0.000233105442091475" flag="0"/>
		</comp>
	</station>
	<station code="CESE" name="CESE" netid="KO" source="Bogazici University Kandilli Observatory And Earthquake Research Institute (KOERI)" insttype="" lat="38.3306" lon="26.2997">
		<comp name=".HNE" depth="0.0">
			<acc value="0.03028002382791" flag="0"/>
			<vel value="0.00253995542241" flag="0"/>
			<psa03 value="0.00199683605662859" flag="0"/>
			<psa10 value="0.00143957048166796" flag="0"/>
			<psa30 value="0.000453801468368559" flag="0"/>
		</comp>
		<comp name=".HNN" depth="0.0">
			<acc value="0.023648843798172" flag="0"/>
			<vel value="0.00216970362447" flag="0"/>
			<psa03 value="0.00291594902668822" flag="0"/>
			<psa10 value="0.00159120955045037" flag="0"/>
			<psa30 value="0.000563411385738422" flag="0"/>
		</comp>
		<comp name=".HNZ" depth="0.0">
			<acc value="0.0051470822773386" flag="0"/>
			<vel value="0.00115494511145" flag="0"/>
			<psa03 value="0.00196182380885736" flag="0"/>
			<psa10 value="0.00066569048544514" flag="0"/>
			<psa30 value="0.000326264816567684" flag="0"/>
		</comp>
	</station>
	<station code="DATC" name="DATC" netid="KO" source="Bogazici University Kandilli Observatory And Earthquake Research Institute (KOERI)" insttype="" lat="36.7584" lon="27.6602">
		<comp name=".HNE" depth="0.0">
			<acc value="0.10888479037674" flag="0"/>
			<vel value="0.011095133357" flag="0"/>
			<psa03 value="0.0105402262330423" flag="0"/>
			<psa10 value="0.00626749159678952" flag="0"/>
			<psa30 value="0.000628759725161557" flag="0"/>
		</comp>
		<comp name=".HNN" depth="0.0">
			<acc value="0.13145286208572" flag="0"/>
			<vel value="0.0127082544154" flag="0"/>
			<psa03 value="0.014040698356542" flag="0"/>
			<psa10 value="0.0044472236692343" flag="0"/>
			<psa30 value="0.000560733031228886" flag="0"/>
		</comp>
		<comp name=".HNZ" depth="0.0">
			<acc value="0.1158898329507" flag="0"/>
			<vel value="0.0188757760289" flag="0"/>
			<psa03 value="0.0176548922061954" flag="0"/>
			<psa10 value="0.00514260035953107" flag="0"/>
			<psa30 value="0.000601945188414824" flag="0"/>
		</comp>
	</station>
	<station code="DIDI" name="DIDI" netid="KO" source="Bogazici University Kandilli Observatory And Earthquake Research Institute (KOERI)" insttype="" lat="37.3767" lon="27.2398">
		<comp name=".HNE" depth="0.0">
			<acc value="0.006547408902057" flag="0"/>
			<vel value="0.0035569283532" flag="0"/>
			<psa03 value="0.0140599470274691" flag="0"/>
			<psa10 value="0.00441194601975818" flag="0"/>
			<psa30 value="0.00110361748424392" flag="0"/>
		</comp>
		<comp name=".HNN" depth="0.0">
			<acc value="0.0072590276755614" flag="0"/>
			<vel value="0.00363843157057" flag="0"/>
			<psa03 value="0.0147308690769492" flag="0"/>
			<psa10 value="0.00439030099215032" flag="0"/>
			<psa30 value="0.00121227686989484" flag="0"/>
		</comp>
		<comp name=".HNZ" depth="0.0">
			<acc value="0.018023434829124" flag="0"/>
			<vel value="0.00275931404745" flag="0"/>
			<psa03 value="0.0073270368125038" flag="0"/>
			<psa10 value="0.0042424085387347" flag="0"/>
			<psa30 value="0.000498485001350122" flag="0"/>
		</comp>
	</station>
	<station code="GMLD" name="GMLD" netid="KO" source="Bogazici University Kandilli Observatory And Earthquake Research Institute (KOERI)" insttype="" lat="38.0766" lon="26.9157">
		<comp name=".HNE" depth="0.0">
			<acc value="0.007922170753032" flag="0"/>
			<vel value="0.00423841223394" flag="0"/>
			<psa03 value="0.0121553638269346" flag="0"/>
			<psa10 value="0.00315924069044244" flag="0"/>
			<psa30 value="0.000369975941382062" flag="0"/>
		</comp>
		<comp name=".HNN" depth="0.0">
			<acc value="0.0100702764783156" flag="0"/>
			<vel value="0.00413334264491" flag="0"/>
			<psa03 value="0.011713703058682" flag="0"/>
			<psa10 value="0.00383208166910563" flag="0"/>
			<psa30 value="0.000439783143891625" flag="0"/>
		</comp>
		<comp name=".HNZ" depth="0.0">
			<acc value="0.004838891999076" flag="0"/>
			<vel value="0.00203396225426" flag="0"/>
			<psa03 value="0.00888240872848435" flag="0"/>
			<psa10 value="0.00190729338007403" flag="0"/>
			<psa30 value="0.00045576232743453" flag="0"/>
		</comp>
	</station>
	<station code="KUSD" name="KUSD" netid="KO" source="Bogazici University Kandilli Observatory And Earthquake Research Institute (KOERI)" insttype="" lat="37.8606" lon="27.2868">
		<comp name=".HNE" depth="0.0">
			<acc value="0.01480918623876" flag="0"/>
			<vel value="0.00153287507086" flag="0"/>
			<psa03 value="0.00395462395359631" flag="0"/>
			<psa10 value="0.00184889919924893" flag="0"/>
			<psa30 value="0.000381515533948521" flag="0"/>
		</comp>
		<comp name=".HNN" depth="0.0">
			<acc value="0.036833926929666" flag="0"/>
			<vel value="0.00245120814154" flag="0"/>
			<psa03 value="0.00476418441892634" flag="0"/>
			<psa10 value="0.00197362449293655" flag="0"/>
			<psa30 value="0.000510947493595021" flag="0"/>
		</comp>
		<comp name=".HNZ" depth="0.0">
			<acc value="0.0079970585386452" flag="0"/>
			<vel value="0.00126317077409" flag="0"/>
			<psa03 value="0.00271393955079937" flag="0"/>
			<psa10 value="0.000734497348249838" flag="0"/>
			<psa30 value="0.000426167762772743" flag="0"/>
		</comp>
	</station>
	<station code="YKAV" name="YKAV" netid="KO" source="Bogazici University Kandilli Observatory And Earthquake Research Institute (KOERI)" insttype="" lat="37.1246" lon="27.2801">
		<comp name=".HNE" depth="0.0">
			<acc value="0.005702779205406" flag="0"/>
			<vel value="0.0021288047293" flag="0"/>
			<psa03 value="0.00869484226665653" flag="0"/>
			<psa10 value="0.00425006560849119" flag="0"/>
			<psa30 value="0.000619091376346453" flag="0"/>
		</comp>
		<comp name=".HNN" depth="0.0">
			<acc value="0.0087527678580882" flag="0"/>
			<vel value="0.00186991726578" flag="0"/>
			<psa03 value="0.00601569733856894" flag="0"/>
			<psa10 value="0.00328382511542404" flag="0"/>
			<psa30 value="0.000426744728077251" flag="0"/>
		</comp>
		<comp name=".HNZ" depth="0.0">
			<acc value="0.0092564293062888" flag="0"/>
			<vel value="0.00195462047357" flag="0"/>
			<psa03 value="0.00889550790355536" flag="0"/>
			<psa10 value="0.0021963662797352" flag="0"/>
			<psa30 value="0.00056055484233961" flag="0"/>
		</comp>
	</station>
</stationlist>
