<?xml version="1.0" encoding="UTF-8" standalone="yes"?>
<!DOCTYPE earthquake SYSTEM "stationlist.dtd">
<stationlist created="" xmlns="ch.ethz.sed.shakemap.usgs.xml">
  <station code="THERA" name="THERA" netid="GE" insttype="STS-2/N" lat="36.367" lon="25.4753">
    <comp name="--.HHE">
      <acc value="0.3262572499" flag="0"/>
      <vel value="0.1052878592" flag="0"/>
      <psa03 value="0.3081892920" flag="0"/>
      <psa10 value="0.0428107728" flag="0"/>
      <psa30 value="0.0031572391" flag="0"/>
    </comp>
    <comp name="--.HHN">
      <acc value="0.2758137651" flag="0"/>
      <vel value="0.0867314111" flag="0"/>
      <psa03 value="0.3293667346" flag="0"/>
      <psa10 value="0.0182975041" flag="0"/>
      <psa30 value="0.0015899767" flag="0"/>
    </comp>
    <comp name="--.HHZ">
      <acc value="0.3499423095" flag="0"/>
      <vel value="0.0876178900" flag="0"/>
      <psa03 value="0.2769733591" flag="0"/>
      <psa10 value="0.0352577289" flag="0"/>
      <psa30 value="0.0022546838" flag="0"/>
    </comp>
  </station>
</stationlist>
