<?xml version="1.0" encoding="UTF-8" standalone="yes"?>
<!DOCTYPE earthquake SYSTEM "stationlist.dtd">
<stationlist created="" xmlns="ch.ethz.sed.shakemap.usgs.xml">
  <station code="AKS" name="AKS" netid="KO" insttype="CMG-5T" lat="38.8785" lon="27.8129">
    <comp name="--.HNZ">
      <acc value="0.1566264842" flag="0"/>
      <vel value="0.0264502589" flag="0"/>
      <psa03 value="0.1149432535" flag="0"/>
      <psa10 value="0.0099818161" flag="0"/>
      <psa30 value="0.0011243935" flag="0"/>
    </comp>
    <comp name="--.HNN">
      <acc value="0.5165513578" flag="0"/>
      <vel value="0.0993397330" flag="0"/>
      <psa03 value="0.1812808646" flag="0"/>
      <psa10 value="0.0162955535" flag="0"/>
      <psa30 value="0.0012561681" flag="0"/>
    </comp>
    <comp name="--.HNE">
      <acc value="0.2456685179" flag="0"/>
      <vel value="0.0596999760" flag="0"/>
      <psa03 value="0.1980936304" flag="0"/>
      <psa10 value="0.0262566072" flag="0"/>
      <psa30 value="0.0018433917" flag="0"/>
    </comp>
  </station>
  <station code="BALB" name="BALB" netid="KO" insttype="120s," lat="39.6507" lon="27.8642">
    <comp name="--.HHN">
      <acc value="0.0674946780" flag="0"/>
      <vel value="0.0228309263" flag="0"/>
      <psa03 value="0.1030790137" flag="0"/>
      <psa10 value="0.0195893916" flag="0"/>
      <psa30 value="0.0011191699" flag="0"/>
    </comp>
    <comp name="--.HHE">
      <acc value="0.0689284930" flag="0"/>
      <vel value="0.0176349019" flag="0"/>
      <psa03 value="0.0942464415" flag="0"/>
      <psa10 value="0.0170190273" flag="0"/>
      <psa30 value="0.0014831345" flag="0"/>
    </comp>
    <comp name="--.HHZ">
      <acc value="0.0571839758" flag="0"/>
      <vel value="0.0134775527" flag="0"/>
      <psa03 value="0.0753637396" flag="0"/>
      <psa10 value="0.0072973157" flag="0"/>
      <psa30 value="0.0007578739" flag="0"/>
    </comp>
  </station>
  <station code="DST" name="DST" netid="KO" insttype="CMG-5T" lat="39.6041" lon="28.6267">
    <comp name="--.HNN">
      <acc value="0.0533540082" flag="0"/>
      <vel value="0.0157629492" flag="0"/>
      <psa03 value="0.0500500129" flag="0"/>
      <psa10 value="0.0062500658" flag="0"/>
      <psa30 value="0.0008242356" flag="0"/>
    </comp>
    <comp name="--.HNE">
      <acc value="0.0587251805" flag="0"/>
      <vel value="0.0153411060" flag="0"/>
      <psa03 value="0.0995333694" flag="0"/>
      <psa10 value="0.0074856429" flag="0"/>
      <psa30 value="0.0005557908" flag="0"/>
    </comp>
    <comp name="--.HNZ">
      <acc value="0.0396418900" flag="0"/>
      <vel value="0.0109166803" flag="0"/>
      <psa03 value="0.0599355926" flag="0"/>
      <psa10 value="0.0037872220" flag="0"/>
      <psa30 value="0.0005360313" flag="0"/>
    </comp>
  </station>
  <station code="GEDZ" name="GEDZ" netid="KO" insttype="30s," lat="39.0445" lon="29.4105">
    <comp name="--.HHE">
      <acc value="0.0436746859" flag="0"/>
      <vel value="0.0268863012" flag="0"/>
      <psa03 value="0.0846302307" flag="0"/>
      <psa10 value="0.0440875136" flag="0"/>
      <psa30 value="0.0015644806" flag="0"/>
    </comp>
    <comp name="--.HHN">
      <acc value="0.0368804466" flag="0"/>
      <vel value="0.0332279978" flag="0"/>
      <psa03 value="0.0569536625" flag="0"/>
      <psa10 value="0.0464949100" flag="0"/>
      <psa30 value="0.0034730360" flag="0"/>
    </comp>
    <comp name="--.HHZ">
      <acc value="0.0155771910" flag="0"/>
      <vel value="0.0098435191" flag="0"/>
      <psa03 value="0.0229613982" flag="0"/>
      <psa10 value="0.0119370022" flag="0"/>
      <psa30 value="0.0005531849" flag="0"/>
    </comp>
  </station>
  <station code="GOMA" name="GOMA" netid="KO" insttype="CMG-5T" lat="38.7077" lon="27.9175">
    <comp name="--.HNN">
      <acc value="0.1476291772" flag="0"/>
      <vel value="0.1003753734" flag="0"/>
      <psa03 value="0.4246751251" flag="0"/>
      <psa10 value="0.0385038771" flag="0"/>
      <psa30 value="0.0030310663" flag="0"/>
    </comp>
    <comp name="--.HNZ">
      <acc value="0.1179306306" flag="0"/>
      <vel value="0.0383777699" flag="0"/>
      <psa03 value="0.1692476380" flag="0"/>
      <psa10 value="0.0106429098" flag="0"/>
      <psa30 value="0.0007812568" flag="0"/>
    </comp>
    <comp name="--.HNE">
      <acc value="0.1108777867" flag="0"/>
      <vel value="0.0610291677" flag="0"/>
      <psa03 value="0.4155401568" flag="0"/>
      <psa10 value="0.0324315388" flag="0"/>
      <psa30 value="0.0020046556" flag="0"/>
    </comp>
  </station>
  <station code="GONE" name="GONE" netid="KO" insttype="CMG-5T" lat="40.0466" lon="27.686">
    <comp name="--.HNN">
      <acc value="0.0398595775" flag="0"/>
      <vel value="0.0196626416" flag="0"/>
      <psa03 value="0.1384007548" flag="0"/>
      <psa10 value="0.0158038798" flag="0"/>
      <psa30 value="0.0008022728" flag="0"/>
    </comp>
    <comp name="--.HNZ">
      <acc value="0.0195277126" flag="0"/>
      <vel value="0.0066333552" flag="0"/>
      <psa03 value="0.0457938326" flag="0"/>
      <psa10 value="0.0055512511" flag="0"/>
      <psa30 value="0.0003138445" flag="0"/>
    </comp>
    <comp name="--.HNE">
      <acc value="0.0350191695" flag="0"/>
      <vel value="0.0168402604" flag="0"/>
      <psa03 value="0.1005264304" flag="0"/>
      <psa10 value="0.0163972539" flag="0"/>
      <psa30 value="0.0010914083" flag="0"/>
    </comp>
  </station>
  <station code="ORLT" name="ORLT" netid="KO" insttype="CMG-5T" lat="40.0452" lon="28.8914">
    <comp name="--.HNZ">
      <acc value="0.0223653181" flag="0"/>
      <vel value="0.0124509342" flag="0"/>
      <psa03 value="0.0599269699" flag="0"/>
      <psa10 value="0.0092605621" flag="0"/>
      <psa30 value="0.0005432087" flag="0"/>
    </comp>
    <comp name="--.HNE">
      <acc value="0.0682750478" flag="0"/>
      <vel value="0.0240923629" flag="0"/>
      <psa03 value="0.1687314952" flag="0"/>
      <psa10 value="0.0122400051" flag="0"/>
      <psa30 value="0.0006499008" flag="0"/>
    </comp>
    <comp name="--.HNN">
      <acc value="0.0744278740" flag="0"/>
      <vel value="0.0292137512" flag="0"/>
      <psa03 value="0.1867667638" flag="0"/>
      <psa10 value="0.0201455447" flag="0"/>
      <psa30 value="0.0010325916" flag="0"/>
    </comp>
  </station>
  <station code="SHAP" name="SHAP" netid="KO" insttype="CMG-5T" lat="39.0231" lon="29.222">
    <comp name="--.HNN">
      <acc value="0.0517573863" flag="0"/>
      <vel value="0.0194767332" flag="0"/>
      <psa03 value="0.0559604805" flag="0"/>
      <psa10 value="0.0204237010" flag="0"/>
      <psa30 value="0.0008825418" flag="0"/>
    </comp>
    <comp name="--.HNE">
      <acc value="0.0492182180" flag="0"/>
      <vel value="0.0111445489" flag="0"/>
      <psa03 value="0.0595200675" flag="0"/>
      <psa10 value="0.0107927411" flag="0"/>
      <psa30 value="0.0005358180" flag="0"/>
    </comp>
    <comp name="--.HNZ">
      <acc value="0.0255240576" flag="0"/>
      <vel value="0.0069770578" flag="0"/>
      <psa03 value="0.0199619017" flag="0"/>
      <psa10 value="0.0108943355" flag="0"/>
      <psa30 value="0.0006751107" flag="0"/>
    </comp>
  </station>
  <station code="SMAA" name="SMAA" netid="KO" insttype="CMG-5T" lat="39.1005" lon="28.9805">
    <comp name="--.HNN">
      <acc value="0.0801671500" flag="0"/>
      <vel value="0.0344204528" flag="0"/>
      <psa03 value="0.1051215150" flag="0"/>
      <psa10 value="0.0439735328" flag="0"/>
      <psa30 value="0.0034880925" flag="0"/>
    </comp>
    <comp name="--.HNZ">
      <acc value="0.0318190243" flag="0"/>
      <vel value="0.0132333309" flag="0"/>
      <psa03 value="0.0325426319" flag="0"/>
      <psa10 value="0.0379776555" flag="0"/>
      <psa30 value="0.0013867143" flag="0"/>
    </comp>
    <comp name="--.HNE">
      <acc value="0.0659928469" flag="0"/>
      <vel value="0.0295921419" flag="0"/>
      <psa03 value="0.1130894732" flag="0"/>
      <psa10 value="0.0565527264" flag="0"/>
      <psa30 value="0.0023803045" flag="0"/>
    </comp>
  </station>
  <station code="TVSB" name="TVSB" netid="KO" insttype="120" lat="39.4497" lon="29.4615">
    <comp name="--.HHE">
      <acc value="0.0082750236" flag="0"/>
      <vel value="0.0058292390" flag="0"/>
      <psa03 value="0.0184408294" flag="0"/>
      <psa10 value="0.0058261692" flag="0"/>
      <psa30 value="0.0003253881" flag="0"/>
    </comp>
    <comp name="--.HHZ">
      <acc value="0.0038342046" flag="0"/>
      <vel value="0.0019163734" flag="0"/>
      <psa03 value="0.0074716179" flag="0"/>
      <psa10 value="0.0027516538" flag="0"/>
      <psa30 value="0.0001224634" flag="0"/>
    </comp>
    <comp name="--.HHN">
      <acc value="0.0083527078" flag="0"/>
      <vel value="0.0048152339" flag="0"/>
      <psa03 value="0.0191611488" flag="0"/>
      <psa10 value="0.0047036000" flag="0"/>
      <psa30 value="0.0002901963" flag="0"/>
    </comp>
  </station>
  <station code="YAYO" name="YAYO" netid="KO" insttype="30s," lat="39.6113" lon="27.0726">
    <comp name="--.HHN">
      <acc value="0.0212935405" flag="0"/>
      <vel value="0.0107071764" flag="0"/>
      <psa03 value="0.0550602490" flag="0"/>
      <psa10 value="0.0085223208" flag="0"/>
      <psa30 value="0.0004659775" flag="0"/>
    </comp>
    <comp name="--.HHE">
      <acc value="0.0268449899" flag="0"/>
      <vel value="0.0113036329" flag="0"/>
      <psa03 value="0.0644383571" flag="0"/>
      <psa10 value="0.0069671092" flag="0"/>
      <psa30 value="0.0005134840" flag="0"/>
    </comp>
    <comp name="--.HHZ">
      <acc value="0.0205967278" flag="0"/>
      <vel value="0.0083489833" flag="0"/>
      <psa03 value="0.0432409386" flag="0"/>
      <psa10 value="0.0034650188" flag="0"/>
      <psa30 value="0.0003630672" flag="0"/>
    </comp>
  </station>
  <station code="YENI" name="YENI" netid="KO" insttype="CMG-5T" lat="39.9364" lon="27.2422">
    <comp name="--.HNE">
      <acc value="0.0693282109" flag="0"/>
      <vel value="0.0206971847" flag="0"/>
      <psa03 value="0.0902145555" flag="0"/>
      <psa10 value="0.0149037148" flag="0"/>
      <psa30 value="0.0010583274" flag="0"/>
    </comp>
    <comp name="--.HNZ">
      <acc value="0.0410055101" flag="0"/>
      <vel value="0.0094199369" flag="0"/>
      <psa03 value="0.0301497253" flag="0"/>
      <psa10 value="0.0059676441" flag="0"/>
      <psa30 value="0.0004353786" flag="0"/>
    </comp>
    <comp name="--.HNN">
      <acc value="0.0582301010" flag="0"/>
      <vel value="0.0167170758" flag="0"/>
      <psa03 value="0.0686624481" flag="0"/>
      <psa10 value="0.0076961547" flag="0"/>
      <psa30 value="0.0004560289" flag="0"/>
    </comp>
  </station>
</stationlist>
