<stationlist created="1778136582">
	<station code="KRL1" name="KRL1" netid="HI" source="ITSAK Strong Motion Network" insttype="" lat="37.7951" lon="26.7065">
		<comp name="--.HNE" depth="0.0">
			<acc value="0.0122044029692782" flag="0"/>
			<vel value="0.00498945233407851" flag="0"/>
			<psa03 value="0.0470262975529204" flag="0"/>
			<psa10 value="0.00409710235043462" flag="0"/>
			<psa30 value="0.000317986898404568" flag="0"/>
		</comp>
		<comp name="--.HNN" depth="0.0">
			<acc value="0.0100566004824878" flag="0"/>
			<vel value="0.00387038176933065" flag="0"/>
			<psa03 value="0.0212548845942813" flag="0"/>
			<psa10 value="0.00659270001528485" flag="0"/>
			<psa30 value="0.000492774623066717" flag="0"/>
		</comp>
		<comp name="--.HNZ" depth="0.0">
			<acc value="0.00389179050304693" flag="0"/>
			<vel value="0.00227191790913941" flag="0"/>
			<psa03 value="0.0108195741655673" flag="0"/>
			<psa10 value="0.00349253230062628" flag="0"/>
			<psa30 value="0.000140058015135211" flag="0"/>
		</comp>
	</station>
	<station code="MYT1" name="MYT1" netid="HI" source="ITSAK Strong Motion Network" insttype="" lat="39.085" lon="26.5694">
		<comp name="--.HNE" depth="0.0">
			<acc value="0.0179039640549194" flag="0"/>
			<vel value="0.0131051362482109" flag="0"/>
			<psa03 value="0.0441817809928029" flag="0"/>
			<psa10 value="0.0137148235397422" flag="0"/>
			<psa30 value="0.00118784608480843" flag="0"/>
		</comp>
		<comp name="--.HNN" depth="0.0">
			<acc value="0.0134355651014336" flag="0"/>
			<vel value="0.0126413457121301" flag="0"/>
			<psa03 value="0.0425152174661673" flag="0"/>
			<psa10 value="0.016001186875088" flag="0"/>
			<psa30 value="0.00163145276323672" flag="0"/>
		</comp>
		<comp name="--.HNZ" depth="0.0">
			<acc value="0.0116115164448552" flag="0"/>
			<vel value="0.00673919942711754" flag="0"/>
			<psa03 value="0.0283905239620606" flag="0"/>
			<psa10 value="0.00802799181507422" flag="0"/>
			<psa30 value="0.000478547222236286" flag="0"/>
		</comp>
	</station>
	<station code="PRK" name="PRK" netid="HL" source="National Observatory of Athens Seismic Network" insttype="" lat="39.24565" lon="26.26499">
		<comp name="--.HNE" depth="0.0">
			<acc value="0.0132717655379567" flag="0"/>
			<vel value="0.0082853114566592" flag="0"/>
			<psa03 value="0.050164614825984" flag="0"/>
			<psa10 value="0.0131627400919458" flag="0"/>
			<psa30 value="0.000586709491623033" flag="0"/>
		</comp>
		<comp name="--.HNN" depth="0.0">
			<acc value="0.0146397557413614" flag="0"/>
			<vel value="0.00753917297495548" flag="0"/>
			<psa03 value="0.0501573747633604" flag="0"/>
			<psa10 value="0.0145857784237419" flag="0"/>
			<psa30 value="0.000893385432399575" flag="0"/>
		</comp>
		<comp name="--.HNZ" depth="0.0">
			<acc value="0.0134006894600425" flag="0"/>
			<vel value="0.0103235650283063" flag="0"/>
			<psa03 value="0.0466379749538192" flag="0"/>
			<psa10 value="0.00914538021153954" flag="0"/>
			<psa30 value="0.000617071138349999" flag="0"/>
		</comp>
	</station>
	<station code="SMG" name="SMG" netid="HL" source="National Observatory of Athens Seismic Network" insttype="" lat="37.70425" lon="26.83772">
		<comp name="00.HNE" depth="0.0">
			<acc value="0.0075320018280968" flag="0"/>
			<vel value="0.00391686224242087" flag="0"/>
			<psa03 value="0.0240745948237443" flag="0"/>
			<psa10 value="0.00270418179502158" flag="0"/>
			<psa30 value="0.000156970255279959" flag="0"/>
		</comp>
		<comp name="00.HNN" depth="0.0">
			<acc value="0.00639366571578384" flag="0"/>
			<vel value="0.00385784334406013" flag="0"/>
			<psa03 value="0.0222425515848649" flag="0"/>
			<psa10 value="0.00310525492664745" flag="0"/>
			<psa30 value="0.000244173987828368" flag="0"/>
		</comp>
		<comp name="00.HNZ" depth="0.0">
			<acc value="0.00641535856949035" flag="0"/>
			<vel value="0.00298221223702367" flag="0"/>
			<psa03 value="0.0231073640827868" flag="0"/>
			<psa10 value="0.00149812029780375" flag="0"/>
			<psa30 value="0.000106364689367677" flag="0"/>
		</comp>
	</station>
	<station code="AKS" name="AKS" netid="KO" source="Bogazici University Kandilli Observatory And Earthquake Research Institute (KOERI)" insttype="" lat="38.8785" lon="27.8129">
		<comp name="--.HNE" depth="0.0">
			<acc value="0.245398808591462" flag="0"/>
			<vel value="0.0602603890690918" flag="0"/>
			<psa03 value="0.19718852110494" flag="0"/>
			<psa10 value="0.0263494161445215" flag="0"/>
			<psa30 value="0.00186371950393548" flag="0"/>
		</comp>
		<comp name="--.HNN" depth="0.0">
			<acc value="0.519696377521089" flag="0"/>
			<vel value="0.10120619207175" flag="0"/>
			<psa03 value="0.185583523164306" flag="0"/>
			<psa10 value="0.0163460147182373" flag="0"/>
			<psa30 value="0.00127863501579412" flag="0"/>
		</comp>
		<comp name="--.HNZ" depth="0.0">
			<acc value="0.148512629025087" flag="0"/>
			<vel value="0.0275408038994259" flag="0"/>
			<psa03 value="0.116206604367224" flag="0"/>
			<psa10 value="0.0100373543004581" flag="0"/>
			<psa30 value="0.00113510488262946" flag="0"/>
		</comp>
	</station>
	<station code="ALT" name="ALT" netid="KO" source="Bogazici University Kandilli Observatory And Earthquake Research Institute (KOERI)" insttype="" lat="39.0541" lon="30.1104">
		<comp name="--.HNE" depth="0.0">
			<acc value="0.00232367365363623" flag="0"/>
			<vel value="0.00129419088272488" flag="0"/>
			<psa03 value="0.00375009510508563" flag="0"/>
			<psa10 value="0.000998374262396941" flag="0"/>
			<psa30 value="0.000323636439325757" flag="0"/>
		</comp>
		<comp name="--.HNN" depth="0.0">
			<acc value="0.00282180156140332" flag="0"/>
			<vel value="0.00140204602078155" flag="0"/>
			<psa03 value="0.00682955333584738" flag="0"/>
			<psa10 value="0.00116763445942616" flag="0"/>
			<psa30 value="0.000375706893946365" flag="0"/>
		</comp>
		<comp name="--.HNZ" depth="0.0">
			<acc value="0.0016845526437513" flag="0"/>
			<vel value="0.00109887308158034" flag="0"/>
			<psa03 value="0.00230338826525328" flag="0"/>
			<psa10 value="0.00132748305642657" flag="0"/>
			<psa30 value="0.00075746663677845" flag="0"/>
		</comp>
	</station>
	<station code="AVCI" name="AVCI" netid="KO" source="Bogazici University Kandilli Observatory And Earthquake Research Institute (KOERI)" insttype="" lat="40.9958" lon="28.7225">
		<comp name="--.HNE" depth="0.0">
			<acc value="0.00813153618925823" flag="0"/>
			<vel value="0.00793265887528835" flag="0"/>
			<psa03 value="0.0199628341585423" flag="0"/>
			<psa10 value="0.0118688846928588" flag="0"/>
			<psa30 value="0.0022443507605575" flag="0"/>
		</comp>
		<comp name="--.HNN" depth="0.0">
			<acc value="0.00794704816090407" flag="0"/>
			<vel value="0.00859902736635744" flag="0"/>
			<psa03 value="0.0197945456664939" flag="0"/>
			<psa10 value="0.0148679921189942" flag="0"/>
			<psa30 value="0.00152039946900163" flag="0"/>
		</comp>
		<comp name="--.HNZ" depth="0.0">
			<acc value="0.00410724444588036" flag="0"/>
			<vel value="0.0026589223174579" flag="0"/>
			<psa03 value="0.0107416920531212" flag="0"/>
			<psa10 value="0.00446064627716672" flag="0"/>
			<psa30 value="0.000492545389131703" flag="0"/>
		</comp>
	</station>
	<station code="BASM" name="BASM" netid="KO" source="Bogazici University Kandilli Observatory And Earthquake Research Institute (KOERI)" insttype="" lat="37.9194" lon="30.035">
		<comp name="--.HNE" depth="0.0">
			<acc value="0.00185424852305496" flag="0"/>
			<vel value="0.00165474677422032" flag="0"/>
			<psa03 value="0.00482984957624118" flag="0"/>
			<psa10 value="0.00348661628371701" flag="0"/>
			<psa30 value="0.000199391216501879" flag="0"/>
		</comp>
		<comp name="--.HNN" depth="0.0">
			<acc value="0.0017424833843547" flag="0"/>
			<vel value="0.00164361261145553" flag="0"/>
			<psa03 value="0.00386324257450712" flag="0"/>
			<psa10 value="0.00243862365622363" flag="0"/>
			<psa30 value="0.000216538302933079" flag="0"/>
		</comp>
		<comp name="--.HNZ" depth="0.0">
			<acc value="0.00203767110435877" flag="0"/>
			<vel value="0.000900289037536928" flag="0"/>
			<psa03 value="0.00322266563422011" flag="0"/>
			<psa10 value="0.00104627302139158" flag="0"/>
			<psa30 value="7.40238034534435e-05" flag="0"/>
		</comp>
	</station>
	<station code="BIGA" name="BIGA" netid="KO" source="Bogazici University Kandilli Observatory And Earthquake Research Institute (KOERI)" insttype="" lat="40.28134" lon="27.15048">
		<comp name="--.HNE" depth="0.0">
			<acc value="0.0190391187443009" flag="0"/>
			<vel value="0.00625085326413576" flag="0"/>
			<psa03 value="0.0299584064723818" flag="0"/>
			<psa10 value="0.00446310878406361" flag="0"/>
			<psa30 value="0.000459670867604089" flag="0"/>
		</comp>
		<comp name="--.HNN" depth="0.0">
			<acc value="0.0265705393123895" flag="0"/>
			<vel value="0.0105891963542717" flag="0"/>
			<psa03 value="0.0762525253141204" flag="0"/>
			<psa10 value="0.00550503936933213" flag="0"/>
			<psa30 value="0.000599097135162913" flag="0"/>
		</comp>
		<comp name="--.HNZ" depth="0.0">
			<acc value="0.00981284451114542" flag="0"/>
			<vel value="0.00326314791061196" flag="0"/>
			<psa03 value="0.01207337011402" flag="0"/>
			<psa10 value="0.00204528236491702" flag="0"/>
			<psa30 value="0.000725188352670248" flag="0"/>
		</comp>
	</station>
	<station code="BOTS" name="BOTS" netid="KO" source="Bogazici University Kandilli Observatory And Earthquake Research Institute (KOERI)" insttype="" lat="40.9902" lon="27.981">
		<comp name="--.HNE" depth="0.0">
			<acc value="0.0119807039836673" flag="0"/>
			<vel value="0.00709826344193477" flag="0"/>
			<psa03 value="0.027641755609828" flag="0"/>
			<psa10 value="0.00848453768396823" flag="0"/>
			<psa30 value="0.00078853280934658" flag="0"/>
		</comp>
		<comp name="--.HNN" depth="0.0">
			<acc value="0.0156976516590954" flag="0"/>
			<vel value="0.0157366847178061" flag="0"/>
			<psa03 value="0.034745718400009" flag="0"/>
			<psa10 value="0.0283050113180939" flag="0"/>
			<psa30 value="0.00113573732035527" flag="0"/>
		</comp>
		<comp name="--.HNZ" depth="0.0">
			<acc value="0.00316401488377585" flag="0"/>
			<vel value="0.0024863766556158" flag="0"/>
			<psa03 value="0.00946566872075418" flag="0"/>
			<psa10 value="0.00434789271405629" flag="0"/>
			<psa30 value="0.000432578395778974" flag="0"/>
		</comp>
	</station>
	<station code="CANM" name="CANM" netid="KO" source="Bogazici University Kandilli Observatory And Earthquake Research Institute (KOERI)" insttype="" lat="40.0113" lon="27.0529">
		<comp name="--.HNE" depth="0.0">
			<acc value="0.0143795026609754" flag="0"/>
			<vel value="0.00925154728825776" flag="0"/>
			<psa03 value="0.0222406217695571" flag="0"/>
			<psa10 value="0.00971657305028385" flag="0"/>
			<psa30 value="0.000657773782620169" flag="0"/>
		</comp>
		<comp name="--.HNN" depth="0.0">
			<acc value="0.0201115075105322" flag="0"/>
			<vel value="0.0107305236183253" flag="0"/>
			<psa03 value="0.0356392437374901" flag="0"/>
			<psa10 value="0.0101503042828309" flag="0"/>
			<psa30 value="0.000473639449207544" flag="0"/>
		</comp>
		<comp name="--.HNZ" depth="0.0">
			<acc value="0.0115667547216041" flag="0"/>
			<vel value="0.00663449959451945" flag="0"/>
			<psa03 value="0.025356354213173" flag="0"/>
			<psa10 value="0.00501623855118036" flag="0"/>
			<psa30 value="0.000519080532372797" flag="0"/>
		</comp>
	</station>
	<station code="CESE" name="CESE" netid="KO" source="Bogazici University Kandilli Observatory And Earthquake Research Institute (KOERI)" insttype="" lat="38.3306" lon="26.2997">
		<comp name="--.HNE" depth="0.0">
			<acc value="0.00246731587224836" flag="0"/>
			<vel value="0.00165343527443352" flag="0"/>
			<psa03 value="0.00619771851112883" flag="0"/>
			<psa10 value="0.00234600306744024" flag="0"/>
			<psa30 value="0.000332013035900744" flag="0"/>
		</comp>
		<comp name="--.HNN" depth="0.0">
			<acc value="0.00387023235056926" flag="0"/>
			<vel value="0.00283241104068404" flag="0"/>
			<psa03 value="0.0088297685225886" flag="0"/>
			<psa10 value="0.00336484032603232" flag="0"/>
			<psa30 value="0.000367386629227839" flag="0"/>
		</comp>
		<comp name="--.HNZ" depth="0.0">
			<acc value="0.001740002591491" flag="0"/>
			<vel value="0.00119180747764288" flag="0"/>
			<psa03 value="0.00644563402288995" flag="0"/>
			<psa10 value="0.00168868436705045" flag="0"/>
			<psa30 value="0.000346645932341738" flag="0"/>
		</comp>
	</station>
	<station code="DST" name="DST" netid="KO" source="Bogazici University Kandilli Observatory And Earthquake Research Institute (KOERI)" insttype="" lat="39.6041" lon="28.6267">
		<comp name="--.HNE" depth="0.0">
			<acc value="0.0593675612825965" flag="0"/>
			<vel value="0.0153348614487465" flag="0"/>
			<psa03 value="0.0991329837404202" flag="0"/>
			<psa10 value="0.00752603325025828" flag="0"/>
			<psa30 value="0.000589902255214853" flag="0"/>
		</comp>
		<comp name="--.HNN" depth="0.0">
			<acc value="0.0515878818067057" flag="0"/>
			<vel value="0.0160241250255715" flag="0"/>
			<psa03 value="0.0500647019573938" flag="0"/>
			<psa10 value="0.00626205701804927" flag="0"/>
			<psa30 value="0.000822803308762943" flag="0"/>
		</comp>
		<comp name="--.HNZ" depth="0.0">
			<acc value="0.035261284890689" flag="0"/>
			<vel value="0.0107660034043167" flag="0"/>
			<psa03 value="0.0605486725108934" flag="0"/>
			<psa10 value="0.00379043445705355" flag="0"/>
			<psa30 value="0.000558850458599586" flag="0"/>
		</comp>
	</station>
	<station code="EDC" name="EDC" netid="KO" source="Bogazici University Kandilli Observatory And Earthquake Research Institute (KOERI)" insttype="" lat="40.3465" lon="27.8618">
		<comp name="--.HNE" depth="0.0">
			<acc value="0.0314841640371112" flag="0"/>
			<vel value="0.0121441280724462" flag="0"/>
			<psa03 value="0.0534019386578677" flag="0"/>
			<psa10 value="0.011659248617994" flag="0"/>
			<psa30 value="0.000813547435191853" flag="0"/>
		</comp>
		<comp name="--.HNN" depth="0.0">
			<acc value="0.043364060153533" flag="0"/>
			<vel value="0.016826480841262" flag="0"/>
			<psa03 value="0.105738473404969" flag="0"/>
			<psa10 value="0.0150501369977152" flag="0"/>
			<psa30 value="0.000836313370407492" flag="0"/>
		</comp>
		<comp name="--.HNZ" depth="0.0">
			<acc value="0.0100056497009662" flag="0"/>
			<vel value="0.00531389018339642" flag="0"/>
			<psa03 value="0.0172241175757798" flag="0"/>
			<psa10 value="0.00561965961863553" flag="0"/>
			<psa30 value="0.000249080302430746" flag="0"/>
		</comp>
	</station>
	<station code="EZNE" name="EZNE" netid="KO" source="Bogazici University Kandilli Observatory And Earthquake Research Institute (KOERI)" insttype="" lat="39.756" lon="26.3655">
		<comp name="--.HNE" depth="0.0">
			<acc value="0.0117791240709134" flag="0"/>
			<vel value="0.00628830446567942" flag="0"/>
			<psa03 value="0.0414569364227496" flag="0"/>
			<psa10 value="0.00316859310686869" flag="0"/>
			<psa30 value="0.000486393731614157" flag="0"/>
		</comp>
		<comp name="--.HNN" depth="0.0">
			<acc value="0.0128781956976779" flag="0"/>
			<vel value="0.00551213480852195" flag="0"/>
			<psa03 value="0.0377529644902703" flag="0"/>
			<psa10 value="0.00341464292208524" flag="0"/>
			<psa30 value="0.000584125830884221" flag="0"/>
		</comp>
		<comp name="--.HNZ" depth="0.0">
			<acc value="0.00595761950831505" flag="0"/>
			<vel value="0.00253726636025503" flag="0"/>
			<psa03 value="0.0219436333455283" flag="0"/>
			<psa10 value="0.00273340771547183" flag="0"/>
			<psa30 value="0.000416887929279321" flag="0"/>
		</comp>
	</station>
	<station code="FOCM" name="FOCM" netid="KO" source="Bogazici University Kandilli Observatory And Earthquake Research Institute (KOERI)" insttype="" lat="38.7131" lon="26.7309">
		<comp name="--.HNE" depth="0.0">
			<acc value="0.0269707293986654" flag="0"/>
			<vel value="0.0148045704191869" flag="0"/>
			<psa03 value="0.131720798773106" flag="0"/>
			<psa10 value="0.00661817592166976" flag="0"/>
			<psa30 value="0.000596010732784935" flag="0"/>
		</comp>
		<comp name="--.HNN" depth="0.0">
			<acc value="0.0182146814211502" flag="0"/>
			<vel value="0.00750404088807852" flag="0"/>
			<psa03 value="0.0508592545924825" flag="0"/>
			<psa10 value="0.00518733847946778" flag="0"/>
			<psa30 value="0.00063599812133929" flag="0"/>
		</comp>
		<comp name="--.HNZ" depth="0.0">
			<acc value="0.017144700349695" flag="0"/>
			<vel value="0.00642155047809292" flag="0"/>
			<psa03 value="0.0428712931377783" flag="0"/>
			<psa10 value="0.00402958522149317" flag="0"/>
			<psa30 value="0.000413574741046901" flag="0"/>
		</comp>
	</station>
	<station code="GOKC" name="GOKC" netid="KO" source="Bogazici University Kandilli Observatory And Earthquake Research Institute (KOERI)" insttype="" lat="40.1998" lon="25.9183">
		<comp name="--.HNE" depth="0.0">
			<acc value="0.0156282303395261" flag="0"/>
			<vel value="0.0077068409017542" flag="0"/>
			<psa03 value="0.0209133189984848" flag="0"/>
			<psa10 value="0.00758598050271993" flag="0"/>
			<psa30 value="0.0019374220947065" flag="0"/>
		</comp>
		<comp name="--.HNN" depth="0.0">
			<acc value="0.0135628755726316" flag="0"/>
			<vel value="0.00661027177621979" flag="0"/>
			<psa03 value="0.0243157045461083" flag="0"/>
			<psa10 value="0.00742271812489939" flag="0"/>
			<psa30 value="0.00147129111164919" flag="0"/>
		</comp>
		<comp name="--.HNZ" depth="0.0">
			<acc value="0.01209701973921" flag="0"/>
			<vel value="0.00615621803380581" flag="0"/>
			<psa03 value="0.0183737471184874" flag="0"/>
			<psa10 value="0.00952565915315881" flag="0"/>
			<psa30 value="0.00229835558811322" flag="0"/>
		</comp>
	</station>
	<station code="GOMA" name="GOMA" netid="KO" source="Bogazici University Kandilli Observatory And Earthquake Research Institute (KOERI)" insttype="" lat="38.7077" lon="27.9175">
		<comp name="--.HNE" depth="0.0">
			<acc value="0.110819894115358" flag="0"/>
			<vel value="0.0616451024827914" flag="0"/>
			<psa03 value="0.420909716536194" flag="0"/>
			<psa10 value="0.0324664894955901" flag="0"/>
			<psa30 value="0.00201918959473353" flag="0"/>
		</comp>
		<comp name="--.HNN" depth="0.0">
			<acc value="0.147165266223917" flag="0"/>
			<vel value="0.100658037005641" flag="0"/>
			<psa03 value="0.424302191271007" flag="0"/>
			<psa10 value="0.0385853873425527" flag="0"/>
			<psa30 value="0.00303206273427626" flag="0"/>
		</comp>
		<comp name="--.HNZ" depth="0.0">
			<acc value="0.116640121311969" flag="0"/>
			<vel value="0.0387544659280955" flag="0"/>
			<psa03 value="0.1721548523309" flag="0"/>
			<psa10 value="0.0106551346003803" flag="0"/>
			<psa30 value="0.000770270193285048" flag="0"/>
		</comp>
	</station>
	<station code="GONE" name="GONE" netid="KO" source="Bogazici University Kandilli Observatory And Earthquake Research Institute (KOERI)" insttype="" lat="40.0466" lon="27.686">
		<comp name="--.HNE" depth="0.0">
			<acc value="0.0350376730884601" flag="0"/>
			<vel value="0.0169438349685588" flag="0"/>
			<psa03 value="0.100310259645839" flag="0"/>
			<psa10 value="0.0164102977267054" flag="0"/>
			<psa30 value="0.00108818687870896" flag="0"/>
		</comp>
		<comp name="--.HNN" depth="0.0">
			<acc value="0.0398455222346802" flag="0"/>
			<vel value="0.0197030887596338" flag="0"/>
			<psa03 value="0.136196428594758" flag="0"/>
			<psa10 value="0.0158292661112086" flag="0"/>
			<psa30 value="0.000799449417932708" flag="0"/>
		</comp>
		<comp name="--.HNZ" depth="0.0">
			<acc value="0.0196159260374483" flag="0"/>
			<vel value="0.00672203287534487" flag="0"/>
			<psa03 value="0.0458133682443253" flag="0"/>
			<psa10 value="0.00556425344823806" flag="0"/>
			<psa30 value="0.000324088135915158" flag="0"/>
		</comp>
	</station>
	<station code="GORD" name="GORD" netid="KO" source="Bogazici University Kandilli Observatory And Earthquake Research Institute (KOERI)" insttype="" lat="38.9088" lon="28.1769">
		<comp name="--.HNE" depth="0.0">
			<acc value="0.13829025662761" flag="0"/>
			<vel value="0.0567885117489017" flag="0"/>
			<psa03 value="0.215540591006464" flag="0"/>
