<?xml version="1.0" encoding="UTF-8" standalone="yes"?>
<!DOCTYPE earthquake SYSTEM "stationlist.dtd">
<stationlist created="" xmlns="ch.ethz.sed.shakemap.usgs.xml">
  <station code="ADVT" name="ADVT" netid="KO" insttype="CMG-3ESP" commtype="DIG" lat="40.4332" lon="29.7383">
    <comp name="--.HHE">
      <acc value="0.0149523281" flag="0"/>
      <vel value="0.0049912497" flag="0"/>
      <psa03 value="0.0212595944" flag="0"/>
      <psa10 value="0.0060593695" flag="0"/>
      <psa30 value="0.0002905683" flag="0"/>
    </comp>
  </station>
  <station code="ARMT" name="ARMT" netid="KO" insttype="CMG-5T" commtype="DIG" lat="40.5683" lon="28.866">
    <comp name="--.HNN">
      <acc value="0.0948206011" flag="0"/>
      <vel value="0.0165758078" flag="0"/>
      <psa03 value="0.0599150949" flag="0"/>
      <psa10 value="0.0154598283" flag="0"/>
      <psa30 value="0.0008104918" flag="0"/>
    </comp>
    <comp name="--.HNE">
      <acc value="0.0603145750" flag="0"/>
      <vel value="0.0194767102" flag="0"/>
      <psa03 value="0.0628856359" flag="0"/>
      <psa10 value="0.0089206757" flag="0"/>
      <psa30 value="0.0007297912" flag="0"/>
    </comp>
    <comp name="--.HNZ">
      <acc value="0.0435899180" flag="0"/>
      <vel value="0.0074597247" flag="0"/>
      <psa03 value="0.0303526818" flag="0"/>
      <psa10 value="0.0033866449" flag="0"/>
      <psa30 value="0.0002197543" flag="0"/>
    </comp>
  </station>
  <station code="ARMU" name="ARMU" netid="KO" insttype="SA10" commtype="DIG" lat="40.5088" lon="28.838">
    <comp name="--.HNE">
      <acc value="0.1138587486" flag="0"/>
      <vel value="0.0366158319" flag="0"/>
      <psa03 value="0.3075491598" flag="0"/>
      <psa10 value="0.0078867463" flag="0"/>
      <psa30 value="0.0007951893" flag="0"/>
    </comp>
    <comp name="--.HNN">
      <acc value="0.1058359146" flag="0"/>
      <vel value="0.0319114031" flag="0"/>
      <psa03 value="0.1811194346" flag="0"/>
      <psa10 value="0.0150670535" flag="0"/>
      <psa30 value="0.0014486794" flag="0"/>
    </comp>
    <comp name="--.HNZ">
      <acc value="0.0717848476" flag="0"/>
      <vel value="0.0086128126" flag="0"/>
      <psa03 value="0.0375470910" flag="0"/>
      <psa10 value="0.0038540215" flag="0"/>
      <psa30 value="0.0002034894" flag="0"/>
    </comp>
  </station>
  <station code="ATAM" name="ATAM" netid="KO" insttype="SA10" commtype="DIG" lat="40.9688" lon="28.875">
    <comp name="--.HNN">
      <acc value="0.1035039616" flag="0"/>
      <vel value="0.0574056653" flag="0"/>
      <psa03 value="0.1918512936" flag="0"/>
      <psa10 value="0.0155933398" flag="0"/>
      <psa30 value="0.0019579099" flag="0"/>
    </comp>
    <comp name="--.HNZ">
      <acc value="0.3113954660" flag="0"/>
      <vel value="0.0812970088" flag="0"/>
      <psa03 value="0.2086328036" flag="0"/>
      <psa10 value="0.0124083826" flag="0"/>
      <psa30 value="0.0015558527" flag="0"/>
    </comp>
    <comp name="--.HNE">
      <acc value="0.1186526416" flag="0"/>
      <vel value="0.0390993222" flag="0"/>
      <psa03 value="0.3050953620" flag="0"/>
      <psa10 value="0.0193820701" flag="0"/>
      <psa30 value="0.0015736514" flag="0"/>
    </comp>
  </station>
  <station code="BGKT" name="BGKT" netid="KO" insttype="CMG-3ESP" commtype="DIG" lat="41.181" lon="28.773">
    <comp name="--.HHE">
      <acc value="0.3302269543" flag="0"/>
      <vel value="0.0274331437" flag="0"/>
      <psa03 value="0.1149315831" flag="0"/>
      <psa10 value="0.0122022151" flag="0"/>
      <psa30 value="0.0009146063" flag="0"/>
    </comp>
    <comp name="--.HHN">
      <acc value="0.1415351276" flag="0"/>
      <vel value="0.0175721253" flag="0"/>
      <psa03 value="0.1006708100" flag="0"/>
      <psa10 value="0.0053628265" flag="0"/>
      <psa30 value="0.0005127774" flag="0"/>
    </comp>
    <comp name="--.HHZ">
      <acc value="0.0661464544" flag="0"/>
      <vel value="0.0133859490" flag="0"/>
      <psa03 value="0.0905994401" flag="0"/>
      <psa10 value="0.0066482649" flag="0"/>
      <psa30 value="0.0004745814" flag="0"/>
    </comp>
  </station>
  <station code="BIGA" name="BIGA" netid="KO" insttype="CMG-5T" commtype="DIG" lat="40.2813" lon="27.1505">
    <comp name="--.HNE">
      <acc value="0.0471181868" flag="0"/>
      <vel value="0.0115974262" flag="0"/>
      <psa03 value="0.0454952067" flag="0"/>
      <psa10 value="0.0053112012" flag="0"/>
      <psa30 value="0.0003156765" flag="0"/>
    </comp>
    <comp name="--.HNZ">
      <acc value="0.0320579464" flag="0"/>
      <vel value="0.0071854755" flag="0"/>
      <psa03 value="0.0251973504" flag="0"/>
      <psa10 value="0.0030226794" flag="0"/>
      <psa30 value="0.0003161104" flag="0"/>
    </comp>
    <comp name="--.HNN">
      <acc value="0.0442129118" flag="0"/>
      <vel value="0.0120218706" flag="0"/>
      <psa03 value="0.0895567958" flag="0"/>
      <psa10 value="0.0050405127" flag="0"/>
      <psa30 value="0.0006252345" flag="0"/>
    </comp>
  </station>
  <station code="BOTS" name="BOTS" netid="KO" insttype="CMG-6T" commtype="DIG" lat="40.9902" lon="27.981">
    <comp name="--.HHE">
      <acc value="0.0611759857" flag="0"/>
      <vel value="0.0278681038" flag="0"/>
      <psa03 value="0.1153856843" flag="0"/>
      <psa10 value="0.0104805088" flag="0"/>
      <psa30 value="0.0010341148" flag="0"/>
    </comp>
    <comp name="--.HHN">
      <acc value="0.0774361879" flag="0"/>
      <vel value="0.0530741270" flag="0"/>
      <psa03 value="0.1376518098" flag="0"/>
      <psa10 value="0.0312142764" flag="0"/>
      <psa30 value="0.0026580690" flag="0"/>
    </comp>
    <comp name="--.HHZ">
      <acc value="0.0529146343" flag="0"/>
      <vel value="0.0092803993" flag="0"/>
      <psa03 value="0.0689990106" flag="0"/>
      <psa10 value="0.0049701072" flag="0"/>
      <psa30 value="0.0003397487" flag="0"/>
    </comp>
  </station>
  <station code="BRGA" name="BRGA" netid="KO" insttype="CMG-5T" commtype="DIG" lat="40.8846" lon="29.065">
    <comp name="--.HNE">
      <acc value="0.0925283050" flag="0"/>
      <vel value="0.0254094481" flag="0"/>
      <psa03 value="0.0757117249" flag="0"/>
      <psa10 value="0.0100779610" flag="0"/>
      <psa30 value="0.0005791585" flag="0"/>
    </comp>
    <comp name="--.HNN">
      <acc value="0.1121967857" flag="0"/>
      <vel value="0.0209703506" flag="0"/>
      <psa03 value="0.0810937284" flag="0"/>
      <psa10 value="0.0085422209" flag="0"/>
      <psa30 value="0.0007042529" flag="0"/>
    </comp>
    <comp name="--.HNZ">
      <acc value="0.0940924051" flag="0"/>
      <vel value="0.0261826990" flag="0"/>
      <psa03 value="0.1147844340" flag="0"/>
      <psa10 value="0.0073629489" flag="0"/>
      <psa30 value="0.0005644986" flag="0"/>
    </comp>
  </station>
  <station code="BUYA" name="BUYA" netid="KO" insttype="CMG-5T" commtype="DIG" lat="40.8694" lon="29.1278">
    <comp name="--.HNN">
      <acc value="0.0784348020" flag="0"/>
      <vel value="0.0181609170" flag="0"/>
      <psa03 value="0.0833809680" flag="0"/>
      <psa10 value="0.0055842496" flag="0"/>
      <psa30 value="0.0003743939" flag="0"/>
    </comp>
    <comp name="--.HNZ">
      <acc value="0.0668452576" flag="0"/>
      <vel value="0.0149626370" flag="0"/>
      <psa03 value="0.0611534839" flag="0"/>
      <psa10 value="0.0044792545" flag="0"/>
      <psa30 value="0.0003489984" flag="0"/>
    </comp>
  </station>
  <station code="BUYK" name="BUYK" netid="KO" insttype="SA10" commtype="DIG" lat="41.0168" lon="28.5828">
    <comp name="--.HNE">
      <acc value="0.2280517459" flag="0"/>
      <vel value="0.1089643654" flag="0"/>
      <psa03 value="0.4262309889" flag="0"/>
      <psa10 value="0.0878787916" flag="0"/>
      <psa30 value="0.0055236988" flag="0"/>
    </comp>
    <comp name="--.HNZ">
      <acc value="0.2488723808" flag="0"/>
      <vel value="0.0557735549" flag="0"/>
      <psa03 value="0.2212377605" flag="0"/>
      <psa10 value="0.0438790607" flag="0"/>
      <psa30 value="0.0017419656" flag="0"/>
    </comp>
    <comp name="--.HNN">
      <acc value="0.3393405646" flag="0"/>
      <vel value="0.0747568059" flag="0"/>
      <psa03 value="0.3980434726" flag="0"/>
      <psa10 value="0.0488626197" flag="0"/>
      <psa30 value="0.0033470311" flag="0"/>
    </comp>
  </station>
  <station code="BYKA" name="BYKA" netid="KO" insttype="SA10" commtype="DIG" lat="40.8738" lon="29.1251">
    <comp name="--.HNN">
      <acc value="0.1120703463" flag="0"/>
      <vel value="0.0324447236" flag="0"/>
      <psa03 value="0.1102141050" flag="0"/>
      <psa10 value="0.0073855730" flag="0"/>
      <psa30 value="0.0005218145" flag="0"/>
    </comp>
    <comp name="--.HNE">
      <acc value="0.0910508003" flag="0"/>
      <vel value="0.0223194110" flag="0"/>
      <psa03 value="0.1215621867" flag="0"/>
      <psa10 value="0.0062883258" flag="0"/>
      <psa30 value="0.0004569151" flag="0"/>
    </comp>
    <comp name="--.HNZ">
      <acc value="0.0507941709" flag="0"/>
      <vel value="0.0143700883" flag="0"/>
      <psa03 value="0.0416077732" flag="0"/>
      <psa10 value="0.0040722555" flag="0"/>
      <psa30 value="0.0005371470" flag="0"/>
    </comp>
  </station>
  <station code="CADB" name="CADB" netid="KO" insttype="SA10" commtype="DIG" lat="40.9534" lon="29.083">
    <comp name="--.HNZ">
      <acc value="0.0870589244" flag="0"/>
      <vel value="0.0109232991" flag="0"/>
      <psa03 value="0.0487513760" flag="0"/>
      <psa10 value="0.0032582223" flag="0"/>
      <psa30 value="0.0003289866" flag="0"/>
    </comp>
    <comp name="--.HNE">
      <acc value="0.2247798223" flag="0"/>
      <vel value="0.0374227497" flag="0"/>
      <psa03 value="0.0633021911" flag="0"/>
      <psa10 value="0.0041465482" flag="0"/>
      <psa30 value="0.0004195250" flag="0"/>
    </comp>
    <comp name="--.HNN">
      <acc value="0.2002313829" flag="0"/>
      <vel value="0.0383248588" flag="0"/>
      <psa03 value="0.0634736899" flag="0"/>
      <psa10 value="0.0065843820" flag="0"/>
      <psa30 value="0.0006131683" flag="0"/>
    </comp>
  </station>
  <station code="CRLU" name="CRLU" netid="KO" insttype="SA10" commtype="DIG" lat="41.1428" lon="27.8215">
    <comp name="--.HNE">
      <acc value="0.0499607584" flag="0"/>
      <vel value="0.0297577243" flag="0"/>
      <psa03 value="0.1432558874" flag="0"/>
      <psa10 value="0.0152516918" flag="0"/>
      <psa30 value="0.0016224258" flag="0"/>
    </comp>
    <comp name="--.HNZ">
      <acc value="0.0422178910" flag="0"/>
      <vel value="0.0096289137" flag="0"/>
      <psa03 value="0.0448247167" flag="0"/>
      <psa10 value="0.0099949403" flag="0"/>
      <psa30 value="0.0006999523" flag="0"/>
    </comp>
    <comp name="--.HNN">
      <acc value="0.0470273612" flag="0"/>
      <vel value="0.0312269594" flag="0"/>
      <psa03 value="0.1085004239" flag="0"/>
      <psa10 value="0.0176676137" flag="0"/>
      <psa30 value="0.0017146848" flag="0"/>
    </comp>
  </station>
  <station code="CTYL" name="CTYL" netid="KO" insttype="CMG-3T" commtype="DIG" lat="41.476" lon="28.2897">
    <comp name="--.HHZ">
      <acc value="0.0484793975" flag="0"/>
      <vel value="0.0120902546" flag="0"/>
      <psa03 value="0.0639132565" flag="0"/>
      <psa10 value="0.0036721974" flag="0"/>
      <psa30 value="0.0002196821" flag="0"/>
    </comp>
    <comp name="--.HHE">
      <acc value="0.0768425139" flag="0"/>
      <vel value="0.0198236570" flag="0"/>
      <psa03 value="0.1066679609" flag="0"/>
      <psa10 value="0.0107418478" flag="0"/>
      <psa30 value="0.0004896508" flag="0"/>
    </comp>
    <comp name="--.HHN">
      <acc value="0.1133982759" flag="0"/>
      <vel value="0.0209423586" flag="0"/>
      <psa03 value="0.1174349386" flag="0"/>
      <psa10 value="0.0080607075" flag="0"/>
      <psa30 value="0.0005197070" flag="0"/>
    </comp>
  </station>
  <station code="CYAG" name="CYAG" netid="KO" insttype="SA10" commtype="DIG" lat="40.4924" lon="27.9761">
    <comp name="--.HNE">
      <acc value="0.0878316806" flag="0"/>
      <vel value="0.0170634803" flag="0"/>
      <psa03 value="0.0453353750" flag="0"/>
      <psa10 value="0.0031630648" flag="0"/>
      <psa30 value="0.0003766289" flag="0"/>
    </comp>
    <comp name="--.HNN">
      <acc value="0.0659396150" flag="0"/>
      <vel value="0.0119369728" flag="0"/>
      <psa03 value="0.0393874685" flag="0"/>
      <psa10 value="0.0037959029" flag="0"/>
      <psa30 value="0.0002999387" flag="0"/>
    </comp>
    <comp name="--.HNZ">
      <acc value="0.0606840928" flag="0"/>
      <vel value="0.0102291880" flag="0"/>
      <psa03 value="0.0186425645" flag="0"/>
      <psa10 value="0.0025638849" flag="0"/>
      <psa30 value="0.0002532446" flag="0"/>
    </comp>
  </station>
  <station code="DEGR" name="DEGR" netid="KO" insttype="SA10" commtype="DIG" lat="40.4518" lon="27.1547">
    <comp name="--.HNE">
      <acc value="0.0771096981" flag="0"/>
      <vel value="0.0312344595" flag="0"/>
      <psa03 value="0.3875163024" flag="0"/>
      <psa10 value="0.0099245290" flag="0"/>
      <psa30 value="0.0007299575" flag="0"/>
    </comp>
    <comp name="--.HNN">
      <acc value="0.0775565144" flag="0"/>
      <vel value="0.0305496951" flag="0"/>
      <psa03 value="0.3244712868" flag="0"/>
      <psa10 value="0.0132921469" flag="0"/>
      <psa30 value="0.0006878603" flag="0"/>
    </comp>
    <comp name="--.HNZ">
      <acc value="0.0223823866" flag="0"/>
      <vel value="0.0119396438" flag="0"/>
      <psa03 value="0.0545631472" flag="0"/>
      <psa10 value="0.0060702559" flag="0"/>
      <psa30 value="0.0004216701" flag="0"/>
    </comp>
  </station>
  <station code="DGNL" name="DGNL" netid="KO" insttype="SA10" commtype="DIG" lat="40.5209" lon="27.7484">
    <comp name="--.HNE">
      <acc value="0.0829183780" flag="0"/>
      <vel value="0.0094126252" flag="0"/>
      <psa03 value="0.0196364053" flag="0"/>
      <psa10 value="0.0035331518" flag="0"/>
      <psa30 value="0.0002242939" flag="0"/>
    </comp>
    <comp name="--.HNN">
      <acc value="0.0896831110" flag="0"/>
      <vel value="0.0100497823" flag="0"/>
      <psa03 value="0.0363245878" flag="0"/>
      <psa10 value="0.0061933846" flag="0"/>
      <psa30 value="0.0003942849" flag="0"/>
    </comp>
    <comp name="--.HNZ">
      <acc value="0.0370065574" flag="0"/>
      <vel value="0.0047237588" flag="0"/>
      <psa03 value="0.0236999177" flag="0"/>
      <psa10 value="0.0021772816" flag="0"/>
      <psa30 value="0.0002647394" flag="0"/>
    </comp>
  </station>
  <station code="EDC" name="EDC" netid="KO" insttype="CMG-3T" commtype="DIG" lat="40.3465" lon="27.8618">
    <comp name="--.HHE">
      <acc value="0.0458756945" flag="0"/>
      <vel value="0.0142113930" flag="0"/>
      <psa03 value="0.0492242005" flag="0"/>
      <psa10 value="0.0081723238" flag="0"/>
      <psa30 value="0.0004155339" flag="0"/>
    </comp>
    <comp name="--.HHN">
      <acc value="0.0826262769" flag="0"/>
      <vel value="0.0170799300" flag="0"/>
      <psa03 value="0.1354654438" flag="0"/>
      <psa10 value="0.0075941694" flag="0"/>
      <psa30 value="0.0005555785" flag="0"/>
    </comp>
    <comp name="--.HHZ">
      <acc value="0.0244567300" flag="0"/>
      <vel value="0.0065938735" flag="0"/>
      <psa03 value="0.0235552428" flag="0"/>
      <psa10 value="0.0036323247" flag="0"/>
      <psa30 value="0.0001883066" flag="0"/>
    </comp>
  </station>
  <station code="ESKY" name="ESKY" netid="KO" insttype="CMG-5T" commtype="DIG" lat="40.5918" lon="28.9071">
    <comp name="--.HNN">
      <acc value="0.0891822564" flag="0"/>
      <vel value="0.0347008132" flag="0"/>
      <psa03 value="0.1615933423" flag="0"/>
      <psa10 value="0.0369912836" flag="0"/>
      <psa30 value="0.0015229231" flag="0"/>
    </comp>
    <comp name="--.HNZ">
      <acc value="0.0669605982" flag="0"/>
      <vel value="0.0176660047" flag="0"/>
      <psa03 value="0.1025143949" flag="0"/>
      <psa10 value="0.0232769831" flag="0"/>
      <psa30 value="0.0010733433" flag="0"/>
    </comp>
    <comp name="--.HNE">
      <acc value="0.0525236822" flag="0"/>
      <vel value="0.0258157288" flag="0"/>
      <psa03 value="0.1328300930" flag="0"/>
      <psa10 value="0.0248355943" flag="0"/>
      <psa30 value="0.0013696239" flag="0"/>
    </comp>
  </station>
  <station code="ESNS" name="ESNS" netid="KO" insttype="SA10" commtype="DIG" lat="40.6183" lon="28.9532">
    <comp name="--.HNN">
      <acc value="0.0963381475" flag="0"/>
      <vel value="0.0473163913" flag="0"/>
      <psa03 value="0.2419572583" flag="0"/>
      <psa10 value="0.0337926428" flag="0"/>
      <psa30 value="0.0022216893" flag="0"/>
    </comp>
    <comp name="--.HNZ">
      <acc value="0.0707984084" flag="0"/>
      <vel value="0.0231110372" flag="0"/>
      <psa03 value="0.2315146807" flag="0"/>
      <psa10 value="0.0074860493" flag="0"/>
      <psa30 value="0.0005643571" flag="0"/>
    </comp>
    <comp name="--.HNE">
      <acc value="0.0869412540" flag="0"/>
      <vel value="0.0484783297" flag="0"/>
      <psa03 value="0.2049814210" flag="0"/>
      <psa10 value="0.0312605425" flag="0"/>
      <psa30 value="0.0018882073" flag="0"/>
    </comp>
  </station>
  <station code="GAZK" name="GAZK" netid="KO" insttype="CMG-6T" commtype="DIG" lat="40.7479" lon="27.3275">
    <comp name="--.HHN">
      <acc value="0.0576261038" flag="0"/>
      <vel value="0.0156206368" flag="0"/>
      <psa03 value="0.0794588928" flag="0"/>
      <psa10 value="0.0079492205" flag="0"/>
      <psa30 value="0.0004483295" flag="0"/>
    </comp>
    <comp name="--.HHE">
      <acc value="0.0538861529" flag="0"/>
      <vel value="0.0144558085" flag="0"/>
      <psa03 value="0.0808862962" flag="0"/>
      <psa10 value="0.0053726028" flag="0"/>
      <psa30 value="0.0003638642" flag="0"/>
    </comp>
    <comp name="--.HHZ">
      <acc value="0.0467307868" flag="0"/>
      <vel value="0.0098635881" flag="0"/>
      <psa03 value="0.0470043184" flag="0"/>
      <psa10 value="0.0041630414" flag="0"/>
      <psa30 value="0.0003059540" flag="0"/>
    </comp>
  </station>
  <station code="GEML" name="GEML" netid="KO" insttype="CMG-3T" commtype="DIG" lat="40.4646" lon="29.2116">
    <comp name="--.HHN">
      <acc value="0.0906957999" flag="0"/>
      <vel value="0.0213528301" flag="0"/>
      <psa03 value="0.0813363603" flag="0"/>
      <psa10 value="0.0139417292" flag="0"/>
      <psa30 value="0.0005933477" flag="0"/>
    </comp>
    <comp name="--.HHZ">
      <acc value="0.0888181604" flag="0"/>
      <vel value="0.0140399390" flag="0"/>
      <psa03 value="0.0474727000" flag="0"/>
      <psa10 value="0.0029049019" flag="0"/>
      <psa30 value="0.0002518118" flag="0"/>
    </comp>
    <comp name="--.HHE">
      <acc value="0.1442743231" flag="0"/>
      <vel value="0.0251131933" flag="0"/>
      <psa03 value="0.1209033473" flag="0"/>
      <psa10 value="0.0083576256" flag="0"/>
      <psa30 value="0.0004291884" flag="0"/>
    </comp>
  </station>
  <station code="GEMS" name="GEMS" netid="KO" insttype="SA10" commtype="DIG" lat="40.4231" lon="29.1526">
    <comp name="--.HNE">
      <acc value="0.1356763026" flag="0"/>
      <vel value="0.0439387611" flag="0"/>
      <psa03 value="0.3436862226" flag="0"/>
      <psa10 value="0.0096501292" flag="0"/>
      <psa30 value="0.0038573388" flag="0"/>
    </comp>
    <comp name="--.HNN">
      <acc value="0.0664188963" flag="0"/>
      <vel value="0.0147240724" flag="0"/>
      <psa03 value="0.0814087883" flag="0"/>
      <psa10 value="0.0062415290" flag="0"/>
      <psa30 value="0.0005555897" flag="0"/>
    </comp>
    <comp name="--.HNZ">
      <acc value="0.0495945288" flag="0"/>
      <vel value="0.0104219702" flag="0"/>
      <psa03 value="0.0435098173" flag="0"/>
      <psa10 value="0.0064955678" flag="0"/>
      <psa30 value="0.0003319939" flag="0"/>
    </comp>
  </station>
