<?xml version="1.0" encoding="UTF-8" standalone="yes"?>
<!DOCTYPE earthquake SYSTEM "stationlist.dtd">
<stationlist created="" xmlns="ch.ethz.sed.shakemap.usgs.xml">
  <station code="ARMT" name="ARMT" netid="KO" insttype="CMG-5T" commtype="DIG" lat="40.5683" lon="28.866">
    <comp name="--.HNN">
      <acc value="0.0948206008" flag="0"/>
      <vel value="0.0165758084" flag="0"/>
      <psa03 value="0.0599150949" flag="0"/>
      <psa10 value="0.0154598276" flag="0"/>
      <psa30 value="0.0008108101" flag="0"/>
    </comp>
    <comp name="--.HNE">
      <acc value="0.0603145747" flag="0"/>
      <vel value="0.0194767097" flag="0"/>
      <psa03 value="0.0628856359" flag="0"/>
      <psa10 value="0.0089206753" flag="0"/>
      <psa30 value="0.0007295840" flag="0"/>
    </comp>
    <comp name="--.HNZ">
      <acc value="0.0435899193" flag="0"/>
      <vel value="0.0074597256" flag="0"/>
      <psa03 value="0.0303526818" flag="0"/>
      <psa10 value="0.0033866447" flag="0"/>
      <psa30 value="0.0002196475" flag="0"/>
    </comp>
  </station>
  <station code="ARMU" name="ARMU" netid="KO" insttype="SA10" commtype="DIG" lat="40.5088" lon="28.838">
    <comp name="--.HNN">
      <acc value="0.1058359134" flag="0"/>
      <vel value="0.0319114049" flag="0"/>
      <psa03 value="0.1811194346" flag="0"/>
      <psa10 value="0.0150670572" flag="0"/>
      <psa30 value="0.0014490081" flag="0"/>
    </comp>
    <comp name="--.HNE">
      <acc value="0.1138587485" flag="0"/>
      <vel value="0.0366158316" flag="0"/>
      <psa03 value="0.3075491598" flag="0"/>
      <psa10 value="0.0078867495" flag="0"/>
      <psa30 value="0.0007957492" flag="0"/>
    </comp>
    <comp name="--.HNZ">
      <acc value="0.0717848482" flag="0"/>
      <vel value="0.0086128109" flag="0"/>
      <psa03 value="0.0375470910" flag="0"/>
      <psa10 value="0.0038540204" flag="0"/>
      <psa30 value="0.0002041861" flag="0"/>
    </comp>
  </station>
  <station code="ATAM" name="ATAM" netid="KO" insttype="SA10" commtype="DIG" lat="40.9688" lon="28.875">
    <comp name="--.HNN">
      <acc value="0.1035039620" flag="0"/>
      <vel value="0.0574056671" flag="0"/>
      <psa03 value="0.1918512936" flag="0"/>
      <psa10 value="0.0155933424" flag="0"/>
      <psa30 value="0.0019581965" flag="0"/>
    </comp>
    <comp name="--.HNE">
      <acc value="0.1186526411" flag="0"/>
      <vel value="0.0390993234" flag="0"/>
      <psa03 value="0.3050953620" flag="0"/>
      <psa10 value="0.0193820725" flag="0"/>
      <psa30 value="0.0015751475" flag="0"/>
    </comp>
    <comp name="--.HNZ">
      <acc value="0.3113954663" flag="0"/>
      <vel value="0.0812970082" flag="0"/>
      <psa03 value="0.2086328036" flag="0"/>
      <psa10 value="0.0124083864" flag="0"/>
      <psa30 value="0.0015569472" flag="0"/>
    </comp>
  </station>
  <station code="BGKT" name="BGKT" netid="KO" insttype="CMG-3ESP" commtype="DIG" lat="41.181" lon="28.773">
    <comp name="--.HHE">
      <acc value="0.3302269543" flag="0"/>
      <vel value="0.0274331382" flag="0"/>
      <psa03 value="0.1149315831" flag="0"/>
      <psa10 value="0.0122022153" flag="0"/>
      <psa30 value="0.0009146324" flag="0"/>
    </comp>
    <comp name="--.HHN">
      <acc value="0.1415351275" flag="0"/>
      <vel value="0.0175721237" flag="0"/>
      <psa03 value="0.1006708100" flag="0"/>
      <psa10 value="0.0053628264" flag="0"/>
      <psa30 value="0.0005127746" flag="0"/>
    </comp>
    <comp name="--.HHZ">
      <acc value="0.0661464544" flag="0"/>
      <vel value="0.0133859506" flag="0"/>
      <psa03 value="0.0905994401" flag="0"/>
      <psa10 value="0.0066482649" flag="0"/>
      <psa30 value="0.0004745780" flag="0"/>
    </comp>
  </station>
  <station code="BIGA" name="BIGA" netid="KO" insttype="CMG-5T" commtype="DIG" lat="40.2813" lon="27.1505">
    <comp name="--.HNE">
      <acc value="0.0471181891" flag="0"/>
      <vel value="0.0115974269" flag="0"/>
      <psa03 value="0.0454952067" flag="0"/>
      <psa10 value="0.0053112013" flag="0"/>
      <psa30 value="0.0003153438" flag="0"/>
    </comp>
    <comp name="--.HNN">
      <acc value="0.0442129118" flag="0"/>
      <vel value="0.0120218729" flag="0"/>
      <psa03 value="0.0895567958" flag="0"/>
      <psa10 value="0.0050405131" flag="0"/>
      <psa30 value="0.0006252366" flag="0"/>
    </comp>
    <comp name="--.HNZ">
      <acc value="0.0320579452" flag="0"/>
      <vel value="0.0071854768" flag="0"/>
      <psa03 value="0.0251973504" flag="0"/>
      <psa10 value="0.0030226782" flag="0"/>
      <psa30 value="0.0003161414" flag="0"/>
    </comp>
  </station>
  <station code="BOTS" name="BOTS" netid="KO" insttype="CMG-6T" commtype="DIG" lat="40.9902" lon="27.981">
    <comp name="--.HHE">
      <acc value="0.0611759825" flag="0"/>
      <vel value="0.0278681035" flag="0"/>
      <psa03 value="0.1153856843" flag="0"/>
      <psa10 value="0.0104805097" flag="0"/>
      <psa30 value="0.0010341396" flag="0"/>
    </comp>
    <comp name="--.HHN">
      <acc value="0.0774361888" flag="0"/>
      <vel value="0.0530741280" flag="0"/>
      <psa03 value="0.1376518098" flag="0"/>
      <psa10 value="0.0312142779" flag="0"/>
      <psa30 value="0.0026580505" flag="0"/>
    </comp>
    <comp name="--.HHZ">
      <acc value="0.0529146297" flag="0"/>
      <vel value="0.0092804013" flag="0"/>
      <psa03 value="0.0689990106" flag="0"/>
      <psa10 value="0.0049701071" flag="0"/>
      <psa30 value="0.0003397202" flag="0"/>
    </comp>
  </station>
  <station code="BRGA" name="BRGA" netid="KO" insttype="CMG-5T" commtype="DIG" lat="40.8846" lon="29.065">
    <comp name="--.HNE">
      <acc value="0.0925283015" flag="0"/>
      <vel value="0.0254094433" flag="0"/>
      <psa03 value="0.0757117249" flag="0"/>
      <psa10 value="0.0100779653" flag="0"/>
      <psa30 value="0.0005797070" flag="0"/>
    </comp>
    <comp name="--.HNN">
      <acc value="0.1121967828" flag="0"/>
      <vel value="0.0209703499" flag="0"/>
      <psa03 value="0.0810937284" flag="0"/>
      <psa10 value="0.0085422286" flag="0"/>
      <psa30 value="0.0007061051" flag="0"/>
    </comp>
    <comp name="--.HNZ">
      <acc value="0.0940924088" flag="0"/>
      <vel value="0.0261827012" flag="0"/>
      <psa03 value="0.1147844339" flag="0"/>
      <psa10 value="0.0073629391" flag="0"/>
      <psa30 value="0.0005612354" flag="0"/>
    </comp>
  </station>
  <station code="BUYA" name="BUYA" netid="KO" insttype="CMG-5T" commtype="DIG" lat="40.8694" lon="29.1278">
    <comp name="--.HNN">
      <acc value="0.0784348023" flag="0"/>
      <vel value="0.0181609056" flag="0"/>
      <psa03 value="0.0833809680" flag="0"/>
      <psa10 value="0.0055842573" flag="0"/>
      <psa30 value="0.0003762731" flag="0"/>
    </comp>
    <comp name="--.HNZ">
      <acc value="0.0668452554" flag="0"/>
      <vel value="0.0149626398" flag="0"/>
      <psa03 value="0.0611534839" flag="0"/>
      <psa10 value="0.0044792419" flag="0"/>
      <psa30 value="0.0003492710" flag="0"/>
    </comp>
  </station>
  <station code="BUYK" name="BUYK" netid="KO" insttype="SA10" commtype="DIG" lat="41.0168" lon="28.5828">
    <comp name="--.HNE">
      <acc value="0.2280517458" flag="0"/>
      <vel value="0.1089643691" flag="0"/>
      <psa03 value="0.4262309889" flag="0"/>
      <psa10 value="0.0878786871" flag="0"/>
      <psa30 value="0.0055217356" flag="0"/>
    </comp>
    <comp name="--.HNN">
      <acc value="0.3393405655" flag="0"/>
      <vel value="0.0747568017" flag="0"/>
      <psa03 value="0.3980434726" flag="0"/>
      <psa10 value="0.0488626208" flag="0"/>
      <psa30 value="0.0033468732" flag="0"/>
    </comp>
    <comp name="--.HNZ">
      <acc value="0.2488723833" flag="0"/>
      <vel value="0.0557735520" flag="0"/>
      <psa03 value="0.2212377605" flag="0"/>
      <psa10 value="0.0438790732" flag="0"/>
      <psa30 value="0.0017436531" flag="0"/>
    </comp>
  </station>
  <station code="BYKA" name="BYKA" netid="KO" insttype="SA10" commtype="DIG" lat="40.8738" lon="29.1251">
    <comp name="--.HNE">
      <acc value="0.0910508008" flag="0"/>
      <vel value="0.0223194089" flag="0"/>
      <psa03 value="0.1215621867" flag="0"/>
      <psa10 value="0.0062883279" flag="0"/>
      <psa30 value="0.0004565893" flag="0"/>
    </comp>
    <comp name="--.HNZ">
      <acc value="0.0507941715" flag="0"/>
      <vel value="0.0143700871" flag="0"/>
      <psa03 value="0.0416077732" flag="0"/>
      <psa10 value="0.0040722855" flag="0"/>
      <psa30 value="0.0005371570" flag="0"/>
    </comp>
    <comp name="--.HNN">
      <acc value="0.1120703468" flag="0"/>
      <vel value="0.0324447242" flag="0"/>
      <psa03 value="0.1102141050" flag="0"/>
      <psa10 value="0.0073855715" flag="0"/>
      <psa30 value="0.0005210964" flag="0"/>
    </comp>
  </station>
  <station code="CADB" name="CADB" netid="KO" insttype="SA10" commtype="DIG" lat="40.9534" lon="29.083">
    <comp name="--.HNE">
      <acc value="0.2247798218" flag="0"/>
      <vel value="0.0374227517" flag="0"/>
      <psa03 value="0.0633021911" flag="0"/>
      <psa10 value="0.0041465430" flag="0"/>
      <psa30 value="0.0004199490" flag="0"/>
    </comp>
    <comp name="--.HNN">
      <acc value="0.2002313830" flag="0"/>
      <vel value="0.0383248492" flag="0"/>
      <psa03 value="0.0634736899" flag="0"/>
      <psa10 value="0.0065843829" flag="0"/>
      <psa30 value="0.0006125328" flag="0"/>
    </comp>
    <comp name="--.HNZ">
      <acc value="0.0870589252" flag="0"/>
      <vel value="0.0109232971" flag="0"/>
      <psa03 value="0.0487513761" flag="0"/>
      <psa10 value="0.0032582235" flag="0"/>
      <psa30 value="0.0003311948" flag="0"/>
    </comp>
  </station>
  <station code="CRLU" name="CRLU" netid="KO" insttype="SA10" commtype="DIG" lat="41.1428" lon="27.8215">
    <comp name="--.HNE">
      <acc value="0.0499607590" flag="0"/>
      <vel value="0.0297577257" flag="0"/>
      <psa03 value="0.1432558874" flag="0"/>
      <psa10 value="0.0152516912" flag="0"/>
      <psa30 value="0.0016225827" flag="0"/>
    </comp>
    <comp name="--.HNN">
      <acc value="0.0470273612" flag="0"/>
      <vel value="0.0312269596" flag="0"/>
      <psa03 value="0.1085004239" flag="0"/>
      <psa10 value="0.0176676152" flag="0"/>
      <psa30 value="0.0017146735" flag="0"/>
    </comp>
    <comp name="--.HNZ">
      <acc value="0.0422178908" flag="0"/>
      <vel value="0.0096289128" flag="0"/>
      <psa03 value="0.0448247167" flag="0"/>
      <psa10 value="0.0099949402" flag="0"/>
      <psa30 value="0.0006998600" flag="0"/>
    </comp>
  </station>
  <station code="CTYL" name="CTYL" netid="KO" insttype="CMG-3T" commtype="DIG" lat="41.476" lon="28.2897">
    <comp name="--.HHE">
      <acc value="0.0768425138" flag="0"/>
      <vel value="0.0198236568" flag="0"/>
      <psa03 value="0.1066679609" flag="0"/>
      <psa10 value="0.0107418478" flag="0"/>
      <psa30 value="0.0004896278" flag="0"/>
    </comp>
    <comp name="--.HHN">
      <acc value="0.1133982760" flag="0"/>
      <vel value="0.0209423586" flag="0"/>
      <psa03 value="0.1174349386" flag="0"/>
      <psa10 value="0.0080607077" flag="0"/>
      <psa30 value="0.0005196850" flag="0"/>
    </comp>
    <comp name="--.HHZ">
      <acc value="0.0484793975" flag="0"/>
      <vel value="0.0120902547" flag="0"/>
      <psa03 value="0.0639132565" flag="0"/>
      <psa10 value="0.0036721975" flag="0"/>
      <psa30 value="0.0002196755" flag="0"/>
    </comp>
  </station>
  <station code="CYAG" name="CYAG" netid="KO" insttype="SA10" commtype="DIG" lat="40.4924" lon="27.9761">
    <comp name="--.HNZ">
      <acc value="0.0606840930" flag="0"/>
      <vel value="0.0102291862" flag="0"/>
      <psa03 value="0.0186425645" flag="0"/>
      <psa10 value="0.0025638857" flag="0"/>
      <psa30 value="0.0002507593" flag="0"/>
    </comp>
    <comp name="--.HNN">
      <acc value="0.0659396152" flag="0"/>
      <vel value="0.0119369731" flag="0"/>
      <psa03 value="0.0393874685" flag="0"/>
      <psa10 value="0.0037959029" flag="0"/>
      <psa30 value="0.0002998661" flag="0"/>
    </comp>
    <comp name="--.HNE">
      <acc value="0.0878316802" flag="0"/>
      <vel value="0.0170634808" flag="0"/>
      <psa03 value="0.0453353750" flag="0"/>
      <psa10 value="0.0031630635" flag="0"/>
      <psa30 value="0.0003770478" flag="0"/>
    </comp>
  </station>
  <station code="DEGR" name="DEGR" netid="KO" insttype="SA10" commtype="DIG" lat="40.4518" lon="27.1547">
    <comp name="--.HNE">
      <acc value="0.0771096981" flag="0"/>
      <vel value="0.0312344593" flag="0"/>
      <psa03 value="0.3875163024" flag="0"/>
      <psa10 value="0.0099245290" flag="0"/>
      <psa30 value="0.0007299894" flag="0"/>
    </comp>
    <comp name="--.HNN">
      <acc value="0.0775565144" flag="0"/>
      <vel value="0.0305496949" flag="0"/>
      <psa03 value="0.3244712868" flag="0"/>
      <psa10 value="0.0132921469" flag="0"/>
      <psa30 value="0.0006878512" flag="0"/>
    </comp>
    <comp name="--.HNZ">
      <acc value="0.0223823866" flag="0"/>
      <vel value="0.0119396431" flag="0"/>
      <psa03 value="0.0545631472" flag="0"/>
      <psa10 value="0.0060702558" flag="0"/>
      <psa30 value="0.0004218801" flag="0"/>
    </comp>
  </station>
  <station code="DGNL" name="DGNL" netid="KO" insttype="SA10" commtype="DIG" lat="40.5209" lon="27.7484">
    <comp name="--.HNE">
      <acc value="0.0829183785" flag="0"/>
      <vel value="0.0094126247" flag="0"/>
      <psa03 value="0.0196364053" flag="0"/>
      <psa10 value="0.0035331531" flag="0"/>
      <psa30 value="0.0002247133" flag="0"/>
    </comp>
    <comp name="--.HNZ">
      <acc value="0.0370065583" flag="0"/>
      <vel value="0.0047237592" flag="0"/>
      <psa03 value="0.0236999177" flag="0"/>
      <psa10 value="0.0021772816" flag="0"/>
      <psa30 value="0.0002648573" flag="0"/>
    </comp>
    <comp name="--.HNN">
      <acc value="0.0896831117" flag="0"/>
      <vel value="0.0100497826" flag="0"/>
      <psa03 value="0.0363245878" flag="0"/>
      <psa10 value="0.0061933851" flag="0"/>
      <psa30 value="0.0003943281" flag="0"/>
    </comp>
  </station>
  <station code="EDC" name="EDC" netid="KO" insttype="CMG-3T" commtype="DIG" lat="40.3465" lon="27.8618">
    <comp name="--.HHN">
      <acc value="0.0826262770" flag="0"/>
      <vel value="0.0170799300" flag="0"/>
      <psa03 value="0.1354654438" flag="0"/>
      <psa10 value="0.0075941694" flag="0"/>
      <psa30 value="0.0005555750" flag="0"/>
    </comp>
    <comp name="--.HHZ">
      <acc value="0.0244567301" flag="0"/>
      <vel value="0.0065938736" flag="0"/>
      <psa03 value="0.0235552428" flag="0"/>
      <psa10 value="0.0036323247" flag="0"/>
      <psa30 value="0.0001883109" flag="0"/>
    </comp>
    <comp name="--.HHE">
      <acc value="0.0458756945" flag="0"/>
      <vel value="0.0142113931" flag="0"/>
      <psa03 value="0.0492242005" flag="0"/>
      <psa10 value="0.0081723238" flag="0"/>
      <psa30 value="0.0004155362" flag="0"/>
    </comp>
  </station>
  <station code="ESKY" name="ESKY" netid="KO" insttype="CMG-5T" commtype="DIG" lat="40.5918" lon="28.9071">
    <comp name="--.HNE">
      <acc value="0.0525235494" flag="0"/>
      <vel value="0.0258157325" flag="0"/>
      <psa03 value="0.1328300930" flag="0"/>
      <psa10 value="0.0248355942" flag="0"/>
      <psa30 value="0.0013686087" flag="0"/>
    </comp>
    <comp name="--.HNN">
      <acc value="0.0891816293" flag="0"/>
      <vel value="0.0347008215" flag="0"/>
      <psa03 value="0.1615933423" flag="0"/>
      <psa10 value="0.0369912871" flag="0"/>
      <psa30 value="0.0015228819" flag="0"/>
    </comp>
    <comp name="--.HNZ">
      <acc value="0.0669610152" flag="0"/>
      <vel value="0.0176660049" flag="0"/>
      <psa03 value="0.1025143949" flag="0"/>
      <psa10 value="0.0232769836" flag="0"/>
      <psa30 value="0.0010743231" flag="0"/>
    </comp>
  </station>
  <station code="ESNS" name="ESNS" netid="KO" insttype="SA10" commtype="DIG" lat="40.6183" lon="28.9532">
    <comp name="--.HNE">
      <acc value="0.0869412529" flag="0"/>
      <vel value="0.0484783310" flag="0"/>
      <psa03 value="0.2049814210" flag="0"/>
      <psa10 value="0.0312605417" flag="0"/>
      <psa30 value="0.0018884146" flag="0"/>
    </comp>
    <comp name="--.HNZ">
      <acc value="0.0707984088" flag="0"/>
      <vel value="0.0231110367" flag="0"/>
      <psa03 value="0.2315146807" flag="0"/>
      <psa10 value="0.0074860491" flag="0"/>
      <psa30 value="0.0005663874" flag="0"/>
    </comp>
    <comp name="--.HNN">
      <acc value="0.0963381477" flag="0"/>
      <vel value="0.0473163903" flag="0"/>
      <psa03 value="0.2419572583" flag="0"/>
      <psa10 value="0.0337926391" flag="0"/>
      <psa30 value="0.0022230599" flag="0"/>
    </comp>
  </station>
  <station code="GAZK" name="GAZK" netid="KO" insttype="CMG-6T" commtype="DIG" lat="40.7479" lon="27.3275">
    <comp name="--.HHE">
      <acc value="0.0538861516" flag="0"/>
      <vel value="0.0144558065" flag="0"/>
      <psa03 value="0.0808862962" flag="0"/>
      <psa10 value="0.0053726028" flag="0"/>
      <psa30 value="0.0003638723" flag="0"/>
    </comp>
    <comp name="--.HHN">
      <acc value="0.0576261047" flag="0"/>
      <vel value="0.0156206380" flag="0"/>
      <psa03 value="0.0794588928" flag="0"/>
      <psa10 value="0.0079492205" flag="0"/>
      <psa30 value="0.0004483199" flag="0"/>
    </comp>
    <comp name="--.HHZ">
      <acc value="0.0467307885" flag="0"/>
      <vel value="0.0098635872" flag="0"/>
      <psa03 value="0.0470043184" flag="0"/>
      <psa10 value="0.0041630414" flag="0"/>
      <psa30 value="0.0003059577" flag="0"/>
    </comp>
  </station>
  <station code="GEML" name="GEML" netid="KO" insttype="CMG-3T" commtype="DIG" lat="40.4646" lon="29.2116">
    <comp name="--.HHE">
      <acc value="0.1442743231" flag="0"/>
      <vel value="0.0251131933" flag="0"/>
      <psa03 value="0.1209033473" flag="0"/>
      <psa10 value="0.0083576256" flag="0"/>
      <psa30 value="0.0004291824" flag="0"/>
    </comp>
    <comp name="--.HHN">
      <acc value="0.0906957998" flag="0"/>
      <vel value="0.0213528299" flag="0"/>
      <psa03 value="0.0813363603" flag="0"/>
      <psa10 value="0.0139417292" flag="0"/>
      <psa30 value="0.0005933521" flag="0"/>
    </comp>
    <comp name="--.HHZ">
      <acc value="0.0888181604" flag="0"/>
      <vel value="0.0140399391" flag="0"/>
      <psa03 value="0.0474727000" flag="0"/>
      <psa10 value="0.0029049018" flag="0"/>
      <psa30 value="0.0002518307" flag="0"/>
    </comp>
  </station>
  <station code="GEMS" name="GEMS" netid="KO" insttype="SA10" commtype="DIG" lat="40.4231" lon="29.1526">
    <comp name="--.HNE">
      <acc value="0.1356763038" flag="0"/>
      <vel value="0.0439387632" flag="0"/>
      <psa03 value="0.3436862226" flag="0"/>
      <psa10 value="0.0096501295" flag="0"/>
      <psa30 value="0.0038568338" flag="0"/>
    </comp>
    <comp name="--.HNN">
      <acc value="0.0664188962" flag="0"/>
      <vel value="0.0147240746" flag="0"/>
      <psa03 value="0.0814087883" flag="0"/>
      <psa10 value="0.0062415292" flag="0"/>
      <psa30 value="0.0005571717" flag="0"/>
    </comp>
    <comp name="--.HNZ">
      <acc value="0.0495945281" flag="0"/>
      <vel value="0.0104219710" flag="0"/>
      <psa03 value="0.0435098173" flag="0"/>
      <psa10 value="0.0064955673" flag="0"/>
      <psa30 value="0.0003296330" flag="0"/>
    </comp>
  </station>
  <station code="GONE" name="GONE" netid="KO" insttype="CMG-5T" commtype="DIG" lat="40.0466" lon="27.686">
    <comp name="--.HNE">
      <acc value="0.0304535451" flag="0"/>
      <vel value="0.0122473165" flag="0"/>
      <psa03 value="0.0357874234" flag="0"/>
      <psa10 value="0.0138446778" flag="0"/>
      <psa30 value="0.0007489843" flag="0"/>
    </comp>
    <comp name="--.HNZ">
      <acc value="0.0249822985" flag="0"/>
